{"geometry": {"coordinates": [-96.9924505, 28.82872], "type": "Point"}, "id": "XqnkOco0010M3cqcSdo2likiXLs=", "properties": {"@spider": "usps_collection_boxes", "addr:city": "VICTORIA", "addr:country": "US", "addr:full": "1302 E CRESTWOOD DR", "addr:postcode": "77901", "addr:state": "TX", "brand": "USPS", "collection_times": "Mo-Sa 14:00", "name": "USPS COLLECTION BOX - BLUE BOX", "note": "ON 12/24 AND 12/31, THIS BOX MAY BE COLLECTED AS EARLY AS 12 NOON.", "ref": "7790100004"}, "type": "Feature"}
{"geometry": {"coordinates": [-96.9782108, 28.816809], "type": "Point"}, "id": "CBGoHKVWSumFe8u1X0S5ChLwfb8=", "properties": {"@spider": "usps_collection_boxes", "addr:city": "VICTORIA", "addr:country": "US", "addr:full": "2302 E RED RIVER ST", "addr:postcode": "77901", "addr:state": "TX", "brand": "USPS", "collection_times": "Mo-Fr 15:00", "name": "USPS COLLECTION BOX - BLUE BOX", "note": "ON 12/24 AND 12/31, THIS BOX MAY BE COLLECTED AS EARLY AS 12 NOON.", "ref": "7790100011"}, "type": "Feature"}
{"geometry": {"coordinates": [-96.9984616, 28.807682], "type": "Point"}, "id": "wdH5srjSQhgQrOW_0n6yJJv-NzM=", "properties": {"@spider": "usps_collection_boxes", "addr:city": "VICTORIA", "addr:country": "US", "addr:full": "600 E SAN ANTONIO ST", "addr:postcode": "77901", "addr:state": "TX", "brand": "USPS", "collection_times": "Mo-Fr 16:00", "name": "USPS COLLECTION BOX - BLUE BOX", "note": "ON 12/24 AND 12/31, THIS BOX MAY BE COLLECTED AS EARLY AS 12 NOON.", "ref": "7790100014"}, "type": "Feature"}
{"geometry": {"coordinates": [-96.9767524, 28.813459], "type": "Point"}, "id": "uUm1JvXiIYDj7nGKb5s5uUaAkA4=", "properties": {"@spider": "usps_collection_boxes", "addr:city": "VICTORIA", "addr:country": "US", "addr:full": "2710 HOSPITAL DR", "addr:postcode": "77901", "addr:state": "TX", "brand": "USPS", "collection_times": "Mo-Fr 15:00", "name": "USPS COLLECTION BOX - BLUE BOX", "note": "ON 12/24 AND 12/31, THIS BOX MAY BE COLLECTED AS EARLY AS 12 NOON.", "ref": "7790100016"}, "type": "Feature"}
{"geometry": {"coordinates": [-96.9791161, 28.816173], "type": "Point"}, "id": "ArPIuI7u2hpdFqUhvyHaU016DLY=", "properties": {"@spider": "usps_collection_boxes", "addr:city": "VICTORIA", "addr:country": "US", "addr:full": "2200 E RED RIVER ST", "addr:postcode": "77901", "addr:state": "TX", "brand": "USPS", "collection_times": "Mo-Fr 15:00", "name": "USPS COLLECTION BOX - BLUE BOX", "note": "ON 12/24 AND 12/31, THIS BOX MAY BE COLLECTED AS EARLY AS 12 NOON.", "ref": "7790100024"}, "type": "Feature"}
{"geometry": {"coordinates": [-96.9813846, 28.799295], "type": "Point"}, "id": "QZyVmIUtAS2oOxg3rUhq7bKyYFg=", "properties": {"@spider": "usps_collection_boxes", "addr:city": "VICTORIA", "addr:country": "US", "addr:full": "2103 LONE TREE RD", "addr:postcode": "77901", "addr:state": "TX", "brand": "USPS", "collection_times": "Mo-Fr 16:00", "name": "USPS COLLECTION BOX - BLUE BOX", "note": "ON 12/24 AND 12/31, THIS BOX MAY BE COLLECTED AS EARLY AS 12 NOON.", "ref": "7790100025"}, "type": "Feature"}
{"geometry": {"coordinates": [-96.9927149, 28.833638], "type": "Point"}, "id": "l_DePwJw4g1u370vNweYzZwC4qY=", "properties": {"@spider": "usps_collection_boxes", "addr:city": "VICTORIA", "addr:country": "US", "addr:full": "4402 N LAURENT ST", "addr:postcode": "77901", "addr:state": "TX", "brand": "USPS", "collection_times": "Mo-Sa 14:00", "name": "USPS COLLECTION BOX - BLUE BOX", "note": "ON 12/24 AND 12/31, THIS BOX MAY BE COLLECTED AS EARLY AS 12 NOON.", "ref": "7790100030"}, "type": "Feature"}
{"geometry": {"coordinates": [-97.0047799, 28.80207], "type": "Point"}, "id": "jM-CHC0vzIKgZhV3UeH3mV8kVxU=", "properties": {"@spider": "usps_collection_boxes", "addr:city": "VICTORIA", "addr:country": "US", "addr:full": "406 N MAIN ST", "addr:postcode": "77901", "addr:state": "TX", "brand": "USPS", "collection_times": "Mo-Fr 16:30", "name": "USPS COLLECTION BOX - BLUE BOX", "note": "ON 12/24 AND 12/31, THIS BOX MAY BE COLLECTED AS EARLY AS 12 NOON.", "ref": "7790100032"}, "type": "Feature"}
{"geometry": {"coordinates": [-97.0005922929, 28.821469642], "type": "Point"}, "id": "_EMbbEENigynxVNYHLwsPd5C9_Y=", "properties": {"@spider": "usps_collection_boxes", "addr:city": "VICTORIA", "addr:country": "US", "addr:full": "2805 N NAVARRO ST", "addr:postcode": "77901", "addr:state": "TX", "brand": "USPS", "collection_times": "Mo-Fr 16:30", "name": "USPS COLLECTION BOX - BLUE BOX", "note": "ON 12/24 AND 12/31, THIS BOX MAY BE COLLECTED AS EARLY AS 12 NOON.", "ref": "7790100033"}, "type": "Feature"}
{"geometry": {"coordinates": [-96.9876354, 28.81192], "type": "Point"}, "id": "c_wZjvmOsugkwM1F5T3eoDnDDjY=", "properties": {"@spider": "usps_collection_boxes", "addr:city": "VICTORIA", "addr:country": "US", "addr:full": "1910 COMMERCE ST", "addr:postcode": "77901", "addr:state": "TX", "brand": "USPS", "collection_times": "Mo-Fr 16:00", "name": "USPS COLLECTION BOX - BLUE BOX", "note": "ON 12/24 AND 12/31, THIS BOX MAY BE COLLECTED AS EARLY AS 12 NOON.", "ref": "7790100039"}, "type": "Feature"}
{"geometry": {"coordinates": [-96.9901549, 28.811773], "type": "Point"}, "id": "xUiKmro3hnLGjBiB-xhlO2xzi8U=", "properties": {"@spider": "usps_collection_boxes", "addr:city": "VICTORIA", "addr:country": "US", "addr:full": "1908 N LAURENT ST", "addr:postcode": "77901", "addr:state": "TX", "brand": "USPS", "collection_times": "Mo-Fr 16:00", "name": "USPS COLLECTION BOX - BLUE BOX", "note": "ON 12/24 AND 12/31, THIS BOX MAY BE COLLECTED AS EARLY AS 12 NOON.", "ref": "7790100043"}, "type": "Feature"}
{"geometry": {"coordinates": [-96.9898743, 28.806033], "type": "Point"}, "id": "mjn0TFgyG9iJsAn3HYWFWU7_y7k=", "properties": {"@spider": "usps_collection_boxes", "addr:city": "VICTORIA", "addr:country": "US", "addr:full": "1401 E RIO GRANDE ST", "addr:postcode": "77901", "addr:state": "TX", "brand": "USPS", "collection_times": "Mo-Sa 16:00", "name": "USPS COLLECTION BOX - BLUE BOX", "note": "ON 12/24 AND 12/31, THIS BOX MAY BE COLLECTED AS EARLY AS 12 NOON.", "ref": "7790100044"}, "type": "Feature"}
{"geometry": {"coordinates": [-97.0064127, 28.79929], "type": "Point"}, "id": "FZgKxAxc3jbsFJpPyVHOYabAngI=", "properties": {"@spider": "usps_collection_boxes", "addr:city": "VICTORIA", "addr:country": "US", "addr:full": "101 W CONSTITUTION", "addr:postcode": "77901", "addr:state": "TX", "brand": "USPS", "collection_times": "Mo-Fr 16:30", "name": "USPS COLLECTION BOX - BLUE BOX", "note": "ON 12/24 AND 12/31, THIS BOX MAY BE COLLECTED AS EARLY AS 12 NOON.", "ref": "7790100052"}, "type": "Feature"}
{"geometry": {"coordinates": [-97.007014518, 28.796954638], "type": "Point"}, "id": "AX4-SI2lV6nAmQtoasxxxTkp4uA=", "properties": {"@spider": "usps_collection_boxes", "addr:city": "VICTORIA", "addr:country": "US", "addr:full": "312 S MAIN ST", "addr:postcode": "77901", "addr:state": "TX", "brand": "USPS", "collection_times": "Mo-Sa 17:00", "name": "USPS COLLECTION BOX - BLUE BOX", "note": "ON 12/24 AND 12/31, THIS BOX MAY BE COLLECTED AS EARLY AS 12 NOON.", "ref": "7790100055"}, "type": "Feature"}
{"geometry": {"coordinates": [-97.007014518, 28.796954638], "type": "Point"}, "id": "Aow0oP-18j8RTf9MxaJz41rWsZA=", "properties": {"@spider": "usps_collection_boxes", "addr:city": "VICTORIA", "addr:country": "US", "addr:full": "312 S MAIN ST", "addr:postcode": "77901", "addr:state": "TX", "brand": "USPS", "collection_times": "Mo-Sa 17:00", "name": "USPS COLLECTION BOX - PO LOBBY", "note": "ON 12/24 AND 12/31, THIS BOX MAY BE COLLECTED AS EARLY AS 12 NOON.", "ref": "7790100060"}, "type": "Feature"}
{"geometry": {"coordinates": [-97.0014899, 28.820646], "type": "Point"}, "id": "BtKZcKZjHBeE1AmHI_Z4jO0J8Js=", "properties": {"@spider": "usps_collection_boxes", "addr:city": "VICTORIA", "addr:country": "US", "addr:full": "2805 N NAVARRO ST", "addr:postcode": "77901", "addr:state": "TX", "brand": "USPS", "collection_times": "Mo-Fr 16:30", "name": "USPS COLLECTION BOX - BLUE BOX", "note": "ON 12/24 AND 12/31, THIS BOX MAY BE COLLECTED AS EARLY AS 12 NOON.", "ref": "7790100062"}, "type": "Feature"}
{"geometry": {"coordinates": [-97.007014518, 28.796954638], "type": "Point"}, "id": "uKq_mdYhGzHUTy99qxSOLo5Xqec=", "properties": {"@spider": "usps_collection_boxes", "addr:city": "VICTORIA", "addr:country": "US", "addr:full": "312 S MAIN ST", "addr:postcode": "77901", "addr:state": "TX", "brand": "USPS", "collection_times": "Mo-Sa 17:00", "name": "USPS COLLECTION BOX - PO LOBBY", "note": "ON 12/24 AND 12/31, THIS BOX MAY BE COLLECTED AS EARLY AS 12 NOON.", "ref": "7790100064"}, "type": "Feature"}
{"geometry": {"coordinates": [-97.007014518, 28.796954638], "type": "Point"}, "id": "Fcmc3l0vrJ7bQN0Ls1MHuxY-es0=", "properties": {"@spider": "usps_collection_boxes", "addr:city": "VICTORIA", "addr:country": "US", "addr:full": "312 S MAIN ST", "addr:postcode": "77901", "addr:state": "TX", "brand": "USPS", "collection_times": "Mo-Fr 17:00", "name": "USPS COLLECTION BOX - PO LOBBY", "note": "ON 12/24 AND 12/31, THIS BOX MAY BE COLLECTED AS EARLY AS 12 NOON.", "ref": "7790100067"}, "type": "Feature"}
{"geometry": {"coordinates": [-96.9793653, 28.850721], "type": "Point"}, "id": "IyT_sUxQdpK77VPP1O6fE5V0fX4=", "properties": {"@spider": "usps_collection_boxes", "addr:city": "VICTORIA", "addr:country": "US", "addr:full": "3902 JOHN STOCKBAUER DR", "addr:postcode": "77904", "addr:state": "TX", "brand": "USPS", "collection_times": "Mo-Fr 14:30", "name": "USPS COLLECTION BOX - BLUE BOX", "note": "ON 12/24 AND 12/31, THIS BOX MAY BE COLLECTED AS EARLY AS 12 NOON.", "ref": "7790400000"}, "type": "Feature"}
{"geometry": {"coordinates": [-96.9872068, 28.856779], "type": "Point"}, "id": "wvdwy8O97BLhEK-PgLE2Fph99Mg=", "properties": {"@spider": "usps_collection_boxes", "addr:city": "VICTORIA", "addr:country": "US", "addr:full": "5002 JOHN STOCKBAUER DR", "addr:postcode": "77904", "addr:state": "TX", "brand": "USPS", "collection_times": "Mo-Fr 14:30; Sa 15:00", "name": "USPS COLLECTION BOX - BLUE BOX", "note": "ON 12/24 AND 12/31, THIS BOX MAY BE COLLECTED AS EARLY AS 12 NOON.", "ref": "7790400001"}, "type": "Feature"}
{"geometry": {"coordinates": [-96.991172885, 28.837663456], "type": "Point"}, "id": "VP3HbivjPKgcjt1B3ptxfJj-Gro=", "properties": {"@spider": "usps_collection_boxes", "addr:city": "VICTORIA", "addr:country": "US", "addr:full": "2804 SAM HOUSTON DR", "addr:postcode": "77904", "addr:state": "TX", "brand": "USPS", "collection_times": "Mo-Sa 17:00", "name": "USPS COLLECTION BOX - BLUE BOX", "note": "ON 12/24 AND 12/31, THIS BOX MAY BE COLLECTED AS EARLY AS 12 NOON.", "ref": "7790400007"}, "type": "Feature"}
{"geometry": {"coordinates": [-96.991172885, 28.837663456], "type": "Point"}, "id": "iKqIGCUGu9TM4SsU1xBMBPgC9y0=", "properties": {"@spider": "usps_collection_boxes", "addr:city": "VICTORIA", "addr:country": "US", "addr:full": "2804 SAM HOUSTON DR", "addr:postcode": "77904", "addr:state": "TX", "brand": "USPS", "collection_times": "Mo-Sa 17:00", "name": "USPS COLLECTION BOX - APC", "note": "ON 12/24 AND 12/31, THIS BOX MAY BE COLLECTED AS EARLY AS 12 NOON.", "ref": "7790400012"}, "type": "Feature"}
{"geometry": {"coordinates": [-96.9959259, 28.878058], "type": "Point"}, "id": "Gjcu1Y8LGHsX5Mo5K3zwQMgBoAg=", "properties": {"@spider": "usps_collection_boxes", "addr:city": "VICTORIA", "addr:country": "US", "addr:full": "9002 N NAVARRO ST", "addr:postcode": "77904", "addr:state": "TX", "brand": "USPS", "collection_times": "Mo-Sa 14:30", "name": "USPS COLLECTION BOX - BLUE BOX", "note": "ON 12/24 AND 12/31, THIS BOX MAY BE COLLECTED AS EARLY AS 12 NOON.", "ref": "7790400018"}, "type": "Feature"}
{"geometry": {"coordinates": [-96.9962084, 28.854536], "type": "Point"}, "id": "wfQKGK_738hMH0jY3WoV1W6Xd2g=", "properties": {"@spider": "usps_collection_boxes", "addr:city": "VICTORIA", "addr:country": "US", "addr:full": "6324 N NAVARRO ST", "addr:postcode": "77904", "addr:state": "TX", "brand": "USPS", "collection_times": "Mo-Sa 14:15", "name": "USPS COLLECTION BOX - BLUE BOX", "note": "ON 12/24 AND 12/31, THIS BOX MAY BE COLLECTED AS EARLY AS 12 NOON.", "ref": "7790400023"}, "type": "Feature"}
{"geometry": {"coordinates": [-96.9903834, 28.835358], "type": "Point"}, "id": "glI50T9OPY0lexSKxso53m2OIas=", "properties": {"@spider": "usps_collection_boxes", "addr:city": "VICTORIA", "addr:country": "US", "addr:full": "1501 E MOCKINGBIRD LN", "addr:postcode": "77904", "addr:state": "TX", "brand": "USPS", "collection_times": "Mo-Fr 16:30", "name": "USPS COLLECTION BOX - BLUE BOX", "note": "ON 12/24 AND 12/31, THIS BOX MAY BE COLLECTED AS EARLY AS 12 NOON.", "ref": "7790400025"}, "type": "Feature"}
{"geometry": {"coordinates": [-96.9981919, 28.847363], "type": "Point"}, "id": "fi4wEM4t2Ee6By3yzQbQqio6jMc=", "properties": {"@spider": "usps_collection_boxes", "addr:city": "VICTORIA", "addr:country": "US", "addr:full": "5606 N NAVARRO ST", "addr:postcode": "77904", "addr:state": "TX", "brand": "USPS", "collection_times": "Mo-Fr 16:30", "name": "USPS COLLECTION BOX - BLUE BOX", "note": "ON 12/24 AND 12/31, THIS BOX MAY BE COLLECTED AS EARLY AS 12 NOON.", "ref": "7790400027"}, "type": "Feature"}
{"geometry": {"coordinates": [-96.991172885, 28.837663456], "type": "Point"}, "id": "gVsMEHuQ60MS4HYVKx6tVV8PLjw=", "properties": {"@spider": "usps_collection_boxes", "addr:city": "VICTORIA", "addr:country": "US", "addr:full": "2804 SAM HOUSTON DR", "addr:postcode": "77904", "addr:state": "TX", "brand": "USPS", "collection_times": "Mo-Sa 17:00", "name": "USPS COLLECTION BOX - PO LOBBY", "note": "ON 12/24 AND 12/31, THIS BOX MAY BE COLLECTED AS EARLY AS 12 NOON.", "ref": "7790400029"}, "type": "Feature"}
{"geometry": {"coordinates": [-96.991172885, 28.837663456], "type": "Point"}, "id": "2AYL1gNIxEd7IURhSQ6sFAUzTWk=", "properties": {"@spider": "usps_collection_boxes", "addr:city": "VICTORIA", "addr:country": "US", "addr:full": "2804 SAM HOUSTON DR", "addr:postcode": "77904", "addr:state": "TX", "brand": "USPS", "collection_times": "Mo-Sa 17:00", "name": "USPS COLLECTION BOX - PO LOBBY", "note": "ON 12/24 AND 12/31, THIS BOX MAY BE COLLECTED AS EARLY AS 12 NOON.", "ref": "7790400030"}, "type": "Feature"}
{"geometry": {"coordinates": [-96.9986279, 28.843287], "type": "Point"}, "id": "JLyr-NtI8tf1VNpT5qbQDQ8u5Kc=", "properties": {"@spider": "usps_collection_boxes", "addr:city": "VICTORIA", "addr:country": "US", "addr:full": "5204 N NAVARRO ST", "addr:postcode": "77904", "addr:state": "TX", "brand": "USPS", "collection_times": "Mo-Sa 14:15", "name": "USPS COLLECTION BOX - BLUE BOX", "note": "ON 12/24 AND 12/31, THIS BOX MAY BE COLLECTED AS EARLY AS 12 NOON.", "ref": "7790400032"}, "type": "Feature"}
{"geometry": {"coordinates": [-96.9979099, 28.874335], "type": "Point"}, "id": "-ZDJ9vN-6s4vTIYC_IXCm5Zpnqo=", "properties": {"@spider": "usps_collection_boxes", "addr:city": "VICTORIA", "addr:country": "US", "addr:full": "8621 N NAVARRO ST", "addr:postcode": "77904", "addr:state": "TX", "brand": "USPS", "collection_times": "Mo-Sa 15:00", "name": "USPS COLLECTION BOX - BLUE BOX", "note": "ON 12/24 AND 12/31, THIS BOX MAY BE COLLECTED AS EARLY AS 12 NOON.", "ref": "7790400037"}, "type": "Feature"}
{"geometry": {"coordinates": [-96.9915830273, 28.8614965571], "type": "Point"}, "id": "m6bHfghqrOVJSRHANNuAOStJ9Ds=", "properties": {"@spider": "usps_collection_boxes", "addr:city": "VICTORIA", "addr:country": "US", "addr:full": "5610 JOHN STOCKBAUER DR", "addr:postcode": "77904", "addr:state": "TX", "brand": "USPS", "collection_times": "Mo-Fr 14:30", "name": "USPS COLLECTION BOX - BLUE BOX", "note": "ON 12/24 AND 12/31, THIS BOX MAY BE COLLECTED AS EARLY AS 12 NOON.", "ref": "7790400041"}, "type": "Feature"}
{"geometry": {"coordinates": [-96.991172885, 28.837663456], "type": "Point"}, "id": "gMLX0M4TRJBk8bGONYI9G3MurvY=", "properties": {"@spider": "usps_collection_boxes", "addr:city": "VICTORIA", "addr:country": "US", "addr:full": "2804 SAM HOUSTON DR", "addr:postcode": "77904", "addr:state": "TX", "brand": "USPS", "collection_times": "Mo-Fr 17:00", "name": "USPS COLLECTION BOX - PO LOBBY", "note": "ON 12/24 AND 12/31, THIS BOX MAY BE COLLECTED AS EARLY AS 12 NOON.", "ref": "7790400043"}, "type": "Feature"}
{"geometry": {"coordinates": [-97.1875845, 28.706077], "type": "Point"}, "id": "S89dv7Na5Xz8ktOIg4_yZ2eP8yk=", "properties": {"@spider": "usps_collection_boxes", "addr:city": "VICTORIA", "addr:country": "US", "addr:full": "100 LAKESHORE DR", "addr:postcode": "77905", "addr:state": "TX", "brand": "USPS", "collection_times": "Mo-Sa 12:30", "name": "USPS COLLECTION BOX - BLUE BOX", "note": "ON 12/24 AND 12/31, THIS BOX MAY BE COLLECTED AS EARLY AS 12 NOON.", "ref": "7790500001"}, "type": "Feature"}
{"geometry": {"coordinates": [-96.845461367, 28.390021374], "type": "Point"}, "id": "T-gyVlu1Ey2qB7obu6VzvxYFnds=", "properties": {"@spider": "usps_collection_boxes", "addr:city": "AUSTWELL", "addr:country": "US", "addr:full": "611 VANDENBERGE ST", "addr:postcode": "77950", "addr:state": "TX", "brand": "USPS", "collection_times": "Mo-Fr 12:00; Sa 09:00", "name": "USPS COLLECTION BOX - BLUE BOX", "ref": "7795000000"}, "type": "Feature"}
{"geometry": {"coordinates": [-96.845461367, 28.390021374], "type": "Point"}, "id": "naXjSl9yGYmUyxn9_XtCghmFSd4=", "properties": {"@spider": "usps_collection_boxes", "addr:city": "AUSTWELL", "addr:country": "US", "addr:full": "611 VANDENBERGE ST", "addr:postcode": "77950", "addr:state": "TX", "brand": "USPS", "collection_times": "Mo-Fr 12:00; Sa 09:15", "name": "USPS COLLECTION BOX - PO LOBBY", "ref": "7795000003"}, "type": "Feature"}
{"geometry": {"coordinates": [-96.892716595, 28.648423426], "type": "Point"}, "id": "nkaJXlw1n1kkn8pDZwLpmbtD_r0=", "properties": {"@spider": "usps_collection_boxes", "addr:city": "BLOOMINGTON", "addr:country": "US", "addr:full": "41 E 2ND ST", "addr:postcode": "77951", "addr:state": "TX", "brand": "USPS", "collection_times": "Mo-Fr 15:45; Sa 09:30", "name": "USPS COLLECTION BOX - BLUE BOX", "note": "ON 12/24 AND 12/31, THIS BOX MAY BE COLLECTED AS EARLY AS 12 NOON.", "ref": "7795100000"}, "type": "Feature"}
{"geometry": {"coordinates": [-96.892716595, 28.648423426], "type": "Point"}, "id": "FxQ5nagxaRMfs95_AsfgLt5kKSk=", "properties": {"@spider": "usps_collection_boxes", "addr:city": "BLOOMINGTON", "addr:country": "US", "addr:full": "41 E 2ND ST", "addr:postcode": "77951", "addr:state": "TX", "brand": "USPS", "collection_times": "Mo-Fr 16:00; Sa 09:30", "name": "USPS COLLECTION BOX - PO LOBBY", "note": "ON 12/24 AND 12/31, THIS BOX MAY BE COLLECTED AS EARLY AS 12 NOON.", "ref": "7795100001"}, "type": "Feature"}
{"geometry": {"coordinates": [-96.892716595, 28.648423426], "type": "Point"}, "id": "ClI1fToaQyC70FauEBtPpYYQOzo=", "properties": {"@spider": "usps_collection_boxes", "addr:city": "BLOOMINGTON", "addr:country": "US", "addr:full": "41 E 2ND ST", "addr:postcode": "77951", "addr:state": "TX", "brand": "USPS", "collection_times": "Mo-Fr 16:00", "name": "USPS COLLECTION BOX - PO LOBBY", "note": "ON 12/24 AND 12/31, THIS BOX MAY BE COLLECTED AS EARLY AS 12 NOON.", "ref": "7795100003"}, "type": "Feature"}
{"geometry": {"coordinates": [-97.289266178, 29.08950081], "type": "Point"}, "id": "9qlPTHXwnEO-DEnDXdHS67QGyxY=", "properties": {"@spider": "usps_collection_boxes", "addr:city": "CUERO", "addr:country": "US", "addr:full": "301 E MAIN ST", "addr:postcode": "77954", "addr:state": "TX", "brand": "USPS", "collection_times": "Mo-Fr 16:15; Sa 11:30", "name": "USPS COLLECTION BOX - BLUE BOX", "note": "ON 12/24 AND 12/31, THIS BOX MAY BE COLLECTED AS EARLY AS 12 NOON.", "ref": "7795400002"}, "type": "Feature"}
{"geometry": {"coordinates": [-97.289266178, 29.08950081], "type": "Point"}, "id": "mfWV3VXH-kISqV2hfX7MuYKsFPQ=", "properties": {"@spider": "usps_collection_boxes", "addr:city": "CUERO", "addr:country": "US", "addr:full": "301 E MAIN ST", "addr:postcode": "77954", "addr:state": "TX", "brand": "USPS", "collection_times": "Mo-Fr 16:15; Sa 15:30", "name": "USPS COLLECTION BOX - PO LOBBY", "note": "ON 12/24 AND 12/31, THIS BOX MAY BE COLLECTED AS EARLY AS 12 NOON.", "ref": "7795400008"}, "type": "Feature"}
{"geometry": {"coordinates": [-97.289266178, 29.08950081], "type": "Point"}, "id": "DhinfxdNaETmoiASJPa8XxdZoYs=", "properties": {"@spider": "usps_collection_boxes", "addr:city": "CUERO", "addr:country": "US", "addr:full": "301 E MAIN ST", "addr:postcode": "77954", "addr:state": "TX", "brand": "USPS", "collection_times": "Mo-Fr 16:00; Sa 11:30", "name": "USPS COLLECTION BOX - PO LOBBY", "note": "ON 12/24 AND 12/31, THIS BOX MAY BE COLLECTED AS EARLY AS 12 NOON.", "ref": "7795400011"}, "type": "Feature"}
{"geometry": {"coordinates": [-96.6537982, 28.965925], "type": "Point"}, "id": "q0xAaODiwGFdn4bqyhusXJX_s_M=", "properties": {"@spider": "usps_collection_boxes", "addr:city": "EDNA", "addr:country": "US", "addr:full": "602 BRODIE ST", "addr:postcode": "77957", "addr:state": "TX", "brand": "USPS", "collection_times": "Mo-Fr 14:00; Sa 13:30", "name": "USPS COLLECTION BOX - BLUE BOX", "note": "ON 12/24 AND 12/31, THIS BOX MAY BE COLLECTED AS EARLY AS 12 NOON.", "ref": "7795700000"}, "type": "Feature"}
{"geometry": {"coordinates": [-96.6574200124, 28.9827341922], "type": "Point"}, "id": "fnLBfmq_hmE0e0W3TpTW1tjccmA=", "properties": {"@spider": "usps_collection_boxes", "addr:city": "EDNA", "addr:country": "US", "addr:full": "603 ROSE ST", "addr:postcode": "77957", "addr:state": "TX", "brand": "USPS", "collection_times": "Mo-Fr 15:45; Sa 12:00", "name": "USPS COLLECTION BOX - BLUE BOX", "note": "ON 12/24 AND 12/31, THIS BOX MAY BE COLLECTED AS EARLY AS 12 NOON.", "ref": "7795700002"}, "type": "Feature"}
{"geometry": {"coordinates": [-96.6499153, 28.988674], "type": "Point"}, "id": "W_iJ6w5iJ_U0THn-EM6Nls-rhNY=", "properties": {"@spider": "usps_collection_boxes", "addr:city": "EDNA", "addr:country": "US", "addr:full": "1002 N WELLS ST", "addr:postcode": "77957", "addr:state": "TX", "brand": "USPS", "collection_times": "Mo-Sa 13:00", "name": "USPS COLLECTION BOX - BLUE BOX", "note": "ON 12/24 AND 12/31, THIS BOX MAY BE COLLECTED AS EARLY AS 12 NOON.", "ref": "7795700003"}, "type": "Feature"}
{"geometry": {"coordinates": [-96.657382, 28.982822], "type": "Point"}, "id": "GR6MWKQevJHKkX1cdsDgVjH6Vvg=", "properties": {"@spider": "usps_collection_boxes", "addr:city": "EDNA", "addr:country": "US", "addr:full": "603 ROSE ST", "addr:postcode": "77957", "addr:state": "TX", "brand": "USPS", "collection_times": "Mo-Fr 16:00; Sa 15:15", "name": "USPS COLLECTION BOX - PO LOBBY", "note": "ON 12/24 AND 12/31, THIS BOX MAY BE COLLECTED AS EARLY AS 12 NOON.", "ref": "7795700006"}, "type": "Feature"}
{"geometry": {"coordinates": [-96.6476422, 28.978014], "type": "Point"}, "id": "HbHNp3XFjcwI69kwhprbqKxzNqM=", "properties": {"@spider": "usps_collection_boxes", "addr:city": "EDNA", "addr:country": "US", "addr:full": "130 W MAIN ST", "addr:postcode": "77957", "addr:state": "TX", "brand": "USPS", "collection_times": "Mo-Fr 15:00; Sa 14:00", "name": "USPS COLLECTION BOX - BLUE BOX", "note": "ON 12/24 AND 12/31, THIS BOX MAY BE COLLECTED AS EARLY AS 12 NOON.", "ref": "7795700008"}, "type": "Feature"}
{"geometry": {"coordinates": [-96.6512899, 28.993121], "type": "Point"}, "id": "6uu3mEpBq6oDcXPiCZOHeOn8Uhg=", "properties": {"@spider": "usps_collection_boxes", "addr:city": "EDNA", "addr:country": "US", "addr:full": "1400 N WELLS ST", "addr:postcode": "77957", "addr:state": "TX", "brand": "USPS", "collection_times": "Mo-Sa 13:30", "name": "USPS COLLECTION BOX - BLUE BOX", "note": "ON 12/24 AND 12/31, THIS BOX MAY BE COLLECTED AS EARLY AS 12 NOON.", "ref": "7795700010"}, "type": "Feature"}
{"geometry": {"coordinates": [-96.657382, 28.982822], "type": "Point"}, "id": "NjpmCQcod3wFDDw0YlMxQnv4OD4=", "properties": {"@spider": "usps_collection_boxes", "addr:city": "EDNA", "addr:country": "US", "addr:full": "603 ROSE ST", "addr:postcode": "77957", "addr:state": "TX", "brand": "USPS", "collection_times": "Mo-Fr 16:00; Sa 15:15", "name": "USPS COLLECTION BOX - PO LOBBY", "note": "ON 12/24 AND 12/31, THIS BOX MAY BE COLLECTED AS EARLY AS 12 NOON.", "ref": "7795700015"}, "type": "Feature"}
{"geometry": {"coordinates": [-96.6574200124, 28.9827341922], "type": "Point"}, "id": "TFgufs8USjY5at_pn0jM5-ysk9A=", "properties": {"@spider": "usps_collection_boxes", "addr:city": "EDNA", "addr:country": "US", "addr:full": "603 ROSE ST", "addr:postcode": "77957", "addr:state": "TX", "brand": "USPS", "collection_times": "Mo-Fr 16:30; Sa 12:00", "name": "USPS COLLECTION BOX - PO LOBBY", "note": "ON 12/24 AND 12/31, THIS BOX MAY BE COLLECTED AS EARLY AS 12 NOON.", "ref": "7795700017"}, "type": "Feature"}
{"geometry": {"coordinates": [-97.238101018, 28.696485659], "type": "Point"}, "id": "wHELcrto9XLJbPbS8hjHkfoFB6Y=", "properties": {"@spider": "usps_collection_boxes", "addr:city": "FANNIN", "addr:country": "US", "addr:full": "9931 US HIGHWAY 59 N", "addr:postcode": "77960", "addr:state": "TX", "brand": "USPS", "collection_times": "Mo-Fr 08:45; Sa 08:00", "name": "USPS COLLECTION BOX - BLUE BOX", "ref": "7796000000"}, "type": "Feature"}
{"geometry": {"coordinates": [-97.238101018, 28.696485659], "type": "Point"}, "id": "tNqBwcl92eHPk48qLlgXl6sOnDs=", "properties": {"@spider": "usps_collection_boxes", "addr:city": "FANNIN", "addr:country": "US", "addr:full": "9931 US HIGHWAY 59 N", "addr:postcode": "77960", "addr:state": "TX", "brand": "USPS", "collection_times": "Mo-Fr 08:45; Sa 07:30", "name": "USPS COLLECTION BOX - PO LOBBY", "ref": "7796000001"}, "type": "Feature"}
{"geometry": {"coordinates": [-97.238101018, 28.696485659], "type": "Point"}, "id": "pK2QWLL0k0lIpFKkMCbsJgiw7eI=", "properties": {"@spider": "usps_collection_boxes", "addr:city": "FANNIN", "addr:country": "US", "addr:full": "9931 US HIGHWAY 59 N", "addr:postcode": "77960", "addr:state": "TX", "brand": "USPS", "collection_times": "Mo-Sa 09:00", "name": "USPS COLLECTION BOX - PO LOBBY", "ref": "7796000003"}, "type": "Feature"}
{"geometry": {"coordinates": [-96.340053121, 28.862908765], "type": "Point"}, "id": "U80ElTmI7F9JeJIBiBjNF2fyLWU=", "properties": {"@spider": "usps_collection_boxes", "addr:city": "FRANCITAS", "addr:country": "US", "addr:full": "66 BRYAN ST", "addr:postcode": "77961", "addr:state": "TX", "brand": "USPS", "collection_times": "Mo-Sa 15:30", "name": "USPS COLLECTION BOX - PO LOBBY", "note": "ON 12/24 AND 12/31, THIS BOX MAY BE COLLECTED AS EARLY AS 12 NOON.", "ref": "7796100003"}, "type": "Feature"}
{"geometry": {"coordinates": [-96.340053121, 28.862908765], "type": "Point"}, "id": "FRoNyREjTfAUb_VccVYDYAyhy88=", "properties": {"@spider": "usps_collection_boxes", "addr:city": "FRANCITAS", "addr:country": "US", "addr:full": "66 BRYAN ST", "addr:postcode": "77961", "addr:state": "TX", "brand": "USPS", "collection_times": "Mo-Sa 15:30", "name": "USPS COLLECTION BOX - PO LOBBY", "note": "ON 12/24 AND 12/31, THIS BOX MAY BE COLLECTED AS EARLY AS 12 NOON.", "ref": "7796100005"}, "type": "Feature"}
{"geometry": {"coordinates": [-96.512726704, 29.038731969], "type": "Point"}, "id": "ADQWVoBTI8MZJuw3EJf1VT6hkLc=", "properties": {"@spider": "usps_collection_boxes", "addr:city": "GANADO", "addr:country": "US", "addr:full": "101 W ROGERS ST", "addr:postcode": "77962", "addr:state": "TX", "brand": "USPS", "collection_times": "Mo-Fr 16:00; Sa 11:00", "name": "USPS COLLECTION BOX - PO LOBBY", "note": "ON 12/24 AND 12/31, THIS BOX MAY BE COLLECTED AS EARLY AS 12 NOON.", "ref": "7796200001"}, "type": "Feature"}
{"geometry": {"coordinates": [-96.512726704, 29.038731969], "type": "Point"}, "id": "m2_Jg5CIYz2FSyKi192AgT5ENKs=", "properties": {"@spider": "usps_collection_boxes", "addr:city": "GANADO", "addr:country": "US", "addr:full": "101 W ROGERS ST", "addr:postcode": "77962", "addr:state": "TX", "brand": "USPS", "collection_times": "Mo-Fr 16:00; Sa 11:00", "name": "USPS COLLECTION BOX - BLUE BOX", "note": "ON 12/24 AND 12/31, THIS BOX MAY BE COLLECTED AS EARLY AS 12 NOON.", "ref": "7796200003"}, "type": "Feature"}
{"geometry": {"coordinates": [-96.512726704, 29.038731969], "type": "Point"}, "id": "rZj9BlRGFNsQhsP9SUzzXDHkJSM=", "properties": {"@spider": "usps_collection_boxes", "addr:city": "GANADO", "addr:country": "US", "addr:full": "101 W ROGERS ST", "addr:postcode": "77962", "addr:state": "TX", "brand": "USPS", "collection_times": "Mo-Fr 16:00; Sa 11:00", "name": "USPS COLLECTION BOX - PO LOBBY", "note": "ON 12/24 AND 12/31, THIS BOX MAY BE COLLECTED AS EARLY AS 12 NOON.", "ref": "7796200005"}, "type": "Feature"}
{"geometry": {"coordinates": [-97.393289282, 28.665816824], "type": "Point"}, "id": "r8dQKWbu8WbKIjzeoxeNlxVNr3w=", "properties": {"@spider": "usps_collection_boxes", "addr:city": "GOLIAD", "addr:country": "US", "addr:full": "151 W END ST", "addr:postcode": "77963", "addr:state": "TX", "brand": "USPS", "collection_times": "Mo-Fr 16:00; Sa 11:00", "name": "USPS COLLECTION BOX - BLUE BOX", "note": "ON 12/24 AND 12/31, THIS BOX MAY BE COLLECTED AS EARLY AS 12 NOON.", "ref": "7796300000"}, "type": "Feature"}
{"geometry": {"coordinates": [-97.393289282, 28.665816824], "type": "Point"}, "id": "wtkVPgnc4NT3siFIk5c42zZRh0Q=", "properties": {"@spider": "usps_collection_boxes", "addr:city": "GOLIAD", "addr:country": "US", "addr:full": "151 W END ST", "addr:postcode": "77963", "addr:state": "TX", "brand": "USPS", "collection_times": "Mo-Fr 16:00; Sa 11:00", "name": "USPS COLLECTION BOX - PO LOBBY", "note": "ON 12/24 AND 12/31, THIS BOX MAY BE COLLECTED AS EARLY AS 12 NOON.", "ref": "7796300002"}, "type": "Feature"}
{"geometry": {"coordinates": [-97.393289282, 28.665816824], "type": "Point"}, "id": "_5kPLiemEAW8lTkK_yRQSC02yQA=", "properties": {"@spider": "usps_collection_boxes", "addr:city": "GOLIAD", "addr:country": "US", "addr:full": "151 W END ST", "addr:postcode": "77963", "addr:state": "TX", "brand": "USPS", "collection_times": "Mo-Fr 16:00; Sa 11:00", "name": "USPS COLLECTION BOX - PO LOBBY", "note": "ON 12/24 AND 12/31, THIS BOX MAY BE COLLECTED AS EARLY AS 12 NOON.", "ref": "7796300005"}, "type": "Feature"}
{"geometry": {"coordinates": [-96.94213147, 29.443372701], "type": "Point"}, "id": "H6fyrUGM6MHaYLFnBZM6DuV4jW4=", "properties": {"@spider": "usps_collection_boxes", "addr:city": "HALLETTSVILLE", "addr:country": "US", "addr:full": "206 S LA GRANGE ST", "addr:postcode": "77964", "addr:state": "TX", "brand": "USPS", "collection_times": "Mo-Fr 16:00; Sa 15:30", "name": "USPS COLLECTION BOX - BLUE BOX", "note": "ON 12/24 AND 12/31, THIS BOX MAY BE COLLECTED AS EARLY AS 12 NOON.", "ref": "7796400001"}, "type": "Feature"}
{"geometry": {"coordinates": [-96.94213147, 29.443372701], "type": "Point"}, "id": "nKygdWwQ-9GeNbsLaSweAWSFFh0=", "properties": {"@spider": "usps_collection_boxes", "addr:city": "HALLETTSVILLE", "addr:country": "US", "addr:full": "206 S LA GRANGE ST", "addr:postcode": "77964", "addr:state": "TX", "brand": "USPS", "collection_times": "Mo-Fr 16:00; Sa 15:30", "name": "USPS COLLECTION BOX - PO LOBBY", "note": "ON 12/24 AND 12/31, THIS BOX MAY BE COLLECTED AS EARLY AS 12 NOON.", "ref": "7796400006"}, "type": "Feature"}
{"geometry": {"coordinates": [-96.9421314698, 29.4433727011], "type": "Point"}, "id": "2Z8WtUUvb3PCqxqGDgmXzEDwjzA=", "properties": {"@spider": "usps_collection_boxes", "addr:city": "HALLETTSVILLE", "addr:country": "US", "addr:full": "206 S LA GRANGE ST", "addr:postcode": "77964", "addr:state": "TX", "brand": "USPS", "collection_times": "Mo-Fr 16:00; Sa 11:00", "name": "USPS COLLECTION BOX - PO LOBBY", "note": "ON 12/24 AND 12/31, THIS BOX MAY BE COLLECTED AS EARLY AS 12 NOON.", "ref": "7796400011"}, "type": "Feature"}
{"geometry": {"coordinates": [-96.788424309, 28.903677913], "type": "Point"}, "id": "ZuNs8fjSiKGUoceW4BKNd4BKPxo=", "properties": {"@spider": "usps_collection_boxes", "addr:city": "INEZ", "addr:country": "US", "addr:full": "126 CHURCH ST", "addr:postcode": "77968", "addr:state": "TX", "brand": "USPS", "collection_times": "Mo-Fr 14:30; Sa 09:30", "name": "USPS COLLECTION BOX - BLUE BOX", "note": "ON 12/24 AND 12/31, THIS BOX MAY BE COLLECTED AS EARLY AS 12 NOON.", "ref": "7796800000"}, "type": "Feature"}
{"geometry": {"coordinates": [-96.788424309, 28.903677913], "type": "Point"}, "id": "pUdnkaAqXu7rj7c_hx9jMHILPGo=", "properties": {"@spider": "usps_collection_boxes", "addr:city": "INEZ", "addr:country": "US", "addr:full": "126 CHURCH ST", "addr:postcode": "77968", "addr:state": "TX", "brand": "USPS", "collection_times": "Mo-Fr 14:30; Sa 09:00", "name": "USPS COLLECTION BOX - PO LOBBY", "note": "ON 12/24 AND 12/31, THIS BOX MAY BE COLLECTED AS EARLY AS 12 NOON.", "ref": "7796800001"}, "type": "Feature"}
{"geometry": {"coordinates": [-96.788424309, 28.903677913], "type": "Point"}, "id": "zB3NTYpFbtavSpRzvqMJrXCTegU=", "properties": {"@spider": "usps_collection_boxes", "addr:city": "INEZ", "addr:country": "US", "addr:full": "126 CHURCH ST", "addr:postcode": "77968", "addr:state": "TX", "brand": "USPS", "collection_times": "Mo-Fr 15:00", "name": "USPS COLLECTION BOX - PO LOBBY", "note": "ON 12/24 AND 12/31, THIS BOX MAY BE COLLECTED AS EARLY AS 12 NOON.", "ref": "7796800003"}, "type": "Feature"}
{"geometry": {"coordinates": [-96.670451, 28.791395615], "type": "Point"}, "id": "knmJzqM0etYQdmoEa7VNExomSro=", "properties": {"@spider": "usps_collection_boxes", "addr:city": "LA SALLE", "addr:country": "US", "addr:full": "1999 FM 616", "addr:postcode": "77969", "addr:state": "TX", "brand": "USPS", "collection_times": "Mo-Fr 09:00; Sa 11:00", "name": "USPS COLLECTION BOX - BLUE BOX", "ref": "7796900000"}, "type": "Feature"}
{"geometry": {"coordinates": [-96.670451, 28.791395615], "type": "Point"}, "id": "_O6puSwbSiqk-NUx_O7sSTGljvk=", "properties": {"@spider": "usps_collection_boxes", "addr:city": "LA SALLE", "addr:country": "US", "addr:full": "1999 FM 616", "addr:postcode": "77969", "addr:state": "TX", "brand": "USPS", "collection_times": "Mo-Sa 08:45", "name": "USPS COLLECTION BOX - PO LOBBY", "ref": "7796900001"}, "type": "Feature"}
{"geometry": {"coordinates": [-96.670451, 28.791395615], "type": "Point"}, "id": "ec6RKQQTjjE8AHp2B9Y-a1qUBpw=", "properties": {"@spider": "usps_collection_boxes", "addr:city": "LA SALLE", "addr:country": "US", "addr:full": "1999 FM 616", "addr:postcode": "77969", "addr:state": "TX", "brand": "USPS", "collection_times": "Mo-Fr 09:00; Sa 13:00", "name": "USPS COLLECTION BOX - PO LOBBY", "note": "ON 12/24 AND 12/31, THIS BOX MAY BE COLLECTED AS EARLY AS 12 NOON.", "ref": "7796900003"}, "type": "Feature"}
{"geometry": {"coordinates": [-96.464372517, 28.844622], "type": "Point"}, "id": "3KoTofV3u_ws9ErDJEcRWBWooyg=", "properties": {"@spider": "usps_collection_boxes", "addr:city": "LA WARD", "addr:country": "US", "addr:full": "13059 STATE HIGHWAY 172", "addr:postcode": "77970", "addr:state": "TX", "brand": "USPS", "collection_times": "Mo-Fr 12:00; Sa 10:00", "name": "USPS COLLECTION BOX - BLUE BOX", "ref": "7797000000"}, "type": "Feature"}
{"geometry": {"coordinates": [-96.464372517, 28.844622], "type": "Point"}, "id": "2iN75fKyFvjLGRrrIJWmjPOJ7As=", "properties": {"@spider": "usps_collection_boxes", "addr:city": "LA WARD", "addr:country": "US", "addr:full": "13059 STATE HIGHWAY 172", "addr:postcode": "77970", "addr:state": "TX", "brand": "USPS", "collection_times": "Mo-Fr 12:00", "name": "USPS COLLECTION BOX - PO LOBBY", "ref": "7797000001"}, "type": "Feature"}
{"geometry": {"coordinates": [-96.464372517, 28.844622], "type": "Point"}, "id": "7Scz0thpTjFLSzu4LrwNBlgM_Rk=", "properties": {"@spider": "usps_collection_boxes", "addr:city": "LA WARD", "addr:country": "US", "addr:full": "13059 STATE HIGHWAY 172", "addr:postcode": "77970", "addr:state": "TX", "brand": "USPS", "collection_times": "Mo-Fr 12:00", "name": "USPS COLLECTION BOX - PO LOBBY", "ref": "7797000004"}, "type": "Feature"}
{"geometry": {"coordinates": [-96.542391371, 28.839807136], "type": "Point"}, "id": "ROt23BXwbR_7nVMIgIJQ1TEsWCw=", "properties": {"@spider": "usps_collection_boxes", "addr:city": "LOLITA", "addr:country": "US", "addr:full": "8966 FM 1593", "addr:postcode": "77971", "addr:state": "TX", "brand": "USPS", "collection_times": "Mo-Fr 13:15; Sa 08:45", "name": "USPS COLLECTION BOX - BLUE BOX", "note": "ON 12/24 AND 12/31, THIS BOX MAY BE COLLECTED AS EARLY AS 12 NOON.", "ref": "7797100000"}, "type": "Feature"}
{"geometry": {"coordinates": [-96.542391371, 28.839807136], "type": "Point"}, "id": "3EDFhJ7TfEOVtoHxHtstVuBgvnQ=", "properties": {"@spider": "usps_collection_boxes", "addr:city": "LOLITA", "addr:country": "US", "addr:full": "8966 FM 1593", "addr:postcode": "77971", "addr:state": "TX", "brand": "USPS", "collection_times": "Mo-Fr 13:15", "name": "USPS COLLECTION BOX - PO LOBBY", "note": "ON 12/24 AND 12/31, THIS BOX MAY BE COLLECTED AS EARLY AS 12 NOON.", "ref": "7797100001"}, "type": "Feature"}
{"geometry": {"coordinates": [-96.542391371, 28.839807136], "type": "Point"}, "id": "6RQDkLmzM9QHVlqM6KBbhdLYaRE=", "properties": {"@spider": "usps_collection_boxes", "addr:city": "LOLITA", "addr:country": "US", "addr:full": "8966 FM 1593", "addr:postcode": "77971", "addr:state": "TX", "brand": "USPS", "collection_times": "Mo-Fr 13:30", "name": "USPS COLLECTION BOX - PO LOBBY", "note": "ON 12/24 AND 12/31, THIS BOX MAY BE COLLECTED AS EARLY AS 12 NOON.", "ref": "7797100004"}, "type": "Feature"}
{"geometry": {"coordinates": [-97.009137862, 28.550649181], "type": "Point"}, "id": "H529PRwTzAFaorzOCNo4LDNcjaI=", "properties": {"@spider": "usps_collection_boxes", "addr:city": "MCFADDIN", "addr:country": "US", "addr:full": "2207 FM 445", "addr:postcode": "77973", "addr:state": "TX", "brand": "USPS", "collection_times": "Mo-Fr 15:15; Sa 08:00", "name": "USPS COLLECTION BOX - BLUE BOX", "note": "ON 12/24 AND 12/31, THIS BOX MAY BE COLLECTED AS EARLY AS 12 NOON.", "ref": "7797300000"}, "type": "Feature"}
{"geometry": {"coordinates": [-97.009137862, 28.550649181], "type": "Point"}, "id": "3Yh7_fqhee_TkLh13zfi8ZSNTJE=", "properties": {"@spider": "usps_collection_boxes", "addr:city": "MCFADDIN", "addr:country": "US", "addr:full": "2207 FM 445", "addr:postcode": "77973", "addr:state": "TX", "brand": "USPS", "collection_times": "Mo-Fr 15:30", "name": "USPS COLLECTION BOX - PO LOBBY", "note": "ON 12/24 AND 12/31, THIS BOX MAY BE COLLECTED AS EARLY AS 12 NOON.", "ref": "7797300001"}, "type": "Feature"}
{"geometry": {"coordinates": [-97.009137862, 28.550649181], "type": "Point"}, "id": "1KypW-S_wJ61LHIjN0LJhuBhkhI=", "properties": {"@spider": "usps_collection_boxes", "addr:city": "MCFADDIN", "addr:country": "US", "addr:full": "2207 FM 445", "addr:postcode": "77973", "addr:state": "TX", "brand": "USPS", "collection_times": "Mo-Fr 15:30", "name": "USPS COLLECTION BOX - PO LOBBY", "note": "ON 12/24 AND 12/31, THIS BOX MAY BE COLLECTED AS EARLY AS 12 NOON.", "ref": "7797300003"}, "type": "Feature"}
{"geometry": {"coordinates": [-97.313508707, 28.928822062], "type": "Point"}, "id": "54MgbH-3Ttap6uSVhedssLK7LO8=", "properties": {"@spider": "usps_collection_boxes", "addr:city": "MEYERSVILLE", "addr:country": "US", "addr:full": "2233 MEYERSVILLE RD", "addr:postcode": "77974", "addr:state": "TX", "brand": "USPS", "collection_times": "Mo-Sa 10:30", "name": "USPS COLLECTION BOX - BLUE BOX", "ref": "7797400001"}, "type": "Feature"}
{"geometry": {"coordinates": [-97.313508707, 28.928822062], "type": "Point"}, "id": "BC-YRnwXKVeDySZvf8gqaZ67dXk=", "properties": {"@spider": "usps_collection_boxes", "addr:city": "MEYERSVILLE", "addr:country": "US", "addr:full": "2233 MEYERSVILLE RD", "addr:postcode": "77974", "addr:state": "TX", "brand": "USPS", "collection_times": "Mo-Fr 15:30; Sa 12:00", "name": "USPS COLLECTION BOX - PO LOBBY", "note": "ON 12/24 AND 12/31, THIS BOX MAY BE COLLECTED AS EARLY AS 12 NOON.", "ref": "7797400002"}, "type": "Feature"}
{"geometry": {"coordinates": [-97.145455451, 29.572686241], "type": "Point"}, "id": "lj4gTHNeEkeDjWPQqVluPRVem7A=", "properties": {"@spider": "usps_collection_boxes", "addr:city": "MOULTON", "addr:country": "US", "addr:full": "206 S MAIN ST", "addr:postcode": "77975", "addr:state": "TX", "brand": "USPS", "collection_times": "Mo-Fr 15:30; Sa 10:00", "name": "USPS COLLECTION BOX - BLUE BOX", "note": "ON 12/24 AND 12/31, THIS BOX MAY BE COLLECTED AS EARLY AS 12 NOON.", "ref": "7797500000"}, "type": "Feature"}
{"geometry": {"coordinates": [-97.145455451, 29.572686241], "type": "Point"}, "id": "KBFINHDWmGfTpSp1aJVO60wBCQ4=", "properties": {"@spider": "usps_collection_boxes", "addr:city": "MOULTON", "addr:country": "US", "addr:full": "206 S MAIN ST", "addr:postcode": "77975", "addr:state": "TX", "brand": "USPS", "collection_times": "Mo-Fr 15:45; Sa 09:45", "name": "USPS COLLECTION BOX - PO LOBBY", "note": "ON 12/24 AND 12/31, THIS BOX MAY BE COLLECTED AS EARLY AS 12 NOON.", "ref": "7797500002"}, "type": "Feature"}
{"geometry": {"coordinates": [-97.145455451, 29.572686241], "type": "Point"}, "id": "yPgSmlKHC-ElaJtahgwrM4NAWsE=", "properties": {"@spider": "usps_collection_boxes", "addr:city": "MOULTON", "addr:country": "US", "addr:full": "206 S MAIN ST", "addr:postcode": "77975", "addr:state": "TX", "brand": "USPS", "collection_times": "Mo-Fr 15:45", "name": "USPS COLLECTION BOX - PO LOBBY", "note": "ON 12/24 AND 12/31, THIS BOX MAY BE COLLECTED AS EARLY AS 12 NOON.", "ref": "7797500004"}, "type": "Feature"}
{"geometry": {"coordinates": [-97.088517602, 28.914863487], "type": "Point"}, "id": "i6eTJLLYeVx7Rt4m0-0sQgIIn2Q=", "properties": {"@spider": "usps_collection_boxes", "addr:city": "NURSERY", "addr:country": "US", "addr:full": "12685 NURSERY DR", "addr:postcode": "77976", "addr:state": "TX", "brand": "USPS", "collection_times": "Mo-Fr 11:30; Sa 09:30", "name": "USPS COLLECTION BOX - PO LOBBY", "ref": "7797600001"}, "type": "Feature"}
{"geometry": {"coordinates": [-97.088517602, 28.914863487], "type": "Point"}, "id": "0u8gkYVbGFLZJ34kvwygY61hvqw=", "properties": {"@spider": "usps_collection_boxes", "addr:city": "NURSERY", "addr:country": "US", "addr:full": "12685 NURSERY DR", "addr:postcode": "77976", "addr:state": "TX", "brand": "USPS", "collection_times": "Mo-Fr 11:30; Sa 09:45", "name": "USPS COLLECTION BOX - BLUE BOX", "ref": "7797600004"}, "type": "Feature"}
{"geometry": {"coordinates": [-97.088517602, 28.914863487], "type": "Point"}, "id": "dysdasnR-lvb_rex0bnB5d9pYjk=", "properties": {"@spider": "usps_collection_boxes", "addr:city": "NURSERY", "addr:country": "US", "addr:full": "12685 NURSERY DR", "addr:postcode": "77976", "addr:state": "TX", "brand": "USPS", "collection_times": "Mo-Fr 12:00; Sa 09:45", "name": "USPS COLLECTION BOX - PO LOBBY", "ref": "7797600005"}, "type": "Feature"}
{"geometry": {"coordinates": [-96.827247556, 28.691724574], "type": "Point"}, "id": "MrwkdYd6aDJiNfX_0btajXHM5LA=", "properties": {"@spider": "usps_collection_boxes", "addr:city": "PLACEDO", "addr:country": "US", "addr:full": "5037 FM 616", "addr:postcode": "77977", "addr:state": "TX", "brand": "USPS", "collection_times": "Mo-Fr 12:00; Sa 09:00", "name": "USPS COLLECTION BOX - BLUE BOX", "ref": "7797700000"}, "type": "Feature"}
{"geometry": {"coordinates": [-96.827247556, 28.691724574], "type": "Point"}, "id": "yDZ-2cA_w_hRidA1Ymm8650xtik=", "properties": {"@spider": "usps_collection_boxes", "addr:city": "PLACEDO", "addr:country": "US", "addr:full": "5037 FM 616", "addr:postcode": "77977", "addr:state": "TX", "brand": "USPS", "collection_times": "Mo-Fr 11:30", "name": "USPS COLLECTION BOX - PO LOBBY", "ref": "7797700002"}, "type": "Feature"}
{"geometry": {"coordinates": [-96.827247556, 28.691724574], "type": "Point"}, "id": "ExdC2adm3cxPm1vLspOHci6Y1P8=", "properties": {"@spider": "usps_collection_boxes", "addr:city": "PLACEDO", "addr:country": "US", "addr:full": "5037 FM 616", "addr:postcode": "77977", "addr:state": "TX", "brand": "USPS", "collection_times": "Mo-Fr 12:00", "name": "USPS COLLECTION BOX - PO LOBBY", "ref": "7797700004"}, "type": "Feature"}
{"geometry": {"coordinates": [-96.554480593, 28.676503269], "type": "Point"}, "id": "Z3ffrMN1vexFbvm0bV00qRc1FAQ=", "properties": {"@spider": "usps_collection_boxes", "addr:city": "POINT COMFORT", "addr:country": "US", "addr:full": "3 LAMAR ST", "addr:postcode": "77978", "addr:state": "TX", "brand": "USPS", "collection_times": "Mo-Fr 15:15; Sa 10:00", "name": "USPS COLLECTION BOX - BLUE BOX", "note": "ON 12/24 AND 12/31, THIS BOX MAY BE COLLECTED AS EARLY AS 12 NOON.", "ref": "7797800001"}, "type": "Feature"}
{"geometry": {"coordinates": [-96.554480593, 28.676503269], "type": "Point"}, "id": "DP-R3tePPGrefF36n5UzVnoxB-I=", "properties": {"@spider": "usps_collection_boxes", "addr:city": "POINT COMFORT", "addr:country": "US", "addr:full": "3 LAMAR ST", "addr:postcode": "77978", "addr:state": "TX", "brand": "USPS", "collection_times": "Mo-Fr 15:45", "name": "USPS COLLECTION BOX - PO LOBBY", "note": "ON 12/24 AND 12/31, THIS BOX MAY BE COLLECTED AS EARLY AS 12 NOON.", "ref": "7797800003"}, "type": "Feature"}
{"geometry": {"coordinates": [-96.554480593, 28.676503269], "type": "Point"}, "id": "06Xq04QZNh9eC7-oHMkTXHrIlwY=", "properties": {"@spider": "usps_collection_boxes", "addr:city": "POINT COMFORT", "addr:country": "US", "addr:full": "3 LAMAR ST", "addr:postcode": "77978", "addr:state": "TX", "brand": "USPS", "collection_times": "Mo-Fr 16:00", "name": "USPS COLLECTION BOX - PO LOBBY", "note": "ON 12/24 AND 12/31, THIS BOX MAY BE COLLECTED AS EARLY AS 12 NOON.", "ref": "7797800005"}, "type": "Feature"}
{"geometry": {"coordinates": [-96.6312133, 28.620387], "type": "Point"}, "id": "4_x2PWEoKr3ZycKLmFHtBax4qKo=", "properties": {"@spider": "usps_collection_boxes", "addr:city": "PORT LAVACA", "addr:country": "US", "addr:full": "717 N VIRGINIA ST", "addr:postcode": "77979", "addr:state": "TX", "brand": "USPS", "collection_times": "Mo-Sa 15:20", "name": "USPS COLLECTION BOX - BLUE BOX", "note": "ON 12/24 AND 12/31, THIS BOX MAY BE COLLECTED AS EARLY AS 12 NOON.", "ref": "7797900004"}, "type": "Feature"}
{"geometry": {"coordinates": [-96.625962, 28.612954], "type": "Point"}, "id": "NG3VohkV_G_ERS99FTYlYZ52UNY=", "properties": {"@spider": "usps_collection_boxes", "addr:city": "PORT LAVACA", "addr:country": "US", "addr:full": "211 S ANN ST", "addr:postcode": "77979", "addr:state": "TX", "brand": "USPS", "collection_times": "Mo-Sa 15:20", "name": "USPS COLLECTION BOX - BLUE BOX", "note": "ON 12/24 AND 12/31, THIS BOX MAY BE COLLECTED AS EARLY AS 12 NOON.", "ref": "7797900010"}, "type": "Feature"}
{"geometry": {"coordinates": [-96.6374485, 28.625856], "type": "Point"}, "id": "QkMxb9pywfkcNVll276rrgAzKXc=", "properties": {"@spider": "usps_collection_boxes", "addr:city": "PORT LAVACA", "addr:country": "US", "addr:full": "1401 N VIRGINIA ST", "addr:postcode": "77979", "addr:state": "TX", "brand": "USPS", "collection_times": "Mo-Sa 15:20", "name": "USPS COLLECTION BOX - BLUE BOX", "note": "ON 12/24 AND 12/31, THIS BOX MAY BE COLLECTED AS EARLY AS 12 NOON.", "ref": "7797900012"}, "type": "Feature"}
{"geometry": {"coordinates": [-96.64184091, 28.617400836], "type": "Point"}, "id": "81cM-jIYrSGoVqtQCbaDKi_QOqc=", "properties": {"@spider": "usps_collection_boxes", "addr:city": "PORT LAVACA", "addr:country": "US", "addr:full": "1201 HALF LEAGUE RD", "addr:postcode": "77979", "addr:state": "TX", "brand": "USPS", "collection_times": "Mo-Sa 15:30", "name": "USPS COLLECTION BOX - BLUE BOX", "note": "ON 12/24 AND 12/31, THIS BOX MAY BE COLLECTED AS EARLY AS 12 NOON.", "ref": "7797900020"}, "type": "Feature"}
{"geometry": {"coordinates": [-96.6251521, 28.612011], "type": "Point"}, "id": "WhmBIOJyEwEUpFZWYydFZiGUpSQ=", "properties": {"@spider": "usps_collection_boxes", "addr:city": "PORT LAVACA", "addr:country": "US", "addr:full": "201 W AUSTIN ST", "addr:postcode": "77979", "addr:state": "TX", "brand": "USPS", "collection_times": "Mo-Sa 15:20", "name": "USPS COLLECTION BOX - BLUE BOX", "note": "ON 12/24 AND 12/31, THIS BOX MAY BE COLLECTED AS EARLY AS 12 NOON.", "ref": "7797900022"}, "type": "Feature"}
{"geometry": {"coordinates": [-96.64184091, 28.617400836], "type": "Point"}, "id": "qVgOGNjsewUBgHON5DEAxkvB-X8=", "properties": {"@spider": "usps_collection_boxes", "addr:city": "PORT LAVACA", "addr:country": "US", "addr:full": "1201 HALF LEAGUE RD", "addr:postcode": "77979", "addr:state": "TX", "brand": "USPS", "collection_times": "Mo-Fr 16:30; Sa 15:30", "name": "USPS COLLECTION BOX - PO LOBBY", "note": "ON 12/24 AND 12/31, THIS BOX MAY BE COLLECTED AS EARLY AS 12 NOON.", "ref": "7797900024"}, "type": "Feature"}
{"geometry": {"coordinates": [-96.64184091, 28.617400836], "type": "Point"}, "id": "MNY4bULFMfb_YrY83v74mGLnNso=", "properties": {"@spider": "usps_collection_boxes", "addr:city": "PORT LAVACA", "addr:country": "US", "addr:full": "1201 HALF LEAGUE RD", "addr:postcode": "77979", "addr:state": "TX", "brand": "USPS", "collection_times": "Mo-Fr 16:30; Sa 12:00", "name": "USPS COLLECTION BOX - PO LOBBY", "note": "ON 12/24 AND 12/31, THIS BOX MAY BE COLLECTED AS EARLY AS 12 NOON.", "ref": "7797900026"}, "type": "Feature"}
{"geometry": {"coordinates": [-96.410022468, 28.446634256], "type": "Point"}, "id": "m4k3K6Ba-zxrOBFBDG4b0sGK-6Y=", "properties": {"@spider": "usps_collection_boxes", "addr:city": "PORT O CONNOR", "addr:country": "US", "addr:full": "611 W ADAMS ST", "addr:postcode": "77982", "addr:state": "TX", "brand": "USPS", "collection_times": "Mo-Fr 14:45; Sa 11:00", "name": "USPS COLLECTION BOX - BLUE BOX", "note": "ON 12/24 AND 12/31, THIS BOX MAY BE COLLECTED AS EARLY AS 12 NOON.", "ref": "7798200000"}, "type": "Feature"}
{"geometry": {"coordinates": [-96.410022468, 28.446634256], "type": "Point"}, "id": "2ObSpNEZPcsORY-tiA1RID13yNY=", "properties": {"@spider": "usps_collection_boxes", "addr:city": "PORT O CONNOR", "addr:country": "US", "addr:full": "611 W ADAMS ST", "addr:postcode": "77982", "addr:state": "TX", "brand": "USPS", "collection_times": "Mo-Fr 14:50; Sa 10:00", "name": "USPS COLLECTION BOX - PO LOBBY", "note": "ON 12/24 AND 12/31, THIS BOX MAY BE COLLECTED AS EARLY AS 12 NOON.", "ref": "7798200002"}, "type": "Feature"}
{"geometry": {"coordinates": [-96.410022468, 28.446634256], "type": "Point"}, "id": "mbIpv3gU3wQ07JNP4sttxJDqn0E=", "properties": {"@spider": "usps_collection_boxes", "addr:city": "PORT O CONNOR", "addr:country": "US", "addr:full": "611 W ADAMS ST", "addr:postcode": "77982", "addr:state": "TX", "brand": "USPS", "collection_times": "Mo-Fr 14:50", "name": "USPS COLLECTION BOX - PO LOBBY", "note": "ON 12/24 AND 12/31, THIS BOX MAY BE COLLECTED AS EARLY AS 12 NOON.", "ref": "7798200004"}, "type": "Feature"}
{"geometry": {"coordinates": [-96.710890985, 28.410426513], "type": "Point"}, "id": "Dr10ghJjNOUBXaX_WY1EBZy8ODU=", "properties": {"@spider": "usps_collection_boxes", "addr:city": "SEADRIFT", "addr:country": "US", "addr:full": "518 S MAIN ST", "addr:postcode": "77983", "addr:state": "TX", "brand": "USPS", "collection_times": "Mo-Fr 15:00; Sa 11:30", "name": "USPS COLLECTION BOX - BLUE BOX", "note": "ON 12/24 AND 12/31, THIS BOX MAY BE COLLECTED AS EARLY AS 12 NOON.", "ref": "7798300000"}, "type": "Feature"}
{"geometry": {"coordinates": [-96.710890985, 28.410426513], "type": "Point"}, "id": "jMxSEnBOvsjSEWK1AHdFpIs48-M=", "properties": {"@spider": "usps_collection_boxes", "addr:city": "SEADRIFT", "addr:country": "US", "addr:full": "518 S MAIN ST", "addr:postcode": "77983", "addr:state": "TX", "brand": "USPS", "collection_times": "Mo-Fr 15:15", "name": "USPS COLLECTION BOX - PO LOBBY", "note": "ON 12/24 AND 12/31, THIS BOX MAY BE COLLECTED AS EARLY AS 12 NOON.", "ref": "7798300002"}, "type": "Feature"}
{"geometry": {"coordinates": [-96.710890985, 28.410426513], "type": "Point"}, "id": "Rqr7HkFBdJwyWd2raAoECn5t3x8=", "properties": {"@spider": "usps_collection_boxes", "addr:city": "SEADRIFT", "addr:country": "US", "addr:full": "518 S MAIN ST", "addr:postcode": "77983", "addr:state": "TX", "brand": "USPS", "collection_times": "Mo-Fr 15:15", "name": "USPS COLLECTION BOX - PO LOBBY", "note": "ON 12/24 AND 12/31, THIS BOX MAY BE COLLECTED AS EARLY AS 12 NOON.", "ref": "7798300005"}, "type": "Feature"}
{"geometry": {"coordinates": [-97.173109928, 29.429296122], "type": "Point"}, "id": "uKg1lOe0ti1Q_ZUajdq08jSgUZk=", "properties": {"@spider": "usps_collection_boxes", "addr:city": "SHINER", "addr:country": "US", "addr:full": "217 W 7TH ST", "addr:postcode": "77984", "addr:state": "TX", "brand": "USPS", "collection_times": "Mo-Fr 15:15; Sa 11:45", "name": "USPS COLLECTION BOX - BLUE BOX", "note": "ON 12/24 AND 12/31, THIS BOX MAY BE COLLECTED AS EARLY AS 12 NOON.", "ref": "7798400001"}, "type": "Feature"}
{"geometry": {"coordinates": [-97.173109928, 29.429296122], "type": "Point"}, "id": "bfHNPnEdXGmYvx4nIqmtxspo3S4=", "properties": {"@spider": "usps_collection_boxes", "addr:city": "SHINER", "addr:country": "US", "addr:full": "217 W 7TH ST", "addr:postcode": "77984", "addr:state": "TX", "brand": "USPS", "collection_times": "Mo-Fr 15:45; Sa 11:45", "name": "USPS COLLECTION BOX - PO LOBBY", "note": "ON 12/24 AND 12/31, THIS BOX MAY BE COLLECTED AS EARLY AS 12 NOON.", "ref": "7798400003"}, "type": "Feature"}
{"geometry": {"coordinates": [-97.173109928, 29.429296122], "type": "Point"}, "id": "bo4qKGv_NDejPRPiCzojS-0KuUY=", "properties": {"@spider": "usps_collection_boxes", "addr:city": "SHINER", "addr:country": "US", "addr:full": "217 W 7TH ST", "addr:postcode": "77984", "addr:state": "TX", "brand": "USPS", "collection_times": "Mo-Fr 15:15; Sa 11:45", "name": "USPS COLLECTION BOX - BLUE BOX", "note": "ON 12/24 AND 12/31, THIS BOX MAY BE COLLECTED AS EARLY AS 12 NOON.", "ref": "7798400004"}, "type": "Feature"}
{"geometry": {"coordinates": [-97.173109928, 29.429296122], "type": "Point"}, "id": "yfGoACiUz6HUI2NJetinGrNybpo=", "properties": {"@spider": "usps_collection_boxes", "addr:city": "SHINER", "addr:country": "US", "addr:full": "217 W 7TH ST", "addr:postcode": "77984", "addr:state": "TX", "brand": "USPS", "collection_times": "Mo-Fr 16:00; Sa 11:30", "name": "USPS COLLECTION BOX - PO LOBBY", "note": "ON 12/24 AND 12/31, THIS BOX MAY BE COLLECTED AS EARLY AS 12 NOON.", "ref": "7798400006"}, "type": "Feature"}
{"geometry": {"coordinates": [-97.073006912, 29.344864215], "type": "Point"}, "id": "fZJPcJPNSpxZ34us6JxJyBDJoM8=", "properties": {"@spider": "usps_collection_boxes", "addr:city": "SWEET HOME", "addr:country": "US", "addr:full": "22 COUNTY ROAD 391E", "addr:postcode": "77987", "addr:state": "TX", "brand": "USPS", "collection_times": "Mo-Fr 12:00; Sa 09:00", "name": "USPS COLLECTION BOX - BLUE BOX", "ref": "7798700000"}, "type": "Feature"}
{"geometry": {"coordinates": [-97.073006912, 29.344864215], "type": "Point"}, "id": "fwwJqHZc1YNm7tWoe8DQJZUchiE=", "properties": {"@spider": "usps_collection_boxes", "addr:city": "SWEET HOME", "addr:country": "US", "addr:full": "22 COUNTY ROAD 391E", "addr:postcode": "77987", "addr:state": "TX", "brand": "USPS", "collection_times": "Mo-Fr 11:30; Sa 08:30", "name": "USPS COLLECTION BOX - PO LOBBY", "ref": "7798700001"}, "type": "Feature"}
{"geometry": {"coordinates": [-97.073006912, 29.344864215], "type": "Point"}, "id": "Ev6arH_L8dy7gW2RxTUGT01Me-4=", "properties": {"@spider": "usps_collection_boxes", "addr:city": "SWEET HOME", "addr:country": "US", "addr:full": "22 COUNTY ROAD 391E", "addr:postcode": "77987", "addr:state": "TX", "brand": "USPS", "collection_times": "Mo-Fr 12:00", "name": "USPS COLLECTION BOX - PO LOBBY", "ref": "7798700005"}, "type": "Feature"}
{"geometry": {"coordinates": [-96.88964528, 28.847486954], "type": "Point"}, "id": "vP9OOBGov0hTp9rgKMy06Ej8i4Q=", "properties": {"@spider": "usps_collection_boxes", "addr:city": "TELFERNER", "addr:country": "US", "addr:full": "319 FM 1686", "addr:postcode": "77988", "addr:state": "TX", "brand": "USPS", "collection_times": "Mo-Fr 13:30; Sa 09:00", "name": "USPS COLLECTION BOX - BLUE BOX", "note": "ON 12/24 AND 12/31, THIS BOX MAY BE COLLECTED AS EARLY AS 12 NOON.", "ref": "7798800006"}, "type": "Feature"}
{"geometry": {"coordinates": [-96.88964528, 28.8474869537], "type": "Point"}, "id": "cO8eTN5fFE_PGEgMwJS8jym5Nq8=", "properties": {"@spider": "usps_collection_boxes", "addr:city": "TELFERNER", "addr:country": "US", "addr:full": "319 FM 1686", "addr:postcode": "77988", "addr:state": "TX", "brand": "USPS", "collection_times": "Mo-Fr 13:30; Sa 09:00", "name": "USPS COLLECTION BOX - PO LOBBY", "note": "ON 12/24 AND 12/31, THIS BOX MAY BE COLLECTED AS EARLY AS 12 NOON.", "ref": "7798800007"}, "type": "Feature"}
{"geometry": {"coordinates": [-96.88964528, 28.8474869537], "type": "Point"}, "id": "ee8e87Ef4peo8cdgzhBM0ddmMSM=", "properties": {"@spider": "usps_collection_boxes", "addr:city": "TELFERNER", "addr:country": "US", "addr:full": "319 FM 1686", "addr:postcode": "77988", "addr:state": "TX", "brand": "USPS", "collection_times": "Mo-Fr 13:45", "name": "USPS COLLECTION BOX - PO LOBBY", "note": "ON 12/24 AND 12/31, THIS BOX MAY BE COLLECTED AS EARLY AS 12 NOON.", "ref": "7798800008"}, "type": "Feature"}
{"geometry": {"coordinates": [-97.150766479, 28.99797218], "type": "Point"}, "id": "jFXRnRxz56Y0MVq7bsrThNOTtVE=", "properties": {"@spider": "usps_collection_boxes", "addr:city": "THOMASTON", "addr:country": "US", "addr:full": "264 FORDTRAN RD", "addr:postcode": "77989", "addr:state": "TX", "brand": "USPS", "collection_times": "Mo-Sa 10:00", "name": "USPS COLLECTION BOX - PO LOBBY", "ref": "7798900000"}, "type": "Feature"}
{"geometry": {"coordinates": [-97.150766479, 28.99797218], "type": "Point"}, "id": "zpptDz3gOmMCdB_PJ3I8F1qW_4M=", "properties": {"@spider": "usps_collection_boxes", "addr:city": "THOMASTON", "addr:country": "US", "addr:full": "264 FORDTRAN RD", "addr:postcode": "77989", "addr:state": "TX", "brand": "USPS", "collection_times": "Mo-Sa 10:00", "name": "USPS COLLECTION BOX - BLUE BOX", "ref": "7798900001"}, "type": "Feature"}
{"geometry": {"coordinates": [-97.150766479, 28.99797218], "type": "Point"}, "id": "EgEIK89NIFYYNW5cnm4LBSMHzvs=", "properties": {"@spider": "usps_collection_boxes", "addr:city": "THOMASTON", "addr:country": "US", "addr:full": "264 FORDTRAN RD", "addr:postcode": "77989", "addr:state": "TX", "brand": "USPS", "collection_times": "Mo-Sa 10:00", "name": "USPS COLLECTION BOX - PO LOBBY", "ref": "7798900003"}, "type": "Feature"}
{"geometry": {"coordinates": [-96.889063796, 28.456105968], "type": "Point"}, "id": "_qrf-eGi77kdWHRARMgUDeDaqEM=", "properties": {"@spider": "usps_collection_boxes", "addr:city": "TIVOLI", "addr:country": "US", "addr:full": "211 W SCOTT ST", "addr:postcode": "77990", "addr:state": "TX", "brand": "USPS", "collection_times": "Mo-Fr 12:00; Sa 09:00", "name": "USPS COLLECTION BOX - BLUE BOX", "ref": "7799000001"}, "type": "Feature"}
{"geometry": {"coordinates": [-96.889063796, 28.456105968], "type": "Point"}, "id": "bHXUv82pjiDhjMFzzecy8Ri2Fdc=", "properties": {"@spider": "usps_collection_boxes", "addr:city": "TIVOLI", "addr:country": "US", "addr:full": "211 W SCOTT ST", "addr:postcode": "77990", "addr:state": "TX", "brand": "USPS", "collection_times": "Mo-Fr 11:30; Sa 09:00", "name": "USPS COLLECTION BOX - PO LOBBY", "ref": "7799000002"}, "type": "Feature"}
{"geometry": {"coordinates": [-96.889063796, 28.456105968], "type": "Point"}, "id": "XaA-ZXfwHGl3sbkW3X6dEXB14Hg=", "properties": {"@spider": "usps_collection_boxes", "addr:city": "TIVOLI", "addr:country": "US", "addr:full": "211 W SCOTT ST", "addr:postcode": "77990", "addr:state": "TX", "brand": "USPS", "collection_times": "Mo-Fr 12:00", "name": "USPS COLLECTION BOX - PO LOBBY", "ref": "7799000004"}, "type": "Feature"}
{"geometry": {"coordinates": [-96.618586098, 28.822328834], "type": "Point"}, "id": "JugW1_xUoFf5cV791lKB-ET5pZk=", "properties": {"@spider": "usps_collection_boxes", "addr:city": "VANDERBILT", "addr:country": "US", "addr:full": "5825 FM 616", "addr:postcode": "77991", "addr:state": "TX", "brand": "USPS", "collection_times": "Mo-Fr 11:30; Sa 09:45", "name": "USPS COLLECTION BOX - BLUE BOX", "ref": "7799100000"}, "type": "Feature"}
{"geometry": {"coordinates": [-96.618586098, 28.822328834], "type": "Point"}, "id": "1VKODgOFAvOheWZgGmPNky69A34=", "properties": {"@spider": "usps_collection_boxes", "addr:city": "VANDERBILT", "addr:country": "US", "addr:full": "5825 FM 616", "addr:postcode": "77991", "addr:state": "TX", "brand": "USPS", "collection_times": "Mo-Fr 12:00", "name": "USPS COLLECTION BOX - PO LOBBY", "ref": "7799100001"}, "type": "Feature"}
{"geometry": {"coordinates": [-96.618586098, 28.822328834], "type": "Point"}, "id": "L2AFuuhO7eMzURITDVLLCSKUHTo=", "properties": {"@spider": "usps_collection_boxes", "addr:city": "VANDERBILT", "addr:country": "US", "addr:full": "5825 FM 616", "addr:postcode": "77991", "addr:state": "TX", "brand": "USPS", "collection_times": "Mo-Fr 12:00", "name": "USPS COLLECTION BOX - PO LOBBY", "ref": "7799100003"}, "type": "Feature"}
{"geometry": {"coordinates": [-97.449043075, 28.847288071], "type": "Point"}, "id": "xcY7hX2YaJHWwF32xwylGgh0Yjk=", "properties": {"@spider": "usps_collection_boxes", "addr:city": "WEESATCHE", "addr:country": "US", "addr:full": "195 W FM 884", "addr:postcode": "77993", "addr:state": "TX", "brand": "USPS", "collection_times": "Mo-Fr 10:00; Sa 07:45", "name": "USPS COLLECTION BOX - BLUE BOX", "ref": "7799300000"}, "type": "Feature"}
{"geometry": {"coordinates": [-97.449043075, 28.847288071], "type": "Point"}, "id": "HZvEIKgdV5HXEh4UtPYp6fVmJB4=", "properties": {"@spider": "usps_collection_boxes", "addr:city": "WEESATCHE", "addr:country": "US", "addr:full": "195 W FM 884", "addr:postcode": "77993", "addr:state": "TX", "brand": "USPS", "collection_times": "Mo-Fr 10:00; Sa 07:45", "name": "USPS COLLECTION BOX - PO LOBBY", "ref": "7799300001"}, "type": "Feature"}
{"geometry": {"coordinates": [-97.449043075, 28.847288071], "type": "Point"}, "id": "5erMtKG93kh41R55YRlYxPWcsFg=", "properties": {"@spider": "usps_collection_boxes", "addr:city": "WEESATCHE", "addr:country": "US", "addr:full": "195 W FM 884", "addr:postcode": "77993", "addr:state": "TX", "brand": "USPS", "collection_times": "Mo-Fr 10:00; Sa 09:30", "name": "USPS COLLECTION BOX - PO LOBBY", "ref": "7799300003"}, "type": "Feature"}
{"geometry": {"coordinates": [-97.4711319616, 29.1945947427], "type": "Point"}, "id": "vdSXDuzujg_9t6WLzpxS8Dr4Nlk=", "properties": {"@spider": "usps_collection_boxes", "addr:city": "WESTHOFF", "addr:country": "US", "addr:full": "16 HOUSTON AVE", "addr:postcode": "77994", "addr:state": "TX", "brand": "USPS", "collection_times": "Mo-Fr 12:00; Sa 10:00", "name": "USPS COLLECTION BOX - BLUE BOX", "ref": "7799400000"}, "type": "Feature"}
{"geometry": {"coordinates": [-97.471121944, 29.19444191], "type": "Point"}, "id": "Vvm-YBHTg04G4ChpM1O6l7fHG3s=", "properties": {"@spider": "usps_collection_boxes", "addr:city": "WESTHOFF", "addr:country": "US", "addr:full": "16 HOUSTON AVE", "addr:postcode": "77994", "addr:state": "TX", "brand": "USPS", "collection_times": "Mo-Fr 11:30; Sa 10:00", "name": "USPS COLLECTION BOX - PO LOBBY", "ref": "7799400001"}, "type": "Feature"}
{"geometry": {"coordinates": [-97.471121944, 29.19444191], "type": "Point"}, "id": "NW3m7F8YfATeOtLCHVeEnOGN97w=", "properties": {"@spider": "usps_collection_boxes", "addr:city": "WESTHOFF", "addr:country": "US", "addr:full": "16 HOUSTON AVE", "addr:postcode": "77994", "addr:state": "TX", "brand": "USPS", "collection_times": "Mo-Fr 11:30; Sa 10:00", "name": "USPS COLLECTION BOX - PO LOBBY", "ref": "7799400002"}, "type": "Feature"}
{"geometry": {"coordinates": [-97.471121944, 29.19444191], "type": "Point"}, "id": "gRiIDFmCu5cNGlkgZawm6mk9bic=", "properties": {"@spider": "usps_collection_boxes", "addr:city": "WESTHOFF", "addr:country": "US", "addr:full": "16 HOUSTON AVE", "addr:postcode": "77994", "addr:state": "TX", "brand": "USPS", "collection_times": "Mo-Fr 12:00; Sa 10:00", "name": "USPS COLLECTION BOX - PO LOBBY", "ref": "7799400004"}, "type": "Feature"}
{"geometry": {"coordinates": [-97.149707884, 29.291279177], "type": "Point"}, "id": "eNdn4H9zpUL4BjBwJ4kpHy-fnrQ=", "properties": {"@spider": "usps_collection_boxes", "addr:city": "YOAKUM", "addr:country": "US", "addr:full": "112 NELSON ST", "addr:postcode": "77995", "addr:state": "TX", "brand": "USPS", "collection_times": "Mo-Sa 16:00", "name": "USPS COLLECTION BOX - BLUE BOX", "note": "ON 12/24 AND 12/31, THIS BOX MAY BE COLLECTED AS EARLY AS 12 NOON.", "ref": "7799500002"}, "type": "Feature"}
{"geometry": {"coordinates": [-97.149707884, 29.291279177], "type": "Point"}, "id": "4COnuEFgfz6bfoF21QBuBVfdaR0=", "properties": {"@spider": "usps_collection_boxes", "addr:city": "YOAKUM", "addr:country": "US", "addr:full": "112 NELSON ST", "addr:postcode": "77995", "addr:state": "TX", "brand": "USPS", "collection_times": "Mo-Fr 16:00; Sa 15:00", "name": "USPS COLLECTION BOX - PO LOBBY", "note": "ON 12/24 AND 12/31, THIS BOX MAY BE COLLECTED AS EARLY AS 12 NOON.", "ref": "7799500003"}, "type": "Feature"}
{"geometry": {"coordinates": [-97.149707884, 29.291279177], "type": "Point"}, "id": "dO8ZJrwC0KfW6Pcb89h8ma1FaxE=", "properties": {"@spider": "usps_collection_boxes", "addr:city": "YOAKUM", "addr:country": "US", "addr:full": "112 NELSON ST", "addr:postcode": "77995", "addr:state": "TX", "brand": "USPS", "collection_times": "Mo-Sa 16:00", "name": "USPS COLLECTION BOX - BLUE BOX", "note": "ON 12/24 AND 12/31, THIS BOX MAY BE COLLECTED AS EARLY AS 12 NOON.", "ref": "7799500004"}, "type": "Feature"}
{"geometry": {"coordinates": [-97.168113085, 29.30039808], "type": "Point"}, "id": "9F2Ga2g18PSkhXR4SC0_Qzf8F7c=", "properties": {"@spider": "usps_collection_boxes", "addr:city": "YOAKUM", "addr:country": "US", "addr:full": "301 W GRAND AVE", "addr:postcode": "77995", "addr:state": "TX", "brand": "USPS", "collection_times": "Mo-Sa 15:00", "name": "USPS COLLECTION BOX - BLUE BOX", "note": "ON 12/24 AND 12/31, THIS BOX MAY BE COLLECTED AS EARLY AS 12 NOON.", "ref": "7799500009"}, "type": "Feature"}
{"geometry": {"coordinates": [-97.168113085, 29.30039808], "type": "Point"}, "id": "VDxFYvCH4-qJqtRXOWAiWdSAZGA=", "properties": {"@spider": "usps_collection_boxes", "addr:city": "YOAKUM", "addr:country": "US", "addr:full": "301 W GRAND AVE", "addr:postcode": "77995", "addr:state": "TX", "brand": "USPS", "collection_times": "Mo-Sa 15:00", "name": "USPS COLLECTION BOX - BLUE BOX", "note": "ON 12/24 AND 12/31, THIS BOX MAY BE COLLECTED AS EARLY AS 12 NOON.", "ref": "7799500010"}, "type": "Feature"}
{"geometry": {"coordinates": [-97.149707884, 29.291279177], "type": "Point"}, "id": "63YjfLh25cbS28tIDLpXF1P8pjg=", "properties": {"@spider": "usps_collection_boxes", "addr:city": "YOAKUM", "addr:country": "US", "addr:full": "112 NELSON ST", "addr:postcode": "77995", "addr:state": "TX", "brand": "USPS", "collection_times": "Mo-Fr 16:30; Sa 11:00", "name": "USPS COLLECTION BOX - PO LOBBY", "note": "ON 12/24 AND 12/31, THIS BOX MAY BE COLLECTED AS EARLY AS 12 NOON.", "ref": "7799500018"}, "type": "Feature"}
