{"geometry": {"coordinates": [-98.706143, 29.288848], "type": "Point"}, "id": "1QnuH1AKqqHmuXks6tBcYB2IrXQ=", "properties": {"@spider": "usps_collection_boxes", "addr:city": "ATASCOSA", "addr:country": "US", "addr:full": "10850 PEARSALL RD", "addr:postcode": "78002", "addr:state": "TX", "brand": "USPS", "collection_times": "Mo-Fr 16:30; Sa 10:00", "name": "USPS COLLECTION BOX - PO LOBBY", "note": "ON 12/24 AND 12/31, THIS BOX MAY BE COLLECTED AS EARLY AS 12 NOON.", "ref": "7800200003"}, "type": "Feature"}
{"geometry": {"coordinates": [-98.706145004, 29.288843394], "type": "Point"}, "id": "qv4YQCsKgwZ54F4HY3ZtFK-_rt4=", "properties": {"@spider": "usps_collection_boxes", "addr:city": "ATASCOSA", "addr:country": "US", "addr:full": "10850 PEARSALL RD", "addr:postcode": "78002", "addr:state": "TX", "brand": "USPS", "collection_times": "Mo-Fr 16:30", "name": "USPS COLLECTION BOX - PO LOBBY", "note": "ON 12/24 AND 12/31, THIS BOX MAY BE COLLECTED AS EARLY AS 12 NOON.", "ref": "7800200005"}, "type": "Feature"}
{"geometry": {"coordinates": [-99.076246, 29.730228], "type": "Point"}, "id": "EBWgd17UL6D886QDvBhl34sUlNc=", "properties": {"@spider": "usps_collection_boxes", "addr:city": "BANDERA", "addr:country": "US", "addr:full": "130 STATE HIGHWAY 173 N", "addr:postcode": "78003", "addr:state": "TX", "brand": "USPS", "collection_times": "Mo-Fr 17:00; Sa 09:30", "name": "USPS COLLECTION BOX - PO LOBBY", "note": "ON 12/24 AND 12/31, THIS BOX MAY BE COLLECTED AS EARLY AS 12 NOON.", "ref": "7800300005"}, "type": "Feature"}
{"geometry": {"coordinates": [-99.0762455514, 29.7302206303], "type": "Point"}, "id": "q_6FYEO8H13ey0Hu0G7Tg5EbQGU=", "properties": {"@spider": "usps_collection_boxes", "addr:city": "BANDERA", "addr:country": "US", "addr:full": "130 STATE HIGHWAY 173 N", "addr:postcode": "78003", "addr:state": "TX", "brand": "USPS", "collection_times": "Mo-Fr 17:00; Sa 09:30", "name": "USPS COLLECTION BOX - PO LOBBY", "note": "ON 12/24 AND 12/31, THIS BOX MAY BE COLLECTED AS EARLY AS 12 NOON.", "ref": "7800300006"}, "type": "Feature"}
{"geometry": {"coordinates": [-99.076246, 29.730228], "type": "Point"}, "id": "Z0yK2orTI5k1zbnXHmfSwF7wuS0=", "properties": {"@spider": "usps_collection_boxes", "addr:city": "BANDERA", "addr:country": "US", "addr:full": "130 STATE HIGHWAY 173 N", "addr:postcode": "78003", "addr:state": "TX", "brand": "USPS", "collection_times": "Mo-Fr 16:30; Sa 09:30", "name": "USPS COLLECTION BOX - BLUE BOX", "note": "ON 12/24 AND 12/31, THIS BOX MAY BE COLLECTED AS EARLY AS 12 NOON.", "ref": "7800300007"}, "type": "Feature"}
{"geometry": {"coordinates": [-99.076246, 29.730228], "type": "Point"}, "id": "vjlsHPM7HADtIF5mvKrz91qS76g=", "properties": {"@spider": "usps_collection_boxes", "addr:city": "BANDERA", "addr:country": "US", "addr:full": "130 STATE HIGHWAY 173 N", "addr:postcode": "78003", "addr:state": "TX", "brand": "USPS", "collection_times": "Mo-Fr 16:30; Sa 09:30", "name": "USPS COLLECTION BOX - BLUE BOX", "note": "ON 12/24 AND 12/31, THIS BOX MAY BE COLLECTED AS EARLY AS 12 NOON.", "ref": "7800300008"}, "type": "Feature"}
{"geometry": {"coordinates": [-99.076245551, 29.73022063], "type": "Point"}, "id": "KupO-Olm-tiEHWsheGd4jX4QltY=", "properties": {"@spider": "usps_collection_boxes", "addr:city": "BANDERA", "addr:country": "US", "addr:full": "130 STATE HIGHWAY 173 N", "addr:postcode": "78003", "addr:state": "TX", "brand": "USPS", "collection_times": "Mo-Fr 17:00", "name": "USPS COLLECTION BOX - PO LOBBY", "note": "ON 12/24 AND 12/31, THIS BOX MAY BE COLLECTED AS EARLY AS 12 NOON.", "ref": "7800300011"}, "type": "Feature"}
{"geometry": {"coordinates": [-98.866504, 29.048269], "type": "Point"}, "id": "UXl4EZcZ5O__UoO224pg_bg49VM=", "properties": {"@spider": "usps_collection_boxes", "addr:city": "BIGFOOT", "addr:country": "US", "addr:full": "13855 FM 472", "addr:postcode": "78005", "addr:state": "TX", "brand": "USPS", "collection_times": "Mo-Fr 12:45; Sa 10:00", "name": "USPS COLLECTION BOX - BLUE BOX", "note": "ON 12/24 AND 12/31, THIS BOX MAY BE COLLECTED AS EARLY AS 12 NOON.", "ref": "7800500001"}, "type": "Feature"}
{"geometry": {"coordinates": [-98.866539603, 29.04825881], "type": "Point"}, "id": "37p3BhKMOlyzBRmKJJIOGywl_nA=", "properties": {"@spider": "usps_collection_boxes", "addr:city": "BIGFOOT", "addr:country": "US", "addr:full": "13855 FM 472", "addr:postcode": "78005", "addr:state": "TX", "brand": "USPS", "collection_times": "Mo-Fr 12:00; Sa 10:45", "name": "USPS COLLECTION BOX - PO LOBBY", "ref": "7800500002"}, "type": "Feature"}
{"geometry": {"coordinates": [-98.7343324, 29.781338], "type": "Point"}, "id": "EiEXklJJtBbIO3pKt-zw5etQkiY=", "properties": {"@spider": "usps_collection_boxes", "addr:city": "BOERNE", "addr:country": "US", "addr:full": "420 W BANDERA RD", "addr:postcode": "78006", "addr:state": "TX", "brand": "USPS", "collection_times": "Mo-Sa 15:30", "name": "USPS COLLECTION BOX - BLUE BOX", "note": "ON 12/24 AND 12/31, THIS BOX MAY BE COLLECTED AS EARLY AS 12 NOON.", "ref": "7800600002"}, "type": "Feature"}
{"geometry": {"coordinates": [-98.728487, 29.779145], "type": "Point"}, "id": "JmXRwuRwocgXYvdBLxhAH_g9P5o=", "properties": {"@spider": "usps_collection_boxes", "addr:city": "BOERNE", "addr:country": "US", "addr:full": "1300 S MAIN ST", "addr:postcode": "78006", "addr:state": "TX", "brand": "USPS", "collection_times": "Mo-Sa 10:45", "name": "USPS COLLECTION BOX - BLUE BOX", "ref": "7800600004"}, "type": "Feature"}
{"geometry": {"coordinates": [-98.7326593, 29.79355], "type": "Point"}, "id": "xH0Eg2AX05a34nm9LDjhXcWVgiA=", "properties": {"@spider": "usps_collection_boxes", "addr:city": "BOERNE", "addr:country": "US", "addr:full": "115 W SAN ANTONIO AVE", "addr:postcode": "78006", "addr:state": "TX", "brand": "USPS", "collection_times": "Mo-Sa 13:30", "name": "USPS COLLECTION BOX - BLUE BOX", "note": "ON 12/24 AND 12/31, THIS BOX MAY BE COLLECTED AS EARLY AS 12 NOON.", "ref": "7800600005"}, "type": "Feature"}
{"geometry": {"coordinates": [-98.7383429, 29.804584], "type": "Point"}, "id": "0hnyhgSh9k_AilbQzgn3A0LF_2g=", "properties": {"@spider": "usps_collection_boxes", "addr:city": "BOERNE", "addr:country": "US", "addr:full": "1000 N MAIN ST", "addr:postcode": "78006", "addr:state": "TX", "brand": "USPS", "collection_times": "Mo-Sa 11:45", "name": "USPS COLLECTION BOX - BLUE BOX", "ref": "7800600006"}, "type": "Feature"}
{"geometry": {"coordinates": [-98.726625, 29.777255], "type": "Point"}, "id": "iUMACtSyH-68yW36NJGOMtDFqAU=", "properties": {"@spider": "usps_collection_boxes", "addr:city": "BOERNE", "addr:country": "US", "addr:full": "1381 S MAIN ST", "addr:postcode": "78006", "addr:state": "TX", "brand": "USPS", "collection_times": "Mo-Sa 12:30", "name": "USPS COLLECTION BOX - BLUE BOX", "note": "ON 12/24 AND 12/31, THIS BOX MAY BE COLLECTED AS EARLY AS 12 NOON.", "ref": "7800600009"}, "type": "Feature"}
{"geometry": {"coordinates": [-98.727468, 29.796005], "type": "Point"}, "id": "rS0Fu6WgEujvnptSpKpH38b7Hf0=", "properties": {"@spider": "usps_collection_boxes", "addr:city": "BOERNE", "addr:country": "US", "addr:full": "607 E BLANCO RD", "addr:postcode": "78006", "addr:state": "TX", "brand": "USPS", "collection_times": "Mo-Fr 15:30; Sa 12:15", "name": "USPS COLLECTION BOX - BLUE BOX", "note": "ON 12/24 AND 12/31, THIS BOX MAY BE COLLECTED AS EARLY AS 12 NOON.", "ref": "7800600011"}, "type": "Feature"}
{"geometry": {"coordinates": [-98.727468, 29.796005], "type": "Point"}, "id": "EfUbzXBPbZL9CDdT570ouWTYh9E=", "properties": {"@spider": "usps_collection_boxes", "addr:city": "BOERNE", "addr:country": "US", "addr:full": "607 E BLANCO RD", "addr:postcode": "78006", "addr:state": "TX", "brand": "USPS", "collection_times": "Mo-Fr 15:30; Sa 12:15", "name": "USPS COLLECTION BOX - BLUE BOX", "note": "ON 12/24 AND 12/31, THIS BOX MAY BE COLLECTED AS EARLY AS 12 NOON.", "ref": "7800600012"}, "type": "Feature"}
{"geometry": {"coordinates": [-98.727468, 29.796005], "type": "Point"}, "id": "YwTPGewcQ31TXgcZRtI9S_m6FEk=", "properties": {"@spider": "usps_collection_boxes", "addr:city": "BOERNE", "addr:country": "US", "addr:full": "607 E BLANCO RD", "addr:postcode": "78006", "addr:state": "TX", "brand": "USPS", "collection_times": "Mo-Fr 15:30; Sa 12:15", "name": "USPS COLLECTION BOX - BLUE BOX", "note": "ON 12/24 AND 12/31, THIS BOX MAY BE COLLECTED AS EARLY AS 12 NOON.", "ref": "7800600013"}, "type": "Feature"}
{"geometry": {"coordinates": [-98.727468, 29.796005], "type": "Point"}, "id": "MeJYf3CEASIuAO5GbHaYXiDOQkM=", "properties": {"@spider": "usps_collection_boxes", "addr:city": "BOERNE", "addr:country": "US", "addr:full": "607 E BLANCO RD", "addr:postcode": "78006", "addr:state": "TX", "brand": "USPS", "collection_times": "Mo-Fr 15:30; Sa 12:15", "name": "USPS COLLECTION BOX - PO LOBBY", "note": "ON 12/24 AND 12/31, THIS BOX MAY BE COLLECTED AS EARLY AS 12 NOON.", "ref": "7800600015"}, "type": "Feature"}
{"geometry": {"coordinates": [-98.727468, 29.796005], "type": "Point"}, "id": "iMWeR4gKKHYNwb1CJ-ngGJebqX0=", "properties": {"@spider": "usps_collection_boxes", "addr:city": "BOERNE", "addr:country": "US", "addr:full": "607 E BLANCO RD", "addr:postcode": "78006", "addr:state": "TX", "brand": "USPS", "collection_times": "Mo-Fr 15:30; Sa 12:15", "name": "USPS COLLECTION BOX - PO LOBBY", "note": "ON 12/24 AND 12/31, THIS BOX MAY BE COLLECTED AS EARLY AS 12 NOON.", "ref": "7800600016"}, "type": "Feature"}
{"geometry": {"coordinates": [-98.727468, 29.796005], "type": "Point"}, "id": "AiU0160O2iaPBFMLTy3MitXvFrA=", "properties": {"@spider": "usps_collection_boxes", "addr:city": "BOERNE", "addr:country": "US", "addr:full": "607 E BLANCO RD", "addr:postcode": "78006", "addr:state": "TX", "brand": "USPS", "collection_times": "Mo-Fr 15:30; Sa 12:15", "name": "USPS COLLECTION BOX - BLUE BOX", "note": "ON 12/24 AND 12/31, THIS BOX MAY BE COLLECTED AS EARLY AS 12 NOON.", "ref": "7800600018"}, "type": "Feature"}
{"geometry": {"coordinates": [-98.7551889, 29.809612], "type": "Point"}, "id": "TUQxfGW0SxTliy_uFtC6jyqSP7o=", "properties": {"@spider": "usps_collection_boxes", "addr:city": "BOERNE", "addr:country": "US", "addr:full": "1 DOESKIN DR", "addr:postcode": "78006", "addr:state": "TX", "brand": "USPS", "collection_times": "Mo-Sa 12:00", "name": "USPS COLLECTION BOX - BLUE BOX", "ref": "7800600019"}, "type": "Feature"}
{"geometry": {"coordinates": [-98.727468, 29.796005], "type": "Point"}, "id": "AqJLYdMw1JaZhkJ3eWlNoClwc20=", "properties": {"@spider": "usps_collection_boxes", "addr:city": "BOERNE", "addr:country": "US", "addr:full": "607 E BLANCO RD", "addr:postcode": "78006", "addr:state": "TX", "brand": "USPS", "collection_times": "Mo-Fr 15:30; Sa 12:15", "name": "USPS COLLECTION BOX - BLUE BOX", "note": "ON 12/24 AND 12/31, THIS BOX MAY BE COLLECTED AS EARLY AS 12 NOON.", "ref": "7800600020"}, "type": "Feature"}
{"geometry": {"coordinates": [-98.727371168, 29.796382972], "type": "Point"}, "id": "mAkPJTaJTwh-kE6NnItwsYsEEaY=", "properties": {"@spider": "usps_collection_boxes", "addr:city": "BOERNE", "addr:country": "US", "addr:full": "607 E BLANCO", "addr:postcode": "78006", "addr:state": "TX", "brand": "USPS", "collection_times": "Mo-Fr 15:30; Sa 12:15", "name": "USPS COLLECTION BOX - BLUE BOX", "note": "ON 12/24 AND 12/31, THIS BOX MAY BE COLLECTED AS EARLY AS 12 NOON.", "ref": "7800600021"}, "type": "Feature"}
{"geometry": {"coordinates": [-98.727468, 29.796005], "type": "Point"}, "id": "aC025XtaI7AvrI44BLB5k3FyYec=", "properties": {"@spider": "usps_collection_boxes", "addr:city": "BOERNE", "addr:country": "US", "addr:full": "607 E BLANCO RD", "addr:postcode": "78006", "addr:state": "TX", "brand": "USPS", "collection_times": "Mo-Fr 15:30; Sa 12:15", "name": "USPS COLLECTION BOX - APC", "note": "ON 12/24 AND 12/31, THIS BOX MAY BE COLLECTED AS EARLY AS 12 NOON.", "ref": "7800600022"}, "type": "Feature"}
{"geometry": {"coordinates": [-98.727371168, 29.796382972], "type": "Point"}, "id": "8NHzqE_fHkWT6v9E2PIRxChfDAY=", "properties": {"@spider": "usps_collection_boxes", "addr:city": "BOERNE", "addr:country": "US", "addr:full": "607 E BLANCO RD", "addr:postcode": "78006", "addr:state": "TX", "brand": "USPS", "collection_times": "Mo-Fr 17:00; Sa 12:00", "name": "USPS COLLECTION BOX - PO LOBBY", "note": "ON 12/24 AND 12/31, THIS BOX MAY BE COLLECTED AS EARLY AS 12 NOON.", "ref": "7800600023"}, "type": "Feature"}
{"geometry": {"coordinates": [-98.3575706, 28.458398], "type": "Point"}, "id": "g_cDYLon2v35fSIdPdtcfS6HZ1w=", "properties": {"@spider": "usps_collection_boxes", "addr:city": "CALLIHAM", "addr:country": "US", "addr:full": "193 RECREATION ROAD 8", "addr:postcode": "78007", "addr:state": "TX", "brand": "USPS", "collection_times": "Mo-Fr 13:30; Sa 10:30", "name": "USPS COLLECTION BOX - BLUE BOX", "note": "ON 12/24 AND 12/31, THIS BOX MAY BE COLLECTED AS EARLY AS 12 NOON.", "ref": "7800700001"}, "type": "Feature"}
{"geometry": {"coordinates": [-98.357502, 28.45665], "type": "Point"}, "id": "gA3gU5FtxlNxcf1CTyk-BXhBAS0=", "properties": {"@spider": "usps_collection_boxes", "addr:city": "CALLIHAM", "addr:country": "US", "addr:full": "193 RECREATION ROAD 8", "addr:postcode": "78007", "addr:state": "TX", "brand": "USPS", "collection_times": "Mo-Sa 10:30", "name": "USPS COLLECTION BOX - PO LOBBY", "ref": "7800700002"}, "type": "Feature"}
{"geometry": {"coordinates": [-98.357504301, 28.45665], "type": "Point"}, "id": "tp8bIxzhFa5rKfV8U1ej-ZjUsc8=", "properties": {"@spider": "usps_collection_boxes", "addr:city": "CALLIHAM", "addr:country": "US", "addr:full": "193 RECREATION ROAD 8", "addr:postcode": "78007", "addr:state": "TX", "brand": "USPS", "collection_times": "Mo-Sa 11:00", "name": "USPS COLLECTION BOX - PO LOBBY", "ref": "7800700004"}, "type": "Feature"}
{"geometry": {"coordinates": [-98.302103, 28.743963], "type": "Point"}, "id": "O-q_PF4kwLERPbZdzvsryBs2VQA=", "properties": {"@spider": "usps_collection_boxes", "addr:city": "CAMPBELLTON", "addr:country": "US", "addr:full": "2905 COMMERCE ST", "addr:postcode": "78008", "addr:state": "TX", "brand": "USPS", "collection_times": "Mo-Fr 11:30; Sa 09:30", "name": "USPS COLLECTION BOX - BLUE BOX", "ref": "7800800001"}, "type": "Feature"}
{"geometry": {"coordinates": [-98.302103, 28.743963], "type": "Point"}, "id": "X9L2H_c2vnnMQa7BsBAdYIeinGg=", "properties": {"@spider": "usps_collection_boxes", "addr:city": "CAMPBELLTON", "addr:country": "US", "addr:full": "2905 COMMERCE ST", "addr:postcode": "78008", "addr:state": "TX", "brand": "USPS", "collection_times": "Mo-Fr 11:30; Sa 09:30", "name": "USPS COLLECTION BOX - PO LOBBY", "ref": "7800800004"}, "type": "Feature"}
{"geometry": {"coordinates": [-98.3020334, 28.743737354], "type": "Point"}, "id": "kki5svcJNjAmqX1fd_l9DqjiU90=", "properties": {"@spider": "usps_collection_boxes", "addr:city": "CAMPBELLTON", "addr:country": "US", "addr:full": "2905 COMMERCE ST", "addr:postcode": "78008", "addr:state": "TX", "brand": "USPS", "collection_times": "Mo-Fr 12:00; Sa 09:30", "name": "USPS COLLECTION BOX - PO LOBBY", "ref": "7800800006"}, "type": "Feature"}
{"geometry": {"coordinates": [-98.899167, 29.348251], "type": "Point"}, "id": "A3fKWlYq6Kr-gS92AGWMmqHJJdw=", "properties": {"@spider": "usps_collection_boxes", "addr:city": "CASTROVILLE", "addr:country": "US", "addr:full": "1305 HIGHWAY 90 W", "addr:postcode": "78009", "addr:state": "TX", "brand": "USPS", "collection_times": "Mo-Fr 16:30; Sa 11:00", "name": "USPS COLLECTION BOX - BLUE BOX", "note": "ON 12/24 AND 12/31, THIS BOX MAY BE COLLECTED AS EARLY AS 12 NOON.", "ref": "7800900000"}, "type": "Feature"}
{"geometry": {"coordinates": [-98.88666, 29.351306], "type": "Point"}, "id": "OUkFVCEVa7vp2AWPtq2l_I4YTz4=", "properties": {"@spider": "usps_collection_boxes", "addr:city": "CASTROVILLE", "addr:country": "US", "addr:full": "1305 HIGHWAY 90 W", "addr:postcode": "78009", "addr:state": "TX", "brand": "USPS", "collection_times": "Mo-Fr 16:30; Sa 11:00", "name": "USPS COLLECTION BOX - BLUE BOX", "note": "ON 12/24 AND 12/31, THIS BOX MAY BE COLLECTED AS EARLY AS 12 NOON.", "ref": "7800900001"}, "type": "Feature"}
{"geometry": {"coordinates": [-98.88666, 29.351306], "type": "Point"}, "id": "93yjOPi7O_ZSaYrYJ9if4shBygg=", "properties": {"@spider": "usps_collection_boxes", "addr:city": "CASTROVILLE", "addr:country": "US", "addr:full": "1305 HIGHWAY 90 W", "addr:postcode": "78009", "addr:state": "TX", "brand": "USPS", "collection_times": "Mo-Fr 16:30", "name": "USPS COLLECTION BOX - PO LOBBY", "note": "ON 12/24 AND 12/31, THIS BOX MAY BE COLLECTED AS EARLY AS 12 NOON.", "ref": "7800900005"}, "type": "Feature"}
{"geometry": {"coordinates": [-98.886652516, 29.351308356], "type": "Point"}, "id": "S-DG3cLQCyIfnup6R-CD4GBifsM=", "properties": {"@spider": "usps_collection_boxes", "addr:city": "CASTROVILLE", "addr:country": "US", "addr:full": "1305 US HIGHWAY 90 W", "addr:postcode": "78009", "addr:state": "TX", "brand": "USPS", "collection_times": "Mo-Fr 16:30; Sa 11:00", "name": "USPS COLLECTION BOX - PO LOBBY", "note": "ON 12/24 AND 12/31, THIS BOX MAY BE COLLECTED AS EARLY AS 12 NOON.", "ref": "7800900007"}, "type": "Feature"}
{"geometry": {"coordinates": [-99.03726, 29.944821], "type": "Point"}, "id": "E5WRHDL4He_bERAZYC1OiaEVpz8=", "properties": {"@spider": "usps_collection_boxes", "addr:city": "CENTER POINT", "addr:country": "US", "addr:full": "218 FM 480", "addr:postcode": "78010", "addr:state": "TX", "brand": "USPS", "collection_times": "Mo-Fr 16:30; Sa 09:30", "name": "USPS COLLECTION BOX - BLUE BOX", "note": "ON 12/24 AND 12/31, THIS BOX MAY BE COLLECTED AS EARLY AS 12 NOON.", "ref": "7801000003"}, "type": "Feature"}
{"geometry": {"coordinates": [-99.03726, 29.944821], "type": "Point"}, "id": "gstrLtbCxRMYpU_TkKk9eYu_Dkw=", "properties": {"@spider": "usps_collection_boxes", "addr:city": "CENTER POINT", "addr:country": "US", "addr:full": "218 FM 480", "addr:postcode": "78010", "addr:state": "TX", "brand": "USPS", "collection_times": "Mo-Fr 16:30", "name": "USPS COLLECTION BOX - PO LOBBY", "note": "ON 12/24 AND 12/31, THIS BOX MAY BE COLLECTED AS EARLY AS 12 NOON.", "ref": "7801000005"}, "type": "Feature"}
{"geometry": {"coordinates": [-99.03726, 29.944821], "type": "Point"}, "id": "OfUn4_xv6KxRknnPdv-FfbTEXE4=", "properties": {"@spider": "usps_collection_boxes", "addr:city": "CENTER POINT", "addr:country": "US", "addr:full": "218 FM 480", "addr:postcode": "78010", "addr:state": "TX", "brand": "USPS", "collection_times": "Mo-Fr 16:30", "name": "USPS COLLECTION BOX - PO LOBBY", "note": "ON 12/24 AND 12/31, THIS BOX MAY BE COLLECTED AS EARLY AS 12 NOON.", "ref": "7801000007"}, "type": "Feature"}
{"geometry": {"coordinates": [-99.1050947, 29.893929], "type": "Point"}, "id": "v8cGZKqQF7ExTjRlcBJPlg69354=", "properties": {"@spider": "usps_collection_boxes", "addr:city": "CENTER POINT", "addr:country": "US", "addr:full": "285 E CAMP VERDE", "addr:postcode": "78010", "addr:state": "TX", "brand": "USPS", "collection_times": "Mo-Sa 09:00", "name": "USPS COLLECTION BOX - BLUE BOX", "ref": "7801000008"}, "type": "Feature"}
{"geometry": {"coordinates": [-99.037258761, 29.944818419], "type": "Point"}, "id": "laDIyfeUh4mIRxIB96PnVYI_Y3w=", "properties": {"@spider": "usps_collection_boxes", "addr:city": "CENTER POINT", "addr:country": "US", "addr:full": "218 FM 480", "addr:postcode": "78010", "addr:state": "TX", "brand": "USPS", "collection_times": "Mo-Fr 16:30", "name": "USPS COLLECTION BOX - PO LOBBY", "note": "ON 12/24 AND 12/31, THIS BOX MAY BE COLLECTED AS EARLY AS 12 NOON.", "ref": "7801000009"}, "type": "Feature"}
{"geometry": {"coordinates": [-98.70449, 28.860692], "type": "Point"}, "id": "80AsSSqQwYuoxRAHLljrYPK7Bto=", "properties": {"@spider": "usps_collection_boxes", "addr:city": "CHARLOTTE", "addr:country": "US", "addr:full": "142 S YULE AVE", "addr:postcode": "78011", "addr:state": "TX", "brand": "USPS", "collection_times": "Mo-Fr 15:30; Sa 09:00", "name": "USPS COLLECTION BOX - BLUE BOX", "note": "ON 12/24 AND 12/31, THIS BOX MAY BE COLLECTED AS EARLY AS 12 NOON.", "ref": "7801100001"}, "type": "Feature"}
{"geometry": {"coordinates": [-98.7045093321, 28.8606505427], "type": "Point"}, "id": "MipP5b-pzFOmj8Xpji8qkMc3WN0=", "properties": {"@spider": "usps_collection_boxes", "addr:city": "CHARLOTTE", "addr:country": "US", "addr:full": "142 S YULE AVE", "addr:postcode": "78011", "addr:state": "TX", "brand": "USPS", "collection_times": "Mo-Fr 15:45; Sa 09:00", "name": "USPS COLLECTION BOX - PO LOBBY", "note": "ON 12/24 AND 12/31, THIS BOX MAY BE COLLECTED AS EARLY AS 12 NOON.", "ref": "7801100002"}, "type": "Feature"}
{"geometry": {"coordinates": [-98.704509332, 28.860650543], "type": "Point"}, "id": "DckfCip56ZtbP9uN1uI5E0kTRYA=", "properties": {"@spider": "usps_collection_boxes", "addr:city": "CHARLOTTE", "addr:country": "US", "addr:full": "142 S YULE AVE", "addr:postcode": "78011", "addr:state": "TX", "brand": "USPS", "collection_times": "Mo-Fr 16:00; Sa 09:30", "name": "USPS COLLECTION BOX - PO LOBBY", "note": "ON 12/24 AND 12/31, THIS BOX MAY BE COLLECTED AS EARLY AS 12 NOON.", "ref": "7801100005"}, "type": "Feature"}
{"geometry": {"coordinates": [-98.507982, 28.790293], "type": "Point"}, "id": "hme9tejD3lXJZhWLLilpTeVFFRk=", "properties": {"@spider": "usps_collection_boxes", "addr:city": "CHRISTINE", "addr:country": "US", "addr:full": "709 W AVENUE E", "addr:postcode": "78012", "addr:state": "TX", "brand": "USPS", "collection_times": "Mo-Fr 11:30; Sa 10:30", "name": "USPS COLLECTION BOX - PO LOBBY", "ref": "7801200002"}, "type": "Feature"}
{"geometry": {"coordinates": [-98.50796001, 28.790251046], "type": "Point"}, "id": "5EracWE5kpt78dtkGPuVfoia3fA=", "properties": {"@spider": "usps_collection_boxes", "addr:city": "CHRISTINE", "addr:country": "US", "addr:full": "709 W AVENUE E", "addr:postcode": "78012", "addr:state": "TX", "brand": "USPS", "collection_times": "Mo-Fr 12:00; Sa 10:30", "name": "USPS COLLECTION BOX - PO LOBBY", "ref": "7801200006"}, "type": "Feature"}
{"geometry": {"coordinates": [-98.906091, 29.967787], "type": "Point"}, "id": "qduS6BRS8lC5-b6UFqsMyIvLcn0=", "properties": {"@spider": "usps_collection_boxes", "addr:city": "COMFORT", "addr:country": "US", "addr:full": "726 FRONT ST", "addr:postcode": "78013", "addr:state": "TX", "brand": "USPS", "collection_times": "Mo-Fr 16:30; Sa 10:30", "name": "USPS COLLECTION BOX - PO LOBBY", "note": "ON 12/24 AND 12/31, THIS BOX MAY BE COLLECTED AS EARLY AS 12 NOON.", "ref": "7801300003"}, "type": "Feature"}
{"geometry": {"coordinates": [-98.906091, 29.967787], "type": "Point"}, "id": "BNmOXNgzBkEMMsYIgMBUO3LRYoQ=", "properties": {"@spider": "usps_collection_boxes", "addr:city": "COMFORT", "addr:country": "US", "addr:full": "726 FRONT ST", "addr:postcode": "78013", "addr:state": "TX", "brand": "USPS", "collection_times": "Mo-Fr 16:30; Sa 10:30", "name": "USPS COLLECTION BOX - PO LOBBY", "note": "ON 12/24 AND 12/31, THIS BOX MAY BE COLLECTED AS EARLY AS 12 NOON.", "ref": "7801300005"}, "type": "Feature"}
{"geometry": {"coordinates": [-98.906091, 29.967787], "type": "Point"}, "id": "xWuGOWNMLzLKmHTh9_JhjYVPcsY=", "properties": {"@spider": "usps_collection_boxes", "addr:city": "COMFORT", "addr:country": "US", "addr:full": "726 FRONT ST", "addr:postcode": "78013", "addr:state": "TX", "brand": "USPS", "collection_times": "Mo-Fr 16:30; Sa 10:30", "name": "USPS COLLECTION BOX - BLUE BOX", "note": "ON 12/24 AND 12/31, THIS BOX MAY BE COLLECTED AS EARLY AS 12 NOON.", "ref": "7801300006"}, "type": "Feature"}
{"geometry": {"coordinates": [-98.906092798, 29.967779072], "type": "Point"}, "id": "U2dSkyikl7-6Tp7J2p0t7-FPLN4=", "properties": {"@spider": "usps_collection_boxes", "addr:city": "COMFORT", "addr:country": "US", "addr:full": "726 FRONT ST", "addr:postcode": "78013", "addr:state": "TX", "brand": "USPS", "collection_times": "Mo-Fr 16:30; Sa 10:30", "name": "USPS COLLECTION BOX - PO LOBBY", "note": "ON 12/24 AND 12/31, THIS BOX MAY BE COLLECTED AS EARLY AS 12 NOON.", "ref": "7801300007"}, "type": "Feature"}
{"geometry": {"coordinates": [-99.234136, 28.437166], "type": "Point"}, "id": "O61ifbbvszfkS7oFPsrkrOe7050=", "properties": {"@spider": "usps_collection_boxes", "addr:city": "COTULLA", "addr:country": "US", "addr:full": "209 N FRONT", "addr:postcode": "78014", "addr:state": "TX", "brand": "USPS", "collection_times": "Mo-Fr 16:15; Sa 10:45", "name": "USPS COLLECTION BOX - BLUE BOX", "note": "ON 12/24 AND 12/31, THIS BOX MAY BE COLLECTED AS EARLY AS 12 NOON.", "ref": "7801400001"}, "type": "Feature"}
{"geometry": {"coordinates": [-99.234136, 28.437166], "type": "Point"}, "id": "kmAfOOWCfubZc0aLqG3x8UKNriM=", "properties": {"@spider": "usps_collection_boxes", "addr:city": "COTULLA", "addr:country": "US", "addr:full": "209 N FRONT", "addr:postcode": "78014", "addr:state": "TX", "brand": "USPS", "collection_times": "Mo-Fr 16:15; Sa 10:45", "name": "USPS COLLECTION BOX - PO LOBBY", "note": "ON 12/24 AND 12/31, THIS BOX MAY BE COLLECTED AS EARLY AS 12 NOON.", "ref": "7801400004"}, "type": "Feature"}
{"geometry": {"coordinates": [-99.234158853, 28.437124744], "type": "Point"}, "id": "eFYj9YuBz_P5HPMnaDrrLj4hr44=", "properties": {"@spider": "usps_collection_boxes", "addr:city": "COTULLA", "addr:country": "US", "addr:full": "209 N FRONT", "addr:postcode": "78014", "addr:state": "TX", "brand": "USPS", "collection_times": "Mo-Fr 16:30; Sa 11:00", "name": "USPS COLLECTION BOX - PO LOBBY", "note": "ON 12/24 AND 12/31, THIS BOX MAY BE COLLECTED AS EARLY AS 12 NOON.", "ref": "7801400007"}, "type": "Feature"}
{"geometry": {"coordinates": [-98.6644316, 29.720032], "type": "Point"}, "id": "efNFe8l-Xo7NrU3UtfeqOiH5GT4=", "properties": {"@spider": "usps_collection_boxes", "addr:city": "BOERNE", "addr:country": "US", "addr:full": "9090 FAIR OAKS PKWY", "addr:postcode": "78015", "addr:state": "TX", "brand": "USPS", "collection_times": "Mo-Sa 14:45", "name": "USPS COLLECTION BOX - BLUE BOX", "note": "ON 12/24 AND 12/31, THIS BOX MAY BE COLLECTED AS EARLY AS 12 NOON.", "ref": "7801500000"}, "type": "Feature"}
{"geometry": {"coordinates": [-98.907083, 29.139596], "type": "Point"}, "id": "aNlSHUsWgXbTaT9lGYCq3FN1alk=", "properties": {"@spider": "usps_collection_boxes", "addr:city": "DEVINE", "addr:country": "US", "addr:full": "111 W COLLEGE AVE", "addr:postcode": "78016", "addr:state": "TX", "brand": "USPS", "collection_times": "Mo-Fr 15:00; Sa 11:15", "name": "USPS COLLECTION BOX - BLUE BOX", "note": "ON 12/24 AND 12/31, THIS BOX MAY BE COLLECTED AS EARLY AS 12 NOON.", "ref": "7801600008"}, "type": "Feature"}
{"geometry": {"coordinates": [-98.907083, 29.139596], "type": "Point"}, "id": "TUYJA5eFDHG9yye4Zl5AtFhgaTY=", "properties": {"@spider": "usps_collection_boxes", "addr:city": "DEVINE", "addr:country": "US", "addr:full": "111 W COLLEGE AVE", "addr:postcode": "78016", "addr:state": "TX", "brand": "USPS", "collection_times": "Mo-Fr 15:00; Sa 11:15", "name": "USPS COLLECTION BOX - BLUE BOX", "note": "ON 12/24 AND 12/31, THIS BOX MAY BE COLLECTED AS EARLY AS 12 NOON.", "ref": "7801600015"}, "type": "Feature"}
{"geometry": {"coordinates": [-98.907083, 29.139596], "type": "Point"}, "id": "u2jGDFYzsUg4MC20TuLKNbfWkrs=", "properties": {"@spider": "usps_collection_boxes", "addr:city": "DEVINE", "addr:country": "US", "addr:full": "111 W COLLEGE AVE", "addr:postcode": "78016", "addr:state": "TX", "brand": "USPS", "collection_times": "Mo-Fr 16:00; Sa 10:00", "name": "USPS COLLECTION BOX - PO LOBBY", "note": "ON 12/24 AND 12/31, THIS BOX MAY BE COLLECTED AS EARLY AS 12 NOON.", "ref": "7801600018"}, "type": "Feature"}
{"geometry": {"coordinates": [-98.907083, 29.139596], "type": "Point"}, "id": "pOShN4RCICvfaCnhTwhvOetQdtU=", "properties": {"@spider": "usps_collection_boxes", "addr:city": "DEVINE", "addr:country": "US", "addr:full": "111 W COLLEGE AVE", "addr:postcode": "78016", "addr:state": "TX", "brand": "USPS", "collection_times": "Mo-Fr 16:00; Sa 10:00", "name": "USPS COLLECTION BOX - PO LOBBY", "note": "ON 12/24 AND 12/31, THIS BOX MAY BE COLLECTED AS EARLY AS 12 NOON.", "ref": "7801600019"}, "type": "Feature"}
{"geometry": {"coordinates": [-98.907083952, 29.139588138], "type": "Point"}, "id": "UxagSxUOsEXdzXki5u4-Jj2YSNI=", "properties": {"@spider": "usps_collection_boxes", "addr:city": "DEVINE", "addr:country": "US", "addr:full": "111 W COLLEGE AVE", "addr:postcode": "78016", "addr:state": "TX", "brand": "USPS", "collection_times": "Mo-Fr 16:00; Sa 11:00", "name": "USPS COLLECTION BOX - PO LOBBY", "note": "ON 12/24 AND 12/31, THIS BOX MAY BE COLLECTED AS EARLY AS 12 NOON.", "ref": "7801600020"}, "type": "Feature"}
{"geometry": {"coordinates": [-99.168964, 28.669046], "type": "Point"}, "id": "F8KwjcZ_fPEvXNb7bFVvnA7sOUs=", "properties": {"@spider": "usps_collection_boxes", "addr:city": "DILLEY", "addr:country": "US", "addr:full": "102 E MILLER ST", "addr:postcode": "78017", "addr:state": "TX", "brand": "USPS", "collection_times": "Mo-Fr 16:00; Sa 08:00", "name": "USPS COLLECTION BOX - BLUE BOX", "note": "ON 12/24 AND 12/31, THIS BOX MAY BE COLLECTED AS EARLY AS 12 NOON.", "ref": "7801700002"}, "type": "Feature"}
{"geometry": {"coordinates": [-99.168964, 28.669046], "type": "Point"}, "id": "6g8Y6UKg9RG8xZzWDfdewCdj-j8=", "properties": {"@spider": "usps_collection_boxes", "addr:city": "DILLEY", "addr:country": "US", "addr:full": "102 E MILLER ST", "addr:postcode": "78017", "addr:state": "TX", "brand": "USPS", "collection_times": "Mo-Fr 16:00", "name": "USPS COLLECTION BOX - PO LOBBY", "note": "ON 12/24 AND 12/31, THIS BOX MAY BE COLLECTED AS EARLY AS 12 NOON.", "ref": "7801700004"}, "type": "Feature"}
{"geometry": {"coordinates": [-99.168990954, 28.669080115], "type": "Point"}, "id": "bLTXAtA-F-2iclrsmTL7lsb6kNI=", "properties": {"@spider": "usps_collection_boxes", "addr:city": "DILLEY", "addr:country": "US", "addr:full": "102 E MILLER ST", "addr:postcode": "78017", "addr:state": "TX", "brand": "USPS", "collection_times": "Mo-Fr 16:30", "name": "USPS COLLECTION BOX - PO LOBBY", "note": "ON 12/24 AND 12/31, THIS BOX MAY BE COLLECTED AS EARLY AS 12 NOON.", "ref": "7801700007"}, "type": "Feature"}
{"geometry": {"coordinates": [-99.354489, 28.042461], "type": "Point"}, "id": "-dMVdkkP3Yrq17Mo67YGnwqKFwk=", "properties": {"@spider": "usps_collection_boxes", "addr:city": "ENCINAL", "addr:country": "US", "addr:full": "400 MAIN ST", "addr:postcode": "78019", "addr:state": "TX", "brand": "USPS", "collection_times": "Mo-Fr 15:45; Sa 12:00", "name": "USPS COLLECTION BOX - BLUE BOX", "note": "ON 12/24 AND 12/31, THIS BOX MAY BE COLLECTED AS EARLY AS 12 NOON.", "ref": "7801900001"}, "type": "Feature"}
{"geometry": {"coordinates": [-99.356365968, 28.036178559], "type": "Point"}, "id": "TCJCirboXzhPZ6qnfxbm7K41aKo=", "properties": {"@spider": "usps_collection_boxes", "addr:city": "ENCINAL", "addr:country": "US", "addr:full": "400 MAIN ST", "addr:postcode": "78019", "addr:state": "TX", "brand": "USPS", "collection_times": "Mo-Fr 15:30; Sa 11:30", "name": "USPS COLLECTION BOX - PO LOBBY", "note": "ON 12/24 AND 12/31, THIS BOX MAY BE COLLECTED AS EARLY AS 12 NOON.", "ref": "7801900003"}, "type": "Feature"}
{"geometry": {"coordinates": [-98.116144, 28.332494], "type": "Point"}, "id": "nklagtIvGan0sNifZ8OLWvIu5yM=", "properties": {"@spider": "usps_collection_boxes", "addr:city": "GEORGE WEST", "addr:country": "US", "addr:full": "606 FRIO ST", "addr:postcode": "78022", "addr:state": "TX", "brand": "USPS", "collection_times": "Mo-Fr 16:30; Sa 10:30", "name": "USPS COLLECTION BOX - BLUE BOX", "note": "ON 12/24 AND 12/31, THIS BOX MAY BE COLLECTED AS EARLY AS 12 NOON.", "ref": "7802200001"}, "type": "Feature"}
{"geometry": {"coordinates": [-98.116144, 28.332494], "type": "Point"}, "id": "IhKkhZkY7dwXFv9MyVhyKW8qVnw=", "properties": {"@spider": "usps_collection_boxes", "addr:city": "GEORGE WEST", "addr:country": "US", "addr:full": "606 FRIO ST", "addr:postcode": "78022", "addr:state": "TX", "brand": "USPS", "collection_times": "Mo-Fr 16:30; Sa 10:30", "name": "USPS COLLECTION BOX - PO LOBBY", "note": "ON 12/24 AND 12/31, THIS BOX MAY BE COLLECTED AS EARLY AS 12 NOON.", "ref": "7802200003"}, "type": "Feature"}
{"geometry": {"coordinates": [-98.116109347, 28.332488887], "type": "Point"}, "id": "9nnSkeha7cj72ec3aDI8LCjV_wk=", "properties": {"@spider": "usps_collection_boxes", "addr:city": "GEORGE WEST", "addr:country": "US", "addr:full": "606 FRIO ST", "addr:postcode": "78022", "addr:state": "TX", "brand": "USPS", "collection_times": "Mo-Fr 16:30", "name": "USPS COLLECTION BOX - PO LOBBY", "note": "ON 12/24 AND 12/31, THIS BOX MAY BE COLLECTED AS EARLY AS 12 NOON.", "ref": "7802200005"}, "type": "Feature"}
{"geometry": {"coordinates": [-98.678841, 29.562566], "type": "Point"}, "id": "_XgYvLPmdG-nd9oP0UYFa3CN_Lc=", "properties": {"@spider": "usps_collection_boxes", "addr:city": "HELOTES", "addr:country": "US", "addr:full": "12790 FM 1560 N", "addr:postcode": "78023", "addr:state": "TX", "brand": "USPS", "collection_times": "Mo-Fr 17:15; Sa 12:00", "name": "USPS COLLECTION BOX - BLUE BOX", "note": "ON 12/24 AND 12/31, THIS BOX MAY BE COLLECTED AS EARLY AS 12 NOON.", "ref": "7802300004"}, "type": "Feature"}
{"geometry": {"coordinates": [-98.678841, 29.562566], "type": "Point"}, "id": "_LbKtUpw7C44x4KIBxnOOTsq7b0=", "properties": {"@spider": "usps_collection_boxes", "addr:city": "HELOTES", "addr:country": "US", "addr:full": "12790 FM 1560 N", "addr:postcode": "78023", "addr:state": "TX", "brand": "USPS", "collection_times": "Mo-Fr 17:15; Sa 12:00", "name": "USPS COLLECTION BOX - PO LOBBY", "note": "ON 12/24 AND 12/31, THIS BOX MAY BE COLLECTED AS EARLY AS 12 NOON.", "ref": "7802300008"}, "type": "Feature"}
{"geometry": {"coordinates": [-98.678841, 29.562566], "type": "Point"}, "id": "1G_Wz0COYeebvn-ytIAvbY3LrP0=", "properties": {"@spider": "usps_collection_boxes", "addr:city": "HELOTES", "addr:country": "US", "addr:full": "12790 FM 1560 N", "addr:postcode": "78023", "addr:state": "TX", "brand": "USPS", "collection_times": "Mo-Fr 17:15; Sa 12:00", "name": "USPS COLLECTION BOX - BLUE BOX", "note": "ON 12/24 AND 12/31, THIS BOX MAY BE COLLECTED AS EARLY AS 12 NOON.", "ref": "7802300010"}, "type": "Feature"}
{"geometry": {"coordinates": [-98.6793343887, 29.5628198851], "type": "Point"}, "id": "U4M6ctkN9Vsx-wU3Nl4-CONFkCo=", "properties": {"@spider": "usps_collection_boxes", "addr:city": "HELOTES", "addr:country": "US", "addr:full": "12790 FM 1560 N", "addr:postcode": "78023", "addr:state": "TX", "brand": "USPS", "collection_times": "Mo-Fr 17:15; Sa 12:00", "name": "USPS COLLECTION BOX - BLUE BOX", "note": "ON 12/24 AND 12/31, THIS BOX MAY BE COLLECTED AS EARLY AS 12 NOON.", "ref": "7802300015"}, "type": "Feature"}
{"geometry": {"coordinates": [-98.678841, 29.562566], "type": "Point"}, "id": "hEw8nAIzKHaZDeL6vHsTj3dcDho=", "properties": {"@spider": "usps_collection_boxes", "addr:city": "HELOTES", "addr:country": "US", "addr:full": "12790 FM 1560 N", "addr:postcode": "78023", "addr:state": "TX", "brand": "USPS", "collection_times": "Mo-Fr 17:15; Sa 12:00", "name": "USPS COLLECTION BOX - BLUE BOX", "note": "ON 12/24 AND 12/31, THIS BOX MAY BE COLLECTED AS EARLY AS 12 NOON.", "ref": "7802300016"}, "type": "Feature"}
{"geometry": {"coordinates": [-98.678841, 29.562566], "type": "Point"}, "id": "hBWa_USvkz9DYTXpNiyBDR4gz6A=", "properties": {"@spider": "usps_collection_boxes", "addr:city": "HELOTES", "addr:country": "US", "addr:full": "12790 FM 1560 N", "addr:postcode": "78023", "addr:state": "TX", "brand": "USPS", "collection_times": "Mo-Fr 17:15; Sa 12:00", "name": "USPS COLLECTION BOX - APC", "note": "ON 12/24 AND 12/31, THIS BOX MAY BE COLLECTED AS EARLY AS 12 NOON.", "ref": "7802300017"}, "type": "Feature"}
{"geometry": {"coordinates": [-98.6845767, 29.563382], "type": "Point"}, "id": "MsQwmw6MVzG9uFG0fzkgv4Yh_8g=", "properties": {"@spider": "usps_collection_boxes", "addr:city": "HELOTES", "addr:country": "US", "addr:full": "12920 BANDERA RD", "addr:postcode": "78023", "addr:state": "TX", "brand": "USPS", "collection_times": "Mo-Sa 12:00", "name": "USPS COLLECTION BOX - BLUE BOX", "ref": "7802300018"}, "type": "Feature"}
{"geometry": {"coordinates": [-98.679334389, 29.56282986], "type": "Point"}, "id": "pj60YqNc7v9EBmImNguugEJEnh8=", "properties": {"@spider": "usps_collection_boxes", "addr:city": "HELOTES", "addr:country": "US", "addr:full": "12790 FM 1560 N", "addr:postcode": "78023", "addr:state": "TX", "brand": "USPS", "collection_times": "Mo-Fr 17:00; Sa 12:00", "name": "USPS COLLECTION BOX - PO LOBBY", "note": "ON 12/24 AND 12/31, THIS BOX MAY BE COLLECTED AS EARLY AS 12 NOON.", "ref": "7802300021"}, "type": "Feature"}
{"geometry": {"coordinates": [-99.336403366, 30.067663997], "type": "Point"}, "id": "24HuVHAaTvok4xCHvd0uCTy8hXc=", "properties": {"@spider": "usps_collection_boxes", "addr:city": "HUNT", "addr:country": "US", "addr:full": "1644 HIGHWAY 39", "addr:postcode": "78024", "addr:state": "TX", "brand": "USPS", "collection_times": "Mo-Fr 16:00; Sa 10:00", "name": "USPS COLLECTION BOX - BLUE BOX", "note": "ON 12/24 AND 12/31, THIS BOX MAY BE COLLECTED AS EARLY AS 12 NOON.", "ref": "7802400001"}, "type": "Feature"}
{"geometry": {"coordinates": [-99.336403366, 30.067663997], "type": "Point"}, "id": "e8pabkyDulhv2n5wiqljXDqv9r0=", "properties": {"@spider": "usps_collection_boxes", "addr:city": "HUNT", "addr:country": "US", "addr:full": "1644 HIGHWAY 39", "addr:postcode": "78024", "addr:state": "TX", "brand": "USPS", "collection_times": "Mo-Fr 15:30; Sa 10:00", "name": "USPS COLLECTION BOX - PO LOBBY", "note": "ON 12/24 AND 12/31, THIS BOX MAY BE COLLECTED AS EARLY AS 12 NOON.", "ref": "7802400004"}, "type": "Feature"}
{"geometry": {"coordinates": [-99.336403366, 30.067663997], "type": "Point"}, "id": "nZn04wH2leK6AMGi7C1ObrZ4XCE=", "properties": {"@spider": "usps_collection_boxes", "addr:city": "HUNT", "addr:country": "US", "addr:full": "1644 HIGHWAY 39", "addr:postcode": "78024", "addr:state": "TX", "brand": "USPS", "collection_times": "Mo-Fr 16:00", "name": "USPS COLLECTION BOX - PO LOBBY", "note": "ON 12/24 AND 12/31, THIS BOX MAY BE COLLECTED AS EARLY AS 12 NOON.", "ref": "7802400006"}, "type": "Feature"}
{"geometry": {"coordinates": [-99.227601, 30.073328], "type": "Point"}, "id": "8qHHI3XUpY2UKD2x_mhhr0Wu8R4=", "properties": {"@spider": "usps_collection_boxes", "addr:city": "INGRAM", "addr:country": "US", "addr:full": "3190 JUNCTION HWY", "addr:postcode": "78025", "addr:state": "TX", "brand": "USPS", "collection_times": "Mo-Fr 16:00; Sa 10:00", "name": "USPS COLLECTION BOX - BLUE BOX", "note": "ON 12/24 AND 12/31, THIS BOX MAY BE COLLECTED AS EARLY AS 12 NOON.", "ref": "7802500002"}, "type": "Feature"}
{"geometry": {"coordinates": [-99.227601, 30.073328], "type": "Point"}, "id": "28r5tEL6TT8sBJyaLaJkwa7oOOo=", "properties": {"@spider": "usps_collection_boxes", "addr:city": "INGRAM", "addr:country": "US", "addr:full": "3190 JUNCTION HWY", "addr:postcode": "78025", "addr:state": "TX", "brand": "USPS", "collection_times": "Mo-Fr 16:00; Sa 10:00", "name": "USPS COLLECTION BOX - PO LOBBY", "note": "ON 12/24 AND 12/31, THIS BOX MAY BE COLLECTED AS EARLY AS 12 NOON.", "ref": "7802500009"}, "type": "Feature"}
{"geometry": {"coordinates": [-99.227601, 30.073328], "type": "Point"}, "id": "Zt6H-4W2dRZfD7vry1Zyp3pPNUc=", "properties": {"@spider": "usps_collection_boxes", "addr:city": "INGRAM", "addr:country": "US", "addr:full": "3190 JUNCTION HWY", "addr:postcode": "78025", "addr:state": "TX", "brand": "USPS", "collection_times": "Mo-Fr 16:00; Sa 10:00", "name": "USPS COLLECTION BOX - PO LOBBY", "note": "ON 12/24 AND 12/31, THIS BOX MAY BE COLLECTED AS EARLY AS 12 NOON.", "ref": "7802500010"}, "type": "Feature"}
{"geometry": {"coordinates": [-99.22760122, 30.073323497], "type": "Point"}, "id": "7-FpIYha3dXxsEoNsARY-g5bTT0=", "properties": {"@spider": "usps_collection_boxes", "addr:city": "INGRAM", "addr:country": "US", "addr:full": "3190 JUNCTION HWY", "addr:postcode": "78025", "addr:state": "TX", "brand": "USPS", "collection_times": "Mo-Fr 16:30", "name": "USPS COLLECTION BOX - PO LOBBY", "note": "ON 12/24 AND 12/31, THIS BOX MAY BE COLLECTED AS EARLY AS 12 NOON.", "ref": "7802500012"}, "type": "Feature"}
{"geometry": {"coordinates": [-98.542956, 28.920297], "type": "Point"}, "id": "oKjmoP93bPmsct9bjjfMrewfUkE=", "properties": {"@spider": "usps_collection_boxes", "addr:city": "JOURDANTON", "addr:country": "US", "addr:full": "1002 OAK ST", "addr:postcode": "78026", "addr:state": "TX", "brand": "USPS", "collection_times": "Mo-Fr 16:30; Sa 11:00", "name": "USPS COLLECTION BOX - BLUE BOX", "note": "ON 12/24 AND 12/31, THIS BOX MAY BE COLLECTED AS EARLY AS 12 NOON.", "ref": "7802600003"}, "type": "Feature"}
{"geometry": {"coordinates": [-98.542956, 28.920297], "type": "Point"}, "id": "YywPbNpm38dKwEbEwZY9wVqZHwY=", "properties": {"@spider": "usps_collection_boxes", "addr:city": "JOURDANTON", "addr:country": "US", "addr:full": "1002 OAK ST", "addr:postcode": "78026", "addr:state": "TX", "brand": "USPS", "collection_times": "Mo-Fr 16:30; Sa 11:00", "name": "USPS COLLECTION BOX - PO LOBBY", "note": "ON 12/24 AND 12/31, THIS BOX MAY BE COLLECTED AS EARLY AS 12 NOON.", "ref": "7802600007"}, "type": "Feature"}
{"geometry": {"coordinates": [-98.542669244, 28.92045378], "type": "Point"}, "id": "hUaYrqJa_-w_lUHFqMC4C63kO7M=", "properties": {"@spider": "usps_collection_boxes", "addr:city": "JOURDANTON", "addr:country": "US", "addr:full": "1002 OAK ST", "addr:postcode": "78026", "addr:state": "TX", "brand": "USPS", "collection_times": "Mo-Fr 16:30; Sa 11:00", "name": "USPS COLLECTION BOX - PO LOBBY", "note": "ON 12/24 AND 12/31, THIS BOX MAY BE COLLECTED AS EARLY AS 12 NOON.", "ref": "7802600009"}, "type": "Feature"}
{"geometry": {"coordinates": [-98.52479, 29.969619], "type": "Point"}, "id": "iNeLMAOiGoJAwUM05U_hzb3LZ3A=", "properties": {"@spider": "usps_collection_boxes", "addr:city": "KENDALIA", "addr:country": "US", "addr:full": "2545 HIGHWAY 473", "addr:postcode": "78027", "addr:state": "TX", "brand": "USPS", "collection_times": "Mo-Sa 12:00", "name": "USPS COLLECTION BOX - PO LOBBY", "ref": "7802700001"}, "type": "Feature"}
{"geometry": {"coordinates": [-98.524594832, 29.969801205], "type": "Point"}, "id": "02ux9LLVnZSwJIT89TSG93ufMEI=", "properties": {"@spider": "usps_collection_boxes", "addr:city": "KENDALIA", "addr:country": "US", "addr:full": "2545 FM 473", "addr:postcode": "78027", "addr:state": "TX", "brand": "USPS", "collection_times": "Mo-Sa 12:00", "name": "USPS COLLECTION BOX - PO LOBBY", "ref": "7802700004"}, "type": "Feature"}
{"geometry": {"coordinates": [-99.1636804, 30.058266], "type": "Point"}, "id": "KDXvCPOwUQKueFibBap2zl4CR7c=", "properties": {"@spider": "usps_collection_boxes", "addr:city": "KERRVILLE", "addr:country": "US", "addr:full": "1001 JUNCTION HWY", "addr:postcode": "78028", "addr:state": "TX", "brand": "USPS", "collection_times": "Mo-Fr 15:30; Sa 15:00", "name": "USPS COLLECTION BOX - BLUE BOX", "note": "ON 12/24 AND 12/31, THIS BOX MAY BE COLLECTED AS EARLY AS 12 NOON.", "ref": "7802800007"}, "type": "Feature"}
{"geometry": {"coordinates": [-99.1625499, 30.057023], "type": "Point"}, "id": "A32k_GXlQpuiY4LtnOOBqETUqZU=", "properties": {"@spider": "usps_collection_boxes", "addr:city": "KERRVILLE", "addr:country": "US", "addr:full": "869 JUNCTION HWY", "addr:postcode": "78028", "addr:state": "TX", "brand": "USPS", "collection_times": "Mo-Fr 16:00; Sa 15:15", "name": "USPS COLLECTION BOX - BLUE BOX", "note": "ON 12/24 AND 12/31, THIS BOX MAY BE COLLECTED AS EARLY AS 12 NOON.", "ref": "7802800008"}, "type": "Feature"}
{"geometry": {"coordinates": [-99.147946, 30.044228], "type": "Point"}, "id": "_raDrkpyFeMy76VBsgYE4YT_vq4=", "properties": {"@spider": "usps_collection_boxes", "addr:city": "KERRVILLE", "addr:country": "US", "addr:full": "244 CULLY DR", "addr:postcode": "78028", "addr:state": "TX", "brand": "USPS", "collection_times": "Mo-Sa 16:30", "name": "USPS COLLECTION BOX - BLUE BOX", "note": "ON 12/24 AND 12/31, THIS BOX MAY BE COLLECTED AS EARLY AS 12 NOON.", "ref": "7802800009"}, "type": "Feature"}
{"geometry": {"coordinates": [-99.1392033, 30.047261], "type": "Point"}, "id": "JLt02sn-Qg_4ZvcEw7mMCnY-stQ=", "properties": {"@spider": "usps_collection_boxes", "addr:city": "KERRVILLE", "addr:country": "US", "addr:full": "700 MAIN ST", "addr:postcode": "78028", "addr:state": "TX", "brand": "USPS", "collection_times": "Mo-Fr 15:00", "name": "USPS COLLECTION BOX - BLUE BOX", "note": "ON 12/24 AND 12/31, THIS BOX MAY BE COLLECTED AS EARLY AS 12 NOON.", "ref": "7802800012"}, "type": "Feature"}
{"geometry": {"coordinates": [-99.1436494, 30.051128], "type": "Point"}, "id": "JCc4CPQwIIOvvfwDiNGT7CoDANs=", "properties": {"@spider": "usps_collection_boxes", "addr:city": "KERRVILLE", "addr:country": "US", "addr:full": "300 MAIN ST", "addr:postcode": "78028", "addr:state": "TX", "brand": "USPS", "collection_times": "Mo-Sa 15:15", "name": "USPS COLLECTION BOX - BLUE BOX", "note": "ON 12/24 AND 12/31, THIS BOX MAY BE COLLECTED AS EARLY AS 12 NOON.", "ref": "7802800013"}, "type": "Feature"}
{"geometry": {"coordinates": [-99.116552, 30.013701], "type": "Point"}, "id": "dTI1HTRC5J8ph2JXVLH6lHOMjcw=", "properties": {"@spider": "usps_collection_boxes", "addr:city": "KERRVILLE", "addr:country": "US", "addr:full": "3600 MEMORIAL BLVD", "addr:postcode": "78028", "addr:state": "TX", "brand": "USPS", "collection_times": "Mo-Fr 14:45", "name": "USPS COLLECTION BOX - BLUE BOX", "note": "ON 12/24 AND 12/31, THIS BOX MAY BE COLLECTED AS EARLY AS 12 NOON.", "ref": "7802800014"}, "type": "Feature"}
{"geometry": {"coordinates": [-99.1242777, 30.062104], "type": "Point"}, "id": "8gEEJXRADLQa61rBUyJHIsjTjNc=", "properties": {"@spider": "usps_collection_boxes", "addr:city": "KERRVILLE", "addr:country": "US", "addr:full": "1700 SIDNEY BAKER ST", "addr:postcode": "78028", "addr:state": "TX", "brand": "USPS", "collection_times": "Mo-Sa 14:45", "name": "USPS COLLECTION BOX - BLUE BOX", "note": "ON 12/24 AND 12/31, THIS BOX MAY BE COLLECTED AS EARLY AS 12 NOON.", "ref": "7802800017"}, "type": "Feature"}
{"geometry": {"coordinates": [-99.1392041, 30.047249], "type": "Point"}, "id": "KcVupvGSEEbtEhHshRegUgsl2Pg=", "properties": {"@spider": "usps_collection_boxes", "addr:city": "KERRVILLE", "addr:country": "US", "addr:full": "700 MAIN ST", "addr:postcode": "78028", "addr:state": "TX", "brand": "USPS", "collection_times": "Mo-Fr 15:00", "name": "USPS COLLECTION BOX - BLUE BOX", "note": "ON 12/24 AND 12/31, THIS BOX MAY BE COLLECTED AS EARLY AS 12 NOON.", "ref": "7802800019"}, "type": "Feature"}
{"geometry": {"coordinates": [-99.1397131, 30.044578], "type": "Point"}, "id": "M5LqyUiG3aH2_RSkBJl7erzEfHg=", "properties": {"@spider": "usps_collection_boxes", "addr:city": "KERRVILLE", "addr:country": "US", "addr:full": "819 WATER ST", "addr:postcode": "78028", "addr:state": "TX", "brand": "USPS", "collection_times": "Mo-Sa 15:00", "name": "USPS COLLECTION BOX - BLUE BOX", "note": "ON 12/24 AND 12/31, THIS BOX MAY BE COLLECTED AS EARLY AS 12 NOON.", "ref": "7802800022"}, "type": "Feature"}
{"geometry": {"coordinates": [-99.1319027, 30.060156], "type": "Point"}, "id": "KM_y4yYGt4lA141WUZlAlbvpaVk=", "properties": {"@spider": "usps_collection_boxes", "addr:city": "KERRVILLE", "addr:country": "US", "addr:full": "400 YORKTOWN BLVD", "addr:postcode": "78028", "addr:state": "TX", "brand": "USPS", "collection_times": "Mo-Fr 15:00; Sa 14:45", "name": "USPS COLLECTION BOX - BLUE BOX", "note": "ON 12/24 AND 12/31, THIS BOX MAY BE COLLECTED AS EARLY AS 12 NOON.", "ref": "7802800024"}, "type": "Feature"}
{"geometry": {"coordinates": [-99.1397118, 30.046424], "type": "Point"}, "id": "n0987wCEq_XcRLQ-uDXUJPqrFpE=", "properties": {"@spider": "usps_collection_boxes", "addr:city": "KERRVILLE", "addr:country": "US", "addr:full": "228 EARL GARRETT ST", "addr:postcode": "78028", "addr:state": "TX", "brand": "USPS", "collection_times": "Mo-Fr 15:15; Sa 15:00", "name": "USPS COLLECTION BOX - BLUE BOX", "note": "ON 12/24 AND 12/31, THIS BOX MAY BE COLLECTED AS EARLY AS 12 NOON.", "ref": "7802800027"}, "type": "Feature"}
{"geometry": {"coordinates": [-99.1625474, 30.057024], "type": "Point"}, "id": "H5dp0VPEcUTNiYXKuJI-I-1EfxM=", "properties": {"@spider": "usps_collection_boxes", "addr:city": "KERRVILLE", "addr:country": "US", "addr:full": "869 JUNCTION HWY", "addr:postcode": "78028", "addr:state": "TX", "brand": "USPS", "collection_times": "Mo-Fr 16:00; Sa 15:15", "name": "USPS COLLECTION BOX - BLUE BOX", "note": "ON 12/24 AND 12/31, THIS BOX MAY BE COLLECTED AS EARLY AS 12 NOON.", "ref": "7802800029"}, "type": "Feature"}
{"geometry": {"coordinates": [-99.1633515, 30.058688], "type": "Point"}, "id": "EcqJO1YRlH8voRymZrNJBN6J6NI=", "properties": {"@spider": "usps_collection_boxes", "addr:city": "KERRVILLE", "addr:country": "US", "addr:full": "1050 JUNCTION HWY", "addr:postcode": "78028", "addr:state": "TX", "brand": "USPS", "collection_times": "Mo-Fr 15:15; Sa 15:00", "name": "USPS COLLECTION BOX - BLUE BOX", "note": "ON 12/24 AND 12/31, THIS BOX MAY BE COLLECTED AS EARLY AS 12 NOON.", "ref": "7802800030"}, "type": "Feature"}
{"geometry": {"coordinates": [-99.1633581, 30.058691], "type": "Point"}, "id": "YCWUm9pD2_KelwmNBWeznIPm534=", "properties": {"@spider": "usps_collection_boxes", "addr:city": "KERRVILLE", "addr:country": "US", "addr:full": "1050 JUNCTION HWY", "addr:postcode": "78028", "addr:state": "TX", "brand": "USPS", "collection_times": "Mo-Fr 15:15; Sa 15:00", "name": "USPS COLLECTION BOX - BLUE BOX", "note": "ON 12/24 AND 12/31, THIS BOX MAY BE COLLECTED AS EARLY AS 12 NOON.", "ref": "7802800031"}, "type": "Feature"}
{"geometry": {"coordinates": [-99.1176921791, 30.0662520819], "type": "Point"}, "id": "958qH9l-ZQLoW1bSq4eNzavMU0I=", "properties": {"@spider": "usps_collection_boxes", "addr:city": "KERRVILLE", "addr:country": "US", "addr:full": "2026 SIDNEY BAKER ST", "addr:postcode": "78028", "addr:state": "TX", "brand": "USPS", "collection_times": "Mo-Sa 14:45", "name": "USPS COLLECTION BOX - BLUE BOX", "note": "ON 12/24 AND 12/31, THIS BOX MAY BE COLLECTED AS EARLY AS 12 NOON.", "ref": "7802800033"}, "type": "Feature"}
{"geometry": {"coordinates": [-99.1242833, 30.062108], "type": "Point"}, "id": "MXspo9sdb15ViqqGUvElD97r3lA=", "properties": {"@spider": "usps_collection_boxes", "addr:city": "KERRVILLE", "addr:country": "US", "addr:full": "1700 SIDNEY BAKER ST", "addr:postcode": "78028", "addr:state": "TX", "brand": "USPS", "collection_times": "Mo-Sa 14:45", "name": "USPS COLLECTION BOX - BLUE BOX", "note": "ON 12/24 AND 12/31, THIS BOX MAY BE COLLECTED AS EARLY AS 12 NOON.", "ref": "7802800034"}, "type": "Feature"}
{"geometry": {"coordinates": [-99.1397199, 30.044583], "type": "Point"}, "id": "HOAktDvxaYRoOj0cjiOdxllnRFI=", "properties": {"@spider": "usps_collection_boxes", "addr:city": "KERRVILLE", "addr:country": "US", "addr:full": "819 WATER ST", "addr:postcode": "78028", "addr:state": "TX", "brand": "USPS", "collection_times": "Mo-Sa 15:00", "name": "USPS COLLECTION BOX - BLUE BOX", "note": "ON 12/24 AND 12/31, THIS BOX MAY BE COLLECTED AS EARLY AS 12 NOON.", "ref": "7802800038"}, "type": "Feature"}
{"geometry": {"coordinates": [-99.147946, 30.044228], "type": "Point"}, "id": "i5pimbIm7VDhEFhoXtwyBnnIouw=", "properties": {"@spider": "usps_collection_boxes", "addr:city": "KERRVILLE", "addr:country": "US", "addr:full": "244 CULLY DR", "addr:postcode": "78028", "addr:state": "TX", "brand": "USPS", "collection_times": "Mo-Sa 17:00", "name": "USPS COLLECTION BOX - PO LOBBY", "note": "ON 12/24 AND 12/31, THIS BOX MAY BE COLLECTED AS EARLY AS 12 NOON.", "ref": "7802800039"}, "type": "Feature"}
{"geometry": {"coordinates": [-99.147946, 30.044228], "type": "Point"}, "id": "3ZIQFFQ9tzdSpE3O_gpG97m_Oeg=", "properties": {"@spider": "usps_collection_boxes", "addr:city": "KERRVILLE", "addr:country": "US", "addr:full": "244 CULLY DR", "addr:postcode": "78028", "addr:state": "TX", "brand": "USPS", "collection_times": "Mo-Sa 17:00", "name": "USPS COLLECTION BOX - PO LOBBY", "note": "ON 12/24 AND 12/31, THIS BOX MAY BE COLLECTED AS EARLY AS 12 NOON.", "ref": "7802800040"}, "type": "Feature"}
{"geometry": {"coordinates": [-99.147946, 30.044228], "type": "Point"}, "id": "m1NKanDnmqoz5ohOZ5jwJJdeAIk=", "properties": {"@spider": "usps_collection_boxes", "addr:city": "KERRVILLE", "addr:country": "US", "addr:full": "244 CULLY DR", "addr:postcode": "78028", "addr:state": "TX", "brand": "USPS", "collection_times": "Mo-Sa 17:00", "name": "USPS COLLECTION BOX - PO LOBBY", "note": "ON 12/24 AND 12/31, THIS BOX MAY BE COLLECTED AS EARLY AS 12 NOON.", "ref": "7802800052"}, "type": "Feature"}
{"geometry": {"coordinates": [-99.1482624, 30.044119], "type": "Point"}, "id": "Fdkkq55ewXeoUWC2mDpr-xfKtFw=", "properties": {"@spider": "usps_collection_boxes", "addr:city": "KERRVILLE", "addr:country": "US", "addr:full": "244 CULLY DR", "addr:postcode": "78028", "addr:state": "TX", "brand": "USPS", "collection_times": "Mo-Sa 16:30", "name": "USPS COLLECTION BOX - BLUE BOX", "note": "ON 12/24 AND 12/31, THIS BOX MAY BE COLLECTED AS EARLY AS 12 NOON.", "ref": "7802800053"}, "type": "Feature"}
{"geometry": {"coordinates": [-99.1482816, 30.044119], "type": "Point"}, "id": "t3px5-rB75oXUBRNoBn_EguG1P0=", "properties": {"@spider": "usps_collection_boxes", "addr:city": "KERRVILLE", "addr:country": "US", "addr:full": "244 CULLY DR", "addr:postcode": "78028", "addr:state": "TX", "brand": "USPS", "collection_times": "Mo-Sa 16:30", "name": "USPS COLLECTION BOX - BLUE BOX", "note": "ON 12/24 AND 12/31, THIS BOX MAY BE COLLECTED AS EARLY AS 12 NOON.", "ref": "7802800054"}, "type": "Feature"}
{"geometry": {"coordinates": [-99.1366273, 30.04549], "type": "Point"}, "id": "xbQKmi-odo63fY3LWy5yy0ABDwg=", "properties": {"@spider": "usps_collection_boxes", "addr:city": "KERRVILLE", "addr:country": "US", "addr:full": "910 MAIN ST", "addr:postcode": "78028", "addr:state": "TX", "brand": "USPS", "collection_times": "Mo-Fr 15:15; Sa 15:00", "name": "USPS COLLECTION BOX - BLUE BOX", "note": "ON 12/24 AND 12/31, THIS BOX MAY BE COLLECTED AS EARLY AS 12 NOON.", "ref": "7802800055"}, "type": "Feature"}
{"geometry": {"coordinates": [-99.1366152, 30.045501], "type": "Point"}, "id": "16nP0lRJ2MAhZqcL8pF5koKd6pU=", "properties": {"@spider": "usps_collection_boxes", "addr:city": "KERRVILLE", "addr:country": "US", "addr:full": "910 MAIN ST", "addr:postcode": "78028", "addr:state": "TX", "brand": "USPS", "collection_times": "Mo-Fr 15:15; Sa 15:00", "name": "USPS COLLECTION BOX - BLUE BOX", "note": "ON 12/24 AND 12/31, THIS BOX MAY BE COLLECTED AS EARLY AS 12 NOON.", "ref": "7802800056"}, "type": "Feature"}
{"geometry": {"coordinates": [-99.147946, 30.044228], "type": "Point"}, "id": "vXE7JqW5zxoG9PyGQ4TtZn3s3r4=", "properties": {"@spider": "usps_collection_boxes", "addr:city": "KERRVILLE", "addr:country": "US", "addr:full": "244 CULLY DR", "addr:postcode": "78028", "addr:state": "TX", "brand": "USPS", "collection_times": "Mo-Sa 17:00", "name": "USPS COLLECTION BOX - APC", "note": "ON 12/24 AND 12/31, THIS BOX MAY BE COLLECTED AS EARLY AS 12 NOON.", "ref": "7802800057"}, "type": "Feature"}
{"geometry": {"coordinates": [-99.148722042, 30.043575265], "type": "Point"}, "id": "QIxS6veJEp7DBiVditgrGW6590k=", "properties": {"@spider": "usps_collection_boxes", "addr:city": "KERRVILLE", "addr:country": "US", "addr:full": "244 CULLY DR", "addr:postcode": "78028", "addr:state": "TX", "brand": "USPS", "collection_times": "Mo-Fr 17:00", "name": "USPS COLLECTION BOX - PO LOBBY", "note": "ON 12/24 AND 12/31, THIS BOX MAY BE COLLECTED AS EARLY AS 12 NOON.", "ref": "7802800063"}, "type": "Feature"}
{"geometry": {"coordinates": [-98.811085, 29.311578], "type": "Point"}, "id": "ezH4_8dsDTN-POOmCCp97bT7SjI=", "properties": {"@spider": "usps_collection_boxes", "addr:city": "LACOSTE", "addr:country": "US", "addr:full": "15843 N FRONT", "addr:postcode": "78039", "addr:state": "TX", "brand": "USPS", "collection_times": "Mo-Fr 12:00", "name": "USPS COLLECTION BOX - BLUE BOX", "ref": "7803900001"}, "type": "Feature"}
{"geometry": {"coordinates": [-98.811129, 29.311596273], "type": "Point"}, "id": "Y1LHJwUwWAKYod5yaQmnuvMYygQ=", "properties": {"@spider": "usps_collection_boxes", "addr:city": "LACOSTE", "addr:country": "US", "addr:full": "15843 N FRONT", "addr:postcode": "78039", "addr:state": "TX", "brand": "USPS", "collection_times": "Mo-Fr 16:30", "name": "USPS COLLECTION BOX - PO LOBBY", "note": "ON 12/24 AND 12/31, THIS BOX MAY BE COLLECTED AS EARLY AS 12 NOON.", "ref": "7803900005"}, "type": "Feature"}
{"geometry": {"coordinates": [-99.4834233, 27.505969], "type": "Point"}, "id": "61RYLFFzwDVr4BtVCLHrS0RN2XY=", "properties": {"@spider": "usps_collection_boxes", "addr:city": "LAREDO", "addr:country": "US", "addr:full": "1301 GUADALUPE ST", "addr:postcode": "78040", "addr:state": "TX", "brand": "USPS", "collection_times": "Mo-Sa 08:30", "name": "USPS COLLECTION BOX - BLUE BOX", "ref": "7804000013"}, "type": "Feature"}
{"geometry": {"coordinates": [-99.5186605, 27.507363], "type": "Point"}, "id": "jXu-7LwLTgBmFwqqcH3chptTVgQ=", "properties": {"@spider": "usps_collection_boxes", "addr:city": "LAREDO", "addr:country": "US", "addr:full": "100 WASHINGTONIA DR", "addr:postcode": "78040", "addr:state": "TX", "brand": "USPS", "collection_times": "Mo-Sa 08:30", "name": "USPS COLLECTION BOX - BLUE BOX", "ref": "7804000026"}, "type": "Feature"}
{"geometry": {"coordinates": [-99.508614, 27.506423], "type": "Point"}, "id": "xAmHEcdqdgWzP8SE6Se20ZXNjzQ=", "properties": {"@spider": "usps_collection_boxes", "addr:city": "LAREDO", "addr:country": "US", "addr:full": "1300 MATAMOROS ST", "addr:postcode": "78040", "addr:state": "TX", "brand": "USPS", "collection_times": "Mo-Sa 11:00", "name": "USPS COLLECTION BOX - BLUE BOX", "ref": "7804000036"}, "type": "Feature"}
{"geometry": {"coordinates": [-99.5038783, 27.510367], "type": "Point"}, "id": "p5O-Y2LsDz_aTodAPxjHPW51pLI=", "properties": {"@spider": "usps_collection_boxes", "addr:city": "LAREDO", "addr:country": "US", "addr:full": "1200 SAN BERNARDO AVE", "addr:postcode": "78040", "addr:state": "TX", "brand": "USPS", "collection_times": "Mo-Sa 08:30", "name": "USPS COLLECTION BOX - BLUE BOX", "ref": "7804000046"}, "type": "Feature"}
{"geometry": {"coordinates": [-99.5086196, 27.506404], "type": "Point"}, "id": "IZxfMUMF5mW8jg-jEPgI2G-KR9s=", "properties": {"@spider": "usps_collection_boxes", "addr:city": "LAREDO", "addr:country": "US", "addr:full": "1300 MATAMOROS ST", "addr:postcode": "78040", "addr:state": "TX", "brand": "USPS", "collection_times": "Mo-Sa 11:00", "name": "USPS COLLECTION BOX - BLUE BOX", "ref": "7804000065"}, "type": "Feature"}
{"geometry": {"coordinates": [-99.5089314971, 27.5064004827], "type": "Point"}, "id": "3rMaR48S1EcdwDhk4mJeJ4ChNJs=", "properties": {"@spider": "usps_collection_boxes", "addr:city": "LAREDO", "addr:country": "US", "addr:full": "1300 MATAMOROS ST", "addr:postcode": "78040", "addr:state": "TX", "brand": "USPS", "collection_times": "Mo-Sa 11:00", "name": "USPS COLLECTION BOX - PO LOBBY", "ref": "7804000080"}, "type": "Feature"}
{"geometry": {"coordinates": [-99.5089314971, 27.5064004827], "type": "Point"}, "id": "KDDOTi4dcmB3smc-vXPkC-t1xRs=", "properties": {"@spider": "usps_collection_boxes", "addr:city": "LAREDO", "addr:country": "US", "addr:full": "1300 MATAMOROS ST", "addr:postcode": "78040", "addr:state": "TX", "brand": "USPS", "collection_times": "Mo-Sa 11:00", "name": "USPS COLLECTION BOX - PO LOBBY", "ref": "7804000081"}, "type": "Feature"}
{"geometry": {"coordinates": [-99.508931497, 27.506400483], "type": "Point"}, "id": "F7OxwGtU9xyXa3hCq2r8vWS7vko=", "properties": {"@spider": "usps_collection_boxes", "addr:city": "LAREDO", "addr:country": "US", "addr:full": "1300 MATAMOROS ST", "addr:postcode": "78040", "addr:state": "TX", "brand": "USPS", "collection_times": "Mo-Fr 16:30; Sa 12:30", "name": "USPS COLLECTION BOX - PO LOBBY", "note": "ON 12/24 AND 12/31, THIS BOX MAY BE COLLECTED AS EARLY AS 12 NOON.", "ref": "7804000084"}, "type": "Feature"}
{"geometry": {"coordinates": [-99.4885445, 27.542209], "type": "Point"}, "id": "b30CkOpagtUnFf-3bnbcHGsGkC0=", "properties": {"@spider": "usps_collection_boxes", "addr:city": "LAREDO", "addr:country": "US", "addr:full": "602 E CALTON RD", "addr:postcode": "78041", "addr:state": "TX", "brand": "USPS", "collection_times": "Mo-Sa 08:45", "name": "USPS COLLECTION BOX - BLUE BOX", "ref": "7804100003"}, "type": "Feature"}
{"geometry": {"coordinates": [-99.4747066, 27.57428], "type": "Point"}, "id": "-BhE2RBRU1Jj-g7kOlbI9UmkdK8=", "properties": {"@spider": "usps_collection_boxes", "addr:city": "LAREDO", "addr:country": "US", "addr:full": "1202 E DEL MAR BLVD", "addr:postcode": "78041", "addr:state": "TX", "brand": "USPS", "collection_times": "Mo-Sa 09:00", "name": "USPS COLLECTION BOX - BLUE BOX", "ref": "7804100007"}, "type": "Feature"}
{"geometry": {"coordinates": [-99.4926452, 27.54623], "type": "Point"}, "id": "IJh3dQVLFq-Vz2FOdbeTOhhTTNE=", "properties": {"@spider": "usps_collection_boxes", "addr:city": "LAREDO", "addr:country": "US", "addr:full": "201 E HILLSIDE RD", "addr:postcode": "78041", "addr:state": "TX", "brand": "USPS", "collection_times": "Mo-Sa 09:15", "name": "USPS COLLECTION BOX - BLUE BOX", "ref": "7804100016"}, "type": "Feature"}
{"geometry": {"coordinates": [-99.4826456, 27.54645], "type": "Point"}, "id": "Z2odES-AnkMpaDS2vxW89oP3iKg=", "properties": {"@spider": "usps_collection_boxes", "addr:city": "LAREDO", "addr:country": "US", "addr:full": "5400 MCPHERSON RD", "addr:postcode": "78041", "addr:state": "TX", "brand": "USPS", "collection_times": "Mo-Sa 09:15", "name": "USPS COLLECTION BOX - BLUE BOX", "ref": "7804100019"}, "type": "Feature"}
{"geometry": {"coordinates": [-99.4788117, 27.555774], "type": "Point"}, "id": "Ucisi4qudrulBHc9BI2U_xXM8-4=", "properties": {"@spider": "usps_collection_boxes", "addr:city": "LAREDO", "addr:country": "US", "addr:full": "5920 MCPHERSON RD", "addr:postcode": "78041", "addr:state": "TX", "brand": "USPS", "collection_times": "Mo-Sa 09:15", "name": "USPS COLLECTION BOX - BLUE BOX", "ref": "7804100020"}, "type": "Feature"}
{"geometry": {"coordinates": [-99.4822217, 27.544476], "type": "Point"}, "id": "djzjhft4fNT_b2BbvdhuTrXatLM=", "properties": {"@spider": "usps_collection_boxes", "addr:city": "LAREDO", "addr:country": "US", "addr:full": "5219 MCPHERSON RD", "addr:postcode": "78041", "addr:state": "TX", "brand": "USPS", "collection_times": "Mo-Sa 08:45", "name": "USPS COLLECTION BOX - BLUE BOX", "ref": "7804100021"}, "type": "Feature"}
{"geometry": {"coordinates": [-99.5036261, 27.565501], "type": "Point"}, "id": "R_WG6a29EQM00BXTDqCT0dtc3Tk=", "properties": {"@spider": "usps_collection_boxes", "addr:city": "LAREDO", "addr:country": "US", "addr:full": "7100 SAN BERNARDO AVE", "addr:postcode": "78041", "addr:state": "TX", "brand": "USPS", "collection_times": "Mo-Sa 09:45", "name": "USPS COLLECTION BOX - BLUE BOX", "ref": "7804100029"}, "type": "Feature"}
{"geometry": {"coordinates": [-99.5012438, 27.542696], "type": "Point"}, "id": "7Tqd1mcLvL5_FtOn5l9sMLUUD70=", "properties": {"@spider": "usps_collection_boxes", "addr:city": "LAREDO", "addr:country": "US", "addr:full": "4801 SAN DARIO AVE", "addr:postcode": "78041", "addr:state": "TX", "brand": "USPS", "collection_times": "Mo-Sa 08:45", "name": "USPS COLLECTION BOX - BLUE BOX", "ref": "7804100031"}, "type": "Feature"}
{"geometry": {"coordinates": [-99.468981, 27.530597], "type": "Point"}, "id": "cVWX9uqNvayp-05n05Mb4CSnvkU=", "properties": {"@spider": "usps_collection_boxes", "addr:city": "LAREDO", "addr:country": "US", "addr:full": "2700 E SAUNDERS ST", "addr:postcode": "78041", "addr:state": "TX", "brand": "USPS", "collection_times": "Mo-Sa 13:15", "name": "USPS COLLECTION BOX - BLUE BOX", "note": "ON 12/24 AND 12/31, THIS BOX MAY BE COLLECTED AS EARLY AS 12 NOON.", "ref": "7804100033"}, "type": "Feature"}
{"geometry": {"coordinates": [-99.5002326, 27.568115], "type": "Point"}, "id": "QrG1X3m31oRISMb57OpS5cXILHY=", "properties": {"@spider": "usps_collection_boxes", "addr:city": "LAREDO", "addr:country": "US", "addr:full": "210 W DEL MAR BLVD", "addr:postcode": "78041", "addr:state": "TX", "brand": "USPS", "collection_times": "Mo-Sa 09:30", "name": "USPS COLLECTION BOX - BLUE BOX", "ref": "7804100040"}, "type": "Feature"}
{"geometry": {"coordinates": [-99.468981, 27.530597], "type": "Point"}, "id": "-2UuBCtYr_9CN4uNtOFJxDLqN3A=", "properties": {"@spider": "usps_collection_boxes", "addr:city": "LAREDO", "addr:country": "US", "addr:full": "2700 E SAUNDERS ST", "addr:postcode": "78041", "addr:state": "TX", "brand": "USPS", "collection_times": "Mo-Sa 13:15", "name": "USPS COLLECTION BOX - BLUE BOX", "note": "ON 12/24 AND 12/31, THIS BOX MAY BE COLLECTED AS EARLY AS 12 NOON.", "ref": "7804100041"}, "type": "Feature"}
{"geometry": {"coordinates": [-99.5041706, 27.559611], "type": "Point"}, "id": "hJfroo_MfH6q5vRNpfSRM5lV16o=", "properties": {"@spider": "usps_collection_boxes", "addr:city": "LAREDO", "addr:country": "US", "addr:full": "5912 SAN BERNARDO AVE", "addr:postcode": "78041", "addr:state": "TX", "brand": "USPS", "collection_times": "Mo-Sa 09:45", "name": "USPS COLLECTION BOX - BLUE BOX", "ref": "7804100048"}, "type": "Feature"}
{"geometry": {"coordinates": [-99.468981, 27.530597], "type": "Point"}, "id": "te4tANZuxwL0rEJddEvMqLUcV2U=", "properties": {"@spider": "usps_collection_boxes", "addr:city": "LAREDO", "addr:country": "US", "addr:full": "2700 E SAUNDERS ST", "addr:postcode": "78041", "addr:state": "TX", "brand": "USPS", "collection_times": "Mo-Sa 13:15", "name": "USPS COLLECTION BOX - PO LOBBY", "note": "ON 12/24 AND 12/31, THIS BOX MAY BE COLLECTED AS EARLY AS 12 NOON.", "ref": "7804100051"}, "type": "Feature"}
{"geometry": {"coordinates": [-99.468981, 27.530597], "type": "Point"}, "id": "FUtdnOKzaoLhQPIU2Gte5eZmkH4=", "properties": {"@spider": "usps_collection_boxes", "addr:city": "LAREDO", "addr:country": "US", "addr:full": "2700 E SAUNDERS ST", "addr:postcode": "78041", "addr:state": "TX", "brand": "USPS", "collection_times": "Mo-Sa 13:15", "name": "USPS COLLECTION BOX - PO LOBBY", "note": "ON 12/24 AND 12/31, THIS BOX MAY BE COLLECTED AS EARLY AS 12 NOON.", "ref": "7804100052"}, "type": "Feature"}
{"geometry": {"coordinates": [-99.468981, 27.530597], "type": "Point"}, "id": "eu5S2Cp4sdniXUGbTkdAI2CYL9M=", "properties": {"@spider": "usps_collection_boxes", "addr:city": "LAREDO", "addr:country": "US", "addr:full": "2700 E SAUNDERS ST", "addr:postcode": "78041", "addr:state": "TX", "brand": "USPS", "collection_times": "Mo-Sa 13:15", "name": "USPS COLLECTION BOX - PO LOBBY", "note": "ON 12/24 AND 12/31, THIS BOX MAY BE COLLECTED AS EARLY AS 12 NOON.", "ref": "7804100053"}, "type": "Feature"}
{"geometry": {"coordinates": [-99.468981, 27.530597], "type": "Point"}, "id": "nRpYTFwLBdVwB1Tqf2_EQDhHzkI=", "properties": {"@spider": "usps_collection_boxes", "addr:city": "LAREDO", "addr:country": "US", "addr:full": "2700 E SAUNDERS ST", "addr:postcode": "78041", "addr:state": "TX", "brand": "USPS", "collection_times": "Mo-Sa 13:15", "name": "USPS COLLECTION BOX - PO LOBBY", "note": "ON 12/24 AND 12/31, THIS BOX MAY BE COLLECTED AS EARLY AS 12 NOON.", "ref": "7804100054"}, "type": "Feature"}
{"geometry": {"coordinates": [-99.5005188, 27.552891], "type": "Point"}, "id": "lhiYQMES0AmUUwSqumtybrse9Aw=", "properties": {"@spider": "usps_collection_boxes", "addr:city": "LAREDO", "addr:country": "US", "addr:full": "5300 SAN DARIO AVE", "addr:postcode": "78041", "addr:state": "TX", "brand": "USPS", "collection_times": "Mo-Sa 09:30", "name": "USPS COLLECTION BOX - BLUE BOX", "ref": "7804100055"}, "type": "Feature"}
{"geometry": {"coordinates": [-99.468981, 27.530597], "type": "Point"}, "id": "HXYRuMMaptXza0XMY2SQieFzf1Y=", "properties": {"@spider": "usps_collection_boxes", "addr:city": "LAREDO", "addr:country": "US", "addr:full": "2700 E SAUNDERS ST", "addr:postcode": "78041", "addr:state": "TX", "brand": "USPS", "collection_times": "Mo-Sa 13:15", "name": "USPS COLLECTION BOX - APC", "note": "ON 12/24 AND 12/31, THIS BOX MAY BE COLLECTED AS EARLY AS 12 NOON.", "ref": "7804100056"}, "type": "Feature"}
{"geometry": {"coordinates": [-99.468981537, 27.530593473], "type": "Point"}, "id": "z_4bOJ3Suz4kTS9qulIG9DYbuC4=", "properties": {"@spider": "usps_collection_boxes", "addr:city": "LAREDO", "addr:country": "US", "addr:full": "2700 E SAUNDERS ST", "addr:postcode": "78041", "addr:state": "TX", "brand": "USPS", "collection_times": "Mo-Fr 17:00; Sa 12:30", "name": "USPS COLLECTION BOX - PO LOBBY", "note": "ON 12/24 AND 12/31, THIS BOX MAY BE COLLECTED AS EARLY AS 12 NOON.", "ref": "7804100061"}, "type": "Feature"}
{"geometry": {"coordinates": [-99.4787233, 27.505757], "type": "Point"}, "id": "0XwEtdPmVex_5-5QFz6RDcS1OnM=", "properties": {"@spider": "usps_collection_boxes", "addr:city": "LAREDO", "addr:country": "US", "addr:full": "1716 CHIHUAHUA ST", "addr:postcode": "78043", "addr:state": "TX", "brand": "USPS", "collection_times": "Mo-Sa 08:15", "name": "USPS COLLECTION BOX - BLUE BOX", "ref": "7804300030"}, "type": "Feature"}
{"geometry": {"coordinates": [-99.478752, 27.505765], "type": "Point"}, "id": "EOA9EzWAhmgKBNBDIy2LloyXLkk=", "properties": {"@spider": "usps_collection_boxes", "addr:city": "LAREDO", "addr:country": "US", "addr:full": "1716 CHIHUAHUA ST", "addr:postcode": "78043", "addr:state": "TX", "brand": "USPS", "collection_times": "Mo-Sa 08:15", "name": "USPS COLLECTION BOX - BLUE BOX", "ref": "7804300037"}, "type": "Feature"}
{"geometry": {"coordinates": [-99.461381, 27.683974], "type": "Point"}, "id": "zbn4htjiogEfBiKoorSpIVZOAkU=", "properties": {"@spider": "usps_collection_boxes", "addr:city": "LAREDO", "addr:country": "US", "addr:full": "1101 UNIROYAL DR", "addr:postcode": "78045", "addr:state": "TX", "brand": "USPS", "collection_times": "Mo-Sa 11:30", "name": "USPS COLLECTION BOX - BLUE BOX", "ref": "7804500004"}, "type": "Feature"}
{"geometry": {"coordinates": [-99.4510774, 27.586927], "type": "Point"}, "id": "EwEGGDAH7wwQpGwoNFolB9_2ha4=", "properties": {"@spider": "usps_collection_boxes", "addr:city": "LAREDO", "addr:country": "US", "addr:full": "3001 RED OAK CIR", "addr:postcode": "78045", "addr:state": "TX", "brand": "USPS", "collection_times": "Mo-Sa 09:00", "name": "USPS COLLECTION BOX - BLUE BOX", "ref": "7804500005"}, "type": "Feature"}
{"geometry": {"coordinates": [-99.461211, 27.578241], "type": "Point"}, "id": "8l6wM95qGcEa0dwpqJdikexirHs=", "properties": {"@spider": "usps_collection_boxes", "addr:city": "LAREDO", "addr:country": "US", "addr:full": "2395 E DEL MAR BLVD", "addr:postcode": "78045", "addr:state": "TX", "brand": "USPS", "collection_times": "Mo-Sa 12:00", "name": "USPS COLLECTION BOX - BLUE BOX", "ref": "7804500008"}, "type": "Feature"}
{"geometry": {"coordinates": [-99.4612329, 27.578225], "type": "Point"}, "id": "OfHcp0zWAKws7pxC0DoSo17MSJA=", "properties": {"@spider": "usps_collection_boxes", "addr:city": "LAREDO", "addr:country": "US", "addr:full": "2395 E DEL MAR BLVD", "addr:postcode": "78045", "addr:state": "TX", "brand": "USPS", "collection_times": "Mo-Sa 12:00", "name": "USPS COLLECTION BOX - BLUE BOX", "ref": "7804500009"}, "type": "Feature"}
{"geometry": {"coordinates": [-99.4607723, 27.578175], "type": "Point"}, "id": "Oa-j3sXvXg-a_Ch7m6eoLdw9SLg=", "properties": {"@spider": "usps_collection_boxes", "addr:city": "LAREDO", "addr:country": "US", "addr:full": "2395 E DEL MAR BLVD", "addr:postcode": "78045", "addr:state": "TX", "brand": "USPS", "collection_times": "Mo-Sa 12:00", "name": "USPS COLLECTION BOX - PO LOBBY", "ref": "7804500010"}, "type": "Feature"}
{"geometry": {"coordinates": [-99.4606626, 27.578258], "type": "Point"}, "id": "96RNo-WxXNzteIEj04vyBiZJm0U=", "properties": {"@spider": "usps_collection_boxes", "addr:city": "LAREDO", "addr:country": "US", "addr:full": "2395 E DEL MAR BLVD", "addr:postcode": "78045", "addr:state": "TX", "brand": "USPS", "collection_times": "Mo-Sa 12:00", "name": "USPS COLLECTION BOX - PO LOBBY", "ref": "7804500011"}, "type": "Feature"}
{"geometry": {"coordinates": [-99.4605523, 27.578363], "type": "Point"}, "id": "T-3nEoLLd_HhvofWBEcrk4KVAcQ=", "properties": {"@spider": "usps_collection_boxes", "addr:city": "LAREDO", "addr:country": "US", "addr:full": "2395 E DEL MAR BLVD", "addr:postcode": "78045", "addr:state": "TX", "brand": "USPS", "collection_times": "Mo-Sa 12:00", "name": "USPS COLLECTION BOX - PO LOBBY", "ref": "7804500012"}, "type": "Feature"}
{"geometry": {"coordinates": [-99.5104058, 27.588463], "type": "Point"}, "id": "GBWXGq8wASDnd6omep7VNbSo97A=", "properties": {"@spider": "usps_collection_boxes", "addr:city": "LAREDO", "addr:country": "US", "addr:full": "9505 MINES RD", "addr:postcode": "78045", "addr:state": "TX", "brand": "USPS", "collection_times": "Mo-Sa 11:30", "name": "USPS COLLECTION BOX - BLUE BOX", "ref": "7804500013"}, "type": "Feature"}
{"geometry": {"coordinates": [-99.461632766, 27.578285435], "type": "Point"}, "id": "l7JK_6OemVELPeeLxHX-_CaXUm8=", "properties": {"@spider": "usps_collection_boxes", "addr:city": "LAREDO", "addr:country": "US", "addr:full": "2395 E DEL MAR BLVD", "addr:postcode": "78045", "addr:state": "TX", "brand": "USPS", "collection_times": "Mo-Fr 16:30; Sa 12:30", "name": "USPS COLLECTION BOX - PO LOBBY", "note": "ON 12/24 AND 12/31, THIS BOX MAY BE COLLECTED AS EARLY AS 12 NOON.", "ref": "7804500017"}, "type": "Feature"}
{"geometry": {"coordinates": [-99.4753085, 27.473629], "type": "Point"}, "id": "fw3Y_mDhCr61gNz3po8f1WgwPSk=", "properties": {"@spider": "usps_collection_boxes", "addr:city": "LAREDO", "addr:country": "US", "addr:full": "2615 S ZAPATA HWY", "addr:postcode": "78046", "addr:state": "TX", "brand": "USPS", "collection_times": "Mo-Sa 13:00", "name": "USPS COLLECTION BOX - BLUE BOX", "note": "ON 12/24 AND 12/31, THIS BOX MAY BE COLLECTED AS EARLY AS 12 NOON.", "ref": "7804600000"}, "type": "Feature"}
{"geometry": {"coordinates": [-99.4754265, 27.476616], "type": "Point"}, "id": "mXZzy-60vGOkSYTuP5vhQtwawn8=", "properties": {"@spider": "usps_collection_boxes", "addr:city": "LAREDO", "addr:country": "US", "addr:full": "2314 S ZAPATA HWY", "addr:postcode": "78046", "addr:state": "TX", "brand": "USPS", "collection_times": "Mo-Sa 12:30", "name": "USPS COLLECTION BOX - BLUE BOX", "note": "ON 12/24 AND 12/31, THIS BOX MAY BE COLLECTED AS EARLY AS 12 NOON.", "ref": "7804600005"}, "type": "Feature"}
{"geometry": {"coordinates": [-98.485174073, 29.067918415], "type": "Point"}, "id": "tZuWn5Ru2EmDFQyxB44PR9a3ZLI=", "properties": {"@spider": "usps_collection_boxes", "addr:city": "LEMING", "addr:country": "US", "addr:full": "7781 US HIGHWAY 281 N", "addr:postcode": "78050", "addr:state": "TX", "brand": "USPS", "collection_times": "Mo-Fr 15:30; Sa 07:45", "name": "USPS COLLECTION BOX - BLUE BOX", "note": "ON 12/24 AND 12/31, THIS BOX MAY BE COLLECTED AS EARLY AS 12 NOON.", "ref": "7805000001"}, "type": "Feature"}
{"geometry": {"coordinates": [-98.485174073, 29.067918415], "type": "Point"}, "id": "FLUY3YFg30_5yLvqcpPBnnm8xyQ=", "properties": {"@spider": "usps_collection_boxes", "addr:city": "LEMING", "addr:country": "US", "addr:full": "7781 US HIGHWAY 281 N", "addr:postcode": "78050", "addr:state": "TX", "brand": "USPS", "collection_times": "Mo-Fr 15:00; Sa 07:30", "name": "USPS COLLECTION BOX - PO LOBBY", "note": "ON 12/24 AND 12/31, THIS BOX MAY BE COLLECTED AS EARLY AS 12 NOON.", "ref": "7805000002"}, "type": "Feature"}
{"geometry": {"coordinates": [-98.485174073, 29.067918415], "type": "Point"}, "id": "HIfgC30ccepLOlhZM-CvsyoINls=", "properties": {"@spider": "usps_collection_boxes", "addr:city": "LEMING", "addr:country": "US", "addr:full": "7781 US HIGHWAY 281 N", "addr:postcode": "78050", "addr:state": "TX", "brand": "USPS", "collection_times": "Mo-Fr 15:30", "name": "USPS COLLECTION BOX - PO LOBBY", "note": "ON 12/24 AND 12/31, THIS BOX MAY BE COLLECTED AS EARLY AS 12 NOON.", "ref": "7805000005"}, "type": "Feature"}
{"geometry": {"coordinates": [-98.790424, 29.235596], "type": "Point"}, "id": "_nx0TFEMIOnhKD-kO-28sGLlgxo=", "properties": {"@spider": "usps_collection_boxes", "addr:city": "LYTLE", "addr:country": "US", "addr:full": "14841 MAIN ST", "addr:postcode": "78052", "addr:state": "TX", "brand": "USPS", "collection_times": "Mo-Fr 16:00; Sa 11:00", "name": "USPS COLLECTION BOX - PO LOBBY", "note": "ON 12/24 AND 12/31, THIS BOX MAY BE COLLECTED AS EARLY AS 12 NOON.", "ref": "7805200005"}, "type": "Feature"}
{"geometry": {"coordinates": [-98.790424, 29.235596], "type": "Point"}, "id": "D5eKjlPZngm9hKtVw1-4Rnn7eDw=", "properties": {"@spider": "usps_collection_boxes", "addr:city": "LYTLE", "addr:country": "US", "addr:full": "14841 MAIN ST", "addr:postcode": "78052", "addr:state": "TX", "brand": "USPS", "collection_times": "Mo-Fr 15:30; Sa 11:00", "name": "USPS COLLECTION BOX - BLUE BOX", "note": "ON 12/24 AND 12/31, THIS BOX MAY BE COLLECTED AS EARLY AS 12 NOON.", "ref": "7805200007"}, "type": "Feature"}
{"geometry": {"coordinates": [-98.790424, 29.235596], "type": "Point"}, "id": "7Woe8AdlnvM28v49f7r66hbnOi8=", "properties": {"@spider": "usps_collection_boxes", "addr:city": "LYTLE", "addr:country": "US", "addr:full": "14841 MAIN ST", "addr:postcode": "78052", "addr:state": "TX", "brand": "USPS", "collection_times": "Mo-Fr 16:00; Sa 11:00", "name": "USPS COLLECTION BOX - PO LOBBY", "note": "ON 12/24 AND 12/31, THIS BOX MAY BE COLLECTED AS EARLY AS 12 NOON.", "ref": "7805200010"}, "type": "Feature"}
{"geometry": {"coordinates": [-98.790394169, 29.235610358], "type": "Point"}, "id": "FrNEfa-4xykTJ7WA1BVAqzthXnU=", "properties": {"@spider": "usps_collection_boxes", "addr:city": "LYTLE", "addr:country": "US", "addr:full": "14841 MAIN ST", "addr:postcode": "78052", "addr:state": "TX", "brand": "USPS", "collection_times": "Mo-Fr 16:30; Sa 11:00", "name": "USPS COLLECTION BOX - PO LOBBY", "note": "ON 12/24 AND 12/31, THIS BOX MAY BE COLLECTED AS EARLY AS 12 NOON.", "ref": "7805200011"}, "type": "Feature"}
{"geometry": {"coordinates": [-98.6924801728, 29.3257151396], "type": "Point"}, "id": "NO_Hv_T24aFNWeL9ptQHlwZEoqc=", "properties": {"@spider": "usps_collection_boxes", "addr:city": "MACDONA", "addr:country": "US", "addr:full": "9880 ALIANN", "addr:postcode": "78054", "addr:state": "TX", "brand": "USPS", "collection_times": "Mo-Fr 12:00; Sa 09:30", "name": "USPS COLLECTION BOX - BLUE BOX", "ref": "7805400002"}, "type": "Feature"}
{"geometry": {"coordinates": [-98.6924801728, 29.3257151396], "type": "Point"}, "id": "vdTMlVdOS7eSZte6vGSfocLdZYI=", "properties": {"@spider": "usps_collection_boxes", "addr:city": "MACDONA", "addr:country": "US", "addr:full": "9880 ALIANN", "addr:postcode": "78054", "addr:state": "TX", "brand": "USPS", "collection_times": "Mo-Fr 11:30; Sa 09:30", "name": "USPS COLLECTION BOX - PO LOBBY", "ref": "7805400003"}, "type": "Feature"}
{"geometry": {"coordinates": [-98.6924801728, 29.3257151396], "type": "Point"}, "id": "ygCd4HoKi2J7QHillq3IRF7Jxlw=", "properties": {"@spider": "usps_collection_boxes", "addr:city": "MACDONA", "addr:country": "US", "addr:full": "9880 ALIANN", "addr:postcode": "78054", "addr:state": "TX", "brand": "USPS", "collection_times": "Mo-Fr 11:30; Sa 09:30", "name": "USPS COLLECTION BOX - PO LOBBY", "ref": "7805400004"}, "type": "Feature"}
{"geometry": {"coordinates": [-98.691951035, 29.32541212], "type": "Point"}, "id": "qFPWp8OrY74m--xyMh8fMnbd14c=", "properties": {"@spider": "usps_collection_boxes", "addr:city": "MACDONA", "addr:country": "US", "addr:full": "9880 ALIANN", "addr:postcode": "78054", "addr:state": "TX", "brand": "USPS", "collection_times": "Mo-Fr 12:00", "name": "USPS COLLECTION BOX - PO LOBBY", "ref": "7805400006"}, "type": "Feature"}
{"geometry": {"coordinates": [-99.24778, 29.797006], "type": "Point"}, "id": "rikmTgrsmI0IBuFTYYoRCkWuSwc=", "properties": {"@spider": "usps_collection_boxes", "addr:city": "MEDINA", "addr:country": "US", "addr:full": "13876 STATE HIGHWAY 16 N", "addr:postcode": "78055", "addr:state": "TX", "brand": "USPS", "collection_times": "Mo-Fr 16:15; Sa 08:00", "name": "USPS COLLECTION BOX - BLUE BOX", "note": "ON 12/24 AND 12/31, THIS BOX MAY BE COLLECTED AS EARLY AS 12 NOON.", "ref": "7805500001"}, "type": "Feature"}
{"geometry": {"coordinates": [-99.2478043561, 29.7970415254], "type": "Point"}, "id": "QMf3_6TC3dsmdgPGcjhjrroFAGY=", "properties": {"@spider": "usps_collection_boxes", "addr:city": "MEDINA", "addr:country": "US", "addr:full": "13876 STATE HIGHWAY 16 N", "addr:postcode": "78055", "addr:state": "TX", "brand": "USPS", "collection_times": "Mo-Fr 16:15", "name": "USPS COLLECTION BOX - PO LOBBY", "note": "ON 12/24 AND 12/31, THIS BOX MAY BE COLLECTED AS EARLY AS 12 NOON.", "ref": "7805500003"}, "type": "Feature"}
{"geometry": {"coordinates": [-99.247804356, 29.797041525], "type": "Point"}, "id": "hE8SI-4p_U-dpxFslmep0VmwzYo=", "properties": {"@spider": "usps_collection_boxes", "addr:city": "MEDINA", "addr:country": "US", "addr:full": "13876 STATE HIGHWAY 16 N", "addr:postcode": "78055", "addr:state": "TX", "brand": "USPS", "collection_times": "Mo-Fr 16:15", "name": "USPS COLLECTION BOX - PO LOBBY", "note": "ON 12/24 AND 12/31, THIS BOX MAY BE COLLECTED AS EARLY AS 12 NOON.", "ref": "7805500005"}, "type": "Feature"}
{"geometry": {"coordinates": [-99.00406, 29.060676], "type": "Point"}, "id": "pAUCIAUjhENGaXmUaggM_svg8B0=", "properties": {"@spider": "usps_collection_boxes", "addr:city": "MOORE", "addr:country": "US", "addr:full": "198 W FM 462", "addr:postcode": "78057", "addr:state": "TX", "brand": "USPS", "collection_times": "Mo-Fr 13:00; Sa 09:00", "name": "USPS COLLECTION BOX - BLUE BOX", "note": "ON 12/24 AND 12/31, THIS BOX MAY BE COLLECTED AS EARLY AS 12 NOON.", "ref": "7805700001"}, "type": "Feature"}
{"geometry": {"coordinates": [-99.00406, 29.060676], "type": "Point"}, "id": "ECKtkZbCzlYVj7igKM2x9cAOwDg=", "properties": {"@spider": "usps_collection_boxes", "addr:city": "MOORE", "addr:country": "US", "addr:full": "198 W FM 462", "addr:postcode": "78057", "addr:state": "TX", "brand": "USPS", "collection_times": "Mo-Fr 13:00", "name": "USPS COLLECTION BOX - PO LOBBY", "note": "ON 12/24 AND 12/31, THIS BOX MAY BE COLLECTED AS EARLY AS 12 NOON.", "ref": "7805700003"}, "type": "Feature"}
{"geometry": {"coordinates": [-99.004063798, 29.060723092], "type": "Point"}, "id": "1kcIdEFyVZqv-tj1S0I0vkjLGKk=", "properties": {"@spider": "usps_collection_boxes", "addr:city": "MOORE", "addr:country": "US", "addr:full": "198 W FM 462", "addr:postcode": "78057", "addr:state": "TX", "brand": "USPS", "collection_times": "Mo-Fr 13:30", "name": "USPS COLLECTION BOX - PO LOBBY", "note": "ON 12/24 AND 12/31, THIS BOX MAY BE COLLECTED AS EARLY AS 12 NOON.", "ref": "7805700006"}, "type": "Feature"}
{"geometry": {"coordinates": [-99.37429, 30.177962], "type": "Point"}, "id": "IpHrZ9p55bmKSSQAOXE9Qg-hOpo=", "properties": {"@spider": "usps_collection_boxes", "addr:city": "MOUNTAIN HOME", "addr:country": "US", "addr:full": "5586 JUNCTION HWY", "addr:postcode": "78058", "addr:state": "TX", "brand": "USPS", "collection_times": "Mo-Fr 15:30; Sa 10:30", "name": "USPS COLLECTION BOX - BLUE BOX", "note": "ON 12/24 AND 12/31, THIS BOX MAY BE COLLECTED AS EARLY AS 12 NOON.", "ref": "7805800001"}, "type": "Feature"}
{"geometry": {"coordinates": [-99.37429, 30.177962], "type": "Point"}, "id": "tBK686P4PtYeZZnhdwfJ4uq64JQ=", "properties": {"@spider": "usps_collection_boxes", "addr:city": "MOUNTAIN HOME", "addr:country": "US", "addr:full": "5586 JUNCTION HWY", "addr:postcode": "78058", "addr:state": "TX", "brand": "USPS", "collection_times": "Mo-Fr 15:30; Sa 10:30", "name": "USPS COLLECTION BOX - PO LOBBY", "note": "ON 12/24 AND 12/31, THIS BOX MAY BE COLLECTED AS EARLY AS 12 NOON.", "ref": "7805800002"}, "type": "Feature"}
{"geometry": {"coordinates": [-99.374291819, 30.177954649], "type": "Point"}, "id": "o4l0_4-VbXbzVWQtftSHV5AI_mo=", "properties": {"@spider": "usps_collection_boxes", "addr:city": "MOUNTAIN HOME", "addr:country": "US", "addr:full": "5586 JUNCTION HWY", "addr:postcode": "78058", "addr:state": "TX", "brand": "USPS", "collection_times": "Mo-Fr 15:30; Sa 11:30", "name": "USPS COLLECTION BOX - PO LOBBY", "note": "ON 12/24 AND 12/31, THIS BOX MAY BE COLLECTED AS EARLY AS 12 NOON.", "ref": "7805800004"}, "type": "Feature"}
{"geometry": {"coordinates": [-99.093907, 28.891846], "type": "Point"}, "id": "IIPpdWDibL6iTvpQkE8j1g5cGwk=", "properties": {"@spider": "usps_collection_boxes", "addr:city": "PEARSALL", "addr:country": "US", "addr:full": "411 E COLORADO ST", "addr:postcode": "78061", "addr:state": "TX", "brand": "USPS", "collection_times": "Mo-Fr 16:45; Sa 12:00", "name": "USPS COLLECTION BOX - BLUE BOX", "note": "ON 12/24 AND 12/31, THIS BOX MAY BE COLLECTED AS EARLY AS 12 NOON.", "ref": "7806100002"}, "type": "Feature"}
{"geometry": {"coordinates": [-99.093907, 28.891846], "type": "Point"}, "id": "WHbF2DF-ZAoufd3aH3NBxAUGJjA=", "properties": {"@spider": "usps_collection_boxes", "addr:city": "PEARSALL", "addr:country": "US", "addr:full": "411 E COLORADO ST", "addr:postcode": "78061", "addr:state": "TX", "brand": "USPS", "collection_times": "Mo-Fr 17:00; Sa 10:45", "name": "USPS COLLECTION BOX - PO LOBBY", "note": "ON 12/24 AND 12/31, THIS BOX MAY BE COLLECTED AS EARLY AS 12 NOON.", "ref": "7806100006"}, "type": "Feature"}
{"geometry": {"coordinates": [-99.093933595, 28.891872788], "type": "Point"}, "id": "LJTpYCFX3UPaplijJpPcrRF6SyU=", "properties": {"@spider": "usps_collection_boxes", "addr:city": "PEARSALL", "addr:country": "US", "addr:full": "411 E COLORADO ST", "addr:postcode": "78061", "addr:state": "TX", "brand": "USPS", "collection_times": "Mo-Fr 17:00; Sa 11:00", "name": "USPS COLLECTION BOX - PO LOBBY", "note": "ON 12/24 AND 12/31, THIS BOX MAY BE COLLECTED AS EARLY AS 12 NOON.", "ref": "7806100008"}, "type": "Feature"}
{"geometry": {"coordinates": [-98.934573, 29.723147], "type": "Point"}, "id": "zhxEFi5h3S0NTQPXgl7Q9TEvKFE=", "properties": {"@spider": "usps_collection_boxes", "addr:city": "PIPE CREEK", "addr:country": "US", "addr:full": "10005 STATE HIGHWAY 16 S", "addr:postcode": "78063", "addr:state": "TX", "brand": "USPS", "collection_times": "Mo-Fr 16:30; Sa 09:30", "name": "USPS COLLECTION BOX - BLUE BOX", "note": "ON 12/24 AND 12/31, THIS BOX MAY BE COLLECTED AS EARLY AS 12 NOON.", "ref": "7806300001"}, "type": "Feature"}
{"geometry": {"coordinates": [-98.9304285, 29.60865], "type": "Point"}, "id": "j4oKnRC7a8AZRbf4pJzce5C0cjs=", "properties": {"@spider": "usps_collection_boxes", "addr:city": "PIPE CREEK", "addr:country": "US", "addr:full": "9155 FM 1283", "addr:postcode": "78063", "addr:state": "TX", "brand": "USPS", "collection_times": "Mo-Fr 14:00", "name": "USPS COLLECTION BOX - BLUE BOX", "note": "ON 12/24 AND 12/31, THIS BOX MAY BE COLLECTED AS EARLY AS 12 NOON.", "ref": "7806300006"}, "type": "Feature"}
{"geometry": {"coordinates": [-98.934573, 29.723147], "type": "Point"}, "id": "1UMDjfyqzyMPY4B0tHkIfoYQtxc=", "properties": {"@spider": "usps_collection_boxes", "addr:city": "PIPE CREEK", "addr:country": "US", "addr:full": "10005 STATE HIGHWAY 16 S", "addr:postcode": "78063", "addr:state": "TX", "brand": "USPS", "collection_times": "Mo-Fr 16:30; Sa 09:30", "name": "USPS COLLECTION BOX - PO LOBBY", "note": "ON 12/24 AND 12/31, THIS BOX MAY BE COLLECTED AS EARLY AS 12 NOON.", "ref": "7806300007"}, "type": "Feature"}
{"geometry": {"coordinates": [-98.93458424, 29.723146845], "type": "Point"}, "id": "UCNI7CIZJbJwjVhPO-ONU3Km_Ko=", "properties": {"@spider": "usps_collection_boxes", "addr:city": "PIPE CREEK", "addr:country": "US", "addr:full": "10005 STATE HIGHWAY 16 S", "addr:postcode": "78063", "addr:state": "TX", "brand": "USPS", "collection_times": "Mo-Fr 16:30", "name": "USPS COLLECTION BOX - PO LOBBY", "note": "ON 12/24 AND 12/31, THIS BOX MAY BE COLLECTED AS EARLY AS 12 NOON.", "ref": "7806300009"}, "type": "Feature"}
{"geometry": {"coordinates": [-98.485061, 28.959307], "type": "Point"}, "id": "Z8Nrz1v6nrbmVKYzZLnv7o0lHIs=", "properties": {"@spider": "usps_collection_boxes", "addr:city": "PLEASANTON", "addr:country": "US", "addr:full": "122 W GOODWIN ST", "addr:postcode": "78064", "addr:state": "TX", "brand": "USPS", "collection_times": "Mo-Sa 15:30", "name": "USPS COLLECTION BOX - BLUE BOX", "note": "ON 12/24 AND 12/31, THIS BOX MAY BE COLLECTED AS EARLY AS 12 NOON.", "ref": "7806400004"}, "type": "Feature"}
{"geometry": {"coordinates": [-98.4788344, 28.973196], "type": "Point"}, "id": "-QwOSteWAk1n0griyhDbncN4HGc=", "properties": {"@spider": "usps_collection_boxes", "addr:city": "PLEASANTON", "addr:country": "US", "addr:full": "1501 2ND ST", "addr:postcode": "78064", "addr:state": "TX", "brand": "USPS", "collection_times": "Mo-Sa 11:30", "name": "USPS COLLECTION BOX - BLUE BOX", "ref": "7806400005"}, "type": "Feature"}
{"geometry": {"coordinates": [-98.4850103608, 28.9591005221], "type": "Point"}, "id": "icXgqMvJifYxyc__GMtFdvNiUXA=", "properties": {"@spider": "usps_collection_boxes", "addr:city": "PLEASANTON", "addr:country": "US", "addr:full": "122 W GOODWIN ST", "addr:postcode": "78064", "addr:state": "TX", "brand": "USPS", "collection_times": "Mo-Sa 15:30", "name": "USPS COLLECTION BOX - BLUE BOX", "note": "ON 12/24 AND 12/31, THIS BOX MAY BE COLLECTED AS EARLY AS 12 NOON.", "ref": "7806400008"}, "type": "Feature"}
{"geometry": {"coordinates": [-98.485061, 28.959307], "type": "Point"}, "id": "PaB6YAmOD2qhWaPGGbchvCZBl9A=", "properties": {"@spider": "usps_collection_boxes", "addr:city": "PLEASANTON", "addr:country": "US", "addr:full": "122 W GOODWIN ST", "addr:postcode": "78064", "addr:state": "TX", "brand": "USPS", "collection_times": "Mo-Fr 16:00; Sa 11:30", "name": "USPS COLLECTION BOX - PO LOBBY", "note": "ON 12/24 AND 12/31, THIS BOX MAY BE COLLECTED AS EARLY AS 12 NOON.", "ref": "7806400009"}, "type": "Feature"}
{"geometry": {"coordinates": [-98.485061, 28.959307], "type": "Point"}, "id": "PXELvzWXXlQB4Pbpi8hO9gH1JeQ=", "properties": {"@spider": "usps_collection_boxes", "addr:city": "PLEASANTON", "addr:country": "US", "addr:full": "122 W GOODWIN ST", "addr:postcode": "78064", "addr:state": "TX", "brand": "USPS", "collection_times": "Mo-Fr 16:00; Sa 11:30", "name": "USPS COLLECTION BOX - PO LOBBY", "note": "ON 12/24 AND 12/31, THIS BOX MAY BE COLLECTED AS EARLY AS 12 NOON.", "ref": "7806400010"}, "type": "Feature"}
{"geometry": {"coordinates": [-98.485010361, 28.959100522], "type": "Point"}, "id": "mVBFcYs55hu7Y0IP8L1PvQabXY8=", "properties": {"@spider": "usps_collection_boxes", "addr:city": "PLEASANTON", "addr:country": "US", "addr:full": "122 W GOODWIN ST", "addr:postcode": "78064", "addr:state": "TX", "brand": "USPS", "collection_times": "Mo-Fr 16:30; Sa 11:30", "name": "USPS COLLECTION BOX - PO LOBBY", "note": "ON 12/24 AND 12/31, THIS BOX MAY BE COLLECTED AS EARLY AS 12 NOON.", "ref": "7806400013"}, "type": "Feature"}
{"geometry": {"coordinates": [-98.57554, 29.036266], "type": "Point"}, "id": "87Tog4ZV4L83kvIsY2qRqtgHRdI=", "properties": {"@spider": "usps_collection_boxes", "addr:city": "POTEET", "addr:country": "US", "addr:full": "420 AVENUE I", "addr:postcode": "78065", "addr:state": "TX", "brand": "USPS", "collection_times": "Mo-Fr 16:00; Sa 10:30", "name": "USPS COLLECTION BOX - BLUE BOX", "note": "ON 12/24 AND 12/31, THIS BOX MAY BE COLLECTED AS EARLY AS 12 NOON.", "ref": "7806500001"}, "type": "Feature"}
{"geometry": {"coordinates": [-98.575531, 29.036214], "type": "Point"}, "id": "OAmYdQxwEDdAvvt53kX-9sb7hDQ=", "properties": {"@spider": "usps_collection_boxes", "addr:city": "POTEET", "addr:country": "US", "addr:full": "420 AVENUE I", "addr:postcode": "78065", "addr:state": "TX", "brand": "USPS", "collection_times": "Mo-Fr 16:00; Sa 10:00", "name": "USPS COLLECTION BOX - PO LOBBY", "note": "ON 12/24 AND 12/31, THIS BOX MAY BE COLLECTED AS EARLY AS 12 NOON.", "ref": "7806500003"}, "type": "Feature"}
{"geometry": {"coordinates": [-98.575376265, 29.036285307], "type": "Point"}, "id": "NxFPK8e2CWAvchFV3sne_dwtWWA=", "properties": {"@spider": "usps_collection_boxes", "addr:city": "POTEET", "addr:country": "US", "addr:full": "420 AVENUE I", "addr:postcode": "78065", "addr:state": "TX", "brand": "USPS", "collection_times": "Mo-Fr 16:00; Sa 10:00", "name": "USPS COLLECTION BOX - PO LOBBY", "note": "ON 12/24 AND 12/31, THIS BOX MAY BE COLLECTED AS EARLY AS 12 NOON.", "ref": "7806500008"}, "type": "Feature"}
{"geometry": {"coordinates": [-98.884066356, 29.439594274], "type": "Point"}, "id": "GdWBftTNEyh_YzDAGaL7SETwKD4=", "properties": {"@spider": "usps_collection_boxes", "addr:city": "RIO MEDINA", "addr:country": "US", "addr:full": "3980 FM 471 N", "addr:postcode": "78066", "addr:state": "TX", "brand": "USPS", "collection_times": "Mo-Fr 11:30", "name": "USPS COLLECTION BOX - PO LOBBY", "ref": "7806600002"}, "type": "Feature"}
{"geometry": {"coordinates": [-99.437639, 27.047751], "type": "Point"}, "id": "umMe89OVzhKehvu1oY3SoqF7LiI=", "properties": {"@spider": "usps_collection_boxes", "addr:city": "SAN YGNACIO", "addr:country": "US", "addr:full": "4327 N US HIGHWAY 83", "addr:postcode": "78067", "addr:state": "TX", "brand": "USPS", "collection_times": "Mo-Fr 11:45; Sa 10:30", "name": "USPS COLLECTION BOX - PO LOBBY", "ref": "7806700002"}, "type": "Feature"}
{"geometry": {"coordinates": [-99.437639, 27.047751], "type": "Point"}, "id": "eh2IIaVcYMcpv8eslzYxtWDNAMs=", "properties": {"@spider": "usps_collection_boxes", "addr:city": "SAN YGNACIO", "addr:country": "US", "addr:full": "4327 N US HIGHWAY 83", "addr:postcode": "78067", "addr:state": "TX", "brand": "USPS", "collection_times": "Mo-Fr 11:45; Sa 10:30", "name": "USPS COLLECTION BOX - PO LOBBY", "ref": "7806700003"}, "type": "Feature"}
{"geometry": {"coordinates": [-99.437639, 27.047751], "type": "Point"}, "id": "OzsVKcM1EVOGVOzUnQVvWMAtHzg=", "properties": {"@spider": "usps_collection_boxes", "addr:city": "SAN YGNACIO", "addr:country": "US", "addr:full": "4327 N US HIGHWAY 83", "addr:postcode": "78067", "addr:state": "TX", "brand": "USPS", "collection_times": "Mo-Fr 11:45; Sa 10:30", "name": "USPS COLLECTION BOX - BLUE BOX", "ref": "7806700004"}, "type": "Feature"}
{"geometry": {"coordinates": [-99.412445111, 27.025507238], "type": "Point"}, "id": "HrjyUW4nFd16SDf6pdcsU-XO3_E=", "properties": {"@spider": "usps_collection_boxes", "addr:city": "SAN YGNACIO", "addr:country": "US", "addr:full": "4327 N US HIGHWAY 83", "addr:postcode": "78067", "addr:state": "TX", "brand": "USPS", "collection_times": "Mo-Fr 12:00; Sa 10:30", "name": "USPS COLLECTION BOX - PO LOBBY", "ref": "7806700005"}, "type": "Feature"}
{"geometry": {"coordinates": [-98.6561132383, 29.2288918419], "type": "Point"}, "id": "VUv_ELPkNu5jyt5C5esvVaA90WQ=", "properties": {"@spider": "usps_collection_boxes", "addr:city": "SOMERSET", "addr:country": "US", "addr:full": "19608 SOMERSET RD", "addr:postcode": "78069", "addr:state": "TX", "brand": "USPS", "collection_times": "Mo-Fr 15:30; Sa 08:30", "name": "USPS COLLECTION BOX - BLUE BOX", "note": "ON 12/24 AND 12/31, THIS BOX MAY BE COLLECTED AS EARLY AS 12 NOON.", "ref": "7806900003"}, "type": "Feature"}
{"geometry": {"coordinates": [-98.656149, 29.228895], "type": "Point"}, "id": "tbPh9k_zc076knIIqIFF_fWAEa4=", "properties": {"@spider": "usps_collection_boxes", "addr:city": "SOMERSET", "addr:country": "US", "addr:full": "19608 SOMERSET RD", "addr:postcode": "78069", "addr:state": "TX", "brand": "USPS", "collection_times": "Mo-Fr 16:00", "name": "USPS COLLECTION BOX - PO LOBBY", "note": "ON 12/24 AND 12/31, THIS BOX MAY BE COLLECTED AS EARLY AS 12 NOON.", "ref": "7806900005"}, "type": "Feature"}
{"geometry": {"coordinates": [-98.656113238, 29.228891842], "type": "Point"}, "id": "TId7z_4HLNXd61A038WjYKju5xU=", "properties": {"@spider": "usps_collection_boxes", "addr:city": "SOMERSET", "addr:country": "US", "addr:full": "19608 SOMERSET RD", "addr:postcode": "78069", "addr:state": "TX", "brand": "USPS", "collection_times": "Mo-Fr 16:00", "name": "USPS COLLECTION BOX - PO LOBBY", "note": "ON 12/24 AND 12/31, THIS BOX MAY BE COLLECTED AS EARLY AS 12 NOON.", "ref": "7806900008"}, "type": "Feature"}
{"geometry": {"coordinates": [-98.412283199, 29.90917151], "type": "Point"}, "id": "a6ZJIlQ8dX9mfHZ5wQsQQUVsfkc=", "properties": {"@spider": "usps_collection_boxes", "addr:city": "SPRING BRANCH", "addr:country": "US", "addr:full": "132 BLAZING MEADOW RD", "addr:postcode": "78070", "addr:state": "TX", "brand": "USPS", "collection_times": "Mo-Fr 16:30; Sa 11:00", "name": "USPS COLLECTION BOX - BLUE BOX", "note": "ON 12/24 AND 12/31, THIS BOX MAY BE COLLECTED AS EARLY AS 12 NOON.", "ref": "7807000001"}, "type": "Feature"}
{"geometry": {"coordinates": [-98.422116, 29.806516], "type": "Point"}, "id": "BtWn-o5VV0LYXIXwjqUYtnkphHs=", "properties": {"@spider": "usps_collection_boxes", "addr:city": "SPRING BRANCH", "addr:country": "US", "addr:full": "305 SINGING OAKS", "addr:postcode": "78070", "addr:state": "TX", "brand": "USPS", "collection_times": "Mo-Sa 12:30", "name": "USPS COLLECTION BOX - BLUE BOX", "note": "ON 12/24 AND 12/31, THIS BOX MAY BE COLLECTED AS EARLY AS 12 NOON.", "ref": "7807000003"}, "type": "Feature"}
{"geometry": {"coordinates": [-98.4304444, 29.796576], "type": "Point"}, "id": "61L_o4VF_Q1wVSvkLL0MvhHbvEI=", "properties": {"@spider": "usps_collection_boxes", "addr:city": "SPRING BRANCH", "addr:country": "US", "addr:full": "20475 STATE HIGHWAY 46 W", "addr:postcode": "78070", "addr:state": "TX", "brand": "USPS", "collection_times": "Mo-Sa 10:20", "name": "USPS COLLECTION BOX - BLUE BOX", "ref": "7807000004"}, "type": "Feature"}
{"geometry": {"coordinates": [-98.4122831988, 29.9091715095], "type": "Point"}, "id": "nypvFUG_whrKKaxtEPDR1Lr9SoI=", "properties": {"@spider": "usps_collection_boxes", "addr:city": "SPRING BRANCH", "addr:country": "US", "addr:full": "132 BLAZINGMEADOWS", "addr:postcode": "78070", "addr:state": "TX", "brand": "USPS", "collection_times": "Mo-Fr 16:30; Sa 11:00", "name": "USPS COLLECTION BOX - PO LOBBY", "note": "ON 12/24 AND 12/31, THIS BOX MAY BE COLLECTED AS EARLY AS 12 NOON.", "ref": "7807000005"}, "type": "Feature"}
{"geometry": {"coordinates": [-98.412283199, 29.90917151], "type": "Point"}, "id": "SFAdQlvq3nEDmsIgG5myut86da0=", "properties": {"@spider": "usps_collection_boxes", "addr:city": "SPRING BRANCH", "addr:country": "US", "addr:full": "132 BLAZINGMEADOWS", "addr:postcode": "78070", "addr:state": "TX", "brand": "USPS", "collection_times": "Mo-Fr 16:30; Sa 11:00", "name": "USPS COLLECTION BOX - PO LOBBY", "note": "ON 12/24 AND 12/31, THIS BOX MAY BE COLLECTED AS EARLY AS 12 NOON.", "ref": "7807000006"}, "type": "Feature"}
{"geometry": {"coordinates": [-98.3795579, 29.804298], "type": "Point"}, "id": "f1JhMidFNi3UcKmn5biBBbBH-sU=", "properties": {"@spider": "usps_collection_boxes", "addr:city": "SPRING BRANCH", "addr:country": "US", "addr:full": "17130 STATE HIGHWAY 46 W", "addr:postcode": "78070", "addr:state": "TX", "brand": "USPS", "collection_times": "Mo-Fr 12:00", "name": "USPS COLLECTION BOX - BLUE BOX", "ref": "7807000007"}, "type": "Feature"}
{"geometry": {"coordinates": [-98.412283199, 29.90917151], "type": "Point"}, "id": "8pHcpzxVvs_JIE5eQarL6PGbdWs=", "properties": {"@spider": "usps_collection_boxes", "addr:city": "SPRING BRANCH", "addr:country": "US", "addr:full": "132 BLAZING MEADOW RD", "addr:postcode": "78070", "addr:state": "TX", "brand": "USPS", "collection_times": "Mo-Fr 16:30; Sa 11:00", "name": "USPS COLLECTION BOX - PO LOBBY", "note": "ON 12/24 AND 12/31, THIS BOX MAY BE COLLECTED AS EARLY AS 12 NOON.", "ref": "7807000013"}, "type": "Feature"}
{"geometry": {"coordinates": [-98.181657, 28.461563], "type": "Point"}, "id": "tn8o783ULRPffizs6x7q_nbt3Co=", "properties": {"@spider": "usps_collection_boxes", "addr:city": "THREE RIVERS", "addr:country": "US", "addr:full": "110 E ALEXANDER", "addr:postcode": "78071", "addr:state": "TX", "brand": "USPS", "collection_times": "Mo-Fr 16:30; Sa 11:00", "name": "USPS COLLECTION BOX - BLUE BOX", "note": "ON 12/24 AND 12/31, THIS BOX MAY BE COLLECTED AS EARLY AS 12 NOON.", "ref": "7807100001"}, "type": "Feature"}
{"geometry": {"coordinates": [-98.181657, 28.461563], "type": "Point"}, "id": "dGUvsWpLdrN_SOFvfIG9nxMp8aA=", "properties": {"@spider": "usps_collection_boxes", "addr:city": "THREE RIVERS", "addr:country": "US", "addr:full": "110 E ALEXANDER", "addr:postcode": "78071", "addr:state": "TX", "brand": "USPS", "collection_times": "Mo-Fr 16:30; Sa 11:00", "name": "USPS COLLECTION BOX - PO LOBBY", "note": "ON 12/24 AND 12/31, THIS BOX MAY BE COLLECTED AS EARLY AS 12 NOON.", "ref": "7807100004"}, "type": "Feature"}
{"geometry": {"coordinates": [-98.181657, 28.461563], "type": "Point"}, "id": "R9cUZPN0qSRRZnhX6n8CyI1VHjc=", "properties": {"@spider": "usps_collection_boxes", "addr:city": "THREE RIVERS", "addr:country": "US", "addr:full": "110 E ALEXANDER", "addr:postcode": "78071", "addr:state": "TX", "brand": "USPS", "collection_times": "Mo-Fr 16:30; Sa 11:00", "name": "USPS COLLECTION BOX - PO LOBBY", "note": "ON 12/24 AND 12/31, THIS BOX MAY BE COLLECTED AS EARLY AS 12 NOON.", "ref": "7807100005"}, "type": "Feature"}
{"geometry": {"coordinates": [-98.18165986, 28.461559014], "type": "Point"}, "id": "cz4K7h3CN96qZEW-rBk6Uj3fFmU=", "properties": {"@spider": "usps_collection_boxes", "addr:city": "THREE RIVERS", "addr:country": "US", "addr:full": "110 E ALEXANDER", "addr:postcode": "78071", "addr:state": "TX", "brand": "USPS", "collection_times": "Mo-Fr 16:30; Sa 11:00", "name": "USPS COLLECTION BOX - PO LOBBY", "note": "ON 12/24 AND 12/31, THIS BOX MAY BE COLLECTED AS EARLY AS 12 NOON.", "ref": "7807100009"}, "type": "Feature"}
{"geometry": {"coordinates": [-98.54813, 28.463114], "type": "Point"}, "id": "foCdZd4AdiNV-m1kbuV1hqLJSDU=", "properties": {"@spider": "usps_collection_boxes", "addr:city": "TILDEN", "addr:country": "US", "addr:full": "306 RIVER ST", "addr:postcode": "78072", "addr:state": "TX", "brand": "USPS", "collection_times": "Mo-Fr 16:00; Sa 10:00", "name": "USPS COLLECTION BOX - BLUE BOX", "note": "ON 12/24 AND 12/31, THIS BOX MAY BE COLLECTED AS EARLY AS 12 NOON.", "ref": "7807200002"}, "type": "Feature"}
{"geometry": {"coordinates": [-98.54813, 28.463114], "type": "Point"}, "id": "1exIhr4SKoLUs-HnTb-j2z9Lzis=", "properties": {"@spider": "usps_collection_boxes", "addr:city": "TILDEN", "addr:country": "US", "addr:full": "306 RIVER ST", "addr:postcode": "78072", "addr:state": "TX", "brand": "USPS", "collection_times": "Mo-Fr 15:30; Sa 09:30", "name": "USPS COLLECTION BOX - PO LOBBY", "note": "ON 12/24 AND 12/31, THIS BOX MAY BE COLLECTED AS EARLY AS 12 NOON.", "ref": "7807200003"}, "type": "Feature"}
{"geometry": {"coordinates": [-98.548605812, 28.462532769], "type": "Point"}, "id": "kxsF3Zt65hMkKMsTnBPswdQQGLQ=", "properties": {"@spider": "usps_collection_boxes", "addr:city": "TILDEN", "addr:country": "US", "addr:full": "306 RIVER ST", "addr:postcode": "78072", "addr:state": "TX", "brand": "USPS", "collection_times": "Mo-Fr 16:00; Sa 10:00", "name": "USPS COLLECTION BOX - PO LOBBY", "note": "ON 12/24 AND 12/31, THIS BOX MAY BE COLLECTED AS EARLY AS 12 NOON.", "ref": "7807200006"}, "type": "Feature"}
{"geometry": {"coordinates": [-98.6434292161, 29.2885580868], "type": "Point"}, "id": "C4BuhllF6uXykqIyM8A1bsv7VCc=", "properties": {"@spider": "usps_collection_boxes", "addr:city": "VON ORMY", "addr:country": "US", "addr:full": "13636 INTERSTATE 35 S", "addr:postcode": "78073", "addr:state": "TX", "brand": "USPS", "collection_times": "Mo-Fr 16:30; Sa 09:00", "name": "USPS COLLECTION BOX - BLUE BOX", "note": "ON 12/24 AND 12/31, THIS BOX MAY BE COLLECTED AS EARLY AS 12 NOON.", "ref": "7807300002"}, "type": "Feature"}
{"geometry": {"coordinates": [-98.6435, 29.288536], "type": "Point"}, "id": "G6EBp4Bxr_N8SLrH0QqH3BrVTmM=", "properties": {"@spider": "usps_collection_boxes", "addr:city": "VON ORMY", "addr:country": "US", "addr:full": "13636 IH 35 S", "addr:postcode": "78073", "addr:state": "TX", "brand": "USPS", "collection_times": "Mo-Fr 16:30", "name": "USPS COLLECTION BOX - PO LOBBY", "note": "ON 12/24 AND 12/31, THIS BOX MAY BE COLLECTED AS EARLY AS 12 NOON.", "ref": "7807300009"}, "type": "Feature"}
{"geometry": {"coordinates": [-98.643429216, 29.288558087], "type": "Point"}, "id": "3KqeDWeXqsmqy6G--So-2vlcVGA=", "properties": {"@spider": "usps_collection_boxes", "addr:city": "VON ORMY", "addr:country": "US", "addr:full": "13636 INTERSTATE 35 S", "addr:postcode": "78073", "addr:state": "TX", "brand": "USPS", "collection_times": "Mo-Fr 16:30", "name": "USPS COLLECTION BOX - PO LOBBY", "note": "ON 12/24 AND 12/31, THIS BOX MAY BE COLLECTED AS EARLY AS 12 NOON.", "ref": "7807300010"}, "type": "Feature"}
{"geometry": {"coordinates": [-98.798544, 29.944421], "type": "Point"}, "id": "h4VRlxbT7H2-oD8zufjc_5xbmqI=", "properties": {"@spider": "usps_collection_boxes", "addr:city": "WARING", "addr:country": "US", "addr:full": "538 WARING WELFARE RD", "addr:postcode": "78074", "addr:state": "TX", "brand": "USPS", "collection_times": "Mo-Fr 13:45; Sa 11:00", "name": "USPS COLLECTION BOX - BLUE BOX", "note": "ON 12/24 AND 12/31, THIS BOX MAY BE COLLECTED AS EARLY AS 12 NOON.", "ref": "7807400001"}, "type": "Feature"}
{"geometry": {"coordinates": [-98.798573, 29.944507], "type": "Point"}, "id": "WT29ak4kvSN7wYg6gr5kD0gpAPc=", "properties": {"@spider": "usps_collection_boxes", "addr:city": "WARING", "addr:country": "US", "addr:full": "538 WARING WELFARE RD", "addr:postcode": "78074", "addr:state": "TX", "brand": "USPS", "collection_times": "Mo-Fr 13:45; Sa 11:00", "name": "USPS COLLECTION BOX - PO LOBBY", "note": "ON 12/24 AND 12/31, THIS BOX MAY BE COLLECTED AS EARLY AS 12 NOON.", "ref": "7807400002"}, "type": "Feature"}
{"geometry": {"coordinates": [-98.80379005, 29.950892729], "type": "Point"}, "id": "kXXzaQpeh-To1bQi2PvyIkZHsDU=", "properties": {"@spider": "usps_collection_boxes", "addr:city": "WARING", "addr:country": "US", "addr:full": "538 WARING WELFARE RD", "addr:postcode": "78074", "addr:state": "TX", "brand": "USPS", "collection_times": "Mo-Fr 14:00; Sa 11:00", "name": "USPS COLLECTION BOX - PO LOBBY", "note": "ON 12/24 AND 12/31, THIS BOX MAY BE COLLECTED AS EARLY AS 12 NOON.", "ref": "7807400004"}, "type": "Feature"}
{"geometry": {"coordinates": [-99.2658776, 26.902418], "type": "Point"}, "id": "nDPOrmnWM04655ufrpjRCM4Wtt8=", "properties": {"@spider": "usps_collection_boxes", "addr:city": "ZAPATA", "addr:country": "US", "addr:full": "200 E 7TH ST", "addr:postcode": "78076", "addr:state": "TX", "brand": "USPS", "collection_times": "Mo-Sa 11:30", "name": "USPS COLLECTION BOX - BLUE BOX", "ref": "7807600001"}, "type": "Feature"}
{"geometry": {"coordinates": [-99.268496704, 26.90353255], "type": "Point"}, "id": "AE-P_ODiB1RpkKNoAvazK5pcLLU=", "properties": {"@spider": "usps_collection_boxes", "addr:city": "ZAPATA", "addr:country": "US", "addr:full": "810 N US HIGHWAY 83", "addr:postcode": "78076", "addr:state": "TX", "brand": "USPS", "collection_times": "Mo-Sa 11:45", "name": "USPS COLLECTION BOX - BLUE BOX", "ref": "7807600008"}, "type": "Feature"}
{"geometry": {"coordinates": [-99.268496704, 26.90353255], "type": "Point"}, "id": "DvGH7THxwsffy7rmngo6iqnTmPA=", "properties": {"@spider": "usps_collection_boxes", "addr:city": "ZAPATA", "addr:country": "US", "addr:full": "810 N US HIGHWAY 83", "addr:postcode": "78076", "addr:state": "TX", "brand": "USPS", "collection_times": "Mo-Sa 11:45", "name": "USPS COLLECTION BOX - PO LOBBY", "ref": "7807600010"}, "type": "Feature"}
{"geometry": {"coordinates": [-99.268496704, 26.90353255], "type": "Point"}, "id": "J8RDG2VjHCDJ0kfvK_rm5zcDqD4=", "properties": {"@spider": "usps_collection_boxes", "addr:city": "ZAPATA", "addr:country": "US", "addr:full": "810 N US HIGHWAY 83", "addr:postcode": "78076", "addr:state": "TX", "brand": "USPS", "collection_times": "Mo-Sa 11:45", "name": "USPS COLLECTION BOX - PO LOBBY", "ref": "7807600011"}, "type": "Feature"}
{"geometry": {"coordinates": [-99.268496704, 26.90353255], "type": "Point"}, "id": "apYElrCOgYvBiGwzCVNfEmgoNo0=", "properties": {"@spider": "usps_collection_boxes", "addr:city": "ZAPATA", "addr:country": "US", "addr:full": "810 N US HIGHWAY 83", "addr:postcode": "78076", "addr:state": "TX", "brand": "USPS", "collection_times": "Mo-Fr 16:30; Sa 12:30", "name": "USPS COLLECTION BOX - PO LOBBY", "note": "ON 12/24 AND 12/31, THIS BOX MAY BE COLLECTED AS EARLY AS 12 NOON.", "ref": "7807600013"}, "type": "Feature"}
