{"geometry": {"coordinates": [-98.286342367, 29.371446215], "type": "Point"}, "id": "Nj8fM0TdfSWEKLgD_Z1hVAzy6L0=", "properties": {"@source_uri": "https://tools.usps.com/UspsToolsRestServices/rest/POLocator/findLocations", "@spider": "usps_collection_boxes", "addr:city": "ADKINS", "addr:country": "US", "addr:postcode": "78101", "addr:state": "TX", "addr:street_address": "10190 HWY 87 EAST", "amenity": "post_box", "collection_times": "Mo-Fr 17:00; Sa 10:30", "indoor": "yes", "note": "ON 12/24 AND 12/31, THIS BOX MAY BE COLLECTED AS EARLY AS 12 NOON.", "nsi_id": "unitedstatespostalservice-a77078", "operator": "United States Postal Service", "operator:short": "USPS", "operator:type": "public", "operator:wikidata": "Q668687", "ref": "7810100004"}, "type": "Feature"}
{"geometry": {"coordinates": [-98.286342367, 29.371446215], "type": "Point"}, "id": "IkJ8KRK-hg3wMEuc9FlBjDTchmQ=", "properties": {"@source_uri": "https://tools.usps.com/UspsToolsRestServices/rest/POLocator/findLocations", "@spider": "usps_collection_boxes", "addr:city": "ADKINS", "addr:country": "US", "addr:postcode": "78101", "addr:state": "TX", "addr:street_address": "10190 HWY 87 EAST", "amenity": "post_box", "collection_times": "Mo-Fr 17:00; Sa 10:30", "indoor": "yes", "note": "ON 12/24 AND 12/31, THIS BOX MAY BE COLLECTED AS EARLY AS 12 NOON.", "nsi_id": "unitedstatespostalservice-a77078", "operator": "United States Postal Service", "operator:short": "USPS", "operator:type": "public", "operator:wikidata": "Q668687", "ref": "7810100008"}, "type": "Feature"}
{"geometry": {"coordinates": [-97.748291075, 28.402027995], "type": "Point"}, "id": "kkSNocYM_nhwasAM2O3RkWxQMxU=", "properties": {"@source_uri": "https://tools.usps.com/UspsToolsRestServices/rest/POLocator/findLocations", "@spider": "usps_collection_boxes", "addr:city": "BEEVILLE", "addr:country": "US", "addr:postcode": "78102", "addr:state": "TX", "addr:street_address": "100 W CORPUS CHRISTI ST", "amenity": "post_box", "collection_times": "Mo-Fr 16:30; Sa 16:00", "note": "ON 12/24 AND 12/31, THIS BOX MAY BE COLLECTED AS EARLY AS 12 NOON.", "nsi_id": "unitedstatespostalservice-a77078", "operator": "United States Postal Service", "operator:short": "USPS", "operator:type": "public", "operator:wikidata": "Q668687", "ref": "7810200006"}, "type": "Feature"}
{"geometry": {"coordinates": [-97.756139998, 28.419319982], "type": "Point"}, "id": "yaubM4nGJaPSmfO0MlVJseUIjTI=", "properties": {"@source_uri": "https://tools.usps.com/UspsToolsRestServices/rest/POLocator/findLocations", "@spider": "usps_collection_boxes", "addr:city": "BEEVILLE", "addr:country": "US", "addr:postcode": "78102", "addr:state": "TX", "addr:street_address": "2004 N SAINT MARYS ST", "amenity": "post_box", "collection_times": "Mo-Sa 11:45", "nsi_id": "unitedstatespostalservice-a77078", "operator": "United States Postal Service", "operator:short": "USPS", "operator:type": "public", "operator:wikidata": "Q668687", "ref": "7810200015"}, "type": "Feature"}
{"geometry": {"coordinates": [-97.734300027, 28.407069998], "type": "Point"}, "id": "m6HE-oBszlj2_DeQhWEsFZZmqnQ=", "properties": {"@source_uri": "https://tools.usps.com/UspsToolsRestServices/rest/POLocator/findLocations", "@spider": "usps_collection_boxes", "addr:city": "BEEVILLE", "addr:country": "US", "addr:postcode": "78102", "addr:state": "TX", "addr:street_address": "1400 E HOUSTON ST", "amenity": "post_box", "collection_times": "Mo-Fr 11:45", "nsi_id": "unitedstatespostalservice-a77078", "operator": "United States Postal Service", "operator:short": "USPS", "operator:type": "public", "operator:wikidata": "Q668687", "ref": "7810200020"}, "type": "Feature"}
{"geometry": {"coordinates": [-97.748570972, 28.402732992], "type": "Point"}, "id": "Wo9y8-t2A5dQUM_ixcNlFJYOWKc=", "properties": {"@source_uri": "https://tools.usps.com/UspsToolsRestServices/rest/POLocator/findLocations", "@spider": "usps_collection_boxes", "addr:city": "BEEVILLE", "addr:country": "US", "addr:postcode": "78102", "addr:state": "TX", "addr:street_address": "111 N SAINT MARYS ST", "amenity": "post_box", "collection_times": "Mo-Fr 16:30; Sa 16:00", "indoor": "yes", "note": "ON 12/24 AND 12/31, THIS BOX MAY BE COLLECTED AS EARLY AS 12 NOON.", "nsi_id": "unitedstatespostalservice-a77078", "operator": "United States Postal Service", "operator:short": "USPS", "operator:type": "public", "operator:wikidata": "Q668687", "ref": "7810200024"}, "type": "Feature"}
{"geometry": {"coordinates": [-97.748570972, 28.402732992], "type": "Point"}, "id": "ta2xML02KQ5FT29ujorCNoOguL8=", "properties": {"@source_uri": "https://tools.usps.com/UspsToolsRestServices/rest/POLocator/findLocations", "@spider": "usps_collection_boxes", "addr:city": "BEEVILLE", "addr:country": "US", "addr:postcode": "78102", "addr:state": "TX", "addr:street_address": "111 N SAINT MARYS ST", "amenity": "post_box", "collection_times": "Mo-Fr 16:30; Sa 16:00", "indoor": "yes", "note": "ON 12/24 AND 12/31, THIS BOX MAY BE COLLECTED AS EARLY AS 12 NOON.", "nsi_id": "unitedstatespostalservice-a77078", "operator": "United States Postal Service", "operator:short": "USPS", "operator:type": "public", "operator:wikidata": "Q668687", "ref": "7810200025"}, "type": "Feature"}
{"geometry": {"coordinates": [-97.748570972, 28.402732992], "type": "Point"}, "id": "UJJ52YV9Em02abGaYHt5s-Hdfa0=", "properties": {"@source_uri": "https://tools.usps.com/UspsToolsRestServices/rest/POLocator/findLocations", "@spider": "usps_collection_boxes", "addr:city": "BEEVILLE", "addr:country": "US", "addr:postcode": "78102", "addr:state": "TX", "addr:street_address": "111 N SAINT MARYS ST", "amenity": "post_box", "collection_times": "Mo-Fr 16:30; Sa 11:30", "indoor": "yes", "note": "ON 12/24 AND 12/31, THIS BOX MAY BE COLLECTED AS EARLY AS 12 NOON.", "nsi_id": "unitedstatespostalservice-a77078", "operator": "United States Postal Service", "operator:short": "USPS", "operator:type": "public", "operator:wikidata": "Q668687", "ref": "7810200031"}, "type": "Feature"}
{"geometry": {"coordinates": [-97.591858178, 28.530538754], "type": "Point"}, "id": "R5oFimHdajmC_dS7fdSgJNLyblA=", "properties": {"@source_uri": "https://tools.usps.com/UspsToolsRestServices/rest/POLocator/findLocations", "@spider": "usps_collection_boxes", "addr:city": "BERCLAIR", "addr:country": "US", "addr:postcode": "78107", "addr:state": "TX", "addr:street_address": "15864 US HIGHWAY 59 S", "amenity": "post_box", "collection_times": "Mo-Fr 15:45; Sa 15:00", "note": "ON 12/24 AND 12/31, THIS BOX MAY BE COLLECTED AS EARLY AS 12 NOON.", "nsi_id": "unitedstatespostalservice-a77078", "operator": "United States Postal Service", "operator:short": "USPS", "operator:type": "public", "operator:wikidata": "Q668687", "ref": "7810700001"}, "type": "Feature"}
{"geometry": {"coordinates": [-97.591858178, 28.530538754], "type": "Point"}, "id": "qNrgF4mPWO1o2uqxiOHs0PmN_yQ=", "properties": {"@source_uri": "https://tools.usps.com/UspsToolsRestServices/rest/POLocator/findLocations", "@spider": "usps_collection_boxes", "addr:city": "BERCLAIR", "addr:country": "US", "addr:postcode": "78107", "addr:state": "TX", "addr:street_address": "15864 US HIGHWAY 59 S", "amenity": "post_box", "collection_times": "Mo-Fr 15:15; Sa 11:15", "indoor": "yes", "note": "ON 12/24 AND 12/31, THIS BOX MAY BE COLLECTED AS EARLY AS 12 NOON.", "nsi_id": "unitedstatespostalservice-a77078", "operator": "United States Postal Service", "operator:short": "USPS", "operator:type": "public", "operator:wikidata": "Q668687", "ref": "7810700002"}, "type": "Feature"}
{"geometry": {"coordinates": [-97.591858178, 28.530538754], "type": "Point"}, "id": "Ldjavu1GF3h1CJd2tU0NAvUzPnc=", "properties": {"@source_uri": "https://tools.usps.com/UspsToolsRestServices/rest/POLocator/findLocations", "@spider": "usps_collection_boxes", "addr:city": "BERCLAIR", "addr:country": "US", "addr:postcode": "78107", "addr:state": "TX", "addr:street_address": "15864 US HIGHWAY 59 S", "amenity": "post_box", "collection_times": "Mo-Fr 15:30; Sa 11:30", "indoor": "yes", "note": "ON 12/24 AND 12/31, THIS BOX MAY BE COLLECTED AS EARLY AS 12 NOON.", "nsi_id": "unitedstatespostalservice-a77078", "operator": "United States Postal Service", "operator:short": "USPS", "operator:type": "public", "operator:wikidata": "Q668687", "ref": "7810700003"}, "type": "Feature"}
{"geometry": {"coordinates": [-98.21989, 29.60106], "type": "Point"}, "id": "AzUkKgEhnuQj1EoVxvH_1Lnkb3w=", "properties": {"@source_uri": "https://tools.usps.com/UspsToolsRestServices/rest/POLocator/findLocations", "@spider": "usps_collection_boxes", "addr:city": "CIBOLO", "addr:country": "US", "addr:postcode": "78108", "addr:state": "TX", "addr:street_address": "725 FM 1103", "amenity": "post_box", "collection_times": "Mo-Fr 16:00; Sa 11:00", "note": "ON 12/24 AND 12/31, THIS BOX MAY BE COLLECTED AS EARLY AS 12 NOON.", "nsi_id": "unitedstatespostalservice-a77078", "operator": "United States Postal Service", "operator:short": "USPS", "operator:type": "public", "operator:wikidata": "Q668687", "ref": "7810800004"}, "type": "Feature"}
{"geometry": {"coordinates": [-98.236346188, 29.567778557], "type": "Point"}, "id": "eJq-eE5FkMz2dTRuIU_01syP7_M=", "properties": {"@source_uri": "https://tools.usps.com/UspsToolsRestServices/rest/POLocator/findLocations", "@spider": "usps_collection_boxes", "addr:city": "CIBOLO", "addr:country": "US", "addr:postcode": "78108", "addr:state": "TX", "addr:street_address": "725 FM 1103", "amenity": "post_box", "collection_times": "Mo-Fr 16:00; Sa 11:00", "indoor": "yes", "note": "ON 12/24 AND 12/31, THIS BOX MAY BE COLLECTED AS EARLY AS 12 NOON.", "nsi_id": "unitedstatespostalservice-a77078", "operator": "United States Postal Service", "operator:short": "USPS", "operator:type": "public", "operator:wikidata": "Q668687", "ref": "7810800009"}, "type": "Feature"}
{"geometry": {"coordinates": [-98.236346188, 29.567778557], "type": "Point"}, "id": "8MuhIfeqCLnhh-Cd9vJxyPoAJ5s=", "properties": {"@source_uri": "https://tools.usps.com/UspsToolsRestServices/rest/POLocator/findLocations", "@spider": "usps_collection_boxes", "addr:city": "CIBOLO", "addr:country": "US", "addr:postcode": "78108", "addr:state": "TX", "addr:street_address": "725 FM 1103", "amenity": "post_box", "collection_times": "Mo-Fr 16:00; Sa 11:00", "indoor": "yes", "note": "ON 12/24 AND 12/31, THIS BOX MAY BE COLLECTED AS EARLY AS 12 NOON.", "nsi_id": "unitedstatespostalservice-a77078", "operator": "United States Postal Service", "operator:short": "USPS", "operator:type": "public", "operator:wikidata": "Q668687", "ref": "7810800011"}, "type": "Feature"}
{"geometry": {"coordinates": [-98.305557914, 29.506500467], "type": "Point"}, "id": "BVNIYI1W3DUgZZ-8fhDZf8MUyFc=", "properties": {"@source_uri": "https://tools.usps.com/UspsToolsRestServices/rest/POLocator/findLocations", "@spider": "usps_collection_boxes", "addr:city": "CONVERSE", "addr:country": "US", "addr:postcode": "78109", "addr:state": "TX", "addr:street_address": "9155 SCHAEFER RD", "amenity": "post_box", "collection_times": "Mo-Sa 15:30", "note": "ON 12/24 AND 12/31, THIS BOX MAY BE COLLECTED AS EARLY AS 12 NOON.", "nsi_id": "unitedstatespostalservice-a77078", "operator": "United States Postal Service", "operator:short": "USPS", "operator:type": "public", "operator:wikidata": "Q668687", "ref": "7810900014"}, "type": "Feature"}
{"geometry": {"coordinates": [-98.311245, 29.51377], "type": "Point"}, "id": "nlPZtV6ss_i8Rir0S_PqLZWu3G4=", "properties": {"@source_uri": "https://tools.usps.com/UspsToolsRestServices/rest/POLocator/findLocations", "@spider": "usps_collection_boxes", "addr:city": "CONVERSE", "addr:country": "US", "addr:postcode": "78109", "addr:state": "TX", "addr:street_address": "10650 TOEPPERWEIN RD", "amenity": "post_box", "collection_times": "Mo-Sa 13:00", "note": "ON 12/24 AND 12/31, THIS BOX MAY BE COLLECTED AS EARLY AS 12 NOON.", "nsi_id": "unitedstatespostalservice-a77078", "operator": "United States Postal Service", "operator:short": "USPS", "operator:type": "public", "operator:wikidata": "Q668687", "ref": "7810900015"}, "type": "Feature"}
{"geometry": {"coordinates": [-98.305557914, 29.506500467], "type": "Point"}, "id": "51i0iU1xj5arD600PWhpl93wBBo=", "properties": {"@source_uri": "https://tools.usps.com/UspsToolsRestServices/rest/POLocator/findLocations", "@spider": "usps_collection_boxes", "addr:city": "CONVERSE", "addr:country": "US", "addr:postcode": "78109", "addr:state": "TX", "addr:street_address": "9155 SCHAEFER RD", "amenity": "post_box", "collection_times": "Mo-Fr 17:00; Sa 12:00", "indoor": "yes", "note": "ON 12/24 AND 12/31, THIS BOX MAY BE COLLECTED AS EARLY AS 12 NOON.", "nsi_id": "unitedstatespostalservice-a77078", "operator": "United States Postal Service", "operator:short": "USPS", "operator:type": "public", "operator:wikidata": "Q668687", "ref": "7810900020"}, "type": "Feature"}
{"geometry": {"coordinates": [-98.305557914, 29.506500467], "type": "Point"}, "id": "L3vCBYd6lg7t_Q15txiBkaBkEAU=", "properties": {"@source_uri": "https://tools.usps.com/UspsToolsRestServices/rest/POLocator/findLocations", "@spider": "usps_collection_boxes", "addr:city": "CONVERSE", "addr:country": "US", "addr:postcode": "78109", "addr:state": "TX", "addr:street_address": "9155 SCHAEFER RD", "amenity": "post_box", "collection_times": "Mo-Fr 17:00; Sa 12:00", "indoor": "yes", "note": "ON 12/24 AND 12/31, THIS BOX MAY BE COLLECTED AS EARLY AS 12 NOON.", "nsi_id": "unitedstatespostalservice-a77078", "operator": "United States Postal Service", "operator:short": "USPS", "operator:type": "public", "operator:wikidata": "Q668687", "ref": "7810900021"}, "type": "Feature"}
{"geometry": {"coordinates": [-98.305557914, 29.506500467], "type": "Point"}, "id": "HOKpOtLHZJYBiXWPYDXG3XKgIOw=", "properties": {"@source_uri": "https://tools.usps.com/UspsToolsRestServices/rest/POLocator/findLocations", "@spider": "usps_collection_boxes", "addr:city": "CONVERSE", "addr:country": "US", "addr:postcode": "78109", "addr:state": "TX", "addr:street_address": "9155 SCHAEFER RD", "amenity": "post_box", "collection_times": "Mo-Fr 17:00; Sa 12:30", "indoor": "yes", "note": "ON 12/24 AND 12/31, THIS BOX MAY BE COLLECTED AS EARLY AS 12 NOON.", "nsi_id": "unitedstatespostalservice-a77078", "operator": "United States Postal Service", "operator:short": "USPS", "operator:type": "public", "operator:wikidata": "Q668687", "ref": "7810900028"}, "type": "Feature"}
{"geometry": {"coordinates": [-98.326583837, 29.258909503], "type": "Point"}, "id": "UDUrPmHNARD9j_MWtV-eTtYdhE4=", "properties": {"@source_uri": "https://tools.usps.com/UspsToolsRestServices/rest/POLocator/findLocations", "@spider": "usps_collection_boxes", "addr:city": "ELMENDORF", "addr:country": "US", "addr:postcode": "78112", "addr:state": "TX", "addr:street_address": "8302 FM 327", "amenity": "post_box", "collection_times": "Mo-Fr 16:30; Sa 11:00", "indoor": "yes", "note": "ON 12/24 AND 12/31, THIS BOX MAY BE COLLECTED AS EARLY AS 12 NOON.", "nsi_id": "unitedstatespostalservice-a77078", "operator": "United States Postal Service", "operator:short": "USPS", "operator:type": "public", "operator:wikidata": "Q668687", "ref": "7811200007"}, "type": "Feature"}
{"geometry": {"coordinates": [-98.326583837, 29.258909503], "type": "Point"}, "id": "9BC2TytV1pYJ9uPPX3Y7biEFo0w=", "properties": {"@source_uri": "https://tools.usps.com/UspsToolsRestServices/rest/POLocator/findLocations", "@spider": "usps_collection_boxes", "addr:city": "ELMENDORF", "addr:country": "US", "addr:postcode": "78112", "addr:state": "TX", "addr:street_address": "8302 FM 327", "amenity": "post_box", "collection_times": "Mo-Fr 16:30; Sa 11:00", "indoor": "yes", "note": "ON 12/24 AND 12/31, THIS BOX MAY BE COLLECTED AS EARLY AS 12 NOON.", "nsi_id": "unitedstatespostalservice-a77078", "operator": "United States Postal Service", "operator:short": "USPS", "operator:type": "public", "operator:wikidata": "Q668687", "ref": "7811200010"}, "type": "Feature"}
{"geometry": {"coordinates": [-98.326583837, 29.258909503], "type": "Point"}, "id": "mQAv5NXXCpSr5Mty5YrBihutd8A=", "properties": {"@source_uri": "https://tools.usps.com/UspsToolsRestServices/rest/POLocator/findLocations", "@spider": "usps_collection_boxes", "addr:city": "ELMENDORF", "addr:country": "US", "addr:postcode": "78112", "addr:state": "TX", "addr:street_address": "8302 FM 327", "amenity": "post_box", "collection_times": "Mo-Fr 16:30; Sa 11:00", "note": "ON 12/24 AND 12/31, THIS BOX MAY BE COLLECTED AS EARLY AS 12 NOON.", "nsi_id": "unitedstatespostalservice-a77078", "operator": "United States Postal Service", "operator:short": "USPS", "operator:type": "public", "operator:wikidata": "Q668687", "ref": "7811200011"}, "type": "Feature"}
{"geometry": {"coordinates": [-98.326583837, 29.258909503], "type": "Point"}, "id": "IWp8pleDzeoZRwfM5S1wjC1FvX8=", "properties": {"@source_uri": "https://tools.usps.com/UspsToolsRestServices/rest/POLocator/findLocations", "@spider": "usps_collection_boxes", "addr:city": "ELMENDORF", "addr:country": "US", "addr:postcode": "78112", "addr:state": "TX", "addr:street_address": "8302 FM 327", "amenity": "post_box", "collection_times": "Mo-Fr 16:30; Sa 10:30", "indoor": "yes", "note": "ON 12/24 AND 12/31, THIS BOX MAY BE COLLECTED AS EARLY AS 12 NOON.", "nsi_id": "unitedstatespostalservice-a77078", "operator": "United States Postal Service", "operator:short": "USPS", "operator:type": "public", "operator:wikidata": "Q668687", "ref": "7811200013"}, "type": "Feature"}
{"geometry": {"coordinates": [-98.019044007, 28.981326003], "type": "Point"}, "id": "H4Rq4Z2dhZbBajmrB36fqBCyhWE=", "properties": {"@source_uri": "https://tools.usps.com/UspsToolsRestServices/rest/POLocator/findLocations", "@spider": "usps_collection_boxes", "addr:city": "FALLS CITY", "addr:country": "US", "addr:postcode": "78113", "addr:state": "TX", "addr:street_address": "200 N IRVIN ST", "amenity": "post_box", "collection_times": "Mo-Fr 16:00; Sa 11:00", "note": "ON 12/24 AND 12/31, THIS BOX MAY BE COLLECTED AS EARLY AS 12 NOON.", "nsi_id": "unitedstatespostalservice-a77078", "operator": "United States Postal Service", "operator:short": "USPS", "operator:type": "public", "operator:wikidata": "Q668687", "ref": "7811300001"}, "type": "Feature"}
{"geometry": {"coordinates": [-98.019044007, 28.981326003], "type": "Point"}, "id": "UVgNGxD_iNz9agOgQcqpEI-XAWo=", "properties": {"@source_uri": "https://tools.usps.com/UspsToolsRestServices/rest/POLocator/findLocations", "@spider": "usps_collection_boxes", "addr:city": "FALLS CITY", "addr:country": "US", "addr:postcode": "78113", "addr:state": "TX", "addr:street_address": "200 N IRVIN ST", "amenity": "post_box", "collection_times": "Mo-Fr 16:00; Sa 11:00", "indoor": "yes", "note": "ON 12/24 AND 12/31, THIS BOX MAY BE COLLECTED AS EARLY AS 12 NOON.", "nsi_id": "unitedstatespostalservice-a77078", "operator": "United States Postal Service", "operator:short": "USPS", "operator:type": "public", "operator:wikidata": "Q668687", "ref": "7811300004"}, "type": "Feature"}
{"geometry": {"coordinates": [-98.019044007, 28.981326003], "type": "Point"}, "id": "1DhLp-YwHx0jagLXV_CBvKlVwNc=", "properties": {"@source_uri": "https://tools.usps.com/UspsToolsRestServices/rest/POLocator/findLocations", "@spider": "usps_collection_boxes", "addr:city": "FALLS CITY", "addr:country": "US", "addr:postcode": "78113", "addr:state": "TX", "addr:street_address": "200 N IRVIN ST", "amenity": "post_box", "collection_times": "Mo-Fr 16:00; Sa 11:00", "indoor": "yes", "note": "ON 12/24 AND 12/31, THIS BOX MAY BE COLLECTED AS EARLY AS 12 NOON.", "nsi_id": "unitedstatespostalservice-a77078", "operator": "United States Postal Service", "operator:short": "USPS", "operator:type": "public", "operator:wikidata": "Q668687", "ref": "7811300007"}, "type": "Feature"}
{"geometry": {"coordinates": [-98.156424993, 29.144020001], "type": "Point"}, "id": "0y4OHF_ZkWMaVEtT1VBbVJh_Apw=", "properties": {"@source_uri": "https://tools.usps.com/UspsToolsRestServices/rest/POLocator/findLocations", "@spider": "usps_collection_boxes", "addr:city": "FLORESVILLE", "addr:country": "US", "addr:postcode": "78114", "addr:state": "TX", "addr:street_address": "925 10TH ST", "amenity": "post_box", "collection_times": "Mo-Sa 11:15", "nsi_id": "unitedstatespostalservice-a77078", "operator": "United States Postal Service", "operator:short": "USPS", "operator:type": "public", "operator:wikidata": "Q668687", "ref": "7811400001"}, "type": "Feature"}
{"geometry": {"coordinates": [-98.143219975, 29.128586989], "type": "Point"}, "id": "IYcUh7R-UxAvWQDhyPU-7l_ue4g=", "properties": {"@source_uri": "https://tools.usps.com/UspsToolsRestServices/rest/POLocator/findLocations", "@spider": "usps_collection_boxes", "addr:city": "FLORESVILLE", "addr:country": "US", "addr:postcode": "78114", "addr:state": "TX", "addr:street_address": "141 PALOMA DR", "amenity": "post_box", "collection_times": "Mo-Fr 16:30; Sa 12:00", "note": "ON 12/24 AND 12/31, THIS BOX MAY BE COLLECTED AS EARLY AS 12 NOON.", "nsi_id": "unitedstatespostalservice-a77078", "operator": "United States Postal Service", "operator:short": "USPS", "operator:type": "public", "operator:wikidata": "Q668687", "ref": "7811400007"}, "type": "Feature"}
{"geometry": {"coordinates": [-98.24615796, 29.23066101], "type": "Point"}, "id": "oAMcw6DHQ9jntfPI6fRpozJWGVc=", "properties": {"@source_uri": "https://tools.usps.com/UspsToolsRestServices/rest/POLocator/findLocations", "@spider": "usps_collection_boxes", "addr:city": "FLORESVILLE", "addr:country": "US", "addr:postcode": "78114", "addr:state": "TX", "addr:street_address": "7020 US HIGHWAY 181 N", "amenity": "post_box", "collection_times": "Mo-Sa 11:00", "nsi_id": "unitedstatespostalservice-a77078", "operator": "United States Postal Service", "operator:short": "USPS", "operator:type": "public", "operator:wikidata": "Q668687", "ref": "7811400018"}, "type": "Feature"}
{"geometry": {"coordinates": [-98.143219975, 29.128586989], "type": "Point"}, "id": "hjcnzJeVOfk0gkzSKGKOri-1a98=", "properties": {"@source_uri": "https://tools.usps.com/UspsToolsRestServices/rest/POLocator/findLocations", "@spider": "usps_collection_boxes", "addr:city": "FLORESVILLE", "addr:country": "US", "addr:postcode": "78114", "addr:state": "TX", "addr:street_address": "141 PALOMA DR", "amenity": "post_box", "collection_times": "Mo-Fr 16:30; Sa 12:00", "indoor": "yes", "note": "ON 12/24 AND 12/31, THIS BOX MAY BE COLLECTED AS EARLY AS 12 NOON.", "nsi_id": "unitedstatespostalservice-a77078", "operator": "United States Postal Service", "operator:short": "USPS", "operator:type": "public", "operator:wikidata": "Q668687", "ref": "7811400019"}, "type": "Feature"}
{"geometry": {"coordinates": [-98.143219975, 29.128586989], "type": "Point"}, "id": "glnWyXa0WrLGdzXpP8nFWQVP6ps=", "properties": {"@source_uri": "https://tools.usps.com/UspsToolsRestServices/rest/POLocator/findLocations", "@spider": "usps_collection_boxes", "addr:city": "FLORESVILLE", "addr:country": "US", "addr:postcode": "78114", "addr:state": "TX", "addr:street_address": "141 PALOMA DR", "amenity": "post_box", "collection_times": "Mo-Fr 16:30; Sa 12:00", "indoor": "yes", "note": "ON 12/24 AND 12/31, THIS BOX MAY BE COLLECTED AS EARLY AS 12 NOON.", "nsi_id": "unitedstatespostalservice-a77078", "operator": "United States Postal Service", "operator:short": "USPS", "operator:type": "public", "operator:wikidata": "Q668687", "ref": "7811400020"}, "type": "Feature"}
{"geometry": {"coordinates": [-98.143219975, 29.128586989], "type": "Point"}, "id": "x4rmdwLlVlExDSwvcZFrGIX_MlE=", "properties": {"@source_uri": "https://tools.usps.com/UspsToolsRestServices/rest/POLocator/findLocations", "@spider": "usps_collection_boxes", "addr:city": "FLORESVILLE", "addr:country": "US", "addr:postcode": "78114", "addr:state": "TX", "addr:street_address": "141 PALOMA DR", "amenity": "post_box", "collection_times": "Mo-Fr 16:30; Sa 12:00", "indoor": "yes", "note": "ON 12/24 AND 12/31, THIS BOX MAY BE COLLECTED AS EARLY AS 12 NOON.", "nsi_id": "unitedstatespostalservice-a77078", "operator": "United States Postal Service", "operator:short": "USPS", "operator:type": "public", "operator:wikidata": "Q668687", "ref": "7811400025"}, "type": "Feature"}
{"geometry": {"coordinates": [-97.7852619988, 29.1283090036], "type": "Point"}, "id": "4QmLuIp3aA23qWmBZLb_waXjj7U=", "properties": {"@source_uri": "https://tools.usps.com/UspsToolsRestServices/rest/POLocator/findLocations", "@spider": "usps_collection_boxes", "addr:city": "GILLETT", "addr:country": "US", "addr:postcode": "78116", "addr:state": "TX", "addr:street_address": "21694 FM 887", "amenity": "post_box", "collection_times": "Mo-Fr 11:30; Sa 11:15", "nsi_id": "unitedstatespostalservice-a77078", "operator": "United States Postal Service", "operator:short": "USPS", "operator:type": "public", "operator:wikidata": "Q668687", "ref": "7811600001"}, "type": "Feature"}
{"geometry": {"coordinates": [-97.785261999, 29.128309004], "type": "Point"}, "id": "vYITngJBmke5q1709cXvCRZTQ10=", "properties": {"@source_uri": "https://tools.usps.com/UspsToolsRestServices/rest/POLocator/findLocations", "@spider": "usps_collection_boxes", "addr:city": "GILLETT", "addr:country": "US", "addr:postcode": "78116", "addr:state": "TX", "addr:street_address": "21694 FM 887", "amenity": "post_box", "collection_times": "Mo-Fr 11:30; Sa 11:15", "indoor": "yes", "nsi_id": "unitedstatespostalservice-a77078", "operator": "United States Postal Service", "operator:short": "USPS", "operator:type": "public", "operator:wikidata": "Q668687", "ref": "7811600002"}, "type": "Feature"}
{"geometry": {"coordinates": [-97.785261999, 29.128309004], "type": "Point"}, "id": "IEdx1B6NwcGnQz7WVZpd6k2jyrs=", "properties": {"@source_uri": "https://tools.usps.com/UspsToolsRestServices/rest/POLocator/findLocations", "@spider": "usps_collection_boxes", "addr:city": "GILLETT", "addr:country": "US", "addr:postcode": "78116", "addr:state": "TX", "addr:street_address": "21694 FM 887", "amenity": "post_box", "collection_times": "Mo-Fr 12:00; Sa 10:30", "indoor": "yes", "nsi_id": "unitedstatespostalservice-a77078", "operator": "United States Postal Service", "operator:short": "USPS", "operator:type": "public", "operator:wikidata": "Q668687", "ref": "7811600004"}, "type": "Feature"}
{"geometry": {"coordinates": [-97.89980498, 28.884684001], "type": "Point"}, "id": "gBmhgviHQ0q1T5OSS9krJ7buEOY=", "properties": {"@source_uri": "https://tools.usps.com/UspsToolsRestServices/rest/POLocator/findLocations", "@spider": "usps_collection_boxes", "addr:city": "KARNES CITY", "addr:country": "US", "addr:postcode": "78118", "addr:state": "TX", "addr:street_address": "200 E CALVERT AVE", "amenity": "post_box", "collection_times": "Mo-Fr 14:30", "note": "ON 12/24 AND 12/31, THIS BOX MAY BE COLLECTED AS EARLY AS 12 NOON.", "nsi_id": "unitedstatespostalservice-a77078", "operator": "United States Postal Service", "operator:short": "USPS", "operator:type": "public", "operator:wikidata": "Q668687", "ref": "7811800005"}, "type": "Feature"}
{"geometry": {"coordinates": [-97.897776979, 28.882630015], "type": "Point"}, "id": "R2rvJSV8vBt4xvZrdNkEsTc3v9o=", "properties": {"@source_uri": "https://tools.usps.com/UspsToolsRestServices/rest/POLocator/findLocations", "@spider": "usps_collection_boxes", "addr:city": "KARNES CITY", "addr:country": "US", "addr:postcode": "78118", "addr:state": "TX", "addr:street_address": "404 E WALL ST", "amenity": "post_box", "collection_times": "Mo-Fr 15:45; Sa 14:30", "note": "ON 12/24 AND 12/31, THIS BOX MAY BE COLLECTED AS EARLY AS 12 NOON.", "nsi_id": "unitedstatespostalservice-a77078", "operator": "United States Postal Service", "operator:short": "USPS", "operator:type": "public", "operator:wikidata": "Q668687", "ref": "7811800006"}, "type": "Feature"}
{"geometry": {"coordinates": [-97.897776979, 28.882630015], "type": "Point"}, "id": "iKgwWHE-RdxkYXaYct4QlhR-Ypg=", "properties": {"@source_uri": "https://tools.usps.com/UspsToolsRestServices/rest/POLocator/findLocations", "@spider": "usps_collection_boxes", "addr:city": "KARNES CITY", "addr:country": "US", "addr:postcode": "78118", "addr:state": "TX", "addr:street_address": "404 E WALL ST", "amenity": "post_box", "collection_times": "Mo-Fr 16:15; Sa 14:30", "indoor": "yes", "note": "ON 12/24 AND 12/31, THIS BOX MAY BE COLLECTED AS EARLY AS 12 NOON.", "nsi_id": "unitedstatespostalservice-a77078", "operator": "United States Postal Service", "operator:short": "USPS", "operator:type": "public", "operator:wikidata": "Q668687", "ref": "7811800011"}, "type": "Feature"}
{"geometry": {"coordinates": [-97.897776979, 28.882630015], "type": "Point"}, "id": "OpECh7sfnfpQ44d-Pmcb49qdgCM=", "properties": {"@source_uri": "https://tools.usps.com/UspsToolsRestServices/rest/POLocator/findLocations", "@spider": "usps_collection_boxes", "addr:city": "KARNES CITY", "addr:country": "US", "addr:postcode": "78118", "addr:state": "TX", "addr:street_address": "404 E WALL ST", "amenity": "post_box", "collection_times": "Mo-Fr 16:30", "indoor": "yes", "note": "ON 12/24 AND 12/31, THIS BOX MAY BE COLLECTED AS EARLY AS 12 NOON.", "nsi_id": "unitedstatespostalservice-a77078", "operator": "United States Postal Service", "operator:short": "USPS", "operator:type": "public", "operator:wikidata": "Q668687", "ref": "7811800013"}, "type": "Feature"}
{"geometry": {"coordinates": [-97.8572779698, 28.8121289894], "type": "Point"}, "id": "SPXicTwSaSmv_CPrxtOovRBnNd4=", "properties": {"@source_uri": "https://tools.usps.com/UspsToolsRestServices/rest/POLocator/findLocations", "@spider": "usps_collection_boxes", "addr:city": "KENEDY", "addr:country": "US", "addr:postcode": "78119", "addr:state": "TX", "addr:street_address": "113 S SUNSET STRIP ST", "amenity": "post_box", "collection_times": "Mo-Sa 13:15", "note": "ON 12/24 AND 12/31, THIS BOX MAY BE COLLECTED AS EARLY AS 12 NOON.", "nsi_id": "unitedstatespostalservice-a77078", "operator": "United States Postal Service", "operator:short": "USPS", "operator:type": "public", "operator:wikidata": "Q668687", "ref": "7811900005"}, "type": "Feature"}
{"geometry": {"coordinates": [-97.8480950081, 28.81746998], "type": "Point"}, "id": "gfRUEGbtIwisRCFqUXXWb9hbnHc=", "properties": {"@source_uri": "https://tools.usps.com/UspsToolsRestServices/rest/POLocator/findLocations", "@spider": "usps_collection_boxes", "addr:city": "KENEDY", "addr:country": "US", "addr:postcode": "78119", "addr:state": "TX", "addr:street_address": "223 S 2ND ST", "amenity": "post_box", "collection_times": "Mo-Fr 15:45; Sa 14:00", "note": "ON 12/24 AND 12/31, THIS BOX MAY BE COLLECTED AS EARLY AS 12 NOON.", "nsi_id": "unitedstatespostalservice-a77078", "operator": "United States Postal Service", "operator:short": "USPS", "operator:type": "public", "operator:wikidata": "Q668687", "ref": "7811900006"}, "type": "Feature"}
{"geometry": {"coordinates": [-97.8480950081, 28.81746998], "type": "Point"}, "id": "3vynLK6nibOZYuXd48rRqXLJl80=", "properties": {"@source_uri": "https://tools.usps.com/UspsToolsRestServices/rest/POLocator/findLocations", "@spider": "usps_collection_boxes", "addr:city": "KENEDY", "addr:country": "US", "addr:postcode": "78119", "addr:state": "TX", "addr:street_address": "223 S 2ND ST", "amenity": "post_box", "collection_times": "Mo-Fr 16:30; Sa 14:00", "indoor": "yes", "note": "ON 12/24 AND 12/31, THIS BOX MAY BE COLLECTED AS EARLY AS 12 NOON.", "nsi_id": "unitedstatespostalservice-a77078", "operator": "United States Postal Service", "operator:short": "USPS", "operator:type": "public", "operator:wikidata": "Q668687", "ref": "7811900009"}, "type": "Feature"}
{"geometry": {"coordinates": [-97.8480950081, 28.81746998], "type": "Point"}, "id": "PGj0QaiTS3VJu4X2LWWJiLLRc6Y=", "properties": {"@source_uri": "https://tools.usps.com/UspsToolsRestServices/rest/POLocator/findLocations", "@spider": "usps_collection_boxes", "addr:city": "KENEDY", "addr:country": "US", "addr:postcode": "78119", "addr:state": "TX", "addr:street_address": "223 S 2ND ST", "amenity": "post_box", "collection_times": "Mo-Fr 16:30; Sa 11:30", "indoor": "yes", "note": "ON 12/24 AND 12/31, THIS BOX MAY BE COLLECTED AS EARLY AS 12 NOON.", "nsi_id": "unitedstatespostalservice-a77078", "operator": "United States Postal Service", "operator:short": "USPS", "operator:type": "public", "operator:wikidata": "Q668687", "ref": "7811900013"}, "type": "Feature"}
{"geometry": {"coordinates": [-98.1285249899, 29.3496780001], "type": "Point"}, "id": "E7dmEQGyMit0NMugL4m1boL7bkA=", "properties": {"@source_uri": "https://tools.usps.com/UspsToolsRestServices/rest/POLocator/findLocations", "@spider": "usps_collection_boxes", "addr:city": "LA VERNIA", "addr:country": "US", "addr:postcode": "78121", "addr:state": "TX", "addr:street_address": "2560 FM 775", "amenity": "post_box", "collection_times": "Mo-Fr 16:00; Sa 10:00", "note": "ON 12/24 AND 12/31, THIS BOX MAY BE COLLECTED AS EARLY AS 12 NOON.", "nsi_id": "unitedstatespostalservice-a77078", "operator": "United States Postal Service", "operator:short": "USPS", "operator:type": "public", "operator:wikidata": "Q668687", "ref": "7812100002"}, "type": "Feature"}
{"geometry": {"coordinates": [-98.128499006, 29.349676994], "type": "Point"}, "id": "Ji3twIvklOIb9N9ZDPsluUQ8Ivg=", "properties": {"@source_uri": "https://tools.usps.com/UspsToolsRestServices/rest/POLocator/findLocations", "@spider": "usps_collection_boxes", "addr:city": "LA VERNIA", "addr:country": "US", "addr:postcode": "78121", "addr:state": "TX", "addr:street_address": "2560 FM 775", "amenity": "post_box", "collection_times": "Mo-Fr 16:00; Sa 10:00", "indoor": "yes", "note": "ON 12/24 AND 12/31, THIS BOX MAY BE COLLECTED AS EARLY AS 12 NOON.", "nsi_id": "unitedstatespostalservice-a77078", "operator": "United States Postal Service", "operator:short": "USPS", "operator:type": "public", "operator:wikidata": "Q668687", "ref": "7812100004"}, "type": "Feature"}
{"geometry": {"coordinates": [-98.128499006, 29.349676994], "type": "Point"}, "id": "wOSScvFoCzGZvPHJWVB6krfxjgA=", "properties": {"@source_uri": "https://tools.usps.com/UspsToolsRestServices/rest/POLocator/findLocations", "@spider": "usps_collection_boxes", "addr:city": "LA VERNIA", "addr:country": "US", "addr:postcode": "78121", "addr:state": "TX", "addr:street_address": "2560 FM 775", "amenity": "post_box", "collection_times": "Mo-Fr 16:30; Sa 10:30", "indoor": "yes", "note": "ON 12/24 AND 12/31, THIS BOX MAY BE COLLECTED AS EARLY AS 12 NOON.", "nsi_id": "unitedstatespostalservice-a77078", "operator": "United States Postal Service", "operator:short": "USPS", "operator:type": "public", "operator:wikidata": "Q668687", "ref": "7812100008"}, "type": "Feature"}
{"geometry": {"coordinates": [-97.745070019, 29.408579981], "type": "Point"}, "id": "Ama5N9pzu9pLpquV-5txXm30fjE=", "properties": {"@source_uri": "https://tools.usps.com/UspsToolsRestServices/rest/POLocator/findLocations", "@spider": "usps_collection_boxes", "addr:city": "LEESVILLE", "addr:country": "US", "addr:postcode": "78122", "addr:state": "TX", "addr:street_address": "9606 N STATE HIGHWAY 80", "amenity": "post_box", "collection_times": "Mo-Sa 10:00", "indoor": "yes", "nsi_id": "unitedstatespostalservice-a77078", "operator": "United States Postal Service", "operator:short": "USPS", "operator:type": "public", "operator:wikidata": "Q668687", "ref": "7812200002"}, "type": "Feature"}
{"geometry": {"coordinates": [-97.7448466286, 29.4085441794], "type": "Point"}, "id": "mSQ9JnDENGbgN37F5BtZ0q9druk=", "properties": {"@source_uri": "https://tools.usps.com/UspsToolsRestServices/rest/POLocator/findLocations", "@spider": "usps_collection_boxes", "addr:city": "LEESVILLE", "addr:country": "US", "addr:postcode": "78122", "addr:state": "TX", "addr:street_address": "9606 N STATE HIGHWAY 80", "amenity": "post_box", "collection_times": "Mo-Fr 12:00; Sa 10:45", "indoor": "yes", "nsi_id": "unitedstatespostalservice-a77078", "operator": "United States Postal Service", "operator:short": "USPS", "operator:type": "public", "operator:wikidata": "Q668687", "ref": "7812200004"}, "type": "Feature"}
{"geometry": {"coordinates": [-98.039905977, 29.588452983], "type": "Point"}, "id": "It1y1Oe4aTBUmy8xKgY09Q4m39M=", "properties": {"@source_uri": "https://tools.usps.com/UspsToolsRestServices/rest/POLocator/findLocations", "@spider": "usps_collection_boxes", "addr:city": "MCQUEENEY", "addr:country": "US", "addr:postcode": "78123", "addr:state": "TX", "addr:street_address": "4000 FM 78", "amenity": "post_box", "collection_times": "Mo-Fr 15:45; Sa 10:00", "note": "ON 12/24 AND 12/31, THIS BOX MAY BE COLLECTED AS EARLY AS 12 NOON.", "nsi_id": "unitedstatespostalservice-a77078", "operator": "United States Postal Service", "operator:short": "USPS", "operator:type": "public", "operator:wikidata": "Q668687", "ref": "7812300001"}, "type": "Feature"}
{"geometry": {"coordinates": [-98.039905977, 29.588452983], "type": "Point"}, "id": "b6RHJ6BsZzzl5lP6CdCUwn_S7X4=", "properties": {"@source_uri": "https://tools.usps.com/UspsToolsRestServices/rest/POLocator/findLocations", "@spider": "usps_collection_boxes", "addr:city": "MCQUEENEY", "addr:country": "US", "addr:postcode": "78123", "addr:state": "TX", "addr:street_address": "4000 FM 78", "amenity": "post_box", "collection_times": "Mo-Fr 15:45; Sa 10:00", "indoor": "yes", "note": "ON 12/24 AND 12/31, THIS BOX MAY BE COLLECTED AS EARLY AS 12 NOON.", "nsi_id": "unitedstatespostalservice-a77078", "operator": "United States Postal Service", "operator:short": "USPS", "operator:type": "public", "operator:wikidata": "Q668687", "ref": "7812300003"}, "type": "Feature"}
{"geometry": {"coordinates": [-98.039905977, 29.588452983], "type": "Point"}, "id": "2xQxlgYzi-KDOgQC-ibcXbl_RIA=", "properties": {"@source_uri": "https://tools.usps.com/UspsToolsRestServices/rest/POLocator/findLocations", "@spider": "usps_collection_boxes", "addr:city": "MCQUEENEY", "addr:country": "US", "addr:postcode": "78123", "addr:state": "TX", "addr:street_address": "4000 FM 78", "amenity": "post_box", "collection_times": "Mo-Fr 15:45; Sa 10:00", "indoor": "yes", "note": "ON 12/24 AND 12/31, THIS BOX MAY BE COLLECTED AS EARLY AS 12 NOON.", "nsi_id": "unitedstatespostalservice-a77078", "operator": "United States Postal Service", "operator:short": "USPS", "operator:type": "public", "operator:wikidata": "Q668687", "ref": "7812300004"}, "type": "Feature"}
{"geometry": {"coordinates": [-98.039905977, 29.588452983], "type": "Point"}, "id": "JcCneLoePF4sR6j9C8FiFEWFcfg=", "properties": {"@source_uri": "https://tools.usps.com/UspsToolsRestServices/rest/POLocator/findLocations", "@spider": "usps_collection_boxes", "addr:city": "MCQUEENEY", "addr:country": "US", "addr:postcode": "78123", "addr:state": "TX", "addr:street_address": "4000 FM 78", "amenity": "post_box", "collection_times": "Mo-Fr 15:45; Sa 10:30", "indoor": "yes", "note": "ON 12/24 AND 12/31, THIS BOX MAY BE COLLECTED AS EARLY AS 12 NOON.", "nsi_id": "unitedstatespostalservice-a77078", "operator": "United States Postal Service", "operator:short": "USPS", "operator:type": "public", "operator:wikidata": "Q668687", "ref": "7812300006"}, "type": "Feature"}
{"geometry": {"coordinates": [-98.132716025, 29.572244016], "type": "Point"}, "id": "fJf2PzeMhstWW3hNZkyjEIX2CGY=", "properties": {"@source_uri": "https://tools.usps.com/UspsToolsRestServices/rest/POLocator/findLocations", "@spider": "usps_collection_boxes", "addr:city": "MARION", "addr:country": "US", "addr:postcode": "78124", "addr:state": "TX", "addr:street_address": "413 E SAN ANTONIO ST", "amenity": "post_box", "collection_times": "Mo-Fr 16:00; Sa 10:30", "note": "ON 12/24 AND 12/31, THIS BOX MAY BE COLLECTED AS EARLY AS 12 NOON.", "nsi_id": "unitedstatespostalservice-a77078", "operator": "United States Postal Service", "operator:short": "USPS", "operator:type": "public", "operator:wikidata": "Q668687", "ref": "7812400003"}, "type": "Feature"}
{"geometry": {"coordinates": [-98.132716025, 29.572244016], "type": "Point"}, "id": "T2rtho9O10abwVkX13y_j8p_I2E=", "properties": {"@source_uri": "https://tools.usps.com/UspsToolsRestServices/rest/POLocator/findLocations", "@spider": "usps_collection_boxes", "addr:city": "MARION", "addr:country": "US", "addr:postcode": "78124", "addr:state": "TX", "addr:street_address": "413 E SAN ANTONIO ST", "amenity": "post_box", "collection_times": "Mo-Fr 16:00; Sa 10:30", "indoor": "yes", "note": "ON 12/24 AND 12/31, THIS BOX MAY BE COLLECTED AS EARLY AS 12 NOON.", "nsi_id": "unitedstatespostalservice-a77078", "operator": "United States Postal Service", "operator:short": "USPS", "operator:type": "public", "operator:wikidata": "Q668687", "ref": "7812400005"}, "type": "Feature"}
{"geometry": {"coordinates": [-98.132716025, 29.572244016], "type": "Point"}, "id": "l1ZdEcWwmYILfU1cyTCi-OIZlzU=", "properties": {"@source_uri": "https://tools.usps.com/UspsToolsRestServices/rest/POLocator/findLocations", "@spider": "usps_collection_boxes", "addr:city": "MARION", "addr:country": "US", "addr:postcode": "78124", "addr:state": "TX", "addr:street_address": "413 E SAN ANTONIO ST", "amenity": "post_box", "collection_times": "Mo-Fr 16:00; Sa 10:30", "indoor": "yes", "note": "ON 12/24 AND 12/31, THIS BOX MAY BE COLLECTED AS EARLY AS 12 NOON.", "nsi_id": "unitedstatespostalservice-a77078", "operator": "United States Postal Service", "operator:short": "USPS", "operator:type": "public", "operator:wikidata": "Q668687", "ref": "7812400007"}, "type": "Feature"}
{"geometry": {"coordinates": [-98.1264219704, 29.7022319956], "type": "Point"}, "id": "eACUr7-OVRpVAZM5ZFq6xJLHFdg=", "properties": {"@source_uri": "https://tools.usps.com/UspsToolsRestServices/rest/POLocator/findLocations", "@spider": "usps_collection_boxes", "addr:city": "NEW BRAUNFELS", "addr:country": "US", "addr:postcode": "78130", "addr:state": "TX", "addr:street_address": "139 N CASTELL AVE", "amenity": "post_box", "collection_times": "Mo-Sa 17:25", "note": "ON 12/24 AND 12/31, THIS BOX MAY BE COLLECTED AS EARLY AS 12 NOON.", "nsi_id": "unitedstatespostalservice-a77078", "operator": "United States Postal Service", "operator:short": "USPS", "operator:type": "public", "operator:wikidata": "Q668687", "ref": "7813000037"}, "type": "Feature"}
{"geometry": {"coordinates": [-98.157735, 29.715538979], "type": "Point"}, "id": "QI20Nhk7Eh2RlDwUAFDV6mu7NS0=", "properties": {"@source_uri": "https://tools.usps.com/UspsToolsRestServices/rest/POLocator/findLocations", "@spider": "usps_collection_boxes", "addr:city": "NEW BRAUNFELS", "addr:country": "US", "addr:postcode": "78130", "addr:state": "TX", "addr:street_address": "1610 W STATE HIGHWAY 46", "amenity": "post_box", "collection_times": "Mo-Sa 17:15", "note": "ON 12/24 AND 12/31, THIS BOX MAY BE COLLECTED AS EARLY AS 12 NOON.", "nsi_id": "unitedstatespostalservice-a77078", "operator": "United States Postal Service", "operator:short": "USPS", "operator:type": "public", "operator:wikidata": "Q668687", "ref": "7813000038"}, "type": "Feature"}
{"geometry": {"coordinates": [-98.1414079751, 29.7062330133], "type": "Point"}, "id": "CvFzP1awyrpYA4uoSxujq5qtdqc=", "properties": {"@source_uri": "https://tools.usps.com/UspsToolsRestServices/rest/POLocator/findLocations", "@spider": "usps_collection_boxes", "addr:city": "NEW BRAUNFELS", "addr:country": "US", "addr:postcode": "78130", "addr:state": "TX", "addr:street_address": "1000 N WALNUT AVE", "amenity": "post_box", "collection_times": "Mo-Sa 17:05", "note": "ON 12/24 AND 12/31, THIS BOX MAY BE COLLECTED AS EARLY AS 12 NOON.", "nsi_id": "unitedstatespostalservice-a77078", "operator": "United States Postal Service", "operator:short": "USPS", "operator:type": "public", "operator:wikidata": "Q668687", "ref": "7813000039"}, "type": "Feature"}
{"geometry": {"coordinates": [-98.102019987, 29.720409997], "type": "Point"}, "id": "FEAWm6fplGDNTcQEl3viC5k3kR8=", "properties": {"@source_uri": "https://tools.usps.com/UspsToolsRestServices/rest/POLocator/findLocations", "@spider": "usps_collection_boxes", "addr:city": "NEW BRAUNFELS", "addr:country": "US", "addr:postcode": "78130", "addr:state": "TX", "addr:street_address": "1308 COMMON ST STE 205", "amenity": "post_box", "collection_times": "Mo-Sa 16:00", "note": "ON 12/24 AND 12/31, THIS BOX MAY BE COLLECTED AS EARLY AS 12 NOON.", "nsi_id": "unitedstatespostalservice-a77078", "operator": "United States Postal Service", "operator:short": "USPS", "operator:type": "public", "operator:wikidata": "Q668687", "ref": "7813000043"}, "type": "Feature"}
{"geometry": {"coordinates": [-98.1175150248, 29.6879030064], "type": "Point"}, "id": "jZN4UAA_YCnH7m67EltRgwze5bQ=", "properties": {"@source_uri": "https://tools.usps.com/UspsToolsRestServices/rest/POLocator/findLocations", "@spider": "usps_collection_boxes", "addr:city": "NEW BRAUNFELS", "addr:country": "US", "addr:postcode": "78130", "addr:state": "TX", "addr:street_address": "555 S IH 35", "amenity": "post_box", "collection_times": "Mo-Sa 15:10", "note": "ON 12/24 AND 12/31, THIS BOX MAY BE COLLECTED AS EARLY AS 12 NOON.", "nsi_id": "unitedstatespostalservice-a77078", "operator": "United States Postal Service", "operator:short": "USPS", "operator:type": "public", "operator:wikidata": "Q668687", "ref": "7813000047"}, "type": "Feature"}
{"geometry": {"coordinates": [-98.1287239763, 29.6895179896], "type": "Point"}, "id": "ZJ8DDkTYADoChkgvVnmuuIJMKX0=", "properties": {"@source_uri": "https://tools.usps.com/UspsToolsRestServices/rest/POLocator/findLocations", "@spider": "usps_collection_boxes", "addr:city": "NEW BRAUNFELS", "addr:country": "US", "addr:postcode": "78130", "addr:state": "TX", "addr:street_address": "1160 S BUSINESS IH 35", "amenity": "post_box", "collection_times": "Mo-Sa 14:45", "note": "ON 12/24 AND 12/31, THIS BOX MAY BE COLLECTED AS EARLY AS 12 NOON.", "nsi_id": "unitedstatespostalservice-a77078", "operator": "United States Postal Service", "operator:short": "USPS", "operator:type": "public", "operator:wikidata": "Q668687", "ref": "7813000050"}, "type": "Feature"}
{"geometry": {"coordinates": [-98.126105973, 29.701005011], "type": "Point"}, "id": "BCmK4xmLdvMwCU5VhMewvMANsRk=", "properties": {"@source_uri": "https://tools.usps.com/UspsToolsRestServices/rest/POLocator/findLocations", "@spider": "usps_collection_boxes", "addr:city": "NEW BRAUNFELS", "addr:country": "US", "addr:postcode": "78130", "addr:state": "TX", "addr:street_address": "297 W SAN ANTONIO ST", "amenity": "post_box", "collection_times": "Mo-Sa 17:30", "note": "ON 12/24 AND 12/31, THIS BOX MAY BE COLLECTED AS EARLY AS 12 NOON.", "nsi_id": "unitedstatespostalservice-a77078", "operator": "United States Postal Service", "operator:short": "USPS", "operator:type": "public", "operator:wikidata": "Q668687", "ref": "7813000056"}, "type": "Feature"}
{"geometry": {"coordinates": [-98.1165510221, 29.6967770111], "type": "Point"}, "id": "nqBxhAe-xhjemmItEtynqXEitaE=", "properties": {"@source_uri": "https://tools.usps.com/UspsToolsRestServices/rest/POLocator/findLocations", "@spider": "usps_collection_boxes", "addr:city": "NEW BRAUNFELS", "addr:country": "US", "addr:postcode": "78130", "addr:state": "TX", "addr:street_address": "686 S SEGUIN AVE", "amenity": "post_box", "collection_times": "Mo-Fr 17:15; Sa 15:00", "note": "ON 12/24 AND 12/31, THIS BOX MAY BE COLLECTED AS EARLY AS 12 NOON.", "nsi_id": "unitedstatespostalservice-a77078", "operator": "United States Postal Service", "operator:short": "USPS", "operator:type": "public", "operator:wikidata": "Q668687", "ref": "7813000065"}, "type": "Feature"}
{"geometry": {"coordinates": [-98.1165510221, 29.6967770111], "type": "Point"}, "id": "mVJAE6zxEg4GkbFbnMve_5qC6DA=", "properties": {"@source_uri": "https://tools.usps.com/UspsToolsRestServices/rest/POLocator/findLocations", "@spider": "usps_collection_boxes", "addr:city": "NEW BRAUNFELS", "addr:country": "US", "addr:postcode": "78130", "addr:state": "TX", "addr:street_address": "686 S SEGUIN AVE", "amenity": "post_box", "collection_times": "Mo-Fr 17:15; Sa 15:00", "note": "ON 12/24 AND 12/31, THIS BOX MAY BE COLLECTED AS EARLY AS 12 NOON.", "nsi_id": "unitedstatespostalservice-a77078", "operator": "United States Postal Service", "operator:short": "USPS", "operator:type": "public", "operator:wikidata": "Q668687", "ref": "7813000068"}, "type": "Feature"}
{"geometry": {"coordinates": [-98.077553966, 29.731882014], "type": "Point"}, "id": "Rf32k1tyipl4L7doXwevtlA5krw=", "properties": {"@source_uri": "https://tools.usps.com/UspsToolsRestServices/rest/POLocator/findLocations", "@spider": "usps_collection_boxes", "addr:city": "NEW BRAUNFELS", "addr:country": "US", "addr:postcode": "78130", "addr:state": "TX", "addr:street_address": "2965 N IH 35", "amenity": "post_box", "collection_times": "Mo-Sa 15:35", "note": "ON 12/24 AND 12/31, THIS BOX MAY BE COLLECTED AS EARLY AS 12 NOON.", "nsi_id": "unitedstatespostalservice-a77078", "operator": "United States Postal Service", "operator:short": "USPS", "operator:type": "public", "operator:wikidata": "Q668687", "ref": "7813000071"}, "type": "Feature"}
{"geometry": {"coordinates": [-98.100045387, 29.696805834], "type": "Point"}, "id": "tfjywQ9er4VVPubqkBV8ID7LE44=", "properties": {"@source_uri": "https://tools.usps.com/UspsToolsRestServices/rest/POLocator/findLocations", "@spider": "usps_collection_boxes", "addr:city": "NEW BRAUNFELS", "addr:country": "US", "addr:postcode": "78130", "addr:state": "TX", "addr:street_address": "651 N BUSINESS I-35", "amenity": "post_box", "collection_times": "Mo-Fr 17:00; Sa 12:30", "indoor": "yes", "note": "ON 12/24 AND 12/31, THIS BOX MAY BE COLLECTED AS EARLY AS 12 NOON.", "nsi_id": "unitedstatespostalservice-a77078", "operator": "United States Postal Service", "operator:short": "USPS", "operator:type": "public", "operator:wikidata": "Q668687", "ref": "7813000074"}, "type": "Feature"}
{"geometry": {"coordinates": [-98.100045387, 29.696805834], "type": "Point"}, "id": "_st_1vvi5GGfi-kxlLC4ZUhbBpU=", "properties": {"@source_uri": "https://tools.usps.com/UspsToolsRestServices/rest/POLocator/findLocations", "@spider": "usps_collection_boxes", "addr:city": "NEW BRAUNFELS", "addr:country": "US", "addr:postcode": "78130", "addr:state": "TX", "addr:street_address": "651 N BUSINESS I-35", "amenity": "post_box", "collection_times": "Mo-Fr 17:00; Sa 12:30", "indoor": "yes", "note": "ON 12/24 AND 12/31, THIS BOX MAY BE COLLECTED AS EARLY AS 12 NOON.", "nsi_id": "unitedstatespostalservice-a77078", "operator": "United States Postal Service", "operator:short": "USPS", "operator:type": "public", "operator:wikidata": "Q668687", "ref": "7813000075"}, "type": "Feature"}
{"geometry": {"coordinates": [-98.1011672, 29.6959504], "type": "Point"}, "id": "bo8TgPUAgs3q_HO1bGS4AQw1Mtg=", "properties": {"@source_uri": "https://tools.usps.com/UspsToolsRestServices/rest/POLocator/findLocations", "@spider": "usps_collection_boxes", "addr:city": "NEW BRAUNFELS", "addr:country": "US", "addr:postcode": "78130", "addr:state": "TX", "addr:street_address": "686 S SEGUIN AVE", "amenity": "post_box", "collection_times": "Mo-Fr 17:00; Sa 15:00", "indoor": "yes", "note": "ON 12/24 AND 12/31, THIS BOX MAY BE COLLECTED AS EARLY AS 12 NOON.", "nsi_id": "unitedstatespostalservice-a77078", "operator": "United States Postal Service", "operator:short": "USPS", "operator:type": "public", "operator:wikidata": "Q668687", "ref": "7813000076"}, "type": "Feature"}
{"geometry": {"coordinates": [-98.1257520049, 29.6888380077], "type": "Point"}, "id": "9DXGG9tWB_s-rz-tcOYi0XDPf6Y=", "properties": {"@source_uri": "https://tools.usps.com/UspsToolsRestServices/rest/POLocator/findLocations", "@spider": "usps_collection_boxes", "addr:city": "NEW BRAUNFELS", "addr:country": "US", "addr:postcode": "78130", "addr:state": "TX", "addr:street_address": "651 S WALNUT AVE", "amenity": "post_box", "collection_times": "Mo-Sa 14:50", "note": "ON 12/24 AND 12/31, THIS BOX MAY BE COLLECTED AS EARLY AS 12 NOON.", "nsi_id": "unitedstatespostalservice-a77078", "operator": "United States Postal Service", "operator:short": "USPS", "operator:type": "public", "operator:wikidata": "Q668687", "ref": "7813000078"}, "type": "Feature"}
{"geometry": {"coordinates": [-98.122901356, 29.714877325], "type": "Point"}, "id": "X-jxeykydYNslu0TT28doi4aHns=", "properties": {"@source_uri": "https://tools.usps.com/UspsToolsRestServices/rest/POLocator/findLocations", "@spider": "usps_collection_boxes", "addr:city": "NEW BRAUNFELS", "addr:country": "US", "addr:postcode": "78130", "addr:state": "TX", "addr:street_address": "143 E GARZA ST", "amenity": "post_box", "collection_times": "Mo-Sa 16:55", "note": "ON 12/24 AND 12/31, THIS BOX MAY BE COLLECTED AS EARLY AS 12 NOON.", "nsi_id": "unitedstatespostalservice-a77078", "operator": "United States Postal Service", "operator:short": "USPS", "operator:type": "public", "operator:wikidata": "Q668687", "ref": "7813000080"}, "type": "Feature"}
{"geometry": {"coordinates": [-98.1243349603, 29.702474987], "type": "Point"}, "id": "SDqO3LfcAmi2Ztz-LEpCjWyNnsA=", "properties": {"@source_uri": "https://tools.usps.com/UspsToolsRestServices/rest/POLocator/findLocations", "@spider": "usps_collection_boxes", "addr:city": "NEW BRAUNFELS", "addr:country": "US", "addr:postcode": "78130", "addr:state": "TX", "addr:street_address": "301 MAIN PLZ", "amenity": "post_box", "collection_times": "Mo-Sa 17:30", "note": "ON 12/24 AND 12/31, THIS BOX MAY BE COLLECTED AS EARLY AS 12 NOON.", "nsi_id": "unitedstatespostalservice-a77078", "operator": "United States Postal Service", "operator:short": "USPS", "operator:type": "public", "operator:wikidata": "Q668687", "ref": "7813000081"}, "type": "Feature"}
{"geometry": {"coordinates": [-98.100045387, 29.696805834], "type": "Point"}, "id": "R_osD_Qu0da26xH34pJHT1L2wY8=", "properties": {"@source_uri": "https://tools.usps.com/UspsToolsRestServices/rest/POLocator/findLocations", "@spider": "usps_collection_boxes", "addr:city": "NEW BRAUNFELS", "addr:country": "US", "addr:postcode": "78130", "addr:state": "TX", "addr:street_address": "651 N BUSINESS I-35", "amenity": "post_box", "collection_times": "Mo-Fr 17:00; Sa 12:30", "name": "USPS COLLECTION BOX - APC", "note": "ON 12/24 AND 12/31, THIS BOX MAY BE COLLECTED AS EARLY AS 12 NOON.", "nsi_id": "unitedstatespostalservice-a77078", "operator": "United States Postal Service", "operator:short": "USPS", "operator:type": "public", "operator:wikidata": "Q668687", "ref": "7813000082"}, "type": "Feature"}
{"geometry": {"coordinates": [-98.097878992, 29.743632981], "type": "Point"}, "id": "7sUHTOHBkpJn4ABvglQioQkRRw8=", "properties": {"@source_uri": "https://tools.usps.com/UspsToolsRestServices/rest/POLocator/findLocations", "@spider": "usps_collection_boxes", "addr:city": "NEW BRAUNFELS", "addr:country": "US", "addr:postcode": "78130", "addr:state": "TX", "addr:street_address": "1293 FM 306", "amenity": "post_box", "collection_times": "Mo-Sa 16:15", "note": "ON 12/24 AND 12/31, THIS BOX MAY BE COLLECTED AS EARLY AS 12 NOON.", "nsi_id": "unitedstatespostalservice-a77078", "operator": "United States Postal Service", "operator:short": "USPS", "operator:type": "public", "operator:wikidata": "Q668687", "ref": "7813000083"}, "type": "Feature"}
{"geometry": {"coordinates": [-98.121159979, 29.700021981], "type": "Point"}, "id": "NccUjwK1YUenACYZqRd6v5i5k3o=", "properties": {"@source_uri": "https://tools.usps.com/UspsToolsRestServices/rest/POLocator/findLocations", "@spider": "usps_collection_boxes", "addr:city": "NEW BRAUNFELS", "addr:country": "US", "addr:postcode": "78130", "addr:state": "TX", "addr:street_address": "390 S SEGUIN AVE", "amenity": "post_box", "collection_times": "Mo-Sa 17:45", "note": "ON 12/24 AND 12/31, THIS BOX MAY BE COLLECTED AS EARLY AS 12 NOON.", "nsi_id": "unitedstatespostalservice-a77078", "operator": "United States Postal Service", "operator:short": "USPS", "operator:type": "public", "operator:wikidata": "Q668687", "ref": "7813000084"}, "type": "Feature"}
{"geometry": {"coordinates": [-98.1021079971, 29.6973179792], "type": "Point"}, "id": "cRFEHg1Ut1yNCvg0uQWeM2DQDEg=", "properties": {"@source_uri": "https://tools.usps.com/UspsToolsRestServices/rest/POLocator/findLocations", "@spider": "usps_collection_boxes", "addr:city": "NEW BRAUNFELS", "addr:country": "US", "addr:postcode": "78130", "addr:state": "TX", "addr:street_address": "651 N BUSINESS I-35", "amenity": "post_box", "collection_times": "Mo-Fr 17:00; Sa 12:00", "indoor": "yes", "note": "ON 12/24 AND 12/31, THIS BOX MAY BE COLLECTED AS EARLY AS 12 NOON.", "nsi_id": "unitedstatespostalservice-a77078", "operator": "United States Postal Service", "operator:short": "USPS", "operator:type": "public", "operator:wikidata": "Q668687", "ref": "7813000089"}, "type": "Feature"}
{"geometry": {"coordinates": [-98.170949993, 29.851029008], "type": "Point"}, "id": "KIEfRcjoA3BOAdBVxJ-LRsxC_l8=", "properties": {"@source_uri": "https://tools.usps.com/UspsToolsRestServices/rest/POLocator/findLocations", "@spider": "usps_collection_boxes", "addr:city": "CANYON LAKE", "addr:country": "US", "addr:postcode": "78133", "addr:state": "TX", "addr:street_address": "1300 FM 2673", "amenity": "post_box", "collection_times": "Mo-Fr 16:00; Sa 13:00", "note": "ON 12/24 AND 12/31, THIS BOX MAY BE COLLECTED AS EARLY AS 12 NOON.", "nsi_id": "unitedstatespostalservice-a77078", "operator": "United States Postal Service", "operator:short": "USPS", "operator:type": "public", "operator:wikidata": "Q668687", "ref": "7813300009"}, "type": "Feature"}
{"geometry": {"coordinates": [-98.170949993, 29.851029008], "type": "Point"}, "id": "m5mRqGIC8GO06ezve_5N3y8LxZU=", "properties": {"@source_uri": "https://tools.usps.com/UspsToolsRestServices/rest/POLocator/findLocations", "@spider": "usps_collection_boxes", "addr:city": "CANYON LAKE", "addr:country": "US", "addr:postcode": "78133", "addr:state": "TX", "addr:street_address": "1300 FM 2673", "amenity": "post_box", "collection_times": "Mo-Fr 16:30; Sa 13:00", "indoor": "yes", "note": "ON 12/24 AND 12/31, THIS BOX MAY BE COLLECTED AS EARLY AS 12 NOON.", "nsi_id": "unitedstatespostalservice-a77078", "operator": "United States Postal Service", "operator:short": "USPS", "operator:type": "public", "operator:wikidata": "Q668687", "ref": "7813300012"}, "type": "Feature"}
{"geometry": {"coordinates": [-98.170949993, 29.851029008], "type": "Point"}, "id": "nmoW7lvt_S6Dj6v6Uz6gKjGVssI=", "properties": {"@source_uri": "https://tools.usps.com/UspsToolsRestServices/rest/POLocator/findLocations", "@spider": "usps_collection_boxes", "addr:city": "CANYON LAKE", "addr:country": "US", "addr:postcode": "78133", "addr:state": "TX", "addr:street_address": "1300 FM 2673", "amenity": "post_box", "collection_times": "Mo-Fr 16:30; Sa 13:00", "indoor": "yes", "note": "ON 12/24 AND 12/31, THIS BOX MAY BE COLLECTED AS EARLY AS 12 NOON.", "nsi_id": "unitedstatespostalservice-a77078", "operator": "United States Postal Service", "operator:short": "USPS", "operator:type": "public", "operator:wikidata": "Q668687", "ref": "7813300013"}, "type": "Feature"}
{"geometry": {"coordinates": [-98.267779012, 29.843625573], "type": "Point"}, "id": "Ikcn6Hfy3kA-Q3E0FudvZvL7GUc=", "properties": {"@source_uri": "https://tools.usps.com/UspsToolsRestServices/rest/POLocator/findLocations", "@spider": "usps_collection_boxes", "addr:city": "CANYON LAKE", "addr:country": "US", "addr:postcode": "78133", "addr:state": "TX", "addr:street_address": "8079 FM 2673", "amenity": "post_box", "collection_times": "Mo-Sa 12:00", "nsi_id": "unitedstatespostalservice-a77078", "operator": "United States Postal Service", "operator:short": "USPS", "operator:type": "public", "operator:wikidata": "Q668687", "ref": "7813300014"}, "type": "Feature"}
{"geometry": {"coordinates": [-98.214813375, 29.913727039], "type": "Point"}, "id": "A-KtVodtaTOLRENNpOyDSbMtQTY=", "properties": {"@source_uri": "https://tools.usps.com/UspsToolsRestServices/rest/POLocator/findLocations", "@spider": "usps_collection_boxes", "addr:city": "CANYON LAKE", "addr:country": "US", "addr:postcode": "78133", "addr:state": "TX", "addr:street_address": "18134 FM 306", "amenity": "post_box", "collection_times": "Mo-Sa 09:00", "nsi_id": "unitedstatespostalservice-a77078", "operator": "United States Postal Service", "operator:short": "USPS", "operator:type": "public", "operator:wikidata": "Q668687", "ref": "7813300015"}, "type": "Feature"}
{"geometry": {"coordinates": [-98.170949993, 29.851029008], "type": "Point"}, "id": "KgeQE4ivTLCTUNpuobiAHNCjw3U=", "properties": {"@source_uri": "https://tools.usps.com/UspsToolsRestServices/rest/POLocator/findLocations", "@spider": "usps_collection_boxes", "addr:city": "CANYON LAKE", "addr:country": "US", "addr:postcode": "78133", "addr:state": "TX", "addr:street_address": "1300 FM 2673", "amenity": "post_box", "collection_times": "Mo-Fr 16:00; Sa 12:00", "indoor": "yes", "note": "ON 12/24 AND 12/31, THIS BOX MAY BE COLLECTED AS EARLY AS 12 NOON.", "nsi_id": "unitedstatespostalservice-a77078", "operator": "United States Postal Service", "operator:short": "USPS", "operator:type": "public", "operator:wikidata": "Q668687", "ref": "7813300017"}, "type": "Feature"}
{"geometry": {"coordinates": [-97.764010019, 29.26814002], "type": "Point"}, "id": "UIbEurPig_Q5qnTajYECtDJ1t1w=", "properties": {"@source_uri": "https://tools.usps.com/UspsToolsRestServices/rest/POLocator/findLocations", "@spider": "usps_collection_boxes", "addr:city": "NIXON", "addr:country": "US", "addr:postcode": "78140", "addr:state": "TX", "addr:street_address": "109 E 2ND ST", "amenity": "post_box", "collection_times": "Mo-Fr 16:00; Sa 10:30", "note": "ON 12/24 AND 12/31, THIS BOX MAY BE COLLECTED AS EARLY AS 12 NOON.", "nsi_id": "unitedstatespostalservice-a77078", "operator": "United States Postal Service", "operator:short": "USPS", "operator:type": "public", "operator:wikidata": "Q668687", "ref": "7814000002"}, "type": "Feature"}
{"geometry": {"coordinates": [-97.764010019, 29.26814002], "type": "Point"}, "id": "NiYtOnfkFXlUAYc8PxDMw50_y8E=", "properties": {"@source_uri": "https://tools.usps.com/UspsToolsRestServices/rest/POLocator/findLocations", "@spider": "usps_collection_boxes", "addr:city": "NIXON", "addr:country": "US", "addr:postcode": "78140", "addr:state": "TX", "addr:street_address": "109 E 2ND ST", "amenity": "post_box", "collection_times": "Mo-Fr 16:15; Sa 10:30", "indoor": "yes", "note": "ON 12/24 AND 12/31, THIS BOX MAY BE COLLECTED AS EARLY AS 12 NOON.", "nsi_id": "unitedstatespostalservice-a77078", "operator": "United States Postal Service", "operator:short": "USPS", "operator:type": "public", "operator:wikidata": "Q668687", "ref": "7814000004"}, "type": "Feature"}
{"geometry": {"coordinates": [-97.764010019, 29.26814002], "type": "Point"}, "id": "SLRd9z6sVvp730E7LZ_KJK1vH4A=", "properties": {"@source_uri": "https://tools.usps.com/UspsToolsRestServices/rest/POLocator/findLocations", "@spider": "usps_collection_boxes", "addr:city": "NIXON", "addr:country": "US", "addr:postcode": "78140", "addr:state": "TX", "addr:street_address": "109 E 2ND ST", "amenity": "post_box", "collection_times": "Mo-Fr 16:15; Sa 10:30", "indoor": "yes", "note": "ON 12/24 AND 12/31, THIS BOX MAY BE COLLECTED AS EARLY AS 12 NOON.", "nsi_id": "unitedstatespostalservice-a77078", "operator": "United States Postal Service", "operator:short": "USPS", "operator:type": "public", "operator:wikidata": "Q668687", "ref": "7814000005"}, "type": "Feature"}
{"geometry": {"coordinates": [-97.764010019, 29.26814002], "type": "Point"}, "id": "UxyZ1LB4-uwNZPAMXl6pmHICXXc=", "properties": {"@source_uri": "https://tools.usps.com/UspsToolsRestServices/rest/POLocator/findLocations", "@spider": "usps_collection_boxes", "addr:city": "NIXON", "addr:country": "US", "addr:postcode": "78140", "addr:state": "TX", "addr:street_address": "109 E 2ND ST", "amenity": "post_box", "collection_times": "Mo-Fr 16:30; Sa 10:30", "indoor": "yes", "note": "ON 12/24 AND 12/31, THIS BOX MAY BE COLLECTED AS EARLY AS 12 NOON.", "nsi_id": "unitedstatespostalservice-a77078", "operator": "United States Postal Service", "operator:short": "USPS", "operator:type": "public", "operator:wikidata": "Q668687", "ref": "7814000007"}, "type": "Feature"}
{"geometry": {"coordinates": [-97.610950013, 28.92283], "type": "Point"}, "id": "QxX8G3-cJOesH6BWeHgJqLh5Cl0=", "properties": {"@source_uri": "https://tools.usps.com/UspsToolsRestServices/rest/POLocator/findLocations", "@spider": "usps_collection_boxes", "addr:city": "NORDHEIM", "addr:country": "US", "addr:postcode": "78141", "addr:state": "TX", "addr:street_address": "301 BROADWAY", "amenity": "post_box", "collection_times": "Mo-Fr 11:30; Sa 07:15", "nsi_id": "unitedstatespostalservice-a77078", "operator": "United States Postal Service", "operator:short": "USPS", "operator:type": "public", "operator:wikidata": "Q668687", "ref": "7814100002"}, "type": "Feature"}
{"geometry": {"coordinates": [-97.610950013, 28.92283], "type": "Point"}, "id": "H_rOiN5KxC9nbrBrr33dnOOla1Q=", "properties": {"@source_uri": "https://tools.usps.com/UspsToolsRestServices/rest/POLocator/findLocations", "@spider": "usps_collection_boxes", "addr:city": "NORDHEIM", "addr:country": "US", "addr:postcode": "78141", "addr:state": "TX", "addr:street_address": "301 BROADWAY", "amenity": "post_box", "collection_times": "Mo-Fr 11:30; Sa 07:15", "indoor": "yes", "nsi_id": "unitedstatespostalservice-a77078", "operator": "United States Postal Service", "operator:short": "USPS", "operator:type": "public", "operator:wikidata": "Q668687", "ref": "7814100004"}, "type": "Feature"}
{"geometry": {"coordinates": [-97.610950013, 28.92283], "type": "Point"}, "id": "AHls13jrDCssPHNZP7XFV0J9zh0=", "properties": {"@source_uri": "https://tools.usps.com/UspsToolsRestServices/rest/POLocator/findLocations", "@spider": "usps_collection_boxes", "addr:city": "NORDHEIM", "addr:country": "US", "addr:postcode": "78141", "addr:state": "TX", "addr:street_address": "301 BROADWAY", "amenity": "post_box", "collection_times": "Mo-Fr 12:00", "indoor": "yes", "nsi_id": "unitedstatespostalservice-a77078", "operator": "United States Postal Service", "operator:short": "USPS", "operator:type": "public", "operator:wikidata": "Q668687", "ref": "7814100007"}, "type": "Feature"}
{"geometry": {"coordinates": [-97.784249968, 28.52839], "type": "Point"}, "id": "JZuAYYPzIPundRNOjPVifzZiNJQ=", "properties": {"@source_uri": "https://tools.usps.com/UspsToolsRestServices/rest/POLocator/findLocations", "@spider": "usps_collection_boxes", "addr:city": "NORMANNA", "addr:country": "US", "addr:postcode": "78142", "addr:state": "TX", "addr:street_address": "112 S BEE ST", "amenity": "post_box", "collection_times": "Mo-Fr 11:45; Sa 08:45", "nsi_id": "unitedstatespostalservice-a77078", "operator": "United States Postal Service", "operator:short": "USPS", "operator:type": "public", "operator:wikidata": "Q668687", "ref": "7814200001"}, "type": "Feature"}
{"geometry": {"coordinates": [-97.784249968, 28.52839], "type": "Point"}, "id": "RMnaCyFVLTql6TSoOcOds988mwQ=", "properties": {"@source_uri": "https://tools.usps.com/UspsToolsRestServices/rest/POLocator/findLocations", "@spider": "usps_collection_boxes", "addr:city": "NORMANNA", "addr:country": "US", "addr:postcode": "78142", "addr:state": "TX", "addr:street_address": "112 S BEE ST", "amenity": "post_box", "collection_times": "Mo-Fr 11:30; Sa 08:30", "indoor": "yes", "nsi_id": "unitedstatespostalservice-a77078", "operator": "United States Postal Service", "operator:short": "USPS", "operator:type": "public", "operator:wikidata": "Q668687", "ref": "7814200002"}, "type": "Feature"}
{"geometry": {"coordinates": [-97.784249968, 28.52839], "type": "Point"}, "id": "xiXJYBC8mScyrQk1MLGyBtr67ew=", "properties": {"@source_uri": "https://tools.usps.com/UspsToolsRestServices/rest/POLocator/findLocations", "@spider": "usps_collection_boxes", "addr:city": "NORMANNA", "addr:country": "US", "addr:postcode": "78142", "addr:state": "TX", "addr:street_address": "112 S BEE ST", "amenity": "post_box", "collection_times": "Mo-Fr 11:45; Sa 08:45", "indoor": "yes", "nsi_id": "unitedstatespostalservice-a77078", "operator": "United States Postal Service", "operator:short": "USPS", "operator:type": "public", "operator:wikidata": "Q668687", "ref": "7814200004"}, "type": "Feature"}
{"geometry": {"coordinates": [-97.839037021, 29.253622982], "type": "Point"}, "id": "pNWYkqbNN97biY9cudHjkPFO4Yo=", "properties": {"@source_uri": "https://tools.usps.com/UspsToolsRestServices/rest/POLocator/findLocations", "@spider": "usps_collection_boxes", "addr:city": "PANDORA", "addr:country": "US", "addr:postcode": "78143", "addr:state": "TX", "addr:street_address": "8547 FM 1107", "amenity": "post_box", "collection_times": "Mo-Fr 09:45; Sa 11:30", "nsi_id": "unitedstatespostalservice-a77078", "operator": "United States Postal Service", "operator:short": "USPS", "operator:type": "public", "operator:wikidata": "Q668687", "ref": "7814300001"}, "type": "Feature"}
{"geometry": {"coordinates": [-97.839037021, 29.253622982], "type": "Point"}, "id": "Gr6oJPBbZuUICkmHBhhP6eNalDE=", "properties": {"@source_uri": "https://tools.usps.com/UspsToolsRestServices/rest/POLocator/findLocations", "@spider": "usps_collection_boxes", "addr:city": "PANDORA", "addr:country": "US", "addr:postcode": "78143", "addr:state": "TX", "addr:street_address": "8547 FM 1107", "amenity": "post_box", "collection_times": "Mo-Fr 09:45; Sa 11:30", "indoor": "yes", "nsi_id": "unitedstatespostalservice-a77078", "operator": "United States Postal Service", "operator:short": "USPS", "operator:type": "public", "operator:wikidata": "Q668687", "ref": "7814300002"}, "type": "Feature"}
{"geometry": {"coordinates": [-97.839037021, 29.253622982], "type": "Point"}, "id": "kgQQZFK-V8y7k5qXv5JLKOmgrP4=", "properties": {"@source_uri": "https://tools.usps.com/UspsToolsRestServices/rest/POLocator/findLocations", "@spider": "usps_collection_boxes", "addr:city": "PANDORA", "addr:country": "US", "addr:postcode": "78143", "addr:state": "TX", "addr:street_address": "8547 FM 1107", "amenity": "post_box", "collection_times": "Mo-Fr 10:00; Sa 12:00", "indoor": "yes", "nsi_id": "unitedstatespostalservice-a77078", "operator": "United States Postal Service", "operator:short": "USPS", "operator:type": "public", "operator:wikidata": "Q668687", "ref": "7814300004"}, "type": "Feature"}
{"geometry": {"coordinates": [-97.898525877, 28.957611165], "type": "Point"}, "id": "zbN5Tytrls3Lasbv8WWKiOIbZhQ=", "properties": {"@source_uri": "https://tools.usps.com/UspsToolsRestServices/rest/POLocator/findLocations", "@spider": "usps_collection_boxes", "addr:city": "PANNA MARIA", "addr:country": "US", "addr:postcode": "78144", "addr:state": "TX", "addr:street_address": "13870 N FM 81", "amenity": "post_box", "collection_times": "Mo-Sa 11:15", "nsi_id": "unitedstatespostalservice-a77078", "operator": "United States Postal Service", "operator:short": "USPS", "operator:type": "public", "operator:wikidata": "Q668687", "ref": "7814400001"}, "type": "Feature"}
{"geometry": {"coordinates": [-97.898525877, 28.957611165], "type": "Point"}, "id": "gxUm_WPLvZqWaelukiXMSzmf_RM=", "properties": {"@source_uri": "https://tools.usps.com/UspsToolsRestServices/rest/POLocator/findLocations", "@spider": "usps_collection_boxes", "addr:city": "PANNA MARIA", "addr:country": "US", "addr:postcode": "78144", "addr:state": "TX", "addr:street_address": "13870 N FM 81", "amenity": "post_box", "collection_times": "Mo-Sa 11:15", "indoor": "yes", "nsi_id": "unitedstatespostalservice-a77078", "operator": "United States Postal Service", "operator:short": "USPS", "operator:type": "public", "operator:wikidata": "Q668687", "ref": "7814400002"}, "type": "Feature"}
{"geometry": {"coordinates": [-97.898237276, 28.957623182], "type": "Point"}, "id": "qBdY3z2hn4IudJ7mEmf2vqJWgbk=", "properties": {"@source_uri": "https://tools.usps.com/UspsToolsRestServices/rest/POLocator/findLocations", "@spider": "usps_collection_boxes", "addr:city": "PANNA MARIA", "addr:country": "US", "addr:postcode": "78144", "addr:state": "TX", "addr:street_address": "13870 N FM 81", "amenity": "post_box", "collection_times": "Mo-Fr 15:30; Sa 14:30", "indoor": "yes", "note": "ON 12/24 AND 12/31, THIS BOX MAY BE COLLECTED AS EARLY AS 12 NOON.", "nsi_id": "unitedstatespostalservice-a77078", "operator": "United States Postal Service", "operator:short": "USPS", "operator:type": "public", "operator:wikidata": "Q668687", "ref": "7814400004"}, "type": "Feature"}
{"geometry": {"coordinates": [-98.002580022, 28.651760006], "type": "Point"}, "id": "26EakjXvr725GZwSPFvJSYRI3fI=", "properties": {"@source_uri": "https://tools.usps.com/UspsToolsRestServices/rest/POLocator/findLocations", "@spider": "usps_collection_boxes", "addr:city": "PAWNEE", "addr:country": "US", "addr:postcode": "78145", "addr:state": "TX", "addr:street_address": "14132 FM 673", "amenity": "post_box", "collection_times": "Mo-Sa 09:45", "indoor": "yes", "nsi_id": "unitedstatespostalservice-a77078", "operator": "United States Postal Service", "operator:short": "USPS", "operator:type": "public", "operator:wikidata": "Q668687", "ref": "7814500002"}, "type": "Feature"}
{"geometry": {"coordinates": [-98.002580022, 28.651760006], "type": "Point"}, "id": "2TH3Oxsu9AMLhBs93Q21fU_8M8Y=", "properties": {"@source_uri": "https://tools.usps.com/UspsToolsRestServices/rest/POLocator/findLocations", "@spider": "usps_collection_boxes", "addr:city": "PAWNEE", "addr:country": "US", "addr:postcode": "78145", "addr:state": "TX", "addr:street_address": "14132 FM 673", "amenity": "post_box", "collection_times": "Mo-Fr 13:00", "indoor": "yes", "note": "ON 12/24 AND 12/31, THIS BOX MAY BE COLLECTED AS EARLY AS 12 NOON.", "nsi_id": "unitedstatespostalservice-a77078", "operator": "United States Postal Service", "operator:short": "USPS", "operator:type": "public", "operator:wikidata": "Q668687", "ref": "7814500003"}, "type": "Feature"}
{"geometry": {"coordinates": [-97.803409993, 28.617859985], "type": "Point"}, "id": "IrCWoJ_1ZdRXrZGUTJ-rfjorun4=", "properties": {"@source_uri": "https://tools.usps.com/UspsToolsRestServices/rest/POLocator/findLocations", "@spider": "usps_collection_boxes", "addr:city": "PETTUS", "addr:country": "US", "addr:postcode": "78146", "addr:state": "TX", "addr:street_address": "114 FM 623 W", "amenity": "post_box", "collection_times": "Mo-Fr 11:45; Sa 08:45", "nsi_id": "unitedstatespostalservice-a77078", "operator": "United States Postal Service", "operator:short": "USPS", "operator:type": "public", "operator:wikidata": "Q668687", "ref": "7814600001"}, "type": "Feature"}
{"geometry": {"coordinates": [-97.803409993, 28.617859985], "type": "Point"}, "id": "BAQjOntwf7P0f9WcDV01NEfwMOs=", "properties": {"@source_uri": "https://tools.usps.com/UspsToolsRestServices/rest/POLocator/findLocations", "@spider": "usps_collection_boxes", "addr:city": "PETTUS", "addr:country": "US", "addr:postcode": "78146", "addr:state": "TX", "addr:street_address": "114 FM 623 W", "amenity": "post_box", "collection_times": "Mo-Fr 11:30; Sa 08:00", "indoor": "yes", "nsi_id": "unitedstatespostalservice-a77078", "operator": "United States Postal Service", "operator:short": "USPS", "operator:type": "public", "operator:wikidata": "Q668687", "ref": "7814600004"}, "type": "Feature"}
{"geometry": {"coordinates": [-97.803409993, 28.617859985], "type": "Point"}, "id": "y_PAgXFtNi6vnYuOfnNbcJxXMs8=", "properties": {"@source_uri": "https://tools.usps.com/UspsToolsRestServices/rest/POLocator/findLocations", "@spider": "usps_collection_boxes", "addr:city": "PETTUS", "addr:country": "US", "addr:postcode": "78146", "addr:state": "TX", "addr:street_address": "114 FM 623 W", "amenity": "post_box", "collection_times": "Mo-Fr 12:00", "indoor": "yes", "nsi_id": "unitedstatespostalservice-a77078", "operator": "United States Postal Service", "operator:short": "USPS", "operator:type": "public", "operator:wikidata": "Q668687", "ref": "7814600006"}, "type": "Feature"}
{"geometry": {"coordinates": [-98.087941994, 29.078201986], "type": "Point"}, "id": "ZKXXyJZxPef39-4K1NSHUVBJ1qI=", "properties": {"@source_uri": "https://tools.usps.com/UspsToolsRestServices/rest/POLocator/findLocations", "@spider": "usps_collection_boxes", "addr:city": "POTH", "addr:country": "US", "addr:postcode": "78147", "addr:state": "TX", "addr:street_address": "1100 STORTS", "amenity": "post_box", "collection_times": "Mo-Fr 16:00; Sa 11:00", "note": "ON 12/24 AND 12/31, THIS BOX MAY BE COLLECTED AS EARLY AS 12 NOON.", "nsi_id": "unitedstatespostalservice-a77078", "operator": "United States Postal Service", "operator:short": "USPS", "operator:type": "public", "operator:wikidata": "Q668687", "ref": "7814700002"}, "type": "Feature"}
{"geometry": {"coordinates": [-98.087941994, 29.078201986], "type": "Point"}, "id": "26PiM38sE2Gs5GfKUT_ztDftpNE=", "properties": {"@source_uri": "https://tools.usps.com/UspsToolsRestServices/rest/POLocator/findLocations", "@spider": "usps_collection_boxes", "addr:city": "POTH", "addr:country": "US", "addr:postcode": "78147", "addr:state": "TX", "addr:street_address": "1100 STORTS", "amenity": "post_box", "collection_times": "Mo-Fr 16:00; Sa 11:00", "indoor": "yes", "note": "ON 12/24 AND 12/31, THIS BOX MAY BE COLLECTED AS EARLY AS 12 NOON.", "nsi_id": "unitedstatespostalservice-a77078", "operator": "United States Postal Service", "operator:short": "USPS", "operator:type": "public", "operator:wikidata": "Q668687", "ref": "7814700003"}, "type": "Feature"}
{"geometry": {"coordinates": [-98.087941994, 29.078201986], "type": "Point"}, "id": "cYnniCJg--1kAKbQ2cTa8uc6mrQ=", "properties": {"@source_uri": "https://tools.usps.com/UspsToolsRestServices/rest/POLocator/findLocations", "@spider": "usps_collection_boxes", "addr:city": "POTH", "addr:country": "US", "addr:postcode": "78147", "addr:state": "TX", "addr:street_address": "1100 STORTS", "amenity": "post_box", "collection_times": "Mo-Fr 16:00; Sa 11:00", "indoor": "yes", "note": "ON 12/24 AND 12/31, THIS BOX MAY BE COLLECTED AS EARLY AS 12 NOON.", "nsi_id": "unitedstatespostalservice-a77078", "operator": "United States Postal Service", "operator:short": "USPS", "operator:type": "public", "operator:wikidata": "Q668687", "ref": "7814700008"}, "type": "Feature"}
{"geometry": {"coordinates": [-98.30477504, 29.559163009], "type": "Point"}, "id": "1I6HhsZC0vTBSf6IXu5GPIV2pgg=", "properties": {"@source_uri": "https://tools.usps.com/UspsToolsRestServices/rest/POLocator/findLocations", "@spider": "usps_collection_boxes", "addr:city": "UNIVERSAL CITY", "addr:country": "US", "addr:postcode": "78148", "addr:state": "TX", "addr:street_address": "102 MILLRIDGE RD", "amenity": "post_box", "collection_times": "Mo-Sa 13:00", "note": "ON 12/24 AND 12/31, THIS BOX MAY BE COLLECTED AS EARLY AS 12 NOON.", "nsi_id": "unitedstatespostalservice-a77078", "operator": "United States Postal Service", "operator:short": "USPS", "operator:type": "public", "operator:wikidata": "Q668687", "ref": "7814800025"}, "type": "Feature"}
{"geometry": {"coordinates": [-98.310341965, 29.556483021], "type": "Point"}, "id": "JNhNrfu9qw8BI97FwOjxN6sgHCk=", "properties": {"@source_uri": "https://tools.usps.com/UspsToolsRestServices/rest/POLocator/findLocations", "@spider": "usps_collection_boxes", "addr:city": "UNIVERSAL CITY", "addr:country": "US", "addr:postcode": "78148", "addr:state": "TX", "addr:street_address": "2125 UNIVERSAL CITY BLVD", "amenity": "post_box", "collection_times": "Mo-Sa 14:30", "note": "ON 12/24 AND 12/31, THIS BOX MAY BE COLLECTED AS EARLY AS 12 NOON.", "nsi_id": "unitedstatespostalservice-a77078", "operator": "United States Postal Service", "operator:short": "USPS", "operator:type": "public", "operator:wikidata": "Q668687", "ref": "7814800028"}, "type": "Feature"}
{"geometry": {"coordinates": [-98.304099961, 29.546940014], "type": "Point"}, "id": "e7I22pskaWQDB4WDNtgTXYUz-Mg=", "properties": {"@source_uri": "https://tools.usps.com/UspsToolsRestServices/rest/POLocator/findLocations", "@spider": "usps_collection_boxes", "addr:city": "UNIVERSAL CITY", "addr:country": "US", "addr:postcode": "78148", "addr:state": "TX", "addr:street_address": "2150 UNIVERSAL CITY BLVD", "amenity": "post_box", "collection_times": "Mo-Sa 09:15", "nsi_id": "unitedstatespostalservice-a77078", "operator": "United States Postal Service", "operator:short": "USPS", "operator:type": "public", "operator:wikidata": "Q668687", "ref": "7814800029"}, "type": "Feature"}
{"geometry": {"coordinates": [-98.307496979, 29.551190017], "type": "Point"}, "id": "rQsGpV_qzV43pKTfUK7-cCdFHo4=", "properties": {"@source_uri": "https://tools.usps.com/UspsToolsRestServices/rest/POLocator/findLocations", "@spider": "usps_collection_boxes", "addr:city": "UNIVERSAL CITY", "addr:country": "US", "addr:postcode": "78148", "addr:state": "TX", "addr:street_address": "433 KITTY HAWK RD", "amenity": "post_box", "collection_times": "Mo-Sa 09:15", "nsi_id": "unitedstatespostalservice-a77078", "operator": "United States Postal Service", "operator:short": "USPS", "operator:type": "public", "operator:wikidata": "Q668687", "ref": "7814800031"}, "type": "Feature"}
{"geometry": {"coordinates": [-98.30612, 29.549980005], "type": "Point"}, "id": "LH70OoJ7TuIIx1YPPezORFHVOds=", "properties": {"@source_uri": "https://tools.usps.com/UspsToolsRestServices/rest/POLocator/findLocations", "@spider": "usps_collection_boxes", "addr:city": "UNIVERSAL CITY", "addr:country": "US", "addr:postcode": "78148", "addr:state": "TX", "addr:street_address": "330 KITTY HAWK RD", "amenity": "post_box", "collection_times": "Mo-Sa 09:15", "nsi_id": "unitedstatespostalservice-a77078", "operator": "United States Postal Service", "operator:short": "USPS", "operator:type": "public", "operator:wikidata": "Q668687", "ref": "7814800032"}, "type": "Feature"}
{"geometry": {"coordinates": [-98.323729959, 29.559726985], "type": "Point"}, "id": "h3x9E_hcZgrUlTgohTFGPICLVf0=", "properties": {"@source_uri": "https://tools.usps.com/UspsToolsRestServices/rest/POLocator/findLocations", "@spider": "usps_collection_boxes", "addr:city": "UNIVERSAL CITY", "addr:country": "US", "addr:postcode": "78148", "addr:state": "TX", "addr:street_address": "3000 PAT BOOKER RD", "amenity": "post_box", "collection_times": "Mo-Sa 10:15", "nsi_id": "unitedstatespostalservice-a77078", "operator": "United States Postal Service", "operator:short": "USPS", "operator:type": "public", "operator:wikidata": "Q668687", "ref": "7814800037"}, "type": "Feature"}
{"geometry": {"coordinates": [-98.315240302, 29.557214533], "type": "Point"}, "id": "L7RBxX0wZ-pE3nvy0wFXs8aU_ko=", "properties": {"@source_uri": "https://tools.usps.com/UspsToolsRestServices/rest/POLocator/findLocations", "@spider": "usps_collection_boxes", "addr:city": "UNIVERSAL CITY", "addr:country": "US", "addr:postcode": "78148", "addr:state": "TX", "addr:street_address": "932 CORONADO BLVD", "amenity": "post_box", "collection_times": "Mo-Sa 09:30", "nsi_id": "unitedstatespostalservice-a77078", "operator": "United States Postal Service", "operator:short": "USPS", "operator:type": "public", "operator:wikidata": "Q668687", "ref": "7814800041"}, "type": "Feature"}
{"geometry": {"coordinates": [-98.294093981, 29.550996017], "type": "Point"}, "id": "NUuV1f_DKg6rdqTFa41Iit2RqRI=", "properties": {"@source_uri": "https://tools.usps.com/UspsToolsRestServices/rest/POLocator/findLocations", "@spider": "usps_collection_boxes", "addr:city": "UNIVERSAL CITY", "addr:country": "US", "addr:postcode": "78148", "addr:state": "TX", "addr:street_address": "830 NORTH BLVD", "amenity": "post_box", "collection_times": "Mo-Sa 15:00", "note": "ON 12/24 AND 12/31, THIS BOX MAY BE COLLECTED AS EARLY AS 12 NOON.", "nsi_id": "unitedstatespostalservice-a77078", "operator": "United States Postal Service", "operator:short": "USPS", "operator:type": "public", "operator:wikidata": "Q668687", "ref": "7814800046"}, "type": "Feature"}
{"geometry": {"coordinates": [-98.294093981, 29.550996017], "type": "Point"}, "id": "X_V1IywVPq2yKyKoks4_iWYKNf0=", "properties": {"@source_uri": "https://tools.usps.com/UspsToolsRestServices/rest/POLocator/findLocations", "@spider": "usps_collection_boxes", "addr:city": "UNIVERSAL CITY", "addr:country": "US", "addr:postcode": "78148", "addr:state": "TX", "addr:street_address": "830 NORTH BLVD", "amenity": "post_box", "collection_times": "Mo-Sa 15:30", "indoor": "yes", "note": "ON 12/24 AND 12/31, THIS BOX MAY BE COLLECTED AS EARLY AS 12 NOON.", "nsi_id": "unitedstatespostalservice-a77078", "operator": "United States Postal Service", "operator:short": "USPS", "operator:type": "public", "operator:wikidata": "Q668687", "ref": "7814800050"}, "type": "Feature"}
{"geometry": {"coordinates": [-98.311430019, 29.546040008], "type": "Point"}, "id": "5reav3_dPbVdjQCpsmqF5YgrhAI=", "properties": {"@source_uri": "https://tools.usps.com/UspsToolsRestServices/rest/POLocator/findLocations", "@spider": "usps_collection_boxes", "addr:city": "UNIVERSAL CITY", "addr:country": "US", "addr:postcode": "78148", "addr:state": "TX", "addr:street_address": "910 KITTY HAWK RD", "amenity": "post_box", "collection_times": "Mo-Sa 10:15", "nsi_id": "unitedstatespostalservice-a77078", "operator": "United States Postal Service", "operator:short": "USPS", "operator:type": "public", "operator:wikidata": "Q668687", "ref": "7814800053"}, "type": "Feature"}
{"geometry": {"coordinates": [-98.294093981, 29.550996017], "type": "Point"}, "id": "9hcWJHLx-fB5IB-IS0w1Og-5S6U=", "properties": {"@source_uri": "https://tools.usps.com/UspsToolsRestServices/rest/POLocator/findLocations", "@spider": "usps_collection_boxes", "addr:city": "UNIVERSAL CITY", "addr:country": "US", "addr:postcode": "78148", "addr:state": "TX", "addr:street_address": "830 NORTH BLVD", "amenity": "post_box", "collection_times": "Mo-Fr 16:30; Sa 11:30", "indoor": "yes", "note": "ON 12/24 AND 12/31, THIS BOX MAY BE COLLECTED AS EARLY AS 12 NOON.", "nsi_id": "unitedstatespostalservice-a77078", "operator": "United States Postal Service", "operator:short": "USPS", "operator:type": "public", "operator:wikidata": "Q668687", "ref": "7814800059"}, "type": "Feature"}
{"geometry": {"coordinates": [-98.276879779, 29.529782619], "type": "Point"}, "id": "bfW-KCXZnIo6lqw4JoAo21wYA8A=", "properties": {"@source_uri": "https://tools.usps.com/UspsToolsRestServices/rest/POLocator/findLocations", "@spider": "usps_collection_boxes", "addr:city": "UNIVERSAL CITY", "addr:country": "US", "addr:postcode": "78150", "addr:state": "TX", "addr:street_address": "244 F ST E", "amenity": "post_box", "collection_times": "Mo-Fr 14:00", "note": "ON 12/24 AND 12/31, THIS BOX MAY BE COLLECTED AS EARLY AS 12 NOON.", "nsi_id": "unitedstatespostalservice-a77078", "operator": "United States Postal Service", "operator:short": "USPS", "operator:type": "public", "operator:wikidata": "Q668687", "ref": "7815000003"}, "type": "Feature"}
{"geometry": {"coordinates": [-98.277597186, 29.525419425], "type": "Point"}, "id": "wMo63cJ2SMd1TaExKOmgcagQOeI=", "properties": {"@source_uri": "https://tools.usps.com/UspsToolsRestServices/rest/POLocator/findLocations", "@spider": "usps_collection_boxes", "addr:city": "UNIVERSAL CITY", "addr:country": "US", "addr:postcode": "78150", "addr:state": "TX", "addr:street_address": "1985 1ST ST W", "amenity": "post_box", "collection_times": "Mo-Sa 14:00", "note": "ON 12/24 AND 12/31, THIS BOX MAY BE COLLECTED AS EARLY AS 12 NOON.", "nsi_id": "unitedstatespostalservice-a77078", "operator": "United States Postal Service", "operator:short": "USPS", "operator:type": "public", "operator:wikidata": "Q668687", "ref": "7815000005"}, "type": "Feature"}
{"geometry": {"coordinates": [-98.28656305, 29.535653075], "type": "Point"}, "id": "2yZ9-9fei9EVW4yF-KxviAGHtIQ=", "properties": {"@source_uri": "https://tools.usps.com/UspsToolsRestServices/rest/POLocator/findLocations", "@spider": "usps_collection_boxes", "addr:city": "UNIVERSAL CITY", "addr:country": "US", "addr:postcode": "78150", "addr:state": "TX", "addr:street_address": "770 3RD ST W", "amenity": "post_box", "collection_times": "Mo-Sa 14:10", "note": "ON 12/24 AND 12/31, THIS BOX MAY BE COLLECTED AS EARLY AS 12 NOON.", "nsi_id": "unitedstatespostalservice-a77078", "operator": "United States Postal Service", "operator:short": "USPS", "operator:type": "public", "operator:wikidata": "Q668687", "ref": "7815000008"}, "type": "Feature"}
{"geometry": {"coordinates": [-98.28502912, 29.534588013], "type": "Point"}, "id": "wMnE2DxzPXZmA_ZXPhAGzAhho0A=", "properties": {"@source_uri": "https://tools.usps.com/UspsToolsRestServices/rest/POLocator/findLocations", "@spider": "usps_collection_boxes", "addr:city": "UNIVERSAL CITY", "addr:country": "US", "addr:postcode": "78150", "addr:state": "TX", "addr:street_address": "355 B ST W STE 103", "amenity": "post_box", "collection_times": "Mo-Fr 14:00", "note": "ON 12/24 AND 12/31, THIS BOX MAY BE COLLECTED AS EARLY AS 12 NOON.", "nsi_id": "unitedstatespostalservice-a77078", "operator": "United States Postal Service", "operator:short": "USPS", "operator:type": "public", "operator:wikidata": "Q668687", "ref": "7815000011"}, "type": "Feature"}
{"geometry": {"coordinates": [-98.28502912, 29.534588013], "type": "Point"}, "id": "T-iUyNm8iQ8C_NMU110KY2_iD8s=", "properties": {"@source_uri": "https://tools.usps.com/UspsToolsRestServices/rest/POLocator/findLocations", "@spider": "usps_collection_boxes", "addr:city": "UNIVERSAL CITY", "addr:country": "US", "addr:postcode": "78150", "addr:state": "TX", "addr:street_address": "355 B ST W STE 103", "amenity": "post_box", "collection_times": "Mo-Fr 14:00", "indoor": "yes", "note": "ON 12/24 AND 12/31, THIS BOX MAY BE COLLECTED AS EARLY AS 12 NOON.", "nsi_id": "unitedstatespostalservice-a77078", "operator": "United States Postal Service", "operator:short": "USPS", "operator:type": "public", "operator:wikidata": "Q668687", "ref": "7815000012"}, "type": "Feature"}
{"geometry": {"coordinates": [-98.28502912, 29.534588013], "type": "Point"}, "id": "VnjhmUdAIBDpgYIV1rU4tg4yAwE=", "properties": {"@source_uri": "https://tools.usps.com/UspsToolsRestServices/rest/POLocator/findLocations", "@spider": "usps_collection_boxes", "addr:city": "UNIVERSAL CITY", "addr:country": "US", "addr:postcode": "78150", "addr:state": "TX", "addr:street_address": "355 B ST W STE 103", "amenity": "post_box", "collection_times": "Mo-Fr 14:00", "indoor": "yes", "note": "ON 12/24 AND 12/31, THIS BOX MAY BE COLLECTED AS EARLY AS 12 NOON.", "nsi_id": "unitedstatespostalservice-a77078", "operator": "United States Postal Service", "operator:short": "USPS", "operator:type": "public", "operator:wikidata": "Q668687", "ref": "7815000014"}, "type": "Feature"}
{"geometry": {"coordinates": [-98.28502912, 29.534588013], "type": "Point"}, "id": "BVwODchQIygaa4GkJA1vE7Tr1uU=", "properties": {"@source_uri": "https://tools.usps.com/UspsToolsRestServices/rest/POLocator/findLocations", "@spider": "usps_collection_boxes", "addr:city": "UNIVERSAL CITY", "addr:country": "US", "addr:postcode": "78150", "addr:state": "TX", "addr:street_address": "355 B ST W STE 103", "amenity": "post_box", "collection_times": "Mo-Fr 14:00", "indoor": "yes", "note": "ON 12/24 AND 12/31, THIS BOX MAY BE COLLECTED AS EARLY AS 12 NOON.", "nsi_id": "unitedstatespostalservice-a77078", "operator": "United States Postal Service", "operator:short": "USPS", "operator:type": "public", "operator:wikidata": "Q668687", "ref": "7815000015"}, "type": "Feature"}
{"geometry": {"coordinates": [-97.711815, 28.886085], "type": "Point"}, "id": "u5kk0n30GZl5GZfpD0HY4eD87MY=", "properties": {"@source_uri": "https://tools.usps.com/UspsToolsRestServices/rest/POLocator/findLocations", "@spider": "usps_collection_boxes", "addr:city": "RUNGE", "addr:country": "US", "addr:postcode": "78151", "addr:state": "TX", "addr:street_address": "302 HELENA ST", "amenity": "post_box", "collection_times": "Mo-Fr 16:00; Sa 09:00", "note": "ON 12/24 AND 12/31, THIS BOX MAY BE COLLECTED AS EARLY AS 12 NOON.", "nsi_id": "unitedstatespostalservice-a77078", "operator": "United States Postal Service", "operator:short": "USPS", "operator:type": "public", "operator:wikidata": "Q668687", "ref": "7815100001"}, "type": "Feature"}
{"geometry": {"coordinates": [-97.711815, 28.886085], "type": "Point"}, "id": "lije8pmXj9Kvk3Zhr5V9eaiTh7w=", "properties": {"@source_uri": "https://tools.usps.com/UspsToolsRestServices/rest/POLocator/findLocations", "@spider": "usps_collection_boxes", "addr:city": "RUNGE", "addr:country": "US", "addr:postcode": "78151", "addr:state": "TX", "addr:street_address": "302 HELENA ST", "amenity": "post_box", "collection_times": "Mo-Fr 16:00; Sa 09:00", "indoor": "yes", "note": "ON 12/24 AND 12/31, THIS BOX MAY BE COLLECTED AS EARLY AS 12 NOON.", "nsi_id": "unitedstatespostalservice-a77078", "operator": "United States Postal Service", "operator:short": "USPS", "operator:type": "public", "operator:wikidata": "Q668687", "ref": "7815100004"}, "type": "Feature"}
{"geometry": {"coordinates": [-97.711815, 28.886085], "type": "Point"}, "id": "D2WJGK8P_Ld7ecfR5ZuuSZlTXc4=", "properties": {"@source_uri": "https://tools.usps.com/UspsToolsRestServices/rest/POLocator/findLocations", "@spider": "usps_collection_boxes", "addr:city": "RUNGE", "addr:country": "US", "addr:postcode": "78151", "addr:state": "TX", "addr:street_address": "302 N HELENA", "amenity": "post_box", "collection_times": "Mo-Fr 16:00", "indoor": "yes", "note": "ON 12/24 AND 12/31, THIS BOX MAY BE COLLECTED AS EARLY AS 12 NOON.", "nsi_id": "unitedstatespostalservice-a77078", "operator": "United States Postal Service", "operator:short": "USPS", "operator:type": "public", "operator:wikidata": "Q668687", "ref": "7815100006"}, "type": "Feature"}
{"geometry": {"coordinates": [-98.2038310255, 29.4143300082], "type": "Point"}, "id": "jZoUb5sniL8Sa2UkSVDssokwzeY=", "properties": {"@source_uri": "https://tools.usps.com/UspsToolsRestServices/rest/POLocator/findLocations", "@spider": "usps_collection_boxes", "addr:city": "SAINT HEDWIG", "addr:country": "US", "addr:postcode": "78152", "addr:state": "TX", "addr:street_address": "1102 CHURCH VIEW DR", "amenity": "post_box", "collection_times": "Mo-Fr 12:45; Sa 10:15", "note": "ON 12/24 AND 12/31, THIS BOX MAY BE COLLECTED AS EARLY AS 12 NOON.", "nsi_id": "unitedstatespostalservice-a77078", "operator": "United States Postal Service", "operator:short": "USPS", "operator:type": "public", "operator:wikidata": "Q668687", "ref": "7815200002"}, "type": "Feature"}
{"geometry": {"coordinates": [-98.2038310255, 29.4143300082], "type": "Point"}, "id": "aWrBOqH2Il4Sae3VdBhHbp4DmRo=", "properties": {"@source_uri": "https://tools.usps.com/UspsToolsRestServices/rest/POLocator/findLocations", "@spider": "usps_collection_boxes", "addr:city": "SAINT HEDWIG", "addr:country": "US", "addr:postcode": "78152", "addr:state": "TX", "addr:street_address": "1102 CHURCH VIEW DR", "amenity": "post_box", "collection_times": "Mo-Fr 13:00; Sa 10:15", "indoor": "yes", "note": "ON 12/24 AND 12/31, THIS BOX MAY BE COLLECTED AS EARLY AS 12 NOON.", "nsi_id": "unitedstatespostalservice-a77078", "operator": "United States Postal Service", "operator:short": "USPS", "operator:type": "public", "operator:wikidata": "Q668687", "ref": "7815200003"}, "type": "Feature"}
{"geometry": {"coordinates": [-98.203848041, 29.414352011], "type": "Point"}, "id": "hRlIuvU3Fk-k4nv9kviWaxSLgi0=", "properties": {"@source_uri": "https://tools.usps.com/UspsToolsRestServices/rest/POLocator/findLocations", "@spider": "usps_collection_boxes", "addr:city": "SAINT HEDWIG", "addr:country": "US", "addr:postcode": "78152", "addr:state": "TX", "addr:street_address": "1102 CHURCH VIEW DR", "amenity": "post_box", "collection_times": "Mo-Fr 13:00; Sa 10:30", "indoor": "yes", "note": "ON 12/24 AND 12/31, THIS BOX MAY BE COLLECTED AS EARLY AS 12 NOON.", "nsi_id": "unitedstatespostalservice-a77078", "operator": "United States Postal Service", "operator:short": "USPS", "operator:type": "public", "operator:wikidata": "Q668687", "ref": "7815200006"}, "type": "Feature"}
{"geometry": {"coordinates": [-98.2614049773, 29.5648919975], "type": "Point"}, "id": "ilLl85rX5W-T3g3OR3_dCSpPeOk=", "properties": {"@source_uri": "https://tools.usps.com/UspsToolsRestServices/rest/POLocator/findLocations", "@spider": "usps_collection_boxes", "addr:city": "SCHERTZ", "addr:country": "US", "addr:postcode": "78154", "addr:state": "TX", "addr:street_address": "1081 ELBEL RD", "amenity": "post_box", "collection_times": "Mo-Sa 15:30", "note": "ON 12/24 AND 12/31, THIS BOX MAY BE COLLECTED AS EARLY AS 12 NOON.", "nsi_id": "unitedstatespostalservice-a77078", "operator": "United States Postal Service", "operator:short": "USPS", "operator:type": "public", "operator:wikidata": "Q668687", "ref": "7815400012"}, "type": "Feature"}
{"geometry": {"coordinates": [-98.305826969, 29.591843001], "type": "Point"}, "id": "vBmgMm68JW8Lv1S-JtrK7Xi-Lj8=", "properties": {"@source_uri": "https://tools.usps.com/UspsToolsRestServices/rest/POLocator/findLocations", "@spider": "usps_collection_boxes", "addr:city": "SCHERTZ", "addr:country": "US", "addr:postcode": "78154", "addr:state": "TX", "addr:street_address": "9375 CORPORATE DR", "amenity": "post_box", "collection_times": "Mo-Sa 14:30", "note": "ON 12/24 AND 12/31, THIS BOX MAY BE COLLECTED AS EARLY AS 12 NOON.", "nsi_id": "unitedstatespostalservice-a77078", "operator": "United States Postal Service", "operator:short": "USPS", "operator:type": "public", "operator:wikidata": "Q668687", "ref": "7815400017"}, "type": "Feature"}
{"geometry": {"coordinates": [-98.278543036, 29.59677198], "type": "Point"}, "id": "9UhJJnPwOK7JNmJpH_B9S-CNlFo=", "properties": {"@source_uri": "https://tools.usps.com/UspsToolsRestServices/rest/POLocator/findLocations", "@spider": "usps_collection_boxes", "addr:city": "SCHERTZ", "addr:country": "US", "addr:postcode": "78154", "addr:state": "TX", "addr:street_address": "17460 IH 35 N", "amenity": "post_box", "collection_times": "Mo-Sa 14:00", "note": "ON 12/24 AND 12/31, THIS BOX MAY BE COLLECTED AS EARLY AS 12 NOON.", "nsi_id": "unitedstatespostalservice-a77078", "operator": "United States Postal Service", "operator:short": "USPS", "operator:type": "public", "operator:wikidata": "Q668687", "ref": "7815400019"}, "type": "Feature"}
{"geometry": {"coordinates": [-98.261378993, 29.564880011], "type": "Point"}, "id": "dj18ZXkoMUAXf4koVN__hfske88=", "properties": {"@source_uri": "https://tools.usps.com/UspsToolsRestServices/rest/POLocator/findLocations", "@spider": "usps_collection_boxes", "addr:city": "SCHERTZ", "addr:country": "US", "addr:postcode": "78154", "addr:state": "TX", "addr:street_address": "1081 ELBEL RD", "amenity": "post_box", "collection_times": "Mo-Fr 16:30; Sa 12:00", "indoor": "yes", "note": "ON 12/24 AND 12/31, THIS BOX MAY BE COLLECTED AS EARLY AS 12 NOON.", "nsi_id": "unitedstatespostalservice-a77078", "operator": "United States Postal Service", "operator:short": "USPS", "operator:type": "public", "operator:wikidata": "Q668687", "ref": "7815400025"}, "type": "Feature"}
{"geometry": {"coordinates": [-98.261378993, 29.564880011], "type": "Point"}, "id": "q86B0X9Ht6b9iEcuBHa-nctMsSg=", "properties": {"@source_uri": "https://tools.usps.com/UspsToolsRestServices/rest/POLocator/findLocations", "@spider": "usps_collection_boxes", "addr:city": "SCHERTZ", "addr:country": "US", "addr:postcode": "78154", "addr:state": "TX", "addr:street_address": "1081 ELBEL RD", "amenity": "post_box", "collection_times": "Mo-Fr 16:30; Sa 12:00", "indoor": "yes", "note": "ON 12/24 AND 12/31, THIS BOX MAY BE COLLECTED AS EARLY AS 12 NOON.", "nsi_id": "unitedstatespostalservice-a77078", "operator": "United States Postal Service", "operator:short": "USPS", "operator:type": "public", "operator:wikidata": "Q668687", "ref": "7815400026"}, "type": "Feature"}
{"geometry": {"coordinates": [-98.261378993, 29.564880011], "type": "Point"}, "id": "6XceDZWhkWWct58KHG_PxEn908U=", "properties": {"@source_uri": "https://tools.usps.com/UspsToolsRestServices/rest/POLocator/findLocations", "@spider": "usps_collection_boxes", "addr:city": "SCHERTZ", "addr:country": "US", "addr:postcode": "78154", "addr:state": "TX", "addr:street_address": "1081 ELBEL RD", "amenity": "post_box", "collection_times": "Mo-Fr 16:30; Sa 12:00", "indoor": "yes", "note": "ON 12/24 AND 12/31, THIS BOX MAY BE COLLECTED AS EARLY AS 12 NOON.", "nsi_id": "unitedstatespostalservice-a77078", "operator": "United States Postal Service", "operator:short": "USPS", "operator:type": "public", "operator:wikidata": "Q668687", "ref": "7815400041"}, "type": "Feature"}
{"geometry": {"coordinates": [-97.967122979, 29.56858301], "type": "Point"}, "id": "sWv_QKtS7zsCJEmS6gs3cqAyw6s=", "properties": {"@source_uri": "https://tools.usps.com/UspsToolsRestServices/rest/POLocator/findLocations", "@spider": "usps_collection_boxes", "addr:city": "SEGUIN", "addr:country": "US", "addr:postcode": "78155", "addr:state": "TX", "addr:street_address": "307 W COURT ST", "amenity": "post_box", "collection_times": "Mo-Sa 15:00", "note": "ON 12/24 AND 12/31, THIS BOX MAY BE COLLECTED AS EARLY AS 12 NOON.", "nsi_id": "unitedstatespostalservice-a77078", "operator": "United States Postal Service", "operator:short": "USPS", "operator:type": "public", "operator:wikidata": "Q668687", "ref": "7815500003"}, "type": "Feature"}
{"geometry": {"coordinates": [-97.965516842, 29.569694874], "type": "Point"}, "id": "RcN7r7H89cVT_Mc6Bb98yn8XJdQ=", "properties": {"@source_uri": "https://tools.usps.com/UspsToolsRestServices/rest/POLocator/findLocations", "@spider": "usps_collection_boxes", "addr:city": "SEGUIN", "addr:country": "US", "addr:postcode": "78155", "addr:state": "TX", "addr:street_address": "200 W GONZALES ST", "amenity": "post_box", "collection_times": "Mo-Sa 09:30", "nsi_id": "unitedstatespostalservice-a77078", "operator": "United States Postal Service", "operator:short": "USPS", "operator:type": "public", "operator:wikidata": "Q668687", "ref": "7815500005"}, "type": "Feature"}
{"geometry": {"coordinates": [-97.938034003, 29.570866995], "type": "Point"}, "id": "8llb_JpksRoil3CaI2FUutSuzRc=", "properties": {"@source_uri": "https://tools.usps.com/UspsToolsRestServices/rest/POLocator/findLocations", "@spider": "usps_collection_boxes", "addr:city": "SEGUIN", "addr:country": "US", "addr:postcode": "78155", "addr:state": "TX", "addr:street_address": "1500 E COURT ST", "amenity": "post_box", "collection_times": "Mo-Sa 14:00", "note": "ON 12/24 AND 12/31, THIS BOX MAY BE COLLECTED AS EARLY AS 12 NOON.", "nsi_id": "unitedstatespostalservice-a77078", "operator": "United States Postal Service", "operator:short": "USPS", "operator:type": "public", "operator:wikidata": "Q668687", "ref": "7815500009"}, "type": "Feature"}
{"geometry": {"coordinates": [-97.943705031, 29.570547016], "type": "Point"}, "id": "PIvmj3Y2QU5tw4hVJqceC7jNhj8=", "properties": {"@source_uri": "https://tools.usps.com/UspsToolsRestServices/rest/POLocator/findLocations", "@spider": "usps_collection_boxes", "addr:city": "SEGUIN", "addr:country": "US", "addr:postcode": "78155", "addr:state": "TX", "addr:street_address": "1368 E COURT ST", "amenity": "post_box", "collection_times": "Mo-Sa 10:00", "nsi_id": "unitedstatespostalservice-a77078", "operator": "United States Postal Service", "operator:short": "USPS", "operator:type": "public", "operator:wikidata": "Q668687", "ref": "7815500010"}, "type": "Feature"}
{"geometry": {"coordinates": [-97.970220008, 29.566880017], "type": "Point"}, "id": "DK2irzbPKscO1dTv2w6poi3OvVk=", "properties": {"@source_uri": "https://tools.usps.com/UspsToolsRestServices/rest/POLocator/findLocations", "@spider": "usps_collection_boxes", "addr:city": "SEGUIN", "addr:country": "US", "addr:postcode": "78155", "addr:state": "TX", "addr:street_address": "516 JEFFERSON AVE", "amenity": "post_box", "collection_times": "Mo-Sa 08:30", "nsi_id": "unitedstatespostalservice-a77078", "operator": "United States Postal Service", "operator:short": "USPS", "operator:type": "public", "operator:wikidata": "Q668687", "ref": "7815500022"}, "type": "Feature"}
{"geometry": {"coordinates": [-97.947620972, 29.580103014], "type": "Point"}, "id": "TdQzZt7hqJ1IXY7EFAi35Zi3HRI=", "properties": {"@source_uri": "https://tools.usps.com/UspsToolsRestServices/rest/POLocator/findLocations", "@spider": "usps_collection_boxes", "addr:city": "SEGUIN", "addr:country": "US", "addr:postcode": "78155", "addr:state": "TX", "addr:street_address": "1221 E KINGSBURY ST", "amenity": "post_box", "collection_times": "Mo-Sa 10:00", "nsi_id": "unitedstatespostalservice-a77078", "operator": "United States Postal Service", "operator:short": "USPS", "operator:type": "public", "operator:wikidata": "Q668687", "ref": "7815500026"}, "type": "Feature"}
{"geometry": {"coordinates": [-97.963393032, 29.569862005], "type": "Point"}, "id": "1ACJcnCqbfjubH0jxzTKXY7APG8=", "properties": {"@source_uri": "https://tools.usps.com/UspsToolsRestServices/rest/POLocator/findLocations", "@spider": "usps_collection_boxes", "addr:city": "SEGUIN", "addr:country": "US", "addr:postcode": "78155", "addr:state": "TX", "addr:street_address": "205 N RIVER ST", "amenity": "post_box", "collection_times": "Mo-Sa 10:00", "nsi_id": "unitedstatespostalservice-a77078", "operator": "United States Postal Service", "operator:short": "USPS", "operator:type": "public", "operator:wikidata": "Q668687", "ref": "7815500034"}, "type": "Feature"}
{"geometry": {"coordinates": [-97.963509959, 29.568019998], "type": "Point"}, "id": "lxi44nDtMhS2s5oIJcefuMza-uA=", "properties": {"@source_uri": "https://tools.usps.com/UspsToolsRestServices/rest/POLocator/findLocations", "@spider": "usps_collection_boxes", "addr:city": "SEGUIN", "addr:country": "US", "addr:postcode": "78155", "addr:state": "TX", "addr:street_address": "201 S RIVER ST", "amenity": "post_box", "collection_times": "Mo-Sa 10:00", "nsi_id": "unitedstatespostalservice-a77078", "operator": "United States Postal Service", "operator:short": "USPS", "operator:type": "public", "operator:wikidata": "Q668687", "ref": "7815500035"}, "type": "Feature"}
{"geometry": {"coordinates": [-97.949421992, 29.573373981], "type": "Point"}, "id": "ImKwivNZXF8elQ6Xb0g4dUX7_Hk=", "properties": {"@source_uri": "https://tools.usps.com/UspsToolsRestServices/rest/POLocator/findLocations", "@spider": "usps_collection_boxes", "addr:city": "SEGUIN", "addr:country": "US", "addr:postcode": "78155", "addr:state": "TX", "addr:street_address": "519 N KING ST", "amenity": "post_box", "collection_times": "Mo-Sa 11:00", "nsi_id": "unitedstatespostalservice-a77078", "operator": "United States Postal Service", "operator:short": "USPS", "operator:type": "public", "operator:wikidata": "Q668687", "ref": "7815500038"}, "type": "Feature"}
{"geometry": {"coordinates": [-97.969923136, 29.568794157], "type": "Point"}, "id": "nxRbc6iN14paqhOU9EIQbiGFPqA=", "properties": {"@source_uri": "https://tools.usps.com/UspsToolsRestServices/rest/POLocator/findLocations", "@spider": "usps_collection_boxes", "addr:city": "SEGUIN", "addr:country": "US", "addr:postcode": "78155", "addr:state": "TX", "addr:street_address": "531 W COURT ST", "amenity": "post_box", "collection_times": "Mo-Fr 16:00; Sa 13:00", "note": "ON 12/24 AND 12/31, THIS BOX MAY BE COLLECTED AS EARLY AS 12 NOON.", "nsi_id": "unitedstatespostalservice-a77078", "operator": "United States Postal Service", "operator:short": "USPS", "operator:type": "public", "operator:wikidata": "Q668687", "ref": "7815500045"}, "type": "Feature"}
{"geometry": {"coordinates": [-97.969923136, 29.568794157], "type": "Point"}, "id": "Y8cfGChuwcHYxXQjGDmTihYRGnU=", "properties": {"@source_uri": "https://tools.usps.com/UspsToolsRestServices/rest/POLocator/findLocations", "@spider": "usps_collection_boxes", "addr:city": "SEGUIN", "addr:country": "US", "addr:postcode": "78155", "addr:state": "TX", "addr:street_address": "531 W COURT ST", "amenity": "post_box", "collection_times": "Mo-Fr 17:00; Sa 13:00", "indoor": "yes", "note": "ON 12/24 AND 12/31, THIS BOX MAY BE COLLECTED AS EARLY AS 12 NOON.", "nsi_id": "unitedstatespostalservice-a77078", "operator": "United States Postal Service", "operator:short": "USPS", "operator:type": "public", "operator:wikidata": "Q668687", "ref": "7815500047"}, "type": "Feature"}
{"geometry": {"coordinates": [-97.969923136, 29.568794157], "type": "Point"}, "id": "J95GpqbmBVGrY4lrXRCDt4H_eFY=", "properties": {"@source_uri": "https://tools.usps.com/UspsToolsRestServices/rest/POLocator/findLocations", "@spider": "usps_collection_boxes", "addr:city": "SEGUIN", "addr:country": "US", "addr:postcode": "78155", "addr:state": "TX", "addr:street_address": "531 W COURT ST", "amenity": "post_box", "collection_times": "Mo-Fr 17:00; Sa 13:00", "indoor": "yes", "note": "ON 12/24 AND 12/31, THIS BOX MAY BE COLLECTED AS EARLY AS 12 NOON.", "nsi_id": "unitedstatespostalservice-a77078", "operator": "United States Postal Service", "operator:short": "USPS", "operator:type": "public", "operator:wikidata": "Q668687", "ref": "7815500048"}, "type": "Feature"}
{"geometry": {"coordinates": [-97.969923136, 29.568794157], "type": "Point"}, "id": "eF7AQ5RgwPz6Cj9OSnOo1KNZMAU=", "properties": {"@source_uri": "https://tools.usps.com/UspsToolsRestServices/rest/POLocator/findLocations", "@spider": "usps_collection_boxes", "addr:city": "SEGUIN", "addr:country": "US", "addr:postcode": "78155", "addr:state": "TX", "addr:street_address": "531 W COURT ST", "amenity": "post_box", "collection_times": "Mo-Fr 17:00; Sa 13:00", "indoor": "yes", "note": "ON 12/24 AND 12/31, THIS BOX MAY BE COLLECTED AS EARLY AS 12 NOON.", "nsi_id": "unitedstatespostalservice-a77078", "operator": "United States Postal Service", "operator:short": "USPS", "operator:type": "public", "operator:wikidata": "Q668687", "ref": "7815500049"}, "type": "Feature"}
{"geometry": {"coordinates": [-97.981087871, 29.569383743], "type": "Point"}, "id": "rYaCxVWe45aNj_WXM31efB2FBgI=", "properties": {"@source_uri": "https://tools.usps.com/UspsToolsRestServices/rest/POLocator/findLocations", "@spider": "usps_collection_boxes", "addr:city": "SEGUIN", "addr:country": "US", "addr:postcode": "78155", "addr:state": "TX", "addr:street_address": "1000 W COURT ST", "amenity": "post_box", "collection_times": "Mo-Sa 08:30", "nsi_id": "unitedstatespostalservice-a77078", "operator": "United States Postal Service", "operator:short": "USPS", "operator:type": "public", "operator:wikidata": "Q668687", "ref": "7815500054"}, "type": "Feature"}
{"geometry": {"coordinates": [-97.953591988, 29.568686988], "type": "Point"}, "id": "9EXtCC3AP6jW_LXrnvG3VaGSHrI=", "properties": {"@source_uri": "https://tools.usps.com/UspsToolsRestServices/rest/POLocator/findLocations", "@spider": "usps_collection_boxes", "addr:city": "SEGUIN", "addr:country": "US", "addr:postcode": "78155", "addr:state": "TX", "addr:street_address": "933 E COURT CT", "amenity": "post_box", "collection_times": "Mo-Sa 08:30", "nsi_id": "unitedstatespostalservice-a77078", "operator": "United States Postal Service", "operator:short": "USPS", "operator:type": "public", "operator:wikidata": "Q668687", "ref": "7815500056"}, "type": "Feature"}
{"geometry": {"coordinates": [-97.944839018, 29.56550702], "type": "Point"}, "id": "qDdsA6k0tiheeVpM8dx706FYZd0=", "properties": {"@source_uri": "https://tools.usps.com/UspsToolsRestServices/rest/POLocator/findLocations", "@spider": "usps_collection_boxes", "addr:city": "SEGUIN", "addr:country": "US", "addr:postcode": "78155", "addr:state": "TX", "addr:street_address": "550 S HIGHWAY 123 BYP", "amenity": "post_box", "collection_times": "Mo-Sa 08:30", "nsi_id": "unitedstatespostalservice-a77078", "operator": "United States Postal Service", "operator:short": "USPS", "operator:type": "public", "operator:wikidata": "Q668687", "ref": "7815500057"}, "type": "Feature"}
{"geometry": {"coordinates": [-97.96590601, 29.56852002], "type": "Point"}, "id": "kqovvsUMxP7SArQ8-oorDixTnkE=", "properties": {"@source_uri": "https://tools.usps.com/UspsToolsRestServices/rest/POLocator/findLocations", "@spider": "usps_collection_boxes", "addr:city": "SEGUIN", "addr:country": "US", "addr:postcode": "78155", "addr:state": "TX", "addr:street_address": "211 W COURT ST", "amenity": "post_box", "collection_times": "Mo-Fr 15:00", "note": "ON 12/24 AND 12/31, THIS BOX MAY BE COLLECTED AS EARLY AS 12 NOON.", "nsi_id": "unitedstatespostalservice-a77078", "operator": "United States Postal Service", "operator:short": "USPS", "operator:type": "public", "operator:wikidata": "Q668687", "ref": "7815500060"}, "type": "Feature"}
{"geometry": {"coordinates": [-97.969923136, 29.568794157], "type": "Point"}, "id": "dIGbbZI1Ou4rgl9xNeaSp_rhN3g=", "properties": {"@source_uri": "https://tools.usps.com/UspsToolsRestServices/rest/POLocator/findLocations", "@spider": "usps_collection_boxes", "addr:city": "SEGUIN", "addr:country": "US", "addr:postcode": "78155", "addr:state": "TX", "addr:street_address": "531 W COURT ST", "amenity": "post_box", "collection_times": "Mo-Fr 17:00; Sa 12:00", "indoor": "yes", "note": "ON 12/24 AND 12/31, THIS BOX MAY BE COLLECTED AS EARLY AS 12 NOON.", "nsi_id": "unitedstatespostalservice-a77078", "operator": "United States Postal Service", "operator:short": "USPS", "operator:type": "public", "operator:wikidata": "Q668687", "ref": "7815500063"}, "type": "Feature"}
{"geometry": {"coordinates": [-97.63917578, 29.268953625], "type": "Point"}, "id": "IyhlssYO8E2hnJBuo82f1yMOR8U=", "properties": {"@source_uri": "https://tools.usps.com/UspsToolsRestServices/rest/POLocator/findLocations", "@spider": "usps_collection_boxes", "addr:city": "SMILEY", "addr:country": "US", "addr:postcode": "78159", "addr:state": "TX", "addr:street_address": "401 W US HIGHWAY 87", "amenity": "post_box", "collection_times": "Mo-Fr 14:25; Sa 09:30", "note": "ON 12/24 AND 12/31, THIS BOX MAY BE COLLECTED AS EARLY AS 12 NOON.", "nsi_id": "unitedstatespostalservice-a77078", "operator": "United States Postal Service", "operator:short": "USPS", "operator:type": "public", "operator:wikidata": "Q668687", "ref": "7815900001"}, "type": "Feature"}
{"geometry": {"coordinates": [-97.63917578, 29.268953625], "type": "Point"}, "id": "xwsm_z2JbpXxyzl3e1ydJ3Y_ofU=", "properties": {"@source_uri": "https://tools.usps.com/UspsToolsRestServices/rest/POLocator/findLocations", "@spider": "usps_collection_boxes", "addr:city": "SMILEY", "addr:country": "US", "addr:postcode": "78159", "addr:state": "TX", "addr:street_address": "401 W US HIGHWAY 87", "amenity": "post_box", "collection_times": "Mo-Fr 13:30; Sa 10:00", "indoor": "yes", "note": "ON 12/24 AND 12/31, THIS BOX MAY BE COLLECTED AS EARLY AS 12 NOON.", "nsi_id": "unitedstatespostalservice-a77078", "operator": "United States Postal Service", "operator:short": "USPS", "operator:type": "public", "operator:wikidata": "Q668687", "ref": "7815900002"}, "type": "Feature"}
{"geometry": {"coordinates": [-97.63917578, 29.268953625], "type": "Point"}, "id": "lusoz9yE3_OmwCuUiGe70vuQT7s=", "properties": {"@source_uri": "https://tools.usps.com/UspsToolsRestServices/rest/POLocator/findLocations", "@spider": "usps_collection_boxes", "addr:city": "SMILEY", "addr:country": "US", "addr:postcode": "78159", "addr:state": "TX", "addr:street_address": "401 W US HIGHWAY 87", "amenity": "post_box", "collection_times": "Mo-Fr 14:30; Sa 10:00", "indoor": "yes", "note": "ON 12/24 AND 12/31, THIS BOX MAY BE COLLECTED AS EARLY AS 12 NOON.", "nsi_id": "unitedstatespostalservice-a77078", "operator": "United States Postal Service", "operator:short": "USPS", "operator:type": "public", "operator:wikidata": "Q668687", "ref": "7815900005"}, "type": "Feature"}
{"geometry": {"coordinates": [-97.9576029805, 29.2319239952], "type": "Point"}, "id": "bEidA6dfU_nwexivVkpg7nZp3x8=", "properties": {"@source_uri": "https://tools.usps.com/UspsToolsRestServices/rest/POLocator/findLocations", "@spider": "usps_collection_boxes", "addr:city": "STOCKDALE", "addr:country": "US", "addr:postcode": "78160", "addr:state": "TX", "addr:street_address": "102 W SALMON ST", "amenity": "post_box", "collection_times": "Mo-Fr 16:00; Sa 09:30", "note": "ON 12/24 AND 12/31, THIS BOX MAY BE COLLECTED AS EARLY AS 12 NOON.", "nsi_id": "unitedstatespostalservice-a77078", "operator": "United States Postal Service", "operator:short": "USPS", "operator:type": "public", "operator:wikidata": "Q668687", "ref": "7816000001"}, "type": "Feature"}
{"geometry": {"coordinates": [-97.957590994, 29.231912009], "type": "Point"}, "id": "eDwDDQE3Vx2GBL0pi85BHwgHKeg=", "properties": {"@source_uri": "https://tools.usps.com/UspsToolsRestServices/rest/POLocator/findLocations", "@spider": "usps_collection_boxes", "addr:city": "STOCKDALE", "addr:country": "US", "addr:postcode": "78160", "addr:state": "TX", "addr:street_address": "102 W SALMON ST", "amenity": "post_box", "collection_times": "Mo-Fr 16:00; Sa 09:30", "indoor": "yes", "note": "ON 12/24 AND 12/31, THIS BOX MAY BE COLLECTED AS EARLY AS 12 NOON.", "nsi_id": "unitedstatespostalservice-a77078", "operator": "United States Postal Service", "operator:short": "USPS", "operator:type": "public", "operator:wikidata": "Q668687", "ref": "7816000004"}, "type": "Feature"}
{"geometry": {"coordinates": [-97.957590994, 29.231912009], "type": "Point"}, "id": "86N9YoJQKUBGFXXqny2LX3UlbZg=", "properties": {"@source_uri": "https://tools.usps.com/UspsToolsRestServices/rest/POLocator/findLocations", "@spider": "usps_collection_boxes", "addr:city": "STOCKDALE", "addr:country": "US", "addr:postcode": "78160", "addr:state": "TX", "addr:street_address": "102 W SALMON ST", "amenity": "post_box", "collection_times": "Mo-Fr 16:30", "indoor": "yes", "note": "ON 12/24 AND 12/31, THIS BOX MAY BE COLLECTED AS EARLY AS 12 NOON.", "nsi_id": "unitedstatespostalservice-a77078", "operator": "United States Postal Service", "operator:short": "USPS", "operator:type": "public", "operator:wikidata": "Q668687", "ref": "7816000006"}, "type": "Feature"}
{"geometry": {"coordinates": [-98.053383247, 29.272372351], "type": "Point"}, "id": "rH5u4cp_UPFHupv-Q8iAjcvx5XY=", "properties": {"@source_uri": "https://tools.usps.com/UspsToolsRestServices/rest/POLocator/findLocations", "@spider": "usps_collection_boxes", "addr:city": "SUTHERLAND SPRGS", "addr:country": "US", "addr:postcode": "78161", "addr:state": "TX", "addr:street_address": "6230 US HIGHWAY 87 W", "amenity": "post_box", "collection_times": "Mo-Fr 15:00; Sa 11:30", "note": "ON 12/24 AND 12/31, THIS BOX MAY BE COLLECTED AS EARLY AS 12 NOON.", "nsi_id": "unitedstatespostalservice-a77078", "operator": "United States Postal Service", "operator:short": "USPS", "operator:type": "public", "operator:wikidata": "Q668687", "ref": "7816100001"}, "type": "Feature"}
{"geometry": {"coordinates": [-98.053383247, 29.272372351], "type": "Point"}, "id": "mMgF0EuxDmF4ZdNN4IF8gE6wb0I=", "properties": {"@source_uri": "https://tools.usps.com/UspsToolsRestServices/rest/POLocator/findLocations", "@spider": "usps_collection_boxes", "addr:city": "SUTHERLAND SPRGS", "addr:country": "US", "addr:postcode": "78161", "addr:state": "TX", "addr:street_address": "6230 US HIGHWAY 87 W", "amenity": "post_box", "collection_times": "Mo-Fr 15:00; Sa 11:30", "indoor": "yes", "note": "ON 12/24 AND 12/31, THIS BOX MAY BE COLLECTED AS EARLY AS 12 NOON.", "nsi_id": "unitedstatespostalservice-a77078", "operator": "United States Postal Service", "operator:short": "USPS", "operator:type": "public", "operator:wikidata": "Q668687", "ref": "7816100003"}, "type": "Feature"}
{"geometry": {"coordinates": [-98.053383247, 29.272372351], "type": "Point"}, "id": "gWfHbN65ES2kD2waHpAazVRZoO0=", "properties": {"@source_uri": "https://tools.usps.com/UspsToolsRestServices/rest/POLocator/findLocations", "@spider": "usps_collection_boxes", "addr:city": "SUTHERLAND SPRGS", "addr:country": "US", "addr:postcode": "78161", "addr:state": "TX", "addr:street_address": "6230 US HIGHWAY 87 W", "amenity": "post_box", "collection_times": "Mo-Fr 15:30; Sa 12:00", "indoor": "yes", "note": "ON 12/24 AND 12/31, THIS BOX MAY BE COLLECTED AS EARLY AS 12 NOON.", "nsi_id": "unitedstatespostalservice-a77078", "operator": "United States Postal Service", "operator:short": "USPS", "operator:type": "public", "operator:wikidata": "Q668687", "ref": "7816100005"}, "type": "Feature"}
{"geometry": {"coordinates": [-97.799424357, 28.57096223], "type": "Point"}, "id": "dYigzd-jvjdHj5VxUV-mXUQJ0zI=", "properties": {"@source_uri": "https://tools.usps.com/UspsToolsRestServices/rest/POLocator/findLocations", "@spider": "usps_collection_boxes", "addr:city": "TULETA", "addr:country": "US", "addr:postcode": "78162", "addr:state": "TX", "addr:street_address": "123 MAIN ST", "amenity": "post_box", "collection_times": "Mo-Fr 11:45; Sa 08:45", "nsi_id": "unitedstatespostalservice-a77078", "operator": "United States Postal Service", "operator:short": "USPS", "operator:type": "public", "operator:wikidata": "Q668687", "ref": "7816200000"}, "type": "Feature"}
{"geometry": {"coordinates": [-97.799424357, 28.57096223], "type": "Point"}, "id": "S6QBeqatCY7c9yVa1MD2C6WFFMM=", "properties": {"@source_uri": "https://tools.usps.com/UspsToolsRestServices/rest/POLocator/findLocations", "@spider": "usps_collection_boxes", "addr:city": "TULETA", "addr:country": "US", "addr:postcode": "78162", "addr:state": "TX", "addr:street_address": "123 MAIN ST", "amenity": "post_box", "collection_times": "Mo-Fr 11:30; Sa 08:15", "indoor": "yes", "nsi_id": "unitedstatespostalservice-a77078", "operator": "United States Postal Service", "operator:short": "USPS", "operator:type": "public", "operator:wikidata": "Q668687", "ref": "7816200001"}, "type": "Feature"}
{"geometry": {"coordinates": [-97.799424357, 28.57096223], "type": "Point"}, "id": "IxqCTcYm8dux-SucGjS_F0wqt7A=", "properties": {"@source_uri": "https://tools.usps.com/UspsToolsRestServices/rest/POLocator/findLocations", "@spider": "usps_collection_boxes", "addr:city": "TULETA", "addr:country": "US", "addr:postcode": "78162", "addr:state": "TX", "addr:street_address": "123 MAIN ST", "amenity": "post_box", "collection_times": "Mo-Fr 11:30; Sa 08:15", "indoor": "yes", "nsi_id": "unitedstatespostalservice-a77078", "operator": "United States Postal Service", "operator:short": "USPS", "operator:type": "public", "operator:wikidata": "Q668687", "ref": "7816200002"}, "type": "Feature"}
{"geometry": {"coordinates": [-97.799424357, 28.57096223], "type": "Point"}, "id": "NN55oM6-IdGoSogquiUtR10eOP8=", "properties": {"@source_uri": "https://tools.usps.com/UspsToolsRestServices/rest/POLocator/findLocations", "@spider": "usps_collection_boxes", "addr:city": "TULETA", "addr:country": "US", "addr:postcode": "78162", "addr:state": "TX", "addr:street_address": "123 MAIN ST", "amenity": "post_box", "collection_times": "Mo-Fr 12:00; Sa 08:15", "indoor": "yes", "nsi_id": "unitedstatespostalservice-a77078", "operator": "United States Postal Service", "operator:short": "USPS", "operator:type": "public", "operator:wikidata": "Q668687", "ref": "7816200004"}, "type": "Feature"}
{"geometry": {"coordinates": [-98.453736966, 29.743387014], "type": "Point"}, "id": "0BzUxhxvGFuOIGmVUqPeIryRZag=", "properties": {"@source_uri": "https://tools.usps.com/UspsToolsRestServices/rest/POLocator/findLocations", "@spider": "usps_collection_boxes", "addr:city": "BULVERDE", "addr:country": "US", "addr:postcode": "78163", "addr:state": "TX", "addr:street_address": "30131 BULVERDE LN", "amenity": "post_box", "collection_times": "Mo-Fr 15:45; Sa 12:00", "note": "ON 12/24 AND 12/31, THIS BOX MAY BE COLLECTED AS EARLY AS 12 NOON.", "nsi_id": "unitedstatespostalservice-a77078", "operator": "United States Postal Service", "operator:short": "USPS", "operator:type": "public", "operator:wikidata": "Q668687", "ref": "7816300003"}, "type": "Feature"}
{"geometry": {"coordinates": [-97.503780004, 28.980710017], "type": "Point"}, "id": "mHFwv2Ehm904g6FfeHzTlk5hwIM=", "properties": {"@source_uri": "https://tools.usps.com/UspsToolsRestServices/rest/POLocator/findLocations", "@spider": "usps_collection_boxes", "addr:city": "YORKTOWN", "addr:country": "US", "addr:postcode": "78164", "addr:state": "TX", "addr:street_address": "124 W MAIN ST", "amenity": "post_box", "collection_times": "Mo-Fr 16:00; Sa 08:30", "note": "ON 12/24 AND 12/31, THIS BOX MAY BE COLLECTED AS EARLY AS 12 NOON.", "nsi_id": "unitedstatespostalservice-a77078", "operator": "United States Postal Service", "operator:short": "USPS", "operator:type": "public", "operator:wikidata": "Q668687", "ref": "7816400002"}, "type": "Feature"}
{"geometry": {"coordinates": [-97.4984061, 28.9840508], "type": "Point"}, "id": "cpt4nh7WF-ABg9XWg6LvYenIfq4=", "properties": {"@source_uri": "https://tools.usps.com/UspsToolsRestServices/rest/POLocator/findLocations", "@spider": "usps_collection_boxes", "addr:city": "YORKTOWN", "addr:country": "US", "addr:postcode": "78164", "addr:state": "TX", "addr:street_address": "124 W MAIN ST", "amenity": "post_box", "collection_times": "Mo-Fr 16:30; Sa 08:30", "indoor": "yes", "note": "ON 12/24 AND 12/31, THIS BOX MAY BE COLLECTED AS EARLY AS 12 NOON.", "nsi_id": "unitedstatespostalservice-a77078", "operator": "United States Postal Service", "operator:short": "USPS", "operator:type": "public", "operator:wikidata": "Q668687", "ref": "7816400006"}, "type": "Feature"}
{"geometry": {"coordinates": [-97.4984061, 28.9840508], "type": "Point"}, "id": "XcUGSIY5hb4zX413ttzu1hzdu0w=", "properties": {"@source_uri": "https://tools.usps.com/UspsToolsRestServices/rest/POLocator/findLocations", "@spider": "usps_collection_boxes", "addr:city": "YORKTOWN", "addr:country": "US", "addr:postcode": "78164", "addr:state": "TX", "addr:street_address": "124 W MAIN ST", "amenity": "post_box", "collection_times": "Mo-Fr 16:30", "indoor": "yes", "note": "ON 12/24 AND 12/31, THIS BOX MAY BE COLLECTED AS EARLY AS 12 NOON.", "nsi_id": "unitedstatespostalservice-a77078", "operator": "United States Postal Service", "operator:short": "USPS", "operator:type": "public", "operator:wikidata": "Q668687", "ref": "7816400009"}, "type": "Feature"}
