{"geometry": {"coordinates": [-98.5348926, 29.482985867], "type": "Point"}, "id": "N2EHIZ0SBansV60r435f2Y9_cNY=", "properties": {"@spider": "usps_collection_boxes", "addr:city": "SAN ANTONIO", "addr:country": "US", "addr:full": "1064 VANCE JACKSON RD", "addr:postcode": "78201", "addr:state": "TX", "brand": "USPS", "collection_times": "Mo-Fr 17:00; Sa 16:15", "name": "USPS COLLECTION BOX - BLUE BOX", "note": "ON 12/24 AND 12/31, THIS BOX MAY BE COLLECTED AS EARLY AS 12 NOON.", "ref": "7820100032"}, "type": "Feature"}
{"geometry": {"coordinates": [-98.527999035, 29.484090996], "type": "Point"}, "id": "6xzYPlllbUc55w6CKsQjCSZCFtI=", "properties": {"@spider": "usps_collection_boxes", "addr:city": "SAN ANTONIO", "addr:country": "US", "addr:full": "5707 W IH 10", "addr:postcode": "78201", "addr:state": "TX", "brand": "USPS", "collection_times": "Mo-Fr 15:30", "name": "USPS COLLECTION BOX - BLUE BOX", "note": "ON 12/24 AND 12/31, THIS BOX MAY BE COLLECTED AS EARLY AS 12 NOON.", "ref": "7820100033"}, "type": "Feature"}
{"geometry": {"coordinates": [-98.508846973, 29.442792982], "type": "Point"}, "id": "j_Evw3a_HcnPJ_loVFkoOUqcMBE=", "properties": {"@spider": "usps_collection_boxes", "addr:city": "SAN ANTONIO", "addr:country": "US", "addr:full": "1606 N COLORADO ST", "addr:postcode": "78201", "addr:state": "TX", "brand": "USPS", "collection_times": "Mo-Fr 15:15", "name": "USPS COLLECTION BOX - BLUE BOX", "note": "ON 12/24 AND 12/31, THIS BOX MAY BE COLLECTED AS EARLY AS 12 NOON.", "ref": "7820100038"}, "type": "Feature"}
{"geometry": {"coordinates": [-98.525755032, 29.465606007], "type": "Point"}, "id": "ULdisweTd-3AlpoG2p4pU2MERdU=", "properties": {"@spider": "usps_collection_boxes", "addr:city": "SAN ANTONIO", "addr:country": "US", "addr:full": "2118 FREDERICKSBURG RD", "addr:postcode": "78201", "addr:state": "TX", "brand": "USPS", "collection_times": "Mo-Fr 13:15; Sa 15:45", "name": "USPS COLLECTION BOX - BLUE BOX", "note": "ON 12/24 AND 12/31, THIS BOX MAY BE COLLECTED AS EARLY AS 12 NOON.", "ref": "7820100040"}, "type": "Feature"}
{"geometry": {"coordinates": [-98.516621021, 29.465802018], "type": "Point"}, "id": "u_-Tx5tP2q27RPraRp4KNBkKQJY=", "properties": {"@spider": "usps_collection_boxes", "addr:city": "SAN ANTONIO", "addr:country": "US", "addr:full": "1300 W HILDEBRAND AVE", "addr:postcode": "78201", "addr:state": "TX", "brand": "USPS", "collection_times": "Mo-Fr 15:30", "name": "USPS COLLECTION BOX - BLUE BOX", "note": "ON 12/24 AND 12/31, THIS BOX MAY BE COLLECTED AS EARLY AS 12 NOON.", "ref": "7820100041"}, "type": "Feature"}
{"geometry": {"coordinates": [-98.542729979, 29.48727], "type": "Point"}, "id": "Hm88prWb3x0C0EymbdFbcbE7x8g=", "properties": {"@spider": "usps_collection_boxes", "addr:city": "SAN ANTONIO", "addr:country": "US", "addr:full": "6243 W IH 10", "addr:postcode": "78201", "addr:state": "TX", "brand": "USPS", "collection_times": "Mo-Fr 16:15", "name": "USPS COLLECTION BOX - BLUE BOX", "note": "ON 12/24 AND 12/31, THIS BOX MAY BE COLLECTED AS EARLY AS 12 NOON.", "ref": "7820100043"}, "type": "Feature"}
{"geometry": {"coordinates": [-98.547996999, 29.488428002], "type": "Point"}, "id": "k7db2wNWy9cbzW1jX2v5HCTM96E=", "properties": {"@spider": "usps_collection_boxes", "addr:city": "SAN ANTONIO", "addr:country": "US", "addr:full": "4400 FREDERICKSBURG RD", "addr:postcode": "78201", "addr:state": "TX", "brand": "USPS", "collection_times": "Mo-Fr 13:15; Sa 16:00", "name": "USPS COLLECTION BOX - BLUE BOX", "note": "ON 12/24 AND 12/31, THIS BOX MAY BE COLLECTED AS EARLY AS 12 NOON.", "ref": "7820100047"}, "type": "Feature"}
{"geometry": {"coordinates": [-98.537796977, 29.485720983], "type": "Point"}, "id": "szRgDvF93xgIpN90K1loniqNZ4g=", "properties": {"@spider": "usps_collection_boxes", "addr:city": "SAN ANTONIO", "addr:country": "US", "addr:full": "6061 W IH 10", "addr:postcode": "78201", "addr:state": "TX", "brand": "USPS", "collection_times": "Mo-Fr 15:45", "name": "USPS COLLECTION BOX - BLUE BOX", "note": "ON 12/24 AND 12/31, THIS BOX MAY BE COLLECTED AS EARLY AS 12 NOON.", "ref": "7820100049"}, "type": "Feature"}
{"geometry": {"coordinates": [-98.531597973, 29.470706982], "type": "Point"}, "id": "EI2ksNbyXpZxTrom2pZ4guvKSJA=", "properties": {"@spider": "usps_collection_boxes", "addr:city": "SAN ANTONIO", "addr:country": "US", "addr:full": "2900 FREDERICKSBURG RD", "addr:postcode": "78201", "addr:state": "TX", "brand": "USPS", "collection_times": "Mo-Fr 13:15", "name": "USPS COLLECTION BOX - BLUE BOX", "note": "ON 12/24 AND 12/31, THIS BOX MAY BE COLLECTED AS EARLY AS 12 NOON.", "ref": "7820100057"}, "type": "Feature"}
{"geometry": {"coordinates": [-98.5348926, 29.482985867], "type": "Point"}, "id": "YE9I0dLEJuqP--Q9sndoqmB2NVM=", "properties": {"@spider": "usps_collection_boxes", "addr:city": "SAN ANTONIO", "addr:country": "US", "addr:full": "1064 VANCE JACKSON RD", "addr:postcode": "78201", "addr:state": "TX", "brand": "USPS", "collection_times": "Mo-Fr 17:00; Sa 15:45", "name": "USPS COLLECTION BOX - PO LOBBY", "note": "ON 12/24 AND 12/31, THIS BOX MAY BE COLLECTED AS EARLY AS 12 NOON.", "ref": "7820100082"}, "type": "Feature"}
{"geometry": {"coordinates": [-98.542729979, 29.48727], "type": "Point"}, "id": "uV0_vTEiukrF-VLRuvFvxJnHpb8=", "properties": {"@spider": "usps_collection_boxes", "addr:city": "SAN ANTONIO", "addr:country": "US", "addr:full": "6243 W IH 10", "addr:postcode": "78201", "addr:state": "TX", "brand": "USPS", "collection_times": "Mo-Fr 16:15", "name": "USPS COLLECTION BOX - BLUE BOX", "note": "ON 12/24 AND 12/31, THIS BOX MAY BE COLLECTED AS EARLY AS 12 NOON.", "ref": "7820100088"}, "type": "Feature"}
{"geometry": {"coordinates": [-98.5348926, 29.482985867], "type": "Point"}, "id": "nZ09RBbmCyxR35yxmX3J-4h2UxU=", "properties": {"@spider": "usps_collection_boxes", "addr:city": "SAN ANTONIO", "addr:country": "US", "addr:full": "1064 VANCE JACKSON RD", "addr:postcode": "78201", "addr:state": "TX", "brand": "USPS", "collection_times": "Mo-Fr 17:30; Sa 13:00", "name": "USPS COLLECTION BOX - PO LOBBY", "note": "ON 12/24 AND 12/31, THIS BOX MAY BE COLLECTED AS EARLY AS 12 NOON.", "ref": "7820100090"}, "type": "Feature"}
{"geometry": {"coordinates": [-98.462666962, 29.424699009], "type": "Point"}, "id": "8LrJitX_qtAQ-3ojIPwlsqHE_v4=", "properties": {"@spider": "usps_collection_boxes", "addr:city": "SAN ANTONIO", "addr:country": "US", "addr:full": "415 N NEW BRAUNFELS AVE", "addr:postcode": "78202", "addr:state": "TX", "brand": "USPS", "collection_times": "Mo-Fr 13:00", "name": "USPS COLLECTION BOX - BLUE BOX", "note": "ON 12/24 AND 12/31, THIS BOX MAY BE COLLECTED AS EARLY AS 12 NOON.", "ref": "7820200024"}, "type": "Feature"}
{"geometry": {"coordinates": [-98.465186125, 29.425138788], "type": "Point"}, "id": "v4oY4NUylVhdHTYqTdj_lWL_D8w=", "properties": {"@spider": "usps_collection_boxes", "addr:city": "SAN ANTONIO", "addr:country": "US", "addr:full": "2011 E HOUSTON ST", "addr:postcode": "78202", "addr:state": "TX", "brand": "USPS", "collection_times": "Mo-Fr 13:00", "name": "USPS COLLECTION BOX - BLUE BOX", "note": "ON 12/24 AND 12/31, THIS BOX MAY BE COLLECTED AS EARLY AS 12 NOON.", "ref": "7820200025"}, "type": "Feature"}
{"geometry": {"coordinates": [-98.503312989, 29.413806013], "type": "Point"}, "id": "x55ThAKfyyRrs88daRdW36MVAco=", "properties": {"@spider": "usps_collection_boxes", "addr:city": "SAN ANTONIO", "addr:country": "US", "addr:full": "1140 S LAREDO ST", "addr:postcode": "78204", "addr:state": "TX", "brand": "USPS", "collection_times": "Mo-Fr 17:45; Sa 17:00", "name": "USPS COLLECTION BOX - BLUE BOX", "note": "ON 12/24 AND 12/31, THIS BOX MAY BE COLLECTED AS EARLY AS 12 NOON.", "ref": "7820400025"}, "type": "Feature"}
{"geometry": {"coordinates": [-98.503312989, 29.413806013], "type": "Point"}, "id": "V0eELBJTf0vJUS47FR0q3ybAf3c=", "properties": {"@spider": "usps_collection_boxes", "addr:city": "SAN ANTONIO", "addr:country": "US", "addr:full": "1140 S LAREDO ST", "addr:postcode": "78204", "addr:state": "TX", "brand": "USPS", "collection_times": "Mo-Fr 17:45; Sa 17:00", "name": "USPS COLLECTION BOX - PO LOBBY", "note": "ON 12/24 AND 12/31, THIS BOX MAY BE COLLECTED AS EARLY AS 12 NOON.", "ref": "7820400033"}, "type": "Feature"}
{"geometry": {"coordinates": [-98.503312989, 29.413806013], "type": "Point"}, "id": "shE5b_28xdAYfWlMmLXFS6aVMww=", "properties": {"@spider": "usps_collection_boxes", "addr:city": "SAN ANTONIO", "addr:country": "US", "addr:full": "1140 S LAREDO ST", "addr:postcode": "78204", "addr:state": "TX", "brand": "USPS", "collection_times": "Mo-Fr 17:45; Sa 17:00", "name": "USPS COLLECTION BOX - PO LOBBY", "note": "ON 12/24 AND 12/31, THIS BOX MAY BE COLLECTED AS EARLY AS 12 NOON.", "ref": "7820400036"}, "type": "Feature"}
{"geometry": {"coordinates": [-98.503312989, 29.413806013], "type": "Point"}, "id": "sBtqh-9T31DAdKsZVmWkNG9WDMQ=", "properties": {"@spider": "usps_collection_boxes", "addr:city": "SAN ANTONIO", "addr:country": "US", "addr:full": "1140 S LAREDO ST", "addr:postcode": "78204", "addr:state": "TX", "brand": "USPS", "collection_times": "Mo-Fr 17:45; Sa 17:00", "name": "USPS COLLECTION BOX - BLUE BOX", "note": "ON 12/24 AND 12/31, THIS BOX MAY BE COLLECTED AS EARLY AS 12 NOON.", "ref": "7820400040"}, "type": "Feature"}
{"geometry": {"coordinates": [-98.503312989, 29.413806013], "type": "Point"}, "id": "jGfWpH7PrntfSb_VVeyV6H-R_o4=", "properties": {"@spider": "usps_collection_boxes", "addr:city": "SAN ANTONIO", "addr:country": "US", "addr:full": "1140 S LAREDO ST", "addr:postcode": "78204", "addr:state": "TX", "brand": "USPS", "collection_times": "Mo-Fr 17:00; Sa 12:00", "name": "USPS COLLECTION BOX - PO LOBBY", "note": "ON 12/24 AND 12/31, THIS BOX MAY BE COLLECTED AS EARLY AS 12 NOON.", "ref": "7820400041"}, "type": "Feature"}
{"geometry": {"coordinates": [-98.486199993, 29.426887985], "type": "Point"}, "id": "9Rc3iFY36n-nlZAbpuA0b81kQI4=", "properties": {"@spider": "usps_collection_boxes", "addr:city": "SAN ANTONIO", "addr:country": "US", "addr:full": "615 E HOUSTON ST", "addr:postcode": "78205", "addr:state": "TX", "brand": "USPS", "collection_times": "Mo-Fr 16:45; Sa 14:30", "name": "USPS COLLECTION BOX - BLUE BOX", "note": "ON 12/24 AND 12/31, THIS BOX MAY BE COLLECTED AS EARLY AS 12 NOON.", "ref": "7820500000"}, "type": "Feature"}
{"geometry": {"coordinates": [-98.49229196, 29.433867009], "type": "Point"}, "id": "FYyo4fQ2C7lNH2bFPSot0pB1EC4=", "properties": {"@spider": "usps_collection_boxes", "addr:city": "SAN ANTONIO", "addr:country": "US", "addr:full": "111 DALLAS ST", "addr:postcode": "78205", "addr:state": "TX", "brand": "USPS", "collection_times": "Mo-Fr 14:00", "name": "USPS COLLECTION BOX - BLUE BOX", "note": "ON 12/24 AND 12/31, THIS BOX MAY BE COLLECTED AS EARLY AS 12 NOON.", "ref": "7820500067"}, "type": "Feature"}
{"geometry": {"coordinates": [-98.491169959, 29.426115006], "type": "Point"}, "id": "OsDZrNfSqYypi-0SB4EixyKdKp8=", "properties": {"@spider": "usps_collection_boxes", "addr:city": "SAN ANTONIO", "addr:country": "US", "addr:full": "226 N SAINT MARYS ST", "addr:postcode": "78205", "addr:state": "TX", "brand": "USPS", "collection_times": "Mo-Fr 13:00", "name": "USPS COLLECTION BOX - BLUE BOX", "note": "ON 12/24 AND 12/31, THIS BOX MAY BE COLLECTED AS EARLY AS 12 NOON.", "ref": "7820500075"}, "type": "Feature"}
{"geometry": {"coordinates": [-98.49747097, 29.426737991], "type": "Point"}, "id": "6tKRv6x9ZsiNKrhqH4QQyEPy2kw=", "properties": {"@spider": "usps_collection_boxes", "addr:city": "SAN ANTONIO", "addr:country": "US", "addr:full": "343 W HOUSTON ST", "addr:postcode": "78205", "addr:state": "TX", "brand": "USPS", "collection_times": "Mo-Fr 15:15", "name": "USPS COLLECTION BOX - BLUE BOX", "note": "ON 12/24 AND 12/31, THIS BOX MAY BE COLLECTED AS EARLY AS 12 NOON.", "ref": "7820500085"}, "type": "Feature"}
{"geometry": {"coordinates": [-98.493867004, 29.434669995], "type": "Point"}, "id": "F--QQkjYUu-xBmVFDAkxY78rZJ8=", "properties": {"@spider": "usps_collection_boxes", "addr:city": "SAN ANTONIO", "addr:country": "US", "addr:full": "730 N MAIN AVE", "addr:postcode": "78205", "addr:state": "TX", "brand": "USPS", "collection_times": "Mo-Fr 13:45", "name": "USPS COLLECTION BOX - BLUE BOX", "note": "ON 12/24 AND 12/31, THIS BOX MAY BE COLLECTED AS EARLY AS 12 NOON.", "ref": "7820500095"}, "type": "Feature"}
{"geometry": {"coordinates": [-98.489519981, 29.428944988], "type": "Point"}, "id": "ggbrQv4-S4ZuI0yMwiyxOKe47j4=", "properties": {"@spider": "usps_collection_boxes", "addr:city": "SAN ANTONIO", "addr:country": "US", "addr:full": "800 NAVARRO ST", "addr:postcode": "78205", "addr:state": "TX", "brand": "USPS", "collection_times": "Mo-Fr 13:30", "name": "USPS COLLECTION BOX - BLUE BOX", "note": "ON 12/24 AND 12/31, THIS BOX MAY BE COLLECTED AS EARLY AS 12 NOON.", "ref": "7820500102"}, "type": "Feature"}
{"geometry": {"coordinates": [-98.487474964, 29.425770007], "type": "Point"}, "id": "DkQJ-tl1icC6o0vOPRV8NAWu2E4=", "properties": {"@spider": "usps_collection_boxes", "addr:city": "SAN ANTONIO", "addr:country": "US", "addr:full": "126 LOSOYA ST", "addr:postcode": "78205", "addr:state": "TX", "brand": "USPS", "collection_times": "Mo-Fr 14:15", "name": "USPS COLLECTION BOX - BLUE BOX", "note": "ON 12/24 AND 12/31, THIS BOX MAY BE COLLECTED AS EARLY AS 12 NOON.", "ref": "7820500103"}, "type": "Feature"}
{"geometry": {"coordinates": [-98.486974984, 29.429474012], "type": "Point"}, "id": "uidg8tR5rXwjKAl9FYmHxXwUMhk=", "properties": {"@spider": "usps_collection_boxes", "addr:city": "SAN ANTONIO", "addr:country": "US", "addr:full": "301 BROADWAY ST", "addr:postcode": "78205", "addr:state": "TX", "brand": "USPS", "collection_times": "Mo-Fr 13:45", "name": "USPS COLLECTION BOX - BLUE BOX", "note": "ON 12/24 AND 12/31, THIS BOX MAY BE COLLECTED AS EARLY AS 12 NOON.", "ref": "7820500107"}, "type": "Feature"}
{"geometry": {"coordinates": [-98.487516036, 29.427310014], "type": "Point"}, "id": "vCV78PL3efWaHwAxAE1es1Y7emg=", "properties": {"@spider": "usps_collection_boxes", "addr:city": "SAN ANTONIO", "addr:country": "US", "addr:full": "118 BROADWAY ST", "addr:postcode": "78205", "addr:state": "TX", "brand": "USPS", "collection_times": "Mo-Fr 13:15; Sa 13:00", "name": "USPS COLLECTION BOX - BLUE BOX", "note": "ON 12/24 AND 12/31, THIS BOX MAY BE COLLECTED AS EARLY AS 12 NOON.", "ref": "7820500123"}, "type": "Feature"}
{"geometry": {"coordinates": [-98.486835006, 29.42327002], "type": "Point"}, "id": "62Ct_1YKgh7wQPKxxiekT_fUkSo=", "properties": {"@spider": "usps_collection_boxes", "addr:city": "SAN ANTONIO", "addr:country": "US", "addr:full": "602 E COMMERCE ST", "addr:postcode": "78205", "addr:state": "TX", "brand": "USPS", "collection_times": "Mo-Fr 14:45", "name": "USPS COLLECTION BOX - BLUE BOX", "note": "ON 12/24 AND 12/31, THIS BOX MAY BE COLLECTED AS EARLY AS 12 NOON.", "ref": "7820500161"}, "type": "Feature"}
{"geometry": {"coordinates": [-98.490834012, 29.432021985], "type": "Point"}, "id": "wkGPazq-dVhDDFh0y4G7mdo187k=", "properties": {"@spider": "usps_collection_boxes", "addr:city": "SAN ANTONIO", "addr:country": "US", "addr:full": "815 N SAINT MARYS ST", "addr:postcode": "78205", "addr:state": "TX", "brand": "USPS", "collection_times": "Mo-Fr 14:00", "name": "USPS COLLECTION BOX - BLUE BOX", "note": "ON 12/24 AND 12/31, THIS BOX MAY BE COLLECTED AS EARLY AS 12 NOON.", "ref": "7820500208"}, "type": "Feature"}
{"geometry": {"coordinates": [-98.489824998, 29.424735009], "type": "Point"}, "id": "O-RCMGLVGhNJygFWcb_c50c5mSM=", "properties": {"@spider": "usps_collection_boxes", "addr:city": "SAN ANTONIO", "addr:country": "US", "addr:full": "245 E COMMERCE ST", "addr:postcode": "78205", "addr:state": "TX", "brand": "USPS", "collection_times": "Mo-Fr 14:45", "name": "USPS COLLECTION BOX - BLUE BOX", "note": "ON 12/24 AND 12/31, THIS BOX MAY BE COLLECTED AS EARLY AS 12 NOON.", "ref": "7820500228"}, "type": "Feature"}
{"geometry": {"coordinates": [-98.486199993, 29.426887985], "type": "Point"}, "id": "UCwbdzDeiEROC0I_P_uYt4gQJDE=", "properties": {"@spider": "usps_collection_boxes", "addr:city": "SAN ANTONIO", "addr:country": "US", "addr:full": "615 E HOUSTON ST", "addr:postcode": "78205", "addr:state": "TX", "brand": "USPS", "collection_times": "Mo-Fr 17:00", "name": "USPS COLLECTION BOX - PO LOBBY", "note": "ON 12/24 AND 12/31, THIS BOX MAY BE COLLECTED AS EARLY AS 12 NOON.", "ref": "7820500229"}, "type": "Feature"}
{"geometry": {"coordinates": [-98.489843665, 29.418719413], "type": "Point"}, "id": "jrIsQuBQU96NHNbBf4FAcnKE6P0=", "properties": {"@spider": "usps_collection_boxes", "addr:city": "SAN ANTONIO", "addr:country": "US", "addr:full": "423 S PRESA ST", "addr:postcode": "78205", "addr:state": "TX", "brand": "USPS", "collection_times": "Mo-Fr 13:15", "name": "USPS COLLECTION BOX - BLUE BOX", "note": "ON 12/24 AND 12/31, THIS BOX MAY BE COLLECTED AS EARLY AS 12 NOON.", "ref": "7820500231"}, "type": "Feature"}
{"geometry": {"coordinates": [-98.493103999, 29.432004005], "type": "Point"}, "id": "1jnEwWDHslIXd8Zv8g9ivzctmK4=", "properties": {"@spider": "usps_collection_boxes", "addr:city": "SAN ANTONIO", "addr:country": "US", "addr:full": "600 SOLEDAD ST", "addr:postcode": "78205", "addr:state": "TX", "brand": "USPS", "collection_times": "Mo-Fr 13:45", "name": "USPS COLLECTION BOX - BLUE BOX", "note": "ON 12/24 AND 12/31, THIS BOX MAY BE COLLECTED AS EARLY AS 12 NOON.", "ref": "7820500232"}, "type": "Feature"}
{"geometry": {"coordinates": [-98.486199993, 29.426887985], "type": "Point"}, "id": "So5TNFvRUGuC-o-_0ikjUv41mZU=", "properties": {"@spider": "usps_collection_boxes", "addr:city": "SAN ANTONIO", "addr:country": "US", "addr:full": "615 E HOUSTON ST", "addr:postcode": "78205", "addr:state": "TX", "brand": "USPS", "collection_times": "Mo-Fr 17:00", "name": "USPS COLLECTION BOX - PO LOBBY", "note": "ON 12/24 AND 12/31, THIS BOX MAY BE COLLECTED AS EARLY AS 12 NOON.", "ref": "7820500243"}, "type": "Feature"}
{"geometry": {"coordinates": [-98.486199993, 29.426887985], "type": "Point"}, "id": "k3O37xztYeOQ6MelRvzGt1S0oYs=", "properties": {"@spider": "usps_collection_boxes", "addr:city": "SAN ANTONIO", "addr:country": "US", "addr:full": "615 E HOUSTON ST", "addr:postcode": "78205", "addr:state": "TX", "brand": "USPS", "collection_times": "Mo-Fr 17:00", "name": "USPS COLLECTION BOX - PO LOBBY", "note": "ON 12/24 AND 12/31, THIS BOX MAY BE COLLECTED AS EARLY AS 12 NOON.", "ref": "7820500253"}, "type": "Feature"}
{"geometry": {"coordinates": [-98.543560039, 29.42613001], "type": "Point"}, "id": "NEDuHce7i9cpCOh64C4XBMzzeUY=", "properties": {"@spider": "usps_collection_boxes", "addr:city": "SAN ANTONIO", "addr:country": "US", "addr:full": "411 SW 24TH ST", "addr:postcode": "78207", "addr:state": "TX", "brand": "USPS", "collection_times": "Mo-Fr 14:45", "name": "USPS COLLECTION BOX - BLUE BOX", "note": "ON 12/24 AND 12/31, THIS BOX MAY BE COLLECTED AS EARLY AS 12 NOON.", "ref": "7820700049"}, "type": "Feature"}
{"geometry": {"coordinates": [-98.498456012, 29.42787202], "type": "Point"}, "id": "a7_QyXRRRS3P8E6seNmsyhcwzw0=", "properties": {"@spider": "usps_collection_boxes", "addr:city": "SAN ANTONIO", "addr:country": "US", "addr:full": "333 N SANTA ROSA ST", "addr:postcode": "78207", "addr:state": "TX", "brand": "USPS", "collection_times": "Mo-Fr 15:15", "name": "USPS COLLECTION BOX - BLUE BOX", "note": "ON 12/24 AND 12/31, THIS BOX MAY BE COLLECTED AS EARLY AS 12 NOON.", "ref": "7820700083"}, "type": "Feature"}
{"geometry": {"coordinates": [-98.524539992, 29.428380006], "type": "Point"}, "id": "PaIW4X3DuK-0uWj4vIBDMJQW9Is=", "properties": {"@spider": "usps_collection_boxes", "addr:city": "SAN ANTONIO", "addr:country": "US", "addr:full": "108 N ROSILLO ST", "addr:postcode": "78207", "addr:state": "TX", "brand": "USPS", "collection_times": "Mo-Fr 15:00", "name": "USPS COLLECTION BOX - BLUE BOX", "note": "ON 12/24 AND 12/31, THIS BOX MAY BE COLLECTED AS EARLY AS 12 NOON.", "ref": "7820700094"}, "type": "Feature"}
{"geometry": {"coordinates": [-98.464497197, 29.442157345], "type": "Point"}, "id": "pofDjLbBjwAJlcCRll0Z21HbhaU=", "properties": {"@spider": "usps_collection_boxes", "addr:city": "SAN ANTONIO", "addr:country": "US", "addr:full": "515 PIERCE AVE", "addr:postcode": "78208", "addr:state": "TX", "brand": "USPS", "collection_times": "Mo-Fr 13:00", "name": "USPS COLLECTION BOX - PO LOBBY", "note": "ON 12/24 AND 12/31, THIS BOX MAY BE COLLECTED AS EARLY AS 12 NOON.", "ref": "7820800017"}, "type": "Feature"}
{"geometry": {"coordinates": [-98.439751916, 29.516440414], "type": "Point"}, "id": "O6027DnJ3_GkT7cwh8WDtgMXlOY=", "properties": {"@spider": "usps_collection_boxes", "addr:city": "SAN ANTONIO", "addr:country": "US", "addr:full": "1635 NE LOOP 410", "addr:postcode": "78209", "addr:state": "TX", "brand": "USPS", "collection_times": "Mo-Fr 16:30", "name": "USPS COLLECTION BOX - BLUE BOX", "note": "ON 12/24 AND 12/31, THIS BOX MAY BE COLLECTED AS EARLY AS 12 NOON.", "ref": "7820900048"}, "type": "Feature"}
{"geometry": {"coordinates": [-98.467564005, 29.461049982], "type": "Point"}, "id": "MVuNDH5HRU3GeXjmA890xFqsnyk=", "properties": {"@spider": "usps_collection_boxes", "addr:city": "SAN ANTONIO", "addr:country": "US", "addr:full": "3737 BROADWAY ST", "addr:postcode": "78209", "addr:state": "TX", "brand": "USPS", "collection_times": "Mo-Fr 13:45", "name": "USPS COLLECTION BOX - BLUE BOX", "note": "ON 12/24 AND 12/31, THIS BOX MAY BE COLLECTED AS EARLY AS 12 NOON.", "ref": "7820900051"}, "type": "Feature"}
{"geometry": {"coordinates": [-98.46475196, 29.463078989], "type": "Point"}, "id": "59l1x71cpqyO0jnUWnTxuuAxg6s=", "properties": {"@spider": "usps_collection_boxes", "addr:city": "SAN ANTONIO", "addr:country": "US", "addr:full": "4040 BROADWAY ST", "addr:postcode": "78209", "addr:state": "TX", "brand": "USPS", "collection_times": "Mo-Fr 14:00", "name": "USPS COLLECTION BOX - BLUE BOX", "note": "ON 12/24 AND 12/31, THIS BOX MAY BE COLLECTED AS EARLY AS 12 NOON.", "ref": "7820900053"}, "type": "Feature"}
{"geometry": {"coordinates": [-98.45890399, 29.489164017], "type": "Point"}, "id": "qlBpI9nsu4OhPGhSMg9ix3cWvcY=", "properties": {"@spider": "usps_collection_boxes", "addr:city": "SAN ANTONIO", "addr:country": "US", "addr:full": "6438 N NEW BRAUNFELS AVE", "addr:postcode": "78209", "addr:state": "TX", "brand": "USPS", "collection_times": "Mo-Fr 13:30", "name": "USPS COLLECTION BOX - BLUE BOX", "note": "ON 12/24 AND 12/31, THIS BOX MAY BE COLLECTED AS EARLY AS 12 NOON.", "ref": "7820900062"}, "type": "Feature"}
{"geometry": {"coordinates": [-98.462867956, 29.516200592], "type": "Point"}, "id": "KRLERs0Fc8C2iPCUuJp25cHIb7M=", "properties": {"@spider": "usps_collection_boxes", "addr:city": "SAN ANTONIO", "addr:country": "US", "addr:full": "900 NE LOOP 410", "addr:postcode": "78209", "addr:state": "TX", "brand": "USPS", "collection_times": "Mo-Fr 15:00", "name": "USPS COLLECTION BOX - BLUE BOX", "note": "ON 12/24 AND 12/31, THIS BOX MAY BE COLLECTED AS EARLY AS 12 NOON.", "ref": "7820900067"}, "type": "Feature"}
{"geometry": {"coordinates": [-98.462310982, 29.474131996], "type": "Point"}, "id": "IyRCJ7vbIrM9xIdK2cHI9ixMrfE=", "properties": {"@spider": "usps_collection_boxes", "addr:city": "SAN ANTONIO", "addr:country": "US", "addr:full": "5108 BROADWAY ST", "addr:postcode": "78209", "addr:state": "TX", "brand": "USPS", "collection_times": "Mo-Fr 14:00; Sa 15:00", "name": "USPS COLLECTION BOX - BLUE BOX", "note": "ON 12/24 AND 12/31, THIS BOX MAY BE COLLECTED AS EARLY AS 12 NOON.", "ref": "7820900077"}, "type": "Feature"}
{"geometry": {"coordinates": [-98.460388006, 29.514431013], "type": "Point"}, "id": "HvxfksA27gLu8EXfsPXXIb2tjAM=", "properties": {"@spider": "usps_collection_boxes", "addr:city": "SAN ANTONIO", "addr:country": "US", "addr:full": "8603 CROWNHILL BLVD", "addr:postcode": "78209", "addr:state": "TX", "brand": "USPS", "collection_times": "Mo-Fr 15:00; Sa 13:30", "name": "USPS COLLECTION BOX - BLUE BOX", "note": "ON 12/24 AND 12/31, THIS BOX MAY BE COLLECTED AS EARLY AS 12 NOON.", "ref": "7820900083"}, "type": "Feature"}
{"geometry": {"coordinates": [-98.466857997, 29.492494985], "type": "Point"}, "id": "fHiWUz7PHs42nOUueRK3A5loauU=", "properties": {"@spider": "usps_collection_boxes", "addr:city": "SAN ANTONIO", "addr:country": "US", "addr:full": "7101 BROADWAY ST", "addr:postcode": "78209", "addr:state": "TX", "brand": "USPS", "collection_times": "Mo-Fr 13:00; Sa 14:45", "name": "USPS COLLECTION BOX - BLUE BOX", "note": "ON 12/24 AND 12/31, THIS BOX MAY BE COLLECTED AS EARLY AS 12 NOON.", "ref": "7820900102"}, "type": "Feature"}
{"geometry": {"coordinates": [-98.466382612, 29.483673075], "type": "Point"}, "id": "CqnnhFJ7js5p_2KRYNjbzqEo-LU=", "properties": {"@spider": "usps_collection_boxes", "addr:city": "SAN ANTONIO", "addr:country": "US", "addr:full": "6116 BROADWAY ST", "addr:postcode": "78209", "addr:state": "TX", "brand": "USPS", "collection_times": "Mo-Fr 14:15; Sa 15:00", "name": "USPS COLLECTION BOX - BLUE BOX", "note": "ON 12/24 AND 12/31, THIS BOX MAY BE COLLECTED AS EARLY AS 12 NOON.", "ref": "7820900107"}, "type": "Feature"}
{"geometry": {"coordinates": [-98.444094005, 29.48732201], "type": "Point"}, "id": "xjGrYyQQJSzuFKRjJ30uI00obfk=", "properties": {"@spider": "usps_collection_boxes", "addr:city": "SAN ANTONIO", "addr:country": "US", "addr:full": "1248 AUSTIN HWY", "addr:postcode": "78209", "addr:state": "TX", "brand": "USPS", "collection_times": "Mo-Fr 16:00; Sa 14:30", "name": "USPS COLLECTION BOX - BLUE BOX", "note": "ON 12/24 AND 12/31, THIS BOX MAY BE COLLECTED AS EARLY AS 12 NOON.", "ref": "7820900109"}, "type": "Feature"}
{"geometry": {"coordinates": [-98.463847549, 29.516299851], "type": "Point"}, "id": "8e6MNDxm7U-qp9CTlxD_EpVPCyg=", "properties": {"@spider": "usps_collection_boxes", "addr:city": "SAN ANTONIO", "addr:country": "US", "addr:full": "830 NE LOOP 410", "addr:postcode": "78209", "addr:state": "TX", "brand": "USPS", "collection_times": "Mo-Fr 14:45", "name": "USPS COLLECTION BOX - BLUE BOX", "note": "ON 12/24 AND 12/31, THIS BOX MAY BE COLLECTED AS EARLY AS 12 NOON.", "ref": "7820900115"}, "type": "Feature"}
{"geometry": {"coordinates": [-98.450172578, 29.51568419], "type": "Point"}, "id": "dNr_eNMv_5v5MibURjM9C769XSA=", "properties": {"@spider": "usps_collection_boxes", "addr:city": "SAN ANTONIO", "addr:country": "US", "addr:full": "1250 NE LOOP 410", "addr:postcode": "78209", "addr:state": "TX", "brand": "USPS", "collection_times": "Mo-Fr 15:45", "name": "USPS COLLECTION BOX - BLUE BOX", "note": "ON 12/24 AND 12/31, THIS BOX MAY BE COLLECTED AS EARLY AS 12 NOON.", "ref": "7820900128"}, "type": "Feature"}
{"geometry": {"coordinates": [-98.456969235, 29.508517518], "type": "Point"}, "id": "aN0nKYstUFRZDRLHPNHRLoSVo-M=", "properties": {"@spider": "usps_collection_boxes", "addr:city": "SAN ANTONIO", "addr:country": "US", "addr:full": "1955 NACOGDOCHES RD", "addr:postcode": "78209", "addr:state": "TX", "brand": "USPS", "collection_times": "Mo-Fr 13:00; Sa 14:45", "name": "USPS COLLECTION BOX - BLUE BOX", "note": "ON 12/24 AND 12/31, THIS BOX MAY BE COLLECTED AS EARLY AS 12 NOON.", "ref": "7820900139"}, "type": "Feature"}
{"geometry": {"coordinates": [-98.468872001, 29.457327998], "type": "Point"}, "id": "H7NP2eBMh2EaW_s_8Q9DC1xv2LQ=", "properties": {"@spider": "usps_collection_boxes", "addr:city": "SAN ANTONIO", "addr:country": "US", "addr:full": "3308 BROADWAY ST", "addr:postcode": "78209", "addr:state": "TX", "brand": "USPS", "collection_times": "Mo-Fr 13:45", "name": "USPS COLLECTION BOX - BLUE BOX", "note": "ON 12/24 AND 12/31, THIS BOX MAY BE COLLECTED AS EARLY AS 12 NOON.", "ref": "7820900154"}, "type": "Feature"}
{"geometry": {"coordinates": [-98.467447999, 29.495456982], "type": "Point"}, "id": "Fzmp-_PTjpxydJ5hgjTrUH6BCTI=", "properties": {"@spider": "usps_collection_boxes", "addr:city": "SAN ANTONIO", "addr:country": "US", "addr:full": "7373 BROADWAY ST", "addr:postcode": "78209", "addr:state": "TX", "brand": "USPS", "collection_times": "Mo-Fr 16:00", "name": "USPS COLLECTION BOX - BLUE BOX", "note": "ON 12/24 AND 12/31, THIS BOX MAY BE COLLECTED AS EARLY AS 12 NOON.", "ref": "7820900157"}, "type": "Feature"}
{"geometry": {"coordinates": [-98.470226013, 29.498900017], "type": "Point"}, "id": "l23kcwNBsP8diKHj4gLbutc2jCo=", "properties": {"@spider": "usps_collection_boxes", "addr:city": "SAN ANTONIO", "addr:country": "US", "addr:full": "250 W NOTTINGHAM DR", "addr:postcode": "78209", "addr:state": "TX", "brand": "USPS", "collection_times": "Mo-Fr 16:15", "name": "USPS COLLECTION BOX - BLUE BOX", "note": "ON 12/24 AND 12/31, THIS BOX MAY BE COLLECTED AS EARLY AS 12 NOON.", "ref": "7820900160"}, "type": "Feature"}
{"geometry": {"coordinates": [-98.450392, 29.486509007], "type": "Point"}, "id": "IB6aVbix9QbrjbjoKTS-536AC5o=", "properties": {"@spider": "usps_collection_boxes", "addr:city": "SAN ANTONIO", "addr:country": "US", "addr:full": "1107 AUSTIN HWY", "addr:postcode": "78209", "addr:state": "TX", "brand": "USPS", "collection_times": "Mo-Fr 17:15; Sa 12:45", "name": "USPS COLLECTION BOX - PO LOBBY", "note": "ON 12/24 AND 12/31, THIS BOX MAY BE COLLECTED AS EARLY AS 12 NOON.", "ref": "7820900169"}, "type": "Feature"}
{"geometry": {"coordinates": [-98.450392, 29.486509007], "type": "Point"}, "id": "TjBPNnkdiPjBqBMzjRbxGMh1bUc=", "properties": {"@spider": "usps_collection_boxes", "addr:city": "SAN ANTONIO", "addr:country": "US", "addr:full": "1107 AUSTIN HWY", "addr:postcode": "78209", "addr:state": "TX", "brand": "USPS", "collection_times": "Mo-Fr 17:30; Sa 13:00", "name": "USPS COLLECTION BOX - PO LOBBY", "note": "ON 12/24 AND 12/31, THIS BOX MAY BE COLLECTED AS EARLY AS 12 NOON.", "ref": "7820900170"}, "type": "Feature"}
{"geometry": {"coordinates": [-98.450392, 29.486509007], "type": "Point"}, "id": "Cb7JjcCYMnfqIoTgVfTu4G3SGAA=", "properties": {"@spider": "usps_collection_boxes", "addr:city": "SAN ANTONIO", "addr:country": "US", "addr:full": "1107 AUSTIN HWY", "addr:postcode": "78209", "addr:state": "TX", "brand": "USPS", "collection_times": "Mo-Fr 17:15; Sa 12:45", "name": "USPS COLLECTION BOX - BLUE BOX", "note": "ON 12/24 AND 12/31, THIS BOX MAY BE COLLECTED AS EARLY AS 12 NOON.", "ref": "7820900171"}, "type": "Feature"}
{"geometry": {"coordinates": [-98.464177967, 29.47026798], "type": "Point"}, "id": "jyMsb4UzMHxahPRYUyOESxhHhfI=", "properties": {"@spider": "usps_collection_boxes", "addr:city": "SAN ANTONIO", "addr:country": "US", "addr:full": "4801 BROADWAY", "addr:postcode": "78209", "addr:state": "TX", "brand": "USPS", "collection_times": "Mo-Fr 13:45; Sa 15:30", "name": "USPS COLLECTION BOX - BLUE BOX", "note": "ON 12/24 AND 12/31, THIS BOX MAY BE COLLECTED AS EARLY AS 12 NOON.", "ref": "7820900173"}, "type": "Feature"}
{"geometry": {"coordinates": [-98.464177967, 29.47026798], "type": "Point"}, "id": "pkjc-a_EuWmYm-2nFqqMyRu7Y2U=", "properties": {"@spider": "usps_collection_boxes", "addr:city": "SAN ANTONIO", "addr:country": "US", "addr:full": "4801 BROADWAY", "addr:postcode": "78209", "addr:state": "TX", "brand": "USPS", "collection_times": "Mo-Fr 13:45; Sa 15:30", "name": "USPS COLLECTION BOX - BLUE BOX", "note": "ON 12/24 AND 12/31, THIS BOX MAY BE COLLECTED AS EARLY AS 12 NOON.", "ref": "7820900174"}, "type": "Feature"}
{"geometry": {"coordinates": [-98.490922022, 29.39388202], "type": "Point"}, "id": "1XJTEV5fP_48bHj-mwh_SmC2tko=", "properties": {"@spider": "usps_collection_boxes", "addr:city": "SAN ANTONIO", "addr:country": "US", "addr:full": "600 MISSION RD", "addr:postcode": "78210", "addr:state": "TX", "brand": "USPS", "collection_times": "Mo-Fr 13:30", "name": "USPS COLLECTION BOX - BLUE BOX", "note": "ON 12/24 AND 12/31, THIS BOX MAY BE COLLECTED AS EARLY AS 12 NOON.", "ref": "7821000029"}, "type": "Feature"}
{"geometry": {"coordinates": [-98.487132983, 29.41779098], "type": "Point"}, "id": "eZwnPyPuarJDrKinXq4_m22od0A=", "properties": {"@spider": "usps_collection_boxes", "addr:city": "SAN ANTONIO", "addr:country": "US", "addr:full": "141 LAVACA ST", "addr:postcode": "78210", "addr:state": "TX", "brand": "USPS", "collection_times": "Mo-Fr 13:15", "name": "USPS COLLECTION BOX - BLUE BOX", "note": "ON 12/24 AND 12/31, THIS BOX MAY BE COLLECTED AS EARLY AS 12 NOON.", "ref": "7821000034"}, "type": "Feature"}
{"geometry": {"coordinates": [-98.473075022, 29.397130008], "type": "Point"}, "id": "FkMkqtzhKeNdgdisGru8YeimeJY=", "properties": {"@spider": "usps_collection_boxes", "addr:city": "SAN ANTONIO", "addr:country": "US", "addr:full": "2000 S HACKBERRY", "addr:postcode": "78210", "addr:state": "TX", "brand": "USPS", "collection_times": "Mo-Fr 17:00; Sa 16:00", "name": "USPS COLLECTION BOX - BLUE BOX", "note": "ON 12/24 AND 12/31, THIS BOX MAY BE COLLECTED AS EARLY AS 12 NOON.", "ref": "7821000039"}, "type": "Feature"}
{"geometry": {"coordinates": [-98.473075022, 29.397130008], "type": "Point"}, "id": "VnZQ1ERUQ4AJYF4MPTzyw5S2X9c=", "properties": {"@spider": "usps_collection_boxes", "addr:city": "SAN ANTONIO", "addr:country": "US", "addr:full": "2000 S HACKBERRY", "addr:postcode": "78210", "addr:state": "TX", "brand": "USPS", "collection_times": "Mo-Fr 17:00; Sa 16:00", "name": "USPS COLLECTION BOX - BLUE BOX", "note": "ON 12/24 AND 12/31, THIS BOX MAY BE COLLECTED AS EARLY AS 12 NOON.", "ref": "7821000040"}, "type": "Feature"}
{"geometry": {"coordinates": [-98.473075022, 29.397130008], "type": "Point"}, "id": "cw5In4a7_7y-WHjcwy7kzSxNWqg=", "properties": {"@spider": "usps_collection_boxes", "addr:city": "SAN ANTONIO", "addr:country": "US", "addr:full": "2000 S HACKBERRY", "addr:postcode": "78210", "addr:state": "TX", "brand": "USPS", "collection_times": "Mo-Fr 17:00; Sa 12:00", "name": "USPS COLLECTION BOX - PO LOBBY", "note": "ON 12/24 AND 12/31, THIS BOX MAY BE COLLECTED AS EARLY AS 12 NOON.", "ref": "7821000044"}, "type": "Feature"}
{"geometry": {"coordinates": [-98.559698533, 29.357936497], "type": "Point"}, "id": "YzURAxdUEySITE-RJWDt9kkA7No=", "properties": {"@spider": "usps_collection_boxes", "addr:city": "SAN ANTONIO", "addr:country": "US", "addr:full": "7110 NEW LAREDO HWY", "addr:postcode": "78211", "addr:state": "TX", "brand": "USPS", "collection_times": "Mo-Fr 14:15", "name": "USPS COLLECTION BOX - BLUE BOX", "note": "ON 12/24 AND 12/31, THIS BOX MAY BE COLLECTED AS EARLY AS 12 NOON.", "ref": "7821100013"}, "type": "Feature"}
{"geometry": {"coordinates": [-98.53537402, 29.362129988], "type": "Point"}, "id": "5SFObQ6yGU7sc51I1QXkrZXYWaM=", "properties": {"@spider": "usps_collection_boxes", "addr:city": "SAN ANTONIO", "addr:country": "US", "addr:full": "711 W MAYFIELD BLVD", "addr:postcode": "78211", "addr:state": "TX", "brand": "USPS", "collection_times": "Mo-Fr 14:45", "name": "USPS COLLECTION BOX - BLUE BOX", "note": "ON 12/24 AND 12/31, THIS BOX MAY BE COLLECTED AS EARLY AS 12 NOON.", "ref": "7821100014"}, "type": "Feature"}
{"geometry": {"coordinates": [-98.49178128, 29.45215596], "type": "Point"}, "id": "OUX_zwGtJwJ-fBzXoUwhxp54rxo=", "properties": {"@spider": "usps_collection_boxes", "addr:city": "SAN ANTONIO", "addr:country": "US", "addr:full": "2400 MCCULLOUGH AVE", "addr:postcode": "78212", "addr:state": "TX", "brand": "USPS", "collection_times": "Mo-Fr 17:00; Sa 16:30", "name": "USPS COLLECTION BOX - BLUE BOX", "note": "ON 12/24 AND 12/31, THIS BOX MAY BE COLLECTED AS EARLY AS 12 NOON.", "ref": "7821200062"}, "type": "Feature"}
{"geometry": {"coordinates": [-98.48065, 29.457260021], "type": "Point"}, "id": "gkYn-0OXygOFlrDyA08pwsXNB0g=", "properties": {"@spider": "usps_collection_boxes", "addr:city": "SAN ANTONIO", "addr:country": "US", "addr:full": "745 E MULBERRY AVE", "addr:postcode": "78212", "addr:state": "TX", "brand": "USPS", "collection_times": "Mo-Fr 16:30", "name": "USPS COLLECTION BOX - BLUE BOX", "note": "ON 12/24 AND 12/31, THIS BOX MAY BE COLLECTED AS EARLY AS 12 NOON.", "ref": "7821200104"}, "type": "Feature"}
{"geometry": {"coordinates": [-98.485408993, 29.458786994], "type": "Point"}, "id": "e_tZ6y0reeW2AC6xl_1GueMX4fM=", "properties": {"@spider": "usps_collection_boxes", "addr:city": "SAN ANTONIO", "addr:country": "US", "addr:full": "607 KINGS CT", "addr:postcode": "78212", "addr:state": "TX", "brand": "USPS", "collection_times": "Mo-Fr 16:30", "name": "USPS COLLECTION BOX - BLUE BOX", "note": "ON 12/24 AND 12/31, THIS BOX MAY BE COLLECTED AS EARLY AS 12 NOON.", "ref": "7821200107"}, "type": "Feature"}
{"geometry": {"coordinates": [-98.49178128, 29.45215596], "type": "Point"}, "id": "K5h2POChqueEWVeG5znruN467Hw=", "properties": {"@spider": "usps_collection_boxes", "addr:city": "SAN ANTONIO", "addr:country": "US", "addr:full": "2400 MCCULLOUGH AVE", "addr:postcode": "78212", "addr:state": "TX", "brand": "USPS", "collection_times": "Mo-Fr 17:00; Sa 16:30", "name": "USPS COLLECTION BOX - BLUE BOX", "note": "ON 12/24 AND 12/31, THIS BOX MAY BE COLLECTED AS EARLY AS 12 NOON.", "ref": "7821200110"}, "type": "Feature"}
{"geometry": {"coordinates": [-98.49178128, 29.45215596], "type": "Point"}, "id": "IcFwKZCIOCrmiifZUPDlN0axc3Q=", "properties": {"@spider": "usps_collection_boxes", "addr:city": "SAN ANTONIO", "addr:country": "US", "addr:full": "2400 MCCULLOUGH AVE", "addr:postcode": "78212", "addr:state": "TX", "brand": "USPS", "collection_times": "Mo-Fr 17:00; Sa 16:30", "name": "USPS COLLECTION BOX - BLUE BOX", "note": "ON 12/24 AND 12/31, THIS BOX MAY BE COLLECTED AS EARLY AS 12 NOON.", "ref": "7821200112"}, "type": "Feature"}
{"geometry": {"coordinates": [-98.49178128, 29.45215596], "type": "Point"}, "id": "r-mmKFLQOjaqc0cvISh0BhvNvFk=", "properties": {"@spider": "usps_collection_boxes", "addr:city": "SAN ANTONIO", "addr:country": "US", "addr:full": "2400 MCCULLOUGH AVE", "addr:postcode": "78212", "addr:state": "TX", "brand": "USPS", "collection_times": "Mo-Fr 17:00; Sa 16:30", "name": "USPS COLLECTION BOX - PO LOBBY", "note": "ON 12/24 AND 12/31, THIS BOX MAY BE COLLECTED AS EARLY AS 12 NOON.", "ref": "7821200123"}, "type": "Feature"}
{"geometry": {"coordinates": [-98.49178128, 29.45215596], "type": "Point"}, "id": "rCPqs86rNvpjCDHLC46feC1Wwm8=", "properties": {"@spider": "usps_collection_boxes", "addr:city": "SAN ANTONIO", "addr:country": "US", "addr:full": "2400 MCCULLOUGH AVE", "addr:postcode": "78212", "addr:state": "TX", "brand": "USPS", "collection_times": "Mo-Fr 17:00; Sa 16:30", "name": "USPS COLLECTION BOX - APC", "note": "ON 12/24 AND 12/31, THIS BOX MAY BE COLLECTED AS EARLY AS 12 NOON.", "ref": "7821200139"}, "type": "Feature"}
{"geometry": {"coordinates": [-98.49178128, 29.45215596], "type": "Point"}, "id": "KibdwuZgeLpRRFjOkVbzis9CTsU=", "properties": {"@spider": "usps_collection_boxes", "addr:city": "SAN ANTONIO", "addr:country": "US", "addr:full": "2400 MCCULLOUGH AVE", "addr:postcode": "78212", "addr:state": "TX", "brand": "USPS", "collection_times": "Mo-Fr 17:00; Sa 12:00", "name": "USPS COLLECTION BOX - PO LOBBY", "note": "ON 12/24 AND 12/31, THIS BOX MAY BE COLLECTED AS EARLY AS 12 NOON.", "ref": "7821200141"}, "type": "Feature"}
{"geometry": {"coordinates": [-98.543864972, 29.488900993], "type": "Point"}, "id": "zhnkeyaf1H_9dLrUzZ1wxH0QClw=", "properties": {"@spider": "usps_collection_boxes", "addr:city": "SAN ANTONIO", "addr:country": "US", "addr:full": "6800 PARK TEN BLVD", "addr:postcode": "78213", "addr:state": "TX", "brand": "USPS", "collection_times": "Mo-Fr 16:00; Sa 16:15", "name": "USPS COLLECTION BOX - BLUE BOX", "note": "ON 12/24 AND 12/31, THIS BOX MAY BE COLLECTED AS EARLY AS 12 NOON.", "ref": "7821300038"}, "type": "Feature"}
{"geometry": {"coordinates": [-98.543864972, 29.488900993], "type": "Point"}, "id": "z19ygxfsrcbFbmYY6y7Az84xKZ0=", "properties": {"@spider": "usps_collection_boxes", "addr:city": "SAN ANTONIO", "addr:country": "US", "addr:full": "6800 PARK TEN BLVD", "addr:postcode": "78213", "addr:state": "TX", "brand": "USPS", "collection_times": "Mo-Fr 16:00; Sa 16:15", "name": "USPS COLLECTION BOX - BLUE BOX", "note": "ON 12/24 AND 12/31, THIS BOX MAY BE COLLECTED AS EARLY AS 12 NOON.", "ref": "7821300039"}, "type": "Feature"}
{"geometry": {"coordinates": [-98.509379979, 29.518929999], "type": "Point"}, "id": "SQZKXjg2pLqE98BXuo6xpam3Lro=", "properties": {"@spider": "usps_collection_boxes", "addr:city": "SAN ANTONIO", "addr:country": "US", "addr:full": "1100 NW LOOP 410", "addr:postcode": "78213", "addr:state": "TX", "brand": "USPS", "collection_times": "Mo-Fr 15:45", "name": "USPS COLLECTION BOX - BLUE BOX", "note": "ON 12/24 AND 12/31, THIS BOX MAY BE COLLECTED AS EARLY AS 12 NOON.", "ref": "7821300059"}, "type": "Feature"}
{"geometry": {"coordinates": [-98.509379979, 29.518929999], "type": "Point"}, "id": "W15JlqPUJIWm9tmzcjgSdmoIN90=", "properties": {"@spider": "usps_collection_boxes", "addr:city": "SAN ANTONIO", "addr:country": "US", "addr:full": "1100 NW LOOP 410", "addr:postcode": "78213", "addr:state": "TX", "brand": "USPS", "collection_times": "Mo-Fr 15:45", "name": "USPS COLLECTION BOX - BLUE BOX", "note": "ON 12/24 AND 12/31, THIS BOX MAY BE COLLECTED AS EARLY AS 12 NOON.", "ref": "7821300060"}, "type": "Feature"}
{"geometry": {"coordinates": [-98.54243502, 29.490078985], "type": "Point"}, "id": "GtRIOJLPVqcpB18iEQag-t32srk=", "properties": {"@spider": "usps_collection_boxes", "addr:city": "SAN ANTONIO", "addr:country": "US", "addr:full": "6655 FIRST PARK TEN BLVD", "addr:postcode": "78213", "addr:state": "TX", "brand": "USPS", "collection_times": "Mo-Fr 16:00", "name": "USPS COLLECTION BOX - BLUE BOX", "note": "ON 12/24 AND 12/31, THIS BOX MAY BE COLLECTED AS EARLY AS 12 NOON.", "ref": "7821300069"}, "type": "Feature"}
{"geometry": {"coordinates": [-98.49267099, 29.361648992], "type": "Point"}, "id": "b_yJaUAjiLmfih3xvBY_dsUMREI=", "properties": {"@spider": "usps_collection_boxes", "addr:city": "SAN ANTONIO", "addr:country": "US", "addr:full": "6302 S FLORES ST", "addr:postcode": "78214", "addr:state": "TX", "brand": "USPS", "collection_times": "Mo-Fr 16:15; Sa 14:45", "name": "USPS COLLECTION BOX - BLUE BOX", "note": "ON 12/24 AND 12/31, THIS BOX MAY BE COLLECTED AS EARLY AS 12 NOON.", "ref": "7821400006"}, "type": "Feature"}
{"geometry": {"coordinates": [-98.47957502, 29.353897995], "type": "Point"}, "id": "_CYNnMsVUVq6XomerN3nI4JC2y4=", "properties": {"@spider": "usps_collection_boxes", "addr:city": "SAN ANTONIO", "addr:country": "US", "addr:full": "1200 SE MILITARY DR", "addr:postcode": "78214", "addr:state": "TX", "brand": "USPS", "collection_times": "Mo-Fr 15:15; Sa 14:30", "name": "USPS COLLECTION BOX - BLUE BOX", "note": "ON 12/24 AND 12/31, THIS BOX MAY BE COLLECTED AS EARLY AS 12 NOON.", "ref": "7821400013"}, "type": "Feature"}
{"geometry": {"coordinates": [-98.49267099, 29.361648992], "type": "Point"}, "id": "i2HwKP2WbxmqZlECpSZQ267pulc=", "properties": {"@spider": "usps_collection_boxes", "addr:city": "SAN ANTONIO", "addr:country": "US", "addr:full": "6302 S FLORES ST", "addr:postcode": "78214", "addr:state": "TX", "brand": "USPS", "collection_times": "Mo-Fr 16:15; Sa 14:45", "name": "USPS COLLECTION BOX - BLUE BOX", "note": "ON 12/24 AND 12/31, THIS BOX MAY BE COLLECTED AS EARLY AS 12 NOON.", "ref": "7821400016"}, "type": "Feature"}
{"geometry": {"coordinates": [-98.49267099, 29.361648992], "type": "Point"}, "id": "t2cHAVwRRq8ffr6d0ifO7O0ZnHk=", "properties": {"@spider": "usps_collection_boxes", "addr:city": "SAN ANTONIO", "addr:country": "US", "addr:full": "6302 S FLORES ST", "addr:postcode": "78214", "addr:state": "TX", "brand": "USPS", "collection_times": "Mo-Fr 16:00; Sa 12:00", "name": "USPS COLLECTION BOX - PO LOBBY", "note": "ON 12/24 AND 12/31, THIS BOX MAY BE COLLECTED AS EARLY AS 12 NOON.", "ref": "7821400017"}, "type": "Feature"}
{"geometry": {"coordinates": [-98.481760015, 29.561314015], "type": "Point"}, "id": "i_XsUapqifM-aJapHFGS70sagnI=", "properties": {"@spider": "usps_collection_boxes", "addr:city": "SAN ANTONIO", "addr:country": "US", "addr:full": "13402 SAN PEDRO AVE", "addr:postcode": "78216", "addr:state": "TX", "brand": "USPS", "collection_times": "Mo-Sa 14:00", "name": "USPS COLLECTION BOX - BLUE BOX", "note": "ON 12/24 AND 12/31, THIS BOX MAY BE COLLECTED AS EARLY AS 12 NOON.", "ref": "7821600062"}, "type": "Feature"}
{"geometry": {"coordinates": [-98.499900968, 29.52515901], "type": "Point"}, "id": "DfJjZVhE7m15IF9AZBMy9D8j6wg=", "properties": {"@spider": "usps_collection_boxes", "addr:city": "SAN ANTONIO", "addr:country": "US", "addr:full": "9311 SAN PEDRO AVE", "addr:postcode": "78216", "addr:state": "TX", "brand": "USPS", "collection_times": "Mo-Fr 16:15", "name": "USPS COLLECTION BOX - BLUE BOX", "note": "ON 12/24 AND 12/31, THIS BOX MAY BE COLLECTED AS EARLY AS 12 NOON.", "ref": "7821600074"}, "type": "Feature"}
{"geometry": {"coordinates": [-98.509586006, 29.579344997], "type": "Point"}, "id": "4-bOiwmlUDLjMEiZHDkZyrQCoDc=", "properties": {"@spider": "usps_collection_boxes", "addr:city": "SAN ANTONIO", "addr:country": "US", "addr:full": "1175 W BITTERS RD", "addr:postcode": "78216", "addr:state": "TX", "brand": "USPS", "collection_times": "Mo-Fr 13:15", "name": "USPS COLLECTION BOX - BLUE BOX", "note": "ON 12/24 AND 12/31, THIS BOX MAY BE COLLECTED AS EARLY AS 12 NOON.", "ref": "7821600086"}, "type": "Feature"}
{"geometry": {"coordinates": [-98.517924522, 29.570711928], "type": "Point"}, "id": "tFQSIJvQ2NSBuL2ZZVsUS1Wk1uY=", "properties": {"@spider": "usps_collection_boxes", "addr:city": "SAN ANTONIO", "addr:country": "US", "addr:full": "13423 BLANCO RD", "addr:postcode": "78216", "addr:state": "TX", "brand": "USPS", "collection_times": "Mo-Fr 13:15; Sa 16:00", "name": "USPS COLLECTION BOX - BLUE BOX", "note": "ON 12/24 AND 12/31, THIS BOX MAY BE COLLECTED AS EARLY AS 12 NOON.", "ref": "7821600094"}, "type": "Feature"}
{"geometry": {"coordinates": [-98.490705323, 29.538850297], "type": "Point"}, "id": "cZ2FzcuIW613TwVJi5o3PknTGq0=", "properties": {"@spider": "usps_collection_boxes", "addr:city": "SAN ANTONIO", "addr:country": "US", "addr:full": "10806 VANDALE ST", "addr:postcode": "78216", "addr:state": "TX", "brand": "USPS", "collection_times": "Mo-Fr 13:15", "name": "USPS COLLECTION BOX - BLUE BOX", "note": "ON 12/24 AND 12/31, THIS BOX MAY BE COLLECTED AS EARLY AS 12 NOON.", "ref": "7821600097"}, "type": "Feature"}
{"geometry": {"coordinates": [-98.484106026, 29.532058993], "type": "Point"}, "id": "1-pyRFLN-_hbQP4iTQ0CL5mc3Hc=", "properties": {"@spider": "usps_collection_boxes", "addr:city": "SAN ANTONIO", "addr:country": "US", "addr:full": "10100 REUNION PL", "addr:postcode": "78216", "addr:state": "TX", "brand": "USPS", "collection_times": "Mo-Fr 15:30", "name": "USPS COLLECTION BOX - BLUE BOX", "note": "ON 12/24 AND 12/31, THIS BOX MAY BE COLLECTED AS EARLY AS 12 NOON.", "ref": "7821600113"}, "type": "Feature"}
{"geometry": {"coordinates": [-98.491542031, 29.534694012], "type": "Point"}, "id": "0mXBk2yOtRGRxciaQ68-DrNLobU=", "properties": {"@spider": "usps_collection_boxes", "addr:city": "SAN ANTONIO", "addr:country": "US", "addr:full": "10330 DESERT SANDS ST", "addr:postcode": "78216", "addr:state": "TX", "brand": "USPS", "collection_times": "Mo-Fr 17:00; Sa 16:15", "name": "USPS COLLECTION BOX - BLUE BOX", "note": "ON 12/24 AND 12/31, THIS BOX MAY BE COLLECTED AS EARLY AS 12 NOON.", "ref": "7821600133"}, "type": "Feature"}
{"geometry": {"coordinates": [-98.491542031, 29.534694012], "type": "Point"}, "id": "cmwyuucJm_orJ_OaxJNobs0t_ns=", "properties": {"@spider": "usps_collection_boxes", "addr:city": "SAN ANTONIO", "addr:country": "US", "addr:full": "10330 DESERT SANDS ST", "addr:postcode": "78216", "addr:state": "TX", "brand": "USPS", "collection_times": "Mo-Fr 17:00; Sa 11:30", "name": "USPS COLLECTION BOX - BLUE BOX", "note": "ON 12/24 AND 12/31, THIS BOX MAY BE COLLECTED AS EARLY AS 12 NOON.", "ref": "7821600135"}, "type": "Feature"}
{"geometry": {"coordinates": [-98.494670996, 29.528260985], "type": "Point"}, "id": "Gla4ad5AokJMlWGsSheLI-dieY0=", "properties": {"@spider": "usps_collection_boxes", "addr:city": "SAN ANTONIO", "addr:country": "US", "addr:full": "431 ISOM RD", "addr:postcode": "78216", "addr:state": "TX", "brand": "USPS", "collection_times": "Mo-Fr 13:00", "name": "USPS COLLECTION BOX - BLUE BOX", "note": "ON 12/24 AND 12/31, THIS BOX MAY BE COLLECTED AS EARLY AS 12 NOON.", "ref": "7821600139"}, "type": "Feature"}
{"geometry": {"coordinates": [-98.484760988, 29.532775017], "type": "Point"}, "id": "gU8PP6Zk3c-rcaiFgzwnmhc_p7o=", "properties": {"@spider": "usps_collection_boxes", "addr:city": "SAN ANTONIO", "addr:country": "US", "addr:full": "10101 REUNION PL", "addr:postcode": "78216", "addr:state": "TX", "brand": "USPS", "collection_times": "Mo-Fr 15:15", "name": "USPS COLLECTION BOX - BLUE BOX", "note": "ON 12/24 AND 12/31, THIS BOX MAY BE COLLECTED AS EARLY AS 12 NOON.", "ref": "7821600165"}, "type": "Feature"}
{"geometry": {"coordinates": [-98.499900968, 29.52515901], "type": "Point"}, "id": "nczxmb14pxTRfmyUrEWr_u8UMV8=", "properties": {"@spider": "usps_collection_boxes", "addr:city": "SAN ANTONIO", "addr:country": "US", "addr:full": "9311 SAN PEDRO AVE", "addr:postcode": "78216", "addr:state": "TX", "brand": "USPS", "collection_times": "Mo-Fr 16:15", "name": "USPS COLLECTION BOX - BLUE BOX", "note": "ON 12/24 AND 12/31, THIS BOX MAY BE COLLECTED AS EARLY AS 12 NOON.", "ref": "7821600174"}, "type": "Feature"}
{"geometry": {"coordinates": [-98.499900968, 29.52515901], "type": "Point"}, "id": "DmxDS1e8UygooIrVS9NFzmCM7zI=", "properties": {"@spider": "usps_collection_boxes", "addr:city": "SAN ANTONIO", "addr:country": "US", "addr:full": "9311 SAN PEDRO AVE", "addr:postcode": "78216", "addr:state": "TX", "brand": "USPS", "collection_times": "Mo-Fr 16:15", "name": "USPS COLLECTION BOX - BLUE BOX", "note": "ON 12/24 AND 12/31, THIS BOX MAY BE COLLECTED AS EARLY AS 12 NOON.", "ref": "7821600175"}, "type": "Feature"}
{"geometry": {"coordinates": [-98.500199029, 29.529618015], "type": "Point"}, "id": "ORW1of-87YZi4EacdMFjXChnGoY=", "properties": {"@spider": "usps_collection_boxes", "addr:city": "SAN ANTONIO", "addr:country": "US", "addr:full": "9846 LORENE LN", "addr:postcode": "78216", "addr:state": "TX", "brand": "USPS", "collection_times": "Mo-Fr 13:30; Sa 16:15", "name": "USPS COLLECTION BOX - BLUE BOX", "note": "ON 12/24 AND 12/31, THIS BOX MAY BE COLLECTED AS EARLY AS 12 NOON.", "ref": "7821600211"}, "type": "Feature"}
{"geometry": {"coordinates": [-98.515029968, 29.578129998], "type": "Point"}, "id": "HKX8htem5dsRywgctkrQrg6e25A=", "properties": {"@spider": "usps_collection_boxes", "addr:city": "SAN ANTONIO", "addr:country": "US", "addr:full": "14855 BLANCO RD", "addr:postcode": "78216", "addr:state": "TX", "brand": "USPS", "collection_times": "Mo-Fr 13:15", "name": "USPS COLLECTION BOX - BLUE BOX", "note": "ON 12/24 AND 12/31, THIS BOX MAY BE COLLECTED AS EARLY AS 12 NOON.", "ref": "7821600213"}, "type": "Feature"}
{"geometry": {"coordinates": [-98.489368017, 29.527955004], "type": "Point"}, "id": "xWIGBVSdnMZyr7O6BCWjhcJZvt8=", "properties": {"@spider": "usps_collection_boxes", "addr:city": "SAN ANTONIO", "addr:country": "US", "addr:full": "403 E RAMSEY RD", "addr:postcode": "78216", "addr:state": "TX", "brand": "USPS", "collection_times": "Mo-Fr 14:00", "name": "USPS COLLECTION BOX - BLUE BOX", "note": "ON 12/24 AND 12/31, THIS BOX MAY BE COLLECTED AS EARLY AS 12 NOON.", "ref": "7821600220"}, "type": "Feature"}
{"geometry": {"coordinates": [-98.504583015, 29.527923991], "type": "Point"}, "id": "8m1m1AvAnXbfJISxU3vzPKNjyGQ=", "properties": {"@spider": "usps_collection_boxes", "addr:city": "SAN ANTONIO", "addr:country": "US", "addr:full": "7410 BLANCO RD", "addr:postcode": "78216", "addr:state": "TX", "brand": "USPS", "collection_times": "Mo-Fr 13:45", "name": "USPS COLLECTION BOX - BLUE BOX", "note": "ON 12/24 AND 12/31, THIS BOX MAY BE COLLECTED AS EARLY AS 12 NOON.", "ref": "7821600228"}, "type": "Feature"}
{"geometry": {"coordinates": [-98.484396962, 29.555958984], "type": "Point"}, "id": "_HsDilWl3l9nInPSMQNcBRYmIwY=", "properties": {"@spider": "usps_collection_boxes", "addr:city": "SAN ANTONIO", "addr:country": "US", "addr:full": "12500 SAN PEDRO AVE", "addr:postcode": "78216", "addr:state": "TX", "brand": "USPS", "collection_times": "Mo-Fr 14:00", "name": "USPS COLLECTION BOX - BLUE BOX", "note": "ON 12/24 AND 12/31, THIS BOX MAY BE COLLECTED AS EARLY AS 12 NOON.", "ref": "7821600232"}, "type": "Feature"}
{"geometry": {"coordinates": [-98.519978396, 29.565599749], "type": "Point"}, "id": "kzXk7AhcP-nnILKECd1Cdh-1zLo=", "properties": {"@spider": "usps_collection_boxes", "addr:city": "SAN ANTONIO", "addr:country": "US", "addr:full": "13300 BLANCO RD", "addr:postcode": "78216", "addr:state": "TX", "brand": "USPS", "collection_times": "Mo-Fr 13:00", "name": "USPS COLLECTION BOX - BLUE BOX", "note": "ON 12/24 AND 12/31, THIS BOX MAY BE COLLECTED AS EARLY AS 12 NOON.", "ref": "7821600234"}, "type": "Feature"}
{"geometry": {"coordinates": [-98.399337995, 29.52391501], "type": "Point"}, "id": "q4dspuNs2zmCGAye5_TGeYKOEkc=", "properties": {"@spider": "usps_collection_boxes", "addr:city": "SAN ANTONIO", "addr:country": "US", "addr:full": "4633 PERRIN CRK", "addr:postcode": "78217", "addr:state": "TX", "brand": "USPS", "collection_times": "Mo-Fr 14:00", "name": "USPS COLLECTION BOX - BLUE BOX", "note": "ON 12/24 AND 12/31, THIS BOX MAY BE COLLECTED AS EARLY AS 12 NOON.", "ref": "7821700000"}, "type": "Feature"}
{"geometry": {"coordinates": [-98.461503973, 29.518826986], "type": "Point"}, "id": "o9gpwuTdxvIj5WRU1dyvJJDARzc=", "properties": {"@spider": "usps_collection_boxes", "addr:city": "SAN ANTONIO", "addr:country": "US", "addr:full": "8610 BROADWAY ST", "addr:postcode": "78217", "addr:state": "TX", "brand": "USPS", "collection_times": "Mo-Fr 15:30", "name": "USPS COLLECTION BOX - BLUE BOX", "note": "ON 12/24 AND 12/31, THIS BOX MAY BE COLLECTED AS EARLY AS 12 NOON.", "ref": "7821700003"}, "type": "Feature"}
{"geometry": {"coordinates": [-98.387342989, 29.568414995], "type": "Point"}, "id": "FLNycegH8Q56MJbo6Vw94YtfWog=", "properties": {"@spider": "usps_collection_boxes", "addr:city": "SAN ANTONIO", "addr:country": "US", "addr:full": "13909 NACOGDOCHES RD", "addr:postcode": "78217", "addr:state": "TX", "brand": "USPS", "collection_times": "Mo-Fr 13:00; Sa 12:30", "name": "USPS COLLECTION BOX - BLUE BOX", "note": "ON 12/24 AND 12/31, THIS BOX MAY BE COLLECTED AS EARLY AS 12 NOON.", "ref": "7821700014"}, "type": "Feature"}
{"geometry": {"coordinates": [-98.427843004, 29.517208985], "type": "Point"}, "id": "oEJuA3Hxdy74acRMJWCDdFXoHDM=", "properties": {"@spider": "usps_collection_boxes", "addr:city": "SAN ANTONIO", "addr:country": "US", "addr:full": "8527 VILLAGE DR", "addr:postcode": "78217", "addr:state": "TX", "brand": "USPS", "collection_times": "Mo-Fr 15:15", "name": "USPS COLLECTION BOX - BLUE BOX", "note": "ON 12/24 AND 12/31, THIS BOX MAY BE COLLECTED AS EARLY AS 12 NOON.", "ref": "7821700022"}, "type": "Feature"}
{"geometry": {"coordinates": [-98.457224005, 29.524699012], "type": "Point"}, "id": "riecm06Etts_WEy77wJ8128suxE=", "properties": {"@spider": "usps_collection_boxes", "addr:city": "SAN ANTONIO", "addr:country": "US", "addr:full": "9211 BROADWAY ST", "addr:postcode": "78217", "addr:state": "TX", "brand": "USPS", "collection_times": "Mo-Fr 17:30; Sa 16:00", "name": "USPS COLLECTION BOX - BLUE BOX", "note": "ON 12/24 AND 12/31, THIS BOX MAY BE COLLECTED AS EARLY AS 12 NOON.", "ref": "7821700028"}, "type": "Feature"}
{"geometry": {"coordinates": [-98.455528011, 29.520450015], "type": "Point"}, "id": "c63LOUJkQt-pi64JqbDpmiH72Aw=", "properties": {"@spider": "usps_collection_boxes", "addr:city": "SAN ANTONIO", "addr:country": "US", "addr:full": "8918 TESORO DR", "addr:postcode": "78217", "addr:state": "TX", "brand": "USPS", "collection_times": "Mo-Fr 15:30", "name": "USPS COLLECTION BOX - BLUE BOX", "note": "ON 12/24 AND 12/31, THIS BOX MAY BE COLLECTED AS EARLY AS 12 NOON.", "ref": "7821700035"}, "type": "Feature"}
{"geometry": {"coordinates": [-98.458179961, 29.518247], "type": "Point"}, "id": "oNWyFCNQqSpiHuOjUH9Ch8kQLCc=", "properties": {"@spider": "usps_collection_boxes", "addr:city": "SAN ANTONIO", "addr:country": "US", "addr:full": "8610 N NEW BRAUNFELS AVE", "addr:postcode": "78217", "addr:state": "TX", "brand": "USPS", "collection_times": "Mo-Fr 15:30", "name": "USPS COLLECTION BOX - BLUE BOX", "note": "ON 12/24 AND 12/31, THIS BOX MAY BE COLLECTED AS EARLY AS 12 NOON.", "ref": "7821700040"}, "type": "Feature"}
{"geometry": {"coordinates": [-98.406911967, 29.551849002], "type": "Point"}, "id": "0HWUi_cuCeVWmDwojZHoGBdt4QU=", "properties": {"@spider": "usps_collection_boxes", "addr:city": "SAN ANTONIO", "addr:country": "US", "addr:full": "12303 NACOGDOCHES RD", "addr:postcode": "78217", "addr:state": "TX", "brand": "USPS", "collection_times": "Mo-Fr 13:00; Sa 12:45", "name": "USPS COLLECTION BOX - BLUE BOX", "note": "ON 12/24 AND 12/31, THIS BOX MAY BE COLLECTED AS EARLY AS 12 NOON.", "ref": "7821700047"}, "type": "Feature"}
{"geometry": {"coordinates": [-98.435340029, 29.515330014], "type": "Point"}, "id": "LFSG7e-yrquSri0YRjVedeudZ2E=", "properties": {"@spider": "usps_collection_boxes", "addr:city": "SAN ANTONIO", "addr:country": "US", "addr:full": "1802 NE LOOP 410", "addr:postcode": "78217", "addr:state": "TX", "brand": "USPS", "collection_times": "Mo-Fr 14:45", "name": "USPS COLLECTION BOX - BLUE BOX", "note": "ON 12/24 AND 12/31, THIS BOX MAY BE COLLECTED AS EARLY AS 12 NOON.", "ref": "7821700054"}, "type": "Feature"}
{"geometry": {"coordinates": [-98.432333422, 29.516460776], "type": "Point"}, "id": "Rm_VGhSxLkmTkq4bhTETHO53RCg=", "properties": {"@spider": "usps_collection_boxes", "addr:city": "SAN ANTONIO", "addr:country": "US", "addr:full": "1937 NE LOOP 410", "addr:postcode": "78217", "addr:state": "TX", "brand": "USPS", "collection_times": "Mo-Fr 15:15", "name": "USPS COLLECTION BOX - BLUE BOX", "note": "ON 12/24 AND 12/31, THIS BOX MAY BE COLLECTED AS EARLY AS 12 NOON.", "ref": "7821700057"}, "type": "Feature"}
{"geometry": {"coordinates": [-98.457224005, 29.524699012], "type": "Point"}, "id": "bXbXyN6ENHojuFLaddMmpuRZlTY=", "properties": {"@spider": "usps_collection_boxes", "addr:city": "SAN ANTONIO", "addr:country": "US", "addr:full": "9211 BROADWAY ST", "addr:postcode": "78217", "addr:state": "TX", "brand": "USPS", "collection_times": "Mo-Fr 17:30; Sa 16:00", "name": "USPS COLLECTION BOX - PO LOBBY", "note": "ON 12/24 AND 12/31, THIS BOX MAY BE COLLECTED AS EARLY AS 12 NOON.", "ref": "7821700060"}, "type": "Feature"}
{"geometry": {"coordinates": [-98.428009971, 29.518753979], "type": "Point"}, "id": "cDabW1EMihM1pIp5mCSFCVM3eKY=", "properties": {"@spider": "usps_collection_boxes", "addr:city": "SAN ANTONIO", "addr:country": "US", "addr:full": "8711 VILLAGE DR", "addr:postcode": "78217", "addr:state": "TX", "brand": "USPS", "collection_times": "Mo-Fr 15:00", "name": "USPS COLLECTION BOX - BLUE BOX", "note": "ON 12/24 AND 12/31, THIS BOX MAY BE COLLECTED AS EARLY AS 12 NOON.", "ref": "7821700061"}, "type": "Feature"}
{"geometry": {"coordinates": [-98.457224005, 29.524699012], "type": "Point"}, "id": "p6YuLF-FKq1baTiqWXpixIFn5zQ=", "properties": {"@spider": "usps_collection_boxes", "addr:city": "SAN ANTONIO", "addr:country": "US", "addr:full": "9211 BROADWAY ST", "addr:postcode": "78217", "addr:state": "TX", "brand": "USPS", "collection_times": "Mo-Fr 17:30; Sa 16:00", "name": "USPS COLLECTION BOX - PO LOBBY", "note": "ON 12/24 AND 12/31, THIS BOX MAY BE COLLECTED AS EARLY AS 12 NOON.", "ref": "7821700063"}, "type": "Feature"}
{"geometry": {"coordinates": [-98.407055968, 29.549049991], "type": "Point"}, "id": "zpWxEwp-_sUFzAnFesFk7vl-Fjw=", "properties": {"@spider": "usps_collection_boxes", "addr:city": "SAN ANTONIO", "addr:country": "US", "addr:full": "12018 PERRIN BEITEL RD", "addr:postcode": "78217", "addr:state": "TX", "brand": "USPS", "collection_times": "Mo-Fr 13:00; Sa 12:15", "name": "USPS COLLECTION BOX - BLUE BOX", "note": "ON 12/24 AND 12/31, THIS BOX MAY BE COLLECTED AS EARLY AS 12 NOON.", "ref": "7821700067"}, "type": "Feature"}
{"geometry": {"coordinates": [-98.453427003, 29.51857402], "type": "Point"}, "id": "Dh5ZFg6nIRzabjeSoyTcJlXk3TI=", "properties": {"@spider": "usps_collection_boxes", "addr:city": "SAN ANTONIO", "addr:country": "US", "addr:full": "8626 TESORO DR", "addr:postcode": "78217", "addr:state": "TX", "brand": "USPS", "collection_times": "Mo-Fr 15:30", "name": "USPS COLLECTION BOX - BLUE BOX", "note": "ON 12/24 AND 12/31, THIS BOX MAY BE COLLECTED AS EARLY AS 12 NOON.", "ref": "7821700070"}, "type": "Feature"}
{"geometry": {"coordinates": [-98.453427003, 29.51857402], "type": "Point"}, "id": "CL58p5SUyLuRLz4D9WSJ2sy2iFs=", "properties": {"@spider": "usps_collection_boxes", "addr:city": "SAN ANTONIO", "addr:country": "US", "addr:full": "8626 TESORO DR", "addr:postcode": "78217", "addr:state": "TX", "brand": "USPS", "collection_times": "Mo-Fr 15:30", "name": "USPS COLLECTION BOX - BLUE BOX", "note": "ON 12/24 AND 12/31, THIS BOX MAY BE COLLECTED AS EARLY AS 12 NOON.", "ref": "7821700071"}, "type": "Feature"}
{"geometry": {"coordinates": [-98.454901966, 29.518008996], "type": "Point"}, "id": "NN56WyjBZ0I5ePBIaFKLJyQdW-4=", "properties": {"@spider": "usps_collection_boxes", "addr:city": "SAN ANTONIO", "addr:country": "US", "addr:full": "1045 CHEEVER BLVD", "addr:postcode": "78217", "addr:state": "TX", "brand": "USPS", "collection_times": "Mo-Fr 15:30", "name": "USPS COLLECTION BOX - BLUE BOX", "note": "ON 12/24 AND 12/31, THIS BOX MAY BE COLLECTED AS EARLY AS 12 NOON.", "ref": "7821700075"}, "type": "Feature"}
{"geometry": {"coordinates": [-98.457224005, 29.524699012], "type": "Point"}, "id": "ymO6fTXDvfpOQWk-Q82FHx3Ufm8=", "properties": {"@spider": "usps_collection_boxes", "addr:city": "SAN ANTONIO", "addr:country": "US", "addr:full": "9211 BROADWAY ST", "addr:postcode": "78217", "addr:state": "TX", "brand": "USPS", "collection_times": "Mo-Fr 17:30; Sa 12:30", "name": "USPS COLLECTION BOX - PO LOBBY", "note": "ON 12/24 AND 12/31, THIS BOX MAY BE COLLECTED AS EARLY AS 12 NOON.", "ref": "7821700081"}, "type": "Feature"}
{"geometry": {"coordinates": [-98.428096205, 29.509381756], "type": "Point"}, "id": "366sg04dtRjh7cfcFUiLqV6CbG4=", "properties": {"@spider": "usps_collection_boxes", "addr:city": "SAN ANTONIO", "addr:country": "US", "addr:full": "1807 OAKWELL FARMS", "addr:postcode": "78218", "addr:state": "TX", "brand": "USPS", "collection_times": "Mo-Fr 14:30; Sa 14:15", "name": "USPS COLLECTION BOX - BLUE BOX", "note": "ON 12/24 AND 12/31, THIS BOX MAY BE COLLECTED AS EARLY AS 12 NOON.", "ref": "7821800022"}, "type": "Feature"}
{"geometry": {"coordinates": [-98.418490979, 29.50042502], "type": "Point"}, "id": "pMgCgRQpKtteQbUzCOftRdxCH9A=", "properties": {"@spider": "usps_collection_boxes", "addr:city": "SAN ANTONIO", "addr:country": "US", "addr:full": "1948 AUSTIN HWY", "addr:postcode": "78218", "addr:state": "TX", "brand": "USPS", "collection_times": "Mo-Fr 17:00; Sa 16:30", "name": "USPS COLLECTION BOX - BLUE BOX", "note": "ON 12/24 AND 12/31, THIS BOX MAY BE COLLECTED AS EARLY AS 12 NOON.", "ref": "7821800027"}, "type": "Feature"}
{"geometry": {"coordinates": [-98.433619979, 29.509850009], "type": "Point"}, "id": "rYOFrbMG8p4BdMHZoyEAw31yHF0=", "properties": {"@spider": "usps_collection_boxes", "addr:city": "SAN ANTONIO", "addr:country": "US", "addr:full": "1919 OAKWELL FARMS PKWY", "addr:postcode": "78218", "addr:state": "TX", "brand": "USPS", "collection_times": "Mo-Fr 16:15", "name": "USPS COLLECTION BOX - BLUE BOX", "note": "ON 12/24 AND 12/31, THIS BOX MAY BE COLLECTED AS EARLY AS 12 NOON.", "ref": "7821800047"}, "type": "Feature"}
{"geometry": {"coordinates": [-98.430915098, 29.490850465], "type": "Point"}, "id": "o7ZGpD-KmzKXe13fBKJQGoCXiyg=", "properties": {"@spider": "usps_collection_boxes", "addr:city": "SAN ANTONIO", "addr:country": "US", "addr:full": "3407 NORTHEAST PKWY", "addr:postcode": "78218", "addr:state": "TX", "brand": "USPS", "collection_times": "Mo-Fr 13:15", "name": "USPS COLLECTION BOX - BLUE BOX", "note": "ON 12/24 AND 12/31, THIS BOX MAY BE COLLECTED AS EARLY AS 12 NOON.", "ref": "7821800054"}, "type": "Feature"}
{"geometry": {"coordinates": [-98.418490979, 29.50042502], "type": "Point"}, "id": "BW9w3cuiQDuogSrRHda0FfNgffk=", "properties": {"@spider": "usps_collection_boxes", "addr:city": "SAN ANTONIO", "addr:country": "US", "addr:full": "1948 AUSTIN HWY", "addr:postcode": "78218", "addr:state": "TX", "brand": "USPS", "collection_times": "Mo-Fr 17:00; Sa 16:30", "name": "USPS COLLECTION BOX - PO LOBBY", "note": "ON 12/24 AND 12/31, THIS BOX MAY BE COLLECTED AS EARLY AS 12 NOON.", "ref": "7821800057"}, "type": "Feature"}
{"geometry": {"coordinates": [-98.431316967, 29.493244998], "type": "Point"}, "id": "5yjqStRo0mh5eu5sQi-WJrpr61Y=", "properties": {"@spider": "usps_collection_boxes", "addr:city": "SAN ANTONIO", "addr:country": "US", "addr:full": "1520 AUSTIN HWY", "addr:postcode": "78218", "addr:state": "TX", "brand": "USPS", "collection_times": "Mo-Fr 13:15; Sa 14:15", "name": "USPS COLLECTION BOX - BLUE BOX", "note": "ON 12/24 AND 12/31, THIS BOX MAY BE COLLECTED AS EARLY AS 12 NOON.", "ref": "7821800062"}, "type": "Feature"}
{"geometry": {"coordinates": [-98.418490979, 29.50042502], "type": "Point"}, "id": "tjzZvwdxjE1xN0EEztVJMAltaEE=", "properties": {"@spider": "usps_collection_boxes", "addr:city": "SAN ANTONIO", "addr:country": "US", "addr:full": "1948 AUSTIN HWY", "addr:postcode": "78218", "addr:state": "TX", "brand": "USPS", "collection_times": "Mo-Fr 17:00; Sa 12:00", "name": "USPS COLLECTION BOX - PO LOBBY", "note": "ON 12/24 AND 12/31, THIS BOX MAY BE COLLECTED AS EARLY AS 12 NOON.", "ref": "7821800070"}, "type": "Feature"}
{"geometry": {"coordinates": [-98.395089041, 29.423457021], "type": "Point"}, "id": "FLc6q2r0FVdhdXhCMz594yvRbCQ=", "properties": {"@spider": "usps_collection_boxes", "addr:city": "SAN ANTONIO", "addr:country": "US", "addr:full": "4950 E HOUSTON ST", "addr:postcode": "78220", "addr:state": "TX", "brand": "USPS", "collection_times": "Mo-Fr 17:00; Sa 16:15", "name": "USPS COLLECTION BOX - BLUE BOX", "note": "ON 12/24 AND 12/31, THIS BOX MAY BE COLLECTED AS EARLY AS 12 NOON.", "ref": "7822000004"}, "type": "Feature"}
{"geometry": {"coordinates": [-98.395089041, 29.423457021], "type": "Point"}, "id": "eCjAqQlHhiWU-2BrDS-J-gAOOs8=", "properties": {"@spider": "usps_collection_boxes", "addr:city": "SAN ANTONIO", "addr:country": "US", "addr:full": "4950 E HOUSTON ST", "addr:postcode": "78220", "addr:state": "TX", "brand": "USPS", "collection_times": "Mo-Fr 17:00; Sa 16:00", "name": "USPS COLLECTION BOX - PO LOBBY", "note": "ON 12/24 AND 12/31, THIS BOX MAY BE COLLECTED AS EARLY AS 12 NOON.", "ref": "7822000011"}, "type": "Feature"}
{"geometry": {"coordinates": [-98.395089041, 29.423457021], "type": "Point"}, "id": "prq9tnL3e5bF2OuKVuvA4x4dHzc=", "properties": {"@spider": "usps_collection_boxes", "addr:city": "SAN ANTONIO", "addr:country": "US", "addr:full": "4950 E HOUSTON ST", "addr:postcode": "78220", "addr:state": "TX", "brand": "USPS", "collection_times": "Mo-Fr 17:00; Sa 16:15", "name": "USPS COLLECTION BOX - BLUE BOX", "note": "ON 12/24 AND 12/31, THIS BOX MAY BE COLLECTED AS EARLY AS 12 NOON.", "ref": "7822000015"}, "type": "Feature"}
{"geometry": {"coordinates": [-98.395089041, 29.423457021], "type": "Point"}, "id": "CWmp0s9dLgsAAPY807ZiRDKxRJI=", "properties": {"@spider": "usps_collection_boxes", "addr:city": "SAN ANTONIO", "addr:country": "US", "addr:full": "4950 E HOUSTON ST", "addr:postcode": "78220", "addr:state": "TX", "brand": "USPS", "collection_times": "Mo-Fr 17:30; Sa 13:00", "name": "USPS COLLECTION BOX - PO LOBBY", "note": "ON 12/24 AND 12/31, THIS BOX MAY BE COLLECTED AS EARLY AS 12 NOON.", "ref": "7822000017"}, "type": "Feature"}
{"geometry": {"coordinates": [-98.503052983, 29.354050001], "type": "Point"}, "id": "BzvBYVNAorm1MI161D5f-BReKQE=", "properties": {"@spider": "usps_collection_boxes", "addr:city": "SAN ANTONIO", "addr:country": "US", "addr:full": "2602 PLEASANTON RD", "addr:postcode": "78221", "addr:state": "TX", "brand": "USPS", "collection_times": "Mo-Fr 15:00; Sa 14:45", "name": "USPS COLLECTION BOX - BLUE BOX", "note": "ON 12/24 AND 12/31, THIS BOX MAY BE COLLECTED AS EARLY AS 12 NOON.", "ref": "7822100018"}, "type": "Feature"}
{"geometry": {"coordinates": [-98.502660961, 29.357698015], "type": "Point"}, "id": "zSbEtiX8XqzdUrCE0dV8u5o64Ew=", "properties": {"@spider": "usps_collection_boxes", "addr:city": "SAN ANTONIO", "addr:country": "US", "addr:full": "735 SW MILITARY DR", "addr:postcode": "78221", "addr:state": "TX", "brand": "USPS", "collection_times": "Mo-Fr 15:15; Sa 14:45", "name": "USPS COLLECTION BOX - BLUE BOX", "note": "ON 12/24 AND 12/31, THIS BOX MAY BE COLLECTED AS EARLY AS 12 NOON.", "ref": "7822100023"}, "type": "Feature"}
{"geometry": {"coordinates": [-98.304178409, 29.266525518], "type": "Point"}, "id": "4n7ekEc77YUeLhRsOjxh69L3YHY=", "properties": {"@spider": "usps_collection_boxes", "addr:city": "SAN ANTONIO", "addr:country": "US", "addr:full": "15540 S US HIGHWAY 181", "addr:postcode": "78223", "addr:state": "TX", "brand": "USPS", "collection_times": "Mo-Sa 12:00", "name": "USPS COLLECTION BOX - BLUE BOX", "ref": "7822300018"}, "type": "Feature"}
{"geometry": {"coordinates": [-98.433629031, 29.35404099], "type": "Point"}, "id": "cFGbJVrvcnjPqicfCyDVFeUBAUw=", "properties": {"@spider": "usps_collection_boxes", "addr:city": "SAN ANTONIO", "addr:country": "US", "addr:full": "3323 SE MILITARY DR", "addr:postcode": "78223", "addr:state": "TX", "brand": "USPS", "collection_times": "Mo-Fr 15:45; Sa 14:15", "name": "USPS COLLECTION BOX - BLUE BOX", "note": "ON 12/24 AND 12/31, THIS BOX MAY BE COLLECTED AS EARLY AS 12 NOON.", "ref": "7822300023"}, "type": "Feature"}
{"geometry": {"coordinates": [-98.447741977, 29.37775901], "type": "Point"}, "id": "wL5UTQr-dtIN96azDwi49aT2DME=", "properties": {"@spider": "usps_collection_boxes", "addr:city": "SAN ANTONIO", "addr:country": "US", "addr:full": "3918 CLARK AVE", "addr:postcode": "78223", "addr:state": "TX", "brand": "USPS", "collection_times": "Mo-Fr 17:00; Sa 15:45", "name": "USPS COLLECTION BOX - PO LOBBY", "note": "ON 12/24 AND 12/31, THIS BOX MAY BE COLLECTED AS EARLY AS 12 NOON.", "ref": "7822300039"}, "type": "Feature"}
{"geometry": {"coordinates": [-98.422110033, 29.337689993], "type": "Point"}, "id": "as_Cyb2bKt1G7DKazon1zDUcjBE=", "properties": {"@spider": "usps_collection_boxes", "addr:city": "SAN ANTONIO", "addr:country": "US", "addr:full": "3500 GOLIAD RD", "addr:postcode": "78223", "addr:state": "TX", "brand": "USPS", "collection_times": "Mo-Fr 15:45; Sa 14:15", "name": "USPS COLLECTION BOX - BLUE BOX", "note": "ON 12/24 AND 12/31, THIS BOX MAY BE COLLECTED AS EARLY AS 12 NOON.", "ref": "7822300044"}, "type": "Feature"}
{"geometry": {"coordinates": [-98.447741977, 29.37775901], "type": "Point"}, "id": "D25-L_h91Chshu2yuXhR7vaM1cY=", "properties": {"@spider": "usps_collection_boxes", "addr:city": "SAN ANTONIO", "addr:country": "US", "addr:full": "3918 CLARK AVE", "addr:postcode": "78223", "addr:state": "TX", "brand": "USPS", "collection_times": "Mo-Fr 17:00; Sa 15:45", "name": "USPS COLLECTION BOX - PO LOBBY", "note": "ON 12/24 AND 12/31, THIS BOX MAY BE COLLECTED AS EARLY AS 12 NOON.", "ref": "7822300046"}, "type": "Feature"}
{"geometry": {"coordinates": [-98.447741977, 29.37775901], "type": "Point"}, "id": "60pUspMFJ2ahAS26_ZiXDJtqIMs=", "properties": {"@spider": "usps_collection_boxes", "addr:city": "SAN ANTONIO", "addr:country": "US", "addr:full": "3918 CLARK AVE", "addr:postcode": "78223", "addr:state": "TX", "brand": "USPS", "collection_times": "Mo-Fr 17:00; Sa 15:45", "name": "USPS COLLECTION BOX - BLUE BOX", "note": "ON 12/24 AND 12/31, THIS BOX MAY BE COLLECTED AS EARLY AS 12 NOON.", "ref": "7822300047"}, "type": "Feature"}
{"geometry": {"coordinates": [-98.447741977, 29.37775901], "type": "Point"}, "id": "5LlDeBNYKf4AEAmWgqjyR3OFTsA=", "properties": {"@spider": "usps_collection_boxes", "addr:city": "SAN ANTONIO", "addr:country": "US", "addr:full": "3918 CLARK AVE", "addr:postcode": "78223", "addr:state": "TX", "brand": "USPS", "collection_times": "Mo-Fr 17:00; Sa 15:45", "name": "USPS COLLECTION BOX - BLUE BOX", "note": "ON 12/24 AND 12/31, THIS BOX MAY BE COLLECTED AS EARLY AS 12 NOON.", "ref": "7822300051"}, "type": "Feature"}
{"geometry": {"coordinates": [-98.447741977, 29.37775901], "type": "Point"}, "id": "7tCvvw0I4xvh1Ad3a1GTbTs8SbI=", "properties": {"@spider": "usps_collection_boxes", "addr:city": "SAN ANTONIO", "addr:country": "US", "addr:full": "3918 CLARK AVE", "addr:postcode": "78223", "addr:state": "TX", "brand": "USPS", "collection_times": "Mo-Fr 17:30; Sa 13:00", "name": "USPS COLLECTION BOX - PO LOBBY", "note": "ON 12/24 AND 12/31, THIS BOX MAY BE COLLECTED AS EARLY AS 12 NOON.", "ref": "7822300054"}, "type": "Feature"}
{"geometry": {"coordinates": [-98.549143979, 29.354636986], "type": "Point"}, "id": "giaswlcNcsocBKgkC5FK51RnKeo=", "properties": {"@spider": "usps_collection_boxes", "addr:city": "SAN ANTONIO", "addr:country": "US", "addr:full": "88 BRIGGS ST", "addr:postcode": "78224", "addr:state": "TX", "brand": "USPS", "collection_times": "Mo-Fr 14:30", "name": "USPS COLLECTION BOX - BLUE BOX", "note": "ON 12/24 AND 12/31, THIS BOX MAY BE COLLECTED AS EARLY AS 12 NOON.", "ref": "7822400012"}, "type": "Feature"}
{"geometry": {"coordinates": [-98.533733011, 29.330571997], "type": "Point"}, "id": "AkOYhMsTmmO3d38jNyaUEtV8M6o=", "properties": {"@spider": "usps_collection_boxes", "addr:city": "SAN ANTONIO", "addr:country": "US", "addr:full": "9209 S ZARZAMORA ST", "addr:postcode": "78224", "addr:state": "TX", "brand": "USPS", "collection_times": "Mo-Sa 15:00", "name": "USPS COLLECTION BOX - BLUE BOX", "note": "ON 12/24 AND 12/31, THIS BOX MAY BE COLLECTED AS EARLY AS 12 NOON.", "ref": "7822400018"}, "type": "Feature"}
{"geometry": {"coordinates": [-98.531186003, 29.354348019], "type": "Point"}, "id": "BUBNwhFHZu3427fyP-nzRrNAj2E=", "properties": {"@spider": "usps_collection_boxes", "addr:city": "SAN ANTONIO", "addr:country": "US", "addr:full": "2310 SW MILITARY DR", "addr:postcode": "78224", "addr:state": "TX", "brand": "USPS", "collection_times": "Mo-Fr 14:45", "name": "USPS COLLECTION BOX - BLUE BOX", "note": "ON 12/24 AND 12/31, THIS BOX MAY BE COLLECTED AS EARLY AS 12 NOON.", "ref": "7822400022"}, "type": "Feature"}
{"geometry": {"coordinates": [-98.547644037, 29.353494993], "type": "Point"}, "id": "nJ9Du5tABMuam-Nw6HC3iqvNW68=", "properties": {"@spider": "usps_collection_boxes", "addr:city": "SAN ANTONIO", "addr:country": "US", "addr:full": "7411 BARLITE BLVD", "addr:postcode": "78224", "addr:state": "TX", "brand": "USPS", "collection_times": "Mo-Sa 17:00", "name": "USPS COLLECTION BOX - BLUE BOX", "note": "ON 12/24 AND 12/31, THIS BOX MAY BE COLLECTED AS EARLY AS 12 NOON.", "ref": "7822400024"}, "type": "Feature"}
{"geometry": {"coordinates": [-98.547644037, 29.353494993], "type": "Point"}, "id": "spbL2x2_l3VjJ74jYR7ivtw4sN8=", "properties": {"@spider": "usps_collection_boxes", "addr:city": "SAN ANTONIO", "addr:country": "US", "addr:full": "7411 BARLITE BLVD", "addr:postcode": "78224", "addr:state": "TX", "brand": "USPS", "collection_times": "Mo-Sa 17:00", "name": "USPS COLLECTION BOX - PO LOBBY", "note": "ON 12/24 AND 12/31, THIS BOX MAY BE COLLECTED AS EARLY AS 12 NOON.", "ref": "7822400027"}, "type": "Feature"}
{"geometry": {"coordinates": [-98.547644037, 29.353494993], "type": "Point"}, "id": "1-HVpbozs66S1ERtETR0WJk6lFs=", "properties": {"@spider": "usps_collection_boxes", "addr:city": "SAN ANTONIO", "addr:country": "US", "addr:full": "7411 BARLITE BLVD", "addr:postcode": "78224", "addr:state": "TX", "brand": "USPS", "collection_times": "Mo-Sa 17:00", "name": "USPS COLLECTION BOX - PO LOBBY", "note": "ON 12/24 AND 12/31, THIS BOX MAY BE COLLECTED AS EARLY AS 12 NOON.", "ref": "7822400031"}, "type": "Feature"}
{"geometry": {"coordinates": [-98.547644037, 29.353494993], "type": "Point"}, "id": "JDLdRfutIZDHX9gglG7vUmvVm0M=", "properties": {"@spider": "usps_collection_boxes", "addr:city": "SAN ANTONIO", "addr:country": "US", "addr:full": "7411 BARLITE BLVD", "addr:postcode": "78224", "addr:state": "TX", "brand": "USPS", "collection_times": "Mo-Sa 17:00", "name": "USPS COLLECTION BOX - PO LOBBY", "note": "ON 12/24 AND 12/31, THIS BOX MAY BE COLLECTED AS EARLY AS 12 NOON.", "ref": "7822400032"}, "type": "Feature"}
{"geometry": {"coordinates": [-98.547644037, 29.353494993], "type": "Point"}, "id": "FbToCHcMOEdrdbLNfroJK38SZJo=", "properties": {"@spider": "usps_collection_boxes", "addr:city": "SAN ANTONIO", "addr:country": "US", "addr:full": "7411 BARLITE BLVD", "addr:postcode": "78224", "addr:state": "TX", "brand": "USPS", "collection_times": "Mo-Sa 17:00", "name": "USPS COLLECTION BOX - BLUE BOX", "note": "ON 12/24 AND 12/31, THIS BOX MAY BE COLLECTED AS EARLY AS 12 NOON.", "ref": "7822400036"}, "type": "Feature"}
{"geometry": {"coordinates": [-98.547644037, 29.353494993], "type": "Point"}, "id": "GRpRNy56HUYQrtcNQ0-cpOSJqeo=", "properties": {"@spider": "usps_collection_boxes", "addr:city": "SAN ANTONIO", "addr:country": "US", "addr:full": "7411 BARLITE BLVD", "addr:postcode": "78224", "addr:state": "TX", "brand": "USPS", "collection_times": "Mo-Fr 17:30; Sa 13:00", "name": "USPS COLLECTION BOX - PO LOBBY", "note": "ON 12/24 AND 12/31, THIS BOX MAY BE COLLECTED AS EARLY AS 12 NOON.", "ref": "7822400038"}, "type": "Feature"}
{"geometry": {"coordinates": [-98.527424959, 29.38180001], "type": "Point"}, "id": "X0vBIYrPmTX6pxigE0Ye-4HwMUQ=", "properties": {"@spider": "usps_collection_boxes", "addr:city": "SAN ANTONIO", "addr:country": "US", "addr:full": "3414 NOGALITOS", "addr:postcode": "78225", "addr:state": "TX", "brand": "USPS", "collection_times": "Mo-Fr 13:45; Sa 15:30", "name": "USPS COLLECTION BOX - BLUE BOX", "note": "ON 12/24 AND 12/31, THIS BOX MAY BE COLLECTED AS EARLY AS 12 NOON.", "ref": "7822500003"}, "type": "Feature"}
{"geometry": {"coordinates": [-98.531714984, 29.397328994], "type": "Point"}, "id": "3BG_cFOrqGyzWnk6YJoBSfXVsWk=", "properties": {"@spider": "usps_collection_boxes", "addr:city": "SAN ANTONIO", "addr:country": "US", "addr:full": "705 KIRK PL", "addr:postcode": "78226", "addr:state": "TX", "brand": "USPS", "collection_times": "Mo-Fr 13:45; Sa 15:30", "name": "USPS COLLECTION BOX - BLUE BOX", "note": "ON 12/24 AND 12/31, THIS BOX MAY BE COLLECTED AS EARLY AS 12 NOON.", "ref": "7822600004"}, "type": "Feature"}
{"geometry": {"coordinates": [-98.504843022, 29.426745996], "type": "Point"}, "id": "Wpu5FrjaSqprtp8jMAPlUWqwnd8=", "properties": {"@spider": "usps_collection_boxes", "addr:city": "SAN ANTONIO", "addr:country": "US", "addr:full": "118 N MEDINA ST", "addr:postcode": "78227", "addr:state": "TX", "brand": "USPS", "collection_times": "Mo-Fr 14:00", "name": "USPS COLLECTION BOX - BLUE BOX", "note": "ON 12/24 AND 12/31, THIS BOX MAY BE COLLECTED AS EARLY AS 12 NOON.", "ref": "7822700006"}, "type": "Feature"}
{"geometry": {"coordinates": [-98.639141007, 29.376854384], "type": "Point"}, "id": "nizRRNXtqGtuIuJ1OmWbMU0Lpm0=", "properties": {"@spider": "usps_collection_boxes", "addr:city": "SAN ANTONIO", "addr:country": "US", "addr:full": "5510 SW LOOP 410", "addr:postcode": "78227", "addr:state": "TX", "brand": "USPS", "collection_times": "Mo-Fr 17:30; Sa 16:00", "name": "USPS COLLECTION BOX - BLUE BOX", "note": "ON 12/24 AND 12/31, THIS BOX MAY BE COLLECTED AS EARLY AS 12 NOON.", "ref": "7822700013"}, "type": "Feature"}
{"geometry": {"coordinates": [-98.63381897, 29.402222014], "type": "Point"}, "id": "r_SKyfZlVH0u0nSS-rz-IsYs4Ts=", "properties": {"@spider": "usps_collection_boxes", "addr:city": "SAN ANTONIO", "addr:country": "US", "addr:full": "7323 W US HIGHWAY 90", "addr:postcode": "78227", "addr:state": "TX", "brand": "USPS", "collection_times": "Mo-Fr 15:45; Sa 14:30", "name": "USPS COLLECTION BOX - BLUE BOX", "note": "ON 12/24 AND 12/31, THIS BOX MAY BE COLLECTED AS EARLY AS 12 NOON.", "ref": "7822700015"}, "type": "Feature"}
{"geometry": {"coordinates": [-98.652625027, 29.420096003], "type": "Point"}, "id": "W0lqnD0GfL9ajp2fuSF02C6xh0w=", "properties": {"@spider": "usps_collection_boxes", "addr:city": "SAN ANTONIO", "addr:country": "US", "addr:full": "8219 MARBACH RD", "addr:postcode": "78227", "addr:state": "TX", "brand": "USPS", "collection_times": "Mo-Fr 15:30; Sa 14:45", "name": "USPS COLLECTION BOX - BLUE BOX", "note": "ON 12/24 AND 12/31, THIS BOX MAY BE COLLECTED AS EARLY AS 12 NOON.", "ref": "7822700036"}, "type": "Feature"}
{"geometry": {"coordinates": [-98.639141007, 29.376854384], "type": "Point"}, "id": "dQqWacTNcU7Jypz_ZQ1DLjPMIbA=", "properties": {"@spider": "usps_collection_boxes", "addr:city": "SAN ANTONIO", "addr:country": "US", "addr:full": "5510 SW LOOP 410", "addr:postcode": "78227", "addr:state": "TX", "brand": "USPS", "collection_times": "Mo-Fr 17:30; Sa 16:00", "name": "USPS COLLECTION BOX - PO LOBBY", "note": "ON 12/24 AND 12/31, THIS BOX MAY BE COLLECTED AS EARLY AS 12 NOON.", "ref": "7822700041"}, "type": "Feature"}
{"geometry": {"coordinates": [-98.639141007, 29.376854384], "type": "Point"}, "id": "rLErGdem11D2i8KTcWNEzXXgcfo=", "properties": {"@spider": "usps_collection_boxes", "addr:city": "SAN ANTONIO", "addr:country": "US", "addr:full": "5510 SW LOOP 410", "addr:postcode": "78227", "addr:state": "TX", "brand": "USPS", "collection_times": "Mo-Fr 17:30; Sa 16:00", "name": "USPS COLLECTION BOX - BLUE BOX", "note": "ON 12/24 AND 12/31, THIS BOX MAY BE COLLECTED AS EARLY AS 12 NOON.", "ref": "7822700043"}, "type": "Feature"}
{"geometry": {"coordinates": [-98.639141007, 29.376854384], "type": "Point"}, "id": "E43KVOD6erp0bqfsBviDX9Xw-Ng=", "properties": {"@spider": "usps_collection_boxes", "addr:city": "SAN ANTONIO", "addr:country": "US", "addr:full": "5510 SW LOOP 410", "addr:postcode": "78227", "addr:state": "TX", "brand": "USPS", "collection_times": "Mo-Fr 17:00; Sa 13:00", "name": "USPS COLLECTION BOX - PO LOBBY", "note": "ON 12/24 AND 12/31, THIS BOX MAY BE COLLECTED AS EARLY AS 12 NOON.", "ref": "7822700045"}, "type": "Feature"}
{"geometry": {"coordinates": [-98.542418004, 29.44602299], "type": "Point"}, "id": "bSn2UcJM-5sfnaO-45vlsHBuiNk=", "properties": {"@spider": "usps_collection_boxes", "addr:city": "SAN ANTONIO", "addr:country": "US", "addr:full": "2130 CULEBRA RD", "addr:postcode": "78228", "addr:state": "TX", "brand": "USPS", "collection_times": "Mo-Fr 14:00; Sa 13:00", "name": "USPS COLLECTION BOX - BLUE BOX", "note": "ON 12/24 AND 12/31, THIS BOX MAY BE COLLECTED AS EARLY AS 12 NOON.", "ref": "7822800038"}, "type": "Feature"}
{"geometry": {"coordinates": [-98.543987013, 29.463874013], "type": "Point"}, "id": "0ttG-98YS9d0aHB4gWAdoC66sL4=", "properties": {"@spider": "usps_collection_boxes", "addr:city": "SAN ANTONIO", "addr:country": "US", "addr:full": "1024 DONALDSON AVE", "addr:postcode": "78228", "addr:state": "TX", "brand": "USPS", "collection_times": "Mo-Fr 13:30", "name": "USPS COLLECTION BOX - BLUE BOX", "note": "ON 12/24 AND 12/31, THIS BOX MAY BE COLLECTED AS EARLY AS 12 NOON.", "ref": "7822800065"}, "type": "Feature"}
{"geometry": {"coordinates": [-98.57075001, 29.470035005], "type": "Point"}, "id": "Q1kIk1xQIE1A__E-W2vZ_IubU2I=", "properties": {"@spider": "usps_collection_boxes", "addr:city": "SAN ANTONIO", "addr:country": "US", "addr:full": "1630 BANDERA RD", "addr:postcode": "78228", "addr:state": "TX", "brand": "USPS", "collection_times": "Mo-Fr 13:45", "name": "USPS COLLECTION BOX - BLUE BOX", "note": "ON 12/24 AND 12/31, THIS BOX MAY BE COLLECTED AS EARLY AS 12 NOON.", "ref": "7822800068"}, "type": "Feature"}
{"geometry": {"coordinates": [-98.570269979, 29.487304995], "type": "Point"}, "id": "qK7M6L_Bk-FaaVvPpjjek722RUg=", "properties": {"@spider": "usps_collection_boxes", "addr:city": "SAN ANTONIO", "addr:country": "US", "addr:full": "4438 CENTERVIEW", "addr:postcode": "78228", "addr:state": "TX", "brand": "USPS", "collection_times": "Mo-Fr 16:45; Sa 17:00", "name": "USPS COLLECTION BOX - BLUE BOX", "note": "ON 12/24 AND 12/31, THIS BOX MAY BE COLLECTED AS EARLY AS 12 NOON.", "ref": "7822800070"}, "type": "Feature"}
{"geometry": {"coordinates": [-98.57792098, 29.487022985], "type": "Point"}, "id": "WqYAE1OafUvAlq9xuap6txh6JlE=", "properties": {"@spider": "usps_collection_boxes", "addr:city": "SAN ANTONIO", "addr:country": "US", "addr:full": "5835 CALLAGHAN RD", "addr:postcode": "78228", "addr:state": "TX", "brand": "USPS", "collection_times": "Mo-Fr 16:30", "name": "USPS COLLECTION BOX - BLUE BOX", "note": "ON 12/24 AND 12/31, THIS BOX MAY BE COLLECTED AS EARLY AS 12 NOON.", "ref": "7822800075"}, "type": "Feature"}
{"geometry": {"coordinates": [-98.562844032, 29.452371988], "type": "Point"}, "id": "bAfZ5Cx-0nXFA6oJOuh2bdrMSkc=", "properties": {"@spider": "usps_collection_boxes", "addr:city": "SAN ANTONIO", "addr:country": "US", "addr:full": "1 CAMINO SANTA MARIA ST", "addr:postcode": "78228", "addr:state": "TX", "brand": "USPS", "collection_times": "Mo-Fr 14:00; Sa 13:00", "name": "USPS COLLECTION BOX - BLUE BOX", "note": "ON 12/24 AND 12/31, THIS BOX MAY BE COLLECTED AS EARLY AS 12 NOON.", "ref": "7822800085"}, "type": "Feature"}
{"geometry": {"coordinates": [-98.57792098, 29.487022985], "type": "Point"}, "id": "6cNB1pk_C7XaHoNza7IssoxJ-5k=", "properties": {"@spider": "usps_collection_boxes", "addr:city": "SAN ANTONIO", "addr:country": "US", "addr:full": "5835 CALLAGHAN RD", "addr:postcode": "78228", "addr:state": "TX", "brand": "USPS", "collection_times": "Mo-Fr 16:30", "name": "USPS COLLECTION BOX - BLUE BOX", "note": "ON 12/24 AND 12/31, THIS BOX MAY BE COLLECTED AS EARLY AS 12 NOON.", "ref": "7822800113"}, "type": "Feature"}
{"geometry": {"coordinates": [-98.578921025, 29.500080021], "type": "Point"}, "id": "mtT5fQxe7ZKPEQs2BFzT0DC0wpI=", "properties": {"@spider": "usps_collection_boxes", "addr:city": "SAN ANTONIO", "addr:country": "US", "addr:full": "2020 BABCOCK RD", "addr:postcode": "78229", "addr:state": "TX", "brand": "USPS", "collection_times": "Mo-Fr 13:15", "name": "USPS COLLECTION BOX - BLUE BOX", "note": "ON 12/24 AND 12/31, THIS BOX MAY BE COLLECTED AS EARLY AS 12 NOON.", "ref": "7822900003"}, "type": "Feature"}
{"geometry": {"coordinates": [-98.591235969, 29.513483019], "type": "Point"}, "id": "DDVKi9aoSo2zImmFXeeuzikyfMw=", "properties": {"@spider": "usps_collection_boxes", "addr:city": "SAN ANTONIO", "addr:country": "US", "addr:full": "2833 BABCOCK RD", "addr:postcode": "78229", "addr:state": "TX", "brand": "USPS", "collection_times": "Mo-Fr 13:30", "name": "USPS COLLECTION BOX - BLUE BOX", "note": "ON 12/24 AND 12/31, THIS BOX MAY BE COLLECTED AS EARLY AS 12 NOON.", "ref": "7822900007"}, "type": "Feature"}
{"geometry": {"coordinates": [-98.570119021, 29.517409019], "type": "Point"}, "id": "99hQVMr1rCNPrcJ-pTcDXoQ4d9w=", "properties": {"@spider": "usps_collection_boxes", "addr:city": "SAN ANTONIO", "addr:country": "US", "addr:full": "8401 DATAPOINT DR", "addr:postcode": "78229", "addr:state": "TX", "brand": "USPS", "collection_times": "Mo-Fr 15:15", "name": "USPS COLLECTION BOX - BLUE BOX", "note": "ON 12/24 AND 12/31, THIS BOX MAY BE COLLECTED AS EARLY AS 12 NOON.", "ref": "7822900014"}, "type": "Feature"}
{"geometry": {"coordinates": [-98.569658016, 29.518830003], "type": "Point"}, "id": "EoaeN1NG0OKiMa3ZBFbdKw0sYJw=", "properties": {"@spider": "usps_collection_boxes", "addr:city": "SAN ANTONIO", "addr:country": "US", "addr:full": "8415 DATAPOINT DR", "addr:postcode": "78229", "addr:state": "TX", "brand": "USPS", "collection_times": "Mo-Fr 15:15", "name": "USPS COLLECTION BOX - BLUE BOX", "note": "ON 12/24 AND 12/31, THIS BOX MAY BE COLLECTED AS EARLY AS 12 NOON.", "ref": "7822900015"}, "type": "Feature"}
{"geometry": {"coordinates": [-98.574710041, 29.512368017], "type": "Point"}, "id": "sK2jPVRZv1HHcxnF0axsOD07Sqw=", "properties": {"@spider": "usps_collection_boxes", "addr:city": "SAN ANTONIO", "addr:country": "US", "addr:full": "7930 FLOYD CURL DR", "addr:postcode": "78229", "addr:state": "TX", "brand": "USPS", "collection_times": "Mo-Fr 15:30", "name": "USPS COLLECTION BOX - BLUE BOX", "note": "ON 12/24 AND 12/31, THIS BOX MAY BE COLLECTED AS EARLY AS 12 NOON.", "ref": "7822900020"}, "type": "Feature"}
{"geometry": {"coordinates": [-98.572611966, 29.513023984], "type": "Point"}, "id": "A7SFfeOVm_64_0UzV1QxNKHXGJI=", "properties": {"@spider": "usps_collection_boxes", "addr:city": "SAN ANTONIO", "addr:country": "US", "addr:full": "7922 EWING HALSELL DR", "addr:postcode": "78229", "addr:state": "TX", "brand": "USPS", "collection_times": "Mo-Fr 13:45", "name": "USPS COLLECTION BOX - BLUE BOX", "note": "ON 12/24 AND 12/31, THIS BOX MAY BE COLLECTED AS EARLY AS 12 NOON.", "ref": "7822900022"}, "type": "Feature"}
{"geometry": {"coordinates": [-98.575903959, 29.507090016], "type": "Point"}, "id": "rgyyLCBPQALQXNQoAfOFH6-9THg=", "properties": {"@spider": "usps_collection_boxes", "addr:city": "SAN ANTONIO", "addr:country": "US", "addr:full": "7703 FLOYD CURL DR", "addr:postcode": "78229", "addr:state": "TX", "brand": "USPS", "collection_times": "Mo-Fr 13:30", "name": "USPS COLLECTION BOX - BLUE BOX", "note": "ON 12/24 AND 12/31, THIS BOX MAY BE COLLECTED AS EARLY AS 12 NOON.", "ref": "7822900031"}, "type": "Feature"}
{"geometry": {"coordinates": [-98.555856039, 29.49431499], "type": "Point"}, "id": "9WkVCDjTOk9faZSfP6c_qXIIlOM=", "properties": {"@spider": "usps_collection_boxes", "addr:city": "SAN ANTONIO", "addr:country": "US", "addr:full": "4715 FREDERICKSBURG RD", "addr:postcode": "78229", "addr:state": "TX", "brand": "USPS", "collection_times": "Mo-Fr 14:15", "name": "USPS COLLECTION BOX - BLUE BOX", "note": "ON 12/24 AND 12/31, THIS BOX MAY BE COLLECTED AS EARLY AS 12 NOON.", "ref": "7822900032"}, "type": "Feature"}
{"geometry": {"coordinates": [-98.556488035, 29.496657983], "type": "Point"}, "id": "t8E-TVAHAcPuLMbi-DpNxmUYOuE=", "properties": {"@spider": "usps_collection_boxes", "addr:city": "SAN ANTONIO", "addr:country": "US", "addr:full": "4875 FREDERICKSBURG RD", "addr:postcode": "78229", "addr:state": "TX", "brand": "USPS", "collection_times": "Mo-Fr 14:00", "name": "USPS COLLECTION BOX - BLUE BOX", "note": "ON 12/24 AND 12/31, THIS BOX MAY BE COLLECTED AS EARLY AS 12 NOON.", "ref": "7822900037"}, "type": "Feature"}
{"geometry": {"coordinates": [-98.562101982, 29.505743002], "type": "Point"}, "id": "tw-bsVnFvjY7fuZb0wVt64uEmk8=", "properties": {"@spider": "usps_collection_boxes", "addr:city": "SAN ANTONIO", "addr:country": "US", "addr:full": "5368 FREDERICKSBURG RD", "addr:postcode": "78229", "addr:state": "TX", "brand": "USPS", "collection_times": "Mo-Fr 14:30", "name": "USPS COLLECTION BOX - BLUE BOX", "note": "ON 12/24 AND 12/31, THIS BOX MAY BE COLLECTED AS EARLY AS 12 NOON.", "ref": "7822900044"}, "type": "Feature"}
{"geometry": {"coordinates": [-98.562989039, 29.507462005], "type": "Point"}, "id": "-Z4x_6pfpZ3VIYWWJpuaLFKgKDo=", "properties": {"@spider": "usps_collection_boxes", "addr:city": "SAN ANTONIO", "addr:country": "US", "addr:full": "5430 FREDERICKSBURG RD", "addr:postcode": "78229", "addr:state": "TX", "brand": "USPS", "collection_times": "Mo-Fr 14:30", "name": "USPS COLLECTION BOX - BLUE BOX", "note": "ON 12/24 AND 12/31, THIS BOX MAY BE COLLECTED AS EARLY AS 12 NOON.", "ref": "7822900047"}, "type": "Feature"}
{"geometry": {"coordinates": [-98.572519011, 29.515854008], "type": "Point"}, "id": "Nuhx9EhdC5b-zaaLK7mvO3K5Vvs=", "properties": {"@spider": "usps_collection_boxes", "addr:city": "SAN ANTONIO", "addr:country": "US", "addr:full": "8269 FREDERICKSBURG RD", "addr:postcode": "78229", "addr:state": "TX", "brand": "USPS", "collection_times": "Mo-Fr 14:00", "name": "USPS COLLECTION BOX - BLUE BOX", "note": "ON 12/24 AND 12/31, THIS BOX MAY BE COLLECTED AS EARLY AS 12 NOON.", "ref": "7822900051"}, "type": "Feature"}
{"geometry": {"coordinates": [-98.57178199, 29.519465016], "type": "Point"}, "id": "AFfB7fzpklXtaPZO-9q_OJowPI4=", "properties": {"@spider": "usps_collection_boxes", "addr:city": "SAN ANTONIO", "addr:country": "US", "addr:full": "8452 FREDERICKSBURG RD", "addr:postcode": "78229", "addr:state": "TX", "brand": "USPS", "collection_times": "Mo-Fr 14:45", "name": "USPS COLLECTION BOX - BLUE BOX", "note": "ON 12/24 AND 12/31, THIS BOX MAY BE COLLECTED AS EARLY AS 12 NOON.", "ref": "7822900054"}, "type": "Feature"}
{"geometry": {"coordinates": [-98.56758601, 29.523358997], "type": "Point"}, "id": "is7ulzOOGqHOX-Q3HlcZkEyigM8=", "properties": {"@spider": "usps_collection_boxes", "addr:city": "SAN ANTONIO", "addr:country": "US", "addr:full": "4203 GARDENDALE ST", "addr:postcode": "78229", "addr:state": "TX", "brand": "USPS", "collection_times": "Mo-Fr 15:00", "name": "USPS COLLECTION BOX - BLUE BOX", "note": "ON 12/24 AND 12/31, THIS BOX MAY BE COLLECTED AS EARLY AS 12 NOON.", "ref": "7822900057"}, "type": "Feature"}
{"geometry": {"coordinates": [-98.581129992, 29.49029], "type": "Point"}, "id": "0YourVWDTAq3t-HBoZR5uFMBMT4=", "properties": {"@spider": "usps_collection_boxes", "addr:city": "SAN ANTONIO", "addr:country": "US", "addr:full": "4801 NW LOOP 410", "addr:postcode": "78229", "addr:state": "TX", "brand": "USPS", "collection_times": "Mo-Fr 16:30", "name": "USPS COLLECTION BOX - BLUE BOX", "note": "ON 12/24 AND 12/31, THIS BOX MAY BE COLLECTED AS EARLY AS 12 NOON.", "ref": "7822900067"}, "type": "Feature"}
{"geometry": {"coordinates": [-98.569618034, 29.509371989], "type": "Point"}, "id": "3LINNiFsasOBDIFby5AmG4B93Uw=", "properties": {"@spider": "usps_collection_boxes", "addr:city": "SAN ANTONIO", "addr:country": "US", "addr:full": "7711 LOUIS PASTEUR DR", "addr:postcode": "78229", "addr:state": "TX", "brand": "USPS", "collection_times": "Mo-Fr 16:15", "name": "USPS COLLECTION BOX - BLUE BOX", "note": "ON 12/24 AND 12/31, THIS BOX MAY BE COLLECTED AS EARLY AS 12 NOON.", "ref": "7822900072"}, "type": "Feature"}
{"geometry": {"coordinates": [-98.568103005, 29.513231981], "type": "Point"}, "id": "ilGrzC2RJW-7e-TD7WzDLzrLfAw=", "properties": {"@spider": "usps_collection_boxes", "addr:city": "SAN ANTONIO", "addr:country": "US", "addr:full": "4242 MEDICAL DR", "addr:postcode": "78229", "addr:state": "TX", "brand": "USPS", "collection_times": "Mo-Fr 14:45", "name": "USPS COLLECTION BOX - BLUE BOX", "note": "ON 12/24 AND 12/31, THIS BOX MAY BE COLLECTED AS EARLY AS 12 NOON.", "ref": "7822900079"}, "type": "Feature"}
{"geometry": {"coordinates": [-98.571564983, 29.509861995], "type": "Point"}, "id": "bmld6n6hIs6WZvWR0r6xy9lSQPQ=", "properties": {"@spider": "usps_collection_boxes", "addr:city": "SAN ANTONIO", "addr:country": "US", "addr:full": "4410 MEDICAL DR", "addr:postcode": "78229", "addr:state": "TX", "brand": "USPS", "collection_times": "Mo-Fr 16:00", "name": "USPS COLLECTION BOX - BLUE BOX", "note": "ON 12/24 AND 12/31, THIS BOX MAY BE COLLECTED AS EARLY AS 12 NOON.", "ref": "7822900081"}, "type": "Feature"}
{"geometry": {"coordinates": [-98.57390697, 29.510814012], "type": "Point"}, "id": "TT7iiIayD26cnqFeGMIvff22THQ=", "properties": {"@spider": "usps_collection_boxes", "addr:city": "SAN ANTONIO", "addr:country": "US", "addr:full": "4499 MEDICAL DR", "addr:postcode": "78229", "addr:state": "TX", "brand": "USPS", "collection_times": "Mo-Fr 16:00", "name": "USPS COLLECTION BOX - BLUE BOX", "note": "ON 12/24 AND 12/31, THIS BOX MAY BE COLLECTED AS EARLY AS 12 NOON.", "ref": "7822900085"}, "type": "Feature"}
{"geometry": {"coordinates": [-98.578895963, 29.508579019], "type": "Point"}, "id": "AQrJDJtoJK-SPkYjZ4u407mat6g=", "properties": {"@spider": "usps_collection_boxes", "addr:city": "SAN ANTONIO", "addr:country": "US", "addr:full": "4502 MEDICAL DR", "addr:postcode": "78229", "addr:state": "TX", "brand": "USPS", "collection_times": "Mo-Fr 13:30", "name": "USPS COLLECTION BOX - BLUE BOX", "note": "ON 12/24 AND 12/31, THIS BOX MAY BE COLLECTED AS EARLY AS 12 NOON.", "ref": "7822900086"}, "type": "Feature"}
{"geometry": {"coordinates": [-98.581272987, 29.511292996], "type": "Point"}, "id": "WO7fu71UXkyqI1DVkwZ3QvbXcr4=", "properties": {"@spider": "usps_collection_boxes", "addr:city": "SAN ANTONIO", "addr:country": "US", "addr:full": "4835 MEDICAL DR", "addr:postcode": "78229", "addr:state": "TX", "brand": "USPS", "collection_times": "Mo-Fr 17:00; Sa 16:00", "name": "USPS COLLECTION BOX - BLUE BOX", "note": "ON 12/24 AND 12/31, THIS BOX MAY BE COLLECTED AS EARLY AS 12 NOON.", "ref": "7822900090"}, "type": "Feature"}
{"geometry": {"coordinates": [-98.58091399, 29.506012983], "type": "Point"}, "id": "mEQPwygBFlNgkMazmCYBZoO4bQE=", "properties": {"@spider": "usps_collection_boxes", "addr:city": "SAN ANTONIO", "addr:country": "US", "addr:full": "7400 MERTON MINTER ST", "addr:postcode": "78229", "addr:state": "TX", "brand": "USPS", "collection_times": "Mo-Fr 13:15", "name": "USPS COLLECTION BOX - BLUE BOX", "note": "ON 12/24 AND 12/31, THIS BOX MAY BE COLLECTED AS EARLY AS 12 NOON.", "ref": "7822900095"}, "type": "Feature"}
{"geometry": {"coordinates": [-98.581272987, 29.511292996], "type": "Point"}, "id": "gfL3TYDE-hP6RnbnTEOgntRPQjM=", "properties": {"@spider": "usps_collection_boxes", "addr:city": "SAN ANTONIO", "addr:country": "US", "addr:full": "4835 MEDICAL DR", "addr:postcode": "78229", "addr:state": "TX", "brand": "USPS", "collection_times": "Mo-Fr 17:00; Sa 16:00", "name": "USPS COLLECTION BOX - PO LOBBY", "note": "ON 12/24 AND 12/31, THIS BOX MAY BE COLLECTED AS EARLY AS 12 NOON.", "ref": "7822900105"}, "type": "Feature"}
{"geometry": {"coordinates": [-98.558803032, 29.505317998], "type": "Point"}, "id": "UmGunTnJFdPWGhPgWDT6lrEZelM=", "properties": {"@spider": "usps_collection_boxes", "addr:city": "SAN ANTONIO", "addr:country": "US", "addr:full": "7551 CALLAGHAN RD", "addr:postcode": "78229", "addr:state": "TX", "brand": "USPS", "collection_times": "Mo-Fr 14:30", "name": "USPS COLLECTION BOX - BLUE BOX", "note": "ON 12/24 AND 12/31, THIS BOX MAY BE COLLECTED AS EARLY AS 12 NOON.", "ref": "7822900108"}, "type": "Feature"}
{"geometry": {"coordinates": [-98.581272987, 29.511292996], "type": "Point"}, "id": "tMHtSx_euSKwetOLzTHSLylGSqc=", "properties": {"@spider": "usps_collection_boxes", "addr:city": "SAN ANTONIO", "addr:country": "US", "addr:full": "4835 MEDICAL DR", "addr:postcode": "78229", "addr:state": "TX", "brand": "USPS", "collection_times": "Mo-Fr 17:00; Sa 16:00", "name": "USPS COLLECTION BOX - PO LOBBY", "note": "ON 12/24 AND 12/31, THIS BOX MAY BE COLLECTED AS EARLY AS 12 NOON.", "ref": "7822900111"}, "type": "Feature"}
{"geometry": {"coordinates": [-98.581272987, 29.511292996], "type": "Point"}, "id": "sRFuV988ys5-3CU7lsBIVvRqdTE=", "properties": {"@spider": "usps_collection_boxes", "addr:city": "SAN ANTONIO", "addr:country": "US", "addr:full": "4835 MEDICAL DR", "addr:postcode": "78229", "addr:state": "TX", "brand": "USPS", "collection_times": "Mo-Fr 17:00; Sa 16:00", "name": "USPS COLLECTION BOX - APC", "note": "ON 12/24 AND 12/31, THIS BOX MAY BE COLLECTED AS EARLY AS 12 NOON.", "ref": "7822900123"}, "type": "Feature"}
{"geometry": {"coordinates": [-98.587996028, 29.508857005], "type": "Point"}, "id": "y9-0cBnL47XNLWjxQfRgHBlAkgE=", "properties": {"@spider": "usps_collection_boxes", "addr:city": "SAN ANTONIO", "addr:country": "US", "addr:full": "5282 MEDICAL DR", "addr:postcode": "78229", "addr:state": "TX", "brand": "USPS", "collection_times": "Mo-Fr 13:15", "name": "USPS COLLECTION BOX - BLUE BOX", "note": "ON 12/24 AND 12/31, THIS BOX MAY BE COLLECTED AS EARLY AS 12 NOON.", "ref": "7822900124"}, "type": "Feature"}
{"geometry": {"coordinates": [-98.581272987, 29.511292996], "type": "Point"}, "id": "so02cKetfh1Q_qU6A_m-S7b3Zlw=", "properties": {"@spider": "usps_collection_boxes", "addr:city": "SAN ANTONIO", "addr:country": "US", "addr:full": "4835 MEDICAL DR", "addr:postcode": "78229", "addr:state": "TX", "brand": "USPS", "collection_times": "Mo-Fr 17:30; Sa 13:00", "name": "USPS COLLECTION BOX - PO LOBBY", "note": "ON 12/24 AND 12/31, THIS BOX MAY BE COLLECTED AS EARLY AS 12 NOON.", "ref": "7822900128"}, "type": "Feature"}
{"geometry": {"coordinates": [-98.561395974, 29.562691999], "type": "Point"}, "id": "8NgPwvSJ6bSKrGnyiESuhLfE8Ls=", "properties": {"@spider": "usps_collection_boxes", "addr:city": "SAN ANTONIO", "addr:country": "US", "addr:full": "12951 HUEBNER RD", "addr:postcode": "78230", "addr:state": "TX", "brand": "USPS", "collection_times": "Mo-Fr 17:00; Sa 15:00", "name": "USPS COLLECTION BOX - BLUE BOX", "note": "ON 12/24 AND 12/31, THIS BOX MAY BE COLLECTED AS EARLY AS 12 NOON.", "ref": "7823000069"}, "type": "Feature"}
{"geometry": {"coordinates": [-98.588047996, 29.56201998], "type": "Point"}, "id": "21QqsrXhe9cIm9ewsyDqrCBMCLg=", "properties": {"@spider": "usps_collection_boxes", "addr:city": "SAN ANTONIO", "addr:country": "US", "addr:full": "12777 W INTERSTATE 10", "addr:postcode": "78230", "addr:state": "TX", "brand": "USPS", "collection_times": "Mo-Fr 14:15; Sa 14:00", "name": "USPS COLLECTION BOX - BLUE BOX", "note": "ON 12/24 AND 12/31, THIS BOX MAY BE COLLECTED AS EARLY AS 12 NOON.", "ref": "7823000098"}, "type": "Feature"}
{"geometry": {"coordinates": [-98.561395974, 29.562691999], "type": "Point"}, "id": "SFv1NT-3YEZW3xzBLlhZd2hnIzA=", "properties": {"@spider": "usps_collection_boxes", "addr:city": "SAN ANTONIO", "addr:country": "US", "addr:full": "12951 HUEBNER RD", "addr:postcode": "78230", "addr:state": "TX", "brand": "USPS", "collection_times": "Mo-Fr 17:00; Sa 15:00", "name": "USPS COLLECTION BOX - PO LOBBY", "note": "ON 12/24 AND 12/31, THIS BOX MAY BE COLLECTED AS EARLY AS 12 NOON.", "ref": "7823000110"}, "type": "Feature"}
{"geometry": {"coordinates": [-98.561395974, 29.562691999], "type": "Point"}, "id": "E4KtRTTzfInxHL9PwJ9PoqDxVcw=", "properties": {"@spider": "usps_collection_boxes", "addr:city": "SAN ANTONIO", "addr:country": "US", "addr:full": "12951 HUEBNER RD", "addr:postcode": "78230", "addr:state": "TX", "brand": "USPS", "collection_times": "Mo-Fr 17:00; Sa 15:00", "name": "USPS COLLECTION BOX - PO LOBBY", "note": "ON 12/24 AND 12/31, THIS BOX MAY BE COLLECTED AS EARLY AS 12 NOON.", "ref": "7823000117"}, "type": "Feature"}
{"geometry": {"coordinates": [-98.561395974, 29.562691999], "type": "Point"}, "id": "y0GDr6y9rubwsb74neGkrmHQ6fY=", "properties": {"@spider": "usps_collection_boxes", "addr:city": "SAN ANTONIO", "addr:country": "US", "addr:full": "12951 HUEBNER RD", "addr:postcode": "78230", "addr:state": "TX", "brand": "USPS", "collection_times": "Mo-Fr 17:00; Sa 15:00", "name": "USPS COLLECTION BOX - BLUE BOX", "note": "ON 12/24 AND 12/31, THIS BOX MAY BE COLLECTED AS EARLY AS 12 NOON.", "ref": "7823000121"}, "type": "Feature"}
{"geometry": {"coordinates": [-98.561395974, 29.562691999], "type": "Point"}, "id": "00NhEwqBFWlgaEV4pCTYO32YPyQ=", "properties": {"@spider": "usps_collection_boxes", "addr:city": "SAN ANTONIO", "addr:country": "US", "addr:full": "12951 HUEBNER RD", "addr:postcode": "78230", "addr:state": "TX", "brand": "USPS", "collection_times": "Mo-Fr 17:00; Sa 15:00", "name": "USPS COLLECTION BOX - APC", "note": "ON 12/24 AND 12/31, THIS BOX MAY BE COLLECTED AS EARLY AS 12 NOON.", "ref": "7823000124"}, "type": "Feature"}
{"geometry": {"coordinates": [-98.561395974, 29.562691999], "type": "Point"}, "id": "ucnhG0Iu2qYw9xOQ_hLGogkj8SU=", "properties": {"@spider": "usps_collection_boxes", "addr:city": "SAN ANTONIO", "addr:country": "US", "addr:full": "12951 HUEBNER RD", "addr:postcode": "78230", "addr:state": "TX", "brand": "USPS", "collection_times": "Mo-Fr 17:00; Sa 15:00", "name": "USPS COLLECTION BOX - BLUE BOX", "note": "ON 12/24 AND 12/31, THIS BOX MAY BE COLLECTED AS EARLY AS 12 NOON.", "ref": "7823000128"}, "type": "Feature"}
{"geometry": {"coordinates": [-98.561395974, 29.562691999], "type": "Point"}, "id": "Htyr7PKGLcp7hOxmAh72KlhELvY=", "properties": {"@spider": "usps_collection_boxes", "addr:city": "SAN ANTONIO", "addr:country": "US", "addr:full": "12951 HUEBNER RD", "addr:postcode": "78230", "addr:state": "TX", "brand": "USPS", "collection_times": "Mo-Fr 18:00; Sa 15:30", "name": "USPS COLLECTION BOX - PO LOBBY", "note": "ON 12/24 AND 12/31, THIS BOX MAY BE COLLECTED AS EARLY AS 12 NOON.", "ref": "7823000130"}, "type": "Feature"}
{"geometry": {"coordinates": [-98.479855982, 29.574733986], "type": "Point"}, "id": "BxHkzHL7IopL5faudbRq5GQcos4=", "properties": {"@spider": "usps_collection_boxes", "addr:city": "SAN ANTONIO", "addr:country": "US", "addr:full": "14615 SAN PEDRO AVE", "addr:postcode": "78232", "addr:state": "TX", "brand": "USPS", "collection_times": "Mo-Fr 15:00; Sa 14:00", "name": "USPS COLLECTION BOX - BLUE BOX", "note": "ON 12/24 AND 12/31, THIS BOX MAY BE COLLECTED AS EARLY AS 12 NOON.", "ref": "7823200034"}, "type": "Feature"}
{"geometry": {"coordinates": [-98.476919969, 29.563639993], "type": "Point"}, "id": "Ab8txcOSGj-7mzglE5BSX-AcuwI=", "properties": {"@spider": "usps_collection_boxes", "addr:city": "SAN ANTONIO", "addr:country": "US", "addr:full": "140 HEIMER RD", "addr:postcode": "78232", "addr:state": "TX", "brand": "USPS", "collection_times": "Mo-Fr 14:30", "name": "USPS COLLECTION BOX - BLUE BOX", "note": "ON 12/24 AND 12/31, THIS BOX MAY BE COLLECTED AS EARLY AS 12 NOON.", "ref": "7823200038"}, "type": "Feature"}
{"geometry": {"coordinates": [-98.511374162, 29.594184836], "type": "Point"}, "id": "HQbxeEZ3l1QnEkvv7nOLRO1SOxM=", "properties": {"@spider": "usps_collection_boxes", "addr:city": "SAN ANTONIO", "addr:country": "US", "addr:full": "16607 BLANCO RD", "addr:postcode": "78232", "addr:state": "TX", "brand": "USPS", "collection_times": "Mo-Fr 13:15", "name": "USPS COLLECTION BOX - BLUE BOX", "note": "ON 12/24 AND 12/31, THIS BOX MAY BE COLLECTED AS EARLY AS 12 NOON.", "ref": "7823200039"}, "type": "Feature"}
{"geometry": {"coordinates": [-98.489316872, 29.608692476], "type": "Point"}, "id": "DXBl6idp9suCPVwGciIdI75kDAk=", "properties": {"@spider": "usps_collection_boxes", "addr:city": "SAN ANTONIO", "addr:country": "US", "addr:full": "400 N LOOP 1604 E", "addr:postcode": "78232", "addr:state": "TX", "brand": "USPS", "collection_times": "Mo-Fr 15:00", "name": "USPS COLLECTION BOX - BLUE BOX", "note": "ON 12/24 AND 12/31, THIS BOX MAY BE COLLECTED AS EARLY AS 12 NOON.", "ref": "7823200044"}, "type": "Feature"}
{"geometry": {"coordinates": [-98.507851036, 29.604421011], "type": "Point"}, "id": "-Tl1p9th2eCgTQYJdjr5wc5ETgM=", "properties": {"@spider": "usps_collection_boxes", "addr:city": "SAN ANTONIO", "addr:country": "US", "addr:full": "17890 BLANCO RD", "addr:postcode": "78232", "addr:state": "TX", "brand": "USPS", "collection_times": "Mo-Fr 13:30", "name": "USPS COLLECTION BOX - BLUE BOX", "note": "ON 12/24 AND 12/31, THIS BOX MAY BE COLLECTED AS EARLY AS 12 NOON.", "ref": "7823200050"}, "type": "Feature"}
{"geometry": {"coordinates": [-98.477033963, 29.570712014], "type": "Point"}, "id": "_2qzIGEDkRihxitQpR0zwPuFh-s=", "properties": {"@spider": "usps_collection_boxes", "addr:city": "SAN ANTONIO", "addr:country": "US", "addr:full": "1000 CENTRAL PKWY N", "addr:postcode": "78232", "addr:state": "TX", "brand": "USPS", "collection_times": "Mo-Fr 14:45", "name": "USPS COLLECTION BOX - BLUE BOX", "note": "ON 12/24 AND 12/31, THIS BOX MAY BE COLLECTED AS EARLY AS 12 NOON.", "ref": "7823200051"}, "type": "Feature"}
{"geometry": {"coordinates": [-98.466958999, 29.606898995], "type": "Point"}, "id": "d_UmBbSUcG4pSJ0T-XjiNyMhZVs=", "properties": {"@spider": "usps_collection_boxes", "addr:city": "SAN ANTONIO", "addr:country": "US", "addr:full": "18140 SAN PEDRO AVE", "addr:postcode": "78232", "addr:state": "TX", "brand": "USPS", "collection_times": "Mo-Fr 13:30; Sa 16:30", "name": "USPS COLLECTION BOX - BLUE BOX", "note": "ON 12/24 AND 12/31, THIS BOX MAY BE COLLECTED AS EARLY AS 12 NOON.", "ref": "7823200071"}, "type": "Feature"}
{"geometry": {"coordinates": [-98.452128981, 29.583857981], "type": "Point"}, "id": "b275raADOcrKTdTSRl1V9wPFEeE=", "properties": {"@spider": "usps_collection_boxes", "addr:city": "SAN ANTONIO", "addr:country": "US", "addr:full": "15610 HENDERSON PASS", "addr:postcode": "78232", "addr:state": "TX", "brand": "USPS", "collection_times": "Mo-Fr 17:30; Sa 15:30", "name": "USPS COLLECTION BOX - PO LOBBY", "note": "ON 12/24 AND 12/31, THIS BOX MAY BE COLLECTED AS EARLY AS 12 NOON.", "ref": "7823200074"}, "type": "Feature"}
{"geometry": {"coordinates": [-98.470525215, 29.610156813], "type": "Point"}, "id": "M50s1r91h3bgUEWCiRIzoSdoMsQ=", "properties": {"@spider": "usps_collection_boxes", "addr:city": "SAN ANTONIO", "addr:country": "US", "addr:full": "1515 N LOOP 1604 E", "addr:postcode": "78232", "addr:state": "TX", "brand": "USPS", "collection_times": "Mo-Fr 14:15", "name": "USPS COLLECTION BOX - BLUE BOX", "note": "ON 12/24 AND 12/31, THIS BOX MAY BE COLLECTED AS EARLY AS 12 NOON.", "ref": "7823200077"}, "type": "Feature"}
{"geometry": {"coordinates": [-98.452128981, 29.583857981], "type": "Point"}, "id": "ctNtu1f1U3PpYjIoO8qJp5b-aqA=", "properties": {"@spider": "usps_collection_boxes", "addr:city": "SAN ANTONIO", "addr:country": "US", "addr:full": "15610 HENDERSON PASS", "addr:postcode": "78232", "addr:state": "TX", "brand": "USPS", "collection_times": "Mo-Fr 17:30; Sa 15:30", "name": "USPS COLLECTION BOX - PO LOBBY", "note": "ON 12/24 AND 12/31, THIS BOX MAY BE COLLECTED AS EARLY AS 12 NOON.", "ref": "7823200081"}, "type": "Feature"}
{"geometry": {"coordinates": [-98.493129829, 29.608119408], "type": "Point"}, "id": "_3VYcCni0vP3Jma5Xxh409n9D4g=", "properties": {"@spider": "usps_collection_boxes", "addr:city": "SAN ANTONIO", "addr:country": "US", "addr:full": "150 N LOOP 1604 E", "addr:postcode": "78232", "addr:state": "TX", "brand": "USPS", "collection_times": "Mo-Fr 15:00; Sa 16:30", "name": "USPS COLLECTION BOX - BLUE BOX", "note": "ON 12/24 AND 12/31, THIS BOX MAY BE COLLECTED AS EARLY AS 12 NOON.", "ref": "7823200089"}, "type": "Feature"}
{"geometry": {"coordinates": [-98.452128981, 29.583857981], "type": "Point"}, "id": "qjMC3o86Q06KM2OXA5AgVEnBMd8=", "properties": {"@spider": "usps_collection_boxes", "addr:city": "SAN ANTONIO", "addr:country": "US", "addr:full": "15610 HENDERSON PASS", "addr:postcode": "78232", "addr:state": "TX", "brand": "USPS", "collection_times": "Mo-Fr 17:30; Sa 15:30", "name": "USPS COLLECTION BOX - APC", "note": "ON 12/24 AND 12/31, THIS BOX MAY BE COLLECTED AS EARLY AS 12 NOON.", "ref": "7823200096"}, "type": "Feature"}
{"geometry": {"coordinates": [-98.473435025, 29.600151982], "type": "Point"}, "id": "kvJJNRaVsVoVlbFXsLyV2umPYZg=", "properties": {"@spider": "usps_collection_boxes", "addr:city": "SAN ANTONIO", "addr:country": "US", "addr:full": "17319 SAN PEDRO AVE", "addr:postcode": "78232", "addr:state": "TX", "brand": "USPS", "collection_times": "Mo-Fr 16:00", "name": "USPS COLLECTION BOX - BLUE BOX", "note": "ON 12/24 AND 12/31, THIS BOX MAY BE COLLECTED AS EARLY AS 12 NOON.", "ref": "7823200097"}, "type": "Feature"}
{"geometry": {"coordinates": [-98.452128981, 29.583857981], "type": "Point"}, "id": "3p7wU80jzHap_7NPBv3x61OcK8Q=", "properties": {"@spider": "usps_collection_boxes", "addr:city": "SAN ANTONIO", "addr:country": "US", "addr:full": "15610 HENDERSON PASS", "addr:postcode": "78232", "addr:state": "TX", "brand": "USPS", "collection_times": "Mo-Fr 18:00; Sa 13:00", "name": "USPS COLLECTION BOX - PO LOBBY", "note": "ON 12/24 AND 12/31, THIS BOX MAY BE COLLECTED AS EARLY AS 12 NOON.", "ref": "7823200100"}, "type": "Feature"}
{"geometry": {"coordinates": [-98.345837983, 29.554468011], "type": "Point"}, "id": "SFzFE9qjKEtYmoT4XL8idp1zNPM=", "properties": {"@spider": "usps_collection_boxes", "addr:city": "SAN ANTONIO", "addr:country": "US", "addr:full": "12702 TOEPPERWEIN RD", "addr:postcode": "78233", "addr:state": "TX", "brand": "USPS", "collection_times": "Mo-Fr 13:30", "name": "USPS COLLECTION BOX - BLUE BOX", "note": "ON 12/24 AND 12/31, THIS BOX MAY BE COLLECTED AS EARLY AS 12 NOON.", "ref": "7823300019"}, "type": "Feature"}
{"geometry": {"coordinates": [-98.348333025, 29.553218982], "type": "Point"}, "id": "JT8rMz3eplMt_h7CDaCy1ChMrrw=", "properties": {"@spider": "usps_collection_boxes", "addr:city": "SAN ANTONIO", "addr:country": "US", "addr:full": "12709 TOEPPERWEIN RD", "addr:postcode": "78233", "addr:state": "TX", "brand": "USPS", "collection_times": "Mo-Fr 13:30", "name": "USPS COLLECTION BOX - BLUE BOX", "note": "ON 12/24 AND 12/31, THIS BOX MAY BE COLLECTED AS EARLY AS 12 NOON.", "ref": "7823300020"}, "type": "Feature"}
{"geometry": {"coordinates": [-98.384595675, 29.539953021], "type": "Point"}, "id": "1BerjVJcfI7aB00tmD8fqMCEdSk=", "properties": {"@spider": "usps_collection_boxes", "addr:city": "SAN ANTONIO", "addr:country": "US", "addr:full": "5303 BREWSTER ST", "addr:postcode": "78233", "addr:state": "TX", "brand": "USPS", "collection_times": "Mo-Fr 14:00", "name": "USPS COLLECTION BOX - BLUE BOX", "note": "ON 12/24 AND 12/31, THIS BOX MAY BE COLLECTED AS EARLY AS 12 NOON.", "ref": "7823300023"}, "type": "Feature"}
{"geometry": {"coordinates": [-98.372484976, 29.542194013], "type": "Point"}, "id": "HMqvO_S_jBDO-vhLCHFXoSztrao=", "properties": {"@spider": "usps_collection_boxes", "addr:city": "SAN ANTONIO", "addr:country": "US", "addr:full": "11119 LANDMARK 35 DR", "addr:postcode": "78233", "addr:state": "TX", "brand": "USPS", "collection_times": "Mo-Fr 17:00; Sa 15:00", "name": "USPS COLLECTION BOX - PO LOBBY", "note": "ON 12/24 AND 12/31, THIS BOX MAY BE COLLECTED AS EARLY AS 12 NOON.", "ref": "7823300035"}, "type": "Feature"}
{"geometry": {"coordinates": [-98.372484976, 29.542194013], "type": "Point"}, "id": "-lHDpVvBcantcTIT-kZtWUN57aI=", "properties": {"@spider": "usps_collection_boxes", "addr:city": "SAN ANTONIO", "addr:country": "US", "addr:full": "11119 LANDMARK 35 DR", "addr:postcode": "78233", "addr:state": "TX", "brand": "USPS", "collection_times": "Mo-Fr 17:00; Sa 15:00", "name": "USPS COLLECTION BOX - PO LOBBY", "note": "ON 12/24 AND 12/31, THIS BOX MAY BE COLLECTED AS EARLY AS 12 NOON.", "ref": "7823300038"}, "type": "Feature"}
{"geometry": {"coordinates": [-98.368819989, 29.548853016], "type": "Point"}, "id": "u9XmTVuemV_E2Lzv9hYXHUJkyC8=", "properties": {"@spider": "usps_collection_boxes", "addr:city": "SAN ANTONIO", "addr:country": "US", "addr:full": "11711 N IH 35", "addr:postcode": "78233", "addr:state": "TX", "brand": "USPS", "collection_times": "Mo-Fr 13:45", "name": "USPS COLLECTION BOX - BLUE BOX", "note": "ON 12/24 AND 12/31, THIS BOX MAY BE COLLECTED AS EARLY AS 12 NOON.", "ref": "7823300040"}, "type": "Feature"}
{"geometry": {"coordinates": [-98.32898097, 29.554692982], "type": "Point"}, "id": "dOoI1oW9TfMNkV3z-5LEwelCNLM=", "properties": {"@spider": "usps_collection_boxes", "addr:city": "SAN ANTONIO", "addr:country": "US", "addr:full": "8001 SHIN OAK DR", "addr:postcode": "78233", "addr:state": "TX", "brand": "USPS", "collection_times": "Mo-Fr 13:15", "name": "USPS COLLECTION BOX - BLUE BOX", "note": "ON 12/24 AND 12/31, THIS BOX MAY BE COLLECTED AS EARLY AS 12 NOON.", "ref": "7823300042"}, "type": "Feature"}
{"geometry": {"coordinates": [-98.372484976, 29.542194013], "type": "Point"}, "id": "omv55ydytEZhACbZiCEnsuyMqQs=", "properties": {"@spider": "usps_collection_boxes", "addr:city": "SAN ANTONIO", "addr:country": "US", "addr:full": "11119 LANDMARK 35 DR", "addr:postcode": "78233", "addr:state": "TX", "brand": "USPS", "collection_times": "Mo-Fr 17:00; Sa 15:00", "name": "USPS COLLECTION BOX - BLUE BOX", "note": "ON 12/24 AND 12/31, THIS BOX MAY BE COLLECTED AS EARLY AS 12 NOON.", "ref": "7823300043"}, "type": "Feature"}
{"geometry": {"coordinates": [-98.372484976, 29.542194013], "type": "Point"}, "id": "JTXoX0MUYXW7cOJRN-dHgrL7CZQ=", "properties": {"@spider": "usps_collection_boxes", "addr:city": "SAN ANTONIO", "addr:country": "US", "addr:full": "11119 LANDMARK 35 DR", "addr:postcode": "78233", "addr:state": "TX", "brand": "USPS", "collection_times": "Mo-Fr 17:00; Sa 15:00", "name": "USPS COLLECTION BOX - BLUE BOX", "note": "ON 12/24 AND 12/31, THIS BOX MAY BE COLLECTED AS EARLY AS 12 NOON.", "ref": "7823300044"}, "type": "Feature"}
{"geometry": {"coordinates": [-98.448493032, 29.463038095], "type": "Point"}, "id": "0nf-64uGYKjnT2mzf6S1psaZbaI=", "properties": {"@spider": "usps_collection_boxes", "addr:city": "SAN ANTONIO", "addr:country": "US", "addr:full": "2492 STANLEY RD", "addr:postcode": "78234", "addr:state": "TX", "brand": "USPS", "collection_times": "Mo-Fr 17:00; Sa 12:00", "name": "USPS COLLECTION BOX - PO LOBBY", "note": "ON 12/24 AND 12/31, THIS BOX MAY BE COLLECTED AS EARLY AS 12 NOON.", "ref": "7823400029"}, "type": "Feature"}
{"geometry": {"coordinates": [-98.6197954, 29.397546242], "type": "Point"}, "id": "drw5u6Loyoqsat_TQFPsHY_IG6U=", "properties": {"@spider": "usps_collection_boxes", "addr:city": "SAN ANTONIO", "addr:country": "US", "addr:full": "1100 WILFORD HALL LOOP", "addr:postcode": "78236", "addr:state": "TX", "brand": "USPS", "collection_times": "Mo-Fr 13:15", "name": "USPS COLLECTION BOX - BLUE BOX", "note": "ON 12/24 AND 12/31, THIS BOX MAY BE COLLECTED AS EARLY AS 12 NOON.", "ref": "7823600008"}, "type": "Feature"}
{"geometry": {"coordinates": [-98.625109785, 29.382243701], "type": "Point"}, "id": "7joJ8KhWibCZvkbXejoR3s5NGig=", "properties": {"@spider": "usps_collection_boxes", "addr:city": "SAN ANTONIO", "addr:country": "US", "addr:full": "2261 HUGHES AVE", "addr:postcode": "78236", "addr:state": "TX", "brand": "USPS", "collection_times": "Mo-Fr 16:00; Sa 14:15", "name": "USPS COLLECTION BOX - BLUE BOX", "note": "ON 12/24 AND 12/31, THIS BOX MAY BE COLLECTED AS EARLY AS 12 NOON.", "ref": "7823600018"}, "type": "Feature"}
{"geometry": {"coordinates": [-98.626697715, 29.381914952], "type": "Point"}, "id": "wSxsREoTlQTxwKevcPmj9QvkXbA=", "properties": {"@spider": "usps_collection_boxes", "addr:city": "SAN ANTONIO", "addr:country": "US", "addr:full": "2320 CARSWELL AVE", "addr:postcode": "78236", "addr:state": "TX", "brand": "USPS", "collection_times": "Mo-Fr 13:45; Sa 14:15", "name": "USPS COLLECTION BOX - BLUE BOX", "note": "ON 12/24 AND 12/31, THIS BOX MAY BE COLLECTED AS EARLY AS 12 NOON.", "ref": "7823600020"}, "type": "Feature"}
{"geometry": {"coordinates": [-98.63030997, 29.390370003], "type": "Point"}, "id": "7JBCTYKXSVgiwvtXK40ZTpl-9aY=", "properties": {"@spider": "usps_collection_boxes", "addr:city": "SAN ANTONIO", "addr:country": "US", "addr:full": "1550 CARSWELL AVE", "addr:postcode": "78236", "addr:state": "TX", "brand": "USPS", "collection_times": "Mo-Fr 13:45; Sa 14:00", "name": "USPS COLLECTION BOX - BLUE BOX", "note": "ON 12/24 AND 12/31, THIS BOX MAY BE COLLECTED AS EARLY AS 12 NOON.", "ref": "7823600022"}, "type": "Feature"}
{"geometry": {"coordinates": [-98.625992232, 29.387075658], "type": "Point"}, "id": "r2eIIIlOVv2lv0yU-lkGBwVapKs=", "properties": {"@spider": "usps_collection_boxes", "addr:city": "SAN ANTONIO", "addr:country": "US", "addr:full": "1550 CONNALLY ST", "addr:postcode": "78236", "addr:state": "TX", "brand": "USPS", "collection_times": "Mo-Fr 13:30; Sa 14:00", "name": "USPS COLLECTION BOX - BLUE BOX", "note": "ON 12/24 AND 12/31, THIS BOX MAY BE COLLECTED AS EARLY AS 12 NOON.", "ref": "7823600023"}, "type": "Feature"}
{"geometry": {"coordinates": [-98.624847927, 29.385817008], "type": "Point"}, "id": "GI44kn9qQ0u9-7ESMAfK1sR1JgQ=", "properties": {"@spider": "usps_collection_boxes", "addr:city": "SAN ANTONIO", "addr:country": "US", "addr:full": "1215 TRUEMPER ST", "addr:postcode": "78236", "addr:state": "TX", "brand": "USPS", "collection_times": "Mo-Fr 13:45; Sa 14:00", "name": "USPS COLLECTION BOX - BLUE BOX", "note": "ON 12/24 AND 12/31, THIS BOX MAY BE COLLECTED AS EARLY AS 12 NOON.", "ref": "7823600024"}, "type": "Feature"}
{"geometry": {"coordinates": [-98.61338422, 29.382537205], "type": "Point"}, "id": "ZRN1e6G-LFDm4WD5q3L9cmaTGGk=", "properties": {"@spider": "usps_collection_boxes", "addr:city": "SAN ANTONIO", "addr:country": "US", "addr:full": "2180 REESE ST", "addr:postcode": "78236", "addr:state": "TX", "brand": "USPS", "collection_times": "Mo-Fr 13:00; Sa 13:45", "name": "USPS COLLECTION BOX - BLUE BOX", "note": "ON 12/24 AND 12/31, THIS BOX MAY BE COLLECTED AS EARLY AS 12 NOON.", "ref": "7823600029"}, "type": "Feature"}
{"geometry": {"coordinates": [-98.626440811, 29.386889802], "type": "Point"}, "id": "F7pwpZlulpa0sD-6XzAvpCLIYrE=", "properties": {"@spider": "usps_collection_boxes", "addr:city": "SAN ANTONIO", "addr:country": "US", "addr:full": "1780 CONNALLY ST", "addr:postcode": "78236", "addr:state": "TX", "brand": "USPS", "collection_times": "Mo-Fr 13:30; Sa 14:00", "name": "USPS COLLECTION BOX - BLUE BOX", "note": "ON 12/24 AND 12/31, THIS BOX MAY BE COLLECTED AS EARLY AS 12 NOON.", "ref": "7823600035"}, "type": "Feature"}
{"geometry": {"coordinates": [-98.616438954, 29.386774291], "type": "Point"}, "id": "gm5DkM6IA7prCaK3-rct0x12xiU=", "properties": {"@spider": "usps_collection_boxes", "addr:city": "SAN ANTONIO", "addr:country": "US", "addr:full": "2141 KELLY DR", "addr:postcode": "78236", "addr:state": "TX", "brand": "USPS", "collection_times": "Mo-Fr 13:00; Sa 13:45", "name": "USPS COLLECTION BOX - BLUE BOX", "note": "ON 12/24 AND 12/31, THIS BOX MAY BE COLLECTED AS EARLY AS 12 NOON.", "ref": "7823600036"}, "type": "Feature"}
{"geometry": {"coordinates": [-98.626995168, 29.390573284], "type": "Point"}, "id": "5b6UqF8WUcHgSdj_NNcOURzt_Ow=", "properties": {"@spider": "usps_collection_boxes", "addr:city": "SAN ANTONIO", "addr:country": "US", "addr:full": "1551 LUKE BLVD", "addr:postcode": "78236", "addr:state": "TX", "brand": "USPS", "collection_times": "Mo-Fr 13:45", "name": "USPS COLLECTION BOX - BLUE BOX", "note": "ON 12/24 AND 12/31, THIS BOX MAY BE COLLECTED AS EARLY AS 12 NOON.", "ref": "7823600037"}, "type": "Feature"}
{"geometry": {"coordinates": [-98.626161343, 29.390783289], "type": "Point"}, "id": "Z69ZHxazjpUh0-9p7NqAhZSZDdA=", "properties": {"@spider": "usps_collection_boxes", "addr:city": "SAN ANTONIO", "addr:country": "US", "addr:full": "1610 LUKE BLVD", "addr:postcode": "78236", "addr:state": "TX", "brand": "USPS", "collection_times": "Mo-Fr 13:45", "name": "USPS COLLECTION BOX - BLUE BOX", "note": "ON 12/24 AND 12/31, THIS BOX MAY BE COLLECTED AS EARLY AS 12 NOON.", "ref": "7823600038"}, "type": "Feature"}
{"geometry": {"coordinates": [-98.625109785, 29.382243701], "type": "Point"}, "id": "c0ork9bR1fvsj-I_BD7sFZ8KeuY=", "properties": {"@spider": "usps_collection_boxes", "addr:city": "SAN ANTONIO", "addr:country": "US", "addr:full": "2261 HUGHES AVE", "addr:postcode": "78236", "addr:state": "TX", "brand": "USPS", "collection_times": "Mo-Fr 16:30; Sa 12:30", "name": "USPS COLLECTION BOX - PO LOBBY", "note": "ON 12/24 AND 12/31, THIS BOX MAY BE COLLECTED AS EARLY AS 12 NOON.", "ref": "7823600039"}, "type": "Feature"}
{"geometry": {"coordinates": [-98.570265034, 29.42670899], "type": "Point"}, "id": "3pI4SuM2ZZr2d-eiShYFsCYtW6k=", "properties": {"@spider": "usps_collection_boxes", "addr:city": "SAN ANTONIO", "addr:country": "US", "addr:full": "5555 SAN FERNANDO ST", "addr:postcode": "78237", "addr:state": "TX", "brand": "USPS", "collection_times": "Mo-Fr 17:00; Sa 15:30", "name": "USPS COLLECTION BOX - BLUE BOX", "note": "ON 12/24 AND 12/31, THIS BOX MAY BE COLLECTED AS EARLY AS 12 NOON.", "ref": "7823700009"}, "type": "Feature"}
{"geometry": {"coordinates": [-98.566734995, 29.431191003], "type": "Point"}, "id": "GXMJRkXIMO4aLCi8uY_CI1AHvww=", "properties": {"@spider": "usps_collection_boxes", "addr:city": "SAN ANTONIO", "addr:country": "US", "addr:full": "5358 W COMMERCE ST", "addr:postcode": "78237", "addr:state": "TX", "brand": "USPS", "collection_times": "Mo-Fr 14:15", "name": "USPS COLLECTION BOX - BLUE BOX", "note": "ON 12/24 AND 12/31, THIS BOX MAY BE COLLECTED AS EARLY AS 12 NOON.", "ref": "7823700013"}, "type": "Feature"}
{"geometry": {"coordinates": [-98.556440006, 29.409022], "type": "Point"}, "id": "oAL6ahYzAFeJdzmChlRgxMILdps=", "properties": {"@spider": "usps_collection_boxes", "addr:city": "SAN ANTONIO", "addr:country": "US", "addr:full": "1302 S GEN MCMULLEN DR", "addr:postcode": "78237", "addr:state": "TX", "brand": "USPS", "collection_times": "Mo-Fr 14:30", "name": "USPS COLLECTION BOX - BLUE BOX", "note": "ON 12/24 AND 12/31, THIS BOX MAY BE COLLECTED AS EARLY AS 12 NOON.", "ref": "7823700020"}, "type": "Feature"}
{"geometry": {"coordinates": [-98.570265034, 29.42670899], "type": "Point"}, "id": "Bcoqd6XLTgONSM9nBr5AZsKvc7Q=", "properties": {"@spider": "usps_collection_boxes", "addr:city": "SAN ANTONIO", "addr:country": "US", "addr:full": "5555 SAN FERNANDO ST", "addr:postcode": "78237", "addr:state": "TX", "brand": "USPS", "collection_times": "Mo-Fr 17:00; Sa 15:30", "name": "USPS COLLECTION BOX - PO LOBBY", "note": "ON 12/24 AND 12/31, THIS BOX MAY BE COLLECTED AS EARLY AS 12 NOON.", "ref": "7823700022"}, "type": "Feature"}
{"geometry": {"coordinates": [-98.554172031, 29.417913984], "type": "Point"}, "id": "fRfgD0AjLsEHTTSHlMaT6Ny0zXA=", "properties": {"@spider": "usps_collection_boxes", "addr:city": "SAN ANTONIO", "addr:country": "US", "addr:full": "721 CASTROVILLE RD", "addr:postcode": "78237", "addr:state": "TX", "brand": "USPS", "collection_times": "Mo-Fr 14:45; Sa 13:15", "name": "USPS COLLECTION BOX - BLUE BOX", "note": "ON 12/24 AND 12/31, THIS BOX MAY BE COLLECTED AS EARLY AS 12 NOON.", "ref": "7823700023"}, "type": "Feature"}
{"geometry": {"coordinates": [-98.570265034, 29.42670899], "type": "Point"}, "id": "8fu8kgxoRTbkqn3xYNjBVhNiYAs=", "properties": {"@spider": "usps_collection_boxes", "addr:city": "SAN ANTONIO", "addr:country": "US", "addr:full": "5555 SAN FERNANDO ST", "addr:postcode": "78237", "addr:state": "TX", "brand": "USPS", "collection_times": "Mo-Fr 17:00; Sa 12:00", "name": "USPS COLLECTION BOX - PO LOBBY", "note": "ON 12/24 AND 12/31, THIS BOX MAY BE COLLECTED AS EARLY AS 12 NOON.", "ref": "7823700028"}, "type": "Feature"}
{"geometry": {"coordinates": [-98.626074008, 29.497247985], "type": "Point"}, "id": "YJIy0riiiHSEX1cEh38SBd9HzFE=", "properties": {"@spider": "usps_collection_boxes", "addr:city": "SAN ANTONIO", "addr:country": "US", "addr:full": "6825 HUEBNER RD", "addr:postcode": "78238", "addr:state": "TX", "brand": "USPS", "collection_times": "Mo-Fr 17:00; Sa 16:30", "name": "USPS COLLECTION BOX - BLUE BOX", "note": "ON 12/24 AND 12/31, THIS BOX MAY BE COLLECTED AS EARLY AS 12 NOON.", "ref": "7823800015"}, "type": "Feature"}
{"geometry": {"coordinates": [-98.626074008, 29.497247985], "type": "Point"}, "id": "aFAKc60rwHpHq5MN_E322f67kOc=", "properties": {"@spider": "usps_collection_boxes", "addr:city": "SAN ANTONIO", "addr:country": "US", "addr:full": "6825 HUEBNER RD", "addr:postcode": "78238", "addr:state": "TX", "brand": "USPS", "collection_times": "Mo-Fr 17:00; Sa 16:00", "name": "USPS COLLECTION BOX - PO LOBBY", "note": "ON 12/24 AND 12/31, THIS BOX MAY BE COLLECTED AS EARLY AS 12 NOON.", "ref": "7823800029"}, "type": "Feature"}
{"geometry": {"coordinates": [-98.626074008, 29.497247985], "type": "Point"}, "id": "9I0a-0O_h2hDmNAbvSM89LF_DT4=", "properties": {"@spider": "usps_collection_boxes", "addr:city": "SAN ANTONIO", "addr:country": "US", "addr:full": "6825 HUEBNER RD", "addr:postcode": "78238", "addr:state": "TX", "brand": "USPS", "collection_times": "Mo-Fr 17:00; Sa 16:00", "name": "USPS COLLECTION BOX - APC", "note": "ON 12/24 AND 12/31, THIS BOX MAY BE COLLECTED AS EARLY AS 12 NOON.", "ref": "7823800034"}, "type": "Feature"}
{"geometry": {"coordinates": [-98.626074008, 29.497247985], "type": "Point"}, "id": "Coi0BWa_hC6IeQZTpG6PIDnOUJc=", "properties": {"@spider": "usps_collection_boxes", "addr:city": "SAN ANTONIO", "addr:country": "US", "addr:full": "6825 HUEBNER RD", "addr:postcode": "78238", "addr:state": "TX", "brand": "USPS", "collection_times": "Mo-Fr 17:00; Sa 16:00", "name": "USPS COLLECTION BOX - PO LOBBY", "note": "ON 12/24 AND 12/31, THIS BOX MAY BE COLLECTED AS EARLY AS 12 NOON.", "ref": "7823800036"}, "type": "Feature"}
{"geometry": {"coordinates": [-98.626074008, 29.497247985], "type": "Point"}, "id": "TEt-7frD_KlpwipL18gKJGOaHpA=", "properties": {"@spider": "usps_collection_boxes", "addr:city": "SAN ANTONIO", "addr:country": "US", "addr:full": "6825 HUEBNER RD", "addr:postcode": "78238", "addr:state": "TX", "brand": "USPS", "collection_times": "Mo-Fr 17:00; Sa 13:00", "name": "USPS COLLECTION BOX - PO LOBBY", "note": "ON 12/24 AND 12/31, THIS BOX MAY BE COLLECTED AS EARLY AS 12 NOON.", "ref": "7823800040"}, "type": "Feature"}
{"geometry": {"coordinates": [-98.388836979, 29.52449202], "type": "Point"}, "id": "5XK2vlNmS6deZI3Qh2SrSf4LWag=", "properties": {"@spider": "usps_collection_boxes", "addr:city": "SAN ANTONIO", "addr:country": "US", "addr:full": "5121 CRESTWAY DR", "addr:postcode": "78239", "addr:state": "TX", "brand": "USPS", "collection_times": "Mo-Fr 14:15", "name": "USPS COLLECTION BOX - BLUE BOX", "note": "ON 12/24 AND 12/31, THIS BOX MAY BE COLLECTED AS EARLY AS 12 NOON.", "ref": "7823900010"}, "type": "Feature"}
{"geometry": {"coordinates": [-98.58417497, 29.52717599], "type": "Point"}, "id": "TXcRX6uSXbbZpnuBNYUZfVWtvSI=", "properties": {"@spider": "usps_collection_boxes", "addr:city": "SAN ANTONIO", "addr:country": "US", "addr:full": "9119 CINNAMON HL", "addr:postcode": "78240", "addr:state": "TX", "brand": "USPS", "collection_times": "Mo-Fr 15:15", "name": "USPS COLLECTION BOX - BLUE BOX", "note": "ON 12/24 AND 12/31, THIS BOX MAY BE COLLECTED AS EARLY AS 12 NOON.", "ref": "7824000015"}, "type": "Feature"}
{"geometry": {"coordinates": [-98.580759009, 29.522550981], "type": "Point"}, "id": "rJzH9YPObaYsYnS7kqS3r2l7010=", "properties": {"@spider": "usps_collection_boxes", "addr:city": "SAN ANTONIO", "addr:country": "US", "addr:full": "8627 CINNAMON CREEK DR", "addr:postcode": "78240", "addr:state": "TX", "brand": "USPS", "collection_times": "Mo-Fr 15:15", "name": "USPS COLLECTION BOX - BLUE BOX", "note": "ON 12/24 AND 12/31, THIS BOX MAY BE COLLECTED AS EARLY AS 12 NOON.", "ref": "7824000020"}, "type": "Feature"}
{"geometry": {"coordinates": [-98.570893006, 29.522240013], "type": "Point"}, "id": "7GDkAypBINLyItf40s9vWbhBL84=", "properties": {"@spider": "usps_collection_boxes", "addr:city": "SAN ANTONIO", "addr:country": "US", "addr:full": "8600 WURZBACH RD", "addr:postcode": "78240", "addr:state": "TX", "brand": "USPS", "collection_times": "Mo-Fr 15:00", "name": "USPS COLLECTION BOX - BLUE BOX", "note": "ON 12/24 AND 12/31, THIS BOX MAY BE COLLECTED AS EARLY AS 12 NOON.", "ref": "7824000025"}, "type": "Feature"}
{"geometry": {"coordinates": [-98.60360397, 29.526937986], "type": "Point"}, "id": "XLeQ_elqP7dhSjKipJhH--MrGCo=", "properties": {"@spider": "usps_collection_boxes", "addr:city": "SAN ANTONIO", "addr:country": "US", "addr:full": "5910 BABCOCK RD", "addr:postcode": "78240", "addr:state": "TX", "brand": "USPS", "collection_times": "Mo-Sa 14:45", "name": "USPS COLLECTION BOX - BLUE BOX", "note": "ON 12/24 AND 12/31, THIS BOX MAY BE COLLECTED AS EARLY AS 12 NOON.", "ref": "7824000028"}, "type": "Feature"}
{"geometry": {"coordinates": [-98.596622012, 29.516072985], "type": "Point"}, "id": "r9sGtdf9xSRbHz9VqA7o2EOOdsY=", "properties": {"@spider": "usps_collection_boxes", "addr:city": "SAN ANTONIO", "addr:country": "US", "addr:full": "5788 ECKHERT RD", "addr:postcode": "78240", "addr:state": "TX", "brand": "USPS", "collection_times": "Mo-Fr 15:00", "name": "USPS COLLECTION BOX - BLUE BOX", "note": "ON 12/24 AND 12/31, THIS BOX MAY BE COLLECTED AS EARLY AS 12 NOON.", "ref": "7824000041"}, "type": "Feature"}
{"geometry": {"coordinates": [-98.558785011, 29.383045979], "type": "Point"}, "id": "34DwGufG2pY4kotKE0k2WIWe578=", "properties": {"@spider": "usps_collection_boxes", "addr:city": "SAN ANTONIO", "addr:country": "US", "addr:full": "3006 GENERAL HUDNELL DR", "addr:postcode": "78241", "addr:state": "TX", "brand": "USPS", "collection_times": "Mo-Fr 14:00", "name": "USPS COLLECTION BOX - BLUE BOX", "note": "ON 12/24 AND 12/31, THIS BOX MAY BE COLLECTED AS EARLY AS 12 NOON.", "ref": "7824100004"}, "type": "Feature"}
{"geometry": {"coordinates": [-98.633050015, 29.359820019], "type": "Point"}, "id": "DKaSe8kmsN00eUVKT5ad4haKU8Y=", "properties": {"@spider": "usps_collection_boxes", "addr:city": "SAN ANTONIO", "addr:country": "US", "addr:full": "7239 SW LOOP 410", "addr:postcode": "78242", "addr:state": "TX", "brand": "USPS", "collection_times": "Mo-Fr 14:00", "name": "USPS COLLECTION BOX - BLUE BOX", "note": "ON 12/24 AND 12/31, THIS BOX MAY BE COLLECTED AS EARLY AS 12 NOON.", "ref": "7824200002"}, "type": "Feature"}
{"geometry": {"coordinates": [-98.596054934, 29.374010036], "type": "Point"}, "id": "zYk2tUsmOqu4D8Q735efGQSkIMs=", "properties": {"@spider": "usps_collection_boxes", "addr:city": "SAN ANTONIO", "addr:country": "US", "addr:full": "250 HALL BLVD", "addr:postcode": "78243", "addr:state": "TX", "brand": "USPS", "collection_times": "Mo-Fr 13:00", "name": "USPS COLLECTION BOX - BLUE BOX", "note": "ON 12/24 AND 12/31, THIS BOX MAY BE COLLECTED AS EARLY AS 12 NOON.", "ref": "7824300002"}, "type": "Feature"}
{"geometry": {"coordinates": [-98.596054934, 29.374010036], "type": "Point"}, "id": "CEc7pEnuJTwj40kzLlVeYGdC-LI=", "properties": {"@spider": "usps_collection_boxes", "addr:city": "SAN ANTONIO", "addr:country": "US", "addr:full": "103 HALL BLVD", "addr:postcode": "78243", "addr:state": "TX", "brand": "USPS", "collection_times": "Mo-Fr 13:00", "name": "USPS COLLECTION BOX - BLUE BOX", "note": "ON 12/24 AND 12/31, THIS BOX MAY BE COLLECTED AS EARLY AS 12 NOON.", "ref": "7824300004"}, "type": "Feature"}
{"geometry": {"coordinates": [-98.65681204, 29.443157008], "type": "Point"}, "id": "8j5bNQpHSXoz8262WeLE-w56s8M=", "properties": {"@spider": "usps_collection_boxes", "addr:city": "SAN ANTONIO", "addr:country": "US", "addr:full": "702 RICHLAND HILLS DR", "addr:postcode": "78245", "addr:state": "TX", "brand": "USPS", "collection_times": "Mo-Fr 17:00; Sa 16:00", "name": "USPS COLLECTION BOX - BLUE BOX", "note": "ON 12/24 AND 12/31, THIS BOX MAY BE COLLECTED AS EARLY AS 12 NOON.", "ref": "7824500018"}, "type": "Feature"}
{"geometry": {"coordinates": [-98.65681204, 29.443157008], "type": "Point"}, "id": "SkcBiDJOPEZHXpPZcLM8k3SiBn0=", "properties": {"@spider": "usps_collection_boxes", "addr:city": "SAN ANTONIO", "addr:country": "US", "addr:full": "702 RICHLAND HILLS DR", "addr:postcode": "78245", "addr:state": "TX", "brand": "USPS", "collection_times": "Mo-Fr 17:00; Sa 16:00", "name": "USPS COLLECTION BOX - PO LOBBY", "note": "ON 12/24 AND 12/31, THIS BOX MAY BE COLLECTED AS EARLY AS 12 NOON.", "ref": "7824500036"}, "type": "Feature"}
{"geometry": {"coordinates": [-98.65681204, 29.443157008], "type": "Point"}, "id": "82c_tImA3WNJvV5rRYrxWi_PxtI=", "properties": {"@spider": "usps_collection_boxes", "addr:city": "SAN ANTONIO", "addr:country": "US", "addr:full": "702 RICHLAND HILLS DR", "addr:postcode": "78245", "addr:state": "TX", "brand": "USPS", "collection_times": "Mo-Fr 17:00; Sa 16:00", "name": "USPS COLLECTION BOX - PO LOBBY", "note": "ON 12/24 AND 12/31, THIS BOX MAY BE COLLECTED AS EARLY AS 12 NOON.", "ref": "7824500038"}, "type": "Feature"}
{"geometry": {"coordinates": [-98.65681204, 29.443157008], "type": "Point"}, "id": "NxM7M9NewA6xdcaD7yyaOybuoxU=", "properties": {"@spider": "usps_collection_boxes", "addr:city": "SAN ANTONIO", "addr:country": "US", "addr:full": "702 RICHLAND HILLS DR", "addr:postcode": "78245", "addr:state": "TX", "brand": "USPS", "collection_times": "Mo-Fr 17:00; Sa 16:00", "name": "USPS COLLECTION BOX - APC", "note": "ON 12/24 AND 12/31, THIS BOX MAY BE COLLECTED AS EARLY AS 12 NOON.", "ref": "7824500042"}, "type": "Feature"}
{"geometry": {"coordinates": [-98.642311012, 29.442648981], "type": "Point"}, "id": "6_rB6lYVErj0xLY69jTOimTpnBM=", "properties": {"@spider": "usps_collection_boxes", "addr:city": "SAN ANTONIO", "addr:country": "US", "addr:full": "8923 W MILITARY DR", "addr:postcode": "78245", "addr:state": "TX", "brand": "USPS", "collection_times": "Mo-Fr 15:15; Sa 15:00", "name": "USPS COLLECTION BOX - BLUE BOX", "note": "ON 12/24 AND 12/31, THIS BOX MAY BE COLLECTED AS EARLY AS 12 NOON.", "ref": "7824500043"}, "type": "Feature"}
{"geometry": {"coordinates": [-98.65681204, 29.443157008], "type": "Point"}, "id": "XlgUrz7xjCzXwRkHGdakqpYrhi8=", "properties": {"@spider": "usps_collection_boxes", "addr:city": "SAN ANTONIO", "addr:country": "US", "addr:full": "702 RICHLAND HILLS DR", "addr:postcode": "78245", "addr:state": "TX", "brand": "USPS", "collection_times": "Mo-Fr 17:00; Sa 16:00", "name": "USPS COLLECTION BOX - BLUE BOX", "note": "ON 12/24 AND 12/31, THIS BOX MAY BE COLLECTED AS EARLY AS 12 NOON.", "ref": "7824500047"}, "type": "Feature"}
{"geometry": {"coordinates": [-98.65681204, 29.443157008], "type": "Point"}, "id": "a-EYkK3Iv_nixTlQw0vOeUDkaPc=", "properties": {"@spider": "usps_collection_boxes", "addr:city": "SAN ANTONIO", "addr:country": "US", "addr:full": "702 RICHLAND HILLS DR", "addr:postcode": "78245", "addr:state": "TX", "brand": "USPS", "collection_times": "Mo-Fr 17:30; Sa 13:00", "name": "USPS COLLECTION BOX - PO LOBBY", "note": "ON 12/24 AND 12/31, THIS BOX MAY BE COLLECTED AS EARLY AS 12 NOON.", "ref": "7824500049"}, "type": "Feature"}
{"geometry": {"coordinates": [-98.480746381, 29.532456055], "type": "Point"}, "id": "wYVH6ZXLnaU-e_rEasE8IER5df8=", "properties": {"@spider": "usps_collection_boxes", "addr:city": "SAN ANTONIO", "addr:country": "US", "addr:full": "10250 JOHN SAUNDERS RD", "addr:postcode": "78246", "addr:state": "TX", "brand": "USPS", "collection_times": "Mo-Sa 18:00", "name": "USPS COLLECTION BOX - APC", "note": "ON 12/24 AND 12/31, THIS BOX MAY BE COLLECTED AS EARLY AS 12 NOON.", "ref": "7824600006"}, "type": "Feature"}
{"geometry": {"coordinates": [-98.480746381, 29.532456055], "type": "Point"}, "id": "v5A8CXYHe6WMZpWupuJFFtzYSsw=", "properties": {"@spider": "usps_collection_boxes", "addr:city": "SAN ANTONIO", "addr:country": "US", "addr:full": "10250 JOHN SAUNDERS RD", "addr:postcode": "78246", "addr:state": "TX", "brand": "USPS", "collection_times": "Mo-Sa 18:00", "name": "USPS COLLECTION BOX - PO LOBBY", "note": "ON 12/24 AND 12/31, THIS BOX MAY BE COLLECTED AS EARLY AS 12 NOON.", "ref": "7824600007"}, "type": "Feature"}
{"geometry": {"coordinates": [-98.480746381, 29.532456055], "type": "Point"}, "id": "e_JuEp8W0xVNvsbRi-CiyAHcAkk=", "properties": {"@spider": "usps_collection_boxes", "addr:city": "SAN ANTONIO", "addr:country": "US", "addr:full": "10250 JOHN SAUNDERS RD", "addr:postcode": "78246", "addr:state": "TX", "brand": "USPS", "collection_times": "Mo-Sa 18:00", "name": "USPS COLLECTION BOX - PO LOBBY", "note": "ON 12/24 AND 12/31, THIS BOX MAY BE COLLECTED AS EARLY AS 12 NOON.", "ref": "7824600008"}, "type": "Feature"}
{"geometry": {"coordinates": [-98.480746381, 29.532456055], "type": "Point"}, "id": "rPEM3Ry1CZ7Jhi0p7JDvPpWLNXI=", "properties": {"@spider": "usps_collection_boxes", "addr:city": "SAN ANTONIO", "addr:country": "US", "addr:full": "10250 JOHN SAUNDERS RD", "addr:postcode": "78246", "addr:state": "TX", "brand": "USPS", "collection_times": "Mo-Sa 18:00", "name": "USPS COLLECTION BOX - BLUE BOX", "note": "ON 12/24 AND 12/31, THIS BOX MAY BE COLLECTED AS EARLY AS 12 NOON.", "ref": "7824600009"}, "type": "Feature"}
{"geometry": {"coordinates": [-98.480746381, 29.532456055], "type": "Point"}, "id": "TKlg67quIxfNCQ8TSy1Yqw-k2_Q=", "properties": {"@spider": "usps_collection_boxes", "addr:city": "SAN ANTONIO", "addr:country": "US", "addr:full": "10250 JOHN SAUNDERS RD", "addr:postcode": "78246", "addr:state": "TX", "brand": "USPS", "collection_times": "Mo-Sa 18:00", "name": "USPS COLLECTION BOX - BLUE BOX", "note": "ON 12/24 AND 12/31, THIS BOX MAY BE COLLECTED AS EARLY AS 12 NOON.", "ref": "7824600010"}, "type": "Feature"}
{"geometry": {"coordinates": [-98.480746381, 29.532456055], "type": "Point"}, "id": "b86yYdJYIV7hw-E88SJjjqcL8zs=", "properties": {"@spider": "usps_collection_boxes", "addr:city": "SAN ANTONIO", "addr:country": "US", "addr:full": "10250 JOHN SAUNDERS RD", "addr:postcode": "78246", "addr:state": "TX", "brand": "USPS", "collection_times": "Mo-Sa 18:00", "name": "USPS COLLECTION BOX - BLUE BOX", "note": "ON 12/24 AND 12/31, THIS BOX MAY BE COLLECTED AS EARLY AS 12 NOON.", "ref": "7824600012"}, "type": "Feature"}
{"geometry": {"coordinates": [-98.480746381, 29.532456055], "type": "Point"}, "id": "3kJM9A8XL2gxKz1i05OchscaB54=", "properties": {"@spider": "usps_collection_boxes", "addr:city": "SAN ANTONIO", "addr:country": "US", "addr:full": "10250 JOHN SAUNDERS RD", "addr:postcode": "78246", "addr:state": "TX", "brand": "USPS", "collection_times": "Mo-Sa 18:00", "name": "USPS COLLECTION BOX - PO LOBBY", "note": "ON 12/24 AND 12/31, THIS BOX MAY BE COLLECTED AS EARLY AS 12 NOON.", "ref": "7824600013"}, "type": "Feature"}
{"geometry": {"coordinates": [-98.462685644, 29.548667239], "type": "Point"}, "id": "B9h3SPhlBjDcUo46eQeWb7T3-r4=", "properties": {"@spider": "usps_collection_boxes", "addr:city": "SAN ANTONIO", "addr:country": "US", "addr:full": "11975 STARCREST DR", "addr:postcode": "78247", "addr:state": "TX", "brand": "USPS", "collection_times": "Mo-Fr 13:00; Sa 13:15", "name": "USPS COLLECTION BOX - BLUE BOX", "note": "ON 12/24 AND 12/31, THIS BOX MAY BE COLLECTED AS EARLY AS 12 NOON.", "ref": "7824700013"}, "type": "Feature"}
{"geometry": {"coordinates": [-98.428440969, 29.558702004], "type": "Point"}, "id": "l330EA-f5bzh2IkeGomFoks5NXQ=", "properties": {"@spider": "usps_collection_boxes", "addr:city": "SAN ANTONIO", "addr:country": "US", "addr:full": "12907 AGENCY", "addr:postcode": "78247", "addr:state": "TX", "brand": "USPS", "collection_times": "Mo-Fr 13:00; Sa 13:15", "name": "USPS COLLECTION BOX - BLUE BOX", "note": "ON 12/24 AND 12/31, THIS BOX MAY BE COLLECTED AS EARLY AS 12 NOON.", "ref": "7824700020"}, "type": "Feature"}
{"geometry": {"coordinates": [-98.355827033, 29.591693007], "type": "Point"}, "id": "lRAo5TeMA-JgY4QFrKe3WKrbY_8=", "properties": {"@spider": "usps_collection_boxes", "addr:city": "SAN ANTONIO", "addr:country": "US", "addr:full": "16503 NACOGDOCHES RD", "addr:postcode": "78247", "addr:state": "TX", "brand": "USPS", "collection_times": "Mo-Fr 13:15; Sa 12:30", "name": "USPS COLLECTION BOX - BLUE BOX", "note": "ON 12/24 AND 12/31, THIS BOX MAY BE COLLECTED AS EARLY AS 12 NOON.", "ref": "7824700026"}, "type": "Feature"}
{"geometry": {"coordinates": [-98.439754023, 29.576868019], "type": "Point"}, "id": "j0WOmUItcw3zHftkYbDemJzXcJk=", "properties": {"@spider": "usps_collection_boxes", "addr:city": "SAN ANTONIO", "addr:country": "US", "addr:full": "2929 THOUSAND OAKS DR", "addr:postcode": "78247", "addr:state": "TX", "brand": "USPS", "collection_times": "Mo-Fr 13:15; Sa 12:45", "name": "USPS COLLECTION BOX - BLUE BOX", "note": "ON 12/24 AND 12/31, THIS BOX MAY BE COLLECTED AS EARLY AS 12 NOON.", "ref": "7824700028"}, "type": "Feature"}
{"geometry": {"coordinates": [-98.420387971, 29.576987], "type": "Point"}, "id": "UXrXB3Kl1T8Az6PwjpaF3d1NQUw=", "properties": {"@spider": "usps_collection_boxes", "addr:city": "SAN ANTONIO", "addr:country": "US", "addr:full": "14955 BULVERDE RD", "addr:postcode": "78247", "addr:state": "TX", "brand": "USPS", "collection_times": "Mo-Fr 16:30", "name": "USPS COLLECTION BOX - BLUE BOX", "note": "ON 12/24 AND 12/31, THIS BOX MAY BE COLLECTED AS EARLY AS 12 NOON.", "ref": "7824700029"}, "type": "Feature"}
{"geometry": {"coordinates": [-98.536256339, 29.586456479], "type": "Point"}, "id": "wZCc75udoplziru0uFxxTEtobEs=", "properties": {"@spider": "usps_collection_boxes", "addr:city": "SAN ANTONIO", "addr:country": "US", "addr:full": "50 ROGERS WOOD", "addr:postcode": "78248", "addr:state": "TX", "brand": "USPS", "collection_times": "Mo-Fr 13:45; Sa 16:00", "name": "USPS COLLECTION BOX - BLUE BOX", "note": "ON 12/24 AND 12/31, THIS BOX MAY BE COLLECTED AS EARLY AS 12 NOON.", "ref": "7824800001"}, "type": "Feature"}
{"geometry": {"coordinates": [-98.510486178, 29.608138724], "type": "Point"}, "id": "ZUM-2VxVXjt0-itYTjxcEL6KXuU=", "properties": {"@spider": "usps_collection_boxes", "addr:city": "SAN ANTONIO", "addr:country": "US", "addr:full": "1150 N LOOP 1604 W", "addr:postcode": "78248", "addr:state": "TX", "brand": "USPS", "collection_times": "Mo-Fr 13:30; Sa 16:30", "name": "USPS COLLECTION BOX - BLUE BOX", "note": "ON 12/24 AND 12/31, THIS BOX MAY BE COLLECTED AS EARLY AS 12 NOON.", "ref": "7824800002"}, "type": "Feature"}
{"geometry": {"coordinates": [-98.577687172, 29.589717153], "type": "Point"}, "id": "G0m3M8rrg6L5dMW8n-6Kik1_Tuo=", "properties": {"@spider": "usps_collection_boxes", "addr:city": "SAN ANTONIO", "addr:country": "US", "addr:full": "16161 UNIVERSITY OAK", "addr:postcode": "78249", "addr:state": "TX", "brand": "USPS", "collection_times": "Mo-Fr 15:45; Sa 14:00", "name": "USPS COLLECTION BOX - BLUE BOX", "note": "ON 12/24 AND 12/31, THIS BOX MAY BE COLLECTED AS EARLY AS 12 NOON.", "ref": "7824900012"}, "type": "Feature"}
{"geometry": {"coordinates": [-98.599314028, 29.588119006], "type": "Point"}, "id": "f3Ex-G_H6Vut4gQlBD337K2joGI=", "properties": {"@spider": "usps_collection_boxes", "addr:city": "SAN ANTONIO", "addr:country": "US", "addr:full": "15750 W INTERSTATE 10", "addr:postcode": "78249", "addr:state": "TX", "brand": "USPS", "collection_times": "Mo-Fr 15:30", "name": "USPS COLLECTION BOX - BLUE BOX", "note": "ON 12/24 AND 12/31, THIS BOX MAY BE COLLECTED AS EARLY AS 12 NOON.", "ref": "7824900017"}, "type": "Feature"}
{"geometry": {"coordinates": [-98.599130967, 29.563897988], "type": "Point"}, "id": "rggUZ7DzaqGZTmmgNjRqdOZE8VA=", "properties": {"@spider": "usps_collection_boxes", "addr:city": "SAN ANTONIO", "addr:country": "US", "addr:full": "5837 DE ZAVALA RD", "addr:postcode": "78249", "addr:state": "TX", "brand": "USPS", "collection_times": "Mo-Fr 17:30; Sa 16:45", "name": "USPS COLLECTION BOX - BLUE BOX", "note": "ON 12/24 AND 12/31, THIS BOX MAY BE COLLECTED AS EARLY AS 12 NOON.", "ref": "7824900024"}, "type": "Feature"}
{"geometry": {"coordinates": [-98.626770041, 29.58548998], "type": "Point"}, "id": "aRdrelXPvHyfyX4_zATAZXktjTQ=", "properties": {"@spider": "usps_collection_boxes", "addr:city": "SAN ANTONIO", "addr:country": "US", "addr:full": "6900 N LOOP 1604 W", "addr:postcode": "78249", "addr:state": "TX", "brand": "USPS", "collection_times": "Mo-Fr 16:30", "name": "USPS COLLECTION BOX - BLUE BOX", "note": "ON 12/24 AND 12/31, THIS BOX MAY BE COLLECTED AS EARLY AS 12 NOON.", "ref": "7824900034"}, "type": "Feature"}
{"geometry": {"coordinates": [-98.599130967, 29.563897988], "type": "Point"}, "id": "hs1vIJtuNfs_c65fsoV7ZeBOYl4=", "properties": {"@spider": "usps_collection_boxes", "addr:city": "SAN ANTONIO", "addr:country": "US", "addr:full": "5837 DE ZAVALA RD", "addr:postcode": "78249", "addr:state": "TX", "brand": "USPS", "collection_times": "Mo-Fr 17:30; Sa 16:45", "name": "USPS COLLECTION BOX - PO LOBBY", "note": "ON 12/24 AND 12/31, THIS BOX MAY BE COLLECTED AS EARLY AS 12 NOON.", "ref": "7824900038"}, "type": "Feature"}
{"geometry": {"coordinates": [-98.599130967, 29.563897988], "type": "Point"}, "id": "kB72hh8vYIRn7yK1Pb0yw_abQRw=", "properties": {"@spider": "usps_collection_boxes", "addr:city": "SAN ANTONIO", "addr:country": "US", "addr:full": "5837 DE ZAVALA RD", "addr:postcode": "78249", "addr:state": "TX", "brand": "USPS", "collection_times": "Mo-Fr 17:30; Sa 16:45", "name": "USPS COLLECTION BOX - PO LOBBY", "note": "ON 12/24 AND 12/31, THIS BOX MAY BE COLLECTED AS EARLY AS 12 NOON.", "ref": "7824900042"}, "type": "Feature"}
{"geometry": {"coordinates": [-98.589642988, 29.54833602], "type": "Point"}, "id": "03GutOW_sKvYUqIOFlJ_Df2YyE8=", "properties": {"@spider": "usps_collection_boxes", "addr:city": "SAN ANTONIO", "addr:country": "US", "addr:full": "12001 NETWORK BLVD", "addr:postcode": "78249", "addr:state": "TX", "brand": "USPS", "collection_times": "Mo-Fr 15:15; Sa 14:30", "name": "USPS COLLECTION BOX - BLUE BOX", "note": "ON 12/24 AND 12/31, THIS BOX MAY BE COLLECTED AS EARLY AS 12 NOON.", "ref": "7824900047"}, "type": "Feature"}
{"geometry": {"coordinates": [-98.589832, 29.552810993], "type": "Point"}, "id": "mYBD0VLXVsilj9E8-YJnUUawytY=", "properties": {"@spider": "usps_collection_boxes", "addr:city": "SAN ANTONIO", "addr:country": "US", "addr:full": "12500 NETWORK BLVD", "addr:postcode": "78249", "addr:state": "TX", "brand": "USPS", "collection_times": "Mo-Fr 15:30; Sa 14:30", "name": "USPS COLLECTION BOX - BLUE BOX", "note": "ON 12/24 AND 12/31, THIS BOX MAY BE COLLECTED AS EARLY AS 12 NOON.", "ref": "7824900048"}, "type": "Feature"}
{"geometry": {"coordinates": [-98.599130967, 29.563897988], "type": "Point"}, "id": "v7W5Z7yLjy-AVa5AWyzRpQS0_UU=", "properties": {"@spider": "usps_collection_boxes", "addr:city": "SAN ANTONIO", "addr:country": "US", "addr:full": "5837 DE ZAVALA RD", "addr:postcode": "78249", "addr:state": "TX", "brand": "USPS", "collection_times": "Mo-Fr 17:30; Sa 16:45", "name": "USPS COLLECTION BOX - APC", "note": "ON 12/24 AND 12/31, THIS BOX MAY BE COLLECTED AS EARLY AS 12 NOON.", "ref": "7824900049"}, "type": "Feature"}
{"geometry": {"coordinates": [-98.599130967, 29.563897988], "type": "Point"}, "id": "hibjWePtn1bwWYpOczF0zTLRwHA=", "properties": {"@spider": "usps_collection_boxes", "addr:city": "SAN ANTONIO", "addr:country": "US", "addr:full": "5837 DE ZAVALA RD", "addr:postcode": "78249", "addr:state": "TX", "brand": "USPS", "collection_times": "Mo-Fr 17:30; Sa 12:00", "name": "USPS COLLECTION BOX - PO LOBBY", "note": "ON 12/24 AND 12/31, THIS BOX MAY BE COLLECTED AS EARLY AS 12 NOON.", "ref": "7824900060"}, "type": "Feature"}
{"geometry": {"coordinates": [-98.564082469, 29.577467171], "type": "Point"}, "id": "6v_rc1TYyluuaBwBt5RkbJmQr_g=", "properties": {"@spider": "usps_collection_boxes", "addr:city": "SAN ANTONIO", "addr:country": "US", "addr:full": "4095 DE ZAVALA RD", "addr:postcode": "78249", "addr:state": "TX", "brand": "USPS", "collection_times": "Mo-Fr 14:00", "name": "USPS COLLECTION BOX - BLUE BOX", "note": "ON 12/24 AND 12/31, THIS BOX MAY BE COLLECTED AS EARLY AS 12 NOON.", "ref": "7824900061"}, "type": "Feature"}
{"geometry": {"coordinates": [-98.703580042, 29.433965999], "type": "Point"}, "id": "0S6LlUxpOlll7HAMeK71UFHxoyk=", "properties": {"@spider": "usps_collection_boxes", "addr:city": "SAN ANTONIO", "addr:country": "US", "addr:full": "10718 POTRANCO RD", "addr:postcode": "78251", "addr:state": "TX", "brand": "USPS", "collection_times": "Mo-Fr 15:00; Sa 14:45", "name": "USPS COLLECTION BOX - BLUE BOX", "note": "ON 12/24 AND 12/31, THIS BOX MAY BE COLLECTED AS EARLY AS 12 NOON.", "ref": "7825100024"}, "type": "Feature"}
{"geometry": {"coordinates": [-98.630328997, 29.66608902], "type": "Point"}, "id": "-ZbwxXmCGjH_PbdLXArkUND04m0=", "properties": {"@spider": "usps_collection_boxes", "addr:country": "US", "addr:full": "24164 W IH 10", "addr:postcode": "78257", "brand": "USPS", "collection_times": "Mo-Fr 16:00; Sa 14:15", "name": "USPS COLLECTION BOX - BLUE BOX", "note": "ON 12/24 AND 12/31, THIS BOX MAY BE COLLECTED AS EARLY AS 12 NOON.", "ref": "7825700002"}, "type": "Feature"}
{"geometry": {"coordinates": [-98.617426985, 29.650084991], "type": "Point"}, "id": "vdKlqH1pQXdXtlQxtkuD_kzIyvk=", "properties": {"@spider": "usps_collection_boxes", "addr:country": "US", "addr:full": "10 DOMINION DR", "addr:postcode": "78257", "brand": "USPS", "collection_times": "Mo-Fr 16:00; Sa 14:15", "name": "USPS COLLECTION BOX - BLUE BOX", "note": "ON 12/24 AND 12/31, THIS BOX MAY BE COLLECTED AS EARLY AS 12 NOON.", "ref": "7825700003"}, "type": "Feature"}
{"geometry": {"coordinates": [-98.492628996, 29.618307981], "type": "Point"}, "id": "F2TDKahCV_o2tqJIinQJtinAk2Y=", "properties": {"@spider": "usps_collection_boxes", "addr:city": "SAN ANTONIO", "addr:country": "US", "addr:full": "540 OAK CENTRE DR", "addr:postcode": "78258", "addr:state": "TX", "brand": "USPS", "collection_times": "Mo-Fr 14:30", "name": "USPS COLLECTION BOX - BLUE BOX", "note": "ON 12/24 AND 12/31, THIS BOX MAY BE COLLECTED AS EARLY AS 12 NOON.", "ref": "7825800020"}, "type": "Feature"}
{"geometry": {"coordinates": [-98.493496021, 29.629692994], "type": "Point"}, "id": "EKsZVj0GOBxOEfkWjB-_yFzGarA=", "properties": {"@spider": "usps_collection_boxes", "addr:city": "SAN ANTONIO", "addr:country": "US", "addr:full": "19234 STONEHUE", "addr:postcode": "78258", "addr:state": "TX", "brand": "USPS", "collection_times": "Mo-Fr 14:45", "name": "USPS COLLECTION BOX - BLUE BOX", "note": "ON 12/24 AND 12/31, THIS BOX MAY BE COLLECTED AS EARLY AS 12 NOON.", "ref": "7825800022"}, "type": "Feature"}
{"geometry": {"coordinates": [-98.535723965, 29.604494017], "type": "Point"}, "id": "mtVm-698E1wsHQF1hj6wUX__Z0U=", "properties": {"@spider": "usps_collection_boxes", "addr:city": "SAN ANTONIO", "addr:country": "US", "addr:full": "2706 TREBLE CRK", "addr:postcode": "78258", "addr:state": "TX", "brand": "USPS", "collection_times": "Mo-Fr 13:30", "name": "USPS COLLECTION BOX - BLUE BOX", "note": "ON 12/24 AND 12/31, THIS BOX MAY BE COLLECTED AS EARLY AS 12 NOON.", "ref": "7825800023"}, "type": "Feature"}
{"geometry": {"coordinates": [-98.483960013, 29.612460011], "type": "Point"}, "id": "B38PmpXYqu0F7VLyOPhd8yhvBek=", "properties": {"@spider": "usps_collection_boxes", "addr:city": "SAN ANTONIO", "addr:country": "US", "addr:full": "18585 SIGMA RD", "addr:postcode": "78258", "addr:state": "TX", "brand": "USPS", "collection_times": "Mo-Fr 15:30", "name": "USPS COLLECTION BOX - BLUE BOX", "note": "ON 12/24 AND 12/31, THIS BOX MAY BE COLLECTED AS EARLY AS 12 NOON.", "ref": "7825800024"}, "type": "Feature"}
{"geometry": {"coordinates": [-98.482937002, 29.614058984], "type": "Point"}, "id": "1TT5n5en2bSgDOiROy-xDSxZ-WM=", "properties": {"@spider": "usps_collection_boxes", "addr:city": "SAN ANTONIO", "addr:country": "US", "addr:full": "800 E SONTERRA BLVD", "addr:postcode": "78258", "addr:state": "TX", "brand": "USPS", "collection_times": "Mo-Fr 15:30", "name": "USPS COLLECTION BOX - BLUE BOX", "note": "ON 12/24 AND 12/31, THIS BOX MAY BE COLLECTED AS EARLY AS 12 NOON.", "ref": "7825800025"}, "type": "Feature"}
{"geometry": {"coordinates": [-98.475833004, 29.613883006], "type": "Point"}, "id": "zVMn0r3y0TbFIiG3rMHlmdx59Ak=", "properties": {"@spider": "usps_collection_boxes", "addr:city": "SAN ANTONIO", "addr:country": "US", "addr:full": "1162 E SONTERRA BLVD", "addr:postcode": "78258", "addr:state": "TX", "brand": "USPS", "collection_times": "Mo-Fr 15:45", "name": "USPS COLLECTION BOX - BLUE BOX", "note": "ON 12/24 AND 12/31, THIS BOX MAY BE COLLECTED AS EARLY AS 12 NOON.", "ref": "7825800026"}, "type": "Feature"}
{"geometry": {"coordinates": [-98.473179042, 29.614424016], "type": "Point"}, "id": "z0zau9xDWFGBbiDbdKt7qYXuSkA=", "properties": {"@spider": "usps_collection_boxes", "addr:city": "SAN ANTONIO", "addr:country": "US", "addr:full": "1314 E SONTERRA BLVD", "addr:postcode": "78258", "addr:state": "TX", "brand": "USPS", "collection_times": "Mo-Fr 15:45", "name": "USPS COLLECTION BOX - BLUE BOX", "note": "ON 12/24 AND 12/31, THIS BOX MAY BE COLLECTED AS EARLY AS 12 NOON.", "ref": "7825800027"}, "type": "Feature"}
{"geometry": {"coordinates": [-98.511844007, 29.62174498], "type": "Point"}, "id": "FOhBvH5-oNegt0CDUtBLJPHeP-8=", "properties": {"@spider": "usps_collection_boxes", "addr:city": "SAN ANTONIO", "addr:country": "US", "addr:full": "19206 HUEBNER RD", "addr:postcode": "78258", "addr:state": "TX", "brand": "USPS", "collection_times": "Mo-Fr 14:45", "name": "USPS COLLECTION BOX - BLUE BOX", "note": "ON 12/24 AND 12/31, THIS BOX MAY BE COLLECTED AS EARLY AS 12 NOON.", "ref": "7825800028"}, "type": "Feature"}
{"geometry": {"coordinates": [-98.457382004, 29.641104997], "type": "Point"}, "id": "8EjCJaBb5cykJ31bG9J94_1hlA0=", "properties": {"@spider": "usps_collection_boxes", "addr:city": "SAN ANTONIO", "addr:country": "US", "addr:full": "20935 N HIGHWAY 281", "addr:postcode": "78258", "addr:state": "TX", "brand": "USPS", "collection_times": "Mo-Fr 13:45; Sa 13:30", "name": "USPS COLLECTION BOX - BLUE BOX", "note": "ON 12/24 AND 12/31, THIS BOX MAY BE COLLECTED AS EARLY AS 12 NOON.", "ref": "7825800030"}, "type": "Feature"}
{"geometry": {"coordinates": [-98.454869026, 29.631356005], "type": "Point"}, "id": "ECYU7JZHHY_Be5amZ0v6qtqmYhM=", "properties": {"@spider": "usps_collection_boxes", "addr:city": "SAN ANTONIO", "addr:country": "US", "addr:full": "20403 ENCINO LEDGE", "addr:postcode": "78259", "addr:state": "TX", "brand": "USPS", "collection_times": "Mo-Fr 17:30; Sa 16:45", "name": "USPS COLLECTION BOX - BLUE BOX", "note": "ON 12/24 AND 12/31, THIS BOX MAY BE COLLECTED AS EARLY AS 12 NOON.", "ref": "7825900001"}, "type": "Feature"}
{"geometry": {"coordinates": [-98.454869026, 29.631356005], "type": "Point"}, "id": "2ZrcJEBR3Au1UN16FmBwQEVeV_o=", "properties": {"@spider": "usps_collection_boxes", "addr:city": "SAN ANTONIO", "addr:country": "US", "addr:full": "20403 ENCINO LEDGE", "addr:postcode": "78259", "addr:state": "TX", "brand": "USPS", "collection_times": "Mo-Fr 17:30; Sa 17:00", "name": "USPS COLLECTION BOX - APC", "note": "ON 12/24 AND 12/31, THIS BOX MAY BE COLLECTED AS EARLY AS 12 NOON.", "ref": "7825900007"}, "type": "Feature"}
{"geometry": {"coordinates": [-98.454869026, 29.631356005], "type": "Point"}, "id": "bqXBzDnYUf2Z-hE6Wnzz_Wyn8Tc=", "properties": {"@spider": "usps_collection_boxes", "addr:city": "SAN ANTONIO", "addr:country": "US", "addr:full": "20403 ENCINO LEDGE", "addr:postcode": "78259", "addr:state": "TX", "brand": "USPS", "collection_times": "Mo-Fr 17:30; Sa 16:45", "name": "USPS COLLECTION BOX - BLUE BOX", "note": "ON 12/24 AND 12/31, THIS BOX MAY BE COLLECTED AS EARLY AS 12 NOON.", "ref": "7825900008"}, "type": "Feature"}
{"geometry": {"coordinates": [-98.454869026, 29.631356005], "type": "Point"}, "id": "0gZEBwwHUE3A0KAxjinEbHWfJ3o=", "properties": {"@spider": "usps_collection_boxes", "addr:city": "SAN ANTONIO", "addr:country": "US", "addr:full": "20403 ENCINO LEDGE", "addr:postcode": "78259", "addr:state": "TX", "brand": "USPS", "collection_times": "Mo-Fr 17:30; Sa 13:00", "name": "USPS COLLECTION BOX - PO LOBBY", "note": "ON 12/24 AND 12/31, THIS BOX MAY BE COLLECTED AS EARLY AS 12 NOON.", "ref": "7825900010"}, "type": "Feature"}
{"geometry": {"coordinates": [-98.300298014, 29.638470984], "type": "Point"}, "id": "f14Rx62yGrVK4WFHVyitdyyXYXo=", "properties": {"@spider": "usps_collection_boxes", "addr:city": "SAN ANTONIO", "addr:country": "US", "addr:full": "9400 MUNICIPAL PKWY", "addr:postcode": "78266", "addr:state": "TX", "brand": "USPS", "collection_times": "Mo-Fr 13:15", "name": "USPS COLLECTION BOX - BLUE BOX", "note": "ON 12/24 AND 12/31, THIS BOX MAY BE COLLECTED AS EARLY AS 12 NOON.", "ref": "7826600001"}, "type": "Feature"}
{"geometry": {"coordinates": [-98.408169001, 29.532811981], "type": "Point"}, "id": "KzfeUnZsip4K98byOq6aUY1EitA=", "properties": {"@spider": "usps_collection_boxes", "addr:city": "SAN ANTONIO", "addr:country": "US", "addr:full": "10410 PERRIN BEITEL RD", "addr:postcode": "78284", "addr:state": "TX", "brand": "USPS", "collection_times": "Mo-Sa 18:00", "name": "USPS COLLECTION BOX - BLUE BOX", "note": "ON 12/24 AND 12/31, THIS BOX MAY BE COLLECTED AS EARLY AS 12 NOON.", "ref": "7828400009"}, "type": "Feature"}
{"geometry": {"coordinates": [-98.408169001, 29.532811981], "type": "Point"}, "id": "91XLXQ9ZI5j3ErTJ6yTz5sBa21I=", "properties": {"@spider": "usps_collection_boxes", "addr:city": "SAN ANTONIO", "addr:country": "US", "addr:full": "10410 PERRIN BEITEL RD", "addr:postcode": "78284", "addr:state": "TX", "brand": "USPS", "collection_times": "Mo-Sa 18:00", "name": "USPS COLLECTION BOX - BLUE BOX", "note": "ON 12/24 AND 12/31, THIS BOX MAY BE COLLECTED AS EARLY AS 12 NOON.", "ref": "7828400010"}, "type": "Feature"}
{"geometry": {"coordinates": [-98.408169001, 29.532811981], "type": "Point"}, "id": "Bb6qkQ9VRck_qYHaZyaEKv_YRX8=", "properties": {"@spider": "usps_collection_boxes", "addr:city": "SAN ANTONIO", "addr:country": "US", "addr:full": "10410 PERRIN BEITEL RD", "addr:postcode": "78284", "addr:state": "TX", "brand": "USPS", "collection_times": "Mo-Sa 18:00", "name": "USPS COLLECTION BOX - PO LOBBY", "note": "ON 12/24 AND 12/31, THIS BOX MAY BE COLLECTED AS EARLY AS 12 NOON.", "ref": "7828400012"}, "type": "Feature"}
{"geometry": {"coordinates": [-98.408169001, 29.532811981], "type": "Point"}, "id": "4wS9pQ6_CbKY1NsN_7Y87Ut8y7U=", "properties": {"@spider": "usps_collection_boxes", "addr:city": "SAN ANTONIO", "addr:country": "US", "addr:full": "10410 PERRIN BEITEL RD", "addr:postcode": "78284", "addr:state": "TX", "brand": "USPS", "collection_times": "Mo-Sa 18:00", "name": "USPS COLLECTION BOX - PO LOBBY", "note": "ON 12/24 AND 12/31, THIS BOX MAY BE COLLECTED AS EARLY AS 12 NOON.", "ref": "7828400013"}, "type": "Feature"}
{"geometry": {"coordinates": [-98.408169001, 29.532811981], "type": "Point"}, "id": "Iw50WnAWKwKctZoLVJSi9UfTVOA=", "properties": {"@spider": "usps_collection_boxes", "addr:city": "SAN ANTONIO", "addr:country": "US", "addr:full": "10410 PERRIN BEITEL RD", "addr:postcode": "78284", "addr:state": "TX", "brand": "USPS", "collection_times": "Mo-Sa 18:00", "name": "USPS COLLECTION BOX - APC", "note": "ON 12/24 AND 12/31, THIS BOX MAY BE COLLECTED AS EARLY AS 12 NOON.", "ref": "7828400014"}, "type": "Feature"}
{"geometry": {"coordinates": [-98.408169001, 29.532811981], "type": "Point"}, "id": "8PkCkdkoo7RY4_Haq8BhTwnoBwU=", "properties": {"@spider": "usps_collection_boxes", "addr:city": "SAN ANTONIO", "addr:country": "US", "addr:full": "10410 PERRIN BEITEL RD", "addr:postcode": "78284", "addr:state": "TX", "brand": "USPS", "collection_times": "Mo-Fr 17:30; Sa 16:00", "name": "USPS COLLECTION BOX - PO LOBBY", "note": "ON 12/24 AND 12/31, THIS BOX MAY BE COLLECTED AS EARLY AS 12 NOON.", "ref": "7828400015"}, "type": "Feature"}
