{"geometry": {"coordinates": [-97.910835984, 27.781427981], "type": "Point"}, "id": "G71NcxdycgkNfX2pwB6V0on1600=", "properties": {"@source_uri": "https://tools.usps.com/UspsToolsRestServices/rest/POLocator/findLocations", "@spider": "usps_collection_boxes", "addr:city": "AGUA DULCE", "addr:country": "US", "addr:postcode": "78330", "addr:state": "TX", "addr:street_address": "1518 2ND ST", "amenity": "post_box", "brand": "United States Postal Service", "brand:wikidata": "Q668687", "collection_times": "Mo-Fr 14:45; Sa 09:45", "note": "ON 12/24 AND 12/31, THIS BOX MAY BE COLLECTED AS EARLY AS 12 NOON.", "nsi_id": "unitedstatespostalservice-a77078", "operator": "United States Postal Service", "operator:short": "USPS", "operator:type": "public", "operator:wikidata": "Q668687", "ref": "7833000000"}, "type": "Feature"}
{"geometry": {"coordinates": [-97.910835984, 27.781427981], "type": "Point"}, "id": "cuh55b1qQHCxNSsCQruzw06S75o=", "properties": {"@source_uri": "https://tools.usps.com/UspsToolsRestServices/rest/POLocator/findLocations", "@spider": "usps_collection_boxes", "addr:city": "AGUA DULCE", "addr:country": "US", "addr:postcode": "78330", "addr:state": "TX", "addr:street_address": "1518 2ND ST", "amenity": "post_box", "brand": "United States Postal Service", "brand:wikidata": "Q668687", "collection_times": "Mo-Fr 14:45; Sa 09:45", "indoor": "yes", "note": "ON 12/24 AND 12/31, THIS BOX MAY BE COLLECTED AS EARLY AS 12 NOON.", "nsi_id": "unitedstatespostalservice-a77078", "operator": "United States Postal Service", "operator:short": "USPS", "operator:type": "public", "operator:wikidata": "Q668687", "ref": "7833000001"}, "type": "Feature"}
{"geometry": {"coordinates": [-97.910835984, 27.781427981], "type": "Point"}, "id": "uUXTMpZuvlaPcEMtYSGwedSXFhU=", "properties": {"@source_uri": "https://tools.usps.com/UspsToolsRestServices/rest/POLocator/findLocations", "@spider": "usps_collection_boxes", "addr:city": "AGUA DULCE", "addr:country": "US", "addr:postcode": "78330", "addr:state": "TX", "addr:street_address": "1518 2ND ST", "amenity": "post_box", "brand": "United States Postal Service", "brand:wikidata": "Q668687", "collection_times": "Mo-Fr 15:00; Sa 10:00", "indoor": "yes", "note": "ON 12/24 AND 12/31, THIS BOX MAY BE COLLECTED AS EARLY AS 12 NOON.", "nsi_id": "unitedstatespostalservice-a77078", "operator": "United States Postal Service", "operator:short": "USPS", "operator:type": "public", "operator:wikidata": "Q668687", "ref": "7833000004"}, "type": "Feature"}
{"geometry": {"coordinates": [-98.072737976, 27.752433008], "type": "Point"}, "id": "q2kny6zv9yJkmt2pimWM9pKbbRk=", "properties": {"@source_uri": "https://tools.usps.com/UspsToolsRestServices/rest/POLocator/findLocations", "@spider": "usps_collection_boxes", "addr:city": "ALICE", "addr:country": "US", "addr:postcode": "78332", "addr:state": "TX", "addr:street_address": "401 E 2ND ST", "amenity": "post_box", "brand": "United States Postal Service", "brand:wikidata": "Q668687", "collection_times": "Mo-Fr 17:00; Sa 12:00", "indoor": "yes", "note": "ON 12/24 AND 12/31, THIS BOX MAY BE COLLECTED AS EARLY AS 12 NOON.", "nsi_id": "unitedstatespostalservice-a77078", "operator": "United States Postal Service", "operator:short": "USPS", "operator:type": "public", "operator:wikidata": "Q668687", "ref": "7833200003"}, "type": "Feature"}
{"geometry": {"coordinates": [-98.055309988, 27.756643993], "type": "Point"}, "id": "VNDOlAj9xfSEgfxHOQlKYjrurBA=", "properties": {"@source_uri": "https://tools.usps.com/UspsToolsRestServices/rest/POLocator/findLocations", "@spider": "usps_collection_boxes", "addr:city": "ALICE", "addr:country": "US", "addr:postcode": "78332", "addr:state": "TX", "addr:street_address": "1600 E MAIN ST", "amenity": "post_box", "brand": "United States Postal Service", "brand:wikidata": "Q668687", "collection_times": "Mo-Fr 14:30; Sa 12:00", "note": "ON 12/24 AND 12/31, THIS BOX MAY BE COLLECTED AS EARLY AS 12 NOON.", "nsi_id": "unitedstatespostalservice-a77078", "operator": "United States Postal Service", "operator:short": "USPS", "operator:type": "public", "operator:wikidata": "Q668687", "ref": "7833200007"}, "type": "Feature"}
{"geometry": {"coordinates": [-98.073252661, 27.752157333], "type": "Point"}, "id": "-zBZ2bwmHRv2OtEnd76LmYwTsRI=", "properties": {"@source_uri": "https://tools.usps.com/UspsToolsRestServices/rest/POLocator/findLocations", "@spider": "usps_collection_boxes", "addr:city": "ALICE", "addr:country": "US", "addr:postcode": "78332", "addr:state": "TX", "addr:street_address": "200 N REYNOLDS ST", "amenity": "post_box", "brand": "United States Postal Service", "brand:wikidata": "Q668687", "collection_times": "Mo-Fr 17:00; Sa 12:00", "note": "ON 12/24 AND 12/31, THIS BOX MAY BE COLLECTED AS EARLY AS 12 NOON.", "nsi_id": "unitedstatespostalservice-a77078", "operator": "United States Postal Service", "operator:short": "USPS", "operator:type": "public", "operator:wikidata": "Q668687", "ref": "7833200028"}, "type": "Feature"}
{"geometry": {"coordinates": [-98.072737976, 27.752433008], "type": "Point"}, "id": "RotEn_FN1cQVK-RTNkqajY09frk=", "properties": {"@source_uri": "https://tools.usps.com/UspsToolsRestServices/rest/POLocator/findLocations", "@spider": "usps_collection_boxes", "addr:city": "ALICE", "addr:country": "US", "addr:postcode": "78332", "addr:state": "TX", "addr:street_address": "401 E 2ND ST", "amenity": "post_box", "brand": "United States Postal Service", "brand:wikidata": "Q668687", "collection_times": "Mo-Fr 17:00; Sa 12:00", "indoor": "yes", "note": "ON 12/24 AND 12/31, THIS BOX MAY BE COLLECTED AS EARLY AS 12 NOON.", "nsi_id": "unitedstatespostalservice-a77078", "operator": "United States Postal Service", "operator:short": "USPS", "operator:type": "public", "operator:wikidata": "Q668687", "ref": "7833200032"}, "type": "Feature"}
{"geometry": {"coordinates": [-98.044953541, 27.764555249], "type": "Point"}, "id": "9NNqVCez3i-oE3FcemR49J7-CGI=", "properties": {"@source_uri": "https://tools.usps.com/UspsToolsRestServices/rest/POLocator/findLocations", "@spider": "usps_collection_boxes", "addr:city": "ALICE", "addr:country": "US", "addr:postcode": "78332", "addr:state": "TX", "addr:street_address": "2500 E MAIN ST", "amenity": "post_box", "brand": "United States Postal Service", "brand:wikidata": "Q668687", "collection_times": "Mo-Sa 10:00", "nsi_id": "unitedstatespostalservice-a77078", "operator": "United States Postal Service", "operator:short": "USPS", "operator:type": "public", "operator:wikidata": "Q668687", "ref": "7833200039"}, "type": "Feature"}
{"geometry": {"coordinates": [-98.072737976, 27.752433008], "type": "Point"}, "id": "Y32AS3KYPTjO_FjUc0WhyBxeUlo=", "properties": {"@source_uri": "https://tools.usps.com/UspsToolsRestServices/rest/POLocator/findLocations", "@spider": "usps_collection_boxes", "addr:city": "ALICE", "addr:country": "US", "addr:postcode": "78332", "addr:state": "TX", "addr:street_address": "401 E 2ND ST", "amenity": "post_box", "brand": "United States Postal Service", "brand:wikidata": "Q668687", "collection_times": "Mo-Fr 17:00; Sa 12:00", "indoor": "yes", "note": "ON 12/24 AND 12/31, THIS BOX MAY BE COLLECTED AS EARLY AS 12 NOON.", "nsi_id": "unitedstatespostalservice-a77078", "operator": "United States Postal Service", "operator:short": "USPS", "operator:type": "public", "operator:wikidata": "Q668687", "ref": "7833200041"}, "type": "Feature"}
{"geometry": {"coordinates": [-97.1429199619, 27.9107500184], "type": "Point"}, "id": "jT_Hi7YJtsV_IZQAyWj5YqjINQE=", "properties": {"@source_uri": "https://tools.usps.com/UspsToolsRestServices/rest/POLocator/findLocations", "@spider": "usps_collection_boxes", "addr:city": "ARANSAS PASS", "addr:country": "US", "addr:postcode": "78336", "addr:state": "TX", "addr:street_address": "235 W CLEVELAND BLVD", "amenity": "post_box", "brand": "United States Postal Service", "brand:wikidata": "Q668687", "collection_times": "Mo-Sa 15:45", "note": "ON 12/24 AND 12/31, THIS BOX MAY BE COLLECTED AS EARLY AS 12 NOON.", "nsi_id": "unitedstatespostalservice-a77078", "operator": "United States Postal Service", "operator:short": "USPS", "operator:type": "public", "operator:wikidata": "Q668687", "ref": "7833600002"}, "type": "Feature"}
{"geometry": {"coordinates": [-97.176729961, 27.922229999], "type": "Point"}, "id": "s5KiFg3ARxMM7_T-TcCH1sNFurk=", "properties": {"@source_uri": "https://tools.usps.com/UspsToolsRestServices/rest/POLocator/findLocations", "@spider": "usps_collection_boxes", "addr:city": "ARANSAS PASS", "addr:country": "US", "addr:postcode": "78336", "addr:state": "TX", "addr:street_address": "2501 W WHEELER AVE", "amenity": "post_box", "brand": "United States Postal Service", "brand:wikidata": "Q668687", "collection_times": "Mo-Sa 12:00", "nsi_id": "unitedstatespostalservice-a77078", "operator": "United States Postal Service", "operator:short": "USPS", "operator:type": "public", "operator:wikidata": "Q668687", "ref": "7833600019"}, "type": "Feature"}
{"geometry": {"coordinates": [-97.148117642, 27.899705866], "type": "Point"}, "id": "IgXmrvp-CYQGKLKhOGa-5hhrE58=", "properties": {"@source_uri": "https://tools.usps.com/UspsToolsRestServices/rest/POLocator/findLocations", "@spider": "usps_collection_boxes", "addr:city": "ARANSAS PASS", "addr:country": "US", "addr:postcode": "78336", "addr:state": "TX", "addr:street_address": "634 S COMMERCIAL ST", "amenity": "post_box", "brand": "United States Postal Service", "brand:wikidata": "Q668687", "collection_times": "Mo-Fr 16:30; Sa 12:00", "indoor": "yes", "note": "ON 12/24 AND 12/31, THIS BOX MAY BE COLLECTED AS EARLY AS 12 NOON.", "nsi_id": "unitedstatespostalservice-a77078", "operator": "United States Postal Service", "operator:short": "USPS", "operator:type": "public", "operator:wikidata": "Q668687", "ref": "7833600022"}, "type": "Feature"}
{"geometry": {"coordinates": [-97.793045491, 27.806469964], "type": "Point"}, "id": "lUCwIhO8S0Ns3FjfG8zPvh34OqQ=", "properties": {"@source_uri": "https://tools.usps.com/UspsToolsRestServices/rest/POLocator/findLocations", "@spider": "usps_collection_boxes", "addr:city": "BANQUETE", "addr:country": "US", "addr:postcode": "78339", "addr:state": "TX", "addr:street_address": "4376 ELIA ST", "amenity": "post_box", "brand": "United States Postal Service", "brand:wikidata": "Q668687", "collection_times": "Mo-Fr 15:00; Sa 10:00", "note": "ON 12/24 AND 12/31, THIS BOX MAY BE COLLECTED AS EARLY AS 12 NOON.", "nsi_id": "unitedstatespostalservice-a77078", "operator": "United States Postal Service", "operator:short": "USPS", "operator:type": "public", "operator:wikidata": "Q668687", "ref": "7833900000"}, "type": "Feature"}
{"geometry": {"coordinates": [-97.793045491, 27.806469964], "type": "Point"}, "id": "VtFtSWqh91LV_4dhZyuVEHW-erw=", "properties": {"@source_uri": "https://tools.usps.com/UspsToolsRestServices/rest/POLocator/findLocations", "@spider": "usps_collection_boxes", "addr:city": "BANQUETE", "addr:country": "US", "addr:postcode": "78339", "addr:state": "TX", "addr:street_address": "4376 ELIA ST", "amenity": "post_box", "brand": "United States Postal Service", "brand:wikidata": "Q668687", "collection_times": "Mo-Fr 15:00; Sa 10:00", "indoor": "yes", "note": "ON 12/24 AND 12/31, THIS BOX MAY BE COLLECTED AS EARLY AS 12 NOON.", "nsi_id": "unitedstatespostalservice-a77078", "operator": "United States Postal Service", "operator:short": "USPS", "operator:type": "public", "operator:wikidata": "Q668687", "ref": "7833900001"}, "type": "Feature"}
{"geometry": {"coordinates": [-97.793045491, 27.806469964], "type": "Point"}, "id": "2ChxWacQ6WiZTgeKO7x82kHPDnM=", "properties": {"@source_uri": "https://tools.usps.com/UspsToolsRestServices/rest/POLocator/findLocations", "@spider": "usps_collection_boxes", "addr:city": "BANQUETE", "addr:country": "US", "addr:postcode": "78339", "addr:state": "TX", "addr:street_address": "4376 ELIA ST", "amenity": "post_box", "brand": "United States Postal Service", "brand:wikidata": "Q668687", "collection_times": "Mo-Fr 15:00; Sa 10:00", "indoor": "yes", "note": "ON 12/24 AND 12/31, THIS BOX MAY BE COLLECTED AS EARLY AS 12 NOON.", "nsi_id": "unitedstatespostalservice-a77078", "operator": "United States Postal Service", "operator:short": "USPS", "operator:type": "public", "operator:wikidata": "Q668687", "ref": "7833900003"}, "type": "Feature"}
{"geometry": {"coordinates": [-97.212331005, 28.097005001], "type": "Point"}, "id": "5qUJyuP_Sol4GAvEB7zeQkg2D00=", "properties": {"@source_uri": "https://tools.usps.com/UspsToolsRestServices/rest/POLocator/findLocations", "@spider": "usps_collection_boxes", "addr:city": "BAYSIDE", "addr:country": "US", "addr:postcode": "78340", "addr:state": "TX", "addr:street_address": "715 THIRD ST", "amenity": "post_box", "brand": "United States Postal Service", "brand:wikidata": "Q668687", "collection_times": "Mo-Sa 10:30", "nsi_id": "unitedstatespostalservice-a77078", "operator": "United States Postal Service", "operator:short": "USPS", "operator:type": "public", "operator:wikidata": "Q668687", "ref": "7834000000"}, "type": "Feature"}
{"geometry": {"coordinates": [-97.212331005, 28.097005001], "type": "Point"}, "id": "mte8JeNoVQeD-Son27L_7AGz15Q=", "properties": {"@source_uri": "https://tools.usps.com/UspsToolsRestServices/rest/POLocator/findLocations", "@spider": "usps_collection_boxes", "addr:city": "BAYSIDE", "addr:country": "US", "addr:postcode": "78340", "addr:state": "TX", "addr:street_address": "715 THIRD ST", "amenity": "post_box", "brand": "United States Postal Service", "brand:wikidata": "Q668687", "collection_times": "Mo-Fr 12:00; Sa 10:30", "indoor": "yes", "nsi_id": "unitedstatespostalservice-a77078", "operator": "United States Postal Service", "operator:short": "USPS", "operator:type": "public", "operator:wikidata": "Q668687", "ref": "7834000003"}, "type": "Feature"}
{"geometry": {"coordinates": [-97.212331005, 28.097005001], "type": "Point"}, "id": "jq99RNJ41oKYuOsLcJABKRSJHLc=", "properties": {"@source_uri": "https://tools.usps.com/UspsToolsRestServices/rest/POLocator/findLocations", "@spider": "usps_collection_boxes", "addr:city": "BAYSIDE", "addr:country": "US", "addr:postcode": "78340", "addr:state": "TX", "addr:street_address": "715 THIRD ST", "amenity": "post_box", "brand": "United States Postal Service", "brand:wikidata": "Q668687", "collection_times": "Mo-Sa 10:30", "indoor": "yes", "nsi_id": "unitedstatespostalservice-a77078", "operator": "United States Postal Service", "operator:short": "USPS", "operator:type": "public", "operator:wikidata": "Q668687", "ref": "7834000004"}, "type": "Feature"}
{"geometry": {"coordinates": [-98.410164983, 27.598428991], "type": "Point"}, "id": "fvqDhIDyotXxPEe9DrH8RHipmqU=", "properties": {"@source_uri": "https://tools.usps.com/UspsToolsRestServices/rest/POLocator/findLocations", "@spider": "usps_collection_boxes", "addr:city": "BENAVIDES", "addr:country": "US", "addr:postcode": "78341", "addr:state": "TX", "addr:street_address": "404 E MAIN", "amenity": "post_box", "brand": "United States Postal Service", "brand:wikidata": "Q668687", "collection_times": "Mo-Fr 16:30; Sa 09:30", "note": "ON 12/24 AND 12/31, THIS BOX MAY BE COLLECTED AS EARLY AS 12 NOON.", "nsi_id": "unitedstatespostalservice-a77078", "operator": "United States Postal Service", "operator:short": "USPS", "operator:type": "public", "operator:wikidata": "Q668687", "ref": "7834100000"}, "type": "Feature"}
{"geometry": {"coordinates": [-98.410164983, 27.598428991], "type": "Point"}, "id": "x1luDzJ1o-CwxshfbLJVcASP5V8=", "properties": {"@source_uri": "https://tools.usps.com/UspsToolsRestServices/rest/POLocator/findLocations", "@spider": "usps_collection_boxes", "addr:city": "BENAVIDES", "addr:country": "US", "addr:postcode": "78341", "addr:state": "TX", "addr:street_address": "404 E MAIN", "amenity": "post_box", "brand": "United States Postal Service", "brand:wikidata": "Q668687", "collection_times": "Mo-Fr 16:30; Sa 09:30", "indoor": "yes", "note": "ON 12/24 AND 12/31, THIS BOX MAY BE COLLECTED AS EARLY AS 12 NOON.", "nsi_id": "unitedstatespostalservice-a77078", "operator": "United States Postal Service", "operator:short": "USPS", "operator:type": "public", "operator:wikidata": "Q668687", "ref": "7834100001"}, "type": "Feature"}
{"geometry": {"coordinates": [-98.410164983, 27.598428991], "type": "Point"}, "id": "gBqTZB3vPNVcHVNXQEJRWmJTpfY=", "properties": {"@source_uri": "https://tools.usps.com/UspsToolsRestServices/rest/POLocator/findLocations", "@spider": "usps_collection_boxes", "addr:city": "BENAVIDES", "addr:country": "US", "addr:postcode": "78341", "addr:state": "TX", "addr:street_address": "404 E MAIN", "amenity": "post_box", "brand": "United States Postal Service", "brand:wikidata": "Q668687", "collection_times": "Mo-Fr 16:30", "indoor": "yes", "note": "ON 12/24 AND 12/31, THIS BOX MAY BE COLLECTED AS EARLY AS 12 NOON.", "nsi_id": "unitedstatespostalservice-a77078", "operator": "United States Postal Service", "operator:short": "USPS", "operator:type": "public", "operator:wikidata": "Q668687", "ref": "7834100003"}, "type": "Feature"}
{"geometry": {"coordinates": [-98.0838470152, 27.6472340048], "type": "Point"}, "id": "J6-81_PQNugeXNiElIxKWCaqpxo=", "properties": {"@source_uri": "https://tools.usps.com/UspsToolsRestServices/rest/POLocator/findLocations", "@spider": "usps_collection_boxes", "addr:city": "BEN BOLT", "addr:country": "US", "addr:postcode": "78342", "addr:state": "TX", "addr:street_address": "114 SALAZAR AVE", "amenity": "post_box", "brand": "United States Postal Service", "brand:wikidata": "Q668687", "collection_times": "Mo-Fr 13:30; Sa 12:30", "note": "ON 12/24 AND 12/31, THIS BOX MAY BE COLLECTED AS EARLY AS 12 NOON.", "nsi_id": "unitedstatespostalservice-a77078", "operator": "United States Postal Service", "operator:short": "USPS", "operator:type": "public", "operator:wikidata": "Q668687", "ref": "7834200001"}, "type": "Feature"}
{"geometry": {"coordinates": [-97.800385326, 27.58374562], "type": "Point"}, "id": "y_Pn1d3I-7wQpaBHzB2g7xwOu_A=", "properties": {"@source_uri": "https://tools.usps.com/UspsToolsRestServices/rest/POLocator/findLocations", "@spider": "usps_collection_boxes", "addr:city": "BISHOP", "addr:country": "US", "addr:postcode": "78343", "addr:state": "TX", "addr:street_address": "201 S ASH AVE", "amenity": "post_box", "brand": "United States Postal Service", "brand:wikidata": "Q668687", "collection_times": "Mo-Fr 16:00; Sa 12:00", "note": "ON 12/24 AND 12/31, THIS BOX MAY BE COLLECTED AS EARLY AS 12 NOON.", "nsi_id": "unitedstatespostalservice-a77078", "operator": "United States Postal Service", "operator:short": "USPS", "operator:type": "public", "operator:wikidata": "Q668687", "ref": "7834300000"}, "type": "Feature"}
{"geometry": {"coordinates": [-97.800385326, 27.58374562], "type": "Point"}, "id": "p1crwwD6Vzqy0FCvpINmzbSd-9c=", "properties": {"@source_uri": "https://tools.usps.com/UspsToolsRestServices/rest/POLocator/findLocations", "@spider": "usps_collection_boxes", "addr:city": "BISHOP", "addr:country": "US", "addr:postcode": "78343", "addr:state": "TX", "addr:street_address": "201 S ASH AVE", "amenity": "post_box", "brand": "United States Postal Service", "brand:wikidata": "Q668687", "collection_times": "Mo-Fr 16:00; Sa 12:00", "indoor": "yes", "note": "ON 12/24 AND 12/31, THIS BOX MAY BE COLLECTED AS EARLY AS 12 NOON.", "nsi_id": "unitedstatespostalservice-a77078", "operator": "United States Postal Service", "operator:short": "USPS", "operator:type": "public", "operator:wikidata": "Q668687", "ref": "7834300002"}, "type": "Feature"}
{"geometry": {"coordinates": [-97.800385326, 27.58374562], "type": "Point"}, "id": "_OSZAxnHunzV2MQ0GGERxoQ__OM=", "properties": {"@source_uri": "https://tools.usps.com/UspsToolsRestServices/rest/POLocator/findLocations", "@spider": "usps_collection_boxes", "addr:city": "BISHOP", "addr:country": "US", "addr:postcode": "78343", "addr:state": "TX", "addr:street_address": "201 S ASH AVE", "amenity": "post_box", "brand": "United States Postal Service", "brand:wikidata": "Q668687", "collection_times": "Mo-Fr 16:00", "indoor": "yes", "note": "ON 12/24 AND 12/31, THIS BOX MAY BE COLLECTED AS EARLY AS 12 NOON.", "nsi_id": "unitedstatespostalservice-a77078", "operator": "United States Postal Service", "operator:short": "USPS", "operator:type": "public", "operator:wikidata": "Q668687", "ref": "7834300005"}, "type": "Feature"}
{"geometry": {"coordinates": [-98.840172039, 27.425588992], "type": "Point"}, "id": "eWZygnZPh-X4ieJj8Hs7Z6PBGdU=", "properties": {"@source_uri": "https://tools.usps.com/UspsToolsRestServices/rest/POLocator/findLocations", "@spider": "usps_collection_boxes", "addr:city": "BRUNI", "addr:country": "US", "addr:postcode": "78344", "addr:state": "TX", "addr:street_address": "204 E 3RD ST", "amenity": "post_box", "brand": "United States Postal Service", "brand:wikidata": "Q668687", "collection_times": "Mo-Fr 13:00; Sa 09:30", "note": "ON 12/24 AND 12/31, THIS BOX MAY BE COLLECTED AS EARLY AS 12 NOON.", "nsi_id": "unitedstatespostalservice-a77078", "operator": "United States Postal Service", "operator:short": "USPS", "operator:type": "public", "operator:wikidata": "Q668687", "ref": "7834400001"}, "type": "Feature"}
{"geometry": {"coordinates": [-98.840172039, 27.425588992], "type": "Point"}, "id": "4_nIcKTIdIqtf2OyGGWvtyCffu0=", "properties": {"@source_uri": "https://tools.usps.com/UspsToolsRestServices/rest/POLocator/findLocations", "@spider": "usps_collection_boxes", "addr:city": "BRUNI", "addr:country": "US", "addr:postcode": "78344", "addr:state": "TX", "addr:street_address": "204 E 3RD ST", "amenity": "post_box", "brand": "United States Postal Service", "brand:wikidata": "Q668687", "collection_times": "Mo-Fr 13:00; Sa 10:00", "indoor": "yes", "note": "ON 12/24 AND 12/31, THIS BOX MAY BE COLLECTED AS EARLY AS 12 NOON.", "nsi_id": "unitedstatespostalservice-a77078", "operator": "United States Postal Service", "operator:short": "USPS", "operator:type": "public", "operator:wikidata": "Q668687", "ref": "7834400002"}, "type": "Feature"}
{"geometry": {"coordinates": [-98.840172039, 27.425588992], "type": "Point"}, "id": "TWXgsSbDz73rhy5lu3Dxidei_zU=", "properties": {"@source_uri": "https://tools.usps.com/UspsToolsRestServices/rest/POLocator/findLocations", "@spider": "usps_collection_boxes", "addr:city": "BRUNI", "addr:country": "US", "addr:postcode": "78344", "addr:state": "TX", "addr:street_address": "204 E 3RD ST", "amenity": "post_box", "brand": "United States Postal Service", "brand:wikidata": "Q668687", "collection_times": "Mo-Fr 13:00; Sa 10:00", "indoor": "yes", "note": "ON 12/24 AND 12/31, THIS BOX MAY BE COLLECTED AS EARLY AS 12 NOON.", "nsi_id": "unitedstatespostalservice-a77078", "operator": "United States Postal Service", "operator:short": "USPS", "operator:type": "public", "operator:wikidata": "Q668687", "ref": "7834400004"}, "type": "Feature"}
{"geometry": {"coordinates": [-98.352866964, 27.395336985], "type": "Point"}, "id": "_mo9HpvZtzX89KG4rQj047Mzx_I=", "properties": {"@source_uri": "https://tools.usps.com/UspsToolsRestServices/rest/POLocator/findLocations", "@spider": "usps_collection_boxes", "addr:city": "CONCEPCION", "addr:country": "US", "addr:postcode": "78349", "addr:state": "TX", "addr:street_address": "2239 FM 716", "amenity": "post_box", "brand": "United States Postal Service", "brand:wikidata": "Q668687", "collection_times": "Mo-Sa 10:30", "nsi_id": "unitedstatespostalservice-a77078", "operator": "United States Postal Service", "operator:short": "USPS", "operator:type": "public", "operator:wikidata": "Q668687", "ref": "7834900000"}, "type": "Feature"}
{"geometry": {"coordinates": [-98.352866964, 27.395336985], "type": "Point"}, "id": "NEsfMn8zhAuMWTra5T5hjfA0ngM=", "properties": {"@source_uri": "https://tools.usps.com/UspsToolsRestServices/rest/POLocator/findLocations", "@spider": "usps_collection_boxes", "addr:city": "CONCEPCION", "addr:country": "US", "addr:postcode": "78349", "addr:state": "TX", "addr:street_address": "2239 FM 716", "amenity": "post_box", "brand": "United States Postal Service", "brand:wikidata": "Q668687", "collection_times": "Mo-Sa 10:30", "indoor": "yes", "nsi_id": "unitedstatespostalservice-a77078", "operator": "United States Postal Service", "operator:short": "USPS", "operator:type": "public", "operator:wikidata": "Q668687", "ref": "7834900001"}, "type": "Feature"}
{"geometry": {"coordinates": [-98.352866964, 27.395336985], "type": "Point"}, "id": "x4CciAlbQmm1FnRKsvQ4ppcNK50=", "properties": {"@source_uri": "https://tools.usps.com/UspsToolsRestServices/rest/POLocator/findLocations", "@spider": "usps_collection_boxes", "addr:city": "CONCEPCION", "addr:country": "US", "addr:postcode": "78349", "addr:state": "TX", "addr:street_address": "2239 FM 716", "amenity": "post_box", "brand": "United States Postal Service", "brand:wikidata": "Q668687", "collection_times": "Mo-Sa 10:30", "indoor": "yes", "nsi_id": "unitedstatespostalservice-a77078", "operator": "United States Postal Service", "operator:short": "USPS", "operator:type": "public", "operator:wikidata": "Q668687", "ref": "7834900002"}, "type": "Feature"}
{"geometry": {"coordinates": [-97.751804622, 27.672268867], "type": "Point"}, "id": "IKxM6ydb3VusGTGHrHosUNdlh5k=", "properties": {"@source_uri": "https://tools.usps.com/UspsToolsRestServices/rest/POLocator/findLocations", "@spider": "usps_collection_boxes", "addr:city": "DRISCOLL", "addr:country": "US", "addr:postcode": "78351", "addr:state": "TX", "addr:street_address": "201 W MAIN", "amenity": "post_box", "brand": "United States Postal Service", "brand:wikidata": "Q668687", "collection_times": "Mo-Fr 11:30; Sa 09:45", "indoor": "yes", "nsi_id": "unitedstatespostalservice-a77078", "operator": "United States Postal Service", "operator:short": "USPS", "operator:type": "public", "operator:wikidata": "Q668687", "ref": "7835100000"}, "type": "Feature"}
{"geometry": {"coordinates": [-97.751804622, 27.672268867], "type": "Point"}, "id": "Px_JTUhJy-Vnk8QfBTrN3GVmNFo=", "properties": {"@source_uri": "https://tools.usps.com/UspsToolsRestServices/rest/POLocator/findLocations", "@spider": "usps_collection_boxes", "addr:city": "DRISCOLL", "addr:country": "US", "addr:postcode": "78351", "addr:state": "TX", "addr:street_address": "201 W MAIN", "amenity": "post_box", "brand": "United States Postal Service", "brand:wikidata": "Q668687", "collection_times": "Mo-Fr 11:45; Sa 10:00", "nsi_id": "unitedstatespostalservice-a77078", "operator": "United States Postal Service", "operator:short": "USPS", "operator:type": "public", "operator:wikidata": "Q668687", "ref": "7835100001"}, "type": "Feature"}
{"geometry": {"coordinates": [-97.751804622, 27.672268867], "type": "Point"}, "id": "Z9ApTnYtKqozgq3wt5FmNzVKQUY=", "properties": {"@source_uri": "https://tools.usps.com/UspsToolsRestServices/rest/POLocator/findLocations", "@spider": "usps_collection_boxes", "addr:city": "DRISCOLL", "addr:country": "US", "addr:postcode": "78351", "addr:state": "TX", "addr:street_address": "201 W MAIN", "amenity": "post_box", "brand": "United States Postal Service", "brand:wikidata": "Q668687", "collection_times": "Mo-Fr 12:00; Sa 10:00", "indoor": "yes", "nsi_id": "unitedstatespostalservice-a77078", "operator": "United States Postal Service", "operator:short": "USPS", "operator:type": "public", "operator:wikidata": "Q668687", "ref": "7835100003"}, "type": "Feature"}
{"geometry": {"coordinates": [-97.675844893, 27.97365373], "type": "Point"}, "id": "8vMpmExeUmi91WpV5ol6jt5Q0s4=", "properties": {"@source_uri": "https://tools.usps.com/UspsToolsRestServices/rest/POLocator/findLocations", "@spider": "usps_collection_boxes", "addr:city": "EDROY", "addr:country": "US", "addr:postcode": "78352", "addr:state": "TX", "addr:street_address": "17916 HIGHWAY 234", "amenity": "post_box", "brand": "United States Postal Service", "brand:wikidata": "Q668687", "collection_times": "Mo-Fr 12:00; Sa 09:00", "nsi_id": "unitedstatespostalservice-a77078", "operator": "United States Postal Service", "operator:short": "USPS", "operator:type": "public", "operator:wikidata": "Q668687", "ref": "7835200000"}, "type": "Feature"}
{"geometry": {"coordinates": [-97.675844893, 27.97365373], "type": "Point"}, "id": "O57RBWS2eZXQ1LL67pVeDP_QyUA=", "properties": {"@source_uri": "https://tools.usps.com/UspsToolsRestServices/rest/POLocator/findLocations", "@spider": "usps_collection_boxes", "addr:city": "EDROY", "addr:country": "US", "addr:postcode": "78352", "addr:state": "TX", "addr:street_address": "17916 HIGHWAY 234", "amenity": "post_box", "brand": "United States Postal Service", "brand:wikidata": "Q668687", "collection_times": "Mo-Fr 12:00; Sa 09:00", "indoor": "yes", "nsi_id": "unitedstatespostalservice-a77078", "operator": "United States Postal Service", "operator:short": "USPS", "operator:type": "public", "operator:wikidata": "Q668687", "ref": "7835200001"}, "type": "Feature"}
{"geometry": {"coordinates": [-97.675844893, 27.97365373], "type": "Point"}, "id": "Rghv3xl3eSyKiHwh7DQvrgRXMx0=", "properties": {"@source_uri": "https://tools.usps.com/UspsToolsRestServices/rest/POLocator/findLocations", "@spider": "usps_collection_boxes", "addr:city": "EDROY", "addr:country": "US", "addr:postcode": "78352", "addr:state": "TX", "addr:street_address": "17916 HIGHWAY 234", "amenity": "post_box", "brand": "United States Postal Service", "brand:wikidata": "Q668687", "collection_times": "Mo-Fr 12:00; Sa 09:00", "indoor": "yes", "nsi_id": "unitedstatespostalservice-a77078", "operator": "United States Postal Service", "operator:short": "USPS", "operator:type": "public", "operator:wikidata": "Q668687", "ref": "7835200002"}, "type": "Feature"}
{"geometry": {"coordinates": [-98.134972598, 26.937752221], "type": "Point"}, "id": "fy4B9KCmAlB0AB98e4zgvuX68ro=", "properties": {"@source_uri": "https://tools.usps.com/UspsToolsRestServices/rest/POLocator/findLocations", "@spider": "usps_collection_boxes", "addr:city": "ENCINO", "addr:country": "US", "addr:postcode": "78353", "addr:state": "TX", "addr:street_address": "291 S BUSINESS HIGHWAY 281", "amenity": "post_box", "brand": "United States Postal Service", "brand:wikidata": "Q668687", "collection_times": "Mo-Fr 11:45; Sa 09:45", "nsi_id": "unitedstatespostalservice-a77078", "operator": "United States Postal Service", "operator:short": "USPS", "operator:type": "public", "operator:wikidata": "Q668687", "ref": "7835300000"}, "type": "Feature"}
{"geometry": {"coordinates": [-98.134972598, 26.937752221], "type": "Point"}, "id": "_YuGSq_dMbTvdRI9foPJuGfMUdg=", "properties": {"@source_uri": "https://tools.usps.com/UspsToolsRestServices/rest/POLocator/findLocations", "@spider": "usps_collection_boxes", "addr:city": "ENCINO", "addr:country": "US", "addr:postcode": "78353", "addr:state": "TX", "addr:street_address": "291 S BUSINESS HIGHWAY 281", "amenity": "post_box", "brand": "United States Postal Service", "brand:wikidata": "Q668687", "collection_times": "Mo-Fr 11:45; Sa 09:45", "indoor": "yes", "nsi_id": "unitedstatespostalservice-a77078", "operator": "United States Postal Service", "operator:short": "USPS", "operator:type": "public", "operator:wikidata": "Q668687", "ref": "7835300001"}, "type": "Feature"}
{"geometry": {"coordinates": [-98.134972598, 26.937752221], "type": "Point"}, "id": "29M2efmqjIgqfEkfkraS8Xu5xII=", "properties": {"@source_uri": "https://tools.usps.com/UspsToolsRestServices/rest/POLocator/findLocations", "@spider": "usps_collection_boxes", "addr:city": "ENCINO", "addr:country": "US", "addr:postcode": "78353", "addr:state": "TX", "addr:street_address": "291 S BUSINESS HIGHWAY 281", "amenity": "post_box", "brand": "United States Postal Service", "brand:wikidata": "Q668687", "collection_times": "Mo-Fr 12:00; Sa 09:30", "indoor": "yes", "nsi_id": "unitedstatespostalservice-a77078", "operator": "United States Postal Service", "operator:short": "USPS", "operator:type": "public", "operator:wikidata": "Q668687", "ref": "7835300003"}, "type": "Feature"}
{"geometry": {"coordinates": [-98.14200703, 27.227435981], "type": "Point"}, "id": "1efau-KvqTd13jHqSiibpyckOXU=", "properties": {"@source_uri": "https://tools.usps.com/UspsToolsRestServices/rest/POLocator/findLocations", "@spider": "usps_collection_boxes", "addr:city": "FALFURRIAS", "addr:country": "US", "addr:postcode": "78355", "addr:state": "TX", "addr:street_address": "218 E CHAPOTE ST", "amenity": "post_box", "brand": "United States Postal Service", "brand:wikidata": "Q668687", "collection_times": "Mo-Fr 16:15; Sa 10:30", "note": "ON 12/24 AND 12/31, THIS BOX MAY BE COLLECTED AS EARLY AS 12 NOON.", "nsi_id": "unitedstatespostalservice-a77078", "operator": "United States Postal Service", "operator:short": "USPS", "operator:type": "public", "operator:wikidata": "Q668687", "ref": "7835500001"}, "type": "Feature"}
{"geometry": {"coordinates": [-98.14200703, 27.227435981], "type": "Point"}, "id": "oSpLLiwfgVVsgmyY65D2J-7pg40=", "properties": {"@source_uri": "https://tools.usps.com/UspsToolsRestServices/rest/POLocator/findLocations", "@spider": "usps_collection_boxes", "addr:city": "FALFURRIAS", "addr:country": "US", "addr:postcode": "78355", "addr:state": "TX", "addr:street_address": "218 E CHAPOTE ST", "amenity": "post_box", "brand": "United States Postal Service", "brand:wikidata": "Q668687", "collection_times": "Mo-Fr 16:15; Sa 10:30", "indoor": "yes", "note": "ON 12/24 AND 12/31, THIS BOX MAY BE COLLECTED AS EARLY AS 12 NOON.", "nsi_id": "unitedstatespostalservice-a77078", "operator": "United States Postal Service", "operator:short": "USPS", "operator:type": "public", "operator:wikidata": "Q668687", "ref": "7835500005"}, "type": "Feature"}
{"geometry": {"coordinates": [-98.14200703, 27.227435981], "type": "Point"}, "id": "75l6R6wLT2-SywRLNUO6PEZDX4U=", "properties": {"@source_uri": "https://tools.usps.com/UspsToolsRestServices/rest/POLocator/findLocations", "@spider": "usps_collection_boxes", "addr:city": "FALFURRIAS", "addr:country": "US", "addr:postcode": "78355", "addr:state": "TX", "addr:street_address": "218 E CHAPOTE ST", "amenity": "post_box", "brand": "United States Postal Service", "brand:wikidata": "Q668687", "collection_times": "Mo-Fr 16:15; Sa 10:30", "indoor": "yes", "note": "ON 12/24 AND 12/31, THIS BOX MAY BE COLLECTED AS EARLY AS 12 NOON.", "nsi_id": "unitedstatespostalservice-a77078", "operator": "United States Postal Service", "operator:short": "USPS", "operator:type": "public", "operator:wikidata": "Q668687", "ref": "7835500006"}, "type": "Feature"}
{"geometry": {"coordinates": [-98.14200703, 27.227435981], "type": "Point"}, "id": "YGLihpIBczSDDuOAKb2ZYq4cGX4=", "properties": {"@source_uri": "https://tools.usps.com/UspsToolsRestServices/rest/POLocator/findLocations", "@spider": "usps_collection_boxes", "addr:city": "FALFURRIAS", "addr:country": "US", "addr:postcode": "78355", "addr:state": "TX", "addr:street_address": "218 E CHAPOTE ST", "amenity": "post_box", "brand": "United States Postal Service", "brand:wikidata": "Q668687", "collection_times": "Mo-Fr 16:30; Sa 10:30", "indoor": "yes", "note": "ON 12/24 AND 12/31, THIS BOX MAY BE COLLECTED AS EARLY AS 12 NOON.", "nsi_id": "unitedstatespostalservice-a77078", "operator": "United States Postal Service", "operator:short": "USPS", "operator:type": "public", "operator:wikidata": "Q668687", "ref": "7835500008"}, "type": "Feature"}
{"geometry": {"coordinates": [-98.615477019, 27.880138009], "type": "Point"}, "id": "HPK4tYIhfgstkVtotqzCvEUmJIw=", "properties": {"@source_uri": "https://tools.usps.com/UspsToolsRestServices/rest/POLocator/findLocations", "@spider": "usps_collection_boxes", "addr:city": "FREER", "addr:country": "US", "addr:postcode": "78357", "addr:state": "TX", "addr:street_address": "320 S MAIN ST", "amenity": "post_box", "brand": "United States Postal Service", "brand:wikidata": "Q668687", "collection_times": "Mo-Fr 16:30; Sa 11:00", "note": "ON 12/24 AND 12/31, THIS BOX MAY BE COLLECTED AS EARLY AS 12 NOON.", "nsi_id": "unitedstatespostalservice-a77078", "operator": "United States Postal Service", "operator:short": "USPS", "operator:type": "public", "operator:wikidata": "Q668687", "ref": "7835700000"}, "type": "Feature"}
{"geometry": {"coordinates": [-98.615477019, 27.880138009], "type": "Point"}, "id": "Ha1Xupo72xsmn5_aWzGOdxE5xKw=", "properties": {"@source_uri": "https://tools.usps.com/UspsToolsRestServices/rest/POLocator/findLocations", "@spider": "usps_collection_boxes", "addr:city": "FREER", "addr:country": "US", "addr:postcode": "78357", "addr:state": "TX", "addr:street_address": "320 S MAIN ST", "amenity": "post_box", "brand": "United States Postal Service", "brand:wikidata": "Q668687", "collection_times": "Mo-Fr 16:30", "indoor": "yes", "note": "ON 12/24 AND 12/31, THIS BOX MAY BE COLLECTED AS EARLY AS 12 NOON.", "nsi_id": "unitedstatespostalservice-a77078", "operator": "United States Postal Service", "operator:short": "USPS", "operator:type": "public", "operator:wikidata": "Q668687", "ref": "7835700004"}, "type": "Feature"}
{"geometry": {"coordinates": [-98.615477019, 27.880138009], "type": "Point"}, "id": "6NVtBr6ZVVAw9ibbk45EYQkJX-g=", "properties": {"@source_uri": "https://tools.usps.com/UspsToolsRestServices/rest/POLocator/findLocations", "@spider": "usps_collection_boxes", "addr:city": "FREER", "addr:country": "US", "addr:postcode": "78357", "addr:state": "TX", "addr:street_address": "320 S MAIN ST", "amenity": "post_box", "brand": "United States Postal Service", "brand:wikidata": "Q668687", "collection_times": "Mo-Fr 16:30", "indoor": "yes", "note": "ON 12/24 AND 12/31, THIS BOX MAY BE COLLECTED AS EARLY AS 12 NOON.", "nsi_id": "unitedstatespostalservice-a77078", "operator": "United States Postal Service", "operator:short": "USPS", "operator:type": "public", "operator:wikidata": "Q668687", "ref": "7835700005"}, "type": "Feature"}
{"geometry": {"coordinates": [-97.03671798, 28.063117009], "type": "Point"}, "id": "5ES-CxUka5O02M9nbl5zZEUqIKI=", "properties": {"@source_uri": "https://tools.usps.com/UspsToolsRestServices/rest/POLocator/findLocations", "@spider": "usps_collection_boxes", "addr:city": "FULTON", "addr:country": "US", "addr:postcode": "78358", "addr:state": "TX", "addr:street_address": "301 CACTUS ST", "amenity": "post_box", "brand": "United States Postal Service", "brand:wikidata": "Q668687", "collection_times": "Mo-Fr 16:30; Sa 10:00", "note": "ON 12/24 AND 12/31, THIS BOX MAY BE COLLECTED AS EARLY AS 12 NOON.", "nsi_id": "unitedstatespostalservice-a77078", "operator": "United States Postal Service", "operator:short": "USPS", "operator:type": "public", "operator:wikidata": "Q668687", "ref": "7835800002"}, "type": "Feature"}
{"geometry": {"coordinates": [-97.03671798, 28.063117009], "type": "Point"}, "id": "VCIcBbcBnHzA9XOVNUqazZPU3y4=", "properties": {"@source_uri": "https://tools.usps.com/UspsToolsRestServices/rest/POLocator/findLocations", "@spider": "usps_collection_boxes", "addr:city": "FULTON", "addr:country": "US", "addr:postcode": "78358", "addr:state": "TX", "addr:street_address": "301 CACTUS ST", "amenity": "post_box", "brand": "United States Postal Service", "brand:wikidata": "Q668687", "collection_times": "Mo-Fr 16:30; Sa 10:00", "indoor": "yes", "note": "ON 12/24 AND 12/31, THIS BOX MAY BE COLLECTED AS EARLY AS 12 NOON.", "nsi_id": "unitedstatespostalservice-a77078", "operator": "United States Postal Service", "operator:short": "USPS", "operator:type": "public", "operator:wikidata": "Q668687", "ref": "7835800004"}, "type": "Feature"}
{"geometry": {"coordinates": [-97.03671798, 28.063117009], "type": "Point"}, "id": "vqM1MAZFiMQnHhIphegS6trJ-MU=", "properties": {"@source_uri": "https://tools.usps.com/UspsToolsRestServices/rest/POLocator/findLocations", "@spider": "usps_collection_boxes", "addr:city": "FULTON", "addr:country": "US", "addr:postcode": "78358", "addr:state": "TX", "addr:street_address": "301 CACTUS ST", "amenity": "post_box", "brand": "United States Postal Service", "brand:wikidata": "Q668687", "collection_times": "Mo-Fr 16:30; Sa 10:00", "indoor": "yes", "note": "ON 12/24 AND 12/31, THIS BOX MAY BE COLLECTED AS EARLY AS 12 NOON.", "nsi_id": "unitedstatespostalservice-a77078", "operator": "United States Postal Service", "operator:short": "USPS", "operator:type": "public", "operator:wikidata": "Q668687", "ref": "7835800005"}, "type": "Feature"}
{"geometry": {"coordinates": [-97.290341965, 27.922557019], "type": "Point"}, "id": "1xAWlKzJWB1Ar_UbJQVDb4QhOX0=", "properties": {"@source_uri": "https://tools.usps.com/UspsToolsRestServices/rest/POLocator/findLocations", "@spider": "usps_collection_boxes", "addr:city": "GREGORY", "addr:country": "US", "addr:postcode": "78359", "addr:state": "TX", "addr:street_address": "102 W 4TH ST", "amenity": "post_box", "brand": "United States Postal Service", "brand:wikidata": "Q668687", "collection_times": "Mo-Fr 16:30; Sa 10:30", "note": "ON 12/24 AND 12/31, THIS BOX MAY BE COLLECTED AS EARLY AS 12 NOON.", "nsi_id": "unitedstatespostalservice-a77078", "operator": "United States Postal Service", "operator:short": "USPS", "operator:type": "public", "operator:wikidata": "Q668687", "ref": "7835900000"}, "type": "Feature"}
{"geometry": {"coordinates": [-97.290341965, 27.922557019], "type": "Point"}, "id": "Y5eZLV2UZYdDdGZYcrkjY97MIts=", "properties": {"@source_uri": "https://tools.usps.com/UspsToolsRestServices/rest/POLocator/findLocations", "@spider": "usps_collection_boxes", "addr:city": "GREGORY", "addr:country": "US", "addr:postcode": "78359", "addr:state": "TX", "addr:street_address": "102 W 4TH ST", "amenity": "post_box", "brand": "United States Postal Service", "brand:wikidata": "Q668687", "collection_times": "Mo-Fr 16:30; Sa 10:30", "indoor": "yes", "note": "ON 12/24 AND 12/31, THIS BOX MAY BE COLLECTED AS EARLY AS 12 NOON.", "nsi_id": "unitedstatespostalservice-a77078", "operator": "United States Postal Service", "operator:short": "USPS", "operator:type": "public", "operator:wikidata": "Q668687", "ref": "7835900002"}, "type": "Feature"}
{"geometry": {"coordinates": [-97.290341965, 27.922557019], "type": "Point"}, "id": "F-jgj-a-s0jmwdJzMsjfIRnosTA=", "properties": {"@source_uri": "https://tools.usps.com/UspsToolsRestServices/rest/POLocator/findLocations", "@spider": "usps_collection_boxes", "addr:city": "GREGORY", "addr:country": "US", "addr:postcode": "78359", "addr:state": "TX", "addr:street_address": "102 W 4TH ST", "amenity": "post_box", "brand": "United States Postal Service", "brand:wikidata": "Q668687", "collection_times": "Mo-Fr 16:30; Sa 10:30", "indoor": "yes", "note": "ON 12/24 AND 12/31, THIS BOX MAY BE COLLECTED AS EARLY AS 12 NOON.", "nsi_id": "unitedstatespostalservice-a77078", "operator": "United States Postal Service", "operator:short": "USPS", "operator:type": "public", "operator:wikidata": "Q668687", "ref": "7835900005"}, "type": "Feature"}
{"geometry": {"coordinates": [-98.678068772, 27.310679383], "type": "Point"}, "id": "ywE_HdQPLqYkrxR9l7r--9yAt-c=", "properties": {"@source_uri": "https://tools.usps.com/UspsToolsRestServices/rest/POLocator/findLocations", "@spider": "usps_collection_boxes", "addr:city": "HEBBRONVILLE", "addr:country": "US", "addr:postcode": "78361", "addr:state": "TX", "addr:street_address": "502 N SMITH AVE", "amenity": "post_box", "brand": "United States Postal Service", "brand:wikidata": "Q668687", "collection_times": "Mo-Fr 16:15; Sa 11:00", "note": "ON 12/24 AND 12/31, THIS BOX MAY BE COLLECTED AS EARLY AS 12 NOON.", "nsi_id": "unitedstatespostalservice-a77078", "operator": "United States Postal Service", "operator:short": "USPS", "operator:type": "public", "operator:wikidata": "Q668687", "ref": "7836100000"}, "type": "Feature"}
{"geometry": {"coordinates": [-98.678068772, 27.310679383], "type": "Point"}, "id": "E9CNSaeR2I2UF2BfvY6NpNGtz7A=", "properties": {"@source_uri": "https://tools.usps.com/UspsToolsRestServices/rest/POLocator/findLocations", "@spider": "usps_collection_boxes", "addr:city": "HEBBRONVILLE", "addr:country": "US", "addr:postcode": "78361", "addr:state": "TX", "addr:street_address": "502 N SMITH AVE", "amenity": "post_box", "brand": "United States Postal Service", "brand:wikidata": "Q668687", "collection_times": "Mo-Fr 16:15; Sa 11:00", "note": "ON 12/24 AND 12/31, THIS BOX MAY BE COLLECTED AS EARLY AS 12 NOON.", "nsi_id": "unitedstatespostalservice-a77078", "operator": "United States Postal Service", "operator:short": "USPS", "operator:type": "public", "operator:wikidata": "Q668687", "ref": "7836100002"}, "type": "Feature"}
{"geometry": {"coordinates": [-98.678068772, 27.310679383], "type": "Point"}, "id": "QBL_Iynw8Nm3KlRiaJYqU6BkJhk=", "properties": {"@source_uri": "https://tools.usps.com/UspsToolsRestServices/rest/POLocator/findLocations", "@spider": "usps_collection_boxes", "addr:city": "HEBBRONVILLE", "addr:country": "US", "addr:postcode": "78361", "addr:state": "TX", "addr:street_address": "502 N SMITH AVE", "amenity": "post_box", "brand": "United States Postal Service", "brand:wikidata": "Q668687", "collection_times": "Mo-Fr 16:15; Sa 11:00", "indoor": "yes", "note": "ON 12/24 AND 12/31, THIS BOX MAY BE COLLECTED AS EARLY AS 12 NOON.", "nsi_id": "unitedstatespostalservice-a77078", "operator": "United States Postal Service", "operator:short": "USPS", "operator:type": "public", "operator:wikidata": "Q668687", "ref": "7836100004"}, "type": "Feature"}
{"geometry": {"coordinates": [-98.678068772, 27.310679383], "type": "Point"}, "id": "GwXo8sC1TfyIf5HTJzUmQNbXTho=", "properties": {"@source_uri": "https://tools.usps.com/UspsToolsRestServices/rest/POLocator/findLocations", "@spider": "usps_collection_boxes", "addr:city": "HEBBRONVILLE", "addr:country": "US", "addr:postcode": "78361", "addr:state": "TX", "addr:street_address": "502 N SMITH AVE", "amenity": "post_box", "brand": "United States Postal Service", "brand:wikidata": "Q668687", "collection_times": "Mo-Fr 16:15; Sa 11:00", "indoor": "yes", "note": "ON 12/24 AND 12/31, THIS BOX MAY BE COLLECTED AS EARLY AS 12 NOON.", "nsi_id": "unitedstatespostalservice-a77078", "operator": "United States Postal Service", "operator:short": "USPS", "operator:type": "public", "operator:wikidata": "Q668687", "ref": "7836100006"}, "type": "Feature"}
{"geometry": {"coordinates": [-97.200448987, 27.878064997], "type": "Point"}, "id": "6ORn11JXwcU72F8wcI0AxdtybzY=", "properties": {"@source_uri": "https://tools.usps.com/UspsToolsRestServices/rest/POLocator/findLocations", "@spider": "usps_collection_boxes", "addr:city": "INGLESIDE", "addr:country": "US", "addr:postcode": "78362", "addr:state": "TX", "addr:street_address": "2230 STATE HIGHWAY 361", "amenity": "post_box", "brand": "United States Postal Service", "brand:wikidata": "Q668687", "collection_times": "Mo-Fr 16:15; Sa 12:00", "note": "ON 12/24 AND 12/31, THIS BOX MAY BE COLLECTED AS EARLY AS 12 NOON.", "nsi_id": "unitedstatespostalservice-a77078", "operator": "United States Postal Service", "operator:short": "USPS", "operator:type": "public", "operator:wikidata": "Q668687", "ref": "7836200002"}, "type": "Feature"}
{"geometry": {"coordinates": [-97.200448987, 27.878064997], "type": "Point"}, "id": "nuyxIY9NJ0hJmkwbpEZHV1rKIiA=", "properties": {"@source_uri": "https://tools.usps.com/UspsToolsRestServices/rest/POLocator/findLocations", "@spider": "usps_collection_boxes", "addr:city": "INGLESIDE", "addr:country": "US", "addr:postcode": "78362", "addr:state": "TX", "addr:street_address": "2230 STATE HIGHWAY 361", "amenity": "post_box", "brand": "United States Postal Service", "brand:wikidata": "Q668687", "collection_times": "Mo-Fr 16:15; Sa 12:00", "indoor": "yes", "note": "ON 12/24 AND 12/31, THIS BOX MAY BE COLLECTED AS EARLY AS 12 NOON.", "nsi_id": "unitedstatespostalservice-a77078", "operator": "United States Postal Service", "operator:short": "USPS", "operator:type": "public", "operator:wikidata": "Q668687", "ref": "7836200003"}, "type": "Feature"}
{"geometry": {"coordinates": [-97.200448987, 27.878064997], "type": "Point"}, "id": "NvscjVxhRDIPf650yMtSs0QtxEw=", "properties": {"@source_uri": "https://tools.usps.com/UspsToolsRestServices/rest/POLocator/findLocations", "@spider": "usps_collection_boxes", "addr:city": "INGLESIDE", "addr:country": "US", "addr:postcode": "78362", "addr:state": "TX", "addr:street_address": "2230 STATE HIGHWAY 361", "amenity": "post_box", "brand": "United States Postal Service", "brand:wikidata": "Q668687", "collection_times": "Mo-Fr 16:30; Sa 12:00", "indoor": "yes", "note": "ON 12/24 AND 12/31, THIS BOX MAY BE COLLECTED AS EARLY AS 12 NOON.", "nsi_id": "unitedstatespostalservice-a77078", "operator": "United States Postal Service", "operator:short": "USPS", "operator:type": "public", "operator:wikidata": "Q668687", "ref": "7836200007"}, "type": "Feature"}
{"geometry": {"coordinates": [-97.8507700087, 27.4901799799], "type": "Point"}, "id": "X0BkQ9G_drBHOPXKYk28Fh5PHsE=", "properties": {"@source_uri": "https://tools.usps.com/UspsToolsRestServices/rest/POLocator/findLocations", "@spider": "usps_collection_boxes", "addr:city": "KINGSVILLE", "addr:country": "US", "addr:postcode": "78363", "addr:state": "TX", "addr:street_address": "1311 GENERAL CAVAZOS BLVD", "amenity": "post_box", "brand": "United States Postal Service", "brand:wikidata": "Q668687", "collection_times": "Mo-Sa 11:30", "nsi_id": "unitedstatespostalservice-a77078", "operator": "United States Postal Service", "operator:short": "USPS", "operator:type": "public", "operator:wikidata": "Q668687", "ref": "7836300000"}, "type": "Feature"}
{"geometry": {"coordinates": [-97.867978978, 27.516289986], "type": "Point"}, "id": "7QkmWbtpzYQRGh5I8TgX0xRR74Y=", "properties": {"@source_uri": "https://tools.usps.com/UspsToolsRestServices/rest/POLocator/findLocations", "@spider": "usps_collection_boxes", "addr:city": "KINGSVILLE", "addr:country": "US", "addr:postcode": "78363", "addr:state": "TX", "addr:street_address": "103 E KLEBERG AVE", "amenity": "post_box", "brand": "United States Postal Service", "brand:wikidata": "Q668687", "collection_times": "Mo-Fr 17:00; Sa 15:00", "note": "ON 12/24 AND 12/31, THIS BOX MAY BE COLLECTED AS EARLY AS 12 NOON.", "nsi_id": "unitedstatespostalservice-a77078", "operator": "United States Postal Service", "operator:short": "USPS", "operator:type": "public", "operator:wikidata": "Q668687", "ref": "7836300009"}, "type": "Feature"}
{"geometry": {"coordinates": [-97.8633260158, 27.5161599822], "type": "Point"}, "id": "d8_6-_nztOOcU82Uu4dwKmtbWzQ=", "properties": {"@source_uri": "https://tools.usps.com/UspsToolsRestServices/rest/POLocator/findLocations", "@spider": "usps_collection_boxes", "addr:city": "KINGSVILLE", "addr:country": "US", "addr:postcode": "78363", "addr:state": "TX", "addr:street_address": "409 E KLEBERG AVE", "amenity": "post_box", "brand": "United States Postal Service", "brand:wikidata": "Q668687", "collection_times": "Mo-Sa 14:30", "note": "ON 12/24 AND 12/31, THIS BOX MAY BE COLLECTED AS EARLY AS 12 NOON.", "nsi_id": "unitedstatespostalservice-a77078", "operator": "United States Postal Service", "operator:short": "USPS", "operator:type": "public", "operator:wikidata": "Q668687", "ref": "7836300010"}, "type": "Feature"}
{"geometry": {"coordinates": [-97.859674021, 27.516754008], "type": "Point"}, "id": "kyVEj97r29gfvQJHk4XFnpk-GZI=", "properties": {"@source_uri": "https://tools.usps.com/UspsToolsRestServices/rest/POLocator/findLocations", "@spider": "usps_collection_boxes", "addr:city": "KINGSVILLE", "addr:country": "US", "addr:postcode": "78363", "addr:state": "TX", "addr:street_address": "700 E KLEBERG AVE", "amenity": "post_box", "brand": "United States Postal Service", "brand:wikidata": "Q668687", "collection_times": "Mo-Sa 11:30", "nsi_id": "unitedstatespostalservice-a77078", "operator": "United States Postal Service", "operator:short": "USPS", "operator:type": "public", "operator:wikidata": "Q668687", "ref": "7836300011"}, "type": "Feature"}
{"geometry": {"coordinates": [-97.867978978, 27.516289986], "type": "Point"}, "id": "UpoXPZ9mA84VIfU2ICyPLYiRHcE=", "properties": {"@source_uri": "https://tools.usps.com/UspsToolsRestServices/rest/POLocator/findLocations", "@spider": "usps_collection_boxes", "addr:city": "KINGSVILLE", "addr:country": "US", "addr:postcode": "78363", "addr:state": "TX", "addr:street_address": "103 E KLEBERG AVE", "amenity": "post_box", "brand": "United States Postal Service", "brand:wikidata": "Q668687", "collection_times": "Mo-Fr 17:00; Sa 15:00", "indoor": "yes", "note": "ON 12/24 AND 12/31, THIS BOX MAY BE COLLECTED AS EARLY AS 12 NOON.", "nsi_id": "unitedstatespostalservice-a77078", "operator": "United States Postal Service", "operator:short": "USPS", "operator:type": "public", "operator:wikidata": "Q668687", "ref": "7836300029"}, "type": "Feature"}
{"geometry": {"coordinates": [-97.867978978, 27.516289986], "type": "Point"}, "id": "bo4-95zd8zLJfWjYPN2cLeGdAPM=", "properties": {"@source_uri": "https://tools.usps.com/UspsToolsRestServices/rest/POLocator/findLocations", "@spider": "usps_collection_boxes", "addr:city": "KINGSVILLE", "addr:country": "US", "addr:postcode": "78363", "addr:state": "TX", "addr:street_address": "103 E KLEBERG AVE", "amenity": "post_box", "brand": "United States Postal Service", "brand:wikidata": "Q668687", "collection_times": "Mo-Fr 17:00; Sa 15:00", "indoor": "yes", "note": "ON 12/24 AND 12/31, THIS BOX MAY BE COLLECTED AS EARLY AS 12 NOON.", "nsi_id": "unitedstatespostalservice-a77078", "operator": "United States Postal Service", "operator:short": "USPS", "operator:type": "public", "operator:wikidata": "Q668687", "ref": "7836300030"}, "type": "Feature"}
{"geometry": {"coordinates": [-97.853580042, 27.489779996], "type": "Point"}, "id": "j3mWhi_yssq-quJomsGvD7INUgU=", "properties": {"@source_uri": "https://tools.usps.com/UspsToolsRestServices/rest/POLocator/findLocations", "@spider": "usps_collection_boxes", "addr:city": "KINGSVILLE", "addr:country": "US", "addr:postcode": "78363", "addr:state": "TX", "addr:street_address": "1133 GENERAL CAVAZOS BLVD", "amenity": "post_box", "brand": "United States Postal Service", "brand:wikidata": "Q668687", "collection_times": "Mo-Sa 11:15", "nsi_id": "unitedstatespostalservice-a77078", "operator": "United States Postal Service", "operator:short": "USPS", "operator:type": "public", "operator:wikidata": "Q668687", "ref": "7836300033"}, "type": "Feature"}
{"geometry": {"coordinates": [-97.8186969915, 27.4958210008], "type": "Point"}, "id": "kvmUyekTQfTTsh8DmXLa4zO2H6I=", "properties": {"@source_uri": "https://tools.usps.com/UspsToolsRestServices/rest/POLocator/findLocations", "@spider": "usps_collection_boxes", "addr:city": "KINGSVILLE", "addr:country": "US", "addr:postcode": "78363", "addr:state": "TX", "addr:street_address": "554 MCCAIN ST", "amenity": "post_box", "brand": "United States Postal Service", "brand:wikidata": "Q668687", "collection_times": "Mo-Sa 12:30", "note": "ON 12/24 AND 12/31, THIS BOX MAY BE COLLECTED AS EARLY AS 12 NOON.", "nsi_id": "unitedstatespostalservice-a77078", "operator": "United States Postal Service", "operator:short": "USPS", "operator:type": "public", "operator:wikidata": "Q668687", "ref": "7836300036"}, "type": "Feature"}
{"geometry": {"coordinates": [-97.85622998, 27.496090018], "type": "Point"}, "id": "Kr6jaIl4s3WRx_cjP_rDcvSdIo0=", "properties": {"@source_uri": "https://tools.usps.com/UspsToolsRestServices/rest/POLocator/findLocations", "@spider": "usps_collection_boxes", "addr:city": "KINGSVILLE", "addr:country": "US", "addr:postcode": "78363", "addr:state": "TX", "addr:street_address": "2215 S BRAHMA BLVD", "amenity": "post_box", "brand": "United States Postal Service", "brand:wikidata": "Q668687", "collection_times": "Mo-Sa 15:00", "note": "ON 12/24 AND 12/31, THIS BOX MAY BE COLLECTED AS EARLY AS 12 NOON.", "nsi_id": "unitedstatespostalservice-a77078", "operator": "United States Postal Service", "operator:short": "USPS", "operator:type": "public", "operator:wikidata": "Q668687", "ref": "7836300040"}, "type": "Feature"}
{"geometry": {"coordinates": [-97.847484973, 27.516682007], "type": "Point"}, "id": "txikkRBfHpiWCJZiWMO1ftx9wMI=", "properties": {"@source_uri": "https://tools.usps.com/UspsToolsRestServices/rest/POLocator/findLocations", "@spider": "usps_collection_boxes", "addr:city": "KINGSVILLE", "addr:country": "US", "addr:postcode": "78363", "addr:state": "TX", "addr:street_address": "1500 E KING AVE", "amenity": "post_box", "brand": "United States Postal Service", "brand:wikidata": "Q668687", "collection_times": "Mo-Sa 11:00", "nsi_id": "unitedstatespostalservice-a77078", "operator": "United States Postal Service", "operator:short": "USPS", "operator:type": "public", "operator:wikidata": "Q668687", "ref": "7836300042"}, "type": "Feature"}
{"geometry": {"coordinates": [-97.867978978, 27.516289986], "type": "Point"}, "id": "xP6DuqdNjyzXkIgbwsBEgvr98yg=", "properties": {"@source_uri": "https://tools.usps.com/UspsToolsRestServices/rest/POLocator/findLocations", "@spider": "usps_collection_boxes", "addr:city": "KINGSVILLE", "addr:country": "US", "addr:postcode": "78363", "addr:state": "TX", "addr:street_address": "103 E KLEBERG AVE", "amenity": "post_box", "brand": "United States Postal Service", "brand:wikidata": "Q668687", "collection_times": "Mo-Fr 17:00; Sa 12:00", "indoor": "yes", "note": "ON 12/24 AND 12/31, THIS BOX MAY BE COLLECTED AS EARLY AS 12 NOON.", "nsi_id": "unitedstatespostalservice-a77078", "operator": "United States Postal Service", "operator:short": "USPS", "operator:type": "public", "operator:wikidata": "Q668687", "ref": "7836300045"}, "type": "Feature"}
{"geometry": {"coordinates": [-97.82310998, 28.090819995], "type": "Point"}, "id": "UQpVvlKc28bWAM_liG-gODO4cyM=", "properties": {"@source_uri": "https://tools.usps.com/UspsToolsRestServices/rest/POLocator/findLocations", "@spider": "usps_collection_boxes", "addr:city": "MATHIS", "addr:country": "US", "addr:postcode": "78368", "addr:state": "TX", "addr:street_address": "601 E SAN PATRICIO AVE", "amenity": "post_box", "brand": "United States Postal Service", "brand:wikidata": "Q668687", "collection_times": "Mo-Fr 13:30; Sa 12:00", "note": "ON 12/24 AND 12/31, THIS BOX MAY BE COLLECTED AS EARLY AS 12 NOON.", "nsi_id": "unitedstatespostalservice-a77078", "operator": "United States Postal Service", "operator:short": "USPS", "operator:type": "public", "operator:wikidata": "Q668687", "ref": "7836800001"}, "type": "Feature"}
{"geometry": {"coordinates": [-97.824234999, 28.099368991], "type": "Point"}, "id": "e0FpfFp4-3AyhJuTucGsbtA1U5E=", "properties": {"@source_uri": "https://tools.usps.com/UspsToolsRestServices/rest/POLocator/findLocations", "@spider": "usps_collection_boxes", "addr:city": "MATHIS", "addr:country": "US", "addr:postcode": "78368", "addr:state": "TX", "addr:street_address": "703 N FRONT ST", "amenity": "post_box", "brand": "United States Postal Service", "brand:wikidata": "Q668687", "collection_times": "Mo-Fr 13:30; Sa 12:00", "note": "ON 12/24 AND 12/31, THIS BOX MAY BE COLLECTED AS EARLY AS 12 NOON.", "nsi_id": "unitedstatespostalservice-a77078", "operator": "United States Postal Service", "operator:short": "USPS", "operator:type": "public", "operator:wikidata": "Q668687", "ref": "7836800002"}, "type": "Feature"}
{"geometry": {"coordinates": [-97.827574014, 28.092674994], "type": "Point"}, "id": "OaRiAyYFy6jFx7ycAc9x5sSX4S4=", "properties": {"@source_uri": "https://tools.usps.com/UspsToolsRestServices/rest/POLocator/findLocations", "@spider": "usps_collection_boxes", "addr:city": "MATHIS", "addr:country": "US", "addr:postcode": "78368", "addr:state": "TX", "addr:street_address": "121 S BEE ST", "amenity": "post_box", "brand": "United States Postal Service", "brand:wikidata": "Q668687", "collection_times": "Mo-Fr 16:00; Sa 10:00", "indoor": "yes", "note": "ON 12/24 AND 12/31, THIS BOX MAY BE COLLECTED AS EARLY AS 12 NOON.", "nsi_id": "unitedstatespostalservice-a77078", "operator": "United States Postal Service", "operator:short": "USPS", "operator:type": "public", "operator:wikidata": "Q668687", "ref": "7836800003"}, "type": "Feature"}
{"geometry": {"coordinates": [-97.827574014, 28.092674994], "type": "Point"}, "id": "MFNdjk_ERv0S9xxWiGYttPNCEiE=", "properties": {"@source_uri": "https://tools.usps.com/UspsToolsRestServices/rest/POLocator/findLocations", "@spider": "usps_collection_boxes", "addr:city": "MATHIS", "addr:country": "US", "addr:postcode": "78368", "addr:state": "TX", "addr:street_address": "121 S BEE ST", "amenity": "post_box", "brand": "United States Postal Service", "brand:wikidata": "Q668687", "collection_times": "Mo-Fr 16:30; Sa 10:00", "note": "ON 12/24 AND 12/31, THIS BOX MAY BE COLLECTED AS EARLY AS 12 NOON.", "nsi_id": "unitedstatespostalservice-a77078", "operator": "United States Postal Service", "operator:short": "USPS", "operator:type": "public", "operator:wikidata": "Q668687", "ref": "7836800004"}, "type": "Feature"}
{"geometry": {"coordinates": [-97.827574014, 28.092674994], "type": "Point"}, "id": "ujO-RkXAxgGbIcxWTs4ZjkGaIys=", "properties": {"@source_uri": "https://tools.usps.com/UspsToolsRestServices/rest/POLocator/findLocations", "@spider": "usps_collection_boxes", "addr:city": "MATHIS", "addr:country": "US", "addr:postcode": "78368", "addr:state": "TX", "addr:street_address": "121 S BEE ST", "amenity": "post_box", "brand": "United States Postal Service", "brand:wikidata": "Q668687", "collection_times": "Mo-Fr 16:30; Sa 10:00", "note": "ON 12/24 AND 12/31, THIS BOX MAY BE COLLECTED AS EARLY AS 12 NOON.", "nsi_id": "unitedstatespostalservice-a77078", "operator": "United States Postal Service", "operator:short": "USPS", "operator:type": "public", "operator:wikidata": "Q668687", "ref": "7836800007"}, "type": "Feature"}
{"geometry": {"coordinates": [-97.827574014, 28.092674994], "type": "Point"}, "id": "CS54CfdafhrBJ9MXbVOO73rZsr0=", "properties": {"@source_uri": "https://tools.usps.com/UspsToolsRestServices/rest/POLocator/findLocations", "@spider": "usps_collection_boxes", "addr:city": "MATHIS", "addr:country": "US", "addr:postcode": "78368", "addr:state": "TX", "addr:street_address": "121 S BEE ST", "amenity": "post_box", "brand": "United States Postal Service", "brand:wikidata": "Q668687", "collection_times": "Mo-Fr 16:30; Sa 10:00", "indoor": "yes", "note": "ON 12/24 AND 12/31, THIS BOX MAY BE COLLECTED AS EARLY AS 12 NOON.", "nsi_id": "unitedstatespostalservice-a77078", "operator": "United States Postal Service", "operator:short": "USPS", "operator:type": "public", "operator:wikidata": "Q668687", "ref": "7836800011"}, "type": "Feature"}
{"geometry": {"coordinates": [-99.000994217, 27.437055387], "type": "Point"}, "id": "-467GzHJMWBojMbkrJI84VxzSP4=", "properties": {"@source_uri": "https://tools.usps.com/UspsToolsRestServices/rest/POLocator/findLocations", "@spider": "usps_collection_boxes", "addr:city": "MIRANDO CITY", "addr:country": "US", "addr:postcode": "78369", "addr:state": "TX", "addr:street_address": "103 N MAIN ST", "amenity": "post_box", "brand": "United States Postal Service", "brand:wikidata": "Q668687", "collection_times": "Mo-Sa 15:00", "note": "ON 12/24 AND 12/31, THIS BOX MAY BE COLLECTED AS EARLY AS 12 NOON.", "nsi_id": "unitedstatespostalservice-a77078", "operator": "United States Postal Service", "operator:short": "USPS", "operator:type": "public", "operator:wikidata": "Q668687", "ref": "7836900000"}, "type": "Feature"}
{"geometry": {"coordinates": [-97.583009531, 27.950963152], "type": "Point"}, "id": "o5lQv9_ht8l-GEgmRL_LkAXMVjk=", "properties": {"@source_uri": "https://tools.usps.com/UspsToolsRestServices/rest/POLocator/findLocations", "@spider": "usps_collection_boxes", "addr:city": "ODEM", "addr:country": "US", "addr:postcode": "78370", "addr:state": "TX", "addr:street_address": "223 MAIN ST", "amenity": "post_box", "brand": "United States Postal Service", "brand:wikidata": "Q668687", "collection_times": "Mo-Fr 16:30; Sa 10:00", "note": "ON 12/24 AND 12/31, THIS BOX MAY BE COLLECTED AS EARLY AS 12 NOON.", "nsi_id": "unitedstatespostalservice-a77078", "operator": "United States Postal Service", "operator:short": "USPS", "operator:type": "public", "operator:wikidata": "Q668687", "ref": "7837000000"}, "type": "Feature"}
{"geometry": {"coordinates": [-97.583009531, 27.950963152], "type": "Point"}, "id": "-tv1lfRXDJCky4troKDztX_pT1s=", "properties": {"@source_uri": "https://tools.usps.com/UspsToolsRestServices/rest/POLocator/findLocations", "@spider": "usps_collection_boxes", "addr:city": "ODEM", "addr:country": "US", "addr:postcode": "78370", "addr:state": "TX", "addr:street_address": "223 MAIN ST", "amenity": "post_box", "brand": "United States Postal Service", "brand:wikidata": "Q668687", "collection_times": "Mo-Fr 16:30; Sa 10:00", "indoor": "yes", "note": "ON 12/24 AND 12/31, THIS BOX MAY BE COLLECTED AS EARLY AS 12 NOON.", "nsi_id": "unitedstatespostalservice-a77078", "operator": "United States Postal Service", "operator:short": "USPS", "operator:type": "public", "operator:wikidata": "Q668687", "ref": "7837000001"}, "type": "Feature"}
{"geometry": {"coordinates": [-97.583009531, 27.950963152], "type": "Point"}, "id": "UOTs4lFEpYABSWuoHl4R5AZ7DGo=", "properties": {"@source_uri": "https://tools.usps.com/UspsToolsRestServices/rest/POLocator/findLocations", "@spider": "usps_collection_boxes", "addr:city": "ODEM", "addr:country": "US", "addr:postcode": "78370", "addr:state": "TX", "addr:street_address": "223 MAIN ST", "amenity": "post_box", "brand": "United States Postal Service", "brand:wikidata": "Q668687", "collection_times": "Mo-Fr 16:30; Sa 10:00", "indoor": "yes", "note": "ON 12/24 AND 12/31, THIS BOX MAY BE COLLECTED AS EARLY AS 12 NOON.", "nsi_id": "unitedstatespostalservice-a77078", "operator": "United States Postal Service", "operator:short": "USPS", "operator:type": "public", "operator:wikidata": "Q668687", "ref": "7837000002"}, "type": "Feature"}
{"geometry": {"coordinates": [-97.583009531, 27.950963152], "type": "Point"}, "id": "zAtFHseq7WQZHN3MvojDtON5xIM=", "properties": {"@source_uri": "https://tools.usps.com/UspsToolsRestServices/rest/POLocator/findLocations", "@spider": "usps_collection_boxes", "addr:city": "ODEM", "addr:country": "US", "addr:postcode": "78370", "addr:state": "TX", "addr:street_address": "223 MAIN ST", "amenity": "post_box", "brand": "United States Postal Service", "brand:wikidata": "Q668687", "collection_times": "Mo-Fr 16:30; Sa 10:00", "indoor": "yes", "note": "ON 12/24 AND 12/31, THIS BOX MAY BE COLLECTED AS EARLY AS 12 NOON.", "nsi_id": "unitedstatespostalservice-a77078", "operator": "United States Postal Service", "operator:short": "USPS", "operator:type": "public", "operator:wikidata": "Q668687", "ref": "7837000003"}, "type": "Feature"}
{"geometry": {"coordinates": [-98.975307032, 27.46606034], "type": "Point"}, "id": "3_lI7HqgnMKlm6wo_TPNdIBZU4o=", "properties": {"@source_uri": "https://tools.usps.com/UspsToolsRestServices/rest/POLocator/findLocations", "@spider": "usps_collection_boxes", "addr:city": "OILTON", "addr:country": "US", "addr:postcode": "78371", "addr:state": "TX", "addr:street_address": "118 W LAREDO AVE", "amenity": "post_box", "brand": "United States Postal Service", "brand:wikidata": "Q668687", "collection_times": "Mo-Sa 15:15", "note": "ON 12/24 AND 12/31, THIS BOX MAY BE COLLECTED AS EARLY AS 12 NOON.", "nsi_id": "unitedstatespostalservice-a77078", "operator": "United States Postal Service", "operator:short": "USPS", "operator:type": "public", "operator:wikidata": "Q668687", "ref": "7837100000"}, "type": "Feature"}
{"geometry": {"coordinates": [-98.975307032, 27.46606034], "type": "Point"}, "id": "flBkuUeuZhqjNfGk1gp7aB0m_zc=", "properties": {"@source_uri": "https://tools.usps.com/UspsToolsRestServices/rest/POLocator/findLocations", "@spider": "usps_collection_boxes", "addr:city": "OILTON", "addr:country": "US", "addr:postcode": "78371", "addr:state": "TX", "addr:street_address": "118 W LAREDO AVE", "amenity": "post_box", "brand": "United States Postal Service", "brand:wikidata": "Q668687", "collection_times": "Mo-Fr 11:45; Sa 10:30", "indoor": "yes", "nsi_id": "unitedstatespostalservice-a77078", "operator": "United States Postal Service", "operator:short": "USPS", "operator:type": "public", "operator:wikidata": "Q668687", "ref": "7837100001"}, "type": "Feature"}
{"geometry": {"coordinates": [-98.975307032, 27.46606034], "type": "Point"}, "id": "g9o27jA8AZ32Fn9sfrz2Yw-wVro=", "properties": {"@source_uri": "https://tools.usps.com/UspsToolsRestServices/rest/POLocator/findLocations", "@spider": "usps_collection_boxes", "addr:city": "OILTON", "addr:country": "US", "addr:postcode": "78371", "addr:state": "TX", "addr:street_address": "118 W LAREDO AVE", "amenity": "post_box", "brand": "United States Postal Service", "brand:wikidata": "Q668687", "collection_times": "Mo-Fr 11:30; Sa 10:30", "indoor": "yes", "nsi_id": "unitedstatespostalservice-a77078", "operator": "United States Postal Service", "operator:short": "USPS", "operator:type": "public", "operator:wikidata": "Q668687", "ref": "7837100002"}, "type": "Feature"}
{"geometry": {"coordinates": [-97.939781965, 27.956172013], "type": "Point"}, "id": "s0rj8fyRGrSFitQL-0lYF4n6wWU=", "properties": {"@source_uri": "https://tools.usps.com/UspsToolsRestServices/rest/POLocator/findLocations", "@spider": "usps_collection_boxes", "addr:city": "ORANGE GROVE", "addr:country": "US", "addr:postcode": "78372", "addr:state": "TX", "addr:street_address": "214 S EUGENIA ST", "amenity": "post_box", "brand": "United States Postal Service", "brand:wikidata": "Q668687", "collection_times": "Mo-Fr 16:30; Sa 10:00", "note": "ON 12/24 AND 12/31, THIS BOX MAY BE COLLECTED AS EARLY AS 12 NOON.", "nsi_id": "unitedstatespostalservice-a77078", "operator": "United States Postal Service", "operator:short": "USPS", "operator:type": "public", "operator:wikidata": "Q668687", "ref": "7837200001"}, "type": "Feature"}
{"geometry": {"coordinates": [-97.939781965, 27.956172013], "type": "Point"}, "id": "xGkVaSauRaTJC9PhCw10_pBx8k8=", "properties": {"@source_uri": "https://tools.usps.com/UspsToolsRestServices/rest/POLocator/findLocations", "@spider": "usps_collection_boxes", "addr:city": "ORANGE GROVE", "addr:country": "US", "addr:postcode": "78372", "addr:state": "TX", "addr:street_address": "214 S EUGENIA ST", "amenity": "post_box", "brand": "United States Postal Service", "brand:wikidata": "Q668687", "collection_times": "Mo-Fr 16:30; Sa 10:00", "indoor": "yes", "note": "ON 12/24 AND 12/31, THIS BOX MAY BE COLLECTED AS EARLY AS 12 NOON.", "nsi_id": "unitedstatespostalservice-a77078", "operator": "United States Postal Service", "operator:short": "USPS", "operator:type": "public", "operator:wikidata": "Q668687", "ref": "7837200002"}, "type": "Feature"}
{"geometry": {"coordinates": [-97.939781965, 27.956172013], "type": "Point"}, "id": "oY5qfsK48FDvXu7vmo6j8prEyuA=", "properties": {"@source_uri": "https://tools.usps.com/UspsToolsRestServices/rest/POLocator/findLocations", "@spider": "usps_collection_boxes", "addr:city": "ORANGE GROVE", "addr:country": "US", "addr:postcode": "78372", "addr:state": "TX", "addr:street_address": "214 S EUGENIA ST", "amenity": "post_box", "brand": "United States Postal Service", "brand:wikidata": "Q668687", "collection_times": "Mo-Fr 16:30; Sa 10:00", "indoor": "yes", "note": "ON 12/24 AND 12/31, THIS BOX MAY BE COLLECTED AS EARLY AS 12 NOON.", "nsi_id": "unitedstatespostalservice-a77078", "operator": "United States Postal Service", "operator:short": "USPS", "operator:type": "public", "operator:wikidata": "Q668687", "ref": "7837200006"}, "type": "Feature"}
{"geometry": {"coordinates": [-97.0698910379, 27.8239070055], "type": "Point"}, "id": "_mL2RBy0gm7O4FQmcspm59p5-mo=", "properties": {"@source_uri": "https://tools.usps.com/UspsToolsRestServices/rest/POLocator/findLocations", "@spider": "usps_collection_boxes", "addr:city": "PORT ARANSAS", "addr:country": "US", "addr:postcode": "78373", "addr:state": "TX", "addr:street_address": "1211 HIGHWAY 361", "amenity": "post_box", "brand": "United States Postal Service", "brand:wikidata": "Q668687", "collection_times": "Mo-Fr 16:00; Sa 10:00", "note": "ON 12/24 AND 12/31, THIS BOX MAY BE COLLECTED AS EARLY AS 12 NOON.", "nsi_id": "unitedstatespostalservice-a77078", "operator": "United States Postal Service", "operator:short": "USPS", "operator:type": "public", "operator:wikidata": "Q668687", "ref": "7837300007"}, "type": "Feature"}
{"geometry": {"coordinates": [-97.069892966, 27.824046019], "type": "Point"}, "id": "Pl6z20BmFlrvKfBWFZhazMGwG1k=", "properties": {"@source_uri": "https://tools.usps.com/UspsToolsRestServices/rest/POLocator/findLocations", "@spider": "usps_collection_boxes", "addr:city": "PORT ARANSAS", "addr:country": "US", "addr:postcode": "78373", "addr:state": "TX", "addr:street_address": "1211 HIGHWAY 361", "amenity": "post_box", "brand": "United States Postal Service", "brand:wikidata": "Q668687", "collection_times": "Mo-Fr 16:00; Sa 10:00", "indoor": "yes", "note": "ON 12/24 AND 12/31, THIS BOX MAY BE COLLECTED AS EARLY AS 12 NOON.", "nsi_id": "unitedstatespostalservice-a77078", "operator": "United States Postal Service", "operator:short": "USPS", "operator:type": "public", "operator:wikidata": "Q668687", "ref": "7837300010"}, "type": "Feature"}
{"geometry": {"coordinates": [-97.069892966, 27.824046019], "type": "Point"}, "id": "VsSwucMcU8I5tChHUF1HzBaMItg=", "properties": {"@source_uri": "https://tools.usps.com/UspsToolsRestServices/rest/POLocator/findLocations", "@spider": "usps_collection_boxes", "addr:city": "PORT ARANSAS", "addr:country": "US", "addr:postcode": "78373", "addr:state": "TX", "addr:street_address": "1211 STATE HIGHWAY 361", "amenity": "post_box", "brand": "United States Postal Service", "brand:wikidata": "Q668687", "collection_times": "Mo-Fr 16:00; Sa 10:00", "indoor": "yes", "note": "ON 12/24 AND 12/31, THIS BOX MAY BE COLLECTED AS EARLY AS 12 NOON.", "nsi_id": "unitedstatespostalservice-a77078", "operator": "United States Postal Service", "operator:short": "USPS", "operator:type": "public", "operator:wikidata": "Q668687", "ref": "7837300012"}, "type": "Feature"}
{"geometry": {"coordinates": [-97.325260772, 27.877267788], "type": "Point"}, "id": "noin0FgAgXi4VSwDm50_F15ZRCk=", "properties": {"@source_uri": "https://tools.usps.com/UspsToolsRestServices/rest/POLocator/findLocations", "@spider": "usps_collection_boxes", "addr:city": "PORTLAND", "addr:country": "US", "addr:postcode": "78374", "addr:state": "TX", "addr:street_address": "609 8TH ST", "amenity": "post_box", "brand": "United States Postal Service", "brand:wikidata": "Q668687", "collection_times": "Mo-Fr 15:30; Sa 14:15", "note": "ON 12/24 AND 12/31, THIS BOX MAY BE COLLECTED AS EARLY AS 12 NOON.", "nsi_id": "unitedstatespostalservice-a77078", "operator": "United States Postal Service", "operator:short": "USPS", "operator:type": "public", "operator:wikidata": "Q668687", "ref": "7837400000"}, "type": "Feature"}
{"geometry": {"coordinates": [-97.327504751, 27.878295221], "type": "Point"}, "id": "jP_qHi3kMFzrVyqA-pTAbT2iS78=", "properties": {"@source_uri": "https://tools.usps.com/UspsToolsRestServices/rest/POLocator/findLocations", "@spider": "usps_collection_boxes", "addr:city": "PORTLAND", "addr:country": "US", "addr:postcode": "78374", "addr:state": "TX", "addr:street_address": "801 W BROADWAY AVE", "amenity": "post_box", "brand": "United States Postal Service", "brand:wikidata": "Q668687", "collection_times": "Mo-Fr 15:30; Sa 14:15", "note": "ON 12/24 AND 12/31, THIS BOX MAY BE COLLECTED AS EARLY AS 12 NOON.", "nsi_id": "unitedstatespostalservice-a77078", "operator": "United States Postal Service", "operator:short": "USPS", "operator:type": "public", "operator:wikidata": "Q668687", "ref": "7837400001"}, "type": "Feature"}
{"geometry": {"coordinates": [-97.3180530394, 27.8883340014], "type": "Point"}, "id": "Zg-XNbwVBulkFLhZMNkURbQmC48=", "properties": {"@source_uri": "https://tools.usps.com/UspsToolsRestServices/rest/POLocator/findLocations", "@spider": "usps_collection_boxes", "addr:city": "PORTLAND", "addr:country": "US", "addr:postcode": "78374", "addr:state": "TX", "addr:street_address": "120 LANG RD", "amenity": "post_box", "brand": "United States Postal Service", "brand:wikidata": "Q668687", "collection_times": "Mo-Fr 16:30; Sa 12:30", "note": "ON 12/24 AND 12/31, THIS BOX MAY BE COLLECTED AS EARLY AS 12 NOON.", "nsi_id": "unitedstatespostalservice-a77078", "operator": "United States Postal Service", "operator:short": "USPS", "operator:type": "public", "operator:wikidata": "Q668687", "ref": "7837400008"}, "type": "Feature"}
{"geometry": {"coordinates": [-97.319311179, 27.879303103], "type": "Point"}, "id": "B57eSWcQ84QDstadLT4g3kppnG8=", "properties": {"@source_uri": "https://tools.usps.com/UspsToolsRestServices/rest/POLocator/findLocations", "@spider": "usps_collection_boxes", "addr:city": "PORTLAND", "addr:country": "US", "addr:postcode": "78374", "addr:state": "TX", "addr:street_address": "1001 WILDCAT DR", "amenity": "post_box", "brand": "United States Postal Service", "brand:wikidata": "Q668687", "collection_times": "Mo-Fr 15:30; Sa 14:15", "note": "ON 12/24 AND 12/31, THIS BOX MAY BE COLLECTED AS EARLY AS 12 NOON.", "nsi_id": "unitedstatespostalservice-a77078", "operator": "United States Postal Service", "operator:short": "USPS", "operator:type": "public", "operator:wikidata": "Q668687", "ref": "7837400012"}, "type": "Feature"}
{"geometry": {"coordinates": [-97.318050022, 27.888550003], "type": "Point"}, "id": "Tqn4rpkJwaURxVF2RGnD7jOE9Iw=", "properties": {"@source_uri": "https://tools.usps.com/UspsToolsRestServices/rest/POLocator/findLocations", "@spider": "usps_collection_boxes", "addr:city": "PORTLAND", "addr:country": "US", "addr:postcode": "78374", "addr:state": "TX", "addr:street_address": "120 LANG RD", "amenity": "post_box", "brand": "United States Postal Service", "brand:wikidata": "Q668687", "collection_times": "Mo-Fr 16:30; Sa 12:30", "indoor": "yes", "note": "ON 12/24 AND 12/31, THIS BOX MAY BE COLLECTED AS EARLY AS 12 NOON.", "nsi_id": "unitedstatespostalservice-a77078", "operator": "United States Postal Service", "operator:short": "USPS", "operator:type": "public", "operator:wikidata": "Q668687", "ref": "7837400016"}, "type": "Feature"}
{"geometry": {"coordinates": [-97.318050022, 27.888550003], "type": "Point"}, "id": "DA_2J7lOs-kthZ81BxJrqzumMv8=", "properties": {"@source_uri": "https://tools.usps.com/UspsToolsRestServices/rest/POLocator/findLocations", "@spider": "usps_collection_boxes", "addr:city": "PORTLAND", "addr:country": "US", "addr:postcode": "78374", "addr:state": "TX", "addr:street_address": "120 LANG RD", "amenity": "post_box", "brand": "United States Postal Service", "brand:wikidata": "Q668687", "collection_times": "Mo-Fr 16:30; Sa 12:30", "indoor": "yes", "note": "ON 12/24 AND 12/31, THIS BOX MAY BE COLLECTED AS EARLY AS 12 NOON.", "nsi_id": "unitedstatespostalservice-a77078", "operator": "United States Postal Service", "operator:short": "USPS", "operator:type": "public", "operator:wikidata": "Q668687", "ref": "7837400017"}, "type": "Feature"}
{"geometry": {"coordinates": [-97.306950035, 27.896579992], "type": "Point"}, "id": "xiwxdxAzMEuZhq0NFdUIdO4be_w=", "properties": {"@source_uri": "https://tools.usps.com/UspsToolsRestServices/rest/POLocator/findLocations", "@spider": "usps_collection_boxes", "addr:city": "PORTLAND", "addr:country": "US", "addr:postcode": "78374", "addr:state": "TX", "addr:street_address": "2000 US HIGHWAY 181", "amenity": "post_box", "brand": "United States Postal Service", "brand:wikidata": "Q668687", "collection_times": "Mo-Fr 15:30; Sa 14:15", "note": "ON 12/24 AND 12/31, THIS BOX MAY BE COLLECTED AS EARLY AS 12 NOON.", "nsi_id": "unitedstatespostalservice-a77078", "operator": "United States Postal Service", "operator:short": "USPS", "operator:type": "public", "operator:wikidata": "Q668687", "ref": "7837400020"}, "type": "Feature"}
{"geometry": {"coordinates": [-97.318050022, 27.888550003], "type": "Point"}, "id": "SUWfuLQdPsfYdugBkkVufmywsfc=", "properties": {"@source_uri": "https://tools.usps.com/UspsToolsRestServices/rest/POLocator/findLocations", "@spider": "usps_collection_boxes", "addr:city": "PORTLAND", "addr:country": "US", "addr:postcode": "78374", "addr:state": "TX", "addr:street_address": "120 LANG RD", "amenity": "post_box", "brand": "United States Postal Service", "brand:wikidata": "Q668687", "collection_times": "Mo-Fr 16:30; Sa 12:30", "indoor": "yes", "note": "ON 12/24 AND 12/31, THIS BOX MAY BE COLLECTED AS EARLY AS 12 NOON.", "nsi_id": "unitedstatespostalservice-a77078", "operator": "United States Postal Service", "operator:short": "USPS", "operator:type": "public", "operator:wikidata": "Q668687", "ref": "7837400023"}, "type": "Feature"}
{"geometry": {"coordinates": [-98.124791636, 27.358439773], "type": "Point"}, "id": "tsdJWpp78phm8qVdzZURqc8bmeU=", "properties": {"@source_uri": "https://tools.usps.com/UspsToolsRestServices/rest/POLocator/findLocations", "@spider": "usps_collection_boxes", "addr:city": "PREMONT", "addr:country": "US", "addr:postcode": "78375", "addr:state": "TX", "addr:street_address": "305 S AGNES", "amenity": "post_box", "brand": "United States Postal Service", "brand:wikidata": "Q668687", "collection_times": "Mo-Fr 16:40; Sa 10:45", "note": "ON 12/24 AND 12/31, THIS BOX MAY BE COLLECTED AS EARLY AS 12 NOON.", "nsi_id": "unitedstatespostalservice-a77078", "operator": "United States Postal Service", "operator:short": "USPS", "operator:type": "public", "operator:wikidata": "Q668687", "ref": "7837500000"}, "type": "Feature"}
{"geometry": {"coordinates": [-98.124791636, 27.358439773], "type": "Point"}, "id": "zWKfSlsg-9apnNNewgdrI2cyLes=", "properties": {"@source_uri": "https://tools.usps.com/UspsToolsRestServices/rest/POLocator/findLocations", "@spider": "usps_collection_boxes", "addr:city": "PREMONT", "addr:country": "US", "addr:postcode": "78375", "addr:state": "TX", "addr:street_address": "305 S AGNES", "amenity": "post_box", "brand": "United States Postal Service", "brand:wikidata": "Q668687", "collection_times": "Mo-Fr 16:30; Sa 10:45", "indoor": "yes", "note": "ON 12/24 AND 12/31, THIS BOX MAY BE COLLECTED AS EARLY AS 12 NOON.", "nsi_id": "unitedstatespostalservice-a77078", "operator": "United States Postal Service", "operator:short": "USPS", "operator:type": "public", "operator:wikidata": "Q668687", "ref": "7837500001"}, "type": "Feature"}
{"geometry": {"coordinates": [-98.124791636, 27.358439773], "type": "Point"}, "id": "bEATn-4tJ6iAaso3M-L7KXQiS3Y=", "properties": {"@source_uri": "https://tools.usps.com/UspsToolsRestServices/rest/POLocator/findLocations", "@spider": "usps_collection_boxes", "addr:city": "PREMONT", "addr:country": "US", "addr:postcode": "78375", "addr:state": "TX", "addr:street_address": "305 S AGNES", "amenity": "post_box", "brand": "United States Postal Service", "brand:wikidata": "Q668687", "collection_times": "Mo-Fr 17:00; Sa 10:45", "indoor": "yes", "note": "ON 12/24 AND 12/31, THIS BOX MAY BE COLLECTED AS EARLY AS 12 NOON.", "nsi_id": "unitedstatespostalservice-a77078", "operator": "United States Postal Service", "operator:short": "USPS", "operator:type": "public", "operator:wikidata": "Q668687", "ref": "7837500005"}, "type": "Feature"}
{"geometry": {"coordinates": [-98.524563042, 27.447666003], "type": "Point"}, "id": "4S9C7JvpgffTOisFYCgWONyspp8=", "properties": {"@source_uri": "https://tools.usps.com/UspsToolsRestServices/rest/POLocator/findLocations", "@spider": "usps_collection_boxes", "addr:city": "REALITOS", "addr:country": "US", "addr:postcode": "78376", "addr:state": "TX", "addr:street_address": "6417 HIGHWAY 359", "amenity": "post_box", "brand": "United States Postal Service", "brand:wikidata": "Q668687", "collection_times": "Mo-Fr 11:45; Sa 08:30", "nsi_id": "unitedstatespostalservice-a77078", "operator": "United States Postal Service", "operator:short": "USPS", "operator:type": "public", "operator:wikidata": "Q668687", "ref": "7837600000"}, "type": "Feature"}
{"geometry": {"coordinates": [-98.524563042, 27.447666003], "type": "Point"}, "id": "_yjbDIZJn7UZIFNMIGskGUIIbPU=", "properties": {"@source_uri": "https://tools.usps.com/UspsToolsRestServices/rest/POLocator/findLocations", "@spider": "usps_collection_boxes", "addr:city": "REALITOS", "addr:country": "US", "addr:postcode": "78376", "addr:state": "TX", "addr:street_address": "6417 HIGHWAY 359", "amenity": "post_box", "brand": "United States Postal Service", "brand:wikidata": "Q668687", "collection_times": "Mo-Fr 11:45; Sa 08:30", "indoor": "yes", "nsi_id": "unitedstatespostalservice-a77078", "operator": "United States Postal Service", "operator:short": "USPS", "operator:type": "public", "operator:wikidata": "Q668687", "ref": "7837600001"}, "type": "Feature"}
{"geometry": {"coordinates": [-98.524563042, 27.447666003], "type": "Point"}, "id": "twPb8Xtq8Cf7j9066S52fdGVltI=", "properties": {"@source_uri": "https://tools.usps.com/UspsToolsRestServices/rest/POLocator/findLocations", "@spider": "usps_collection_boxes", "addr:city": "REALITOS", "addr:country": "US", "addr:postcode": "78376", "addr:state": "TX", "addr:street_address": "6417 HIGHWAY 359", "amenity": "post_box", "brand": "United States Postal Service", "brand:wikidata": "Q668687", "collection_times": "Mo-Fr 12:00; Sa 08:30", "indoor": "yes", "nsi_id": "unitedstatespostalservice-a77078", "operator": "United States Postal Service", "operator:short": "USPS", "operator:type": "public", "operator:wikidata": "Q668687", "ref": "7837600004"}, "type": "Feature"}
{"geometry": {"coordinates": [-97.273524355, 28.299682653], "type": "Point"}, "id": "iCR2upeNQBNQhkZXzQS_D-jtEYE=", "properties": {"@source_uri": "https://tools.usps.com/UspsToolsRestServices/rest/POLocator/findLocations", "@spider": "usps_collection_boxes", "addr:city": "REFUGIO", "addr:country": "US", "addr:postcode": "78377", "addr:state": "TX", "addr:street_address": "507 OSAGE ST", "amenity": "post_box", "brand": "United States Postal Service", "brand:wikidata": "Q668687", "collection_times": "Mo-Fr 16:30; Sa 12:00", "note": "ON 12/24 AND 12/31, THIS BOX MAY BE COLLECTED AS EARLY AS 12 NOON.", "nsi_id": "unitedstatespostalservice-a77078", "operator": "United States Postal Service", "operator:short": "USPS", "operator:type": "public", "operator:wikidata": "Q668687", "ref": "7837700000"}, "type": "Feature"}
{"geometry": {"coordinates": [-97.273524355, 28.299682653], "type": "Point"}, "id": "g2Szaym6XaHqg8sd-4iZAT_aMK4=", "properties": {"@source_uri": "https://tools.usps.com/UspsToolsRestServices/rest/POLocator/findLocations", "@spider": "usps_collection_boxes", "addr:city": "REFUGIO", "addr:country": "US", "addr:postcode": "78377", "addr:state": "TX", "addr:street_address": "507 OSAGE ST", "amenity": "post_box", "brand": "United States Postal Service", "brand:wikidata": "Q668687", "collection_times": "Mo-Fr 16:30; Sa 12:00", "indoor": "yes", "note": "ON 12/24 AND 12/31, THIS BOX MAY BE COLLECTED AS EARLY AS 12 NOON.", "nsi_id": "unitedstatespostalservice-a77078", "operator": "United States Postal Service", "operator:short": "USPS", "operator:type": "public", "operator:wikidata": "Q668687", "ref": "7837700005"}, "type": "Feature"}
{"geometry": {"coordinates": [-97.273524355, 28.299682653], "type": "Point"}, "id": "RDW2FNlxnTAiEFZWVU4Nf1moAB8=", "properties": {"@source_uri": "https://tools.usps.com/UspsToolsRestServices/rest/POLocator/findLocations", "@spider": "usps_collection_boxes", "addr:city": "REFUGIO", "addr:country": "US", "addr:postcode": "78377", "addr:state": "TX", "addr:street_address": "507 OSAGE ST", "amenity": "post_box", "brand": "United States Postal Service", "brand:wikidata": "Q668687", "collection_times": "Mo-Fr 16:30; Sa 12:00", "indoor": "yes", "note": "ON 12/24 AND 12/31, THIS BOX MAY BE COLLECTED AS EARLY AS 12 NOON.", "nsi_id": "unitedstatespostalservice-a77078", "operator": "United States Postal Service", "operator:short": "USPS", "operator:type": "public", "operator:wikidata": "Q668687", "ref": "7837700006"}, "type": "Feature"}
{"geometry": {"coordinates": [-97.273524355, 28.299682653], "type": "Point"}, "id": "xCwKLvrlpvb4ZoKpqn6bHsExdaQ=", "properties": {"@source_uri": "https://tools.usps.com/UspsToolsRestServices/rest/POLocator/findLocations", "@spider": "usps_collection_boxes", "addr:city": "REFUGIO", "addr:country": "US", "addr:postcode": "78377", "addr:state": "TX", "addr:street_address": "507 OSAGE ST", "amenity": "post_box", "brand": "United States Postal Service", "brand:wikidata": "Q668687", "collection_times": "Mo-Fr 16:30; Sa 12:00", "indoor": "yes", "note": "ON 12/24 AND 12/31, THIS BOX MAY BE COLLECTED AS EARLY AS 12 NOON.", "nsi_id": "unitedstatespostalservice-a77078", "operator": "United States Postal Service", "operator:short": "USPS", "operator:type": "public", "operator:wikidata": "Q668687", "ref": "7837700008"}, "type": "Feature"}
{"geometry": {"coordinates": [-97.813096958, 27.297798999], "type": "Point"}, "id": "hAhwiD100DVXrriHuwt9rnSH04w=", "properties": {"@source_uri": "https://tools.usps.com/UspsToolsRestServices/rest/POLocator/findLocations", "@spider": "usps_collection_boxes", "addr:city": "RIVIERA", "addr:country": "US", "addr:postcode": "78379", "addr:state": "TX", "addr:street_address": "120 S 7TH ST", "amenity": "post_box", "brand": "United States Postal Service", "brand:wikidata": "Q668687", "collection_times": "Mo-Fr 16:30; Sa 10:00", "indoor": "yes", "note": "ON 12/24 AND 12/31, THIS BOX MAY BE COLLECTED AS EARLY AS 12 NOON.", "nsi_id": "unitedstatespostalservice-a77078", "operator": "United States Postal Service", "operator:short": "USPS", "operator:type": "public", "operator:wikidata": "Q668687", "ref": "7837900000"}, "type": "Feature"}
{"geometry": {"coordinates": [-97.813096958, 27.297798999], "type": "Point"}, "id": "1fnXtVd4dL40lLvrZyebIxRN5so=", "properties": {"@source_uri": "https://tools.usps.com/UspsToolsRestServices/rest/POLocator/findLocations", "@spider": "usps_collection_boxes", "addr:city": "RIVIERA", "addr:country": "US", "addr:postcode": "78379", "addr:state": "TX", "addr:street_address": "120 S 7TH ST", "amenity": "post_box", "brand": "United States Postal Service", "brand:wikidata": "Q668687", "collection_times": "Mo-Fr 16:30; Sa 10:00", "note": "ON 12/24 AND 12/31, THIS BOX MAY BE COLLECTED AS EARLY AS 12 NOON.", "nsi_id": "unitedstatespostalservice-a77078", "operator": "United States Postal Service", "operator:short": "USPS", "operator:type": "public", "operator:wikidata": "Q668687", "ref": "7837900001"}, "type": "Feature"}
{"geometry": {"coordinates": [-97.813096958, 27.297798999], "type": "Point"}, "id": "0jBkoimCLupftlP9NuOzIO51frw=", "properties": {"@source_uri": "https://tools.usps.com/UspsToolsRestServices/rest/POLocator/findLocations", "@spider": "usps_collection_boxes", "addr:city": "RIVIERA", "addr:country": "US", "addr:postcode": "78379", "addr:state": "TX", "addr:street_address": "120 S 7TH ST", "amenity": "post_box", "brand": "United States Postal Service", "brand:wikidata": "Q668687", "collection_times": "Mo-Fr 16:30", "indoor": "yes", "note": "ON 12/24 AND 12/31, THIS BOX MAY BE COLLECTED AS EARLY AS 12 NOON.", "nsi_id": "unitedstatespostalservice-a77078", "operator": "United States Postal Service", "operator:short": "USPS", "operator:type": "public", "operator:wikidata": "Q668687", "ref": "7837900002"}, "type": "Feature"}
{"geometry": {"coordinates": [-97.665533972, 27.789931003], "type": "Point"}, "id": "axMXbjBXzV_qivNwYJGKsj_tFhg=", "properties": {"@source_uri": "https://tools.usps.com/UspsToolsRestServices/rest/POLocator/findLocations", "@spider": "usps_collection_boxes", "addr:city": "ROBSTOWN", "addr:country": "US", "addr:postcode": "78380", "addr:state": "TX", "addr:street_address": "313 E MAIN AVE", "amenity": "post_box", "brand": "United States Postal Service", "brand:wikidata": "Q668687", "collection_times": "Mo-Fr 16:30; Sa 12:00", "indoor": "yes", "note": "ON 12/24 AND 12/31, THIS BOX MAY BE COLLECTED AS EARLY AS 12 NOON.", "nsi_id": "unitedstatespostalservice-a77078", "operator": "United States Postal Service", "operator:short": "USPS", "operator:type": "public", "operator:wikidata": "Q668687", "ref": "7838000010"}, "type": "Feature"}
{"geometry": {"coordinates": [-97.665533972, 27.789931003], "type": "Point"}, "id": "hgl4eU_u70BKzPJJqFrT1QeD-uQ=", "properties": {"@source_uri": "https://tools.usps.com/UspsToolsRestServices/rest/POLocator/findLocations", "@spider": "usps_collection_boxes", "addr:city": "ROBSTOWN", "addr:country": "US", "addr:postcode": "78380", "addr:state": "TX", "addr:street_address": "313 E MAIN AVE", "amenity": "post_box", "brand": "United States Postal Service", "brand:wikidata": "Q668687", "collection_times": "Mo-Fr 16:30; Sa 12:00", "indoor": "yes", "note": "ON 12/24 AND 12/31, THIS BOX MAY BE COLLECTED AS EARLY AS 12 NOON.", "nsi_id": "unitedstatespostalservice-a77078", "operator": "United States Postal Service", "operator:short": "USPS", "operator:type": "public", "operator:wikidata": "Q668687", "ref": "7838000011"}, "type": "Feature"}
{"geometry": {"coordinates": [-97.665533972, 27.789931003], "type": "Point"}, "id": "bMOD-XvLIN7IPO5ZGc_QdtLFsVY=", "properties": {"@source_uri": "https://tools.usps.com/UspsToolsRestServices/rest/POLocator/findLocations", "@spider": "usps_collection_boxes", "addr:city": "ROBSTOWN", "addr:country": "US", "addr:postcode": "78380", "addr:state": "TX", "addr:street_address": "313 E MAIN AVE", "amenity": "post_box", "brand": "United States Postal Service", "brand:wikidata": "Q668687", "collection_times": "Mo-Fr 16:30; Sa 12:00", "note": "ON 12/24 AND 12/31, THIS BOX MAY BE COLLECTED AS EARLY AS 12 NOON.", "nsi_id": "unitedstatespostalservice-a77078", "operator": "United States Postal Service", "operator:short": "USPS", "operator:type": "public", "operator:wikidata": "Q668687", "ref": "7838000012"}, "type": "Feature"}
{"geometry": {"coordinates": [-97.665533972, 27.789931003], "type": "Point"}, "id": "oe-bpIyks-myS-nRX4-Jd6mVJcc=", "properties": {"@source_uri": "https://tools.usps.com/UspsToolsRestServices/rest/POLocator/findLocations", "@spider": "usps_collection_boxes", "addr:city": "ROBSTOWN", "addr:country": "US", "addr:postcode": "78380", "addr:state": "TX", "addr:street_address": "313 E MAIN AVE", "amenity": "post_box", "brand": "United States Postal Service", "brand:wikidata": "Q668687", "collection_times": "Mo-Fr 16:30; Sa 12:00", "note": "ON 12/24 AND 12/31, THIS BOX MAY BE COLLECTED AS EARLY AS 12 NOON.", "nsi_id": "unitedstatespostalservice-a77078", "operator": "United States Postal Service", "operator:short": "USPS", "operator:type": "public", "operator:wikidata": "Q668687", "ref": "7838000013"}, "type": "Feature"}
{"geometry": {"coordinates": [-97.665533972, 27.789931003], "type": "Point"}, "id": "G9uyK7FloSZ5Q_YX4mWhGNEJyvU=", "properties": {"@source_uri": "https://tools.usps.com/UspsToolsRestServices/rest/POLocator/findLocations", "@spider": "usps_collection_boxes", "addr:city": "ROBSTOWN", "addr:country": "US", "addr:postcode": "78380", "addr:state": "TX", "addr:street_address": "313 E MAIN AVE", "amenity": "post_box", "brand": "United States Postal Service", "brand:wikidata": "Q668687", "collection_times": "Mo-Fr 16:30; Sa 12:00", "indoor": "yes", "note": "ON 12/24 AND 12/31, THIS BOX MAY BE COLLECTED AS EARLY AS 12 NOON.", "nsi_id": "unitedstatespostalservice-a77078", "operator": "United States Postal Service", "operator:short": "USPS", "operator:type": "public", "operator:wikidata": "Q668687", "ref": "7838000016"}, "type": "Feature"}
{"geometry": {"coordinates": [-97.042547222, 28.038082951], "type": "Point"}, "id": "MiQhNvW4W1tgcqMWBM2VfL_KSCM=", "properties": {"@source_uri": "https://tools.usps.com/UspsToolsRestServices/rest/POLocator/findLocations", "@spider": "usps_collection_boxes", "addr:city": "ROCKPORT", "addr:country": "US", "addr:postcode": "78382", "addr:state": "TX", "addr:street_address": "1409 HIGHWAY 35 N", "amenity": "post_box", "brand": "United States Postal Service", "brand:wikidata": "Q668687", "collection_times": "Mo-Sa 09:00", "nsi_id": "unitedstatespostalservice-a77078", "operator": "United States Postal Service", "operator:short": "USPS", "operator:type": "public", "operator:wikidata": "Q668687", "ref": "7838200000"}, "type": "Feature"}
{"geometry": {"coordinates": [-97.0556040001, 28.0216260012], "type": "Point"}, "id": "O_lAvHIegiMvXjPDHHCOJOGtcys=", "properties": {"@source_uri": "https://tools.usps.com/UspsToolsRestServices/rest/POLocator/findLocations", "@spider": "usps_collection_boxes", "addr:city": "ROCKPORT", "addr:country": "US", "addr:postcode": "78382", "addr:state": "TX", "addr:street_address": "622 E MARKET ST", "amenity": "post_box", "brand": "United States Postal Service", "brand:wikidata": "Q668687", "collection_times": "Mo-Sa 14:00", "note": "ON 12/24 AND 12/31, THIS BOX MAY BE COLLECTED AS EARLY AS 12 NOON.", "nsi_id": "unitedstatespostalservice-a77078", "operator": "United States Postal Service", "operator:short": "USPS", "operator:type": "public", "operator:wikidata": "Q668687", "ref": "7838200002"}, "type": "Feature"}
{"geometry": {"coordinates": [-97.057209973, 28.039950015], "type": "Point"}, "id": "WivHnpc__wuVnuohURkaIH4Ep94=", "properties": {"@source_uri": "https://tools.usps.com/UspsToolsRestServices/rest/POLocator/findLocations", "@spider": "usps_collection_boxes", "addr:city": "ROCKPORT", "addr:country": "US", "addr:postcode": "78382", "addr:state": "TX", "addr:street_address": "1550 FM 2165", "amenity": "post_box", "brand": "United States Postal Service", "brand:wikidata": "Q668687", "collection_times": "Mo-Fr 15:00; Sa 12:00", "note": "ON 12/24 AND 12/31, THIS BOX MAY BE COLLECTED AS EARLY AS 12 NOON.", "nsi_id": "unitedstatespostalservice-a77078", "operator": "United States Postal Service", "operator:short": "USPS", "operator:type": "public", "operator:wikidata": "Q668687", "ref": "7838200003"}, "type": "Feature"}
{"geometry": {"coordinates": [-96.9997651284, 28.1658107868], "type": "Point"}, "id": "c2zLCHhCk00rJiYnez9bFULsbIE=", "properties": {"@source_uri": "https://tools.usps.com/UspsToolsRestServices/rest/POLocator/findLocations", "@spider": "usps_collection_boxes", "addr:city": "ROCKPORT", "addr:country": "US", "addr:postcode": "78382", "addr:state": "TX", "addr:street_address": "100 HOLIDAY BLVD", "amenity": "post_box", "brand": "United States Postal Service", "brand:wikidata": "Q668687", "collection_times": "Mo-Sa 11:00", "nsi_id": "unitedstatespostalservice-a77078", "operator": "United States Postal Service", "operator:short": "USPS", "operator:type": "public", "operator:wikidata": "Q668687", "ref": "7838200005"}, "type": "Feature"}
{"geometry": {"coordinates": [-97.0450319895, 28.0480010007], "type": "Point"}, "id": "EX6z7y5D_EzkZ2yZBBREsq1vWM0=", "properties": {"@source_uri": "https://tools.usps.com/UspsToolsRestServices/rest/POLocator/findLocations", "@spider": "usps_collection_boxes", "addr:city": "ROCKPORT", "addr:country": "US", "addr:postcode": "78382", "addr:state": "TX", "addr:street_address": "2401 HIGHWAY 35 N", "amenity": "post_box", "brand": "United States Postal Service", "brand:wikidata": "Q668687", "collection_times": "Mo-Sa 14:00", "note": "ON 12/24 AND 12/31, THIS BOX MAY BE COLLECTED AS EARLY AS 12 NOON.", "nsi_id": "unitedstatespostalservice-a77078", "operator": "United States Postal Service", "operator:short": "USPS", "operator:type": "public", "operator:wikidata": "Q668687", "ref": "7838200011"}, "type": "Feature"}
{"geometry": {"coordinates": [-96.9997651284, 28.1658107868], "type": "Point"}, "id": "PvLRTK7LPTJBF_gvJ0Vg6gQpVCc=", "properties": {"@source_uri": "https://tools.usps.com/UspsToolsRestServices/rest/POLocator/findLocations", "@spider": "usps_collection_boxes", "addr:city": "ROCKPORT", "addr:country": "US", "addr:postcode": "78382", "addr:state": "TX", "addr:street_address": "100 HOLIDAY BLVD", "amenity": "post_box", "brand": "United States Postal Service", "brand:wikidata": "Q668687", "collection_times": "Mo-Sa 11:00", "nsi_id": "unitedstatespostalservice-a77078", "operator": "United States Postal Service", "operator:short": "USPS", "operator:type": "public", "operator:wikidata": "Q668687", "ref": "7838200014"}, "type": "Feature"}
{"geometry": {"coordinates": [-97.057209973, 28.039950015], "type": "Point"}, "id": "c4RnsboinvEGmU3BsaQTEQMftjY=", "properties": {"@source_uri": "https://tools.usps.com/UspsToolsRestServices/rest/POLocator/findLocations", "@spider": "usps_collection_boxes", "addr:city": "ROCKPORT", "addr:country": "US", "addr:postcode": "78382", "addr:state": "TX", "addr:street_address": "1550 FM 2165", "amenity": "post_box", "brand": "United States Postal Service", "brand:wikidata": "Q668687", "collection_times": "Mo-Fr 15:00; Sa 12:00", "note": "ON 12/24 AND 12/31, THIS BOX MAY BE COLLECTED AS EARLY AS 12 NOON.", "nsi_id": "unitedstatespostalservice-a77078", "operator": "United States Postal Service", "operator:short": "USPS", "operator:type": "public", "operator:wikidata": "Q668687", "ref": "7838200015"}, "type": "Feature"}
{"geometry": {"coordinates": [-97.057209973, 28.039950015], "type": "Point"}, "id": "7nBlknKgHdmiZgHw_jApWBadN0g=", "properties": {"@source_uri": "https://tools.usps.com/UspsToolsRestServices/rest/POLocator/findLocations", "@spider": "usps_collection_boxes", "addr:city": "ROCKPORT", "addr:country": "US", "addr:postcode": "78382", "addr:state": "TX", "addr:street_address": "1550 FM 2165", "amenity": "post_box", "brand": "United States Postal Service", "brand:wikidata": "Q668687", "collection_times": "Mo-Fr 16:30; Sa 12:00", "indoor": "yes", "note": "ON 12/24 AND 12/31, THIS BOX MAY BE COLLECTED AS EARLY AS 12 NOON.", "nsi_id": "unitedstatespostalservice-a77078", "operator": "United States Postal Service", "operator:short": "USPS", "operator:type": "public", "operator:wikidata": "Q668687", "ref": "7838200018"}, "type": "Feature"}
{"geometry": {"coordinates": [-97.057209973, 28.039950015], "type": "Point"}, "id": "YbiCS0YxUYIgBHGPoyoo2KgB2Bw=", "properties": {"@source_uri": "https://tools.usps.com/UspsToolsRestServices/rest/POLocator/findLocations", "@spider": "usps_collection_boxes", "addr:city": "ROCKPORT", "addr:country": "US", "addr:postcode": "78382", "addr:state": "TX", "addr:street_address": "1550 FM 2165", "amenity": "post_box", "brand": "United States Postal Service", "brand:wikidata": "Q668687", "collection_times": "Mo-Fr 16:30; Sa 12:00", "indoor": "yes", "note": "ON 12/24 AND 12/31, THIS BOX MAY BE COLLECTED AS EARLY AS 12 NOON.", "nsi_id": "unitedstatespostalservice-a77078", "operator": "United States Postal Service", "operator:short": "USPS", "operator:type": "public", "operator:wikidata": "Q668687", "ref": "7838200021"}, "type": "Feature"}
{"geometry": {"coordinates": [-97.057209973, 28.039950015], "type": "Point"}, "id": "1P9I5mdYlp-a5QnfWoxAu-RUZVY=", "properties": {"@source_uri": "https://tools.usps.com/UspsToolsRestServices/rest/POLocator/findLocations", "@spider": "usps_collection_boxes", "addr:city": "ROCKPORT", "addr:country": "US", "addr:postcode": "78382", "addr:state": "TX", "addr:street_address": "1550 FM 2165", "amenity": "post_box", "brand": "United States Postal Service", "brand:wikidata": "Q668687", "collection_times": "Mo-Fr 16:30; Sa 12:00", "indoor": "yes", "note": "ON 12/24 AND 12/31, THIS BOX MAY BE COLLECTED AS EARLY AS 12 NOON.", "nsi_id": "unitedstatespostalservice-a77078", "operator": "United States Postal Service", "operator:short": "USPS", "operator:type": "public", "operator:wikidata": "Q668687", "ref": "7838200022"}, "type": "Feature"}
{"geometry": {"coordinates": [-97.879921011, 28.021622984], "type": "Point"}, "id": "r4QW0a0yR9VRqXBR9fObg4XwoAU=", "properties": {"@source_uri": "https://tools.usps.com/UspsToolsRestServices/rest/POLocator/findLocations", "@spider": "usps_collection_boxes", "addr:city": "SANDIA", "addr:country": "US", "addr:postcode": "78383", "addr:state": "TX", "addr:street_address": "12140 HIGHWAY 359", "amenity": "post_box", "brand": "United States Postal Service", "brand:wikidata": "Q668687", "collection_times": "Mo-Fr 14:00; Sa 09:15", "note": "ON 12/24 AND 12/31, THIS BOX MAY BE COLLECTED AS EARLY AS 12 NOON.", "nsi_id": "unitedstatespostalservice-a77078", "operator": "United States Postal Service", "operator:short": "USPS", "operator:type": "public", "operator:wikidata": "Q668687", "ref": "7838300001"}, "type": "Feature"}
{"geometry": {"coordinates": [-97.879921011, 28.021622984], "type": "Point"}, "id": "jrlk8maRei-H5kQTWMyPdTvksMI=", "properties": {"@source_uri": "https://tools.usps.com/UspsToolsRestServices/rest/POLocator/findLocations", "@spider": "usps_collection_boxes", "addr:city": "SANDIA", "addr:country": "US", "addr:postcode": "78383", "addr:state": "TX", "addr:street_address": "12140 HIGHWAY 359", "amenity": "post_box", "brand": "United States Postal Service", "brand:wikidata": "Q668687", "collection_times": "Mo-Fr 14:00; Sa 09:00", "indoor": "yes", "note": "ON 12/24 AND 12/31, THIS BOX MAY BE COLLECTED AS EARLY AS 12 NOON.", "nsi_id": "unitedstatespostalservice-a77078", "operator": "United States Postal Service", "operator:short": "USPS", "operator:type": "public", "operator:wikidata": "Q668687", "ref": "7838300002"}, "type": "Feature"}
{"geometry": {"coordinates": [-97.879921011, 28.021622984], "type": "Point"}, "id": "UTZWpmuE7DNGX26MzQa-UILHNSM=", "properties": {"@source_uri": "https://tools.usps.com/UspsToolsRestServices/rest/POLocator/findLocations", "@spider": "usps_collection_boxes", "addr:city": "SANDIA", "addr:country": "US", "addr:postcode": "78383", "addr:state": "TX", "addr:street_address": "12140 HIGHWAY 359", "amenity": "post_box", "brand": "United States Postal Service", "brand:wikidata": "Q668687", "collection_times": "Mo-Fr 14:00; Sa 09:00", "indoor": "yes", "note": "ON 12/24 AND 12/31, THIS BOX MAY BE COLLECTED AS EARLY AS 12 NOON.", "nsi_id": "unitedstatespostalservice-a77078", "operator": "United States Postal Service", "operator:short": "USPS", "operator:type": "public", "operator:wikidata": "Q668687", "ref": "7838300004"}, "type": "Feature"}
{"geometry": {"coordinates": [-98.236809959, 27.764483], "type": "Point"}, "id": "_t22gy4CGIQJ0Jpx-xToPuvB19A=", "properties": {"@source_uri": "https://tools.usps.com/UspsToolsRestServices/rest/POLocator/findLocations", "@spider": "usps_collection_boxes", "addr:city": "SAN DIEGO", "addr:country": "US", "addr:postcode": "78384", "addr:state": "TX", "addr:street_address": "111 N VICTORIA ST", "amenity": "post_box", "brand": "United States Postal Service", "brand:wikidata": "Q668687", "collection_times": "Mo-Fr 16:30; Sa 11:30", "indoor": "yes", "note": "ON 12/24 AND 12/31, THIS BOX MAY BE COLLECTED AS EARLY AS 12 NOON.", "nsi_id": "unitedstatespostalservice-a77078", "operator": "United States Postal Service", "operator:short": "USPS", "operator:type": "public", "operator:wikidata": "Q668687", "ref": "7838400000"}, "type": "Feature"}
{"geometry": {"coordinates": [-98.236809959, 27.764483], "type": "Point"}, "id": "tVKFaUOQUGnI81e2OxQdlFy2efc=", "properties": {"@source_uri": "https://tools.usps.com/UspsToolsRestServices/rest/POLocator/findLocations", "@spider": "usps_collection_boxes", "addr:city": "SAN DIEGO", "addr:country": "US", "addr:postcode": "78384", "addr:state": "TX", "addr:street_address": "111 N VICTORIA ST", "amenity": "post_box", "brand": "United States Postal Service", "brand:wikidata": "Q668687", "collection_times": "Mo-Fr 17:00; Sa 12:45", "note": "ON 12/24 AND 12/31, THIS BOX MAY BE COLLECTED AS EARLY AS 12 NOON.", "nsi_id": "unitedstatespostalservice-a77078", "operator": "United States Postal Service", "operator:short": "USPS", "operator:type": "public", "operator:wikidata": "Q668687", "ref": "7838400003"}, "type": "Feature"}
{"geometry": {"coordinates": [-98.236809959, 27.764483], "type": "Point"}, "id": "yH-ij__ptJI14pQvOLohacy4Blc=", "properties": {"@source_uri": "https://tools.usps.com/UspsToolsRestServices/rest/POLocator/findLocations", "@spider": "usps_collection_boxes", "addr:city": "SAN DIEGO", "addr:country": "US", "addr:postcode": "78384", "addr:state": "TX", "addr:street_address": "111 N VICTORIA ST", "amenity": "post_box", "brand": "United States Postal Service", "brand:wikidata": "Q668687", "collection_times": "Mo-Fr 16:30", "indoor": "yes", "note": "ON 12/24 AND 12/31, THIS BOX MAY BE COLLECTED AS EARLY AS 12 NOON.", "nsi_id": "unitedstatespostalservice-a77078", "operator": "United States Postal Service", "operator:short": "USPS", "operator:type": "public", "operator:wikidata": "Q668687", "ref": "7838400005"}, "type": "Feature"}
{"geometry": {"coordinates": [-97.791550052, 27.221608382], "type": "Point"}, "id": "nJ9vUd6kpcApeNQpG5b4zEslv_Q=", "properties": {"@source_uri": "https://tools.usps.com/UspsToolsRestServices/rest/POLocator/findLocations", "@spider": "usps_collection_boxes", "addr:city": "SARITA", "addr:country": "US", "addr:postcode": "78385", "addr:state": "TX", "addr:street_address": "103 W MALLORY ST", "amenity": "post_box", "brand": "United States Postal Service", "brand:wikidata": "Q668687", "collection_times": "Mo-Fr 16:00; Sa 11:00", "note": "ON 12/24 AND 12/31, THIS BOX MAY BE COLLECTED AS EARLY AS 12 NOON.", "nsi_id": "unitedstatespostalservice-a77078", "operator": "United States Postal Service", "operator:short": "USPS", "operator:type": "public", "operator:wikidata": "Q668687", "ref": "7838500000"}, "type": "Feature"}
{"geometry": {"coordinates": [-97.791550052, 27.221608382], "type": "Point"}, "id": "fWJkVm3Wp5ZQPa88QYg2rAran84=", "properties": {"@source_uri": "https://tools.usps.com/UspsToolsRestServices/rest/POLocator/findLocations", "@spider": "usps_collection_boxes", "addr:city": "SARITA", "addr:country": "US", "addr:postcode": "78385", "addr:state": "TX", "addr:street_address": "103 W MALLORY ST", "amenity": "post_box", "brand": "United States Postal Service", "brand:wikidata": "Q668687", "collection_times": "Mo-Sa 11:30", "indoor": "yes", "nsi_id": "unitedstatespostalservice-a77078", "operator": "United States Postal Service", "operator:short": "USPS", "operator:type": "public", "operator:wikidata": "Q668687", "ref": "7838500001"}, "type": "Feature"}
{"geometry": {"coordinates": [-97.791667875, 27.221770693], "type": "Point"}, "id": "qDvyxngc2Rk3etcN5tqz7Y5etdc=", "properties": {"@source_uri": "https://tools.usps.com/UspsToolsRestServices/rest/POLocator/findLocations", "@spider": "usps_collection_boxes", "addr:city": "SARITA", "addr:country": "US", "addr:postcode": "78385", "addr:state": "TX", "addr:street_address": "103 N MALLORY ST", "amenity": "post_box", "brand": "United States Postal Service", "brand:wikidata": "Q668687", "collection_times": "Mo-Fr 12:00; Sa 11:30", "indoor": "yes", "nsi_id": "unitedstatespostalservice-a77078", "operator": "United States Postal Service", "operator:short": "USPS", "operator:type": "public", "operator:wikidata": "Q668687", "ref": "7838500002"}, "type": "Feature"}
{"geometry": {"coordinates": [-97.516578839, 28.036637305], "type": "Point"}, "id": "5Q0YZBqzomdEG8ixTxftGguSyMk=", "properties": {"@source_uri": "https://tools.usps.com/UspsToolsRestServices/rest/POLocator/findLocations", "@spider": "usps_collection_boxes", "addr:city": "SINTON", "addr:country": "US", "addr:postcode": "78387", "addr:state": "TX", "addr:street_address": "104 S SAN PATRICIO ST", "amenity": "post_box", "brand": "United States Postal Service", "brand:wikidata": "Q668687", "collection_times": "Mo-Fr 16:45; Sa 14:00", "note": "ON 12/24 AND 12/31, THIS BOX MAY BE COLLECTED AS EARLY AS 12 NOON.", "nsi_id": "unitedstatespostalservice-a77078", "operator": "United States Postal Service", "operator:short": "USPS", "operator:type": "public", "operator:wikidata": "Q668687", "ref": "7838700002"}, "type": "Feature"}
{"geometry": {"coordinates": [-97.516578839, 28.036637305], "type": "Point"}, "id": "oQTX3YDX1oGt1iL5MR9L0QjItxk=", "properties": {"@source_uri": "https://tools.usps.com/UspsToolsRestServices/rest/POLocator/findLocations", "@spider": "usps_collection_boxes", "addr:city": "SINTON", "addr:country": "US", "addr:postcode": "78387", "addr:state": "TX", "addr:street_address": "104 S SAN PATRICIO ST", "amenity": "post_box", "brand": "United States Postal Service", "brand:wikidata": "Q668687", "collection_times": "Mo-Fr 16:15; Sa 12:00", "indoor": "yes", "note": "ON 12/24 AND 12/31, THIS BOX MAY BE COLLECTED AS EARLY AS 12 NOON.", "nsi_id": "unitedstatespostalservice-a77078", "operator": "United States Postal Service", "operator:short": "USPS", "operator:type": "public", "operator:wikidata": "Q668687", "ref": "7838700004"}, "type": "Feature"}
{"geometry": {"coordinates": [-97.516578839, 28.036637305], "type": "Point"}, "id": "O6FlUVtIhkyIc50W-3tGlCB1Hfo=", "properties": {"@source_uri": "https://tools.usps.com/UspsToolsRestServices/rest/POLocator/findLocations", "@spider": "usps_collection_boxes", "addr:city": "SINTON", "addr:country": "US", "addr:postcode": "78387", "addr:state": "TX", "addr:street_address": "104 S SAN PATRICIO ST", "amenity": "post_box", "brand": "United States Postal Service", "brand:wikidata": "Q668687", "collection_times": "Mo-Fr 16:15; Sa 12:00", "indoor": "yes", "note": "ON 12/24 AND 12/31, THIS BOX MAY BE COLLECTED AS EARLY AS 12 NOON.", "nsi_id": "unitedstatespostalservice-a77078", "operator": "United States Postal Service", "operator:short": "USPS", "operator:type": "public", "operator:wikidata": "Q668687", "ref": "7838700006"}, "type": "Feature"}
{"geometry": {"coordinates": [-97.514131535, 28.036738025], "type": "Point"}, "id": "mc9R1ZeXZyDmXcWU_JJlPRWhsnA=", "properties": {"@source_uri": "https://tools.usps.com/UspsToolsRestServices/rest/POLocator/findLocations", "@spider": "usps_collection_boxes", "addr:city": "SINTON", "addr:country": "US", "addr:postcode": "78387", "addr:state": "TX", "addr:street_address": "400 W SINTON ST", "amenity": "post_box", "brand": "United States Postal Service", "brand:wikidata": "Q668687", "collection_times": "Mo-Fr 15:00; Sa 12:00", "note": "ON 12/24 AND 12/31, THIS BOX MAY BE COLLECTED AS EARLY AS 12 NOON.", "nsi_id": "unitedstatespostalservice-a77078", "operator": "United States Postal Service", "operator:short": "USPS", "operator:type": "public", "operator:wikidata": "Q668687", "ref": "7838700007"}, "type": "Feature"}
{"geometry": {"coordinates": [-97.514131535, 28.036738025], "type": "Point"}, "id": "NEUJFT8itSFHm8ytw-stE3zXxpY=", "properties": {"@source_uri": "https://tools.usps.com/UspsToolsRestServices/rest/POLocator/findLocations", "@spider": "usps_collection_boxes", "addr:city": "SINTON", "addr:country": "US", "addr:postcode": "78387", "addr:state": "TX", "addr:street_address": "400 W SINTON ST", "amenity": "post_box", "brand": "United States Postal Service", "brand:wikidata": "Q668687", "collection_times": "Mo-Fr 15:00; Sa 12:00", "note": "ON 12/24 AND 12/31, THIS BOX MAY BE COLLECTED AS EARLY AS 12 NOON.", "nsi_id": "unitedstatespostalservice-a77078", "operator": "United States Postal Service", "operator:short": "USPS", "operator:type": "public", "operator:wikidata": "Q668687", "ref": "7838700009"}, "type": "Feature"}
{"geometry": {"coordinates": [-97.516578839, 28.036637305], "type": "Point"}, "id": "2ntzuSrxh56IaeLG0L77Vy9NbBc=", "properties": {"@source_uri": "https://tools.usps.com/UspsToolsRestServices/rest/POLocator/findLocations", "@spider": "usps_collection_boxes", "addr:city": "SINTON", "addr:country": "US", "addr:postcode": "78387", "addr:state": "TX", "addr:street_address": "104 S SAN PATRICIO ST", "amenity": "post_box", "brand": "United States Postal Service", "brand:wikidata": "Q668687", "collection_times": "Mo-Fr 16:30; Sa 12:00", "indoor": "yes", "note": "ON 12/24 AND 12/31, THIS BOX MAY BE COLLECTED AS EARLY AS 12 NOON.", "nsi_id": "unitedstatespostalservice-a77078", "operator": "United States Postal Service", "operator:short": "USPS", "operator:type": "public", "operator:wikidata": "Q668687", "ref": "7838700011"}, "type": "Feature"}
{"geometry": {"coordinates": [-97.684280014, 28.252189987], "type": "Point"}, "id": "-K4P1hhgqIA-T7Z54vFRGfHNgoU=", "properties": {"@source_uri": "https://tools.usps.com/UspsToolsRestServices/rest/POLocator/findLocations", "@spider": "usps_collection_boxes", "addr:city": "SKIDMORE", "addr:country": "US", "addr:postcode": "78389", "addr:state": "TX", "addr:street_address": "122 E PATRICIO ST", "amenity": "post_box", "brand": "United States Postal Service", "brand:wikidata": "Q668687", "collection_times": "Mo-Fr 14:30; Sa 09:30", "note": "ON 12/24 AND 12/31, THIS BOX MAY BE COLLECTED AS EARLY AS 12 NOON.", "nsi_id": "unitedstatespostalservice-a77078", "operator": "United States Postal Service", "operator:short": "USPS", "operator:type": "public", "operator:wikidata": "Q668687", "ref": "7838900001"}, "type": "Feature"}
{"geometry": {"coordinates": [-97.684280014, 28.252189987], "type": "Point"}, "id": "wItxfNXvNAzum3TlFWywRjzPo_k=", "properties": {"@source_uri": "https://tools.usps.com/UspsToolsRestServices/rest/POLocator/findLocations", "@spider": "usps_collection_boxes", "addr:city": "SKIDMORE", "addr:country": "US", "addr:postcode": "78389", "addr:state": "TX", "addr:street_address": "122 E PATRICIO ST", "amenity": "post_box", "brand": "United States Postal Service", "brand:wikidata": "Q668687", "collection_times": "Mo-Fr 14:30; Sa 09:30", "indoor": "yes", "note": "ON 12/24 AND 12/31, THIS BOX MAY BE COLLECTED AS EARLY AS 12 NOON.", "nsi_id": "unitedstatespostalservice-a77078", "operator": "United States Postal Service", "operator:short": "USPS", "operator:type": "public", "operator:wikidata": "Q668687", "ref": "7838900003"}, "type": "Feature"}
{"geometry": {"coordinates": [-97.684280014, 28.252189987], "type": "Point"}, "id": "Vj14oLClH5FE7wKQ8jLNZIoACXs=", "properties": {"@source_uri": "https://tools.usps.com/UspsToolsRestServices/rest/POLocator/findLocations", "@spider": "usps_collection_boxes", "addr:city": "SKIDMORE", "addr:country": "US", "addr:postcode": "78389", "addr:state": "TX", "addr:street_address": "122 E PATRICIO ST", "amenity": "post_box", "brand": "United States Postal Service", "brand:wikidata": "Q668687", "collection_times": "Mo-Fr 15:00; Sa 10:00", "indoor": "yes", "note": "ON 12/24 AND 12/31, THIS BOX MAY BE COLLECTED AS EARLY AS 12 NOON.", "nsi_id": "unitedstatespostalservice-a77078", "operator": "United States Postal Service", "operator:short": "USPS", "operator:type": "public", "operator:wikidata": "Q668687", "ref": "7838900004"}, "type": "Feature"}
{"geometry": {"coordinates": [-97.399825, 27.97404], "type": "Point"}, "id": "6NhbgnqVWzw-On0vUnbf0b4fQaQ=", "properties": {"@source_uri": "https://tools.usps.com/UspsToolsRestServices/rest/POLocator/findLocations", "@spider": "usps_collection_boxes", "addr:city": "TAFT", "addr:country": "US", "addr:postcode": "78390", "addr:state": "TX", "addr:street_address": "110 VICTORIA AVE", "amenity": "post_box", "brand": "United States Postal Service", "brand:wikidata": "Q668687", "collection_times": "Mo-Fr 15:45; Sa 10:45", "indoor": "yes", "note": "ON 12/24 AND 12/31, THIS BOX MAY BE COLLECTED AS EARLY AS 12 NOON.", "nsi_id": "unitedstatespostalservice-a77078", "operator": "United States Postal Service", "operator:short": "USPS", "operator:type": "public", "operator:wikidata": "Q668687", "ref": "7839000005"}, "type": "Feature"}
{"geometry": {"coordinates": [-97.399825, 27.97404], "type": "Point"}, "id": "6oLak0coudKHDrsEBvB2EbuC2wA=", "properties": {"@source_uri": "https://tools.usps.com/UspsToolsRestServices/rest/POLocator/findLocations", "@spider": "usps_collection_boxes", "addr:city": "TAFT", "addr:country": "US", "addr:postcode": "78390", "addr:state": "TX", "addr:street_address": "110 VICTORIA AVE", "amenity": "post_box", "brand": "United States Postal Service", "brand:wikidata": "Q668687", "collection_times": "Mo-Fr 15:45; Sa 10:45", "note": "ON 12/24 AND 12/31, THIS BOX MAY BE COLLECTED AS EARLY AS 12 NOON.", "nsi_id": "unitedstatespostalservice-a77078", "operator": "United States Postal Service", "operator:short": "USPS", "operator:type": "public", "operator:wikidata": "Q668687", "ref": "7839000007"}, "type": "Feature"}
{"geometry": {"coordinates": [-97.399825, 27.97404], "type": "Point"}, "id": "b2vTgo1plvM6CIpzYwqM4h_TSk4=", "properties": {"@source_uri": "https://tools.usps.com/UspsToolsRestServices/rest/POLocator/findLocations", "@spider": "usps_collection_boxes", "addr:city": "TAFT", "addr:country": "US", "addr:postcode": "78390", "addr:state": "TX", "addr:street_address": "110 VICTORIA AVE", "amenity": "post_box", "brand": "United States Postal Service", "brand:wikidata": "Q668687", "collection_times": "Mo-Fr 16:00; Sa 11:00", "indoor": "yes", "note": "ON 12/24 AND 12/31, THIS BOX MAY BE COLLECTED AS EARLY AS 12 NOON.", "nsi_id": "unitedstatespostalservice-a77078", "operator": "United States Postal Service", "operator:short": "USPS", "operator:type": "public", "operator:wikidata": "Q668687", "ref": "7839000009"}, "type": "Feature"}
{"geometry": {"coordinates": [-97.75785275, 28.168677811], "type": "Point"}, "id": "tMdH-hwqyvf1q9wd7kIigBVIvW8=", "properties": {"@source_uri": "https://tools.usps.com/UspsToolsRestServices/rest/POLocator/findLocations", "@spider": "usps_collection_boxes", "addr:city": "TYNAN", "addr:country": "US", "addr:postcode": "78391", "addr:state": "TX", "addr:street_address": "504 HIGHWAY 359", "amenity": "post_box", "brand": "United States Postal Service", "brand:wikidata": "Q668687", "collection_times": "Mo-Fr 11:30; Sa 09:00", "indoor": "yes", "nsi_id": "unitedstatespostalservice-a77078", "operator": "United States Postal Service", "operator:short": "USPS", "operator:type": "public", "operator:wikidata": "Q668687", "ref": "7839100000"}, "type": "Feature"}
{"geometry": {"coordinates": [-97.75785275, 28.168677811], "type": "Point"}, "id": "aLzOjsGLsAeHkotIKOit0gx6v8o=", "properties": {"@source_uri": "https://tools.usps.com/UspsToolsRestServices/rest/POLocator/findLocations", "@spider": "usps_collection_boxes", "addr:city": "TYNAN", "addr:country": "US", "addr:postcode": "78391", "addr:state": "TX", "addr:street_address": "504 HIGHWAY 359", "amenity": "post_box", "brand": "United States Postal Service", "brand:wikidata": "Q668687", "collection_times": "Mo-Fr 11:45; Sa 09:15", "nsi_id": "unitedstatespostalservice-a77078", "operator": "United States Postal Service", "operator:short": "USPS", "operator:type": "public", "operator:wikidata": "Q668687", "ref": "7839100001"}, "type": "Feature"}
{"geometry": {"coordinates": [-97.757877922, 28.1686512], "type": "Point"}, "id": "dW0OYjVn7vjmz5cyPSvW9O91OgU=", "properties": {"@source_uri": "https://tools.usps.com/UspsToolsRestServices/rest/POLocator/findLocations", "@spider": "usps_collection_boxes", "addr:city": "TYNAN", "addr:country": "US", "addr:postcode": "78391", "addr:state": "TX", "addr:street_address": "508 HIGHWAY 359", "amenity": "post_box", "brand": "United States Postal Service", "brand:wikidata": "Q668687", "collection_times": "Mo-Fr 12:00; Sa 09:30", "indoor": "yes", "nsi_id": "unitedstatespostalservice-a77078", "operator": "United States Postal Service", "operator:short": "USPS", "operator:type": "public", "operator:wikidata": "Q668687", "ref": "7839100003"}, "type": "Feature"}
{"geometry": {"coordinates": [-97.328917998, 28.241020012], "type": "Point"}, "id": "UGh3AL8OJafD71Tf9xWSPmAp1_k=", "properties": {"@source_uri": "https://tools.usps.com/UspsToolsRestServices/rest/POLocator/findLocations", "@spider": "usps_collection_boxes", "addr:city": "WOODSBORO", "addr:country": "US", "addr:postcode": "78393", "addr:state": "TX", "addr:street_address": "501 FIRST ST", "amenity": "post_box", "brand": "United States Postal Service", "brand:wikidata": "Q668687", "collection_times": "Mo-Fr 16:00; Sa 08:30", "note": "ON 12/24 AND 12/31, THIS BOX MAY BE COLLECTED AS EARLY AS 12 NOON.", "nsi_id": "unitedstatespostalservice-a77078", "operator": "United States Postal Service", "operator:short": "USPS", "operator:type": "public", "operator:wikidata": "Q668687", "ref": "7839300001"}, "type": "Feature"}
{"geometry": {"coordinates": [-97.328917998, 28.241020012], "type": "Point"}, "id": "qboKFvlAObGB8NdwNDcUmczVnls=", "properties": {"@source_uri": "https://tools.usps.com/UspsToolsRestServices/rest/POLocator/findLocations", "@spider": "usps_collection_boxes", "addr:city": "WOODSBORO", "addr:country": "US", "addr:postcode": "78393", "addr:state": "TX", "addr:street_address": "501 FIRST ST", "amenity": "post_box", "brand": "United States Postal Service", "brand:wikidata": "Q668687", "collection_times": "Mo-Fr 16:00; Sa 08:30", "indoor": "yes", "note": "ON 12/24 AND 12/31, THIS BOX MAY BE COLLECTED AS EARLY AS 12 NOON.", "nsi_id": "unitedstatespostalservice-a77078", "operator": "United States Postal Service", "operator:short": "USPS", "operator:type": "public", "operator:wikidata": "Q668687", "ref": "7839300005"}, "type": "Feature"}
{"geometry": {"coordinates": [-97.328917998, 28.241020012], "type": "Point"}, "id": "EwiPfd36yJ9uIYEm2ejNd1mIH4E=", "properties": {"@source_uri": "https://tools.usps.com/UspsToolsRestServices/rest/POLocator/findLocations", "@spider": "usps_collection_boxes", "addr:city": "WOODSBORO", "addr:country": "US", "addr:postcode": "78393", "addr:state": "TX", "addr:street_address": "501 FIRST ST", "amenity": "post_box", "brand": "United States Postal Service", "brand:wikidata": "Q668687", "collection_times": "Mo-Fr 16:30", "indoor": "yes", "note": "ON 12/24 AND 12/31, THIS BOX MAY BE COLLECTED AS EARLY AS 12 NOON.", "nsi_id": "unitedstatespostalservice-a77078", "operator": "United States Postal Service", "operator:short": "USPS", "operator:type": "public", "operator:wikidata": "Q668687", "ref": "7839300006"}, "type": "Feature"}
