{"geometry": {"coordinates": [-97.400250005, 27.795030008], "type": "Point"}, "id": "4QLz9_WIT1K7hrQsvweSGac-3-w=", "properties": {"@source_uri": "https://tools.usps.com/UspsToolsRestServices/rest/POLocator/findLocations", "@spider": "usps_collection_boxes", "addr:city": "CORPUS CHRISTI", "addr:country": "US", "addr:postcode": "78401", "addr:state": "TX", "addr:street_address": "901 LEOPARD ST", "amenity": "post_box", "brand": "United States Postal Service", "brand:wikidata": "Q668687", "collection_times": "Mo-Fr 16:30; Sa 15:05", "note": "ON 12/24 AND 12/31, THIS BOX MAY BE COLLECTED AS EARLY AS 12 NOON.", "nsi_id": "unitedstatespostalservice-a77078", "operator": "United States Postal Service", "operator:short": "USPS", "operator:type": "public", "operator:wikidata": "Q668687", "ref": "7840100000"}, "type": "Feature"}
{"geometry": {"coordinates": [-97.394191985, 27.793472986], "type": "Point"}, "id": "OEHMgVOYttrt2KSNBhPOIr700Po=", "properties": {"@source_uri": "https://tools.usps.com/UspsToolsRestServices/rest/POLocator/findLocations", "@spider": "usps_collection_boxes", "addr:city": "CORPUS CHRISTI", "addr:country": "US", "addr:postcode": "78401", "addr:state": "TX", "addr:street_address": "209 N WATER ST", "amenity": "post_box", "brand": "United States Postal Service", "brand:wikidata": "Q668687", "collection_times": "Mo-Fr 15:45; Sa 15:50", "note": "ON 12/24 AND 12/31, THIS BOX MAY BE COLLECTED AS EARLY AS 12 NOON.", "nsi_id": "unitedstatespostalservice-a77078", "operator": "United States Postal Service", "operator:short": "USPS", "operator:type": "public", "operator:wikidata": "Q668687", "ref": "7840100002"}, "type": "Feature"}
{"geometry": {"coordinates": [-97.393544986, 27.796661001], "type": "Point"}, "id": "AMz4la-y_Oybv7iAx7Jw7Cnxh6g=", "properties": {"@source_uri": "https://tools.usps.com/UspsToolsRestServices/rest/POLocator/findLocations", "@spider": "usps_collection_boxes", "addr:city": "CORPUS CHRISTI", "addr:country": "US", "addr:postcode": "78401", "addr:state": "TX", "addr:street_address": "317 PEOPLES ST", "amenity": "post_box", "brand": "United States Postal Service", "brand:wikidata": "Q668687", "collection_times": "Mo-Fr 16:15; Sa 15:45", "note": "ON 12/24 AND 12/31, THIS BOX MAY BE COLLECTED AS EARLY AS 12 NOON.", "nsi_id": "unitedstatespostalservice-a77078", "operator": "United States Postal Service", "operator:short": "USPS", "operator:type": "public", "operator:wikidata": "Q668687", "ref": "7840100003"}, "type": "Feature"}
{"geometry": {"coordinates": [-97.3941230017, 27.7969549959], "type": "Point"}, "id": "iR6hUs6c52aYoTcyUzGOrMOPkkw=", "properties": {"@source_uri": "https://tools.usps.com/UspsToolsRestServices/rest/POLocator/findLocations", "@spider": "usps_collection_boxes", "addr:city": "CORPUS CHRISTI", "addr:country": "US", "addr:postcode": "78401", "addr:state": "TX", "addr:street_address": "402 PEOPLES ST", "amenity": "post_box", "brand": "United States Postal Service", "brand:wikidata": "Q668687", "collection_times": "Mo-Fr 16:15; Sa 15:45", "note": "ON 12/24 AND 12/31, THIS BOX MAY BE COLLECTED AS EARLY AS 12 NOON.", "nsi_id": "unitedstatespostalservice-a77078", "operator": "United States Postal Service", "operator:short": "USPS", "operator:type": "public", "operator:wikidata": "Q668687", "ref": "7840100007"}, "type": "Feature"}
{"geometry": {"coordinates": [-97.400855, 27.792655], "type": "Point"}, "id": "2LWrWHdDM4B85YTpwdKl3Efx3ic=", "properties": {"@source_uri": "https://tools.usps.com/UspsToolsRestServices/rest/POLocator/findLocations", "@spider": "usps_collection_boxes", "addr:city": "CORPUS CHRISTI", "addr:country": "US", "addr:postcode": "78401", "addr:state": "TX", "addr:street_address": "719 S SHORELINE BLVD", "amenity": "post_box", "brand": "United States Postal Service", "brand:wikidata": "Q668687", "collection_times": "Mo-Sa 16:00", "note": "ON 12/24 AND 12/31, THIS BOX MAY BE COLLECTED AS EARLY AS 12 NOON.", "nsi_id": "unitedstatespostalservice-a77078", "operator": "United States Postal Service", "operator:short": "USPS", "operator:type": "public", "operator:wikidata": "Q668687", "ref": "7840100012"}, "type": "Feature"}
{"geometry": {"coordinates": [-97.403812985, 27.787640983], "type": "Point"}, "id": "ujf3ZO7WZFaLqOWQLJY3jd32wg4=", "properties": {"@source_uri": "https://tools.usps.com/UspsToolsRestServices/rest/POLocator/findLocations", "@spider": "usps_collection_boxes", "addr:city": "CORPUS CHRISTI", "addr:country": "US", "addr:postcode": "78401", "addr:state": "TX", "addr:street_address": "1201 AGNES ST", "amenity": "post_box", "brand": "United States Postal Service", "brand:wikidata": "Q668687", "collection_times": "Mo-Fr 16:15; Sa 14:55", "note": "ON 12/24 AND 12/31, THIS BOX MAY BE COLLECTED AS EARLY AS 12 NOON.", "nsi_id": "unitedstatespostalservice-a77078", "operator": "United States Postal Service", "operator:short": "USPS", "operator:type": "public", "operator:wikidata": "Q668687", "ref": "7840100016"}, "type": "Feature"}
{"geometry": {"coordinates": [-97.392667987, 27.80301398], "type": "Point"}, "id": "wKsg7DWTxto33ywmvJqSI12erVY=", "properties": {"@source_uri": "https://tools.usps.com/UspsToolsRestServices/rest/POLocator/findLocations", "@spider": "usps_collection_boxes", "addr:city": "CORPUS CHRISTI", "addr:country": "US", "addr:postcode": "78401", "addr:state": "TX", "addr:street_address": "1201 N SHORELINE BLVD", "amenity": "post_box", "brand": "United States Postal Service", "brand:wikidata": "Q668687", "collection_times": "Mo-Fr 16:45; Sa 16:05", "note": "ON 12/24 AND 12/31, THIS BOX MAY BE COLLECTED AS EARLY AS 12 NOON.", "nsi_id": "unitedstatespostalservice-a77078", "operator": "United States Postal Service", "operator:short": "USPS", "operator:type": "public", "operator:wikidata": "Q668687", "ref": "7840100019"}, "type": "Feature"}
{"geometry": {"coordinates": [-97.403082825, 27.796466569], "type": "Point"}, "id": "L8vHfmN0BoYG-EwiaZ1cszSHYiQ=", "properties": {"@source_uri": "https://tools.usps.com/UspsToolsRestServices/rest/POLocator/findLocations", "@spider": "usps_collection_boxes", "addr:city": "CORPUS CHRISTI", "addr:country": "US", "addr:postcode": "78401", "addr:state": "TX", "addr:street_address": "1200 LEOPARD ST", "amenity": "post_box", "brand": "United States Postal Service", "brand:wikidata": "Q668687", "collection_times": "Mo-Fr 16:30; Sa 15:10", "note": "ON 12/24 AND 12/31, THIS BOX MAY BE COLLECTED AS EARLY AS 12 NOON.", "nsi_id": "unitedstatespostalservice-a77078", "operator": "United States Postal Service", "operator:short": "USPS", "operator:type": "public", "operator:wikidata": "Q668687", "ref": "7840100025"}, "type": "Feature"}
{"geometry": {"coordinates": [-97.395826037, 27.797973984], "type": "Point"}, "id": "QsvuWljOAd24rBcS6B2bJEjUE5k=", "properties": {"@source_uri": "https://tools.usps.com/UspsToolsRestServices/rest/POLocator/findLocations", "@spider": "usps_collection_boxes", "addr:city": "CORPUS CHRISTI", "addr:country": "US", "addr:postcode": "78401", "addr:state": "TX", "addr:street_address": "520 STARR ST", "amenity": "post_box", "brand": "United States Postal Service", "brand:wikidata": "Q668687", "collection_times": "Mo-Fr 16:15; Sa 15:25", "note": "ON 12/24 AND 12/31, THIS BOX MAY BE COLLECTED AS EARLY AS 12 NOON.", "nsi_id": "unitedstatespostalservice-a77078", "operator": "United States Postal Service", "operator:short": "USPS", "operator:type": "public", "operator:wikidata": "Q668687", "ref": "7840100030"}, "type": "Feature"}
{"geometry": {"coordinates": [-97.394590041, 27.800789004], "type": "Point"}, "id": "g9HI2tLQIal3doC-0-G4QplZIe4=", "properties": {"@source_uri": "https://tools.usps.com/UspsToolsRestServices/rest/POLocator/findLocations", "@spider": "usps_collection_boxes", "addr:city": "CORPUS CHRISTI", "addr:country": "US", "addr:postcode": "78401", "addr:state": "TX", "addr:street_address": "400 MANN ST", "amenity": "post_box", "brand": "United States Postal Service", "brand:wikidata": "Q668687", "collection_times": "Mo-Fr 16:45; Sa 16:10", "note": "ON 12/24 AND 12/31, THIS BOX MAY BE COLLECTED AS EARLY AS 12 NOON.", "nsi_id": "unitedstatespostalservice-a77078", "operator": "United States Postal Service", "operator:short": "USPS", "operator:type": "public", "operator:wikidata": "Q668687", "ref": "7840100032"}, "type": "Feature"}
{"geometry": {"coordinates": [-97.396870003, 27.797642982], "type": "Point"}, "id": "cZ4XBebq91abLF5hXSjKQnMpDaM=", "properties": {"@source_uri": "https://tools.usps.com/UspsToolsRestServices/rest/POLocator/findLocations", "@spider": "usps_collection_boxes", "addr:city": "CORPUS CHRISTI", "addr:country": "US", "addr:postcode": "78401", "addr:state": "TX", "addr:street_address": "802 N CARANCAHUA ST", "amenity": "post_box", "brand": "United States Postal Service", "brand:wikidata": "Q668687", "collection_times": "Mo-Fr 17:15", "note": "ON 12/24 AND 12/31, THIS BOX MAY BE COLLECTED AS EARLY AS 12 NOON.", "nsi_id": "unitedstatespostalservice-a77078", "operator": "United States Postal Service", "operator:short": "USPS", "operator:type": "public", "operator:wikidata": "Q668687", "ref": "7840100044"}, "type": "Feature"}
{"geometry": {"coordinates": [-97.396445699, 27.795148772], "type": "Point"}, "id": "63mSm8WJLw6JtzXEkcSjXqhaWVM=", "properties": {"@source_uri": "https://tools.usps.com/UspsToolsRestServices/rest/POLocator/findLocations", "@spider": "usps_collection_boxes", "addr:city": "CORPUS CHRISTI", "addr:country": "US", "addr:postcode": "78401", "addr:state": "TX", "addr:street_address": "545 N UPPER BROADWAY ST", "amenity": "post_box", "brand": "United States Postal Service", "brand:wikidata": "Q668687", "collection_times": "Mo-Fr 17:15", "note": "ON 12/24 AND 12/31, THIS BOX MAY BE COLLECTED AS EARLY AS 12 NOON.", "nsi_id": "unitedstatespostalservice-a77078", "operator": "United States Postal Service", "operator:short": "USPS", "operator:type": "public", "operator:wikidata": "Q668687", "ref": "7840100049"}, "type": "Feature"}
{"geometry": {"coordinates": [-97.393523025, 27.791903013], "type": "Point"}, "id": "fyu_6NoMWJqwGj8UKi-YGnIdUaA=", "properties": {"@source_uri": "https://tools.usps.com/UspsToolsRestServices/rest/POLocator/findLocations", "@spider": "usps_collection_boxes", "addr:city": "CORPUS CHRISTI", "addr:country": "US", "addr:postcode": "78401", "addr:state": "TX", "addr:street_address": "101 N SHORELINE BLVD", "amenity": "post_box", "brand": "United States Postal Service", "brand:wikidata": "Q668687", "collection_times": "Mo-Fr 17:00; Sa 15:55", "note": "ON 12/24 AND 12/31, THIS BOX MAY BE COLLECTED AS EARLY AS 12 NOON.", "nsi_id": "unitedstatespostalservice-a77078", "operator": "United States Postal Service", "operator:short": "USPS", "operator:type": "public", "operator:wikidata": "Q668687", "ref": "7840100055"}, "type": "Feature"}
{"geometry": {"coordinates": [-97.397980018, 27.797953993], "type": "Point"}, "id": "PY9jvwWvgtw4hixianNqZDqo834=", "properties": {"@source_uri": "https://tools.usps.com/UspsToolsRestServices/rest/POLocator/findLocations", "@spider": "usps_collection_boxes", "addr:city": "CORPUS CHRISTI", "addr:country": "US", "addr:postcode": "78401", "addr:state": "TX", "addr:street_address": "802 N TANCAHUA ST", "amenity": "post_box", "brand": "United States Postal Service", "brand:wikidata": "Q668687", "collection_times": "Mo-Fr 17:00", "indoor": "yes", "note": "ON 12/24 AND 12/31, THIS BOX MAY BE COLLECTED AS EARLY AS 12 NOON.", "nsi_id": "unitedstatespostalservice-a77078", "operator": "United States Postal Service", "operator:short": "USPS", "operator:type": "public", "operator:wikidata": "Q668687", "ref": "7840100058"}, "type": "Feature"}
{"geometry": {"coordinates": [-97.397980018, 27.797953993], "type": "Point"}, "id": "jrxZktv6TPAJCaNuilPoW1cRg8s=", "properties": {"@source_uri": "https://tools.usps.com/UspsToolsRestServices/rest/POLocator/findLocations", "@spider": "usps_collection_boxes", "addr:city": "CORPUS CHRISTI", "addr:country": "US", "addr:postcode": "78401", "addr:state": "TX", "addr:street_address": "802 N TANCAHUA ST", "amenity": "post_box", "brand": "United States Postal Service", "brand:wikidata": "Q668687", "collection_times": "Mo-Fr 17:00", "indoor": "yes", "note": "ON 12/24 AND 12/31, THIS BOX MAY BE COLLECTED AS EARLY AS 12 NOON.", "nsi_id": "unitedstatespostalservice-a77078", "operator": "United States Postal Service", "operator:short": "USPS", "operator:type": "public", "operator:wikidata": "Q668687", "ref": "7840100059"}, "type": "Feature"}
{"geometry": {"coordinates": [-97.397980018, 27.797953993], "type": "Point"}, "id": "L6NxMrhLPYEtSCQCTDjDY--s0r4=", "properties": {"@source_uri": "https://tools.usps.com/UspsToolsRestServices/rest/POLocator/findLocations", "@spider": "usps_collection_boxes", "addr:city": "CORPUS CHRISTI", "addr:country": "US", "addr:postcode": "78401", "addr:state": "TX", "addr:street_address": "802 N TANCAHUA ST", "amenity": "post_box", "brand": "United States Postal Service", "brand:wikidata": "Q668687", "collection_times": "Mo-Fr 17:15; Sa 15:15", "note": "ON 12/24 AND 12/31, THIS BOX MAY BE COLLECTED AS EARLY AS 12 NOON.", "nsi_id": "unitedstatespostalservice-a77078", "operator": "United States Postal Service", "operator:short": "USPS", "operator:type": "public", "operator:wikidata": "Q668687", "ref": "7840100060"}, "type": "Feature"}
{"geometry": {"coordinates": [-97.397830988, 27.794842002], "type": "Point"}, "id": "VL9X9-MtwuPIuL2bl7rLXNMm8bg=", "properties": {"@source_uri": "https://tools.usps.com/UspsToolsRestServices/rest/POLocator/findLocations", "@spider": "usps_collection_boxes", "addr:city": "CORPUS CHRISTI", "addr:country": "US", "addr:postcode": "78401", "addr:state": "TX", "addr:street_address": "539 N CARANCAHUA ST", "amenity": "post_box", "brand": "United States Postal Service", "brand:wikidata": "Q668687", "collection_times": "Mo-Fr 17:00", "note": "ON 12/24 AND 12/31, THIS BOX MAY BE COLLECTED AS EARLY AS 12 NOON.", "nsi_id": "unitedstatespostalservice-a77078", "operator": "United States Postal Service", "operator:short": "USPS", "operator:type": "public", "operator:wikidata": "Q668687", "ref": "7840100064"}, "type": "Feature"}
{"geometry": {"coordinates": [-97.397980018, 27.797953993], "type": "Point"}, "id": "bB_NEMYqAfd3MZleBCt96lOpdO8=", "properties": {"@source_uri": "https://tools.usps.com/UspsToolsRestServices/rest/POLocator/findLocations", "@spider": "usps_collection_boxes", "addr:city": "CORPUS CHRISTI", "addr:country": "US", "addr:postcode": "78401", "addr:state": "TX", "addr:street_address": "802 N TANCAHUA ST", "amenity": "post_box", "brand": "United States Postal Service", "brand:wikidata": "Q668687", "collection_times": "Mo-Fr 17:00", "indoor": "yes", "note": "ON 12/24 AND 12/31, THIS BOX MAY BE COLLECTED AS EARLY AS 12 NOON.", "nsi_id": "unitedstatespostalservice-a77078", "operator": "United States Postal Service", "operator:short": "USPS", "operator:type": "public", "operator:wikidata": "Q668687", "ref": "7840100066"}, "type": "Feature"}
{"geometry": {"coordinates": [-97.3887989844, 27.8151589808], "type": "Point"}, "id": "bJyUQAdTVSbmWHekHgb4aBZ_ECI=", "properties": {"@source_uri": "https://tools.usps.com/UspsToolsRestServices/rest/POLocator/findLocations", "@spider": "usps_collection_boxes", "addr:city": "CORPUS CHRISTI", "addr:country": "US", "addr:postcode": "78402", "addr:state": "TX", "addr:street_address": "2914 N SHORELINE BLVD", "amenity": "post_box", "brand": "United States Postal Service", "brand:wikidata": "Q668687", "collection_times": "Mo-Fr 15:30; Sa 15:35", "note": "ON 12/24 AND 12/31, THIS BOX MAY BE COLLECTED AS EARLY AS 12 NOON.", "nsi_id": "unitedstatespostalservice-a77078", "operator": "United States Postal Service", "operator:short": "USPS", "operator:type": "public", "operator:wikidata": "Q668687", "ref": "7840200003"}, "type": "Feature"}
{"geometry": {"coordinates": [-97.395604, 27.776993996], "type": "Point"}, "id": "oDWZlXXMRcuWKhPNtlgtl5Ayzfk=", "properties": {"@source_uri": "https://tools.usps.com/UspsToolsRestServices/rest/POLocator/findLocations", "@spider": "usps_collection_boxes", "addr:city": "CORPUS CHRISTI", "addr:country": "US", "addr:postcode": "78404", "addr:state": "TX", "addr:street_address": "613 ELIZABETH ST", "amenity": "post_box", "brand": "United States Postal Service", "brand:wikidata": "Q668687", "collection_times": "Mo-Fr 16:30; Sa 13:00", "note": "ON 12/24 AND 12/31, THIS BOX MAY BE COLLECTED AS EARLY AS 12 NOON.", "nsi_id": "unitedstatespostalservice-a77078", "operator": "United States Postal Service", "operator:short": "USPS", "operator:type": "public", "operator:wikidata": "Q668687", "ref": "7840400015"}, "type": "Feature"}
{"geometry": {"coordinates": [-97.3917540244, 27.7568439849], "type": "Point"}, "id": "owmPQGV0MFOe9kjZMoAcY6aQGNU=", "properties": {"@source_uri": "https://tools.usps.com/UspsToolsRestServices/rest/POLocator/findLocations", "@spider": "usps_collection_boxes", "addr:city": "CORPUS CHRISTI", "addr:country": "US", "addr:postcode": "78404", "addr:state": "TX", "addr:street_address": "3133 S ALAMEDA ST", "amenity": "post_box", "brand": "United States Postal Service", "brand:wikidata": "Q668687", "collection_times": "Mo-Fr 16:00; Sa 13:00", "note": "ON 12/24 AND 12/31, THIS BOX MAY BE COLLECTED AS EARLY AS 12 NOON.", "nsi_id": "unitedstatespostalservice-a77078", "operator": "United States Postal Service", "operator:short": "USPS", "operator:type": "public", "operator:wikidata": "Q668687", "ref": "7840400017"}, "type": "Feature"}
{"geometry": {"coordinates": [-97.399657991, 27.774311997], "type": "Point"}, "id": "OsUzm9FyxhrM5-V4gef5EnCtVko=", "properties": {"@source_uri": "https://tools.usps.com/UspsToolsRestServices/rest/POLocator/findLocations", "@spider": "usps_collection_boxes", "addr:city": "CORPUS CHRISTI", "addr:country": "US", "addr:postcode": "78404", "addr:state": "TX", "addr:street_address": "902 AYERS ST", "amenity": "post_box", "brand": "United States Postal Service", "brand:wikidata": "Q668687", "collection_times": "Mo-Fr 16:30; Sa 13:15", "indoor": "yes", "note": "ON 12/24 AND 12/31, THIS BOX MAY BE COLLECTED AS EARLY AS 12 NOON.", "nsi_id": "unitedstatespostalservice-a77078", "operator": "United States Postal Service", "operator:short": "USPS", "operator:type": "public", "operator:wikidata": "Q668687", "ref": "7840400024"}, "type": "Feature"}
{"geometry": {"coordinates": [-97.399657991, 27.774311997], "type": "Point"}, "id": "qUnY1fiujOwwgrdqQ-40TwEquA0=", "properties": {"@source_uri": "https://tools.usps.com/UspsToolsRestServices/rest/POLocator/findLocations", "@spider": "usps_collection_boxes", "addr:city": "CORPUS CHRISTI", "addr:country": "US", "addr:postcode": "78404", "addr:state": "TX", "addr:street_address": "902 AYERS ST", "amenity": "post_box", "brand": "United States Postal Service", "brand:wikidata": "Q668687", "collection_times": "Mo-Fr 16:30; Sa 13:15", "indoor": "yes", "note": "ON 12/24 AND 12/31, THIS BOX MAY BE COLLECTED AS EARLY AS 12 NOON.", "nsi_id": "unitedstatespostalservice-a77078", "operator": "United States Postal Service", "operator:short": "USPS", "operator:type": "public", "operator:wikidata": "Q668687", "ref": "7840400025"}, "type": "Feature"}
{"geometry": {"coordinates": [-97.399657991, 27.774311997], "type": "Point"}, "id": "vT1hYbNFHE4sTcpxOU0m7w6EBPg=", "properties": {"@source_uri": "https://tools.usps.com/UspsToolsRestServices/rest/POLocator/findLocations", "@spider": "usps_collection_boxes", "addr:city": "CORPUS CHRISTI", "addr:country": "US", "addr:postcode": "78404", "addr:state": "TX", "addr:street_address": "902 AYERS ST", "amenity": "post_box", "brand": "United States Postal Service", "brand:wikidata": "Q668687", "collection_times": "Mo-Fr 16:30; Sa 13:00", "indoor": "yes", "note": "ON 12/24 AND 12/31, THIS BOX MAY BE COLLECTED AS EARLY AS 12 NOON.", "nsi_id": "unitedstatespostalservice-a77078", "operator": "United States Postal Service", "operator:short": "USPS", "operator:type": "public", "operator:wikidata": "Q668687", "ref": "7840400029"}, "type": "Feature"}
{"geometry": {"coordinates": [-97.461154003, 27.755905002], "type": "Point"}, "id": "QL8KcJ3tOnCjsptGCHeWaGQVOTU=", "properties": {"@source_uri": "https://tools.usps.com/UspsToolsRestServices/rest/POLocator/findLocations", "@spider": "usps_collection_boxes", "addr:city": "CORPUS CHRISTI", "addr:country": "US", "addr:postcode": "78405", "addr:state": "TX", "addr:street_address": "597 S PADRE ISLAND DR", "amenity": "post_box", "brand": "United States Postal Service", "brand:wikidata": "Q668687", "collection_times": "Mo-Fr 15:45; Sa 13:30", "note": "ON 12/24 AND 12/31, THIS BOX MAY BE COLLECTED AS EARLY AS 12 NOON.", "nsi_id": "unitedstatespostalservice-a77078", "operator": "United States Postal Service", "operator:short": "USPS", "operator:type": "public", "operator:wikidata": "Q668687", "ref": "7840500005"}, "type": "Feature"}
{"geometry": {"coordinates": [-97.419910011, 27.776471008], "type": "Point"}, "id": "aJnxbppClF6cNwfZjU74LwANgfw=", "properties": {"@source_uri": "https://tools.usps.com/UspsToolsRestServices/rest/POLocator/findLocations", "@spider": "usps_collection_boxes", "addr:city": "CORPUS CHRISTI", "addr:country": "US", "addr:postcode": "78405", "addr:state": "TX", "addr:street_address": "1340 S PORT AVE", "amenity": "post_box", "brand": "United States Postal Service", "brand:wikidata": "Q668687", "collection_times": "Mo-Fr 17:15; Sa 13:15", "indoor": "yes", "note": "ON 12/24 AND 12/31, THIS BOX MAY BE COLLECTED AS EARLY AS 12 NOON.", "nsi_id": "unitedstatespostalservice-a77078", "operator": "United States Postal Service", "operator:short": "USPS", "operator:type": "public", "operator:wikidata": "Q668687", "ref": "7840500014"}, "type": "Feature"}
{"geometry": {"coordinates": [-97.419910011, 27.776471008], "type": "Point"}, "id": "YvupVAA_CBu1faHbr5m-Zic_yyI=", "properties": {"@source_uri": "https://tools.usps.com/UspsToolsRestServices/rest/POLocator/findLocations", "@spider": "usps_collection_boxes", "addr:city": "CORPUS CHRISTI", "addr:country": "US", "addr:postcode": "78405", "addr:state": "TX", "addr:street_address": "1340 S PORT AVE", "amenity": "post_box", "brand": "United States Postal Service", "brand:wikidata": "Q668687", "collection_times": "Mo-Fr 17:15; Sa 13:15", "indoor": "yes", "note": "ON 12/24 AND 12/31, THIS BOX MAY BE COLLECTED AS EARLY AS 12 NOON.", "nsi_id": "unitedstatespostalservice-a77078", "operator": "United States Postal Service", "operator:short": "USPS", "operator:type": "public", "operator:wikidata": "Q668687", "ref": "7840500017"}, "type": "Feature"}
{"geometry": {"coordinates": [-97.463979962, 27.763705998], "type": "Point"}, "id": "91GyEgW8jBhscKgLMrslsR9IYA4=", "properties": {"@source_uri": "https://tools.usps.com/UspsToolsRestServices/rest/POLocator/findLocations", "@spider": "usps_collection_boxes", "addr:city": "CORPUS CHRISTI", "addr:country": "US", "addr:postcode": "78405", "addr:state": "TX", "addr:street_address": "5541 BEAR LN", "amenity": "post_box", "brand": "United States Postal Service", "brand:wikidata": "Q668687", "collection_times": "Mo-Fr 15:40; Sa 13:25", "note": "ON 12/24 AND 12/31, THIS BOX MAY BE COLLECTED AS EARLY AS 12 NOON.", "nsi_id": "unitedstatespostalservice-a77078", "operator": "United States Postal Service", "operator:short": "USPS", "operator:type": "public", "operator:wikidata": "Q668687", "ref": "7840500018"}, "type": "Feature"}
{"geometry": {"coordinates": [-97.462618992, 27.759846005], "type": "Point"}, "id": "AHULtAyU2nu7X-sq1Ju0icMZISE=", "properties": {"@source_uri": "https://tools.usps.com/UspsToolsRestServices/rest/POLocator/findLocations", "@spider": "usps_collection_boxes", "addr:city": "CORPUS CHRISTI", "addr:country": "US", "addr:postcode": "78405", "addr:state": "TX", "addr:street_address": "400 S PADRE ISLAND DR", "amenity": "post_box", "brand": "United States Postal Service", "brand:wikidata": "Q668687", "collection_times": "Mo-Fr 15:35; Sa 13:20", "note": "ON 12/24 AND 12/31, THIS BOX MAY BE COLLECTED AS EARLY AS 12 NOON.", "nsi_id": "unitedstatespostalservice-a77078", "operator": "United States Postal Service", "operator:short": "USPS", "operator:type": "public", "operator:wikidata": "Q668687", "ref": "7840500020"}, "type": "Feature"}
{"geometry": {"coordinates": [-97.419910011, 27.776471008], "type": "Point"}, "id": "tCpT2F0d4PcHEcJOO65UmHLX0Qk=", "properties": {"@source_uri": "https://tools.usps.com/UspsToolsRestServices/rest/POLocator/findLocations", "@spider": "usps_collection_boxes", "addr:city": "CORPUS CHRISTI", "addr:country": "US", "addr:postcode": "78405", "addr:state": "TX", "addr:street_address": "1340 S PORT AVE", "amenity": "post_box", "brand": "United States Postal Service", "brand:wikidata": "Q668687", "collection_times": "Mo-Fr 17:00", "indoor": "yes", "note": "ON 12/24 AND 12/31, THIS BOX MAY BE COLLECTED AS EARLY AS 12 NOON.", "nsi_id": "unitedstatespostalservice-a77078", "operator": "United States Postal Service", "operator:short": "USPS", "operator:type": "public", "operator:wikidata": "Q668687", "ref": "7840500024"}, "type": "Feature"}
{"geometry": {"coordinates": [-97.53683, 27.78419], "type": "Point"}, "id": "0TcmWZ_v2pf11OTlJ0sgD3f7FA0=", "properties": {"@source_uri": "https://tools.usps.com/UspsToolsRestServices/rest/POLocator/findLocations", "@spider": "usps_collection_boxes", "addr:city": "CORPUS CHRISTI", "addr:country": "US", "addr:postcode": "78406", "addr:state": "TX", "addr:street_address": "1000 INTERNATIONAL BLVD", "amenity": "post_box", "brand": "United States Postal Service", "brand:wikidata": "Q668687", "collection_times": "Mo-Sa 12:00", "nsi_id": "unitedstatespostalservice-a77078", "operator": "United States Postal Service", "operator:short": "USPS", "operator:type": "public", "operator:wikidata": "Q668687", "ref": "7840600005"}, "type": "Feature"}
{"geometry": {"coordinates": [-97.431683986, 27.796627012], "type": "Point"}, "id": "SyX4qcvH4CeLyPg_2D3oZgc69zE=", "properties": {"@source_uri": "https://tools.usps.com/UspsToolsRestServices/rest/POLocator/findLocations", "@spider": "usps_collection_boxes", "addr:city": "CORPUS CHRISTI", "addr:country": "US", "addr:postcode": "78408", "addr:state": "TX", "addr:street_address": "3649 LEOPARD ST", "amenity": "post_box", "brand": "United States Postal Service", "brand:wikidata": "Q668687", "collection_times": "Mo-Fr 15:45", "note": "ON 12/24 AND 12/31, THIS BOX MAY BE COLLECTED AS EARLY AS 12 NOON.", "nsi_id": "unitedstatespostalservice-a77078", "operator": "United States Postal Service", "operator:short": "USPS", "operator:type": "public", "operator:wikidata": "Q668687", "ref": "7840800002"}, "type": "Feature"}
{"geometry": {"coordinates": [-97.455229531, 27.803667758], "type": "Point"}, "id": "5WoHqzO2ERQIkv2wUHFldv76iSs=", "properties": {"@source_uri": "https://tools.usps.com/UspsToolsRestServices/rest/POLocator/findLocations", "@spider": "usps_collection_boxes", "addr:city": "CORPUS CHRISTI", "addr:country": "US", "addr:postcode": "78408", "addr:state": "TX", "addr:street_address": "5233 IH 37", "amenity": "post_box", "brand": "United States Postal Service", "brand:wikidata": "Q668687", "collection_times": "Mo-Fr 15:15; Sa 14:40", "note": "ON 12/24 AND 12/31, THIS BOX MAY BE COLLECTED AS EARLY AS 12 NOON.", "nsi_id": "unitedstatespostalservice-a77078", "operator": "United States Postal Service", "operator:short": "USPS", "operator:type": "public", "operator:wikidata": "Q668687", "ref": "7840800003"}, "type": "Feature"}
{"geometry": {"coordinates": [-97.462370972, 27.797779021], "type": "Point"}, "id": "P3vyVhX3UsAdArcABwKCXsSyMKE=", "properties": {"@source_uri": "https://tools.usps.com/UspsToolsRestServices/rest/POLocator/findLocations", "@spider": "usps_collection_boxes", "addr:city": "CORPUS CHRISTI", "addr:country": "US", "addr:postcode": "78408", "addr:state": "TX", "addr:street_address": "5420 LEOPARD ST", "amenity": "post_box", "brand": "United States Postal Service", "brand:wikidata": "Q668687", "collection_times": "Mo-Fr 15:15; Sa 14:35", "note": "ON 12/24 AND 12/31, THIS BOX MAY BE COLLECTED AS EARLY AS 12 NOON.", "nsi_id": "unitedstatespostalservice-a77078", "operator": "United States Postal Service", "operator:short": "USPS", "operator:type": "public", "operator:wikidata": "Q668687", "ref": "7840800009"}, "type": "Feature"}
{"geometry": {"coordinates": [-97.630909, 27.857410981], "type": "Point"}, "id": "fl3yJMHGsDA01yxuHNS8VO7wV1A=", "properties": {"@source_uri": "https://tools.usps.com/UspsToolsRestServices/rest/POLocator/findLocations", "@spider": "usps_collection_boxes", "addr:city": "CORPUS CHRISTI", "addr:country": "US", "addr:postcode": "78410", "addr:state": "TX", "addr:street_address": "4101 INTERSTATE HIGHWAY 69 ACCESS RD", "amenity": "post_box", "brand": "United States Postal Service", "brand:wikidata": "Q668687", "collection_times": "Mo-Sa 13:00", "note": "ON 12/24 AND 12/31, THIS BOX MAY BE COLLECTED AS EARLY AS 12 NOON.", "nsi_id": "unitedstatespostalservice-a77078", "operator": "United States Postal Service", "operator:short": "USPS", "operator:type": "public", "operator:wikidata": "Q668687", "ref": "7841000001"}, "type": "Feature"}
{"geometry": {"coordinates": [-97.633702018, 27.85698099], "type": "Point"}, "id": "6EXz_dOGv6-hiEm_dujWb7wWCEM=", "properties": {"@source_uri": "https://tools.usps.com/UspsToolsRestServices/rest/POLocator/findLocations", "@spider": "usps_collection_boxes", "addr:city": "CORPUS CHRISTI", "addr:country": "US", "addr:postcode": "78410", "addr:state": "TX", "addr:street_address": "13630 NORTHWEST BLVD", "amenity": "post_box", "brand": "United States Postal Service", "brand:wikidata": "Q668687", "collection_times": "Mo-Fr 13:30; Sa 13:00", "note": "ON 12/24 AND 12/31, THIS BOX MAY BE COLLECTED AS EARLY AS 12 NOON.", "nsi_id": "unitedstatespostalservice-a77078", "operator": "United States Postal Service", "operator:short": "USPS", "operator:type": "public", "operator:wikidata": "Q668687", "ref": "7841000003"}, "type": "Feature"}
{"geometry": {"coordinates": [-97.5997154, 27.8457992], "type": "Point"}, "id": "WIWMCQyagrz36Ivmfi1XJydqmNc=", "properties": {"@source_uri": "https://tools.usps.com/UspsToolsRestServices/rest/POLocator/findLocations", "@spider": "usps_collection_boxes", "addr:city": "CORPUS CHRISTI", "addr:country": "US", "addr:postcode": "78410", "addr:state": "TX", "addr:street_address": "13434 UP RIVER RD", "amenity": "post_box", "brand": "United States Postal Service", "brand:wikidata": "Q668687", "collection_times": "Mo-Fr 14:00; Sa 13:00", "note": "ON 12/24 AND 12/31, THIS BOX MAY BE COLLECTED AS EARLY AS 12 NOON.", "nsi_id": "unitedstatespostalservice-a77078", "operator": "United States Postal Service", "operator:short": "USPS", "operator:type": "public", "operator:wikidata": "Q668687", "ref": "7841000005"}, "type": "Feature"}
{"geometry": {"coordinates": [-97.574299973, 27.841519982], "type": "Point"}, "id": "efsN87It-M26dbFy53Q1aVv6n_I=", "properties": {"@source_uri": "https://tools.usps.com/UspsToolsRestServices/rest/POLocator/findLocations", "@spider": "usps_collection_boxes", "addr:city": "CORPUS CHRISTI", "addr:country": "US", "addr:postcode": "78410", "addr:state": "TX", "addr:street_address": "10515 STONEWALL BLVD", "amenity": "post_box", "brand": "United States Postal Service", "brand:wikidata": "Q668687", "collection_times": "Mo-Fr 16:30; Sa 13:00", "note": "ON 12/24 AND 12/31, THIS BOX MAY BE COLLECTED AS EARLY AS 12 NOON.", "nsi_id": "unitedstatespostalservice-a77078", "operator": "United States Postal Service", "operator:short": "USPS", "operator:type": "public", "operator:wikidata": "Q668687", "ref": "7841000022"}, "type": "Feature"}
{"geometry": {"coordinates": [-97.574299973, 27.841519982], "type": "Point"}, "id": "h3YMfRVodgZ1f3Zr0BQ-j6Bc0xM=", "properties": {"@source_uri": "https://tools.usps.com/UspsToolsRestServices/rest/POLocator/findLocations", "@spider": "usps_collection_boxes", "addr:city": "CORPUS CHRISTI", "addr:country": "US", "addr:postcode": "78410", "addr:state": "TX", "addr:street_address": "10515 STONEWALL BLVD", "amenity": "post_box", "brand": "United States Postal Service", "brand:wikidata": "Q668687", "collection_times": "Mo-Fr 16:30; Sa 13:00", "note": "ON 12/24 AND 12/31, THIS BOX MAY BE COLLECTED AS EARLY AS 12 NOON.", "nsi_id": "unitedstatespostalservice-a77078", "operator": "United States Postal Service", "operator:short": "USPS", "operator:type": "public", "operator:wikidata": "Q668687", "ref": "7841000024"}, "type": "Feature"}
{"geometry": {"coordinates": [-97.587614962, 27.845993991], "type": "Point"}, "id": "6qZL_LWlOVxUerDn7KPBCqQn0b8=", "properties": {"@source_uri": "https://tools.usps.com/UspsToolsRestServices/rest/POLocator/findLocations", "@spider": "usps_collection_boxes", "addr:city": "CORPUS CHRISTI", "addr:country": "US", "addr:postcode": "78410", "addr:state": "TX", "addr:street_address": "11217 LEOPARD ST STE I", "amenity": "post_box", "brand": "United States Postal Service", "brand:wikidata": "Q668687", "collection_times": "Mo-Fr 15:00; Sa 13:00", "note": "ON 12/24 AND 12/31, THIS BOX MAY BE COLLECTED AS EARLY AS 12 NOON.", "nsi_id": "unitedstatespostalservice-a77078", "operator": "United States Postal Service", "operator:short": "USPS", "operator:type": "public", "operator:wikidata": "Q668687", "ref": "7841000029"}, "type": "Feature"}
{"geometry": {"coordinates": [-97.574299973, 27.841519982], "type": "Point"}, "id": "IDL1CPdwW20qWZUDQSW3v9IWylg=", "properties": {"@source_uri": "https://tools.usps.com/UspsToolsRestServices/rest/POLocator/findLocations", "@spider": "usps_collection_boxes", "addr:city": "CORPUS CHRISTI", "addr:country": "US", "addr:postcode": "78410", "addr:state": "TX", "addr:street_address": "10515 STONEWALL BLVD", "amenity": "post_box", "brand": "United States Postal Service", "brand:wikidata": "Q668687", "collection_times": "Mo-Fr 16:30; Sa 13:00", "indoor": "yes", "note": "ON 12/24 AND 12/31, THIS BOX MAY BE COLLECTED AS EARLY AS 12 NOON.", "nsi_id": "unitedstatespostalservice-a77078", "operator": "United States Postal Service", "operator:short": "USPS", "operator:type": "public", "operator:wikidata": "Q668687", "ref": "7841000032"}, "type": "Feature"}
{"geometry": {"coordinates": [-97.574299973, 27.841519982], "type": "Point"}, "id": "uY0TtmauLxNl4v3MH-e01S0Uttc=", "properties": {"@source_uri": "https://tools.usps.com/UspsToolsRestServices/rest/POLocator/findLocations", "@spider": "usps_collection_boxes", "addr:city": "CORPUS CHRISTI", "addr:country": "US", "addr:postcode": "78410", "addr:state": "TX", "addr:street_address": "10515 STONEWALL BLVD", "amenity": "post_box", "brand": "United States Postal Service", "brand:wikidata": "Q668687", "collection_times": "Mo-Fr 16:30; Sa 12:00", "indoor": "yes", "note": "ON 12/24 AND 12/31, THIS BOX MAY BE COLLECTED AS EARLY AS 12 NOON.", "nsi_id": "unitedstatespostalservice-a77078", "operator": "United States Postal Service", "operator:short": "USPS", "operator:type": "public", "operator:wikidata": "Q668687", "ref": "7841000041"}, "type": "Feature"}
{"geometry": {"coordinates": [-97.630909, 27.857410981], "type": "Point"}, "id": "Ln3WKAGMoaGiu03GrQMkrtE4Mog=", "properties": {"@source_uri": "https://tools.usps.com/UspsToolsRestServices/rest/POLocator/findLocations", "@spider": "usps_collection_boxes", "addr:city": "CORPUS CHRISTI", "addr:country": "US", "addr:postcode": "78410", "addr:state": "TX", "addr:street_address": "4101 INTERSTATE HIGHWAY 69 ACCESS RD", "amenity": "post_box", "brand": "United States Postal Service", "brand:wikidata": "Q668687", "collection_times": "Mo-Fr 12:00", "indoor": "yes", "nsi_id": "unitedstatespostalservice-a77078", "operator": "United States Postal Service", "operator:short": "USPS", "operator:type": "public", "operator:wikidata": "Q668687", "ref": "7841000043"}, "type": "Feature"}
{"geometry": {"coordinates": [-97.382138976, 27.719729002], "type": "Point"}, "id": "hwDaHzxIyY73-4v298SbzBWWjOc=", "properties": {"@source_uri": "https://tools.usps.com/UspsToolsRestServices/rest/POLocator/findLocations", "@spider": "usps_collection_boxes", "addr:city": "CORPUS CHRISTI", "addr:country": "US", "addr:postcode": "78411", "addr:state": "TX", "addr:street_address": "4801 EVERHART RD", "amenity": "post_box", "brand": "United States Postal Service", "brand:wikidata": "Q668687", "collection_times": "Mo-Fr 17:30; Sa 16:30", "indoor": "yes", "note": "ON 12/24 AND 12/31, THIS BOX MAY BE COLLECTED AS EARLY AS 12 NOON.", "nsi_id": "unitedstatespostalservice-a77078", "operator": "United States Postal Service", "operator:short": "USPS", "operator:type": "public", "operator:wikidata": "Q668687", "ref": "7841100001"}, "type": "Feature"}
{"geometry": {"coordinates": [-97.386350966, 27.748559018], "type": "Point"}, "id": "B5aw2uXVIyftYqp8UxOWDUK_R4w=", "properties": {"@source_uri": "https://tools.usps.com/UspsToolsRestServices/rest/POLocator/findLocations", "@spider": "usps_collection_boxes", "addr:city": "CORPUS CHRISTI", "addr:country": "US", "addr:postcode": "78411", "addr:state": "TX", "addr:street_address": "3533 S ALAMEDA ST", "amenity": "post_box", "brand": "United States Postal Service", "brand:wikidata": "Q668687", "collection_times": "Mo-Fr 15:45; Sa 15:15", "note": "ON 12/24 AND 12/31, THIS BOX MAY BE COLLECTED AS EARLY AS 12 NOON.", "nsi_id": "unitedstatespostalservice-a77078", "operator": "United States Postal Service", "operator:short": "USPS", "operator:type": "public", "operator:wikidata": "Q668687", "ref": "7841100012"}, "type": "Feature"}
{"geometry": {"coordinates": [-97.388642997, 27.752975988], "type": "Point"}, "id": "HA7AR-N9EhpjAULi-DXcrHrqd9k=", "properties": {"@source_uri": "https://tools.usps.com/UspsToolsRestServices/rest/POLocator/findLocations", "@spider": "usps_collection_boxes", "addr:city": "CORPUS CHRISTI", "addr:country": "US", "addr:postcode": "78411", "addr:state": "TX", "addr:street_address": "3315 S ALAMEDA ST", "amenity": "post_box", "brand": "United States Postal Service", "brand:wikidata": "Q668687", "collection_times": "Mo-Fr 15:45; Sa 15:00", "note": "ON 12/24 AND 12/31, THIS BOX MAY BE COLLECTED AS EARLY AS 12 NOON.", "nsi_id": "unitedstatespostalservice-a77078", "operator": "United States Postal Service", "operator:short": "USPS", "operator:type": "public", "operator:wikidata": "Q668687", "ref": "7841100015"}, "type": "Feature"}
{"geometry": {"coordinates": [-97.38660301, 27.750355009], "type": "Point"}, "id": "9YI0C4GkKo4m-4hAxpwtbG_4asI=", "properties": {"@source_uri": "https://tools.usps.com/UspsToolsRestServices/rest/POLocator/findLocations", "@spider": "usps_collection_boxes", "addr:city": "CORPUS CHRISTI", "addr:country": "US", "addr:postcode": "78411", "addr:state": "TX", "addr:street_address": "3435 S ALAMEDA ST", "amenity": "post_box", "brand": "United States Postal Service", "brand:wikidata": "Q668687", "collection_times": "Mo-Fr 15:45; Sa 15:00", "note": "ON 12/24 AND 12/31, THIS BOX MAY BE COLLECTED AS EARLY AS 12 NOON.", "nsi_id": "unitedstatespostalservice-a77078", "operator": "United States Postal Service", "operator:short": "USPS", "operator:type": "public", "operator:wikidata": "Q668687", "ref": "7841100018"}, "type": "Feature"}
{"geometry": {"coordinates": [-97.371276029, 27.703684991], "type": "Point"}, "id": "d-SegHRsAWC1YVR6XtL_dv3r9ig=", "properties": {"@source_uri": "https://tools.usps.com/UspsToolsRestServices/rest/POLocator/findLocations", "@spider": "usps_collection_boxes", "addr:city": "CORPUS CHRISTI", "addr:country": "US", "addr:postcode": "78411", "addr:state": "TX", "addr:street_address": "5350 S STAPLES ST", "amenity": "post_box", "brand": "United States Postal Service", "brand:wikidata": "Q668687", "collection_times": "Mo-Fr 16:00", "note": "ON 12/24 AND 12/31, THIS BOX MAY BE COLLECTED AS EARLY AS 12 NOON.", "nsi_id": "unitedstatespostalservice-a77078", "operator": "United States Postal Service", "operator:short": "USPS", "operator:type": "public", "operator:wikidata": "Q668687", "ref": "7841100026"}, "type": "Feature"}
{"geometry": {"coordinates": [-97.379756001, 27.744839004], "type": "Point"}, "id": "TmWOp7x-_7b6MgkA74EEkFRrMXU=", "properties": {"@source_uri": "https://tools.usps.com/UspsToolsRestServices/rest/POLocator/findLocations", "@spider": "usps_collection_boxes", "addr:city": "CORPUS CHRISTI", "addr:country": "US", "addr:postcode": "78411", "addr:state": "TX", "addr:street_address": "411 DODDRIDGE ST", "amenity": "post_box", "brand": "United States Postal Service", "brand:wikidata": "Q668687", "collection_times": "Mo-Fr 15:30; Sa 15:00", "note": "ON 12/24 AND 12/31, THIS BOX MAY BE COLLECTED AS EARLY AS 12 NOON.", "nsi_id": "unitedstatespostalservice-a77078", "operator": "United States Postal Service", "operator:short": "USPS", "operator:type": "public", "operator:wikidata": "Q668687", "ref": "7841100031"}, "type": "Feature"}
{"geometry": {"coordinates": [-97.382138976, 27.719729002], "type": "Point"}, "id": "6sRqmqHxNKgDJlnXSZe00pGREwM=", "properties": {"@source_uri": "https://tools.usps.com/UspsToolsRestServices/rest/POLocator/findLocations", "@spider": "usps_collection_boxes", "addr:city": "CORPUS CHRISTI", "addr:country": "US", "addr:postcode": "78411", "addr:state": "TX", "addr:street_address": "4801 EVERHART RD", "amenity": "post_box", "brand": "United States Postal Service", "brand:wikidata": "Q668687", "collection_times": "Mo-Fr 17:30; Sa 16:30", "indoor": "yes", "note": "ON 12/24 AND 12/31, THIS BOX MAY BE COLLECTED AS EARLY AS 12 NOON.", "nsi_id": "unitedstatespostalservice-a77078", "operator": "United States Postal Service", "operator:short": "USPS", "operator:type": "public", "operator:wikidata": "Q668687", "ref": "7841100049"}, "type": "Feature"}
{"geometry": {"coordinates": [-97.370785017, 27.705314014], "type": "Point"}, "id": "8BC_-4_WkKRH2zygdfggtCeRgaY=", "properties": {"@source_uri": "https://tools.usps.com/UspsToolsRestServices/rest/POLocator/findLocations", "@spider": "usps_collection_boxes", "addr:city": "CORPUS CHRISTI", "addr:country": "US", "addr:postcode": "78411", "addr:state": "TX", "addr:street_address": "5262 S STAPLES ST", "amenity": "post_box", "brand": "United States Postal Service", "brand:wikidata": "Q668687", "collection_times": "Mo-Fr 16:15; Sa 16:00", "note": "ON 12/24 AND 12/31, THIS BOX MAY BE COLLECTED AS EARLY AS 12 NOON.", "nsi_id": "unitedstatespostalservice-a77078", "operator": "United States Postal Service", "operator:short": "USPS", "operator:type": "public", "operator:wikidata": "Q668687", "ref": "7841100050"}, "type": "Feature"}
{"geometry": {"coordinates": [-97.37224196, 27.702245986], "type": "Point"}, "id": "rSQeo6W9MG8AEhVAriNO_jmOUNs=", "properties": {"@source_uri": "https://tools.usps.com/UspsToolsRestServices/rest/POLocator/findLocations", "@spider": "usps_collection_boxes", "addr:city": "CORPUS CHRISTI", "addr:country": "US", "addr:postcode": "78411", "addr:state": "TX", "addr:street_address": "5402 S STAPLES ST", "amenity": "post_box", "brand": "United States Postal Service", "brand:wikidata": "Q668687", "collection_times": "Mo-Sa 16:00", "note": "ON 12/24 AND 12/31, THIS BOX MAY BE COLLECTED AS EARLY AS 12 NOON.", "nsi_id": "unitedstatespostalservice-a77078", "operator": "United States Postal Service", "operator:short": "USPS", "operator:type": "public", "operator:wikidata": "Q668687", "ref": "7841100053"}, "type": "Feature"}
{"geometry": {"coordinates": [-97.373711978, 27.711983997], "type": "Point"}, "id": "phBo8KcZ9sAmJ-F2LRK6vIpkm3s=", "properties": {"@source_uri": "https://tools.usps.com/UspsToolsRestServices/rest/POLocator/findLocations", "@spider": "usps_collection_boxes", "addr:city": "CORPUS CHRISTI", "addr:country": "US", "addr:postcode": "78411", "addr:state": "TX", "addr:street_address": "5488 S PADRE ISLAND DR", "amenity": "post_box", "brand": "United States Postal Service", "brand:wikidata": "Q668687", "collection_times": "Mo-Fr 16:15; Sa 15:15", "note": "ON 12/24 AND 12/31, THIS BOX MAY BE COLLECTED AS EARLY AS 12 NOON.", "nsi_id": "unitedstatespostalservice-a77078", "operator": "United States Postal Service", "operator:short": "USPS", "operator:type": "public", "operator:wikidata": "Q668687", "ref": "7841100054"}, "type": "Feature"}
{"geometry": {"coordinates": [-97.374881002, 27.698641013], "type": "Point"}, "id": "2w_uEtOV5EKTDbhQWcKVsycEfDg=", "properties": {"@source_uri": "https://tools.usps.com/UspsToolsRestServices/rest/POLocator/findLocations", "@spider": "usps_collection_boxes", "addr:city": "CORPUS CHRISTI", "addr:country": "US", "addr:postcode": "78411", "addr:state": "TX", "addr:street_address": "5656 S STAPLES ST", "amenity": "post_box", "brand": "United States Postal Service", "brand:wikidata": "Q668687", "collection_times": "Mo-Fr 16:00; Sa 15:45", "note": "ON 12/24 AND 12/31, THIS BOX MAY BE COLLECTED AS EARLY AS 12 NOON.", "nsi_id": "unitedstatespostalservice-a77078", "operator": "United States Postal Service", "operator:short": "USPS", "operator:type": "public", "operator:wikidata": "Q668687", "ref": "7841100056"}, "type": "Feature"}
{"geometry": {"coordinates": [-97.3878290306, 27.7120749828], "type": "Point"}, "id": "KOGk2hHdNlfss3AL2bbFGqGPT2w=", "properties": {"@source_uri": "https://tools.usps.com/UspsToolsRestServices/rest/POLocator/findLocations", "@spider": "usps_collection_boxes", "addr:city": "CORPUS CHRISTI", "addr:country": "US", "addr:postcode": "78411", "addr:state": "TX", "addr:street_address": "4639 CORONA DR", "amenity": "post_box", "brand": "United States Postal Service", "brand:wikidata": "Q668687", "collection_times": "Mo-Fr 16:30; Sa 16:15", "note": "ON 12/24 AND 12/31, THIS BOX MAY BE COLLECTED AS EARLY AS 12 NOON.", "nsi_id": "unitedstatespostalservice-a77078", "operator": "United States Postal Service", "operator:short": "USPS", "operator:type": "public", "operator:wikidata": "Q668687", "ref": "7841100061"}, "type": "Feature"}
{"geometry": {"coordinates": [-97.3885597, 27.744452], "type": "Point"}, "id": "dVbN-XYvUN_yQnOuhZjxVlP7QOk=", "properties": {"@source_uri": "https://tools.usps.com/UspsToolsRestServices/rest/POLocator/findLocations", "@spider": "usps_collection_boxes", "addr:city": "CORPUS CHRISTI", "addr:country": "US", "addr:postcode": "78411", "addr:state": "TX", "addr:street_address": "4801 EVERHART RD", "amenity": "post_box", "brand": "United States Postal Service", "brand:wikidata": "Q668687", "collection_times": "Mo-Fr 17:15; Sa 16:30", "note": "ON 12/24 AND 12/31, THIS BOX MAY BE COLLECTED AS EARLY AS 12 NOON.", "nsi_id": "unitedstatespostalservice-a77078", "operator": "United States Postal Service", "operator:short": "USPS", "operator:type": "public", "operator:wikidata": "Q668687", "ref": "7841100064"}, "type": "Feature"}
{"geometry": {"coordinates": [-97.382138976, 27.719729002], "type": "Point"}, "id": "mDS8ZnUZVXndGAJn6D0BRuso7og=", "properties": {"@source_uri": "https://tools.usps.com/UspsToolsRestServices/rest/POLocator/findLocations", "@spider": "usps_collection_boxes", "addr:city": "CORPUS CHRISTI", "addr:country": "US", "addr:postcode": "78411", "addr:state": "TX", "addr:street_address": "4801 EVERHART RD", "amenity": "post_box", "brand": "United States Postal Service", "brand:wikidata": "Q668687", "collection_times": "Mo-Fr 17:30; Sa 16:30", "indoor": "yes", "note": "ON 12/24 AND 12/31, THIS BOX MAY BE COLLECTED AS EARLY AS 12 NOON.", "nsi_id": "unitedstatespostalservice-a77078", "operator": "United States Postal Service", "operator:short": "USPS", "operator:type": "public", "operator:wikidata": "Q668687", "ref": "7841100066"}, "type": "Feature"}
{"geometry": {"coordinates": [-97.382138976, 27.719729002], "type": "Point"}, "id": "HxNfKjW86iuCmRrDez3zKLAR98k=", "properties": {"@source_uri": "https://tools.usps.com/UspsToolsRestServices/rest/POLocator/findLocations", "@spider": "usps_collection_boxes", "addr:city": "CORPUS CHRISTI", "addr:country": "US", "addr:postcode": "78411", "addr:state": "TX", "addr:street_address": "4801 EVERHART RD", "amenity": "post_box", "brand": "United States Postal Service", "brand:wikidata": "Q668687", "collection_times": "Mo-Fr 17:30; Sa 16:30", "name": "USPS COLLECTION BOX - APC", "note": "ON 12/24 AND 12/31, THIS BOX MAY BE COLLECTED AS EARLY AS 12 NOON.", "nsi_id": "unitedstatespostalservice-a77078", "operator": "United States Postal Service", "operator:short": "USPS", "operator:type": "public", "operator:wikidata": "Q668687", "ref": "7841100067"}, "type": "Feature"}
{"geometry": {"coordinates": [-97.382138976, 27.719729002], "type": "Point"}, "id": "FltYXHybCJmP3puGt31DThwD2FE=", "properties": {"@source_uri": "https://tools.usps.com/UspsToolsRestServices/rest/POLocator/findLocations", "@spider": "usps_collection_boxes", "addr:city": "CORPUS CHRISTI", "addr:country": "US", "addr:postcode": "78411", "addr:state": "TX", "addr:street_address": "4801 EVERHART RD", "amenity": "post_box", "brand": "United States Postal Service", "brand:wikidata": "Q668687", "collection_times": "Mo-Fr 17:30; Sa 13:00", "indoor": "yes", "note": "ON 12/24 AND 12/31, THIS BOX MAY BE COLLECTED AS EARLY AS 12 NOON.", "nsi_id": "unitedstatespostalservice-a77078", "operator": "United States Postal Service", "operator:short": "USPS", "operator:type": "public", "operator:wikidata": "Q668687", "ref": "7841100076"}, "type": "Feature"}
{"geometry": {"coordinates": [-97.3885597, 27.744452], "type": "Point"}, "id": "6K0DkrosFGqlqSIO31KmwXshrdY=", "properties": {"@source_uri": "https://tools.usps.com/UspsToolsRestServices/rest/POLocator/findLocations", "@spider": "usps_collection_boxes", "addr:city": "CORPUS CHRISTI", "addr:country": "US", "addr:postcode": "78411", "addr:state": "TX", "addr:street_address": "4455 S PADRE ISLAND DR", "amenity": "post_box", "brand": "United States Postal Service", "brand:wikidata": "Q668687", "collection_times": "Mo-Fr 12:00", "nsi_id": "unitedstatespostalservice-a77078", "operator": "United States Postal Service", "operator:short": "USPS", "operator:type": "public", "operator:wikidata": "Q668687", "ref": "7841100082"}, "type": "Feature"}
{"geometry": {"coordinates": [-97.360789011, 27.704996005], "type": "Point"}, "id": "VaosxG1jtnf0sG-lnyEor9SpV2g=", "properties": {"@source_uri": "https://tools.usps.com/UspsToolsRestServices/rest/POLocator/findLocations", "@spider": "usps_collection_boxes", "addr:city": "CORPUS CHRISTI", "addr:country": "US", "addr:postcode": "78412", "addr:state": "TX", "addr:street_address": "1345 CRESCENT BLVD", "amenity": "post_box", "brand": "United States Postal Service", "brand:wikidata": "Q668687", "collection_times": "Mo-Fr 17:30; Sa 15:20", "indoor": "yes", "note": "ON 12/24 AND 12/31, THIS BOX MAY BE COLLECTED AS EARLY AS 12 NOON.", "nsi_id": "unitedstatespostalservice-a77078", "operator": "United States Postal Service", "operator:short": "USPS", "operator:type": "public", "operator:wikidata": "Q668687", "ref": "7841200004"}, "type": "Feature"}
{"geometry": {"coordinates": [-97.3721289716, 27.73216301], "type": "Point"}, "id": "2d2iUqXqf73-5EGPUe1s9dre-i8=", "properties": {"@source_uri": "https://tools.usps.com/UspsToolsRestServices/rest/POLocator/findLocations", "@spider": "usps_collection_boxes", "addr:city": "CORPUS CHRISTI", "addr:country": "US", "addr:postcode": "78412", "addr:state": "TX", "addr:street_address": "4200 S ALAMEDA ST", "amenity": "post_box", "brand": "United States Postal Service", "brand:wikidata": "Q668687", "collection_times": "Mo-Fr 15:50; Sa 15:00", "note": "ON 12/24 AND 12/31, THIS BOX MAY BE COLLECTED AS EARLY AS 12 NOON.", "nsi_id": "unitedstatespostalservice-a77078", "operator": "United States Postal Service", "operator:short": "USPS", "operator:type": "public", "operator:wikidata": "Q668687", "ref": "7841200009"}, "type": "Feature"}
{"geometry": {"coordinates": [-97.345110996, 27.693877997], "type": "Point"}, "id": "T9DL4X8BZfGnAOVRh61pK2CpPOA=", "properties": {"@source_uri": "https://tools.usps.com/UspsToolsRestServices/rest/POLocator/findLocations", "@spider": "usps_collection_boxes", "addr:city": "CORPUS CHRISTI", "addr:country": "US", "addr:postcode": "78412", "addr:state": "TX", "addr:street_address": "7121 S PADRE ISLAND DR", "amenity": "post_box", "brand": "United States Postal Service", "brand:wikidata": "Q668687", "collection_times": "Mo-Fr 16:00; Sa 14:25", "note": "ON 12/24 AND 12/31, THIS BOX MAY BE COLLECTED AS EARLY AS 12 NOON.", "nsi_id": "unitedstatespostalservice-a77078", "operator": "United States Postal Service", "operator:short": "USPS", "operator:type": "public", "operator:wikidata": "Q668687", "ref": "7841200018"}, "type": "Feature"}
{"geometry": {"coordinates": [-97.323094, 27.711413986], "type": "Point"}, "id": "9PQX80cU2wLY3jwrDPxHwo5kkg8=", "properties": {"@source_uri": "https://tools.usps.com/UspsToolsRestServices/rest/POLocator/findLocations", "@spider": "usps_collection_boxes", "addr:city": "CORPUS CHRISTI", "addr:country": "US", "addr:postcode": "78412", "addr:state": "TX", "addr:street_address": "6300 OCEAN DR", "amenity": "post_box", "brand": "United States Postal Service", "brand:wikidata": "Q668687", "collection_times": "Mo-Fr 16:00; Sa 14:50", "note": "ON 12/24 AND 12/31, THIS BOX MAY BE COLLECTED AS EARLY AS 12 NOON.", "nsi_id": "unitedstatespostalservice-a77078", "operator": "United States Postal Service", "operator:short": "USPS", "operator:type": "public", "operator:wikidata": "Q668687", "ref": "7841200050"}, "type": "Feature"}
{"geometry": {"coordinates": [-97.360789011, 27.704996005], "type": "Point"}, "id": "-RHWvhcu67rUnZYpmz4JR_mhrvo=", "properties": {"@source_uri": "https://tools.usps.com/UspsToolsRestServices/rest/POLocator/findLocations", "@spider": "usps_collection_boxes", "addr:city": "CORPUS CHRISTI", "addr:country": "US", "addr:postcode": "78412", "addr:state": "TX", "addr:street_address": "1345 CRESCENT DR", "amenity": "post_box", "brand": "United States Postal Service", "brand:wikidata": "Q668687", "collection_times": "Mo-Fr 17:30; Sa 13:00", "indoor": "yes", "note": "ON 12/24 AND 12/31, THIS BOX MAY BE COLLECTED AS EARLY AS 12 NOON.", "nsi_id": "unitedstatespostalservice-a77078", "operator": "United States Postal Service", "operator:short": "USPS", "operator:type": "public", "operator:wikidata": "Q668687", "ref": "7841200054"}, "type": "Feature"}
{"geometry": {"coordinates": [-97.36251, 27.710725], "type": "Point"}, "id": "PrQesf0lEMrBlIOCW8wk9Oh45yk=", "properties": {"@source_uri": "https://tools.usps.com/UspsToolsRestServices/rest/POLocator/findLocations", "@spider": "usps_collection_boxes", "addr:city": "CORPUS CHRISTI", "addr:country": "US", "addr:postcode": "78412", "addr:state": "TX", "addr:street_address": "4715 S ALAMEDA ST", "amenity": "post_box", "brand": "United States Postal Service", "brand:wikidata": "Q668687", "collection_times": "Mo-Fr 12:00", "nsi_id": "unitedstatespostalservice-a77078", "operator": "United States Postal Service", "operator:short": "USPS", "operator:type": "public", "operator:wikidata": "Q668687", "ref": "7841200058"}, "type": "Feature"}
{"geometry": {"coordinates": [-97.414223979, 27.695490004], "type": "Point"}, "id": "d06N02BRl9HInheNl-peYibgH-U=", "properties": {"@source_uri": "https://tools.usps.com/UspsToolsRestServices/rest/POLocator/findLocations", "@spider": "usps_collection_boxes", "addr:city": "CORPUS CHRISTI", "addr:country": "US", "addr:postcode": "78413", "addr:state": "TX", "addr:street_address": "6742 WEBER RD", "amenity": "post_box", "brand": "United States Postal Service", "brand:wikidata": "Q668687", "collection_times": "Mo-Fr 17:00; Sa 13:40", "indoor": "yes", "note": "ON 12/24 AND 12/31, THIS BOX MAY BE COLLECTED AS EARLY AS 12 NOON.", "nsi_id": "unitedstatespostalservice-a77078", "operator": "United States Postal Service", "operator:short": "USPS", "operator:type": "public", "operator:wikidata": "Q668687", "ref": "7841300000"}, "type": "Feature"}
{"geometry": {"coordinates": [-97.414223979, 27.695490004], "type": "Point"}, "id": "QLh2V-1FjZi22xrUsPTDXmBF1ic=", "properties": {"@source_uri": "https://tools.usps.com/UspsToolsRestServices/rest/POLocator/findLocations", "@spider": "usps_collection_boxes", "addr:city": "CORPUS CHRISTI", "addr:country": "US", "addr:postcode": "78413", "addr:state": "TX", "addr:street_address": "6742 WEBER RD", "amenity": "post_box", "brand": "United States Postal Service", "brand:wikidata": "Q668687", "collection_times": "Mo-Fr 17:00; Sa 13:40", "indoor": "yes", "note": "ON 12/24 AND 12/31, THIS BOX MAY BE COLLECTED AS EARLY AS 12 NOON.", "nsi_id": "unitedstatespostalservice-a77078", "operator": "United States Postal Service", "operator:short": "USPS", "operator:type": "public", "operator:wikidata": "Q668687", "ref": "7841300001"}, "type": "Feature"}
{"geometry": {"coordinates": [-97.414223979, 27.695490004], "type": "Point"}, "id": "5SLU7E5sZ11bxVuJODYZNMVW3uU=", "properties": {"@source_uri": "https://tools.usps.com/UspsToolsRestServices/rest/POLocator/findLocations", "@spider": "usps_collection_boxes", "addr:city": "CORPUS CHRISTI", "addr:country": "US", "addr:postcode": "78413", "addr:state": "TX", "addr:street_address": "6742 WEBER RD", "amenity": "post_box", "brand": "United States Postal Service", "brand:wikidata": "Q668687", "collection_times": "Mo-Fr 17:00; Sa 13:40", "note": "ON 12/24 AND 12/31, THIS BOX MAY BE COLLECTED AS EARLY AS 12 NOON.", "nsi_id": "unitedstatespostalservice-a77078", "operator": "United States Postal Service", "operator:short": "USPS", "operator:type": "public", "operator:wikidata": "Q668687", "ref": "7841300002"}, "type": "Feature"}
{"geometry": {"coordinates": [-97.405660021, 27.712030014], "type": "Point"}, "id": "0YnAKzALdaeExlVwig4KOTqA8jc=", "properties": {"@source_uri": "https://tools.usps.com/UspsToolsRestServices/rest/POLocator/findLocations", "@spider": "usps_collection_boxes", "addr:city": "CORPUS CHRISTI", "addr:country": "US", "addr:postcode": "78413", "addr:state": "TX", "addr:street_address": "5801 WEBER RD", "amenity": "post_box", "brand": "United States Postal Service", "brand:wikidata": "Q668687", "collection_times": "Mo-Fr 13:30; Sa 13:00", "note": "ON 12/24 AND 12/31, THIS BOX MAY BE COLLECTED AS EARLY AS 12 NOON.", "nsi_id": "unitedstatespostalservice-a77078", "operator": "United States Postal Service", "operator:short": "USPS", "operator:type": "public", "operator:wikidata": "Q668687", "ref": "7841300003"}, "type": "Feature"}
{"geometry": {"coordinates": [-97.405949832, 27.710051817], "type": "Point"}, "id": "RIk17Ax5FjDmvPfMi6dJixhZFZQ=", "properties": {"@source_uri": "https://tools.usps.com/UspsToolsRestServices/rest/POLocator/findLocations", "@spider": "usps_collection_boxes", "addr:city": "CORPUS CHRISTI", "addr:country": "US", "addr:postcode": "78413", "addr:state": "TX", "addr:street_address": "5825 WEBER RD", "amenity": "post_box", "brand": "United States Postal Service", "brand:wikidata": "Q668687", "collection_times": "Mo-Fr 13:30; Sa 13:00", "note": "ON 12/24 AND 12/31, THIS BOX MAY BE COLLECTED AS EARLY AS 12 NOON.", "nsi_id": "unitedstatespostalservice-a77078", "operator": "United States Postal Service", "operator:short": "USPS", "operator:type": "public", "operator:wikidata": "Q668687", "ref": "7841300006"}, "type": "Feature"}
{"geometry": {"coordinates": [-97.386106969, 27.684553004], "type": "Point"}, "id": "3cEBvKbv_rkUlkYzRr5ZcHEWhQo=", "properties": {"@source_uri": "https://tools.usps.com/UspsToolsRestServices/rest/POLocator/findLocations", "@spider": "usps_collection_boxes", "addr:city": "CORPUS CHRISTI", "addr:country": "US", "addr:postcode": "78413", "addr:state": "TX", "addr:street_address": "5513 SARATOGA BLVD", "amenity": "post_box", "brand": "United States Postal Service", "brand:wikidata": "Q668687", "collection_times": "Mo-Fr 14:00; Sa 13:20", "note": "ON 12/24 AND 12/31, THIS BOX MAY BE COLLECTED AS EARLY AS 12 NOON.", "nsi_id": "unitedstatespostalservice-a77078", "operator": "United States Postal Service", "operator:short": "USPS", "operator:type": "public", "operator:wikidata": "Q668687", "ref": "7841300011"}, "type": "Feature"}
{"geometry": {"coordinates": [-97.390657001, 27.705100988], "type": "Point"}, "id": "Ov5Qf23MgNupME9-EFR0NyQ1_Cg=", "properties": {"@source_uri": "https://tools.usps.com/UspsToolsRestServices/rest/POLocator/findLocations", "@spider": "usps_collection_boxes", "addr:city": "CORPUS CHRISTI", "addr:country": "US", "addr:postcode": "78413", "addr:state": "TX", "addr:street_address": "5701 EVERHART RD", "amenity": "post_box", "brand": "United States Postal Service", "brand:wikidata": "Q668687", "collection_times": "Mo-Fr 13:30; Sa 13:15", "note": "ON 12/24 AND 12/31, THIS BOX MAY BE COLLECTED AS EARLY AS 12 NOON.", "nsi_id": "unitedstatespostalservice-a77078", "operator": "United States Postal Service", "operator:short": "USPS", "operator:type": "public", "operator:wikidata": "Q668687", "ref": "7841300017"}, "type": "Feature"}
{"geometry": {"coordinates": [-97.410327987, 27.702631009], "type": "Point"}, "id": "hRKEXrQhUI9pUeiP3w6oDhug2xo=", "properties": {"@source_uri": "https://tools.usps.com/UspsToolsRestServices/rest/POLocator/findLocations", "@spider": "usps_collection_boxes", "addr:city": "CORPUS CHRISTI", "addr:country": "US", "addr:postcode": "78413", "addr:state": "TX", "addr:street_address": "6262 WEBER RD", "amenity": "post_box", "brand": "United States Postal Service", "brand:wikidata": "Q668687", "collection_times": "Mo-Fr 14:00; Sa 13:00", "note": "ON 12/24 AND 12/31, THIS BOX MAY BE COLLECTED AS EARLY AS 12 NOON.", "nsi_id": "unitedstatespostalservice-a77078", "operator": "United States Postal Service", "operator:short": "USPS", "operator:type": "public", "operator:wikidata": "Q668687", "ref": "7841300021"}, "type": "Feature"}
{"geometry": {"coordinates": [-97.40301201, 27.686253985], "type": "Point"}, "id": "csjg0Cs6okMaBxJ2wtWtxpOPY_g=", "properties": {"@source_uri": "https://tools.usps.com/UspsToolsRestServices/rest/POLocator/findLocations", "@spider": "usps_collection_boxes", "addr:city": "CORPUS CHRISTI", "addr:country": "US", "addr:postcode": "78413", "addr:state": "TX", "addr:street_address": "6801 EVERHART RD", "amenity": "post_box", "brand": "United States Postal Service", "brand:wikidata": "Q668687", "collection_times": "Mo-Fr 14:30; Sa 13:20", "note": "ON 12/24 AND 12/31, THIS BOX MAY BE COLLECTED AS EARLY AS 12 NOON.", "nsi_id": "unitedstatespostalservice-a77078", "operator": "United States Postal Service", "operator:short": "USPS", "operator:type": "public", "operator:wikidata": "Q668687", "ref": "7841300028"}, "type": "Feature"}
{"geometry": {"coordinates": [-97.414223979, 27.695490004], "type": "Point"}, "id": "CzOT5jqfMucT-WiAVloJyC0A1tQ=", "properties": {"@source_uri": "https://tools.usps.com/UspsToolsRestServices/rest/POLocator/findLocations", "@spider": "usps_collection_boxes", "addr:city": "CORPUS CHRISTI", "addr:country": "US", "addr:postcode": "78413", "addr:state": "TX", "addr:street_address": "6742 WEBER RD", "amenity": "post_box", "brand": "United States Postal Service", "brand:wikidata": "Q668687", "collection_times": "Mo-Fr 17:00; Sa 13:40", "note": "ON 12/24 AND 12/31, THIS BOX MAY BE COLLECTED AS EARLY AS 12 NOON.", "nsi_id": "unitedstatespostalservice-a77078", "operator": "United States Postal Service", "operator:short": "USPS", "operator:type": "public", "operator:wikidata": "Q668687", "ref": "7841300030"}, "type": "Feature"}
{"geometry": {"coordinates": [-97.37827299, 27.695753992], "type": "Point"}, "id": "uffRxIwxWVJrJY7ONoON1QXrNSA=", "properties": {"@source_uri": "https://tools.usps.com/UspsToolsRestServices/rest/POLocator/findLocations", "@spider": "usps_collection_boxes", "addr:city": "CORPUS CHRISTI", "addr:country": "US", "addr:postcode": "78413", "addr:state": "TX", "addr:street_address": "5801 S STAPLES ST", "amenity": "post_box", "brand": "United States Postal Service", "brand:wikidata": "Q668687", "collection_times": "Mo-Fr 13:30; Sa 13:15", "note": "ON 12/24 AND 12/31, THIS BOX MAY BE COLLECTED AS EARLY AS 12 NOON.", "nsi_id": "unitedstatespostalservice-a77078", "operator": "United States Postal Service", "operator:short": "USPS", "operator:type": "public", "operator:wikidata": "Q668687", "ref": "7841300033"}, "type": "Feature"}
{"geometry": {"coordinates": [-97.37827299, 27.695753992], "type": "Point"}, "id": "fuaYLjqoGWzwqyRPZhAIZsz0N9s=", "properties": {"@source_uri": "https://tools.usps.com/UspsToolsRestServices/rest/POLocator/findLocations", "@spider": "usps_collection_boxes", "addr:city": "CORPUS CHRISTI", "addr:country": "US", "addr:postcode": "78413", "addr:state": "TX", "addr:street_address": "5801 S STAPLES ST", "amenity": "post_box", "brand": "United States Postal Service", "brand:wikidata": "Q668687", "collection_times": "Mo-Fr 13:30; Sa 13:15", "note": "ON 12/24 AND 12/31, THIS BOX MAY BE COLLECTED AS EARLY AS 12 NOON.", "nsi_id": "unitedstatespostalservice-a77078", "operator": "United States Postal Service", "operator:short": "USPS", "operator:type": "public", "operator:wikidata": "Q668687", "ref": "7841300035"}, "type": "Feature"}
{"geometry": {"coordinates": [-97.414223979, 27.695490004], "type": "Point"}, "id": "PqTbCowqdKukP8mXbMKNcNZW-S0=", "properties": {"@source_uri": "https://tools.usps.com/UspsToolsRestServices/rest/POLocator/findLocations", "@spider": "usps_collection_boxes", "addr:city": "CORPUS CHRISTI", "addr:country": "US", "addr:postcode": "78413", "addr:state": "TX", "addr:street_address": "6742 WEBER RD", "amenity": "post_box", "brand": "United States Postal Service", "brand:wikidata": "Q668687", "collection_times": "Mo-Fr 17:00; Sa 13:40", "name": "USPS COLLECTION BOX - APC", "note": "ON 12/24 AND 12/31, THIS BOX MAY BE COLLECTED AS EARLY AS 12 NOON.", "nsi_id": "unitedstatespostalservice-a77078", "operator": "United States Postal Service", "operator:short": "USPS", "operator:type": "public", "operator:wikidata": "Q668687", "ref": "7841300037"}, "type": "Feature"}
{"geometry": {"coordinates": [-97.414223979, 27.695490004], "type": "Point"}, "id": "amw4EHaWtOWqah1RkHFvHv7KL9M=", "properties": {"@source_uri": "https://tools.usps.com/UspsToolsRestServices/rest/POLocator/findLocations", "@spider": "usps_collection_boxes", "addr:city": "CORPUS CHRISTI", "addr:country": "US", "addr:postcode": "78413", "addr:state": "TX", "addr:street_address": "6742 WEBER RD", "amenity": "post_box", "brand": "United States Postal Service", "brand:wikidata": "Q668687", "collection_times": "Mo-Fr 17:00; Sa 12:00", "indoor": "yes", "note": "ON 12/24 AND 12/31, THIS BOX MAY BE COLLECTED AS EARLY AS 12 NOON.", "nsi_id": "unitedstatespostalservice-a77078", "operator": "United States Postal Service", "operator:short": "USPS", "operator:type": "public", "operator:wikidata": "Q668687", "ref": "7841300041"}, "type": "Feature"}
{"geometry": {"coordinates": [-97.378289, 27.684498982], "type": "Point"}, "id": "FcnSrCgkyvrvMJZ2oivHdKrCZ-k=", "properties": {"@source_uri": "https://tools.usps.com/UspsToolsRestServices/rest/POLocator/findLocations", "@spider": "usps_collection_boxes", "addr:city": "CORPUS CHRISTI", "addr:country": "US", "addr:postcode": "78414", "addr:state": "TX", "addr:street_address": "5920 SARATOGA BLVD", "amenity": "post_box", "brand": "United States Postal Service", "brand:wikidata": "Q668687", "collection_times": "Mo-Fr 15:00; Sa 13:55", "note": "ON 12/24 AND 12/31, THIS BOX MAY BE COLLECTED AS EARLY AS 12 NOON.", "nsi_id": "unitedstatespostalservice-a77078", "operator": "United States Postal Service", "operator:short": "USPS", "operator:type": "public", "operator:wikidata": "Q668687", "ref": "7841400006"}, "type": "Feature"}
{"geometry": {"coordinates": [-97.38626, 27.65943], "type": "Point"}, "id": "FK9G3xd0giE4kxePh07ZWq7YbWw=", "properties": {"@source_uri": "https://tools.usps.com/UspsToolsRestServices/rest/POLocator/findLocations", "@spider": "usps_collection_boxes", "addr:city": "CORPUS CHRISTI", "addr:country": "US", "addr:postcode": "78414", "addr:state": "TX", "addr:street_address": "2222 AIRLINE RD", "amenity": "post_box", "brand": "United States Postal Service", "brand:wikidata": "Q668687", "collection_times": "Mo-Fr 12:00", "nsi_id": "unitedstatespostalservice-a77078", "operator": "United States Postal Service", "operator:short": "USPS", "operator:type": "public", "operator:wikidata": "Q668687", "ref": "7841400010"}, "type": "Feature"}
{"geometry": {"coordinates": [-97.4185849994, 27.7325870086], "type": "Point"}, "id": "7rA1MMrZg8_yX9bO1o7UGRci1e8=", "properties": {"@source_uri": "https://tools.usps.com/UspsToolsRestServices/rest/POLocator/findLocations", "@spider": "usps_collection_boxes", "addr:city": "CORPUS CHRISTI", "addr:country": "US", "addr:postcode": "78415", "addr:state": "TX", "addr:street_address": "2820 S PADRE ISLAND DR", "amenity": "post_box", "brand": "United States Postal Service", "brand:wikidata": "Q668687", "collection_times": "Mo-Fr 15:15; Sa 13:20", "note": "ON 12/24 AND 12/31, THIS BOX MAY BE COLLECTED AS EARLY AS 12 NOON.", "nsi_id": "unitedstatespostalservice-a77078", "operator": "United States Postal Service", "operator:short": "USPS", "operator:type": "public", "operator:wikidata": "Q668687", "ref": "7841500008"}, "type": "Feature"}
{"geometry": {"coordinates": [-97.405915285, 27.739914789], "type": "Point"}, "id": "9Nuru5xuzP43KKKjCzZs531ObNE=", "properties": {"@source_uri": "https://tools.usps.com/UspsToolsRestServices/rest/POLocator/findLocations", "@spider": "usps_collection_boxes", "addr:city": "CORPUS CHRISTI", "addr:country": "US", "addr:postcode": "78415", "addr:state": "TX", "addr:street_address": "4400 KOSTORYZ RD", "amenity": "post_box", "brand": "United States Postal Service", "brand:wikidata": "Q668687", "collection_times": "Mo-Fr 15:30; Sa 13:00", "note": "ON 12/24 AND 12/31, THIS BOX MAY BE COLLECTED AS EARLY AS 12 NOON.", "nsi_id": "unitedstatespostalservice-a77078", "operator": "United States Postal Service", "operator:short": "USPS", "operator:type": "public", "operator:wikidata": "Q668687", "ref": "7841500010"}, "type": "Feature"}
{"geometry": {"coordinates": [-97.413750988, 27.725931987], "type": "Point"}, "id": "yEQUxSI_KC4vu_6hUu_AxIycxgs=", "properties": {"@source_uri": "https://tools.usps.com/UspsToolsRestServices/rest/POLocator/findLocations", "@spider": "usps_collection_boxes", "addr:city": "CORPUS CHRISTI", "addr:country": "US", "addr:postcode": "78415", "addr:state": "TX", "addr:street_address": "5230 KOSTORYZ RD", "amenity": "post_box", "brand": "United States Postal Service", "brand:wikidata": "Q668687", "collection_times": "Mo-Fr 15:45; Sa 13:15", "note": "ON 12/24 AND 12/31, THIS BOX MAY BE COLLECTED AS EARLY AS 12 NOON.", "nsi_id": "unitedstatespostalservice-a77078", "operator": "United States Postal Service", "operator:short": "USPS", "operator:type": "public", "operator:wikidata": "Q668687", "ref": "7841500011"}, "type": "Feature"}
{"geometry": {"coordinates": [-97.420701011, 27.750700008], "type": "Point"}, "id": "ul2zEenKi1XtOdRYRrFjOrHQefE=", "properties": {"@source_uri": "https://tools.usps.com/UspsToolsRestServices/rest/POLocator/findLocations", "@spider": "usps_collection_boxes", "addr:city": "CORPUS CHRISTI", "addr:country": "US", "addr:postcode": "78415", "addr:state": "TX", "addr:street_address": "4213 S PORT AVE", "amenity": "post_box", "brand": "United States Postal Service", "brand:wikidata": "Q668687", "collection_times": "Mo-Fr 17:00; Sa 13:50", "indoor": "yes", "note": "ON 12/24 AND 12/31, THIS BOX MAY BE COLLECTED AS EARLY AS 12 NOON.", "nsi_id": "unitedstatespostalservice-a77078", "operator": "United States Postal Service", "operator:short": "USPS", "operator:type": "public", "operator:wikidata": "Q668687", "ref": "7841500020"}, "type": "Feature"}
{"geometry": {"coordinates": [-97.420701011, 27.750700008], "type": "Point"}, "id": "pDXgnkzD1WRrpn0No0hk55QJzug=", "properties": {"@source_uri": "https://tools.usps.com/UspsToolsRestServices/rest/POLocator/findLocations", "@spider": "usps_collection_boxes", "addr:city": "CORPUS CHRISTI", "addr:country": "US", "addr:postcode": "78415", "addr:state": "TX", "addr:street_address": "4213 S PORT AVE", "amenity": "post_box", "brand": "United States Postal Service", "brand:wikidata": "Q668687", "collection_times": "Mo-Fr 17:00; Sa 13:50", "indoor": "yes", "note": "ON 12/24 AND 12/31, THIS BOX MAY BE COLLECTED AS EARLY AS 12 NOON.", "nsi_id": "unitedstatespostalservice-a77078", "operator": "United States Postal Service", "operator:short": "USPS", "operator:type": "public", "operator:wikidata": "Q668687", "ref": "7841500021"}, "type": "Feature"}
{"geometry": {"coordinates": [-97.438461006, 27.716673002], "type": "Point"}, "id": "mEIin5pLRP-QHQiRZy7zTQFPSy4=", "properties": {"@source_uri": "https://tools.usps.com/UspsToolsRestServices/rest/POLocator/findLocations", "@spider": "usps_collection_boxes", "addr:city": "CORPUS CHRISTI", "addr:country": "US", "addr:postcode": "78415", "addr:state": "TX", "addr:street_address": "6116 AYERS ST", "amenity": "post_box", "brand": "United States Postal Service", "brand:wikidata": "Q668687", "collection_times": "Mo-Fr 14:30; Sa 13:25", "note": "ON 12/24 AND 12/31, THIS BOX MAY BE COLLECTED AS EARLY AS 12 NOON.", "nsi_id": "unitedstatespostalservice-a77078", "operator": "United States Postal Service", "operator:short": "USPS", "operator:type": "public", "operator:wikidata": "Q668687", "ref": "7841500025"}, "type": "Feature"}
{"geometry": {"coordinates": [-97.420701011, 27.750700008], "type": "Point"}, "id": "N12Vh4yCz1vSZmrSuLTayCGBu1I=", "properties": {"@source_uri": "https://tools.usps.com/UspsToolsRestServices/rest/POLocator/findLocations", "@spider": "usps_collection_boxes", "addr:city": "CORPUS CHRISTI", "addr:country": "US", "addr:postcode": "78415", "addr:state": "TX", "addr:street_address": "4213 S PORT AVE", "amenity": "post_box", "brand": "United States Postal Service", "brand:wikidata": "Q668687", "collection_times": "Mo-Fr 17:00; Sa 13:00", "indoor": "yes", "note": "ON 12/24 AND 12/31, THIS BOX MAY BE COLLECTED AS EARLY AS 12 NOON.", "nsi_id": "unitedstatespostalservice-a77078", "operator": "United States Postal Service", "operator:short": "USPS", "operator:type": "public", "operator:wikidata": "Q668687", "ref": "7841500027"}, "type": "Feature"}
{"geometry": {"coordinates": [-97.427182988, 27.748379981], "type": "Point"}, "id": "gmj1ZiRP-sizbBgvl_aeZrfYirQ=", "properties": {"@source_uri": "https://tools.usps.com/UspsToolsRestServices/rest/POLocator/findLocations", "@spider": "usps_collection_boxes", "addr:city": "CORPUS CHRISTI", "addr:country": "US", "addr:postcode": "78416", "addr:state": "TX", "addr:street_address": "2030 GOLLIHAR RD", "amenity": "post_box", "brand": "United States Postal Service", "brand:wikidata": "Q668687", "collection_times": "Mo-Fr 15:45; Sa 13:40", "note": "ON 12/24 AND 12/31, THIS BOX MAY BE COLLECTED AS EARLY AS 12 NOON.", "nsi_id": "unitedstatespostalservice-a77078", "operator": "United States Postal Service", "operator:short": "USPS", "operator:type": "public", "operator:wikidata": "Q668687", "ref": "7841600000"}, "type": "Feature"}
{"geometry": {"coordinates": [-97.439445042, 27.743354988], "type": "Point"}, "id": "yq9RX5qCe2kGtaes-SOyeY1mRng=", "properties": {"@source_uri": "https://tools.usps.com/UspsToolsRestServices/rest/POLocator/findLocations", "@spider": "usps_collection_boxes", "addr:city": "CORPUS CHRISTI", "addr:country": "US", "addr:postcode": "78416", "addr:state": "TX", "addr:street_address": "1620 S PADRE ISLAND DR", "amenity": "post_box", "brand": "United States Postal Service", "brand:wikidata": "Q668687", "collection_times": "Mo-Fr 15:45; Sa 13:35", "note": "ON 12/24 AND 12/31, THIS BOX MAY BE COLLECTED AS EARLY AS 12 NOON.", "nsi_id": "unitedstatespostalservice-a77078", "operator": "United States Postal Service", "operator:short": "USPS", "operator:type": "public", "operator:wikidata": "Q668687", "ref": "7841600001"}, "type": "Feature"}
{"geometry": {"coordinates": [-97.449043997, 27.731649996], "type": "Point"}, "id": "LKmaQ6nVZsH4vTjtokO_axX0FPo=", "properties": {"@source_uri": "https://tools.usps.com/UspsToolsRestServices/rest/POLocator/findLocations", "@spider": "usps_collection_boxes", "addr:city": "CORPUS CHRISTI", "addr:country": "US", "addr:postcode": "78417", "addr:state": "TX", "addr:street_address": "5758 GREENWOOD DR", "amenity": "post_box", "brand": "United States Postal Service", "brand:wikidata": "Q668687", "collection_times": "Mo-Fr 15:00; Sa 13:30", "note": "ON 12/24 AND 12/31, THIS BOX MAY BE COLLECTED AS EARLY AS 12 NOON.", "nsi_id": "unitedstatespostalservice-a77078", "operator": "United States Postal Service", "operator:short": "USPS", "operator:type": "public", "operator:wikidata": "Q668687", "ref": "7841700001"}, "type": "Feature"}
{"geometry": {"coordinates": [-97.222428013, 27.619740985], "type": "Point"}, "id": "TPob_Z-Ew5p6mugE0t_unnixw94=", "properties": {"@source_uri": "https://tools.usps.com/UspsToolsRestServices/rest/POLocator/findLocations", "@spider": "usps_collection_boxes", "addr:city": "CORPUS CHRISTI", "addr:country": "US", "addr:postcode": "78418", "addr:state": "TX", "addr:street_address": "14493 S PADRE ISLAND DR", "amenity": "post_box", "brand": "United States Postal Service", "brand:wikidata": "Q668687", "collection_times": "Mo-Fr 16:00; Sa 14:00", "note": "ON 12/24 AND 12/31, THIS BOX MAY BE COLLECTED AS EARLY AS 12 NOON.", "nsi_id": "unitedstatespostalservice-a77078", "operator": "United States Postal Service", "operator:short": "USPS", "operator:type": "public", "operator:wikidata": "Q668687", "ref": "7841800001"}, "type": "Feature"}
{"geometry": {"coordinates": [-97.222945009, 27.602400001], "type": "Point"}, "id": "KSdtU4nR36QErrmnlUGHcdKGBdM=", "properties": {"@source_uri": "https://tools.usps.com/UspsToolsRestServices/rest/POLocator/findLocations", "@spider": "usps_collection_boxes", "addr:city": "CORPUS CHRISTI", "addr:country": "US", "addr:postcode": "78418", "addr:state": "TX", "addr:street_address": "15233 S PADRE ISLAND DR", "amenity": "post_box", "brand": "United States Postal Service", "brand:wikidata": "Q668687", "collection_times": "Mo-Fr 16:00; Sa 14:00", "note": "ON 12/24 AND 12/31, THIS BOX MAY BE COLLECTED AS EARLY AS 12 NOON.", "nsi_id": "unitedstatespostalservice-a77078", "operator": "United States Postal Service", "operator:short": "USPS", "operator:type": "public", "operator:wikidata": "Q668687", "ref": "7841800002"}, "type": "Feature"}
{"geometry": {"coordinates": [-97.290813028, 27.631473009], "type": "Point"}, "id": "SlXC5D8xxxLvhX4OuncJ7GXGWJw=", "properties": {"@source_uri": "https://tools.usps.com/UspsToolsRestServices/rest/POLocator/findLocations", "@spider": "usps_collection_boxes", "addr:city": "CORPUS CHRISTI", "addr:country": "US", "addr:postcode": "78418", "addr:state": "TX", "addr:street_address": "3058 LAGUNA SHORES RD", "amenity": "post_box", "brand": "United States Postal Service", "brand:wikidata": "Q668687", "collection_times": "Mo-Fr 15:30; Sa 14:00", "note": "ON 12/24 AND 12/31, THIS BOX MAY BE COLLECTED AS EARLY AS 12 NOON.", "nsi_id": "unitedstatespostalservice-a77078", "operator": "United States Postal Service", "operator:short": "USPS", "operator:type": "public", "operator:wikidata": "Q668687", "ref": "7841800003"}, "type": "Feature"}
{"geometry": {"coordinates": [-97.299984003, 27.676682983], "type": "Point"}, "id": "Mg-HYQautlXejRVi-whGSwSFNnE=", "properties": {"@source_uri": "https://tools.usps.com/UspsToolsRestServices/rest/POLocator/findLocations", "@spider": "usps_collection_boxes", "addr:city": "CORPUS CHRISTI", "addr:country": "US", "addr:postcode": "78418", "addr:state": "TX", "addr:street_address": "9450 S PADRE ISLAND DR", "amenity": "post_box", "brand": "United States Postal Service", "brand:wikidata": "Q668687", "collection_times": "Mo-Fr 16:00; Sa 14:00", "note": "ON 12/24 AND 12/31, THIS BOX MAY BE COLLECTED AS EARLY AS 12 NOON.", "nsi_id": "unitedstatespostalservice-a77078", "operator": "United States Postal Service", "operator:short": "USPS", "operator:type": "public", "operator:wikidata": "Q668687", "ref": "7841800007"}, "type": "Feature"}
{"geometry": {"coordinates": [-97.293452992, 27.651789988], "type": "Point"}, "id": "j5_ZbpiD0F5EvQSj7NcPkgQr08Y=", "properties": {"@source_uri": "https://tools.usps.com/UspsToolsRestServices/rest/POLocator/findLocations", "@spider": "usps_collection_boxes", "addr:city": "CORPUS CHRISTI", "addr:country": "US", "addr:postcode": "78418", "addr:state": "TX", "addr:street_address": "2148 WALDRON RD", "amenity": "post_box", "brand": "United States Postal Service", "brand:wikidata": "Q668687", "collection_times": "Mo-Fr 15:30; Sa 14:00", "note": "ON 12/24 AND 12/31, THIS BOX MAY BE COLLECTED AS EARLY AS 12 NOON.", "nsi_id": "unitedstatespostalservice-a77078", "operator": "United States Postal Service", "operator:short": "USPS", "operator:type": "public", "operator:wikidata": "Q668687", "ref": "7841800010"}, "type": "Feature"}
{"geometry": {"coordinates": [-97.298139984, 27.63939001], "type": "Point"}, "id": "QGyoN8IsQuGM66GRCXeCMc7RU74=", "properties": {"@source_uri": "https://tools.usps.com/UspsToolsRestServices/rest/POLocator/findLocations", "@spider": "usps_collection_boxes", "addr:city": "CORPUS CHRISTI", "addr:country": "US", "addr:postcode": "78418", "addr:state": "TX", "addr:street_address": "2919 WALDRON RD", "amenity": "post_box", "brand": "United States Postal Service", "brand:wikidata": "Q668687", "collection_times": "Mo-Fr 15:30; Sa 14:00", "note": "ON 12/24 AND 12/31, THIS BOX MAY BE COLLECTED AS EARLY AS 12 NOON.", "nsi_id": "unitedstatespostalservice-a77078", "operator": "United States Postal Service", "operator:short": "USPS", "operator:type": "public", "operator:wikidata": "Q668687", "ref": "7841800011"}, "type": "Feature"}
{"geometry": {"coordinates": [-97.286924998, 27.667705001], "type": "Point"}, "id": "MWq-YMaBlquuE3kKQernuVn9FSA=", "properties": {"@source_uri": "https://tools.usps.com/UspsToolsRestServices/rest/POLocator/findLocations", "@spider": "usps_collection_boxes", "addr:city": "CORPUS CHRISTI", "addr:country": "US", "addr:postcode": "78418", "addr:state": "TX", "addr:street_address": "10139 SECURITY DR", "amenity": "post_box", "brand": "United States Postal Service", "brand:wikidata": "Q668687", "collection_times": "Mo-Fr 16:30; Sa 14:30", "note": "ON 12/24 AND 12/31, THIS BOX MAY BE COLLECTED AS EARLY AS 12 NOON.", "nsi_id": "unitedstatespostalservice-a77078", "operator": "United States Postal Service", "operator:short": "USPS", "operator:type": "public", "operator:wikidata": "Q668687", "ref": "7841800012"}, "type": "Feature"}
{"geometry": {"coordinates": [-97.286924998, 27.667705001], "type": "Point"}, "id": "0tyg8d7f8UHFOza3OFP577CChUI=", "properties": {"@source_uri": "https://tools.usps.com/UspsToolsRestServices/rest/POLocator/findLocations", "@spider": "usps_collection_boxes", "addr:city": "CORPUS CHRISTI", "addr:country": "US", "addr:postcode": "78418", "addr:state": "TX", "addr:street_address": "10139 SECURITY DR", "amenity": "post_box", "brand": "United States Postal Service", "brand:wikidata": "Q668687", "collection_times": "Mo-Fr 16:30; Sa 14:30", "note": "ON 12/24 AND 12/31, THIS BOX MAY BE COLLECTED AS EARLY AS 12 NOON.", "nsi_id": "unitedstatespostalservice-a77078", "operator": "United States Postal Service", "operator:short": "USPS", "operator:type": "public", "operator:wikidata": "Q668687", "ref": "7841800013"}, "type": "Feature"}
{"geometry": {"coordinates": [-97.286924998, 27.667705001], "type": "Point"}, "id": "wOpB-bZtUeCB4l3h46hIhmUMooM=", "properties": {"@source_uri": "https://tools.usps.com/UspsToolsRestServices/rest/POLocator/findLocations", "@spider": "usps_collection_boxes", "addr:city": "CORPUS CHRISTI", "addr:country": "US", "addr:postcode": "78418", "addr:state": "TX", "addr:street_address": "10139 SECURITY DR", "amenity": "post_box", "brand": "United States Postal Service", "brand:wikidata": "Q668687", "collection_times": "Mo-Fr 16:30; Sa 14:30", "indoor": "yes", "note": "ON 12/24 AND 12/31, THIS BOX MAY BE COLLECTED AS EARLY AS 12 NOON.", "nsi_id": "unitedstatespostalservice-a77078", "operator": "United States Postal Service", "operator:short": "USPS", "operator:type": "public", "operator:wikidata": "Q668687", "ref": "7841800015"}, "type": "Feature"}
{"geometry": {"coordinates": [-97.286924998, 27.667705001], "type": "Point"}, "id": "oub338JQh_AaHel-ZxzctZXpu2U=", "properties": {"@source_uri": "https://tools.usps.com/UspsToolsRestServices/rest/POLocator/findLocations", "@spider": "usps_collection_boxes", "addr:city": "CORPUS CHRISTI", "addr:country": "US", "addr:postcode": "78418", "addr:state": "TX", "addr:street_address": "10139 SECURITY DR", "amenity": "post_box", "brand": "United States Postal Service", "brand:wikidata": "Q668687", "collection_times": "Mo-Fr 16:30; Sa 14:30", "indoor": "yes", "note": "ON 12/24 AND 12/31, THIS BOX MAY BE COLLECTED AS EARLY AS 12 NOON.", "nsi_id": "unitedstatespostalservice-a77078", "operator": "United States Postal Service", "operator:short": "USPS", "operator:type": "public", "operator:wikidata": "Q668687", "ref": "7841800016"}, "type": "Feature"}
{"geometry": {"coordinates": [-97.286924998, 27.667705001], "type": "Point"}, "id": "1oDUHN3BhD-RcRcT1rbhjc9uPLU=", "properties": {"@source_uri": "https://tools.usps.com/UspsToolsRestServices/rest/POLocator/findLocations", "@spider": "usps_collection_boxes", "addr:city": "CORPUS CHRISTI", "addr:country": "US", "addr:postcode": "78418", "addr:state": "TX", "addr:street_address": "10139 SECURITY DR", "amenity": "post_box", "brand": "United States Postal Service", "brand:wikidata": "Q668687", "collection_times": "Mo-Fr 17:00; Sa 12:00", "indoor": "yes", "note": "ON 12/24 AND 12/31, THIS BOX MAY BE COLLECTED AS EARLY AS 12 NOON.", "nsi_id": "unitedstatespostalservice-a77078", "operator": "United States Postal Service", "operator:short": "USPS", "operator:type": "public", "operator:wikidata": "Q668687", "ref": "7841800019"}, "type": "Feature"}
{"geometry": {"coordinates": [-97.270069941, 27.688149631], "type": "Point"}, "id": "0TGh-cyG_5Drg8jDLwq3-XPDu-E=", "properties": {"@source_uri": "https://tools.usps.com/UspsToolsRestServices/rest/POLocator/findLocations", "@spider": "usps_collection_boxes", "addr:city": "CORPUS CHRISTI", "addr:country": "US", "addr:postcode": "78419", "addr:state": "TX", "addr:street_address": "630 LEXINGTON BLVD", "amenity": "post_box", "brand": "United States Postal Service", "brand:wikidata": "Q668687", "collection_times": "Mo-Fr 16:00; Sa 14:00", "note": "ON 12/24 AND 12/31, THIS BOX MAY BE COLLECTED AS EARLY AS 12 NOON.", "nsi_id": "unitedstatespostalservice-a77078", "operator": "United States Postal Service", "operator:short": "USPS", "operator:type": "public", "operator:wikidata": "Q668687", "ref": "7841900002"}, "type": "Feature"}
{"geometry": {"coordinates": [-97.427411982, 27.798884007], "type": "Point"}, "id": "h3l3Qfay3h9VNh4JC8TRFTylIaw=", "properties": {"@source_uri": "https://tools.usps.com/UspsToolsRestServices/rest/POLocator/findLocations", "@spider": "usps_collection_boxes", "addr:city": "CORPUS CHRISTI", "addr:country": "US", "addr:postcode": "78469", "addr:state": "TX", "addr:street_address": "809 NUECES BAY BLVD", "amenity": "post_box", "brand": "United States Postal Service", "brand:wikidata": "Q668687", "collection_times": "Mo-Sa 18:00", "indoor": "yes", "note": "ON 12/24 AND 12/31, THIS BOX MAY BE COLLECTED AS EARLY AS 12 NOON.", "nsi_id": "unitedstatespostalservice-a77078", "operator": "United States Postal Service", "operator:short": "USPS", "operator:type": "public", "operator:wikidata": "Q668687", "ref": "7846900000"}, "type": "Feature"}
{"geometry": {"coordinates": [-97.427411982, 27.798884007], "type": "Point"}, "id": "57HBSCF2Nm2zqw77pUlEUNslLqU=", "properties": {"@source_uri": "https://tools.usps.com/UspsToolsRestServices/rest/POLocator/findLocations", "@spider": "usps_collection_boxes", "addr:city": "CORPUS CHRISTI", "addr:country": "US", "addr:postcode": "78469", "addr:state": "TX", "addr:street_address": "809 NUECES BAY BLVD", "amenity": "post_box", "brand": "United States Postal Service", "brand:wikidata": "Q668687", "collection_times": "Mo-Sa 18:00", "indoor": "yes", "note": "ON 12/24 AND 12/31, THIS BOX MAY BE COLLECTED AS EARLY AS 12 NOON.", "nsi_id": "unitedstatespostalservice-a77078", "operator": "United States Postal Service", "operator:short": "USPS", "operator:type": "public", "operator:wikidata": "Q668687", "ref": "7846900001"}, "type": "Feature"}
{"geometry": {"coordinates": [-97.427411982, 27.798884007], "type": "Point"}, "id": "sjbtZGA2vZgrNVvB98ru4Sk21cc=", "properties": {"@source_uri": "https://tools.usps.com/UspsToolsRestServices/rest/POLocator/findLocations", "@spider": "usps_collection_boxes", "addr:city": "CORPUS CHRISTI", "addr:country": "US", "addr:postcode": "78469", "addr:state": "TX", "addr:street_address": "809 NUECES BAY BLVD", "amenity": "post_box", "brand": "United States Postal Service", "brand:wikidata": "Q668687", "collection_times": "Mo-Sa 18:00", "note": "ON 12/24 AND 12/31, THIS BOX MAY BE COLLECTED AS EARLY AS 12 NOON.", "nsi_id": "unitedstatespostalservice-a77078", "operator": "United States Postal Service", "operator:short": "USPS", "operator:type": "public", "operator:wikidata": "Q668687", "ref": "7846900004"}, "type": "Feature"}
{"geometry": {"coordinates": [-97.427411982, 27.798884007], "type": "Point"}, "id": "hUiS4G1h82v8AwoeMDzK_h2nkNs=", "properties": {"@source_uri": "https://tools.usps.com/UspsToolsRestServices/rest/POLocator/findLocations", "@spider": "usps_collection_boxes", "addr:city": "CORPUS CHRISTI", "addr:country": "US", "addr:postcode": "78469", "addr:state": "TX", "addr:street_address": "809 NUECES BAY BLVD", "amenity": "post_box", "brand": "United States Postal Service", "brand:wikidata": "Q668687", "collection_times": "Mo-Sa 18:00", "indoor": "yes", "note": "ON 12/24 AND 12/31, THIS BOX MAY BE COLLECTED AS EARLY AS 12 NOON.", "nsi_id": "unitedstatespostalservice-a77078", "operator": "United States Postal Service", "operator:short": "USPS", "operator:type": "public", "operator:wikidata": "Q668687", "ref": "7846900005"}, "type": "Feature"}
{"geometry": {"coordinates": [-97.427411982, 27.798884007], "type": "Point"}, "id": "Cd4V4tmB91MMl-Hdps3sWknE19c=", "properties": {"@source_uri": "https://tools.usps.com/UspsToolsRestServices/rest/POLocator/findLocations", "@spider": "usps_collection_boxes", "addr:city": "CORPUS CHRISTI", "addr:country": "US", "addr:postcode": "78469", "addr:state": "TX", "addr:street_address": "809 NUECES BAY BLVD", "amenity": "post_box", "brand": "United States Postal Service", "brand:wikidata": "Q668687", "collection_times": "Mo-Sa 18:00", "indoor": "yes", "note": "ON 12/24 AND 12/31, THIS BOX MAY BE COLLECTED AS EARLY AS 12 NOON.", "nsi_id": "unitedstatespostalservice-a77078", "operator": "United States Postal Service", "operator:short": "USPS", "operator:type": "public", "operator:wikidata": "Q668687", "ref": "7846900006"}, "type": "Feature"}
{"geometry": {"coordinates": [-97.427411982, 27.798884007], "type": "Point"}, "id": "tbC_8kC2U15zA68-c12W14okmdk=", "properties": {"@source_uri": "https://tools.usps.com/UspsToolsRestServices/rest/POLocator/findLocations", "@spider": "usps_collection_boxes", "addr:city": "CORPUS CHRISTI", "addr:country": "US", "addr:postcode": "78469", "addr:state": "TX", "addr:street_address": "809 NUECES BAY BLVD", "amenity": "post_box", "brand": "United States Postal Service", "brand:wikidata": "Q668687", "collection_times": "Mo-Fr 17:30; Sa 13:00", "indoor": "yes", "note": "ON 12/24 AND 12/31, THIS BOX MAY BE COLLECTED AS EARLY AS 12 NOON.", "nsi_id": "unitedstatespostalservice-a77078", "operator": "United States Postal Service", "operator:short": "USPS", "operator:type": "public", "operator:wikidata": "Q668687", "ref": "7846900008"}, "type": "Feature"}
