{"geometry": {"coordinates": [-99.130519, 30.444351], "type": "Point"}, "id": "1taPOLSFzENviBdd3lgDDO3amWw=", "properties": {"@spider": "usps_collection_boxes", "addr:city": "DOSS", "addr:country": "US", "addr:full": "14112 N RANCH ROAD 783", "addr:postcode": "78618", "addr:state": "TX", "brand": "USPS", "collection_times": "Mo-Sa 11:30", "name": "USPS COLLECTION BOX - PO LOBBY", "ref": "7861800000"}, "type": "Feature"}
{"geometry": {"coordinates": [-99.130519, 30.444351], "type": "Point"}, "id": "bQGFofNAMchRUZDLfQDmSn6vzXg=", "properties": {"@spider": "usps_collection_boxes", "addr:city": "DOSS", "addr:country": "US", "addr:full": "14112 N RANCH ROAD 783", "addr:postcode": "78618", "addr:state": "TX", "brand": "USPS", "collection_times": "Mo-Sa 11:30", "name": "USPS COLLECTION BOX - BLUE BOX", "ref": "7861800001"}, "type": "Feature"}
{"geometry": {"coordinates": [-99.1304961145, 30.4443571491], "type": "Point"}, "id": "1N-1s3wyTggGe_SMJ1kbGnHe2lo=", "properties": {"@spider": "usps_collection_boxes", "addr:city": "DOSS", "addr:country": "US", "addr:full": "14112 N RANCH ROAD 783", "addr:postcode": "78618", "addr:state": "TX", "brand": "USPS", "collection_times": "Mo-Sa 12:30", "name": "USPS COLLECTION BOX - PO LOBBY", "note": "ON 12/24 AND 12/31, THIS BOX MAY BE COLLECTED AS EARLY AS 12 NOON.", "ref": "7861800002"}, "type": "Feature"}
