{"geometry": {"coordinates": [-97.7431993, 30.267145], "type": "Point"}, "id": "8ldz2-XMB0JXcLgpRgWzpJHpKeo=", "properties": {"@spider": "usps_collection_boxes", "addr:city": "AUSTIN", "addr:country": "US", "addr:full": "500 CONGRESS AVE", "addr:postcode": "78701", "addr:state": "TX", "brand": "USPS", "collection_times": "Mo-Fr 15:30", "name": "USPS COLLECTION BOX - BLUE BOX", "note": "ON 12/24 AND 12/31, THIS BOX MAY BE COLLECTED AS EARLY AS 12 NOON.", "ref": "7870100005"}, "type": "Feature"}
{"geometry": {"coordinates": [-97.7432645, 30.266258], "type": "Point"}, "id": "1DVr4Dsclrb38XBHySxhA-djp0M=", "properties": {"@spider": "usps_collection_boxes", "addr:city": "AUSTIN", "addr:country": "US", "addr:full": "327 CONGRESS AVE", "addr:postcode": "78701", "addr:state": "TX", "brand": "USPS", "collection_times": "Mo-Fr 15:45; Sa 15:15", "name": "USPS COLLECTION BOX - BLUE BOX", "note": "ON 12/24 AND 12/31, THIS BOX MAY BE COLLECTED AS EARLY AS 12 NOON.", "ref": "7870100006"}, "type": "Feature"}
{"geometry": {"coordinates": [-97.73954801, 30.272351229], "type": "Point"}, "id": "93I7dRgsNTUgrH3IyNSWa7Cyts4=", "properties": {"@spider": "usps_collection_boxes", "addr:city": "AUSTIN", "addr:country": "US", "addr:full": "220 E 11TH ST", "addr:postcode": "78701", "addr:state": "TX", "brand": "USPS", "collection_times": "Mo-Fr 17:00", "name": "USPS COLLECTION BOX - BLUE BOX", "note": "ON 12/24 AND 12/31, THIS BOX MAY BE COLLECTED AS EARLY AS 12 NOON.", "ref": "7870100012"}, "type": "Feature"}
{"geometry": {"coordinates": [-97.7442131272, 30.2736047611], "type": "Point"}, "id": "P7Dhq3U6JefgABgGxF-UK8ZC71M=", "properties": {"@spider": "usps_collection_boxes", "addr:city": "AUSTIN", "addr:country": "US", "addr:full": "314 W 11TH ST", "addr:postcode": "78701", "addr:state": "TX", "brand": "USPS", "collection_times": "Mo-Fr 16:30", "name": "USPS COLLECTION BOX - BLUE BOX", "note": "ON 12/24 AND 12/31, THIS BOX MAY BE COLLECTED AS EARLY AS 12 NOON.", "ref": "7870100020"}, "type": "Feature"}
{"geometry": {"coordinates": [-97.7488307099, 30.2716141507], "type": "Point"}, "id": "XsZpLmZJjFfKaMrKcY2qBRj15gQ=", "properties": {"@spider": "usps_collection_boxes", "addr:city": "AUSTIN", "addr:country": "US", "addr:full": "709 RIO GRANDE ST", "addr:postcode": "78701", "addr:state": "TX", "brand": "USPS", "collection_times": "Mo-Fr 17:30", "name": "USPS COLLECTION BOX - BLUE BOX", "note": "ON 12/24 AND 12/31, THIS BOX MAY BE COLLECTED AS EARLY AS 12 NOON.", "ref": "7870100028"}, "type": "Feature"}
{"geometry": {"coordinates": [-97.7465284, 30.271726], "type": "Point"}, "id": "Z8mRX2oEf6pDh1wZn5_kS2m4z3U=", "properties": {"@spider": "usps_collection_boxes", "addr:city": "AUSTIN", "addr:country": "US", "addr:full": "812 SAN ANTONIO ST", "addr:postcode": "78701", "addr:state": "TX", "brand": "USPS", "collection_times": "Mo-Fr 16:30", "name": "USPS COLLECTION BOX - BLUE BOX", "note": "ON 12/24 AND 12/31, THIS BOX MAY BE COLLECTED AS EARLY AS 12 NOON.", "ref": "7870100029"}, "type": "Feature"}
{"geometry": {"coordinates": [-97.7448503, 30.273218], "type": "Point"}, "id": "V7M-1DLp1wiU9UOp4K1QQ6TcK30=", "properties": {"@spider": "usps_collection_boxes", "addr:city": "AUSTIN", "addr:country": "US", "addr:full": "1000 GUADALUPE ST", "addr:postcode": "78701", "addr:state": "TX", "brand": "USPS", "collection_times": "Mo-Fr 16:30", "name": "USPS COLLECTION BOX - BLUE BOX", "note": "ON 12/24 AND 12/31, THIS BOX MAY BE COLLECTED AS EARLY AS 12 NOON.", "ref": "7870100030"}, "type": "Feature"}
{"geometry": {"coordinates": [-97.7457838, 30.279811], "type": "Point"}, "id": "tA28LLu3LFozJ7UewfKpX_2xpfI=", "properties": {"@spider": "usps_collection_boxes", "addr:city": "AUSTIN", "addr:country": "US", "addr:full": "1601 RIO GRANDE ST", "addr:postcode": "78701", "addr:state": "TX", "brand": "USPS", "collection_times": "Mo-Fr 16:45", "name": "USPS COLLECTION BOX - BLUE BOX", "note": "ON 12/24 AND 12/31, THIS BOX MAY BE COLLECTED AS EARLY AS 12 NOON.", "ref": "7870100043"}, "type": "Feature"}
{"geometry": {"coordinates": [-97.7438813, 30.27606], "type": "Point"}, "id": "S7KT2GYJL9MB_ppPQbgmYgsi_sk=", "properties": {"@spider": "usps_collection_boxes", "addr:city": "AUSTIN", "addr:country": "US", "addr:full": "1212 GUADALUPE ST", "addr:postcode": "78701", "addr:state": "TX", "brand": "USPS", "collection_times": "Mo-Fr 17:00", "name": "USPS COLLECTION BOX - BLUE BOX", "note": "ON 12/24 AND 12/31, THIS BOX MAY BE COLLECTED AS EARLY AS 12 NOON.", "ref": "7870100046"}, "type": "Feature"}
{"geometry": {"coordinates": [-97.7457412, 30.276668], "type": "Point"}, "id": "HTxZNyzGe958YSXu8agEWF8Jxb8=", "properties": {"@spider": "usps_collection_boxes", "addr:city": "AUSTIN", "addr:country": "US", "addr:full": "1301 NUECES ST", "addr:postcode": "78701", "addr:state": "TX", "brand": "USPS", "collection_times": "Mo-Fr 17:30", "name": "USPS COLLECTION BOX - BLUE BOX", "note": "ON 12/24 AND 12/31, THIS BOX MAY BE COLLECTED AS EARLY AS 12 NOON.", "ref": "7870100047"}, "type": "Feature"}
{"geometry": {"coordinates": [-97.7466907, 30.277815], "type": "Point"}, "id": "iiOAfM3JtoE3o85fTYgImCLbh6Y=", "properties": {"@spider": "usps_collection_boxes", "addr:city": "AUSTIN", "addr:country": "US", "addr:full": "1306 RIO GRANDE ST", "addr:postcode": "78701", "addr:state": "TX", "brand": "USPS", "collection_times": "Mo-Fr 17:30", "name": "USPS COLLECTION BOX - BLUE BOX", "note": "ON 12/24 AND 12/31, THIS BOX MAY BE COLLECTED AS EARLY AS 12 NOON.", "ref": "7870100048"}, "type": "Feature"}
{"geometry": {"coordinates": [-97.7469646, 30.276587], "type": "Point"}, "id": "6ce1VrPtBgCrkVfpbLCYFhLmhIE=", "properties": {"@spider": "usps_collection_boxes", "addr:city": "AUSTIN", "addr:country": "US", "addr:full": "1209 RIO GRANDE ST", "addr:postcode": "78701", "addr:state": "TX", "brand": "USPS", "collection_times": "Mo-Fr 17:30", "name": "USPS COLLECTION BOX - BLUE BOX", "note": "ON 12/24 AND 12/31, THIS BOX MAY BE COLLECTED AS EARLY AS 12 NOON.", "ref": "7870100049"}, "type": "Feature"}
{"geometry": {"coordinates": [-97.7506676, 30.275507], "type": "Point"}, "id": "vuFiEDW5n0QDa-Iunl3nJRSdnTE=", "properties": {"@spider": "usps_collection_boxes", "addr:city": "AUSTIN", "addr:country": "US", "addr:full": "825 W 11TH ST", "addr:postcode": "78701", "addr:state": "TX", "brand": "USPS", "collection_times": "Mo-Fr 17:30; Sa 15:15", "name": "USPS COLLECTION BOX - BLUE BOX", "note": "ON 12/24 AND 12/31, THIS BOX MAY BE COLLECTED AS EARLY AS 12 NOON.", "ref": "7870100052"}, "type": "Feature"}
{"geometry": {"coordinates": [-97.7491615, 30.273882], "type": "Point"}, "id": "a-gXBnvB8hPjqKeacCKKv6tW9o8=", "properties": {"@spider": "usps_collection_boxes", "addr:city": "AUSTIN", "addr:country": "US", "addr:full": "707 W 10TH ST", "addr:postcode": "78701", "addr:state": "TX", "brand": "USPS", "collection_times": "Mo-Fr 17:30", "name": "USPS COLLECTION BOX - BLUE BOX", "note": "ON 12/24 AND 12/31, THIS BOX MAY BE COLLECTED AS EARLY AS 12 NOON.", "ref": "7870100053"}, "type": "Feature"}
{"geometry": {"coordinates": [-97.7441363, 30.273608], "type": "Point"}, "id": "cUZ5o6gZlFgolTjOJM0HQn5lQ_Y=", "properties": {"@spider": "usps_collection_boxes", "addr:city": "AUSTIN", "addr:country": "US", "addr:full": "314 W 11TH ST", "addr:postcode": "78701", "addr:state": "TX", "brand": "USPS", "collection_times": "Mo-Fr 16:30", "name": "USPS COLLECTION BOX - BLUE BOX", "note": "ON 12/24 AND 12/31, THIS BOX MAY BE COLLECTED AS EARLY AS 12 NOON.", "ref": "7870100054"}, "type": "Feature"}
{"geometry": {"coordinates": [-97.735492661, 30.2670946511], "type": "Point"}, "id": "hIMhyHH_deVdx0Zf_EKtRkhsFA4=", "properties": {"@spider": "usps_collection_boxes", "addr:city": "AUSTIN", "addr:country": "US", "addr:full": "700 E 7TH ST", "addr:postcode": "78701", "addr:state": "TX", "brand": "USPS", "collection_times": "Mo-Fr 15:45", "name": "USPS COLLECTION BOX - BLUE BOX", "note": "ON 12/24 AND 12/31, THIS BOX MAY BE COLLECTED AS EARLY AS 12 NOON.", "ref": "7870100096"}, "type": "Feature"}
{"geometry": {"coordinates": [-97.7471855, 30.268368], "type": "Point"}, "id": "jr6U6Hr8GgFdRav8J_vGnTcqiYA=", "properties": {"@spider": "usps_collection_boxes", "addr:city": "AUSTIN", "addr:country": "US", "addr:full": "510 GUADALUPE ST", "addr:postcode": "78701", "addr:state": "TX", "brand": "USPS", "collection_times": "Mo-Fr 17:45; Sa 12:30", "name": "USPS COLLECTION BOX - BLUE BOX", "note": "ON 12/24 AND 12/31, THIS BOX MAY BE COLLECTED AS EARLY AS 12 NOON.", "ref": "7870100124"}, "type": "Feature"}
{"geometry": {"coordinates": [-97.7472467, 30.268334], "type": "Point"}, "id": "zMsxnqTCGQofrY0oZhi4GNZapSI=", "properties": {"@spider": "usps_collection_boxes", "addr:city": "AUSTIN", "addr:country": "US", "addr:full": "510 GUADALUPE ST", "addr:postcode": "78701", "addr:state": "TX", "brand": "USPS", "collection_times": "Mo-Fr 17:45; Sa 12:30", "name": "USPS COLLECTION BOX - BLUE BOX", "note": "ON 12/24 AND 12/31, THIS BOX MAY BE COLLECTED AS EARLY AS 12 NOON.", "ref": "7870100125"}, "type": "Feature"}
{"geometry": {"coordinates": [-97.7501876, 30.27108], "type": "Point"}, "id": "_-GQ1NoxGhGGkJYYlRafxc-sV3g=", "properties": {"@spider": "usps_collection_boxes", "addr:city": "AUSTIN", "addr:country": "US", "addr:full": "711 W 7TH ST", "addr:postcode": "78701", "addr:state": "TX", "brand": "USPS", "collection_times": "Mo-Fr 16:00", "name": "USPS COLLECTION BOX - BLUE BOX", "note": "ON 12/24 AND 12/31, THIS BOX MAY BE COLLECTED AS EARLY AS 12 NOON.", "ref": "7870100137"}, "type": "Feature"}
{"geometry": {"coordinates": [-97.7420126483, 30.2701083949], "type": "Point"}, "id": "glqTizde89_STEI48kyWNv4aUno=", "properties": {"@spider": "usps_collection_boxes", "addr:city": "AUSTIN", "addr:country": "US", "addr:full": "823 CONGRESS AVE", "addr:postcode": "78701", "addr:state": "TX", "brand": "USPS", "collection_times": "Mo-Fr 17:30; Sa 12:00", "name": "USPS COLLECTION BOX - BLUE BOX", "note": "ON 12/24 AND 12/31, THIS BOX MAY BE COLLECTED AS EARLY AS 12 NOON.", "ref": "7870100179"}, "type": "Feature"}
{"geometry": {"coordinates": [-97.741606, 30.270871], "type": "Point"}, "id": "qpVmAOLysYCoRYvbW33lFFAFrS8=", "properties": {"@spider": "usps_collection_boxes", "addr:city": "AUSTIN", "addr:country": "US", "addr:full": "823 CONGRESS AVE STE 150", "addr:postcode": "78701", "addr:state": "TX", "brand": "USPS", "collection_times": "Mo-Fr 17:00; Sa 12:00", "name": "USPS COLLECTION BOX - PO LOBBY", "note": "ON 12/24 AND 12/31, THIS BOX MAY BE COLLECTED AS EARLY AS 12 NOON.", "ref": "7870100180"}, "type": "Feature"}
{"geometry": {"coordinates": [-97.738269, 30.278534], "type": "Point"}, "id": "j90hdDu0e3DxR24ImlBUjxR3pEs=", "properties": {"@spider": "usps_collection_boxes", "addr:city": "AUSTIN", "addr:country": "US", "addr:full": "111 E 17TH ST", "addr:postcode": "78701", "addr:state": "TX", "brand": "USPS", "collection_times": "Mo-Fr 17:00; Sa 12:00", "name": "USPS COLLECTION BOX - PO LOBBY", "note": "ON 12/24 AND 12/31, THIS BOX MAY BE COLLECTED AS EARLY AS 12 NOON.", "ref": "7870100184"}, "type": "Feature"}
{"geometry": {"coordinates": [-97.738269, 30.278534], "type": "Point"}, "id": "0fB4VNyE4_NZImF5nfFsZz3PiBE=", "properties": {"@spider": "usps_collection_boxes", "addr:city": "AUSTIN", "addr:country": "US", "addr:full": "111 E 17TH ST", "addr:postcode": "78701", "addr:state": "TX", "brand": "USPS", "collection_times": "Mo-Fr 17:00; Sa 12:00", "name": "USPS COLLECTION BOX - PO LOBBY", "note": "ON 12/24 AND 12/31, THIS BOX MAY BE COLLECTED AS EARLY AS 12 NOON.", "ref": "7870100185"}, "type": "Feature"}
{"geometry": {"coordinates": [-97.7386929829, 30.2771310184], "type": "Point"}, "id": "iHuMfEPbmkwT25wufLvhpSEaQU0=", "properties": {"@spider": "usps_collection_boxes", "addr:city": "AUSTIN", "addr:country": "US", "addr:full": "1501 CONGRESS AVE", "addr:postcode": "78701", "addr:state": "TX", "brand": "USPS", "collection_times": "Mo-Fr 15:00", "name": "USPS COLLECTION BOX - BLUE BOX", "note": "ON 12/24 AND 12/31, THIS BOX MAY BE COLLECTED AS EARLY AS 12 NOON.", "ref": "7870100187"}, "type": "Feature"}
{"geometry": {"coordinates": [-97.7386929829, 30.2771310184], "type": "Point"}, "id": "uatTpLurq4s5StuotoyiajZM-CE=", "properties": {"@spider": "usps_collection_boxes", "addr:city": "AUSTIN", "addr:country": "US", "addr:full": "1501 CONGRESS AVE", "addr:postcode": "78701", "addr:state": "TX", "brand": "USPS", "collection_times": "Mo-Fr 15:00", "name": "USPS COLLECTION BOX - BLUE BOX", "note": "ON 12/24 AND 12/31, THIS BOX MAY BE COLLECTED AS EARLY AS 12 NOON.", "ref": "7870100188"}, "type": "Feature"}
{"geometry": {"coordinates": [-97.7407542, 30.261642], "type": "Point"}, "id": "DD2zc1ucRsy9ZnyMaqQ2gVSTMSU=", "properties": {"@spider": "usps_collection_boxes", "addr:city": "AUSTIN", "addr:country": "US", "addr:full": "85 TRINITY ST", "addr:postcode": "78701", "addr:state": "TX", "brand": "USPS", "collection_times": "Mo-Fr 12:00", "name": "USPS COLLECTION BOX - BLUE BOX", "ref": "7870100189"}, "type": "Feature"}
{"geometry": {"coordinates": [-97.7335644, 30.27483], "type": "Point"}, "id": "6okCS6TQELsMalEQ8l3IbNd_w-U=", "properties": {"@spider": "usps_collection_boxes", "addr:city": "AUSTIN", "addr:country": "US", "addr:full": "1500 RED RIVER ST", "addr:postcode": "78701", "addr:state": "TX", "brand": "USPS", "collection_times": "Mo-Fr 14:30; Sa 15:30", "name": "USPS COLLECTION BOX - BLUE BOX", "note": "ON 12/24 AND 12/31, THIS BOX MAY BE COLLECTED AS EARLY AS 12 NOON.", "ref": "7870100191"}, "type": "Feature"}
{"geometry": {"coordinates": [-97.7398527, 30.279402], "type": "Point"}, "id": "Ps0AASMo6jAQWo3igu9FVleYNMQ=", "properties": {"@spider": "usps_collection_boxes", "addr:city": "AUSTIN", "addr:country": "US", "addr:full": "1700 CONGRESS AVE", "addr:postcode": "78701", "addr:state": "TX", "brand": "USPS", "collection_times": "Mo-Fr 16:00", "name": "USPS COLLECTION BOX - BLUE BOX", "note": "ON 12/24 AND 12/31, THIS BOX MAY BE COLLECTED AS EARLY AS 12 NOON.", "ref": "7870100192"}, "type": "Feature"}
{"geometry": {"coordinates": [-97.741606, 30.270871], "type": "Point"}, "id": "UMmBzQ2ykB7jojrYSqGeaEycUbc=", "properties": {"@spider": "usps_collection_boxes", "addr:city": "AUSTIN", "addr:country": "US", "addr:full": "823 CONGRESS AVE STE 150", "addr:postcode": "78701", "addr:state": "TX", "brand": "USPS", "collection_times": "Mo-Fr 17:00; Sa 12:00", "name": "USPS COLLECTION BOX - APC", "note": "ON 12/24 AND 12/31, THIS BOX MAY BE COLLECTED AS EARLY AS 12 NOON.", "ref": "7870100193"}, "type": "Feature"}
{"geometry": {"coordinates": [-97.7419844, 30.278245], "type": "Point"}, "id": "RVqaP7t1x43ZZ1t4CPA2_FmIQps=", "properties": {"@spider": "usps_collection_boxes", "addr:city": "AUSTIN", "addr:country": "US", "addr:full": "300 W 15TH ST", "addr:postcode": "78701", "addr:state": "TX", "brand": "USPS", "collection_times": "Mo-Fr 16:45", "name": "USPS COLLECTION BOX - BLUE BOX", "note": "ON 12/24 AND 12/31, THIS BOX MAY BE COLLECTED AS EARLY AS 12 NOON.", "ref": "7870100194"}, "type": "Feature"}
{"geometry": {"coordinates": [-97.7420126483, 30.2701083949], "type": "Point"}, "id": "vgefBLHI3n3y3jCx1yZ2kIVRlkg=", "properties": {"@spider": "usps_collection_boxes", "addr:city": "AUSTIN", "addr:country": "US", "addr:full": "823 CONGRESS AVE STE 150", "addr:postcode": "78701", "addr:state": "TX", "brand": "USPS", "collection_times": "Mo-Fr 17:30", "name": "USPS COLLECTION BOX - PO LOBBY", "note": "ON 12/24 AND 12/31, THIS BOX MAY BE COLLECTED AS EARLY AS 12 NOON.", "ref": "7870100199"}, "type": "Feature"}
{"geometry": {"coordinates": [-97.738267201, 30.278531232], "type": "Point"}, "id": "78hOTsKAao_s5G13vV9yO0WhzJs=", "properties": {"@spider": "usps_collection_boxes", "addr:city": "AUSTIN", "addr:country": "US", "addr:full": "111 E 17TH ST", "addr:postcode": "78701", "addr:state": "TX", "brand": "USPS", "collection_times": "Mo-Fr 17:00", "name": "USPS COLLECTION BOX - PO LOBBY", "note": "ON 12/24 AND 12/31, THIS BOX MAY BE COLLECTED AS EARLY AS 12 NOON.", "ref": "7870100200"}, "type": "Feature"}
{"geometry": {"coordinates": [-97.7321947292, 30.270935759], "type": "Point"}, "id": "8s6fRCIOn-8zrfFMnctpIyCqdo0=", "properties": {"@spider": "usps_collection_boxes", "addr:city": "AUSTIN", "addr:country": "US", "addr:full": "1107 N INTERSTATE 35", "addr:postcode": "78702", "addr:state": "TX", "brand": "USPS", "collection_times": "Mo-Fr 12:15; Sa 15:30", "name": "USPS COLLECTION BOX - BLUE BOX", "note": "ON 12/24 AND 12/31, THIS BOX MAY BE COLLECTED AS EARLY AS 12 NOON.", "ref": "7870200015"}, "type": "Feature"}
{"geometry": {"coordinates": [-97.6983851, 30.272856], "type": "Point"}, "id": "dsEG1xl7Pabad5LcdnrXMCZtXC4=", "properties": {"@spider": "usps_collection_boxes", "addr:city": "AUSTIN", "addr:country": "US", "addr:full": "1144 AIRPORT BLVD", "addr:postcode": "78702", "addr:state": "TX", "brand": "USPS", "collection_times": "Mo-Fr 12:15; Sa 16:00", "name": "USPS COLLECTION BOX - BLUE BOX", "note": "ON 12/24 AND 12/31, THIS BOX MAY BE COLLECTED AS EARLY AS 12 NOON.", "ref": "7870200020"}, "type": "Feature"}
{"geometry": {"coordinates": [-97.721652, 30.261365], "type": "Point"}, "id": "CK-iRa1vLiZSLgvglbs_LJiNq4U=", "properties": {"@spider": "usps_collection_boxes", "addr:city": "AUSTIN", "addr:country": "US", "addr:full": "1914 E 6TH ST", "addr:postcode": "78702", "addr:state": "TX", "brand": "USPS", "collection_times": "Mo-Fr 16:00; Sa 16:15", "name": "USPS COLLECTION BOX - BLUE BOX", "note": "ON 12/24 AND 12/31, THIS BOX MAY BE COLLECTED AS EARLY AS 12 NOON.", "ref": "7870200022"}, "type": "Feature"}
{"geometry": {"coordinates": [-97.721652, 30.261365], "type": "Point"}, "id": "fj8t1KGAUHAvmNQHcbIAEAnzd5E=", "properties": {"@spider": "usps_collection_boxes", "addr:city": "AUSTIN", "addr:country": "US", "addr:full": "1914 E 6TH ST", "addr:postcode": "78702", "addr:state": "TX", "brand": "USPS", "collection_times": "Mo-Fr 16:00", "name": "USPS COLLECTION BOX - PO LOBBY", "note": "ON 12/24 AND 12/31, THIS BOX MAY BE COLLECTED AS EARLY AS 12 NOON.", "ref": "7870200035"}, "type": "Feature"}
{"geometry": {"coordinates": [-97.721681397, 30.261369214], "type": "Point"}, "id": "C4ncbfjGEhsc8kTpEfPr9y-rVgg=", "properties": {"@spider": "usps_collection_boxes", "addr:city": "AUSTIN", "addr:country": "US", "addr:full": "1914 E 6TH ST", "addr:postcode": "78702", "addr:state": "TX", "brand": "USPS", "collection_times": "Mo-Fr 16:00", "name": "USPS COLLECTION BOX - PO LOBBY", "note": "ON 12/24 AND 12/31, THIS BOX MAY BE COLLECTED AS EARLY AS 12 NOON.", "ref": "7870200038"}, "type": "Feature"}
{"geometry": {"coordinates": [-97.7671305, 30.297474], "type": "Point"}, "id": "etPqq94cX0C-PP3c38pe44i3b3E=", "properties": {"@spider": "usps_collection_boxes", "addr:city": "AUSTIN", "addr:country": "US", "addr:full": "2418 SPRING LN", "addr:postcode": "78703", "addr:state": "TX", "brand": "USPS", "collection_times": "Mo-Fr 12:00; Sa 14:15", "name": "USPS COLLECTION BOX - BLUE BOX", "note": "ON 12/24 AND 12/31, THIS BOX MAY BE COLLECTED AS EARLY AS 12 NOON.", "ref": "7870300001"}, "type": "Feature"}
{"geometry": {"coordinates": [-97.7671305, 30.297474], "type": "Point"}, "id": "AO3Rphtk8m9ljGM2629ryN27WKA=", "properties": {"@spider": "usps_collection_boxes", "addr:city": "AUSTIN", "addr:country": "US", "addr:full": "2418 SPRING LN", "addr:postcode": "78703", "addr:state": "TX", "brand": "USPS", "collection_times": "Mo-Fr 17:00; Sa 13:15", "name": "USPS COLLECTION BOX - PO LOBBY", "note": "ON 12/24 AND 12/31, THIS BOX MAY BE COLLECTED AS EARLY AS 12 NOON.", "ref": "7870300008"}, "type": "Feature"}
{"geometry": {"coordinates": [-97.756929, 30.272841], "type": "Point"}, "id": "7xIBlbR_UniEpp7j_OhxSkw1Xdk=", "properties": {"@spider": "usps_collection_boxes", "addr:city": "AUSTIN", "addr:country": "US", "addr:full": "1130 W 6TH ST", "addr:postcode": "78703", "addr:state": "TX", "brand": "USPS", "collection_times": "Mo-Sa 14:45", "name": "USPS COLLECTION BOX - BLUE BOX", "note": "ON 12/24 AND 12/31, THIS BOX MAY BE COLLECTED AS EARLY AS 12 NOON.", "ref": "7870300010"}, "type": "Feature"}
{"geometry": {"coordinates": [-97.7591088, 30.280109], "type": "Point"}, "id": "DX6FRUhgzarQ1KtG5YvbHyqlhlI=", "properties": {"@spider": "usps_collection_boxes", "addr:city": "AUSTIN", "addr:country": "US", "addr:full": "1115 W LYNN ST", "addr:postcode": "78703", "addr:state": "TX", "brand": "USPS", "collection_times": "Mo-Sa 14:15", "name": "USPS COLLECTION BOX - BLUE BOX", "note": "ON 12/24 AND 12/31, THIS BOX MAY BE COLLECTED AS EARLY AS 12 NOON.", "ref": "7870300012"}, "type": "Feature"}
{"geometry": {"coordinates": [-97.7522623, 30.274978], "type": "Point"}, "id": "3CF-IvB8_B63Gc7xbsr5llmZ97Y=", "properties": {"@spider": "usps_collection_boxes", "addr:city": "AUSTIN", "addr:country": "US", "addr:full": "917 N LAMAR BLVD", "addr:postcode": "78703", "addr:state": "TX", "brand": "USPS", "collection_times": "Mo-Sa 14:45", "name": "USPS COLLECTION BOX - BLUE BOX", "note": "ON 12/24 AND 12/31, THIS BOX MAY BE COLLECTED AS EARLY AS 12 NOON.", "ref": "7870300014"}, "type": "Feature"}
{"geometry": {"coordinates": [-97.7651409888, 30.2758089827], "type": "Point"}, "id": "I7DHbrS2jVTtdiuUX6JHDxbHz2Y=", "properties": {"@spider": "usps_collection_boxes", "addr:city": "AUSTIN", "addr:country": "US", "addr:full": "1717 W 6TH ST", "addr:postcode": "78703", "addr:state": "TX", "brand": "USPS", "collection_times": "Mo-Fr 14:15", "name": "USPS COLLECTION BOX - BLUE BOX", "note": "ON 12/24 AND 12/31, THIS BOX MAY BE COLLECTED AS EARLY AS 12 NOON.", "ref": "7870300020"}, "type": "Feature"}
{"geometry": {"coordinates": [-97.7539990087, 30.2967380082], "type": "Point"}, "id": "LZ8u5ySWj-GvxCn8oOAbjtyeRio=", "properties": {"@spider": "usps_collection_boxes", "addr:city": "AUSTIN", "addr:country": "US", "addr:full": "1425 PRESTON AVE", "addr:postcode": "78703", "addr:state": "TX", "brand": "USPS", "collection_times": "Mo-Sa 14:15", "name": "USPS COLLECTION BOX - BLUE BOX", "note": "ON 12/24 AND 12/31, THIS BOX MAY BE COLLECTED AS EARLY AS 12 NOON.", "ref": "7870300021"}, "type": "Feature"}
{"geometry": {"coordinates": [-97.7537760218, 30.2719570105], "type": "Point"}, "id": "CMrRzwC1LdLM2YBWDzy9TOdXFuo=", "properties": {"@spider": "usps_collection_boxes", "addr:city": "AUSTIN", "addr:country": "US", "addr:full": "601 N LAMAR BLVD", "addr:postcode": "78703", "addr:state": "TX", "brand": "USPS", "collection_times": "Mo-Fr 14:45; Sa 15:00", "name": "USPS COLLECTION BOX - BLUE BOX", "note": "ON 12/24 AND 12/31, THIS BOX MAY BE COLLECTED AS EARLY AS 12 NOON.", "ref": "7870300023"}, "type": "Feature"}
{"geometry": {"coordinates": [-97.7671305, 30.297474], "type": "Point"}, "id": "w0aWV4Rl98lIZjwozgNm0JTs6Fc=", "properties": {"@spider": "usps_collection_boxes", "addr:city": "AUSTIN", "addr:country": "US", "addr:full": "2418 SPRING LN", "addr:postcode": "78703", "addr:state": "TX", "brand": "USPS", "collection_times": "Mo-Fr 16:30; Sa 13:00", "name": "USPS COLLECTION BOX - PO LOBBY", "note": "ON 12/24 AND 12/31, THIS BOX MAY BE COLLECTED AS EARLY AS 12 NOON.", "ref": "7870300029"}, "type": "Feature"}
{"geometry": {"coordinates": [-97.774322946, 30.2272664834], "type": "Point"}, "id": "W0v3pPRD4kfIM8IGRrfpdY57IFE=", "properties": {"@spider": "usps_collection_boxes", "addr:city": "AUSTIN", "addr:country": "US", "addr:full": "901 W BEN WHITE BLVD", "addr:postcode": "78704", "addr:state": "TX", "brand": "USPS", "collection_times": "Mo-Fr 12:00", "name": "USPS COLLECTION BOX - BLUE BOX", "ref": "7870400004"}, "type": "Feature"}
{"geometry": {"coordinates": [-97.7452079609, 30.2278597122], "type": "Point"}, "id": "1lpnyWsMgHqw1CIOE4dxgDxPIUg=", "properties": {"@spider": "usps_collection_boxes", "addr:city": "AUSTIN", "addr:country": "US", "addr:full": "2900 S INTERSTATE 35", "addr:postcode": "78704", "addr:state": "TX", "brand": "USPS", "collection_times": "Mo-Fr 14:00; Sa 12:45", "name": "USPS COLLECTION BOX - BLUE BOX", "note": "ON 12/24 AND 12/31, THIS BOX MAY BE COLLECTED AS EARLY AS 12 NOON.", "ref": "7870400010"}, "type": "Feature"}
{"geometry": {"coordinates": [-97.7540130103, 30.2383060197], "type": "Point"}, "id": "Vy1sEH3DepxWXbtys7HGiuTZWNY=", "properties": {"@spider": "usps_collection_boxes", "addr:city": "AUSTIN", "addr:country": "US", "addr:full": "2400 S CONGRESS AVE", "addr:postcode": "78704", "addr:state": "TX", "brand": "USPS", "collection_times": "Mo-Fr 12:00", "name": "USPS COLLECTION BOX - BLUE BOX", "ref": "7870400011"}, "type": "Feature"}
{"geometry": {"coordinates": [-97.7362893, 30.243162], "type": "Point"}, "id": "GhqnGqZO6Ya9yNqN_3fcwjpTKXk=", "properties": {"@spider": "usps_collection_boxes", "addr:city": "AUSTIN", "addr:country": "US", "addr:full": "1524 S IH 35", "addr:postcode": "78704", "addr:state": "TX", "brand": "USPS", "collection_times": "Mo-Fr 13:45", "name": "USPS COLLECTION BOX - BLUE BOX", "note": "ON 12/24 AND 12/31, THIS BOX MAY BE COLLECTED AS EARLY AS 12 NOON.", "ref": "7870400012"}, "type": "Feature"}
{"geometry": {"coordinates": [-97.7455881, 30.227372], "type": "Point"}, "id": "kNQn5fYKvpJLXClBTvvmF9DnyDE=", "properties": {"@spider": "usps_collection_boxes", "addr:city": "AUSTIN", "addr:country": "US", "addr:full": "2900 S IH 35", "addr:postcode": "78704", "addr:state": "TX", "brand": "USPS", "collection_times": "Mo-Fr 14:00", "name": "USPS COLLECTION BOX - BLUE BOX", "note": "ON 12/24 AND 12/31, THIS BOX MAY BE COLLECTED AS EARLY AS 12 NOON.", "ref": "7870400033"}, "type": "Feature"}
{"geometry": {"coordinates": [-97.7941394, 30.236835], "type": "Point"}, "id": "I0cGGwOQkfsYNeEY8Ypf-qJm6Kw=", "properties": {"@spider": "usps_collection_boxes", "addr:city": "AUSTIN", "addr:country": "US", "addr:full": "4032 S LAMAR BLVD", "addr:postcode": "78704", "addr:state": "TX", "brand": "USPS", "collection_times": "Mo-Fr 12:30; Sa 15:30", "name": "USPS COLLECTION BOX - BLUE BOX", "note": "ON 12/24 AND 12/31, THIS BOX MAY BE COLLECTED AS EARLY AS 12 NOON.", "ref": "7870400037"}, "type": "Feature"}
{"geometry": {"coordinates": [-97.7748356, 30.26181], "type": "Point"}, "id": "3cvp-ifkqafsvcx_GUTgEFoDHbU=", "properties": {"@spider": "usps_collection_boxes", "addr:city": "AUSTIN", "addr:country": "US", "addr:full": "1220 BARTON HILLS DR", "addr:postcode": "78704", "addr:state": "TX", "brand": "USPS", "collection_times": "Mo-Sa 13:00", "name": "USPS COLLECTION BOX - BLUE BOX", "note": "ON 12/24 AND 12/31, THIS BOX MAY BE COLLECTED AS EARLY AS 12 NOON.", "ref": "7870400040"}, "type": "Feature"}
{"geometry": {"coordinates": [-97.7941585348, 30.2350825159], "type": "Point"}, "id": "Ri5AU-SlzGegsPfMS91hwDJrxR8=", "properties": {"@spider": "usps_collection_boxes", "addr:city": "AUSTIN", "addr:country": "US", "addr:full": "4211 S LAMAR BLVD", "addr:postcode": "78704", "addr:state": "TX", "brand": "USPS", "collection_times": "Mo-Fr 12:00; Sa 15:00", "name": "USPS COLLECTION BOX - BLUE BOX", "note": "ON 12/24 AND 12/31, THIS BOX MAY BE COLLECTED AS EARLY AS 12 NOON.", "ref": "7870400047"}, "type": "Feature"}
{"geometry": {"coordinates": [-97.7629233, 30.253993], "type": "Point"}, "id": "BfrN64OyUoophE9pNlB9QILgXLk=", "properties": {"@spider": "usps_collection_boxes", "addr:city": "AUSTIN", "addr:country": "US", "addr:full": "1224 S LAMAR BLVD", "addr:postcode": "78704", "addr:state": "TX", "brand": "USPS", "collection_times": "Mo-Fr 12:15", "name": "USPS COLLECTION BOX - BLUE BOX", "note": "ON 12/24 AND 12/31, THIS BOX MAY BE COLLECTED AS EARLY AS 12 NOON.", "ref": "7870400048"}, "type": "Feature"}
{"geometry": {"coordinates": [-97.7824218, 30.243974], "type": "Point"}, "id": "xvDZ0mfYrK6AUp8PVOoQ74aq4J0=", "properties": {"@spider": "usps_collection_boxes", "addr:city": "AUSTIN", "addr:country": "US", "addr:full": "2200 BARTON SKWY", "addr:postcode": "78704", "addr:state": "TX", "brand": "USPS", "collection_times": "Mo-Fr 12:30; Sa 15:30", "name": "USPS COLLECTION BOX - BLUE BOX", "note": "ON 12/24 AND 12/31, THIS BOX MAY BE COLLECTED AS EARLY AS 12 NOON.", "ref": "7870400052"}, "type": "Feature"}
{"geometry": {"coordinates": [-97.7709745, 30.228919], "type": "Point"}, "id": "sLXjXHNuvJrx8s74n5192ZXBlZo=", "properties": {"@spider": "usps_collection_boxes", "addr:city": "AUSTIN", "addr:country": "US", "addr:full": "3809 S 2ND ST", "addr:postcode": "78704", "addr:state": "TX", "brand": "USPS", "collection_times": "Mo-Fr 18:00; Sa 15:00", "name": "USPS COLLECTION BOX - BLUE BOX", "note": "ON 12/24 AND 12/31, THIS BOX MAY BE COLLECTED AS EARLY AS 12 NOON.", "ref": "7870400054"}, "type": "Feature"}
{"geometry": {"coordinates": [-97.762434, 30.224412], "type": "Point"}, "id": "nnuf3V38upRWOt3r13OlxjGVRYY=", "properties": {"@spider": "usps_collection_boxes", "addr:city": "AUSTIN", "addr:country": "US", "addr:full": "3903 S CONGRESS AVE", "addr:postcode": "78704", "addr:state": "TX", "brand": "USPS", "collection_times": "Mo-Sa 17:00", "name": "USPS COLLECTION BOX - BLUE BOX", "note": "ON 12/24 AND 12/31, THIS BOX MAY BE COLLECTED AS EARLY AS 12 NOON.", "ref": "7870400072"}, "type": "Feature"}
{"geometry": {"coordinates": [-97.7629968781, 30.2244535753], "type": "Point"}, "id": "qQOnIs0cOzhRXgZassY_yLDz_cc=", "properties": {"@spider": "usps_collection_boxes", "addr:city": "AUSTIN", "addr:country": "US", "addr:full": "3903 S CONGRESS AVE", "addr:postcode": "78704", "addr:state": "TX", "brand": "USPS", "collection_times": "Mo-Sa 17:00", "name": "USPS COLLECTION BOX - BLUE BOX", "note": "ON 12/24 AND 12/31, THIS BOX MAY BE COLLECTED AS EARLY AS 12 NOON.", "ref": "7870400073"}, "type": "Feature"}
{"geometry": {"coordinates": [-97.762434, 30.224412], "type": "Point"}, "id": "j-25T1wlWfa0v_fRa1Tc2clL3po=", "properties": {"@spider": "usps_collection_boxes", "addr:city": "AUSTIN", "addr:country": "US", "addr:full": "3903 S CONGRESS AVE", "addr:postcode": "78704", "addr:state": "TX", "brand": "USPS", "collection_times": "Mo-Sa 17:00", "name": "USPS COLLECTION BOX - PO LOBBY", "note": "ON 12/24 AND 12/31, THIS BOX MAY BE COLLECTED AS EARLY AS 12 NOON.", "ref": "7870400075"}, "type": "Feature"}
{"geometry": {"coordinates": [-97.762434, 30.224412], "type": "Point"}, "id": "J4xhh5IQ5dmbOoqucZStJ-9Zepc=", "properties": {"@spider": "usps_collection_boxes", "addr:city": "AUSTIN", "addr:country": "US", "addr:full": "3903 S CONGRESS AVE", "addr:postcode": "78704", "addr:state": "TX", "brand": "USPS", "collection_times": "Mo-Sa 17:00", "name": "USPS COLLECTION BOX - PO LOBBY", "note": "ON 12/24 AND 12/31, THIS BOX MAY BE COLLECTED AS EARLY AS 12 NOON.", "ref": "7870400076"}, "type": "Feature"}
{"geometry": {"coordinates": [-97.762434, 30.224412], "type": "Point"}, "id": "TkXY0lXisM3pWUEKhR6KeAtGYn0=", "properties": {"@spider": "usps_collection_boxes", "addr:city": "AUSTIN", "addr:country": "US", "addr:full": "3903 S CONGRESS AVE", "addr:postcode": "78704", "addr:state": "TX", "brand": "USPS", "collection_times": "Mo-Sa 17:00", "name": "USPS COLLECTION BOX - APC", "note": "ON 12/24 AND 12/31, THIS BOX MAY BE COLLECTED AS EARLY AS 12 NOON.", "ref": "7870400077"}, "type": "Feature"}
{"geometry": {"coordinates": [-97.754383, 30.238427], "type": "Point"}, "id": "dgTAHm_rQZaOKoO3fR8S6L3cbF4=", "properties": {"@spider": "usps_collection_boxes", "addr:city": "AUSTIN", "addr:country": "US", "addr:full": "2400 S CONGRESS AVE", "addr:postcode": "78704", "addr:state": "TX", "brand": "USPS", "collection_times": "Mo-Fr 12:00; Sa 14:45", "name": "USPS COLLECTION BOX - BLUE BOX", "note": "ON 12/24 AND 12/31, THIS BOX MAY BE COLLECTED AS EARLY AS 12 NOON.", "ref": "7870400078"}, "type": "Feature"}
{"geometry": {"coordinates": [-97.7527575, 30.21831], "type": "Point"}, "id": "caXQJJSkW9hPKtMJ6WuJH8SPtE8=", "properties": {"@spider": "usps_collection_boxes", "addr:city": "AUSTIN", "addr:country": "US", "addr:full": "4000 S IH 35", "addr:postcode": "78704", "addr:state": "TX", "brand": "USPS", "collection_times": "Mo-Fr 14:00", "name": "USPS COLLECTION BOX - BLUE BOX", "note": "ON 12/24 AND 12/31, THIS BOX MAY BE COLLECTED AS EARLY AS 12 NOON.", "ref": "7870400079"}, "type": "Feature"}
{"geometry": {"coordinates": [-97.7749566, 30.225461], "type": "Point"}, "id": "j-EDLlzyZxt_ihiYY2-d5CImfzw=", "properties": {"@spider": "usps_collection_boxes", "addr:city": "AUSTIN", "addr:country": "US", "addr:full": "901 W BEN WHITE BLVD", "addr:postcode": "78704", "addr:state": "TX", "brand": "USPS", "collection_times": "Mo-Fr 12:00; Sa 12:45", "name": "USPS COLLECTION BOX - BLUE BOX", "note": "ON 12/24 AND 12/31, THIS BOX MAY BE COLLECTED AS EARLY AS 12 NOON.", "ref": "7870400080"}, "type": "Feature"}
{"geometry": {"coordinates": [-97.762996878, 30.224453575], "type": "Point"}, "id": "YUW1cKrxIJ6NfcS7JDUTBXgeUjE=", "properties": {"@spider": "usps_collection_boxes", "addr:city": "AUSTIN", "addr:country": "US", "addr:full": "3903 S CONGRESS AVE", "addr:postcode": "78704", "addr:state": "TX", "brand": "USPS", "collection_times": "Mo-Fr 17:00; Sa 14:00", "name": "USPS COLLECTION BOX - PO LOBBY", "note": "ON 12/24 AND 12/31, THIS BOX MAY BE COLLECTED AS EARLY AS 12 NOON.", "ref": "7870400086"}, "type": "Feature"}
{"geometry": {"coordinates": [-97.7420989, 30.28499], "type": "Point"}, "id": "9Rr7Djvxno6fnUFGI0t62so1ZrM=", "properties": {"@spider": "usps_collection_boxes", "addr:city": "AUSTIN", "addr:country": "US", "addr:full": "407 W 22ND ST", "addr:postcode": "78705", "addr:state": "TX", "brand": "USPS", "collection_times": "Mo-Fr 12:30", "name": "USPS COLLECTION BOX - BLUE BOX", "note": "ON 12/24 AND 12/31, THIS BOX MAY BE COLLECTED AS EARLY AS 12 NOON.", "ref": "7870500004"}, "type": "Feature"}
{"geometry": {"coordinates": [-97.7418324, 30.287671], "type": "Point"}, "id": "Zn5yidKdGa--T_B7sP2oRXpU2Hc=", "properties": {"@spider": "usps_collection_boxes", "addr:city": "AUSTIN", "addr:country": "US", "addr:full": "407 W 24TH ST", "addr:postcode": "78705", "addr:state": "TX", "brand": "USPS", "collection_times": "Mo-Fr 12:30; Sa 13:45", "name": "USPS COLLECTION BOX - BLUE BOX", "note": "ON 12/24 AND 12/31, THIS BOX MAY BE COLLECTED AS EARLY AS 12 NOON.", "ref": "7870500006"}, "type": "Feature"}
{"geometry": {"coordinates": [-97.7401336, 30.290327], "type": "Point"}, "id": "R7fNggH48F-W7SwyOhpZAP1pzP8=", "properties": {"@spider": "usps_collection_boxes", "addr:city": "AUSTIN", "addr:country": "US", "addr:full": "2605 WHITIS AVE", "addr:postcode": "78705", "addr:state": "TX", "brand": "USPS", "collection_times": "Mo-Sa 13:00", "name": "USPS COLLECTION BOX - BLUE BOX", "note": "ON 12/24 AND 12/31, THIS BOX MAY BE COLLECTED AS EARLY AS 12 NOON.", "ref": "7870500007"}, "type": "Feature"}
{"geometry": {"coordinates": [-97.7243347, 30.289672], "type": "Point"}, "id": "jZBJEP96D2YcO_7dMQbhC5YTxok=", "properties": {"@spider": "usps_collection_boxes", "addr:city": "AUSTIN", "addr:country": "US", "addr:full": "1015 E 32ND ST", "addr:postcode": "78705", "addr:state": "TX", "brand": "USPS", "collection_times": "Mo-Fr 14:15; Sa 13:15", "name": "USPS COLLECTION BOX - BLUE BOX", "note": "ON 12/24 AND 12/31, THIS BOX MAY BE COLLECTED AS EARLY AS 12 NOON.", "ref": "7870500015"}, "type": "Feature"}
{"geometry": {"coordinates": [-97.7506759, 30.290818], "type": "Point"}, "id": "YcIxbB9ROOGRXgT9dGWhvW1jAXg=", "properties": {"@spider": "usps_collection_boxes", "addr:city": "AUSTIN", "addr:country": "US", "addr:full": "2520 LONGVIEW ST", "addr:postcode": "78705", "addr:state": "TX", "brand": "USPS", "collection_times": "Mo-Fr 12:15", "name": "USPS COLLECTION BOX - BLUE BOX", "note": "ON 12/24 AND 12/31, THIS BOX MAY BE COLLECTED AS EARLY AS 12 NOON.", "ref": "7870500020"}, "type": "Feature"}
{"geometry": {"coordinates": [-97.7469653, 30.303682], "type": "Point"}, "id": "_6WvjwL7aIYeTT6mINCy-Dw8NwQ=", "properties": {"@spider": "usps_collection_boxes", "addr:city": "AUSTIN", "addr:country": "US", "addr:full": "1207 W 34TH ST", "addr:postcode": "78705", "addr:state": "TX", "brand": "USPS", "collection_times": "Mo-Fr 15:00", "name": "USPS COLLECTION BOX - BLUE BOX", "note": "ON 12/24 AND 12/31, THIS BOX MAY BE COLLECTED AS EARLY AS 12 NOON.", "ref": "7870500023"}, "type": "Feature"}
{"geometry": {"coordinates": [-97.746431, 30.306685], "type": "Point"}, "id": "GKi_RvgCse3RG_MrA0zAcVkYGLQ=", "properties": {"@spider": "usps_collection_boxes", "addr:city": "AUSTIN", "addr:country": "US", "addr:full": "1301 W 38TH ST", "addr:postcode": "78705", "addr:state": "TX", "brand": "USPS", "collection_times": "Mo-Fr 15:15", "name": "USPS COLLECTION BOX - BLUE BOX", "note": "ON 12/24 AND 12/31, THIS BOX MAY BE COLLECTED AS EARLY AS 12 NOON.", "ref": "7870500026"}, "type": "Feature"}
{"geometry": {"coordinates": [-97.7515692, 30.289453], "type": "Point"}, "id": "PndE-aRwwpu5-SFUetyB4ceoplk=", "properties": {"@spider": "usps_collection_boxes", "addr:city": "AUSTIN", "addr:country": "US", "addr:full": "1301 W 25TH ST", "addr:postcode": "78705", "addr:state": "TX", "brand": "USPS", "collection_times": "Mo-Fr 12:15", "name": "USPS COLLECTION BOX - BLUE BOX", "note": "ON 12/24 AND 12/31, THIS BOX MAY BE COLLECTED AS EARLY AS 12 NOON.", "ref": "7870500028"}, "type": "Feature"}
{"geometry": {"coordinates": [-97.743190964, 30.29351898], "type": "Point"}, "id": "wWSKxlQv7nd5yeDBWsfwEcHt-J0=", "properties": {"@spider": "usps_collection_boxes", "addr:city": "AUSTIN", "addr:country": "US", "addr:full": "600 W 28TH ST", "addr:postcode": "78705", "addr:state": "TX", "brand": "USPS", "collection_times": "Mo-Sa 15:00", "name": "USPS COLLECTION BOX - BLUE BOX", "note": "ON 12/24 AND 12/31, THIS BOX MAY BE COLLECTED AS EARLY AS 12 NOON.", "ref": "7870500030"}, "type": "Feature"}
{"geometry": {"coordinates": [-97.7314586, 30.289085], "type": "Point"}, "id": "xdDDRyleJ-Gq-2FHbYnRHP5qQkE=", "properties": {"@spider": "usps_collection_boxes", "addr:city": "AUSTIN", "addr:country": "US", "addr:full": "727 E DEAN KEETON ST", "addr:postcode": "78705", "addr:state": "TX", "brand": "USPS", "collection_times": "Mo-Fr 13:00", "name": "USPS COLLECTION BOX - BLUE BOX", "note": "ON 12/24 AND 12/31, THIS BOX MAY BE COLLECTED AS EARLY AS 12 NOON.", "ref": "7870500038"}, "type": "Feature"}
{"geometry": {"coordinates": [-97.7283826, 30.289005], "type": "Point"}, "id": "C_-AtH5yb-LeFe5KZO-OnMARTUQ=", "properties": {"@spider": "usps_collection_boxes", "addr:city": "AUSTIN", "addr:country": "US", "addr:full": "2905 MEDICAL ARTS ST", "addr:postcode": "78705", "addr:state": "TX", "brand": "USPS", "collection_times": "Mo-Sa 13:30", "name": "USPS COLLECTION BOX - BLUE BOX", "note": "ON 12/24 AND 12/31, THIS BOX MAY BE COLLECTED AS EARLY AS 12 NOON.", "ref": "7870500039"}, "type": "Feature"}
{"geometry": {"coordinates": [-97.7455923, 30.306064], "type": "Point"}, "id": "TE7Gd9Vl9ey002-0Nxi-EqxT2Xg=", "properties": {"@spider": "usps_collection_boxes", "addr:city": "AUSTIN", "addr:country": "US", "addr:full": "1201 W 38TH ST", "addr:postcode": "78705", "addr:state": "TX", "brand": "USPS", "collection_times": "Mo-Fr 15:15", "name": "USPS COLLECTION BOX - BLUE BOX", "note": "ON 12/24 AND 12/31, THIS BOX MAY BE COLLECTED AS EARLY AS 12 NOON.", "ref": "7870500043"}, "type": "Feature"}
{"geometry": {"coordinates": [-97.7384146, 30.283505], "type": "Point"}, "id": "5ZZPtjDgLDvh0DG1TqeXWbyJmsc=", "properties": {"@spider": "usps_collection_boxes", "addr:city": "AUSTIN", "addr:country": "US", "addr:full": "100 W 21ST ST", "addr:postcode": "78705", "addr:state": "TX", "brand": "USPS", "collection_times": "Mo-Fr 12:45; Sa 14:00", "name": "USPS COLLECTION BOX - BLUE BOX", "note": "ON 12/24 AND 12/31, THIS BOX MAY BE COLLECTED AS EARLY AS 12 NOON.", "ref": "7870500044"}, "type": "Feature"}
{"geometry": {"coordinates": [-97.7409282, 30.283699], "type": "Point"}, "id": "U6PiWe9iRpjgOjDqiOvboL5W2Mc=", "properties": {"@spider": "usps_collection_boxes", "addr:city": "AUSTIN", "addr:country": "US", "addr:full": "2020 WHITIS AVE", "addr:postcode": "78705", "addr:state": "TX", "brand": "USPS", "collection_times": "Mo-Fr 12:30; Sa 14:00", "name": "USPS COLLECTION BOX - BLUE BOX", "note": "ON 12/24 AND 12/31, THIS BOX MAY BE COLLECTED AS EARLY AS 12 NOON.", "ref": "7870500048"}, "type": "Feature"}
{"geometry": {"coordinates": [-97.7263831, 30.28898], "type": "Point"}, "id": "-ae6MtHnI1ZRdfV23n6dhhU52xY=", "properties": {"@spider": "usps_collection_boxes", "addr:city": "AUSTIN", "addr:country": "US", "addr:full": "900 E 30TH ST", "addr:postcode": "78705", "addr:state": "TX", "brand": "USPS", "collection_times": "Mo-Fr 13:45; Sa 13:30", "name": "USPS COLLECTION BOX - BLUE BOX", "note": "ON 12/24 AND 12/31, THIS BOX MAY BE COLLECTED AS EARLY AS 12 NOON.", "ref": "7870500053"}, "type": "Feature"}
{"geometry": {"coordinates": [-97.7365311, 30.289357], "type": "Point"}, "id": "k3MDcPzfkxIgLUoD-sMNUk3kKaw=", "properties": {"@spider": "usps_collection_boxes", "addr:city": "AUSTIN", "addr:country": "US", "addr:full": "2500 SPEEDWAY", "addr:postcode": "78705", "addr:state": "TX", "brand": "USPS", "collection_times": "Mo-Fr 12:45; Sa 14:00", "name": "USPS COLLECTION BOX - BLUE BOX", "note": "ON 12/24 AND 12/31, THIS BOX MAY BE COLLECTED AS EARLY AS 12 NOON.", "ref": "7870500059"}, "type": "Feature"}
{"geometry": {"coordinates": [-97.7335371, 30.285647], "type": "Point"}, "id": "G8ur04mCpz7r6qFu-xCwe-G4oYU=", "properties": {"@spider": "usps_collection_boxes", "addr:city": "AUSTIN", "addr:country": "US", "addr:full": "2301 SAN JACINTO BLVD", "addr:postcode": "78705", "addr:state": "TX", "brand": "USPS", "collection_times": "Mo-Fr 13:15", "name": "USPS COLLECTION BOX - BLUE BOX", "note": "ON 12/24 AND 12/31, THIS BOX MAY BE COLLECTED AS EARLY AS 12 NOON.", "ref": "7870500060"}, "type": "Feature"}
{"geometry": {"coordinates": [-97.743996, 30.303723], "type": "Point"}, "id": "sUtQd-0iZI2kkOz1E09xpU9cgOc=", "properties": {"@spider": "usps_collection_boxes", "addr:city": "AUSTIN", "addr:country": "US", "addr:full": "3507 N LAMAR BLVD", "addr:postcode": "78705", "addr:state": "TX", "brand": "USPS", "collection_times": "Mo-Fr 17:00; Sa 16:30", "name": "USPS COLLECTION BOX - PO LOBBY", "note": "ON 12/24 AND 12/31, THIS BOX MAY BE COLLECTED AS EARLY AS 12 NOON.", "ref": "7870500065"}, "type": "Feature"}
{"geometry": {"coordinates": [-97.743996, 30.303723], "type": "Point"}, "id": "bJHj5OfDpV0_xfySZJUjITXRLZg=", "properties": {"@spider": "usps_collection_boxes", "addr:city": "AUSTIN", "addr:country": "US", "addr:full": "3507 N LAMAR BLVD", "addr:postcode": "78705", "addr:state": "TX", "brand": "USPS", "collection_times": "Mo-Fr 17:00; Sa 16:30", "name": "USPS COLLECTION BOX - PO LOBBY", "note": "ON 12/24 AND 12/31, THIS BOX MAY BE COLLECTED AS EARLY AS 12 NOON.", "ref": "7870500066"}, "type": "Feature"}
{"geometry": {"coordinates": [-97.746285835, 30.288037852], "type": "Point"}, "id": "HxTQyMguaU1F5RcDkQvoH49Mdx8=", "properties": {"@spider": "usps_collection_boxes", "addr:city": "AUSTIN", "addr:country": "US", "addr:full": "801 W 24TH ST", "addr:postcode": "78705", "addr:state": "TX", "brand": "USPS", "collection_times": "Mo-Fr 12:15", "name": "USPS COLLECTION BOX - BLUE BOX", "note": "ON 12/24 AND 12/31, THIS BOX MAY BE COLLECTED AS EARLY AS 12 NOON.", "ref": "7870500067"}, "type": "Feature"}
{"geometry": {"coordinates": [-97.7441469, 30.304972], "type": "Point"}, "id": "fJDI2RmSHn40CXUt91At8_i2Hh4=", "properties": {"@spider": "usps_collection_boxes", "addr:city": "AUSTIN", "addr:country": "US", "addr:full": "3705 MEDICAL PKWY", "addr:postcode": "78705", "addr:state": "TX", "brand": "USPS", "collection_times": "Mo-Fr 15:30", "name": "USPS COLLECTION BOX - BLUE BOX", "note": "ON 12/24 AND 12/31, THIS BOX MAY BE COLLECTED AS EARLY AS 12 NOON.", "ref": "7870500068"}, "type": "Feature"}
{"geometry": {"coordinates": [-97.743996, 30.303723], "type": "Point"}, "id": "UHAK-LVJC6bnuvogy2F0ux_VBJ4=", "properties": {"@spider": "usps_collection_boxes", "addr:city": "AUSTIN", "addr:country": "US", "addr:full": "3507 N LAMAR BLVD", "addr:postcode": "78705", "addr:state": "TX", "brand": "USPS", "collection_times": "Mo-Fr 17:00; Sa 16:30", "name": "USPS COLLECTION BOX - APC", "note": "ON 12/24 AND 12/31, THIS BOX MAY BE COLLECTED AS EARLY AS 12 NOON.", "ref": "7870500069"}, "type": "Feature"}
{"geometry": {"coordinates": [-97.74386692, 30.303912017], "type": "Point"}, "id": "ECcKNSWlfDQK7FCSMYNSbF2E3S8=", "properties": {"@spider": "usps_collection_boxes", "addr:city": "AUSTIN", "addr:country": "US", "addr:full": "3507 N LAMAR BLVD", "addr:postcode": "78705", "addr:state": "TX", "brand": "USPS", "collection_times": "Mo-Fr 17:00", "name": "USPS COLLECTION BOX - PO LOBBY", "note": "ON 12/24 AND 12/31, THIS BOX MAY BE COLLECTED AS EARLY AS 12 NOON.", "ref": "7870500073"}, "type": "Feature"}
{"geometry": {"coordinates": [-97.668251837, 30.333961318], "type": "Point"}, "id": "Lz-DAB7Rv6-Vq8CMuJpnp04LtNo=", "properties": {"@spider": "usps_collection_boxes", "addr:city": "AUSTIN", "addr:country": "US", "addr:full": "8225 CROSS PARK DR", "addr:postcode": "78710", "addr:state": "TX", "brand": "USPS", "collection_times": "Mo-Sa 18:00", "name": "USPS COLLECTION BOX - BLUE BOX", "note": "ON 12/24 AND 12/31, THIS BOX MAY BE COLLECTED AS EARLY AS 12 NOON.", "ref": "7871000003"}, "type": "Feature"}
{"geometry": {"coordinates": [-97.668251837, 30.333961318], "type": "Point"}, "id": "aIpt0W0o93EI6l5YLHKwyxIQBvI=", "properties": {"@spider": "usps_collection_boxes", "addr:city": "AUSTIN", "addr:country": "US", "addr:full": "8225 CROSS PARK DR", "addr:postcode": "78710", "addr:state": "TX", "brand": "USPS", "collection_times": "Mo-Sa 18:00", "name": "USPS COLLECTION BOX - BLUE BOX", "note": "ON 12/24 AND 12/31, THIS BOX MAY BE COLLECTED AS EARLY AS 12 NOON.", "ref": "7871000004"}, "type": "Feature"}
{"geometry": {"coordinates": [-97.668251837, 30.333961318], "type": "Point"}, "id": "04VBq_HPcaS1qnPJIlcjdTRnWMU=", "properties": {"@spider": "usps_collection_boxes", "addr:city": "AUSTIN", "addr:country": "US", "addr:full": "8225 CROSS PARK DR", "addr:postcode": "78710", "addr:state": "TX", "brand": "USPS", "collection_times": "Mo-Sa 18:00", "name": "USPS COLLECTION BOX - BLUE BOX", "note": "ON 12/24 AND 12/31, THIS BOX MAY BE COLLECTED AS EARLY AS 12 NOON.", "ref": "7871000005"}, "type": "Feature"}
{"geometry": {"coordinates": [-97.668206, 30.333649], "type": "Point"}, "id": "JsnXWHTxISoaZH9rhJhnQPfMdAY=", "properties": {"@spider": "usps_collection_boxes", "addr:city": "AUSTIN", "addr:country": "US", "addr:full": "8225 CROSS PARK DR", "addr:postcode": "78710", "addr:state": "TX", "brand": "USPS", "collection_times": "Mo-Sa 18:00", "name": "USPS COLLECTION BOX - BLUE BOX", "note": "ON 12/24 AND 12/31, THIS BOX MAY BE COLLECTED AS EARLY AS 12 NOON.", "ref": "7871000006"}, "type": "Feature"}
{"geometry": {"coordinates": [-97.668206, 30.333649], "type": "Point"}, "id": "UYF3FEx3U3Gj6XCJsRDXOop_1Ao=", "properties": {"@spider": "usps_collection_boxes", "addr:city": "AUSTIN", "addr:country": "US", "addr:full": "8225 CROSS PARK DR", "addr:postcode": "78710", "addr:state": "TX", "brand": "USPS", "collection_times": "Mo-Sa 18:00", "name": "USPS COLLECTION BOX - BLUE BOX", "note": "ON 12/24 AND 12/31, THIS BOX MAY BE COLLECTED AS EARLY AS 12 NOON.", "ref": "7871000007"}, "type": "Feature"}
{"geometry": {"coordinates": [-97.668206, 30.333649], "type": "Point"}, "id": "TFSdiX6EjI_6Qwpf-HBEjp85Sbo=", "properties": {"@spider": "usps_collection_boxes", "addr:city": "AUSTIN", "addr:country": "US", "addr:full": "8225 CROSS PARK DR", "addr:postcode": "78710", "addr:state": "TX", "brand": "USPS", "collection_times": "Mo-Sa 18:00", "name": "USPS COLLECTION BOX - PO LOBBY", "note": "ON 12/24 AND 12/31, THIS BOX MAY BE COLLECTED AS EARLY AS 12 NOON.", "ref": "7871000012"}, "type": "Feature"}
{"geometry": {"coordinates": [-97.668206, 30.333649], "type": "Point"}, "id": "uN3uipp6Nj96UagTgF6V8w88AIY=", "properties": {"@spider": "usps_collection_boxes", "addr:city": "AUSTIN", "addr:country": "US", "addr:full": "8225 CROSS PARK DR", "addr:postcode": "78710", "addr:state": "TX", "brand": "USPS", "collection_times": "Mo-Sa 18:00", "name": "USPS COLLECTION BOX - PO LOBBY", "note": "ON 12/24 AND 12/31, THIS BOX MAY BE COLLECTED AS EARLY AS 12 NOON.", "ref": "7871000013"}, "type": "Feature"}
{"geometry": {"coordinates": [-97.668206, 30.333649], "type": "Point"}, "id": "7B2Z2NfH95zOTKt6yUP1lWMNVpA=", "properties": {"@spider": "usps_collection_boxes", "addr:city": "AUSTIN", "addr:country": "US", "addr:full": "8225 CROSS PARK DR", "addr:postcode": "78710", "addr:state": "TX", "brand": "USPS", "collection_times": "Mo-Sa 18:00", "name": "USPS COLLECTION BOX - PO LOBBY", "note": "ON 12/24 AND 12/31, THIS BOX MAY BE COLLECTED AS EARLY AS 12 NOON.", "ref": "7871000014"}, "type": "Feature"}
{"geometry": {"coordinates": [-97.668206, 30.333649], "type": "Point"}, "id": "xu3Raj3OkyjUBRVinQ3ceV4YBmU=", "properties": {"@spider": "usps_collection_boxes", "addr:city": "AUSTIN", "addr:country": "US", "addr:full": "8225 CROSS PARK DR", "addr:postcode": "78710", "addr:state": "TX", "brand": "USPS", "collection_times": "Mo-Sa 18:00", "name": "USPS COLLECTION BOX - PO LOBBY", "note": "ON 12/24 AND 12/31, THIS BOX MAY BE COLLECTED AS EARLY AS 12 NOON.", "ref": "7871000015"}, "type": "Feature"}
{"geometry": {"coordinates": [-97.668206, 30.333649], "type": "Point"}, "id": "kwyaef3Eew05cQ2qkduA6ZvkIfw=", "properties": {"@spider": "usps_collection_boxes", "addr:city": "AUSTIN", "addr:country": "US", "addr:full": "8225 CROSS PARK DR", "addr:postcode": "78710", "addr:state": "TX", "brand": "USPS", "collection_times": "Mo-Sa 18:00", "name": "USPS COLLECTION BOX - APC", "note": "ON 12/24 AND 12/31, THIS BOX MAY BE COLLECTED AS EARLY AS 12 NOON.", "ref": "7871000016"}, "type": "Feature"}
{"geometry": {"coordinates": [-97.6682518371, 30.3339613184], "type": "Point"}, "id": "h5yIK4HJtF5uxP1p0_2tUXz-Zd0=", "properties": {"@spider": "usps_collection_boxes", "addr:city": "AUSTIN", "addr:country": "US", "addr:full": "8225 CROSS PARK DR", "addr:postcode": "78710", "addr:state": "TX", "brand": "USPS", "collection_times": "Mo-Fr 17:30; Sa 15:00", "name": "USPS COLLECTION BOX - PO LOBBY", "note": "ON 12/24 AND 12/31, THIS BOX MAY BE COLLECTED AS EARLY AS 12 NOON.", "ref": "7871000017"}, "type": "Feature"}
{"geometry": {"coordinates": [-97.739839702, 30.286592949], "type": "Point"}, "id": "6sp0ezNwBipc2Tolh9kAHnTs24w=", "properties": {"@spider": "usps_collection_boxes", "addr:city": "AUSTIN", "addr:country": "US", "addr:full": "2200 INNER CAMPUS DR", "addr:postcode": "78713", "addr:state": "TX", "brand": "USPS", "collection_times": "Mo-Fr 16:15", "name": "USPS COLLECTION BOX - BLUE BOX", "note": "ON 12/24 AND 12/31, THIS BOX MAY BE COLLECTED AS EARLY AS 12 NOON.", "ref": "7871300001"}, "type": "Feature"}
{"geometry": {"coordinates": [-97.739839702, 30.286592949], "type": "Point"}, "id": "PmkQ74Qbgfb7mh3f_swZ4vya2Xc=", "properties": {"@spider": "usps_collection_boxes", "addr:city": "AUSTIN", "addr:country": "US", "addr:full": "2200 INNER CAMPUS DR", "addr:postcode": "78713", "addr:state": "TX", "brand": "USPS", "collection_times": "Mo-Fr 16:15; Sa 11:45", "name": "USPS COLLECTION BOX - PO LOBBY", "note": "ON 12/24 AND 12/31, THIS BOX MAY BE COLLECTED AS EARLY AS 12 NOON.", "ref": "7871300002"}, "type": "Feature"}
{"geometry": {"coordinates": [-97.739839702, 30.286592949], "type": "Point"}, "id": "vHQKmD4gDQVZCJa9W9cBVLGkaa4=", "properties": {"@spider": "usps_collection_boxes", "addr:city": "AUSTIN", "addr:country": "US", "addr:full": "2200 INNER CAMPUS DR", "addr:postcode": "78713", "addr:state": "TX", "brand": "USPS", "collection_times": "Mo-Fr 16:15; Sa 11:45", "name": "USPS COLLECTION BOX - PO LOBBY", "note": "ON 12/24 AND 12/31, THIS BOX MAY BE COLLECTED AS EARLY AS 12 NOON.", "ref": "7871300003"}, "type": "Feature"}
{"geometry": {"coordinates": [-97.739839702, 30.286592949], "type": "Point"}, "id": "FnHUKJ0vtH9BmN60Ovk3H-fxbgE=", "properties": {"@spider": "usps_collection_boxes", "addr:city": "AUSTIN", "addr:country": "US", "addr:full": "2200 INNER CAMPUS DR", "addr:postcode": "78713", "addr:state": "TX", "brand": "USPS", "collection_times": "Mo-Fr 16:30", "name": "USPS COLLECTION BOX - PO LOBBY", "note": "ON 12/24 AND 12/31, THIS BOX MAY BE COLLECTED AS EARLY AS 12 NOON.", "ref": "7871300004"}, "type": "Feature"}
{"geometry": {"coordinates": [-97.6671469803, 30.2025966111], "type": "Point"}, "id": "iby546WiMIRMNP_dgmDWap9TScE=", "properties": {"@spider": "usps_collection_boxes", "addr:city": "AUSTIN", "addr:country": "US", "addr:full": "3600 PRESIDENTIAL", "addr:postcode": "78719", "addr:state": "TX", "brand": "USPS", "collection_times": "Mo-Fr 18:00; Sa 11:30", "name": "USPS COLLECTION BOX - BLUE BOX", "note": "ON 12/24 AND 12/31, THIS BOX MAY BE COLLECTED AS EARLY AS 12 NOON.", "ref": "7871900002"}, "type": "Feature"}
{"geometry": {"coordinates": [-97.6690662, 30.276056], "type": "Point"}, "id": "6yyTL4qBVh2vx52DqCZNJHx-U1o=", "properties": {"@spider": "usps_collection_boxes", "addr:city": "AUSTIN", "addr:country": "US", "addr:full": "6105 TECHNI CENTER DR", "addr:postcode": "78721", "addr:state": "TX", "brand": "USPS", "collection_times": "Mo-Fr 12:45; Sa 16:00", "name": "USPS COLLECTION BOX - BLUE BOX", "note": "ON 12/24 AND 12/31, THIS BOX MAY BE COLLECTED AS EARLY AS 12 NOON.", "ref": "7872100003"}, "type": "Feature"}
{"geometry": {"coordinates": [-97.6809816, 30.254846], "type": "Point"}, "id": "J27lu9ZByQDpDIXd2H1ZfkIer9s=", "properties": {"@spider": "usps_collection_boxes", "addr:city": "AUSTIN", "addr:country": "US", "addr:full": "1001 SMITH RD", "addr:postcode": "78721", "addr:state": "TX", "brand": "USPS", "collection_times": "Mo-Fr 18:00; Sa 16:00", "name": "USPS COLLECTION BOX - BLUE BOX", "note": "ON 12/24 AND 12/31, THIS BOX MAY BE COLLECTED AS EARLY AS 12 NOON.", "ref": "7872100005"}, "type": "Feature"}
{"geometry": {"coordinates": [-97.7153554, 30.284818], "type": "Point"}, "id": "ADB-13JMgkqiRy6sbokVpcaMgBw=", "properties": {"@spider": "usps_collection_boxes", "addr:city": "AUSTIN", "addr:country": "US", "addr:full": "2601 MANOR RD", "addr:postcode": "78722", "addr:state": "TX", "brand": "USPS", "collection_times": "Mo-Sa 13:00", "name": "USPS COLLECTION BOX - BLUE BOX", "note": "ON 12/24 AND 12/31, THIS BOX MAY BE COLLECTED AS EARLY AS 12 NOON.", "ref": "7872200005"}, "type": "Feature"}
{"geometry": {"coordinates": [-97.7182087, 30.296034], "type": "Point"}, "id": "9S11T7-BIW7t-BVJinJnK7_66ko=", "properties": {"@spider": "usps_collection_boxes", "addr:city": "AUSTIN", "addr:country": "US", "addr:full": "3909 N IH 35", "addr:postcode": "78722", "addr:state": "TX", "brand": "USPS", "collection_times": "Mo-Sa 13:00", "name": "USPS COLLECTION BOX - BLUE BOX", "note": "ON 12/24 AND 12/31, THIS BOX MAY BE COLLECTED AS EARLY AS 12 NOON.", "ref": "7872200010"}, "type": "Feature"}
{"geometry": {"coordinates": [-97.7045753, 30.286676], "type": "Point"}, "id": "zjZPceQUL-a-OP447E-bTYqaHvU=", "properties": {"@spider": "usps_collection_boxes", "addr:city": "AUSTIN", "addr:country": "US", "addr:full": "3112 MANOR RD", "addr:postcode": "78723", "addr:state": "TX", "brand": "USPS", "collection_times": "Mo-Fr 12:45; Sa 13:00", "name": "USPS COLLECTION BOX - BLUE BOX", "note": "ON 12/24 AND 12/31, THIS BOX MAY BE COLLECTED AS EARLY AS 12 NOON.", "ref": "7872300003"}, "type": "Feature"}
{"geometry": {"coordinates": [-97.6754710269, 30.3080505049], "type": "Point"}, "id": "GRzkKHax8iPGw0NAcoqn0OhVa6g=", "properties": {"@spider": "usps_collection_boxes", "addr:city": "AUSTIN", "addr:country": "US", "addr:full": "6200 MANOR RD", "addr:postcode": "78723", "addr:state": "TX", "brand": "USPS", "collection_times": "Mo-Fr 13:00", "name": "USPS COLLECTION BOX - BLUE BOX", "note": "ON 12/24 AND 12/31, THIS BOX MAY BE COLLECTED AS EARLY AS 12 NOON.", "ref": "7872300007"}, "type": "Feature"}
{"geometry": {"coordinates": [-97.663797, 30.312558], "type": "Point"}, "id": "b82USmpDO2juPeFOeO5gD-b4H6Y=", "properties": {"@spider": "usps_collection_boxes", "addr:city": "AUSTIN", "addr:country": "US", "addr:full": "7112 ED BLUESTEIN BLVD", "addr:postcode": "78723", "addr:state": "TX", "brand": "USPS", "collection_times": "Mo-Fr 13:00", "name": "USPS COLLECTION BOX - BLUE BOX", "note": "ON 12/24 AND 12/31, THIS BOX MAY BE COLLECTED AS EARLY AS 12 NOON.", "ref": "7872300009"}, "type": "Feature"}
{"geometry": {"coordinates": [-97.7077491, 30.311608], "type": "Point"}, "id": "3L2X_QDizCLZIjfaP5ZXZ4ninlE=", "properties": {"@spider": "usps_collection_boxes", "addr:city": "AUSTIN", "addr:country": "US", "addr:full": "5322 CAMERON RD", "addr:postcode": "78723", "addr:state": "TX", "brand": "USPS", "collection_times": "Mo-Fr 12:00; Sa 16:00", "name": "USPS COLLECTION BOX - BLUE BOX", "note": "ON 12/24 AND 12/31, THIS BOX MAY BE COLLECTED AS EARLY AS 12 NOON.", "ref": "7872300017"}, "type": "Feature"}
{"geometry": {"coordinates": [-97.7057661, 30.313841], "type": "Point"}, "id": "261uAZG5zwIn2ANQVPo8SBE7-as=", "properties": {"@spider": "usps_collection_boxes", "addr:city": "AUSTIN", "addr:country": "US", "addr:full": "5429 N IH 35", "addr:postcode": "78723", "addr:state": "TX", "brand": "USPS", "collection_times": "Mo-Fr 12:00; Sa 14:45", "name": "USPS COLLECTION BOX - BLUE BOX", "note": "ON 12/24 AND 12/31, THIS BOX MAY BE COLLECTED AS EARLY AS 12 NOON.", "ref": "7872300022"}, "type": "Feature"}
{"geometry": {"coordinates": [-97.6998195, 30.318985], "type": "Point"}, "id": "uk6x1SSkh-_4BAhywhDO2ll5dHs=", "properties": {"@spider": "usps_collection_boxes", "addr:city": "AUSTIN", "addr:country": "US", "addr:full": "1106 CLAYTON LN", "addr:postcode": "78723", "addr:state": "TX", "brand": "USPS", "collection_times": "Mo-Fr 12:30; Sa 16:00", "name": "USPS COLLECTION BOX - BLUE BOX", "note": "ON 12/24 AND 12/31, THIS BOX MAY BE COLLECTED AS EARLY AS 12 NOON.", "ref": "7872300026"}, "type": "Feature"}
{"geometry": {"coordinates": [-97.6509457, 30.289871], "type": "Point"}, "id": "W7oC-GBACK3qoHvwF6xlpvLAPzE=", "properties": {"@spider": "usps_collection_boxes", "addr:city": "AUSTIN", "addr:country": "US", "addr:full": "5701 JOHNNY MORRIS RD", "addr:postcode": "78724", "addr:state": "TX", "brand": "USPS", "collection_times": "Mo-Sa 10:00", "name": "USPS COLLECTION BOX - BLUE BOX", "ref": "7872400004"}, "type": "Feature"}
{"geometry": {"coordinates": [-97.8308182, 30.446446], "type": "Point"}, "id": "oXHvlgS2M3oV9auBrO1IBYqXwkA=", "properties": {"@spider": "usps_collection_boxes", "addr:city": "AUSTIN", "addr:country": "US", "addr:full": "10713 N FM 620", "addr:postcode": "78726", "addr:state": "TX", "brand": "USPS", "collection_times": "Mo-Fr 10:30; Sa 10:00", "name": "USPS COLLECTION BOX - BLUE BOX", "ref": "7872600000"}, "type": "Feature"}
{"geometry": {"coordinates": [-97.822081164, 30.438748226], "type": "Point"}, "id": "hmMO6UGECFVVSxmxhq0JNI9ww7I=", "properties": {"@spider": "usps_collection_boxes", "addr:city": "AUSTIN", "addr:country": "US", "addr:full": "10984 BOULDER LN", "addr:postcode": "78726", "addr:state": "TX", "brand": "USPS", "collection_times": "Mo-Fr 12:15; Sa 12:00", "name": "USPS COLLECTION BOX - BLUE BOX", "note": "ON 12/24 AND 12/31, THIS BOX MAY BE COLLECTED AS EARLY AS 12 NOON.", "ref": "7872600001"}, "type": "Feature"}
{"geometry": {"coordinates": [-97.6953195, 30.428675], "type": "Point"}, "id": "1M-8yrGJhm8Q7XNXhSS-VAwQOY8=", "properties": {"@spider": "usps_collection_boxes", "addr:city": "AUSTIN", "addr:country": "US", "addr:full": "2412 RODEO DR", "addr:postcode": "78727", "addr:state": "TX", "brand": "USPS", "collection_times": "Mo-Sa 14:45", "name": "USPS COLLECTION BOX - BLUE BOX", "note": "ON 12/24 AND 12/31, THIS BOX MAY BE COLLECTED AS EARLY AS 12 NOON.", "ref": "7872700008"}, "type": "Feature"}
{"geometry": {"coordinates": [-97.74344544, 30.427944251], "type": "Point"}, "id": "o0g8WeU2AAO2N5Ye-2TmFe9n8xg=", "properties": {"@spider": "usps_collection_boxes", "addr:city": "AUSTIN", "addr:country": "US", "addr:full": "12357 RIATA TRACE PKWY", "addr:postcode": "78727", "addr:state": "TX", "brand": "USPS", "collection_times": "Mo-Fr 12:15", "name": "USPS COLLECTION BOX - BLUE BOX", "note": "ON 12/24 AND 12/31, THIS BOX MAY BE COLLECTED AS EARLY AS 12 NOON.", "ref": "7872700014"}, "type": "Feature"}
{"geometry": {"coordinates": [-97.7423359, 30.442013], "type": "Point"}, "id": "DVmUSkVWW5s6SH0Q_H-oHyqN2vU=", "properties": {"@spider": "usps_collection_boxes", "addr:city": "AUSTIN", "addr:country": "US", "addr:full": "6001 W PARMER LN", "addr:postcode": "78727", "addr:state": "TX", "brand": "USPS", "collection_times": "Mo-Fr 14:30", "name": "USPS COLLECTION BOX - BLUE BOX", "note": "ON 12/24 AND 12/31, THIS BOX MAY BE COLLECTED AS EARLY AS 12 NOON.", "ref": "7872700015"}, "type": "Feature"}
{"geometry": {"coordinates": [-97.7175361, 30.425652], "type": "Point"}, "id": "7gIzsBZWr_MOlWgVHwXtQEm4E24=", "properties": {"@spider": "usps_collection_boxes", "addr:city": "AUSTIN", "addr:country": "US", "addr:full": "4201 W PARMER LN", "addr:postcode": "78727", "addr:state": "TX", "brand": "USPS", "collection_times": "Mo-Fr 14:55", "name": "USPS COLLECTION BOX - BLUE BOX", "note": "ON 12/24 AND 12/31, THIS BOX MAY BE COLLECTED AS EARLY AS 12 NOON.", "ref": "7872700019"}, "type": "Feature"}
{"geometry": {"coordinates": [-97.6916916352, 30.4389682384], "type": "Point"}, "id": "HbCFGpMnPVqJxx0j-1a0jqXjwoM=", "properties": {"@spider": "usps_collection_boxes", "addr:city": "AUSTIN", "addr:country": "US", "addr:full": "14050 SUMMIT DR", "addr:postcode": "78728", "addr:state": "TX", "brand": "USPS", "collection_times": "Mo-Fr 14:15", "name": "USPS COLLECTION BOX - BLUE BOX", "note": "ON 12/24 AND 12/31, THIS BOX MAY BE COLLECTED AS EARLY AS 12 NOON.", "ref": "7872800001"}, "type": "Feature"}
{"geometry": {"coordinates": [-97.6827641136, 30.4357107895], "type": "Point"}, "id": "Ku9t_quPwIVMUdgUDP-ic8_GaWg=", "properties": {"@spider": "usps_collection_boxes", "addr:city": "AUSTIN", "addr:country": "US", "addr:full": "2013 WELLS BRANCH PKWY", "addr:postcode": "78728", "addr:state": "TX", "brand": "USPS", "collection_times": "Mo-Fr 14:00", "name": "USPS COLLECTION BOX - BLUE BOX", "note": "ON 12/24 AND 12/31, THIS BOX MAY BE COLLECTED AS EARLY AS 12 NOON.", "ref": "7872800008"}, "type": "Feature"}
{"geometry": {"coordinates": [-97.7084849, 30.446595], "type": "Point"}, "id": "KeMSYKeKJpFkIExfSyf3bu0Kdlo=", "properties": {"@spider": "usps_collection_boxes", "addr:city": "AUSTIN", "addr:country": "US", "addr:full": "4616 W HOWARD LN", "addr:postcode": "78728", "addr:state": "TX", "brand": "USPS", "collection_times": "Mo-Fr 14:30", "name": "USPS COLLECTION BOX - BLUE BOX", "note": "ON 12/24 AND 12/31, THIS BOX MAY BE COLLECTED AS EARLY AS 12 NOON.", "ref": "7872800009"}, "type": "Feature"}
{"geometry": {"coordinates": [-97.6963476, 30.438488], "type": "Point"}, "id": "sA6YENvuME06kSdUKHiIK4YMS4Y=", "properties": {"@spider": "usps_collection_boxes", "addr:city": "AUSTIN", "addr:country": "US", "addr:full": "3407 WELLS BRANCH PKWY", "addr:postcode": "78728", "addr:state": "TX", "brand": "USPS", "collection_times": "Mo-Fr 14:15", "name": "USPS COLLECTION BOX - BLUE BOX", "note": "ON 12/24 AND 12/31, THIS BOX MAY BE COLLECTED AS EARLY AS 12 NOON.", "ref": "7872800010"}, "type": "Feature"}
{"geometry": {"coordinates": [-97.7859759, 30.450358], "type": "Point"}, "id": "vxrCahjHGq7mApygGHUmA3PxgI8=", "properties": {"@spider": "usps_collection_boxes", "addr:city": "AUSTIN", "addr:country": "US", "addr:full": "13436 POND SPRINGS RD", "addr:postcode": "78729", "addr:state": "TX", "brand": "USPS", "collection_times": "Mo-Fr 14:45; Sa 12:30", "name": "USPS COLLECTION BOX - BLUE BOX", "note": "ON 12/24 AND 12/31, THIS BOX MAY BE COLLECTED AS EARLY AS 12 NOON.", "ref": "7872900001"}, "type": "Feature"}
{"geometry": {"coordinates": [-97.7660252, 30.435685], "type": "Point"}, "id": "0k2PlO6SBWKmYDKj9eTrnSuCR0s=", "properties": {"@spider": "usps_collection_boxes", "addr:city": "AUSTIN", "addr:country": "US", "addr:full": "7218 MCNEIL DR", "addr:postcode": "78729", "addr:state": "TX", "brand": "USPS", "collection_times": "Mo-Fr 12:30; Sa 12:15", "name": "USPS COLLECTION BOX - BLUE BOX", "note": "ON 12/24 AND 12/31, THIS BOX MAY BE COLLECTED AS EARLY AS 12 NOON.", "ref": "7872900002"}, "type": "Feature"}
{"geometry": {"coordinates": [-97.773363529, 30.445123944], "type": "Point"}, "id": "LI9t6BnauwG_cZsLIko56DYDEEA=", "properties": {"@spider": "usps_collection_boxes", "addr:city": "AUSTIN", "addr:country": "US", "addr:full": "8500 CAHILL DR", "addr:postcode": "78729", "addr:state": "TX", "brand": "USPS", "collection_times": "Mo-Fr 14:00; Sa 12:30", "name": "USPS COLLECTION BOX - BLUE BOX", "note": "ON 12/24 AND 12/31, THIS BOX MAY BE COLLECTED AS EARLY AS 12 NOON.", "ref": "7872900003"}, "type": "Feature"}
{"geometry": {"coordinates": [-97.7702799, 30.443288], "type": "Point"}, "id": "L4-4UEJpduWMVZVXgpUHsw4z3aM=", "properties": {"@spider": "usps_collection_boxes", "addr:city": "AUSTIN", "addr:country": "US", "addr:full": "12350 HUNTERS CHASE DR", "addr:postcode": "78729", "addr:state": "TX", "brand": "USPS", "collection_times": "Mo-Sa 14:00", "name": "USPS COLLECTION BOX - BLUE BOX", "note": "ON 12/24 AND 12/31, THIS BOX MAY BE COLLECTED AS EARLY AS 12 NOON.", "ref": "7872900004"}, "type": "Feature"}
{"geometry": {"coordinates": [-97.788981, 30.463958], "type": "Point"}, "id": "cPHWpi1u3s5c0x7Ylj9pETEPXf8=", "properties": {"@spider": "usps_collection_boxes", "addr:city": "AUSTIN", "addr:country": "US", "addr:full": "10109 LAKE CREEK PKWY", "addr:postcode": "78729", "addr:state": "TX", "brand": "USPS", "collection_times": "Mo-Sa 17:00", "name": "USPS COLLECTION BOX - PO LOBBY", "note": "ON 12/24 AND 12/31, THIS BOX MAY BE COLLECTED AS EARLY AS 12 NOON.", "ref": "7872900005"}, "type": "Feature"}
{"geometry": {"coordinates": [-97.788981, 30.463958], "type": "Point"}, "id": "0J3t-3Dql_g75P9Gy_SM83qQlLU=", "properties": {"@spider": "usps_collection_boxes", "addr:city": "AUSTIN", "addr:country": "US", "addr:full": "10109 LAKE CREEK PKWY", "addr:postcode": "78729", "addr:state": "TX", "brand": "USPS", "collection_times": "Mo-Sa 17:00", "name": "USPS COLLECTION BOX - PO LOBBY", "note": "ON 12/24 AND 12/31, THIS BOX MAY BE COLLECTED AS EARLY AS 12 NOON.", "ref": "7872900006"}, "type": "Feature"}
{"geometry": {"coordinates": [-97.788629947, 30.464249975], "type": "Point"}, "id": "CcT0g1ks1VZXdW7n1RoWqDYhBqY=", "properties": {"@spider": "usps_collection_boxes", "addr:city": "AUSTIN", "addr:country": "US", "addr:full": "10109 LAKE CREEK PKWY", "addr:postcode": "78729", "addr:state": "TX", "brand": "USPS", "collection_times": "Mo-Sa 17:00", "name": "USPS COLLECTION BOX - BLUE BOX", "note": "ON 12/24 AND 12/31, THIS BOX MAY BE COLLECTED AS EARLY AS 12 NOON.", "ref": "7872900007"}, "type": "Feature"}
{"geometry": {"coordinates": [-97.788522246, 30.4643410749], "type": "Point"}, "id": "QrWV8ni5mE8qcEVIX1XDTyrqgIs=", "properties": {"@spider": "usps_collection_boxes", "addr:city": "AUSTIN", "addr:country": "US", "addr:full": "10109 LAKE CREEK PKWY", "addr:postcode": "78729", "addr:state": "TX", "brand": "USPS", "collection_times": "Mo-Fr 16:30; Sa 13:00", "name": "USPS COLLECTION BOX - PO LOBBY", "note": "ON 12/24 AND 12/31, THIS BOX MAY BE COLLECTED AS EARLY AS 12 NOON.", "ref": "7872900009"}, "type": "Feature"}
{"geometry": {"coordinates": [-97.7565319, 30.335544], "type": "Point"}, "id": "iE1Ru0MPCBbcDU3WBY0VGYR1pR8=", "properties": {"@spider": "usps_collection_boxes", "addr:city": "AUSTIN", "addr:country": "US", "addr:full": "3303 NORTHLAND DR", "addr:postcode": "78731", "addr:state": "TX", "brand": "USPS", "collection_times": "Mo-Fr 16:00; Sa 15:00", "name": "USPS COLLECTION BOX - BLUE BOX", "note": "ON 12/24 AND 12/31, THIS BOX MAY BE COLLECTED AS EARLY AS 12 NOON.", "ref": "7873100004"}, "type": "Feature"}
{"geometry": {"coordinates": [-97.759773308, 30.3327174674], "type": "Point"}, "id": "JLjE9S8Kh29RWp3YdFskbmHNbBg=", "properties": {"@spider": "usps_collection_boxes", "addr:city": "AUSTIN", "addr:country": "US", "addr:full": "3321 HANCOCK DR", "addr:postcode": "78731", "addr:state": "TX", "brand": "USPS", "collection_times": "Mo-Fr 16:15; Sa 15:00", "name": "USPS COLLECTION BOX - BLUE BOX", "note": "ON 12/24 AND 12/31, THIS BOX MAY BE COLLECTED AS EARLY AS 12 NOON.", "ref": "7873100008"}, "type": "Feature"}
{"geometry": {"coordinates": [-97.7539866786, 30.3422842759], "type": "Point"}, "id": "by37yhXcYMbgRobiouUok88H2fQ=", "properties": {"@spider": "usps_collection_boxes", "addr:city": "AUSTIN", "addr:country": "US", "addr:full": "5926 BALCONES DR", "addr:postcode": "78731", "addr:state": "TX", "brand": "USPS", "collection_times": "Mo-Fr 16:15", "name": "USPS COLLECTION BOX - BLUE BOX", "note": "ON 12/24 AND 12/31, THIS BOX MAY BE COLLECTED AS EARLY AS 12 NOON.", "ref": "7873100011"}, "type": "Feature"}
{"geometry": {"coordinates": [-97.7581573, 30.370616], "type": "Point"}, "id": "lXAHlnya0Qo-gfKrJpcA_nzLOsk=", "properties": {"@spider": "usps_collection_boxes", "addr:city": "AUSTIN", "addr:country": "US", "addr:full": "8000 MESA DR", "addr:postcode": "78731", "addr:state": "TX", "brand": "USPS", "collection_times": "Mo-Fr 15:45; Sa 14:15", "name": "USPS COLLECTION BOX - BLUE BOX", "note": "ON 12/24 AND 12/31, THIS BOX MAY BE COLLECTED AS EARLY AS 12 NOON.", "ref": "7873100015"}, "type": "Feature"}
{"geometry": {"coordinates": [-97.7507029, 30.35822], "type": "Point"}, "id": "-Usj1CtWfDMPWnHzoIwxzM-aImM=", "properties": {"@spider": "usps_collection_boxes", "addr:city": "AUSTIN", "addr:country": "US", "addr:full": "3523 GREYSTONE DR", "addr:postcode": "78731", "addr:state": "TX", "brand": "USPS", "collection_times": "Mo-Fr 16:30; Sa 14:00", "name": "USPS COLLECTION BOX - BLUE BOX", "note": "ON 12/24 AND 12/31, THIS BOX MAY BE COLLECTED AS EARLY AS 12 NOON.", "ref": "7873100018"}, "type": "Feature"}
{"geometry": {"coordinates": [-97.7500223, 30.362952], "type": "Point"}, "id": "maVUDupmLEqERrOhboc3RV0wGAc=", "properties": {"@spider": "usps_collection_boxes", "addr:city": "AUSTIN", "addr:country": "US", "addr:full": "3724 EXECUTIVE CENTER DR", "addr:postcode": "78731", "addr:state": "TX", "brand": "USPS", "collection_times": "Mo-Fr 14:15", "name": "USPS COLLECTION BOX - BLUE BOX", "note": "ON 12/24 AND 12/31, THIS BOX MAY BE COLLECTED AS EARLY AS 12 NOON.", "ref": "7873100019"}, "type": "Feature"}
{"geometry": {"coordinates": [-97.7496835, 30.309614], "type": "Point"}, "id": "BvTLp7taTLfvvoOf7obCZhZdeFU=", "properties": {"@spider": "usps_collection_boxes", "addr:city": "AUSTIN", "addr:country": "US", "addr:full": "1600 W 38TH ST", "addr:postcode": "78731", "addr:state": "TX", "brand": "USPS", "collection_times": "Mo-Fr 17:15", "name": "USPS COLLECTION BOX - BLUE BOX", "note": "ON 12/24 AND 12/31, THIS BOX MAY BE COLLECTED AS EARLY AS 12 NOON.", "ref": "7873100028"}, "type": "Feature"}
{"geometry": {"coordinates": [-97.7565359, 30.335537], "type": "Point"}, "id": "wfL6XQSHa0flP7mRySyXt4Fd5fE=", "properties": {"@spider": "usps_collection_boxes", "addr:city": "AUSTIN", "addr:country": "US", "addr:full": "3303 NORTHLAND DR", "addr:postcode": "78731", "addr:state": "TX", "brand": "USPS", "collection_times": "Mo-Fr 16:00; Sa 15:00", "name": "USPS COLLECTION BOX - BLUE BOX", "note": "ON 12/24 AND 12/31, THIS BOX MAY BE COLLECTED AS EARLY AS 12 NOON.", "ref": "7873100030"}, "type": "Feature"}
{"geometry": {"coordinates": [-97.754983, 30.354205], "type": "Point"}, "id": "wAhUQA0UhZSvfyHPmh3OQsp9NYU=", "properties": {"@spider": "usps_collection_boxes", "addr:city": "AUSTIN", "addr:country": "US", "addr:full": "3575 FAR WEST BLVD", "addr:postcode": "78731", "addr:state": "TX", "brand": "USPS", "collection_times": "Mo-Sa 17:00", "name": "USPS COLLECTION BOX - BLUE BOX", "note": "ON 12/24 AND 12/31, THIS BOX MAY BE COLLECTED AS EARLY AS 12 NOON.", "ref": "7873100033"}, "type": "Feature"}
{"geometry": {"coordinates": [-97.747895293, 30.360658152], "type": "Point"}, "id": "DcD1kfS-8CNaRZA30Ys-EK5uWkg=", "properties": {"@spider": "usps_collection_boxes", "addr:city": "AUSTIN", "addr:country": "US", "addr:full": "7701 WOOD HOLLOW DR", "addr:postcode": "78731", "addr:state": "TX", "brand": "USPS", "collection_times": "Mo-Fr 14:15; Sa 14:00", "name": "USPS COLLECTION BOX - BLUE BOX", "note": "ON 12/24 AND 12/31, THIS BOX MAY BE COLLECTED AS EARLY AS 12 NOON.", "ref": "7873100036"}, "type": "Feature"}
{"geometry": {"coordinates": [-97.7682229, 30.386309], "type": "Point"}, "id": "_istoqbHZ2wX8t7GW2z_EJa_U7c=", "properties": {"@spider": "usps_collection_boxes", "addr:city": "AUSTIN", "addr:country": "US", "addr:full": "8310 N CAPITAL OF TEXAS HWY", "addr:postcode": "78731", "addr:state": "TX", "brand": "USPS", "collection_times": "Mo-Fr 15:00", "name": "USPS COLLECTION BOX - BLUE BOX", "note": "ON 12/24 AND 12/31, THIS BOX MAY BE COLLECTED AS EARLY AS 12 NOON.", "ref": "7873100040"}, "type": "Feature"}
{"geometry": {"coordinates": [-97.7528364, 30.351078], "type": "Point"}, "id": "q6e9Tib_lxraX1_IKfXuA_g8ThM=", "properties": {"@spider": "usps_collection_boxes", "addr:city": "AUSTIN", "addr:country": "US", "addr:full": "6850 AUSTIN CENTER BLVD", "addr:postcode": "78731", "addr:state": "TX", "brand": "USPS", "collection_times": "Mo-Fr 16:30", "name": "USPS COLLECTION BOX - BLUE BOX", "note": "ON 12/24 AND 12/31, THIS BOX MAY BE COLLECTED AS EARLY AS 12 NOON.", "ref": "7873100041"}, "type": "Feature"}
{"geometry": {"coordinates": [-97.7478257, 30.35653], "type": "Point"}, "id": "lezckVGWPoa3GB4q8lLtErTcpGM=", "properties": {"@spider": "usps_collection_boxes", "addr:city": "AUSTIN", "addr:country": "US", "addr:full": "3415 GREYSTONE DR", "addr:postcode": "78731", "addr:state": "TX", "brand": "USPS", "collection_times": "Mo-Fr 14:30", "name": "USPS COLLECTION BOX - BLUE BOX", "note": "ON 12/24 AND 12/31, THIS BOX MAY BE COLLECTED AS EARLY AS 12 NOON.", "ref": "7873100044"}, "type": "Feature"}
{"geometry": {"coordinates": [-97.748701, 30.307771], "type": "Point"}, "id": "rJ2lgueoyg72hxtClC49ba-Y-7Y=", "properties": {"@spider": "usps_collection_boxes", "addr:city": "AUSTIN", "addr:country": "US", "addr:full": "1500 W 38TH ST", "addr:postcode": "78731", "addr:state": "TX", "brand": "USPS", "collection_times": "Mo-Fr 17:15", "name": "USPS COLLECTION BOX - BLUE BOX", "note": "ON 12/24 AND 12/31, THIS BOX MAY BE COLLECTED AS EARLY AS 12 NOON.", "ref": "7873100048"}, "type": "Feature"}
{"geometry": {"coordinates": [-97.7555934, 30.313591], "type": "Point"}, "id": "xdKszxgGyY86xkdfnotcRyyy4PQ=", "properties": {"@spider": "usps_collection_boxes", "addr:city": "AUSTIN", "addr:country": "US", "addr:full": "4000 JACKSON AVE", "addr:postcode": "78731", "addr:state": "TX", "brand": "USPS", "collection_times": "Mo-Fr 16:30", "name": "USPS COLLECTION BOX - BLUE BOX", "note": "ON 12/24 AND 12/31, THIS BOX MAY BE COLLECTED AS EARLY AS 12 NOON.", "ref": "7873100049"}, "type": "Feature"}
{"geometry": {"coordinates": [-97.7874038, 30.368333], "type": "Point"}, "id": "9lpMdj_8CZROQ01K_i3J5yZYSCI=", "properties": {"@spider": "usps_collection_boxes", "addr:city": "AUSTIN", "addr:country": "US", "addr:full": "6805 N CAPITAL OF TEXAS HWY", "addr:postcode": "78731", "addr:state": "TX", "brand": "USPS", "collection_times": "Mo-Fr 15:30", "name": "USPS COLLECTION BOX - BLUE BOX", "note": "ON 12/24 AND 12/31, THIS BOX MAY BE COLLECTED AS EARLY AS 12 NOON.", "ref": "7873100050"}, "type": "Feature"}
{"geometry": {"coordinates": [-97.7911666, 30.356631], "type": "Point"}, "id": "-50lMxIo7g8wibjcAmQC9Fc8vhY=", "properties": {"@spider": "usps_collection_boxes", "addr:city": "AUSTIN", "addr:country": "US", "addr:full": "5806 MESA DR", "addr:postcode": "78731", "addr:state": "TX", "brand": "USPS", "collection_times": "Mo-Fr 16:00", "name": "USPS COLLECTION BOX - BLUE BOX", "note": "ON 12/24 AND 12/31, THIS BOX MAY BE COLLECTED AS EARLY AS 12 NOON.", "ref": "7873100057"}, "type": "Feature"}
{"geometry": {"coordinates": [-97.7512199, 30.30926], "type": "Point"}, "id": "BX8HY_P9gFNqBiRZlraQal_7BZs=", "properties": {"@spider": "usps_collection_boxes", "addr:city": "AUSTIN", "addr:country": "US", "addr:full": "3724 JEFFERSON ST", "addr:postcode": "78731", "addr:state": "TX", "brand": "USPS", "collection_times": "Mo-Fr 17:15; Sa 15:15", "name": "USPS COLLECTION BOX - BLUE BOX", "note": "ON 12/24 AND 12/31, THIS BOX MAY BE COLLECTED AS EARLY AS 12 NOON.", "ref": "7873100059"}, "type": "Feature"}
{"geometry": {"coordinates": [-97.754983, 30.354205], "type": "Point"}, "id": "3C-51F7qfucSnpWHWcbQlmt3BJI=", "properties": {"@spider": "usps_collection_boxes", "addr:city": "AUSTIN", "addr:country": "US", "addr:full": "3575 FAR WEST BLVD", "addr:postcode": "78731", "addr:state": "TX", "brand": "USPS", "collection_times": "Mo-Sa 17:00", "name": "USPS COLLECTION BOX - PO LOBBY", "note": "ON 12/24 AND 12/31, THIS BOX MAY BE COLLECTED AS EARLY AS 12 NOON.", "ref": "7873100063"}, "type": "Feature"}
{"geometry": {"coordinates": [-97.754983, 30.354205], "type": "Point"}, "id": "o88-ZQ4adLkxtndhq_JBs-cgUhk=", "properties": {"@spider": "usps_collection_boxes", "addr:city": "AUSTIN", "addr:country": "US", "addr:full": "3575 FAR WEST BLVD", "addr:postcode": "78731", "addr:state": "TX", "brand": "USPS", "collection_times": "Mo-Sa 17:00", "name": "USPS COLLECTION BOX - PO LOBBY", "note": "ON 12/24 AND 12/31, THIS BOX MAY BE COLLECTED AS EARLY AS 12 NOON.", "ref": "7873100064"}, "type": "Feature"}
{"geometry": {"coordinates": [-97.754983, 30.354205], "type": "Point"}, "id": "yMS2c8gqsTIxA6urqnW8yBgkPxs=", "properties": {"@spider": "usps_collection_boxes", "addr:city": "AUSTIN", "addr:country": "US", "addr:full": "3575 FAR WEST BLVD", "addr:postcode": "78731", "addr:state": "TX", "brand": "USPS", "collection_times": "Mo-Sa 17:00", "name": "USPS COLLECTION BOX - APC", "note": "ON 12/24 AND 12/31, THIS BOX MAY BE COLLECTED AS EARLY AS 12 NOON.", "ref": "7873100066"}, "type": "Feature"}
{"geometry": {"coordinates": [-97.7577758, 30.318399], "type": "Point"}, "id": "EW8ikg93CDexyu9broLkBfZYsJg=", "properties": {"@spider": "usps_collection_boxes", "addr:city": "AUSTIN", "addr:country": "US", "addr:full": "4600 FAIRVIEW DR", "addr:postcode": "78731", "addr:state": "TX", "brand": "USPS", "collection_times": "Mo-Fr 16:45", "name": "USPS COLLECTION BOX - BLUE BOX", "note": "ON 12/24 AND 12/31, THIS BOX MAY BE COLLECTED AS EARLY AS 12 NOON.", "ref": "7873100067"}, "type": "Feature"}
{"geometry": {"coordinates": [-97.754835635, 30.354137722], "type": "Point"}, "id": "qXc0frEaIG66WNJBdRY1ZabWVP0=", "properties": {"@spider": "usps_collection_boxes", "addr:city": "AUSTIN", "addr:country": "US", "addr:full": "3575 FAR WEST BLVD", "addr:postcode": "78731", "addr:state": "TX", "brand": "USPS", "collection_times": "Mo-Fr 17:30; Sa 14:30", "name": "USPS COLLECTION BOX - PO LOBBY", "note": "ON 12/24 AND 12/31, THIS BOX MAY BE COLLECTED AS EARLY AS 12 NOON.", "ref": "7873100070"}, "type": "Feature"}
{"geometry": {"coordinates": [-97.754527991, 30.353832012], "type": "Point"}, "id": "gDTAe76Dt5hx9r9B6K9UAw_pUcY=", "properties": {"@spider": "usps_collection_boxes", "addr:city": "AUSTIN", "addr:country": "US", "addr:full": "3575 FAR WEST BLVD", "addr:postcode": "78731", "addr:state": "TX", "brand": "USPS", "collection_times": "Mo-Sa 17:00", "name": "USPS COLLECTION BOX - BLUE BOX", "note": "ON 12/24 AND 12/31, THIS BOX MAY BE COLLECTED AS EARLY AS 12 NOON.", "ref": "7873100072"}, "type": "Feature"}
{"geometry": {"coordinates": [-97.8544557, 30.403272], "type": "Point"}, "id": "lXRFNs1HnN4xMkO9TqtC_CW5GJI=", "properties": {"@spider": "usps_collection_boxes", "addr:city": "AUSTIN", "addr:country": "US", "addr:full": "7004 RANCH ROAD 620 N", "addr:postcode": "78732", "addr:state": "TX", "brand": "USPS", "collection_times": "Mo-Fr 14:00; Sa 12:00", "name": "USPS COLLECTION BOX - BLUE BOX", "note": "ON 12/24 AND 12/31, THIS BOX MAY BE COLLECTED AS EARLY AS 12 NOON.", "ref": "7873200001"}, "type": "Feature"}
{"geometry": {"coordinates": [-97.8930227, 30.376695], "type": "Point"}, "id": "hSdX46qVDBPgZTY4SGB1YrcyRak=", "properties": {"@spider": "usps_collection_boxes", "addr:city": "AUSTIN", "addr:country": "US", "addr:full": "3500 STEINER RANCH BLVD", "addr:postcode": "78732", "addr:state": "TX", "brand": "USPS", "collection_times": "Mo-Sa 14:30", "name": "USPS COLLECTION BOX - BLUE BOX", "note": "ON 12/24 AND 12/31, THIS BOX MAY BE COLLECTED AS EARLY AS 12 NOON.", "ref": "7873200002"}, "type": "Feature"}
{"geometry": {"coordinates": [-97.8692719, 30.331806], "type": "Point"}, "id": "Nu2YNO2le9jyL-yTkH7uNyDP1PM=", "properties": {"@spider": "usps_collection_boxes", "addr:city": "AUSTIN", "addr:country": "US", "addr:full": "700 N CUERNAVACA DR", "addr:postcode": "78733", "addr:state": "TX", "brand": "USPS", "collection_times": "Mo-Fr 16:00; Sa 11:00", "name": "USPS COLLECTION BOX - BLUE BOX", "note": "ON 12/24 AND 12/31, THIS BOX MAY BE COLLECTED AS EARLY AS 12 NOON.", "ref": "7873300000"}, "type": "Feature"}
{"geometry": {"coordinates": [-97.9824058019, 30.3626528835], "type": "Point"}, "id": "ImE1XL_pjAhm43xvZsFexVH_m5s=", "properties": {"@spider": "usps_collection_boxes", "addr:city": "AUSTIN", "addr:country": "US", "addr:full": "1200 LAKEWAY DR", "addr:postcode": "78734", "addr:state": "TX", "brand": "USPS", "collection_times": "Mo-Fr 15:15; Sa 14:00", "name": "USPS COLLECTION BOX - BLUE BOX", "note": "ON 12/24 AND 12/31, THIS BOX MAY BE COLLECTED AS EARLY AS 12 NOON.", "ref": "7873400003"}, "type": "Feature"}
{"geometry": {"coordinates": [-97.9528546612, 30.3624322503], "type": "Point"}, "id": "TBmc6vPho3JThqfFzOjcarJc8qA=", "properties": {"@spider": "usps_collection_boxes", "addr:city": "AUSTIN", "addr:country": "US", "addr:full": "317 RANCH ROAD 620 S", "addr:postcode": "78734", "addr:state": "TX", "brand": "USPS", "collection_times": "Mo-Fr 15:00; Sa 14:00", "name": "USPS COLLECTION BOX - BLUE BOX", "note": "ON 12/24 AND 12/31, THIS BOX MAY BE COLLECTED AS EARLY AS 12 NOON.", "ref": "7873400005"}, "type": "Feature"}
{"geometry": {"coordinates": [-97.9702242311, 30.3382617183], "type": "Point"}, "id": "hgVsYxA9Fr3bSKPjeyuklUYmSkk=", "properties": {"@spider": "usps_collection_boxes", "addr:city": "AUSTIN", "addr:country": "US", "addr:full": "2300 LOHMANS SPUR", "addr:postcode": "78734", "addr:state": "TX", "brand": "USPS", "collection_times": "Mo-Fr 15:30", "name": "USPS COLLECTION BOX - BLUE BOX", "note": "ON 12/24 AND 12/31, THIS BOX MAY BE COLLECTED AS EARLY AS 12 NOON.", "ref": "7873400007"}, "type": "Feature"}
{"geometry": {"coordinates": [-97.9635224403, 30.3497471821], "type": "Point"}, "id": "MsJONXWNEoTOG7JqciaFpCPoG4c=", "properties": {"@spider": "usps_collection_boxes", "addr:city": "AUSTIN", "addr:country": "US", "addr:full": "1310 RANCH ROAD 620 S", "addr:postcode": "78734", "addr:state": "TX", "brand": "USPS", "collection_times": "Mo-Fr 15:30; Sa 14:00", "name": "USPS COLLECTION BOX - BLUE BOX", "note": "ON 12/24 AND 12/31, THIS BOX MAY BE COLLECTED AS EARLY AS 12 NOON.", "ref": "7873400009"}, "type": "Feature"}
{"geometry": {"coordinates": [-97.9674584486, 30.342579607], "type": "Point"}, "id": "rPsjIN-xrC4xwWUtnK296Veu4aw=", "properties": {"@spider": "usps_collection_boxes", "addr:city": "AUSTIN", "addr:country": "US", "addr:full": "2110 RANCH ROAD 620 S", "addr:postcode": "78734", "addr:state": "TX", "brand": "USPS", "collection_times": "Mo-Fr 17:00; Sa 16:00", "name": "USPS COLLECTION BOX - BLUE BOX", "note": "ON 12/24 AND 12/31, THIS BOX MAY BE COLLECTED AS EARLY AS 12 NOON.", "ref": "7873400015"}, "type": "Feature"}
{"geometry": {"coordinates": [-97.9674584486, 30.342579607], "type": "Point"}, "id": "K2J-mn_LHsmRPG2v6DCSX6sjcYI=", "properties": {"@spider": "usps_collection_boxes", "addr:city": "AUSTIN", "addr:country": "US", "addr:full": "2110 RANCH ROAD 620 S", "addr:postcode": "78734", "addr:state": "TX", "brand": "USPS", "collection_times": "Mo-Fr 17:00; Sa 16:00", "name": "USPS COLLECTION BOX - BLUE BOX", "note": "ON 12/24 AND 12/31, THIS BOX MAY BE COLLECTED AS EARLY AS 12 NOON.", "ref": "7873400016"}, "type": "Feature"}
{"geometry": {"coordinates": [-97.9674584486, 30.342579607], "type": "Point"}, "id": "zwgv7frZmUrLTUNlyYwL7DygI3Q=", "properties": {"@spider": "usps_collection_boxes", "addr:city": "AUSTIN", "addr:country": "US", "addr:full": "2110 RANCH ROAD 620 S", "addr:postcode": "78734", "addr:state": "TX", "brand": "USPS", "collection_times": "Mo-Fr 17:00; Sa 16:00", "name": "USPS COLLECTION BOX - PO LOBBY", "note": "ON 12/24 AND 12/31, THIS BOX MAY BE COLLECTED AS EARLY AS 12 NOON.", "ref": "7873400017"}, "type": "Feature"}
{"geometry": {"coordinates": [-97.9674584486, 30.342579607], "type": "Point"}, "id": "v_xX91id_y2PVMqbDiqNXdWtMkM=", "properties": {"@spider": "usps_collection_boxes", "addr:city": "AUSTIN", "addr:country": "US", "addr:full": "2110 RANCH ROAD 620 S", "addr:postcode": "78734", "addr:state": "TX", "brand": "USPS", "collection_times": "Mo-Fr 17:00; Sa 16:00", "name": "USPS COLLECTION BOX - PO LOBBY", "note": "ON 12/24 AND 12/31, THIS BOX MAY BE COLLECTED AS EARLY AS 12 NOON.", "ref": "7873400018"}, "type": "Feature"}
{"geometry": {"coordinates": [-97.9824058019, 30.3626528835], "type": "Point"}, "id": "xmcsX7O0VDiyqE7EOpTcbnyiPn0=", "properties": {"@spider": "usps_collection_boxes", "addr:city": "AUSTIN", "addr:country": "US", "addr:full": "1200 LAKEWAY DR", "addr:postcode": "78734", "addr:state": "TX", "brand": "USPS", "collection_times": "Mo-Fr 15:15; Sa 14:00", "name": "USPS COLLECTION BOX - BLUE BOX", "note": "ON 12/24 AND 12/31, THIS BOX MAY BE COLLECTED AS EARLY AS 12 NOON.", "ref": "7873400019"}, "type": "Feature"}
{"geometry": {"coordinates": [-97.9674584486, 30.342579607], "type": "Point"}, "id": "esiLZD1Zirk04kknSBKLbHZnUE0=", "properties": {"@spider": "usps_collection_boxes", "addr:city": "AUSTIN", "addr:country": "US", "addr:full": "2110 RANCH ROAD 620 S", "addr:postcode": "78734", "addr:state": "TX", "brand": "USPS", "collection_times": "Mo-Fr 17:00; Sa 16:00", "name": "USPS COLLECTION BOX - APC", "note": "ON 12/24 AND 12/31, THIS BOX MAY BE COLLECTED AS EARLY AS 12 NOON.", "ref": "7873400020"}, "type": "Feature"}
{"geometry": {"coordinates": [-97.9674584486, 30.342579607], "type": "Point"}, "id": "xcWR8J3gTOSjWK36poZbZFLLrFY=", "properties": {"@spider": "usps_collection_boxes", "addr:city": "AUSTIN", "addr:country": "US", "addr:full": "2110 RANCH ROAD 620 S", "addr:postcode": "78734", "addr:state": "TX", "brand": "USPS", "collection_times": "Mo-Fr 17:00; Sa 14:00", "name": "USPS COLLECTION BOX - PO LOBBY", "note": "ON 12/24 AND 12/31, THIS BOX MAY BE COLLECTED AS EARLY AS 12 NOON.", "ref": "7873400023"}, "type": "Feature"}
{"geometry": {"coordinates": [-97.8743886, 30.234854], "type": "Point"}, "id": "WsSZr0jUTH1LN9eFC0ZA1A60WKs=", "properties": {"@spider": "usps_collection_boxes", "addr:city": "AUSTIN", "addr:country": "US", "addr:full": "7010 W HIGHWAY 71", "addr:postcode": "78735", "addr:state": "TX", "brand": "USPS", "collection_times": "Mo-Fr 14:15; Sa 13:45", "name": "USPS COLLECTION BOX - BLUE BOX", "note": "ON 12/24 AND 12/31, THIS BOX MAY BE COLLECTED AS EARLY AS 12 NOON.", "ref": "7873500003"}, "type": "Feature"}
{"geometry": {"coordinates": [-97.875797, 30.234677], "type": "Point"}, "id": "0hbaUPzWP1JouVG2ksyoe0R4SY0=", "properties": {"@spider": "usps_collection_boxes", "addr:city": "AUSTIN", "addr:country": "US", "addr:full": "7101 W HIGHWAY 71", "addr:postcode": "78735", "addr:state": "TX", "brand": "USPS", "collection_times": "Mo-Fr 14:30; Sa 14:00", "name": "USPS COLLECTION BOX - BLUE BOX", "note": "ON 12/24 AND 12/31, THIS BOX MAY BE COLLECTED AS EARLY AS 12 NOON.", "ref": "7873500007"}, "type": "Feature"}
{"geometry": {"coordinates": [-97.8356187, 30.23743], "type": "Point"}, "id": "TvcNHpDsedgU8vw4fDh8lZeVtYo=", "properties": {"@spider": "usps_collection_boxes", "addr:city": "AUSTIN", "addr:country": "US", "addr:full": "5316 W HIGHWAY 290", "addr:postcode": "78735", "addr:state": "TX", "brand": "USPS", "collection_times": "Mo-Fr 14:15; Sa 13:45", "name": "USPS COLLECTION BOX - BLUE BOX", "note": "ON 12/24 AND 12/31, THIS BOX MAY BE COLLECTED AS EARLY AS 12 NOON.", "ref": "7873500008"}, "type": "Feature"}
{"geometry": {"coordinates": [-97.8143311, 30.240084], "type": "Point"}, "id": "utYxh4mon17emtJ-8QxJygTL9Xo=", "properties": {"@spider": "usps_collection_boxes", "addr:city": "AUSTIN", "addr:country": "US", "addr:full": "4425 S MO PAC EXPY", "addr:postcode": "78735", "addr:state": "TX", "brand": "USPS", "collection_times": "Mo-Fr 14:15", "name": "USPS COLLECTION BOX - BLUE BOX", "note": "ON 12/24 AND 12/31, THIS BOX MAY BE COLLECTED AS EARLY AS 12 NOON.", "ref": "7873500015"}, "type": "Feature"}
{"geometry": {"coordinates": [-97.885163, 30.229025], "type": "Point"}, "id": "angGRLSj3WmlhumlBTMXUDXgwMI=", "properties": {"@spider": "usps_collection_boxes", "addr:city": "AUSTIN", "addr:country": "US", "addr:full": "7748 HIGHWAY 290 W", "addr:postcode": "78736", "addr:state": "TX", "brand": "USPS", "collection_times": "Mo-Fr 14:30; Sa 14:00", "name": "USPS COLLECTION BOX - BLUE BOX", "note": "ON 12/24 AND 12/31, THIS BOX MAY BE COLLECTED AS EARLY AS 12 NOON.", "ref": "7873600001"}, "type": "Feature"}
{"geometry": {"coordinates": [-97.9679491, 30.211149], "type": "Point"}, "id": "sQx3qYBEy7KrPNfCHL5mIvTi7Bk=", "properties": {"@spider": "usps_collection_boxes", "addr:city": "AUSTIN", "addr:country": "US", "addr:full": "12009 W HIGHWAY 290", "addr:postcode": "78737", "addr:state": "TX", "brand": "USPS", "collection_times": "Mo-Sa 12:00", "name": "USPS COLLECTION BOX - BLUE BOX", "ref": "7873700001"}, "type": "Feature"}
{"geometry": {"coordinates": [-97.9178968, 30.310687], "type": "Point"}, "id": "VUNvVvwIZ21xzzNuxzSD2zWH8Qc=", "properties": {"@spider": "usps_collection_boxes", "addr:city": "AUSTIN", "addr:country": "US", "addr:full": "11612 FM 2244", "addr:postcode": "78738", "addr:state": "TX", "brand": "USPS", "collection_times": "Mo-Fr 16:40", "name": "USPS COLLECTION BOX - BLUE BOX", "note": "ON 12/24 AND 12/31, THIS BOX MAY BE COLLECTED AS EARLY AS 12 NOON.", "ref": "7873800001"}, "type": "Feature"}
{"geometry": {"coordinates": [-97.9392474899, 30.3097897097], "type": "Point"}, "id": "A36MenSF8TxhmkZW2qiRozkM68k=", "properties": {"@spider": "usps_collection_boxes", "addr:city": "AUSTIN", "addr:country": "US", "addr:full": "13420 GALLERIA CIR STE A110", "addr:postcode": "78738", "addr:state": "TX", "brand": "USPS", "collection_times": "Mo-Fr 16:00", "name": "USPS COLLECTION BOX - BLUE BOX", "note": "ON 12/24 AND 12/31, THIS BOX MAY BE COLLECTED AS EARLY AS 12 NOON.", "ref": "7873800002"}, "type": "Feature"}
{"geometry": {"coordinates": [-97.8920906, 30.19268], "type": "Point"}, "id": "72ulwp7sdFB8LRqyAXO48RuBFxY=", "properties": {"@spider": "usps_collection_boxes", "addr:city": "AUSTIN", "addr:country": "US", "addr:full": "6316 NEEDHAM LN", "addr:postcode": "78739", "addr:state": "TX", "brand": "USPS", "collection_times": "Mo-Sa 13:00", "name": "USPS COLLECTION BOX - BLUE BOX", "note": "ON 12/24 AND 12/31, THIS BOX MAY BE COLLECTED AS EARLY AS 12 NOON.", "ref": "7873900001"}, "type": "Feature"}
{"geometry": {"coordinates": [-97.8853700021, 30.1931629983], "type": "Point"}, "id": "6p34b_B-2Khvsj2raOx1LQw0Zv4=", "properties": {"@spider": "usps_collection_boxes", "addr:city": "AUSTIN", "addr:country": "US", "addr:full": "5919 LA CROSSE AVE", "addr:postcode": "78739", "addr:state": "TX", "brand": "USPS", "collection_times": "Mo-Sa 13:00", "name": "USPS COLLECTION BOX - BLUE BOX", "note": "ON 12/24 AND 12/31, THIS BOX MAY BE COLLECTED AS EARLY AS 12 NOON.", "ref": "7873900003"}, "type": "Feature"}
{"geometry": {"coordinates": [-97.7281672, 30.215175], "type": "Point"}, "id": "vQqYzBrvrV4H7Kn_hilAxqa8fIQ=", "properties": {"@spider": "usps_collection_boxes", "addr:city": "AUSTIN", "addr:country": "US", "addr:full": "4818 E BEN WHITE BLVD", "addr:postcode": "78741", "addr:state": "TX", "brand": "USPS", "collection_times": "Mo-Fr 17:30", "name": "USPS COLLECTION BOX - BLUE BOX", "note": "ON 12/24 AND 12/31, THIS BOX MAY BE COLLECTED AS EARLY AS 12 NOON.", "ref": "7874100002"}, "type": "Feature"}
{"geometry": {"coordinates": [-97.7021573, 30.227253], "type": "Point"}, "id": "n9SXrPL6k1xE2GWYNMg1rpm6Op0=", "properties": {"@spider": "usps_collection_boxes", "addr:city": "AUSTIN", "addr:country": "US", "addr:full": "1700 MONTOPOLIS DR", "addr:postcode": "78741", "addr:state": "TX", "brand": "USPS", "collection_times": "Mo-Fr 17:15", "name": "USPS COLLECTION BOX - BLUE BOX", "note": "ON 12/24 AND 12/31, THIS BOX MAY BE COLLECTED AS EARLY AS 12 NOON.", "ref": "7874100008"}, "type": "Feature"}
{"geometry": {"coordinates": [-97.7332455, 30.231117], "type": "Point"}, "id": "cEjcgt4MhJLOey0rqx3HUjAqI88=", "properties": {"@spider": "usps_collection_boxes", "addr:city": "AUSTIN", "addr:country": "US", "addr:full": "2223 BURTON DR", "addr:postcode": "78741", "addr:state": "TX", "brand": "USPS", "collection_times": "Mo-Fr 12:45; Sa 12:00", "name": "USPS COLLECTION BOX - BLUE BOX", "note": "ON 12/24 AND 12/31, THIS BOX MAY BE COLLECTED AS EARLY AS 12 NOON.", "ref": "7874100011"}, "type": "Feature"}
{"geometry": {"coordinates": [-97.7282176, 30.236242], "type": "Point"}, "id": "htbXrG55KoAkqHS0vProperQzg0=", "properties": {"@spider": "usps_collection_boxes", "addr:city": "AUSTIN", "addr:country": "US", "addr:full": "2204 WOODLAND AVE", "addr:postcode": "78741", "addr:state": "TX", "brand": "USPS", "collection_times": "Mo-Fr 12:45; Sa 12:00", "name": "USPS COLLECTION BOX - BLUE BOX", "note": "ON 12/24 AND 12/31, THIS BOX MAY BE COLLECTED AS EARLY AS 12 NOON.", "ref": "7874100012"}, "type": "Feature"}
{"geometry": {"coordinates": [-97.7349778, 30.242376], "type": "Point"}, "id": "CsjpL4YiG9g_Ueb1xQ-4bh7r4qo=", "properties": {"@spider": "usps_collection_boxes", "addr:city": "AUSTIN", "addr:country": "US", "addr:full": "1507 SUMMIT ST", "addr:postcode": "78741", "addr:state": "TX", "brand": "USPS", "collection_times": "Mo-Fr 13:30", "name": "USPS COLLECTION BOX - BLUE BOX", "note": "ON 12/24 AND 12/31, THIS BOX MAY BE COLLECTED AS EARLY AS 12 NOON.", "ref": "7874100013"}, "type": "Feature"}
{"geometry": {"coordinates": [-97.7201547, 30.216429], "type": "Point"}, "id": "gkU_UBFIVYKP1HyuqGf-RnGydOk=", "properties": {"@spider": "usps_collection_boxes", "addr:city": "AUSTIN", "addr:country": "US", "addr:full": "3019 ALVIN DEVANE BLVD", "addr:postcode": "78741", "addr:state": "TX", "brand": "USPS", "collection_times": "Mo-Fr 17:00; Sa 14:30", "name": "USPS COLLECTION BOX - BLUE BOX", "note": "ON 12/24 AND 12/31, THIS BOX MAY BE COLLECTED AS EARLY AS 12 NOON.", "ref": "7874100014"}, "type": "Feature"}
{"geometry": {"coordinates": [-97.7219207, 30.236017], "type": "Point"}, "id": "IbsqWQGPGji7dqlRkX1cDw_xAK8=", "properties": {"@spider": "usps_collection_boxes", "addr:city": "AUSTIN", "addr:country": "US", "addr:full": "2508 E RIVERSIDE DR", "addr:postcode": "78741", "addr:state": "TX", "brand": "USPS", "collection_times": "Mo-Sa 14:00", "name": "USPS COLLECTION BOX - BLUE BOX", "note": "ON 12/24 AND 12/31, THIS BOX MAY BE COLLECTED AS EARLY AS 12 NOON.", "ref": "7874100016"}, "type": "Feature"}
{"geometry": {"coordinates": [-97.739890808, 30.234945081], "type": "Point"}, "id": "vR_ryG9x-Wp0Bv1ezmNEoo3YnlU=", "properties": {"@spider": "usps_collection_boxes", "addr:city": "AUSTIN", "addr:country": "US", "addr:full": "2211 S IH 35", "addr:postcode": "78741", "addr:state": "TX", "brand": "USPS", "collection_times": "Mo-Fr 13:00", "name": "USPS COLLECTION BOX - BLUE BOX", "note": "ON 12/24 AND 12/31, THIS BOX MAY BE COLLECTED AS EARLY AS 12 NOON.", "ref": "7874100020"}, "type": "Feature"}
{"geometry": {"coordinates": [-97.7386099, 30.235984], "type": "Point"}, "id": "uVLfyl3qFIptaGZltVfBDppyYmc=", "properties": {"@spider": "usps_collection_boxes", "addr:city": "AUSTIN", "addr:country": "US", "addr:full": "2101 S IH 35", "addr:postcode": "78741", "addr:state": "TX", "brand": "USPS", "collection_times": "Mo-Fr 13:15", "name": "USPS COLLECTION BOX - BLUE BOX", "note": "ON 12/24 AND 12/31, THIS BOX MAY BE COLLECTED AS EARLY AS 12 NOON.", "ref": "7874100025"}, "type": "Feature"}
{"geometry": {"coordinates": [-97.7131942243, 30.2164496044], "type": "Point"}, "id": "TPL3-jJQLCdJi3ykYwqtS3oMJtg=", "properties": {"@spider": "usps_collection_boxes", "addr:city": "AUSTIN", "addr:country": "US", "addr:full": "6101 E OLTORF ST", "addr:postcode": "78741", "addr:state": "TX", "brand": "USPS", "collection_times": "Mo-Fr 16:45", "name": "USPS COLLECTION BOX - BLUE BOX", "note": "ON 12/24 AND 12/31, THIS BOX MAY BE COLLECTED AS EARLY AS 12 NOON.", "ref": "7874100027"}, "type": "Feature"}
{"geometry": {"coordinates": [-97.7435327, 30.217198], "type": "Point"}, "id": "3CpSvSEvK5fMIRJhxJeX6pGzciE=", "properties": {"@spider": "usps_collection_boxes", "addr:city": "AUSTIN", "addr:country": "US", "addr:full": "2028 E BEN WHITE BLVD", "addr:postcode": "78741", "addr:state": "TX", "brand": "USPS", "collection_times": "Mo-Fr 12:30", "name": "USPS COLLECTION BOX - BLUE BOX", "note": "ON 12/24 AND 12/31, THIS BOX MAY BE COLLECTED AS EARLY AS 12 NOON.", "ref": "7874100031"}, "type": "Feature"}
{"geometry": {"coordinates": [-97.7427799989, 30.2275010153], "type": "Point"}, "id": "5Dl-5mxTdFa9eFTzG1iPSVtICvY=", "properties": {"@spider": "usps_collection_boxes", "addr:city": "AUSTIN", "addr:country": "US", "addr:full": "1627 ROYAL HILL DR", "addr:postcode": "78741", "addr:state": "TX", "brand": "USPS", "collection_times": "Mo-Fr 12:45", "name": "USPS COLLECTION BOX - BLUE BOX", "note": "ON 12/24 AND 12/31, THIS BOX MAY BE COLLECTED AS EARLY AS 12 NOON.", "ref": "7874100033"}, "type": "Feature"}
{"geometry": {"coordinates": [-97.732179, 30.213846], "type": "Point"}, "id": "DD-lVRM3pdfPPSudLLSNlyTJ-Kc=", "properties": {"@spider": "usps_collection_boxes", "addr:city": "AUSTIN", "addr:country": "US", "addr:full": "4516 BURLESON RD", "addr:postcode": "78744", "addr:state": "TX", "brand": "USPS", "collection_times": "Mo-Sa 17:00", "name": "USPS COLLECTION BOX - BLUE BOX", "note": "ON 12/24 AND 12/31, THIS BOX MAY BE COLLECTED AS EARLY AS 12 NOON.", "ref": "7874400001"}, "type": "Feature"}
{"geometry": {"coordinates": [-97.7692317, 30.188609], "type": "Point"}, "id": "ZkIObHifAJq_DhdF3TK6MUoPWt0=", "properties": {"@spider": "usps_collection_boxes", "addr:city": "AUSTIN", "addr:country": "US", "addr:full": "6607 S I H 35", "addr:postcode": "78744", "addr:state": "TX", "brand": "USPS", "collection_times": "Mo-Fr 13:15; Sa 11:30", "name": "USPS COLLECTION BOX - BLUE BOX", "note": "ON 12/24 AND 12/31, THIS BOX MAY BE COLLECTED AS EARLY AS 12 NOON.", "ref": "7874400002"}, "type": "Feature"}
{"geometry": {"coordinates": [-97.749035669, 30.212550631], "type": "Point"}, "id": "gn8IRCKTqxjPpsa6WrNdwDLD_WI=", "properties": {"@spider": "usps_collection_boxes", "addr:city": "AUSTIN", "addr:country": "US", "addr:full": "1821 DIRECTORS BLVD", "addr:postcode": "78744", "addr:state": "TX", "brand": "USPS", "collection_times": "Mo-Fr 13:15; Sa 14:15", "name": "USPS COLLECTION BOX - BLUE BOX", "note": "ON 12/24 AND 12/31, THIS BOX MAY BE COLLECTED AS EARLY AS 12 NOON.", "ref": "7874400006"}, "type": "Feature"}
{"geometry": {"coordinates": [-97.7467372, 30.21373], "type": "Point"}, "id": "7FJQnaQEbCqSXrn2p3tijEs4euo=", "properties": {"@spider": "usps_collection_boxes", "addr:city": "AUSTIN", "addr:country": "US", "addr:full": "4115 FREIDRICH LN", "addr:postcode": "78744", "addr:state": "TX", "brand": "USPS", "collection_times": "Mo-Fr 13:00; Sa 14:15", "name": "USPS COLLECTION BOX - BLUE BOX", "note": "ON 12/24 AND 12/31, THIS BOX MAY BE COLLECTED AS EARLY AS 12 NOON.", "ref": "7874400007"}, "type": "Feature"}
{"geometry": {"coordinates": [-97.7367833, 30.211818], "type": "Point"}, "id": "lM4AtsZ0Gm9RWYMzw-EI-psSGmY=", "properties": {"@spider": "usps_collection_boxes", "addr:city": "AUSTIN", "addr:country": "US", "addr:full": "3913 TODD LN", "addr:postcode": "78744", "addr:state": "TX", "brand": "USPS", "collection_times": "Mo-Fr 13:00; Sa 14:30", "name": "USPS COLLECTION BOX - BLUE BOX", "note": "ON 12/24 AND 12/31, THIS BOX MAY BE COLLECTED AS EARLY AS 12 NOON.", "ref": "7874400008"}, "type": "Feature"}
{"geometry": {"coordinates": [-97.7326396004, 30.2132105371], "type": "Point"}, "id": "ghRTLBoSjcChlrwRi4scpqT1gKw=", "properties": {"@spider": "usps_collection_boxes", "addr:city": "AUSTIN", "addr:country": "US", "addr:full": "4516 BURLESON RD", "addr:postcode": "78744", "addr:state": "TX", "brand": "USPS", "collection_times": "Mo-Sa 17:00", "name": "USPS COLLECTION BOX - PO LOBBY", "note": "ON 12/24 AND 12/31, THIS BOX MAY BE COLLECTED AS EARLY AS 12 NOON.", "ref": "7874400022"}, "type": "Feature"}
{"geometry": {"coordinates": [-97.7326396004, 30.2132105371], "type": "Point"}, "id": "DGEXwAQJq8i4UZXxPrxwo7CbuSk=", "properties": {"@spider": "usps_collection_boxes", "addr:city": "AUSTIN", "addr:country": "US", "addr:full": "4516 BURLESON RD", "addr:postcode": "78744", "addr:state": "TX", "brand": "USPS", "collection_times": "Mo-Sa 17:00", "name": "USPS COLLECTION BOX - PO LOBBY", "note": "ON 12/24 AND 12/31, THIS BOX MAY BE COLLECTED AS EARLY AS 12 NOON.", "ref": "7874400023"}, "type": "Feature"}
{"geometry": {"coordinates": [-97.6964754, 30.209441], "type": "Point"}, "id": "YFnBkhRHhAL_WgFLz3CLwTUZJ8c=", "properties": {"@spider": "usps_collection_boxes", "addr:city": "AUSTIN", "addr:country": "US", "addr:full": "7301 METRO CENTER DR", "addr:postcode": "78744", "addr:state": "TX", "brand": "USPS", "collection_times": "Mo-Fr 13:35", "name": "USPS COLLECTION BOX - BLUE BOX", "note": "ON 12/24 AND 12/31, THIS BOX MAY BE COLLECTED AS EARLY AS 12 NOON.", "ref": "7874400025"}, "type": "Feature"}
{"geometry": {"coordinates": [-97.7153463, 30.196204], "type": "Point"}, "id": "j1Hb0v1ywbEz_viRiJ2FtAz6zBg=", "properties": {"@spider": "usps_collection_boxes", "addr:city": "AUSTIN", "addr:country": "US", "addr:full": "4200 SMITH SCHOOL RD", "addr:postcode": "78744", "addr:state": "TX", "brand": "USPS", "collection_times": "Mo-Fr 15:00", "name": "USPS COLLECTION BOX - BLUE BOX", "note": "ON 12/24 AND 12/31, THIS BOX MAY BE COLLECTED AS EARLY AS 12 NOON.", "ref": "7874400026"}, "type": "Feature"}
{"geometry": {"coordinates": [-97.6903510269, 30.2056599968], "type": "Point"}, "id": "izVdvHOZZFC9y7Fn2dvRb1fEQwo=", "properties": {"@spider": "usps_collection_boxes", "addr:city": "AUSTIN", "addr:country": "US", "addr:full": "7901 METROPOLIS DR", "addr:postcode": "78744", "addr:state": "TX", "brand": "USPS", "collection_times": "Mo-Fr 17:45", "name": "USPS COLLECTION BOX - BLUE BOX", "note": "ON 12/24 AND 12/31, THIS BOX MAY BE COLLECTED AS EARLY AS 12 NOON.", "ref": "7874400027"}, "type": "Feature"}
{"geometry": {"coordinates": [-97.7326396004, 30.2132105371], "type": "Point"}, "id": "wrabbE0QFQ4Xi6IIMotR6cjqD0E=", "properties": {"@spider": "usps_collection_boxes", "addr:city": "AUSTIN", "addr:country": "US", "addr:full": "4516 BURLESON RD", "addr:postcode": "78744", "addr:state": "TX", "brand": "USPS", "collection_times": "Mo-Fr 17:00", "name": "USPS COLLECTION BOX - PO LOBBY", "note": "ON 12/24 AND 12/31, THIS BOX MAY BE COLLECTED AS EARLY AS 12 NOON.", "ref": "7874400028"}, "type": "Feature"}
{"geometry": {"coordinates": [-97.7821958, 30.208256], "type": "Point"}, "id": "4tSYEHLN0WATNGkd4x6gyV9YOHs=", "properties": {"@spider": "usps_collection_boxes", "addr:city": "AUSTIN", "addr:country": "US", "addr:full": "5600 S 1ST ST", "addr:postcode": "78745", "addr:state": "TX", "brand": "USPS", "collection_times": "Mo-Fr 12:00; Sa 14:00", "name": "USPS COLLECTION BOX - BLUE BOX", "note": "ON 12/24 AND 12/31, THIS BOX MAY BE COLLECTED AS EARLY AS 12 NOON.", "ref": "7874500004"}, "type": "Feature"}
{"geometry": {"coordinates": [-97.7936375162, 30.2302875351], "type": "Point"}, "id": "xlHZEj_dwwHpvVggqwcpwGitXbE=", "properties": {"@spider": "usps_collection_boxes", "addr:city": "AUSTIN", "addr:country": "US", "addr:full": "2205 WESTERN TRAILS BLVD", "addr:postcode": "78745", "addr:state": "TX", "brand": "USPS", "collection_times": "Mo-Sa 13:00", "name": "USPS COLLECTION BOX - BLUE BOX", "note": "ON 12/24 AND 12/31, THIS BOX MAY BE COLLECTED AS EARLY AS 12 NOON.", "ref": "7874500009"}, "type": "Feature"}
{"geometry": {"coordinates": [-97.7683343, 30.215459], "type": "Point"}, "id": "IIsTOpYdrNGblM_4S52IbuWucT4=", "properties": {"@spider": "usps_collection_boxes", "addr:city": "AUSTIN", "addr:country": "US", "addr:full": "4619 S CONGRESS AVE", "addr:postcode": "78745", "addr:state": "TX", "brand": "USPS", "collection_times": "Mo-Sa 12:00", "name": "USPS COLLECTION BOX - BLUE BOX", "ref": "7874500010"}, "type": "Feature"}
{"geometry": {"coordinates": [-97.8222176, 30.23044], "type": "Point"}, "id": "GFqKBhrgfnmIsNDHxrgJE10-ZI0=", "properties": {"@spider": "usps_collection_boxes", "addr:city": "AUSTIN", "addr:country": "US", "addr:full": "5400 BRODIE LN", "addr:postcode": "78745", "addr:state": "TX", "brand": "USPS", "collection_times": "Mo-Fr 13:45; Sa 16:00", "name": "USPS COLLECTION BOX - BLUE BOX", "note": "ON 12/24 AND 12/31, THIS BOX MAY BE COLLECTED AS EARLY AS 12 NOON.", "ref": "7874500012"}, "type": "Feature"}
{"geometry": {"coordinates": [-97.7725505, 30.226597], "type": "Point"}, "id": "BgQ7b133sZ0Fu82aYwE_DjUsyec=", "properties": {"@spider": "usps_collection_boxes", "addr:city": "AUSTIN", "addr:country": "US", "addr:full": "4007 JAMES CASEY ST", "addr:postcode": "78745", "addr:state": "TX", "brand": "USPS", "collection_times": "Mo-Fr 12:00; Sa 13:00", "name": "USPS COLLECTION BOX - BLUE BOX", "note": "ON 12/24 AND 12/31, THIS BOX MAY BE COLLECTED AS EARLY AS 12 NOON.", "ref": "7874500014"}, "type": "Feature"}
{"geometry": {"coordinates": [-97.7741023, 30.225206], "type": "Point"}, "id": "4H4ZG08LsTHQaxyKR4R_mbNCa30=", "properties": {"@spider": "usps_collection_boxes", "addr:city": "AUSTIN", "addr:country": "US", "addr:full": "4207 JAMES CASEY ST", "addr:postcode": "78745", "addr:state": "TX", "brand": "USPS", "collection_times": "Mo-Fr 12:00; Sa 12:45", "name": "USPS COLLECTION BOX - BLUE BOX", "note": "ON 12/24 AND 12/31, THIS BOX MAY BE COLLECTED AS EARLY AS 12 NOON.", "ref": "7874500015"}, "type": "Feature"}
{"geometry": {"coordinates": [-97.7947789, 30.199848], "type": "Point"}, "id": "ns4TkaB2hx2JoQwQdfh72Gx5R1M=", "properties": {"@spider": "usps_collection_boxes", "addr:city": "AUSTIN", "addr:country": "US", "addr:full": "1110 W WILLIAM CANNON DR", "addr:postcode": "78745", "addr:state": "TX", "brand": "USPS", "collection_times": "Mo-Fr 12:15", "name": "USPS COLLECTION BOX - BLUE BOX", "note": "ON 12/24 AND 12/31, THIS BOX MAY BE COLLECTED AS EARLY AS 12 NOON.", "ref": "7874500017"}, "type": "Feature"}
{"geometry": {"coordinates": [-97.808931, 30.19923], "type": "Point"}, "id": "SCLXJP2Z94clmpFrZ1kS3Kzwg7w=", "properties": {"@spider": "usps_collection_boxes", "addr:city": "AUSTIN", "addr:country": "US", "addr:full": "7310 MANCHACA RD", "addr:postcode": "78745", "addr:state": "TX", "brand": "USPS", "collection_times": "Mo-Sa 17:00", "name": "USPS COLLECTION BOX - BLUE BOX", "note": "ON 12/24 AND 12/31, THIS BOX MAY BE COLLECTED AS EARLY AS 12 NOON.", "ref": "7874500024"}, "type": "Feature"}
{"geometry": {"coordinates": [-97.8021392, 30.234069], "type": "Point"}, "id": "ptWV1KjCT-7PcSRGmYAtgn1tq3M=", "properties": {"@spider": "usps_collection_boxes", "addr:city": "AUSTIN", "addr:country": "US", "addr:full": "4544 S LAMAR BLVD", "addr:postcode": "78745", "addr:state": "TX", "brand": "USPS", "collection_times": "Mo-Fr 13:30; Sa 15:45", "name": "USPS COLLECTION BOX - BLUE BOX", "note": "ON 12/24 AND 12/31, THIS BOX MAY BE COLLECTED AS EARLY AS 12 NOON.", "ref": "7874500031"}, "type": "Feature"}
{"geometry": {"coordinates": [-97.7990167, 30.215931], "type": "Point"}, "id": "fbLPAF87_mqaSKYv1gMgPtY78R4=", "properties": {"@spider": "usps_collection_boxes", "addr:city": "AUSTIN", "addr:country": "US", "addr:full": "5730 MANCHACA RD", "addr:postcode": "78745", "addr:state": "TX", "brand": "USPS", "collection_times": "Mo-Fr 12:00; Sa 13:00", "name": "USPS COLLECTION BOX - BLUE BOX", "note": "ON 12/24 AND 12/31, THIS BOX MAY BE COLLECTED AS EARLY AS 12 NOON.", "ref": "7874500034"}, "type": "Feature"}
{"geometry": {"coordinates": [-97.808126, 30.198827], "type": "Point"}, "id": "K-BCWNIh0_uBIKqgDnbITseYcKs=", "properties": {"@spider": "usps_collection_boxes", "addr:city": "AUSTIN", "addr:country": "US", "addr:full": "7310 MANCHACA RD", "addr:postcode": "78745", "addr:state": "TX", "brand": "USPS", "collection_times": "Mo-Sa 17:00", "name": "USPS COLLECTION BOX - PO LOBBY", "note": "ON 12/24 AND 12/31, THIS BOX MAY BE COLLECTED AS EARLY AS 12 NOON.", "ref": "7874500037"}, "type": "Feature"}
{"geometry": {"coordinates": [-97.808126, 30.198827], "type": "Point"}, "id": "2XMrIXN-1j9v5-UbEazDHukNMcI=", "properties": {"@spider": "usps_collection_boxes", "addr:city": "AUSTIN", "addr:country": "US", "addr:full": "7310 MANCHACA RD", "addr:postcode": "78745", "addr:state": "TX", "brand": "USPS", "collection_times": "Mo-Sa 17:00", "name": "USPS COLLECTION BOX - PO LOBBY", "note": "ON 12/24 AND 12/31, THIS BOX MAY BE COLLECTED AS EARLY AS 12 NOON.", "ref": "7874500038"}, "type": "Feature"}
{"geometry": {"coordinates": [-97.837526733, 30.2028411993], "type": "Point"}, "id": "cR9Z0IPQnd91GTKIcjjhOQ1WBPc=", "properties": {"@spider": "usps_collection_boxes", "addr:city": "AUSTIN", "addr:country": "US", "addr:full": "8010 BRODIE LN", "addr:postcode": "78745", "addr:state": "TX", "brand": "USPS", "collection_times": "Mo-Fr 15:15; Sa 14:15", "name": "USPS COLLECTION BOX - BLUE BOX", "note": "ON 12/24 AND 12/31, THIS BOX MAY BE COLLECTED AS EARLY AS 12 NOON.", "ref": "7874500040"}, "type": "Feature"}
{"geometry": {"coordinates": [-97.808126, 30.198827], "type": "Point"}, "id": "oQkQYqLU6shcu33_4dSeUYYlBFo=", "properties": {"@spider": "usps_collection_boxes", "addr:city": "AUSTIN", "addr:country": "US", "addr:full": "7310 MANCHACA RD", "addr:postcode": "78745", "addr:state": "TX", "brand": "USPS", "collection_times": "Mo-Sa 17:00", "name": "USPS COLLECTION BOX - APC", "note": "ON 12/24 AND 12/31, THIS BOX MAY BE COLLECTED AS EARLY AS 12 NOON.", "ref": "7874500041"}, "type": "Feature"}
{"geometry": {"coordinates": [-97.80806537, 30.1989195862], "type": "Point"}, "id": "jX3DjW8_XUtj65b5EIFGFmIPK80=", "properties": {"@spider": "usps_collection_boxes", "addr:city": "AUSTIN", "addr:country": "US", "addr:full": "7310 MANCHACA RD", "addr:postcode": "78745", "addr:state": "TX", "brand": "USPS", "collection_times": "Mo-Fr 17:30; Sa 14:30", "name": "USPS COLLECTION BOX - PO LOBBY", "note": "ON 12/24 AND 12/31, THIS BOX MAY BE COLLECTED AS EARLY AS 12 NOON.", "ref": "7874500047"}, "type": "Feature"}
{"geometry": {"coordinates": [-97.8119576, 30.273861], "type": "Point"}, "id": "GPVPJt3uoU6ORl7rbz7CMtQ-LPc=", "properties": {"@spider": "usps_collection_boxes", "addr:city": "WEST LAKE HILLS", "addr:country": "US", "addr:full": "1309 WESTBANK DR", "addr:postcode": "78746", "addr:state": "TX", "brand": "USPS", "collection_times": "Mo-Fr 16:00; Sa 15:25", "name": "USPS COLLECTION BOX - BLUE BOX", "note": "ON 12/24 AND 12/31, THIS BOX MAY BE COLLECTED AS EARLY AS 12 NOON.", "ref": "7874600013"}, "type": "Feature"}
{"geometry": {"coordinates": [-97.7856922, 30.274577], "type": "Point"}, "id": "2cnS3DVCuGQVQZiwqcR3Gh9XaGk=", "properties": {"@spider": "usps_collection_boxes", "addr:city": "WEST LAKE HILLS", "addr:country": "US", "addr:full": "2805 ROLLINGWOOD DR", "addr:postcode": "78746", "addr:state": "TX", "brand": "USPS", "collection_times": "Mo-Fr 15:30; Sa 14:45", "name": "USPS COLLECTION BOX - BLUE BOX", "note": "ON 12/24 AND 12/31, THIS BOX MAY BE COLLECTED AS EARLY AS 12 NOON.", "ref": "7874600014"}, "type": "Feature"}
{"geometry": {"coordinates": [-97.8151852, 30.262724], "type": "Point"}, "id": "cqyfhUgIxZZN4SMNptpcLEty3vg=", "properties": {"@spider": "usps_collection_boxes", "addr:city": "WEST LAKE HILLS", "addr:country": "US", "addr:full": "2501 S CAPITAL OF TEXAS HWY", "addr:postcode": "78746", "addr:state": "TX", "brand": "USPS", "collection_times": "Mo-Fr 15:45; Sa 15:15", "name": "USPS COLLECTION BOX - BLUE BOX", "note": "ON 12/24 AND 12/31, THIS BOX MAY BE COLLECTED AS EARLY AS 12 NOON.", "ref": "7874600015"}, "type": "Feature"}
{"geometry": {"coordinates": [-97.8175100439, 30.2720437724], "type": "Point"}, "id": "DaLX_-rrRNgAsOqMv2R4FU4VrbE=", "properties": {"@spider": "usps_collection_boxes", "addr:city": "WEST LAKE HILLS", "addr:country": "US", "addr:full": "1705 S CAPITAL OF TEXAS HWY", "addr:postcode": "78746", "addr:state": "TX", "brand": "USPS", "collection_times": "Mo-Fr 16:00; Sa 15:15", "name": "USPS COLLECTION BOX - BLUE BOX", "note": "ON 12/24 AND 12/31, THIS BOX MAY BE COLLECTED AS EARLY AS 12 NOON.", "ref": "7874600016"}, "type": "Feature"}
{"geometry": {"coordinates": [-97.7848311, 30.26568], "type": "Point"}, "id": "MOMEykcneNOfpGr0ZES_J5oV-Kw=", "properties": {"@spider": "usps_collection_boxes", "addr:city": "WEST LAKE HILLS", "addr:country": "US", "addr:full": "1000 MO PAC CIR", "addr:postcode": "78746", "addr:state": "TX", "brand": "USPS", "collection_times": "Mo-Fr 15:45; Sa 15:00", "name": "USPS COLLECTION BOX - BLUE BOX", "note": "ON 12/24 AND 12/31, THIS BOX MAY BE COLLECTED AS EARLY AS 12 NOON.", "ref": "7874600018"}, "type": "Feature"}
{"geometry": {"coordinates": [-97.8077096, 30.256427], "type": "Point"}, "id": "mMP5o3tLsxWpdXBWKiV0_sM2GFQ=", "properties": {"@spider": "usps_collection_boxes", "addr:city": "WEST LAKE HILLS", "addr:country": "US", "addr:full": "2901 S CAPITAL OF TEXAS HWY", "addr:postcode": "78746", "addr:state": "TX", "brand": "USPS", "collection_times": "Mo-Fr 15:45; Sa 15:15", "name": "USPS COLLECTION BOX - BLUE BOX", "note": "ON 12/24 AND 12/31, THIS BOX MAY BE COLLECTED AS EARLY AS 12 NOON.", "ref": "7874600020"}, "type": "Feature"}
{"geometry": {"coordinates": [-97.8169145, 30.273029], "type": "Point"}, "id": "BZMlM9VSK55CXVHY9UZtANDatn8=", "properties": {"@spider": "usps_collection_boxes", "addr:city": "WEST LAKE HILLS", "addr:country": "US", "addr:full": "1515 S CAPITAL OF TEXAS HWY", "addr:postcode": "78746", "addr:state": "TX", "brand": "USPS", "collection_times": "Mo-Fr 16:00; Sa 15:15", "name": "USPS COLLECTION BOX - BLUE BOX", "note": "ON 12/24 AND 12/31, THIS BOX MAY BE COLLECTED AS EARLY AS 12 NOON.", "ref": "7874600024"}, "type": "Feature"}
{"geometry": {"coordinates": [-97.8237331, 30.284177], "type": "Point"}, "id": "viicqZALf8cZ4KBPo045NrxTZM4=", "properties": {"@spider": "usps_collection_boxes", "addr:city": "WEST LAKE HILLS", "addr:country": "US", "addr:full": "1101 S CAPITAL OF TEXAS HWY", "addr:postcode": "78746", "addr:state": "TX", "brand": "USPS", "collection_times": "Mo-Fr 14:45", "name": "USPS COLLECTION BOX - BLUE BOX", "note": "ON 12/24 AND 12/31, THIS BOX MAY BE COLLECTED AS EARLY AS 12 NOON.", "ref": "7874600031"}, "type": "Feature"}
{"geometry": {"coordinates": [-97.7855531, 30.322774], "type": "Point"}, "id": "1o8131cOmRmb3J2m00Cs2vFAZOA=", "properties": {"@spider": "usps_collection_boxes", "addr:city": "WEST LAKE HILLS", "addr:country": "US", "addr:full": "1010 WESTLAKE DR", "addr:postcode": "78746", "addr:state": "TX", "brand": "USPS", "collection_times": "Mo-Fr 14:30; Sa 14:15", "name": "USPS COLLECTION BOX - BLUE BOX", "note": "ON 12/24 AND 12/31, THIS BOX MAY BE COLLECTED AS EARLY AS 12 NOON.", "ref": "7874600039"}, "type": "Feature"}
{"geometry": {"coordinates": [-97.8274335, 30.308855], "type": "Point"}, "id": "JFie1p789IHsVBGFX9DsDrn_GxM=", "properties": {"@spider": "usps_collection_boxes", "addr:city": "WEST LAKE HILLS", "addr:country": "US", "addr:full": "500 N CAPITAL OF TEXAS HWY", "addr:postcode": "78746", "addr:state": "TX", "brand": "USPS", "collection_times": "Mo-Fr 16:15", "name": "USPS COLLECTION BOX - BLUE BOX", "note": "ON 12/24 AND 12/31, THIS BOX MAY BE COLLECTED AS EARLY AS 12 NOON.", "ref": "7874600043"}, "type": "Feature"}
{"geometry": {"coordinates": [-97.8248565, 30.282831], "type": "Point"}, "id": "qyJzEBON7CtgQSQNr1hWU_c3XvE=", "properties": {"@spider": "usps_collection_boxes", "addr:city": "WEST LAKE HILLS", "addr:country": "US", "addr:full": "1120 S CAPITAL OF TEXAS HWY BLDG 2", "addr:postcode": "78746", "addr:state": "TX", "brand": "USPS", "collection_times": "Mo-Fr 17:00", "name": "USPS COLLECTION BOX - BLUE BOX", "note": "ON 12/24 AND 12/31, THIS BOX MAY BE COLLECTED AS EARLY AS 12 NOON.", "ref": "7874600046"}, "type": "Feature"}
{"geometry": {"coordinates": [-97.8231465, 30.294161], "type": "Point"}, "id": "IRaLNYv1A7DcJthiMCSEzdJUAfc=", "properties": {"@spider": "usps_collection_boxes", "addr:city": "WEST LAKE HILLS", "addr:country": "US", "addr:full": "5524 BEE CAVES RD", "addr:postcode": "78746", "addr:state": "TX", "brand": "USPS", "collection_times": "Mo-Fr 15:15; Sa 15:30", "name": "USPS COLLECTION BOX - BLUE BOX", "note": "ON 12/24 AND 12/31, THIS BOX MAY BE COLLECTED AS EARLY AS 12 NOON.", "ref": "7874600052"}, "type": "Feature"}
{"geometry": {"coordinates": [-97.799527, 30.273748], "type": "Point"}, "id": "rd26-I9MSGNtmH9B55BSd6qBdns=", "properties": {"@spider": "usps_collection_boxes", "addr:city": "WEST LAKE HILLS", "addr:country": "US", "addr:full": "3201 BEE CAVES RD", "addr:postcode": "78746", "addr:state": "TX", "brand": "USPS", "collection_times": "Mo-Fr 17:00; Sa 15:00", "name": "USPS COLLECTION BOX - BLUE BOX", "note": "ON 12/24 AND 12/31, THIS BOX MAY BE COLLECTED AS EARLY AS 12 NOON.", "ref": "7874600055"}, "type": "Feature"}
{"geometry": {"coordinates": [-97.8041563, 30.336044], "type": "Point"}, "id": "yH28Kq4YteNXsnncTqQcpFR2m70=", "properties": {"@spider": "usps_collection_boxes", "addr:city": "WEST LAKE HILLS", "addr:country": "US", "addr:full": "3801 N CAPITAL OF TEXAS HWY", "addr:postcode": "78746", "addr:state": "TX", "brand": "USPS", "collection_times": "Mo-Fr 16:00; Sa 15:45", "name": "USPS COLLECTION BOX - BLUE BOX", "note": "ON 12/24 AND 12/31, THIS BOX MAY BE COLLECTED AS EARLY AS 12 NOON.", "ref": "7874600057"}, "type": "Feature"}
{"geometry": {"coordinates": [-97.8253924, 30.291219], "type": "Point"}, "id": "UTyS040L0389vOyndtJWrr2whAI=", "properties": {"@spider": "usps_collection_boxes", "addr:city": "WEST LAKE HILLS", "addr:country": "US", "addr:full": "701 S CAPITAL OF TEXAS HWY", "addr:postcode": "78746", "addr:state": "TX", "brand": "USPS", "collection_times": "Mo-Fr 14:45; Sa 15:30", "name": "USPS COLLECTION BOX - BLUE BOX", "note": "ON 12/24 AND 12/31, THIS BOX MAY BE COLLECTED AS EARLY AS 12 NOON.", "ref": "7874600058"}, "type": "Feature"}
{"geometry": {"coordinates": [-97.7805065, 30.265472], "type": "Point"}, "id": "rsG4gAvxKBuCvHM4XhQfwxZTJXs=", "properties": {"@spider": "usps_collection_boxes", "addr:city": "WEST LAKE HILLS", "addr:country": "US", "addr:full": "901 S MO PAC EXPY", "addr:postcode": "78746", "addr:state": "TX", "brand": "USPS", "collection_times": "Mo-Fr 15:30; Sa 14:30", "name": "USPS COLLECTION BOX - BLUE BOX", "note": "ON 12/24 AND 12/31, THIS BOX MAY BE COLLECTED AS EARLY AS 12 NOON.", "ref": "7874600059"}, "type": "Feature"}
{"geometry": {"coordinates": [-97.800831, 30.272085], "type": "Point"}, "id": "2jyUeO7rofGrRzUDsRJi0BWYK70=", "properties": {"@spider": "usps_collection_boxes", "addr:city": "WEST LAKE HILLS", "addr:country": "US", "addr:full": "3201 BEE CAVES RD STE 120", "addr:postcode": "78746", "addr:state": "TX", "brand": "USPS", "collection_times": "Mo-Fr 17:00; Sa 15:00", "name": "USPS COLLECTION BOX - PO LOBBY", "note": "ON 12/24 AND 12/31, THIS BOX MAY BE COLLECTED AS EARLY AS 12 NOON.", "ref": "7874600063"}, "type": "Feature"}
{"geometry": {"coordinates": [-97.800831, 30.272085], "type": "Point"}, "id": "cLp88Pw4NvaLEJ42uSIWzo8V1tA=", "properties": {"@spider": "usps_collection_boxes", "addr:city": "WEST LAKE HILLS", "addr:country": "US", "addr:full": "3201 BEE CAVES RD STE 120", "addr:postcode": "78746", "addr:state": "TX", "brand": "USPS", "collection_times": "Mo-Fr 17:00; Sa 15:00", "name": "USPS COLLECTION BOX - PO LOBBY", "note": "ON 12/24 AND 12/31, THIS BOX MAY BE COLLECTED AS EARLY AS 12 NOON.", "ref": "7874600064"}, "type": "Feature"}
{"geometry": {"coordinates": [-97.82496, 30.281283], "type": "Point"}, "id": "AuWtRf3E-j-aCOcJhBPRDaHuKAU=", "properties": {"@spider": "usps_collection_boxes", "addr:city": "WEST LAKE HILLS", "addr:country": "US", "addr:full": "1122 S CAPITAL OF TEXAS HWY", "addr:postcode": "78746", "addr:state": "TX", "brand": "USPS", "collection_times": "Mo-Fr 17:15", "name": "USPS COLLECTION BOX - BLUE BOX", "note": "ON 12/24 AND 12/31, THIS BOX MAY BE COLLECTED AS EARLY AS 12 NOON.", "ref": "7874600065"}, "type": "Feature"}
{"geometry": {"coordinates": [-97.8049951, 30.277926], "type": "Point"}, "id": "9HxSr_S4_2GzMQU6nc2cySvBCxA=", "properties": {"@spider": "usps_collection_boxes", "addr:city": "WEST LAKE HILLS", "addr:country": "US", "addr:full": "3532 BEE CAVES RD", "addr:postcode": "78746", "addr:state": "TX", "brand": "USPS", "collection_times": "Mo-Fr 15:15; Sa 15:30", "name": "USPS COLLECTION BOX - BLUE BOX", "note": "ON 12/24 AND 12/31, THIS BOX MAY BE COLLECTED AS EARLY AS 12 NOON.", "ref": "7874600066"}, "type": "Feature"}
{"geometry": {"coordinates": [-97.7995944, 30.25342], "type": "Point"}, "id": "1-_TUrFmgvx4MdQpJXkoct4ULIw=", "properties": {"@spider": "usps_collection_boxes", "addr:city": "WEST LAKE HILLS", "addr:country": "US", "addr:full": "2600 VIA FORTUNA", "addr:postcode": "78746", "addr:state": "TX", "brand": "USPS", "collection_times": "Mo-Fr 15:30", "name": "USPS COLLECTION BOX - BLUE BOX", "note": "ON 12/24 AND 12/31, THIS BOX MAY BE COLLECTED AS EARLY AS 12 NOON.", "ref": "7874600067"}, "type": "Feature"}
{"geometry": {"coordinates": [-97.800831, 30.272085], "type": "Point"}, "id": "409E3CLNv_5xfL8nApL0NveyWC0=", "properties": {"@spider": "usps_collection_boxes", "addr:city": "WEST LAKE HILLS", "addr:country": "US", "addr:full": "3201 BEE CAVES RD STE 120", "addr:postcode": "78746", "addr:state": "TX", "brand": "USPS", "collection_times": "Mo-Fr 17:00; Sa 15:00", "name": "USPS COLLECTION BOX - APC", "note": "ON 12/24 AND 12/31, THIS BOX MAY BE COLLECTED AS EARLY AS 12 NOON.", "ref": "7874600071"}, "type": "Feature"}
{"geometry": {"coordinates": [-97.8244604, 30.295626], "type": "Point"}, "id": "I84mKC0JiyqzhBspWF4Za5WEtx4=", "properties": {"@spider": "usps_collection_boxes", "addr:city": "WEST LAKE HILLS", "addr:country": "US", "addr:full": "5656 BEE CAVES RD", "addr:postcode": "78746", "addr:state": "TX", "brand": "USPS", "collection_times": "Mo-Fr 15:15", "name": "USPS COLLECTION BOX - BLUE BOX", "note": "ON 12/24 AND 12/31, THIS BOX MAY BE COLLECTED AS EARLY AS 12 NOON.", "ref": "7874600072"}, "type": "Feature"}
{"geometry": {"coordinates": [-97.800831, 30.272085], "type": "Point"}, "id": "G1Yew_kdx-1abKcnzcJ2ECelyxc=", "properties": {"@spider": "usps_collection_boxes", "addr:city": "WEST LAKE HILLS", "addr:country": "US", "addr:full": "3201 BEE CAVES RD STE 120", "addr:postcode": "78746", "addr:state": "TX", "brand": "USPS", "collection_times": "Mo-Fr 17:00; Sa 15:00", "name": "USPS COLLECTION BOX - PO LOBBY", "note": "ON 12/24 AND 12/31, THIS BOX MAY BE COLLECTED AS EARLY AS 12 NOON.", "ref": "7874600080"}, "type": "Feature"}
{"geometry": {"coordinates": [-97.7943833404, 30.141034176], "type": "Point"}, "id": "wfZtaj3ChXsEMvh0x9KDLRnvjI4=", "properties": {"@spider": "usps_collection_boxes", "addr:city": "AUSTIN", "addr:country": "US", "addr:full": "10819 CROWN COLONY DR", "addr:postcode": "78747", "addr:state": "TX", "brand": "USPS", "collection_times": "Mo-Fr 14:15; Sa 15:45", "name": "USPS COLLECTION BOX - BLUE BOX", "note": "ON 12/24 AND 12/31, THIS BOX MAY BE COLLECTED AS EARLY AS 12 NOON.", "ref": "7874700001"}, "type": "Feature"}
{"geometry": {"coordinates": [-97.8252854, 30.17509], "type": "Point"}, "id": "6MKbjGZfHOnrJ4pxds0kcKe4mnA=", "properties": {"@spider": "usps_collection_boxes", "addr:city": "AUSTIN", "addr:country": "US", "addr:full": "2110 W SLAUGHTER LN", "addr:postcode": "78748", "addr:state": "TX", "brand": "USPS", "collection_times": "Mo-Fr 12:15; Sa 13:30", "name": "USPS COLLECTION BOX - BLUE BOX", "note": "ON 12/24 AND 12/31, THIS BOX MAY BE COLLECTED AS EARLY AS 12 NOON.", "ref": "7874800001"}, "type": "Feature"}
{"geometry": {"coordinates": [-97.8509340946, 30.2342236001], "type": "Point"}, "id": "qCaEiWMuhv4sM0bxuqStjwjalpM=", "properties": {"@spider": "usps_collection_boxes", "addr:city": "AUSTIN", "addr:country": "US", "addr:full": "6104 OLD FREDERICKSBURG RD", "addr:postcode": "78749", "addr:state": "TX", "brand": "USPS", "collection_times": "Mo-Sa 17:00", "name": "USPS COLLECTION BOX - BLUE BOX", "note": "ON 12/24 AND 12/31, THIS BOX MAY BE COLLECTED AS EARLY AS 12 NOON.", "ref": "7874900008"}, "type": "Feature"}
{"geometry": {"coordinates": [-97.8561895, 30.182797], "type": "Point"}, "id": "Y5xLm8cyP6JrWWBmhm_ejlsFbSI=", "properties": {"@spider": "usps_collection_boxes", "addr:city": "AUSTIN", "addr:country": "US", "addr:full": "3808 ASPEN CREEK PKWY", "addr:postcode": "78749", "addr:state": "TX", "brand": "USPS", "collection_times": "Mo-Sa 13:00", "name": "USPS COLLECTION BOX - BLUE BOX", "note": "ON 12/24 AND 12/31, THIS BOX MAY BE COLLECTED AS EARLY AS 12 NOON.", "ref": "7874900015"}, "type": "Feature"}
{"geometry": {"coordinates": [-97.851844, 30.234406], "type": "Point"}, "id": "BiZJD2Wlh_Wj1tjW911EUeCcLfg=", "properties": {"@spider": "usps_collection_boxes", "addr:city": "AUSTIN", "addr:country": "US", "addr:full": "6104 OLD FREDERICKSBURG RD", "addr:postcode": "78749", "addr:state": "TX", "brand": "USPS", "collection_times": "Mo-Sa 17:00", "name": "USPS COLLECTION BOX - PO LOBBY", "note": "ON 12/24 AND 12/31, THIS BOX MAY BE COLLECTED AS EARLY AS 12 NOON.", "ref": "7874900016"}, "type": "Feature"}
{"geometry": {"coordinates": [-97.8371299, 30.222359], "type": "Point"}, "id": "SVqrRf6pVAZQHQOXrCrInAtF1Fw=", "properties": {"@spider": "usps_collection_boxes", "addr:city": "AUSTIN", "addr:country": "US", "addr:full": "6600 S MO PAC EXPY", "addr:postcode": "78749", "addr:state": "TX", "brand": "USPS", "collection_times": "Mo-Fr 15:15; Sa 14:15", "name": "USPS COLLECTION BOX - BLUE BOX", "note": "ON 12/24 AND 12/31, THIS BOX MAY BE COLLECTED AS EARLY AS 12 NOON.", "ref": "7874900019"}, "type": "Feature"}
{"geometry": {"coordinates": [-97.851844, 30.234406], "type": "Point"}, "id": "NHnbhcy2MRrWtKyUF9Z5dq1XNV8=", "properties": {"@spider": "usps_collection_boxes", "addr:city": "AUSTIN", "addr:country": "US", "addr:full": "6104 OLD FREDERICKSBURG RD", "addr:postcode": "78749", "addr:state": "TX", "brand": "USPS", "collection_times": "Mo-Sa 17:00", "name": "USPS COLLECTION BOX - PO LOBBY", "note": "ON 12/24 AND 12/31, THIS BOX MAY BE COLLECTED AS EARLY AS 12 NOON.", "ref": "7874900020"}, "type": "Feature"}
{"geometry": {"coordinates": [-97.8298243, 30.229373], "type": "Point"}, "id": "VpR4vx6DwLY0aap0p-evsnATZeY=", "properties": {"@spider": "usps_collection_boxes", "addr:city": "AUSTIN", "addr:country": "US", "addr:full": "5700 S MO PAC EXPY", "addr:postcode": "78749", "addr:state": "TX", "brand": "USPS", "collection_times": "Mo-Fr 14:45", "name": "USPS COLLECTION BOX - BLUE BOX", "note": "ON 12/24 AND 12/31, THIS BOX MAY BE COLLECTED AS EARLY AS 12 NOON.", "ref": "7874900021"}, "type": "Feature"}
{"geometry": {"coordinates": [-97.851844, 30.234406], "type": "Point"}, "id": "3gRyndsCh16DWAsIcnEa99hCXmA=", "properties": {"@spider": "usps_collection_boxes", "addr:city": "AUSTIN", "addr:country": "US", "addr:full": "6104 OLD FREDERICKSBURG RD", "addr:postcode": "78749", "addr:state": "TX", "brand": "USPS", "collection_times": "Mo-Sa 17:00", "name": "USPS COLLECTION BOX - APC", "note": "ON 12/24 AND 12/31, THIS BOX MAY BE COLLECTED AS EARLY AS 12 NOON.", "ref": "7874900022"}, "type": "Feature"}
{"geometry": {"coordinates": [-97.850989771, 30.234231322], "type": "Point"}, "id": "sZ2alkKyh26ankwpp5uRvvtsI1g=", "properties": {"@spider": "usps_collection_boxes", "addr:city": "AUSTIN", "addr:country": "US", "addr:full": "6104 OLD FREDERICKSBURG RD", "addr:postcode": "78749", "addr:state": "TX", "brand": "USPS", "collection_times": "Mo-Fr 17:30; Sa 14:00", "name": "USPS COLLECTION BOX - PO LOBBY", "note": "ON 12/24 AND 12/31, THIS BOX MAY BE COLLECTED AS EARLY AS 12 NOON.", "ref": "7874900027"}, "type": "Feature"}
{"geometry": {"coordinates": [-97.7942749, 30.456622], "type": "Point"}, "id": "9lw6XEZN5TKSQ9zr1jolf9XQZ48=", "properties": {"@spider": "usps_collection_boxes", "addr:city": "AUSTIN", "addr:country": "US", "addr:full": "12501 HYMEADOW DR", "addr:postcode": "78750", "addr:state": "TX", "brand": "USPS", "collection_times": "Mo-Fr 15:15; Sa 12:45", "name": "USPS COLLECTION BOX - BLUE BOX", "note": "ON 12/24 AND 12/31, THIS BOX MAY BE COLLECTED AS EARLY AS 12 NOON.", "ref": "7875000006"}, "type": "Feature"}
{"geometry": {"coordinates": [-97.7893183178, 30.3752222972], "type": "Point"}, "id": "VZmXxBfxzJqBT8yGgLf1FtMCPFA=", "properties": {"@spider": "usps_collection_boxes", "addr:city": "AUSTIN", "addr:country": "US", "addr:full": "7314 LAKEWOOD DR", "addr:postcode": "78750", "addr:state": "TX", "brand": "USPS", "collection_times": "Mo-Fr 15:15; Sa 14:30", "name": "USPS COLLECTION BOX - BLUE BOX", "note": "ON 12/24 AND 12/31, THIS BOX MAY BE COLLECTED AS EARLY AS 12 NOON.", "ref": "7875000009"}, "type": "Feature"}
{"geometry": {"coordinates": [-97.7721657, 30.436493], "type": "Point"}, "id": "EliG0ICa6Y4folRuyxV46cmtKBg=", "properties": {"@spider": "usps_collection_boxes", "addr:city": "AUSTIN", "addr:country": "US", "addr:full": "12885 RESEARCH BLVD", "addr:postcode": "78750", "addr:state": "TX", "brand": "USPS", "collection_times": "Mo-Fr 14:00; Sa 12:30", "name": "USPS COLLECTION BOX - BLUE BOX", "note": "ON 12/24 AND 12/31, THIS BOX MAY BE COLLECTED AS EARLY AS 12 NOON.", "ref": "7875000010"}, "type": "Feature"}
{"geometry": {"coordinates": [-97.817264373, 30.461740548], "type": "Point"}, "id": "2jBcER4K92YcepeVKmOx2jMWswA=", "properties": {"@spider": "usps_collection_boxes", "addr:city": "AUSTIN", "addr:country": "US", "addr:full": "12129 RANCH ROAD 620 N", "addr:postcode": "78750", "addr:state": "TX", "brand": "USPS", "collection_times": "Mo-Fr 13:30; Sa 12:00", "name": "USPS COLLECTION BOX - BLUE BOX", "note": "ON 12/24 AND 12/31, THIS BOX MAY BE COLLECTED AS EARLY AS 12 NOON.", "ref": "7875000014"}, "type": "Feature"}
{"geometry": {"coordinates": [-97.7972069652, 30.4621829886], "type": "Point"}, "id": "kWWqky0gvO2ZdRI3fViE4STll_A=", "properties": {"@spider": "usps_collection_boxes", "addr:city": "AUSTIN", "addr:country": "US", "addr:full": "13776 N HIGHWAY 183", "addr:postcode": "78750", "addr:state": "TX", "brand": "USPS", "collection_times": "Mo-Fr 15:15; Sa 12:45", "name": "USPS COLLECTION BOX - BLUE BOX", "note": "ON 12/24 AND 12/31, THIS BOX MAY BE COLLECTED AS EARLY AS 12 NOON.", "ref": "7875000021"}, "type": "Feature"}
{"geometry": {"coordinates": [-97.7294793434, 30.307031695], "type": "Point"}, "id": "BC0zqR2K4l5Rh_5DhZoSnP4nCAo=", "properties": {"@spider": "usps_collection_boxes", "addr:city": "AUSTIN", "addr:country": "US", "addr:full": "4300 SPEEDWAY", "addr:postcode": "78751", "addr:state": "TX", "brand": "USPS", "collection_times": "Mo-Fr 17:00; Sa 16:45", "name": "USPS COLLECTION BOX - BLUE BOX", "note": "ON 12/24 AND 12/31, THIS BOX MAY BE COLLECTED AS EARLY AS 12 NOON.", "ref": "7875100057"}, "type": "Feature"}
{"geometry": {"coordinates": [-97.7254273, 30.323405], "type": "Point"}, "id": "vtncMpvucR-FXwNOwCcqlahtxoU=", "properties": {"@spider": "usps_collection_boxes", "addr:city": "AUSTIN", "addr:country": "US", "addr:full": "5555 N LAMAR BLVD", "addr:postcode": "78751", "addr:state": "TX", "brand": "USPS", "collection_times": "Mo-Fr 17:45; Sa 14:00", "name": "USPS COLLECTION BOX - BLUE BOX", "note": "ON 12/24 AND 12/31, THIS BOX MAY BE COLLECTED AS EARLY AS 12 NOON.", "ref": "7875100058"}, "type": "Feature"}
{"geometry": {"coordinates": [-97.7195791, 30.300021], "type": "Point"}, "id": "D3mJiRlfH2vZRdj2qHCfarUnVv4=", "properties": {"@spider": "usps_collection_boxes", "addr:city": "AUSTIN", "addr:country": "US", "addr:full": "1000 E 41ST ST", "addr:postcode": "78751", "addr:state": "TX", "brand": "USPS", "collection_times": "Mo-Fr 14:15; Sa 13:15", "name": "USPS COLLECTION BOX - BLUE BOX", "note": "ON 12/24 AND 12/31, THIS BOX MAY BE COLLECTED AS EARLY AS 12 NOON.", "ref": "7875100059"}, "type": "Feature"}
{"geometry": {"coordinates": [-97.729602525, 30.30682592], "type": "Point"}, "id": "UjdkaMhIrOi0kUi7EN6kB44EQZU=", "properties": {"@spider": "usps_collection_boxes", "addr:city": "AUSTIN", "addr:country": "US", "addr:full": "4300 SPEEDWAY", "addr:postcode": "78751", "addr:state": "TX", "brand": "USPS", "collection_times": "Mo-Fr 17:00; Sa 16:45", "name": "USPS COLLECTION BOX - BLUE BOX", "note": "ON 12/24 AND 12/31, THIS BOX MAY BE COLLECTED AS EARLY AS 12 NOON.", "ref": "7875100061"}, "type": "Feature"}
{"geometry": {"coordinates": [-97.7298495, 30.316366], "type": "Point"}, "id": "dReu7L3h-uUihxDGUIdH84YyTs0=", "properties": {"@spider": "usps_collection_boxes", "addr:city": "AUSTIN", "addr:country": "US", "addr:full": "701 W 51ST ST", "addr:postcode": "78751", "addr:state": "TX", "brand": "USPS", "collection_times": "Mo-Fr 12:45", "name": "USPS COLLECTION BOX - BLUE BOX", "note": "ON 12/24 AND 12/31, THIS BOX MAY BE COLLECTED AS EARLY AS 12 NOON.", "ref": "7875100062"}, "type": "Feature"}
{"geometry": {"coordinates": [-97.729607, 30.306837], "type": "Point"}, "id": "3xEMIbfyX9mNazGdVLkXlAFH8FU=", "properties": {"@spider": "usps_collection_boxes", "addr:city": "AUSTIN", "addr:country": "US", "addr:full": "4300 SPEEDWAY", "addr:postcode": "78751", "addr:state": "TX", "brand": "USPS", "collection_times": "Mo-Fr 17:00; Sa 16:45", "name": "USPS COLLECTION BOX - PO LOBBY", "note": "ON 12/24 AND 12/31, THIS BOX MAY BE COLLECTED AS EARLY AS 12 NOON.", "ref": "7875100063"}, "type": "Feature"}
{"geometry": {"coordinates": [-97.729607, 30.306837], "type": "Point"}, "id": "8xcBkUIvEL-XXgHWrR5eYQkmKkg=", "properties": {"@spider": "usps_collection_boxes", "addr:city": "AUSTIN", "addr:country": "US", "addr:full": "4300 SPEEDWAY", "addr:postcode": "78751", "addr:state": "TX", "brand": "USPS", "collection_times": "Mo-Fr 17:00; Sa 16:45", "name": "USPS COLLECTION BOX - PO LOBBY", "note": "ON 12/24 AND 12/31, THIS BOX MAY BE COLLECTED AS EARLY AS 12 NOON.", "ref": "7875100064"}, "type": "Feature"}
{"geometry": {"coordinates": [-97.729607, 30.306837], "type": "Point"}, "id": "iC7cA5dpOooEtSPI-8jbg9u8OGo=", "properties": {"@spider": "usps_collection_boxes", "addr:city": "AUSTIN", "addr:country": "US", "addr:full": "4300 SPEEDWAY", "addr:postcode": "78751", "addr:state": "TX", "brand": "USPS", "collection_times": "Mo-Fr 17:00; Sa 16:45", "name": "USPS COLLECTION BOX - APC", "note": "ON 12/24 AND 12/31, THIS BOX MAY BE COLLECTED AS EARLY AS 12 NOON.", "ref": "7875100065"}, "type": "Feature"}
{"geometry": {"coordinates": [-97.729479343, 30.307031695], "type": "Point"}, "id": "Vc5ZHCQk6JZqkWwnY_pFtp58CGk=", "properties": {"@spider": "usps_collection_boxes", "addr:city": "AUSTIN", "addr:country": "US", "addr:full": "4300 SPEEDWAY", "addr:postcode": "78751", "addr:state": "TX", "brand": "USPS", "collection_times": "Mo-Fr 17:00; Sa 13:00", "name": "USPS COLLECTION BOX - PO LOBBY", "note": "ON 12/24 AND 12/31, THIS BOX MAY BE COLLECTED AS EARLY AS 12 NOON.", "ref": "7875100066"}, "type": "Feature"}
{"geometry": {"coordinates": [-97.699806316, 30.333861595], "type": "Point"}, "id": "lP5HZdu_g3HHNWNwiT2ufCd340M=", "properties": {"@spider": "usps_collection_boxes", "addr:city": "AUSTIN", "addr:country": "US", "addr:full": "900 BLACKSON AVE", "addr:postcode": "78752", "addr:state": "TX", "brand": "USPS", "collection_times": "Mo-Fr 17:00; Sa 16:30", "name": "USPS COLLECTION BOX - BLUE BOX", "note": "ON 12/24 AND 12/31, THIS BOX MAY BE COLLECTED AS EARLY AS 12 NOON.", "ref": "7875200001"}, "type": "Feature"}
{"geometry": {"coordinates": [-97.7037067, 30.34065], "type": "Point"}, "id": "9OImYrsdc6e84nISG2ZwxQub0Qk=", "properties": {"@spider": "usps_collection_boxes", "addr:city": "AUSTIN", "addr:country": "US", "addr:full": "7690 CHEVY CHASE DR", "addr:postcode": "78752", "addr:state": "TX", "brand": "USPS", "collection_times": "Mo-Fr 17:45; Sa 15:45", "name": "USPS COLLECTION BOX - BLUE BOX", "note": "ON 12/24 AND 12/31, THIS BOX MAY BE COLLECTED AS EARLY AS 12 NOON.", "ref": "7875200004"}, "type": "Feature"}
{"geometry": {"coordinates": [-97.706920969, 30.344511325], "type": "Point"}, "id": "knUJKZEUbOEZjCNQtehpebBI7oE=", "properties": {"@spider": "usps_collection_boxes", "addr:city": "AUSTIN", "addr:country": "US", "addr:full": "223 W ANDERSON LN", "addr:postcode": "78752", "addr:state": "TX", "brand": "USPS", "collection_times": "Mo-Fr 17:40; Sa 15:45", "name": "USPS COLLECTION BOX - BLUE BOX", "note": "ON 12/24 AND 12/31, THIS BOX MAY BE COLLECTED AS EARLY AS 12 NOON.", "ref": "7875200005"}, "type": "Feature"}
{"geometry": {"coordinates": [-97.7085399, 30.330952], "type": "Point"}, "id": "zABcuoi3BZ3nAjzIdfJUH7kwYP8=", "properties": {"@spider": "usps_collection_boxes", "addr:city": "AUSTIN", "addr:country": "US", "addr:full": "505 E HUNTLAND DR", "addr:postcode": "78752", "addr:state": "TX", "brand": "USPS", "collection_times": "Mo-Fr 13:15; Sa 15:45", "name": "USPS COLLECTION BOX - BLUE BOX", "note": "ON 12/24 AND 12/31, THIS BOX MAY BE COLLECTED AS EARLY AS 12 NOON.", "ref": "7875200048"}, "type": "Feature"}
{"geometry": {"coordinates": [-97.7146266, 30.327165], "type": "Point"}, "id": "2PjbwRtad4IflFBHzeO1fiV-9DU=", "properties": {"@spider": "usps_collection_boxes", "addr:city": "AUSTIN", "addr:country": "US", "addr:full": "6001 AIRPORT BLVD", "addr:postcode": "78752", "addr:state": "TX", "brand": "USPS", "collection_times": "Mo-Fr 13:00", "name": "USPS COLLECTION BOX - BLUE BOX", "note": "ON 12/24 AND 12/31, THIS BOX MAY BE COLLECTED AS EARLY AS 12 NOON.", "ref": "7875200050"}, "type": "Feature"}
{"geometry": {"coordinates": [-97.7041321, 30.344485], "type": "Point"}, "id": "i0r9Q-WRFfpqfnhFV6Qrv_hbQck=", "properties": {"@spider": "usps_collection_boxes", "addr:city": "AUSTIN", "addr:country": "US", "addr:full": "100 E ANDERSON LN", "addr:postcode": "78752", "addr:state": "TX", "brand": "USPS", "collection_times": "Mo-Fr 17:30", "name": "USPS COLLECTION BOX - BLUE BOX", "note": "ON 12/24 AND 12/31, THIS BOX MAY BE COLLECTED AS EARLY AS 12 NOON.", "ref": "7875200063"}, "type": "Feature"}
{"geometry": {"coordinates": [-97.699759, 30.333836], "type": "Point"}, "id": "oeNqLECCiDBuDPvpTYf-URGQd7E=", "properties": {"@spider": "usps_collection_boxes", "addr:city": "AUSTIN", "addr:country": "US", "addr:full": "900 BLACKSON AVE", "addr:postcode": "78752", "addr:state": "TX", "brand": "USPS", "collection_times": "Mo-Fr 17:00; Sa 16:30", "name": "USPS COLLECTION BOX - PO LOBBY", "note": "ON 12/24 AND 12/31, THIS BOX MAY BE COLLECTED AS EARLY AS 12 NOON.", "ref": "7875200067"}, "type": "Feature"}
{"geometry": {"coordinates": [-97.699759, 30.333836], "type": "Point"}, "id": "TORn4-6SIaFv-uoVyJKjBbsV-Eg=", "properties": {"@spider": "usps_collection_boxes", "addr:city": "AUSTIN", "addr:country": "US", "addr:full": "900 BLACKSON AVE", "addr:postcode": "78752", "addr:state": "TX", "brand": "USPS", "collection_times": "Mo-Fr 17:00; Sa 16:30", "name": "USPS COLLECTION BOX - PO LOBBY", "note": "ON 12/24 AND 12/31, THIS BOX MAY BE COLLECTED AS EARLY AS 12 NOON.", "ref": "7875200068"}, "type": "Feature"}
{"geometry": {"coordinates": [-97.7207249, 30.329085], "type": "Point"}, "id": "T6xaWcbh9yfwmntpB0uSbXtpYOE=", "properties": {"@spider": "usps_collection_boxes", "addr:city": "AUSTIN", "addr:country": "US", "addr:full": "602 DENSON DR", "addr:postcode": "78752", "addr:state": "TX", "brand": "USPS", "collection_times": "Mo-Fr 13:00", "name": "USPS COLLECTION BOX - BLUE BOX", "note": "ON 12/24 AND 12/31, THIS BOX MAY BE COLLECTED AS EARLY AS 12 NOON.", "ref": "7875200070"}, "type": "Feature"}
{"geometry": {"coordinates": [-97.7137407317, 30.3452060313], "type": "Point"}, "id": "r4Eua8ZUvkg0M1XFHpvrpTChRpA=", "properties": {"@spider": "usps_collection_boxes", "addr:city": "AUSTIN", "addr:country": "US", "addr:full": "7701 N LAMAR BLVD", "addr:postcode": "78752", "addr:state": "TX", "brand": "USPS", "collection_times": "Mo-Fr 17:30; Sa 14:00", "name": "USPS COLLECTION BOX - BLUE BOX", "note": "ON 12/24 AND 12/31, THIS BOX MAY BE COLLECTED AS EARLY AS 12 NOON.", "ref": "7875200074"}, "type": "Feature"}
{"geometry": {"coordinates": [-97.699810816, 30.333861595], "type": "Point"}, "id": "PyGelImR8EPS5_F1T-_vHXSsK-c=", "properties": {"@spider": "usps_collection_boxes", "addr:city": "AUSTIN", "addr:country": "US", "addr:full": "900 BLACKSON AVE", "addr:postcode": "78752", "addr:state": "TX", "brand": "USPS", "collection_times": "Mo-Fr 17:00", "name": "USPS COLLECTION BOX - PO LOBBY", "note": "ON 12/24 AND 12/31, THIS BOX MAY BE COLLECTED AS EARLY AS 12 NOON.", "ref": "7875200076"}, "type": "Feature"}
{"geometry": {"coordinates": [-97.658248703, 30.3865700178], "type": "Point"}, "id": "eGgiiy91QmQ2gpLPawDbuHN9NrE=", "properties": {"@spider": "usps_collection_boxes", "addr:city": "AUSTIN", "addr:country": "US", "addr:full": "12120 SHROPSHIRE BLVD", "addr:postcode": "78753", "addr:state": "TX", "brand": "USPS", "collection_times": "Mo-Fr 13:30; Sa 13:00", "name": "USPS COLLECTION BOX - BLUE BOX", "note": "ON 12/24 AND 12/31, THIS BOX MAY BE COLLECTED AS EARLY AS 12 NOON.", "ref": "7875300010"}, "type": "Feature"}
{"geometry": {"coordinates": [-97.7091501197, 30.3508152235], "type": "Point"}, "id": "fsJKwloXHGh3yV12dz9EcSPvOx0=", "properties": {"@spider": "usps_collection_boxes", "addr:city": "AUSTIN", "addr:country": "US", "addr:full": "8204 N LAMAR BLVD", "addr:postcode": "78753", "addr:state": "TX", "brand": "USPS", "collection_times": "Mo-Fr 17:15; Sa 13:45", "name": "USPS COLLECTION BOX - BLUE BOX", "note": "ON 12/24 AND 12/31, THIS BOX MAY BE COLLECTED AS EARLY AS 12 NOON.", "ref": "7875300020"}, "type": "Feature"}
{"geometry": {"coordinates": [-97.6948291, 30.364854], "type": "Point"}, "id": "tMPPdDJM-fEbLYjNziN2Y68wADA=", "properties": {"@spider": "usps_collection_boxes", "addr:city": "AUSTIN", "addr:country": "US", "addr:full": "9515 N LAMAR BLVD", "addr:postcode": "78753", "addr:state": "TX", "brand": "USPS", "collection_times": "Mo-Fr 15:00; Sa 13:30", "name": "USPS COLLECTION BOX - BLUE BOX", "note": "ON 12/24 AND 12/31, THIS BOX MAY BE COLLECTED AS EARLY AS 12 NOON.", "ref": "7875300021"}, "type": "Feature"}
{"geometry": {"coordinates": [-97.6952731, 30.368018], "type": "Point"}, "id": "jezYiqP4oEwnII-EX6X1TSh9m20=", "properties": {"@spider": "usps_collection_boxes", "addr:city": "AUSTIN", "addr:country": "US", "addr:full": "9608 N LAMAR BLVD", "addr:postcode": "78753", "addr:state": "TX", "brand": "USPS", "collection_times": "Mo-Fr 15:00; Sa 13:30", "name": "USPS COLLECTION BOX - BLUE BOX", "note": "ON 12/24 AND 12/31, THIS BOX MAY BE COLLECTED AS EARLY AS 12 NOON.", "ref": "7875300025"}, "type": "Feature"}
{"geometry": {"coordinates": [-97.6901949, 30.338698], "type": "Point"}, "id": "GW32OBemqdQuR9h8ZUzoIRzPIHk=", "properties": {"@spider": "usps_collection_boxes", "addr:city": "AUSTIN", "addr:country": "US", "addr:full": "1030 NORWOOD PARK BLVD", "addr:postcode": "78753", "addr:state": "TX", "brand": "USPS", "collection_times": "Mo-Fr 14:00; Sa 13:00", "name": "USPS COLLECTION BOX - BLUE BOX", "note": "ON 12/24 AND 12/31, THIS BOX MAY BE COLLECTED AS EARLY AS 12 NOON.", "ref": "7875300032"}, "type": "Feature"}
{"geometry": {"coordinates": [-97.7109336, 30.348257], "type": "Point"}, "id": "BxKIhsw0G4vu4Ekwxyb2LIR8zDE=", "properties": {"@spider": "usps_collection_boxes", "addr:city": "AUSTIN", "addr:country": "US", "addr:full": "8071 N LAMAR BLVD", "addr:postcode": "78753", "addr:state": "TX", "brand": "USPS", "collection_times": "Mo-Fr 12:45; Sa 10:00", "name": "USPS COLLECTION BOX - BLUE BOX", "note": "ON 12/24 AND 12/31, THIS BOX MAY BE COLLECTED AS EARLY AS 12 NOON.", "ref": "7875300033"}, "type": "Feature"}
{"geometry": {"coordinates": [-97.6146074, 30.351032], "type": "Point"}, "id": "WjneBiyJ-pMk5sKSIoOcklT2vVA=", "properties": {"@spider": "usps_collection_boxes", "addr:city": "AUSTIN", "addr:country": "US", "addr:full": "11412 BIRCHOVER LN", "addr:postcode": "78754", "addr:state": "TX", "brand": "USPS", "collection_times": "Mo-Fr 11:00; Sa 12:45", "name": "USPS COLLECTION BOX - BLUE BOX", "note": "ON 12/24 AND 12/31, THIS BOX MAY BE COLLECTED AS EARLY AS 12 NOON.", "ref": "7875400005"}, "type": "Feature"}
{"geometry": {"coordinates": [-97.6139621, 30.355583], "type": "Point"}, "id": "tDS-DkzOour2P2PhRH-3ab-dJ64=", "properties": {"@spider": "usps_collection_boxes", "addr:city": "AUSTIN", "addr:country": "US", "addr:full": "11710 RYDALWATER LN", "addr:postcode": "78754", "addr:state": "TX", "brand": "USPS", "collection_times": "Mo-Fr 10:00; Sa 11:30", "name": "USPS COLLECTION BOX - BLUE BOX", "ref": "7875400006"}, "type": "Feature"}
{"geometry": {"coordinates": [-97.675519029, 30.338148451], "type": "Point"}, "id": "Ztpi1Dj_XUGgpdqAVC8q0DFyxsw=", "properties": {"@spider": "usps_collection_boxes", "addr:city": "AUSTIN", "addr:country": "US", "addr:full": "8407 WALL ST", "addr:postcode": "78754", "addr:state": "TX", "brand": "USPS", "collection_times": "Mo-Fr 18:00; Sa 16:15", "name": "USPS COLLECTION BOX - BLUE BOX", "note": "ON 12/24 AND 12/31, THIS BOX MAY BE COLLECTED AS EARLY AS 12 NOON.", "ref": "7875400014"}, "type": "Feature"}
{"geometry": {"coordinates": [-97.6827614, 30.336977], "type": "Point"}, "id": "_pBEQaET6FYod_w2F6Ssqj2UhKo=", "properties": {"@spider": "usps_collection_boxes", "addr:city": "AUSTIN", "addr:country": "US", "addr:full": "1501 RUTHERFORD LN", "addr:postcode": "78754", "addr:state": "TX", "brand": "USPS", "collection_times": "Mo-Fr 18:00; Sa 16:15", "name": "USPS COLLECTION BOX - BLUE BOX", "note": "ON 12/24 AND 12/31, THIS BOX MAY BE COLLECTED AS EARLY AS 12 NOON.", "ref": "7875400016"}, "type": "Feature"}
{"geometry": {"coordinates": [-97.7407349, 30.333885], "type": "Point"}, "id": "UrsMCUgLwYDxh4tXCtDth9yGbu4=", "properties": {"@spider": "usps_collection_boxes", "addr:city": "AUSTIN", "addr:country": "US", "addr:full": "5732 BURNET RD", "addr:postcode": "78756", "addr:state": "TX", "brand": "USPS", "collection_times": "Mo-Fr 15:15; Sa 14:30", "name": "USPS COLLECTION BOX - BLUE BOX", "note": "ON 12/24 AND 12/31, THIS BOX MAY BE COLLECTED AS EARLY AS 12 NOON.", "ref": "7875600002"}, "type": "Feature"}
{"geometry": {"coordinates": [-97.7397458, 30.311171], "type": "Point"}, "id": "rK-vIz5t5f8T61YuIqY809UJqGI=", "properties": {"@spider": "usps_collection_boxes", "addr:city": "AUSTIN", "addr:country": "US", "addr:full": "4200 N LAMAR BLVD", "addr:postcode": "78756", "addr:state": "TX", "brand": "USPS", "collection_times": "Mo-Fr 12:30; Sa 15:45", "name": "USPS COLLECTION BOX - BLUE BOX", "note": "ON 12/24 AND 12/31, THIS BOX MAY BE COLLECTED AS EARLY AS 12 NOON.", "ref": "7875600003"}, "type": "Feature"}
{"geometry": {"coordinates": [-97.7350245, 30.317519], "type": "Point"}, "id": "5h9a1GcQmOqRNIOg4qTdiiBvfOg=", "properties": {"@spider": "usps_collection_boxes", "addr:city": "AUSTIN", "addr:country": "US", "addr:full": "4801 SUNSHINE DR", "addr:postcode": "78756", "addr:state": "TX", "brand": "USPS", "collection_times": "Mo-Fr 12:00; Sa 15:45", "name": "USPS COLLECTION BOX - BLUE BOX", "note": "ON 12/24 AND 12/31, THIS BOX MAY BE COLLECTED AS EARLY AS 12 NOON.", "ref": "7875600004"}, "type": "Feature"}
{"geometry": {"coordinates": [-97.7437074, 30.306538], "type": "Point"}, "id": "zZTc3n4D5AhBegb7i8Bih7h59R4=", "properties": {"@spider": "usps_collection_boxes", "addr:city": "AUSTIN", "addr:country": "US", "addr:full": "3810 MEDICAL PKWY", "addr:postcode": "78756", "addr:state": "TX", "brand": "USPS", "collection_times": "Mo-Fr 12:15; Sa 16:00", "name": "USPS COLLECTION BOX - BLUE BOX", "note": "ON 12/24 AND 12/31, THIS BOX MAY BE COLLECTED AS EARLY AS 12 NOON.", "ref": "7875600005"}, "type": "Feature"}
{"geometry": {"coordinates": [-97.7425039, 30.311229], "type": "Point"}, "id": "941rm_LB4LFCC_6YUu3AZAwfZ7Q=", "properties": {"@spider": "usps_collection_boxes", "addr:city": "AUSTIN", "addr:country": "US", "addr:full": "4203 MEDICAL PKWY", "addr:postcode": "78756", "addr:state": "TX", "brand": "USPS", "collection_times": "Mo-Fr 12:30; Sa 15:45", "name": "USPS COLLECTION BOX - BLUE BOX", "note": "ON 12/24 AND 12/31, THIS BOX MAY BE COLLECTED AS EARLY AS 12 NOON.", "ref": "7875600007"}, "type": "Feature"}
{"geometry": {"coordinates": [-97.7326933, 30.325574], "type": "Point"}, "id": "cflWC6fbZERGqRLVIVNJn67JOHA=", "properties": {"@spider": "usps_collection_boxes", "addr:city": "AUSTIN", "addr:country": "US", "addr:full": "5506 GROVER AVE", "addr:postcode": "78756", "addr:state": "TX", "brand": "USPS", "collection_times": "Mo-Fr 12:45; Sa 15:15", "name": "USPS COLLECTION BOX - BLUE BOX", "note": "ON 12/24 AND 12/31, THIS BOX MAY BE COLLECTED AS EARLY AS 12 NOON.", "ref": "7875600009"}, "type": "Feature"}
{"geometry": {"coordinates": [-97.7417299, 30.327334], "type": "Point"}, "id": "3D9x5Dz08TEv_bVwsasl1O_lHa0=", "properties": {"@spider": "usps_collection_boxes", "addr:city": "AUSTIN", "addr:country": "US", "addr:full": "2202 W NORTH LOOP BLVD", "addr:postcode": "78756", "addr:state": "TX", "brand": "USPS", "collection_times": "Mo-Fr 12:30; Sa 15:30", "name": "USPS COLLECTION BOX - BLUE BOX", "note": "ON 12/24 AND 12/31, THIS BOX MAY BE COLLECTED AS EARLY AS 12 NOON.", "ref": "7875600012"}, "type": "Feature"}
{"geometry": {"coordinates": [-97.7401047, 30.325413], "type": "Point"}, "id": "nOMWDR4Iqr7giCIZ3xskkF53U78=", "properties": {"@spider": "usps_collection_boxes", "addr:city": "AUSTIN", "addr:country": "US", "addr:full": "5256B BURNET RD", "addr:postcode": "78756", "addr:state": "TX", "brand": "USPS", "collection_times": "Mo-Fr 15:30; Sa 15:45", "name": "USPS COLLECTION BOX - BLUE BOX", "note": "ON 12/24 AND 12/31, THIS BOX MAY BE COLLECTED AS EARLY AS 12 NOON.", "ref": "7875600016"}, "type": "Feature"}
{"geometry": {"coordinates": [-97.7349029, 30.319984], "type": "Point"}, "id": "OvVjJg5F0PKd-_ulRRc_u3B2bh4=", "properties": {"@spider": "usps_collection_boxes", "addr:city": "AUSTIN", "addr:country": "US", "addr:full": "1100 W 49TH ST", "addr:postcode": "78756", "addr:state": "TX", "brand": "USPS", "collection_times": "Mo-Fr 17:00", "name": "USPS COLLECTION BOX - BLUE BOX", "note": "ON 12/24 AND 12/31, THIS BOX MAY BE COLLECTED AS EARLY AS 12 NOON.", "ref": "7875600022"}, "type": "Feature"}
{"geometry": {"coordinates": [-97.7408523, 30.305211], "type": "Point"}, "id": "wushPRS8tw0SvXmkHQe7DSgXu9c=", "properties": {"@spider": "usps_collection_boxes", "addr:city": "AUSTIN", "addr:country": "US", "addr:full": "3801 N LAMAR BLVD", "addr:postcode": "78756", "addr:state": "TX", "brand": "USPS", "collection_times": "Mo-Fr 12:15; Sa 12:00", "name": "USPS COLLECTION BOX - BLUE BOX", "note": "ON 12/24 AND 12/31, THIS BOX MAY BE COLLECTED AS EARLY AS 12 NOON.", "ref": "7875600024"}, "type": "Feature"}
{"geometry": {"coordinates": [-97.7326871, 30.355748], "type": "Point"}, "id": "YO_L5UoCMn0EKaeU9Lnl-eXB2QM=", "properties": {"@spider": "usps_collection_boxes", "addr:city": "AUSTIN", "addr:country": "US", "addr:full": "2525 W ANDERSON LN", "addr:postcode": "78757", "addr:state": "TX", "brand": "USPS", "collection_times": "Mo-Fr 16:00; Sa 13:30", "name": "USPS COLLECTION BOX - BLUE BOX", "note": "ON 12/24 AND 12/31, THIS BOX MAY BE COLLECTED AS EARLY AS 12 NOON.", "ref": "7875700002"}, "type": "Feature"}
{"geometry": {"coordinates": [-97.7251054896, 30.3532885148], "type": "Point"}, "id": "PXl9GdOM3lTHVekliVOVaIvjqiU=", "properties": {"@spider": "usps_collection_boxes", "addr:city": "AUSTIN", "addr:country": "US", "addr:full": "1801 W ANDERSON LN", "addr:postcode": "78757", "addr:state": "TX", "brand": "USPS", "collection_times": "Mo-Fr 12:00; Sa 13:00", "name": "USPS COLLECTION BOX - BLUE BOX", "note": "ON 12/24 AND 12/31, THIS BOX MAY BE COLLECTED AS EARLY AS 12 NOON.", "ref": "7875700004"}, "type": "Feature"}
{"geometry": {"coordinates": [-97.7385153, 30.33973], "type": "Point"}, "id": "zJhhmskYaLgzTCKfB1QidmkSqB0=", "properties": {"@spider": "usps_collection_boxes", "addr:city": "AUSTIN", "addr:country": "US", "addr:full": "6431 BURNET LN", "addr:postcode": "78757", "addr:state": "TX", "brand": "USPS", "collection_times": "Mo-Fr 16:30; Sa 13:15", "name": "USPS COLLECTION BOX - BLUE BOX", "note": "ON 12/24 AND 12/31, THIS BOX MAY BE COLLECTED AS EARLY AS 12 NOON.", "ref": "7875700005"}, "type": "Feature"}
{"geometry": {"coordinates": [-97.7392676, 30.336101], "type": "Point"}, "id": "56cFTSgY_WlKe69EBBq7xkrle6c=", "properties": {"@spider": "usps_collection_boxes", "addr:city": "AUSTIN", "addr:country": "US", "addr:full": "6101 BURNET RD", "addr:postcode": "78757", "addr:state": "TX", "brand": "USPS", "collection_times": "Mo-Fr 16:00", "name": "USPS COLLECTION BOX - BLUE BOX", "note": "ON 12/24 AND 12/31, THIS BOX MAY BE COLLECTED AS EARLY AS 12 NOON.", "ref": "7875700006"}, "type": "Feature"}
{"geometry": {"coordinates": [-97.7258874, 30.34251], "type": "Point"}, "id": "57TlDpbHhYaITc47jrZ6Ev1PS1A=", "properties": {"@spider": "usps_collection_boxes", "addr:city": "AUSTIN", "addr:country": "US", "addr:full": "1406 W SAINT JOHNS AVE", "addr:postcode": "78757", "addr:state": "TX", "brand": "USPS", "collection_times": "Mo-Fr 12:00; Sa 13:00", "name": "USPS COLLECTION BOX - BLUE BOX", "note": "ON 12/24 AND 12/31, THIS BOX MAY BE COLLECTED AS EARLY AS 12 NOON.", "ref": "7875700010"}, "type": "Feature"}
{"geometry": {"coordinates": [-97.7409207147, 30.3508904233], "type": "Point"}, "id": "KZupRJ8-oin4Cf23QiQRAYYMsQE=", "properties": {"@spider": "usps_collection_boxes", "addr:city": "AUSTIN", "addr:country": "US", "addr:full": "2800 GREENLAWN PKWY", "addr:postcode": "78757", "addr:state": "TX", "brand": "USPS", "collection_times": "Mo-Fr 15:30; Sa 14:15", "name": "USPS COLLECTION BOX - BLUE BOX", "note": "ON 12/24 AND 12/31, THIS BOX MAY BE COLLECTED AS EARLY AS 12 NOON.", "ref": "7875700013"}, "type": "Feature"}
{"geometry": {"coordinates": [-97.7362876278, 30.3548475762], "type": "Point"}, "id": "-DczZWWnHctM9bv7WLbU-rD_66Q=", "properties": {"@spider": "usps_collection_boxes", "addr:city": "AUSTIN", "addr:country": "US", "addr:full": "7700 NORTHCROSS DR", "addr:postcode": "78757", "addr:state": "TX", "brand": "USPS", "collection_times": "Mo-Fr 17:00; Sa 15:15", "name": "USPS COLLECTION BOX - BLUE BOX", "note": "ON 12/24 AND 12/31, THIS BOX MAY BE COLLECTED AS EARLY AS 12 NOON.", "ref": "7875700016"}, "type": "Feature"}
{"geometry": {"coordinates": [-97.7374525217, 30.3610379501], "type": "Point"}, "id": "Ejwg0nE9VrchGRgMQfhzL732wLc=", "properties": {"@spider": "usps_collection_boxes", "addr:city": "AUSTIN", "addr:country": "US", "addr:full": "7920 ROCKWOOD LN", "addr:postcode": "78757", "addr:state": "TX", "brand": "USPS", "collection_times": "Mo-Fr 12:30; Sa 13:30", "name": "USPS COLLECTION BOX - BLUE BOX", "note": "ON 12/24 AND 12/31, THIS BOX MAY BE COLLECTED AS EARLY AS 12 NOON.", "ref": "7875700020"}, "type": "Feature"}
{"geometry": {"coordinates": [-97.7353441, 30.375117], "type": "Point"}, "id": "DjchXW_Uu_OHnOefVpEgRe-2e80=", "properties": {"@spider": "usps_collection_boxes", "addr:city": "AUSTIN", "addr:country": "US", "addr:full": "8800 SHOAL CREEK BLVD", "addr:postcode": "78757", "addr:state": "TX", "brand": "USPS", "collection_times": "Mo-Fr 15:30; Sa 13:45", "name": "USPS COLLECTION BOX - BLUE BOX", "note": "ON 12/24 AND 12/31, THIS BOX MAY BE COLLECTED AS EARLY AS 12 NOON.", "ref": "7875700024"}, "type": "Feature"}
{"geometry": {"coordinates": [-97.729551, 30.3345], "type": "Point"}, "id": "EF6SqhDesX86eG1c16zB-49sKkE=", "properties": {"@spider": "usps_collection_boxes", "addr:city": "AUSTIN", "addr:country": "US", "addr:full": "6301 WOODROW AVE", "addr:postcode": "78757", "addr:state": "TX", "brand": "USPS", "collection_times": "Mo-Fr 12:00; Sa 13:15", "name": "USPS COLLECTION BOX - BLUE BOX", "note": "ON 12/24 AND 12/31, THIS BOX MAY BE COLLECTED AS EARLY AS 12 NOON.", "ref": "7875700030"}, "type": "Feature"}
{"geometry": {"coordinates": [-97.742151, 30.359826], "type": "Point"}, "id": "ZHlXdXVvZ7iGprzLI6HFEAvEVFw=", "properties": {"@spider": "usps_collection_boxes", "addr:city": "AUSTIN", "addr:country": "US", "addr:full": "7800 SHOAL CREEK BLVD", "addr:postcode": "78757", "addr:state": "TX", "brand": "USPS", "collection_times": "Mo-Fr 15:30; Sa 14:15", "name": "USPS COLLECTION BOX - BLUE BOX", "note": "ON 12/24 AND 12/31, THIS BOX MAY BE COLLECTED AS EARLY AS 12 NOON.", "ref": "7875700032"}, "type": "Feature"}
{"geometry": {"coordinates": [-97.736231, 30.354649], "type": "Point"}, "id": "HgqREucU24Uv5EWnKVLg_pS9E_0=", "properties": {"@spider": "usps_collection_boxes", "addr:city": "AUSTIN", "addr:country": "US", "addr:full": "7700 NORTHCROSS DR", "addr:postcode": "78757", "addr:state": "TX", "brand": "USPS", "collection_times": "Mo-Fr 17:00; Sa 15:15", "name": "USPS COLLECTION BOX - PO LOBBY", "note": "ON 12/24 AND 12/31, THIS BOX MAY BE COLLECTED AS EARLY AS 12 NOON.", "ref": "7875700036"}, "type": "Feature"}
{"geometry": {"coordinates": [-97.736231, 30.354649], "type": "Point"}, "id": "bC-l9evx923HJNXVE5_OQZNjgDM=", "properties": {"@spider": "usps_collection_boxes", "addr:city": "AUSTIN", "addr:country": "US", "addr:full": "7700 NORTHCROSS DR", "addr:postcode": "78757", "addr:state": "TX", "brand": "USPS", "collection_times": "Mo-Fr 17:00; Sa 15:15", "name": "USPS COLLECTION BOX - PO LOBBY", "note": "ON 12/24 AND 12/31, THIS BOX MAY BE COLLECTED AS EARLY AS 12 NOON.", "ref": "7875700037"}, "type": "Feature"}
{"geometry": {"coordinates": [-97.7406393, 30.35084], "type": "Point"}, "id": "TXWdK-SE2N_s-n5C9nbge_bL3Cg=", "properties": {"@spider": "usps_collection_boxes", "addr:city": "AUSTIN", "addr:country": "US", "addr:full": "2800 GREENLAWN PKWY", "addr:postcode": "78757", "addr:state": "TX", "brand": "USPS", "collection_times": "Mo-Fr 15:30; Sa 14:15", "name": "USPS COLLECTION BOX - BLUE BOX", "note": "ON 12/24 AND 12/31, THIS BOX MAY BE COLLECTED AS EARLY AS 12 NOON.", "ref": "7875700039"}, "type": "Feature"}
{"geometry": {"coordinates": [-97.7528759038, 30.3350030364], "type": "Point"}, "id": "UmBTj4_r0qSlJVdEri0DjBsVfwA=", "properties": {"@spider": "usps_collection_boxes", "addr:city": "AUSTIN", "addr:country": "US", "addr:full": "3003 NORTHLAND DR", "addr:postcode": "78757", "addr:state": "TX", "brand": "USPS", "collection_times": "Mo-Fr 16:00; Sa 15:00", "name": "USPS COLLECTION BOX - BLUE BOX", "note": "ON 12/24 AND 12/31, THIS BOX MAY BE COLLECTED AS EARLY AS 12 NOON.", "ref": "7875700041"}, "type": "Feature"}
{"geometry": {"coordinates": [-97.736231, 30.354649], "type": "Point"}, "id": "_vTD3pAtNHgHwAgSdmzG-qcXgaY=", "properties": {"@spider": "usps_collection_boxes", "addr:city": "AUSTIN", "addr:country": "US", "addr:full": "7700 NORTHCROSS DR", "addr:postcode": "78757", "addr:state": "TX", "brand": "USPS", "collection_times": "Mo-Fr 17:00; Sa 15:15", "name": "USPS COLLECTION BOX - APC", "note": "ON 12/24 AND 12/31, THIS BOX MAY BE COLLECTED AS EARLY AS 12 NOON.", "ref": "7875700044"}, "type": "Feature"}
{"geometry": {"coordinates": [-97.736231005, 30.35464857], "type": "Point"}, "id": "RFPgrHBr4FPKb7a9-lFxgNbPxSo=", "properties": {"@spider": "usps_collection_boxes", "addr:city": "AUSTIN", "addr:country": "US", "addr:full": "7700 NORTHCROSS DR", "addr:postcode": "78757", "addr:state": "TX", "brand": "USPS", "collection_times": "Mo-Fr 17:00", "name": "USPS COLLECTION BOX - PO LOBBY", "note": "ON 12/24 AND 12/31, THIS BOX MAY BE COLLECTED AS EARLY AS 12 NOON.", "ref": "7875700048"}, "type": "Feature"}
{"geometry": {"coordinates": [-97.7062509474, 30.3675041054], "type": "Point"}, "id": "e_oA0idU-G6-tkQR8ISzinK3_Cs=", "properties": {"@spider": "usps_collection_boxes", "addr:city": "AUSTIN", "addr:country": "US", "addr:full": "9400 PARKFIELD DR", "addr:postcode": "78758", "addr:state": "TX", "brand": "USPS", "collection_times": "Mo-Fr 13:30", "name": "USPS COLLECTION BOX - BLUE BOX", "note": "ON 12/24 AND 12/31, THIS BOX MAY BE COLLECTED AS EARLY AS 12 NOON.", "ref": "7875800007"}, "type": "Feature"}
{"geometry": {"coordinates": [-97.7201461, 30.392693], "type": "Point"}, "id": "dHWe3Cdofz0KY2vISgSBfDuRLoU=", "properties": {"@spider": "usps_collection_boxes", "addr:city": "AUSTIN", "addr:country": "US", "addr:full": "2545 BROCKTON DR", "addr:postcode": "78758", "addr:state": "TX", "brand": "USPS", "collection_times": "Mo-Fr 12:00", "name": "USPS COLLECTION BOX - BLUE BOX", "ref": "7875800009"}, "type": "Feature"}
{"geometry": {"coordinates": [-97.7157585, 30.360969], "type": "Point"}, "id": "8ANaGTZOvj88XPEQ_w1KMhsPmlw=", "properties": {"@spider": "usps_collection_boxes", "addr:city": "AUSTIN", "addr:country": "US", "addr:full": "8557 RESEARCH BLVD", "addr:postcode": "78758", "addr:state": "TX", "brand": "USPS", "collection_times": "Mo-Fr 17:00; Sa 13:45", "name": "USPS COLLECTION BOX - BLUE BOX", "note": "ON 12/24 AND 12/31, THIS BOX MAY BE COLLECTED AS EARLY AS 12 NOON.", "ref": "7875800016"}, "type": "Feature"}
{"geometry": {"coordinates": [-97.7257438, 30.375023], "type": "Point"}, "id": "R_oxuIG0CXD2u8RBs-eAjg4Tu1M=", "properties": {"@spider": "usps_collection_boxes", "addr:city": "AUSTIN", "addr:country": "US", "addr:full": "9101 BURNET RD", "addr:postcode": "78758", "addr:state": "TX", "brand": "USPS", "collection_times": "Mo-Fr 15:15", "name": "USPS COLLECTION BOX - BLUE BOX", "note": "ON 12/24 AND 12/31, THIS BOX MAY BE COLLECTED AS EARLY AS 12 NOON.", "ref": "7875800021"}, "type": "Feature"}
{"geometry": {"coordinates": [-97.7259188, 30.391882], "type": "Point"}, "id": "e8pUiCLo3V6OMGxSa4WvQ7WiTLA=", "properties": {"@spider": "usps_collection_boxes", "addr:city": "AUSTIN", "addr:country": "US", "addr:full": "10100 BURNET RD", "addr:postcode": "78758", "addr:state": "TX", "brand": "USPS", "collection_times": "Mo-Fr 13:00", "name": "USPS COLLECTION BOX - BLUE BOX", "note": "ON 12/24 AND 12/31, THIS BOX MAY BE COLLECTED AS EARLY AS 12 NOON.", "ref": "7875800024"}, "type": "Feature"}
{"geometry": {"coordinates": [-97.70552, 30.391266], "type": "Point"}, "id": "So9HUKub6xDHg1Hpa7rNRbqyLNc=", "properties": {"@spider": "usps_collection_boxes", "addr:city": "AUSTIN", "addr:country": "US", "addr:full": "1822 W BRAKER LN", "addr:postcode": "78758", "addr:state": "TX", "brand": "USPS", "collection_times": "Mo-Sa 17:00", "name": "USPS COLLECTION BOX - BLUE BOX", "note": "ON 12/24 AND 12/31, THIS BOX MAY BE COLLECTED AS EARLY AS 12 NOON.", "ref": "7875800038"}, "type": "Feature"}
{"geometry": {"coordinates": [-97.70552, 30.391266], "type": "Point"}, "id": "NYxbWqc1LiIk2zpkS0DWIPcOFqQ=", "properties": {"@spider": "usps_collection_boxes", "addr:city": "AUSTIN", "addr:country": "US", "addr:full": "1822 W BRAKER LN", "addr:postcode": "78758", "addr:state": "TX", "brand": "USPS", "collection_times": "Mo-Sa 17:00", "name": "USPS COLLECTION BOX - BLUE BOX", "note": "ON 12/24 AND 12/31, THIS BOX MAY BE COLLECTED AS EARLY AS 12 NOON.", "ref": "7875800039"}, "type": "Feature"}
{"geometry": {"coordinates": [-97.70552, 30.391266], "type": "Point"}, "id": "XGTb4imRp5sTo0ABFtv1NVZNHbw=", "properties": {"@spider": "usps_collection_boxes", "addr:city": "AUSTIN", "addr:country": "US", "addr:full": "1822 W BRAKER LN", "addr:postcode": "78758", "addr:state": "TX", "brand": "USPS", "collection_times": "Mo-Sa 17:00", "name": "USPS COLLECTION BOX - PO LOBBY", "note": "ON 12/24 AND 12/31, THIS BOX MAY BE COLLECTED AS EARLY AS 12 NOON.", "ref": "7875800061"}, "type": "Feature"}
{"geometry": {"coordinates": [-97.707994, 30.412257], "type": "Point"}, "id": "9z2SiC7yu-Z7Y_irH9VQtpXLjl4=", "properties": {"@spider": "usps_collection_boxes", "addr:city": "AUSTIN", "addr:country": "US", "addr:full": "12221 N MOPAC EXPY", "addr:postcode": "78758", "addr:state": "TX", "brand": "USPS", "collection_times": "Mo-Fr 14:45", "name": "USPS COLLECTION BOX - BLUE BOX", "note": "ON 12/24 AND 12/31, THIS BOX MAY BE COLLECTED AS EARLY AS 12 NOON.", "ref": "7875800064"}, "type": "Feature"}
{"geometry": {"coordinates": [-97.70552, 30.391266], "type": "Point"}, "id": "IorTtKndNLEhOkd2rb6cMfS7xjI=", "properties": {"@spider": "usps_collection_boxes", "addr:city": "AUSTIN", "addr:country": "US", "addr:full": "1822 W BRAKER LN", "addr:postcode": "78758", "addr:state": "TX", "brand": "USPS", "collection_times": "Mo-Sa 17:00", "name": "USPS COLLECTION BOX - PO LOBBY", "note": "ON 12/24 AND 12/31, THIS BOX MAY BE COLLECTED AS EARLY AS 12 NOON.", "ref": "7875800071"}, "type": "Feature"}
{"geometry": {"coordinates": [-97.710913527, 30.388003449], "type": "Point"}, "id": "i3kghK5agl8Tn5TYkFOStg7QUBI=", "properties": {"@spider": "usps_collection_boxes", "addr:city": "AUSTIN", "addr:country": "US", "addr:full": "10806 METRIC BLVD", "addr:postcode": "78758", "addr:state": "TX", "brand": "USPS", "collection_times": "Mo-Fr 13:30", "name": "USPS COLLECTION BOX - BLUE BOX", "note": "ON 12/24 AND 12/31, THIS BOX MAY BE COLLECTED AS EARLY AS 12 NOON.", "ref": "7875800073"}, "type": "Feature"}
{"geometry": {"coordinates": [-97.70552, 30.391266], "type": "Point"}, "id": "sJ5CHr_Fu481M9GE96d-8MwwVXQ=", "properties": {"@spider": "usps_collection_boxes", "addr:city": "AUSTIN", "addr:country": "US", "addr:full": "1822 W BRAKER LN", "addr:postcode": "78758", "addr:state": "TX", "brand": "USPS", "collection_times": "Mo-Sa 17:00", "name": "USPS COLLECTION BOX - APC", "note": "ON 12/24 AND 12/31, THIS BOX MAY BE COLLECTED AS EARLY AS 12 NOON.", "ref": "7875800078"}, "type": "Feature"}
{"geometry": {"coordinates": [-97.70551991, 30.391258782], "type": "Point"}, "id": "JRnKgajgBscF3-oPaE-I0rX8a0A=", "properties": {"@spider": "usps_collection_boxes", "addr:city": "AUSTIN", "addr:country": "US", "addr:full": "1822 W BRAKER LN", "addr:postcode": "78758", "addr:state": "TX", "brand": "USPS", "collection_times": "Mo-Fr 17:00; Sa 13:00", "name": "USPS COLLECTION BOX - PO LOBBY", "note": "ON 12/24 AND 12/31, THIS BOX MAY BE COLLECTED AS EARLY AS 12 NOON.", "ref": "7875800083"}, "type": "Feature"}
{"geometry": {"coordinates": [-97.716602783, 30.360777809], "type": "Point"}, "id": "3sOUvQRAU7u2JvHQ3cBW_aPDNGc=", "properties": {"@spider": "usps_collection_boxes", "addr:city": "AUSTIN", "addr:country": "US", "addr:full": "8557 RESEARCH BLVD STE 123", "addr:postcode": "78758", "addr:state": "TX", "brand": "USPS", "collection_times": "Mo-Fr 16:00", "name": "USPS COLLECTION BOX - PO LOBBY", "note": "ON 12/24 AND 12/31, THIS BOX MAY BE COLLECTED AS EARLY AS 12 NOON.", "ref": "7875800084"}, "type": "Feature"}
{"geometry": {"coordinates": [-97.74225, 30.378258], "type": "Point"}, "id": "b45Y7taG7QB0fk7MIWzGOHgZ5sc=", "properties": {"@spider": "usps_collection_boxes", "addr:city": "AUSTIN", "addr:country": "US", "addr:full": "8820 BUSINESS PARK DR", "addr:postcode": "78759", "addr:state": "TX", "brand": "USPS", "collection_times": "Mo-Fr 17:15; Sa 15:00", "name": "USPS COLLECTION BOX - BLUE BOX", "note": "ON 12/24 AND 12/31, THIS BOX MAY BE COLLECTED AS EARLY AS 12 NOON.", "ref": "7875900001"}, "type": "Feature"}
{"geometry": {"coordinates": [-97.745712, 30.406744], "type": "Point"}, "id": "fewJriK0lPZ3OjXA3zuufhGlFDM=", "properties": {"@spider": "usps_collection_boxes", "addr:city": "AUSTIN", "addr:country": "US", "addr:full": "11150 RESEARCH BLVD", "addr:postcode": "78759", "addr:state": "TX", "brand": "USPS", "collection_times": "Mo-Fr 16:30; Sa 13:30", "name": "USPS COLLECTION BOX - BLUE BOX", "note": "ON 12/24 AND 12/31, THIS BOX MAY BE COLLECTED AS EARLY AS 12 NOON.", "ref": "7875900005"}, "type": "Feature"}
{"geometry": {"coordinates": [-97.7372370016, 30.3980609617], "type": "Point"}, "id": "i-P8CmhNphnhy8I8SeZxEZC0_-E=", "properties": {"@spider": "usps_collection_boxes", "addr:city": "AUSTIN", "addr:country": "US", "addr:full": "4030 W BRAKER LN", "addr:postcode": "78759", "addr:state": "TX", "brand": "USPS", "collection_times": "Mo-Fr 13:00", "name": "USPS COLLECTION BOX - BLUE BOX", "note": "ON 12/24 AND 12/31, THIS BOX MAY BE COLLECTED AS EARLY AS 12 NOON.", "ref": "7875900010"}, "type": "Feature"}
{"geometry": {"coordinates": [-97.7500515, 30.38762], "type": "Point"}, "id": "ZOg6H2_MpXSl0zHS5ry6355Ib8c=", "properties": {"@spider": "usps_collection_boxes", "addr:city": "AUSTIN", "addr:country": "US", "addr:full": "9101 WILDRIDGE DR", "addr:postcode": "78759", "addr:state": "TX", "brand": "USPS", "collection_times": "Mo-Fr 17:15; Sa 14:45", "name": "USPS COLLECTION BOX - BLUE BOX", "note": "ON 12/24 AND 12/31, THIS BOX MAY BE COLLECTED AS EARLY AS 12 NOON.", "ref": "7875900016"}, "type": "Feature"}
{"geometry": {"coordinates": [-97.7700014, 30.432861], "type": "Point"}, "id": "j8rkYpgpzuZYmtYoy3ecSOOFEbg=", "properties": {"@spider": "usps_collection_boxes", "addr:city": "AUSTIN", "addr:country": "US", "addr:full": "8650 SPICEWOOD SPRINGS RD", "addr:postcode": "78759", "addr:state": "TX", "brand": "USPS", "collection_times": "Mo-Fr 15:00; Sa 13:15", "name": "USPS COLLECTION BOX - BLUE BOX", "note": "ON 12/24 AND 12/31, THIS BOX MAY BE COLLECTED AS EARLY AS 12 NOON.", "ref": "7875900017"}, "type": "Feature"}
{"geometry": {"coordinates": [-97.7603617, 30.388907], "type": "Point"}, "id": "wJDxKjrhDYN6ZjO1v0RZt0wt_lY=", "properties": {"@spider": "usps_collection_boxes", "addr:city": "AUSTIN", "addr:country": "US", "addr:full": "8834 N CAPITAL OF TEXAS HWY", "addr:postcode": "78759", "addr:state": "TX", "brand": "USPS", "collection_times": "Mo-Fr 17:00", "name": "USPS COLLECTION BOX - BLUE BOX", "note": "ON 12/24 AND 12/31, THIS BOX MAY BE COLLECTED AS EARLY AS 12 NOON.", "ref": "7875900021"}, "type": "Feature"}
{"geometry": {"coordinates": [-97.7438519, 30.405512], "type": "Point"}, "id": "t1ZFjInjUfL1k34v9Z0qfzKj5SE=", "properties": {"@spider": "usps_collection_boxes", "addr:city": "AUSTIN", "addr:country": "US", "addr:full": "11111 RESEARCH BLVD", "addr:postcode": "78759", "addr:state": "TX", "brand": "USPS", "collection_times": "Mo-Fr 12:15", "name": "USPS COLLECTION BOX - BLUE BOX", "note": "ON 12/24 AND 12/31, THIS BOX MAY BE COLLECTED AS EARLY AS 12 NOON.", "ref": "7875900028"}, "type": "Feature"}
{"geometry": {"coordinates": [-97.7478811, 30.398795], "type": "Point"}, "id": "HTxjKgzacwysLkr51xjrp5dZa8I=", "properties": {"@spider": "usps_collection_boxes", "addr:city": "AUSTIN", "addr:country": "US", "addr:full": "10710 RESEARCH BLVD", "addr:postcode": "78759", "addr:state": "TX", "brand": "USPS", "collection_times": "Mo-Fr 16:45; Sa 13:45", "name": "USPS COLLECTION BOX - BLUE BOX", "note": "ON 12/24 AND 12/31, THIS BOX MAY BE COLLECTED AS EARLY AS 12 NOON.", "ref": "7875900029"}, "type": "Feature"}
{"geometry": {"coordinates": [-97.7437299, 30.413483], "type": "Point"}, "id": "rwcWJ2SZuR5bWfir_Erkx8yhu2w=", "properties": {"@spider": "usps_collection_boxes", "addr:city": "AUSTIN", "addr:country": "US", "addr:full": "11615 ANGUS RD", "addr:postcode": "78759", "addr:state": "TX", "brand": "USPS", "collection_times": "Mo-Fr 12:15; Sa 12:00", "name": "USPS COLLECTION BOX - BLUE BOX", "note": "ON 12/24 AND 12/31, THIS BOX MAY BE COLLECTED AS EARLY AS 12 NOON.", "ref": "7875900030"}, "type": "Feature"}
{"geometry": {"coordinates": [-97.7592263, 30.373837], "type": "Point"}, "id": "tSIOgdE8fYrS-eaHWSZKpSYr088=", "properties": {"@spider": "usps_collection_boxes", "addr:city": "AUSTIN", "addr:country": "US", "addr:full": "4501 SPICEWOOD SPRINGS RD", "addr:postcode": "78759", "addr:state": "TX", "brand": "USPS", "collection_times": "Mo-Fr 15:45; Sa 14:00", "name": "USPS COLLECTION BOX - BLUE BOX", "note": "ON 12/24 AND 12/31, THIS BOX MAY BE COLLECTED AS EARLY AS 12 NOON.", "ref": "7875900031"}, "type": "Feature"}
{"geometry": {"coordinates": [-97.7430713339, 30.3688087327], "type": "Point"}, "id": "85MOL2SUH01u2gGrF51h1L2PjSE=", "properties": {"@spider": "usps_collection_boxes", "addr:city": "AUSTIN", "addr:country": "US", "addr:full": "8200 N MOPAC EXPY", "addr:postcode": "78759", "addr:state": "TX", "brand": "USPS", "collection_times": "Mo-Fr 14:15; Sa 15:00", "name": "USPS COLLECTION BOX - BLUE BOX", "note": "ON 12/24 AND 12/31, THIS BOX MAY BE COLLECTED AS EARLY AS 12 NOON.", "ref": "7875900034"}, "type": "Feature"}
{"geometry": {"coordinates": [-97.756252544, 30.371228999], "type": "Point"}, "id": "ap1MjoeyCn8byi4xuBmyYpEJSMA=", "properties": {"@spider": "usps_collection_boxes", "addr:city": "AUSTIN", "addr:country": "US", "addr:full": "4210 SPICEWOOD SPRINGS RD", "addr:postcode": "78759", "addr:state": "TX", "brand": "USPS", "collection_times": "Mo-Fr 14:45; Sa 14:00", "name": "USPS COLLECTION BOX - BLUE BOX", "note": "ON 12/24 AND 12/31, THIS BOX MAY BE COLLECTED AS EARLY AS 12 NOON.", "ref": "7875900042"}, "type": "Feature"}
{"geometry": {"coordinates": [-97.7527152, 30.387202], "type": "Point"}, "id": "nxo1Cqv-Jc2QliQtefKiUD4Ag8A=", "properties": {"@spider": "usps_collection_boxes", "addr:city": "AUSTIN", "addr:country": "US", "addr:full": "9009 MOUNTAIN RIDGE DR", "addr:postcode": "78759", "addr:state": "TX", "brand": "USPS", "collection_times": "Mo-Fr 17:00", "name": "USPS COLLECTION BOX - BLUE BOX", "note": "ON 12/24 AND 12/31, THIS BOX MAY BE COLLECTED AS EARLY AS 12 NOON.", "ref": "7875900048"}, "type": "Feature"}
{"geometry": {"coordinates": [-97.747771594, 30.413082918], "type": "Point"}, "id": "fDpd9xxamY7ZodHg2HZmaVTJai0=", "properties": {"@spider": "usps_collection_boxes", "addr:city": "AUSTIN", "addr:country": "US", "addr:full": "11410 JOLLYVILLE RD", "addr:postcode": "78759", "addr:state": "TX", "brand": "USPS", "collection_times": "Mo-Fr 15:45; Sa 13:15", "name": "USPS COLLECTION BOX - BLUE BOX", "note": "ON 12/24 AND 12/31, THIS BOX MAY BE COLLECTED AS EARLY AS 12 NOON.", "ref": "7875900050"}, "type": "Feature"}
{"geometry": {"coordinates": [-97.7449284, 30.394813], "type": "Point"}, "id": "MF2mdzqNtnTIsi8HyU06gN6u3Rw=", "properties": {"@spider": "usps_collection_boxes", "addr:city": "AUSTIN", "addr:country": "US", "addr:full": "10225 RESEARCH BLVD", "addr:postcode": "78759", "addr:state": "TX", "brand": "USPS", "collection_times": "Mo-Sa 12:00", "name": "USPS COLLECTION BOX - BLUE BOX", "ref": "7875900053"}, "type": "Feature"}
{"geometry": {"coordinates": [-97.757328, 30.424734], "type": "Point"}, "id": "QBNoyiENgCh1kXwDg903wzCaG24=", "properties": {"@spider": "usps_collection_boxes", "addr:city": "AUSTIN", "addr:country": "US", "addr:full": "11900 JOLLYVILLE RD", "addr:postcode": "78759", "addr:state": "TX", "brand": "USPS", "collection_times": "Mo-Fr 17:00; Sa 15:00", "name": "USPS COLLECTION BOX - PO LOBBY", "note": "ON 12/24 AND 12/31, THIS BOX MAY BE COLLECTED AS EARLY AS 12 NOON.", "ref": "7875900057"}, "type": "Feature"}
{"geometry": {"coordinates": [-97.757328, 30.424734], "type": "Point"}, "id": "hFXR4X0-elfhRHwWq0BrS2kRJCw=", "properties": {"@spider": "usps_collection_boxes", "addr:city": "AUSTIN", "addr:country": "US", "addr:full": "11900 JOLLYVILLE RD", "addr:postcode": "78759", "addr:state": "TX", "brand": "USPS", "collection_times": "Mo-Fr 17:00; Sa 15:00", "name": "USPS COLLECTION BOX - PO LOBBY", "note": "ON 12/24 AND 12/31, THIS BOX MAY BE COLLECTED AS EARLY AS 12 NOON.", "ref": "7875900058"}, "type": "Feature"}
{"geometry": {"coordinates": [-97.752227, 30.395121], "type": "Point"}, "id": "UEs6QAajDVBKBanylbOp7kHkx00=", "properties": {"@spider": "usps_collection_boxes", "addr:city": "AUSTIN", "addr:country": "US", "addr:full": "9722 GREAT HILLS TRL", "addr:postcode": "78759", "addr:state": "TX", "brand": "USPS", "collection_times": "Mo-Fr 16:45; Sa 13:45", "name": "USPS COLLECTION BOX - BLUE BOX", "note": "ON 12/24 AND 12/31, THIS BOX MAY BE COLLECTED AS EARLY AS 12 NOON.", "ref": "7875900059"}, "type": "Feature"}
{"geometry": {"coordinates": [-97.7501211, 30.365603], "type": "Point"}, "id": "Vs930aZC6XsPIsPxGjnUYGVvaFE=", "properties": {"@spider": "usps_collection_boxes", "addr:city": "AUSTIN", "addr:country": "US", "addr:full": "3901B SPICEWOOD SPRINGS RD", "addr:postcode": "78759", "addr:state": "TX", "brand": "USPS", "collection_times": "Mo-Fr 14:15; Sa 15:00", "name": "USPS COLLECTION BOX - BLUE BOX", "note": "ON 12/24 AND 12/31, THIS BOX MAY BE COLLECTED AS EARLY AS 12 NOON.", "ref": "7875900060"}, "type": "Feature"}
{"geometry": {"coordinates": [-97.7305819829, 30.3971809942], "type": "Point"}, "id": "KnVtXhl-s0IMTWOEDfd1TEwPZdE=", "properties": {"@spider": "usps_collection_boxes", "addr:city": "AUSTIN", "addr:country": "US", "addr:full": "10801 N MO PAC EXPY FL 3", "addr:postcode": "78759", "addr:state": "TX", "brand": "USPS", "collection_times": "Mo-Fr 17:15", "name": "USPS COLLECTION BOX - BLUE BOX", "note": "ON 12/24 AND 12/31, THIS BOX MAY BE COLLECTED AS EARLY AS 12 NOON.", "ref": "7875900064"}, "type": "Feature"}
{"geometry": {"coordinates": [-97.757328, 30.424734], "type": "Point"}, "id": "BjHYFx4E-7y-qmUnfP59urMlkrg=", "properties": {"@spider": "usps_collection_boxes", "addr:city": "AUSTIN", "addr:country": "US", "addr:full": "11900 JOLLYVILLE RD", "addr:postcode": "78759", "addr:state": "TX", "brand": "USPS", "collection_times": "Mo-Fr 17:00; Sa 15:00", "name": "USPS COLLECTION BOX - APC", "note": "ON 12/24 AND 12/31, THIS BOX MAY BE COLLECTED AS EARLY AS 12 NOON.", "ref": "7875900065"}, "type": "Feature"}
{"geometry": {"coordinates": [-97.7528918, 30.392949], "type": "Point"}, "id": "RGc21bKyAF-liqXa_Jbv1hmuxww=", "properties": {"@spider": "usps_collection_boxes", "addr:city": "AUSTIN", "addr:country": "US", "addr:full": "9737 GREAT HILLS TRL", "addr:postcode": "78759", "addr:state": "TX", "brand": "USPS", "collection_times": "Mo-Fr 16:45", "name": "USPS COLLECTION BOX - BLUE BOX", "note": "ON 12/24 AND 12/31, THIS BOX MAY BE COLLECTED AS EARLY AS 12 NOON.", "ref": "7875900066"}, "type": "Feature"}
{"geometry": {"coordinates": [-97.757328, 30.424734], "type": "Point"}, "id": "392NRVgXDpo2En2drV-FIDaSPwY=", "properties": {"@spider": "usps_collection_boxes", "addr:city": "AUSTIN", "addr:country": "US", "addr:full": "11900 JOLLYVILLE RD", "addr:postcode": "78759", "addr:state": "TX", "brand": "USPS", "collection_times": "Mo-Fr 17:00; Sa 15:00", "name": "USPS COLLECTION BOX - APC", "note": "ON 12/24 AND 12/31, THIS BOX MAY BE COLLECTED AS EARLY AS 12 NOON.", "ref": "7875900067"}, "type": "Feature"}
{"geometry": {"coordinates": [-97.743473643, 30.385207865], "type": "Point"}, "id": "NSjfoV_MP6gYkHOJZ81UmkokD-4=", "properties": {"@spider": "usps_collection_boxes", "addr:city": "AUSTIN", "addr:country": "US", "addr:full": "9430 RESEARCH BLVD", "addr:postcode": "78759", "addr:state": "TX", "brand": "USPS", "collection_times": "Mo-Fr 17:30", "name": "USPS COLLECTION BOX - BLUE BOX", "note": "ON 12/24 AND 12/31, THIS BOX MAY BE COLLECTED AS EARLY AS 12 NOON.", "ref": "7875900069"}, "type": "Feature"}
{"geometry": {"coordinates": [-97.757276092, 30.424651567], "type": "Point"}, "id": "xqXouO6tIRR-4QjRmWtj8EQoOPw=", "properties": {"@spider": "usps_collection_boxes", "addr:city": "AUSTIN", "addr:country": "US", "addr:full": "11900 JOLLYVILLE RD", "addr:postcode": "78759", "addr:state": "TX", "brand": "USPS", "collection_times": "Mo-Fr 17:30; Sa 14:30", "name": "USPS COLLECTION BOX - PO LOBBY", "note": "ON 12/24 AND 12/31, THIS BOX MAY BE COLLECTED AS EARLY AS 12 NOON.", "ref": "7875900076"}, "type": "Feature"}
