{"geometry": {"coordinates": [-99.7864739, 29.210498], "type": "Point"}, "id": "krdwphdCQb-jFaOoEj3M6ilrrVk=", "properties": {"@spider": "usps_collection_boxes", "addr:city": "UVALDE", "addr:country": "US", "addr:full": "102 N GETTY ST", "addr:postcode": "78801", "addr:state": "TX", "brand": "USPS", "collection_times": "Mo-Fr 15:45; Sa 14:45", "name": "USPS COLLECTION BOX - BLUE BOX", "note": "ON 12/24 AND 12/31, THIS BOX MAY BE COLLECTED AS EARLY AS 12 NOON.", "ref": "7880100025"}, "type": "Feature"}
{"geometry": {"coordinates": [-99.7682574, 29.214461], "type": "Point"}, "id": "igKfwGbxUKrtedLGQIJg7SykkaY=", "properties": {"@spider": "usps_collection_boxes", "addr:city": "UVALDE", "addr:country": "US", "addr:full": "1025 GARNER FIELD RD", "addr:postcode": "78801", "addr:state": "TX", "brand": "USPS", "collection_times": "Mo-Fr 16:00; Sa 15:00", "name": "USPS COLLECTION BOX - BLUE BOX", "note": "ON 12/24 AND 12/31, THIS BOX MAY BE COLLECTED AS EARLY AS 12 NOON.", "ref": "7880100026"}, "type": "Feature"}
{"geometry": {"coordinates": [-99.7835963, 29.21238], "type": "Point"}, "id": "tj8TtWjnVDOJGr3wKoW3NNZZMQ4=", "properties": {"@spider": "usps_collection_boxes", "addr:city": "UVALDE", "addr:country": "US", "addr:full": "200 E NOPAL ST", "addr:postcode": "78801", "addr:state": "TX", "brand": "USPS", "collection_times": "Mo-Fr 16:00; Sa 15:00", "name": "USPS COLLECTION BOX - BLUE BOX", "note": "ON 12/24 AND 12/31, THIS BOX MAY BE COLLECTED AS EARLY AS 12 NOON.", "ref": "7880100028"}, "type": "Feature"}
{"geometry": {"coordinates": [-99.7833720318, 29.2104894624], "type": "Point"}, "id": "2lt3zBhGMLeONz6H3DXaMtKHrjc=", "properties": {"@spider": "usps_collection_boxes", "addr:city": "UVALDE", "addr:country": "US", "addr:full": "220 E MAIN ST", "addr:postcode": "78801", "addr:state": "TX", "brand": "USPS", "collection_times": "Mo-Fr 16:00; Sa 15:00", "name": "USPS COLLECTION BOX - BLUE BOX", "note": "ON 12/24 AND 12/31, THIS BOX MAY BE COLLECTED AS EARLY AS 12 NOON.", "ref": "7880100029"}, "type": "Feature"}
{"geometry": {"coordinates": [-99.7674191, 29.215636], "type": "Point"}, "id": "CHy8aZUApwNmHxNKwvmQqQTC7SQ=", "properties": {"@spider": "usps_collection_boxes", "addr:city": "UVALDE", "addr:country": "US", "addr:full": "1042 GARNER FIELD RD", "addr:postcode": "78801", "addr:state": "TX", "brand": "USPS", "collection_times": "Mo-Fr 16:15; Sa 15:00", "name": "USPS COLLECTION BOX - BLUE BOX", "note": "ON 12/24 AND 12/31, THIS BOX MAY BE COLLECTED AS EARLY AS 12 NOON.", "ref": "7880100030"}, "type": "Feature"}
{"geometry": {"coordinates": [-99.7733766, 29.21329], "type": "Point"}, "id": "I6ODPsQaCey-Mw4c1O5MSDwbPS8=", "properties": {"@spider": "usps_collection_boxes", "addr:city": "UVALDE", "addr:country": "US", "addr:full": "727 E MAIN ST", "addr:postcode": "78801", "addr:state": "TX", "brand": "USPS", "collection_times": "Mo-Fr 16:00; Sa 15:00", "name": "USPS COLLECTION BOX - BLUE BOX", "note": "ON 12/24 AND 12/31, THIS BOX MAY BE COLLECTED AS EARLY AS 12 NOON.", "ref": "7880100036"}, "type": "Feature"}
{"geometry": {"coordinates": [-99.7530742, 29.217942], "type": "Point"}, "id": "r5uGPsKnJDPlCFQaWbi42Trbq9I=", "properties": {"@spider": "usps_collection_boxes", "addr:city": "UVALDE", "addr:country": "US", "addr:full": "1901 GARNER FIELD RD", "addr:postcode": "78801", "addr:state": "TX", "brand": "USPS", "collection_times": "Mo-Fr 16:00; Sa 15:00", "name": "USPS COLLECTION BOX - BLUE BOX", "note": "ON 12/24 AND 12/31, THIS BOX MAY BE COLLECTED AS EARLY AS 12 NOON.", "ref": "7880100038"}, "type": "Feature"}
{"geometry": {"coordinates": [-99.7490356, 29.219078], "type": "Point"}, "id": "kG1ZA9K9rggPwSJXKQLPzpVb9Xc=", "properties": {"@spider": "usps_collection_boxes", "addr:city": "UVALDE", "addr:country": "US", "addr:full": "2108 GARNER FIELD RD", "addr:postcode": "78801", "addr:state": "TX", "brand": "USPS", "collection_times": "Mo-Fr 16:15; Sa 15:00", "name": "USPS COLLECTION BOX - BLUE BOX", "note": "ON 12/24 AND 12/31, THIS BOX MAY BE COLLECTED AS EARLY AS 12 NOON.", "ref": "7880100044"}, "type": "Feature"}
{"geometry": {"coordinates": [-99.786019, 29.209219], "type": "Point"}, "id": "T0JbD4-4gK8IXudHAbWRpNwAvOo=", "properties": {"@spider": "usps_collection_boxes", "addr:city": "UVALDE", "addr:country": "US", "addr:full": "103 S GETTY ST", "addr:postcode": "78801", "addr:state": "TX", "brand": "USPS", "collection_times": "Mo-Fr 17:30; Sa 16:45", "name": "USPS COLLECTION BOX - BLUE BOX", "note": "ON 12/24 AND 12/31, THIS BOX MAY BE COLLECTED AS EARLY AS 12 NOON.", "ref": "7880100045"}, "type": "Feature"}
{"geometry": {"coordinates": [-99.786019, 29.209219], "type": "Point"}, "id": "NaE2aujN8r9N83ThV9SGaYTS5SQ=", "properties": {"@spider": "usps_collection_boxes", "addr:city": "UVALDE", "addr:country": "US", "addr:full": "103 S GETTY ST", "addr:postcode": "78801", "addr:state": "TX", "brand": "USPS", "collection_times": "Mo-Fr 17:30; Sa 16:45", "name": "USPS COLLECTION BOX - BLUE BOX", "note": "ON 12/24 AND 12/31, THIS BOX MAY BE COLLECTED AS EARLY AS 12 NOON.", "ref": "7880100046"}, "type": "Feature"}
{"geometry": {"coordinates": [-99.786019, 29.209219], "type": "Point"}, "id": "skWTYAK9wfU4qV9vpENAPvxIQPo=", "properties": {"@spider": "usps_collection_boxes", "addr:city": "UVALDE", "addr:country": "US", "addr:full": "103 S GETTY ST", "addr:postcode": "78801", "addr:state": "TX", "brand": "USPS", "collection_times": "Mo-Fr 17:30; Sa 15:30", "name": "USPS COLLECTION BOX - PO LOBBY", "note": "ON 12/24 AND 12/31, THIS BOX MAY BE COLLECTED AS EARLY AS 12 NOON.", "ref": "7880100048"}, "type": "Feature"}
{"geometry": {"coordinates": [-99.786019, 29.209219], "type": "Point"}, "id": "smjDKYR__Iy-vvF_8bHlTsMupfg=", "properties": {"@spider": "usps_collection_boxes", "addr:city": "UVALDE", "addr:country": "US", "addr:full": "103 S GETTY ST", "addr:postcode": "78801", "addr:state": "TX", "brand": "USPS", "collection_times": "Mo-Fr 17:30; Sa 15:30", "name": "USPS COLLECTION BOX - PO LOBBY", "note": "ON 12/24 AND 12/31, THIS BOX MAY BE COLLECTED AS EARLY AS 12 NOON.", "ref": "7880100049"}, "type": "Feature"}
{"geometry": {"coordinates": [-99.786011974, 29.209204269], "type": "Point"}, "id": "hvBgJTBjYrVwd5E9HmdCTReKck8=", "properties": {"@spider": "usps_collection_boxes", "addr:city": "UVALDE", "addr:country": "US", "addr:full": "103 S GETTY ST", "addr:postcode": "78801", "addr:state": "TX", "brand": "USPS", "collection_times": "Mo-Fr 16:30; Sa 11:30", "name": "USPS COLLECTION BOX - PO LOBBY", "note": "ON 12/24 AND 12/31, THIS BOX MAY BE COLLECTED AS EARLY AS 12 NOON.", "ref": "7880100051"}, "type": "Feature"}
{"geometry": {"coordinates": [-99.76423, 28.439581], "type": "Point"}, "id": "eHTTosrvK8v05bUU7nJT_2M47JU=", "properties": {"@spider": "usps_collection_boxes", "addr:city": "ASHERTON", "addr:country": "US", "addr:full": "572 W CARTER ST", "addr:postcode": "78827", "addr:state": "TX", "brand": "USPS", "collection_times": "Mo-Fr 14:30; Sa 10:00", "name": "USPS COLLECTION BOX - BLUE BOX", "note": "ON 12/24 AND 12/31, THIS BOX MAY BE COLLECTED AS EARLY AS 12 NOON.", "ref": "7882700001"}, "type": "Feature"}
{"geometry": {"coordinates": [-99.76423, 28.439581], "type": "Point"}, "id": "jeAzH1C4fLuti_cGoI7q-yD6woE=", "properties": {"@spider": "usps_collection_boxes", "addr:city": "ASHERTON", "addr:country": "US", "addr:full": "572 W CARTER ST", "addr:postcode": "78827", "addr:state": "TX", "brand": "USPS", "collection_times": "Mo-Fr 14:30; Sa 10:00", "name": "USPS COLLECTION BOX - PO LOBBY", "note": "ON 12/24 AND 12/31, THIS BOX MAY BE COLLECTED AS EARLY AS 12 NOON.", "ref": "7882700003"}, "type": "Feature"}
{"geometry": {"coordinates": [-99.764266779, 28.439600771], "type": "Point"}, "id": "pAzjJPy7KBjllhsOJxns8P15XVQ=", "properties": {"@spider": "usps_collection_boxes", "addr:city": "ASHERTON", "addr:country": "US", "addr:full": "572 W CARTER ST", "addr:postcode": "78827", "addr:state": "TX", "brand": "USPS", "collection_times": "Mo-Fr 14:30; Sa 10:00", "name": "USPS COLLECTION BOX - PO LOBBY", "note": "ON 12/24 AND 12/31, THIS BOX MAY BE COLLECTED AS EARLY AS 12 NOON.", "ref": "7882700004"}, "type": "Feature"}
{"geometry": {"coordinates": [-100.035796, 29.727141], "type": "Point"}, "id": "CqL_JMC-lXkfXKZ-glUw1GqGr_E=", "properties": {"@spider": "usps_collection_boxes", "addr:city": "BARKSDALE", "addr:country": "US", "addr:full": "25594 S HIGHWAY 55", "addr:postcode": "78828", "addr:state": "TX", "brand": "USPS", "collection_times": "Mo-Fr 11:45; Sa 11:00", "name": "USPS COLLECTION BOX - BLUE BOX", "ref": "7882800001"}, "type": "Feature"}
{"geometry": {"coordinates": [-100.035659, 29.727179], "type": "Point"}, "id": "tEHYFtn95sJglIYGYm8E8fYLqBo=", "properties": {"@spider": "usps_collection_boxes", "addr:city": "BARKSDALE", "addr:country": "US", "addr:full": "25594 S HIGHWAY 55", "addr:postcode": "78828", "addr:state": "TX", "brand": "USPS", "collection_times": "Mo-Fr 11:45; Sa 11:00", "name": "USPS COLLECTION BOX - PO LOBBY", "ref": "7882800002"}, "type": "Feature"}
{"geometry": {"coordinates": [-100.035679781, 29.727135583], "type": "Point"}, "id": "egZHPeBbmR3iB9b5G9q46eafPjE=", "properties": {"@spider": "usps_collection_boxes", "addr:city": "BARKSDALE", "addr:country": "US", "addr:full": "25594 S HIGHWAY 55", "addr:postcode": "78828", "addr:state": "TX", "brand": "USPS", "collection_times": "Mo-Fr 12:00; Sa 10:30", "name": "USPS COLLECTION BOX - PO LOBBY", "ref": "7882800003"}, "type": "Feature"}
{"geometry": {"coordinates": [-99.614403414, 28.9558805385], "type": "Point"}, "id": "G8C5M0gO7pwqZdsoBGYFVhGWEDA=", "properties": {"@spider": "usps_collection_boxes", "addr:city": "BATESVILLE", "addr:country": "US", "addr:full": "1 NOPAL ALY", "addr:postcode": "78829", "addr:state": "TX", "brand": "USPS", "collection_times": "Mo-Fr 15:15; Sa 11:30", "name": "USPS COLLECTION BOX - BLUE BOX", "note": "ON 12/24 AND 12/31, THIS BOX MAY BE COLLECTED AS EARLY AS 12 NOON.", "ref": "7882900001"}, "type": "Feature"}
{"geometry": {"coordinates": [-99.608139973, 28.9328417266], "type": "Point"}, "id": "iEbOjfRycuZVGRqxuZ7paUSxyk0=", "properties": {"@spider": "usps_collection_boxes", "addr:city": "BATESVILLE", "addr:country": "US", "addr:full": "1 NOPAL ALY", "addr:postcode": "78829", "addr:state": "TX", "brand": "USPS", "collection_times": "Mo-Fr 15:15; Sa 11:30", "name": "USPS COLLECTION BOX - PO LOBBY", "note": "ON 12/24 AND 12/31, THIS BOX MAY BE COLLECTED AS EARLY AS 12 NOON.", "ref": "7882900003"}, "type": "Feature"}
{"geometry": {"coordinates": [-99.6126616, 28.9468634], "type": "Point"}, "id": "b1RhdHFo3cwSTVVwvtBAZEmACj8=", "properties": {"@spider": "usps_collection_boxes", "addr:city": "BATESVILLE", "addr:country": "US", "addr:full": "1 NOPAL ALY", "addr:postcode": "78829", "addr:state": "TX", "brand": "USPS", "collection_times": "Mo-Fr 15:30", "name": "USPS COLLECTION BOX - PO LOBBY", "note": "ON 12/24 AND 12/31, THIS BOX MAY BE COLLECTED AS EARLY AS 12 NOON.", "ref": "7882900004"}, "type": "Feature"}
{"geometry": {"coordinates": [-99.569147084, 28.573400119], "type": "Point"}, "id": "24nx8sdEnH6_GoznRL7WKnhlc8k=", "properties": {"@spider": "usps_collection_boxes", "addr:city": "BIG WELLS", "addr:country": "US", "addr:full": "1411 GRAND AVE", "addr:postcode": "78830", "addr:state": "TX", "brand": "USPS", "collection_times": "Mo-Fr 15:05; Sa 10:45", "name": "USPS COLLECTION BOX - BLUE BOX", "note": "ON 12/24 AND 12/31, THIS BOX MAY BE COLLECTED AS EARLY AS 12 NOON.", "ref": "7883000001"}, "type": "Feature"}
{"geometry": {"coordinates": [-99.569147084, 28.573400119], "type": "Point"}, "id": "voVnoO1UYwa7gAOyCqPNQB09E_w=", "properties": {"@spider": "usps_collection_boxes", "addr:city": "BIG WELLS", "addr:country": "US", "addr:full": "1411 GRAND AVE", "addr:postcode": "78830", "addr:state": "TX", "brand": "USPS", "collection_times": "Mo-Fr 11:30; Sa 10:45", "name": "USPS COLLECTION BOX - PO LOBBY", "ref": "7883000002"}, "type": "Feature"}
{"geometry": {"coordinates": [-99.569147084, 28.573400119], "type": "Point"}, "id": "cpgpiRAFSUdzFrlvOrlNbNmKbfM=", "properties": {"@spider": "usps_collection_boxes", "addr:city": "BIG WELLS", "addr:country": "US", "addr:full": "1411 GRAND AVE", "addr:postcode": "78830", "addr:state": "TX", "brand": "USPS", "collection_times": "Mo-Fr 12:00", "name": "USPS COLLECTION BOX - PO LOBBY", "ref": "7883000003"}, "type": "Feature"}
{"geometry": {"coordinates": [-100.415434, 29.309145], "type": "Point"}, "id": "FY_EGEBF58X09eAvs5mKTz7FnyA=", "properties": {"@spider": "usps_collection_boxes", "addr:city": "BRACKETTVILLE", "addr:country": "US", "addr:full": "308 E SPRING ST", "addr:postcode": "78832", "addr:state": "TX", "brand": "USPS", "collection_times": "Mo-Fr 15:30; Sa 08:00", "name": "USPS COLLECTION BOX - BLUE BOX", "note": "ON 12/24 AND 12/31, THIS BOX MAY BE COLLECTED AS EARLY AS 12 NOON.", "ref": "7883200003"}, "type": "Feature"}
{"geometry": {"coordinates": [-100.415434, 29.309145], "type": "Point"}, "id": "Dg_NPo-AzVx4qBOTsB6MdHv6bKI=", "properties": {"@spider": "usps_collection_boxes", "addr:city": "BRACKETTVILLE", "addr:country": "US", "addr:full": "308 E SPRING ST", "addr:postcode": "78832", "addr:state": "TX", "brand": "USPS", "collection_times": "Mo-Fr 15:30; Sa 08:00", "name": "USPS COLLECTION BOX - PO LOBBY", "note": "ON 12/24 AND 12/31, THIS BOX MAY BE COLLECTED AS EARLY AS 12 NOON.", "ref": "7883200005"}, "type": "Feature"}
{"geometry": {"coordinates": [-100.415451951, 29.309191308], "type": "Point"}, "id": "7tfYrC4AMl2XBolI2yeBPXM69_8=", "properties": {"@spider": "usps_collection_boxes", "addr:city": "BRACKETTVILLE", "addr:country": "US", "addr:full": "308 E SPRING ST", "addr:postcode": "78832", "addr:state": "TX", "brand": "USPS", "collection_times": "Mo-Fr 16:30", "name": "USPS COLLECTION BOX - PO LOBBY", "note": "ON 12/24 AND 12/31, THIS BOX MAY BE COLLECTED AS EARLY AS 12 NOON.", "ref": "7883200007"}, "type": "Feature"}
{"geometry": {"coordinates": [-100.013142, 29.671527], "type": "Point"}, "id": "6ibkCV1cnfDWD_IuJrNcaasUcRk=", "properties": {"@spider": "usps_collection_boxes", "addr:city": "CAMP WOOD", "addr:country": "US", "addr:full": "309 N NUECES", "addr:postcode": "78833", "addr:state": "TX", "brand": "USPS", "collection_times": "Mo-Fr 15:00; Sa 11:00", "name": "USPS COLLECTION BOX - BLUE BOX", "note": "ON 12/24 AND 12/31, THIS BOX MAY BE COLLECTED AS EARLY AS 12 NOON.", "ref": "7883300001"}, "type": "Feature"}
{"geometry": {"coordinates": [-100.013142, 29.671527], "type": "Point"}, "id": "9Zy_ND8TzrARYjiG6JkducDnPlM=", "properties": {"@spider": "usps_collection_boxes", "addr:city": "CAMP WOOD", "addr:country": "US", "addr:full": "309 N NUECES", "addr:postcode": "78833", "addr:state": "TX", "brand": "USPS", "collection_times": "Mo-Fr 15:00; Sa 11:00", "name": "USPS COLLECTION BOX - PO LOBBY", "note": "ON 12/24 AND 12/31, THIS BOX MAY BE COLLECTED AS EARLY AS 12 NOON.", "ref": "7883300002"}, "type": "Feature"}
{"geometry": {"coordinates": [-100.013110635, 29.671504571], "type": "Point"}, "id": "mje8dOVxVi7_eQD6X2EPnkj9dOk=", "properties": {"@spider": "usps_collection_boxes", "addr:city": "CAMP WOOD", "addr:country": "US", "addr:full": "309 N NUECES", "addr:postcode": "78833", "addr:state": "TX", "brand": "USPS", "collection_times": "Mo-Fr 15:00", "name": "USPS COLLECTION BOX - PO LOBBY", "note": "ON 12/24 AND 12/31, THIS BOX MAY BE COLLECTED AS EARLY AS 12 NOON.", "ref": "7883300003"}, "type": "Feature"}
{"geometry": {"coordinates": [-99.8601618, 28.522395], "type": "Point"}, "id": "XNrf7ZkH-k0BoMWUxb3Kh_QcHyE=", "properties": {"@spider": "usps_collection_boxes", "addr:city": "CARRIZO SPRINGS", "addr:country": "US", "addr:full": "103 N 5TH ST", "addr:postcode": "78834", "addr:state": "TX", "brand": "USPS", "collection_times": "Mo-Fr 16:15; Sa 16:00", "name": "USPS COLLECTION BOX - BLUE BOX", "note": "ON 12/24 AND 12/31, THIS BOX MAY BE COLLECTED AS EARLY AS 12 NOON.", "ref": "7883400007"}, "type": "Feature"}
{"geometry": {"coordinates": [-99.859373, 28.5245], "type": "Point"}, "id": "lp1NGn_vnEEyQlYdaySJzfFGfTk=", "properties": {"@spider": "usps_collection_boxes", "addr:city": "CARRIZO SPRINGS", "addr:country": "US", "addr:full": "401 N 5TH ST", "addr:postcode": "78834", "addr:state": "TX", "brand": "USPS", "collection_times": "Mo-Fr 16:15; Sa 12:00", "name": "USPS COLLECTION BOX - BLUE BOX", "note": "ON 12/24 AND 12/31, THIS BOX MAY BE COLLECTED AS EARLY AS 12 NOON.", "ref": "7883400009"}, "type": "Feature"}
{"geometry": {"coordinates": [-99.859373, 28.5245], "type": "Point"}, "id": "i6XjYcJepiaWjZYnahmBs2c-smk=", "properties": {"@spider": "usps_collection_boxes", "addr:city": "CARRIZO SPRINGS", "addr:country": "US", "addr:full": "401 N 5TH ST", "addr:postcode": "78834", "addr:state": "TX", "brand": "USPS", "collection_times": "Mo-Fr 16:30; Sa 12:00", "name": "USPS COLLECTION BOX - PO LOBBY", "note": "ON 12/24 AND 12/31, THIS BOX MAY BE COLLECTED AS EARLY AS 12 NOON.", "ref": "7883400011"}, "type": "Feature"}
{"geometry": {"coordinates": [-99.859373, 28.5245], "type": "Point"}, "id": "baKFAZgeHv6d7MDmRXE8cDvuDyY=", "properties": {"@spider": "usps_collection_boxes", "addr:city": "CARRIZO SPRINGS", "addr:country": "US", "addr:full": "401 N 5TH ST", "addr:postcode": "78834", "addr:state": "TX", "brand": "USPS", "collection_times": "Mo-Fr 16:30; Sa 12:00", "name": "USPS COLLECTION BOX - PO LOBBY", "note": "ON 12/24 AND 12/31, THIS BOX MAY BE COLLECTED AS EARLY AS 12 NOON.", "ref": "7883400012"}, "type": "Feature"}
{"geometry": {"coordinates": [-99.859394632, 28.524436429], "type": "Point"}, "id": "5FxhsK8xlr9XkeR1db2HFoHcxsw=", "properties": {"@spider": "usps_collection_boxes", "addr:city": "CARRIZO SPRINGS", "addr:country": "US", "addr:full": "401 N 5TH ST", "addr:postcode": "78834", "addr:state": "TX", "brand": "USPS", "collection_times": "Mo-Fr 16:30; Sa 11:00", "name": "USPS COLLECTION BOX - PO LOBBY", "note": "ON 12/24 AND 12/31, THIS BOX MAY BE COLLECTED AS EARLY AS 12 NOON.", "ref": "7883400015"}, "type": "Feature"}
{"geometry": {"coordinates": [-99.6135159, 28.351002], "type": "Point"}, "id": "5eXhtyIlB5fM3w6v8f4Fooeo1Jw=", "properties": {"@spider": "usps_collection_boxes", "addr:city": "CATARINA", "addr:country": "US", "addr:full": "375 E SAN JACINTO ST", "addr:postcode": "78836", "addr:state": "TX", "brand": "USPS", "collection_times": "Mo-Sa 14:15", "name": "USPS COLLECTION BOX - BLUE BOX", "note": "ON 12/24 AND 12/31, THIS BOX MAY BE COLLECTED AS EARLY AS 12 NOON.", "ref": "7883600001"}, "type": "Feature"}
{"geometry": {"coordinates": [-101.175169, 29.687608], "type": "Point"}, "id": "6vZO7pjdoaQhfLwZacgl4XBfDWk=", "properties": {"@spider": "usps_collection_boxes", "addr:city": "COMSTOCK", "addr:country": "US", "addr:full": "32108 W US HIGHWAY 90", "addr:postcode": "78837", "addr:state": "TX", "brand": "USPS", "collection_times": "Mo-Fr 14:30; Sa 10:00", "name": "USPS COLLECTION BOX - BLUE BOX", "note": "ON 12/24 AND 12/31, THIS BOX MAY BE COLLECTED AS EARLY AS 12 NOON.", "ref": "7883700001"}, "type": "Feature"}
{"geometry": {"coordinates": [-101.175169, 29.687608], "type": "Point"}, "id": "sz5V1Q1T1GVxB1O1MyvoKbIyqH4=", "properties": {"@spider": "usps_collection_boxes", "addr:city": "COMSTOCK", "addr:country": "US", "addr:full": "32108 W US HIGHWAY 90", "addr:postcode": "78837", "addr:state": "TX", "brand": "USPS", "collection_times": "Mo-Fr 14:30; Sa 10:00", "name": "USPS COLLECTION BOX - PO LOBBY", "note": "ON 12/24 AND 12/31, THIS BOX MAY BE COLLECTED AS EARLY AS 12 NOON.", "ref": "7883700002"}, "type": "Feature"}
{"geometry": {"coordinates": [-101.175169, 29.687608], "type": "Point"}, "id": "wPW1Ruy4E0pCoAREc1A7ZQiqwFw=", "properties": {"@spider": "usps_collection_boxes", "addr:city": "COMSTOCK", "addr:country": "US", "addr:full": "32108 W US HIGHWAY 90", "addr:postcode": "78837", "addr:state": "TX", "brand": "USPS", "collection_times": "Mo-Fr 14:30; Sa 10:00", "name": "USPS COLLECTION BOX - BLUE BOX", "note": "ON 12/24 AND 12/31, THIS BOX MAY BE COLLECTED AS EARLY AS 12 NOON.", "ref": "7883700003"}, "type": "Feature"}
{"geometry": {"coordinates": [-101.175201977, 29.68757475], "type": "Point"}, "id": "YMHilgwiyRWJMkm7GrLZcoK-B2E=", "properties": {"@spider": "usps_collection_boxes", "addr:city": "COMSTOCK", "addr:country": "US", "addr:full": "32108 W US HIGHWAY 90", "addr:postcode": "78837", "addr:state": "TX", "brand": "USPS", "collection_times": "Mo-Fr 14:30", "name": "USPS COLLECTION BOX - PO LOBBY", "note": "ON 12/24 AND 12/31, THIS BOX MAY BE COLLECTED AS EARLY AS 12 NOON.", "ref": "7883700004"}, "type": "Feature"}
{"geometry": {"coordinates": [-99.7178019, 29.49755], "type": "Point"}, "id": "YXbFuJniAGZklfHMphQrQi8te9s=", "properties": {"@spider": "usps_collection_boxes", "addr:city": "CONCAN", "addr:country": "US", "addr:full": "20948 US HIGHWAY 127", "addr:postcode": "78838", "addr:state": "TX", "brand": "USPS", "collection_times": "Mo-Fr 15:30; Sa 09:45", "name": "USPS COLLECTION BOX - BLUE BOX", "note": "ON 12/24 AND 12/31, THIS BOX MAY BE COLLECTED AS EARLY AS 12 NOON.", "ref": "7883800001"}, "type": "Feature"}
{"geometry": {"coordinates": [-99.714118, 29.4953], "type": "Point"}, "id": "H7KXnKem2Vieracw4_piTjmW6TY=", "properties": {"@spider": "usps_collection_boxes", "addr:city": "CONCAN", "addr:country": "US", "addr:full": "20948 US HIGHWAY 127", "addr:postcode": "78838", "addr:state": "TX", "brand": "USPS", "collection_times": "Mo-Fr 11:30; Sa 10:00", "name": "USPS COLLECTION BOX - PO LOBBY", "ref": "7883800002"}, "type": "Feature"}
{"geometry": {"coordinates": [-99.714080228, 29.495320183], "type": "Point"}, "id": "hZkIsiXLr5jXce6yNiJEMTVR6DM=", "properties": {"@spider": "usps_collection_boxes", "addr:city": "CONCAN", "addr:country": "US", "addr:full": "20948 US HIGHWAY 127", "addr:postcode": "78838", "addr:state": "TX", "brand": "USPS", "collection_times": "Mo-Fr 12:00; Sa 10:00", "name": "USPS COLLECTION BOX - PO LOBBY", "ref": "7883800003"}, "type": "Feature"}
{"geometry": {"coordinates": [-99.7442404927, 29.6046790027], "type": "Point"}, "id": "RBT1bLjkddYfVUX0-n3Vk4KXuHM=", "properties": {"@spider": "usps_collection_boxes", "addr:city": "CONCAN", "addr:country": "US", "addr:full": "234 FM 1050", "addr:postcode": "78838", "addr:state": "TX", "brand": "USPS", "collection_times": "Mo-Fr 15:15; Sa 10:15", "name": "USPS COLLECTION BOX - BLUE BOX", "note": "ON 12/24 AND 12/31, THIS BOX MAY BE COLLECTED AS EARLY AS 12 NOON.", "ref": "7883800004"}, "type": "Feature"}
{"geometry": {"coordinates": [-99.827438, 28.679886], "type": "Point"}, "id": "E9AC_OW11U80NLrLDqZAO3gxfQU=", "properties": {"@spider": "usps_collection_boxes", "addr:city": "CRYSTAL CITY", "addr:country": "US", "addr:full": "221 E UVALDE ST", "addr:postcode": "78839", "addr:state": "TX", "brand": "USPS", "collection_times": "Mo-Fr 16:45; Sa 12:00", "name": "USPS COLLECTION BOX - BLUE BOX", "note": "ON 12/24 AND 12/31, THIS BOX MAY BE COLLECTED AS EARLY AS 12 NOON.", "ref": "7883900002"}, "type": "Feature"}
{"geometry": {"coordinates": [-99.827438, 28.679886], "type": "Point"}, "id": "yDOaa9HSIvHEWm_eVG4ue2T4qUU=", "properties": {"@spider": "usps_collection_boxes", "addr:city": "CRYSTAL CITY", "addr:country": "US", "addr:full": "221 E UVALDE ST", "addr:postcode": "78839", "addr:state": "TX", "brand": "USPS", "collection_times": "Mo-Fr 16:45; Sa 12:00", "name": "USPS COLLECTION BOX - BLUE BOX", "note": "ON 12/24 AND 12/31, THIS BOX MAY BE COLLECTED AS EARLY AS 12 NOON.", "ref": "7883900003"}, "type": "Feature"}
{"geometry": {"coordinates": [-99.827438, 28.679886], "type": "Point"}, "id": "WUaM02zUMsWJaEhO6uSoX0bDQIw=", "properties": {"@spider": "usps_collection_boxes", "addr:city": "CRYSTAL CITY", "addr:country": "US", "addr:full": "221 E UVALDE ST", "addr:postcode": "78839", "addr:state": "TX", "brand": "USPS", "collection_times": "Mo-Fr 16:30; Sa 11:30", "name": "USPS COLLECTION BOX - PO LOBBY", "note": "ON 12/24 AND 12/31, THIS BOX MAY BE COLLECTED AS EARLY AS 12 NOON.", "ref": "7883900004"}, "type": "Feature"}
{"geometry": {"coordinates": [-99.827438, 28.679886], "type": "Point"}, "id": "Kwi4aPEbjRCUMyn8uYcVSMQmhG8=", "properties": {"@spider": "usps_collection_boxes", "addr:city": "CRYSTAL CITY", "addr:country": "US", "addr:full": "221 E UVALDE ST", "addr:postcode": "78839", "addr:state": "TX", "brand": "USPS", "collection_times": "Mo-Fr 16:30; Sa 11:30", "name": "USPS COLLECTION BOX - PO LOBBY", "note": "ON 12/24 AND 12/31, THIS BOX MAY BE COLLECTED AS EARLY AS 12 NOON.", "ref": "7883900006"}, "type": "Feature"}
{"geometry": {"coordinates": [-99.827473949, 28.679911281], "type": "Point"}, "id": "pfuhCds9yAFp7fs44hJut_A3gIo=", "properties": {"@spider": "usps_collection_boxes", "addr:city": "CRYSTAL CITY", "addr:country": "US", "addr:full": "221 E UVALDE ST", "addr:postcode": "78839", "addr:state": "TX", "brand": "USPS", "collection_times": "Mo-Fr 16:30; Sa 11:30", "name": "USPS COLLECTION BOX - PO LOBBY", "note": "ON 12/24 AND 12/31, THIS BOX MAY BE COLLECTED AS EARLY AS 12 NOON.", "ref": "7883900009"}, "type": "Feature"}
{"geometry": {"coordinates": [-100.905522, 29.390429], "type": "Point"}, "id": "WH1xQLKvDYBmk0uKUwUOVvg1i2o=", "properties": {"@spider": "usps_collection_boxes", "addr:city": "DEL RIO", "addr:country": "US", "addr:full": "2228 AVENUE F", "addr:postcode": "78840", "addr:state": "TX", "brand": "USPS", "collection_times": "Mo-Sa 15:05", "name": "USPS COLLECTION BOX - BLUE BOX", "note": "ON 12/24 AND 12/31, THIS BOX MAY BE COLLECTED AS EARLY AS 12 NOON.", "ref": "7884000001"}, "type": "Feature"}
{"geometry": {"coordinates": [-100.90397, 29.374577], "type": "Point"}, "id": "54xKL_cEo8QBadLd2UGr8MhmgdU=", "properties": {"@spider": "usps_collection_boxes", "addr:city": "DEL RIO", "addr:country": "US", "addr:full": "1200 AVENUE E", "addr:postcode": "78840", "addr:state": "TX", "brand": "USPS", "collection_times": "Mo-Sa 15:00", "name": "USPS COLLECTION BOX - BLUE BOX", "note": "ON 12/24 AND 12/31, THIS BOX MAY BE COLLECTED AS EARLY AS 12 NOON.", "ref": "7884000005"}, "type": "Feature"}
{"geometry": {"coordinates": [-100.897232856, 29.36604144], "type": "Point"}, "id": "Z9-bMGhtgURUVzAmmWy8auWUA98=", "properties": {"@spider": "usps_collection_boxes", "addr:city": "DEL RIO", "addr:country": "US", "addr:full": "506 E GIBBS ST", "addr:postcode": "78840", "addr:state": "TX", "brand": "USPS", "collection_times": "Mo-Sa 14:50", "name": "USPS COLLECTION BOX - BLUE BOX", "note": "ON 12/24 AND 12/31, THIS BOX MAY BE COLLECTED AS EARLY AS 12 NOON.", "ref": "7884000044"}, "type": "Feature"}
{"geometry": {"coordinates": [-100.898662, 29.355466], "type": "Point"}, "id": "7gl0fnmX1RHpuBQVGVEKCquGWzM=", "properties": {"@spider": "usps_collection_boxes", "addr:city": "DEL RIO", "addr:country": "US", "addr:full": "913 S MAIN ST", "addr:postcode": "78840", "addr:state": "TX", "brand": "USPS", "collection_times": "Mo-Sa 14:45", "name": "USPS COLLECTION BOX - BLUE BOX", "note": "ON 12/24 AND 12/31, THIS BOX MAY BE COLLECTED AS EARLY AS 12 NOON.", "ref": "7884000060"}, "type": "Feature"}
{"geometry": {"coordinates": [-100.901745, 29.384153], "type": "Point"}, "id": "vSisf65WUg6HnS3IuIiQG0SiUdY=", "properties": {"@spider": "usps_collection_boxes", "addr:city": "DEL RIO", "addr:country": "US", "addr:full": "2001 N BEDELL AVE", "addr:postcode": "78840", "addr:state": "TX", "brand": "USPS", "collection_times": "Mo-Sa 16:15", "name": "USPS COLLECTION BOX - BLUE BOX", "note": "ON 12/24 AND 12/31, THIS BOX MAY BE COLLECTED AS EARLY AS 12 NOON.", "ref": "7884000061"}, "type": "Feature"}
{"geometry": {"coordinates": [-100.8987604914, 29.3619479906], "type": "Point"}, "id": "kFLgwKcekJ703If-CzUHA7WcQMo=", "properties": {"@spider": "usps_collection_boxes", "addr:city": "DEL RIO", "addr:country": "US", "addr:full": "114 E BROADWAY ST", "addr:postcode": "78840", "addr:state": "TX", "brand": "USPS", "collection_times": "Mo-Fr 16:30; Sa 15:15", "name": "USPS COLLECTION BOX - BLUE BOX", "note": "ON 12/24 AND 12/31, THIS BOX MAY BE COLLECTED AS EARLY AS 12 NOON.", "ref": "7884000072"}, "type": "Feature"}
{"geometry": {"coordinates": [-100.901533, 29.384639], "type": "Point"}, "id": "5YOnU51Fa_09A1YoYXwZBpi65s4=", "properties": {"@spider": "usps_collection_boxes", "addr:city": "DEL RIO", "addr:country": "US", "addr:full": "2001 N BEDELL AVE", "addr:postcode": "78840", "addr:state": "TX", "brand": "USPS", "collection_times": "Mo-Sa 16:15", "name": "USPS COLLECTION BOX - BLUE BOX", "note": "ON 12/24 AND 12/31, THIS BOX MAY BE COLLECTED AS EARLY AS 12 NOON.", "ref": "7884000075"}, "type": "Feature"}
{"geometry": {"coordinates": [-100.89876, 29.361953], "type": "Point"}, "id": "ijlXW2UDBDNwv10AaDCBb_n92UY=", "properties": {"@spider": "usps_collection_boxes", "addr:city": "DEL RIO", "addr:country": "US", "addr:full": "114 E BROADWAY ST", "addr:postcode": "78840", "addr:state": "TX", "brand": "USPS", "collection_times": "Mo-Fr 16:30", "name": "USPS COLLECTION BOX - PO LOBBY", "note": "ON 12/24 AND 12/31, THIS BOX MAY BE COLLECTED AS EARLY AS 12 NOON.", "ref": "7884000080"}, "type": "Feature"}
{"geometry": {"coordinates": [-100.901745, 29.384153], "type": "Point"}, "id": "f96BEUbZ6zWWAWfG9W3JFVSQYSg=", "properties": {"@spider": "usps_collection_boxes", "addr:city": "DEL RIO", "addr:country": "US", "addr:full": "2001 N BEDELL AVE", "addr:postcode": "78840", "addr:state": "TX", "brand": "USPS", "collection_times": "Mo-Sa 16:15", "name": "USPS COLLECTION BOX - PO LOBBY", "note": "ON 12/24 AND 12/31, THIS BOX MAY BE COLLECTED AS EARLY AS 12 NOON.", "ref": "7884000081"}, "type": "Feature"}
{"geometry": {"coordinates": [-100.901745, 29.384153], "type": "Point"}, "id": "d8Wve4dfvYcW33OTY-SU0b1eMFg=", "properties": {"@spider": "usps_collection_boxes", "addr:city": "DEL RIO", "addr:country": "US", "addr:full": "2001 N BEDELL AVE", "addr:postcode": "78840", "addr:state": "TX", "brand": "USPS", "collection_times": "Mo-Sa 16:15", "name": "USPS COLLECTION BOX - PO LOBBY", "note": "ON 12/24 AND 12/31, THIS BOX MAY BE COLLECTED AS EARLY AS 12 NOON.", "ref": "7884000082"}, "type": "Feature"}
{"geometry": {"coordinates": [-100.899696, 29.366782], "type": "Point"}, "id": "PPvKwFGXXvBOG1yWw8H6Imyy1xg=", "properties": {"@spider": "usps_collection_boxes", "addr:city": "DEL RIO", "addr:country": "US", "addr:full": "200 AVENUE F", "addr:postcode": "78840", "addr:state": "TX", "brand": "USPS", "collection_times": "Mo-Sa 14:55", "name": "USPS COLLECTION BOX - BLUE BOX", "note": "ON 12/24 AND 12/31, THIS BOX MAY BE COLLECTED AS EARLY AS 12 NOON.", "ref": "7884000087"}, "type": "Feature"}
{"geometry": {"coordinates": [-100.901722652, 29.384111598], "type": "Point"}, "id": "D_blrxiRkiX9FQCJrrAGTEFzx0E=", "properties": {"@spider": "usps_collection_boxes", "addr:city": "DEL RIO", "addr:country": "US", "addr:full": "2001 N BEDELL AVE", "addr:postcode": "78840", "addr:state": "TX", "brand": "USPS", "collection_times": "Mo-Fr 16:30; Sa 12:00", "name": "USPS COLLECTION BOX - PO LOBBY", "note": "ON 12/24 AND 12/31, THIS BOX MAY BE COLLECTED AS EARLY AS 12 NOON.", "ref": "7884000090"}, "type": "Feature"}
{"geometry": {"coordinates": [-100.898760491, 29.361947991], "type": "Point"}, "id": "TB9mTyz_E1wCqbmWI5jaCKQKinU=", "properties": {"@spider": "usps_collection_boxes", "addr:city": "DEL RIO", "addr:country": "US", "addr:full": "114 E BROADWAY ST", "addr:postcode": "78840", "addr:state": "TX", "brand": "USPS", "collection_times": "Mo-Fr 16:30", "name": "USPS COLLECTION BOX - PO LOBBY", "note": "ON 12/24 AND 12/31, THIS BOX MAY BE COLLECTED AS EARLY AS 12 NOON.", "ref": "7884000091"}, "type": "Feature"}
{"geometry": {"coordinates": [-100.784039, 29.352445], "type": "Point"}, "id": "6cgVtW2laKyMkM_vRqZbfHPGi2I=", "properties": {"@spider": "usps_collection_boxes", "addr:city": "DEL RIO", "addr:country": "US", "addr:full": "4 ARNOLD BLVD BLDG 540", "addr:postcode": "78843", "addr:state": "TX", "brand": "USPS", "collection_times": "Mo-Sa 13:45", "name": "USPS COLLECTION BOX - BLUE BOX", "note": "ON 12/24 AND 12/31, THIS BOX MAY BE COLLECTED AS EARLY AS 12 NOON.", "ref": "7884300000"}, "type": "Feature"}
{"geometry": {"coordinates": [-100.785581, 29.357517], "type": "Point"}, "id": "-ALlP78mkkUOqm994sCS_9HZ3yE=", "properties": {"@spider": "usps_collection_boxes", "addr:city": "DEL RIO", "addr:country": "US", "addr:full": "570 2ND ST", "addr:postcode": "78843", "addr:state": "TX", "brand": "USPS", "collection_times": "Mo-Sa 13:50", "name": "USPS COLLECTION BOX - BLUE BOX", "note": "ON 12/24 AND 12/31, THIS BOX MAY BE COLLECTED AS EARLY AS 12 NOON.", "ref": "7884300001"}, "type": "Feature"}
{"geometry": {"coordinates": [-100.791892, 29.353264], "type": "Point"}, "id": "QIZNS4HV4tUprltgAJ8C9396-xk=", "properties": {"@spider": "usps_collection_boxes", "addr:city": "DEL RIO", "addr:country": "US", "addr:full": "6 MITCHELL BLVD BLDG 375", "addr:postcode": "78843", "addr:state": "TX", "brand": "USPS", "collection_times": "Mo-Sa 13:35", "name": "USPS COLLECTION BOX - BLUE BOX", "note": "ON 12/24 AND 12/31, THIS BOX MAY BE COLLECTED AS EARLY AS 12 NOON.", "ref": "7884300002"}, "type": "Feature"}
{"geometry": {"coordinates": [-100.791883, 29.357264], "type": "Point"}, "id": "Yit12-5cvezR6lgdI78qWuaGgkc=", "properties": {"@spider": "usps_collection_boxes", "addr:city": "DEL RIO", "addr:country": "US", "addr:full": "253 4TH ST", "addr:postcode": "78843", "addr:state": "TX", "brand": "USPS", "collection_times": "Mo-Sa 13:30", "name": "USPS COLLECTION BOX - BLUE BOX", "note": "ON 12/24 AND 12/31, THIS BOX MAY BE COLLECTED AS EARLY AS 12 NOON.", "ref": "7884300004"}, "type": "Feature"}
{"geometry": {"coordinates": [-100.788946, 29.355362], "type": "Point"}, "id": "85icKo7-p4DryLNTxqWGpy2ovXo=", "properties": {"@spider": "usps_collection_boxes", "addr:city": "DEL RIO", "addr:country": "US", "addr:full": "357 4TH STREET", "addr:postcode": "78843", "addr:state": "TX", "brand": "USPS", "collection_times": "Mo-Sa 13:40", "name": "USPS COLLECTION BOX - BLUE BOX", "note": "ON 12/24 AND 12/31, THIS BOX MAY BE COLLECTED AS EARLY AS 12 NOON.", "ref": "7884300005"}, "type": "Feature"}
{"geometry": {"coordinates": [-99.280701853, 29.330998531], "type": "Point"}, "id": "J1u2QaPPv3X2xzO5sTd5Ak4DRbY=", "properties": {"@spider": "usps_collection_boxes", "addr:city": "D HANIS", "addr:country": "US", "addr:full": "7370 COUNTY ROAD 525", "addr:postcode": "78850", "addr:state": "TX", "brand": "USPS", "collection_times": "Mo-Fr 15:45; Sa 08:45", "name": "USPS COLLECTION BOX - BLUE BOX", "note": "ON 12/24 AND 12/31, THIS BOX MAY BE COLLECTED AS EARLY AS 12 NOON.", "ref": "7885000001"}, "type": "Feature"}
{"geometry": {"coordinates": [-99.280701853, 29.330998531], "type": "Point"}, "id": "PkCo-NspYJxgMCvYNrZI0Ibt0qE=", "properties": {"@spider": "usps_collection_boxes", "addr:city": "D HANIS", "addr:country": "US", "addr:full": "7370 COUNTY ROAD 525", "addr:postcode": "78850", "addr:state": "TX", "brand": "USPS", "collection_times": "Mo-Fr 16:00; Sa 09:00", "name": "USPS COLLECTION BOX - PO LOBBY", "note": "ON 12/24 AND 12/31, THIS BOX MAY BE COLLECTED AS EARLY AS 12 NOON.", "ref": "7885000003"}, "type": "Feature"}
{"geometry": {"coordinates": [-99.280701853, 29.330998531], "type": "Point"}, "id": "og91h9v_JbnrVK0qtLrYoqKE8D4=", "properties": {"@spider": "usps_collection_boxes", "addr:city": "D HANIS", "addr:country": "US", "addr:full": "7370 COUNTY ROAD 525", "addr:postcode": "78850", "addr:state": "TX", "brand": "USPS", "collection_times": "Mo-Fr 16:00; Sa 09:00", "name": "USPS COLLECTION BOX - PO LOBBY", "note": "ON 12/24 AND 12/31, THIS BOX MAY BE COLLECTED AS EARLY AS 12 NOON.", "ref": "7885000004"}, "type": "Feature"}
{"geometry": {"coordinates": [-99.280701853, 29.330998531], "type": "Point"}, "id": "wsHrfCZsVeH58qYiEjambRf5mv0=", "properties": {"@spider": "usps_collection_boxes", "addr:city": "D HANIS", "addr:country": "US", "addr:full": "7370 COUNTY ROAD 525", "addr:postcode": "78850", "addr:state": "TX", "brand": "USPS", "collection_times": "Mo-Fr 16:00; Sa 09:00", "name": "USPS COLLECTION BOX - PO LOBBY", "note": "ON 12/24 AND 12/31, THIS BOX MAY BE COLLECTED AS EARLY AS 12 NOON.", "ref": "7885000006"}, "type": "Feature"}
{"geometry": {"coordinates": [-100.502682, 28.70691], "type": "Point"}, "id": "mhCWCUKj1RXVuVZryraOHUpcSKc=", "properties": {"@spider": "usps_collection_boxes", "addr:city": "EAGLE PASS", "addr:country": "US", "addr:full": "166 JEFFERSON ST", "addr:postcode": "78852", "addr:state": "TX", "brand": "USPS", "collection_times": "Mo-Sa 15:25", "name": "USPS COLLECTION BOX - BLUE BOX", "note": "ON 12/24 AND 12/31, THIS BOX MAY BE COLLECTED AS EARLY AS 12 NOON.", "ref": "7885200003"}, "type": "Feature"}
{"geometry": {"coordinates": [-100.482701, 28.704087], "type": "Point"}, "id": "8693tlQop8pfFF0IipBZKkJcw4c=", "properties": {"@spider": "usps_collection_boxes", "addr:city": "EAGLE PASS", "addr:country": "US", "addr:full": "410 S BIBB AVE", "addr:postcode": "78852", "addr:state": "TX", "brand": "USPS", "collection_times": "Mo-Sa 16:15", "name": "USPS COLLECTION BOX - BLUE BOX", "note": "ON 12/24 AND 12/31, THIS BOX MAY BE COLLECTED AS EARLY AS 12 NOON.", "ref": "7885200014"}, "type": "Feature"}
{"geometry": {"coordinates": [-100.5001336157, 28.7097531773], "type": "Point"}, "id": "_II9zZiHWXNis4a29qH4ImMow5o=", "properties": {"@spider": "usps_collection_boxes", "addr:city": "EAGLE PASS", "addr:country": "US", "addr:full": "662 QUARRY ST", "addr:postcode": "78852", "addr:state": "TX", "brand": "USPS", "collection_times": "Mo-Sa 15:20", "name": "USPS COLLECTION BOX - BLUE BOX", "note": "ON 12/24 AND 12/31, THIS BOX MAY BE COLLECTED AS EARLY AS 12 NOON.", "ref": "7885200017"}, "type": "Feature"}
{"geometry": {"coordinates": [-100.484016, 28.709227], "type": "Point"}, "id": "bvcJfT4UxDj2MpceRUeASvx43hM=", "properties": {"@spider": "usps_collection_boxes", "addr:city": "EAGLE PASS", "addr:country": "US", "addr:full": "2135 E MAIN ST", "addr:postcode": "78852", "addr:state": "TX", "brand": "USPS", "collection_times": "Mo-Fr 15:40; Sa 15:35", "name": "USPS COLLECTION BOX - BLUE BOX", "note": "ON 12/24 AND 12/31, THIS BOX MAY BE COLLECTED AS EARLY AS 12 NOON.", "ref": "7885200020"}, "type": "Feature"}
{"geometry": {"coordinates": [-100.476094, 28.707775], "type": "Point"}, "id": "1KZyVGuczjhfYSDTptemEv0Ao3Y=", "properties": {"@spider": "usps_collection_boxes", "addr:city": "EAGLE PASS", "addr:country": "US", "addr:full": "2538 E MAIN ST", "addr:postcode": "78852", "addr:state": "TX", "brand": "USPS", "collection_times": "Mo-Sa 15:05", "name": "USPS COLLECTION BOX - BLUE BOX", "note": "ON 12/24 AND 12/31, THIS BOX MAY BE COLLECTED AS EARLY AS 12 NOON.", "ref": "7885200024"}, "type": "Feature"}
{"geometry": {"coordinates": [-100.482701, 28.704087], "type": "Point"}, "id": "gn3vOEdTTvji98B0Q8gT5wWxhJo=", "properties": {"@spider": "usps_collection_boxes", "addr:city": "EAGLE PASS", "addr:country": "US", "addr:full": "410 S BIBB AVE", "addr:postcode": "78852", "addr:state": "TX", "brand": "USPS", "collection_times": "Mo-Sa 16:00", "name": "USPS COLLECTION BOX - PO LOBBY", "note": "ON 12/24 AND 12/31, THIS BOX MAY BE COLLECTED AS EARLY AS 12 NOON.", "ref": "7885200027"}, "type": "Feature"}
{"geometry": {"coordinates": [-100.482701, 28.704087], "type": "Point"}, "id": "DQfuXuZPdrUPM7n7AQkqx7KjvAY=", "properties": {"@spider": "usps_collection_boxes", "addr:city": "EAGLE PASS", "addr:country": "US", "addr:full": "410 S BIBB AVE", "addr:postcode": "78852", "addr:state": "TX", "brand": "USPS", "collection_times": "Mo-Sa 16:15", "name": "USPS COLLECTION BOX - BLUE BOX", "note": "ON 12/24 AND 12/31, THIS BOX MAY BE COLLECTED AS EARLY AS 12 NOON.", "ref": "7885200030"}, "type": "Feature"}
{"geometry": {"coordinates": [-100.498946, 28.707717], "type": "Point"}, "id": "zPVpBPu92Ev5pSa4N4IZ6xo3Vxc=", "properties": {"@spider": "usps_collection_boxes", "addr:city": "EAGLE PASS", "addr:country": "US", "addr:full": "200 CONVERSE ST", "addr:postcode": "78852", "addr:state": "TX", "brand": "USPS", "collection_times": "Mo-Sa 15:20", "name": "USPS COLLECTION BOX - BLUE BOX", "note": "ON 12/24 AND 12/31, THIS BOX MAY BE COLLECTED AS EARLY AS 12 NOON.", "ref": "7885200032"}, "type": "Feature"}
{"geometry": {"coordinates": [-100.476649, 28.689052], "type": "Point"}, "id": "s4O17FaLfxSA9j-W8nxMwuAXqqg=", "properties": {"@spider": "usps_collection_boxes", "addr:city": "EAGLE PASS", "addr:country": "US", "addr:full": "2701 EL INDIO HWY", "addr:postcode": "78852", "addr:state": "TX", "brand": "USPS", "collection_times": "Mo-Sa 15:00", "name": "USPS COLLECTION BOX - BLUE BOX", "note": "ON 12/24 AND 12/31, THIS BOX MAY BE COLLECTED AS EARLY AS 12 NOON.", "ref": "7885200033"}, "type": "Feature"}
{"geometry": {"coordinates": [-100.495896, 28.739013], "type": "Point"}, "id": "aV-443_VfX2y90hKo411CG-M0dE=", "properties": {"@spider": "usps_collection_boxes", "addr:city": "EAGLE PASS", "addr:country": "US", "addr:full": "2320 DEL RIO BLVD", "addr:postcode": "78852", "addr:state": "TX", "brand": "USPS", "collection_times": "Mo-Sa 15:10", "name": "USPS COLLECTION BOX - BLUE BOX", "note": "ON 12/24 AND 12/31, THIS BOX MAY BE COLLECTED AS EARLY AS 12 NOON.", "ref": "7885200034"}, "type": "Feature"}
{"geometry": {"coordinates": [-100.505337, 28.709232], "type": "Point"}, "id": "JQtHNypfMCtWglqa9Q8vAeo8Hjs=", "properties": {"@spider": "usps_collection_boxes", "addr:city": "EAGLE PASS", "addr:country": "US", "addr:full": "452 WASHINGTON ST", "addr:postcode": "78852", "addr:state": "TX", "brand": "USPS", "collection_times": "Mo-Sa 15:30", "name": "USPS COLLECTION BOX - BLUE BOX", "note": "ON 12/24 AND 12/31, THIS BOX MAY BE COLLECTED AS EARLY AS 12 NOON.", "ref": "7885200037"}, "type": "Feature"}
{"geometry": {"coordinates": [-100.48317266, 28.704266193], "type": "Point"}, "id": "fwiKqevfQI-KaUp3n_bMSAC1fdw=", "properties": {"@spider": "usps_collection_boxes", "addr:city": "EAGLE PASS", "addr:country": "US", "addr:full": "410 S BIBB AVE", "addr:postcode": "78852", "addr:state": "TX", "brand": "USPS", "collection_times": "Mo-Fr 16:30; Sa 11:30", "name": "USPS COLLECTION BOX - PO LOBBY", "note": "ON 12/24 AND 12/31, THIS BOX MAY BE COLLECTED AS EARLY AS 12 NOON.", "ref": "7885200041"}, "type": "Feature"}
{"geometry": {"coordinates": [-100.311423331, 28.515280076], "type": "Point"}, "id": "19llRdw96s3hH8pJjY3MgLJGZjU=", "properties": {"@spider": "usps_collection_boxes", "addr:city": "EL INDIO", "addr:country": "US", "addr:full": "18496 FM 1021", "addr:postcode": "78860", "addr:state": "TX", "brand": "USPS", "collection_times": "Mo-Sa 10:30", "name": "USPS COLLECTION BOX - BLUE BOX", "ref": "7886000001"}, "type": "Feature"}
{"geometry": {"coordinates": [-100.311423331, 28.515280076], "type": "Point"}, "id": "vD5YSS8f8-M9k2HPNDKNne5LMTw=", "properties": {"@spider": "usps_collection_boxes", "addr:city": "EL INDIO", "addr:country": "US", "addr:full": "18496 FM 1021", "addr:postcode": "78860", "addr:state": "TX", "brand": "USPS", "collection_times": "Mo-Sa 10:30", "name": "USPS COLLECTION BOX - PO LOBBY", "ref": "7886000002"}, "type": "Feature"}
{"geometry": {"coordinates": [-100.311423331, 28.515280076], "type": "Point"}, "id": "gf-ZgfRvYi0NNnMP7RKwXN8Buis=", "properties": {"@spider": "usps_collection_boxes", "addr:city": "EL INDIO", "addr:country": "US", "addr:full": "18496 FM 1021", "addr:postcode": "78860", "addr:state": "TX", "brand": "USPS", "collection_times": "Mo-Sa 11:00", "name": "USPS COLLECTION BOX - PO LOBBY", "ref": "7886000003"}, "type": "Feature"}
{"geometry": {"coordinates": [-99.140861, 29.34933], "type": "Point"}, "id": "-rsFX4_R1j_utmk6Rqe3D130ots=", "properties": {"@spider": "usps_collection_boxes", "addr:city": "HONDO", "addr:country": "US", "addr:full": "1108 17TH ST", "addr:postcode": "78861", "addr:state": "TX", "brand": "USPS", "collection_times": "Mo-Fr 16:30; Sa 11:00", "name": "USPS COLLECTION BOX - BLUE BOX", "note": "ON 12/24 AND 12/31, THIS BOX MAY BE COLLECTED AS EARLY AS 12 NOON.", "ref": "7886100010"}, "type": "Feature"}
{"geometry": {"coordinates": [-99.140861, 29.34933], "type": "Point"}, "id": "_6UhhwvMEIvPxY1TM1HfI9yb-5c=", "properties": {"@spider": "usps_collection_boxes", "addr:city": "HONDO", "addr:country": "US", "addr:full": "1108 17TH ST", "addr:postcode": "78861", "addr:state": "TX", "brand": "USPS", "collection_times": "Mo-Fr 16:30; Sa 11:00", "name": "USPS COLLECTION BOX - BLUE BOX", "note": "ON 12/24 AND 12/31, THIS BOX MAY BE COLLECTED AS EARLY AS 12 NOON.", "ref": "7886100011"}, "type": "Feature"}
{"geometry": {"coordinates": [-99.140861, 29.34933], "type": "Point"}, "id": "7twA6gCUIfzKfvuCKFQlSjQUnQg=", "properties": {"@spider": "usps_collection_boxes", "addr:city": "HONDO", "addr:country": "US", "addr:full": "1108 17TH ST", "addr:postcode": "78861", "addr:state": "TX", "brand": "USPS", "collection_times": "Mo-Fr 16:30; Sa 11:00", "name": "USPS COLLECTION BOX - PO LOBBY", "note": "ON 12/24 AND 12/31, THIS BOX MAY BE COLLECTED AS EARLY AS 12 NOON.", "ref": "7886100013"}, "type": "Feature"}
{"geometry": {"coordinates": [-99.140861, 29.34933], "type": "Point"}, "id": "-L3nuJBiXJrn0Z8kYzG-gcgYVGU=", "properties": {"@spider": "usps_collection_boxes", "addr:city": "HONDO", "addr:country": "US", "addr:full": "1108 17TH ST", "addr:postcode": "78861", "addr:state": "TX", "brand": "USPS", "collection_times": "Mo-Fr 16:30; Sa 11:00", "name": "USPS COLLECTION BOX - PO LOBBY", "note": "ON 12/24 AND 12/31, THIS BOX MAY BE COLLECTED AS EARLY AS 12 NOON.", "ref": "7886100014"}, "type": "Feature"}
{"geometry": {"coordinates": [-99.140780275, 29.349366825], "type": "Point"}, "id": "k1S7wxaCcHT06H8H7COtZOhQykg=", "properties": {"@spider": "usps_collection_boxes", "addr:city": "HONDO", "addr:country": "US", "addr:full": "1108 17TH ST", "addr:postcode": "78861", "addr:state": "TX", "brand": "USPS", "collection_times": "Mo-Fr 16:30; Sa 11:00", "name": "USPS COLLECTION BOX - PO LOBBY", "note": "ON 12/24 AND 12/31, THIS BOX MAY BE COLLECTED AS EARLY AS 12 NOON.", "ref": "7886100017"}, "type": "Feature"}
{"geometry": {"coordinates": [-99.638023, 29.295131], "type": "Point"}, "id": "Akp6aKXNTTNmd75P0lI79ftwGw0=", "properties": {"@spider": "usps_collection_boxes", "addr:city": "KNIPPA", "addr:country": "US", "addr:full": "107 MAIN ST", "addr:postcode": "78870", "addr:state": "TX", "brand": "USPS", "collection_times": "Mo-Fr 14:45; Sa 09:45", "name": "USPS COLLECTION BOX - BLUE BOX", "note": "ON 12/24 AND 12/31, THIS BOX MAY BE COLLECTED AS EARLY AS 12 NOON.", "ref": "7887000000"}, "type": "Feature"}
{"geometry": {"coordinates": [-99.638023, 29.295131], "type": "Point"}, "id": "deQ6hGlPmzyAGlVUSiANivvVA9Y=", "properties": {"@spider": "usps_collection_boxes", "addr:city": "KNIPPA", "addr:country": "US", "addr:full": "107 MAIN ST", "addr:postcode": "78870", "addr:state": "TX", "brand": "USPS", "collection_times": "Mo-Fr 14:45; Sa 09:45", "name": "USPS COLLECTION BOX - PO LOBBY", "note": "ON 12/24 AND 12/31, THIS BOX MAY BE COLLECTED AS EARLY AS 12 NOON.", "ref": "7887000001"}, "type": "Feature"}
{"geometry": {"coordinates": [-99.638023, 29.295131], "type": "Point"}, "id": "mVan4zbi9te56ENkgWn1VvpantM=", "properties": {"@spider": "usps_collection_boxes", "addr:city": "KNIPPA", "addr:country": "US", "addr:full": "107 MAIN ST", "addr:postcode": "78870", "addr:state": "TX", "brand": "USPS", "collection_times": "Mo-Fr 14:45; Sa 09:45", "name": "USPS COLLECTION BOX - PO LOBBY", "note": "ON 12/24 AND 12/31, THIS BOX MAY BE COLLECTED AS EARLY AS 12 NOON.", "ref": "7887000002"}, "type": "Feature"}
{"geometry": {"coordinates": [-99.637612111, 29.295250954], "type": "Point"}, "id": "X68DIFRZPXd66kmRZKWYhJuVoRw=", "properties": {"@spider": "usps_collection_boxes", "addr:city": "KNIPPA", "addr:country": "US", "addr:full": "107 MAIN ST", "addr:postcode": "78870", "addr:state": "TX", "brand": "USPS", "collection_times": "Mo-Fr 15:00; Sa 10:00", "name": "USPS COLLECTION BOX - PO LOBBY", "note": "ON 12/24 AND 12/31, THIS BOX MAY BE COLLECTED AS EARLY AS 12 NOON.", "ref": "7887000004"}, "type": "Feature"}
{"geometry": {"coordinates": [-101.559934616, 29.808815], "type": "Point"}, "id": "TTp5LAbTRgnUGPnyYQwVMFZm-9I=", "properties": {"@spider": "usps_collection_boxes", "addr:city": "LANGTRY", "addr:country": "US", "addr:full": "95 TORRES AVE", "addr:postcode": "78871", "addr:state": "TX", "brand": "USPS", "collection_times": "Mo-Sa 11:30", "name": "USPS COLLECTION BOX - BLUE BOX", "ref": "7887100001"}, "type": "Feature"}
{"geometry": {"coordinates": [-101.559928, 29.808782], "type": "Point"}, "id": "qWv7sZDBGAHlR6ElgRI2hsY-cLU=", "properties": {"@spider": "usps_collection_boxes", "addr:city": "LANGTRY", "addr:country": "US", "addr:full": "95 TORRES AVE # 250", "addr:postcode": "78871", "addr:state": "TX", "brand": "USPS", "collection_times": "Mo-Fr 11:30; Sa 12:00", "name": "USPS COLLECTION BOX - PO LOBBY", "ref": "7887100002"}, "type": "Feature"}
{"geometry": {"coordinates": [-101.5599346164, 29.8088150003], "type": "Point"}, "id": "os4zO5LS2h9AXqa_yMMfShOLMCU=", "properties": {"@spider": "usps_collection_boxes", "addr:city": "LANGTRY", "addr:country": "US", "addr:full": "95 TORRES AVE", "addr:postcode": "78871", "addr:state": "TX", "brand": "USPS", "collection_times": "Mo-Fr 13:00; Sa 12:00", "name": "USPS COLLECTION BOX - PO LOBBY", "note": "ON 12/24 AND 12/31, THIS BOX MAY BE COLLECTED AS EARLY AS 12 NOON.", "ref": "7887100003"}, "type": "Feature"}
{"geometry": {"coordinates": [-99.844032, 28.942003], "type": "Point"}, "id": "Y8FZg64slGdtx1-9DiC1cby2s7M=", "properties": {"@spider": "usps_collection_boxes", "addr:city": "LA PRYOR", "addr:country": "US", "addr:full": "189 W RUE ST", "addr:postcode": "78872", "addr:state": "TX", "brand": "USPS", "collection_times": "Mo-Fr 15:15; Sa 10:00", "name": "USPS COLLECTION BOX - BLUE BOX", "note": "ON 12/24 AND 12/31, THIS BOX MAY BE COLLECTED AS EARLY AS 12 NOON.", "ref": "7887200001"}, "type": "Feature"}
{"geometry": {"coordinates": [-99.844119, 28.942003], "type": "Point"}, "id": "_pjmYiAJRsX1WUyFx-WYVVwco9k=", "properties": {"@spider": "usps_collection_boxes", "addr:city": "LA PRYOR", "addr:country": "US", "addr:full": "189 W RUE ST", "addr:postcode": "78872", "addr:state": "TX", "brand": "USPS", "collection_times": "Mo-Fr 15:00; Sa 10:00", "name": "USPS COLLECTION BOX - PO LOBBY", "note": "ON 12/24 AND 12/31, THIS BOX MAY BE COLLECTED AS EARLY AS 12 NOON.", "ref": "7887200003"}, "type": "Feature"}
{"geometry": {"coordinates": [-99.843942479, 28.942032502], "type": "Point"}, "id": "VBL81EssaG7uNlBgFmjG2yQtxJk=", "properties": {"@spider": "usps_collection_boxes", "addr:city": "LA PRYOR", "addr:country": "US", "addr:full": "189 W RUE ST", "addr:postcode": "78872", "addr:state": "TX", "brand": "USPS", "collection_times": "Mo-Fr 15:00; Sa 10:00", "name": "USPS COLLECTION BOX - PO LOBBY", "note": "ON 12/24 AND 12/31, THIS BOX MAY BE COLLECTED AS EARLY AS 12 NOON.", "ref": "7887200005"}, "type": "Feature"}
{"geometry": {"coordinates": [-99.764967, 29.724706], "type": "Point"}, "id": "a_CcpCE3BR8qGzXuh62Zv5MwPW8=", "properties": {"@spider": "usps_collection_boxes", "addr:city": "LEAKEY", "addr:country": "US", "addr:full": "110 W RANCH ROAD 337", "addr:postcode": "78873", "addr:state": "TX", "brand": "USPS", "collection_times": "Mo-Fr 14:45; Sa 11:00", "name": "USPS COLLECTION BOX - BLUE BOX", "note": "ON 12/24 AND 12/31, THIS BOX MAY BE COLLECTED AS EARLY AS 12 NOON.", "ref": "7887300001"}, "type": "Feature"}
{"geometry": {"coordinates": [-99.764967, 29.724706], "type": "Point"}, "id": "cFWi1bqcneQburp_zwW2kr64fug=", "properties": {"@spider": "usps_collection_boxes", "addr:city": "LEAKEY", "addr:country": "US", "addr:full": "110 W RANCH ROAD 337", "addr:postcode": "78873", "addr:state": "TX", "brand": "USPS", "collection_times": "Mo-Fr 14:45; Sa 11:00", "name": "USPS COLLECTION BOX - PO LOBBY", "note": "ON 12/24 AND 12/31, THIS BOX MAY BE COLLECTED AS EARLY AS 12 NOON.", "ref": "7887300003"}, "type": "Feature"}
{"geometry": {"coordinates": [-99.764967, 29.724706], "type": "Point"}, "id": "Cr6ytp6So5aBiNM-ltsz2_cT5tE=", "properties": {"@spider": "usps_collection_boxes", "addr:city": "LEAKEY", "addr:country": "US", "addr:full": "110 W RANCH ROAD 337", "addr:postcode": "78873", "addr:state": "TX", "brand": "USPS", "collection_times": "Mo-Fr 14:45; Sa 11:00", "name": "USPS COLLECTION BOX - PO LOBBY", "note": "ON 12/24 AND 12/31, THIS BOX MAY BE COLLECTED AS EARLY AS 12 NOON.", "ref": "7887300004"}, "type": "Feature"}
{"geometry": {"coordinates": [-99.764931989, 29.7247377727], "type": "Point"}, "id": "iQQCHdKA48rE77q2tohFCEltZ8s=", "properties": {"@spider": "usps_collection_boxes", "addr:city": "LEAKEY", "addr:country": "US", "addr:full": "110 W RANCH ROAD 337", "addr:postcode": "78873", "addr:state": "TX", "brand": "USPS", "collection_times": "Mo-Fr 14:45", "name": "USPS COLLECTION BOX - PO LOBBY", "note": "ON 12/24 AND 12/31, THIS BOX MAY BE COLLECTED AS EARLY AS 12 NOON.", "ref": "7887300005"}, "type": "Feature"}
{"geometry": {"coordinates": [-100.623955, 28.948112], "type": "Point"}, "id": "Nz4rHXnys3K2pUh4NfUr1Pqp89c=", "properties": {"@spider": "usps_collection_boxes", "addr:city": "QUEMADO", "addr:country": "US", "addr:full": "20001 N HIGHWAY 277", "addr:postcode": "78877", "addr:state": "TX", "brand": "USPS", "collection_times": "Mo-Fr 15:00; Sa 09:45", "name": "USPS COLLECTION BOX - BLUE BOX", "note": "ON 12/24 AND 12/31, THIS BOX MAY BE COLLECTED AS EARLY AS 12 NOON.", "ref": "7887700001"}, "type": "Feature"}
{"geometry": {"coordinates": [-100.623955, 28.948112], "type": "Point"}, "id": "VcCdfyFF0v-QXEFGoIgaLVwcc7U=", "properties": {"@spider": "usps_collection_boxes", "addr:city": "QUEMADO", "addr:country": "US", "addr:full": "20001 N HIGHWAY 277", "addr:postcode": "78877", "addr:state": "TX", "brand": "USPS", "collection_times": "Mo-Fr 14:30; Sa 09:45", "name": "USPS COLLECTION BOX - PO LOBBY", "note": "ON 12/24 AND 12/31, THIS BOX MAY BE COLLECTED AS EARLY AS 12 NOON.", "ref": "7887700002"}, "type": "Feature"}
{"geometry": {"coordinates": [-100.623973753, 28.948061906], "type": "Point"}, "id": "S2EmqqFumhjU0fu9i_r5f8bQv2A=", "properties": {"@spider": "usps_collection_boxes", "addr:city": "QUEMADO", "addr:country": "US", "addr:full": "20001 N HIGHWAY 277", "addr:postcode": "78877", "addr:state": "TX", "brand": "USPS", "collection_times": "Mo-Fr 15:00; Sa 09:45", "name": "USPS COLLECTION BOX - PO LOBBY", "note": "ON 12/24 AND 12/31, THIS BOX MAY BE COLLECTED AS EARLY AS 12 NOON.", "ref": "7887700003"}, "type": "Feature"}
{"geometry": {"coordinates": [-99.7371519, 29.641404], "type": "Point"}, "id": "QRg8LNNqa8QEOscPQ3dX0IhUyPM=", "properties": {"@spider": "usps_collection_boxes", "addr:city": "RIO FRIO", "addr:country": "US", "addr:full": "5615 RANCH ROAD 1120", "addr:postcode": "78879", "addr:state": "TX", "brand": "USPS", "collection_times": "Mo-Fr 15:00; Sa 09:45", "name": "USPS COLLECTION BOX - BLUE BOX", "note": "ON 12/24 AND 12/31, THIS BOX MAY BE COLLECTED AS EARLY AS 12 NOON.", "ref": "7887900001"}, "type": "Feature"}
{"geometry": {"coordinates": [-99.737207, 29.641424], "type": "Point"}, "id": "XE0y3PMkpofbCqEK4vByJvJ0Owc=", "properties": {"@spider": "usps_collection_boxes", "addr:city": "RIO FRIO", "addr:country": "US", "addr:full": "5615 RANCH ROAD 1120", "addr:postcode": "78879", "addr:state": "TX", "brand": "USPS", "collection_times": "Mo-Fr 12:30; Sa 09:45", "name": "USPS COLLECTION BOX - PO LOBBY", "note": "ON 12/24 AND 12/31, THIS BOX MAY BE COLLECTED AS EARLY AS 12 NOON.", "ref": "7887900002"}, "type": "Feature"}
{"geometry": {"coordinates": [-99.73717923, 29.641411293], "type": "Point"}, "id": "96hbezAKj-nnqf7gzYa_e-mFc1g=", "properties": {"@spider": "usps_collection_boxes", "addr:city": "RIO FRIO", "addr:country": "US", "addr:full": "5615 RANCH ROAD 1120", "addr:postcode": "78879", "addr:state": "TX", "brand": "USPS", "collection_times": "Mo-Fr 12:30; Sa 09:45", "name": "USPS COLLECTION BOX - PO LOBBY", "note": "ON 12/24 AND 12/31, THIS BOX MAY BE COLLECTED AS EARLY AS 12 NOON.", "ref": "7887900003"}, "type": "Feature"}
{"geometry": {"coordinates": [-100.207835, 30.01471], "type": "Point"}, "id": "vhVwbe9WHXek_oIXmOAGsHScQnY=", "properties": {"@spider": "usps_collection_boxes", "addr:city": "ROCKSPRINGS", "addr:country": "US", "addr:full": "102 W BANDERA ST", "addr:postcode": "78880", "addr:state": "TX", "brand": "USPS", "collection_times": "Mo-Fr 14:45; Sa 13:00", "name": "USPS COLLECTION BOX - PO LOBBY", "note": "ON 12/24 AND 12/31, THIS BOX MAY BE COLLECTED AS EARLY AS 12 NOON.", "ref": "7888000005"}, "type": "Feature"}
{"geometry": {"coordinates": [-100.207835, 30.01471], "type": "Point"}, "id": "6MJpXKaDxy9-Z77M6NwZQE0Vg5E=", "properties": {"@spider": "usps_collection_boxes", "addr:city": "ROCKSPRINGS", "addr:country": "US", "addr:full": "102 W BANDERA ST", "addr:postcode": "78880", "addr:state": "TX", "brand": "USPS", "collection_times": "Mo-Fr 14:45; Sa 13:00", "name": "USPS COLLECTION BOX - BLUE BOX", "note": "ON 12/24 AND 12/31, THIS BOX MAY BE COLLECTED AS EARLY AS 12 NOON.", "ref": "7888000006"}, "type": "Feature"}
{"geometry": {"coordinates": [-100.2078017219, 30.0147420398], "type": "Point"}, "id": "vctSmmCueOANpzc_At7-1lb2t-o=", "properties": {"@spider": "usps_collection_boxes", "addr:city": "ROCKSPRINGS", "addr:country": "US", "addr:full": "102 W BANDERA ST", "addr:postcode": "78880", "addr:state": "TX", "brand": "USPS", "collection_times": "Mo-Fr 14:45", "name": "USPS COLLECTION BOX - PO LOBBY", "note": "ON 12/24 AND 12/31, THIS BOX MAY BE COLLECTED AS EARLY AS 12 NOON.", "ref": "7888000007"}, "type": "Feature"}
{"geometry": {"coordinates": [-99.46665, 29.319621], "type": "Point"}, "id": "hsbLAK2202ealSfN8puZBU4VTbw=", "properties": {"@spider": "usps_collection_boxes", "addr:city": "SABINAL", "addr:country": "US", "addr:full": "119 N FRONT ST", "addr:postcode": "78881", "addr:state": "TX", "brand": "USPS", "collection_times": "Mo-Fr 15:30; Sa 07:45", "name": "USPS COLLECTION BOX - BLUE BOX", "note": "ON 12/24 AND 12/31, THIS BOX MAY BE COLLECTED AS EARLY AS 12 NOON.", "ref": "7888100002"}, "type": "Feature"}
{"geometry": {"coordinates": [-99.46665, 29.319621], "type": "Point"}, "id": "P550CLBlgPJD2E7SWEvQW3XIIXQ=", "properties": {"@spider": "usps_collection_boxes", "addr:city": "SABINAL", "addr:country": "US", "addr:full": "119 N FRONT ST", "addr:postcode": "78881", "addr:state": "TX", "brand": "USPS", "collection_times": "Mo-Fr 16:30; Sa 07:45", "name": "USPS COLLECTION BOX - PO LOBBY", "note": "ON 12/24 AND 12/31, THIS BOX MAY BE COLLECTED AS EARLY AS 12 NOON.", "ref": "7888100005"}, "type": "Feature"}
{"geometry": {"coordinates": [-99.466682, 29.319647096], "type": "Point"}, "id": "LbXF-hf2YCaxe0yFsBwQm0Llg_s=", "properties": {"@spider": "usps_collection_boxes", "addr:city": "SABINAL", "addr:country": "US", "addr:full": "119 N FRONT ST", "addr:postcode": "78881", "addr:state": "TX", "brand": "USPS", "collection_times": "Mo-Fr 16:30", "name": "USPS COLLECTION BOX - PO LOBBY", "note": "ON 12/24 AND 12/31, THIS BOX MAY BE COLLECTED AS EARLY AS 12 NOON.", "ref": "7888100007"}, "type": "Feature"}
{"geometry": {"coordinates": [-99.526994, 29.619001], "type": "Point"}, "id": "QOQpjrcIy6leyEmF6XOO1tma5KI=", "properties": {"@spider": "usps_collection_boxes", "addr:city": "UTOPIA", "addr:country": "US", "addr:full": "700 N MAIN", "addr:postcode": "78884", "addr:state": "TX", "brand": "USPS", "collection_times": "Mo-Fr 14:30; Sa 10:00", "name": "USPS COLLECTION BOX - BLUE BOX", "note": "ON 12/24 AND 12/31, THIS BOX MAY BE COLLECTED AS EARLY AS 12 NOON.", "ref": "7888400001"}, "type": "Feature"}
{"geometry": {"coordinates": [-99.526994, 29.619001], "type": "Point"}, "id": "Trlx53v_v1hXn_i-KyZYlnkWIEw=", "properties": {"@spider": "usps_collection_boxes", "addr:city": "UTOPIA", "addr:country": "US", "addr:full": "700 N MAIN", "addr:postcode": "78884", "addr:state": "TX", "brand": "USPS", "collection_times": "Mo-Fr 14:30; Sa 10:00", "name": "USPS COLLECTION BOX - PO LOBBY", "note": "ON 12/24 AND 12/31, THIS BOX MAY BE COLLECTED AS EARLY AS 12 NOON.", "ref": "7888400003"}, "type": "Feature"}
{"geometry": {"coordinates": [-99.5269715236, 29.6189654212], "type": "Point"}, "id": "PQBQsFrRs_Lol1f2IoRw9VNoaE4=", "properties": {"@spider": "usps_collection_boxes", "addr:city": "UTOPIA", "addr:country": "US", "addr:full": "700 N MAIN", "addr:postcode": "78884", "addr:state": "TX", "brand": "USPS", "collection_times": "Mo-Fr 14:30; Sa 10:00", "name": "USPS COLLECTION BOX - PO LOBBY", "note": "ON 12/24 AND 12/31, THIS BOX MAY BE COLLECTED AS EARLY AS 12 NOON.", "ref": "7888400004"}, "type": "Feature"}
{"geometry": {"coordinates": [-99.137409973, 29.139698473], "type": "Point"}, "id": "3pTqikmjTRw4StrPRCypoWx_zMY=", "properties": {"@spider": "usps_collection_boxes", "addr:city": "YANCEY", "addr:country": "US", "addr:full": "100 COUNTY ROAD 743", "addr:postcode": "78886", "addr:state": "TX", "brand": "USPS", "collection_times": "Mo-Fr 11:00; Sa 10:30", "name": "USPS COLLECTION BOX - BLUE BOX", "ref": "7888600001"}, "type": "Feature"}
{"geometry": {"coordinates": [-99.137409973, 29.139698473], "type": "Point"}, "id": "-BqXagPxdvQl_0ucAGXUm66ciHE=", "properties": {"@spider": "usps_collection_boxes", "addr:city": "YANCEY", "addr:country": "US", "addr:full": "100 COUNTY ROAD 743", "addr:postcode": "78886", "addr:state": "TX", "brand": "USPS", "collection_times": "Mo-Fr 11:15; Sa 10:30", "name": "USPS COLLECTION BOX - PO LOBBY", "ref": "7888600002"}, "type": "Feature"}
{"geometry": {"coordinates": [-99.137409973, 29.139698473], "type": "Point"}, "id": "1AVlHDP7TTXO_MY5Ea0fMHsI8Is=", "properties": {"@spider": "usps_collection_boxes", "addr:city": "YANCEY", "addr:country": "US", "addr:full": "100 COUNTY ROAD 743", "addr:postcode": "78886", "addr:state": "TX", "brand": "USPS", "collection_times": "Mo-Fr 14:00; Sa 10:30", "name": "USPS COLLECTION BOX - PO LOBBY", "note": "ON 12/24 AND 12/31, THIS BOX MAY BE COLLECTED AS EARLY AS 12 NOON.", "ref": "7888600003"}, "type": "Feature"}
