{"geometry": {"coordinates": [-96.447963774, 30.008333029], "type": "Point"}, "id": "cZCeqPEDBUmO5xrOituUCuFXA_c=", "properties": {"@source_uri": "https://tools.usps.com/UspsToolsRestServices/rest/POLocator/findLocations", "@spider": "usps_collection_boxes", "addr:city": "BLEIBLERVILLE", "addr:country": "US", "addr:postcode": "78931", "addr:state": "TX", "addr:street_address": "3945 FM 2502", "amenity": "post_box", "collection_times": "Mo-Fr 11:45; Sa 12:00", "nsi_id": "unitedstatespostalservice-a77078", "operator": "United States Postal Service", "operator:short": "USPS", "operator:type": "public", "operator:wikidata": "Q668687", "ref": "7893100000"}, "type": "Feature"}
{"geometry": {"coordinates": [-96.447963774, 30.008333029], "type": "Point"}, "id": "gY8U_qep_zWztZn0GTVJG-rRUyI=", "properties": {"@source_uri": "https://tools.usps.com/UspsToolsRestServices/rest/POLocator/findLocations", "@spider": "usps_collection_boxes", "addr:city": "BLEIBLERVILLE", "addr:country": "US", "addr:postcode": "78931", "addr:state": "TX", "addr:street_address": "3945 FM 2502", "amenity": "post_box", "collection_times": "Mo-Fr 11:45; Sa 12:00", "indoor": "yes", "nsi_id": "unitedstatespostalservice-a77078", "operator": "United States Postal Service", "operator:short": "USPS", "operator:type": "public", "operator:wikidata": "Q668687", "ref": "7893100001"}, "type": "Feature"}
{"geometry": {"coordinates": [-96.447963774, 30.008333029], "type": "Point"}, "id": "6I7oX3r-0qwpkeyIEMk4sC1HR4E=", "properties": {"@source_uri": "https://tools.usps.com/UspsToolsRestServices/rest/POLocator/findLocations", "@spider": "usps_collection_boxes", "addr:city": "BLEIBLERVILLE", "addr:country": "US", "addr:postcode": "78931", "addr:state": "TX", "addr:street_address": "3945 FM 2502", "amenity": "post_box", "collection_times": "Mo-Fr 11:45; Sa 12:00", "indoor": "yes", "nsi_id": "unitedstatespostalservice-a77078", "operator": "United States Postal Service", "operator:short": "USPS", "operator:type": "public", "operator:wikidata": "Q668687", "ref": "7893100002"}, "type": "Feature"}
{"geometry": {"coordinates": [-96.447963774, 30.008333029], "type": "Point"}, "id": "KzDFchvmPrdqcVlk1KtYTdXccu8=", "properties": {"@source_uri": "https://tools.usps.com/UspsToolsRestServices/rest/POLocator/findLocations", "@spider": "usps_collection_boxes", "addr:city": "BLEIBLERVILLE", "addr:country": "US", "addr:postcode": "78931", "addr:state": "TX", "addr:street_address": "3945 FM 2502", "amenity": "post_box", "collection_times": "Mo-Sa 12:00", "indoor": "yes", "nsi_id": "unitedstatespostalservice-a77078", "operator": "United States Postal Service", "operator:short": "USPS", "operator:type": "public", "operator:wikidata": "Q668687", "ref": "7893100004"}, "type": "Feature"}
{"geometry": {"coordinates": [-96.6893610157, 30.1488190005], "type": "Point"}, "id": "4w818V69GCWlOE8typUtJ5gdw-w=", "properties": {"@source_uri": "https://tools.usps.com/UspsToolsRestServices/rest/POLocator/findLocations", "@spider": "usps_collection_boxes", "addr:city": "CARMINE", "addr:country": "US", "addr:postcode": "78932", "addr:state": "TX", "addr:street_address": "201 W SYLVAN ST", "amenity": "post_box", "collection_times": "Mo-Fr 14:30; Sa 09:45", "note": "ON 12/24 AND 12/31, THIS BOX MAY BE COLLECTED AS EARLY AS 12 NOON.", "nsi_id": "unitedstatespostalservice-a77078", "operator": "United States Postal Service", "operator:short": "USPS", "operator:type": "public", "operator:wikidata": "Q668687", "ref": "7893200000"}, "type": "Feature"}
{"geometry": {"coordinates": [-96.6893610157, 30.1488190005], "type": "Point"}, "id": "RWCFPJox2oMG_1QfquALBPVM0ek=", "properties": {"@source_uri": "https://tools.usps.com/UspsToolsRestServices/rest/POLocator/findLocations", "@spider": "usps_collection_boxes", "addr:city": "CARMINE", "addr:country": "US", "addr:postcode": "78932", "addr:state": "TX", "addr:street_address": "201 W SYLVAN ST", "amenity": "post_box", "collection_times": "Mo-Fr 14:15; Sa 09:30", "indoor": "yes", "note": "ON 12/24 AND 12/31, THIS BOX MAY BE COLLECTED AS EARLY AS 12 NOON.", "nsi_id": "unitedstatespostalservice-a77078", "operator": "United States Postal Service", "operator:short": "USPS", "operator:type": "public", "operator:wikidata": "Q668687", "ref": "7893200004"}, "type": "Feature"}
{"geometry": {"coordinates": [-96.6893610157, 30.1488190005], "type": "Point"}, "id": "bpTpFOmxMU5l97l0gMkFCPhAmv8=", "properties": {"@source_uri": "https://tools.usps.com/UspsToolsRestServices/rest/POLocator/findLocations", "@spider": "usps_collection_boxes", "addr:city": "CARMINE", "addr:country": "US", "addr:postcode": "78932", "addr:state": "TX", "addr:street_address": "201 W SYLVAN ST", "amenity": "post_box", "collection_times": "Mo-Fr 14:30; Sa 09:45", "indoor": "yes", "note": "ON 12/24 AND 12/31, THIS BOX MAY BE COLLECTED AS EARLY AS 12 NOON.", "nsi_id": "unitedstatespostalservice-a77078", "operator": "United States Postal Service", "operator:short": "USPS", "operator:type": "public", "operator:wikidata": "Q668687", "ref": "7893200005"}, "type": "Feature"}
{"geometry": {"coordinates": [-96.326568469, 29.846938641], "type": "Point"}, "id": "2WC1OG4wxcL--gf6C4myUcmmyXQ=", "properties": {"@source_uri": "https://tools.usps.com/UspsToolsRestServices/rest/POLocator/findLocations", "@spider": "usps_collection_boxes", "addr:city": "CAT SPRING", "addr:country": "US", "addr:postcode": "78933", "addr:state": "TX", "addr:street_address": "182 N FRONT ST", "amenity": "post_box", "collection_times": "Mo-Fr 14:15; Sa 09:30", "note": "ON 12/24 AND 12/31, THIS BOX MAY BE COLLECTED AS EARLY AS 12 NOON.", "nsi_id": "unitedstatespostalservice-a77078", "operator": "United States Postal Service", "operator:short": "USPS", "operator:type": "public", "operator:wikidata": "Q668687", "ref": "7893300000"}, "type": "Feature"}
{"geometry": {"coordinates": [-96.326568469, 29.846938641], "type": "Point"}, "id": "Qfbm8-0VBRTOpMsjb-pa0aKeo1I=", "properties": {"@source_uri": "https://tools.usps.com/UspsToolsRestServices/rest/POLocator/findLocations", "@spider": "usps_collection_boxes", "addr:city": "CAT SPRING", "addr:country": "US", "addr:postcode": "78933", "addr:state": "TX", "addr:street_address": "182 N FRONT ST", "amenity": "post_box", "collection_times": "Mo-Fr 14:30; Sa 09:30", "indoor": "yes", "note": "ON 12/24 AND 12/31, THIS BOX MAY BE COLLECTED AS EARLY AS 12 NOON.", "nsi_id": "unitedstatespostalservice-a77078", "operator": "United States Postal Service", "operator:short": "USPS", "operator:type": "public", "operator:wikidata": "Q668687", "ref": "7893300005"}, "type": "Feature"}
{"geometry": {"coordinates": [-96.550835984, 29.705790994], "type": "Point"}, "id": "9uTBFBQiRU0S1UvI1EJKGO3GFZo=", "properties": {"@source_uri": "https://tools.usps.com/UspsToolsRestServices/rest/POLocator/findLocations", "@spider": "usps_collection_boxes", "addr:city": "COLUMBUS", "addr:country": "US", "addr:postcode": "78934", "addr:state": "TX", "addr:street_address": "1221 WALNUT ST", "amenity": "post_box", "collection_times": "Mo-Fr 16:30; Sa 15:45", "note": "ON 12/24 AND 12/31, THIS BOX MAY BE COLLECTED AS EARLY AS 12 NOON.", "nsi_id": "unitedstatespostalservice-a77078", "operator": "United States Postal Service", "operator:short": "USPS", "operator:type": "public", "operator:wikidata": "Q668687", "ref": "7893400002"}, "type": "Feature"}
{"geometry": {"coordinates": [-96.542429019, 29.693753994], "type": "Point"}, "id": "JyV-SisBUG1ys2u1zUhlgMqj9N4=", "properties": {"@source_uri": "https://tools.usps.com/UspsToolsRestServices/rest/POLocator/findLocations", "@spider": "usps_collection_boxes", "addr:city": "COLUMBUS", "addr:country": "US", "addr:postcode": "78934", "addr:state": "TX", "addr:street_address": "109 SHULT DR", "amenity": "post_box", "collection_times": "Mo-Sa 10:00", "nsi_id": "unitedstatespostalservice-a77078", "operator": "United States Postal Service", "operator:short": "USPS", "operator:type": "public", "operator:wikidata": "Q668687", "ref": "7893400003"}, "type": "Feature"}
{"geometry": {"coordinates": [-96.550835984, 29.705790994], "type": "Point"}, "id": "s1jGDEZqLDQAQW5e-NHa9MwkHaI=", "properties": {"@source_uri": "https://tools.usps.com/UspsToolsRestServices/rest/POLocator/findLocations", "@spider": "usps_collection_boxes", "addr:city": "COLUMBUS", "addr:country": "US", "addr:postcode": "78934", "addr:state": "TX", "addr:street_address": "1221 WALNUT ST", "amenity": "post_box", "collection_times": "Mo-Fr 16:30; Sa 16:00", "indoor": "yes", "note": "ON 12/24 AND 12/31, THIS BOX MAY BE COLLECTED AS EARLY AS 12 NOON.", "nsi_id": "unitedstatespostalservice-a77078", "operator": "United States Postal Service", "operator:short": "USPS", "operator:type": "public", "operator:wikidata": "Q668687", "ref": "7893400006"}, "type": "Feature"}
{"geometry": {"coordinates": [-96.550835984, 29.705790994], "type": "Point"}, "id": "Pmg4S6ZnZnp7xjf7wllTK7Mpua0=", "properties": {"@source_uri": "https://tools.usps.com/UspsToolsRestServices/rest/POLocator/findLocations", "@spider": "usps_collection_boxes", "addr:city": "COLUMBUS", "addr:country": "US", "addr:postcode": "78934", "addr:state": "TX", "addr:street_address": "1221 WALNUT ST", "amenity": "post_box", "collection_times": "Mo-Fr 16:30; Sa 16:00", "indoor": "yes", "note": "ON 12/24 AND 12/31, THIS BOX MAY BE COLLECTED AS EARLY AS 12 NOON.", "nsi_id": "unitedstatespostalservice-a77078", "operator": "United States Postal Service", "operator:short": "USPS", "operator:type": "public", "operator:wikidata": "Q668687", "ref": "7893400007"}, "type": "Feature"}
{"geometry": {"coordinates": [-96.550835984, 29.705790994], "type": "Point"}, "id": "vKYpuvIXhkcSbGGMUKD14wnTb6U=", "properties": {"@source_uri": "https://tools.usps.com/UspsToolsRestServices/rest/POLocator/findLocations", "@spider": "usps_collection_boxes", "addr:city": "COLUMBUS", "addr:country": "US", "addr:postcode": "78934", "addr:state": "TX", "addr:street_address": "1221 WALNUT ST", "amenity": "post_box", "collection_times": "Mo-Fr 16:30; Sa 16:00", "indoor": "yes", "note": "ON 12/24 AND 12/31, THIS BOX MAY BE COLLECTED AS EARLY AS 12 NOON.", "nsi_id": "unitedstatespostalservice-a77078", "operator": "United States Postal Service", "operator:short": "USPS", "operator:type": "public", "operator:wikidata": "Q668687", "ref": "7893400008"}, "type": "Feature"}
{"geometry": {"coordinates": [-96.550835984, 29.705790994], "type": "Point"}, "id": "hsUZk7CHe1QuJchsbFtP05-U3tw=", "properties": {"@source_uri": "https://tools.usps.com/UspsToolsRestServices/rest/POLocator/findLocations", "@spider": "usps_collection_boxes", "addr:city": "COLUMBUS", "addr:country": "US", "addr:postcode": "78934", "addr:state": "TX", "addr:street_address": "1221 WALNUT ST", "amenity": "post_box", "collection_times": "Mo-Fr 16:30; Sa 16:00", "indoor": "yes", "note": "ON 12/24 AND 12/31, THIS BOX MAY BE COLLECTED AS EARLY AS 12 NOON.", "nsi_id": "unitedstatespostalservice-a77078", "operator": "United States Postal Service", "operator:short": "USPS", "operator:type": "public", "operator:wikidata": "Q668687", "ref": "7893400009"}, "type": "Feature"}
{"geometry": {"coordinates": [-96.550835984, 29.705790994], "type": "Point"}, "id": "n6epadBXCz9cXoiLimheybjuKbQ=", "properties": {"@source_uri": "https://tools.usps.com/UspsToolsRestServices/rest/POLocator/findLocations", "@spider": "usps_collection_boxes", "addr:city": "COLUMBUS", "addr:country": "US", "addr:postcode": "78934", "addr:state": "TX", "addr:street_address": "1221 WALNUT ST", "amenity": "post_box", "collection_times": "Mo-Fr 16:30; Sa 12:00", "indoor": "yes", "note": "ON 12/24 AND 12/31, THIS BOX MAY BE COLLECTED AS EARLY AS 12 NOON.", "nsi_id": "unitedstatespostalservice-a77078", "operator": "United States Postal Service", "operator:short": "USPS", "operator:type": "public", "operator:wikidata": "Q668687", "ref": "7893400010"}, "type": "Feature"}
{"geometry": {"coordinates": [-96.703028966, 29.839754007], "type": "Point"}, "id": "KbaRTeNjNaynKDDNBeylSwxXzio=", "properties": {"@source_uri": "https://tools.usps.com/UspsToolsRestServices/rest/POLocator/findLocations", "@spider": "usps_collection_boxes", "addr:city": "ELLINGER", "addr:country": "US", "addr:postcode": "78938", "addr:state": "TX", "addr:street_address": "706 FM 2503", "amenity": "post_box", "collection_times": "Mo-Fr 17:00; Sa 09:30", "note": "ON 12/24 AND 12/31, THIS BOX MAY BE COLLECTED AS EARLY AS 12 NOON.", "nsi_id": "unitedstatespostalservice-a77078", "operator": "United States Postal Service", "operator:short": "USPS", "operator:type": "public", "operator:wikidata": "Q668687", "ref": "7893800000"}, "type": "Feature"}
{"geometry": {"coordinates": [-96.703028966, 29.839754007], "type": "Point"}, "id": "8K_xOLEC-mxANBgP0q36RUN_4Cw=", "properties": {"@source_uri": "https://tools.usps.com/UspsToolsRestServices/rest/POLocator/findLocations", "@spider": "usps_collection_boxes", "addr:city": "ELLINGER", "addr:country": "US", "addr:postcode": "78938", "addr:state": "TX", "addr:street_address": "706 FM 2503", "amenity": "post_box", "collection_times": "Mo-Fr 16:00; Sa 09:30", "indoor": "yes", "note": "ON 12/24 AND 12/31, THIS BOX MAY BE COLLECTED AS EARLY AS 12 NOON.", "nsi_id": "unitedstatespostalservice-a77078", "operator": "United States Postal Service", "operator:short": "USPS", "operator:type": "public", "operator:wikidata": "Q668687", "ref": "7893800002"}, "type": "Feature"}
{"geometry": {"coordinates": [-96.703028966, 29.839754007], "type": "Point"}, "id": "xAMUXrwBUQB57qlnnR9xSd6ngdg=", "properties": {"@source_uri": "https://tools.usps.com/UspsToolsRestServices/rest/POLocator/findLocations", "@spider": "usps_collection_boxes", "addr:city": "ELLINGER", "addr:country": "US", "addr:postcode": "78938", "addr:state": "TX", "addr:street_address": "706 FM 2503", "amenity": "post_box", "collection_times": "Mo-Fr 17:00; Sa 09:45", "indoor": "yes", "note": "ON 12/24 AND 12/31, THIS BOX MAY BE COLLECTED AS EARLY AS 12 NOON.", "nsi_id": "unitedstatespostalservice-a77078", "operator": "United States Postal Service", "operator:short": "USPS", "operator:type": "public", "operator:wikidata": "Q668687", "ref": "7893800003"}, "type": "Feature"}
{"geometry": {"coordinates": [-96.673560961, 29.905529986], "type": "Point"}, "id": "tte5lHW22r-_RkGOwyB1DyA0vlA=", "properties": {"@source_uri": "https://tools.usps.com/UspsToolsRestServices/rest/POLocator/findLocations", "@spider": "usps_collection_boxes", "addr:city": "FAYETTEVILLE", "addr:country": "US", "addr:postcode": "78940", "addr:state": "TX", "addr:street_address": "212 E MAIN ST", "amenity": "post_box", "collection_times": "Mo-Fr 14:30; Sa 10:00", "note": "ON 12/24 AND 12/31, THIS BOX MAY BE COLLECTED AS EARLY AS 12 NOON.", "nsi_id": "unitedstatespostalservice-a77078", "operator": "United States Postal Service", "operator:short": "USPS", "operator:type": "public", "operator:wikidata": "Q668687", "ref": "7894000000"}, "type": "Feature"}
{"geometry": {"coordinates": [-96.673560961, 29.905529986], "type": "Point"}, "id": "YaYcxBfToY5fpu8jYathc4lPY1U=", "properties": {"@source_uri": "https://tools.usps.com/UspsToolsRestServices/rest/POLocator/findLocations", "@spider": "usps_collection_boxes", "addr:city": "FAYETTEVILLE", "addr:country": "US", "addr:postcode": "78940", "addr:state": "TX", "addr:street_address": "212 E MAIN ST", "amenity": "post_box", "collection_times": "Mo-Fr 14:15; Sa 10:00", "indoor": "yes", "note": "ON 12/24 AND 12/31, THIS BOX MAY BE COLLECTED AS EARLY AS 12 NOON.", "nsi_id": "unitedstatespostalservice-a77078", "operator": "United States Postal Service", "operator:short": "USPS", "operator:type": "public", "operator:wikidata": "Q668687", "ref": "7894000003"}, "type": "Feature"}
{"geometry": {"coordinates": [-96.673560961, 29.905529986], "type": "Point"}, "id": "jRiS6CqDIqQBMTGEcrKJ1mqXVao=", "properties": {"@source_uri": "https://tools.usps.com/UspsToolsRestServices/rest/POLocator/findLocations", "@spider": "usps_collection_boxes", "addr:city": "FAYETTEVILLE", "addr:country": "US", "addr:postcode": "78940", "addr:state": "TX", "addr:street_address": "212 E MAIN ST", "amenity": "post_box", "collection_times": "Mo-Fr 14:30; Sa 10:00", "indoor": "yes", "note": "ON 12/24 AND 12/31, THIS BOX MAY BE COLLECTED AS EARLY AS 12 NOON.", "nsi_id": "unitedstatespostalservice-a77078", "operator": "United States Postal Service", "operator:short": "USPS", "operator:type": "public", "operator:wikidata": "Q668687", "ref": "7894000004"}, "type": "Feature"}
{"geometry": {"coordinates": [-97.108036995, 29.686953002], "type": "Point"}, "id": "FJ4jyU9_2csLwnc5WbWpMpkzOpA=", "properties": {"@source_uri": "https://tools.usps.com/UspsToolsRestServices/rest/POLocator/findLocations", "@spider": "usps_collection_boxes", "addr:city": "FLATONIA", "addr:country": "US", "addr:postcode": "78941", "addr:state": "TX", "addr:street_address": "105 E SOUTH MAIN ST", "amenity": "post_box", "collection_times": "Mo-Fr 16:30; Sa 12:00", "note": "ON 12/24 AND 12/31, THIS BOX MAY BE COLLECTED AS EARLY AS 12 NOON.", "nsi_id": "unitedstatespostalservice-a77078", "operator": "United States Postal Service", "operator:short": "USPS", "operator:type": "public", "operator:wikidata": "Q668687", "ref": "7894100000"}, "type": "Feature"}
{"geometry": {"coordinates": [-97.108036995, 29.686953002], "type": "Point"}, "id": "Dq-8wlzJTsrion9yXz8alnMWRdE=", "properties": {"@source_uri": "https://tools.usps.com/UspsToolsRestServices/rest/POLocator/findLocations", "@spider": "usps_collection_boxes", "addr:city": "FLATONIA", "addr:country": "US", "addr:postcode": "78941", "addr:state": "TX", "addr:street_address": "105 E SOUTH MAIN ST", "amenity": "post_box", "collection_times": "Mo-Fr 16:30; Sa 12:00", "indoor": "yes", "note": "ON 12/24 AND 12/31, THIS BOX MAY BE COLLECTED AS EARLY AS 12 NOON.", "nsi_id": "unitedstatespostalservice-a77078", "operator": "United States Postal Service", "operator:short": "USPS", "operator:type": "public", "operator:wikidata": "Q668687", "ref": "7894100004"}, "type": "Feature"}
{"geometry": {"coordinates": [-97.108036995, 29.686953002], "type": "Point"}, "id": "nSJ5K39jZWeD2exI-p23t8ryBUY=", "properties": {"@source_uri": "https://tools.usps.com/UspsToolsRestServices/rest/POLocator/findLocations", "@spider": "usps_collection_boxes", "addr:city": "FLATONIA", "addr:country": "US", "addr:postcode": "78941", "addr:state": "TX", "addr:street_address": "105 E SOUTH MAIN ST", "amenity": "post_box", "collection_times": "Mo-Fr 16:30; Sa 12:00", "indoor": "yes", "note": "ON 12/24 AND 12/31, THIS BOX MAY BE COLLECTED AS EARLY AS 12 NOON.", "nsi_id": "unitedstatespostalservice-a77078", "operator": "United States Postal Service", "operator:short": "USPS", "operator:type": "public", "operator:wikidata": "Q668687", "ref": "7894100005"}, "type": "Feature"}
{"geometry": {"coordinates": [-96.9354970273, 30.1828240045], "type": "Point"}, "id": "rkxoK4yYUmqKWKlLXph-CnN4ZN8=", "properties": {"@source_uri": "https://tools.usps.com/UspsToolsRestServices/rest/POLocator/findLocations", "@spider": "usps_collection_boxes", "addr:city": "GIDDINGS", "addr:country": "US", "addr:postcode": "78942", "addr:state": "TX", "addr:street_address": "279 E AUSTIN ST", "amenity": "post_box", "collection_times": "Mo-Sa 15:30", "note": "ON 12/24 AND 12/31, THIS BOX MAY BE COLLECTED AS EARLY AS 12 NOON.", "nsi_id": "unitedstatespostalservice-a77078", "operator": "United States Postal Service", "operator:short": "USPS", "operator:type": "public", "operator:wikidata": "Q668687", "ref": "7894200000"}, "type": "Feature"}
{"geometry": {"coordinates": [-96.91568598, 30.177820008], "type": "Point"}, "id": "m4B4OH9klj8UO6yvEd-99IxecMg=", "properties": {"@source_uri": "https://tools.usps.com/UspsToolsRestServices/rest/POLocator/findLocations", "@spider": "usps_collection_boxes", "addr:city": "GIDDINGS", "addr:country": "US", "addr:postcode": "78942", "addr:state": "TX", "addr:street_address": "2374 E AUSTIN ST", "amenity": "post_box", "collection_times": "Mo-Sa 10:30", "nsi_id": "unitedstatespostalservice-a77078", "operator": "United States Postal Service", "operator:short": "USPS", "operator:type": "public", "operator:wikidata": "Q668687", "ref": "7894200002"}, "type": "Feature"}
{"geometry": {"coordinates": [-96.935499039, 30.182774006], "type": "Point"}, "id": "EzMfzxfdfICLPQs_ll47_LmfCSs=", "properties": {"@source_uri": "https://tools.usps.com/UspsToolsRestServices/rest/POLocator/findLocations", "@spider": "usps_collection_boxes", "addr:city": "GIDDINGS", "addr:country": "US", "addr:postcode": "78942", "addr:state": "TX", "addr:street_address": "279 E AUSTIN ST", "amenity": "post_box", "collection_times": "Mo-Fr 16:30; Sa 10:00", "indoor": "yes", "note": "ON 12/24 AND 12/31, THIS BOX MAY BE COLLECTED AS EARLY AS 12 NOON.", "nsi_id": "unitedstatespostalservice-a77078", "operator": "United States Postal Service", "operator:short": "USPS", "operator:type": "public", "operator:wikidata": "Q668687", "ref": "7894200004"}, "type": "Feature"}
{"geometry": {"coordinates": [-96.935499039, 30.182774006], "type": "Point"}, "id": "ux-s0T1rAHx5Exs_2_a-NBQ7pV4=", "properties": {"@source_uri": "https://tools.usps.com/UspsToolsRestServices/rest/POLocator/findLocations", "@spider": "usps_collection_boxes", "addr:city": "GIDDINGS", "addr:country": "US", "addr:postcode": "78942", "addr:state": "TX", "addr:street_address": "279 E AUSTIN ST", "amenity": "post_box", "collection_times": "Mo-Fr 16:30; Sa 10:00", "indoor": "yes", "note": "ON 12/24 AND 12/31, THIS BOX MAY BE COLLECTED AS EARLY AS 12 NOON.", "nsi_id": "unitedstatespostalservice-a77078", "operator": "United States Postal Service", "operator:short": "USPS", "operator:type": "public", "operator:wikidata": "Q668687", "ref": "7894200005"}, "type": "Feature"}
{"geometry": {"coordinates": [-96.935499039, 30.182774006], "type": "Point"}, "id": "hJIZRCFo8X2fmc_7G9ekbOY-754=", "properties": {"@source_uri": "https://tools.usps.com/UspsToolsRestServices/rest/POLocator/findLocations", "@spider": "usps_collection_boxes", "addr:city": "GIDDINGS", "addr:country": "US", "addr:postcode": "78942", "addr:state": "TX", "addr:street_address": "279 E AUSTIN ST", "amenity": "post_box", "collection_times": "Mo-Fr 16:30; Sa 11:00", "indoor": "yes", "note": "ON 12/24 AND 12/31, THIS BOX MAY BE COLLECTED AS EARLY AS 12 NOON.", "nsi_id": "unitedstatespostalservice-a77078", "operator": "United States Postal Service", "operator:short": "USPS", "operator:type": "public", "operator:wikidata": "Q668687", "ref": "7894200010"}, "type": "Feature"}
{"geometry": {"coordinates": [-96.502239973, 29.973459989], "type": "Point"}, "id": "wz4iZTZqNhhkfPCaB_3o6jHAmhA=", "properties": {"@source_uri": "https://tools.usps.com/UspsToolsRestServices/rest/POLocator/findLocations", "@spider": "usps_collection_boxes", "addr:city": "INDUSTRY", "addr:country": "US", "addr:postcode": "78944", "addr:state": "TX", "addr:street_address": "7944 ERNST PKWY", "amenity": "post_box", "collection_times": "Mo-Fr 14:30; Sa 10:45", "indoor": "yes", "note": "ON 12/24 AND 12/31, THIS BOX MAY BE COLLECTED AS EARLY AS 12 NOON.", "nsi_id": "unitedstatespostalservice-a77078", "operator": "United States Postal Service", "operator:short": "USPS", "operator:type": "public", "operator:wikidata": "Q668687", "ref": "7894400000"}, "type": "Feature"}
{"geometry": {"coordinates": [-96.4987096, 29.97215], "type": "Point"}, "id": "sOEBfCGkkFItMgeZFVzU3VzkrhQ=", "properties": {"@source_uri": "https://tools.usps.com/UspsToolsRestServices/rest/POLocator/findLocations", "@spider": "usps_collection_boxes", "addr:city": "INDUSTRY", "addr:country": "US", "addr:postcode": "78944", "addr:state": "TX", "addr:street_address": "7944 ERNST PKWY", "amenity": "post_box", "collection_times": "Mo-Fr 14:45; Sa 11:00", "note": "ON 12/24 AND 12/31, THIS BOX MAY BE COLLECTED AS EARLY AS 12 NOON.", "nsi_id": "unitedstatespostalservice-a77078", "operator": "United States Postal Service", "operator:short": "USPS", "operator:type": "public", "operator:wikidata": "Q668687", "ref": "7894400001"}, "type": "Feature"}
{"geometry": {"coordinates": [-96.502239973, 29.973459989], "type": "Point"}, "id": "0SMfburCenoALmGL0ml3d0B5bvo=", "properties": {"@source_uri": "https://tools.usps.com/UspsToolsRestServices/rest/POLocator/findLocations", "@spider": "usps_collection_boxes", "addr:city": "INDUSTRY", "addr:country": "US", "addr:postcode": "78944", "addr:state": "TX", "addr:street_address": "7944 ERNST PKWY", "amenity": "post_box", "collection_times": "Mo-Fr 15:00; Sa 11:00", "indoor": "yes", "note": "ON 12/24 AND 12/31, THIS BOX MAY BE COLLECTED AS EARLY AS 12 NOON.", "nsi_id": "unitedstatespostalservice-a77078", "operator": "United States Postal Service", "operator:short": "USPS", "operator:type": "public", "operator:wikidata": "Q668687", "ref": "7894400003"}, "type": "Feature"}
{"geometry": {"coordinates": [-96.8778260131, 29.9056599894], "type": "Point"}, "id": "GJVSkIoQP6XF3QbgR4CIqoNCgqI=", "properties": {"@source_uri": "https://tools.usps.com/UspsToolsRestServices/rest/POLocator/findLocations", "@spider": "usps_collection_boxes", "addr:city": "LA GRANGE", "addr:country": "US", "addr:postcode": "78945", "addr:state": "TX", "addr:street_address": "134 N WASHINGTON ST", "amenity": "post_box", "collection_times": "Mo-Fr 17:00; Sa 15:00", "note": "ON 12/24 AND 12/31, THIS BOX MAY BE COLLECTED AS EARLY AS 12 NOON.", "nsi_id": "unitedstatespostalservice-a77078", "operator": "United States Postal Service", "operator:short": "USPS", "operator:type": "public", "operator:wikidata": "Q668687", "ref": "7894500001"}, "type": "Feature"}
{"geometry": {"coordinates": [-96.8794530243, 29.9056490091], "type": "Point"}, "id": "Q2aDonsVrrZRxdY7DJpLH4X_tkA=", "properties": {"@source_uri": "https://tools.usps.com/UspsToolsRestServices/rest/POLocator/findLocations", "@spider": "usps_collection_boxes", "addr:city": "LA GRANGE", "addr:country": "US", "addr:postcode": "78945", "addr:state": "TX", "addr:street_address": "262 W COLORADO ST", "amenity": "post_box", "collection_times": "Mo-Fr 17:00; Sa 15:00", "note": "ON 12/24 AND 12/31, THIS BOX MAY BE COLLECTED AS EARLY AS 12 NOON.", "nsi_id": "unitedstatespostalservice-a77078", "operator": "United States Postal Service", "operator:short": "USPS", "operator:type": "public", "operator:wikidata": "Q668687", "ref": "7894500002"}, "type": "Feature"}
{"geometry": {"coordinates": [-96.875990963, 29.904201999], "type": "Point"}, "id": "a1hxvZY_gFKOFzV7mw3m9dHFmPc=", "properties": {"@source_uri": "https://tools.usps.com/UspsToolsRestServices/rest/POLocator/findLocations", "@spider": "usps_collection_boxes", "addr:city": "LA GRANGE", "addr:country": "US", "addr:postcode": "78945", "addr:state": "TX", "addr:street_address": "107 W CROCKETT ST", "amenity": "post_box", "collection_times": "Mo-Sa 15:00", "note": "ON 12/24 AND 12/31, THIS BOX MAY BE COLLECTED AS EARLY AS 12 NOON.", "nsi_id": "unitedstatespostalservice-a77078", "operator": "United States Postal Service", "operator:short": "USPS", "operator:type": "public", "operator:wikidata": "Q668687", "ref": "7894500005"}, "type": "Feature"}
{"geometry": {"coordinates": [-96.875523001, 29.911988997], "type": "Point"}, "id": "Mxf3eAjt-LoM5IUnO-xVdmtiQEA=", "properties": {"@source_uri": "https://tools.usps.com/UspsToolsRestServices/rest/POLocator/findLocations", "@spider": "usps_collection_boxes", "addr:city": "LA GRANGE", "addr:country": "US", "addr:postcode": "78945", "addr:state": "TX", "addr:street_address": "543 N JACKSON ST", "amenity": "post_box", "collection_times": "Mo-Sa 15:00", "note": "ON 12/24 AND 12/31, THIS BOX MAY BE COLLECTED AS EARLY AS 12 NOON.", "nsi_id": "unitedstatespostalservice-a77078", "operator": "United States Postal Service", "operator:short": "USPS", "operator:type": "public", "operator:wikidata": "Q668687", "ref": "7894500006"}, "type": "Feature"}
{"geometry": {"coordinates": [-96.8772339993, 29.9069039896], "type": "Point"}, "id": "gxIG0imAeuciBskNv-BPNjfYbZY=", "properties": {"@source_uri": "https://tools.usps.com/UspsToolsRestServices/rest/POLocator/findLocations", "@spider": "usps_collection_boxes", "addr:city": "LA GRANGE", "addr:country": "US", "addr:postcode": "78945", "addr:state": "TX", "addr:street_address": "113 E COLORADO ST", "amenity": "post_box", "collection_times": "Mo-Fr 17:00; Sa 16:00", "note": "ON 12/24 AND 12/31, THIS BOX MAY BE COLLECTED AS EARLY AS 12 NOON.", "nsi_id": "unitedstatespostalservice-a77078", "operator": "United States Postal Service", "operator:short": "USPS", "operator:type": "public", "operator:wikidata": "Q668687", "ref": "7894500007"}, "type": "Feature"}
{"geometry": {"coordinates": [-96.873099961, 29.915104005], "type": "Point"}, "id": "-YBeRdReu90dsOjLQbAn7__L8XI=", "properties": {"@source_uri": "https://tools.usps.com/UspsToolsRestServices/rest/POLocator/findLocations", "@spider": "usps_collection_boxes", "addr:city": "LA GRANGE", "addr:country": "US", "addr:postcode": "78945", "addr:state": "TX", "addr:street_address": "750 E UPPER LINE ST", "amenity": "post_box", "collection_times": "Mo-Sa 11:00", "nsi_id": "unitedstatespostalservice-a77078", "operator": "United States Postal Service", "operator:short": "USPS", "operator:type": "public", "operator:wikidata": "Q668687", "ref": "7894500010"}, "type": "Feature"}
{"geometry": {"coordinates": [-96.908662029, 29.9027059972], "type": "Point"}, "id": "_-9RjRnAe2mHoHDGZcWcsV0Eo4I=", "properties": {"@source_uri": "https://tools.usps.com/UspsToolsRestServices/rest/POLocator/findLocations", "@spider": "usps_collection_boxes", "addr:city": "LA GRANGE", "addr:country": "US", "addr:postcode": "78945", "addr:state": "TX", "addr:street_address": "2125 W STATE HIGHWAY 71", "amenity": "post_box", "collection_times": "Mo-Sa 15:00", "note": "ON 12/24 AND 12/31, THIS BOX MAY BE COLLECTED AS EARLY AS 12 NOON.", "nsi_id": "unitedstatespostalservice-a77078", "operator": "United States Postal Service", "operator:short": "USPS", "operator:type": "public", "operator:wikidata": "Q668687", "ref": "7894500011"}, "type": "Feature"}
{"geometry": {"coordinates": [-96.8772339993, 29.9069039896], "type": "Point"}, "id": "3lDOFFOV2l2C_9eCqQjh6Wk1d4c=", "properties": {"@source_uri": "https://tools.usps.com/UspsToolsRestServices/rest/POLocator/findLocations", "@spider": "usps_collection_boxes", "addr:city": "LA GRANGE", "addr:country": "US", "addr:postcode": "78945", "addr:state": "TX", "addr:street_address": "113 E COLORADO ST", "amenity": "post_box", "collection_times": "Mo-Fr 17:30; Sa 16:00", "indoor": "yes", "note": "ON 12/24 AND 12/31, THIS BOX MAY BE COLLECTED AS EARLY AS 12 NOON.", "nsi_id": "unitedstatespostalservice-a77078", "operator": "United States Postal Service", "operator:short": "USPS", "operator:type": "public", "operator:wikidata": "Q668687", "ref": "7894500013"}, "type": "Feature"}
{"geometry": {"coordinates": [-96.8772339993, 29.9069039896], "type": "Point"}, "id": "wpPRwbe2i60u_drTUJe-uBQyPjg=", "properties": {"@source_uri": "https://tools.usps.com/UspsToolsRestServices/rest/POLocator/findLocations", "@spider": "usps_collection_boxes", "addr:city": "LA GRANGE", "addr:country": "US", "addr:postcode": "78945", "addr:state": "TX", "addr:street_address": "113 E COLORADO ST", "amenity": "post_box", "collection_times": "Mo-Fr 16:30", "indoor": "yes", "note": "ON 12/24 AND 12/31, THIS BOX MAY BE COLLECTED AS EARLY AS 12 NOON.", "nsi_id": "unitedstatespostalservice-a77078", "operator": "United States Postal Service", "operator:short": "USPS", "operator:type": "public", "operator:wikidata": "Q668687", "ref": "7894500016"}, "type": "Feature"}
{"geometry": {"coordinates": [-96.793029987, 30.148934], "type": "Point"}, "id": "4pg36xZ-pvZv6NvfMAbuBFQYTHM=", "properties": {"@source_uri": "https://tools.usps.com/UspsToolsRestServices/rest/POLocator/findLocations", "@spider": "usps_collection_boxes", "addr:city": "LEDBETTER", "addr:country": "US", "addr:postcode": "78946", "addr:state": "TX", "addr:street_address": "104 CHAPPEL ST", "amenity": "post_box", "collection_times": "Mo-Sa 10:45", "nsi_id": "unitedstatespostalservice-a77078", "operator": "United States Postal Service", "operator:short": "USPS", "operator:type": "public", "operator:wikidata": "Q668687", "ref": "7894600000"}, "type": "Feature"}
{"geometry": {"coordinates": [-96.793029987, 30.148934], "type": "Point"}, "id": "piS7Z1YtLK452rXmAM4DvGHMudg=", "properties": {"@source_uri": "https://tools.usps.com/UspsToolsRestServices/rest/POLocator/findLocations", "@spider": "usps_collection_boxes", "addr:city": "LEDBETTER", "addr:country": "US", "addr:postcode": "78946", "addr:state": "TX", "addr:street_address": "104 CHAPPEL ST", "amenity": "post_box", "collection_times": "Mo-Sa 10:45", "indoor": "yes", "nsi_id": "unitedstatespostalservice-a77078", "operator": "United States Postal Service", "operator:short": "USPS", "operator:type": "public", "operator:wikidata": "Q668687", "ref": "7894600001"}, "type": "Feature"}
{"geometry": {"coordinates": [-96.793029987, 30.148934], "type": "Point"}, "id": "umrtOwQupKscNx8iZjbtPD0OcqI=", "properties": {"@source_uri": "https://tools.usps.com/UspsToolsRestServices/rest/POLocator/findLocations", "@spider": "usps_collection_boxes", "addr:city": "LEDBETTER", "addr:country": "US", "addr:postcode": "78946", "addr:state": "TX", "addr:street_address": "104 CHAPPEL ST", "amenity": "post_box", "collection_times": "Mo-Fr 11:00", "indoor": "yes", "nsi_id": "unitedstatespostalservice-a77078", "operator": "United States Postal Service", "operator:short": "USPS", "operator:type": "public", "operator:wikidata": "Q668687", "ref": "7894600002"}, "type": "Feature"}
{"geometry": {"coordinates": [-97.009294991, 30.415275009], "type": "Point"}, "id": "uUP4oYKjGiQQ1tn7cDBsBg0ngfM=", "properties": {"@source_uri": "https://tools.usps.com/UspsToolsRestServices/rest/POLocator/findLocations", "@spider": "usps_collection_boxes", "addr:city": "LEXINGTON", "addr:country": "US", "addr:postcode": "78947", "addr:state": "TX", "addr:street_address": "624 N ROCKDALE ST", "amenity": "post_box", "collection_times": "Mo-Fr 16:15; Sa 09:45", "note": "ON 12/24 AND 12/31, THIS BOX MAY BE COLLECTED AS EARLY AS 12 NOON.", "nsi_id": "unitedstatespostalservice-a77078", "operator": "United States Postal Service", "operator:short": "USPS", "operator:type": "public", "operator:wikidata": "Q668687", "ref": "7894700000"}, "type": "Feature"}
{"geometry": {"coordinates": [-97.009294991, 30.415275009], "type": "Point"}, "id": "KEGRT6hrf-yVfmMU3FyV9q4Zjls=", "properties": {"@source_uri": "https://tools.usps.com/UspsToolsRestServices/rest/POLocator/findLocations", "@spider": "usps_collection_boxes", "addr:city": "LEXINGTON", "addr:country": "US", "addr:postcode": "78947", "addr:state": "TX", "addr:street_address": "624 N ROCKDALE ST", "amenity": "post_box", "collection_times": "Mo-Fr 16:30; Sa 10:00", "indoor": "yes", "note": "ON 12/24 AND 12/31, THIS BOX MAY BE COLLECTED AS EARLY AS 12 NOON.", "nsi_id": "unitedstatespostalservice-a77078", "operator": "United States Postal Service", "operator:short": "USPS", "operator:type": "public", "operator:wikidata": "Q668687", "ref": "7894700003"}, "type": "Feature"}
{"geometry": {"coordinates": [-97.009294991, 30.415275009], "type": "Point"}, "id": "sQqxbY1KK93pxYCWIXGk7X_AIB4=", "properties": {"@source_uri": "https://tools.usps.com/UspsToolsRestServices/rest/POLocator/findLocations", "@spider": "usps_collection_boxes", "addr:city": "LEXINGTON", "addr:country": "US", "addr:postcode": "78947", "addr:state": "TX", "addr:street_address": "624 N ROCKDALE ST", "amenity": "post_box", "collection_times": "Mo-Fr 16:30; Sa 10:00", "indoor": "yes", "note": "ON 12/24 AND 12/31, THIS BOX MAY BE COLLECTED AS EARLY AS 12 NOON.", "nsi_id": "unitedstatespostalservice-a77078", "operator": "United States Postal Service", "operator:short": "USPS", "operator:type": "public", "operator:wikidata": "Q668687", "ref": "7894700004"}, "type": "Feature"}
{"geometry": {"coordinates": [-97.009294991, 30.415275009], "type": "Point"}, "id": "EPbALxjc2_lD9nJIuIS2xlyu24k=", "properties": {"@source_uri": "https://tools.usps.com/UspsToolsRestServices/rest/POLocator/findLocations", "@spider": "usps_collection_boxes", "addr:city": "LEXINGTON", "addr:country": "US", "addr:postcode": "78947", "addr:state": "TX", "addr:street_address": "624 N ROCKDALE ST", "amenity": "post_box", "collection_times": "Mo-Fr 16:30", "indoor": "yes", "note": "ON 12/24 AND 12/31, THIS BOX MAY BE COLLECTED AS EARLY AS 12 NOON.", "nsi_id": "unitedstatespostalservice-a77078", "operator": "United States Postal Service", "operator:short": "USPS", "operator:type": "public", "operator:wikidata": "Q668687", "ref": "7894700006"}, "type": "Feature"}
{"geometry": {"coordinates": [-96.963849988, 30.28785998], "type": "Point"}, "id": "6zWkfsar0AW_4Of2Kt42MbZk3IY=", "properties": {"@source_uri": "https://tools.usps.com/UspsToolsRestServices/rest/POLocator/findLocations", "@spider": "usps_collection_boxes", "addr:city": "LINCOLN", "addr:country": "US", "addr:postcode": "78948", "addr:state": "TX", "addr:street_address": "1243 MAIN AVE", "amenity": "post_box", "collection_times": "Mo-Fr 11:45; Sa 10:15", "nsi_id": "unitedstatespostalservice-a77078", "operator": "United States Postal Service", "operator:short": "USPS", "operator:type": "public", "operator:wikidata": "Q668687", "ref": "7894800000"}, "type": "Feature"}
{"geometry": {"coordinates": [-96.963849988, 30.28785998], "type": "Point"}, "id": "oOu7_fNpJl5Fzx6IRZEAKetVONA=", "properties": {"@source_uri": "https://tools.usps.com/UspsToolsRestServices/rest/POLocator/findLocations", "@spider": "usps_collection_boxes", "addr:city": "LINCOLN", "addr:country": "US", "addr:postcode": "78948", "addr:state": "TX", "addr:street_address": "1243 MAIN AVE", "amenity": "post_box", "collection_times": "Mo-Fr 12:00; Sa 10:30", "indoor": "yes", "nsi_id": "unitedstatespostalservice-a77078", "operator": "United States Postal Service", "operator:short": "USPS", "operator:type": "public", "operator:wikidata": "Q668687", "ref": "7894800002"}, "type": "Feature"}
{"geometry": {"coordinates": [-96.963849988, 30.28785998], "type": "Point"}, "id": "nt-7k9S7_BMY8umqYXJNLoj0QYE=", "properties": {"@source_uri": "https://tools.usps.com/UspsToolsRestServices/rest/POLocator/findLocations", "@spider": "usps_collection_boxes", "addr:city": "LINCOLN", "addr:country": "US", "addr:postcode": "78948", "addr:state": "TX", "addr:street_address": "1243 MAIN AVE", "amenity": "post_box", "collection_times": "Mo-Fr 12:00; Sa 10:30", "indoor": "yes", "nsi_id": "unitedstatespostalservice-a77078", "operator": "United States Postal Service", "operator:short": "USPS", "operator:type": "public", "operator:wikidata": "Q668687", "ref": "7894800003"}, "type": "Feature"}
{"geometry": {"coordinates": [-96.488600018, 29.890160006], "type": "Point"}, "id": "hsWsbbA_0OTlcXCYm5ZGIfIeddM=", "properties": {"@source_uri": "https://tools.usps.com/UspsToolsRestServices/rest/POLocator/findLocations", "@spider": "usps_collection_boxes", "addr:city": "NEW ULM", "addr:country": "US", "addr:postcode": "78950", "addr:state": "TX", "addr:street_address": "824 PECAN ST", "amenity": "post_box", "collection_times": "Mo-Fr 15:45; Sa 09:45", "note": "ON 12/24 AND 12/31, THIS BOX MAY BE COLLECTED AS EARLY AS 12 NOON.", "nsi_id": "unitedstatespostalservice-a77078", "operator": "United States Postal Service", "operator:short": "USPS", "operator:type": "public", "operator:wikidata": "Q668687", "ref": "7895000000"}, "type": "Feature"}
{"geometry": {"coordinates": [-96.488600018, 29.890160006], "type": "Point"}, "id": "xiIc5NLlpQCktWS1kN6uSlWJMvw=", "properties": {"@source_uri": "https://tools.usps.com/UspsToolsRestServices/rest/POLocator/findLocations", "@spider": "usps_collection_boxes", "addr:city": "NEW ULM", "addr:country": "US", "addr:postcode": "78950", "addr:state": "TX", "addr:street_address": "824 PECAN ST", "amenity": "post_box", "collection_times": "Mo-Fr 16:00", "indoor": "yes", "note": "ON 12/24 AND 12/31, THIS BOX MAY BE COLLECTED AS EARLY AS 12 NOON.", "nsi_id": "unitedstatespostalservice-a77078", "operator": "United States Postal Service", "operator:short": "USPS", "operator:type": "public", "operator:wikidata": "Q668687", "ref": "7895000004"}, "type": "Feature"}
{"geometry": {"coordinates": [-96.9752590158, 29.929977986], "type": "Point"}, "id": "halCdlBmFBT4oaT2CriL89U6hR8=", "properties": {"@source_uri": "https://tools.usps.com/UspsToolsRestServices/rest/POLocator/findLocations", "@spider": "usps_collection_boxes", "addr:city": "PLUM", "addr:country": "US", "addr:postcode": "78952", "addr:state": "TX", "addr:street_address": "240 PLUM CHURCH RD", "amenity": "post_box", "collection_times": "Mo-Fr 12:05; Sa 09:45", "note": "ON 12/24 AND 12/31, THIS BOX MAY BE COLLECTED AS EARLY AS 12 NOON.", "nsi_id": "unitedstatespostalservice-a77078", "operator": "United States Postal Service", "operator:short": "USPS", "operator:type": "public", "operator:wikidata": "Q668687", "ref": "7895200000"}, "type": "Feature"}
{"geometry": {"coordinates": [-96.975269996, 29.929966], "type": "Point"}, "id": "H2fu8uuNFpErlUpPj3j_XN2a1O0=", "properties": {"@source_uri": "https://tools.usps.com/UspsToolsRestServices/rest/POLocator/findLocations", "@spider": "usps_collection_boxes", "addr:city": "PLUM", "addr:country": "US", "addr:postcode": "78952", "addr:state": "TX", "addr:street_address": "240 PLUM CHURCH RD", "amenity": "post_box", "collection_times": "Mo-Fr 12:00; Sa 10:00", "indoor": "yes", "nsi_id": "unitedstatespostalservice-a77078", "operator": "United States Postal Service", "operator:short": "USPS", "operator:type": "public", "operator:wikidata": "Q668687", "ref": "7895200003"}, "type": "Feature"}
{"geometry": {"coordinates": [-97.293561035, 29.930003006], "type": "Point"}, "id": "fQP0v5O0amsmCCbzC6aAHp8Y0Ug=", "properties": {"@source_uri": "https://tools.usps.com/UspsToolsRestServices/rest/POLocator/findLocations", "@spider": "usps_collection_boxes", "addr:city": "ROSANKY", "addr:country": "US", "addr:postcode": "78953", "addr:state": "TX", "addr:street_address": "2024 FM 535", "amenity": "post_box", "collection_times": "Mo-Fr 11:30; Sa 09:15", "nsi_id": "unitedstatespostalservice-a77078", "operator": "United States Postal Service", "operator:short": "USPS", "operator:type": "public", "operator:wikidata": "Q668687", "ref": "7895300000"}, "type": "Feature"}
{"geometry": {"coordinates": [-97.293561035, 29.930003006], "type": "Point"}, "id": "ZymwRr7Im_oh8Z69Kzcnakxt08U=", "properties": {"@source_uri": "https://tools.usps.com/UspsToolsRestServices/rest/POLocator/findLocations", "@spider": "usps_collection_boxes", "addr:city": "ROSANKY", "addr:country": "US", "addr:postcode": "78953", "addr:state": "TX", "addr:street_address": "2024 FM 535", "amenity": "post_box", "collection_times": "Mo-Fr 11:45; Sa 09:45", "indoor": "yes", "nsi_id": "unitedstatespostalservice-a77078", "operator": "United States Postal Service", "operator:short": "USPS", "operator:type": "public", "operator:wikidata": "Q668687", "ref": "7895300003"}, "type": "Feature"}
{"geometry": {"coordinates": [-97.293561035, 29.930003006], "type": "Point"}, "id": "Flsf2_yjqT9MKz842RFISt1OG-c=", "properties": {"@source_uri": "https://tools.usps.com/UspsToolsRestServices/rest/POLocator/findLocations", "@spider": "usps_collection_boxes", "addr:city": "ROSANKY", "addr:country": "US", "addr:postcode": "78953", "addr:state": "TX", "addr:street_address": "2024 FM 535", "amenity": "post_box", "collection_times": "Mo-Fr 12:00; Sa 09:30", "indoor": "yes", "nsi_id": "unitedstatespostalservice-a77078", "operator": "United States Postal Service", "operator:short": "USPS", "operator:type": "public", "operator:wikidata": "Q668687", "ref": "7895300004"}, "type": "Feature"}
{"geometry": {"coordinates": [-96.6930479634, 30.0635980116], "type": "Point"}, "id": "1tbnRScf9cEmBsm9deuiHONhoqY=", "properties": {"@source_uri": "https://tools.usps.com/UspsToolsRestServices/rest/POLocator/findLocations", "@spider": "usps_collection_boxes", "addr:city": "ROUND TOP", "addr:country": "US", "addr:postcode": "78954", "addr:state": "TX", "addr:street_address": "395 E MILL ST", "amenity": "post_box", "collection_times": "Mo-Fr 16:30; Sa 09:30", "note": "ON 12/24 AND 12/31, THIS BOX MAY BE COLLECTED AS EARLY AS 12 NOON.", "nsi_id": "unitedstatespostalservice-a77078", "operator": "United States Postal Service", "operator:short": "USPS", "operator:type": "public", "operator:wikidata": "Q668687", "ref": "7895400000"}, "type": "Feature"}
{"geometry": {"coordinates": [-96.6930479634, 30.0635980117], "type": "Point"}, "id": "rsURvZb3PKsDNwiQOb_zCekuhiY=", "properties": {"@source_uri": "https://tools.usps.com/UspsToolsRestServices/rest/POLocator/findLocations", "@spider": "usps_collection_boxes", "addr:city": "ROUND TOP", "addr:country": "US", "addr:postcode": "78954", "addr:state": "TX", "addr:street_address": "395 E MILL ST", "amenity": "post_box", "collection_times": "Mo-Fr 16:30; Sa 09:30", "indoor": "yes", "note": "ON 12/24 AND 12/31, THIS BOX MAY BE COLLECTED AS EARLY AS 12 NOON.", "nsi_id": "unitedstatespostalservice-a77078", "operator": "United States Postal Service", "operator:short": "USPS", "operator:type": "public", "operator:wikidata": "Q668687", "ref": "7895400002"}, "type": "Feature"}
{"geometry": {"coordinates": [-96.6930479634, 30.0635980117], "type": "Point"}, "id": "woDiJVKRlLn79zXEaoe2Q27egpw=", "properties": {"@source_uri": "https://tools.usps.com/UspsToolsRestServices/rest/POLocator/findLocations", "@spider": "usps_collection_boxes", "addr:city": "ROUND TOP", "addr:country": "US", "addr:postcode": "78954", "addr:state": "TX", "addr:street_address": "395 E MILL ST", "amenity": "post_box", "collection_times": "Mo-Fr 16:30; Sa 09:30", "indoor": "yes", "note": "ON 12/24 AND 12/31, THIS BOX MAY BE COLLECTED AS EARLY AS 12 NOON.", "nsi_id": "unitedstatespostalservice-a77078", "operator": "United States Postal Service", "operator:short": "USPS", "operator:type": "public", "operator:wikidata": "Q668687", "ref": "7895400003"}, "type": "Feature"}
{"geometry": {"coordinates": [-96.6930479634, 30.0635980116], "type": "Point"}, "id": "Y8Qye65Srhq2-Hy6apq1000vHvk=", "properties": {"@source_uri": "https://tools.usps.com/UspsToolsRestServices/rest/POLocator/findLocations", "@spider": "usps_collection_boxes", "addr:city": "ROUND TOP", "addr:country": "US", "addr:postcode": "78954", "addr:state": "TX", "addr:street_address": "395 E MILL ST", "amenity": "post_box", "collection_times": "Mo-Fr 16:15; Sa 09:30", "indoor": "yes", "note": "ON 12/24 AND 12/31, THIS BOX MAY BE COLLECTED AS EARLY AS 12 NOON.", "nsi_id": "unitedstatespostalservice-a77078", "operator": "United States Postal Service", "operator:short": "USPS", "operator:type": "public", "operator:wikidata": "Q668687", "ref": "7895400006"}, "type": "Feature"}
{"geometry": {"coordinates": [-96.907743037, 29.680721015], "type": "Point"}, "id": "6G-Q_Ncb_otnhHgf3lOMwObDIQY=", "properties": {"@source_uri": "https://tools.usps.com/UspsToolsRestServices/rest/POLocator/findLocations", "@spider": "usps_collection_boxes", "addr:city": "SCHULENBURG", "addr:country": "US", "addr:postcode": "78956", "addr:state": "TX", "addr:street_address": "622 ANDERSON ST", "amenity": "post_box", "collection_times": "Mo-Fr 16:30; Sa 14:00", "note": "ON 12/24 AND 12/31, THIS BOX MAY BE COLLECTED AS EARLY AS 12 NOON.", "nsi_id": "unitedstatespostalservice-a77078", "operator": "United States Postal Service", "operator:short": "USPS", "operator:type": "public", "operator:wikidata": "Q668687", "ref": "7895600000"}, "type": "Feature"}
{"geometry": {"coordinates": [-96.907743037, 29.680721015], "type": "Point"}, "id": "a8glhuA7PfQVXI25MlP4fT1cfwE=", "properties": {"@source_uri": "https://tools.usps.com/UspsToolsRestServices/rest/POLocator/findLocations", "@spider": "usps_collection_boxes", "addr:city": "SCHULENBURG", "addr:country": "US", "addr:postcode": "78956", "addr:state": "TX", "addr:street_address": "622 ANDERSON ST", "amenity": "post_box", "collection_times": "Mo-Fr 16:30; Sa 14:00", "indoor": "yes", "note": "ON 12/24 AND 12/31, THIS BOX MAY BE COLLECTED AS EARLY AS 12 NOON.", "nsi_id": "unitedstatespostalservice-a77078", "operator": "United States Postal Service", "operator:short": "USPS", "operator:type": "public", "operator:wikidata": "Q668687", "ref": "7895600004"}, "type": "Feature"}
{"geometry": {"coordinates": [-96.907743037, 29.680721015], "type": "Point"}, "id": "6Rbg7v9LJrp-jdDg6DQ23bp8pxc=", "properties": {"@source_uri": "https://tools.usps.com/UspsToolsRestServices/rest/POLocator/findLocations", "@spider": "usps_collection_boxes", "addr:city": "SCHULENBURG", "addr:country": "US", "addr:postcode": "78956", "addr:state": "TX", "addr:street_address": "622 ANDERSON ST", "amenity": "post_box", "collection_times": "Mo-Fr 16:30; Sa 14:00", "indoor": "yes", "note": "ON 12/24 AND 12/31, THIS BOX MAY BE COLLECTED AS EARLY AS 12 NOON.", "nsi_id": "unitedstatespostalservice-a77078", "operator": "United States Postal Service", "operator:short": "USPS", "operator:type": "public", "operator:wikidata": "Q668687", "ref": "7895600005"}, "type": "Feature"}
{"geometry": {"coordinates": [-96.907743037, 29.680721015], "type": "Point"}, "id": "T-zBwkHCmTmoegeLywxmErqNuNY=", "properties": {"@source_uri": "https://tools.usps.com/UspsToolsRestServices/rest/POLocator/findLocations", "@spider": "usps_collection_boxes", "addr:city": "SCHULENBURG", "addr:country": "US", "addr:postcode": "78956", "addr:state": "TX", "addr:street_address": "622 ANDERSON ST", "amenity": "post_box", "collection_times": "Mo-Fr 16:30", "indoor": "yes", "note": "ON 12/24 AND 12/31, THIS BOX MAY BE COLLECTED AS EARLY AS 12 NOON.", "nsi_id": "unitedstatespostalservice-a77078", "operator": "United States Postal Service", "operator:short": "USPS", "operator:type": "public", "operator:wikidata": "Q668687", "ref": "7895600007"}, "type": "Feature"}
{"geometry": {"coordinates": [-97.158696967, 30.009417012], "type": "Point"}, "id": "4rGvmvaCNZjIf7o-i3uLICke6F8=", "properties": {"@source_uri": "https://tools.usps.com/UspsToolsRestServices/rest/POLocator/findLocations", "@spider": "usps_collection_boxes", "addr:city": "SMITHVILLE", "addr:country": "US", "addr:postcode": "78957", "addr:state": "TX", "addr:street_address": "400 MAIN ST", "amenity": "post_box", "collection_times": "Mo-Sa 16:45", "note": "ON 12/24 AND 12/31, THIS BOX MAY BE COLLECTED AS EARLY AS 12 NOON.", "nsi_id": "unitedstatespostalservice-a77078", "operator": "United States Postal Service", "operator:short": "USPS", "operator:type": "public", "operator:wikidata": "Q668687", "ref": "7895700000"}, "type": "Feature"}
{"geometry": {"coordinates": [-97.158696967, 30.009417012], "type": "Point"}, "id": "-dA_voBh2LFVQci79278jUHbxI4=", "properties": {"@source_uri": "https://tools.usps.com/UspsToolsRestServices/rest/POLocator/findLocations", "@spider": "usps_collection_boxes", "addr:city": "SMITHVILLE", "addr:country": "US", "addr:postcode": "78957", "addr:state": "TX", "addr:street_address": "400 MAIN ST", "amenity": "post_box", "collection_times": "Mo-Sa 16:30", "indoor": "yes", "note": "ON 12/24 AND 12/31, THIS BOX MAY BE COLLECTED AS EARLY AS 12 NOON.", "nsi_id": "unitedstatespostalservice-a77078", "operator": "United States Postal Service", "operator:short": "USPS", "operator:type": "public", "operator:wikidata": "Q668687", "ref": "7895700010"}, "type": "Feature"}
{"geometry": {"coordinates": [-97.158696967, 30.009417012], "type": "Point"}, "id": "V5bMLm4k_L1bwPDy96XLYsntwas=", "properties": {"@source_uri": "https://tools.usps.com/UspsToolsRestServices/rest/POLocator/findLocations", "@spider": "usps_collection_boxes", "addr:city": "SMITHVILLE", "addr:country": "US", "addr:postcode": "78957", "addr:state": "TX", "addr:street_address": "400 MAIN ST", "amenity": "post_box", "collection_times": "Mo-Sa 16:30", "indoor": "yes", "note": "ON 12/24 AND 12/31, THIS BOX MAY BE COLLECTED AS EARLY AS 12 NOON.", "nsi_id": "unitedstatespostalservice-a77078", "operator": "United States Postal Service", "operator:short": "USPS", "operator:type": "public", "operator:wikidata": "Q668687", "ref": "7895700011"}, "type": "Feature"}
{"geometry": {"coordinates": [-97.158696967, 30.009417012], "type": "Point"}, "id": "TvicQMtRC9FV-lPQ_Ly9lT0XmLc=", "properties": {"@source_uri": "https://tools.usps.com/UspsToolsRestServices/rest/POLocator/findLocations", "@spider": "usps_collection_boxes", "addr:city": "SMITHVILLE", "addr:country": "US", "addr:postcode": "78957", "addr:state": "TX", "addr:street_address": "400 MAIN ST", "amenity": "post_box", "collection_times": "Mo-Sa 16:30", "indoor": "yes", "note": "ON 12/24 AND 12/31, THIS BOX MAY BE COLLECTED AS EARLY AS 12 NOON.", "nsi_id": "unitedstatespostalservice-a77078", "operator": "United States Postal Service", "operator:short": "USPS", "operator:type": "public", "operator:wikidata": "Q668687", "ref": "7895700012"}, "type": "Feature"}
{"geometry": {"coordinates": [-97.14533504, 30.002910979], "type": "Point"}, "id": "b5uwXurUg12rYnBiXKmbR3_lFvY=", "properties": {"@source_uri": "https://tools.usps.com/UspsToolsRestServices/rest/POLocator/findLocations", "@spider": "usps_collection_boxes", "addr:city": "SMITHVILLE", "addr:country": "US", "addr:postcode": "78957", "addr:state": "TX", "addr:street_address": "1501 NE LOOP 230", "amenity": "post_box", "collection_times": "Mo-Sa 14:00", "note": "ON 12/24 AND 12/31, THIS BOX MAY BE COLLECTED AS EARLY AS 12 NOON.", "nsi_id": "unitedstatespostalservice-a77078", "operator": "United States Postal Service", "operator:short": "USPS", "operator:type": "public", "operator:wikidata": "Q668687", "ref": "7895700013"}, "type": "Feature"}
{"geometry": {"coordinates": [-97.158696967, 30.009417012], "type": "Point"}, "id": "82t8o_SQnm2iBbKHdXgVWYeUpAA=", "properties": {"@source_uri": "https://tools.usps.com/UspsToolsRestServices/rest/POLocator/findLocations", "@spider": "usps_collection_boxes", "addr:city": "SMITHVILLE", "addr:country": "US", "addr:postcode": "78957", "addr:state": "TX", "addr:street_address": "400 MAIN ST", "amenity": "post_box", "collection_times": "Mo-Fr 16:30; Sa 12:00", "indoor": "yes", "note": "ON 12/24 AND 12/31, THIS BOX MAY BE COLLECTED AS EARLY AS 12 NOON.", "nsi_id": "unitedstatespostalservice-a77078", "operator": "United States Postal Service", "operator:short": "USPS", "operator:type": "public", "operator:wikidata": "Q668687", "ref": "7895700014"}, "type": "Feature"}
{"geometry": {"coordinates": [-97.300135971, 29.693689336], "type": "Point"}, "id": "6Ts-Yu-bkKZ_EgORla5ZcMepX-Y=", "properties": {"@source_uri": "https://tools.usps.com/UspsToolsRestServices/rest/POLocator/findLocations", "@spider": "usps_collection_boxes", "addr:city": "WAELDER", "addr:country": "US", "addr:postcode": "78959", "addr:state": "TX", "addr:street_address": "423 W US HIGHWAY 90", "amenity": "post_box", "collection_times": "Mo-Fr 14:30; Sa 09:00", "note": "ON 12/24 AND 12/31, THIS BOX MAY BE COLLECTED AS EARLY AS 12 NOON.", "nsi_id": "unitedstatespostalservice-a77078", "operator": "United States Postal Service", "operator:short": "USPS", "operator:type": "public", "operator:wikidata": "Q668687", "ref": "7895900000"}, "type": "Feature"}
{"geometry": {"coordinates": [-97.300135971, 29.693689336], "type": "Point"}, "id": "jwLRQvzFveP8wRH6ZSZZLk9LPsI=", "properties": {"@source_uri": "https://tools.usps.com/UspsToolsRestServices/rest/POLocator/findLocations", "@spider": "usps_collection_boxes", "addr:city": "WAELDER", "addr:country": "US", "addr:postcode": "78959", "addr:state": "TX", "addr:street_address": "423 W US HIGHWAY 90", "amenity": "post_box", "collection_times": "Mo-Fr 14:45; Sa 08:00", "indoor": "yes", "note": "ON 12/24 AND 12/31, THIS BOX MAY BE COLLECTED AS EARLY AS 12 NOON.", "nsi_id": "unitedstatespostalservice-a77078", "operator": "United States Postal Service", "operator:short": "USPS", "operator:type": "public", "operator:wikidata": "Q668687", "ref": "7895900005"}, "type": "Feature"}
{"geometry": {"coordinates": [-97.300135971, 29.693689336], "type": "Point"}, "id": "C-sxRMNXU2yld22RPdr-ejk_nEk=", "properties": {"@source_uri": "https://tools.usps.com/UspsToolsRestServices/rest/POLocator/findLocations", "@spider": "usps_collection_boxes", "addr:city": "WAELDER", "addr:country": "US", "addr:postcode": "78959", "addr:state": "TX", "addr:street_address": "423 W US HIGHWAY 90", "amenity": "post_box", "collection_times": "Mo-Fr 14:30", "indoor": "yes", "note": "ON 12/24 AND 12/31, THIS BOX MAY BE COLLECTED AS EARLY AS 12 NOON.", "nsi_id": "unitedstatespostalservice-a77078", "operator": "United States Postal Service", "operator:short": "USPS", "operator:type": "public", "operator:wikidata": "Q668687", "ref": "7895900006"}, "type": "Feature"}
{"geometry": {"coordinates": [-96.9137589805, 30.054321005], "type": "Point"}, "id": "xsCTy_kGqvTVtfHwr66lxhRQoPI=", "properties": {"@source_uri": "https://tools.usps.com/UspsToolsRestServices/rest/POLocator/findLocations", "@spider": "usps_collection_boxes", "addr:city": "WARDA", "addr:country": "US", "addr:postcode": "78960", "addr:state": "TX", "addr:street_address": "5621 S US HIGHWAY 77", "amenity": "post_box", "collection_times": "Mo-Fr 16:15; Sa 09:30", "note": "ON 12/24 AND 12/31, THIS BOX MAY BE COLLECTED AS EARLY AS 12 NOON.", "nsi_id": "unitedstatespostalservice-a77078", "operator": "United States Postal Service", "operator:short": "USPS", "operator:type": "public", "operator:wikidata": "Q668687", "ref": "7896000000"}, "type": "Feature"}
{"geometry": {"coordinates": [-96.913758981, 30.054321005], "type": "Point"}, "id": "ejESQU17Xuhq9QS4fi4qZEbKWOY=", "properties": {"@source_uri": "https://tools.usps.com/UspsToolsRestServices/rest/POLocator/findLocations", "@spider": "usps_collection_boxes", "addr:city": "WARDA", "addr:country": "US", "addr:postcode": "78960", "addr:state": "TX", "addr:street_address": "5621 S US HIGHWAY 77", "amenity": "post_box", "collection_times": "Mo-Fr 16:45; Sa 10:00", "indoor": "yes", "note": "ON 12/24 AND 12/31, THIS BOX MAY BE COLLECTED AS EARLY AS 12 NOON.", "nsi_id": "unitedstatespostalservice-a77078", "operator": "United States Postal Service", "operator:short": "USPS", "operator:type": "public", "operator:wikidata": "Q668687", "ref": "7896000001"}, "type": "Feature"}
{"geometry": {"coordinates": [-96.913758981, 30.054321005], "type": "Point"}, "id": "lbnjW0iffbkRrm-3dE1ReGJ8IzU=", "properties": {"@source_uri": "https://tools.usps.com/UspsToolsRestServices/rest/POLocator/findLocations", "@spider": "usps_collection_boxes", "addr:city": "WARDA", "addr:country": "US", "addr:postcode": "78960", "addr:state": "TX", "addr:street_address": "5621 S US HIGHWAY 77", "amenity": "post_box", "collection_times": "Mo-Fr 16:45; Sa 09:45", "indoor": "yes", "note": "ON 12/24 AND 12/31, THIS BOX MAY BE COLLECTED AS EARLY AS 12 NOON.", "nsi_id": "unitedstatespostalservice-a77078", "operator": "United States Postal Service", "operator:short": "USPS", "operator:type": "public", "operator:wikidata": "Q668687", "ref": "7896000004"}, "type": "Feature"}
{"geometry": {"coordinates": [-96.780739163, 29.70263941], "type": "Point"}, "id": "N68AfoIx0y5BhllBpDxAdfd4Ojw=", "properties": {"@source_uri": "https://tools.usps.com/UspsToolsRestServices/rest/POLocator/findLocations", "@spider": "usps_collection_boxes", "addr:city": "WEIMAR", "addr:country": "US", "addr:postcode": "78962", "addr:state": "TX", "addr:street_address": "100 E MAIN ST", "amenity": "post_box", "collection_times": "Mo-Sa 16:30", "note": "ON 12/24 AND 12/31, THIS BOX MAY BE COLLECTED AS EARLY AS 12 NOON.", "nsi_id": "unitedstatespostalservice-a77078", "operator": "United States Postal Service", "operator:short": "USPS", "operator:type": "public", "operator:wikidata": "Q668687", "ref": "7896200000"}, "type": "Feature"}
{"geometry": {"coordinates": [-96.780739163, 29.70263941], "type": "Point"}, "id": "TrTvPSwtlPrjRU2Rr5RuDCBjhG4=", "properties": {"@source_uri": "https://tools.usps.com/UspsToolsRestServices/rest/POLocator/findLocations", "@spider": "usps_collection_boxes", "addr:city": "WEIMAR", "addr:country": "US", "addr:postcode": "78962", "addr:state": "TX", "addr:street_address": "100 E MAIN ST", "amenity": "post_box", "collection_times": "Mo-Sa 16:30", "indoor": "yes", "note": "ON 12/24 AND 12/31, THIS BOX MAY BE COLLECTED AS EARLY AS 12 NOON.", "nsi_id": "unitedstatespostalservice-a77078", "operator": "United States Postal Service", "operator:short": "USPS", "operator:type": "public", "operator:wikidata": "Q668687", "ref": "7896200004"}, "type": "Feature"}
{"geometry": {"coordinates": [-96.780739163, 29.70263941], "type": "Point"}, "id": "vXrJUj57M09QD1QDMnnrQSHoj2A=", "properties": {"@source_uri": "https://tools.usps.com/UspsToolsRestServices/rest/POLocator/findLocations", "@spider": "usps_collection_boxes", "addr:city": "WEIMAR", "addr:country": "US", "addr:postcode": "78962", "addr:state": "TX", "addr:street_address": "100 E MAIN ST", "amenity": "post_box", "collection_times": "Mo-Fr 16:30; Sa 10:30", "indoor": "yes", "note": "ON 12/24 AND 12/31, THIS BOX MAY BE COLLECTED AS EARLY AS 12 NOON.", "nsi_id": "unitedstatespostalservice-a77078", "operator": "United States Postal Service", "operator:short": "USPS", "operator:type": "public", "operator:wikidata": "Q668687", "ref": "7896200005"}, "type": "Feature"}
