{"geometry": {"coordinates": [-102.66703, 35.271163], "type": "Point"}, "id": "CHheMFH5fF79JrjRpcyS3ub04og=", "properties": {"@source_uri": "https://tools.usps.com/UspsToolsRestServices/rest/POLocator/findLocations", "@spider": "usps_collection_boxes", "addr:city": "ADRIAN", "addr:country": "US", "addr:postcode": "79001", "addr:state": "TX", "addr:street_address": "201 HISTORIC ROUTE 66", "amenity": "post_box", "collection_times": "Mo-Fr 12:45; Sa 08:00", "indoor": "yes", "note": "ON 12/24 AND 12/31, THIS BOX MAY BE COLLECTED AS EARLY AS 12 NOON.", "nsi_id": "unitedstatespostalservice-a77078", "operator": "United States Postal Service", "operator:short": "USPS", "operator:type": "public", "operator:wikidata": "Q668687", "ref": "7900100002"}, "type": "Feature"}
{"geometry": {"coordinates": [-102.66696432, 35.271225253], "type": "Point"}, "id": "muZ5stFFR68-7R2m0nnmiAo19s0=", "properties": {"@source_uri": "https://tools.usps.com/UspsToolsRestServices/rest/POLocator/findLocations", "@spider": "usps_collection_boxes", "addr:city": "ADRIAN", "addr:country": "US", "addr:postcode": "79001", "addr:state": "TX", "addr:street_address": "201 HISTORIC ROUTE 66", "amenity": "post_box", "collection_times": "Mo-Fr 13:00", "indoor": "yes", "note": "ON 12/24 AND 12/31, THIS BOX MAY BE COLLECTED AS EARLY AS 12 NOON.", "nsi_id": "unitedstatespostalservice-a77078", "operator": "United States Postal Service", "operator:short": "USPS", "operator:type": "public", "operator:wikidata": "Q668687", "ref": "7900100004"}, "type": "Feature"}
{"geometry": {"coordinates": [-100.10055, 35.606892], "type": "Point"}, "id": "Hi6rCgBcKo16jNL0snCBbLonwGA=", "properties": {"@source_uri": "https://tools.usps.com/UspsToolsRestServices/rest/POLocator/findLocations", "@spider": "usps_collection_boxes", "addr:city": "ALLISON", "addr:country": "US", "addr:postcode": "79003", "addr:state": "TX", "addr:street_address": "105 WHEELER AVE", "amenity": "post_box", "collection_times": "Mo-Fr 11:45; Sa 09:45", "indoor": "yes", "nsi_id": "unitedstatespostalservice-a77078", "operator": "United States Postal Service", "operator:short": "USPS", "operator:type": "public", "operator:wikidata": "Q668687", "ref": "7900300000"}, "type": "Feature"}
{"geometry": {"coordinates": [-100.100649421, 35.607187673], "type": "Point"}, "id": "Q-zc7rt8so4XZTwD1rzVXlW7FV0=", "properties": {"@source_uri": "https://tools.usps.com/UspsToolsRestServices/rest/POLocator/findLocations", "@spider": "usps_collection_boxes", "addr:city": "ALLISON", "addr:country": "US", "addr:postcode": "79003", "addr:state": "TX", "addr:street_address": "105 WHEELER AVE", "amenity": "post_box", "collection_times": "Mo-Fr 12:00; Sa 10:00", "indoor": "yes", "nsi_id": "unitedstatespostalservice-a77078", "operator": "United States Postal Service", "operator:short": "USPS", "operator:type": "public", "operator:wikidata": "Q668687", "ref": "7900300001"}, "type": "Feature"}
{"geometry": {"coordinates": [-100.537503, 36.454191], "type": "Point"}, "id": "nSEe7iEXRITV2BoQtxZtPuPgdBw=", "properties": {"@source_uri": "https://tools.usps.com/UspsToolsRestServices/rest/POLocator/findLocations", "@spider": "usps_collection_boxes", "addr:city": "BOOKER", "addr:country": "US", "addr:postcode": "79005", "addr:state": "TX", "addr:street_address": "122 S AUSTIN ST", "amenity": "post_box", "collection_times": "Mo-Fr 15:30; Sa 09:30", "indoor": "yes", "note": "ON 12/24 AND 12/31, THIS BOX MAY BE COLLECTED AS EARLY AS 12 NOON.", "nsi_id": "unitedstatespostalservice-a77078", "operator": "United States Postal Service", "operator:short": "USPS", "operator:type": "public", "operator:wikidata": "Q668687", "ref": "7900500000"}, "type": "Feature"}
{"geometry": {"coordinates": [-100.53747, 36.45424], "type": "Point"}, "id": "nR8UnBqW4JcCbQY_TkLuDbYMdqw=", "properties": {"@source_uri": "https://tools.usps.com/UspsToolsRestServices/rest/POLocator/findLocations", "@spider": "usps_collection_boxes", "addr:city": "BOOKER", "addr:country": "US", "addr:postcode": "79005", "addr:state": "TX", "addr:street_address": "122 S AUSTIN ST", "amenity": "post_box", "collection_times": "Mo-Fr 15:30; Sa 09:30", "note": "ON 12/24 AND 12/31, THIS BOX MAY BE COLLECTED AS EARLY AS 12 NOON.", "nsi_id": "unitedstatespostalservice-a77078", "operator": "United States Postal Service", "operator:short": "USPS", "operator:type": "public", "operator:wikidata": "Q668687", "ref": "7900500001"}, "type": "Feature"}
{"geometry": {"coordinates": [-100.537504133, 36.453636], "type": "Point"}, "id": "hApAwIhqb3_Br9bP8vJXHPlb804=", "properties": {"@source_uri": "https://tools.usps.com/UspsToolsRestServices/rest/POLocator/findLocations", "@spider": "usps_collection_boxes", "addr:city": "BOOKER", "addr:country": "US", "addr:postcode": "79005", "addr:state": "TX", "addr:street_address": "122 S AUSTIN ST", "amenity": "post_box", "collection_times": "Mo-Fr 15:30", "indoor": "yes", "note": "ON 12/24 AND 12/31, THIS BOX MAY BE COLLECTED AS EARLY AS 12 NOON.", "nsi_id": "unitedstatespostalservice-a77078", "operator": "United States Postal Service", "operator:short": "USPS", "operator:type": "public", "operator:wikidata": "Q668687", "ref": "7900500003"}, "type": "Feature"}
{"geometry": {"coordinates": [-101.3946779824, 35.6614670091], "type": "Point"}, "id": "z66SryyUczdVN4TdM9ZNtbRTBis=", "properties": {"@source_uri": "https://tools.usps.com/UspsToolsRestServices/rest/POLocator/findLocations", "@spider": "usps_collection_boxes", "addr:city": "BORGER", "addr:country": "US", "addr:postcode": "79007", "addr:state": "TX", "addr:street_address": "500 S MCGEE ST", "amenity": "post_box", "collection_times": "Mo-Fr 16:30; Sa 15:30", "note": "ON 12/24 AND 12/31, THIS BOX MAY BE COLLECTED AS EARLY AS 12 NOON.", "nsi_id": "unitedstatespostalservice-a77078", "operator": "United States Postal Service", "operator:short": "USPS", "operator:type": "public", "operator:wikidata": "Q668687", "ref": "7900700011"}, "type": "Feature"}
{"geometry": {"coordinates": [-101.394835, 35.661574], "type": "Point"}, "id": "Q7YI53m-FZsE0GBbaSG7KFkP9iA=", "properties": {"@source_uri": "https://tools.usps.com/UspsToolsRestServices/rest/POLocator/findLocations", "@spider": "usps_collection_boxes", "addr:city": "BORGER", "addr:country": "US", "addr:postcode": "79007", "addr:state": "TX", "addr:street_address": "500 S MCGEE ST", "amenity": "post_box", "collection_times": "Mo-Fr 16:30; Sa 15:30", "indoor": "yes", "note": "ON 12/24 AND 12/31, THIS BOX MAY BE COLLECTED AS EARLY AS 12 NOON.", "nsi_id": "unitedstatespostalservice-a77078", "operator": "United States Postal Service", "operator:short": "USPS", "operator:type": "public", "operator:wikidata": "Q668687", "ref": "7900700015"}, "type": "Feature"}
{"geometry": {"coordinates": [-101.394849, 35.661552], "type": "Point"}, "id": "yipyXwI3q8qRw4zJG0eQ5B-wXjg=", "properties": {"@source_uri": "https://tools.usps.com/UspsToolsRestServices/rest/POLocator/findLocations", "@spider": "usps_collection_boxes", "addr:city": "BORGER", "addr:country": "US", "addr:postcode": "79007", "addr:state": "TX", "addr:street_address": "500 S MCGEE ST", "amenity": "post_box", "collection_times": "Mo-Fr 16:30; Sa 15:30", "indoor": "yes", "note": "ON 12/24 AND 12/31, THIS BOX MAY BE COLLECTED AS EARLY AS 12 NOON.", "nsi_id": "unitedstatespostalservice-a77078", "operator": "United States Postal Service", "operator:short": "USPS", "operator:type": "public", "operator:wikidata": "Q668687", "ref": "7900700016"}, "type": "Feature"}
{"geometry": {"coordinates": [-101.39431682, 35.661455696], "type": "Point"}, "id": "8nJyGAYc4_B9dX_nvZG9khDRQlo=", "properties": {"@source_uri": "https://tools.usps.com/UspsToolsRestServices/rest/POLocator/findLocations", "@spider": "usps_collection_boxes", "addr:city": "BORGER", "addr:country": "US", "addr:postcode": "79007", "addr:state": "TX", "addr:street_address": "500 S MCGEE ST", "amenity": "post_box", "collection_times": "Mo-Fr 16:30", "indoor": "yes", "note": "ON 12/24 AND 12/31, THIS BOX MAY BE COLLECTED AS EARLY AS 12 NOON.", "nsi_id": "unitedstatespostalservice-a77078", "operator": "United States Postal Service", "operator:short": "USPS", "operator:type": "public", "operator:wikidata": "Q668687", "ref": "7900700020"}, "type": "Feature"}
{"geometry": {"coordinates": [-102.888217, 34.520018], "type": "Point"}, "id": "KidDUqHlbNK-cX5D_zYit93PRtA=", "properties": {"@source_uri": "https://tools.usps.com/UspsToolsRestServices/rest/POLocator/findLocations", "@spider": "usps_collection_boxes", "addr:city": "BOVINA", "addr:country": "US", "addr:postcode": "79009", "addr:state": "TX", "addr:street_address": "108 2ND ST", "amenity": "post_box", "collection_times": "Mo-Fr 15:15; Sa 10:30", "note": "ON 12/24 AND 12/31, THIS BOX MAY BE COLLECTED AS EARLY AS 12 NOON.", "nsi_id": "unitedstatespostalservice-a77078", "operator": "United States Postal Service", "operator:short": "USPS", "operator:type": "public", "operator:wikidata": "Q668687", "ref": "7900900001"}, "type": "Feature"}
{"geometry": {"coordinates": [-102.88825, 34.520093], "type": "Point"}, "id": "jVSAbEb8GlSdVjZqKXbVzvaibCc=", "properties": {"@source_uri": "https://tools.usps.com/UspsToolsRestServices/rest/POLocator/findLocations", "@spider": "usps_collection_boxes", "addr:city": "BOVINA", "addr:country": "US", "addr:postcode": "79009", "addr:state": "TX", "addr:street_address": "108 2ND ST", "amenity": "post_box", "collection_times": "Mo-Fr 15:30; Sa 10:30", "indoor": "yes", "note": "ON 12/24 AND 12/31, THIS BOX MAY BE COLLECTED AS EARLY AS 12 NOON.", "nsi_id": "unitedstatespostalservice-a77078", "operator": "United States Postal Service", "operator:short": "USPS", "operator:type": "public", "operator:wikidata": "Q668687", "ref": "7900900003"}, "type": "Feature"}
{"geometry": {"coordinates": [-102.88774374, 34.519538746], "type": "Point"}, "id": "xUKPxJKfR5nZRVMiaylHUBKo_jk=", "properties": {"@source_uri": "https://tools.usps.com/UspsToolsRestServices/rest/POLocator/findLocations", "@spider": "usps_collection_boxes", "addr:city": "BOVINA", "addr:country": "US", "addr:postcode": "79009", "addr:state": "TX", "addr:street_address": "108 2ND ST", "amenity": "post_box", "collection_times": "Mo-Fr 15:30", "indoor": "yes", "note": "ON 12/24 AND 12/31, THIS BOX MAY BE COLLECTED AS EARLY AS 12 NOON.", "nsi_id": "unitedstatespostalservice-a77078", "operator": "United States Postal Service", "operator:short": "USPS", "operator:type": "public", "operator:wikidata": "Q668687", "ref": "7900900005"}, "type": "Feature"}
{"geometry": {"coordinates": [-100.286926, 35.58447], "type": "Point"}, "id": "HzSrBdYPnMgDf47tx27zl7_EESM=", "properties": {"@source_uri": "https://tools.usps.com/UspsToolsRestServices/rest/POLocator/findLocations", "@spider": "usps_collection_boxes", "addr:city": "BRISCOE", "addr:country": "US", "addr:postcode": "79011", "addr:state": "TX", "addr:street_address": "15715 FM 1046", "amenity": "post_box", "collection_times": "Mo-Fr 14:30; Sa 10:30", "indoor": "yes", "note": "ON 12/24 AND 12/31, THIS BOX MAY BE COLLECTED AS EARLY AS 12 NOON.", "nsi_id": "unitedstatespostalservice-a77078", "operator": "United States Postal Service", "operator:short": "USPS", "operator:type": "public", "operator:wikidata": "Q668687", "ref": "7901100001"}, "type": "Feature"}
{"geometry": {"coordinates": [-100.288584031, 35.583776453], "type": "Point"}, "id": "h8QEYAlAkEuqkNWmwcUtD_YDNWM=", "properties": {"@source_uri": "https://tools.usps.com/UspsToolsRestServices/rest/POLocator/findLocations", "@spider": "usps_collection_boxes", "addr:city": "BRISCOE", "addr:country": "US", "addr:postcode": "79011", "addr:state": "TX", "addr:street_address": "15715 FM 1046", "amenity": "post_box", "collection_times": "Mo-Fr 14:30; Sa 10:30", "indoor": "yes", "note": "ON 12/24 AND 12/31, THIS BOX MAY BE COLLECTED AS EARLY AS 12 NOON.", "nsi_id": "unitedstatespostalservice-a77078", "operator": "United States Postal Service", "operator:short": "USPS", "operator:type": "public", "operator:wikidata": "Q668687", "ref": "7901100003"}, "type": "Feature"}
{"geometry": {"coordinates": [-102.063981, 35.185562], "type": "Point"}, "id": "00vgLp3lmfZf1LU1-WWZcHeHS1I=", "properties": {"@source_uri": "https://tools.usps.com/UspsToolsRestServices/rest/POLocator/findLocations", "@spider": "usps_collection_boxes", "addr:city": "BUSHLAND", "addr:country": "US", "addr:postcode": "79012", "addr:state": "TX", "addr:street_address": "300 SIMMONS RD", "amenity": "post_box", "collection_times": "Mo-Fr 16:00; Sa 09:00", "indoor": "yes", "note": "ON 12/24 AND 12/31, THIS BOX MAY BE COLLECTED AS EARLY AS 12 NOON.", "nsi_id": "unitedstatespostalservice-a77078", "operator": "United States Postal Service", "operator:short": "USPS", "operator:type": "public", "operator:wikidata": "Q668687", "ref": "7901200002"}, "type": "Feature"}
{"geometry": {"coordinates": [-102.064039925, 35.185496575], "type": "Point"}, "id": "2OcccRdSNzC8HKQ1o01NS2u0-hs=", "properties": {"@source_uri": "https://tools.usps.com/UspsToolsRestServices/rest/POLocator/findLocations", "@spider": "usps_collection_boxes", "addr:city": "BUSHLAND", "addr:country": "US", "addr:postcode": "79012", "addr:state": "TX", "addr:street_address": "300 SIMMONS RD", "amenity": "post_box", "collection_times": "Mo-Fr 16:30; Sa 09:00", "indoor": "yes", "note": "ON 12/24 AND 12/31, THIS BOX MAY BE COLLECTED AS EARLY AS 12 NOON.", "nsi_id": "unitedstatespostalservice-a77078", "operator": "United States Postal Service", "operator:short": "USPS", "operator:type": "public", "operator:wikidata": "Q668687", "ref": "7901200003"}, "type": "Feature"}
{"geometry": {"coordinates": [-102.005154, 36.051661], "type": "Point"}, "id": "V8JlWrL308u5jAPO4hFuW2xB3as=", "properties": {"@source_uri": "https://tools.usps.com/UspsToolsRestServices/rest/POLocator/findLocations", "@spider": "usps_collection_boxes", "addr:city": "CACTUS", "addr:country": "US", "addr:postcode": "79013", "addr:state": "TX", "addr:street_address": "103 NORTH DR", "amenity": "post_box", "collection_times": "Mo-Fr 16:00; Sa 09:30", "note": "ON 12/24 AND 12/31, THIS BOX MAY BE COLLECTED AS EARLY AS 12 NOON.", "nsi_id": "unitedstatespostalservice-a77078", "operator": "United States Postal Service", "operator:short": "USPS", "operator:type": "public", "operator:wikidata": "Q668687", "ref": "7901300000"}, "type": "Feature"}
{"geometry": {"coordinates": [-102.005039, 36.051672], "type": "Point"}, "id": "qIxhLK7uTJanMLicmFgHxTy77FE=", "properties": {"@source_uri": "https://tools.usps.com/UspsToolsRestServices/rest/POLocator/findLocations", "@spider": "usps_collection_boxes", "addr:city": "CACTUS", "addr:country": "US", "addr:postcode": "79013", "addr:state": "TX", "addr:street_address": "103 NORTH DR", "amenity": "post_box", "collection_times": "Mo-Fr 16:00; Sa 09:30", "indoor": "yes", "note": "ON 12/24 AND 12/31, THIS BOX MAY BE COLLECTED AS EARLY AS 12 NOON.", "nsi_id": "unitedstatespostalservice-a77078", "operator": "United States Postal Service", "operator:short": "USPS", "operator:type": "public", "operator:wikidata": "Q668687", "ref": "7901300001"}, "type": "Feature"}
{"geometry": {"coordinates": [-102.005292672, 36.051604218], "type": "Point"}, "id": "SIwhJFcJy7erUuCDumr483Hy5a0=", "properties": {"@source_uri": "https://tools.usps.com/UspsToolsRestServices/rest/POLocator/findLocations", "@spider": "usps_collection_boxes", "addr:city": "CACTUS", "addr:country": "US", "addr:postcode": "79013", "addr:state": "TX", "addr:street_address": "103 NORTH DR", "amenity": "post_box", "collection_times": "Mo-Fr 16:00", "indoor": "yes", "note": "ON 12/24 AND 12/31, THIS BOX MAY BE COLLECTED AS EARLY AS 12 NOON.", "nsi_id": "unitedstatespostalservice-a77078", "operator": "United States Postal Service", "operator:short": "USPS", "operator:type": "public", "operator:wikidata": "Q668687", "ref": "7901300003"}, "type": "Feature"}
{"geometry": {"coordinates": [-100.384619, 35.913387], "type": "Point"}, "id": "6GJXeAwopD4E7XvcfNdwkZpmsYU=", "properties": {"@source_uri": "https://tools.usps.com/UspsToolsRestServices/rest/POLocator/findLocations", "@spider": "usps_collection_boxes", "addr:city": "CANADIAN", "addr:country": "US", "addr:postcode": "79014", "addr:state": "TX", "addr:street_address": "311 PURCELL AVE", "amenity": "post_box", "collection_times": "Mo-Fr 15:45; Sa 10:00", "note": "ON 12/24 AND 12/31, THIS BOX MAY BE COLLECTED AS EARLY AS 12 NOON.", "nsi_id": "unitedstatespostalservice-a77078", "operator": "United States Postal Service", "operator:short": "USPS", "operator:type": "public", "operator:wikidata": "Q668687", "ref": "7901400000"}, "type": "Feature"}
{"geometry": {"coordinates": [-100.384707, 35.913415], "type": "Point"}, "id": "czlt76QCprO73k5BKLLjuBIpNQI=", "properties": {"@source_uri": "https://tools.usps.com/UspsToolsRestServices/rest/POLocator/findLocations", "@spider": "usps_collection_boxes", "addr:city": "CANADIAN", "addr:country": "US", "addr:postcode": "79014", "addr:state": "TX", "addr:street_address": "311 PURCELL AVE", "amenity": "post_box", "collection_times": "Mo-Fr 15:45; Sa 10:00", "indoor": "yes", "note": "ON 12/24 AND 12/31, THIS BOX MAY BE COLLECTED AS EARLY AS 12 NOON.", "nsi_id": "unitedstatespostalservice-a77078", "operator": "United States Postal Service", "operator:short": "USPS", "operator:type": "public", "operator:wikidata": "Q668687", "ref": "7901400003"}, "type": "Feature"}
{"geometry": {"coordinates": [-100.384483134, 35.913283626], "type": "Point"}, "id": "BOuHK9CgZkRIp6nLpT71WdKwto4=", "properties": {"@source_uri": "https://tools.usps.com/UspsToolsRestServices/rest/POLocator/findLocations", "@spider": "usps_collection_boxes", "addr:city": "CANADIAN", "addr:country": "US", "addr:postcode": "79014", "addr:state": "TX", "addr:street_address": "311 PURCELL AVE", "amenity": "post_box", "collection_times": "Mo-Fr 15:45", "indoor": "yes", "note": "ON 12/24 AND 12/31, THIS BOX MAY BE COLLECTED AS EARLY AS 12 NOON.", "nsi_id": "unitedstatespostalservice-a77078", "operator": "United States Postal Service", "operator:short": "USPS", "operator:type": "public", "operator:wikidata": "Q668687", "ref": "7901400004"}, "type": "Feature"}
{"geometry": {"coordinates": [-101.93073, 34.979536], "type": "Point"}, "id": "kkw2XJV1zdYlNbrNKE0m0NA_RFk=", "properties": {"@source_uri": "https://tools.usps.com/UspsToolsRestServices/rest/POLocator/findLocations", "@spider": "usps_collection_boxes", "addr:city": "CANYON", "addr:country": "US", "addr:postcode": "79015", "addr:state": "TX", "addr:street_address": "1304 4TH AVE", "amenity": "post_box", "collection_times": "Mo-Sa 08:15", "nsi_id": "unitedstatespostalservice-a77078", "operator": "United States Postal Service", "operator:short": "USPS", "operator:type": "public", "operator:wikidata": "Q668687", "ref": "7901500001"}, "type": "Feature"}
{"geometry": {"coordinates": [-101.930699, 34.979684], "type": "Point"}, "id": "gQsawXxUMCVhFsjDT1LOot-pHS4=", "properties": {"@source_uri": "https://tools.usps.com/UspsToolsRestServices/rest/POLocator/findLocations", "@spider": "usps_collection_boxes", "addr:city": "CANYON", "addr:country": "US", "addr:postcode": "79015", "addr:state": "TX", "addr:street_address": "1304 4TH AVE", "amenity": "post_box", "collection_times": "Mo-Fr 16:45; Sa 14:45", "indoor": "yes", "note": "ON 12/24 AND 12/31, THIS BOX MAY BE COLLECTED AS EARLY AS 12 NOON.", "nsi_id": "unitedstatespostalservice-a77078", "operator": "United States Postal Service", "operator:short": "USPS", "operator:type": "public", "operator:wikidata": "Q668687", "ref": "7901500007"}, "type": "Feature"}
{"geometry": {"coordinates": [-101.930713, 34.979669], "type": "Point"}, "id": "uCtcfpcWZAR76v4Yx9NuU3oDoaw=", "properties": {"@source_uri": "https://tools.usps.com/UspsToolsRestServices/rest/POLocator/findLocations", "@spider": "usps_collection_boxes", "addr:city": "CANYON", "addr:country": "US", "addr:postcode": "79015", "addr:state": "TX", "addr:street_address": "1304 4TH AVE", "amenity": "post_box", "collection_times": "Mo-Fr 16:45; Sa 14:45", "indoor": "yes", "note": "ON 12/24 AND 12/31, THIS BOX MAY BE COLLECTED AS EARLY AS 12 NOON.", "nsi_id": "unitedstatespostalservice-a77078", "operator": "United States Postal Service", "operator:short": "USPS", "operator:type": "public", "operator:wikidata": "Q668687", "ref": "7901500008"}, "type": "Feature"}
{"geometry": {"coordinates": [-101.9307015, 34.979861496], "type": "Point"}, "id": "9Y2GbKYGX3SgOwWvA9M90RtbWpk=", "properties": {"@source_uri": "https://tools.usps.com/UspsToolsRestServices/rest/POLocator/findLocations", "@spider": "usps_collection_boxes", "addr:city": "CANYON", "addr:country": "US", "addr:postcode": "79015", "addr:state": "TX", "addr:street_address": "1304 4TH AVE", "amenity": "post_box", "collection_times": "Mo-Fr 16:30", "indoor": "yes", "note": "ON 12/24 AND 12/31, THIS BOX MAY BE COLLECTED AS EARLY AS 12 NOON.", "nsi_id": "unitedstatespostalservice-a77078", "operator": "United States Postal Service", "operator:short": "USPS", "operator:type": "public", "operator:wikidata": "Q668687", "ref": "7901500010"}, "type": "Feature"}
{"geometry": {"coordinates": [-102.332759, 35.674331], "type": "Point"}, "id": "Eu0yywpqpCdJIjfg6xJMZWwGcgk=", "properties": {"@source_uri": "https://tools.usps.com/UspsToolsRestServices/rest/POLocator/findLocations", "@spider": "usps_collection_boxes", "addr:city": "CHANNING", "addr:country": "US", "addr:postcode": "79018", "addr:state": "TX", "addr:street_address": "705 ROCK ISLAND ST", "amenity": "post_box", "collection_times": "Mo-Fr 12:00; Sa 09:00", "indoor": "yes", "nsi_id": "unitedstatespostalservice-a77078", "operator": "United States Postal Service", "operator:short": "USPS", "operator:type": "public", "operator:wikidata": "Q668687", "ref": "7901800001"}, "type": "Feature"}
{"geometry": {"coordinates": [-102.329698524, 35.683404936], "type": "Point"}, "id": "ub1Z_D8UKU1NOPSYLJuTuavLkSk=", "properties": {"@source_uri": "https://tools.usps.com/UspsToolsRestServices/rest/POLocator/findLocations", "@spider": "usps_collection_boxes", "addr:city": "CHANNING", "addr:country": "US", "addr:postcode": "79018", "addr:state": "TX", "addr:street_address": "705 ROCK ISLAND ST", "amenity": "post_box", "collection_times": "Mo-Fr 12:00; Sa 09:00", "indoor": "yes", "nsi_id": "unitedstatespostalservice-a77078", "operator": "United States Postal Service", "operator:short": "USPS", "operator:type": "public", "operator:wikidata": "Q668687", "ref": "7901800003"}, "type": "Feature"}
{"geometry": {"coordinates": [-101.360396, 35.108025], "type": "Point"}, "id": "-u_dQcmKWs6wPD2g9olYKoexouY=", "properties": {"@source_uri": "https://tools.usps.com/UspsToolsRestServices/rest/POLocator/findLocations", "@spider": "usps_collection_boxes", "addr:city": "CLAUDE", "addr:country": "US", "addr:postcode": "79019", "addr:state": "TX", "addr:street_address": "302 TRICE ST", "amenity": "post_box", "collection_times": "Mo-Fr 15:30; Sa 09:30", "note": "ON 12/24 AND 12/31, THIS BOX MAY BE COLLECTED AS EARLY AS 12 NOON.", "nsi_id": "unitedstatespostalservice-a77078", "operator": "United States Postal Service", "operator:short": "USPS", "operator:type": "public", "operator:wikidata": "Q668687", "ref": "7901900000"}, "type": "Feature"}
{"geometry": {"coordinates": [-101.360328, 35.108086], "type": "Point"}, "id": "SBrElsz8JI-TvTKpyccWpCU4_xY=", "properties": {"@source_uri": "https://tools.usps.com/UspsToolsRestServices/rest/POLocator/findLocations", "@spider": "usps_collection_boxes", "addr:city": "CLAUDE", "addr:country": "US", "addr:postcode": "79019", "addr:state": "TX", "addr:street_address": "302 TRICE ST", "amenity": "post_box", "collection_times": "Mo-Fr 15:30; Sa 09:30", "indoor": "yes", "note": "ON 12/24 AND 12/31, THIS BOX MAY BE COLLECTED AS EARLY AS 12 NOON.", "nsi_id": "unitedstatespostalservice-a77078", "operator": "United States Postal Service", "operator:short": "USPS", "operator:type": "public", "operator:wikidata": "Q668687", "ref": "7901900003"}, "type": "Feature"}
{"geometry": {"coordinates": [-101.360328, 35.108086], "type": "Point"}, "id": "wr-xra3Scel4vOnY4Zu2AgS1Dds=", "properties": {"@source_uri": "https://tools.usps.com/UspsToolsRestServices/rest/POLocator/findLocations", "@spider": "usps_collection_boxes", "addr:city": "CLAUDE", "addr:country": "US", "addr:postcode": "79019", "addr:state": "TX", "addr:street_address": "302 TRICE ST", "amenity": "post_box", "collection_times": "Mo-Fr 15:30; Sa 09:30", "indoor": "yes", "note": "ON 12/24 AND 12/31, THIS BOX MAY BE COLLECTED AS EARLY AS 12 NOON.", "nsi_id": "unitedstatespostalservice-a77078", "operator": "United States Postal Service", "operator:short": "USPS", "operator:type": "public", "operator:wikidata": "Q668687", "ref": "7901900004"}, "type": "Feature"}
{"geometry": {"coordinates": [-101.360521443, 35.107791882], "type": "Point"}, "id": "3oV1srf3IoXmJOvOxFGtVsX48zI=", "properties": {"@source_uri": "https://tools.usps.com/UspsToolsRestServices/rest/POLocator/findLocations", "@spider": "usps_collection_boxes", "addr:city": "CLAUDE", "addr:country": "US", "addr:postcode": "79019", "addr:state": "TX", "addr:street_address": "302 TRICE ST", "amenity": "post_box", "collection_times": "Mo-Fr 15:30", "indoor": "yes", "note": "ON 12/24 AND 12/31, THIS BOX MAY BE COLLECTED AS EARLY AS 12 NOON.", "nsi_id": "unitedstatespostalservice-a77078", "operator": "United States Postal Service", "operator:short": "USPS", "operator:type": "public", "operator:wikidata": "Q668687", "ref": "7901900005"}, "type": "Feature"}
{"geometry": {"coordinates": [-101.992958, 33.948784], "type": "Point"}, "id": "aSt6JfaagcuSLetW_iFUWAhRSNI=", "properties": {"@source_uri": "https://tools.usps.com/UspsToolsRestServices/rest/POLocator/findLocations", "@spider": "usps_collection_boxes", "addr:city": "COTTON CENTER", "addr:country": "US", "addr:postcode": "79021", "addr:state": "TX", "addr:street_address": "2359 FM 179", "amenity": "post_box", "collection_times": "Mo-Sa 13:00", "note": "ON 12/24 AND 12/31, THIS BOX MAY BE COLLECTED AS EARLY AS 12 NOON.", "nsi_id": "unitedstatespostalservice-a77078", "operator": "United States Postal Service", "operator:short": "USPS", "operator:type": "public", "operator:wikidata": "Q668687", "ref": "7902100000"}, "type": "Feature"}
{"geometry": {"coordinates": [-101.992958, 33.948784], "type": "Point"}, "id": "7c6RUoXPJlJ8EjZ8Qjw6nerpR6E=", "properties": {"@source_uri": "https://tools.usps.com/UspsToolsRestServices/rest/POLocator/findLocations", "@spider": "usps_collection_boxes", "addr:city": "COTTON CENTER", "addr:country": "US", "addr:postcode": "79021", "addr:state": "TX", "addr:street_address": "2359 FM 179", "amenity": "post_box", "collection_times": "Mo-Sa 13:00", "indoor": "yes", "note": "ON 12/24 AND 12/31, THIS BOX MAY BE COLLECTED AS EARLY AS 12 NOON.", "nsi_id": "unitedstatespostalservice-a77078", "operator": "United States Postal Service", "operator:short": "USPS", "operator:type": "public", "operator:wikidata": "Q668687", "ref": "7902100001"}, "type": "Feature"}
{"geometry": {"coordinates": [-101.992787799, 33.989109786], "type": "Point"}, "id": "4la-nAPzgdaexTsf9mDn8ORVABs=", "properties": {"@source_uri": "https://tools.usps.com/UspsToolsRestServices/rest/POLocator/findLocations", "@spider": "usps_collection_boxes", "addr:city": "COTTON CENTER", "addr:country": "US", "addr:postcode": "79021", "addr:state": "TX", "addr:street_address": "2359 FM 179", "amenity": "post_box", "collection_times": "Mo-Sa 13:00", "indoor": "yes", "note": "ON 12/24 AND 12/31, THIS BOX MAY BE COLLECTED AS EARLY AS 12 NOON.", "nsi_id": "unitedstatespostalservice-a77078", "operator": "United States Postal Service", "operator:short": "USPS", "operator:type": "public", "operator:wikidata": "Q668687", "ref": "7902100003"}, "type": "Feature"}
{"geometry": {"coordinates": [-102.513414, 36.050203], "type": "Point"}, "id": "WezoQAptM8__pp7PhtFAgE5cDL0=", "properties": {"@source_uri": "https://tools.usps.com/UspsToolsRestServices/rest/POLocator/findLocations", "@spider": "usps_collection_boxes", "addr:city": "DALHART", "addr:country": "US", "addr:postcode": "79022", "addr:state": "TX", "addr:street_address": "1601 TENNESSEE AVE", "amenity": "post_box", "collection_times": "Mo-Sa 15:00", "note": "ON 12/24 AND 12/31, THIS BOX MAY BE COLLECTED AS EARLY AS 12 NOON.", "nsi_id": "unitedstatespostalservice-a77078", "operator": "United States Postal Service", "operator:short": "USPS", "operator:type": "public", "operator:wikidata": "Q668687", "ref": "7902200000"}, "type": "Feature"}
{"geometry": {"coordinates": [-102.530714, 36.059336], "type": "Point"}, "id": "k7bxiB3fAWRPxsjvLUj-SD5nvJI=", "properties": {"@source_uri": "https://tools.usps.com/UspsToolsRestServices/rest/POLocator/findLocations", "@spider": "usps_collection_boxes", "addr:city": "DALHART", "addr:country": "US", "addr:postcode": "79022", "addr:state": "TX", "addr:street_address": "702 W 7TH ST", "amenity": "post_box", "collection_times": "Mo-Fr 16:30; Sa 15:30", "note": "ON 12/24 AND 12/31, THIS BOX MAY BE COLLECTED AS EARLY AS 12 NOON.", "nsi_id": "unitedstatespostalservice-a77078", "operator": "United States Postal Service", "operator:short": "USPS", "operator:type": "public", "operator:wikidata": "Q668687", "ref": "7902200002"}, "type": "Feature"}
{"geometry": {"coordinates": [-102.530607, 36.059311], "type": "Point"}, "id": "tSzicLdNboNmwamBMAxrpENDAqQ=", "properties": {"@source_uri": "https://tools.usps.com/UspsToolsRestServices/rest/POLocator/findLocations", "@spider": "usps_collection_boxes", "addr:city": "DALHART", "addr:country": "US", "addr:postcode": "79022", "addr:state": "TX", "addr:street_address": "702 W 7TH ST", "amenity": "post_box", "collection_times": "Mo-Fr 16:30; Sa 15:30", "indoor": "yes", "note": "ON 12/24 AND 12/31, THIS BOX MAY BE COLLECTED AS EARLY AS 12 NOON.", "nsi_id": "unitedstatespostalservice-a77078", "operator": "United States Postal Service", "operator:short": "USPS", "operator:type": "public", "operator:wikidata": "Q668687", "ref": "7902200005"}, "type": "Feature"}
{"geometry": {"coordinates": [-102.530607, 36.059311], "type": "Point"}, "id": "3e7niHaKO6hGGjuzHP5OEbfU4_w=", "properties": {"@source_uri": "https://tools.usps.com/UspsToolsRestServices/rest/POLocator/findLocations", "@spider": "usps_collection_boxes", "addr:city": "DALHART", "addr:country": "US", "addr:postcode": "79022", "addr:state": "TX", "addr:street_address": "702 W 7TH ST", "amenity": "post_box", "collection_times": "Mo-Fr 16:30; Sa 15:30", "indoor": "yes", "note": "ON 12/24 AND 12/31, THIS BOX MAY BE COLLECTED AS EARLY AS 12 NOON.", "nsi_id": "unitedstatespostalservice-a77078", "operator": "United States Postal Service", "operator:short": "USPS", "operator:type": "public", "operator:wikidata": "Q668687", "ref": "7902200006"}, "type": "Feature"}
{"geometry": {"coordinates": [-102.524394, 36.0635], "type": "Point"}, "id": "PilpZEWbPeHpCMFqmt7GZOsLHMA=", "properties": {"@source_uri": "https://tools.usps.com/UspsToolsRestServices/rest/POLocator/findLocations", "@spider": "usps_collection_boxes", "addr:city": "DALHART", "addr:country": "US", "addr:postcode": "79022", "addr:state": "TX", "addr:street_address": "205 ROCK ISLAND AVE", "amenity": "post_box", "collection_times": "Mo-Sa 15:00", "note": "ON 12/24 AND 12/31, THIS BOX MAY BE COLLECTED AS EARLY AS 12 NOON.", "nsi_id": "unitedstatespostalservice-a77078", "operator": "United States Postal Service", "operator:short": "USPS", "operator:type": "public", "operator:wikidata": "Q668687", "ref": "7902200007"}, "type": "Feature"}
{"geometry": {"coordinates": [-102.531023612, 36.059321501], "type": "Point"}, "id": "PproyUtPOI-JyW4hkrDDdLCd3Rw=", "properties": {"@source_uri": "https://tools.usps.com/UspsToolsRestServices/rest/POLocator/findLocations", "@spider": "usps_collection_boxes", "addr:city": "DALHART", "addr:country": "US", "addr:postcode": "79022", "addr:state": "TX", "addr:street_address": "702 W 7TH ST", "amenity": "post_box", "collection_times": "Mo-Fr 16:30", "indoor": "yes", "note": "ON 12/24 AND 12/31, THIS BOX MAY BE COLLECTED AS EARLY AS 12 NOON.", "nsi_id": "unitedstatespostalservice-a77078", "operator": "United States Postal Service", "operator:short": "USPS", "operator:type": "public", "operator:wikidata": "Q668687", "ref": "7902200008"}, "type": "Feature"}
{"geometry": {"coordinates": [-100.325379, 36.444921], "type": "Point"}, "id": "WDxo2Ow1E3zrQHr5-gRZJysD3-w=", "properties": {"@source_uri": "https://tools.usps.com/UspsToolsRestServices/rest/POLocator/findLocations", "@spider": "usps_collection_boxes", "addr:city": "DARROUZETT", "addr:country": "US", "addr:postcode": "79024", "addr:state": "TX", "addr:street_address": "302 MAIN ST", "amenity": "post_box", "collection_times": "Mo-Fr 15:00; Sa 10:00", "note": "ON 12/24 AND 12/31, THIS BOX MAY BE COLLECTED AS EARLY AS 12 NOON.", "nsi_id": "unitedstatespostalservice-a77078", "operator": "United States Postal Service", "operator:short": "USPS", "operator:type": "public", "operator:wikidata": "Q668687", "ref": "7902400000"}, "type": "Feature"}
{"geometry": {"coordinates": [-100.325379, 36.444921], "type": "Point"}, "id": "Vi2Gh3yqCpy_DmbvXk3L41mothQ=", "properties": {"@source_uri": "https://tools.usps.com/UspsToolsRestServices/rest/POLocator/findLocations", "@spider": "usps_collection_boxes", "addr:city": "DARROUZETT", "addr:country": "US", "addr:postcode": "79024", "addr:state": "TX", "addr:street_address": "302 MAIN ST", "amenity": "post_box", "collection_times": "Mo-Fr 15:00; Sa 10:00", "indoor": "yes", "note": "ON 12/24 AND 12/31, THIS BOX MAY BE COLLECTED AS EARLY AS 12 NOON.", "nsi_id": "unitedstatespostalservice-a77078", "operator": "United States Postal Service", "operator:short": "USPS", "operator:type": "public", "operator:wikidata": "Q668687", "ref": "7902400001"}, "type": "Feature"}
{"geometry": {"coordinates": [-100.325346367, 36.445085413], "type": "Point"}, "id": "iBaY-D8gWtXmV3bvFUfMpfWksQ8=", "properties": {"@source_uri": "https://tools.usps.com/UspsToolsRestServices/rest/POLocator/findLocations", "@spider": "usps_collection_boxes", "addr:city": "DARROUZETT", "addr:country": "US", "addr:postcode": "79024", "addr:state": "TX", "addr:street_address": "302 MAIN ST", "amenity": "post_box", "collection_times": "Mo-Fr 15:15", "indoor": "yes", "note": "ON 12/24 AND 12/31, THIS BOX MAY BE COLLECTED AS EARLY AS 12 NOON.", "nsi_id": "unitedstatespostalservice-a77078", "operator": "United States Postal Service", "operator:short": "USPS", "operator:type": "public", "operator:wikidata": "Q668687", "ref": "7902400003"}, "type": "Feature"}
{"geometry": {"coordinates": [-102.202655, 34.909134], "type": "Point"}, "id": "u4OWQvKY2Q_zCBpy-JjhVIPpR_w=", "properties": {"@source_uri": "https://tools.usps.com/UspsToolsRestServices/rest/POLocator/findLocations", "@spider": "usps_collection_boxes", "addr:city": "DAWN", "addr:country": "US", "addr:postcode": "79025", "addr:state": "TX", "addr:street_address": "101 FRYE AVE", "amenity": "post_box", "collection_times": "Mo-Fr 13:30; Sa 10:30", "indoor": "yes", "note": "ON 12/24 AND 12/31, THIS BOX MAY BE COLLECTED AS EARLY AS 12 NOON.", "nsi_id": "unitedstatespostalservice-a77078", "operator": "United States Postal Service", "operator:short": "USPS", "operator:type": "public", "operator:wikidata": "Q668687", "ref": "7902500000"}, "type": "Feature"}
{"geometry": {"coordinates": [-102.202655, 34.909134], "type": "Point"}, "id": "esjpgz6T00RHHq9NLVLya8PSXYw=", "properties": {"@source_uri": "https://tools.usps.com/UspsToolsRestServices/rest/POLocator/findLocations", "@spider": "usps_collection_boxes", "addr:city": "DAWN", "addr:country": "US", "addr:postcode": "79025", "addr:state": "TX", "addr:street_address": "101 FRYE AVE", "amenity": "post_box", "collection_times": "Mo-Fr 13:30; Sa 10:30", "note": "ON 12/24 AND 12/31, THIS BOX MAY BE COLLECTED AS EARLY AS 12 NOON.", "nsi_id": "unitedstatespostalservice-a77078", "operator": "United States Postal Service", "operator:short": "USPS", "operator:type": "public", "operator:wikidata": "Q668687", "ref": "7902500001"}, "type": "Feature"}
{"geometry": {"coordinates": [-102.202682782, 34.909218199], "type": "Point"}, "id": "WNM5KbYlUnJeoYTLNM-zyUy7nPU=", "properties": {"@source_uri": "https://tools.usps.com/UspsToolsRestServices/rest/POLocator/findLocations", "@spider": "usps_collection_boxes", "addr:city": "DAWN", "addr:country": "US", "addr:postcode": "79025", "addr:state": "TX", "addr:street_address": "101 FRYE AVE", "amenity": "post_box", "collection_times": "Mo-Fr 13:45; Sa 13:30", "indoor": "yes", "note": "ON 12/24 AND 12/31, THIS BOX MAY BE COLLECTED AS EARLY AS 12 NOON.", "nsi_id": "unitedstatespostalservice-a77078", "operator": "United States Postal Service", "operator:short": "USPS", "operator:type": "public", "operator:wikidata": "Q668687", "ref": "7902500002"}, "type": "Feature"}
{"geometry": {"coordinates": [-102.310965, 34.548814], "type": "Point"}, "id": "XADpmwaqzIjP9xX3IsYadP1K0p8=", "properties": {"@source_uri": "https://tools.usps.com/UspsToolsRestServices/rest/POLocator/findLocations", "@spider": "usps_collection_boxes", "addr:city": "DIMMITT", "addr:country": "US", "addr:postcode": "79027", "addr:state": "TX", "addr:street_address": "217 SE 2ND ST", "amenity": "post_box", "collection_times": "Mo-Fr 16:00; Sa 15:30", "note": "ON 12/24 AND 12/31, THIS BOX MAY BE COLLECTED AS EARLY AS 12 NOON.", "nsi_id": "unitedstatespostalservice-a77078", "operator": "United States Postal Service", "operator:short": "USPS", "operator:type": "public", "operator:wikidata": "Q668687", "ref": "7902700006"}, "type": "Feature"}
{"geometry": {"coordinates": [-102.310901, 34.54901], "type": "Point"}, "id": "MGCq7vXACPhkvsE7FZAKA8Xb010=", "properties": {"@source_uri": "https://tools.usps.com/UspsToolsRestServices/rest/POLocator/findLocations", "@spider": "usps_collection_boxes", "addr:city": "DIMMITT", "addr:country": "US", "addr:postcode": "79027", "addr:state": "TX", "addr:street_address": "217 SE 2ND ST", "amenity": "post_box", "collection_times": "Mo-Fr 16:00; Sa 15:30", "indoor": "yes", "note": "ON 12/24 AND 12/31, THIS BOX MAY BE COLLECTED AS EARLY AS 12 NOON.", "nsi_id": "unitedstatespostalservice-a77078", "operator": "United States Postal Service", "operator:short": "USPS", "operator:type": "public", "operator:wikidata": "Q668687", "ref": "7902700008"}, "type": "Feature"}
{"geometry": {"coordinates": [-102.310954, 34.54903], "type": "Point"}, "id": "mwtoc-NU_vH7t-4URQJptM2pGPE=", "properties": {"@source_uri": "https://tools.usps.com/UspsToolsRestServices/rest/POLocator/findLocations", "@spider": "usps_collection_boxes", "addr:city": "DIMMITT", "addr:country": "US", "addr:postcode": "79027", "addr:state": "TX", "addr:street_address": "217 SE 2ND ST", "amenity": "post_box", "collection_times": "Mo-Fr 16:00; Sa 15:30", "indoor": "yes", "note": "ON 12/24 AND 12/31, THIS BOX MAY BE COLLECTED AS EARLY AS 12 NOON.", "nsi_id": "unitedstatespostalservice-a77078", "operator": "United States Postal Service", "operator:short": "USPS", "operator:type": "public", "operator:wikidata": "Q668687", "ref": "7902700009"}, "type": "Feature"}
{"geometry": {"coordinates": [-102.311098121, 34.549028413], "type": "Point"}, "id": "Y7thLeqrWkbjU1yGJzw-P_UJtGU=", "properties": {"@source_uri": "https://tools.usps.com/UspsToolsRestServices/rest/POLocator/findLocations", "@spider": "usps_collection_boxes", "addr:city": "DIMMITT", "addr:country": "US", "addr:postcode": "79027", "addr:state": "TX", "addr:street_address": "217 SE 2ND ST", "amenity": "post_box", "collection_times": "Mo-Fr 16:00", "indoor": "yes", "note": "ON 12/24 AND 12/31, THIS BOX MAY BE COLLECTED AS EARLY AS 12 NOON.", "nsi_id": "unitedstatespostalservice-a77078", "operator": "United States Postal Service", "operator:short": "USPS", "operator:type": "public", "operator:wikidata": "Q668687", "ref": "7902700010"}, "type": "Feature"}
{"geometry": {"coordinates": [-101.971806, 35.862941], "type": "Point"}, "id": "qHeWPJXOPZu9vwLQ-_zLKQq_MLU=", "properties": {"@source_uri": "https://tools.usps.com/UspsToolsRestServices/rest/POLocator/findLocations", "@spider": "usps_collection_boxes", "addr:city": "DUMAS", "addr:country": "US", "addr:postcode": "79029", "addr:state": "TX", "addr:street_address": "315 S BLISS AVE", "amenity": "post_box", "collection_times": "Mo-Fr 16:30; Sa 15:30", "indoor": "yes", "note": "ON 12/24 AND 12/31, THIS BOX MAY BE COLLECTED AS EARLY AS 12 NOON.", "nsi_id": "unitedstatespostalservice-a77078", "operator": "United States Postal Service", "operator:short": "USPS", "operator:type": "public", "operator:wikidata": "Q668687", "ref": "7902900000"}, "type": "Feature"}
{"geometry": {"coordinates": [-101.971839, 35.863005], "type": "Point"}, "id": "jja5yd2p7-dyxz59X3pfG6tyogM=", "properties": {"@source_uri": "https://tools.usps.com/UspsToolsRestServices/rest/POLocator/findLocations", "@spider": "usps_collection_boxes", "addr:city": "DUMAS", "addr:country": "US", "addr:postcode": "79029", "addr:state": "TX", "addr:street_address": "315 S BLISS AVE", "amenity": "post_box", "collection_times": "Mo-Fr 16:30; Sa 15:30", "note": "ON 12/24 AND 12/31, THIS BOX MAY BE COLLECTED AS EARLY AS 12 NOON.", "nsi_id": "unitedstatespostalservice-a77078", "operator": "United States Postal Service", "operator:short": "USPS", "operator:type": "public", "operator:wikidata": "Q668687", "ref": "7902900001"}, "type": "Feature"}
{"geometry": {"coordinates": [-101.974443, 35.850047], "type": "Point"}, "id": "9h-i-rey9xeVKE0uqLmn7s4tkNo=", "properties": {"@source_uri": "https://tools.usps.com/UspsToolsRestServices/rest/POLocator/findLocations", "@spider": "usps_collection_boxes", "addr:city": "DUMAS", "addr:country": "US", "addr:postcode": "79029", "addr:state": "TX", "addr:street_address": "1404 S DUMAS AVE", "amenity": "post_box", "collection_times": "Mo-Sa 14:45", "note": "ON 12/24 AND 12/31, THIS BOX MAY BE COLLECTED AS EARLY AS 12 NOON.", "nsi_id": "unitedstatespostalservice-a77078", "operator": "United States Postal Service", "operator:short": "USPS", "operator:type": "public", "operator:wikidata": "Q668687", "ref": "7902900004"}, "type": "Feature"}
{"geometry": {"coordinates": [-101.971839, 35.863005], "type": "Point"}, "id": "qXWZ6WyiuZv4fKNov4v4OUKNY_w=", "properties": {"@source_uri": "https://tools.usps.com/UspsToolsRestServices/rest/POLocator/findLocations", "@spider": "usps_collection_boxes", "addr:city": "DUMAS", "addr:country": "US", "addr:postcode": "79029", "addr:state": "TX", "addr:street_address": "315 S BLISS AVE", "amenity": "post_box", "collection_times": "Mo-Fr 16:30; Sa 15:30", "indoor": "yes", "note": "ON 12/24 AND 12/31, THIS BOX MAY BE COLLECTED AS EARLY AS 12 NOON.", "nsi_id": "unitedstatespostalservice-a77078", "operator": "United States Postal Service", "operator:short": "USPS", "operator:type": "public", "operator:wikidata": "Q668687", "ref": "7902900005"}, "type": "Feature"}
{"geometry": {"coordinates": [-101.971810063, 35.862453], "type": "Point"}, "id": "l5sa16tmJV1l7V4oqRoV7hvhv_U=", "properties": {"@source_uri": "https://tools.usps.com/UspsToolsRestServices/rest/POLocator/findLocations", "@spider": "usps_collection_boxes", "addr:city": "DUMAS", "addr:country": "US", "addr:postcode": "79029", "addr:state": "TX", "addr:street_address": "315 S BLISS AVE", "amenity": "post_box", "collection_times": "Mo-Fr 16:30", "indoor": "yes", "note": "ON 12/24 AND 12/31, THIS BOX MAY BE COLLECTED AS EARLY AS 12 NOON.", "nsi_id": "unitedstatespostalservice-a77078", "operator": "United States Postal Service", "operator:short": "USPS", "operator:type": "public", "operator:wikidata": "Q668687", "ref": "7902900009"}, "type": "Feature"}
{"geometry": {"coordinates": [-102.410847, 34.23306], "type": "Point"}, "id": "QAEiI2cfz8NTbWKoyyu_TP--k8c=", "properties": {"@source_uri": "https://tools.usps.com/UspsToolsRestServices/rest/POLocator/findLocations", "@spider": "usps_collection_boxes", "addr:city": "EARTH", "addr:country": "US", "addr:postcode": "79031", "addr:state": "TX", "addr:street_address": "103 N AMHERST RD", "amenity": "post_box", "collection_times": "Mo-Fr 15:15; Sa 11:00", "indoor": "yes", "note": "ON 12/24 AND 12/31, THIS BOX MAY BE COLLECTED AS EARLY AS 12 NOON.", "nsi_id": "unitedstatespostalservice-a77078", "operator": "United States Postal Service", "operator:short": "USPS", "operator:type": "public", "operator:wikidata": "Q668687", "ref": "7903100001"}, "type": "Feature"}
{"geometry": {"coordinates": [-102.410847, 34.233061], "type": "Point"}, "id": "buPu4gsFsndvGNOSYRqHa1LZbAU=", "properties": {"@source_uri": "https://tools.usps.com/UspsToolsRestServices/rest/POLocator/findLocations", "@spider": "usps_collection_boxes", "addr:city": "EARTH", "addr:country": "US", "addr:postcode": "79031", "addr:state": "TX", "addr:street_address": "103 N AMHERST RD", "amenity": "post_box", "collection_times": "Mo-Fr 15:15; Sa 11:00", "note": "ON 12/24 AND 12/31, THIS BOX MAY BE COLLECTED AS EARLY AS 12 NOON.", "nsi_id": "unitedstatespostalservice-a77078", "operator": "United States Postal Service", "operator:short": "USPS", "operator:type": "public", "operator:wikidata": "Q668687", "ref": "7903100002"}, "type": "Feature"}
{"geometry": {"coordinates": [-102.410872914, 34.233047728], "type": "Point"}, "id": "gC5PlyCmsCQBoXf17hzSTOVlhpo=", "properties": {"@source_uri": "https://tools.usps.com/UspsToolsRestServices/rest/POLocator/findLocations", "@spider": "usps_collection_boxes", "addr:city": "EARTH", "addr:country": "US", "addr:postcode": "79031", "addr:state": "TX", "addr:street_address": "105 N AMHERST RD", "amenity": "post_box", "collection_times": "Mo-Fr 15:40", "indoor": "yes", "note": "ON 12/24 AND 12/31, THIS BOX MAY BE COLLECTED AS EARLY AS 12 NOON.", "nsi_id": "unitedstatespostalservice-a77078", "operator": "United States Postal Service", "operator:short": "USPS", "operator:type": "public", "operator:wikidata": "Q668687", "ref": "7903100004"}, "type": "Feature"}
{"geometry": {"coordinates": [-101.900145, 34.28221], "type": "Point"}, "id": "WcNYOzoGOUR2T18yKHVccERCgTo=", "properties": {"@source_uri": "https://tools.usps.com/UspsToolsRestServices/rest/POLocator/findLocations", "@spider": "usps_collection_boxes", "addr:city": "EDMONSON", "addr:country": "US", "addr:postcode": "79032", "addr:state": "TX", "addr:street_address": "100 E 1ST ST", "amenity": "post_box", "collection_times": "Mo-Fr 15:30; Sa 09:30", "note": "ON 12/24 AND 12/31, THIS BOX MAY BE COLLECTED AS EARLY AS 12 NOON.", "nsi_id": "unitedstatespostalservice-a77078", "operator": "United States Postal Service", "operator:short": "USPS", "operator:type": "public", "operator:wikidata": "Q668687", "ref": "7903200000"}, "type": "Feature"}
{"geometry": {"coordinates": [-101.900258, 34.282222], "type": "Point"}, "id": "fSj0Xt2v8nsmsZ_dEjwJBhqR6yQ=", "properties": {"@source_uri": "https://tools.usps.com/UspsToolsRestServices/rest/POLocator/findLocations", "@spider": "usps_collection_boxes", "addr:city": "EDMONSON", "addr:country": "US", "addr:postcode": "79032", "addr:state": "TX", "addr:street_address": "100 E 1ST ST", "amenity": "post_box", "collection_times": "Mo-Fr 12:00; Sa 09:30", "indoor": "yes", "nsi_id": "unitedstatespostalservice-a77078", "operator": "United States Postal Service", "operator:short": "USPS", "operator:type": "public", "operator:wikidata": "Q668687", "ref": "7903200001"}, "type": "Feature"}
{"geometry": {"coordinates": [-101.899763088, 34.28206856], "type": "Point"}, "id": "kQVOONutA4qJDRBNZU0mbs-7zVA=", "properties": {"@source_uri": "https://tools.usps.com/UspsToolsRestServices/rest/POLocator/findLocations", "@spider": "usps_collection_boxes", "addr:city": "EDMONSON", "addr:country": "US", "addr:postcode": "79032", "addr:state": "TX", "addr:street_address": "100 E 1ST ST", "amenity": "post_box", "collection_times": "Mo-Fr 12:30; Sa 09:30", "indoor": "yes", "note": "ON 12/24 AND 12/31, THIS BOX MAY BE COLLECTED AS EARLY AS 12 NOON.", "nsi_id": "unitedstatespostalservice-a77078", "operator": "United States Postal Service", "operator:short": "USPS", "operator:type": "public", "operator:wikidata": "Q668687", "ref": "7903200002"}, "type": "Feature"}
{"geometry": {"coordinates": [-100.969059, 36.317173], "type": "Point"}, "id": "CIq9bUYszAPiGnmvKQ5a1NNsiYo=", "properties": {"@source_uri": "https://tools.usps.com/UspsToolsRestServices/rest/POLocator/findLocations", "@spider": "usps_collection_boxes", "addr:city": "FARNSWORTH", "addr:country": "US", "addr:postcode": "79033", "addr:state": "TX", "addr:street_address": "200 FARNSWORTH ST", "amenity": "post_box", "collection_times": "Mo-Fr 13:30; Sa 09:15", "indoor": "yes", "note": "ON 12/24 AND 12/31, THIS BOX MAY BE COLLECTED AS EARLY AS 12 NOON.", "nsi_id": "unitedstatespostalservice-a77078", "operator": "United States Postal Service", "operator:short": "USPS", "operator:type": "public", "operator:wikidata": "Q668687", "ref": "7903300001"}, "type": "Feature"}
{"geometry": {"coordinates": [-100.969059, 36.317173], "type": "Point"}, "id": "EayqTg849z11CaNWn9ti92D5lt8=", "properties": {"@source_uri": "https://tools.usps.com/UspsToolsRestServices/rest/POLocator/findLocations", "@spider": "usps_collection_boxes", "addr:city": "FARNSWORTH", "addr:country": "US", "addr:postcode": "79033", "addr:state": "TX", "addr:street_address": "200 FARNSWORTH ST", "amenity": "post_box", "collection_times": "Mo-Fr 13:30; Sa 09:15", "note": "ON 12/24 AND 12/31, THIS BOX MAY BE COLLECTED AS EARLY AS 12 NOON.", "nsi_id": "unitedstatespostalservice-a77078", "operator": "United States Postal Service", "operator:short": "USPS", "operator:type": "public", "operator:wikidata": "Q668687", "ref": "7903300002"}, "type": "Feature"}
{"geometry": {"coordinates": [-100.969085593, 36.3195], "type": "Point"}, "id": "D3DkuoP0csFTw7QweMobttCsgeU=", "properties": {"@source_uri": "https://tools.usps.com/UspsToolsRestServices/rest/POLocator/findLocations", "@spider": "usps_collection_boxes", "addr:city": "FARNSWORTH", "addr:country": "US", "addr:postcode": "79033", "addr:state": "TX", "addr:street_address": "200 FARNSWORTH ST", "amenity": "post_box", "collection_times": "Mo-Fr 13:30; Sa 09:15", "indoor": "yes", "note": "ON 12/24 AND 12/31, THIS BOX MAY BE COLLECTED AS EARLY AS 12 NOON.", "nsi_id": "unitedstatespostalservice-a77078", "operator": "United States Postal Service", "operator:short": "USPS", "operator:type": "public", "operator:wikidata": "Q668687", "ref": "7903300003"}, "type": "Feature"}
{"geometry": {"coordinates": [-100.141737, 36.433773], "type": "Point"}, "id": "8XXXTKnaCTlPCIBtstMt-D_3S7Q=", "properties": {"@source_uri": "https://tools.usps.com/UspsToolsRestServices/rest/POLocator/findLocations", "@spider": "usps_collection_boxes", "addr:city": "FOLLETT", "addr:country": "US", "addr:postcode": "79034", "addr:state": "TX", "addr:street_address": "101 S MAIN ST", "amenity": "post_box", "collection_times": "Mo-Fr 15:00; Sa 10:00", "note": "ON 12/24 AND 12/31, THIS BOX MAY BE COLLECTED AS EARLY AS 12 NOON.", "nsi_id": "unitedstatespostalservice-a77078", "operator": "United States Postal Service", "operator:short": "USPS", "operator:type": "public", "operator:wikidata": "Q668687", "ref": "7903400000"}, "type": "Feature"}
{"geometry": {"coordinates": [-100.141737, 36.433773], "type": "Point"}, "id": "7yEEKCt0ZjhKP0n3MQNSwus4BLY=", "properties": {"@source_uri": "https://tools.usps.com/UspsToolsRestServices/rest/POLocator/findLocations", "@spider": "usps_collection_boxes", "addr:city": "FOLLETT", "addr:country": "US", "addr:postcode": "79034", "addr:state": "TX", "addr:street_address": "101 S MAIN ST", "amenity": "post_box", "collection_times": "Mo-Fr 15:00; Sa 10:00", "indoor": "yes", "note": "ON 12/24 AND 12/31, THIS BOX MAY BE COLLECTED AS EARLY AS 12 NOON.", "nsi_id": "unitedstatespostalservice-a77078", "operator": "United States Postal Service", "operator:short": "USPS", "operator:type": "public", "operator:wikidata": "Q668687", "ref": "7903400002"}, "type": "Feature"}
{"geometry": {"coordinates": [-100.141775151, 36.433584], "type": "Point"}, "id": "4Lz7YtTqofxFPf9ArCZXqkeU750=", "properties": {"@source_uri": "https://tools.usps.com/UspsToolsRestServices/rest/POLocator/findLocations", "@spider": "usps_collection_boxes", "addr:city": "FOLLETT", "addr:country": "US", "addr:postcode": "79034", "addr:state": "TX", "addr:street_address": "101 S MAIN ST", "amenity": "post_box", "collection_times": "Mo-Fr 15:20", "indoor": "yes", "note": "ON 12/24 AND 12/31, THIS BOX MAY BE COLLECTED AS EARLY AS 12 NOON.", "nsi_id": "unitedstatespostalservice-a77078", "operator": "United States Postal Service", "operator:short": "USPS", "operator:type": "public", "operator:wikidata": "Q668687", "ref": "7903400003"}, "type": "Feature"}
{"geometry": {"coordinates": [-102.718529, 34.640692], "type": "Point"}, "id": "Yc6Xu69NwT52QJpidzjTtxREuEM=", "properties": {"@source_uri": "https://tools.usps.com/UspsToolsRestServices/rest/POLocator/findLocations", "@spider": "usps_collection_boxes", "addr:city": "FRIONA", "addr:country": "US", "addr:postcode": "79035", "addr:state": "TX", "addr:street_address": "1010 MAIN ST", "amenity": "post_box", "collection_times": "Mo-Fr 16:00; Sa 12:00", "note": "ON 12/24 AND 12/31, THIS BOX MAY BE COLLECTED AS EARLY AS 12 NOON.", "nsi_id": "unitedstatespostalservice-a77078", "operator": "United States Postal Service", "operator:short": "USPS", "operator:type": "public", "operator:wikidata": "Q668687", "ref": "7903500000"}, "type": "Feature"}
{"geometry": {"coordinates": [-102.718529, 34.640692], "type": "Point"}, "id": "fowfOer8OBgGrvgjMfJY1ILkbQM=", "properties": {"@source_uri": "https://tools.usps.com/UspsToolsRestServices/rest/POLocator/findLocations", "@spider": "usps_collection_boxes", "addr:city": "FRIONA", "addr:country": "US", "addr:postcode": "79035", "addr:state": "TX", "addr:street_address": "1010 MAIN ST", "amenity": "post_box", "collection_times": "Mo-Fr 16:00; Sa 12:00", "indoor": "yes", "note": "ON 12/24 AND 12/31, THIS BOX MAY BE COLLECTED AS EARLY AS 12 NOON.", "nsi_id": "unitedstatespostalservice-a77078", "operator": "United States Postal Service", "operator:short": "USPS", "operator:type": "public", "operator:wikidata": "Q668687", "ref": "7903500002"}, "type": "Feature"}
{"geometry": {"coordinates": [-102.718529, 34.640692], "type": "Point"}, "id": "Q5vq2n77CXaql3r-tRLJPOpwUv0=", "properties": {"@source_uri": "https://tools.usps.com/UspsToolsRestServices/rest/POLocator/findLocations", "@spider": "usps_collection_boxes", "addr:city": "FRIONA", "addr:country": "US", "addr:postcode": "79035", "addr:state": "TX", "addr:street_address": "1010 MAIN ST", "amenity": "post_box", "collection_times": "Mo-Fr 16:00; Sa 12:00", "indoor": "yes", "note": "ON 12/24 AND 12/31, THIS BOX MAY BE COLLECTED AS EARLY AS 12 NOON.", "nsi_id": "unitedstatespostalservice-a77078", "operator": "United States Postal Service", "operator:short": "USPS", "operator:type": "public", "operator:wikidata": "Q668687", "ref": "7903500003"}, "type": "Feature"}
{"geometry": {"coordinates": [-102.71849911, 34.641080864], "type": "Point"}, "id": "zjYp3AAn3yPIHgMyf5KIIRj6SUI=", "properties": {"@source_uri": "https://tools.usps.com/UspsToolsRestServices/rest/POLocator/findLocations", "@spider": "usps_collection_boxes", "addr:city": "FRIONA", "addr:country": "US", "addr:postcode": "79035", "addr:state": "TX", "addr:street_address": "1010 MAIN ST", "amenity": "post_box", "collection_times": "Mo-Fr 16:00", "indoor": "yes", "note": "ON 12/24 AND 12/31, THIS BOX MAY BE COLLECTED AS EARLY AS 12 NOON.", "nsi_id": "unitedstatespostalservice-a77078", "operator": "United States Postal Service", "operator:short": "USPS", "operator:type": "public", "operator:wikidata": "Q668687", "ref": "7903500004"}, "type": "Feature"}
{"geometry": {"coordinates": [-101.605159, 35.638436], "type": "Point"}, "id": "AQvCjXkxv1I4cMYkMstKAybSnqk=", "properties": {"@source_uri": "https://tools.usps.com/UspsToolsRestServices/rest/POLocator/findLocations", "@spider": "usps_collection_boxes", "addr:city": "FRITCH", "addr:country": "US", "addr:postcode": "79036", "addr:state": "TX", "addr:street_address": "107 N HOYNE AVE", "amenity": "post_box", "collection_times": "Mo-Fr 16:30; Sa 09:00", "note": "ON 12/24 AND 12/31, THIS BOX MAY BE COLLECTED AS EARLY AS 12 NOON.", "nsi_id": "unitedstatespostalservice-a77078", "operator": "United States Postal Service", "operator:short": "USPS", "operator:type": "public", "operator:wikidata": "Q668687", "ref": "7903600001"}, "type": "Feature"}
{"geometry": {"coordinates": [-101.605194, 35.638428], "type": "Point"}, "id": "_SrabGrZPO0xq837y-Xt7TD-tbs=", "properties": {"@source_uri": "https://tools.usps.com/UspsToolsRestServices/rest/POLocator/findLocations", "@spider": "usps_collection_boxes", "addr:city": "FRITCH", "addr:country": "US", "addr:postcode": "79036", "addr:state": "TX", "addr:street_address": "107 N HOYNE AVE", "amenity": "post_box", "collection_times": "Mo-Fr 16:30; Sa 09:00", "indoor": "yes", "note": "ON 12/24 AND 12/31, THIS BOX MAY BE COLLECTED AS EARLY AS 12 NOON.", "nsi_id": "unitedstatespostalservice-a77078", "operator": "United States Postal Service", "operator:short": "USPS", "operator:type": "public", "operator:wikidata": "Q668687", "ref": "7903600003"}, "type": "Feature"}
{"geometry": {"coordinates": [-101.606019294, 35.639090415], "type": "Point"}, "id": "eGSuhd7cfIjf8w6OYtjs6TEElTY=", "properties": {"@source_uri": "https://tools.usps.com/UspsToolsRestServices/rest/POLocator/findLocations", "@spider": "usps_collection_boxes", "addr:city": "FRITCH", "addr:country": "US", "addr:postcode": "79036", "addr:state": "TX", "addr:street_address": "107 N HOYNE AVE", "amenity": "post_box", "collection_times": "Mo-Fr 16:30", "indoor": "yes", "note": "ON 12/24 AND 12/31, THIS BOX MAY BE COLLECTED AS EARLY AS 12 NOON.", "nsi_id": "unitedstatespostalservice-a77078", "operator": "United States Postal Service", "operator:short": "USPS", "operator:type": "public", "operator:wikidata": "Q668687", "ref": "7903600004"}, "type": "Feature"}
{"geometry": {"coordinates": [-101.107972, 35.201695], "type": "Point"}, "id": "BMORM5Ohmb3EdrVacsOukz9jNHk=", "properties": {"@source_uri": "https://tools.usps.com/UspsToolsRestServices/rest/POLocator/findLocations", "@spider": "usps_collection_boxes", "addr:city": "GROOM", "addr:country": "US", "addr:postcode": "79039", "addr:state": "TX", "addr:street_address": "104 W 1ST ST", "amenity": "post_box", "collection_times": "Mo-Fr 15:45; Sa 08:00", "note": "ON 12/24 AND 12/31, THIS BOX MAY BE COLLECTED AS EARLY AS 12 NOON.", "nsi_id": "unitedstatespostalservice-a77078", "operator": "United States Postal Service", "operator:short": "USPS", "operator:type": "public", "operator:wikidata": "Q668687", "ref": "7903900000"}, "type": "Feature"}
{"geometry": {"coordinates": [-101.107881, 35.201651], "type": "Point"}, "id": "_NRG71gQJK1TzeK_zJHMEMnAG3o=", "properties": {"@source_uri": "https://tools.usps.com/UspsToolsRestServices/rest/POLocator/findLocations", "@spider": "usps_collection_boxes", "addr:city": "GROOM", "addr:country": "US", "addr:postcode": "79039", "addr:state": "TX", "addr:street_address": "104 W 1ST ST", "amenity": "post_box", "collection_times": "Mo-Fr 15:45", "indoor": "yes", "note": "ON 12/24 AND 12/31, THIS BOX MAY BE COLLECTED AS EARLY AS 12 NOON.", "nsi_id": "unitedstatespostalservice-a77078", "operator": "United States Postal Service", "operator:short": "USPS", "operator:type": "public", "operator:wikidata": "Q668687", "ref": "7903900001"}, "type": "Feature"}
{"geometry": {"coordinates": [-101.10856565, 35.201797165], "type": "Point"}, "id": "jJtpDi0hlGJQMkmKV7KZhzHPYH0=", "properties": {"@source_uri": "https://tools.usps.com/UspsToolsRestServices/rest/POLocator/findLocations", "@spider": "usps_collection_boxes", "addr:city": "GROOM", "addr:country": "US", "addr:postcode": "79039", "addr:state": "TX", "addr:street_address": "104 W 1ST ST", "amenity": "post_box", "collection_times": "Mo-Fr 16:00", "indoor": "yes", "note": "ON 12/24 AND 12/31, THIS BOX MAY BE COLLECTED AS EARLY AS 12 NOON.", "nsi_id": "unitedstatespostalservice-a77078", "operator": "United States Postal Service", "operator:short": "USPS", "operator:type": "public", "operator:wikidata": "Q668687", "ref": "7903900003"}, "type": "Feature"}
{"geometry": {"coordinates": [-101.4057860157, 36.2660010048], "type": "Point"}, "id": "dQeK4SxqLbHm1ALdJJOO4iZIWIY=", "properties": {"@source_uri": "https://tools.usps.com/UspsToolsRestServices/rest/POLocator/findLocations", "@spider": "usps_collection_boxes", "addr:city": "GRUVER", "addr:country": "US", "addr:postcode": "79040", "addr:state": "TX", "addr:street_address": "301 MAIN ST", "amenity": "post_box", "collection_times": "Mo-Fr 16:00; Sa 10:30", "indoor": "yes", "note": "ON 12/24 AND 12/31, THIS BOX MAY BE COLLECTED AS EARLY AS 12 NOON.", "nsi_id": "unitedstatespostalservice-a77078", "operator": "United States Postal Service", "operator:short": "USPS", "operator:type": "public", "operator:wikidata": "Q668687", "ref": "7904000000"}, "type": "Feature"}
{"geometry": {"coordinates": [-101.4057860157, 36.2660010048], "type": "Point"}, "id": "2VDRE55Pb0Zw3VgYV-WTusv-w4o=", "properties": {"@source_uri": "https://tools.usps.com/UspsToolsRestServices/rest/POLocator/findLocations", "@spider": "usps_collection_boxes", "addr:city": "GRUVER", "addr:country": "US", "addr:postcode": "79040", "addr:state": "TX", "addr:street_address": "301 MAIN ST", "amenity": "post_box", "collection_times": "Mo-Fr 16:00; Sa 10:30", "note": "ON 12/24 AND 12/31, THIS BOX MAY BE COLLECTED AS EARLY AS 12 NOON.", "nsi_id": "unitedstatespostalservice-a77078", "operator": "United States Postal Service", "operator:short": "USPS", "operator:type": "public", "operator:wikidata": "Q668687", "ref": "7904000001"}, "type": "Feature"}
{"geometry": {"coordinates": [-101.4057860157, 36.2660010048], "type": "Point"}, "id": "Hi8PEpsS4_hHkSSUtX3Swvqie84=", "properties": {"@source_uri": "https://tools.usps.com/UspsToolsRestServices/rest/POLocator/findLocations", "@spider": "usps_collection_boxes", "addr:city": "GRUVER", "addr:country": "US", "addr:postcode": "79040", "addr:state": "TX", "addr:street_address": "301 MAIN ST", "amenity": "post_box", "collection_times": "Mo-Fr 16:00; Sa 10:30", "indoor": "yes", "note": "ON 12/24 AND 12/31, THIS BOX MAY BE COLLECTED AS EARLY AS 12 NOON.", "nsi_id": "unitedstatespostalservice-a77078", "operator": "United States Postal Service", "operator:short": "USPS", "operator:type": "public", "operator:wikidata": "Q668687", "ref": "7904000003"}, "type": "Feature"}
{"geometry": {"coordinates": [-101.4057860157, 36.2660010048], "type": "Point"}, "id": "AsZnke-YSWOT2ynS0flYjRGZN9w=", "properties": {"@source_uri": "https://tools.usps.com/UspsToolsRestServices/rest/POLocator/findLocations", "@spider": "usps_collection_boxes", "addr:city": "GRUVER", "addr:country": "US", "addr:postcode": "79040", "addr:state": "TX", "addr:street_address": "301 MAIN ST", "amenity": "post_box", "collection_times": "Mo-Fr 16:00", "indoor": "yes", "note": "ON 12/24 AND 12/31, THIS BOX MAY BE COLLECTED AS EARLY AS 12 NOON.", "nsi_id": "unitedstatespostalservice-a77078", "operator": "United States Postal Service", "operator:short": "USPS", "operator:type": "public", "operator:wikidata": "Q668687", "ref": "7904000004"}, "type": "Feature"}
{"geometry": {"coordinates": [-101.846726, 34.065415], "type": "Point"}, "id": "8Ko7jqX4J8Iyww--O0QC8VkpVvQ=", "properties": {"@source_uri": "https://tools.usps.com/UspsToolsRestServices/rest/POLocator/findLocations", "@spider": "usps_collection_boxes", "addr:city": "HALE CENTER", "addr:country": "US", "addr:postcode": "79041", "addr:state": "TX", "addr:street_address": "203 W STEVENSON AVE", "amenity": "post_box", "collection_times": "Mo-Fr 16:00; Sa 10:30", "note": "ON 12/24 AND 12/31, THIS BOX MAY BE COLLECTED AS EARLY AS 12 NOON.", "nsi_id": "unitedstatespostalservice-a77078", "operator": "United States Postal Service", "operator:short": "USPS", "operator:type": "public", "operator:wikidata": "Q668687", "ref": "7904100001"}, "type": "Feature"}
{"geometry": {"coordinates": [-101.846622, 34.065442], "type": "Point"}, "id": "wrasuMnk_nHR033ltmunqxx22-c=", "properties": {"@source_uri": "https://tools.usps.com/UspsToolsRestServices/rest/POLocator/findLocations", "@spider": "usps_collection_boxes", "addr:city": "HALE CENTER", "addr:country": "US", "addr:postcode": "79041", "addr:state": "TX", "addr:street_address": "203 W STEVENSON AVE", "amenity": "post_box", "collection_times": "Mo-Fr 16:00; Sa 10:30", "indoor": "yes", "note": "ON 12/24 AND 12/31, THIS BOX MAY BE COLLECTED AS EARLY AS 12 NOON.", "nsi_id": "unitedstatespostalservice-a77078", "operator": "United States Postal Service", "operator:short": "USPS", "operator:type": "public", "operator:wikidata": "Q668687", "ref": "7904100003"}, "type": "Feature"}
{"geometry": {"coordinates": [-101.846622, 34.065442], "type": "Point"}, "id": "_RHouo1Nh5dfmvjoRAivSfswZ28=", "properties": {"@source_uri": "https://tools.usps.com/UspsToolsRestServices/rest/POLocator/findLocations", "@spider": "usps_collection_boxes", "addr:city": "HALE CENTER", "addr:country": "US", "addr:postcode": "79041", "addr:state": "TX", "addr:street_address": "203 W STEVENSON AVE", "amenity": "post_box", "collection_times": "Mo-Fr 16:00; Sa 10:30", "indoor": "yes", "note": "ON 12/24 AND 12/31, THIS BOX MAY BE COLLECTED AS EARLY AS 12 NOON.", "nsi_id": "unitedstatespostalservice-a77078", "operator": "United States Postal Service", "operator:short": "USPS", "operator:type": "public", "operator:wikidata": "Q668687", "ref": "7904100004"}, "type": "Feature"}
{"geometry": {"coordinates": [-101.846721073, 34.065398421], "type": "Point"}, "id": "lQEX2sXF2DkRELo5klxhzhTFdJ0=", "properties": {"@source_uri": "https://tools.usps.com/UspsToolsRestServices/rest/POLocator/findLocations", "@spider": "usps_collection_boxes", "addr:city": "HALE CENTER", "addr:country": "US", "addr:postcode": "79041", "addr:state": "TX", "addr:street_address": "203 W STEVENSON AVE", "amenity": "post_box", "collection_times": "Mo-Fr 16:00", "indoor": "yes", "note": "ON 12/24 AND 12/31, THIS BOX MAY BE COLLECTED AS EARLY AS 12 NOON.", "nsi_id": "unitedstatespostalservice-a77078", "operator": "United States Postal Service", "operator:short": "USPS", "operator:type": "public", "operator:wikidata": "Q668687", "ref": "7904100005"}, "type": "Feature"}
{"geometry": {"coordinates": [-101.854767, 34.743216], "type": "Point"}, "id": "C_O1TJm8adW6SbzffLuRnGydB4c=", "properties": {"@source_uri": "https://tools.usps.com/UspsToolsRestServices/rest/POLocator/findLocations", "@spider": "usps_collection_boxes", "addr:city": "HAPPY", "addr:country": "US", "addr:postcode": "79042", "addr:state": "TX", "addr:street_address": "202 MAIN ST", "amenity": "post_box", "collection_times": "Mo-Fr 15:30; Sa 09:30", "note": "ON 12/24 AND 12/31, THIS BOX MAY BE COLLECTED AS EARLY AS 12 NOON.", "nsi_id": "unitedstatespostalservice-a77078", "operator": "United States Postal Service", "operator:short": "USPS", "operator:type": "public", "operator:wikidata": "Q668687", "ref": "7904200000"}, "type": "Feature"}
{"geometry": {"coordinates": [-101.854887, 34.743423], "type": "Point"}, "id": "ECSEeKY_VnwlLLk0W1zin2TKm7g=", "properties": {"@source_uri": "https://tools.usps.com/UspsToolsRestServices/rest/POLocator/findLocations", "@spider": "usps_collection_boxes", "addr:city": "HAPPY", "addr:country": "US", "addr:postcode": "79042", "addr:state": "TX", "addr:street_address": "202 MAIN ST", "amenity": "post_box", "collection_times": "Mo-Fr 15:30; Sa 09:30", "indoor": "yes", "note": "ON 12/24 AND 12/31, THIS BOX MAY BE COLLECTED AS EARLY AS 12 NOON.", "nsi_id": "unitedstatespostalservice-a77078", "operator": "United States Postal Service", "operator:short": "USPS", "operator:type": "public", "operator:wikidata": "Q668687", "ref": "7904200001"}, "type": "Feature"}
{"geometry": {"coordinates": [-101.857704306, 34.743651574], "type": "Point"}, "id": "hz4ILj_X5OZJKrNDJYuHA3cCj6g=", "properties": {"@source_uri": "https://tools.usps.com/UspsToolsRestServices/rest/POLocator/findLocations", "@spider": "usps_collection_boxes", "addr:city": "HAPPY", "addr:country": "US", "addr:postcode": "79042", "addr:state": "TX", "addr:street_address": "202 MAIN ST", "amenity": "post_box", "collection_times": "Mo-Fr 15:30; Sa 10:00", "indoor": "yes", "note": "ON 12/24 AND 12/31, THIS BOX MAY BE COLLECTED AS EARLY AS 12 NOON.", "nsi_id": "unitedstatespostalservice-a77078", "operator": "United States Postal Service", "operator:short": "USPS", "operator:type": "public", "operator:wikidata": "Q668687", "ref": "7904200004"}, "type": "Feature"}
{"geometry": {"coordinates": [-102.116298, 34.377832], "type": "Point"}, "id": "L9GQKwGzAbqfLa7hzAvx8eR9aFQ=", "properties": {"@source_uri": "https://tools.usps.com/UspsToolsRestServices/rest/POLocator/findLocations", "@spider": "usps_collection_boxes", "addr:city": "HART", "addr:country": "US", "addr:postcode": "79043", "addr:state": "TX", "addr:street_address": "600 BROADWAY ST", "amenity": "post_box", "collection_times": "Mo-Fr 16:00; Sa 09:30", "note": "ON 12/24 AND 12/31, THIS BOX MAY BE COLLECTED AS EARLY AS 12 NOON.", "nsi_id": "unitedstatespostalservice-a77078", "operator": "United States Postal Service", "operator:short": "USPS", "operator:type": "public", "operator:wikidata": "Q668687", "ref": "7904300000"}, "type": "Feature"}
{"geometry": {"coordinates": [-102.116298, 34.377832], "type": "Point"}, "id": "sKxcQ3dF4EQ6i1aot1bYTF7WiAU=", "properties": {"@source_uri": "https://tools.usps.com/UspsToolsRestServices/rest/POLocator/findLocations", "@spider": "usps_collection_boxes", "addr:city": "HART", "addr:country": "US", "addr:postcode": "79043", "addr:state": "TX", "addr:street_address": "600 BROADWAY ST", "amenity": "post_box", "collection_times": "Mo-Fr 16:00; Sa 09:30", "indoor": "yes", "note": "ON 12/24 AND 12/31, THIS BOX MAY BE COLLECTED AS EARLY AS 12 NOON.", "nsi_id": "unitedstatespostalservice-a77078", "operator": "United States Postal Service", "operator:short": "USPS", "operator:type": "public", "operator:wikidata": "Q668687", "ref": "7904300002"}, "type": "Feature"}
{"geometry": {"coordinates": [-102.115871263, 34.386217165], "type": "Point"}, "id": "Mnzb2f-Vlh2XH9wMsFDAQ7jLQ2w=", "properties": {"@source_uri": "https://tools.usps.com/UspsToolsRestServices/rest/POLocator/findLocations", "@spider": "usps_collection_boxes", "addr:city": "HART", "addr:country": "US", "addr:postcode": "79043", "addr:state": "TX", "addr:street_address": "600 BROADWAY ST", "amenity": "post_box", "collection_times": "Mo-Fr 16:00", "indoor": "yes", "note": "ON 12/24 AND 12/31, THIS BOX MAY BE COLLECTED AS EARLY AS 12 NOON.", "nsi_id": "unitedstatespostalservice-a77078", "operator": "United States Postal Service", "operator:short": "USPS", "operator:type": "public", "operator:wikidata": "Q668687", "ref": "7904300003"}, "type": "Feature"}
{"geometry": {"coordinates": [-102.40616, 35.881802], "type": "Point"}, "id": "p7i0qM_8AXJgEP1W6uj70nDJDq0=", "properties": {"@source_uri": "https://tools.usps.com/UspsToolsRestServices/rest/POLocator/findLocations", "@spider": "usps_collection_boxes", "addr:city": "HARTLEY", "addr:country": "US", "addr:postcode": "79044", "addr:state": "TX", "addr:street_address": "210 WHITE ST", "amenity": "post_box", "collection_times": "Mo-Fr 16:00; Sa 08:30", "note": "ON 12/24 AND 12/31, THIS BOX MAY BE COLLECTED AS EARLY AS 12 NOON.", "nsi_id": "unitedstatespostalservice-a77078", "operator": "United States Postal Service", "operator:short": "USPS", "operator:type": "public", "operator:wikidata": "Q668687", "ref": "7904400000"}, "type": "Feature"}
{"geometry": {"coordinates": [-102.40616, 35.881802], "type": "Point"}, "id": "XF8v51130h85DWqEb9GmZ745tqc=", "properties": {"@source_uri": "https://tools.usps.com/UspsToolsRestServices/rest/POLocator/findLocations", "@spider": "usps_collection_boxes", "addr:city": "HARTLEY", "addr:country": "US", "addr:postcode": "79044", "addr:state": "TX", "addr:street_address": "210 WHITE ST", "amenity": "post_box", "collection_times": "Mo-Fr 16:00; Sa 08:30", "indoor": "yes", "note": "ON 12/24 AND 12/31, THIS BOX MAY BE COLLECTED AS EARLY AS 12 NOON.", "nsi_id": "unitedstatespostalservice-a77078", "operator": "United States Postal Service", "operator:short": "USPS", "operator:type": "public", "operator:wikidata": "Q668687", "ref": "7904400001"}, "type": "Feature"}
{"geometry": {"coordinates": [-102.40616, 35.881802], "type": "Point"}, "id": "G0gSCOFqPWQ-3oDJSC__6rkx69g=", "properties": {"@source_uri": "https://tools.usps.com/UspsToolsRestServices/rest/POLocator/findLocations", "@spider": "usps_collection_boxes", "addr:city": "HARTLEY", "addr:country": "US", "addr:postcode": "79044", "addr:state": "TX", "addr:street_address": "210 WHITE ST", "amenity": "post_box", "collection_times": "Mo-Fr 16:00; Sa 08:30", "indoor": "yes", "note": "ON 12/24 AND 12/31, THIS BOX MAY BE COLLECTED AS EARLY AS 12 NOON.", "nsi_id": "unitedstatespostalservice-a77078", "operator": "United States Postal Service", "operator:short": "USPS", "operator:type": "public", "operator:wikidata": "Q668687", "ref": "7904400003"}, "type": "Feature"}
{"geometry": {"coordinates": [-102.394710559, 35.886459276], "type": "Point"}, "id": "Y1P1oY3C_1Qlpo1w4mKBfMH1Kb0=", "properties": {"@source_uri": "https://tools.usps.com/UspsToolsRestServices/rest/POLocator/findLocations", "@spider": "usps_collection_boxes", "addr:city": "HARTLEY", "addr:country": "US", "addr:postcode": "79044", "addr:state": "TX", "addr:street_address": "210 WHITE ST", "amenity": "post_box", "collection_times": "Mo-Fr 16:00", "indoor": "yes", "note": "ON 12/24 AND 12/31, THIS BOX MAY BE COLLECTED AS EARLY AS 12 NOON.", "nsi_id": "unitedstatespostalservice-a77078", "operator": "United States Postal Service", "operator:short": "USPS", "operator:type": "public", "operator:wikidata": "Q668687", "ref": "7904400004"}, "type": "Feature"}
{"geometry": {"coordinates": [-102.400052, 34.817724], "type": "Point"}, "id": "YcHZpf8L4rlpW5-cY8lu8mtDqGU=", "properties": {"@source_uri": "https://tools.usps.com/UspsToolsRestServices/rest/POLocator/findLocations", "@spider": "usps_collection_boxes", "addr:city": "HEREFORD", "addr:country": "US", "addr:postcode": "79045", "addr:state": "TX", "addr:street_address": "408 MAIN ST", "amenity": "post_box", "collection_times": "Mo-Fr 16:45; Sa 15:00", "note": "ON 12/24 AND 12/31, THIS BOX MAY BE COLLECTED AS EARLY AS 12 NOON.", "nsi_id": "unitedstatespostalservice-a77078", "operator": "United States Postal Service", "operator:short": "USPS", "operator:type": "public", "operator:wikidata": "Q668687", "ref": "7904500008"}, "type": "Feature"}
{"geometry": {"coordinates": [-102.400052, 34.817724], "type": "Point"}, "id": "C2auzbhXUU2akPigeieODkBkEMo=", "properties": {"@source_uri": "https://tools.usps.com/UspsToolsRestServices/rest/POLocator/findLocations", "@spider": "usps_collection_boxes", "addr:city": "HEREFORD", "addr:country": "US", "addr:postcode": "79045", "addr:state": "TX", "addr:street_address": "408 MAIN ST", "amenity": "post_box", "collection_times": "Mo-Fr 16:45; Sa 15:00", "note": "ON 12/24 AND 12/31, THIS BOX MAY BE COLLECTED AS EARLY AS 12 NOON.", "nsi_id": "unitedstatespostalservice-a77078", "operator": "United States Postal Service", "operator:short": "USPS", "operator:type": "public", "operator:wikidata": "Q668687", "ref": "7904500009"}, "type": "Feature"}
{"geometry": {"coordinates": [-102.400052, 34.817724], "type": "Point"}, "id": "nlJZT7kFOBducZBaZGYqRr67ZyE=", "properties": {"@source_uri": "https://tools.usps.com/UspsToolsRestServices/rest/POLocator/findLocations", "@spider": "usps_collection_boxes", "addr:city": "HEREFORD", "addr:country": "US", "addr:postcode": "79045", "addr:state": "TX", "addr:street_address": "408 MAIN ST", "amenity": "post_box", "collection_times": "Mo-Fr 16:45; Sa 15:00", "indoor": "yes", "note": "ON 12/24 AND 12/31, THIS BOX MAY BE COLLECTED AS EARLY AS 12 NOON.", "nsi_id": "unitedstatespostalservice-a77078", "operator": "United States Postal Service", "operator:short": "USPS", "operator:type": "public", "operator:wikidata": "Q668687", "ref": "7904500013"}, "type": "Feature"}
{"geometry": {"coordinates": [-102.400052, 34.817724], "type": "Point"}, "id": "4DZJphCDwxhhZlAmZ2nJ54nQf6s=", "properties": {"@source_uri": "https://tools.usps.com/UspsToolsRestServices/rest/POLocator/findLocations", "@spider": "usps_collection_boxes", "addr:city": "HEREFORD", "addr:country": "US", "addr:postcode": "79045", "addr:state": "TX", "addr:street_address": "408 MAIN ST", "amenity": "post_box", "collection_times": "Mo-Fr 16:45; Sa 15:00", "indoor": "yes", "note": "ON 12/24 AND 12/31, THIS BOX MAY BE COLLECTED AS EARLY AS 12 NOON.", "nsi_id": "unitedstatespostalservice-a77078", "operator": "United States Postal Service", "operator:short": "USPS", "operator:type": "public", "operator:wikidata": "Q668687", "ref": "7904500018"}, "type": "Feature"}
{"geometry": {"coordinates": [-102.400186926, 34.817961236], "type": "Point"}, "id": "g6ewY6smGp05ZCSwatqzq5zW-1E=", "properties": {"@source_uri": "https://tools.usps.com/UspsToolsRestServices/rest/POLocator/findLocations", "@spider": "usps_collection_boxes", "addr:city": "HEREFORD", "addr:country": "US", "addr:postcode": "79045", "addr:state": "TX", "addr:street_address": "408 MAIN ST", "amenity": "post_box", "collection_times": "Mo-Fr 16:30", "indoor": "yes", "note": "ON 12/24 AND 12/31, THIS BOX MAY BE COLLECTED AS EARLY AS 12 NOON.", "nsi_id": "unitedstatespostalservice-a77078", "operator": "United States Postal Service", "operator:short": "USPS", "operator:type": "public", "operator:wikidata": "Q668687", "ref": "7904500022"}, "type": "Feature"}
{"geometry": {"coordinates": [-100.024762, 36.120058], "type": "Point"}, "id": "dFgnL6lEIZ6CtQYSWm_Bw7HXmlw=", "properties": {"@source_uri": "https://tools.usps.com/UspsToolsRestServices/rest/POLocator/findLocations", "@spider": "usps_collection_boxes", "addr:city": "HIGGINS", "addr:country": "US", "addr:postcode": "79046", "addr:state": "TX", "addr:street_address": "116 N MAIN ST", "amenity": "post_box", "collection_times": "Mo-Fr 12:15; Sa 10:00", "indoor": "yes", "note": "ON 12/24 AND 12/31, THIS BOX MAY BE COLLECTED AS EARLY AS 12 NOON.", "nsi_id": "unitedstatespostalservice-a77078", "operator": "United States Postal Service", "operator:short": "USPS", "operator:type": "public", "operator:wikidata": "Q668687", "ref": "7904600002"}, "type": "Feature"}
{"geometry": {"coordinates": [-100.024744855, 36.120125702], "type": "Point"}, "id": "4Ssc4bMyE1F9poBJ7yb02LPHxMA=", "properties": {"@source_uri": "https://tools.usps.com/UspsToolsRestServices/rest/POLocator/findLocations", "@spider": "usps_collection_boxes", "addr:city": "HIGGINS", "addr:country": "US", "addr:postcode": "79046", "addr:state": "TX", "addr:street_address": "116 N MAIN ST", "amenity": "post_box", "collection_times": "Mo-Fr 12:15", "indoor": "yes", "note": "ON 12/24 AND 12/31, THIS BOX MAY BE COLLECTED AS EARLY AS 12 NOON.", "nsi_id": "unitedstatespostalservice-a77078", "operator": "United States Postal Service", "operator:short": "USPS", "operator:type": "public", "operator:wikidata": "Q668687", "ref": "7904600003"}, "type": "Feature"}
{"geometry": {"coordinates": [-101.749981, 34.369211], "type": "Point"}, "id": "tHzxexEgajx8rAnWsmn8HQdAYyc=", "properties": {"@source_uri": "https://tools.usps.com/UspsToolsRestServices/rest/POLocator/findLocations", "@spider": "usps_collection_boxes", "addr:city": "KRESS", "addr:country": "US", "addr:postcode": "79052", "addr:state": "TX", "addr:street_address": "400 SKIPWORTH ST", "amenity": "post_box", "collection_times": "Mo-Fr 16:00; Sa 09:00", "note": "ON 12/24 AND 12/31, THIS BOX MAY BE COLLECTED AS EARLY AS 12 NOON.", "nsi_id": "unitedstatespostalservice-a77078", "operator": "United States Postal Service", "operator:short": "USPS", "operator:type": "public", "operator:wikidata": "Q668687", "ref": "7905200000"}, "type": "Feature"}
{"geometry": {"coordinates": [-101.750011, 34.369121], "type": "Point"}, "id": "G_7Pw5QWN9u2WvzPdPZeozT_EYg=", "properties": {"@source_uri": "https://tools.usps.com/UspsToolsRestServices/rest/POLocator/findLocations", "@spider": "usps_collection_boxes", "addr:city": "KRESS", "addr:country": "US", "addr:postcode": "79052", "addr:state": "TX", "addr:street_address": "400 SKIPWORTH ST", "amenity": "post_box", "collection_times": "Mo-Fr 16:00; Sa 09:00", "indoor": "yes", "note": "ON 12/24 AND 12/31, THIS BOX MAY BE COLLECTED AS EARLY AS 12 NOON.", "nsi_id": "unitedstatespostalservice-a77078", "operator": "United States Postal Service", "operator:short": "USPS", "operator:type": "public", "operator:wikidata": "Q668687", "ref": "7905200001"}, "type": "Feature"}
{"geometry": {"coordinates": [-101.750029933, 34.365074567], "type": "Point"}, "id": "26Zm9XSiuYhLI4Lo7MqEbIEFFr8=", "properties": {"@source_uri": "https://tools.usps.com/UspsToolsRestServices/rest/POLocator/findLocations", "@spider": "usps_collection_boxes", "addr:city": "KRESS", "addr:country": "US", "addr:postcode": "79052", "addr:state": "TX", "addr:street_address": "400 SKIPWORTH ST", "amenity": "post_box", "collection_times": "Mo-Fr 16:00", "indoor": "yes", "note": "ON 12/24 AND 12/31, THIS BOX MAY BE COLLECTED AS EARLY AS 12 NOON.", "nsi_id": "unitedstatespostalservice-a77078", "operator": "United States Postal Service", "operator:short": "USPS", "operator:type": "public", "operator:wikidata": "Q668687", "ref": "7905200003"}, "type": "Feature"}
{"geometry": {"coordinates": [-102.611478, 34.38601], "type": "Point"}, "id": "7v0QEa0E0I4l5MHQvLozWZTgxaI=", "properties": {"@source_uri": "https://tools.usps.com/UspsToolsRestServices/rest/POLocator/findLocations", "@spider": "usps_collection_boxes", "addr:city": "LAZBUDDIE", "addr:country": "US", "addr:postcode": "79053", "addr:state": "TX", "addr:street_address": "610 FM 1172", "amenity": "post_box", "collection_times": "Mo-Sa 11:00", "indoor": "yes", "nsi_id": "unitedstatespostalservice-a77078", "operator": "United States Postal Service", "operator:short": "USPS", "operator:type": "public", "operator:wikidata": "Q668687", "ref": "7905300000"}, "type": "Feature"}
{"geometry": {"coordinates": [-102.611508, 34.386071], "type": "Point"}, "id": "n4oUsgzQ6hTZAna_qdWwta7rXog=", "properties": {"@source_uri": "https://tools.usps.com/UspsToolsRestServices/rest/POLocator/findLocations", "@spider": "usps_collection_boxes", "addr:city": "LAZBUDDIE", "addr:country": "US", "addr:postcode": "79053", "addr:state": "TX", "addr:street_address": "610 FM 1172", "amenity": "post_box", "collection_times": "Mo-Sa 11:00", "indoor": "yes", "nsi_id": "unitedstatespostalservice-a77078", "operator": "United States Postal Service", "operator:short": "USPS", "operator:type": "public", "operator:wikidata": "Q668687", "ref": "7905300001"}, "type": "Feature"}
{"geometry": {"coordinates": [-102.611450515, 34.386304144], "type": "Point"}, "id": "yW6axLVIHB6xNvVmVKA4U2yP7q0=", "properties": {"@source_uri": "https://tools.usps.com/UspsToolsRestServices/rest/POLocator/findLocations", "@spider": "usps_collection_boxes", "addr:city": "LAZBUDDIE", "addr:country": "US", "addr:postcode": "79053", "addr:state": "TX", "addr:street_address": "610 FM 1172", "amenity": "post_box", "collection_times": "Mo-Sa 11:00", "indoor": "yes", "nsi_id": "unitedstatespostalservice-a77078", "operator": "United States Postal Service", "operator:short": "USPS", "operator:type": "public", "operator:wikidata": "Q668687", "ref": "7905300002"}, "type": "Feature"}
{"geometry": {"coordinates": [-100.80598, 35.43654], "type": "Point"}, "id": "LV8ERnuARQOeinRqhuiu2MlYj2k=", "properties": {"@source_uri": "https://tools.usps.com/UspsToolsRestServices/rest/POLocator/findLocations", "@spider": "usps_collection_boxes", "addr:city": "LEFORS", "addr:country": "US", "addr:postcode": "79054", "addr:state": "TX", "addr:street_address": "111 E 2ND ST", "amenity": "post_box", "collection_times": "Mo-Fr 16:00; Sa 10:15", "note": "ON 12/24 AND 12/31, THIS BOX MAY BE COLLECTED AS EARLY AS 12 NOON.", "nsi_id": "unitedstatespostalservice-a77078", "operator": "United States Postal Service", "operator:short": "USPS", "operator:type": "public", "operator:wikidata": "Q668687", "ref": "7905400000"}, "type": "Feature"}
{"geometry": {"coordinates": [-100.80598, 35.43654], "type": "Point"}, "id": "hbw5Mw0YpXnLT5WnTfvXkmBsouA=", "properties": {"@source_uri": "https://tools.usps.com/UspsToolsRestServices/rest/POLocator/findLocations", "@spider": "usps_collection_boxes", "addr:city": "LEFORS", "addr:country": "US", "addr:postcode": "79054", "addr:state": "TX", "addr:street_address": "111 E 2ND ST", "amenity": "post_box", "collection_times": "Mo-Fr 16:00; Sa 10:15", "indoor": "yes", "note": "ON 12/24 AND 12/31, THIS BOX MAY BE COLLECTED AS EARLY AS 12 NOON.", "nsi_id": "unitedstatespostalservice-a77078", "operator": "United States Postal Service", "operator:short": "USPS", "operator:type": "public", "operator:wikidata": "Q668687", "ref": "7905400002"}, "type": "Feature"}
{"geometry": {"coordinates": [-100.80598, 35.43654], "type": "Point"}, "id": "6QQt5DPu_qRnCadcfhFLtKBCn2c=", "properties": {"@source_uri": "https://tools.usps.com/UspsToolsRestServices/rest/POLocator/findLocations", "@spider": "usps_collection_boxes", "addr:city": "LEFORS", "addr:country": "US", "addr:postcode": "79054", "addr:state": "TX", "addr:street_address": "111 E 2ND ST", "amenity": "post_box", "collection_times": "Mo-Fr 16:00", "indoor": "yes", "note": "ON 12/24 AND 12/31, THIS BOX MAY BE COLLECTED AS EARLY AS 12 NOON.", "nsi_id": "unitedstatespostalservice-a77078", "operator": "United States Postal Service", "operator:short": "USPS", "operator:type": "public", "operator:wikidata": "Q668687", "ref": "7905400003"}, "type": "Feature"}
{"geometry": {"coordinates": [-100.131485, 36.21795], "type": "Point"}, "id": "pdIfUTWb81iCBFgsQwwkBjS4rM4=", "properties": {"@source_uri": "https://tools.usps.com/UspsToolsRestServices/rest/POLocator/findLocations", "@spider": "usps_collection_boxes", "addr:city": "LIPSCOMB", "addr:country": "US", "addr:postcode": "79056", "addr:state": "TX", "addr:street_address": "100 S MAIN ST", "amenity": "post_box", "collection_times": "Mo-Fr 12:00; Sa 10:30", "indoor": "yes", "nsi_id": "unitedstatespostalservice-a77078", "operator": "United States Postal Service", "operator:short": "USPS", "operator:type": "public", "operator:wikidata": "Q668687", "ref": "7905600000"}, "type": "Feature"}
{"geometry": {"coordinates": [-100.271158903, 36.233099581], "type": "Point"}, "id": "rRvJocYmzJm40KLpUI1XFkpGZmk=", "properties": {"@source_uri": "https://tools.usps.com/UspsToolsRestServices/rest/POLocator/findLocations", "@spider": "usps_collection_boxes", "addr:city": "LIPSCOMB", "addr:country": "US", "addr:postcode": "79056", "addr:state": "TX", "addr:street_address": "100 S MAIN ST", "amenity": "post_box", "collection_times": "Mo-Fr 12:00", "indoor": "yes", "nsi_id": "unitedstatespostalservice-a77078", "operator": "United States Postal Service", "operator:short": "USPS", "operator:type": "public", "operator:wikidata": "Q668687", "ref": "7905600001"}, "type": "Feature"}
{"geometry": {"coordinates": [-100.739811, 35.21436], "type": "Point"}, "id": "LaRlEUnLNw8sYb7PgDv9ajE8mjo=", "properties": {"@source_uri": "https://tools.usps.com/UspsToolsRestServices/rest/POLocator/findLocations", "@spider": "usps_collection_boxes", "addr:city": "MCLEAN", "addr:country": "US", "addr:postcode": "79057", "addr:state": "TX", "addr:street_address": "13100 INTERSTATE 40", "amenity": "post_box", "collection_times": "Mo-Sa 10:15", "nsi_id": "unitedstatespostalservice-a77078", "operator": "United States Postal Service", "operator:short": "USPS", "operator:type": "public", "operator:wikidata": "Q668687", "ref": "7905700000"}, "type": "Feature"}
{"geometry": {"coordinates": [-100.600269, 35.231502], "type": "Point"}, "id": "K8TPtIl185jfrHHT1Iq6JISieEc=", "properties": {"@source_uri": "https://tools.usps.com/UspsToolsRestServices/rest/POLocator/findLocations", "@spider": "usps_collection_boxes", "addr:city": "MCLEAN", "addr:country": "US", "addr:postcode": "79057", "addr:state": "TX", "addr:street_address": "101 S MAIN ST", "amenity": "post_box", "collection_times": "Mo-Fr 16:00; Sa 11:00", "note": "ON 12/24 AND 12/31, THIS BOX MAY BE COLLECTED AS EARLY AS 12 NOON.", "nsi_id": "unitedstatespostalservice-a77078", "operator": "United States Postal Service", "operator:short": "USPS", "operator:type": "public", "operator:wikidata": "Q668687", "ref": "7905700001"}, "type": "Feature"}
{"geometry": {"coordinates": [-100.600269, 35.231502], "type": "Point"}, "id": "lcRBrciLAZ-LoCtqaSk_G1jUV_c=", "properties": {"@source_uri": "https://tools.usps.com/UspsToolsRestServices/rest/POLocator/findLocations", "@spider": "usps_collection_boxes", "addr:city": "MCLEAN", "addr:country": "US", "addr:postcode": "79057", "addr:state": "TX", "addr:street_address": "101 S MAIN ST", "amenity": "post_box", "collection_times": "Mo-Fr 16:00; Sa 11:00", "indoor": "yes", "note": "ON 12/24 AND 12/31, THIS BOX MAY BE COLLECTED AS EARLY AS 12 NOON.", "nsi_id": "unitedstatespostalservice-a77078", "operator": "United States Postal Service", "operator:short": "USPS", "operator:type": "public", "operator:wikidata": "Q668687", "ref": "7905700003"}, "type": "Feature"}
{"geometry": {"coordinates": [-100.60044089, 35.231137951], "type": "Point"}, "id": "i4I-4bcj_L2OaR1wzYf1Rl42a_A=", "properties": {"@source_uri": "https://tools.usps.com/UspsToolsRestServices/rest/POLocator/findLocations", "@spider": "usps_collection_boxes", "addr:city": "MCLEAN", "addr:country": "US", "addr:postcode": "79057", "addr:state": "TX", "addr:street_address": "101 S MAIN ST", "amenity": "post_box", "collection_times": "Mo-Fr 16:00", "indoor": "yes", "note": "ON 12/24 AND 12/31, THIS BOX MAY BE COLLECTED AS EARLY AS 12 NOON.", "nsi_id": "unitedstatespostalservice-a77078", "operator": "United States Postal Service", "operator:short": "USPS", "operator:type": "public", "operator:wikidata": "Q668687", "ref": "7905700004"}, "type": "Feature"}
{"geometry": {"coordinates": [-100.637517, 35.690675], "type": "Point"}, "id": "6uq-Q8_5jLYTou-rcyAcpL2BjNY=", "properties": {"@source_uri": "https://tools.usps.com/UspsToolsRestServices/rest/POLocator/findLocations", "@spider": "usps_collection_boxes", "addr:city": "MIAMI", "addr:country": "US", "addr:postcode": "79059", "addr:state": "TX", "addr:street_address": "116 S MAIN ST", "amenity": "post_box", "collection_times": "Mo-Fr 16:00; Sa 08:30", "note": "ON 12/24 AND 12/31, THIS BOX MAY BE COLLECTED AS EARLY AS 12 NOON.", "nsi_id": "unitedstatespostalservice-a77078", "operator": "United States Postal Service", "operator:short": "USPS", "operator:type": "public", "operator:wikidata": "Q668687", "ref": "7905900000"}, "type": "Feature"}
{"geometry": {"coordinates": [-100.637687, 35.690676], "type": "Point"}, "id": "J5rUJrt_uOqyc9XqYlJQ-1YTj1Y=", "properties": {"@source_uri": "https://tools.usps.com/UspsToolsRestServices/rest/POLocator/findLocations", "@spider": "usps_collection_boxes", "addr:city": "MIAMI", "addr:country": "US", "addr:postcode": "79059", "addr:state": "TX", "addr:street_address": "116 S MAIN ST", "amenity": "post_box", "collection_times": "Mo-Fr 16:00; Sa 08:30", "indoor": "yes", "note": "ON 12/24 AND 12/31, THIS BOX MAY BE COLLECTED AS EARLY AS 12 NOON.", "nsi_id": "unitedstatespostalservice-a77078", "operator": "United States Postal Service", "operator:short": "USPS", "operator:type": "public", "operator:wikidata": "Q668687", "ref": "7905900001"}, "type": "Feature"}
{"geometry": {"coordinates": [-100.637534744, 35.69079621], "type": "Point"}, "id": "lsnZb6tLaC6ZdQ30opIQtHcSLc4=", "properties": {"@source_uri": "https://tools.usps.com/UspsToolsRestServices/rest/POLocator/findLocations", "@spider": "usps_collection_boxes", "addr:city": "MIAMI", "addr:country": "US", "addr:postcode": "79059", "addr:state": "TX", "addr:street_address": "116 S MAIN ST", "amenity": "post_box", "collection_times": "Mo-Fr 16:00", "indoor": "yes", "note": "ON 12/24 AND 12/31, THIS BOX MAY BE COLLECTED AS EARLY AS 12 NOON.", "nsi_id": "unitedstatespostalservice-a77078", "operator": "United States Postal Service", "operator:short": "USPS", "operator:type": "public", "operator:wikidata": "Q668687", "ref": "7905900002"}, "type": "Feature"}
{"geometry": {"coordinates": [-100.440162, 35.536089], "type": "Point"}, "id": "nHWO8E6diCFFiLNcirZKe1nYuFM=", "properties": {"@source_uri": "https://tools.usps.com/UspsToolsRestServices/rest/POLocator/findLocations", "@spider": "usps_collection_boxes", "addr:city": "MOBEETIE", "addr:country": "US", "addr:postcode": "79061", "addr:state": "TX", "addr:street_address": "214 W 1ST ST", "amenity": "post_box", "collection_times": "Mo-Fr 14:45; Sa 10:00", "note": "ON 12/24 AND 12/31, THIS BOX MAY BE COLLECTED AS EARLY AS 12 NOON.", "nsi_id": "unitedstatespostalservice-a77078", "operator": "United States Postal Service", "operator:short": "USPS", "operator:type": "public", "operator:wikidata": "Q668687", "ref": "7906100000"}, "type": "Feature"}
{"geometry": {"coordinates": [-100.440224, 35.536062], "type": "Point"}, "id": "i-hy8a7vRJjP8aUG_pVzrgk0lkY=", "properties": {"@source_uri": "https://tools.usps.com/UspsToolsRestServices/rest/POLocator/findLocations", "@spider": "usps_collection_boxes", "addr:city": "MOBEETIE", "addr:country": "US", "addr:postcode": "79061", "addr:state": "TX", "addr:street_address": "214 W 1ST ST", "amenity": "post_box", "collection_times": "Mo-Fr 14:45; Sa 10:00", "indoor": "yes", "note": "ON 12/24 AND 12/31, THIS BOX MAY BE COLLECTED AS EARLY AS 12 NOON.", "nsi_id": "unitedstatespostalservice-a77078", "operator": "United States Postal Service", "operator:short": "USPS", "operator:type": "public", "operator:wikidata": "Q668687", "ref": "7906100002"}, "type": "Feature"}
{"geometry": {"coordinates": [-100.439964, 35.536083526], "type": "Point"}, "id": "8402cOVsOqCNvIVfewVmfznZ9Kk=", "properties": {"@source_uri": "https://tools.usps.com/UspsToolsRestServices/rest/POLocator/findLocations", "@spider": "usps_collection_boxes", "addr:city": "MOBEETIE", "addr:country": "US", "addr:postcode": "79061", "addr:state": "TX", "addr:street_address": "214 W 1ST ST", "amenity": "post_box", "collection_times": "Mo-Fr 14:45; Sa 11:45", "indoor": "yes", "note": "ON 12/24 AND 12/31, THIS BOX MAY BE COLLECTED AS EARLY AS 12 NOON.", "nsi_id": "unitedstatespostalservice-a77078", "operator": "United States Postal Service", "operator:short": "USPS", "operator:type": "public", "operator:wikidata": "Q668687", "ref": "7906100003"}, "type": "Feature"}
{"geometry": {"coordinates": [-101.478429, 36.062402], "type": "Point"}, "id": "vGZu3F0LV7sSNtj-jUzYdSVGm5M=", "properties": {"@source_uri": "https://tools.usps.com/UspsToolsRestServices/rest/POLocator/findLocations", "@spider": "usps_collection_boxes", "addr:city": "MORSE", "addr:country": "US", "addr:postcode": "79062", "addr:state": "TX", "addr:street_address": "200 MAIN ST", "amenity": "post_box", "collection_times": "Mo-Fr 15:45; Sa 09:15", "indoor": "yes", "note": "ON 12/24 AND 12/31, THIS BOX MAY BE COLLECTED AS EARLY AS 12 NOON.", "nsi_id": "unitedstatespostalservice-a77078", "operator": "United States Postal Service", "operator:short": "USPS", "operator:type": "public", "operator:wikidata": "Q668687", "ref": "7906200002"}, "type": "Feature"}
{"geometry": {"coordinates": [-101.4748605, 36.062446515], "type": "Point"}, "id": "zIsGi4VXuJwkc-h8XRvNwXureMM=", "properties": {"@source_uri": "https://tools.usps.com/UspsToolsRestServices/rest/POLocator/findLocations", "@spider": "usps_collection_boxes", "addr:city": "MORSE", "addr:country": "US", "addr:postcode": "79062", "addr:state": "TX", "addr:street_address": "200 MAIN ST", "amenity": "post_box", "collection_times": "Mo-Fr 15:45", "indoor": "yes", "note": "ON 12/24 AND 12/31, THIS BOX MAY BE COLLECTED AS EARLY AS 12 NOON.", "nsi_id": "unitedstatespostalservice-a77078", "operator": "United States Postal Service", "operator:short": "USPS", "operator:type": "public", "operator:wikidata": "Q668687", "ref": "7906200003"}, "type": "Feature"}
{"geometry": {"coordinates": [-102.101129, 34.5454], "type": "Point"}, "id": "GYo6MmrXH63ZmRRbXAqSHVd9lSY=", "properties": {"@source_uri": "https://tools.usps.com/UspsToolsRestServices/rest/POLocator/findLocations", "@spider": "usps_collection_boxes", "addr:city": "NAZARETH", "addr:country": "US", "addr:postcode": "79063", "addr:state": "TX", "addr:street_address": "101 SAINT JOSEPH ST", "amenity": "post_box", "collection_times": "Mo-Fr 16:00; Sa 11:15", "note": "ON 12/24 AND 12/31, THIS BOX MAY BE COLLECTED AS EARLY AS 12 NOON.", "nsi_id": "unitedstatespostalservice-a77078", "operator": "United States Postal Service", "operator:short": "USPS", "operator:type": "public", "operator:wikidata": "Q668687", "ref": "7906300000"}, "type": "Feature"}
{"geometry": {"coordinates": [-102.10102, 34.545372], "type": "Point"}, "id": "Lmf00xfq_kW-dHLNjXArssiEPNk=", "properties": {"@source_uri": "https://tools.usps.com/UspsToolsRestServices/rest/POLocator/findLocations", "@spider": "usps_collection_boxes", "addr:city": "NAZARETH", "addr:country": "US", "addr:postcode": "79063", "addr:state": "TX", "addr:street_address": "101 SAINT JOSEPH ST", "amenity": "post_box", "collection_times": "Mo-Fr 16:00; Sa 11:15", "indoor": "yes", "note": "ON 12/24 AND 12/31, THIS BOX MAY BE COLLECTED AS EARLY AS 12 NOON.", "nsi_id": "unitedstatespostalservice-a77078", "operator": "United States Postal Service", "operator:short": "USPS", "operator:type": "public", "operator:wikidata": "Q668687", "ref": "7906300001"}, "type": "Feature"}
{"geometry": {"coordinates": [-102.101421861, 34.545316507], "type": "Point"}, "id": "s_R2OtaQK8BNG_nNkqFvNm2_Xes=", "properties": {"@source_uri": "https://tools.usps.com/UspsToolsRestServices/rest/POLocator/findLocations", "@spider": "usps_collection_boxes", "addr:city": "NAZARETH", "addr:country": "US", "addr:postcode": "79063", "addr:state": "TX", "addr:street_address": "101 SAINT JOSEPH ST", "amenity": "post_box", "collection_times": "Mo-Fr 16:00; Sa 11:30", "indoor": "yes", "note": "ON 12/24 AND 12/31, THIS BOX MAY BE COLLECTED AS EARLY AS 12 NOON.", "nsi_id": "unitedstatespostalservice-a77078", "operator": "United States Postal Service", "operator:short": "USPS", "operator:type": "public", "operator:wikidata": "Q668687", "ref": "7906300003"}, "type": "Feature"}
{"geometry": {"coordinates": [-102.145459, 34.180931], "type": "Point"}, "id": "urKsV8bcFyl569Kezbmr6qfABFs=", "properties": {"@source_uri": "https://tools.usps.com/UspsToolsRestServices/rest/POLocator/findLocations", "@spider": "usps_collection_boxes", "addr:city": "OLTON", "addr:country": "US", "addr:postcode": "79064", "addr:state": "TX", "addr:street_address": "416 8TH ST", "amenity": "post_box", "collection_times": "Mo-Fr 16:00; Sa 10:30", "note": "ON 12/24 AND 12/31, THIS BOX MAY BE COLLECTED AS EARLY AS 12 NOON.", "nsi_id": "unitedstatespostalservice-a77078", "operator": "United States Postal Service", "operator:short": "USPS", "operator:type": "public", "operator:wikidata": "Q668687", "ref": "7906400001"}, "type": "Feature"}
{"geometry": {"coordinates": [-102.145459, 34.180931], "type": "Point"}, "id": "GKygrkPSZ-Z4qYOFMiMWdI_4wzA=", "properties": {"@source_uri": "https://tools.usps.com/UspsToolsRestServices/rest/POLocator/findLocations", "@spider": "usps_collection_boxes", "addr:city": "OLTON", "addr:country": "US", "addr:postcode": "79064", "addr:state": "TX", "addr:street_address": "416 8TH ST", "amenity": "post_box", "collection_times": "Mo-Fr 16:00; Sa 10:30", "indoor": "yes", "note": "ON 12/24 AND 12/31, THIS BOX MAY BE COLLECTED AS EARLY AS 12 NOON.", "nsi_id": "unitedstatespostalservice-a77078", "operator": "United States Postal Service", "operator:short": "USPS", "operator:type": "public", "operator:wikidata": "Q668687", "ref": "7906400003"}, "type": "Feature"}
{"geometry": {"coordinates": [-102.132602812, 34.181185317], "type": "Point"}, "id": "1feY1_jxcsSJvu9d5fRnjgO6AU8=", "properties": {"@source_uri": "https://tools.usps.com/UspsToolsRestServices/rest/POLocator/findLocations", "@spider": "usps_collection_boxes", "addr:city": "OLTON", "addr:country": "US", "addr:postcode": "79064", "addr:state": "TX", "addr:street_address": "416 8TH ST", "amenity": "post_box", "collection_times": "Mo-Fr 16:00", "indoor": "yes", "note": "ON 12/24 AND 12/31, THIS BOX MAY BE COLLECTED AS EARLY AS 12 NOON.", "nsi_id": "unitedstatespostalservice-a77078", "operator": "United States Postal Service", "operator:short": "USPS", "operator:type": "public", "operator:wikidata": "Q668687", "ref": "7906400005"}, "type": "Feature"}
{"geometry": {"coordinates": [-100.959856, 35.535418], "type": "Point"}, "id": "j9gjL7pkEVanOqXEhTM86WKSrA4=", "properties": {"@source_uri": "https://tools.usps.com/UspsToolsRestServices/rest/POLocator/findLocations", "@spider": "usps_collection_boxes", "addr:city": "PAMPA", "addr:country": "US", "addr:postcode": "79065", "addr:state": "TX", "addr:street_address": "101 E ATCHISON AVE", "amenity": "post_box", "collection_times": "Mo-Sa 16:00", "note": "ON 12/24 AND 12/31, THIS BOX MAY BE COLLECTED AS EARLY AS 12 NOON.", "nsi_id": "unitedstatespostalservice-a77078", "operator": "United States Postal Service", "operator:short": "USPS", "operator:type": "public", "operator:wikidata": "Q668687", "ref": "7906500008"}, "type": "Feature"}
{"geometry": {"coordinates": [-100.962645, 35.554095], "type": "Point"}, "id": "x-WRlmf4YaSxZqzfiPssT-uGjVs=", "properties": {"@source_uri": "https://tools.usps.com/UspsToolsRestServices/rest/POLocator/findLocations", "@spider": "usps_collection_boxes", "addr:city": "PAMPA", "addr:country": "US", "addr:postcode": "79065", "addr:state": "TX", "addr:street_address": "317 E 17TH AVE", "amenity": "post_box", "collection_times": "Mo-Sa 15:00", "note": "ON 12/24 AND 12/31, THIS BOX MAY BE COLLECTED AS EARLY AS 12 NOON.", "nsi_id": "unitedstatespostalservice-a77078", "operator": "United States Postal Service", "operator:short": "USPS", "operator:type": "public", "operator:wikidata": "Q668687", "ref": "7906500014"}, "type": "Feature"}
{"geometry": {"coordinates": [-100.971663, 35.550817], "type": "Point"}, "id": "FF8-v5qgF6ffPiiQyGsuWHzQFIs=", "properties": {"@source_uri": "https://tools.usps.com/UspsToolsRestServices/rest/POLocator/findLocations", "@spider": "usps_collection_boxes", "addr:city": "PAMPA", "addr:country": "US", "addr:postcode": "79065", "addr:state": "TX", "addr:street_address": "1420 N HOBART ST", "amenity": "post_box", "collection_times": "Mo-Sa 14:30", "note": "ON 12/24 AND 12/31, THIS BOX MAY BE COLLECTED AS EARLY AS 12 NOON.", "nsi_id": "unitedstatespostalservice-a77078", "operator": "United States Postal Service", "operator:short": "USPS", "operator:type": "public", "operator:wikidata": "Q668687", "ref": "7906500015"}, "type": "Feature"}
{"geometry": {"coordinates": [-100.970696, 35.547551], "type": "Point"}, "id": "S0r2EqUDQvuZTM9KpRDSbA5xPQA=", "properties": {"@source_uri": "https://tools.usps.com/UspsToolsRestServices/rest/POLocator/findLocations", "@spider": "usps_collection_boxes", "addr:city": "PAMPA", "addr:country": "US", "addr:postcode": "79065", "addr:state": "TX", "addr:street_address": "1224 N HOBART ST", "amenity": "post_box", "collection_times": "Mo-Sa 15:15", "note": "ON 12/24 AND 12/31, THIS BOX MAY BE COLLECTED AS EARLY AS 12 NOON.", "nsi_id": "unitedstatespostalservice-a77078", "operator": "United States Postal Service", "operator:short": "USPS", "operator:type": "public", "operator:wikidata": "Q668687", "ref": "7906500017"}, "type": "Feature"}
{"geometry": {"coordinates": [-100.972438, 35.546185], "type": "Point"}, "id": "cSCPsJE6y2tk_xpY-YW68dlNXBE=", "properties": {"@source_uri": "https://tools.usps.com/UspsToolsRestServices/rest/POLocator/findLocations", "@spider": "usps_collection_boxes", "addr:city": "PAMPA", "addr:country": "US", "addr:postcode": "79065", "addr:state": "TX", "addr:street_address": "1201 N HOBART ST", "amenity": "post_box", "collection_times": "Mo-Sa 15:15", "note": "ON 12/24 AND 12/31, THIS BOX MAY BE COLLECTED AS EARLY AS 12 NOON.", "nsi_id": "unitedstatespostalservice-a77078", "operator": "United States Postal Service", "operator:short": "USPS", "operator:type": "public", "operator:wikidata": "Q668687", "ref": "7906500020"}, "type": "Feature"}
{"geometry": {"coordinates": [-100.963332, 35.535584], "type": "Point"}, "id": "uwBXcwN_k53z17gExHFDqFEVkYU=", "properties": {"@source_uri": "https://tools.usps.com/UspsToolsRestServices/rest/POLocator/findLocations", "@spider": "usps_collection_boxes", "addr:city": "PAMPA", "addr:country": "US", "addr:postcode": "79065", "addr:state": "TX", "addr:street_address": "200 W FOSTER AVE", "amenity": "post_box", "collection_times": "Mo-Sa 14:30", "note": "ON 12/24 AND 12/31, THIS BOX MAY BE COLLECTED AS EARLY AS 12 NOON.", "nsi_id": "unitedstatespostalservice-a77078", "operator": "United States Postal Service", "operator:short": "USPS", "operator:type": "public", "operator:wikidata": "Q668687", "ref": "7906500023"}, "type": "Feature"}
{"geometry": {"coordinates": [-100.971259, 35.561072], "type": "Point"}, "id": "8C4XjY8UlOesjLc83GIZWGwz0tQ=", "properties": {"@source_uri": "https://tools.usps.com/UspsToolsRestServices/rest/POLocator/findLocations", "@spider": "usps_collection_boxes", "addr:city": "PAMPA", "addr:country": "US", "addr:postcode": "79065", "addr:state": "TX", "addr:street_address": "2217 PERRYTON PKWY", "amenity": "post_box", "collection_times": "Mo-Sa 15:00", "note": "ON 12/24 AND 12/31, THIS BOX MAY BE COLLECTED AS EARLY AS 12 NOON.", "nsi_id": "unitedstatespostalservice-a77078", "operator": "United States Postal Service", "operator:short": "USPS", "operator:type": "public", "operator:wikidata": "Q668687", "ref": "7906500030"}, "type": "Feature"}
{"geometry": {"coordinates": [-100.960383, 35.535859], "type": "Point"}, "id": "XQJGoWmPUtEzr0wdzRxVWQl-JBs=", "properties": {"@source_uri": "https://tools.usps.com/UspsToolsRestServices/rest/POLocator/findLocations", "@spider": "usps_collection_boxes", "addr:city": "PAMPA", "addr:country": "US", "addr:postcode": "79065", "addr:state": "TX", "addr:street_address": "120 E FOSTER AVE", "amenity": "post_box", "collection_times": "Mo-Sa 16:00", "indoor": "yes", "note": "ON 12/24 AND 12/31, THIS BOX MAY BE COLLECTED AS EARLY AS 12 NOON.", "nsi_id": "unitedstatespostalservice-a77078", "operator": "United States Postal Service", "operator:short": "USPS", "operator:type": "public", "operator:wikidata": "Q668687", "ref": "7906500032"}, "type": "Feature"}
{"geometry": {"coordinates": [-100.960324, 35.535799], "type": "Point"}, "id": "q1VSM_dceCP8KbMocIQIdBp4HN8=", "properties": {"@source_uri": "https://tools.usps.com/UspsToolsRestServices/rest/POLocator/findLocations", "@spider": "usps_collection_boxes", "addr:city": "PAMPA", "addr:country": "US", "addr:postcode": "79065", "addr:state": "TX", "addr:street_address": "120 E FOSTER AVE", "amenity": "post_box", "collection_times": "Mo-Sa 16:00", "indoor": "yes", "note": "ON 12/24 AND 12/31, THIS BOX MAY BE COLLECTED AS EARLY AS 12 NOON.", "nsi_id": "unitedstatespostalservice-a77078", "operator": "United States Postal Service", "operator:short": "USPS", "operator:type": "public", "operator:wikidata": "Q668687", "ref": "7906500033"}, "type": "Feature"}
{"geometry": {"coordinates": [-100.9639169746, 35.536633984], "type": "Point"}, "id": "XkDfxtC-ubop_ymK0FwtxSneFGg=", "properties": {"@source_uri": "https://tools.usps.com/UspsToolsRestServices/rest/POLocator/findLocations", "@spider": "usps_collection_boxes", "addr:city": "PAMPA", "addr:country": "US", "addr:postcode": "79065", "addr:state": "TX", "addr:street_address": "205 N RUSSELL ST", "amenity": "post_box", "collection_times": "Mo-Fr 14:30", "note": "ON 12/24 AND 12/31, THIS BOX MAY BE COLLECTED AS EARLY AS 12 NOON.", "nsi_id": "unitedstatespostalservice-a77078", "operator": "United States Postal Service", "operator:short": "USPS", "operator:type": "public", "operator:wikidata": "Q668687", "ref": "7906500034"}, "type": "Feature"}
{"geometry": {"coordinates": [-100.9683898324, 35.5715825467], "type": "Point"}, "id": "QqON1ZZFigdPTvMoGrKyNSqy_X4=", "properties": {"@source_uri": "https://tools.usps.com/UspsToolsRestServices/rest/POLocator/findLocations", "@spider": "usps_collection_boxes", "addr:city": "PAMPA", "addr:country": "US", "addr:postcode": "79065", "addr:state": "TX", "addr:street_address": "311 W 30TH AVE", "amenity": "post_box", "collection_times": "Mo-Sa 14:30", "note": "ON 12/24 AND 12/31, THIS BOX MAY BE COLLECTED AS EARLY AS 12 NOON.", "nsi_id": "unitedstatespostalservice-a77078", "operator": "United States Postal Service", "operator:short": "USPS", "operator:type": "public", "operator:wikidata": "Q668687", "ref": "7906500035"}, "type": "Feature"}
{"geometry": {"coordinates": [-100.960599385, 35.53616215], "type": "Point"}, "id": "jcBNd876Qpc5FfUyQOu2uoYpsKs=", "properties": {"@source_uri": "https://tools.usps.com/UspsToolsRestServices/rest/POLocator/findLocations", "@spider": "usps_collection_boxes", "addr:city": "PAMPA", "addr:country": "US", "addr:postcode": "79065", "addr:state": "TX", "addr:street_address": "120 E FOSTER AVE", "amenity": "post_box", "collection_times": "Mo-Fr 16:30; Sa 12:00", "indoor": "yes", "note": "ON 12/24 AND 12/31, THIS BOX MAY BE COLLECTED AS EARLY AS 12 NOON.", "nsi_id": "unitedstatespostalservice-a77078", "operator": "United States Postal Service", "operator:short": "USPS", "operator:type": "public", "operator:wikidata": "Q668687", "ref": "7906500037"}, "type": "Feature"}
{"geometry": {"coordinates": [-101.380122, 35.34461], "type": "Point"}, "id": "kcQ_7vQLuWCDKDLMizBEArw-eBc=", "properties": {"@source_uri": "https://tools.usps.com/UspsToolsRestServices/rest/POLocator/findLocations", "@spider": "usps_collection_boxes", "addr:city": "PANHANDLE", "addr:country": "US", "addr:postcode": "79068", "addr:state": "TX", "addr:street_address": "402 MAIN ST", "amenity": "post_box", "collection_times": "Mo-Fr 16:00; Sa 09:30", "note": "ON 12/24 AND 12/31, THIS BOX MAY BE COLLECTED AS EARLY AS 12 NOON.", "nsi_id": "unitedstatespostalservice-a77078", "operator": "United States Postal Service", "operator:short": "USPS", "operator:type": "public", "operator:wikidata": "Q668687", "ref": "7906800001"}, "type": "Feature"}
{"geometry": {"coordinates": [-101.380122, 35.34461], "type": "Point"}, "id": "dI-Pda5fd7asewDnVOjmff847-0=", "properties": {"@source_uri": "https://tools.usps.com/UspsToolsRestServices/rest/POLocator/findLocations", "@spider": "usps_collection_boxes", "addr:city": "PANHANDLE", "addr:country": "US", "addr:postcode": "79068", "addr:state": "TX", "addr:street_address": "402 MAIN ST", "amenity": "post_box", "collection_times": "Mo-Fr 16:00; Sa 09:30", "indoor": "yes", "note": "ON 12/24 AND 12/31, THIS BOX MAY BE COLLECTED AS EARLY AS 12 NOON.", "nsi_id": "unitedstatespostalservice-a77078", "operator": "United States Postal Service", "operator:short": "USPS", "operator:type": "public", "operator:wikidata": "Q668687", "ref": "7906800003"}, "type": "Feature"}
{"geometry": {"coordinates": [-101.380366789, 35.345009734], "type": "Point"}, "id": "Ue2Ygfdc5Iy9bfFFGzweeHwWLqc=", "properties": {"@source_uri": "https://tools.usps.com/UspsToolsRestServices/rest/POLocator/findLocations", "@spider": "usps_collection_boxes", "addr:city": "PANHANDLE", "addr:country": "US", "addr:postcode": "79068", "addr:state": "TX", "addr:street_address": "402 MAIN ST", "amenity": "post_box", "collection_times": "Mo-Fr 16:00", "indoor": "yes", "note": "ON 12/24 AND 12/31, THIS BOX MAY BE COLLECTED AS EARLY AS 12 NOON.", "nsi_id": "unitedstatespostalservice-a77078", "operator": "United States Postal Service", "operator:short": "USPS", "operator:type": "public", "operator:wikidata": "Q668687", "ref": "7906800005"}, "type": "Feature"}
{"geometry": {"coordinates": [-100.810371, 36.391234], "type": "Point"}, "id": "R8P7avHjkW0s_ry0rBtMYqTwVms=", "properties": {"@source_uri": "https://tools.usps.com/UspsToolsRestServices/rest/POLocator/findLocations", "@spider": "usps_collection_boxes", "addr:city": "PERRYTON", "addr:country": "US", "addr:postcode": "79070", "addr:state": "TX", "addr:street_address": "522 SW 9TH AVE", "amenity": "post_box", "collection_times": "Mo-Sa 12:30", "note": "ON 12/24 AND 12/31, THIS BOX MAY BE COLLECTED AS EARLY AS 12 NOON.", "nsi_id": "unitedstatespostalservice-a77078", "operator": "United States Postal Service", "operator:short": "USPS", "operator:type": "public", "operator:wikidata": "Q668687", "ref": "7907000002"}, "type": "Feature"}
{"geometry": {"coordinates": [-100.803333, 36.372922], "type": "Point"}, "id": "TRRTSWIt7aAXhklI7werGRegtNE=", "properties": {"@source_uri": "https://tools.usps.com/UspsToolsRestServices/rest/POLocator/findLocations", "@spider": "usps_collection_boxes", "addr:city": "PERRYTON", "addr:country": "US", "addr:postcode": "79070", "addr:state": "TX", "addr:street_address": "2722 S MAIN ST", "amenity": "post_box", "collection_times": "Mo-Fr 16:00; Sa 15:15", "note": "ON 12/24 AND 12/31, THIS BOX MAY BE COLLECTED AS EARLY AS 12 NOON.", "nsi_id": "unitedstatespostalservice-a77078", "operator": "United States Postal Service", "operator:short": "USPS", "operator:type": "public", "operator:wikidata": "Q668687", "ref": "7907000007"}, "type": "Feature"}
{"geometry": {"coordinates": [-100.803105, 36.373315], "type": "Point"}, "id": "AUB-ACt8lpYkp9MtJ4yCutvIUbQ=", "properties": {"@source_uri": "https://tools.usps.com/UspsToolsRestServices/rest/POLocator/findLocations", "@spider": "usps_collection_boxes", "addr:city": "PERRYTON", "addr:country": "US", "addr:postcode": "79070", "addr:state": "TX", "addr:street_address": "2722 S MAIN ST", "amenity": "post_box", "collection_times": "Mo-Fr 16:00; Sa 15:15", "indoor": "yes", "note": "ON 12/24 AND 12/31, THIS BOX MAY BE COLLECTED AS EARLY AS 12 NOON.", "nsi_id": "unitedstatespostalservice-a77078", "operator": "United States Postal Service", "operator:short": "USPS", "operator:type": "public", "operator:wikidata": "Q668687", "ref": "7907000008"}, "type": "Feature"}
{"geometry": {"coordinates": [-100.803089, 36.373316], "type": "Point"}, "id": "UgYR6tTD3OOt5daxsk41xv_gOCw=", "properties": {"@source_uri": "https://tools.usps.com/UspsToolsRestServices/rest/POLocator/findLocations", "@spider": "usps_collection_boxes", "addr:city": "PERRYTON", "addr:country": "US", "addr:postcode": "79070", "addr:state": "TX", "addr:street_address": "2722 S MAIN ST", "amenity": "post_box", "collection_times": "Mo-Fr 16:00; Sa 15:15", "indoor": "yes", "note": "ON 12/24 AND 12/31, THIS BOX MAY BE COLLECTED AS EARLY AS 12 NOON.", "nsi_id": "unitedstatespostalservice-a77078", "operator": "United States Postal Service", "operator:short": "USPS", "operator:type": "public", "operator:wikidata": "Q668687", "ref": "7907000009"}, "type": "Feature"}
{"geometry": {"coordinates": [-100.802877, 36.391078], "type": "Point"}, "id": "3NHPFokmlBtODScpvS2rSztm3aU=", "properties": {"@source_uri": "https://tools.usps.com/UspsToolsRestServices/rest/POLocator/findLocations", "@spider": "usps_collection_boxes", "addr:city": "PERRYTON", "addr:country": "US", "addr:postcode": "79070", "addr:state": "TX", "addr:street_address": "900 S MAIN ST", "amenity": "post_box", "collection_times": "Mo-Sa 14:00", "note": "ON 12/24 AND 12/31, THIS BOX MAY BE COLLECTED AS EARLY AS 12 NOON.", "nsi_id": "unitedstatespostalservice-a77078", "operator": "United States Postal Service", "operator:short": "USPS", "operator:type": "public", "operator:wikidata": "Q668687", "ref": "7907000013"}, "type": "Feature"}
{"geometry": {"coordinates": [-100.802614601, 36.373319832], "type": "Point"}, "id": "3oEce6itFtSG_qlTjTtw4WfFylk=", "properties": {"@source_uri": "https://tools.usps.com/UspsToolsRestServices/rest/POLocator/findLocations", "@spider": "usps_collection_boxes", "addr:city": "PERRYTON", "addr:country": "US", "addr:postcode": "79070", "addr:state": "TX", "addr:street_address": "2722 S MAIN ST", "amenity": "post_box", "collection_times": "Mo-Fr 16:00", "indoor": "yes", "note": "ON 12/24 AND 12/31, THIS BOX MAY BE COLLECTED AS EARLY AS 12 NOON.", "nsi_id": "unitedstatespostalservice-a77078", "operator": "United States Postal Service", "operator:short": "USPS", "operator:type": "public", "operator:wikidata": "Q668687", "ref": "7907000016"}, "type": "Feature"}
{"geometry": {"coordinates": [-101.720105, 34.191855], "type": "Point"}, "id": "X-glZrvuBv9SinH9kth8WrqMPTY=", "properties": {"@source_uri": "https://tools.usps.com/UspsToolsRestServices/rest/POLocator/findLocations", "@spider": "usps_collection_boxes", "addr:city": "PLAINVIEW", "addr:country": "US", "addr:postcode": "79072", "addr:state": "TX", "addr:street_address": "725 ASH ST", "amenity": "post_box", "collection_times": "Mo-Fr 16:30; Sa 12:00", "note": "ON 12/24 AND 12/31, THIS BOX MAY BE COLLECTED AS EARLY AS 12 NOON.", "nsi_id": "unitedstatespostalservice-a77078", "operator": "United States Postal Service", "operator:short": "USPS", "operator:type": "public", "operator:wikidata": "Q668687", "ref": "7907200002"}, "type": "Feature"}
{"geometry": {"coordinates": [-101.70341, 34.181275], "type": "Point"}, "id": "ym7pUMNMuum_1Vw8QQVDmshPffo=", "properties": {"@source_uri": "https://tools.usps.com/UspsToolsRestServices/rest/POLocator/findLocations", "@spider": "usps_collection_boxes", "addr:city": "PLAINVIEW", "addr:country": "US", "addr:postcode": "79072", "addr:state": "TX", "addr:street_address": "225 BROADWAY ST", "amenity": "post_box", "collection_times": "Mo-Fr 14:00", "note": "ON 12/24 AND 12/31, THIS BOX MAY BE COLLECTED AS EARLY AS 12 NOON.", "nsi_id": "unitedstatespostalservice-a77078", "operator": "United States Postal Service", "operator:short": "USPS", "operator:type": "public", "operator:wikidata": "Q668687", "ref": "7907200009"}, "type": "Feature"}
{"geometry": {"coordinates": [-101.702646, 34.185134], "type": "Point"}, "id": "VxEUt6j8LBiqG6RNlzkkUCo5daQ=", "properties": {"@source_uri": "https://tools.usps.com/UspsToolsRestServices/rest/POLocator/findLocations", "@spider": "usps_collection_boxes", "addr:city": "PLAINVIEW", "addr:country": "US", "addr:postcode": "79072", "addr:state": "TX", "addr:street_address": "500 BROADWAY ST", "amenity": "post_box", "collection_times": "Mo-Fr 14:00", "note": "ON 12/24 AND 12/31, THIS BOX MAY BE COLLECTED AS EARLY AS 12 NOON.", "nsi_id": "unitedstatespostalservice-a77078", "operator": "United States Postal Service", "operator:short": "USPS", "operator:type": "public", "operator:wikidata": "Q668687", "ref": "7907200010"}, "type": "Feature"}
{"geometry": {"coordinates": [-101.723041, 34.190344], "type": "Point"}, "id": "1i-UR5fGMbp-Tdd660_oZ1A4aAI=", "properties": {"@source_uri": "https://tools.usps.com/UspsToolsRestServices/rest/POLocator/findLocations", "@spider": "usps_collection_boxes", "addr:city": "PLAINVIEW", "addr:country": "US", "addr:postcode": "79072", "addr:state": "TX", "addr:street_address": "912 PORTLAND ST", "amenity": "post_box", "collection_times": "Mo-Fr 12:00", "nsi_id": "unitedstatespostalservice-a77078", "operator": "United States Postal Service", "operator:short": "USPS", "operator:type": "public", "operator:wikidata": "Q668687", "ref": "7907200011"}, "type": "Feature"}
{"geometry": {"coordinates": [-101.752957, 34.191687], "type": "Point"}, "id": "krhSpobVWoqNv71dRIfkjoAI-Ec=", "properties": {"@source_uri": "https://tools.usps.com/UspsToolsRestServices/rest/POLocator/findLocations", "@spider": "usps_collection_boxes", "addr:city": "PLAINVIEW", "addr:country": "US", "addr:postcode": "79072", "addr:state": "TX", "addr:street_address": "1001 N INTERSTATE 27", "amenity": "post_box", "collection_times": "Mo-Fr 12:00", "nsi_id": "unitedstatespostalservice-a77078", "operator": "United States Postal Service", "operator:short": "USPS", "operator:type": "public", "operator:wikidata": "Q668687", "ref": "7907200016"}, "type": "Feature"}
{"geometry": {"coordinates": [-101.720105, 34.191855], "type": "Point"}, "id": "l7LtC1jEGaAbKhTSbf6uFYBrDaU=", "properties": {"@source_uri": "https://tools.usps.com/UspsToolsRestServices/rest/POLocator/findLocations", "@spider": "usps_collection_boxes", "addr:city": "PLAINVIEW", "addr:country": "US", "addr:postcode": "79072", "addr:state": "TX", "addr:street_address": "725 ASH ST", "amenity": "post_box", "collection_times": "Mo-Fr 16:30; Sa 12:00", "indoor": "yes", "note": "ON 12/24 AND 12/31, THIS BOX MAY BE COLLECTED AS EARLY AS 12 NOON.", "nsi_id": "unitedstatespostalservice-a77078", "operator": "United States Postal Service", "operator:short": "USPS", "operator:type": "public", "operator:wikidata": "Q668687", "ref": "7907200033"}, "type": "Feature"}
{"geometry": {"coordinates": [-101.702116, 34.188023], "type": "Point"}, "id": "LUaySvIfDDkSdEH81VuPAqkNM6A=", "properties": {"@source_uri": "https://tools.usps.com/UspsToolsRestServices/rest/POLocator/findLocations", "@spider": "usps_collection_boxes", "addr:city": "PLAINVIEW", "addr:country": "US", "addr:postcode": "79072", "addr:state": "TX", "addr:street_address": "725 ASH ST", "amenity": "post_box", "collection_times": "Mo-Fr 16:30; Sa 12:00", "indoor": "yes", "note": "ON 12/24 AND 12/31, THIS BOX MAY BE COLLECTED AS EARLY AS 12 NOON.", "nsi_id": "unitedstatespostalservice-a77078", "operator": "United States Postal Service", "operator:short": "USPS", "operator:type": "public", "operator:wikidata": "Q668687", "ref": "7907200034"}, "type": "Feature"}
{"geometry": {"coordinates": [-101.702116, 34.188027], "type": "Point"}, "id": "ZuTFNOxAoFxb4HpiZNiOOhqGXLo=", "properties": {"@source_uri": "https://tools.usps.com/UspsToolsRestServices/rest/POLocator/findLocations", "@spider": "usps_collection_boxes", "addr:city": "PLAINVIEW", "addr:country": "US", "addr:postcode": "79072", "addr:state": "TX", "addr:street_address": "725 ASH ST", "amenity": "post_box", "collection_times": "Mo-Fr 16:30; Sa 12:00", "indoor": "yes", "note": "ON 12/24 AND 12/31, THIS BOX MAY BE COLLECTED AS EARLY AS 12 NOON.", "nsi_id": "unitedstatespostalservice-a77078", "operator": "United States Postal Service", "operator:short": "USPS", "operator:type": "public", "operator:wikidata": "Q668687", "ref": "7907200035"}, "type": "Feature"}
{"geometry": {"coordinates": [-101.746937, 34.18655], "type": "Point"}, "id": "lU4d19ycC_SXpGj31GuP4wdJmhc=", "properties": {"@source_uri": "https://tools.usps.com/UspsToolsRestServices/rest/POLocator/findLocations", "@spider": "usps_collection_boxes", "addr:city": "PLAINVIEW", "addr:country": "US", "addr:postcode": "79072", "addr:state": "TX", "addr:street_address": "3501 OLTON RD", "amenity": "post_box", "collection_times": "Mo-Fr 12:00", "nsi_id": "unitedstatespostalservice-a77078", "operator": "United States Postal Service", "operator:short": "USPS", "operator:type": "public", "operator:wikidata": "Q668687", "ref": "7907200036"}, "type": "Feature"}
{"geometry": {"coordinates": [-101.741749, 34.184851], "type": "Point"}, "id": "YcsScbz3ePLc62tXxQji-3sxves=", "properties": {"@source_uri": "https://tools.usps.com/UspsToolsRestServices/rest/POLocator/findLocations", "@spider": "usps_collection_boxes", "addr:city": "PLAINVIEW", "addr:country": "US", "addr:postcode": "79072", "addr:state": "TX", "addr:street_address": "3109 OLTON RD", "amenity": "post_box", "collection_times": "Mo-Fr 12:00", "nsi_id": "unitedstatespostalservice-a77078", "operator": "United States Postal Service", "operator:short": "USPS", "operator:type": "public", "operator:wikidata": "Q668687", "ref": "7907200044"}, "type": "Feature"}
{"geometry": {"coordinates": [-101.701785741, 34.187345311], "type": "Point"}, "id": "ZmtfPNffJP5HofmrAZ7holnV_nY=", "properties": {"@source_uri": "https://tools.usps.com/UspsToolsRestServices/rest/POLocator/findLocations", "@spider": "usps_collection_boxes", "addr:city": "PLAINVIEW", "addr:country": "US", "addr:postcode": "79072", "addr:state": "TX", "addr:street_address": "725 ASH ST", "amenity": "post_box", "collection_times": "Mo-Fr 16:30; Sa 12:00", "indoor": "yes", "note": "ON 12/24 AND 12/31, THIS BOX MAY BE COLLECTED AS EARLY AS 12 NOON.", "nsi_id": "unitedstatespostalservice-a77078", "operator": "United States Postal Service", "operator:short": "USPS", "operator:type": "public", "operator:wikidata": "Q668687", "ref": "7907200046"}, "type": "Feature"}
{"geometry": {"coordinates": [-101.532286, 35.702101], "type": "Point"}, "id": "we_B6aJKozIVP0lvFyHmJsCL5QI=", "properties": {"@source_uri": "https://tools.usps.com/UspsToolsRestServices/rest/POLocator/findLocations", "@spider": "usps_collection_boxes", "addr:city": "SANFORD", "addr:country": "US", "addr:postcode": "79078", "addr:state": "TX", "addr:street_address": "305 E MAIN ST", "amenity": "post_box", "collection_times": "Mo-Fr 15:30; Sa 08:00", "note": "ON 12/24 AND 12/31, THIS BOX MAY BE COLLECTED AS EARLY AS 12 NOON.", "nsi_id": "unitedstatespostalservice-a77078", "operator": "United States Postal Service", "operator:short": "USPS", "operator:type": "public", "operator:wikidata": "Q668687", "ref": "7907800000"}, "type": "Feature"}
{"geometry": {"coordinates": [-101.532286, 35.702101], "type": "Point"}, "id": "tuj8w44cbljDk-QMDzJGTq3DPSU=", "properties": {"@source_uri": "https://tools.usps.com/UspsToolsRestServices/rest/POLocator/findLocations", "@spider": "usps_collection_boxes", "addr:city": "SANFORD", "addr:country": "US", "addr:postcode": "79078", "addr:state": "TX", "addr:street_address": "305 E MAIN ST", "amenity": "post_box", "collection_times": "Mo-Fr 15:30", "indoor": "yes", "note": "ON 12/24 AND 12/31, THIS BOX MAY BE COLLECTED AS EARLY AS 12 NOON.", "nsi_id": "unitedstatespostalservice-a77078", "operator": "United States Postal Service", "operator:short": "USPS", "operator:type": "public", "operator:wikidata": "Q668687", "ref": "7907800001"}, "type": "Feature"}
{"geometry": {"coordinates": [-101.531852057, 35.702140472], "type": "Point"}, "id": "uEAB-Ase8hU15VnZ_4NTzPXbty0=", "properties": {"@source_uri": "https://tools.usps.com/UspsToolsRestServices/rest/POLocator/findLocations", "@spider": "usps_collection_boxes", "addr:city": "SANFORD", "addr:country": "US", "addr:postcode": "79078", "addr:state": "TX", "addr:street_address": "305 E MAIN ST", "amenity": "post_box", "collection_times": "Mo-Fr 15:30", "indoor": "yes", "note": "ON 12/24 AND 12/31, THIS BOX MAY BE COLLECTED AS EARLY AS 12 NOON.", "nsi_id": "unitedstatespostalservice-a77078", "operator": "United States Postal Service", "operator:short": "USPS", "operator:type": "public", "operator:wikidata": "Q668687", "ref": "7907800002"}, "type": "Feature"}
{"geometry": {"coordinates": [-100.247862, 35.215659], "type": "Point"}, "id": "Db9YuB3LZ7iMspi2J-RKRSAQNw0=", "properties": {"@source_uri": "https://tools.usps.com/UspsToolsRestServices/rest/POLocator/findLocations", "@spider": "usps_collection_boxes", "addr:city": "SHAMROCK", "addr:country": "US", "addr:postcode": "79079", "addr:state": "TX", "addr:street_address": "210 N MADDEN ST", "amenity": "post_box", "collection_times": "Mo-Fr 16:00; Sa 14:00", "note": "ON 12/24 AND 12/31, THIS BOX MAY BE COLLECTED AS EARLY AS 12 NOON.", "nsi_id": "unitedstatespostalservice-a77078", "operator": "United States Postal Service", "operator:short": "USPS", "operator:type": "public", "operator:wikidata": "Q668687", "ref": "7907900003"}, "type": "Feature"}
{"geometry": {"coordinates": [-100.247897, 35.215588], "type": "Point"}, "id": "jALAOjNrrOoU7lNyh1CzKfPMHms=", "properties": {"@source_uri": "https://tools.usps.com/UspsToolsRestServices/rest/POLocator/findLocations", "@spider": "usps_collection_boxes", "addr:city": "SHAMROCK", "addr:country": "US", "addr:postcode": "79079", "addr:state": "TX", "addr:street_address": "210 N MADDEN ST", "amenity": "post_box", "collection_times": "Mo-Fr 16:00; Sa 14:00", "indoor": "yes", "note": "ON 12/24 AND 12/31, THIS BOX MAY BE COLLECTED AS EARLY AS 12 NOON.", "nsi_id": "unitedstatespostalservice-a77078", "operator": "United States Postal Service", "operator:short": "USPS", "operator:type": "public", "operator:wikidata": "Q668687", "ref": "7907900007"}, "type": "Feature"}
{"geometry": {"coordinates": [-100.247867881, 35.216289], "type": "Point"}, "id": "lbQrecop8U4qqD8-_7e6tII3ugs=", "properties": {"@source_uri": "https://tools.usps.com/UspsToolsRestServices/rest/POLocator/findLocations", "@spider": "usps_collection_boxes", "addr:city": "SHAMROCK", "addr:country": "US", "addr:postcode": "79079", "addr:state": "TX", "addr:street_address": "210 N MADDEN ST", "amenity": "post_box", "collection_times": "Mo-Fr 16:00", "indoor": "yes", "note": "ON 12/24 AND 12/31, THIS BOX MAY BE COLLECTED AS EARLY AS 12 NOON.", "nsi_id": "unitedstatespostalservice-a77078", "operator": "United States Postal Service", "operator:short": "USPS", "operator:type": "public", "operator:wikidata": "Q668687", "ref": "7907900008"}, "type": "Feature"}
{"geometry": {"coordinates": [-101.17105, 35.573215], "type": "Point"}, "id": "e_2mkIigqlWI-bxpYbc6lrjMVvQ=", "properties": {"@source_uri": "https://tools.usps.com/UspsToolsRestServices/rest/POLocator/findLocations", "@spider": "usps_collection_boxes", "addr:city": "SKELLYTOWN", "addr:country": "US", "addr:postcode": "79080", "addr:state": "TX", "addr:street_address": "301 MAIN ST", "amenity": "post_box", "collection_times": "Mo-Fr 12:15; Sa 09:00", "indoor": "yes", "note": "ON 12/24 AND 12/31, THIS BOX MAY BE COLLECTED AS EARLY AS 12 NOON.", "nsi_id": "unitedstatespostalservice-a77078", "operator": "United States Postal Service", "operator:short": "USPS", "operator:type": "public", "operator:wikidata": "Q668687", "ref": "7908000000"}, "type": "Feature"}
{"geometry": {"coordinates": [-101.17105, 35.573215], "type": "Point"}, "id": "Begy3dx_witBmls12X6LajisoYw=", "properties": {"@source_uri": "https://tools.usps.com/UspsToolsRestServices/rest/POLocator/findLocations", "@spider": "usps_collection_boxes", "addr:city": "SKELLYTOWN", "addr:country": "US", "addr:postcode": "79080", "addr:state": "TX", "addr:street_address": "301 MAIN ST", "amenity": "post_box", "collection_times": "Mo-Fr 12:15", "indoor": "yes", "note": "ON 12/24 AND 12/31, THIS BOX MAY BE COLLECTED AS EARLY AS 12 NOON.", "nsi_id": "unitedstatespostalservice-a77078", "operator": "United States Postal Service", "operator:short": "USPS", "operator:type": "public", "operator:wikidata": "Q668687", "ref": "7908000002"}, "type": "Feature"}
{"geometry": {"coordinates": [-101.191707, 36.199694], "type": "Point"}, "id": "92qlP6zD6puJmQue4Z342PUXQ7g=", "properties": {"@source_uri": "https://tools.usps.com/UspsToolsRestServices/rest/POLocator/findLocations", "@spider": "usps_collection_boxes", "addr:city": "SPEARMAN", "addr:country": "US", "addr:postcode": "79081", "addr:state": "TX", "addr:street_address": "101 N BERNICE ST", "amenity": "post_box", "collection_times": "Mo-Fr 15:45; Sa 10:00", "indoor": "yes", "note": "ON 12/24 AND 12/31, THIS BOX MAY BE COLLECTED AS EARLY AS 12 NOON.", "nsi_id": "unitedstatespostalservice-a77078", "operator": "United States Postal Service", "operator:short": "USPS", "operator:type": "public", "operator:wikidata": "Q668687", "ref": "7908100000"}, "type": "Feature"}
{"geometry": {"coordinates": [-101.191702, 36.199677], "type": "Point"}, "id": "Zo-8nyaRhcgLGDqBFtn2eGcg-kM=", "properties": {"@source_uri": "https://tools.usps.com/UspsToolsRestServices/rest/POLocator/findLocations", "@spider": "usps_collection_boxes", "addr:city": "SPEARMAN", "addr:country": "US", "addr:postcode": "79081", "addr:state": "TX", "addr:street_address": "101 N BERNICE ST", "amenity": "post_box", "collection_times": "Mo-Fr 15:45; Sa 10:00", "indoor": "yes", "note": "ON 12/24 AND 12/31, THIS BOX MAY BE COLLECTED AS EARLY AS 12 NOON.", "nsi_id": "unitedstatespostalservice-a77078", "operator": "United States Postal Service", "operator:short": "USPS", "operator:type": "public", "operator:wikidata": "Q668687", "ref": "7908100001"}, "type": "Feature"}
{"geometry": {"coordinates": [-101.191852, 36.199473], "type": "Point"}, "id": "DHND777Vrw_dGp91SP3cyjjcKWs=", "properties": {"@source_uri": "https://tools.usps.com/UspsToolsRestServices/rest/POLocator/findLocations", "@spider": "usps_collection_boxes", "addr:city": "SPEARMAN", "addr:country": "US", "addr:postcode": "79081", "addr:state": "TX", "addr:street_address": "101 N BERNICE ST", "amenity": "post_box", "collection_times": "Mo-Fr 15:45; Sa 10:00", "note": "ON 12/24 AND 12/31, THIS BOX MAY BE COLLECTED AS EARLY AS 12 NOON.", "nsi_id": "unitedstatespostalservice-a77078", "operator": "United States Postal Service", "operator:short": "USPS", "operator:type": "public", "operator:wikidata": "Q668687", "ref": "7908100002"}, "type": "Feature"}
{"geometry": {"coordinates": [-101.192073695, 36.199291513], "type": "Point"}, "id": "M8SDU58y6KhDoE4XiuU3mr4LRBI=", "properties": {"@source_uri": "https://tools.usps.com/UspsToolsRestServices/rest/POLocator/findLocations", "@spider": "usps_collection_boxes", "addr:city": "SPEARMAN", "addr:country": "US", "addr:postcode": "79081", "addr:state": "TX", "addr:street_address": "101 N BERNICE ST", "amenity": "post_box", "collection_times": "Mo-Fr 15:45", "indoor": "yes", "note": "ON 12/24 AND 12/31, THIS BOX MAY BE COLLECTED AS EARLY AS 12 NOON.", "nsi_id": "unitedstatespostalservice-a77078", "operator": "United States Postal Service", "operator:short": "USPS", "operator:type": "public", "operator:wikidata": "Q668687", "ref": "7908100005"}, "type": "Feature"}
{"geometry": {"coordinates": [-102.3159010862, 34.2487920393], "type": "Point"}, "id": "a9GrwEaMHJIFxd7NGW6D7V-xfRs=", "properties": {"@source_uri": "https://tools.usps.com/UspsToolsRestServices/rest/POLocator/findLocations", "@spider": "usps_collection_boxes", "addr:city": "SPRINGLAKE", "addr:country": "US", "addr:postcode": "79082", "addr:state": "TX", "addr:street_address": "108 W MAIN ST", "amenity": "post_box", "collection_times": "Mo-Fr 15:15; Sa 11:15", "note": "ON 12/24 AND 12/31, THIS BOX MAY BE COLLECTED AS EARLY AS 12 NOON.", "nsi_id": "unitedstatespostalservice-a77078", "operator": "United States Postal Service", "operator:short": "USPS", "operator:type": "public", "operator:wikidata": "Q668687", "ref": "7908200000"}, "type": "Feature"}
{"geometry": {"coordinates": [-102.3159010862, 34.2487920393], "type": "Point"}, "id": "wFpSCucwSSRjKIOlVNaX8wwHZ0g=", "properties": {"@source_uri": "https://tools.usps.com/UspsToolsRestServices/rest/POLocator/findLocations", "@spider": "usps_collection_boxes", "addr:city": "SPRINGLAKE", "addr:country": "US", "addr:postcode": "79082", "addr:state": "TX", "addr:street_address": "108 W MAIN ST", "amenity": "post_box", "collection_times": "Mo-Fr 15:15; Sa 11:15", "indoor": "yes", "note": "ON 12/24 AND 12/31, THIS BOX MAY BE COLLECTED AS EARLY AS 12 NOON.", "nsi_id": "unitedstatespostalservice-a77078", "operator": "United States Postal Service", "operator:short": "USPS", "operator:type": "public", "operator:wikidata": "Q668687", "ref": "7908200001"}, "type": "Feature"}
{"geometry": {"coordinates": [-102.3159010862, 34.2487920393], "type": "Point"}, "id": "uCxLDkU5LW_CVE5aJTxgE7_tdLw=", "properties": {"@source_uri": "https://tools.usps.com/UspsToolsRestServices/rest/POLocator/findLocations", "@spider": "usps_collection_boxes", "addr:city": "SPRINGLAKE", "addr:country": "US", "addr:postcode": "79082", "addr:state": "TX", "addr:street_address": "108 W MAIN ST", "amenity": "post_box", "collection_times": "Mo-Fr 15:15; Sa 11:15", "indoor": "yes", "note": "ON 12/24 AND 12/31, THIS BOX MAY BE COLLECTED AS EARLY AS 12 NOON.", "nsi_id": "unitedstatespostalservice-a77078", "operator": "United States Postal Service", "operator:short": "USPS", "operator:type": "public", "operator:wikidata": "Q668687", "ref": "7908200002"}, "type": "Feature"}
{"geometry": {"coordinates": [-102.3062988, 34.2241747], "type": "Point"}, "id": "bdjnWbo06mo0MuYVAXGnpB78TJ0=", "properties": {"@source_uri": "https://tools.usps.com/UspsToolsRestServices/rest/POLocator/findLocations", "@spider": "usps_collection_boxes", "addr:city": "SPRINGLAKE", "addr:country": "US", "addr:postcode": "79082", "addr:state": "TX", "addr:street_address": "108 W MAIN ST", "amenity": "post_box", "collection_times": "Mo-Fr 15:15; Sa 13:00", "indoor": "yes", "note": "ON 12/24 AND 12/31, THIS BOX MAY BE COLLECTED AS EARLY AS 12 NOON.", "nsi_id": "unitedstatespostalservice-a77078", "operator": "United States Postal Service", "operator:short": "USPS", "operator:type": "public", "operator:wikidata": "Q668687", "ref": "7908200003"}, "type": "Feature"}
{"geometry": {"coordinates": [-101.442971, 35.825512], "type": "Point"}, "id": "hu_VVKAYdiNVvVQD1hMrovHP8b0=", "properties": {"@source_uri": "https://tools.usps.com/UspsToolsRestServices/rest/POLocator/findLocations", "@spider": "usps_collection_boxes", "addr:city": "STINNETT", "addr:country": "US", "addr:postcode": "79083", "addr:state": "TX", "addr:street_address": "431 MAIN ST", "amenity": "post_box", "collection_times": "Mo-Fr 16:00; Sa 10:00", "note": "ON 12/24 AND 12/31, THIS BOX MAY BE COLLECTED AS EARLY AS 12 NOON.", "nsi_id": "unitedstatespostalservice-a77078", "operator": "United States Postal Service", "operator:short": "USPS", "operator:type": "public", "operator:wikidata": "Q668687", "ref": "7908300000"}, "type": "Feature"}
{"geometry": {"coordinates": [-101.442971, 35.825512], "type": "Point"}, "id": "xF94reOHV3S4aUr1C3pxgvC9NYE=", "properties": {"@source_uri": "https://tools.usps.com/UspsToolsRestServices/rest/POLocator/findLocations", "@spider": "usps_collection_boxes", "addr:city": "STINNETT", "addr:country": "US", "addr:postcode": "79083", "addr:state": "TX", "addr:street_address": "431 MAIN ST", "amenity": "post_box", "collection_times": "Mo-Fr 16:00; Sa 10:00", "indoor": "yes", "note": "ON 12/24 AND 12/31, THIS BOX MAY BE COLLECTED AS EARLY AS 12 NOON.", "nsi_id": "unitedstatespostalservice-a77078", "operator": "United States Postal Service", "operator:short": "USPS", "operator:type": "public", "operator:wikidata": "Q668687", "ref": "7908300003"}, "type": "Feature"}
{"geometry": {"coordinates": [-101.442916578, 35.828325754], "type": "Point"}, "id": "BknxClkw5KU6sBkRwLrqGFEBcYk=", "properties": {"@source_uri": "https://tools.usps.com/UspsToolsRestServices/rest/POLocator/findLocations", "@spider": "usps_collection_boxes", "addr:city": "STINNETT", "addr:country": "US", "addr:postcode": "79083", "addr:state": "TX", "addr:street_address": "431 MAIN ST", "amenity": "post_box", "collection_times": "Mo-Fr 16:00", "indoor": "yes", "note": "ON 12/24 AND 12/31, THIS BOX MAY BE COLLECTED AS EARLY AS 12 NOON.", "nsi_id": "unitedstatespostalservice-a77078", "operator": "United States Postal Service", "operator:short": "USPS", "operator:type": "public", "operator:wikidata": "Q668687", "ref": "7908300004"}, "type": "Feature"}
{"geometry": {"coordinates": [-102.0717614399, 36.3353616345], "type": "Point"}, "id": "n1SBBV9GS27FiY2PCCNFCTOO2XA=", "properties": {"@source_uri": "https://tools.usps.com/UspsToolsRestServices/rest/POLocator/findLocations", "@spider": "usps_collection_boxes", "addr:city": "STRATFORD", "addr:country": "US", "addr:postcode": "79084", "addr:state": "TX", "addr:street_address": "201 N MAIN ST", "amenity": "post_box", "collection_times": "Mo-Fr 15:45; Sa 11:00", "note": "ON 12/24 AND 12/31, THIS BOX MAY BE COLLECTED AS EARLY AS 12 NOON.", "nsi_id": "unitedstatespostalservice-a77078", "operator": "United States Postal Service", "operator:short": "USPS", "operator:type": "public", "operator:wikidata": "Q668687", "ref": "7908400000"}, "type": "Feature"}
{"geometry": {"coordinates": [-102.071669, 36.335361], "type": "Point"}, "id": "6wFzExaZkg368D2yTNL1z-jC2IU=", "properties": {"@source_uri": "https://tools.usps.com/UspsToolsRestServices/rest/POLocator/findLocations", "@spider": "usps_collection_boxes", "addr:city": "STRATFORD", "addr:country": "US", "addr:postcode": "79084", "addr:state": "TX", "addr:street_address": "201 N MAIN ST", "amenity": "post_box", "collection_times": "Mo-Fr 15:45; Sa 11:00", "indoor": "yes", "note": "ON 12/24 AND 12/31, THIS BOX MAY BE COLLECTED AS EARLY AS 12 NOON.", "nsi_id": "unitedstatespostalservice-a77078", "operator": "United States Postal Service", "operator:short": "USPS", "operator:type": "public", "operator:wikidata": "Q668687", "ref": "7908400004"}, "type": "Feature"}
{"geometry": {"coordinates": [-102.071669, 36.335361], "type": "Point"}, "id": "0FMx8sTDpnjyr0aECuFNSmamwwM=", "properties": {"@source_uri": "https://tools.usps.com/UspsToolsRestServices/rest/POLocator/findLocations", "@spider": "usps_collection_boxes", "addr:city": "STRATFORD", "addr:country": "US", "addr:postcode": "79084", "addr:state": "TX", "addr:street_address": "201 N MAIN ST", "amenity": "post_box", "collection_times": "Mo-Fr 15:45; Sa 11:00", "indoor": "yes", "note": "ON 12/24 AND 12/31, THIS BOX MAY BE COLLECTED AS EARLY AS 12 NOON.", "nsi_id": "unitedstatespostalservice-a77078", "operator": "United States Postal Service", "operator:short": "USPS", "operator:type": "public", "operator:wikidata": "Q668687", "ref": "7908400005"}, "type": "Feature"}
{"geometry": {"coordinates": [-102.071825548, 36.335477358], "type": "Point"}, "id": "Yks5_CsDdIrhOMZ-03qlIzQmYg8=", "properties": {"@source_uri": "https://tools.usps.com/UspsToolsRestServices/rest/POLocator/findLocations", "@spider": "usps_collection_boxes", "addr:city": "STRATFORD", "addr:country": "US", "addr:postcode": "79084", "addr:state": "TX", "addr:street_address": "201 N MAIN ST", "amenity": "post_box", "collection_times": "Mo-Fr 15:45", "indoor": "yes", "note": "ON 12/24 AND 12/31, THIS BOX MAY BE COLLECTED AS EARLY AS 12 NOON.", "nsi_id": "unitedstatespostalservice-a77078", "operator": "United States Postal Service", "operator:short": "USPS", "operator:type": "public", "operator:wikidata": "Q668687", "ref": "7908400006"}, "type": "Feature"}
{"geometry": {"coordinates": [-101.824567, 36.020872], "type": "Point"}, "id": "1yL86MB-O6aj5ws7_vUaEYX6drA=", "properties": {"@source_uri": "https://tools.usps.com/UspsToolsRestServices/rest/POLocator/findLocations", "@spider": "usps_collection_boxes", "addr:city": "SUNRAY", "addr:country": "US", "addr:postcode": "79086", "addr:state": "TX", "addr:street_address": "400 MAIN ST", "amenity": "post_box", "collection_times": "Mo-Fr 16:00; Sa 11:00", "note": "ON 12/24 AND 12/31, THIS BOX MAY BE COLLECTED AS EARLY AS 12 NOON.", "nsi_id": "unitedstatespostalservice-a77078", "operator": "United States Postal Service", "operator:short": "USPS", "operator:type": "public", "operator:wikidata": "Q668687", "ref": "7908600000"}, "type": "Feature"}
{"geometry": {"coordinates": [-101.824567, 36.020872], "type": "Point"}, "id": "Q3TbgUwXIhfiHWDGeBugFB8L9yk=", "properties": {"@source_uri": "https://tools.usps.com/UspsToolsRestServices/rest/POLocator/findLocations", "@spider": "usps_collection_boxes", "addr:city": "SUNRAY", "addr:country": "US", "addr:postcode": "79086", "addr:state": "TX", "addr:street_address": "400 MAIN ST", "amenity": "post_box", "collection_times": "Mo-Fr 16:00; Sa 11:00", "indoor": "yes", "note": "ON 12/24 AND 12/31, THIS BOX MAY BE COLLECTED AS EARLY AS 12 NOON.", "nsi_id": "unitedstatespostalservice-a77078", "operator": "United States Postal Service", "operator:short": "USPS", "operator:type": "public", "operator:wikidata": "Q668687", "ref": "7908600003"}, "type": "Feature"}
{"geometry": {"coordinates": [-101.824567, 36.020872], "type": "Point"}, "id": "P1xpRPjpGeROw7meQ_6OobTq6sE=", "properties": {"@source_uri": "https://tools.usps.com/UspsToolsRestServices/rest/POLocator/findLocations", "@spider": "usps_collection_boxes", "addr:city": "SUNRAY", "addr:country": "US", "addr:postcode": "79086", "addr:state": "TX", "addr:street_address": "400 MAIN ST", "amenity": "post_box", "collection_times": "Mo-Fr 16:00; Sa 11:00", "indoor": "yes", "note": "ON 12/24 AND 12/31, THIS BOX MAY BE COLLECTED AS EARLY AS 12 NOON.", "nsi_id": "unitedstatespostalservice-a77078", "operator": "United States Postal Service", "operator:short": "USPS", "operator:type": "public", "operator:wikidata": "Q668687", "ref": "7908600004"}, "type": "Feature"}
{"geometry": {"coordinates": [-101.824608006, 36.020654581], "type": "Point"}, "id": "Xk_jeVBbwDn1lAscg7rslMHLBdk=", "properties": {"@source_uri": "https://tools.usps.com/UspsToolsRestServices/rest/POLocator/findLocations", "@spider": "usps_collection_boxes", "addr:city": "SUNRAY", "addr:country": "US", "addr:postcode": "79086", "addr:state": "TX", "addr:street_address": "400 MAIN ST", "amenity": "post_box", "collection_times": "Mo-Fr 16:00", "indoor": "yes", "note": "ON 12/24 AND 12/31, THIS BOX MAY BE COLLECTED AS EARLY AS 12 NOON.", "nsi_id": "unitedstatespostalservice-a77078", "operator": "United States Postal Service", "operator:short": "USPS", "operator:type": "public", "operator:wikidata": "Q668687", "ref": "7908600005"}, "type": "Feature"}
{"geometry": {"coordinates": [-103.021222, 36.375751], "type": "Point"}, "id": "vKvYQgCEgYc4vMyrslUwV75jXNk=", "properties": {"@source_uri": "https://tools.usps.com/UspsToolsRestServices/rest/POLocator/findLocations", "@spider": "usps_collection_boxes", "addr:city": "TEXLINE", "addr:country": "US", "addr:postcode": "79087", "addr:state": "TX", "addr:street_address": "303 S 2ND ST", "amenity": "post_box", "collection_times": "Mo-Fr 15:45; Sa 09:00", "note": "ON 12/24 AND 12/31, THIS BOX MAY BE COLLECTED AS EARLY AS 12 NOON.", "nsi_id": "unitedstatespostalservice-a77078", "operator": "United States Postal Service", "operator:short": "USPS", "operator:type": "public", "operator:wikidata": "Q668687", "ref": "7908700000"}, "type": "Feature"}
{"geometry": {"coordinates": [-103.021327, 36.37579], "type": "Point"}, "id": "ClU_LqcK2NVZEN9_hdjKBI4wujU=", "properties": {"@source_uri": "https://tools.usps.com/UspsToolsRestServices/rest/POLocator/findLocations", "@spider": "usps_collection_boxes", "addr:city": "TEXLINE", "addr:country": "US", "addr:postcode": "79087", "addr:state": "TX", "addr:street_address": "303 S 2ND ST", "amenity": "post_box", "collection_times": "Mo-Fr 15:45; Sa 09:00", "indoor": "yes", "note": "ON 12/24 AND 12/31, THIS BOX MAY BE COLLECTED AS EARLY AS 12 NOON.", "nsi_id": "unitedstatespostalservice-a77078", "operator": "United States Postal Service", "operator:short": "USPS", "operator:type": "public", "operator:wikidata": "Q668687", "ref": "7908700001"}, "type": "Feature"}
{"geometry": {"coordinates": [-103.021036666, 36.375611907], "type": "Point"}, "id": "Bza25RkBxvALxqqwr3aaI3ieQY4=", "properties": {"@source_uri": "https://tools.usps.com/UspsToolsRestServices/rest/POLocator/findLocations", "@spider": "usps_collection_boxes", "addr:city": "TEXLINE", "addr:country": "US", "addr:postcode": "79087", "addr:state": "TX", "addr:street_address": "303 S 2ND ST", "amenity": "post_box", "collection_times": "Mo-Fr 16:00", "indoor": "yes", "note": "ON 12/24 AND 12/31, THIS BOX MAY BE COLLECTED AS EARLY AS 12 NOON.", "nsi_id": "unitedstatespostalservice-a77078", "operator": "United States Postal Service", "operator:short": "USPS", "operator:type": "public", "operator:wikidata": "Q668687", "ref": "7908700002"}, "type": "Feature"}
{"geometry": {"coordinates": [-101.76598, 34.538476], "type": "Point"}, "id": "P7WtMjIaQKXvIDGAG8qZinGYT3o=", "properties": {"@source_uri": "https://tools.usps.com/UspsToolsRestServices/rest/POLocator/findLocations", "@spider": "usps_collection_boxes", "addr:city": "TULIA", "addr:country": "US", "addr:postcode": "79088", "addr:state": "TX", "addr:street_address": "129 N ARMSTRONG AVE", "amenity": "post_box", "collection_times": "Mo-Fr 16:30; Sa 15:00", "note": "ON 12/24 AND 12/31, THIS BOX MAY BE COLLECTED AS EARLY AS 12 NOON.", "nsi_id": "unitedstatespostalservice-a77078", "operator": "United States Postal Service", "operator:short": "USPS", "operator:type": "public", "operator:wikidata": "Q668687", "ref": "7908800000"}, "type": "Feature"}
{"geometry": {"coordinates": [-101.764409175, 34.536555503], "type": "Point"}, "id": "9bl2SKo0hEZCrtPhoBIWq22I3PU=", "properties": {"@source_uri": "https://tools.usps.com/UspsToolsRestServices/rest/POLocator/findLocations", "@spider": "usps_collection_boxes", "addr:city": "TULIA", "addr:country": "US", "addr:postcode": "79088", "addr:state": "TX", "addr:street_address": "119 S MAXWELL AVE", "amenity": "post_box", "collection_times": "Mo-Fr 17:00", "note": "ON 12/24 AND 12/31, THIS BOX MAY BE COLLECTED AS EARLY AS 12 NOON.", "nsi_id": "unitedstatespostalservice-a77078", "operator": "United States Postal Service", "operator:short": "USPS", "operator:type": "public", "operator:wikidata": "Q668687", "ref": "7908800005"}, "type": "Feature"}
{"geometry": {"coordinates": [-101.766053, 34.538327], "type": "Point"}, "id": "dvPe6VO7lEBejZNVY9M7wL4duZE=", "properties": {"@source_uri": "https://tools.usps.com/UspsToolsRestServices/rest/POLocator/findLocations", "@spider": "usps_collection_boxes", "addr:city": "TULIA", "addr:country": "US", "addr:postcode": "79088", "addr:state": "TX", "addr:street_address": "129 N ARMSTRONG AVE", "amenity": "post_box", "collection_times": "Mo-Fr 16:30; Sa 15:00", "indoor": "yes", "note": "ON 12/24 AND 12/31, THIS BOX MAY BE COLLECTED AS EARLY AS 12 NOON.", "nsi_id": "unitedstatespostalservice-a77078", "operator": "United States Postal Service", "operator:short": "USPS", "operator:type": "public", "operator:wikidata": "Q668687", "ref": "7908800008"}, "type": "Feature"}
{"geometry": {"coordinates": [-101.76607, 34.538316], "type": "Point"}, "id": "rU1k0rQx4CPqxztilnY9zSrfQ7k=", "properties": {"@source_uri": "https://tools.usps.com/UspsToolsRestServices/rest/POLocator/findLocations", "@spider": "usps_collection_boxes", "addr:city": "TULIA", "addr:country": "US", "addr:postcode": "79088", "addr:state": "TX", "addr:street_address": "129 N ARMSTRONG AVE", "amenity": "post_box", "collection_times": "Mo-Fr 16:30; Sa 15:00", "indoor": "yes", "note": "ON 12/24 AND 12/31, THIS BOX MAY BE COLLECTED AS EARLY AS 12 NOON.", "nsi_id": "unitedstatespostalservice-a77078", "operator": "United States Postal Service", "operator:short": "USPS", "operator:type": "public", "operator:wikidata": "Q668687", "ref": "7908800009"}, "type": "Feature"}
{"geometry": {"coordinates": [-101.765863361, 34.538292419], "type": "Point"}, "id": "27vD2xL2hTyPkT4BgXl-vkhEQUY=", "properties": {"@source_uri": "https://tools.usps.com/UspsToolsRestServices/rest/POLocator/findLocations", "@spider": "usps_collection_boxes", "addr:city": "TULIA", "addr:country": "US", "addr:postcode": "79088", "addr:state": "TX", "addr:street_address": "129 N ARMSTRONG AVE", "amenity": "post_box", "collection_times": "Mo-Fr 16:30", "indoor": "yes", "note": "ON 12/24 AND 12/31, THIS BOX MAY BE COLLECTED AS EARLY AS 12 NOON.", "nsi_id": "unitedstatespostalservice-a77078", "operator": "United States Postal Service", "operator:short": "USPS", "operator:type": "public", "operator:wikidata": "Q668687", "ref": "7908800010"}, "type": "Feature"}
{"geometry": {"coordinates": [-102.10556, 34.955477], "type": "Point"}, "id": "8f3VgsI6Rqd8cPd_xOkwCHe7WL4=", "properties": {"@source_uri": "https://tools.usps.com/UspsToolsRestServices/rest/POLocator/findLocations", "@spider": "usps_collection_boxes", "addr:city": "UMBARGER", "addr:country": "US", "addr:postcode": "79091", "addr:state": "TX", "addr:street_address": "25380 STOREY ST", "amenity": "post_box", "collection_times": "Mo-Fr 11:00; Sa 10:00", "indoor": "yes", "nsi_id": "unitedstatespostalservice-a77078", "operator": "United States Postal Service", "operator:short": "USPS", "operator:type": "public", "operator:wikidata": "Q668687", "ref": "7909100001"}, "type": "Feature"}
{"geometry": {"coordinates": [-102.105587025, 34.954973162], "type": "Point"}, "id": "t9Ng1e7fx1aV5kvzzSZvErIyoKU=", "properties": {"@source_uri": "https://tools.usps.com/UspsToolsRestServices/rest/POLocator/findLocations", "@spider": "usps_collection_boxes", "addr:city": "UMBARGER", "addr:country": "US", "addr:postcode": "79091", "addr:state": "TX", "addr:street_address": "25380 STOREY ST", "amenity": "post_box", "collection_times": "Mo-Fr 11:00; Sa 10:00", "indoor": "yes", "nsi_id": "unitedstatespostalservice-a77078", "operator": "United States Postal Service", "operator:short": "USPS", "operator:type": "public", "operator:wikidata": "Q668687", "ref": "7909100002"}, "type": "Feature"}
{"geometry": {"coordinates": [-102.428342, 35.248496], "type": "Point"}, "id": "rR28Z6fsBBdiJJNo4LrDEVE6qXk=", "properties": {"@source_uri": "https://tools.usps.com/UspsToolsRestServices/rest/POLocator/findLocations", "@spider": "usps_collection_boxes", "addr:city": "VEGA", "addr:country": "US", "addr:postcode": "79092", "addr:state": "TX", "addr:street_address": "222 N MAIN ST", "amenity": "post_box", "collection_times": "Mo-Fr 16:00; Sa 11:00", "note": "ON 12/24 AND 12/31, THIS BOX MAY BE COLLECTED AS EARLY AS 12 NOON.", "nsi_id": "unitedstatespostalservice-a77078", "operator": "United States Postal Service", "operator:short": "USPS", "operator:type": "public", "operator:wikidata": "Q668687", "ref": "7909200000"}, "type": "Feature"}
{"geometry": {"coordinates": [-102.428376, 35.248446], "type": "Point"}, "id": "C-6yj-bEA1hW-3x8tVGe84C68pk=", "properties": {"@source_uri": "https://tools.usps.com/UspsToolsRestServices/rest/POLocator/findLocations", "@spider": "usps_collection_boxes", "addr:city": "VEGA", "addr:country": "US", "addr:postcode": "79092", "addr:state": "TX", "addr:street_address": "222 N MAIN ST", "amenity": "post_box", "collection_times": "Mo-Fr 16:00; Sa 11:00", "indoor": "yes", "note": "ON 12/24 AND 12/31, THIS BOX MAY BE COLLECTED AS EARLY AS 12 NOON.", "nsi_id": "unitedstatespostalservice-a77078", "operator": "United States Postal Service", "operator:short": "USPS", "operator:type": "public", "operator:wikidata": "Q668687", "ref": "7909200001"}, "type": "Feature"}
{"geometry": {"coordinates": [-102.428337387, 35.248977639], "type": "Point"}, "id": "Z5jJ7AupaH2UAsVN_GqdHK-wW70=", "properties": {"@source_uri": "https://tools.usps.com/UspsToolsRestServices/rest/POLocator/findLocations", "@spider": "usps_collection_boxes", "addr:city": "VEGA", "addr:country": "US", "addr:postcode": "79092", "addr:state": "TX", "addr:street_address": "222 N MAIN ST", "amenity": "post_box", "collection_times": "Mo-Fr 16:00", "indoor": "yes", "note": "ON 12/24 AND 12/31, THIS BOX MAY BE COLLECTED AS EARLY AS 12 NOON.", "nsi_id": "unitedstatespostalservice-a77078", "operator": "United States Postal Service", "operator:short": "USPS", "operator:type": "public", "operator:wikidata": "Q668687", "ref": "7909200005"}, "type": "Feature"}
{"geometry": {"coordinates": [-100.213794, 34.854097], "type": "Point"}, "id": "xp1n342ltF2xyVleEwq08rq75t4=", "properties": {"@source_uri": "https://tools.usps.com/UspsToolsRestServices/rest/POLocator/findLocations", "@spider": "usps_collection_boxes", "addr:city": "WELLINGTON", "addr:country": "US", "addr:postcode": "79095", "addr:state": "TX", "addr:street_address": "1000 WEST AVE", "amenity": "post_box", "collection_times": "Mo-Fr 15:45; Sa 12:00", "note": "ON 12/24 AND 12/31, THIS BOX MAY BE COLLECTED AS EARLY AS 12 NOON.", "nsi_id": "unitedstatespostalservice-a77078", "operator": "United States Postal Service", "operator:short": "USPS", "operator:type": "public", "operator:wikidata": "Q668687", "ref": "7909500001"}, "type": "Feature"}
{"geometry": {"coordinates": [-100.213809, 34.853948], "type": "Point"}, "id": "BCIGAztjYXMvEfLsXRS0Ng4j_B4=", "properties": {"@source_uri": "https://tools.usps.com/UspsToolsRestServices/rest/POLocator/findLocations", "@spider": "usps_collection_boxes", "addr:city": "WELLINGTON", "addr:country": "US", "addr:postcode": "79095", "addr:state": "TX", "addr:street_address": "1000 WEST AVE", "amenity": "post_box", "collection_times": "Mo-Fr 15:45; Sa 12:00", "indoor": "yes", "note": "ON 12/24 AND 12/31, THIS BOX MAY BE COLLECTED AS EARLY AS 12 NOON.", "nsi_id": "unitedstatespostalservice-a77078", "operator": "United States Postal Service", "operator:short": "USPS", "operator:type": "public", "operator:wikidata": "Q668687", "ref": "7909500003"}, "type": "Feature"}
{"geometry": {"coordinates": [-100.214170037, 34.853939361], "type": "Point"}, "id": "o4DwBK0srJljrD2KhSvJqa1lRKI=", "properties": {"@source_uri": "https://tools.usps.com/UspsToolsRestServices/rest/POLocator/findLocations", "@spider": "usps_collection_boxes", "addr:city": "WELLINGTON", "addr:country": "US", "addr:postcode": "79095", "addr:state": "TX", "addr:street_address": "1000 WEST AVE", "amenity": "post_box", "collection_times": "Mo-Fr 16:00", "indoor": "yes", "note": "ON 12/24 AND 12/31, THIS BOX MAY BE COLLECTED AS EARLY AS 12 NOON.", "nsi_id": "unitedstatespostalservice-a77078", "operator": "United States Postal Service", "operator:short": "USPS", "operator:type": "public", "operator:wikidata": "Q668687", "ref": "7909500008"}, "type": "Feature"}
{"geometry": {"coordinates": [-100.274774, 35.44391], "type": "Point"}, "id": "U0ICwr0VS0041Ydy1K_f2fpW1uA=", "properties": {"@source_uri": "https://tools.usps.com/UspsToolsRestServices/rest/POLocator/findLocations", "@spider": "usps_collection_boxes", "addr:city": "WHEELER", "addr:country": "US", "addr:postcode": "79096", "addr:state": "TX", "addr:street_address": "507 S CANADIAN ST", "amenity": "post_box", "collection_times": "Mo-Fr 15:15; Sa 10:30", "note": "ON 12/24 AND 12/31, THIS BOX MAY BE COLLECTED AS EARLY AS 12 NOON.", "nsi_id": "unitedstatespostalservice-a77078", "operator": "United States Postal Service", "operator:short": "USPS", "operator:type": "public", "operator:wikidata": "Q668687", "ref": "7909600001"}, "type": "Feature"}
{"geometry": {"coordinates": [-100.274807, 35.443989], "type": "Point"}, "id": "lzFrk7b6OSVzYRxHDp3SnvYaWeY=", "properties": {"@source_uri": "https://tools.usps.com/UspsToolsRestServices/rest/POLocator/findLocations", "@spider": "usps_collection_boxes", "addr:city": "WHEELER", "addr:country": "US", "addr:postcode": "79096", "addr:state": "TX", "addr:street_address": "507 S CANADIAN ST", "amenity": "post_box", "collection_times": "Mo-Fr 15:15; Sa 10:30", "indoor": "yes", "note": "ON 12/24 AND 12/31, THIS BOX MAY BE COLLECTED AS EARLY AS 12 NOON.", "nsi_id": "unitedstatespostalservice-a77078", "operator": "United States Postal Service", "operator:short": "USPS", "operator:type": "public", "operator:wikidata": "Q668687", "ref": "7909600002"}, "type": "Feature"}
{"geometry": {"coordinates": [-100.274799779, 35.443358749], "type": "Point"}, "id": "FCvksbi6t26kDyMbeIaCg0W5-Oc=", "properties": {"@source_uri": "https://tools.usps.com/UspsToolsRestServices/rest/POLocator/findLocations", "@spider": "usps_collection_boxes", "addr:city": "WHEELER", "addr:country": "US", "addr:postcode": "79096", "addr:state": "TX", "addr:street_address": "507 S CANADIAN ST", "amenity": "post_box", "collection_times": "Mo-Fr 15:30", "indoor": "yes", "note": "ON 12/24 AND 12/31, THIS BOX MAY BE COLLECTED AS EARLY AS 12 NOON.", "nsi_id": "unitedstatespostalservice-a77078", "operator": "United States Postal Service", "operator:short": "USPS", "operator:type": "public", "operator:wikidata": "Q668687", "ref": "7909600006"}, "type": "Feature"}
{"geometry": {"coordinates": [-101.172496, 35.434428], "type": "Point"}, "id": "NTs5234m-n0Bx4OSezAv_669a68=", "properties": {"@source_uri": "https://tools.usps.com/UspsToolsRestServices/rest/POLocator/findLocations", "@spider": "usps_collection_boxes", "addr:city": "WHITE DEER", "addr:country": "US", "addr:postcode": "79097", "addr:state": "TX", "addr:street_address": "110 E 3RD ST", "amenity": "post_box", "collection_times": "Mo-Fr 16:00; Sa 09:30", "note": "ON 12/24 AND 12/31, THIS BOX MAY BE COLLECTED AS EARLY AS 12 NOON.", "nsi_id": "unitedstatespostalservice-a77078", "operator": "United States Postal Service", "operator:short": "USPS", "operator:type": "public", "operator:wikidata": "Q668687", "ref": "7909700000"}, "type": "Feature"}
{"geometry": {"coordinates": [-101.172496, 35.434428], "type": "Point"}, "id": "eYfPvTTOZ3ektoHi0QYez45aeGM=", "properties": {"@source_uri": "https://tools.usps.com/UspsToolsRestServices/rest/POLocator/findLocations", "@spider": "usps_collection_boxes", "addr:city": "WHITE DEER", "addr:country": "US", "addr:postcode": "79097", "addr:state": "TX", "addr:street_address": "110 E 3RD ST", "amenity": "post_box", "collection_times": "Mo-Fr 16:00", "indoor": "yes", "note": "ON 12/24 AND 12/31, THIS BOX MAY BE COLLECTED AS EARLY AS 12 NOON.", "nsi_id": "unitedstatespostalservice-a77078", "operator": "United States Postal Service", "operator:short": "USPS", "operator:type": "public", "operator:wikidata": "Q668687", "ref": "7909700001"}, "type": "Feature"}
{"geometry": {"coordinates": [-101.171792265, 35.434710212], "type": "Point"}, "id": "GyLEUGdE81SPSrNSpzIHSI-nH28=", "properties": {"@source_uri": "https://tools.usps.com/UspsToolsRestServices/rest/POLocator/findLocations", "@spider": "usps_collection_boxes", "addr:city": "WHITE DEER", "addr:country": "US", "addr:postcode": "79097", "addr:state": "TX", "addr:street_address": "110 E 3RD ST", "amenity": "post_box", "collection_times": "Mo-Fr 16:00", "indoor": "yes", "note": "ON 12/24 AND 12/31, THIS BOX MAY BE COLLECTED AS EARLY AS 12 NOON.", "nsi_id": "unitedstatespostalservice-a77078", "operator": "United States Postal Service", "operator:short": "USPS", "operator:type": "public", "operator:wikidata": "Q668687", "ref": "7909700003"}, "type": "Feature"}
{"geometry": {"coordinates": [-102.202021, 35.206726], "type": "Point"}, "id": "RPHcE0_jWxKQOuwH2vzVwpvB3Ls=", "properties": {"@source_uri": "https://tools.usps.com/UspsToolsRestServices/rest/POLocator/findLocations", "@spider": "usps_collection_boxes", "addr:city": "WILDORADO", "addr:country": "US", "addr:postcode": "79098", "addr:state": "TX", "addr:street_address": "306 N LOCUST ST", "amenity": "post_box", "collection_times": "Mo-Fr 12:00; Sa 08:00", "indoor": "yes", "nsi_id": "unitedstatespostalservice-a77078", "operator": "United States Postal Service", "operator:short": "USPS", "operator:type": "public", "operator:wikidata": "Q668687", "ref": "7909800000"}, "type": "Feature"}
{"geometry": {"coordinates": [-102.202066893, 35.206425137], "type": "Point"}, "id": "POwjpCYWB8k36vuL5cYLkOThe64=", "properties": {"@source_uri": "https://tools.usps.com/UspsToolsRestServices/rest/POLocator/findLocations", "@spider": "usps_collection_boxes", "addr:city": "WILDORADO", "addr:country": "US", "addr:postcode": "79098", "addr:state": "TX", "addr:street_address": "306 N LOCUST ST", "amenity": "post_box", "collection_times": "Mo-Fr 12:00", "indoor": "yes", "nsi_id": "unitedstatespostalservice-a77078", "operator": "United States Postal Service", "operator:short": "USPS", "operator:type": "public", "operator:wikidata": "Q668687", "ref": "7909800002"}, "type": "Feature"}
