{"geometry": {"coordinates": [-101.832253, 35.204277], "type": "Point"}, "id": "W9KhZnfr-70sf3bjFeb7LvwK5vQ=", "properties": {"@spider": "usps_collection_boxes", "addr:city": "AMARILLO", "addr:country": "US", "addr:full": "505 E 9TH AVE", "addr:postcode": "79101", "addr:state": "TX", "brand": "USPS", "collection_times": "Mo-Fr 16:45", "name": "USPS COLLECTION BOX - PO LOBBY", "note": "ON 12/24 AND 12/31, THIS BOX MAY BE COLLECTED AS EARLY AS 12 NOON.", "ref": "7910100001"}, "type": "Feature"}
{"geometry": {"coordinates": [-101.832249, 35.204297], "type": "Point"}, "id": "WyhqN5bnNq2nXsNmwAcVlvCM8Z4=", "properties": {"@spider": "usps_collection_boxes", "addr:city": "AMARILLO", "addr:country": "US", "addr:full": "505 E 9TH AVE", "addr:postcode": "79101", "addr:state": "TX", "brand": "USPS", "collection_times": "Mo-Fr 16:45", "name": "USPS COLLECTION BOX - PO LOBBY", "note": "ON 12/24 AND 12/31, THIS BOX MAY BE COLLECTED AS EARLY AS 12 NOON.", "ref": "7910100002"}, "type": "Feature"}
{"geometry": {"coordinates": [-101.832051, 35.203917], "type": "Point"}, "id": "Z7n_Sbdh4tM22sNWWYSz7rJVcrs=", "properties": {"@spider": "usps_collection_boxes", "addr:city": "AMARILLO", "addr:country": "US", "addr:full": "505 E 9TH AVE", "addr:postcode": "79101", "addr:state": "TX", "brand": "USPS", "collection_times": "Mo-Fr 17:00; Sa 14:45", "name": "USPS COLLECTION BOX - BLUE BOX", "note": "ON 12/24 AND 12/31, THIS BOX MAY BE COLLECTED AS EARLY AS 12 NOON.", "ref": "7910100003"}, "type": "Feature"}
{"geometry": {"coordinates": [-101.832029, 35.203921], "type": "Point"}, "id": "3BXyHWXmnHYqIpKpRvNjQHqSjUY=", "properties": {"@spider": "usps_collection_boxes", "addr:city": "AMARILLO", "addr:country": "US", "addr:full": "505 E 9TH AVE", "addr:postcode": "79101", "addr:state": "TX", "brand": "USPS", "collection_times": "Mo-Fr 17:00; Sa 14:45", "name": "USPS COLLECTION BOX - BLUE BOX", "note": "ON 12/24 AND 12/31, THIS BOX MAY BE COLLECTED AS EARLY AS 12 NOON.", "ref": "7910100004"}, "type": "Feature"}
{"geometry": {"coordinates": [-101.833813, 35.207805], "type": "Point"}, "id": "Yq-wK87xRh6cosafmXSCTfExft8=", "properties": {"@spider": "usps_collection_boxes", "addr:city": "AMARILLO", "addr:country": "US", "addr:full": "501 S FILLMORE ST", "addr:postcode": "79101", "addr:state": "TX", "brand": "USPS", "collection_times": "Mo-Fr 10:30", "name": "USPS COLLECTION BOX - BLUE BOX", "ref": "7910100011"}, "type": "Feature"}
{"geometry": {"coordinates": [-101.8400931539, 35.198855549], "type": "Point"}, "id": "h111O1lN31b3j1Gl8GsQmC0u610=", "properties": {"@spider": "usps_collection_boxes", "addr:city": "AMARILLO", "addr:country": "US", "addr:full": "1422 S TYLER ST", "addr:postcode": "79101", "addr:state": "TX", "brand": "USPS", "collection_times": "Mo-Sa 14:30", "name": "USPS COLLECTION BOX - BLUE BOX", "note": "ON 12/24 AND 12/31, THIS BOX MAY BE COLLECTED AS EARLY AS 12 NOON.", "ref": "7910100015"}, "type": "Feature"}
{"geometry": {"coordinates": [-101.838045, 35.203188], "type": "Point"}, "id": "hW5-TSwm69opxX4DZjxIy9eW46I=", "properties": {"@spider": "usps_collection_boxes", "addr:city": "AMARILLO", "addr:country": "US", "addr:full": "1000 S POLK ST", "addr:postcode": "79101", "addr:state": "TX", "brand": "USPS", "collection_times": "Mo-Fr 10:00", "name": "USPS COLLECTION BOX - BLUE BOX", "ref": "7910100016"}, "type": "Feature"}
{"geometry": {"coordinates": [-101.834368, 35.2087], "type": "Point"}, "id": "w_RYipkF-ZiralwEf4j-OVbIIiw=", "properties": {"@spider": "usps_collection_boxes", "addr:city": "AMARILLO", "addr:country": "US", "addr:full": "410 S FILLMORE ST", "addr:postcode": "79101", "addr:state": "TX", "brand": "USPS", "collection_times": "Mo-Sa 10:30", "name": "USPS COLLECTION BOX - BLUE BOX", "ref": "7910100032"}, "type": "Feature"}
{"geometry": {"coordinates": [-101.835316, 35.209262], "type": "Point"}, "id": "vspHAwuOF78AC-Au0iQ6azA7XPQ=", "properties": {"@spider": "usps_collection_boxes", "addr:city": "AMARILLO", "addr:country": "US", "addr:full": "401 S TAYLOR ST", "addr:postcode": "79101", "addr:state": "TX", "brand": "USPS", "collection_times": "Mo-Sa 10:30", "name": "USPS COLLECTION BOX - BLUE BOX", "ref": "7910100037"}, "type": "Feature"}
{"geometry": {"coordinates": [-101.853027, 35.207818], "type": "Point"}, "id": "VoHeLqnfhB8rSeYAhRuFjnbWHVM=", "properties": {"@spider": "usps_collection_boxes", "addr:city": "AMARILLO", "addr:country": "US", "addr:full": "1400 W 8TH AVE", "addr:postcode": "79101", "addr:state": "TX", "brand": "USPS", "collection_times": "Mo-Sa 14:00", "name": "USPS COLLECTION BOX - BLUE BOX", "note": "ON 12/24 AND 12/31, THIS BOX MAY BE COLLECTED AS EARLY AS 12 NOON.", "ref": "7910100049"}, "type": "Feature"}
{"geometry": {"coordinates": [-101.837189, 35.209798], "type": "Point"}, "id": "EP7ntauIPjYZEarhOLbnYq5BQII=", "properties": {"@spider": "usps_collection_boxes", "addr:city": "AMARILLO", "addr:country": "US", "addr:full": "320 S POLK ST", "addr:postcode": "79101", "addr:state": "TX", "brand": "USPS", "collection_times": "Mo-Sa 11:00", "name": "USPS COLLECTION BOX - BLUE BOX", "ref": "7910100050"}, "type": "Feature"}
{"geometry": {"coordinates": [-101.838181, 35.207107], "type": "Point"}, "id": "K_L3MoIZ43q5dLPS3m_3P56Lomc=", "properties": {"@spider": "usps_collection_boxes", "addr:city": "AMARILLO", "addr:country": "US", "addr:full": "600 S TYLER ST", "addr:postcode": "79101", "addr:state": "TX", "brand": "USPS", "collection_times": "Mo-Fr 10:30", "name": "USPS COLLECTION BOX - BLUE BOX", "ref": "7910100054"}, "type": "Feature"}
{"geometry": {"coordinates": [-101.8383632483, 35.207670363], "type": "Point"}, "id": "7owu9dHWAFYmyLf_PfrU4ewTseE=", "properties": {"@spider": "usps_collection_boxes", "addr:city": "AMARILLO", "addr:country": "US", "addr:full": "600 S TYLER ST", "addr:postcode": "79101", "addr:state": "TX", "brand": "USPS", "collection_times": "Mo-Fr 10:30", "name": "USPS COLLECTION BOX - BLUE BOX", "ref": "7910100056"}, "type": "Feature"}
{"geometry": {"coordinates": [-101.866419, 35.199795], "type": "Point"}, "id": "mNLo_IOOPju4lsvz70-HlJx9ut4=", "properties": {"@spider": "usps_collection_boxes", "addr:city": "AMARILLO", "addr:country": "US", "addr:full": "1220 S GEORGIA ST", "addr:postcode": "79102", "addr:state": "TX", "brand": "USPS", "collection_times": "Mo-Sa 12:00", "name": "USPS COLLECTION BOX - BLUE BOX", "ref": "7910200003"}, "type": "Feature"}
{"geometry": {"coordinates": [-101.849031, 35.195392], "type": "Point"}, "id": "-Pk3MsuEP3om0skCGmCFeqBc3Nk=", "properties": {"@spider": "usps_collection_boxes", "addr:city": "AMARILLO", "addr:country": "US", "addr:full": "1800 S WASHINGTON ST", "addr:postcode": "79102", "addr:state": "TX", "brand": "USPS", "collection_times": "Mo-Fr 10:00", "name": "USPS COLLECTION BOX - BLUE BOX", "ref": "7910200004"}, "type": "Feature"}
{"geometry": {"coordinates": [-101.869939, 35.19603], "type": "Point"}, "id": "C84ZKp44_LgE_YwEearSamvcuMM=", "properties": {"@spider": "usps_collection_boxes", "addr:city": "AMARILLO", "addr:country": "US", "addr:full": "1616 S KENTUCKY ST", "addr:postcode": "79102", "addr:state": "TX", "brand": "USPS", "collection_times": "Mo-Fr 10:30", "name": "USPS COLLECTION BOX - BLUE BOX", "ref": "7910200011"}, "type": "Feature"}
{"geometry": {"coordinates": [-101.81719, 35.189073], "type": "Point"}, "id": "Y_G_08UvB251gDVcOc6NahQmp7E=", "properties": {"@spider": "usps_collection_boxes", "addr:city": "AMARILLO", "addr:country": "US", "addr:full": "2301 ROSS ST", "addr:postcode": "79103", "addr:state": "TX", "brand": "USPS", "collection_times": "Mo-Fr 19:00; Sa 18:00", "name": "USPS COLLECTION BOX - BLUE BOX", "note": "ON 12/24 AND 12/31, THIS BOX MAY BE COLLECTED AS EARLY AS 12 NOON.", "ref": "7910300004"}, "type": "Feature"}
{"geometry": {"coordinates": [-101.81719, 35.189073], "type": "Point"}, "id": "TTdzJQ3Ar2sGEK--kxrO3g7LMkg=", "properties": {"@spider": "usps_collection_boxes", "addr:city": "AMARILLO", "addr:country": "US", "addr:full": "2301 ROSS ST", "addr:postcode": "79103", "addr:state": "TX", "brand": "USPS", "collection_times": "Mo-Fr 19:00; Sa 18:00", "name": "USPS COLLECTION BOX - PO LOBBY", "note": "ON 12/24 AND 12/31, THIS BOX MAY BE COLLECTED AS EARLY AS 12 NOON.", "ref": "7910300006"}, "type": "Feature"}
{"geometry": {"coordinates": [-101.81719, 35.189073], "type": "Point"}, "id": "iEyuvL6tYaykYKB7zgOXOR-0b1A=", "properties": {"@spider": "usps_collection_boxes", "addr:city": "AMARILLO", "addr:country": "US", "addr:full": "2301 ROSS ST", "addr:postcode": "79103", "addr:state": "TX", "brand": "USPS", "collection_times": "Mo-Fr 19:00; Sa 18:00", "name": "USPS COLLECTION BOX - PO LOBBY", "note": "ON 12/24 AND 12/31, THIS BOX MAY BE COLLECTED AS EARLY AS 12 NOON.", "ref": "7910300007"}, "type": "Feature"}
{"geometry": {"coordinates": [-101.81719, 35.189073], "type": "Point"}, "id": "wTrojHdxUtCC626eXl-ypwwbvLY=", "properties": {"@spider": "usps_collection_boxes", "addr:city": "AMARILLO", "addr:country": "US", "addr:full": "2301 ROSS ST", "addr:postcode": "79103", "addr:state": "TX", "brand": "USPS", "collection_times": "Mo-Fr 19:00; Sa 18:00", "name": "USPS COLLECTION BOX - PO LOBBY", "note": "ON 12/24 AND 12/31, THIS BOX MAY BE COLLECTED AS EARLY AS 12 NOON.", "ref": "7910300008"}, "type": "Feature"}
{"geometry": {"coordinates": [-101.81719, 35.189073], "type": "Point"}, "id": "ueCFJpJVPQ9qc1vqoQBKKz3kVxQ=", "properties": {"@spider": "usps_collection_boxes", "addr:city": "AMARILLO", "addr:country": "US", "addr:full": "2301 ROSS ST", "addr:postcode": "79103", "addr:state": "TX", "brand": "USPS", "collection_times": "Mo-Fr 19:00; Sa 18:00", "name": "USPS COLLECTION BOX - APC", "note": "ON 12/24 AND 12/31, THIS BOX MAY BE COLLECTED AS EARLY AS 12 NOON.", "ref": "7910300010"}, "type": "Feature"}
{"geometry": {"coordinates": [-101.832260213, 35.203856341], "type": "Point"}, "id": "WLs8V8KdKn9YDoxBJw0HMmUEpuQ=", "properties": {"@spider": "usps_collection_boxes", "addr:city": "AMARILLO", "addr:country": "US", "addr:full": "505 E 9TH AVE", "addr:postcode": "79105", "addr:state": "TX", "brand": "USPS", "collection_times": "Mo-Fr 17:00", "name": "USPS COLLECTION BOX - PO LOBBY", "note": "ON 12/24 AND 12/31, THIS BOX MAY BE COLLECTED AS EARLY AS 12 NOON.", "ref": "7910500001"}, "type": "Feature"}
{"geometry": {"coordinates": [-101.897279, 35.20657], "type": "Point"}, "id": "6EXBpfqHDjnFIrNa6SsdOUGppYI=", "properties": {"@spider": "usps_collection_boxes", "addr:city": "AMARILLO", "addr:country": "US", "addr:full": "7 MEDICAL DR", "addr:postcode": "79106", "addr:state": "TX", "brand": "USPS", "collection_times": "Mo-Sa 10:45", "name": "USPS COLLECTION BOX - BLUE BOX", "ref": "7910600007"}, "type": "Feature"}
{"geometry": {"coordinates": [-101.905801, 35.204601], "type": "Point"}, "id": "yBuYRCMFo18l-7bpDDytbdSKhwQ=", "properties": {"@spider": "usps_collection_boxes", "addr:city": "AMARILLO", "addr:country": "US", "addr:full": "6010 W AMARILLO BLVD", "addr:postcode": "79106", "addr:state": "TX", "brand": "USPS", "collection_times": "Mo-Sa 09:45", "name": "USPS COLLECTION BOX - BLUE BOX", "ref": "7910600023"}, "type": "Feature"}
{"geometry": {"coordinates": [-101.922116, 35.19638], "type": "Point"}, "id": "HJ9pQ2l7ZJGAl_gxGjp9Hrz1vRs=", "properties": {"@spider": "usps_collection_boxes", "addr:city": "AMARILLO", "addr:country": "US", "addr:full": "1600 S COULTER ST", "addr:postcode": "79106", "addr:state": "TX", "brand": "USPS", "collection_times": "Mo-Sa 11:00", "name": "USPS COLLECTION BOX - BLUE BOX", "ref": "7910600024"}, "type": "Feature"}
{"geometry": {"coordinates": [-101.893208, 35.195432], "type": "Point"}, "id": "b3V4Q-fjlR5oU8xgNak5zuhJv0I=", "properties": {"@spider": "usps_collection_boxes", "addr:city": "AMARILLO", "addr:country": "US", "addr:full": "1733 S AVONDALE ST", "addr:postcode": "79106", "addr:state": "TX", "brand": "USPS", "collection_times": "Mo-Sa 11:30", "name": "USPS COLLECTION BOX - BLUE BOX", "ref": "7910600029"}, "type": "Feature"}
{"geometry": {"coordinates": [-101.919935, 35.177752], "type": "Point"}, "id": "7hOzZY2UKzsaaiYw4hZilDSSync=", "properties": {"@spider": "usps_collection_boxes", "addr:city": "AMARILLO", "addr:country": "US", "addr:full": "3333 S COULTER ST", "addr:postcode": "79106", "addr:state": "TX", "brand": "USPS", "collection_times": "Mo-Sa 09:00", "name": "USPS COLLECTION BOX - BLUE BOX", "ref": "7910600030"}, "type": "Feature"}
{"geometry": {"coordinates": [-101.913074, 35.188633], "type": "Point"}, "id": "EEoS3pBg6Iv6Gy9t-PrlPVEml0A=", "properties": {"@spider": "usps_collection_boxes", "addr:city": "AMARILLO", "addr:country": "US", "addr:full": "6900 W INTERSTATE 40", "addr:postcode": "79106", "addr:state": "TX", "brand": "USPS", "collection_times": "Mo-Sa 14:30", "name": "USPS COLLECTION BOX - BLUE BOX", "note": "ON 12/24 AND 12/31, THIS BOX MAY BE COLLECTED AS EARLY AS 12 NOON.", "ref": "7910600039"}, "type": "Feature"}
{"geometry": {"coordinates": [-101.917378, 35.185302], "type": "Point"}, "id": "qKsupic609_EyIWTSL1BbwTV5ME=", "properties": {"@spider": "usps_collection_boxes", "addr:city": "AMARILLO", "addr:country": "US", "addr:full": "7001 W INTERSTATE 40", "addr:postcode": "79106", "addr:state": "TX", "brand": "USPS", "collection_times": "Mo-Sa 10:30", "name": "USPS COLLECTION BOX - BLUE BOX", "ref": "7910600041"}, "type": "Feature"}
{"geometry": {"coordinates": [-101.903119, 35.189356], "type": "Point"}, "id": "5CG8IaPpZWx3jc7FvNzuN15e4wU=", "properties": {"@spider": "usps_collection_boxes", "addr:city": "AMARILLO", "addr:country": "US", "addr:full": "2200 BELL ST", "addr:postcode": "79106", "addr:state": "TX", "brand": "USPS", "collection_times": "Mo-Sa 10:30", "name": "USPS COLLECTION BOX - BLUE BOX", "ref": "7910600042"}, "type": "Feature"}
{"geometry": {"coordinates": [-101.903605015, 35.1772660041], "type": "Point"}, "id": "oZgvJp_b4Sr_65UvTb4A1uwGIR0=", "properties": {"@spider": "usps_collection_boxes", "addr:city": "AMARILLO", "addr:country": "US", "addr:full": "3318 BELL ST", "addr:postcode": "79106", "addr:state": "TX", "brand": "USPS", "collection_times": "Mo-Sa 10:30", "name": "USPS COLLECTION BOX - BLUE BOX", "ref": "7910600043"}, "type": "Feature"}
{"geometry": {"coordinates": [-101.829757, 35.248295], "type": "Point"}, "id": "b_mWdPNxmwcVwafrTfDJAiWO-nY=", "properties": {"@spider": "usps_collection_boxes", "addr:city": "AMARILLO", "addr:country": "US", "addr:full": "3400 RIVER RD", "addr:postcode": "79107", "addr:state": "TX", "brand": "USPS", "collection_times": "Mo-Sa 14:00", "name": "USPS COLLECTION BOX - BLUE BOX", "note": "ON 12/24 AND 12/31, THIS BOX MAY BE COLLECTED AS EARLY AS 12 NOON.", "ref": "7910700000"}, "type": "Feature"}
{"geometry": {"coordinates": [-101.796855, 35.236326], "type": "Point"}, "id": "zji2l1nnEFsWgpnG3XQ8XWfXlBE=", "properties": {"@spider": "usps_collection_boxes", "addr:city": "AMARILLO", "addr:country": "US", "addr:full": "3416 NE 24TH AVE", "addr:postcode": "79107", "addr:state": "TX", "brand": "USPS", "collection_times": "Mo-Sa 13:00", "name": "USPS COLLECTION BOX - BLUE BOX", "note": "ON 12/24 AND 12/31, THIS BOX MAY BE COLLECTED AS EARLY AS 12 NOON.", "ref": "7910700004"}, "type": "Feature"}
{"geometry": {"coordinates": [-101.812571, 35.223692], "type": "Point"}, "id": "IzAw756v1W-lS_sPDRtiVJ19bEE=", "properties": {"@spider": "usps_collection_boxes", "addr:city": "AMARILLO", "addr:country": "US", "addr:full": "841 MARTIN RD", "addr:postcode": "79107", "addr:state": "TX", "brand": "USPS", "collection_times": "Mo-Fr 13:45", "name": "USPS COLLECTION BOX - PO LOBBY", "note": "ON 12/24 AND 12/31, THIS BOX MAY BE COLLECTED AS EARLY AS 12 NOON.", "ref": "7910700007"}, "type": "Feature"}
{"geometry": {"coordinates": [-101.812548, 35.223675], "type": "Point"}, "id": "rnVOX8nXeHSdj6LxNIlB4EXblUQ=", "properties": {"@spider": "usps_collection_boxes", "addr:city": "AMARILLO", "addr:country": "US", "addr:full": "841 MARTIN RD", "addr:postcode": "79107", "addr:state": "TX", "brand": "USPS", "collection_times": "Mo-Fr 13:45", "name": "USPS COLLECTION BOX - PO LOBBY", "note": "ON 12/24 AND 12/31, THIS BOX MAY BE COLLECTED AS EARLY AS 12 NOON.", "ref": "7910700008"}, "type": "Feature"}
{"geometry": {"coordinates": [-101.769754, 35.2222], "type": "Point"}, "id": "jCyhGpKIsWSm4mgPTXERvk6liq0=", "properties": {"@spider": "usps_collection_boxes", "addr:city": "AMARILLO", "addr:country": "US", "addr:full": "5631 E AMARILLO BLVD", "addr:postcode": "79107", "addr:state": "TX", "brand": "USPS", "collection_times": "Mo-Sa 12:00", "name": "USPS COLLECTION BOX - BLUE BOX", "ref": "7910700012"}, "type": "Feature"}
{"geometry": {"coordinates": [-101.873634, 35.1865], "type": "Point"}, "id": "RHURkU2eBLmtbmsulNwKxwsRd4A=", "properties": {"@spider": "usps_collection_boxes", "addr:city": "AMARILLO", "addr:country": "US", "addr:full": "2518 PARAMOUNT BLVD", "addr:postcode": "79109", "addr:state": "TX", "brand": "USPS", "collection_times": "Mo-Sa 11:45", "name": "USPS COLLECTION BOX - BLUE BOX", "ref": "7910900001"}, "type": "Feature"}
{"geometry": {"coordinates": [-101.879231, 35.185095], "type": "Point"}, "id": "JoggpsQS1kWmhKsJJUcppfOI8HE=", "properties": {"@spider": "usps_collection_boxes", "addr:city": "AMARILLO", "addr:country": "US", "addr:full": "3416 OLSEN BLVD", "addr:postcode": "79109", "addr:state": "TX", "brand": "USPS", "collection_times": "Mo-Sa 15:00", "name": "USPS COLLECTION BOX - BLUE BOX", "note": "ON 12/24 AND 12/31, THIS BOX MAY BE COLLECTED AS EARLY AS 12 NOON.", "ref": "7910900003"}, "type": "Feature"}
{"geometry": {"coordinates": [-101.877953, 35.184626], "type": "Point"}, "id": "VUKvDRvUG6qgeGasjXCJHYPBn2A=", "properties": {"@spider": "usps_collection_boxes", "addr:city": "AMARILLO", "addr:country": "US", "addr:full": "3505 OLSEN BLVD", "addr:postcode": "79109", "addr:state": "TX", "brand": "USPS", "collection_times": "Mo-Sa 09:00", "name": "USPS COLLECTION BOX - BLUE BOX", "ref": "7910900004"}, "type": "Feature"}
{"geometry": {"coordinates": [-101.884391, 35.186236], "type": "Point"}, "id": "PzsRegw9XV6HvBwzNAdp7ej3LSM=", "properties": {"@spider": "usps_collection_boxes", "addr:city": "AMARILLO", "addr:country": "US", "addr:full": "2700 S WESTERN ST", "addr:postcode": "79109", "addr:state": "TX", "brand": "USPS", "collection_times": "Mo-Sa 14:00", "name": "USPS COLLECTION BOX - BLUE BOX", "note": "ON 12/24 AND 12/31, THIS BOX MAY BE COLLECTED AS EARLY AS 12 NOON.", "ref": "7910900012"}, "type": "Feature"}
{"geometry": {"coordinates": [-101.884582, 35.155072], "type": "Point"}, "id": "iNjqn0vUfeVrSh-LCiqwKPperWQ=", "properties": {"@spider": "usps_collection_boxes", "addr:city": "AMARILLO", "addr:country": "US", "addr:full": "5000 S WESTERN ST", "addr:postcode": "79109", "addr:state": "TX", "brand": "USPS", "collection_times": "Mo-Sa 17:00", "name": "USPS COLLECTION BOX - BLUE BOX", "note": "ON 12/24 AND 12/31, THIS BOX MAY BE COLLECTED AS EARLY AS 12 NOON.", "ref": "7910900036"}, "type": "Feature"}
{"geometry": {"coordinates": [-101.883877, 35.155683], "type": "Point"}, "id": "zCRrFcsiRlTcl9g6ITr1s4xHzcU=", "properties": {"@spider": "usps_collection_boxes", "addr:city": "AMARILLO", "addr:country": "US", "addr:full": "5000 S WESTERN ST", "addr:postcode": "79109", "addr:state": "TX", "brand": "USPS", "collection_times": "Mo-Sa 16:45", "name": "USPS COLLECTION BOX - PO LOBBY", "note": "ON 12/24 AND 12/31, THIS BOX MAY BE COLLECTED AS EARLY AS 12 NOON.", "ref": "7910900037"}, "type": "Feature"}
{"geometry": {"coordinates": [-101.883877, 35.155683], "type": "Point"}, "id": "PeDcoJVBq2KYBsheatQqn0ey5e8=", "properties": {"@spider": "usps_collection_boxes", "addr:city": "AMARILLO", "addr:country": "US", "addr:full": "5000 S WESTERN ST", "addr:postcode": "79109", "addr:state": "TX", "brand": "USPS", "collection_times": "Mo-Sa 16:45", "name": "USPS COLLECTION BOX - PO LOBBY", "note": "ON 12/24 AND 12/31, THIS BOX MAY BE COLLECTED AS EARLY AS 12 NOON.", "ref": "7910900038"}, "type": "Feature"}
{"geometry": {"coordinates": [-101.884563, 35.155063], "type": "Point"}, "id": "VBo0_fK_qBe7Yg8hv0fMLicsnlU=", "properties": {"@spider": "usps_collection_boxes", "addr:city": "AMARILLO", "addr:country": "US", "addr:full": "5000 S WESTERN ST", "addr:postcode": "79109", "addr:state": "TX", "brand": "USPS", "collection_times": "Mo-Sa 17:00", "name": "USPS COLLECTION BOX - BLUE BOX", "note": "ON 12/24 AND 12/31, THIS BOX MAY BE COLLECTED AS EARLY AS 12 NOON.", "ref": "7910900041"}, "type": "Feature"}
{"geometry": {"coordinates": [-101.902305, 35.149346], "type": "Point"}, "id": "fTFUlaKZnrz05jo5vGvK3WO_e4E=", "properties": {"@spider": "usps_collection_boxes", "addr:city": "AMARILLO", "addr:country": "US", "addr:full": "5410 BELL ST", "addr:postcode": "79109", "addr:state": "TX", "brand": "USPS", "collection_times": "Mo-Sa 13:00", "name": "USPS COLLECTION BOX - BLUE BOX", "note": "ON 12/24 AND 12/31, THIS BOX MAY BE COLLECTED AS EARLY AS 12 NOON.", "ref": "7910900043"}, "type": "Feature"}
{"geometry": {"coordinates": [-101.8834325255, 35.1783554807], "type": "Point"}, "id": "fCO1JnWOyJ4Cfd9UI-OAoJ672Tc=", "properties": {"@spider": "usps_collection_boxes", "addr:city": "AMARILLO", "addr:country": "US", "addr:full": "4165 SW 34TH AVE", "addr:postcode": "79109", "addr:state": "TX", "brand": "USPS", "collection_times": "Mo-Sa 10:30", "name": "USPS COLLECTION BOX - BLUE BOX", "ref": "7910900044"}, "type": "Feature"}
{"geometry": {"coordinates": [-101.866069, 35.171775], "type": "Point"}, "id": "VXu5BFD2sswhzNO36nnxOiafgi4=", "properties": {"@spider": "usps_collection_boxes", "addr:city": "AMARILLO", "addr:country": "US", "addr:full": "4111 S GEORGIA ST", "addr:postcode": "79109", "addr:state": "TX", "brand": "USPS", "collection_times": "Mo-Sa 09:30", "name": "USPS COLLECTION BOX - BLUE BOX", "ref": "7910900046"}, "type": "Feature"}
{"geometry": {"coordinates": [-101.883877, 35.155683], "type": "Point"}, "id": "d62ua6XV9KoaZsv4_tGbIWHyeYw=", "properties": {"@spider": "usps_collection_boxes", "addr:city": "AMARILLO", "addr:country": "US", "addr:full": "5000 S WESTERN ST", "addr:postcode": "79109", "addr:state": "TX", "brand": "USPS", "collection_times": "Mo-Sa 17:00", "name": "USPS COLLECTION BOX - APC", "note": "ON 12/24 AND 12/31, THIS BOX MAY BE COLLECTED AS EARLY AS 12 NOON.", "ref": "7910900048"}, "type": "Feature"}
{"geometry": {"coordinates": [-101.883917063, 35.155512304], "type": "Point"}, "id": "Jdga6cI3BIZKj_vtgHcpg0kA4ew=", "properties": {"@spider": "usps_collection_boxes", "addr:city": "AMARILLO", "addr:country": "US", "addr:full": "5000 S WESTERN ST", "addr:postcode": "79109", "addr:state": "TX", "brand": "USPS", "collection_times": "Mo-Fr 16:45; Sa 12:00", "name": "USPS COLLECTION BOX - PO LOBBY", "note": "ON 12/24 AND 12/31, THIS BOX MAY BE COLLECTED AS EARLY AS 12 NOON.", "ref": "7910900056"}, "type": "Feature"}
{"geometry": {"coordinates": [-101.848709, 35.165743], "type": "Point"}, "id": "kdZEA5KIQ9JRbNMHwpgTFNhsiRc=", "properties": {"@spider": "usps_collection_boxes", "addr:city": "AMARILLO", "addr:country": "US", "addr:full": "4400 S WASHINGTON ST", "addr:postcode": "79110", "addr:state": "TX", "brand": "USPS", "collection_times": "Mo-Sa 15:00", "name": "USPS COLLECTION BOX - BLUE BOX", "note": "ON 12/24 AND 12/31, THIS BOX MAY BE COLLECTED AS EARLY AS 12 NOON.", "ref": "7911000002"}, "type": "Feature"}
{"geometry": {"coordinates": [-101.883387, 35.148002], "type": "Point"}, "id": "f0XCF0INDFTutIA1ZOaS2A2Fxw0=", "properties": {"@spider": "usps_collection_boxes", "addr:city": "AMARILLO", "addr:country": "US", "addr:full": "5809 S WESTERN ST", "addr:postcode": "79110", "addr:state": "TX", "brand": "USPS", "collection_times": "Mo-Sa 09:00", "name": "USPS COLLECTION BOX - BLUE BOX", "ref": "7911000004"}, "type": "Feature"}
{"geometry": {"coordinates": [-101.883397, 35.142857], "type": "Point"}, "id": "e3YImLM97y1Kvd5Lp9k6H5hgBf0=", "properties": {"@spider": "usps_collection_boxes", "addr:city": "AMARILLO", "addr:country": "US", "addr:full": "4178 BUSINESS PARK DR", "addr:postcode": "79110", "addr:state": "TX", "brand": "USPS", "collection_times": "Mo-Sa 13:00", "name": "USPS COLLECTION BOX - BLUE BOX", "note": "ON 12/24 AND 12/31, THIS BOX MAY BE COLLECTED AS EARLY AS 12 NOON.", "ref": "7911000007"}, "type": "Feature"}
{"geometry": {"coordinates": [-101.866114, 35.162164], "type": "Point"}, "id": "GND1v4Whjb4Nv5nU5Eokop7u9nQ=", "properties": {"@spider": "usps_collection_boxes", "addr:city": "AMARILLO", "addr:country": "US", "addr:full": "4515 S GEORGIA ST", "addr:postcode": "79110", "addr:state": "TX", "brand": "USPS", "collection_times": "Mo-Sa 09:30", "name": "USPS COLLECTION BOX - BLUE BOX", "ref": "7911000008"}, "type": "Feature"}
{"geometry": {"coordinates": [-101.8840404057, 35.2137952456], "type": "Point"}, "id": "-8aM8VgQIroOePcrN3ka92t5Bxk=", "properties": {"@spider": "usps_collection_boxes", "addr:city": "AMARILLO", "addr:country": "US", "addr:full": "307 S WESTERN ST", "addr:postcode": "79116", "addr:state": "TX", "brand": "USPS", "collection_times": "Mo-Sa 14:30", "name": "USPS COLLECTION BOX - BLUE BOX", "note": "ON 12/24 AND 12/31, THIS BOX MAY BE COLLECTED AS EARLY AS 12 NOON.", "ref": "7911600001"}, "type": "Feature"}
{"geometry": {"coordinates": [-101.8840404057, 35.2137952456], "type": "Point"}, "id": "sjCIE3Ypt0qtsc-2b2btoHkA6Ug=", "properties": {"@spider": "usps_collection_boxes", "addr:city": "AMARILLO", "addr:country": "US", "addr:full": "307 S WESTERN ST", "addr:postcode": "79116", "addr:state": "TX", "brand": "USPS", "collection_times": "Mo-Fr 16:00", "name": "USPS COLLECTION BOX - PO LOBBY", "note": "ON 12/24 AND 12/31, THIS BOX MAY BE COLLECTED AS EARLY AS 12 NOON.", "ref": "7911600002"}, "type": "Feature"}
{"geometry": {"coordinates": [-101.8840404057, 35.2137952456], "type": "Point"}, "id": "cp0YRVd4OItPLa58pg1JLiHI7CU=", "properties": {"@spider": "usps_collection_boxes", "addr:city": "AMARILLO", "addr:country": "US", "addr:full": "307 S WESTERN ST", "addr:postcode": "79116", "addr:state": "TX", "brand": "USPS", "collection_times": "Mo-Fr 16:00", "name": "USPS COLLECTION BOX - PO LOBBY", "note": "ON 12/24 AND 12/31, THIS BOX MAY BE COLLECTED AS EARLY AS 12 NOON.", "ref": "7911600003"}, "type": "Feature"}
{"geometry": {"coordinates": [-101.8840404057, 35.2137952456], "type": "Point"}, "id": "aBsBk340QBxG-ZcKNmIu8hirUZw=", "properties": {"@spider": "usps_collection_boxes", "addr:city": "AMARILLO", "addr:country": "US", "addr:full": "307 S WESTERN ST", "addr:postcode": "79116", "addr:state": "TX", "brand": "USPS", "collection_times": "Mo-Fr 17:00", "name": "USPS COLLECTION BOX - PO LOBBY", "note": "ON 12/24 AND 12/31, THIS BOX MAY BE COLLECTED AS EARLY AS 12 NOON.", "ref": "7911600004"}, "type": "Feature"}
{"geometry": {"coordinates": [-101.812724, 35.091213], "type": "Point"}, "id": "MPK2Df09EbVEAhvEDJR9LEtvF2Y=", "properties": {"@spider": "usps_collection_boxes", "addr:city": "AMARILLO", "addr:country": "US", "addr:full": "2210 E FM 1151", "addr:postcode": "79118", "addr:state": "TX", "brand": "USPS", "collection_times": "Mo-Sa 11:00", "name": "USPS COLLECTION BOX - BLUE BOX", "ref": "7911800005"}, "type": "Feature"}
{"geometry": {"coordinates": [-101.743878, 35.191417], "type": "Point"}, "id": "wwy04GeUSq5pmcwDtGZdcXW5FWU=", "properties": {"@spider": "usps_collection_boxes", "addr:city": "AMARILLO", "addr:country": "US", "addr:full": "8500 E INTERSTATE 40", "addr:postcode": "79118", "addr:state": "TX", "brand": "USPS", "collection_times": "Mo-Sa 10:00", "name": "USPS COLLECTION BOX - BLUE BOX", "ref": "7911800007"}, "type": "Feature"}
{"geometry": {"coordinates": [-101.723778, 35.193802], "type": "Point"}, "id": "XPttDun2mND9nT5Tname8TD7rtY=", "properties": {"@spider": "usps_collection_boxes", "addr:city": "AMARILLO", "addr:country": "US", "addr:full": "9601 E INTERSTATE 40", "addr:postcode": "79118", "addr:state": "TX", "brand": "USPS", "collection_times": "Mo-Sa 13:00", "name": "USPS COLLECTION BOX - BLUE BOX", "note": "ON 12/24 AND 12/31, THIS BOX MAY BE COLLECTED AS EARLY AS 12 NOON.", "ref": "7911800009"}, "type": "Feature"}
{"geometry": {"coordinates": [-101.743659, 35.190578], "type": "Point"}, "id": "za95Tl7HzdYuLGZTMtD_6rjydNY=", "properties": {"@spider": "usps_collection_boxes", "addr:city": "AMARILLO", "addr:country": "US", "addr:full": "8500 E INTERSTATE 40", "addr:postcode": "79118", "addr:state": "TX", "brand": "USPS", "collection_times": "Mo-Sa 10:00", "name": "USPS COLLECTION BOX - BLUE BOX", "ref": "7911800011"}, "type": "Feature"}
{"geometry": {"coordinates": [-101.759029, 35.191752], "type": "Point"}, "id": "FKZfQlOk6YLjUuzQBWT2yldfJzQ=", "properties": {"@spider": "usps_collection_boxes", "addr:city": "AMARILLO", "addr:country": "US", "addr:full": "7000 E INTERSTATE 40", "addr:postcode": "79118", "addr:state": "TX", "brand": "USPS", "collection_times": "Mo-Sa 10:00", "name": "USPS COLLECTION BOX - BLUE BOX", "ref": "7911800014"}, "type": "Feature"}
{"geometry": {"coordinates": [-101.741105, 35.196001], "type": "Point"}, "id": "2YNxkpYdfWSqr_-wOlQzubAFmWg=", "properties": {"@spider": "usps_collection_boxes", "addr:city": "AMARILLO", "addr:country": "US", "addr:full": "715 S LAKESIDE DR", "addr:postcode": "79118", "addr:state": "TX", "brand": "USPS", "collection_times": "Mo-Sa 10:00", "name": "USPS COLLECTION BOX - BLUE BOX", "ref": "7911800015"}, "type": "Feature"}
{"geometry": {"coordinates": [-101.81217562, 35.223722832], "type": "Point"}, "id": "BSwqPQVgQWEpneVZQmeq-FEMLEc=", "properties": {"@spider": "usps_collection_boxes", "addr:city": "AMARILLO", "addr:country": "US", "addr:full": "841 MARTIN RD", "addr:postcode": "79118", "addr:state": "TX", "brand": "USPS", "collection_times": "Mo-Fr 17:00", "name": "USPS COLLECTION BOX - PO LOBBY", "note": "ON 12/24 AND 12/31, THIS BOX MAY BE COLLECTED AS EARLY AS 12 NOON.", "ref": "7911800016"}, "type": "Feature"}
{"geometry": {"coordinates": [-101.936824, 35.173511], "type": "Point"}, "id": "Zl6jADHcKwObE62Fb0jhGkl-oOQ=", "properties": {"@spider": "usps_collection_boxes", "addr:city": "AMARILLO", "addr:country": "US", "addr:full": "3501 S SONCY RD", "addr:postcode": "79119", "addr:state": "TX", "brand": "USPS", "collection_times": "Mo-Sa 09:30", "name": "USPS COLLECTION BOX - BLUE BOX", "ref": "7911900000"}, "type": "Feature"}
{"geometry": {"coordinates": [-101.81715635, 35.188479], "type": "Point"}, "id": "IR8y4Na17ptiKPeGoBJyEaN_QL8=", "properties": {"@spider": "usps_collection_boxes", "addr:city": "AMARILLO", "addr:country": "US", "addr:full": "2301 ROSS ST", "addr:postcode": "79120", "addr:state": "TX", "brand": "USPS", "collection_times": "Mo-Fr 17:30; Sa 12:00", "name": "USPS COLLECTION BOX - PO LOBBY", "note": "ON 12/24 AND 12/31, THIS BOX MAY BE COLLECTED AS EARLY AS 12 NOON.", "ref": "7912000001"}, "type": "Feature"}
{"geometry": {"coordinates": [-101.935682, 35.183984], "type": "Point"}, "id": "xkPeHblry48HsiQS3DZuEFxoO2Y=", "properties": {"@spider": "usps_collection_boxes", "addr:city": "AMARILLO", "addr:country": "US", "addr:full": "201 WESTGATE PKWY", "addr:postcode": "79121", "addr:state": "TX", "brand": "USPS", "collection_times": "Mo-Sa 11:00", "name": "USPS COLLECTION BOX - BLUE BOX", "ref": "7912100001"}, "type": "Feature"}
{"geometry": {"coordinates": [-101.906878, 35.21451], "type": "Point"}, "id": "5gMcRBwWWml2PPTVzZDYIb0m9TI=", "properties": {"@spider": "usps_collection_boxes", "addr:city": "AMARILLO", "addr:country": "US", "addr:full": "421 TASCOSA RD", "addr:postcode": "79124", "addr:state": "TX", "brand": "USPS", "collection_times": "Mo-Sa 14:30", "name": "USPS COLLECTION BOX - BLUE BOX", "note": "ON 12/24 AND 12/31, THIS BOX MAY BE COLLECTED AS EARLY AS 12 NOON.", "ref": "7912400000"}, "type": "Feature"}
{"geometry": {"coordinates": [-101.9342205838, 35.191381469], "type": "Point"}, "id": "64-lFc_rtlykavpVyaBqY1xUIoc=", "properties": {"@spider": "usps_collection_boxes", "addr:city": "AMARILLO", "addr:country": "US", "addr:full": "8301 W AMARILLO BLVD", "addr:postcode": "79124", "addr:state": "TX", "brand": "USPS", "collection_times": "Mo-Fr 17:00; Sa 16:30", "name": "USPS COLLECTION BOX - BLUE BOX", "note": "ON 12/24 AND 12/31, THIS BOX MAY BE COLLECTED AS EARLY AS 12 NOON.", "ref": "7912400001"}, "type": "Feature"}
{"geometry": {"coordinates": [-101.933641, 35.190321], "type": "Point"}, "id": "u_BZKDLuCWR12S91bBpMIbcLkJM=", "properties": {"@spider": "usps_collection_boxes", "addr:city": "AMARILLO", "addr:country": "US", "addr:full": "8301 W AMARILLO BLVD", "addr:postcode": "79124", "addr:state": "TX", "brand": "USPS", "collection_times": "Mo-Fr 17:00; Sa 16:30", "name": "USPS COLLECTION BOX - BLUE BOX", "note": "ON 12/24 AND 12/31, THIS BOX MAY BE COLLECTED AS EARLY AS 12 NOON.", "ref": "7912400002"}, "type": "Feature"}
{"geometry": {"coordinates": [-101.934134, 35.190786], "type": "Point"}, "id": "L9qvsuMerxuNWQEZhKWzMTsb5nM=", "properties": {"@spider": "usps_collection_boxes", "addr:city": "AMARILLO", "addr:country": "US", "addr:full": "8301 W AMARILLO BLVD", "addr:postcode": "79124", "addr:state": "TX", "brand": "USPS", "collection_times": "Mo-Fr 17:00; Sa 16:30", "name": "USPS COLLECTION BOX - PO LOBBY", "note": "ON 12/24 AND 12/31, THIS BOX MAY BE COLLECTED AS EARLY AS 12 NOON.", "ref": "7912400004"}, "type": "Feature"}
{"geometry": {"coordinates": [-101.934132, 35.19086], "type": "Point"}, "id": "U_Ra9CPHGsIHOoOA760hyISwedw=", "properties": {"@spider": "usps_collection_boxes", "addr:city": "AMARILLO", "addr:country": "US", "addr:full": "8301 W AMARILLO BLVD", "addr:postcode": "79124", "addr:state": "TX", "brand": "USPS", "collection_times": "Mo-Fr 17:00; Sa 16:30", "name": "USPS COLLECTION BOX - PO LOBBY", "note": "ON 12/24 AND 12/31, THIS BOX MAY BE COLLECTED AS EARLY AS 12 NOON.", "ref": "7912400005"}, "type": "Feature"}
{"geometry": {"coordinates": [-101.934165, 35.190873], "type": "Point"}, "id": "ALfquKd4cOV76hdV5vz-fWgLBxY=", "properties": {"@spider": "usps_collection_boxes", "addr:city": "AMARILLO", "addr:country": "US", "addr:full": "8301 W AMARILLO BLVD", "addr:postcode": "79124", "addr:state": "TX", "brand": "USPS", "collection_times": "Mo-Sa 17:15", "name": "USPS COLLECTION BOX - APC", "note": "ON 12/24 AND 12/31, THIS BOX MAY BE COLLECTED AS EARLY AS 12 NOON.", "ref": "7912400006"}, "type": "Feature"}
{"geometry": {"coordinates": [-102.010976, 35.189142], "type": "Point"}, "id": "wE9aJ1kqnuzX-y6Jjhpj6jdaW7Y=", "properties": {"@spider": "usps_collection_boxes", "addr:city": "AMARILLO", "addr:country": "US", "addr:full": "14701 W INTERSTATE 40", "addr:postcode": "79124", "addr:state": "TX", "brand": "USPS", "collection_times": "Mo-Sa 13:00", "name": "USPS COLLECTION BOX - BLUE BOX", "note": "ON 12/24 AND 12/31, THIS BOX MAY BE COLLECTED AS EARLY AS 12 NOON.", "ref": "7912400007"}, "type": "Feature"}
{"geometry": {"coordinates": [-101.934220584, 35.191381469], "type": "Point"}, "id": "RLYForRRvFxlqN7AVMTlvj1zXJ4=", "properties": {"@spider": "usps_collection_boxes", "addr:city": "AMARILLO", "addr:country": "US", "addr:full": "8301 W AMARILLO BLVD", "addr:postcode": "79124", "addr:state": "TX", "brand": "USPS", "collection_times": "Mo-Fr 17:00; Sa 12:00", "name": "USPS COLLECTION BOX - PO LOBBY", "note": "ON 12/24 AND 12/31, THIS BOX MAY BE COLLECTED AS EARLY AS 12 NOON.", "ref": "7912400008"}, "type": "Feature"}
