{"geometry": {"coordinates": [-100.208911, 34.428066], "type": "Point"}, "id": "WIf6QkY6d1X0mAVvLjRBYIP72ls=", "properties": {"@source_uri": "https://tools.usps.com/UspsToolsRestServices/rest/POLocator/findLocations", "@spider": "usps_collection_boxes", "addr:city": "CHILDRESS", "addr:country": "US", "addr:postcode": "79201", "addr:state": "TX", "addr:street_address": "507 AVENUE F NW", "amenity": "post_box", "collection_times": "Mo-Sa 17:00", "note": "ON 12/24 AND 12/31, THIS BOX MAY BE COLLECTED AS EARLY AS 12 NOON.", "nsi_id": "unitedstatespostalservice-a77078", "operator": "United States Postal Service", "operator:short": "USPS", "operator:type": "public", "operator:wikidata": "Q668687", "ref": "7920100000"}, "type": "Feature"}
{"geometry": {"coordinates": [-100.20881, 34.428058], "type": "Point"}, "id": "zVEMtFeQyeAOpbbgiJiX5Ianyfs=", "properties": {"@source_uri": "https://tools.usps.com/UspsToolsRestServices/rest/POLocator/findLocations", "@spider": "usps_collection_boxes", "addr:city": "CHILDRESS", "addr:country": "US", "addr:postcode": "79201", "addr:state": "TX", "addr:street_address": "507 AVENUE F NW", "amenity": "post_box", "collection_times": "Mo-Sa 17:00", "indoor": "yes", "note": "ON 12/24 AND 12/31, THIS BOX MAY BE COLLECTED AS EARLY AS 12 NOON.", "nsi_id": "unitedstatespostalservice-a77078", "operator": "United States Postal Service", "operator:short": "USPS", "operator:type": "public", "operator:wikidata": "Q668687", "ref": "7920100013"}, "type": "Feature"}
{"geometry": {"coordinates": [-100.20881, 34.428058], "type": "Point"}, "id": "c8fqD797PSiXticPU-1JrLuaRRQ=", "properties": {"@source_uri": "https://tools.usps.com/UspsToolsRestServices/rest/POLocator/findLocations", "@spider": "usps_collection_boxes", "addr:city": "CHILDRESS", "addr:country": "US", "addr:postcode": "79201", "addr:state": "TX", "addr:street_address": "507 AVENUE F NW", "amenity": "post_box", "collection_times": "Mo-Sa 17:00", "indoor": "yes", "note": "ON 12/24 AND 12/31, THIS BOX MAY BE COLLECTED AS EARLY AS 12 NOON.", "nsi_id": "unitedstatespostalservice-a77078", "operator": "United States Postal Service", "operator:short": "USPS", "operator:type": "public", "operator:wikidata": "Q668687", "ref": "7920100014"}, "type": "Feature"}
{"geometry": {"coordinates": [-100.208912641, 34.428015946], "type": "Point"}, "id": "IkGt0tlVdClYPLsyXGxczb0Fdz0=", "properties": {"@source_uri": "https://tools.usps.com/UspsToolsRestServices/rest/POLocator/findLocations", "@spider": "usps_collection_boxes", "addr:city": "CHILDRESS", "addr:country": "US", "addr:postcode": "79201", "addr:state": "TX", "addr:street_address": "507 AVENUE F NW", "amenity": "post_box", "collection_times": "Mo-Fr 16:30", "indoor": "yes", "note": "ON 12/24 AND 12/31, THIS BOX MAY BE COLLECTED AS EARLY AS 12 NOON.", "nsi_id": "unitedstatespostalservice-a77078", "operator": "United States Postal Service", "operator:short": "USPS", "operator:type": "public", "operator:wikidata": "Q668687", "ref": "7920100016"}, "type": "Feature"}
{"geometry": {"coordinates": [-99.514983271, 34.256517432], "type": "Point"}, "id": "rUwcsTqrHbPxnNKqA1fYmH0JlpU=", "properties": {"@source_uri": "https://tools.usps.com/UspsToolsRestServices/rest/POLocator/findLocations", "@spider": "usps_collection_boxes", "addr:city": "CHILLICOTHE", "addr:country": "US", "addr:postcode": "79225", "addr:state": "TX", "addr:street_address": "14125 US HIGHWAY 287 S", "amenity": "post_box", "collection_times": "Mo-Fr 15:45; Sa 08:00", "note": "ON 12/24 AND 12/31, THIS BOX MAY BE COLLECTED AS EARLY AS 12 NOON.", "nsi_id": "unitedstatespostalservice-a77078", "operator": "United States Postal Service", "operator:short": "USPS", "operator:type": "public", "operator:wikidata": "Q668687", "ref": "7922500001"}, "type": "Feature"}
{"geometry": {"coordinates": [-99.47542, 34.250001], "type": "Point"}, "id": "qZ4I-JIpNBlePjai2mEcrzOLHvk=", "properties": {"@source_uri": "https://tools.usps.com/UspsToolsRestServices/rest/POLocator/findLocations", "@spider": "usps_collection_boxes", "addr:city": "CHILLICOTHE", "addr:country": "US", "addr:postcode": "79225", "addr:state": "TX", "addr:street_address": "14125 US HIGHWAY 287 S", "amenity": "post_box", "collection_times": "Mo-Fr 15:45", "indoor": "yes", "note": "ON 12/24 AND 12/31, THIS BOX MAY BE COLLECTED AS EARLY AS 12 NOON.", "nsi_id": "unitedstatespostalservice-a77078", "operator": "United States Postal Service", "operator:short": "USPS", "operator:type": "public", "operator:wikidata": "Q668687", "ref": "7922500002"}, "type": "Feature"}
{"geometry": {"coordinates": [-99.51498589, 34.256517291], "type": "Point"}, "id": "qYuwJohmN76f_zNAFWPPEdA4qyE=", "properties": {"@source_uri": "https://tools.usps.com/UspsToolsRestServices/rest/POLocator/findLocations", "@spider": "usps_collection_boxes", "addr:city": "CHILLICOTHE", "addr:country": "US", "addr:postcode": "79225", "addr:state": "TX", "addr:street_address": "14125 US HIGHWAY 287 S", "amenity": "post_box", "collection_times": "Mo-Fr 15:45", "indoor": "yes", "note": "ON 12/24 AND 12/31, THIS BOX MAY BE COLLECTED AS EARLY AS 12 NOON.", "nsi_id": "unitedstatespostalservice-a77078", "operator": "United States Postal Service", "operator:short": "USPS", "operator:type": "public", "operator:wikidata": "Q668687", "ref": "7922500003"}, "type": "Feature"}
{"geometry": {"coordinates": [-100.90692, 35.03149], "type": "Point"}, "id": "ckUt7Jhl07oou2-gzOiwzi4L3bg=", "properties": {"@source_uri": "https://tools.usps.com/UspsToolsRestServices/rest/POLocator/findLocations", "@spider": "usps_collection_boxes", "addr:city": "CLARENDON", "addr:country": "US", "addr:postcode": "79226", "addr:state": "TX", "addr:street_address": "101 W 4TH ST", "amenity": "post_box", "collection_times": "Mo-Fr 16:15; Sa 09:00", "note": "ON 12/24 AND 12/31, THIS BOX MAY BE COLLECTED AS EARLY AS 12 NOON.", "nsi_id": "unitedstatespostalservice-a77078", "operator": "United States Postal Service", "operator:short": "USPS", "operator:type": "public", "operator:wikidata": "Q668687", "ref": "7922600001"}, "type": "Feature"}
{"geometry": {"coordinates": [-100.889672264, 34.936296245], "type": "Point"}, "id": "7B5CWveONNFSqn0QBunBT1rem7M=", "properties": {"@source_uri": "https://tools.usps.com/UspsToolsRestServices/rest/POLocator/findLocations", "@spider": "usps_collection_boxes", "addr:city": "CLARENDON", "addr:country": "US", "addr:postcode": "79226", "addr:state": "TX", "addr:street_address": "101 W 4TH ST", "amenity": "post_box", "collection_times": "Mo-Fr 16:00", "indoor": "yes", "note": "ON 12/24 AND 12/31, THIS BOX MAY BE COLLECTED AS EARLY AS 12 NOON.", "nsi_id": "unitedstatespostalservice-a77078", "operator": "United States Postal Service", "operator:short": "USPS", "operator:type": "public", "operator:wikidata": "Q668687", "ref": "7922600005"}, "type": "Feature"}
{"geometry": {"coordinates": [-100.90692, 35.03149], "type": "Point"}, "id": "ehO06coRAA1K-O7RxZGbyX6VBlg=", "properties": {"@source_uri": "https://tools.usps.com/UspsToolsRestServices/rest/POLocator/findLocations", "@spider": "usps_collection_boxes", "addr:city": "CLARENDON", "addr:country": "US", "addr:postcode": "79226", "addr:state": "TX", "addr:street_address": "101 W 4TH ST", "amenity": "post_box", "collection_times": "Mo-Fr 16:15; Sa 09:00", "indoor": "yes", "note": "ON 12/24 AND 12/31, THIS BOX MAY BE COLLECTED AS EARLY AS 12 NOON.", "nsi_id": "unitedstatespostalservice-a77078", "operator": "United States Postal Service", "operator:short": "USPS", "operator:type": "public", "operator:wikidata": "Q668687", "ref": "7922600006"}, "type": "Feature"}
{"geometry": {"coordinates": [-99.8119128, 33.754293], "type": "Point"}, "id": "6nDIX_xLXEMBmgHr2MmHhXKtBJY=", "properties": {"@source_uri": "https://tools.usps.com/UspsToolsRestServices/rest/POLocator/findLocations", "@spider": "usps_collection_boxes", "addr:city": "CROWELL", "addr:country": "US", "addr:postcode": "79227", "addr:state": "TX", "addr:street_address": "1612 FM 1756 W", "amenity": "post_box", "collection_times": "Mo-Sa 10:45", "nsi_id": "unitedstatespostalservice-a77078", "operator": "United States Postal Service", "operator:short": "USPS", "operator:type": "public", "operator:wikidata": "Q668687", "ref": "7922700000"}, "type": "Feature"}
{"geometry": {"coordinates": [-99.7251016953, 33.9843612153], "type": "Point"}, "id": "ii6C5Tp8K2faTmpUg5XREZVXS8Y=", "properties": {"@source_uri": "https://tools.usps.com/UspsToolsRestServices/rest/POLocator/findLocations", "@spider": "usps_collection_boxes", "addr:city": "CROWELL", "addr:country": "US", "addr:postcode": "79227", "addr:state": "TX", "addr:street_address": "121 N MAIN ST", "amenity": "post_box", "collection_times": "Mo-Fr 15:00; Sa 08:45", "note": "ON 12/24 AND 12/31, THIS BOX MAY BE COLLECTED AS EARLY AS 12 NOON.", "nsi_id": "unitedstatespostalservice-a77078", "operator": "United States Postal Service", "operator:short": "USPS", "operator:type": "public", "operator:wikidata": "Q668687", "ref": "7922700001"}, "type": "Feature"}
{"geometry": {"coordinates": [-99.725045, 33.984335], "type": "Point"}, "id": "x3v0wu6RWFlXJQGHhoK7TdCqyeY=", "properties": {"@source_uri": "https://tools.usps.com/UspsToolsRestServices/rest/POLocator/findLocations", "@spider": "usps_collection_boxes", "addr:city": "CROWELL", "addr:country": "US", "addr:postcode": "79227", "addr:state": "TX", "addr:street_address": "121 N MAIN ST", "amenity": "post_box", "collection_times": "Mo-Fr 15:45; Sa 08:45", "indoor": "yes", "note": "ON 12/24 AND 12/31, THIS BOX MAY BE COLLECTED AS EARLY AS 12 NOON.", "nsi_id": "unitedstatespostalservice-a77078", "operator": "United States Postal Service", "operator:short": "USPS", "operator:type": "public", "operator:wikidata": "Q668687", "ref": "7922700003"}, "type": "Feature"}
{"geometry": {"coordinates": [-99.725101695, 33.984361215], "type": "Point"}, "id": "MMXm1workmrve4NlVij4W7dO1wI=", "properties": {"@source_uri": "https://tools.usps.com/UspsToolsRestServices/rest/POLocator/findLocations", "@spider": "usps_collection_boxes", "addr:city": "CROWELL", "addr:country": "US", "addr:postcode": "79227", "addr:state": "TX", "addr:street_address": "121 N MAIN ST", "amenity": "post_box", "collection_times": "Mo-Fr 15:45", "indoor": "yes", "note": "ON 12/24 AND 12/31, THIS BOX MAY BE COLLECTED AS EARLY AS 12 NOON.", "nsi_id": "unitedstatespostalservice-a77078", "operator": "United States Postal Service", "operator:short": "USPS", "operator:type": "public", "operator:wikidata": "Q668687", "ref": "7922700004"}, "type": "Feature"}
{"geometry": {"coordinates": [-100.827518, 33.621692], "type": "Point"}, "id": "AKY9qVp3ij6HyfdOxEN_X8u1y8A=", "properties": {"@source_uri": "https://tools.usps.com/UspsToolsRestServices/rest/POLocator/findLocations", "@spider": "usps_collection_boxes", "addr:city": "DICKENS", "addr:country": "US", "addr:postcode": "79229", "addr:state": "TX", "addr:street_address": "921 5TH ST", "amenity": "post_box", "collection_times": "Mo-Fr 11:45; Sa 09:00", "nsi_id": "unitedstatespostalservice-a77078", "operator": "United States Postal Service", "operator:short": "USPS", "operator:type": "public", "operator:wikidata": "Q668687", "ref": "7922900000"}, "type": "Feature"}
{"geometry": {"coordinates": [-100.827518, 33.621692], "type": "Point"}, "id": "3FC48ijpOvWN2YiGxeFX9lJUB3o=", "properties": {"@source_uri": "https://tools.usps.com/UspsToolsRestServices/rest/POLocator/findLocations", "@spider": "usps_collection_boxes", "addr:city": "DICKENS", "addr:country": "US", "addr:postcode": "79229", "addr:state": "TX", "addr:street_address": "921 5TH ST", "amenity": "post_box", "collection_times": "Mo-Fr 11:45", "indoor": "yes", "nsi_id": "unitedstatespostalservice-a77078", "operator": "United States Postal Service", "operator:short": "USPS", "operator:type": "public", "operator:wikidata": "Q668687", "ref": "7922900001"}, "type": "Feature"}
{"geometry": {"coordinates": [-100.835949794, 33.621870017], "type": "Point"}, "id": "94Ev-9wOYaFVVnQRNHpGylL4gSA=", "properties": {"@source_uri": "https://tools.usps.com/UspsToolsRestServices/rest/POLocator/findLocations", "@spider": "usps_collection_boxes", "addr:city": "DICKENS", "addr:country": "US", "addr:postcode": "79229", "addr:state": "TX", "addr:street_address": "921 5TH ST", "amenity": "post_box", "collection_times": "Mo-Fr 12:00", "indoor": "yes", "nsi_id": "unitedstatespostalservice-a77078", "operator": "United States Postal Service", "operator:short": "USPS", "operator:type": "public", "operator:wikidata": "Q668687", "ref": "7922900002"}, "type": "Feature"}
{"geometry": {"coordinates": [-101.086837, 33.941836], "type": "Point"}, "id": "5ixRkt9XlQ2QN_FwWSA9BMQUsHw=", "properties": {"@source_uri": "https://tools.usps.com/UspsToolsRestServices/rest/POLocator/findLocations", "@spider": "usps_collection_boxes", "addr:city": "DOUGHERTY", "addr:country": "US", "addr:postcode": "79231", "addr:state": "TX", "addr:street_address": "611 TEXAS AVE", "amenity": "post_box", "collection_times": "Mo-Fr 15:00; Sa 10:00", "note": "ON 12/24 AND 12/31, THIS BOX MAY BE COLLECTED AS EARLY AS 12 NOON.", "nsi_id": "unitedstatespostalservice-a77078", "operator": "United States Postal Service", "operator:short": "USPS", "operator:type": "public", "operator:wikidata": "Q668687", "ref": "7923100000"}, "type": "Feature"}
{"geometry": {"coordinates": [-101.086923, 33.941863], "type": "Point"}, "id": "uMyM3AyBIqjqjzhzA77r-HsjOwE=", "properties": {"@source_uri": "https://tools.usps.com/UspsToolsRestServices/rest/POLocator/findLocations", "@spider": "usps_collection_boxes", "addr:city": "DOUGHERTY", "addr:country": "US", "addr:postcode": "79231", "addr:state": "TX", "addr:street_address": "611 TEXAS AVE", "amenity": "post_box", "collection_times": "Mo-Fr 15:00; Sa 10:00", "indoor": "yes", "note": "ON 12/24 AND 12/31, THIS BOX MAY BE COLLECTED AS EARLY AS 12 NOON.", "nsi_id": "unitedstatespostalservice-a77078", "operator": "United States Postal Service", "operator:short": "USPS", "operator:type": "public", "operator:wikidata": "Q668687", "ref": "7923100001"}, "type": "Feature"}
{"geometry": {"coordinates": [-101.08645718, 33.941792063], "type": "Point"}, "id": "-hr6Yd_YcAdZvanmnysWOvg1f5Y=", "properties": {"@source_uri": "https://tools.usps.com/UspsToolsRestServices/rest/POLocator/findLocations", "@spider": "usps_collection_boxes", "addr:city": "DOUGHERTY", "addr:country": "US", "addr:postcode": "79231", "addr:state": "TX", "addr:street_address": "611 TEXAS AVE", "amenity": "post_box", "collection_times": "Mo-Fr 15:00; Sa 10:00", "indoor": "yes", "note": "ON 12/24 AND 12/31, THIS BOX MAY BE COLLECTED AS EARLY AS 12 NOON.", "nsi_id": "unitedstatespostalservice-a77078", "operator": "United States Postal Service", "operator:short": "USPS", "operator:type": "public", "operator:wikidata": "Q668687", "ref": "7923100002"}, "type": "Feature"}
{"geometry": {"coordinates": [-100.431631, 34.546851], "type": "Point"}, "id": "HuAG1fJsCZtxVzKis2-V-dwHHkU=", "properties": {"@source_uri": "https://tools.usps.com/UspsToolsRestServices/rest/POLocator/findLocations", "@spider": "usps_collection_boxes", "addr:city": "ESTELLINE", "addr:country": "US", "addr:postcode": "79233", "addr:state": "TX", "addr:street_address": "710 CLEVELAND ST", "amenity": "post_box", "collection_times": "Mo-Fr 13:45; Sa 08:45", "note": "ON 12/24 AND 12/31, THIS BOX MAY BE COLLECTED AS EARLY AS 12 NOON.", "nsi_id": "unitedstatespostalservice-a77078", "operator": "United States Postal Service", "operator:short": "USPS", "operator:type": "public", "operator:wikidata": "Q668687", "ref": "7923300000"}, "type": "Feature"}
{"geometry": {"coordinates": [-100.431631, 34.546851], "type": "Point"}, "id": "WeXv4k7xQEwUrV3kGGiJCPqoRTs=", "properties": {"@source_uri": "https://tools.usps.com/UspsToolsRestServices/rest/POLocator/findLocations", "@spider": "usps_collection_boxes", "addr:city": "ESTELLINE", "addr:country": "US", "addr:postcode": "79233", "addr:state": "TX", "addr:street_address": "710 CLEVELAND ST", "amenity": "post_box", "collection_times": "Mo-Fr 13:45; Sa 08:45", "indoor": "yes", "note": "ON 12/24 AND 12/31, THIS BOX MAY BE COLLECTED AS EARLY AS 12 NOON.", "nsi_id": "unitedstatespostalservice-a77078", "operator": "United States Postal Service", "operator:short": "USPS", "operator:type": "public", "operator:wikidata": "Q668687", "ref": "7923300001"}, "type": "Feature"}
{"geometry": {"coordinates": [-100.43976041, 34.546909431], "type": "Point"}, "id": "zU6zU_e0nlGZCoWmeJWUVYfi44k=", "properties": {"@source_uri": "https://tools.usps.com/UspsToolsRestServices/rest/POLocator/findLocations", "@spider": "usps_collection_boxes", "addr:city": "ESTELLINE", "addr:country": "US", "addr:postcode": "79233", "addr:state": "TX", "addr:street_address": "710 CLEVELAND ST", "amenity": "post_box", "collection_times": "Mo-Fr 14:00", "indoor": "yes", "note": "ON 12/24 AND 12/31, THIS BOX MAY BE COLLECTED AS EARLY AS 12 NOON.", "nsi_id": "unitedstatespostalservice-a77078", "operator": "United States Postal Service", "operator:short": "USPS", "operator:type": "public", "operator:wikidata": "Q668687", "ref": "7923300002"}, "type": "Feature"}
{"geometry": {"coordinates": [-101.33687, 33.985556], "type": "Point"}, "id": "5dsmjDS1xOmRYIM9JAq0btLqe7U=", "properties": {"@source_uri": "https://tools.usps.com/UspsToolsRestServices/rest/POLocator/findLocations", "@spider": "usps_collection_boxes", "addr:city": "FLOYDADA", "addr:country": "US", "addr:postcode": "79235", "addr:state": "TX", "addr:street_address": "226 W MISSOURI ST", "amenity": "post_box", "collection_times": "Mo-Fr 16:30; Sa 11:00", "note": "ON 12/24 AND 12/31, THIS BOX MAY BE COLLECTED AS EARLY AS 12 NOON.", "nsi_id": "unitedstatespostalservice-a77078", "operator": "United States Postal Service", "operator:short": "USPS", "operator:type": "public", "operator:wikidata": "Q668687", "ref": "7923500002"}, "type": "Feature"}
{"geometry": {"coordinates": [-101.336819, 33.985529], "type": "Point"}, "id": "TUbv9U1HXD_xQ8cG_j8EeGklplk=", "properties": {"@source_uri": "https://tools.usps.com/UspsToolsRestServices/rest/POLocator/findLocations", "@spider": "usps_collection_boxes", "addr:city": "FLOYDADA", "addr:country": "US", "addr:postcode": "79235", "addr:state": "TX", "addr:street_address": "226 W MISSOURI ST", "amenity": "post_box", "collection_times": "Mo-Fr 16:30; Sa 11:00", "indoor": "yes", "note": "ON 12/24 AND 12/31, THIS BOX MAY BE COLLECTED AS EARLY AS 12 NOON.", "nsi_id": "unitedstatespostalservice-a77078", "operator": "United States Postal Service", "operator:short": "USPS", "operator:type": "public", "operator:wikidata": "Q668687", "ref": "7923500004"}, "type": "Feature"}
{"geometry": {"coordinates": [-101.336970861, 33.985550523], "type": "Point"}, "id": "QlXrdqIY3cNiXvi6aOgDcQBN6_4=", "properties": {"@source_uri": "https://tools.usps.com/UspsToolsRestServices/rest/POLocator/findLocations", "@spider": "usps_collection_boxes", "addr:city": "FLOYDADA", "addr:country": "US", "addr:postcode": "79235", "addr:state": "TX", "addr:street_address": "226 W MISSOURI ST", "amenity": "post_box", "collection_times": "Mo-Fr 16:30", "indoor": "yes", "note": "ON 12/24 AND 12/31, THIS BOX MAY BE COLLECTED AS EARLY AS 12 NOON.", "nsi_id": "unitedstatespostalservice-a77078", "operator": "United States Postal Service", "operator:short": "USPS", "operator:type": "public", "operator:wikidata": "Q668687", "ref": "7923500005"}, "type": "Feature"}
{"geometry": {"coordinates": [-100.3231463889, 33.6206217825], "type": "Point"}, "id": "4Cwmb36OZ5ptW06RmqdLeRpChPs=", "properties": {"@source_uri": "https://tools.usps.com/UspsToolsRestServices/rest/POLocator/findLocations", "@spider": "usps_collection_boxes", "addr:city": "GUTHRIE", "addr:country": "US", "addr:postcode": "79236", "addr:state": "TX", "addr:street_address": "600 N HIGHWAY 83", "amenity": "post_box", "collection_times": "Mo-Fr 14:15; Sa 11:45", "note": "ON 12/24 AND 12/31, THIS BOX MAY BE COLLECTED AS EARLY AS 12 NOON.", "nsi_id": "unitedstatespostalservice-a77078", "operator": "United States Postal Service", "operator:short": "USPS", "operator:type": "public", "operator:wikidata": "Q668687", "ref": "7923600000"}, "type": "Feature"}
{"geometry": {"coordinates": [-100.3231463889, 33.6206217825], "type": "Point"}, "id": "9YjzlteWao3qb-IxDUdrmOdD26M=", "properties": {"@source_uri": "https://tools.usps.com/UspsToolsRestServices/rest/POLocator/findLocations", "@spider": "usps_collection_boxes", "addr:city": "GUTHRIE", "addr:country": "US", "addr:postcode": "79236", "addr:state": "TX", "addr:street_address": "600 N HIGHWAY 83", "amenity": "post_box", "collection_times": "Mo-Fr 14:15; Sa 11:45", "indoor": "yes", "note": "ON 12/24 AND 12/31, THIS BOX MAY BE COLLECTED AS EARLY AS 12 NOON.", "nsi_id": "unitedstatespostalservice-a77078", "operator": "United States Postal Service", "operator:short": "USPS", "operator:type": "public", "operator:wikidata": "Q668687", "ref": "7923600002"}, "type": "Feature"}
{"geometry": {"coordinates": [-100.34148625, 33.760352816], "type": "Point"}, "id": "v8Wf1Ksjt57Ho6vWk-MOwmlUsRY=", "properties": {"@source_uri": "https://tools.usps.com/UspsToolsRestServices/rest/POLocator/findLocations", "@spider": "usps_collection_boxes", "addr:city": "GUTHRIE", "addr:country": "US", "addr:postcode": "79236", "addr:state": "TX", "addr:street_address": "600 N HIGHWAY 83", "amenity": "post_box", "collection_times": "Mo-Fr 14:15; Sa 11:45", "indoor": "yes", "note": "ON 12/24 AND 12/31, THIS BOX MAY BE COLLECTED AS EARLY AS 12 NOON.", "nsi_id": "unitedstatespostalservice-a77078", "operator": "United States Postal Service", "operator:short": "USPS", "operator:type": "public", "operator:wikidata": "Q668687", "ref": "7923600003"}, "type": "Feature"}
{"geometry": {"coordinates": [-100.66, 34.867814], "type": "Point"}, "id": "F0_Ejd1VS6mMXR-JlFsYKDQ_5nA=", "properties": {"@source_uri": "https://tools.usps.com/UspsToolsRestServices/rest/POLocator/findLocations", "@spider": "usps_collection_boxes", "addr:city": "HEDLEY", "addr:country": "US", "addr:postcode": "79237", "addr:state": "TX", "addr:street_address": "200 MAIN ST", "amenity": "post_box", "collection_times": "Mo-Fr 16:00; Sa 08:30", "note": "ON 12/24 AND 12/31, THIS BOX MAY BE COLLECTED AS EARLY AS 12 NOON.", "nsi_id": "unitedstatespostalservice-a77078", "operator": "United States Postal Service", "operator:short": "USPS", "operator:type": "public", "operator:wikidata": "Q668687", "ref": "7923700000"}, "type": "Feature"}
{"geometry": {"coordinates": [-100.66, 34.867814], "type": "Point"}, "id": "8Wm5CVFrWAEBiIMqQ-aPia66gz4=", "properties": {"@source_uri": "https://tools.usps.com/UspsToolsRestServices/rest/POLocator/findLocations", "@spider": "usps_collection_boxes", "addr:city": "HEDLEY", "addr:country": "US", "addr:postcode": "79237", "addr:state": "TX", "addr:street_address": "200 MAIN ST", "amenity": "post_box", "collection_times": "Mo-Fr 16:00; Sa 08:30", "indoor": "yes", "note": "ON 12/24 AND 12/31, THIS BOX MAY BE COLLECTED AS EARLY AS 12 NOON.", "nsi_id": "unitedstatespostalservice-a77078", "operator": "United States Postal Service", "operator:short": "USPS", "operator:type": "public", "operator:wikidata": "Q668687", "ref": "7923700002"}, "type": "Feature"}
{"geometry": {"coordinates": [-100.659967356, 34.867798334], "type": "Point"}, "id": "fcvwmELCxMWYN5iwFgqy3SiDeXQ=", "properties": {"@source_uri": "https://tools.usps.com/UspsToolsRestServices/rest/POLocator/findLocations", "@spider": "usps_collection_boxes", "addr:city": "HEDLEY", "addr:country": "US", "addr:postcode": "79237", "addr:state": "TX", "addr:street_address": "200 MAIN ST", "amenity": "post_box", "collection_times": "Mo-Fr 16:00", "indoor": "yes", "note": "ON 12/24 AND 12/31, THIS BOX MAY BE COLLECTED AS EARLY AS 12 NOON.", "nsi_id": "unitedstatespostalservice-a77078", "operator": "United States Postal Service", "operator:short": "USPS", "operator:type": "public", "operator:wikidata": "Q668687", "ref": "7923700003"}, "type": "Feature"}
{"geometry": {"coordinates": [-100.697263, 34.674289], "type": "Point"}, "id": "75TzJZ3a9Ofej81XPsVXEmzEKcc=", "properties": {"@source_uri": "https://tools.usps.com/UspsToolsRestServices/rest/POLocator/findLocations", "@spider": "usps_collection_boxes", "addr:city": "LAKEVIEW", "addr:country": "US", "addr:postcode": "79239", "addr:state": "TX", "addr:street_address": "13406 HIGHWAY 256", "amenity": "post_box", "collection_times": "Mo-Fr 10:30; Sa 08:00", "indoor": "yes", "nsi_id": "unitedstatespostalservice-a77078", "operator": "United States Postal Service", "operator:short": "USPS", "operator:type": "public", "operator:wikidata": "Q668687", "ref": "7923900000"}, "type": "Feature"}
{"geometry": {"coordinates": [-100.696756, 34.674076], "type": "Point"}, "id": "qBMYg5-PkYmFSmdvnv_dQHuATBI=", "properties": {"@source_uri": "https://tools.usps.com/UspsToolsRestServices/rest/POLocator/findLocations", "@spider": "usps_collection_boxes", "addr:city": "LAKEVIEW", "addr:country": "US", "addr:postcode": "79239", "addr:state": "TX", "addr:street_address": "13406 HIGHWAY 256", "amenity": "post_box", "collection_times": "Mo-Fr 11:00; Sa 08:00", "nsi_id": "unitedstatespostalservice-a77078", "operator": "United States Postal Service", "operator:short": "USPS", "operator:type": "public", "operator:wikidata": "Q668687", "ref": "7923900001"}, "type": "Feature"}
{"geometry": {"coordinates": [-100.696811223, 34.674281488], "type": "Point"}, "id": "6Dpfn9qIWKfFhMKjOTOwqI_AElc=", "properties": {"@source_uri": "https://tools.usps.com/UspsToolsRestServices/rest/POLocator/findLocations", "@spider": "usps_collection_boxes", "addr:city": "LAKEVIEW", "addr:country": "US", "addr:postcode": "79239", "addr:state": "TX", "addr:street_address": "13406 HIGHWAY 256", "amenity": "post_box", "collection_times": "Mo-Fr 11:00", "indoor": "yes", "nsi_id": "unitedstatespostalservice-a77078", "operator": "United States Postal Service", "operator:short": "USPS", "operator:type": "public", "operator:wikidata": "Q668687", "ref": "7923900002"}, "type": "Feature"}
{"geometry": {"coordinates": [-101.441621, 34.124604], "type": "Point"}, "id": "4yNWwfQzItXWD9yeQSwCeLx8ips=", "properties": {"@source_uri": "https://tools.usps.com/UspsToolsRestServices/rest/POLocator/findLocations", "@spider": "usps_collection_boxes", "addr:city": "LOCKNEY", "addr:country": "US", "addr:postcode": "79241", "addr:state": "TX", "addr:street_address": "107 N MAIN ST", "amenity": "post_box", "collection_times": "Mo-Fr 16:30; Sa 09:45", "note": "ON 12/24 AND 12/31, THIS BOX MAY BE COLLECTED AS EARLY AS 12 NOON.", "nsi_id": "unitedstatespostalservice-a77078", "operator": "United States Postal Service", "operator:short": "USPS", "operator:type": "public", "operator:wikidata": "Q668687", "ref": "7924100000"}, "type": "Feature"}
{"geometry": {"coordinates": [-101.441621, 34.124604], "type": "Point"}, "id": "Bo6pV-OOue0xVaTv6INzWBUizI8=", "properties": {"@source_uri": "https://tools.usps.com/UspsToolsRestServices/rest/POLocator/findLocations", "@spider": "usps_collection_boxes", "addr:city": "LOCKNEY", "addr:country": "US", "addr:postcode": "79241", "addr:state": "TX", "addr:street_address": "107 N MAIN ST", "amenity": "post_box", "collection_times": "Mo-Fr 16:30; Sa 09:45", "indoor": "yes", "note": "ON 12/24 AND 12/31, THIS BOX MAY BE COLLECTED AS EARLY AS 12 NOON.", "nsi_id": "unitedstatespostalservice-a77078", "operator": "United States Postal Service", "operator:short": "USPS", "operator:type": "public", "operator:wikidata": "Q668687", "ref": "7924100003"}, "type": "Feature"}
{"geometry": {"coordinates": [-101.441731435, 34.124646603], "type": "Point"}, "id": "2ibABKihbPl0rbAm3Mco_ovjmyw=", "properties": {"@source_uri": "https://tools.usps.com/UspsToolsRestServices/rest/POLocator/findLocations", "@spider": "usps_collection_boxes", "addr:city": "LOCKNEY", "addr:country": "US", "addr:postcode": "79241", "addr:state": "TX", "addr:street_address": "107 N MAIN ST", "amenity": "post_box", "collection_times": "Mo-Fr 16:30", "indoor": "yes", "note": "ON 12/24 AND 12/31, THIS BOX MAY BE COLLECTED AS EARLY AS 12 NOON.", "nsi_id": "unitedstatespostalservice-a77078", "operator": "United States Postal Service", "operator:short": "USPS", "operator:type": "public", "operator:wikidata": "Q668687", "ref": "7924100006"}, "type": "Feature"}
{"geometry": {"coordinates": [-101.0074119, 33.733691], "type": "Point"}, "id": "y5RcKEJNoKtdfxMfWtAJtMPmJEA=", "properties": {"@source_uri": "https://tools.usps.com/UspsToolsRestServices/rest/POLocator/findLocations", "@spider": "usps_collection_boxes", "addr:city": "MCADOO", "addr:country": "US", "addr:postcode": "79243", "addr:state": "TX", "addr:street_address": "104 S MAIN", "amenity": "post_box", "collection_times": "Mo-Fr 14:45; Sa 09:45", "note": "ON 12/24 AND 12/31, THIS BOX MAY BE COLLECTED AS EARLY AS 12 NOON.", "nsi_id": "unitedstatespostalservice-a77078", "operator": "United States Postal Service", "operator:short": "USPS", "operator:type": "public", "operator:wikidata": "Q668687", "ref": "7924300000"}, "type": "Feature"}
{"geometry": {"coordinates": [-101.0074119, 33.733691], "type": "Point"}, "id": "5YQQBdhJkKbIZcSLp25KzXVtpl8=", "properties": {"@source_uri": "https://tools.usps.com/UspsToolsRestServices/rest/POLocator/findLocations", "@spider": "usps_collection_boxes", "addr:city": "MCADOO", "addr:country": "US", "addr:postcode": "79243", "addr:state": "TX", "addr:street_address": "104 S MAIN", "amenity": "post_box", "collection_times": "Mo-Fr 14:45; Sa 09:45", "indoor": "yes", "note": "ON 12/24 AND 12/31, THIS BOX MAY BE COLLECTED AS EARLY AS 12 NOON.", "nsi_id": "unitedstatespostalservice-a77078", "operator": "United States Postal Service", "operator:short": "USPS", "operator:type": "public", "operator:wikidata": "Q668687", "ref": "7924300001"}, "type": "Feature"}
{"geometry": {"coordinates": [-101.0074119, 33.733691], "type": "Point"}, "id": "IFQCFYidWGRiVdTJXwnxb8lTwOg=", "properties": {"@source_uri": "https://tools.usps.com/UspsToolsRestServices/rest/POLocator/findLocations", "@spider": "usps_collection_boxes", "addr:city": "MCADOO", "addr:country": "US", "addr:postcode": "79243", "addr:state": "TX", "addr:street_address": "104 S MAIN", "amenity": "post_box", "collection_times": "Mo-Fr 15:00; Sa 13:00", "indoor": "yes", "note": "ON 12/24 AND 12/31, THIS BOX MAY BE COLLECTED AS EARLY AS 12 NOON.", "nsi_id": "unitedstatespostalservice-a77078", "operator": "United States Postal Service", "operator:short": "USPS", "operator:type": "public", "operator:wikidata": "Q668687", "ref": "7924300002"}, "type": "Feature"}
{"geometry": {"coordinates": [-100.811319, 34.013342], "type": "Point"}, "id": "T5-jy4Ig82OSuDQkqXR1CFxixdY=", "properties": {"@source_uri": "https://tools.usps.com/UspsToolsRestServices/rest/POLocator/findLocations", "@spider": "usps_collection_boxes", "addr:city": "MATADOR", "addr:country": "US", "addr:postcode": "79244", "addr:state": "TX", "addr:street_address": "716 DUNDEE ST", "amenity": "post_box", "collection_times": "Mo-Fr 16:00; Sa 08:45", "indoor": "yes", "note": "ON 12/24 AND 12/31, THIS BOX MAY BE COLLECTED AS EARLY AS 12 NOON.", "nsi_id": "unitedstatespostalservice-a77078", "operator": "United States Postal Service", "operator:short": "USPS", "operator:type": "public", "operator:wikidata": "Q668687", "ref": "7924400001"}, "type": "Feature"}
{"geometry": {"coordinates": [-100.811319, 34.013342], "type": "Point"}, "id": "_1bswHSX0ofPUvNLtnKWffwp2Zw=", "properties": {"@source_uri": "https://tools.usps.com/UspsToolsRestServices/rest/POLocator/findLocations", "@spider": "usps_collection_boxes", "addr:city": "MATADOR", "addr:country": "US", "addr:postcode": "79244", "addr:state": "TX", "addr:street_address": "716 DUNDEE ST", "amenity": "post_box", "collection_times": "Mo-Fr 16:00; Sa 08:45", "note": "ON 12/24 AND 12/31, THIS BOX MAY BE COLLECTED AS EARLY AS 12 NOON.", "nsi_id": "unitedstatespostalservice-a77078", "operator": "United States Postal Service", "operator:short": "USPS", "operator:type": "public", "operator:wikidata": "Q668687", "ref": "7924400002"}, "type": "Feature"}
{"geometry": {"coordinates": [-100.821096441, 34.013271028], "type": "Point"}, "id": "1aekGd5V2Pl8hwPv5OsahVkEVH4=", "properties": {"@source_uri": "https://tools.usps.com/UspsToolsRestServices/rest/POLocator/findLocations", "@spider": "usps_collection_boxes", "addr:city": "MATADOR", "addr:country": "US", "addr:postcode": "79244", "addr:state": "TX", "addr:street_address": "716 DUNDEE ST", "amenity": "post_box", "collection_times": "Mo-Fr 16:00", "indoor": "yes", "note": "ON 12/24 AND 12/31, THIS BOX MAY BE COLLECTED AS EARLY AS 12 NOON.", "nsi_id": "unitedstatespostalservice-a77078", "operator": "United States Postal Service", "operator:short": "USPS", "operator:type": "public", "operator:wikidata": "Q668687", "ref": "7924400003"}, "type": "Feature"}
{"geometry": {"coordinates": [-100.539392, 34.725203], "type": "Point"}, "id": "1juUy_FpMGGQIVKVyYXkA-FqLOk=", "properties": {"@source_uri": "https://tools.usps.com/UspsToolsRestServices/rest/POLocator/findLocations", "@spider": "usps_collection_boxes", "addr:city": "MEMPHIS", "addr:country": "US", "addr:postcode": "79245", "addr:state": "TX", "addr:street_address": "700 W MAIN ST", "amenity": "post_box", "collection_times": "Mo-Fr 16:30; Sa 08:00", "note": "ON 12/24 AND 12/31, THIS BOX MAY BE COLLECTED AS EARLY AS 12 NOON.", "nsi_id": "unitedstatespostalservice-a77078", "operator": "United States Postal Service", "operator:short": "USPS", "operator:type": "public", "operator:wikidata": "Q668687", "ref": "7924500000"}, "type": "Feature"}
{"geometry": {"coordinates": [-100.53947, 34.725231], "type": "Point"}, "id": "upbAtIMQqkygIOyzR_iINDi-T28=", "properties": {"@source_uri": "https://tools.usps.com/UspsToolsRestServices/rest/POLocator/findLocations", "@spider": "usps_collection_boxes", "addr:city": "MEMPHIS", "addr:country": "US", "addr:postcode": "79245", "addr:state": "TX", "addr:street_address": "700 W MAIN ST", "amenity": "post_box", "collection_times": "Mo-Fr 16:30", "indoor": "yes", "note": "ON 12/24 AND 12/31, THIS BOX MAY BE COLLECTED AS EARLY AS 12 NOON.", "nsi_id": "unitedstatespostalservice-a77078", "operator": "United States Postal Service", "operator:short": "USPS", "operator:type": "public", "operator:wikidata": "Q668687", "ref": "7924500004"}, "type": "Feature"}
{"geometry": {"coordinates": [-100.538670526, 34.72521954], "type": "Point"}, "id": "XGgv6yGEGZN-nu74gGw3ytzMXgA=", "properties": {"@source_uri": "https://tools.usps.com/UspsToolsRestServices/rest/POLocator/findLocations", "@spider": "usps_collection_boxes", "addr:city": "MEMPHIS", "addr:country": "US", "addr:postcode": "79245", "addr:state": "TX", "addr:street_address": "700 W MAIN ST", "amenity": "post_box", "collection_times": "Mo-Fr 16:30", "indoor": "yes", "note": "ON 12/24 AND 12/31, THIS BOX MAY BE COLLECTED AS EARLY AS 12 NOON.", "nsi_id": "unitedstatespostalservice-a77078", "operator": "United States Postal Service", "operator:short": "USPS", "operator:type": "public", "operator:wikidata": "Q668687", "ref": "7924500007"}, "type": "Feature"}
{"geometry": {"coordinates": [-100.303127, 34.012272], "type": "Point"}, "id": "uDYstPzI-uNXLqjzKDXzg7ALgDs=", "properties": {"@source_uri": "https://tools.usps.com/UspsToolsRestServices/rest/POLocator/findLocations", "@spider": "usps_collection_boxes", "addr:city": "PADUCAH", "addr:country": "US", "addr:postcode": "79248", "addr:state": "TX", "addr:street_address": "718 10TH ST", "amenity": "post_box", "collection_times": "Mo-Fr 15:30; Sa 08:00", "note": "ON 12/24 AND 12/31, THIS BOX MAY BE COLLECTED AS EARLY AS 12 NOON.", "nsi_id": "unitedstatespostalservice-a77078", "operator": "United States Postal Service", "operator:short": "USPS", "operator:type": "public", "operator:wikidata": "Q668687", "ref": "7924800000"}, "type": "Feature"}
{"geometry": {"coordinates": [-100.303092, 34.012328], "type": "Point"}, "id": "bsnmGxeg1zhoNE33HdVAOrlRhNU=", "properties": {"@source_uri": "https://tools.usps.com/UspsToolsRestServices/rest/POLocator/findLocations", "@spider": "usps_collection_boxes", "addr:city": "PADUCAH", "addr:country": "US", "addr:postcode": "79248", "addr:state": "TX", "addr:street_address": "718 10TH ST", "amenity": "post_box", "collection_times": "Mo-Fr 15:30; Sa 08:00", "indoor": "yes", "note": "ON 12/24 AND 12/31, THIS BOX MAY BE COLLECTED AS EARLY AS 12 NOON.", "nsi_id": "unitedstatespostalservice-a77078", "operator": "United States Postal Service", "operator:short": "USPS", "operator:type": "public", "operator:wikidata": "Q668687", "ref": "7924800001"}, "type": "Feature"}
{"geometry": {"coordinates": [-100.303158436, 34.01524252], "type": "Point"}, "id": "66cQ9Zp97Ds5ySthXKhMhpk8rYw=", "properties": {"@source_uri": "https://tools.usps.com/UspsToolsRestServices/rest/POLocator/findLocations", "@spider": "usps_collection_boxes", "addr:city": "PADUCAH", "addr:country": "US", "addr:postcode": "79248", "addr:state": "TX", "addr:street_address": "718 10TH ST", "amenity": "post_box", "collection_times": "Mo-Fr 15:30", "indoor": "yes", "note": "ON 12/24 AND 12/31, THIS BOX MAY BE COLLECTED AS EARLY AS 12 NOON.", "nsi_id": "unitedstatespostalservice-a77078", "operator": "United States Postal Service", "operator:short": "USPS", "operator:type": "public", "operator:wikidata": "Q668687", "ref": "7924800002"}, "type": "Feature"}
{"geometry": {"coordinates": [-101.596683, 33.871272], "type": "Point"}, "id": "O4juNT6DTzG42ol3QcSgMi9Aetg=", "properties": {"@source_uri": "https://tools.usps.com/UspsToolsRestServices/rest/POLocator/findLocations", "@spider": "usps_collection_boxes", "addr:city": "PETERSBURG", "addr:country": "US", "addr:postcode": "79250", "addr:state": "TX", "addr:street_address": "1501 E 1ST ST", "amenity": "post_box", "collection_times": "Mo-Fr 15:00; Sa 10:30", "note": "ON 12/24 AND 12/31, THIS BOX MAY BE COLLECTED AS EARLY AS 12 NOON.", "nsi_id": "unitedstatespostalservice-a77078", "operator": "United States Postal Service", "operator:short": "USPS", "operator:type": "public", "operator:wikidata": "Q668687", "ref": "7925000000"}, "type": "Feature"}
{"geometry": {"coordinates": [-101.59665, 33.871362], "type": "Point"}, "id": "87yKwRb9ThjoioFMoxEt1uCpQ6M=", "properties": {"@source_uri": "https://tools.usps.com/UspsToolsRestServices/rest/POLocator/findLocations", "@spider": "usps_collection_boxes", "addr:city": "PETERSBURG", "addr:country": "US", "addr:postcode": "79250", "addr:state": "TX", "addr:street_address": "1501 E 1ST ST", "amenity": "post_box", "collection_times": "Mo-Fr 15:00; Sa 10:30", "indoor": "yes", "note": "ON 12/24 AND 12/31, THIS BOX MAY BE COLLECTED AS EARLY AS 12 NOON.", "nsi_id": "unitedstatespostalservice-a77078", "operator": "United States Postal Service", "operator:short": "USPS", "operator:type": "public", "operator:wikidata": "Q668687", "ref": "7925000002"}, "type": "Feature"}
{"geometry": {"coordinates": [-101.59668312, 33.871194], "type": "Point"}, "id": "un8TVlXDfjRJjuizSVVcq4WdZIM=", "properties": {"@source_uri": "https://tools.usps.com/UspsToolsRestServices/rest/POLocator/findLocations", "@spider": "usps_collection_boxes", "addr:city": "PETERSBURG", "addr:country": "US", "addr:postcode": "79250", "addr:state": "TX", "addr:street_address": "1501 E 1ST ST", "amenity": "post_box", "collection_times": "Mo-Fr 16:00", "indoor": "yes", "note": "ON 12/24 AND 12/31, THIS BOX MAY BE COLLECTED AS EARLY AS 12 NOON.", "nsi_id": "unitedstatespostalservice-a77078", "operator": "United States Postal Service", "operator:short": "USPS", "operator:type": "public", "operator:wikidata": "Q668687", "ref": "7925000005"}, "type": "Feature"}
{"geometry": {"coordinates": [-99.74098, 34.297975], "type": "Point"}, "id": "zgDzzQAMP496wkFNnYqNbaSbzOM=", "properties": {"@source_uri": "https://tools.usps.com/UspsToolsRestServices/rest/POLocator/findLocations", "@spider": "usps_collection_boxes", "addr:city": "QUANAH", "addr:country": "US", "addr:postcode": "79252", "addr:state": "TX", "addr:street_address": "219 W 3RD ST", "amenity": "post_box", "collection_times": "Mo-Fr 16:15", "indoor": "yes", "note": "ON 12/24 AND 12/31, THIS BOX MAY BE COLLECTED AS EARLY AS 12 NOON.", "nsi_id": "unitedstatespostalservice-a77078", "operator": "United States Postal Service", "operator:short": "USPS", "operator:type": "public", "operator:wikidata": "Q668687", "ref": "7925200000"}, "type": "Feature"}
{"geometry": {"coordinates": [-99.740906, 34.297988], "type": "Point"}, "id": "0uEYMZU1grSV-Fk6ZOvF9UBzzQU=", "properties": {"@source_uri": "https://tools.usps.com/UspsToolsRestServices/rest/POLocator/findLocations", "@spider": "usps_collection_boxes", "addr:city": "QUANAH", "addr:country": "US", "addr:postcode": "79252", "addr:state": "TX", "addr:street_address": "219 W 3RD ST", "amenity": "post_box", "collection_times": "Mo-Fr 16:15", "indoor": "yes", "note": "ON 12/24 AND 12/31, THIS BOX MAY BE COLLECTED AS EARLY AS 12 NOON.", "nsi_id": "unitedstatespostalservice-a77078", "operator": "United States Postal Service", "operator:short": "USPS", "operator:type": "public", "operator:wikidata": "Q668687", "ref": "7925200003"}, "type": "Feature"}
{"geometry": {"coordinates": [-99.741793, 34.298068], "type": "Point"}, "id": "nXf04m0hQKWR0iugDsjol-x1Yzw=", "properties": {"@source_uri": "https://tools.usps.com/UspsToolsRestServices/rest/POLocator/findLocations", "@spider": "usps_collection_boxes", "addr:city": "QUANAH", "addr:country": "US", "addr:postcode": "79252", "addr:state": "TX", "addr:street_address": "300 GREEN ST", "amenity": "post_box", "collection_times": "Mo-Fr 16:15; Sa 08:00", "note": "ON 12/24 AND 12/31, THIS BOX MAY BE COLLECTED AS EARLY AS 12 NOON.", "nsi_id": "unitedstatespostalservice-a77078", "operator": "United States Postal Service", "operator:short": "USPS", "operator:type": "public", "operator:wikidata": "Q668687", "ref": "7925200007"}, "type": "Feature"}
{"geometry": {"coordinates": [-99.74096504, 34.297923731], "type": "Point"}, "id": "pwY_BZr09s71LrmV3D6mYLzM8cY=", "properties": {"@source_uri": "https://tools.usps.com/UspsToolsRestServices/rest/POLocator/findLocations", "@spider": "usps_collection_boxes", "addr:city": "QUANAH", "addr:country": "US", "addr:postcode": "79252", "addr:state": "TX", "addr:street_address": "219 W 3RD ST", "amenity": "post_box", "collection_times": "Mo-Fr 16:00", "indoor": "yes", "note": "ON 12/24 AND 12/31, THIS BOX MAY BE COLLECTED AS EARLY AS 12 NOON.", "nsi_id": "unitedstatespostalservice-a77078", "operator": "United States Postal Service", "operator:short": "USPS", "operator:type": "public", "operator:wikidata": "Q668687", "ref": "7925200010"}, "type": "Feature"}
{"geometry": {"coordinates": [-101.057586, 34.366133], "type": "Point"}, "id": "Lhbp-LwU0i2ODtwfLImmMIA6MoQ=", "properties": {"@source_uri": "https://tools.usps.com/UspsToolsRestServices/rest/POLocator/findLocations", "@spider": "usps_collection_boxes", "addr:city": "QUITAQUE", "addr:country": "US", "addr:postcode": "79255", "addr:state": "TX", "addr:street_address": "115 MAIN ST", "amenity": "post_box", "collection_times": "Mo-Fr 15:30; Sa 08:00", "note": "ON 12/24 AND 12/31, THIS BOX MAY BE COLLECTED AS EARLY AS 12 NOON.", "nsi_id": "unitedstatespostalservice-a77078", "operator": "United States Postal Service", "operator:short": "USPS", "operator:type": "public", "operator:wikidata": "Q668687", "ref": "7925500000"}, "type": "Feature"}
{"geometry": {"coordinates": [-101.057586, 34.366133], "type": "Point"}, "id": "kRui2iRNBMGLbLqRB9uKq0ObUbo=", "properties": {"@source_uri": "https://tools.usps.com/UspsToolsRestServices/rest/POLocator/findLocations", "@spider": "usps_collection_boxes", "addr:city": "QUITAQUE", "addr:country": "US", "addr:postcode": "79255", "addr:state": "TX", "addr:street_address": "115 MAIN ST", "amenity": "post_box", "collection_times": "Mo-Fr 15:30; Sa 08:00", "indoor": "yes", "note": "ON 12/24 AND 12/31, THIS BOX MAY BE COLLECTED AS EARLY AS 12 NOON.", "nsi_id": "unitedstatespostalservice-a77078", "operator": "United States Postal Service", "operator:short": "USPS", "operator:type": "public", "operator:wikidata": "Q668687", "ref": "7925500001"}, "type": "Feature"}
{"geometry": {"coordinates": [-101.057192665, 34.366094532], "type": "Point"}, "id": "RosOKMbTAkF26bGstH-StBaKfog=", "properties": {"@source_uri": "https://tools.usps.com/UspsToolsRestServices/rest/POLocator/findLocations", "@spider": "usps_collection_boxes", "addr:city": "QUITAQUE", "addr:country": "US", "addr:postcode": "79255", "addr:state": "TX", "addr:street_address": "115 MAIN ST", "amenity": "post_box", "collection_times": "Mo-Fr 16:00", "indoor": "yes", "note": "ON 12/24 AND 12/31, THIS BOX MAY BE COLLECTED AS EARLY AS 12 NOON.", "nsi_id": "unitedstatespostalservice-a77078", "operator": "United States Postal Service", "operator:short": "USPS", "operator:type": "public", "operator:wikidata": "Q668687", "ref": "7925500003"}, "type": "Feature"}
{"geometry": {"coordinates": [-100.857625, 33.898617], "type": "Point"}, "id": "jCuMg1Pj0nCj-XrPF-31CGlBWh0=", "properties": {"@source_uri": "https://tools.usps.com/UspsToolsRestServices/rest/POLocator/findLocations", "@spider": "usps_collection_boxes", "addr:city": "ROARING SPRINGS", "addr:country": "US", "addr:postcode": "79256", "addr:state": "TX", "addr:street_address": "403 2ND ST", "amenity": "post_box", "collection_times": "Mo-Fr 16:00; Sa 08:45", "note": "ON 12/24 AND 12/31, THIS BOX MAY BE COLLECTED AS EARLY AS 12 NOON.", "nsi_id": "unitedstatespostalservice-a77078", "operator": "United States Postal Service", "operator:short": "USPS", "operator:type": "public", "operator:wikidata": "Q668687", "ref": "7925600000"}, "type": "Feature"}
{"geometry": {"coordinates": [-100.857628, 33.898557], "type": "Point"}, "id": "gcmdbZmLKy05tZhfp0S6WZNIxmk=", "properties": {"@source_uri": "https://tools.usps.com/UspsToolsRestServices/rest/POLocator/findLocations", "@spider": "usps_collection_boxes", "addr:city": "ROARING SPRINGS", "addr:country": "US", "addr:postcode": "79256", "addr:state": "TX", "addr:street_address": "403 2ND ST", "amenity": "post_box", "collection_times": "Mo-Fr 16:00; Sa 08:45", "indoor": "yes", "note": "ON 12/24 AND 12/31, THIS BOX MAY BE COLLECTED AS EARLY AS 12 NOON.", "nsi_id": "unitedstatespostalservice-a77078", "operator": "United States Postal Service", "operator:short": "USPS", "operator:type": "public", "operator:wikidata": "Q668687", "ref": "7925600003"}, "type": "Feature"}
{"geometry": {"coordinates": [-100.857878509, 33.898636677], "type": "Point"}, "id": "b6fcspyoOFwiHhAUJ5UkGg_36q0=", "properties": {"@source_uri": "https://tools.usps.com/UspsToolsRestServices/rest/POLocator/findLocations", "@spider": "usps_collection_boxes", "addr:city": "ROARING SPRINGS", "addr:country": "US", "addr:postcode": "79256", "addr:state": "TX", "addr:street_address": "403 2ND ST", "amenity": "post_box", "collection_times": "Mo-Fr 16:15; Sa 09:00", "indoor": "yes", "note": "ON 12/24 AND 12/31, THIS BOX MAY BE COLLECTED AS EARLY AS 12 NOON.", "nsi_id": "unitedstatespostalservice-a77078", "operator": "United States Postal Service", "operator:short": "USPS", "operator:type": "public", "operator:wikidata": "Q668687", "ref": "7925600005"}, "type": "Feature"}
{"geometry": {"coordinates": [-101.301299, 34.474166], "type": "Point"}, "id": "zG0A_8JP57tHmMTmOEXTI3ZGsd0=", "properties": {"@source_uri": "https://tools.usps.com/UspsToolsRestServices/rest/POLocator/findLocations", "@spider": "usps_collection_boxes", "addr:city": "SILVERTON", "addr:country": "US", "addr:postcode": "79257", "addr:state": "TX", "addr:street_address": "401 LONE STAR ST", "amenity": "post_box", "collection_times": "Mo-Fr 15:45; Sa 08:45", "note": "ON 12/24 AND 12/31, THIS BOX MAY BE COLLECTED AS EARLY AS 12 NOON.", "nsi_id": "unitedstatespostalservice-a77078", "operator": "United States Postal Service", "operator:short": "USPS", "operator:type": "public", "operator:wikidata": "Q668687", "ref": "7925700000"}, "type": "Feature"}
{"geometry": {"coordinates": [-101.30119, 34.474194], "type": "Point"}, "id": "m-rQp22z5C_eh4ewdXtBlBDnZW0=", "properties": {"@source_uri": "https://tools.usps.com/UspsToolsRestServices/rest/POLocator/findLocations", "@spider": "usps_collection_boxes", "addr:city": "SILVERTON", "addr:country": "US", "addr:postcode": "79257", "addr:state": "TX", "addr:street_address": "401 LONE STAR ST", "amenity": "post_box", "collection_times": "Mo-Fr 15:45; Sa 08:45", "indoor": "yes", "note": "ON 12/24 AND 12/31, THIS BOX MAY BE COLLECTED AS EARLY AS 12 NOON.", "nsi_id": "unitedstatespostalservice-a77078", "operator": "United States Postal Service", "operator:short": "USPS", "operator:type": "public", "operator:wikidata": "Q668687", "ref": "7925700001"}, "type": "Feature"}
{"geometry": {"coordinates": [-101.301659832, 34.474151517], "type": "Point"}, "id": "Y2vcvFecPCet0VqP3NY39GQ9Aho=", "properties": {"@source_uri": "https://tools.usps.com/UspsToolsRestServices/rest/POLocator/findLocations", "@spider": "usps_collection_boxes", "addr:city": "SILVERTON", "addr:country": "US", "addr:postcode": "79257", "addr:state": "TX", "addr:street_address": "401 LONE STAR ST", "amenity": "post_box", "collection_times": "Mo-Fr 15:45", "indoor": "yes", "note": "ON 12/24 AND 12/31, THIS BOX MAY BE COLLECTED AS EARLY AS 12 NOON.", "nsi_id": "unitedstatespostalservice-a77078", "operator": "United States Postal Service", "operator:short": "USPS", "operator:type": "public", "operator:wikidata": "Q668687", "ref": "7925700003"}, "type": "Feature"}
{"geometry": {"coordinates": [-101.310385, 34.227537], "type": "Point"}, "id": "_OlfZ3oVyye1ERkeWjOmqdSU5k0=", "properties": {"@source_uri": "https://tools.usps.com/UspsToolsRestServices/rest/POLocator/findLocations", "@spider": "usps_collection_boxes", "addr:city": "SOUTH PLAINS", "addr:country": "US", "addr:postcode": "79258", "addr:state": "TX", "addr:street_address": "323 MAIN ST", "amenity": "post_box", "collection_times": "Mo-Fr 11:45; Sa 10:15", "nsi_id": "unitedstatespostalservice-a77078", "operator": "United States Postal Service", "operator:short": "USPS", "operator:type": "public", "operator:wikidata": "Q668687", "ref": "7925800000"}, "type": "Feature"}
{"geometry": {"coordinates": [-101.3103390729, 34.2276820156], "type": "Point"}, "id": "wKqpLBbGf1jaOyVE8B1z0Owi70U=", "properties": {"@source_uri": "https://tools.usps.com/UspsToolsRestServices/rest/POLocator/findLocations", "@spider": "usps_collection_boxes", "addr:city": "SOUTH PLAINS", "addr:country": "US", "addr:postcode": "79258", "addr:state": "TX", "addr:street_address": "100 N HIGHWAY 207", "amenity": "post_box", "collection_times": "Mo-Fr 11:45; Sa 10:15", "indoor": "yes", "nsi_id": "unitedstatespostalservice-a77078", "operator": "United States Postal Service", "operator:short": "USPS", "operator:type": "public", "operator:wikidata": "Q668687", "ref": "7925800001"}, "type": "Feature"}
{"geometry": {"coordinates": [-101.310328669, 34.227523559], "type": "Point"}, "id": "oNix5yavaJbxvg9rgyHv0Io2Zw4=", "properties": {"@source_uri": "https://tools.usps.com/UspsToolsRestServices/rest/POLocator/findLocations", "@spider": "usps_collection_boxes", "addr:city": "SOUTH PLAINS", "addr:country": "US", "addr:postcode": "79258", "addr:state": "TX", "addr:street_address": "323 MAIN ST", "amenity": "post_box", "collection_times": "Mo-Fr 11:45; Sa 10:15", "indoor": "yes", "nsi_id": "unitedstatespostalservice-a77078", "operator": "United States Postal Service", "operator:short": "USPS", "operator:type": "public", "operator:wikidata": "Q668687", "ref": "7925800003"}, "type": "Feature"}
{"geometry": {"coordinates": [-100.397239, 34.333003], "type": "Point"}, "id": "xoqxZ9NiArCzCLr8MG0K7h8RgXE=", "properties": {"@source_uri": "https://tools.usps.com/UspsToolsRestServices/rest/POLocator/findLocations", "@spider": "usps_collection_boxes", "addr:city": "TELL", "addr:country": "US", "addr:postcode": "79259", "addr:state": "TX", "addr:street_address": "14900 FM 2042", "amenity": "post_box", "collection_times": "Mo-Sa 09:45", "nsi_id": "unitedstatespostalservice-a77078", "operator": "United States Postal Service", "operator:short": "USPS", "operator:type": "public", "operator:wikidata": "Q668687", "ref": "7925900000"}, "type": "Feature"}
{"geometry": {"coordinates": [-100.397239, 34.333003], "type": "Point"}, "id": "xIsGwKfCm0r-6pf_nHl8pHUUlBE=", "properties": {"@source_uri": "https://tools.usps.com/UspsToolsRestServices/rest/POLocator/findLocations", "@spider": "usps_collection_boxes", "addr:city": "TELL", "addr:country": "US", "addr:postcode": "79259", "addr:state": "TX", "addr:street_address": "14900 FM 2042", "amenity": "post_box", "collection_times": "Mo-Sa 09:45", "indoor": "yes", "nsi_id": "unitedstatespostalservice-a77078", "operator": "United States Postal Service", "operator:short": "USPS", "operator:type": "public", "operator:wikidata": "Q668687", "ref": "7925900001"}, "type": "Feature"}
{"geometry": {"coordinates": [-100.394966667, 34.377039639], "type": "Point"}, "id": "FehRPg1aj81LTqVGpwlvsDriwP4=", "properties": {"@source_uri": "https://tools.usps.com/UspsToolsRestServices/rest/POLocator/findLocations", "@spider": "usps_collection_boxes", "addr:city": "TELL", "addr:country": "US", "addr:postcode": "79259", "addr:state": "TX", "addr:street_address": "14900 FM 2042", "amenity": "post_box", "collection_times": "Mo-Sa 10:00", "indoor": "yes", "nsi_id": "unitedstatespostalservice-a77078", "operator": "United States Postal Service", "operator:short": "USPS", "operator:type": "public", "operator:wikidata": "Q668687", "ref": "7925900002"}, "type": "Feature"}
{"geometry": {"coordinates": [-100.90149, 34.392742], "type": "Point"}, "id": "84ETWd93Y-r88lu0lNRcBs-1z70=", "properties": {"@source_uri": "https://tools.usps.com/UspsToolsRestServices/rest/POLocator/findLocations", "@spider": "usps_collection_boxes", "addr:city": "TURKEY", "addr:country": "US", "addr:postcode": "79261", "addr:state": "TX", "addr:street_address": "505 MAIN ST", "amenity": "post_box", "collection_times": "Mo-Fr 16:15; Sa 09:30", "note": "ON 12/24 AND 12/31, THIS BOX MAY BE COLLECTED AS EARLY AS 12 NOON.", "nsi_id": "unitedstatespostalservice-a77078", "operator": "United States Postal Service", "operator:short": "USPS", "operator:type": "public", "operator:wikidata": "Q668687", "ref": "7926100000"}, "type": "Feature"}
{"geometry": {"coordinates": [-100.90149, 34.392742], "type": "Point"}, "id": "0xVVZAnxAcsWx0qZVTPBlFv40NA=", "properties": {"@source_uri": "https://tools.usps.com/UspsToolsRestServices/rest/POLocator/findLocations", "@spider": "usps_collection_boxes", "addr:city": "TURKEY", "addr:country": "US", "addr:postcode": "79261", "addr:state": "TX", "addr:street_address": "505 MAIN ST", "amenity": "post_box", "collection_times": "Mo-Fr 16:15; Sa 09:30", "indoor": "yes", "note": "ON 12/24 AND 12/31, THIS BOX MAY BE COLLECTED AS EARLY AS 12 NOON.", "nsi_id": "unitedstatespostalservice-a77078", "operator": "United States Postal Service", "operator:short": "USPS", "operator:type": "public", "operator:wikidata": "Q668687", "ref": "7926100001"}, "type": "Feature"}
{"geometry": {"coordinates": [-100.895229384, 34.392903282], "type": "Point"}, "id": "DQEIsLdKxAgz-i6rmCpTPcBT7zM=", "properties": {"@source_uri": "https://tools.usps.com/UspsToolsRestServices/rest/POLocator/findLocations", "@spider": "usps_collection_boxes", "addr:city": "TURKEY", "addr:country": "US", "addr:postcode": "79261", "addr:state": "TX", "addr:street_address": "505 MAIN ST", "amenity": "post_box", "collection_times": "Mo-Fr 16:15", "indoor": "yes", "note": "ON 12/24 AND 12/31, THIS BOX MAY BE COLLECTED AS EARLY AS 12 NOON.", "nsi_id": "unitedstatespostalservice-a77078", "operator": "United States Postal Service", "operator:short": "USPS", "operator:type": "public", "operator:wikidata": "Q668687", "ref": "7926100003"}, "type": "Feature"}
