{"dataset_attributes": {"@spider": "usps_collection_boxes", "spider:collection_time": "2024-01-04T08:25:05.301423"}, "geometry": {"coordinates": [-101.843122, 33.831884], "type": "Point"}, "id": "jv2GdjXYjuJvcpPJomUkRs8OQ9c=", "properties": {"@spider": "usps_collection_boxes", "addr:city": "ABERNATHY", "addr:country": "US", "addr:full": "801 AVENUE D", "addr:postcode": "79311", "addr:state": "TX", "amenity": "post_box", "brand": "United States Postal Service", "brand:wikidata": "Q668687", "collection_times": "Mo-Fr 16:00; Sa 13:30", "name": "USPS COLLECTION BOX - BLUE BOX", "note": "ON 12/24 AND 12/31, THIS BOX MAY BE COLLECTED AS EARLY AS 12 NOON.", "nsi_id": "unitedstatespostalservice-a77078", "operator": "United States Postal Service", "operator:short": "USPS", "operator:type": "public", "operator:wikidata": "Q668687", "ref": "7931100001"}, "type": "Feature"}
{"dataset_attributes": {"@spider": "usps_collection_boxes", "spider:collection_time": "2024-01-04T08:25:05.301423"}, "geometry": {"coordinates": [-101.843087, 33.831794], "type": "Point"}, "id": "4ylguB2pXoFnfZ8YpeceUScFcJY=", "properties": {"@spider": "usps_collection_boxes", "addr:city": "ABERNATHY", "addr:country": "US", "addr:full": "801 AVENUE D", "addr:postcode": "79311", "addr:state": "TX", "amenity": "post_box", "brand": "United States Postal Service", "brand:wikidata": "Q668687", "collection_times": "Mo-Fr 16:00; Sa 13:30", "name": "USPS COLLECTION BOX - PO LOBBY", "note": "ON 12/24 AND 12/31, THIS BOX MAY BE COLLECTED AS EARLY AS 12 NOON.", "nsi_id": "unitedstatespostalservice-a77078", "operator": "United States Postal Service", "operator:short": "USPS", "operator:type": "public", "operator:wikidata": "Q668687", "ref": "7931100002"}, "type": "Feature"}
{"dataset_attributes": {"@spider": "usps_collection_boxes", "spider:collection_time": "2024-01-04T08:25:05.301423"}, "geometry": {"coordinates": [-101.843087, 33.831794], "type": "Point"}, "id": "WuuhW5fzFJ9dNkXWvvlwvdH0CP4=", "properties": {"@spider": "usps_collection_boxes", "addr:city": "ABERNATHY", "addr:country": "US", "addr:full": "801 AVENUE D", "addr:postcode": "79311", "addr:state": "TX", "amenity": "post_box", "brand": "United States Postal Service", "brand:wikidata": "Q668687", "collection_times": "Mo-Fr 16:00; Sa 13:30", "name": "USPS COLLECTION BOX - PO LOBBY", "note": "ON 12/24 AND 12/31, THIS BOX MAY BE COLLECTED AS EARLY AS 12 NOON.", "nsi_id": "unitedstatespostalservice-a77078", "operator": "United States Postal Service", "operator:short": "USPS", "operator:type": "public", "operator:wikidata": "Q668687", "ref": "7931100003"}, "type": "Feature"}
{"dataset_attributes": {"@spider": "usps_collection_boxes", "spider:collection_time": "2024-01-04T08:25:05.301423"}, "geometry": {"coordinates": [-101.843149495, 33.831911368], "type": "Point"}, "id": "Y5mkNYzTZ4oO6-_US4qbGnmoP_U=", "properties": {"@spider": "usps_collection_boxes", "addr:city": "ABERNATHY", "addr:country": "US", "addr:full": "801 AVENUE D", "addr:postcode": "79311", "addr:state": "TX", "amenity": "post_box", "brand": "United States Postal Service", "brand:wikidata": "Q668687", "collection_times": "Mo-Fr 16:00", "name": "USPS COLLECTION BOX - PO LOBBY", "note": "ON 12/24 AND 12/31, THIS BOX MAY BE COLLECTED AS EARLY AS 12 NOON.", "nsi_id": "unitedstatespostalservice-a77078", "operator": "United States Postal Service", "operator:short": "USPS", "operator:type": "public", "operator:wikidata": "Q668687", "ref": "7931100004"}, "type": "Feature"}
{"dataset_attributes": {"@spider": "usps_collection_boxes", "spider:collection_time": "2024-01-04T08:25:05.301423"}, "geometry": {"coordinates": [-102.415406, 34.010253], "type": "Point"}, "id": "N08uYTtODEWkzoS2LF2NawcTju4=", "properties": {"@spider": "usps_collection_boxes", "addr:city": "AMHERST", "addr:country": "US", "addr:full": "815 MAIN ST", "addr:postcode": "79312", "addr:state": "TX", "amenity": "post_box", "brand": "United States Postal Service", "brand:wikidata": "Q668687", "collection_times": "Mo-Fr 16:00; Sa 09:00", "name": "USPS COLLECTION BOX - BLUE BOX", "note": "ON 12/24 AND 12/31, THIS BOX MAY BE COLLECTED AS EARLY AS 12 NOON.", "nsi_id": "unitedstatespostalservice-a77078", "operator": "United States Postal Service", "operator:short": "USPS", "operator:type": "public", "operator:wikidata": "Q668687", "ref": "7931200000"}, "type": "Feature"}
{"dataset_attributes": {"@spider": "usps_collection_boxes", "spider:collection_time": "2024-01-04T08:25:05.301423"}, "geometry": {"coordinates": [-102.415231, 34.010082], "type": "Point"}, "id": "kt-tHhpkjiXOwG2uLTBakQ1kZb0=", "properties": {"@spider": "usps_collection_boxes", "addr:city": "AMHERST", "addr:country": "US", "addr:full": "815 MAIN ST", "addr:postcode": "79312", "addr:state": "TX", "amenity": "post_box", "brand": "United States Postal Service", "brand:wikidata": "Q668687", "collection_times": "Mo-Fr 16:00; Sa 09:00", "name": "USPS COLLECTION BOX - PO LOBBY", "note": "ON 12/24 AND 12/31, THIS BOX MAY BE COLLECTED AS EARLY AS 12 NOON.", "nsi_id": "unitedstatespostalservice-a77078", "operator": "United States Postal Service", "operator:short": "USPS", "operator:type": "public", "operator:wikidata": "Q668687", "ref": "7931200002"}, "type": "Feature"}
{"dataset_attributes": {"@spider": "usps_collection_boxes", "spider:collection_time": "2024-01-04T08:25:05.301423"}, "geometry": {"coordinates": [-102.415580415, 34.010216876], "type": "Point"}, "id": "F3U2pX-0c4MuyOXNo1SkuAbFEzQ=", "properties": {"@spider": "usps_collection_boxes", "addr:city": "AMHERST", "addr:country": "US", "addr:full": "815 MAIN ST", "addr:postcode": "79312", "addr:state": "TX", "amenity": "post_box", "brand": "United States Postal Service", "brand:wikidata": "Q668687", "collection_times": "Mo-Fr 16:00", "name": "USPS COLLECTION BOX - PO LOBBY", "note": "ON 12/24 AND 12/31, THIS BOX MAY BE COLLECTED AS EARLY AS 12 NOON.", "nsi_id": "unitedstatespostalservice-a77078", "operator": "United States Postal Service", "operator:short": "USPS", "operator:type": "public", "operator:wikidata": "Q668687", "ref": "7931200003"}, "type": "Feature"}
{"dataset_attributes": {"@spider": "usps_collection_boxes", "spider:collection_time": "2024-01-04T08:25:05.301423"}, "geometry": {"coordinates": [-102.16455042, 33.810547494], "type": "Point"}, "id": "0H5J0pjGacpmQi7sZRC43-qqNoA=", "properties": {"@spider": "usps_collection_boxes", "addr:city": "ANTON", "addr:country": "US", "addr:full": "306 LAWRENCE ST", "addr:postcode": "79313", "addr:state": "TX", "amenity": "post_box", "brand": "United States Postal Service", "brand:wikidata": "Q668687", "collection_times": "Mo-Fr 14:45; Sa 09:00", "name": "USPS COLLECTION BOX - BLUE BOX", "note": "ON 12/24 AND 12/31, THIS BOX MAY BE COLLECTED AS EARLY AS 12 NOON.", "nsi_id": "unitedstatespostalservice-a77078", "operator": "United States Postal Service", "operator:short": "USPS", "operator:type": "public", "operator:wikidata": "Q668687", "ref": "7931300000"}, "type": "Feature"}
{"dataset_attributes": {"@spider": "usps_collection_boxes", "spider:collection_time": "2024-01-04T08:25:05.301423"}, "geometry": {"coordinates": [-102.164236, 33.810678], "type": "Point"}, "id": "g0sE6pYo40PdOS-qGw6cxxjuJ-o=", "properties": {"@spider": "usps_collection_boxes", "addr:city": "ANTON", "addr:country": "US", "addr:full": "306 LAWRENCE ST", "addr:postcode": "79313", "addr:state": "TX", "amenity": "post_box", "brand": "United States Postal Service", "brand:wikidata": "Q668687", "collection_times": "Mo-Fr 14:45; Sa 09:00", "name": "USPS COLLECTION BOX - PO LOBBY", "note": "ON 12/24 AND 12/31, THIS BOX MAY BE COLLECTED AS EARLY AS 12 NOON.", "nsi_id": "unitedstatespostalservice-a77078", "operator": "United States Postal Service", "operator:short": "USPS", "operator:type": "public", "operator:wikidata": "Q668687", "ref": "7931300002"}, "type": "Feature"}
{"dataset_attributes": {"@spider": "usps_collection_boxes", "spider:collection_time": "2024-01-04T08:25:05.301423"}, "geometry": {"coordinates": [-102.16455042, 33.810547494], "type": "Point"}, "id": "IJX0bcVlVMaAXlKNHLeAypXJ97Q=", "properties": {"@spider": "usps_collection_boxes", "addr:city": "ANTON", "addr:country": "US", "addr:full": "306 LAWRENCE ST", "addr:postcode": "79313", "addr:state": "TX", "amenity": "post_box", "brand": "United States Postal Service", "brand:wikidata": "Q668687", "collection_times": "Mo-Fr 15:00", "name": "USPS COLLECTION BOX - PO LOBBY", "note": "ON 12/24 AND 12/31, THIS BOX MAY BE COLLECTED AS EARLY AS 12 NOON.", "nsi_id": "unitedstatespostalservice-a77078", "operator": "United States Postal Service", "operator:short": "USPS", "operator:type": "public", "operator:wikidata": "Q668687", "ref": "7931300004"}, "type": "Feature"}
{"dataset_attributes": {"@spider": "usps_collection_boxes", "spider:collection_time": "2024-01-04T08:25:05.301423"}, "geometry": {"coordinates": [-103.025298, 33.617384], "type": "Point"}, "id": "8vj1Cnqg6lHV-yxvec62qnI_pCY=", "properties": {"@spider": "usps_collection_boxes", "addr:city": "BLEDSOE", "addr:country": "US", "addr:full": "512 4TH ST", "addr:postcode": "79314", "addr:state": "TX", "amenity": "post_box", "brand": "United States Postal Service", "brand:wikidata": "Q668687", "collection_times": "Mo-Sa 10:00", "name": "USPS COLLECTION BOX - BLUE BOX", "nsi_id": "unitedstatespostalservice-a77078", "operator": "United States Postal Service", "operator:short": "USPS", "operator:type": "public", "operator:wikidata": "Q668687", "ref": "7931400000"}, "type": "Feature"}
{"dataset_attributes": {"@spider": "usps_collection_boxes", "spider:collection_time": "2024-01-04T08:25:05.301423"}, "geometry": {"coordinates": [-103.025298, 33.617384], "type": "Point"}, "id": "PaqEgJeQsnbhDD9mmdkqMo8o2sw=", "properties": {"@spider": "usps_collection_boxes", "addr:city": "BLEDSOE", "addr:country": "US", "addr:full": "512 4TH ST", "addr:postcode": "79314", "addr:state": "TX", "amenity": "post_box", "brand": "United States Postal Service", "brand:wikidata": "Q668687", "collection_times": "Mo-Sa 10:00", "name": "USPS COLLECTION BOX - PO LOBBY", "nsi_id": "unitedstatespostalservice-a77078", "operator": "United States Postal Service", "operator:short": "USPS", "operator:type": "public", "operator:wikidata": "Q668687", "ref": "7931400001"}, "type": "Feature"}
{"dataset_attributes": {"@spider": "usps_collection_boxes", "spider:collection_time": "2024-01-04T08:25:05.301423"}, "geometry": {"coordinates": [-103.018766865, 33.617260875], "type": "Point"}, "id": "esGbsKZgBgalVkeUqlTN8EYgYzc=", "properties": {"@spider": "usps_collection_boxes", "addr:city": "BLEDSOE", "addr:country": "US", "addr:full": "512 4TH ST", "addr:postcode": "79314", "addr:state": "TX", "amenity": "post_box", "brand": "United States Postal Service", "brand:wikidata": "Q668687", "collection_times": "Mo-Sa 11:00", "name": "USPS COLLECTION BOX - PO LOBBY", "nsi_id": "unitedstatespostalservice-a77078", "operator": "United States Postal Service", "operator:short": "USPS", "operator:type": "public", "operator:wikidata": "Q668687", "ref": "7931400002"}, "type": "Feature"}
{"dataset_attributes": {"@spider": "usps_collection_boxes", "spider:collection_time": "2024-01-04T08:25:05.301423"}, "geometry": {"coordinates": [-102.277587, 33.180306], "type": "Point"}, "id": "egfwpnr2SN2mXIWYszq__Yka1zY=", "properties": {"@spider": "usps_collection_boxes", "addr:city": "BROWNFIELD", "addr:country": "US", "addr:full": "301 W HILL ST", "addr:postcode": "79316", "addr:state": "TX", "amenity": "post_box", "brand": "United States Postal Service", "brand:wikidata": "Q668687", "collection_times": "Mo-Fr 16:30; Sa 14:30", "name": "USPS COLLECTION BOX - BLUE BOX", "note": "ON 12/24 AND 12/31, THIS BOX MAY BE COLLECTED AS EARLY AS 12 NOON.", "nsi_id": "unitedstatespostalservice-a77078", "operator": "United States Postal Service", "operator:short": "USPS", "operator:type": "public", "operator:wikidata": "Q668687", "ref": "7931600000"}, "type": "Feature"}
{"dataset_attributes": {"@spider": "usps_collection_boxes", "spider:collection_time": "2024-01-04T08:25:05.301423"}, "geometry": {"coordinates": [-102.277479, 33.180281], "type": "Point"}, "id": "cDUhjq9-hX4FkKdhx7LSTle7qwg=", "properties": {"@spider": "usps_collection_boxes", "addr:city": "BROWNFIELD", "addr:country": "US", "addr:full": "301 W HILL ST", "addr:postcode": "79316", "addr:state": "TX", "amenity": "post_box", "brand": "United States Postal Service", "brand:wikidata": "Q668687", "collection_times": "Mo-Fr 16:30; Sa 14:30", "name": "USPS COLLECTION BOX - BLUE BOX", "note": "ON 12/24 AND 12/31, THIS BOX MAY BE COLLECTED AS EARLY AS 12 NOON.", "nsi_id": "unitedstatespostalservice-a77078", "operator": "United States Postal Service", "operator:short": "USPS", "operator:type": "public", "operator:wikidata": "Q668687", "ref": "7931600001"}, "type": "Feature"}
{"dataset_attributes": {"@spider": "usps_collection_boxes", "spider:collection_time": "2024-01-04T08:25:05.301423"}, "geometry": {"coordinates": [-102.277479, 33.180281], "type": "Point"}, "id": "BzTSgs9ZcyjVRpBEK_HDkwohJS0=", "properties": {"@spider": "usps_collection_boxes", "addr:city": "BROWNFIELD", "addr:country": "US", "addr:full": "301 W HILL ST", "addr:postcode": "79316", "addr:state": "TX", "amenity": "post_box", "brand": "United States Postal Service", "brand:wikidata": "Q668687", "collection_times": "Mo-Fr 16:30; Sa 14:30", "name": "USPS COLLECTION BOX - PO LOBBY", "note": "ON 12/24 AND 12/31, THIS BOX MAY BE COLLECTED AS EARLY AS 12 NOON.", "nsi_id": "unitedstatespostalservice-a77078", "operator": "United States Postal Service", "operator:short": "USPS", "operator:type": "public", "operator:wikidata": "Q668687", "ref": "7931600003"}, "type": "Feature"}
{"dataset_attributes": {"@spider": "usps_collection_boxes", "spider:collection_time": "2024-01-04T08:25:05.301423"}, "geometry": {"coordinates": [-102.277479, 33.180281], "type": "Point"}, "id": "2DOe2_VNH558v7XGexb9r61uCoQ=", "properties": {"@spider": "usps_collection_boxes", "addr:city": "BROWNFIELD", "addr:country": "US", "addr:full": "301 W HILL ST", "addr:postcode": "79316", "addr:state": "TX", "amenity": "post_box", "brand": "United States Postal Service", "brand:wikidata": "Q668687", "collection_times": "Mo-Fr 16:30; Sa 14:30", "name": "USPS COLLECTION BOX - PO LOBBY", "note": "ON 12/24 AND 12/31, THIS BOX MAY BE COLLECTED AS EARLY AS 12 NOON.", "nsi_id": "unitedstatespostalservice-a77078", "operator": "United States Postal Service", "operator:short": "USPS", "operator:type": "public", "operator:wikidata": "Q668687", "ref": "7931600004"}, "type": "Feature"}
{"dataset_attributes": {"@spider": "usps_collection_boxes", "spider:collection_time": "2024-01-04T08:25:05.301423"}, "geometry": {"coordinates": [-102.256353, 33.181202], "type": "Point"}, "id": "2UjTJLy4lMdlpmSyf7k2r6aFic4=", "properties": {"@spider": "usps_collection_boxes", "addr:city": "BROWNFIELD", "addr:country": "US", "addr:full": "1401 TAHOKA RD", "addr:postcode": "79316", "addr:state": "TX", "amenity": "post_box", "brand": "United States Postal Service", "brand:wikidata": "Q668687", "collection_times": "Mo-Sa 09:30", "name": "USPS COLLECTION BOX - BLUE BOX", "nsi_id": "unitedstatespostalservice-a77078", "operator": "United States Postal Service", "operator:short": "USPS", "operator:type": "public", "operator:wikidata": "Q668687", "ref": "7931600010"}, "type": "Feature"}
{"dataset_attributes": {"@spider": "usps_collection_boxes", "spider:collection_time": "2024-01-04T08:25:05.301423"}, "geometry": {"coordinates": [-102.277479, 33.180281], "type": "Point"}, "id": "DlKAHmJtCMpdLAYOPU_Lbaq-hRg=", "properties": {"@spider": "usps_collection_boxes", "addr:city": "BROWNFIELD", "addr:country": "US", "addr:full": "301 W HILL ST", "addr:postcode": "79316", "addr:state": "TX", "amenity": "post_box", "brand": "United States Postal Service", "brand:wikidata": "Q668687", "collection_times": "Mo-Fr 16:30; Sa 14:30", "name": "USPS COLLECTION BOX - PO LOBBY", "note": "ON 12/24 AND 12/31, THIS BOX MAY BE COLLECTED AS EARLY AS 12 NOON.", "nsi_id": "unitedstatespostalservice-a77078", "operator": "United States Postal Service", "operator:short": "USPS", "operator:type": "public", "operator:wikidata": "Q668687", "ref": "7931600011"}, "type": "Feature"}
{"dataset_attributes": {"@spider": "usps_collection_boxes", "spider:collection_time": "2024-01-04T08:25:05.301423"}, "geometry": {"coordinates": [-102.277844528, 33.180291468], "type": "Point"}, "id": "cdiNDPSCxRvHz2qEGMiyU4o73LU=", "properties": {"@spider": "usps_collection_boxes", "addr:city": "BROWNFIELD", "addr:country": "US", "addr:full": "301 W HILL ST", "addr:postcode": "79316", "addr:state": "TX", "amenity": "post_box", "brand": "United States Postal Service", "brand:wikidata": "Q668687", "collection_times": "Mo-Fr 16:30; Sa 14:30", "name": "USPS COLLECTION BOX - PO LOBBY", "note": "ON 12/24 AND 12/31, THIS BOX MAY BE COLLECTED AS EARLY AS 12 NOON.", "nsi_id": "unitedstatespostalservice-a77078", "operator": "United States Postal Service", "operator:short": "USPS", "operator:type": "public", "operator:wikidata": "Q668687", "ref": "7931600012"}, "type": "Feature"}
{"dataset_attributes": {"@spider": "usps_collection_boxes", "spider:collection_time": "2024-01-04T08:25:05.301423"}, "geometry": {"coordinates": [-101.239345, 33.660202], "type": "Point"}, "id": "1_erQsLzUa7g95wkx6gBR_tWmN4=", "properties": {"@spider": "usps_collection_boxes", "addr:city": "CROSBYTON", "addr:country": "US", "addr:full": "110 N BERKSHIRE ST", "addr:postcode": "79322", "addr:state": "TX", "amenity": "post_box", "brand": "United States Postal Service", "brand:wikidata": "Q668687", "collection_times": "Mo-Fr 16:00; Sa 09:30", "name": "USPS COLLECTION BOX - PO LOBBY", "note": "ON 12/24 AND 12/31, THIS BOX MAY BE COLLECTED AS EARLY AS 12 NOON.", "nsi_id": "unitedstatespostalservice-a77078", "operator": "United States Postal Service", "operator:short": "USPS", "operator:type": "public", "operator:wikidata": "Q668687", "ref": "7932200002"}, "type": "Feature"}
{"dataset_attributes": {"@spider": "usps_collection_boxes", "spider:collection_time": "2024-01-04T08:25:05.301423"}, "geometry": {"coordinates": [-101.239020005, 33.660770004], "type": "Point"}, "id": "jn2NpzE0fJqkQAYRbr4tkhKSG7U=", "properties": {"@spider": "usps_collection_boxes", "addr:city": "CROSBYTON", "addr:country": "US", "addr:full": "110 N BERKSHIRE ST", "addr:postcode": "79322", "addr:state": "TX", "amenity": "post_box", "brand": "United States Postal Service", "brand:wikidata": "Q668687", "collection_times": "Mo-Fr 16:00; Sa 09:30", "name": "USPS COLLECTION BOX - BLUE BOX", "note": "ON 12/24 AND 12/31, THIS BOX MAY BE COLLECTED AS EARLY AS 12 NOON.", "nsi_id": "unitedstatespostalservice-a77078", "operator": "United States Postal Service", "operator:short": "USPS", "operator:type": "public", "operator:wikidata": "Q668687", "ref": "7932200005"}, "type": "Feature"}
{"dataset_attributes": {"@spider": "usps_collection_boxes", "spider:collection_time": "2024-01-04T08:25:05.301423"}, "geometry": {"coordinates": [-101.239356953, 33.660765419], "type": "Point"}, "id": "NuNEe16yHBK6_lInll25OQ4EP8c=", "properties": {"@spider": "usps_collection_boxes", "addr:city": "CROSBYTON", "addr:country": "US", "addr:full": "110 N BERKSHIRE ST", "addr:postcode": "79322", "addr:state": "TX", "amenity": "post_box", "brand": "United States Postal Service", "brand:wikidata": "Q668687", "collection_times": "Mo-Fr 16:00", "name": "USPS COLLECTION BOX - PO LOBBY", "note": "ON 12/24 AND 12/31, THIS BOX MAY BE COLLECTED AS EARLY AS 12 NOON.", "nsi_id": "unitedstatespostalservice-a77078", "operator": "United States Postal Service", "operator:short": "USPS", "operator:type": "public", "operator:wikidata": "Q668687", "ref": "7932200006"}, "type": "Feature"}
{"dataset_attributes": {"@spider": "usps_collection_boxes", "spider:collection_time": "2024-01-04T08:25:05.301423"}, "geometry": {"coordinates": [-102.829061, 32.967939], "type": "Point"}, "id": "KfWz2dICLgyLVQ5-QuM-cVHWWUc=", "properties": {"@spider": "usps_collection_boxes", "addr:city": "DENVER CITY", "addr:country": "US", "addr:full": "107 E 4TH ST", "addr:postcode": "79323", "addr:state": "TX", "amenity": "post_box", "brand": "United States Postal Service", "brand:wikidata": "Q668687", "collection_times": "Mo-Fr 16:15; Sa 15:15", "name": "USPS COLLECTION BOX - PO LOBBY", "note": "ON 12/24 AND 12/31, THIS BOX MAY BE COLLECTED AS EARLY AS 12 NOON.", "nsi_id": "unitedstatespostalservice-a77078", "operator": "United States Postal Service", "operator:short": "USPS", "operator:type": "public", "operator:wikidata": "Q668687", "ref": "7932300000"}, "type": "Feature"}
{"dataset_attributes": {"@spider": "usps_collection_boxes", "spider:collection_time": "2024-01-04T08:25:05.301423"}, "geometry": {"coordinates": [-102.829155, 32.967912], "type": "Point"}, "id": "re9yaMj4aVzrjET51FNp61TfHrU=", "properties": {"@spider": "usps_collection_boxes", "addr:city": "DENVER CITY", "addr:country": "US", "addr:full": "107 E 4TH ST", "addr:postcode": "79323", "addr:state": "TX", "amenity": "post_box", "brand": "United States Postal Service", "brand:wikidata": "Q668687", "collection_times": "Mo-Fr 16:15; Sa 15:15", "name": "USPS COLLECTION BOX - PO LOBBY", "note": "ON 12/24 AND 12/31, THIS BOX MAY BE COLLECTED AS EARLY AS 12 NOON.", "nsi_id": "unitedstatespostalservice-a77078", "operator": "United States Postal Service", "operator:short": "USPS", "operator:type": "public", "operator:wikidata": "Q668687", "ref": "7932300001"}, "type": "Feature"}
{"dataset_attributes": {"@spider": "usps_collection_boxes", "spider:collection_time": "2024-01-04T08:25:05.301423"}, "geometry": {"coordinates": [-102.829155, 32.967912], "type": "Point"}, "id": "v5L7y1OrmVKhXSQOegJXokGlY10=", "properties": {"@spider": "usps_collection_boxes", "addr:city": "DENVER CITY", "addr:country": "US", "addr:full": "107 E 4TH ST", "addr:postcode": "79323", "addr:state": "TX", "amenity": "post_box", "brand": "United States Postal Service", "brand:wikidata": "Q668687", "collection_times": "Mo-Fr 16:15; Sa 15:15", "name": "USPS COLLECTION BOX - BLUE BOX", "note": "ON 12/24 AND 12/31, THIS BOX MAY BE COLLECTED AS EARLY AS 12 NOON.", "nsi_id": "unitedstatespostalservice-a77078", "operator": "United States Postal Service", "operator:short": "USPS", "operator:type": "public", "operator:wikidata": "Q668687", "ref": "7932300002"}, "type": "Feature"}
{"dataset_attributes": {"@spider": "usps_collection_boxes", "spider:collection_time": "2024-01-04T08:25:05.301423"}, "geometry": {"coordinates": [-102.8286, 32.96790949], "type": "Point"}, "id": "TQl0MMOxsRFaMNzwl36Wtidnvts=", "properties": {"@spider": "usps_collection_boxes", "addr:city": "DENVER CITY", "addr:country": "US", "addr:full": "107 E 4TH ST", "addr:postcode": "79323", "addr:state": "TX", "amenity": "post_box", "brand": "United States Postal Service", "brand:wikidata": "Q668687", "collection_times": "Mo-Fr 16:25", "name": "USPS COLLECTION BOX - PO LOBBY", "note": "ON 12/24 AND 12/31, THIS BOX MAY BE COLLECTED AS EARLY AS 12 NOON.", "nsi_id": "unitedstatespostalservice-a77078", "operator": "United States Postal Service", "operator:short": "USPS", "operator:type": "public", "operator:wikidata": "Q668687", "ref": "7932300005"}, "type": "Feature"}
{"dataset_attributes": {"@spider": "usps_collection_boxes", "spider:collection_time": "2024-01-04T08:25:05.301423"}, "geometry": {"coordinates": [-102.760433, 33.873235], "type": "Point"}, "id": "8RI5exjx2N3V7Sd0kNks13T7JO0=", "properties": {"@spider": "usps_collection_boxes", "addr:city": "ENOCHS", "addr:country": "US", "addr:full": "3010 STATE HIGHWAY 214", "addr:postcode": "79324", "addr:state": "TX", "amenity": "post_box", "brand": "United States Postal Service", "brand:wikidata": "Q668687", "collection_times": "Mo-Fr 11:30; Sa 10:00", "name": "USPS COLLECTION BOX - BLUE BOX", "nsi_id": "unitedstatespostalservice-a77078", "operator": "United States Postal Service", "operator:short": "USPS", "operator:type": "public", "operator:wikidata": "Q668687", "ref": "7932400000"}, "type": "Feature"}
{"dataset_attributes": {"@spider": "usps_collection_boxes", "spider:collection_time": "2024-01-04T08:25:05.301423"}, "geometry": {"coordinates": [-102.760398, 33.873324], "type": "Point"}, "id": "NvQ1zIJr547Uv3EOo5oLdvt4_uM=", "properties": {"@spider": "usps_collection_boxes", "addr:city": "ENOCHS", "addr:country": "US", "addr:full": "3010 STATE HIGHWAY 214", "addr:postcode": "79324", "addr:state": "TX", "amenity": "post_box", "brand": "United States Postal Service", "brand:wikidata": "Q668687", "collection_times": "Mo-Fr 11:30; Sa 10:00", "name": "USPS COLLECTION BOX - PO LOBBY", "nsi_id": "unitedstatespostalservice-a77078", "operator": "United States Postal Service", "operator:short": "USPS", "operator:type": "public", "operator:wikidata": "Q668687", "ref": "7932400001"}, "type": "Feature"}
{"dataset_attributes": {"@spider": "usps_collection_boxes", "spider:collection_time": "2024-01-04T08:25:05.301423"}, "geometry": {"coordinates": [-102.760460922, 33.873252558], "type": "Point"}, "id": "KxBfFYYetOOSesKLd5S0S7LrBI4=", "properties": {"@spider": "usps_collection_boxes", "addr:city": "ENOCHS", "addr:country": "US", "addr:full": "3010 STATE HIGHWAY 214", "addr:postcode": "79324", "addr:state": "TX", "amenity": "post_box", "brand": "United States Postal Service", "brand:wikidata": "Q668687", "collection_times": "Mo-Sa 11:30", "name": "USPS COLLECTION BOX - PO LOBBY", "nsi_id": "unitedstatespostalservice-a77078", "operator": "United States Postal Service", "operator:short": "USPS", "operator:type": "public", "operator:wikidata": "Q668687", "ref": "7932400002"}, "type": "Feature"}
{"dataset_attributes": {"@spider": "usps_collection_boxes", "spider:collection_time": "2024-01-04T08:25:05.301423"}, "geometry": {"coordinates": [-103.039099, 34.388413], "type": "Point"}, "id": "Pbibn9_JN-6m6C-YDVxhKksWfSs=", "properties": {"@spider": "usps_collection_boxes", "addr:city": "FARWELL", "addr:country": "US", "addr:full": "120 4TH ST", "addr:postcode": "79325", "addr:state": "TX", "amenity": "post_box", "brand": "United States Postal Service", "brand:wikidata": "Q668687", "collection_times": "Mo-Fr 15:30; Sa 09:00", "name": "USPS COLLECTION BOX - BLUE BOX", "note": "ON 12/24 AND 12/31, THIS BOX MAY BE COLLECTED AS EARLY AS 12 NOON.", "nsi_id": "unitedstatespostalservice-a77078", "operator": "United States Postal Service", "operator:short": "USPS", "operator:type": "public", "operator:wikidata": "Q668687", "ref": "7932500000"}, "type": "Feature"}
{"dataset_attributes": {"@spider": "usps_collection_boxes", "spider:collection_time": "2024-01-04T08:25:05.301423"}, "geometry": {"coordinates": [-103.039067, 34.388467], "type": "Point"}, "id": "cX5AZohlKZ0VIyQs1zm3ZIEsC6I=", "properties": {"@spider": "usps_collection_boxes", "addr:city": "FARWELL", "addr:country": "US", "addr:full": "120 4TH ST", "addr:postcode": "79325", "addr:state": "TX", "amenity": "post_box", "brand": "United States Postal Service", "brand:wikidata": "Q668687", "collection_times": "Mo-Fr 15:30; Sa 09:00", "name": "USPS COLLECTION BOX - PO LOBBY", "note": "ON 12/24 AND 12/31, THIS BOX MAY BE COLLECTED AS EARLY AS 12 NOON.", "nsi_id": "unitedstatespostalservice-a77078", "operator": "United States Postal Service", "operator:short": "USPS", "operator:type": "public", "operator:wikidata": "Q668687", "ref": "7932500001"}, "type": "Feature"}
{"dataset_attributes": {"@spider": "usps_collection_boxes", "spider:collection_time": "2024-01-04T08:25:05.301423"}, "geometry": {"coordinates": [-103.039115321, 34.387704251], "type": "Point"}, "id": "KI6LbQvHvgR3PT3SDh-Z4-F1nck=", "properties": {"@spider": "usps_collection_boxes", "addr:city": "FARWELL", "addr:country": "US", "addr:full": "120 4TH ST", "addr:postcode": "79325", "addr:state": "TX", "amenity": "post_box", "brand": "United States Postal Service", "brand:wikidata": "Q668687", "collection_times": "Mo-Fr 16:00", "name": "USPS COLLECTION BOX - PO LOBBY", "note": "ON 12/24 AND 12/31, THIS BOX MAY BE COLLECTED AS EARLY AS 12 NOON.", "nsi_id": "unitedstatespostalservice-a77078", "operator": "United States Postal Service", "operator:short": "USPS", "operator:type": "public", "operator:wikidata": "Q668687", "ref": "7932500003"}, "type": "Feature"}
{"dataset_attributes": {"@spider": "usps_collection_boxes", "spider:collection_time": "2024-01-04T08:25:05.301423"}, "geometry": {"coordinates": [-101.680753, 33.663776], "type": "Point"}, "id": "16voi7tok4-oj-Wvn7Ca_0Uegms=", "properties": {"@spider": "usps_collection_boxes", "addr:city": "IDALOU", "addr:country": "US", "addr:full": "311 MAIN ST", "addr:postcode": "79329", "addr:state": "TX", "amenity": "post_box", "brand": "United States Postal Service", "brand:wikidata": "Q668687", "collection_times": "Mo-Fr 16:00; Sa 08:30", "name": "USPS COLLECTION BOX - PO LOBBY", "note": "ON 12/24 AND 12/31, THIS BOX MAY BE COLLECTED AS EARLY AS 12 NOON.", "nsi_id": "unitedstatespostalservice-a77078", "operator": "United States Postal Service", "operator:short": "USPS", "operator:type": "public", "operator:wikidata": "Q668687", "ref": "7932900001"}, "type": "Feature"}
{"dataset_attributes": {"@spider": "usps_collection_boxes", "spider:collection_time": "2024-01-04T08:25:05.301423"}, "geometry": {"coordinates": [-101.6941249937, 33.6618599871], "type": "Point"}, "id": "XevCiaIVvQpQpmIwt2IzoZUXX4E=", "properties": {"@spider": "usps_collection_boxes", "addr:city": "IDALOU", "addr:country": "US", "addr:full": "902 FRONTAGE RD", "addr:postcode": "79329", "addr:state": "TX", "amenity": "post_box", "brand": "United States Postal Service", "brand:wikidata": "Q668687", "collection_times": "Mo-Sa 12:00", "name": "USPS COLLECTION BOX - BLUE BOX", "nsi_id": "unitedstatespostalservice-a77078", "operator": "United States Postal Service", "operator:short": "USPS", "operator:type": "public", "operator:wikidata": "Q668687", "ref": "7932900004"}, "type": "Feature"}
{"dataset_attributes": {"@spider": "usps_collection_boxes", "spider:collection_time": "2024-01-04T08:25:05.301423"}, "geometry": {"coordinates": [-101.680935, 33.663648], "type": "Point"}, "id": "0IG1l3FdlTl3CI0ilKBCf1RQBbo=", "properties": {"@spider": "usps_collection_boxes", "addr:city": "IDALOU", "addr:country": "US", "addr:full": "311 MAIN ST", "addr:postcode": "79329", "addr:state": "TX", "amenity": "post_box", "brand": "United States Postal Service", "brand:wikidata": "Q668687", "collection_times": "Mo-Fr 16:00; Sa 08:30", "name": "USPS COLLECTION BOX - BLUE BOX", "note": "ON 12/24 AND 12/31, THIS BOX MAY BE COLLECTED AS EARLY AS 12 NOON.", "nsi_id": "unitedstatespostalservice-a77078", "operator": "United States Postal Service", "operator:short": "USPS", "operator:type": "public", "operator:wikidata": "Q668687", "ref": "7932900005"}, "type": "Feature"}
{"dataset_attributes": {"@spider": "usps_collection_boxes", "spider:collection_time": "2024-01-04T08:25:05.301423"}, "geometry": {"coordinates": [-101.680557622, 33.664420172], "type": "Point"}, "id": "8CpTGwGcS9FfZbBcyT8Me9f_GrM=", "properties": {"@spider": "usps_collection_boxes", "addr:city": "IDALOU", "addr:country": "US", "addr:full": "311 MAIN ST", "addr:postcode": "79329", "addr:state": "TX", "amenity": "post_box", "brand": "United States Postal Service", "brand:wikidata": "Q668687", "collection_times": "Mo-Fr 16:00", "name": "USPS COLLECTION BOX - PO LOBBY", "note": "ON 12/24 AND 12/31, THIS BOX MAY BE COLLECTED AS EARLY AS 12 NOON.", "nsi_id": "unitedstatespostalservice-a77078", "operator": "United States Postal Service", "operator:short": "USPS", "operator:type": "public", "operator:wikidata": "Q668687", "ref": "7932900006"}, "type": "Feature"}
{"dataset_attributes": {"@spider": "usps_collection_boxes", "spider:collection_time": "2024-01-04T08:25:05.301423"}, "geometry": {"coordinates": [-101.956704, 32.732192], "type": "Point"}, "id": "kxxKM88QjYZjX997URbuhOEIpzg=", "properties": {"@spider": "usps_collection_boxes", "addr:city": "LAMESA", "addr:country": "US", "addr:full": "202 N AVENUE G", "addr:postcode": "79331", "addr:state": "TX", "amenity": "post_box", "brand": "United States Postal Service", "brand:wikidata": "Q668687", "collection_times": "Mo-Sa 16:30", "name": "USPS COLLECTION BOX - PO LOBBY", "note": "ON 12/24 AND 12/31, THIS BOX MAY BE COLLECTED AS EARLY AS 12 NOON.", "nsi_id": "unitedstatespostalservice-a77078", "operator": "United States Postal Service", "operator:short": "USPS", "operator:type": "public", "operator:wikidata": "Q668687", "ref": "7933100010"}, "type": "Feature"}
{"dataset_attributes": {"@spider": "usps_collection_boxes", "spider:collection_time": "2024-01-04T08:25:05.301423"}, "geometry": {"coordinates": [-101.956704, 32.732192], "type": "Point"}, "id": "VNRooaijLXAQtAd5_WyL--lL-yA=", "properties": {"@spider": "usps_collection_boxes", "addr:city": "LAMESA", "addr:country": "US", "addr:full": "202 N AVENUE G", "addr:postcode": "79331", "addr:state": "TX", "amenity": "post_box", "brand": "United States Postal Service", "brand:wikidata": "Q668687", "collection_times": "Mo-Sa 16:30", "name": "USPS COLLECTION BOX - PO LOBBY", "note": "ON 12/24 AND 12/31, THIS BOX MAY BE COLLECTED AS EARLY AS 12 NOON.", "nsi_id": "unitedstatespostalservice-a77078", "operator": "United States Postal Service", "operator:short": "USPS", "operator:type": "public", "operator:wikidata": "Q668687", "ref": "7933100013"}, "type": "Feature"}
{"dataset_attributes": {"@spider": "usps_collection_boxes", "spider:collection_time": "2024-01-04T08:25:05.301423"}, "geometry": {"coordinates": [-101.961605, 32.734295], "type": "Point"}, "id": "EOvtM8jewgyp-JnjX4cLNVYemSw=", "properties": {"@spider": "usps_collection_boxes", "addr:city": "LAMESA", "addr:country": "US", "addr:full": "202 N AVENUE G", "addr:postcode": "79331", "addr:state": "TX", "amenity": "post_box", "brand": "United States Postal Service", "brand:wikidata": "Q668687", "collection_times": "Mo-Sa 16:30", "name": "USPS COLLECTION BOX - BLUE BOX", "note": "ON 12/24 AND 12/31, THIS BOX MAY BE COLLECTED AS EARLY AS 12 NOON.", "nsi_id": "unitedstatespostalservice-a77078", "operator": "United States Postal Service", "operator:short": "USPS", "operator:type": "public", "operator:wikidata": "Q668687", "ref": "7933100014"}, "type": "Feature"}
{"dataset_attributes": {"@spider": "usps_collection_boxes", "spider:collection_time": "2024-01-04T08:25:05.301423"}, "geometry": {"coordinates": [-101.956839751, 32.732199868], "type": "Point"}, "id": "ppPgIQGeHhMpiWHvB_bWGAcx43A=", "properties": {"@spider": "usps_collection_boxes", "addr:city": "LAMESA", "addr:country": "US", "addr:full": "202 N AVENUE G", "addr:postcode": "79331", "addr:state": "TX", "amenity": "post_box", "brand": "United States Postal Service", "brand:wikidata": "Q668687", "collection_times": "Mo-Fr 16:30", "name": "USPS COLLECTION BOX - PO LOBBY", "note": "ON 12/24 AND 12/31, THIS BOX MAY BE COLLECTED AS EARLY AS 12 NOON.", "nsi_id": "unitedstatespostalservice-a77078", "operator": "United States Postal Service", "operator:short": "USPS", "operator:type": "public", "operator:wikidata": "Q668687", "ref": "7933100016"}, "type": "Feature"}
{"dataset_attributes": {"@spider": "usps_collection_boxes", "spider:collection_time": "2024-01-04T08:25:05.301423"}, "geometry": {"coordinates": [-102.376703, 33.585475], "type": "Point"}, "id": "mxVXhrXBUEXHsyumUpb8ibN18Nc=", "properties": {"@spider": "usps_collection_boxes", "addr:city": "LEVELLAND", "addr:country": "US", "addr:full": "712 AVENUE G", "addr:postcode": "79336", "addr:state": "TX", "amenity": "post_box", "brand": "United States Postal Service", "brand:wikidata": "Q668687", "collection_times": "Mo-Fr 16:30; Sa 16:15", "name": "USPS COLLECTION BOX - PO LOBBY", "note": "ON 12/24 AND 12/31, THIS BOX MAY BE COLLECTED AS EARLY AS 12 NOON.", "nsi_id": "unitedstatespostalservice-a77078", "operator": "United States Postal Service", "operator:short": "USPS", "operator:type": "public", "operator:wikidata": "Q668687", "ref": "7933600010"}, "type": "Feature"}
{"dataset_attributes": {"@spider": "usps_collection_boxes", "spider:collection_time": "2024-01-04T08:25:05.301423"}, "geometry": {"coordinates": [-102.3769529641, 33.5855389869], "type": "Point"}, "id": "PMsS5R9ZAhLRb8fEcQJfq2zqkRQ=", "properties": {"@spider": "usps_collection_boxes", "addr:city": "LEVELLAND", "addr:country": "US", "addr:full": "712 AVENUE G", "addr:postcode": "79336", "addr:state": "TX", "amenity": "post_box", "brand": "United States Postal Service", "brand:wikidata": "Q668687", "collection_times": "Mo-Fr 16:30; Sa 16:15", "name": "USPS COLLECTION BOX - BLUE BOX", "note": "ON 12/24 AND 12/31, THIS BOX MAY BE COLLECTED AS EARLY AS 12 NOON.", "nsi_id": "unitedstatespostalservice-a77078", "operator": "United States Postal Service", "operator:short": "USPS", "operator:type": "public", "operator:wikidata": "Q668687", "ref": "7933600012"}, "type": "Feature"}
{"dataset_attributes": {"@spider": "usps_collection_boxes", "spider:collection_time": "2024-01-04T08:25:05.301423"}, "geometry": {"coordinates": [-102.376674, 33.585488], "type": "Point"}, "id": "V-d2EEjMdXuhqocGrsEyi7PIPew=", "properties": {"@spider": "usps_collection_boxes", "addr:city": "LEVELLAND", "addr:country": "US", "addr:full": "712 AVENUE G", "addr:postcode": "79336", "addr:state": "TX", "amenity": "post_box", "brand": "United States Postal Service", "brand:wikidata": "Q668687", "collection_times": "Mo-Fr 16:30; Sa 16:15", "name": "USPS COLLECTION BOX - PO LOBBY", "note": "ON 12/24 AND 12/31, THIS BOX MAY BE COLLECTED AS EARLY AS 12 NOON.", "nsi_id": "unitedstatespostalservice-a77078", "operator": "United States Postal Service", "operator:short": "USPS", "operator:type": "public", "operator:wikidata": "Q668687", "ref": "7933600013"}, "type": "Feature"}
{"dataset_attributes": {"@spider": "usps_collection_boxes", "spider:collection_time": "2024-01-04T08:25:05.301423"}, "geometry": {"coordinates": [-102.376663515, 33.585515696], "type": "Point"}, "id": "nHB2Tt_afTcX6x_-3voAzqjuqSU=", "properties": {"@spider": "usps_collection_boxes", "addr:city": "LEVELLAND", "addr:country": "US", "addr:full": "712 AVENUE G", "addr:postcode": "79336", "addr:state": "TX", "amenity": "post_box", "brand": "United States Postal Service", "brand:wikidata": "Q668687", "collection_times": "Mo-Fr 16:30; Sa 12:00", "name": "USPS COLLECTION BOX - PO LOBBY", "note": "ON 12/24 AND 12/31, THIS BOX MAY BE COLLECTED AS EARLY AS 12 NOON.", "nsi_id": "unitedstatespostalservice-a77078", "operator": "United States Postal Service", "operator:short": "USPS", "operator:type": "public", "operator:wikidata": "Q668687", "ref": "7933600015"}, "type": "Feature"}
{"dataset_attributes": {"@spider": "usps_collection_boxes", "spider:collection_time": "2024-01-04T08:25:05.301423"}, "geometry": {"coordinates": [-102.336538, 33.904334], "type": "Point"}, "id": "bf0JxatXUYEcn-PCio2dUszByD0=", "properties": {"@spider": "usps_collection_boxes", "addr:city": "LITTLEFIELD", "addr:country": "US", "addr:full": "2415 PHELPS AVE", "addr:postcode": "79339", "addr:state": "TX", "amenity": "post_box", "brand": "United States Postal Service", "brand:wikidata": "Q668687", "collection_times": "Mo-Fr 15:00; Sa 13:30", "name": "USPS COLLECTION BOX - BLUE BOX", "note": "ON 12/24 AND 12/31, THIS BOX MAY BE COLLECTED AS EARLY AS 12 NOON.", "nsi_id": "unitedstatespostalservice-a77078", "operator": "United States Postal Service", "operator:short": "USPS", "operator:type": "public", "operator:wikidata": "Q668687", "ref": "7933900002"}, "type": "Feature"}
{"dataset_attributes": {"@spider": "usps_collection_boxes", "spider:collection_time": "2024-01-04T08:25:05.301423"}, "geometry": {"coordinates": [-102.334584, 33.918768], "type": "Point"}, "id": "UJXLm0Xa0V49XmdTDC1J3W1457g=", "properties": {"@spider": "usps_collection_boxes", "addr:city": "LITTLEFIELD", "addr:country": "US", "addr:full": "801 PHELPS AVE", "addr:postcode": "79339", "addr:state": "TX", "amenity": "post_box", "brand": "United States Postal Service", "brand:wikidata": "Q668687", "collection_times": "Mo-Fr 16:30; Sa 14:30", "name": "USPS COLLECTION BOX - BLUE BOX", "note": "ON 12/24 AND 12/31, THIS BOX MAY BE COLLECTED AS EARLY AS 12 NOON.", "nsi_id": "unitedstatespostalservice-a77078", "operator": "United States Postal Service", "operator:short": "USPS", "operator:type": "public", "operator:wikidata": "Q668687", "ref": "7933900008"}, "type": "Feature"}
{"dataset_attributes": {"@spider": "usps_collection_boxes", "spider:collection_time": "2024-01-04T08:25:05.301423"}, "geometry": {"coordinates": [-102.334491, 33.918822], "type": "Point"}, "id": "S6s-yX3skDbmiVQFynlU0mSSlEo=", "properties": {"@spider": "usps_collection_boxes", "addr:city": "LITTLEFIELD", "addr:country": "US", "addr:full": "801 PHELPS AVE", "addr:postcode": "79339", "addr:state": "TX", "amenity": "post_box", "brand": "United States Postal Service", "brand:wikidata": "Q668687", "collection_times": "Mo-Fr 16:30; Sa 14:30", "name": "USPS COLLECTION BOX - PO LOBBY", "note": "ON 12/24 AND 12/31, THIS BOX MAY BE COLLECTED AS EARLY AS 12 NOON.", "nsi_id": "unitedstatespostalservice-a77078", "operator": "United States Postal Service", "operator:short": "USPS", "operator:type": "public", "operator:wikidata": "Q668687", "ref": "7933900014"}, "type": "Feature"}
{"dataset_attributes": {"@spider": "usps_collection_boxes", "spider:collection_time": "2024-01-04T08:25:05.301423"}, "geometry": {"coordinates": [-102.334944309, 33.918330079], "type": "Point"}, "id": "iThGx0C8GNMDsFT6xfBxK84UCf0=", "properties": {"@spider": "usps_collection_boxes", "addr:city": "LITTLEFIELD", "addr:country": "US", "addr:full": "801 PHELPS AVE", "addr:postcode": "79339", "addr:state": "TX", "amenity": "post_box", "brand": "United States Postal Service", "brand:wikidata": "Q668687", "collection_times": "Mo-Fr 16:30", "name": "USPS COLLECTION BOX - PO LOBBY", "note": "ON 12/24 AND 12/31, THIS BOX MAY BE COLLECTED AS EARLY AS 12 NOON.", "nsi_id": "unitedstatespostalservice-a77078", "operator": "United States Postal Service", "operator:short": "USPS", "operator:type": "public", "operator:wikidata": "Q668687", "ref": "7933900018"}, "type": "Feature"}
{"dataset_attributes": {"@spider": "usps_collection_boxes", "spider:collection_time": "2024-01-04T08:25:05.301423"}, "geometry": {"coordinates": [-102.20957, 32.915183], "type": "Point"}, "id": "X8r1h8H3qVLRYhAPG_XV6VuI6fU=", "properties": {"@spider": "usps_collection_boxes", "addr:city": "LOOP", "addr:country": "US", "addr:full": "895 STATE HIGHWAY 83 E", "addr:postcode": "79342", "addr:state": "TX", "amenity": "post_box", "brand": "United States Postal Service", "brand:wikidata": "Q668687", "collection_times": "Mo-Sa 11:30", "name": "USPS COLLECTION BOX - BLUE BOX", "nsi_id": "unitedstatespostalservice-a77078", "operator": "United States Postal Service", "operator:short": "USPS", "operator:type": "public", "operator:wikidata": "Q668687", "ref": "7934200000"}, "type": "Feature"}
{"dataset_attributes": {"@spider": "usps_collection_boxes", "spider:collection_time": "2024-01-04T08:25:05.301423"}, "geometry": {"coordinates": [-102.20957, 32.915183], "type": "Point"}, "id": "lYXzFrWGD1w5Ugo6dwUdQbs2QnE=", "properties": {"@spider": "usps_collection_boxes", "addr:city": "LOOP", "addr:country": "US", "addr:full": "895 STATE HIGHWAY 83 E", "addr:postcode": "79342", "addr:state": "TX", "amenity": "post_box", "brand": "United States Postal Service", "brand:wikidata": "Q668687", "collection_times": "Mo-Sa 11:30", "name": "USPS COLLECTION BOX - PO LOBBY", "nsi_id": "unitedstatespostalservice-a77078", "operator": "United States Postal Service", "operator:short": "USPS", "operator:type": "public", "operator:wikidata": "Q668687", "ref": "7934200002"}, "type": "Feature"}
{"dataset_attributes": {"@spider": "usps_collection_boxes", "spider:collection_time": "2024-01-04T08:25:05.301423"}, "geometry": {"coordinates": [-102.41705475, 32.915228108], "type": "Point"}, "id": "WyzWAWNYvJH1OEGPWiUXRShDAtE=", "properties": {"@spider": "usps_collection_boxes", "addr:city": "LOOP", "addr:country": "US", "addr:full": "895 STATE HIGHWAY 83 E", "addr:postcode": "79342", "addr:state": "TX", "amenity": "post_box", "brand": "United States Postal Service", "brand:wikidata": "Q668687", "collection_times": "Mo-Sa 11:30", "name": "USPS COLLECTION BOX - PO LOBBY", "nsi_id": "unitedstatespostalservice-a77078", "operator": "United States Postal Service", "operator:short": "USPS", "operator:type": "public", "operator:wikidata": "Q668687", "ref": "7934200004"}, "type": "Feature"}
{"dataset_attributes": {"@spider": "usps_collection_boxes", "spider:collection_time": "2024-01-04T08:25:05.301423"}, "geometry": {"coordinates": [-101.538401, 33.666863], "type": "Point"}, "id": "xwUNRbstsO7QkafhS3WlINuydNA=", "properties": {"@spider": "usps_collection_boxes", "addr:city": "LORENZO", "addr:country": "US", "addr:full": "225 US HIGHWAY 82", "addr:postcode": "79343", "addr:state": "TX", "amenity": "post_box", "brand": "United States Postal Service", "brand:wikidata": "Q668687", "collection_times": "Mo-Fr 16:00; Sa 09:00", "name": "USPS COLLECTION BOX - PO LOBBY", "note": "ON 12/24 AND 12/31, THIS BOX MAY BE COLLECTED AS EARLY AS 12 NOON.", "nsi_id": "unitedstatespostalservice-a77078", "operator": "United States Postal Service", "operator:short": "USPS", "operator:type": "public", "operator:wikidata": "Q668687", "ref": "7934300000"}, "type": "Feature"}
{"dataset_attributes": {"@spider": "usps_collection_boxes", "spider:collection_time": "2024-01-04T08:25:05.301423"}, "geometry": {"coordinates": [-101.538497, 33.666833], "type": "Point"}, "id": "Q7nFKeKkV8fe6vlLYgcceySNJLg=", "properties": {"@spider": "usps_collection_boxes", "addr:city": "LORENZO", "addr:country": "US", "addr:full": "225 US HIGHWAY 82", "addr:postcode": "79343", "addr:state": "TX", "amenity": "post_box", "brand": "United States Postal Service", "brand:wikidata": "Q668687", "collection_times": "Mo-Fr 16:00; Sa 09:00", "name": "USPS COLLECTION BOX - BLUE BOX", "note": "ON 12/24 AND 12/31, THIS BOX MAY BE COLLECTED AS EARLY AS 12 NOON.", "nsi_id": "unitedstatespostalservice-a77078", "operator": "United States Postal Service", "operator:short": "USPS", "operator:type": "public", "operator:wikidata": "Q668687", "ref": "7934300001"}, "type": "Feature"}
{"dataset_attributes": {"@spider": "usps_collection_boxes", "spider:collection_time": "2024-01-04T08:25:05.301423"}, "geometry": {"coordinates": [-101.538139064, 33.666900391], "type": "Point"}, "id": "wd2M8Wuwdi-DDHA_043WoXPkZaQ=", "properties": {"@spider": "usps_collection_boxes", "addr:city": "LORENZO", "addr:country": "US", "addr:full": "225 US HIGHWAY 82", "addr:postcode": "79343", "addr:state": "TX", "amenity": "post_box", "brand": "United States Postal Service", "brand:wikidata": "Q668687", "collection_times": "Mo-Fr 16:00", "name": "USPS COLLECTION BOX - PO LOBBY", "note": "ON 12/24 AND 12/31, THIS BOX MAY BE COLLECTED AS EARLY AS 12 NOON.", "nsi_id": "unitedstatespostalservice-a77078", "operator": "United States Postal Service", "operator:short": "USPS", "operator:type": "public", "operator:wikidata": "Q668687", "ref": "7934300003"}, "type": "Feature"}
{"dataset_attributes": {"@spider": "usps_collection_boxes", "spider:collection_time": "2024-01-04T08:25:05.301423"}, "geometry": {"coordinates": [-102.205938, 33.32625], "type": "Point"}, "id": "N60fp672kDkHGe7Uj63XMhYxfH0=", "properties": {"@spider": "usps_collection_boxes", "addr:city": "MEADOW", "addr:country": "US", "addr:full": "602 N RENFRO ST", "addr:postcode": "79345", "addr:state": "TX", "amenity": "post_box", "brand": "United States Postal Service", "brand:wikidata": "Q668687", "collection_times": "Mo-Fr 16:00; Sa 09:00", "name": "USPS COLLECTION BOX - BLUE BOX", "note": "ON 12/24 AND 12/31, THIS BOX MAY BE COLLECTED AS EARLY AS 12 NOON.", "nsi_id": "unitedstatespostalservice-a77078", "operator": "United States Postal Service", "operator:short": "USPS", "operator:type": "public", "operator:wikidata": "Q668687", "ref": "7934500000"}, "type": "Feature"}
{"dataset_attributes": {"@spider": "usps_collection_boxes", "spider:collection_time": "2024-01-04T08:25:05.301423"}, "geometry": {"coordinates": [-102.205938, 33.32625], "type": "Point"}, "id": "sp195s9eqsQbuQmfVMbKzuWKsZs=", "properties": {"@spider": "usps_collection_boxes", "addr:city": "MEADOW", "addr:country": "US", "addr:full": "602 N RENFRO ST", "addr:postcode": "79345", "addr:state": "TX", "amenity": "post_box", "brand": "United States Postal Service", "brand:wikidata": "Q668687", "collection_times": "Mo-Fr 16:00; Sa 09:00", "name": "USPS COLLECTION BOX - PO LOBBY", "note": "ON 12/24 AND 12/31, THIS BOX MAY BE COLLECTED AS EARLY AS 12 NOON.", "nsi_id": "unitedstatespostalservice-a77078", "operator": "United States Postal Service", "operator:short": "USPS", "operator:type": "public", "operator:wikidata": "Q668687", "ref": "7934500002"}, "type": "Feature"}
{"dataset_attributes": {"@spider": "usps_collection_boxes", "spider:collection_time": "2024-01-04T08:25:05.301423"}, "geometry": {"coordinates": [-102.205978943, 33.340677065], "type": "Point"}, "id": "4oUV9p9huABukt8qtECymo5MPbo=", "properties": {"@spider": "usps_collection_boxes", "addr:city": "MEADOW", "addr:country": "US", "addr:full": "602 N RENFRO ST", "addr:postcode": "79345", "addr:state": "TX", "amenity": "post_box", "brand": "United States Postal Service", "brand:wikidata": "Q668687", "collection_times": "Mo-Fr 16:00", "name": "USPS COLLECTION BOX - PO LOBBY", "note": "ON 12/24 AND 12/31, THIS BOX MAY BE COLLECTED AS EARLY AS 12 NOON.", "nsi_id": "unitedstatespostalservice-a77078", "operator": "United States Postal Service", "operator:short": "USPS", "operator:type": "public", "operator:wikidata": "Q668687", "ref": "7934500003"}, "type": "Feature"}
{"dataset_attributes": {"@spider": "usps_collection_boxes", "spider:collection_time": "2024-01-04T08:25:05.301423"}, "geometry": {"coordinates": [-102.759392, 33.724296], "type": "Point"}, "id": "w81F1cYvSFqCZwp3lCudq4YTE8M=", "properties": {"@spider": "usps_collection_boxes", "addr:city": "MORTON", "addr:country": "US", "addr:full": "106 W TAYLOR AVE", "addr:postcode": "79346", "addr:state": "TX", "amenity": "post_box", "brand": "United States Postal Service", "brand:wikidata": "Q668687", "collection_times": "Mo-Fr 16:00; Sa 12:00", "name": "USPS COLLECTION BOX - BLUE BOX", "note": "ON 12/24 AND 12/31, THIS BOX MAY BE COLLECTED AS EARLY AS 12 NOON.", "nsi_id": "unitedstatespostalservice-a77078", "operator": "United States Postal Service", "operator:short": "USPS", "operator:type": "public", "operator:wikidata": "Q668687", "ref": "7934600001"}, "type": "Feature"}
{"dataset_attributes": {"@spider": "usps_collection_boxes", "spider:collection_time": "2024-01-04T08:25:05.301423"}, "geometry": {"coordinates": [-102.759299, 33.724266], "type": "Point"}, "id": "TV3x4-8v-jfgwktT106amCRc-9w=", "properties": {"@spider": "usps_collection_boxes", "addr:city": "MORTON", "addr:country": "US", "addr:full": "106 W TAYLOR AVE", "addr:postcode": "79346", "addr:state": "TX", "amenity": "post_box", "brand": "United States Postal Service", "brand:wikidata": "Q668687", "collection_times": "Mo-Fr 16:00; Sa 12:00", "name": "USPS COLLECTION BOX - PO LOBBY", "note": "ON 12/24 AND 12/31, THIS BOX MAY BE COLLECTED AS EARLY AS 12 NOON.", "nsi_id": "unitedstatespostalservice-a77078", "operator": "United States Postal Service", "operator:short": "USPS", "operator:type": "public", "operator:wikidata": "Q668687", "ref": "7934600003"}, "type": "Feature"}
{"dataset_attributes": {"@spider": "usps_collection_boxes", "spider:collection_time": "2024-01-04T08:25:05.301423"}, "geometry": {"coordinates": [-102.760051448, 33.724261521], "type": "Point"}, "id": "I6TUO7Acq9ECWAlvQw0EiMcqK-g=", "properties": {"@spider": "usps_collection_boxes", "addr:city": "MORTON", "addr:country": "US", "addr:full": "106 W TAYLOR AVE", "addr:postcode": "79346", "addr:state": "TX", "amenity": "post_box", "brand": "United States Postal Service", "brand:wikidata": "Q668687", "collection_times": "Mo-Fr 16:00", "name": "USPS COLLECTION BOX - PO LOBBY", "note": "ON 12/24 AND 12/31, THIS BOX MAY BE COLLECTED AS EARLY AS 12 NOON.", "nsi_id": "unitedstatespostalservice-a77078", "operator": "United States Postal Service", "operator:short": "USPS", "operator:type": "public", "operator:wikidata": "Q668687", "ref": "7934600004"}, "type": "Feature"}
{"dataset_attributes": {"@spider": "usps_collection_boxes", "spider:collection_time": "2024-01-04T08:25:05.301423"}, "geometry": {"coordinates": [-102.726867, 34.224317], "type": "Point"}, "id": "4cxuNcpEDrhD5UslRoLHvKmvyNM=", "properties": {"@spider": "usps_collection_boxes", "addr:city": "MULESHOE", "addr:country": "US", "addr:full": "300 S 1ST ST", "addr:postcode": "79347", "addr:state": "TX", "amenity": "post_box", "brand": "United States Postal Service", "brand:wikidata": "Q668687", "collection_times": "Mo-Fr 15:30; Sa 14:30", "name": "USPS COLLECTION BOX - BLUE BOX", "note": "ON 12/24 AND 12/31, THIS BOX MAY BE COLLECTED AS EARLY AS 12 NOON.", "nsi_id": "unitedstatespostalservice-a77078", "operator": "United States Postal Service", "operator:short": "USPS", "operator:type": "public", "operator:wikidata": "Q668687", "ref": "7934700001"}, "type": "Feature"}
{"dataset_attributes": {"@spider": "usps_collection_boxes", "spider:collection_time": "2024-01-04T08:25:05.301423"}, "geometry": {"coordinates": [-102.7277827, 34.2254167], "type": "Point"}, "id": "-39AoJFerpO7HKwPUfL8HJHhGVs=", "properties": {"@spider": "usps_collection_boxes", "addr:city": "MULESHOE", "addr:country": "US", "addr:full": "221 E 3RD ST", "addr:postcode": "79347", "addr:state": "TX", "amenity": "post_box", "brand": "United States Postal Service", "brand:wikidata": "Q668687", "collection_times": "Mo-Fr 16:45; Sa 14:45", "name": "USPS COLLECTION BOX - BLUE BOX", "note": "ON 12/24 AND 12/31, THIS BOX MAY BE COLLECTED AS EARLY AS 12 NOON.", "nsi_id": "unitedstatespostalservice-a77078", "operator": "United States Postal Service", "operator:short": "USPS", "operator:type": "public", "operator:wikidata": "Q668687", "ref": "7934700002"}, "type": "Feature"}
{"dataset_attributes": {"@spider": "usps_collection_boxes", "spider:collection_time": "2024-01-04T08:25:05.301423"}, "geometry": {"coordinates": [-102.7227, 34.224044], "type": "Point"}, "id": "VCqlUJG90OB8l6Tgil9dZGb8sEw=", "properties": {"@spider": "usps_collection_boxes", "addr:city": "MULESHOE", "addr:country": "US", "addr:full": "221 E 3RD ST", "addr:postcode": "79347", "addr:state": "TX", "amenity": "post_box", "brand": "United States Postal Service", "brand:wikidata": "Q668687", "collection_times": "Mo-Fr 16:45; Sa 14:45", "name": "USPS COLLECTION BOX - PO LOBBY", "note": "ON 12/24 AND 12/31, THIS BOX MAY BE COLLECTED AS EARLY AS 12 NOON.", "nsi_id": "unitedstatespostalservice-a77078", "operator": "United States Postal Service", "operator:short": "USPS", "operator:type": "public", "operator:wikidata": "Q668687", "ref": "7934700004"}, "type": "Feature"}
{"dataset_attributes": {"@spider": "usps_collection_boxes", "spider:collection_time": "2024-01-04T08:25:05.301423"}, "geometry": {"coordinates": [-102.7227, 34.224044], "type": "Point"}, "id": "oj1K7aZ3rS-n7nSxV44HcxL0g00=", "properties": {"@spider": "usps_collection_boxes", "addr:city": "MULESHOE", "addr:country": "US", "addr:full": "221 E 3RD ST", "addr:postcode": "79347", "addr:state": "TX", "amenity": "post_box", "brand": "United States Postal Service", "brand:wikidata": "Q668687", "collection_times": "Mo-Fr 16:45; Sa 14:45", "name": "USPS COLLECTION BOX - PO LOBBY", "note": "ON 12/24 AND 12/31, THIS BOX MAY BE COLLECTED AS EARLY AS 12 NOON.", "nsi_id": "unitedstatespostalservice-a77078", "operator": "United States Postal Service", "operator:short": "USPS", "operator:type": "public", "operator:wikidata": "Q668687", "ref": "7934700005"}, "type": "Feature"}
{"dataset_attributes": {"@spider": "usps_collection_boxes", "spider:collection_time": "2024-01-04T08:25:05.301423"}, "geometry": {"coordinates": [-102.722674338, 34.223951044], "type": "Point"}, "id": "dfy7N2FD1COOJML6FQQ2r4BVWTE=", "properties": {"@spider": "usps_collection_boxes", "addr:city": "MULESHOE", "addr:country": "US", "addr:full": "221 E 3RD ST", "addr:postcode": "79347", "addr:state": "TX", "amenity": "post_box", "brand": "United States Postal Service", "brand:wikidata": "Q668687", "collection_times": "Mo-Fr 16:30", "name": "USPS COLLECTION BOX - PO LOBBY", "note": "ON 12/24 AND 12/31, THIS BOX MAY BE COLLECTED AS EARLY AS 12 NOON.", "nsi_id": "unitedstatespostalservice-a77078", "operator": "United States Postal Service", "operator:short": "USPS", "operator:type": "public", "operator:wikidata": "Q668687", "ref": "7934700007"}, "type": "Feature"}
{"dataset_attributes": {"@spider": "usps_collection_boxes", "spider:collection_time": "2024-01-04T08:25:05.301423"}, "geometry": {"coordinates": [-101.837554, 33.741435], "type": "Point"}, "id": "Who27x1N1Q0Rn4umm5APQsESInU=", "properties": {"@spider": "usps_collection_boxes", "addr:city": "NEW DEAL", "addr:country": "US", "addr:full": "309 N MONROE ST", "addr:postcode": "79350", "addr:state": "TX", "amenity": "post_box", "brand": "United States Postal Service", "brand:wikidata": "Q668687", "collection_times": "Mo-Fr 16:00; Sa 10:30", "name": "USPS COLLECTION BOX - PO LOBBY", "note": "ON 12/24 AND 12/31, THIS BOX MAY BE COLLECTED AS EARLY AS 12 NOON.", "nsi_id": "unitedstatespostalservice-a77078", "operator": "United States Postal Service", "operator:short": "USPS", "operator:type": "public", "operator:wikidata": "Q668687", "ref": "7935000000"}, "type": "Feature"}
{"dataset_attributes": {"@spider": "usps_collection_boxes", "spider:collection_time": "2024-01-04T08:25:05.301423"}, "geometry": {"coordinates": [-101.837554, 33.741435], "type": "Point"}, "id": "pXVyWayDkk1FeNSZp9dZepW_wns=", "properties": {"@spider": "usps_collection_boxes", "addr:city": "NEW DEAL", "addr:country": "US", "addr:full": "309 N MONROE ST", "addr:postcode": "79350", "addr:state": "TX", "amenity": "post_box", "brand": "United States Postal Service", "brand:wikidata": "Q668687", "collection_times": "Mo-Fr 16:00; Sa 10:30", "name": "USPS COLLECTION BOX - BLUE BOX", "note": "ON 12/24 AND 12/31, THIS BOX MAY BE COLLECTED AS EARLY AS 12 NOON.", "nsi_id": "unitedstatespostalservice-a77078", "operator": "United States Postal Service", "operator:short": "USPS", "operator:type": "public", "operator:wikidata": "Q668687", "ref": "7935000001"}, "type": "Feature"}
{"dataset_attributes": {"@spider": "usps_collection_boxes", "spider:collection_time": "2024-01-04T08:25:05.301423"}, "geometry": {"coordinates": [-101.837215087, 33.741090335], "type": "Point"}, "id": "apJTauvr5WKGizkcy8m2vUQsCnc=", "properties": {"@spider": "usps_collection_boxes", "addr:city": "NEW DEAL", "addr:country": "US", "addr:full": "309 N MONROE ST", "addr:postcode": "79350", "addr:state": "TX", "amenity": "post_box", "brand": "United States Postal Service", "brand:wikidata": "Q668687", "collection_times": "Mo-Fr 16:00; Sa 10:30", "name": "USPS COLLECTION BOX - PO LOBBY", "note": "ON 12/24 AND 12/31, THIS BOX MAY BE COLLECTED AS EARLY AS 12 NOON.", "nsi_id": "unitedstatespostalservice-a77078", "operator": "United States Postal Service", "operator:short": "USPS", "operator:type": "public", "operator:wikidata": "Q668687", "ref": "7935000003"}, "type": "Feature"}
{"dataset_attributes": {"@spider": "usps_collection_boxes", "spider:collection_time": "2024-01-04T08:25:05.301423"}, "geometry": {"coordinates": [-101.833087, 32.964217], "type": "Point"}, "id": "ZU7aTD_cST2riDDdDctu6EDmRA0=", "properties": {"@spider": "usps_collection_boxes", "addr:city": "ODONNELL", "addr:country": "US", "addr:full": "819 DOAK ST", "addr:postcode": "79351", "addr:state": "TX", "amenity": "post_box", "brand": "United States Postal Service", "brand:wikidata": "Q668687", "collection_times": "Mo-Fr 16:00; Sa 09:00", "name": "USPS COLLECTION BOX - BLUE BOX", "note": "ON 12/24 AND 12/31, THIS BOX MAY BE COLLECTED AS EARLY AS 12 NOON.", "nsi_id": "unitedstatespostalservice-a77078", "operator": "United States Postal Service", "operator:short": "USPS", "operator:type": "public", "operator:wikidata": "Q668687", "ref": "7935100000"}, "type": "Feature"}
{"dataset_attributes": {"@spider": "usps_collection_boxes", "spider:collection_time": "2024-01-04T08:25:05.301423"}, "geometry": {"coordinates": [-101.832901, 32.964132], "type": "Point"}, "id": "q7Y4sNJmdQUAfq308qb4HR0P9t0=", "properties": {"@spider": "usps_collection_boxes", "addr:city": "ODONNELL", "addr:country": "US", "addr:full": "819 DOAK ST", "addr:postcode": "79351", "addr:state": "TX", "amenity": "post_box", "brand": "United States Postal Service", "brand:wikidata": "Q668687", "collection_times": "Mo-Fr 16:00; Sa 09:00", "name": "USPS COLLECTION BOX - PO LOBBY", "note": "ON 12/24 AND 12/31, THIS BOX MAY BE COLLECTED AS EARLY AS 12 NOON.", "nsi_id": "unitedstatespostalservice-a77078", "operator": "United States Postal Service", "operator:short": "USPS", "operator:type": "public", "operator:wikidata": "Q668687", "ref": "7935100001"}, "type": "Feature"}
{"dataset_attributes": {"@spider": "usps_collection_boxes", "spider:collection_time": "2024-01-04T08:25:05.301423"}, "geometry": {"coordinates": [-101.832690446, 32.96463982], "type": "Point"}, "id": "4omrW_mduIbcdSzunamtQSVXNpc=", "properties": {"@spider": "usps_collection_boxes", "addr:city": "ODONNELL", "addr:country": "US", "addr:full": "819 DOAK ST", "addr:postcode": "79351", "addr:state": "TX", "amenity": "post_box", "brand": "United States Postal Service", "brand:wikidata": "Q668687", "collection_times": "Mo-Fr 16:00", "name": "USPS COLLECTION BOX - PO LOBBY", "note": "ON 12/24 AND 12/31, THIS BOX MAY BE COLLECTED AS EARLY AS 12 NOON.", "nsi_id": "unitedstatespostalservice-a77078", "operator": "United States Postal Service", "operator:short": "USPS", "operator:type": "public", "operator:wikidata": "Q668687", "ref": "7935100002"}, "type": "Feature"}
{"dataset_attributes": {"@spider": "usps_collection_boxes", "spider:collection_time": "2024-01-04T08:25:05.301423"}, "geometry": {"coordinates": [-102.558597, 33.815291], "type": "Point"}, "id": "Shf9Y0SERchjY8aC6wH8wm3sttk=", "properties": {"@spider": "usps_collection_boxes", "addr:city": "PEP", "addr:country": "US", "addr:full": "4282 N STATE ROAD 303", "addr:postcode": "79353", "addr:state": "TX", "amenity": "post_box", "brand": "United States Postal Service", "brand:wikidata": "Q668687", "collection_times": "Mo-Fr 09:15; Sa 08:45", "name": "USPS COLLECTION BOX - PO LOBBY", "nsi_id": "unitedstatespostalservice-a77078", "operator": "United States Postal Service", "operator:short": "USPS", "operator:type": "public", "operator:wikidata": "Q668687", "ref": "7935300000"}, "type": "Feature"}
{"dataset_attributes": {"@spider": "usps_collection_boxes", "spider:collection_time": "2024-01-04T08:25:05.301423"}, "geometry": {"coordinates": [-102.556555, 33.814205], "type": "Point"}, "id": "9I9Wyu_LphpHJ-DbropwF38HqPQ=", "properties": {"@spider": "usps_collection_boxes", "addr:city": "PEP", "addr:country": "US", "addr:full": "4282 N STATE ROAD 303", "addr:postcode": "79353", "addr:state": "TX", "amenity": "post_box", "brand": "United States Postal Service", "brand:wikidata": "Q668687", "collection_times": "Mo-Fr 09:15; Sa 08:45", "name": "USPS COLLECTION BOX - BLUE BOX", "nsi_id": "unitedstatespostalservice-a77078", "operator": "United States Postal Service", "operator:short": "USPS", "operator:type": "public", "operator:wikidata": "Q668687", "ref": "7935300001"}, "type": "Feature"}
{"dataset_attributes": {"@spider": "usps_collection_boxes", "spider:collection_time": "2024-01-04T08:25:05.301423"}, "geometry": {"coordinates": [-102.558573532, 33.815252905], "type": "Point"}, "id": "qPLf9I_2PcaXFUL2yOr6fuvdsxw=", "properties": {"@spider": "usps_collection_boxes", "addr:city": "PEP", "addr:country": "US", "addr:full": "4282 N STATE ROAD 303", "addr:postcode": "79353", "addr:state": "TX", "amenity": "post_box", "brand": "United States Postal Service", "brand:wikidata": "Q668687", "collection_times": "Mo-Sa 09:30", "name": "USPS COLLECTION BOX - PO LOBBY", "nsi_id": "unitedstatespostalservice-a77078", "operator": "United States Postal Service", "operator:short": "USPS", "operator:type": "public", "operator:wikidata": "Q668687", "ref": "7935300002"}, "type": "Feature"}
{"dataset_attributes": {"@spider": "usps_collection_boxes", "spider:collection_time": "2024-01-04T08:25:05.301423"}, "geometry": {"coordinates": [-102.830262, 33.187732], "type": "Point"}, "id": "Pgxfk0FpLonPM90KSbN7qvcE6uw=", "properties": {"@spider": "usps_collection_boxes", "addr:city": "PLAINS", "addr:country": "US", "addr:full": "504 11TH ST", "addr:postcode": "79355", "addr:state": "TX", "amenity": "post_box", "brand": "United States Postal Service", "brand:wikidata": "Q668687", "collection_times": "Mo-Fr 15:45; Sa 10:30", "name": "USPS COLLECTION BOX - PO LOBBY", "note": "ON 12/24 AND 12/31, THIS BOX MAY BE COLLECTED AS EARLY AS 12 NOON.", "nsi_id": "unitedstatespostalservice-a77078", "operator": "United States Postal Service", "operator:short": "USPS", "operator:type": "public", "operator:wikidata": "Q668687", "ref": "7935500000"}, "type": "Feature"}
{"dataset_attributes": {"@spider": "usps_collection_boxes", "spider:collection_time": "2024-01-04T08:25:05.301423"}, "geometry": {"coordinates": [-102.83036, 33.18776], "type": "Point"}, "id": "is8fGWVsAf6j0Pvp0ZOgGIohTv8=", "properties": {"@spider": "usps_collection_boxes", "addr:city": "PLAINS", "addr:country": "US", "addr:full": "504 11TH ST", "addr:postcode": "79355", "addr:state": "TX", "amenity": "post_box", "brand": "United States Postal Service", "brand:wikidata": "Q668687", "collection_times": "Mo-Fr 15:45; Sa 10:30", "name": "USPS COLLECTION BOX - BLUE BOX", "note": "ON 12/24 AND 12/31, THIS BOX MAY BE COLLECTED AS EARLY AS 12 NOON.", "nsi_id": "unitedstatespostalservice-a77078", "operator": "United States Postal Service", "operator:short": "USPS", "operator:type": "public", "operator:wikidata": "Q668687", "ref": "7935500001"}, "type": "Feature"}
{"dataset_attributes": {"@spider": "usps_collection_boxes", "spider:collection_time": "2024-01-04T08:25:05.301423"}, "geometry": {"coordinates": [-102.830353615, 33.187684552], "type": "Point"}, "id": "UC4XJ1k5F_zQowwaLTTqD15OtKA=", "properties": {"@spider": "usps_collection_boxes", "addr:city": "PLAINS", "addr:country": "US", "addr:full": "504 11TH ST", "addr:postcode": "79355", "addr:state": "TX", "amenity": "post_box", "brand": "United States Postal Service", "brand:wikidata": "Q668687", "collection_times": "Mo-Fr 15:45", "name": "USPS COLLECTION BOX - PO LOBBY", "note": "ON 12/24 AND 12/31, THIS BOX MAY BE COLLECTED AS EARLY AS 12 NOON.", "nsi_id": "unitedstatespostalservice-a77078", "operator": "United States Postal Service", "operator:short": "USPS", "operator:type": "public", "operator:wikidata": "Q668687", "ref": "7935500003"}, "type": "Feature"}
{"dataset_attributes": {"@spider": "usps_collection_boxes", "spider:collection_time": "2024-01-04T08:25:05.301423"}, "geometry": {"coordinates": [-101.379626, 33.190851], "type": "Point"}, "id": "wPgNuxL0CB5bs_5lAYp_jF0_EYk=", "properties": {"@spider": "usps_collection_boxes", "addr:city": "POST", "addr:country": "US", "addr:full": "202 W MAIN ST", "addr:postcode": "79356", "addr:state": "TX", "amenity": "post_box", "brand": "United States Postal Service", "brand:wikidata": "Q668687", "collection_times": "Mo-Fr 16:30; Sa 14:00", "name": "USPS COLLECTION BOX - PO LOBBY", "note": "ON 12/24 AND 12/31, THIS BOX MAY BE COLLECTED AS EARLY AS 12 NOON.", "nsi_id": "unitedstatespostalservice-a77078", "operator": "United States Postal Service", "operator:short": "USPS", "operator:type": "public", "operator:wikidata": "Q668687", "ref": "7935600001"}, "type": "Feature"}
{"dataset_attributes": {"@spider": "usps_collection_boxes", "spider:collection_time": "2024-01-04T08:25:05.301423"}, "geometry": {"coordinates": [-101.379626, 33.190851], "type": "Point"}, "id": "T7MhXlt1ponH6mPn2mUZaXQ02uU=", "properties": {"@spider": "usps_collection_boxes", "addr:city": "POST", "addr:country": "US", "addr:full": "202 W MAIN ST", "addr:postcode": "79356", "addr:state": "TX", "amenity": "post_box", "brand": "United States Postal Service", "brand:wikidata": "Q668687", "collection_times": "Mo-Fr 16:30; Sa 14:00", "name": "USPS COLLECTION BOX - BLUE BOX", "note": "ON 12/24 AND 12/31, THIS BOX MAY BE COLLECTED AS EARLY AS 12 NOON.", "nsi_id": "unitedstatespostalservice-a77078", "operator": "United States Postal Service", "operator:short": "USPS", "operator:type": "public", "operator:wikidata": "Q668687", "ref": "7935600004"}, "type": "Feature"}
{"dataset_attributes": {"@spider": "usps_collection_boxes", "spider:collection_time": "2024-01-04T08:25:05.301423"}, "geometry": {"coordinates": [-101.379626, 33.190851], "type": "Point"}, "id": "N_t8KqeRE2k8qh4gnomHS3EBPaM=", "properties": {"@spider": "usps_collection_boxes", "addr:city": "POST", "addr:country": "US", "addr:full": "202 W MAIN ST", "addr:postcode": "79356", "addr:state": "TX", "amenity": "post_box", "brand": "United States Postal Service", "brand:wikidata": "Q668687", "collection_times": "Mo-Fr 16:30", "name": "USPS COLLECTION BOX - PO LOBBY", "note": "ON 12/24 AND 12/31, THIS BOX MAY BE COLLECTED AS EARLY AS 12 NOON.", "nsi_id": "unitedstatespostalservice-a77078", "operator": "United States Postal Service", "operator:short": "USPS", "operator:type": "public", "operator:wikidata": "Q668687", "ref": "7935600006"}, "type": "Feature"}
{"dataset_attributes": {"@spider": "usps_collection_boxes", "spider:collection_time": "2024-01-04T08:25:05.301423"}, "geometry": {"coordinates": [-101.379669481, 33.190997321], "type": "Point"}, "id": "GUamsONIZLxFnV0SI7sS89D5dT4=", "properties": {"@spider": "usps_collection_boxes", "addr:city": "POST", "addr:country": "US", "addr:full": "202 W MAIN ST", "addr:postcode": "79356", "addr:state": "TX", "amenity": "post_box", "brand": "United States Postal Service", "brand:wikidata": "Q668687", "collection_times": "Mo-Fr 16:30", "name": "USPS COLLECTION BOX - PO LOBBY", "note": "ON 12/24 AND 12/31, THIS BOX MAY BE COLLECTED AS EARLY AS 12 NOON.", "nsi_id": "unitedstatespostalservice-a77078", "operator": "United States Postal Service", "operator:short": "USPS", "operator:type": "public", "operator:wikidata": "Q668687", "ref": "7935600008"}, "type": "Feature"}
{"dataset_attributes": {"@spider": "usps_collection_boxes", "spider:collection_time": "2024-01-04T08:25:05.301423"}, "geometry": {"coordinates": [-101.38626765, 33.679839147], "type": "Point"}, "id": "7ssisnk692oVGwZqaZs5PfFZuuU=", "properties": {"@spider": "usps_collection_boxes", "addr:city": "RALLS", "addr:country": "US", "addr:full": "620 TILFORD AVE", "addr:postcode": "79357", "addr:state": "TX", "amenity": "post_box", "brand": "United States Postal Service", "brand:wikidata": "Q668687", "collection_times": "Mo-Fr 16:00; Sa 09:30", "name": "USPS COLLECTION BOX - BLUE BOX", "note": "ON 12/24 AND 12/31, THIS BOX MAY BE COLLECTED AS EARLY AS 12 NOON.", "nsi_id": "unitedstatespostalservice-a77078", "operator": "United States Postal Service", "operator:short": "USPS", "operator:type": "public", "operator:wikidata": "Q668687", "ref": "7935700000"}, "type": "Feature"}
{"dataset_attributes": {"@spider": "usps_collection_boxes", "spider:collection_time": "2024-01-04T08:25:05.301423"}, "geometry": {"coordinates": [-101.386379, 33.679922], "type": "Point"}, "id": "nlUrE0Bs_XrPdUtyeGGSjYr8iJA=", "properties": {"@spider": "usps_collection_boxes", "addr:city": "RALLS", "addr:country": "US", "addr:full": "620 TILFORD AVE", "addr:postcode": "79357", "addr:state": "TX", "amenity": "post_box", "brand": "United States Postal Service", "brand:wikidata": "Q668687", "collection_times": "Mo-Fr 16:00; Sa 10:00", "name": "USPS COLLECTION BOX - PO LOBBY", "note": "ON 12/24 AND 12/31, THIS BOX MAY BE COLLECTED AS EARLY AS 12 NOON.", "nsi_id": "unitedstatespostalservice-a77078", "operator": "United States Postal Service", "operator:short": "USPS", "operator:type": "public", "operator:wikidata": "Q668687", "ref": "7935700002"}, "type": "Feature"}
{"dataset_attributes": {"@spider": "usps_collection_boxes", "spider:collection_time": "2024-01-04T08:25:05.301423"}, "geometry": {"coordinates": [-101.386381062, 33.679839295], "type": "Point"}, "id": "VneJmQg98-IeI9FoIV8Sa6pWQPc=", "properties": {"@spider": "usps_collection_boxes", "addr:city": "RALLS", "addr:country": "US", "addr:full": "620 TILFORD AVE", "addr:postcode": "79357", "addr:state": "TX", "amenity": "post_box", "brand": "United States Postal Service", "brand:wikidata": "Q668687", "collection_times": "Mo-Fr 16:00", "name": "USPS COLLECTION BOX - PO LOBBY", "note": "ON 12/24 AND 12/31, THIS BOX MAY BE COLLECTED AS EARLY AS 12 NOON.", "nsi_id": "unitedstatespostalservice-a77078", "operator": "United States Postal Service", "operator:short": "USPS", "operator:type": "public", "operator:wikidata": "Q668687", "ref": "7935700005"}, "type": "Feature"}
{"dataset_attributes": {"@spider": "usps_collection_boxes", "spider:collection_time": "2024-01-04T08:25:05.301423"}, "geometry": {"coordinates": [-102.157601, 33.411349], "type": "Point"}, "id": "a_SeNDymliSEFKDFDO8PofoDS_g=", "properties": {"@spider": "usps_collection_boxes", "addr:city": "ROPESVILLE", "addr:country": "US", "addr:full": "403 TIMMONS AVE", "addr:postcode": "79358", "addr:state": "TX", "amenity": "post_box", "brand": "United States Postal Service", "brand:wikidata": "Q668687", "collection_times": "Mo-Fr 16:00; Sa 09:15", "name": "USPS COLLECTION BOX - BLUE BOX", "note": "ON 12/24 AND 12/31, THIS BOX MAY BE COLLECTED AS EARLY AS 12 NOON.", "nsi_id": "unitedstatespostalservice-a77078", "operator": "United States Postal Service", "operator:short": "USPS", "operator:type": "public", "operator:wikidata": "Q668687", "ref": "7935800000"}, "type": "Feature"}
{"dataset_attributes": {"@spider": "usps_collection_boxes", "spider:collection_time": "2024-01-04T08:25:05.301423"}, "geometry": {"coordinates": [-102.157782, 33.410909], "type": "Point"}, "id": "xcw4ZGbDfcNNSWTUP39gAII9Ngk=", "properties": {"@spider": "usps_collection_boxes", "addr:city": "ROPESVILLE", "addr:country": "US", "addr:full": "403 TIMMONS AVE", "addr:postcode": "79358", "addr:state": "TX", "amenity": "post_box", "brand": "United States Postal Service", "brand:wikidata": "Q668687", "collection_times": "Mo-Fr 11:15; Sa 09:15", "name": "USPS COLLECTION BOX - PO LOBBY", "nsi_id": "unitedstatespostalservice-a77078", "operator": "United States Postal Service", "operator:short": "USPS", "operator:type": "public", "operator:wikidata": "Q668687", "ref": "7935800001"}, "type": "Feature"}
{"dataset_attributes": {"@spider": "usps_collection_boxes", "spider:collection_time": "2024-01-04T08:25:05.301423"}, "geometry": {"coordinates": [-102.15755498, 33.411251849], "type": "Point"}, "id": "J2nZeEzEe-9zghuhVWPxWXmWN6w=", "properties": {"@spider": "usps_collection_boxes", "addr:city": "ROPESVILLE", "addr:country": "US", "addr:full": "403 TIMMONS AVE", "addr:postcode": "79358", "addr:state": "TX", "amenity": "post_box", "brand": "United States Postal Service", "brand:wikidata": "Q668687", "collection_times": "Mo-Fr 14:45", "name": "USPS COLLECTION BOX - PO LOBBY", "note": "ON 12/24 AND 12/31, THIS BOX MAY BE COLLECTED AS EARLY AS 12 NOON.", "nsi_id": "unitedstatespostalservice-a77078", "operator": "United States Postal Service", "operator:short": "USPS", "operator:type": "public", "operator:wikidata": "Q668687", "ref": "7935800002"}, "type": "Feature"}
{"dataset_attributes": {"@spider": "usps_collection_boxes", "spider:collection_time": "2024-01-04T08:25:05.301423"}, "geometry": {"coordinates": [-102.5625410409, 32.9406429841], "type": "Point"}, "id": "P2Ym2OdM103UCmzdO3u1XipTEs0=", "properties": {"@spider": "usps_collection_boxes", "addr:city": "SEAGRAVES", "addr:country": "US", "addr:full": "105 MAIN ST", "addr:postcode": "79359", "addr:state": "TX", "amenity": "post_box", "brand": "United States Postal Service", "brand:wikidata": "Q668687", "collection_times": "Mo-Fr 16:00; Sa 10:00", "name": "USPS COLLECTION BOX - BLUE BOX", "note": "ON 12/24 AND 12/31, THIS BOX MAY BE COLLECTED AS EARLY AS 12 NOON.", "nsi_id": "unitedstatespostalservice-a77078", "operator": "United States Postal Service", "operator:short": "USPS", "operator:type": "public", "operator:wikidata": "Q668687", "ref": "7935900000"}, "type": "Feature"}
{"dataset_attributes": {"@spider": "usps_collection_boxes", "spider:collection_time": "2024-01-04T08:25:05.301423"}, "geometry": {"coordinates": [-102.561705, 32.940535], "type": "Point"}, "id": "9v5oYSlVhVEf0sPJU5EEapZt7P8=", "properties": {"@spider": "usps_collection_boxes", "addr:city": "SEAGRAVES", "addr:country": "US", "addr:full": "105 MAIN ST", "addr:postcode": "79359", "addr:state": "TX", "amenity": "post_box", "brand": "United States Postal Service", "brand:wikidata": "Q668687", "collection_times": "Mo-Fr 16:00; Sa 10:00", "name": "USPS COLLECTION BOX - PO LOBBY", "note": "ON 12/24 AND 12/31, THIS BOX MAY BE COLLECTED AS EARLY AS 12 NOON.", "nsi_id": "unitedstatespostalservice-a77078", "operator": "United States Postal Service", "operator:short": "USPS", "operator:type": "public", "operator:wikidata": "Q668687", "ref": "7935900001"}, "type": "Feature"}
{"dataset_attributes": {"@spider": "usps_collection_boxes", "spider:collection_time": "2024-01-04T08:25:05.301423"}, "geometry": {"coordinates": [-102.561705, 32.940535], "type": "Point"}, "id": "uCgN2AalzckYMEjg7hcFj7AVBgw=", "properties": {"@spider": "usps_collection_boxes", "addr:city": "SEAGRAVES", "addr:country": "US", "addr:full": "105 MAIN ST", "addr:postcode": "79359", "addr:state": "TX", "amenity": "post_box", "brand": "United States Postal Service", "brand:wikidata": "Q668687", "collection_times": "Mo-Fr 16:00; Sa 10:00", "name": "USPS COLLECTION BOX - PO LOBBY", "note": "ON 12/24 AND 12/31, THIS BOX MAY BE COLLECTED AS EARLY AS 12 NOON.", "nsi_id": "unitedstatespostalservice-a77078", "operator": "United States Postal Service", "operator:short": "USPS", "operator:type": "public", "operator:wikidata": "Q668687", "ref": "7935900002"}, "type": "Feature"}
{"dataset_attributes": {"@spider": "usps_collection_boxes", "spider:collection_time": "2024-01-04T08:25:05.301423"}, "geometry": {"coordinates": [-102.561795882, 32.940513102], "type": "Point"}, "id": "XrECnRsoBwQO6HvQDCI4HRPiQX8=", "properties": {"@spider": "usps_collection_boxes", "addr:city": "SEAGRAVES", "addr:country": "US", "addr:full": "105 MAIN ST", "addr:postcode": "79359", "addr:state": "TX", "amenity": "post_box", "brand": "United States Postal Service", "brand:wikidata": "Q668687", "collection_times": "Mo-Fr 16:00", "name": "USPS COLLECTION BOX - PO LOBBY", "note": "ON 12/24 AND 12/31, THIS BOX MAY BE COLLECTED AS EARLY AS 12 NOON.", "nsi_id": "unitedstatespostalservice-a77078", "operator": "United States Postal Service", "operator:short": "USPS", "operator:type": "public", "operator:wikidata": "Q668687", "ref": "7935900003"}, "type": "Feature"}
{"dataset_attributes": {"@spider": "usps_collection_boxes", "spider:collection_time": "2024-01-04T08:25:05.301423"}, "geometry": {"coordinates": [-102.642534, 32.717882], "type": "Point"}, "id": "A7YQIIseas3FIdyHbezKA8urUNA=", "properties": {"@spider": "usps_collection_boxes", "addr:city": "SEMINOLE", "addr:country": "US", "addr:full": "201 SE 3RD ST", "addr:postcode": "79360", "addr:state": "TX", "amenity": "post_box", "brand": "United States Postal Service", "brand:wikidata": "Q668687", "collection_times": "Mo-Fr 16:00; Sa 14:45", "name": "USPS COLLECTION BOX - BLUE BOX", "note": "ON 12/24 AND 12/31, THIS BOX MAY BE COLLECTED AS EARLY AS 12 NOON.", "nsi_id": "unitedstatespostalservice-a77078", "operator": "United States Postal Service", "operator:short": "USPS", "operator:type": "public", "operator:wikidata": "Q668687", "ref": "7936000002"}, "type": "Feature"}
{"dataset_attributes": {"@spider": "usps_collection_boxes", "spider:collection_time": "2024-01-04T08:25:05.301423"}, "geometry": {"coordinates": [-102.642567, 32.717972], "type": "Point"}, "id": "woCiu6w2Q4Hz0ADI0Y8C3IHExW8=", "properties": {"@spider": "usps_collection_boxes", "addr:city": "SEMINOLE", "addr:country": "US", "addr:full": "201 SE 3RD ST", "addr:postcode": "79360", "addr:state": "TX", "amenity": "post_box", "brand": "United States Postal Service", "brand:wikidata": "Q668687", "collection_times": "Mo-Fr 16:00; Sa 14:45", "name": "USPS COLLECTION BOX - BLUE BOX", "note": "ON 12/24 AND 12/31, THIS BOX MAY BE COLLECTED AS EARLY AS 12 NOON.", "nsi_id": "unitedstatespostalservice-a77078", "operator": "United States Postal Service", "operator:short": "USPS", "operator:type": "public", "operator:wikidata": "Q668687", "ref": "7936000003"}, "type": "Feature"}
{"dataset_attributes": {"@spider": "usps_collection_boxes", "spider:collection_time": "2024-01-04T08:25:05.301423"}, "geometry": {"coordinates": [-102.642567, 32.717972], "type": "Point"}, "id": "bXyIbZFrW1990-1omI9-bOG4h7c=", "properties": {"@spider": "usps_collection_boxes", "addr:city": "SEMINOLE", "addr:country": "US", "addr:full": "201 SE 3RD ST", "addr:postcode": "79360", "addr:state": "TX", "amenity": "post_box", "brand": "United States Postal Service", "brand:wikidata": "Q668687", "collection_times": "Mo-Fr 16:15; Sa 14:45", "name": "USPS COLLECTION BOX - PO LOBBY", "note": "ON 12/24 AND 12/31, THIS BOX MAY BE COLLECTED AS EARLY AS 12 NOON.", "nsi_id": "unitedstatespostalservice-a77078", "operator": "United States Postal Service", "operator:short": "USPS", "operator:type": "public", "operator:wikidata": "Q668687", "ref": "7936000004"}, "type": "Feature"}
{"dataset_attributes": {"@spider": "usps_collection_boxes", "spider:collection_time": "2024-01-04T08:25:05.301423"}, "geometry": {"coordinates": [-102.642567, 32.717972], "type": "Point"}, "id": "0pXK3DhXFyX9jHApAJdw6Zwp9MU=", "properties": {"@spider": "usps_collection_boxes", "addr:city": "SEMINOLE", "addr:country": "US", "addr:full": "201 SE 3RD ST", "addr:postcode": "79360", "addr:state": "TX", "amenity": "post_box", "brand": "United States Postal Service", "brand:wikidata": "Q668687", "collection_times": "Mo-Fr 16:15; Sa 14:45", "name": "USPS COLLECTION BOX - PO LOBBY", "note": "ON 12/24 AND 12/31, THIS BOX MAY BE COLLECTED AS EARLY AS 12 NOON.", "nsi_id": "unitedstatespostalservice-a77078", "operator": "United States Postal Service", "operator:short": "USPS", "operator:type": "public", "operator:wikidata": "Q668687", "ref": "7936000005"}, "type": "Feature"}
{"dataset_attributes": {"@spider": "usps_collection_boxes", "spider:collection_time": "2024-01-04T08:25:05.301423"}, "geometry": {"coordinates": [-102.642567, 32.717972], "type": "Point"}, "id": "Nf1PJn1yzYgtSnJ-Ldqn3FFEMJ8=", "properties": {"@spider": "usps_collection_boxes", "addr:city": "SEMINOLE", "addr:country": "US", "addr:full": "201 SE 3RD ST", "addr:postcode": "79360", "addr:state": "TX", "amenity": "post_box", "brand": "United States Postal Service", "brand:wikidata": "Q668687", "collection_times": "Mo-Fr 16:15; Sa 14:45", "name": "USPS COLLECTION BOX - PO LOBBY", "note": "ON 12/24 AND 12/31, THIS BOX MAY BE COLLECTED AS EARLY AS 12 NOON.", "nsi_id": "unitedstatespostalservice-a77078", "operator": "United States Postal Service", "operator:short": "USPS", "operator:type": "public", "operator:wikidata": "Q668687", "ref": "7936000006"}, "type": "Feature"}
{"dataset_attributes": {"@spider": "usps_collection_boxes", "spider:collection_time": "2024-01-04T08:25:05.301423"}, "geometry": {"coordinates": [-102.642575058, 32.717904048], "type": "Point"}, "id": "Nn0JMcTUX4mJGR5BI6N0jSW0aIw=", "properties": {"@spider": "usps_collection_boxes", "addr:city": "SEMINOLE", "addr:country": "US", "addr:full": "201 SE 3RD ST", "addr:postcode": "79360", "addr:state": "TX", "amenity": "post_box", "brand": "United States Postal Service", "brand:wikidata": "Q668687", "collection_times": "Mo-Fr 16:15", "name": "USPS COLLECTION BOX - PO LOBBY", "note": "ON 12/24 AND 12/31, THIS BOX MAY BE COLLECTED AS EARLY AS 12 NOON.", "nsi_id": "unitedstatespostalservice-a77078", "operator": "United States Postal Service", "operator:short": "USPS", "operator:type": "public", "operator:wikidata": "Q668687", "ref": "7936000007"}, "type": "Feature"}
{"dataset_attributes": {"@spider": "usps_collection_boxes", "spider:collection_time": "2024-01-04T08:25:05.301423"}, "geometry": {"coordinates": [-101.9889300233, 33.6806260206], "type": "Point"}, "id": "8A6zd-4dEHjWEcTxJmlUIfnLSyU=", "properties": {"@spider": "usps_collection_boxes", "addr:city": "SHALLOWATER", "addr:country": "US", "addr:full": "105 CLOVIS RD", "addr:postcode": "79363", "addr:state": "TX", "amenity": "post_box", "brand": "United States Postal Service", "brand:wikidata": "Q668687", "collection_times": "Mo-Fr 16:30; Sa 11:00", "name": "USPS COLLECTION BOX - BLUE BOX", "note": "ON 12/24 AND 12/31, THIS BOX MAY BE COLLECTED AS EARLY AS 12 NOON.", "nsi_id": "unitedstatespostalservice-a77078", "operator": "United States Postal Service", "operator:short": "USPS", "operator:type": "public", "operator:wikidata": "Q668687", "ref": "7936300000"}, "type": "Feature"}
{"dataset_attributes": {"@spider": "usps_collection_boxes", "spider:collection_time": "2024-01-04T08:25:05.301423"}, "geometry": {"coordinates": [-101.9889300233, 33.6806260206], "type": "Point"}, "id": "wDuoN2FrZoSUwFn79GQqh0HKwTc=", "properties": {"@spider": "usps_collection_boxes", "addr:city": "SHALLOWATER", "addr:country": "US", "addr:full": "105 CLOVIS RD", "addr:postcode": "79363", "addr:state": "TX", "amenity": "post_box", "brand": "United States Postal Service", "brand:wikidata": "Q668687", "collection_times": "Mo-Fr 16:30; Sa 11:00", "name": "USPS COLLECTION BOX - PO LOBBY", "note": "ON 12/24 AND 12/31, THIS BOX MAY BE COLLECTED AS EARLY AS 12 NOON.", "nsi_id": "unitedstatespostalservice-a77078", "operator": "United States Postal Service", "operator:short": "USPS", "operator:type": "public", "operator:wikidata": "Q668687", "ref": "7936300002"}, "type": "Feature"}
{"dataset_attributes": {"@spider": "usps_collection_boxes", "spider:collection_time": "2024-01-04T08:25:05.301423"}, "geometry": {"coordinates": [-101.9889300233, 33.6806260206], "type": "Point"}, "id": "Pc0WEc_iOZzTgrd0sUlqIRxP3K0=", "properties": {"@spider": "usps_collection_boxes", "addr:city": "SHALLOWATER", "addr:country": "US", "addr:full": "105 CLOVIS RD", "addr:postcode": "79363", "addr:state": "TX", "amenity": "post_box", "brand": "United States Postal Service", "brand:wikidata": "Q668687", "collection_times": "Mo-Fr 16:30; Sa 11:00", "name": "USPS COLLECTION BOX - BLUE BOX", "note": "ON 12/24 AND 12/31, THIS BOX MAY BE COLLECTED AS EARLY AS 12 NOON.", "nsi_id": "unitedstatespostalservice-a77078", "operator": "United States Postal Service", "operator:short": "USPS", "operator:type": "public", "operator:wikidata": "Q668687", "ref": "7936300003"}, "type": "Feature"}
{"dataset_attributes": {"@spider": "usps_collection_boxes", "spider:collection_time": "2024-01-04T08:25:05.301423"}, "geometry": {"coordinates": [-101.9889300233, 33.6806260206], "type": "Point"}, "id": "Qu1hy_f3EUjg3I0qs_ZPQ3cHjt4=", "properties": {"@spider": "usps_collection_boxes", "addr:city": "SHALLOWATER", "addr:country": "US", "addr:full": "105 CLOVIS RD", "addr:postcode": "79363", "addr:state": "TX", "amenity": "post_box", "brand": "United States Postal Service", "brand:wikidata": "Q668687", "collection_times": "Mo-Fr 16:30", "name": "USPS COLLECTION BOX - PO LOBBY", "note": "ON 12/24 AND 12/31, THIS BOX MAY BE COLLECTED AS EARLY AS 12 NOON.", "nsi_id": "unitedstatespostalservice-a77078", "operator": "United States Postal Service", "operator:short": "USPS", "operator:type": "public", "operator:wikidata": "Q668687", "ref": "7936300005"}, "type": "Feature"}
{"dataset_attributes": {"@spider": "usps_collection_boxes", "spider:collection_time": "2024-01-04T08:25:05.301423"}, "geometry": {"coordinates": [-101.657563, 33.448343], "type": "Point"}, "id": "93-nze9uJs4iw_mpaPH1QriTX4w=", "properties": {"@spider": "usps_collection_boxes", "addr:city": "SLATON", "addr:country": "US", "addr:full": "1055 N 20TH ST", "addr:postcode": "79364", "addr:state": "TX", "amenity": "post_box", "brand": "United States Postal Service", "brand:wikidata": "Q668687", "collection_times": "Mo-Sa 12:00", "name": "USPS COLLECTION BOX - BLUE BOX", "nsi_id": "unitedstatespostalservice-a77078", "operator": "United States Postal Service", "operator:short": "USPS", "operator:type": "public", "operator:wikidata": "Q668687", "ref": "7936400002"}, "type": "Feature"}
{"dataset_attributes": {"@spider": "usps_collection_boxes", "spider:collection_time": "2024-01-04T08:25:05.301423"}, "geometry": {"coordinates": [-101.643821, 33.439206], "type": "Point"}, "id": "AVuGWWVA5uvEquvdvmhwy6M2udU=", "properties": {"@spider": "usps_collection_boxes", "addr:city": "SLATON", "addr:country": "US", "addr:full": "150 W LYNN ST", "addr:postcode": "79364", "addr:state": "TX", "amenity": "post_box", "brand": "United States Postal Service", "brand:wikidata": "Q668687", "collection_times": "Mo-Fr 16:00; Sa 15:00", "name": "USPS COLLECTION BOX - BLUE BOX", "note": "ON 12/24 AND 12/31, THIS BOX MAY BE COLLECTED AS EARLY AS 12 NOON.", "nsi_id": "unitedstatespostalservice-a77078", "operator": "United States Postal Service", "operator:short": "USPS", "operator:type": "public", "operator:wikidata": "Q668687", "ref": "7936400006"}, "type": "Feature"}
{"dataset_attributes": {"@spider": "usps_collection_boxes", "spider:collection_time": "2024-01-04T08:25:05.301423"}, "geometry": {"coordinates": [-101.643816, 33.43918], "type": "Point"}, "id": "gV74Od8-_GjsxAOxxfR5UhrBaKU=", "properties": {"@spider": "usps_collection_boxes", "addr:city": "SLATON", "addr:country": "US", "addr:full": "150 W LYNN ST", "addr:postcode": "79364", "addr:state": "TX", "amenity": "post_box", "brand": "United States Postal Service", "brand:wikidata": "Q668687", "collection_times": "Mo-Fr 16:00; Sa 15:00", "name": "USPS COLLECTION BOX - BLUE BOX", "note": "ON 12/24 AND 12/31, THIS BOX MAY BE COLLECTED AS EARLY AS 12 NOON.", "nsi_id": "unitedstatespostalservice-a77078", "operator": "United States Postal Service", "operator:short": "USPS", "operator:type": "public", "operator:wikidata": "Q668687", "ref": "7936400007"}, "type": "Feature"}
{"dataset_attributes": {"@spider": "usps_collection_boxes", "spider:collection_time": "2024-01-04T08:25:05.301423"}, "geometry": {"coordinates": [-101.677803, 33.535956], "type": "Point"}, "id": "iVWlIZmAuWKDDZzGnjA0Yz6CeGE=", "properties": {"@spider": "usps_collection_boxes", "addr:city": "SLATON", "addr:country": "US", "addr:full": "24 LEE KITCHENS DR", "addr:postcode": "79364", "addr:state": "TX", "amenity": "post_box", "brand": "United States Postal Service", "brand:wikidata": "Q668687", "collection_times": "Mo-Sa 10:15", "name": "USPS COLLECTION BOX - BLUE BOX", "nsi_id": "unitedstatespostalservice-a77078", "operator": "United States Postal Service", "operator:short": "USPS", "operator:type": "public", "operator:wikidata": "Q668687", "ref": "7936400008"}, "type": "Feature"}
{"dataset_attributes": {"@spider": "usps_collection_boxes", "spider:collection_time": "2024-01-04T08:25:05.301423"}, "geometry": {"coordinates": [-101.643816, 33.43918], "type": "Point"}, "id": "q-pD5XSjgMJ2s-InV4HVhJGTl6k=", "properties": {"@spider": "usps_collection_boxes", "addr:city": "SLATON", "addr:country": "US", "addr:full": "150 W LYNN ST", "addr:postcode": "79364", "addr:state": "TX", "amenity": "post_box", "brand": "United States Postal Service", "brand:wikidata": "Q668687", "collection_times": "Mo-Fr 16:00; Sa 15:00", "name": "USPS COLLECTION BOX - PO LOBBY", "note": "ON 12/24 AND 12/31, THIS BOX MAY BE COLLECTED AS EARLY AS 12 NOON.", "nsi_id": "unitedstatespostalservice-a77078", "operator": "United States Postal Service", "operator:short": "USPS", "operator:type": "public", "operator:wikidata": "Q668687", "ref": "7936400009"}, "type": "Feature"}
{"dataset_attributes": {"@spider": "usps_collection_boxes", "spider:collection_time": "2024-01-04T08:25:05.301423"}, "geometry": {"coordinates": [-101.643816, 33.43918], "type": "Point"}, "id": "aIczYPkAQB70W96AdPBFFUPt1FI=", "properties": {"@spider": "usps_collection_boxes", "addr:city": "SLATON", "addr:country": "US", "addr:full": "150 W LYNN ST", "addr:postcode": "79364", "addr:state": "TX", "amenity": "post_box", "brand": "United States Postal Service", "brand:wikidata": "Q668687", "collection_times": "Mo-Fr 16:00; Sa 15:00", "name": "USPS COLLECTION BOX - PO LOBBY", "note": "ON 12/24 AND 12/31, THIS BOX MAY BE COLLECTED AS EARLY AS 12 NOON.", "nsi_id": "unitedstatespostalservice-a77078", "operator": "United States Postal Service", "operator:short": "USPS", "operator:type": "public", "operator:wikidata": "Q668687", "ref": "7936400011"}, "type": "Feature"}
{"dataset_attributes": {"@spider": "usps_collection_boxes", "spider:collection_time": "2024-01-04T08:25:05.301423"}, "geometry": {"coordinates": [-101.687559, 33.544701], "type": "Point"}, "id": "ZgwhK0xM7O72KU1qf-RYqnLDWAk=", "properties": {"@spider": "usps_collection_boxes", "addr:city": "SLATON", "addr:country": "US", "addr:full": "8312 E FM 3523", "addr:postcode": "79364", "addr:state": "TX", "amenity": "post_box", "brand": "United States Postal Service", "brand:wikidata": "Q668687", "collection_times": "Mo-Sa 10:00", "name": "USPS COLLECTION BOX - BLUE BOX", "nsi_id": "unitedstatespostalservice-a77078", "operator": "United States Postal Service", "operator:short": "USPS", "operator:type": "public", "operator:wikidata": "Q668687", "ref": "7936400013"}, "type": "Feature"}
{"dataset_attributes": {"@spider": "usps_collection_boxes", "spider:collection_time": "2024-01-04T08:25:05.301423"}, "geometry": {"coordinates": [-101.644117307, 33.439151166], "type": "Point"}, "id": "XtMIMN7SJNbtCZa48dgs22kNLOc=", "properties": {"@spider": "usps_collection_boxes", "addr:city": "SLATON", "addr:country": "US", "addr:full": "150 W LYNN ST", "addr:postcode": "79364", "addr:state": "TX", "amenity": "post_box", "brand": "United States Postal Service", "brand:wikidata": "Q668687", "collection_times": "Mo-Fr 16:00", "name": "USPS COLLECTION BOX - PO LOBBY", "note": "ON 12/24 AND 12/31, THIS BOX MAY BE COLLECTED AS EARLY AS 12 NOON.", "nsi_id": "unitedstatespostalservice-a77078", "operator": "United States Postal Service", "operator:short": "USPS", "operator:type": "public", "operator:wikidata": "Q668687", "ref": "7936400017"}, "type": "Feature"}
{"dataset_attributes": {"@spider": "usps_collection_boxes", "spider:collection_time": "2024-01-04T08:25:05.301423"}, "geometry": {"coordinates": [-102.154037, 33.583502], "type": "Point"}, "id": "oyEMDVFThHi5PcYSuvY5WZo7Tas=", "properties": {"@spider": "usps_collection_boxes", "addr:city": "SMYER", "addr:country": "US", "addr:full": "1002 1ST ST", "addr:postcode": "79367", "addr:state": "TX", "amenity": "post_box", "brand": "United States Postal Service", "brand:wikidata": "Q668687", "collection_times": "Mo-Fr 16:00; Sa 10:00", "name": "USPS COLLECTION BOX - PO LOBBY", "note": "ON 12/24 AND 12/31, THIS BOX MAY BE COLLECTED AS EARLY AS 12 NOON.", "nsi_id": "unitedstatespostalservice-a77078", "operator": "United States Postal Service", "operator:short": "USPS", "operator:type": "public", "operator:wikidata": "Q668687", "ref": "7936700000"}, "type": "Feature"}
{"dataset_attributes": {"@spider": "usps_collection_boxes", "spider:collection_time": "2024-01-04T08:25:05.301423"}, "geometry": {"coordinates": [-102.165105, 33.58403], "type": "Point"}, "id": "bBcd_ejG7LwaxNr3eZs9fJK9dDU=", "properties": {"@spider": "usps_collection_boxes", "addr:city": "SMYER", "addr:country": "US", "addr:full": "1002 1ST ST", "addr:postcode": "79367", "addr:state": "TX", "amenity": "post_box", "brand": "United States Postal Service", "brand:wikidata": "Q668687", "collection_times": "Mo-Fr 16:00; Sa 10:00", "name": "USPS COLLECTION BOX - BLUE BOX", "note": "ON 12/24 AND 12/31, THIS BOX MAY BE COLLECTED AS EARLY AS 12 NOON.", "nsi_id": "unitedstatespostalservice-a77078", "operator": "United States Postal Service", "operator:short": "USPS", "operator:type": "public", "operator:wikidata": "Q668687", "ref": "7936700002"}, "type": "Feature"}
{"dataset_attributes": {"@spider": "usps_collection_boxes", "spider:collection_time": "2024-01-04T08:25:05.301423"}, "geometry": {"coordinates": [-102.164512113, 33.584090629], "type": "Point"}, "id": "mBbF5Hn_8ivfTRUfYWIfFWQt4wA=", "properties": {"@spider": "usps_collection_boxes", "addr:city": "SMYER", "addr:country": "US", "addr:full": "1002 1ST ST", "addr:postcode": "79367", "addr:state": "TX", "amenity": "post_box", "brand": "United States Postal Service", "brand:wikidata": "Q668687", "collection_times": "Mo-Fr 16:00; Sa 09:30", "name": "USPS COLLECTION BOX - PO LOBBY", "note": "ON 12/24 AND 12/31, THIS BOX MAY BE COLLECTED AS EARLY AS 12 NOON.", "nsi_id": "unitedstatespostalservice-a77078", "operator": "United States Postal Service", "operator:short": "USPS", "operator:type": "public", "operator:wikidata": "Q668687", "ref": "7936700003"}, "type": "Feature"}
{"dataset_attributes": {"@spider": "usps_collection_boxes", "spider:collection_time": "2024-01-04T08:25:05.301423"}, "geometry": {"coordinates": [-102.1500812674, 33.9255705529], "type": "Point"}, "id": "MHlRoiINA6KYzCnemnh7OnQVQNo=", "properties": {"@spider": "usps_collection_boxes", "addr:city": "SPADE", "addr:country": "US", "addr:full": "2756 FM 168", "addr:postcode": "79369", "addr:state": "TX", "amenity": "post_box", "brand": "United States Postal Service", "brand:wikidata": "Q668687", "collection_times": "Mo-Sa 11:00", "name": "USPS COLLECTION BOX - BLUE BOX", "nsi_id": "unitedstatespostalservice-a77078", "operator": "United States Postal Service", "operator:short": "USPS", "operator:type": "public", "operator:wikidata": "Q668687", "ref": "7936900000"}, "type": "Feature"}
{"dataset_attributes": {"@spider": "usps_collection_boxes", "spider:collection_time": "2024-01-04T08:25:05.301423"}, "geometry": {"coordinates": [-102.1500812674, 33.9255705529], "type": "Point"}, "id": "oCihw_3bOAC0pAxzdVAPe8tpr4Y=", "properties": {"@spider": "usps_collection_boxes", "addr:city": "SPADE", "addr:country": "US", "addr:full": "2756 FM 168", "addr:postcode": "79369", "addr:state": "TX", "amenity": "post_box", "brand": "United States Postal Service", "brand:wikidata": "Q668687", "collection_times": "Mo-Sa 11:00", "name": "USPS COLLECTION BOX - PO LOBBY", "nsi_id": "unitedstatespostalservice-a77078", "operator": "United States Postal Service", "operator:short": "USPS", "operator:type": "public", "operator:wikidata": "Q668687", "ref": "7936900001"}, "type": "Feature"}
{"dataset_attributes": {"@spider": "usps_collection_boxes", "spider:collection_time": "2024-01-04T08:25:05.301423"}, "geometry": {"coordinates": [-102.153998201, 33.924342719], "type": "Point"}, "id": "mFFrG0FWuCoEj3yPwVcik7GPd14=", "properties": {"@spider": "usps_collection_boxes", "addr:city": "SPADE", "addr:country": "US", "addr:full": "2756 FM 168", "addr:postcode": "79369", "addr:state": "TX", "amenity": "post_box", "brand": "United States Postal Service", "brand:wikidata": "Q668687", "collection_times": "Mo-Sa 11:30", "name": "USPS COLLECTION BOX - PO LOBBY", "nsi_id": "unitedstatespostalservice-a77078", "operator": "United States Postal Service", "operator:short": "USPS", "operator:type": "public", "operator:wikidata": "Q668687", "ref": "7936900003"}, "type": "Feature"}
{"dataset_attributes": {"@spider": "usps_collection_boxes", "spider:collection_time": "2024-01-04T08:25:05.301423"}, "geometry": {"coordinates": [-100.862437, 33.478958], "type": "Point"}, "id": "VuYiRJw74rZphExRg9r3B8-JoYA=", "properties": {"@spider": "usps_collection_boxes", "addr:city": "SPUR", "addr:country": "US", "addr:full": "210 W HARRIS ST", "addr:postcode": "79370", "addr:state": "TX", "amenity": "post_box", "brand": "United States Postal Service", "brand:wikidata": "Q668687", "collection_times": "Mo-Fr 15:30; Sa 10:00", "name": "USPS COLLECTION BOX - BLUE BOX", "note": "ON 12/24 AND 12/31, THIS BOX MAY BE COLLECTED AS EARLY AS 12 NOON.", "nsi_id": "unitedstatespostalservice-a77078", "operator": "United States Postal Service", "operator:short": "USPS", "operator:type": "public", "operator:wikidata": "Q668687", "ref": "7937000002"}, "type": "Feature"}
{"dataset_attributes": {"@spider": "usps_collection_boxes", "spider:collection_time": "2024-01-04T08:25:05.301423"}, "geometry": {"coordinates": [-100.862364, 33.478955], "type": "Point"}, "id": "JMEwEMvbjV5G2iSv9STRcDy5l6k=", "properties": {"@spider": "usps_collection_boxes", "addr:city": "SPUR", "addr:country": "US", "addr:full": "210 W HARRIS ST", "addr:postcode": "79370", "addr:state": "TX", "amenity": "post_box", "brand": "United States Postal Service", "brand:wikidata": "Q668687", "collection_times": "Mo-Fr 15:30; Sa 10:00", "name": "USPS COLLECTION BOX - PO LOBBY", "note": "ON 12/24 AND 12/31, THIS BOX MAY BE COLLECTED AS EARLY AS 12 NOON.", "nsi_id": "unitedstatespostalservice-a77078", "operator": "United States Postal Service", "operator:short": "USPS", "operator:type": "public", "operator:wikidata": "Q668687", "ref": "7937000004"}, "type": "Feature"}
{"dataset_attributes": {"@spider": "usps_collection_boxes", "spider:collection_time": "2024-01-04T08:25:05.301423"}, "geometry": {"coordinates": [-100.856920985, 33.476882962], "type": "Point"}, "id": "gX1359uLUEyh7kYx4kvUEUHIUAM=", "properties": {"@spider": "usps_collection_boxes", "addr:city": "SPUR", "addr:country": "US", "addr:full": "210 W HARRIS ST", "addr:postcode": "79370", "addr:state": "TX", "amenity": "post_box", "brand": "United States Postal Service", "brand:wikidata": "Q668687", "collection_times": "Mo-Fr 16:00", "name": "USPS COLLECTION BOX - PO LOBBY", "note": "ON 12/24 AND 12/31, THIS BOX MAY BE COLLECTED AS EARLY AS 12 NOON.", "nsi_id": "unitedstatespostalservice-a77078", "operator": "United States Postal Service", "operator:short": "USPS", "operator:type": "public", "operator:wikidata": "Q668687", "ref": "7937000005"}, "type": "Feature"}
{"dataset_attributes": {"@spider": "usps_collection_boxes", "spider:collection_time": "2024-01-04T08:25:05.301423"}, "geometry": {"coordinates": [-102.523653, 34.066939], "type": "Point"}, "id": "_scUVhiUd9wH4RKNiZevRBcObo4=", "properties": {"@spider": "usps_collection_boxes", "addr:city": "SUDAN", "addr:country": "US", "addr:full": "105 HORNET DR", "addr:postcode": "79371", "addr:state": "TX", "amenity": "post_box", "brand": "United States Postal Service", "brand:wikidata": "Q668687", "collection_times": "Mo-Fr 14:45; Sa 09:30", "name": "USPS COLLECTION BOX - BLUE BOX", "note": "ON 12/24 AND 12/31, THIS BOX MAY BE COLLECTED AS EARLY AS 12 NOON.", "nsi_id": "unitedstatespostalservice-a77078", "operator": "United States Postal Service", "operator:short": "USPS", "operator:type": "public", "operator:wikidata": "Q668687", "ref": "7937100000"}, "type": "Feature"}
{"dataset_attributes": {"@spider": "usps_collection_boxes", "spider:collection_time": "2024-01-04T08:25:05.301423"}, "geometry": {"coordinates": [-102.527517, 34.06007], "type": "Point"}, "id": "JR0P08YkLgh_1KWtPomoBr_93Oo=", "properties": {"@spider": "usps_collection_boxes", "addr:city": "SUDAN", "addr:country": "US", "addr:full": "105 HORNET DR", "addr:postcode": "79371", "addr:state": "TX", "amenity": "post_box", "brand": "United States Postal Service", "brand:wikidata": "Q668687", "collection_times": "Mo-Fr 14:45; Sa 09:45", "name": "USPS COLLECTION BOX - PO LOBBY", "note": "ON 12/24 AND 12/31, THIS BOX MAY BE COLLECTED AS EARLY AS 12 NOON.", "nsi_id": "unitedstatespostalservice-a77078", "operator": "United States Postal Service", "operator:short": "USPS", "operator:type": "public", "operator:wikidata": "Q668687", "ref": "7937100003"}, "type": "Feature"}
{"dataset_attributes": {"@spider": "usps_collection_boxes", "spider:collection_time": "2024-01-04T08:25:05.301423"}, "geometry": {"coordinates": [-102.523929718, 34.066635675], "type": "Point"}, "id": "OsULIWqFu7jnhQwSCxQb7bitAcs=", "properties": {"@spider": "usps_collection_boxes", "addr:city": "SUDAN", "addr:country": "US", "addr:full": "105 HORNET DR", "addr:postcode": "79371", "addr:state": "TX", "amenity": "post_box", "brand": "United States Postal Service", "brand:wikidata": "Q668687", "collection_times": "Mo-Fr 15:00", "name": "USPS COLLECTION BOX - PO LOBBY", "note": "ON 12/24 AND 12/31, THIS BOX MAY BE COLLECTED AS EARLY AS 12 NOON.", "nsi_id": "unitedstatespostalservice-a77078", "operator": "United States Postal Service", "operator:short": "USPS", "operator:type": "public", "operator:wikidata": "Q668687", "ref": "7937100004"}, "type": "Feature"}
{"dataset_attributes": {"@spider": "usps_collection_boxes", "spider:collection_time": "2024-01-04T08:25:05.301423"}, "geometry": {"coordinates": [-102.489332, 33.457552], "type": "Point"}, "id": "AWee8fVJc3Uawzv6Vvko8qIyoSM=", "properties": {"@spider": "usps_collection_boxes", "addr:city": "SUNDOWN", "addr:country": "US", "addr:full": "807 S SLAUGHTER AVE", "addr:postcode": "79372", "addr:state": "TX", "amenity": "post_box", "brand": "United States Postal Service", "brand:wikidata": "Q668687", "collection_times": "Mo-Fr 16:00; Sa 09:00", "name": "USPS COLLECTION BOX - BLUE BOX", "note": "ON 12/24 AND 12/31, THIS BOX MAY BE COLLECTED AS EARLY AS 12 NOON.", "nsi_id": "unitedstatespostalservice-a77078", "operator": "United States Postal Service", "operator:short": "USPS", "operator:type": "public", "operator:wikidata": "Q668687", "ref": "7937200000"}, "type": "Feature"}
{"dataset_attributes": {"@spider": "usps_collection_boxes", "spider:collection_time": "2024-01-04T08:25:05.301423"}, "geometry": {"coordinates": [-102.489361, 33.457631], "type": "Point"}, "id": "XXurL-EFBerWXPDcbfeTIAm-oVk=", "properties": {"@spider": "usps_collection_boxes", "addr:city": "SUNDOWN", "addr:country": "US", "addr:full": "807 S SLAUGHTER AVE", "addr:postcode": "79372", "addr:state": "TX", "amenity": "post_box", "brand": "United States Postal Service", "brand:wikidata": "Q668687", "collection_times": "Mo-Fr 16:00; Sa 09:00", "name": "USPS COLLECTION BOX - PO LOBBY", "note": "ON 12/24 AND 12/31, THIS BOX MAY BE COLLECTED AS EARLY AS 12 NOON.", "nsi_id": "unitedstatespostalservice-a77078", "operator": "United States Postal Service", "operator:short": "USPS", "operator:type": "public", "operator:wikidata": "Q668687", "ref": "7937200002"}, "type": "Feature"}
{"dataset_attributes": {"@spider": "usps_collection_boxes", "spider:collection_time": "2024-01-04T08:25:05.301423"}, "geometry": {"coordinates": [-102.489296558, 33.457903608], "type": "Point"}, "id": "ifvP0rQd30vsH-DoA1EjaZtIQ10=", "properties": {"@spider": "usps_collection_boxes", "addr:city": "SUNDOWN", "addr:country": "US", "addr:full": "807 S SLAUGHTER AVE", "addr:postcode": "79372", "addr:state": "TX", "amenity": "post_box", "brand": "United States Postal Service", "brand:wikidata": "Q668687", "collection_times": "Mo-Fr 16:00", "name": "USPS COLLECTION BOX - PO LOBBY", "note": "ON 12/24 AND 12/31, THIS BOX MAY BE COLLECTED AS EARLY AS 12 NOON.", "nsi_id": "unitedstatespostalservice-a77078", "operator": "United States Postal Service", "operator:short": "USPS", "operator:type": "public", "operator:wikidata": "Q668687", "ref": "7937200003"}, "type": "Feature"}
{"dataset_attributes": {"@spider": "usps_collection_boxes", "spider:collection_time": "2024-01-04T08:25:05.301423"}, "geometry": {"coordinates": [-101.797511, 33.164382], "type": "Point"}, "id": "d946nNyFWHvJXTcMhwUh5HKNCHo=", "properties": {"@spider": "usps_collection_boxes", "addr:city": "TAHOKA", "addr:country": "US", "addr:full": "1525 CONWAY ST", "addr:postcode": "79373", "addr:state": "TX", "amenity": "post_box", "brand": "United States Postal Service", "brand:wikidata": "Q668687", "collection_times": "Mo-Fr 16:00; Sa 08:30", "name": "USPS COLLECTION BOX - BLUE BOX", "note": "ON 12/24 AND 12/31, THIS BOX MAY BE COLLECTED AS EARLY AS 12 NOON.", "nsi_id": "unitedstatespostalservice-a77078", "operator": "United States Postal Service", "operator:short": "USPS", "operator:type": "public", "operator:wikidata": "Q668687", "ref": "7937300000"}, "type": "Feature"}
{"dataset_attributes": {"@spider": "usps_collection_boxes", "spider:collection_time": "2024-01-04T08:25:05.301423"}, "geometry": {"coordinates": [-101.797479, 33.164337], "type": "Point"}, "id": "mtIKpUAsWEJBNKHHF9BnJR0BjQI=", "properties": {"@spider": "usps_collection_boxes", "addr:city": "TAHOKA", "addr:country": "US", "addr:full": "1525 CONWAY ST", "addr:postcode": "79373", "addr:state": "TX", "amenity": "post_box", "brand": "United States Postal Service", "brand:wikidata": "Q668687", "collection_times": "Mo-Fr 16:00; Sa 08:30", "name": "USPS COLLECTION BOX - PO LOBBY", "note": "ON 12/24 AND 12/31, THIS BOX MAY BE COLLECTED AS EARLY AS 12 NOON.", "nsi_id": "unitedstatespostalservice-a77078", "operator": "United States Postal Service", "operator:short": "USPS", "operator:type": "public", "operator:wikidata": "Q668687", "ref": "7937300001"}, "type": "Feature"}
{"dataset_attributes": {"@spider": "usps_collection_boxes", "spider:collection_time": "2024-01-04T08:25:05.301423"}, "geometry": {"coordinates": [-101.797553307, 33.164297361], "type": "Point"}, "id": "l8fkp2IjFg9tI4DuHjrgwivAAnc=", "properties": {"@spider": "usps_collection_boxes", "addr:city": "TAHOKA", "addr:country": "US", "addr:full": "1525 CONWAY ST", "addr:postcode": "79373", "addr:state": "TX", "amenity": "post_box", "brand": "United States Postal Service", "brand:wikidata": "Q668687", "collection_times": "Mo-Fr 16:00", "name": "USPS COLLECTION BOX - PO LOBBY", "note": "ON 12/24 AND 12/31, THIS BOX MAY BE COLLECTED AS EARLY AS 12 NOON.", "nsi_id": "unitedstatespostalservice-a77078", "operator": "United States Postal Service", "operator:short": "USPS", "operator:type": "public", "operator:wikidata": "Q668687", "ref": "7937300002"}, "type": "Feature"}
{"dataset_attributes": {"@spider": "usps_collection_boxes", "spider:collection_time": "2024-01-04T08:25:05.301423"}, "geometry": {"coordinates": [-102.127267, 32.926231], "type": "Point"}, "id": "85utUVkR6v1XAPiMJ2Od0uQKea0=", "properties": {"@spider": "usps_collection_boxes", "addr:city": "WELCH", "addr:country": "US", "addr:full": "218 JUNIPER ST", "addr:postcode": "79377", "addr:state": "TX", "amenity": "post_box", "brand": "United States Postal Service", "brand:wikidata": "Q668687", "collection_times": "Mo-Fr 12:15; Sa 11:45", "name": "USPS COLLECTION BOX - BLUE BOX", "note": "ON 12/24 AND 12/31, THIS BOX MAY BE COLLECTED AS EARLY AS 12 NOON.", "nsi_id": "unitedstatespostalservice-a77078", "operator": "United States Postal Service", "operator:short": "USPS", "operator:type": "public", "operator:wikidata": "Q668687", "ref": "7937700000"}, "type": "Feature"}
{"dataset_attributes": {"@spider": "usps_collection_boxes", "spider:collection_time": "2024-01-04T08:25:05.301423"}, "geometry": {"coordinates": [-102.127267, 32.926231], "type": "Point"}, "id": "L910X5Rmjl0YWSDQ_xYGZjNCIg0=", "properties": {"@spider": "usps_collection_boxes", "addr:city": "WELCH", "addr:country": "US", "addr:full": "218 JUNIPER ST", "addr:postcode": "79377", "addr:state": "TX", "amenity": "post_box", "brand": "United States Postal Service", "brand:wikidata": "Q668687", "collection_times": "Mo-Fr 12:15; Sa 11:45", "name": "USPS COLLECTION BOX - PO LOBBY", "note": "ON 12/24 AND 12/31, THIS BOX MAY BE COLLECTED AS EARLY AS 12 NOON.", "nsi_id": "unitedstatespostalservice-a77078", "operator": "United States Postal Service", "operator:short": "USPS", "operator:type": "public", "operator:wikidata": "Q668687", "ref": "7937700001"}, "type": "Feature"}
{"dataset_attributes": {"@spider": "usps_collection_boxes", "spider:collection_time": "2024-01-04T08:25:05.301423"}, "geometry": {"coordinates": [-102.12626461, 32.926510964], "type": "Point"}, "id": "LRIaY-00MYHaeBXLIYAnypNoh24=", "properties": {"@spider": "usps_collection_boxes", "addr:city": "WELCH", "addr:country": "US", "addr:full": "218 JUNIPER ST", "addr:postcode": "79377", "addr:state": "TX", "amenity": "post_box", "brand": "United States Postal Service", "brand:wikidata": "Q668687", "collection_times": "Mo-Fr 12:15; Sa 11:45", "name": "USPS COLLECTION BOX - PO LOBBY", "note": "ON 12/24 AND 12/31, THIS BOX MAY BE COLLECTED AS EARLY AS 12 NOON.", "nsi_id": "unitedstatespostalservice-a77078", "operator": "United States Postal Service", "operator:short": "USPS", "operator:type": "public", "operator:wikidata": "Q668687", "ref": "7937700003"}, "type": "Feature"}
{"dataset_attributes": {"@spider": "usps_collection_boxes", "spider:collection_time": "2024-01-04T08:25:05.301423"}, "geometry": {"coordinates": [-102.4282354533, 33.0486080533], "type": "Point"}, "id": "z8ybaZqvUbLN3OUwHVFNgmhJd68=", "properties": {"@spider": "usps_collection_boxes", "addr:city": "WELLMAN", "addr:country": "US", "addr:full": "503 YOAKUM", "addr:postcode": "79378", "addr:state": "TX", "amenity": "post_box", "brand": "United States Postal Service", "brand:wikidata": "Q668687", "collection_times": "Mo-Fr 16:00; Sa 08:00", "name": "USPS COLLECTION BOX - BLUE BOX", "note": "ON 12/24 AND 12/31, THIS BOX MAY BE COLLECTED AS EARLY AS 12 NOON.", "nsi_id": "unitedstatespostalservice-a77078", "operator": "United States Postal Service", "operator:short": "USPS", "operator:type": "public", "operator:wikidata": "Q668687", "ref": "7937800000"}, "type": "Feature"}
{"dataset_attributes": {"@spider": "usps_collection_boxes", "spider:collection_time": "2024-01-04T08:25:05.301423"}, "geometry": {"coordinates": [-102.4282354533, 33.0486080533], "type": "Point"}, "id": "6jaHUPfPwkpL6jCZFC2ZslRt6Q0=", "properties": {"@spider": "usps_collection_boxes", "addr:city": "WELLMAN", "addr:country": "US", "addr:full": "503 YOAKUM", "addr:postcode": "79378", "addr:state": "TX", "amenity": "post_box", "brand": "United States Postal Service", "brand:wikidata": "Q668687", "collection_times": "Mo-Fr 16:00; Sa 08:00", "name": "USPS COLLECTION BOX - PO LOBBY", "note": "ON 12/24 AND 12/31, THIS BOX MAY BE COLLECTED AS EARLY AS 12 NOON.", "nsi_id": "unitedstatespostalservice-a77078", "operator": "United States Postal Service", "operator:short": "USPS", "operator:type": "public", "operator:wikidata": "Q668687", "ref": "7937800001"}, "type": "Feature"}
{"dataset_attributes": {"@spider": "usps_collection_boxes", "spider:collection_time": "2024-01-04T08:25:05.301423"}, "geometry": {"coordinates": [-102.4282354533, 33.0486080533], "type": "Point"}, "id": "tbpFdmqItc4zQkwzkCY-0VIzI5U=", "properties": {"@spider": "usps_collection_boxes", "addr:city": "WELLMAN", "addr:country": "US", "addr:full": "503 YOAKUM", "addr:postcode": "79378", "addr:state": "TX", "amenity": "post_box", "brand": "United States Postal Service", "brand:wikidata": "Q668687", "collection_times": "Mo-Fr 16:00; Sa 08:00", "name": "USPS COLLECTION BOX - PO LOBBY", "note": "ON 12/24 AND 12/31, THIS BOX MAY BE COLLECTED AS EARLY AS 12 NOON.", "nsi_id": "unitedstatespostalservice-a77078", "operator": "United States Postal Service", "operator:short": "USPS", "operator:type": "public", "operator:wikidata": "Q668687", "ref": "7937800002"}, "type": "Feature"}
{"dataset_attributes": {"@spider": "usps_collection_boxes", "spider:collection_time": "2024-01-04T08:25:05.301423"}, "geometry": {"coordinates": [-102.428564555, 33.046484328], "type": "Point"}, "id": "ys1rSqOUDI-wRdtDOmBNBYgaQFI=", "properties": {"@spider": "usps_collection_boxes", "addr:city": "WELLMAN", "addr:country": "US", "addr:full": "503 YOAKUM", "addr:postcode": "79378", "addr:state": "TX", "amenity": "post_box", "brand": "United States Postal Service", "brand:wikidata": "Q668687", "collection_times": "Mo-Fr 16:00", "name": "USPS COLLECTION BOX - PO LOBBY", "note": "ON 12/24 AND 12/31, THIS BOX MAY BE COLLECTED AS EARLY AS 12 NOON.", "nsi_id": "unitedstatespostalservice-a77078", "operator": "United States Postal Service", "operator:short": "USPS", "operator:type": "public", "operator:wikidata": "Q668687", "ref": "7937800003"}, "type": "Feature"}
{"dataset_attributes": {"@spider": "usps_collection_boxes", "spider:collection_time": "2024-01-04T08:25:05.301423"}, "geometry": {"coordinates": [-102.614819, 33.600024], "type": "Point"}, "id": "n4mKQ9my1jOX8QSE1tk5EwAnko4=", "properties": {"@spider": "usps_collection_boxes", "addr:city": "WHITEFACE", "addr:country": "US", "addr:full": "208 W 2ND ST", "addr:postcode": "79379", "addr:state": "TX", "amenity": "post_box", "brand": "United States Postal Service", "brand:wikidata": "Q668687", "collection_times": "Mo-Fr 16:00; Sa 08:30", "name": "USPS COLLECTION BOX - PO LOBBY", "note": "ON 12/24 AND 12/31, THIS BOX MAY BE COLLECTED AS EARLY AS 12 NOON.", "nsi_id": "unitedstatespostalservice-a77078", "operator": "United States Postal Service", "operator:short": "USPS", "operator:type": "public", "operator:wikidata": "Q668687", "ref": "7937900000"}, "type": "Feature"}
{"dataset_attributes": {"@spider": "usps_collection_boxes", "spider:collection_time": "2024-01-04T08:25:05.301423"}, "geometry": {"coordinates": [-102.614819, 33.600024], "type": "Point"}, "id": "qYyDbc2-q7q_7WpIHREwMjsF9Y4=", "properties": {"@spider": "usps_collection_boxes", "addr:city": "WHITEFACE", "addr:country": "US", "addr:full": "208 W 2ND ST", "addr:postcode": "79379", "addr:state": "TX", "amenity": "post_box", "brand": "United States Postal Service", "brand:wikidata": "Q668687", "collection_times": "Mo-Fr 16:00; Sa 08:30", "name": "USPS COLLECTION BOX - BLUE BOX", "note": "ON 12/24 AND 12/31, THIS BOX MAY BE COLLECTED AS EARLY AS 12 NOON.", "nsi_id": "unitedstatespostalservice-a77078", "operator": "United States Postal Service", "operator:short": "USPS", "operator:type": "public", "operator:wikidata": "Q668687", "ref": "7937900001"}, "type": "Feature"}
{"dataset_attributes": {"@spider": "usps_collection_boxes", "spider:collection_time": "2024-01-04T08:25:05.301423"}, "geometry": {"coordinates": [-102.614992513, 33.600087552], "type": "Point"}, "id": "PNBlcnjZNkDScTyozjywk0YOMUg=", "properties": {"@spider": "usps_collection_boxes", "addr:city": "WHITEFACE", "addr:country": "US", "addr:full": "208 W 2ND ST", "addr:postcode": "79379", "addr:state": "TX", "amenity": "post_box", "brand": "United States Postal Service", "brand:wikidata": "Q668687", "collection_times": "Mo-Fr 16:00", "name": "USPS COLLECTION BOX - PO LOBBY", "note": "ON 12/24 AND 12/31, THIS BOX MAY BE COLLECTED AS EARLY AS 12 NOON.", "nsi_id": "unitedstatespostalservice-a77078", "operator": "United States Postal Service", "operator:short": "USPS", "operator:type": "public", "operator:wikidata": "Q668687", "ref": "7937900003"}, "type": "Feature"}
{"dataset_attributes": {"@spider": "usps_collection_boxes", "spider:collection_time": "2024-01-04T08:25:05.301423"}, "geometry": {"coordinates": [-102.3278271556, 33.7357224179], "type": "Point"}, "id": "HedeN9II3GIMIG9hoaOm2URy_MM=", "properties": {"@spider": "usps_collection_boxes", "addr:city": "WHITHARRAL", "addr:country": "US", "addr:full": "201 BADGER", "addr:postcode": "79380", "addr:state": "TX", "amenity": "post_box", "brand": "United States Postal Service", "brand:wikidata": "Q668687", "collection_times": "Mo-Sa 11:45", "name": "USPS COLLECTION BOX - PO LOBBY", "nsi_id": "unitedstatespostalservice-a77078", "operator": "United States Postal Service", "operator:short": "USPS", "operator:type": "public", "operator:wikidata": "Q668687", "ref": "7938000002"}, "type": "Feature"}
{"dataset_attributes": {"@spider": "usps_collection_boxes", "spider:collection_time": "2024-01-04T08:25:05.301423"}, "geometry": {"coordinates": [-102.32778301, 33.73773198], "type": "Point"}, "id": "IqFri_LJha_uSuK_WFcWI4M9Jnk=", "properties": {"@spider": "usps_collection_boxes", "addr:city": "WHITHARRAL", "addr:country": "US", "addr:full": "201 BADGER", "addr:postcode": "79380", "addr:state": "TX", "amenity": "post_box", "brand": "United States Postal Service", "brand:wikidata": "Q668687", "collection_times": "Mo-Sa 12:00", "name": "USPS COLLECTION BOX - PO LOBBY", "nsi_id": "unitedstatespostalservice-a77078", "operator": "United States Postal Service", "operator:short": "USPS", "operator:type": "public", "operator:wikidata": "Q668687", "ref": "7938000003"}, "type": "Feature"}
{"dataset_attributes": {"@spider": "usps_collection_boxes", "spider:collection_time": "2024-01-04T08:25:05.301423"}, "geometry": {"coordinates": [-101.72345, 33.317966], "type": "Point"}, "id": "caSxSMwzCEUVgC4WT067V_enEJM=", "properties": {"@spider": "usps_collection_boxes", "addr:city": "WILSON", "addr:country": "US", "addr:full": "1011 HOUSTON AVE", "addr:postcode": "79381", "addr:state": "TX", "amenity": "post_box", "brand": "United States Postal Service", "brand:wikidata": "Q668687", "collection_times": "Mo-Fr 13:30; Sa 09:00", "name": "USPS COLLECTION BOX - PO LOBBY", "note": "ON 12/24 AND 12/31, THIS BOX MAY BE COLLECTED AS EARLY AS 12 NOON.", "nsi_id": "unitedstatespostalservice-a77078", "operator": "United States Postal Service", "operator:short": "USPS", "operator:type": "public", "operator:wikidata": "Q668687", "ref": "7938100001"}, "type": "Feature"}
{"dataset_attributes": {"@spider": "usps_collection_boxes", "spider:collection_time": "2024-01-04T08:25:05.301423"}, "geometry": {"coordinates": [-101.723532592, 33.317936639], "type": "Point"}, "id": "KnSlenONUzjVL18G6Rcvklv4OK8=", "properties": {"@spider": "usps_collection_boxes", "addr:city": "WILSON", "addr:country": "US", "addr:full": "1011 HOUSTON AVE", "addr:postcode": "79381", "addr:state": "TX", "amenity": "post_box", "brand": "United States Postal Service", "brand:wikidata": "Q668687", "collection_times": "Mo-Fr 13:30", "name": "USPS COLLECTION BOX - PO LOBBY", "note": "ON 12/24 AND 12/31, THIS BOX MAY BE COLLECTED AS EARLY AS 12 NOON.", "nsi_id": "unitedstatespostalservice-a77078", "operator": "United States Postal Service", "operator:short": "USPS", "operator:type": "public", "operator:wikidata": "Q668687", "ref": "7938100002"}, "type": "Feature"}
{"dataset_attributes": {"@spider": "usps_collection_boxes", "spider:collection_time": "2024-01-04T08:25:05.301423"}, "geometry": {"coordinates": [-102.0024149047, 33.5074760959], "type": "Point"}, "id": "MUwNviBGPrYQUprQCUa6AQawpXs=", "properties": {"@spider": "usps_collection_boxes", "addr:city": "WOLFFORTH", "addr:country": "US", "addr:full": "302 E HIGHWAY 62", "addr:postcode": "79382", "addr:state": "TX", "amenity": "post_box", "brand": "United States Postal Service", "brand:wikidata": "Q668687", "collection_times": "Mo-Fr 16:30; Sa 11:00", "name": "USPS COLLECTION BOX - BLUE BOX", "note": "ON 12/24 AND 12/31, THIS BOX MAY BE COLLECTED AS EARLY AS 12 NOON.", "nsi_id": "unitedstatespostalservice-a77078", "operator": "United States Postal Service", "operator:short": "USPS", "operator:type": "public", "operator:wikidata": "Q668687", "ref": "7938200000"}, "type": "Feature"}
{"dataset_attributes": {"@spider": "usps_collection_boxes", "spider:collection_time": "2024-01-04T08:25:05.301423"}, "geometry": {"coordinates": [-102.0024149047, 33.5074760959], "type": "Point"}, "id": "qbqYgmjvFooMAH3Q3A0Hx13Vp4g=", "properties": {"@spider": "usps_collection_boxes", "addr:city": "WOLFFORTH", "addr:country": "US", "addr:full": "302 E HIGHWAY 62", "addr:postcode": "79382", "addr:state": "TX", "amenity": "post_box", "brand": "United States Postal Service", "brand:wikidata": "Q668687", "collection_times": "Mo-Fr 16:30; Sa 11:00", "name": "USPS COLLECTION BOX - PO LOBBY", "note": "ON 12/24 AND 12/31, THIS BOX MAY BE COLLECTED AS EARLY AS 12 NOON.", "nsi_id": "unitedstatespostalservice-a77078", "operator": "United States Postal Service", "operator:short": "USPS", "operator:type": "public", "operator:wikidata": "Q668687", "ref": "7938200001"}, "type": "Feature"}
{"dataset_attributes": {"@spider": "usps_collection_boxes", "spider:collection_time": "2024-01-04T08:25:05.301423"}, "geometry": {"coordinates": [-102.0024149047, 33.5074760959], "type": "Point"}, "id": "LgHHKoy5ATOVMpZXjggnMrtiyZQ=", "properties": {"@spider": "usps_collection_boxes", "addr:city": "WOLFFORTH", "addr:country": "US", "addr:full": "302 E HIGHWAY 62", "addr:postcode": "79382", "addr:state": "TX", "amenity": "post_box", "brand": "United States Postal Service", "brand:wikidata": "Q668687", "collection_times": "Mo-Fr 16:30; Sa 11:00", "name": "USPS COLLECTION BOX - PO LOBBY", "note": "ON 12/24 AND 12/31, THIS BOX MAY BE COLLECTED AS EARLY AS 12 NOON.", "nsi_id": "unitedstatespostalservice-a77078", "operator": "United States Postal Service", "operator:short": "USPS", "operator:type": "public", "operator:wikidata": "Q668687", "ref": "7938200003"}, "type": "Feature"}
{"dataset_attributes": {"@spider": "usps_collection_boxes", "spider:collection_time": "2024-01-04T08:25:05.301423"}, "geometry": {"coordinates": [-102.0024149047, 33.5074760959], "type": "Point"}, "id": "psxQFb_mBjzeZq5mZitZ7BVvQKQ=", "properties": {"@spider": "usps_collection_boxes", "addr:city": "WOLFFORTH", "addr:country": "US", "addr:full": "302 E HIGHWAY 62", "addr:postcode": "79382", "addr:state": "TX", "amenity": "post_box", "brand": "United States Postal Service", "brand:wikidata": "Q668687", "collection_times": "Mo-Fr 16:30; Sa 11:00", "name": "USPS COLLECTION BOX - PO LOBBY", "note": "ON 12/24 AND 12/31, THIS BOX MAY BE COLLECTED AS EARLY AS 12 NOON.", "nsi_id": "unitedstatespostalservice-a77078", "operator": "United States Postal Service", "operator:short": "USPS", "operator:type": "public", "operator:wikidata": "Q668687", "ref": "7938200004"}, "type": "Feature"}
