{"geometry": {"coordinates": [-101.86389, 33.58431], "type": "Point"}, "id": "hVY3p27Vs7gNtz9azDKqELCxpUU=", "properties": {"@spider": "usps_collection_boxes", "addr:city": "LUBBOCK", "addr:country": "US", "addr:full": "2123 BROADWAY", "addr:postcode": "79401", "addr:state": "TX", "brand": "USPS", "collection_times": "Mo-Fr 11:30", "name": "USPS COLLECTION BOX - BLUE BOX", "ref": "7940100002"}, "type": "Feature"}
{"geometry": {"coordinates": [-101.8496427485, 33.5844955462], "type": "Point"}, "id": "_iBpHVHb_sJUvaYQEezC3Sf9UMs=", "properties": {"@spider": "usps_collection_boxes", "addr:city": "LUBBOCK", "addr:country": "US", "addr:full": "1301 BROADWAY", "addr:postcode": "79401", "addr:state": "TX", "brand": "USPS", "collection_times": "Mo-Fr 09:00", "name": "USPS COLLECTION BOX - BLUE BOX", "ref": "7940100021"}, "type": "Feature"}
{"geometry": {"coordinates": [-101.848925, 33.591897], "type": "Point"}, "id": "aTbGVloKSmNvrMQdHbCgdEWvcak=", "properties": {"@spider": "usps_collection_boxes", "addr:city": "LUBBOCK", "addr:country": "US", "addr:full": "411 AVENUE L", "addr:postcode": "79401", "addr:state": "TX", "brand": "USPS", "collection_times": "Mo-Fr 16:45; Sa 16:00", "name": "USPS COLLECTION BOX - BLUE BOX", "note": "ON 12/24 AND 12/31, THIS BOX MAY BE COLLECTED AS EARLY AS 12 NOON.", "ref": "7940100042"}, "type": "Feature"}
{"geometry": {"coordinates": [-101.848966, 33.591965], "type": "Point"}, "id": "mC6x_f2LlZGTIODmzzLBfO4RHcs=", "properties": {"@spider": "usps_collection_boxes", "addr:city": "LUBBOCK", "addr:country": "US", "addr:full": "411 AVENUE L", "addr:postcode": "79401", "addr:state": "TX", "brand": "USPS", "collection_times": "Mo-Fr 16:45; Sa 16:00", "name": "USPS COLLECTION BOX - PO LOBBY", "note": "ON 12/24 AND 12/31, THIS BOX MAY BE COLLECTED AS EARLY AS 12 NOON.", "ref": "7940100051"}, "type": "Feature"}
{"geometry": {"coordinates": [-101.848966, 33.591965], "type": "Point"}, "id": "ZkDCNVDfSkDddriaY6cDFR_FVhQ=", "properties": {"@spider": "usps_collection_boxes", "addr:city": "LUBBOCK", "addr:country": "US", "addr:full": "411 AVENUE L", "addr:postcode": "79401", "addr:state": "TX", "brand": "USPS", "collection_times": "Mo-Fr 16:45; Sa 16:00", "name": "USPS COLLECTION BOX - PO LOBBY", "note": "ON 12/24 AND 12/31, THIS BOX MAY BE COLLECTED AS EARLY AS 12 NOON.", "ref": "7940100052"}, "type": "Feature"}
{"geometry": {"coordinates": [-101.848966, 33.591965], "type": "Point"}, "id": "-B_Gr6g9WWJpClGhUMOj8lw2BQ4=", "properties": {"@spider": "usps_collection_boxes", "addr:city": "LUBBOCK", "addr:country": "US", "addr:full": "411 AVENUE L", "addr:postcode": "79401", "addr:state": "TX", "brand": "USPS", "collection_times": "Mo-Fr 16:45; Sa 16:00", "name": "USPS COLLECTION BOX - PO LOBBY", "note": "ON 12/24 AND 12/31, THIS BOX MAY BE COLLECTED AS EARLY AS 12 NOON.", "ref": "7940100062"}, "type": "Feature"}
{"geometry": {"coordinates": [-101.843134, 33.581548], "type": "Point"}, "id": "S5tUwTatgIbP5DMSimhhsOliNC0=", "properties": {"@spider": "usps_collection_boxes", "addr:city": "LUBBOCK", "addr:country": "US", "addr:full": "1515 AVENUE G", "addr:postcode": "79402", "addr:state": "TX", "brand": "USPS", "collection_times": "Mo-Fr 19:00; Sa 18:00", "name": "USPS COLLECTION BOX - BLUE BOX", "note": "ON 12/24 AND 12/31, THIS BOX MAY BE COLLECTED AS EARLY AS 12 NOON.", "ref": "7940200000"}, "type": "Feature"}
{"geometry": {"coordinates": [-101.843134, 33.581548], "type": "Point"}, "id": "Iy6pYnYFi_ybZQbsYlQx_2Qv1kw=", "properties": {"@spider": "usps_collection_boxes", "addr:city": "LUBBOCK", "addr:country": "US", "addr:full": "1515 AVENUE G", "addr:postcode": "79402", "addr:state": "TX", "brand": "USPS", "collection_times": "Mo-Fr 19:00; Sa 18:00", "name": "USPS COLLECTION BOX - BLUE BOX", "note": "ON 12/24 AND 12/31, THIS BOX MAY BE COLLECTED AS EARLY AS 12 NOON.", "ref": "7940200001"}, "type": "Feature"}
{"geometry": {"coordinates": [-101.808106, 33.597361], "type": "Point"}, "id": "tG-PL93rRy9VG4Yu33xJ5VOhsn0=", "properties": {"@spider": "usps_collection_boxes", "addr:city": "LUBBOCK", "addr:country": "US", "addr:full": "2630 PARKWAY DR", "addr:postcode": "79403", "addr:state": "TX", "brand": "USPS", "collection_times": "Mo-Fr 08:00", "name": "USPS COLLECTION BOX - BLUE BOX", "ref": "7940300005"}, "type": "Feature"}
{"geometry": {"coordinates": [-101.9251759015, 33.5612820613], "type": "Point"}, "id": "t1r9KecQc9GvSadJALRvvt9l8Zs=", "properties": {"@spider": "usps_collection_boxes", "addr:city": "LUBBOCK", "addr:country": "US", "addr:full": "5219 CITY BANK PKWY", "addr:postcode": "79407", "addr:state": "TX", "brand": "USPS", "collection_times": "Mo-Fr 09:30", "name": "USPS COLLECTION BOX - BLUE BOX", "ref": "7940700014"}, "type": "Feature"}
{"geometry": {"coordinates": [-101.848686382, 33.591241288], "type": "Point"}, "id": "8IbHzkiXxsblKtrSkBoGktEzgP0=", "properties": {"@spider": "usps_collection_boxes", "addr:city": "LUBBOCK", "addr:country": "US", "addr:full": "411 AVENUE L", "addr:postcode": "79408", "addr:state": "TX", "brand": "USPS", "collection_times": "Mo-Fr 17:00", "name": "USPS COLLECTION BOX - PO LOBBY", "note": "ON 12/24 AND 12/31, THIS BOX MAY BE COLLECTED AS EARLY AS 12 NOON.", "ref": "7940800001"}, "type": "Feature"}
{"geometry": {"coordinates": [-101.8966437211, 33.5751347971], "type": "Point"}, "id": "xZzMTQuaw9UNADzsRCQ_6tC-vHc=", "properties": {"@spider": "usps_collection_boxes", "addr:city": "LUBBOCK", "addr:country": "US", "addr:full": "3808 22ND ST", "addr:postcode": "79410", "addr:state": "TX", "brand": "USPS", "collection_times": "Mo-Fr 13:30", "name": "USPS COLLECTION BOX - BLUE BOX", "note": "ON 12/24 AND 12/31, THIS BOX MAY BE COLLECTED AS EARLY AS 12 NOON.", "ref": "7941000001"}, "type": "Feature"}
{"geometry": {"coordinates": [-101.869884, 33.577296], "type": "Point"}, "id": "ZKrR8fcrqlzcmF0N6MpijG1jwC4=", "properties": {"@spider": "usps_collection_boxes", "addr:city": "LUBBOCK", "addr:country": "US", "addr:full": "1901 UNIVERSITY AVE", "addr:postcode": "79410", "addr:state": "TX", "brand": "USPS", "collection_times": "Mo-Fr 09:00", "name": "USPS COLLECTION BOX - BLUE BOX", "ref": "7941000008"}, "type": "Feature"}
{"geometry": {"coordinates": [-101.881512, 33.562701], "type": "Point"}, "id": "l4a1JBgVJV3qVWKU0uJ9xGVJsvI=", "properties": {"@spider": "usps_collection_boxes", "addr:city": "LUBBOCK", "addr:country": "US", "addr:full": "3101 34TH ST", "addr:postcode": "79410", "addr:state": "TX", "brand": "USPS", "collection_times": "Mo-Fr 10:00", "name": "USPS COLLECTION BOX - BLUE BOX", "ref": "7941000018"}, "type": "Feature"}
{"geometry": {"coordinates": [-101.851736447, 33.543337863], "type": "Point"}, "id": "t_3TAIWQCablUXeKGK6oTF1-HDM=", "properties": {"@spider": "usps_collection_boxes", "addr:city": "LUBBOCK", "addr:country": "US", "addr:full": "24 BRIERCROFT OFFICE PARK", "addr:postcode": "79412", "addr:state": "TX", "brand": "USPS", "collection_times": "Mo-Sa 10:00", "name": "USPS COLLECTION BOX - BLUE BOX", "ref": "7941200000"}, "type": "Feature"}
{"geometry": {"coordinates": [-101.848717, 33.548724], "type": "Point"}, "id": "eibQlCIuLfpG89UDNYapAMHLCi8=", "properties": {"@spider": "usps_collection_boxes", "addr:city": "LUBBOCK", "addr:country": "US", "addr:full": "5001 AVENUE L", "addr:postcode": "79412", "addr:state": "TX", "brand": "USPS", "collection_times": "Mo-Fr 17:00; Sa 16:00", "name": "USPS COLLECTION BOX - BLUE BOX", "note": "ON 12/24 AND 12/31, THIS BOX MAY BE COLLECTED AS EARLY AS 12 NOON.", "ref": "7941200009"}, "type": "Feature"}
{"geometry": {"coordinates": [-101.848751, 33.548814], "type": "Point"}, "id": "qFadmH2b_fAYPX5Hil4ssUI6DHc=", "properties": {"@spider": "usps_collection_boxes", "addr:city": "LUBBOCK", "addr:country": "US", "addr:full": "5001 AVENUE L", "addr:postcode": "79412", "addr:state": "TX", "brand": "USPS", "collection_times": "Mo-Fr 17:00; Sa 16:00", "name": "USPS COLLECTION BOX - PO LOBBY", "note": "ON 12/24 AND 12/31, THIS BOX MAY BE COLLECTED AS EARLY AS 12 NOON.", "ref": "7941200022"}, "type": "Feature"}
{"geometry": {"coordinates": [-101.848751, 33.548814], "type": "Point"}, "id": "GKOix8JOlSwYo9-vk3qyf47ruKQ=", "properties": {"@spider": "usps_collection_boxes", "addr:city": "LUBBOCK", "addr:country": "US", "addr:full": "5001 AVENUE L", "addr:postcode": "79412", "addr:state": "TX", "brand": "USPS", "collection_times": "Mo-Fr 17:00; Sa 16:00", "name": "USPS COLLECTION BOX - PO LOBBY", "note": "ON 12/24 AND 12/31, THIS BOX MAY BE COLLECTED AS EARLY AS 12 NOON.", "ref": "7941200023"}, "type": "Feature"}
{"geometry": {"coordinates": [-101.848751, 33.548814], "type": "Point"}, "id": "FXhD0T64dkxIaN1rcI_ogpcvq3w=", "properties": {"@spider": "usps_collection_boxes", "addr:city": "LUBBOCK", "addr:country": "US", "addr:full": "5001 AVENUE L", "addr:postcode": "79412", "addr:state": "TX", "brand": "USPS", "collection_times": "Mo-Fr 17:00; Sa 16:00", "name": "USPS COLLECTION BOX - PO LOBBY", "note": "ON 12/24 AND 12/31, THIS BOX MAY BE COLLECTED AS EARLY AS 12 NOON.", "ref": "7941200024"}, "type": "Feature"}
{"geometry": {"coordinates": [-101.848751, 33.548814], "type": "Point"}, "id": "dtzjxj5pKFgqzA_u4xJFOVG8ooc=", "properties": {"@spider": "usps_collection_boxes", "addr:city": "LUBBOCK", "addr:country": "US", "addr:full": "5001 AVENUE L", "addr:postcode": "79412", "addr:state": "TX", "brand": "USPS", "collection_times": "Mo-Fr 17:00; Sa 16:00", "name": "USPS COLLECTION BOX - PO LOBBY", "note": "ON 12/24 AND 12/31, THIS BOX MAY BE COLLECTED AS EARLY AS 12 NOON.", "ref": "7941200028"}, "type": "Feature"}
{"geometry": {"coordinates": [-101.883346951, 33.547560685], "type": "Point"}, "id": "oq2zuwCZWrAk5VMrVt0IrF97obg=", "properties": {"@spider": "usps_collection_boxes", "addr:city": "LUBBOCK", "addr:country": "US", "addr:full": "5014 GARY AVE", "addr:postcode": "79413", "addr:state": "TX", "brand": "USPS", "collection_times": "Mo-Fr 16:45; Sa 16:00", "name": "USPS COLLECTION BOX - BLUE BOX", "note": "ON 12/24 AND 12/31, THIS BOX MAY BE COLLECTED AS EARLY AS 12 NOON.", "ref": "7941300016"}, "type": "Feature"}
{"geometry": {"coordinates": [-101.883941, 33.547443], "type": "Point"}, "id": "ZwXjk9yYwuJ_mCe1Vjm_mWli3VQ=", "properties": {"@spider": "usps_collection_boxes", "addr:city": "LUBBOCK", "addr:country": "US", "addr:full": "5014 GARY AVE", "addr:postcode": "79413", "addr:state": "TX", "brand": "USPS", "collection_times": "Mo-Fr 16:45; Sa 16:00", "name": "USPS COLLECTION BOX - PO LOBBY", "note": "ON 12/24 AND 12/31, THIS BOX MAY BE COLLECTED AS EARLY AS 12 NOON.", "ref": "7941300030"}, "type": "Feature"}
{"geometry": {"coordinates": [-101.883937, 33.54747], "type": "Point"}, "id": "KN0mYjAcjHbXOCkororeRNKI09w=", "properties": {"@spider": "usps_collection_boxes", "addr:city": "LUBBOCK", "addr:country": "US", "addr:full": "5014 GARY AVE", "addr:postcode": "79413", "addr:state": "TX", "brand": "USPS", "collection_times": "Mo-Fr 16:45; Sa 16:00", "name": "USPS COLLECTION BOX - PO LOBBY", "note": "ON 12/24 AND 12/31, THIS BOX MAY BE COLLECTED AS EARLY AS 12 NOON.", "ref": "7941300031"}, "type": "Feature"}
{"geometry": {"coordinates": [-101.884054, 33.547434], "type": "Point"}, "id": "v3BzxIgUbqY8N03V7LIX3v8kpks=", "properties": {"@spider": "usps_collection_boxes", "addr:city": "LUBBOCK", "addr:country": "US", "addr:full": "5014 GARY AVE", "addr:postcode": "79413", "addr:state": "TX", "brand": "USPS", "collection_times": "Mo-Fr 16:45; Sa 16:00", "name": "USPS COLLECTION BOX - APC", "note": "ON 12/24 AND 12/31, THIS BOX MAY BE COLLECTED AS EARLY AS 12 NOON.", "ref": "7941300032"}, "type": "Feature"}
{"geometry": {"coordinates": [-101.883343356, 33.547421609], "type": "Point"}, "id": "zv0twZh41UfdU5mKvNL7RaQkl9s=", "properties": {"@spider": "usps_collection_boxes", "addr:city": "LUBBOCK", "addr:country": "US", "addr:full": "5014 GARY AVE", "addr:postcode": "79413", "addr:state": "TX", "brand": "USPS", "collection_times": "Mo-Fr 17:00; Sa 12:00", "name": "USPS COLLECTION BOX - PO LOBBY", "note": "ON 12/24 AND 12/31, THIS BOX MAY BE COLLECTED AS EARLY AS 12 NOON.", "ref": "7941300036"}, "type": "Feature"}
{"geometry": {"coordinates": [-101.910652, 33.548634], "type": "Point"}, "id": "QfrlOoJYP_2NbhP1CKT6qS_U_6M=", "properties": {"@spider": "usps_collection_boxes", "addr:city": "LUBBOCK", "addr:country": "US", "addr:full": "4611 50TH ST", "addr:postcode": "79414", "addr:state": "TX", "brand": "USPS", "collection_times": "Mo-Sa 11:00", "name": "USPS COLLECTION BOX - BLUE BOX", "ref": "7941400004"}, "type": "Feature"}
{"geometry": {"coordinates": [-101.911878, 33.549435], "type": "Point"}, "id": "Pp2wL3BDRUWx6FscTbVd8zhZ-oE=", "properties": {"@spider": "usps_collection_boxes", "addr:city": "LUBBOCK", "addr:country": "US", "addr:full": "4630 50TH ST", "addr:postcode": "79414", "addr:state": "TX", "brand": "USPS", "collection_times": "Mo-Fr 11:00", "name": "USPS COLLECTION BOX - BLUE BOX", "ref": "7941400018"}, "type": "Feature"}
{"geometry": {"coordinates": [-101.9268585, 33.593121], "type": "Point"}, "id": "-1R1zy4GP5p5FiBSXKlAw6awf9Y=", "properties": {"@spider": "usps_collection_boxes", "addr:city": "LUBBOCK", "addr:country": "US", "addr:full": "5404 4TH ST", "addr:postcode": "79416", "addr:state": "TX", "brand": "USPS", "collection_times": "Mo-Fr 11:00", "name": "USPS COLLECTION BOX - BLUE BOX", "ref": "7941600004"}, "type": "Feature"}
{"geometry": {"coordinates": [-101.9399012285, 33.6203303482], "type": "Point"}, "id": "8h96RiEsRUQxHG_UwHpNCzY40gs=", "properties": {"@spider": "usps_collection_boxes", "addr:city": "LUBBOCK", "addr:country": "US", "addr:full": "2121 FRANKFORD AVE", "addr:postcode": "79416", "addr:state": "TX", "brand": "USPS", "collection_times": "Mo-Fr 16:15; Sa 16:00", "name": "USPS COLLECTION BOX - BLUE BOX", "note": "ON 12/24 AND 12/31, THIS BOX MAY BE COLLECTED AS EARLY AS 12 NOON.", "ref": "7941600014"}, "type": "Feature"}
{"geometry": {"coordinates": [-101.939737, 33.575142], "type": "Point"}, "id": "P_0mTspO34KTqPZHRG5NZnfH9HM=", "properties": {"@spider": "usps_collection_boxes", "addr:city": "LUBBOCK", "addr:country": "US", "addr:full": "2121 FRANKFORD AVE", "addr:postcode": "79416", "addr:state": "TX", "brand": "USPS", "collection_times": "Mo-Fr 16:15; Sa 16:00", "name": "USPS COLLECTION BOX - PO LOBBY", "note": "ON 12/24 AND 12/31, THIS BOX MAY BE COLLECTED AS EARLY AS 12 NOON.", "ref": "7941600017"}, "type": "Feature"}
{"geometry": {"coordinates": [-101.939737, 33.575142], "type": "Point"}, "id": "xMk7ODENhhRP4RQTwn_7X4dYNQ4=", "properties": {"@spider": "usps_collection_boxes", "addr:city": "LUBBOCK", "addr:country": "US", "addr:full": "2121 FRANKFORD AVE", "addr:postcode": "79416", "addr:state": "TX", "brand": "USPS", "collection_times": "Mo-Fr 16:15; Sa 16:00", "name": "USPS COLLECTION BOX - PO LOBBY", "note": "ON 12/24 AND 12/31, THIS BOX MAY BE COLLECTED AS EARLY AS 12 NOON.", "ref": "7941600020"}, "type": "Feature"}
{"geometry": {"coordinates": [-102.03059, 33.593577], "type": "Point"}, "id": "HUdKmpeIpDjEcQ1DMr1DAA8ydeA=", "properties": {"@spider": "usps_collection_boxes", "addr:city": "LUBBOCK", "addr:country": "US", "addr:full": "9801 REESE BLVD N", "addr:postcode": "79416", "addr:state": "TX", "brand": "USPS", "collection_times": "Mo-Fr 11:00; Sa 11:30", "name": "USPS COLLECTION BOX - BLUE BOX", "ref": "7941600025"}, "type": "Feature"}
{"geometry": {"coordinates": [-101.8836495, 33.528618], "type": "Point"}, "id": "AURilh7n8fv-Il19dRCU7ceSvg4=", "properties": {"@spider": "usps_collection_boxes", "addr:city": "LUBBOCK", "addr:country": "US", "addr:full": "3201 S LOOP 289", "addr:postcode": "79423", "addr:state": "TX", "brand": "USPS", "collection_times": "Mo-Sa 09:30", "name": "USPS COLLECTION BOX - BLUE BOX", "ref": "7942300018"}, "type": "Feature"}
{"geometry": {"coordinates": [-101.888244812, 33.522878251], "type": "Point"}, "id": "FzW3LVAkB8u4zk7zSWS2iuZJrtI=", "properties": {"@spider": "usps_collection_boxes", "addr:city": "LUBBOCK", "addr:country": "US", "addr:full": "7802 INDIANA AVE", "addr:postcode": "79423", "addr:state": "TX", "brand": "USPS", "collection_times": "Mo-Sa 09:30", "name": "USPS COLLECTION BOX - BLUE BOX", "ref": "7942300024"}, "type": "Feature"}
{"geometry": {"coordinates": [-101.8836495, 33.528618], "type": "Point"}, "id": "15XU780shNZgWReYkAgoDTkK71s=", "properties": {"@spider": "usps_collection_boxes", "addr:city": "LUBBOCK", "addr:country": "US", "addr:full": "3201 S LOOP 289", "addr:postcode": "79423", "addr:state": "TX", "brand": "USPS", "collection_times": "Mo-Sa 09:30", "name": "USPS COLLECTION BOX - BLUE BOX", "ref": "7942300034"}, "type": "Feature"}
{"geometry": {"coordinates": [-101.888244812, 33.522878251], "type": "Point"}, "id": "1Ts4eyYyYZ3cR-_nv4sAKalrFNQ=", "properties": {"@spider": "usps_collection_boxes", "addr:city": "LUBBOCK", "addr:country": "US", "addr:full": "7802 INDIANA AVE", "addr:postcode": "79423", "addr:state": "TX", "brand": "USPS", "collection_times": "Mo-Sa 09:30", "name": "USPS COLLECTION BOX - BLUE BOX", "ref": "7942300037"}, "type": "Feature"}
{"geometry": {"coordinates": [-101.871300526, 33.519803487], "type": "Point"}, "id": "sWB7IpkXgUhjQEu88bjHraRjZp0=", "properties": {"@spider": "usps_collection_boxes", "addr:city": "LUBBOCK", "addr:country": "US", "addr:full": "2504 82ND ST", "addr:postcode": "79423", "addr:state": "TX", "brand": "USPS", "collection_times": "Mo-Sa 10:00", "name": "USPS COLLECTION BOX - BLUE BOX", "ref": "7942300047"}, "type": "Feature"}
{"geometry": {"coordinates": [-101.877111, 33.528393], "type": "Point"}, "id": "wBIgIEII98YQrLJOjEaUawAO0Ko=", "properties": {"@spider": "usps_collection_boxes", "addr:city": "LUBBOCK", "addr:country": "US", "addr:full": "2579 S LOOP 289", "addr:postcode": "79423", "addr:state": "TX", "brand": "USPS", "collection_times": "Mo-Sa 09:30", "name": "USPS COLLECTION BOX - BLUE BOX", "ref": "7942300049"}, "type": "Feature"}
{"geometry": {"coordinates": [-101.941587, 33.5205], "type": "Point"}, "id": "-BtXXMHw1ZHTP71o9SSpExwkcVo=", "properties": {"@spider": "usps_collection_boxes", "addr:city": "LUBBOCK", "addr:country": "US", "addr:full": "8010 FRANKFORD AVE", "addr:postcode": "79424", "addr:state": "TX", "brand": "USPS", "collection_times": "Mo-Sa 09:00", "name": "USPS COLLECTION BOX - BLUE BOX", "ref": "7942400034"}, "type": "Feature"}
{"geometry": {"coordinates": [-101.915941, 33.533057], "type": "Point"}, "id": "hrtCZW8Oi15dHtt79FGqwU4fLdM=", "properties": {"@spider": "usps_collection_boxes", "addr:city": "LUBBOCK", "addr:country": "US", "addr:full": "4901 S LOOP 289", "addr:postcode": "79424", "addr:state": "TX", "brand": "USPS", "collection_times": "Mo-Fr 17:00; Sa 16:00", "name": "USPS COLLECTION BOX - PO LOBBY", "note": "ON 12/24 AND 12/31, THIS BOX MAY BE COLLECTED AS EARLY AS 12 NOON.", "ref": "7942400035"}, "type": "Feature"}
{"geometry": {"coordinates": [-101.922803, 33.533783], "type": "Point"}, "id": "J_uSxgiFBoooSfX43GwmkGJ7lyI=", "properties": {"@spider": "usps_collection_boxes", "addr:city": "LUBBOCK", "addr:country": "US", "addr:full": "6526 SLIDE RD", "addr:postcode": "79424", "addr:state": "TX", "brand": "USPS", "collection_times": "Mo-Sa 09:30", "name": "USPS COLLECTION BOX - BLUE BOX", "ref": "7942400036"}, "type": "Feature"}
{"geometry": {"coordinates": [-101.915828, 33.533053], "type": "Point"}, "id": "ZFnWIzwotIEDipadAncOsHDI2jw=", "properties": {"@spider": "usps_collection_boxes", "addr:city": "LUBBOCK", "addr:country": "US", "addr:full": "4901 S LOOP 289", "addr:postcode": "79424", "addr:state": "TX", "brand": "USPS", "collection_times": "Mo-Fr 17:00; Sa 16:00", "name": "USPS COLLECTION BOX - BLUE BOX", "note": "ON 12/24 AND 12/31, THIS BOX MAY BE COLLECTED AS EARLY AS 12 NOON.", "ref": "7942400037"}, "type": "Feature"}
{"geometry": {"coordinates": [-101.915828, 33.533053], "type": "Point"}, "id": "Wfxiqh6uKmY1UxnFEMN0lAt_D_4=", "properties": {"@spider": "usps_collection_boxes", "addr:city": "LUBBOCK", "addr:country": "US", "addr:full": "4901 S LOOP 289", "addr:postcode": "79424", "addr:state": "TX", "brand": "USPS", "collection_times": "Mo-Fr 17:00; Sa 16:00", "name": "USPS COLLECTION BOX - APC", "note": "ON 12/24 AND 12/31, THIS BOX MAY BE COLLECTED AS EARLY AS 12 NOON.", "ref": "7942400038"}, "type": "Feature"}
{"geometry": {"coordinates": [-101.915828, 33.533053], "type": "Point"}, "id": "np1frfuy_AfNgIzjGoAQw5mRMio=", "properties": {"@spider": "usps_collection_boxes", "addr:city": "LUBBOCK", "addr:country": "US", "addr:full": "4901 S LOOP 289", "addr:postcode": "79424", "addr:state": "TX", "brand": "USPS", "collection_times": "Mo-Fr 17:00; Sa 16:00", "name": "USPS COLLECTION BOX - PO LOBBY", "note": "ON 12/24 AND 12/31, THIS BOX MAY BE COLLECTED AS EARLY AS 12 NOON.", "ref": "7942400039"}, "type": "Feature"}
{"geometry": {"coordinates": [-101.848708488, 33.548328335], "type": "Point"}, "id": "TgwCPrTG4OOdeeAquKXZOeHndkY=", "properties": {"@spider": "usps_collection_boxes", "addr:city": "LUBBOCK", "addr:country": "US", "addr:full": "5001 AVENUE L", "addr:postcode": "79452", "addr:state": "TX", "brand": "USPS", "collection_times": "Mo-Fr 17:00", "name": "USPS COLLECTION BOX - PO LOBBY", "note": "ON 12/24 AND 12/31, THIS BOX MAY BE COLLECTED AS EARLY AS 12 NOON.", "ref": "7945200001"}, "type": "Feature"}
{"geometry": {"coordinates": [-101.916448212, 33.533193231], "type": "Point"}, "id": "9tPn_RXhB6uSkb8N-awwKyeZniY=", "properties": {"@spider": "usps_collection_boxes", "addr:city": "LUBBOCK", "addr:country": "US", "addr:full": "4901 S LOOP 289", "addr:postcode": "79464", "addr:state": "TX", "brand": "USPS", "collection_times": "Mo-Fr 17:30; Sa 12:00", "name": "USPS COLLECTION BOX - PO LOBBY", "note": "ON 12/24 AND 12/31, THIS BOX MAY BE COLLECTED AS EARLY AS 12 NOON.", "ref": "7946400001"}, "type": "Feature"}
{"geometry": {"coordinates": [-101.939711011, 33.57423], "type": "Point"}, "id": "TbUbnnrrJWE2WRGTDB7ngrvKrxI=", "properties": {"@spider": "usps_collection_boxes", "addr:city": "LUBBOCK", "addr:country": "US", "addr:full": "2121 FRANKFORD AVE", "addr:postcode": "79490", "addr:state": "TX", "brand": "USPS", "collection_times": "Mo-Fr 17:00", "name": "USPS COLLECTION BOX - PO LOBBY", "note": "ON 12/24 AND 12/31, THIS BOX MAY BE COLLECTED AS EARLY AS 12 NOON.", "ref": "7949000001"}, "type": "Feature"}
