{"geometry": {"coordinates": [-99.895695, 32.756955], "type": "Point"}, "id": "h8tXu8KELm_lVJ5n3NmzqT34muA=", "properties": {"@spider": "usps_collection_boxes", "addr:city": "ANSON", "addr:country": "US", "addr:full": "1001 11TH ST", "addr:postcode": "79501", "addr:state": "TX", "brand": "USPS", "collection_times": "Mo-Fr 16:30; Sa 09:00", "name": "USPS COLLECTION BOX - BLUE BOX", "note": "ON 12/24 AND 12/31, THIS BOX MAY BE COLLECTED AS EARLY AS 12 NOON.", "ref": "7950100000"}, "type": "Feature"}
{"geometry": {"coordinates": [-99.895715, 32.757009], "type": "Point"}, "id": "Y4nLSqjneQx6XYnX4DK3F_Lf0lo=", "properties": {"@spider": "usps_collection_boxes", "addr:city": "ANSON", "addr:country": "US", "addr:full": "1002 11TH ST", "addr:postcode": "79501", "addr:state": "TX", "brand": "USPS", "collection_times": "Mo-Fr 16:30; Sa 09:00", "name": "USPS COLLECTION BOX - PO LOBBY", "note": "ON 12/24 AND 12/31, THIS BOX MAY BE COLLECTED AS EARLY AS 12 NOON.", "ref": "7950100003"}, "type": "Feature"}
{"geometry": {"coordinates": [-99.895617, 32.756982], "type": "Point"}, "id": "f-opfWgDF1-H31KxK3fLjAgiK6s=", "properties": {"@spider": "usps_collection_boxes", "addr:city": "ANSON", "addr:country": "US", "addr:full": "1002 11TH ST", "addr:postcode": "79501", "addr:state": "TX", "brand": "USPS", "collection_times": "Mo-Fr 16:30; Sa 09:00", "name": "USPS COLLECTION BOX - PO LOBBY", "note": "ON 12/24 AND 12/31, THIS BOX MAY BE COLLECTED AS EARLY AS 12 NOON.", "ref": "7950100004"}, "type": "Feature"}
{"geometry": {"coordinates": [-99.895695, 32.756955], "type": "Point"}, "id": "mBz5KAZmTcKCWFzw1KwQoBgpnGY=", "properties": {"@spider": "usps_collection_boxes", "addr:city": "ANSON", "addr:country": "US", "addr:full": "1001 11TH ST", "addr:postcode": "79501", "addr:state": "TX", "brand": "USPS", "collection_times": "Mo-Fr 16:30; Sa 09:00", "name": "USPS COLLECTION BOX - BLUE BOX", "note": "ON 12/24 AND 12/31, THIS BOX MAY BE COLLECTED AS EARLY AS 12 NOON.", "ref": "7950100008"}, "type": "Feature"}
{"geometry": {"coordinates": [-99.895685352, 32.757043987], "type": "Point"}, "id": "3FFI8gV8PxKqxYsRUtLsuaxzGZQ=", "properties": {"@spider": "usps_collection_boxes", "addr:city": "ANSON", "addr:country": "US", "addr:full": "1002 11TH ST", "addr:postcode": "79501", "addr:state": "TX", "brand": "USPS", "collection_times": "Mo-Fr 16:30", "name": "USPS COLLECTION BOX - PO LOBBY", "note": "ON 12/24 AND 12/31, THIS BOX MAY BE COLLECTED AS EARLY AS 12 NOON.", "ref": "7950100009"}, "type": "Feature"}
{"geometry": {"coordinates": [-100.228905, 33.138003], "type": "Point"}, "id": "cOIyA5Xq8pSUTAI9-4pyWyUMeQU=", "properties": {"@spider": "usps_collection_boxes", "addr:city": "ASPERMONT", "addr:country": "US", "addr:full": "704 S WASHINGTON AVE", "addr:postcode": "79502", "addr:state": "TX", "brand": "USPS", "collection_times": "Mo-Fr 16:00; Sa 09:00", "name": "USPS COLLECTION BOX - BLUE BOX", "note": "ON 12/24 AND 12/31, THIS BOX MAY BE COLLECTED AS EARLY AS 12 NOON.", "ref": "7950200000"}, "type": "Feature"}
{"geometry": {"coordinates": [-100.228872, 33.138085], "type": "Point"}, "id": "BCJxLN-PDSUAjVEVQ5DigaJxj8o=", "properties": {"@spider": "usps_collection_boxes", "addr:city": "ASPERMONT", "addr:country": "US", "addr:full": "704 S WASHINGTON AVE", "addr:postcode": "79502", "addr:state": "TX", "brand": "USPS", "collection_times": "Mo-Fr 16:00", "name": "USPS COLLECTION BOX - PO LOBBY", "note": "ON 12/24 AND 12/31, THIS BOX MAY BE COLLECTED AS EARLY AS 12 NOON.", "ref": "7950200001"}, "type": "Feature"}
{"geometry": {"coordinates": [-100.228932716, 33.138028287], "type": "Point"}, "id": "x3qHtkfoW7ggfZmRCpfVrIMWMIg=", "properties": {"@spider": "usps_collection_boxes", "addr:city": "ASPERMONT", "addr:country": "US", "addr:full": "704 S WASHINGTON AVE", "addr:postcode": "79502", "addr:state": "TX", "brand": "USPS", "collection_times": "Mo-Fr 16:30", "name": "USPS COLLECTION BOX - PO LOBBY", "note": "ON 12/24 AND 12/31, THIS BOX MAY BE COLLECTED AS EARLY AS 12 NOON.", "ref": "7950200002"}, "type": "Feature"}
{"geometry": {"coordinates": [-99.395864, 32.393432], "type": "Point"}, "id": "6ziuLAH4-9QUFpdkntLGvktONfw=", "properties": {"@spider": "usps_collection_boxes", "addr:city": "BAIRD", "addr:country": "US", "addr:full": "208 W 3RD ST", "addr:postcode": "79504", "addr:state": "TX", "brand": "USPS", "collection_times": "Mo-Fr 16:00; Sa 11:45", "name": "USPS COLLECTION BOX - BLUE BOX", "note": "ON 12/24 AND 12/31, THIS BOX MAY BE COLLECTED AS EARLY AS 12 NOON.", "ref": "7950400005"}, "type": "Feature"}
{"geometry": {"coordinates": [-99.395778, 32.393399], "type": "Point"}, "id": "E67hDWhQT0b2Yqq-YNEMZBiK9ts=", "properties": {"@spider": "usps_collection_boxes", "addr:city": "BAIRD", "addr:country": "US", "addr:full": "208 W 3RD ST", "addr:postcode": "79504", "addr:state": "TX", "brand": "USPS", "collection_times": "Mo-Fr 16:00; Sa 11:45", "name": "USPS COLLECTION BOX - PO LOBBY", "note": "ON 12/24 AND 12/31, THIS BOX MAY BE COLLECTED AS EARLY AS 12 NOON.", "ref": "7950400008"}, "type": "Feature"}
{"geometry": {"coordinates": [-99.395778, 32.393399], "type": "Point"}, "id": "Nab-PznEAhk6xcDp97t8A3zLgTY=", "properties": {"@spider": "usps_collection_boxes", "addr:city": "BAIRD", "addr:country": "US", "addr:full": "208 W 3RD ST", "addr:postcode": "79504", "addr:state": "TX", "brand": "USPS", "collection_times": "Mo-Fr 16:00; Sa 11:45", "name": "USPS COLLECTION BOX - PO LOBBY", "note": "ON 12/24 AND 12/31, THIS BOX MAY BE COLLECTED AS EARLY AS 12 NOON.", "ref": "7950400009"}, "type": "Feature"}
{"geometry": {"coordinates": [-99.395832141, 32.393464232], "type": "Point"}, "id": "AaKWR8whcr-dMEIOpksLys9lzOs=", "properties": {"@spider": "usps_collection_boxes", "addr:city": "BAIRD", "addr:country": "US", "addr:full": "208 W 3RD ST", "addr:postcode": "79504", "addr:state": "TX", "brand": "USPS", "collection_times": "Mo-Fr 16:00; Sa 12:00", "name": "USPS COLLECTION BOX - PO LOBBY", "note": "ON 12/24 AND 12/31, THIS BOX MAY BE COLLECTED AS EARLY AS 12 NOON.", "ref": "7950400010"}, "type": "Feature"}
{"geometry": {"coordinates": [-99.792609, 33.583874], "type": "Point"}, "id": "IFrs-sSbkxH0kOQeNs_kgdt0E-A=", "properties": {"@spider": "usps_collection_boxes", "addr:city": "BENJAMIN", "addr:country": "US", "addr:full": "105 S HINTON ST", "addr:postcode": "79505", "addr:state": "TX", "brand": "USPS", "collection_times": "Mo-Fr 15:15; Sa 08:45", "name": "USPS COLLECTION BOX - BLUE BOX", "note": "ON 12/24 AND 12/31, THIS BOX MAY BE COLLECTED AS EARLY AS 12 NOON.", "ref": "7950500000"}, "type": "Feature"}
{"geometry": {"coordinates": [-99.792521473, 33.583898004], "type": "Point"}, "id": "Y-Gl6LaipXYTRYgFJalCbqqbnAQ=", "properties": {"@spider": "usps_collection_boxes", "addr:city": "BENJAMIN", "addr:country": "US", "addr:full": "105 S HINTON ST", "addr:postcode": "79505", "addr:state": "TX", "brand": "USPS", "collection_times": "Mo-Fr 15:30", "name": "USPS COLLECTION BOX - PO LOBBY", "note": "ON 12/24 AND 12/31, THIS BOX MAY BE COLLECTED AS EARLY AS 12 NOON.", "ref": "7950500001"}, "type": "Feature"}
{"geometry": {"coordinates": [-100.31795, 32.08597], "type": "Point"}, "id": "xctKix-KRWT6gNL-MqEo9YD-TrU=", "properties": {"@spider": "usps_collection_boxes", "addr:city": "BLACKWELL", "addr:country": "US", "addr:full": "101 NUECES ST", "addr:postcode": "79506", "addr:state": "TX", "brand": "USPS", "collection_times": "Mo-Fr 15:15; Sa 08:45", "name": "USPS COLLECTION BOX - BLUE BOX", "note": "ON 12/24 AND 12/31, THIS BOX MAY BE COLLECTED AS EARLY AS 12 NOON.", "ref": "7950600001"}, "type": "Feature"}
{"geometry": {"coordinates": [-100.317878, 32.086041], "type": "Point"}, "id": "JLOPvIfz0PJkPt7aNRYzeRwKURw=", "properties": {"@spider": "usps_collection_boxes", "addr:city": "BLACKWELL", "addr:country": "US", "addr:full": "101 NUECES ST", "addr:postcode": "79506", "addr:state": "TX", "brand": "USPS", "collection_times": "Mo-Fr 15:15; Sa 08:45", "name": "USPS COLLECTION BOX - PO LOBBY", "note": "ON 12/24 AND 12/31, THIS BOX MAY BE COLLECTED AS EARLY AS 12 NOON.", "ref": "7950600002"}, "type": "Feature"}
{"geometry": {"coordinates": [-100.317676535, 32.086180004], "type": "Point"}, "id": "JZmwIjHt35hMWRCo4xsgMoMZmr8=", "properties": {"@spider": "usps_collection_boxes", "addr:city": "BLACKWELL", "addr:country": "US", "addr:full": "101 NUECES ST", "addr:postcode": "79506", "addr:state": "TX", "brand": "USPS", "collection_times": "Mo-Fr 15:15; Sa 09:00", "name": "USPS COLLECTION BOX - PO LOBBY", "note": "ON 12/24 AND 12/31, THIS BOX MAY BE COLLECTED AS EARLY AS 12 NOON.", "ref": "7950600003"}, "type": "Feature"}
{"geometry": {"coordinates": [-99.83026, 32.273392], "type": "Point"}, "id": "C-UMnvG3LdS6MRlv-g7AMNxiPSM=", "properties": {"@spider": "usps_collection_boxes", "addr:city": "BUFFALO GAP", "addr:country": "US", "addr:full": "1218 LITEL ST", "addr:postcode": "79508", "addr:state": "TX", "brand": "USPS", "collection_times": "Mo-Fr 15:55; Sa 08:55", "name": "USPS COLLECTION BOX - BLUE BOX", "note": "ON 12/24 AND 12/31, THIS BOX MAY BE COLLECTED AS EARLY AS 12 NOON.", "ref": "7950800000"}, "type": "Feature"}
{"geometry": {"coordinates": [-99.830229, 32.273483], "type": "Point"}, "id": "Fsu4A4kauzWOySF1n3cWhV0vJoo=", "properties": {"@spider": "usps_collection_boxes", "addr:city": "BUFFALO GAP", "addr:country": "US", "addr:full": "1218 LITEL ST", "addr:postcode": "79508", "addr:state": "TX", "brand": "USPS", "collection_times": "Mo-Fr 15:55; Sa 08:55", "name": "USPS COLLECTION BOX - PO LOBBY", "note": "ON 12/24 AND 12/31, THIS BOX MAY BE COLLECTED AS EARLY AS 12 NOON.", "ref": "7950800001"}, "type": "Feature"}
{"geometry": {"coordinates": [-99.830264541, 32.27346242], "type": "Point"}, "id": "vvS2iKwo8PFZRDeGZJBSF7maD3A=", "properties": {"@spider": "usps_collection_boxes", "addr:city": "BUFFALO GAP", "addr:country": "US", "addr:full": "1218 LITEL ST", "addr:postcode": "79508", "addr:state": "TX", "brand": "USPS", "collection_times": "Mo-Fr 16:00; Sa 09:00", "name": "USPS COLLECTION BOX - PO LOBBY", "note": "ON 12/24 AND 12/31, THIS BOX MAY BE COLLECTED AS EARLY AS 12 NOON.", "ref": "7950800002"}, "type": "Feature"}
{"geometry": {"coordinates": [-99.49708, 32.410891], "type": "Point"}, "id": "EOQiMXtgoZRcjHw0DryK2Togvpo=", "properties": {"@spider": "usps_collection_boxes", "addr:city": "CLYDE", "addr:country": "US", "addr:full": "615 ELM ST", "addr:postcode": "79510", "addr:state": "TX", "brand": "USPS", "collection_times": "Mo-Fr 16:30; Sa 09:30", "name": "USPS COLLECTION BOX - BLUE BOX", "note": "ON 12/24 AND 12/31, THIS BOX MAY BE COLLECTED AS EARLY AS 12 NOON.", "ref": "7951000000"}, "type": "Feature"}
{"geometry": {"coordinates": [-99.497114, 32.410814], "type": "Point"}, "id": "YCCsvrs-o4spApB7gYs6bKwSepI=", "properties": {"@spider": "usps_collection_boxes", "addr:city": "CLYDE", "addr:country": "US", "addr:full": "615 ELM ST", "addr:postcode": "79510", "addr:state": "TX", "brand": "USPS", "collection_times": "Mo-Fr 16:30; Sa 09:30", "name": "USPS COLLECTION BOX - BLUE BOX", "note": "ON 12/24 AND 12/31, THIS BOX MAY BE COLLECTED AS EARLY AS 12 NOON.", "ref": "7951000001"}, "type": "Feature"}
{"geometry": {"coordinates": [-99.497114, 32.410814], "type": "Point"}, "id": "7LnlnxKR8NM5n2SHKYIPm9O9O48=", "properties": {"@spider": "usps_collection_boxes", "addr:city": "CLYDE", "addr:country": "US", "addr:full": "615 ELM ST", "addr:postcode": "79510", "addr:state": "TX", "brand": "USPS", "collection_times": "Mo-Fr 16:30; Sa 09:30", "name": "USPS COLLECTION BOX - PO LOBBY", "note": "ON 12/24 AND 12/31, THIS BOX MAY BE COLLECTED AS EARLY AS 12 NOON.", "ref": "7951000003"}, "type": "Feature"}
{"geometry": {"coordinates": [-99.497061455, 32.411492969], "type": "Point"}, "id": "16U3z_pteJGRnZaLh4ZDmAjTzbA=", "properties": {"@spider": "usps_collection_boxes", "addr:city": "CLYDE", "addr:country": "US", "addr:full": "615 ELM ST", "addr:postcode": "79510", "addr:state": "TX", "brand": "USPS", "collection_times": "Mo-Fr 16:30", "name": "USPS COLLECTION BOX - PO LOBBY", "note": "ON 12/24 AND 12/31, THIS BOX MAY BE COLLECTED AS EARLY AS 12 NOON.", "ref": "7951000004"}, "type": "Feature"}
{"geometry": {"coordinates": [-101.3056779381, 32.293953008], "type": "Point"}, "id": "ajXqhhIADByl1_YJ3L6n-8qXpiQ=", "properties": {"@spider": "usps_collection_boxes", "addr:city": "COAHOMA", "addr:country": "US", "addr:full": "102 S 1ST ST", "addr:postcode": "79511", "addr:state": "TX", "brand": "USPS", "collection_times": "Mo-Fr 15:00; Sa 11:00", "name": "USPS COLLECTION BOX - BLUE BOX", "note": "ON 12/24 AND 12/31, THIS BOX MAY BE COLLECTED AS EARLY AS 12 NOON.", "ref": "7951100000"}, "type": "Feature"}
{"geometry": {"coordinates": [-101.303904, 32.288414], "type": "Point"}, "id": "TWKzrKmyzJFkRdTKb9kqY4MZ3zE=", "properties": {"@spider": "usps_collection_boxes", "addr:city": "COAHOMA", "addr:country": "US", "addr:full": "102 S 1ST ST", "addr:postcode": "79511", "addr:state": "TX", "brand": "USPS", "collection_times": "Mo-Fr 15:00; Sa 11:00", "name": "USPS COLLECTION BOX - BLUE BOX", "note": "ON 12/24 AND 12/31, THIS BOX MAY BE COLLECTED AS EARLY AS 12 NOON.", "ref": "7951100001"}, "type": "Feature"}
{"geometry": {"coordinates": [-101.303904, 32.288414], "type": "Point"}, "id": "GBz_KyBP6kg73hnPynSTpuwNGmE=", "properties": {"@spider": "usps_collection_boxes", "addr:city": "COAHOMA", "addr:country": "US", "addr:full": "102 S 1ST ST", "addr:postcode": "79511", "addr:state": "TX", "brand": "USPS", "collection_times": "Mo-Fr 15:00; Sa 11:00", "name": "USPS COLLECTION BOX - PO LOBBY", "note": "ON 12/24 AND 12/31, THIS BOX MAY BE COLLECTED AS EARLY AS 12 NOON.", "ref": "7951100002"}, "type": "Feature"}
{"geometry": {"coordinates": [-101.305680723, 32.293950659], "type": "Point"}, "id": "n-Gg0L-i48LYYiDfIRd3sICZbzQ=", "properties": {"@spider": "usps_collection_boxes", "addr:city": "COAHOMA", "addr:country": "US", "addr:full": "102 S 1ST ST", "addr:postcode": "79511", "addr:state": "TX", "brand": "USPS", "collection_times": "Mo-Fr 15:35", "name": "USPS COLLECTION BOX - PO LOBBY", "note": "ON 12/24 AND 12/31, THIS BOX MAY BE COLLECTED AS EARLY AS 12 NOON.", "ref": "7951100004"}, "type": "Feature"}
{"geometry": {"coordinates": [-100.861295, 32.410501], "type": "Point"}, "id": "DkBQiDSnWoaX-G5LXI5fixNXHAU=", "properties": {"@spider": "usps_collection_boxes", "addr:city": "COLORADO CITY", "addr:country": "US", "addr:full": "2225 HICKORY ST", "addr:postcode": "79512", "addr:state": "TX", "brand": "USPS", "collection_times": "Mo-Sa 14:00", "name": "USPS COLLECTION BOX - BLUE BOX", "note": "ON 12/24 AND 12/31, THIS BOX MAY BE COLLECTED AS EARLY AS 12 NOON.", "ref": "7951200001"}, "type": "Feature"}
{"geometry": {"coordinates": [-100.867548, 32.389971], "type": "Point"}, "id": "1jhEWqmvFADLkjj1m-oNfxNbwUM=", "properties": {"@spider": "usps_collection_boxes", "addr:city": "COLORADO CITY", "addr:country": "US", "addr:full": "116 W 3RD ST", "addr:postcode": "79512", "addr:state": "TX", "brand": "USPS", "collection_times": "Mo-Fr 16:00; Sa 14:00", "name": "USPS COLLECTION BOX - BLUE BOX", "note": "ON 12/24 AND 12/31, THIS BOX MAY BE COLLECTED AS EARLY AS 12 NOON.", "ref": "7951200005"}, "type": "Feature"}
{"geometry": {"coordinates": [-100.867232, 32.389688], "type": "Point"}, "id": "JeAWZ7T7AKCBIx5ySE8lEsW6TOo=", "properties": {"@spider": "usps_collection_boxes", "addr:city": "COLORADO CITY", "addr:country": "US", "addr:full": "116 W 3RD ST", "addr:postcode": "79512", "addr:state": "TX", "brand": "USPS", "collection_times": "Mo-Fr 16:00", "name": "USPS COLLECTION BOX - PO LOBBY", "note": "ON 12/24 AND 12/31, THIS BOX MAY BE COLLECTED AS EARLY AS 12 NOON.", "ref": "7951200007"}, "type": "Feature"}
{"geometry": {"coordinates": [-100.867232, 32.389688], "type": "Point"}, "id": "x58xgGHYr2OrGSvbPk4ohNPyQJQ=", "properties": {"@spider": "usps_collection_boxes", "addr:city": "COLORADO CITY", "addr:country": "US", "addr:full": "116 W 3RD ST", "addr:postcode": "79512", "addr:state": "TX", "brand": "USPS", "collection_times": "Mo-Fr 16:00", "name": "USPS COLLECTION BOX - PO LOBBY", "note": "ON 12/24 AND 12/31, THIS BOX MAY BE COLLECTED AS EARLY AS 12 NOON.", "ref": "7951200008"}, "type": "Feature"}
{"geometry": {"coordinates": [-100.867257744, 32.389717409], "type": "Point"}, "id": "G4VjWCIbupwiDME_cyLUtcpKu7U=", "properties": {"@spider": "usps_collection_boxes", "addr:city": "COLORADO CITY", "addr:country": "US", "addr:full": "116 W 3RD ST", "addr:postcode": "79512", "addr:state": "TX", "brand": "USPS", "collection_times": "Mo-Fr 16:20", "name": "USPS COLLECTION BOX - PO LOBBY", "note": "ON 12/24 AND 12/31, THIS BOX MAY BE COLLECTED AS EARLY AS 12 NOON.", "ref": "7951200009"}, "type": "Feature"}
{"geometry": {"coordinates": [-100.663783, 33.363353], "type": "Point"}, "id": "4DVYD11PBl3rZIC5_OfS7c3MJbs=", "properties": {"@spider": "usps_collection_boxes", "addr:city": "GIRARD", "addr:country": "US", "addr:full": "1485 STATE HIGHWAY 70", "addr:postcode": "79518", "addr:state": "TX", "brand": "USPS", "collection_times": "Mo-Fr 13:30; Sa 08:30", "name": "USPS COLLECTION BOX - BLUE BOX", "note": "ON 12/24 AND 12/31, THIS BOX MAY BE COLLECTED AS EARLY AS 12 NOON.", "ref": "7951800000"}, "type": "Feature"}
{"geometry": {"coordinates": [-100.663774, 33.363284], "type": "Point"}, "id": "WfhfXYnocl3US7wWA1wEfPr6vY4=", "properties": {"@spider": "usps_collection_boxes", "addr:city": "GIRARD", "addr:country": "US", "addr:full": "1485 STATE HIGHWAY 70", "addr:postcode": "79518", "addr:state": "TX", "brand": "USPS", "collection_times": "Mo-Fr 13:30; Sa 08:30", "name": "USPS COLLECTION BOX - PO LOBBY", "note": "ON 12/24 AND 12/31, THIS BOX MAY BE COLLECTED AS EARLY AS 12 NOON.", "ref": "7951800001"}, "type": "Feature"}
{"geometry": {"coordinates": [-100.662409094, 33.361331802], "type": "Point"}, "id": "jG2WUNQaIwWTEtexqek-ut9kHZY=", "properties": {"@spider": "usps_collection_boxes", "addr:city": "GIRARD", "addr:country": "US", "addr:full": "1485 STATE HIGHWAY 70", "addr:postcode": "79518", "addr:state": "TX", "brand": "USPS", "collection_times": "Mo-Fr 14:00", "name": "USPS COLLECTION BOX - PO LOBBY", "note": "ON 12/24 AND 12/31, THIS BOX MAY BE COLLECTED AS EARLY AS 12 NOON.", "ref": "7951800002"}, "type": "Feature"}
{"geometry": {"coordinates": [-100.124399, 32.882296], "type": "Point"}, "id": "AkzOzx_jClYqPVjmD_yZKy8u0X8=", "properties": {"@spider": "usps_collection_boxes", "addr:city": "HAMLIN", "addr:country": "US", "addr:full": "225 SE AVENUE A", "addr:postcode": "79520", "addr:state": "TX", "brand": "USPS", "collection_times": "Mo-Fr 16:00; Sa 08:00", "name": "USPS COLLECTION BOX - BLUE BOX", "note": "ON 12/24 AND 12/31, THIS BOX MAY BE COLLECTED AS EARLY AS 12 NOON.", "ref": "7952000001"}, "type": "Feature"}
{"geometry": {"coordinates": [-100.124184, 32.882509], "type": "Point"}, "id": "Oqwsf1KjNSr4grBoQhUpj-lmWpI=", "properties": {"@spider": "usps_collection_boxes", "addr:city": "HAMLIN", "addr:country": "US", "addr:full": "225 SE AVENUE A", "addr:postcode": "79520", "addr:state": "TX", "brand": "USPS", "collection_times": "Mo-Fr 16:00", "name": "USPS COLLECTION BOX - PO LOBBY", "note": "ON 12/24 AND 12/31, THIS BOX MAY BE COLLECTED AS EARLY AS 12 NOON.", "ref": "7952000004"}, "type": "Feature"}
{"geometry": {"coordinates": [-100.124626769, 32.882755403], "type": "Point"}, "id": "MtPi_XQKz-YN0B-y9V75Wuwo9yc=", "properties": {"@spider": "usps_collection_boxes", "addr:city": "HAMLIN", "addr:country": "US", "addr:full": "225 SE AVENUE A", "addr:postcode": "79520", "addr:state": "TX", "brand": "USPS", "collection_times": "Mo-Fr 16:00", "name": "USPS COLLECTION BOX - PO LOBBY", "note": "ON 12/24 AND 12/31, THIS BOX MAY BE COLLECTED AS EARLY AS 12 NOON.", "ref": "7952000005"}, "type": "Feature"}
{"geometry": {"coordinates": [-99.730379, 33.156514], "type": "Point"}, "id": "SPdIdRNRffihMsIc8zWtd1W56s8=", "properties": {"@spider": "usps_collection_boxes", "addr:city": "HASKELL", "addr:country": "US", "addr:full": "201 S 1ST ST", "addr:postcode": "79521", "addr:state": "TX", "brand": "USPS", "collection_times": "Mo-Fr 16:30; Sa 09:00", "name": "USPS COLLECTION BOX - BLUE BOX", "note": "ON 12/24 AND 12/31, THIS BOX MAY BE COLLECTED AS EARLY AS 12 NOON.", "ref": "7952100000"}, "type": "Feature"}
{"geometry": {"coordinates": [-99.730271, 33.15654], "type": "Point"}, "id": "tng-wJGSsoe9bAT3sR4nhTDn6q4=", "properties": {"@spider": "usps_collection_boxes", "addr:city": "HASKELL", "addr:country": "US", "addr:full": "201 S 1ST ST", "addr:postcode": "79521", "addr:state": "TX", "brand": "USPS", "collection_times": "Mo-Fr 16:30; Sa 09:00", "name": "USPS COLLECTION BOX - PO LOBBY", "note": "ON 12/24 AND 12/31, THIS BOX MAY BE COLLECTED AS EARLY AS 12 NOON.", "ref": "7952100003"}, "type": "Feature"}
{"geometry": {"coordinates": [-99.730271, 33.15654], "type": "Point"}, "id": "i4pyfQzegjNsz_Jpi9ZOmxduLUg=", "properties": {"@spider": "usps_collection_boxes", "addr:city": "HASKELL", "addr:country": "US", "addr:full": "201 S 1ST ST", "addr:postcode": "79521", "addr:state": "TX", "brand": "USPS", "collection_times": "Mo-Fr 16:30; Sa 09:00", "name": "USPS COLLECTION BOX - BLUE BOX", "note": "ON 12/24 AND 12/31, THIS BOX MAY BE COLLECTED AS EARLY AS 12 NOON.", "ref": "7952100005"}, "type": "Feature"}
{"geometry": {"coordinates": [-99.73032026, 33.157489691], "type": "Point"}, "id": "JEw9iyGmO-IdwIgISa1lFKjlsWQ=", "properties": {"@spider": "usps_collection_boxes", "addr:city": "HASKELL", "addr:country": "US", "addr:full": "201 S 1ST ST", "addr:postcode": "79521", "addr:state": "TX", "brand": "USPS", "collection_times": "Mo-Fr 16:30", "name": "USPS COLLECTION BOX - PO LOBBY", "note": "ON 12/24 AND 12/31, THIS BOX MAY BE COLLECTED AS EARLY AS 12 NOON.", "ref": "7952100006"}, "type": "Feature"}
{"geometry": {"coordinates": [-99.824425, 32.617935], "type": "Point"}, "id": "z81ZZQmlasG2IeqTNuxp9a0dN1w=", "properties": {"@spider": "usps_collection_boxes", "addr:city": "HAWLEY", "addr:country": "US", "addr:full": "525 E ACCESS RD", "addr:postcode": "79525", "addr:state": "TX", "brand": "USPS", "collection_times": "Mo-Fr 16:00; Sa 09:00", "name": "USPS COLLECTION BOX - BLUE BOX", "note": "ON 12/24 AND 12/31, THIS BOX MAY BE COLLECTED AS EARLY AS 12 NOON.", "ref": "7952500000"}, "type": "Feature"}
{"geometry": {"coordinates": [-99.824419, 32.617841], "type": "Point"}, "id": "iLsmU45BDLWXdxQO2POVcDbbwF8=", "properties": {"@spider": "usps_collection_boxes", "addr:city": "HAWLEY", "addr:country": "US", "addr:full": "525 E ACCESS RD", "addr:postcode": "79525", "addr:state": "TX", "brand": "USPS", "collection_times": "Mo-Fr 16:00", "name": "USPS COLLECTION BOX - PO LOBBY", "note": "ON 12/24 AND 12/31, THIS BOX MAY BE COLLECTED AS EARLY AS 12 NOON.", "ref": "7952500002"}, "type": "Feature"}
{"geometry": {"coordinates": [-99.82114688, 32.61220203], "type": "Point"}, "id": "G6_jzd3XIZKWh-gMcRgZQo7fC7M=", "properties": {"@spider": "usps_collection_boxes", "addr:city": "HAWLEY", "addr:country": "US", "addr:full": "525 E ACCESS RD", "addr:postcode": "79525", "addr:state": "TX", "brand": "USPS", "collection_times": "Mo-Fr 16:00", "name": "USPS COLLECTION BOX - PO LOBBY", "note": "ON 12/24 AND 12/31, THIS BOX MAY BE COLLECTED AS EARLY AS 12 NOON.", "ref": "7952500003"}, "type": "Feature"}
{"geometry": {"coordinates": [-100.760641, 32.635809], "type": "Point"}, "id": "2816yNrzIOLveBt2N9tG7gPFOSk=", "properties": {"@spider": "usps_collection_boxes", "addr:city": "HERMLEIGH", "addr:country": "US", "addr:full": "580 JAMES ST", "addr:postcode": "79526", "addr:state": "TX", "brand": "USPS", "collection_times": "Mo-Fr 15:15; Sa 08:00", "name": "USPS COLLECTION BOX - BLUE BOX", "note": "ON 12/24 AND 12/31, THIS BOX MAY BE COLLECTED AS EARLY AS 12 NOON.", "ref": "7952600000"}, "type": "Feature"}
{"geometry": {"coordinates": [-100.760682, 32.635757], "type": "Point"}, "id": "glncDkGLfwlxkwO2BbKv8t4HIPM=", "properties": {"@spider": "usps_collection_boxes", "addr:city": "HERMLEIGH", "addr:country": "US", "addr:full": "580 JAMES ST", "addr:postcode": "79526", "addr:state": "TX", "brand": "USPS", "collection_times": "Mo-Fr 15:15; Sa 08:00", "name": "USPS COLLECTION BOX - PO LOBBY", "note": "ON 12/24 AND 12/31, THIS BOX MAY BE COLLECTED AS EARLY AS 12 NOON.", "ref": "7952600002"}, "type": "Feature"}
{"geometry": {"coordinates": [-100.760775438, 32.635738277], "type": "Point"}, "id": "LLqZm-so9p85zCkO0JulcoyPJaA=", "properties": {"@spider": "usps_collection_boxes", "addr:city": "HERMLEIGH", "addr:country": "US", "addr:full": "580 JAMES ST", "addr:postcode": "79526", "addr:state": "TX", "brand": "USPS", "collection_times": "Mo-Fr 15:30", "name": "USPS COLLECTION BOX - PO LOBBY", "note": "ON 12/24 AND 12/31, THIS BOX MAY BE COLLECTED AS EARLY AS 12 NOON.", "ref": "7952600003"}, "type": "Feature"}
{"geometry": {"coordinates": [-101.003599, 32.581958], "type": "Point"}, "id": "dJOAtO7DRX_Wd0z3ZbUEUInbgwI=", "properties": {"@spider": "usps_collection_boxes", "addr:city": "IRA", "addr:country": "US", "addr:full": "6071 W FM 1606", "addr:postcode": "79527", "addr:state": "TX", "brand": "USPS", "collection_times": "Mo-Fr 15:45; Sa 11:15", "name": "USPS COLLECTION BOX - BLUE BOX", "note": "ON 12/24 AND 12/31, THIS BOX MAY BE COLLECTED AS EARLY AS 12 NOON.", "ref": "7952700000"}, "type": "Feature"}
{"geometry": {"coordinates": [-101.003567, 32.581984], "type": "Point"}, "id": "Z-pQnNCRbLQ5CIfNJ6dUU2yJrko=", "properties": {"@spider": "usps_collection_boxes", "addr:city": "IRA", "addr:country": "US", "addr:full": "6071 W FM 1606", "addr:postcode": "79527", "addr:state": "TX", "brand": "USPS", "collection_times": "Mo-Fr 15:45; Sa 11:15", "name": "USPS COLLECTION BOX - PO LOBBY", "note": "ON 12/24 AND 12/31, THIS BOX MAY BE COLLECTED AS EARLY AS 12 NOON.", "ref": "7952700002"}, "type": "Feature"}
{"geometry": {"coordinates": [-101.00347178, 32.581952488], "type": "Point"}, "id": "nM29DTjsdQVYBA0AB_iyxHZBLnQ=", "properties": {"@spider": "usps_collection_boxes", "addr:city": "IRA", "addr:country": "US", "addr:full": "6071 W FM 1606", "addr:postcode": "79527", "addr:state": "TX", "brand": "USPS", "collection_times": "Mo-Fr 15:45; Sa 11:15", "name": "USPS COLLECTION BOX - PO LOBBY", "note": "ON 12/24 AND 12/31, THIS BOX MAY BE COLLECTED AS EARLY AS 12 NOON.", "ref": "7952700003"}, "type": "Feature"}
{"geometry": {"coordinates": [-100.573798, 33.244071], "type": "Point"}, "id": "9CYL7hFaC5AQoFI1XbKqMtHLtZY=", "properties": {"@spider": "usps_collection_boxes", "addr:city": "JAYTON", "addr:country": "US", "addr:full": "840 S MAIN ST", "addr:postcode": "79528", "addr:state": "TX", "brand": "USPS", "collection_times": "Mo-Fr 15:30; Sa 09:00", "name": "USPS COLLECTION BOX - BLUE BOX", "note": "ON 12/24 AND 12/31, THIS BOX MAY BE COLLECTED AS EARLY AS 12 NOON.", "ref": "7952800001"}, "type": "Feature"}
{"geometry": {"coordinates": [-100.573767, 33.244038], "type": "Point"}, "id": "M2mlnrpC9bBLx1Bd7XN_d7bOpZ4=", "properties": {"@spider": "usps_collection_boxes", "addr:city": "JAYTON", "addr:country": "US", "addr:full": "840 S MAIN ST", "addr:postcode": "79528", "addr:state": "TX", "brand": "USPS", "collection_times": "Mo-Fr 15:30; Sa 09:00", "name": "USPS COLLECTION BOX - PO LOBBY", "note": "ON 12/24 AND 12/31, THIS BOX MAY BE COLLECTED AS EARLY AS 12 NOON.", "ref": "7952800003"}, "type": "Feature"}
{"geometry": {"coordinates": [-100.573832606, 33.242575211], "type": "Point"}, "id": "rnZ_a2WD_XafXiALSiwMl_KdehA=", "properties": {"@spider": "usps_collection_boxes", "addr:city": "JAYTON", "addr:country": "US", "addr:full": "840 S MAIN ST", "addr:postcode": "79528", "addr:state": "TX", "brand": "USPS", "collection_times": "Mo-Fr 15:30", "name": "USPS COLLECTION BOX - PO LOBBY", "note": "ON 12/24 AND 12/31, THIS BOX MAY BE COLLECTED AS EARLY AS 12 NOON.", "ref": "7952800004"}, "type": "Feature"}
{"geometry": {"coordinates": [-99.817909, 33.418244], "type": "Point"}, "id": "3BnG6yu8EvqmCR_ueB40ZdN3ULs=", "properties": {"@spider": "usps_collection_boxes", "addr:city": "KNOX CITY", "addr:country": "US", "addr:full": "107 N AVENUE A", "addr:postcode": "79529", "addr:state": "TX", "brand": "USPS", "collection_times": "Mo-Fr 16:00; Sa 09:15", "name": "USPS COLLECTION BOX - BLUE BOX", "note": "ON 12/24 AND 12/31, THIS BOX MAY BE COLLECTED AS EARLY AS 12 NOON.", "ref": "7952900000"}, "type": "Feature"}
{"geometry": {"coordinates": [-99.817941, 33.418165], "type": "Point"}, "id": "IvduIBv3imsrPYPE0gy9Z5thfdI=", "properties": {"@spider": "usps_collection_boxes", "addr:city": "KNOX CITY", "addr:country": "US", "addr:full": "107 N AVENUE A", "addr:postcode": "79529", "addr:state": "TX", "brand": "USPS", "collection_times": "Mo-Fr 16:00", "name": "USPS COLLECTION BOX - PO LOBBY", "note": "ON 12/24 AND 12/31, THIS BOX MAY BE COLLECTED AS EARLY AS 12 NOON.", "ref": "7952900001"}, "type": "Feature"}
{"geometry": {"coordinates": [-99.817886045, 33.41821282], "type": "Point"}, "id": "EzNe2Kzmz6FPxo4ELWdAAP5JzY4=", "properties": {"@spider": "usps_collection_boxes", "addr:city": "KNOX CITY", "addr:country": "US", "addr:full": "107 N AVENUE A", "addr:postcode": "79529", "addr:state": "TX", "brand": "USPS", "collection_times": "Mo-Fr 16:05", "name": "USPS COLLECTION BOX - PO LOBBY", "note": "ON 12/24 AND 12/31, THIS BOX MAY BE COLLECTED AS EARLY AS 12 NOON.", "ref": "7952900002"}, "type": "Feature"}
{"geometry": {"coordinates": [-99.74508, 32.135024], "type": "Point"}, "id": "utZ6w0h6Yt-Z19IAHt09TccMdBk=", "properties": {"@spider": "usps_collection_boxes", "addr:city": "LAWN", "addr:country": "US", "addr:full": "151 MAIN ST", "addr:postcode": "79530", "addr:state": "TX", "brand": "USPS", "collection_times": "Mo-Fr 15:00; Sa 08:00", "name": "USPS COLLECTION BOX - BLUE BOX", "note": "ON 12/24 AND 12/31, THIS BOX MAY BE COLLECTED AS EARLY AS 12 NOON.", "ref": "7953000000"}, "type": "Feature"}
{"geometry": {"coordinates": [-99.74508, 32.135024], "type": "Point"}, "id": "W9_Pib9ppDbs8BNzNvkrPcN3qL8=", "properties": {"@spider": "usps_collection_boxes", "addr:city": "LAWN", "addr:country": "US", "addr:full": "151 MAIN ST", "addr:postcode": "79530", "addr:state": "TX", "brand": "USPS", "collection_times": "Mo-Fr 15:00; Sa 08:00", "name": "USPS COLLECTION BOX - PO LOBBY", "note": "ON 12/24 AND 12/31, THIS BOX MAY BE COLLECTED AS EARLY AS 12 NOON.", "ref": "7953000002"}, "type": "Feature"}
{"geometry": {"coordinates": [-99.745254, 32.134987521], "type": "Point"}, "id": "CpNHYtgznlw2zrSOD6Pocc5xhNE=", "properties": {"@spider": "usps_collection_boxes", "addr:city": "LAWN", "addr:country": "US", "addr:full": "151 MAIN ST", "addr:postcode": "79530", "addr:state": "TX", "brand": "USPS", "collection_times": "Mo-Fr 15:00", "name": "USPS COLLECTION BOX - PO LOBBY", "note": "ON 12/24 AND 12/31, THIS BOX MAY BE COLLECTED AS EARLY AS 12 NOON.", "ref": "7953000003"}, "type": "Feature"}
{"geometry": {"coordinates": [-100.712132, 32.410971], "type": "Point"}, "id": "vk7Tsy1rN5Gslo8JPwShNXPzH3M=", "properties": {"@spider": "usps_collection_boxes", "addr:city": "LORAINE", "addr:country": "US", "addr:full": "118 S MAIN ST", "addr:postcode": "79532", "addr:state": "TX", "brand": "USPS", "collection_times": "Mo-Fr 12:00", "name": "USPS COLLECTION BOX - PO LOBBY", "ref": "7953200002"}, "type": "Feature"}
{"geometry": {"coordinates": [-100.711982989, 32.410356434], "type": "Point"}, "id": "1IZZRiTIOY72ulUMPg8jDxFi9OE=", "properties": {"@spider": "usps_collection_boxes", "addr:city": "LORAINE", "addr:country": "US", "addr:full": "118 S MAIN ST", "addr:postcode": "79532", "addr:state": "TX", "brand": "USPS", "collection_times": "Mo-Fr 12:00", "name": "USPS COLLECTION BOX - PO LOBBY", "ref": "7953200003"}, "type": "Feature"}
{"geometry": {"coordinates": [-99.624199, 32.801332], "type": "Point"}, "id": "Lc_TscOfnF-H8ggWjmu3XENMo9w=", "properties": {"@spider": "usps_collection_boxes", "addr:city": "LUEDERS", "addr:country": "US", "addr:full": "125 E MAIN ST", "addr:postcode": "79533", "addr:state": "TX", "brand": "USPS", "collection_times": "Mo-Fr 15:00; Sa 12:00", "name": "USPS COLLECTION BOX - BLUE BOX", "note": "ON 12/24 AND 12/31, THIS BOX MAY BE COLLECTED AS EARLY AS 12 NOON.", "ref": "7953300000"}, "type": "Feature"}
{"geometry": {"coordinates": [-99.624173, 32.801305], "type": "Point"}, "id": "dkTx3ackRVHq7HYg--ztQ7IRhdA=", "properties": {"@spider": "usps_collection_boxes", "addr:city": "LUEDERS", "addr:country": "US", "addr:full": "125 E MAIN ST", "addr:postcode": "79533", "addr:state": "TX", "brand": "USPS", "collection_times": "Mo-Fr 15:00; Sa 12:00", "name": "USPS COLLECTION BOX - PO LOBBY", "note": "ON 12/24 AND 12/31, THIS BOX MAY BE COLLECTED AS EARLY AS 12 NOON.", "ref": "7953300001"}, "type": "Feature"}
{"geometry": {"coordinates": [-99.624550249, 32.801329508], "type": "Point"}, "id": "Ymf_rFXC7A0byg5r5QSgyWo7RGY=", "properties": {"@spider": "usps_collection_boxes", "addr:city": "LUEDERS", "addr:country": "US", "addr:full": "125 E MAIN ST", "addr:postcode": "79533", "addr:state": "TX", "brand": "USPS", "collection_times": "Mo-Fr 15:30; Sa 12:30", "name": "USPS COLLECTION BOX - PO LOBBY", "note": "ON 12/24 AND 12/31, THIS BOX MAY BE COLLECTED AS EARLY AS 12 NOON.", "ref": "7953300003"}, "type": "Feature"}
{"geometry": {"coordinates": [-100.204856, 32.78183], "type": "Point"}, "id": "KhFEjfpbesawGa9zxr5xsRH4XgU=", "properties": {"@spider": "usps_collection_boxes", "addr:city": "MCCAULLEY", "addr:country": "US", "addr:full": "1238 COUNTY ROAD 764", "addr:postcode": "79534", "addr:state": "TX", "brand": "USPS", "collection_times": "Mo-Fr 14:45", "name": "USPS COLLECTION BOX - PO LOBBY", "note": "ON 12/24 AND 12/31, THIS BOX MAY BE COLLECTED AS EARLY AS 12 NOON.", "ref": "7953400000"}, "type": "Feature"}
{"geometry": {"coordinates": [-100.204841, 32.781861], "type": "Point"}, "id": "jh_wPAtm5CXpGt-GwVyloF5Zk9A=", "properties": {"@spider": "usps_collection_boxes", "addr:city": "MCCAULLEY", "addr:country": "US", "addr:full": "1238 COUNTY ROAD 764", "addr:postcode": "79534", "addr:state": "TX", "brand": "USPS", "collection_times": "Mo-Fr 14:45; Sa 08:00", "name": "USPS COLLECTION BOX - BLUE BOX", "note": "ON 12/24 AND 12/31, THIS BOX MAY BE COLLECTED AS EARLY AS 12 NOON.", "ref": "7953400001"}, "type": "Feature"}
{"geometry": {"coordinates": [-100.20448245, 32.782011967], "type": "Point"}, "id": "e1mvfsybFnRT_VJwoGxQxgZ9PIM=", "properties": {"@spider": "usps_collection_boxes", "addr:city": "MCCAULLEY", "addr:country": "US", "addr:full": "1238 COUNTY ROAD 764", "addr:postcode": "79534", "addr:state": "TX", "brand": "USPS", "collection_times": "Mo-Fr 16:00", "name": "USPS COLLECTION BOX - PO LOBBY", "note": "ON 12/24 AND 12/31, THIS BOX MAY BE COLLECTED AS EARLY AS 12 NOON.", "ref": "7953400002"}, "type": "Feature"}
{"geometry": {"coordinates": [-100.45416, 32.234516], "type": "Point"}, "id": "31we-ZICVzDiBZiTRlENaYLm9g4=", "properties": {"@spider": "usps_collection_boxes", "addr:city": "MARYNEAL", "addr:country": "US", "addr:full": "11126 FM 608", "addr:postcode": "79535", "addr:state": "TX", "brand": "USPS", "collection_times": "Mo-Fr 11:00; Sa 11:15", "name": "USPS COLLECTION BOX - PO LOBBY", "ref": "7953500001"}, "type": "Feature"}
{"geometry": {"coordinates": [-100.452742426, 32.234902819], "type": "Point"}, "id": "HHkT9uq-CMMXcLHcLZMUSl4k1oI=", "properties": {"@spider": "usps_collection_boxes", "addr:city": "MARYNEAL", "addr:country": "US", "addr:full": "11126 FM 608", "addr:postcode": "79535", "addr:state": "TX", "brand": "USPS", "collection_times": "Mo-Fr 11:00; Sa 12:00", "name": "USPS COLLECTION BOX - PO LOBBY", "ref": "7953500003"}, "type": "Feature"}
{"geometry": {"coordinates": [-100.011166, 32.471845], "type": "Point"}, "id": "24-1PvwL71GCEgeE1G36XVoFIww=", "properties": {"@spider": "usps_collection_boxes", "addr:city": "MERKEL", "addr:country": "US", "addr:full": "222 EDWARDS", "addr:postcode": "79536", "addr:state": "TX", "brand": "USPS", "collection_times": "Mo-Fr 16:00; Sa 12:00", "name": "USPS COLLECTION BOX - BLUE BOX", "note": "ON 12/24 AND 12/31, THIS BOX MAY BE COLLECTED AS EARLY AS 12 NOON.", "ref": "7953600002"}, "type": "Feature"}
{"geometry": {"coordinates": [-100.011207, 32.4718], "type": "Point"}, "id": "Z5dVK6ihOAdjDaCnntNLIry-cEc=", "properties": {"@spider": "usps_collection_boxes", "addr:city": "MERKEL", "addr:country": "US", "addr:full": "222 EDWARDS", "addr:postcode": "79536", "addr:state": "TX", "brand": "USPS", "collection_times": "Mo-Fr 16:00", "name": "USPS COLLECTION BOX - PO LOBBY", "note": "ON 12/24 AND 12/31, THIS BOX MAY BE COLLECTED AS EARLY AS 12 NOON.", "ref": "7953600003"}, "type": "Feature"}
{"geometry": {"coordinates": [-100.011080119, 32.472277282], "type": "Point"}, "id": "gCpJtgucCKZy9PPhbcFIUI5st90=", "properties": {"@spider": "usps_collection_boxes", "addr:city": "MERKEL", "addr:country": "US", "addr:full": "222 EDWARDS", "addr:postcode": "79536", "addr:state": "TX", "brand": "USPS", "collection_times": "Mo-Fr 16:00", "name": "USPS COLLECTION BOX - PO LOBBY", "note": "ON 12/24 AND 12/31, THIS BOX MAY BE COLLECTED AS EARLY AS 12 NOON.", "ref": "7953600005"}, "type": "Feature"}
{"geometry": {"coordinates": [-100.263261, 32.258213], "type": "Point"}, "id": "GiS661AKdbtbpTCvNBLVj_xCdDE=", "properties": {"@spider": "usps_collection_boxes", "addr:city": "NOLAN", "addr:country": "US", "addr:full": "1745 FM 126", "addr:postcode": "79537", "addr:state": "TX", "brand": "USPS", "collection_times": "Mo-Sa 10:30", "name": "USPS COLLECTION BOX - BLUE BOX", "ref": "7953700000"}, "type": "Feature"}
{"geometry": {"coordinates": [-100.263225, 32.258252], "type": "Point"}, "id": "cpezjnL8G_TdUBMAXWOh8nUY0OU=", "properties": {"@spider": "usps_collection_boxes", "addr:city": "NOLAN", "addr:country": "US", "addr:full": "1745 FM 126", "addr:postcode": "79537", "addr:state": "TX", "brand": "USPS", "collection_times": "Mo-Sa 10:30", "name": "USPS COLLECTION BOX - PO LOBBY", "ref": "7953700001"}, "type": "Feature"}
{"geometry": {"coordinates": [-100.263221609, 32.258175], "type": "Point"}, "id": "aUhGCZxuXhfAG5cRb0YctnCpA-g=", "properties": {"@spider": "usps_collection_boxes", "addr:city": "NOLAN", "addr:country": "US", "addr:full": "1745 FM 126", "addr:postcode": "79537", "addr:state": "TX", "brand": "USPS", "collection_times": "Mo-Sa 11:00", "name": "USPS COLLECTION BOX - PO LOBBY", "ref": "7953700002"}, "type": "Feature"}
{"geometry": {"coordinates": [-99.618188, 31.989081], "type": "Point"}, "id": "aAjVhbiZpTxm3IDmA2d05a-y7hw=", "properties": {"@spider": "usps_collection_boxes", "addr:city": "NOVICE", "addr:country": "US", "addr:full": "700 PARKER ST", "addr:postcode": "79538", "addr:state": "TX", "brand": "USPS", "collection_times": "Mo-Fr 13:00; Sa 09:30", "name": "USPS COLLECTION BOX - PO LOBBY", "note": "ON 12/24 AND 12/31, THIS BOX MAY BE COLLECTED AS EARLY AS 12 NOON.", "ref": "7953800002"}, "type": "Feature"}
{"geometry": {"coordinates": [-99.618259415, 31.989145415], "type": "Point"}, "id": "MoekytUjQH2RtB0XT-CwCT_i6sI=", "properties": {"@spider": "usps_collection_boxes", "addr:city": "NOVICE", "addr:country": "US", "addr:full": "700 PARKER ST", "addr:postcode": "79538", "addr:state": "TX", "brand": "USPS", "collection_times": "Mo-Fr 13:30; Sa 10:00", "name": "USPS COLLECTION BOX - PO LOBBY", "note": "ON 12/24 AND 12/31, THIS BOX MAY BE COLLECTED AS EARLY AS 12 NOON.", "ref": "7953800003"}, "type": "Feature"}
{"geometry": {"coordinates": [-99.842381, 33.37948], "type": "Point"}, "id": "SKtcJfd_U24debdLLEyXgzrc_sU=", "properties": {"@spider": "usps_collection_boxes", "addr:city": "O BRIEN", "addr:country": "US", "addr:full": "601 9TH ST", "addr:postcode": "79539", "addr:state": "TX", "brand": "USPS", "collection_times": "Mo-Fr 10:45", "name": "USPS COLLECTION BOX - PO LOBBY", "ref": "7953900000"}, "type": "Feature"}
{"geometry": {"coordinates": [-99.842381, 33.37948], "type": "Point"}, "id": "lPu92ba04BlfiO7IyyPRwoy6bn4=", "properties": {"@spider": "usps_collection_boxes", "addr:city": "O BRIEN", "addr:country": "US", "addr:full": "601 9TH ST", "addr:postcode": "79539", "addr:state": "TX", "brand": "USPS", "collection_times": "Mo-Fr 10:45; Sa 08:30", "name": "USPS COLLECTION BOX - BLUE BOX", "ref": "7953900001"}, "type": "Feature"}
{"geometry": {"coordinates": [-99.8420535, 33.379445496], "type": "Point"}, "id": "Ak9hj9i6Mxo2lzm87gYHGqTA9WQ=", "properties": {"@spider": "usps_collection_boxes", "addr:city": "O BRIEN", "addr:country": "US", "addr:full": "601 9TH ST", "addr:postcode": "79539", "addr:state": "TX", "brand": "USPS", "collection_times": "Mo-Fr 11:00", "name": "USPS COLLECTION BOX - PO LOBBY", "ref": "7953900002"}, "type": "Feature"}
{"geometry": {"coordinates": [-100.052519, 33.107117], "type": "Point"}, "id": "aEP5nML4-l1aemdaKS1VtzT6b1c=", "properties": {"@spider": "usps_collection_boxes", "addr:city": "OLD GLORY", "addr:country": "US", "addr:full": "9080 FM 1835", "addr:postcode": "79540", "addr:state": "TX", "brand": "USPS", "collection_times": "Mo-Fr 13:30; Sa 07:30", "name": "USPS COLLECTION BOX - BLUE BOX", "note": "ON 12/24 AND 12/31, THIS BOX MAY BE COLLECTED AS EARLY AS 12 NOON.", "ref": "7954000000"}, "type": "Feature"}
{"geometry": {"coordinates": [-100.052506, 33.107055], "type": "Point"}, "id": "FXa7iDGZ0uD2hlfHazurXGoWTS8=", "properties": {"@spider": "usps_collection_boxes", "addr:city": "OLD GLORY", "addr:country": "US", "addr:full": "9080 FM 1835", "addr:postcode": "79540", "addr:state": "TX", "brand": "USPS", "collection_times": "Mo-Fr 13:30; Sa 07:30", "name": "USPS COLLECTION BOX - PO LOBBY", "note": "ON 12/24 AND 12/31, THIS BOX MAY BE COLLECTED AS EARLY AS 12 NOON.", "ref": "7954000001"}, "type": "Feature"}
{"geometry": {"coordinates": [-100.052556746, 33.107099098], "type": "Point"}, "id": "EfXqS1yFEevUaGMbYXaQkJGcHfs=", "properties": {"@spider": "usps_collection_boxes", "addr:city": "OLD GLORY", "addr:country": "US", "addr:full": "9080 FM 1835", "addr:postcode": "79540", "addr:state": "TX", "brand": "USPS", "collection_times": "Mo-Fr 13:45", "name": "USPS COLLECTION BOX - PO LOBBY", "note": "ON 12/24 AND 12/31, THIS BOX MAY BE COLLECTED AS EARLY AS 12 NOON.", "ref": "7954000002"}, "type": "Feature"}
{"geometry": {"coordinates": [-99.807654, 32.172802], "type": "Point"}, "id": "dAzYTkvfbixgeLi6V6FHze7rbtg=", "properties": {"@spider": "usps_collection_boxes", "addr:city": "OVALO", "addr:country": "US", "addr:full": "3010 FM 614", "addr:postcode": "79541", "addr:state": "TX", "brand": "USPS", "collection_times": "Mo-Fr 12:00; Sa 09:30", "name": "USPS COLLECTION BOX - PO LOBBY", "ref": "7954100001"}, "type": "Feature"}
{"geometry": {"coordinates": [-99.8080425, 32.172819504], "type": "Point"}, "id": "S4Pet_B0ICsNw8zm_FJ4JM2ilys=", "properties": {"@spider": "usps_collection_boxes", "addr:city": "OVALO", "addr:country": "US", "addr:full": "3010 FM 614", "addr:postcode": "79541", "addr:state": "TX", "brand": "USPS", "collection_times": "Mo-Fr 12:00; Sa 09:30", "name": "USPS COLLECTION BOX - PO LOBBY", "ref": "7954100002"}, "type": "Feature"}
{"geometry": {"coordinates": [-100.375809, 32.74654], "type": "Point"}, "id": "trQTKbP2QIqK92_-xQCYAQTkXvA=", "properties": {"@spider": "usps_collection_boxes", "addr:city": "ROBY", "addr:country": "US", "addr:full": "117 E NORTH 1ST ST", "addr:postcode": "79543", "addr:state": "TX", "brand": "USPS", "collection_times": "Mo-Fr 16:00; Sa 08:00", "name": "USPS COLLECTION BOX - PO LOBBY", "note": "ON 12/24 AND 12/31, THIS BOX MAY BE COLLECTED AS EARLY AS 12 NOON.", "ref": "7954300000"}, "type": "Feature"}
{"geometry": {"coordinates": [-100.375747, 32.746581], "type": "Point"}, "id": "wDTKcDM-4tu9xdENGli8Xa6bAHg=", "properties": {"@spider": "usps_collection_boxes", "addr:city": "ROBY", "addr:country": "US", "addr:full": "117 E NORTH 1ST ST", "addr:postcode": "79543", "addr:state": "TX", "brand": "USPS", "collection_times": "Mo-Fr 16:00; Sa 08:00", "name": "USPS COLLECTION BOX - BLUE BOX", "note": "ON 12/24 AND 12/31, THIS BOX MAY BE COLLECTED AS EARLY AS 12 NOON.", "ref": "7954300001"}, "type": "Feature"}
{"geometry": {"coordinates": [-100.377197685, 32.746336081], "type": "Point"}, "id": "armxTAESmOvI_6cjG5KAWZ5qGK0=", "properties": {"@spider": "usps_collection_boxes", "addr:city": "ROBY", "addr:country": "US", "addr:full": "117 E NORTH 1ST ST", "addr:postcode": "79543", "addr:state": "TX", "brand": "USPS", "collection_times": "Mo-Fr 16:00", "name": "USPS COLLECTION BOX - PO LOBBY", "note": "ON 12/24 AND 12/31, THIS BOX MAY BE COLLECTED AS EARLY AS 12 NOON.", "ref": "7954300002"}, "type": "Feature"}
{"geometry": {"coordinates": [-99.854852, 33.315843], "type": "Point"}, "id": "dAr5_pyOGeoiLO2mibb9gsE4C08=", "properties": {"@spider": "usps_collection_boxes", "addr:city": "ROCHESTER", "addr:country": "US", "addr:full": "213 CAROTHERS ST", "addr:postcode": "79544", "addr:state": "TX", "brand": "USPS", "collection_times": "Mo-Fr 15:45; Sa 08:30", "name": "USPS COLLECTION BOX - BLUE BOX", "note": "ON 12/24 AND 12/31, THIS BOX MAY BE COLLECTED AS EARLY AS 12 NOON.", "ref": "7954400000"}, "type": "Feature"}
{"geometry": {"coordinates": [-99.854771, 33.31587], "type": "Point"}, "id": "LjeXR_Xlh0rWPn56eiNWpzLJgIc=", "properties": {"@spider": "usps_collection_boxes", "addr:city": "ROCHESTER", "addr:country": "US", "addr:full": "213 CAROTHERS ST", "addr:postcode": "79544", "addr:state": "TX", "brand": "USPS", "collection_times": "Mo-Fr 15:45; Sa 08:30", "name": "USPS COLLECTION BOX - PO LOBBY", "note": "ON 12/24 AND 12/31, THIS BOX MAY BE COLLECTED AS EARLY AS 12 NOON.", "ref": "7954400001"}, "type": "Feature"}
{"geometry": {"coordinates": [-99.855522, 33.31583447], "type": "Point"}, "id": "LAprBnfdsmpEWC29O9QzIMWRt70=", "properties": {"@spider": "usps_collection_boxes", "addr:city": "ROCHESTER", "addr:country": "US", "addr:full": "213 CAROTHERS ST", "addr:postcode": "79544", "addr:state": "TX", "brand": "USPS", "collection_times": "Mo-Fr 15:45", "name": "USPS COLLECTION BOX - PO LOBBY", "note": "ON 12/24 AND 12/31, THIS BOX MAY BE COLLECTED AS EARLY AS 12 NOON.", "ref": "7954400002"}, "type": "Feature"}
{"geometry": {"coordinates": [-100.53737, 32.445793], "type": "Point"}, "id": "M7-5j7K9zHyTvXQJwSbhZfzCHno=", "properties": {"@spider": "usps_collection_boxes", "addr:city": "ROSCOE", "addr:country": "US", "addr:full": "115 MAIN ST", "addr:postcode": "79545", "addr:state": "TX", "brand": "USPS", "collection_times": "Mo-Fr 15:30; Sa 08:45", "name": "USPS COLLECTION BOX - BLUE BOX", "note": "ON 12/24 AND 12/31, THIS BOX MAY BE COLLECTED AS EARLY AS 12 NOON.", "ref": "7954500001"}, "type": "Feature"}
{"geometry": {"coordinates": [-100.53737, 32.445793], "type": "Point"}, "id": "HMHm48xGa4sL4HG0DYgRHbEMNx8=", "properties": {"@spider": "usps_collection_boxes", "addr:city": "ROSCOE", "addr:country": "US", "addr:full": "115 MAIN ST", "addr:postcode": "79545", "addr:state": "TX", "brand": "USPS", "collection_times": "Mo-Fr 15:30; Sa 08:45", "name": "USPS COLLECTION BOX - PO LOBBY", "note": "ON 12/24 AND 12/31, THIS BOX MAY BE COLLECTED AS EARLY AS 12 NOON.", "ref": "7954500002"}, "type": "Feature"}
{"geometry": {"coordinates": [-100.537231691, 32.445198104], "type": "Point"}, "id": "prjY0mZXvEb2hBzDlfWZKC20030=", "properties": {"@spider": "usps_collection_boxes", "addr:city": "ROSCOE", "addr:country": "US", "addr:full": "115 MAIN ST", "addr:postcode": "79545", "addr:state": "TX", "brand": "USPS", "collection_times": "Mo-Fr 15:30", "name": "USPS COLLECTION BOX - PO LOBBY", "note": "ON 12/24 AND 12/31, THIS BOX MAY BE COLLECTED AS EARLY AS 12 NOON.", "ref": "7954500003"}, "type": "Feature"}
{"geometry": {"coordinates": [-100.467536, 32.852942], "type": "Point"}, "id": "yi62L78PVV9E-IY9LXl6J4kiV60=", "properties": {"@spider": "usps_collection_boxes", "addr:city": "ROTAN", "addr:country": "US", "addr:full": "201 N GARFIELD AVE", "addr:postcode": "79546", "addr:state": "TX", "brand": "USPS", "collection_times": "Mo-Fr 15:45; Sa 09:00", "name": "USPS COLLECTION BOX - BLUE BOX", "note": "ON 12/24 AND 12/31, THIS BOX MAY BE COLLECTED AS EARLY AS 12 NOON.", "ref": "7954600000"}, "type": "Feature"}
{"geometry": {"coordinates": [-100.467479, 32.852861], "type": "Point"}, "id": "Oo8Y2roAGK54y2VTPnYzHJ9FvOE=", "properties": {"@spider": "usps_collection_boxes", "addr:city": "ROTAN", "addr:country": "US", "addr:full": "201 N GARFIELD AVE", "addr:postcode": "79546", "addr:state": "TX", "brand": "USPS", "collection_times": "Mo-Fr 15:45; Sa 09:00", "name": "USPS COLLECTION BOX - PO LOBBY", "note": "ON 12/24 AND 12/31, THIS BOX MAY BE COLLECTED AS EARLY AS 12 NOON.", "ref": "7954600001"}, "type": "Feature"}
{"geometry": {"coordinates": [-100.467574411, 32.853054039], "type": "Point"}, "id": "GdKahFM8qPLJ7si6uXzOciHQGRM=", "properties": {"@spider": "usps_collection_boxes", "addr:city": "ROTAN", "addr:country": "US", "addr:full": "201 N GARFIELD AVE", "addr:postcode": "79546", "addr:state": "TX", "brand": "USPS", "collection_times": "Mo-Fr 15:45", "name": "USPS COLLECTION BOX - PO LOBBY", "note": "ON 12/24 AND 12/31, THIS BOX MAY BE COLLECTED AS EARLY AS 12 NOON.", "ref": "7954600003"}, "type": "Feature"}
{"geometry": {"coordinates": [-99.8948372, 33.18381], "type": "Point"}, "id": "Aqv5xFb1DxzgsZlT9XYj7PXQakw=", "properties": {"@spider": "usps_collection_boxes", "addr:city": "RULE", "addr:country": "US", "addr:full": "503 6TH ST", "addr:postcode": "79547", "addr:state": "TX", "brand": "USPS", "collection_times": "Mo-Fr 14:30; Sa 09:00", "name": "USPS COLLECTION BOX - BLUE BOX", "note": "ON 12/24 AND 12/31, THIS BOX MAY BE COLLECTED AS EARLY AS 12 NOON.", "ref": "7954700000"}, "type": "Feature"}
{"geometry": {"coordinates": [-99.892663, 33.183651], "type": "Point"}, "id": "jrbvI94puetzVbP3NOtPqXGzsVM=", "properties": {"@spider": "usps_collection_boxes", "addr:city": "RULE", "addr:country": "US", "addr:full": "503 6TH ST", "addr:postcode": "79547", "addr:state": "TX", "brand": "USPS", "collection_times": "Mo-Fr 11:30", "name": "USPS COLLECTION BOX - PO LOBBY", "ref": "7954700002"}, "type": "Feature"}
{"geometry": {"coordinates": [-99.894842832, 33.183680468], "type": "Point"}, "id": "R-R4mAcMErbHLeYS1QEyjJUNRXU=", "properties": {"@spider": "usps_collection_boxes", "addr:city": "RULE", "addr:country": "US", "addr:full": "503 6TH ST", "addr:postcode": "79547", "addr:state": "TX", "brand": "USPS", "collection_times": "Mo-Fr 12:00; Sa 09:30", "name": "USPS COLLECTION BOX - PO LOBBY", "ref": "7954700003"}, "type": "Feature"}
{"geometry": {"coordinates": [-100.917937, 32.690567], "type": "Point"}, "id": "H2ctJibk2ohex1IqdDJ1Z3k5GzY=", "properties": {"@spider": "usps_collection_boxes", "addr:city": "SNYDER", "addr:country": "US", "addr:full": "5110 COLLEGE AVE", "addr:postcode": "79549", "addr:state": "TX", "brand": "USPS", "collection_times": "Mo-Sa 13:00", "name": "USPS COLLECTION BOX - BLUE BOX", "note": "ON 12/24 AND 12/31, THIS BOX MAY BE COLLECTED AS EARLY AS 12 NOON.", "ref": "7954900004"}, "type": "Feature"}
{"geometry": {"coordinates": [-100.917511, 32.711989], "type": "Point"}, "id": "IMTiWEWYcuSlBNRYyndGvM6t06U=", "properties": {"@spider": "usps_collection_boxes", "addr:city": "SNYDER", "addr:country": "US", "addr:full": "1808 VARSITY SQUARE CTR", "addr:postcode": "79549", "addr:state": "TX", "brand": "USPS", "collection_times": "Mo-Sa 15:00", "name": "USPS COLLECTION BOX - BLUE BOX", "note": "ON 12/24 AND 12/31, THIS BOX MAY BE COLLECTED AS EARLY AS 12 NOON.", "ref": "7954900006"}, "type": "Feature"}
{"geometry": {"coordinates": [-100.916016, 32.718181], "type": "Point"}, "id": "_jY1LlHfWqNgzW6qfFJqZfkD9lE=", "properties": {"@spider": "usps_collection_boxes", "addr:city": "SNYDER", "addr:country": "US", "addr:full": "1701 24TH ST", "addr:postcode": "79549", "addr:state": "TX", "brand": "USPS", "collection_times": "Mo-Fr 16:45; Sa 16:30", "name": "USPS COLLECTION BOX - BLUE BOX", "note": "ON 12/24 AND 12/31, THIS BOX MAY BE COLLECTED AS EARLY AS 12 NOON.", "ref": "7954900019"}, "type": "Feature"}
{"geometry": {"coordinates": [-100.917529, 32.716685], "type": "Point"}, "id": "dLXLSNkkG8SIm_4g0B0owl-G5sI=", "properties": {"@spider": "usps_collection_boxes", "addr:city": "SNYDER", "addr:country": "US", "addr:full": "1806 25TH ST", "addr:postcode": "79549", "addr:state": "TX", "brand": "USPS", "collection_times": "Mo-Sa 15:00", "name": "USPS COLLECTION BOX - BLUE BOX", "note": "ON 12/24 AND 12/31, THIS BOX MAY BE COLLECTED AS EARLY AS 12 NOON.", "ref": "7954900021"}, "type": "Feature"}
{"geometry": {"coordinates": [-100.915909, 32.718153], "type": "Point"}, "id": "7-VnYupkSOTJ7MTwHtJwaM3XKh4=", "properties": {"@spider": "usps_collection_boxes", "addr:city": "SNYDER", "addr:country": "US", "addr:full": "1701 24TH ST", "addr:postcode": "79549", "addr:state": "TX", "brand": "USPS", "collection_times": "Mo-Fr 16:45; Sa 16:30", "name": "USPS COLLECTION BOX - PO LOBBY", "note": "ON 12/24 AND 12/31, THIS BOX MAY BE COLLECTED AS EARLY AS 12 NOON.", "ref": "7954900023"}, "type": "Feature"}
{"geometry": {"coordinates": [-100.915909, 32.718153], "type": "Point"}, "id": "jq2-Q8lrGspIi-bMSN2pC98sSkE=", "properties": {"@spider": "usps_collection_boxes", "addr:city": "SNYDER", "addr:country": "US", "addr:full": "1701 24TH ST", "addr:postcode": "79549", "addr:state": "TX", "brand": "USPS", "collection_times": "Mo-Fr 16:45; Sa 16:30", "name": "USPS COLLECTION BOX - PO LOBBY", "note": "ON 12/24 AND 12/31, THIS BOX MAY BE COLLECTED AS EARLY AS 12 NOON.", "ref": "7954900024"}, "type": "Feature"}
{"geometry": {"coordinates": [-100.916379723, 32.718170479], "type": "Point"}, "id": "6IWmsat4Dt0IXNNIMmwwCxRxg8o=", "properties": {"@spider": "usps_collection_boxes", "addr:city": "SNYDER", "addr:country": "US", "addr:full": "1701 24TH ST", "addr:postcode": "79549", "addr:state": "TX", "brand": "USPS", "collection_times": "Mo-Fr 16:30", "name": "USPS COLLECTION BOX - PO LOBBY", "note": "ON 12/24 AND 12/31, THIS BOX MAY BE COLLECTED AS EARLY AS 12 NOON.", "ref": "7954900026"}, "type": "Feature"}
{"geometry": {"coordinates": [-99.803004, 32.945049], "type": "Point"}, "id": "O-vNBC4BxFFXx-vzve8KAYfNNxk=", "properties": {"@spider": "usps_collection_boxes", "addr:city": "STAMFORD", "addr:country": "US", "addr:full": "115 S SWENSON ST", "addr:postcode": "79553", "addr:state": "TX", "brand": "USPS", "collection_times": "Mo-Fr 16:30; Sa 09:30", "name": "USPS COLLECTION BOX - BLUE BOX", "note": "ON 12/24 AND 12/31, THIS BOX MAY BE COLLECTED AS EARLY AS 12 NOON.", "ref": "7955300001"}, "type": "Feature"}
{"geometry": {"coordinates": [-99.803034, 32.945114], "type": "Point"}, "id": "MySRyQZ2EevJj76YJe3cA0enB54=", "properties": {"@spider": "usps_collection_boxes", "addr:city": "STAMFORD", "addr:country": "US", "addr:full": "115 S SWENSON ST", "addr:postcode": "79553", "addr:state": "TX", "brand": "USPS", "collection_times": "Mo-Fr 16:30; Sa 09:30", "name": "USPS COLLECTION BOX - BLUE BOX", "note": "ON 12/24 AND 12/31, THIS BOX MAY BE COLLECTED AS EARLY AS 12 NOON.", "ref": "7955300002"}, "type": "Feature"}
{"geometry": {"coordinates": [-99.803034, 32.945114], "type": "Point"}, "id": "KtMqbtJG9wZkiwH44lswA44cI_Y=", "properties": {"@spider": "usps_collection_boxes", "addr:city": "STAMFORD", "addr:country": "US", "addr:full": "115 S SWENSON ST", "addr:postcode": "79553", "addr:state": "TX", "brand": "USPS", "collection_times": "Mo-Fr 16:30; Sa 09:30", "name": "USPS COLLECTION BOX - PO LOBBY", "note": "ON 12/24 AND 12/31, THIS BOX MAY BE COLLECTED AS EARLY AS 12 NOON.", "ref": "7955300003"}, "type": "Feature"}
{"geometry": {"coordinates": [-99.802981361, 32.945063231], "type": "Point"}, "id": "XIGsV8A3pednM2dDFo-1VlhnjqE=", "properties": {"@spider": "usps_collection_boxes", "addr:city": "STAMFORD", "addr:country": "US", "addr:full": "115 S SWENSON ST", "addr:postcode": "79553", "addr:state": "TX", "brand": "USPS", "collection_times": "Mo-Fr 16:30", "name": "USPS COLLECTION BOX - PO LOBBY", "note": "ON 12/24 AND 12/31, THIS BOX MAY BE COLLECTED AS EARLY AS 12 NOON.", "ref": "7955300005"}, "type": "Feature"}
{"geometry": {"coordinates": [-100.408123, 32.471152], "type": "Point"}, "id": "5XobwWgjKeFdnrywqpx1Hdgwqgs=", "properties": {"@spider": "usps_collection_boxes", "addr:city": "SWEETWATER", "addr:country": "US", "addr:full": "100 E 3RD ST", "addr:postcode": "79556", "addr:state": "TX", "brand": "USPS", "collection_times": "Mo-Sa 15:00", "name": "USPS COLLECTION BOX - BLUE BOX", "note": "ON 12/24 AND 12/31, THIS BOX MAY BE COLLECTED AS EARLY AS 12 NOON.", "ref": "7955600000"}, "type": "Feature"}
{"geometry": {"coordinates": [-100.474341, 32.459116], "type": "Point"}, "id": "1n4lMf8RZ5gfBDD06kW4HH-vyUY=", "properties": {"@spider": "usps_collection_boxes", "addr:city": "SWEETWATER", "addr:country": "US", "addr:full": "300 HOMER K TAYLOR DR", "addr:postcode": "79556", "addr:state": "TX", "brand": "USPS", "collection_times": "Mo-Sa 09:00", "name": "USPS COLLECTION BOX - BLUE BOX", "ref": "7955600001"}, "type": "Feature"}
{"geometry": {"coordinates": [-100.401027, 32.458982], "type": "Point"}, "id": "ZNd7c7tBaBEMulVXXANjpPMEca0=", "properties": {"@spider": "usps_collection_boxes", "addr:city": "SWEETWATER", "addr:country": "US", "addr:full": "1008 LAMAR ST", "addr:postcode": "79556", "addr:state": "TX", "brand": "USPS", "collection_times": "Mo-Sa 14:45", "name": "USPS COLLECTION BOX - BLUE BOX", "note": "ON 12/24 AND 12/31, THIS BOX MAY BE COLLECTED AS EARLY AS 12 NOON.", "ref": "7955600002"}, "type": "Feature"}
{"geometry": {"coordinates": [-100.3932810297, 32.4534420122], "type": "Point"}, "id": "8KpnLJYtPWkoFxhglvXcGAlrnwM=", "properties": {"@spider": "usps_collection_boxes", "addr:city": "SWEETWATER", "addr:country": "US", "addr:full": "407 NE GEORGIA AVE", "addr:postcode": "79556", "addr:state": "TX", "brand": "USPS", "collection_times": "Mo-Sa 12:30", "name": "USPS COLLECTION BOX - BLUE BOX", "note": "ON 12/24 AND 12/31, THIS BOX MAY BE COLLECTED AS EARLY AS 12 NOON.", "ref": "7955600003"}, "type": "Feature"}
{"geometry": {"coordinates": [-100.401101, 32.483478], "type": "Point"}, "id": "rEfnHuPDhIUWBorNVf90JobrbR0=", "properties": {"@spider": "usps_collection_boxes", "addr:city": "SWEETWATER", "addr:country": "US", "addr:full": "1413 HAILEY ST", "addr:postcode": "79556", "addr:state": "TX", "brand": "USPS", "collection_times": "Mo-Sa 14:45", "name": "USPS COLLECTION BOX - BLUE BOX", "note": "ON 12/24 AND 12/31, THIS BOX MAY BE COLLECTED AS EARLY AS 12 NOON.", "ref": "7955600005"}, "type": "Feature"}
{"geometry": {"coordinates": [-100.397314, 32.475266], "type": "Point"}, "id": "2hEq8rQIixl2IMh19e_7JJEP0_A=", "properties": {"@spider": "usps_collection_boxes", "addr:city": "SWEETWATER", "addr:country": "US", "addr:full": "1106 E BROADWAY ST", "addr:postcode": "79556", "addr:state": "TX", "brand": "USPS", "collection_times": "Mo-Fr 10:00; Sa 09:00", "name": "USPS COLLECTION BOX - BLUE BOX", "ref": "7955600008"}, "type": "Feature"}
{"geometry": {"coordinates": [-100.40787, 32.47158], "type": "Point"}, "id": "hIQfs7s0m3HzXO25PbHD_sv0CbI=", "properties": {"@spider": "usps_collection_boxes", "addr:city": "SWEETWATER", "addr:country": "US", "addr:full": "201 E 3RD ST", "addr:postcode": "79556", "addr:state": "TX", "brand": "USPS", "collection_times": "Mo-Fr 17:15; Sa 16:00", "name": "USPS COLLECTION BOX - BLUE BOX", "note": "ON 12/24 AND 12/31, THIS BOX MAY BE COLLECTED AS EARLY AS 12 NOON.", "ref": "7955600011"}, "type": "Feature"}
{"geometry": {"coordinates": [-100.407947, 32.471513], "type": "Point"}, "id": "sMFTdxuOKVN2zSU3t0UGKLVIre8=", "properties": {"@spider": "usps_collection_boxes", "addr:city": "SWEETWATER", "addr:country": "US", "addr:full": "201 E 3RD ST", "addr:postcode": "79556", "addr:state": "TX", "brand": "USPS", "collection_times": "Mo-Fr 17:15; Sa 16:00", "name": "USPS COLLECTION BOX - BLUE BOX", "note": "ON 12/24 AND 12/31, THIS BOX MAY BE COLLECTED AS EARLY AS 12 NOON.", "ref": "7955600012"}, "type": "Feature"}
{"geometry": {"coordinates": [-100.407947, 32.471513], "type": "Point"}, "id": "ODuWTguOCobnKiNLDt0HcuGOiMc=", "properties": {"@spider": "usps_collection_boxes", "addr:city": "SWEETWATER", "addr:country": "US", "addr:full": "201 E 3RD ST", "addr:postcode": "79556", "addr:state": "TX", "brand": "USPS", "collection_times": "Mo-Fr 17:15; Sa 16:00", "name": "USPS COLLECTION BOX - PO LOBBY", "note": "ON 12/24 AND 12/31, THIS BOX MAY BE COLLECTED AS EARLY AS 12 NOON.", "ref": "7955600013"}, "type": "Feature"}
{"geometry": {"coordinates": [-100.407947, 32.471513], "type": "Point"}, "id": "YCX1xb8LzJfWYbeBqySFs5vMS6U=", "properties": {"@spider": "usps_collection_boxes", "addr:city": "SWEETWATER", "addr:country": "US", "addr:full": "201 E 3RD ST", "addr:postcode": "79556", "addr:state": "TX", "brand": "USPS", "collection_times": "Mo-Fr 17:15; Sa 16:00", "name": "USPS COLLECTION BOX - PO LOBBY", "note": "ON 12/24 AND 12/31, THIS BOX MAY BE COLLECTED AS EARLY AS 12 NOON.", "ref": "7955600014"}, "type": "Feature"}
{"geometry": {"coordinates": [-100.40787, 32.47158], "type": "Point"}, "id": "9k1w8rsCtHK2H0BVg6xVwlqkzLI=", "properties": {"@spider": "usps_collection_boxes", "addr:city": "SWEETWATER", "addr:country": "US", "addr:full": "201 E 3RD ST", "addr:postcode": "79556", "addr:state": "TX", "brand": "USPS", "collection_times": "Mo-Fr 17:15; Sa 16:00", "name": "USPS COLLECTION BOX - BLUE BOX", "note": "ON 12/24 AND 12/31, THIS BOX MAY BE COLLECTED AS EARLY AS 12 NOON.", "ref": "7955600017"}, "type": "Feature"}
{"geometry": {"coordinates": [-100.407632516, 32.47168458], "type": "Point"}, "id": "w3ESt6CofUl7-Ig1Y9ZgHWBoZNM=", "properties": {"@spider": "usps_collection_boxes", "addr:city": "SWEETWATER", "addr:country": "US", "addr:full": "201 E 3RD ST", "addr:postcode": "79556", "addr:state": "TX", "brand": "USPS", "collection_times": "Mo-Fr 17:00", "name": "USPS COLLECTION BOX - PO LOBBY", "note": "ON 12/24 AND 12/31, THIS BOX MAY BE COLLECTED AS EARLY AS 12 NOON.", "ref": "7955600018"}, "type": "Feature"}
{"geometry": {"coordinates": [-100.303038, 32.679374], "type": "Point"}, "id": "CA48GF8BbQ3foGTsnvYMhngOmMw=", "properties": {"@spider": "usps_collection_boxes", "addr:city": "SYLVESTER", "addr:country": "US", "addr:full": "399 FM 57 S", "addr:postcode": "79560", "addr:state": "TX", "brand": "USPS", "collection_times": "Mo-Fr 13:00; Sa 07:30", "name": "USPS COLLECTION BOX - PO LOBBY", "note": "ON 12/24 AND 12/31, THIS BOX MAY BE COLLECTED AS EARLY AS 12 NOON.", "ref": "7956000000"}, "type": "Feature"}
{"geometry": {"coordinates": [-100.303038, 32.679374], "type": "Point"}, "id": "y7pEj4WwJHPDFh3JP6v0QCYDMYM=", "properties": {"@spider": "usps_collection_boxes", "addr:city": "SYLVESTER", "addr:country": "US", "addr:full": "399 FM 57 S", "addr:postcode": "79560", "addr:state": "TX", "brand": "USPS", "collection_times": "Mo-Fr 13:00; Sa 07:30", "name": "USPS COLLECTION BOX - BLUE BOX", "note": "ON 12/24 AND 12/31, THIS BOX MAY BE COLLECTED AS EARLY AS 12 NOON.", "ref": "7956000001"}, "type": "Feature"}
{"geometry": {"coordinates": [-100.254040999, 32.720928268], "type": "Point"}, "id": "m8mf7ImAzdmLKpBr4TaYJtnoyvY=", "properties": {"@spider": "usps_collection_boxes", "addr:city": "SYLVESTER", "addr:country": "US", "addr:full": "399 FM 57 S", "addr:postcode": "79560", "addr:state": "TX", "brand": "USPS", "collection_times": "Mo-Fr 13:15", "name": "USPS COLLECTION BOX - PO LOBBY", "note": "ON 12/24 AND 12/31, THIS BOX MAY BE COLLECTED AS EARLY AS 12 NOON.", "ref": "7956000002"}, "type": "Feature"}
{"geometry": {"coordinates": [-100.121439, 32.488737], "type": "Point"}, "id": "B2MDiZpFgqZvEeAunVDxs0HpgDo=", "properties": {"@spider": "usps_collection_boxes", "addr:city": "TRENT", "addr:country": "US", "addr:full": "141 N MAIN ST", "addr:postcode": "79561", "addr:state": "TX", "brand": "USPS", "collection_times": "Mo-Fr 15:00; Sa 07:30", "name": "USPS COLLECTION BOX - BLUE BOX", "note": "ON 12/24 AND 12/31, THIS BOX MAY BE COLLECTED AS EARLY AS 12 NOON.", "ref": "7956100000"}, "type": "Feature"}
{"geometry": {"coordinates": [-100.121474, 32.488728], "type": "Point"}, "id": "UD3wg_4jJd2rwfQFXfirulv8C-E=", "properties": {"@spider": "usps_collection_boxes", "addr:city": "TRENT", "addr:country": "US", "addr:full": "141 N MAIN ST", "addr:postcode": "79561", "addr:state": "TX", "brand": "USPS", "collection_times": "Mo-Fr 15:00", "name": "USPS COLLECTION BOX - PO LOBBY", "note": "ON 12/24 AND 12/31, THIS BOX MAY BE COLLECTED AS EARLY AS 12 NOON.", "ref": "7956100001"}, "type": "Feature"}
{"geometry": {"coordinates": [-100.121332183, 32.489107104], "type": "Point"}, "id": "prLBYGySSviqXyjT_OJ2iAn4Y1I=", "properties": {"@spider": "usps_collection_boxes", "addr:city": "TRENT", "addr:country": "US", "addr:full": "141 N MAIN ST", "addr:postcode": "79561", "addr:state": "TX", "brand": "USPS", "collection_times": "Mo-Fr 15:00", "name": "USPS COLLECTION BOX - PO LOBBY", "note": "ON 12/24 AND 12/31, THIS BOX MAY BE COLLECTED AS EARLY AS 12 NOON.", "ref": "7956100003"}, "type": "Feature"}
{"geometry": {"coordinates": [-99.800252, 32.209646], "type": "Point"}, "id": "qrrAU5idPVjz5du6AJW-nlhVGOE=", "properties": {"@spider": "usps_collection_boxes", "addr:city": "TUSCOLA", "addr:country": "US", "addr:full": "742 GRAHAM ST", "addr:postcode": "79562", "addr:state": "TX", "brand": "USPS", "collection_times": "Mo-Fr 15:00; Sa 08:15", "name": "USPS COLLECTION BOX - BLUE BOX", "note": "ON 12/24 AND 12/31, THIS BOX MAY BE COLLECTED AS EARLY AS 12 NOON.", "ref": "7956200000"}, "type": "Feature"}
{"geometry": {"coordinates": [-99.800154, 32.20962], "type": "Point"}, "id": "L18mSqLYVuplPcxE3KSLi-uI-vM=", "properties": {"@spider": "usps_collection_boxes", "addr:city": "TUSCOLA", "addr:country": "US", "addr:full": "742 GRAHAM ST", "addr:postcode": "79562", "addr:state": "TX", "brand": "USPS", "collection_times": "Mo-Fr 15:00; Sa 08:15", "name": "USPS COLLECTION BOX - PO LOBBY", "note": "ON 12/24 AND 12/31, THIS BOX MAY BE COLLECTED AS EARLY AS 12 NOON.", "ref": "7956200003"}, "type": "Feature"}
{"geometry": {"coordinates": [-99.800891193, 32.209631472], "type": "Point"}, "id": "JCN1joQhfJAq_rPsEhrfRhzZ4k8=", "properties": {"@spider": "usps_collection_boxes", "addr:city": "TUSCOLA", "addr:country": "US", "addr:full": "742 GRAHAM ST", "addr:postcode": "79562", "addr:state": "TX", "brand": "USPS", "collection_times": "Mo-Fr 16:00", "name": "USPS COLLECTION BOX - PO LOBBY", "note": "ON 12/24 AND 12/31, THIS BOX MAY BE COLLECTED AS EARLY AS 12 NOON.", "ref": "7956200004"}, "type": "Feature"}
{"geometry": {"coordinates": [-99.869033, 32.458723], "type": "Point"}, "id": "NuhlEcu3PhBv9Ci9U98nxHcRkVM=", "properties": {"@spider": "usps_collection_boxes", "addr:city": "TYE", "addr:country": "US", "addr:full": "200 TAYLOR ST", "addr:postcode": "79563", "addr:state": "TX", "brand": "USPS", "collection_times": "Mo-Fr 15:15; Sa 09:00", "name": "USPS COLLECTION BOX - BLUE BOX", "note": "ON 12/24 AND 12/31, THIS BOX MAY BE COLLECTED AS EARLY AS 12 NOON.", "ref": "7956300005"}, "type": "Feature"}
{"geometry": {"coordinates": [-99.869031, 32.45875], "type": "Point"}, "id": "2l-M7dP7yD_RdTlats_i9eomHGI=", "properties": {"@spider": "usps_collection_boxes", "addr:city": "TYE", "addr:country": "US", "addr:full": "200 TAYLOR ST", "addr:postcode": "79563", "addr:state": "TX", "brand": "USPS", "collection_times": "Mo-Fr 15:15; Sa 09:00", "name": "USPS COLLECTION BOX - PO LOBBY", "note": "ON 12/24 AND 12/31, THIS BOX MAY BE COLLECTED AS EARLY AS 12 NOON.", "ref": "7956300006"}, "type": "Feature"}
{"geometry": {"coordinates": [-99.869031, 32.45875], "type": "Point"}, "id": "h5Oe7VD3pKrjcmIo-o9tfxuADpA=", "properties": {"@spider": "usps_collection_boxes", "addr:city": "TYE", "addr:country": "US", "addr:full": "200 TAYLOR ST", "addr:postcode": "79563", "addr:state": "TX", "brand": "USPS", "collection_times": "Mo-Fr 15:15; Sa 09:00", "name": "USPS COLLECTION BOX - PO LOBBY", "note": "ON 12/24 AND 12/31, THIS BOX MAY BE COLLECTED AS EARLY AS 12 NOON.", "ref": "7956300007"}, "type": "Feature"}
{"geometry": {"coordinates": [-99.869033564, 32.458672052], "type": "Point"}, "id": "zu6bunF1dyQbRKvaWX4V_5vVO_c=", "properties": {"@spider": "usps_collection_boxes", "addr:city": "TYE", "addr:country": "US", "addr:full": "200 TAYLOR ST", "addr:postcode": "79563", "addr:state": "TX", "brand": "USPS", "collection_times": "Mo-Fr 15:30", "name": "USPS COLLECTION BOX - PO LOBBY", "note": "ON 12/24 AND 12/31, THIS BOX MAY BE COLLECTED AS EARLY AS 12 NOON.", "ref": "7956300008"}, "type": "Feature"}
{"geometry": {"coordinates": [-101.014492062, 32.357739709], "type": "Point"}, "id": "Bt17YNfMW1DYBL3wv-ySTLAHdbY=", "properties": {"@spider": "usps_collection_boxes", "addr:city": "WESTBROOK", "addr:country": "US", "addr:full": "306 N MAIN ST", "addr:postcode": "79565", "addr:state": "TX", "brand": "USPS", "collection_times": "Mo-Fr 15:15; Sa 10:30", "name": "USPS COLLECTION BOX - BLUE BOX", "note": "ON 12/24 AND 12/31, THIS BOX MAY BE COLLECTED AS EARLY AS 12 NOON.", "ref": "7956500000"}, "type": "Feature"}
{"geometry": {"coordinates": [-101.014492062, 32.357739709], "type": "Point"}, "id": "yXfj7TBhJsN2llS7Z2Dv8SbenPw=", "properties": {"@spider": "usps_collection_boxes", "addr:city": "WESTBROOK", "addr:country": "US", "addr:full": "306 N MAIN ST", "addr:postcode": "79565", "addr:state": "TX", "brand": "USPS", "collection_times": "Mo-Fr 15:15", "name": "USPS COLLECTION BOX - PO LOBBY", "note": "ON 12/24 AND 12/31, THIS BOX MAY BE COLLECTED AS EARLY AS 12 NOON.", "ref": "7956500001"}, "type": "Feature"}
{"geometry": {"coordinates": [-101.014492062, 32.357739709], "type": "Point"}, "id": "j6m1R7rcFkoW0N8nd_eaml9xjbQ=", "properties": {"@spider": "usps_collection_boxes", "addr:city": "WESTBROOK", "addr:country": "US", "addr:full": "306 N MAIN ST", "addr:postcode": "79565", "addr:state": "TX", "brand": "USPS", "collection_times": "Mo-Fr 15:30", "name": "USPS COLLECTION BOX - PO LOBBY", "note": "ON 12/24 AND 12/31, THIS BOX MAY BE COLLECTED AS EARLY AS 12 NOON.", "ref": "7956500002"}, "type": "Feature"}
{"geometry": {"coordinates": [-100.106953, 32.044773], "type": "Point"}, "id": "IU2g_x3BD1ytKDPxzJul6Pjiigg=", "properties": {"@spider": "usps_collection_boxes", "addr:city": "WINGATE", "addr:country": "US", "addr:full": "106 LYNN ST", "addr:postcode": "79566", "addr:state": "TX", "brand": "USPS", "collection_times": "Mo-Fr 12:45; Sa 10:45", "name": "USPS COLLECTION BOX - BLUE BOX", "note": "ON 12/24 AND 12/31, THIS BOX MAY BE COLLECTED AS EARLY AS 12 NOON.", "ref": "7956600000"}, "type": "Feature"}
{"geometry": {"coordinates": [-100.106857, 32.04479], "type": "Point"}, "id": "yuVRRYQrN6syKcOHkU1UlgRD1lY=", "properties": {"@spider": "usps_collection_boxes", "addr:city": "WINGATE", "addr:country": "US", "addr:full": "106 LYNN ST", "addr:postcode": "79566", "addr:state": "TX", "brand": "USPS", "collection_times": "Mo-Fr 12:45; Sa 10:45", "name": "USPS COLLECTION BOX - PO LOBBY", "note": "ON 12/24 AND 12/31, THIS BOX MAY BE COLLECTED AS EARLY AS 12 NOON.", "ref": "7956600001"}, "type": "Feature"}
{"geometry": {"coordinates": [-100.1098090754, 32.0434109184], "type": "Point"}, "id": "3mImHCHtW76C9vf-U0NU2fR9HsI=", "properties": {"@spider": "usps_collection_boxes", "addr:city": "WINGATE", "addr:country": "US", "addr:full": "106 LYNN ST", "addr:postcode": "79566", "addr:state": "TX", "brand": "USPS", "collection_times": "Mo-Fr 12:45", "name": "USPS COLLECTION BOX - PO LOBBY", "note": "ON 12/24 AND 12/31, THIS BOX MAY BE COLLECTED AS EARLY AS 12 NOON.", "ref": "7956600003"}, "type": "Feature"}
{"geometry": {"coordinates": [-99.962928, 31.956316], "type": "Point"}, "id": "MVC8CwcvFDxQl6DKx4U1RNNgxsg=", "properties": {"@spider": "usps_collection_boxes", "addr:city": "WINTERS", "addr:country": "US", "addr:full": "221 S MAIN ST", "addr:postcode": "79567", "addr:state": "TX", "brand": "USPS", "collection_times": "Mo-Fr 16:15; Sa 13:00", "name": "USPS COLLECTION BOX - BLUE BOX", "note": "ON 12/24 AND 12/31, THIS BOX MAY BE COLLECTED AS EARLY AS 12 NOON.", "ref": "7956700000"}, "type": "Feature"}
{"geometry": {"coordinates": [-99.962894, 31.956365], "type": "Point"}, "id": "c1XPr64zi5kLBK4fTq0fq5F8OSY=", "properties": {"@spider": "usps_collection_boxes", "addr:city": "WINTERS", "addr:country": "US", "addr:full": "221 S MAIN ST", "addr:postcode": "79567", "addr:state": "TX", "brand": "USPS", "collection_times": "Mo-Fr 16:15; Sa 13:00", "name": "USPS COLLECTION BOX - PO LOBBY", "note": "ON 12/24 AND 12/31, THIS BOX MAY BE COLLECTED AS EARLY AS 12 NOON.", "ref": "7956700002"}, "type": "Feature"}
{"geometry": {"coordinates": [-99.9629608418, 31.9563277153], "type": "Point"}, "id": "R7G9bXq7kAqxHJmCVf4vx_HF2n4=", "properties": {"@spider": "usps_collection_boxes", "addr:city": "WINTERS", "addr:country": "US", "addr:full": "221 S MAIN ST", "addr:postcode": "79567", "addr:state": "TX", "brand": "USPS", "collection_times": "Mo-Fr 16:15", "name": "USPS COLLECTION BOX - PO LOBBY", "note": "ON 12/24 AND 12/31, THIS BOX MAY BE COLLECTED AS EARLY AS 12 NOON.", "ref": "7956700004"}, "type": "Feature"}
