{"dataset_attributes": {"@spider": "usps_collection_boxes"}, "geometry": {"coordinates": [-99.7321451, 32.451509], "type": "Point"}, "id": "EWl9MgtmNxesk6Uu8JDThrDsKUA=", "properties": {"@spider": "usps_collection_boxes", "addr:city": "ABILENE", "addr:country": "US", "addr:full": "926 N 3RD ST", "addr:postcode": "79601", "addr:state": "TX", "amenity": "post_box", "brand": "United States Postal Service", "brand:wikidata": "Q668687", "collection_times": "Mo-Fr 18:00; Sa 17:00", "name": "USPS COLLECTION BOX - BLUE BOX", "note": "ON 12/24 AND 12/31, THIS BOX MAY BE COLLECTED AS EARLY AS 12 NOON.", "nsi_id": "unitedstatespostalservice-a77078", "operator": "United States Postal Service", "operator:short": "USPS", "operator:type": "public", "operator:wikidata": "Q668687", "ref": "7960100000"}, "type": "Feature"}
{"dataset_attributes": {"@spider": "usps_collection_boxes"}, "geometry": {"coordinates": [-99.7319357, 32.452397], "type": "Point"}, "id": "wLbKbhMfDOfAAItrkpK0LeKLVpY=", "properties": {"@spider": "usps_collection_boxes", "addr:city": "ABILENE", "addr:country": "US", "addr:full": "925 N 4TH ST", "addr:postcode": "79601", "addr:state": "TX", "amenity": "post_box", "brand": "United States Postal Service", "brand:wikidata": "Q668687", "collection_times": "Mo-Fr 18:00; Sa 17:00", "name": "USPS COLLECTION BOX - BLUE BOX", "note": "ON 12/24 AND 12/31, THIS BOX MAY BE COLLECTED AS EARLY AS 12 NOON.", "nsi_id": "unitedstatespostalservice-a77078", "operator": "United States Postal Service", "operator:short": "USPS", "operator:type": "public", "operator:wikidata": "Q668687", "ref": "7960100008"}, "type": "Feature"}
{"dataset_attributes": {"@spider": "usps_collection_boxes"}, "geometry": {"coordinates": [-99.7321442, 32.451582], "type": "Point"}, "id": "Na0CZ9obdz2o-jZzacGg27_lavo=", "properties": {"@spider": "usps_collection_boxes", "addr:city": "ABILENE", "addr:country": "US", "addr:full": "926 N 3RD ST", "addr:postcode": "79601", "addr:state": "TX", "amenity": "post_box", "brand": "United States Postal Service", "brand:wikidata": "Q668687", "collection_times": "Mo-Fr 18:00; Sa 17:00", "name": "USPS COLLECTION BOX - BLUE BOX", "note": "ON 12/24 AND 12/31, THIS BOX MAY BE COLLECTED AS EARLY AS 12 NOON.", "nsi_id": "unitedstatespostalservice-a77078", "operator": "United States Postal Service", "operator:short": "USPS", "operator:type": "public", "operator:wikidata": "Q668687", "ref": "7960100044"}, "type": "Feature"}
{"dataset_attributes": {"@spider": "usps_collection_boxes"}, "geometry": {"coordinates": [-99.732214, 32.45197], "type": "Point"}, "id": "ISCbYHE1gQGhxtatbu4ZyVCaGCM=", "properties": {"@spider": "usps_collection_boxes", "addr:city": "ABILENE", "addr:country": "US", "addr:full": "341 PINE ST", "addr:postcode": "79601", "addr:state": "TX", "amenity": "post_box", "brand": "United States Postal Service", "brand:wikidata": "Q668687", "collection_times": "Mo-Fr 17:00; Sa 16:00", "name": "USPS COLLECTION BOX - PO LOBBY", "note": "ON 12/24 AND 12/31, THIS BOX MAY BE COLLECTED AS EARLY AS 12 NOON.", "nsi_id": "unitedstatespostalservice-a77078", "operator": "United States Postal Service", "operator:short": "USPS", "operator:type": "public", "operator:wikidata": "Q668687", "ref": "7960100054"}, "type": "Feature"}
{"dataset_attributes": {"@spider": "usps_collection_boxes"}, "geometry": {"coordinates": [-99.732214, 32.45197], "type": "Point"}, "id": "x7jmizUnEvd8oP4Myjv3tv7zDAg=", "properties": {"@spider": "usps_collection_boxes", "addr:city": "ABILENE", "addr:country": "US", "addr:full": "341 PINE ST", "addr:postcode": "79601", "addr:state": "TX", "amenity": "post_box", "brand": "United States Postal Service", "brand:wikidata": "Q668687", "collection_times": "Mo-Fr 17:00; Sa 16:00", "name": "USPS COLLECTION BOX - PO LOBBY", "note": "ON 12/24 AND 12/31, THIS BOX MAY BE COLLECTED AS EARLY AS 12 NOON.", "nsi_id": "unitedstatespostalservice-a77078", "operator": "United States Postal Service", "operator:short": "USPS", "operator:type": "public", "operator:wikidata": "Q668687", "ref": "7960100056"}, "type": "Feature"}
{"dataset_attributes": {"@spider": "usps_collection_boxes"}, "geometry": {"coordinates": [-99.732214, 32.45197], "type": "Point"}, "id": "Gtx1NTFZ6-AftSGveFVY8HPiBjA=", "properties": {"@spider": "usps_collection_boxes", "addr:city": "ABILENE", "addr:country": "US", "addr:full": "341 PINE ST", "addr:postcode": "79601", "addr:state": "TX", "amenity": "post_box", "brand": "United States Postal Service", "brand:wikidata": "Q668687", "collection_times": "Mo-Fr 17:00; Sa 16:00", "name": "USPS COLLECTION BOX - APC", "note": "ON 12/24 AND 12/31, THIS BOX MAY BE COLLECTED AS EARLY AS 12 NOON.", "nsi_id": "unitedstatespostalservice-a77078", "operator": "United States Postal Service", "operator:short": "USPS", "operator:type": "public", "operator:wikidata": "Q668687", "ref": "7960100059"}, "type": "Feature"}
{"dataset_attributes": {"@spider": "usps_collection_boxes"}, "geometry": {"coordinates": [-99.7057716952, 32.4818061107], "type": "Point"}, "id": "RE4DDToh34NLjtM056TeoOjoH6Q=", "properties": {"@spider": "usps_collection_boxes", "addr:city": "ABILENE", "addr:country": "US", "addr:full": "1020 E OVERLAND TRL", "addr:postcode": "79601", "addr:state": "TX", "amenity": "post_box", "brand": "United States Postal Service", "brand:wikidata": "Q668687", "collection_times": "Mo-Fr 19:00; Sa 18:00", "name": "USPS COLLECTION BOX - BLUE BOX", "note": "ON 12/24 AND 12/31, THIS BOX MAY BE COLLECTED AS EARLY AS 12 NOON.", "nsi_id": "unitedstatespostalservice-a77078", "operator": "United States Postal Service", "operator:short": "USPS", "operator:type": "public", "operator:wikidata": "Q668687", "ref": "7960100061"}, "type": "Feature"}
{"dataset_attributes": {"@spider": "usps_collection_boxes"}, "geometry": {"coordinates": [-99.7319099, 32.452411], "type": "Point"}, "id": "KCfRQm2sTztYDkaz7zyW1nCDapQ=", "properties": {"@spider": "usps_collection_boxes", "addr:city": "ABILENE", "addr:country": "US", "addr:full": "925 N 4TH ST", "addr:postcode": "79601", "addr:state": "TX", "amenity": "post_box", "brand": "United States Postal Service", "brand:wikidata": "Q668687", "collection_times": "Mo-Fr 18:00; Sa 17:00", "name": "USPS COLLECTION BOX - BLUE BOX", "note": "ON 12/24 AND 12/31, THIS BOX MAY BE COLLECTED AS EARLY AS 12 NOON.", "nsi_id": "unitedstatespostalservice-a77078", "operator": "United States Postal Service", "operator:short": "USPS", "operator:type": "public", "operator:wikidata": "Q668687", "ref": "7960100063"}, "type": "Feature"}
{"dataset_attributes": {"@spider": "usps_collection_boxes"}, "geometry": {"coordinates": [-99.7323612, 32.471704], "type": "Point"}, "id": "dpVhrPaTrSQsm1qIMT2AX3F8nKk=", "properties": {"@spider": "usps_collection_boxes", "addr:city": "ABILENE", "addr:country": "US", "addr:full": "1904 PINE ST", "addr:postcode": "79601", "addr:state": "TX", "amenity": "post_box", "brand": "United States Postal Service", "brand:wikidata": "Q668687", "collection_times": "Mo-Sa 09:30", "name": "USPS COLLECTION BOX - BLUE BOX", "nsi_id": "unitedstatespostalservice-a77078", "operator": "United States Postal Service", "operator:short": "USPS", "operator:type": "public", "operator:wikidata": "Q668687", "ref": "7960100065"}, "type": "Feature"}
{"dataset_attributes": {"@spider": "usps_collection_boxes"}, "geometry": {"coordinates": [-99.7327315942, 32.4519069886], "type": "Point"}, "id": "3SkeQL1cxO8BT3aK3WdKwh8OCQA=", "properties": {"@spider": "usps_collection_boxes", "addr:city": "ABILENE", "addr:country": "US", "addr:full": "341 PINE ST", "addr:postcode": "79601", "addr:state": "TX", "amenity": "post_box", "brand": "United States Postal Service", "brand:wikidata": "Q668687", "collection_times": "Mo-Fr 17:00; Sa 16:00", "name": "USPS COLLECTION BOX - PO LOBBY", "note": "ON 12/24 AND 12/31, THIS BOX MAY BE COLLECTED AS EARLY AS 12 NOON.", "nsi_id": "unitedstatespostalservice-a77078", "operator": "United States Postal Service", "operator:short": "USPS", "operator:type": "public", "operator:wikidata": "Q668687", "ref": "7960100067"}, "type": "Feature"}
{"dataset_attributes": {"@spider": "usps_collection_boxes"}, "geometry": {"coordinates": [-99.7632737, 32.47442], "type": "Point"}, "id": "bJAPwrVZPy8_VZUc_kVWIWc5_Rk=", "properties": {"@spider": "usps_collection_boxes", "addr:city": "ABILENE", "addr:country": "US", "addr:full": "3366 AMBLER AVE", "addr:postcode": "79603", "addr:state": "TX", "amenity": "post_box", "brand": "United States Postal Service", "brand:wikidata": "Q668687", "collection_times": "Mo-Fr 15:00; Sa 15:15", "name": "USPS COLLECTION BOX - BLUE BOX", "note": "ON 12/24 AND 12/31, THIS BOX MAY BE COLLECTED AS EARLY AS 12 NOON.", "nsi_id": "unitedstatespostalservice-a77078", "operator": "United States Postal Service", "operator:short": "USPS", "operator:type": "public", "operator:wikidata": "Q668687", "ref": "7960300000"}, "type": "Feature"}
{"dataset_attributes": {"@spider": "usps_collection_boxes"}, "geometry": {"coordinates": [-99.7598149, 32.420204], "type": "Point"}, "id": "BoO8phdKj2XXfyVKB_6d_Ur1iLk=", "properties": {"@spider": "usps_collection_boxes", "addr:city": "ABILENE", "addr:country": "US", "addr:full": "2450 BARROW ST", "addr:postcode": "79605", "addr:state": "TX", "amenity": "post_box", "brand": "United States Postal Service", "brand:wikidata": "Q668687", "collection_times": "Mo-Sa 14:15", "name": "USPS COLLECTION BOX - BLUE BOX", "note": "ON 12/24 AND 12/31, THIS BOX MAY BE COLLECTED AS EARLY AS 12 NOON.", "nsi_id": "unitedstatespostalservice-a77078", "operator": "United States Postal Service", "operator:short": "USPS", "operator:type": "public", "operator:wikidata": "Q668687", "ref": "7960500007"}, "type": "Feature"}
{"dataset_attributes": {"@spider": "usps_collection_boxes"}, "geometry": {"coordinates": [-99.7598064, 32.420218], "type": "Point"}, "id": "OcdbgMwBeRmf7DIToeIpZ9yCAkw=", "properties": {"@spider": "usps_collection_boxes", "addr:city": "ABILENE", "addr:country": "US", "addr:full": "2450 BARROW ST", "addr:postcode": "79605", "addr:state": "TX", "amenity": "post_box", "brand": "United States Postal Service", "brand:wikidata": "Q668687", "collection_times": "Mo-Sa 14:15", "name": "USPS COLLECTION BOX - BLUE BOX", "note": "ON 12/24 AND 12/31, THIS BOX MAY BE COLLECTED AS EARLY AS 12 NOON.", "nsi_id": "unitedstatespostalservice-a77078", "operator": "United States Postal Service", "operator:short": "USPS", "operator:type": "public", "operator:wikidata": "Q668687", "ref": "7960500008"}, "type": "Feature"}
{"dataset_attributes": {"@spider": "usps_collection_boxes"}, "geometry": {"coordinates": [-99.7593064, 32.432822], "type": "Point"}, "id": "pTN2QEokKyk6uBalRjUq7y5FJ_k=", "properties": {"@spider": "usps_collection_boxes", "addr:city": "ABILENE", "addr:country": "US", "addr:full": "1345 BARROW ST", "addr:postcode": "79605", "addr:state": "TX", "amenity": "post_box", "brand": "United States Postal Service", "brand:wikidata": "Q668687", "collection_times": "Mo-Sa 14:00", "name": "USPS COLLECTION BOX - BLUE BOX", "note": "ON 12/24 AND 12/31, THIS BOX MAY BE COLLECTED AS EARLY AS 12 NOON.", "nsi_id": "unitedstatespostalservice-a77078", "operator": "United States Postal Service", "operator:short": "USPS", "operator:type": "public", "operator:wikidata": "Q668687", "ref": "7960500016"}, "type": "Feature"}
{"dataset_attributes": {"@spider": "usps_collection_boxes"}, "geometry": {"coordinates": [-99.7592989, 32.432824], "type": "Point"}, "id": "qGSMgzhf1dmggB6CigIupmMJhAk=", "properties": {"@spider": "usps_collection_boxes", "addr:city": "ABILENE", "addr:country": "US", "addr:full": "1345 BARROW ST", "addr:postcode": "79605", "addr:state": "TX", "amenity": "post_box", "brand": "United States Postal Service", "brand:wikidata": "Q668687", "collection_times": "Mo-Sa 14:00", "name": "USPS COLLECTION BOX - BLUE BOX", "note": "ON 12/24 AND 12/31, THIS BOX MAY BE COLLECTED AS EARLY AS 12 NOON.", "nsi_id": "unitedstatespostalservice-a77078", "operator": "United States Postal Service", "operator:short": "USPS", "operator:type": "public", "operator:wikidata": "Q668687", "ref": "7960500017"}, "type": "Feature"}
{"dataset_attributes": {"@spider": "usps_collection_boxes"}, "geometry": {"coordinates": [-99.771561995, 32.4431220034], "type": "Point"}, "id": "apQ-fDK7jGp8GjtJxB9thwF_JGY=", "properties": {"@spider": "usps_collection_boxes", "addr:city": "ABILENE", "addr:country": "US", "addr:full": "702 S LEGGETT DR", "addr:postcode": "79605", "addr:state": "TX", "amenity": "post_box", "brand": "United States Postal Service", "brand:wikidata": "Q668687", "collection_times": "Mo-Sa 10:00", "name": "USPS COLLECTION BOX - BLUE BOX", "nsi_id": "unitedstatespostalservice-a77078", "operator": "United States Postal Service", "operator:short": "USPS", "operator:type": "public", "operator:wikidata": "Q668687", "ref": "7960500020"}, "type": "Feature"}
{"dataset_attributes": {"@spider": "usps_collection_boxes"}, "geometry": {"coordinates": [-99.7646755, 32.433128], "type": "Point"}, "id": "Iy-ZH9sF1y_yPRnv3OmJKaJY4DM=", "properties": {"@spider": "usps_collection_boxes", "addr:city": "ABILENE", "addr:country": "US", "addr:full": "3302 S 14TH ST", "addr:postcode": "79605", "addr:state": "TX", "amenity": "post_box", "brand": "United States Postal Service", "brand:wikidata": "Q668687", "collection_times": "Mo-Fr 15:00", "name": "USPS COLLECTION BOX - BLUE BOX", "note": "ON 12/24 AND 12/31, THIS BOX MAY BE COLLECTED AS EARLY AS 12 NOON.", "nsi_id": "unitedstatespostalservice-a77078", "operator": "United States Postal Service", "operator:short": "USPS", "operator:type": "public", "operator:wikidata": "Q668687", "ref": "7960500028"}, "type": "Feature"}
{"dataset_attributes": {"@spider": "usps_collection_boxes"}, "geometry": {"coordinates": [-99.7654233, 32.434126], "type": "Point"}, "id": "ZaqoV_Tz6u-z8_ZQK9aepB_RkFY=", "properties": {"@spider": "usps_collection_boxes", "addr:city": "ABILENE", "addr:country": "US", "addr:full": "1290 S WILLIS ST", "addr:postcode": "79605", "addr:state": "TX", "amenity": "post_box", "brand": "United States Postal Service", "brand:wikidata": "Q668687", "collection_times": "Mo-Fr 15:00", "name": "USPS COLLECTION BOX - BLUE BOX", "note": "ON 12/24 AND 12/31, THIS BOX MAY BE COLLECTED AS EARLY AS 12 NOON.", "nsi_id": "unitedstatespostalservice-a77078", "operator": "United States Postal Service", "operator:short": "USPS", "operator:type": "public", "operator:wikidata": "Q668687", "ref": "7960500033"}, "type": "Feature"}
{"dataset_attributes": {"@spider": "usps_collection_boxes"}, "geometry": {"coordinates": [-99.7839318, 32.428829], "type": "Point"}, "id": "uyHlCvrxl3GWnZ2Zs2xFgEupK84=", "properties": {"@spider": "usps_collection_boxes", "addr:city": "ABILENE", "addr:country": "US", "addr:full": "4701 S 14TH ST", "addr:postcode": "79605", "addr:state": "TX", "amenity": "post_box", "brand": "United States Postal Service", "brand:wikidata": "Q668687", "collection_times": "Mo-Sa 12:00", "name": "USPS COLLECTION BOX - BLUE BOX", "nsi_id": "unitedstatespostalservice-a77078", "operator": "United States Postal Service", "operator:short": "USPS", "operator:type": "public", "operator:wikidata": "Q668687", "ref": "7960500036"}, "type": "Feature"}
{"dataset_attributes": {"@spider": "usps_collection_boxes"}, "geometry": {"coordinates": [-99.7839193, 32.428831], "type": "Point"}, "id": "HhrVvXBcfi-PpRx1knAdrDRuVWk=", "properties": {"@spider": "usps_collection_boxes", "addr:city": "ABILENE", "addr:country": "US", "addr:full": "4701 S 14TH ST", "addr:postcode": "79605", "addr:state": "TX", "amenity": "post_box", "brand": "United States Postal Service", "brand:wikidata": "Q668687", "collection_times": "Mo-Sa 12:00", "name": "USPS COLLECTION BOX - BLUE BOX", "nsi_id": "unitedstatespostalservice-a77078", "operator": "United States Postal Service", "operator:short": "USPS", "operator:type": "public", "operator:wikidata": "Q668687", "ref": "7960500038"}, "type": "Feature"}
{"dataset_attributes": {"@spider": "usps_collection_boxes"}, "geometry": {"coordinates": [-99.749552, 32.418976], "type": "Point"}, "id": "BAFc3bUoaTwWIbtMgyYiK5_qRLw=", "properties": {"@spider": "usps_collection_boxes", "addr:city": "ABILENE", "addr:country": "US", "addr:full": "2501 BUFFALO GAP RD", "addr:postcode": "79605", "addr:state": "TX", "amenity": "post_box", "brand": "United States Postal Service", "brand:wikidata": "Q668687", "collection_times": "Mo-Sa 17:00", "name": "USPS COLLECTION BOX - BLUE BOX", "note": "ON 12/24 AND 12/31, THIS BOX MAY BE COLLECTED AS EARLY AS 12 NOON.", "nsi_id": "unitedstatespostalservice-a77078", "operator": "United States Postal Service", "operator:short": "USPS", "operator:type": "public", "operator:wikidata": "Q668687", "ref": "7960500044"}, "type": "Feature"}
{"dataset_attributes": {"@spider": "usps_collection_boxes"}, "geometry": {"coordinates": [-99.749508, 32.419062], "type": "Point"}, "id": "PtrVgl3ppHsYkkAvPdgznRx_x7w=", "properties": {"@spider": "usps_collection_boxes", "addr:city": "ABILENE", "addr:country": "US", "addr:full": "2501 BUFFALO GAP RD", "addr:postcode": "79605", "addr:state": "TX", "amenity": "post_box", "brand": "United States Postal Service", "brand:wikidata": "Q668687", "collection_times": "Mo-Sa 17:00", "name": "USPS COLLECTION BOX - PO LOBBY", "note": "ON 12/24 AND 12/31, THIS BOX MAY BE COLLECTED AS EARLY AS 12 NOON.", "nsi_id": "unitedstatespostalservice-a77078", "operator": "United States Postal Service", "operator:short": "USPS", "operator:type": "public", "operator:wikidata": "Q668687", "ref": "7960500055"}, "type": "Feature"}
{"dataset_attributes": {"@spider": "usps_collection_boxes"}, "geometry": {"coordinates": [-99.749508, 32.419062], "type": "Point"}, "id": "myIezrD1l1HWgx0foOd42KEhjfg=", "properties": {"@spider": "usps_collection_boxes", "addr:city": "ABILENE", "addr:country": "US", "addr:full": "2501 BUFFALO GAP RD", "addr:postcode": "79605", "addr:state": "TX", "amenity": "post_box", "brand": "United States Postal Service", "brand:wikidata": "Q668687", "collection_times": "Mo-Sa 17:00", "name": "USPS COLLECTION BOX - PO LOBBY", "note": "ON 12/24 AND 12/31, THIS BOX MAY BE COLLECTED AS EARLY AS 12 NOON.", "nsi_id": "unitedstatespostalservice-a77078", "operator": "United States Postal Service", "operator:short": "USPS", "operator:type": "public", "operator:wikidata": "Q668687", "ref": "7960500056"}, "type": "Feature"}
{"dataset_attributes": {"@spider": "usps_collection_boxes"}, "geometry": {"coordinates": [-99.749834, 32.418495], "type": "Point"}, "id": "5QvHMgP3JPD6v1W2uZTk-uHBcIA=", "properties": {"@spider": "usps_collection_boxes", "addr:city": "ABILENE", "addr:country": "US", "addr:full": "2501 BUFFALO GAP RD", "addr:postcode": "79605", "addr:state": "TX", "amenity": "post_box", "brand": "United States Postal Service", "brand:wikidata": "Q668687", "collection_times": "Mo-Sa 17:00", "name": "USPS COLLECTION BOX - BLUE BOX", "note": "ON 12/24 AND 12/31, THIS BOX MAY BE COLLECTED AS EARLY AS 12 NOON.", "nsi_id": "unitedstatespostalservice-a77078", "operator": "United States Postal Service", "operator:short": "USPS", "operator:type": "public", "operator:wikidata": "Q668687", "ref": "7960500058"}, "type": "Feature"}
{"dataset_attributes": {"@spider": "usps_collection_boxes"}, "geometry": {"coordinates": [-99.7654256, 32.434111], "type": "Point"}, "id": "ivYUmBntNKygv4mcSyecBWmhtbs=", "properties": {"@spider": "usps_collection_boxes", "addr:city": "ABILENE", "addr:country": "US", "addr:full": "1290 S WILLIS ST", "addr:postcode": "79605", "addr:state": "TX", "amenity": "post_box", "brand": "United States Postal Service", "brand:wikidata": "Q668687", "collection_times": "Mo-Fr 15:00", "name": "USPS COLLECTION BOX - BLUE BOX", "note": "ON 12/24 AND 12/31, THIS BOX MAY BE COLLECTED AS EARLY AS 12 NOON.", "nsi_id": "unitedstatespostalservice-a77078", "operator": "United States Postal Service", "operator:short": "USPS", "operator:type": "public", "operator:wikidata": "Q668687", "ref": "7960500059"}, "type": "Feature"}
{"dataset_attributes": {"@spider": "usps_collection_boxes"}, "geometry": {"coordinates": [-99.749508, 32.419062], "type": "Point"}, "id": "xJKleYGYjubc1l02l2rmXYbwBmc=", "properties": {"@spider": "usps_collection_boxes", "addr:city": "ABILENE", "addr:country": "US", "addr:full": "2501 BUFFALO GAP RD", "addr:postcode": "79605", "addr:state": "TX", "amenity": "post_box", "brand": "United States Postal Service", "brand:wikidata": "Q668687", "collection_times": "Mo-Sa 17:00", "name": "USPS COLLECTION BOX - APC", "note": "ON 12/24 AND 12/31, THIS BOX MAY BE COLLECTED AS EARLY AS 12 NOON.", "nsi_id": "unitedstatespostalservice-a77078", "operator": "United States Postal Service", "operator:short": "USPS", "operator:type": "public", "operator:wikidata": "Q668687", "ref": "7960500060"}, "type": "Feature"}
{"dataset_attributes": {"@spider": "usps_collection_boxes"}, "geometry": {"coordinates": [-99.749492, 32.419035986], "type": "Point"}, "id": "FEJp4J4mUrNqLfa3PofFrmevZZo=", "properties": {"@spider": "usps_collection_boxes", "addr:city": "ABILENE", "addr:country": "US", "addr:full": "2501 BUFFALO GAP RD", "addr:postcode": "79605", "addr:state": "TX", "amenity": "post_box", "brand": "United States Postal Service", "brand:wikidata": "Q668687", "collection_times": "Mo-Fr 17:00", "name": "USPS COLLECTION BOX - PO LOBBY", "note": "ON 12/24 AND 12/31, THIS BOX MAY BE COLLECTED AS EARLY AS 12 NOON.", "nsi_id": "unitedstatespostalservice-a77078", "operator": "United States Postal Service", "operator:short": "USPS", "operator:type": "public", "operator:wikidata": "Q668687", "ref": "7960500062"}, "type": "Feature"}
{"dataset_attributes": {"@spider": "usps_collection_boxes"}, "geometry": {"coordinates": [-99.7587123, 32.399825], "type": "Point"}, "id": "HnM1hSBHqVTrUekV3CvVQA9qCTg=", "properties": {"@spider": "usps_collection_boxes", "addr:city": "ABILENE", "addr:country": "US", "addr:full": "4309 BUFFALO GAP RD", "addr:postcode": "79606", "addr:state": "TX", "amenity": "post_box", "brand": "United States Postal Service", "brand:wikidata": "Q668687", "collection_times": "Mo-Fr 15:45; Sa 13:15", "name": "USPS COLLECTION BOX - BLUE BOX", "note": "ON 12/24 AND 12/31, THIS BOX MAY BE COLLECTED AS EARLY AS 12 NOON.", "nsi_id": "unitedstatespostalservice-a77078", "operator": "United States Postal Service", "operator:short": "USPS", "operator:type": "public", "operator:wikidata": "Q668687", "ref": "7960600002"}, "type": "Feature"}
{"dataset_attributes": {"@spider": "usps_collection_boxes"}, "geometry": {"coordinates": [-99.7587133, 32.399825], "type": "Point"}, "id": "Jo5rd40WpAc0Cvfj2nWw34jiB-E=", "properties": {"@spider": "usps_collection_boxes", "addr:city": "ABILENE", "addr:country": "US", "addr:full": "4309 BUFFALO GAP RD", "addr:postcode": "79606", "addr:state": "TX", "amenity": "post_box", "brand": "United States Postal Service", "brand:wikidata": "Q668687", "collection_times": "Mo-Fr 15:45; Sa 13:15", "name": "USPS COLLECTION BOX - BLUE BOX", "note": "ON 12/24 AND 12/31, THIS BOX MAY BE COLLECTED AS EARLY AS 12 NOON.", "nsi_id": "unitedstatespostalservice-a77078", "operator": "United States Postal Service", "operator:short": "USPS", "operator:type": "public", "operator:wikidata": "Q668687", "ref": "7960600003"}, "type": "Feature"}
{"dataset_attributes": {"@spider": "usps_collection_boxes"}, "geometry": {"coordinates": [-99.7753531, 32.37192], "type": "Point"}, "id": "kwDQD7qJyCGL8GuYF1-TrerGfk8=", "properties": {"@spider": "usps_collection_boxes", "addr:city": "ABILENE", "addr:country": "US", "addr:full": "6381 BUFFALO GAP RD", "addr:postcode": "79606", "addr:state": "TX", "amenity": "post_box", "brand": "United States Postal Service", "brand:wikidata": "Q668687", "collection_times": "Mo-Sa 14:00", "name": "USPS COLLECTION BOX - BLUE BOX", "note": "ON 12/24 AND 12/31, THIS BOX MAY BE COLLECTED AS EARLY AS 12 NOON.", "nsi_id": "unitedstatespostalservice-a77078", "operator": "United States Postal Service", "operator:short": "USPS", "operator:type": "public", "operator:wikidata": "Q668687", "ref": "7960600006"}, "type": "Feature"}
{"dataset_attributes": {"@spider": "usps_collection_boxes"}, "geometry": {"coordinates": [-99.7442005, 32.37255], "type": "Point"}, "id": "2kcVxSRqhYL2bli_cVPP-GLOzBo=", "properties": {"@spider": "usps_collection_boxes", "addr:city": "ABILENE", "addr:country": "US", "addr:full": "1665 ANTILLEY RD", "addr:postcode": "79606", "addr:state": "TX", "amenity": "post_box", "brand": "United States Postal Service", "brand:wikidata": "Q668687", "collection_times": "Mo-Fr 11:00; Sa 10:00", "name": "USPS COLLECTION BOX - BLUE BOX", "nsi_id": "unitedstatespostalservice-a77078", "operator": "United States Postal Service", "operator:short": "USPS", "operator:type": "public", "operator:wikidata": "Q668687", "ref": "7960600013"}, "type": "Feature"}
{"dataset_attributes": {"@spider": "usps_collection_boxes"}, "geometry": {"coordinates": [-99.7624194, 32.395289], "type": "Point"}, "id": "3XlmFkOsrcRU06TSEjbP3ovaEfk=", "properties": {"@spider": "usps_collection_boxes", "addr:city": "ABILENE", "addr:country": "US", "addr:full": "4580 BUFFALO GAP RD", "addr:postcode": "79606", "addr:state": "TX", "amenity": "post_box", "brand": "United States Postal Service", "brand:wikidata": "Q668687", "collection_times": "Mo-Fr 15:30; Sa 13:00", "name": "USPS COLLECTION BOX - BLUE BOX", "note": "ON 12/24 AND 12/31, THIS BOX MAY BE COLLECTED AS EARLY AS 12 NOON.", "nsi_id": "unitedstatespostalservice-a77078", "operator": "United States Postal Service", "operator:short": "USPS", "operator:type": "public", "operator:wikidata": "Q668687", "ref": "7960600016"}, "type": "Feature"}
{"dataset_attributes": {"@spider": "usps_collection_boxes"}, "geometry": {"coordinates": [-99.7612499, 32.39753], "type": "Point"}, "id": "f8AmIhhRw4DsNuKAQ6dAlptgrj8=", "properties": {"@spider": "usps_collection_boxes", "addr:city": "ABILENE", "addr:country": "US", "addr:full": "4402 BUFFALO GAP RD", "addr:postcode": "79606", "addr:state": "TX", "amenity": "post_box", "brand": "United States Postal Service", "brand:wikidata": "Q668687", "collection_times": "Mo-Fr 15:30", "name": "USPS COLLECTION BOX - BLUE BOX", "note": "ON 12/24 AND 12/31, THIS BOX MAY BE COLLECTED AS EARLY AS 12 NOON.", "nsi_id": "unitedstatespostalservice-a77078", "operator": "United States Postal Service", "operator:short": "USPS", "operator:type": "public", "operator:wikidata": "Q668687", "ref": "7960600019"}, "type": "Feature"}
{"dataset_attributes": {"@spider": "usps_collection_boxes"}, "geometry": {"coordinates": [-99.7694094, 32.407106], "type": "Point"}, "id": "s922ek0U8qviD_RP60Ct50gUs08=", "properties": {"@spider": "usps_collection_boxes", "addr:city": "ABILENE", "addr:country": "US", "addr:full": "1 VILLAGE DR", "addr:postcode": "79606", "addr:state": "TX", "amenity": "post_box", "brand": "United States Postal Service", "brand:wikidata": "Q668687", "collection_times": "Mo-Fr 15:15", "name": "USPS COLLECTION BOX - BLUE BOX", "note": "ON 12/24 AND 12/31, THIS BOX MAY BE COLLECTED AS EARLY AS 12 NOON.", "nsi_id": "unitedstatespostalservice-a77078", "operator": "United States Postal Service", "operator:short": "USPS", "operator:type": "public", "operator:wikidata": "Q668687", "ref": "7960600024"}, "type": "Feature"}
{"dataset_attributes": {"@spider": "usps_collection_boxes"}, "geometry": {"coordinates": [-99.7694234, 32.407089], "type": "Point"}, "id": "JcPQQSjP0kDNRstCQ627HKgpSuk=", "properties": {"@spider": "usps_collection_boxes", "addr:city": "ABILENE", "addr:country": "US", "addr:full": "1 VILLAGE DR", "addr:postcode": "79606", "addr:state": "TX", "amenity": "post_box", "brand": "United States Postal Service", "brand:wikidata": "Q668687", "collection_times": "Mo-Fr 15:15", "name": "USPS COLLECTION BOX - BLUE BOX", "note": "ON 12/24 AND 12/31, THIS BOX MAY BE COLLECTED AS EARLY AS 12 NOON.", "nsi_id": "unitedstatespostalservice-a77078", "operator": "United States Postal Service", "operator:short": "USPS", "operator:type": "public", "operator:wikidata": "Q668687", "ref": "7960600026"}, "type": "Feature"}
{"dataset_attributes": {"@spider": "usps_collection_boxes"}, "geometry": {"coordinates": [-99.7811349, 32.410547], "type": "Point"}, "id": "M6EK1qpTZ_LwbpGcejEbSKwIxJ8=", "properties": {"@spider": "usps_collection_boxes", "addr:city": "ABILENE", "addr:country": "US", "addr:full": "4350 SOUTHWEST DR", "addr:postcode": "79606", "addr:state": "TX", "amenity": "post_box", "brand": "United States Postal Service", "brand:wikidata": "Q668687", "collection_times": "Mo-Fr 15:00; Sa 14:30", "name": "USPS COLLECTION BOX - BLUE BOX", "note": "ON 12/24 AND 12/31, THIS BOX MAY BE COLLECTED AS EARLY AS 12 NOON.", "nsi_id": "unitedstatespostalservice-a77078", "operator": "United States Postal Service", "operator:short": "USPS", "operator:type": "public", "operator:wikidata": "Q668687", "ref": "7960600027"}, "type": "Feature"}
{"dataset_attributes": {"@spider": "usps_collection_boxes"}, "geometry": {"coordinates": [-99.7439642, 32.374335], "type": "Point"}, "id": "K5fTrWT7MQUw1NucQYptSbLrYtI=", "properties": {"@spider": "usps_collection_boxes", "addr:city": "ABILENE", "addr:country": "US", "addr:full": "1680 ANTILLEY RD", "addr:postcode": "79606", "addr:state": "TX", "amenity": "post_box", "brand": "United States Postal Service", "brand:wikidata": "Q668687", "collection_times": "Mo-Fr 11:00; Sa 10:00", "name": "USPS COLLECTION BOX - BLUE BOX", "nsi_id": "unitedstatespostalservice-a77078", "operator": "United States Postal Service", "operator:short": "USPS", "operator:type": "public", "operator:wikidata": "Q668687", "ref": "7960600029"}, "type": "Feature"}
{"dataset_attributes": {"@spider": "usps_collection_boxes"}, "geometry": {"coordinates": [-99.7694194, 32.407105], "type": "Point"}, "id": "vg26gyNh1DjNVhGhUAX6oHP0YFk=", "properties": {"@spider": "usps_collection_boxes", "addr:city": "ABILENE", "addr:country": "US", "addr:full": "1 VILLAGE DR", "addr:postcode": "79606", "addr:state": "TX", "amenity": "post_box", "brand": "United States Postal Service", "brand:wikidata": "Q668687", "collection_times": "Mo-Fr 15:15", "name": "USPS COLLECTION BOX - BLUE BOX", "note": "ON 12/24 AND 12/31, THIS BOX MAY BE COLLECTED AS EARLY AS 12 NOON.", "nsi_id": "unitedstatespostalservice-a77078", "operator": "United States Postal Service", "operator:short": "USPS", "operator:type": "public", "operator:wikidata": "Q668687", "ref": "7960600030"}, "type": "Feature"}
{"dataset_attributes": {"@spider": "usps_collection_boxes"}, "geometry": {"coordinates": [-99.7612319, 32.397612], "type": "Point"}, "id": "MfdfC3WfZKZWEyFllqmw7GcoczU=", "properties": {"@spider": "usps_collection_boxes", "addr:city": "ABILENE", "addr:country": "US", "addr:full": "4402 BUFFALO GAP RD", "addr:postcode": "79606", "addr:state": "TX", "amenity": "post_box", "brand": "United States Postal Service", "brand:wikidata": "Q668687", "collection_times": "Mo-Fr 15:30", "name": "USPS COLLECTION BOX - BLUE BOX", "note": "ON 12/24 AND 12/31, THIS BOX MAY BE COLLECTED AS EARLY AS 12 NOON.", "nsi_id": "unitedstatespostalservice-a77078", "operator": "United States Postal Service", "operator:short": "USPS", "operator:type": "public", "operator:wikidata": "Q668687", "ref": "7960600031"}, "type": "Feature"}
{"dataset_attributes": {"@spider": "usps_collection_boxes"}, "geometry": {"coordinates": [-99.834464378, 32.426095832], "type": "Point"}, "id": "MxUG_JncxouDDP-jLAxTjdcG2fE=", "properties": {"@spider": "usps_collection_boxes", "addr:city": "ABILENE", "addr:country": "US", "addr:full": "2201 AVENUE B", "addr:postcode": "79607", "addr:state": "TX", "amenity": "post_box", "brand": "United States Postal Service", "brand:wikidata": "Q668687", "collection_times": "Mo-Fr 16:30", "name": "USPS COLLECTION BOX - PO LOBBY", "note": "ON 12/24 AND 12/31, THIS BOX MAY BE COLLECTED AS EARLY AS 12 NOON.", "nsi_id": "unitedstatespostalservice-a77078", "operator": "United States Postal Service", "operator:short": "USPS", "operator:type": "public", "operator:wikidata": "Q668687", "ref": "7960700012"}, "type": "Feature"}
