{"geometry": {"coordinates": [-102.1177010341, 32.0002999818], "type": "Point"}, "id": "HnjLt5WuukQxu5w5g15z8s5ZVFc=", "properties": {"@spider": "usps_collection_boxes", "addr:city": "MIDLAND", "addr:country": "US", "addr:full": "1000 N MIDKIFF RD", "addr:postcode": "79701", "addr:state": "TX", "brand": "USPS", "collection_times": "Mo-Fr 13:15", "name": "USPS COLLECTION BOX - BLUE BOX", "note": "ON 12/24 AND 12/31, THIS BOX MAY BE COLLECTED AS EARLY AS 12 NOON.", "ref": "7970100001"}, "type": "Feature"}
{"geometry": {"coordinates": [-102.11297, 32.000671], "type": "Point"}, "id": "Gc88XMYcGa1eVUOnWskqu3RrLt4=", "properties": {"@spider": "usps_collection_boxes", "addr:city": "MIDLAND", "addr:country": "US", "addr:full": "1028 ANDREWS HWY", "addr:postcode": "79701", "addr:state": "TX", "brand": "USPS", "collection_times": "Mo-Fr 13:15", "name": "USPS COLLECTION BOX - BLUE BOX", "note": "ON 12/24 AND 12/31, THIS BOX MAY BE COLLECTED AS EARLY AS 12 NOON.", "ref": "7970100002"}, "type": "Feature"}
{"geometry": {"coordinates": [-102.101915, 31.994412], "type": "Point"}, "id": "3NALRirL8J5z_vYmSc6b3u4Deo8=", "properties": {"@spider": "usps_collection_boxes", "addr:city": "MIDLAND", "addr:country": "US", "addr:full": "2409 W ILLINOIS AVE", "addr:postcode": "79701", "addr:state": "TX", "brand": "USPS", "collection_times": "Mo-Fr 13:15", "name": "USPS COLLECTION BOX - BLUE BOX", "note": "ON 12/24 AND 12/31, THIS BOX MAY BE COLLECTED AS EARLY AS 12 NOON.", "ref": "7970100004"}, "type": "Feature"}
{"geometry": {"coordinates": [-102.07935, 32.005215], "type": "Point"}, "id": "SNMVsQvAcV2bW8vaa2GW27KK5r4=", "properties": {"@spider": "usps_collection_boxes", "addr:city": "MIDLAND", "addr:country": "US", "addr:full": "800 N MARIENFELD ST", "addr:postcode": "79701", "addr:state": "TX", "brand": "USPS", "collection_times": "Mo-Fr 13:45", "name": "USPS COLLECTION BOX - BLUE BOX", "note": "ON 12/24 AND 12/31, THIS BOX MAY BE COLLECTED AS EARLY AS 12 NOON.", "ref": "7970100012"}, "type": "Feature"}
{"geometry": {"coordinates": [-102.081762, 31.995347], "type": "Point"}, "id": "OASZd0OWvsbOdCaM10BtEF4u25A=", "properties": {"@spider": "usps_collection_boxes", "addr:city": "MIDLAND", "addr:country": "US", "addr:full": "208 S A ST", "addr:postcode": "79701", "addr:state": "TX", "brand": "USPS", "collection_times": "Mo-Fr 13:45", "name": "USPS COLLECTION BOX - BLUE BOX", "note": "ON 12/24 AND 12/31, THIS BOX MAY BE COLLECTED AS EARLY AS 12 NOON.", "ref": "7970100014"}, "type": "Feature"}
{"geometry": {"coordinates": [-102.067107, 31.989592], "type": "Point"}, "id": "qJtglelMZZHi_5z9Ce76vg7IAAQ=", "properties": {"@spider": "usps_collection_boxes", "addr:city": "MIDLAND", "addr:country": "US", "addr:full": "601 E FLORIDA AVE", "addr:postcode": "79701", "addr:state": "TX", "brand": "USPS", "collection_times": "Mo-Fr 13:00", "name": "USPS COLLECTION BOX - BLUE BOX", "note": "ON 12/24 AND 12/31, THIS BOX MAY BE COLLECTED AS EARLY AS 12 NOON.", "ref": "7970100019"}, "type": "Feature"}
{"geometry": {"coordinates": [-102.073071, 31.998246], "type": "Point"}, "id": "O2WUiI6jxmE3p7DHgI_i82dpHjc=", "properties": {"@spider": "usps_collection_boxes", "addr:city": "MIDLAND", "addr:country": "US", "addr:full": "106 N BAIRD ST", "addr:postcode": "79701", "addr:state": "TX", "brand": "USPS", "collection_times": "Mo-Fr 16:00", "name": "USPS COLLECTION BOX - BLUE BOX", "note": "ON 12/24 AND 12/31, THIS BOX MAY BE COLLECTED AS EARLY AS 12 NOON.", "ref": "7970100022"}, "type": "Feature"}
{"geometry": {"coordinates": [-102.083474, 31.996917], "type": "Point"}, "id": "OCPHZn00nTfJTE-RUXMg2pK3jog=", "properties": {"@spider": "usps_collection_boxes", "addr:city": "MIDLAND", "addr:country": "US", "addr:full": "901 W WALL ST", "addr:postcode": "79701", "addr:state": "TX", "brand": "USPS", "collection_times": "Mo-Fr 14:00", "name": "USPS COLLECTION BOX - BLUE BOX", "note": "ON 12/24 AND 12/31, THIS BOX MAY BE COLLECTED AS EARLY AS 12 NOON.", "ref": "7970100034"}, "type": "Feature"}
{"geometry": {"coordinates": [-102.073312, 31.997513], "type": "Point"}, "id": "KulaBIR_Q4Z_ix8yh8JfxeRjpvg=", "properties": {"@spider": "usps_collection_boxes", "addr:city": "MIDLAND", "addr:country": "US", "addr:full": "100 E WALL ST", "addr:postcode": "79701", "addr:state": "TX", "brand": "USPS", "collection_times": "Mo-Fr 16:30; Sa 15:15", "name": "USPS COLLECTION BOX - PO LOBBY", "note": "ON 12/24 AND 12/31, THIS BOX MAY BE COLLECTED AS EARLY AS 12 NOON.", "ref": "7970100074"}, "type": "Feature"}
{"geometry": {"coordinates": [-102.073312, 31.997513], "type": "Point"}, "id": "Na7ZfPHkS_yRI9fQH5H354pJMI4=", "properties": {"@spider": "usps_collection_boxes", "addr:city": "MIDLAND", "addr:country": "US", "addr:full": "100 E WALL ST", "addr:postcode": "79701", "addr:state": "TX", "brand": "USPS", "collection_times": "Mo-Fr 16:30; Sa 15:15", "name": "USPS COLLECTION BOX - PO LOBBY", "note": "ON 12/24 AND 12/31, THIS BOX MAY BE COLLECTED AS EARLY AS 12 NOON.", "ref": "7970100075"}, "type": "Feature"}
{"geometry": {"coordinates": [-102.073312, 31.997513], "type": "Point"}, "id": "lhiKZ_SdBNsUsZZxI7E0ix1GPkU=", "properties": {"@spider": "usps_collection_boxes", "addr:city": "MIDLAND", "addr:country": "US", "addr:full": "100 E WALL ST", "addr:postcode": "79701", "addr:state": "TX", "brand": "USPS", "collection_times": "Mo-Fr 16:30; Sa 15:15", "name": "USPS COLLECTION BOX - PO LOBBY", "note": "ON 12/24 AND 12/31, THIS BOX MAY BE COLLECTED AS EARLY AS 12 NOON.", "ref": "7970100076"}, "type": "Feature"}
{"geometry": {"coordinates": [-102.103112, 31.998395], "type": "Point"}, "id": "k-8kPueNRAT9J8dSfl0MiYzlVy8=", "properties": {"@spider": "usps_collection_boxes", "addr:city": "MIDLAND", "addr:country": "US", "addr:full": "2315 W LOUISIANA AVE", "addr:postcode": "79701", "addr:state": "TX", "brand": "USPS", "collection_times": "Mo-Fr 16:00", "name": "USPS COLLECTION BOX - BLUE BOX", "note": "ON 12/24 AND 12/31, THIS BOX MAY BE COLLECTED AS EARLY AS 12 NOON.", "ref": "7970100077"}, "type": "Feature"}
{"geometry": {"coordinates": [-102.102915, 31.99863], "type": "Point"}, "id": "cdWZFpNGZD6yO9YooLy42UR4Mds=", "properties": {"@spider": "usps_collection_boxes", "addr:city": "MIDLAND", "addr:country": "US", "addr:full": "2315 W LOUISIANA AVE", "addr:postcode": "79701", "addr:state": "TX", "brand": "USPS", "collection_times": "Mo-Fr 17:00; Sa 15:00", "name": "USPS COLLECTION BOX - PO LOBBY", "note": "ON 12/24 AND 12/31, THIS BOX MAY BE COLLECTED AS EARLY AS 12 NOON.", "ref": "7970100080"}, "type": "Feature"}
{"geometry": {"coordinates": [-102.102918, 31.998643], "type": "Point"}, "id": "2fu5XK98MXrY0Mb74sGzzoyqDhE=", "properties": {"@spider": "usps_collection_boxes", "addr:city": "MIDLAND", "addr:country": "US", "addr:full": "2315 W LOUISIANA AVE", "addr:postcode": "79701", "addr:state": "TX", "brand": "USPS", "collection_times": "Mo-Fr 17:00; Sa 15:00", "name": "USPS COLLECTION BOX - PO LOBBY", "note": "ON 12/24 AND 12/31, THIS BOX MAY BE COLLECTED AS EARLY AS 12 NOON.", "ref": "7970100081"}, "type": "Feature"}
{"geometry": {"coordinates": [-102.078279, 32.011452], "type": "Point"}, "id": "wYELnv3blhZUbdHOCEKvBBKq_nE=", "properties": {"@spider": "usps_collection_boxes", "addr:city": "MIDLAND", "addr:country": "US", "addr:full": "1404 N BIG SPRING ST", "addr:postcode": "79701", "addr:state": "TX", "brand": "USPS", "collection_times": "Mo-Fr 15:15", "name": "USPS COLLECTION BOX - BLUE BOX", "note": "ON 12/24 AND 12/31, THIS BOX MAY BE COLLECTED AS EARLY AS 12 NOON.", "ref": "7970100083"}, "type": "Feature"}
{"geometry": {"coordinates": [-102.092857, 31.994918], "type": "Point"}, "id": "FR1LPOQZoLte88gD1Xl7nfjdM88=", "properties": {"@spider": "usps_collection_boxes", "addr:city": "MIDLAND", "addr:country": "US", "addr:full": "1700 W WALL ST", "addr:postcode": "79701", "addr:state": "TX", "brand": "USPS", "collection_times": "Mo-Fr 13:30", "name": "USPS COLLECTION BOX - BLUE BOX", "note": "ON 12/24 AND 12/31, THIS BOX MAY BE COLLECTED AS EARLY AS 12 NOON.", "ref": "7970100084"}, "type": "Feature"}
{"geometry": {"coordinates": [-102.073301749, 31.997502528], "type": "Point"}, "id": "Xp2g3K57rX5sspx8P-YJCpIZdjc=", "properties": {"@spider": "usps_collection_boxes", "addr:city": "MIDLAND", "addr:country": "US", "addr:full": "100 E WALL ST", "addr:postcode": "79701", "addr:state": "TX", "brand": "USPS", "collection_times": "Mo-Fr 17:00", "name": "USPS COLLECTION BOX - PO LOBBY", "note": "ON 12/24 AND 12/31, THIS BOX MAY BE COLLECTED AS EARLY AS 12 NOON.", "ref": "7970100086"}, "type": "Feature"}
{"geometry": {"coordinates": [-102.103077002, 31.998746086], "type": "Point"}, "id": "FYRn2cZur-ww0_SGfyJUOH3y2Gk=", "properties": {"@spider": "usps_collection_boxes", "addr:city": "MIDLAND", "addr:country": "US", "addr:full": "2315 W LOUISIANA AVE", "addr:postcode": "79701", "addr:state": "TX", "brand": "USPS", "collection_times": "Mo-Fr 17:00", "name": "USPS COLLECTION BOX - PO LOBBY", "note": "ON 12/24 AND 12/31, THIS BOX MAY BE COLLECTED AS EARLY AS 12 NOON.", "ref": "7970100087"}, "type": "Feature"}
{"geometry": {"coordinates": [-102.127212, 32.00345], "type": "Point"}, "id": "Clq3zegbeKxhAvH8lqBotlew7eY=", "properties": {"@spider": "usps_collection_boxes", "addr:city": "MIDLAND", "addr:country": "US", "addr:full": "3525 ANDREWS HWY", "addr:postcode": "79703", "addr:state": "TX", "brand": "USPS", "collection_times": "Mo-Fr 15:15", "name": "USPS COLLECTION BOX - BLUE BOX", "note": "ON 12/24 AND 12/31, THIS BOX MAY BE COLLECTED AS EARLY AS 12 NOON.", "ref": "7970300000"}, "type": "Feature"}
{"geometry": {"coordinates": [-102.117584, 31.99139], "type": "Point"}, "id": "65xv7rQD1JRfg3TlIsy8vbJeKl8=", "properties": {"@spider": "usps_collection_boxes", "addr:city": "MIDLAND", "addr:country": "US", "addr:full": "3316 W ILLINOIS AVE", "addr:postcode": "79703", "addr:state": "TX", "brand": "USPS", "collection_times": "Mo-Fr 14:30", "name": "USPS COLLECTION BOX - BLUE BOX", "note": "ON 12/24 AND 12/31, THIS BOX MAY BE COLLECTED AS EARLY AS 12 NOON.", "ref": "7970300001"}, "type": "Feature"}
{"geometry": {"coordinates": [-102.134327, 32.00412], "type": "Point"}, "id": "Yb-IfIXdhIZolBphXFAfvfolGl0=", "properties": {"@spider": "usps_collection_boxes", "addr:city": "MIDLAND", "addr:country": "US", "addr:full": "4214 ANDREWS HWY", "addr:postcode": "79703", "addr:state": "TX", "brand": "USPS", "collection_times": "Mo-Fr 15:30", "name": "USPS COLLECTION BOX - BLUE BOX", "note": "ON 12/24 AND 12/31, THIS BOX MAY BE COLLECTED AS EARLY AS 12 NOON.", "ref": "7970300002"}, "type": "Feature"}
{"geometry": {"coordinates": [-102.136794, 31.988527], "type": "Point"}, "id": "iK1yOj_SavebHpk2-bPPscpVpEY=", "properties": {"@spider": "usps_collection_boxes", "addr:city": "MIDLAND", "addr:country": "US", "addr:full": "4500 W ILLINOIS AVE", "addr:postcode": "79703", "addr:state": "TX", "brand": "USPS", "collection_times": "Mo-Fr 15:30", "name": "USPS COLLECTION BOX - BLUE BOX", "note": "ON 12/24 AND 12/31, THIS BOX MAY BE COLLECTED AS EARLY AS 12 NOON.", "ref": "7970300004"}, "type": "Feature"}
{"geometry": {"coordinates": [-102.132812, 31.990053], "type": "Point"}, "id": "Pw3AgbqzNVnj0WakHZbEultHxk0=", "properties": {"@spider": "usps_collection_boxes", "addr:city": "MIDLAND", "addr:country": "US", "addr:full": "344 N MIDLAND DR", "addr:postcode": "79703", "addr:state": "TX", "brand": "USPS", "collection_times": "Mo-Sa 15:30", "name": "USPS COLLECTION BOX - BLUE BOX", "note": "ON 12/24 AND 12/31, THIS BOX MAY BE COLLECTED AS EARLY AS 12 NOON.", "ref": "7970300005"}, "type": "Feature"}
{"geometry": {"coordinates": [-102.114048, 31.978647], "type": "Point"}, "id": "q2awZAuMFUpW-O7QBH0Z_Ht2g1Q=", "properties": {"@spider": "usps_collection_boxes", "addr:city": "MIDLAND", "addr:country": "US", "addr:full": "3400 THOMASON DR", "addr:postcode": "79703", "addr:state": "TX", "brand": "USPS", "collection_times": "Mo-Fr 14:15", "name": "USPS COLLECTION BOX - BLUE BOX", "note": "ON 12/24 AND 12/31, THIS BOX MAY BE COLLECTED AS EARLY AS 12 NOON.", "ref": "7970300006"}, "type": "Feature"}
{"geometry": {"coordinates": [-102.092571, 32.035728], "type": "Point"}, "id": "E10l_5MuON8g6z2WxJgXOGW-LJk=", "properties": {"@spider": "usps_collection_boxes", "addr:city": "MIDLAND", "addr:country": "US", "addr:full": "612 VETERANS AIRPARK LN", "addr:postcode": "79705", "addr:state": "TX", "brand": "USPS", "collection_times": "Mo-Fr 17:00; Sa 16:15", "name": "USPS COLLECTION BOX - PO LOBBY", "note": "ON 12/24 AND 12/31, THIS BOX MAY BE COLLECTED AS EARLY AS 12 NOON.", "ref": "7970500000"}, "type": "Feature"}
{"geometry": {"coordinates": [-102.090493, 32.026279], "type": "Point"}, "id": "uB2o4YqsPG0RArV0yPc7utg00hA=", "properties": {"@spider": "usps_collection_boxes", "addr:city": "MIDLAND", "addr:country": "US", "addr:full": "3100 N A ST", "addr:postcode": "79705", "addr:state": "TX", "brand": "USPS", "collection_times": "Mo-Fr 15:30", "name": "USPS COLLECTION BOX - BLUE BOX", "note": "ON 12/24 AND 12/31, THIS BOX MAY BE COLLECTED AS EARLY AS 12 NOON.", "ref": "7970500001"}, "type": "Feature"}
{"geometry": {"coordinates": [-102.090547, 32.028514], "type": "Point"}, "id": "cukivEt4Iz-3rmmsZuYHAILUmJ4=", "properties": {"@spider": "usps_collection_boxes", "addr:city": "MIDLAND", "addr:country": "US", "addr:full": "3300 N A ST", "addr:postcode": "79705", "addr:state": "TX", "brand": "USPS", "collection_times": "Mo-Fr 15:45", "name": "USPS COLLECTION BOX - BLUE BOX", "note": "ON 12/24 AND 12/31, THIS BOX MAY BE COLLECTED AS EARLY AS 12 NOON.", "ref": "7970500002"}, "type": "Feature"}
{"geometry": {"coordinates": [-102.090567, 32.028525], "type": "Point"}, "id": "zDclINXfTTY0KTlQVKVapsBHbm0=", "properties": {"@spider": "usps_collection_boxes", "addr:city": "MIDLAND", "addr:country": "US", "addr:full": "3300 N A ST", "addr:postcode": "79705", "addr:state": "TX", "brand": "USPS", "collection_times": "Mo-Fr 15:45", "name": "USPS COLLECTION BOX - BLUE BOX", "note": "ON 12/24 AND 12/31, THIS BOX MAY BE COLLECTED AS EARLY AS 12 NOON.", "ref": "7970500004"}, "type": "Feature"}
{"geometry": {"coordinates": [-102.092463, 32.035662], "type": "Point"}, "id": "1IfBG-SHGXHXm0O3-3Z7bfGhc3M=", "properties": {"@spider": "usps_collection_boxes", "addr:city": "MIDLAND", "addr:country": "US", "addr:full": "612 VETERANS AIRPARK LN", "addr:postcode": "79705", "addr:state": "TX", "brand": "USPS", "collection_times": "Mo-Fr 17:00; Sa 16:15", "name": "USPS COLLECTION BOX - PO LOBBY", "note": "ON 12/24 AND 12/31, THIS BOX MAY BE COLLECTED AS EARLY AS 12 NOON.", "ref": "7970500006"}, "type": "Feature"}
{"geometry": {"coordinates": [-102.09265, 32.03524], "type": "Point"}, "id": "h3jR4j9T6kRv9Cv1E3Z3zyU3Y3Q=", "properties": {"@spider": "usps_collection_boxes", "addr:city": "MIDLAND", "addr:country": "US", "addr:full": "612 VETERANS AIRPARK LN", "addr:postcode": "79705", "addr:state": "TX", "brand": "USPS", "collection_times": "Mo-Sa 16:30", "name": "USPS COLLECTION BOX - BLUE BOX", "note": "ON 12/24 AND 12/31, THIS BOX MAY BE COLLECTED AS EARLY AS 12 NOON.", "ref": "7970500007"}, "type": "Feature"}
{"geometry": {"coordinates": [-102.0804571522, 32.0197261172], "type": "Point"}, "id": "_BPcjYPOV_7228F6M_k_jdjlyTw=", "properties": {"@spider": "usps_collection_boxes", "addr:city": "MIDLAND", "addr:country": "US", "addr:full": "2217 N BIG SPRING ST", "addr:postcode": "79705", "addr:state": "TX", "brand": "USPS", "collection_times": "Mo-Fr 15:30", "name": "USPS COLLECTION BOX - BLUE BOX", "note": "ON 12/24 AND 12/31, THIS BOX MAY BE COLLECTED AS EARLY AS 12 NOON.", "ref": "7970500014"}, "type": "Feature"}
{"geometry": {"coordinates": [-102.081402, 32.023267], "type": "Point"}, "id": "Kpp44fHywr0cjvow8rYK7Z09Uu4=", "properties": {"@spider": "usps_collection_boxes", "addr:city": "MIDLAND", "addr:country": "US", "addr:full": "2500 N BIG SPRING ST", "addr:postcode": "79705", "addr:state": "TX", "brand": "USPS", "collection_times": "Mo-Fr 15:45", "name": "USPS COLLECTION BOX - BLUE BOX", "note": "ON 12/24 AND 12/31, THIS BOX MAY BE COLLECTED AS EARLY AS 12 NOON.", "ref": "7970500015"}, "type": "Feature"}
{"geometry": {"coordinates": [-102.08511, 32.041157], "type": "Point"}, "id": "wuTFY2gY-TrTbMQe0t9eD3QN2CQ=", "properties": {"@spider": "usps_collection_boxes", "addr:city": "MIDLAND", "addr:country": "US", "addr:full": "4400 N BIG SPRING ST", "addr:postcode": "79705", "addr:state": "TX", "brand": "USPS", "collection_times": "Mo-Fr 16:00", "name": "USPS COLLECTION BOX - BLUE BOX", "note": "ON 12/24 AND 12/31, THIS BOX MAY BE COLLECTED AS EARLY AS 12 NOON.", "ref": "7970500017"}, "type": "Feature"}
{"geometry": {"coordinates": [-102.107913, 32.02294], "type": "Point"}, "id": "4r9lHSbjUvVXeLEg9O1k_d7PZdg=", "properties": {"@spider": "usps_collection_boxes", "addr:city": "MIDLAND", "addr:country": "US", "addr:full": "3200 N GARFIELD ST", "addr:postcode": "79705", "addr:state": "TX", "brand": "USPS", "collection_times": "Mo-Fr 15:00; Sa 16:00", "name": "USPS COLLECTION BOX - BLUE BOX", "note": "ON 12/24 AND 12/31, THIS BOX MAY BE COLLECTED AS EARLY AS 12 NOON.", "ref": "7970500034"}, "type": "Feature"}
{"geometry": {"coordinates": [-102.108231, 32.029868], "type": "Point"}, "id": "YcVUA3P275sxN7mDw3-tQedkwls=", "properties": {"@spider": "usps_collection_boxes", "addr:city": "MIDLAND", "addr:country": "US", "addr:full": "3600 N GARFIELD ST", "addr:postcode": "79705", "addr:state": "TX", "brand": "USPS", "collection_times": "Mo-Fr 15:00", "name": "USPS COLLECTION BOX - BLUE BOX", "note": "ON 12/24 AND 12/31, THIS BOX MAY BE COLLECTED AS EARLY AS 12 NOON.", "ref": "7970500035"}, "type": "Feature"}
{"geometry": {"coordinates": [-102.11277, 32.036372], "type": "Point"}, "id": "gQxzaY5SIeFM4E4OrcQDB693fe4=", "properties": {"@spider": "usps_collection_boxes", "addr:city": "MIDLAND", "addr:country": "US", "addr:full": "4519 N GARFIELD ST", "addr:postcode": "79705", "addr:state": "TX", "brand": "USPS", "collection_times": "Mo-Fr 15:00; Sa 16:00", "name": "USPS COLLECTION BOX - BLUE BOX", "note": "ON 12/24 AND 12/31, THIS BOX MAY BE COLLECTED AS EARLY AS 12 NOON.", "ref": "7970500037"}, "type": "Feature"}
{"geometry": {"coordinates": [-102.112125, 32.039542], "type": "Point"}, "id": "Q8Dy_1pVJEKYe_G1Gg42D1BJZxs=", "properties": {"@spider": "usps_collection_boxes", "addr:city": "MIDLAND", "addr:country": "US", "addr:full": "4610 N GARFIELD ST", "addr:postcode": "79705", "addr:state": "TX", "brand": "USPS", "collection_times": "Mo-Fr 15:00", "name": "USPS COLLECTION BOX - BLUE BOX", "note": "ON 12/24 AND 12/31, THIS BOX MAY BE COLLECTED AS EARLY AS 12 NOON.", "ref": "7970500039"}, "type": "Feature"}
{"geometry": {"coordinates": [-102.129774, 32.031949], "type": "Point"}, "id": "37c_vVKfUxGNmrXkFGToYthya9U=", "properties": {"@spider": "usps_collection_boxes", "addr:city": "MIDLAND", "addr:country": "US", "addr:full": "4511 N MIDKIFF RD", "addr:postcode": "79705", "addr:state": "TX", "brand": "USPS", "collection_times": "Mo-Fr 14:45", "name": "USPS COLLECTION BOX - BLUE BOX", "note": "ON 12/24 AND 12/31, THIS BOX MAY BE COLLECTED AS EARLY AS 12 NOON.", "ref": "7970500069"}, "type": "Feature"}
{"geometry": {"coordinates": [-102.129665, 32.035094], "type": "Point"}, "id": "TCpzrAGv8Rl95bkI1owQGKaNznM=", "properties": {"@spider": "usps_collection_boxes", "addr:city": "MIDLAND", "addr:country": "US", "addr:full": "4706 N MIDKIFF RD", "addr:postcode": "79705", "addr:state": "TX", "brand": "USPS", "collection_times": "Mo-Fr 14:45", "name": "USPS COLLECTION BOX - BLUE BOX", "note": "ON 12/24 AND 12/31, THIS BOX MAY BE COLLECTED AS EARLY AS 12 NOON.", "ref": "7970500072"}, "type": "Feature"}
{"geometry": {"coordinates": [-102.088831, 32.019115], "type": "Point"}, "id": "4-fxWzIBrr6P9wYsM02r2H0Mfbc=", "properties": {"@spider": "usps_collection_boxes", "addr:city": "MIDLAND", "addr:country": "US", "addr:full": "2110 N A ST", "addr:postcode": "79705", "addr:state": "TX", "brand": "USPS", "collection_times": "Mo-Fr 15:30", "name": "USPS COLLECTION BOX - BLUE BOX", "note": "ON 12/24 AND 12/31, THIS BOX MAY BE COLLECTED AS EARLY AS 12 NOON.", "ref": "7970500107"}, "type": "Feature"}
{"geometry": {"coordinates": [-102.090557, 32.02851], "type": "Point"}, "id": "5ADNMYXSPOD3eljsIUczlh71qq0=", "properties": {"@spider": "usps_collection_boxes", "addr:city": "MIDLAND", "addr:country": "US", "addr:full": "3300 N A ST", "addr:postcode": "79705", "addr:state": "TX", "brand": "USPS", "collection_times": "Mo-Fr 15:45", "name": "USPS COLLECTION BOX - BLUE BOX", "note": "ON 12/24 AND 12/31, THIS BOX MAY BE COLLECTED AS EARLY AS 12 NOON.", "ref": "7970500133"}, "type": "Feature"}
{"geometry": {"coordinates": [-102.088104, 32.027296], "type": "Point"}, "id": "zb9SIyZQKQA88IgbbCZwiWLXMhk=", "properties": {"@spider": "usps_collection_boxes", "addr:city": "MIDLAND", "addr:country": "US", "addr:full": "731 W WADLEY AVE", "addr:postcode": "79705", "addr:state": "TX", "brand": "USPS", "collection_times": "Mo-Fr 15:30", "name": "USPS COLLECTION BOX - BLUE BOX", "note": "ON 12/24 AND 12/31, THIS BOX MAY BE COLLECTED AS EARLY AS 12 NOON.", "ref": "7970500134"}, "type": "Feature"}
{"geometry": {"coordinates": [-102.085156, 32.041146], "type": "Point"}, "id": "bprjf3edOE1pF4DwitflhGOSrts=", "properties": {"@spider": "usps_collection_boxes", "addr:city": "MIDLAND", "addr:country": "US", "addr:full": "4400 N BIG SPRING ST", "addr:postcode": "79705", "addr:state": "TX", "brand": "USPS", "collection_times": "Mo-Fr 16:00", "name": "USPS COLLECTION BOX - BLUE BOX", "note": "ON 12/24 AND 12/31, THIS BOX MAY BE COLLECTED AS EARLY AS 12 NOON.", "ref": "7970500135"}, "type": "Feature"}
{"geometry": {"coordinates": [-102.087364, 32.031151], "type": "Point"}, "id": "LQHv8hGEZ5MUXz6JXcdFe0GMthQ=", "properties": {"@spider": "usps_collection_boxes", "addr:city": "MIDLAND", "addr:country": "US", "addr:full": "6 DESTA DR", "addr:postcode": "79705", "addr:state": "TX", "brand": "USPS", "collection_times": "Mo-Fr 16:15", "name": "USPS COLLECTION BOX - BLUE BOX", "note": "ON 12/24 AND 12/31, THIS BOX MAY BE COLLECTED AS EARLY AS 12 NOON.", "ref": "7970500137"}, "type": "Feature"}
{"geometry": {"coordinates": [-102.092289243, 32.035245995], "type": "Point"}, "id": "Z9gHxkEVeTMqL1QwftN9n8UpV24=", "properties": {"@spider": "usps_collection_boxes", "addr:city": "MIDLAND", "addr:country": "US", "addr:full": "612 VETERANS AIRPARK LN", "addr:postcode": "79705", "addr:state": "TX", "brand": "USPS", "collection_times": "Mo-Fr 17:00", "name": "USPS COLLECTION BOX - PO LOBBY", "note": "ON 12/24 AND 12/31, THIS BOX MAY BE COLLECTED AS EARLY AS 12 NOON.", "ref": "7970500147"}, "type": "Feature"}
{"geometry": {"coordinates": [-102.222058, 31.930781], "type": "Point"}, "id": "7gQaQI6RFcfN0r5pFaDKR8SJSDs=", "properties": {"@spider": "usps_collection_boxes", "addr:city": "MIDLAND", "addr:country": "US", "addr:full": "10000 LOOP 40", "addr:postcode": "79706", "addr:state": "TX", "brand": "USPS", "collection_times": "Mo-Sa 18:00", "name": "USPS COLLECTION BOX - BLUE BOX", "note": "ON 12/24 AND 12/31, THIS BOX MAY BE COLLECTED AS EARLY AS 12 NOON.", "ref": "7970600001"}, "type": "Feature"}
{"geometry": {"coordinates": [-102.217911, 31.93432], "type": "Point"}, "id": "QekMdcdgtbyiGS3TguHfXyvA4GU=", "properties": {"@spider": "usps_collection_boxes", "addr:city": "MIDLAND", "addr:country": "US", "addr:full": "10000 LOOP 40", "addr:postcode": "79706", "addr:state": "TX", "brand": "USPS", "collection_times": "Mo-Sa 18:00", "name": "USPS COLLECTION BOX - PO LOBBY", "note": "ON 12/24 AND 12/31, THIS BOX MAY BE COLLECTED AS EARLY AS 12 NOON.", "ref": "7970600003"}, "type": "Feature"}
{"geometry": {"coordinates": [-101.900105, 32.026534], "type": "Point"}, "id": "HOPkIosT9b7d-8qacHfYuB_7vXg=", "properties": {"@spider": "usps_collection_boxes", "addr:city": "MIDLAND", "addr:country": "US", "addr:full": "10706 FM 307", "addr:postcode": "79706", "addr:state": "TX", "brand": "USPS", "collection_times": "Mo-Fr 11:00", "name": "USPS COLLECTION BOX - BLUE BOX", "ref": "7970600006"}, "type": "Feature"}
{"geometry": {"coordinates": [-102.036979, 31.982812], "type": "Point"}, "id": "YEUN_n8ORtDUvGDOooEB38TXC8Y=", "properties": {"@spider": "usps_collection_boxes", "addr:city": "MIDLAND", "addr:country": "US", "addr:full": "3115 GARDEN CITY HWY", "addr:postcode": "79706", "addr:state": "TX", "brand": "USPS", "collection_times": "Mo-Fr 13:00", "name": "USPS COLLECTION BOX - BLUE BOX", "note": "ON 12/24 AND 12/31, THIS BOX MAY BE COLLECTED AS EARLY AS 12 NOON.", "ref": "7970600009"}, "type": "Feature"}
{"geometry": {"coordinates": [-102.073018, 31.971307], "type": "Point"}, "id": "F2kzGsW-w6TOXSxpJ1FAPaIBZUU=", "properties": {"@spider": "usps_collection_boxes", "addr:city": "MIDLAND", "addr:country": "US", "addr:full": "2503 RANKIN HWY", "addr:postcode": "79706", "addr:state": "TX", "brand": "USPS", "collection_times": "Mo-Fr 13:15", "name": "USPS COLLECTION BOX - BLUE BOX", "note": "ON 12/24 AND 12/31, THIS BOX MAY BE COLLECTED AS EARLY AS 12 NOON.", "ref": "7970600010"}, "type": "Feature"}
{"geometry": {"coordinates": [-102.216833, 31.914868], "type": "Point"}, "id": "1xi6w9qAdHME--AyIwG05i-XZfY=", "properties": {"@spider": "usps_collection_boxes", "addr:city": "MIDLAND", "addr:country": "US", "addr:full": "10400 S FM 1788", "addr:postcode": "79706", "addr:state": "TX", "brand": "USPS", "collection_times": "Mo-Fr 11:00", "name": "USPS COLLECTION BOX - BLUE BOX", "ref": "7970600011"}, "type": "Feature"}
{"geometry": {"coordinates": [-102.217911, 31.93432], "type": "Point"}, "id": "KMFoT__DhpJ7076iClWzqzK7RaI=", "properties": {"@spider": "usps_collection_boxes", "addr:city": "MIDLAND", "addr:country": "US", "addr:full": "10000 LOOP 40", "addr:postcode": "79706", "addr:state": "TX", "brand": "USPS", "collection_times": "Mo-Sa 18:00", "name": "USPS COLLECTION BOX - PO LOBBY", "note": "ON 12/24 AND 12/31, THIS BOX MAY BE COLLECTED AS EARLY AS 12 NOON.", "ref": "7970600012"}, "type": "Feature"}
{"geometry": {"coordinates": [-102.138296, 32.005372], "type": "Point"}, "id": "TLw6PddIEqpMjhu1SuUJWr5drWk=", "properties": {"@spider": "usps_collection_boxes", "addr:city": "MIDLAND", "addr:country": "US", "addr:full": "2101 N MIDLAND DR", "addr:postcode": "79707", "addr:state": "TX", "brand": "USPS", "collection_times": "Mo-Fr 15:15", "name": "USPS COLLECTION BOX - BLUE BOX", "note": "ON 12/24 AND 12/31, THIS BOX MAY BE COLLECTED AS EARLY AS 12 NOON.", "ref": "7970700000"}, "type": "Feature"}
{"geometry": {"coordinates": [-102.143331, 32.016348], "type": "Point"}, "id": "rr1bxe62dUaKojXYPMVL4j0iUdY=", "properties": {"@spider": "usps_collection_boxes", "addr:city": "MIDLAND", "addr:country": "US", "addr:full": "3317 N MIDLAND DR", "addr:postcode": "79707", "addr:state": "TX", "brand": "USPS", "collection_times": "Mo-Fr 15:15", "name": "USPS COLLECTION BOX - BLUE BOX", "note": "ON 12/24 AND 12/31, THIS BOX MAY BE COLLECTED AS EARLY AS 12 NOON.", "ref": "7970700001"}, "type": "Feature"}
{"geometry": {"coordinates": [-102.146501, 32.030152], "type": "Point"}, "id": "1ncXxDGhfRiWnoYM0Q_p-imhyQU=", "properties": {"@spider": "usps_collection_boxes", "addr:city": "MIDLAND", "addr:country": "US", "addr:full": "4517 N MIDLAND DR", "addr:postcode": "79707", "addr:state": "TX", "brand": "USPS", "collection_times": "Mo-Fr 15:00", "name": "USPS COLLECTION BOX - BLUE BOX", "note": "ON 12/24 AND 12/31, THIS BOX MAY BE COLLECTED AS EARLY AS 12 NOON.", "ref": "7970700002"}, "type": "Feature"}
{"geometry": {"coordinates": [-102.126311, 32.019903], "type": "Point"}, "id": "OlqGo8-vs6MwBOGgfmw-eO22Sb4=", "properties": {"@spider": "usps_collection_boxes", "addr:city": "MIDLAND", "addr:country": "US", "addr:full": "3304 W WADLEY AVE", "addr:postcode": "79707", "addr:state": "TX", "brand": "USPS", "collection_times": "Mo-Fr 17:00; Sa 15:45", "name": "USPS COLLECTION BOX - PO LOBBY", "note": "ON 12/24 AND 12/31, THIS BOX MAY BE COLLECTED AS EARLY AS 12 NOON.", "ref": "7970700004"}, "type": "Feature"}
{"geometry": {"coordinates": [-102.126226, 32.020205], "type": "Point"}, "id": "vfekI5AQwHp25XOqKwbRz6Tk93U=", "properties": {"@spider": "usps_collection_boxes", "addr:city": "MIDLAND", "addr:country": "US", "addr:full": "3304 W WADLEY AVE", "addr:postcode": "79707", "addr:state": "TX", "brand": "USPS", "collection_times": "Mo-Sa 16:00", "name": "USPS COLLECTION BOX - BLUE BOX", "note": "ON 12/24 AND 12/31, THIS BOX MAY BE COLLECTED AS EARLY AS 12 NOON.", "ref": "7970700005"}, "type": "Feature"}
{"geometry": {"coordinates": [-102.126277, 32.020114], "type": "Point"}, "id": "PN84Q94tQaZynPz5-SuNq3140eE=", "properties": {"@spider": "usps_collection_boxes", "addr:city": "MIDLAND", "addr:country": "US", "addr:full": "3304 W WADLEY AVE", "addr:postcode": "79707", "addr:state": "TX", "brand": "USPS", "collection_times": "Mo-Fr 17:00; Sa 15:45", "name": "USPS COLLECTION BOX - PO LOBBY", "note": "ON 12/24 AND 12/31, THIS BOX MAY BE COLLECTED AS EARLY AS 12 NOON.", "ref": "7970700007"}, "type": "Feature"}
{"geometry": {"coordinates": [-102.126354, 32.020148], "type": "Point"}, "id": "UiHO-_EKegnN0-fjO5FtZ1YVJxc=", "properties": {"@spider": "usps_collection_boxes", "addr:city": "MIDLAND", "addr:country": "US", "addr:full": "3304 W WADLEY AVE", "addr:postcode": "79707", "addr:state": "TX", "brand": "USPS", "collection_times": "Mo-Fr 17:00; Sa 15:45", "name": "USPS COLLECTION BOX - PO LOBBY", "note": "ON 12/24 AND 12/31, THIS BOX MAY BE COLLECTED AS EARLY AS 12 NOON.", "ref": "7970700008"}, "type": "Feature"}
{"geometry": {"coordinates": [-102.126239, 32.019886], "type": "Point"}, "id": "OvILQnm2nlaSRfpto286JwaqQxY=", "properties": {"@spider": "usps_collection_boxes", "addr:city": "MIDLAND", "addr:country": "US", "addr:full": "3304 W WADLEY AVE", "addr:postcode": "79707", "addr:state": "TX", "brand": "USPS", "collection_times": "Mo-Fr 17:00; Sa 15:45", "name": "USPS COLLECTION BOX - PO LOBBY", "note": "ON 12/24 AND 12/31, THIS BOX MAY BE COLLECTED AS EARLY AS 12 NOON.", "ref": "7970700009"}, "type": "Feature"}
{"geometry": {"coordinates": [-102.126235, 32.019792], "type": "Point"}, "id": "anDBkXOBTP9OBczayZ3zXbcXWrs=", "properties": {"@spider": "usps_collection_boxes", "addr:city": "MIDLAND", "addr:country": "US", "addr:full": "3304 W WADLEY AVE", "addr:postcode": "79707", "addr:state": "TX", "brand": "USPS", "collection_times": "Mo-Fr 17:00; Sa 15:45", "name": "USPS COLLECTION BOX - APC", "note": "ON 12/24 AND 12/31, THIS BOX MAY BE COLLECTED AS EARLY AS 12 NOON.", "ref": "7970700010"}, "type": "Feature"}
{"geometry": {"coordinates": [-102.126109027, 32.019542965], "type": "Point"}, "id": "XfYzzUTtGB1WCMTFLUqpXUL2_Dc=", "properties": {"@spider": "usps_collection_boxes", "addr:city": "MIDLAND", "addr:country": "US", "addr:full": "3304 W WADLEY AVE", "addr:postcode": "79707", "addr:state": "TX", "brand": "USPS", "collection_times": "Mo-Fr 17:00; Sa 14:00", "name": "USPS COLLECTION BOX - PO LOBBY", "note": "ON 12/24 AND 12/31, THIS BOX MAY BE COLLECTED AS EARLY AS 12 NOON.", "ref": "7970700012"}, "type": "Feature"}
{"geometry": {"coordinates": [-102.216840068, 31.934946241], "type": "Point"}, "id": "nkJwW1eatUfA6ReQwhJv0A9qZ54=", "properties": {"@spider": "usps_collection_boxes", "addr:city": "MIDLAND", "addr:country": "US", "addr:full": "10000 LOOP 40", "addr:postcode": "79711", "addr:state": "TX", "brand": "USPS", "collection_times": "Mo-Fr 17:00", "name": "USPS COLLECTION BOX - PO LOBBY", "note": "ON 12/24 AND 12/31, THIS BOX MAY BE COLLECTED AS EARLY AS 12 NOON.", "ref": "7971100001"}, "type": "Feature"}
{"geometry": {"coordinates": [-101.715938, 32.525212], "type": "Point"}, "id": "6KrRlqQnpum1Zy0W-JKfdqWVSw0=", "properties": {"@spider": "usps_collection_boxes", "addr:city": "ACKERLY", "addr:country": "US", "addr:full": "303 W 5TH ST", "addr:postcode": "79713", "addr:state": "TX", "brand": "USPS", "collection_times": "Mo-Sa 10:30", "name": "USPS COLLECTION BOX - PO LOBBY", "ref": "7971300000"}, "type": "Feature"}
{"geometry": {"coordinates": [-101.716259807, 32.5261968795], "type": "Point"}, "id": "lpLfyWQ6z7qUj0cmB7LNqWIwoI0=", "properties": {"@spider": "usps_collection_boxes", "addr:city": "ACKERLY", "addr:country": "US", "addr:full": "303 W 5TH ST", "addr:postcode": "79713", "addr:state": "TX", "brand": "USPS", "collection_times": "Mo-Fr 10:45; Sa 09:45", "name": "USPS COLLECTION BOX - BLUE BOX", "ref": "7971300002"}, "type": "Feature"}
{"geometry": {"coordinates": [-101.716210974, 32.526334214], "type": "Point"}, "id": "PDNK10D88c2AwihY7Xn2BVB8Leo=", "properties": {"@spider": "usps_collection_boxes", "addr:city": "ACKERLY", "addr:country": "US", "addr:full": "303 W 5TH ST", "addr:postcode": "79713", "addr:state": "TX", "brand": "USPS", "collection_times": "Mo-Fr 11:00; Sa 10:45", "name": "USPS COLLECTION BOX - PO LOBBY", "ref": "7971300004"}, "type": "Feature"}
{"geometry": {"coordinates": [-102.552253, 32.335773], "type": "Point"}, "id": "x3AMv7rVwAhfuZU7pvgcAzwK1eE=", "properties": {"@spider": "usps_collection_boxes", "addr:city": "ANDREWS", "addr:country": "US", "addr:full": "1501 N MAIN ST", "addr:postcode": "79714", "addr:state": "TX", "brand": "USPS", "collection_times": "Mo-Sa 15:00", "name": "USPS COLLECTION BOX - BLUE BOX", "note": "ON 12/24 AND 12/31, THIS BOX MAY BE COLLECTED AS EARLY AS 12 NOON.", "ref": "7971400002"}, "type": "Feature"}
{"geometry": {"coordinates": [-102.549144, 32.318502], "type": "Point"}, "id": "L-1t26ZTSSwng8K23ACfCnigal8=", "properties": {"@spider": "usps_collection_boxes", "addr:city": "ANDREWS", "addr:country": "US", "addr:full": "310 W BROADWAY ST", "addr:postcode": "79714", "addr:state": "TX", "brand": "USPS", "collection_times": "Mo-Sa 15:00", "name": "USPS COLLECTION BOX - BLUE BOX", "note": "ON 12/24 AND 12/31, THIS BOX MAY BE COLLECTED AS EARLY AS 12 NOON.", "ref": "7971400004"}, "type": "Feature"}
{"geometry": {"coordinates": [-102.5501933636, 32.3271592273], "type": "Point"}, "id": "xDpsLYPHjQuRcUxTuKwo3-Ykr7E=", "properties": {"@spider": "usps_collection_boxes", "addr:city": "ANDREWS", "addr:country": "US", "addr:full": "110 NW AVENUE H", "addr:postcode": "79714", "addr:state": "TX", "brand": "USPS", "collection_times": "Mo-Sa 16:30", "name": "USPS COLLECTION BOX - BLUE BOX", "note": "ON 12/24 AND 12/31, THIS BOX MAY BE COLLECTED AS EARLY AS 12 NOON.", "ref": "7971400007"}, "type": "Feature"}
{"geometry": {"coordinates": [-102.5501933636, 32.3271592273], "type": "Point"}, "id": "IguL9WHGNpsd6XYXZN3IPOtKTpU=", "properties": {"@spider": "usps_collection_boxes", "addr:city": "ANDREWS", "addr:country": "US", "addr:full": "110 NW AVENUE H", "addr:postcode": "79714", "addr:state": "TX", "brand": "USPS", "collection_times": "Mo-Sa 16:30", "name": "USPS COLLECTION BOX - BLUE BOX", "note": "ON 12/24 AND 12/31, THIS BOX MAY BE COLLECTED AS EARLY AS 12 NOON.", "ref": "7971400008"}, "type": "Feature"}
{"geometry": {"coordinates": [-102.5501933636, 32.3271592273], "type": "Point"}, "id": "l8af2AoGMV74ySYaq3-6HnvaGIM=", "properties": {"@spider": "usps_collection_boxes", "addr:city": "ANDREWS", "addr:country": "US", "addr:full": "110 NW AVENUE H", "addr:postcode": "79714", "addr:state": "TX", "brand": "USPS", "collection_times": "Mo-Sa 16:45", "name": "USPS COLLECTION BOX - PO LOBBY", "note": "ON 12/24 AND 12/31, THIS BOX MAY BE COLLECTED AS EARLY AS 12 NOON.", "ref": "7971400009"}, "type": "Feature"}
{"geometry": {"coordinates": [-102.5501933636, 32.3271592273], "type": "Point"}, "id": "GuTJlEcfPZgU82Ecbmqk6z0wSsk=", "properties": {"@spider": "usps_collection_boxes", "addr:city": "ANDREWS", "addr:country": "US", "addr:full": "110 NW AVENUE H", "addr:postcode": "79714", "addr:state": "TX", "brand": "USPS", "collection_times": "Mo-Sa 16:45", "name": "USPS COLLECTION BOX - PO LOBBY", "note": "ON 12/24 AND 12/31, THIS BOX MAY BE COLLECTED AS EARLY AS 12 NOON.", "ref": "7971400012"}, "type": "Feature"}
{"geometry": {"coordinates": [-102.546212, 32.316386], "type": "Point"}, "id": "9G2PoO3o8NuqHWC1FU5dlxVqg6Q=", "properties": {"@spider": "usps_collection_boxes", "addr:city": "ANDREWS", "addr:country": "US", "addr:full": "200 S MAIN ST", "addr:postcode": "79714", "addr:state": "TX", "brand": "USPS", "collection_times": "Mo-Sa 15:00", "name": "USPS COLLECTION BOX - BLUE BOX", "note": "ON 12/24 AND 12/31, THIS BOX MAY BE COLLECTED AS EARLY AS 12 NOON.", "ref": "7971400013"}, "type": "Feature"}
{"geometry": {"coordinates": [-102.5501933636, 32.3271592273], "type": "Point"}, "id": "nnYeb6bBaNKICVFwHOD-b0efHag=", "properties": {"@spider": "usps_collection_boxes", "addr:city": "ANDREWS", "addr:country": "US", "addr:full": "110 NW AVENUE H", "addr:postcode": "79714", "addr:state": "TX", "brand": "USPS", "collection_times": "Mo-Fr 16:30; Sa 12:00", "name": "USPS COLLECTION BOX - PO LOBBY", "note": "ON 12/24 AND 12/31, THIS BOX MAY BE COLLECTED AS EARLY AS 12 NOON.", "ref": "7971400014"}, "type": "Feature"}
{"geometry": {"coordinates": [-103.743976, 30.987051], "type": "Point"}, "id": "FQR1AgyIim_jJkoCZJV5R7YIlMs=", "properties": {"@spider": "usps_collection_boxes", "addr:city": "BALMORHEA", "addr:country": "US", "addr:full": "115 N FORT WORTH ST", "addr:postcode": "79718", "addr:state": "TX", "brand": "USPS", "collection_times": "Mo-Fr 14:45; Sa 11:15", "name": "USPS COLLECTION BOX - BLUE BOX", "note": "ON 12/24 AND 12/31, THIS BOX MAY BE COLLECTED AS EARLY AS 12 NOON.", "ref": "7971800000"}, "type": "Feature"}
{"geometry": {"coordinates": [-103.743976, 30.987051], "type": "Point"}, "id": "YntLA-lujjmIgd3ABc8yQCtFNZ0=", "properties": {"@spider": "usps_collection_boxes", "addr:city": "BALMORHEA", "addr:country": "US", "addr:full": "115 N FORT WORTH ST", "addr:postcode": "79718", "addr:state": "TX", "brand": "USPS", "collection_times": "Mo-Fr 14:45; Sa 11:15", "name": "USPS COLLECTION BOX - PO LOBBY", "note": "ON 12/24 AND 12/31, THIS BOX MAY BE COLLECTED AS EARLY AS 12 NOON.", "ref": "7971800002"}, "type": "Feature"}
{"geometry": {"coordinates": [-103.743976, 30.987051], "type": "Point"}, "id": "8r_c8qW5Sty7mg53Qp7dbDxBiBk=", "properties": {"@spider": "usps_collection_boxes", "addr:city": "BALMORHEA", "addr:country": "US", "addr:full": "115 N FORT WORTH ST", "addr:postcode": "79718", "addr:state": "TX", "brand": "USPS", "collection_times": "Mo-Fr 14:45; Sa 11:15", "name": "USPS COLLECTION BOX - PO LOBBY", "note": "ON 12/24 AND 12/31, THIS BOX MAY BE COLLECTED AS EARLY AS 12 NOON.", "ref": "7971800003"}, "type": "Feature"}
{"geometry": {"coordinates": [-103.7436025583, 30.9864388244], "type": "Point"}, "id": "3IInQ2gTLQTO501pF3f8hS2JpHk=", "properties": {"@spider": "usps_collection_boxes", "addr:city": "BALMORHEA", "addr:country": "US", "addr:full": "115 N FORT WORTH ST", "addr:postcode": "79718", "addr:state": "TX", "brand": "USPS", "collection_times": "Mo-Fr 15:00; Sa 11:00", "name": "USPS COLLECTION BOX - PO LOBBY", "note": "ON 12/24 AND 12/31, THIS BOX MAY BE COLLECTED AS EARLY AS 12 NOON.", "ref": "7971800004"}, "type": "Feature"}
{"geometry": {"coordinates": [-103.393413, 31.459906], "type": "Point"}, "id": "6C9lQq5IxYIPPc9yDhlvxYQaX-Y=", "properties": {"@spider": "usps_collection_boxes", "addr:city": "BARSTOW", "addr:country": "US", "addr:full": "211 MACKEY AVE", "addr:postcode": "79719", "addr:state": "TX", "brand": "USPS", "collection_times": "Mo-Sa 17:00", "name": "USPS COLLECTION BOX - BLUE BOX", "note": "ON 12/24 AND 12/31, THIS BOX MAY BE COLLECTED AS EARLY AS 12 NOON.", "ref": "7971900000"}, "type": "Feature"}
{"geometry": {"coordinates": [-103.393338, 31.459235], "type": "Point"}, "id": "RGpp4--aHUdVdKUQ58iry1Wt85o=", "properties": {"@spider": "usps_collection_boxes", "addr:city": "BARSTOW", "addr:country": "US", "addr:full": "211 MACKEY AVE", "addr:postcode": "79719", "addr:state": "TX", "brand": "USPS", "collection_times": "Mo-Fr 11:30; Sa 09:15", "name": "USPS COLLECTION BOX - PO LOBBY", "ref": "7971900001"}, "type": "Feature"}
{"geometry": {"coordinates": [-103.39329582, 31.4592876722], "type": "Point"}, "id": "TuMf6KDy1XDSdQ8Vj7VCCfHteiM=", "properties": {"@spider": "usps_collection_boxes", "addr:city": "BARSTOW", "addr:country": "US", "addr:full": "211 MACKEY AVE", "addr:postcode": "79719", "addr:state": "TX", "brand": "USPS", "collection_times": "Mo-Fr 12:00; Sa 09:30", "name": "USPS COLLECTION BOX - PO LOBBY", "ref": "7971900004"}, "type": "Feature"}
{"geometry": {"coordinates": [-101.474352, 32.250415], "type": "Point"}, "id": "JuineB-t9-rfzDeCmEn8xJiKHFY=", "properties": {"@spider": "usps_collection_boxes", "addr:city": "BIG SPRING", "addr:country": "US", "addr:full": "506 S RUNNELS ST", "addr:postcode": "79720", "addr:state": "TX", "brand": "USPS", "collection_times": "Mo-Sa 17:30", "name": "USPS COLLECTION BOX - BLUE BOX", "note": "ON 12/24 AND 12/31, THIS BOX MAY BE COLLECTED AS EARLY AS 12 NOON.", "ref": "7972000000"}, "type": "Feature"}
{"geometry": {"coordinates": [-101.475485, 32.250065], "type": "Point"}, "id": "MmP8PnagmrznarTK2Bm5KxdiT5Q=", "properties": {"@spider": "usps_collection_boxes", "addr:city": "BIG SPRING", "addr:country": "US", "addr:full": "501 S MAIN ST", "addr:postcode": "79720", "addr:state": "TX", "brand": "USPS", "collection_times": "Mo-Sa 17:30", "name": "USPS COLLECTION BOX - PO LOBBY", "note": "ON 12/24 AND 12/31, THIS BOX MAY BE COLLECTED AS EARLY AS 12 NOON.", "ref": "7972000005"}, "type": "Feature"}
{"geometry": {"coordinates": [-101.467722, 32.229695], "type": "Point"}, "id": "B1xEhh39wolkZu_429o5QlVYr-M=", "properties": {"@spider": "usps_collection_boxes", "addr:city": "BIG SPRING", "addr:country": "US", "addr:full": "201 W MARCY DR", "addr:postcode": "79720", "addr:state": "TX", "brand": "USPS", "collection_times": "Mo-Sa 14:10", "name": "USPS COLLECTION BOX - BLUE BOX", "note": "ON 12/24 AND 12/31, THIS BOX MAY BE COLLECTED AS EARLY AS 12 NOON.", "ref": "7972000015"}, "type": "Feature"}
{"geometry": {"coordinates": [-101.449441, 32.252105], "type": "Point"}, "id": "31FtLJJbnl-fQ_sFjoyvByBesXk=", "properties": {"@spider": "usps_collection_boxes", "addr:city": "BIG SPRING", "addr:country": "US", "addr:full": "1001 BIRDWELL LN", "addr:postcode": "79720", "addr:state": "TX", "brand": "USPS", "collection_times": "Mo-Sa 14:15", "name": "USPS COLLECTION BOX - BLUE BOX", "note": "ON 12/24 AND 12/31, THIS BOX MAY BE COLLECTED AS EARLY AS 12 NOON.", "ref": "7972000019"}, "type": "Feature"}
{"geometry": {"coordinates": [-101.449444, 32.252092], "type": "Point"}, "id": "ke7IpfyPMFDagheSjSrmmfokOjk=", "properties": {"@spider": "usps_collection_boxes", "addr:city": "BIG SPRING", "addr:country": "US", "addr:full": "1001 BIRDWELL LN", "addr:postcode": "79720", "addr:state": "TX", "brand": "USPS", "collection_times": "Mo-Sa 14:15", "name": "USPS COLLECTION BOX - BLUE BOX", "note": "ON 12/24 AND 12/31, THIS BOX MAY BE COLLECTED AS EARLY AS 12 NOON.", "ref": "7972000020"}, "type": "Feature"}
{"geometry": {"coordinates": [-101.472344, 32.235524], "type": "Point"}, "id": "Mb8jcE4eiC4XBVn-TtLQhtMkMFw=", "properties": {"@spider": "usps_collection_boxes", "addr:city": "BIG SPRING", "addr:country": "US", "addr:full": "2000 S GREGG ST", "addr:postcode": "79720", "addr:state": "TX", "brand": "USPS", "collection_times": "Mo-Sa 14:00", "name": "USPS COLLECTION BOX - BLUE BOX", "note": "ON 12/24 AND 12/31, THIS BOX MAY BE COLLECTED AS EARLY AS 12 NOON.", "ref": "7972000022"}, "type": "Feature"}
{"geometry": {"coordinates": [-101.489773153, 32.264291371], "type": "Point"}, "id": "L5CeCYoIXsczXEVG3QjrJaNOjyo=", "properties": {"@spider": "usps_collection_boxes", "addr:city": "BIG SPRING", "addr:country": "US", "addr:full": "704 W INTERSTATE 20", "addr:postcode": "79720", "addr:state": "TX", "brand": "USPS", "collection_times": "Mo-Sa 14:20", "name": "USPS COLLECTION BOX - BLUE BOX", "note": "ON 12/24 AND 12/31, THIS BOX MAY BE COLLECTED AS EARLY AS 12 NOON.", "ref": "7972000026"}, "type": "Feature"}
{"geometry": {"coordinates": [-101.474630276, 32.250863165], "type": "Point"}, "id": "hhpMz1v02t-TxZjHRR7fteTx3Z8=", "properties": {"@spider": "usps_collection_boxes", "addr:city": "BIG SPRING", "addr:country": "US", "addr:full": "501 S MAIN ST", "addr:postcode": "79720", "addr:state": "TX", "brand": "USPS", "collection_times": "Mo-Fr 17:00; Sa 12:00", "name": "USPS COLLECTION BOX - PO LOBBY", "note": "ON 12/24 AND 12/31, THIS BOX MAY BE COLLECTED AS EARLY AS 12 NOON.", "ref": "7972000027"}, "type": "Feature"}
{"geometry": {"coordinates": [-103.066557, 30.998953], "type": "Point"}, "id": "2XC4jeQ9Jjj4Pt_276dXwjwPQcw=", "properties": {"@spider": "usps_collection_boxes", "addr:city": "COYANOSA", "addr:country": "US", "addr:full": "2550 N HIGHWAY 1776", "addr:postcode": "79730", "addr:state": "TX", "brand": "USPS", "collection_times": "Mo-Fr 14:30; Sa 10:30", "name": "USPS COLLECTION BOX - BLUE BOX", "note": "ON 12/24 AND 12/31, THIS BOX MAY BE COLLECTED AS EARLY AS 12 NOON.", "ref": "7973000000"}, "type": "Feature"}
{"geometry": {"coordinates": [-103.066557, 30.998953], "type": "Point"}, "id": "ssk5fk4WyL1xjISn6ubNHPsQsFQ=", "properties": {"@spider": "usps_collection_boxes", "addr:city": "COYANOSA", "addr:country": "US", "addr:full": "2550 N HIGHWAY 1776", "addr:postcode": "79730", "addr:state": "TX", "brand": "USPS", "collection_times": "Mo-Fr 14:30; Sa 10:30", "name": "USPS COLLECTION BOX - PO LOBBY", "note": "ON 12/24 AND 12/31, THIS BOX MAY BE COLLECTED AS EARLY AS 12 NOON.", "ref": "7973000002"}, "type": "Feature"}
{"geometry": {"coordinates": [-103.0674909761, 31.2418544075], "type": "Point"}, "id": "VTuOJ1nI5fAoxgfor8_HI3WWpF4=", "properties": {"@spider": "usps_collection_boxes", "addr:city": "COYANOSA", "addr:country": "US", "addr:full": "2550 N HIGHWAY 1776", "addr:postcode": "79730", "addr:state": "TX", "brand": "USPS", "collection_times": "Mo-Fr 14:30; Sa 10:30", "name": "USPS COLLECTION BOX - PO LOBBY", "note": "ON 12/24 AND 12/31, THIS BOX MAY BE COLLECTED AS EARLY AS 12 NOON.", "ref": "7973000004"}, "type": "Feature"}
{"geometry": {"coordinates": [-102.351699, 31.397977], "type": "Point"}, "id": "onH_RcKnP_ICCD8sIrAs9HBdgs8=", "properties": {"@spider": "usps_collection_boxes", "addr:city": "CRANE", "addr:country": "US", "addr:full": "509 S ALFORD ST", "addr:postcode": "79731", "addr:state": "TX", "brand": "USPS", "collection_times": "Mo-Fr 16:15; Sa 12:00", "name": "USPS COLLECTION BOX - BLUE BOX", "note": "ON 12/24 AND 12/31, THIS BOX MAY BE COLLECTED AS EARLY AS 12 NOON.", "ref": "7973100000"}, "type": "Feature"}
{"geometry": {"coordinates": [-102.351699, 31.397977], "type": "Point"}, "id": "iQuwutBQxpfsOF0Rrf0WYy3wEl0=", "properties": {"@spider": "usps_collection_boxes", "addr:city": "CRANE", "addr:country": "US", "addr:full": "509 S ALFORD ST", "addr:postcode": "79731", "addr:state": "TX", "brand": "USPS", "collection_times": "Mo-Fr 16:15; Sa 12:00", "name": "USPS COLLECTION BOX - PO LOBBY", "note": "ON 12/24 AND 12/31, THIS BOX MAY BE COLLECTED AS EARLY AS 12 NOON.", "ref": "7973100003"}, "type": "Feature"}
{"geometry": {"coordinates": [-102.351699, 31.397977], "type": "Point"}, "id": "I2No03KoFtlFeCos4nZbcLFiC2Y=", "properties": {"@spider": "usps_collection_boxes", "addr:city": "CRANE", "addr:country": "US", "addr:full": "509 S ALFORD ST", "addr:postcode": "79731", "addr:state": "TX", "brand": "USPS", "collection_times": "Mo-Fr 16:15; Sa 12:00", "name": "USPS COLLECTION BOX - PO LOBBY", "note": "ON 12/24 AND 12/31, THIS BOX MAY BE COLLECTED AS EARLY AS 12 NOON.", "ref": "7973100004"}, "type": "Feature"}
{"geometry": {"coordinates": [-102.351753897, 31.398033619], "type": "Point"}, "id": "pD2hsRURnxg8Mczhp5PuKc2XHlU=", "properties": {"@spider": "usps_collection_boxes", "addr:city": "CRANE", "addr:country": "US", "addr:full": "509 S ALFORD ST", "addr:postcode": "79731", "addr:state": "TX", "brand": "USPS", "collection_times": "Mo-Fr 16:00; Sa 10:00", "name": "USPS COLLECTION BOX - PO LOBBY", "note": "ON 12/24 AND 12/31, THIS BOX MAY BE COLLECTED AS EARLY AS 12 NOON.", "ref": "7973100005"}, "type": "Feature"}
{"geometry": {"coordinates": [-101.367079805, 32.109098503], "type": "Point"}, "id": "_-MW-7cNXt1tRu7QDjSxb1xEdak=", "properties": {"@spider": "usps_collection_boxes", "addr:city": "FORSAN", "addr:country": "US", "addr:full": "109 W 4TH", "addr:postcode": "79733", "addr:state": "TX", "brand": "USPS", "collection_times": "Mo-Fr 13:30; Sa 11:30", "name": "USPS COLLECTION BOX - BLUE BOX", "note": "ON 12/24 AND 12/31, THIS BOX MAY BE COLLECTED AS EARLY AS 12 NOON.", "ref": "7973300000"}, "type": "Feature"}
{"geometry": {"coordinates": [-101.367079805, 32.109098503], "type": "Point"}, "id": "M6Nu28gHMpjX_yLAkR0EqSwurS4=", "properties": {"@spider": "usps_collection_boxes", "addr:city": "FORSAN", "addr:country": "US", "addr:full": "109 W 4TH", "addr:postcode": "79733", "addr:state": "TX", "brand": "USPS", "collection_times": "Mo-Fr 13:30; Sa 11:30", "name": "USPS COLLECTION BOX - PO LOBBY", "note": "ON 12/24 AND 12/31, THIS BOX MAY BE COLLECTED AS EARLY AS 12 NOON.", "ref": "7973300001"}, "type": "Feature"}
{"geometry": {"coordinates": [-101.367079805, 32.109098503], "type": "Point"}, "id": "_0jMmFvGlhdsPs8Mx2wzjma8GDw=", "properties": {"@spider": "usps_collection_boxes", "addr:city": "FORSAN", "addr:country": "US", "addr:full": "109 W 4TH", "addr:postcode": "79733", "addr:state": "TX", "brand": "USPS", "collection_times": "Mo-Fr 14:00; Sa 11:30", "name": "USPS COLLECTION BOX - PO LOBBY", "note": "ON 12/24 AND 12/31, THIS BOX MAY BE COLLECTED AS EARLY AS 12 NOON.", "ref": "7973300003"}, "type": "Feature"}
{"geometry": {"coordinates": [-103.887615, 30.586677], "type": "Point"}, "id": "7nzwz3KPktOiPXP-Y1y6l67RB3E=", "properties": {"@spider": "usps_collection_boxes", "addr:city": "FORT DAVIS", "addr:country": "US", "addr:full": "500 SGT GONZALES", "addr:postcode": "79734", "addr:state": "TX", "brand": "USPS", "collection_times": "Mo-Sa 13:45", "name": "USPS COLLECTION BOX - BLUE BOX", "note": "ON 12/24 AND 12/31, THIS BOX MAY BE COLLECTED AS EARLY AS 12 NOON.", "ref": "7973400000"}, "type": "Feature"}
{"geometry": {"coordinates": [-104.093178913, 30.622676591], "type": "Point"}, "id": "JjP43ePNORjfwZsVS5x0MmNNXyc=", "properties": {"@spider": "usps_collection_boxes", "addr:city": "FORT DAVIS", "addr:country": "US", "addr:full": "502 TOMAHAWK TRL", "addr:postcode": "79734", "addr:state": "TX", "brand": "USPS", "collection_times": "Mo-Sa 12:15", "name": "USPS COLLECTION BOX - BLUE BOX", "note": "ON 12/24 AND 12/31, THIS BOX MAY BE COLLECTED AS EARLY AS 12 NOON.", "ref": "7973400001"}, "type": "Feature"}
{"geometry": {"coordinates": [-103.972528937, 30.606254762], "type": "Point"}, "id": "3XxArZnnne1gXIYkRa8IIz2uFOY=", "properties": {"@spider": "usps_collection_boxes", "addr:city": "FORT DAVIS", "addr:country": "US", "addr:full": "42755 STATE HIGHWAY 118", "addr:postcode": "79734", "addr:state": "TX", "brand": "USPS", "collection_times": "Mo-Sa 12:30", "name": "USPS COLLECTION BOX - BLUE BOX", "note": "ON 12/24 AND 12/31, THIS BOX MAY BE COLLECTED AS EARLY AS 12 NOON.", "ref": "7973400002"}, "type": "Feature"}
{"geometry": {"coordinates": [-103.887615, 30.586677], "type": "Point"}, "id": "fg-X0B8pLG9EmNsBDf9nOM_93T4=", "properties": {"@spider": "usps_collection_boxes", "addr:city": "FORT DAVIS", "addr:country": "US", "addr:full": "500 SGT GONZALES", "addr:postcode": "79734", "addr:state": "TX", "brand": "USPS", "collection_times": "Mo-Sa 14:00", "name": "USPS COLLECTION BOX - PO LOBBY", "note": "ON 12/24 AND 12/31, THIS BOX MAY BE COLLECTED AS EARLY AS 12 NOON.", "ref": "7973400003"}, "type": "Feature"}
{"geometry": {"coordinates": [-103.887615, 30.586677], "type": "Point"}, "id": "nyMzRHVqb3wGTPWvKQ5uq6roiTw=", "properties": {"@spider": "usps_collection_boxes", "addr:city": "FORT DAVIS", "addr:country": "US", "addr:full": "500 SGT GONZALES", "addr:postcode": "79734", "addr:state": "TX", "brand": "USPS", "collection_times": "Mo-Sa 14:00", "name": "USPS COLLECTION BOX - PO LOBBY", "note": "ON 12/24 AND 12/31, THIS BOX MAY BE COLLECTED AS EARLY AS 12 NOON.", "ref": "7973400004"}, "type": "Feature"}
{"geometry": {"coordinates": [-103.8873877, 30.589534789], "type": "Point"}, "id": "CAwb0j6QrLcJWbJJL38y7WE0PIA=", "properties": {"@spider": "usps_collection_boxes", "addr:city": "FORT DAVIS", "addr:country": "US", "addr:full": "500 SGT GONZALES", "addr:postcode": "79734", "addr:state": "TX", "brand": "USPS", "collection_times": "Mo-Fr 14:00", "name": "USPS COLLECTION BOX - PO LOBBY", "note": "ON 12/24 AND 12/31, THIS BOX MAY BE COLLECTED AS EARLY AS 12 NOON.", "ref": "7973400005"}, "type": "Feature"}
{"geometry": {"coordinates": [-102.867821, 30.879342], "type": "Point"}, "id": "cU2MXCCziuyOzNOqx16AXa7aJfY=", "properties": {"@spider": "usps_collection_boxes", "addr:city": "FORT STOCKTON", "addr:country": "US", "addr:full": "735 S US HIGHWAY 285", "addr:postcode": "79735", "addr:state": "TX", "brand": "USPS", "collection_times": "Mo-Sa 10:30", "name": "USPS COLLECTION BOX - BLUE BOX", "ref": "7973500000"}, "type": "Feature"}
{"geometry": {"coordinates": [-102.882547, 30.901792], "type": "Point"}, "id": "uuiOKtie3hmG6NROc8wH8pZVL9Y=", "properties": {"@spider": "usps_collection_boxes", "addr:city": "FORT STOCKTON", "addr:country": "US", "addr:full": "401 W 18TH ST", "addr:postcode": "79735", "addr:state": "TX", "brand": "USPS", "collection_times": "Mo-Sa 10:30", "name": "USPS COLLECTION BOX - BLUE BOX", "ref": "7973500001"}, "type": "Feature"}
{"geometry": {"coordinates": [-102.880699, 30.905557], "type": "Point"}, "id": "gxGyHk_gp8xOUMP_dHS1V7_mDz4=", "properties": {"@spider": "usps_collection_boxes", "addr:city": "FORT STOCKTON", "addr:country": "US", "addr:full": "387 W IH 10", "addr:postcode": "79735", "addr:state": "TX", "brand": "USPS", "collection_times": "Mo-Sa 10:00", "name": "USPS COLLECTION BOX - BLUE BOX", "ref": "7973500002"}, "type": "Feature"}
{"geometry": {"coordinates": [-102.884287, 30.905683], "type": "Point"}, "id": "wJAe7hsINhW0lO_YPgWtBfL6l9g=", "properties": {"@spider": "usps_collection_boxes", "addr:city": "FORT STOCKTON", "addr:country": "US", "addr:full": "2571 N FRONT ST", "addr:postcode": "79735", "addr:state": "TX", "brand": "USPS", "collection_times": "Mo-Sa 11:45", "name": "USPS COLLECTION BOX - BLUE BOX", "ref": "7973500003"}, "type": "Feature"}
{"geometry": {"coordinates": [-102.878977, 30.89427], "type": "Point"}, "id": "GDRk6wgMG3p6BdCIXD5bT9QsUkM=", "properties": {"@spider": "usps_collection_boxes", "addr:city": "FORT STOCKTON", "addr:country": "US", "addr:full": "1000 E RAILROAD AVE", "addr:postcode": "79735", "addr:state": "TX", "brand": "USPS", "collection_times": "Mo-Sa 15:30", "name": "USPS COLLECTION BOX - BLUE BOX", "note": "ON 12/24 AND 12/31, THIS BOX MAY BE COLLECTED AS EARLY AS 12 NOON.", "ref": "7973500004"}, "type": "Feature"}
{"geometry": {"coordinates": [-102.892347, 30.894203], "type": "Point"}, "id": "MJnz-nQHrEcg3c7t3LO4KPKfcnY=", "properties": {"@spider": "usps_collection_boxes", "addr:city": "FORT STOCKTON", "addr:country": "US", "addr:full": "1300 W DICKINSON BLVD", "addr:postcode": "79735", "addr:state": "TX", "brand": "USPS", "collection_times": "Mo-Sa 15:30", "name": "USPS COLLECTION BOX - BLUE BOX", "note": "ON 12/24 AND 12/31, THIS BOX MAY BE COLLECTED AS EARLY AS 12 NOON.", "ref": "7973500005"}, "type": "Feature"}
{"geometry": {"coordinates": [-102.90715, 30.896056], "type": "Point"}, "id": "STO5ez6T5mv3vTguro4y-pmz1XQ=", "properties": {"@spider": "usps_collection_boxes", "addr:city": "FORT STOCKTON", "addr:country": "US", "addr:full": "2610 W DICKINSON BLVD", "addr:postcode": "79735", "addr:state": "TX", "brand": "USPS", "collection_times": "Mo-Sa 15:35", "name": "USPS COLLECTION BOX - BLUE BOX", "note": "ON 12/24 AND 12/31, THIS BOX MAY BE COLLECTED AS EARLY AS 12 NOON.", "ref": "7973500006"}, "type": "Feature"}
{"geometry": {"coordinates": [-102.912544, 30.901924], "type": "Point"}, "id": "E9fiHMgdTNZCBjpzvRY2hLyrZ2Y=", "properties": {"@spider": "usps_collection_boxes", "addr:city": "FORT STOCKTON", "addr:country": "US", "addr:full": "1723 N US HIGHWAY 285", "addr:postcode": "79735", "addr:state": "TX", "brand": "USPS", "collection_times": "Mo-Sa 15:35", "name": "USPS COLLECTION BOX - BLUE BOX", "note": "ON 12/24 AND 12/31, THIS BOX MAY BE COLLECTED AS EARLY AS 12 NOON.", "ref": "7973500007"}, "type": "Feature"}
{"geometry": {"coordinates": [-102.890883, 30.88111], "type": "Point"}, "id": "WwQuHpn4PU5M1AUFZGHFBgdlSVE=", "properties": {"@spider": "usps_collection_boxes", "addr:city": "FORT STOCKTON", "addr:country": "US", "addr:full": "603 S MISSOURI ST", "addr:postcode": "79735", "addr:state": "TX", "brand": "USPS", "collection_times": "Mo-Sa 15:50", "name": "USPS COLLECTION BOX - BLUE BOX", "note": "ON 12/24 AND 12/31, THIS BOX MAY BE COLLECTED AS EARLY AS 12 NOON.", "ref": "7973500008"}, "type": "Feature"}
{"geometry": {"coordinates": [-102.879269, 30.884344], "type": "Point"}, "id": "42bpBz49aREje8Fi88KzICGRBYk=", "properties": {"@spider": "usps_collection_boxes", "addr:city": "FORT STOCKTON", "addr:country": "US", "addr:full": "101 W DIVISION ST", "addr:postcode": "79735", "addr:state": "TX", "brand": "USPS", "collection_times": "Mo-Sa 15:50", "name": "USPS COLLECTION BOX - BLUE BOX", "note": "ON 12/24 AND 12/31, THIS BOX MAY BE COLLECTED AS EARLY AS 12 NOON.", "ref": "7973500009"}, "type": "Feature"}
{"geometry": {"coordinates": [-102.878998, 30.888145], "type": "Point"}, "id": "hsUR5XsCc0M17vGrXsd9Drsy-Vo=", "properties": {"@spider": "usps_collection_boxes", "addr:city": "FORT STOCKTON", "addr:country": "US", "addr:full": "106 E 4TH ST", "addr:postcode": "79735", "addr:state": "TX", "brand": "USPS", "collection_times": "Mo-Sa 16:15", "name": "USPS COLLECTION BOX - BLUE BOX", "note": "ON 12/24 AND 12/31, THIS BOX MAY BE COLLECTED AS EARLY AS 12 NOON.", "ref": "7973500010"}, "type": "Feature"}
{"geometry": {"coordinates": [-102.878998, 30.888145], "type": "Point"}, "id": "j7OYSQdUDBUAUs0LPEsVbVA6yH4=", "properties": {"@spider": "usps_collection_boxes", "addr:city": "FORT STOCKTON", "addr:country": "US", "addr:full": "106 E 4TH ST", "addr:postcode": "79735", "addr:state": "TX", "brand": "USPS", "collection_times": "Mo-Sa 16:15", "name": "USPS COLLECTION BOX - BLUE BOX", "note": "ON 12/24 AND 12/31, THIS BOX MAY BE COLLECTED AS EARLY AS 12 NOON.", "ref": "7973500011"}, "type": "Feature"}
{"geometry": {"coordinates": [-102.878998, 30.888145], "type": "Point"}, "id": "8N3c3-siPvEdIrlPIhsPzyHF9sc=", "properties": {"@spider": "usps_collection_boxes", "addr:city": "FORT STOCKTON", "addr:country": "US", "addr:full": "106 E 4TH ST", "addr:postcode": "79735", "addr:state": "TX", "brand": "USPS", "collection_times": "Mo-Sa 16:15", "name": "USPS COLLECTION BOX - PO LOBBY", "note": "ON 12/24 AND 12/31, THIS BOX MAY BE COLLECTED AS EARLY AS 12 NOON.", "ref": "7973500012"}, "type": "Feature"}
{"geometry": {"coordinates": [-102.878998, 30.888145], "type": "Point"}, "id": "EuzhOwOkfF5GavnsIhYumGwedsM=", "properties": {"@spider": "usps_collection_boxes", "addr:city": "FORT STOCKTON", "addr:country": "US", "addr:full": "106 E 4TH ST", "addr:postcode": "79735", "addr:state": "TX", "brand": "USPS", "collection_times": "Mo-Sa 16:15", "name": "USPS COLLECTION BOX - PO LOBBY", "note": "ON 12/24 AND 12/31, THIS BOX MAY BE COLLECTED AS EARLY AS 12 NOON.", "ref": "7973500013"}, "type": "Feature"}
{"geometry": {"coordinates": [-102.878998, 30.888145], "type": "Point"}, "id": "ZMtLjC3H1zStEU3-cpnt6I3EIm8=", "properties": {"@spider": "usps_collection_boxes", "addr:city": "FORT STOCKTON", "addr:country": "US", "addr:full": "106 E 4TH ST", "addr:postcode": "79735", "addr:state": "TX", "brand": "USPS", "collection_times": "Mo-Sa 16:15", "name": "USPS COLLECTION BOX - PO LOBBY", "note": "ON 12/24 AND 12/31, THIS BOX MAY BE COLLECTED AS EARLY AS 12 NOON.", "ref": "7973500014"}, "type": "Feature"}
{"geometry": {"coordinates": [-102.879035201, 30.888122369], "type": "Point"}, "id": "y90Ya9_ue3_JNRYfosfURR9boJg=", "properties": {"@spider": "usps_collection_boxes", "addr:city": "FORT STOCKTON", "addr:country": "US", "addr:full": "106 E 4TH ST", "addr:postcode": "79735", "addr:state": "TX", "brand": "USPS", "collection_times": "Mo-Fr 16:30; Sa 13:00", "name": "USPS COLLECTION BOX - PO LOBBY", "note": "ON 12/24 AND 12/31, THIS BOX MAY BE COLLECTED AS EARLY AS 12 NOON.", "ref": "7973500016"}, "type": "Feature"}
{"geometry": {"coordinates": [-101.4457231261, 32.7701667051], "type": "Point"}, "id": "rboQ0tJxnPYWpumOlUQ3ZJ1qDMw=", "properties": {"@spider": "usps_collection_boxes", "addr:city": "GAIL", "addr:country": "US", "addr:full": "108 S OAK ST", "addr:postcode": "79738", "addr:state": "TX", "brand": "USPS", "collection_times": "Mo-Sa 12:15", "name": "USPS COLLECTION BOX - BLUE BOX", "note": "ON 12/24 AND 12/31, THIS BOX MAY BE COLLECTED AS EARLY AS 12 NOON.", "ref": "7973800000"}, "type": "Feature"}
{"geometry": {"coordinates": [-101.445688, 32.770158], "type": "Point"}, "id": "QRDOcLcp0f4O7PkMLSEfa951_7k=", "properties": {"@spider": "usps_collection_boxes", "addr:city": "GAIL", "addr:country": "US", "addr:full": "108 S OAK ST", "addr:postcode": "79738", "addr:state": "TX", "brand": "USPS", "collection_times": "Mo-Sa 12:15", "name": "USPS COLLECTION BOX - PO LOBBY", "note": "ON 12/24 AND 12/31, THIS BOX MAY BE COLLECTED AS EARLY AS 12 NOON.", "ref": "7973800001"}, "type": "Feature"}
{"geometry": {"coordinates": [-101.445723126, 32.770166705], "type": "Point"}, "id": "9nPjzMvmQMeaS1OkX-fXit302x4=", "properties": {"@spider": "usps_collection_boxes", "addr:city": "GAIL", "addr:country": "US", "addr:full": "108 S OAK ST", "addr:postcode": "79738", "addr:state": "TX", "brand": "USPS", "collection_times": "Mo-Fr 15:00; Sa 12:30", "name": "USPS COLLECTION BOX - PO LOBBY", "note": "ON 12/24 AND 12/31, THIS BOX MAY BE COLLECTED AS EARLY AS 12 NOON.", "ref": "7973800003"}, "type": "Feature"}
{"geometry": {"coordinates": [-101.478913, 31.86421], "type": "Point"}, "id": "dxyWW_LuTn8bjhaUrcWt-7xcUtQ=", "properties": {"@spider": "usps_collection_boxes", "addr:city": "GARDEN CITY", "addr:country": "US", "addr:full": "241 E CURRIE", "addr:postcode": "79739", "addr:state": "TX", "brand": "USPS", "collection_times": "Mo-Fr 16:15; Sa 10:15", "name": "USPS COLLECTION BOX - BLUE BOX", "note": "ON 12/24 AND 12/31, THIS BOX MAY BE COLLECTED AS EARLY AS 12 NOON.", "ref": "7973900000"}, "type": "Feature"}
{"geometry": {"coordinates": [-101.478987, 31.864152], "type": "Point"}, "id": "BBmmIyp1yi2wuFIyLHSfax4LXjs=", "properties": {"@spider": "usps_collection_boxes", "addr:city": "GARDEN CITY", "addr:country": "US", "addr:full": "241 E CURRIE", "addr:postcode": "79739", "addr:state": "TX", "brand": "USPS", "collection_times": "Mo-Fr 15:45; Sa 10:15", "name": "USPS COLLECTION BOX - PO LOBBY", "note": "ON 12/24 AND 12/31, THIS BOX MAY BE COLLECTED AS EARLY AS 12 NOON.", "ref": "7973900001"}, "type": "Feature"}
{"geometry": {"coordinates": [-101.479033553, 31.864363088], "type": "Point"}, "id": "R7WHda7fGch8PyfBYKzgyHbRl20=", "properties": {"@spider": "usps_collection_boxes", "addr:city": "GARDEN CITY", "addr:country": "US", "addr:full": "241 E CURRIE", "addr:postcode": "79739", "addr:state": "TX", "brand": "USPS", "collection_times": "Mo-Fr 16:00; Sa 10:30", "name": "USPS COLLECTION BOX - PO LOBBY", "note": "ON 12/24 AND 12/31, THIS BOX MAY BE COLLECTED AS EARLY AS 12 NOON.", "ref": "7973900004"}, "type": "Feature"}
{"geometry": {"coordinates": [-102.615555, 31.980737], "type": "Point"}, "id": "JMPktZC5Hkn2bxS2qMK4w393qQw=", "properties": {"@spider": "usps_collection_boxes", "addr:city": "GOLDSMITH", "addr:country": "US", "addr:full": "310 E GULF", "addr:postcode": "79741", "addr:state": "TX", "brand": "USPS", "collection_times": "Mo-Fr 14:45; Sa 08:45", "name": "USPS COLLECTION BOX - BLUE BOX", "note": "ON 12/24 AND 12/31, THIS BOX MAY BE COLLECTED AS EARLY AS 12 NOON.", "ref": "7974100000"}, "type": "Feature"}
{"geometry": {"coordinates": [-102.615555, 31.980737], "type": "Point"}, "id": "31ROCBUNa2BiAHS-8OHymXZvxdc=", "properties": {"@spider": "usps_collection_boxes", "addr:city": "GOLDSMITH", "addr:country": "US", "addr:full": "310 E GULF", "addr:postcode": "79741", "addr:state": "TX", "brand": "USPS", "collection_times": "Mo-Fr 14:45; Sa 08:45", "name": "USPS COLLECTION BOX - PO LOBBY", "note": "ON 12/24 AND 12/31, THIS BOX MAY BE COLLECTED AS EARLY AS 12 NOON.", "ref": "7974100001"}, "type": "Feature"}
{"geometry": {"coordinates": [-102.615555, 31.980737], "type": "Point"}, "id": "7JzI5BKA3kFMRLEsdgP0QR2ZIUQ=", "properties": {"@spider": "usps_collection_boxes", "addr:city": "GOLDSMITH", "addr:country": "US", "addr:full": "310 E GULF", "addr:postcode": "79741", "addr:state": "TX", "brand": "USPS", "collection_times": "Mo-Fr 14:45; Sa 08:45", "name": "USPS COLLECTION BOX - PO LOBBY", "note": "ON 12/24 AND 12/31, THIS BOX MAY BE COLLECTED AS EARLY AS 12 NOON.", "ref": "7974100002"}, "type": "Feature"}
{"geometry": {"coordinates": [-102.6130890745, 31.981313932], "type": "Point"}, "id": "aH85pE7_oTDP4DGC5HamI7TyW2Y=", "properties": {"@spider": "usps_collection_boxes", "addr:city": "GOLDSMITH", "addr:country": "US", "addr:full": "310 E GULF", "addr:postcode": "79741", "addr:state": "TX", "brand": "USPS", "collection_times": "Mo-Fr 15:00; Sa 09:00", "name": "USPS COLLECTION BOX - PO LOBBY", "note": "ON 12/24 AND 12/31, THIS BOX MAY BE COLLECTED AS EARLY AS 12 NOON.", "ref": "7974100005"}, "type": "Feature"}
{"geometry": {"coordinates": [-102.854191, 31.341135], "type": "Point"}, "id": "zCdNfp7Ns-08DnvhXPGrBL2y87Y=", "properties": {"@spider": "usps_collection_boxes", "addr:city": "GRANDFALLS", "addr:country": "US", "addr:full": "214 N AVENUE D", "addr:postcode": "79742", "addr:state": "TX", "brand": "USPS", "collection_times": "Mo-Fr 11:55; Sa 10:45", "name": "USPS COLLECTION BOX - BLUE BOX", "ref": "7974200000"}, "type": "Feature"}
{"geometry": {"coordinates": [-102.854191, 31.341135], "type": "Point"}, "id": "EWd0D0dQBdz7esiPbuwype3nKas=", "properties": {"@spider": "usps_collection_boxes", "addr:city": "GRANDFALLS", "addr:country": "US", "addr:full": "214 N AVENUE D", "addr:postcode": "79742", "addr:state": "TX", "brand": "USPS", "collection_times": "Mo-Fr 11:30; Sa 10:30", "name": "USPS COLLECTION BOX - PO LOBBY", "ref": "7974200001"}, "type": "Feature"}
{"geometry": {"coordinates": [-102.8542009386, 31.3410913708], "type": "Point"}, "id": "opQwcTPqsskt59W23p4ofoK3Vus=", "properties": {"@spider": "usps_collection_boxes", "addr:city": "GRANDFALLS", "addr:country": "US", "addr:full": "214 N AVENUE D", "addr:postcode": "79742", "addr:state": "TX", "brand": "USPS", "collection_times": "Mo-Fr 12:00; Sa 11:00", "name": "USPS COLLECTION BOX - PO LOBBY", "ref": "7974200004"}, "type": "Feature"}
{"geometry": {"coordinates": [-102.6906398964, 31.2715982483], "type": "Point"}, "id": "n770O4HN-HC9bPfdWEPR8hpf8So=", "properties": {"@spider": "usps_collection_boxes", "addr:city": "IMPERIAL", "addr:country": "US", "addr:full": "304 E FM ROAD 11", "addr:postcode": "79743", "addr:state": "TX", "brand": "USPS", "collection_times": "Mo-Fr 12:45; Sa 11:45", "name": "USPS COLLECTION BOX - BLUE BOX", "note": "ON 12/24 AND 12/31, THIS BOX MAY BE COLLECTED AS EARLY AS 12 NOON.", "ref": "7974300000"}, "type": "Feature"}
{"geometry": {"coordinates": [-102.690609, 31.271627], "type": "Point"}, "id": "H1R6BVp2to30YPPiU-CqQyeh5mk=", "properties": {"@spider": "usps_collection_boxes", "addr:city": "IMPERIAL", "addr:country": "US", "addr:full": "304 E FM ROAD 11", "addr:postcode": "79743", "addr:state": "TX", "brand": "USPS", "collection_times": "Mo-Fr 12:30; Sa 11:45", "name": "USPS COLLECTION BOX - PO LOBBY", "note": "ON 12/24 AND 12/31, THIS BOX MAY BE COLLECTED AS EARLY AS 12 NOON.", "ref": "7974300001"}, "type": "Feature"}
{"geometry": {"coordinates": [-102.690609, 31.271627], "type": "Point"}, "id": "-Gaci6xf9Guu7vrhRGCdSQXGN9E=", "properties": {"@spider": "usps_collection_boxes", "addr:city": "IMPERIAL", "addr:country": "US", "addr:full": "304 E FM ROAD 11", "addr:postcode": "79743", "addr:state": "TX", "brand": "USPS", "collection_times": "Mo-Fr 12:30; Sa 11:45", "name": "USPS COLLECTION BOX - PO LOBBY", "note": "ON 12/24 AND 12/31, THIS BOX MAY BE COLLECTED AS EARLY AS 12 NOON.", "ref": "7974300002"}, "type": "Feature"}
{"geometry": {"coordinates": [-102.690798516, 31.271707537], "type": "Point"}, "id": "TJgHZVoX32Hq8NrSrGZsp20_exI=", "properties": {"@spider": "usps_collection_boxes", "addr:city": "IMPERIAL", "addr:country": "US", "addr:full": "304 E STATE HIGHWAY 11", "addr:postcode": "79743", "addr:state": "TX", "brand": "USPS", "collection_times": "Mo-Fr 13:00; Sa 12:00", "name": "USPS COLLECTION BOX - PO LOBBY", "note": "ON 12/24 AND 12/31, THIS BOX MAY BE COLLECTED AS EARLY AS 12 NOON.", "ref": "7974300004"}, "type": "Feature"}
{"geometry": {"coordinates": [-101.898054, 30.9098], "type": "Point"}, "id": "cIxsr-EkNmVf50thtE3PN9Ueb_A=", "properties": {"@spider": "usps_collection_boxes", "addr:city": "IRAAN", "addr:country": "US", "addr:full": "204 S DRAKE", "addr:postcode": "79744", "addr:state": "TX", "brand": "USPS", "collection_times": "Mo-Fr 15:00", "name": "USPS COLLECTION BOX - PO LOBBY", "note": "ON 12/24 AND 12/31, THIS BOX MAY BE COLLECTED AS EARLY AS 12 NOON.", "ref": "7974400001"}, "type": "Feature"}
{"geometry": {"coordinates": [-101.898030927, 30.9098038923], "type": "Point"}, "id": "annlHYUlAuGHBVey9KJFUV2vv2M=", "properties": {"@spider": "usps_collection_boxes", "addr:city": "IRAAN", "addr:country": "US", "addr:full": "204 S DRAKE", "addr:postcode": "79744", "addr:state": "TX", "brand": "USPS", "collection_times": "Mo-Fr 15:00", "name": "USPS COLLECTION BOX - BLUE BOX", "note": "ON 12/24 AND 12/31, THIS BOX MAY BE COLLECTED AS EARLY AS 12 NOON.", "ref": "7974400005"}, "type": "Feature"}
{"geometry": {"coordinates": [-101.898028495, 30.9112015809], "type": "Point"}, "id": "gLH2bBxtkTIRuBbbQLeEqDvT31Q=", "properties": {"@spider": "usps_collection_boxes", "addr:city": "IRAAN", "addr:country": "US", "addr:full": "302 S DRAKE", "addr:postcode": "79744", "addr:state": "TX", "brand": "USPS", "collection_times": "Mo-Fr 15:00", "name": "USPS COLLECTION BOX - PO LOBBY", "note": "ON 12/24 AND 12/31, THIS BOX MAY BE COLLECTED AS EARLY AS 12 NOON.", "ref": "7974400006"}, "type": "Feature"}
{"geometry": {"coordinates": [-103.095222, 31.860022], "type": "Point"}, "id": "PLVmQ-aMAyLx-8HCAAYomgbwUL0=", "properties": {"@spider": "usps_collection_boxes", "addr:city": "KERMIT", "addr:country": "US", "addr:full": "309 N OAK ST", "addr:postcode": "79745", "addr:state": "TX", "brand": "USPS", "collection_times": "Mo-Sa 16:30", "name": "USPS COLLECTION BOX - PO LOBBY", "note": "ON 12/24 AND 12/31, THIS BOX MAY BE COLLECTED AS EARLY AS 12 NOON.", "ref": "7974500001"}, "type": "Feature"}
{"geometry": {"coordinates": [-103.093585, 31.856988], "type": "Point"}, "id": "qIbfs-QWQN3Rurn903Fcfb29onw=", "properties": {"@spider": "usps_collection_boxes", "addr:city": "KERMIT", "addr:country": "US", "addr:full": "101 E WINKLER ST", "addr:postcode": "79745", "addr:state": "TX", "brand": "USPS", "collection_times": "Mo-Sa 15:30", "name": "USPS COLLECTION BOX - BLUE BOX", "note": "ON 12/24 AND 12/31, THIS BOX MAY BE COLLECTED AS EARLY AS 12 NOON.", "ref": "7974500004"}, "type": "Feature"}
{"geometry": {"coordinates": [-103.088627, 31.841546], "type": "Point"}, "id": "DuOXnNtvQImUHENp9gZLnkHnmZw=", "properties": {"@spider": "usps_collection_boxes", "addr:city": "KERMIT", "addr:country": "US", "addr:full": "1300 BELLAIRE ST", "addr:postcode": "79745", "addr:state": "TX", "brand": "USPS", "collection_times": "Mo-Sa 15:15", "name": "USPS COLLECTION BOX - BLUE BOX", "note": "ON 12/24 AND 12/31, THIS BOX MAY BE COLLECTED AS EARLY AS 12 NOON.", "ref": "7974500007"}, "type": "Feature"}
{"geometry": {"coordinates": [-103.093341, 31.85821], "type": "Point"}, "id": "RfCSQ5aCuHZ9Obo-QCl1_C7yhSA=", "properties": {"@spider": "usps_collection_boxes", "addr:city": "KERMIT", "addr:country": "US", "addr:full": "100 N POPLAR ST", "addr:postcode": "79745", "addr:state": "TX", "brand": "USPS", "collection_times": "Mo-Sa 15:30", "name": "USPS COLLECTION BOX - BLUE BOX", "note": "ON 12/24 AND 12/31, THIS BOX MAY BE COLLECTED AS EARLY AS 12 NOON.", "ref": "7974500012"}, "type": "Feature"}
{"geometry": {"coordinates": [-103.09451961, 31.857461863], "type": "Point"}, "id": "t0zrdSn4x2Hd1o_8XoN6JSqtf3c=", "properties": {"@spider": "usps_collection_boxes", "addr:city": "KERMIT", "addr:country": "US", "addr:full": "100 W AUSTIN ST", "addr:postcode": "79745", "addr:state": "TX", "brand": "USPS", "collection_times": "Mo-Sa 15:30", "name": "USPS COLLECTION BOX - BLUE BOX", "note": "ON 12/24 AND 12/31, THIS BOX MAY BE COLLECTED AS EARLY AS 12 NOON.", "ref": "7974500014"}, "type": "Feature"}
{"geometry": {"coordinates": [-103.0952209, 31.860021185], "type": "Point"}, "id": "g1TeRDNufyfgFAtNBHQ-bWeSHoo=", "properties": {"@spider": "usps_collection_boxes", "addr:city": "KERMIT", "addr:country": "US", "addr:full": "309 N OAK ST", "addr:postcode": "79745", "addr:state": "TX", "brand": "USPS", "collection_times": "Mo-Fr 16:30; Sa 12:00", "name": "USPS COLLECTION BOX - PO LOBBY", "note": "ON 12/24 AND 12/31, THIS BOX MAY BE COLLECTED AS EARLY AS 12 NOON.", "ref": "7974500015"}, "type": "Feature"}
{"geometry": {"coordinates": [-101.641413817, 32.402671524], "type": "Point"}, "id": "dqJjVQKFJJyeS2GHFTy117yMFs0=", "properties": {"@spider": "usps_collection_boxes", "addr:city": "KNOTT", "addr:country": "US", "addr:full": "5900 W FM 846", "addr:postcode": "79748", "addr:state": "TX", "brand": "USPS", "collection_times": "Mo-Fr 15:30; Sa 13:30", "name": "USPS COLLECTION BOX - BLUE BOX", "note": "ON 12/24 AND 12/31, THIS BOX MAY BE COLLECTED AS EARLY AS 12 NOON.", "ref": "7974800000"}, "type": "Feature"}
{"geometry": {"coordinates": [-101.641413817, 32.402671524], "type": "Point"}, "id": "tdwquMFs9BMkOIRJU07uC0-uIOk=", "properties": {"@spider": "usps_collection_boxes", "addr:city": "KNOTT", "addr:country": "US", "addr:full": "5900 W FM 846", "addr:postcode": "79748", "addr:state": "TX", "brand": "USPS", "collection_times": "Mo-Fr 15:30; Sa 13:30", "name": "USPS COLLECTION BOX - PO LOBBY", "note": "ON 12/24 AND 12/31, THIS BOX MAY BE COLLECTED AS EARLY AS 12 NOON.", "ref": "7974800003"}, "type": "Feature"}
{"geometry": {"coordinates": [-101.641413817, 32.402671524], "type": "Point"}, "id": "q5udftYAmBrTxj1uX7sBZlm909s=", "properties": {"@spider": "usps_collection_boxes", "addr:city": "KNOTT", "addr:country": "US", "addr:full": "5900 W FM 846", "addr:postcode": "79748", "addr:state": "TX", "brand": "USPS", "collection_times": "Mo-Fr 16:00; Sa 13:45", "name": "USPS COLLECTION BOX - PO LOBBY", "note": "ON 12/24 AND 12/31, THIS BOX MAY BE COLLECTED AS EARLY AS 12 NOON.", "ref": "7974800004"}, "type": "Feature"}
{"geometry": {"coordinates": [-101.948273, 32.305751], "type": "Point"}, "id": "DziuS0ObfdZnnWRxszuhMZB63wE=", "properties": {"@spider": "usps_collection_boxes", "addr:city": "LENORAH", "addr:country": "US", "addr:full": "3298 STATE HIGHWAY 176", "addr:postcode": "79749", "addr:state": "TX", "brand": "USPS", "collection_times": "Mo-Fr 12:00; Sa 11:00", "name": "USPS COLLECTION BOX - PO LOBBY", "ref": "7974900001"}, "type": "Feature"}
{"geometry": {"coordinates": [-101.8761455467, 32.3033247294], "type": "Point"}, "id": "TICh56EA4MXiHyf8uuYe1pSGMo8=", "properties": {"@spider": "usps_collection_boxes", "addr:city": "LENORAH", "addr:country": "US", "addr:full": "3298 STATE HIGHWAY 176", "addr:postcode": "79749", "addr:state": "TX", "brand": "USPS", "collection_times": "Mo-Fr 12:00; Sa 11:00", "name": "USPS COLLECTION BOX - PO LOBBY", "ref": "7974900003"}, "type": "Feature"}
{"geometry": {"coordinates": [-102.224447, 31.135912], "type": "Point"}, "id": "osXpaDN1an3SThnn3k3N3l2FDpc=", "properties": {"@spider": "usps_collection_boxes", "addr:city": "MCCAMEY", "addr:country": "US", "addr:full": "103 W 3RD ST", "addr:postcode": "79752", "addr:state": "TX", "brand": "USPS", "collection_times": "Mo-Fr 16:00; Sa 12:00", "name": "USPS COLLECTION BOX - BLUE BOX", "note": "ON 12/24 AND 12/31, THIS BOX MAY BE COLLECTED AS EARLY AS 12 NOON.", "ref": "7975200000"}, "type": "Feature"}
{"geometry": {"coordinates": [-102.224447, 31.135912], "type": "Point"}, "id": "3eoIMMKC9B2Kgp80RohQjtV89YU=", "properties": {"@spider": "usps_collection_boxes", "addr:city": "MCCAMEY", "addr:country": "US", "addr:full": "103 W 3RD ST", "addr:postcode": "79752", "addr:state": "TX", "brand": "USPS", "collection_times": "Mo-Fr 16:00; Sa 12:00", "name": "USPS COLLECTION BOX - PO LOBBY", "note": "ON 12/24 AND 12/31, THIS BOX MAY BE COLLECTED AS EARLY AS 12 NOON.", "ref": "7975200002"}, "type": "Feature"}
{"geometry": {"coordinates": [-102.224447, 31.135912], "type": "Point"}, "id": "YHaMXrCeEZw3KLw8C95NT93gGKA=", "properties": {"@spider": "usps_collection_boxes", "addr:city": "MCCAMEY", "addr:country": "US", "addr:full": "103 W 3RD ST", "addr:postcode": "79752", "addr:state": "TX", "brand": "USPS", "collection_times": "Mo-Fr 16:00; Sa 12:00", "name": "USPS COLLECTION BOX - PO LOBBY", "note": "ON 12/24 AND 12/31, THIS BOX MAY BE COLLECTED AS EARLY AS 12 NOON.", "ref": "7975200004"}, "type": "Feature"}
{"geometry": {"coordinates": [-102.300508, 30.888078], "type": "Point"}, "id": "pXH3L_hljqBMIpqQppvLd0rvNkI=", "properties": {"@spider": "usps_collection_boxes", "addr:city": "MCCAMEY", "addr:country": "US", "addr:full": "4638 E HIGHWAY 11", "addr:postcode": "79752", "addr:state": "TX", "brand": "USPS", "collection_times": "Mo-Sa 10:00", "name": "USPS COLLECTION BOX - BLUE BOX", "ref": "7975200005"}, "type": "Feature"}
{"geometry": {"coordinates": [-102.224409685, 31.13587151], "type": "Point"}, "id": "ZTUnjtkat8a4ypje6cHyRJzCal4=", "properties": {"@spider": "usps_collection_boxes", "addr:city": "MCCAMEY", "addr:country": "US", "addr:full": "103 W 3RD ST", "addr:postcode": "79752", "addr:state": "TX", "brand": "USPS", "collection_times": "Mo-Fr 16:00", "name": "USPS COLLECTION BOX - PO LOBBY", "note": "ON 12/24 AND 12/31, THIS BOX MAY BE COLLECTED AS EARLY AS 12 NOON.", "ref": "7975200007"}, "type": "Feature"}
{"geometry": {"coordinates": [-103.600757, 31.703842], "type": "Point"}, "id": "yBsF8TvJLPOdQZDf9xQ2rjuy7Is=", "properties": {"@spider": "usps_collection_boxes", "addr:city": "MENTONE", "addr:country": "US", "addr:full": "111 BELL ST", "addr:postcode": "79754", "addr:state": "TX", "brand": "USPS", "collection_times": "Mo-Fr 10:00", "name": "USPS COLLECTION BOX - BLUE BOX", "ref": "7975400000"}, "type": "Feature"}
{"geometry": {"coordinates": [-103.600757, 31.703842], "type": "Point"}, "id": "ErMZ7hpwqm_MD12jEf_dIBSY6hU=", "properties": {"@spider": "usps_collection_boxes", "addr:city": "MENTONE", "addr:country": "US", "addr:full": "111 BELL ST", "addr:postcode": "79754", "addr:state": "TX", "brand": "USPS", "collection_times": "Mo-Sa 10:00", "name": "USPS COLLECTION BOX - PO LOBBY", "ref": "7975400001"}, "type": "Feature"}
{"geometry": {"coordinates": [-103.600757, 31.703842], "type": "Point"}, "id": "45OdP4fpO0iA84OTfSFMc9MVtVE=", "properties": {"@spider": "usps_collection_boxes", "addr:city": "MENTONE", "addr:country": "US", "addr:full": "111 BELL ST", "addr:postcode": "79754", "addr:state": "TX", "brand": "USPS", "collection_times": "Mo-Sa 10:00", "name": "USPS COLLECTION BOX - PO LOBBY", "ref": "7975400002"}, "type": "Feature"}
{"geometry": {"coordinates": [-103.598323212, 31.706202931], "type": "Point"}, "id": "XJDRqgABx8LRUNEGHejLkS4jzz0=", "properties": {"@spider": "usps_collection_boxes", "addr:city": "MENTONE", "addr:country": "US", "addr:full": "111 BELL ST", "addr:postcode": "79754", "addr:state": "TX", "brand": "USPS", "collection_times": "Mo-Sa 10:00", "name": "USPS COLLECTION BOX - PO LOBBY", "ref": "7975400004"}, "type": "Feature"}
{"geometry": {"coordinates": [-101.839819, 31.632881], "type": "Point"}, "id": "Yu5c-bSnGRQsoJW5azaMX73r204=", "properties": {"@spider": "usps_collection_boxes", "addr:city": "MIDKIFF", "addr:country": "US", "addr:full": "1005 FM 3095", "addr:postcode": "79755", "addr:state": "TX", "brand": "USPS", "collection_times": "Mo-Fr 12:45; Sa 12:15", "name": "USPS COLLECTION BOX - PO LOBBY", "note": "ON 12/24 AND 12/31, THIS BOX MAY BE COLLECTED AS EARLY AS 12 NOON.", "ref": "7975500001"}, "type": "Feature"}
{"geometry": {"coordinates": [-101.839935, 31.632825], "type": "Point"}, "id": "WoLTuayT-W1lVuuWlEedgMp4lgQ=", "properties": {"@spider": "usps_collection_boxes", "addr:city": "MIDKIFF", "addr:country": "US", "addr:full": "1005 FM 3095", "addr:postcode": "79755", "addr:state": "TX", "brand": "USPS", "collection_times": "Mo-Fr 12:45; Sa 12:15", "name": "USPS COLLECTION BOX - PO LOBBY", "note": "ON 12/24 AND 12/31, THIS BOX MAY BE COLLECTED AS EARLY AS 12 NOON.", "ref": "7975500002"}, "type": "Feature"}
{"geometry": {"coordinates": [-101.841049899, 31.632528284], "type": "Point"}, "id": "WD2U9pnbmrzFzRFdsqY9X2rjYvs=", "properties": {"@spider": "usps_collection_boxes", "addr:city": "MIDKIFF", "addr:country": "US", "addr:full": "1005 FM 3095", "addr:postcode": "79755", "addr:state": "TX", "brand": "USPS", "collection_times": "Mo-Fr 12:45; Sa 12:15", "name": "USPS COLLECTION BOX - PO LOBBY", "note": "ON 12/24 AND 12/31, THIS BOX MAY BE COLLECTED AS EARLY AS 12 NOON.", "ref": "7975500003"}, "type": "Feature"}
{"geometry": {"coordinates": [-102.892531, 31.572876], "type": "Point"}, "id": "6x7xUMrSTLUaMQLrQrTJtc-3IUE=", "properties": {"@spider": "usps_collection_boxes", "addr:city": "MONAHANS", "addr:country": "US", "addr:full": "2204 S STOCKTON AVE", "addr:postcode": "79756", "addr:state": "TX", "brand": "USPS", "collection_times": "Mo-Sa 15:15", "name": "USPS COLLECTION BOX - BLUE BOX", "note": "ON 12/24 AND 12/31, THIS BOX MAY BE COLLECTED AS EARLY AS 12 NOON.", "ref": "7975600004"}, "type": "Feature"}
{"geometry": {"coordinates": [-102.8947116509, 31.5925981507], "type": "Point"}, "id": "LtLimAHeI2_-yHEyYPmQS-y4im8=", "properties": {"@spider": "usps_collection_boxes", "addr:city": "MONAHANS", "addr:country": "US", "addr:full": "201 S BETTY AVE", "addr:postcode": "79756", "addr:state": "TX", "brand": "USPS", "collection_times": "Mo-Sa 17:45", "name": "USPS COLLECTION BOX - BLUE BOX", "note": "ON 12/24 AND 12/31, THIS BOX MAY BE COLLECTED AS EARLY AS 12 NOON.", "ref": "7975600006"}, "type": "Feature"}
{"geometry": {"coordinates": [-102.8947116509, 31.5925981507], "type": "Point"}, "id": "_MvTmw7UjTZmCizV6U7XqLGh_zU=", "properties": {"@spider": "usps_collection_boxes", "addr:city": "MONAHANS", "addr:country": "US", "addr:full": "201 S BETTY AVE", "addr:postcode": "79756", "addr:state": "TX", "brand": "USPS", "collection_times": "Mo-Sa 17:45", "name": "USPS COLLECTION BOX - BLUE BOX", "note": "ON 12/24 AND 12/31, THIS BOX MAY BE COLLECTED AS EARLY AS 12 NOON.", "ref": "7975600007"}, "type": "Feature"}
{"geometry": {"coordinates": [-102.909019, 31.570488], "type": "Point"}, "id": "k_iTyJaQQNZx4bM-sEOFNl5FGxw=", "properties": {"@spider": "usps_collection_boxes", "addr:city": "MONAHANS", "addr:country": "US", "addr:full": "101 S LOOP 464 RD", "addr:postcode": "79756", "addr:state": "TX", "brand": "USPS", "collection_times": "Mo-Sa 14:30", "name": "USPS COLLECTION BOX - BLUE BOX", "note": "ON 12/24 AND 12/31, THIS BOX MAY BE COLLECTED AS EARLY AS 12 NOON.", "ref": "7975600009"}, "type": "Feature"}
{"geometry": {"coordinates": [-102.894752, 31.59259], "type": "Point"}, "id": "wFHpk8cs_XunHhe7Hks4rwmiv6I=", "properties": {"@spider": "usps_collection_boxes", "addr:city": "MONAHANS", "addr:country": "US", "addr:full": "201 S BETTY AVE", "addr:postcode": "79756", "addr:state": "TX", "brand": "USPS", "collection_times": "Mo-Fr 17:00; Sa 15:15", "name": "USPS COLLECTION BOX - PO LOBBY", "note": "ON 12/24 AND 12/31, THIS BOX MAY BE COLLECTED AS EARLY AS 12 NOON.", "ref": "7975600012"}, "type": "Feature"}
{"geometry": {"coordinates": [-102.894752, 31.59259], "type": "Point"}, "id": "wxHpP_cLMaj1LTR3ex1oDlMPpwA=", "properties": {"@spider": "usps_collection_boxes", "addr:city": "MONAHANS", "addr:country": "US", "addr:full": "201 S BETTY AVE", "addr:postcode": "79756", "addr:state": "TX", "brand": "USPS", "collection_times": "Mo-Fr 17:00; Sa 15:15", "name": "USPS COLLECTION BOX - PO LOBBY", "note": "ON 12/24 AND 12/31, THIS BOX MAY BE COLLECTED AS EARLY AS 12 NOON.", "ref": "7975600013"}, "type": "Feature"}
{"geometry": {"coordinates": [-102.8908120374, 31.5917421432], "type": "Point"}, "id": "mYGr4LxGXJyfRB1Tw43UgfSyOMs=", "properties": {"@spider": "usps_collection_boxes", "addr:city": "MONAHANS", "addr:country": "US", "addr:full": "400 S ALLEN AVE", "addr:postcode": "79756", "addr:state": "TX", "brand": "USPS", "collection_times": "Mo-Sa 15:45", "name": "USPS COLLECTION BOX - BLUE BOX", "note": "ON 12/24 AND 12/31, THIS BOX MAY BE COLLECTED AS EARLY AS 12 NOON.", "ref": "7975600014"}, "type": "Feature"}
{"geometry": {"coordinates": [-102.894711651, 31.592598151], "type": "Point"}, "id": "_JVKz09Ny8wUGQgdJR8EvX2n4EE=", "properties": {"@spider": "usps_collection_boxes", "addr:city": "MONAHANS", "addr:country": "US", "addr:full": "201 S BETTY AVE", "addr:postcode": "79756", "addr:state": "TX", "brand": "USPS", "collection_times": "Mo-Fr 16:30; Sa 13:00", "name": "USPS COLLECTION BOX - PO LOBBY", "note": "ON 12/24 AND 12/31, THIS BOX MAY BE COLLECTED AS EARLY AS 12 NOON.", "ref": "7975600016"}, "type": "Feature"}
{"geometry": {"coordinates": [-102.3824966658, 32.0349510347], "type": "Point"}, "id": "cMGK6Cyh9j39dbdLotCl9rb0_nU=", "properties": {"@spider": "usps_collection_boxes", "addr:city": "GARDENDALE", "addr:country": "US", "addr:full": "4600 E US HIGHWAY 158", "addr:postcode": "79758", "addr:state": "TX", "brand": "USPS", "collection_times": "Mo-Fr 16:30; Sa 10:00", "name": "USPS COLLECTION BOX - BLUE BOX", "note": "ON 12/24 AND 12/31, THIS BOX MAY BE COLLECTED AS EARLY AS 12 NOON.", "ref": "7975800000"}, "type": "Feature"}
{"geometry": {"coordinates": [-102.382545, 32.034944], "type": "Point"}, "id": "tbmDCzbt5fhohKFUegEhzQ_E_hY=", "properties": {"@spider": "usps_collection_boxes", "addr:city": "GARDENDALE", "addr:country": "US", "addr:full": "4600 E US HIGHWAY 158", "addr:postcode": "79758", "addr:state": "TX", "brand": "USPS", "collection_times": "Mo-Fr 15:30; Sa 09:45", "name": "USPS COLLECTION BOX - PO LOBBY", "note": "ON 12/24 AND 12/31, THIS BOX MAY BE COLLECTED AS EARLY AS 12 NOON.", "ref": "7975800001"}, "type": "Feature"}
{"geometry": {"coordinates": [-102.382496666, 32.034951035], "type": "Point"}, "id": "94T_6x50hMe2gY1qVjyPtszT_Wg=", "properties": {"@spider": "usps_collection_boxes", "addr:city": "GARDENDALE", "addr:country": "US", "addr:full": "4600 E US HIGHWAY 158", "addr:postcode": "79758", "addr:state": "TX", "brand": "USPS", "collection_times": "Mo-Fr 16:30; Sa 10:00", "name": "USPS COLLECTION BOX - PO LOBBY", "note": "ON 12/24 AND 12/31, THIS BOX MAY BE COLLECTED AS EARLY AS 12 NOON.", "ref": "7975800004"}, "type": "Feature"}
{"geometry": {"coordinates": [-102.366898393, 31.84676283], "type": "Point"}, "id": "em53mPDPPZIvTb5IW-ICg5DHNII=", "properties": {"@spider": "usps_collection_boxes", "addr:city": "ODESSA", "addr:country": "US", "addr:full": "200 N TEXAS AVE", "addr:postcode": "79761", "addr:state": "TX", "brand": "USPS", "collection_times": "Mo-Sa 17:30", "name": "USPS COLLECTION BOX - BLUE BOX", "note": "ON 12/24 AND 12/31, THIS BOX MAY BE COLLECTED AS EARLY AS 12 NOON.", "ref": "7976100000"}, "type": "Feature"}
{"geometry": {"coordinates": [-102.366898393, 31.84676283], "type": "Point"}, "id": "vaB6Ho9No1KI5ZFMxqzTmYD79Xg=", "properties": {"@spider": "usps_collection_boxes", "addr:city": "ODESSA", "addr:country": "US", "addr:full": "200 N TEXAS AVE", "addr:postcode": "79761", "addr:state": "TX", "brand": "USPS", "collection_times": "Mo-Sa 17:30", "name": "USPS COLLECTION BOX - BLUE BOX", "note": "ON 12/24 AND 12/31, THIS BOX MAY BE COLLECTED AS EARLY AS 12 NOON.", "ref": "7976100001"}, "type": "Feature"}
{"geometry": {"coordinates": [-102.366898393, 31.84676283], "type": "Point"}, "id": "6DbSu6HPaZsSV8pUVxUyCF53fQs=", "properties": {"@spider": "usps_collection_boxes", "addr:city": "ODESSA", "addr:country": "US", "addr:full": "200 N TEXAS AVE", "addr:postcode": "79761", "addr:state": "TX", "brand": "USPS", "collection_times": "Mo-Sa 17:30", "name": "USPS COLLECTION BOX - PO LOBBY", "note": "ON 12/24 AND 12/31, THIS BOX MAY BE COLLECTED AS EARLY AS 12 NOON.", "ref": "7976100003"}, "type": "Feature"}
{"geometry": {"coordinates": [-102.363213, 31.851827], "type": "Point"}, "id": "EIQZKDsVHCQIxOM_GoM9I1xfMAE=", "properties": {"@spider": "usps_collection_boxes", "addr:city": "ODESSA", "addr:country": "US", "addr:full": "500 ADAMS AVE", "addr:postcode": "79761", "addr:state": "TX", "brand": "USPS", "collection_times": "Mo-Fr 16:00", "name": "USPS COLLECTION BOX - BLUE BOX", "note": "ON 12/24 AND 12/31, THIS BOX MAY BE COLLECTED AS EARLY AS 12 NOON.", "ref": "7976100004"}, "type": "Feature"}
{"geometry": {"coordinates": [-102.353609566, 31.859353242], "type": "Point"}, "id": "Gf0SxmE2NifBN2OPEOzRhsPKTnA=", "properties": {"@spider": "usps_collection_boxes", "addr:city": "ODESSA", "addr:country": "US", "addr:full": "1435 E 8TH ST", "addr:postcode": "79761", "addr:state": "TX", "brand": "USPS", "collection_times": "Mo-Fr 15:55; Sa 14:00", "name": "USPS COLLECTION BOX - BLUE BOX", "note": "ON 12/24 AND 12/31, THIS BOX MAY BE COLLECTED AS EARLY AS 12 NOON.", "ref": "7976100011"}, "type": "Feature"}
{"geometry": {"coordinates": [-102.342003871, 31.8619383], "type": "Point"}, "id": "pzuf7HbhWyu8PJrwPurT45XucPM=", "properties": {"@spider": "usps_collection_boxes", "addr:city": "ODESSA", "addr:country": "US", "addr:full": "800 TOWER DR", "addr:postcode": "79761", "addr:state": "TX", "brand": "USPS", "collection_times": "Mo-Fr 15:45; Sa 14:00", "name": "USPS COLLECTION BOX - BLUE BOX", "note": "ON 12/24 AND 12/31, THIS BOX MAY BE COLLECTED AS EARLY AS 12 NOON.", "ref": "7976100013"}, "type": "Feature"}
{"geometry": {"coordinates": [-102.346568, 31.862964], "type": "Point"}, "id": "w-zmRyqK4xtGWXIY5W1RlsWGX5k=", "properties": {"@spider": "usps_collection_boxes", "addr:city": "ODESSA", "addr:country": "US", "addr:full": "947 N GRANDVIEW AVE", "addr:postcode": "79761", "addr:state": "TX", "brand": "USPS", "collection_times": "Mo-Fr 15:50; Sa 14:00", "name": "USPS COLLECTION BOX - BLUE BOX", "note": "ON 12/24 AND 12/31, THIS BOX MAY BE COLLECTED AS EARLY AS 12 NOON.", "ref": "7976100015"}, "type": "Feature"}
{"geometry": {"coordinates": [-102.375404, 31.85898], "type": "Point"}, "id": "A1alNE1W58mVIazn-vkBXa2b7dA=", "properties": {"@spider": "usps_collection_boxes", "addr:city": "ODESSA", "addr:country": "US", "addr:full": "201 E 16TH ST", "addr:postcode": "79761", "addr:state": "TX", "brand": "USPS", "collection_times": "Mo-Fr 16:20; Sa 14:15", "name": "USPS COLLECTION BOX - BLUE BOX", "note": "ON 12/24 AND 12/31, THIS BOX MAY BE COLLECTED AS EARLY AS 12 NOON.", "ref": "7976100017"}, "type": "Feature"}
{"geometry": {"coordinates": [-102.370692, 31.850009], "type": "Point"}, "id": "oCPVWTFQRuuqWIJUfdSKr7JjRXY=", "properties": {"@spider": "usps_collection_boxes", "addr:city": "ODESSA", "addr:country": "US", "addr:full": "620 N GRANT AVE", "addr:postcode": "79761", "addr:state": "TX", "brand": "USPS", "collection_times": "Mo-Fr 16:15", "name": "USPS COLLECTION BOX - BLUE BOX", "note": "ON 12/24 AND 12/31, THIS BOX MAY BE COLLECTED AS EARLY AS 12 NOON.", "ref": "7976100020"}, "type": "Feature"}
{"geometry": {"coordinates": [-102.375496, 31.846446], "type": "Point"}, "id": "9ee5d9TrqN9H3d-Cf-k4r4-AxKY=", "properties": {"@spider": "usps_collection_boxes", "addr:city": "ODESSA", "addr:country": "US", "addr:full": "523 N ALLEGHANEY AVE", "addr:postcode": "79761", "addr:state": "TX", "brand": "USPS", "collection_times": "Mo-Fr 16:05", "name": "USPS COLLECTION BOX - BLUE BOX", "note": "ON 12/24 AND 12/31, THIS BOX MAY BE COLLECTED AS EARLY AS 12 NOON.", "ref": "7976100038"}, "type": "Feature"}
{"geometry": {"coordinates": [-102.369906, 31.846865], "type": "Point"}, "id": "4peiTuC0Zkv1XN4E0O_vaHf227k=", "properties": {"@spider": "usps_collection_boxes", "addr:city": "ODESSA", "addr:country": "US", "addr:full": "119 W 4TH ST", "addr:postcode": "79761", "addr:state": "TX", "brand": "USPS", "collection_times": "Mo-Fr 16:10", "name": "USPS COLLECTION BOX - BLUE BOX", "note": "ON 12/24 AND 12/31, THIS BOX MAY BE COLLECTED AS EARLY AS 12 NOON.", "ref": "7976100040"}, "type": "Feature"}
{"geometry": {"coordinates": [-102.328284, 31.876015], "type": "Point"}, "id": "A16uA3tlTRxDobTOuNGH2I0eGec=", "properties": {"@spider": "usps_collection_boxes", "addr:city": "ODESSA", "addr:country": "US", "addr:full": "4600 OAKWOOD DR", "addr:postcode": "79761", "addr:state": "TX", "brand": "USPS", "collection_times": "Mo-Fr 15:40; Sa 13:55", "name": "USPS COLLECTION BOX - BLUE BOX", "note": "ON 12/24 AND 12/31, THIS BOX MAY BE COLLECTED AS EARLY AS 12 NOON.", "ref": "7976100057"}, "type": "Feature"}
{"geometry": {"coordinates": [-102.355718, 31.829094], "type": "Point"}, "id": "CCurFAQhOiQvxwcSnkIB7eqsDnA=", "properties": {"@spider": "usps_collection_boxes", "addr:city": "ODESSA", "addr:country": "US", "addr:full": "1601 S GRANT AVE", "addr:postcode": "79761", "addr:state": "TX", "brand": "USPS", "collection_times": "Mo-Fr 15:30; Sa 13:45", "name": "USPS COLLECTION BOX - BLUE BOX", "note": "ON 12/24 AND 12/31, THIS BOX MAY BE COLLECTED AS EARLY AS 12 NOON.", "ref": "7976100059"}, "type": "Feature"}
{"geometry": {"coordinates": [-102.366898393, 31.84676283], "type": "Point"}, "id": "ahc2obvJyb96JWtq0mm3KMXYVFE=", "properties": {"@spider": "usps_collection_boxes", "addr:city": "ODESSA", "addr:country": "US", "addr:full": "200 N TEXAS AVE", "addr:postcode": "79761", "addr:state": "TX", "brand": "USPS", "collection_times": "Mo-Sa 17:30", "name": "USPS COLLECTION BOX - PO LOBBY", "note": "ON 12/24 AND 12/31, THIS BOX MAY BE COLLECTED AS EARLY AS 12 NOON.", "ref": "7976100061"}, "type": "Feature"}
{"geometry": {"coordinates": [-102.374088, 31.84446], "type": "Point"}, "id": "AJiTUqJCCYD_9HQl4yXRLX2wtws=", "properties": {"@spider": "usps_collection_boxes", "addr:city": "ODESSA", "addr:country": "US", "addr:full": "500 W 4TH ST", "addr:postcode": "79761", "addr:state": "TX", "brand": "USPS", "collection_times": "Mo-Fr 16:00", "name": "USPS COLLECTION BOX - BLUE BOX", "note": "ON 12/24 AND 12/31, THIS BOX MAY BE COLLECTED AS EARLY AS 12 NOON.", "ref": "7976100062"}, "type": "Feature"}
{"geometry": {"coordinates": [-102.366898393, 31.84676283], "type": "Point"}, "id": "44WhSwIEkh1DnxujpO1uxaCdmMI=", "properties": {"@spider": "usps_collection_boxes", "addr:city": "ODESSA", "addr:country": "US", "addr:full": "200 N TEXAS AVE", "addr:postcode": "79761", "addr:state": "TX", "brand": "USPS", "collection_times": "Mo-Fr 17:30", "name": "USPS COLLECTION BOX - PO LOBBY", "note": "ON 12/24 AND 12/31, THIS BOX MAY BE COLLECTED AS EARLY AS 12 NOON.", "ref": "7976100065"}, "type": "Feature"}
{"geometry": {"coordinates": [-102.33962, 31.902456], "type": "Point"}, "id": "O_rZwTHpletzI7jf1KIy9OpplmY=", "properties": {"@spider": "usps_collection_boxes", "addr:city": "ODESSA", "addr:country": "US", "addr:full": "4551 E 52ND ST", "addr:postcode": "79762", "addr:state": "TX", "brand": "USPS", "collection_times": "Mo-Sa 17:15", "name": "USPS COLLECTION BOX - PO LOBBY", "note": "ON 12/24 AND 12/31, THIS BOX MAY BE COLLECTED AS EARLY AS 12 NOON.", "ref": "7976200002"}, "type": "Feature"}
{"geometry": {"coordinates": [-102.33962, 31.902456], "type": "Point"}, "id": "6u8nxOD24K9uZV7ZhsTnlXMYQpQ=", "properties": {"@spider": "usps_collection_boxes", "addr:city": "ODESSA", "addr:country": "US", "addr:full": "4551 E 52ND ST", "addr:postcode": "79762", "addr:state": "TX", "brand": "USPS", "collection_times": "Mo-Sa 17:15", "name": "USPS COLLECTION BOX - PO LOBBY", "note": "ON 12/24 AND 12/31, THIS BOX MAY BE COLLECTED AS EARLY AS 12 NOON.", "ref": "7976200003"}, "type": "Feature"}
{"geometry": {"coordinates": [-102.371429, 31.885491], "type": "Point"}, "id": "wNBZYl6loo5T1AEemVZqtuyJrLY=", "properties": {"@spider": "usps_collection_boxes", "addr:city": "ODESSA", "addr:country": "US", "addr:full": "1141 E 42ND ST", "addr:postcode": "79762", "addr:state": "TX", "brand": "USPS", "collection_times": "Mo-Sa 15:00", "name": "USPS COLLECTION BOX - BLUE BOX", "note": "ON 12/24 AND 12/31, THIS BOX MAY BE COLLECTED AS EARLY AS 12 NOON.", "ref": "7976200005"}, "type": "Feature"}
{"geometry": {"coordinates": [-102.372415588, 31.881662643], "type": "Point"}, "id": "zdkdf8J0Z9hz0xvWNblhDkQTJaQ=", "properties": {"@spider": "usps_collection_boxes", "addr:city": "ODESSA", "addr:country": "US", "addr:full": "3658 N DIXIE BLVD", "addr:postcode": "79762", "addr:state": "TX", "brand": "USPS", "collection_times": "Mo-Sa 15:15", "name": "USPS COLLECTION BOX - BLUE BOX", "note": "ON 12/24 AND 12/31, THIS BOX MAY BE COLLECTED AS EARLY AS 12 NOON.", "ref": "7976200007"}, "type": "Feature"}
{"geometry": {"coordinates": [-102.3474145847, 31.8760684982], "type": "Point"}, "id": "zlxsMA1-p5-f5FPnSQ5Y7gB3cRA=", "properties": {"@spider": "usps_collection_boxes", "addr:city": "ODESSA", "addr:country": "US", "addr:full": "2700 N GRANDVIEW AVE", "addr:postcode": "79762", "addr:state": "TX", "brand": "USPS", "collection_times": "Mo-Fr 15:45; Sa 15:15", "name": "USPS COLLECTION BOX - BLUE BOX", "note": "ON 12/24 AND 12/31, THIS BOX MAY BE COLLECTED AS EARLY AS 12 NOON.", "ref": "7976200008"}, "type": "Feature"}
{"geometry": {"coordinates": [-102.331315, 31.879463], "type": "Point"}, "id": "aecBDsoystFCMv-YRA8DuT-iyJI=", "properties": {"@spider": "usps_collection_boxes", "addr:city": "ODESSA", "addr:country": "US", "addr:full": "4555 E UNIVERSITY BLVD", "addr:postcode": "79762", "addr:state": "TX", "brand": "USPS", "collection_times": "Mo-Fr 16:00; Sa 15:30", "name": "USPS COLLECTION BOX - BLUE BOX", "note": "ON 12/24 AND 12/31, THIS BOX MAY BE COLLECTED AS EARLY AS 12 NOON.", "ref": "7976200009"}, "type": "Feature"}
{"geometry": {"coordinates": [-102.316897, 31.882018], "type": "Point"}, "id": "XsSts4eTGDLSGYk96obyAGvkygw=", "properties": {"@spider": "usps_collection_boxes", "addr:city": "ODESSA", "addr:country": "US", "addr:full": "5050 E UNIVERSITY BLVD", "addr:postcode": "79762", "addr:state": "TX", "brand": "USPS", "collection_times": "Mo-Fr 16:15; Sa 15:30", "name": "USPS COLLECTION BOX - BLUE BOX", "note": "ON 12/24 AND 12/31, THIS BOX MAY BE COLLECTED AS EARLY AS 12 NOON.", "ref": "7976200012"}, "type": "Feature"}
{"geometry": {"coordinates": [-102.335017, 31.892461], "type": "Point"}, "id": "BOX_P_zXE90KYMswgct2OkNt2qA=", "properties": {"@spider": "usps_collection_boxes", "addr:city": "ODESSA", "addr:country": "US", "addr:full": "4950 E 42ND ST", "addr:postcode": "79762", "addr:state": "TX", "brand": "USPS", "collection_times": "Mo-Fr 16:30; Sa 15:45", "name": "USPS COLLECTION BOX - BLUE BOX", "note": "ON 12/24 AND 12/31, THIS BOX MAY BE COLLECTED AS EARLY AS 12 NOON.", "ref": "7976200015"}, "type": "Feature"}
{"geometry": {"coordinates": [-102.347325, 31.890801], "type": "Point"}, "id": "hUuVHBK4lmeq8UMjvupzSR9A6EQ=", "properties": {"@spider": "usps_collection_boxes", "addr:city": "ODESSA", "addr:country": "US", "addr:full": "3909 E 42ND ST", "addr:postcode": "79762", "addr:state": "TX", "brand": "USPS", "collection_times": "Mo-Fr 17:00; Sa 15:45", "name": "USPS COLLECTION BOX - BLUE BOX", "note": "ON 12/24 AND 12/31, THIS BOX MAY BE COLLECTED AS EARLY AS 12 NOON.", "ref": "7976200019"}, "type": "Feature"}
{"geometry": {"coordinates": [-102.3780515267, 31.894721078], "type": "Point"}, "id": "R8aNIcKUub3YlbxlyKN_ogaIkWs=", "properties": {"@spider": "usps_collection_boxes", "addr:city": "ODESSA", "addr:country": "US", "addr:full": "5112 N DIXIE BLVD", "addr:postcode": "79762", "addr:state": "TX", "brand": "USPS", "collection_times": "Mo-Sa 15:00", "name": "USPS COLLECTION BOX - BLUE BOX", "note": "ON 12/24 AND 12/31, THIS BOX MAY BE COLLECTED AS EARLY AS 12 NOON.", "ref": "7976200024"}, "type": "Feature"}
{"geometry": {"coordinates": [-102.354733, 31.886308], "type": "Point"}, "id": "hWumMcUnNZ1ftnK6bg15n42uzQ8=", "properties": {"@spider": "usps_collection_boxes", "addr:city": "ODESSA", "addr:country": "US", "addr:full": "1901 E 37TH ST", "addr:postcode": "79762", "addr:state": "TX", "brand": "USPS", "collection_times": "Mo-Fr 15:30; Sa 15:15", "name": "USPS COLLECTION BOX - BLUE BOX", "note": "ON 12/24 AND 12/31, THIS BOX MAY BE COLLECTED AS EARLY AS 12 NOON.", "ref": "7976200025"}, "type": "Feature"}
{"geometry": {"coordinates": [-102.340125, 31.886156], "type": "Point"}, "id": "7GFBX5th-Y-H8uceLT0-aLw24jY=", "properties": {"@spider": "usps_collection_boxes", "addr:city": "ODESSA", "addr:country": "US", "addr:full": "4041 MAPLE AVE", "addr:postcode": "79762", "addr:state": "TX", "brand": "USPS", "collection_times": "Mo-Fr 15:45; Sa 15:15", "name": "USPS COLLECTION BOX - BLUE BOX", "note": "ON 12/24 AND 12/31, THIS BOX MAY BE COLLECTED AS EARLY AS 12 NOON.", "ref": "7976200026"}, "type": "Feature"}
{"geometry": {"coordinates": [-102.316709, 31.894603], "type": "Point"}, "id": "pVZDJgvO0MLCntwKXMWup6MjyR4=", "properties": {"@spider": "usps_collection_boxes", "addr:city": "ODESSA", "addr:country": "US", "addr:full": "6001 EASTRIDGE RD", "addr:postcode": "79762", "addr:state": "TX", "brand": "USPS", "collection_times": "Mo-Fr 16:15; Sa 15:30", "name": "USPS COLLECTION BOX - BLUE BOX", "note": "ON 12/24 AND 12/31, THIS BOX MAY BE COLLECTED AS EARLY AS 12 NOON.", "ref": "7976200027"}, "type": "Feature"}
{"geometry": {"coordinates": [-102.388118, 31.892982], "type": "Point"}, "id": "59xCYnCxXGsaH4ckFOGus87_gpg=", "properties": {"@spider": "usps_collection_boxes", "addr:city": "ODESSA", "addr:country": "US", "addr:full": "5200 ANDREWS HWY", "addr:postcode": "79762", "addr:state": "TX", "brand": "USPS", "collection_times": "Mo-Sa 15:00", "name": "USPS COLLECTION BOX - BLUE BOX", "note": "ON 12/24 AND 12/31, THIS BOX MAY BE COLLECTED AS EARLY AS 12 NOON.", "ref": "7976200029"}, "type": "Feature"}
{"geometry": {"coordinates": [-102.381965, 31.873986], "type": "Point"}, "id": "7m2wsxlvi-fCbgC3Cl7rS-5MH2o=", "properties": {"@spider": "usps_collection_boxes", "addr:city": "ODESSA", "addr:country": "US", "addr:full": "3326 ANDREWS HWY", "addr:postcode": "79762", "addr:state": "TX", "brand": "USPS", "collection_times": "Mo-Sa 15:15", "name": "USPS COLLECTION BOX - BLUE BOX", "note": "ON 12/24 AND 12/31, THIS BOX MAY BE COLLECTED AS EARLY AS 12 NOON.", "ref": "7976200032"}, "type": "Feature"}
{"geometry": {"coordinates": [-102.316915, 31.882027], "type": "Point"}, "id": "loK1ZCnTWSH4p2ChVdSzuxUDxnY=", "properties": {"@spider": "usps_collection_boxes", "addr:city": "ODESSA", "addr:country": "US", "addr:full": "5050 E UNIVERSITY BLVD", "addr:postcode": "79762", "addr:state": "TX", "brand": "USPS", "collection_times": "Mo-Fr 16:15; Sa 15:30", "name": "USPS COLLECTION BOX - BLUE BOX", "note": "ON 12/24 AND 12/31, THIS BOX MAY BE COLLECTED AS EARLY AS 12 NOON.", "ref": "7976200034"}, "type": "Feature"}
{"geometry": {"coordinates": [-102.33962, 31.902456], "type": "Point"}, "id": "8NpZFCpv5yB9-h7M4cdtrde4LM4=", "properties": {"@spider": "usps_collection_boxes", "addr:city": "ODESSA", "addr:country": "US", "addr:full": "4551 E 52ND ST", "addr:postcode": "79762", "addr:state": "TX", "brand": "USPS", "collection_times": "Mo-Sa 17:15", "name": "USPS COLLECTION BOX - APC", "note": "ON 12/24 AND 12/31, THIS BOX MAY BE COLLECTED AS EARLY AS 12 NOON.", "ref": "7976200036"}, "type": "Feature"}
{"geometry": {"coordinates": [-102.339909561, 31.90246344], "type": "Point"}, "id": "Bt2kcLedTUKoCFLhYje1XDgtAf8=", "properties": {"@spider": "usps_collection_boxes", "addr:city": "ODESSA", "addr:country": "US", "addr:full": "4551 E 52ND ST", "addr:postcode": "79762", "addr:state": "TX", "brand": "USPS", "collection_times": "Mo-Fr 17:00", "name": "USPS COLLECTION BOX - PO LOBBY", "note": "ON 12/24 AND 12/31, THIS BOX MAY BE COLLECTED AS EARLY AS 12 NOON.", "ref": "7976200043"}, "type": "Feature"}
{"geometry": {"coordinates": [-102.393198, 31.852613], "type": "Point"}, "id": "d4sufqauX-geVQT6q_oRPuEKYpY=", "properties": {"@spider": "usps_collection_boxes", "addr:city": "ODESSA", "addr:country": "US", "addr:full": "1625 N COUNTY RD W", "addr:postcode": "79763", "addr:state": "TX", "brand": "USPS", "collection_times": "Mo-Fr 16:50; Sa 14:30", "name": "USPS COLLECTION BOX - BLUE BOX", "note": "ON 12/24 AND 12/31, THIS BOX MAY BE COLLECTED AS EARLY AS 12 NOON.", "ref": "7976300001"}, "type": "Feature"}
{"geometry": {"coordinates": [-102.3932, 31.852608], "type": "Point"}, "id": "AEpMNKl8xTdDGmxaJLClYn2HdPg=", "properties": {"@spider": "usps_collection_boxes", "addr:city": "ODESSA", "addr:country": "US", "addr:full": "1625 N COUNTY RD W", "addr:postcode": "79763", "addr:state": "TX", "brand": "USPS", "collection_times": "Mo-Fr 16:50; Sa 14:30", "name": "USPS COLLECTION BOX - BLUE BOX", "note": "ON 12/24 AND 12/31, THIS BOX MAY BE COLLECTED AS EARLY AS 12 NOON.", "ref": "7976300002"}, "type": "Feature"}
{"geometry": {"coordinates": [-102.383122, 31.819912], "type": "Point"}, "id": "iAXwxapjXClb2ccv7rhGm6Gqs4s=", "properties": {"@spider": "usps_collection_boxes", "addr:city": "ODESSA", "addr:country": "US", "addr:full": "1350 S COUNTY RD W", "addr:postcode": "79763", "addr:state": "TX", "brand": "USPS", "collection_times": "Mo-Fr 15:25; Sa 15:15", "name": "USPS COLLECTION BOX - BLUE BOX", "note": "ON 12/24 AND 12/31, THIS BOX MAY BE COLLECTED AS EARLY AS 12 NOON.", "ref": "7976300003"}, "type": "Feature"}
{"geometry": {"coordinates": [-102.4120947262, 31.8555333259], "type": "Point"}, "id": "sABMQdg9fTO53TWQBwMabrSxfU0=", "properties": {"@spider": "usps_collection_boxes", "addr:city": "ODESSA", "addr:country": "US", "addr:full": "2450 NW LOOP 338", "addr:postcode": "79763", "addr:state": "TX", "brand": "USPS", "collection_times": "Mo-Fr 17:00; Sa 14:30", "name": "USPS COLLECTION BOX - BLUE BOX", "note": "ON 12/24 AND 12/31, THIS BOX MAY BE COLLECTED AS EARLY AS 12 NOON.", "ref": "7976300009"}, "type": "Feature"}
{"geometry": {"coordinates": [-102.398143, 31.864754], "type": "Point"}, "id": "we_Z-LQ6SIJk7SgxkojABRD_CSY=", "properties": {"@spider": "usps_collection_boxes", "addr:city": "ODESSA", "addr:country": "US", "addr:full": "2751 N COUNTY RD W", "addr:postcode": "79764", "addr:state": "TX", "brand": "USPS", "collection_times": "Mo-Fr 16:30; Sa 14:30", "name": "USPS COLLECTION BOX - BLUE BOX", "note": "ON 12/24 AND 12/31, THIS BOX MAY BE COLLECTED AS EARLY AS 12 NOON.", "ref": "7976400001"}, "type": "Feature"}
{"geometry": {"coordinates": [-102.398122, 31.86475], "type": "Point"}, "id": "FLTL7eTObAZanhnogp0tenBa1TQ=", "properties": {"@spider": "usps_collection_boxes", "addr:city": "ODESSA", "addr:country": "US", "addr:full": "2751 N COUNTY RD W", "addr:postcode": "79764", "addr:state": "TX", "brand": "USPS", "collection_times": "Mo-Fr 16:30; Sa 14:30", "name": "USPS COLLECTION BOX - BLUE BOX", "note": "ON 12/24 AND 12/31, THIS BOX MAY BE COLLECTED AS EARLY AS 12 NOON.", "ref": "7976400002"}, "type": "Feature"}
{"geometry": {"coordinates": [-102.4103333538, 31.9071939142], "type": "Point"}, "id": "Vm_wj_-5dQPZ5yEnmFy4ZzdmwpM=", "properties": {"@spider": "usps_collection_boxes", "addr:city": "ODESSA", "addr:country": "US", "addr:full": "7000 N COUNTY RD W", "addr:postcode": "79764", "addr:state": "TX", "brand": "USPS", "collection_times": "Mo-Sa 15:00", "name": "USPS COLLECTION BOX - BLUE BOX", "note": "ON 12/24 AND 12/31, THIS BOX MAY BE COLLECTED AS EARLY AS 12 NOON.", "ref": "7976400012"}, "type": "Feature"}
{"geometry": {"coordinates": [-102.439233, 31.855814], "type": "Point"}, "id": "7PmUVQG_jJT5KMFXa3cXT49_orE=", "properties": {"@spider": "usps_collection_boxes", "addr:city": "ODESSA", "addr:country": "US", "addr:full": "5200 W UNIVERSITY BLVD", "addr:postcode": "79764", "addr:state": "TX", "brand": "USPS", "collection_times": "Mo-Fr 17:15; Sa 14:15", "name": "USPS COLLECTION BOX - PO LOBBY", "note": "ON 12/24 AND 12/31, THIS BOX MAY BE COLLECTED AS EARLY AS 12 NOON.", "ref": "7976400014"}, "type": "Feature"}
{"geometry": {"coordinates": [-102.439239, 31.855799], "type": "Point"}, "id": "pBkHGyhifmBWukumkfYTGcZ6O-Y=", "properties": {"@spider": "usps_collection_boxes", "addr:city": "ODESSA", "addr:country": "US", "addr:full": "5200 W UNIVERSITY BLVD", "addr:postcode": "79764", "addr:state": "TX", "brand": "USPS", "collection_times": "Mo-Fr 17:15; Sa 14:15", "name": "USPS COLLECTION BOX - PO LOBBY", "note": "ON 12/24 AND 12/31, THIS BOX MAY BE COLLECTED AS EARLY AS 12 NOON.", "ref": "7976400015"}, "type": "Feature"}
{"geometry": {"coordinates": [-102.438984407, 31.855496128], "type": "Point"}, "id": "eKpKS_ArcHm2R9q4t34knFNMFqo=", "properties": {"@spider": "usps_collection_boxes", "addr:city": "ODESSA", "addr:country": "US", "addr:full": "5200 W UNIVERSITY BLVD", "addr:postcode": "79764", "addr:state": "TX", "brand": "USPS", "collection_times": "Mo-Fr 16:45", "name": "USPS COLLECTION BOX - PO LOBBY", "note": "ON 12/24 AND 12/31, THIS BOX MAY BE COLLECTED AS EARLY AS 12 NOON.", "ref": "7976400017"}, "type": "Feature"}
{"geometry": {"coordinates": [-102.401017, 31.934565], "type": "Point"}, "id": "SySCo52j6EWoc1hI5C3gRWzYl2o=", "properties": {"@spider": "usps_collection_boxes", "addr:city": "ODESSA", "addr:country": "US", "addr:full": "8700 ANDREWS HWY", "addr:postcode": "79765", "addr:state": "TX", "brand": "USPS", "collection_times": "Mo-Sa 15:00", "name": "USPS COLLECTION BOX - BLUE BOX", "note": "ON 12/24 AND 12/31, THIS BOX MAY BE COLLECTED AS EARLY AS 12 NOON.", "ref": "7976500000"}, "type": "Feature"}
{"geometry": {"coordinates": [-102.331038, 31.830451], "type": "Point"}, "id": "1j3SlXXwuNvy_NBlJ38H72wjAKo=", "properties": {"@spider": "usps_collection_boxes", "addr:city": "ODESSA", "addr:country": "US", "addr:full": "2201 S GRANDVIEW AVE", "addr:postcode": "79766", "addr:state": "TX", "brand": "USPS", "collection_times": "Mo-Fr 15:35; Sa 13:55", "name": "USPS COLLECTION BOX - BLUE BOX", "note": "ON 12/24 AND 12/31, THIS BOX MAY BE COLLECTED AS EARLY AS 12 NOON.", "ref": "7976600000"}, "type": "Feature"}
{"geometry": {"coordinates": [-103.9082876367, 31.8281013817], "type": "Point"}, "id": "NWoB28ZoPjtsvar4-YPxXShOBa4=", "properties": {"@spider": "usps_collection_boxes", "addr:city": "ORLA", "addr:country": "US", "addr:full": "3737 N HIGHWAY 285", "addr:postcode": "79770", "addr:state": "TX", "brand": "USPS", "collection_times": "Mo-Fr 14:30; Sa 09:00", "name": "USPS COLLECTION BOX - BLUE BOX", "note": "ON 12/24 AND 12/31, THIS BOX MAY BE COLLECTED AS EARLY AS 12 NOON.", "ref": "7977000000"}, "type": "Feature"}
{"geometry": {"coordinates": [-103.908289672, 31.828102451], "type": "Point"}, "id": "0FjQow0irgnJqbdcPZUTUmI5Ius=", "properties": {"@spider": "usps_collection_boxes", "addr:city": "ORLA", "addr:country": "US", "addr:full": "3737 N HIGHWAY 285", "addr:postcode": "79770", "addr:state": "TX", "brand": "USPS", "collection_times": "Mo-Fr 14:00; Sa 09:15", "name": "USPS COLLECTION BOX - PO LOBBY", "note": "ON 12/24 AND 12/31, THIS BOX MAY BE COLLECTED AS EARLY AS 12 NOON.", "ref": "7977000001"}, "type": "Feature"}
{"geometry": {"coordinates": [-103.9082896718, 31.828102451], "type": "Point"}, "id": "5KDFkkpXfbldGWQ6DDSGNsiaP0U=", "properties": {"@spider": "usps_collection_boxes", "addr:city": "ORLA", "addr:country": "US", "addr:full": "3737 N HIGHWAY 285", "addr:postcode": "79770", "addr:state": "TX", "brand": "USPS", "collection_times": "Mo-Fr 14:00; Sa 09:15", "name": "USPS COLLECTION BOX - PO LOBBY", "note": "ON 12/24 AND 12/31, THIS BOX MAY BE COLLECTED AS EARLY AS 12 NOON.", "ref": "7977000002"}, "type": "Feature"}
{"geometry": {"coordinates": [-103.958065337, 31.863265], "type": "Point"}, "id": "SELZolU0XzeS6XPZcz1-SKhHwAM=", "properties": {"@spider": "usps_collection_boxes", "addr:city": "ORLA", "addr:country": "US", "addr:full": "3737 N HIGHWAY 285", "addr:postcode": "79770", "addr:state": "TX", "brand": "USPS", "collection_times": "Mo-Fr 14:00; Sa 09:15", "name": "USPS COLLECTION BOX - PO LOBBY", "note": "ON 12/24 AND 12/31, THIS BOX MAY BE COLLECTED AS EARLY AS 12 NOON.", "ref": "7977000004"}, "type": "Feature"}
{"geometry": {"coordinates": [-103.495037, 31.424486], "type": "Point"}, "id": "kCE7NtVf3_8aPDFkTuSD5bWkrQY=", "properties": {"@spider": "usps_collection_boxes", "addr:city": "PECOS", "addr:country": "US", "addr:full": "106 W 4TH ST", "addr:postcode": "79772", "addr:state": "TX", "brand": "USPS", "collection_times": "Mo-Sa 16:30", "name": "USPS COLLECTION BOX - PO LOBBY", "note": "ON 12/24 AND 12/31, THIS BOX MAY BE COLLECTED AS EARLY AS 12 NOON.", "ref": "7977200002"}, "type": "Feature"}
{"geometry": {"coordinates": [-103.495037, 31.424486], "type": "Point"}, "id": "fyAlSVDD2rsmbuMvob2u79Ah3pY=", "properties": {"@spider": "usps_collection_boxes", "addr:city": "PECOS", "addr:country": "US", "addr:full": "106 W 4TH ST", "addr:postcode": "79772", "addr:state": "TX", "brand": "USPS", "collection_times": "Mo-Sa 16:30", "name": "USPS COLLECTION BOX - PO LOBBY", "note": "ON 12/24 AND 12/31, THIS BOX MAY BE COLLECTED AS EARLY AS 12 NOON.", "ref": "7977200003"}, "type": "Feature"}
{"geometry": {"coordinates": [-103.486396, 31.400982], "type": "Point"}, "id": "GTJoHRWiltT_O_T_SpbUiyRLoOk=", "properties": {"@spider": "usps_collection_boxes", "addr:city": "PECOS", "addr:country": "US", "addr:full": "100 N FRONTAGE RD", "addr:postcode": "79772", "addr:state": "TX", "brand": "USPS", "collection_times": "Mo-Sa 10:30", "name": "USPS COLLECTION BOX - BLUE BOX", "ref": "7977200004"}, "type": "Feature"}
{"geometry": {"coordinates": [-103.493505, 31.424446], "type": "Point"}, "id": "V8vVP62uzA01rOkGyuW5V9B5O1M=", "properties": {"@spider": "usps_collection_boxes", "addr:city": "PECOS", "addr:country": "US", "addr:full": "410 S CEDAR ST", "addr:postcode": "79772", "addr:state": "TX", "brand": "USPS", "collection_times": "Mo-Sa 10:00", "name": "USPS COLLECTION BOX - BLUE BOX", "ref": "7977200005"}, "type": "Feature"}
{"geometry": {"coordinates": [-103.49824, 31.431708], "type": "Point"}, "id": "GJPNOZmUhMkWQhcJxya6gs2aNk0=", "properties": {"@spider": "usps_collection_boxes", "addr:city": "PECOS", "addr:country": "US", "addr:full": "400 N OAK ST", "addr:postcode": "79772", "addr:state": "TX", "brand": "USPS", "collection_times": "Mo-Sa 16:30", "name": "USPS COLLECTION BOX - BLUE BOX", "note": "ON 12/24 AND 12/31, THIS BOX MAY BE COLLECTED AS EARLY AS 12 NOON.", "ref": "7977200009"}, "type": "Feature"}
{"geometry": {"coordinates": [-103.49824, 31.431708], "type": "Point"}, "id": "psihEZy4yGdBQWWtz8lQ5vUZ0Rg=", "properties": {"@spider": "usps_collection_boxes", "addr:city": "PECOS", "addr:country": "US", "addr:full": "400 N OAK ST", "addr:postcode": "79772", "addr:state": "TX", "brand": "USPS", "collection_times": "Mo-Sa 16:30", "name": "USPS COLLECTION BOX - BLUE BOX", "note": "ON 12/24 AND 12/31, THIS BOX MAY BE COLLECTED AS EARLY AS 12 NOON.", "ref": "7977200010"}, "type": "Feature"}
{"geometry": {"coordinates": [-103.495231772, 31.424406698], "type": "Point"}, "id": "e52zjDFehHfktXqfgVa-Q7VZ2MM=", "properties": {"@spider": "usps_collection_boxes", "addr:city": "PECOS", "addr:country": "US", "addr:full": "106 W 4TH ST", "addr:postcode": "79772", "addr:state": "TX", "brand": "USPS", "collection_times": "Mo-Fr 16:30", "name": "USPS COLLECTION BOX - PO LOBBY", "note": "ON 12/24 AND 12/31, THIS BOX MAY BE COLLECTED AS EARLY AS 12 NOON.", "ref": "7977200014"}, "type": "Feature"}
{"geometry": {"coordinates": [-102.591099219, 31.7397022451], "type": "Point"}, "id": "-r6ClQiyN2_2iCkLEm6Gd4hMqMA=", "properties": {"@spider": "usps_collection_boxes", "addr:city": "PENWELL", "addr:country": "US", "addr:full": "157 S FM ROAD 1601", "addr:postcode": "79776", "addr:state": "TX", "brand": "USPS", "collection_times": "Mo-Fr 09:45; Sa 12:45", "name": "USPS COLLECTION BOX - BLUE BOX", "note": "ON 12/24 AND 12/31, THIS BOX MAY BE COLLECTED AS EARLY AS 12 NOON.", "ref": "7977600000"}, "type": "Feature"}
{"geometry": {"coordinates": [-102.591088258, 31.739703316], "type": "Point"}, "id": "5b8yscfpZsaZqlKfaV6C5aXpcCw=", "properties": {"@spider": "usps_collection_boxes", "addr:city": "PENWELL", "addr:country": "US", "addr:full": "157 S FM ROAD 1601", "addr:postcode": "79776", "addr:state": "TX", "brand": "USPS", "collection_times": "Mo-Fr 09:45; Sa 13:45", "name": "USPS COLLECTION BOX - PO LOBBY", "note": "ON 12/24 AND 12/31, THIS BOX MAY BE COLLECTED AS EARLY AS 12 NOON.", "ref": "7977600001"}, "type": "Feature"}
{"geometry": {"coordinates": [-102.572490071, 31.691860143], "type": "Point"}, "id": "Vfxwf7gYLbywTHJK_SfS3rUsQiI=", "properties": {"@spider": "usps_collection_boxes", "addr:city": "PENWELL", "addr:country": "US", "addr:full": "157 S FM ROAD 1601", "addr:postcode": "79776", "addr:state": "TX", "brand": "USPS", "collection_times": "Mo-Fr 10:00; Sa 14:00", "name": "USPS COLLECTION BOX - PO LOBBY", "note": "ON 12/24 AND 12/31, THIS BOX MAY BE COLLECTED AS EARLY AS 12 NOON.", "ref": "7977600003"}, "type": "Feature"}
{"geometry": {"coordinates": [-103.119459, 31.530274], "type": "Point"}, "id": "Yg_iO5w9NmYPYQ-_ZGgyUrGL6CE=", "properties": {"@spider": "usps_collection_boxes", "addr:city": "PYOTE", "addr:country": "US", "addr:full": "211 N ROGERS", "addr:postcode": "79777", "addr:state": "TX", "brand": "USPS", "collection_times": "Mo-Fr 15:00", "name": "USPS COLLECTION BOX - BLUE BOX", "note": "ON 12/24 AND 12/31, THIS BOX MAY BE COLLECTED AS EARLY AS 12 NOON.", "ref": "7977700000"}, "type": "Feature"}
{"geometry": {"coordinates": [-103.119459, 31.530274], "type": "Point"}, "id": "W4U90AfprCthQRJKed4wsrVLxI4=", "properties": {"@spider": "usps_collection_boxes", "addr:city": "PYOTE", "addr:country": "US", "addr:full": "211 N ROGERS", "addr:postcode": "79777", "addr:state": "TX", "brand": "USPS", "collection_times": "Mo-Fr 14:45; Sa 11:00", "name": "USPS COLLECTION BOX - PO LOBBY", "note": "ON 12/24 AND 12/31, THIS BOX MAY BE COLLECTED AS EARLY AS 12 NOON.", "ref": "7977700001"}, "type": "Feature"}
{"geometry": {"coordinates": [-103.119459, 31.530274], "type": "Point"}, "id": "oQF_tKYxyFB_A6_0zqjT8BV_ZHA=", "properties": {"@spider": "usps_collection_boxes", "addr:city": "PYOTE", "addr:country": "US", "addr:full": "211 N ROGERS", "addr:postcode": "79777", "addr:state": "TX", "brand": "USPS", "collection_times": "Mo-Fr 14:45; Sa 11:00", "name": "USPS COLLECTION BOX - PO LOBBY", "note": "ON 12/24 AND 12/31, THIS BOX MAY BE COLLECTED AS EARLY AS 12 NOON.", "ref": "7977700002"}, "type": "Feature"}
{"geometry": {"coordinates": [-103.12135237, 31.535254539], "type": "Point"}, "id": "IsT-1VES29lTJH_cjOQMHVdGSlY=", "properties": {"@spider": "usps_collection_boxes", "addr:city": "PYOTE", "addr:country": "US", "addr:full": "211 N ROGERS", "addr:postcode": "79777", "addr:state": "TX", "brand": "USPS", "collection_times": "Mo-Fr 15:00", "name": "USPS COLLECTION BOX - PO LOBBY", "note": "ON 12/24 AND 12/31, THIS BOX MAY BE COLLECTED AS EARLY AS 12 NOON.", "ref": "7977700004"}, "type": "Feature"}
{"geometry": {"coordinates": [-101.93796, 31.220183], "type": "Point"}, "id": "I8fhguGNMoqQSzvbXkFDXuydxxc=", "properties": {"@spider": "usps_collection_boxes", "addr:city": "RANKIN", "addr:country": "US", "addr:full": "819 S GRAND ST", "addr:postcode": "79778", "addr:state": "TX", "brand": "USPS", "collection_times": "Mo-Fr 15:30; Sa 10:45", "name": "USPS COLLECTION BOX - PO LOBBY", "note": "ON 12/24 AND 12/31, THIS BOX MAY BE COLLECTED AS EARLY AS 12 NOON.", "ref": "7977800001"}, "type": "Feature"}
{"geometry": {"coordinates": [-101.93796, 31.220183], "type": "Point"}, "id": "0AZqBV9bZ23-SWmQoq_iIqYUtwo=", "properties": {"@spider": "usps_collection_boxes", "addr:city": "RANKIN", "addr:country": "US", "addr:full": "819 S GRAND ST", "addr:postcode": "79778", "addr:state": "TX", "brand": "USPS", "collection_times": "Mo-Fr 15:30; Sa 10:45", "name": "USPS COLLECTION BOX - PO LOBBY", "note": "ON 12/24 AND 12/31, THIS BOX MAY BE COLLECTED AS EARLY AS 12 NOON.", "ref": "7977800002"}, "type": "Feature"}
{"geometry": {"coordinates": [-101.938030962, 31.2204832908], "type": "Point"}, "id": "PPXE9C-yDrDcCkKfaa705syH644=", "properties": {"@spider": "usps_collection_boxes", "addr:city": "RANKIN", "addr:country": "US", "addr:full": "819 S GRAND ST", "addr:postcode": "79778", "addr:state": "TX", "brand": "USPS", "collection_times": "Mo-Fr 15:30; Sa 10:45", "name": "USPS COLLECTION BOX - BLUE BOX", "note": "ON 12/24 AND 12/31, THIS BOX MAY BE COLLECTED AS EARLY AS 12 NOON.", "ref": "7977800004"}, "type": "Feature"}
{"geometry": {"coordinates": [-101.938030962, 31.220483291], "type": "Point"}, "id": "Q32dV7mP3q1cHsAUyKuREGjw8ac=", "properties": {"@spider": "usps_collection_boxes", "addr:city": "RANKIN", "addr:country": "US", "addr:full": "819 S GRAND ST", "addr:postcode": "79778", "addr:state": "TX", "brand": "USPS", "collection_times": "Mo-Fr 15:30", "name": "USPS COLLECTION BOX - PO LOBBY", "note": "ON 12/24 AND 12/31, THIS BOX MAY BE COLLECTED AS EARLY AS 12 NOON.", "ref": "7977800005"}, "type": "Feature"}
{"geometry": {"coordinates": [-103.659426653, 31.02353539], "type": "Point"}, "id": "rw9iF6fNtt2Q0Xia8cHzCZrs9EU=", "properties": {"@spider": "usps_collection_boxes", "addr:city": "SARAGOSA", "addr:country": "US", "addr:full": "200 W MAIN", "addr:postcode": "79780", "addr:state": "TX", "brand": "USPS", "collection_times": "Mo-Fr 14:00; Sa 11:30", "name": "USPS COLLECTION BOX - PO LOBBY", "note": "ON 12/24 AND 12/31, THIS BOX MAY BE COLLECTED AS EARLY AS 12 NOON.", "ref": "7978000001"}, "type": "Feature"}
{"geometry": {"coordinates": [-103.659426653, 31.02353539], "type": "Point"}, "id": "5NI8dYzrufhUmq0HbomDSGbufys=", "properties": {"@spider": "usps_collection_boxes", "addr:city": "SARAGOSA", "addr:country": "US", "addr:full": "200 W MAIN", "addr:postcode": "79780", "addr:state": "TX", "brand": "USPS", "collection_times": "Mo-Fr 14:00; Sa 11:30", "name": "USPS COLLECTION BOX - PO LOBBY", "note": "ON 12/24 AND 12/31, THIS BOX MAY BE COLLECTED AS EARLY AS 12 NOON.", "ref": "7978000002"}, "type": "Feature"}
{"geometry": {"coordinates": [-103.659426653, 31.02353539], "type": "Point"}, "id": "vl4eOYr0cKSn_231mVrUxKlKY68=", "properties": {"@spider": "usps_collection_boxes", "addr:city": "SARAGOSA", "addr:country": "US", "addr:full": "200 W MAIN", "addr:postcode": "79780", "addr:state": "TX", "brand": "USPS", "collection_times": "Mo-Fr 14:30; Sa 11:30", "name": "USPS COLLECTION BOX - PO LOBBY", "note": "ON 12/24 AND 12/31, THIS BOX MAY BE COLLECTED AS EARLY AS 12 NOON.", "ref": "7978000003"}, "type": "Feature"}
{"geometry": {"coordinates": [-101.82894, 30.691648], "type": "Point"}, "id": "6lXho9MInoqhvtS6Y4dMmznr5Kk=", "properties": {"@spider": "usps_collection_boxes", "addr:city": "SHEFFIELD", "addr:country": "US", "addr:full": "9580 HIGHWAY 290", "addr:postcode": "79781", "addr:state": "TX", "brand": "USPS", "collection_times": "Mo-Fr 12:30; Sa 11:00", "name": "USPS COLLECTION BOX - PO LOBBY", "note": "ON 12/24 AND 12/31, THIS BOX MAY BE COLLECTED AS EARLY AS 12 NOON.", "ref": "7978100001"}, "type": "Feature"}
{"geometry": {"coordinates": [-101.829329782, 30.692230864], "type": "Point"}, "id": "SeETCD6iL2ZjTU6j5lldbl_1164=", "properties": {"@spider": "usps_collection_boxes", "addr:city": "SHEFFIELD", "addr:country": "US", "addr:full": "9584 HIGHWAY 290", "addr:postcode": "79781", "addr:state": "TX", "brand": "USPS", "collection_times": "Mo-Fr 13:00; Sa 11:30", "name": "USPS COLLECTION BOX - PO LOBBY", "note": "ON 12/24 AND 12/31, THIS BOX MAY BE COLLECTED AS EARLY AS 12 NOON.", "ref": "7978100004"}, "type": "Feature"}
{"geometry": {"coordinates": [-101.951770937, 32.164248947], "type": "Point"}, "id": "QCZYrCIeUkefzbkq1CoFAZkw90E=", "properties": {"@spider": "usps_collection_boxes", "addr:city": "STANTON", "addr:country": "US", "addr:full": "216 W BUSINESS 20 LOOP", "addr:postcode": "79782", "addr:state": "TX", "brand": "USPS", "collection_times": "Mo-Fr 15:00; Sa 13:00", "name": "USPS COLLECTION BOX - BLUE BOX", "note": "ON 12/24 AND 12/31, THIS BOX MAY BE COLLECTED AS EARLY AS 12 NOON.", "ref": "7978200000"}, "type": "Feature"}
{"geometry": {"coordinates": [-101.78847, 32.129657], "type": "Point"}, "id": "_OeDKel_CmaVL1VPMyUzSPQA7p4=", "properties": {"@spider": "usps_collection_boxes", "addr:city": "STANTON", "addr:country": "US", "addr:full": "101 N SAINT MARY", "addr:postcode": "79782", "addr:state": "TX", "brand": "USPS", "collection_times": "Mo-Fr 16:15; Sa 12:15", "name": "USPS COLLECTION BOX - BLUE BOX", "note": "ON 12/24 AND 12/31, THIS BOX MAY BE COLLECTED AS EARLY AS 12 NOON.", "ref": "7978200001"}, "type": "Feature"}
{"geometry": {"coordinates": [-101.78847, 32.129657], "type": "Point"}, "id": "Nenvo3MHSuTH2SOwnf5FEe__BQ4=", "properties": {"@spider": "usps_collection_boxes", "addr:city": "STANTON", "addr:country": "US", "addr:full": "101 N SAINT MARY", "addr:postcode": "79782", "addr:state": "TX", "brand": "USPS", "collection_times": "Mo-Fr 16:15; Sa 12:15", "name": "USPS COLLECTION BOX - BLUE BOX", "note": "ON 12/24 AND 12/31, THIS BOX MAY BE COLLECTED AS EARLY AS 12 NOON.", "ref": "7978200002"}, "type": "Feature"}
{"geometry": {"coordinates": [-101.78847, 32.129657], "type": "Point"}, "id": "zbf4vT2k87UW5ppUFc39mpT2kRo=", "properties": {"@spider": "usps_collection_boxes", "addr:city": "STANTON", "addr:country": "US", "addr:full": "101 N SAINT MARY", "addr:postcode": "79782", "addr:state": "TX", "brand": "USPS", "collection_times": "Mo-Fr 15:30; Sa 09:45", "name": "USPS COLLECTION BOX - PO LOBBY", "note": "ON 12/24 AND 12/31, THIS BOX MAY BE COLLECTED AS EARLY AS 12 NOON.", "ref": "7978200003"}, "type": "Feature"}
{"geometry": {"coordinates": [-101.78847, 32.129657], "type": "Point"}, "id": "3beYIA774rsQ-eW8iV9c870My8Y=", "properties": {"@spider": "usps_collection_boxes", "addr:city": "STANTON", "addr:country": "US", "addr:full": "101 N SAINT MARY", "addr:postcode": "79782", "addr:state": "TX", "brand": "USPS", "collection_times": "Mo-Fr 15:30; Sa 09:45", "name": "USPS COLLECTION BOX - PO LOBBY", "note": "ON 12/24 AND 12/31, THIS BOX MAY BE COLLECTED AS EARLY AS 12 NOON.", "ref": "7978200004"}, "type": "Feature"}
{"geometry": {"coordinates": [-101.8015876658, 32.1388171726], "type": "Point"}, "id": "rd0tfD9Jd7Ep6HtPxdtHYM_Xxnw=", "properties": {"@spider": "usps_collection_boxes", "addr:city": "STANTON", "addr:country": "US", "addr:full": "3414 INTERSTATE 20", "addr:postcode": "79782", "addr:state": "TX", "brand": "USPS", "collection_times": "Mo-Fr 14:45", "name": "USPS COLLECTION BOX - BLUE BOX", "note": "ON 12/24 AND 12/31, THIS BOX MAY BE COLLECTED AS EARLY AS 12 NOON.", "ref": "7978200005"}, "type": "Feature"}
{"geometry": {"coordinates": [-101.788540884, 32.129584169], "type": "Point"}, "id": "ANGZ5yo1T8y60lqErqF1PrXpyqo=", "properties": {"@spider": "usps_collection_boxes", "addr:city": "STANTON", "addr:country": "US", "addr:full": "101 N SAINT MARY", "addr:postcode": "79782", "addr:state": "TX", "brand": "USPS", "collection_times": "Mo-Fr 16:00", "name": "USPS COLLECTION BOX - PO LOBBY", "note": "ON 12/24 AND 12/31, THIS BOX MAY BE COLLECTED AS EARLY AS 12 NOON.", "ref": "7978200007"}, "type": "Feature"}
{"geometry": {"coordinates": [-101.989917, 32.306286], "type": "Point"}, "id": "BInfR-W-oE8MaIWxP-y7kyVlX8I=", "properties": {"@spider": "usps_collection_boxes", "addr:city": "TARZAN", "addr:country": "US", "addr:full": "2764 STATE HIGHWAY 176", "addr:postcode": "79783", "addr:state": "TX", "brand": "USPS", "collection_times": "Mo-Sa 12:45", "name": "USPS COLLECTION BOX - PO LOBBY", "note": "ON 12/24 AND 12/31, THIS BOX MAY BE COLLECTED AS EARLY AS 12 NOON.", "ref": "7978300000"}, "type": "Feature"}
{"geometry": {"coordinates": [-101.989917, 32.306286], "type": "Point"}, "id": "VSNfROj2kW13VcBW_XPymELTugU=", "properties": {"@spider": "usps_collection_boxes", "addr:city": "TARZAN", "addr:country": "US", "addr:full": "2764 STATE HIGHWAY 176", "addr:postcode": "79783", "addr:state": "TX", "brand": "USPS", "collection_times": "Mo-Sa 12:45", "name": "USPS COLLECTION BOX - BLUE BOX", "note": "ON 12/24 AND 12/31, THIS BOX MAY BE COLLECTED AS EARLY AS 12 NOON.", "ref": "7978300001"}, "type": "Feature"}
{"geometry": {"coordinates": [-101.973489568, 32.30509593], "type": "Point"}, "id": "VnzkQTIitIpPyJ7_sbWENaJNFv0=", "properties": {"@spider": "usps_collection_boxes", "addr:city": "TARZAN", "addr:country": "US", "addr:full": "2764 STATE HIGHWAY 176", "addr:postcode": "79783", "addr:state": "TX", "brand": "USPS", "collection_times": "Mo-Sa 12:45", "name": "USPS COLLECTION BOX - PO LOBBY", "note": "ON 12/24 AND 12/31, THIS BOX MAY BE COLLECTED AS EARLY AS 12 NOON.", "ref": "7978300002"}, "type": "Feature"}
{"geometry": {"coordinates": [-103.7849455949, 31.3141057967], "type": "Point"}, "id": "6I1aR_eU6El9KaXv0JxgvlWuBzw=", "properties": {"@spider": "usps_collection_boxes", "addr:city": "TOYAH", "addr:country": "US", "addr:full": "1984 W FRONTAGE I 20", "addr:postcode": "79785", "addr:state": "TX", "brand": "USPS", "collection_times": "Mo-Sa 15:45", "name": "USPS COLLECTION BOX - BLUE BOX", "note": "ON 12/24 AND 12/31, THIS BOX MAY BE COLLECTED AS EARLY AS 12 NOON.", "ref": "7978500000"}, "type": "Feature"}
{"geometry": {"coordinates": [-103.786096, 31.313237], "type": "Point"}, "id": "SDla_J7wBjxxffc6gitfAusVa00=", "properties": {"@spider": "usps_collection_boxes", "addr:city": "TOYAH", "addr:country": "US", "addr:full": "1984 W FRONTAGE I 20", "addr:postcode": "79785", "addr:state": "TX", "brand": "USPS", "collection_times": "Mo-Fr 12:45; Sa 11:15", "name": "USPS COLLECTION BOX - PO LOBBY", "note": "ON 12/24 AND 12/31, THIS BOX MAY BE COLLECTED AS EARLY AS 12 NOON.", "ref": "7978500001"}, "type": "Feature"}
{"geometry": {"coordinates": [-103.786096, 31.313237], "type": "Point"}, "id": "PFucKGcUV_MpYtHCKNdczqqiqKc=", "properties": {"@spider": "usps_collection_boxes", "addr:city": "TOYAH", "addr:country": "US", "addr:full": "1984 W FRONTAGE I 20", "addr:postcode": "79785", "addr:state": "TX", "brand": "USPS", "collection_times": "Mo-Fr 12:45; Sa 11:15", "name": "USPS COLLECTION BOX - PO LOBBY", "note": "ON 12/24 AND 12/31, THIS BOX MAY BE COLLECTED AS EARLY AS 12 NOON.", "ref": "7978500002"}, "type": "Feature"}
{"geometry": {"coordinates": [-103.784945595, 31.314105797], "type": "Point"}, "id": "FI_vBj0RNryDR-jxLjlD8pTjRMo=", "properties": {"@spider": "usps_collection_boxes", "addr:city": "TOYAH", "addr:country": "US", "addr:full": "1984 W FRONTAGE I 20", "addr:postcode": "79785", "addr:state": "TX", "brand": "USPS", "collection_times": "Mo-Sa 13:00", "name": "USPS COLLECTION BOX - PO LOBBY", "note": "ON 12/24 AND 12/31, THIS BOX MAY BE COLLECTED AS EARLY AS 12 NOON.", "ref": "7978500003"}, "type": "Feature"}
{"geometry": {"coordinates": [-103.000712, 31.56933], "type": "Point"}, "id": "TVCOwUAv7roOZDS7Bw-BobyhAZk=", "properties": {"@spider": "usps_collection_boxes", "addr:city": "WICKETT", "addr:country": "US", "addr:full": "300 OBRIEN ST", "addr:postcode": "79788", "addr:state": "TX", "brand": "USPS", "collection_times": "Mo-Fr 11:45", "name": "USPS COLLECTION BOX - BLUE BOX", "ref": "7978800000"}, "type": "Feature"}
{"geometry": {"coordinates": [-103.000649, 31.569253], "type": "Point"}, "id": "2X3DJg6lXgeKyLAVdlgc3bcjSZs=", "properties": {"@spider": "usps_collection_boxes", "addr:city": "WICKETT", "addr:country": "US", "addr:full": "300 OBRIEN ST", "addr:postcode": "79788", "addr:state": "TX", "brand": "USPS", "collection_times": "Mo-Fr 11:45; Sa 09:00", "name": "USPS COLLECTION BOX - PO LOBBY", "ref": "7978800001"}, "type": "Feature"}
{"geometry": {"coordinates": [-103.000649, 31.569253], "type": "Point"}, "id": "62V8ZevJ8SWkvAt2od9NLtR5lLw=", "properties": {"@spider": "usps_collection_boxes", "addr:city": "WICKETT", "addr:country": "US", "addr:full": "300 OBRIEN ST", "addr:postcode": "79788", "addr:state": "TX", "brand": "USPS", "collection_times": "Mo-Fr 11:45; Sa 09:00", "name": "USPS COLLECTION BOX - PO LOBBY", "ref": "7978800002"}, "type": "Feature"}
{"geometry": {"coordinates": [-103.000649, 31.569253], "type": "Point"}, "id": "5Jvqw1Q4OMjl4xZnmRUyOYjyAHE=", "properties": {"@spider": "usps_collection_boxes", "addr:city": "WICKETT", "addr:country": "US", "addr:full": "300 OBRIEN ST", "addr:postcode": "79788", "addr:state": "TX", "brand": "USPS", "collection_times": "Mo-Fr 11:45; Sa 09:00", "name": "USPS COLLECTION BOX - PO LOBBY", "ref": "7978800003"}, "type": "Feature"}
{"geometry": {"coordinates": [-103.000749793, 31.569402531], "type": "Point"}, "id": "CJ-ASlnLgUGtUotCADMoK5WvM0o=", "properties": {"@spider": "usps_collection_boxes", "addr:city": "WICKETT", "addr:country": "US", "addr:full": "300 OBRIEN ST", "addr:postcode": "79788", "addr:state": "TX", "brand": "USPS", "collection_times": "Mo-Fr 12:00", "name": "USPS COLLECTION BOX - PO LOBBY", "ref": "7978800005"}, "type": "Feature"}
{"geometry": {"coordinates": [-103.157216029, 31.7554527707], "type": "Point"}, "id": "B3kjfgx5SDpg7KYdlZ2BFZ9BXH0=", "properties": {"@spider": "usps_collection_boxes", "addr:city": "WINK", "addr:country": "US", "addr:full": "210 E HENDRICKS BLVD", "addr:postcode": "79789", "addr:state": "TX", "brand": "USPS", "collection_times": "Mo-Fr 16:00; Sa 09:00", "name": "USPS COLLECTION BOX - BLUE BOX", "note": "ON 12/24 AND 12/31, THIS BOX MAY BE COLLECTED AS EARLY AS 12 NOON.", "ref": "7978900000"}, "type": "Feature"}
{"geometry": {"coordinates": [-103.159829, 31.751744], "type": "Point"}, "id": "cnwRp22AsaQfqTTtyp-3t-OTUH4=", "properties": {"@spider": "usps_collection_boxes", "addr:city": "WINK", "addr:country": "US", "addr:full": "210 E HENDRICKS BLVD", "addr:postcode": "79789", "addr:state": "TX", "brand": "USPS", "collection_times": "Mo-Fr 16:00; Sa 09:00", "name": "USPS COLLECTION BOX - PO LOBBY", "note": "ON 12/24 AND 12/31, THIS BOX MAY BE COLLECTED AS EARLY AS 12 NOON.", "ref": "7978900001"}, "type": "Feature"}
{"geometry": {"coordinates": [-103.157216029, 31.755452771], "type": "Point"}, "id": "3zc4dBWBIXT8VOIFet47R8p2IRk=", "properties": {"@spider": "usps_collection_boxes", "addr:city": "WINK", "addr:country": "US", "addr:full": "210 E HENDRICKS BLVD", "addr:postcode": "79789", "addr:state": "TX", "brand": "USPS", "collection_times": "Mo-Fr 16:00", "name": "USPS COLLECTION BOX - PO LOBBY", "note": "ON 12/24 AND 12/31, THIS BOX MAY BE COLLECTED AS EARLY AS 12 NOON.", "ref": "7978900004"}, "type": "Feature"}
