{"dataset_attributes": {"@spider": "usps_collection_boxes"}, "geometry": {"coordinates": [-103.123356433, 29.503915315], "type": "Point"}, "id": "HrKkePK1HtmZKbe-P5hdeqFlLlo=", "properties": {"@spider": "usps_collection_boxes", "addr:city": "BIG BEND NATL PK", "addr:country": "US", "addr:full": "1 HWY 385 PANTHER JCT", "addr:postcode": "79834", "addr:state": "TX", "amenity": "post_box", "brand": "United States Postal Service", "brand:wikidata": "Q668687", "collection_times": "Mo-Sa 12:30", "name": "USPS COLLECTION BOX - BLUE BOX", "note": "ON 12/24 AND 12/31, THIS BOX MAY BE COLLECTED AS EARLY AS 12 NOON.", "nsi_id": "unitedstatespostalservice-a77078", "operator": "United States Postal Service", "operator:short": "USPS", "operator:type": "public", "operator:wikidata": "Q668687", "ref": "7983400001"}, "type": "Feature"}
{"dataset_attributes": {"@spider": "usps_collection_boxes"}, "geometry": {"coordinates": [-103.123356433, 29.503915315], "type": "Point"}, "id": "76HHXLMY2BCsm6468ieK5_tA2-M=", "properties": {"@spider": "usps_collection_boxes", "addr:city": "BIG BEND NATL PK", "addr:country": "US", "addr:full": "1 HWY 385 PANTHER JCT", "addr:postcode": "79834", "addr:state": "TX", "amenity": "post_box", "brand": "United States Postal Service", "brand:wikidata": "Q668687", "collection_times": "Mo-Fr 12:30", "name": "USPS COLLECTION BOX - PO LOBBY", "note": "ON 12/24 AND 12/31, THIS BOX MAY BE COLLECTED AS EARLY AS 12 NOON.", "nsi_id": "unitedstatespostalservice-a77078", "operator": "United States Postal Service", "operator:short": "USPS", "operator:type": "public", "operator:wikidata": "Q668687", "ref": "7983400003"}, "type": "Feature"}
{"dataset_attributes": {"@spider": "usps_collection_boxes"}, "geometry": {"coordinates": [-103.670361523, 29.31114466], "type": "Point"}, "id": "8zyyfUVVH-F-cg_En8YJzJNZ1EQ=", "properties": {"@spider": "usps_collection_boxes", "addr:city": "TERLINGUA", "addr:country": "US", "addr:full": "2 STATE HWY 170", "addr:postcode": "79852", "addr:state": "TX", "amenity": "post_box", "brand": "United States Postal Service", "brand:wikidata": "Q668687", "collection_times": "Mo-Fr 13:15", "name": "USPS COLLECTION BOX - BLUE BOX", "note": "ON 12/24 AND 12/31, THIS BOX MAY BE COLLECTED AS EARLY AS 12 NOON.", "nsi_id": "unitedstatespostalservice-a77078", "operator": "United States Postal Service", "operator:short": "USPS", "operator:type": "public", "operator:wikidata": "Q668687", "ref": "7985200000"}, "type": "Feature"}
{"dataset_attributes": {"@spider": "usps_collection_boxes"}, "geometry": {"coordinates": [-103.522919972, 29.368683541], "type": "Point"}, "id": "4JBvv-IsYa7v8EvgsLhYUHGq-Ho=", "properties": {"@spider": "usps_collection_boxes", "addr:city": "TERLINGUA", "addr:country": "US", "addr:full": "53600 TX HIGHWAY 118", "addr:postcode": "79852", "addr:state": "TX", "amenity": "post_box", "brand": "United States Postal Service", "brand:wikidata": "Q668687", "collection_times": "Mo-Sa 11:00", "name": "USPS COLLECTION BOX - PO LOBBY", "nsi_id": "unitedstatespostalservice-a77078", "operator": "United States Postal Service", "operator:short": "USPS", "operator:type": "public", "operator:wikidata": "Q668687", "ref": "7985200002"}, "type": "Feature"}
{"dataset_attributes": {"@spider": "usps_collection_boxes"}, "geometry": {"coordinates": [-103.522919972, 29.368683541], "type": "Point"}, "id": "H1ABoK8j11c_QNGRFy2GWfUIJcE=", "properties": {"@spider": "usps_collection_boxes", "addr:city": "TERLINGUA", "addr:country": "US", "addr:full": "53600 TX HIGHWAY 118", "addr:postcode": "79852", "addr:state": "TX", "amenity": "post_box", "brand": "United States Postal Service", "brand:wikidata": "Q668687", "collection_times": "Mo-Sa 11:00", "name": "USPS COLLECTION BOX - BLUE BOX", "nsi_id": "unitedstatespostalservice-a77078", "operator": "United States Postal Service", "operator:short": "USPS", "operator:type": "public", "operator:wikidata": "Q668687", "ref": "7985200003"}, "type": "Feature"}
