{"dataset_attributes": {"@spider": "usps_collection_boxes", "spider:collection_time": "2023-12-16T08:23:48.880691"}, "geometry": {"coordinates": [-106.489435, 31.761862], "type": "Point"}, "id": "gpze_GjwDb77E0rx2xWTn-k_Ui4=", "properties": {"@spider": "usps_collection_boxes", "addr:city": "EL PASO", "addr:country": "US", "addr:full": "500 N MESA ST", "addr:postcode": "79901", "addr:state": "TX", "amenity": "post_box", "brand": "United States Postal Service", "brand:wikidata": "Q668687", "collection_times": "Mo-Fr 14:30; Sa 13:15", "name": "USPS COLLECTION BOX - BLUE BOX", "note": "ON 12/24 AND 12/31, THIS BOX MAY BE COLLECTED AS EARLY AS 12 NOON.", "nsi_id": "unitedstatespostalservice-a77078", "operator": "United States Postal Service", "operator:short": "USPS", "operator:type": "public", "operator:wikidata": "Q668687", "ref": "7990100014"}, "type": "Feature"}
{"dataset_attributes": {"@spider": "usps_collection_boxes", "spider:collection_time": "2023-12-16T08:23:48.880691"}, "geometry": {"coordinates": [-106.487633, 31.759672], "type": "Point"}, "id": "JdstPc8Ct91wxSA5mX6OQCV95nU=", "properties": {"@spider": "usps_collection_boxes", "addr:city": "EL PASO", "addr:country": "US", "addr:full": "219 E MILLS ST", "addr:postcode": "79901", "addr:state": "TX", "amenity": "post_box", "brand": "United States Postal Service", "brand:wikidata": "Q668687", "collection_times": "Mo-Fr 17:15; Sa 14:00", "name": "USPS COLLECTION BOX - PO LOBBY", "note": "ON 12/24 AND 12/31, THIS BOX MAY BE COLLECTED AS EARLY AS 12 NOON.", "nsi_id": "unitedstatespostalservice-a77078", "operator": "United States Postal Service", "operator:short": "USPS", "operator:type": "public", "operator:wikidata": "Q668687", "ref": "7990100020"}, "type": "Feature"}
{"dataset_attributes": {"@spider": "usps_collection_boxes", "spider:collection_time": "2023-12-16T08:23:48.880691"}, "geometry": {"coordinates": [-106.484535, 31.757923], "type": "Point"}, "id": "MxytYYwCNa1fG2c78dDOABRcFDE=", "properties": {"@spider": "usps_collection_boxes", "addr:city": "EL PASO", "addr:country": "US", "addr:full": "500 E OVERLAND AVE", "addr:postcode": "79901", "addr:state": "TX", "amenity": "post_box", "brand": "United States Postal Service", "brand:wikidata": "Q668687", "collection_times": "Mo-Fr 13:35; Sa 14:10", "name": "USPS COLLECTION BOX - BLUE BOX", "note": "ON 12/24 AND 12/31, THIS BOX MAY BE COLLECTED AS EARLY AS 12 NOON.", "nsi_id": "unitedstatespostalservice-a77078", "operator": "United States Postal Service", "operator:short": "USPS", "operator:type": "public", "operator:wikidata": "Q668687", "ref": "7990100029"}, "type": "Feature"}
{"dataset_attributes": {"@spider": "usps_collection_boxes", "spider:collection_time": "2023-12-16T08:23:48.880691"}, "geometry": {"coordinates": [-106.488069, 31.758457], "type": "Point"}, "id": "aRVOb3BiQTiBl-lscUnPfJdYRos=", "properties": {"@spider": "usps_collection_boxes", "addr:city": "EL PASO", "addr:country": "US", "addr:full": "109 N OREGON ST", "addr:postcode": "79901", "addr:state": "TX", "amenity": "post_box", "brand": "United States Postal Service", "brand:wikidata": "Q668687", "collection_times": "Mo-Fr 14:55; Sa 13:40", "name": "USPS COLLECTION BOX - BLUE BOX", "note": "ON 12/24 AND 12/31, THIS BOX MAY BE COLLECTED AS EARLY AS 12 NOON.", "nsi_id": "unitedstatespostalservice-a77078", "operator": "United States Postal Service", "operator:short": "USPS", "operator:type": "public", "operator:wikidata": "Q668687", "ref": "7990100122"}, "type": "Feature"}
{"dataset_attributes": {"@spider": "usps_collection_boxes", "spider:collection_time": "2023-12-16T08:23:48.880691"}, "geometry": {"coordinates": [-106.487049, 31.762808], "type": "Point"}, "id": "NwhoAuu1XKjUlIZ2nwa5gRqXBq8=", "properties": {"@spider": "usps_collection_boxes", "addr:city": "EL PASO", "addr:country": "US", "addr:full": "401 E FRANKLIN AVE", "addr:postcode": "79901", "addr:state": "TX", "amenity": "post_box", "brand": "United States Postal Service", "brand:wikidata": "Q668687", "collection_times": "Mo-Fr 14:25", "name": "USPS COLLECTION BOX - BLUE BOX", "note": "ON 12/24 AND 12/31, THIS BOX MAY BE COLLECTED AS EARLY AS 12 NOON.", "nsi_id": "unitedstatespostalservice-a77078", "operator": "United States Postal Service", "operator:short": "USPS", "operator:type": "public", "operator:wikidata": "Q668687", "ref": "7990100123"}, "type": "Feature"}
{"dataset_attributes": {"@spider": "usps_collection_boxes", "spider:collection_time": "2023-12-16T08:23:48.880691"}, "geometry": {"coordinates": [-106.4872191092, 31.7599380605], "type": "Point"}, "id": "X2eXECO3OMNWVMIoe3Z9meicHs4=", "properties": {"@spider": "usps_collection_boxes", "addr:city": "EL PASO", "addr:country": "US", "addr:full": "219 E MILLS", "addr:postcode": "79901", "addr:state": "TX", "amenity": "post_box", "brand": "United States Postal Service", "brand:wikidata": "Q668687", "collection_times": "Mo-Fr 17:00; Sa 14:30", "name": "USPS COLLECTION BOX - BLUE BOX", "note": "ON 12/24 AND 12/31, THIS BOX MAY BE COLLECTED AS EARLY AS 12 NOON.", "nsi_id": "unitedstatespostalservice-a77078", "operator": "United States Postal Service", "operator:short": "USPS", "operator:type": "public", "operator:wikidata": "Q668687", "ref": "7990100126"}, "type": "Feature"}
{"dataset_attributes": {"@spider": "usps_collection_boxes", "spider:collection_time": "2023-12-16T08:23:48.880691"}, "geometry": {"coordinates": [-106.487219109, 31.759938061], "type": "Point"}, "id": "jkLA1w5CCdEHBLYn84JiEDg7bTQ=", "properties": {"@spider": "usps_collection_boxes", "addr:city": "EL PASO", "addr:country": "US", "addr:full": "219 E MILLS", "addr:postcode": "79901", "addr:state": "TX", "amenity": "post_box", "brand": "United States Postal Service", "brand:wikidata": "Q668687", "collection_times": "Mo-Fr 17:00; Sa 14:30", "name": "USPS COLLECTION BOX - BLUE BOX", "note": "ON 12/24 AND 12/31, THIS BOX MAY BE COLLECTED AS EARLY AS 12 NOON.", "nsi_id": "unitedstatespostalservice-a77078", "operator": "United States Postal Service", "operator:short": "USPS", "operator:type": "public", "operator:wikidata": "Q668687", "ref": "7990100127"}, "type": "Feature"}
{"dataset_attributes": {"@spider": "usps_collection_boxes", "spider:collection_time": "2023-12-16T08:23:48.880691"}, "geometry": {"coordinates": [-106.4872191092, 31.7599380605], "type": "Point"}, "id": "VdVC8wAtDrRIo4tWAm4tlEvWfjw=", "properties": {"@spider": "usps_collection_boxes", "addr:city": "EL PASO", "addr:country": "US", "addr:full": "219 E MILLS AVE", "addr:postcode": "79901", "addr:state": "TX", "amenity": "post_box", "brand": "United States Postal Service", "brand:wikidata": "Q668687", "collection_times": "Mo-Fr 17:00; Sa 12:00", "name": "USPS COLLECTION BOX - PO LOBBY", "note": "ON 12/24 AND 12/31, THIS BOX MAY BE COLLECTED AS EARLY AS 12 NOON.", "nsi_id": "unitedstatespostalservice-a77078", "operator": "United States Postal Service", "operator:short": "USPS", "operator:type": "public", "operator:wikidata": "Q668687", "ref": "7990100129"}, "type": "Feature"}
{"dataset_attributes": {"@spider": "usps_collection_boxes", "spider:collection_time": "2023-12-16T08:23:48.880691"}, "geometry": {"coordinates": [-106.485314, 31.776567], "type": "Point"}, "id": "21uawRztP_rbb_46YBc5Kwk9Ssk=", "properties": {"@spider": "usps_collection_boxes", "addr:city": "EL PASO", "addr:country": "US", "addr:full": "1250 E CLIFF DR", "addr:postcode": "79902", "addr:state": "TX", "amenity": "post_box", "brand": "United States Postal Service", "brand:wikidata": "Q668687", "collection_times": "Mo-Fr 15:10; Sa 13:55", "name": "USPS COLLECTION BOX - BLUE BOX", "note": "ON 12/24 AND 12/31, THIS BOX MAY BE COLLECTED AS EARLY AS 12 NOON.", "nsi_id": "unitedstatespostalservice-a77078", "operator": "United States Postal Service", "operator:short": "USPS", "operator:type": "public", "operator:wikidata": "Q668687", "ref": "7990200003"}, "type": "Feature"}
{"dataset_attributes": {"@spider": "usps_collection_boxes", "spider:collection_time": "2023-12-16T08:23:48.880691"}, "geometry": {"coordinates": [-106.478861, 31.779505], "type": "Point"}, "id": "pjoCFlWw6ZP-p276LxuzsD1n-UU=", "properties": {"@spider": "usps_collection_boxes", "addr:city": "EL PASO", "addr:country": "US", "addr:full": "1733 CURIE DR", "addr:postcode": "79902", "addr:state": "TX", "amenity": "post_box", "brand": "United States Postal Service", "brand:wikidata": "Q668687", "collection_times": "Mo-Fr 14:55", "name": "USPS COLLECTION BOX - BLUE BOX", "note": "ON 12/24 AND 12/31, THIS BOX MAY BE COLLECTED AS EARLY AS 12 NOON.", "nsi_id": "unitedstatespostalservice-a77078", "operator": "United States Postal Service", "operator:short": "USPS", "operator:type": "public", "operator:wikidata": "Q668687", "ref": "7990200006"}, "type": "Feature"}
{"dataset_attributes": {"@spider": "usps_collection_boxes", "spider:collection_time": "2023-12-16T08:23:48.880691"}, "geometry": {"coordinates": [-106.480836, 31.778231], "type": "Point"}, "id": "o6O19dgAfCVH0Fq-3TnJ5uv2eZY=", "properties": {"@spider": "usps_collection_boxes", "addr:city": "EL PASO", "addr:country": "US", "addr:full": "1625 MEDICAL CENTER DR", "addr:postcode": "79902", "addr:state": "TX", "amenity": "post_box", "brand": "United States Postal Service", "brand:wikidata": "Q668687", "collection_times": "Mo-Fr 15:05; Sa 13:50", "name": "USPS COLLECTION BOX - BLUE BOX", "note": "ON 12/24 AND 12/31, THIS BOX MAY BE COLLECTED AS EARLY AS 12 NOON.", "nsi_id": "unitedstatespostalservice-a77078", "operator": "United States Postal Service", "operator:short": "USPS", "operator:type": "public", "operator:wikidata": "Q668687", "ref": "7990200011"}, "type": "Feature"}
{"dataset_attributes": {"@spider": "usps_collection_boxes", "spider:collection_time": "2023-12-16T08:23:48.880691"}, "geometry": {"coordinates": [-106.501831, 31.774135], "type": "Point"}, "id": "ww5I3RfVNgw5ocVPKSLDYKc4bCQ=", "properties": {"@spider": "usps_collection_boxes", "addr:city": "EL PASO", "addr:country": "US", "addr:full": "2311 N MESA ST", "addr:postcode": "79902", "addr:state": "TX", "amenity": "post_box", "brand": "United States Postal Service", "brand:wikidata": "Q668687", "collection_times": "Mo-Fr 13:10; Sa 14:30", "name": "USPS COLLECTION BOX - BLUE BOX", "note": "ON 12/24 AND 12/31, THIS BOX MAY BE COLLECTED AS EARLY AS 12 NOON.", "nsi_id": "unitedstatespostalservice-a77078", "operator": "United States Postal Service", "operator:short": "USPS", "operator:type": "public", "operator:wikidata": "Q668687", "ref": "7990200015"}, "type": "Feature"}
{"dataset_attributes": {"@spider": "usps_collection_boxes", "spider:collection_time": "2023-12-16T08:23:48.880691"}, "geometry": {"coordinates": [-106.480024, 31.771528], "type": "Point"}, "id": "6RTNUZEN5eGK0D674rwOagEHYeI=", "properties": {"@spider": "usps_collection_boxes", "addr:city": "EL PASO", "addr:country": "US", "addr:full": "1401 MONTANA AVE", "addr:postcode": "79902", "addr:state": "TX", "amenity": "post_box", "brand": "United States Postal Service", "brand:wikidata": "Q668687", "collection_times": "Mo-Sa 13:30", "name": "USPS COLLECTION BOX - BLUE BOX", "note": "ON 12/24 AND 12/31, THIS BOX MAY BE COLLECTED AS EARLY AS 12 NOON.", "nsi_id": "unitedstatespostalservice-a77078", "operator": "United States Postal Service", "operator:short": "USPS", "operator:type": "public", "operator:wikidata": "Q668687", "ref": "7990200031"}, "type": "Feature"}
{"dataset_attributes": {"@spider": "usps_collection_boxes", "spider:collection_time": "2023-12-16T08:23:48.880691"}, "geometry": {"coordinates": [-106.479032, 31.780045], "type": "Point"}, "id": "Z7Oj0wXejLSAPkOSIsVrXBdJv0I=", "properties": {"@spider": "usps_collection_boxes", "addr:city": "EL PASO", "addr:country": "US", "addr:full": "1700 MURCHISON DR", "addr:postcode": "79902", "addr:state": "TX", "amenity": "post_box", "brand": "United States Postal Service", "brand:wikidata": "Q668687", "collection_times": "Mo-Fr 15:00", "name": "USPS COLLECTION BOX - BLUE BOX", "note": "ON 12/24 AND 12/31, THIS BOX MAY BE COLLECTED AS EARLY AS 12 NOON.", "nsi_id": "unitedstatespostalservice-a77078", "operator": "United States Postal Service", "operator:short": "USPS", "operator:type": "public", "operator:wikidata": "Q668687", "ref": "7990200038"}, "type": "Feature"}
{"dataset_attributes": {"@spider": "usps_collection_boxes", "spider:collection_time": "2023-12-16T08:23:48.880691"}, "geometry": {"coordinates": [-106.498044, 31.769915], "type": "Point"}, "id": "pceHOeKr98G3rCEzEI1MrKALGNk=", "properties": {"@spider": "usps_collection_boxes", "addr:city": "EL PASO", "addr:country": "US", "addr:full": "1700 N OREGON ST", "addr:postcode": "79902", "addr:state": "TX", "amenity": "post_box", "brand": "United States Postal Service", "brand:wikidata": "Q668687", "collection_times": "Mo-Fr 15:15", "name": "USPS COLLECTION BOX - BLUE BOX", "note": "ON 12/24 AND 12/31, THIS BOX MAY BE COLLECTED AS EARLY AS 12 NOON.", "nsi_id": "unitedstatespostalservice-a77078", "operator": "United States Postal Service", "operator:short": "USPS", "operator:type": "public", "operator:wikidata": "Q668687", "ref": "7990200043"}, "type": "Feature"}
{"dataset_attributes": {"@spider": "usps_collection_boxes", "spider:collection_time": "2023-12-16T08:23:48.880691"}, "geometry": {"coordinates": [-106.49418, 31.769075], "type": "Point"}, "id": "scjUmuzmkkIUjrWKgSGX3whNslM=", "properties": {"@spider": "usps_collection_boxes", "addr:city": "EL PASO", "addr:country": "US", "addr:full": "4141 PINNACLE ST", "addr:postcode": "79902", "addr:state": "TX", "amenity": "post_box", "brand": "United States Postal Service", "brand:wikidata": "Q668687", "collection_times": "Mo-Fr 16:00; Sa 15:45", "name": "USPS COLLECTION BOX - BLUE BOX", "note": "ON 12/24 AND 12/31, THIS BOX MAY BE COLLECTED AS EARLY AS 12 NOON.", "nsi_id": "unitedstatespostalservice-a77078", "operator": "United States Postal Service", "operator:short": "USPS", "operator:type": "public", "operator:wikidata": "Q668687", "ref": "7990200055"}, "type": "Feature"}
{"dataset_attributes": {"@spider": "usps_collection_boxes", "spider:collection_time": "2023-12-16T08:23:48.880691"}, "geometry": {"coordinates": [-106.515151, 31.794162], "type": "Point"}, "id": "HyKJ9zCkvw-LgRKWCrUOBtsTBjQ=", "properties": {"@spider": "usps_collection_boxes", "addr:city": "EL PASO", "addr:country": "US", "addr:full": "4141 PINNACLE ST", "addr:postcode": "79902", "addr:state": "TX", "amenity": "post_box", "brand": "United States Postal Service", "brand:wikidata": "Q668687", "collection_times": "Mo-Fr 16:00; Sa 15:45", "name": "USPS COLLECTION BOX - BLUE BOX", "note": "ON 12/24 AND 12/31, THIS BOX MAY BE COLLECTED AS EARLY AS 12 NOON.", "nsi_id": "unitedstatespostalservice-a77078", "operator": "United States Postal Service", "operator:short": "USPS", "operator:type": "public", "operator:wikidata": "Q668687", "ref": "7990200056"}, "type": "Feature"}
{"dataset_attributes": {"@spider": "usps_collection_boxes", "spider:collection_time": "2023-12-16T08:23:48.880691"}, "geometry": {"coordinates": [-106.515162, 31.794143], "type": "Point"}, "id": "XLIGhQL7CybBYW7sde-6rjmIIoo=", "properties": {"@spider": "usps_collection_boxes", "addr:city": "EL PASO", "addr:country": "US", "addr:full": "4141 PINNACLE ST", "addr:postcode": "79902", "addr:state": "TX", "amenity": "post_box", "brand": "United States Postal Service", "brand:wikidata": "Q668687", "collection_times": "Mo-Fr 16:00; Sa 15:45", "name": "USPS COLLECTION BOX - BLUE BOX", "note": "ON 12/24 AND 12/31, THIS BOX MAY BE COLLECTED AS EARLY AS 12 NOON.", "nsi_id": "unitedstatespostalservice-a77078", "operator": "United States Postal Service", "operator:short": "USPS", "operator:type": "public", "operator:wikidata": "Q668687", "ref": "7990200057"}, "type": "Feature"}
{"dataset_attributes": {"@spider": "usps_collection_boxes", "spider:collection_time": "2023-12-16T08:23:48.880691"}, "geometry": {"coordinates": [-106.502285, 31.77768], "type": "Point"}, "id": "XQ6HukQ987mGRMnbkFMddxfIuL8=", "properties": {"@spider": "usps_collection_boxes", "addr:city": "EL PASO", "addr:country": "US", "addr:full": "2700 N STANTON ST", "addr:postcode": "79902", "addr:state": "TX", "amenity": "post_box", "brand": "United States Postal Service", "brand:wikidata": "Q668687", "collection_times": "Mo-Fr 13:00", "name": "USPS COLLECTION BOX - BLUE BOX", "note": "ON 12/24 AND 12/31, THIS BOX MAY BE COLLECTED AS EARLY AS 12 NOON.", "nsi_id": "unitedstatespostalservice-a77078", "operator": "United States Postal Service", "operator:short": "USPS", "operator:type": "public", "operator:wikidata": "Q668687", "ref": "7990200064"}, "type": "Feature"}
{"dataset_attributes": {"@spider": "usps_collection_boxes", "spider:collection_time": "2023-12-16T08:23:48.880691"}, "geometry": {"coordinates": [-106.510932, 31.793349], "type": "Point"}, "id": "RRDsGBLxgJWsbdz4lKQ9daArbsw=", "properties": {"@spider": "usps_collection_boxes", "addr:city": "EL PASO", "addr:country": "US", "addr:full": "4171 N MESA ST", "addr:postcode": "79902", "addr:state": "TX", "amenity": "post_box", "brand": "United States Postal Service", "brand:wikidata": "Q668687", "collection_times": "Mo-Fr 15:45", "name": "USPS COLLECTION BOX - BLUE BOX", "note": "ON 12/24 AND 12/31, THIS BOX MAY BE COLLECTED AS EARLY AS 12 NOON.", "nsi_id": "unitedstatespostalservice-a77078", "operator": "United States Postal Service", "operator:short": "USPS", "operator:type": "public", "operator:wikidata": "Q668687", "ref": "7990200101"}, "type": "Feature"}
{"dataset_attributes": {"@spider": "usps_collection_boxes", "spider:collection_time": "2023-12-16T08:23:48.880691"}, "geometry": {"coordinates": [-106.486318, 31.778016], "type": "Point"}, "id": "d7Z2ogieP28DFpV1GRISXhdZA1U=", "properties": {"@spider": "usps_collection_boxes", "addr:city": "EL PASO", "addr:country": "US", "addr:full": "1300 MURCHISON DR", "addr:postcode": "79902", "addr:state": "TX", "amenity": "post_box", "brand": "United States Postal Service", "brand:wikidata": "Q668687", "collection_times": "Mo-Fr 13:20", "name": "USPS COLLECTION BOX - BLUE BOX", "note": "ON 12/24 AND 12/31, THIS BOX MAY BE COLLECTED AS EARLY AS 12 NOON.", "nsi_id": "unitedstatespostalservice-a77078", "operator": "United States Postal Service", "operator:short": "USPS", "operator:type": "public", "operator:wikidata": "Q668687", "ref": "7990200102"}, "type": "Feature"}
{"dataset_attributes": {"@spider": "usps_collection_boxes", "spider:collection_time": "2023-12-16T08:23:48.880691"}, "geometry": {"coordinates": [-106.528751394, 31.829410545], "type": "Point"}, "id": "ypCCZu8uAbTV6ZHygxQYzo2GujA=", "properties": {"@spider": "usps_collection_boxes", "addr:city": "EL PASO", "addr:country": "US", "addr:full": "5981 N MESA ST", "addr:postcode": "79902", "addr:state": "TX", "amenity": "post_box", "brand": "United States Postal Service", "brand:wikidata": "Q668687", "collection_times": "Mo-Fr 17:00; Sa 13:00", "name": "USPS COLLECTION BOX - PO LOBBY", "note": "ON 12/24 AND 12/31, THIS BOX MAY BE COLLECTED AS EARLY AS 12 NOON.", "nsi_id": "unitedstatespostalservice-a77078", "operator": "United States Postal Service", "operator:short": "USPS", "operator:type": "public", "operator:wikidata": "Q668687", "ref": "7990200108"}, "type": "Feature"}
{"dataset_attributes": {"@spider": "usps_collection_boxes", "spider:collection_time": "2023-12-16T08:23:48.880691"}, "geometry": {"coordinates": [-106.5287513941, 31.8294105452], "type": "Point"}, "id": "2RAc748ZKBrCdC2-SXRpTz0eqis=", "properties": {"@spider": "usps_collection_boxes", "addr:city": "EL PASO", "addr:country": "US", "addr:full": "5981 N MESA ST", "addr:postcode": "79902", "addr:state": "TX", "amenity": "post_box", "brand": "United States Postal Service", "brand:wikidata": "Q668687", "collection_times": "Mo-Fr 17:00; Sa 13:00", "name": "USPS COLLECTION BOX - PO LOBBY", "note": "ON 12/24 AND 12/31, THIS BOX MAY BE COLLECTED AS EARLY AS 12 NOON.", "nsi_id": "unitedstatespostalservice-a77078", "operator": "United States Postal Service", "operator:short": "USPS", "operator:type": "public", "operator:wikidata": "Q668687", "ref": "7990200113"}, "type": "Feature"}
{"dataset_attributes": {"@spider": "usps_collection_boxes", "spider:collection_time": "2023-12-16T08:23:48.880691"}, "geometry": {"coordinates": [-106.4594040003, 31.781932], "type": "Point"}, "id": "sniRK6wHP_kJ-cNWQwXHW9APbU8=", "properties": {"@spider": "usps_collection_boxes", "addr:city": "EL PASO", "addr:country": "US", "addr:full": "3011 E YANDELL DR", "addr:postcode": "79903", "addr:state": "TX", "amenity": "post_box", "brand": "United States Postal Service", "brand:wikidata": "Q668687", "collection_times": "Mo-Fr 17:00; Sa 16:15", "name": "USPS COLLECTION BOX - BLUE BOX", "note": "ON 12/24 AND 12/31, THIS BOX MAY BE COLLECTED AS EARLY AS 12 NOON.", "nsi_id": "unitedstatespostalservice-a77078", "operator": "United States Postal Service", "operator:short": "USPS", "operator:type": "public", "operator:wikidata": "Q668687", "ref": "7990300027"}, "type": "Feature"}
{"dataset_attributes": {"@spider": "usps_collection_boxes", "spider:collection_time": "2023-12-16T08:23:48.880691"}, "geometry": {"coordinates": [-106.4594040003, 31.781932], "type": "Point"}, "id": "RVtxqoAnpezLG9x8199t_CrpMCA=", "properties": {"@spider": "usps_collection_boxes", "addr:city": "EL PASO", "addr:country": "US", "addr:full": "3011 E YANDELL DR", "addr:postcode": "79903", "addr:state": "TX", "amenity": "post_box", "brand": "United States Postal Service", "brand:wikidata": "Q668687", "collection_times": "Mo-Fr 17:00; Sa 16:15", "name": "USPS COLLECTION BOX - BLUE BOX", "note": "ON 12/24 AND 12/31, THIS BOX MAY BE COLLECTED AS EARLY AS 12 NOON.", "nsi_id": "unitedstatespostalservice-a77078", "operator": "United States Postal Service", "operator:short": "USPS", "operator:type": "public", "operator:wikidata": "Q668687", "ref": "7990300028"}, "type": "Feature"}
{"dataset_attributes": {"@spider": "usps_collection_boxes", "spider:collection_time": "2023-12-16T08:23:48.880691"}, "geometry": {"coordinates": [-106.4594040003, 31.781932], "type": "Point"}, "id": "fiVjNUniaYkzXPALjpXVKsOl9YE=", "properties": {"@spider": "usps_collection_boxes", "addr:city": "EL PASO", "addr:country": "US", "addr:full": "3011 E YANDELL DR", "addr:postcode": "79903", "addr:state": "TX", "amenity": "post_box", "brand": "United States Postal Service", "brand:wikidata": "Q668687", "collection_times": "Mo-Fr 17:00; Sa 16:15", "name": "USPS COLLECTION BOX - BLUE BOX", "note": "ON 12/24 AND 12/31, THIS BOX MAY BE COLLECTED AS EARLY AS 12 NOON.", "nsi_id": "unitedstatespostalservice-a77078", "operator": "United States Postal Service", "operator:short": "USPS", "operator:type": "public", "operator:wikidata": "Q668687", "ref": "7990300029"}, "type": "Feature"}
{"dataset_attributes": {"@spider": "usps_collection_boxes", "spider:collection_time": "2023-12-16T08:23:48.880691"}, "geometry": {"coordinates": [-106.459531, 31.781728], "type": "Point"}, "id": "-RKRimSnq9fZub0Wq1hqiT4Xuxw=", "properties": {"@spider": "usps_collection_boxes", "addr:city": "EL PASO", "addr:country": "US", "addr:full": "3011 E YANDELL DR", "addr:postcode": "79903", "addr:state": "TX", "amenity": "post_box", "brand": "United States Postal Service", "brand:wikidata": "Q668687", "collection_times": "Mo-Fr 17:00; Sa 14:00", "name": "USPS COLLECTION BOX - PO LOBBY", "note": "ON 12/24 AND 12/31, THIS BOX MAY BE COLLECTED AS EARLY AS 12 NOON.", "nsi_id": "unitedstatespostalservice-a77078", "operator": "United States Postal Service", "operator:short": "USPS", "operator:type": "public", "operator:wikidata": "Q668687", "ref": "7990300032"}, "type": "Feature"}
{"dataset_attributes": {"@spider": "usps_collection_boxes", "spider:collection_time": "2023-12-16T08:23:48.880691"}, "geometry": {"coordinates": [-106.459531, 31.781728], "type": "Point"}, "id": "DYYfSKG-cCfmYHvDb6njnbBQwXM=", "properties": {"@spider": "usps_collection_boxes", "addr:city": "EL PASO", "addr:country": "US", "addr:full": "3011 E YANDELL DR", "addr:postcode": "79903", "addr:state": "TX", "amenity": "post_box", "brand": "United States Postal Service", "brand:wikidata": "Q668687", "collection_times": "Mo-Fr 17:00; Sa 14:00", "name": "USPS COLLECTION BOX - PO LOBBY", "note": "ON 12/24 AND 12/31, THIS BOX MAY BE COLLECTED AS EARLY AS 12 NOON.", "nsi_id": "unitedstatespostalservice-a77078", "operator": "United States Postal Service", "operator:short": "USPS", "operator:type": "public", "operator:wikidata": "Q668687", "ref": "7990300036"}, "type": "Feature"}
{"dataset_attributes": {"@spider": "usps_collection_boxes", "spider:collection_time": "2023-12-16T08:23:48.880691"}, "geometry": {"coordinates": [-106.459411332, 31.781734479], "type": "Point"}, "id": "yLHLrTSrEVH8ohsOzvLRlKmi9-A=", "properties": {"@spider": "usps_collection_boxes", "addr:city": "EL PASO", "addr:country": "US", "addr:full": "3011 E YANDELL DR", "addr:postcode": "79903", "addr:state": "TX", "amenity": "post_box", "brand": "United States Postal Service", "brand:wikidata": "Q668687", "collection_times": "Mo-Fr 17:00", "name": "USPS COLLECTION BOX - PO LOBBY", "note": "ON 12/24 AND 12/31, THIS BOX MAY BE COLLECTED AS EARLY AS 12 NOON.", "nsi_id": "unitedstatespostalservice-a77078", "operator": "United States Postal Service", "operator:short": "USPS", "operator:type": "public", "operator:wikidata": "Q668687", "ref": "7990300039"}, "type": "Feature"}
{"dataset_attributes": {"@spider": "usps_collection_boxes", "spider:collection_time": "2023-12-16T08:23:48.880691"}, "geometry": {"coordinates": [-106.435284837, 31.85886326], "type": "Point"}, "id": "9e2ny1uVdheKVcBcaGv4a_GvYjo=", "properties": {"@spider": "usps_collection_boxes", "addr:city": "EL PASO", "addr:country": "US", "addr:full": "8500 DYER ST", "addr:postcode": "79904", "addr:state": "TX", "amenity": "post_box", "brand": "United States Postal Service", "brand:wikidata": "Q668687", "collection_times": "Mo-Fr 16:30; Sa 15:50", "name": "USPS COLLECTION BOX - BLUE BOX", "note": "ON 12/24 AND 12/31, THIS BOX MAY BE COLLECTED AS EARLY AS 12 NOON.", "nsi_id": "unitedstatespostalservice-a77078", "operator": "United States Postal Service", "operator:short": "USPS", "operator:type": "public", "operator:wikidata": "Q668687", "ref": "7990400001"}, "type": "Feature"}
{"dataset_attributes": {"@spider": "usps_collection_boxes", "spider:collection_time": "2023-12-16T08:23:48.880691"}, "geometry": {"coordinates": [-106.443966, 31.85454], "type": "Point"}, "id": "TTHabfQmLA2E6XRyccXJ22_NR4o=", "properties": {"@spider": "usps_collection_boxes", "addr:city": "EL PASO", "addr:country": "US", "addr:full": "4100 HERCULES AVE", "addr:postcode": "79904", "addr:state": "TX", "amenity": "post_box", "brand": "United States Postal Service", "brand:wikidata": "Q668687", "collection_times": "Mo-Fr 17:15; Sa 15:40", "name": "USPS COLLECTION BOX - BLUE BOX", "note": "ON 12/24 AND 12/31, THIS BOX MAY BE COLLECTED AS EARLY AS 12 NOON.", "nsi_id": "unitedstatespostalservice-a77078", "operator": "United States Postal Service", "operator:short": "USPS", "operator:type": "public", "operator:wikidata": "Q668687", "ref": "7990400004"}, "type": "Feature"}
{"dataset_attributes": {"@spider": "usps_collection_boxes", "spider:collection_time": "2023-12-16T08:23:48.880691"}, "geometry": {"coordinates": [-106.443975, 31.85454], "type": "Point"}, "id": "Ei7P4PCnCr8_oaACzTR_pZtdzdQ=", "properties": {"@spider": "usps_collection_boxes", "addr:city": "EL PASO", "addr:country": "US", "addr:full": "4100 HERCULES AVE", "addr:postcode": "79904", "addr:state": "TX", "amenity": "post_box", "brand": "United States Postal Service", "brand:wikidata": "Q668687", "collection_times": "Mo-Fr 17:15; Sa 15:40", "name": "USPS COLLECTION BOX - BLUE BOX", "note": "ON 12/24 AND 12/31, THIS BOX MAY BE COLLECTED AS EARLY AS 12 NOON.", "nsi_id": "unitedstatespostalservice-a77078", "operator": "United States Postal Service", "operator:short": "USPS", "operator:type": "public", "operator:wikidata": "Q668687", "ref": "7990400005"}, "type": "Feature"}
{"dataset_attributes": {"@spider": "usps_collection_boxes", "spider:collection_time": "2023-12-16T08:23:48.880691"}, "geometry": {"coordinates": [-106.44365, 31.855003], "type": "Point"}, "id": "CEtsCBWVSD-vmZpjxEzdoZG4THc=", "properties": {"@spider": "usps_collection_boxes", "addr:city": "EL PASO", "addr:country": "US", "addr:full": "4100 HERCULES AVE", "addr:postcode": "79904", "addr:state": "TX", "amenity": "post_box", "brand": "United States Postal Service", "brand:wikidata": "Q668687", "collection_times": "Mo-Fr 17:15; Sa 15:55", "name": "USPS COLLECTION BOX - PO LOBBY", "note": "ON 12/24 AND 12/31, THIS BOX MAY BE COLLECTED AS EARLY AS 12 NOON.", "nsi_id": "unitedstatespostalservice-a77078", "operator": "United States Postal Service", "operator:short": "USPS", "operator:type": "public", "operator:wikidata": "Q668687", "ref": "7990400018"}, "type": "Feature"}
{"dataset_attributes": {"@spider": "usps_collection_boxes", "spider:collection_time": "2023-12-16T08:23:48.880691"}, "geometry": {"coordinates": [-106.443423388, 31.854990513], "type": "Point"}, "id": "TUQQ6naDh5GsxiRurCJqqI8mTwQ=", "properties": {"@spider": "usps_collection_boxes", "addr:city": "EL PASO", "addr:country": "US", "addr:full": "4100 HERCULES AVE", "addr:postcode": "79904", "addr:state": "TX", "amenity": "post_box", "brand": "United States Postal Service", "brand:wikidata": "Q668687", "collection_times": "Mo-Fr 17:00", "name": "USPS COLLECTION BOX - PO LOBBY", "note": "ON 12/24 AND 12/31, THIS BOX MAY BE COLLECTED AS EARLY AS 12 NOON.", "nsi_id": "unitedstatespostalservice-a77078", "operator": "United States Postal Service", "operator:short": "USPS", "operator:type": "public", "operator:wikidata": "Q668687", "ref": "7990400024"}, "type": "Feature"}
{"dataset_attributes": {"@spider": "usps_collection_boxes", "spider:collection_time": "2023-12-16T08:23:48.880691"}, "geometry": {"coordinates": [-106.412176, 31.776547], "type": "Point"}, "id": "vFmBnnOdP_cgCVnWdabfDzHOfKM=", "properties": {"@spider": "usps_collection_boxes", "addr:city": "EL PASO", "addr:country": "US", "addr:full": "6122 TROWBRIDGE DR", "addr:postcode": "79905", "addr:state": "TX", "amenity": "post_box", "brand": "United States Postal Service", "brand:wikidata": "Q668687", "collection_times": "Mo-Fr 13:00", "name": "USPS COLLECTION BOX - BLUE BOX", "note": "ON 12/24 AND 12/31, THIS BOX MAY BE COLLECTED AS EARLY AS 12 NOON.", "nsi_id": "unitedstatespostalservice-a77078", "operator": "United States Postal Service", "operator:short": "USPS", "operator:type": "public", "operator:wikidata": "Q668687", "ref": "7990500022"}, "type": "Feature"}
{"dataset_attributes": {"@spider": "usps_collection_boxes", "spider:collection_time": "2023-12-16T08:23:48.880691"}, "geometry": {"coordinates": [-106.438324, 31.76749], "type": "Point"}, "id": "_zCi2UzU-AdINoM3wkhdL4gfR8M=", "properties": {"@spider": "usps_collection_boxes", "addr:city": "EL PASO", "addr:country": "US", "addr:full": "4400 E PAISANO DR", "addr:postcode": "79905", "addr:state": "TX", "amenity": "post_box", "brand": "United States Postal Service", "brand:wikidata": "Q668687", "collection_times": "Mo-Fr 17:30; Sa 16:15", "name": "USPS COLLECTION BOX - BLUE BOX", "note": "ON 12/24 AND 12/31, THIS BOX MAY BE COLLECTED AS EARLY AS 12 NOON.", "nsi_id": "unitedstatespostalservice-a77078", "operator": "United States Postal Service", "operator:short": "USPS", "operator:type": "public", "operator:wikidata": "Q668687", "ref": "7990500025"}, "type": "Feature"}
{"dataset_attributes": {"@spider": "usps_collection_boxes", "spider:collection_time": "2023-12-16T08:23:48.880691"}, "geometry": {"coordinates": [-106.438379, 31.767634], "type": "Point"}, "id": "ee7STwWvy32jujwQwk59q0n54jQ=", "properties": {"@spider": "usps_collection_boxes", "addr:city": "EL PASO", "addr:country": "US", "addr:full": "4400 E PAISANO DR", "addr:postcode": "79905", "addr:state": "TX", "amenity": "post_box", "brand": "United States Postal Service", "brand:wikidata": "Q668687", "collection_times": "Mo-Fr 17:30; Sa 14:00", "name": "USPS COLLECTION BOX - PO LOBBY", "note": "ON 12/24 AND 12/31, THIS BOX MAY BE COLLECTED AS EARLY AS 12 NOON.", "nsi_id": "unitedstatespostalservice-a77078", "operator": "United States Postal Service", "operator:short": "USPS", "operator:type": "public", "operator:wikidata": "Q668687", "ref": "7990500034"}, "type": "Feature"}
{"dataset_attributes": {"@spider": "usps_collection_boxes", "spider:collection_time": "2023-12-16T08:23:48.880691"}, "geometry": {"coordinates": [-106.410913, 31.779855], "type": "Point"}, "id": "RVSHDKG5nsV4LaggCao53u9XIso=", "properties": {"@spider": "usps_collection_boxes", "addr:city": "EL PASO", "addr:country": "US", "addr:full": "6070 SURETY DR", "addr:postcode": "79905", "addr:state": "TX", "amenity": "post_box", "brand": "United States Postal Service", "brand:wikidata": "Q668687", "collection_times": "Mo-Fr 15:40", "name": "USPS COLLECTION BOX - BLUE BOX", "note": "ON 12/24 AND 12/31, THIS BOX MAY BE COLLECTED AS EARLY AS 12 NOON.", "nsi_id": "unitedstatespostalservice-a77078", "operator": "United States Postal Service", "operator:short": "USPS", "operator:type": "public", "operator:wikidata": "Q668687", "ref": "7990500035"}, "type": "Feature"}
{"dataset_attributes": {"@spider": "usps_collection_boxes", "spider:collection_time": "2023-12-16T08:23:48.880691"}, "geometry": {"coordinates": [-106.438379, 31.767634], "type": "Point"}, "id": "ppK2AQX1038nu55iL9F_jIGj8tM=", "properties": {"@spider": "usps_collection_boxes", "addr:city": "EL PASO", "addr:country": "US", "addr:full": "4400 E PAISANO DR", "addr:postcode": "79905", "addr:state": "TX", "amenity": "post_box", "brand": "United States Postal Service", "brand:wikidata": "Q668687", "collection_times": "Mo-Fr 17:30; Sa 14:00", "name": "USPS COLLECTION BOX - PO LOBBY", "note": "ON 12/24 AND 12/31, THIS BOX MAY BE COLLECTED AS EARLY AS 12 NOON.", "nsi_id": "unitedstatespostalservice-a77078", "operator": "United States Postal Service", "operator:short": "USPS", "operator:type": "public", "operator:wikidata": "Q668687", "ref": "7990500036"}, "type": "Feature"}
{"dataset_attributes": {"@spider": "usps_collection_boxes", "spider:collection_time": "2023-12-16T08:23:48.880691"}, "geometry": {"coordinates": [-106.438379, 31.767634], "type": "Point"}, "id": "4Fc6GRdsohSPYGxg_D68baOUBYo=", "properties": {"@spider": "usps_collection_boxes", "addr:city": "EL PASO", "addr:country": "US", "addr:full": "4400 E PAISANO DR", "addr:postcode": "79905", "addr:state": "TX", "amenity": "post_box", "brand": "United States Postal Service", "brand:wikidata": "Q668687", "collection_times": "Mo-Fr 17:30; Sa 14:00", "name": "USPS COLLECTION BOX - PO LOBBY", "note": "ON 12/24 AND 12/31, THIS BOX MAY BE COLLECTED AS EARLY AS 12 NOON.", "nsi_id": "unitedstatespostalservice-a77078", "operator": "United States Postal Service", "operator:short": "USPS", "operator:type": "public", "operator:wikidata": "Q668687", "ref": "7990500037"}, "type": "Feature"}
{"dataset_attributes": {"@spider": "usps_collection_boxes", "spider:collection_time": "2023-12-16T08:23:48.880691"}, "geometry": {"coordinates": [-106.410261, 31.779584], "type": "Point"}, "id": "vJPJX6GaeJX-mxcSRY7wco-RQGE=", "properties": {"@spider": "usps_collection_boxes", "addr:city": "EL PASO", "addr:country": "US", "addr:full": "6090 SURETY DR", "addr:postcode": "79905", "addr:state": "TX", "amenity": "post_box", "brand": "United States Postal Service", "brand:wikidata": "Q668687", "collection_times": "Mo-Fr 15:40", "name": "USPS COLLECTION BOX - BLUE BOX", "note": "ON 12/24 AND 12/31, THIS BOX MAY BE COLLECTED AS EARLY AS 12 NOON.", "nsi_id": "unitedstatespostalservice-a77078", "operator": "United States Postal Service", "operator:short": "USPS", "operator:type": "public", "operator:wikidata": "Q668687", "ref": "7990500038"}, "type": "Feature"}
{"dataset_attributes": {"@spider": "usps_collection_boxes", "spider:collection_time": "2023-12-16T08:23:48.880691"}, "geometry": {"coordinates": [-106.438378909, 31.767625564], "type": "Point"}, "id": "ICWCpg_gaIIcagpUln_DHkjzw3w=", "properties": {"@spider": "usps_collection_boxes", "addr:city": "EL PASO", "addr:country": "US", "addr:full": "4400 E PAISANO DR", "addr:postcode": "79905", "addr:state": "TX", "amenity": "post_box", "brand": "United States Postal Service", "brand:wikidata": "Q668687", "collection_times": "Mo-Fr 17:00", "name": "USPS COLLECTION BOX - PO LOBBY", "note": "ON 12/24 AND 12/31, THIS BOX MAY BE COLLECTED AS EARLY AS 12 NOON.", "nsi_id": "unitedstatespostalservice-a77078", "operator": "United States Postal Service", "operator:short": "USPS", "operator:type": "public", "operator:wikidata": "Q668687", "ref": "7990500039"}, "type": "Feature"}
{"dataset_attributes": {"@spider": "usps_collection_boxes", "spider:collection_time": "2023-12-16T08:23:48.880691"}, "geometry": {"coordinates": [-106.427582, 31.819545], "type": "Point"}, "id": "7_eE-q_Q-Pv21IOvmW5is9XEM84=", "properties": {"@spider": "usps_collection_boxes", "addr:city": "EL PASO", "addr:country": "US", "addr:full": "1733 PLEASONTON RD", "addr:postcode": "79906", "addr:state": "TX", "amenity": "post_box", "brand": "United States Postal Service", "brand:wikidata": "Q668687", "collection_times": "Mo-Fr 17:15; Sa 14:15", "name": "USPS COLLECTION BOX - BLUE BOX", "note": "ON 12/24 AND 12/31, THIS BOX MAY BE COLLECTED AS EARLY AS 12 NOON.", "nsi_id": "unitedstatespostalservice-a77078", "operator": "United States Postal Service", "operator:short": "USPS", "operator:type": "public", "operator:wikidata": "Q668687", "ref": "7990600009"}, "type": "Feature"}
{"dataset_attributes": {"@spider": "usps_collection_boxes", "spider:collection_time": "2023-12-16T08:23:48.880691"}, "geometry": {"coordinates": [-106.427582, 31.819545], "type": "Point"}, "id": "-0AHT0Cd3B9WQl1dpSlGoPVJO-s=", "properties": {"@spider": "usps_collection_boxes", "addr:city": "EL PASO", "addr:country": "US", "addr:full": "1733 PLEASONTON RD", "addr:postcode": "79906", "addr:state": "TX", "amenity": "post_box", "brand": "United States Postal Service", "brand:wikidata": "Q668687", "collection_times": "Mo-Fr 17:15; Sa 14:15", "name": "USPS COLLECTION BOX - BLUE BOX", "note": "ON 12/24 AND 12/31, THIS BOX MAY BE COLLECTED AS EARLY AS 12 NOON.", "nsi_id": "unitedstatespostalservice-a77078", "operator": "United States Postal Service", "operator:short": "USPS", "operator:type": "public", "operator:wikidata": "Q668687", "ref": "7990600010"}, "type": "Feature"}
{"dataset_attributes": {"@spider": "usps_collection_boxes", "spider:collection_time": "2023-12-16T08:23:48.880691"}, "geometry": {"coordinates": [-106.420558853, 31.806814463], "type": "Point"}, "id": "8oOqm9PVzlqS76c68EVYStKI7SM=", "properties": {"@spider": "usps_collection_boxes", "addr:city": "EL PASO", "addr:country": "US", "addr:full": "1015 CARTER RD", "addr:postcode": "79906", "addr:state": "TX", "amenity": "post_box", "brand": "United States Postal Service", "brand:wikidata": "Q668687", "collection_times": "Mo-Fr 14:45", "name": "USPS COLLECTION BOX - BLUE BOX", "note": "ON 12/24 AND 12/31, THIS BOX MAY BE COLLECTED AS EARLY AS 12 NOON.", "nsi_id": "unitedstatespostalservice-a77078", "operator": "United States Postal Service", "operator:short": "USPS", "operator:type": "public", "operator:wikidata": "Q668687", "ref": "7990600041"}, "type": "Feature"}
{"dataset_attributes": {"@spider": "usps_collection_boxes", "spider:collection_time": "2023-12-16T08:23:48.880691"}, "geometry": {"coordinates": [-106.387925, 31.827668], "type": "Point"}, "id": "6mh3he2zFeye3dOI4g2IaFYHqCk=", "properties": {"@spider": "usps_collection_boxes", "addr:city": "EL PASO", "addr:country": "US", "addr:full": "11374 CHURCHILL ST", "addr:postcode": "79906", "addr:state": "TX", "amenity": "post_box", "brand": "United States Postal Service", "brand:wikidata": "Q668687", "collection_times": "Mo-Fr 13:30", "name": "USPS COLLECTION BOX - BLUE BOX", "note": "ON 12/24 AND 12/31, THIS BOX MAY BE COLLECTED AS EARLY AS 12 NOON.", "nsi_id": "unitedstatespostalservice-a77078", "operator": "United States Postal Service", "operator:short": "USPS", "operator:type": "public", "operator:wikidata": "Q668687", "ref": "7990600042"}, "type": "Feature"}
{"dataset_attributes": {"@spider": "usps_collection_boxes", "spider:collection_time": "2023-12-16T08:23:48.880691"}, "geometry": {"coordinates": [-106.4155904477, 31.7981495897], "type": "Point"}, "id": "ukwJ1u25762DmVP9-IsrTcdNom0=", "properties": {"@spider": "usps_collection_boxes", "addr:city": "EL PASO", "addr:country": "US", "addr:full": "13471 SGT MAJOR BLVD", "addr:postcode": "79906", "addr:state": "TX", "amenity": "post_box", "brand": "United States Postal Service", "brand:wikidata": "Q668687", "collection_times": "Mo-Fr 10:00", "name": "USPS COLLECTION BOX - BLUE BOX", "nsi_id": "unitedstatespostalservice-a77078", "operator": "United States Postal Service", "operator:short": "USPS", "operator:type": "public", "operator:wikidata": "Q668687", "ref": "7990600043"}, "type": "Feature"}
{"dataset_attributes": {"@spider": "usps_collection_boxes", "spider:collection_time": "2023-12-16T08:23:48.880691"}, "geometry": {"coordinates": [-106.4155904477, 31.7981495897], "type": "Point"}, "id": "eIZR05cgtI7U0rSwWEGIkrRYa0Y=", "properties": {"@spider": "usps_collection_boxes", "addr:city": "EL PASO", "addr:country": "US", "addr:full": "20226 ANZIO WAY", "addr:postcode": "79906", "addr:state": "TX", "amenity": "post_box", "brand": "United States Postal Service", "brand:wikidata": "Q668687", "collection_times": "Mo-Fr 10:30", "name": "USPS COLLECTION BOX - BLUE BOX", "nsi_id": "unitedstatespostalservice-a77078", "operator": "United States Postal Service", "operator:short": "USPS", "operator:type": "public", "operator:wikidata": "Q668687", "ref": "7990600044"}, "type": "Feature"}
{"dataset_attributes": {"@spider": "usps_collection_boxes", "spider:collection_time": "2023-12-16T08:23:48.880691"}, "geometry": {"coordinates": [-106.427557045, 31.819541037], "type": "Point"}, "id": "r180xm20K_Wp3K4QvsBJX2Kxd7Y=", "properties": {"@spider": "usps_collection_boxes", "addr:city": "EL PASO", "addr:country": "US", "addr:full": "1733 PLEASONTON RD", "addr:postcode": "79906", "addr:state": "TX", "amenity": "post_box", "brand": "United States Postal Service", "brand:wikidata": "Q668687", "collection_times": "Mo-Fr 17:00; Sa 14:00", "name": "USPS COLLECTION BOX - PO LOBBY", "note": "ON 12/24 AND 12/31, THIS BOX MAY BE COLLECTED AS EARLY AS 12 NOON.", "nsi_id": "unitedstatespostalservice-a77078", "operator": "United States Postal Service", "operator:short": "USPS", "operator:type": "public", "operator:wikidata": "Q668687", "ref": "7990600046"}, "type": "Feature"}
{"dataset_attributes": {"@spider": "usps_collection_boxes", "spider:collection_time": "2023-12-16T08:23:48.880691"}, "geometry": {"coordinates": [-106.314159, 31.70803], "type": "Point"}, "id": "LCu5LsbJvNnJL_sHuXG7WILHoZg=", "properties": {"@spider": "usps_collection_boxes", "addr:city": "EL PASO", "addr:country": "US", "addr:full": "880 N ZARAGOZA RD", "addr:postcode": "79907", "addr:state": "TX", "amenity": "post_box", "brand": "United States Postal Service", "brand:wikidata": "Q668687", "collection_times": "Mo-Fr 16:45; Sa 15:00", "name": "USPS COLLECTION BOX - BLUE BOX", "note": "ON 12/24 AND 12/31, THIS BOX MAY BE COLLECTED AS EARLY AS 12 NOON.", "nsi_id": "unitedstatespostalservice-a77078", "operator": "United States Postal Service", "operator:short": "USPS", "operator:type": "public", "operator:wikidata": "Q668687", "ref": "7990700041"}, "type": "Feature"}
{"dataset_attributes": {"@spider": "usps_collection_boxes", "spider:collection_time": "2023-12-16T08:23:48.880691"}, "geometry": {"coordinates": [-106.314159, 31.70803], "type": "Point"}, "id": "T6rU7_31mSZmTCtcjoW2By1hIYQ=", "properties": {"@spider": "usps_collection_boxes", "addr:city": "EL PASO", "addr:country": "US", "addr:full": "880 N ZARAGOZA RD", "addr:postcode": "79907", "addr:state": "TX", "amenity": "post_box", "brand": "United States Postal Service", "brand:wikidata": "Q668687", "collection_times": "Mo-Fr 17:15; Sa 15:45", "name": "USPS COLLECTION BOX - PO LOBBY", "note": "ON 12/24 AND 12/31, THIS BOX MAY BE COLLECTED AS EARLY AS 12 NOON.", "nsi_id": "unitedstatespostalservice-a77078", "operator": "United States Postal Service", "operator:short": "USPS", "operator:type": "public", "operator:wikidata": "Q668687", "ref": "7990700042"}, "type": "Feature"}
{"dataset_attributes": {"@spider": "usps_collection_boxes", "spider:collection_time": "2023-12-16T08:23:48.880691"}, "geometry": {"coordinates": [-106.314159, 31.70803], "type": "Point"}, "id": "iaFZRvI6KLKAALuooiuHCZH8ycM=", "properties": {"@spider": "usps_collection_boxes", "addr:city": "EL PASO", "addr:country": "US", "addr:full": "880 N ZARAGOZA RD", "addr:postcode": "79907", "addr:state": "TX", "amenity": "post_box", "brand": "United States Postal Service", "brand:wikidata": "Q668687", "collection_times": "Mo-Fr 17:15; Sa 15:45", "name": "USPS COLLECTION BOX - PO LOBBY", "note": "ON 12/24 AND 12/31, THIS BOX MAY BE COLLECTED AS EARLY AS 12 NOON.", "nsi_id": "unitedstatespostalservice-a77078", "operator": "United States Postal Service", "operator:short": "USPS", "operator:type": "public", "operator:wikidata": "Q668687", "ref": "7990700043"}, "type": "Feature"}
{"dataset_attributes": {"@spider": "usps_collection_boxes", "spider:collection_time": "2023-12-16T08:23:48.880691"}, "geometry": {"coordinates": [-106.314159, 31.70803], "type": "Point"}, "id": "t39rtqWvOyfcMD73qi6if3th9Cc=", "properties": {"@spider": "usps_collection_boxes", "addr:city": "EL PASO", "addr:country": "US", "addr:full": "880 N ZARAGOZA RD", "addr:postcode": "79907", "addr:state": "TX", "amenity": "post_box", "brand": "United States Postal Service", "brand:wikidata": "Q668687", "collection_times": "Mo-Fr 17:15; Sa 15:45", "name": "USPS COLLECTION BOX - PO LOBBY", "note": "ON 12/24 AND 12/31, THIS BOX MAY BE COLLECTED AS EARLY AS 12 NOON.", "nsi_id": "unitedstatespostalservice-a77078", "operator": "United States Postal Service", "operator:short": "USPS", "operator:type": "public", "operator:wikidata": "Q668687", "ref": "7990700044"}, "type": "Feature"}
{"dataset_attributes": {"@spider": "usps_collection_boxes", "spider:collection_time": "2023-12-16T08:23:48.880691"}, "geometry": {"coordinates": [-106.314271046, 31.707908637], "type": "Point"}, "id": "Ndbc7wfF31402RxNPO4I60ZasMg=", "properties": {"@spider": "usps_collection_boxes", "addr:city": "EL PASO", "addr:country": "US", "addr:full": "880 N ZARAGOZA RD", "addr:postcode": "79907", "addr:state": "TX", "amenity": "post_box", "brand": "United States Postal Service", "brand:wikidata": "Q668687", "collection_times": "Mo-Fr 17:00", "name": "USPS COLLECTION BOX - PO LOBBY", "note": "ON 12/24 AND 12/31, THIS BOX MAY BE COLLECTED AS EARLY AS 12 NOON.", "nsi_id": "unitedstatespostalservice-a77078", "operator": "United States Postal Service", "operator:short": "USPS", "operator:type": "public", "operator:wikidata": "Q668687", "ref": "7990700047"}, "type": "Feature"}
{"dataset_attributes": {"@spider": "usps_collection_boxes", "spider:collection_time": "2023-12-16T08:23:48.880691"}, "geometry": {"coordinates": [-106.510232, 31.807004], "type": "Point"}, "id": "pSEBMHQgjI18BtkL9fHH-runO5U=", "properties": {"@spider": "usps_collection_boxes", "addr:city": "EL PASO", "addr:country": "US", "addr:full": "4849 N MESA ST", "addr:postcode": "79912", "addr:state": "TX", "amenity": "post_box", "brand": "United States Postal Service", "brand:wikidata": "Q668687", "collection_times": "Mo-Fr 16:15; Sa 15:55", "name": "USPS COLLECTION BOX - BLUE BOX", "note": "ON 12/24 AND 12/31, THIS BOX MAY BE COLLECTED AS EARLY AS 12 NOON.", "nsi_id": "unitedstatespostalservice-a77078", "operator": "United States Postal Service", "operator:short": "USPS", "operator:type": "public", "operator:wikidata": "Q668687", "ref": "7991200003"}, "type": "Feature"}
{"dataset_attributes": {"@spider": "usps_collection_boxes", "spider:collection_time": "2023-12-16T08:23:48.880691"}, "geometry": {"coordinates": [-106.524152, 31.824767], "type": "Point"}, "id": "Cvhr0D_ly__2YBtb47uOSnKsNaE=", "properties": {"@spider": "usps_collection_boxes", "addr:city": "EL PASO", "addr:country": "US", "addr:full": "5823 N MESA ST", "addr:postcode": "79912", "addr:state": "TX", "amenity": "post_box", "brand": "United States Postal Service", "brand:wikidata": "Q668687", "collection_times": "Mo-Fr 16:30; Sa 12:45", "name": "USPS COLLECTION BOX - BLUE BOX", "note": "ON 12/24 AND 12/31, THIS BOX MAY BE COLLECTED AS EARLY AS 12 NOON.", "nsi_id": "unitedstatespostalservice-a77078", "operator": "United States Postal Service", "operator:short": "USPS", "operator:type": "public", "operator:wikidata": "Q668687", "ref": "7991200007"}, "type": "Feature"}
{"dataset_attributes": {"@spider": "usps_collection_boxes", "spider:collection_time": "2023-12-16T08:23:48.880691"}, "geometry": {"coordinates": [-106.552297, 31.835788], "type": "Point"}, "id": "hJx6y904AKw_65vhO_oHB2GSW68=", "properties": {"@spider": "usps_collection_boxes", "addr:city": "EL PASO", "addr:country": "US", "addr:full": "7015 N MESA ST", "addr:postcode": "79912", "addr:state": "TX", "amenity": "post_box", "brand": "United States Postal Service", "brand:wikidata": "Q668687", "collection_times": "Mo-Fr 14:30; Sa 15:05", "name": "USPS COLLECTION BOX - BLUE BOX", "note": "ON 12/24 AND 12/31, THIS BOX MAY BE COLLECTED AS EARLY AS 12 NOON.", "nsi_id": "unitedstatespostalservice-a77078", "operator": "United States Postal Service", "operator:short": "USPS", "operator:type": "public", "operator:wikidata": "Q668687", "ref": "7991200008"}, "type": "Feature"}
{"dataset_attributes": {"@spider": "usps_collection_boxes", "spider:collection_time": "2023-12-16T08:23:48.880691"}, "geometry": {"coordinates": [-106.538656, 31.816908], "type": "Point"}, "id": "qKpu9kMAD7dZYcUX37ON1TNXb0E=", "properties": {"@spider": "usps_collection_boxes", "addr:city": "EL PASO", "addr:country": "US", "addr:full": "5822 CROMO DR", "addr:postcode": "79912", "addr:state": "TX", "amenity": "post_box", "brand": "United States Postal Service", "brand:wikidata": "Q668687", "collection_times": "Mo-Fr 16:25; Sa 16:05", "name": "USPS COLLECTION BOX - BLUE BOX", "note": "ON 12/24 AND 12/31, THIS BOX MAY BE COLLECTED AS EARLY AS 12 NOON.", "nsi_id": "unitedstatespostalservice-a77078", "operator": "United States Postal Service", "operator:short": "USPS", "operator:type": "public", "operator:wikidata": "Q668687", "ref": "7991200009"}, "type": "Feature"}
{"dataset_attributes": {"@spider": "usps_collection_boxes", "spider:collection_time": "2023-12-16T08:23:48.880691"}, "geometry": {"coordinates": [-106.528586, 31.830448], "type": "Point"}, "id": "JzegHsouAehzSVYYYsQS-v4VcOo=", "properties": {"@spider": "usps_collection_boxes", "addr:city": "EL PASO", "addr:country": "US", "addr:full": "6006 N MESA ST", "addr:postcode": "79912", "addr:state": "TX", "amenity": "post_box", "brand": "United States Postal Service", "brand:wikidata": "Q668687", "collection_times": "Mo-Fr 13:45; Sa 12:45", "name": "USPS COLLECTION BOX - BLUE BOX", "note": "ON 12/24 AND 12/31, THIS BOX MAY BE COLLECTED AS EARLY AS 12 NOON.", "nsi_id": "unitedstatespostalservice-a77078", "operator": "United States Postal Service", "operator:short": "USPS", "operator:type": "public", "operator:wikidata": "Q668687", "ref": "7991200015"}, "type": "Feature"}
{"dataset_attributes": {"@spider": "usps_collection_boxes", "spider:collection_time": "2023-12-16T08:23:48.880691"}, "geometry": {"coordinates": [-106.5510859, 31.841099], "type": "Point"}, "id": "EaQvNw76Prv7fMKci1oDXqWxDUo=", "properties": {"@spider": "usps_collection_boxes", "addr:city": "EL PASO", "addr:country": "US", "addr:full": "6600 N MESA ST", "addr:postcode": "79912", "addr:state": "TX", "amenity": "post_box", "brand": "United States Postal Service", "brand:wikidata": "Q668687", "collection_times": "Mo-Fr 14:05", "name": "USPS COLLECTION BOX - BLUE BOX", "note": "ON 12/24 AND 12/31, THIS BOX MAY BE COLLECTED AS EARLY AS 12 NOON.", "nsi_id": "unitedstatespostalservice-a77078", "operator": "United States Postal Service", "operator:short": "USPS", "operator:type": "public", "operator:wikidata": "Q668687", "ref": "7991200016"}, "type": "Feature"}
{"dataset_attributes": {"@spider": "usps_collection_boxes", "spider:collection_time": "2023-12-16T08:23:48.880691"}, "geometry": {"coordinates": [-106.556541, 31.836564], "type": "Point"}, "id": "fdqdQH9IjP8t3UVP4rSFw13FNGk=", "properties": {"@spider": "usps_collection_boxes", "addr:city": "EL PASO", "addr:country": "US", "addr:full": "7211 N MESA ST", "addr:postcode": "79912", "addr:state": "TX", "amenity": "post_box", "brand": "United States Postal Service", "brand:wikidata": "Q668687", "collection_times": "Mo-Fr 14:35", "name": "USPS COLLECTION BOX - BLUE BOX", "note": "ON 12/24 AND 12/31, THIS BOX MAY BE COLLECTED AS EARLY AS 12 NOON.", "nsi_id": "unitedstatespostalservice-a77078", "operator": "United States Postal Service", "operator:short": "USPS", "operator:type": "public", "operator:wikidata": "Q668687", "ref": "7991200033"}, "type": "Feature"}
{"dataset_attributes": {"@spider": "usps_collection_boxes", "spider:collection_time": "2023-12-16T08:23:48.880691"}, "geometry": {"coordinates": [-106.5510859, 31.841099], "type": "Point"}, "id": "1UmTrNqyPz7gFaOjiH3XlwDFUUY=", "properties": {"@spider": "usps_collection_boxes", "addr:city": "EL PASO", "addr:country": "US", "addr:full": "6513 N MESA ST", "addr:postcode": "79912", "addr:state": "TX", "amenity": "post_box", "brand": "United States Postal Service", "brand:wikidata": "Q668687", "collection_times": "Mo-Fr 14:00", "name": "USPS COLLECTION BOX - BLUE BOX", "note": "ON 12/24 AND 12/31, THIS BOX MAY BE COLLECTED AS EARLY AS 12 NOON.", "nsi_id": "unitedstatespostalservice-a77078", "operator": "United States Postal Service", "operator:short": "USPS", "operator:type": "public", "operator:wikidata": "Q668687", "ref": "7991200034"}, "type": "Feature"}
{"dataset_attributes": {"@spider": "usps_collection_boxes", "spider:collection_time": "2023-12-16T08:23:48.880691"}, "geometry": {"coordinates": [-106.542272, 31.81814], "type": "Point"}, "id": "opetgMNn9rVP_Nx3NzcHIrN8pXA=", "properties": {"@spider": "usps_collection_boxes", "addr:city": "EL PASO", "addr:country": "US", "addr:full": "690 SUNLAND PARK DR", "addr:postcode": "79912", "addr:state": "TX", "amenity": "post_box", "brand": "United States Postal Service", "brand:wikidata": "Q668687", "collection_times": "Mo-Fr 13:20; Sa 16:15", "name": "USPS COLLECTION BOX - BLUE BOX", "note": "ON 12/24 AND 12/31, THIS BOX MAY BE COLLECTED AS EARLY AS 12 NOON.", "nsi_id": "unitedstatespostalservice-a77078", "operator": "United States Postal Service", "operator:short": "USPS", "operator:type": "public", "operator:wikidata": "Q668687", "ref": "7991200035"}, "type": "Feature"}
{"dataset_attributes": {"@spider": "usps_collection_boxes", "spider:collection_time": "2023-12-16T08:23:48.880691"}, "geometry": {"coordinates": [-106.509797, 31.803417], "type": "Point"}, "id": "FAVhkVvS5y84bEOCtLmJCW3MIHU=", "properties": {"@spider": "usps_collection_boxes", "addr:city": "EL PASO", "addr:country": "US", "addr:full": "4695 N MESA ST", "addr:postcode": "79912", "addr:state": "TX", "amenity": "post_box", "brand": "United States Postal Service", "brand:wikidata": "Q668687", "collection_times": "Mo-Fr 16:10", "name": "USPS COLLECTION BOX - BLUE BOX", "note": "ON 12/24 AND 12/31, THIS BOX MAY BE COLLECTED AS EARLY AS 12 NOON.", "nsi_id": "unitedstatespostalservice-a77078", "operator": "United States Postal Service", "operator:short": "USPS", "operator:type": "public", "operator:wikidata": "Q668687", "ref": "7991200051"}, "type": "Feature"}
{"dataset_attributes": {"@spider": "usps_collection_boxes", "spider:collection_time": "2023-12-16T08:23:48.880691"}, "geometry": {"coordinates": [-106.529549, 31.829912], "type": "Point"}, "id": "OhfP6k7tgttBBGLk7K1UjYGjrs4=", "properties": {"@spider": "usps_collection_boxes", "addr:city": "EL PASO", "addr:country": "US", "addr:full": "5981 N MESA ST", "addr:postcode": "79912", "addr:state": "TX", "amenity": "post_box", "brand": "United States Postal Service", "brand:wikidata": "Q668687", "collection_times": "Mo-Fr 16:55; Sa 16:35", "name": "USPS COLLECTION BOX - BLUE BOX", "note": "ON 12/24 AND 12/31, THIS BOX MAY BE COLLECTED AS EARLY AS 12 NOON.", "nsi_id": "unitedstatespostalservice-a77078", "operator": "United States Postal Service", "operator:short": "USPS", "operator:type": "public", "operator:wikidata": "Q668687", "ref": "7991200054"}, "type": "Feature"}
{"dataset_attributes": {"@spider": "usps_collection_boxes", "spider:collection_time": "2023-12-16T08:23:48.880691"}, "geometry": {"coordinates": [-106.529549, 31.829924], "type": "Point"}, "id": "VnRelEkdq9tpWXt8mMWlCYEsOOU=", "properties": {"@spider": "usps_collection_boxes", "addr:city": "EL PASO", "addr:country": "US", "addr:full": "5981 N MESA ST", "addr:postcode": "79912", "addr:state": "TX", "amenity": "post_box", "brand": "United States Postal Service", "brand:wikidata": "Q668687", "collection_times": "Mo-Fr 16:55; Sa 16:35", "name": "USPS COLLECTION BOX - BLUE BOX", "note": "ON 12/24 AND 12/31, THIS BOX MAY BE COLLECTED AS EARLY AS 12 NOON.", "nsi_id": "unitedstatespostalservice-a77078", "operator": "United States Postal Service", "operator:short": "USPS", "operator:type": "public", "operator:wikidata": "Q668687", "ref": "7991200055"}, "type": "Feature"}
{"dataset_attributes": {"@spider": "usps_collection_boxes", "spider:collection_time": "2023-12-16T08:23:48.880691"}, "geometry": {"coordinates": [-106.529569, 31.829935], "type": "Point"}, "id": "8kc2HVXM1cuv2Jda5u_ZdqH8XBY=", "properties": {"@spider": "usps_collection_boxes", "addr:city": "EL PASO", "addr:country": "US", "addr:full": "5981 N MESA ST", "addr:postcode": "79912", "addr:state": "TX", "amenity": "post_box", "brand": "United States Postal Service", "brand:wikidata": "Q668687", "collection_times": "Mo-Fr 16:55; Sa 16:35", "name": "USPS COLLECTION BOX - BLUE BOX", "note": "ON 12/24 AND 12/31, THIS BOX MAY BE COLLECTED AS EARLY AS 12 NOON.", "nsi_id": "unitedstatespostalservice-a77078", "operator": "United States Postal Service", "operator:short": "USPS", "operator:type": "public", "operator:wikidata": "Q668687", "ref": "7991200056"}, "type": "Feature"}
{"dataset_attributes": {"@spider": "usps_collection_boxes", "spider:collection_time": "2023-12-16T08:23:48.880691"}, "geometry": {"coordinates": [-106.574677, 31.86398], "type": "Point"}, "id": "VIW2ZxjzEwim2scsfMYvg0fgnP8=", "properties": {"@spider": "usps_collection_boxes", "addr:city": "EL PASO", "addr:country": "US", "addr:full": "5610 N DESERT BLVD STE B-8", "addr:postcode": "79912", "addr:state": "TX", "amenity": "post_box", "brand": "United States Postal Service", "brand:wikidata": "Q668687", "collection_times": "Mo-Fr 15:00", "name": "USPS COLLECTION BOX - BLUE BOX", "note": "ON 12/24 AND 12/31, THIS BOX MAY BE COLLECTED AS EARLY AS 12 NOON.", "nsi_id": "unitedstatespostalservice-a77078", "operator": "United States Postal Service", "operator:short": "USPS", "operator:type": "public", "operator:wikidata": "Q668687", "ref": "7991200057"}, "type": "Feature"}
{"dataset_attributes": {"@spider": "usps_collection_boxes", "spider:collection_time": "2023-12-16T08:23:48.880691"}, "geometry": {"coordinates": [-106.56160076, 31.839003533], "type": "Point"}, "id": "4m0vQ0dZEjV0MaXwFGrtuDKs3aw=", "properties": {"@spider": "usps_collection_boxes", "addr:city": "EL PASO", "addr:country": "US", "addr:full": "7383 REMCON CIR", "addr:postcode": "79912", "addr:state": "TX", "amenity": "post_box", "brand": "United States Postal Service", "brand:wikidata": "Q668687", "collection_times": "Mo-Fr 17:15; Sa 16:45", "name": "USPS COLLECTION BOX - PO LOBBY", "note": "ON 12/24 AND 12/31, THIS BOX MAY BE COLLECTED AS EARLY AS 12 NOON.", "nsi_id": "unitedstatespostalservice-a77078", "operator": "United States Postal Service", "operator:short": "USPS", "operator:type": "public", "operator:wikidata": "Q668687", "ref": "7991200058"}, "type": "Feature"}
{"dataset_attributes": {"@spider": "usps_collection_boxes", "spider:collection_time": "2023-12-16T08:23:48.880691"}, "geometry": {"coordinates": [-106.56160076, 31.839003533], "type": "Point"}, "id": "SLQDzRyzRTTONUir2NyM8Sd_f_g=", "properties": {"@spider": "usps_collection_boxes", "addr:city": "EL PASO", "addr:country": "US", "addr:full": "7383 REMCON CIR", "addr:postcode": "79912", "addr:state": "TX", "amenity": "post_box", "brand": "United States Postal Service", "brand:wikidata": "Q668687", "collection_times": "Mo-Fr 17:30; Sa 16:00", "name": "USPS COLLECTION BOX - BLUE BOX", "note": "ON 12/24 AND 12/31, THIS BOX MAY BE COLLECTED AS EARLY AS 12 NOON.", "nsi_id": "unitedstatespostalservice-a77078", "operator": "United States Postal Service", "operator:short": "USPS", "operator:type": "public", "operator:wikidata": "Q668687", "ref": "7991200060"}, "type": "Feature"}
{"dataset_attributes": {"@spider": "usps_collection_boxes", "spider:collection_time": "2023-12-16T08:23:48.880691"}, "geometry": {"coordinates": [-106.56160076, 31.839003533], "type": "Point"}, "id": "vNOw5ZWRbIV2Z-saLl5t5GMXA5E=", "properties": {"@spider": "usps_collection_boxes", "addr:city": "EL PASO", "addr:country": "US", "addr:full": "7383 REMCON CIR", "addr:postcode": "79912", "addr:state": "TX", "amenity": "post_box", "brand": "United States Postal Service", "brand:wikidata": "Q668687", "collection_times": "Mo-Fr 17:30; Sa 16:00", "name": "USPS COLLECTION BOX - BLUE BOX", "note": "ON 12/24 AND 12/31, THIS BOX MAY BE COLLECTED AS EARLY AS 12 NOON.", "nsi_id": "unitedstatespostalservice-a77078", "operator": "United States Postal Service", "operator:short": "USPS", "operator:type": "public", "operator:wikidata": "Q668687", "ref": "7991200061"}, "type": "Feature"}
{"dataset_attributes": {"@spider": "usps_collection_boxes", "spider:collection_time": "2023-12-16T08:23:48.880691"}, "geometry": {"coordinates": [-106.56160076, 31.839003533], "type": "Point"}, "id": "8k0azGRisjSJVXLU2wJJozndF1c=", "properties": {"@spider": "usps_collection_boxes", "addr:city": "EL PASO", "addr:country": "US", "addr:full": "7383 REMCON CIR", "addr:postcode": "79912", "addr:state": "TX", "amenity": "post_box", "brand": "United States Postal Service", "brand:wikidata": "Q668687", "collection_times": "Mo-Fr 17:15; Sa 16:45", "name": "USPS COLLECTION BOX - PO LOBBY", "note": "ON 12/24 AND 12/31, THIS BOX MAY BE COLLECTED AS EARLY AS 12 NOON.", "nsi_id": "unitedstatespostalservice-a77078", "operator": "United States Postal Service", "operator:short": "USPS", "operator:type": "public", "operator:wikidata": "Q668687", "ref": "7991200067"}, "type": "Feature"}
{"dataset_attributes": {"@spider": "usps_collection_boxes", "spider:collection_time": "2023-12-16T08:23:48.880691"}, "geometry": {"coordinates": [-106.56160076, 31.839003533], "type": "Point"}, "id": "zkX1_N0BsjlliG70Yt6NVOkBv8U=", "properties": {"@spider": "usps_collection_boxes", "addr:city": "EL PASO", "addr:country": "US", "addr:full": "7383 REMCON CIR", "addr:postcode": "79912", "addr:state": "TX", "amenity": "post_box", "brand": "United States Postal Service", "brand:wikidata": "Q668687", "collection_times": "Mo-Fr 17:15; Sa 16:45", "name": "USPS COLLECTION BOX - PO LOBBY", "note": "ON 12/24 AND 12/31, THIS BOX MAY BE COLLECTED AS EARLY AS 12 NOON.", "nsi_id": "unitedstatespostalservice-a77078", "operator": "United States Postal Service", "operator:short": "USPS", "operator:type": "public", "operator:wikidata": "Q668687", "ref": "7991200068"}, "type": "Feature"}
{"dataset_attributes": {"@spider": "usps_collection_boxes", "spider:collection_time": "2023-12-16T08:23:48.880691"}, "geometry": {"coordinates": [-106.56160076, 31.839003533], "type": "Point"}, "id": "hCJWXv_nkmKaA3jNvYVsJ8ZlSOU=", "properties": {"@spider": "usps_collection_boxes", "addr:city": "EL PASO", "addr:country": "US", "addr:full": "7383 REMCON CIR", "addr:postcode": "79912", "addr:state": "TX", "amenity": "post_box", "brand": "United States Postal Service", "brand:wikidata": "Q668687", "collection_times": "Mo-Fr 17:15; Sa 16:45", "name": "USPS COLLECTION BOX - APC", "note": "ON 12/24 AND 12/31, THIS BOX MAY BE COLLECTED AS EARLY AS 12 NOON.", "nsi_id": "unitedstatespostalservice-a77078", "operator": "United States Postal Service", "operator:short": "USPS", "operator:type": "public", "operator:wikidata": "Q668687", "ref": "7991200069"}, "type": "Feature"}
{"dataset_attributes": {"@spider": "usps_collection_boxes", "spider:collection_time": "2023-12-16T08:23:48.880691"}, "geometry": {"coordinates": [-106.56160076, 31.839003533], "type": "Point"}, "id": "EfHz4tRv04hDkCDrao1m3Pz5ohM=", "properties": {"@spider": "usps_collection_boxes", "addr:city": "EL PASO", "addr:country": "US", "addr:full": "7383 REMCON CIR", "addr:postcode": "79912", "addr:state": "TX", "amenity": "post_box", "brand": "United States Postal Service", "brand:wikidata": "Q668687", "collection_times": "Mo-Fr 18:00; Sa 12:00", "name": "USPS COLLECTION BOX - PO LOBBY", "note": "ON 12/24 AND 12/31, THIS BOX MAY BE COLLECTED AS EARLY AS 12 NOON.", "nsi_id": "unitedstatespostalservice-a77078", "operator": "United States Postal Service", "operator:short": "USPS", "operator:type": "public", "operator:wikidata": "Q668687", "ref": "7991200075"}, "type": "Feature"}
{"dataset_attributes": {"@spider": "usps_collection_boxes", "spider:collection_time": "2023-12-16T08:23:48.880691"}, "geometry": {"coordinates": [-106.389632, 31.751088], "type": "Point"}, "id": "SCEJzj9-712zYmyEfYgoKdZB1UM=", "properties": {"@spider": "usps_collection_boxes", "addr:city": "EL PASO", "addr:country": "US", "addr:full": "7150 ALAMEDA AVE", "addr:postcode": "79915", "addr:state": "TX", "amenity": "post_box", "brand": "United States Postal Service", "brand:wikidata": "Q668687", "collection_times": "Mo-Fr 13:40", "name": "USPS COLLECTION BOX - BLUE BOX", "note": "ON 12/24 AND 12/31, THIS BOX MAY BE COLLECTED AS EARLY AS 12 NOON.", "nsi_id": "unitedstatespostalservice-a77078", "operator": "United States Postal Service", "operator:short": "USPS", "operator:type": "public", "operator:wikidata": "Q668687", "ref": "7991500001"}, "type": "Feature"}
{"dataset_attributes": {"@spider": "usps_collection_boxes", "spider:collection_time": "2023-12-16T08:23:48.880691"}, "geometry": {"coordinates": [-106.367557, 31.765926], "type": "Point"}, "id": "r65HhR93SFOhxV_1c3WF1uVpesc=", "properties": {"@spider": "usps_collection_boxes", "addr:city": "EL PASO", "addr:country": "US", "addr:full": "7314 GATEWAY BLVD E", "addr:postcode": "79915", "addr:state": "TX", "amenity": "post_box", "brand": "United States Postal Service", "brand:wikidata": "Q668687", "collection_times": "Mo-Fr 17:15; Sa 15:50", "name": "USPS COLLECTION BOX - PO LOBBY", "note": "ON 12/24 AND 12/31, THIS BOX MAY BE COLLECTED AS EARLY AS 12 NOON.", "nsi_id": "unitedstatespostalservice-a77078", "operator": "United States Postal Service", "operator:short": "USPS", "operator:type": "public", "operator:wikidata": "Q668687", "ref": "7991500006"}, "type": "Feature"}
{"dataset_attributes": {"@spider": "usps_collection_boxes", "spider:collection_time": "2023-12-16T08:23:48.880691"}, "geometry": {"coordinates": [-106.367555643, 31.7659217379], "type": "Point"}, "id": "2w8QzV-Bj87nfXu8zDwJvXWIYmo=", "properties": {"@spider": "usps_collection_boxes", "addr:city": "EL PASO", "addr:country": "US", "addr:full": "7314 GATEWAY BLVD E", "addr:postcode": "79915", "addr:state": "TX", "amenity": "post_box", "brand": "United States Postal Service", "brand:wikidata": "Q668687", "collection_times": "Mo-Fr 17:15; Sa 15:30", "name": "USPS COLLECTION BOX - BLUE BOX", "note": "ON 12/24 AND 12/31, THIS BOX MAY BE COLLECTED AS EARLY AS 12 NOON.", "nsi_id": "unitedstatespostalservice-a77078", "operator": "United States Postal Service", "operator:short": "USPS", "operator:type": "public", "operator:wikidata": "Q668687", "ref": "7991500008"}, "type": "Feature"}
{"dataset_attributes": {"@spider": "usps_collection_boxes", "spider:collection_time": "2023-12-16T08:23:48.880691"}, "geometry": {"coordinates": [-106.3618092803, 31.7290993283], "type": "Point"}, "id": "-ONT2oggEjKji5kOnUNpHdvTHVs=", "properties": {"@spider": "usps_collection_boxes", "addr:city": "EL PASO", "addr:country": "US", "addr:full": "7900 ALAMEDA AVE", "addr:postcode": "79915", "addr:state": "TX", "amenity": "post_box", "brand": "United States Postal Service", "brand:wikidata": "Q668687", "collection_times": "Mo-Fr 13:50", "name": "USPS COLLECTION BOX - BLUE BOX", "note": "ON 12/24 AND 12/31, THIS BOX MAY BE COLLECTED AS EARLY AS 12 NOON.", "nsi_id": "unitedstatespostalservice-a77078", "operator": "United States Postal Service", "operator:short": "USPS", "operator:type": "public", "operator:wikidata": "Q668687", "ref": "7991500025"}, "type": "Feature"}
{"dataset_attributes": {"@spider": "usps_collection_boxes", "spider:collection_time": "2023-12-16T08:23:48.880691"}, "geometry": {"coordinates": [-106.391145, 31.752093], "type": "Point"}, "id": "g9A4GHQ_EU_TGvWPel7koS0iJ2M=", "properties": {"@spider": "usps_collection_boxes", "addr:city": "EL PASO", "addr:country": "US", "addr:full": "7110C ALAMEDA AVE", "addr:postcode": "79915", "addr:state": "TX", "amenity": "post_box", "brand": "United States Postal Service", "brand:wikidata": "Q668687", "collection_times": "Mo-Fr 13:35", "name": "USPS COLLECTION BOX - BLUE BOX", "note": "ON 12/24 AND 12/31, THIS BOX MAY BE COLLECTED AS EARLY AS 12 NOON.", "nsi_id": "unitedstatespostalservice-a77078", "operator": "United States Postal Service", "operator:short": "USPS", "operator:type": "public", "operator:wikidata": "Q668687", "ref": "7991500037"}, "type": "Feature"}
{"dataset_attributes": {"@spider": "usps_collection_boxes", "spider:collection_time": "2023-12-16T08:23:48.880691"}, "geometry": {"coordinates": [-106.367557, 31.765926], "type": "Point"}, "id": "hPx4njVGPDUN-n8WdgfO3xAsMw0=", "properties": {"@spider": "usps_collection_boxes", "addr:city": "EL PASO", "addr:country": "US", "addr:full": "7314 GATEWAY BLVD E", "addr:postcode": "79915", "addr:state": "TX", "amenity": "post_box", "brand": "United States Postal Service", "brand:wikidata": "Q668687", "collection_times": "Mo-Fr 17:15; Sa 15:50", "name": "USPS COLLECTION BOX - PO LOBBY", "note": "ON 12/24 AND 12/31, THIS BOX MAY BE COLLECTED AS EARLY AS 12 NOON.", "nsi_id": "unitedstatespostalservice-a77078", "operator": "United States Postal Service", "operator:short": "USPS", "operator:type": "public", "operator:wikidata": "Q668687", "ref": "7991500040"}, "type": "Feature"}
{"dataset_attributes": {"@spider": "usps_collection_boxes", "spider:collection_time": "2023-12-16T08:23:48.880691"}, "geometry": {"coordinates": [-106.367555643, 31.765921738], "type": "Point"}, "id": "gdBqk1MPD5G_3hsCvFggxJ9_6Bo=", "properties": {"@spider": "usps_collection_boxes", "addr:city": "EL PASO", "addr:country": "US", "addr:full": "7314 GATEWAY BLVD E", "addr:postcode": "79915", "addr:state": "TX", "amenity": "post_box", "brand": "United States Postal Service", "brand:wikidata": "Q668687", "collection_times": "Mo-Fr 17:00; Sa 12:00", "name": "USPS COLLECTION BOX - PO LOBBY", "note": "ON 12/24 AND 12/31, THIS BOX MAY BE COLLECTED AS EARLY AS 12 NOON.", "nsi_id": "unitedstatespostalservice-a77078", "operator": "United States Postal Service", "operator:short": "USPS", "operator:type": "public", "operator:wikidata": "Q668687", "ref": "7991500042"}, "type": "Feature"}
{"dataset_attributes": {"@spider": "usps_collection_boxes", "spider:collection_time": "2023-12-16T08:23:48.880691"}, "geometry": {"coordinates": [-106.462776962, 31.8215299965], "type": "Point"}, "id": "csGakJttnMO9VDbScOUMcUwO4-g=", "properties": {"@spider": "usps_collection_boxes", "addr:city": "EL PASO", "addr:country": "US", "addr:full": "5001 N PIEDRAS ST", "addr:postcode": "79920", "addr:state": "TX", "amenity": "post_box", "brand": "United States Postal Service", "brand:wikidata": "Q668687", "collection_times": "Mo-Fr 13:55; Sa 16:35", "name": "USPS COLLECTION BOX - BLUE BOX", "note": "ON 12/24 AND 12/31, THIS BOX MAY BE COLLECTED AS EARLY AS 12 NOON.", "nsi_id": "unitedstatespostalservice-a77078", "operator": "United States Postal Service", "operator:short": "USPS", "operator:type": "public", "operator:wikidata": "Q668687", "ref": "7992000000"}, "type": "Feature"}
{"dataset_attributes": {"@spider": "usps_collection_boxes", "spider:collection_time": "2023-12-16T08:23:48.880691"}, "geometry": {"coordinates": [-106.418161, 31.880766], "type": "Point"}, "id": "zA8--NjO2ekWqYV3iXDiqxXtNJQ=", "properties": {"@spider": "usps_collection_boxes", "addr:city": "EL PASO", "addr:country": "US", "addr:full": "5249 SANDERS AVE", "addr:postcode": "79924", "addr:state": "TX", "amenity": "post_box", "brand": "United States Postal Service", "brand:wikidata": "Q668687", "collection_times": "Mo-Fr 17:30; Sa 15:15", "name": "USPS COLLECTION BOX - BLUE BOX", "note": "ON 12/24 AND 12/31, THIS BOX MAY BE COLLECTED AS EARLY AS 12 NOON.", "nsi_id": "unitedstatespostalservice-a77078", "operator": "United States Postal Service", "operator:short": "USPS", "operator:type": "public", "operator:wikidata": "Q668687", "ref": "7992400010"}, "type": "Feature"}
{"dataset_attributes": {"@spider": "usps_collection_boxes", "spider:collection_time": "2023-12-16T08:23:48.880691"}, "geometry": {"coordinates": [-106.420655, 31.881831], "type": "Point"}, "id": "6RBEKpwj_JmfJ5TbTTaqalmiQto=", "properties": {"@spider": "usps_collection_boxes", "addr:city": "EL PASO", "addr:country": "US", "addr:full": "5249 SANDERS AVE", "addr:postcode": "79924", "addr:state": "TX", "amenity": "post_box", "brand": "United States Postal Service", "brand:wikidata": "Q668687", "collection_times": "Mo-Fr 17:30; Sa 16:15", "name": "USPS COLLECTION BOX - PO LOBBY", "note": "ON 12/24 AND 12/31, THIS BOX MAY BE COLLECTED AS EARLY AS 12 NOON.", "nsi_id": "unitedstatespostalservice-a77078", "operator": "United States Postal Service", "operator:short": "USPS", "operator:type": "public", "operator:wikidata": "Q668687", "ref": "7992400055"}, "type": "Feature"}
{"dataset_attributes": {"@spider": "usps_collection_boxes", "spider:collection_time": "2023-12-16T08:23:48.880691"}, "geometry": {"coordinates": [-106.420655, 31.881831], "type": "Point"}, "id": "a627Hi2ljXId9JaOKyySkdnvZyQ=", "properties": {"@spider": "usps_collection_boxes", "addr:city": "EL PASO", "addr:country": "US", "addr:full": "5249 SANDERS AVE", "addr:postcode": "79924", "addr:state": "TX", "amenity": "post_box", "brand": "United States Postal Service", "brand:wikidata": "Q668687", "collection_times": "Mo-Fr 17:30; Sa 16:15", "name": "USPS COLLECTION BOX - PO LOBBY", "note": "ON 12/24 AND 12/31, THIS BOX MAY BE COLLECTED AS EARLY AS 12 NOON.", "nsi_id": "unitedstatespostalservice-a77078", "operator": "United States Postal Service", "operator:short": "USPS", "operator:type": "public", "operator:wikidata": "Q668687", "ref": "7992400056"}, "type": "Feature"}
{"dataset_attributes": {"@spider": "usps_collection_boxes", "spider:collection_time": "2023-12-16T08:23:48.880691"}, "geometry": {"coordinates": [-106.418297757, 31.880691731], "type": "Point"}, "id": "2UHrllMJxaX1USbL_K1aa3yOD-k=", "properties": {"@spider": "usps_collection_boxes", "addr:city": "EL PASO", "addr:country": "US", "addr:full": "5249 SANDERS AVE", "addr:postcode": "79924", "addr:state": "TX", "amenity": "post_box", "brand": "United States Postal Service", "brand:wikidata": "Q668687", "collection_times": "Mo-Fr 17:00; Sa 12:00", "name": "USPS COLLECTION BOX - PO LOBBY", "note": "ON 12/24 AND 12/31, THIS BOX MAY BE COLLECTED AS EARLY AS 12 NOON.", "nsi_id": "unitedstatespostalservice-a77078", "operator": "United States Postal Service", "operator:short": "USPS", "operator:type": "public", "operator:wikidata": "Q668687", "ref": "7992400058"}, "type": "Feature"}
{"dataset_attributes": {"@spider": "usps_collection_boxes", "spider:collection_time": "2023-12-16T08:23:48.880691"}, "geometry": {"coordinates": [-106.351314293, 31.756781644], "type": "Point"}, "id": "gFLeRS0jhdW6TAgRny9bJH-liQ4=", "properties": {"@spider": "usps_collection_boxes", "addr:city": "EL PASO", "addr:country": "US", "addr:full": "10201 GATEWAY BLVD W", "addr:postcode": "79925", "addr:state": "TX", "amenity": "post_box", "brand": "United States Postal Service", "brand:wikidata": "Q668687", "collection_times": "Mo-Fr 17:25; Sa 16:45", "name": "USPS COLLECTION BOX - BLUE BOX", "note": "ON 12/24 AND 12/31, THIS BOX MAY BE COLLECTED AS EARLY AS 12 NOON.", "nsi_id": "unitedstatespostalservice-a77078", "operator": "United States Postal Service", "operator:short": "USPS", "operator:type": "public", "operator:wikidata": "Q668687", "ref": "7992500015"}, "type": "Feature"}
{"dataset_attributes": {"@spider": "usps_collection_boxes", "spider:collection_time": "2023-12-16T08:23:48.880691"}, "geometry": {"coordinates": [-106.350996461, 31.756540377], "type": "Point"}, "id": "STKl8EemfcI4G__V6_di_Z0jEMg=", "properties": {"@spider": "usps_collection_boxes", "addr:city": "EL PASO", "addr:country": "US", "addr:full": "10301 GATEWAY BLVD W", "addr:postcode": "79925", "addr:state": "TX", "amenity": "post_box", "brand": "United States Postal Service", "brand:wikidata": "Q668687", "collection_times": "Mo-Fr 17:25; Sa 16:40", "name": "USPS COLLECTION BOX - BLUE BOX", "note": "ON 12/24 AND 12/31, THIS BOX MAY BE COLLECTED AS EARLY AS 12 NOON.", "nsi_id": "unitedstatespostalservice-a77078", "operator": "United States Postal Service", "operator:short": "USPS", "operator:type": "public", "operator:wikidata": "Q668687", "ref": "7992500017"}, "type": "Feature"}
{"dataset_attributes": {"@spider": "usps_collection_boxes", "spider:collection_time": "2023-12-16T08:23:48.880691"}, "geometry": {"coordinates": [-106.3723213464, 31.7756636778], "type": "Point"}, "id": "GBloHPQzHDAaZnqKeWoqBTDnnfM=", "properties": {"@spider": "usps_collection_boxes", "addr:city": "EL PASO", "addr:country": "US", "addr:full": "1200 GOLDEN KEY CIR", "addr:postcode": "79925", "addr:state": "TX", "amenity": "post_box", "brand": "United States Postal Service", "brand:wikidata": "Q668687", "collection_times": "Mo-Fr 14:30; Sa 15:05", "name": "USPS COLLECTION BOX - BLUE BOX", "note": "ON 12/24 AND 12/31, THIS BOX MAY BE COLLECTED AS EARLY AS 12 NOON.", "nsi_id": "unitedstatespostalservice-a77078", "operator": "United States Postal Service", "operator:short": "USPS", "operator:type": "public", "operator:wikidata": "Q668687", "ref": "7992500025"}, "type": "Feature"}
{"dataset_attributes": {"@spider": "usps_collection_boxes", "spider:collection_time": "2023-12-16T08:23:48.880691"}, "geometry": {"coordinates": [-106.3778879803, 31.7872030017], "type": "Point"}, "id": "wOdZLUXuweseBYE7LCXRZhoVp2I=", "properties": {"@spider": "usps_collection_boxes", "addr:city": "EL PASO", "addr:country": "US", "addr:full": "8301 EDGEMERE BLVD", "addr:postcode": "79925", "addr:state": "TX", "amenity": "post_box", "brand": "United States Postal Service", "brand:wikidata": "Q668687", "collection_times": "Mo-Fr 14:10; Sa 13:30", "name": "USPS COLLECTION BOX - BLUE BOX", "note": "ON 12/24 AND 12/31, THIS BOX MAY BE COLLECTED AS EARLY AS 12 NOON.", "nsi_id": "unitedstatespostalservice-a77078", "operator": "United States Postal Service", "operator:short": "USPS", "operator:type": "public", "operator:wikidata": "Q668687", "ref": "7992500062"}, "type": "Feature"}
{"dataset_attributes": {"@spider": "usps_collection_boxes", "spider:collection_time": "2023-12-16T08:23:48.880691"}, "geometry": {"coordinates": [-106.335472494, 31.785230624], "type": "Point"}, "id": "KPpdFQRk-7WJM_fQN5G5LWSlLBw=", "properties": {"@spider": "usps_collection_boxes", "addr:city": "EL PASO", "addr:country": "US", "addr:full": "3100 N YARBROUGH DR", "addr:postcode": "79925", "addr:state": "TX", "amenity": "post_box", "brand": "United States Postal Service", "brand:wikidata": "Q668687", "collection_times": "Mo-Fr 17:30; Sa 17:00", "name": "USPS COLLECTION BOX - BLUE BOX", "note": "ON 12/24 AND 12/31, THIS BOX MAY BE COLLECTED AS EARLY AS 12 NOON.", "nsi_id": "unitedstatespostalservice-a77078", "operator": "United States Postal Service", "operator:short": "USPS", "operator:type": "public", "operator:wikidata": "Q668687", "ref": "7992500084"}, "type": "Feature"}
{"dataset_attributes": {"@spider": "usps_collection_boxes", "spider:collection_time": "2023-12-16T08:23:48.880691"}, "geometry": {"coordinates": [-106.3892864188, 31.7815741952], "type": "Point"}, "id": "z6sdQkOHKYiFq_6shyp8uDeCrEQ=", "properties": {"@spider": "usps_collection_boxes", "addr:city": "EL PASO", "addr:country": "US", "addr:full": "7227 VISCOUNT BLVD", "addr:postcode": "79925", "addr:state": "TX", "amenity": "post_box", "brand": "United States Postal Service", "brand:wikidata": "Q668687", "collection_times": "Mo-Fr 14:45; Sa 14:35", "name": "USPS COLLECTION BOX - BLUE BOX", "note": "ON 12/24 AND 12/31, THIS BOX MAY BE COLLECTED AS EARLY AS 12 NOON.", "nsi_id": "unitedstatespostalservice-a77078", "operator": "United States Postal Service", "operator:short": "USPS", "operator:type": "public", "operator:wikidata": "Q668687", "ref": "7992500094"}, "type": "Feature"}
{"dataset_attributes": {"@spider": "usps_collection_boxes", "spider:collection_time": "2023-12-16T08:23:48.880691"}, "geometry": {"coordinates": [-106.394625, 31.792913], "type": "Point"}, "id": "rkqfBYrx1INY6_vCmlFYNaDbxws=", "properties": {"@spider": "usps_collection_boxes", "addr:city": "EL PASO", "addr:country": "US", "addr:full": "1760 AIRWAY BLVD", "addr:postcode": "79925", "addr:state": "TX", "amenity": "post_box", "brand": "United States Postal Service", "brand:wikidata": "Q668687", "collection_times": "Mo-Fr 16:45", "name": "USPS COLLECTION BOX - BLUE BOX", "note": "ON 12/24 AND 12/31, THIS BOX MAY BE COLLECTED AS EARLY AS 12 NOON.", "nsi_id": "unitedstatespostalservice-a77078", "operator": "United States Postal Service", "operator:short": "USPS", "operator:type": "public", "operator:wikidata": "Q668687", "ref": "7992500096"}, "type": "Feature"}
{"dataset_attributes": {"@spider": "usps_collection_boxes", "spider:collection_time": "2023-12-16T08:23:48.880691"}, "geometry": {"coordinates": [-106.338244009, 31.7735720155], "type": "Point"}, "id": "q-wnRg_Q_l2YFsIQp2zyRlyGHII=", "properties": {"@spider": "usps_collection_boxes", "addr:city": "EL PASO", "addr:country": "US", "addr:full": "2200 N YARBROUGH DR STE B", "addr:postcode": "79925", "addr:state": "TX", "amenity": "post_box", "brand": "United States Postal Service", "brand:wikidata": "Q668687", "collection_times": "Mo-Sa 17:30", "name": "USPS COLLECTION BOX - BLUE BOX", "note": "ON 12/24 AND 12/31, THIS BOX MAY BE COLLECTED AS EARLY AS 12 NOON.", "nsi_id": "unitedstatespostalservice-a77078", "operator": "United States Postal Service", "operator:short": "USPS", "operator:type": "public", "operator:wikidata": "Q668687", "ref": "7992500101"}, "type": "Feature"}
{"dataset_attributes": {"@spider": "usps_collection_boxes", "spider:collection_time": "2023-12-16T08:23:48.880691"}, "geometry": {"coordinates": [-106.372321346, 31.775663678], "type": "Point"}, "id": "YODFU7ki6S2_NQMSJ71sNwojzG0=", "properties": {"@spider": "usps_collection_boxes", "addr:city": "EL PASO", "addr:country": "US", "addr:full": "1200 GOLDEN KEY CIR", "addr:postcode": "79925", "addr:state": "TX", "amenity": "post_box", "brand": "United States Postal Service", "brand:wikidata": "Q668687", "collection_times": "Mo-Fr 14:30; Sa 15:05", "name": "USPS COLLECTION BOX - BLUE BOX", "note": "ON 12/24 AND 12/31, THIS BOX MAY BE COLLECTED AS EARLY AS 12 NOON.", "nsi_id": "unitedstatespostalservice-a77078", "operator": "United States Postal Service", "operator:short": "USPS", "operator:type": "public", "operator:wikidata": "Q668687", "ref": "7992500107"}, "type": "Feature"}
{"dataset_attributes": {"@spider": "usps_collection_boxes", "spider:collection_time": "2023-12-16T08:23:48.880691"}, "geometry": {"coordinates": [-106.394258188, 31.788722842], "type": "Point"}, "id": "pk-hCd8dCaxu9G6MUm8GKd9NbUY=", "properties": {"@spider": "usps_collection_boxes", "addr:city": "EL PASO", "addr:country": "US", "addr:full": "6825 CIELO VISTA DR", "addr:postcode": "79925", "addr:state": "TX", "amenity": "post_box", "brand": "United States Postal Service", "brand:wikidata": "Q668687", "collection_times": "Mo-Fr 13:25; Sa 13:15", "name": "USPS COLLECTION BOX - BLUE BOX", "note": "ON 12/24 AND 12/31, THIS BOX MAY BE COLLECTED AS EARLY AS 12 NOON.", "nsi_id": "unitedstatespostalservice-a77078", "operator": "United States Postal Service", "operator:short": "USPS", "operator:type": "public", "operator:wikidata": "Q668687", "ref": "7992500114"}, "type": "Feature"}
{"dataset_attributes": {"@spider": "usps_collection_boxes", "spider:collection_time": "2023-12-16T08:23:48.880691"}, "geometry": {"coordinates": [-106.363762276, 31.767564582], "type": "Point"}, "id": "xjsnhhg2mnbuLlwEzqrXy4CvYZA=", "properties": {"@spider": "usps_collection_boxes", "addr:city": "EL PASO", "addr:country": "US", "addr:full": "9480 VISCOUNT BLVD", "addr:postcode": "79925", "addr:state": "TX", "amenity": "post_box", "brand": "United States Postal Service", "brand:wikidata": "Q668687", "collection_times": "Mo-Fr 14:25; Sa 15:15", "name": "USPS COLLECTION BOX - BLUE BOX", "note": "ON 12/24 AND 12/31, THIS BOX MAY BE COLLECTED AS EARLY AS 12 NOON.", "nsi_id": "unitedstatespostalservice-a77078", "operator": "United States Postal Service", "operator:short": "USPS", "operator:type": "public", "operator:wikidata": "Q668687", "ref": "7992500117"}, "type": "Feature"}
{"dataset_attributes": {"@spider": "usps_collection_boxes", "spider:collection_time": "2023-12-16T08:23:48.880691"}, "geometry": {"coordinates": [-106.4101169599, 31.781767431], "type": "Point"}, "id": "80wtWXVJurwfE4HWxnHC49XIznc=", "properties": {"@spider": "usps_collection_boxes", "addr:city": "EL PASO", "addr:country": "US", "addr:full": "6101 GATEWAY BLVD W", "addr:postcode": "79925", "addr:state": "TX", "amenity": "post_box", "brand": "United States Postal Service", "brand:wikidata": "Q668687", "collection_times": "Mo-Fr 16:20; Sa 14:10", "name": "USPS COLLECTION BOX - BLUE BOX", "note": "ON 12/24 AND 12/31, THIS BOX MAY BE COLLECTED AS EARLY AS 12 NOON.", "nsi_id": "unitedstatespostalservice-a77078", "operator": "United States Postal Service", "operator:short": "USPS", "operator:type": "public", "operator:wikidata": "Q668687", "ref": "7992500120"}, "type": "Feature"}
{"dataset_attributes": {"@spider": "usps_collection_boxes", "spider:collection_time": "2023-12-16T08:23:48.880691"}, "geometry": {"coordinates": [-106.4101169599, 31.781767431], "type": "Point"}, "id": "kTuk4qUwcvD2LPdUBQgY4wlKuBY=", "properties": {"@spider": "usps_collection_boxes", "addr:city": "EL PASO", "addr:country": "US", "addr:full": "6101 GATEWAY BLVD W", "addr:postcode": "79925", "addr:state": "TX", "amenity": "post_box", "brand": "United States Postal Service", "brand:wikidata": "Q668687", "collection_times": "Mo-Fr 16:20; Sa 14:10", "name": "USPS COLLECTION BOX - BLUE BOX", "note": "ON 12/24 AND 12/31, THIS BOX MAY BE COLLECTED AS EARLY AS 12 NOON.", "nsi_id": "unitedstatespostalservice-a77078", "operator": "United States Postal Service", "operator:short": "USPS", "operator:type": "public", "operator:wikidata": "Q668687", "ref": "7992500121"}, "type": "Feature"}
{"dataset_attributes": {"@spider": "usps_collection_boxes", "spider:collection_time": "2023-12-16T08:23:48.880691"}, "geometry": {"coordinates": [-106.335483, 31.785226], "type": "Point"}, "id": "xtCPSQlgQVHhQbfa6-WB8aFPwO8=", "properties": {"@spider": "usps_collection_boxes", "addr:city": "EL PASO", "addr:country": "US", "addr:full": "3100 N YARBROUGH DR", "addr:postcode": "79925", "addr:state": "TX", "amenity": "post_box", "brand": "United States Postal Service", "brand:wikidata": "Q668687", "collection_times": "Mo-Fr 17:30; Sa 17:00", "name": "USPS COLLECTION BOX - PO LOBBY", "note": "ON 12/24 AND 12/31, THIS BOX MAY BE COLLECTED AS EARLY AS 12 NOON.", "nsi_id": "unitedstatespostalservice-a77078", "operator": "United States Postal Service", "operator:short": "USPS", "operator:type": "public", "operator:wikidata": "Q668687", "ref": "7992500127"}, "type": "Feature"}
{"dataset_attributes": {"@spider": "usps_collection_boxes", "spider:collection_time": "2023-12-16T08:23:48.880691"}, "geometry": {"coordinates": [-106.335486969, 31.785221624], "type": "Point"}, "id": "oQJ471cw8ZaAFS0cBA-OYCMC_I8=", "properties": {"@spider": "usps_collection_boxes", "addr:city": "EL PASO", "addr:country": "US", "addr:full": "3100 N YARBROUGH DR", "addr:postcode": "79925", "addr:state": "TX", "amenity": "post_box", "brand": "United States Postal Service", "brand:wikidata": "Q668687", "collection_times": "Mo-Fr 17:00", "name": "USPS COLLECTION BOX - PO LOBBY", "note": "ON 12/24 AND 12/31, THIS BOX MAY BE COLLECTED AS EARLY AS 12 NOON.", "nsi_id": "unitedstatespostalservice-a77078", "operator": "United States Postal Service", "operator:short": "USPS", "operator:type": "public", "operator:wikidata": "Q668687", "ref": "7992500149"}, "type": "Feature"}
{"dataset_attributes": {"@spider": "usps_collection_boxes", "spider:collection_time": "2023-12-16T08:23:48.880691"}, "geometry": {"coordinates": [-106.242655, 31.660804], "type": "Point"}, "id": "XahUJ5qXNe1Q6b68v-VtuuUVmf8=", "properties": {"@spider": "usps_collection_boxes", "addr:city": "EL PASO", "addr:country": "US", "addr:full": "1295 HORIZON BLVD", "addr:postcode": "79927", "addr:state": "TX", "amenity": "post_box", "brand": "United States Postal Service", "brand:wikidata": "Q668687", "collection_times": "Mo-Sa 12:30", "name": "USPS COLLECTION BOX - BLUE BOX", "note": "ON 12/24 AND 12/31, THIS BOX MAY BE COLLECTED AS EARLY AS 12 NOON.", "nsi_id": "unitedstatespostalservice-a77078", "operator": "United States Postal Service", "operator:short": "USPS", "operator:type": "public", "operator:wikidata": "Q668687", "ref": "7992700004"}, "type": "Feature"}
{"dataset_attributes": {"@spider": "usps_collection_boxes", "spider:collection_time": "2023-12-16T08:23:48.880691"}, "geometry": {"coordinates": [-106.284729, 31.649583], "type": "Point"}, "id": "3g5xej2pNImQieTGtK6oJVXtvkE=", "properties": {"@spider": "usps_collection_boxes", "addr:city": "EL PASO", "addr:country": "US", "addr:full": "124 HORIZON BLVD", "addr:postcode": "79927", "addr:state": "TX", "amenity": "post_box", "brand": "United States Postal Service", "brand:wikidata": "Q668687", "collection_times": "Mo-Sa 11:30", "name": "USPS COLLECTION BOX - BLUE BOX", "nsi_id": "unitedstatespostalservice-a77078", "operator": "United States Postal Service", "operator:short": "USPS", "operator:type": "public", "operator:wikidata": "Q668687", "ref": "7992700009"}, "type": "Feature"}
{"dataset_attributes": {"@spider": "usps_collection_boxes", "spider:collection_time": "2023-12-16T08:23:48.880691"}, "geometry": {"coordinates": [-106.322282, 31.673695], "type": "Point"}, "id": "97_Nx9RR0xlM7oLWq1dLk39fYiA=", "properties": {"@spider": "usps_collection_boxes", "addr:city": "EL PASO", "addr:country": "US", "addr:full": "9615 PLAZA CIR", "addr:postcode": "79927", "addr:state": "TX", "amenity": "post_box", "brand": "United States Postal Service", "brand:wikidata": "Q668687", "collection_times": "Mo-Sa 10:45", "name": "USPS COLLECTION BOX - BLUE BOX", "nsi_id": "unitedstatespostalservice-a77078", "operator": "United States Postal Service", "operator:short": "USPS", "operator:type": "public", "operator:wikidata": "Q668687", "ref": "7992700010"}, "type": "Feature"}
{"dataset_attributes": {"@spider": "usps_collection_boxes", "spider:collection_time": "2023-12-16T08:23:48.880691"}, "geometry": {"coordinates": [-106.271753, 31.656754], "type": "Point"}, "id": "IZqdGbhoLdUz539y-ZNDbvSkYTc=", "properties": {"@spider": "usps_collection_boxes", "addr:city": "EL PASO", "addr:country": "US", "addr:full": "10550 N LOOP RD", "addr:postcode": "79927", "addr:state": "TX", "amenity": "post_box", "brand": "United States Postal Service", "brand:wikidata": "Q668687", "collection_times": "Mo-Fr 17:15; Sa 15:30", "name": "USPS COLLECTION BOX - BLUE BOX", "note": "ON 12/24 AND 12/31, THIS BOX MAY BE COLLECTED AS EARLY AS 12 NOON.", "nsi_id": "unitedstatespostalservice-a77078", "operator": "United States Postal Service", "operator:short": "USPS", "operator:type": "public", "operator:wikidata": "Q668687", "ref": "7992700014"}, "type": "Feature"}
{"dataset_attributes": {"@spider": "usps_collection_boxes", "spider:collection_time": "2023-12-16T08:23:48.880691"}, "geometry": {"coordinates": [-106.271753, 31.656755], "type": "Point"}, "id": "beI-bqtESpa7NrJ_1eTFvY_Hl1c=", "properties": {"@spider": "usps_collection_boxes", "addr:city": "EL PASO", "addr:country": "US", "addr:full": "10550 N LOOP RD", "addr:postcode": "79927", "addr:state": "TX", "amenity": "post_box", "brand": "United States Postal Service", "brand:wikidata": "Q668687", "collection_times": "Mo-Fr 17:15; Sa 15:30", "name": "USPS COLLECTION BOX - BLUE BOX", "note": "ON 12/24 AND 12/31, THIS BOX MAY BE COLLECTED AS EARLY AS 12 NOON.", "nsi_id": "unitedstatespostalservice-a77078", "operator": "United States Postal Service", "operator:short": "USPS", "operator:type": "public", "operator:wikidata": "Q668687", "ref": "7992700015"}, "type": "Feature"}
{"dataset_attributes": {"@spider": "usps_collection_boxes", "spider:collection_time": "2023-12-16T08:23:48.880691"}, "geometry": {"coordinates": [-106.271753, 31.656755], "type": "Point"}, "id": "ePpyGqoOn4ZHVB6fIyl6MUFz4-w=", "properties": {"@spider": "usps_collection_boxes", "addr:city": "EL PASO", "addr:country": "US", "addr:full": "10550 N LOOP RD", "addr:postcode": "79927", "addr:state": "TX", "amenity": "post_box", "brand": "United States Postal Service", "brand:wikidata": "Q668687", "collection_times": "Mo-Fr 17:15; Sa 15:30", "name": "USPS COLLECTION BOX - PO LOBBY", "note": "ON 12/24 AND 12/31, THIS BOX MAY BE COLLECTED AS EARLY AS 12 NOON.", "nsi_id": "unitedstatespostalservice-a77078", "operator": "United States Postal Service", "operator:short": "USPS", "operator:type": "public", "operator:wikidata": "Q668687", "ref": "7992700016"}, "type": "Feature"}
{"dataset_attributes": {"@spider": "usps_collection_boxes", "spider:collection_time": "2023-12-16T08:23:48.880691"}, "geometry": {"coordinates": [-106.271753, 31.656755], "type": "Point"}, "id": "SBW16vAA-eMh7VmC_gHMmnlxzhI=", "properties": {"@spider": "usps_collection_boxes", "addr:city": "EL PASO", "addr:country": "US", "addr:full": "10550 N LOOP RD", "addr:postcode": "79927", "addr:state": "TX", "amenity": "post_box", "brand": "United States Postal Service", "brand:wikidata": "Q668687", "collection_times": "Mo-Fr 17:15; Sa 15:30", "name": "USPS COLLECTION BOX - PO LOBBY", "note": "ON 12/24 AND 12/31, THIS BOX MAY BE COLLECTED AS EARLY AS 12 NOON.", "nsi_id": "unitedstatespostalservice-a77078", "operator": "United States Postal Service", "operator:short": "USPS", "operator:type": "public", "operator:wikidata": "Q668687", "ref": "7992700017"}, "type": "Feature"}
{"dataset_attributes": {"@spider": "usps_collection_boxes", "spider:collection_time": "2023-12-16T08:23:48.880691"}, "geometry": {"coordinates": [-106.271753, 31.656755], "type": "Point"}, "id": "NzXV_vLw6Sm_NEzM1HQDAZnZ3uc=", "properties": {"@spider": "usps_collection_boxes", "addr:city": "EL PASO", "addr:country": "US", "addr:full": "10550 N LOOP RD", "addr:postcode": "79927", "addr:state": "TX", "amenity": "post_box", "brand": "United States Postal Service", "brand:wikidata": "Q668687", "collection_times": "Mo-Fr 17:15; Sa 15:30", "name": "USPS COLLECTION BOX - PO LOBBY", "note": "ON 12/24 AND 12/31, THIS BOX MAY BE COLLECTED AS EARLY AS 12 NOON.", "nsi_id": "unitedstatespostalservice-a77078", "operator": "United States Postal Service", "operator:short": "USPS", "operator:type": "public", "operator:wikidata": "Q668687", "ref": "7992700018"}, "type": "Feature"}
{"dataset_attributes": {"@spider": "usps_collection_boxes", "spider:collection_time": "2023-12-16T08:23:48.880691"}, "geometry": {"coordinates": [-106.2616281561, 31.6806103304], "type": "Point"}, "id": "SfAN4dUMYr5ogoYxYIOtYfLGE88=", "properties": {"@spider": "usps_collection_boxes", "addr:city": "EL PASO", "addr:country": "US", "addr:full": "10700 GATEWAY BLVD E", "addr:postcode": "79927", "addr:state": "TX", "amenity": "post_box", "brand": "United States Postal Service", "brand:wikidata": "Q668687", "collection_times": "Mo-Sa 12:30", "name": "USPS COLLECTION BOX - BLUE BOX", "note": "ON 12/24 AND 12/31, THIS BOX MAY BE COLLECTED AS EARLY AS 12 NOON.", "nsi_id": "unitedstatespostalservice-a77078", "operator": "United States Postal Service", "operator:short": "USPS", "operator:type": "public", "operator:wikidata": "Q668687", "ref": "7992700020"}, "type": "Feature"}
{"dataset_attributes": {"@spider": "usps_collection_boxes", "spider:collection_time": "2023-12-16T08:23:48.880691"}, "geometry": {"coordinates": [-106.2718786566, 31.6568422969], "type": "Point"}, "id": "mYSo2r5lWFnw0lFddJr1Iq4sXFw=", "properties": {"@spider": "usps_collection_boxes", "addr:city": "EL PASO", "addr:country": "US", "addr:full": "10550 N LOOP DR", "addr:postcode": "79927", "addr:state": "TX", "amenity": "post_box", "brand": "United States Postal Service", "brand:wikidata": "Q668687", "collection_times": "Mo-Fr 17:00", "name": "USPS COLLECTION BOX - PO LOBBY", "note": "ON 12/24 AND 12/31, THIS BOX MAY BE COLLECTED AS EARLY AS 12 NOON.", "nsi_id": "unitedstatespostalservice-a77078", "operator": "United States Postal Service", "operator:short": "USPS", "operator:type": "public", "operator:wikidata": "Q668687", "ref": "7992700022"}, "type": "Feature"}
{"dataset_attributes": {"@spider": "usps_collection_boxes", "spider:collection_time": "2023-12-16T08:23:48.880691"}, "geometry": {"coordinates": [-106.1956250044, 31.6981480046], "type": "Point"}, "id": "6WS5IFvVzOjiPePY6_ZbTVHhmU0=", "properties": {"@spider": "usps_collection_boxes", "addr:city": "EL PASO", "addr:country": "US", "addr:full": "494 N KENAZO AVE", "addr:postcode": "79928", "addr:state": "TX", "amenity": "post_box", "brand": "United States Postal Service", "brand:wikidata": "Q668687", "collection_times": "Mo-Sa 12:00", "name": "USPS COLLECTION BOX - BLUE BOX", "nsi_id": "unitedstatespostalservice-a77078", "operator": "United States Postal Service", "operator:short": "USPS", "operator:type": "public", "operator:wikidata": "Q668687", "ref": "7992800001"}, "type": "Feature"}
{"dataset_attributes": {"@spider": "usps_collection_boxes", "spider:collection_time": "2023-12-16T08:23:48.880691"}, "geometry": {"coordinates": [-106.2115070346, 31.69684399], "type": "Point"}, "id": "G1bXVFLbgsyndUR_jGAWtfzDxYE=", "properties": {"@spider": "usps_collection_boxes", "addr:city": "EL PASO", "addr:country": "US", "addr:full": "19017 DARRINGTON RD", "addr:postcode": "79928", "addr:state": "TX", "amenity": "post_box", "brand": "United States Postal Service", "brand:wikidata": "Q668687", "collection_times": "Mo-Sa 11:00", "name": "USPS COLLECTION BOX - BLUE BOX", "nsi_id": "unitedstatespostalservice-a77078", "operator": "United States Postal Service", "operator:short": "USPS", "operator:type": "public", "operator:wikidata": "Q668687", "ref": "7992800002"}, "type": "Feature"}
{"dataset_attributes": {"@spider": "usps_collection_boxes", "spider:collection_time": "2023-12-16T08:23:48.880691"}, "geometry": {"coordinates": [-106.2151179585, 31.6839320034], "type": "Point"}, "id": "p49ITaceM4jfsmNawvyk_yoHBo0=", "properties": {"@spider": "usps_collection_boxes", "addr:city": "EL PASO", "addr:country": "US", "addr:full": "14200 ASHFORD ST", "addr:postcode": "79928", "addr:state": "TX", "amenity": "post_box", "brand": "United States Postal Service", "brand:wikidata": "Q668687", "collection_times": "Mo-Sa 10:00", "name": "USPS COLLECTION BOX - BLUE BOX", "nsi_id": "unitedstatespostalservice-a77078", "operator": "United States Postal Service", "operator:short": "USPS", "operator:type": "public", "operator:wikidata": "Q668687", "ref": "7992800003"}, "type": "Feature"}
{"dataset_attributes": {"@spider": "usps_collection_boxes", "spider:collection_time": "2023-12-16T08:23:48.880691"}, "geometry": {"coordinates": [-106.1959310277, 31.6823150086], "type": "Point"}, "id": "i1GbkcpnCUTgQri7Hu92rl060p0=", "properties": {"@spider": "usps_collection_boxes", "addr:city": "EL PASO", "addr:country": "US", "addr:full": "14026 HORIZON BLVD", "addr:postcode": "79928", "addr:state": "TX", "amenity": "post_box", "brand": "United States Postal Service", "brand:wikidata": "Q668687", "collection_times": "Mo-Sa 10:30", "name": "USPS COLLECTION BOX - BLUE BOX", "nsi_id": "unitedstatespostalservice-a77078", "operator": "United States Postal Service", "operator:short": "USPS", "operator:type": "public", "operator:wikidata": "Q668687", "ref": "7992800004"}, "type": "Feature"}
{"dataset_attributes": {"@spider": "usps_collection_boxes", "spider:collection_time": "2023-12-16T08:23:48.880691"}, "geometry": {"coordinates": [-106.2170614198, 31.6538842669], "type": "Point"}, "id": "UquO08wnEJ7nqYESR68CoiGhoVA=", "properties": {"@spider": "usps_collection_boxes", "addr:city": "EL PASO", "addr:country": "US", "addr:full": "13500 TIMOTHY DR", "addr:postcode": "79928", "addr:state": "TX", "amenity": "post_box", "brand": "United States Postal Service", "brand:wikidata": "Q668687", "collection_times": "Mo-Sa 11:00", "name": "USPS COLLECTION BOX - BLUE BOX", "nsi_id": "unitedstatespostalservice-a77078", "operator": "United States Postal Service", "operator:short": "USPS", "operator:type": "public", "operator:wikidata": "Q668687", "ref": "7992800005"}, "type": "Feature"}
{"dataset_attributes": {"@spider": "usps_collection_boxes", "spider:collection_time": "2023-12-16T08:23:48.880691"}, "geometry": {"coordinates": [-106.2059639, 31.6923835], "type": "Point"}, "id": "uSV-F8aXm8MbVOFSImHt395q4k4=", "properties": {"@spider": "usps_collection_boxes", "addr:city": "EL PASO", "addr:country": "US", "addr:full": "1300 HORIZON BLVD", "addr:postcode": "79928", "addr:state": "TX", "amenity": "post_box", "brand": "United States Postal Service", "brand:wikidata": "Q668687", "collection_times": "Mo-Sa 09:00", "name": "USPS COLLECTION BOX - BLUE BOX", "nsi_id": "unitedstatespostalservice-a77078", "operator": "United States Postal Service", "operator:short": "USPS", "operator:type": "public", "operator:wikidata": "Q668687", "ref": "7992800006"}, "type": "Feature"}
{"dataset_attributes": {"@spider": "usps_collection_boxes", "spider:collection_time": "2023-12-16T08:23:48.880691"}, "geometry": {"coordinates": [-106.444482, 31.813772], "type": "Point"}, "id": "upGzoMSiWxyBk8Ia-NyqupDOjpc=", "properties": {"@spider": "usps_collection_boxes", "addr:city": "EL PASO", "addr:country": "US", "addr:full": "4116 DYER ST", "addr:postcode": "79930", "addr:state": "TX", "amenity": "post_box", "brand": "United States Postal Service", "brand:wikidata": "Q668687", "collection_times": "Mo-Fr 17:05; Sa 17:00", "name": "USPS COLLECTION BOX - BLUE BOX", "note": "ON 12/24 AND 12/31, THIS BOX MAY BE COLLECTED AS EARLY AS 12 NOON.", "nsi_id": "unitedstatespostalservice-a77078", "operator": "United States Postal Service", "operator:short": "USPS", "operator:type": "public", "operator:wikidata": "Q668687", "ref": "7993000002"}, "type": "Feature"}
{"dataset_attributes": {"@spider": "usps_collection_boxes", "spider:collection_time": "2023-12-16T08:23:48.880691"}, "geometry": {"coordinates": [-106.4441569831, 31.8136880136], "type": "Point"}, "id": "kN94sNnr7BLqvUHJ64S5KjRVtwM=", "properties": {"@spider": "usps_collection_boxes", "addr:city": "EL PASO", "addr:country": "US", "addr:full": "4116 DYER ST", "addr:postcode": "79930", "addr:state": "TX", "amenity": "post_box", "brand": "United States Postal Service", "brand:wikidata": "Q668687", "collection_times": "Mo-Fr 17:05; Sa 17:00", "name": "USPS COLLECTION BOX - BLUE BOX", "note": "ON 12/24 AND 12/31, THIS BOX MAY BE COLLECTED AS EARLY AS 12 NOON.", "nsi_id": "unitedstatespostalservice-a77078", "operator": "United States Postal Service", "operator:short": "USPS", "operator:type": "public", "operator:wikidata": "Q668687", "ref": "7993000003"}, "type": "Feature"}
{"dataset_attributes": {"@spider": "usps_collection_boxes", "spider:collection_time": "2023-12-16T08:23:48.880691"}, "geometry": {"coordinates": [-106.44466, 31.81361], "type": "Point"}, "id": "SXigLVb9wOzG9uJp_i1q2zY4rF8=", "properties": {"@spider": "usps_collection_boxes", "addr:city": "EL PASO", "addr:country": "US", "addr:full": "4116 DYER ST", "addr:postcode": "79930", "addr:state": "TX", "amenity": "post_box", "brand": "United States Postal Service", "brand:wikidata": "Q668687", "collection_times": "Mo-Fr 17:05", "name": "USPS COLLECTION BOX - PO LOBBY", "note": "ON 12/24 AND 12/31, THIS BOX MAY BE COLLECTED AS EARLY AS 12 NOON.", "nsi_id": "unitedstatespostalservice-a77078", "operator": "United States Postal Service", "operator:short": "USPS", "operator:type": "public", "operator:wikidata": "Q668687", "ref": "7993000041"}, "type": "Feature"}
{"dataset_attributes": {"@spider": "usps_collection_boxes", "spider:collection_time": "2023-12-16T08:23:48.880691"}, "geometry": {"coordinates": [-106.44466, 31.81361], "type": "Point"}, "id": "4AeRG2MFfO405397vpOlosjXfVQ=", "properties": {"@spider": "usps_collection_boxes", "addr:city": "EL PASO", "addr:country": "US", "addr:full": "4116 DYER ST", "addr:postcode": "79930", "addr:state": "TX", "amenity": "post_box", "brand": "United States Postal Service", "brand:wikidata": "Q668687", "collection_times": "Mo-Fr 17:05", "name": "USPS COLLECTION BOX - PO LOBBY", "note": "ON 12/24 AND 12/31, THIS BOX MAY BE COLLECTED AS EARLY AS 12 NOON.", "nsi_id": "unitedstatespostalservice-a77078", "operator": "United States Postal Service", "operator:short": "USPS", "operator:type": "public", "operator:wikidata": "Q668687", "ref": "7993000042"}, "type": "Feature"}
{"dataset_attributes": {"@spider": "usps_collection_boxes", "spider:collection_time": "2023-12-16T08:23:48.880691"}, "geometry": {"coordinates": [-106.444660688, 31.81360522], "type": "Point"}, "id": "swQgGlm_4nmEyYEOr2Sz2TTeyUo=", "properties": {"@spider": "usps_collection_boxes", "addr:city": "EL PASO", "addr:country": "US", "addr:full": "4116 DYER ST", "addr:postcode": "79930", "addr:state": "TX", "amenity": "post_box", "brand": "United States Postal Service", "brand:wikidata": "Q668687", "collection_times": "Mo-Fr 17:00", "name": "USPS COLLECTION BOX - PO LOBBY", "note": "ON 12/24 AND 12/31, THIS BOX MAY BE COLLECTED AS EARLY AS 12 NOON.", "nsi_id": "unitedstatespostalservice-a77078", "operator": "United States Postal Service", "operator:short": "USPS", "operator:type": "public", "operator:wikidata": "Q668687", "ref": "7993000043"}, "type": "Feature"}
{"dataset_attributes": {"@spider": "usps_collection_boxes", "spider:collection_time": "2023-12-16T08:23:48.880691"}, "geometry": {"coordinates": [-106.582179, 31.85049], "type": "Point"}, "id": "MJE8EvNG8em9oeRzfzr7LWnLMKw=", "properties": {"@spider": "usps_collection_boxes", "addr:city": "EL PASO", "addr:country": "US", "addr:full": "5300 DONIPHAN DR", "addr:postcode": "79932", "addr:state": "TX", "amenity": "post_box", "brand": "United States Postal Service", "brand:wikidata": "Q668687", "collection_times": "Mo-Fr 15:15", "name": "USPS COLLECTION BOX - BLUE BOX", "note": "ON 12/24 AND 12/31, THIS BOX MAY BE COLLECTED AS EARLY AS 12 NOON.", "nsi_id": "unitedstatespostalservice-a77078", "operator": "United States Postal Service", "operator:short": "USPS", "operator:type": "public", "operator:wikidata": "Q668687", "ref": "7993200000"}, "type": "Feature"}
{"dataset_attributes": {"@spider": "usps_collection_boxes", "spider:collection_time": "2023-12-16T08:23:48.880691"}, "geometry": {"coordinates": [-106.574734, 31.839196], "type": "Point"}, "id": "7nAfjShS2Vbw9LFLAj4pBbmZZqA=", "properties": {"@spider": "usps_collection_boxes", "addr:city": "EL PASO", "addr:country": "US", "addr:full": "7933 N MESA ST STE I", "addr:postcode": "79932", "addr:state": "TX", "amenity": "post_box", "brand": "United States Postal Service", "brand:wikidata": "Q668687", "collection_times": "Mo-Fr 15:45; Sa 14:45", "name": "USPS COLLECTION BOX - BLUE BOX", "note": "ON 12/24 AND 12/31, THIS BOX MAY BE COLLECTED AS EARLY AS 12 NOON.", "nsi_id": "unitedstatespostalservice-a77078", "operator": "United States Postal Service", "operator:short": "USPS", "operator:type": "public", "operator:wikidata": "Q668687", "ref": "7993200009"}, "type": "Feature"}
{"dataset_attributes": {"@spider": "usps_collection_boxes", "spider:collection_time": "2023-12-16T08:23:48.880691"}, "geometry": {"coordinates": [-106.576721, 31.839992], "type": "Point"}, "id": "r1JltejnDL5wi6twO6EqlJsPW3w=", "properties": {"@spider": "usps_collection_boxes", "addr:city": "EL PASO", "addr:country": "US", "addr:full": "8001 N MESA ST", "addr:postcode": "79932", "addr:state": "TX", "amenity": "post_box", "brand": "United States Postal Service", "brand:wikidata": "Q668687", "collection_times": "Mo-Fr 15:35; Sa 14:50", "name": "USPS COLLECTION BOX - BLUE BOX", "note": "ON 12/24 AND 12/31, THIS BOX MAY BE COLLECTED AS EARLY AS 12 NOON.", "nsi_id": "unitedstatespostalservice-a77078", "operator": "United States Postal Service", "operator:short": "USPS", "operator:type": "public", "operator:wikidata": "Q668687", "ref": "7993200010"}, "type": "Feature"}
{"dataset_attributes": {"@spider": "usps_collection_boxes", "spider:collection_time": "2023-12-16T08:23:48.880691"}, "geometry": {"coordinates": [-106.3297835, 31.77031], "type": "Point"}, "id": "q0V-hjEv7TBfyYSDn-Q1pFFAP2c=", "properties": {"@spider": "usps_collection_boxes", "addr:city": "EL PASO", "addr:country": "US", "addr:full": "10737 GATEWAY BLVD W", "addr:postcode": "79935", "addr:state": "TX", "amenity": "post_box", "brand": "United States Postal Service", "brand:wikidata": "Q668687", "collection_times": "Mo-Fr 13:40", "name": "USPS COLLECTION BOX - BLUE BOX", "note": "ON 12/24 AND 12/31, THIS BOX MAY BE COLLECTED AS EARLY AS 12 NOON.", "nsi_id": "unitedstatespostalservice-a77078", "operator": "United States Postal Service", "operator:short": "USPS", "operator:type": "public", "operator:wikidata": "Q668687", "ref": "7993500006"}, "type": "Feature"}
{"dataset_attributes": {"@spider": "usps_collection_boxes", "spider:collection_time": "2023-12-16T08:23:48.880691"}, "geometry": {"coordinates": [-106.28599, 31.78794], "type": "Point"}, "id": "6fdcbi7T-EgMCMKHRId9b4X7zvE=", "properties": {"@spider": "usps_collection_boxes", "addr:city": "EL PASO", "addr:country": "US", "addr:full": "1790 N LEE TREVINO DR", "addr:postcode": "79936", "addr:state": "TX", "amenity": "post_box", "brand": "United States Postal Service", "brand:wikidata": "Q668687", "collection_times": "Mo-Fr 16:45; Sa 13:25", "name": "USPS COLLECTION BOX - BLUE BOX", "note": "ON 12/24 AND 12/31, THIS BOX MAY BE COLLECTED AS EARLY AS 12 NOON.", "nsi_id": "unitedstatespostalservice-a77078", "operator": "United States Postal Service", "operator:short": "USPS", "operator:type": "public", "operator:wikidata": "Q668687", "ref": "7993600028"}, "type": "Feature"}
{"dataset_attributes": {"@spider": "usps_collection_boxes", "spider:collection_time": "2023-12-16T08:23:48.880691"}, "geometry": {"coordinates": [-106.303439, 31.77219], "type": "Point"}, "id": "iq0QhZxRwx8VkOfHC4RMwXmDcG8=", "properties": {"@spider": "usps_collection_boxes", "addr:city": "EL PASO", "addr:country": "US", "addr:full": "2100 GEORGE DIETER DR", "addr:postcode": "79936", "addr:state": "TX", "amenity": "post_box", "brand": "United States Postal Service", "brand:wikidata": "Q668687", "collection_times": "Mo-Fr 17:30; Sa 16:45", "name": "USPS COLLECTION BOX - BLUE BOX", "note": "ON 12/24 AND 12/31, THIS BOX MAY BE COLLECTED AS EARLY AS 12 NOON.", "nsi_id": "unitedstatespostalservice-a77078", "operator": "United States Postal Service", "operator:short": "USPS", "operator:type": "public", "operator:wikidata": "Q668687", "ref": "7993600038"}, "type": "Feature"}
{"dataset_attributes": {"@spider": "usps_collection_boxes", "spider:collection_time": "2023-12-16T08:23:48.880691"}, "geometry": {"coordinates": [-106.303439, 31.77219], "type": "Point"}, "id": "KzhysNyOTXS2y_rNDpwP456rdbY=", "properties": {"@spider": "usps_collection_boxes", "addr:city": "EL PASO", "addr:country": "US", "addr:full": "2100 GEORGE DIETER DR", "addr:postcode": "79936", "addr:state": "TX", "amenity": "post_box", "brand": "United States Postal Service", "brand:wikidata": "Q668687", "collection_times": "Mo-Fr 17:30; Sa 16:45", "name": "USPS COLLECTION BOX - PO LOBBY", "note": "ON 12/24 AND 12/31, THIS BOX MAY BE COLLECTED AS EARLY AS 12 NOON.", "nsi_id": "unitedstatespostalservice-a77078", "operator": "United States Postal Service", "operator:short": "USPS", "operator:type": "public", "operator:wikidata": "Q668687", "ref": "7993600041"}, "type": "Feature"}
{"dataset_attributes": {"@spider": "usps_collection_boxes", "spider:collection_time": "2023-12-16T08:23:48.880691"}, "geometry": {"coordinates": [-106.303439, 31.77219], "type": "Point"}, "id": "nK8pDpPnAoYmFgd9YRcfVeY55WY=", "properties": {"@spider": "usps_collection_boxes", "addr:city": "EL PASO", "addr:country": "US", "addr:full": "2100 GEORGE DIETER DR", "addr:postcode": "79936", "addr:state": "TX", "amenity": "post_box", "brand": "United States Postal Service", "brand:wikidata": "Q668687", "collection_times": "Mo-Fr 17:30; Sa 16:45", "name": "USPS COLLECTION BOX - PO LOBBY", "note": "ON 12/24 AND 12/31, THIS BOX MAY BE COLLECTED AS EARLY AS 12 NOON.", "nsi_id": "unitedstatespostalservice-a77078", "operator": "United States Postal Service", "operator:short": "USPS", "operator:type": "public", "operator:wikidata": "Q668687", "ref": "7993600042"}, "type": "Feature"}
{"dataset_attributes": {"@spider": "usps_collection_boxes", "spider:collection_time": "2023-12-16T08:23:48.880691"}, "geometry": {"coordinates": [-106.303439, 31.77219], "type": "Point"}, "id": "xT4Y3Yetum19rQVXMeU7NU2tGPU=", "properties": {"@spider": "usps_collection_boxes", "addr:city": "EL PASO", "addr:country": "US", "addr:full": "2100 GEORGE DIETER DR", "addr:postcode": "79936", "addr:state": "TX", "amenity": "post_box", "brand": "United States Postal Service", "brand:wikidata": "Q668687", "collection_times": "Mo-Fr 17:30; Sa 16:45", "name": "USPS COLLECTION BOX - PO LOBBY", "note": "ON 12/24 AND 12/31, THIS BOX MAY BE COLLECTED AS EARLY AS 12 NOON.", "nsi_id": "unitedstatespostalservice-a77078", "operator": "United States Postal Service", "operator:short": "USPS", "operator:type": "public", "operator:wikidata": "Q668687", "ref": "7993600043"}, "type": "Feature"}
{"dataset_attributes": {"@spider": "usps_collection_boxes", "spider:collection_time": "2023-12-16T08:23:48.880691"}, "geometry": {"coordinates": [-106.318805, 31.766806], "type": "Point"}, "id": "-V3J2nREpwtOjdBsc8db2YzqrGA=", "properties": {"@spider": "usps_collection_boxes", "addr:city": "EL PASO", "addr:country": "US", "addr:full": "1840 N LEE TREVINO DR", "addr:postcode": "79936", "addr:state": "TX", "amenity": "post_box", "brand": "United States Postal Service", "brand:wikidata": "Q668687", "collection_times": "Mo-Fr 17:10; Sa 13:30", "name": "USPS COLLECTION BOX - BLUE BOX", "note": "ON 12/24 AND 12/31, THIS BOX MAY BE COLLECTED AS EARLY AS 12 NOON.", "nsi_id": "unitedstatespostalservice-a77078", "operator": "United States Postal Service", "operator:short": "USPS", "operator:type": "public", "operator:wikidata": "Q668687", "ref": "7993600044"}, "type": "Feature"}
{"dataset_attributes": {"@spider": "usps_collection_boxes", "spider:collection_time": "2023-12-16T08:23:48.880691"}, "geometry": {"coordinates": [-106.303439, 31.77219], "type": "Point"}, "id": "WLNLoeH8NZTdnZpcExzlgocJcdM=", "properties": {"@spider": "usps_collection_boxes", "addr:city": "EL PASO", "addr:country": "US", "addr:full": "2100 GEORGE DIETER DR", "addr:postcode": "79936", "addr:state": "TX", "amenity": "post_box", "brand": "United States Postal Service", "brand:wikidata": "Q668687", "collection_times": "Mo-Fr 17:30; Sa 16:45", "name": "USPS COLLECTION BOX - APC", "note": "ON 12/24 AND 12/31, THIS BOX MAY BE COLLECTED AS EARLY AS 12 NOON.", "nsi_id": "unitedstatespostalservice-a77078", "operator": "United States Postal Service", "operator:short": "USPS", "operator:type": "public", "operator:wikidata": "Q668687", "ref": "7993600045"}, "type": "Feature"}
{"dataset_attributes": {"@spider": "usps_collection_boxes", "spider:collection_time": "2023-12-16T08:23:48.880691"}, "geometry": {"coordinates": [-106.301592, 31.742988], "type": "Point"}, "id": "vN-i_MljjgNJqpNntMIXEXl_WnI=", "properties": {"@spider": "usps_collection_boxes", "addr:city": "EL PASO", "addr:country": "US", "addr:full": "1478 GEORGE DIETER DR", "addr:postcode": "79936", "addr:state": "TX", "amenity": "post_box", "brand": "United States Postal Service", "brand:wikidata": "Q668687", "collection_times": "Mo-Fr 14:30; Sa 13:00", "name": "USPS COLLECTION BOX - BLUE BOX", "note": "ON 12/24 AND 12/31, THIS BOX MAY BE COLLECTED AS EARLY AS 12 NOON.", "nsi_id": "unitedstatespostalservice-a77078", "operator": "United States Postal Service", "operator:short": "USPS", "operator:type": "public", "operator:wikidata": "Q668687", "ref": "7993600048"}, "type": "Feature"}
{"dataset_attributes": {"@spider": "usps_collection_boxes", "spider:collection_time": "2023-12-16T08:23:48.880691"}, "geometry": {"coordinates": [-106.303451166, 31.773114], "type": "Point"}, "id": "8Zo8W10MDLCPuJho3nTF62CIdPw=", "properties": {"@spider": "usps_collection_boxes", "addr:city": "EL PASO", "addr:country": "US", "addr:full": "2100 GEORGE DIETER DR", "addr:postcode": "79936", "addr:state": "TX", "amenity": "post_box", "brand": "United States Postal Service", "brand:wikidata": "Q668687", "collection_times": "Mo-Fr 17:00; Sa 13:00", "name": "USPS COLLECTION BOX - PO LOBBY", "note": "ON 12/24 AND 12/31, THIS BOX MAY BE COLLECTED AS EARLY AS 12 NOON.", "nsi_id": "unitedstatespostalservice-a77078", "operator": "United States Postal Service", "operator:short": "USPS", "operator:type": "public", "operator:wikidata": "Q668687", "ref": "7993600057"}, "type": "Feature"}
{"dataset_attributes": {"@spider": "usps_collection_boxes", "spider:collection_time": "2023-12-16T08:23:48.880691"}, "geometry": {"coordinates": [-106.166808, 31.819326], "type": "Point"}, "id": "FfOhBQW6hjUIOhjS0gG-Xp60jec=", "properties": {"@spider": "usps_collection_boxes", "addr:city": "EL PASO", "addr:country": "US", "addr:full": "14700 MONTANA AVE", "addr:postcode": "79938", "addr:state": "TX", "amenity": "post_box", "brand": "United States Postal Service", "brand:wikidata": "Q668687", "collection_times": "Mo-Sa 12:00", "name": "USPS COLLECTION BOX - BLUE BOX", "nsi_id": "unitedstatespostalservice-a77078", "operator": "United States Postal Service", "operator:short": "USPS", "operator:type": "public", "operator:wikidata": "Q668687", "ref": "7993800000"}, "type": "Feature"}
{"dataset_attributes": {"@spider": "usps_collection_boxes", "spider:collection_time": "2023-12-16T08:23:48.880691"}, "geometry": {"coordinates": [-106.064829, 31.835934], "type": "Point"}, "id": "AW0SmyucqnnQ2KGBLiaak9_xVaQ=", "properties": {"@spider": "usps_collection_boxes", "addr:city": "EL PASO", "addr:country": "US", "addr:full": "4601 HUECO TANKS RD", "addr:postcode": "79938", "addr:state": "TX", "amenity": "post_box", "brand": "United States Postal Service", "brand:wikidata": "Q668687", "collection_times": "Mo-Sa 11:00", "name": "USPS COLLECTION BOX - BLUE BOX", "nsi_id": "unitedstatespostalservice-a77078", "operator": "United States Postal Service", "operator:short": "USPS", "operator:type": "public", "operator:wikidata": "Q668687", "ref": "7993800001"}, "type": "Feature"}
{"dataset_attributes": {"@spider": "usps_collection_boxes", "spider:collection_time": "2023-12-16T08:23:48.880691"}, "geometry": {"coordinates": [-106.141221, 31.859936], "type": "Point"}, "id": "KmjhetmYWFeS-rpcrjsaF7Z5Q6g=", "properties": {"@spider": "usps_collection_boxes", "addr:city": "EL PASO", "addr:country": "US", "addr:full": "5380 OLEARY DR", "addr:postcode": "79938", "addr:state": "TX", "amenity": "post_box", "brand": "United States Postal Service", "brand:wikidata": "Q668687", "collection_times": "Mo-Sa 11:00", "name": "USPS COLLECTION BOX - BLUE BOX", "nsi_id": "unitedstatespostalservice-a77078", "operator": "United States Postal Service", "operator:short": "USPS", "operator:type": "public", "operator:wikidata": "Q668687", "ref": "7993800002"}, "type": "Feature"}
{"dataset_attributes": {"@spider": "usps_collection_boxes", "spider:collection_time": "2023-12-16T08:23:48.880691"}, "geometry": {"coordinates": [-106.200128791, 31.818593724], "type": "Point"}, "id": "FHqqQqzqTw_YVmuLwGIF5Q03N_Y=", "properties": {"@spider": "usps_collection_boxes", "addr:city": "EL PASO", "addr:country": "US", "addr:full": "4051 FLAGER ST", "addr:postcode": "79938", "addr:state": "TX", "amenity": "post_box", "brand": "United States Postal Service", "brand:wikidata": "Q668687", "collection_times": "Mo-Sa 11:00", "name": "USPS COLLECTION BOX - BLUE BOX", "nsi_id": "unitedstatespostalservice-a77078", "operator": "United States Postal Service", "operator:short": "USPS", "operator:type": "public", "operator:wikidata": "Q668687", "ref": "7993800006"}, "type": "Feature"}
{"dataset_attributes": {"@spider": "usps_collection_boxes", "spider:collection_time": "2023-12-16T08:23:48.880691"}, "geometry": {"coordinates": [-106.2664100091, 31.7870709867], "type": "Point"}, "id": "cZRqbsbajDTe_ShOjpt-3cfLBc8=", "properties": {"@spider": "usps_collection_boxes", "addr:city": "EL PASO", "addr:country": "US", "addr:full": "3070 JOE BATTLE BLVD", "addr:postcode": "79938", "addr:state": "TX", "amenity": "post_box", "brand": "United States Postal Service", "brand:wikidata": "Q668687", "collection_times": "Mo-Fr 15:45; Sa 12:15", "name": "USPS COLLECTION BOX - BLUE BOX", "note": "ON 12/24 AND 12/31, THIS BOX MAY BE COLLECTED AS EARLY AS 12 NOON.", "nsi_id": "unitedstatespostalservice-a77078", "operator": "United States Postal Service", "operator:short": "USPS", "operator:type": "public", "operator:wikidata": "Q668687", "ref": "7993800010"}, "type": "Feature"}
{"dataset_attributes": {"@spider": "usps_collection_boxes", "spider:collection_time": "2023-12-16T08:23:48.880691"}, "geometry": {"coordinates": [-106.3786053914, 31.7936279789], "type": "Point"}, "id": "5m-vbke538tXrxY9dx_n0TQ0aVo=", "properties": {"@spider": "usps_collection_boxes", "addr:city": "EL PASO", "addr:country": "US", "addr:full": "8401 BOEING DR", "addr:postcode": "79999", "addr:state": "TX", "amenity": "post_box", "brand": "United States Postal Service", "brand:wikidata": "Q668687", "collection_times": "Mo-Sa 18:00", "name": "USPS COLLECTION BOX - BLUE BOX", "note": "ON 12/24 AND 12/31, THIS BOX MAY BE COLLECTED AS EARLY AS 12 NOON.", "nsi_id": "unitedstatespostalservice-a77078", "operator": "United States Postal Service", "operator:short": "USPS", "operator:type": "public", "operator:wikidata": "Q668687", "ref": "7999900002"}, "type": "Feature"}
{"dataset_attributes": {"@spider": "usps_collection_boxes", "spider:collection_time": "2023-12-16T08:23:48.880691"}, "geometry": {"coordinates": [-106.3786053914, 31.7936279789], "type": "Point"}, "id": "QzSVss2BMmff0y98LjIM7ZqCi7w=", "properties": {"@spider": "usps_collection_boxes", "addr:city": "EL PASO", "addr:country": "US", "addr:full": "8401 BOEING DR", "addr:postcode": "79999", "addr:state": "TX", "amenity": "post_box", "brand": "United States Postal Service", "brand:wikidata": "Q668687", "collection_times": "Mo-Sa 18:00", "name": "USPS COLLECTION BOX - BLUE BOX", "note": "ON 12/24 AND 12/31, THIS BOX MAY BE COLLECTED AS EARLY AS 12 NOON.", "nsi_id": "unitedstatespostalservice-a77078", "operator": "United States Postal Service", "operator:short": "USPS", "operator:type": "public", "operator:wikidata": "Q668687", "ref": "7999900003"}, "type": "Feature"}
{"dataset_attributes": {"@spider": "usps_collection_boxes", "spider:collection_time": "2023-12-16T08:23:48.880691"}, "geometry": {"coordinates": [-106.3786053914, 31.7936279789], "type": "Point"}, "id": "kFIQQeqq2iYzPHH0_istuCrzzOs=", "properties": {"@spider": "usps_collection_boxes", "addr:city": "EL PASO", "addr:country": "US", "addr:full": "8401 BOEING DR", "addr:postcode": "79999", "addr:state": "TX", "amenity": "post_box", "brand": "United States Postal Service", "brand:wikidata": "Q668687", "collection_times": "Mo-Sa 18:00", "name": "USPS COLLECTION BOX - PO LOBBY", "note": "ON 12/24 AND 12/31, THIS BOX MAY BE COLLECTED AS EARLY AS 12 NOON.", "nsi_id": "unitedstatespostalservice-a77078", "operator": "United States Postal Service", "operator:short": "USPS", "operator:type": "public", "operator:wikidata": "Q668687", "ref": "7999900006"}, "type": "Feature"}
{"dataset_attributes": {"@spider": "usps_collection_boxes", "spider:collection_time": "2023-12-16T08:23:48.880691"}, "geometry": {"coordinates": [-106.3786053914, 31.7936279789], "type": "Point"}, "id": "-T5hTPVW3XxzZNN4J1VWg2lr9DY=", "properties": {"@spider": "usps_collection_boxes", "addr:city": "EL PASO", "addr:country": "US", "addr:full": "8401 BOEING DR", "addr:postcode": "79999", "addr:state": "TX", "amenity": "post_box", "brand": "United States Postal Service", "brand:wikidata": "Q668687", "collection_times": "Mo-Sa 18:00", "name": "USPS COLLECTION BOX - APC", "note": "ON 12/24 AND 12/31, THIS BOX MAY BE COLLECTED AS EARLY AS 12 NOON.", "nsi_id": "unitedstatespostalservice-a77078", "operator": "United States Postal Service", "operator:short": "USPS", "operator:type": "public", "operator:wikidata": "Q668687", "ref": "7999900007"}, "type": "Feature"}
{"dataset_attributes": {"@spider": "usps_collection_boxes", "spider:collection_time": "2023-12-16T08:23:48.880691"}, "geometry": {"coordinates": [-106.3786053914, 31.7936279789], "type": "Point"}, "id": "36mR9aEKcTUvtuT9Qo8P-Jxe69c=", "properties": {"@spider": "usps_collection_boxes", "addr:city": "EL PASO", "addr:country": "US", "addr:full": "8401 BOEING DR", "addr:postcode": "79999", "addr:state": "TX", "amenity": "post_box", "brand": "United States Postal Service", "brand:wikidata": "Q668687", "collection_times": "Mo-Fr 18:30; Sa 16:00", "name": "USPS COLLECTION BOX - PO LOBBY", "note": "ON 12/24 AND 12/31, THIS BOX MAY BE COLLECTED AS EARLY AS 12 NOON.", "nsi_id": "unitedstatespostalservice-a77078", "operator": "United States Postal Service", "operator:short": "USPS", "operator:type": "public", "operator:wikidata": "Q668687", "ref": "7999900011"}, "type": "Feature"}
