{"geometry": {"coordinates": [-105.136369, 39.792684], "type": "Point"}, "id": "7x_RfWPbCOuE5f4cVMTbQZE0P2M=", "properties": {"@source_uri": "https://tools.usps.com/UspsToolsRestServices/rest/POLocator/findLocations", "@spider": "usps_collection_boxes", "addr:city": "ARVADA", "addr:country": "US", "addr:postcode": "80002", "addr:state": "CO", "addr:street_address": "12335 W 53RD AVE", "amenity": "post_box", "collection_times": "Mo-Fr 10:00", "nsi_id": "unitedstatespostalservice-a77078", "operator": "United States Postal Service", "operator:short": "USPS", "operator:type": "public", "operator:wikidata": "Q668687", "ref": "8000200006"}, "type": "Feature"}
{"geometry": {"coordinates": [-105.086575, 39.802534], "type": "Point"}, "id": "XIe5nnZBjQeKv6Q7EbYF2pDVxKs=", "properties": {"@source_uri": "https://tools.usps.com/UspsToolsRestServices/rest/POLocator/findLocations", "@spider": "usps_collection_boxes", "addr:city": "ARVADA", "addr:country": "US", "addr:postcode": "80002", "addr:state": "CO", "addr:street_address": "5885 ALLISON ST", "amenity": "post_box", "collection_times": "Mo-Fr 17:30; Sa 16:00", "note": "ON 12/24 AND 12/31, THIS BOX MAY BE COLLECTED AS EARLY AS 12 NOON.", "nsi_id": "unitedstatespostalservice-a77078", "operator": "United States Postal Service", "operator:short": "USPS", "operator:type": "public", "operator:wikidata": "Q668687", "ref": "8000200007"}, "type": "Feature"}
{"geometry": {"coordinates": [-105.086557, 39.802551], "type": "Point"}, "id": "qR6oNBjLENC7y9Z9qD_MLRVzxMk=", "properties": {"@source_uri": "https://tools.usps.com/UspsToolsRestServices/rest/POLocator/findLocations", "@spider": "usps_collection_boxes", "addr:city": "ARVADA", "addr:country": "US", "addr:postcode": "80002", "addr:state": "CO", "addr:street_address": "5885 ALLISON ST", "amenity": "post_box", "collection_times": "Mo-Fr 17:30; Sa 16:00", "note": "ON 12/24 AND 12/31, THIS BOX MAY BE COLLECTED AS EARLY AS 12 NOON.", "nsi_id": "unitedstatespostalservice-a77078", "operator": "United States Postal Service", "operator:short": "USPS", "operator:type": "public", "operator:wikidata": "Q668687", "ref": "8000200008"}, "type": "Feature"}
{"geometry": {"coordinates": [-105.086156, 39.802863], "type": "Point"}, "id": "bsj2cZatCxsGaHVxvocBnS36aPU=", "properties": {"@source_uri": "https://tools.usps.com/UspsToolsRestServices/rest/POLocator/findLocations", "@spider": "usps_collection_boxes", "addr:city": "ARVADA", "addr:country": "US", "addr:postcode": "80002", "addr:state": "CO", "addr:street_address": "5885 ALLISON ST", "amenity": "post_box", "collection_times": "Mo-Fr 17:30; Sa 16:00", "note": "ON 12/24 AND 12/31, THIS BOX MAY BE COLLECTED AS EARLY AS 12 NOON.", "nsi_id": "unitedstatespostalservice-a77078", "operator": "United States Postal Service", "operator:short": "USPS", "operator:type": "public", "operator:wikidata": "Q668687", "ref": "8000200009"}, "type": "Feature"}
{"geometry": {"coordinates": [-105.066245, 39.798415], "type": "Point"}, "id": "OkkHx1cRsgBJJdAHP_2gwq4ZcqY=", "properties": {"@source_uri": "https://tools.usps.com/UspsToolsRestServices/rest/POLocator/findLocations", "@spider": "usps_collection_boxes", "addr:city": "ARVADA", "addr:country": "US", "addr:postcode": "80002", "addr:state": "CO", "addr:street_address": "6395 W 56TH AVE", "amenity": "post_box", "collection_times": "Mo-Sa 14:45", "note": "ON 12/24 AND 12/31, THIS BOX MAY BE COLLECTED AS EARLY AS 12 NOON.", "nsi_id": "unitedstatespostalservice-a77078", "operator": "United States Postal Service", "operator:short": "USPS", "operator:type": "public", "operator:wikidata": "Q668687", "ref": "8000200021"}, "type": "Feature"}
{"geometry": {"coordinates": [-105.068719, 39.794447], "type": "Point"}, "id": "DxlEP_DPR6xEmLd26QpLdIjN5wg=", "properties": {"@source_uri": "https://tools.usps.com/UspsToolsRestServices/rest/POLocator/findLocations", "@spider": "usps_collection_boxes", "addr:city": "ARVADA", "addr:country": "US", "addr:postcode": "80002", "addr:state": "CO", "addr:street_address": "5405 MARSHALL ST", "amenity": "post_box", "collection_times": "Mo-Sa 14:45", "note": "ON 12/24 AND 12/31, THIS BOX MAY BE COLLECTED AS EARLY AS 12 NOON.", "nsi_id": "unitedstatespostalservice-a77078", "operator": "United States Postal Service", "operator:short": "USPS", "operator:type": "public", "operator:wikidata": "Q668687", "ref": "8000200022"}, "type": "Feature"}
{"geometry": {"coordinates": [-105.106784, 39.802873], "type": "Point"}, "id": "3fZuZhZ2l_265R7uP_KebbJFyMw=", "properties": {"@source_uri": "https://tools.usps.com/UspsToolsRestServices/rest/POLocator/findLocations", "@spider": "usps_collection_boxes", "addr:city": "ARVADA", "addr:country": "US", "addr:postcode": "80002", "addr:state": "CO", "addr:street_address": "9731 W 58TH AVE", "amenity": "post_box", "collection_times": "Mo-Sa 09:45", "nsi_id": "unitedstatespostalservice-a77078", "operator": "United States Postal Service", "operator:short": "USPS", "operator:type": "public", "operator:wikidata": "Q668687", "ref": "8000200024"}, "type": "Feature"}
{"geometry": {"coordinates": [-105.077588, 39.791522], "type": "Point"}, "id": "rPS1tZm_-q_WWS3Byr387xqVgvE=", "properties": {"@source_uri": "https://tools.usps.com/UspsToolsRestServices/rest/POLocator/findLocations", "@spider": "usps_collection_boxes", "addr:city": "ARVADA", "addr:country": "US", "addr:postcode": "80002", "addr:state": "CO", "addr:street_address": "7375 W 52ND AVE", "amenity": "post_box", "collection_times": "Mo-Sa 14:35", "note": "ON 12/24 AND 12/31, THIS BOX MAY BE COLLECTED AS EARLY AS 12 NOON.", "nsi_id": "unitedstatespostalservice-a77078", "operator": "United States Postal Service", "operator:short": "USPS", "operator:type": "public", "operator:wikidata": "Q668687", "ref": "8000200025"}, "type": "Feature"}
{"geometry": {"coordinates": [-105.086156, 39.802863], "type": "Point"}, "id": "amxNurSSTHrZmeIkxnL9fUx9KAU=", "properties": {"@source_uri": "https://tools.usps.com/UspsToolsRestServices/rest/POLocator/findLocations", "@spider": "usps_collection_boxes", "addr:city": "ARVADA", "addr:country": "US", "addr:postcode": "80002", "addr:state": "CO", "addr:street_address": "5885 ALLISON ST", "amenity": "post_box", "collection_times": "Mo-Fr 17:30; Sa 16:00", "indoor": "yes", "note": "ON 12/24 AND 12/31, THIS BOX MAY BE COLLECTED AS EARLY AS 12 NOON.", "nsi_id": "unitedstatespostalservice-a77078", "operator": "United States Postal Service", "operator:short": "USPS", "operator:type": "public", "operator:wikidata": "Q668687", "ref": "8000200027"}, "type": "Feature"}
{"geometry": {"coordinates": [-105.086156, 39.802863], "type": "Point"}, "id": "LUwm729SUc8dbGi2oClvze5oRCQ=", "properties": {"@source_uri": "https://tools.usps.com/UspsToolsRestServices/rest/POLocator/findLocations", "@spider": "usps_collection_boxes", "addr:city": "ARVADA", "addr:country": "US", "addr:postcode": "80002", "addr:state": "CO", "addr:street_address": "5885 ALLISON ST", "amenity": "post_box", "collection_times": "Mo-Fr 17:30; Sa 16:00", "indoor": "yes", "note": "ON 12/24 AND 12/31, THIS BOX MAY BE COLLECTED AS EARLY AS 12 NOON.", "nsi_id": "unitedstatespostalservice-a77078", "operator": "United States Postal Service", "operator:short": "USPS", "operator:type": "public", "operator:wikidata": "Q668687", "ref": "8000200028"}, "type": "Feature"}
{"geometry": {"coordinates": [-105.163197, 39.814318], "type": "Point"}, "id": "T2U6RM4ut99JAsUpqbogAJvuHrU=", "properties": {"@source_uri": "https://tools.usps.com/UspsToolsRestServices/rest/POLocator/findLocations", "@spider": "usps_collection_boxes", "addr:city": "ARVADA", "addr:country": "US", "addr:postcode": "80002", "addr:state": "CO", "addr:street_address": "14605 W 64TH AVE", "amenity": "post_box", "collection_times": "Mo-Sa 10:15", "nsi_id": "unitedstatespostalservice-a77078", "operator": "United States Postal Service", "operator:short": "USPS", "operator:type": "public", "operator:wikidata": "Q668687", "ref": "8000200036"}, "type": "Feature"}
{"geometry": {"coordinates": [-105.086156, 39.802863], "type": "Point"}, "id": "f3EVsS9gud01NltmcM5knaHa_WI=", "properties": {"@source_uri": "https://tools.usps.com/UspsToolsRestServices/rest/POLocator/findLocations", "@spider": "usps_collection_boxes", "addr:city": "ARVADA", "addr:country": "US", "addr:postcode": "80002", "addr:state": "CO", "addr:street_address": "5885 ALLISON ST", "amenity": "post_box", "collection_times": "Mo-Fr 17:30; Sa 16:00", "name": "USPS COLLECTION BOX - APC", "note": "ON 12/24 AND 12/31, THIS BOX MAY BE COLLECTED AS EARLY AS 12 NOON.", "nsi_id": "unitedstatespostalservice-a77078", "operator": "United States Postal Service", "operator:short": "USPS", "operator:type": "public", "operator:wikidata": "Q668687", "ref": "8000200037"}, "type": "Feature"}
{"geometry": {"coordinates": [-105.136901, 39.797021], "type": "Point"}, "id": "sRaqlq1uCetW-eYQf_kUUakvhxQ=", "properties": {"@source_uri": "https://tools.usps.com/UspsToolsRestServices/rest/POLocator/findLocations", "@spider": "usps_collection_boxes", "addr:city": "ARVADA", "addr:country": "US", "addr:postcode": "80002", "addr:state": "CO", "addr:street_address": "5610 WARD RD", "amenity": "post_box", "collection_times": "Mo-Sa 10:00", "nsi_id": "unitedstatespostalservice-a77078", "operator": "United States Postal Service", "operator:short": "USPS", "operator:type": "public", "operator:wikidata": "Q668687", "ref": "8000200040"}, "type": "Feature"}
{"geometry": {"coordinates": [-105.0844690414, 39.8382759792], "type": "Point"}, "id": "fPxzxmhFADE9A_SMIPxaNfNnbYQ=", "properties": {"@source_uri": "https://tools.usps.com/UspsToolsRestServices/rest/POLocator/findLocations", "@spider": "usps_collection_boxes", "addr:city": "ARVADA", "addr:country": "US", "addr:postcode": "80003", "addr:state": "CO", "addr:street_address": "7765 WADSWORTH BLVD", "amenity": "post_box", "collection_times": "Mo-Fr 17:30; Sa 16:30", "note": "ON 12/24 AND 12/31, THIS BOX MAY BE COLLECTED AS EARLY AS 12 NOON.", "nsi_id": "unitedstatespostalservice-a77078", "operator": "United States Postal Service", "operator:short": "USPS", "operator:type": "public", "operator:wikidata": "Q668687", "ref": "8000300000"}, "type": "Feature"}
{"geometry": {"coordinates": [-105.0844690414, 39.8382759792], "type": "Point"}, "id": "ErOx4cAuS-7wMMhTTn8powmkDGY=", "properties": {"@source_uri": "https://tools.usps.com/UspsToolsRestServices/rest/POLocator/findLocations", "@spider": "usps_collection_boxes", "addr:city": "ARVADA", "addr:country": "US", "addr:postcode": "80003", "addr:state": "CO", "addr:street_address": "7765 WADSWORTH BLVD", "amenity": "post_box", "collection_times": "Mo-Fr 17:30; Sa 16:30", "note": "ON 12/24 AND 12/31, THIS BOX MAY BE COLLECTED AS EARLY AS 12 NOON.", "nsi_id": "unitedstatespostalservice-a77078", "operator": "United States Postal Service", "operator:short": "USPS", "operator:type": "public", "operator:wikidata": "Q668687", "ref": "8000300001"}, "type": "Feature"}
{"geometry": {"coordinates": [-105.082691, 39.855372], "type": "Point"}, "id": "6M-27bH4eLa3kimDzz7RKeJjrFA=", "properties": {"@source_uri": "https://tools.usps.com/UspsToolsRestServices/rest/POLocator/findLocations", "@spider": "usps_collection_boxes", "addr:city": "ARVADA", "addr:country": "US", "addr:postcode": "80003", "addr:state": "CO", "addr:street_address": "8759 WADSWORTH BLVD", "amenity": "post_box", "collection_times": "Mo-Sa 10:30", "nsi_id": "unitedstatespostalservice-a77078", "operator": "United States Postal Service", "operator:short": "USPS", "operator:type": "public", "operator:wikidata": "Q668687", "ref": "8000300010"}, "type": "Feature"}
{"geometry": {"coordinates": [-105.052451, 39.805903], "type": "Point"}, "id": "aV_EL11-_lKARJKIzpHMXAZnxLw=", "properties": {"@source_uri": "https://tools.usps.com/UspsToolsRestServices/rest/POLocator/findLocations", "@spider": "usps_collection_boxes", "addr:city": "ARVADA", "addr:country": "US", "addr:postcode": "80003", "addr:state": "CO", "addr:street_address": "5005 W 60TH AVE", "amenity": "post_box", "collection_times": "Mo-Sa 10:15", "nsi_id": "unitedstatespostalservice-a77078", "operator": "United States Postal Service", "operator:short": "USPS", "operator:type": "public", "operator:wikidata": "Q668687", "ref": "8000300014"}, "type": "Feature"}
{"geometry": {"coordinates": [-105.052473, 39.849441], "type": "Point"}, "id": "fQ8uCN3X6VtqgFitvsK1Zg-5Jkk=", "properties": {"@source_uri": "https://tools.usps.com/UspsToolsRestServices/rest/POLocator/findLocations", "@spider": "usps_collection_boxes", "addr:city": "ARVADA", "addr:country": "US", "addr:postcode": "80003", "addr:state": "CO", "addr:street_address": "8378 SHERIDAN BLVD", "amenity": "post_box", "collection_times": "Mo-Sa 15:00", "note": "ON 12/24 AND 12/31, THIS BOX MAY BE COLLECTED AS EARLY AS 12 NOON.", "nsi_id": "unitedstatespostalservice-a77078", "operator": "United States Postal Service", "operator:short": "USPS", "operator:type": "public", "operator:wikidata": "Q668687", "ref": "8000300017"}, "type": "Feature"}
{"geometry": {"coordinates": [-105.0806618877, 39.8136014835], "type": "Point"}, "id": "cf0b73jqcmTrAZGOtsq_Aace9UE=", "properties": {"@source_uri": "https://tools.usps.com/UspsToolsRestServices/rest/POLocator/findLocations", "@spider": "usps_collection_boxes", "addr:city": "ARVADA", "addr:country": "US", "addr:postcode": "80003", "addr:state": "CO", "addr:street_address": "6464 WADSWORTH BYP", "amenity": "post_box", "collection_times": "Mo-Sa 10:30", "nsi_id": "unitedstatespostalservice-a77078", "operator": "United States Postal Service", "operator:short": "USPS", "operator:type": "public", "operator:wikidata": "Q668687", "ref": "8000300021"}, "type": "Feature"}
{"geometry": {"coordinates": [-105.057334, 39.840318], "type": "Point"}, "id": "LdSTiTayqphHwhW41zgGe3oyXuY=", "properties": {"@source_uri": "https://tools.usps.com/UspsToolsRestServices/rest/POLocator/findLocations", "@spider": "usps_collection_boxes", "addr:city": "ARVADA", "addr:country": "US", "addr:postcode": "80003", "addr:state": "CO", "addr:street_address": "7950 CHASE CIR", "amenity": "post_box", "collection_times": "Mo-Sa 10:30", "nsi_id": "unitedstatespostalservice-a77078", "operator": "United States Postal Service", "operator:short": "USPS", "operator:type": "public", "operator:wikidata": "Q668687", "ref": "8000300026"}, "type": "Feature"}
{"geometry": {"coordinates": [-105.071549, 39.850133], "type": "Point"}, "id": "1PBjMVMp1g1y7xt4eNtlYZYE93w=", "properties": {"@source_uri": "https://tools.usps.com/UspsToolsRestServices/rest/POLocator/findLocations", "@spider": "usps_collection_boxes", "addr:city": "ARVADA", "addr:country": "US", "addr:postcode": "80003", "addr:state": "CO", "addr:street_address": "6630 W 84TH WAY", "amenity": "post_box", "collection_times": "Mo-Sa 10:30", "nsi_id": "unitedstatespostalservice-a77078", "operator": "United States Postal Service", "operator:short": "USPS", "operator:type": "public", "operator:wikidata": "Q668687", "ref": "8000300027"}, "type": "Feature"}
{"geometry": {"coordinates": [-105.079603, 39.83882], "type": "Point"}, "id": "X-e6LCB-ababrrajoOUUutwFSvE=", "properties": {"@source_uri": "https://tools.usps.com/UspsToolsRestServices/rest/POLocator/findLocations", "@spider": "usps_collection_boxes", "addr:city": "ARVADA", "addr:country": "US", "addr:postcode": "80003", "addr:state": "CO", "addr:street_address": "7828 VANCE DR", "amenity": "post_box", "collection_times": "Mo-Sa 10:45", "nsi_id": "unitedstatespostalservice-a77078", "operator": "United States Postal Service", "operator:short": "USPS", "operator:type": "public", "operator:wikidata": "Q668687", "ref": "8000300029"}, "type": "Feature"}
{"geometry": {"coordinates": [-105.083248, 39.842735], "type": "Point"}, "id": "mG6h-VA4-Q6bJ9hlcYLeIi-AuIs=", "properties": {"@source_uri": "https://tools.usps.com/UspsToolsRestServices/rest/POLocator/findLocations", "@spider": "usps_collection_boxes", "addr:city": "ARVADA", "addr:country": "US", "addr:postcode": "80003", "addr:state": "CO", "addr:street_address": "8031 WADSWORTH BLVD", "amenity": "post_box", "collection_times": "Mo-Sa 10:30", "nsi_id": "unitedstatespostalservice-a77078", "operator": "United States Postal Service", "operator:short": "USPS", "operator:type": "public", "operator:wikidata": "Q668687", "ref": "8000300030"}, "type": "Feature"}
{"geometry": {"coordinates": [-105.055127, 39.855312], "type": "Point"}, "id": "6YCo2hKwKZ1vCb71jJBX0gouVgo=", "properties": {"@source_uri": "https://tools.usps.com/UspsToolsRestServices/rest/POLocator/findLocations", "@spider": "usps_collection_boxes", "addr:city": "ARVADA", "addr:country": "US", "addr:postcode": "80003", "addr:state": "CO", "addr:street_address": "8757 SHERIDAN BLVD", "amenity": "post_box", "collection_times": "Mo-Sa 15:00", "note": "ON 12/24 AND 12/31, THIS BOX MAY BE COLLECTED AS EARLY AS 12 NOON.", "nsi_id": "unitedstatespostalservice-a77078", "operator": "United States Postal Service", "operator:short": "USPS", "operator:type": "public", "operator:wikidata": "Q668687", "ref": "8000300031"}, "type": "Feature"}
{"geometry": {"coordinates": [-105.081193, 39.843249], "type": "Point"}, "id": "S4XgIWV2bZc626tCVK1yjE6S6gY=", "properties": {"@source_uri": "https://tools.usps.com/UspsToolsRestServices/rest/POLocator/findLocations", "@spider": "usps_collection_boxes", "addr:city": "ARVADA", "addr:country": "US", "addr:postcode": "80003", "addr:state": "CO", "addr:street_address": "7561 W 80TH AVE", "amenity": "post_box", "collection_times": "Mo-Sa 10:30", "nsi_id": "unitedstatespostalservice-a77078", "operator": "United States Postal Service", "operator:short": "USPS", "operator:type": "public", "operator:wikidata": "Q668687", "ref": "8000300032"}, "type": "Feature"}
{"geometry": {"coordinates": [-105.051163, 39.812982], "type": "Point"}, "id": "9d_yYunhGVsWqBmIkL799RwZF6g=", "properties": {"@source_uri": "https://tools.usps.com/UspsToolsRestServices/rest/POLocator/findLocations", "@spider": "usps_collection_boxes", "addr:city": "ARVADA", "addr:country": "US", "addr:postcode": "80003", "addr:state": "CO", "addr:street_address": "5017 W 64TH AVE", "amenity": "post_box", "collection_times": "Mo-Sa 10:15", "nsi_id": "unitedstatespostalservice-a77078", "operator": "United States Postal Service", "operator:short": "USPS", "operator:type": "public", "operator:wikidata": "Q668687", "ref": "8000300033"}, "type": "Feature"}
{"geometry": {"coordinates": [-105.081788, 39.838158], "type": "Point"}, "id": "kZM8lCijrRyJek9O88szpZKFRJQ=", "properties": {"@source_uri": "https://tools.usps.com/UspsToolsRestServices/rest/POLocator/findLocations", "@spider": "usps_collection_boxes", "addr:city": "ARVADA", "addr:country": "US", "addr:postcode": "80003", "addr:state": "CO", "addr:street_address": "7765 WADSWORTH BLVD", "amenity": "post_box", "collection_times": "Mo-Fr 17:30; Sa 16:30", "indoor": "yes", "note": "ON 12/24 AND 12/31, THIS BOX MAY BE COLLECTED AS EARLY AS 12 NOON.", "nsi_id": "unitedstatespostalservice-a77078", "operator": "United States Postal Service", "operator:short": "USPS", "operator:type": "public", "operator:wikidata": "Q668687", "ref": "8000300039"}, "type": "Feature"}
{"geometry": {"coordinates": [-105.081788, 39.838158], "type": "Point"}, "id": "hV-Im6wXZwWai5uGozRSLpVpGTk=", "properties": {"@source_uri": "https://tools.usps.com/UspsToolsRestServices/rest/POLocator/findLocations", "@spider": "usps_collection_boxes", "addr:city": "ARVADA", "addr:country": "US", "addr:postcode": "80003", "addr:state": "CO", "addr:street_address": "7765 WADSWORTH BLVD", "amenity": "post_box", "collection_times": "Mo-Fr 17:30; Sa 16:30", "indoor": "yes", "note": "ON 12/24 AND 12/31, THIS BOX MAY BE COLLECTED AS EARLY AS 12 NOON.", "nsi_id": "unitedstatespostalservice-a77078", "operator": "United States Postal Service", "operator:short": "USPS", "operator:type": "public", "operator:wikidata": "Q668687", "ref": "8000300040"}, "type": "Feature"}
{"geometry": {"coordinates": [-105.064933, 39.82535], "type": "Point"}, "id": "_u5-DyyhnOtL38eqC_a6UaabXYI=", "properties": {"@source_uri": "https://tools.usps.com/UspsToolsRestServices/rest/POLocator/findLocations", "@spider": "usps_collection_boxes", "addr:city": "ARVADA", "addr:country": "US", "addr:postcode": "80003", "addr:state": "CO", "addr:street_address": "6350 SHERIDAN BLVD", "amenity": "post_box", "collection_times": "Mo-Sa 10:30", "nsi_id": "unitedstatespostalservice-a77078", "operator": "United States Postal Service", "operator:short": "USPS", "operator:type": "public", "operator:wikidata": "Q668687", "ref": "8000300041"}, "type": "Feature"}
{"geometry": {"coordinates": [-105.081788, 39.838158], "type": "Point"}, "id": "8PCOoDaVBt2BjlT6pB9g864Ijg4=", "properties": {"@source_uri": "https://tools.usps.com/UspsToolsRestServices/rest/POLocator/findLocations", "@spider": "usps_collection_boxes", "addr:city": "ARVADA", "addr:country": "US", "addr:postcode": "80003", "addr:state": "CO", "addr:street_address": "7765 WADSWORTH BLVD", "amenity": "post_box", "collection_times": "Mo-Fr 17:30; Sa 16:30", "indoor": "yes", "note": "ON 12/24 AND 12/31, THIS BOX MAY BE COLLECTED AS EARLY AS 12 NOON.", "nsi_id": "unitedstatespostalservice-a77078", "operator": "United States Postal Service", "operator:short": "USPS", "operator:type": "public", "operator:wikidata": "Q668687", "ref": "8000300044"}, "type": "Feature"}
{"geometry": {"coordinates": [-105.054554, 39.8446], "type": "Point"}, "id": "Yai4_4X8rCludgeHx64fqlyh7aI=", "properties": {"@source_uri": "https://tools.usps.com/UspsToolsRestServices/rest/POLocator/findLocations", "@spider": "usps_collection_boxes", "addr:city": "ARVADA", "addr:country": "US", "addr:postcode": "80003", "addr:state": "CO", "addr:street_address": "8175 SHERIDAN BLVD", "amenity": "post_box", "collection_times": "Mo-Sa 10:45", "nsi_id": "unitedstatespostalservice-a77078", "operator": "United States Postal Service", "operator:short": "USPS", "operator:type": "public", "operator:wikidata": "Q668687", "ref": "8000300045"}, "type": "Feature"}
{"geometry": {"coordinates": [-105.081788, 39.838158], "type": "Point"}, "id": "7DMXph9NW37TX1FiVBBVKd2rNzE=", "properties": {"@source_uri": "https://tools.usps.com/UspsToolsRestServices/rest/POLocator/findLocations", "@spider": "usps_collection_boxes", "addr:city": "ARVADA", "addr:country": "US", "addr:postcode": "80003", "addr:state": "CO", "addr:street_address": "7765 WADSWORTH BLVD", "amenity": "post_box", "collection_times": "Mo-Fr 17:30; Sa 16:30", "name": "USPS COLLECTION BOX - APC", "note": "ON 12/24 AND 12/31, THIS BOX MAY BE COLLECTED AS EARLY AS 12 NOON.", "nsi_id": "unitedstatespostalservice-a77078", "operator": "United States Postal Service", "operator:short": "USPS", "operator:type": "public", "operator:wikidata": "Q668687", "ref": "8000300046"}, "type": "Feature"}
{"geometry": {"coordinates": [-105.081788, 39.838158], "type": "Point"}, "id": "4nDNxKxYjKIlhjk3nxTaXVbhWE0=", "properties": {"@source_uri": "https://tools.usps.com/UspsToolsRestServices/rest/POLocator/findLocations", "@spider": "usps_collection_boxes", "addr:city": "ARVADA", "addr:country": "US", "addr:postcode": "80003", "addr:state": "CO", "addr:street_address": "7765 WADSWORTH BLVD", "amenity": "post_box", "collection_times": "Mo-Fr 17:30; Sa 16:30", "name": "USPS COLLECTION BOX - APC", "note": "ON 12/24 AND 12/31, THIS BOX MAY BE COLLECTED AS EARLY AS 12 NOON.", "nsi_id": "unitedstatespostalservice-a77078", "operator": "United States Postal Service", "operator:short": "USPS", "operator:type": "public", "operator:wikidata": "Q668687", "ref": "8000300049"}, "type": "Feature"}
{"geometry": {"coordinates": [-105.159967, 39.814177], "type": "Point"}, "id": "ARdv4ZjdpUzVKU-3P01FghnfmNM=", "properties": {"@source_uri": "https://tools.usps.com/UspsToolsRestServices/rest/POLocator/findLocations", "@spider": "usps_collection_boxes", "addr:city": "ARVADA", "addr:country": "US", "addr:postcode": "80004", "addr:state": "CO", "addr:street_address": "14401 W 65TH WAY", "amenity": "post_box", "collection_times": "Mo-Fr 10:00", "nsi_id": "unitedstatespostalservice-a77078", "operator": "United States Postal Service", "operator:short": "USPS", "operator:type": "public", "operator:wikidata": "Q668687", "ref": "8000400013"}, "type": "Feature"}
{"geometry": {"coordinates": [-105.136178, 39.812914], "type": "Point"}, "id": "lCOFQaZlb0XrWDmCh5n9sJg6ygU=", "properties": {"@source_uri": "https://tools.usps.com/UspsToolsRestServices/rest/POLocator/findLocations", "@spider": "usps_collection_boxes", "addr:city": "ARVADA", "addr:country": "US", "addr:postcode": "80004", "addr:state": "CO", "addr:street_address": "12391 W 64TH AVE", "amenity": "post_box", "collection_times": "Mo-Sa 10:15", "nsi_id": "unitedstatespostalservice-a77078", "operator": "United States Postal Service", "operator:short": "USPS", "operator:type": "public", "operator:wikidata": "Q668687", "ref": "8000400014"}, "type": "Feature"}
{"geometry": {"coordinates": [-105.138367, 39.811495], "type": "Point"}, "id": "55nyDMSmGzcJj1CdGH91zun0SCE=", "properties": {"@source_uri": "https://tools.usps.com/UspsToolsRestServices/rest/POLocator/findLocations", "@spider": "usps_collection_boxes", "addr:city": "ARVADA", "addr:country": "US", "addr:postcode": "80004", "addr:state": "CO", "addr:street_address": "6355 WARD RD", "amenity": "post_box", "collection_times": "Mo-Sa 10:30", "nsi_id": "unitedstatespostalservice-a77078", "operator": "United States Postal Service", "operator:short": "USPS", "operator:type": "public", "operator:wikidata": "Q668687", "ref": "8000400015"}, "type": "Feature"}
{"geometry": {"coordinates": [-105.136303, 39.811534], "type": "Point"}, "id": "ce2JlNHxh2UDYAC7Qs1eI3-uNEM=", "properties": {"@source_uri": "https://tools.usps.com/UspsToolsRestServices/rest/POLocator/findLocations", "@spider": "usps_collection_boxes", "addr:city": "ARVADA", "addr:country": "US", "addr:postcode": "80004", "addr:state": "CO", "addr:street_address": "12350 W 64TH AVE", "amenity": "post_box", "collection_times": "Mo-Sa 09:30", "nsi_id": "unitedstatespostalservice-a77078", "operator": "United States Postal Service", "operator:short": "USPS", "operator:type": "public", "operator:wikidata": "Q668687", "ref": "8000400016"}, "type": "Feature"}
{"geometry": {"coordinates": [-105.141602, 39.811991], "type": "Point"}, "id": "FT2hmxcO6eufnQTr39pVqVRbxnQ=", "properties": {"@source_uri": "https://tools.usps.com/UspsToolsRestServices/rest/POLocator/findLocations", "@spider": "usps_collection_boxes", "addr:city": "ARVADA", "addr:country": "US", "addr:postcode": "80004", "addr:state": "CO", "addr:street_address": "12680 W 64TH AVE", "amenity": "post_box", "collection_times": "Mo-Sa 10:15", "nsi_id": "unitedstatespostalservice-a77078", "operator": "United States Postal Service", "operator:short": "USPS", "operator:type": "public", "operator:wikidata": "Q668687", "ref": "8000400019"}, "type": "Feature"}
{"geometry": {"coordinates": [-105.134716, 39.812812], "type": "Point"}, "id": "ufHHDWQRLfH2fm_D1lUoz8JwswE=", "properties": {"@source_uri": "https://tools.usps.com/UspsToolsRestServices/rest/POLocator/findLocations", "@spider": "usps_collection_boxes", "addr:city": "ARVADA", "addr:country": "US", "addr:postcode": "80004", "addr:state": "CO", "addr:street_address": "12191 W 64TH AVE", "amenity": "post_box", "collection_times": "Mo-Sa 09:15", "nsi_id": "unitedstatespostalservice-a77078", "operator": "United States Postal Service", "operator:short": "USPS", "operator:type": "public", "operator:wikidata": "Q668687", "ref": "8000400023"}, "type": "Feature"}
{"geometry": {"coordinates": [-105.109171, 39.840916], "type": "Point"}, "id": "UOFLuroDf57iyCVyIXyp60I3pnE=", "properties": {"@source_uri": "https://tools.usps.com/UspsToolsRestServices/rest/POLocator/findLocations", "@spider": "usps_collection_boxes", "addr:city": "ARVADA", "addr:country": "US", "addr:postcode": "80005", "addr:state": "CO", "addr:street_address": "9950 W 80TH AVE", "amenity": "post_box", "collection_times": "Mo-Sa 10:30", "nsi_id": "unitedstatespostalservice-a77078", "operator": "United States Postal Service", "operator:short": "USPS", "operator:type": "public", "operator:wikidata": "Q668687", "ref": "8000500000"}, "type": "Feature"}
{"geometry": {"coordinates": [-105.085483, 39.842158], "type": "Point"}, "id": "Ew9S_bAHFnt51CnyKlJzKbdvCn8=", "properties": {"@source_uri": "https://tools.usps.com/UspsToolsRestServices/rest/POLocator/findLocations", "@spider": "usps_collection_boxes", "addr:city": "ARVADA", "addr:country": "US", "addr:postcode": "80005", "addr:state": "CO", "addr:street_address": "7878 W 80TH PL", "amenity": "post_box", "collection_times": "Mo-Sa 10:45", "nsi_id": "unitedstatespostalservice-a77078", "operator": "United States Postal Service", "operator:short": "USPS", "operator:type": "public", "operator:wikidata": "Q668687", "ref": "8000500001"}, "type": "Feature"}
{"geometry": {"coordinates": [-105.1000132164, 39.8562847949], "type": "Point"}, "id": "yue_7NhJLjZcU0ndH2pv2RRQ0a0=", "properties": {"@source_uri": "https://tools.usps.com/UspsToolsRestServices/rest/POLocator/findLocations", "@spider": "usps_collection_boxes", "addr:city": "ARVADA", "addr:country": "US", "addr:postcode": "80005", "addr:state": "CO", "addr:street_address": "9130 W 88TH AVE", "amenity": "post_box", "collection_times": "Mo-Sa 10:30", "nsi_id": "unitedstatespostalservice-a77078", "operator": "United States Postal Service", "operator:short": "USPS", "operator:type": "public", "operator:wikidata": "Q668687", "ref": "8000500002"}, "type": "Feature"}
{"geometry": {"coordinates": [-104.845933, 39.765737], "type": "Point"}, "id": "GJBFA6DPuGnQSUjdzpJmJQrvPXk=", "properties": {"@source_uri": "https://tools.usps.com/UspsToolsRestServices/rest/POLocator/findLocations", "@spider": "usps_collection_boxes", "addr:city": "AURORA", "addr:country": "US", "addr:postcode": "80010", "addr:state": "CO", "addr:street_address": "3350 PEORIA ST", "amenity": "post_box", "collection_times": "Mo-Sa 09:00", "nsi_id": "unitedstatespostalservice-a77078", "operator": "United States Postal Service", "operator:short": "USPS", "operator:type": "public", "operator:wikidata": "Q668687", "ref": "8001000001"}, "type": "Feature"}
{"geometry": {"coordinates": [-104.866924, 39.740294], "type": "Point"}, "id": "K0yyqQLzxkCHvQXB_8NV2XrMIXg=", "properties": {"@source_uri": "https://tools.usps.com/UspsToolsRestServices/rest/POLocator/findLocations", "@spider": "usps_collection_boxes", "addr:city": "AURORA", "addr:country": "US", "addr:postcode": "80010", "addr:state": "CO", "addr:street_address": "10401 E COLFAX AVE", "amenity": "post_box", "collection_times": "Mo-Sa 09:30", "nsi_id": "unitedstatespostalservice-a77078", "operator": "United States Postal Service", "operator:short": "USPS", "operator:type": "public", "operator:wikidata": "Q668687", "ref": "8001000002"}, "type": "Feature"}
{"geometry": {"coordinates": [-104.875139, 39.741124], "type": "Point"}, "id": "NutriZJuE9LksaPtq9sMjscbetY=", "properties": {"@source_uri": "https://tools.usps.com/UspsToolsRestServices/rest/POLocator/findLocations", "@spider": "usps_collection_boxes", "addr:city": "AURORA", "addr:country": "US", "addr:postcode": "80010", "addr:state": "CO", "addr:street_address": "1550 DAYTON ST", "amenity": "post_box", "collection_times": "Mo-Fr 16:45; Sa 16:30", "note": "ON 12/24 AND 12/31, THIS BOX MAY BE COLLECTED AS EARLY AS 12 NOON.", "nsi_id": "unitedstatespostalservice-a77078", "operator": "United States Postal Service", "operator:short": "USPS", "operator:type": "public", "operator:wikidata": "Q668687", "ref": "8001000004"}, "type": "Feature"}
{"geometry": {"coordinates": [-104.8585905, 39.740065514], "type": "Point"}, "id": "qZYyeKeApuowLqiDUIn1g0NIcJc=", "properties": {"@source_uri": "https://tools.usps.com/UspsToolsRestServices/rest/POLocator/findLocations", "@spider": "usps_collection_boxes", "addr:city": "AURORA", "addr:country": "US", "addr:postcode": "80010", "addr:state": "CO", "addr:street_address": "11104 E COLFAX AVE", "amenity": "post_box", "collection_times": "Mo-Fr 14:05; Sa 15:00", "note": "ON 12/24 AND 12/31, THIS BOX MAY BE COLLECTED AS EARLY AS 12 NOON.", "nsi_id": "unitedstatespostalservice-a77078", "operator": "United States Postal Service", "operator:short": "USPS", "operator:type": "public", "operator:wikidata": "Q668687", "ref": "8001000010"}, "type": "Feature"}
{"geometry": {"coordinates": [-104.847876, 39.741964], "type": "Point"}, "id": "0BshcEBd55UNmPT1gspSBesr9Bo=", "properties": {"@source_uri": "https://tools.usps.com/UspsToolsRestServices/rest/POLocator/findLocations", "@spider": "usps_collection_boxes", "addr:city": "AURORA", "addr:country": "US", "addr:postcode": "80010", "addr:state": "CO", "addr:street_address": "12000 E 16TH AVE", "amenity": "post_box", "collection_times": "Mo-Fr 12:30; Sa 11:30", "note": "ON 12/24 AND 12/31, THIS BOX MAY BE COLLECTED AS EARLY AS 12 NOON.", "nsi_id": "unitedstatespostalservice-a77078", "operator": "United States Postal Service", "operator:short": "USPS", "operator:type": "public", "operator:wikidata": "Q668687", "ref": "8001000013"}, "type": "Feature"}
{"geometry": {"coordinates": [-104.875157, 39.740594], "type": "Point"}, "id": "tmqlZWD1BDOiBFpnYgSzPQtCXrs=", "properties": {"@source_uri": "https://tools.usps.com/UspsToolsRestServices/rest/POLocator/findLocations", "@spider": "usps_collection_boxes", "addr:city": "AURORA", "addr:country": "US", "addr:postcode": "80010", "addr:state": "CO", "addr:street_address": "1550 DAYTON ST", "amenity": "post_box", "collection_times": "Mo-Fr 17:00; Sa 13:00", "indoor": "yes", "note": "ON 12/24 AND 12/31, THIS BOX MAY BE COLLECTED AS EARLY AS 12 NOON.", "nsi_id": "unitedstatespostalservice-a77078", "operator": "United States Postal Service", "operator:short": "USPS", "operator:type": "public", "operator:wikidata": "Q668687", "ref": "8001000015"}, "type": "Feature"}
{"geometry": {"coordinates": [-104.875157, 39.740594], "type": "Point"}, "id": "0J2ELP7l-p6sZ7OFvuXxwWR23ug=", "properties": {"@source_uri": "https://tools.usps.com/UspsToolsRestServices/rest/POLocator/findLocations", "@spider": "usps_collection_boxes", "addr:city": "AURORA", "addr:country": "US", "addr:postcode": "80010", "addr:state": "CO", "addr:street_address": "1550 DAYTON ST", "amenity": "post_box", "collection_times": "Mo-Fr 17:00; Sa 13:00", "indoor": "yes", "note": "ON 12/24 AND 12/31, THIS BOX MAY BE COLLECTED AS EARLY AS 12 NOON.", "nsi_id": "unitedstatespostalservice-a77078", "operator": "United States Postal Service", "operator:short": "USPS", "operator:type": "public", "operator:wikidata": "Q668687", "ref": "8001000027"}, "type": "Feature"}
{"geometry": {"coordinates": [-104.808543, 39.738417], "type": "Point"}, "id": "DUjvhjVyxhPbeJgrtEknEUZXVUs=", "properties": {"@source_uri": "https://tools.usps.com/UspsToolsRestServices/rest/POLocator/findLocations", "@spider": "usps_collection_boxes", "addr:city": "AURORA", "addr:country": "US", "addr:postcode": "80011", "addr:state": "CO", "addr:street_address": "15400 E 14TH PL", "amenity": "post_box", "collection_times": "Mo-Fr 14:30; Sa 12:50", "note": "ON 12/24 AND 12/31, THIS BOX MAY BE COLLECTED AS EARLY AS 12 NOON.", "nsi_id": "unitedstatespostalservice-a77078", "operator": "United States Postal Service", "operator:short": "USPS", "operator:type": "public", "operator:wikidata": "Q668687", "ref": "8001100002"}, "type": "Feature"}
{"geometry": {"coordinates": [-104.793207, 39.715196], "type": "Point"}, "id": "YKgioSi_V80lX_h-46go6AfSCVk=", "properties": {"@source_uri": "https://tools.usps.com/UspsToolsRestServices/rest/POLocator/findLocations", "@spider": "usps_collection_boxes", "addr:city": "AURORA", "addr:country": "US", "addr:postcode": "80011", "addr:state": "CO", "addr:street_address": "16800 E CENTRETECH PKWY", "amenity": "post_box", "collection_times": "Mo-Sa 09:30", "nsi_id": "unitedstatespostalservice-a77078", "operator": "United States Postal Service", "operator:short": "USPS", "operator:type": "public", "operator:wikidata": "Q668687", "ref": "8001100008"}, "type": "Feature"}
{"geometry": {"coordinates": [-104.810777, 39.726833], "type": "Point"}, "id": "hHJl4Wy6DQmmV78-mMIHuS77P6M=", "properties": {"@source_uri": "https://tools.usps.com/UspsToolsRestServices/rest/POLocator/findLocations", "@spider": "usps_collection_boxes", "addr:city": "AURORA", "addr:country": "US", "addr:postcode": "80011", "addr:state": "CO", "addr:street_address": "651 CHAMBERS RD", "amenity": "post_box", "collection_times": "Mo-Sa 12:00", "nsi_id": "unitedstatespostalservice-a77078", "operator": "United States Postal Service", "operator:short": "USPS", "operator:type": "public", "operator:wikidata": "Q668687", "ref": "8001100010"}, "type": "Feature"}
{"geometry": {"coordinates": [-104.808284, 39.74164], "type": "Point"}, "id": "2TeQK7iTyBdRZl7RSN3FkK1IQ4g=", "properties": {"@source_uri": "https://tools.usps.com/UspsToolsRestServices/rest/POLocator/findLocations", "@spider": "usps_collection_boxes", "addr:city": "AURORA", "addr:country": "US", "addr:postcode": "80011", "addr:state": "CO", "addr:street_address": "15355 E COLFAX AVE", "amenity": "post_box", "collection_times": "Mo-Fr 17:00; Sa 16:45", "note": "ON 12/24 AND 12/31, THIS BOX MAY BE COLLECTED AS EARLY AS 12 NOON.", "nsi_id": "unitedstatespostalservice-a77078", "operator": "United States Postal Service", "operator:short": "USPS", "operator:type": "public", "operator:wikidata": "Q668687", "ref": "8001100017"}, "type": "Feature"}
{"geometry": {"coordinates": [-104.812433, 39.764669], "type": "Point"}, "id": "I64upTCCu0NnILdIF5HxQ_Lu8co=", "properties": {"@source_uri": "https://tools.usps.com/UspsToolsRestServices/rest/POLocator/findLocations", "@spider": "usps_collection_boxes", "addr:city": "AURORA", "addr:country": "US", "addr:postcode": "80011", "addr:state": "CO", "addr:street_address": "15006 E 33RD PL", "amenity": "post_box", "collection_times": "Mo-Sa 09:15", "nsi_id": "unitedstatespostalservice-a77078", "operator": "United States Postal Service", "operator:short": "USPS", "operator:type": "public", "operator:wikidata": "Q668687", "ref": "8001100021"}, "type": "Feature"}
{"geometry": {"coordinates": [-104.81014, 39.745925], "type": "Point"}, "id": "f5Drx6vjNWWnxAY80hWd-vODSJQ=", "properties": {"@source_uri": "https://tools.usps.com/UspsToolsRestServices/rest/POLocator/findLocations", "@spider": "usps_collection_boxes", "addr:city": "AURORA", "addr:country": "US", "addr:postcode": "80011", "addr:state": "CO", "addr:street_address": "14200 E MONCRIEFF PL", "amenity": "post_box", "collection_times": "Mo-Sa 09:15", "nsi_id": "unitedstatespostalservice-a77078", "operator": "United States Postal Service", "operator:short": "USPS", "operator:type": "public", "operator:wikidata": "Q668687", "ref": "8001100023"}, "type": "Feature"}
{"geometry": {"coordinates": [-104.816859, 39.72002], "type": "Point"}, "id": "6g9d6-GO032j3VLbxbirCqbvbkw=", "properties": {"@source_uri": "https://tools.usps.com/UspsToolsRestServices/rest/POLocator/findLocations", "@spider": "usps_collection_boxes", "addr:city": "AURORA", "addr:country": "US", "addr:postcode": "80011", "addr:state": "CO", "addr:street_address": "14707 E 2ND AVE", "amenity": "post_box", "collection_times": "Mo-Sa 10:00", "nsi_id": "unitedstatespostalservice-a77078", "operator": "United States Postal Service", "operator:short": "USPS", "operator:type": "public", "operator:wikidata": "Q668687", "ref": "8001100033"}, "type": "Feature"}
{"geometry": {"coordinates": [-104.848806, 39.718549], "type": "Point"}, "id": "b1YumDlE8SmSnA_GtvTV9C9BW9M=", "properties": {"@source_uri": "https://tools.usps.com/UspsToolsRestServices/rest/POLocator/findLocations", "@spider": "usps_collection_boxes", "addr:city": "AURORA", "addr:country": "US", "addr:postcode": "80011", "addr:state": "CO", "addr:street_address": "100 PARIS CIR", "amenity": "post_box", "collection_times": "Mo-Fr 14:00; Sa 13:15", "note": "ON 12/24 AND 12/31, THIS BOX MAY BE COLLECTED AS EARLY AS 12 NOON.", "nsi_id": "unitedstatespostalservice-a77078", "operator": "United States Postal Service", "operator:short": "USPS", "operator:type": "public", "operator:wikidata": "Q668687", "ref": "8001100058"}, "type": "Feature"}
{"geometry": {"coordinates": [-104.82763, 39.728404], "type": "Point"}, "id": "ViiLFqtnP8jRGHynrQSZq4rCecs=", "properties": {"@source_uri": "https://tools.usps.com/UspsToolsRestServices/rest/POLocator/findLocations", "@spider": "usps_collection_boxes", "addr:city": "AURORA", "addr:country": "US", "addr:postcode": "80011", "addr:state": "CO", "addr:street_address": "750 POTOMAC ST", "amenity": "post_box", "collection_times": "Mo-Sa 09:30", "nsi_id": "unitedstatespostalservice-a77078", "operator": "United States Postal Service", "operator:short": "USPS", "operator:type": "public", "operator:wikidata": "Q668687", "ref": "8001100059"}, "type": "Feature"}
{"geometry": {"coordinates": [-104.808121, 39.740188], "type": "Point"}, "id": "IvL-7BMTPDKPb7OTaM5ngR3Ehbo=", "properties": {"@source_uri": "https://tools.usps.com/UspsToolsRestServices/rest/POLocator/findLocations", "@spider": "usps_collection_boxes", "addr:city": "AURORA", "addr:country": "US", "addr:postcode": "80011", "addr:state": "CO", "addr:street_address": "15355 E COLFAX AVE", "amenity": "post_box", "collection_times": "Mo-Fr 16:45; Sa 13:00", "indoor": "yes", "note": "ON 12/24 AND 12/31, THIS BOX MAY BE COLLECTED AS EARLY AS 12 NOON.", "nsi_id": "unitedstatespostalservice-a77078", "operator": "United States Postal Service", "operator:short": "USPS", "operator:type": "public", "operator:wikidata": "Q668687", "ref": "8001100069"}, "type": "Feature"}
{"geometry": {"coordinates": [-104.808121, 39.740188], "type": "Point"}, "id": "TPEerndQ6tJGhGhzc0VPF7ef1zw=", "properties": {"@source_uri": "https://tools.usps.com/UspsToolsRestServices/rest/POLocator/findLocations", "@spider": "usps_collection_boxes", "addr:city": "AURORA", "addr:country": "US", "addr:postcode": "80011", "addr:state": "CO", "addr:street_address": "15355 E COLFAX AVE", "amenity": "post_box", "collection_times": "Mo-Fr 16:45; Sa 13:00", "indoor": "yes", "note": "ON 12/24 AND 12/31, THIS BOX MAY BE COLLECTED AS EARLY AS 12 NOON.", "nsi_id": "unitedstatespostalservice-a77078", "operator": "United States Postal Service", "operator:short": "USPS", "operator:type": "public", "operator:wikidata": "Q668687", "ref": "8001100070"}, "type": "Feature"}
{"geometry": {"coordinates": [-104.782104, 39.721116], "type": "Point"}, "id": "YIN8x_RRSNApYjJZs3zpn8vM8IA=", "properties": {"@source_uri": "https://tools.usps.com/UspsToolsRestServices/rest/POLocator/findLocations", "@spider": "usps_collection_boxes", "addr:city": "AURORA", "addr:country": "US", "addr:postcode": "80011", "addr:state": "CO", "addr:street_address": "237 N TELLURIDE ST", "amenity": "post_box", "collection_times": "Mo-Fr 09:00", "nsi_id": "unitedstatespostalservice-a77078", "operator": "United States Postal Service", "operator:short": "USPS", "operator:type": "public", "operator:wikidata": "Q668687", "ref": "8001100071"}, "type": "Feature"}
{"geometry": {"coordinates": [-104.819543, 39.755828], "type": "Point"}, "id": "D_vaUk6c8WrcjIlB1etVn7n7kVU=", "properties": {"@source_uri": "https://tools.usps.com/UspsToolsRestServices/rest/POLocator/findLocations", "@spider": "usps_collection_boxes", "addr:city": "AURORA", "addr:country": "US", "addr:postcode": "80011", "addr:state": "CO", "addr:street_address": "14380 E 28TH AVE", "amenity": "post_box", "collection_times": "Mo-Sa 12:00", "nsi_id": "unitedstatespostalservice-a77078", "operator": "United States Postal Service", "operator:short": "USPS", "operator:type": "public", "operator:wikidata": "Q668687", "ref": "8001100072"}, "type": "Feature"}
{"geometry": {"coordinates": [-104.79314, 39.76276], "type": "Point"}, "id": "6dtkzGyYPn1-cxjkwreOJUmlDLg=", "properties": {"@source_uri": "https://tools.usps.com/UspsToolsRestServices/rest/POLocator/findLocations", "@spider": "usps_collection_boxes", "addr:city": "AURORA", "addr:country": "US", "addr:postcode": "80011", "addr:state": "CO", "addr:street_address": "16751 E 32ND AVE", "amenity": "post_box", "collection_times": "Mo-Sa 10:15", "nsi_id": "unitedstatespostalservice-a77078", "operator": "United States Postal Service", "operator:short": "USPS", "operator:type": "public", "operator:wikidata": "Q668687", "ref": "8001100073"}, "type": "Feature"}
{"geometry": {"coordinates": [-104.822346, 39.723289], "type": "Point"}, "id": "osnRCOKebFKNACs1Ij43SH7HUNk=", "properties": {"@source_uri": "https://tools.usps.com/UspsToolsRestServices/rest/POLocator/findLocations", "@spider": "usps_collection_boxes", "addr:city": "AURORA", "addr:country": "US", "addr:postcode": "80011", "addr:state": "CO", "addr:street_address": "14231 E 4TH AVE", "amenity": "post_box", "collection_times": "Mo-Sa 09:15", "nsi_id": "unitedstatespostalservice-a77078", "operator": "United States Postal Service", "operator:short": "USPS", "operator:type": "public", "operator:wikidata": "Q668687", "ref": "8001100077"}, "type": "Feature"}
{"geometry": {"coordinates": [-104.812401, 39.741326], "type": "Point"}, "id": "NfSou36lNAEeAu-XE11i5_JieRU=", "properties": {"@source_uri": "https://tools.usps.com/UspsToolsRestServices/rest/POLocator/findLocations", "@spider": "usps_collection_boxes", "addr:city": "AURORA", "addr:country": "US", "addr:postcode": "80011", "addr:state": "CO", "addr:street_address": "15109 E COLFAX AVE", "amenity": "post_box", "collection_times": "Mo-Fr 12:25; Sa 12:50", "note": "ON 12/24 AND 12/31, THIS BOX MAY BE COLLECTED AS EARLY AS 12 NOON.", "nsi_id": "unitedstatespostalservice-a77078", "operator": "United States Postal Service", "operator:short": "USPS", "operator:type": "public", "operator:wikidata": "Q668687", "ref": "8001100079"}, "type": "Feature"}
{"geometry": {"coordinates": [-104.797073, 39.715647], "type": "Point"}, "id": "wsWG5l_DP7Cnhn8S1iCI77i9R-w=", "properties": {"@source_uri": "https://tools.usps.com/UspsToolsRestServices/rest/POLocator/findLocations", "@spider": "usps_collection_boxes", "addr:city": "AURORA", "addr:country": "US", "addr:postcode": "80011", "addr:state": "CO", "addr:street_address": "16470 E HUGES DR", "amenity": "post_box", "collection_times": "Mo-Sa 09:30", "nsi_id": "unitedstatespostalservice-a77078", "operator": "United States Postal Service", "operator:short": "USPS", "operator:type": "public", "operator:wikidata": "Q668687", "ref": "8001100085"}, "type": "Feature"}
{"geometry": {"coordinates": [-104.863518, 39.697308], "type": "Point"}, "id": "jq6QUM500r_AA3UNePsp1Y0FIF0=", "properties": {"@source_uri": "https://tools.usps.com/UspsToolsRestServices/rest/POLocator/findLocations", "@spider": "usps_collection_boxes", "addr:city": "AURORA", "addr:country": "US", "addr:postcode": "80012", "addr:state": "CO", "addr:street_address": "1074 S IRONTON ST", "amenity": "post_box", "collection_times": "Mo-Sa 12:00", "nsi_id": "unitedstatespostalservice-a77078", "operator": "United States Postal Service", "operator:short": "USPS", "operator:type": "public", "operator:wikidata": "Q668687", "ref": "8001200000"}, "type": "Feature"}
{"geometry": {"coordinates": [-104.865605, 39.716662], "type": "Point"}, "id": "83UXJDBfV2mVLCNQMVjS0iBK7mw=", "properties": {"@source_uri": "https://tools.usps.com/UspsToolsRestServices/rest/POLocator/findLocations", "@spider": "usps_collection_boxes", "addr:city": "AURORA", "addr:country": "US", "addr:postcode": "80012", "addr:state": "CO", "addr:street_address": "10 S HAVANA ST", "amenity": "post_box", "collection_times": "Mo-Sa 10:00", "nsi_id": "unitedstatespostalservice-a77078", "operator": "United States Postal Service", "operator:short": "USPS", "operator:type": "public", "operator:wikidata": "Q668687", "ref": "8001200001"}, "type": "Feature"}
{"geometry": {"coordinates": [-104.8312810854, 39.692787997], "type": "Point"}, "id": "hwqX4uiok_RbkKE-__4eIzlU-xg=", "properties": {"@source_uri": "https://tools.usps.com/UspsToolsRestServices/rest/POLocator/findLocations", "@spider": "usps_collection_boxes", "addr:city": "AURORA", "addr:country": "US", "addr:postcode": "80012", "addr:state": "CO", "addr:street_address": "1330 S POTOMAC ST", "amenity": "post_box", "collection_times": "Mo-Sa 12:00", "nsi_id": "unitedstatespostalservice-a77078", "operator": "United States Postal Service", "operator:short": "USPS", "operator:type": "public", "operator:wikidata": "Q668687", "ref": "8001200006"}, "type": "Feature"}
{"geometry": {"coordinates": [-104.823883, 39.711769], "type": "Point"}, "id": "F1_5dVrJQ-xN-0qxen2tQ8PU3Ak=", "properties": {"@source_uri": "https://tools.usps.com/UspsToolsRestServices/rest/POLocator/findLocations", "@spider": "usps_collection_boxes", "addr:city": "AURORA", "addr:country": "US", "addr:postcode": "80012", "addr:state": "CO", "addr:street_address": "14111 E ALAMEDA AVE", "amenity": "post_box", "collection_times": "Mo-Sa 12:00", "nsi_id": "unitedstatespostalservice-a77078", "operator": "United States Postal Service", "operator:short": "USPS", "operator:type": "public", "operator:wikidata": "Q668687", "ref": "8001200009"}, "type": "Feature"}
{"geometry": {"coordinates": [-104.832397, 39.690576], "type": "Point"}, "id": "dgBybzGbg-X8Gp6R4JOQvptCmk0=", "properties": {"@source_uri": "https://tools.usps.com/UspsToolsRestServices/rest/POLocator/findLocations", "@spider": "usps_collection_boxes", "addr:city": "AURORA", "addr:country": "US", "addr:postcode": "80012", "addr:state": "CO", "addr:street_address": "1421 S POTOMAC ST", "amenity": "post_box", "collection_times": "Mo-Sa 12:00", "nsi_id": "unitedstatespostalservice-a77078", "operator": "United States Postal Service", "operator:short": "USPS", "operator:type": "public", "operator:wikidata": "Q668687", "ref": "8001200012"}, "type": "Feature"}
{"geometry": {"coordinates": [-104.867533, 39.695875], "type": "Point"}, "id": "5hZ1bVO8UB3MbAKs-S7tU1pvwUE=", "properties": {"@source_uri": "https://tools.usps.com/UspsToolsRestServices/rest/POLocator/findLocations", "@spider": "usps_collection_boxes", "addr:city": "AURORA", "addr:country": "US", "addr:postcode": "80012", "addr:state": "CO", "addr:street_address": "1155 S HAVANA ST", "amenity": "post_box", "collection_times": "Mo-Fr 13:05; Sa 12:20", "note": "ON 12/24 AND 12/31, THIS BOX MAY BE COLLECTED AS EARLY AS 12 NOON.", "nsi_id": "unitedstatespostalservice-a77078", "operator": "United States Postal Service", "operator:short": "USPS", "operator:type": "public", "operator:wikidata": "Q668687", "ref": "8001200019"}, "type": "Feature"}
{"geometry": {"coordinates": [-104.819411, 39.698102], "type": "Point"}, "id": "2dxlppnTjrFfBONGJyS4qGeQZYo=", "properties": {"@source_uri": "https://tools.usps.com/UspsToolsRestServices/rest/POLocator/findLocations", "@spider": "usps_collection_boxes", "addr:city": "AURORA", "addr:country": "US", "addr:postcode": "80012", "addr:state": "CO", "addr:street_address": "999 S SABLE BLVD", "amenity": "post_box", "collection_times": "Mo-Sa 10:00", "nsi_id": "unitedstatespostalservice-a77078", "operator": "United States Postal Service", "operator:short": "USPS", "operator:type": "public", "operator:wikidata": "Q668687", "ref": "8001200021"}, "type": "Feature"}
{"geometry": {"coordinates": [-104.842224, 39.710681], "type": "Point"}, "id": "cpe9e4nQRCf244sC-8UNBa52GSo=", "properties": {"@source_uri": "https://tools.usps.com/UspsToolsRestServices/rest/POLocator/findLocations", "@spider": "usps_collection_boxes", "addr:city": "AURORA", "addr:country": "US", "addr:postcode": "80012", "addr:state": "CO", "addr:street_address": "302 S TROY ST", "amenity": "post_box", "collection_times": "Mo-Sa 09:00", "nsi_id": "unitedstatespostalservice-a77078", "operator": "United States Postal Service", "operator:short": "USPS", "operator:type": "public", "operator:wikidata": "Q668687", "ref": "8001200025"}, "type": "Feature"}
{"geometry": {"coordinates": [-104.845814, 39.695554], "type": "Point"}, "id": "fE0SX8eKBqTFww7OJyE2EA11C1Q=", "properties": {"@source_uri": "https://tools.usps.com/UspsToolsRestServices/rest/POLocator/findLocations", "@spider": "usps_collection_boxes", "addr:city": "AURORA", "addr:country": "US", "addr:postcode": "80012", "addr:state": "CO", "addr:street_address": "12162 E MISSISSIPPI AVE", "amenity": "post_box", "collection_times": "Mo-Sa 11:00", "nsi_id": "unitedstatespostalservice-a77078", "operator": "United States Postal Service", "operator:short": "USPS", "operator:type": "public", "operator:wikidata": "Q668687", "ref": "8001200029"}, "type": "Feature"}
{"geometry": {"coordinates": [-104.841076, 39.69888], "type": "Point"}, "id": "xJsXTqM7XIgYBYO5D39b3dWuk4o=", "properties": {"@source_uri": "https://tools.usps.com/UspsToolsRestServices/rest/POLocator/findLocations", "@spider": "usps_collection_boxes", "addr:city": "AURORA", "addr:country": "US", "addr:postcode": "80012", "addr:state": "CO", "addr:street_address": "12700 E FORD AVE", "amenity": "post_box", "collection_times": "Mo-Sa 11:00", "nsi_id": "unitedstatespostalservice-a77078", "operator": "United States Postal Service", "operator:short": "USPS", "operator:type": "public", "operator:wikidata": "Q668687", "ref": "8001200037"}, "type": "Feature"}
{"geometry": {"coordinates": [-104.847194, 39.727584], "type": "Point"}, "id": "LO0hXWe_p2-80B9gWLycgCyo8aE=", "properties": {"@source_uri": "https://tools.usps.com/UspsToolsRestServices/rest/POLocator/findLocations", "@spider": "usps_collection_boxes", "addr:city": "AURORA", "addr:country": "US", "addr:postcode": "80012", "addr:state": "CO", "addr:street_address": "738 D PEORIA ST", "amenity": "post_box", "collection_times": "Mo-Fr 17:00; Sa 15:00", "note": "ON 12/24 AND 12/31, THIS BOX MAY BE COLLECTED AS EARLY AS 12 NOON.", "nsi_id": "unitedstatespostalservice-a77078", "operator": "United States Postal Service", "operator:short": "USPS", "operator:type": "public", "operator:wikidata": "Q668687", "ref": "8001200054"}, "type": "Feature"}
{"geometry": {"coordinates": [-104.8410385, 39.6956873], "type": "Point"}, "id": "pZUpQ-ByFcCqGNHvhephLcYjxbM=", "properties": {"@source_uri": "https://tools.usps.com/UspsToolsRestServices/rest/POLocator/findLocations", "@spider": "usps_collection_boxes", "addr:city": "AURORA", "addr:country": "US", "addr:postcode": "80012", "addr:state": "CO", "addr:street_address": "738 D PEORIA ST", "amenity": "post_box", "collection_times": "Mo-Fr 17:00; Sa 15:00", "indoor": "yes", "note": "ON 12/24 AND 12/31, THIS BOX MAY BE COLLECTED AS EARLY AS 12 NOON.", "nsi_id": "unitedstatespostalservice-a77078", "operator": "United States Postal Service", "operator:short": "USPS", "operator:type": "public", "operator:wikidata": "Q668687", "ref": "8001200055"}, "type": "Feature"}
{"geometry": {"coordinates": [-104.847194, 39.727584], "type": "Point"}, "id": "7TYzU2GkepcD_OoL6ADB0EcRMfA=", "properties": {"@source_uri": "https://tools.usps.com/UspsToolsRestServices/rest/POLocator/findLocations", "@spider": "usps_collection_boxes", "addr:city": "AURORA", "addr:country": "US", "addr:postcode": "80012", "addr:state": "CO", "addr:street_address": "738 D PEORIA ST", "amenity": "post_box", "collection_times": "Mo-Fr 17:00; Sa 15:00", "indoor": "yes", "note": "ON 12/24 AND 12/31, THIS BOX MAY BE COLLECTED AS EARLY AS 12 NOON.", "nsi_id": "unitedstatespostalservice-a77078", "operator": "United States Postal Service", "operator:short": "USPS", "operator:type": "public", "operator:wikidata": "Q668687", "ref": "8001200058"}, "type": "Feature"}
{"geometry": {"coordinates": [-104.864809, 39.68974], "type": "Point"}, "id": "HaFHlXINjCmjWqvw52D0KIvjPhs=", "properties": {"@source_uri": "https://tools.usps.com/UspsToolsRestServices/rest/POLocator/findLocations", "@spider": "usps_collection_boxes", "addr:city": "AURORA", "addr:country": "US", "addr:postcode": "80012", "addr:state": "CO", "addr:street_address": "1450 S HAVANA ST", "amenity": "post_box", "collection_times": "Mo-Fr 15:00; Sa 12:00", "note": "ON 12/24 AND 12/31, THIS BOX MAY BE COLLECTED AS EARLY AS 12 NOON.", "nsi_id": "unitedstatespostalservice-a77078", "operator": "United States Postal Service", "operator:short": "USPS", "operator:type": "public", "operator:wikidata": "Q668687", "ref": "8001200061"}, "type": "Feature"}
{"geometry": {"coordinates": [-104.811817, 39.699923], "type": "Point"}, "id": "XrW_cxacDdHJ-GtvBtZ8VM1rTOk=", "properties": {"@source_uri": "https://tools.usps.com/UspsToolsRestServices/rest/POLocator/findLocations", "@spider": "usps_collection_boxes", "addr:city": "AURORA", "addr:country": "US", "addr:postcode": "80012", "addr:state": "CO", "addr:street_address": "910 S GRANBY WAY", "amenity": "post_box", "collection_times": "Mo-Sa 11:00", "nsi_id": "unitedstatespostalservice-a77078", "operator": "United States Postal Service", "operator:short": "USPS", "operator:type": "public", "operator:wikidata": "Q668687", "ref": "8001200065"}, "type": "Feature"}
{"geometry": {"coordinates": [-104.812025, 39.710608], "type": "Point"}, "id": "A0nvuJIOWJxZks57H_1KgbASd44=", "properties": {"@source_uri": "https://tools.usps.com/UspsToolsRestServices/rest/POLocator/findLocations", "@spider": "usps_collection_boxes", "addr:city": "AURORA", "addr:country": "US", "addr:postcode": "80012", "addr:state": "CO", "addr:street_address": "15151 E ALAMEDA PKWY", "amenity": "post_box", "collection_times": "Mo-Sa 09:00", "nsi_id": "unitedstatespostalservice-a77078", "operator": "United States Postal Service", "operator:short": "USPS", "operator:type": "public", "operator:wikidata": "Q668687", "ref": "8001200070"}, "type": "Feature"}
{"geometry": {"coordinates": [-104.809338, 39.65186], "type": "Point"}, "id": "LMpCnTg__A2euEC2LtWkKCf-Rl8=", "properties": {"@source_uri": "https://tools.usps.com/UspsToolsRestServices/rest/POLocator/findLocations", "@spider": "usps_collection_boxes", "addr:city": "AURORA", "addr:country": "US", "addr:postcode": "80013", "addr:state": "CO", "addr:street_address": "15320 E HAMPDEN AVE", "amenity": "post_box", "collection_times": "Mo-Fr 15:00; Sa 13:30", "note": "ON 12/24 AND 12/31, THIS BOX MAY BE COLLECTED AS EARLY AS 12 NOON.", "nsi_id": "unitedstatespostalservice-a77078", "operator": "United States Postal Service", "operator:short": "USPS", "operator:type": "public", "operator:wikidata": "Q668687", "ref": "8001300004"}, "type": "Feature"}
{"geometry": {"coordinates": [-104.768906, 39.65353], "type": "Point"}, "id": "gq7hfPxGmy-mAAZ7LBtFBP8FgRs=", "properties": {"@source_uri": "https://tools.usps.com/UspsToolsRestServices/rest/POLocator/findLocations", "@spider": "usps_collection_boxes", "addr:city": "AURORA", "addr:country": "US", "addr:postcode": "80013", "addr:state": "CO", "addr:street_address": "18883 E HAMPDEN AVE", "amenity": "post_box", "collection_times": "Mo-Sa 10:00", "nsi_id": "unitedstatespostalservice-a77078", "operator": "United States Postal Service", "operator:short": "USPS", "operator:type": "public", "operator:wikidata": "Q668687", "ref": "8001300006"}, "type": "Feature"}
{"geometry": {"coordinates": [-104.788516, 39.672264], "type": "Point"}, "id": "N_XeVlu7_IKe1GP-K7BnFWj8J0k=", "properties": {"@source_uri": "https://tools.usps.com/UspsToolsRestServices/rest/POLocator/findLocations", "@spider": "usps_collection_boxes", "addr:city": "AURORA", "addr:country": "US", "addr:postcode": "80013", "addr:state": "CO", "addr:street_address": "17200 E ILIFF AVE", "amenity": "post_box", "collection_times": "Mo-Fr 14:45; Sa 11:30", "note": "ON 12/24 AND 12/31, THIS BOX MAY BE COLLECTED AS EARLY AS 12 NOON.", "nsi_id": "unitedstatespostalservice-a77078", "operator": "United States Postal Service", "operator:short": "USPS", "operator:type": "public", "operator:wikidata": "Q668687", "ref": "8001300007"}, "type": "Feature"}
{"geometry": {"coordinates": [-104.790456, 39.674749], "type": "Point"}, "id": "_Kdz9FxPEmmFycK-WVXS22J2xL8=", "properties": {"@source_uri": "https://tools.usps.com/UspsToolsRestServices/rest/POLocator/findLocations", "@spider": "usps_collection_boxes", "addr:city": "AURORA", "addr:country": "US", "addr:postcode": "80013", "addr:state": "CO", "addr:street_address": "2222 S BUCKLEY RD", "amenity": "post_box", "collection_times": "Mo-Fr 14:45; Sa 11:30", "note": "ON 12/24 AND 12/31, THIS BOX MAY BE COLLECTED AS EARLY AS 12 NOON.", "nsi_id": "unitedstatespostalservice-a77078", "operator": "United States Postal Service", "operator:short": "USPS", "operator:type": "public", "operator:wikidata": "Q668687", "ref": "8001300012"}, "type": "Feature"}
{"geometry": {"coordinates": [-104.793036, 39.639351], "type": "Point"}, "id": "lzwGbaHuSIh1jP4fJ5I-WqTvXGg=", "properties": {"@source_uri": "https://tools.usps.com/UspsToolsRestServices/rest/POLocator/findLocations", "@spider": "usps_collection_boxes", "addr:city": "AURORA", "addr:country": "US", "addr:postcode": "80013", "addr:state": "CO", "addr:street_address": "4271 S BUCKLEY RD", "amenity": "post_box", "collection_times": "Mo-Sa 09:00", "nsi_id": "unitedstatespostalservice-a77078", "operator": "United States Postal Service", "operator:short": "USPS", "operator:type": "public", "operator:wikidata": "Q668687", "ref": "8001300014"}, "type": "Feature"}
{"geometry": {"coordinates": [-104.798329, 39.642448], "type": "Point"}, "id": "Ah6Y4fDG4o49Eo3q4tup_AXN1a4=", "properties": {"@source_uri": "https://tools.usps.com/UspsToolsRestServices/rest/POLocator/findLocations", "@spider": "usps_collection_boxes", "addr:city": "AURORA", "addr:country": "US", "addr:postcode": "80013", "addr:state": "CO", "addr:street_address": "4106 S MEMPHIS WAY", "amenity": "post_box", "collection_times": "Mo-Fr 12:50; Sa 13:55", "note": "ON 12/24 AND 12/31, THIS BOX MAY BE COLLECTED AS EARLY AS 12 NOON.", "nsi_id": "unitedstatespostalservice-a77078", "operator": "United States Postal Service", "operator:short": "USPS", "operator:type": "public", "operator:wikidata": "Q668687", "ref": "8001300018"}, "type": "Feature"}
{"geometry": {"coordinates": [-104.808195, 39.679522], "type": "Point"}, "id": "PS5ct5VNwvr0CaWh3XmPpC4ZOAI=", "properties": {"@source_uri": "https://tools.usps.com/UspsToolsRestServices/rest/POLocator/findLocations", "@spider": "usps_collection_boxes", "addr:city": "AURORA", "addr:country": "US", "addr:postcode": "80013", "addr:state": "CO", "addr:street_address": "2020 S HANNIBAL WAY", "amenity": "post_box", "collection_times": "Mo-Sa 10:00", "nsi_id": "unitedstatespostalservice-a77078", "operator": "United States Postal Service", "operator:short": "USPS", "operator:type": "public", "operator:wikidata": "Q668687", "ref": "8001300038"}, "type": "Feature"}
{"geometry": {"coordinates": [-104.770057, 39.651637], "type": "Point"}, "id": "Hos3Uvj9q3jBwMoomZIf8iEjlG8=", "properties": {"@source_uri": "https://tools.usps.com/UspsToolsRestServices/rest/POLocator/findLocations", "@spider": "usps_collection_boxes", "addr:city": "AURORA", "addr:country": "US", "addr:postcode": "80013", "addr:state": "CO", "addr:street_address": "18730 E HAMPDEN AVE", "amenity": "post_box", "collection_times": "Mo-Sa 10:15", "nsi_id": "unitedstatespostalservice-a77078", "operator": "United States Postal Service", "operator:short": "USPS", "operator:type": "public", "operator:wikidata": "Q668687", "ref": "8001300040"}, "type": "Feature"}
{"geometry": {"coordinates": [-104.776013, 39.65464], "type": "Point"}, "id": "a4P3XcKcE85igO6uk4DFr7TCIIE=", "properties": {"@source_uri": "https://tools.usps.com/UspsToolsRestServices/rest/POLocator/findLocations", "@spider": "usps_collection_boxes", "addr:city": "AURORA", "addr:country": "US", "addr:postcode": "80013", "addr:state": "CO", "addr:street_address": "18211 E HAMPDEN AVE", "amenity": "post_box", "collection_times": "Mo-Sa 10:00", "nsi_id": "unitedstatespostalservice-a77078", "operator": "United States Postal Service", "operator:short": "USPS", "operator:type": "public", "operator:wikidata": "Q668687", "ref": "8001300046"}, "type": "Feature"}
{"geometry": {"coordinates": [-104.863759, 39.66948], "type": "Point"}, "id": "K6KATo_4Bl-emBB2bZBP_A2wP4c=", "properties": {"@source_uri": "https://tools.usps.com/UspsToolsRestServices/rest/POLocator/findLocations", "@spider": "usps_collection_boxes", "addr:city": "AURORA", "addr:country": "US", "addr:postcode": "80014", "addr:state": "CO", "addr:street_address": "2600 S PARKER RD", "amenity": "post_box", "collection_times": "Mo-Fr 14:10; Sa 13:20", "note": "ON 12/24 AND 12/31, THIS BOX MAY BE COLLECTED AS EARLY AS 12 NOON.", "nsi_id": "unitedstatespostalservice-a77078", "operator": "United States Postal Service", "operator:short": "USPS", "operator:type": "public", "operator:wikidata": "Q668687", "ref": "8001400016"}, "type": "Feature"}
{"geometry": {"coordinates": [-104.865518, 39.67431], "type": "Point"}, "id": "2C3WraSvt60F5sC3EEDNQ9Gy0HA=", "properties": {"@source_uri": "https://tools.usps.com/UspsToolsRestServices/rest/POLocator/findLocations", "@spider": "usps_collection_boxes", "addr:city": "AURORA", "addr:country": "US", "addr:postcode": "80014", "addr:state": "CO", "addr:street_address": "2300 S HAVANA ST", "amenity": "post_box", "collection_times": "Mo-Sa 11:00", "nsi_id": "unitedstatespostalservice-a77078", "operator": "United States Postal Service", "operator:short": "USPS", "operator:type": "public", "operator:wikidata": "Q668687", "ref": "8001400035"}, "type": "Feature"}
{"geometry": {"coordinates": [-104.8214157507, 39.6778420357], "type": "Point"}, "id": "RyyVb26Vmt2l2bP0y8LeTuI-lr8=", "properties": {"@source_uri": "https://tools.usps.com/UspsToolsRestServices/rest/POLocator/findLocations", "@spider": "usps_collection_boxes", "addr:city": "AURORA", "addr:country": "US", "addr:postcode": "80014", "addr:state": "CO", "addr:street_address": "14292 E EVANS AVE", "amenity": "post_box", "collection_times": "Mo-Sa 12:00", "nsi_id": "unitedstatespostalservice-a77078", "operator": "United States Postal Service", "operator:short": "USPS", "operator:type": "public", "operator:wikidata": "Q668687", "ref": "8001400040"}, "type": "Feature"}
{"geometry": {"coordinates": [-104.810976, 39.654765], "type": "Point"}, "id": "F0IyTZQT-Bsh6n8wfu6yegpcM6I=", "properties": {"@source_uri": "https://tools.usps.com/UspsToolsRestServices/rest/POLocator/findLocations", "@spider": "usps_collection_boxes", "addr:city": "AURORA", "addr:country": "US", "addr:postcode": "80014", "addr:state": "CO", "addr:street_address": "15200 E GIRARD AVE", "amenity": "post_box", "collection_times": "Mo-Fr 13:10; Sa 13:00", "note": "ON 12/24 AND 12/31, THIS BOX MAY BE COLLECTED AS EARLY AS 12 NOON.", "nsi_id": "unitedstatespostalservice-a77078", "operator": "United States Postal Service", "operator:short": "USPS", "operator:type": "public", "operator:wikidata": "Q668687", "ref": "8001400041"}, "type": "Feature"}
{"geometry": {"coordinates": [-104.813588, 39.653541], "type": "Point"}, "id": "5OKnsNjNEYb-1IMQPum6-DkrNUs=", "properties": {"@source_uri": "https://tools.usps.com/UspsToolsRestServices/rest/POLocator/findLocations", "@spider": "usps_collection_boxes", "addr:city": "AURORA", "addr:country": "US", "addr:postcode": "80014", "addr:state": "CO", "addr:street_address": "14991 E HAMPDEN AVE", "amenity": "post_box", "collection_times": "Mo-Fr 13:15", "note": "ON 12/24 AND 12/31, THIS BOX MAY BE COLLECTED AS EARLY AS 12 NOON.", "nsi_id": "unitedstatespostalservice-a77078", "operator": "United States Postal Service", "operator:short": "USPS", "operator:type": "public", "operator:wikidata": "Q668687", "ref": "8001400042"}, "type": "Feature"}
{"geometry": {"coordinates": [-104.859177, 39.66311], "type": "Point"}, "id": "E-02J0geQ8gcAXQIfMCyrKwynsM=", "properties": {"@source_uri": "https://tools.usps.com/UspsToolsRestServices/rest/POLocator/findLocations", "@spider": "usps_collection_boxes", "addr:city": "AURORA", "addr:country": "US", "addr:postcode": "80014", "addr:state": "CO", "addr:street_address": "11100 E BETHANY DR", "amenity": "post_box", "collection_times": "Mo-Sa 09:30", "nsi_id": "unitedstatespostalservice-a77078", "operator": "United States Postal Service", "operator:short": "USPS", "operator:type": "public", "operator:wikidata": "Q668687", "ref": "8001400057"}, "type": "Feature"}
{"geometry": {"coordinates": [-104.828108, 39.671438], "type": "Point"}, "id": "JRMeh3GONoYEN048KROcYkinTxY=", "properties": {"@source_uri": "https://tools.usps.com/UspsToolsRestServices/rest/POLocator/findLocations", "@spider": "usps_collection_boxes", "addr:city": "AURORA", "addr:country": "US", "addr:postcode": "80014", "addr:state": "CO", "addr:street_address": "2500 S ABILENE ST", "amenity": "post_box", "collection_times": "Mo-Fr 18:00; Sa 15:00", "note": "ON 12/24 AND 12/31, THIS BOX MAY BE COLLECTED AS EARLY AS 12 NOON.", "nsi_id": "unitedstatespostalservice-a77078", "operator": "United States Postal Service", "operator:short": "USPS", "operator:type": "public", "operator:wikidata": "Q668687", "ref": "8001400064"}, "type": "Feature"}
{"geometry": {"coordinates": [-104.8367972, 39.6709177], "type": "Point"}, "id": "rZExZsaRVGE-AFKwzLW2nrMrUlw=", "properties": {"@source_uri": "https://tools.usps.com/UspsToolsRestServices/rest/POLocator/findLocations", "@spider": "usps_collection_boxes", "addr:city": "AURORA", "addr:country": "US", "addr:postcode": "80014", "addr:state": "CO", "addr:street_address": "3870 S ATCHISON WAY", "amenity": "post_box", "collection_times": "Mo-Sa 13:00", "note": "ON 12/24 AND 12/31, THIS BOX MAY BE COLLECTED AS EARLY AS 12 NOON.", "nsi_id": "unitedstatespostalservice-a77078", "operator": "United States Postal Service", "operator:short": "USPS", "operator:type": "public", "operator:wikidata": "Q668687", "ref": "8001400070"}, "type": "Feature"}
{"geometry": {"coordinates": [-104.831591, 39.676037], "type": "Point"}, "id": "smy6Pjw7gAPbIumdbTULZfxx8Hw=", "properties": {"@source_uri": "https://tools.usps.com/UspsToolsRestServices/rest/POLocator/findLocations", "@spider": "usps_collection_boxes", "addr:city": "AURORA", "addr:country": "US", "addr:postcode": "80014", "addr:state": "CO", "addr:street_address": "2280 S XANADU WAY", "amenity": "post_box", "collection_times": "Mo-Fr 13:30; Sa 12:00", "note": "ON 12/24 AND 12/31, THIS BOX MAY BE COLLECTED AS EARLY AS 12 NOON.", "nsi_id": "unitedstatespostalservice-a77078", "operator": "United States Postal Service", "operator:short": "USPS", "operator:type": "public", "operator:wikidata": "Q668687", "ref": "8001400079"}, "type": "Feature"}
{"geometry": {"coordinates": [-104.841806, 39.67432], "type": "Point"}, "id": "YIQHfUHxIDysy1J3DBBBTw6qzQo=", "properties": {"@source_uri": "https://tools.usps.com/UspsToolsRestServices/rest/POLocator/findLocations", "@spider": "usps_collection_boxes", "addr:city": "AURORA", "addr:country": "US", "addr:postcode": "80014", "addr:state": "CO", "addr:street_address": "12500 E ILIFF AVE", "amenity": "post_box", "collection_times": "Mo-Sa 12:00", "nsi_id": "unitedstatespostalservice-a77078", "operator": "United States Postal Service", "operator:short": "USPS", "operator:type": "public", "operator:wikidata": "Q668687", "ref": "8001400093"}, "type": "Feature"}
{"geometry": {"coordinates": [-104.828108, 39.671438], "type": "Point"}, "id": "hhR8xOvDkupsugoeRkbHhF6-0ks=", "properties": {"@source_uri": "https://tools.usps.com/UspsToolsRestServices/rest/POLocator/findLocations", "@spider": "usps_collection_boxes", "addr:city": "AURORA", "addr:country": "US", "addr:postcode": "80014", "addr:state": "CO", "addr:street_address": "2500 S ABILENE ST", "amenity": "post_box", "collection_times": "Mo-Fr 18:00; Sa 15:00", "indoor": "yes", "note": "ON 12/24 AND 12/31, THIS BOX MAY BE COLLECTED AS EARLY AS 12 NOON.", "nsi_id": "unitedstatespostalservice-a77078", "operator": "United States Postal Service", "operator:short": "USPS", "operator:type": "public", "operator:wikidata": "Q668687", "ref": "8001400099"}, "type": "Feature"}
{"geometry": {"coordinates": [-104.828108, 39.671438], "type": "Point"}, "id": "nw-x3KLvXLjBl0UZlwgyR36YNFk=", "properties": {"@source_uri": "https://tools.usps.com/UspsToolsRestServices/rest/POLocator/findLocations", "@spider": "usps_collection_boxes", "addr:city": "AURORA", "addr:country": "US", "addr:postcode": "80014", "addr:state": "CO", "addr:street_address": "2500 S ABILENE ST", "amenity": "post_box", "collection_times": "Mo-Fr 18:00; Sa 15:00", "indoor": "yes", "note": "ON 12/24 AND 12/31, THIS BOX MAY BE COLLECTED AS EARLY AS 12 NOON.", "nsi_id": "unitedstatespostalservice-a77078", "operator": "United States Postal Service", "operator:short": "USPS", "operator:type": "public", "operator:wikidata": "Q668687", "ref": "8001400100"}, "type": "Feature"}
{"geometry": {"coordinates": [-104.848541, 39.676161], "type": "Point"}, "id": "SLzNf2CXpXy0kLvxuwv_BS7axGI=", "properties": {"@source_uri": "https://tools.usps.com/UspsToolsRestServices/rest/POLocator/findLocations", "@spider": "usps_collection_boxes", "addr:city": "AURORA", "addr:country": "US", "addr:postcode": "80014", "addr:state": "CO", "addr:street_address": "2241 S PEORIA ST", "amenity": "post_box", "collection_times": "Mo-Fr 13:25; Sa 13:00", "note": "ON 12/24 AND 12/31, THIS BOX MAY BE COLLECTED AS EARLY AS 12 NOON.", "nsi_id": "unitedstatespostalservice-a77078", "operator": "United States Postal Service", "operator:short": "USPS", "operator:type": "public", "operator:wikidata": "Q668687", "ref": "8001400105"}, "type": "Feature"}
{"geometry": {"coordinates": [-104.864573, 39.67166], "type": "Point"}, "id": "NkYieVHx5G_DBlmkNztzmYRUrNo=", "properties": {"@source_uri": "https://tools.usps.com/UspsToolsRestServices/rest/POLocator/findLocations", "@spider": "usps_collection_boxes", "addr:city": "AURORA", "addr:country": "US", "addr:postcode": "80014", "addr:state": "CO", "addr:street_address": "2500 S HAVANA ST", "amenity": "post_box", "collection_times": "Mo-Sa 11:00", "nsi_id": "unitedstatespostalservice-a77078", "operator": "United States Postal Service", "operator:short": "USPS", "operator:type": "public", "operator:wikidata": "Q668687", "ref": "8001400124"}, "type": "Feature"}
{"geometry": {"coordinates": [-104.858527, 39.662291], "type": "Point"}, "id": "SHRa6w-0oMr_yf8-Qz7vzGXV20M=", "properties": {"@source_uri": "https://tools.usps.com/UspsToolsRestServices/rest/POLocator/findLocations", "@spider": "usps_collection_boxes", "addr:city": "AURORA", "addr:country": "US", "addr:postcode": "80014", "addr:state": "CO", "addr:street_address": "3005 S PARKER RD", "amenity": "post_box", "collection_times": "Mo-Sa 10:00", "nsi_id": "unitedstatespostalservice-a77078", "operator": "United States Postal Service", "operator:short": "USPS", "operator:type": "public", "operator:wikidata": "Q668687", "ref": "8001400128"}, "type": "Feature"}
{"geometry": {"coordinates": [-104.811855, 39.67659], "type": "Point"}, "id": "2EuAiXpgZFhbJ1gFrXTTVJMhB3s=", "properties": {"@source_uri": "https://tools.usps.com/UspsToolsRestServices/rest/POLocator/findLocations", "@spider": "usps_collection_boxes", "addr:city": "AURORA", "addr:country": "US", "addr:postcode": "80014", "addr:state": "CO", "addr:street_address": "2228 S FRASER ST", "amenity": "post_box", "collection_times": "Mo-Sa 12:00", "nsi_id": "unitedstatespostalservice-a77078", "operator": "United States Postal Service", "operator:short": "USPS", "operator:type": "public", "operator:wikidata": "Q668687", "ref": "8001400130"}, "type": "Feature"}
{"geometry": {"coordinates": [-104.844303, 39.659797], "type": "Point"}, "id": "hE5NZyuYrE12BhewfBGCRSQ32MY=", "properties": {"@source_uri": "https://tools.usps.com/UspsToolsRestServices/rest/POLocator/findLocations", "@spider": "usps_collection_boxes", "addr:city": "AURORA", "addr:country": "US", "addr:postcode": "80014", "addr:state": "CO", "addr:street_address": "3150 S PEORIA ST", "amenity": "post_box", "collection_times": "Mo-Sa 11:00", "nsi_id": "unitedstatespostalservice-a77078", "operator": "United States Postal Service", "operator:short": "USPS", "operator:type": "public", "operator:wikidata": "Q668687", "ref": "8001400131"}, "type": "Feature"}
{"geometry": {"coordinates": [-104.828108, 39.671438], "type": "Point"}, "id": "oycyNHoBkY3gS4Lq1I522eGLfcc=", "properties": {"@source_uri": "https://tools.usps.com/UspsToolsRestServices/rest/POLocator/findLocations", "@spider": "usps_collection_boxes", "addr:city": "AURORA", "addr:country": "US", "addr:postcode": "80014", "addr:state": "CO", "addr:street_address": "2500 S ABILENE ST", "amenity": "post_box", "collection_times": "Mo-Fr 18:00; Sa 15:00", "name": "USPS COLLECTION BOX - APC", "note": "ON 12/24 AND 12/31, THIS BOX MAY BE COLLECTED AS EARLY AS 12 NOON.", "nsi_id": "unitedstatespostalservice-a77078", "operator": "United States Postal Service", "operator:short": "USPS", "operator:type": "public", "operator:wikidata": "Q668687", "ref": "8001400138"}, "type": "Feature"}
{"geometry": {"coordinates": [-104.771486, 39.618219], "type": "Point"}, "id": "U_h911yQZmHFlDoi0gTVgIB4yKQ=", "properties": {"@source_uri": "https://tools.usps.com/UspsToolsRestServices/rest/POLocator/findLocations", "@spider": "usps_collection_boxes", "addr:city": "CENTENNIAL", "addr:country": "US", "addr:postcode": "80015", "addr:state": "CO", "addr:street_address": "18555 E SMOKY HILL RD", "amenity": "post_box", "collection_times": "Mo-Sa 17:00", "note": "ON 12/24 AND 12/31, THIS BOX MAY BE COLLECTED AS EARLY AS 12 NOON.", "nsi_id": "unitedstatespostalservice-a77078", "operator": "United States Postal Service", "operator:short": "USPS", "operator:type": "public", "operator:wikidata": "Q668687", "ref": "8001500001"}, "type": "Feature"}
{"geometry": {"coordinates": [-104.771486, 39.618219], "type": "Point"}, "id": "7QT6Ie-0cYybb6ujbR1-HSAp8Xw=", "properties": {"@source_uri": "https://tools.usps.com/UspsToolsRestServices/rest/POLocator/findLocations", "@spider": "usps_collection_boxes", "addr:city": "CENTENNIAL", "addr:country": "US", "addr:postcode": "80015", "addr:state": "CO", "addr:street_address": "18555 E SMOKY HILL RD", "amenity": "post_box", "collection_times": "Mo-Fr 18:00; Sa 17:00", "indoor": "yes", "note": "ON 12/24 AND 12/31, THIS BOX MAY BE COLLECTED AS EARLY AS 12 NOON.", "nsi_id": "unitedstatespostalservice-a77078", "operator": "United States Postal Service", "operator:short": "USPS", "operator:type": "public", "operator:wikidata": "Q668687", "ref": "8001500005"}, "type": "Feature"}
{"geometry": {"coordinates": [-104.793598, 39.625474], "type": "Point"}, "id": "F9hdnPmQrp6GQYTqNwjtg16hKSs=", "properties": {"@source_uri": "https://tools.usps.com/UspsToolsRestServices/rest/POLocator/findLocations", "@spider": "usps_collection_boxes", "addr:city": "CENTENNIAL", "addr:country": "US", "addr:postcode": "80015", "addr:state": "CO", "addr:street_address": "16746 E SMOKY HILL RD", "amenity": "post_box", "collection_times": "Mo-Sa 10:30", "nsi_id": "unitedstatespostalservice-a77078", "operator": "United States Postal Service", "operator:short": "USPS", "operator:type": "public", "operator:wikidata": "Q668687", "ref": "8001500008"}, "type": "Feature"}
{"geometry": {"coordinates": [-104.827974, 39.636886], "type": "Point"}, "id": "Wdm-rh-gDrwRIZqS6MdE7jBk_xo=", "properties": {"@source_uri": "https://tools.usps.com/UspsToolsRestServices/rest/POLocator/findLocations", "@spider": "usps_collection_boxes", "addr:city": "CENTENNIAL", "addr:country": "US", "addr:postcode": "80015", "addr:state": "CO", "addr:street_address": "13731 E RICE PL", "amenity": "post_box", "collection_times": "Mo-Sa 11:00", "nsi_id": "unitedstatespostalservice-a77078", "operator": "United States Postal Service", "operator:short": "USPS", "operator:type": "public", "operator:wikidata": "Q668687", "ref": "8001500009"}, "type": "Feature"}
{"geometry": {"coordinates": [-104.771486, 39.618219], "type": "Point"}, "id": "F3gyJgBsT8PCamXSTBPhkiNGBDs=", "properties": {"@source_uri": "https://tools.usps.com/UspsToolsRestServices/rest/POLocator/findLocations", "@spider": "usps_collection_boxes", "addr:city": "CENTENNIAL", "addr:country": "US", "addr:postcode": "80015", "addr:state": "CO", "addr:street_address": "18555 E SMOKY HILL RD", "amenity": "post_box", "collection_times": "Mo-Fr 18:00; Sa 17:00", "name": "USPS COLLECTION BOX - APC", "note": "ON 12/24 AND 12/31, THIS BOX MAY BE COLLECTED AS EARLY AS 12 NOON.", "nsi_id": "unitedstatespostalservice-a77078", "operator": "United States Postal Service", "operator:short": "USPS", "operator:type": "public", "operator:wikidata": "Q668687", "ref": "8001500016"}, "type": "Feature"}
{"geometry": {"coordinates": [-104.75785, 39.614962], "type": "Point"}, "id": "YMwoOTnVbw8EGmhOQEaefsQBc2w=", "properties": {"@source_uri": "https://tools.usps.com/UspsToolsRestServices/rest/POLocator/findLocations", "@spider": "usps_collection_boxes", "addr:city": "CENTENNIAL", "addr:country": "US", "addr:postcode": "80015", "addr:state": "CO", "addr:street_address": "19711 E SMOKY HILL RD", "amenity": "post_box", "collection_times": "Mo-Sa 11:00", "nsi_id": "unitedstatespostalservice-a77078", "operator": "United States Postal Service", "operator:short": "USPS", "operator:type": "public", "operator:wikidata": "Q668687", "ref": "8001500017"}, "type": "Feature"}
{"geometry": {"coordinates": [-104.767453, 39.638657], "type": "Point"}, "id": "gHP6yi-JZuS_PU5sGwdCxVJeEbA=", "properties": {"@source_uri": "https://tools.usps.com/UspsToolsRestServices/rest/POLocator/findLocations", "@spider": "usps_collection_boxes", "addr:city": "CENTENNIAL", "addr:country": "US", "addr:postcode": "80015", "addr:state": "CO", "addr:street_address": "19000 E QUINCY AVE", "amenity": "post_box", "collection_times": "Mo-Sa 10:00", "nsi_id": "unitedstatespostalservice-a77078", "operator": "United States Postal Service", "operator:short": "USPS", "operator:type": "public", "operator:wikidata": "Q668687", "ref": "8001500022"}, "type": "Feature"}
{"geometry": {"coordinates": [-104.771486, 39.618219], "type": "Point"}, "id": "L-EDYRb5q5VXp6CVntLTR0f06aw=", "properties": {"@source_uri": "https://tools.usps.com/UspsToolsRestServices/rest/POLocator/findLocations", "@spider": "usps_collection_boxes", "addr:city": "CENTENNIAL", "addr:country": "US", "addr:postcode": "80015", "addr:state": "CO", "addr:street_address": "18555 E SMOKY HILL RD", "amenity": "post_box", "collection_times": "Mo-Fr 18:00; Sa 17:00", "name": "USPS COLLECTION BOX - APC", "note": "ON 12/24 AND 12/31, THIS BOX MAY BE COLLECTED AS EARLY AS 12 NOON.", "nsi_id": "unitedstatespostalservice-a77078", "operator": "United States Postal Service", "operator:short": "USPS", "operator:type": "public", "operator:wikidata": "Q668687", "ref": "8001500024"}, "type": "Feature"}
{"geometry": {"coordinates": [-104.808967, 39.610032], "type": "Point"}, "id": "YE3gaSRfHyyZpoH4Q2Frvp19bvs=", "properties": {"@source_uri": "https://tools.usps.com/UspsToolsRestServices/rest/POLocator/findLocations", "@spider": "usps_collection_boxes", "addr:city": "CENTENNIAL", "addr:country": "US", "addr:postcode": "80016", "addr:state": "CO", "addr:street_address": "15460 E ORCHARD RD", "amenity": "post_box", "collection_times": "Mo-Sa 10:30", "nsi_id": "unitedstatespostalservice-a77078", "operator": "United States Postal Service", "operator:short": "USPS", "operator:type": "public", "operator:wikidata": "Q668687", "ref": "8001600000"}, "type": "Feature"}
{"geometry": {"coordinates": [-104.803059, 39.599756], "type": "Point"}, "id": "JETocmJsfsttGW-mlnCQ8EUtgdA=", "properties": {"@source_uri": "https://tools.usps.com/UspsToolsRestServices/rest/POLocator/findLocations", "@spider": "usps_collection_boxes", "addr:city": "CENTENNIAL", "addr:country": "US", "addr:postcode": "80016", "addr:state": "CO", "addr:street_address": "6412 S PARKER RD", "amenity": "post_box", "collection_times": "Mo-Sa 11:00", "nsi_id": "unitedstatespostalservice-a77078", "operator": "United States Postal Service", "operator:short": "USPS", "operator:type": "public", "operator:wikidata": "Q668687", "ref": "8001600001"}, "type": "Feature"}
{"geometry": {"coordinates": [-104.715181, 39.604305], "type": "Point"}, "id": "t-3IaPU961n10476puEdD-iZJoA=", "properties": {"@source_uri": "https://tools.usps.com/UspsToolsRestServices/rest/POLocator/findLocations", "@spider": "usps_collection_boxes", "addr:city": "CENTENNIAL", "addr:country": "US", "addr:postcode": "80016", "addr:state": "CO", "addr:street_address": "6100 S GUN CLUB RD", "amenity": "post_box", "collection_times": "Mo-Sa 10:00", "nsi_id": "unitedstatespostalservice-a77078", "operator": "United States Postal Service", "operator:short": "USPS", "operator:type": "public", "operator:wikidata": "Q668687", "ref": "8001600003"}, "type": "Feature"}
{"geometry": {"coordinates": [-104.725213, 39.575405], "type": "Point"}, "id": "4iJLv3Vlo__jw1-3Epnyuwk_qG8=", "properties": {"@source_uri": "https://tools.usps.com/UspsToolsRestServices/rest/POLocator/findLocations", "@spider": "usps_collection_boxes", "addr:city": "CENTENNIAL", "addr:country": "US", "addr:postcode": "80016", "addr:state": "CO", "addr:street_address": "22675 E AURORA PKWY", "amenity": "post_box", "collection_times": "Mo-Sa 10:30", "nsi_id": "unitedstatespostalservice-a77078", "operator": "United States Postal Service", "operator:short": "USPS", "operator:type": "public", "operator:wikidata": "Q668687", "ref": "8001600004"}, "type": "Feature"}
{"geometry": {"coordinates": [-104.789683, 39.684502], "type": "Point"}, "id": "6h2_Xn4WKh7Es6n7rqbJWIBF8M0=", "properties": {"@source_uri": "https://tools.usps.com/UspsToolsRestServices/rest/POLocator/findLocations", "@spider": "usps_collection_boxes", "addr:city": "AURORA", "addr:country": "US", "addr:postcode": "80017", "addr:state": "CO", "addr:street_address": "1730 S BUCKLEY RD", "amenity": "post_box", "collection_times": "Mo-Sa 10:00", "nsi_id": "unitedstatespostalservice-a77078", "operator": "United States Postal Service", "operator:short": "USPS", "operator:type": "public", "operator:wikidata": "Q668687", "ref": "8001700009"}, "type": "Feature"}
{"geometry": {"coordinates": [-104.800659, 39.708203], "type": "Point"}, "id": "MtSt8kiwpvJKyeyp50A6Ay3_PkY=", "properties": {"@source_uri": "https://tools.usps.com/UspsToolsRestServices/rest/POLocator/findLocations", "@spider": "usps_collection_boxes", "addr:city": "AURORA", "addr:country": "US", "addr:postcode": "80017", "addr:state": "CO", "addr:street_address": "400 S KALISPELL WAY", "amenity": "post_box", "collection_times": "Mo-Sa 10:00", "nsi_id": "unitedstatespostalservice-a77078", "operator": "United States Postal Service", "operator:short": "USPS", "operator:type": "public", "operator:wikidata": "Q668687", "ref": "8001700012"}, "type": "Feature"}
{"geometry": {"coordinates": [-104.791804, 39.706432], "type": "Point"}, "id": "IIyp9La6eo3mQ_3Kb3muIZKG0_0=", "properties": {"@source_uri": "https://tools.usps.com/UspsToolsRestServices/rest/POLocator/findLocations", "@spider": "usps_collection_boxes", "addr:city": "AURORA", "addr:country": "US", "addr:postcode": "80017", "addr:state": "CO", "addr:street_address": "16890 E ALAMEDA PKWY", "amenity": "post_box", "collection_times": "Mo-Fr 17:30; Sa 16:45", "indoor": "yes", "note": "ON 12/24 AND 12/31, THIS BOX MAY BE COLLECTED AS EARLY AS 12 NOON.", "nsi_id": "unitedstatespostalservice-a77078", "operator": "United States Postal Service", "operator:short": "USPS", "operator:type": "public", "operator:wikidata": "Q668687", "ref": "8001700016"}, "type": "Feature"}
{"geometry": {"coordinates": [-104.791804, 39.706432], "type": "Point"}, "id": "_7S8fL_IBlnsLcX4FMTz6Z6M97I=", "properties": {"@source_uri": "https://tools.usps.com/UspsToolsRestServices/rest/POLocator/findLocations", "@spider": "usps_collection_boxes", "addr:city": "AURORA", "addr:country": "US", "addr:postcode": "80017", "addr:state": "CO", "addr:street_address": "16890 E ALAMEDA PKWY", "amenity": "post_box", "collection_times": "Mo-Fr 17:30; Sa 16:45", "indoor": "yes", "note": "ON 12/24 AND 12/31, THIS BOX MAY BE COLLECTED AS EARLY AS 12 NOON.", "nsi_id": "unitedstatespostalservice-a77078", "operator": "United States Postal Service", "operator:short": "USPS", "operator:type": "public", "operator:wikidata": "Q668687", "ref": "8001700017"}, "type": "Feature"}
{"geometry": {"coordinates": [-104.791804, 39.706432], "type": "Point"}, "id": "ANDD2YCvYj74ACjUKCJ5Hz12VBc=", "properties": {"@source_uri": "https://tools.usps.com/UspsToolsRestServices/rest/POLocator/findLocations", "@spider": "usps_collection_boxes", "addr:city": "AURORA", "addr:country": "US", "addr:postcode": "80017", "addr:state": "CO", "addr:street_address": "16890 E ALAMEDA PKWY", "amenity": "post_box", "collection_times": "Mo-Fr 17:30; Sa 16:45", "indoor": "yes", "note": "ON 12/24 AND 12/31, THIS BOX MAY BE COLLECTED AS EARLY AS 12 NOON.", "nsi_id": "unitedstatespostalservice-a77078", "operator": "United States Postal Service", "operator:short": "USPS", "operator:type": "public", "operator:wikidata": "Q668687", "ref": "8001700018"}, "type": "Feature"}
{"geometry": {"coordinates": [-104.791804, 39.706432], "type": "Point"}, "id": "d0p0f-emb7bi-vWAdD2XQM3VXMw=", "properties": {"@source_uri": "https://tools.usps.com/UspsToolsRestServices/rest/POLocator/findLocations", "@spider": "usps_collection_boxes", "addr:city": "AURORA", "addr:country": "US", "addr:postcode": "80017", "addr:state": "CO", "addr:street_address": "16890 E ALAMEDA PKWY", "amenity": "post_box", "collection_times": "Mo-Fr 17:30; Sa 16:45", "indoor": "yes", "note": "ON 12/24 AND 12/31, THIS BOX MAY BE COLLECTED AS EARLY AS 12 NOON.", "nsi_id": "unitedstatespostalservice-a77078", "operator": "United States Postal Service", "operator:short": "USPS", "operator:type": "public", "operator:wikidata": "Q668687", "ref": "8001700019"}, "type": "Feature"}
{"geometry": {"coordinates": [-104.7919057518, 39.7058058668], "type": "Point"}, "id": "gYr2NUlIQYPfUvKXp8DTJ7OLxa8=", "properties": {"@source_uri": "https://tools.usps.com/UspsToolsRestServices/rest/POLocator/findLocations", "@spider": "usps_collection_boxes", "addr:city": "AURORA", "addr:country": "US", "addr:postcode": "80017", "addr:state": "CO", "addr:street_address": "16890 E ALAMEDA PKWY", "amenity": "post_box", "collection_times": "Mo-Fr 17:30; Sa 16:45", "note": "ON 12/24 AND 12/31, THIS BOX MAY BE COLLECTED AS EARLY AS 12 NOON.", "nsi_id": "unitedstatespostalservice-a77078", "operator": "United States Postal Service", "operator:short": "USPS", "operator:type": "public", "operator:wikidata": "Q668687", "ref": "8001700021"}, "type": "Feature"}
{"geometry": {"coordinates": [-104.789339, 39.694789], "type": "Point"}, "id": "pSE7v5YMBbjbDOeBg7FBA132q9c=", "properties": {"@source_uri": "https://tools.usps.com/UspsToolsRestServices/rest/POLocator/findLocations", "@spider": "usps_collection_boxes", "addr:city": "AURORA", "addr:country": "US", "addr:postcode": "80017", "addr:state": "CO", "addr:street_address": "1200 S BUCKLEY RD", "amenity": "post_box", "collection_times": "Mo-Sa 09:30", "nsi_id": "unitedstatespostalservice-a77078", "operator": "United States Postal Service", "operator:short": "USPS", "operator:type": "public", "operator:wikidata": "Q668687", "ref": "8001700022"}, "type": "Feature"}
{"geometry": {"coordinates": [-104.791804, 39.706432], "type": "Point"}, "id": "KaFaGRstqRHC4cHIKqK-9GROAP4=", "properties": {"@source_uri": "https://tools.usps.com/UspsToolsRestServices/rest/POLocator/findLocations", "@spider": "usps_collection_boxes", "addr:city": "AURORA", "addr:country": "US", "addr:postcode": "80017", "addr:state": "CO", "addr:street_address": "16890 E ALAMEDA PKWY", "amenity": "post_box", "collection_times": "Mo-Fr 17:30; Sa 16:45", "name": "USPS COLLECTION BOX - APC", "note": "ON 12/24 AND 12/31, THIS BOX MAY BE COLLECTED AS EARLY AS 12 NOON.", "nsi_id": "unitedstatespostalservice-a77078", "operator": "United States Postal Service", "operator:short": "USPS", "operator:type": "public", "operator:wikidata": "Q668687", "ref": "8001700023"}, "type": "Feature"}
{"geometry": {"coordinates": [-105.06845, 39.91542], "type": "Point"}, "id": "rZ7CaUVrpH5Wk4mJQZarqV3500A=", "properties": {"@source_uri": "https://tools.usps.com/UspsToolsRestServices/rest/POLocator/findLocations", "@spider": "usps_collection_boxes", "addr:city": "WESTMINSTER", "addr:country": "US", "addr:postcode": "80020", "addr:state": "CO", "addr:street_address": "280 E 1ST AVE", "amenity": "post_box", "collection_times": "Mo-Fr 17:00; Sa 12:45", "note": "ON 12/24 AND 12/31, THIS BOX MAY BE COLLECTED AS EARLY AS 12 NOON.", "nsi_id": "unitedstatespostalservice-a77078", "operator": "United States Postal Service", "operator:short": "USPS", "operator:type": "public", "operator:wikidata": "Q668687", "ref": "8002000000"}, "type": "Feature"}
{"geometry": {"coordinates": [-105.054573, 39.899284], "type": "Point"}, "id": "m8RZGR5iH87qBe5wCsOcPwTbVAo=", "properties": {"@source_uri": "https://tools.usps.com/UspsToolsRestServices/rest/POLocator/findLocations", "@spider": "usps_collection_boxes", "addr:city": "WESTMINSTER", "addr:country": "US", "addr:postcode": "80020", "addr:state": "CO", "addr:street_address": "5390 W 112TH AVE", "amenity": "post_box", "collection_times": "Mo-Sa 10:00", "nsi_id": "unitedstatespostalservice-a77078", "operator": "United States Postal Service", "operator:short": "USPS", "operator:type": "public", "operator:wikidata": "Q668687", "ref": "8002000004"}, "type": "Feature"}
{"geometry": {"coordinates": [-105.094127, 39.927703], "type": "Point"}, "id": "i9mNPNTiFd_szUit-1I92TPA-R8=", "properties": {"@source_uri": "https://tools.usps.com/UspsToolsRestServices/rest/POLocator/findLocations", "@spider": "usps_collection_boxes", "addr:city": "WESTMINSTER", "addr:country": "US", "addr:postcode": "80020", "addr:state": "CO", "addr:street_address": "710 BURBANK ST", "amenity": "post_box", "collection_times": "Mo-Sa 10:00", "nsi_id": "unitedstatespostalservice-a77078", "operator": "United States Postal Service", "operator:short": "USPS", "operator:type": "public", "operator:wikidata": "Q668687", "ref": "8002000006"}, "type": "Feature"}
{"geometry": {"coordinates": [-105.032697, 39.931485], "type": "Point"}, "id": "KoVBEMJ_PRtZhdikbT8QJZcaUdY=", "properties": {"@source_uri": "https://tools.usps.com/UspsToolsRestServices/rest/POLocator/findLocations", "@spider": "usps_collection_boxes", "addr:city": "WESTMINSTER", "addr:country": "US", "addr:postcode": "80020", "addr:state": "CO", "addr:street_address": "130TH E WESTLAKE DR", "amenity": "post_box", "collection_times": "Mo-Sa 10:00", "nsi_id": "unitedstatespostalservice-a77078", "operator": "United States Postal Service", "operator:short": "USPS", "operator:type": "public", "operator:wikidata": "Q668687", "ref": "8002000008"}, "type": "Feature"}
{"geometry": {"coordinates": [-105.028805, 39.938743], "type": "Point"}, "id": "J0eSJ-8EITciNKtRDZJp9DWL3ts=", "properties": {"@source_uri": "https://tools.usps.com/UspsToolsRestServices/rest/POLocator/findLocations", "@spider": "usps_collection_boxes", "addr:city": "WESTMINSTER", "addr:country": "US", "addr:postcode": "80020", "addr:state": "CO", "addr:street_address": "3393 BRIARWOOD DR", "amenity": "post_box", "collection_times": "Mo-Sa 10:00", "nsi_id": "unitedstatespostalservice-a77078", "operator": "United States Postal Service", "operator:short": "USPS", "operator:type": "public", "operator:wikidata": "Q668687", "ref": "8002000009"}, "type": "Feature"}
{"geometry": {"coordinates": [-105.057301, 39.93049], "type": "Point"}, "id": "-FHn9y_vCogfPCJkC7eUYvfcluA=", "properties": {"@source_uri": "https://tools.usps.com/UspsToolsRestServices/rest/POLocator/findLocations", "@spider": "usps_collection_boxes", "addr:city": "WESTMINSTER", "addr:country": "US", "addr:postcode": "80020", "addr:state": "CO", "addr:street_address": "1000 E 10TH AVE", "amenity": "post_box", "collection_times": "Mo-Sa 10:15", "nsi_id": "unitedstatespostalservice-a77078", "operator": "United States Postal Service", "operator:short": "USPS", "operator:type": "public", "operator:wikidata": "Q668687", "ref": "8002000012"}, "type": "Feature"}
{"geometry": {"coordinates": [-105.09646, 39.925473], "type": "Point"}, "id": "0ofFrQ97QorjlWte8-e072qjIJ4=", "properties": {"@source_uri": "https://tools.usps.com/UspsToolsRestServices/rest/POLocator/findLocations", "@spider": "usps_collection_boxes", "addr:city": "WESTMINSTER", "addr:country": "US", "addr:postcode": "80020", "addr:state": "CO", "addr:street_address": "555 BURBANK ST", "amenity": "post_box", "collection_times": "Mo-Sa 10:00", "nsi_id": "unitedstatespostalservice-a77078", "operator": "United States Postal Service", "operator:short": "USPS", "operator:type": "public", "operator:wikidata": "Q668687", "ref": "8002000014"}, "type": "Feature"}
{"geometry": {"coordinates": [-105.085732, 39.92294], "type": "Point"}, "id": "APEtYLSvt95WdiP01sxw87IB_3Y=", "properties": {"@source_uri": "https://tools.usps.com/UspsToolsRestServices/rest/POLocator/findLocations", "@spider": "usps_collection_boxes", "addr:city": "WESTMINSTER", "addr:country": "US", "addr:postcode": "80020", "addr:state": "CO", "addr:street_address": "12 GARDEN CTR", "amenity": "post_box", "collection_times": "Mo-Sa 10:00", "nsi_id": "unitedstatespostalservice-a77078", "operator": "United States Postal Service", "operator:short": "USPS", "operator:type": "public", "operator:wikidata": "Q668687", "ref": "8002000018"}, "type": "Feature"}
{"geometry": {"coordinates": [-105.068626, 39.919991], "type": "Point"}, "id": "oEg6AN0iiiuoRjJA1_IVIhIpCeA=", "properties": {"@source_uri": "https://tools.usps.com/UspsToolsRestServices/rest/POLocator/findLocations", "@spider": "usps_collection_boxes", "addr:city": "WESTMINSTER", "addr:country": "US", "addr:postcode": "80020", "addr:state": "CO", "addr:street_address": "1 DESCOMBES DR", "amenity": "post_box", "collection_times": "Mo-Sa 10:00", "nsi_id": "unitedstatespostalservice-a77078", "operator": "United States Postal Service", "operator:short": "USPS", "operator:type": "public", "operator:wikidata": "Q668687", "ref": "8002000023"}, "type": "Feature"}
{"geometry": {"coordinates": [-105.088457, 39.920774], "type": "Point"}, "id": "K1aAP1GiPljcaNwVEFMpM-VIlms=", "properties": {"@source_uri": "https://tools.usps.com/UspsToolsRestServices/rest/POLocator/findLocations", "@spider": "usps_collection_boxes", "addr:city": "WESTMINSTER", "addr:country": "US", "addr:postcode": "80020", "addr:state": "CO", "addr:street_address": "1660 W MIDWAY BLVD", "amenity": "post_box", "collection_times": "Mo-Sa 10:00", "nsi_id": "unitedstatespostalservice-a77078", "operator": "United States Postal Service", "operator:short": "USPS", "operator:type": "public", "operator:wikidata": "Q668687", "ref": "8002000024"}, "type": "Feature"}
{"geometry": {"coordinates": [-105.06845, 39.91542], "type": "Point"}, "id": "w4tep7tWlheoTHM2G0oOL617Y8A=", "properties": {"@source_uri": "https://tools.usps.com/UspsToolsRestServices/rest/POLocator/findLocations", "@spider": "usps_collection_boxes", "addr:city": "WESTMINSTER", "addr:country": "US", "addr:postcode": "80020", "addr:state": "CO", "addr:street_address": "280 E 1ST AVE", "amenity": "post_box", "collection_times": "Mo-Fr 17:00; Sa 12:45", "indoor": "yes", "note": "ON 12/24 AND 12/31, THIS BOX MAY BE COLLECTED AS EARLY AS 12 NOON.", "nsi_id": "unitedstatespostalservice-a77078", "operator": "United States Postal Service", "operator:short": "USPS", "operator:type": "public", "operator:wikidata": "Q668687", "ref": "8002000025"}, "type": "Feature"}
{"geometry": {"coordinates": [-105.06845, 39.91542], "type": "Point"}, "id": "F2rTPp1aonWO_0D05TOCNE3NVG8=", "properties": {"@source_uri": "https://tools.usps.com/UspsToolsRestServices/rest/POLocator/findLocations", "@spider": "usps_collection_boxes", "addr:city": "WESTMINSTER", "addr:country": "US", "addr:postcode": "80020", "addr:state": "CO", "addr:street_address": "280 E 1ST AVE", "amenity": "post_box", "collection_times": "Mo-Fr 17:00; Sa 16:30", "indoor": "yes", "note": "ON 12/24 AND 12/31, THIS BOX MAY BE COLLECTED AS EARLY AS 12 NOON.", "nsi_id": "unitedstatespostalservice-a77078", "operator": "United States Postal Service", "operator:short": "USPS", "operator:type": "public", "operator:wikidata": "Q668687", "ref": "8002000026"}, "type": "Feature"}
{"geometry": {"coordinates": [-105.055099, 39.916772], "type": "Point"}, "id": "FR5mxGM3k7MMR7fp-d7LCKpCB8M=", "properties": {"@source_uri": "https://tools.usps.com/UspsToolsRestServices/rest/POLocator/findLocations", "@spider": "usps_collection_boxes", "addr:city": "WESTMINSTER", "addr:country": "US", "addr:postcode": "80020", "addr:state": "CO", "addr:street_address": "12167 SHERIDAN BLVD", "amenity": "post_box", "collection_times": "Mo-Sa 10:00", "nsi_id": "unitedstatespostalservice-a77078", "operator": "United States Postal Service", "operator:short": "USPS", "operator:type": "public", "operator:wikidata": "Q668687", "ref": "8002000032"}, "type": "Feature"}
{"geometry": {"coordinates": [-105.088598, 39.933241], "type": "Point"}, "id": "XX0LWaip-hG0yy_qdg3FUq7tgbA=", "properties": {"@source_uri": "https://tools.usps.com/UspsToolsRestServices/rest/POLocator/findLocations", "@spider": "usps_collection_boxes", "addr:city": "WESTMINSTER", "addr:country": "US", "addr:postcode": "80020", "addr:state": "CO", "addr:street_address": "1150 US HIGHWAY 287", "amenity": "post_box", "collection_times": "Mo-Sa 10:00", "nsi_id": "unitedstatespostalservice-a77078", "operator": "United States Postal Service", "operator:short": "USPS", "operator:type": "public", "operator:wikidata": "Q668687", "ref": "8002000033"}, "type": "Feature"}
{"geometry": {"coordinates": [-105.035739, 39.956885], "type": "Point"}, "id": "5Wi70vZSCT0nA29-nRCAauHjyDw=", "properties": {"@source_uri": "https://tools.usps.com/UspsToolsRestServices/rest/POLocator/findLocations", "@spider": "usps_collection_boxes", "addr:city": "WESTMINSTER", "addr:country": "US", "addr:postcode": "80020", "addr:state": "CO", "addr:street_address": "3600 W 144TH AVE", "amenity": "post_box", "collection_times": "Mo-Sa 10:00", "nsi_id": "unitedstatespostalservice-a77078", "operator": "United States Postal Service", "operator:short": "USPS", "operator:type": "public", "operator:wikidata": "Q668687", "ref": "8002000034"}, "type": "Feature"}
{"geometry": {"coordinates": [-105.06845, 39.91542], "type": "Point"}, "id": "1WYPK8wcQUl8YXPlTcyV-GB5SVQ=", "properties": {"@source_uri": "https://tools.usps.com/UspsToolsRestServices/rest/POLocator/findLocations", "@spider": "usps_collection_boxes", "addr:city": "WESTMINSTER", "addr:country": "US", "addr:postcode": "80020", "addr:state": "CO", "addr:street_address": "280 E 1ST AVE", "amenity": "post_box", "collection_times": "Mo-Fr 17:00; Sa 12:45", "name": "USPS COLLECTION BOX - APC", "note": "ON 12/24 AND 12/31, THIS BOX MAY BE COLLECTED AS EARLY AS 12 NOON.", "nsi_id": "unitedstatespostalservice-a77078", "operator": "United States Postal Service", "operator:short": "USPS", "operator:type": "public", "operator:wikidata": "Q668687", "ref": "8002000035"}, "type": "Feature"}
{"geometry": {"coordinates": [-105.035983, 39.934707], "type": "Point"}, "id": "MMHZGwLtqtBgGLlsYCpaI-Sd1dk=", "properties": {"@source_uri": "https://tools.usps.com/UspsToolsRestServices/rest/POLocator/findLocations", "@spider": "usps_collection_boxes", "addr:city": "WESTMINSTER", "addr:country": "US", "addr:postcode": "80020", "addr:state": "CO", "addr:street_address": "13201 LOWELL BLVD", "amenity": "post_box", "collection_times": "Mo-Sa 10:00", "nsi_id": "unitedstatespostalservice-a77078", "operator": "United States Postal Service", "operator:short": "USPS", "operator:type": "public", "operator:wikidata": "Q668687", "ref": "8002000036"}, "type": "Feature"}
{"geometry": {"coordinates": [-105.111172219, 39.917642436], "type": "Point"}, "id": "um47j8m5Dd3HSvqDE12KYPESEc4=", "properties": {"@source_uri": "https://tools.usps.com/UspsToolsRestServices/rest/POLocator/findLocations", "@spider": "usps_collection_boxes", "addr:city": "BROOMFIELD", "addr:country": "US", "addr:postcode": "80021", "addr:state": "CO", "addr:street_address": "310 INTERLOCKEN PKWY", "amenity": "post_box", "collection_times": "Mo-Sa 12:00", "nsi_id": "unitedstatespostalservice-a77078", "operator": "United States Postal Service", "operator:short": "USPS", "operator:type": "public", "operator:wikidata": "Q668687", "ref": "8002100000"}, "type": "Feature"}
{"geometry": {"coordinates": [-105.108101, 39.912612], "type": "Point"}, "id": "Q-8crl28TDYzLmH_e6pMKVxatkI=", "properties": {"@source_uri": "https://tools.usps.com/UspsToolsRestServices/rest/POLocator/findLocations", "@spider": "usps_collection_boxes", "addr:city": "BROOMFIELD", "addr:country": "US", "addr:postcode": "80021", "addr:state": "CO", "addr:street_address": "11900 AIRPORT WAY", "amenity": "post_box", "collection_times": "Mo-Sa 12:00", "nsi_id": "unitedstatespostalservice-a77078", "operator": "United States Postal Service", "operator:short": "USPS", "operator:type": "public", "operator:wikidata": "Q668687", "ref": "8002100002"}, "type": "Feature"}
{"geometry": {"coordinates": [-105.097704, 39.876699], "type": "Point"}, "id": "WKUvPWh3ZMon52xt0md0YLWnQlY=", "properties": {"@source_uri": "https://tools.usps.com/UspsToolsRestServices/rest/POLocator/findLocations", "@spider": "usps_collection_boxes", "addr:city": "BROOMFIELD", "addr:country": "US", "addr:postcode": "80021", "addr:state": "CO", "addr:street_address": "9983 WADSWORTH PKWY", "amenity": "post_box", "collection_times": "Mo-Sa 10:00", "nsi_id": "unitedstatespostalservice-a77078", "operator": "United States Postal Service", "operator:short": "USPS", "operator:type": "public", "operator:wikidata": "Q668687", "ref": "8002100004"}, "type": "Feature"}
{"geometry": {"coordinates": [-105.082848, 39.860521], "type": "Point"}, "id": "NE2ceTflsJtql0PkKiFjDOzCswU=", "properties": {"@source_uri": "https://tools.usps.com/UspsToolsRestServices/rest/POLocator/findLocations", "@spider": "usps_collection_boxes", "addr:city": "BROOMFIELD", "addr:country": "US", "addr:postcode": "80021", "addr:state": "CO", "addr:street_address": "9035 WADSWORTH PKWY", "amenity": "post_box", "collection_times": "Mo-Sa 10:00", "nsi_id": "unitedstatespostalservice-a77078", "operator": "United States Postal Service", "operator:short": "USPS", "operator:type": "public", "operator:wikidata": "Q668687", "ref": "8002100006"}, "type": "Feature"}
{"geometry": {"coordinates": [-105.082968, 39.859493], "type": "Point"}, "id": "2ibvcJV6lzqLfCmfcNJiywbJ3F4=", "properties": {"@source_uri": "https://tools.usps.com/UspsToolsRestServices/rest/POLocator/findLocations", "@spider": "usps_collection_boxes", "addr:city": "BROOMFIELD", "addr:country": "US", "addr:postcode": "80021", "addr:state": "CO", "addr:street_address": "7700 W 90TH AVE", "amenity": "post_box", "collection_times": "Mo-Sa 12:30", "note": "ON 12/24 AND 12/31, THIS BOX MAY BE COLLECTED AS EARLY AS 12 NOON.", "nsi_id": "unitedstatespostalservice-a77078", "operator": "United States Postal Service", "operator:short": "USPS", "operator:type": "public", "operator:wikidata": "Q668687", "ref": "8002100008"}, "type": "Feature"}
{"geometry": {"coordinates": [-105.079535, 39.85811], "type": "Point"}, "id": "S7ByEBC6g6B_fSOPJyF4AgnWpSM=", "properties": {"@source_uri": "https://tools.usps.com/UspsToolsRestServices/rest/POLocator/findLocations", "@spider": "usps_collection_boxes", "addr:city": "BROOMFIELD", "addr:country": "US", "addr:postcode": "80021", "addr:state": "CO", "addr:street_address": "7325 W 88TH AVE", "amenity": "post_box", "collection_times": "Mo-Sa 10:00", "nsi_id": "unitedstatespostalservice-a77078", "operator": "United States Postal Service", "operator:short": "USPS", "operator:type": "public", "operator:wikidata": "Q668687", "ref": "8002100010"}, "type": "Feature"}
{"geometry": {"coordinates": [-105.093936, 39.884077], "type": "Point"}, "id": "yVgqefx8wX7nJJALe9tUHFNRRmw=", "properties": {"@source_uri": "https://tools.usps.com/UspsToolsRestServices/rest/POLocator/findLocations", "@spider": "usps_collection_boxes", "addr:city": "BROOMFIELD", "addr:country": "US", "addr:postcode": "80021", "addr:state": "CO", "addr:street_address": "10305 DOVER ST", "amenity": "post_box", "collection_times": "Mo-Sa 10:00", "nsi_id": "unitedstatespostalservice-a77078", "operator": "United States Postal Service", "operator:short": "USPS", "operator:type": "public", "operator:wikidata": "Q668687", "ref": "8002100012"}, "type": "Feature"}
{"geometry": {"coordinates": [-105.082004, 39.880312], "type": "Point"}, "id": "Qi9pAwceKllk-RozSTeU9wXr91k=", "properties": {"@source_uri": "https://tools.usps.com/UspsToolsRestServices/rest/POLocator/findLocations", "@spider": "usps_collection_boxes", "addr:city": "BROOMFIELD", "addr:country": "US", "addr:postcode": "80021", "addr:state": "CO", "addr:street_address": "7605 CHURCH RANCH BLVD", "amenity": "post_box", "collection_times": "Mo-Sa 10:00", "nsi_id": "unitedstatespostalservice-a77078", "operator": "United States Postal Service", "operator:short": "USPS", "operator:type": "public", "operator:wikidata": "Q668687", "ref": "8002100018"}, "type": "Feature"}
{"geometry": {"coordinates": [-105.127732, 39.922363], "type": "Point"}, "id": "ZFoSzy79eo3_BwfeOU0aDMVu-9o=", "properties": {"@source_uri": "https://tools.usps.com/UspsToolsRestServices/rest/POLocator/findLocations", "@spider": "usps_collection_boxes", "addr:city": "BROOMFIELD", "addr:country": "US", "addr:postcode": "80021", "addr:state": "CO", "addr:street_address": "577 ELDORADO BLVD", "amenity": "post_box", "collection_times": "Mo-Sa 11:00", "nsi_id": "unitedstatespostalservice-a77078", "operator": "United States Postal Service", "operator:short": "USPS", "operator:type": "public", "operator:wikidata": "Q668687", "ref": "8002100022"}, "type": "Feature"}
{"geometry": {"coordinates": [-105.133343, 39.922809], "type": "Point"}, "id": "j156njLnAlzzT2xPS2ro0fUpeBE=", "properties": {"@source_uri": "https://tools.usps.com/UspsToolsRestServices/rest/POLocator/findLocations", "@spider": "usps_collection_boxes", "addr:city": "BROOMFIELD", "addr:country": "US", "addr:postcode": "80021", "addr:state": "CO", "addr:street_address": "878 ELDORADO BLVD", "amenity": "post_box", "collection_times": "Mo-Sa 11:00", "nsi_id": "unitedstatespostalservice-a77078", "operator": "United States Postal Service", "operator:short": "USPS", "operator:type": "public", "operator:wikidata": "Q668687", "ref": "8002100023"}, "type": "Feature"}
{"geometry": {"coordinates": [-105.1466304691, 39.9158133065], "type": "Point"}, "id": "Nqbod7D4wmWe9y0xN_slzJhOZkE=", "properties": {"@source_uri": "https://tools.usps.com/UspsToolsRestServices/rest/POLocator/findLocations", "@spider": "usps_collection_boxes", "addr:city": "BROOMFIELD", "addr:country": "US", "addr:postcode": "80021", "addr:state": "CO", "addr:street_address": "1077 ELDORADO BLVD", "amenity": "post_box", "collection_times": "Mo-Sa 11:00", "nsi_id": "unitedstatespostalservice-a77078", "operator": "United States Postal Service", "operator:short": "USPS", "operator:type": "public", "operator:wikidata": "Q668687", "ref": "8002100024"}, "type": "Feature"}
{"geometry": {"coordinates": [-105.111334, 39.896918], "type": "Point"}, "id": "5qnrtgPvahBo7YC9b9SYtfXV-yY=", "properties": {"@source_uri": "https://tools.usps.com/UspsToolsRestServices/rest/POLocator/findLocations", "@spider": "usps_collection_boxes", "addr:city": "BROOMFIELD", "addr:country": "US", "addr:postcode": "80021", "addr:state": "CO", "addr:street_address": "10355 WESTMOOR DR", "amenity": "post_box", "collection_times": "Mo-Sa 10:30", "nsi_id": "unitedstatespostalservice-a77078", "operator": "United States Postal Service", "operator:short": "USPS", "operator:type": "public", "operator:wikidata": "Q668687", "ref": "8002100031"}, "type": "Feature"}
{"geometry": {"coordinates": [-105.1322262922, 39.929131489], "type": "Point"}, "id": "m1ROTgfMGgAOHc9Je2SuCns-E4c=", "properties": {"@source_uri": "https://tools.usps.com/UspsToolsRestServices/rest/POLocator/findLocations", "@spider": "usps_collection_boxes", "addr:city": "BROOMFIELD", "addr:country": "US", "addr:postcode": "80021", "addr:state": "CO", "addr:street_address": "31 FLATIRON CIR", "amenity": "post_box", "collection_times": "Mo-Sa 10:00", "nsi_id": "unitedstatespostalservice-a77078", "operator": "United States Postal Service", "operator:short": "USPS", "operator:type": "public", "operator:wikidata": "Q668687", "ref": "8002100032"}, "type": "Feature"}
{"geometry": {"coordinates": [-105.097138, 39.902597], "type": "Point"}, "id": "cz-EFh5lf-u-JrQhiyOOlLG7kPk=", "properties": {"@source_uri": "https://tools.usps.com/UspsToolsRestServices/rest/POLocator/findLocations", "@spider": "usps_collection_boxes", "addr:city": "BROOMFIELD", "addr:country": "US", "addr:postcode": "80021", "addr:state": "CO", "addr:street_address": "8800 W 116TH CIR", "amenity": "post_box", "collection_times": "Mo-Fr 17:00; Sa 16:00", "note": "ON 12/24 AND 12/31, THIS BOX MAY BE COLLECTED AS EARLY AS 12 NOON.", "nsi_id": "unitedstatespostalservice-a77078", "operator": "United States Postal Service", "operator:short": "USPS", "operator:type": "public", "operator:wikidata": "Q668687", "ref": "8002100035"}, "type": "Feature"}
{"geometry": {"coordinates": [-105.097138, 39.902597], "type": "Point"}, "id": "rFRYSIVgmUeNizwLl9oGmtFRBbo=", "properties": {"@source_uri": "https://tools.usps.com/UspsToolsRestServices/rest/POLocator/findLocations", "@spider": "usps_collection_boxes", "addr:city": "BROOMFIELD", "addr:country": "US", "addr:postcode": "80021", "addr:state": "CO", "addr:street_address": "8800 W 116TH CIR", "amenity": "post_box", "collection_times": "Mo-Fr 17:00; Sa 16:00", "indoor": "yes", "note": "ON 12/24 AND 12/31, THIS BOX MAY BE COLLECTED AS EARLY AS 12 NOON.", "nsi_id": "unitedstatespostalservice-a77078", "operator": "United States Postal Service", "operator:short": "USPS", "operator:type": "public", "operator:wikidata": "Q668687", "ref": "8002100040"}, "type": "Feature"}
{"geometry": {"coordinates": [-105.097138, 39.902597], "type": "Point"}, "id": "_jlwpiRy_lkZq4drOHGV-XZ6_D8=", "properties": {"@source_uri": "https://tools.usps.com/UspsToolsRestServices/rest/POLocator/findLocations", "@spider": "usps_collection_boxes", "addr:city": "BROOMFIELD", "addr:country": "US", "addr:postcode": "80021", "addr:state": "CO", "addr:street_address": "8800 W 116TH CIR", "amenity": "post_box", "collection_times": "Mo-Fr 17:00; Sa 16:00", "indoor": "yes", "note": "ON 12/24 AND 12/31, THIS BOX MAY BE COLLECTED AS EARLY AS 12 NOON.", "nsi_id": "unitedstatespostalservice-a77078", "operator": "United States Postal Service", "operator:short": "USPS", "operator:type": "public", "operator:wikidata": "Q668687", "ref": "8002100041"}, "type": "Feature"}
{"geometry": {"coordinates": [-105.097138, 39.902597], "type": "Point"}, "id": "PpSgS9J2bs7rLyK1zJXnJqilquU=", "properties": {"@source_uri": "https://tools.usps.com/UspsToolsRestServices/rest/POLocator/findLocations", "@spider": "usps_collection_boxes", "addr:city": "BROOMFIELD", "addr:country": "US", "addr:postcode": "80021", "addr:state": "CO", "addr:street_address": "8800 W 116TH CIR", "amenity": "post_box", "collection_times": "Mo-Fr 17:00; Sa 16:00", "name": "USPS COLLECTION BOX - APC", "note": "ON 12/24 AND 12/31, THIS BOX MAY BE COLLECTED AS EARLY AS 12 NOON.", "nsi_id": "unitedstatespostalservice-a77078", "operator": "United States Postal Service", "operator:short": "USPS", "operator:type": "public", "operator:wikidata": "Q668687", "ref": "8002100042"}, "type": "Feature"}
{"geometry": {"coordinates": [-104.910757, 39.83023], "type": "Point"}, "id": "PFWuT7t1aoeqgt-gj8z7J_hAs4w=", "properties": {"@source_uri": "https://tools.usps.com/UspsToolsRestServices/rest/POLocator/findLocations", "@spider": "usps_collection_boxes", "addr:city": "DENVER", "addr:country": "US", "addr:postcode": "80022", "addr:state": "CO", "addr:street_address": "7351 MAGNOLIA ST", "amenity": "post_box", "collection_times": "Mo-Fr 17:30; Sa 16:30", "note": "ON 12/24 AND 12/31, THIS BOX MAY BE COLLECTED AS EARLY AS 12 NOON.", "nsi_id": "unitedstatespostalservice-a77078", "operator": "United States Postal Service", "operator:short": "USPS", "operator:type": "public", "operator:wikidata": "Q668687", "ref": "8002200001"}, "type": "Feature"}
{"geometry": {"coordinates": [-104.910757, 39.83023], "type": "Point"}, "id": "dxXzdwx_WmeNbMPqCjmGshFE3UA=", "properties": {"@source_uri": "https://tools.usps.com/UspsToolsRestServices/rest/POLocator/findLocations", "@spider": "usps_collection_boxes", "addr:city": "DENVER", "addr:country": "US", "addr:postcode": "80022", "addr:state": "CO", "addr:street_address": "7351 MAGNOLIA ST", "amenity": "post_box", "collection_times": "Mo-Fr 17:30; Sa 16:30", "indoor": "yes", "note": "ON 12/24 AND 12/31, THIS BOX MAY BE COLLECTED AS EARLY AS 12 NOON.", "nsi_id": "unitedstatespostalservice-a77078", "operator": "United States Postal Service", "operator:short": "USPS", "operator:type": "public", "operator:wikidata": "Q668687", "ref": "8002200003"}, "type": "Feature"}
{"geometry": {"coordinates": [-104.8981316437, 39.7960118987], "type": "Point"}, "id": "SvMMzP1Vqje1PI9csPpko81nCcM=", "properties": {"@source_uri": "https://tools.usps.com/UspsToolsRestServices/rest/POLocator/findLocations", "@spider": "usps_collection_boxes", "addr:city": "DENVER", "addr:country": "US", "addr:postcode": "80022", "addr:state": "CO", "addr:street_address": "7887 E 60TH AVE", "amenity": "post_box", "collection_times": "Mo-Sa 09:30", "nsi_id": "unitedstatespostalservice-a77078", "operator": "United States Postal Service", "operator:short": "USPS", "operator:type": "public", "operator:wikidata": "Q668687", "ref": "8002200017"}, "type": "Feature"}
{"geometry": {"coordinates": [-104.931978, 39.805669], "type": "Point"}, "id": "q0yMz2__r6sIa-s6mJ0Cvu_SbM4=", "properties": {"@source_uri": "https://tools.usps.com/UspsToolsRestServices/rest/POLocator/findLocations", "@spider": "usps_collection_boxes", "addr:city": "DENVER", "addr:country": "US", "addr:postcode": "80022", "addr:state": "CO", "addr:street_address": "6001 DEXTER ST", "amenity": "post_box", "collection_times": "Mo-Sa 09:15", "nsi_id": "unitedstatespostalservice-a77078", "operator": "United States Postal Service", "operator:short": "USPS", "operator:type": "public", "operator:wikidata": "Q668687", "ref": "8002200019"}, "type": "Feature"}
{"geometry": {"coordinates": [-104.904922, 39.785113], "type": "Point"}, "id": "6wQijmTIBgTgnNdHn1uXaPsuiDU=", "properties": {"@source_uri": "https://tools.usps.com/UspsToolsRestServices/rest/POLocator/findLocations", "@spider": "usps_collection_boxes", "addr:city": "DENVER", "addr:country": "US", "addr:postcode": "80022", "addr:state": "CO", "addr:street_address": "7120 E 49TH AVE", "amenity": "post_box", "collection_times": "Mo-Sa 09:15", "nsi_id": "unitedstatespostalservice-a77078", "operator": "United States Postal Service", "operator:short": "USPS", "operator:type": "public", "operator:wikidata": "Q668687", "ref": "8002200022"}, "type": "Feature"}
{"geometry": {"coordinates": [-104.8981316437, 39.7960118987], "type": "Point"}, "id": "NVHAFmj5-49T_O9TsnXLLV44M14=", "properties": {"@source_uri": "https://tools.usps.com/UspsToolsRestServices/rest/POLocator/findLocations", "@spider": "usps_collection_boxes", "addr:city": "DENVER", "addr:country": "US", "addr:postcode": "80022", "addr:state": "CO", "addr:street_address": "4850 E 62ND AVE", "amenity": "post_box", "collection_times": "Mo-Sa 09:15", "nsi_id": "unitedstatespostalservice-a77078", "operator": "United States Postal Service", "operator:short": "USPS", "operator:type": "public", "operator:wikidata": "Q668687", "ref": "8002200028"}, "type": "Feature"}
{"geometry": {"coordinates": [-104.934058771, 39.81762134], "type": "Point"}, "id": "NkwurWGzpRe91QfRZe7CiyhBo_4=", "properties": {"@source_uri": "https://tools.usps.com/UspsToolsRestServices/rest/POLocator/findLocations", "@spider": "usps_collection_boxes", "addr:city": "DENVER", "addr:country": "US", "addr:postcode": "80022", "addr:state": "CO", "addr:street_address": "6655 BRIGHTON BLVD", "amenity": "post_box", "collection_times": "Mo-Fr 16:00", "indoor": "yes", "note": "ON 12/24 AND 12/31, THIS BOX MAY BE COLLECTED AS EARLY AS 12 NOON.", "nsi_id": "unitedstatespostalservice-a77078", "operator": "United States Postal Service", "operator:short": "USPS", "operator:type": "public", "operator:wikidata": "Q668687", "ref": "8002200033"}, "type": "Feature"}
{"geometry": {"coordinates": [-104.904658, 39.790232], "type": "Point"}, "id": "DgUUBrApBMsIRS3AT1cvR1IPmEw=", "properties": {"@source_uri": "https://tools.usps.com/UspsToolsRestServices/rest/POLocator/findLocations", "@spider": "usps_collection_boxes", "addr:city": "DENVER", "addr:country": "US", "addr:postcode": "80022", "addr:state": "CO", "addr:street_address": "5101 QUEBEC ST", "amenity": "post_box", "collection_times": "Mo-Sa 09:15", "nsi_id": "unitedstatespostalservice-a77078", "operator": "United States Postal Service", "operator:short": "USPS", "operator:type": "public", "operator:wikidata": "Q668687", "ref": "8002200040"}, "type": "Feature"}
{"geometry": {"coordinates": [-104.8981316437, 39.7960118987], "type": "Point"}, "id": "Emu9lnuTfNmnRGXGM3kLjE8MuJU=", "properties": {"@source_uri": "https://tools.usps.com/UspsToolsRestServices/rest/POLocator/findLocations", "@spider": "usps_collection_boxes", "addr:city": "DENVER", "addr:country": "US", "addr:postcode": "80022", "addr:state": "CO", "addr:street_address": "7190 COLORADO BLVD", "amenity": "post_box", "collection_times": "Mo-Sa 09:15", "nsi_id": "unitedstatespostalservice-a77078", "operator": "United States Postal Service", "operator:short": "USPS", "operator:type": "public", "operator:wikidata": "Q668687", "ref": "8002200042"}, "type": "Feature"}
{"geometry": {"coordinates": [-104.910757, 39.83023], "type": "Point"}, "id": "S5JR5wIWaXzsisH_xLUwm2UtZew=", "properties": {"@source_uri": "https://tools.usps.com/UspsToolsRestServices/rest/POLocator/findLocations", "@spider": "usps_collection_boxes", "addr:city": "DENVER", "addr:country": "US", "addr:postcode": "80022", "addr:state": "CO", "addr:street_address": "7351 MAGNOLIA ST", "amenity": "post_box", "collection_times": "Mo-Fr 17:30; Sa 16:30", "indoor": "yes", "note": "ON 12/24 AND 12/31, THIS BOX MAY BE COLLECTED AS EARLY AS 12 NOON.", "nsi_id": "unitedstatespostalservice-a77078", "operator": "United States Postal Service", "operator:short": "USPS", "operator:type": "public", "operator:wikidata": "Q668687", "ref": "8002200044"}, "type": "Feature"}
{"geometry": {"coordinates": [-104.927074, 39.805979], "type": "Point"}, "id": "zVDBO9ifU19lRCnTQ2lF-y44ptc=", "properties": {"@source_uri": "https://tools.usps.com/UspsToolsRestServices/rest/POLocator/findLocations", "@spider": "usps_collection_boxes", "addr:city": "DENVER", "addr:country": "US", "addr:postcode": "80022", "addr:state": "CO", "addr:street_address": "5291 E 60TH AVE", "amenity": "post_box", "collection_times": "Mo-Sa 09:15", "nsi_id": "unitedstatespostalservice-a77078", "operator": "United States Postal Service", "operator:short": "USPS", "operator:type": "public", "operator:wikidata": "Q668687", "ref": "8002200045"}, "type": "Feature"}
{"geometry": {"coordinates": [-104.921832, 39.800745], "type": "Point"}, "id": "QTbwKA99Lcn1feIX4qbXBvW_FDc=", "properties": {"@source_uri": "https://tools.usps.com/UspsToolsRestServices/rest/POLocator/findLocations", "@spider": "usps_collection_boxes", "addr:city": "DENVER", "addr:country": "US", "addr:postcode": "80022", "addr:state": "CO", "addr:street_address": "5750 HOLLY ST", "amenity": "post_box", "collection_times": "Mo-Sa 09:15", "nsi_id": "unitedstatespostalservice-a77078", "operator": "United States Postal Service", "operator:short": "USPS", "operator:type": "public", "operator:wikidata": "Q668687", "ref": "8002200046"}, "type": "Feature"}
{"geometry": {"coordinates": [-104.934445, 39.81779], "type": "Point"}, "id": "8gu_L2SCzQ_Ls4W9tcYxWIsb-Vc=", "properties": {"@source_uri": "https://tools.usps.com/UspsToolsRestServices/rest/POLocator/findLocations", "@spider": "usps_collection_boxes", "addr:city": "DENVER", "addr:country": "US", "addr:postcode": "80022", "addr:state": "CO", "addr:street_address": "6655 BRIGHTON BLVD", "amenity": "post_box", "collection_times": "Mo-Sa 09:00", "nsi_id": "unitedstatespostalservice-a77078", "operator": "United States Postal Service", "operator:short": "USPS", "operator:type": "public", "operator:wikidata": "Q668687", "ref": "8002200047"}, "type": "Feature"}
{"geometry": {"coordinates": [-104.775013, 39.885228], "type": "Point"}, "id": "9kW3DPr20RFkNB9Rx6-Y9yg5jMM=", "properties": {"@source_uri": "https://tools.usps.com/UspsToolsRestServices/rest/POLocator/findLocations", "@spider": "usps_collection_boxes", "addr:city": "DENVER", "addr:country": "US", "addr:postcode": "80022", "addr:state": "CO", "addr:street_address": "18220 E 104TH AVE", "amenity": "post_box", "collection_times": "Mo-Sa 10:30", "nsi_id": "unitedstatespostalservice-a77078", "operator": "United States Postal Service", "operator:short": "USPS", "operator:type": "public", "operator:wikidata": "Q668687", "ref": "8002200049"}, "type": "Feature"}
{"geometry": {"coordinates": [-104.812194, 39.887318], "type": "Point"}, "id": "fakX_NqGJrdlQS0fklGz1g9qH7Q=", "properties": {"@source_uri": "https://tools.usps.com/UspsToolsRestServices/rest/POLocator/findLocations", "@spider": "usps_collection_boxes", "addr:city": "DENVER", "addr:country": "US", "addr:postcode": "80022", "addr:state": "CO", "addr:street_address": "15051 E 104TH AVE", "amenity": "post_box", "collection_times": "Mo-Fr 11:30; Sa 12:00", "nsi_id": "unitedstatespostalservice-a77078", "operator": "United States Postal Service", "operator:short": "USPS", "operator:type": "public", "operator:wikidata": "Q668687", "ref": "8002200050"}, "type": "Feature"}
{"geometry": {"coordinates": [-104.9209997937, 39.8437979429], "type": "Point"}, "id": "kQihytSzoqc9MqkT-Fo6cc8Ah5E=", "properties": {"@source_uri": "https://tools.usps.com/UspsToolsRestServices/rest/POLocator/findLocations", "@spider": "usps_collection_boxes", "addr:city": "DUPONT", "addr:country": "US", "addr:postcode": "80024", "addr:state": "CO", "addr:street_address": "8098 BRIGHTON RD", "amenity": "post_box", "collection_times": "Mo-Fr 15:45; Sa 11:45", "note": "ON 12/24 AND 12/31, THIS BOX MAY BE COLLECTED AS EARLY AS 12 NOON.", "nsi_id": "unitedstatespostalservice-a77078", "operator": "United States Postal Service", "operator:short": "USPS", "operator:type": "public", "operator:wikidata": "Q668687", "ref": "8002400000"}, "type": "Feature"}
{"geometry": {"coordinates": [-104.9209997937, 39.8437979429], "type": "Point"}, "id": "hq-ADQNGlSRccF6_PzyWjnIc0RE=", "properties": {"@source_uri": "https://tools.usps.com/UspsToolsRestServices/rest/POLocator/findLocations", "@spider": "usps_collection_boxes", "addr:city": "DUPONT", "addr:country": "US", "addr:postcode": "80024", "addr:state": "CO", "addr:street_address": "8098 BRIGHTON RD", "amenity": "post_box", "collection_times": "Mo-Fr 12:45; Sa 11:45", "indoor": "yes", "note": "ON 12/24 AND 12/31, THIS BOX MAY BE COLLECTED AS EARLY AS 12 NOON.", "nsi_id": "unitedstatespostalservice-a77078", "operator": "United States Postal Service", "operator:short": "USPS", "operator:type": "public", "operator:wikidata": "Q668687", "ref": "8002400001"}, "type": "Feature"}
{"geometry": {"coordinates": [-104.9209997937, 39.8437979429], "type": "Point"}, "id": "woNZ1nsW2uGfZ8lWMjCHC3csehk=", "properties": {"@source_uri": "https://tools.usps.com/UspsToolsRestServices/rest/POLocator/findLocations", "@spider": "usps_collection_boxes", "addr:city": "DUPONT", "addr:country": "US", "addr:postcode": "80024", "addr:state": "CO", "addr:street_address": "8098 BRIGHTON RD", "amenity": "post_box", "collection_times": "Mo-Fr 12:45; Sa 11:45", "indoor": "yes", "note": "ON 12/24 AND 12/31, THIS BOX MAY BE COLLECTED AS EARLY AS 12 NOON.", "nsi_id": "unitedstatespostalservice-a77078", "operator": "United States Postal Service", "operator:short": "USPS", "operator:type": "public", "operator:wikidata": "Q668687", "ref": "8002400002"}, "type": "Feature"}
{"geometry": {"coordinates": [-105.273961, 39.932975], "type": "Point"}, "id": "uKGx64Q-clnbs21vJRQsK7Yg6yI=", "properties": {"@source_uri": "https://tools.usps.com/UspsToolsRestServices/rest/POLocator/findLocations", "@spider": "usps_collection_boxes", "addr:city": "ELDORADO SPRGS", "addr:country": "US", "addr:postcode": "80025", "addr:state": "CO", "addr:street_address": "3330 ELDORADO SPRINGS DR", "amenity": "post_box", "collection_times": "Mo-Fr 16:00; Sa 08:00", "note": "ON 12/24 AND 12/31, THIS BOX MAY BE COLLECTED AS EARLY AS 12 NOON.", "nsi_id": "unitedstatespostalservice-a77078", "operator": "United States Postal Service", "operator:short": "USPS", "operator:type": "public", "operator:wikidata": "Q668687", "ref": "8002500000"}, "type": "Feature"}
{"geometry": {"coordinates": [-105.273797, 39.933076], "type": "Point"}, "id": "-JPMoL77duJ1z_1XMvnuGN5S9KI=", "properties": {"@source_uri": "https://tools.usps.com/UspsToolsRestServices/rest/POLocator/findLocations", "@spider": "usps_collection_boxes", "addr:city": "ELDORADO SPRGS", "addr:country": "US", "addr:postcode": "80025", "addr:state": "CO", "addr:street_address": "3330 ELDORADO SPRINGS DR", "amenity": "post_box", "collection_times": "Mo-Fr 16:00; Sa 08:00", "indoor": "yes", "note": "ON 12/24 AND 12/31, THIS BOX MAY BE COLLECTED AS EARLY AS 12 NOON.", "nsi_id": "unitedstatespostalservice-a77078", "operator": "United States Postal Service", "operator:short": "USPS", "operator:type": "public", "operator:wikidata": "Q668687", "ref": "8002500001"}, "type": "Feature"}
{"geometry": {"coordinates": [-105.105329, 40.003739], "type": "Point"}, "id": "Cwvs3u0UxH8YnubbjeoC42xDGbc=", "properties": {"@source_uri": "https://tools.usps.com/UspsToolsRestServices/rest/POLocator/findLocations", "@spider": "usps_collection_boxes", "addr:city": "LAFAYETTE", "addr:country": "US", "addr:postcode": "80026", "addr:state": "CO", "addr:street_address": "1200 DIAMOND CIR", "amenity": "post_box", "collection_times": "Mo-Sa 10:30", "nsi_id": "unitedstatespostalservice-a77078", "operator": "United States Postal Service", "operator:short": "USPS", "operator:type": "public", "operator:wikidata": "Q668687", "ref": "8002600002"}, "type": "Feature"}
{"geometry": {"coordinates": [-105.107214, 39.985737], "type": "Point"}, "id": "83gdNmVKwZbxovvz2ogMcFqAJSs=", "properties": {"@source_uri": "https://tools.usps.com/UspsToolsRestServices/rest/POLocator/findLocations", "@spider": "usps_collection_boxes", "addr:city": "LAFAYETTE", "addr:country": "US", "addr:postcode": "80026", "addr:state": "CO", "addr:street_address": "1300 CENTAUR VILLAGE DR", "amenity": "post_box", "collection_times": "Mo-Sa 10:30", "nsi_id": "unitedstatespostalservice-a77078", "operator": "United States Postal Service", "operator:short": "USPS", "operator:type": "public", "operator:wikidata": "Q668687", "ref": "8002600008"}, "type": "Feature"}
{"geometry": {"coordinates": [-105.094395, 39.996725], "type": "Point"}, "id": "Z1odZ_YYFAnRgEcvRbW1ff46bZk=", "properties": {"@source_uri": "https://tools.usps.com/UspsToolsRestServices/rest/POLocator/findLocations", "@spider": "usps_collection_boxes", "addr:city": "LAFAYETTE", "addr:country": "US", "addr:postcode": "80026", "addr:state": "CO", "addr:street_address": "603 S PUBLIC RD", "amenity": "post_box", "collection_times": "Mo-Fr 16:45; Sa 12:45", "note": "ON 12/24 AND 12/31, THIS BOX MAY BE COLLECTED AS EARLY AS 12 NOON.", "nsi_id": "unitedstatespostalservice-a77078", "operator": "United States Postal Service", "operator:short": "USPS", "operator:type": "public", "operator:wikidata": "Q668687", "ref": "8002600021"}, "type": "Feature"}
{"geometry": {"coordinates": [-105.090835, 39.99316], "type": "Point"}, "id": "X0yEBBNUEgY5dN6CGMxb38rx50I=", "properties": {"@source_uri": "https://tools.usps.com/UspsToolsRestServices/rest/POLocator/findLocations", "@spider": "usps_collection_boxes", "addr:city": "LAFAYETTE", "addr:country": "US", "addr:postcode": "80026", "addr:state": "CO", "addr:street_address": "603 S PUBLIC RD", "amenity": "post_box", "collection_times": "Mo-Fr 16:40; Sa 16:25", "indoor": "yes", "note": "ON 12/24 AND 12/31, THIS BOX MAY BE COLLECTED AS EARLY AS 12 NOON.", "nsi_id": "unitedstatespostalservice-a77078", "operator": "United States Postal Service", "operator:short": "USPS", "operator:type": "public", "operator:wikidata": "Q668687", "ref": "8002600022"}, "type": "Feature"}
{"geometry": {"coordinates": [-105.128968, 40.014051], "type": "Point"}, "id": "8w578VeeDkN9ElaXDORyE_oVOZI=", "properties": {"@source_uri": "https://tools.usps.com/UspsToolsRestServices/rest/POLocator/findLocations", "@spider": "usps_collection_boxes", "addr:city": "LAFAYETTE", "addr:country": "US", "addr:postcode": "80026", "addr:state": "CO", "addr:street_address": "1365 FOREST PARK CIR", "amenity": "post_box", "collection_times": "Mo-Sa 10:30", "nsi_id": "unitedstatespostalservice-a77078", "operator": "United States Postal Service", "operator:short": "USPS", "operator:type": "public", "operator:wikidata": "Q668687", "ref": "8002600023"}, "type": "Feature"}
{"geometry": {"coordinates": [-105.085756, 39.969594], "type": "Point"}, "id": "6wXliJKcUkRWpm4V_ZYwlsBVcRE=", "properties": {"@source_uri": "https://tools.usps.com/UspsToolsRestServices/rest/POLocator/findLocations", "@spider": "usps_collection_boxes", "addr:city": "LAFAYETTE", "addr:country": "US", "addr:postcode": "80026", "addr:state": "CO", "addr:street_address": "280 EXEMPLA CIR", "amenity": "post_box", "collection_times": "Mo-Sa 10:30", "nsi_id": "unitedstatespostalservice-a77078", "operator": "United States Postal Service", "operator:short": "USPS", "operator:type": "public", "operator:wikidata": "Q668687", "ref": "8002600024"}, "type": "Feature"}
{"geometry": {"coordinates": [-105.1659979695, 39.9533610185], "type": "Point"}, "id": "U3V4WvDBjvGXpCQBZgJnwDBse9g=", "properties": {"@source_uri": "https://tools.usps.com/UspsToolsRestServices/rest/POLocator/findLocations", "@spider": "usps_collection_boxes", "addr:city": "SUPERIOR", "addr:country": "US", "addr:postcode": "80027", "addr:state": "CO", "addr:street_address": "124 E COAL CREEK DR", "amenity": "post_box", "collection_times": "Mo-Fr 14:45; Sa 09:30", "note": "ON 12/24 AND 12/31, THIS BOX MAY BE COLLECTED AS EARLY AS 12 NOON.", "nsi_id": "unitedstatespostalservice-a77078", "operator": "United States Postal Service", "operator:short": "USPS", "operator:type": "public", "operator:wikidata": "Q668687", "ref": "8002700000"}, "type": "Feature"}
{"geometry": {"coordinates": [-105.1632971604, 39.9655252245], "type": "Point"}, "id": "IeONaalcYmDnVOxnOuTZTBhxcwg=", "properties": {"@source_uri": "https://tools.usps.com/UspsToolsRestServices/rest/POLocator/findLocations", "@spider": "usps_collection_boxes", "addr:city": "SUPERIOR", "addr:country": "US", "addr:postcode": "80027", "addr:state": "CO", "addr:street_address": "300 MCCASLIN BLVD", "amenity": "post_box", "collection_times": "Mo-Sa 15:00", "note": "ON 12/24 AND 12/31, THIS BOX MAY BE COLLECTED AS EARLY AS 12 NOON.", "nsi_id": "unitedstatespostalservice-a77078", "operator": "United States Postal Service", "operator:short": "USPS", "operator:type": "public", "operator:wikidata": "Q668687", "ref": "8002700002"}, "type": "Feature"}
{"geometry": {"coordinates": [-105.124803, 39.988055], "type": "Point"}, "id": "4JjBcj_xduLUoKIQvN6mvzFln38=", "properties": {"@source_uri": "https://tools.usps.com/UspsToolsRestServices/rest/POLocator/findLocations", "@spider": "usps_collection_boxes", "addr:city": "SUPERIOR", "addr:country": "US", "addr:postcode": "80027", "addr:state": "CO", "addr:street_address": "1355 S BOULDER RD", "amenity": "post_box", "collection_times": "Mo-Sa 14:50", "note": "ON 12/24 AND 12/31, THIS BOX MAY BE COLLECTED AS EARLY AS 12 NOON.", "nsi_id": "unitedstatespostalservice-a77078", "operator": "United States Postal Service", "operator:short": "USPS", "operator:type": "public", "operator:wikidata": "Q668687", "ref": "8002700004"}, "type": "Feature"}
{"geometry": {"coordinates": [-105.130658, 39.987371], "type": "Point"}, "id": "VqO4U8PAMNnX2LpN-rMsYyM10gY=", "properties": {"@source_uri": "https://tools.usps.com/UspsToolsRestServices/rest/POLocator/findLocations", "@spider": "usps_collection_boxes", "addr:city": "SUPERIOR", "addr:country": "US", "addr:postcode": "80027", "addr:state": "CO", "addr:street_address": "1017 S BOULDER RD", "amenity": "post_box", "collection_times": "Mo-Fr 14:50; Sa 13:00", "note": "ON 12/24 AND 12/31, THIS BOX MAY BE COLLECTED AS EARLY AS 12 NOON.", "nsi_id": "unitedstatespostalservice-a77078", "operator": "United States Postal Service", "operator:short": "USPS", "operator:type": "public", "operator:wikidata": "Q668687", "ref": "8002700005"}, "type": "Feature"}
{"geometry": {"coordinates": [-105.17794465, 39.9621854], "type": "Point"}, "id": "oK7tyfViGWgCQH0CVLYp_vcOExg=", "properties": {"@source_uri": "https://tools.usps.com/UspsToolsRestServices/rest/POLocator/findLocations", "@spider": "usps_collection_boxes", "addr:city": "SUPERIOR", "addr:country": "US", "addr:postcode": "80027", "addr:state": "CO", "addr:street_address": "655 E SOUTH BOULDER RD", "amenity": "post_box", "collection_times": "Mo-Sa 14:55", "note": "ON 12/24 AND 12/31, THIS BOX MAY BE COLLECTED AS EARLY AS 12 NOON.", "nsi_id": "unitedstatespostalservice-a77078", "operator": "United States Postal Service", "operator:short": "USPS", "operator:type": "public", "operator:wikidata": "Q668687", "ref": "8002700006"}, "type": "Feature"}
{"geometry": {"coordinates": [-105.152116, 39.951636], "type": "Point"}, "id": "HrPFYqV9KH7NaexB333-pIGSodk=", "properties": {"@source_uri": "https://tools.usps.com/UspsToolsRestServices/rest/POLocator/findLocations", "@spider": "usps_collection_boxes", "addr:city": "SUPERIOR", "addr:country": "US", "addr:postcode": "80027", "addr:state": "CO", "addr:street_address": "100 HEALTH PARK DR", "amenity": "post_box", "collection_times": "Mo-Fr 14:45; Sa 09:30", "note": "ON 12/24 AND 12/31, THIS BOX MAY BE COLLECTED AS EARLY AS 12 NOON.", "nsi_id": "unitedstatespostalservice-a77078", "operator": "United States Postal Service", "operator:short": "USPS", "operator:type": "public", "operator:wikidata": "Q668687", "ref": "8002700009"}, "type": "Feature"}
{"geometry": {"coordinates": [-105.130033, 39.987698], "type": "Point"}, "id": "u9p079pq6LIO8Sdt3xcenVNAcwg=", "properties": {"@source_uri": "https://tools.usps.com/UspsToolsRestServices/rest/POLocator/findLocations", "@spider": "usps_collection_boxes", "addr:city": "SUPERIOR", "addr:country": "US", "addr:postcode": "80027", "addr:state": "CO", "addr:street_address": "1075 W SO. BOULDER RD", "amenity": "post_box", "collection_times": "Mo-Fr 14:52; Sa 14:50", "note": "ON 12/24 AND 12/31, THIS BOX MAY BE COLLECTED AS EARLY AS 12 NOON.", "nsi_id": "unitedstatespostalservice-a77078", "operator": "United States Postal Service", "operator:short": "USPS", "operator:type": "public", "operator:wikidata": "Q668687", "ref": "8002700030"}, "type": "Feature"}
{"geometry": {"coordinates": [-105.160163, 39.961433], "type": "Point"}, "id": "eg9IRzZVvIXa9w1b_HylRLK-Xnw=", "properties": {"@source_uri": "https://tools.usps.com/UspsToolsRestServices/rest/POLocator/findLocations", "@spider": "usps_collection_boxes", "addr:city": "SUPERIOR", "addr:country": "US", "addr:postcode": "80027", "addr:state": "CO", "addr:street_address": "566 S MCCASLIN BLVD", "amenity": "post_box", "collection_times": "Mo-Fr 17:15; Sa 15:30", "indoor": "yes", "note": "ON 12/24 AND 12/31, THIS BOX MAY BE COLLECTED AS EARLY AS 12 NOON.", "nsi_id": "unitedstatespostalservice-a77078", "operator": "United States Postal Service", "operator:short": "USPS", "operator:type": "public", "operator:wikidata": "Q668687", "ref": "8002700031"}, "type": "Feature"}
{"geometry": {"coordinates": [-105.160365, 39.961273], "type": "Point"}, "id": "OiPoQVQUPG5IEqCs_RBfVNj4Rxw=", "properties": {"@source_uri": "https://tools.usps.com/UspsToolsRestServices/rest/POLocator/findLocations", "@spider": "usps_collection_boxes", "addr:city": "SUPERIOR", "addr:country": "US", "addr:postcode": "80027", "addr:state": "CO", "addr:street_address": "566 S MCCASLIN BLVD", "amenity": "post_box", "collection_times": "Mo-Fr 17:15; Sa 15:30", "note": "ON 12/24 AND 12/31, THIS BOX MAY BE COLLECTED AS EARLY AS 12 NOON.", "nsi_id": "unitedstatespostalservice-a77078", "operator": "United States Postal Service", "operator:short": "USPS", "operator:type": "public", "operator:wikidata": "Q668687", "ref": "8002700032"}, "type": "Feature"}
{"geometry": {"coordinates": [-105.149444, 39.92976], "type": "Point"}, "id": "mBfNab20IWvrFsBop_ZB_fTPLK4=", "properties": {"@source_uri": "https://tools.usps.com/UspsToolsRestServices/rest/POLocator/findLocations", "@spider": "usps_collection_boxes", "addr:city": "SUPERIOR", "addr:country": "US", "addr:postcode": "80027", "addr:state": "CO", "addr:street_address": "1600 COALTON RD", "amenity": "post_box", "collection_times": "Mo-Fr 14:45; Sa 09:30", "note": "ON 12/24 AND 12/31, THIS BOX MAY BE COLLECTED AS EARLY AS 12 NOON.", "nsi_id": "unitedstatespostalservice-a77078", "operator": "United States Postal Service", "operator:short": "USPS", "operator:type": "public", "operator:wikidata": "Q668687", "ref": "8002700037"}, "type": "Feature"}
{"geometry": {"coordinates": [-105.160182, 39.961451], "type": "Point"}, "id": "nktmM6L5v-l4ILEqEUNBAzliq8U=", "properties": {"@source_uri": "https://tools.usps.com/UspsToolsRestServices/rest/POLocator/findLocations", "@spider": "usps_collection_boxes", "addr:city": "SUPERIOR", "addr:country": "US", "addr:postcode": "80027", "addr:state": "CO", "addr:street_address": "566 S MC CASLIN BLVD", "amenity": "post_box", "collection_times": "Mo-Fr 17:15; Sa 15:30", "indoor": "yes", "note": "ON 12/24 AND 12/31, THIS BOX MAY BE COLLECTED AS EARLY AS 12 NOON.", "nsi_id": "unitedstatespostalservice-a77078", "operator": "United States Postal Service", "operator:short": "USPS", "operator:type": "public", "operator:wikidata": "Q668687", "ref": "8002700038"}, "type": "Feature"}
{"geometry": {"coordinates": [-105.160549, 39.961374], "type": "Point"}, "id": "OWiD1CQIA-9AMp3t6qD1ceK657U=", "properties": {"@source_uri": "https://tools.usps.com/UspsToolsRestServices/rest/POLocator/findLocations", "@spider": "usps_collection_boxes", "addr:city": "SUPERIOR", "addr:country": "US", "addr:postcode": "80027", "addr:state": "CO", "addr:street_address": "566 S MCCASLIN BLVD", "amenity": "post_box", "collection_times": "Mo-Fr 17:15; Sa 15:30", "indoor": "yes", "note": "ON 12/24 AND 12/31, THIS BOX MAY BE COLLECTED AS EARLY AS 12 NOON.", "nsi_id": "unitedstatespostalservice-a77078", "operator": "United States Postal Service", "operator:short": "USPS", "operator:type": "public", "operator:wikidata": "Q668687", "ref": "8002700039"}, "type": "Feature"}
{"geometry": {"coordinates": [-105.160367, 39.961278], "type": "Point"}, "id": "Stot15EpI9Qeh2_2QqQ0dEJ-n4o=", "properties": {"@source_uri": "https://tools.usps.com/UspsToolsRestServices/rest/POLocator/findLocations", "@spider": "usps_collection_boxes", "addr:city": "SUPERIOR", "addr:country": "US", "addr:postcode": "80027", "addr:state": "CO", "addr:street_address": "566 S MC CASLIN BLVD", "amenity": "post_box", "collection_times": "Mo-Fr 17:15; Sa 15:30", "note": "ON 12/24 AND 12/31, THIS BOX MAY BE COLLECTED AS EARLY AS 12 NOON.", "nsi_id": "unitedstatespostalservice-a77078", "operator": "United States Postal Service", "operator:short": "USPS", "operator:type": "public", "operator:wikidata": "Q668687", "ref": "8002700040"}, "type": "Feature"}
{"geometry": {"coordinates": [-105.160101, 39.96144], "type": "Point"}, "id": "LxV7pTOure4kMMzji5FH_yrehU4=", "properties": {"@source_uri": "https://tools.usps.com/UspsToolsRestServices/rest/POLocator/findLocations", "@spider": "usps_collection_boxes", "addr:city": "SUPERIOR", "addr:country": "US", "addr:postcode": "80027", "addr:state": "CO", "addr:street_address": "566 S MCCASLIN BLVD", "amenity": "post_box", "collection_times": "Mo-Fr 17:15; Sa 15:30", "name": "USPS COLLECTION BOX - APC", "note": "ON 12/24 AND 12/31, THIS BOX MAY BE COLLECTED AS EARLY AS 12 NOON.", "nsi_id": "unitedstatespostalservice-a77078", "operator": "United States Postal Service", "operator:short": "USPS", "operator:type": "public", "operator:wikidata": "Q668687", "ref": "8002700042"}, "type": "Feature"}
{"geometry": {"coordinates": [-105.130964, 39.976326], "type": "Point"}, "id": "NqGTNFldry_kxuopre4kKFWjCaM=", "properties": {"@source_uri": "https://tools.usps.com/UspsToolsRestServices/rest/POLocator/findLocations", "@spider": "usps_collection_boxes", "addr:city": "SUPERIOR", "addr:country": "US", "addr:postcode": "80027", "addr:state": "CO", "addr:street_address": "749 MAIN ST", "amenity": "post_box", "collection_times": "Mo-Fr 15:30; Sa 14:40", "note": "ON 12/24 AND 12/31, THIS BOX MAY BE COLLECTED AS EARLY AS 12 NOON.", "nsi_id": "unitedstatespostalservice-a77078", "operator": "United States Postal Service", "operator:short": "USPS", "operator:type": "public", "operator:wikidata": "Q668687", "ref": "8002700044"}, "type": "Feature"}
{"geometry": {"coordinates": [-105.037486, 39.820323], "type": "Point"}, "id": "H05IiW0fxBlmluO7NGoD2TMR0V0=", "properties": {"@source_uri": "https://tools.usps.com/UspsToolsRestServices/rest/POLocator/findLocations", "@spider": "usps_collection_boxes", "addr:city": "WESTMINSTER", "addr:country": "US", "addr:postcode": "80030", "addr:state": "CO", "addr:street_address": "3791 W 68TH AVE", "amenity": "post_box", "collection_times": "Mo-Sa 09:30", "nsi_id": "unitedstatespostalservice-a77078", "operator": "United States Postal Service", "operator:short": "USPS", "operator:type": "public", "operator:wikidata": "Q668687", "ref": "8003000015"}, "type": "Feature"}
{"geometry": {"coordinates": [-105.05202, 39.828312], "type": "Point"}, "id": "cBAskWUnC-gIxoB5T5GugSZtfBw=", "properties": {"@source_uri": "https://tools.usps.com/UspsToolsRestServices/rest/POLocator/findLocations", "@spider": "usps_collection_boxes", "addr:city": "WESTMINSTER", "addr:country": "US", "addr:postcode": "80030", "addr:state": "CO", "addr:street_address": "5005 W 72ND AVE", "amenity": "post_box", "collection_times": "Mo-Sa 11:00", "nsi_id": "unitedstatespostalservice-a77078", "operator": "United States Postal Service", "operator:short": "USPS", "operator:type": "public", "operator:wikidata": "Q668687", "ref": "8003000020"}, "type": "Feature"}
{"geometry": {"coordinates": [-105.030845, 39.829525], "type": "Point"}, "id": "JGC0JWKSjz2Ye90flo7I3Vo--fo=", "properties": {"@source_uri": "https://tools.usps.com/UspsToolsRestServices/rest/POLocator/findLocations", "@spider": "usps_collection_boxes", "addr:city": "WESTMINSTER", "addr:country": "US", "addr:postcode": "80030", "addr:state": "CO", "addr:street_address": "7998 YATES ST", "amenity": "post_box", "collection_times": "Mo-Sa 09:00", "nsi_id": "unitedstatespostalservice-a77078", "operator": "United States Postal Service", "operator:short": "USPS", "operator:type": "public", "operator:wikidata": "Q668687", "ref": "8003000036"}, "type": "Feature"}
{"geometry": {"coordinates": [-105.02972, 39.82676], "type": "Point"}, "id": "5KGcabBDlGv2ypHPhDvAVU8e6eQ=", "properties": {"@source_uri": "https://tools.usps.com/UspsToolsRestServices/rest/POLocator/findLocations", "@spider": "usps_collection_boxes", "addr:city": "WESTMINSTER", "addr:country": "US", "addr:postcode": "80030", "addr:state": "CO", "addr:street_address": "3300 W 72ND AVE", "amenity": "post_box", "collection_times": "Mo-Sa 09:00", "nsi_id": "unitedstatespostalservice-a77078", "operator": "United States Postal Service", "operator:short": "USPS", "operator:type": "public", "operator:wikidata": "Q668687", "ref": "8003000038"}, "type": "Feature"}
{"geometry": {"coordinates": [-105.035825, 39.82818], "type": "Point"}, "id": "c8lLOcdZhch5cpVKaoACnhtJMVw=", "properties": {"@source_uri": "https://tools.usps.com/UspsToolsRestServices/rest/POLocator/findLocations", "@spider": "usps_collection_boxes", "addr:city": "WESTMINSTER", "addr:country": "US", "addr:postcode": "80030", "addr:state": "CO", "addr:street_address": "7262 MEADE ST", "amenity": "post_box", "collection_times": "Mo-Fr 16:45; Sa 12:45", "note": "ON 12/24 AND 12/31, THIS BOX MAY BE COLLECTED AS EARLY AS 12 NOON.", "nsi_id": "unitedstatespostalservice-a77078", "operator": "United States Postal Service", "operator:short": "USPS", "operator:type": "public", "operator:wikidata": "Q668687", "ref": "8003000048"}, "type": "Feature"}
{"geometry": {"coordinates": [-105.0358247264, 39.8281768324], "type": "Point"}, "id": "TDUs5slPJ-r1uvsOJaD-A4XBd3g=", "properties": {"@source_uri": "https://tools.usps.com/UspsToolsRestServices/rest/POLocator/findLocations", "@spider": "usps_collection_boxes", "addr:city": "WESTMINSTER", "addr:country": "US", "addr:postcode": "80030", "addr:state": "CO", "addr:street_address": "7262 MEADE ST", "amenity": "post_box", "collection_times": "Mo-Fr 17:15; Sa 12:30", "indoor": "yes", "note": "ON 12/24 AND 12/31, THIS BOX MAY BE COLLECTED AS EARLY AS 12 NOON.", "nsi_id": "unitedstatespostalservice-a77078", "operator": "United States Postal Service", "operator:short": "USPS", "operator:type": "public", "operator:wikidata": "Q668687", "ref": "8003000057"}, "type": "Feature"}
{"geometry": {"coordinates": [-105.026921, 39.829809], "type": "Point"}, "id": "qdga3BES9w4uZ9d3fy_UY9UfVvk=", "properties": {"@source_uri": "https://tools.usps.com/UspsToolsRestServices/rest/POLocator/findLocations", "@spider": "usps_collection_boxes", "addr:city": "WESTMINSTER", "addr:country": "US", "addr:postcode": "80030", "addr:state": "CO", "addr:street_address": "7353 FEDERAL BLVD", "amenity": "post_box", "collection_times": "Mo-Sa 09:00", "nsi_id": "unitedstatespostalservice-a77078", "operator": "United States Postal Service", "operator:short": "USPS", "operator:type": "public", "operator:wikidata": "Q668687", "ref": "8003000058"}, "type": "Feature"}
{"geometry": {"coordinates": [-105.051384, 39.817541], "type": "Point"}, "id": "SNdAe5YJs7mVXQ7fJ_WG60rSil4=", "properties": {"@source_uri": "https://tools.usps.com/UspsToolsRestServices/rest/POLocator/findLocations", "@spider": "usps_collection_boxes", "addr:city": "WESTMINSTER", "addr:country": "US", "addr:postcode": "80030", "addr:state": "CO", "addr:street_address": "4934 W 68TH AVE", "amenity": "post_box", "collection_times": "Mo-Sa 12:00", "nsi_id": "unitedstatespostalservice-a77078", "operator": "United States Postal Service", "operator:short": "USPS", "operator:type": "public", "operator:wikidata": "Q668687", "ref": "8003000061"}, "type": "Feature"}
{"geometry": {"coordinates": [-105.026466, 39.886868], "type": "Point"}, "id": "mRhieZGua2vUU37GS1yPsgR-1h0=", "properties": {"@source_uri": "https://tools.usps.com/UspsToolsRestServices/rest/POLocator/findLocations", "@spider": "usps_collection_boxes", "addr:city": "WESTMINSTER", "addr:country": "US", "addr:postcode": "80031", "addr:state": "CO", "addr:street_address": "3051 W 105TH AVE", "amenity": "post_box", "collection_times": "Mo-Fr 17:30; Sa 16:30", "note": "ON 12/24 AND 12/31, THIS BOX MAY BE COLLECTED AS EARLY AS 12 NOON.", "nsi_id": "unitedstatespostalservice-a77078", "operator": "United States Postal Service", "operator:short": "USPS", "operator:type": "public", "operator:wikidata": "Q668687", "ref": "8003100000"}, "type": "Feature"}
{"geometry": {"coordinates": [-105.026466, 39.886868], "type": "Point"}, "id": "P9EbKp2Abq8R0dOqtoPusESfq-0=", "properties": {"@source_uri": "https://tools.usps.com/UspsToolsRestServices/rest/POLocator/findLocations", "@spider": "usps_collection_boxes", "addr:city": "WESTMINSTER", "addr:country": "US", "addr:postcode": "80031", "addr:state": "CO", "addr:street_address": "3051 W 105TH AVE", "amenity": "post_box", "collection_times": "Mo-Fr 17:30; Sa 16:30", "note": "ON 12/24 AND 12/31, THIS BOX MAY BE COLLECTED AS EARLY AS 12 NOON.", "nsi_id": "unitedstatespostalservice-a77078", "operator": "United States Postal Service", "operator:short": "USPS", "operator:type": "public", "operator:wikidata": "Q668687", "ref": "8003100001"}, "type": "Feature"}
{"geometry": {"coordinates": [-105.026466, 39.886868], "type": "Point"}, "id": "sAq9HsKnpw7gTw3q8eNQtJnYyUE=", "properties": {"@source_uri": "https://tools.usps.com/UspsToolsRestServices/rest/POLocator/findLocations", "@spider": "usps_collection_boxes", "addr:city": "WESTMINSTER", "addr:country": "US", "addr:postcode": "80031", "addr:state": "CO", "addr:street_address": "3051 W 105TH AVE", "amenity": "post_box", "collection_times": "Mo-Fr 17:30; Sa 16:30", "indoor": "yes", "note": "ON 12/24 AND 12/31, THIS BOX MAY BE COLLECTED AS EARLY AS 12 NOON.", "nsi_id": "unitedstatespostalservice-a77078", "operator": "United States Postal Service", "operator:short": "USPS", "operator:type": "public", "operator:wikidata": "Q668687", "ref": "8003100004"}, "type": "Feature"}
{"geometry": {"coordinates": [-105.026466, 39.886868], "type": "Point"}, "id": "PoqyIx-uR4QBnaT7CLUY5t-amZU=", "properties": {"@source_uri": "https://tools.usps.com/UspsToolsRestServices/rest/POLocator/findLocations", "@spider": "usps_collection_boxes", "addr:city": "WESTMINSTER", "addr:country": "US", "addr:postcode": "80031", "addr:state": "CO", "addr:street_address": "3051 W 105TH AVE", "amenity": "post_box", "collection_times": "Mo-Fr 17:30; Sa 16:30", "indoor": "yes", "note": "ON 12/24 AND 12/31, THIS BOX MAY BE COLLECTED AS EARLY AS 12 NOON.", "nsi_id": "unitedstatespostalservice-a77078", "operator": "United States Postal Service", "operator:short": "USPS", "operator:type": "public", "operator:wikidata": "Q668687", "ref": "8003100005"}, "type": "Feature"}
{"geometry": {"coordinates": [-105.026466, 39.886868], "type": "Point"}, "id": "1aO89jIFC9qFpZawep9ug3kZJWk=", "properties": {"@source_uri": "https://tools.usps.com/UspsToolsRestServices/rest/POLocator/findLocations", "@spider": "usps_collection_boxes", "addr:city": "WESTMINSTER", "addr:country": "US", "addr:postcode": "80031", "addr:state": "CO", "addr:street_address": "3051 W 105TH AVE", "amenity": "post_box", "collection_times": "Mo-Fr 17:30; Sa 16:30", "indoor": "yes", "note": "ON 12/24 AND 12/31, THIS BOX MAY BE COLLECTED AS EARLY AS 12 NOON.", "nsi_id": "unitedstatespostalservice-a77078", "operator": "United States Postal Service", "operator:short": "USPS", "operator:type": "public", "operator:wikidata": "Q668687", "ref": "8003100006"}, "type": "Feature"}
{"geometry": {"coordinates": [-105.026466, 39.886868], "type": "Point"}, "id": "fWIxrR9qo4wz4R8WenjUHKzi_Go=", "properties": {"@source_uri": "https://tools.usps.com/UspsToolsRestServices/rest/POLocator/findLocations", "@spider": "usps_collection_boxes", "addr:city": "WESTMINSTER", "addr:country": "US", "addr:postcode": "80031", "addr:state": "CO", "addr:street_address": "3051 W 105TH AVE", "amenity": "post_box", "collection_times": "Mo-Fr 17:30; Sa 16:30", "indoor": "yes", "note": "ON 12/24 AND 12/31, THIS BOX MAY BE COLLECTED AS EARLY AS 12 NOON.", "nsi_id": "unitedstatespostalservice-a77078", "operator": "United States Postal Service", "operator:short": "USPS", "operator:type": "public", "operator:wikidata": "Q668687", "ref": "8003100007"}, "type": "Feature"}
{"geometry": {"coordinates": [-105.018119, 39.849478], "type": "Point"}, "id": "NiggNWuMCbqS_k54OLTYoQTT-30=", "properties": {"@source_uri": "https://tools.usps.com/UspsToolsRestServices/rest/POLocator/findLocations", "@spider": "usps_collection_boxes", "addr:city": "WESTMINSTER", "addr:country": "US", "addr:postcode": "80031", "addr:state": "CO", "addr:street_address": "2551 W 84TH AVE", "amenity": "post_box", "collection_times": "Mo-Fr 09:00", "nsi_id": "unitedstatespostalservice-a77078", "operator": "United States Postal Service", "operator:short": "USPS", "operator:type": "public", "operator:wikidata": "Q668687", "ref": "8003100008"}, "type": "Feature"}
{"geometry": {"coordinates": [-105.023517, 39.849738], "type": "Point"}, "id": "1J3kKyPb5zTUdUn7-jgIyXypT4o=", "properties": {"@source_uri": "https://tools.usps.com/UspsToolsRestServices/rest/POLocator/findLocations", "@spider": "usps_collection_boxes", "addr:city": "WESTMINSTER", "addr:country": "US", "addr:postcode": "80031", "addr:state": "CO", "addr:street_address": "8430 FEDERAL BLVD", "amenity": "post_box", "collection_times": "Mo-Sa 09:00", "nsi_id": "unitedstatespostalservice-a77078", "operator": "United States Postal Service", "operator:short": "USPS", "operator:type": "public", "operator:wikidata": "Q668687", "ref": "8003100009"}, "type": "Feature"}
{"geometry": {"coordinates": [-105.039568, 39.901048], "type": "Point"}, "id": "W1fTEQg2ptGchx-vYTsrkOsvb_Q=", "properties": {"@source_uri": "https://tools.usps.com/UspsToolsRestServices/rest/POLocator/findLocations", "@spider": "usps_collection_boxes", "addr:city": "WESTMINSTER", "addr:country": "US", "addr:postcode": "80031", "addr:state": "CO", "addr:street_address": "3645 W 112TH AVE", "amenity": "post_box", "collection_times": "Mo-Fr 09:00", "nsi_id": "unitedstatespostalservice-a77078", "operator": "United States Postal Service", "operator:short": "USPS", "operator:type": "public", "operator:wikidata": "Q668687", "ref": "8003100012"}, "type": "Feature"}
{"geometry": {"coordinates": [-105.044487, 39.913014], "type": "Point"}, "id": "u_2jClpOVralCVpei6raYf2LHX0=", "properties": {"@source_uri": "https://tools.usps.com/UspsToolsRestServices/rest/POLocator/findLocations", "@spider": "usps_collection_boxes", "addr:city": "WESTMINSTER", "addr:country": "US", "addr:postcode": "80031", "addr:state": "CO", "addr:street_address": "4451 MAIN ST", "amenity": "post_box", "collection_times": "Mo-Sa 12:00", "nsi_id": "unitedstatespostalservice-a77078", "operator": "United States Postal Service", "operator:short": "USPS", "operator:type": "public", "operator:wikidata": "Q668687", "ref": "8003100013"}, "type": "Feature"}
{"geometry": {"coordinates": [-105.05146798, 39.844417986], "type": "Point"}, "id": "LW6IeZ6N5TPnsYCSauWWeQgMZLQ=", "properties": {"@source_uri": "https://tools.usps.com/UspsToolsRestServices/rest/POLocator/findLocations", "@spider": "usps_collection_boxes", "addr:city": "WESTMINSTER", "addr:country": "US", "addr:postcode": "80031", "addr:state": "CO", "addr:street_address": "5005 W 81ST PL", "amenity": "post_box", "collection_times": "Mo-Fr 10:00", "nsi_id": "unitedstatespostalservice-a77078", "operator": "United States Postal Service", "operator:short": "USPS", "operator:type": "public", "operator:wikidata": "Q668687", "ref": "8003100014"}, "type": "Feature"}
{"geometry": {"coordinates": [-105.03222, 39.847454], "type": "Point"}, "id": "F-G_kdpC-up9zmoEx1nkbH2zxco=", "properties": {"@source_uri": "https://tools.usps.com/UspsToolsRestServices/rest/POLocator/findLocations", "@spider": "usps_collection_boxes", "addr:city": "WESTMINSTER", "addr:country": "US", "addr:postcode": "80031", "addr:state": "CO", "addr:street_address": "3455 W 83RD AVE", "amenity": "post_box", "collection_times": "Mo-Fr 09:00", "nsi_id": "unitedstatespostalservice-a77078", "operator": "United States Postal Service", "operator:short": "USPS", "operator:type": "public", "operator:wikidata": "Q668687", "ref": "8003100015"}, "type": "Feature"}
{"geometry": {"coordinates": [-105.06074, 39.855539], "type": "Point"}, "id": "MSUYKEPOi0eFr6zEV_akR-Yths0=", "properties": {"@source_uri": "https://tools.usps.com/UspsToolsRestServices/rest/POLocator/findLocations", "@spider": "usps_collection_boxes", "addr:city": "WESTMINSTER", "addr:country": "US", "addr:postcode": "80031", "addr:state": "CO", "addr:street_address": "5740 W 88TH AVE", "amenity": "post_box", "collection_times": "Mo-Fr 09:00", "nsi_id": "unitedstatespostalservice-a77078", "operator": "United States Postal Service", "operator:short": "USPS", "operator:type": "public", "operator:wikidata": "Q668687", "ref": "8003100018"}, "type": "Feature"}
{"geometry": {"coordinates": [-105.05184, 39.862355], "type": "Point"}, "id": "s4lOfpWqbEedmC3nt3qIrslILHA=", "properties": {"@source_uri": "https://tools.usps.com/UspsToolsRestServices/rest/POLocator/findLocations", "@spider": "usps_collection_boxes", "addr:city": "WESTMINSTER", "addr:country": "US", "addr:postcode": "80031", "addr:state": "CO", "addr:street_address": "5036 W 92ND AVE", "amenity": "post_box", "collection_times": "Mo-Sa 09:00", "nsi_id": "unitedstatespostalservice-a77078", "operator": "United States Postal Service", "operator:short": "USPS", "operator:type": "public", "operator:wikidata": "Q668687", "ref": "8003100020"}, "type": "Feature"}
{"geometry": {"coordinates": [-105.022534, 39.85309], "type": "Point"}, "id": "B_G5psPn-PGqWZUp_hQvQyNWYhk=", "properties": {"@source_uri": "https://tools.usps.com/UspsToolsRestServices/rest/POLocator/findLocations", "@spider": "usps_collection_boxes", "addr:city": "WESTMINSTER", "addr:country": "US", "addr:postcode": "80031", "addr:state": "CO", "addr:street_address": "8654 DECATUR ST", "amenity": "post_box", "collection_times": "Mo-Sa 12:30", "note": "ON 12/24 AND 12/31, THIS BOX MAY BE COLLECTED AS EARLY AS 12 NOON.", "nsi_id": "unitedstatespostalservice-a77078", "operator": "United States Postal Service", "operator:short": "USPS", "operator:type": "public", "operator:wikidata": "Q668687", "ref": "8003100025"}, "type": "Feature"}
{"geometry": {"coordinates": [-105.064707, 39.861237], "type": "Point"}, "id": "FdUPFOXlVLsx2r0ejd0BYXcG0xU=", "properties": {"@source_uri": "https://tools.usps.com/UspsToolsRestServices/rest/POLocator/findLocations", "@spider": "usps_collection_boxes", "addr:city": "WESTMINSTER", "addr:country": "US", "addr:postcode": "80031", "addr:state": "CO", "addr:street_address": "9101 HARLAN ST", "amenity": "post_box", "collection_times": "Mo-Fr 14:30", "note": "ON 12/24 AND 12/31, THIS BOX MAY BE COLLECTED AS EARLY AS 12 NOON.", "nsi_id": "unitedstatespostalservice-a77078", "operator": "United States Postal Service", "operator:short": "USPS", "operator:type": "public", "operator:wikidata": "Q668687", "ref": "8003100027"}, "type": "Feature"}
{"geometry": {"coordinates": [-105.049272, 39.854625], "type": "Point"}, "id": "KCcsW2Bbdki0rpNx1EXYM_N9fvw=", "properties": {"@source_uri": "https://tools.usps.com/UspsToolsRestServices/rest/POLocator/findLocations", "@spider": "usps_collection_boxes", "addr:city": "WESTMINSTER", "addr:country": "US", "addr:postcode": "80031", "addr:state": "CO", "addr:street_address": "8690 WOLFF CT", "amenity": "post_box", "collection_times": "Mo-Fr 10:30", "nsi_id": "unitedstatespostalservice-a77078", "operator": "United States Postal Service", "operator:short": "USPS", "operator:type": "public", "operator:wikidata": "Q668687", "ref": "8003100037"}, "type": "Feature"}
{"geometry": {"coordinates": [-105.047281, 39.864514], "type": "Point"}, "id": "VWyVznMmMza3DydOa1W5oUMqwKA=", "properties": {"@source_uri": "https://tools.usps.com/UspsToolsRestServices/rest/POLocator/findLocations", "@spider": "usps_collection_boxes", "addr:city": "WESTMINSTER", "addr:country": "US", "addr:postcode": "80031", "addr:state": "CO", "addr:street_address": "9200 XAVIER ST", "amenity": "post_box", "collection_times": "Mo-Sa 10:00", "nsi_id": "unitedstatespostalservice-a77078", "operator": "United States Postal Service", "operator:short": "USPS", "operator:type": "public", "operator:wikidata": "Q668687", "ref": "8003100042"}, "type": "Feature"}
{"geometry": {"coordinates": [-105.0500360155, 39.8505110014], "type": "Point"}, "id": "se2DzNGgoCsk8vMPUhXZNeX6vcs=", "properties": {"@source_uri": "https://tools.usps.com/UspsToolsRestServices/rest/POLocator/findLocations", "@spider": "usps_collection_boxes", "addr:city": "WESTMINSTER", "addr:country": "US", "addr:postcode": "80031", "addr:state": "CO", "addr:street_address": "8501 TURNPIKE DR", "amenity": "post_box", "collection_times": "Mo-Fr 09:45", "nsi_id": "unitedstatespostalservice-a77078", "operator": "United States Postal Service", "operator:short": "USPS", "operator:type": "public", "operator:wikidata": "Q668687", "ref": "8003100043"}, "type": "Feature"}
{"geometry": {"coordinates": [-105.026466, 39.886868], "type": "Point"}, "id": "s4vOwzKQmhh7VIPatH7aa3rWthg=", "properties": {"@source_uri": "https://tools.usps.com/UspsToolsRestServices/rest/POLocator/findLocations", "@spider": "usps_collection_boxes", "addr:city": "WESTMINSTER", "addr:country": "US", "addr:postcode": "80031", "addr:state": "CO", "addr:street_address": "3051 W 105TH AVE", "amenity": "post_box", "collection_times": "Mo-Fr 17:30; Sa 16:30", "name": "USPS COLLECTION BOX - APC", "note": "ON 12/24 AND 12/31, THIS BOX MAY BE COLLECTED AS EARLY AS 12 NOON.", "nsi_id": "unitedstatespostalservice-a77078", "operator": "United States Postal Service", "operator:short": "USPS", "operator:type": "public", "operator:wikidata": "Q668687", "ref": "8003100045"}, "type": "Feature"}
{"geometry": {"coordinates": [-105.081404, 39.774129], "type": "Point"}, "id": "OYmqGhkB8846hVpSEpFgAWf_pas=", "properties": {"@source_uri": "https://tools.usps.com/UspsToolsRestServices/rest/POLocator/findLocations", "@spider": "usps_collection_boxes", "addr:city": "WHEAT RIDGE", "addr:country": "US", "addr:postcode": "80033", "addr:state": "CO", "addr:street_address": "4210 WADSWORTH BLVD", "amenity": "post_box", "collection_times": "Mo-Fr 17:45; Sa 16:15", "note": "ON 12/24 AND 12/31, THIS BOX MAY BE COLLECTED AS EARLY AS 12 NOON.", "nsi_id": "unitedstatespostalservice-a77078", "operator": "United States Postal Service", "operator:short": "USPS", "operator:type": "public", "operator:wikidata": "Q668687", "ref": "8003300000"}, "type": "Feature"}
{"geometry": {"coordinates": [-105.081404, 39.774129], "type": "Point"}, "id": "hX5kz7pTtbOOp5a0gCUGaIH2dr8=", "properties": {"@source_uri": "https://tools.usps.com/UspsToolsRestServices/rest/POLocator/findLocations", "@spider": "usps_collection_boxes", "addr:city": "WHEAT RIDGE", "addr:country": "US", "addr:postcode": "80033", "addr:state": "CO", "addr:street_address": "4210 WADSWORTH BLVD", "amenity": "post_box", "collection_times": "Mo-Fr 17:45; Sa 16:15", "note": "ON 12/24 AND 12/31, THIS BOX MAY BE COLLECTED AS EARLY AS 12 NOON.", "nsi_id": "unitedstatespostalservice-a77078", "operator": "United States Postal Service", "operator:short": "USPS", "operator:type": "public", "operator:wikidata": "Q668687", "ref": "8003300001"}, "type": "Feature"}
{"geometry": {"coordinates": [-105.09269, 39.768647], "type": "Point"}, "id": "14H5cIhBzWN-i5X8KDsoRI56dnY=", "properties": {"@source_uri": "https://tools.usps.com/UspsToolsRestServices/rest/POLocator/findLocations", "@spider": "usps_collection_boxes", "addr:city": "WHEAT RIDGE", "addr:country": "US", "addr:postcode": "80033", "addr:state": "CO", "addr:street_address": "8550 W 38TH AVE", "amenity": "post_box", "collection_times": "Mo-Fr 09:30", "nsi_id": "unitedstatespostalservice-a77078", "operator": "United States Postal Service", "operator:short": "USPS", "operator:type": "public", "operator:wikidata": "Q668687", "ref": "8003300012"}, "type": "Feature"}
{"geometry": {"coordinates": [-105.074534, 39.769517], "type": "Point"}, "id": "oeU8IbdrIHWW6zt4d6_L38ybCt0=", "properties": {"@source_uri": "https://tools.usps.com/UspsToolsRestServices/rest/POLocator/findLocations", "@spider": "usps_collection_boxes", "addr:city": "WHEAT RIDGE", "addr:country": "US", "addr:postcode": "80033", "addr:state": "CO", "addr:street_address": "7001 W 38TH AVE", "amenity": "post_box", "collection_times": "Mo-Sa 11:00", "nsi_id": "unitedstatespostalservice-a77078", "operator": "United States Postal Service", "operator:short": "USPS", "operator:type": "public", "operator:wikidata": "Q668687", "ref": "8003300013"}, "type": "Feature"}
{"geometry": {"coordinates": [-105.0641348087, 39.77667609], "type": "Point"}, "id": "WCgsN55HFyQ20ptlAcyrc58X100=", "properties": {"@source_uri": "https://tools.usps.com/UspsToolsRestServices/rest/POLocator/findLocations", "@spider": "usps_collection_boxes", "addr:city": "WHEAT RIDGE", "addr:country": "US", "addr:postcode": "80033", "addr:state": "CO", "addr:street_address": "6105 W 44TH AVE", "amenity": "post_box", "collection_times": "Mo-Sa 09:30", "nsi_id": "unitedstatespostalservice-a77078", "operator": "United States Postal Service", "operator:short": "USPS", "operator:type": "public", "operator:wikidata": "Q668687", "ref": "8003300014"}, "type": "Feature"}
{"geometry": {"coordinates": [-105.112029, 39.777933], "type": "Point"}, "id": "W7baQL_53oQzzmXPPXXJ72Qt1bI=", "properties": {"@source_uri": "https://tools.usps.com/UspsToolsRestServices/rest/POLocator/findLocations", "@spider": "usps_collection_boxes", "addr:city": "WHEAT RIDGE", "addr:country": "US", "addr:postcode": "80033", "addr:state": "CO", "addr:street_address": "10200 W 44TH AVE", "amenity": "post_box", "collection_times": "Mo-Sa 14:00", "note": "ON 12/24 AND 12/31, THIS BOX MAY BE COLLECTED AS EARLY AS 12 NOON.", "nsi_id": "unitedstatespostalservice-a77078", "operator": "United States Postal Service", "operator:short": "USPS", "operator:type": "public", "operator:wikidata": "Q668687", "ref": "8003300017"}, "type": "Feature"}
{"geometry": {"coordinates": [-105.106395, 39.78558], "type": "Point"}, "id": "TKYp9iNLCXQSbSpLypgl5fpuIaY=", "properties": {"@source_uri": "https://tools.usps.com/UspsToolsRestServices/rest/POLocator/findLocations", "@spider": "usps_collection_boxes", "addr:city": "WHEAT RIDGE", "addr:country": "US", "addr:postcode": "80033", "addr:state": "CO", "addr:street_address": "9950 W 49TH AVE", "amenity": "post_box", "collection_times": "Mo-Fr 14:00", "note": "ON 12/24 AND 12/31, THIS BOX MAY BE COLLECTED AS EARLY AS 12 NOON.", "nsi_id": "unitedstatespostalservice-a77078", "operator": "United States Postal Service", "operator:short": "USPS", "operator:type": "public", "operator:wikidata": "Q668687", "ref": "8003300022"}, "type": "Feature"}
{"geometry": {"coordinates": [-105.110919, 39.775974], "type": "Point"}, "id": "3dW7SHR4EVABufr_cBLtPegco4o=", "properties": {"@source_uri": "https://tools.usps.com/UspsToolsRestServices/rest/POLocator/findLocations", "@spider": "usps_collection_boxes", "addr:city": "WHEAT RIDGE", "addr:country": "US", "addr:postcode": "80033", "addr:state": "CO", "addr:street_address": "4251 KIPLING ST", "amenity": "post_box", "collection_times": "Mo-Fr 14:00", "note": "ON 12/24 AND 12/31, THIS BOX MAY BE COLLECTED AS EARLY AS 12 NOON.", "nsi_id": "unitedstatespostalservice-a77078", "operator": "United States Postal Service", "operator:short": "USPS", "operator:type": "public", "operator:wikidata": "Q668687", "ref": "8003300031"}, "type": "Feature"}
{"geometry": {"coordinates": [-105.081001, 39.775734], "type": "Point"}, "id": "jtWiDVSczbEfNsH1AzySYLjh9fE=", "properties": {"@source_uri": "https://tools.usps.com/UspsToolsRestServices/rest/POLocator/findLocations", "@spider": "usps_collection_boxes", "addr:city": "WHEAT RIDGE", "addr:country": "US", "addr:postcode": "80033", "addr:state": "CO", "addr:street_address": "4350 WADSWORTH BLVD", "amenity": "post_box", "collection_times": "Mo-Sa 10:00", "nsi_id": "unitedstatespostalservice-a77078", "operator": "United States Postal Service", "operator:short": "USPS", "operator:type": "public", "operator:wikidata": "Q668687", "ref": "8003300032"}, "type": "Feature"}
{"geometry": {"coordinates": [-105.08452, 39.768583], "type": "Point"}, "id": "m4nKiwpMy_HuDKxCcurxBIJgje4=", "properties": {"@source_uri": "https://tools.usps.com/UspsToolsRestServices/rest/POLocator/findLocations", "@spider": "usps_collection_boxes", "addr:city": "WHEAT RIDGE", "addr:country": "US", "addr:postcode": "80033", "addr:state": "CO", "addr:street_address": "7760 W 38TH AVE", "amenity": "post_box", "collection_times": "Mo-Sa 12:20", "note": "ON 12/24 AND 12/31, THIS BOX MAY BE COLLECTED AS EARLY AS 12 NOON.", "nsi_id": "unitedstatespostalservice-a77078", "operator": "United States Postal Service", "operator:short": "USPS", "operator:type": "public", "operator:wikidata": "Q668687", "ref": "8003300039"}, "type": "Feature"}
{"geometry": {"coordinates": [-105.141826, 39.764652], "type": "Point"}, "id": "zSCwOHF40etIDrmAUPjYQZAmXDo=", "properties": {"@source_uri": "https://tools.usps.com/UspsToolsRestServices/rest/POLocator/findLocations", "@spider": "usps_collection_boxes", "addr:city": "WHEAT RIDGE", "addr:country": "US", "addr:postcode": "80033", "addr:state": "CO", "addr:street_address": "3500 YOUNGFIELD ST", "amenity": "post_box", "collection_times": "Mo-Sa 09:30", "nsi_id": "unitedstatespostalservice-a77078", "operator": "United States Postal Service", "operator:short": "USPS", "operator:type": "public", "operator:wikidata": "Q668687", "ref": "8003300042"}, "type": "Feature"}
{"geometry": {"coordinates": [-105.134441, 39.779291], "type": "Point"}, "id": "5cl5j0oGr_dTtdmqPvpFaTKpot4=", "properties": {"@source_uri": "https://tools.usps.com/UspsToolsRestServices/rest/POLocator/findLocations", "@spider": "usps_collection_boxes", "addr:city": "WHEAT RIDGE", "addr:country": "US", "addr:postcode": "80033", "addr:state": "CO", "addr:street_address": "12151 W 44TH AVE", "amenity": "post_box", "collection_times": "Mo-Fr 11:55; Sa 10:30", "nsi_id": "unitedstatespostalservice-a77078", "operator": "United States Postal Service", "operator:short": "USPS", "operator:type": "public", "operator:wikidata": "Q668687", "ref": "8003300049"}, "type": "Feature"}
{"geometry": {"coordinates": [-105.081404, 39.774129], "type": "Point"}, "id": "Ibg352AD1Xmha-SIR5IybS1SV4s=", "properties": {"@source_uri": "https://tools.usps.com/UspsToolsRestServices/rest/POLocator/findLocations", "@spider": "usps_collection_boxes", "addr:city": "WHEAT RIDGE", "addr:country": "US", "addr:postcode": "80033", "addr:state": "CO", "addr:street_address": "4210 WADSWORTH BLVD", "amenity": "post_box", "collection_times": "Mo-Fr 17:45; Sa 16:15", "indoor": "yes", "note": "ON 12/24 AND 12/31, THIS BOX MAY BE COLLECTED AS EARLY AS 12 NOON.", "nsi_id": "unitedstatespostalservice-a77078", "operator": "United States Postal Service", "operator:short": "USPS", "operator:type": "public", "operator:wikidata": "Q668687", "ref": "8003300052"}, "type": "Feature"}
{"geometry": {"coordinates": [-105.081404, 39.774129], "type": "Point"}, "id": "0nX4ATOfZzHCok2gJEjYDMuzxwY=", "properties": {"@source_uri": "https://tools.usps.com/UspsToolsRestServices/rest/POLocator/findLocations", "@spider": "usps_collection_boxes", "addr:city": "WHEAT RIDGE", "addr:country": "US", "addr:postcode": "80033", "addr:state": "CO", "addr:street_address": "4210 WADSWORTH BLVD", "amenity": "post_box", "collection_times": "Mo-Fr 17:45; Sa 16:15", "indoor": "yes", "note": "ON 12/24 AND 12/31, THIS BOX MAY BE COLLECTED AS EARLY AS 12 NOON.", "nsi_id": "unitedstatespostalservice-a77078", "operator": "United States Postal Service", "operator:short": "USPS", "operator:type": "public", "operator:wikidata": "Q668687", "ref": "8003300053"}, "type": "Feature"}
{"geometry": {"coordinates": [-105.133212622, 39.784377287], "type": "Point"}, "id": "jF6W1nB0Z_0DBnL9mYYYlfsGeVw=", "properties": {"@source_uri": "https://tools.usps.com/UspsToolsRestServices/rest/POLocator/findLocations", "@spider": "usps_collection_boxes", "addr:city": "WHEAT RIDGE", "addr:country": "US", "addr:postcode": "80033", "addr:state": "CO", "addr:street_address": "11941 W 48TH AVE", "amenity": "post_box", "collection_times": "Mo-Sa 11:00", "nsi_id": "unitedstatespostalservice-a77078", "operator": "United States Postal Service", "operator:short": "USPS", "operator:type": "public", "operator:wikidata": "Q668687", "ref": "8003300061"}, "type": "Feature"}
{"geometry": {"coordinates": [-105.081404, 39.774129], "type": "Point"}, "id": "0t0oVyGzPfpD9jAubXISP7ZsaS0=", "properties": {"@source_uri": "https://tools.usps.com/UspsToolsRestServices/rest/POLocator/findLocations", "@spider": "usps_collection_boxes", "addr:city": "WHEAT RIDGE", "addr:country": "US", "addr:postcode": "80033", "addr:state": "CO", "addr:street_address": "4210 WADSWORTH BLVD", "amenity": "post_box", "collection_times": "Mo-Fr 17:45; Sa 16:15", "name": "USPS COLLECTION BOX - APC", "note": "ON 12/24 AND 12/31, THIS BOX MAY BE COLLECTED AS EARLY AS 12 NOON.", "nsi_id": "unitedstatespostalservice-a77078", "operator": "United States Postal Service", "operator:short": "USPS", "operator:type": "public", "operator:wikidata": "Q668687", "ref": "8003300063"}, "type": "Feature"}
{"geometry": {"coordinates": [-105.081404, 39.774129], "type": "Point"}, "id": "bB_dQdoWVtasLQs-IIwAcj-L44o=", "properties": {"@source_uri": "https://tools.usps.com/UspsToolsRestServices/rest/POLocator/findLocations", "@spider": "usps_collection_boxes", "addr:city": "WHEAT RIDGE", "addr:country": "US", "addr:postcode": "80033", "addr:state": "CO", "addr:street_address": "4210 WADSWORTH BLVD", "amenity": "post_box", "collection_times": "Mo-Fr 17:45; Sa 16:15", "indoor": "yes", "note": "ON 12/24 AND 12/31, THIS BOX MAY BE COLLECTED AS EARLY AS 12 NOON.", "nsi_id": "unitedstatespostalservice-a77078", "operator": "United States Postal Service", "operator:short": "USPS", "operator:type": "public", "operator:wikidata": "Q668687", "ref": "8003300065"}, "type": "Feature"}
{"geometry": {"coordinates": [-104.839733, 39.74196], "type": "Point"}, "id": "rfQ17TkyAZ-j47iW2kCY9VzJcSA=", "properties": {"@source_uri": "https://tools.usps.com/UspsToolsRestServices/rest/POLocator/findLocations", "@spider": "usps_collection_boxes", "addr:city": "AURORA", "addr:country": "US", "addr:postcode": "80045", "addr:state": "CO", "addr:street_address": "1635 AURORA CT", "amenity": "post_box", "collection_times": "Mo-Sa 13:00", "note": "ON 12/24 AND 12/31, THIS BOX MAY BE COLLECTED AS EARLY AS 12 NOON.", "nsi_id": "unitedstatespostalservice-a77078", "operator": "United States Postal Service", "operator:short": "USPS", "operator:type": "public", "operator:wikidata": "Q668687", "ref": "8004500005"}, "type": "Feature"}
