{"geometry": {"coordinates": [-105.225391, 40.028523], "type": "Point"}, "id": "hY9VP3TMRjhkkOYu82-at5vRNGA=", "properties": {"@source_uri": "https://tools.usps.com/UspsToolsRestServices/rest/POLocator/findLocations", "@spider": "usps_collection_boxes", "addr:city": "BOULDER", "addr:country": "US", "addr:postcode": "80301", "addr:state": "CO", "addr:street_address": "2995 55TH ST", "amenity": "post_box", "collection_times": "Mo-Fr 18:15; Sa 17:30", "note": "ON 12/24 AND 12/31, THIS BOX MAY BE COLLECTED AS EARLY AS 12 NOON.", "nsi_id": "unitedstatespostalservice-a77078", "operator": "United States Postal Service", "operator:short": "USPS", "operator:type": "public", "operator:wikidata": "Q668687", "ref": "8030100004"}, "type": "Feature"}
{"geometry": {"coordinates": [-105.225391, 40.028523], "type": "Point"}, "id": "MrjgPSc2uCpERzBaktiy2cHp5Bk=", "properties": {"@source_uri": "https://tools.usps.com/UspsToolsRestServices/rest/POLocator/findLocations", "@spider": "usps_collection_boxes", "addr:city": "BOULDER", "addr:country": "US", "addr:postcode": "80301", "addr:state": "CO", "addr:street_address": "2995 55TH ST", "amenity": "post_box", "collection_times": "Mo-Fr 18:30; Sa 17:30", "indoor": "yes", "note": "ON 12/24 AND 12/31, THIS BOX MAY BE COLLECTED AS EARLY AS 12 NOON.", "nsi_id": "unitedstatespostalservice-a77078", "operator": "United States Postal Service", "operator:short": "USPS", "operator:type": "public", "operator:wikidata": "Q668687", "ref": "8030100006"}, "type": "Feature"}
{"geometry": {"coordinates": [-105.225391, 40.028523], "type": "Point"}, "id": "uKH368iJwnP5uYbVpC1vAyT3mBA=", "properties": {"@source_uri": "https://tools.usps.com/UspsToolsRestServices/rest/POLocator/findLocations", "@spider": "usps_collection_boxes", "addr:city": "BOULDER", "addr:country": "US", "addr:postcode": "80301", "addr:state": "CO", "addr:street_address": "2995 55TH ST", "amenity": "post_box", "collection_times": "Mo-Fr 18:30; Sa 17:30", "indoor": "yes", "note": "ON 12/24 AND 12/31, THIS BOX MAY BE COLLECTED AS EARLY AS 12 NOON.", "nsi_id": "unitedstatespostalservice-a77078", "operator": "United States Postal Service", "operator:short": "USPS", "operator:type": "public", "operator:wikidata": "Q668687", "ref": "8030100007"}, "type": "Feature"}
{"geometry": {"coordinates": [-105.225391, 40.028523], "type": "Point"}, "id": "3XDAAjnQtxACo4ExBNGf0I0sxng=", "properties": {"@source_uri": "https://tools.usps.com/UspsToolsRestServices/rest/POLocator/findLocations", "@spider": "usps_collection_boxes", "addr:city": "BOULDER", "addr:country": "US", "addr:postcode": "80301", "addr:state": "CO", "addr:street_address": "2995 55TH ST", "amenity": "post_box", "collection_times": "Mo-Fr 18:30; Sa 17:30", "indoor": "yes", "note": "ON 12/24 AND 12/31, THIS BOX MAY BE COLLECTED AS EARLY AS 12 NOON.", "nsi_id": "unitedstatespostalservice-a77078", "operator": "United States Postal Service", "operator:short": "USPS", "operator:type": "public", "operator:wikidata": "Q668687", "ref": "8030100008"}, "type": "Feature"}
{"geometry": {"coordinates": [-105.225391, 40.028523], "type": "Point"}, "id": "tckBMjdwM4O8flsahXHhpz_mo30=", "properties": {"@source_uri": "https://tools.usps.com/UspsToolsRestServices/rest/POLocator/findLocations", "@spider": "usps_collection_boxes", "addr:city": "BOULDER", "addr:country": "US", "addr:postcode": "80301", "addr:state": "CO", "addr:street_address": "2995 55TH ST", "amenity": "post_box", "collection_times": "Mo-Fr 18:30; Sa 17:30", "indoor": "yes", "note": "ON 12/24 AND 12/31, THIS BOX MAY BE COLLECTED AS EARLY AS 12 NOON.", "nsi_id": "unitedstatespostalservice-a77078", "operator": "United States Postal Service", "operator:short": "USPS", "operator:type": "public", "operator:wikidata": "Q668687", "ref": "8030100009"}, "type": "Feature"}
{"geometry": {"coordinates": [-105.225391, 40.028523], "type": "Point"}, "id": "TDkKuAQhm9WoNBK504122jUmUbA=", "properties": {"@source_uri": "https://tools.usps.com/UspsToolsRestServices/rest/POLocator/findLocations", "@spider": "usps_collection_boxes", "addr:city": "BOULDER", "addr:country": "US", "addr:postcode": "80301", "addr:state": "CO", "addr:street_address": "2995 55TH ST", "amenity": "post_box", "collection_times": "Mo-Fr 18:30; Sa 17:30", "indoor": "yes", "note": "ON 12/24 AND 12/31, THIS BOX MAY BE COLLECTED AS EARLY AS 12 NOON.", "nsi_id": "unitedstatespostalservice-a77078", "operator": "United States Postal Service", "operator:short": "USPS", "operator:type": "public", "operator:wikidata": "Q668687", "ref": "8030100010"}, "type": "Feature"}
{"geometry": {"coordinates": [-105.225391, 40.028523], "type": "Point"}, "id": "iObfpHHbyWzMh5W7h_Y05NBDK1U=", "properties": {"@source_uri": "https://tools.usps.com/UspsToolsRestServices/rest/POLocator/findLocations", "@spider": "usps_collection_boxes", "addr:city": "BOULDER", "addr:country": "US", "addr:postcode": "80301", "addr:state": "CO", "addr:street_address": "2995 55TH ST", "amenity": "post_box", "collection_times": "Mo-Fr 18:30; Sa 17:30", "indoor": "yes", "note": "ON 12/24 AND 12/31, THIS BOX MAY BE COLLECTED AS EARLY AS 12 NOON.", "nsi_id": "unitedstatespostalservice-a77078", "operator": "United States Postal Service", "operator:short": "USPS", "operator:type": "public", "operator:wikidata": "Q668687", "ref": "8030100011"}, "type": "Feature"}
{"geometry": {"coordinates": [-105.251986, 40.019242], "type": "Point"}, "id": "JRAPyGHkorV1d5_36FYI2w7Hvu0=", "properties": {"@source_uri": "https://tools.usps.com/UspsToolsRestServices/rest/POLocator/findLocations", "@spider": "usps_collection_boxes", "addr:city": "BOULDER", "addr:country": "US", "addr:postcode": "80301", "addr:state": "CO", "addr:street_address": "1880 30TH ST", "amenity": "post_box", "collection_times": "Mo-Sa 11:00", "nsi_id": "unitedstatespostalservice-a77078", "operator": "United States Postal Service", "operator:short": "USPS", "operator:type": "public", "operator:wikidata": "Q668687", "ref": "8030100014"}, "type": "Feature"}
{"geometry": {"coordinates": [-105.252221, 40.016116], "type": "Point"}, "id": "KcCNDf1nKZISe5N1f7Y8H8mDrrE=", "properties": {"@source_uri": "https://tools.usps.com/UspsToolsRestServices/rest/POLocator/findLocations", "@spider": "usps_collection_boxes", "addr:city": "BOULDER", "addr:country": "US", "addr:postcode": "80301", "addr:state": "CO", "addr:street_address": "1650 30TH ST", "amenity": "post_box", "collection_times": "Mo-Sa 11:00", "nsi_id": "unitedstatespostalservice-a77078", "operator": "United States Postal Service", "operator:short": "USPS", "operator:type": "public", "operator:wikidata": "Q668687", "ref": "8030100016"}, "type": "Feature"}
{"geometry": {"coordinates": [-105.256279, 40.035638], "type": "Point"}, "id": "SkpnOTRJ4bVR123hXp7l8tPD3GM=", "properties": {"@source_uri": "https://tools.usps.com/UspsToolsRestServices/rest/POLocator/findLocations", "@spider": "usps_collection_boxes", "addr:city": "BOULDER", "addr:country": "US", "addr:postcode": "80301", "addr:state": "CO", "addr:street_address": "2900 IRIS AVE", "amenity": "post_box", "collection_times": "Mo-Sa 10:00", "nsi_id": "unitedstatespostalservice-a77078", "operator": "United States Postal Service", "operator:short": "USPS", "operator:type": "public", "operator:wikidata": "Q668687", "ref": "8030100019"}, "type": "Feature"}
{"geometry": {"coordinates": [-105.2231616932, 40.0196544766], "type": "Point"}, "id": "mv7gjovq_Fm5pnV1vwiPTjxd9os=", "properties": {"@source_uri": "https://tools.usps.com/UspsToolsRestServices/rest/POLocator/findLocations", "@spider": "usps_collection_boxes", "addr:city": "BOULDER", "addr:country": "US", "addr:postcode": "80301", "addr:state": "CO", "addr:street_address": "5541 CENTRAL AVE", "amenity": "post_box", "collection_times": "Mo-Sa 12:00", "nsi_id": "unitedstatespostalservice-a77078", "operator": "United States Postal Service", "operator:short": "USPS", "operator:type": "public", "operator:wikidata": "Q668687", "ref": "8030100021"}, "type": "Feature"}
{"geometry": {"coordinates": [-105.1982071432, 40.0713968238], "type": "Point"}, "id": "kyPKCsE9JFCPfDGR37f92wGIo5U=", "properties": {"@source_uri": "https://tools.usps.com/UspsToolsRestServices/rest/POLocator/findLocations", "@spider": "usps_collection_boxes", "addr:city": "BOULDER", "addr:country": "US", "addr:postcode": "80301", "addr:state": "CO", "addr:street_address": "6680 GUNPARK DR", "amenity": "post_box", "collection_times": "Mo-Sa 12:45", "note": "ON 12/24 AND 12/31, THIS BOX MAY BE COLLECTED AS EARLY AS 12 NOON.", "nsi_id": "unitedstatespostalservice-a77078", "operator": "United States Postal Service", "operator:short": "USPS", "operator:type": "public", "operator:wikidata": "Q668687", "ref": "8030100024"}, "type": "Feature"}
{"geometry": {"coordinates": [-105.236323, 40.016005], "type": "Point"}, "id": "HYaRtz_T7IT2jBgkn-2GmCgEZPo=", "properties": {"@source_uri": "https://tools.usps.com/UspsToolsRestServices/rest/POLocator/findLocations", "@spider": "usps_collection_boxes", "addr:city": "BOULDER", "addr:country": "US", "addr:postcode": "80301", "addr:state": "CO", "addr:street_address": "4747 ARAPAHOE AVE", "amenity": "post_box", "collection_times": "Mo-Sa 12:00", "nsi_id": "unitedstatespostalservice-a77078", "operator": "United States Postal Service", "operator:short": "USPS", "operator:type": "public", "operator:wikidata": "Q668687", "ref": "8030100025"}, "type": "Feature"}
{"geometry": {"coordinates": [-105.244355, 40.015962], "type": "Point"}, "id": "TGq-BF9V39_AJlWRj6wEx8WLtu8=", "properties": {"@source_uri": "https://tools.usps.com/UspsToolsRestServices/rest/POLocator/findLocations", "@spider": "usps_collection_boxes", "addr:city": "BOULDER", "addr:country": "US", "addr:postcode": "80301", "addr:state": "CO", "addr:street_address": "1680 38TH ST", "amenity": "post_box", "collection_times": "Mo-Fr 14:30; Sa 14:15", "note": "ON 12/24 AND 12/31, THIS BOX MAY BE COLLECTED AS EARLY AS 12 NOON.", "nsi_id": "unitedstatespostalservice-a77078", "operator": "United States Postal Service", "operator:short": "USPS", "operator:type": "public", "operator:wikidata": "Q668687", "ref": "8030100028"}, "type": "Feature"}
{"geometry": {"coordinates": [-105.243534, 40.035424], "type": "Point"}, "id": "J6tfA2LfLIwEWRo9Lq2E3yzZG1g=", "properties": {"@source_uri": "https://tools.usps.com/UspsToolsRestServices/rest/POLocator/findLocations", "@spider": "usps_collection_boxes", "addr:city": "BOULDER", "addr:country": "US", "addr:postcode": "80301", "addr:state": "CO", "addr:street_address": "3300 MITCHELL LN", "amenity": "post_box", "collection_times": "Mo-Sa 12:00", "nsi_id": "unitedstatespostalservice-a77078", "operator": "United States Postal Service", "operator:short": "USPS", "operator:type": "public", "operator:wikidata": "Q668687", "ref": "8030100032"}, "type": "Feature"}
{"geometry": {"coordinates": [-105.179689, 40.065312], "type": "Point"}, "id": "t5lCzCmpbqKbw23Ira0n9l8zghI=", "properties": {"@source_uri": "https://tools.usps.com/UspsToolsRestServices/rest/POLocator/findLocations", "@spider": "usps_collection_boxes", "addr:city": "BOULDER", "addr:country": "US", "addr:postcode": "80301", "addr:state": "CO", "addr:street_address": "7490 CLUBHOUSE RD", "amenity": "post_box", "collection_times": "Mo-Sa 12:00", "nsi_id": "unitedstatespostalservice-a77078", "operator": "United States Postal Service", "operator:short": "USPS", "operator:type": "public", "operator:wikidata": "Q668687", "ref": "8030100035"}, "type": "Feature"}
{"geometry": {"coordinates": [-105.257605, 40.038612], "type": "Point"}, "id": "4emdI9x7JfQMLAiEtI3Z51y4FhE=", "properties": {"@source_uri": "https://tools.usps.com/UspsToolsRestServices/rest/POLocator/findLocations", "@spider": "usps_collection_boxes", "addr:city": "BOULDER", "addr:country": "US", "addr:postcode": "80301", "addr:state": "CO", "addr:street_address": "2800 KALMIA AVE", "amenity": "post_box", "collection_times": "Mo-Sa 11:00", "nsi_id": "unitedstatespostalservice-a77078", "operator": "United States Postal Service", "operator:short": "USPS", "operator:type": "public", "operator:wikidata": "Q668687", "ref": "8030100036"}, "type": "Feature"}
{"geometry": {"coordinates": [-105.205005, 40.056734], "type": "Point"}, "id": "f0eoMDBTfelqSJP2xVoJoEUm7cA=", "properties": {"@source_uri": "https://tools.usps.com/UspsToolsRestServices/rest/POLocator/findLocations", "@spider": "usps_collection_boxes", "addr:city": "BOULDER", "addr:country": "US", "addr:postcode": "80301", "addr:state": "CO", "addr:street_address": "6392 TWIN LAKES RD", "amenity": "post_box", "collection_times": "Mo-Sa 12:45", "note": "ON 12/24 AND 12/31, THIS BOX MAY BE COLLECTED AS EARLY AS 12 NOON.", "nsi_id": "unitedstatespostalservice-a77078", "operator": "United States Postal Service", "operator:short": "USPS", "operator:type": "public", "operator:wikidata": "Q668687", "ref": "8030100037"}, "type": "Feature"}
{"geometry": {"coordinates": [-105.241053777, 40.0273335338], "type": "Point"}, "id": "-FUQWOnuwDTkta-np4X-5MBeYPs=", "properties": {"@source_uri": "https://tools.usps.com/UspsToolsRestServices/rest/POLocator/findLocations", "@spider": "usps_collection_boxes", "addr:city": "BOULDER", "addr:country": "US", "addr:postcode": "80301", "addr:state": "CO", "addr:street_address": "4865 STERLING DR", "amenity": "post_box", "collection_times": "Mo-Sa 13:15", "note": "ON 12/24 AND 12/31, THIS BOX MAY BE COLLECTED AS EARLY AS 12 NOON.", "nsi_id": "unitedstatespostalservice-a77078", "operator": "United States Postal Service", "operator:short": "USPS", "operator:type": "public", "operator:wikidata": "Q668687", "ref": "8030100038"}, "type": "Feature"}
{"geometry": {"coordinates": [-105.2488766219, 40.0365481079], "type": "Point"}, "id": "jh_I6DsVMUhaPBMyv4VEaqWyqCg=", "properties": {"@source_uri": "https://tools.usps.com/UspsToolsRestServices/rest/POLocator/findLocations", "@spider": "usps_collection_boxes", "addr:city": "BOULDER", "addr:country": "US", "addr:postcode": "80301", "addr:state": "CO", "addr:street_address": "3402 34TH ST", "amenity": "post_box", "collection_times": "Mo-Sa 12:00", "nsi_id": "unitedstatespostalservice-a77078", "operator": "United States Postal Service", "operator:short": "USPS", "operator:type": "public", "operator:wikidata": "Q668687", "ref": "8030100040"}, "type": "Feature"}
{"geometry": {"coordinates": [-105.20118, 40.07199], "type": "Point"}, "id": "c_G0R10NK-7U3bVAlkSwGYhuQ4s=", "properties": {"@source_uri": "https://tools.usps.com/UspsToolsRestServices/rest/POLocator/findLocations", "@spider": "usps_collection_boxes", "addr:city": "BOULDER", "addr:country": "US", "addr:postcode": "80301", "addr:state": "CO", "addr:street_address": "6550 LOOKOUT RD", "amenity": "post_box", "collection_times": "Mo-Sa 12:00", "nsi_id": "unitedstatespostalservice-a77078", "operator": "United States Postal Service", "operator:short": "USPS", "operator:type": "public", "operator:wikidata": "Q668687", "ref": "8030100041"}, "type": "Feature"}
{"geometry": {"coordinates": [-105.1996694083, 40.0667475917], "type": "Point"}, "id": "MCUBaypGG3zzzQ0tPlhIZCt2ktc=", "properties": {"@source_uri": "https://tools.usps.com/UspsToolsRestServices/rest/POLocator/findLocations", "@spider": "usps_collection_boxes", "addr:city": "BOULDER", "addr:country": "US", "addr:postcode": "80301", "addr:state": "CO", "addr:street_address": "5125 WILLIAMS FORK TRL", "amenity": "post_box", "collection_times": "Mo-Fr 14:15; Sa 12:45", "note": "ON 12/24 AND 12/31, THIS BOX MAY BE COLLECTED AS EARLY AS 12 NOON.", "nsi_id": "unitedstatespostalservice-a77078", "operator": "United States Postal Service", "operator:short": "USPS", "operator:type": "public", "operator:wikidata": "Q668687", "ref": "8030100046"}, "type": "Feature"}
{"geometry": {"coordinates": [-105.244013, 40.025933], "type": "Point"}, "id": "KBSPWATZZRu7XiWCbwXYyk6NdjA=", "properties": {"@source_uri": "https://tools.usps.com/UspsToolsRestServices/rest/POLocator/findLocations", "@spider": "usps_collection_boxes", "addr:city": "BOULDER", "addr:country": "US", "addr:postcode": "80301", "addr:state": "CO", "addr:street_address": "2500 47TH ST", "amenity": "post_box", "collection_times": "Mo-Sa 13:15", "note": "ON 12/24 AND 12/31, THIS BOX MAY BE COLLECTED AS EARLY AS 12 NOON.", "nsi_id": "unitedstatespostalservice-a77078", "operator": "United States Postal Service", "operator:short": "USPS", "operator:type": "public", "operator:wikidata": "Q668687", "ref": "8030100050"}, "type": "Feature"}
{"geometry": {"coordinates": [-105.2210854719, 40.0228542225], "type": "Point"}, "id": "75WL0PWsUXDJND3-ax9_RmoxoQ8=", "properties": {"@source_uri": "https://tools.usps.com/UspsToolsRestServices/rest/POLocator/findLocations", "@spider": "usps_collection_boxes", "addr:city": "BOULDER", "addr:country": "US", "addr:postcode": "80301", "addr:state": "CO", "addr:street_address": "5700 FLATIRON PKWY", "amenity": "post_box", "collection_times": "Mo-Sa 14:30", "note": "ON 12/24 AND 12/31, THIS BOX MAY BE COLLECTED AS EARLY AS 12 NOON.", "nsi_id": "unitedstatespostalservice-a77078", "operator": "United States Postal Service", "operator:short": "USPS", "operator:type": "public", "operator:wikidata": "Q668687", "ref": "8030100052"}, "type": "Feature"}
{"geometry": {"coordinates": [-105.247739, 40.028232], "type": "Point"}, "id": "0U_SG3U3gNN9B2E3Ru2_AXbtLM0=", "properties": {"@source_uri": "https://tools.usps.com/UspsToolsRestServices/rest/POLocator/findLocations", "@spider": "usps_collection_boxes", "addr:city": "BOULDER", "addr:country": "US", "addr:postcode": "80301", "addr:state": "CO", "addr:street_address": "2995 WILDERNESS PL", "amenity": "post_box", "collection_times": "Mo-Fr 13:00; Sa 11:00", "note": "ON 12/24 AND 12/31, THIS BOX MAY BE COLLECTED AS EARLY AS 12 NOON.", "nsi_id": "unitedstatespostalservice-a77078", "operator": "United States Postal Service", "operator:short": "USPS", "operator:type": "public", "operator:wikidata": "Q668687", "ref": "8030100053"}, "type": "Feature"}
{"geometry": {"coordinates": [-105.256812, 40.043495], "type": "Point"}, "id": "-akBPsHwzLvN5F6FkpMgucARjKg=", "properties": {"@source_uri": "https://tools.usps.com/UspsToolsRestServices/rest/POLocator/findLocations", "@spider": "usps_collection_boxes", "addr:city": "BOULDER", "addr:country": "US", "addr:postcode": "80301", "addr:state": "CO", "addr:street_address": "3799 PASEO DEL PRADO ST", "amenity": "post_box", "collection_times": "Mo-Sa 13:45", "note": "ON 12/24 AND 12/31, THIS BOX MAY BE COLLECTED AS EARLY AS 12 NOON.", "nsi_id": "unitedstatespostalservice-a77078", "operator": "United States Postal Service", "operator:short": "USPS", "operator:type": "public", "operator:wikidata": "Q668687", "ref": "8030100057"}, "type": "Feature"}
{"geometry": {"coordinates": [-105.2021864196, 40.0717729489], "type": "Point"}, "id": "bn95HWbUrix9UpcFo-HrboIZfOQ=", "properties": {"@source_uri": "https://tools.usps.com/UspsToolsRestServices/rest/POLocator/findLocations", "@spider": "usps_collection_boxes", "addr:city": "BOULDER", "addr:country": "US", "addr:postcode": "80301", "addr:state": "CO", "addr:street_address": "5365 SPINE RD", "amenity": "post_box", "collection_times": "Mo-Sa 12:00", "nsi_id": "unitedstatespostalservice-a77078", "operator": "United States Postal Service", "operator:short": "USPS", "operator:type": "public", "operator:wikidata": "Q668687", "ref": "8030100069"}, "type": "Feature"}
{"geometry": {"coordinates": [-105.249925, 40.017325], "type": "Point"}, "id": "nMU3vENH-lPlz0XbipgK1HpRXdg=", "properties": {"@source_uri": "https://tools.usps.com/UspsToolsRestServices/rest/POLocator/findLocations", "@spider": "usps_collection_boxes", "addr:city": "BOULDER", "addr:country": "US", "addr:postcode": "80301", "addr:state": "CO", "addr:street_address": "1750 33RD ST", "amenity": "post_box", "collection_times": "Mo-Sa 14:15", "note": "ON 12/24 AND 12/31, THIS BOX MAY BE COLLECTED AS EARLY AS 12 NOON.", "nsi_id": "unitedstatespostalservice-a77078", "operator": "United States Postal Service", "operator:short": "USPS", "operator:type": "public", "operator:wikidata": "Q668687", "ref": "8030100074"}, "type": "Feature"}
{"geometry": {"coordinates": [-105.245814, 40.047497], "type": "Point"}, "id": "wxvLwwdF_m8kDeWFgfvZ9YniEes=", "properties": {"@source_uri": "https://tools.usps.com/UspsToolsRestServices/rest/POLocator/findLocations", "@spider": "usps_collection_boxes", "addr:city": "BOULDER", "addr:country": "US", "addr:postcode": "80301", "addr:state": "CO", "addr:street_address": "4400 SAINT JOHNS AVE", "amenity": "post_box", "collection_times": "Mo-Sa 12:00", "nsi_id": "unitedstatespostalservice-a77078", "operator": "United States Postal Service", "operator:short": "USPS", "operator:type": "public", "operator:wikidata": "Q668687", "ref": "8030100075"}, "type": "Feature"}
{"geometry": {"coordinates": [-105.259762, 40.035391], "type": "Point"}, "id": "dmM6sCm-lgMblfWJ9q6_wjnrTJ8=", "properties": {"@source_uri": "https://tools.usps.com/UspsToolsRestServices/rest/POLocator/findLocations", "@spider": "usps_collection_boxes", "addr:city": "BOULDER", "addr:country": "US", "addr:postcode": "80301", "addr:state": "CO", "addr:street_address": "3325 28TH ST", "amenity": "post_box", "collection_times": "Mo-Sa 11:30", "nsi_id": "unitedstatespostalservice-a77078", "operator": "United States Postal Service", "operator:short": "USPS", "operator:type": "public", "operator:wikidata": "Q668687", "ref": "8030100076"}, "type": "Feature"}
{"geometry": {"coordinates": [-105.225391, 40.028523], "type": "Point"}, "id": "yeJtlLZaNm_FWI-ZTxzeWPvGpn0=", "properties": {"@source_uri": "https://tools.usps.com/UspsToolsRestServices/rest/POLocator/findLocations", "@spider": "usps_collection_boxes", "addr:city": "BOULDER", "addr:country": "US", "addr:postcode": "80301", "addr:state": "CO", "addr:street_address": "2995 55TH ST", "amenity": "post_box", "collection_times": "Mo-Fr 18:30; Sa 17:30", "name": "USPS COLLECTION BOX - APC", "note": "ON 12/24 AND 12/31, THIS BOX MAY BE COLLECTED AS EARLY AS 12 NOON.", "nsi_id": "unitedstatespostalservice-a77078", "operator": "United States Postal Service", "operator:short": "USPS", "operator:type": "public", "operator:wikidata": "Q668687", "ref": "8030100085"}, "type": "Feature"}
{"geometry": {"coordinates": [-105.257067, 40.018198], "type": "Point"}, "id": "UEMbjFwPbHMJW1vj9S1fSDG5V4E=", "properties": {"@source_uri": "https://tools.usps.com/UspsToolsRestServices/rest/POLocator/findLocations", "@spider": "usps_collection_boxes", "addr:city": "BOULDER", "addr:country": "US", "addr:postcode": "80301", "addr:state": "CO", "addr:street_address": "1805 29TH ST", "amenity": "post_box", "collection_times": "Mo-Sa 11:00", "nsi_id": "unitedstatespostalservice-a77078", "operator": "United States Postal Service", "operator:short": "USPS", "operator:type": "public", "operator:wikidata": "Q668687", "ref": "8030100086"}, "type": "Feature"}
{"geometry": {"coordinates": [-105.280436397, 40.018987709], "type": "Point"}, "id": "cFuDKhETbng43IxCFmwESoAOSXA=", "properties": {"@source_uri": "https://tools.usps.com/UspsToolsRestServices/rest/POLocator/findLocations", "@spider": "usps_collection_boxes", "addr:city": "BOULDER", "addr:country": "US", "addr:postcode": "80302", "addr:state": "CO", "addr:street_address": "1199 SPRUCE ST", "amenity": "post_box", "collection_times": "Mo-Fr 11:30; Sa 11:10", "nsi_id": "unitedstatespostalservice-a77078", "operator": "United States Postal Service", "operator:short": "USPS", "operator:type": "public", "operator:wikidata": "Q668687", "ref": "8030200001"}, "type": "Feature"}
{"geometry": {"coordinates": [-105.277896, 40.0195], "type": "Point"}, "id": "RXc5krRnFkq6juorBR2wxLsm9gc=", "properties": {"@source_uri": "https://tools.usps.com/UspsToolsRestServices/rest/POLocator/findLocations", "@spider": "usps_collection_boxes", "addr:city": "BOULDER", "addr:country": "US", "addr:postcode": "80302", "addr:state": "CO", "addr:street_address": "1345 SPRUCE ST", "amenity": "post_box", "collection_times": "Mo-Sa 10:00", "nsi_id": "unitedstatespostalservice-a77078", "operator": "United States Postal Service", "operator:short": "USPS", "operator:type": "public", "operator:wikidata": "Q668687", "ref": "8030200002"}, "type": "Feature"}
{"geometry": {"coordinates": [-105.27916504, 40.019513501], "type": "Point"}, "id": "G7oKRAb4w2eZiHLXlmWwy9emcrY=", "properties": {"@source_uri": "https://tools.usps.com/UspsToolsRestServices/rest/POLocator/findLocations", "@spider": "usps_collection_boxes", "addr:city": "BOULDER", "addr:country": "US", "addr:postcode": "80302", "addr:state": "CO", "addr:street_address": "2115 13TH ST", "amenity": "post_box", "collection_times": "Mo-Fr 12:30; Sa 11:08", "note": "ON 12/24 AND 12/31, THIS BOX MAY BE COLLECTED AS EARLY AS 12 NOON.", "nsi_id": "unitedstatespostalservice-a77078", "operator": "United States Postal Service", "operator:short": "USPS", "operator:type": "public", "operator:wikidata": "Q668687", "ref": "8030200003"}, "type": "Feature"}
{"geometry": {"coordinates": [-105.279626499, 40.016664294], "type": "Point"}, "id": "Nk7yjb_j-nxs12MqDHYxt8u9ASM=", "properties": {"@source_uri": "https://tools.usps.com/UspsToolsRestServices/rest/POLocator/findLocations", "@spider": "usps_collection_boxes", "addr:city": "BOULDER", "addr:country": "US", "addr:postcode": "80302", "addr:state": "CO", "addr:street_address": "1877 BROADWAY ST", "amenity": "post_box", "collection_times": "Mo-Fr 13:00", "note": "ON 12/24 AND 12/31, THIS BOX MAY BE COLLECTED AS EARLY AS 12 NOON.", "nsi_id": "unitedstatespostalservice-a77078", "operator": "United States Postal Service", "operator:short": "USPS", "operator:type": "public", "operator:wikidata": "Q668687", "ref": "8030200004"}, "type": "Feature"}
{"geometry": {"coordinates": [-105.2783415, 40.017816], "type": "Point"}, "id": "odTiQQgmATRLzPLqDfM_4Qjb9lQ=", "properties": {"@source_uri": "https://tools.usps.com/UspsToolsRestServices/rest/POLocator/findLocations", "@spider": "usps_collection_boxes", "addr:city": "BOULDER", "addr:country": "US", "addr:postcode": "80302", "addr:state": "CO", "addr:street_address": "1962 13TH ST", "amenity": "post_box", "collection_times": "Mo-Fr 14:00; Sa 11:00", "note": "ON 12/24 AND 12/31, THIS BOX MAY BE COLLECTED AS EARLY AS 12 NOON.", "nsi_id": "unitedstatespostalservice-a77078", "operator": "United States Postal Service", "operator:short": "USPS", "operator:type": "public", "operator:wikidata": "Q668687", "ref": "8030200006"}, "type": "Feature"}
{"geometry": {"coordinates": [-105.275085, 40.003811], "type": "Point"}, "id": "pQcagpwwOyPvwZpJMfwwLBEGU5I=", "properties": {"@source_uri": "https://tools.usps.com/UspsToolsRestServices/rest/POLocator/findLocations", "@spider": "usps_collection_boxes", "addr:city": "BOULDER", "addr:country": "US", "addr:postcode": "80302", "addr:state": "CO", "addr:street_address": "909 14TH ST", "amenity": "post_box", "collection_times": "Mo-Fr 14:15; Sa 11:15", "note": "ON 12/24 AND 12/31, THIS BOX MAY BE COLLECTED AS EARLY AS 12 NOON.", "nsi_id": "unitedstatespostalservice-a77078", "operator": "United States Postal Service", "operator:short": "USPS", "operator:type": "public", "operator:wikidata": "Q668687", "ref": "8030200009"}, "type": "Feature"}
{"geometry": {"coordinates": [-105.276084, 40.005535], "type": "Point"}, "id": "zXaIuIyBqdEStXmrYOBycGafoz0=", "properties": {"@source_uri": "https://tools.usps.com/UspsToolsRestServices/rest/POLocator/findLocations", "@spider": "usps_collection_boxes", "addr:city": "BOULDER", "addr:country": "US", "addr:postcode": "80302", "addr:state": "CO", "addr:street_address": "1305 EUCLID AVE", "amenity": "post_box", "collection_times": "Mo-Fr 14:15; Sa 11:15", "note": "ON 12/24 AND 12/31, THIS BOX MAY BE COLLECTED AS EARLY AS 12 NOON.", "nsi_id": "unitedstatespostalservice-a77078", "operator": "United States Postal Service", "operator:short": "USPS", "operator:type": "public", "operator:wikidata": "Q668687", "ref": "8030200010"}, "type": "Feature"}
{"geometry": {"coordinates": [-105.277539, 40.003823], "type": "Point"}, "id": "5dC8bxpADwyBU55z1w_rAa2jbLU=", "properties": {"@source_uri": "https://tools.usps.com/UspsToolsRestServices/rest/POLocator/findLocations", "@spider": "usps_collection_boxes", "addr:city": "BOULDER", "addr:country": "US", "addr:postcode": "80302", "addr:state": "CO", "addr:street_address": "907 12TH ST", "amenity": "post_box", "collection_times": "Mo-Fr 14:00; Sa 11:05", "note": "ON 12/24 AND 12/31, THIS BOX MAY BE COLLECTED AS EARLY AS 12 NOON.", "nsi_id": "unitedstatespostalservice-a77078", "operator": "United States Postal Service", "operator:short": "USPS", "operator:type": "public", "operator:wikidata": "Q668687", "ref": "8030200012"}, "type": "Feature"}
{"geometry": {"coordinates": [-105.280317, 40.013343], "type": "Point"}, "id": "HF4Ji2o2dHFw9d2wRTfuXeLsCvw=", "properties": {"@source_uri": "https://tools.usps.com/UspsToolsRestServices/rest/POLocator/findLocations", "@spider": "usps_collection_boxes", "addr:city": "BOULDER", "addr:country": "US", "addr:postcode": "80302", "addr:state": "CO", "addr:street_address": "1050 ARAPAHOE AVE", "amenity": "post_box", "collection_times": "Mo-Sa 09:45", "nsi_id": "unitedstatespostalservice-a77078", "operator": "United States Postal Service", "operator:short": "USPS", "operator:type": "public", "operator:wikidata": "Q668687", "ref": "8030200013"}, "type": "Feature"}
{"geometry": {"coordinates": [-105.259415, 40.013552], "type": "Point"}, "id": "t51KNzE4COkgxFId0pImgdssIio=", "properties": {"@source_uri": "https://tools.usps.com/UspsToolsRestServices/rest/POLocator/findLocations", "@spider": "usps_collection_boxes", "addr:city": "BOULDER", "addr:country": "US", "addr:postcode": "80302", "addr:state": "CO", "addr:street_address": "2798 ARAPAHOE AVE", "amenity": "post_box", "collection_times": "Mo-Fr 15:00; Sa 12:05", "note": "ON 12/24 AND 12/31, THIS BOX MAY BE COLLECTED AS EARLY AS 12 NOON.", "nsi_id": "unitedstatespostalservice-a77078", "operator": "United States Postal Service", "operator:short": "USPS", "operator:type": "public", "operator:wikidata": "Q668687", "ref": "8030200019"}, "type": "Feature"}
{"geometry": {"coordinates": [-105.281252, 39.997686], "type": "Point"}, "id": "UoL_s_5fkwbUQrshwHnAf6nDSZU=", "properties": {"@source_uri": "https://tools.usps.com/UspsToolsRestServices/rest/POLocator/findLocations", "@spider": "usps_collection_boxes", "addr:city": "BOULDER", "addr:country": "US", "addr:postcode": "80302", "addr:state": "CO", "addr:street_address": "400 MORNING GLORY DR", "amenity": "post_box", "collection_times": "Mo-Sa 11:10", "nsi_id": "unitedstatespostalservice-a77078", "operator": "United States Postal Service", "operator:short": "USPS", "operator:type": "public", "operator:wikidata": "Q668687", "ref": "8030200021"}, "type": "Feature"}
{"geometry": {"coordinates": [-105.289058, 40.016119], "type": "Point"}, "id": "A2ZkV-IJOS70T3fsMWThWYld2sA=", "properties": {"@source_uri": "https://tools.usps.com/UspsToolsRestServices/rest/POLocator/findLocations", "@spider": "usps_collection_boxes", "addr:city": "BOULDER", "addr:country": "US", "addr:postcode": "80302", "addr:state": "CO", "addr:street_address": "2000 5TH ST", "amenity": "post_box", "collection_times": "Mo-Sa 10:00", "nsi_id": "unitedstatespostalservice-a77078", "operator": "United States Postal Service", "operator:short": "USPS", "operator:type": "public", "operator:wikidata": "Q668687", "ref": "8030200024"}, "type": "Feature"}
{"geometry": {"coordinates": [-105.282144, 40.016302], "type": "Point"}, "id": "4nb6NvxzwCWTwCPDoCFgut9bVmY=", "properties": {"@source_uri": "https://tools.usps.com/UspsToolsRestServices/rest/POLocator/findLocations", "@spider": "usps_collection_boxes", "addr:city": "BOULDER", "addr:country": "US", "addr:postcode": "80302", "addr:state": "CO", "addr:street_address": "990 WALNUT ST", "amenity": "post_box", "collection_times": "Mo-Sa 10:00", "nsi_id": "unitedstatespostalservice-a77078", "operator": "United States Postal Service", "operator:short": "USPS", "operator:type": "public", "operator:wikidata": "Q668687", "ref": "8030200025"}, "type": "Feature"}
{"geometry": {"coordinates": [-105.281371294, 40.016493662], "type": "Point"}, "id": "wQ1BA6cSaO8yfBOv9rHxisFbMMw=", "properties": {"@source_uri": "https://tools.usps.com/UspsToolsRestServices/rest/POLocator/findLocations", "@spider": "usps_collection_boxes", "addr:city": "BOULDER", "addr:country": "US", "addr:postcode": "80302", "addr:state": "CO", "addr:street_address": "1050 WALNUT ST", "amenity": "post_box", "collection_times": "Mo-Sa 09:45", "nsi_id": "unitedstatespostalservice-a77078", "operator": "United States Postal Service", "operator:short": "USPS", "operator:type": "public", "operator:wikidata": "Q668687", "ref": "8030200026"}, "type": "Feature"}
{"geometry": {"coordinates": [-105.263955, 40.023455], "type": "Point"}, "id": "KCy8O9QDDKSgJhObDvHRlclQbI8=", "properties": {"@source_uri": "https://tools.usps.com/UspsToolsRestServices/rest/POLocator/findLocations", "@spider": "usps_collection_boxes", "addr:city": "BOULDER", "addr:country": "US", "addr:postcode": "80302", "addr:state": "CO", "addr:street_address": "2449 PINE ST", "amenity": "post_box", "collection_times": "Mo-Fr 14:15; Sa 11:00", "note": "ON 12/24 AND 12/31, THIS BOX MAY BE COLLECTED AS EARLY AS 12 NOON.", "nsi_id": "unitedstatespostalservice-a77078", "operator": "United States Postal Service", "operator:short": "USPS", "operator:type": "public", "operator:wikidata": "Q668687", "ref": "8030200030"}, "type": "Feature"}
{"geometry": {"coordinates": [-105.277527, 40.00939], "type": "Point"}, "id": "TGw7fd-en-GZisPZVzxR1hW7qcY=", "properties": {"@source_uri": "https://tools.usps.com/UspsToolsRestServices/rest/POLocator/findLocations", "@spider": "usps_collection_boxes", "addr:city": "BOULDER", "addr:country": "US", "addr:postcode": "80302", "addr:state": "CO", "addr:street_address": "1146 PLEASANT ST", "amenity": "post_box", "collection_times": "Mo-Fr 12:30; Sa 11:05", "note": "ON 12/24 AND 12/31, THIS BOX MAY BE COLLECTED AS EARLY AS 12 NOON.", "nsi_id": "unitedstatespostalservice-a77078", "operator": "United States Postal Service", "operator:short": "USPS", "operator:type": "public", "operator:wikidata": "Q668687", "ref": "8030200031"}, "type": "Feature"}
{"geometry": {"coordinates": [-105.282911, 40.010611], "type": "Point"}, "id": "4SpvdZZ6JVUZXvOtFyMWhcNEtRQ=", "properties": {"@source_uri": "https://tools.usps.com/UspsToolsRestServices/rest/POLocator/findLocations", "@spider": "usps_collection_boxes", "addr:city": "BOULDER", "addr:country": "US", "addr:postcode": "80302", "addr:state": "CO", "addr:street_address": "1505 9TH ST", "amenity": "post_box", "collection_times": "Mo-Sa 11:00", "nsi_id": "unitedstatespostalservice-a77078", "operator": "United States Postal Service", "operator:short": "USPS", "operator:type": "public", "operator:wikidata": "Q668687", "ref": "8030200032"}, "type": "Feature"}
{"geometry": {"coordinates": [-105.283666, 40.017073], "type": "Point"}, "id": "eVVParNTSOZDkE2fMPxKSCGdVn0=", "properties": {"@source_uri": "https://tools.usps.com/UspsToolsRestServices/rest/POLocator/findLocations", "@spider": "usps_collection_boxes", "addr:city": "BOULDER", "addr:country": "US", "addr:postcode": "80302", "addr:state": "CO", "addr:street_address": "915 PEARL ST", "amenity": "post_box", "collection_times": "Mo-Sa 10:00", "nsi_id": "unitedstatespostalservice-a77078", "operator": "United States Postal Service", "operator:short": "USPS", "operator:type": "public", "operator:wikidata": "Q668687", "ref": "8030200033"}, "type": "Feature"}
{"geometry": {"coordinates": [-105.263869, 40.01262], "type": "Point"}, "id": "qQy4X9Y3cg5SW4HMY2YgIEHuehA=", "properties": {"@source_uri": "https://tools.usps.com/UspsToolsRestServices/rest/POLocator/findLocations", "@spider": "usps_collection_boxes", "addr:city": "BOULDER", "addr:country": "US", "addr:postcode": "80302", "addr:state": "CO", "addr:street_address": "1475 FOLSOM ST", "amenity": "post_box", "collection_times": "Mo-Fr 14:45; Sa 12:05", "note": "ON 12/24 AND 12/31, THIS BOX MAY BE COLLECTED AS EARLY AS 12 NOON.", "nsi_id": "unitedstatespostalservice-a77078", "operator": "United States Postal Service", "operator:short": "USPS", "operator:type": "public", "operator:wikidata": "Q668687", "ref": "8030200038"}, "type": "Feature"}
{"geometry": {"coordinates": [-105.287206, 40.014717], "type": "Point"}, "id": "kAg0SqZvgMH5KyWhpSdpB6gHZb4=", "properties": {"@source_uri": "https://tools.usps.com/UspsToolsRestServices/rest/POLocator/findLocations", "@spider": "usps_collection_boxes", "addr:city": "BOULDER", "addr:country": "US", "addr:postcode": "80302", "addr:state": "CO", "addr:street_address": "1777 6TH ST", "amenity": "post_box", "collection_times": "Mo-Fr 10:00", "nsi_id": "unitedstatespostalservice-a77078", "operator": "United States Postal Service", "operator:short": "USPS", "operator:type": "public", "operator:wikidata": "Q668687", "ref": "8030200040"}, "type": "Feature"}
{"geometry": {"coordinates": [-105.284533, 40.015825], "type": "Point"}, "id": "TLnNV54FBLm6HJr8VZm0mz0JxEI=", "properties": {"@source_uri": "https://tools.usps.com/UspsToolsRestServices/rest/POLocator/findLocations", "@spider": "usps_collection_boxes", "addr:city": "BOULDER", "addr:country": "US", "addr:postcode": "80302", "addr:state": "CO", "addr:street_address": "1881 9TH ST", "amenity": "post_box", "collection_times": "Mo-Sa 10:00", "nsi_id": "unitedstatespostalservice-a77078", "operator": "United States Postal Service", "operator:short": "USPS", "operator:type": "public", "operator:wikidata": "Q668687", "ref": "8030200042"}, "type": "Feature"}
{"geometry": {"coordinates": [-105.279286716, 40.015695577], "type": "Point"}, "id": "nRGyYZ4IDE9RyIXgMxW4_zWyUSE=", "properties": {"@source_uri": "https://tools.usps.com/UspsToolsRestServices/rest/POLocator/findLocations", "@spider": "usps_collection_boxes", "addr:city": "BOULDER", "addr:country": "US", "addr:postcode": "80302", "addr:state": "CO", "addr:street_address": "1777 BROADWAY ST", "amenity": "post_box", "collection_times": "Mo-Fr 10:00", "nsi_id": "unitedstatespostalservice-a77078", "operator": "United States Postal Service", "operator:short": "USPS", "operator:type": "public", "operator:wikidata": "Q668687", "ref": "8030200043"}, "type": "Feature"}
{"geometry": {"coordinates": [-105.276042, 40.010397], "type": "Point"}, "id": "99lYQuG3dQ_8_nZrYwRBu2hqAJE=", "properties": {"@source_uri": "https://tools.usps.com/UspsToolsRestServices/rest/POLocator/findLocations", "@spider": "usps_collection_boxes", "addr:city": "BOULDER", "addr:country": "US", "addr:postcode": "80302", "addr:state": "CO", "addr:street_address": "1202 UNIVERSITY AVE", "amenity": "post_box", "collection_times": "Mo-Fr 14:30", "note": "ON 12/24 AND 12/31, THIS BOX MAY BE COLLECTED AS EARLY AS 12 NOON.", "nsi_id": "unitedstatespostalservice-a77078", "operator": "United States Postal Service", "operator:short": "USPS", "operator:type": "public", "operator:wikidata": "Q668687", "ref": "8030200044"}, "type": "Feature"}
{"geometry": {"coordinates": [-105.26631, 40.004482], "type": "Point"}, "id": "ZIAKcyqpTubdaJCUzvGVuS9hOGc=", "properties": {"@source_uri": "https://tools.usps.com/UspsToolsRestServices/rest/POLocator/findLocations", "@spider": "usps_collection_boxes", "addr:city": "BOULDER", "addr:country": "US", "addr:postcode": "80302", "addr:state": "CO", "addr:street_address": "125 REGENT DR", "amenity": "post_box", "collection_times": "Mo-Fr 15:00", "note": "ON 12/24 AND 12/31, THIS BOX MAY BE COLLECTED AS EARLY AS 12 NOON.", "nsi_id": "unitedstatespostalservice-a77078", "operator": "United States Postal Service", "operator:short": "USPS", "operator:type": "public", "operator:wikidata": "Q668687", "ref": "8030200045"}, "type": "Feature"}
{"geometry": {"coordinates": [-105.266997, 40.008151], "type": "Point"}, "id": "9CAhng-L2MssxMzK6G5dU4FX57A=", "properties": {"@source_uri": "https://tools.usps.com/UspsToolsRestServices/rest/POLocator/findLocations", "@spider": "usps_collection_boxes", "addr:city": "BOULDER", "addr:country": "US", "addr:postcode": "80302", "addr:state": "CO", "addr:street_address": "2300 COLORADO AVE", "amenity": "post_box", "collection_times": "Mo-Fr 15:00", "note": "ON 12/24 AND 12/31, THIS BOX MAY BE COLLECTED AS EARLY AS 12 NOON.", "nsi_id": "unitedstatespostalservice-a77078", "operator": "United States Postal Service", "operator:short": "USPS", "operator:type": "public", "operator:wikidata": "Q668687", "ref": "8030200050"}, "type": "Feature"}
{"geometry": {"coordinates": [-105.275579, 40.007381], "type": "Point"}, "id": "9_djPn2FuNwLpzl7SpfGbALtEmI=", "properties": {"@source_uri": "https://tools.usps.com/UspsToolsRestServices/rest/POLocator/findLocations", "@spider": "usps_collection_boxes", "addr:city": "BOULDER", "addr:country": "US", "addr:postcode": "80302", "addr:state": "CO", "addr:street_address": "1111 BROADWAY ST", "amenity": "post_box", "collection_times": "Mo-Fr 14:15; Sa 11:30", "note": "ON 12/24 AND 12/31, THIS BOX MAY BE COLLECTED AS EARLY AS 12 NOON.", "nsi_id": "unitedstatespostalservice-a77078", "operator": "United States Postal Service", "operator:short": "USPS", "operator:type": "public", "operator:wikidata": "Q668687", "ref": "8030200053"}, "type": "Feature"}
{"geometry": {"coordinates": [-105.276418, 40.018056], "type": "Point"}, "id": "NgC7JHo27xOlVZcffzznfe_keHo=", "properties": {"@source_uri": "https://tools.usps.com/UspsToolsRestServices/rest/POLocator/findLocations", "@spider": "usps_collection_boxes", "addr:city": "BOULDER", "addr:country": "US", "addr:postcode": "80302", "addr:state": "CO", "addr:street_address": "1905 15TH ST", "amenity": "post_box", "collection_times": "Mo-Fr 17:15; Sa 16:30", "note": "ON 12/24 AND 12/31, THIS BOX MAY BE COLLECTED AS EARLY AS 12 NOON.", "nsi_id": "unitedstatespostalservice-a77078", "operator": "United States Postal Service", "operator:short": "USPS", "operator:type": "public", "operator:wikidata": "Q668687", "ref": "8030200057"}, "type": "Feature"}
{"geometry": {"coordinates": [-105.276418, 40.018056], "type": "Point"}, "id": "l-TM2MX72nmlAIVXeU2yTusmbRU=", "properties": {"@source_uri": "https://tools.usps.com/UspsToolsRestServices/rest/POLocator/findLocations", "@spider": "usps_collection_boxes", "addr:city": "BOULDER", "addr:country": "US", "addr:postcode": "80302", "addr:state": "CO", "addr:street_address": "1905 15TH ST", "amenity": "post_box", "collection_times": "Mo-Fr 17:15; Sa 16:30", "note": "ON 12/24 AND 12/31, THIS BOX MAY BE COLLECTED AS EARLY AS 12 NOON.", "nsi_id": "unitedstatespostalservice-a77078", "operator": "United States Postal Service", "operator:short": "USPS", "operator:type": "public", "operator:wikidata": "Q668687", "ref": "8030200058"}, "type": "Feature"}
{"geometry": {"coordinates": [-105.276418, 40.018056], "type": "Point"}, "id": "HECuoiBQH2dZ22OrWD3YEDFT45g=", "properties": {"@source_uri": "https://tools.usps.com/UspsToolsRestServices/rest/POLocator/findLocations", "@spider": "usps_collection_boxes", "addr:city": "BOULDER", "addr:country": "US", "addr:postcode": "80302", "addr:state": "CO", "addr:street_address": "1905 15TH ST", "amenity": "post_box", "collection_times": "Mo-Fr 17:15; Sa 16:30", "indoor": "yes", "note": "ON 12/24 AND 12/31, THIS BOX MAY BE COLLECTED AS EARLY AS 12 NOON.", "nsi_id": "unitedstatespostalservice-a77078", "operator": "United States Postal Service", "operator:short": "USPS", "operator:type": "public", "operator:wikidata": "Q668687", "ref": "8030200060"}, "type": "Feature"}
{"geometry": {"coordinates": [-105.276418, 40.018056], "type": "Point"}, "id": "x_d0KkXpCobF2ell1RFmUQ_x-Y8=", "properties": {"@source_uri": "https://tools.usps.com/UspsToolsRestServices/rest/POLocator/findLocations", "@spider": "usps_collection_boxes", "addr:city": "BOULDER", "addr:country": "US", "addr:postcode": "80302", "addr:state": "CO", "addr:street_address": "1905 15TH ST", "amenity": "post_box", "collection_times": "Mo-Fr 17:15; Sa 16:30", "indoor": "yes", "note": "ON 12/24 AND 12/31, THIS BOX MAY BE COLLECTED AS EARLY AS 12 NOON.", "nsi_id": "unitedstatespostalservice-a77078", "operator": "United States Postal Service", "operator:short": "USPS", "operator:type": "public", "operator:wikidata": "Q668687", "ref": "8030200061"}, "type": "Feature"}
{"geometry": {"coordinates": [-105.276296, 40.000148], "type": "Point"}, "id": "PeuK4rMaU9xROxg2QEEZdEjAxyU=", "properties": {"@source_uri": "https://tools.usps.com/UspsToolsRestServices/rest/POLocator/findLocations", "@spider": "usps_collection_boxes", "addr:city": "BOULDER", "addr:country": "US", "addr:postcode": "80302", "addr:state": "CO", "addr:street_address": "720 13TH ST", "amenity": "post_box", "collection_times": "Mo-Sa 11:00", "nsi_id": "unitedstatespostalservice-a77078", "operator": "United States Postal Service", "operator:short": "USPS", "operator:type": "public", "operator:wikidata": "Q668687", "ref": "8030200067"}, "type": "Feature"}
{"geometry": {"coordinates": [-105.276087, 40.008577], "type": "Point"}, "id": "C-Sjw-TzxhqWlLboHRNEL6YvqL0=", "properties": {"@source_uri": "https://tools.usps.com/UspsToolsRestServices/rest/POLocator/findLocations", "@spider": "usps_collection_boxes", "addr:city": "BOULDER", "addr:country": "US", "addr:postcode": "80302", "addr:state": "CO", "addr:street_address": "1198 13TH ST", "amenity": "post_box", "collection_times": "Mo-Fr 14:30; Sa 11:35", "note": "ON 12/24 AND 12/31, THIS BOX MAY BE COLLECTED AS EARLY AS 12 NOON.", "nsi_id": "unitedstatespostalservice-a77078", "operator": "United States Postal Service", "operator:short": "USPS", "operator:type": "public", "operator:wikidata": "Q668687", "ref": "8030200069"}, "type": "Feature"}
{"geometry": {"coordinates": [-105.276418, 40.018056], "type": "Point"}, "id": "AvpYXz1tB43fbSeoalBs6vEAyHk=", "properties": {"@source_uri": "https://tools.usps.com/UspsToolsRestServices/rest/POLocator/findLocations", "@spider": "usps_collection_boxes", "addr:city": "BOULDER", "addr:country": "US", "addr:postcode": "80302", "addr:state": "CO", "addr:street_address": "1905 15TH ST", "amenity": "post_box", "collection_times": "Mo-Fr 17:15; Sa 16:30", "indoor": "yes", "note": "ON 12/24 AND 12/31, THIS BOX MAY BE COLLECTED AS EARLY AS 12 NOON.", "nsi_id": "unitedstatespostalservice-a77078", "operator": "United States Postal Service", "operator:short": "USPS", "operator:type": "public", "operator:wikidata": "Q668687", "ref": "8030200072"}, "type": "Feature"}
{"geometry": {"coordinates": [-105.276418, 40.018056], "type": "Point"}, "id": "ldIPQHS42wrtMd4M4cL4Mix6iAk=", "properties": {"@source_uri": "https://tools.usps.com/UspsToolsRestServices/rest/POLocator/findLocations", "@spider": "usps_collection_boxes", "addr:city": "BOULDER", "addr:country": "US", "addr:postcode": "80302", "addr:state": "CO", "addr:street_address": "1905 15TH ST", "amenity": "post_box", "collection_times": "Mo-Fr 17:15; Sa 16:30", "indoor": "yes", "note": "ON 12/24 AND 12/31, THIS BOX MAY BE COLLECTED AS EARLY AS 12 NOON.", "nsi_id": "unitedstatespostalservice-a77078", "operator": "United States Postal Service", "operator:short": "USPS", "operator:type": "public", "operator:wikidata": "Q668687", "ref": "8030200073"}, "type": "Feature"}
{"geometry": {"coordinates": [-105.276418, 40.018056], "type": "Point"}, "id": "clzuADVuYMaP0wWsqzmOIEc9FWA=", "properties": {"@source_uri": "https://tools.usps.com/UspsToolsRestServices/rest/POLocator/findLocations", "@spider": "usps_collection_boxes", "addr:city": "BOULDER", "addr:country": "US", "addr:postcode": "80302", "addr:state": "CO", "addr:street_address": "1905 15TH ST", "amenity": "post_box", "collection_times": "Mo-Fr 17:15; Sa 16:30", "indoor": "yes", "note": "ON 12/24 AND 12/31, THIS BOX MAY BE COLLECTED AS EARLY AS 12 NOON.", "nsi_id": "unitedstatespostalservice-a77078", "operator": "United States Postal Service", "operator:short": "USPS", "operator:type": "public", "operator:wikidata": "Q668687", "ref": "8030200074"}, "type": "Feature"}
{"geometry": {"coordinates": [-105.276418, 40.018056], "type": "Point"}, "id": "qeBxcp2u5InkkunbiXEp931faSA=", "properties": {"@source_uri": "https://tools.usps.com/UspsToolsRestServices/rest/POLocator/findLocations", "@spider": "usps_collection_boxes", "addr:city": "BOULDER", "addr:country": "US", "addr:postcode": "80302", "addr:state": "CO", "addr:street_address": "1905 15TH ST", "amenity": "post_box", "collection_times": "Mo-Fr 17:15; Sa 16:30", "name": "USPS COLLECTION BOX - APC", "note": "ON 12/24 AND 12/31, THIS BOX MAY BE COLLECTED AS EARLY AS 12 NOON.", "nsi_id": "unitedstatespostalservice-a77078", "operator": "United States Postal Service", "operator:short": "USPS", "operator:type": "public", "operator:wikidata": "Q668687", "ref": "8030200075"}, "type": "Feature"}
{"geometry": {"coordinates": [-105.293674, 40.015046], "type": "Point"}, "id": "iialSGpXGlCAe4Fl8icqfACRUaM=", "properties": {"@source_uri": "https://tools.usps.com/UspsToolsRestServices/rest/POLocator/findLocations", "@spider": "usps_collection_boxes", "addr:city": "BOULDER", "addr:country": "US", "addr:postcode": "80302", "addr:state": "CO", "addr:street_address": "208 PEARL ST", "amenity": "post_box", "collection_times": "Mo-Fr 10:00", "nsi_id": "unitedstatespostalservice-a77078", "operator": "United States Postal Service", "operator:short": "USPS", "operator:type": "public", "operator:wikidata": "Q668687", "ref": "8030200076"}, "type": "Feature"}
{"geometry": {"coordinates": [-105.277568213, 40.016145344], "type": "Point"}, "id": "NDBjLGUHEJ4fdCbvcs9mREvGT1w=", "properties": {"@source_uri": "https://tools.usps.com/UspsToolsRestServices/rest/POLocator/findLocations", "@spider": "usps_collection_boxes", "addr:city": "BOULDER", "addr:country": "US", "addr:postcode": "80302", "addr:state": "CO", "addr:street_address": "1300 CANYON BLVD", "amenity": "post_box", "collection_times": "Mo-Fr 09:45", "nsi_id": "unitedstatespostalservice-a77078", "operator": "United States Postal Service", "operator:short": "USPS", "operator:type": "public", "operator:wikidata": "Q668687", "ref": "8030200077"}, "type": "Feature"}
{"geometry": {"coordinates": [-105.258198, 40.008785], "type": "Point"}, "id": "ZKyHyaNxi1vW2LailawWIej4Gc0=", "properties": {"@source_uri": "https://tools.usps.com/UspsToolsRestServices/rest/POLocator/findLocations", "@spider": "usps_collection_boxes", "addr:city": "BOULDER", "addr:country": "US", "addr:postcode": "80303", "addr:state": "CO", "addr:street_address": "2801 PENNSYLVANIA AVE", "amenity": "post_box", "collection_times": "Mo-Sa 10:00", "nsi_id": "unitedstatespostalservice-a77078", "operator": "United States Postal Service", "operator:short": "USPS", "operator:type": "public", "operator:wikidata": "Q668687", "ref": "8030300000"}, "type": "Feature"}
{"geometry": {"coordinates": [-105.253199, 39.99895], "type": "Point"}, "id": "s6W55aOs65DidbfBqXDSJSRJybA=", "properties": {"@source_uri": "https://tools.usps.com/UspsToolsRestServices/rest/POLocator/findLocations", "@spider": "usps_collection_boxes", "addr:city": "BOULDER", "addr:country": "US", "addr:postcode": "80303", "addr:state": "CO", "addr:street_address": "645 30TH ST", "amenity": "post_box", "collection_times": "Mo-Fr 12:00; Sa 10:20", "nsi_id": "unitedstatespostalservice-a77078", "operator": "United States Postal Service", "operator:short": "USPS", "operator:type": "public", "operator:wikidata": "Q668687", "ref": "8030300001"}, "type": "Feature"}
{"geometry": {"coordinates": [-105.2288646, 39.9965037], "type": "Point"}, "id": "2mjhHd05kLDIdY3JC9uidQuSPOg=", "properties": {"@source_uri": "https://tools.usps.com/UspsToolsRestServices/rest/POLocator/findLocations", "@spider": "usps_collection_boxes", "addr:city": "BOULDER", "addr:country": "US", "addr:postcode": "80303", "addr:state": "CO", "addr:street_address": "1300 30TH ST", "amenity": "post_box", "collection_times": "Mo-Fr 12:00; Sa 10:25", "nsi_id": "unitedstatespostalservice-a77078", "operator": "United States Postal Service", "operator:short": "USPS", "operator:type": "public", "operator:wikidata": "Q668687", "ref": "8030300002"}, "type": "Feature"}
{"geometry": {"coordinates": [-105.252585, 40.012968], "type": "Point"}, "id": "tTgrZRLnSLj4FQmG7605jkO7Z6c=", "properties": {"@source_uri": "https://tools.usps.com/UspsToolsRestServices/rest/POLocator/findLocations", "@spider": "usps_collection_boxes", "addr:city": "BOULDER", "addr:country": "US", "addr:postcode": "80303", "addr:state": "CO", "addr:street_address": "1560 30TH ST", "amenity": "post_box", "collection_times": "Mo-Fr 12:45; Sa 10:25", "note": "ON 12/24 AND 12/31, THIS BOX MAY BE COLLECTED AS EARLY AS 12 NOON.", "nsi_id": "unitedstatespostalservice-a77078", "operator": "United States Postal Service", "operator:short": "USPS", "operator:type": "public", "operator:wikidata": "Q668687", "ref": "8030300003"}, "type": "Feature"}
{"geometry": {"coordinates": [-105.220325, 40.016004], "type": "Point"}, "id": "w71PY1rCtHxn0hAyGj2_yIdx5K4=", "properties": {"@source_uri": "https://tools.usps.com/UspsToolsRestServices/rest/POLocator/findLocations", "@spider": "usps_collection_boxes", "addr:city": "BOULDER", "addr:country": "US", "addr:postcode": "80303", "addr:state": "CO", "addr:street_address": "5721 ARAPAHOE AVE", "amenity": "post_box", "collection_times": "Mo-Fr 13:00; Sa 11:30", "note": "ON 12/24 AND 12/31, THIS BOX MAY BE COLLECTED AS EARLY AS 12 NOON.", "nsi_id": "unitedstatespostalservice-a77078", "operator": "United States Postal Service", "operator:short": "USPS", "operator:type": "public", "operator:wikidata": "Q668687", "ref": "8030300005"}, "type": "Feature"}
{"geometry": {"coordinates": [-105.178671, 40.014156], "type": "Point"}, "id": "GhkQ998QSWjyoMvXVi17FCnPvKM=", "properties": {"@source_uri": "https://tools.usps.com/UspsToolsRestServices/rest/POLocator/findLocations", "@spider": "usps_collection_boxes", "addr:city": "BOULDER", "addr:country": "US", "addr:postcode": "80303", "addr:state": "CO", "addr:street_address": "7498 ARAPAHOE RD", "amenity": "post_box", "collection_times": "Mo-Sa 11:00", "nsi_id": "unitedstatespostalservice-a77078", "operator": "United States Postal Service", "operator:short": "USPS", "operator:type": "public", "operator:wikidata": "Q668687", "ref": "8030300006"}, "type": "Feature"}
{"geometry": {"coordinates": [-105.233367, 39.99795], "type": "Point"}, "id": "RetSe_J9unYWkXmFVe5Oh0fTfI0=", "properties": {"@source_uri": "https://tools.usps.com/UspsToolsRestServices/rest/POLocator/findLocations", "@spider": "usps_collection_boxes", "addr:city": "BOULDER", "addr:country": "US", "addr:postcode": "80303", "addr:state": "CO", "addr:street_address": "4800 BASELINE RD", "amenity": "post_box", "collection_times": "Mo-Fr 11:30; Sa 10:00", "nsi_id": "unitedstatespostalservice-a77078", "operator": "United States Postal Service", "operator:short": "USPS", "operator:type": "public", "operator:wikidata": "Q668687", "ref": "8030300007"}, "type": "Feature"}
{"geometry": {"coordinates": [-105.2327228747, 40.0125834659], "type": "Point"}, "id": "2fgrcjEq8KL70-vYW458_oXzMvY=", "properties": {"@source_uri": "https://tools.usps.com/UspsToolsRestServices/rest/POLocator/findLocations", "@spider": "usps_collection_boxes", "addr:city": "BOULDER", "addr:country": "US", "addr:postcode": "80303", "addr:state": "CO", "addr:street_address": "4947 EISENHOWER DR", "amenity": "post_box", "collection_times": "Mo-Sa 12:00", "nsi_id": "unitedstatespostalservice-a77078", "operator": "United States Postal Service", "operator:short": "USPS", "operator:type": "public", "operator:wikidata": "Q668687", "ref": "8030300010"}, "type": "Feature"}
{"geometry": {"coordinates": [-105.228674, 39.985578], "type": "Point"}, "id": "UGNf6DDqvLeX69MrDwk87SrElUQ=", "properties": {"@source_uri": "https://tools.usps.com/UspsToolsRestServices/rest/POLocator/findLocations", "@spider": "usps_collection_boxes", "addr:city": "BOULDER", "addr:country": "US", "addr:postcode": "80303", "addr:state": "CO", "addr:street_address": "5200 MANHATTAN CIR", "amenity": "post_box", "collection_times": "Mo-Fr 11:00; Sa 10:15", "nsi_id": "unitedstatespostalservice-a77078", "operator": "United States Postal Service", "operator:short": "USPS", "operator:type": "public", "operator:wikidata": "Q668687", "ref": "8030300011"}, "type": "Feature"}
{"geometry": {"coordinates": [-105.22944, 39.99869], "type": "Point"}, "id": "qrYHCdnw9f4tu7OX1zLTIzexqnA=", "properties": {"@source_uri": "https://tools.usps.com/UspsToolsRestServices/rest/POLocator/findLocations", "@spider": "usps_collection_boxes", "addr:city": "BOULDER", "addr:country": "US", "addr:postcode": "80303", "addr:state": "CO", "addr:street_address": "665 MANHATTAN DR", "amenity": "post_box", "collection_times": "Mo-Sa 11:30", "nsi_id": "unitedstatespostalservice-a77078", "operator": "United States Postal Service", "operator:short": "USPS", "operator:type": "public", "operator:wikidata": "Q668687", "ref": "8030300012"}, "type": "Feature"}
{"geometry": {"coordinates": [-105.260063, 40.036926], "type": "Point"}, "id": "EH_42FqHCqfiMMh5T_-MdR_1J4M=", "properties": {"@source_uri": "https://tools.usps.com/UspsToolsRestServices/rest/POLocator/findLocations", "@spider": "usps_collection_boxes", "addr:city": "BOULDER", "addr:country": "US", "addr:postcode": "80304", "addr:state": "CO", "addr:street_address": "2709 IRIS AVE", "amenity": "post_box", "collection_times": "Mo-Sa 10:00", "nsi_id": "unitedstatespostalservice-a77078", "operator": "United States Postal Service", "operator:short": "USPS", "operator:type": "public", "operator:wikidata": "Q668687", "ref": "8030400000"}, "type": "Feature"}
{"geometry": {"coordinates": [-105.281571, 40.047506], "type": "Point"}, "id": "YkWJXd7dnGHfAaIflq52z6-Zbgg=", "properties": {"@source_uri": "https://tools.usps.com/UspsToolsRestServices/rest/POLocator/findLocations", "@spider": "usps_collection_boxes", "addr:city": "BOULDER", "addr:country": "US", "addr:postcode": "80304", "addr:state": "CO", "addr:street_address": "3960 BROADWAY ST", "amenity": "post_box", "collection_times": "Mo-Sa 11:00", "nsi_id": "unitedstatespostalservice-a77078", "operator": "United States Postal Service", "operator:short": "USPS", "operator:type": "public", "operator:wikidata": "Q668687", "ref": "8030400001"}, "type": "Feature"}
{"geometry": {"coordinates": [-105.2782251, 40.0390754], "type": "Point"}, "id": "ilvlclS6sELTQTVaLzx9PSdo_h8=", "properties": {"@source_uri": "https://tools.usps.com/UspsToolsRestServices/rest/POLocator/findLocations", "@spider": "usps_collection_boxes", "addr:city": "BOULDER", "addr:country": "US", "addr:postcode": "80304", "addr:state": "CO", "addr:street_address": "4192 AMBER PL", "amenity": "post_box", "collection_times": "Mo-Fr 12:45; Sa 11:35", "note": "ON 12/24 AND 12/31, THIS BOX MAY BE COLLECTED AS EARLY AS 12 NOON.", "nsi_id": "unitedstatespostalservice-a77078", "operator": "United States Postal Service", "operator:short": "USPS", "operator:type": "public", "operator:wikidata": "Q668687", "ref": "8030400002"}, "type": "Feature"}
{"geometry": {"coordinates": [-105.285977, 40.025475], "type": "Point"}, "id": "fnYU8sxaLOBXlCDdxtzN744SZnQ=", "properties": {"@source_uri": "https://tools.usps.com/UspsToolsRestServices/rest/POLocator/findLocations", "@spider": "usps_collection_boxes", "addr:city": "BOULDER", "addr:country": "US", "addr:postcode": "80304", "addr:state": "CO", "addr:street_address": "880 ALPINE AVE", "amenity": "post_box", "collection_times": "Mo-Fr 13:00; Sa 11:20", "note": "ON 12/24 AND 12/31, THIS BOX MAY BE COLLECTED AS EARLY AS 12 NOON.", "nsi_id": "unitedstatespostalservice-a77078", "operator": "United States Postal Service", "operator:short": "USPS", "operator:type": "public", "operator:wikidata": "Q668687", "ref": "8030400003"}, "type": "Feature"}
{"geometry": {"coordinates": [-105.266055, 40.029166], "type": "Point"}, "id": "1iblMtpDSPWIGbdRbdc9PmKa7Xc=", "properties": {"@source_uri": "https://tools.usps.com/UspsToolsRestServices/rest/POLocator/findLocations", "@spider": "usps_collection_boxes", "addr:city": "BOULDER", "addr:country": "US", "addr:postcode": "80304", "addr:state": "CO", "addr:street_address": "2987 23RD ST", "amenity": "post_box", "collection_times": "Mo-Fr 12:30; Sa 11:00", "note": "ON 12/24 AND 12/31, THIS BOX MAY BE COLLECTED AS EARLY AS 12 NOON.", "nsi_id": "unitedstatespostalservice-a77078", "operator": "United States Postal Service", "operator:short": "USPS", "operator:type": "public", "operator:wikidata": "Q668687", "ref": "8030400004"}, "type": "Feature"}
{"geometry": {"coordinates": [-105.281123, 40.036523], "type": "Point"}, "id": "kOdrz0WG3qJceFCMYX6yTTrtB34=", "properties": {"@source_uri": "https://tools.usps.com/UspsToolsRestServices/rest/POLocator/findLocations", "@spider": "usps_collection_boxes", "addr:city": "BOULDER", "addr:country": "US", "addr:postcode": "80304", "addr:state": "CO", "addr:street_address": "1333 IRIS AVE", "amenity": "post_box", "collection_times": "Mo-Sa 10:00", "nsi_id": "unitedstatespostalservice-a77078", "operator": "United States Postal Service", "operator:short": "USPS", "operator:type": "public", "operator:wikidata": "Q668687", "ref": "8030400005"}, "type": "Feature"}
{"geometry": {"coordinates": [-105.261794, 40.027362], "type": "Point"}, "id": "9lR0-rr6dZ4X5enuIfffM1LKJXk=", "properties": {"@source_uri": "https://tools.usps.com/UspsToolsRestServices/rest/POLocator/findLocations", "@spider": "usps_collection_boxes", "addr:city": "BOULDER", "addr:country": "US", "addr:postcode": "80304", "addr:state": "CO", "addr:street_address": "2635 MAPLETON AVE", "amenity": "post_box", "collection_times": "Mo-Sa 10:00", "nsi_id": "unitedstatespostalservice-a77078", "operator": "United States Postal Service", "operator:short": "USPS", "operator:type": "public", "operator:wikidata": "Q668687", "ref": "8030400006"}, "type": "Feature"}
{"geometry": {"coordinates": [-105.2782251, 40.0390754], "type": "Point"}, "id": "lJzqu79JLm7z760P5WIS6hZai-4=", "properties": {"@source_uri": "https://tools.usps.com/UspsToolsRestServices/rest/POLocator/findLocations", "@spider": "usps_collection_boxes", "addr:city": "BOULDER", "addr:country": "US", "addr:postcode": "80304", "addr:state": "CO", "addr:street_address": "4500 19TH ST", "amenity": "post_box", "collection_times": "Mo-Sa 10:00", "nsi_id": "unitedstatespostalservice-a77078", "operator": "United States Postal Service", "operator:short": "USPS", "operator:type": "public", "operator:wikidata": "Q668687", "ref": "8030400007"}, "type": "Feature"}
{"geometry": {"coordinates": [-105.2835049598, 40.0648949808], "type": "Point"}, "id": "-s8-I9lKPEA-ocKbr-1MgFY0gyY=", "properties": {"@source_uri": "https://tools.usps.com/UspsToolsRestServices/rest/POLocator/findLocations", "@spider": "usps_collection_boxes", "addr:city": "BOULDER", "addr:country": "US", "addr:postcode": "80304", "addr:state": "CO", "addr:street_address": "4949 BROADWAY ST", "amenity": "post_box", "collection_times": "Mo-Sa 11:35", "nsi_id": "unitedstatespostalservice-a77078", "operator": "United States Postal Service", "operator:short": "USPS", "operator:type": "public", "operator:wikidata": "Q668687", "ref": "8030400008"}, "type": "Feature"}
{"geometry": {"coordinates": [-105.291526868, 40.022028], "type": "Point"}, "id": "hlRhuCAIAmBIj2UIbHFV2JxSiIQ=", "properties": {"@source_uri": "https://tools.usps.com/UspsToolsRestServices/rest/POLocator/findLocations", "@spider": "usps_collection_boxes", "addr:city": "BOULDER", "addr:country": "US", "addr:postcode": "80304", "addr:state": "CO", "addr:street_address": "2505 4TH STREET", "amenity": "post_box", "collection_times": "Mo-Fr 14:00; Sa 11:15", "note": "ON 12/24 AND 12/31, THIS BOX MAY BE COLLECTED AS EARLY AS 12 NOON.", "nsi_id": "unitedstatespostalservice-a77078", "operator": "United States Postal Service", "operator:short": "USPS", "operator:type": "public", "operator:wikidata": "Q668687", "ref": "8030400010"}, "type": "Feature"}
{"geometry": {"coordinates": [-105.2814399941, 40.0260079792], "type": "Point"}, "id": "jEq6tJk2kScv82Qr9_tY2s4CqkM=", "properties": {"@source_uri": "https://tools.usps.com/UspsToolsRestServices/rest/POLocator/findLocations", "@spider": "usps_collection_boxes", "addr:city": "BOULDER", "addr:country": "US", "addr:postcode": "80304", "addr:state": "CO", "addr:street_address": "2700 BROADWAY ST", "amenity": "post_box", "collection_times": "Mo-Fr 17:00; Sa 13:45", "note": "ON 12/24 AND 12/31, THIS BOX MAY BE COLLECTED AS EARLY AS 12 NOON.", "nsi_id": "unitedstatespostalservice-a77078", "operator": "United States Postal Service", "operator:short": "USPS", "operator:type": "public", "operator:wikidata": "Q668687", "ref": "8030400011"}, "type": "Feature"}
{"geometry": {"coordinates": [-105.2811675, 40.02534], "type": "Point"}, "id": "IymrsTH2mt-JYhTkLsWrjH1M1xE=", "properties": {"@source_uri": "https://tools.usps.com/UspsToolsRestServices/rest/POLocator/findLocations", "@spider": "usps_collection_boxes", "addr:city": "BOULDER", "addr:country": "US", "addr:postcode": "80304", "addr:state": "CO", "addr:street_address": "2690 BROADWAY ST", "amenity": "post_box", "collection_times": "Mo-Fr 13:45; Sa 11:25", "note": "ON 12/24 AND 12/31, THIS BOX MAY BE COLLECTED AS EARLY AS 12 NOON.", "nsi_id": "unitedstatespostalservice-a77078", "operator": "United States Postal Service", "operator:short": "USPS", "operator:type": "public", "operator:wikidata": "Q668687", "ref": "8030400013"}, "type": "Feature"}
{"geometry": {"coordinates": [-105.24841, 39.98384], "type": "Point"}, "id": "MVC-49iWKV2I4Y0JGQv2AAGs0Ag=", "properties": {"@source_uri": "https://tools.usps.com/UspsToolsRestServices/rest/POLocator/findLocations", "@spider": "usps_collection_boxes", "addr:city": "BOULDER", "addr:country": "US", "addr:postcode": "80305", "addr:state": "CO", "addr:street_address": "657 S BROADWAY ST", "amenity": "post_box", "collection_times": "Mo-Sa 09:15", "nsi_id": "unitedstatespostalservice-a77078", "operator": "United States Postal Service", "operator:short": "USPS", "operator:type": "public", "operator:wikidata": "Q668687", "ref": "8030500006"}, "type": "Feature"}
{"geometry": {"coordinates": [-105.237646, 39.98659], "type": "Point"}, "id": "6OXZAkZsBkJXKEaLnFDKLoRL9q0=", "properties": {"@source_uri": "https://tools.usps.com/UspsToolsRestServices/rest/POLocator/findLocations", "@spider": "usps_collection_boxes", "addr:city": "BOULDER", "addr:country": "US", "addr:postcode": "80305", "addr:state": "CO", "addr:street_address": "4985 MOORHEAD AVE", "amenity": "post_box", "collection_times": "Mo-Fr 17:00; Sa 15:00", "note": "ON 12/24 AND 12/31, THIS BOX MAY BE COLLECTED AS EARLY AS 12 NOON.", "nsi_id": "unitedstatespostalservice-a77078", "operator": "United States Postal Service", "operator:short": "USPS", "operator:type": "public", "operator:wikidata": "Q668687", "ref": "8030500015"}, "type": "Feature"}
{"geometry": {"coordinates": [-105.237646, 39.98659], "type": "Point"}, "id": "eRq6j8nCA-W0AIi9CI0didBhN7Y=", "properties": {"@source_uri": "https://tools.usps.com/UspsToolsRestServices/rest/POLocator/findLocations", "@spider": "usps_collection_boxes", "addr:city": "BOULDER", "addr:country": "US", "addr:postcode": "80305", "addr:state": "CO", "addr:street_address": "4985 MOORHEAD AVE", "amenity": "post_box", "collection_times": "Mo-Fr 17:00; Sa 14:00", "indoor": "yes", "note": "ON 12/24 AND 12/31, THIS BOX MAY BE COLLECTED AS EARLY AS 12 NOON.", "nsi_id": "unitedstatespostalservice-a77078", "operator": "United States Postal Service", "operator:short": "USPS", "operator:type": "public", "operator:wikidata": "Q668687", "ref": "8030500020"}, "type": "Feature"}
{"geometry": {"coordinates": [-105.237646, 39.98659], "type": "Point"}, "id": "QHV0Df2saQqZ7v2JnBjiFY4MQwc=", "properties": {"@source_uri": "https://tools.usps.com/UspsToolsRestServices/rest/POLocator/findLocations", "@spider": "usps_collection_boxes", "addr:city": "BOULDER", "addr:country": "US", "addr:postcode": "80305", "addr:state": "CO", "addr:street_address": "4985 MOORHEAD AVE", "amenity": "post_box", "collection_times": "Mo-Fr 17:00; Sa 14:00", "indoor": "yes", "note": "ON 12/24 AND 12/31, THIS BOX MAY BE COLLECTED AS EARLY AS 12 NOON.", "nsi_id": "unitedstatespostalservice-a77078", "operator": "United States Postal Service", "operator:short": "USPS", "operator:type": "public", "operator:wikidata": "Q668687", "ref": "8030500021"}, "type": "Feature"}
{"geometry": {"coordinates": [-105.261236, 39.999895], "type": "Point"}, "id": "9fb-N2AVGX7hYC1zizJZrAfaJBY=", "properties": {"@source_uri": "https://tools.usps.com/UspsToolsRestServices/rest/POLocator/findLocations", "@spider": "usps_collection_boxes", "addr:city": "BOULDER", "addr:country": "US", "addr:postcode": "80305", "addr:state": "CO", "addr:street_address": "2600 BASELINE RD", "amenity": "post_box", "collection_times": "Mo-Sa 09:15", "nsi_id": "unitedstatespostalservice-a77078", "operator": "United States Postal Service", "operator:short": "USPS", "operator:type": "public", "operator:wikidata": "Q668687", "ref": "8030500023"}, "type": "Feature"}
{"geometry": {"coordinates": [-105.238447, 39.985195], "type": "Point"}, "id": "WdU8HiHA6vJWHFu433edWQjNIBE=", "properties": {"@source_uri": "https://tools.usps.com/UspsToolsRestServices/rest/POLocator/findLocations", "@spider": "usps_collection_boxes", "addr:city": "BOULDER", "addr:country": "US", "addr:postcode": "80305", "addr:state": "CO", "addr:street_address": "4730 TABLE MESA DR", "amenity": "post_box", "collection_times": "Mo-Sa 12:00", "nsi_id": "unitedstatespostalservice-a77078", "operator": "United States Postal Service", "operator:short": "USPS", "operator:type": "public", "operator:wikidata": "Q668687", "ref": "8030500027"}, "type": "Feature"}
{"geometry": {"coordinates": [-105.260485, 39.996626], "type": "Point"}, "id": "YzNMw_6Umh4WZVYIVj3sOTF7_D4=", "properties": {"@source_uri": "https://tools.usps.com/UspsToolsRestServices/rest/POLocator/findLocations", "@spider": "usps_collection_boxes", "addr:city": "BOULDER", "addr:country": "US", "addr:postcode": "80305", "addr:state": "CO", "addr:street_address": "350 BROADWAY ST", "amenity": "post_box", "collection_times": "Mo-Sa 09:15", "nsi_id": "unitedstatespostalservice-a77078", "operator": "United States Postal Service", "operator:short": "USPS", "operator:type": "public", "operator:wikidata": "Q668687", "ref": "8030500028"}, "type": "Feature"}
{"geometry": {"coordinates": [-105.260419, 39.993603], "type": "Point"}, "id": "FBnnGlqvHs-XbAxdNQfclfHv_wQ=", "properties": {"@source_uri": "https://tools.usps.com/UspsToolsRestServices/rest/POLocator/findLocations", "@spider": "usps_collection_boxes", "addr:city": "BOULDER", "addr:country": "US", "addr:postcode": "80305", "addr:state": "CO", "addr:street_address": "325 BROADWAY ST", "amenity": "post_box", "collection_times": "Mo-Fr 15:45; Sa 13:00", "note": "ON 12/24 AND 12/31, THIS BOX MAY BE COLLECTED AS EARLY AS 12 NOON.", "nsi_id": "unitedstatespostalservice-a77078", "operator": "United States Postal Service", "operator:short": "USPS", "operator:type": "public", "operator:wikidata": "Q668687", "ref": "8030500029"}, "type": "Feature"}
