{"geometry": {"coordinates": [-105.106246, 40.154346], "type": "Point"}, "id": "aOhzR5KukHZuRVONd6jKhj4jxVU=", "properties": {"@source_uri": "https://tools.usps.com/UspsToolsRestServices/rest/POLocator/findLocations", "@spider": "usps_collection_boxes", "addr:city": "LONGMONT", "addr:country": "US", "addr:postcode": "80501", "addr:state": "CO", "addr:street_address": "825 DELAWARE AVE", "amenity": "post_box", "collection_times": "Mo-Sa 10:00", "nsi_id": "unitedstatespostalservice-a77078", "operator": "United States Postal Service", "operator:short": "USPS", "operator:type": "public", "operator:wikidata": "Q668687", "ref": "8050100001"}, "type": "Feature"}
{"geometry": {"coordinates": [-105.121817, 40.145876], "type": "Point"}, "id": "ShskRivjjbIgj8JzBBvsg_9gGGc=", "properties": {"@source_uri": "https://tools.usps.com/UspsToolsRestServices/rest/POLocator/findLocations", "@spider": "usps_collection_boxes", "addr:city": "LONGMONT", "addr:country": "US", "addr:postcode": "80501", "addr:state": "CO", "addr:street_address": "1800 SUNSET PL", "amenity": "post_box", "collection_times": "Mo-Sa 10:00", "nsi_id": "unitedstatespostalservice-a77078", "operator": "United States Postal Service", "operator:short": "USPS", "operator:type": "public", "operator:wikidata": "Q668687", "ref": "8050100002"}, "type": "Feature"}
{"geometry": {"coordinates": [-105.096438, 40.139818], "type": "Point"}, "id": "eMg4AJTN_8cH6Pi3UK859buz-kI=", "properties": {"@source_uri": "https://tools.usps.com/UspsToolsRestServices/rest/POLocator/findLocations", "@spider": "usps_collection_boxes", "addr:city": "LONGMONT", "addr:country": "US", "addr:postcode": "80501", "addr:state": "CO", "addr:street_address": "1400 S COLLYER ST", "amenity": "post_box", "collection_times": "Mo-Sa 12:00", "nsi_id": "unitedstatespostalservice-a77078", "operator": "United States Postal Service", "operator:short": "USPS", "operator:type": "public", "operator:wikidata": "Q668687", "ref": "8050100004"}, "type": "Feature"}
{"geometry": {"coordinates": [-105.106621, 40.145773], "type": "Point"}, "id": "URRvz0kTnmc_jd-dq9Mua7xjfXs=", "properties": {"@source_uri": "https://tools.usps.com/UspsToolsRestServices/rest/POLocator/findLocations", "@spider": "usps_collection_boxes", "addr:city": "LONGMONT", "addr:country": "US", "addr:postcode": "80501", "addr:state": "CO", "addr:street_address": "1116 S PRATT PKWY", "amenity": "post_box", "collection_times": "Mo-Sa 12:00", "nsi_id": "unitedstatespostalservice-a77078", "operator": "United States Postal Service", "operator:short": "USPS", "operator:type": "public", "operator:wikidata": "Q668687", "ref": "8050100005"}, "type": "Feature"}
{"geometry": {"coordinates": [-105.124853, 40.140023], "type": "Point"}, "id": "7eGsTZjpCCWjfQ26TJbH_aWRJPQ=", "properties": {"@source_uri": "https://tools.usps.com/UspsToolsRestServices/rest/POLocator/findLocations", "@spider": "usps_collection_boxes", "addr:city": "LONGMONT", "addr:country": "US", "addr:postcode": "80501", "addr:state": "CO", "addr:street_address": "1921 MILLER DR", "amenity": "post_box", "collection_times": "Mo-Sa 10:00", "name": "USPS COLLECTION BOX - EXPRESS", "nsi_id": "unitedstatespostalservice-a77078", "operator": "United States Postal Service", "operator:short": "USPS", "operator:type": "public", "operator:wikidata": "Q668687", "ref": "8050100007"}, "type": "Feature"}
{"geometry": {"coordinates": [-105.116914, 40.178528], "type": "Point"}, "id": "iT2bbjSjd4Ilsxg6FaXE3wdp8qU=", "properties": {"@source_uri": "https://tools.usps.com/UspsToolsRestServices/rest/POLocator/findLocations", "@spider": "usps_collection_boxes", "addr:city": "LONGMONT", "addr:country": "US", "addr:postcode": "80501", "addr:state": "CO", "addr:street_address": "1131 FRANCIS ST", "amenity": "post_box", "collection_times": "Mo-Sa 10:00", "nsi_id": "unitedstatespostalservice-a77078", "operator": "United States Postal Service", "operator:short": "USPS", "operator:type": "public", "operator:wikidata": "Q668687", "ref": "8050100008"}, "type": "Feature"}
{"geometry": {"coordinates": [-105.123857, 40.181602], "type": "Point"}, "id": "ZIpWuobOULukUEAKjuy-vu25LK8=", "properties": {"@source_uri": "https://tools.usps.com/UspsToolsRestServices/rest/POLocator/findLocations", "@spider": "usps_collection_boxes", "addr:city": "LONGMONT", "addr:country": "US", "addr:postcode": "80501", "addr:state": "CO", "addr:street_address": "1950 MOUNTAIN VIEW AVE", "amenity": "post_box", "collection_times": "Mo-Sa 10:00", "nsi_id": "unitedstatespostalservice-a77078", "operator": "United States Postal Service", "operator:short": "USPS", "operator:type": "public", "operator:wikidata": "Q668687", "ref": "8050100010"}, "type": "Feature"}
{"geometry": {"coordinates": [-105.103122, 40.168903], "type": "Point"}, "id": "zhH9K2OmJBFqm1OVyNprYwCJq-o=", "properties": {"@source_uri": "https://tools.usps.com/UspsToolsRestServices/rest/POLocator/findLocations", "@spider": "usps_collection_boxes", "addr:city": "LONGMONT", "addr:country": "US", "addr:postcode": "80501", "addr:state": "CO", "addr:street_address": "600 COFFMAN ST", "amenity": "post_box", "collection_times": "Mo-Sa 10:00", "nsi_id": "unitedstatespostalservice-a77078", "operator": "United States Postal Service", "operator:short": "USPS", "operator:type": "public", "operator:wikidata": "Q668687", "ref": "8050100028"}, "type": "Feature"}
{"geometry": {"coordinates": [-105.105031, 40.167267], "type": "Point"}, "id": "ceGavOHFyvH6L576OksMagBBpWk=", "properties": {"@source_uri": "https://tools.usps.com/UspsToolsRestServices/rest/POLocator/findLocations", "@spider": "usps_collection_boxes", "addr:city": "LONGMONT", "addr:country": "US", "addr:postcode": "80501", "addr:state": "CO", "addr:street_address": "438 TERRY ST", "amenity": "post_box", "collection_times": "Mo-Sa 10:00", "nsi_id": "unitedstatespostalservice-a77078", "operator": "United States Postal Service", "operator:short": "USPS", "operator:type": "public", "operator:wikidata": "Q668687", "ref": "8050100029"}, "type": "Feature"}
{"geometry": {"coordinates": [-105.106765, 40.169333], "type": "Point"}, "id": "w4KtRYex8A5Nhvcdk_q8e4tZnp8=", "properties": {"@source_uri": "https://tools.usps.com/UspsToolsRestServices/rest/POLocator/findLocations", "@spider": "usps_collection_boxes", "addr:city": "LONGMONT", "addr:country": "US", "addr:postcode": "80501", "addr:state": "CO", "addr:street_address": "606 PRATT ST", "amenity": "post_box", "collection_times": "Mo-Sa 10:00", "nsi_id": "unitedstatespostalservice-a77078", "operator": "United States Postal Service", "operator:short": "USPS", "operator:type": "public", "operator:wikidata": "Q668687", "ref": "8050100030"}, "type": "Feature"}
{"geometry": {"coordinates": [-105.128935, 40.188385], "type": "Point"}, "id": "zMrV42AWgj8WXSDE61rW-otkY5g=", "properties": {"@source_uri": "https://tools.usps.com/UspsToolsRestServices/rest/POLocator/findLocations", "@spider": "usps_collection_boxes", "addr:city": "LONGMONT", "addr:country": "US", "addr:postcode": "80501", "addr:state": "CO", "addr:street_address": "1632 HOVER ST", "amenity": "post_box", "collection_times": "Mo-Sa 12:00", "nsi_id": "unitedstatespostalservice-a77078", "operator": "United States Postal Service", "operator:short": "USPS", "operator:type": "public", "operator:wikidata": "Q668687", "ref": "8050100032"}, "type": "Feature"}
{"geometry": {"coordinates": [-105.103918, 40.19846], "type": "Point"}, "id": "z9ZZUwovXvZbiUcBZL3ipNtDqZg=", "properties": {"@source_uri": "https://tools.usps.com/UspsToolsRestServices/rest/POLocator/findLocations", "@spider": "usps_collection_boxes", "addr:city": "LONGMONT", "addr:country": "US", "addr:postcode": "80501", "addr:state": "CO", "addr:street_address": "2255 MAIN ST", "amenity": "post_box", "collection_times": "Mo-Sa 12:00", "nsi_id": "unitedstatespostalservice-a77078", "operator": "United States Postal Service", "operator:short": "USPS", "operator:type": "public", "operator:wikidata": "Q668687", "ref": "8050100034"}, "type": "Feature"}
{"geometry": {"coordinates": [-105.102039, 40.189294], "type": "Point"}, "id": "wZNBoG4dTi17KSpKFA2b4_mi6TI=", "properties": {"@source_uri": "https://tools.usps.com/UspsToolsRestServices/rest/POLocator/findLocations", "@spider": "usps_collection_boxes", "addr:city": "LONGMONT", "addr:country": "US", "addr:postcode": "80501", "addr:state": "CO", "addr:street_address": "1710 MAIN ST", "amenity": "post_box", "collection_times": "Mo-Sa 11:00", "nsi_id": "unitedstatespostalservice-a77078", "operator": "United States Postal Service", "operator:short": "USPS", "operator:type": "public", "operator:wikidata": "Q668687", "ref": "8050100035"}, "type": "Feature"}
{"geometry": {"coordinates": [-105.102351, 40.17219], "type": "Point"}, "id": "Ulw8iabB3M0HZhef8-3f-CrUWeM=", "properties": {"@source_uri": "https://tools.usps.com/UspsToolsRestServices/rest/POLocator/findLocations", "@spider": "usps_collection_boxes", "addr:city": "LONGMONT", "addr:country": "US", "addr:postcode": "80501", "addr:state": "CO", "addr:street_address": "736 MAIN ST", "amenity": "post_box", "collection_times": "Mo-Sa 12:00", "nsi_id": "unitedstatespostalservice-a77078", "operator": "United States Postal Service", "operator:short": "USPS", "operator:type": "public", "operator:wikidata": "Q668687", "ref": "8050100039"}, "type": "Feature"}
{"geometry": {"coordinates": [-105.10263, 40.167069], "type": "Point"}, "id": "wsogZme1_SJj2M4TqnnMKjuFGRQ=", "properties": {"@source_uri": "https://tools.usps.com/UspsToolsRestServices/rest/POLocator/findLocations", "@spider": "usps_collection_boxes", "addr:city": "LONGMONT", "addr:country": "US", "addr:postcode": "80501", "addr:state": "CO", "addr:street_address": "477 MAIN ST", "amenity": "post_box", "collection_times": "Mo-Sa 10:30", "nsi_id": "unitedstatespostalservice-a77078", "operator": "United States Postal Service", "operator:short": "USPS", "operator:type": "public", "operator:wikidata": "Q668687", "ref": "8050100042"}, "type": "Feature"}
{"geometry": {"coordinates": [-105.087596, 40.173387], "type": "Point"}, "id": "2v4iFXHao-UOL9I_lpsdPDmsNmk=", "properties": {"@source_uri": "https://tools.usps.com/UspsToolsRestServices/rest/POLocator/findLocations", "@spider": "usps_collection_boxes", "addr:city": "LONGMONT", "addr:country": "US", "addr:postcode": "80501", "addr:state": "CO", "addr:street_address": "830 LASHLEY ST", "amenity": "post_box", "collection_times": "Mo-Sa 10:00", "nsi_id": "unitedstatespostalservice-a77078", "operator": "United States Postal Service", "operator:short": "USPS", "operator:type": "public", "operator:wikidata": "Q668687", "ref": "8050100049"}, "type": "Feature"}
{"geometry": {"coordinates": [-105.109855, 40.15341], "type": "Point"}, "id": "aEzGtqfS_CiywZVWaAH6099NqUk=", "properties": {"@source_uri": "https://tools.usps.com/UspsToolsRestServices/rest/POLocator/findLocations", "@spider": "usps_collection_boxes", "addr:city": "LONGMONT", "addr:country": "US", "addr:postcode": "80501", "addr:state": "CO", "addr:street_address": "1050 KEN PRATT BLVD", "amenity": "post_box", "collection_times": "Mo-Sa 12:00", "nsi_id": "unitedstatespostalservice-a77078", "operator": "United States Postal Service", "operator:short": "USPS", "operator:type": "public", "operator:wikidata": "Q668687", "ref": "8050100061"}, "type": "Feature"}
{"geometry": {"coordinates": [-105.104312024, 40.162425004], "type": "Point"}, "id": "_xQV73u6ehXju_qct_04HbrU-hw=", "properties": {"@source_uri": "https://tools.usps.com/UspsToolsRestServices/rest/POLocator/findLocations", "@spider": "usps_collection_boxes", "addr:city": "LONGMONT", "addr:country": "US", "addr:postcode": "80501", "addr:state": "CO", "addr:street_address": "201 COFFMAN ST", "amenity": "post_box", "collection_times": "Mo-Sa 18:15", "indoor": "yes", "note": "ON 12/24 AND 12/31, THIS BOX MAY BE COLLECTED AS EARLY AS 12 NOON.", "nsi_id": "unitedstatespostalservice-a77078", "operator": "United States Postal Service", "operator:short": "USPS", "operator:type": "public", "operator:wikidata": "Q668687", "ref": "8050100062"}, "type": "Feature"}
{"geometry": {"coordinates": [-105.104312024, 40.162425004], "type": "Point"}, "id": "phh9zmU_o31LNglDiMyjmhbkMyY=", "properties": {"@source_uri": "https://tools.usps.com/UspsToolsRestServices/rest/POLocator/findLocations", "@spider": "usps_collection_boxes", "addr:city": "LONGMONT", "addr:country": "US", "addr:postcode": "80501", "addr:state": "CO", "addr:street_address": "201 COFFMAN ST", "amenity": "post_box", "collection_times": "Mo-Sa 18:15", "indoor": "yes", "note": "ON 12/24 AND 12/31, THIS BOX MAY BE COLLECTED AS EARLY AS 12 NOON.", "nsi_id": "unitedstatespostalservice-a77078", "operator": "United States Postal Service", "operator:short": "USPS", "operator:type": "public", "operator:wikidata": "Q668687", "ref": "8050100063"}, "type": "Feature"}
{"geometry": {"coordinates": [-105.104312024, 40.162425004], "type": "Point"}, "id": "AFTq-NR9HvDZ6MjVCBYDDGsWEj4=", "properties": {"@source_uri": "https://tools.usps.com/UspsToolsRestServices/rest/POLocator/findLocations", "@spider": "usps_collection_boxes", "addr:city": "LONGMONT", "addr:country": "US", "addr:postcode": "80501", "addr:state": "CO", "addr:street_address": "201 COFFMAN ST", "amenity": "post_box", "collection_times": "Mo-Sa 18:15", "indoor": "yes", "note": "ON 12/24 AND 12/31, THIS BOX MAY BE COLLECTED AS EARLY AS 12 NOON.", "nsi_id": "unitedstatespostalservice-a77078", "operator": "United States Postal Service", "operator:short": "USPS", "operator:type": "public", "operator:wikidata": "Q668687", "ref": "8050100064"}, "type": "Feature"}
{"geometry": {"coordinates": [-105.133629, 40.150758], "type": "Point"}, "id": "yOOlu6v2P9HDJSrDvsvF5ya7mwo=", "properties": {"@source_uri": "https://tools.usps.com/UspsToolsRestServices/rest/POLocator/findLocations", "@spider": "usps_collection_boxes", "addr:city": "LONGMONT", "addr:country": "US", "addr:postcode": "80501", "addr:state": "CO", "addr:street_address": "995 S HOVER ST", "amenity": "post_box", "collection_times": "Mo-Sa 11:00", "nsi_id": "unitedstatespostalservice-a77078", "operator": "United States Postal Service", "operator:short": "USPS", "operator:type": "public", "operator:wikidata": "Q668687", "ref": "8050100071"}, "type": "Feature"}
{"geometry": {"coordinates": [-105.072551, 40.187198], "type": "Point"}, "id": "7PpEHVmQpi-nRVC8McF07puSTvA=", "properties": {"@source_uri": "https://tools.usps.com/UspsToolsRestServices/rest/POLocator/findLocations", "@spider": "usps_collection_boxes", "addr:city": "LONGMONT", "addr:country": "US", "addr:postcode": "80501", "addr:state": "CO", "addr:street_address": "1630 PACE ST", "amenity": "post_box", "collection_times": "Mo-Sa 10:00", "nsi_id": "unitedstatespostalservice-a77078", "operator": "United States Postal Service", "operator:short": "USPS", "operator:type": "public", "operator:wikidata": "Q668687", "ref": "8050100072"}, "type": "Feature"}
{"geometry": {"coordinates": [-105.101292, 40.176958], "type": "Point"}, "id": "PDQmMSTKRQZBSNApn0zSvReCLig=", "properties": {"@source_uri": "https://tools.usps.com/UspsToolsRestServices/rest/POLocator/findLocations", "@spider": "usps_collection_boxes", "addr:city": "LONGMONT", "addr:country": "US", "addr:postcode": "80501", "addr:state": "CO", "addr:street_address": "1035 KIMBARK ST", "amenity": "post_box", "collection_times": "Mo-Sa 12:00", "nsi_id": "unitedstatespostalservice-a77078", "operator": "United States Postal Service", "operator:short": "USPS", "operator:type": "public", "operator:wikidata": "Q668687", "ref": "8050100075"}, "type": "Feature"}
{"geometry": {"coordinates": [-105.10117, 40.139499], "type": "Point"}, "id": "qQ3Ea1raGyZGNebba6PR_t4HfyI=", "properties": {"@source_uri": "https://tools.usps.com/UspsToolsRestServices/rest/POLocator/findLocations", "@spider": "usps_collection_boxes", "addr:city": "LONGMONT", "addr:country": "US", "addr:postcode": "80501", "addr:state": "CO", "addr:street_address": "1551 PROFESSIONAL LN", "amenity": "post_box", "collection_times": "Mo-Sa 14:00", "note": "ON 12/24 AND 12/31, THIS BOX MAY BE COLLECTED AS EARLY AS 12 NOON.", "nsi_id": "unitedstatespostalservice-a77078", "operator": "United States Postal Service", "operator:short": "USPS", "operator:type": "public", "operator:wikidata": "Q668687", "ref": "8050100076"}, "type": "Feature"}
{"geometry": {"coordinates": [-105.061457, 40.158326], "type": "Point"}, "id": "F7cS1ApPkZuc1cezkIjkUxEQsaA=", "properties": {"@source_uri": "https://tools.usps.com/UspsToolsRestServices/rest/POLocator/findLocations", "@spider": "usps_collection_boxes", "addr:city": "LONGMONT", "addr:country": "US", "addr:postcode": "80501", "addr:state": "CO", "addr:street_address": "1700 KYLIE DR", "amenity": "post_box", "collection_times": "Mo-Sa 12:00", "nsi_id": "unitedstatespostalservice-a77078", "operator": "United States Postal Service", "operator:short": "USPS", "operator:type": "public", "operator:wikidata": "Q668687", "ref": "8050100077"}, "type": "Feature"}
{"geometry": {"coordinates": [-105.104312024, 40.162425004], "type": "Point"}, "id": "fawyzlVhvHCt98ikwvB7-PYTOI8=", "properties": {"@source_uri": "https://tools.usps.com/UspsToolsRestServices/rest/POLocator/findLocations", "@spider": "usps_collection_boxes", "addr:city": "LONGMONT", "addr:country": "US", "addr:postcode": "80501", "addr:state": "CO", "addr:street_address": "201 COFFMAN ST", "amenity": "post_box", "collection_times": "Mo-Sa 18:15", "name": "USPS COLLECTION BOX - APC", "note": "ON 12/24 AND 12/31, THIS BOX MAY BE COLLECTED AS EARLY AS 12 NOON.", "nsi_id": "unitedstatespostalservice-a77078", "operator": "United States Postal Service", "operator:short": "USPS", "operator:type": "public", "operator:wikidata": "Q668687", "ref": "8050100078"}, "type": "Feature"}
{"geometry": {"coordinates": [-105.255398, 40.215614], "type": "Point"}, "id": "C92jRnOtfYE2NaadX1p7-V4HSm4=", "properties": {"@source_uri": "https://tools.usps.com/UspsToolsRestServices/rest/POLocator/findLocations", "@spider": "usps_collection_boxes", "addr:city": "NIWOT", "addr:country": "US", "addr:postcode": "80503", "addr:state": "CO", "addr:street_address": "4206 UTE HWY", "amenity": "post_box", "collection_times": "Mo-Sa 10:00", "nsi_id": "unitedstatespostalservice-a77078", "operator": "United States Postal Service", "operator:short": "USPS", "operator:type": "public", "operator:wikidata": "Q668687", "ref": "8050300002"}, "type": "Feature"}
{"geometry": {"coordinates": [-105.168321, 40.101154], "type": "Point"}, "id": "XrMAvhlIrf18b3brUigLOE9HaaY=", "properties": {"@source_uri": "https://tools.usps.com/UspsToolsRestServices/rest/POLocator/findLocations", "@spider": "usps_collection_boxes", "addr:city": "NIWOT", "addr:country": "US", "addr:postcode": "80503", "addr:state": "CO", "addr:street_address": "7960 NIWOT RD", "amenity": "post_box", "collection_times": "Mo-Sa 12:00", "nsi_id": "unitedstatespostalservice-a77078", "operator": "United States Postal Service", "operator:short": "USPS", "operator:type": "public", "operator:wikidata": "Q668687", "ref": "8050300004"}, "type": "Feature"}
{"geometry": {"coordinates": [-105.246203, 40.09905], "type": "Point"}, "id": "M0HjLxwG8fq5huCM80uCoPakEwQ=", "properties": {"@source_uri": "https://tools.usps.com/UspsToolsRestServices/rest/POLocator/findLocations", "@spider": "usps_collection_boxes", "addr:city": "NIWOT", "addr:country": "US", "addr:postcode": "80503", "addr:state": "CO", "addr:street_address": "6900 GOLF CLUB DR", "amenity": "post_box", "collection_times": "Mo-Sa 12:00", "nsi_id": "unitedstatespostalservice-a77078", "operator": "United States Postal Service", "operator:short": "USPS", "operator:type": "public", "operator:wikidata": "Q668687", "ref": "8050300005"}, "type": "Feature"}
{"geometry": {"coordinates": [-105.161745, 40.150892], "type": "Point"}, "id": "rXVHpTEURsXYd_glme0vPcHRvUY=", "properties": {"@source_uri": "https://tools.usps.com/UspsToolsRestServices/rest/POLocator/findLocations", "@spider": "usps_collection_boxes", "addr:city": "NIWOT", "addr:country": "US", "addr:postcode": "80503", "addr:state": "CO", "addr:street_address": "620 GRANDVIEW MDWS DR", "amenity": "post_box", "collection_times": "Mo-Sa 12:00", "nsi_id": "unitedstatespostalservice-a77078", "operator": "United States Postal Service", "operator:short": "USPS", "operator:type": "public", "operator:wikidata": "Q668687", "ref": "8050300006"}, "type": "Feature"}
{"geometry": {"coordinates": [-105.153662, 40.152015], "type": "Point"}, "id": "5Jykm1T3x2wRP9sQYrQxK-zehvs=", "properties": {"@source_uri": "https://tools.usps.com/UspsToolsRestServices/rest/POLocator/findLocations", "@spider": "usps_collection_boxes", "addr:city": "NIWOT", "addr:country": "US", "addr:postcode": "80503", "addr:state": "CO", "addr:street_address": "600 S AIRPORT RD", "amenity": "post_box", "collection_times": "Mo-Sa 10:00", "nsi_id": "unitedstatespostalservice-a77078", "operator": "United States Postal Service", "operator:short": "USPS", "operator:type": "public", "operator:wikidata": "Q668687", "ref": "8050300007"}, "type": "Feature"}
{"geometry": {"coordinates": [-105.02064, 40.159002], "type": "Point"}, "id": "KoLyK13EqMC2tYiL4m3q1YvPKKU=", "properties": {"@source_uri": "https://tools.usps.com/UspsToolsRestServices/rest/POLocator/findLocations", "@spider": "usps_collection_boxes", "addr:city": "FIRESTONE", "addr:country": "US", "addr:postcode": "80504", "addr:state": "CO", "addr:street_address": "1845 SKYWAY DR", "amenity": "post_box", "collection_times": "Mo-Sa 12:00", "nsi_id": "unitedstatespostalservice-a77078", "operator": "United States Postal Service", "operator:short": "USPS", "operator:type": "public", "operator:wikidata": "Q668687", "ref": "8050400007"}, "type": "Feature"}
{"geometry": {"coordinates": [-104.940157, 40.118625], "type": "Point"}, "id": "1jGayBgR1NIYHaVBhUesZY8RI6g=", "properties": {"@source_uri": "https://tools.usps.com/UspsToolsRestServices/rest/POLocator/findLocations", "@spider": "usps_collection_boxes", "addr:city": "FIRESTONE", "addr:country": "US", "addr:postcode": "80504", "addr:state": "CO", "addr:street_address": "8134 WELD COUNTY RD 13", "amenity": "post_box", "collection_times": "Mo-Sa 10:00", "nsi_id": "unitedstatespostalservice-a77078", "operator": "United States Postal Service", "operator:short": "USPS", "operator:type": "public", "operator:wikidata": "Q668687", "ref": "8050400009"}, "type": "Feature"}
{"geometry": {"coordinates": [-104.973893, 40.204671], "type": "Point"}, "id": "KiUDJ0F1C9mtkO6nd9eSdqwar-A=", "properties": {"@source_uri": "https://tools.usps.com/UspsToolsRestServices/rest/POLocator/findLocations", "@spider": "usps_collection_boxes", "addr:city": "FIRESTONE", "addr:country": "US", "addr:postcode": "80504", "addr:state": "CO", "addr:street_address": "4301 STATE HIGHWAY 66", "amenity": "post_box", "collection_times": "Sa 10:00", "nsi_id": "unitedstatespostalservice-a77078", "operator": "United States Postal Service", "operator:short": "USPS", "operator:type": "public", "operator:wikidata": "Q668687", "ref": "8050400011"}, "type": "Feature"}
{"geometry": {"coordinates": [-105.526585, 40.194609], "type": "Point"}, "id": "y5p5LAHWb1dMfUJJpEIlOgGZazw=", "properties": {"@source_uri": "https://tools.usps.com/UspsToolsRestServices/rest/POLocator/findLocations", "@spider": "usps_collection_boxes", "addr:city": "ALLENSPARK", "addr:country": "US", "addr:postcode": "80510", "addr:state": "CO", "addr:street_address": "7 WASHINGTON ST", "amenity": "post_box", "collection_times": "Mo-Fr 16:00; Sa 13:30", "note": "ON 12/24 AND 12/31, THIS BOX MAY BE COLLECTED AS EARLY AS 12 NOON.", "nsi_id": "unitedstatespostalservice-a77078", "operator": "United States Postal Service", "operator:short": "USPS", "operator:type": "public", "operator:wikidata": "Q668687", "ref": "8051000000"}, "type": "Feature"}
{"geometry": {"coordinates": [-105.526585, 40.194609], "type": "Point"}, "id": "zYHqB4EA00rvYyKBO6_kkbpN9Js=", "properties": {"@source_uri": "https://tools.usps.com/UspsToolsRestServices/rest/POLocator/findLocations", "@spider": "usps_collection_boxes", "addr:city": "ALLENSPARK", "addr:country": "US", "addr:postcode": "80510", "addr:state": "CO", "addr:street_address": "7 WASHINGTON ST", "amenity": "post_box", "collection_times": "Mo-Fr 16:00; Sa 01:30", "indoor": "yes", "note": "ON 12/24 AND 12/31, THIS BOX MAY BE COLLECTED AS EARLY AS 12 NOON.", "nsi_id": "unitedstatespostalservice-a77078", "operator": "United States Postal Service", "operator:short": "USPS", "operator:type": "public", "operator:wikidata": "Q668687", "ref": "8051000001"}, "type": "Feature"}
{"geometry": {"coordinates": [-105.175074, 40.62928], "type": "Point"}, "id": "PyuJ0tqb07I6b_Z3vfUBoBltJiA=", "properties": {"@source_uri": "https://tools.usps.com/UspsToolsRestServices/rest/POLocator/findLocations", "@spider": "usps_collection_boxes", "addr:city": "BELLVUE", "addr:country": "US", "addr:postcode": "80512", "addr:state": "CO", "addr:street_address": "5301 RIST CANYON RD", "amenity": "post_box", "collection_times": "Mo-Fr 14:15; Sa 12:00", "indoor": "yes", "note": "ON 12/24 AND 12/31, THIS BOX MAY BE COLLECTED AS EARLY AS 12 NOON.", "nsi_id": "unitedstatespostalservice-a77078", "operator": "United States Postal Service", "operator:short": "USPS", "operator:type": "public", "operator:wikidata": "Q668687", "ref": "8051200002"}, "type": "Feature"}
{"geometry": {"coordinates": [-105.175074, 40.62928], "type": "Point"}, "id": "Vwu31h5SkMog2dlbV3fvTB0XOgU=", "properties": {"@source_uri": "https://tools.usps.com/UspsToolsRestServices/rest/POLocator/findLocations", "@spider": "usps_collection_boxes", "addr:city": "BELLVUE", "addr:country": "US", "addr:postcode": "80512", "addr:state": "CO", "addr:street_address": "5301 RIST CANYON RD", "amenity": "post_box", "collection_times": "Mo-Fr 14:15; Sa 12:00", "indoor": "yes", "note": "ON 12/24 AND 12/31, THIS BOX MAY BE COLLECTED AS EARLY AS 12 NOON.", "nsi_id": "unitedstatespostalservice-a77078", "operator": "United States Postal Service", "operator:short": "USPS", "operator:type": "public", "operator:wikidata": "Q668687", "ref": "8051200003"}, "type": "Feature"}
{"geometry": {"coordinates": [-105.175074, 40.62928], "type": "Point"}, "id": "9-Xg6aMVGkyXlBXqU2RJhkAaIss=", "properties": {"@source_uri": "https://tools.usps.com/UspsToolsRestServices/rest/POLocator/findLocations", "@spider": "usps_collection_boxes", "addr:city": "BELLVUE", "addr:country": "US", "addr:postcode": "80512", "addr:state": "CO", "addr:street_address": "5301 RIST CANYON RD", "amenity": "post_box", "collection_times": "Mo-Fr 14:15; Sa 12:00", "note": "ON 12/24 AND 12/31, THIS BOX MAY BE COLLECTED AS EARLY AS 12 NOON.", "nsi_id": "unitedstatespostalservice-a77078", "operator": "United States Postal Service", "operator:short": "USPS", "operator:type": "public", "operator:wikidata": "Q668687", "ref": "8051200004"}, "type": "Feature"}
{"geometry": {"coordinates": [-105.078451198, 40.304447515], "type": "Point"}, "id": "OpvymQ-VcGgbbYdIcaqUfPsiZOY=", "properties": {"@source_uri": "https://tools.usps.com/UspsToolsRestServices/rest/POLocator/findLocations", "@spider": "usps_collection_boxes", "addr:city": "BERTHOUD", "addr:country": "US", "addr:postcode": "80513", "addr:state": "CO", "addr:street_address": "425 3RD ST", "amenity": "post_box", "collection_times": "Mo-Fr 16:15; Sa 14:00", "indoor": "yes", "note": "ON 12/24 AND 12/31, THIS BOX MAY BE COLLECTED AS EARLY AS 12 NOON.", "nsi_id": "unitedstatespostalservice-a77078", "operator": "United States Postal Service", "operator:short": "USPS", "operator:type": "public", "operator:wikidata": "Q668687", "ref": "8051300000"}, "type": "Feature"}
{"geometry": {"coordinates": [-105.078425, 40.30447], "type": "Point"}, "id": "D3K6M1LcuvESEi4bv_mXmgx4CzU=", "properties": {"@source_uri": "https://tools.usps.com/UspsToolsRestServices/rest/POLocator/findLocations", "@spider": "usps_collection_boxes", "addr:city": "BERTHOUD", "addr:country": "US", "addr:postcode": "80513", "addr:state": "CO", "addr:street_address": "425 3RD ST", "amenity": "post_box", "collection_times": "Mo-Fr 16:15; Sa 14:00", "note": "ON 12/24 AND 12/31, THIS BOX MAY BE COLLECTED AS EARLY AS 12 NOON.", "nsi_id": "unitedstatespostalservice-a77078", "operator": "United States Postal Service", "operator:short": "USPS", "operator:type": "public", "operator:wikidata": "Q668687", "ref": "8051300001"}, "type": "Feature"}
{"geometry": {"coordinates": [-104.930231, 40.086381], "type": "Point"}, "id": "EXhmgyfJPVyPtz4zBBq7G2vnXTs=", "properties": {"@source_uri": "https://tools.usps.com/UspsToolsRestServices/rest/POLocator/findLocations", "@spider": "usps_collection_boxes", "addr:city": "DACONO", "addr:country": "US", "addr:postcode": "80514", "addr:state": "CO", "addr:street_address": "650 GLEN CREIGHTON DR", "amenity": "post_box", "collection_times": "Mo-Fr 16:45; Sa 11:45", "note": "ON 12/24 AND 12/31, THIS BOX MAY BE COLLECTED AS EARLY AS 12 NOON.", "nsi_id": "unitedstatespostalservice-a77078", "operator": "United States Postal Service", "operator:short": "USPS", "operator:type": "public", "operator:wikidata": "Q668687", "ref": "8051400000"}, "type": "Feature"}
{"geometry": {"coordinates": [-104.93027, 40.08647], "type": "Point"}, "id": "NRxKSuztFnhO4N4Q9PtwLMj05cs=", "properties": {"@source_uri": "https://tools.usps.com/UspsToolsRestServices/rest/POLocator/findLocations", "@spider": "usps_collection_boxes", "addr:city": "DACONO", "addr:country": "US", "addr:postcode": "80514", "addr:state": "CO", "addr:street_address": "650 GLEN CREIGHTON DR", "amenity": "post_box", "collection_times": "Mo-Fr 16:45; Sa 11:45", "indoor": "yes", "note": "ON 12/24 AND 12/31, THIS BOX MAY BE COLLECTED AS EARLY AS 12 NOON.", "nsi_id": "unitedstatespostalservice-a77078", "operator": "United States Postal Service", "operator:short": "USPS", "operator:type": "public", "operator:wikidata": "Q668687", "ref": "8051400001"}, "type": "Feature"}
{"geometry": {"coordinates": [-104.93027, 40.08647], "type": "Point"}, "id": "4sEMb2HK6tioB7mUp6pWjYk-1AU=", "properties": {"@source_uri": "https://tools.usps.com/UspsToolsRestServices/rest/POLocator/findLocations", "@spider": "usps_collection_boxes", "addr:city": "DACONO", "addr:country": "US", "addr:postcode": "80514", "addr:state": "CO", "addr:street_address": "650 GLEN CREIGHTON DR", "amenity": "post_box", "collection_times": "Mo-Fr 16:45; Sa 11:45", "indoor": "yes", "note": "ON 12/24 AND 12/31, THIS BOX MAY BE COLLECTED AS EARLY AS 12 NOON.", "nsi_id": "unitedstatespostalservice-a77078", "operator": "United States Postal Service", "operator:short": "USPS", "operator:type": "public", "operator:wikidata": "Q668687", "ref": "8051400002"}, "type": "Feature"}
{"geometry": {"coordinates": [-105.340080962, 40.43268099], "type": "Point"}, "id": "WVr9hKiOhVBc6bNiCiScFtWwb6Y=", "properties": {"@source_uri": "https://tools.usps.com/UspsToolsRestServices/rest/POLocator/findLocations", "@spider": "usps_collection_boxes", "addr:city": "DRAKE", "addr:country": "US", "addr:postcode": "80515", "addr:state": "CO", "addr:street_address": "1601 US HIGHWAY 34", "amenity": "post_box", "collection_times": "Mo-Fr 15:30; Sa 11:30", "note": "ON 12/24 AND 12/31, THIS BOX MAY BE COLLECTED AS EARLY AS 12 NOON.", "nsi_id": "unitedstatespostalservice-a77078", "operator": "United States Postal Service", "operator:short": "USPS", "operator:type": "public", "operator:wikidata": "Q668687", "ref": "8051500000"}, "type": "Feature"}
{"geometry": {"coordinates": [-105.047002, 40.049871], "type": "Point"}, "id": "5eaP7ehQpC8v-TZkyPZLBTBvNcU=", "properties": {"@source_uri": "https://tools.usps.com/UspsToolsRestServices/rest/POLocator/findLocations", "@spider": "usps_collection_boxes", "addr:city": "ERIE", "addr:country": "US", "addr:postcode": "80516", "addr:state": "CO", "addr:street_address": "150 WELLS ST", "amenity": "post_box", "collection_times": "Mo-Fr 16:45; Sa 11:45", "note": "ON 12/24 AND 12/31, THIS BOX MAY BE COLLECTED AS EARLY AS 12 NOON.", "nsi_id": "unitedstatespostalservice-a77078", "operator": "United States Postal Service", "operator:short": "USPS", "operator:type": "public", "operator:wikidata": "Q668687", "ref": "8051600001"}, "type": "Feature"}
{"geometry": {"coordinates": [-105.047002, 40.049871], "type": "Point"}, "id": "48cjVaAdUFT2zxW0qvt6tOD9yoo=", "properties": {"@source_uri": "https://tools.usps.com/UspsToolsRestServices/rest/POLocator/findLocations", "@spider": "usps_collection_boxes", "addr:city": "ERIE", "addr:country": "US", "addr:postcode": "80516", "addr:state": "CO", "addr:street_address": "150 WELLS ST", "amenity": "post_box", "collection_times": "Mo-Fr 16:45; Sa 11:45", "indoor": "yes", "note": "ON 12/24 AND 12/31, THIS BOX MAY BE COLLECTED AS EARLY AS 12 NOON.", "nsi_id": "unitedstatespostalservice-a77078", "operator": "United States Postal Service", "operator:short": "USPS", "operator:type": "public", "operator:wikidata": "Q668687", "ref": "8051600003"}, "type": "Feature"}
{"geometry": {"coordinates": [-105.047002, 40.049871], "type": "Point"}, "id": "3lsluDsIrV_O4uu3c5v0HC2eYB4=", "properties": {"@source_uri": "https://tools.usps.com/UspsToolsRestServices/rest/POLocator/findLocations", "@spider": "usps_collection_boxes", "addr:city": "ERIE", "addr:country": "US", "addr:postcode": "80516", "addr:state": "CO", "addr:street_address": "150 WELLS ST", "amenity": "post_box", "collection_times": "Mo-Fr 16:45; Sa 11:45", "indoor": "yes", "note": "ON 12/24 AND 12/31, THIS BOX MAY BE COLLECTED AS EARLY AS 12 NOON.", "nsi_id": "unitedstatespostalservice-a77078", "operator": "United States Postal Service", "operator:short": "USPS", "operator:type": "public", "operator:wikidata": "Q668687", "ref": "8051600004"}, "type": "Feature"}
{"geometry": {"coordinates": [-105.515748, 40.380517], "type": "Point"}, "id": "JvGi8KY-EJ_Z-dy8htSXsy8kl60=", "properties": {"@source_uri": "https://tools.usps.com/UspsToolsRestServices/rest/POLocator/findLocations", "@spider": "usps_collection_boxes", "addr:city": "ESTES PARK", "addr:country": "US", "addr:postcode": "80517", "addr:state": "CO", "addr:street_address": "457 E WONDER VIEW AVE", "amenity": "post_box", "collection_times": "Mo-Sa 11:30", "nsi_id": "unitedstatespostalservice-a77078", "operator": "United States Postal Service", "operator:short": "USPS", "operator:type": "public", "operator:wikidata": "Q668687", "ref": "8051700003"}, "type": "Feature"}
{"geometry": {"coordinates": [-105.543244, 40.364096], "type": "Point"}, "id": "5CrbuzWlcTGuYHDym1jP0is9JJ4=", "properties": {"@source_uri": "https://tools.usps.com/UspsToolsRestServices/rest/POLocator/findLocations", "@spider": "usps_collection_boxes", "addr:city": "ESTES PARK", "addr:country": "US", "addr:postcode": "80517", "addr:state": "CO", "addr:street_address": "900 MORAINE AVE", "amenity": "post_box", "collection_times": "Mo-Sa 11:30", "nsi_id": "unitedstatespostalservice-a77078", "operator": "United States Postal Service", "operator:short": "USPS", "operator:type": "public", "operator:wikidata": "Q668687", "ref": "8051700005"}, "type": "Feature"}
{"geometry": {"coordinates": [-105.5085454585, 40.3750153749], "type": "Point"}, "id": "dJyHrhQIgd9F7v-If6CjYIWTHc8=", "properties": {"@source_uri": "https://tools.usps.com/UspsToolsRestServices/rest/POLocator/findLocations", "@spider": "usps_collection_boxes", "addr:city": "ESTES PARK", "addr:country": "US", "addr:postcode": "80517", "addr:state": "CO", "addr:street_address": "158 1ST ST", "amenity": "post_box", "collection_times": "Mo-Sa 11:30", "nsi_id": "unitedstatespostalservice-a77078", "operator": "United States Postal Service", "operator:short": "USPS", "operator:type": "public", "operator:wikidata": "Q668687", "ref": "8051700006"}, "type": "Feature"}
{"geometry": {"coordinates": [-105.514459, 40.378895], "type": "Point"}, "id": "XbOr5OyOWu_m0TVuFxGbmAtavH4=", "properties": {"@source_uri": "https://tools.usps.com/UspsToolsRestServices/rest/POLocator/findLocations", "@spider": "usps_collection_boxes", "addr:city": "ESTES PARK", "addr:country": "US", "addr:postcode": "80517", "addr:state": "CO", "addr:street_address": "500 BIG THOMPSON AVE", "amenity": "post_box", "collection_times": "Mo-Sa 11:30", "nsi_id": "unitedstatespostalservice-a77078", "operator": "United States Postal Service", "operator:short": "USPS", "operator:type": "public", "operator:wikidata": "Q668687", "ref": "8051700008"}, "type": "Feature"}
{"geometry": {"coordinates": [-105.526178, 40.376123], "type": "Point"}, "id": "JN5_vk7dKOFZ2ymRSGVql2qFhNA=", "properties": {"@source_uri": "https://tools.usps.com/UspsToolsRestServices/rest/POLocator/findLocations", "@spider": "usps_collection_boxes", "addr:city": "ESTES PARK", "addr:country": "US", "addr:postcode": "80517", "addr:state": "CO", "addr:street_address": "238 W ELKHORN AVE", "amenity": "post_box", "collection_times": "Mo-Sa 12:30", "note": "ON 12/24 AND 12/31, THIS BOX MAY BE COLLECTED AS EARLY AS 12 NOON.", "nsi_id": "unitedstatespostalservice-a77078", "operator": "United States Postal Service", "operator:short": "USPS", "operator:type": "public", "operator:wikidata": "Q668687", "ref": "8051700009"}, "type": "Feature"}
{"geometry": {"coordinates": [-105.522837, 40.374433], "type": "Point"}, "id": "zS7Uxz3tR1lLn8kK9C7MFKmzWRI=", "properties": {"@source_uri": "https://tools.usps.com/UspsToolsRestServices/rest/POLocator/findLocations", "@spider": "usps_collection_boxes", "addr:city": "ESTES PARK", "addr:country": "US", "addr:postcode": "80517", "addr:state": "CO", "addr:street_address": "215 W RIVERSIDE DR", "amenity": "post_box", "collection_times": "Mo-Fr 16:30; Sa 14:30", "indoor": "yes", "note": "ON 12/24 AND 12/31, THIS BOX MAY BE COLLECTED AS EARLY AS 12 NOON.", "nsi_id": "unitedstatespostalservice-a77078", "operator": "United States Postal Service", "operator:short": "USPS", "operator:type": "public", "operator:wikidata": "Q668687", "ref": "8051700010"}, "type": "Feature"}
{"geometry": {"coordinates": [-105.522837, 40.374433], "type": "Point"}, "id": "M1ajq_Rg9ULfRq2iv-ZxJSU5jSs=", "properties": {"@source_uri": "https://tools.usps.com/UspsToolsRestServices/rest/POLocator/findLocations", "@spider": "usps_collection_boxes", "addr:city": "ESTES PARK", "addr:country": "US", "addr:postcode": "80517", "addr:state": "CO", "addr:street_address": "215 W RIVERSIDE DR", "amenity": "post_box", "collection_times": "Mo-Fr 16:30; Sa 14:30", "indoor": "yes", "note": "ON 12/24 AND 12/31, THIS BOX MAY BE COLLECTED AS EARLY AS 12 NOON.", "nsi_id": "unitedstatespostalservice-a77078", "operator": "United States Postal Service", "operator:short": "USPS", "operator:type": "public", "operator:wikidata": "Q668687", "ref": "8051700011"}, "type": "Feature"}
{"geometry": {"coordinates": [-105.522837, 40.374433], "type": "Point"}, "id": "EPIo6uyGCMD5m0F-qmWUYEO8ehg=", "properties": {"@source_uri": "https://tools.usps.com/UspsToolsRestServices/rest/POLocator/findLocations", "@spider": "usps_collection_boxes", "addr:city": "ESTES PARK", "addr:country": "US", "addr:postcode": "80517", "addr:state": "CO", "addr:street_address": "215 W RIVERSIDE DR", "amenity": "post_box", "collection_times": "Mo-Fr 16:30; Sa 14:30", "indoor": "yes", "note": "ON 12/24 AND 12/31, THIS BOX MAY BE COLLECTED AS EARLY AS 12 NOON.", "nsi_id": "unitedstatespostalservice-a77078", "operator": "United States Postal Service", "operator:short": "USPS", "operator:type": "public", "operator:wikidata": "Q668687", "ref": "8051700012"}, "type": "Feature"}
{"geometry": {"coordinates": [-105.522837, 40.374433], "type": "Point"}, "id": "oRoTmF4dXbWI6wtU_rV4veSxwxs=", "properties": {"@source_uri": "https://tools.usps.com/UspsToolsRestServices/rest/POLocator/findLocations", "@spider": "usps_collection_boxes", "addr:city": "ESTES PARK", "addr:country": "US", "addr:postcode": "80517", "addr:state": "CO", "addr:street_address": "215 W RIVERSIDE DR", "amenity": "post_box", "collection_times": "Mo-Fr 16:30; Sa 14:30", "indoor": "yes", "note": "ON 12/24 AND 12/31, THIS BOX MAY BE COLLECTED AS EARLY AS 12 NOON.", "nsi_id": "unitedstatespostalservice-a77078", "operator": "United States Postal Service", "operator:short": "USPS", "operator:type": "public", "operator:wikidata": "Q668687", "ref": "8051700013"}, "type": "Feature"}
{"geometry": {"coordinates": [-105.5075802, 40.36965], "type": "Point"}, "id": "lzxB0H90qtl1XBs4QQzV5QtPbV8=", "properties": {"@source_uri": "https://tools.usps.com/UspsToolsRestServices/rest/POLocator/findLocations", "@spider": "usps_collection_boxes", "addr:city": "ESTES PARK", "addr:country": "US", "addr:postcode": "80517", "addr:state": "CO", "addr:street_address": "1110 WOODSTOCK DR", "amenity": "post_box", "collection_times": "Mo-Sa 12:30", "note": "ON 12/24 AND 12/31, THIS BOX MAY BE COLLECTED AS EARLY AS 12 NOON.", "nsi_id": "unitedstatespostalservice-a77078", "operator": "United States Postal Service", "operator:short": "USPS", "operator:type": "public", "operator:wikidata": "Q668687", "ref": "8051700014"}, "type": "Feature"}
{"geometry": {"coordinates": [-105.520923, 40.377571], "type": "Point"}, "id": "VCKaXGakGjMul81x_6tFfa1pjoM=", "properties": {"@source_uri": "https://tools.usps.com/UspsToolsRestServices/rest/POLocator/findLocations", "@spider": "usps_collection_boxes", "addr:city": "ESTES PARK", "addr:country": "US", "addr:postcode": "80517", "addr:state": "CO", "addr:street_address": "256 PARK LN", "amenity": "post_box", "collection_times": "Mo-Fr 16:00; Sa 12:00", "note": "ON 12/24 AND 12/31, THIS BOX MAY BE COLLECTED AS EARLY AS 12 NOON.", "nsi_id": "unitedstatespostalservice-a77078", "operator": "United States Postal Service", "operator:short": "USPS", "operator:type": "public", "operator:wikidata": "Q668687", "ref": "8051700015"}, "type": "Feature"}
{"geometry": {"coordinates": [-105.5075802, 40.36965], "type": "Point"}, "id": "qndR0q3sb-7A5VOroyxi84OXaoI=", "properties": {"@source_uri": "https://tools.usps.com/UspsToolsRestServices/rest/POLocator/findLocations", "@spider": "usps_collection_boxes", "addr:city": "ESTES PARK", "addr:country": "US", "addr:postcode": "80517", "addr:state": "CO", "addr:street_address": "215 W RIVERSIDE DR", "amenity": "post_box", "collection_times": "Mo-Fr 16:00; Sa 14:30", "note": "ON 12/24 AND 12/31, THIS BOX MAY BE COLLECTED AS EARLY AS 12 NOON.", "nsi_id": "unitedstatespostalservice-a77078", "operator": "United States Postal Service", "operator:short": "USPS", "operator:type": "public", "operator:wikidata": "Q668687", "ref": "8051700019"}, "type": "Feature"}
{"geometry": {"coordinates": [-104.939252, 40.112948], "type": "Point"}, "id": "1Xg6l3Lf2qQgKzUHDqNZeTLWOY4=", "properties": {"@source_uri": "https://tools.usps.com/UspsToolsRestServices/rest/POLocator/findLocations", "@spider": "usps_collection_boxes", "addr:city": "FIRESTONE", "addr:country": "US", "addr:postcode": "80520", "addr:state": "CO", "addr:street_address": "478 1ST ST", "amenity": "post_box", "collection_times": "Mo-Fr 16:45; Sa 11:00", "note": "ON 12/24 AND 12/31, THIS BOX MAY BE COLLECTED AS EARLY AS 12 NOON.", "nsi_id": "unitedstatespostalservice-a77078", "operator": "United States Postal Service", "operator:short": "USPS", "operator:type": "public", "operator:wikidata": "Q668687", "ref": "8052000000"}, "type": "Feature"}
{"geometry": {"coordinates": [-104.939288, 40.113001], "type": "Point"}, "id": "vzfq3TjjEuhgLwGl-sujeKefNi0=", "properties": {"@source_uri": "https://tools.usps.com/UspsToolsRestServices/rest/POLocator/findLocations", "@spider": "usps_collection_boxes", "addr:city": "FIRESTONE", "addr:country": "US", "addr:postcode": "80520", "addr:state": "CO", "addr:street_address": "478 1ST ST", "amenity": "post_box", "collection_times": "Mo-Fr 16:45; Sa 11:00", "indoor": "yes", "note": "ON 12/24 AND 12/31, THIS BOX MAY BE COLLECTED AS EARLY AS 12 NOON.", "nsi_id": "unitedstatespostalservice-a77078", "operator": "United States Postal Service", "operator:short": "USPS", "operator:type": "public", "operator:wikidata": "Q668687", "ref": "8052000001"}, "type": "Feature"}
{"geometry": {"coordinates": [-105.080004, 40.585519], "type": "Point"}, "id": "B65meyPM5Gpup81QNOR_BkmmNWA=", "properties": {"@source_uri": "https://tools.usps.com/UspsToolsRestServices/rest/POLocator/findLocations", "@spider": "usps_collection_boxes", "addr:city": "FORT COLLINS", "addr:country": "US", "addr:postcode": "80521", "addr:state": "CO", "addr:street_address": "215 W OAK ST", "amenity": "post_box", "collection_times": "Mo-Sa 14:15", "note": "ON 12/24 AND 12/31, THIS BOX MAY BE COLLECTED AS EARLY AS 12 NOON.", "nsi_id": "unitedstatespostalservice-a77078", "operator": "United States Postal Service", "operator:short": "USPS", "operator:type": "public", "operator:wikidata": "Q668687", "ref": "8052100000"}, "type": "Feature"}
{"geometry": {"coordinates": [-105.095937, 40.587274], "type": "Point"}, "id": "dgxPU-j5vDu4bNv6Utx34cgPOj8=", "properties": {"@source_uri": "https://tools.usps.com/UspsToolsRestServices/rest/POLocator/findLocations", "@spider": "usps_collection_boxes", "addr:city": "FORT COLLINS", "addr:country": "US", "addr:postcode": "80521", "addr:state": "CO", "addr:street_address": "1100 W MOUNTAIN AVE", "amenity": "post_box", "collection_times": "Mo-Fr 12:45; Sa 13:30", "note": "ON 12/24 AND 12/31, THIS BOX MAY BE COLLECTED AS EARLY AS 12 NOON.", "nsi_id": "unitedstatespostalservice-a77078", "operator": "United States Postal Service", "operator:short": "USPS", "operator:type": "public", "operator:wikidata": "Q668687", "ref": "8052100002"}, "type": "Feature"}
{"geometry": {"coordinates": [-105.09749, 40.574217], "type": "Point"}, "id": "Uaf5qP1zkw5cdXH1QlaA9hyDO-M=", "properties": {"@source_uri": "https://tools.usps.com/UspsToolsRestServices/rest/POLocator/findLocations", "@spider": "usps_collection_boxes", "addr:city": "FORT COLLINS", "addr:country": "US", "addr:postcode": "80521", "addr:state": "CO", "addr:street_address": "1129 W ELIZABETH ST", "amenity": "post_box", "collection_times": "Mo-Sa 10:30", "nsi_id": "unitedstatespostalservice-a77078", "operator": "United States Postal Service", "operator:short": "USPS", "operator:type": "public", "operator:wikidata": "Q668687", "ref": "8052100003"}, "type": "Feature"}
{"geometry": {"coordinates": [-105.116608, 40.57351], "type": "Point"}, "id": "iYCOmaBO_yaZsxUMuo1qs7cjdaQ=", "properties": {"@source_uri": "https://tools.usps.com/UspsToolsRestServices/rest/POLocator/findLocations", "@spider": "usps_collection_boxes", "addr:city": "FORT COLLINS", "addr:country": "US", "addr:postcode": "80521", "addr:state": "CO", "addr:street_address": "1015 S TAFT HILL RD", "amenity": "post_box", "collection_times": "Mo-Sa 11:45", "nsi_id": "unitedstatespostalservice-a77078", "operator": "United States Postal Service", "operator:short": "USPS", "operator:type": "public", "operator:wikidata": "Q668687", "ref": "8052100005"}, "type": "Feature"}
{"geometry": {"coordinates": [-105.080777, 40.583559], "type": "Point"}, "id": "R4mBlagy481CYlrs34UHRm4ZX8c=", "properties": {"@source_uri": "https://tools.usps.com/UspsToolsRestServices/rest/POLocator/findLocations", "@spider": "usps_collection_boxes", "addr:city": "FORT COLLINS", "addr:country": "US", "addr:postcode": "80521", "addr:state": "CO", "addr:street_address": "301 S HOWES ST", "amenity": "post_box", "collection_times": "Mo-Sa 17:30", "note": "ON 12/24 AND 12/31, THIS BOX MAY BE COLLECTED AS EARLY AS 12 NOON.", "nsi_id": "unitedstatespostalservice-a77078", "operator": "United States Postal Service", "operator:short": "USPS", "operator:type": "public", "operator:wikidata": "Q668687", "ref": "8052100008"}, "type": "Feature"}
{"geometry": {"coordinates": [-105.080777, 40.583559], "type": "Point"}, "id": "VZ8qTre2M4-6QgBBXAlLnlRSzsI=", "properties": {"@source_uri": "https://tools.usps.com/UspsToolsRestServices/rest/POLocator/findLocations", "@spider": "usps_collection_boxes", "addr:city": "FORT COLLINS", "addr:country": "US", "addr:postcode": "80521", "addr:state": "CO", "addr:street_address": "301 S HOWES ST", "amenity": "post_box", "collection_times": "Mo-Fr 15:45; Sa 13:45", "indoor": "yes", "note": "ON 12/24 AND 12/31, THIS BOX MAY BE COLLECTED AS EARLY AS 12 NOON.", "nsi_id": "unitedstatespostalservice-a77078", "operator": "United States Postal Service", "operator:short": "USPS", "operator:type": "public", "operator:wikidata": "Q668687", "ref": "8052100011"}, "type": "Feature"}
{"geometry": {"coordinates": [-105.080777, 40.583559], "type": "Point"}, "id": "wFjqCGP9rgYqQRrU1o-ifI4Fiiw=", "properties": {"@source_uri": "https://tools.usps.com/UspsToolsRestServices/rest/POLocator/findLocations", "@spider": "usps_collection_boxes", "addr:city": "FORT COLLINS", "addr:country": "US", "addr:postcode": "80521", "addr:state": "CO", "addr:street_address": "301 S HOWES ST", "amenity": "post_box", "collection_times": "Mo-Fr 17:30; Sa 13:45", "indoor": "yes", "note": "ON 12/24 AND 12/31, THIS BOX MAY BE COLLECTED AS EARLY AS 12 NOON.", "nsi_id": "unitedstatespostalservice-a77078", "operator": "United States Postal Service", "operator:short": "USPS", "operator:type": "public", "operator:wikidata": "Q668687", "ref": "8052100012"}, "type": "Feature"}
{"geometry": {"coordinates": [-105.080777, 40.583559], "type": "Point"}, "id": "VPbJ9z6asw4uxYfyDTJeAo48zVU=", "properties": {"@source_uri": "https://tools.usps.com/UspsToolsRestServices/rest/POLocator/findLocations", "@spider": "usps_collection_boxes", "addr:city": "FORT COLLINS", "addr:country": "US", "addr:postcode": "80521", "addr:state": "CO", "addr:street_address": "301 S HOWES ST", "amenity": "post_box", "collection_times": "Mo-Sa 17:30", "indoor": "yes", "note": "ON 12/24 AND 12/31, THIS BOX MAY BE COLLECTED AS EARLY AS 12 NOON.", "nsi_id": "unitedstatespostalservice-a77078", "operator": "United States Postal Service", "operator:short": "USPS", "operator:type": "public", "operator:wikidata": "Q668687", "ref": "8052100016"}, "type": "Feature"}
{"geometry": {"coordinates": [-105.080777, 40.583559], "type": "Point"}, "id": "APCltJo8OjFEyx2_VEEBjWeGvVI=", "properties": {"@source_uri": "https://tools.usps.com/UspsToolsRestServices/rest/POLocator/findLocations", "@spider": "usps_collection_boxes", "addr:city": "FORT COLLINS", "addr:country": "US", "addr:postcode": "80521", "addr:state": "CO", "addr:street_address": "301 S HOWES ST", "amenity": "post_box", "collection_times": "Mo-Sa 17:30", "indoor": "yes", "note": "ON 12/24 AND 12/31, THIS BOX MAY BE COLLECTED AS EARLY AS 12 NOON.", "nsi_id": "unitedstatespostalservice-a77078", "operator": "United States Postal Service", "operator:short": "USPS", "operator:type": "public", "operator:wikidata": "Q668687", "ref": "8052100017"}, "type": "Feature"}
{"geometry": {"coordinates": [-105.080777, 40.583559], "type": "Point"}, "id": "oBWuWdAA4afJlRUEcnCJLWqHi0g=", "properties": {"@source_uri": "https://tools.usps.com/UspsToolsRestServices/rest/POLocator/findLocations", "@spider": "usps_collection_boxes", "addr:city": "FORT COLLINS", "addr:country": "US", "addr:postcode": "80521", "addr:state": "CO", "addr:street_address": "301 S HOWES ST", "amenity": "post_box", "collection_times": "Mo-Sa 17:30", "indoor": "yes", "note": "ON 12/24 AND 12/31, THIS BOX MAY BE COLLECTED AS EARLY AS 12 NOON.", "nsi_id": "unitedstatespostalservice-a77078", "operator": "United States Postal Service", "operator:short": "USPS", "operator:type": "public", "operator:wikidata": "Q668687", "ref": "8052100018"}, "type": "Feature"}
{"geometry": {"coordinates": [-105.080777, 40.583559], "type": "Point"}, "id": "_RFA0akksi9_i-dLVL8Ancf1YlM=", "properties": {"@source_uri": "https://tools.usps.com/UspsToolsRestServices/rest/POLocator/findLocations", "@spider": "usps_collection_boxes", "addr:city": "FORT COLLINS", "addr:country": "US", "addr:postcode": "80521", "addr:state": "CO", "addr:street_address": "301 S HOWES ST", "amenity": "post_box", "collection_times": "Mo-Sa 17:30", "indoor": "yes", "note": "ON 12/24 AND 12/31, THIS BOX MAY BE COLLECTED AS EARLY AS 12 NOON.", "nsi_id": "unitedstatespostalservice-a77078", "operator": "United States Postal Service", "operator:short": "USPS", "operator:type": "public", "operator:wikidata": "Q668687", "ref": "8052100019"}, "type": "Feature"}
{"geometry": {"coordinates": [-105.080777, 40.583559], "type": "Point"}, "id": "t2dMiGDs-LKrsltw6No68UV2sRQ=", "properties": {"@source_uri": "https://tools.usps.com/UspsToolsRestServices/rest/POLocator/findLocations", "@spider": "usps_collection_boxes", "addr:city": "FORT COLLINS", "addr:country": "US", "addr:postcode": "80521", "addr:state": "CO", "addr:street_address": "301 S HOWES ST", "amenity": "post_box", "collection_times": "Mo-Sa 17:30", "indoor": "yes", "note": "ON 12/24 AND 12/31, THIS BOX MAY BE COLLECTED AS EARLY AS 12 NOON.", "nsi_id": "unitedstatespostalservice-a77078", "operator": "United States Postal Service", "operator:short": "USPS", "operator:type": "public", "operator:wikidata": "Q668687", "ref": "8052100020"}, "type": "Feature"}
{"geometry": {"coordinates": [-105.080777, 40.583559], "type": "Point"}, "id": "qvHsLaaNj4iksuTPoc6eTQynUQE=", "properties": {"@source_uri": "https://tools.usps.com/UspsToolsRestServices/rest/POLocator/findLocations", "@spider": "usps_collection_boxes", "addr:city": "FORT COLLINS", "addr:country": "US", "addr:postcode": "80521", "addr:state": "CO", "addr:street_address": "301 S HOWES ST", "amenity": "post_box", "collection_times": "Mo-Sa 17:30", "indoor": "yes", "note": "ON 12/24 AND 12/31, THIS BOX MAY BE COLLECTED AS EARLY AS 12 NOON.", "nsi_id": "unitedstatespostalservice-a77078", "operator": "United States Postal Service", "operator:short": "USPS", "operator:type": "public", "operator:wikidata": "Q668687", "ref": "8052100021"}, "type": "Feature"}
{"geometry": {"coordinates": [-105.081601, 40.585038], "type": "Point"}, "id": "vb85RHhcxd9mDI7Z_6J04DDIUZ8=", "properties": {"@source_uri": "https://tools.usps.com/UspsToolsRestServices/rest/POLocator/findLocations", "@spider": "usps_collection_boxes", "addr:city": "FORT COLLINS", "addr:country": "US", "addr:postcode": "80521", "addr:state": "CO", "addr:street_address": "211 CANYON AVE", "amenity": "post_box", "collection_times": "Mo-Fr 15:20; Sa 14:45", "note": "ON 12/24 AND 12/31, THIS BOX MAY BE COLLECTED AS EARLY AS 12 NOON.", "nsi_id": "unitedstatespostalservice-a77078", "operator": "United States Postal Service", "operator:short": "USPS", "operator:type": "public", "operator:wikidata": "Q668687", "ref": "8052100022"}, "type": "Feature"}
{"geometry": {"coordinates": [-105.080777, 40.583559], "type": "Point"}, "id": "XsP7BCzUpvrQZlm_YeY4BDQqATE=", "properties": {"@source_uri": "https://tools.usps.com/UspsToolsRestServices/rest/POLocator/findLocations", "@spider": "usps_collection_boxes", "addr:city": "FORT COLLINS", "addr:country": "US", "addr:postcode": "80521", "addr:state": "CO", "addr:street_address": "301 S HOWES ST", "amenity": "post_box", "collection_times": "Mo-Sa 17:30", "name": "USPS COLLECTION BOX - APC", "note": "ON 12/24 AND 12/31, THIS BOX MAY BE COLLECTED AS EARLY AS 12 NOON.", "nsi_id": "unitedstatespostalservice-a77078", "operator": "United States Postal Service", "operator:short": "USPS", "operator:type": "public", "operator:wikidata": "Q668687", "ref": "8052100027"}, "type": "Feature"}
{"geometry": {"coordinates": [-105.077268, 40.608525], "type": "Point"}, "id": "P6sz5K_-Pz51GJkc4cGmbVdmrEA=", "properties": {"@source_uri": "https://tools.usps.com/UspsToolsRestServices/rest/POLocator/findLocations", "@spider": "usps_collection_boxes", "addr:city": "FORT COLLINS", "addr:country": "US", "addr:postcode": "80524", "addr:state": "CO", "addr:street_address": "1601 N COLLEGE AVE", "amenity": "post_box", "collection_times": "Mo-Sa 12:30", "note": "ON 12/24 AND 12/31, THIS BOX MAY BE COLLECTED AS EARLY AS 12 NOON.", "nsi_id": "unitedstatespostalservice-a77078", "operator": "United States Postal Service", "operator:short": "USPS", "operator:type": "public", "operator:wikidata": "Q668687", "ref": "8052400002"}, "type": "Feature"}
{"geometry": {"coordinates": [-105.071963, 40.609931], "type": "Point"}, "id": "S1aEVkukzO4bJUYUl4EVaFi5cuw=", "properties": {"@source_uri": "https://tools.usps.com/UspsToolsRestServices/rest/POLocator/findLocations", "@spider": "usps_collection_boxes", "addr:city": "FORT COLLINS", "addr:country": "US", "addr:postcode": "80524", "addr:state": "CO", "addr:street_address": "1635 BLUE SPRUCE DR", "amenity": "post_box", "collection_times": "Mo-Fr 13:30; Sa 14:30", "note": "ON 12/24 AND 12/31, THIS BOX MAY BE COLLECTED AS EARLY AS 12 NOON.", "nsi_id": "unitedstatespostalservice-a77078", "operator": "United States Postal Service", "operator:short": "USPS", "operator:type": "public", "operator:wikidata": "Q668687", "ref": "8052400003"}, "type": "Feature"}
{"geometry": {"coordinates": [-105.07686, 40.586692], "type": "Point"}, "id": "5TstKfFd97wuGTfOaETfiv9Wa9I=", "properties": {"@source_uri": "https://tools.usps.com/UspsToolsRestServices/rest/POLocator/findLocations", "@spider": "usps_collection_boxes", "addr:city": "FORT COLLINS", "addr:country": "US", "addr:postcode": "80524", "addr:state": "CO", "addr:street_address": "100 S COLLEGE AVE", "amenity": "post_box", "collection_times": "Mo-Fr 16:15; Sa 14:35", "note": "ON 12/24 AND 12/31, THIS BOX MAY BE COLLECTED AS EARLY AS 12 NOON.", "nsi_id": "unitedstatespostalservice-a77078", "operator": "United States Postal Service", "operator:short": "USPS", "operator:type": "public", "operator:wikidata": "Q668687", "ref": "8052400005"}, "type": "Feature"}
{"geometry": {"coordinates": [-105.077007789, 40.5756273877], "type": "Point"}, "id": "Nt96_fGaG4enmPCsOsYFZtBfuFE=", "properties": {"@source_uri": "https://tools.usps.com/UspsToolsRestServices/rest/POLocator/findLocations", "@spider": "usps_collection_boxes", "addr:city": "FORT COLLINS", "addr:country": "US", "addr:postcode": "80524", "addr:state": "CO", "addr:street_address": "830 S COLLEGE AVE", "amenity": "post_box", "collection_times": "Mo-Sa 14:30", "note": "ON 12/24 AND 12/31, THIS BOX MAY BE COLLECTED AS EARLY AS 12 NOON.", "nsi_id": "unitedstatespostalservice-a77078", "operator": "United States Postal Service", "operator:short": "USPS", "operator:type": "public", "operator:wikidata": "Q668687", "ref": "8052400006"}, "type": "Feature"}
{"geometry": {"coordinates": [-105.006763, 40.580697], "type": "Point"}, "id": "IR5p6RY4fsemeTWsBDZEU4w5fCs=", "properties": {"@source_uri": "https://tools.usps.com/UspsToolsRestServices/rest/POLocator/findLocations", "@spider": "usps_collection_boxes", "addr:city": "FORT COLLINS", "addr:country": "US", "addr:postcode": "80524", "addr:state": "CO", "addr:street_address": "3809 E MULBERRY ST", "amenity": "post_box", "collection_times": "Mo-Fr 14:00; Sa 11:00", "note": "ON 12/24 AND 12/31, THIS BOX MAY BE COLLECTED AS EARLY AS 12 NOON.", "nsi_id": "unitedstatespostalservice-a77078", "operator": "United States Postal Service", "operator:short": "USPS", "operator:type": "public", "operator:wikidata": "Q668687", "ref": "8052400007"}, "type": "Feature"}
{"geometry": {"coordinates": [-105.050062, 40.583369], "type": "Point"}, "id": "DWApEqoFgLGHb0Bt2fka91Niq6U=", "properties": {"@source_uri": "https://tools.usps.com/UspsToolsRestServices/rest/POLocator/findLocations", "@spider": "usps_collection_boxes", "addr:city": "FORT COLLINS", "addr:country": "US", "addr:postcode": "80524", "addr:state": "CO", "addr:street_address": "328 S LINK LN", "amenity": "post_box", "collection_times": "Mo-Fr 16:00; Sa 14:20", "note": "ON 12/24 AND 12/31, THIS BOX MAY BE COLLECTED AS EARLY AS 12 NOON.", "nsi_id": "unitedstatespostalservice-a77078", "operator": "United States Postal Service", "operator:short": "USPS", "operator:type": "public", "operator:wikidata": "Q668687", "ref": "8052400008"}, "type": "Feature"}
{"geometry": {"coordinates": [-105.059352, 40.576865], "type": "Point"}, "id": "Y9KA5XTOPdq8NhHCTuVEttEK1qg=", "properties": {"@source_uri": "https://tools.usps.com/UspsToolsRestServices/rest/POLocator/findLocations", "@spider": "usps_collection_boxes", "addr:city": "FORT COLLINS", "addr:country": "US", "addr:postcode": "80524", "addr:state": "CO", "addr:street_address": "737 S LEMAY AVE", "amenity": "post_box", "collection_times": "Mo-Sa 14:30", "note": "ON 12/24 AND 12/31, THIS BOX MAY BE COLLECTED AS EARLY AS 12 NOON.", "nsi_id": "unitedstatespostalservice-a77078", "operator": "United States Postal Service", "operator:short": "USPS", "operator:type": "public", "operator:wikidata": "Q668687", "ref": "8052400010"}, "type": "Feature"}
{"geometry": {"coordinates": [-105.041879, 40.607156], "type": "Point"}, "id": "CrY-FH0_-ljNdwVjqNrO5v0oRoo=", "properties": {"@source_uri": "https://tools.usps.com/UspsToolsRestServices/rest/POLocator/findLocations", "@spider": "usps_collection_boxes", "addr:city": "FORT COLLINS", "addr:country": "US", "addr:postcode": "80524", "addr:state": "CO", "addr:street_address": "1386 ADRIEL DR", "amenity": "post_box", "collection_times": "Mo-Sa 11:00", "nsi_id": "unitedstatespostalservice-a77078", "operator": "United States Postal Service", "operator:short": "USPS", "operator:type": "public", "operator:wikidata": "Q668687", "ref": "8052400016"}, "type": "Feature"}
{"geometry": {"coordinates": [-105.058192, 40.603504], "type": "Point"}, "id": "RLgbcyqjZkyNfuAWX6xrOIsIZYA=", "properties": {"@source_uri": "https://tools.usps.com/UspsToolsRestServices/rest/POLocator/findLocations", "@spider": "usps_collection_boxes", "addr:city": "FORT COLLINS", "addr:country": "US", "addr:postcode": "80524", "addr:state": "CO", "addr:street_address": "1037 CONIFER ST", "amenity": "post_box", "collection_times": "Mo-Fr 13:30; Sa 14:30", "note": "ON 12/24 AND 12/31, THIS BOX MAY BE COLLECTED AS EARLY AS 12 NOON.", "nsi_id": "unitedstatespostalservice-a77078", "operator": "United States Postal Service", "operator:short": "USPS", "operator:type": "public", "operator:wikidata": "Q668687", "ref": "8052400020"}, "type": "Feature"}
{"geometry": {"coordinates": [-105.073601, 40.587172], "type": "Point"}, "id": "OZwv_o-W6nZQs7QR9QLei8luFEE=", "properties": {"@source_uri": "https://tools.usps.com/UspsToolsRestServices/rest/POLocator/findLocations", "@spider": "usps_collection_boxes", "addr:city": "FORT COLLINS", "addr:country": "US", "addr:postcode": "80524", "addr:state": "CO", "addr:street_address": "300 E MOUNTAIN AVE", "amenity": "post_box", "collection_times": "Mo-Fr 15:00; Sa 14:30", "note": "ON 12/24 AND 12/31, THIS BOX MAY BE COLLECTED AS EARLY AS 12 NOON.", "nsi_id": "unitedstatespostalservice-a77078", "operator": "United States Postal Service", "operator:short": "USPS", "operator:type": "public", "operator:wikidata": "Q668687", "ref": "8052400022"}, "type": "Feature"}
{"geometry": {"coordinates": [-105.030095, 40.57971], "type": "Point"}, "id": "uz1_QcwvIAJvkaWxOe0D9nOjP2U=", "properties": {"@source_uri": "https://tools.usps.com/UspsToolsRestServices/rest/POLocator/findLocations", "@spider": "usps_collection_boxes", "addr:city": "FORT COLLINS", "addr:country": "US", "addr:postcode": "80524", "addr:state": "CO", "addr:street_address": "604 COUNTRYSIDE DR", "amenity": "post_box", "collection_times": "Mo-Fr 14:00; Sa 13:00", "note": "ON 12/24 AND 12/31, THIS BOX MAY BE COLLECTED AS EARLY AS 12 NOON.", "nsi_id": "unitedstatespostalservice-a77078", "operator": "United States Postal Service", "operator:short": "USPS", "operator:type": "public", "operator:wikidata": "Q668687", "ref": "8052400023"}, "type": "Feature"}
{"geometry": {"coordinates": [-105.030883, 40.587965], "type": "Point"}, "id": "Uc4AnTcc-NAt1cFzPWH-r3UtvXk=", "properties": {"@source_uri": "https://tools.usps.com/UspsToolsRestServices/rest/POLocator/findLocations", "@spider": "usps_collection_boxes", "addr:city": "FORT COLLINS", "addr:country": "US", "addr:postcode": "80524", "addr:state": "CO", "addr:street_address": "2485 INTERNATIONAL BLVD", "amenity": "post_box", "collection_times": "Mo-Fr 13:45", "note": "ON 12/24 AND 12/31, THIS BOX MAY BE COLLECTED AS EARLY AS 12 NOON.", "nsi_id": "unitedstatespostalservice-a77078", "operator": "United States Postal Service", "operator:short": "USPS", "operator:type": "public", "operator:wikidata": "Q668687", "ref": "8052400024"}, "type": "Feature"}
{"geometry": {"coordinates": [-105.077269, 40.585265], "type": "Point"}, "id": "F7X5gCk2rbq8e-J_8ghfnXnS1mU=", "properties": {"@source_uri": "https://tools.usps.com/UspsToolsRestServices/rest/POLocator/findLocations", "@spider": "usps_collection_boxes", "addr:city": "FORT COLLINS", "addr:country": "US", "addr:postcode": "80524", "addr:state": "CO", "addr:street_address": "201 S COLLEGE AVE", "amenity": "post_box", "collection_times": "Mo-Fr 15:15; Sa 14:30", "note": "ON 12/24 AND 12/31, THIS BOX MAY BE COLLECTED AS EARLY AS 12 NOON.", "nsi_id": "unitedstatespostalservice-a77078", "operator": "United States Postal Service", "operator:short": "USPS", "operator:type": "public", "operator:wikidata": "Q668687", "ref": "8052400025"}, "type": "Feature"}
{"geometry": {"coordinates": [-105.078278, 40.557685], "type": "Point"}, "id": "8SDyLvEaxVDJRbSSevW98pIjjsg=", "properties": {"@source_uri": "https://tools.usps.com/UspsToolsRestServices/rest/POLocator/findLocations", "@spider": "usps_collection_boxes", "addr:city": "FORT COLLINS", "addr:country": "US", "addr:postcode": "80525", "addr:state": "CO", "addr:street_address": "2211 S COLLEGE AVE", "amenity": "post_box", "collection_times": "Mo-Sa 10:30", "nsi_id": "unitedstatespostalservice-a77078", "operator": "United States Postal Service", "operator:short": "USPS", "operator:type": "public", "operator:wikidata": "Q668687", "ref": "8052500001"}, "type": "Feature"}
{"geometry": {"coordinates": [-105.0725890347, 40.5372679888], "type": "Point"}, "id": "sLhAtA3OyswVTuopsKKimQcR5iM=", "properties": {"@source_uri": "https://tools.usps.com/UspsToolsRestServices/rest/POLocator/findLocations", "@spider": "usps_collection_boxes", "addr:city": "FORT COLLINS", "addr:country": "US", "addr:postcode": "80525", "addr:state": "CO", "addr:street_address": "375 E HORSETOOTH RD", "amenity": "post_box", "collection_times": "Mo-Sa 10:30", "nsi_id": "unitedstatespostalservice-a77078", "operator": "United States Postal Service", "operator:short": "USPS", "operator:type": "public", "operator:wikidata": "Q668687", "ref": "8052500003"}, "type": "Feature"}
{"geometry": {"coordinates": [-105.058712, 40.522371], "type": "Point"}, "id": "zBRSM6w2wqKdmOpEKQW4VWMHDww=", "properties": {"@source_uri": "https://tools.usps.com/UspsToolsRestServices/rest/POLocator/findLocations", "@spider": "usps_collection_boxes", "addr:city": "FORT COLLINS", "addr:country": "US", "addr:postcode": "80525", "addr:state": "CO", "addr:street_address": "1001 E HARMONY RD", "amenity": "post_box", "collection_times": "Mo-Fr 12:00; Sa 11:15", "nsi_id": "unitedstatespostalservice-a77078", "operator": "United States Postal Service", "operator:short": "USPS", "operator:type": "public", "operator:wikidata": "Q668687", "ref": "8052500009"}, "type": "Feature"}
{"geometry": {"coordinates": [-105.077369, 40.536945], "type": "Point"}, "id": "M9kj01QeWWDR-t2Pluo2om1R744=", "properties": {"@source_uri": "https://tools.usps.com/UspsToolsRestServices/rest/POLocator/findLocations", "@spider": "usps_collection_boxes", "addr:city": "FORT COLLINS", "addr:country": "US", "addr:postcode": "80525", "addr:state": "CO", "addr:street_address": "3641 S COLLEGE AVE", "amenity": "post_box", "collection_times": "Mo-Sa 10:30", "nsi_id": "unitedstatespostalservice-a77078", "operator": "United States Postal Service", "operator:short": "USPS", "operator:type": "public", "operator:wikidata": "Q668687", "ref": "8052500017"}, "type": "Feature"}
{"geometry": {"coordinates": [-105.034132, 40.568151], "type": "Point"}, "id": "hnUVAt6tS9qDi_ofu4bdlfal83g=", "properties": {"@source_uri": "https://tools.usps.com/UspsToolsRestServices/rest/POLocator/findLocations", "@spider": "usps_collection_boxes", "addr:city": "FORT COLLINS", "addr:country": "US", "addr:postcode": "80525", "addr:state": "CO", "addr:street_address": "2400 E PROSPECT RD", "amenity": "post_box", "collection_times": "Mo-Fr 14:15; Sa 15:00", "note": "ON 12/24 AND 12/31, THIS BOX MAY BE COLLECTED AS EARLY AS 12 NOON.", "nsi_id": "unitedstatespostalservice-a77078", "operator": "United States Postal Service", "operator:short": "USPS", "operator:type": "public", "operator:wikidata": "Q668687", "ref": "8052500019"}, "type": "Feature"}
{"geometry": {"coordinates": [-105.076092, 40.547203], "type": "Point"}, "id": "h1PdUmJbUiIGvXU7A2vfRNQUIKI=", "properties": {"@source_uri": "https://tools.usps.com/UspsToolsRestServices/rest/POLocator/findLocations", "@spider": "usps_collection_boxes", "addr:city": "FORT COLLINS", "addr:country": "US", "addr:postcode": "80525", "addr:state": "CO", "addr:street_address": "3000 S COLLEGE AVE", "amenity": "post_box", "collection_times": "Mo-Sa 10:30", "nsi_id": "unitedstatespostalservice-a77078", "operator": "United States Postal Service", "operator:short": "USPS", "operator:type": "public", "operator:wikidata": "Q668687", "ref": "8052500023"}, "type": "Feature"}
{"geometry": {"coordinates": [-105.074192, 40.532184], "type": "Point"}, "id": "i9JmSxcaBy1wm4aD5ntxPaTnfOY=", "properties": {"@source_uri": "https://tools.usps.com/UspsToolsRestServices/rest/POLocator/findLocations", "@spider": "usps_collection_boxes", "addr:city": "FORT COLLINS", "addr:country": "US", "addr:postcode": "80525", "addr:state": "CO", "addr:street_address": "301 BOARDWALK DR", "amenity": "post_box", "collection_times": "Mo-Sa 17:45", "indoor": "yes", "note": "ON 12/24 AND 12/31, THIS BOX MAY BE COLLECTED AS EARLY AS 12 NOON.", "nsi_id": "unitedstatespostalservice-a77078", "operator": "United States Postal Service", "operator:short": "USPS", "operator:type": "public", "operator:wikidata": "Q668687", "ref": "8052500025"}, "type": "Feature"}
{"geometry": {"coordinates": [-105.074192, 40.532184], "type": "Point"}, "id": "rG7smCyLgdD6LBGS1rkS6bdPX3Y=", "properties": {"@source_uri": "https://tools.usps.com/UspsToolsRestServices/rest/POLocator/findLocations", "@spider": "usps_collection_boxes", "addr:city": "FORT COLLINS", "addr:country": "US", "addr:postcode": "80525", "addr:state": "CO", "addr:street_address": "301 BOARDWALK DR", "amenity": "post_box", "collection_times": "Mo-Sa 17:45", "indoor": "yes", "note": "ON 12/24 AND 12/31, THIS BOX MAY BE COLLECTED AS EARLY AS 12 NOON.", "nsi_id": "unitedstatespostalservice-a77078", "operator": "United States Postal Service", "operator:short": "USPS", "operator:type": "public", "operator:wikidata": "Q668687", "ref": "8052500026"}, "type": "Feature"}
{"geometry": {"coordinates": [-105.074192, 40.532184], "type": "Point"}, "id": "tNoRRvsxGvLsmWgr6NycZr0RimY=", "properties": {"@source_uri": "https://tools.usps.com/UspsToolsRestServices/rest/POLocator/findLocations", "@spider": "usps_collection_boxes", "addr:city": "FORT COLLINS", "addr:country": "US", "addr:postcode": "80525", "addr:state": "CO", "addr:street_address": "301 BOARDWALK DR", "amenity": "post_box", "collection_times": "Mo-Sa 17:45", "indoor": "yes", "note": "ON 12/24 AND 12/31, THIS BOX MAY BE COLLECTED AS EARLY AS 12 NOON.", "nsi_id": "unitedstatespostalservice-a77078", "operator": "United States Postal Service", "operator:short": "USPS", "operator:type": "public", "operator:wikidata": "Q668687", "ref": "8052500029"}, "type": "Feature"}
{"geometry": {"coordinates": [-105.031927, 40.524334], "type": "Point"}, "id": "9uH-atbonn4C23iZllPTFTX8Rgo=", "properties": {"@source_uri": "https://tools.usps.com/UspsToolsRestServices/rest/POLocator/findLocations", "@spider": "usps_collection_boxes", "addr:city": "FORT COLLINS", "addr:country": "US", "addr:postcode": "80525", "addr:state": "CO", "addr:street_address": "2500 E HARMONY RD", "amenity": "post_box", "collection_times": "Mo-Fr 12:00; Sa 11:45", "nsi_id": "unitedstatespostalservice-a77078", "operator": "United States Postal Service", "operator:short": "USPS", "operator:type": "public", "operator:wikidata": "Q668687", "ref": "8052500034"}, "type": "Feature"}
{"geometry": {"coordinates": [-105.074192, 40.532184], "type": "Point"}, "id": "QzqF9wcnLI3zXbkbXDrxJWZtz4A=", "properties": {"@source_uri": "https://tools.usps.com/UspsToolsRestServices/rest/POLocator/findLocations", "@spider": "usps_collection_boxes", "addr:city": "FORT COLLINS", "addr:country": "US", "addr:postcode": "80525", "addr:state": "CO", "addr:street_address": "301 BOARDWALK DR", "amenity": "post_box", "collection_times": "Mo-Sa 17:45", "note": "ON 12/24 AND 12/31, THIS BOX MAY BE COLLECTED AS EARLY AS 12 NOON.", "nsi_id": "unitedstatespostalservice-a77078", "operator": "United States Postal Service", "operator:short": "USPS", "operator:type": "public", "operator:wikidata": "Q668687", "ref": "8052500037"}, "type": "Feature"}
{"geometry": {"coordinates": [-105.056928, 40.564096], "type": "Point"}, "id": "ir1WCl2Y4CbvdjXeAZYo6wGbZBA=", "properties": {"@source_uri": "https://tools.usps.com/UspsToolsRestServices/rest/POLocator/findLocations", "@spider": "usps_collection_boxes", "addr:city": "FORT COLLINS", "addr:country": "US", "addr:postcode": "80525", "addr:state": "CO", "addr:street_address": "1136 E STUART ST", "amenity": "post_box", "collection_times": "Mo-Fr 14:00; Sa 15:00", "note": "ON 12/24 AND 12/31, THIS BOX MAY BE COLLECTED AS EARLY AS 12 NOON.", "nsi_id": "unitedstatespostalservice-a77078", "operator": "United States Postal Service", "operator:short": "USPS", "operator:type": "public", "operator:wikidata": "Q668687", "ref": "8052500038"}, "type": "Feature"}
{"geometry": {"coordinates": [-105.051005, 40.538688], "type": "Point"}, "id": "2KS_b0Y4reGZ3V6O4_Xo_H3scX4=", "properties": {"@source_uri": "https://tools.usps.com/UspsToolsRestServices/rest/POLocator/findLocations", "@spider": "usps_collection_boxes", "addr:city": "FORT COLLINS", "addr:country": "US", "addr:postcode": "80525", "addr:state": "CO", "addr:street_address": "1424 E HORSETOOTH RD", "amenity": "post_box", "collection_times": "Mo-Sa 10:30", "nsi_id": "unitedstatespostalservice-a77078", "operator": "United States Postal Service", "operator:short": "USPS", "operator:type": "public", "operator:wikidata": "Q668687", "ref": "8052500041"}, "type": "Feature"}
{"geometry": {"coordinates": [-105.051079, 40.525023], "type": "Point"}, "id": "JpN_syl-6LdScA1cXDX4pcCjF7Q=", "properties": {"@source_uri": "https://tools.usps.com/UspsToolsRestServices/rest/POLocator/findLocations", "@spider": "usps_collection_boxes", "addr:city": "FORT COLLINS", "addr:country": "US", "addr:postcode": "80525", "addr:state": "CO", "addr:street_address": "1426 E HARMONY RD", "amenity": "post_box", "collection_times": "Mo-Fr 12:00; Sa 11:45", "nsi_id": "unitedstatespostalservice-a77078", "operator": "United States Postal Service", "operator:short": "USPS", "operator:type": "public", "operator:wikidata": "Q668687", "ref": "8052500043"}, "type": "Feature"}
{"geometry": {"coordinates": [-105.080083, 40.52258], "type": "Point"}, "id": "S_rO9sWKZwtLbMQC8RLT_RhVAi8=", "properties": {"@source_uri": "https://tools.usps.com/UspsToolsRestServices/rest/POLocator/findLocations", "@spider": "usps_collection_boxes", "addr:city": "FORT COLLINS", "addr:country": "US", "addr:postcode": "80525", "addr:state": "CO", "addr:street_address": "4619 S MASON ST", "amenity": "post_box", "collection_times": "Mo-Sa 10:30", "nsi_id": "unitedstatespostalservice-a77078", "operator": "United States Postal Service", "operator:short": "USPS", "operator:type": "public", "operator:wikidata": "Q668687", "ref": "8052500051"}, "type": "Feature"}
{"geometry": {"coordinates": [-105.074192, 40.532184], "type": "Point"}, "id": "2ohv0CwXYCUTHaSWb5jEiQzRf9M=", "properties": {"@source_uri": "https://tools.usps.com/UspsToolsRestServices/rest/POLocator/findLocations", "@spider": "usps_collection_boxes", "addr:city": "FORT COLLINS", "addr:country": "US", "addr:postcode": "80525", "addr:state": "CO", "addr:street_address": "301 BOARDWALK DR", "amenity": "post_box", "collection_times": "Mo-Sa 17:45", "indoor": "yes", "note": "ON 12/24 AND 12/31, THIS BOX MAY BE COLLECTED AS EARLY AS 12 NOON.", "nsi_id": "unitedstatespostalservice-a77078", "operator": "United States Postal Service", "operator:short": "USPS", "operator:type": "public", "operator:wikidata": "Q668687", "ref": "8052500052"}, "type": "Feature"}
{"geometry": {"coordinates": [-105.074192, 40.532184], "type": "Point"}, "id": "J8l30rGHInqC062kMIEoyq8qhtY=", "properties": {"@source_uri": "https://tools.usps.com/UspsToolsRestServices/rest/POLocator/findLocations", "@spider": "usps_collection_boxes", "addr:city": "FORT COLLINS", "addr:country": "US", "addr:postcode": "80525", "addr:state": "CO", "addr:street_address": "301 BOARDWALK DR", "amenity": "post_box", "collection_times": "Mo-Sa 17:45", "name": "USPS COLLECTION BOX - APC", "note": "ON 12/24 AND 12/31, THIS BOX MAY BE COLLECTED AS EARLY AS 12 NOON.", "nsi_id": "unitedstatespostalservice-a77078", "operator": "United States Postal Service", "operator:short": "USPS", "operator:type": "public", "operator:wikidata": "Q668687", "ref": "8052500053"}, "type": "Feature"}
{"geometry": {"coordinates": [-105.037415, 40.550853], "type": "Point"}, "id": "fQ9v1xwIujARWTYJy0thGLgzlSg=", "properties": {"@source_uri": "https://tools.usps.com/UspsToolsRestServices/rest/POLocator/findLocations", "@spider": "usps_collection_boxes", "addr:city": "FORT COLLINS", "addr:country": "US", "addr:postcode": "80525", "addr:state": "CO", "addr:street_address": "2614 S TIMBERLINE RD", "amenity": "post_box", "collection_times": "Mo-Fr 15:45; Sa 14:50", "note": "ON 12/24 AND 12/31, THIS BOX MAY BE COLLECTED AS EARLY AS 12 NOON.", "nsi_id": "unitedstatespostalservice-a77078", "operator": "United States Postal Service", "operator:short": "USPS", "operator:type": "public", "operator:wikidata": "Q668687", "ref": "8052500054"}, "type": "Feature"}
{"geometry": {"coordinates": [-105.038121, 40.535312], "type": "Point"}, "id": "b2XG8rFjHvyz1vQ5o_aYMUDDDQA=", "properties": {"@source_uri": "https://tools.usps.com/UspsToolsRestServices/rest/POLocator/findLocations", "@spider": "usps_collection_boxes", "addr:city": "FORT COLLINS", "addr:country": "US", "addr:postcode": "80525", "addr:state": "CO", "addr:street_address": "2105 BIGHORN RD", "amenity": "post_box", "collection_times": "Mo-Fr 14:15", "note": "ON 12/24 AND 12/31, THIS BOX MAY BE COLLECTED AS EARLY AS 12 NOON.", "nsi_id": "unitedstatespostalservice-a77078", "operator": "United States Postal Service", "operator:short": "USPS", "operator:type": "public", "operator:wikidata": "Q668687", "ref": "8052500055"}, "type": "Feature"}
{"geometry": {"coordinates": [-105.081907, 40.551328], "type": "Point"}, "id": "vdU5g-TkMzOcxU2D6Xy_GNrjRJY=", "properties": {"@source_uri": "https://tools.usps.com/UspsToolsRestServices/rest/POLocator/findLocations", "@spider": "usps_collection_boxes", "addr:city": "FORT COLLINS", "addr:country": "US", "addr:postcode": "80526", "addr:state": "CO", "addr:street_address": "2627 REDWING RD", "amenity": "post_box", "collection_times": "Mo-Sa 13:45", "note": "ON 12/24 AND 12/31, THIS BOX MAY BE COLLECTED AS EARLY AS 12 NOON.", "nsi_id": "unitedstatespostalservice-a77078", "operator": "United States Postal Service", "operator:short": "USPS", "operator:type": "public", "operator:wikidata": "Q668687", "ref": "8052600001"}, "type": "Feature"}
{"geometry": {"coordinates": [-105.097442, 40.55223], "type": "Point"}, "id": "5gHx8TpvvTsQmD2RkJlHDNMsN74=", "properties": {"@source_uri": "https://tools.usps.com/UspsToolsRestServices/rest/POLocator/findLocations", "@spider": "usps_collection_boxes", "addr:city": "FORT COLLINS", "addr:country": "US", "addr:postcode": "80526", "addr:state": "CO", "addr:street_address": "1119 W DRAKE RD", "amenity": "post_box", "collection_times": "Mo-Sa 10:30", "nsi_id": "unitedstatespostalservice-a77078", "operator": "United States Postal Service", "operator:short": "USPS", "operator:type": "public", "operator:wikidata": "Q668687", "ref": "8052600005"}, "type": "Feature"}
{"geometry": {"coordinates": [-105.116, 40.531428], "type": "Point"}, "id": "so0DvUbSQ9sqXTCBO1ccIOT1FII=", "properties": {"@source_uri": "https://tools.usps.com/UspsToolsRestServices/rest/POLocator/findLocations", "@spider": "usps_collection_boxes", "addr:city": "FORT COLLINS", "addr:country": "US", "addr:postcode": "80526", "addr:state": "CO", "addr:street_address": "4015 S TAFT HILL RD", "amenity": "post_box", "collection_times": "Mo-Sa 10:30", "nsi_id": "unitedstatespostalservice-a77078", "operator": "United States Postal Service", "operator:short": "USPS", "operator:type": "public", "operator:wikidata": "Q668687", "ref": "8052600007"}, "type": "Feature"}
{"geometry": {"coordinates": [-105.091451, 40.555709], "type": "Point"}, "id": "jlV4ilPHB7cNdlz74UHSSzNMohY=", "properties": {"@source_uri": "https://tools.usps.com/UspsToolsRestServices/rest/POLocator/findLocations", "@spider": "usps_collection_boxes", "addr:city": "FORT COLLINS", "addr:country": "US", "addr:postcode": "80526", "addr:state": "CO", "addr:street_address": "803 CENTRE AVE", "amenity": "post_box", "collection_times": "Mo-Sa 10:30", "nsi_id": "unitedstatespostalservice-a77078", "operator": "United States Postal Service", "operator:short": "USPS", "operator:type": "public", "operator:wikidata": "Q668687", "ref": "8052600008"}, "type": "Feature"}
{"geometry": {"coordinates": [-105.096964, 40.566739], "type": "Point"}, "id": "wDCnluYhOYl4kI3VcFSYXIohp-s=", "properties": {"@source_uri": "https://tools.usps.com/UspsToolsRestServices/rest/POLocator/findLocations", "@spider": "usps_collection_boxes", "addr:city": "FORT COLLINS", "addr:country": "US", "addr:postcode": "80526", "addr:state": "CO", "addr:street_address": "1103 W PROSPECT RD", "amenity": "post_box", "collection_times": "Mo-Sa 10:30", "nsi_id": "unitedstatespostalservice-a77078", "operator": "United States Postal Service", "operator:short": "USPS", "operator:type": "public", "operator:wikidata": "Q668687", "ref": "8052600012"}, "type": "Feature"}
{"geometry": {"coordinates": [-105.092166, 40.522526], "type": "Point"}, "id": "Fh6h6vpESzcF6UU4jJTkbRvu2as=", "properties": {"@source_uri": "https://tools.usps.com/UspsToolsRestServices/rest/POLocator/findLocations", "@spider": "usps_collection_boxes", "addr:city": "FORT COLLINS", "addr:country": "US", "addr:postcode": "80526", "addr:state": "CO", "addr:street_address": "4617 STARFLOWER DR", "amenity": "post_box", "collection_times": "Mo-Sa 10:30", "nsi_id": "unitedstatespostalservice-a77078", "operator": "United States Postal Service", "operator:short": "USPS", "operator:type": "public", "operator:wikidata": "Q668687", "ref": "8052600015"}, "type": "Feature"}
{"geometry": {"coordinates": [-105.116859, 40.554117], "type": "Point"}, "id": "fFdr1Ee7rt8EUqwKnWgOYp-fal4=", "properties": {"@source_uri": "https://tools.usps.com/UspsToolsRestServices/rest/POLocator/findLocations", "@spider": "usps_collection_boxes", "addr:city": "FORT COLLINS", "addr:country": "US", "addr:postcode": "80526", "addr:state": "CO", "addr:street_address": "2160 W DRAKE RD", "amenity": "post_box", "collection_times": "Mo-Sa 10:30", "nsi_id": "unitedstatespostalservice-a77078", "operator": "United States Postal Service", "operator:short": "USPS", "operator:type": "public", "operator:wikidata": "Q668687", "ref": "8052600016"}, "type": "Feature"}
{"geometry": {"coordinates": [-105.083116, 40.55966], "type": "Point"}, "id": "moMKI1NQYtVwHUVbad29nETEUZg=", "properties": {"@source_uri": "https://tools.usps.com/UspsToolsRestServices/rest/POLocator/findLocations", "@spider": "usps_collection_boxes", "addr:city": "FORT COLLINS", "addr:country": "US", "addr:postcode": "80526", "addr:state": "CO", "addr:street_address": "2150 CENTRE AVE", "amenity": "post_box", "collection_times": "Mo-Fr 10:30", "nsi_id": "unitedstatespostalservice-a77078", "operator": "United States Postal Service", "operator:short": "USPS", "operator:type": "public", "operator:wikidata": "Q668687", "ref": "8052600018"}, "type": "Feature"}
{"geometry": {"coordinates": [-105.094333, 40.537783], "type": "Point"}, "id": "rXTa4fhJBDMFXwBN-NT_LvjFlm4=", "properties": {"@source_uri": "https://tools.usps.com/UspsToolsRestServices/rest/POLocator/findLocations", "@spider": "usps_collection_boxes", "addr:city": "FORT COLLINS", "addr:country": "US", "addr:postcode": "80526", "addr:state": "CO", "addr:street_address": "1003 W HORSETOOTH RD", "amenity": "post_box", "collection_times": "Mo-Sa 10:30", "nsi_id": "unitedstatespostalservice-a77078", "operator": "United States Postal Service", "operator:short": "USPS", "operator:type": "public", "operator:wikidata": "Q668687", "ref": "8052600019"}, "type": "Feature"}
{"geometry": {"coordinates": [-105.034448, 40.52151], "type": "Point"}, "id": "_eMF2QYaoymoOirwICGpqsaW1dE=", "properties": {"@source_uri": "https://tools.usps.com/UspsToolsRestServices/rest/POLocator/findLocations", "@spider": "usps_collection_boxes", "addr:city": "FORT COLLINS", "addr:country": "US", "addr:postcode": "80528", "addr:state": "CO", "addr:street_address": "2315 E HARMONY RD", "amenity": "post_box", "collection_times": "Mo-Fr 15:45", "note": "ON 12/24 AND 12/31, THIS BOX MAY BE COLLECTED AS EARLY AS 12 NOON.", "nsi_id": "unitedstatespostalservice-a77078", "operator": "United States Postal Service", "operator:short": "USPS", "operator:type": "public", "operator:wikidata": "Q668687", "ref": "8052800001"}, "type": "Feature"}
{"geometry": {"coordinates": [-105.022, 40.521795], "type": "Point"}, "id": "m-di5iH_V8JFmrqD6snIs2YvTok=", "properties": {"@source_uri": "https://tools.usps.com/UspsToolsRestServices/rest/POLocator/findLocations", "@spider": "usps_collection_boxes", "addr:city": "FORT COLLINS", "addr:country": "US", "addr:postcode": "80528", "addr:state": "CO", "addr:street_address": "3003 E HARMONY RD", "amenity": "post_box", "collection_times": "Mo-Fr 16:00", "note": "ON 12/24 AND 12/31, THIS BOX MAY BE COLLECTED AS EARLY AS 12 NOON.", "nsi_id": "unitedstatespostalservice-a77078", "operator": "United States Postal Service", "operator:short": "USPS", "operator:type": "public", "operator:wikidata": "Q668687", "ref": "8052800003"}, "type": "Feature"}
{"geometry": {"coordinates": [-104.938197426, 40.099275], "type": "Point"}, "id": "4mwkOKaCJcE8t8Ywsq2gvb_4Zas=", "properties": {"@source_uri": "https://tools.usps.com/UspsToolsRestServices/rest/POLocator/findLocations", "@spider": "usps_collection_boxes", "addr:city": "FREDERICK", "addr:country": "US", "addr:postcode": "80530", "addr:state": "CO", "addr:street_address": "411 OAK ST", "amenity": "post_box", "collection_times": "Mo-Fr 16:30; Sa 11:00", "note": "ON 12/24 AND 12/31, THIS BOX MAY BE COLLECTED AS EARLY AS 12 NOON.", "nsi_id": "unitedstatespostalservice-a77078", "operator": "United States Postal Service", "operator:short": "USPS", "operator:type": "public", "operator:wikidata": "Q668687", "ref": "8053000000"}, "type": "Feature"}
{"geometry": {"coordinates": [-104.938197426, 40.099275], "type": "Point"}, "id": "33dsFmBv462Dl86TYjVeUvrPpPY=", "properties": {"@source_uri": "https://tools.usps.com/UspsToolsRestServices/rest/POLocator/findLocations", "@spider": "usps_collection_boxes", "addr:city": "FREDERICK", "addr:country": "US", "addr:postcode": "80530", "addr:state": "CO", "addr:street_address": "411 OAK ST", "amenity": "post_box", "collection_times": "Mo-Fr 16:30; Sa 11:00", "indoor": "yes", "note": "ON 12/24 AND 12/31, THIS BOX MAY BE COLLECTED AS EARLY AS 12 NOON.", "nsi_id": "unitedstatespostalservice-a77078", "operator": "United States Postal Service", "operator:short": "USPS", "operator:type": "public", "operator:wikidata": "Q668687", "ref": "8053000001"}, "type": "Feature"}
{"geometry": {"coordinates": [-104.938197426, 40.099275], "type": "Point"}, "id": "o5rVcvR4pjZaNtbbFP0_Czj-3gc=", "properties": {"@source_uri": "https://tools.usps.com/UspsToolsRestServices/rest/POLocator/findLocations", "@spider": "usps_collection_boxes", "addr:city": "FREDERICK", "addr:country": "US", "addr:postcode": "80530", "addr:state": "CO", "addr:street_address": "411 OAK ST", "amenity": "post_box", "collection_times": "Mo-Fr 16:30; Sa 11:00", "indoor": "yes", "note": "ON 12/24 AND 12/31, THIS BOX MAY BE COLLECTED AS EARLY AS 12 NOON.", "nsi_id": "unitedstatespostalservice-a77078", "operator": "United States Postal Service", "operator:short": "USPS", "operator:type": "public", "operator:wikidata": "Q668687", "ref": "8053000002"}, "type": "Feature"}
{"geometry": {"coordinates": [-105.450088, 40.452268], "type": "Point"}, "id": "nYgrXpibKuk-PdEG87mn_x_SMe4=", "properties": {"@source_uri": "https://tools.usps.com/UspsToolsRestServices/rest/POLocator/findLocations", "@spider": "usps_collection_boxes", "addr:city": "GLEN HAVEN", "addr:country": "US", "addr:postcode": "80532", "addr:state": "CO", "addr:street_address": "7420 COUNTY ROAD 43", "amenity": "post_box", "collection_times": "Mo-Fr 15:10; Sa 11:00", "indoor": "yes", "note": "ON 12/24 AND 12/31, THIS BOX MAY BE COLLECTED AS EARLY AS 12 NOON.", "nsi_id": "unitedstatespostalservice-a77078", "operator": "United States Postal Service", "operator:short": "USPS", "operator:type": "public", "operator:wikidata": "Q668687", "ref": "8053200000"}, "type": "Feature"}
{"geometry": {"coordinates": [-105.450154, 40.452235], "type": "Point"}, "id": "i6rWCnmAQlyxEvDu87ms0K5UXis=", "properties": {"@source_uri": "https://tools.usps.com/UspsToolsRestServices/rest/POLocator/findLocations", "@spider": "usps_collection_boxes", "addr:city": "GLEN HAVEN", "addr:country": "US", "addr:postcode": "80532", "addr:state": "CO", "addr:street_address": "7420 COUNTY ROAD 43", "amenity": "post_box", "collection_times": "Mo-Fr 15:10; Sa 11:00", "note": "ON 12/24 AND 12/31, THIS BOX MAY BE COLLECTED AS EARLY AS 12 NOON.", "nsi_id": "unitedstatespostalservice-a77078", "operator": "United States Postal Service", "operator:short": "USPS", "operator:type": "public", "operator:wikidata": "Q668687", "ref": "8053200001"}, "type": "Feature"}
{"geometry": {"coordinates": [-105.450154, 40.452235], "type": "Point"}, "id": "AVax3Qe58mITrNjOfujF5_rwHsM=", "properties": {"@source_uri": "https://tools.usps.com/UspsToolsRestServices/rest/POLocator/findLocations", "@spider": "usps_collection_boxes", "addr:city": "GLEN HAVEN", "addr:country": "US", "addr:postcode": "80532", "addr:state": "CO", "addr:street_address": "7420 COUNTY ROAD 43", "amenity": "post_box", "collection_times": "Mo-Fr 15:10; Sa 11:00", "indoor": "yes", "note": "ON 12/24 AND 12/31, THIS BOX MAY BE COLLECTED AS EARLY AS 12 NOON.", "nsi_id": "unitedstatespostalservice-a77078", "operator": "United States Postal Service", "operator:short": "USPS", "operator:type": "public", "operator:wikidata": "Q668687", "ref": "8053200002"}, "type": "Feature"}
{"geometry": {"coordinates": [-105.17776, 40.189403], "type": "Point"}, "id": "EXsMjJN62laYNVcH-F_XTqYXuEw=", "properties": {"@source_uri": "https://tools.usps.com/UspsToolsRestServices/rest/POLocator/findLocations", "@spider": "usps_collection_boxes", "addr:city": "HYGIENE", "addr:country": "US", "addr:postcode": "80533", "addr:state": "CO", "addr:street_address": "11830 N 75TH ST", "amenity": "post_box", "collection_times": "Mo-Fr 16:15; Sa 11:45", "indoor": "yes", "note": "ON 12/24 AND 12/31, THIS BOX MAY BE COLLECTED AS EARLY AS 12 NOON.", "nsi_id": "unitedstatespostalservice-a77078", "operator": "United States Postal Service", "operator:short": "USPS", "operator:type": "public", "operator:wikidata": "Q668687", "ref": "8053300001"}, "type": "Feature"}
{"geometry": {"coordinates": [-105.17776, 40.189403], "type": "Point"}, "id": "z2qWHbZhOmBMtR9DhpoTILIymss=", "properties": {"@source_uri": "https://tools.usps.com/UspsToolsRestServices/rest/POLocator/findLocations", "@spider": "usps_collection_boxes", "addr:city": "HYGIENE", "addr:country": "US", "addr:postcode": "80533", "addr:state": "CO", "addr:street_address": "11830 N 75TH ST", "amenity": "post_box", "collection_times": "Mo-Fr 16:15; Sa 11:45", "note": "ON 12/24 AND 12/31, THIS BOX MAY BE COLLECTED AS EARLY AS 12 NOON.", "nsi_id": "unitedstatespostalservice-a77078", "operator": "United States Postal Service", "operator:short": "USPS", "operator:type": "public", "operator:wikidata": "Q668687", "ref": "8053300002"}, "type": "Feature"}
{"geometry": {"coordinates": [-104.907459, 40.332861], "type": "Point"}, "id": "aYoKrC8qwUEWEIfY6jYaNp5RtjQ=", "properties": {"@source_uri": "https://tools.usps.com/UspsToolsRestServices/rest/POLocator/findLocations", "@spider": "usps_collection_boxes", "addr:city": "JOHNSTOWN", "addr:country": "US", "addr:postcode": "80534", "addr:state": "CO", "addr:street_address": "121 CASTLE PINES AVE", "amenity": "post_box", "collection_times": "Mo-Fr 16:30; Sa 12:00", "note": "ON 12/24 AND 12/31, THIS BOX MAY BE COLLECTED AS EARLY AS 12 NOON.", "nsi_id": "unitedstatespostalservice-a77078", "operator": "United States Postal Service", "operator:short": "USPS", "operator:type": "public", "operator:wikidata": "Q668687", "ref": "8053400000"}, "type": "Feature"}
{"geometry": {"coordinates": [-104.907459, 40.332861], "type": "Point"}, "id": "a_hqKBXIiTwwWa1D46OwoqS4UrY=", "properties": {"@source_uri": "https://tools.usps.com/UspsToolsRestServices/rest/POLocator/findLocations", "@spider": "usps_collection_boxes", "addr:city": "JOHNSTOWN", "addr:country": "US", "addr:postcode": "80534", "addr:state": "CO", "addr:street_address": "121 CASTLE PINES AVE", "amenity": "post_box", "collection_times": "Mo-Fr 16:30; Sa 12:00", "indoor": "yes", "note": "ON 12/24 AND 12/31, THIS BOX MAY BE COLLECTED AS EARLY AS 12 NOON.", "nsi_id": "unitedstatespostalservice-a77078", "operator": "United States Postal Service", "operator:short": "USPS", "operator:type": "public", "operator:wikidata": "Q668687", "ref": "8053400003"}, "type": "Feature"}
{"geometry": {"coordinates": [-104.907459, 40.332861], "type": "Point"}, "id": "Avmtn_qHUIYvDpRy0lp_cF4LdCE=", "properties": {"@source_uri": "https://tools.usps.com/UspsToolsRestServices/rest/POLocator/findLocations", "@spider": "usps_collection_boxes", "addr:city": "JOHNSTOWN", "addr:country": "US", "addr:postcode": "80534", "addr:state": "CO", "addr:street_address": "121 CASTLE PINES AVE", "amenity": "post_box", "collection_times": "Mo-Fr 16:30; Sa 12:00", "indoor": "yes", "note": "ON 12/24 AND 12/31, THIS BOX MAY BE COLLECTED AS EARLY AS 12 NOON.", "nsi_id": "unitedstatespostalservice-a77078", "operator": "United States Postal Service", "operator:short": "USPS", "operator:type": "public", "operator:wikidata": "Q668687", "ref": "8053400004"}, "type": "Feature"}
{"geometry": {"coordinates": [-105.137552, 40.626544], "type": "Point"}, "id": "7ysaR4H4XepGFsYE0nrqJirJyh4=", "properties": {"@source_uri": "https://tools.usps.com/UspsToolsRestServices/rest/POLocator/findLocations", "@spider": "usps_collection_boxes", "addr:city": "LAPORTE", "addr:country": "US", "addr:postcode": "80535", "addr:state": "CO", "addr:street_address": "2724 N OVERLAND TRL", "amenity": "post_box", "collection_times": "Mo-Fr 15:15; Sa 12:00", "note": "ON 12/24 AND 12/31, THIS BOX MAY BE COLLECTED AS EARLY AS 12 NOON.", "nsi_id": "unitedstatespostalservice-a77078", "operator": "United States Postal Service", "operator:short": "USPS", "operator:type": "public", "operator:wikidata": "Q668687", "ref": "8053500000"}, "type": "Feature"}
{"geometry": {"coordinates": [-105.137552, 40.626544], "type": "Point"}, "id": "91isl-cerVA3wpAfoaXRFi12iVY=", "properties": {"@source_uri": "https://tools.usps.com/UspsToolsRestServices/rest/POLocator/findLocations", "@spider": "usps_collection_boxes", "addr:city": "LAPORTE", "addr:country": "US", "addr:postcode": "80535", "addr:state": "CO", "addr:street_address": "2724 N OVERLAND TRL", "amenity": "post_box", "collection_times": "Mo-Fr 15:15; Sa 12:00", "indoor": "yes", "note": "ON 12/24 AND 12/31, THIS BOX MAY BE COLLECTED AS EARLY AS 12 NOON.", "nsi_id": "unitedstatespostalservice-a77078", "operator": "United States Postal Service", "operator:short": "USPS", "operator:type": "public", "operator:wikidata": "Q668687", "ref": "8053500001"}, "type": "Feature"}
{"geometry": {"coordinates": [-105.216834, 40.793934], "type": "Point"}, "id": "AAgBNTaP68FbezPC0JUGCVmQyJM=", "properties": {"@source_uri": "https://tools.usps.com/UspsToolsRestServices/rest/POLocator/findLocations", "@spider": "usps_collection_boxes", "addr:city": "LIVERMORE", "addr:country": "US", "addr:postcode": "80536", "addr:state": "CO", "addr:street_address": "55 W COUNTY ROAD 74E", "amenity": "post_box", "collection_times": "Mo-Fr 14:45; Sa 11:00", "note": "ON 12/24 AND 12/31, THIS BOX MAY BE COLLECTED AS EARLY AS 12 NOON.", "nsi_id": "unitedstatespostalservice-a77078", "operator": "United States Postal Service", "operator:short": "USPS", "operator:type": "public", "operator:wikidata": "Q668687", "ref": "8053600000"}, "type": "Feature"}
{"geometry": {"coordinates": [-105.216834, 40.793934], "type": "Point"}, "id": "o-JamPV9CJZEz08HyDcvaIZW5Iw=", "properties": {"@source_uri": "https://tools.usps.com/UspsToolsRestServices/rest/POLocator/findLocations", "@spider": "usps_collection_boxes", "addr:city": "LIVERMORE", "addr:country": "US", "addr:postcode": "80536", "addr:state": "CO", "addr:street_address": "55 W COUNTY ROAD 74E", "amenity": "post_box", "collection_times": "Mo-Fr 14:45; Sa 11:00", "indoor": "yes", "note": "ON 12/24 AND 12/31, THIS BOX MAY BE COLLECTED AS EARLY AS 12 NOON.", "nsi_id": "unitedstatespostalservice-a77078", "operator": "United States Postal Service", "operator:short": "USPS", "operator:type": "public", "operator:wikidata": "Q668687", "ref": "8053600001"}, "type": "Feature"}
{"geometry": {"coordinates": [-105.216833261, 40.793926103], "type": "Point"}, "id": "Q0wmj7PNaG5jqMCmh9AsKIy-Nbg=", "properties": {"@source_uri": "https://tools.usps.com/UspsToolsRestServices/rest/POLocator/findLocations", "@spider": "usps_collection_boxes", "addr:city": "LIVERMORE", "addr:country": "US", "addr:postcode": "80536", "addr:state": "CO", "addr:street_address": "55 W COUNTY ROAD 74E", "amenity": "post_box", "collection_times": "Mo-Fr 14:45; Sa 11:00", "indoor": "yes", "note": "ON 12/24 AND 12/31, THIS BOX MAY BE COLLECTED AS EARLY AS 12 NOON.", "nsi_id": "unitedstatespostalservice-a77078", "operator": "United States Postal Service", "operator:short": "USPS", "operator:type": "public", "operator:wikidata": "Q668687", "ref": "8053600002"}, "type": "Feature"}
{"geometry": {"coordinates": [-105.109242, 40.408451], "type": "Point"}, "id": "japMUstuA5DqT0f9GPOdrwtv4MY=", "properties": {"@source_uri": "https://tools.usps.com/UspsToolsRestServices/rest/POLocator/findLocations", "@spider": "usps_collection_boxes", "addr:city": "LOVELAND", "addr:country": "US", "addr:postcode": "80537", "addr:state": "CO", "addr:street_address": "2321 W EISENHOWER BLVD", "amenity": "post_box", "collection_times": "Mo-Sa 15:00", "note": "ON 12/24 AND 12/31, THIS BOX MAY BE COLLECTED AS EARLY AS 12 NOON.", "nsi_id": "unitedstatespostalservice-a77078", "operator": "United States Postal Service", "operator:short": "USPS", "operator:type": "public", "operator:wikidata": "Q668687", "ref": "8053700002"}, "type": "Feature"}
{"geometry": {"coordinates": [-105.098303, 40.407914], "type": "Point"}, "id": "nRxq3bZSJ8bU5-lirbVCiqpW53c=", "properties": {"@source_uri": "https://tools.usps.com/UspsToolsRestServices/rest/POLocator/findLocations", "@spider": "usps_collection_boxes", "addr:city": "LOVELAND", "addr:country": "US", "addr:postcode": "80537", "addr:state": "CO", "addr:street_address": "1467 W EISENHOWER BLVD", "amenity": "post_box", "collection_times": "Mo-Sa 15:00", "note": "ON 12/24 AND 12/31, THIS BOX MAY BE COLLECTED AS EARLY AS 12 NOON.", "nsi_id": "unitedstatespostalservice-a77078", "operator": "United States Postal Service", "operator:short": "USPS", "operator:type": "public", "operator:wikidata": "Q668687", "ref": "8053700007"}, "type": "Feature"}
{"geometry": {"coordinates": [-105.099147, 40.379582], "type": "Point"}, "id": "8GuUb8A8Sj6Rdqvtn8uK25oGewQ=", "properties": {"@source_uri": "https://tools.usps.com/UspsToolsRestServices/rest/POLocator/findLocations", "@spider": "usps_collection_boxes", "addr:city": "LOVELAND", "addr:country": "US", "addr:postcode": "80537", "addr:state": "CO", "addr:street_address": "1275 EAGLE DR", "amenity": "post_box", "collection_times": "Mo-Fr 16:00; Sa 15:00", "note": "ON 12/24 AND 12/31, THIS BOX MAY BE COLLECTED AS EARLY AS 12 NOON.", "nsi_id": "unitedstatespostalservice-a77078", "operator": "United States Postal Service", "operator:short": "USPS", "operator:type": "public", "operator:wikidata": "Q668687", "ref": "8053700015"}, "type": "Feature"}
{"geometry": {"coordinates": [-105.075178, 40.397678], "type": "Point"}, "id": "LDq2jB3_jEo5yN_DWHOUKqfdiTs=", "properties": {"@source_uri": "https://tools.usps.com/UspsToolsRestServices/rest/POLocator/findLocations", "@spider": "usps_collection_boxes", "addr:city": "LOVELAND", "addr:country": "US", "addr:postcode": "80537", "addr:state": "CO", "addr:street_address": "601 CLEVELAND AVE", "amenity": "post_box", "collection_times": "Mo-Fr 17:00; Sa 16:00", "note": "ON 12/24 AND 12/31, THIS BOX MAY BE COLLECTED AS EARLY AS 12 NOON.", "nsi_id": "unitedstatespostalservice-a77078", "operator": "United States Postal Service", "operator:short": "USPS", "operator:type": "public", "operator:wikidata": "Q668687", "ref": "8053700020"}, "type": "Feature"}
{"geometry": {"coordinates": [-105.074814, 40.397808], "type": "Point"}, "id": "uH0DFJF9B9TX8Y2_mBTlmQQnBiw=", "properties": {"@source_uri": "https://tools.usps.com/UspsToolsRestServices/rest/POLocator/findLocations", "@spider": "usps_collection_boxes", "addr:city": "LOVELAND", "addr:country": "US", "addr:postcode": "80537", "addr:state": "CO", "addr:street_address": "601 CLEVELAND AVE", "amenity": "post_box", "collection_times": "Mo-Fr 17:00; Sa 16:00", "indoor": "yes", "note": "ON 12/24 AND 12/31, THIS BOX MAY BE COLLECTED AS EARLY AS 12 NOON.", "nsi_id": "unitedstatespostalservice-a77078", "operator": "United States Postal Service", "operator:short": "USPS", "operator:type": "public", "operator:wikidata": "Q668687", "ref": "8053700033"}, "type": "Feature"}
{"geometry": {"coordinates": [-105.074767, 40.397835], "type": "Point"}, "id": "DvzDZ1CjoFIQSrYmLXTmR6z-RjM=", "properties": {"@source_uri": "https://tools.usps.com/UspsToolsRestServices/rest/POLocator/findLocations", "@spider": "usps_collection_boxes", "addr:city": "LOVELAND", "addr:country": "US", "addr:postcode": "80537", "addr:state": "CO", "addr:street_address": "601 CLEVELAND AVE", "amenity": "post_box", "collection_times": "Mo-Fr 17:00; Sa 16:00", "indoor": "yes", "note": "ON 12/24 AND 12/31, THIS BOX MAY BE COLLECTED AS EARLY AS 12 NOON.", "nsi_id": "unitedstatespostalservice-a77078", "operator": "United States Postal Service", "operator:short": "USPS", "operator:type": "public", "operator:wikidata": "Q668687", "ref": "8053700034"}, "type": "Feature"}
{"geometry": {"coordinates": [-105.074727, 40.397808], "type": "Point"}, "id": "O-qUAmgfHS66kc5fRY3vKBnVL1M=", "properties": {"@source_uri": "https://tools.usps.com/UspsToolsRestServices/rest/POLocator/findLocations", "@spider": "usps_collection_boxes", "addr:city": "LOVELAND", "addr:country": "US", "addr:postcode": "80537", "addr:state": "CO", "addr:street_address": "601 CLEVELAND AVE", "amenity": "post_box", "collection_times": "Mo-Fr 17:00; Sa 16:00", "indoor": "yes", "note": "ON 12/24 AND 12/31, THIS BOX MAY BE COLLECTED AS EARLY AS 12 NOON.", "nsi_id": "unitedstatespostalservice-a77078", "operator": "United States Postal Service", "operator:short": "USPS", "operator:type": "public", "operator:wikidata": "Q668687", "ref": "8053700035"}, "type": "Feature"}
{"geometry": {"coordinates": [-105.074737, 40.397821], "type": "Point"}, "id": "8sZ6VZi5XfbhK2CpwuGaZfV2UQI=", "properties": {"@source_uri": "https://tools.usps.com/UspsToolsRestServices/rest/POLocator/findLocations", "@spider": "usps_collection_boxes", "addr:city": "LOVELAND", "addr:country": "US", "addr:postcode": "80537", "addr:state": "CO", "addr:street_address": "601 CLEVELAND AVE", "amenity": "post_box", "collection_times": "Mo-Fr 17:00; Sa 16:00", "indoor": "yes", "note": "ON 12/24 AND 12/31, THIS BOX MAY BE COLLECTED AS EARLY AS 12 NOON.", "nsi_id": "unitedstatespostalservice-a77078", "operator": "United States Postal Service", "operator:short": "USPS", "operator:type": "public", "operator:wikidata": "Q668687", "ref": "8053700036"}, "type": "Feature"}
{"geometry": {"coordinates": [-105.073594, 40.39847], "type": "Point"}, "id": "7loO6wb8YjOhJvqb2xaVUY_-sws=", "properties": {"@source_uri": "https://tools.usps.com/UspsToolsRestServices/rest/POLocator/findLocations", "@spider": "usps_collection_boxes", "addr:city": "LOVELAND", "addr:country": "US", "addr:postcode": "80537", "addr:state": "CO", "addr:street_address": "200 E 7TH ST", "amenity": "post_box", "collection_times": "Mo-Fr 16:00; Sa 15:00", "note": "ON 12/24 AND 12/31, THIS BOX MAY BE COLLECTED AS EARLY AS 12 NOON.", "nsi_id": "unitedstatespostalservice-a77078", "operator": "United States Postal Service", "operator:short": "USPS", "operator:type": "public", "operator:wikidata": "Q668687", "ref": "8053700038"}, "type": "Feature"}
{"geometry": {"coordinates": [-105.047066, 40.405038], "type": "Point"}, "id": "kaU9CW_A5Go2R96T833fAY5pN2M=", "properties": {"@source_uri": "https://tools.usps.com/UspsToolsRestServices/rest/POLocator/findLocations", "@spider": "usps_collection_boxes", "addr:city": "LOVELAND", "addr:country": "US", "addr:postcode": "80537", "addr:state": "CO", "addr:street_address": "1325 DENVER AVE", "amenity": "post_box", "collection_times": "Mo-Fr 15:00; Sa 14:00", "note": "ON 12/24 AND 12/31, THIS BOX MAY BE COLLECTED AS EARLY AS 12 NOON.", "nsi_id": "unitedstatespostalservice-a77078", "operator": "United States Postal Service", "operator:short": "USPS", "operator:type": "public", "operator:wikidata": "Q668687", "ref": "8053700040"}, "type": "Feature"}
{"geometry": {"coordinates": [-105.070239, 40.421584], "type": "Point"}, "id": "HiKAYwjl4fXMG5us6VTeVdfNyw0=", "properties": {"@source_uri": "https://tools.usps.com/UspsToolsRestServices/rest/POLocator/findLocations", "@spider": "usps_collection_boxes", "addr:city": "LOVELAND", "addr:country": "US", "addr:postcode": "80538", "addr:state": "CO", "addr:street_address": "446 E 29TH ST", "amenity": "post_box", "collection_times": "Mo-Fr 17:30; Sa 17:00", "note": "ON 12/24 AND 12/31, THIS BOX MAY BE COLLECTED AS EARLY AS 12 NOON.", "nsi_id": "unitedstatespostalservice-a77078", "operator": "United States Postal Service", "operator:short": "USPS", "operator:type": "public", "operator:wikidata": "Q668687", "ref": "8053800002"}, "type": "Feature"}
{"geometry": {"coordinates": [-105.07022, 40.42158], "type": "Point"}, "id": "XCXn583OpHWLaL2YaW7s3gQfCaU=", "properties": {"@source_uri": "https://tools.usps.com/UspsToolsRestServices/rest/POLocator/findLocations", "@spider": "usps_collection_boxes", "addr:city": "LOVELAND", "addr:country": "US", "addr:postcode": "80538", "addr:state": "CO", "addr:street_address": "446 E 29TH ST", "amenity": "post_box", "collection_times": "Mo-Fr 17:30; Sa 17:00", "note": "ON 12/24 AND 12/31, THIS BOX MAY BE COLLECTED AS EARLY AS 12 NOON.", "nsi_id": "unitedstatespostalservice-a77078", "operator": "United States Postal Service", "operator:short": "USPS", "operator:type": "public", "operator:wikidata": "Q668687", "ref": "8053800003"}, "type": "Feature"}
{"geometry": {"coordinates": [-105.070845, 40.421435], "type": "Point"}, "id": "FqE7-Fs8HHAkP3PWFXLvRXsFB-A=", "properties": {"@source_uri": "https://tools.usps.com/UspsToolsRestServices/rest/POLocator/findLocations", "@spider": "usps_collection_boxes", "addr:city": "LOVELAND", "addr:country": "US", "addr:postcode": "80538", "addr:state": "CO", "addr:street_address": "446 E 29TH ST", "amenity": "post_box", "collection_times": "Mo-Fr 17:30; Sa 17:00", "indoor": "yes", "note": "ON 12/24 AND 12/31, THIS BOX MAY BE COLLECTED AS EARLY AS 12 NOON.", "nsi_id": "unitedstatespostalservice-a77078", "operator": "United States Postal Service", "operator:short": "USPS", "operator:type": "public", "operator:wikidata": "Q668687", "ref": "8053800007"}, "type": "Feature"}
{"geometry": {"coordinates": [-105.070864, 40.421482], "type": "Point"}, "id": "g4oddkDb10vSvwNBdBNKpGpwTt0=", "properties": {"@source_uri": "https://tools.usps.com/UspsToolsRestServices/rest/POLocator/findLocations", "@spider": "usps_collection_boxes", "addr:city": "LOVELAND", "addr:country": "US", "addr:postcode": "80538", "addr:state": "CO", "addr:street_address": "446 E 29TH ST", "amenity": "post_box", "collection_times": "Mo-Fr 17:30; Sa 17:00", "indoor": "yes", "note": "ON 12/24 AND 12/31, THIS BOX MAY BE COLLECTED AS EARLY AS 12 NOON.", "nsi_id": "unitedstatespostalservice-a77078", "operator": "United States Postal Service", "operator:short": "USPS", "operator:type": "public", "operator:wikidata": "Q668687", "ref": "8053800008"}, "type": "Feature"}
{"geometry": {"coordinates": [-105.076488, 40.430885], "type": "Point"}, "id": "ui9rzuMsZIEB3Q9en-4XkYwrloM=", "properties": {"@source_uri": "https://tools.usps.com/UspsToolsRestServices/rest/POLocator/findLocations", "@spider": "usps_collection_boxes", "addr:city": "LOVELAND", "addr:country": "US", "addr:postcode": "80538", "addr:state": "CO", "addr:street_address": "117 E 37TH ST", "amenity": "post_box", "collection_times": "Mo-Fr 15:00; Sa 13:00", "note": "ON 12/24 AND 12/31, THIS BOX MAY BE COLLECTED AS EARLY AS 12 NOON.", "nsi_id": "unitedstatespostalservice-a77078", "operator": "United States Postal Service", "operator:short": "USPS", "operator:type": "public", "operator:wikidata": "Q668687", "ref": "8053800009"}, "type": "Feature"}
{"geometry": {"coordinates": [-105.097799, 40.422351], "type": "Point"}, "id": "A8T159nLOIhyHlzBmr5KIqjL8Xg=", "properties": {"@source_uri": "https://tools.usps.com/UspsToolsRestServices/rest/POLocator/findLocations", "@spider": "usps_collection_boxes", "addr:city": "LOVELAND", "addr:country": "US", "addr:postcode": "80538", "addr:state": "CO", "addr:street_address": "1401 W 29TH ST", "amenity": "post_box", "collection_times": "Mo-Sa 14:45", "note": "ON 12/24 AND 12/31, THIS BOX MAY BE COLLECTED AS EARLY AS 12 NOON.", "nsi_id": "unitedstatespostalservice-a77078", "operator": "United States Postal Service", "operator:short": "USPS", "operator:type": "public", "operator:wikidata": "Q668687", "ref": "8053800023"}, "type": "Feature"}
{"geometry": {"coordinates": [-104.997983, 40.41545], "type": "Point"}, "id": "scEBLMYogg0GZUY1uHLIHpO3N3k=", "properties": {"@source_uri": "https://tools.usps.com/UspsToolsRestServices/rest/POLocator/findLocations", "@spider": "usps_collection_boxes", "addr:city": "LOVELAND", "addr:country": "US", "addr:postcode": "80538", "addr:state": "CO", "addr:street_address": "2500 ROCKY MOUNTAIN AVE", "amenity": "post_box", "collection_times": "Mo-Fr 13:00", "note": "ON 12/24 AND 12/31, THIS BOX MAY BE COLLECTED AS EARLY AS 12 NOON.", "nsi_id": "unitedstatespostalservice-a77078", "operator": "United States Postal Service", "operator:short": "USPS", "operator:type": "public", "operator:wikidata": "Q668687", "ref": "8053800027"}, "type": "Feature"}
{"geometry": {"coordinates": [-105.070812, 40.421467], "type": "Point"}, "id": "TiJ3gnuVw2qtyGsMTUYlP6S-edk=", "properties": {"@source_uri": "https://tools.usps.com/UspsToolsRestServices/rest/POLocator/findLocations", "@spider": "usps_collection_boxes", "addr:city": "LOVELAND", "addr:country": "US", "addr:postcode": "80538", "addr:state": "CO", "addr:street_address": "446 E 29TH ST", "amenity": "post_box", "collection_times": "Mo-Fr 17:30; Sa 17:00", "name": "USPS COLLECTION BOX - APC", "note": "ON 12/24 AND 12/31, THIS BOX MAY BE COLLECTED AS EARLY AS 12 NOON.", "nsi_id": "unitedstatespostalservice-a77078", "operator": "United States Postal Service", "operator:short": "USPS", "operator:type": "public", "operator:wikidata": "Q668687", "ref": "8053800029"}, "type": "Feature"}
{"geometry": {"coordinates": [-105.267686, 40.22348], "type": "Point"}, "id": "Nb0wD3E76KaZSUx-MAqTpmKVCYI=", "properties": {"@source_uri": "https://tools.usps.com/UspsToolsRestServices/rest/POLocator/findLocations", "@spider": "usps_collection_boxes", "addr:city": "LYONS", "addr:country": "US", "addr:postcode": "80540", "addr:state": "CO", "addr:street_address": "305 RAILROAD AVE", "amenity": "post_box", "collection_times": "Mo-Fr 16:30; Sa 11:45", "note": "ON 12/24 AND 12/31, THIS BOX MAY BE COLLECTED AS EARLY AS 12 NOON.", "nsi_id": "unitedstatespostalservice-a77078", "operator": "United States Postal Service", "operator:short": "USPS", "operator:type": "public", "operator:wikidata": "Q668687", "ref": "8054000000"}, "type": "Feature"}
{"geometry": {"coordinates": [-105.267686, 40.22348], "type": "Point"}, "id": "JXWsHt04rFaiq4bEauJ3FJl0k9o=", "properties": {"@source_uri": "https://tools.usps.com/UspsToolsRestServices/rest/POLocator/findLocations", "@spider": "usps_collection_boxes", "addr:city": "LYONS", "addr:country": "US", "addr:postcode": "80540", "addr:state": "CO", "addr:street_address": "305 RAILROAD AVE", "amenity": "post_box", "collection_times": "Mo-Fr 16:30; Sa 11:45", "indoor": "yes", "note": "ON 12/24 AND 12/31, THIS BOX MAY BE COLLECTED AS EARLY AS 12 NOON.", "nsi_id": "unitedstatespostalservice-a77078", "operator": "United States Postal Service", "operator:short": "USPS", "operator:type": "public", "operator:wikidata": "Q668687", "ref": "8054000003"}, "type": "Feature"}
{"geometry": {"coordinates": [-105.267686, 40.22348], "type": "Point"}, "id": "MX2Lq5TaJK4TOc9hsmEYIGpWKkc=", "properties": {"@source_uri": "https://tools.usps.com/UspsToolsRestServices/rest/POLocator/findLocations", "@spider": "usps_collection_boxes", "addr:city": "LYONS", "addr:country": "US", "addr:postcode": "80540", "addr:state": "CO", "addr:street_address": "305 RAILROAD AVE", "amenity": "post_box", "collection_times": "Mo-Fr 16:30; Sa 11:45", "indoor": "yes", "note": "ON 12/24 AND 12/31, THIS BOX MAY BE COLLECTED AS EARLY AS 12 NOON.", "nsi_id": "unitedstatespostalservice-a77078", "operator": "United States Postal Service", "operator:short": "USPS", "operator:type": "public", "operator:wikidata": "Q668687", "ref": "8054000004"}, "type": "Feature"}
{"geometry": {"coordinates": [-105.2102, 40.487503], "type": "Point"}, "id": "EcVnqG1VWtDLuC9x_gWw2gtZ7kk=", "properties": {"@source_uri": "https://tools.usps.com/UspsToolsRestServices/rest/POLocator/findLocations", "@spider": "usps_collection_boxes", "addr:city": "MASONVILLE", "addr:country": "US", "addr:postcode": "80541", "addr:state": "CO", "addr:street_address": "8669 N COUNTY ROAD 27", "amenity": "post_box", "collection_times": "Mo-Fr 15:15; Sa 11:00", "note": "ON 12/24 AND 12/31, THIS BOX MAY BE COLLECTED AS EARLY AS 12 NOON.", "nsi_id": "unitedstatespostalservice-a77078", "operator": "United States Postal Service", "operator:short": "USPS", "operator:type": "public", "operator:wikidata": "Q668687", "ref": "8054100000"}, "type": "Feature"}
{"geometry": {"coordinates": [-105.2102, 40.487503], "type": "Point"}, "id": "YVDSAuF-CcTl56wzacdHz2Mq8bc=", "properties": {"@source_uri": "https://tools.usps.com/UspsToolsRestServices/rest/POLocator/findLocations", "@spider": "usps_collection_boxes", "addr:city": "MASONVILLE", "addr:country": "US", "addr:postcode": "80541", "addr:state": "CO", "addr:street_address": "8669 N COUNTY ROAD 27", "amenity": "post_box", "collection_times": "Mo-Fr 15:15; Sa 11:00", "indoor": "yes", "note": "ON 12/24 AND 12/31, THIS BOX MAY BE COLLECTED AS EARLY AS 12 NOON.", "nsi_id": "unitedstatespostalservice-a77078", "operator": "United States Postal Service", "operator:short": "USPS", "operator:type": "public", "operator:wikidata": "Q668687", "ref": "8054100001"}, "type": "Feature"}
{"geometry": {"coordinates": [-104.999522, 40.233213], "type": "Point"}, "id": "wuOTmouq9w-wrinVnqaRphBV74c=", "properties": {"@source_uri": "https://tools.usps.com/UspsToolsRestServices/rest/POLocator/findLocations", "@spider": "usps_collection_boxes", "addr:city": "MEAD", "addr:country": "US", "addr:postcode": "80542", "addr:state": "CO", "addr:street_address": "350 WELKER AVE", "amenity": "post_box", "collection_times": "Mo-Fr 16:45; Sa 09:45", "note": "ON 12/24 AND 12/31, THIS BOX MAY BE COLLECTED AS EARLY AS 12 NOON.", "nsi_id": "unitedstatespostalservice-a77078", "operator": "United States Postal Service", "operator:short": "USPS", "operator:type": "public", "operator:wikidata": "Q668687", "ref": "8054200000"}, "type": "Feature"}
{"geometry": {"coordinates": [-104.999522, 40.233213], "type": "Point"}, "id": "TBELcdBKDnKmDWEXTLFlD6h9K0A=", "properties": {"@source_uri": "https://tools.usps.com/UspsToolsRestServices/rest/POLocator/findLocations", "@spider": "usps_collection_boxes", "addr:city": "MEAD", "addr:country": "US", "addr:postcode": "80542", "addr:state": "CO", "addr:street_address": "350 WELKER AVE", "amenity": "post_box", "collection_times": "Mo-Fr 16:45; Sa 09:45", "indoor": "yes", "note": "ON 12/24 AND 12/31, THIS BOX MAY BE COLLECTED AS EARLY AS 12 NOON.", "nsi_id": "unitedstatespostalservice-a77078", "operator": "United States Postal Service", "operator:short": "USPS", "operator:type": "public", "operator:wikidata": "Q668687", "ref": "8054200001"}, "type": "Feature"}
{"geometry": {"coordinates": [-104.999522, 40.233213], "type": "Point"}, "id": "wfsWyukk8v2xoxNk_Lle8SlaJnY=", "properties": {"@source_uri": "https://tools.usps.com/UspsToolsRestServices/rest/POLocator/findLocations", "@spider": "usps_collection_boxes", "addr:city": "MEAD", "addr:country": "US", "addr:postcode": "80542", "addr:state": "CO", "addr:street_address": "350 WELKER AVE", "amenity": "post_box", "collection_times": "Mo-Fr 16:45; Sa 09:45", "indoor": "yes", "note": "ON 12/24 AND 12/31, THIS BOX MAY BE COLLECTED AS EARLY AS 12 NOON.", "nsi_id": "unitedstatespostalservice-a77078", "operator": "United States Postal Service", "operator:short": "USPS", "operator:type": "public", "operator:wikidata": "Q668687", "ref": "8054200002"}, "type": "Feature"}
{"geometry": {"coordinates": [-104.940815, 40.20637], "type": "Point"}, "id": "YdXQgd2Cs1cdGLQJhX4Jh9xue90=", "properties": {"@source_uri": "https://tools.usps.com/UspsToolsRestServices/rest/POLocator/findLocations", "@spider": "usps_collection_boxes", "addr:city": "MEAD", "addr:country": "US", "addr:postcode": "80542", "addr:state": "CO", "addr:street_address": "234 GRANDVIEW AVE", "amenity": "post_box", "collection_times": "Mo-Sa 09:30", "nsi_id": "unitedstatespostalservice-a77078", "operator": "United States Postal Service", "operator:short": "USPS", "operator:type": "public", "operator:wikidata": "Q668687", "ref": "8054200003"}, "type": "Feature"}
{"geometry": {"coordinates": [-104.856171, 40.330177], "type": "Point"}, "id": "JA3JLCMn_wYMh-Ii_BVEK1sMU-M=", "properties": {"@source_uri": "https://tools.usps.com/UspsToolsRestServices/rest/POLocator/findLocations", "@spider": "usps_collection_boxes", "addr:city": "MILLIKEN", "addr:country": "US", "addr:postcode": "80543", "addr:state": "CO", "addr:street_address": "1009 BROAD ST", "amenity": "post_box", "collection_times": "Mo-Fr 16:30; Sa 10:45", "note": "ON 12/24 AND 12/31, THIS BOX MAY BE COLLECTED AS EARLY AS 12 NOON.", "nsi_id": "unitedstatespostalservice-a77078", "operator": "United States Postal Service", "operator:short": "USPS", "operator:type": "public", "operator:wikidata": "Q668687", "ref": "8054300000"}, "type": "Feature"}
{"geometry": {"coordinates": [-104.856171, 40.330177], "type": "Point"}, "id": "jtEf2n1DtqPDgsPyf6x9DTAJs6Y=", "properties": {"@source_uri": "https://tools.usps.com/UspsToolsRestServices/rest/POLocator/findLocations", "@spider": "usps_collection_boxes", "addr:city": "MILLIKEN", "addr:country": "US", "addr:postcode": "80543", "addr:state": "CO", "addr:street_address": "1009 BROAD ST", "amenity": "post_box", "collection_times": "Mo-Fr 16:30; Sa 10:45", "indoor": "yes", "note": "ON 12/24 AND 12/31, THIS BOX MAY BE COLLECTED AS EARLY AS 12 NOON.", "nsi_id": "unitedstatespostalservice-a77078", "operator": "United States Postal Service", "operator:short": "USPS", "operator:type": "public", "operator:wikidata": "Q668687", "ref": "8054300001"}, "type": "Feature"}
{"geometry": {"coordinates": [-105.1730990341, 40.1029709913], "type": "Point"}, "id": "6pmOzzXRwpYqYK2LF4Fl5r_EE7I=", "properties": {"@source_uri": "https://tools.usps.com/UspsToolsRestServices/rest/POLocator/findLocations", "@spider": "usps_collection_boxes", "addr:city": "NIWOT", "addr:country": "US", "addr:postcode": "80544", "addr:state": "CO", "addr:street_address": "150 MURRAY ST", "amenity": "post_box", "collection_times": "Mo-Fr 17:00; Sa 11:30", "indoor": "yes", "note": "ON 12/24 AND 12/31, THIS BOX MAY BE COLLECTED AS EARLY AS 12 NOON.", "nsi_id": "unitedstatespostalservice-a77078", "operator": "United States Postal Service", "operator:short": "USPS", "operator:type": "public", "operator:wikidata": "Q668687", "ref": "8054400001"}, "type": "Feature"}
{"geometry": {"coordinates": [-105.1730990341, 40.1029709913], "type": "Point"}, "id": "BV_VNNJXMU-iiezaMBsOnalhnaM=", "properties": {"@source_uri": "https://tools.usps.com/UspsToolsRestServices/rest/POLocator/findLocations", "@spider": "usps_collection_boxes", "addr:city": "NIWOT", "addr:country": "US", "addr:postcode": "80544", "addr:state": "CO", "addr:street_address": "150 MURRAY ST", "amenity": "post_box", "collection_times": "Mo-Fr 16:30; Sa 11:30", "note": "ON 12/24 AND 12/31, THIS BOX MAY BE COLLECTED AS EARLY AS 12 NOON.", "nsi_id": "unitedstatespostalservice-a77078", "operator": "United States Postal Service", "operator:short": "USPS", "operator:type": "public", "operator:wikidata": "Q668687", "ref": "8054400002"}, "type": "Feature"}
{"geometry": {"coordinates": [-105.590219, 40.801454], "type": "Point"}, "id": "Mf-mDIXqB1CzvyiAwSF1Lzrz0AY=", "properties": {"@source_uri": "https://tools.usps.com/UspsToolsRestServices/rest/POLocator/findLocations", "@spider": "usps_collection_boxes", "addr:city": "RED FE LKS", "addr:country": "US", "addr:postcode": "80545", "addr:state": "CO", "addr:street_address": "17 MAIN ST", "amenity": "post_box", "collection_times": "Mo-Fr 14:30; Sa 12:00", "note": "ON 12/24 AND 12/31, THIS BOX MAY BE COLLECTED AS EARLY AS 12 NOON.", "nsi_id": "unitedstatespostalservice-a77078", "operator": "United States Postal Service", "operator:short": "USPS", "operator:type": "public", "operator:wikidata": "Q668687", "ref": "8054500000"}, "type": "Feature"}
{"geometry": {"coordinates": [-104.851127, 40.524124], "type": "Point"}, "id": "_qAcpmf6BMyxCFCSkW5wQqK6yHg=", "properties": {"@source_uri": "https://tools.usps.com/UspsToolsRestServices/rest/POLocator/findLocations", "@spider": "usps_collection_boxes", "addr:city": "SEVERANCE", "addr:country": "US", "addr:postcode": "80546", "addr:state": "CO", "addr:street_address": "320 1ST ST", "amenity": "post_box", "collection_times": "Mo-Fr 16:00; Sa 11:30", "note": "ON 12/24 AND 12/31, THIS BOX MAY BE COLLECTED AS EARLY AS 12 NOON.", "nsi_id": "unitedstatespostalservice-a77078", "operator": "United States Postal Service", "operator:short": "USPS", "operator:type": "public", "operator:wikidata": "Q668687", "ref": "8054600000"}, "type": "Feature"}
{"geometry": {"coordinates": [-104.851161, 40.524177], "type": "Point"}, "id": "K-7QfFo_Kd498kneZUkevN0qYIQ=", "properties": {"@source_uri": "https://tools.usps.com/UspsToolsRestServices/rest/POLocator/findLocations", "@spider": "usps_collection_boxes", "addr:city": "SEVERANCE", "addr:country": "US", "addr:postcode": "80546", "addr:state": "CO", "addr:street_address": "320 1ST ST", "amenity": "post_box", "collection_times": "Mo-Sa 11:30", "indoor": "yes", "nsi_id": "unitedstatespostalservice-a77078", "operator": "United States Postal Service", "operator:short": "USPS", "operator:type": "public", "operator:wikidata": "Q668687", "ref": "8054600001"}, "type": "Feature"}
{"geometry": {"coordinates": [-104.982279, 40.529606], "type": "Point"}, "id": "4P7tYthqjENoIuzxUwMbI8K9z10=", "properties": {"@source_uri": "https://tools.usps.com/UspsToolsRestServices/rest/POLocator/findLocations", "@spider": "usps_collection_boxes", "addr:city": "TIMNATH", "addr:country": "US", "addr:postcode": "80547", "addr:state": "CO", "addr:street_address": "4128 MAIN ST", "amenity": "post_box", "collection_times": "Mo-Fr 16:15; Sa 11:30", "note": "ON 12/24 AND 12/31, THIS BOX MAY BE COLLECTED AS EARLY AS 12 NOON.", "nsi_id": "unitedstatespostalservice-a77078", "operator": "United States Postal Service", "operator:short": "USPS", "operator:type": "public", "operator:wikidata": "Q668687", "ref": "8054700000"}, "type": "Feature"}
{"geometry": {"coordinates": [-104.982315, 40.529563], "type": "Point"}, "id": "8UwTzIwDKkqZxUywyHwlFKWKRro=", "properties": {"@source_uri": "https://tools.usps.com/UspsToolsRestServices/rest/POLocator/findLocations", "@spider": "usps_collection_boxes", "addr:city": "TIMNATH", "addr:country": "US", "addr:postcode": "80547", "addr:state": "CO", "addr:street_address": "4128 MAIN ST", "amenity": "post_box", "collection_times": "Mo-Fr 16:30; Sa 11:30", "indoor": "yes", "note": "ON 12/24 AND 12/31, THIS BOX MAY BE COLLECTED AS EARLY AS 12 NOON.", "nsi_id": "unitedstatespostalservice-a77078", "operator": "United States Postal Service", "operator:short": "USPS", "operator:type": "public", "operator:wikidata": "Q668687", "ref": "8054700001"}, "type": "Feature"}
{"geometry": {"coordinates": [-105.003821, 40.703923], "type": "Point"}, "id": "TrMCquDrKE9Ogta_aCvHxmAOtGc=", "properties": {"@source_uri": "https://tools.usps.com/UspsToolsRestServices/rest/POLocator/findLocations", "@spider": "usps_collection_boxes", "addr:city": "WELLINGTON", "addr:country": "US", "addr:postcode": "80549", "addr:state": "CO", "addr:street_address": "3829 W CLEVELAND AVE", "amenity": "post_box", "collection_times": "Mo-Fr 15:15; Sa 12:00", "indoor": "yes", "note": "ON 12/24 AND 12/31, THIS BOX MAY BE COLLECTED AS EARLY AS 12 NOON.", "nsi_id": "unitedstatespostalservice-a77078", "operator": "United States Postal Service", "operator:short": "USPS", "operator:type": "public", "operator:wikidata": "Q668687", "ref": "8054900000"}, "type": "Feature"}
{"geometry": {"coordinates": [-105.003821, 40.703923], "type": "Point"}, "id": "TR1ZzH3JuXPg9pOziaxUglBGZnk=", "properties": {"@source_uri": "https://tools.usps.com/UspsToolsRestServices/rest/POLocator/findLocations", "@spider": "usps_collection_boxes", "addr:city": "WELLINGTON", "addr:country": "US", "addr:postcode": "80549", "addr:state": "CO", "addr:street_address": "3829 W CLEVELAND AVE", "amenity": "post_box", "collection_times": "Mo-Fr 15:15; Sa 12:00", "note": "ON 12/24 AND 12/31, THIS BOX MAY BE COLLECTED AS EARLY AS 12 NOON.", "nsi_id": "unitedstatespostalservice-a77078", "operator": "United States Postal Service", "operator:short": "USPS", "operator:type": "public", "operator:wikidata": "Q668687", "ref": "8054900002"}, "type": "Feature"}
{"geometry": {"coordinates": [-104.905544, 40.479252], "type": "Point"}, "id": "y87-0N4y9VuCZY5GamBo554eYBA=", "properties": {"@source_uri": "https://tools.usps.com/UspsToolsRestServices/rest/POLocator/findLocations", "@spider": "usps_collection_boxes", "addr:city": "WINDSOR", "addr:country": "US", "addr:postcode": "80550", "addr:state": "CO", "addr:street_address": "215 6TH ST", "amenity": "post_box", "collection_times": "Mo-Fr 17:00; Sa 14:15", "note": "ON 12/24 AND 12/31, THIS BOX MAY BE COLLECTED AS EARLY AS 12 NOON.", "nsi_id": "unitedstatespostalservice-a77078", "operator": "United States Postal Service", "operator:short": "USPS", "operator:type": "public", "operator:wikidata": "Q668687", "ref": "8055000002"}, "type": "Feature"}
{"geometry": {"coordinates": [-104.905563, 40.479308], "type": "Point"}, "id": "rsg_6zBBUG7YVfy-65ZCMQ3I09w=", "properties": {"@source_uri": "https://tools.usps.com/UspsToolsRestServices/rest/POLocator/findLocations", "@spider": "usps_collection_boxes", "addr:city": "WINDSOR", "addr:country": "US", "addr:postcode": "80550", "addr:state": "CO", "addr:street_address": "215 6TH ST", "amenity": "post_box", "collection_times": "Mo-Fr 17:00; Sa 14:15", "indoor": "yes", "note": "ON 12/24 AND 12/31, THIS BOX MAY BE COLLECTED AS EARLY AS 12 NOON.", "nsi_id": "unitedstatespostalservice-a77078", "operator": "United States Postal Service", "operator:short": "USPS", "operator:type": "public", "operator:wikidata": "Q668687", "ref": "8055000007"}, "type": "Feature"}
