{"geometry": {"coordinates": [-104.820867, 39.986897], "type": "Point"}, "id": "Ssz4CHBiMU4cFGsXah9GkrBBEMQ=", "properties": {"@source_uri": "https://tools.usps.com/UspsToolsRestServices/rest/POLocator/findLocations", "@spider": "usps_collection_boxes", "addr:city": "BRIGHTON", "addr:country": "US", "addr:postcode": "80601", "addr:state": "CO", "addr:street_address": "169 E BRIDGE ST", "amenity": "post_box", "collection_times": "Mo-Sa 10:30", "nsi_id": "unitedstatespostalservice-a77078", "operator": "United States Postal Service", "operator:short": "USPS", "operator:type": "public", "operator:wikidata": "Q668687", "ref": "8060100000"}, "type": "Feature"}
{"geometry": {"coordinates": [-104.801848, 39.987682], "type": "Point"}, "id": "vEZex3ZnXbl2ip4eSCp-rlJ29cs=", "properties": {"@source_uri": "https://tools.usps.com/UspsToolsRestServices/rest/POLocator/findLocations", "@spider": "usps_collection_boxes", "addr:city": "BRIGHTON", "addr:country": "US", "addr:postcode": "80601", "addr:state": "CO", "addr:street_address": "1605 E BRIDGE ST", "amenity": "post_box", "collection_times": "Mo-Fr 15:00; Sa 13:00", "note": "ON 12/24 AND 12/31, THIS BOX MAY BE COLLECTED AS EARLY AS 12 NOON.", "nsi_id": "unitedstatespostalservice-a77078", "operator": "United States Postal Service", "operator:short": "USPS", "operator:type": "public", "operator:wikidata": "Q668687", "ref": "8060100002"}, "type": "Feature"}
{"geometry": {"coordinates": [-104.790068, 39.982511], "type": "Point"}, "id": "BLjqwczXGkhRVnjDqJ89sOVx4u0=", "properties": {"@source_uri": "https://tools.usps.com/UspsToolsRestServices/rest/POLocator/findLocations", "@spider": "usps_collection_boxes", "addr:city": "BRIGHTON", "addr:country": "US", "addr:postcode": "80601", "addr:state": "CO", "addr:street_address": "2699 SKEEL ST", "amenity": "post_box", "collection_times": "Mo-Fr 15:00; Sa 13:00", "note": "ON 12/24 AND 12/31, THIS BOX MAY BE COLLECTED AS EARLY AS 12 NOON.", "nsi_id": "unitedstatespostalservice-a77078", "operator": "United States Postal Service", "operator:short": "USPS", "operator:type": "public", "operator:wikidata": "Q668687", "ref": "8060100003"}, "type": "Feature"}
{"geometry": {"coordinates": [-104.793166, 39.985848], "type": "Point"}, "id": "6qBGKwOWWzyVHlW6OMSACPehr9E=", "properties": {"@source_uri": "https://tools.usps.com/UspsToolsRestServices/rest/POLocator/findLocations", "@spider": "usps_collection_boxes", "addr:city": "BRIGHTON", "addr:country": "US", "addr:postcode": "80601", "addr:state": "CO", "addr:street_address": "2400 E BRIDGE ST", "amenity": "post_box", "collection_times": "Mo-Fr 15:00; Sa 13:00", "note": "ON 12/24 AND 12/31, THIS BOX MAY BE COLLECTED AS EARLY AS 12 NOON.", "nsi_id": "unitedstatespostalservice-a77078", "operator": "United States Postal Service", "operator:short": "USPS", "operator:type": "public", "operator:wikidata": "Q668687", "ref": "8060100004"}, "type": "Feature"}
{"geometry": {"coordinates": [-104.760992, 39.971408], "type": "Point"}, "id": "WoyB_9cpULbqDMYrN7FQMl9au1w=", "properties": {"@source_uri": "https://tools.usps.com/UspsToolsRestServices/rest/POLocator/findLocations", "@spider": "usps_collection_boxes", "addr:city": "BRIGHTON", "addr:country": "US", "addr:postcode": "80601", "addr:state": "CO", "addr:street_address": "1000 JUDICIAL CENTER DR", "amenity": "post_box", "collection_times": "Mo-Sa 11:00", "nsi_id": "unitedstatespostalservice-a77078", "operator": "United States Postal Service", "operator:short": "USPS", "operator:type": "public", "operator:wikidata": "Q668687", "ref": "8060100005"}, "type": "Feature"}
{"geometry": {"coordinates": [-104.785718, 39.985518], "type": "Point"}, "id": "6E9nkScvd_YanXl_lYDccxTrOYg=", "properties": {"@source_uri": "https://tools.usps.com/UspsToolsRestServices/rest/POLocator/findLocations", "@spider": "usps_collection_boxes", "addr:city": "BRIGHTON", "addr:country": "US", "addr:postcode": "80601", "addr:state": "CO", "addr:street_address": "3060 E BRIDGE ST", "amenity": "post_box", "collection_times": "Mo-Fr 13:30; Sa 13:00", "note": "ON 12/24 AND 12/31, THIS BOX MAY BE COLLECTED AS EARLY AS 12 NOON.", "nsi_id": "unitedstatespostalservice-a77078", "operator": "United States Postal Service", "operator:short": "USPS", "operator:type": "public", "operator:wikidata": "Q668687", "ref": "8060100008"}, "type": "Feature"}
{"geometry": {"coordinates": [-104.81124, 40.002066], "type": "Point"}, "id": "jmlmmDhR5qGuj_PkBRaIyZ5heAw=", "properties": {"@source_uri": "https://tools.usps.com/UspsToolsRestServices/rest/POLocator/findLocations", "@spider": "usps_collection_boxes", "addr:city": "BRIGHTON", "addr:country": "US", "addr:postcode": "80601", "addr:state": "CO", "addr:street_address": "760 N 9TH AVE", "amenity": "post_box", "collection_times": "Mo-Sa 11:00", "nsi_id": "unitedstatespostalservice-a77078", "operator": "United States Postal Service", "operator:short": "USPS", "operator:type": "public", "operator:wikidata": "Q668687", "ref": "8060100012"}, "type": "Feature"}
{"geometry": {"coordinates": [-104.715898, 40.00179], "type": "Point"}, "id": "8VgtfvaZTi8CSdt-NeV4Rgrp7sg=", "properties": {"@source_uri": "https://tools.usps.com/UspsToolsRestServices/rest/POLocator/findLocations", "@spider": "usps_collection_boxes", "addr:city": "BRIGHTON", "addr:country": "US", "addr:postcode": "80601", "addr:state": "CO", "addr:street_address": "100 COUNTY ROAD 37", "amenity": "post_box", "collection_times": "Mo-Sa 09:30", "nsi_id": "unitedstatespostalservice-a77078", "operator": "United States Postal Service", "operator:short": "USPS", "operator:type": "public", "operator:wikidata": "Q668687", "ref": "8060100014"}, "type": "Feature"}
{"geometry": {"coordinates": [-104.817733, 39.978836], "type": "Point"}, "id": "FEmvs_6jR8R8dONO52zlGozPSWI=", "properties": {"@source_uri": "https://tools.usps.com/UspsToolsRestServices/rest/POLocator/findLocations", "@spider": "usps_collection_boxes", "addr:city": "BRIGHTON", "addr:country": "US", "addr:postcode": "80601", "addr:state": "CO", "addr:street_address": "500 S 4TH AVE", "amenity": "post_box", "collection_times": "Mo-Fr 15:00; Sa 13:00", "note": "ON 12/24 AND 12/31, THIS BOX MAY BE COLLECTED AS EARLY AS 12 NOON.", "nsi_id": "unitedstatespostalservice-a77078", "operator": "United States Postal Service", "operator:short": "USPS", "operator:type": "public", "operator:wikidata": "Q668687", "ref": "8060100016"}, "type": "Feature"}
{"geometry": {"coordinates": [-104.818102, 39.988363], "type": "Point"}, "id": "s6nvivfgD8Pjunqjq4xf3EgEp_E=", "properties": {"@source_uri": "https://tools.usps.com/UspsToolsRestServices/rest/POLocator/findLocations", "@spider": "usps_collection_boxes", "addr:city": "BRIGHTON", "addr:country": "US", "addr:postcode": "80601", "addr:state": "CO", "addr:street_address": "90 N 4TH AVE", "amenity": "post_box", "collection_times": "Mo-Fr 17:30; Sa 16:00", "note": "ON 12/24 AND 12/31, THIS BOX MAY BE COLLECTED AS EARLY AS 12 NOON.", "nsi_id": "unitedstatespostalservice-a77078", "operator": "United States Postal Service", "operator:short": "USPS", "operator:type": "public", "operator:wikidata": "Q668687", "ref": "8060100017"}, "type": "Feature"}
{"geometry": {"coordinates": [-104.818102, 39.988363], "type": "Point"}, "id": "SgvOiEKcia-gnnNx9Vw1Y9QIZaY=", "properties": {"@source_uri": "https://tools.usps.com/UspsToolsRestServices/rest/POLocator/findLocations", "@spider": "usps_collection_boxes", "addr:city": "BRIGHTON", "addr:country": "US", "addr:postcode": "80601", "addr:state": "CO", "addr:street_address": "90 N 4TH AVE", "amenity": "post_box", "collection_times": "Mo-Fr 17:30; Sa 16:00", "indoor": "yes", "note": "ON 12/24 AND 12/31, THIS BOX MAY BE COLLECTED AS EARLY AS 12 NOON.", "nsi_id": "unitedstatespostalservice-a77078", "operator": "United States Postal Service", "operator:short": "USPS", "operator:type": "public", "operator:wikidata": "Q668687", "ref": "8060100018"}, "type": "Feature"}
{"geometry": {"coordinates": [-104.818102, 39.988363], "type": "Point"}, "id": "OyvYMQ233aRT3Xc57UGqmYAndDs=", "properties": {"@source_uri": "https://tools.usps.com/UspsToolsRestServices/rest/POLocator/findLocations", "@spider": "usps_collection_boxes", "addr:city": "BRIGHTON", "addr:country": "US", "addr:postcode": "80601", "addr:state": "CO", "addr:street_address": "90 N 4TH AVE", "amenity": "post_box", "collection_times": "Mo-Fr 17:30; Sa 16:00", "indoor": "yes", "note": "ON 12/24 AND 12/31, THIS BOX MAY BE COLLECTED AS EARLY AS 12 NOON.", "nsi_id": "unitedstatespostalservice-a77078", "operator": "United States Postal Service", "operator:short": "USPS", "operator:type": "public", "operator:wikidata": "Q668687", "ref": "8060100019"}, "type": "Feature"}
{"geometry": {"coordinates": [-104.800224, 39.985156], "type": "Point"}, "id": "xnF8iiqqPDABcB5Bi5ohccaAstQ=", "properties": {"@source_uri": "https://tools.usps.com/UspsToolsRestServices/rest/POLocator/findLocations", "@spider": "usps_collection_boxes", "addr:city": "BRIGHTON", "addr:country": "US", "addr:postcode": "80601", "addr:state": "CO", "addr:street_address": "90 S 18TH AVE", "amenity": "post_box", "collection_times": "Mo-Sa 10:30", "nsi_id": "unitedstatespostalservice-a77078", "operator": "United States Postal Service", "operator:short": "USPS", "operator:type": "public", "operator:wikidata": "Q668687", "ref": "8060100021"}, "type": "Feature"}
{"geometry": {"coordinates": [-104.823519, 39.970249], "type": "Point"}, "id": "eRAwQmyEyctM7u-nwuuWpNUwTbs=", "properties": {"@source_uri": "https://tools.usps.com/UspsToolsRestServices/rest/POLocator/findLocations", "@spider": "usps_collection_boxes", "addr:city": "BRIGHTON", "addr:country": "US", "addr:postcode": "80601", "addr:state": "CO", "addr:street_address": "60 W BROMLEY LN", "amenity": "post_box", "collection_times": "Mo-Sa 08:30", "nsi_id": "unitedstatespostalservice-a77078", "operator": "United States Postal Service", "operator:short": "USPS", "operator:type": "public", "operator:wikidata": "Q668687", "ref": "8060100022"}, "type": "Feature"}
{"geometry": {"coordinates": [-104.81649, 39.970613], "type": "Point"}, "id": "icKjv7lYGFc5RGGJTPAxzjEVsTg=", "properties": {"@source_uri": "https://tools.usps.com/UspsToolsRestServices/rest/POLocator/findLocations", "@spider": "usps_collection_boxes", "addr:city": "BRIGHTON", "addr:country": "US", "addr:postcode": "80601", "addr:state": "CO", "addr:street_address": "500 E BROMLEY LN", "amenity": "post_box", "collection_times": "Mo-Sa 09:00", "nsi_id": "unitedstatespostalservice-a77078", "operator": "United States Postal Service", "operator:short": "USPS", "operator:type": "public", "operator:wikidata": "Q668687", "ref": "8060100023"}, "type": "Feature"}
{"geometry": {"coordinates": [-104.813186, 39.923304], "type": "Point"}, "id": "cJLuwXHAxVDv-9AKLUXf-873x8A=", "properties": {"@source_uri": "https://tools.usps.com/UspsToolsRestServices/rest/POLocator/findLocations", "@spider": "usps_collection_boxes", "addr:city": "BRIGHTON", "addr:country": "US", "addr:postcode": "80601", "addr:state": "CO", "addr:street_address": "4430 S ADAMS PKWY", "amenity": "post_box", "collection_times": "Mo-Sa 09:30", "nsi_id": "unitedstatespostalservice-a77078", "operator": "United States Postal Service", "operator:short": "USPS", "operator:type": "public", "operator:wikidata": "Q668687", "ref": "8060100026"}, "type": "Feature"}
{"geometry": {"coordinates": [-104.818102, 39.988363], "type": "Point"}, "id": "rz9n4jlXtdNN9uAdnJw9p6FYEyQ=", "properties": {"@source_uri": "https://tools.usps.com/UspsToolsRestServices/rest/POLocator/findLocations", "@spider": "usps_collection_boxes", "addr:city": "BRIGHTON", "addr:country": "US", "addr:postcode": "80601", "addr:state": "CO", "addr:street_address": "90 N 4TH AVE", "amenity": "post_box", "collection_times": "Mo-Fr 17:30; Sa 16:00", "name": "USPS COLLECTION BOX - APC", "note": "ON 12/24 AND 12/31, THIS BOX MAY BE COLLECTED AS EARLY AS 12 NOON.", "nsi_id": "unitedstatespostalservice-a77078", "operator": "United States Postal Service", "operator:short": "USPS", "operator:type": "public", "operator:wikidata": "Q668687", "ref": "8060100027"}, "type": "Feature"}
{"geometry": {"coordinates": [-104.938225, 39.944453], "type": "Point"}, "id": "TIEBMvqqijg02T-tZUfq-yK6DA0=", "properties": {"@source_uri": "https://tools.usps.com/UspsToolsRestServices/rest/POLocator/findLocations", "@spider": "usps_collection_boxes", "addr:city": "THORNTON", "addr:country": "US", "addr:postcode": "80602", "addr:state": "CO", "addr:street_address": "13700 COLORADO BLVD", "amenity": "post_box", "collection_times": "Mo-Sa 10:00", "nsi_id": "unitedstatespostalservice-a77078", "operator": "United States Postal Service", "operator:short": "USPS", "operator:type": "public", "operator:wikidata": "Q668687", "ref": "8060200001"}, "type": "Feature"}
{"geometry": {"coordinates": [-104.734444, 40.583162], "type": "Point"}, "id": "nr0oVGJjMf8ZaAWocTzrSp6_zi0=", "properties": {"@source_uri": "https://tools.usps.com/UspsToolsRestServices/rest/POLocator/findLocations", "@spider": "usps_collection_boxes", "addr:city": "AULT", "addr:country": "US", "addr:postcode": "80610", "addr:state": "CO", "addr:street_address": "122 1ST AVE", "amenity": "post_box", "collection_times": "Mo-Fr 16:15; Sa 11:45", "indoor": "yes", "note": "ON 12/24 AND 12/31, THIS BOX MAY BE COLLECTED AS EARLY AS 12 NOON.", "nsi_id": "unitedstatespostalservice-a77078", "operator": "United States Postal Service", "operator:short": "USPS", "operator:type": "public", "operator:wikidata": "Q668687", "ref": "8061000000"}, "type": "Feature"}
{"geometry": {"coordinates": [-104.734444, 40.583162], "type": "Point"}, "id": "l9HQfL0WcRbLhujnDV1jITd6Ups=", "properties": {"@source_uri": "https://tools.usps.com/UspsToolsRestServices/rest/POLocator/findLocations", "@spider": "usps_collection_boxes", "addr:city": "AULT", "addr:country": "US", "addr:postcode": "80610", "addr:state": "CO", "addr:street_address": "122 1ST AVE", "amenity": "post_box", "collection_times": "Mo-Fr 16:15; Sa 11:45", "note": "ON 12/24 AND 12/31, THIS BOX MAY BE COLLECTED AS EARLY AS 12 NOON.", "nsi_id": "unitedstatespostalservice-a77078", "operator": "United States Postal Service", "operator:short": "USPS", "operator:type": "public", "operator:wikidata": "Q668687", "ref": "8061000001"}, "type": "Feature"}
{"geometry": {"coordinates": [-104.327752, 40.634407], "type": "Point"}, "id": "3fddv6s4NOsqWYLHT8XcvuiUchE=", "properties": {"@source_uri": "https://tools.usps.com/UspsToolsRestServices/rest/POLocator/findLocations", "@spider": "usps_collection_boxes", "addr:city": "BRIGGSDALE", "addr:country": "US", "addr:postcode": "80611", "addr:state": "CO", "addr:street_address": "302 MAIN ST", "amenity": "post_box", "collection_times": "Mo-Fr 13:00; Sa 12:00", "note": "ON 12/24 AND 12/31, THIS BOX MAY BE COLLECTED AS EARLY AS 12 NOON.", "nsi_id": "unitedstatespostalservice-a77078", "operator": "United States Postal Service", "operator:short": "USPS", "operator:type": "public", "operator:wikidata": "Q668687", "ref": "8061100000"}, "type": "Feature"}
{"geometry": {"coordinates": [-104.327752, 40.634407], "type": "Point"}, "id": "PEewS1ZUYFtbbDe7ORkUyqlhtHE=", "properties": {"@source_uri": "https://tools.usps.com/UspsToolsRestServices/rest/POLocator/findLocations", "@spider": "usps_collection_boxes", "addr:city": "BRIGGSDALE", "addr:country": "US", "addr:postcode": "80611", "addr:state": "CO", "addr:street_address": "302 MAIN ST", "amenity": "post_box", "collection_times": "Mo-Fr 13:00; Sa 12:10", "indoor": "yes", "note": "ON 12/24 AND 12/31, THIS BOX MAY BE COLLECTED AS EARLY AS 12 NOON.", "nsi_id": "unitedstatespostalservice-a77078", "operator": "United States Postal Service", "operator:short": "USPS", "operator:type": "public", "operator:wikidata": "Q668687", "ref": "8061100001"}, "type": "Feature"}
{"geometry": {"coordinates": [-104.9583740369, 39.9222779879], "type": "Point"}, "id": "8jWAre6VVZGHP7BOjAA4TESn710=", "properties": {"@source_uri": "https://tools.usps.com/UspsToolsRestServices/rest/POLocator/findLocations", "@spider": "usps_collection_boxes", "addr:city": "EASTLAKE", "addr:country": "US", "addr:postcode": "80614", "addr:state": "CO", "addr:street_address": "12470 YORK ST", "amenity": "post_box", "collection_times": "Mo-Fr 16:00; Sa 12:00", "note": "ON 12/24 AND 12/31, THIS BOX MAY BE COLLECTED AS EARLY AS 12 NOON.", "nsi_id": "unitedstatespostalservice-a77078", "operator": "United States Postal Service", "operator:short": "USPS", "operator:type": "public", "operator:wikidata": "Q668687", "ref": "8061400000"}, "type": "Feature"}
{"geometry": {"coordinates": [-104.9583740369, 39.9222779879], "type": "Point"}, "id": "hXG7ZWkLSBib4iKc2V2c2skQJZ4=", "properties": {"@source_uri": "https://tools.usps.com/UspsToolsRestServices/rest/POLocator/findLocations", "@spider": "usps_collection_boxes", "addr:city": "EASTLAKE", "addr:country": "US", "addr:postcode": "80614", "addr:state": "CO", "addr:street_address": "12470 YORK ST", "amenity": "post_box", "collection_times": "Mo-Fr 17:00; Sa 12:00", "indoor": "yes", "note": "ON 12/24 AND 12/31, THIS BOX MAY BE COLLECTED AS EARLY AS 12 NOON.", "nsi_id": "unitedstatespostalservice-a77078", "operator": "United States Postal Service", "operator:short": "USPS", "operator:type": "public", "operator:wikidata": "Q668687", "ref": "8061400002"}, "type": "Feature"}
{"geometry": {"coordinates": [-104.9583740369, 39.9222779879], "type": "Point"}, "id": "7oVi7nTe0WcjLI-nG6QRSL3TeRg=", "properties": {"@source_uri": "https://tools.usps.com/UspsToolsRestServices/rest/POLocator/findLocations", "@spider": "usps_collection_boxes", "addr:city": "EASTLAKE", "addr:country": "US", "addr:postcode": "80614", "addr:state": "CO", "addr:street_address": "12470 YORK ST", "amenity": "post_box", "collection_times": "Mo-Fr 17:00; Sa 12:00", "indoor": "yes", "note": "ON 12/24 AND 12/31, THIS BOX MAY BE COLLECTED AS EARLY AS 12 NOON.", "nsi_id": "unitedstatespostalservice-a77078", "operator": "United States Postal Service", "operator:short": "USPS", "operator:type": "public", "operator:wikidata": "Q668687", "ref": "8061400003"}, "type": "Feature"}
{"geometry": {"coordinates": [-104.711785, 40.527433], "type": "Point"}, "id": "7YxpBSWhy1x0PPsNl94lbi06Uow=", "properties": {"@source_uri": "https://tools.usps.com/UspsToolsRestServices/rest/POLocator/findLocations", "@spider": "usps_collection_boxes", "addr:city": "EATON", "addr:country": "US", "addr:postcode": "80615", "addr:state": "CO", "addr:street_address": "125 2ND ST", "amenity": "post_box", "collection_times": "Mo-Fr 16:20; Sa 12:00", "note": "ON 12/24 AND 12/31, THIS BOX MAY BE COLLECTED AS EARLY AS 12 NOON.", "nsi_id": "unitedstatespostalservice-a77078", "operator": "United States Postal Service", "operator:short": "USPS", "operator:type": "public", "operator:wikidata": "Q668687", "ref": "8061500000"}, "type": "Feature"}
{"geometry": {"coordinates": [-104.711725, 40.527406], "type": "Point"}, "id": "xK6-B3egJaFtxTXasrUKRxd56rU=", "properties": {"@source_uri": "https://tools.usps.com/UspsToolsRestServices/rest/POLocator/findLocations", "@spider": "usps_collection_boxes", "addr:city": "EATON", "addr:country": "US", "addr:postcode": "80615", "addr:state": "CO", "addr:street_address": "125 2ND ST", "amenity": "post_box", "collection_times": "Mo-Fr 16:00; Sa 12:00", "indoor": "yes", "note": "ON 12/24 AND 12/31, THIS BOX MAY BE COLLECTED AS EARLY AS 12 NOON.", "nsi_id": "unitedstatespostalservice-a77078", "operator": "United States Postal Service", "operator:short": "USPS", "operator:type": "public", "operator:wikidata": "Q668687", "ref": "8061500004"}, "type": "Feature"}
{"geometry": {"coordinates": [-104.696725, 40.381301], "type": "Point"}, "id": "OSr20GkfJpdIfmJhby3kzfv1VWM=", "properties": {"@source_uri": "https://tools.usps.com/UspsToolsRestServices/rest/POLocator/findLocations", "@spider": "usps_collection_boxes", "addr:city": "EVANS", "addr:country": "US", "addr:postcode": "80620", "addr:state": "CO", "addr:street_address": "3344 11TH AVE", "amenity": "post_box", "collection_times": "Mo-Fr 17:00; Sa 14:30", "note": "ON 12/24 AND 12/31, THIS BOX MAY BE COLLECTED AS EARLY AS 12 NOON.", "nsi_id": "unitedstatespostalservice-a77078", "operator": "United States Postal Service", "operator:short": "USPS", "operator:type": "public", "operator:wikidata": "Q668687", "ref": "8062000000"}, "type": "Feature"}
{"geometry": {"coordinates": [-104.716083, 40.380417], "type": "Point"}, "id": "OeQRkvYRCDcUjyJx-HfEuvgwolo=", "properties": {"@source_uri": "https://tools.usps.com/UspsToolsRestServices/rest/POLocator/findLocations", "@spider": "usps_collection_boxes", "addr:city": "EVANS", "addr:country": "US", "addr:postcode": "80620", "addr:state": "CO", "addr:street_address": "3451 23RD AVE", "amenity": "post_box", "collection_times": "Mo-Sa 12:00", "nsi_id": "unitedstatespostalservice-a77078", "operator": "United States Postal Service", "operator:short": "USPS", "operator:type": "public", "operator:wikidata": "Q668687", "ref": "8062000003"}, "type": "Feature"}
{"geometry": {"coordinates": [-104.696725, 40.381301], "type": "Point"}, "id": "7wd2EAuJ2mp0plbCXE8g5OhqtqI=", "properties": {"@source_uri": "https://tools.usps.com/UspsToolsRestServices/rest/POLocator/findLocations", "@spider": "usps_collection_boxes", "addr:city": "EVANS", "addr:country": "US", "addr:postcode": "80620", "addr:state": "CO", "addr:street_address": "3344 11TH AVE", "amenity": "post_box", "collection_times": "Mo-Fr 17:00; Sa 15:30", "indoor": "yes", "note": "ON 12/24 AND 12/31, THIS BOX MAY BE COLLECTED AS EARLY AS 12 NOON.", "nsi_id": "unitedstatespostalservice-a77078", "operator": "United States Postal Service", "operator:short": "USPS", "operator:type": "public", "operator:wikidata": "Q668687", "ref": "8062000007"}, "type": "Feature"}
{"geometry": {"coordinates": [-104.697455, 40.376768], "type": "Point"}, "id": "1_l-XpyJt8KhqEWK-zDlL8c_W6Q=", "properties": {"@source_uri": "https://tools.usps.com/UspsToolsRestServices/rest/POLocator/findLocations", "@spider": "usps_collection_boxes", "addr:city": "EVANS", "addr:country": "US", "addr:postcode": "80620", "addr:state": "CO", "addr:street_address": "1100 37TH ST", "amenity": "post_box", "collection_times": "Mo-Fr 15:00", "note": "ON 12/24 AND 12/31, THIS BOX MAY BE COLLECTED AS EARLY AS 12 NOON.", "nsi_id": "unitedstatespostalservice-a77078", "operator": "United States Postal Service", "operator:short": "USPS", "operator:type": "public", "operator:wikidata": "Q668687", "ref": "8062000008"}, "type": "Feature"}
{"geometry": {"coordinates": [-104.690452, 40.377495], "type": "Point"}, "id": "OEO046ya29jTLLTgOYgcDcPdjVc=", "properties": {"@source_uri": "https://tools.usps.com/UspsToolsRestServices/rest/POLocator/findLocations", "@spider": "usps_collection_boxes", "addr:city": "EVANS", "addr:country": "US", "addr:postcode": "80620", "addr:state": "CO", "addr:street_address": "801 37TH ST", "amenity": "post_box", "collection_times": "Mo-Sa 14:00", "note": "ON 12/24 AND 12/31, THIS BOX MAY BE COLLECTED AS EARLY AS 12 NOON.", "nsi_id": "unitedstatespostalservice-a77078", "operator": "United States Postal Service", "operator:short": "USPS", "operator:type": "public", "operator:wikidata": "Q668687", "ref": "8062000009"}, "type": "Feature"}
{"geometry": {"coordinates": [-104.721188, 40.382166], "type": "Point"}, "id": "o1alkHjRNXPAVg2fVKhIgy-7MMI=", "properties": {"@source_uri": "https://tools.usps.com/UspsToolsRestServices/rest/POLocator/findLocations", "@spider": "usps_collection_boxes", "addr:city": "EVANS", "addr:country": "US", "addr:postcode": "80620", "addr:state": "CO", "addr:street_address": "2540 CRESCENT COVE DR", "amenity": "post_box", "collection_times": "Mo-Sa 14:00", "note": "ON 12/24 AND 12/31, THIS BOX MAY BE COLLECTED AS EARLY AS 12 NOON.", "nsi_id": "unitedstatespostalservice-a77078", "operator": "United States Postal Service", "operator:short": "USPS", "operator:type": "public", "operator:wikidata": "Q668687", "ref": "8062000010"}, "type": "Feature"}
{"geometry": {"coordinates": [-104.734055, 40.37672], "type": "Point"}, "id": "9qp8Ul0IsvdH5yxR4NWrSTWZjr0=", "properties": {"@source_uri": "https://tools.usps.com/UspsToolsRestServices/rest/POLocator/findLocations", "@spider": "usps_collection_boxes", "addr:city": "EVANS", "addr:country": "US", "addr:postcode": "80620", "addr:state": "CO", "addr:street_address": "3700 35TH AVE", "amenity": "post_box", "collection_times": "Mo-Sa 14:00", "note": "ON 12/24 AND 12/31, THIS BOX MAY BE COLLECTED AS EARLY AS 12 NOON.", "nsi_id": "unitedstatespostalservice-a77078", "operator": "United States Postal Service", "operator:short": "USPS", "operator:type": "public", "operator:wikidata": "Q668687", "ref": "8062000011"}, "type": "Feature"}
{"geometry": {"coordinates": [-104.696725, 40.381301], "type": "Point"}, "id": "kRy_pB_s0hecfDrC1-uUK4gWnfQ=", "properties": {"@source_uri": "https://tools.usps.com/UspsToolsRestServices/rest/POLocator/findLocations", "@spider": "usps_collection_boxes", "addr:city": "EVANS", "addr:country": "US", "addr:postcode": "80620", "addr:state": "CO", "addr:street_address": "3344 11TH AVE", "amenity": "post_box", "collection_times": "Mo-Fr 17:00; Sa 15:30", "indoor": "yes", "note": "ON 12/24 AND 12/31, THIS BOX MAY BE COLLECTED AS EARLY AS 12 NOON.", "nsi_id": "unitedstatespostalservice-a77078", "operator": "United States Postal Service", "operator:short": "USPS", "operator:type": "public", "operator:wikidata": "Q668687", "ref": "8062000012"}, "type": "Feature"}
{"geometry": {"coordinates": [-104.812062, 40.083267], "type": "Point"}, "id": "rfMIEwAxTp0cMswjb0DHyN3zERU=", "properties": {"@source_uri": "https://tools.usps.com/UspsToolsRestServices/rest/POLocator/findLocations", "@spider": "usps_collection_boxes", "addr:city": "FORT LUPTON", "addr:country": "US", "addr:postcode": "80621", "addr:state": "CO", "addr:street_address": "533 4TH ST", "amenity": "post_box", "collection_times": "Mo-Fr 17:00; Sa 15:30", "note": "ON 12/24 AND 12/31, THIS BOX MAY BE COLLECTED AS EARLY AS 12 NOON.", "nsi_id": "unitedstatespostalservice-a77078", "operator": "United States Postal Service", "operator:short": "USPS", "operator:type": "public", "operator:wikidata": "Q668687", "ref": "8062100000"}, "type": "Feature"}
{"geometry": {"coordinates": [-104.812062, 40.083267], "type": "Point"}, "id": "mu9DXv5MMZ7lGGmyNo6jpZ5-lMg=", "properties": {"@source_uri": "https://tools.usps.com/UspsToolsRestServices/rest/POLocator/findLocations", "@spider": "usps_collection_boxes", "addr:city": "FORT LUPTON", "addr:country": "US", "addr:postcode": "80621", "addr:state": "CO", "addr:street_address": "533 4TH ST", "amenity": "post_box", "collection_times": "Mo-Fr 17:00; Sa 15:30", "indoor": "yes", "note": "ON 12/24 AND 12/31, THIS BOX MAY BE COLLECTED AS EARLY AS 12 NOON.", "nsi_id": "unitedstatespostalservice-a77078", "operator": "United States Postal Service", "operator:short": "USPS", "operator:type": "public", "operator:wikidata": "Q668687", "ref": "8062100002"}, "type": "Feature"}
{"geometry": {"coordinates": [-104.802804, 40.079227], "type": "Point"}, "id": "immWc2-vdhe7cH8HsJi5WMMibDE=", "properties": {"@source_uri": "https://tools.usps.com/UspsToolsRestServices/rest/POLocator/findLocations", "@spider": "usps_collection_boxes", "addr:city": "FORT LUPTON", "addr:country": "US", "addr:postcode": "80621", "addr:state": "CO", "addr:street_address": "1300 DEXTER ST", "amenity": "post_box", "collection_times": "Mo-Sa 12:00", "nsi_id": "unitedstatespostalservice-a77078", "operator": "United States Postal Service", "operator:short": "USPS", "operator:type": "public", "operator:wikidata": "Q668687", "ref": "8062100003"}, "type": "Feature"}
{"geometry": {"coordinates": [-104.585779, 40.522271], "type": "Point"}, "id": "_vsJ-6EN6IEI2tnwmi9vqlvHJ-A=", "properties": {"@source_uri": "https://tools.usps.com/UspsToolsRestServices/rest/POLocator/findLocations", "@spider": "usps_collection_boxes", "addr:city": "GALETON", "addr:country": "US", "addr:postcode": "80622", "addr:state": "CO", "addr:street_address": "24830 1ST ST", "amenity": "post_box", "collection_times": "Mo-Fr 16:15; Sa 10:15", "indoor": "yes", "note": "ON 12/24 AND 12/31, THIS BOX MAY BE COLLECTED AS EARLY AS 12 NOON.", "nsi_id": "unitedstatespostalservice-a77078", "operator": "United States Postal Service", "operator:short": "USPS", "operator:type": "public", "operator:wikidata": "Q668687", "ref": "8062200000"}, "type": "Feature"}
{"geometry": {"coordinates": [-104.585387, 40.52228], "type": "Point"}, "id": "m7r3a7C61I1ec4c2znN9ZL_ZRsw=", "properties": {"@source_uri": "https://tools.usps.com/UspsToolsRestServices/rest/POLocator/findLocations", "@spider": "usps_collection_boxes", "addr:city": "GALETON", "addr:country": "US", "addr:postcode": "80622", "addr:state": "CO", "addr:street_address": "24830 1ST ST", "amenity": "post_box", "collection_times": "Mo-Fr 16:00; Sa 10:00", "note": "ON 12/24 AND 12/31, THIS BOX MAY BE COLLECTED AS EARLY AS 12 NOON.", "nsi_id": "unitedstatespostalservice-a77078", "operator": "United States Postal Service", "operator:short": "USPS", "operator:type": "public", "operator:wikidata": "Q668687", "ref": "8062200002"}, "type": "Feature"}
{"geometry": {"coordinates": [-104.777649, 40.282671], "type": "Point"}, "id": "PXwzQWPDUM-zRAfchamuVtLtAi4=", "properties": {"@source_uri": "https://tools.usps.com/UspsToolsRestServices/rest/POLocator/findLocations", "@spider": "usps_collection_boxes", "addr:city": "GILCREST", "addr:country": "US", "addr:postcode": "80623", "addr:state": "CO", "addr:street_address": "301 MAIN ST", "amenity": "post_box", "collection_times": "Mo-Fr 16:15; Sa 11:00", "note": "ON 12/24 AND 12/31, THIS BOX MAY BE COLLECTED AS EARLY AS 12 NOON.", "nsi_id": "unitedstatespostalservice-a77078", "operator": "United States Postal Service", "operator:short": "USPS", "operator:type": "public", "operator:wikidata": "Q668687", "ref": "8062300000"}, "type": "Feature"}
{"geometry": {"coordinates": [-104.777649, 40.282671], "type": "Point"}, "id": "ydw4G7jo9TBLbeOInhuSfxDLgVs=", "properties": {"@source_uri": "https://tools.usps.com/UspsToolsRestServices/rest/POLocator/findLocations", "@spider": "usps_collection_boxes", "addr:city": "GILCREST", "addr:country": "US", "addr:postcode": "80623", "addr:state": "CO", "addr:street_address": "301 MAIN ST", "amenity": "post_box", "collection_times": "Mo-Fr 16:15; Sa 11:00", "indoor": "yes", "note": "ON 12/24 AND 12/31, THIS BOX MAY BE COLLECTED AS EARLY AS 12 NOON.", "nsi_id": "unitedstatespostalservice-a77078", "operator": "United States Postal Service", "operator:short": "USPS", "operator:type": "public", "operator:wikidata": "Q668687", "ref": "8062300002"}, "type": "Feature"}
{"geometry": {"coordinates": [-104.543046, 40.4542], "type": "Point"}, "id": "vagDML1zfPs3AGmosNr_KDi9L78=", "properties": {"@source_uri": "https://tools.usps.com/UspsToolsRestServices/rest/POLocator/findLocations", "@spider": "usps_collection_boxes", "addr:city": "GILL", "addr:country": "US", "addr:postcode": "80624", "addr:state": "CO", "addr:street_address": "31302 3RD ST", "amenity": "post_box", "collection_times": "Mo-Fr 11:45; Sa 11:30", "indoor": "yes", "nsi_id": "unitedstatespostalservice-a77078", "operator": "United States Postal Service", "operator:short": "USPS", "operator:type": "public", "operator:wikidata": "Q668687", "ref": "8062400001"}, "type": "Feature"}
{"geometry": {"coordinates": [-104.695402, 40.404655], "type": "Point"}, "id": "y7e2jwbs_Yl5qFq1UpvaeMq3yJI=", "properties": {"@source_uri": "https://tools.usps.com/UspsToolsRestServices/rest/POLocator/findLocations", "@spider": "usps_collection_boxes", "addr:city": "GREELEY", "addr:country": "US", "addr:postcode": "80631", "addr:state": "CO", "addr:street_address": "2045 10TH AVE", "amenity": "post_box", "collection_times": "Mo-Sa 13:39", "note": "ON 12/24 AND 12/31, THIS BOX MAY BE COLLECTED AS EARLY AS 12 NOON.", "nsi_id": "unitedstatespostalservice-a77078", "operator": "United States Postal Service", "operator:short": "USPS", "operator:type": "public", "operator:wikidata": "Q668687", "ref": "8063100013"}, "type": "Feature"}
{"geometry": {"coordinates": [-104.697304, 40.396415], "type": "Point"}, "id": "ixVcf4Ei_1VFumtblnSbnnssEOg=", "properties": {"@source_uri": "https://tools.usps.com/UspsToolsRestServices/rest/POLocator/findLocations", "@spider": "usps_collection_boxes", "addr:city": "GREELEY", "addr:country": "US", "addr:postcode": "80631", "addr:state": "CO", "addr:street_address": "2505 11TH AVE", "amenity": "post_box", "collection_times": "Mo-Sa 13:50", "note": "ON 12/24 AND 12/31, THIS BOX MAY BE COLLECTED AS EARLY AS 12 NOON.", "nsi_id": "unitedstatespostalservice-a77078", "operator": "United States Postal Service", "operator:short": "USPS", "operator:type": "public", "operator:wikidata": "Q668687", "ref": "8063100015"}, "type": "Feature"}
{"geometry": {"coordinates": [-104.696278, 40.42295], "type": "Point"}, "id": "raUsEEpKQ7q9CfkZTGOMyp5qado=", "properties": {"@source_uri": "https://tools.usps.com/UspsToolsRestServices/rest/POLocator/findLocations", "@spider": "usps_collection_boxes", "addr:city": "GREELEY", "addr:country": "US", "addr:postcode": "80631", "addr:state": "CO", "addr:street_address": "925 11TH AVE", "amenity": "post_box", "collection_times": "Mo-Sa 17:30", "note": "ON 12/24 AND 12/31, THIS BOX MAY BE COLLECTED AS EARLY AS 12 NOON.", "nsi_id": "unitedstatespostalservice-a77078", "operator": "United States Postal Service", "operator:short": "USPS", "operator:type": "public", "operator:wikidata": "Q668687", "ref": "8063100036"}, "type": "Feature"}
{"geometry": {"coordinates": [-104.696278, 40.42295], "type": "Point"}, "id": "bQIqrCAXQEORbzYeuzgk2Vr5jKk=", "properties": {"@source_uri": "https://tools.usps.com/UspsToolsRestServices/rest/POLocator/findLocations", "@spider": "usps_collection_boxes", "addr:city": "GREELEY", "addr:country": "US", "addr:postcode": "80631", "addr:state": "CO", "addr:street_address": "925 11TH AVE", "amenity": "post_box", "collection_times": "Mo-Sa 17:30", "note": "ON 12/24 AND 12/31, THIS BOX MAY BE COLLECTED AS EARLY AS 12 NOON.", "nsi_id": "unitedstatespostalservice-a77078", "operator": "United States Postal Service", "operator:short": "USPS", "operator:type": "public", "operator:wikidata": "Q668687", "ref": "8063100037"}, "type": "Feature"}
{"geometry": {"coordinates": [-104.692444, 40.425705], "type": "Point"}, "id": "8teK80epxJCnDPLqLZ3XWvGCZG0=", "properties": {"@source_uri": "https://tools.usps.com/UspsToolsRestServices/rest/POLocator/findLocations", "@spider": "usps_collection_boxes", "addr:city": "GREELEY", "addr:country": "US", "addr:postcode": "80631", "addr:state": "CO", "addr:street_address": "822 7TH ST", "amenity": "post_box", "collection_times": "Mo-Sa 15:00", "note": "ON 12/24 AND 12/31, THIS BOX MAY BE COLLECTED AS EARLY AS 12 NOON.", "nsi_id": "unitedstatespostalservice-a77078", "operator": "United States Postal Service", "operator:short": "USPS", "operator:type": "public", "operator:wikidata": "Q668687", "ref": "8063100065"}, "type": "Feature"}
{"geometry": {"coordinates": [-104.696278, 40.42295], "type": "Point"}, "id": "mJgwUcR0mNHGSRji8fcF9yWNP-Y=", "properties": {"@source_uri": "https://tools.usps.com/UspsToolsRestServices/rest/POLocator/findLocations", "@spider": "usps_collection_boxes", "addr:city": "GREELEY", "addr:country": "US", "addr:postcode": "80631", "addr:state": "CO", "addr:street_address": "925 11TH AVE", "amenity": "post_box", "collection_times": "Mo-Sa 17:30", "indoor": "yes", "note": "ON 12/24 AND 12/31, THIS BOX MAY BE COLLECTED AS EARLY AS 12 NOON.", "nsi_id": "unitedstatespostalservice-a77078", "operator": "United States Postal Service", "operator:short": "USPS", "operator:type": "public", "operator:wikidata": "Q668687", "ref": "8063100071"}, "type": "Feature"}
{"geometry": {"coordinates": [-104.6973597, 40.4156758], "type": "Point"}, "id": "3eyZE6PWgssFtqNb7y7NRMbFGqQ=", "properties": {"@source_uri": "https://tools.usps.com/UspsToolsRestServices/rest/POLocator/findLocations", "@spider": "usps_collection_boxes", "addr:city": "GREELEY", "addr:country": "US", "addr:postcode": "80631", "addr:state": "CO", "addr:street_address": "931 16TH ST", "amenity": "post_box", "collection_times": "Mo-Sa 13:34", "note": "ON 12/24 AND 12/31, THIS BOX MAY BE COLLECTED AS EARLY AS 12 NOON.", "nsi_id": "unitedstatespostalservice-a77078", "operator": "United States Postal Service", "operator:short": "USPS", "operator:type": "public", "operator:wikidata": "Q668687", "ref": "8063100072"}, "type": "Feature"}
{"geometry": {"coordinates": [-104.732569, 40.405998], "type": "Point"}, "id": "EKQEFEC3FSKpMM-8MscBhUptctI=", "properties": {"@source_uri": "https://tools.usps.com/UspsToolsRestServices/rest/POLocator/findLocations", "@spider": "usps_collection_boxes", "addr:city": "GREELEY", "addr:country": "US", "addr:postcode": "80634", "addr:state": "CO", "addr:street_address": "2006 35TH AVE", "amenity": "post_box", "collection_times": "Mo-Sa 14:15", "note": "ON 12/24 AND 12/31, THIS BOX MAY BE COLLECTED AS EARLY AS 12 NOON.", "nsi_id": "unitedstatespostalservice-a77078", "operator": "United States Postal Service", "operator:short": "USPS", "operator:type": "public", "operator:wikidata": "Q668687", "ref": "8063400000"}, "type": "Feature"}
{"geometry": {"coordinates": [-104.737485, 40.42213], "type": "Point"}, "id": "A6xGwWeC_lIQG1iTApgxVyEHkk4=", "properties": {"@source_uri": "https://tools.usps.com/UspsToolsRestServices/rest/POLocator/findLocations", "@spider": "usps_collection_boxes", "addr:city": "GREELEY", "addr:country": "US", "addr:postcode": "80634", "addr:state": "CO", "addr:street_address": "3540 W 10TH ST", "amenity": "post_box", "collection_times": "Mo-Sa 16:45", "note": "ON 12/24 AND 12/31, THIS BOX MAY BE COLLECTED AS EARLY AS 12 NOON.", "nsi_id": "unitedstatespostalservice-a77078", "operator": "United States Postal Service", "operator:short": "USPS", "operator:type": "public", "operator:wikidata": "Q668687", "ref": "8063400003"}, "type": "Feature"}
{"geometry": {"coordinates": [-104.744956, 40.423059], "type": "Point"}, "id": "T9OOwMGF-rHEdEch7vr_bJqL6NU=", "properties": {"@source_uri": "https://tools.usps.com/UspsToolsRestServices/rest/POLocator/findLocations", "@spider": "usps_collection_boxes", "addr:city": "GREELEY", "addr:country": "US", "addr:postcode": "80634", "addr:state": "CO", "addr:street_address": "930 39TH AVE", "amenity": "post_box", "collection_times": "Mo-Sa 17:30", "note": "ON 12/24 AND 12/31, THIS BOX MAY BE COLLECTED AS EARLY AS 12 NOON.", "nsi_id": "unitedstatespostalservice-a77078", "operator": "United States Postal Service", "operator:short": "USPS", "operator:type": "public", "operator:wikidata": "Q668687", "ref": "8063400011"}, "type": "Feature"}
{"geometry": {"coordinates": [-104.744956, 40.423059], "type": "Point"}, "id": "Yog3_JcMoKHcG_DXtVz_Ghm9Fak=", "properties": {"@source_uri": "https://tools.usps.com/UspsToolsRestServices/rest/POLocator/findLocations", "@spider": "usps_collection_boxes", "addr:city": "GREELEY", "addr:country": "US", "addr:postcode": "80634", "addr:state": "CO", "addr:street_address": "930 39TH AVE", "amenity": "post_box", "collection_times": "Mo-Sa 17:30", "note": "ON 12/24 AND 12/31, THIS BOX MAY BE COLLECTED AS EARLY AS 12 NOON.", "nsi_id": "unitedstatespostalservice-a77078", "operator": "United States Postal Service", "operator:short": "USPS", "operator:type": "public", "operator:wikidata": "Q668687", "ref": "8063400013"}, "type": "Feature"}
{"geometry": {"coordinates": [-104.717487, 40.413575], "type": "Point"}, "id": "ZQdDrC2FXK1CKmSlXUuF-_hxF-g=", "properties": {"@source_uri": "https://tools.usps.com/UspsToolsRestServices/rest/POLocator/findLocations", "@spider": "usps_collection_boxes", "addr:city": "GREELEY", "addr:country": "US", "addr:postcode": "80634", "addr:state": "CO", "addr:street_address": "2400 W 16TH ST", "amenity": "post_box", "collection_times": "Mo-Sa 15:30", "note": "ON 12/24 AND 12/31, THIS BOX MAY BE COLLECTED AS EARLY AS 12 NOON.", "nsi_id": "unitedstatespostalservice-a77078", "operator": "United States Postal Service", "operator:short": "USPS", "operator:type": "public", "operator:wikidata": "Q668687", "ref": "8063400018"}, "type": "Feature"}
{"geometry": {"coordinates": [-104.717059, 40.399625], "type": "Point"}, "id": "3P_Km3jBAibbHZ5o0ZzGzYGekvw=", "properties": {"@source_uri": "https://tools.usps.com/UspsToolsRestServices/rest/POLocator/findLocations", "@spider": "usps_collection_boxes", "addr:city": "GREELEY", "addr:country": "US", "addr:postcode": "80634", "addr:state": "CO", "addr:street_address": "2325 23RD AVE", "amenity": "post_box", "collection_times": "Mo-Sa 14:00", "note": "ON 12/24 AND 12/31, THIS BOX MAY BE COLLECTED AS EARLY AS 12 NOON.", "nsi_id": "unitedstatespostalservice-a77078", "operator": "United States Postal Service", "operator:short": "USPS", "operator:type": "public", "operator:wikidata": "Q668687", "ref": "8063400020"}, "type": "Feature"}
{"geometry": {"coordinates": [-104.744956, 40.423059], "type": "Point"}, "id": "LD5O9QqP6Cpas69_AV5D4e-FAcc=", "properties": {"@source_uri": "https://tools.usps.com/UspsToolsRestServices/rest/POLocator/findLocations", "@spider": "usps_collection_boxes", "addr:city": "GREELEY", "addr:country": "US", "addr:postcode": "80634", "addr:state": "CO", "addr:street_address": "930 39TH AVE", "amenity": "post_box", "collection_times": "Mo-Sa 17:30", "indoor": "yes", "note": "ON 12/24 AND 12/31, THIS BOX MAY BE COLLECTED AS EARLY AS 12 NOON.", "nsi_id": "unitedstatespostalservice-a77078", "operator": "United States Postal Service", "operator:short": "USPS", "operator:type": "public", "operator:wikidata": "Q668687", "ref": "8063400023"}, "type": "Feature"}
{"geometry": {"coordinates": [-104.753124, 40.39362], "type": "Point"}, "id": "8VPegXiF6nBoN-WiBTOSR2B3aDY=", "properties": {"@source_uri": "https://tools.usps.com/UspsToolsRestServices/rest/POLocator/findLocations", "@spider": "usps_collection_boxes", "addr:city": "GREELEY", "addr:country": "US", "addr:postcode": "80634", "addr:state": "CO", "addr:street_address": "4530 CENTRAL PL DR", "amenity": "post_box", "collection_times": "Mo-Sa 16:10", "note": "ON 12/24 AND 12/31, THIS BOX MAY BE COLLECTED AS EARLY AS 12 NOON.", "nsi_id": "unitedstatespostalservice-a77078", "operator": "United States Postal Service", "operator:short": "USPS", "operator:type": "public", "operator:wikidata": "Q668687", "ref": "8063400024"}, "type": "Feature"}
{"geometry": {"coordinates": [-104.795141, 40.40833], "type": "Point"}, "id": "XNamvc4JoblKx6kdugYSHKdo3vo=", "properties": {"@source_uri": "https://tools.usps.com/UspsToolsRestServices/rest/POLocator/findLocations", "@spider": "usps_collection_boxes", "addr:city": "GREELEY", "addr:country": "US", "addr:postcode": "80634", "addr:state": "CO", "addr:street_address": "7251 W 20TH ST", "amenity": "post_box", "collection_times": "Mo-Sa 16:35", "note": "ON 12/24 AND 12/31, THIS BOX MAY BE COLLECTED AS EARLY AS 12 NOON.", "nsi_id": "unitedstatespostalservice-a77078", "operator": "United States Postal Service", "operator:short": "USPS", "operator:type": "public", "operator:wikidata": "Q668687", "ref": "8063400026"}, "type": "Feature"}
{"geometry": {"coordinates": [-104.744956, 40.423059], "type": "Point"}, "id": "DGndeGZgQAy91aDBfr_LHuFGpLk=", "properties": {"@source_uri": "https://tools.usps.com/UspsToolsRestServices/rest/POLocator/findLocations", "@spider": "usps_collection_boxes", "addr:city": "GREELEY", "addr:country": "US", "addr:postcode": "80634", "addr:state": "CO", "addr:street_address": "930 39TH AVE", "amenity": "post_box", "collection_times": "Mo-Sa 17:30", "name": "USPS COLLECTION BOX - APC", "note": "ON 12/24 AND 12/31, THIS BOX MAY BE COLLECTED AS EARLY AS 12 NOON.", "nsi_id": "unitedstatespostalservice-a77078", "operator": "United States Postal Service", "operator:short": "USPS", "operator:type": "public", "operator:wikidata": "Q668687", "ref": "8063400027"}, "type": "Feature"}
{"geometry": {"coordinates": [-104.786236, 40.389073], "type": "Point"}, "id": "We4KF3T9Qd8KcKLbOCJmRLR6Bo4=", "properties": {"@source_uri": "https://tools.usps.com/UspsToolsRestServices/rest/POLocator/findLocations", "@spider": "usps_collection_boxes", "addr:city": "GREELEY", "addr:country": "US", "addr:postcode": "80634", "addr:state": "CO", "addr:street_address": "6560 W 29TH ST", "amenity": "post_box", "collection_times": "Mo-Sa 16:20", "note": "ON 12/24 AND 12/31, THIS BOX MAY BE COLLECTED AS EARLY AS 12 NOON.", "nsi_id": "unitedstatespostalservice-a77078", "operator": "United States Postal Service", "operator:short": "USPS", "operator:type": "public", "operator:wikidata": "Q668687", "ref": "8063400029"}, "type": "Feature"}
{"geometry": {"coordinates": [-104.779003, 40.409625], "type": "Point"}, "id": "sJE4swVPWMchl26k_JjIhsTdkRA=", "properties": {"@source_uri": "https://tools.usps.com/UspsToolsRestServices/rest/POLocator/findLocations", "@spider": "usps_collection_boxes", "addr:city": "GREELEY", "addr:country": "US", "addr:postcode": "80634", "addr:state": "CO", "addr:street_address": "1707 61ST AVE", "amenity": "post_box", "collection_times": "Mo-Sa 16:30", "note": "ON 12/24 AND 12/31, THIS BOX MAY BE COLLECTED AS EARLY AS 12 NOON.", "nsi_id": "unitedstatespostalservice-a77078", "operator": "United States Postal Service", "operator:short": "USPS", "operator:type": "public", "operator:wikidata": "Q668687", "ref": "8063400030"}, "type": "Feature"}
{"geometry": {"coordinates": [-104.744956, 40.423059], "type": "Point"}, "id": "PHV9NJmG6B57WSFDKha_4pi7ejs=", "properties": {"@source_uri": "https://tools.usps.com/UspsToolsRestServices/rest/POLocator/findLocations", "@spider": "usps_collection_boxes", "addr:city": "GREELEY", "addr:country": "US", "addr:postcode": "80634", "addr:state": "CO", "addr:street_address": "930 39TH AVE", "amenity": "post_box", "collection_times": "Mo-Sa 17:30", "indoor": "yes", "note": "ON 12/24 AND 12/31, THIS BOX MAY BE COLLECTED AS EARLY AS 12 NOON.", "nsi_id": "unitedstatespostalservice-a77078", "operator": "United States Postal Service", "operator:short": "USPS", "operator:type": "public", "operator:wikidata": "Q668687", "ref": "8063400032"}, "type": "Feature"}
{"geometry": {"coordinates": [-104.744956, 40.423059], "type": "Point"}, "id": "V1p8qnKFf-Zvpk6VpJCEX1kzoTo=", "properties": {"@source_uri": "https://tools.usps.com/UspsToolsRestServices/rest/POLocator/findLocations", "@spider": "usps_collection_boxes", "addr:city": "GREELEY", "addr:country": "US", "addr:postcode": "80634", "addr:state": "CO", "addr:street_address": "930 39TH AVE", "amenity": "post_box", "collection_times": "Mo-Sa 17:30", "indoor": "yes", "note": "ON 12/24 AND 12/31, THIS BOX MAY BE COLLECTED AS EARLY AS 12 NOON.", "nsi_id": "unitedstatespostalservice-a77078", "operator": "United States Postal Service", "operator:short": "USPS", "operator:type": "public", "operator:wikidata": "Q668687", "ref": "8063400033"}, "type": "Feature"}
{"geometry": {"coordinates": [-104.867566, 39.918261], "type": "Point"}, "id": "PorhwwqeIJnZt8fqTLsMCwbzeas=", "properties": {"@source_uri": "https://tools.usps.com/UspsToolsRestServices/rest/POLocator/findLocations", "@spider": "usps_collection_boxes", "addr:city": "HENDERSON", "addr:country": "US", "addr:postcode": "80640", "addr:state": "CO", "addr:street_address": "12210 BRIGHTON RD", "amenity": "post_box", "collection_times": "Mo-Fr 16:45; Sa 11:45", "note": "ON 12/24 AND 12/31, THIS BOX MAY BE COLLECTED AS EARLY AS 12 NOON.", "nsi_id": "unitedstatespostalservice-a77078", "operator": "United States Postal Service", "operator:short": "USPS", "operator:type": "public", "operator:wikidata": "Q668687", "ref": "8064000000"}, "type": "Feature"}
{"geometry": {"coordinates": [-104.867566, 39.918261], "type": "Point"}, "id": "qYMAISrP2wNw6DgoVjfAPe0at2k=", "properties": {"@source_uri": "https://tools.usps.com/UspsToolsRestServices/rest/POLocator/findLocations", "@spider": "usps_collection_boxes", "addr:city": "HENDERSON", "addr:country": "US", "addr:postcode": "80640", "addr:state": "CO", "addr:street_address": "12210 BRIGHTON RD", "amenity": "post_box", "collection_times": "Mo-Fr 16:45; Sa 11:45", "indoor": "yes", "note": "ON 12/24 AND 12/31, THIS BOX MAY BE COLLECTED AS EARLY AS 12 NOON.", "nsi_id": "unitedstatespostalservice-a77078", "operator": "United States Postal Service", "operator:short": "USPS", "operator:type": "public", "operator:wikidata": "Q668687", "ref": "8064000001"}, "type": "Feature"}
{"geometry": {"coordinates": [-104.910047978, 39.856372232], "type": "Point"}, "id": "vWUvo_vcE2ZtLxuJZL4s0pKysGw=", "properties": {"@source_uri": "https://tools.usps.com/UspsToolsRestServices/rest/POLocator/findLocations", "@spider": "usps_collection_boxes", "addr:city": "HENDERSON", "addr:country": "US", "addr:postcode": "80640", "addr:state": "CO", "addr:street_address": "6500 E 88TH AVE", "amenity": "post_box", "collection_times": "Mo-Sa 12:00", "nsi_id": "unitedstatespostalservice-a77078", "operator": "United States Postal Service", "operator:short": "USPS", "operator:type": "public", "operator:wikidata": "Q668687", "ref": "8064000002"}, "type": "Feature"}
{"geometry": {"coordinates": [-104.867566, 39.918261], "type": "Point"}, "id": "wMJUHgYZtJijdrBTLFKZyXAkNDM=", "properties": {"@source_uri": "https://tools.usps.com/UspsToolsRestServices/rest/POLocator/findLocations", "@spider": "usps_collection_boxes", "addr:city": "HENDERSON", "addr:country": "US", "addr:postcode": "80640", "addr:state": "CO", "addr:street_address": "12210 BRIGHTON RD", "amenity": "post_box", "collection_times": "Mo-Fr 16:45; Sa 11:45", "indoor": "yes", "note": "ON 12/24 AND 12/31, THIS BOX MAY BE COLLECTED AS EARLY AS 12 NOON.", "nsi_id": "unitedstatespostalservice-a77078", "operator": "United States Postal Service", "operator:short": "USPS", "operator:type": "public", "operator:wikidata": "Q668687", "ref": "8064000003"}, "type": "Feature"}
{"geometry": {"coordinates": [-104.6437410287, 40.0752219884], "type": "Point"}, "id": "cSHUFEjp5Zb-vctmN9S1DJqK-qU=", "properties": {"@source_uri": "https://tools.usps.com/UspsToolsRestServices/rest/POLocator/findLocations", "@spider": "usps_collection_boxes", "addr:city": "HUDSON", "addr:country": "US", "addr:postcode": "80642", "addr:state": "CO", "addr:street_address": "738 CEDAR ST", "amenity": "post_box", "collection_times": "Mo-Fr 16:45; Sa 11:45", "note": "ON 12/24 AND 12/31, THIS BOX MAY BE COLLECTED AS EARLY AS 12 NOON.", "nsi_id": "unitedstatespostalservice-a77078", "operator": "United States Postal Service", "operator:short": "USPS", "operator:type": "public", "operator:wikidata": "Q668687", "ref": "8064200000"}, "type": "Feature"}
{"geometry": {"coordinates": [-104.6437410287, 40.0752219884], "type": "Point"}, "id": "0EJge79xNdJV6oHDL6klvJg29AM=", "properties": {"@source_uri": "https://tools.usps.com/UspsToolsRestServices/rest/POLocator/findLocations", "@spider": "usps_collection_boxes", "addr:city": "HUDSON", "addr:country": "US", "addr:postcode": "80642", "addr:state": "CO", "addr:street_address": "738 CEDAR ST", "amenity": "post_box", "collection_times": "Mo-Fr 16:45; Sa 11:45", "indoor": "yes", "note": "ON 12/24 AND 12/31, THIS BOX MAY BE COLLECTED AS EARLY AS 12 NOON.", "nsi_id": "unitedstatespostalservice-a77078", "operator": "United States Postal Service", "operator:short": "USPS", "operator:type": "public", "operator:wikidata": "Q668687", "ref": "8064200001"}, "type": "Feature"}
{"geometry": {"coordinates": [-104.6437410287, 40.0752219884], "type": "Point"}, "id": "LB0m25WSOxrRmkMAFCm8VlFqp70=", "properties": {"@source_uri": "https://tools.usps.com/UspsToolsRestServices/rest/POLocator/findLocations", "@spider": "usps_collection_boxes", "addr:city": "HUDSON", "addr:country": "US", "addr:postcode": "80642", "addr:state": "CO", "addr:street_address": "738 CEDAR ST", "amenity": "post_box", "collection_times": "Mo-Fr 16:45; Sa 11:45", "indoor": "yes", "note": "ON 12/24 AND 12/31, THIS BOX MAY BE COLLECTED AS EARLY AS 12 NOON.", "nsi_id": "unitedstatespostalservice-a77078", "operator": "United States Postal Service", "operator:short": "USPS", "operator:type": "public", "operator:wikidata": "Q668687", "ref": "8064200002"}, "type": "Feature"}
{"geometry": {"coordinates": [-104.519825, 40.10833], "type": "Point"}, "id": "L33-bqvlBBWcZKGlhoAKoExizRA=", "properties": {"@source_uri": "https://tools.usps.com/UspsToolsRestServices/rest/POLocator/findLocations", "@spider": "usps_collection_boxes", "addr:city": "KEENESBURG", "addr:country": "US", "addr:postcode": "80643", "addr:state": "CO", "addr:street_address": "90 S MAIN ST", "amenity": "post_box", "collection_times": "Mo-Fr 16:45; Sa 10:45", "note": "ON 12/24 AND 12/31, THIS BOX MAY BE COLLECTED AS EARLY AS 12 NOON.", "nsi_id": "unitedstatespostalservice-a77078", "operator": "United States Postal Service", "operator:short": "USPS", "operator:type": "public", "operator:wikidata": "Q668687", "ref": "8064300000"}, "type": "Feature"}
{"geometry": {"coordinates": [-104.519825, 40.10833], "type": "Point"}, "id": "2sbMI-69r12t4zD4ZuiJDmrIuNI=", "properties": {"@source_uri": "https://tools.usps.com/UspsToolsRestServices/rest/POLocator/findLocations", "@spider": "usps_collection_boxes", "addr:city": "KEENESBURG", "addr:country": "US", "addr:postcode": "80643", "addr:state": "CO", "addr:street_address": "90 S MAIN ST", "amenity": "post_box", "collection_times": "Mo-Fr 17:00; Sa 11:00", "indoor": "yes", "note": "ON 12/24 AND 12/31, THIS BOX MAY BE COLLECTED AS EARLY AS 12 NOON.", "nsi_id": "unitedstatespostalservice-a77078", "operator": "United States Postal Service", "operator:short": "USPS", "operator:type": "public", "operator:wikidata": "Q668687", "ref": "8064300001"}, "type": "Feature"}
{"geometry": {"coordinates": [-104.564418, 40.387739], "type": "Point"}, "id": "rP8V-g_qlbSASgv3gW6aq1HOiwM=", "properties": {"@source_uri": "https://tools.usps.com/UspsToolsRestServices/rest/POLocator/findLocations", "@spider": "usps_collection_boxes", "addr:city": "KERSEY", "addr:country": "US", "addr:postcode": "80644", "addr:state": "CO", "addr:street_address": "331 1ST ST", "amenity": "post_box", "collection_times": "Mo-Fr 16:30; Sa 12:00", "note": "ON 12/24 AND 12/31, THIS BOX MAY BE COLLECTED AS EARLY AS 12 NOON.", "nsi_id": "unitedstatespostalservice-a77078", "operator": "United States Postal Service", "operator:short": "USPS", "operator:type": "public", "operator:wikidata": "Q668687", "ref": "8064400000"}, "type": "Feature"}
{"geometry": {"coordinates": [-104.564418, 40.387739], "type": "Point"}, "id": "uQ6QY6DxjRVvtCxuKhrr3lsVtdA=", "properties": {"@source_uri": "https://tools.usps.com/UspsToolsRestServices/rest/POLocator/findLocations", "@spider": "usps_collection_boxes", "addr:city": "KERSEY", "addr:country": "US", "addr:postcode": "80644", "addr:state": "CO", "addr:street_address": "331 1ST ST", "amenity": "post_box", "collection_times": "Mo-Fr 16:30; Sa 12:00", "indoor": "yes", "note": "ON 12/24 AND 12/31, THIS BOX MAY BE COLLECTED AS EARLY AS 12 NOON.", "nsi_id": "unitedstatespostalservice-a77078", "operator": "United States Postal Service", "operator:short": "USPS", "operator:type": "public", "operator:wikidata": "Q668687", "ref": "8064400001"}, "type": "Feature"}
{"geometry": {"coordinates": [-104.699189, 40.355359], "type": "Point"}, "id": "fgEYyobbPeghN4SCTkcAT0YRg98=", "properties": {"@source_uri": "https://tools.usps.com/UspsToolsRestServices/rest/POLocator/findLocations", "@spider": "usps_collection_boxes", "addr:city": "LASALLE", "addr:country": "US", "addr:postcode": "80645", "addr:state": "CO", "addr:street_address": "524 N 2ND ST", "amenity": "post_box", "collection_times": "Mo-Fr 16:15; Sa 12:00", "note": "ON 12/24 AND 12/31, THIS BOX MAY BE COLLECTED AS EARLY AS 12 NOON.", "nsi_id": "unitedstatespostalservice-a77078", "operator": "United States Postal Service", "operator:short": "USPS", "operator:type": "public", "operator:wikidata": "Q668687", "ref": "8064500001"}, "type": "Feature"}
{"geometry": {"coordinates": [-104.699189, 40.355359], "type": "Point"}, "id": "kUoXrc1OFqMbldc3ee7TitkVd7E=", "properties": {"@source_uri": "https://tools.usps.com/UspsToolsRestServices/rest/POLocator/findLocations", "@spider": "usps_collection_boxes", "addr:city": "LASALLE", "addr:country": "US", "addr:postcode": "80645", "addr:state": "CO", "addr:street_address": "524 N 2ND ST", "amenity": "post_box", "collection_times": "Mo-Fr 16:30; Sa 12:00", "indoor": "yes", "note": "ON 12/24 AND 12/31, THIS BOX MAY BE COLLECTED AS EARLY AS 12 NOON.", "nsi_id": "unitedstatespostalservice-a77078", "operator": "United States Postal Service", "operator:short": "USPS", "operator:type": "public", "operator:wikidata": "Q668687", "ref": "8064500005"}, "type": "Feature"}
{"geometry": {"coordinates": [-104.699189, 40.355359], "type": "Point"}, "id": "VY8U48CQT2OJnbGZDaWL4TWb1hA=", "properties": {"@source_uri": "https://tools.usps.com/UspsToolsRestServices/rest/POLocator/findLocations", "@spider": "usps_collection_boxes", "addr:city": "LASALLE", "addr:country": "US", "addr:postcode": "80645", "addr:state": "CO", "addr:street_address": "524 N 2ND ST", "amenity": "post_box", "collection_times": "Mo-Fr 16:30; Sa 12:00", "indoor": "yes", "note": "ON 12/24 AND 12/31, THIS BOX MAY BE COLLECTED AS EARLY AS 12 NOON.", "nsi_id": "unitedstatespostalservice-a77078", "operator": "United States Postal Service", "operator:short": "USPS", "operator:type": "public", "operator:wikidata": "Q668687", "ref": "8064500006"}, "type": "Feature"}
{"geometry": {"coordinates": [-104.696785, 40.480517], "type": "Point"}, "id": "Jhya_0z7yZLnfRbhMiQmSXFASpU=", "properties": {"@source_uri": "https://tools.usps.com/UspsToolsRestServices/rest/POLocator/findLocations", "@spider": "usps_collection_boxes", "addr:city": "LUCERNE", "addr:country": "US", "addr:postcode": "80646", "addr:state": "CO", "addr:street_address": "32969 COUNTY ROAD 39", "amenity": "post_box", "collection_times": "Mo-Fr 11:45; Sa 10:45", "nsi_id": "unitedstatespostalservice-a77078", "operator": "United States Postal Service", "operator:short": "USPS", "operator:type": "public", "operator:wikidata": "Q668687", "ref": "8064600000"}, "type": "Feature"}
{"geometry": {"coordinates": [-104.697116, 40.480842], "type": "Point"}, "id": "RzfSvdGg25Ct14oALqFJu4MkCpI=", "properties": {"@source_uri": "https://tools.usps.com/UspsToolsRestServices/rest/POLocator/findLocations", "@spider": "usps_collection_boxes", "addr:city": "LUCERNE", "addr:country": "US", "addr:postcode": "80646", "addr:state": "CO", "addr:street_address": "32969 COUNTY ROAD 39", "amenity": "post_box", "collection_times": "Mo-Fr 11:45; Sa 10:45", "indoor": "yes", "nsi_id": "unitedstatespostalservice-a77078", "operator": "United States Postal Service", "operator:short": "USPS", "operator:type": "public", "operator:wikidata": "Q668687", "ref": "8064600001"}, "type": "Feature"}
{"geometry": {"coordinates": [-104.780407, 40.703561], "type": "Point"}, "id": "J6fwSp6VFD1-glnBNTgRt8FUe5E=", "properties": {"@source_uri": "https://tools.usps.com/UspsToolsRestServices/rest/POLocator/findLocations", "@spider": "usps_collection_boxes", "addr:city": "NUNN", "addr:country": "US", "addr:postcode": "80648", "addr:state": "CO", "addr:street_address": "397 LOGAN AVE", "amenity": "post_box", "collection_times": "Mo-Fr 15:45; Sa 14:45", "note": "ON 12/24 AND 12/31, THIS BOX MAY BE COLLECTED AS EARLY AS 12 NOON.", "nsi_id": "unitedstatespostalservice-a77078", "operator": "United States Postal Service", "operator:short": "USPS", "operator:type": "public", "operator:wikidata": "Q668687", "ref": "8064800000"}, "type": "Feature"}
{"geometry": {"coordinates": [-104.780407, 40.703561], "type": "Point"}, "id": "5UJJLOL9qVr3076y4wvQPs7yK5Q=", "properties": {"@source_uri": "https://tools.usps.com/UspsToolsRestServices/rest/POLocator/findLocations", "@spider": "usps_collection_boxes", "addr:city": "NUNN", "addr:country": "US", "addr:postcode": "80648", "addr:state": "CO", "addr:street_address": "397 LOGAN AVE", "amenity": "post_box", "collection_times": "Mo-Fr 15:45; Sa 14:45", "indoor": "yes", "note": "ON 12/24 AND 12/31, THIS BOX MAY BE COLLECTED AS EARLY AS 12 NOON.", "nsi_id": "unitedstatespostalservice-a77078", "operator": "United States Postal Service", "operator:short": "USPS", "operator:type": "public", "operator:wikidata": "Q668687", "ref": "8064800001"}, "type": "Feature"}
{"geometry": {"coordinates": [-104.117197, 40.33245], "type": "Point"}, "id": "MSk7Xny4137O2PodLHo349O_PAQ=", "properties": {"@source_uri": "https://tools.usps.com/UspsToolsRestServices/rest/POLocator/findLocations", "@spider": "usps_collection_boxes", "addr:city": "ORCHARD", "addr:country": "US", "addr:postcode": "80649", "addr:state": "CO", "addr:street_address": "22863 WASHINGTON AVE", "amenity": "post_box", "collection_times": "Mo-Fr 12:45; Sa 09:30", "note": "ON 12/24 AND 12/31, THIS BOX MAY BE COLLECTED AS EARLY AS 12 NOON.", "nsi_id": "unitedstatespostalservice-a77078", "operator": "United States Postal Service", "operator:short": "USPS", "operator:type": "public", "operator:wikidata": "Q668687", "ref": "8064900000"}, "type": "Feature"}
{"geometry": {"coordinates": [-104.117197, 40.33245], "type": "Point"}, "id": "9-gOwp8_flOcv2PxKOYu_EpO5Is=", "properties": {"@source_uri": "https://tools.usps.com/UspsToolsRestServices/rest/POLocator/findLocations", "@spider": "usps_collection_boxes", "addr:city": "ORCHARD", "addr:country": "US", "addr:postcode": "80649", "addr:state": "CO", "addr:street_address": "22863 WASHINGTON AVE", "amenity": "post_box", "collection_times": "Mo-Fr 12:45; Sa 10:45", "indoor": "yes", "note": "ON 12/24 AND 12/31, THIS BOX MAY BE COLLECTED AS EARLY AS 12 NOON.", "nsi_id": "unitedstatespostalservice-a77078", "operator": "United States Postal Service", "operator:short": "USPS", "operator:type": "public", "operator:wikidata": "Q668687", "ref": "8064900001"}, "type": "Feature"}
{"geometry": {"coordinates": [-104.755286, 40.635111], "type": "Point"}, "id": "B5efdqoH1yIS8sPFlD1ptvP5J2o=", "properties": {"@source_uri": "https://tools.usps.com/UspsToolsRestServices/rest/POLocator/findLocations", "@spider": "usps_collection_boxes", "addr:city": "PIERCE", "addr:country": "US", "addr:postcode": "80650", "addr:state": "CO", "addr:street_address": "500 2ND ST", "amenity": "post_box", "collection_times": "Mo-Fr 15:15; Sa 11:00", "note": "ON 12/24 AND 12/31, THIS BOX MAY BE COLLECTED AS EARLY AS 12 NOON.", "nsi_id": "unitedstatespostalservice-a77078", "operator": "United States Postal Service", "operator:short": "USPS", "operator:type": "public", "operator:wikidata": "Q668687", "ref": "8065000000"}, "type": "Feature"}
{"geometry": {"coordinates": [-104.755286, 40.635111], "type": "Point"}, "id": "BH1MDGJ3K1y9grlb8jEdxl1H0iU=", "properties": {"@source_uri": "https://tools.usps.com/UspsToolsRestServices/rest/POLocator/findLocations", "@spider": "usps_collection_boxes", "addr:city": "PIERCE", "addr:country": "US", "addr:postcode": "80650", "addr:state": "CO", "addr:street_address": "500 2ND ST", "amenity": "post_box", "collection_times": "Mo-Fr 15:15; Sa 11:00", "indoor": "yes", "note": "ON 12/24 AND 12/31, THIS BOX MAY BE COLLECTED AS EARLY AS 12 NOON.", "nsi_id": "unitedstatespostalservice-a77078", "operator": "United States Postal Service", "operator:short": "USPS", "operator:type": "public", "operator:wikidata": "Q668687", "ref": "8065000001"}, "type": "Feature"}
{"geometry": {"coordinates": [-104.823367, 40.214928], "type": "Point"}, "id": "KadOjBS7lxdqXsVCQsWNv7ngt7Q=", "properties": {"@source_uri": "https://tools.usps.com/UspsToolsRestServices/rest/POLocator/findLocations", "@spider": "usps_collection_boxes", "addr:city": "PLATTEVILLE", "addr:country": "US", "addr:postcode": "80651", "addr:state": "CO", "addr:street_address": "400 MARION ST", "amenity": "post_box", "collection_times": "Mo-Fr 16:15; Sa 10:45", "note": "ON 12/24 AND 12/31, THIS BOX MAY BE COLLECTED AS EARLY AS 12 NOON.", "nsi_id": "unitedstatespostalservice-a77078", "operator": "United States Postal Service", "operator:short": "USPS", "operator:type": "public", "operator:wikidata": "Q668687", "ref": "8065100000"}, "type": "Feature"}
{"geometry": {"coordinates": [-104.823367, 40.214928], "type": "Point"}, "id": "dZCMME60RKSLTIzb7bu3M1XufMw=", "properties": {"@source_uri": "https://tools.usps.com/UspsToolsRestServices/rest/POLocator/findLocations", "@spider": "usps_collection_boxes", "addr:city": "PLATTEVILLE", "addr:country": "US", "addr:postcode": "80651", "addr:state": "CO", "addr:street_address": "400 MARION ST", "amenity": "post_box", "collection_times": "Mo-Fr 16:45; Sa 11:15", "indoor": "yes", "note": "ON 12/24 AND 12/31, THIS BOX MAY BE COLLECTED AS EARLY AS 12 NOON.", "nsi_id": "unitedstatespostalservice-a77078", "operator": "United States Postal Service", "operator:short": "USPS", "operator:type": "public", "operator:wikidata": "Q668687", "ref": "8065100001"}, "type": "Feature"}
{"geometry": {"coordinates": [-104.823367, 40.214928], "type": "Point"}, "id": "uAm5Own1_rKNOsu23hUL_jl72x4=", "properties": {"@source_uri": "https://tools.usps.com/UspsToolsRestServices/rest/POLocator/findLocations", "@spider": "usps_collection_boxes", "addr:city": "PLATTEVILLE", "addr:country": "US", "addr:postcode": "80651", "addr:state": "CO", "addr:street_address": "400 MARION ST", "amenity": "post_box", "collection_times": "Mo-Fr 16:45; Sa 11:15", "indoor": "yes", "note": "ON 12/24 AND 12/31, THIS BOX MAY BE COLLECTED AS EARLY AS 12 NOON.", "nsi_id": "unitedstatespostalservice-a77078", "operator": "United States Postal Service", "operator:short": "USPS", "operator:type": "public", "operator:wikidata": "Q668687", "ref": "8065100002"}, "type": "Feature"}
{"geometry": {"coordinates": [-104.370431, 40.168258], "type": "Point"}, "id": "STaXRRhf7crqSK5wNLtQ8Q1bIhQ=", "properties": {"@source_uri": "https://tools.usps.com/UspsToolsRestServices/rest/POLocator/findLocations", "@spider": "usps_collection_boxes", "addr:city": "ROGGEN", "addr:country": "US", "addr:postcode": "80652", "addr:state": "CO", "addr:street_address": "413 FRONT ST", "amenity": "post_box", "collection_times": "Mo-Fr 12:15; Sa 11:15", "note": "ON 12/24 AND 12/31, THIS BOX MAY BE COLLECTED AS EARLY AS 12 NOON.", "nsi_id": "unitedstatespostalservice-a77078", "operator": "United States Postal Service", "operator:short": "USPS", "operator:type": "public", "operator:wikidata": "Q668687", "ref": "8065200000"}, "type": "Feature"}
{"geometry": {"coordinates": [-104.370431, 40.168258], "type": "Point"}, "id": "aQyx4lEJLWxwc5D0uWj4Bfs8QQ0=", "properties": {"@source_uri": "https://tools.usps.com/UspsToolsRestServices/rest/POLocator/findLocations", "@spider": "usps_collection_boxes", "addr:city": "ROGGEN", "addr:country": "US", "addr:postcode": "80652", "addr:state": "CO", "addr:street_address": "413 FRONT ST", "amenity": "post_box", "collection_times": "Mo-Fr 12:15; Sa 11:30", "indoor": "yes", "note": "ON 12/24 AND 12/31, THIS BOX MAY BE COLLECTED AS EARLY AS 12 NOON.", "nsi_id": "unitedstatespostalservice-a77078", "operator": "United States Postal Service", "operator:short": "USPS", "operator:type": "public", "operator:wikidata": "Q668687", "ref": "8065200001"}, "type": "Feature"}
{"geometry": {"coordinates": [-103.970557839, 40.346716704], "type": "Point"}, "id": "L-b7gGoMwbpRHBKk5J3PzrL1lK8=", "properties": {"@source_uri": "https://tools.usps.com/UspsToolsRestServices/rest/POLocator/findLocations", "@spider": "usps_collection_boxes", "addr:city": "WELDONA", "addr:country": "US", "addr:postcode": "80653", "addr:state": "CO", "addr:street_address": "209 RAILROAD AVE", "amenity": "post_box", "collection_times": "Mo-Fr 11:45; Sa 10:30", "nsi_id": "unitedstatespostalservice-a77078", "operator": "United States Postal Service", "operator:short": "USPS", "operator:type": "public", "operator:wikidata": "Q668687", "ref": "8065300002"}, "type": "Feature"}
{"geometry": {"coordinates": [-103.970558, 40.346716], "type": "Point"}, "id": "gpRpWpw14jq6spmGVv5eqvRO60M=", "properties": {"@source_uri": "https://tools.usps.com/UspsToolsRestServices/rest/POLocator/findLocations", "@spider": "usps_collection_boxes", "addr:city": "WELDONA", "addr:country": "US", "addr:postcode": "80653", "addr:state": "CO", "addr:street_address": "209 RAILROAD AVE", "amenity": "post_box", "collection_times": "Mo-Fr 11:45; Sa 10:30", "indoor": "yes", "nsi_id": "unitedstatespostalservice-a77078", "operator": "United States Postal Service", "operator:short": "USPS", "operator:type": "public", "operator:wikidata": "Q668687", "ref": "8065300003"}, "type": "Feature"}
{"geometry": {"coordinates": [-104.077382, 40.232807], "type": "Point"}, "id": "ZWRibftqsMCs3GQGpT5y6FbhXmY=", "properties": {"@source_uri": "https://tools.usps.com/UspsToolsRestServices/rest/POLocator/findLocations", "@spider": "usps_collection_boxes", "addr:city": "WIGGINS", "addr:country": "US", "addr:postcode": "80654", "addr:state": "CO", "addr:street_address": "505 CENTRAL AVE", "amenity": "post_box", "collection_times": "Mo-Fr 16:30; Sa 11:45", "note": "ON 12/24 AND 12/31, THIS BOX MAY BE COLLECTED AS EARLY AS 12 NOON.", "nsi_id": "unitedstatespostalservice-a77078", "operator": "United States Postal Service", "operator:short": "USPS", "operator:type": "public", "operator:wikidata": "Q668687", "ref": "8065400000"}, "type": "Feature"}
{"geometry": {"coordinates": [-104.0745429944, 40.2307151852], "type": "Point"}, "id": "wTcFgNKfR98LaxyXAw0sK4rFNcM=", "properties": {"@source_uri": "https://tools.usps.com/UspsToolsRestServices/rest/POLocator/findLocations", "@spider": "usps_collection_boxes", "addr:city": "WIGGINS", "addr:country": "US", "addr:postcode": "80654", "addr:state": "CO", "addr:street_address": "227 MAIN STREET", "amenity": "post_box", "collection_times": "Mo-Sa 10:00", "nsi_id": "unitedstatespostalservice-a77078", "operator": "United States Postal Service", "operator:short": "USPS", "operator:type": "public", "operator:wikidata": "Q668687", "ref": "8065400001"}, "type": "Feature"}
{"geometry": {"coordinates": [-104.0761909957, 40.0010315061], "type": "Point"}, "id": "vQxP-lFrQLXJcYO6G-MzpYfqVeI=", "properties": {"@source_uri": "https://tools.usps.com/UspsToolsRestServices/rest/POLocator/findLocations", "@spider": "usps_collection_boxes", "addr:city": "WIGGINS", "addr:country": "US", "addr:postcode": "80654", "addr:state": "CO", "addr:street_address": "4001 COUNTY ROAD A", "amenity": "post_box", "collection_times": "Mo-Fr 10:30; Sa 11:00", "nsi_id": "unitedstatespostalservice-a77078", "operator": "United States Postal Service", "operator:short": "USPS", "operator:type": "public", "operator:wikidata": "Q668687", "ref": "8065400002"}, "type": "Feature"}
{"geometry": {"coordinates": [-104.077382, 40.232807], "type": "Point"}, "id": "fOCDsGcfDKHYfZopXjBzprJU2Jo=", "properties": {"@source_uri": "https://tools.usps.com/UspsToolsRestServices/rest/POLocator/findLocations", "@spider": "usps_collection_boxes", "addr:city": "WIGGINS", "addr:country": "US", "addr:postcode": "80654", "addr:state": "CO", "addr:street_address": "505 CENTRAL AVE", "amenity": "post_box", "collection_times": "Mo-Fr 16:30; Sa 11:45", "indoor": "yes", "note": "ON 12/24 AND 12/31, THIS BOX MAY BE COLLECTED AS EARLY AS 12 NOON.", "nsi_id": "unitedstatespostalservice-a77078", "operator": "United States Postal Service", "operator:short": "USPS", "operator:type": "public", "operator:wikidata": "Q668687", "ref": "8065400007"}, "type": "Feature"}
{"geometry": {"coordinates": [-104.077382, 40.232807], "type": "Point"}, "id": "AUEv1msiFp15HrhC1ES2dD_erhY=", "properties": {"@source_uri": "https://tools.usps.com/UspsToolsRestServices/rest/POLocator/findLocations", "@spider": "usps_collection_boxes", "addr:city": "WIGGINS", "addr:country": "US", "addr:postcode": "80654", "addr:state": "CO", "addr:street_address": "505 CENTRAL AVE", "amenity": "post_box", "collection_times": "Mo-Fr 16:30; Sa 11:45", "indoor": "yes", "note": "ON 12/24 AND 12/31, THIS BOX MAY BE COLLECTED AS EARLY AS 12 NOON.", "nsi_id": "unitedstatespostalservice-a77078", "operator": "United States Postal Service", "operator:short": "USPS", "operator:type": "public", "operator:wikidata": "Q668687", "ref": "8065400008"}, "type": "Feature"}
{"geometry": {"coordinates": [-104.077382, 40.232807], "type": "Point"}, "id": "0iBAsvMtXPm5ZO0pqBDIiF9jr84=", "properties": {"@source_uri": "https://tools.usps.com/UspsToolsRestServices/rest/POLocator/findLocations", "@spider": "usps_collection_boxes", "addr:city": "WIGGINS", "addr:country": "US", "addr:postcode": "80654", "addr:state": "CO", "addr:street_address": "505 CENTRAL AVE", "amenity": "post_box", "collection_times": "Mo-Fr 16:30; Sa 11:45", "indoor": "yes", "note": "ON 12/24 AND 12/31, THIS BOX MAY BE COLLECTED AS EARLY AS 12 NOON.", "nsi_id": "unitedstatespostalservice-a77078", "operator": "United States Postal Service", "operator:short": "USPS", "operator:type": "public", "operator:wikidata": "Q668687", "ref": "8065400009"}, "type": "Feature"}
{"geometry": {"coordinates": [-104.077382, 40.232807], "type": "Point"}, "id": "Co7jKptSCzNSzsCmw5aQHoBhDiI=", "properties": {"@source_uri": "https://tools.usps.com/UspsToolsRestServices/rest/POLocator/findLocations", "@spider": "usps_collection_boxes", "addr:city": "WIGGINS", "addr:country": "US", "addr:postcode": "80654", "addr:state": "CO", "addr:street_address": "505 CENTRAL AVE", "amenity": "post_box", "collection_times": "Mo-Fr 16:30; Sa 11:45", "indoor": "yes", "note": "ON 12/24 AND 12/31, THIS BOX MAY BE COLLECTED AS EARLY AS 12 NOON.", "nsi_id": "unitedstatespostalservice-a77078", "operator": "United States Postal Service", "operator:short": "USPS", "operator:type": "public", "operator:wikidata": "Q668687", "ref": "8065400010"}, "type": "Feature"}
