{"geometry": {"coordinates": [-103.7997920084, 40.2501559957], "type": "Point"}, "id": "dyoa9lBpBDS-cyvT6E4FdZfabVk=", "properties": {"@source_uri": "https://tools.usps.com/UspsToolsRestServices/rest/POLocator/findLocations", "@spider": "usps_collection_boxes", "addr:city": "FORT MORGAN", "addr:country": "US", "addr:postcode": "80701", "addr:state": "CO", "addr:street_address": "300 STATE ST", "amenity": "post_box", "collection_times": "Mo-Sa 17:15", "note": "ON 12/24 AND 12/31, THIS BOX MAY BE COLLECTED AS EARLY AS 12 NOON.", "nsi_id": "unitedstatespostalservice-a77078", "operator": "United States Postal Service", "operator:short": "USPS", "operator:type": "public", "operator:wikidata": "Q668687", "ref": "8070100000"}, "type": "Feature"}
{"geometry": {"coordinates": [-103.801754, 40.251188], "type": "Point"}, "id": "D6Txjn3W_3AnnemFMI9snQCDS4U=", "properties": {"@source_uri": "https://tools.usps.com/UspsToolsRestServices/rest/POLocator/findLocations", "@spider": "usps_collection_boxes", "addr:city": "FORT MORGAN", "addr:country": "US", "addr:postcode": "80701", "addr:state": "CO", "addr:street_address": "100 W BEAVER AVE", "amenity": "post_box", "collection_times": "Mo-Fr 15:20", "note": "ON 12/24 AND 12/31, THIS BOX MAY BE COLLECTED AS EARLY AS 12 NOON.", "nsi_id": "unitedstatespostalservice-a77078", "operator": "United States Postal Service", "operator:short": "USPS", "operator:type": "public", "operator:wikidata": "Q668687", "ref": "8070100001"}, "type": "Feature"}
{"geometry": {"coordinates": [-103.802823, 40.249516], "type": "Point"}, "id": "X_ssWysi9T7D52nZt0jbVUjfcfI=", "properties": {"@source_uri": "https://tools.usps.com/UspsToolsRestServices/rest/POLocator/findLocations", "@spider": "usps_collection_boxes", "addr:city": "FORT MORGAN", "addr:country": "US", "addr:postcode": "80701", "addr:state": "CO", "addr:street_address": "231 ENSIGN ST", "amenity": "post_box", "collection_times": "Mo-Fr 15:20", "note": "ON 12/24 AND 12/31, THIS BOX MAY BE COLLECTED AS EARLY AS 12 NOON.", "nsi_id": "unitedstatespostalservice-a77078", "operator": "United States Postal Service", "operator:short": "USPS", "operator:type": "public", "operator:wikidata": "Q668687", "ref": "8070100004"}, "type": "Feature"}
{"geometry": {"coordinates": [-103.78999, 40.252061], "type": "Point"}, "id": "RvymW0j_nfqzut4Vn6UpQDI1jiI=", "properties": {"@source_uri": "https://tools.usps.com/UspsToolsRestServices/rest/POLocator/findLocations", "@spider": "usps_collection_boxes", "addr:city": "FORT MORGAN", "addr:country": "US", "addr:postcode": "80701", "addr:state": "CO", "addr:street_address": "400 WARNER ST", "amenity": "post_box", "collection_times": "Mo-Fr 15:20", "note": "ON 12/24 AND 12/31, THIS BOX MAY BE COLLECTED AS EARLY AS 12 NOON.", "nsi_id": "unitedstatespostalservice-a77078", "operator": "United States Postal Service", "operator:short": "USPS", "operator:type": "public", "operator:wikidata": "Q668687", "ref": "8070100005"}, "type": "Feature"}
{"geometry": {"coordinates": [-103.796237, 40.241419], "type": "Point"}, "id": "FK1BnhAqzmHgXF9gXqpVWfli42k=", "properties": {"@source_uri": "https://tools.usps.com/UspsToolsRestServices/rest/POLocator/findLocations", "@spider": "usps_collection_boxes", "addr:city": "FORT MORGAN", "addr:country": "US", "addr:postcode": "80701", "addr:state": "CO", "addr:street_address": "414 SOUTHRIDGE RD", "amenity": "post_box", "collection_times": "Mo-Sa 10:00", "nsi_id": "unitedstatespostalservice-a77078", "operator": "United States Postal Service", "operator:short": "USPS", "operator:type": "public", "operator:wikidata": "Q668687", "ref": "8070100008"}, "type": "Feature"}
{"geometry": {"coordinates": [-103.787814, 40.259815], "type": "Point"}, "id": "OhBpwCSafMlxK0eXr4KL0VZY5GE=", "properties": {"@source_uri": "https://tools.usps.com/UspsToolsRestServices/rest/POLocator/findLocations", "@spider": "usps_collection_boxes", "addr:city": "FORT MORGAN", "addr:country": "US", "addr:postcode": "80701", "addr:state": "CO", "addr:street_address": "1025 LINDA ST", "amenity": "post_box", "collection_times": "Mo-Sa 10:30", "nsi_id": "unitedstatespostalservice-a77078", "operator": "United States Postal Service", "operator:short": "USPS", "operator:type": "public", "operator:wikidata": "Q668687", "ref": "8070100012"}, "type": "Feature"}
{"geometry": {"coordinates": [-103.7872179999, 40.260295645], "type": "Point"}, "id": "7wC6Y14BlcqFah736UPjH7EfuJw=", "properties": {"@source_uri": "https://tools.usps.com/UspsToolsRestServices/rest/POLocator/findLocations", "@spider": "usps_collection_boxes", "addr:city": "FORT MORGAN", "addr:country": "US", "addr:postcode": "80701", "addr:state": "CO", "addr:street_address": "1100 LINDA ST", "amenity": "post_box", "collection_times": "Mo-Sa 10:30", "nsi_id": "unitedstatespostalservice-a77078", "operator": "United States Postal Service", "operator:short": "USPS", "operator:type": "public", "operator:wikidata": "Q668687", "ref": "8070100013"}, "type": "Feature"}
{"geometry": {"coordinates": [-103.802428, 40.243942], "type": "Point"}, "id": "1AIQV97eY8EucsjXEhl6gFbJKvE=", "properties": {"@source_uri": "https://tools.usps.com/UspsToolsRestServices/rest/POLocator/findLocations", "@spider": "usps_collection_boxes", "addr:city": "FORT MORGAN", "addr:country": "US", "addr:postcode": "80701", "addr:state": "CO", "addr:street_address": "304 LANDMARK DR", "amenity": "post_box", "collection_times": "Mo-Sa 10:00", "nsi_id": "unitedstatespostalservice-a77078", "operator": "United States Postal Service", "operator:short": "USPS", "operator:type": "public", "operator:wikidata": "Q668687", "ref": "8070100016"}, "type": "Feature"}
{"geometry": {"coordinates": [-103.7997920084, 40.2501559957], "type": "Point"}, "id": "I47SaxOylHWg1gShJCCODjrKdb0=", "properties": {"@source_uri": "https://tools.usps.com/UspsToolsRestServices/rest/POLocator/findLocations", "@spider": "usps_collection_boxes", "addr:city": "FORT MORGAN", "addr:country": "US", "addr:postcode": "80701", "addr:state": "CO", "addr:street_address": "300 STATE ST", "amenity": "post_box", "collection_times": "Mo-Sa 17:15", "note": "ON 12/24 AND 12/31, THIS BOX MAY BE COLLECTED AS EARLY AS 12 NOON.", "nsi_id": "unitedstatespostalservice-a77078", "operator": "United States Postal Service", "operator:short": "USPS", "operator:type": "public", "operator:wikidata": "Q668687", "ref": "8070100018"}, "type": "Feature"}
{"geometry": {"coordinates": [-103.7997920084, 40.2501559957], "type": "Point"}, "id": "0rt3xDy1tdwmxzrCmjk0UATqa6Y=", "properties": {"@source_uri": "https://tools.usps.com/UspsToolsRestServices/rest/POLocator/findLocations", "@spider": "usps_collection_boxes", "addr:city": "FORT MORGAN", "addr:country": "US", "addr:postcode": "80701", "addr:state": "CO", "addr:street_address": "300 STATE ST", "amenity": "post_box", "collection_times": "Mo-Sa 17:15", "note": "ON 12/24 AND 12/31, THIS BOX MAY BE COLLECTED AS EARLY AS 12 NOON.", "nsi_id": "unitedstatespostalservice-a77078", "operator": "United States Postal Service", "operator:short": "USPS", "operator:type": "public", "operator:wikidata": "Q668687", "ref": "8070100019"}, "type": "Feature"}
{"geometry": {"coordinates": [-103.799659993, 40.250160019], "type": "Point"}, "id": "9sAarHGTx9zUOIDmTxqvAU-FnqM=", "properties": {"@source_uri": "https://tools.usps.com/UspsToolsRestServices/rest/POLocator/findLocations", "@spider": "usps_collection_boxes", "addr:city": "FORT MORGAN", "addr:country": "US", "addr:postcode": "80701", "addr:state": "CO", "addr:street_address": "300 STATE ST", "amenity": "post_box", "collection_times": "Mo-Sa 17:30", "indoor": "yes", "note": "ON 12/24 AND 12/31, THIS BOX MAY BE COLLECTED AS EARLY AS 12 NOON.", "nsi_id": "unitedstatespostalservice-a77078", "operator": "United States Postal Service", "operator:short": "USPS", "operator:type": "public", "operator:wikidata": "Q668687", "ref": "8070100020"}, "type": "Feature"}
{"geometry": {"coordinates": [-103.799659993, 40.250160019], "type": "Point"}, "id": "WQWTqTmkZpGnYkBq0tj5KLavwjA=", "properties": {"@source_uri": "https://tools.usps.com/UspsToolsRestServices/rest/POLocator/findLocations", "@spider": "usps_collection_boxes", "addr:city": "FORT MORGAN", "addr:country": "US", "addr:postcode": "80701", "addr:state": "CO", "addr:street_address": "300 STATE ST", "amenity": "post_box", "collection_times": "Mo-Sa 17:30", "indoor": "yes", "note": "ON 12/24 AND 12/31, THIS BOX MAY BE COLLECTED AS EARLY AS 12 NOON.", "nsi_id": "unitedstatespostalservice-a77078", "operator": "United States Postal Service", "operator:short": "USPS", "operator:type": "public", "operator:wikidata": "Q668687", "ref": "8070100021"}, "type": "Feature"}
{"geometry": {"coordinates": [-103.799659993, 40.250160019], "type": "Point"}, "id": "9B3xTDvi79xoQOYBXQo9jXGyY7k=", "properties": {"@source_uri": "https://tools.usps.com/UspsToolsRestServices/rest/POLocator/findLocations", "@spider": "usps_collection_boxes", "addr:city": "FORT MORGAN", "addr:country": "US", "addr:postcode": "80701", "addr:state": "CO", "addr:street_address": "300 STATE ST", "amenity": "post_box", "collection_times": "Mo-Sa 17:30", "indoor": "yes", "note": "ON 12/24 AND 12/31, THIS BOX MAY BE COLLECTED AS EARLY AS 12 NOON.", "nsi_id": "unitedstatespostalservice-a77078", "operator": "United States Postal Service", "operator:short": "USPS", "operator:type": "public", "operator:wikidata": "Q668687", "ref": "8070100022"}, "type": "Feature"}
{"geometry": {"coordinates": [-103.802731, 40.249508], "type": "Point"}, "id": "q1PnMXr0oX6CXtlnORZQFDpcu_c=", "properties": {"@source_uri": "https://tools.usps.com/UspsToolsRestServices/rest/POLocator/findLocations", "@spider": "usps_collection_boxes", "addr:city": "FORT MORGAN", "addr:country": "US", "addr:postcode": "80701", "addr:state": "CO", "addr:street_address": "231 ENSIGN ST", "amenity": "post_box", "collection_times": "Mo-Fr 15:20", "note": "ON 12/24 AND 12/31, THIS BOX MAY BE COLLECTED AS EARLY AS 12 NOON.", "nsi_id": "unitedstatespostalservice-a77078", "operator": "United States Postal Service", "operator:short": "USPS", "operator:type": "public", "operator:wikidata": "Q668687", "ref": "8070100023"}, "type": "Feature"}
{"geometry": {"coordinates": [-103.832047212, 40.27109005], "type": "Point"}, "id": "sR0vHGiNku7_YvEq2kyTdUlIpW8=", "properties": {"@source_uri": "https://tools.usps.com/UspsToolsRestServices/rest/POLocator/findLocations", "@spider": "usps_collection_boxes", "addr:city": "FORT MORGAN", "addr:country": "US", "addr:postcode": "80701", "addr:state": "CO", "addr:street_address": "109 MAINE STREET", "amenity": "post_box", "collection_times": "Mo-Sa 12:00", "nsi_id": "unitedstatespostalservice-a77078", "operator": "United States Postal Service", "operator:short": "USPS", "operator:type": "public", "operator:wikidata": "Q668687", "ref": "8070100027"}, "type": "Feature"}
{"geometry": {"coordinates": [-103.214162, 40.159866], "type": "Point"}, "id": "EYvVUtEaABqccLCtkCpPN9u186g=", "properties": {"@source_uri": "https://tools.usps.com/UspsToolsRestServices/rest/POLocator/findLocations", "@spider": "usps_collection_boxes", "addr:city": "AKRON", "addr:country": "US", "addr:postcode": "80720", "addr:state": "CO", "addr:street_address": "182 ADAMS AVE", "amenity": "post_box", "collection_times": "Mo-Fr 16:45; Sa 12:15", "note": "ON 12/24 AND 12/31, THIS BOX MAY BE COLLECTED AS EARLY AS 12 NOON.", "nsi_id": "unitedstatespostalservice-a77078", "operator": "United States Postal Service", "operator:short": "USPS", "operator:type": "public", "operator:wikidata": "Q668687", "ref": "8072000000"}, "type": "Feature"}
{"geometry": {"coordinates": [-103.214162, 40.159866], "type": "Point"}, "id": "odyFtzAtD5PcvyhWpvw5yaS_UzE=", "properties": {"@source_uri": "https://tools.usps.com/UspsToolsRestServices/rest/POLocator/findLocations", "@spider": "usps_collection_boxes", "addr:city": "AKRON", "addr:country": "US", "addr:postcode": "80720", "addr:state": "CO", "addr:street_address": "182 ADAMS AVE", "amenity": "post_box", "collection_times": "Mo-Fr 16:45; Sa 12:30", "indoor": "yes", "note": "ON 12/24 AND 12/31, THIS BOX MAY BE COLLECTED AS EARLY AS 12 NOON.", "nsi_id": "unitedstatespostalservice-a77078", "operator": "United States Postal Service", "operator:short": "USPS", "operator:type": "public", "operator:wikidata": "Q668687", "ref": "8072000002"}, "type": "Feature"}
{"geometry": {"coordinates": [-103.214162, 40.159866], "type": "Point"}, "id": "XQ0IZ6uae_kbete_UaqxY1aa564=", "properties": {"@source_uri": "https://tools.usps.com/UspsToolsRestServices/rest/POLocator/findLocations", "@spider": "usps_collection_boxes", "addr:city": "AKRON", "addr:country": "US", "addr:postcode": "80720", "addr:state": "CO", "addr:street_address": "182 ADAMS AVE", "amenity": "post_box", "collection_times": "Mo-Fr 16:45; Sa 12:30", "note": "ON 12/24 AND 12/31, THIS BOX MAY BE COLLECTED AS EARLY AS 12 NOON.", "nsi_id": "unitedstatespostalservice-a77078", "operator": "United States Postal Service", "operator:short": "USPS", "operator:type": "public", "operator:wikidata": "Q668687", "ref": "8072000003"}, "type": "Feature"}
{"geometry": {"coordinates": [-102.166079, 40.681874], "type": "Point"}, "id": "qNlTDkuVTuwr06m32RgI4g8ogjc=", "properties": {"@source_uri": "https://tools.usps.com/UspsToolsRestServices/rest/POLocator/findLocations", "@spider": "usps_collection_boxes", "addr:city": "AMHERST", "addr:country": "US", "addr:postcode": "80721", "addr:state": "CO", "addr:street_address": "520 MAIN AVE", "amenity": "post_box", "collection_times": "Mo-Fr 14:45; Sa 10:00", "note": "ON 12/24 AND 12/31, THIS BOX MAY BE COLLECTED AS EARLY AS 12 NOON.", "nsi_id": "unitedstatespostalservice-a77078", "operator": "United States Postal Service", "operator:short": "USPS", "operator:type": "public", "operator:wikidata": "Q668687", "ref": "8072100000"}, "type": "Feature"}
{"geometry": {"coordinates": [-102.166079, 40.681874], "type": "Point"}, "id": "fk9VYpCfPCts80AEitwGoxLYeyI=", "properties": {"@source_uri": "https://tools.usps.com/UspsToolsRestServices/rest/POLocator/findLocations", "@spider": "usps_collection_boxes", "addr:city": "AMHERST", "addr:country": "US", "addr:postcode": "80721", "addr:state": "CO", "addr:street_address": "520 MAIN AVE", "amenity": "post_box", "collection_times": "Mo-Fr 12:15; Sa 10:00", "indoor": "yes", "note": "ON 12/24 AND 12/31, THIS BOX MAY BE COLLECTED AS EARLY AS 12 NOON.", "nsi_id": "unitedstatespostalservice-a77078", "operator": "United States Postal Service", "operator:short": "USPS", "operator:type": "public", "operator:wikidata": "Q668687", "ref": "8072100001"}, "type": "Feature"}
{"geometry": {"coordinates": [-103.270011, 40.544297], "type": "Point"}, "id": "0j0DuZxDj4HRnQtQvMw0926Bt0o=", "properties": {"@source_uri": "https://tools.usps.com/UspsToolsRestServices/rest/POLocator/findLocations", "@spider": "usps_collection_boxes", "addr:city": "ATWOOD", "addr:country": "US", "addr:postcode": "80722", "addr:state": "CO", "addr:street_address": "16255 FRONT AVE", "amenity": "post_box", "collection_times": "Mo-Fr 11:30; Sa 10:00", "indoor": "yes", "nsi_id": "unitedstatespostalservice-a77078", "operator": "United States Postal Service", "operator:short": "USPS", "operator:type": "public", "operator:wikidata": "Q668687", "ref": "8072200000"}, "type": "Feature"}
{"geometry": {"coordinates": [-103.270011, 40.544297], "type": "Point"}, "id": "01BRgPr9g1h6lIO-XCwJS1CeneU=", "properties": {"@source_uri": "https://tools.usps.com/UspsToolsRestServices/rest/POLocator/findLocations", "@spider": "usps_collection_boxes", "addr:city": "ATWOOD", "addr:country": "US", "addr:postcode": "80722", "addr:state": "CO", "addr:street_address": "16255 FRONT AVE", "amenity": "post_box", "collection_times": "Mo-Fr 11:30; Sa 10:00", "indoor": "yes", "nsi_id": "unitedstatespostalservice-a77078", "operator": "United States Postal Service", "operator:short": "USPS", "operator:type": "public", "operator:wikidata": "Q668687", "ref": "8072200001"}, "type": "Feature"}
{"geometry": {"coordinates": [-103.270011, 40.544297], "type": "Point"}, "id": "n0-xQAgpaJEL5uNSMrPLKseQ7k8=", "properties": {"@source_uri": "https://tools.usps.com/UspsToolsRestServices/rest/POLocator/findLocations", "@spider": "usps_collection_boxes", "addr:city": "ATWOOD", "addr:country": "US", "addr:postcode": "80722", "addr:state": "CO", "addr:street_address": "16255 FRONT AVE", "amenity": "post_box", "collection_times": "Mo-Fr 16:00; Sa 10:00", "note": "ON 12/24 AND 12/31, THIS BOX MAY BE COLLECTED AS EARLY AS 12 NOON.", "nsi_id": "unitedstatespostalservice-a77078", "operator": "United States Postal Service", "operator:short": "USPS", "operator:type": "public", "operator:wikidata": "Q668687", "ref": "8072200002"}, "type": "Feature"}
{"geometry": {"coordinates": [-103.625455966, 40.2549349797], "type": "Point"}, "id": "WgyY7C8dy1K76caPD6ndGwM31G4=", "properties": {"@source_uri": "https://tools.usps.com/UspsToolsRestServices/rest/POLocator/findLocations", "@spider": "usps_collection_boxes", "addr:city": "BRUSH", "addr:country": "US", "addr:postcode": "80723", "addr:state": "CO", "addr:street_address": "115 CARSON ST", "amenity": "post_box", "collection_times": "Mo-Fr 16:40; Sa 15:00", "note": "ON 12/24 AND 12/31, THIS BOX MAY BE COLLECTED AS EARLY AS 12 NOON.", "nsi_id": "unitedstatespostalservice-a77078", "operator": "United States Postal Service", "operator:short": "USPS", "operator:type": "public", "operator:wikidata": "Q668687", "ref": "8072300001"}, "type": "Feature"}
{"geometry": {"coordinates": [-103.625865, 40.25484], "type": "Point"}, "id": "aLs3EiwcA0ws1N0a7E4qQbTpX3c=", "properties": {"@source_uri": "https://tools.usps.com/UspsToolsRestServices/rest/POLocator/findLocations", "@spider": "usps_collection_boxes", "addr:city": "BRUSH", "addr:country": "US", "addr:postcode": "80723", "addr:state": "CO", "addr:street_address": "115 CARSON ST", "amenity": "post_box", "collection_times": "Mo-Fr 16:40; Sa 15:00", "note": "ON 12/24 AND 12/31, THIS BOX MAY BE COLLECTED AS EARLY AS 12 NOON.", "nsi_id": "unitedstatespostalservice-a77078", "operator": "United States Postal Service", "operator:short": "USPS", "operator:type": "public", "operator:wikidata": "Q668687", "ref": "8072300002"}, "type": "Feature"}
{"geometry": {"coordinates": [-103.631882, 40.25985], "type": "Point"}, "id": "gPvGQCT1ekZveRn8dTsXfjPxANE=", "properties": {"@source_uri": "https://tools.usps.com/UspsToolsRestServices/rest/POLocator/findLocations", "@spider": "usps_collection_boxes", "addr:city": "BRUSH", "addr:country": "US", "addr:postcode": "80723", "addr:state": "CO", "addr:street_address": "620 RAY ST", "amenity": "post_box", "collection_times": "Mo-Sa 10:00", "nsi_id": "unitedstatespostalservice-a77078", "operator": "United States Postal Service", "operator:short": "USPS", "operator:type": "public", "operator:wikidata": "Q668687", "ref": "8072300003"}, "type": "Feature"}
{"geometry": {"coordinates": [-103.631883, 40.259516], "type": "Point"}, "id": "5LfPkD9F0M2UoSdOU5Vz6XGZFG4=", "properties": {"@source_uri": "https://tools.usps.com/UspsToolsRestServices/rest/POLocator/findLocations", "@spider": "usps_collection_boxes", "addr:city": "BRUSH", "addr:country": "US", "addr:postcode": "80723", "addr:state": "CO", "addr:street_address": "604 RAY ST", "amenity": "post_box", "collection_times": "Mo-Sa 10:00", "nsi_id": "unitedstatespostalservice-a77078", "operator": "United States Postal Service", "operator:short": "USPS", "operator:type": "public", "operator:wikidata": "Q668687", "ref": "8072300004"}, "type": "Feature"}
{"geometry": {"coordinates": [-103.621694025, 40.271435581], "type": "Point"}, "id": "Y1A4dn3oS3JP_GJiWlO0DAsIIig=", "properties": {"@source_uri": "https://tools.usps.com/UspsToolsRestServices/rest/POLocator/findLocations", "@spider": "usps_collection_boxes", "addr:city": "BRUSH", "addr:country": "US", "addr:postcode": "80723", "addr:state": "CO", "addr:street_address": "1155 N COLORADO AVE", "amenity": "post_box", "collection_times": "Mo-Sa 14:00", "note": "ON 12/24 AND 12/31, THIS BOX MAY BE COLLECTED AS EARLY AS 12 NOON.", "nsi_id": "unitedstatespostalservice-a77078", "operator": "United States Postal Service", "operator:short": "USPS", "operator:type": "public", "operator:wikidata": "Q668687", "ref": "8072300005"}, "type": "Feature"}
{"geometry": {"coordinates": [-103.623027, 40.25562], "type": "Point"}, "id": "6XYyMgCUZS5CyH_SDEqh282Msts=", "properties": {"@source_uri": "https://tools.usps.com/UspsToolsRestServices/rest/POLocator/findLocations", "@spider": "usps_collection_boxes", "addr:city": "BRUSH", "addr:country": "US", "addr:postcode": "80723", "addr:state": "CO", "addr:street_address": "201 CLAYTON ST", "amenity": "post_box", "collection_times": "Mo-Fr 15:20; Sa 13:00", "note": "ON 12/24 AND 12/31, THIS BOX MAY BE COLLECTED AS EARLY AS 12 NOON.", "nsi_id": "unitedstatespostalservice-a77078", "operator": "United States Postal Service", "operator:short": "USPS", "operator:type": "public", "operator:wikidata": "Q668687", "ref": "8072300006"}, "type": "Feature"}
{"geometry": {"coordinates": [-103.635593, 40.254236], "type": "Point"}, "id": "eSfVlg2-2sZc4rUBHAPCrAyVf5M=", "properties": {"@source_uri": "https://tools.usps.com/UspsToolsRestServices/rest/POLocator/findLocations", "@spider": "usps_collection_boxes", "addr:city": "BRUSH", "addr:country": "US", "addr:postcode": "80723", "addr:state": "CO", "addr:street_address": "1302 EDISON ST", "amenity": "post_box", "collection_times": "Mo-Sa 10:00", "nsi_id": "unitedstatespostalservice-a77078", "operator": "United States Postal Service", "operator:short": "USPS", "operator:type": "public", "operator:wikidata": "Q668687", "ref": "8072300007"}, "type": "Feature"}
{"geometry": {"coordinates": [-103.625865, 40.25484], "type": "Point"}, "id": "xgX3b7MCe1Dlf7bL-7bYsEYZa-A=", "properties": {"@source_uri": "https://tools.usps.com/UspsToolsRestServices/rest/POLocator/findLocations", "@spider": "usps_collection_boxes", "addr:city": "BRUSH", "addr:country": "US", "addr:postcode": "80723", "addr:state": "CO", "addr:street_address": "115 CARSON ST", "amenity": "post_box", "collection_times": "Mo-Fr 16:45; Sa 12:00", "indoor": "yes", "note": "ON 12/24 AND 12/31, THIS BOX MAY BE COLLECTED AS EARLY AS 12 NOON.", "nsi_id": "unitedstatespostalservice-a77078", "operator": "United States Postal Service", "operator:short": "USPS", "operator:type": "public", "operator:wikidata": "Q668687", "ref": "8072300008"}, "type": "Feature"}
{"geometry": {"coordinates": [-103.625865, 40.25484], "type": "Point"}, "id": "EV2xVR8CLGnlV_2UG01Uh68adTo=", "properties": {"@source_uri": "https://tools.usps.com/UspsToolsRestServices/rest/POLocator/findLocations", "@spider": "usps_collection_boxes", "addr:city": "BRUSH", "addr:country": "US", "addr:postcode": "80723", "addr:state": "CO", "addr:street_address": "115 CARSON ST", "amenity": "post_box", "collection_times": "Mo-Fr 16:45; Sa 12:00", "indoor": "yes", "note": "ON 12/24 AND 12/31, THIS BOX MAY BE COLLECTED AS EARLY AS 12 NOON.", "nsi_id": "unitedstatespostalservice-a77078", "operator": "United States Postal Service", "operator:short": "USPS", "operator:type": "public", "operator:wikidata": "Q668687", "ref": "8072300009"}, "type": "Feature"}
{"geometry": {"coordinates": [-102.801132, 40.857799], "type": "Point"}, "id": "-xSTYTeB8NitZNsF6mQaDg5nSeI=", "properties": {"@source_uri": "https://tools.usps.com/UspsToolsRestServices/rest/POLocator/findLocations", "@spider": "usps_collection_boxes", "addr:city": "CROOK", "addr:country": "US", "addr:postcode": "80726", "addr:state": "CO", "addr:street_address": "323 2ND AVE", "amenity": "post_box", "collection_times": "Mo-Fr 11:45; Sa 10:15", "indoor": "yes", "nsi_id": "unitedstatespostalservice-a77078", "operator": "United States Postal Service", "operator:short": "USPS", "operator:type": "public", "operator:wikidata": "Q668687", "ref": "8072600000"}, "type": "Feature"}
{"geometry": {"coordinates": [-102.801132, 40.857799], "type": "Point"}, "id": "0dDEG0BvHYuwltPDtfDHSz2Rm7o=", "properties": {"@source_uri": "https://tools.usps.com/UspsToolsRestServices/rest/POLocator/findLocations", "@spider": "usps_collection_boxes", "addr:city": "CROOK", "addr:country": "US", "addr:postcode": "80726", "addr:state": "CO", "addr:street_address": "323 2ND AVE", "amenity": "post_box", "collection_times": "Mo-Fr 15:55; Sa 10:15", "note": "ON 12/24 AND 12/31, THIS BOX MAY BE COLLECTED AS EARLY AS 12 NOON.", "nsi_id": "unitedstatespostalservice-a77078", "operator": "United States Postal Service", "operator:short": "USPS", "operator:type": "public", "operator:wikidata": "Q668687", "ref": "8072600001"}, "type": "Feature"}
{"geometry": {"coordinates": [-102.489324, 40.112558], "type": "Point"}, "id": "70ICkHNNZYlQOZdkdOMU7vFIxP8=", "properties": {"@source_uri": "https://tools.usps.com/UspsToolsRestServices/rest/POLocator/findLocations", "@spider": "usps_collection_boxes", "addr:city": "ECKLEY", "addr:country": "US", "addr:postcode": "80727", "addr:state": "CO", "addr:street_address": "115 N MAIN ST", "amenity": "post_box", "collection_times": "Mo-Fr 11:45; Sa 10:15", "nsi_id": "unitedstatespostalservice-a77078", "operator": "United States Postal Service", "operator:short": "USPS", "operator:type": "public", "operator:wikidata": "Q668687", "ref": "8072700000"}, "type": "Feature"}
{"geometry": {"coordinates": [-102.489324, 40.112558], "type": "Point"}, "id": "N5HKUKofi6aAgI0KsYDkvUBAja0=", "properties": {"@source_uri": "https://tools.usps.com/UspsToolsRestServices/rest/POLocator/findLocations", "@spider": "usps_collection_boxes", "addr:city": "ECKLEY", "addr:country": "US", "addr:postcode": "80727", "addr:state": "CO", "addr:street_address": "115 N MAIN ST", "amenity": "post_box", "collection_times": "Mo-Fr 11:45; Sa 10:15", "indoor": "yes", "nsi_id": "unitedstatespostalservice-a77078", "operator": "United States Postal Service", "operator:short": "USPS", "operator:type": "public", "operator:wikidata": "Q668687", "ref": "8072700001"}, "type": "Feature"}
{"geometry": {"coordinates": [-102.839623, 40.68162], "type": "Point"}, "id": "41xDAppZNal3WXEsZsz-KJz3Qu0=", "properties": {"@source_uri": "https://tools.usps.com/UspsToolsRestServices/rest/POLocator/findLocations", "@spider": "usps_collection_boxes", "addr:city": "FLEMING", "addr:country": "US", "addr:postcode": "80728", "addr:state": "CO", "addr:street_address": "203 N LOGAN AVE", "amenity": "post_box", "collection_times": "Mo-Fr 15:00; Sa 09:45", "indoor": "yes", "note": "ON 12/24 AND 12/31, THIS BOX MAY BE COLLECTED AS EARLY AS 12 NOON.", "nsi_id": "unitedstatespostalservice-a77078", "operator": "United States Postal Service", "operator:short": "USPS", "operator:type": "public", "operator:wikidata": "Q668687", "ref": "8072800000"}, "type": "Feature"}
{"geometry": {"coordinates": [-102.839623, 40.68162], "type": "Point"}, "id": "gmzHvIkeD3Q0ISJ_KdMEeYThS2Y=", "properties": {"@source_uri": "https://tools.usps.com/UspsToolsRestServices/rest/POLocator/findLocations", "@spider": "usps_collection_boxes", "addr:city": "FLEMING", "addr:country": "US", "addr:postcode": "80728", "addr:state": "CO", "addr:street_address": "203 N LOGAN AVE", "amenity": "post_box", "collection_times": "Mo-Fr 15:00; Sa 09:45", "note": "ON 12/24 AND 12/31, THIS BOX MAY BE COLLECTED AS EARLY AS 12 NOON.", "nsi_id": "unitedstatespostalservice-a77078", "operator": "United States Postal Service", "operator:short": "USPS", "operator:type": "public", "operator:wikidata": "Q668687", "ref": "8072800001"}, "type": "Feature"}
{"geometry": {"coordinates": [-104.226776, 40.867576], "type": "Point"}, "id": "uyl73-Vh8Pre444QVrJktOOkJrc=", "properties": {"@source_uri": "https://tools.usps.com/UspsToolsRestServices/rest/POLocator/findLocations", "@spider": "usps_collection_boxes", "addr:city": "GROVER", "addr:country": "US", "addr:postcode": "80729", "addr:state": "CO", "addr:street_address": "303 CHATOGA ST", "amenity": "post_box", "collection_times": "Mo-Fr 11:45; Sa 10:00", "nsi_id": "unitedstatespostalservice-a77078", "operator": "United States Postal Service", "operator:short": "USPS", "operator:type": "public", "operator:wikidata": "Q668687", "ref": "8072900000"}, "type": "Feature"}
{"geometry": {"coordinates": [-104.226776, 40.867576], "type": "Point"}, "id": "Dwe5OlIOo4ErBahwdTnbbPzlX50=", "properties": {"@source_uri": "https://tools.usps.com/UspsToolsRestServices/rest/POLocator/findLocations", "@spider": "usps_collection_boxes", "addr:city": "GROVER", "addr:country": "US", "addr:postcode": "80729", "addr:state": "CO", "addr:street_address": "303 CHATOGA ST", "amenity": "post_box", "collection_times": "Mo-Fr 11:45; Sa 10:00", "indoor": "yes", "nsi_id": "unitedstatespostalservice-a77078", "operator": "United States Postal Service", "operator:short": "USPS", "operator:type": "public", "operator:wikidata": "Q668687", "ref": "8072900001"}, "type": "Feature"}
{"geometry": {"coordinates": [-102.628557, 40.64085], "type": "Point"}, "id": "5r1WKGoMUUajLZDrFIidE_dPsVg=", "properties": {"@source_uri": "https://tools.usps.com/UspsToolsRestServices/rest/POLocator/findLocations", "@spider": "usps_collection_boxes", "addr:city": "HAXTUN", "addr:country": "US", "addr:postcode": "80731", "addr:state": "CO", "addr:street_address": "225 S COLORADO AVE", "amenity": "post_box", "collection_times": "Mo-Fr 15:45; Sa 11:00", "note": "ON 12/24 AND 12/31, THIS BOX MAY BE COLLECTED AS EARLY AS 12 NOON.", "nsi_id": "unitedstatespostalservice-a77078", "operator": "United States Postal Service", "operator:short": "USPS", "operator:type": "public", "operator:wikidata": "Q668687", "ref": "8073100000"}, "type": "Feature"}
{"geometry": {"coordinates": [-102.628557, 40.64085], "type": "Point"}, "id": "p9r7v49A5IqUjHoaODij36AJwyk=", "properties": {"@source_uri": "https://tools.usps.com/UspsToolsRestServices/rest/POLocator/findLocations", "@spider": "usps_collection_boxes", "addr:city": "HAXTUN", "addr:country": "US", "addr:postcode": "80731", "addr:state": "CO", "addr:street_address": "225 S COLORADO AVE", "amenity": "post_box", "collection_times": "Mo-Fr 15:45; Sa 11:00", "note": "ON 12/24 AND 12/31, THIS BOX MAY BE COLLECTED AS EARLY AS 12 NOON.", "nsi_id": "unitedstatespostalservice-a77078", "operator": "United States Postal Service", "operator:short": "USPS", "operator:type": "public", "operator:wikidata": "Q668687", "ref": "8073100001"}, "type": "Feature"}
{"geometry": {"coordinates": [-102.628557, 40.64085], "type": "Point"}, "id": "DOsZBWGPI_7jOPmVBk70IxeNy24=", "properties": {"@source_uri": "https://tools.usps.com/UspsToolsRestServices/rest/POLocator/findLocations", "@spider": "usps_collection_boxes", "addr:city": "HAXTUN", "addr:country": "US", "addr:postcode": "80731", "addr:state": "CO", "addr:street_address": "225 S COLORADO AVE", "amenity": "post_box", "collection_times": "Mo-Fr 15:45; Sa 11:00", "indoor": "yes", "note": "ON 12/24 AND 12/31, THIS BOX MAY BE COLLECTED AS EARLY AS 12 NOON.", "nsi_id": "unitedstatespostalservice-a77078", "operator": "United States Postal Service", "operator:short": "USPS", "operator:type": "public", "operator:wikidata": "Q668687", "ref": "8073100002"}, "type": "Feature"}
{"geometry": {"coordinates": [-102.628557, 40.64085], "type": "Point"}, "id": "Ci_dI7v6KbE7FLtRW_6oDh_H5dY=", "properties": {"@source_uri": "https://tools.usps.com/UspsToolsRestServices/rest/POLocator/findLocations", "@spider": "usps_collection_boxes", "addr:city": "HAXTUN", "addr:country": "US", "addr:postcode": "80731", "addr:state": "CO", "addr:street_address": "225 S COLORADO AVE", "amenity": "post_box", "collection_times": "Mo-Fr 15:45; Sa 11:00", "indoor": "yes", "note": "ON 12/24 AND 12/31, THIS BOX MAY BE COLLECTED AS EARLY AS 12 NOON.", "nsi_id": "unitedstatespostalservice-a77078", "operator": "United States Postal Service", "operator:short": "USPS", "operator:type": "public", "operator:wikidata": "Q668687", "ref": "8073100003"}, "type": "Feature"}
{"geometry": {"coordinates": [-102.628557, 40.64085], "type": "Point"}, "id": "bQ6GRN78IBXLakvV2rRFyZwymMU=", "properties": {"@source_uri": "https://tools.usps.com/UspsToolsRestServices/rest/POLocator/findLocations", "@spider": "usps_collection_boxes", "addr:city": "HAXTUN", "addr:country": "US", "addr:postcode": "80731", "addr:state": "CO", "addr:street_address": "225 S COLORADO AVE", "amenity": "post_box", "collection_times": "Mo-Fr 15:45; Sa 11:00", "indoor": "yes", "note": "ON 12/24 AND 12/31, THIS BOX MAY BE COLLECTED AS EARLY AS 12 NOON.", "nsi_id": "unitedstatespostalservice-a77078", "operator": "United States Postal Service", "operator:short": "USPS", "operator:type": "public", "operator:wikidata": "Q668687", "ref": "8073100004"}, "type": "Feature"}
{"geometry": {"coordinates": [-102.628557, 40.64085], "type": "Point"}, "id": "yUqVUwFPvWV3IKZf_YkIJDPIlCk=", "properties": {"@source_uri": "https://tools.usps.com/UspsToolsRestServices/rest/POLocator/findLocations", "@spider": "usps_collection_boxes", "addr:city": "HAXTUN", "addr:country": "US", "addr:postcode": "80731", "addr:state": "CO", "addr:street_address": "225 S COLORADO AVE", "amenity": "post_box", "collection_times": "Mo-Fr 15:45; Sa 11:00", "indoor": "yes", "note": "ON 12/24 AND 12/31, THIS BOX MAY BE COLLECTED AS EARLY AS 12 NOON.", "nsi_id": "unitedstatespostalservice-a77078", "operator": "United States Postal Service", "operator:short": "USPS", "operator:type": "public", "operator:wikidata": "Q668687", "ref": "8073100005"}, "type": "Feature"}
{"geometry": {"coordinates": [-104.304677, 40.974739], "type": "Point"}, "id": "mbw3wzyL2wGP51Tl4i19mYxurtY=", "properties": {"@source_uri": "https://tools.usps.com/UspsToolsRestServices/rest/POLocator/findLocations", "@spider": "usps_collection_boxes", "addr:city": "HEREFORD", "addr:country": "US", "addr:postcode": "80732", "addr:state": "CO", "addr:street_address": "39590 HEREFORD ST", "amenity": "post_box", "collection_times": "Mo-Sa 11:35", "nsi_id": "unitedstatespostalservice-a77078", "operator": "United States Postal Service", "operator:short": "USPS", "operator:type": "public", "operator:wikidata": "Q668687", "ref": "8073200000"}, "type": "Feature"}
{"geometry": {"coordinates": [-104.304721, 40.974652], "type": "Point"}, "id": "Vf-s7oDEuh4FSKLPe4JR6zyW2uE=", "properties": {"@source_uri": "https://tools.usps.com/UspsToolsRestServices/rest/POLocator/findLocations", "@spider": "usps_collection_boxes", "addr:city": "HEREFORD", "addr:country": "US", "addr:postcode": "80732", "addr:state": "CO", "addr:street_address": "39590 HEREFORD ST", "amenity": "post_box", "collection_times": "Mo-Sa 11:35", "indoor": "yes", "nsi_id": "unitedstatespostalservice-a77078", "operator": "United States Postal Service", "operator:short": "USPS", "operator:type": "public", "operator:wikidata": "Q668687", "ref": "8073200001"}, "type": "Feature"}
{"geometry": {"coordinates": [-103.522041, 40.325809], "type": "Point"}, "id": "QadwCbuhIzdDHmoipMM4KBs3Z6M=", "properties": {"@source_uri": "https://tools.usps.com/UspsToolsRestServices/rest/POLocator/findLocations", "@spider": "usps_collection_boxes", "addr:city": "HILLROSE", "addr:country": "US", "addr:postcode": "80733", "addr:state": "CO", "addr:street_address": "315 EMERSON ST", "amenity": "post_box", "collection_times": "Mo-Fr 11:45; Sa 10:45", "indoor": "yes", "nsi_id": "unitedstatespostalservice-a77078", "operator": "United States Postal Service", "operator:short": "USPS", "operator:type": "public", "operator:wikidata": "Q668687", "ref": "8073300000"}, "type": "Feature"}
{"geometry": {"coordinates": [-102.3026499908, 40.5840100071], "type": "Point"}, "id": "jmcsaZrEOKaIiY2wTnedbnNoxDE=", "properties": {"@source_uri": "https://tools.usps.com/UspsToolsRestServices/rest/POLocator/findLocations", "@spider": "usps_collection_boxes", "addr:city": "HOLYOKE", "addr:country": "US", "addr:postcode": "80734", "addr:state": "CO", "addr:street_address": "226 S INTEROCEAN AVE", "amenity": "post_box", "collection_times": "Mo-Sa 15:15", "note": "ON 12/24 AND 12/31, THIS BOX MAY BE COLLECTED AS EARLY AS 12 NOON.", "nsi_id": "unitedstatespostalservice-a77078", "operator": "United States Postal Service", "operator:short": "USPS", "operator:type": "public", "operator:wikidata": "Q668687", "ref": "8073400000"}, "type": "Feature"}
{"geometry": {"coordinates": [-102.302278, 40.58402], "type": "Point"}, "id": "QuR-9UQ4dsRi4tULJghP1k_67Ys=", "properties": {"@source_uri": "https://tools.usps.com/UspsToolsRestServices/rest/POLocator/findLocations", "@spider": "usps_collection_boxes", "addr:city": "HOLYOKE", "addr:country": "US", "addr:postcode": "80734", "addr:state": "CO", "addr:street_address": "226 S INTEROCEAN AVE", "amenity": "post_box", "collection_times": "Mo-Sa 15:15", "note": "ON 12/24 AND 12/31, THIS BOX MAY BE COLLECTED AS EARLY AS 12 NOON.", "nsi_id": "unitedstatespostalservice-a77078", "operator": "United States Postal Service", "operator:short": "USPS", "operator:type": "public", "operator:wikidata": "Q668687", "ref": "8073400001"}, "type": "Feature"}
{"geometry": {"coordinates": [-102.302278, 40.58402], "type": "Point"}, "id": "HvFmmfBGATs-BKyiJ_NSZOa0bu4=", "properties": {"@source_uri": "https://tools.usps.com/UspsToolsRestServices/rest/POLocator/findLocations", "@spider": "usps_collection_boxes", "addr:city": "HOLYOKE", "addr:country": "US", "addr:postcode": "80734", "addr:state": "CO", "addr:street_address": "226 S INTEROCEAN AVE", "amenity": "post_box", "collection_times": "Mo-Sa 15:15", "indoor": "yes", "note": "ON 12/24 AND 12/31, THIS BOX MAY BE COLLECTED AS EARLY AS 12 NOON.", "nsi_id": "unitedstatespostalservice-a77078", "operator": "United States Postal Service", "operator:short": "USPS", "operator:type": "public", "operator:wikidata": "Q668687", "ref": "8073400005"}, "type": "Feature"}
{"geometry": {"coordinates": [-102.294283, 39.702762], "type": "Point"}, "id": "0exqPZ7VC5EHlHvKGLMgLbO5lk8=", "properties": {"@source_uri": "https://tools.usps.com/UspsToolsRestServices/rest/POLocator/findLocations", "@spider": "usps_collection_boxes", "addr:city": "IDALIA", "addr:country": "US", "addr:postcode": "80735", "addr:state": "CO", "addr:street_address": "9030 COUNTY ROAD CC.8", "amenity": "post_box", "collection_times": "Mo-Fr 14:30; Sa 11:15", "note": "ON 12/24 AND 12/31, THIS BOX MAY BE COLLECTED AS EARLY AS 12 NOON.", "nsi_id": "unitedstatespostalservice-a77078", "operator": "United States Postal Service", "operator:short": "USPS", "operator:type": "public", "operator:wikidata": "Q668687", "ref": "8073500000"}, "type": "Feature"}
{"geometry": {"coordinates": [-102.294282, 39.702762], "type": "Point"}, "id": "ZuQ9mbqlHL17tQ5bhk6nL-gMAWU=", "properties": {"@source_uri": "https://tools.usps.com/UspsToolsRestServices/rest/POLocator/findLocations", "@spider": "usps_collection_boxes", "addr:city": "IDALIA", "addr:country": "US", "addr:postcode": "80735", "addr:state": "CO", "addr:street_address": "9030 COUNTY ROAD CC.8", "amenity": "post_box", "collection_times": "Mo-Fr 14:30; Sa 11:15", "indoor": "yes", "note": "ON 12/24 AND 12/31, THIS BOX MAY BE COLLECTED AS EARLY AS 12 NOON.", "nsi_id": "unitedstatespostalservice-a77078", "operator": "United States Postal Service", "operator:short": "USPS", "operator:type": "public", "operator:wikidata": "Q668687", "ref": "8073500001"}, "type": "Feature"}
{"geometry": {"coordinates": [-103.066931, 40.757297], "type": "Point"}, "id": "clIZbMiVqI1uKntdvv08KAAdJyA=", "properties": {"@source_uri": "https://tools.usps.com/UspsToolsRestServices/rest/POLocator/findLocations", "@spider": "usps_collection_boxes", "addr:city": "ILIFF", "addr:country": "US", "addr:postcode": "80736", "addr:state": "CO", "addr:street_address": "401 W 3RD AVE", "amenity": "post_box", "collection_times": "Mo-Fr 16:00; Sa 10:00", "note": "ON 12/24 AND 12/31, THIS BOX MAY BE COLLECTED AS EARLY AS 12 NOON.", "nsi_id": "unitedstatespostalservice-a77078", "operator": "United States Postal Service", "operator:short": "USPS", "operator:type": "public", "operator:wikidata": "Q668687", "ref": "8073600000"}, "type": "Feature"}
{"geometry": {"coordinates": [-103.066931, 40.757297], "type": "Point"}, "id": "14Iy15BfOpWfBzID0z6KB6Yj0r4=", "properties": {"@source_uri": "https://tools.usps.com/UspsToolsRestServices/rest/POLocator/findLocations", "@spider": "usps_collection_boxes", "addr:city": "ILIFF", "addr:country": "US", "addr:postcode": "80736", "addr:state": "CO", "addr:street_address": "401 W 3RD AVE", "amenity": "post_box", "collection_times": "Mo-Fr 12:00; Sa 11:00", "indoor": "yes", "nsi_id": "unitedstatespostalservice-a77078", "operator": "United States Postal Service", "operator:short": "USPS", "operator:type": "public", "operator:wikidata": "Q668687", "ref": "8073600001"}, "type": "Feature"}
{"geometry": {"coordinates": [-103.066931, 40.757297], "type": "Point"}, "id": "M86OxopTJBzCnjAH6yvLvQ6dc64=", "properties": {"@source_uri": "https://tools.usps.com/UspsToolsRestServices/rest/POLocator/findLocations", "@spider": "usps_collection_boxes", "addr:city": "ILIFF", "addr:country": "US", "addr:postcode": "80736", "addr:state": "CO", "addr:street_address": "401 W 3RD AVE", "amenity": "post_box", "collection_times": "Mo-Fr 12:00; Sa 11:00", "indoor": "yes", "nsi_id": "unitedstatespostalservice-a77078", "operator": "United States Postal Service", "operator:short": "USPS", "operator:type": "public", "operator:wikidata": "Q668687", "ref": "8073600002"}, "type": "Feature"}
{"geometry": {"coordinates": [-102.265996, 40.988151], "type": "Point"}, "id": "KyFmCoHO6ql23XeRjiebUXkWnkE=", "properties": {"@source_uri": "https://tools.usps.com/UspsToolsRestServices/rest/POLocator/findLocations", "@spider": "usps_collection_boxes", "addr:city": "JULESBURG", "addr:country": "US", "addr:postcode": "80737", "addr:state": "CO", "addr:street_address": "319 PINE ST", "amenity": "post_box", "collection_times": "Mo-Sa 14:45", "indoor": "yes", "note": "ON 12/24 AND 12/31, THIS BOX MAY BE COLLECTED AS EARLY AS 12 NOON.", "nsi_id": "unitedstatespostalservice-a77078", "operator": "United States Postal Service", "operator:short": "USPS", "operator:type": "public", "operator:wikidata": "Q668687", "ref": "8073700000"}, "type": "Feature"}
{"geometry": {"coordinates": [-102.266242, 40.988183], "type": "Point"}, "id": "hrDZjYsjhmLcFcmC1UxZ0Cf8h08=", "properties": {"@source_uri": "https://tools.usps.com/UspsToolsRestServices/rest/POLocator/findLocations", "@spider": "usps_collection_boxes", "addr:city": "JULESBURG", "addr:country": "US", "addr:postcode": "80737", "addr:state": "CO", "addr:street_address": "319 PINE ST", "amenity": "post_box", "collection_times": "Mo-Sa 14:45", "note": "ON 12/24 AND 12/31, THIS BOX MAY BE COLLECTED AS EARLY AS 12 NOON.", "nsi_id": "unitedstatespostalservice-a77078", "operator": "United States Postal Service", "operator:short": "USPS", "operator:type": "public", "operator:wikidata": "Q668687", "ref": "8073700001"}, "type": "Feature"}
{"geometry": {"coordinates": [-103.352459, 40.483522], "type": "Point"}, "id": "Gf5SGnzIYoPyd0KPSMFJmN2rJY0=", "properties": {"@source_uri": "https://tools.usps.com/UspsToolsRestServices/rest/POLocator/findLocations", "@spider": "usps_collection_boxes", "addr:city": "MERINO", "addr:country": "US", "addr:postcode": "80741", "addr:state": "CO", "addr:street_address": "202 COLORADO AVE", "amenity": "post_box", "collection_times": "Mo-Fr 16:00; Sa 10:30", "note": "ON 12/24 AND 12/31, THIS BOX MAY BE COLLECTED AS EARLY AS 12 NOON.", "nsi_id": "unitedstatespostalservice-a77078", "operator": "United States Postal Service", "operator:short": "USPS", "operator:type": "public", "operator:wikidata": "Q668687", "ref": "8074100000"}, "type": "Feature"}
{"geometry": {"coordinates": [-103.352459, 40.483522], "type": "Point"}, "id": "pwT-ieHQXwtDKnOnxeo7GROzf_0=", "properties": {"@source_uri": "https://tools.usps.com/UspsToolsRestServices/rest/POLocator/findLocations", "@spider": "usps_collection_boxes", "addr:city": "MERINO", "addr:country": "US", "addr:postcode": "80741", "addr:state": "CO", "addr:street_address": "202 COLORADO AVE", "amenity": "post_box", "collection_times": "Mo-Fr 14:00; Sa 10:30", "indoor": "yes", "note": "ON 12/24 AND 12/31, THIS BOX MAY BE COLLECTED AS EARLY AS 12 NOON.", "nsi_id": "unitedstatespostalservice-a77078", "operator": "United States Postal Service", "operator:short": "USPS", "operator:type": "public", "operator:wikidata": "Q668687", "ref": "8074100001"}, "type": "Feature"}
{"geometry": {"coordinates": [-103.845215, 40.608627], "type": "Point"}, "id": "WFa3QnMHDOBgK09gGH_ipCTw9qI=", "properties": {"@source_uri": "https://tools.usps.com/UspsToolsRestServices/rest/POLocator/findLocations", "@spider": "usps_collection_boxes", "addr:city": "NEW RAYMER", "addr:country": "US", "addr:postcode": "80742", "addr:state": "CO", "addr:street_address": "236 N CENTER AVE", "amenity": "post_box", "collection_times": "Mo-Sa 10:30", "indoor": "yes", "nsi_id": "unitedstatespostalservice-a77078", "operator": "United States Postal Service", "operator:short": "USPS", "operator:type": "public", "operator:wikidata": "Q668687", "ref": "8074200000"}, "type": "Feature"}
{"geometry": {"coordinates": [-102.961355, 40.149227], "type": "Point"}, "id": "U3F6KP-1o7FiY5rDH12R2eJSJ-w=", "properties": {"@source_uri": "https://tools.usps.com/UspsToolsRestServices/rest/POLocator/findLocations", "@spider": "usps_collection_boxes", "addr:city": "OTIS", "addr:country": "US", "addr:postcode": "80743", "addr:state": "CO", "addr:street_address": "119 N WASHINGTON ST", "amenity": "post_box", "collection_times": "Mo-Fr 11:45; Sa 10:30", "nsi_id": "unitedstatespostalservice-a77078", "operator": "United States Postal Service", "operator:short": "USPS", "operator:type": "public", "operator:wikidata": "Q668687", "ref": "8074300000"}, "type": "Feature"}
{"geometry": {"coordinates": [-102.961355, 40.149227], "type": "Point"}, "id": "WbGBXvFuT_Vn--TdIT6GvmTUUSc=", "properties": {"@source_uri": "https://tools.usps.com/UspsToolsRestServices/rest/POLocator/findLocations", "@spider": "usps_collection_boxes", "addr:city": "OTIS", "addr:country": "US", "addr:postcode": "80743", "addr:state": "CO", "addr:street_address": "119 N WASHINGTON ST", "amenity": "post_box", "collection_times": "Mo-Fr 11:45; Sa 10:00", "indoor": "yes", "nsi_id": "unitedstatespostalservice-a77078", "operator": "United States Postal Service", "operator:short": "USPS", "operator:type": "public", "operator:wikidata": "Q668687", "ref": "8074300001"}, "type": "Feature"}
{"geometry": {"coordinates": [-102.387827, 40.959916], "type": "Point"}, "id": "_sKP_7qhbw2h8nAJZkMQ8p6tQtM=", "properties": {"@source_uri": "https://tools.usps.com/UspsToolsRestServices/rest/POLocator/findLocations", "@spider": "usps_collection_boxes", "addr:city": "OVID", "addr:country": "US", "addr:postcode": "80744", "addr:state": "CO", "addr:street_address": "231 MAIN ST", "amenity": "post_box", "collection_times": "Mo-Fr 12:30; Sa 10:15", "indoor": "yes", "note": "ON 12/24 AND 12/31, THIS BOX MAY BE COLLECTED AS EARLY AS 12 NOON.", "nsi_id": "unitedstatespostalservice-a77078", "operator": "United States Postal Service", "operator:short": "USPS", "operator:type": "public", "operator:wikidata": "Q668687", "ref": "8074400000"}, "type": "Feature"}
{"geometry": {"coordinates": [-102.387897, 40.96411], "type": "Point"}, "id": "OUZDSd7r1yzHAkk4iyrQr15jfbI=", "properties": {"@source_uri": "https://tools.usps.com/UspsToolsRestServices/rest/POLocator/findLocations", "@spider": "usps_collection_boxes", "addr:city": "OVID", "addr:country": "US", "addr:postcode": "80744", "addr:state": "CO", "addr:street_address": "231 MAIN ST", "amenity": "post_box", "collection_times": "Mo-Fr 15:15; Sa 10:15", "note": "ON 12/24 AND 12/31, THIS BOX MAY BE COLLECTED AS EARLY AS 12 NOON.", "nsi_id": "unitedstatespostalservice-a77078", "operator": "United States Postal Service", "operator:short": "USPS", "operator:type": "public", "operator:wikidata": "Q668687", "ref": "8074400001"}, "type": "Feature"}
{"geometry": {"coordinates": [-102.387827, 40.959916], "type": "Point"}, "id": "6tNLq0eCtJfMgIYoeR36-EvObOc=", "properties": {"@source_uri": "https://tools.usps.com/UspsToolsRestServices/rest/POLocator/findLocations", "@spider": "usps_collection_boxes", "addr:city": "OVID", "addr:country": "US", "addr:postcode": "80744", "addr:state": "CO", "addr:street_address": "231 MAIN ST", "amenity": "post_box", "collection_times": "Mo-Fr 12:30; Sa 10:15", "indoor": "yes", "note": "ON 12/24 AND 12/31, THIS BOX MAY BE COLLECTED AS EARLY AS 12 NOON.", "nsi_id": "unitedstatespostalservice-a77078", "operator": "United States Postal Service", "operator:short": "USPS", "operator:type": "public", "operator:wikidata": "Q668687", "ref": "8074400002"}, "type": "Feature"}
{"geometry": {"coordinates": [-103.113632, 40.962093], "type": "Point"}, "id": "gbRs1sc2zBqnYQBdFjwK-Zcy2sg=", "properties": {"@source_uri": "https://tools.usps.com/UspsToolsRestServices/rest/POLocator/findLocations", "@spider": "usps_collection_boxes", "addr:city": "PEETZ", "addr:country": "US", "addr:postcode": "80747", "addr:state": "CO", "addr:street_address": "602 MAIN ST", "amenity": "post_box", "collection_times": "Mo-Fr 16:00; Sa 10:30", "note": "ON 12/24 AND 12/31, THIS BOX MAY BE COLLECTED AS EARLY AS 12 NOON.", "nsi_id": "unitedstatespostalservice-a77078", "operator": "United States Postal Service", "operator:short": "USPS", "operator:type": "public", "operator:wikidata": "Q668687", "ref": "8074700000"}, "type": "Feature"}
{"geometry": {"coordinates": [-103.113632, 40.962093], "type": "Point"}, "id": "bTNcWkEP3qpk0wSBYHX2HXswMVc=", "properties": {"@source_uri": "https://tools.usps.com/UspsToolsRestServices/rest/POLocator/findLocations", "@spider": "usps_collection_boxes", "addr:city": "PEETZ", "addr:country": "US", "addr:postcode": "80747", "addr:state": "CO", "addr:street_address": "602 MAIN ST", "amenity": "post_box", "collection_times": "Mo-Fr 16:00; Sa 10:30", "indoor": "yes", "note": "ON 12/24 AND 12/31, THIS BOX MAY BE COLLECTED AS EARLY AS 12 NOON.", "nsi_id": "unitedstatespostalservice-a77078", "operator": "United States Postal Service", "operator:short": "USPS", "operator:type": "public", "operator:wikidata": "Q668687", "ref": "8074700001"}, "type": "Feature"}
{"geometry": {"coordinates": [-102.523686, 40.935527], "type": "Point"}, "id": "zzGKsvTFIjxSY64WoxFC-nkxcS4=", "properties": {"@source_uri": "https://tools.usps.com/UspsToolsRestServices/rest/POLocator/findLocations", "@spider": "usps_collection_boxes", "addr:city": "SEDGWICK", "addr:country": "US", "addr:postcode": "80749", "addr:state": "CO", "addr:street_address": "211 MAIN AVE", "amenity": "post_box", "collection_times": "Mo-Fr 15:30; Sa 10:30", "note": "ON 12/24 AND 12/31, THIS BOX MAY BE COLLECTED AS EARLY AS 12 NOON.", "nsi_id": "unitedstatespostalservice-a77078", "operator": "United States Postal Service", "operator:short": "USPS", "operator:type": "public", "operator:wikidata": "Q668687", "ref": "8074900000"}, "type": "Feature"}
{"geometry": {"coordinates": [-102.523686, 40.935527], "type": "Point"}, "id": "qv8sdM653fcNEtF13D6meLSM-Kk=", "properties": {"@source_uri": "https://tools.usps.com/UspsToolsRestServices/rest/POLocator/findLocations", "@spider": "usps_collection_boxes", "addr:city": "SEDGWICK", "addr:country": "US", "addr:postcode": "80749", "addr:state": "CO", "addr:street_address": "211 MAIN AVE", "amenity": "post_box", "collection_times": "Mo-Fr 11:45; Sa 10:45", "indoor": "yes", "nsi_id": "unitedstatespostalservice-a77078", "operator": "United States Postal Service", "operator:short": "USPS", "operator:type": "public", "operator:wikidata": "Q668687", "ref": "8074900001"}, "type": "Feature"}
{"geometry": {"coordinates": [-103.595339, 40.33375], "type": "Point"}, "id": "hhJCtH3OFZZycMfkH2hklCR2n4I=", "properties": {"@source_uri": "https://tools.usps.com/UspsToolsRestServices/rest/POLocator/findLocations", "@spider": "usps_collection_boxes", "addr:city": "SNYDER", "addr:country": "US", "addr:postcode": "80750", "addr:state": "CO", "addr:street_address": "22836 WINCHELL AVE", "amenity": "post_box", "collection_times": "Mo-Fr 12:00; Sa 10:30", "nsi_id": "unitedstatespostalservice-a77078", "operator": "United States Postal Service", "operator:short": "USPS", "operator:type": "public", "operator:wikidata": "Q668687", "ref": "8075000000"}, "type": "Feature"}
{"geometry": {"coordinates": [-103.595339, 40.33375], "type": "Point"}, "id": "ILIK8xDIUMLdWJFc-NvlwzZMzAQ=", "properties": {"@source_uri": "https://tools.usps.com/UspsToolsRestServices/rest/POLocator/findLocations", "@spider": "usps_collection_boxes", "addr:city": "SNYDER", "addr:country": "US", "addr:postcode": "80750", "addr:state": "CO", "addr:street_address": "22836 WINCHELL AVE", "amenity": "post_box", "collection_times": "Mo-Fr 11:45; Sa 10:30", "indoor": "yes", "nsi_id": "unitedstatespostalservice-a77078", "operator": "United States Postal Service", "operator:short": "USPS", "operator:type": "public", "operator:wikidata": "Q668687", "ref": "8075000001"}, "type": "Feature"}
{"geometry": {"coordinates": [-103.2078093698, 40.625242196], "type": "Point"}, "id": "iSqXB0Re2vmVUPTIm5nIQCtEQAg=", "properties": {"@source_uri": "https://tools.usps.com/UspsToolsRestServices/rest/POLocator/findLocations", "@spider": "usps_collection_boxes", "addr:city": "STERLING", "addr:country": "US", "addr:postcode": "80751", "addr:state": "CO", "addr:street_address": "306 POPLAR ST", "amenity": "post_box", "collection_times": "Mo-Sa 17:00", "note": "ON 12/24 AND 12/31, THIS BOX MAY BE COLLECTED AS EARLY AS 12 NOON.", "nsi_id": "unitedstatespostalservice-a77078", "operator": "United States Postal Service", "operator:short": "USPS", "operator:type": "public", "operator:wikidata": "Q668687", "ref": "8075100000"}, "type": "Feature"}
{"geometry": {"coordinates": [-103.214673, 40.623525], "type": "Point"}, "id": "B3PdSzzshtPU7L6A12eRNdfb3do=", "properties": {"@source_uri": "https://tools.usps.com/UspsToolsRestServices/rest/POLocator/findLocations", "@spider": "usps_collection_boxes", "addr:city": "STERLING", "addr:country": "US", "addr:postcode": "80751", "addr:state": "CO", "addr:street_address": "217 S 3RD AVE", "amenity": "post_box", "collection_times": "Mo-Sa 14:05", "note": "ON 12/24 AND 12/31, THIS BOX MAY BE COLLECTED AS EARLY AS 12 NOON.", "nsi_id": "unitedstatespostalservice-a77078", "operator": "United States Postal Service", "operator:short": "USPS", "operator:type": "public", "operator:wikidata": "Q668687", "ref": "8075100001"}, "type": "Feature"}
{"geometry": {"coordinates": [-103.2364149593, 40.6270419856], "type": "Point"}, "id": "0r8nkiuKJ3SdiWKZDwnlLNTVHMY=", "properties": {"@source_uri": "https://tools.usps.com/UspsToolsRestServices/rest/POLocator/findLocations", "@spider": "usps_collection_boxes", "addr:city": "STERLING", "addr:country": "US", "addr:postcode": "80751", "addr:state": "CO", "addr:street_address": "1510 W MAIN ST", "amenity": "post_box", "collection_times": "Mo-Sa 14:05", "note": "ON 12/24 AND 12/31, THIS BOX MAY BE COLLECTED AS EARLY AS 12 NOON.", "nsi_id": "unitedstatespostalservice-a77078", "operator": "United States Postal Service", "operator:short": "USPS", "operator:type": "public", "operator:wikidata": "Q668687", "ref": "8075100002"}, "type": "Feature"}
{"geometry": {"coordinates": [-103.19749, 40.637144], "type": "Point"}, "id": "Cm2SYtro3JklUsEVqlT7W12tE8M=", "properties": {"@source_uri": "https://tools.usps.com/UspsToolsRestServices/rest/POLocator/findLocations", "@spider": "usps_collection_boxes", "addr:city": "STERLING", "addr:country": "US", "addr:postcode": "80751", "addr:state": "CO", "addr:street_address": "100 COLLEGE AVE", "amenity": "post_box", "collection_times": "Mo-Sa 15:00", "note": "ON 12/24 AND 12/31, THIS BOX MAY BE COLLECTED AS EARLY AS 12 NOON.", "nsi_id": "unitedstatespostalservice-a77078", "operator": "United States Postal Service", "operator:short": "USPS", "operator:type": "public", "operator:wikidata": "Q668687", "ref": "8075100003"}, "type": "Feature"}
{"geometry": {"coordinates": [-103.217271, 40.625521], "type": "Point"}, "id": "iGqMPztruHZrHQUpezv2mTS8s2g=", "properties": {"@source_uri": "https://tools.usps.com/UspsToolsRestServices/rest/POLocator/findLocations", "@spider": "usps_collection_boxes", "addr:city": "STERLING", "addr:country": "US", "addr:postcode": "80751", "addr:state": "CO", "addr:street_address": "410 W MAIN ST", "amenity": "post_box", "collection_times": "Mo-Sa 14:05", "note": "ON 12/24 AND 12/31, THIS BOX MAY BE COLLECTED AS EARLY AS 12 NOON.", "nsi_id": "unitedstatespostalservice-a77078", "operator": "United States Postal Service", "operator:short": "USPS", "operator:type": "public", "operator:wikidata": "Q668687", "ref": "8075100004"}, "type": "Feature"}
{"geometry": {"coordinates": [-103.20978, 40.623456], "type": "Point"}, "id": "KmdXpaCX7wy4CfGr0bZehzzndOU=", "properties": {"@source_uri": "https://tools.usps.com/UspsToolsRestServices/rest/POLocator/findLocations", "@spider": "usps_collection_boxes", "addr:city": "STERLING", "addr:country": "US", "addr:postcode": "80751", "addr:state": "CO", "addr:street_address": "315 MAIN ST", "amenity": "post_box", "collection_times": "Mo-Fr 15:00; Sa 14:30", "note": "ON 12/24 AND 12/31, THIS BOX MAY BE COLLECTED AS EARLY AS 12 NOON.", "nsi_id": "unitedstatespostalservice-a77078", "operator": "United States Postal Service", "operator:short": "USPS", "operator:type": "public", "operator:wikidata": "Q668687", "ref": "8075100005"}, "type": "Feature"}
{"geometry": {"coordinates": [-103.231411, 40.623898], "type": "Point"}, "id": "LZix4wXzldmfRBNqwwjvPJsNt6o=", "properties": {"@source_uri": "https://tools.usps.com/UspsToolsRestServices/rest/POLocator/findLocations", "@spider": "usps_collection_boxes", "addr:city": "STERLING", "addr:country": "US", "addr:postcode": "80751", "addr:state": "CO", "addr:street_address": "1303 W MAIN ST", "amenity": "post_box", "collection_times": "Mo-Fr 15:10; Sa 14:55", "note": "ON 12/24 AND 12/31, THIS BOX MAY BE COLLECTED AS EARLY AS 12 NOON.", "nsi_id": "unitedstatespostalservice-a77078", "operator": "United States Postal Service", "operator:short": "USPS", "operator:type": "public", "operator:wikidata": "Q668687", "ref": "8075100007"}, "type": "Feature"}
{"geometry": {"coordinates": [-103.180059, 40.62013], "type": "Point"}, "id": "DcyxRAecDP2WMG8qZ6-s52668Tk=", "properties": {"@source_uri": "https://tools.usps.com/UspsToolsRestServices/rest/POLocator/findLocations", "@spider": "usps_collection_boxes", "addr:city": "STERLING", "addr:country": "US", "addr:postcode": "80751", "addr:state": "CO", "addr:street_address": "102 N RIVERVIEW RD", "amenity": "post_box", "collection_times": "Mo-Sa 12:00", "nsi_id": "unitedstatespostalservice-a77078", "operator": "United States Postal Service", "operator:short": "USPS", "operator:type": "public", "operator:wikidata": "Q668687", "ref": "8075100008"}, "type": "Feature"}
{"geometry": {"coordinates": [-103.209835, 40.623454], "type": "Point"}, "id": "oStfCNWF8mRAffiQb3qjRhZGeLg=", "properties": {"@source_uri": "https://tools.usps.com/UspsToolsRestServices/rest/POLocator/findLocations", "@spider": "usps_collection_boxes", "addr:city": "STERLING", "addr:country": "US", "addr:postcode": "80751", "addr:state": "CO", "addr:street_address": "315 MAIN ST", "amenity": "post_box", "collection_times": "Mo-Fr 15:00; Sa 14:30", "note": "ON 12/24 AND 12/31, THIS BOX MAY BE COLLECTED AS EARLY AS 12 NOON.", "nsi_id": "unitedstatespostalservice-a77078", "operator": "United States Postal Service", "operator:short": "USPS", "operator:type": "public", "operator:wikidata": "Q668687", "ref": "8075100010"}, "type": "Feature"}
{"geometry": {"coordinates": [-103.2078093698, 40.625242196], "type": "Point"}, "id": "DMx3iDORyfg0Fs7lVV75InvSOE4=", "properties": {"@source_uri": "https://tools.usps.com/UspsToolsRestServices/rest/POLocator/findLocations", "@spider": "usps_collection_boxes", "addr:city": "STERLING", "addr:country": "US", "addr:postcode": "80751", "addr:state": "CO", "addr:street_address": "306 POPLAR ST", "amenity": "post_box", "collection_times": "Mo-Sa 17:00", "note": "ON 12/24 AND 12/31, THIS BOX MAY BE COLLECTED AS EARLY AS 12 NOON.", "nsi_id": "unitedstatespostalservice-a77078", "operator": "United States Postal Service", "operator:short": "USPS", "operator:type": "public", "operator:wikidata": "Q668687", "ref": "8075100011"}, "type": "Feature"}
{"geometry": {"coordinates": [-103.2078093698, 40.625242196], "type": "Point"}, "id": "u3jIKICytIn2JIWBeZ5yU3g-Njs=", "properties": {"@source_uri": "https://tools.usps.com/UspsToolsRestServices/rest/POLocator/findLocations", "@spider": "usps_collection_boxes", "addr:city": "STERLING", "addr:country": "US", "addr:postcode": "80751", "addr:state": "CO", "addr:street_address": "306 POPLAR ST", "amenity": "post_box", "collection_times": "Mo-Sa 17:00", "note": "ON 12/24 AND 12/31, THIS BOX MAY BE COLLECTED AS EARLY AS 12 NOON.", "nsi_id": "unitedstatespostalservice-a77078", "operator": "United States Postal Service", "operator:short": "USPS", "operator:type": "public", "operator:wikidata": "Q668687", "ref": "8075100012"}, "type": "Feature"}
{"geometry": {"coordinates": [-103.2078093698, 40.625242196], "type": "Point"}, "id": "OKWNZvPc0gPGn4FxKpFiosIVLng=", "properties": {"@source_uri": "https://tools.usps.com/UspsToolsRestServices/rest/POLocator/findLocations", "@spider": "usps_collection_boxes", "addr:city": "STERLING", "addr:country": "US", "addr:postcode": "80751", "addr:state": "CO", "addr:street_address": "306 POPLAR ST", "amenity": "post_box", "collection_times": "Mo-Sa 17:00", "name": "USPS COLLECTION BOX - EXPRESS", "note": "ON 12/24 AND 12/31, THIS BOX MAY BE COLLECTED AS EARLY AS 12 NOON.", "nsi_id": "unitedstatespostalservice-a77078", "operator": "United States Postal Service", "operator:short": "USPS", "operator:type": "public", "operator:wikidata": "Q668687", "ref": "8075100013"}, "type": "Feature"}
{"geometry": {"coordinates": [-103.207809, 40.625247], "type": "Point"}, "id": "Or4GYjJhogW9fOWoXpLIed0UKTU=", "properties": {"@source_uri": "https://tools.usps.com/UspsToolsRestServices/rest/POLocator/findLocations", "@spider": "usps_collection_boxes", "addr:city": "STERLING", "addr:country": "US", "addr:postcode": "80751", "addr:state": "CO", "addr:street_address": "306 POPLAR ST", "amenity": "post_box", "collection_times": "Mo-Sa 17:00", "indoor": "yes", "note": "ON 12/24 AND 12/31, THIS BOX MAY BE COLLECTED AS EARLY AS 12 NOON.", "nsi_id": "unitedstatespostalservice-a77078", "operator": "United States Postal Service", "operator:short": "USPS", "operator:type": "public", "operator:wikidata": "Q668687", "ref": "8075100014"}, "type": "Feature"}
{"geometry": {"coordinates": [-103.207809, 40.625247], "type": "Point"}, "id": "ThxMzZDFQ4-tEHgy2NShhmh8Cng=", "properties": {"@source_uri": "https://tools.usps.com/UspsToolsRestServices/rest/POLocator/findLocations", "@spider": "usps_collection_boxes", "addr:city": "STERLING", "addr:country": "US", "addr:postcode": "80751", "addr:state": "CO", "addr:street_address": "306 POPLAR ST", "amenity": "post_box", "collection_times": "Mo-Sa 17:00", "indoor": "yes", "note": "ON 12/24 AND 12/31, THIS BOX MAY BE COLLECTED AS EARLY AS 12 NOON.", "nsi_id": "unitedstatespostalservice-a77078", "operator": "United States Postal Service", "operator:short": "USPS", "operator:type": "public", "operator:wikidata": "Q668687", "ref": "8075100015"}, "type": "Feature"}
{"geometry": {"coordinates": [-103.207809, 40.625247], "type": "Point"}, "id": "xEa42IxpbhnoLZreYYr_Q7WU0J0=", "properties": {"@source_uri": "https://tools.usps.com/UspsToolsRestServices/rest/POLocator/findLocations", "@spider": "usps_collection_boxes", "addr:city": "STERLING", "addr:country": "US", "addr:postcode": "80751", "addr:state": "CO", "addr:street_address": "306 POPLAR ST", "amenity": "post_box", "collection_times": "Mo-Sa 17:00", "indoor": "yes", "note": "ON 12/24 AND 12/31, THIS BOX MAY BE COLLECTED AS EARLY AS 12 NOON.", "nsi_id": "unitedstatespostalservice-a77078", "operator": "United States Postal Service", "operator:short": "USPS", "operator:type": "public", "operator:wikidata": "Q668687", "ref": "8075100016"}, "type": "Feature"}
{"geometry": {"coordinates": [-103.2078093698, 40.625242196], "type": "Point"}, "id": "C6raizou7pQn0pwRgsLV8e5LNu8=", "properties": {"@source_uri": "https://tools.usps.com/UspsToolsRestServices/rest/POLocator/findLocations", "@spider": "usps_collection_boxes", "addr:city": "STERLING", "addr:country": "US", "addr:postcode": "80751", "addr:state": "CO", "addr:street_address": "306 POPLAR ST", "amenity": "post_box", "collection_times": "Mo-Sa 17:00", "note": "ON 12/24 AND 12/31, THIS BOX MAY BE COLLECTED AS EARLY AS 12 NOON.", "nsi_id": "unitedstatespostalservice-a77078", "operator": "United States Postal Service", "operator:short": "USPS", "operator:type": "public", "operator:wikidata": "Q668687", "ref": "8075100017"}, "type": "Feature"}
{"geometry": {"coordinates": [-103.2364149593, 40.6270419856], "type": "Point"}, "id": "C8bTu0TlLBVyPdsHAuhrxxxAICE=", "properties": {"@source_uri": "https://tools.usps.com/UspsToolsRestServices/rest/POLocator/findLocations", "@spider": "usps_collection_boxes", "addr:city": "STERLING", "addr:country": "US", "addr:postcode": "80751", "addr:state": "CO", "addr:street_address": "1510 W MAIN ST", "amenity": "post_box", "collection_times": "Mo-Fr 15:05; Sa 14:50", "name": "USPS COLLECTION BOX - EXPRESS", "note": "ON 12/24 AND 12/31, THIS BOX MAY BE COLLECTED AS EARLY AS 12 NOON.", "nsi_id": "unitedstatespostalservice-a77078", "operator": "United States Postal Service", "operator:short": "USPS", "operator:type": "public", "operator:wikidata": "Q668687", "ref": "8075100018"}, "type": "Feature"}
{"geometry": {"coordinates": [-103.2201470263, 40.612501018], "type": "Point"}, "id": "9pJL57qoPMP6yvEYUtqAi2Y6rA8=", "properties": {"@source_uri": "https://tools.usps.com/UspsToolsRestServices/rest/POLocator/findLocations", "@spider": "usps_collection_boxes", "addr:city": "STERLING", "addr:country": "US", "addr:postcode": "80751", "addr:state": "CO", "addr:street_address": "615 FAIRHURST ST", "amenity": "post_box", "collection_times": "Mo-Fr 15:15; Sa 14:45", "note": "ON 12/24 AND 12/31, THIS BOX MAY BE COLLECTED AS EARLY AS 12 NOON.", "nsi_id": "unitedstatespostalservice-a77078", "operator": "United States Postal Service", "operator:short": "USPS", "operator:type": "public", "operator:wikidata": "Q668687", "ref": "8075100019"}, "type": "Feature"}
{"geometry": {"coordinates": [-103.20626, 40.627708], "type": "Point"}, "id": "wWhzBxDj3EIZNKZ_cVOXVB1F7lc=", "properties": {"@source_uri": "https://tools.usps.com/UspsToolsRestServices/rest/POLocator/findLocations", "@spider": "usps_collection_boxes", "addr:city": "STERLING", "addr:country": "US", "addr:postcode": "80751", "addr:state": "CO", "addr:street_address": "419 N 3RD ST", "amenity": "post_box", "collection_times": "Mo-Sa 15:00", "note": "ON 12/24 AND 12/31, THIS BOX MAY BE COLLECTED AS EARLY AS 12 NOON.", "nsi_id": "unitedstatespostalservice-a77078", "operator": "United States Postal Service", "operator:short": "USPS", "operator:type": "public", "operator:wikidata": "Q668687", "ref": "8075100024"}, "type": "Feature"}
{"geometry": {"coordinates": [-103.665648, 40.60436], "type": "Point"}, "id": "yC7ZGvibSP1fOCOCtTlAoN6OIIY=", "properties": {"@source_uri": "https://tools.usps.com/UspsToolsRestServices/rest/POLocator/findLocations", "@spider": "usps_collection_boxes", "addr:city": "STONEHAM", "addr:country": "US", "addr:postcode": "80754", "addr:state": "CO", "addr:street_address": "41621 MARBLE AVE", "amenity": "post_box", "collection_times": "Mo-Fr 11:00; Sa 11:45", "nsi_id": "unitedstatespostalservice-a77078", "operator": "United States Postal Service", "operator:short": "USPS", "operator:type": "public", "operator:wikidata": "Q668687", "ref": "8075400000"}, "type": "Feature"}
{"geometry": {"coordinates": [-103.665648, 40.60436], "type": "Point"}, "id": "SYuxAHfI0h_dV2uedIoaZVtFO2Q=", "properties": {"@source_uri": "https://tools.usps.com/UspsToolsRestServices/rest/POLocator/findLocations", "@spider": "usps_collection_boxes", "addr:city": "STONEHAM", "addr:country": "US", "addr:postcode": "80754", "addr:state": "CO", "addr:street_address": "41621 MARBLE AVE", "amenity": "post_box", "collection_times": "Mo-Fr 11:30; Sa 11:00", "indoor": "yes", "nsi_id": "unitedstatespostalservice-a77078", "operator": "United States Postal Service", "operator:short": "USPS", "operator:type": "public", "operator:wikidata": "Q668687", "ref": "8075400001"}, "type": "Feature"}
{"geometry": {"coordinates": [-102.315262, 39.947118], "type": "Point"}, "id": "ChZL5ilEuB7BVVhFWv9TicDLf3Y=", "properties": {"@source_uri": "https://tools.usps.com/UspsToolsRestServices/rest/POLocator/findLocations", "@spider": "usps_collection_boxes", "addr:city": "VERNON", "addr:country": "US", "addr:postcode": "80755", "addr:state": "CO", "addr:street_address": "26101 WASHINGTON ST", "amenity": "post_box", "collection_times": "Mo-Fr 11:45; Sa 10:45", "indoor": "yes", "nsi_id": "unitedstatespostalservice-a77078", "operator": "United States Postal Service", "operator:short": "USPS", "operator:type": "public", "operator:wikidata": "Q668687", "ref": "8075500000"}, "type": "Feature"}
{"geometry": {"coordinates": [-102.315132, 39.947165], "type": "Point"}, "id": "qrNgHhsvh5uYn5F2wEBKHIfeEuY=", "properties": {"@source_uri": "https://tools.usps.com/UspsToolsRestServices/rest/POLocator/findLocations", "@spider": "usps_collection_boxes", "addr:city": "VERNON", "addr:country": "US", "addr:postcode": "80755", "addr:state": "CO", "addr:street_address": "26101 WASHINGTON ST", "amenity": "post_box", "collection_times": "Mo-Fr 14:45; Sa 13:00", "note": "ON 12/24 AND 12/31, THIS BOX MAY BE COLLECTED AS EARLY AS 12 NOON.", "nsi_id": "unitedstatespostalservice-a77078", "operator": "United States Postal Service", "operator:short": "USPS", "operator:type": "public", "operator:wikidata": "Q668687", "ref": "8075500001"}, "type": "Feature"}
{"geometry": {"coordinates": [-103.591652, 39.988053], "type": "Point"}, "id": "m07S9ADWUD2NqwVqMCel_qNi4FA=", "properties": {"@source_uri": "https://tools.usps.com/UspsToolsRestServices/rest/POLocator/findLocations", "@spider": "usps_collection_boxes", "addr:city": "WOODROW", "addr:country": "US", "addr:postcode": "80757", "addr:state": "CO", "addr:street_address": "28999 HIGHWAY 71", "amenity": "post_box", "collection_times": "Mo-Sa 12:00", "nsi_id": "unitedstatespostalservice-a77078", "operator": "United States Postal Service", "operator:short": "USPS", "operator:type": "public", "operator:wikidata": "Q668687", "ref": "8075700000"}, "type": "Feature"}
{"geometry": {"coordinates": [-103.591652, 39.988053], "type": "Point"}, "id": "HM_erV_nDc46uxMM4_77zeOOCBE=", "properties": {"@source_uri": "https://tools.usps.com/UspsToolsRestServices/rest/POLocator/findLocations", "@spider": "usps_collection_boxes", "addr:city": "WOODROW", "addr:country": "US", "addr:postcode": "80757", "addr:state": "CO", "addr:street_address": "28999 HIGHWAY 71", "amenity": "post_box", "collection_times": "Mo-Fr 14:30; Sa 12:00", "indoor": "yes", "note": "ON 12/24 AND 12/31, THIS BOX MAY BE COLLECTED AS EARLY AS 12 NOON.", "nsi_id": "unitedstatespostalservice-a77078", "operator": "United States Postal Service", "operator:short": "USPS", "operator:type": "public", "operator:wikidata": "Q668687", "ref": "8075700001"}, "type": "Feature"}
{"geometry": {"coordinates": [-103.593115, 39.740254], "type": "Point"}, "id": "G4_APqpBiji_WB_YwyuOfVp7EC8=", "properties": {"@source_uri": "https://tools.usps.com/UspsToolsRestServices/rest/POLocator/findLocations", "@spider": "usps_collection_boxes", "addr:city": "WOODROW", "addr:country": "US", "addr:postcode": "80757", "addr:state": "CO", "addr:street_address": "1 NE HWY 71 AND HWY 36", "amenity": "post_box", "collection_times": "Mo-Sa 11:30", "nsi_id": "unitedstatespostalservice-a77078", "operator": "United States Postal Service", "operator:short": "USPS", "operator:type": "public", "operator:wikidata": "Q668687", "ref": "8075700002"}, "type": "Feature"}
{"geometry": {"coordinates": [-102.226482, 40.075408], "type": "Point"}, "id": "GKNeOPQNr8wdCcoGAQB2UAfwLog=", "properties": {"@source_uri": "https://tools.usps.com/UspsToolsRestServices/rest/POLocator/findLocations", "@spider": "usps_collection_boxes", "addr:city": "WRAY", "addr:country": "US", "addr:postcode": "80758", "addr:state": "CO", "addr:street_address": "407 W 7TH ST", "amenity": "post_box", "collection_times": "Mo-Sa 15:30", "note": "ON 12/24 AND 12/31, THIS BOX MAY BE COLLECTED AS EARLY AS 12 NOON.", "nsi_id": "unitedstatespostalservice-a77078", "operator": "United States Postal Service", "operator:short": "USPS", "operator:type": "public", "operator:wikidata": "Q668687", "ref": "8075800000"}, "type": "Feature"}
{"geometry": {"coordinates": [-102.225505, 40.080092], "type": "Point"}, "id": "xK_6iTtWA-5to3JQ0xrl1a6W2Ck=", "properties": {"@source_uri": "https://tools.usps.com/UspsToolsRestServices/rest/POLocator/findLocations", "@spider": "usps_collection_boxes", "addr:city": "WRAY", "addr:country": "US", "addr:postcode": "80758", "addr:state": "CO", "addr:street_address": "333 W 2ND ST", "amenity": "post_box", "collection_times": "Mo-Sa 12:00", "nsi_id": "unitedstatespostalservice-a77078", "operator": "United States Postal Service", "operator:short": "USPS", "operator:type": "public", "operator:wikidata": "Q668687", "ref": "8075800001"}, "type": "Feature"}
{"geometry": {"coordinates": [-102.220628, 40.078858], "type": "Point"}, "id": "GZhMGloEFXF7ykkhpkCe63Al6mQ=", "properties": {"@source_uri": "https://tools.usps.com/UspsToolsRestServices/rest/POLocator/findLocations", "@spider": "usps_collection_boxes", "addr:city": "WRAY", "addr:country": "US", "addr:postcode": "80758", "addr:state": "CO", "addr:street_address": "310 ASH ST", "amenity": "post_box", "collection_times": "Mo-Sa 15:00", "note": "ON 12/24 AND 12/31, THIS BOX MAY BE COLLECTED AS EARLY AS 12 NOON.", "nsi_id": "unitedstatespostalservice-a77078", "operator": "United States Postal Service", "operator:short": "USPS", "operator:type": "public", "operator:wikidata": "Q668687", "ref": "8075800002"}, "type": "Feature"}
{"geometry": {"coordinates": [-102.222185, 40.078511], "type": "Point"}, "id": "jze-d_aCruhafR1FXZxbu5hjvqc=", "properties": {"@source_uri": "https://tools.usps.com/UspsToolsRestServices/rest/POLocator/findLocations", "@spider": "usps_collection_boxes", "addr:city": "WRAY", "addr:country": "US", "addr:postcode": "80758", "addr:state": "CO", "addr:street_address": "317 MAIN ST", "amenity": "post_box", "collection_times": "Mo-Sa 15:00", "note": "ON 12/24 AND 12/31, THIS BOX MAY BE COLLECTED AS EARLY AS 12 NOON.", "nsi_id": "unitedstatespostalservice-a77078", "operator": "United States Postal Service", "operator:short": "USPS", "operator:type": "public", "operator:wikidata": "Q668687", "ref": "8075800003"}, "type": "Feature"}
{"geometry": {"coordinates": [-102.229132, 40.081132], "type": "Point"}, "id": "NwSe2ewPApWMU2nxq9M7qMO1uNI=", "properties": {"@source_uri": "https://tools.usps.com/UspsToolsRestServices/rest/POLocator/findLocations", "@spider": "usps_collection_boxes", "addr:city": "WRAY", "addr:country": "US", "addr:postcode": "80758", "addr:state": "CO", "addr:street_address": "233 N DEXTER ST", "amenity": "post_box", "collection_times": "Mo-Sa 14:00", "note": "ON 12/24 AND 12/31, THIS BOX MAY BE COLLECTED AS EARLY AS 12 NOON.", "nsi_id": "unitedstatespostalservice-a77078", "operator": "United States Postal Service", "operator:short": "USPS", "operator:type": "public", "operator:wikidata": "Q668687", "ref": "8075800004"}, "type": "Feature"}
{"geometry": {"coordinates": [-102.226482, 40.075408], "type": "Point"}, "id": "YMWOwvZDsz3TcYuimUrycJUVwtA=", "properties": {"@source_uri": "https://tools.usps.com/UspsToolsRestServices/rest/POLocator/findLocations", "@spider": "usps_collection_boxes", "addr:city": "WRAY", "addr:country": "US", "addr:postcode": "80758", "addr:state": "CO", "addr:street_address": "407 W 7TH ST", "amenity": "post_box", "collection_times": "Mo-Sa 15:30", "indoor": "yes", "note": "ON 12/24 AND 12/31, THIS BOX MAY BE COLLECTED AS EARLY AS 12 NOON.", "nsi_id": "unitedstatespostalservice-a77078", "operator": "United States Postal Service", "operator:short": "USPS", "operator:type": "public", "operator:wikidata": "Q668687", "ref": "8075800005"}, "type": "Feature"}
{"geometry": {"coordinates": [-102.723786, 40.122711], "type": "Point"}, "id": "4hk4NYpYxgXRZbphMLM_cngxZJY=", "properties": {"@source_uri": "https://tools.usps.com/UspsToolsRestServices/rest/POLocator/findLocations", "@spider": "usps_collection_boxes", "addr:city": "YUMA", "addr:country": "US", "addr:postcode": "80759", "addr:state": "CO", "addr:street_address": "315 S MAIN ST", "amenity": "post_box", "collection_times": "Mo-Sa 12:00", "nsi_id": "unitedstatespostalservice-a77078", "operator": "United States Postal Service", "operator:short": "USPS", "operator:type": "public", "operator:wikidata": "Q668687", "ref": "8075900002"}, "type": "Feature"}
{"geometry": {"coordinates": [-102.7237870405, 40.1227016647], "type": "Point"}, "id": "ExlQSeA6o1fZyMweupsa56QEcXs=", "properties": {"@source_uri": "https://tools.usps.com/UspsToolsRestServices/rest/POLocator/findLocations", "@spider": "usps_collection_boxes", "addr:city": "YUMA", "addr:country": "US", "addr:postcode": "80759", "addr:state": "CO", "addr:street_address": "315 S MAIN ST", "amenity": "post_box", "collection_times": "Mo-Sa 12:00", "nsi_id": "unitedstatespostalservice-a77078", "operator": "United States Postal Service", "operator:short": "USPS", "operator:type": "public", "operator:wikidata": "Q668687", "ref": "8075900003"}, "type": "Feature"}
