{"geometry": {"coordinates": [-103.218387, 39.741131], "type": "Point"}, "id": "TFn4Ne5sKnNF6nK8-r7nV--0Qjw=", "properties": {"@spider": "usps_collection_boxes", "addr:city": "ANTON", "addr:country": "US", "addr:full": "25940 US HIGHWAY 36", "addr:postcode": "80801", "addr:state": "CO", "brand": "USPS", "collection_times": "Mo-Fr 12:00; Sa 10:30", "name": "USPS COLLECTION BOX - BLUE BOX", "ref": "8080100000"}, "type": "Feature"}
{"geometry": {"coordinates": [-103.218387, 39.741131], "type": "Point"}, "id": "v5bQ_jYZ-4WUrMutRuPFbcIdhCU=", "properties": {"@spider": "usps_collection_boxes", "addr:city": "ANTON", "addr:country": "US", "addr:full": "25940 US HIGHWAY 36", "addr:postcode": "80801", "addr:state": "CO", "brand": "USPS", "collection_times": "Mo-Fr 12:00; Sa 10:30", "name": "USPS COLLECTION BOX - PO LOBBY", "ref": "8080100001"}, "type": "Feature"}
{"geometry": {"coordinates": [-102.177747, 38.851891], "type": "Point"}, "id": "qxqymhoXIimkW9NGoLeznZcinu4=", "properties": {"@spider": "usps_collection_boxes", "addr:city": "ARAPAHOE", "addr:country": "US", "addr:full": "16665 MICHIGAN AVE", "addr:postcode": "80802", "addr:state": "CO", "brand": "USPS", "collection_times": "Mo-Fr 15:00; Sa 11:15", "name": "USPS COLLECTION BOX - BLUE BOX", "note": "ON 12/24 AND 12/31, THIS BOX MAY BE COLLECTED AS EARLY AS 12 NOON.", "ref": "8080200000"}, "type": "Feature"}
{"geometry": {"coordinates": [-102.177747, 38.851891], "type": "Point"}, "id": "5b59-5TbCL62ok8h4ZDx_KHbeHY=", "properties": {"@spider": "usps_collection_boxes", "addr:city": "ARAPAHOE", "addr:country": "US", "addr:full": "16665 MICHIGAN AVE", "addr:postcode": "80802", "addr:state": "CO", "brand": "USPS", "collection_times": "Mo-Fr 12:00; Sa 11:15", "name": "USPS COLLECTION BOX - PO LOBBY", "ref": "8080200001"}, "type": "Feature"}
{"geometry": {"coordinates": [-103.276439, 39.285627], "type": "Point"}, "id": "xW95h3b9XlTQJ0WIs8MDsRsQ5aU=", "properties": {"@spider": "usps_collection_boxes", "addr:city": "ARRIBA", "addr:country": "US", "addr:full": "520 COLORADO AVE", "addr:postcode": "80804", "addr:state": "CO", "brand": "USPS", "collection_times": "Mo-Fr 15:30; Sa 10:30", "name": "USPS COLLECTION BOX - BLUE BOX", "note": "ON 12/24 AND 12/31, THIS BOX MAY BE COLLECTED AS EARLY AS 12 NOON.", "ref": "8080400000"}, "type": "Feature"}
{"geometry": {"coordinates": [-103.275403, 39.285679], "type": "Point"}, "id": "e4lq-SpdHxpYy29nBTyKamfZieU=", "properties": {"@spider": "usps_collection_boxes", "addr:city": "ARRIBA", "addr:country": "US", "addr:full": "520 COLORADO AVE", "addr:postcode": "80804", "addr:state": "CO", "brand": "USPS", "collection_times": "Mo-Fr 11:45; Sa 10:40", "name": "USPS COLLECTION BOX - PO LOBBY", "ref": "8080400001"}, "type": "Feature"}
{"geometry": {"coordinates": [-102.424958, 39.303713], "type": "Point"}, "id": "EjWhYHZ58-E__fM6erENR-vMims=", "properties": {"@spider": "usps_collection_boxes", "addr:city": "BETHUNE", "addr:country": "US", "addr:full": "135 E 1ST AVE", "addr:postcode": "80805", "addr:state": "CO", "brand": "USPS", "collection_times": "Mo-Fr 12:00; Sa 10:15", "name": "USPS COLLECTION BOX - PO LOBBY", "ref": "8080500000"}, "type": "Feature"}
{"geometry": {"coordinates": [-102.268077, 39.302861], "type": "Point"}, "id": "Ri1icMyf56VS3HHl-fdZFQfECJ4=", "properties": {"@spider": "usps_collection_boxes", "addr:city": "BURLINGTON", "addr:country": "US", "addr:full": "259 14TH ST", "addr:postcode": "80807", "addr:state": "CO", "brand": "USPS", "collection_times": "Mo-Fr 17:00; Sa 15:00", "name": "USPS COLLECTION BOX - BLUE BOX", "note": "ON 12/24 AND 12/31, THIS BOX MAY BE COLLECTED AS EARLY AS 12 NOON.", "ref": "8080700000"}, "type": "Feature"}
{"geometry": {"coordinates": [-102.268077, 39.302861], "type": "Point"}, "id": "XXf4FVgpIO2XkKyAUx_P_DozHlc=", "properties": {"@spider": "usps_collection_boxes", "addr:city": "BURLINGTON", "addr:country": "US", "addr:full": "259 14TH ST", "addr:postcode": "80807", "addr:state": "CO", "brand": "USPS", "collection_times": "Mo-Fr 17:00; Sa 15:00", "name": "USPS COLLECTION BOX - BLUE BOX", "note": "ON 12/24 AND 12/31, THIS BOX MAY BE COLLECTED AS EARLY AS 12 NOON.", "ref": "8080700001"}, "type": "Feature"}
{"geometry": {"coordinates": [-102.27953, 39.295736], "type": "Point"}, "id": "pXsmaArE9PvmYAIJDAasFxePcGg=", "properties": {"@spider": "usps_collection_boxes", "addr:city": "BURLINGTON", "addr:country": "US", "addr:full": "415 S LINCOLN ST", "addr:postcode": "80807", "addr:state": "CO", "brand": "USPS", "collection_times": "Mo-Sa 09:30", "name": "USPS COLLECTION BOX - BLUE BOX", "ref": "8080700005"}, "type": "Feature"}
{"geometry": {"coordinates": [-102.268077, 39.302861], "type": "Point"}, "id": "UtYUBJnGf8kxDBaqf1eNSRvEqA8=", "properties": {"@spider": "usps_collection_boxes", "addr:city": "BURLINGTON", "addr:country": "US", "addr:full": "259 14TH ST", "addr:postcode": "80807", "addr:state": "CO", "brand": "USPS", "collection_times": "Mo-Sa 15:00", "name": "USPS COLLECTION BOX - PO LOBBY", "note": "ON 12/24 AND 12/31, THIS BOX MAY BE COLLECTED AS EARLY AS 12 NOON.", "ref": "8080700006"}, "type": "Feature"}
{"geometry": {"coordinates": [-102.268077, 39.302861], "type": "Point"}, "id": "2wm4h6GoeQEmQ3GCT0ZR7TcF13s=", "properties": {"@spider": "usps_collection_boxes", "addr:city": "BURLINGTON", "addr:country": "US", "addr:full": "259 14TH ST", "addr:postcode": "80807", "addr:state": "CO", "brand": "USPS", "collection_times": "Mo-Sa 15:00", "name": "USPS COLLECTION BOX - PO LOBBY", "note": "ON 12/24 AND 12/31, THIS BOX MAY BE COLLECTED AS EARLY AS 12 NOON.", "ref": "8080700007"}, "type": "Feature"}
{"geometry": {"coordinates": [-102.266013, 39.296496], "type": "Point"}, "id": "4iWo_0v6_rlHjwFnWzAhBDEHvwE=", "properties": {"@spider": "usps_collection_boxes", "addr:city": "BURLINGTON", "addr:country": "US", "addr:full": "48265 INTERSTATE 70", "addr:postcode": "80807", "addr:state": "CO", "brand": "USPS", "collection_times": "Mo-Sa 09:30", "name": "USPS COLLECTION BOX - BLUE BOX", "ref": "8080700009"}, "type": "Feature"}
{"geometry": {"coordinates": [-104.305466, 39.0349], "type": "Point"}, "id": "NaSb8wdKuTIJc0iqp_999VFj70I=", "properties": {"@spider": "usps_collection_boxes", "addr:city": "CALHAN", "addr:country": "US", "addr:full": "655 CASCADE ST", "addr:postcode": "80808", "addr:state": "CO", "brand": "USPS", "collection_times": "Mo-Fr 16:00; Sa 11:45", "name": "USPS COLLECTION BOX - BLUE BOX", "note": "ON 12/24 AND 12/31, THIS BOX MAY BE COLLECTED AS EARLY AS 12 NOON.", "ref": "8080800000"}, "type": "Feature"}
{"geometry": {"coordinates": [-104.390482, 38.838144], "type": "Point"}, "id": "p0Fhp5LitQA3vJIc1lsCxSxUky8=", "properties": {"@spider": "usps_collection_boxes", "addr:city": "CALHAN", "addr:country": "US", "addr:full": "23355 STATE HIGHWAY 94", "addr:postcode": "80808", "addr:state": "CO", "brand": "USPS", "collection_times": "Mo-Sa 10:00", "name": "USPS COLLECTION BOX - BLUE BOX", "ref": "8080800001"}, "type": "Feature"}
{"geometry": {"coordinates": [-104.305466, 39.0349], "type": "Point"}, "id": "i4AuTDRvlW0KmDK6wwLwu1KrRsI=", "properties": {"@spider": "usps_collection_boxes", "addr:city": "CALHAN", "addr:country": "US", "addr:full": "655 CASCADE ST", "addr:postcode": "80808", "addr:state": "CO", "brand": "USPS", "collection_times": "Mo-Fr 16:00; Sa 11:45", "name": "USPS COLLECTION BOX - PO LOBBY", "note": "ON 12/24 AND 12/31, THIS BOX MAY BE COLLECTED AS EARLY AS 12 NOON.", "ref": "8080800002"}, "type": "Feature"}
{"geometry": {"coordinates": [-104.305466, 39.0349], "type": "Point"}, "id": "-7rXcze3PzQm2MUUBuC7830VTHQ=", "properties": {"@spider": "usps_collection_boxes", "addr:city": "CALHAN", "addr:country": "US", "addr:full": "655 CASCADE ST", "addr:postcode": "80808", "addr:state": "CO", "brand": "USPS", "collection_times": "Mo-Fr 16:00; Sa 11:45", "name": "USPS COLLECTION BOX - PO LOBBY", "note": "ON 12/24 AND 12/31, THIS BOX MAY BE COLLECTED AS EARLY AS 12 NOON.", "ref": "8080800003"}, "type": "Feature"}
{"geometry": {"coordinates": [-104.969933, 38.895164], "type": "Point"}, "id": "O-N6bzAOJx8izERVo9iG9jF7Aiw=", "properties": {"@spider": "usps_collection_boxes", "addr:city": "CASCADE", "addr:country": "US", "addr:full": "8006 UTE PASS AVE", "addr:postcode": "80809", "addr:state": "CO", "brand": "USPS", "collection_times": "Mo-Fr 16:00; Sa 12:15", "name": "USPS COLLECTION BOX - PO LOBBY", "note": "ON 12/24 AND 12/31, THIS BOX MAY BE COLLECTED AS EARLY AS 12 NOON.", "ref": "8080900000"}, "type": "Feature"}
{"geometry": {"coordinates": [-104.969933, 38.895164], "type": "Point"}, "id": "9pgrpk2HBJvxHHz9yqmnL1Wn7Sg=", "properties": {"@spider": "usps_collection_boxes", "addr:city": "CASCADE", "addr:country": "US", "addr:full": "8006 UTE PASS AVE", "addr:postcode": "80809", "addr:state": "CO", "brand": "USPS", "collection_times": "Mo-Fr 16:00; Sa 12:15", "name": "USPS COLLECTION BOX - BLUE BOX", "note": "ON 12/24 AND 12/31, THIS BOX MAY BE COLLECTED AS EARLY AS 12 NOON.", "ref": "8080900001"}, "type": "Feature"}
{"geometry": {"coordinates": [-104.988786, 38.917766], "type": "Point"}, "id": "85guvJmD5Gq60ZVzP1baUAYzXVI=", "properties": {"@spider": "usps_collection_boxes", "addr:city": "CASCADE", "addr:country": "US", "addr:full": "9075 CHIPITA PARK RD", "addr:postcode": "80809", "addr:state": "CO", "brand": "USPS", "collection_times": "Mo-Fr 13:00; Sa 12:15", "name": "USPS COLLECTION BOX - BLUE BOX", "note": "ON 12/24 AND 12/31, THIS BOX MAY BE COLLECTED AS EARLY AS 12 NOON.", "ref": "8080900002"}, "type": "Feature"}
{"geometry": {"coordinates": [-102.34857, 38.821497], "type": "Point"}, "id": "NQq5G1oNZNYSfarGir8JluXpn9s=", "properties": {"@spider": "usps_collection_boxes", "addr:city": "CHEYENNE WELLS", "addr:country": "US", "addr:full": "90 E 1ST ST", "addr:postcode": "80810", "addr:state": "CO", "brand": "USPS", "collection_times": "Mo-Fr 15:30; Sa 11:45", "name": "USPS COLLECTION BOX - PO LOBBY", "note": "ON 12/24 AND 12/31, THIS BOX MAY BE COLLECTED AS EARLY AS 12 NOON.", "ref": "8081000001"}, "type": "Feature"}
{"geometry": {"coordinates": [-102.85087, 39.661431], "type": "Point"}, "id": "Hc9Ma2HNEod87VmceMsVWo5o0SY=", "properties": {"@spider": "usps_collection_boxes", "addr:city": "COPE", "addr:country": "US", "addr:full": "45537 MAIN ST", "addr:postcode": "80812", "addr:state": "CO", "brand": "USPS", "collection_times": "Mo-Fr 14:30; Sa 11:30", "name": "USPS COLLECTION BOX - BLUE BOX", "note": "ON 12/24 AND 12/31, THIS BOX MAY BE COLLECTED AS EARLY AS 12 NOON.", "ref": "8081200000"}, "type": "Feature"}
{"geometry": {"coordinates": [-102.85087, 39.661431], "type": "Point"}, "id": "agpI6COISHyhAgXeLZqkDEu66xI=", "properties": {"@spider": "usps_collection_boxes", "addr:city": "COPE", "addr:country": "US", "addr:full": "45537 MAIN ST", "addr:postcode": "80812", "addr:state": "CO", "brand": "USPS", "collection_times": "Mo-Fr 14:30; Sa 11:30", "name": "USPS COLLECTION BOX - PO LOBBY", "note": "ON 12/24 AND 12/31, THIS BOX MAY BE COLLECTED AS EARLY AS 12 NOON.", "ref": "8081200001"}, "type": "Feature"}
{"geometry": {"coordinates": [-105.185531, 38.74754], "type": "Point"}, "id": "q7Ci2Z9aWUTupajVJrIG_cYKUwA=", "properties": {"@spider": "usps_collection_boxes", "addr:city": "CRIPPLE CREEK", "addr:country": "US", "addr:full": "319 W CARR ST", "addr:postcode": "80813", "addr:state": "CO", "brand": "USPS", "collection_times": "Mo-Fr 15:45; Sa 11:45", "name": "USPS COLLECTION BOX - BLUE BOX", "note": "ON 12/24 AND 12/31, THIS BOX MAY BE COLLECTED AS EARLY AS 12 NOON.", "ref": "8081300000"}, "type": "Feature"}
{"geometry": {"coordinates": [-105.185531, 38.74754], "type": "Point"}, "id": "Gu_pSd6_MlYAM-2lxJEiVGcljBY=", "properties": {"@spider": "usps_collection_boxes", "addr:city": "CRIPPLE CREEK", "addr:country": "US", "addr:full": "319 W CARR ST", "addr:postcode": "80813", "addr:state": "CO", "brand": "USPS", "collection_times": "Mo-Fr 15:45; Sa 11:45", "name": "USPS COLLECTION BOX - EXPRESS", "note": "ON 12/24 AND 12/31, THIS BOX MAY BE COLLECTED AS EARLY AS 12 NOON.", "ref": "8081300001"}, "type": "Feature"}
{"geometry": {"coordinates": [-105.178556, 38.746684], "type": "Point"}, "id": "0WpYY4EoYqah52mbPyVoqIIHz5A=", "properties": {"@spider": "usps_collection_boxes", "addr:city": "CRIPPLE CREEK", "addr:country": "US", "addr:full": "153 E BENNETT AVE", "addr:postcode": "80813", "addr:state": "CO", "brand": "USPS", "collection_times": "Mo-Sa 11:45", "name": "USPS COLLECTION BOX - BLUE BOX", "ref": "8081300002"}, "type": "Feature"}
{"geometry": {"coordinates": [-105.174351, 38.746827], "type": "Point"}, "id": "LfAQ-HwqKr6ZwQ5_Tdqip8vuXyo=", "properties": {"@spider": "usps_collection_boxes", "addr:city": "CRIPPLE CREEK", "addr:country": "US", "addr:full": "411 BENNETT DR", "addr:postcode": "80813", "addr:state": "CO", "brand": "USPS", "collection_times": "Mo-Sa 11:45", "name": "USPS COLLECTION BOX - BLUE BOX", "ref": "8081300003"}, "type": "Feature"}
{"geometry": {"coordinates": [-105.185531, 38.74754], "type": "Point"}, "id": "xijG-8Gj8XBE9MM4elnf6vEYYjU=", "properties": {"@spider": "usps_collection_boxes", "addr:city": "CRIPPLE CREEK", "addr:country": "US", "addr:full": "319 W CARR ST", "addr:postcode": "80813", "addr:state": "CO", "brand": "USPS", "collection_times": "Mo-Fr 15:45; Sa 11:45", "name": "USPS COLLECTION BOX - PO LOBBY", "note": "ON 12/24 AND 12/31, THIS BOX MAY BE COLLECTED AS EARLY AS 12 NOON.", "ref": "8081300004"}, "type": "Feature"}
{"geometry": {"coordinates": [-105.185531, 38.74754], "type": "Point"}, "id": "VtYJUWrvaJzSye80n3g9w1S_eqk=", "properties": {"@spider": "usps_collection_boxes", "addr:city": "CRIPPLE CREEK", "addr:country": "US", "addr:full": "319 W CARR ST", "addr:postcode": "80813", "addr:state": "CO", "brand": "USPS", "collection_times": "Mo-Fr 15:45; Sa 11:45", "name": "USPS COLLECTION BOX - PO LOBBY", "note": "ON 12/24 AND 12/31, THIS BOX MAY BE COLLECTED AS EARLY AS 12 NOON.", "ref": "8081300005"}, "type": "Feature"}
{"geometry": {"coordinates": [-105.154475, 38.942462], "type": "Point"}, "id": "drwZ8MOrs1nO-yCezp5ryWBZCcI=", "properties": {"@spider": "usps_collection_boxes", "addr:city": "DIVIDE", "addr:country": "US", "addr:full": "66 HYBROOK RD S", "addr:postcode": "80814", "addr:state": "CO", "brand": "USPS", "collection_times": "Mo-Fr 17:00; Sa 11:45", "name": "USPS COLLECTION BOX - BLUE BOX", "note": "ON 12/24 AND 12/31, THIS BOX MAY BE COLLECTED AS EARLY AS 12 NOON.", "ref": "8081400000"}, "type": "Feature"}
{"geometry": {"coordinates": [-105.154475, 38.942462], "type": "Point"}, "id": "MK3KWH-sSJxxs3vfioIaLyuJWns=", "properties": {"@spider": "usps_collection_boxes", "addr:city": "DIVIDE", "addr:country": "US", "addr:full": "66 HYBROOK RD S", "addr:postcode": "80814", "addr:state": "CO", "brand": "USPS", "collection_times": "Mo-Fr 17:00; Sa 11:45", "name": "USPS COLLECTION BOX - PO LOBBY", "note": "ON 12/24 AND 12/31, THIS BOX MAY BE COLLECTED AS EARLY AS 12 NOON.", "ref": "8081400002"}, "type": "Feature"}
{"geometry": {"coordinates": [-105.154475, 38.942462], "type": "Point"}, "id": "1g6QUgu26_Qm9zF5DTg0LABkWLk=", "properties": {"@spider": "usps_collection_boxes", "addr:city": "DIVIDE", "addr:country": "US", "addr:full": "66 HYBROOK RD S", "addr:postcode": "80814", "addr:state": "CO", "brand": "USPS", "collection_times": "Mo-Fr 17:00; Sa 11:45", "name": "USPS COLLECTION BOX - BLUE BOX", "note": "ON 12/24 AND 12/31, THIS BOX MAY BE COLLECTED AS EARLY AS 12 NOON.", "ref": "8081400003"}, "type": "Feature"}
{"geometry": {"coordinates": [-103.067639, 39.29144], "type": "Point"}, "id": "fiLV3K19yGa3bSTrBT3Pmd1aKXk=", "properties": {"@spider": "usps_collection_boxes", "addr:city": "FLAGLER", "addr:country": "US", "addr:full": "315 MAIN AVE", "addr:postcode": "80815", "addr:state": "CO", "brand": "USPS", "collection_times": "Mo-Fr 16:00; Sa 11:00", "name": "USPS COLLECTION BOX - BLUE BOX", "note": "ON 12/24 AND 12/31, THIS BOX MAY BE COLLECTED AS EARLY AS 12 NOON.", "ref": "8081500000"}, "type": "Feature"}
{"geometry": {"coordinates": [-103.067639, 39.29144], "type": "Point"}, "id": "2CtGGlORROKwkVf6zvR-N-eWA8U=", "properties": {"@spider": "usps_collection_boxes", "addr:city": "FLAGLER", "addr:country": "US", "addr:full": "315 MAIN AVE", "addr:postcode": "80815", "addr:state": "CO", "brand": "USPS", "collection_times": "Mo-Fr 16:00; Sa 11:00", "name": "USPS COLLECTION BOX - PO LOBBY", "note": "ON 12/24 AND 12/31, THIS BOX MAY BE COLLECTED AS EARLY AS 12 NOON.", "ref": "8081500001"}, "type": "Feature"}
{"geometry": {"coordinates": [-105.2887821336, 38.9449147481], "type": "Point"}, "id": "CsKG_sXzvTWGqdz_ZyVOHpLv20c=", "properties": {"@spider": "usps_collection_boxes", "addr:city": "FLORISSANT", "addr:country": "US", "addr:full": "18101 COUNTY ROAD 1", "addr:postcode": "80816", "addr:state": "CO", "brand": "USPS", "collection_times": "Mo-Fr 16:00; Sa 11:15", "name": "USPS COLLECTION BOX - BLUE BOX", "note": "ON 12/24 AND 12/31, THIS BOX MAY BE COLLECTED AS EARLY AS 12 NOON.", "ref": "8081600000"}, "type": "Feature"}
{"geometry": {"coordinates": [-105.288739, 38.944922], "type": "Point"}, "id": "pqkezTMh4xVS_jSBFiLqkvdlep4=", "properties": {"@spider": "usps_collection_boxes", "addr:city": "FLORISSANT", "addr:country": "US", "addr:full": "18101 COUNTY ROAD 1", "addr:postcode": "80816", "addr:state": "CO", "brand": "USPS", "collection_times": "Mo-Fr 16:00; Sa 11:15", "name": "USPS COLLECTION BOX - PO LOBBY", "note": "ON 12/24 AND 12/31, THIS BOX MAY BE COLLECTED AS EARLY AS 12 NOON.", "ref": "8081600001"}, "type": "Feature"}
{"geometry": {"coordinates": [-105.264307, 38.883331], "type": "Point"}, "id": "spnYBmRZMfc-ZGskvxjTe-j8zwI=", "properties": {"@spider": "usps_collection_boxes", "addr:city": "FLORISSANT", "addr:country": "US", "addr:full": "473 N MOUNTAIN ESTS", "addr:postcode": "80816", "addr:state": "CO", "brand": "USPS", "collection_times": "Mo-Sa 10:30", "name": "USPS COLLECTION BOX - BLUE BOX", "ref": "8081600002"}, "type": "Feature"}
{"geometry": {"coordinates": [-104.704738, 38.682748], "type": "Point"}, "id": "zkgwrZ4gQzZTz8uQycSkKtaubUQ=", "properties": {"@spider": "usps_collection_boxes", "addr:city": "FOUNTAIN", "addr:country": "US", "addr:full": "101 S SANTA FE AVE", "addr:postcode": "80817", "addr:state": "CO", "brand": "USPS", "collection_times": "Mo-Fr 17:00; Sa 15:15", "name": "USPS COLLECTION BOX - BLUE BOX", "note": "ON 12/24 AND 12/31, THIS BOX MAY BE COLLECTED AS EARLY AS 12 NOON.", "ref": "8081700000"}, "type": "Feature"}
{"geometry": {"coordinates": [-104.704597, 38.68283], "type": "Point"}, "id": "SBs6O1R0iW91di-cYXPnqOokT68=", "properties": {"@spider": "usps_collection_boxes", "addr:city": "FOUNTAIN", "addr:country": "US", "addr:full": "101 S SANTA FE AVE", "addr:postcode": "80817", "addr:state": "CO", "brand": "USPS", "collection_times": "Mo-Fr 16:00; Sa 15:15", "name": "USPS COLLECTION BOX - PO LOBBY", "note": "ON 12/24 AND 12/31, THIS BOX MAY BE COLLECTED AS EARLY AS 12 NOON.", "ref": "8081700001"}, "type": "Feature"}
{"geometry": {"coordinates": [-104.697309, 38.693824], "type": "Point"}, "id": "R_bi-JAz_ESI9Y9n-JIw5YF8fOc=", "properties": {"@spider": "usps_collection_boxes", "addr:city": "FOUNTAIN", "addr:country": "US", "addr:full": "995 LAKE AVE", "addr:postcode": "80817", "addr:state": "CO", "brand": "USPS", "collection_times": "Mo-Sa 11:15", "name": "USPS COLLECTION BOX - BLUE BOX", "ref": "8081700003"}, "type": "Feature"}
{"geometry": {"coordinates": [-104.708659, 38.675047], "type": "Point"}, "id": "xejqTkkKq4gEaoZ-JloQ1a7bRec=", "properties": {"@spider": "usps_collection_boxes", "addr:city": "FOUNTAIN", "addr:country": "US", "addr:full": "504 ROYALTY PL", "addr:postcode": "80817", "addr:state": "CO", "brand": "USPS", "collection_times": "Mo-Sa 10:00", "name": "USPS COLLECTION BOX - BLUE BOX", "ref": "8081700004"}, "type": "Feature"}
{"geometry": {"coordinates": [-104.712231, 38.672491], "type": "Point"}, "id": "t0Ew0Qt_jVEAO4H0T6SsN8dkp1s=", "properties": {"@spider": "usps_collection_boxes", "addr:city": "FOUNTAIN", "addr:country": "US", "addr:full": "1103 S SANTA FE AVE", "addr:postcode": "80817", "addr:state": "CO", "brand": "USPS", "collection_times": "Mo-Sa 10:00", "name": "USPS COLLECTION BOX - BLUE BOX", "ref": "8081700005"}, "type": "Feature"}
{"geometry": {"coordinates": [-104.734789, 38.739552], "type": "Point"}, "id": "oMdH1iPnNs4JGx-qph0I89mBoh8=", "properties": {"@spider": "usps_collection_boxes", "addr:city": "FOUNTAIN", "addr:country": "US", "addr:full": "6300 S US HIGHWAY 85-87", "addr:postcode": "80817", "addr:state": "CO", "brand": "USPS", "collection_times": "Mo-Sa 10:00", "name": "USPS COLLECTION BOX - BLUE BOX", "ref": "8081700007"}, "type": "Feature"}
{"geometry": {"coordinates": [-104.700546, 38.682221], "type": "Point"}, "id": "xELDN8tFjxi_TRSqnGbbkixf6uY=", "properties": {"@spider": "usps_collection_boxes", "addr:city": "FOUNTAIN", "addr:country": "US", "addr:full": "202 S MAIN ST", "addr:postcode": "80817", "addr:state": "CO", "brand": "USPS", "collection_times": "Mo-Sa 11:35", "name": "USPS COLLECTION BOX - BLUE BOX", "ref": "8081700008"}, "type": "Feature"}
{"geometry": {"coordinates": [-104.724787, 38.729516], "type": "Point"}, "id": "hElP_jr3HJ8ATHc-i9YIjylGTGQ=", "properties": {"@spider": "usps_collection_boxes", "addr:city": "FOUNTAIN", "addr:country": "US", "addr:full": "7055 ALEGRE ST", "addr:postcode": "80817", "addr:state": "CO", "brand": "USPS", "collection_times": "Mo-Sa 09:05", "name": "USPS COLLECTION BOX - BLUE BOX", "ref": "8081700009"}, "type": "Feature"}
{"geometry": {"coordinates": [-104.698863, 38.715868], "type": "Point"}, "id": "NC-89IwPh9VcrqOO-cDGsRSoyEA=", "properties": {"@spider": "usps_collection_boxes", "addr:city": "FOUNTAIN", "addr:country": "US", "addr:full": "6925 MESA RIDGE PKWY", "addr:postcode": "80817", "addr:state": "CO", "brand": "USPS", "collection_times": "Mo-Fr 11:00; Sa 10:30", "name": "USPS COLLECTION BOX - BLUE BOX", "ref": "8081700010"}, "type": "Feature"}
{"geometry": {"coordinates": [-103.500556, 39.27787], "type": "Point"}, "id": "2IZPkNA9OkrL7SvxGd2wk5TSj4k=", "properties": {"@spider": "usps_collection_boxes", "addr:city": "GENOA", "addr:country": "US", "addr:full": "217 MAIN ST", "addr:postcode": "80818", "addr:state": "CO", "brand": "USPS", "collection_times": "Mo-Fr 11:15; Sa 11:30", "name": "USPS COLLECTION BOX - BLUE BOX", "ref": "8081800001"}, "type": "Feature"}
{"geometry": {"coordinates": [-103.500556, 39.27787], "type": "Point"}, "id": "gHxo_MdX3TAfxjULmi3M6NkQS_Y=", "properties": {"@spider": "usps_collection_boxes", "addr:city": "GENOA", "addr:country": "US", "addr:full": "217 MAIN ST", "addr:postcode": "80818", "addr:state": "CO", "brand": "USPS", "collection_times": "Mo-Sa 11:15", "name": "USPS COLLECTION BOX - PO LOBBY", "ref": "8081800002"}, "type": "Feature"}
{"geometry": {"coordinates": [-105.015574, 38.934456], "type": "Point"}, "id": "jZF0WIXOyxURmw0E3OJbeoybX3o=", "properties": {"@spider": "usps_collection_boxes", "addr:city": "GREEN MTN FLS", "addr:country": "US", "addr:full": "10560 UTE PASS AVE", "addr:postcode": "80819", "addr:state": "CO", "brand": "USPS", "collection_times": "Mo-Fr 16:30; Sa 11:30", "name": "USPS COLLECTION BOX - BLUE BOX", "note": "ON 12/24 AND 12/31, THIS BOX MAY BE COLLECTED AS EARLY AS 12 NOON.", "ref": "8081900000"}, "type": "Feature"}
{"geometry": {"coordinates": [-105.015588, 38.934428], "type": "Point"}, "id": "DGQCKW9UL94THeA3JQNxt1A4s4w=", "properties": {"@spider": "usps_collection_boxes", "addr:city": "GREEN MTN FLS", "addr:country": "US", "addr:full": "10560 UTE PASS AVE", "addr:postcode": "80819", "addr:state": "CO", "brand": "USPS", "collection_times": "Mo-Fr 15:15; Sa 11:30", "name": "USPS COLLECTION BOX - PO LOBBY", "note": "ON 12/24 AND 12/31, THIS BOX MAY BE COLLECTED AS EARLY AS 12 NOON.", "ref": "8081900001"}, "type": "Feature"}
{"geometry": {"coordinates": [-105.522558, 38.751725], "type": "Point"}, "id": "Wfjr0HgAyTpie2utU9oAQb22u2A=", "properties": {"@spider": "usps_collection_boxes", "addr:city": "GUFFEY", "addr:country": "US", "addr:full": "1517 CANYON ST", "addr:postcode": "80820", "addr:state": "CO", "brand": "USPS", "collection_times": "Mo-Fr 12:00; Sa 11:45", "name": "USPS COLLECTION BOX - BLUE BOX", "ref": "8082000000"}, "type": "Feature"}
{"geometry": {"coordinates": [-103.268335, 38.936775], "type": "Point"}, "id": "gtclPL1RpWfQCR6v9ro8swIiLn4=", "properties": {"@spider": "usps_collection_boxes", "addr:city": "HUGO", "addr:country": "US", "addr:full": "1 LINCOLN CR", "addr:postcode": "80821", "addr:state": "CO", "brand": "USPS", "collection_times": "Mo-Sa 10:10", "name": "USPS COLLECTION BOX - BLUE BOX", "ref": "8082100000"}, "type": "Feature"}
{"geometry": {"coordinates": [-103.468783, 39.134943], "type": "Point"}, "id": "N0ffTD6TSWjQTFgjlpY9uUSTGE8=", "properties": {"@spider": "usps_collection_boxes", "addr:city": "HUGO", "addr:country": "US", "addr:full": "422 4TH AVE", "addr:postcode": "80821", "addr:state": "CO", "brand": "USPS", "collection_times": "Mo-Fr 16:00; Sa 11:45", "name": "USPS COLLECTION BOX - PO LOBBY", "note": "ON 12/24 AND 12/31, THIS BOX MAY BE COLLECTED AS EARLY AS 12 NOON.", "ref": "8082100001"}, "type": "Feature"}
{"geometry": {"coordinates": [-103.468783, 39.134943], "type": "Point"}, "id": "2tqoLYGQtPJtgdrTMEht8J2QfzE=", "properties": {"@spider": "usps_collection_boxes", "addr:city": "HUGO", "addr:country": "US", "addr:full": "422 4TH AVE", "addr:postcode": "80821", "addr:state": "CO", "brand": "USPS", "collection_times": "Mo-Fr 16:45; Sa 12:00", "name": "USPS COLLECTION BOX - BLUE BOX", "note": "ON 12/24 AND 12/31, THIS BOX MAY BE COLLECTED AS EARLY AS 12 NOON.", "ref": "8082100002"}, "type": "Feature"}
{"geometry": {"coordinates": [-103.468783, 39.134943], "type": "Point"}, "id": "9CCEH-0m4xX32hT-bml1WnP-uoY=", "properties": {"@spider": "usps_collection_boxes", "addr:city": "HUGO", "addr:country": "US", "addr:full": "422 4TH AVE", "addr:postcode": "80821", "addr:state": "CO", "brand": "USPS", "collection_times": "Mo-Fr 16:00; Sa 11:45", "name": "USPS COLLECTION BOX - BLUE BOX", "note": "ON 12/24 AND 12/31, THIS BOX MAY BE COLLECTED AS EARLY AS 12 NOON.", "ref": "8082100003"}, "type": "Feature"}
{"geometry": {"coordinates": [-102.679621, 39.655968], "type": "Point"}, "id": "8J6kTfY2JNPgx-wSJj9WTdUpEpk=", "properties": {"@spider": "usps_collection_boxes", "addr:city": "JOES", "addr:country": "US", "addr:full": "6461 US HIGHWAY 36", "addr:postcode": "80822", "addr:state": "CO", "brand": "USPS", "collection_times": "Mo-Fr 14:40; Sa 11:15", "name": "USPS COLLECTION BOX - BLUE BOX", "note": "ON 12/24 AND 12/31, THIS BOX MAY BE COLLECTED AS EARLY AS 12 NOON.", "ref": "8082200000"}, "type": "Feature"}
{"geometry": {"coordinates": [-102.679621, 39.655968], "type": "Point"}, "id": "TpEvyUOp-c88cEs4ZjCMtiNFbrY=", "properties": {"@spider": "usps_collection_boxes", "addr:city": "JOES", "addr:country": "US", "addr:full": "6461 US HIGHWAY 36", "addr:postcode": "80822", "addr:state": "CO", "brand": "USPS", "collection_times": "Mo-Fr 14:40; Sa 11:15", "name": "USPS COLLECTION BOX - PO LOBBY", "note": "ON 12/24 AND 12/31, THIS BOX MAY BE COLLECTED AS EARLY AS 12 NOON.", "ref": "8082200002"}, "type": "Feature"}
{"geometry": {"coordinates": [-103.537311, 38.734467], "type": "Point"}, "id": "67XMXB_en4JjiUzRT_Gzf6db5WQ=", "properties": {"@spider": "usps_collection_boxes", "addr:city": "KARVAL", "addr:country": "US", "addr:full": "28913 COUNTY ROAD S", "addr:postcode": "80823", "addr:state": "CO", "brand": "USPS", "collection_times": "Mo-Fr 13:00; Sa 12:00", "name": "USPS COLLECTION BOX - BLUE BOX", "note": "ON 12/24 AND 12/31, THIS BOX MAY BE COLLECTED AS EARLY AS 12 NOON.", "ref": "8082300000"}, "type": "Feature"}
{"geometry": {"coordinates": [-103.537311, 38.734467], "type": "Point"}, "id": "uHL-uqt4z2jzTTwjB_LZwKAqBLM=", "properties": {"@spider": "usps_collection_boxes", "addr:city": "KARVAL", "addr:country": "US", "addr:full": "28913 COUNTY ROAD S", "addr:postcode": "80823", "addr:state": "CO", "brand": "USPS", "collection_times": "Mo-Fr 13:00; Sa 12:00", "name": "USPS COLLECTION BOX - PO LOBBY", "note": "ON 12/24 AND 12/31, THIS BOX MAY BE COLLECTED AS EARLY AS 12 NOON.", "ref": "8082300001"}, "type": "Feature"}
{"geometry": {"coordinates": [-102.59141, 39.612693], "type": "Point"}, "id": "1CqlMUGRpCe2Tjol3t1ZrL3rci8=", "properties": {"@spider": "usps_collection_boxes", "addr:city": "KIRK", "addr:country": "US", "addr:full": "11028 COUNTY ROAD 3", "addr:postcode": "80824", "addr:state": "CO", "brand": "USPS", "collection_times": "Mo-Fr 14:45; Sa 10:15", "name": "USPS COLLECTION BOX - BLUE BOX", "note": "ON 12/24 AND 12/31, THIS BOX MAY BE COLLECTED AS EARLY AS 12 NOON.", "ref": "8082400000"}, "type": "Feature"}
{"geometry": {"coordinates": [-102.59141, 39.612693], "type": "Point"}, "id": "NEPA03wUVZv_BhWHSkNBXfyaWjM=", "properties": {"@spider": "usps_collection_boxes", "addr:city": "KIRK", "addr:country": "US", "addr:full": "11028 COUNTY ROAD 3", "addr:postcode": "80824", "addr:state": "CO", "brand": "USPS", "collection_times": "Mo-Fr 14:45; Sa 10:15", "name": "USPS COLLECTION BOX - PO LOBBY", "note": "ON 12/24 AND 12/31, THIS BOX MAY BE COLLECTED AS EARLY AS 12 NOON.", "ref": "8082400002"}, "type": "Feature"}
{"geometry": {"coordinates": [-102.791927, 38.76297], "type": "Point"}, "id": "zUCwG5N_l0_QiETwCO_jdgfz5Rk=", "properties": {"@spider": "usps_collection_boxes", "addr:city": "KIT CARSON", "addr:country": "US", "addr:full": "104 MAIN ST", "addr:postcode": "80825", "addr:state": "CO", "brand": "USPS", "collection_times": "Mo-Fr 15:30; Sa 11:15", "name": "USPS COLLECTION BOX - BLUE BOX", "note": "ON 12/24 AND 12/31, THIS BOX MAY BE COLLECTED AS EARLY AS 12 NOON.", "ref": "8082500000"}, "type": "Feature"}
{"geometry": {"coordinates": [-102.791927, 38.76297], "type": "Point"}, "id": "WgZI4do66G_vfnZ0wsRbBslNXFk=", "properties": {"@spider": "usps_collection_boxes", "addr:city": "KIT CARSON", "addr:country": "US", "addr:full": "104 MAIN ST", "addr:postcode": "80825", "addr:state": "CO", "brand": "USPS", "collection_times": "Mo-Fr 12:00; Sa 11:15", "name": "USPS COLLECTION BOX - PO LOBBY", "ref": "8082500001"}, "type": "Feature"}
{"geometry": {"coordinates": [-105.368426, 38.992944], "type": "Point"}, "id": "osrplhPEI6gxgs50NMKL0nqgMZE=", "properties": {"@spider": "usps_collection_boxes", "addr:city": "LAKE GEORGE", "addr:country": "US", "addr:full": "37370 US HIGHWAY 24", "addr:postcode": "80827", "addr:state": "CO", "brand": "USPS", "collection_times": "Mo-Fr 14:15; Sa 10:45", "name": "USPS COLLECTION BOX - BLUE BOX", "note": "ON 12/24 AND 12/31, THIS BOX MAY BE COLLECTED AS EARLY AS 12 NOON.", "ref": "8082700000"}, "type": "Feature"}
{"geometry": {"coordinates": [-105.368426, 38.992944], "type": "Point"}, "id": "tX0RmxFH_AlGe0fkGUz40c24yH0=", "properties": {"@spider": "usps_collection_boxes", "addr:city": "LAKE GEORGE", "addr:country": "US", "addr:full": "37370 US HIGHWAY 24", "addr:postcode": "80827", "addr:state": "CO", "brand": "USPS", "collection_times": "Mo-Fr 14:15; Sa 10:45", "name": "USPS COLLECTION BOX - PO LOBBY", "note": "ON 12/24 AND 12/31, THIS BOX MAY BE COLLECTED AS EARLY AS 12 NOON.", "ref": "8082700001"}, "type": "Feature"}
{"geometry": {"coordinates": [-103.7075602834, 39.2760722483], "type": "Point"}, "id": "z_Xx6ZcxoMswJY49JQBr-eGAP-s=", "properties": {"@spider": "usps_collection_boxes", "addr:city": "LIMON", "addr:country": "US", "addr:full": "2495 WILLIAMS AVE", "addr:postcode": "80828", "addr:state": "CO", "brand": "USPS", "collection_times": "Mo-Sa 09:30", "name": "USPS COLLECTION BOX - BLUE BOX", "ref": "8082800000"}, "type": "Feature"}
{"geometry": {"coordinates": [-103.689196, 39.26223], "type": "Point"}, "id": "2DqtgwztVUmyYnXzvC7lDLh17KQ=", "properties": {"@spider": "usps_collection_boxes", "addr:city": "LIMON", "addr:country": "US", "addr:full": "250 F AVE", "addr:postcode": "80828", "addr:state": "CO", "brand": "USPS", "collection_times": "Mo-Fr 17:00; Sa 11:45", "name": "USPS COLLECTION BOX - BLUE BOX", "note": "ON 12/24 AND 12/31, THIS BOX MAY BE COLLECTED AS EARLY AS 12 NOON.", "ref": "8082800001"}, "type": "Feature"}
{"geometry": {"coordinates": [-103.70867, 39.269463], "type": "Point"}, "id": "dlESQ2Sl2ZxT9iVu7p3fTlEOQv0=", "properties": {"@spider": "usps_collection_boxes", "addr:city": "LIMON", "addr:country": "US", "addr:full": "2380 W 6TH", "addr:postcode": "80828", "addr:state": "CO", "brand": "USPS", "collection_times": "Mo-Sa 09:30", "name": "USPS COLLECTION BOX - BLUE BOX", "ref": "8082800003"}, "type": "Feature"}
{"geometry": {"coordinates": [-103.706775, 39.271168], "type": "Point"}, "id": "LFF4lW5UjEdNcDNpYh9T62SikFY=", "properties": {"@spider": "usps_collection_boxes", "addr:city": "LIMON", "addr:country": "US", "addr:full": "0 HWY 24 AND I-70", "addr:postcode": "80828", "addr:state": "CO", "brand": "USPS", "collection_times": "Mo-Sa 09:30", "name": "USPS COLLECTION BOX - BLUE BOX", "ref": "8082800004"}, "type": "Feature"}
{"geometry": {"coordinates": [-103.689196, 39.26223], "type": "Point"}, "id": "RqkojVdgha061GVsHaMHFfyrpp8=", "properties": {"@spider": "usps_collection_boxes", "addr:city": "LIMON", "addr:country": "US", "addr:full": "250 F AVE", "addr:postcode": "80828", "addr:state": "CO", "brand": "USPS", "collection_times": "Mo-Fr 17:00; Sa 11:45", "name": "USPS COLLECTION BOX - BLUE BOX", "note": "ON 12/24 AND 12/31, THIS BOX MAY BE COLLECTED AS EARLY AS 12 NOON.", "ref": "8082800005"}, "type": "Feature"}
{"geometry": {"coordinates": [-103.689196, 39.26223], "type": "Point"}, "id": "d25XvGsLWLD-IQ8YfogW74IGoJM=", "properties": {"@spider": "usps_collection_boxes", "addr:city": "LIMON", "addr:country": "US", "addr:full": "250 F AVE", "addr:postcode": "80828", "addr:state": "CO", "brand": "USPS", "collection_times": "Mo-Fr 17:00; Sa 11:45", "name": "USPS COLLECTION BOX - PO LOBBY", "note": "ON 12/24 AND 12/31, THIS BOX MAY BE COLLECTED AS EARLY AS 12 NOON.", "ref": "8082800006"}, "type": "Feature"}
{"geometry": {"coordinates": [-103.689196, 39.26223], "type": "Point"}, "id": "JokYiK91ReiYA1CYNo-scTNuHts=", "properties": {"@spider": "usps_collection_boxes", "addr:city": "LIMON", "addr:country": "US", "addr:full": "250 F AVE", "addr:postcode": "80828", "addr:state": "CO", "brand": "USPS", "collection_times": "Mo-Fr 17:00; Sa 11:45", "name": "USPS COLLECTION BOX - PO LOBBY", "note": "ON 12/24 AND 12/31, THIS BOX MAY BE COLLECTED AS EARLY AS 12 NOON.", "ref": "8082800007"}, "type": "Feature"}
{"geometry": {"coordinates": [-103.689196, 39.26223], "type": "Point"}, "id": "JRWfEbgz2z_3JJkgtUKT9mpYJ5s=", "properties": {"@spider": "usps_collection_boxes", "addr:city": "LIMON", "addr:country": "US", "addr:full": "250 F AVE", "addr:postcode": "80828", "addr:state": "CO", "brand": "USPS", "collection_times": "Mo-Fr 17:00; Sa 11:45", "name": "USPS COLLECTION BOX - PO LOBBY", "note": "ON 12/24 AND 12/31, THIS BOX MAY BE COLLECTED AS EARLY AS 12 NOON.", "ref": "8082800008"}, "type": "Feature"}
{"geometry": {"coordinates": [-104.917794, 38.859861], "type": "Point"}, "id": "StvuDLsY6751u3WegNG3sZ6ifC4=", "properties": {"@spider": "usps_collection_boxes", "addr:city": "MANITOU SPRINGS", "addr:country": "US", "addr:full": "307 CANON AVE", "addr:postcode": "80829", "addr:state": "CO", "brand": "USPS", "collection_times": "Mo-Fr 17:00; Sa 12:00", "name": "USPS COLLECTION BOX - BLUE BOX", "note": "ON 12/24 AND 12/31, THIS BOX MAY BE COLLECTED AS EARLY AS 12 NOON.", "ref": "8082900000"}, "type": "Feature"}
{"geometry": {"coordinates": [-104.89458, 38.858286], "type": "Point"}, "id": "bUM97tOOk1Im6PcHq_bjAdrQ75k=", "properties": {"@spider": "usps_collection_boxes", "addr:city": "MANITOU SPRINGS", "addr:country": "US", "addr:full": "137 MANITOU AVE", "addr:postcode": "80829", "addr:state": "CO", "brand": "USPS", "collection_times": "Mo-Fr 13:30; Sa 13:00", "name": "USPS COLLECTION BOX - BLUE BOX", "note": "ON 12/24 AND 12/31, THIS BOX MAY BE COLLECTED AS EARLY AS 12 NOON.", "ref": "8082900003"}, "type": "Feature"}
{"geometry": {"coordinates": [-104.919264, 38.858996], "type": "Point"}, "id": "3tnIiD44JhMT1atWsc9NpDaG6qM=", "properties": {"@spider": "usps_collection_boxes", "addr:city": "MANITOU SPRINGS", "addr:country": "US", "addr:full": "951 MANITOU AVE", "addr:postcode": "80829", "addr:state": "CO", "brand": "USPS", "collection_times": "Mo-Fr 14:00; Sa 13:00", "name": "USPS COLLECTION BOX - BLUE BOX", "note": "ON 12/24 AND 12/31, THIS BOX MAY BE COLLECTED AS EARLY AS 12 NOON.", "ref": "8082900004"}, "type": "Feature"}
{"geometry": {"coordinates": [-104.91641, 38.857969], "type": "Point"}, "id": "yxjxPVYITpayCWR2DXOb1lyS-60=", "properties": {"@spider": "usps_collection_boxes", "addr:city": "MANITOU SPRINGS", "addr:country": "US", "addr:full": "802 MANITOU AVE", "addr:postcode": "80829", "addr:state": "CO", "brand": "USPS", "collection_times": "Mo-Fr 13:45; Sa 13:00", "name": "USPS COLLECTION BOX - BLUE BOX", "note": "ON 12/24 AND 12/31, THIS BOX MAY BE COLLECTED AS EARLY AS 12 NOON.", "ref": "8082900005"}, "type": "Feature"}
{"geometry": {"coordinates": [-104.903097, 38.857581], "type": "Point"}, "id": "k2KN1ES2ICJ2KDx9iuaEgRetkpM=", "properties": {"@spider": "usps_collection_boxes", "addr:city": "MANITOU SPRINGS", "addr:country": "US", "addr:full": "354 MANITOU AVE", "addr:postcode": "80829", "addr:state": "CO", "brand": "USPS", "collection_times": "Mo-Fr 14:00; Sa 13:00", "name": "USPS COLLECTION BOX - BLUE BOX", "note": "ON 12/24 AND 12/31, THIS BOX MAY BE COLLECTED AS EARLY AS 12 NOON.", "ref": "8082900006"}, "type": "Feature"}
{"geometry": {"coordinates": [-104.917794, 38.859861], "type": "Point"}, "id": "vCFjbfiqvB6NslAp3XXvxW0u7Ds=", "properties": {"@spider": "usps_collection_boxes", "addr:city": "MANITOU SPRINGS", "addr:country": "US", "addr:full": "307 CANON AVE", "addr:postcode": "80829", "addr:state": "CO", "brand": "USPS", "collection_times": "Mo-Fr 16:30; Sa 12:00", "name": "USPS COLLECTION BOX - PO LOBBY", "note": "ON 12/24 AND 12/31, THIS BOX MAY BE COLLECTED AS EARLY AS 12 NOON.", "ref": "8082900009"}, "type": "Feature"}
{"geometry": {"coordinates": [-104.917794, 38.859861], "type": "Point"}, "id": "5CKjxoOEJubCWexSyCrUdJ4ccNE=", "properties": {"@spider": "usps_collection_boxes", "addr:city": "MANITOU SPRINGS", "addr:country": "US", "addr:full": "307 CANON AVE", "addr:postcode": "80829", "addr:state": "CO", "brand": "USPS", "collection_times": "Mo-Fr 16:30; Sa 12:00", "name": "USPS COLLECTION BOX - PO LOBBY", "note": "ON 12/24 AND 12/31, THIS BOX MAY BE COLLECTED AS EARLY AS 12 NOON.", "ref": "8082900010"}, "type": "Feature"}
{"geometry": {"coordinates": [-103.974591, 39.172046], "type": "Point"}, "id": "9HeSgd3kwj9soPxls68nggrvZ9Q=", "properties": {"@spider": "usps_collection_boxes", "addr:city": "MATHESON", "addr:country": "US", "addr:full": "37021 BROADWAY AVE", "addr:postcode": "80830", "addr:state": "CO", "brand": "USPS", "collection_times": "Mo-Fr 14:00; Sa 10:15", "name": "USPS COLLECTION BOX - BLUE BOX", "note": "ON 12/24 AND 12/31, THIS BOX MAY BE COLLECTED AS EARLY AS 12 NOON.", "ref": "8083000000"}, "type": "Feature"}
{"geometry": {"coordinates": [-103.974591, 39.172046], "type": "Point"}, "id": "N5YXtPiacOZKGcKOZecFjdUfXwg=", "properties": {"@spider": "usps_collection_boxes", "addr:city": "MATHESON", "addr:country": "US", "addr:full": "37021 BROADWAY AVE", "addr:postcode": "80830", "addr:state": "CO", "brand": "USPS", "collection_times": "Mo-Fr 11:45; Sa 10:15", "name": "USPS COLLECTION BOX - PO LOBBY", "ref": "8083000001"}, "type": "Feature"}
{"geometry": {"coordinates": [-104.483959, 39.026392], "type": "Point"}, "id": "Wp5pW1-bwhxtwMZYdtINPwyBPX8=", "properties": {"@spider": "usps_collection_boxes", "addr:city": "PEYTON", "addr:country": "US", "addr:full": "13055 BRADSHAW RD", "addr:postcode": "80831", "addr:state": "CO", "brand": "USPS", "collection_times": "Mo-Fr 16:00; Sa 12:00", "name": "USPS COLLECTION BOX - PO LOBBY", "note": "ON 12/24 AND 12/31, THIS BOX MAY BE COLLECTED AS EARLY AS 12 NOON.", "ref": "8083100000"}, "type": "Feature"}
{"geometry": {"coordinates": [-104.484052, 39.026381], "type": "Point"}, "id": "crZTqvoUa_QD7rcPae1gzkmm4ZY=", "properties": {"@spider": "usps_collection_boxes", "addr:city": "PEYTON", "addr:country": "US", "addr:full": "13055 BRADSHAW RD", "addr:postcode": "80831", "addr:state": "CO", "brand": "USPS", "collection_times": "Mo-Fr 16:00; Sa 12:00", "name": "USPS COLLECTION BOX - BLUE BOX", "note": "ON 12/24 AND 12/31, THIS BOX MAY BE COLLECTED AS EARLY AS 12 NOON.", "ref": "8083100001"}, "type": "Feature"}
{"geometry": {"coordinates": [-104.601661, 38.941261], "type": "Point"}, "id": "_pCVJF4XoIRgWXH6NM8pukTaGvk=", "properties": {"@spider": "usps_collection_boxes", "addr:city": "PEYTON", "addr:country": "US", "addr:full": "7655 MCLAUGHLIN RD", "addr:postcode": "80831", "addr:state": "CO", "brand": "USPS", "collection_times": "Mo-Fr 13:00; Sa 12:00", "name": "USPS COLLECTION BOX - BLUE BOX", "note": "ON 12/24 AND 12/31, THIS BOX MAY BE COLLECTED AS EARLY AS 12 NOON.", "ref": "8083100003"}, "type": "Feature"}
{"geometry": {"coordinates": [-104.484052, 39.026381], "type": "Point"}, "id": "5LDIIsy4zvAs75q-Xy30MPteiCU=", "properties": {"@spider": "usps_collection_boxes", "addr:city": "PEYTON", "addr:country": "US", "addr:full": "13055 BRADSHAW RD", "addr:postcode": "80831", "addr:state": "CO", "brand": "USPS", "collection_times": "Mo-Fr 16:00; Sa 12:00", "name": "USPS COLLECTION BOX - BLUE BOX", "note": "ON 12/24 AND 12/31, THIS BOX MAY BE COLLECTED AS EARLY AS 12 NOON.", "ref": "8083100004"}, "type": "Feature"}
{"geometry": {"coordinates": [-104.612215, 38.939632], "type": "Point"}, "id": "9X2ZSuUFMA-r8RKvHAgbHpqWhag=", "properties": {"@spider": "usps_collection_boxes", "addr:city": "PEYTON", "addr:country": "US", "addr:full": "11550 MERIDIAN MARKET VW", "addr:postcode": "80831", "addr:state": "CO", "brand": "USPS", "collection_times": "Mo-Fr 13:00; Sa 12:00", "name": "USPS COLLECTION BOX - BLUE BOX", "note": "ON 12/24 AND 12/31, THIS BOX MAY BE COLLECTED AS EARLY AS 12 NOON.", "ref": "8083100005"}, "type": "Feature"}
{"geometry": {"coordinates": [-104.484052, 39.026381], "type": "Point"}, "id": "cIlsZik86h4uioMVnMbEMySNnAs=", "properties": {"@spider": "usps_collection_boxes", "addr:city": "PEYTON", "addr:country": "US", "addr:full": "13055 BRADSHAW RD", "addr:postcode": "80831", "addr:state": "CO", "brand": "USPS", "collection_times": "Mo-Fr 16:00; Sa 12:00", "name": "USPS COLLECTION BOX - PO LOBBY", "note": "ON 12/24 AND 12/31, THIS BOX MAY BE COLLECTED AS EARLY AS 12 NOON.", "ref": "8083100006"}, "type": "Feature"}
{"geometry": {"coordinates": [-104.167907, 39.12218], "type": "Point"}, "id": "IXg1lYkxfWPTX7mc8Th5q5a1fkY=", "properties": {"@spider": "usps_collection_boxes", "addr:city": "RAMAH", "addr:country": "US", "addr:full": "2 S COMMERCIAL ST", "addr:postcode": "80832", "addr:state": "CO", "brand": "USPS", "collection_times": "Mo-Fr 11:45; Sa 10:15", "name": "USPS COLLECTION BOX - BLUE BOX", "ref": "8083200000"}, "type": "Feature"}
{"geometry": {"coordinates": [-104.167907, 39.12218], "type": "Point"}, "id": "VczFkPNZeXYdf0E6o_epRAZS2EE=", "properties": {"@spider": "usps_collection_boxes", "addr:city": "RAMAH", "addr:country": "US", "addr:full": "2 S COMMERCIAL ST", "addr:postcode": "80832", "addr:state": "CO", "brand": "USPS", "collection_times": "Mo-Fr 11:45; Sa 10:15", "name": "USPS COLLECTION BOX - PO LOBBY", "ref": "8083200001"}, "type": "Feature"}
{"geometry": {"coordinates": [-104.092079, 38.839447], "type": "Point"}, "id": "xLCDjxSu7Zb1mR8Tl_kBXMLpsVg=", "properties": {"@spider": "usps_collection_boxes", "addr:city": "RUSH", "addr:country": "US", "addr:full": "455 N RUSH RD", "addr:postcode": "80833", "addr:state": "CO", "brand": "USPS", "collection_times": "Mo-Fr 14:00; Sa 10:15", "name": "USPS COLLECTION BOX - BLUE BOX", "note": "ON 12/24 AND 12/31, THIS BOX MAY BE COLLECTED AS EARLY AS 12 NOON.", "ref": "8083300001"}, "type": "Feature"}
{"geometry": {"coordinates": [-102.869855, 39.300262], "type": "Point"}, "id": "sZVfBamc9_BNyZSp-i0q5wNQ4oA=", "properties": {"@spider": "usps_collection_boxes", "addr:city": "SEIBERT", "addr:country": "US", "addr:full": "113 COLORADO AVE", "addr:postcode": "80834", "addr:state": "CO", "brand": "USPS", "collection_times": "Mo-Fr 15:45; Sa 10:30", "name": "USPS COLLECTION BOX - BLUE BOX", "note": "ON 12/24 AND 12/31, THIS BOX MAY BE COLLECTED AS EARLY AS 12 NOON.", "ref": "8083400000"}, "type": "Feature"}
{"geometry": {"coordinates": [-102.869849, 39.3003], "type": "Point"}, "id": "Ek6fPMygAvvnxmilYaNwBrUQoxY=", "properties": {"@spider": "usps_collection_boxes", "addr:city": "SEIBERT", "addr:country": "US", "addr:full": "113 COLORADO AVE", "addr:postcode": "80834", "addr:state": "CO", "brand": "USPS", "collection_times": "Mo-Fr 15:45; Sa 10:30", "name": "USPS COLLECTION BOX - PO LOBBY", "note": "ON 12/24 AND 12/31, THIS BOX MAY BE COLLECTED AS EARLY AS 12 NOON.", "ref": "8083400001"}, "type": "Feature"}
{"geometry": {"coordinates": [-104.084898, 39.142645], "type": "Point"}, "id": "muD-slorlVj8pHEU4IvJrtHtWes=", "properties": {"@spider": "usps_collection_boxes", "addr:city": "SIMLA", "addr:country": "US", "addr:full": "611 CARIBOU ST", "addr:postcode": "80835", "addr:state": "CO", "brand": "USPS", "collection_times": "Mo-Fr 14:00; Sa 10:30", "name": "USPS COLLECTION BOX - BLUE BOX", "note": "ON 12/24 AND 12/31, THIS BOX MAY BE COLLECTED AS EARLY AS 12 NOON.", "ref": "8083500000"}, "type": "Feature"}
{"geometry": {"coordinates": [-104.084898, 39.142645], "type": "Point"}, "id": "CB9TdGLwiB32-9cfbMJXGnepDYk=", "properties": {"@spider": "usps_collection_boxes", "addr:city": "SIMLA", "addr:country": "US", "addr:full": "611 CARIBOU ST", "addr:postcode": "80835", "addr:state": "CO", "brand": "USPS", "collection_times": "Mo-Fr 14:00; Sa 10:30", "name": "USPS COLLECTION BOX - PO LOBBY", "note": "ON 12/24 AND 12/31, THIS BOX MAY BE COLLECTED AS EARLY AS 12 NOON.", "ref": "8083500001"}, "type": "Feature"}
{"geometry": {"coordinates": [-102.604897, 39.303359], "type": "Point"}, "id": "a6LcMxKRsK48KGdSF3Xz0BgebOg=", "properties": {"@spider": "usps_collection_boxes", "addr:city": "STRATTON", "addr:country": "US", "addr:full": "313 COLORADO AVE", "addr:postcode": "80836", "addr:state": "CO", "brand": "USPS", "collection_times": "Mo-Fr 15:45; Sa 11:45", "name": "USPS COLLECTION BOX - BLUE BOX", "note": "ON 12/24 AND 12/31, THIS BOX MAY BE COLLECTED AS EARLY AS 12 NOON.", "ref": "8083600000"}, "type": "Feature"}
{"geometry": {"coordinates": [-102.604635, 39.296777], "type": "Point"}, "id": "mW1w5clBIzmS-EixjduSlDmKzTo=", "properties": {"@spider": "usps_collection_boxes", "addr:city": "STRATTON", "addr:country": "US", "addr:full": "913 COLORADO AVE", "addr:postcode": "80836", "addr:state": "CO", "brand": "USPS", "collection_times": "Mo-Sa 09:00", "name": "USPS COLLECTION BOX - BLUE BOX", "ref": "8083600001"}, "type": "Feature"}
{"geometry": {"coordinates": [-102.604996, 39.30342], "type": "Point"}, "id": "ghuTkrbqmgwFfxawmAUzx77TqsE=", "properties": {"@spider": "usps_collection_boxes", "addr:city": "STRATTON", "addr:country": "US", "addr:full": "313 COLORADO AVE", "addr:postcode": "80836", "addr:state": "CO", "brand": "USPS", "collection_times": "Mo-Fr 14:45; Sa 11:00", "name": "USPS COLLECTION BOX - PO LOBBY", "note": "ON 12/24 AND 12/31, THIS BOX MAY BE COLLECTED AS EARLY AS 12 NOON.", "ref": "8083600002"}, "type": "Feature"}
{"geometry": {"coordinates": [-104.882709, 39.007011], "type": "Point"}, "id": "f3EP-AeD8JgpuJs3NMqDxFC0rP8=", "properties": {"@spider": "usps_collection_boxes", "addr:city": "U S A F ACADEMY", "addr:country": "US", "addr:full": "2354 VANDENBERG DR", "addr:postcode": "80840", "addr:state": "CO", "brand": "USPS", "collection_times": "Mo-Fr 15:30; Sa 13:30", "name": "USPS COLLECTION BOX - BLUE BOX", "note": "ON 12/24 AND 12/31, THIS BOX MAY BE COLLECTED AS EARLY AS 12 NOON.", "ref": "8084000001"}, "type": "Feature"}
{"geometry": {"coordinates": [-104.8808482747, 39.009876294], "type": "Point"}, "id": "aDWK_gdt_UxcfkJXDPF3YxxvMio=", "properties": {"@spider": "usps_collection_boxes", "addr:city": "U S A F ACADEMY", "addr:country": "US", "addr:full": "2354 VANDENBERG DR", "addr:postcode": "80840", "addr:state": "CO", "brand": "USPS", "collection_times": "Mo-Sa 12:00", "name": "USPS COLLECTION BOX - BLUE BOX", "ref": "8084000002"}, "type": "Feature"}
{"geometry": {"coordinates": [-104.8644268603, 38.9800837446], "type": "Point"}, "id": "3xPf3-QSNrr5JeSsyZuYx0dl9Og=", "properties": {"@spider": "usps_collection_boxes", "addr:city": "U S A F ACADEMY", "addr:country": "US", "addr:full": "5136 COMMUNITY CENTER DR", "addr:postcode": "80840", "addr:state": "CO", "brand": "USPS", "collection_times": "Mo-Sa 12:00", "name": "USPS COLLECTION BOX - BLUE BOX", "ref": "8084000003"}, "type": "Feature"}
{"geometry": {"coordinates": [-104.828897, 38.959695], "type": "Point"}, "id": "B0G34dC7-qSIebcu2_ySnP8P5p4=", "properties": {"@spider": "usps_collection_boxes", "addr:city": "U S A F ACADEMY", "addr:country": "US", "addr:full": "8120 EDGERTON DR", "addr:postcode": "80840", "addr:state": "CO", "brand": "USPS", "collection_times": "Mo-Sa 08:00", "name": "USPS COLLECTION BOX - BLUE BOX", "ref": "8084000007"}, "type": "Feature"}
{"geometry": {"coordinates": [-104.861369, 38.978153], "type": "Point"}, "id": "_ICUrvWd67lbalsfs1RQHKDJuoA=", "properties": {"@spider": "usps_collection_boxes", "addr:city": "U S A F ACADEMY", "addr:country": "US", "addr:full": "5218 CEDAR DR", "addr:postcode": "80840", "addr:state": "CO", "brand": "USPS", "collection_times": "Mo-Sa 09:00", "name": "USPS COLLECTION BOX - BLUE BOX", "ref": "8084000008"}, "type": "Feature"}
{"geometry": {"coordinates": [-104.866827, 38.978143], "type": "Point"}, "id": "Cfn2n6YQNTsm6p8pYEMiA4XjxHY=", "properties": {"@spider": "usps_collection_boxes", "addr:city": "U S A F ACADEMY", "addr:country": "US", "addr:full": "5124 COMMUNITY CENTER DR", "addr:postcode": "80840", "addr:state": "CO", "brand": "USPS", "collection_times": "Mo-Sa 09:00", "name": "USPS COLLECTION BOX - BLUE BOX", "ref": "8084000010"}, "type": "Feature"}
{"geometry": {"coordinates": [-104.87565, 38.9772], "type": "Point"}, "id": "6_xcFYiMIleYCnAPI15N66enr7E=", "properties": {"@spider": "usps_collection_boxes", "addr:city": "U S A F ACADEMY", "addr:country": "US", "addr:full": "5136 COMMUNITY CENTER DR", "addr:postcode": "80840", "addr:state": "CO", "brand": "USPS", "collection_times": "Mo-Fr 16:25; Sa 14:50", "name": "USPS COLLECTION BOX - BLUE BOX", "note": "ON 12/24 AND 12/31, THIS BOX MAY BE COLLECTED AS EARLY AS 12 NOON.", "ref": "8084000011"}, "type": "Feature"}
{"geometry": {"coordinates": [-104.885606, 38.99239], "type": "Point"}, "id": "w_1f_7zhGyaCZ7LMcQsuIbybyuE=", "properties": {"@spider": "usps_collection_boxes", "addr:city": "U S A F ACADEMY", "addr:country": "US", "addr:full": "4102 PINION DR", "addr:postcode": "80840", "addr:state": "CO", "brand": "USPS", "collection_times": "Mo-Sa 09:00", "name": "USPS COLLECTION BOX - BLUE BOX", "ref": "8084000012"}, "type": "Feature"}
{"geometry": {"coordinates": [-105.140046, 38.710511], "type": "Point"}, "id": "VIVK3Q0N4Ca6YC89kjDTMv1NYKg=", "properties": {"@spider": "usps_collection_boxes", "addr:city": "VICTOR", "addr:country": "US", "addr:full": "106 N 3RD ST", "addr:postcode": "80860", "addr:state": "CO", "brand": "USPS", "collection_times": "Mo-Fr 15:30; Sa 13:00", "name": "USPS COLLECTION BOX - BLUE BOX", "note": "ON 12/24 AND 12/31, THIS BOX MAY BE COLLECTED AS EARLY AS 12 NOON.", "ref": "8086000000"}, "type": "Feature"}
{"geometry": {"coordinates": [-105.14009, 38.710473], "type": "Point"}, "id": "qhNyn0pMR0eqymyLGuzhX7nb2JE=", "properties": {"@spider": "usps_collection_boxes", "addr:city": "VICTOR", "addr:country": "US", "addr:full": "106 N 3RD ST", "addr:postcode": "80860", "addr:state": "CO", "brand": "USPS", "collection_times": "Mo-Fr 15:30; Sa 13:00", "name": "USPS COLLECTION BOX - PO LOBBY", "note": "ON 12/24 AND 12/31, THIS BOX MAY BE COLLECTED AS EARLY AS 12 NOON.", "ref": "8086000001"}, "type": "Feature"}
{"geometry": {"coordinates": [-102.743377, 39.30257], "type": "Point"}, "id": "3nezadMkH_Lo2I-oM5VeTICDVs0=", "properties": {"@spider": "usps_collection_boxes", "addr:city": "VONA", "addr:country": "US", "addr:full": "1263 1ST AVE", "addr:postcode": "80861", "addr:state": "CO", "brand": "USPS", "collection_times": "Mo-Fr 15:45; Sa 10:30", "name": "USPS COLLECTION BOX - BLUE BOX", "note": "ON 12/24 AND 12/31, THIS BOX MAY BE COLLECTED AS EARLY AS 12 NOON.", "ref": "8086100000"}, "type": "Feature"}
{"geometry": {"coordinates": [-102.743377, 39.30257], "type": "Point"}, "id": "-dxsT4Gc66j1byTG8wwgDNWgUvs=", "properties": {"@spider": "usps_collection_boxes", "addr:city": "VONA", "addr:country": "US", "addr:full": "1263 1ST AVE", "addr:postcode": "80861", "addr:state": "CO", "brand": "USPS", "collection_times": "Mo-Fr 13:00; Sa 10:30", "name": "USPS COLLECTION BOX - PO LOBBY", "note": "ON 12/24 AND 12/31, THIS BOX MAY BE COLLECTED AS EARLY AS 12 NOON.", "ref": "8086100001"}, "type": "Feature"}
{"geometry": {"coordinates": [-102.743377, 39.30257], "type": "Point"}, "id": "yQMPSY9OKmwvMU2Uq5jGdzNId1A=", "properties": {"@spider": "usps_collection_boxes", "addr:city": "VONA", "addr:country": "US", "addr:full": "1263 1ST AVE", "addr:postcode": "80861", "addr:state": "CO", "brand": "USPS", "collection_times": "Mo-Fr 13:00; Sa 10:30", "name": "USPS COLLECTION BOX - PO LOBBY", "note": "ON 12/24 AND 12/31, THIS BOX MAY BE COLLECTED AS EARLY AS 12 NOON.", "ref": "8086100002"}, "type": "Feature"}
{"geometry": {"coordinates": [-103.006449, 38.825956], "type": "Point"}, "id": "grRuwXt8PWq5-XTM8ipz6Z2cMEI=", "properties": {"@spider": "usps_collection_boxes", "addr:city": "WILD HORSE", "addr:country": "US", "addr:full": "8511 US HIGHWAY 40-287", "addr:postcode": "80862", "addr:state": "CO", "brand": "USPS", "collection_times": "Mo-Fr 12:30; Sa 09:15", "name": "USPS COLLECTION BOX - PO LOBBY", "note": "ON 12/24 AND 12/31, THIS BOX MAY BE COLLECTED AS EARLY AS 12 NOON.", "ref": "8086200001"}, "type": "Feature"}
{"geometry": {"coordinates": [-105.046502, 38.982546], "type": "Point"}, "id": "pPL07lW1W4Nt2EtG12KSUk-xCCA=", "properties": {"@spider": "usps_collection_boxes", "addr:city": "WOODLAND PARK", "addr:country": "US", "addr:full": "1101 E US HIGHWAY 24", "addr:postcode": "80863", "addr:state": "CO", "brand": "USPS", "collection_times": "Mo-Fr 14:00; Sa 12:30", "name": "USPS COLLECTION BOX - BLUE BOX", "note": "ON 12/24 AND 12/31, THIS BOX MAY BE COLLECTED AS EARLY AS 12 NOON.", "ref": "8086300009"}, "type": "Feature"}
{"geometry": {"coordinates": [-105.061426, 38.991662], "type": "Point"}, "id": "gB6-wPvouedY1HD3Z-yC1lM8SHU=", "properties": {"@spider": "usps_collection_boxes", "addr:city": "WOODLAND PARK", "addr:country": "US", "addr:full": "700 W US HIGHWAY 24", "addr:postcode": "80863", "addr:state": "CO", "brand": "USPS", "collection_times": "Mo-Fr 14:00; Sa 12:30", "name": "USPS COLLECTION BOX - BLUE BOX", "note": "ON 12/24 AND 12/31, THIS BOX MAY BE COLLECTED AS EARLY AS 12 NOON.", "ref": "8086300010"}, "type": "Feature"}
{"geometry": {"coordinates": [-105.063864, 39.014874], "type": "Point"}, "id": "GJflzCvcvQY3fgrdllghO4mHO_0=", "properties": {"@spider": "usps_collection_boxes", "addr:city": "WOODLAND PARK", "addr:country": "US", "addr:full": "900 TAMARAC PKWY", "addr:postcode": "80863", "addr:state": "CO", "brand": "USPS", "collection_times": "Mo-Fr 16:55; Sa 13:00", "name": "USPS COLLECTION BOX - BLUE BOX", "note": "ON 12/24 AND 12/31, THIS BOX MAY BE COLLECTED AS EARLY AS 12 NOON.", "ref": "8086300012"}, "type": "Feature"}
{"geometry": {"coordinates": [-105.063747, 39.014851], "type": "Point"}, "id": "y8J4iLutzuDmxefkarFUWpaWOuY=", "properties": {"@spider": "usps_collection_boxes", "addr:city": "WOODLAND PARK", "addr:country": "US", "addr:full": "900 TAMARAC PKWY", "addr:postcode": "80863", "addr:state": "CO", "brand": "USPS", "collection_times": "Mo-Fr 16:55; Sa 13:00", "name": "USPS COLLECTION BOX - EXPRESS", "note": "ON 12/24 AND 12/31, THIS BOX MAY BE COLLECTED AS EARLY AS 12 NOON.", "ref": "8086300013"}, "type": "Feature"}
{"geometry": {"coordinates": [-105.063747, 39.014851], "type": "Point"}, "id": "z9co-z6bxm0WrXN-XKy6DzIliFE=", "properties": {"@spider": "usps_collection_boxes", "addr:city": "WOODLAND PARK", "addr:country": "US", "addr:full": "900 TAMARAC PKWY", "addr:postcode": "80863", "addr:state": "CO", "brand": "USPS", "collection_times": "Mo-Fr 16:55; Sa 13:00", "name": "USPS COLLECTION BOX - PO LOBBY", "note": "ON 12/24 AND 12/31, THIS BOX MAY BE COLLECTED AS EARLY AS 12 NOON.", "ref": "8086300014"}, "type": "Feature"}
{"geometry": {"coordinates": [-104.22196, 38.840218], "type": "Point"}, "id": "SiUYoyZ46eO8btroZTjsxXhzhSE=", "properties": {"@spider": "usps_collection_boxes", "addr:city": "YODER", "addr:country": "US", "addr:full": "475 N YODER RD", "addr:postcode": "80864", "addr:state": "CO", "brand": "USPS", "collection_times": "Mo-Fr 14:45; Sa 10:15", "name": "USPS COLLECTION BOX - BLUE BOX", "note": "ON 12/24 AND 12/31, THIS BOX MAY BE COLLECTED AS EARLY AS 12 NOON.", "ref": "8086400000"}, "type": "Feature"}
{"geometry": {"coordinates": [-105.055885, 38.995882], "type": "Point"}, "id": "bh4JFFa5KMOvqiNSDV2gMy3mSJs=", "properties": {"@spider": "usps_collection_boxes", "addr:city": "WOODLAND PARK", "addr:country": "US", "addr:full": "300 W SOUTH AVE", "addr:postcode": "80866", "addr:state": "CO", "brand": "USPS", "collection_times": "Mo-Fr 16:55; Sa 13:00", "name": "USPS COLLECTION BOX - BLUE BOX", "note": "ON 12/24 AND 12/31, THIS BOX MAY BE COLLECTED AS EARLY AS 12 NOON.", "ref": "8086600000"}, "type": "Feature"}
{"geometry": {"coordinates": [-105.055885, 38.995883], "type": "Point"}, "id": "2k9ydySBhu5Q64sfCCSAooL0Fxc=", "properties": {"@spider": "usps_collection_boxes", "addr:city": "WOODLAND PARK", "addr:country": "US", "addr:full": "300 W SOUTH AVE", "addr:postcode": "80866", "addr:state": "CO", "brand": "USPS", "collection_times": "Mo-Fr 16:55; Sa 13:00", "name": "USPS COLLECTION BOX - BLUE BOX", "note": "ON 12/24 AND 12/31, THIS BOX MAY BE COLLECTED AS EARLY AS 12 NOON.", "ref": "8086600001"}, "type": "Feature"}
{"geometry": {"coordinates": [-105.055885, 38.995883], "type": "Point"}, "id": "rQhrDcHoUygfO5JQ0XAfW4t0fz4=", "properties": {"@spider": "usps_collection_boxes", "addr:city": "WOODLAND PARK", "addr:country": "US", "addr:full": "300 W SOUTH AVE", "addr:postcode": "80866", "addr:state": "CO", "brand": "USPS", "collection_times": "Mo-Fr 16:55; Sa 13:00", "name": "USPS COLLECTION BOX - EXPRESS", "note": "ON 12/24 AND 12/31, THIS BOX MAY BE COLLECTED AS EARLY AS 12 NOON.", "ref": "8086600002"}, "type": "Feature"}
{"geometry": {"coordinates": [-105.055885, 38.995883], "type": "Point"}, "id": "D9S5nxrT3E27d1pe6UtSxBPjR8g=", "properties": {"@spider": "usps_collection_boxes", "addr:city": "WOODLAND PARK", "addr:country": "US", "addr:full": "300 W SOUTH AVE", "addr:postcode": "80866", "addr:state": "CO", "brand": "USPS", "collection_times": "Mo-Fr 16:55; Sa 13:00", "name": "USPS COLLECTION BOX - PO LOBBY", "note": "ON 12/24 AND 12/31, THIS BOX MAY BE COLLECTED AS EARLY AS 12 NOON.", "ref": "8086600003"}, "type": "Feature"}
