{"geometry": {"coordinates": [-104.825562888, 38.832658454], "type": "Point"}, "id": "mpNF1tIpjMgslZjcXIXl3AJWA94=", "properties": {"@source_uri": "https://tools.usps.com/UspsToolsRestServices/rest/POLocator/findLocations", "@spider": "usps_collection_boxes", "addr:city": "COLORADO SPGS", "addr:country": "US", "addr:postcode": "80903", "addr:state": "CO", "addr:street_address": "90 S CASCADE AVE", "amenity": "post_box", "collection_times": "Mo-Sa 09:45", "nsi_id": "unitedstatespostalservice-a77078", "operator": "United States Postal Service", "operator:short": "USPS", "operator:type": "public", "operator:wikidata": "Q668687", "ref": "8090300017"}, "type": "Feature"}
{"geometry": {"coordinates": [-104.820304437, 38.835250416], "type": "Point"}, "id": "7i0lQZi9cyNg6O-BfAQFhjySOV8=", "properties": {"@source_uri": "https://tools.usps.com/UspsToolsRestServices/rest/POLocator/findLocations", "@spider": "usps_collection_boxes", "addr:city": "COLORADO SPGS", "addr:country": "US", "addr:postcode": "80903", "addr:state": "CO", "addr:street_address": "224 E KIOWA ST", "amenity": "post_box", "collection_times": "Mo-Sa 09:00", "nsi_id": "unitedstatespostalservice-a77078", "operator": "United States Postal Service", "operator:short": "USPS", "operator:type": "public", "operator:wikidata": "Q668687", "ref": "8090300034"}, "type": "Feature"}
{"geometry": {"coordinates": [-104.8239945, 38.834352], "type": "Point"}, "id": "czTLZDbZcRLjugGk4ZLsP90-hwI=", "properties": {"@source_uri": "https://tools.usps.com/UspsToolsRestServices/rest/POLocator/findLocations", "@spider": "usps_collection_boxes", "addr:city": "COLORADO SPGS", "addr:country": "US", "addr:postcode": "80903", "addr:state": "CO", "addr:street_address": "6 N TEJON ST", "amenity": "post_box", "collection_times": "Mo-Sa 11:00", "nsi_id": "unitedstatespostalservice-a77078", "operator": "United States Postal Service", "operator:short": "USPS", "operator:type": "public", "operator:wikidata": "Q668687", "ref": "8090300051"}, "type": "Feature"}
{"geometry": {"coordinates": [-104.8230696735, 38.8409942937], "type": "Point"}, "id": "giPNXNe7feVunektbui6JlWuVmY=", "properties": {"@source_uri": "https://tools.usps.com/UspsToolsRestServices/rest/POLocator/findLocations", "@spider": "usps_collection_boxes", "addr:city": "COLORADO SPGS", "addr:country": "US", "addr:postcode": "80903", "addr:state": "CO", "addr:street_address": "501 N TEJON ST", "amenity": "post_box", "collection_times": "Mo-Fr 11:30; Sa 10:30", "nsi_id": "unitedstatespostalservice-a77078", "operator": "United States Postal Service", "operator:short": "USPS", "operator:type": "public", "operator:wikidata": "Q668687", "ref": "8090300057"}, "type": "Feature"}
{"geometry": {"coordinates": [-104.823705946, 38.831254585], "type": "Point"}, "id": "Bxxu05k3nNdAnmX8zjEBpMMAsPw=", "properties": {"@source_uri": "https://tools.usps.com/UspsToolsRestServices/rest/POLocator/findLocations", "@spider": "usps_collection_boxes", "addr:city": "COLORADO SPGS", "addr:country": "US", "addr:postcode": "80903", "addr:state": "CO", "addr:street_address": "128 S TEJON ST", "amenity": "post_box", "collection_times": "Mo-Sa 09:45", "nsi_id": "unitedstatespostalservice-a77078", "operator": "United States Postal Service", "operator:short": "USPS", "operator:type": "public", "operator:wikidata": "Q668687", "ref": "8090300066"}, "type": "Feature"}
{"geometry": {"coordinates": [-104.823549, 38.827998], "type": "Point"}, "id": "t9JCswYLJVY7rPbCKPvKRBfa5HM=", "properties": {"@source_uri": "https://tools.usps.com/UspsToolsRestServices/rest/POLocator/findLocations", "@spider": "usps_collection_boxes", "addr:city": "COLORADO SPGS", "addr:country": "US", "addr:postcode": "80903", "addr:state": "CO", "addr:street_address": "403 S TEJON ST", "amenity": "post_box", "collection_times": "Mo-Sa 09:00", "nsi_id": "unitedstatespostalservice-a77078", "operator": "United States Postal Service", "operator:short": "USPS", "operator:type": "public", "operator:wikidata": "Q668687", "ref": "8090300072"}, "type": "Feature"}
{"geometry": {"coordinates": [-104.82166, 38.832745], "type": "Point"}, "id": "qoqeaTAsiJIG4bEpkiw8QiiuMaU=", "properties": {"@source_uri": "https://tools.usps.com/UspsToolsRestServices/rest/POLocator/findLocations", "@spider": "usps_collection_boxes", "addr:city": "COLORADO SPGS", "addr:country": "US", "addr:postcode": "80903", "addr:state": "CO", "addr:street_address": "500 E UINTAH ST", "amenity": "post_box", "collection_times": "Mo-Sa 10:00", "nsi_id": "unitedstatespostalservice-a77078", "operator": "United States Postal Service", "operator:short": "USPS", "operator:type": "public", "operator:wikidata": "Q668687", "ref": "8090300073"}, "type": "Feature"}
{"geometry": {"coordinates": [-104.82166, 38.832745], "type": "Point"}, "id": "HojN0BH_iOgjS4IcQtNxX-odujI=", "properties": {"@source_uri": "https://tools.usps.com/UspsToolsRestServices/rest/POLocator/findLocations", "@spider": "usps_collection_boxes", "addr:city": "COLORADO SPGS", "addr:country": "US", "addr:postcode": "80903", "addr:state": "CO", "addr:street_address": "27 E VERMIJO AVE", "amenity": "post_box", "collection_times": "Mo-Fr 09:00", "nsi_id": "unitedstatespostalservice-a77078", "operator": "United States Postal Service", "operator:short": "USPS", "operator:type": "public", "operator:wikidata": "Q668687", "ref": "8090300076"}, "type": "Feature"}
{"geometry": {"coordinates": [-104.823268942, 38.829619427], "type": "Point"}, "id": "kCkdJ7vXGjTAuIQoicLDkTo7d5o=", "properties": {"@source_uri": "https://tools.usps.com/UspsToolsRestServices/rest/POLocator/findLocations", "@spider": "usps_collection_boxes", "addr:city": "COLORADO SPGS", "addr:country": "US", "addr:postcode": "80903", "addr:state": "CO", "addr:street_address": "105 E VERMIJO AVE", "amenity": "post_box", "collection_times": "Mo-Sa 09:00", "nsi_id": "unitedstatespostalservice-a77078", "operator": "United States Postal Service", "operator:short": "USPS", "operator:type": "public", "operator:wikidata": "Q668687", "ref": "8090300077"}, "type": "Feature"}
{"geometry": {"coordinates": [-104.823234, 38.831697], "type": "Point"}, "id": "EC2QMp-YZRAbRe57HoJD3EdClBg=", "properties": {"@source_uri": "https://tools.usps.com/UspsToolsRestServices/rest/POLocator/findLocations", "@spider": "usps_collection_boxes", "addr:city": "COLORADO SPGS", "addr:country": "US", "addr:postcode": "80903", "addr:state": "CO", "addr:street_address": "111 S TEJON ST", "amenity": "post_box", "collection_times": "Mo-Fr 09:45", "nsi_id": "unitedstatespostalservice-a77078", "operator": "United States Postal Service", "operator:short": "USPS", "operator:type": "public", "operator:wikidata": "Q668687", "ref": "8090300088"}, "type": "Feature"}
{"geometry": {"coordinates": [-104.821182, 38.833389], "type": "Point"}, "id": "PKD4KI6KjxFlzY5i31iK69yf3cU=", "properties": {"@source_uri": "https://tools.usps.com/UspsToolsRestServices/rest/POLocator/findLocations", "@spider": "usps_collection_boxes", "addr:city": "COLORADO SPGS", "addr:country": "US", "addr:postcode": "80903", "addr:state": "CO", "addr:street_address": "201 E PIKES PEAK AVE", "amenity": "post_box", "collection_times": "Mo-Fr 17:30; Sa 13:00", "note": "ON 12/24 AND 12/31, THIS BOX MAY BE COLLECTED AS EARLY AS 12 NOON.", "nsi_id": "unitedstatespostalservice-a77078", "operator": "United States Postal Service", "operator:short": "USPS", "operator:type": "public", "operator:wikidata": "Q668687", "ref": "8090300092"}, "type": "Feature"}
{"geometry": {"coordinates": [-104.821182, 38.833389], "type": "Point"}, "id": "ts7RHVBAwTIgdleU3f5sVbLV-p4=", "properties": {"@source_uri": "https://tools.usps.com/UspsToolsRestServices/rest/POLocator/findLocations", "@spider": "usps_collection_boxes", "addr:city": "COLORADO SPGS", "addr:country": "US", "addr:postcode": "80903", "addr:state": "CO", "addr:street_address": "201 E PIKES PEAK AVE", "amenity": "post_box", "collection_times": "Mo-Fr 17:30; Sa 13:00", "note": "ON 12/24 AND 12/31, THIS BOX MAY BE COLLECTED AS EARLY AS 12 NOON.", "nsi_id": "unitedstatespostalservice-a77078", "operator": "United States Postal Service", "operator:short": "USPS", "operator:type": "public", "operator:wikidata": "Q668687", "ref": "8090300094"}, "type": "Feature"}
{"geometry": {"coordinates": [-104.825570898, 38.832488381], "type": "Point"}, "id": "GAJo-a705VGo4jaKAiyo1IqOKns=", "properties": {"@source_uri": "https://tools.usps.com/UspsToolsRestServices/rest/POLocator/findLocations", "@spider": "usps_collection_boxes", "addr:city": "COLORADO SPGS", "addr:country": "US", "addr:postcode": "80903", "addr:state": "CO", "addr:street_address": "100 S CASCADE AVE", "amenity": "post_box", "collection_times": "Mo-Sa 10:00", "nsi_id": "unitedstatespostalservice-a77078", "operator": "United States Postal Service", "operator:short": "USPS", "operator:type": "public", "operator:wikidata": "Q668687", "ref": "8090300097"}, "type": "Feature"}
{"geometry": {"coordinates": [-104.825359025, 38.836039337], "type": "Point"}, "id": "yAzqeydpbySRx1Ty5DY3XTc45qs=", "properties": {"@source_uri": "https://tools.usps.com/UspsToolsRestServices/rest/POLocator/findLocations", "@spider": "usps_collection_boxes", "addr:city": "COLORADO SPGS", "addr:country": "US", "addr:postcode": "80903", "addr:state": "CO", "addr:street_address": "102 N CASCADE AVE", "amenity": "post_box", "collection_times": "Mo-Fr 09:45", "nsi_id": "unitedstatespostalservice-a77078", "operator": "United States Postal Service", "operator:short": "USPS", "operator:type": "public", "operator:wikidata": "Q668687", "ref": "8090300105"}, "type": "Feature"}
{"geometry": {"coordinates": [-104.821182, 38.833389], "type": "Point"}, "id": "sTjXaa7w3jNPVtYEJb1Atv-qf9c=", "properties": {"@source_uri": "https://tools.usps.com/UspsToolsRestServices/rest/POLocator/findLocations", "@spider": "usps_collection_boxes", "addr:city": "COLORADO SPGS", "addr:country": "US", "addr:postcode": "80903", "addr:state": "CO", "addr:street_address": "201 E PIKES PEAK AVE", "amenity": "post_box", "collection_times": "Mo-Fr 17:30; Sa 13:00", "indoor": "yes", "note": "ON 12/24 AND 12/31, THIS BOX MAY BE COLLECTED AS EARLY AS 12 NOON.", "nsi_id": "unitedstatespostalservice-a77078", "operator": "United States Postal Service", "operator:short": "USPS", "operator:type": "public", "operator:wikidata": "Q668687", "ref": "8090300107"}, "type": "Feature"}
{"geometry": {"coordinates": [-104.821182, 38.833389], "type": "Point"}, "id": "KHzecrshNEBbiHH-jYa7KKlTyzY=", "properties": {"@source_uri": "https://tools.usps.com/UspsToolsRestServices/rest/POLocator/findLocations", "@spider": "usps_collection_boxes", "addr:city": "COLORADO SPGS", "addr:country": "US", "addr:postcode": "80903", "addr:state": "CO", "addr:street_address": "201 E PIKES PEAK AVE", "amenity": "post_box", "collection_times": "Mo-Fr 17:30; Sa 13:00", "indoor": "yes", "note": "ON 12/24 AND 12/31, THIS BOX MAY BE COLLECTED AS EARLY AS 12 NOON.", "nsi_id": "unitedstatespostalservice-a77078", "operator": "United States Postal Service", "operator:short": "USPS", "operator:type": "public", "operator:wikidata": "Q668687", "ref": "8090300108"}, "type": "Feature"}
{"geometry": {"coordinates": [-104.825466173, 38.834044452], "type": "Point"}, "id": "3TtlI_Qw4R2TtLh7Rn4Il7GDt7U=", "properties": {"@source_uri": "https://tools.usps.com/UspsToolsRestServices/rest/POLocator/findLocations", "@spider": "usps_collection_boxes", "addr:city": "COLORADO SPGS", "addr:country": "US", "addr:postcode": "80903", "addr:state": "CO", "addr:street_address": "2 N CASCADE AVE", "amenity": "post_box", "collection_times": "Mo-Fr 09:30", "nsi_id": "unitedstatespostalservice-a77078", "operator": "United States Postal Service", "operator:short": "USPS", "operator:type": "public", "operator:wikidata": "Q668687", "ref": "8090300116"}, "type": "Feature"}
{"geometry": {"coordinates": [-104.821182, 38.833389], "type": "Point"}, "id": "03xYCHQeCR-GH_hpz2qK9EWuFXM=", "properties": {"@source_uri": "https://tools.usps.com/UspsToolsRestServices/rest/POLocator/findLocations", "@spider": "usps_collection_boxes", "addr:city": "COLORADO SPGS", "addr:country": "US", "addr:postcode": "80903", "addr:state": "CO", "addr:street_address": "201 E PIKES PEAK AVE", "amenity": "post_box", "collection_times": "Mo-Fr 17:30; Sa 13:00", "name": "USPS COLLECTION BOX - APC", "note": "ON 12/24 AND 12/31, THIS BOX MAY BE COLLECTED AS EARLY AS 12 NOON.", "nsi_id": "unitedstatespostalservice-a77078", "operator": "United States Postal Service", "operator:short": "USPS", "operator:type": "public", "operator:wikidata": "Q668687", "ref": "8090300126"}, "type": "Feature"}
{"geometry": {"coordinates": [-104.821182, 38.833389], "type": "Point"}, "id": "TzuEMCbUp1O8vDjN8EVszOtz8bs=", "properties": {"@source_uri": "https://tools.usps.com/UspsToolsRestServices/rest/POLocator/findLocations", "@spider": "usps_collection_boxes", "addr:city": "COLORADO SPGS", "addr:country": "US", "addr:postcode": "80903", "addr:state": "CO", "addr:street_address": "201 E PIKES PEAK AVE", "amenity": "post_box", "collection_times": "Mo-Fr 17:30; Sa 13:00", "indoor": "yes", "note": "ON 12/24 AND 12/31, THIS BOX MAY BE COLLECTED AS EARLY AS 12 NOON.", "nsi_id": "unitedstatespostalservice-a77078", "operator": "United States Postal Service", "operator:short": "USPS", "operator:type": "public", "operator:wikidata": "Q668687", "ref": "8090300133"}, "type": "Feature"}
{"geometry": {"coordinates": [-104.863525, 38.846381], "type": "Point"}, "id": "Z5augvDzxCfMYIjMSQXpG4cEZTw=", "properties": {"@source_uri": "https://tools.usps.com/UspsToolsRestServices/rest/POLocator/findLocations", "@spider": "usps_collection_boxes", "addr:city": "COLORADO SPGS", "addr:country": "US", "addr:postcode": "80904", "addr:state": "CO", "addr:street_address": "204 S 25TH ST", "amenity": "post_box", "collection_times": "Mo-Fr 17:00; Sa 13:00", "note": "ON 12/24 AND 12/31, THIS BOX MAY BE COLLECTED AS EARLY AS 12 NOON.", "nsi_id": "unitedstatespostalservice-a77078", "operator": "United States Postal Service", "operator:short": "USPS", "operator:type": "public", "operator:wikidata": "Q668687", "ref": "8090400001"}, "type": "Feature"}
{"geometry": {"coordinates": [-104.8741723114, 38.8543014179], "type": "Point"}, "id": "i7UCVg7A4g8PL25JI8dN7Psy8f4=", "properties": {"@source_uri": "https://tools.usps.com/UspsToolsRestServices/rest/POLocator/findLocations", "@spider": "usps_collection_boxes", "addr:city": "COLORADO SPGS", "addr:country": "US", "addr:postcode": "80904", "addr:state": "CO", "addr:street_address": "3141 W COLORADO AVE", "amenity": "post_box", "collection_times": "Mo-Sa 12:00", "nsi_id": "unitedstatespostalservice-a77078", "operator": "United States Postal Service", "operator:short": "USPS", "operator:type": "public", "operator:wikidata": "Q668687", "ref": "8090400017"}, "type": "Feature"}
{"geometry": {"coordinates": [-104.863525, 38.846381], "type": "Point"}, "id": "DN5RgLQJyaKucV4VoiCN3NTcNhE=", "properties": {"@source_uri": "https://tools.usps.com/UspsToolsRestServices/rest/POLocator/findLocations", "@spider": "usps_collection_boxes", "addr:city": "COLORADO SPGS", "addr:country": "US", "addr:postcode": "80904", "addr:state": "CO", "addr:street_address": "204 S 25TH ST", "amenity": "post_box", "collection_times": "Mo-Fr 17:00; Sa 13:00", "indoor": "yes", "note": "ON 12/24 AND 12/31, THIS BOX MAY BE COLLECTED AS EARLY AS 12 NOON.", "nsi_id": "unitedstatespostalservice-a77078", "operator": "United States Postal Service", "operator:short": "USPS", "operator:type": "public", "operator:wikidata": "Q668687", "ref": "8090400029"}, "type": "Feature"}
{"geometry": {"coordinates": [-104.863525, 38.846381], "type": "Point"}, "id": "1Q7AHtIpyZ5LaKzwILcIlgqj7KQ=", "properties": {"@source_uri": "https://tools.usps.com/UspsToolsRestServices/rest/POLocator/findLocations", "@spider": "usps_collection_boxes", "addr:city": "COLORADO SPGS", "addr:country": "US", "addr:postcode": "80904", "addr:state": "CO", "addr:street_address": "204 S 25TH ST", "amenity": "post_box", "collection_times": "Mo-Fr 17:00; Sa 13:00", "indoor": "yes", "note": "ON 12/24 AND 12/31, THIS BOX MAY BE COLLECTED AS EARLY AS 12 NOON.", "nsi_id": "unitedstatespostalservice-a77078", "operator": "United States Postal Service", "operator:short": "USPS", "operator:type": "public", "operator:wikidata": "Q668687", "ref": "8090400030"}, "type": "Feature"}
{"geometry": {"coordinates": [-104.8635266318, 38.8464204184], "type": "Point"}, "id": "W4_pfMmQ3u7vBXivrXqSyXjAR7s=", "properties": {"@source_uri": "https://tools.usps.com/UspsToolsRestServices/rest/POLocator/findLocations", "@spider": "usps_collection_boxes", "addr:city": "COLORADO SPGS", "addr:country": "US", "addr:postcode": "80904", "addr:state": "CO", "addr:street_address": "204 S 25TH ST", "amenity": "post_box", "collection_times": "Mo-Fr 17:00; Sa 13:00", "indoor": "yes", "note": "ON 12/24 AND 12/31, THIS BOX MAY BE COLLECTED AS EARLY AS 12 NOON.", "nsi_id": "unitedstatespostalservice-a77078", "operator": "United States Postal Service", "operator:short": "USPS", "operator:type": "public", "operator:wikidata": "Q668687", "ref": "8090400034"}, "type": "Feature"}
{"geometry": {"coordinates": [-104.838468, 38.823815], "type": "Point"}, "id": "EajX9FRv1syQMkVEJZRA5cpouZE=", "properties": {"@source_uri": "https://tools.usps.com/UspsToolsRestServices/rest/POLocator/findLocations", "@spider": "usps_collection_boxes", "addr:city": "COLORADO SPGS", "addr:country": "US", "addr:postcode": "80905", "addr:state": "CO", "addr:street_address": "707 S 8TH ST", "amenity": "post_box", "collection_times": "Mo-Sa 11:15", "nsi_id": "unitedstatespostalservice-a77078", "operator": "United States Postal Service", "operator:short": "USPS", "operator:type": "public", "operator:wikidata": "Q668687", "ref": "8090500005"}, "type": "Feature"}
{"geometry": {"coordinates": [-104.841117, 38.811103], "type": "Point"}, "id": "yKnRaPjqqH0v9GYkTm46S3zvAd8=", "properties": {"@source_uri": "https://tools.usps.com/UspsToolsRestServices/rest/POLocator/findLocations", "@spider": "usps_collection_boxes", "addr:city": "COLORADO SPGS", "addr:country": "US", "addr:postcode": "80905", "addr:state": "CO", "addr:street_address": "1540 S 8TH ST", "amenity": "post_box", "collection_times": "Mo-Fr 17:30; Sa 13:00", "note": "ON 12/24 AND 12/31, THIS BOX MAY BE COLLECTED AS EARLY AS 12 NOON.", "nsi_id": "unitedstatespostalservice-a77078", "operator": "United States Postal Service", "operator:short": "USPS", "operator:type": "public", "operator:wikidata": "Q668687", "ref": "8090500006"}, "type": "Feature"}
{"geometry": {"coordinates": [-104.840886, 38.810679], "type": "Point"}, "id": "lwfTKuh1V9V_rf7T55Q17qxy6kc=", "properties": {"@source_uri": "https://tools.usps.com/UspsToolsRestServices/rest/POLocator/findLocations", "@spider": "usps_collection_boxes", "addr:city": "COLORADO SPGS", "addr:country": "US", "addr:postcode": "80905", "addr:state": "CO", "addr:street_address": "1540 S 8TH ST", "amenity": "post_box", "collection_times": "Mo-Fr 17:30; Sa 13:00", "indoor": "yes", "note": "ON 12/24 AND 12/31, THIS BOX MAY BE COLLECTED AS EARLY AS 12 NOON.", "nsi_id": "unitedstatespostalservice-a77078", "operator": "United States Postal Service", "operator:short": "USPS", "operator:type": "public", "operator:wikidata": "Q668687", "ref": "8090500007"}, "type": "Feature"}
{"geometry": {"coordinates": [-104.840886, 38.810679], "type": "Point"}, "id": "KHx82gfN7cNhAIktuW8NHvQb2T0=", "properties": {"@source_uri": "https://tools.usps.com/UspsToolsRestServices/rest/POLocator/findLocations", "@spider": "usps_collection_boxes", "addr:city": "COLORADO SPGS", "addr:country": "US", "addr:postcode": "80905", "addr:state": "CO", "addr:street_address": "1540 S 8TH ST", "amenity": "post_box", "collection_times": "Mo-Fr 17:30; Sa 13:00", "indoor": "yes", "note": "ON 12/24 AND 12/31, THIS BOX MAY BE COLLECTED AS EARLY AS 12 NOON.", "nsi_id": "unitedstatespostalservice-a77078", "operator": "United States Postal Service", "operator:short": "USPS", "operator:type": "public", "operator:wikidata": "Q668687", "ref": "8090500008"}, "type": "Feature"}
{"geometry": {"coordinates": [-104.840886, 38.810679], "type": "Point"}, "id": "6bQdMUvHmYbzgdtsqscrz_d95mM=", "properties": {"@source_uri": "https://tools.usps.com/UspsToolsRestServices/rest/POLocator/findLocations", "@spider": "usps_collection_boxes", "addr:city": "COLORADO SPGS", "addr:country": "US", "addr:postcode": "80905", "addr:state": "CO", "addr:street_address": "1540 S 8TH ST", "amenity": "post_box", "collection_times": "Mo-Fr 17:30; Sa 13:00", "name": "USPS COLLECTION BOX - APC", "note": "ON 12/24 AND 12/31, THIS BOX MAY BE COLLECTED AS EARLY AS 12 NOON.", "nsi_id": "unitedstatespostalservice-a77078", "operator": "United States Postal Service", "operator:short": "USPS", "operator:type": "public", "operator:wikidata": "Q668687", "ref": "8090500010"}, "type": "Feature"}
{"geometry": {"coordinates": [-104.8408867202, 38.8106735554], "type": "Point"}, "id": "CUcb5ztJ4QaN7lQqr5OOeIdVCVc=", "properties": {"@source_uri": "https://tools.usps.com/UspsToolsRestServices/rest/POLocator/findLocations", "@spider": "usps_collection_boxes", "addr:city": "COLORADO SPGS", "addr:country": "US", "addr:postcode": "80905", "addr:state": "CO", "addr:street_address": "1540 S 8TH ST", "amenity": "post_box", "collection_times": "Mo-Fr 17:30; Sa 13:00", "indoor": "yes", "note": "ON 12/24 AND 12/31, THIS BOX MAY BE COLLECTED AS EARLY AS 12 NOON.", "nsi_id": "unitedstatespostalservice-a77078", "operator": "United States Postal Service", "operator:short": "USPS", "operator:type": "public", "operator:wikidata": "Q668687", "ref": "8090500012"}, "type": "Feature"}
{"geometry": {"coordinates": [-104.811893, 38.776321], "type": "Point"}, "id": "R-86ss2J3s3dz6fDVRlgmeenMqY=", "properties": {"@source_uri": "https://tools.usps.com/UspsToolsRestServices/rest/POLocator/findLocations", "@spider": "usps_collection_boxes", "addr:city": "COLORADO SPGS", "addr:country": "US", "addr:postcode": "80906", "addr:state": "CO", "addr:street_address": "815 CHEYENNE MEADOWS RD", "amenity": "post_box", "collection_times": "Mo-Fr 12:45; Sa 12:00", "note": "ON 12/24 AND 12/31, THIS BOX MAY BE COLLECTED AS EARLY AS 12 NOON.", "nsi_id": "unitedstatespostalservice-a77078", "operator": "United States Postal Service", "operator:short": "USPS", "operator:type": "public", "operator:wikidata": "Q668687", "ref": "8090600005"}, "type": "Feature"}
{"geometry": {"coordinates": [-104.820555, 38.788523], "type": "Point"}, "id": "UYEM1tNNyyOk7E_AkuASNjRe7Eo=", "properties": {"@source_uri": "https://tools.usps.com/UspsToolsRestServices/rest/POLocator/findLocations", "@spider": "usps_collection_boxes", "addr:city": "COLORADO SPGS", "addr:country": "US", "addr:postcode": "80906", "addr:state": "CO", "addr:street_address": "445 E CHEYENNE MOUNTAIN BLVD", "amenity": "post_box", "collection_times": "Mo-Fr 12:30; Sa 11:30", "note": "ON 12/24 AND 12/31, THIS BOX MAY BE COLLECTED AS EARLY AS 12 NOON.", "nsi_id": "unitedstatespostalservice-a77078", "operator": "United States Postal Service", "operator:short": "USPS", "operator:type": "public", "operator:wikidata": "Q668687", "ref": "8090600009"}, "type": "Feature"}
{"geometry": {"coordinates": [-104.823281, 38.805261], "type": "Point"}, "id": "P2htsCnXl7ooFfw4u-IgLQ7bkmE=", "properties": {"@source_uri": "https://tools.usps.com/UspsToolsRestServices/rest/POLocator/findLocations", "@spider": "usps_collection_boxes", "addr:city": "COLORADO SPGS", "addr:country": "US", "addr:postcode": "80906", "addr:state": "CO", "addr:street_address": "1920 S NEVADA AVE", "amenity": "post_box", "collection_times": "Mo-Fr 13:30; Sa 12:30", "note": "ON 12/24 AND 12/31, THIS BOX MAY BE COLLECTED AS EARLY AS 12 NOON.", "nsi_id": "unitedstatespostalservice-a77078", "operator": "United States Postal Service", "operator:short": "USPS", "operator:type": "public", "operator:wikidata": "Q668687", "ref": "8090600021"}, "type": "Feature"}
{"geometry": {"coordinates": [-104.816448, 38.775563], "type": "Point"}, "id": "2tymR32ogvzJpKVdMOHl6-GE5F0=", "properties": {"@source_uri": "https://tools.usps.com/UspsToolsRestServices/rest/POLocator/findLocations", "@spider": "usps_collection_boxes", "addr:city": "COLORADO SPGS", "addr:country": "US", "addr:postcode": "80906", "addr:state": "CO", "addr:street_address": "3647 STAR RANCH RD", "amenity": "post_box", "collection_times": "Mo-Fr 12:30; Sa 11:45", "note": "ON 12/24 AND 12/31, THIS BOX MAY BE COLLECTED AS EARLY AS 12 NOON.", "nsi_id": "unitedstatespostalservice-a77078", "operator": "United States Postal Service", "operator:short": "USPS", "operator:type": "public", "operator:wikidata": "Q668687", "ref": "8090600039"}, "type": "Feature"}
{"geometry": {"coordinates": [-104.804857, 38.794498], "type": "Point"}, "id": "WNax1j4wlHNglQJLpySU8SsR2gA=", "properties": {"@source_uri": "https://tools.usps.com/UspsToolsRestServices/rest/POLocator/findLocations", "@spider": "usps_collection_boxes", "addr:city": "COLORADO SPGS", "addr:country": "US", "addr:postcode": "80906", "addr:state": "CO", "addr:street_address": "1257 LAKE PLAZA DR", "amenity": "post_box", "collection_times": "Mo-Fr 13:00; Sa 12:15", "note": "ON 12/24 AND 12/31, THIS BOX MAY BE COLLECTED AS EARLY AS 12 NOON.", "nsi_id": "unitedstatespostalservice-a77078", "operator": "United States Postal Service", "operator:short": "USPS", "operator:type": "public", "operator:wikidata": "Q668687", "ref": "8090600042"}, "type": "Feature"}
{"geometry": {"coordinates": [-104.793437, 38.797652], "type": "Point"}, "id": "TvifOgo3n-YPBmgs9gv-bWg3EiY=", "properties": {"@source_uri": "https://tools.usps.com/UspsToolsRestServices/rest/POLocator/findLocations", "@spider": "usps_collection_boxes", "addr:city": "COLORADO SPGS", "addr:country": "US", "addr:postcode": "80906", "addr:state": "CO", "addr:street_address": "2864 S CIRCLE DR", "amenity": "post_box", "collection_times": "Mo-Fr 12:45; Sa 12:00", "note": "ON 12/24 AND 12/31, THIS BOX MAY BE COLLECTED AS EARLY AS 12 NOON.", "nsi_id": "unitedstatespostalservice-a77078", "operator": "United States Postal Service", "operator:short": "USPS", "operator:type": "public", "operator:wikidata": "Q668687", "ref": "8090600045"}, "type": "Feature"}
{"geometry": {"coordinates": [-104.801359193, 38.7945025173], "type": "Point"}, "id": "tvtsBMq9NvykoHAA6WTRWJ-C4Uo=", "properties": {"@source_uri": "https://tools.usps.com/UspsToolsRestServices/rest/POLocator/findLocations", "@spider": "usps_collection_boxes", "addr:city": "COLORADO SPGS", "addr:country": "US", "addr:postcode": "80906", "addr:state": "CO", "addr:street_address": "1670 E CHEYENNE MOUNTAIN BLVD", "amenity": "post_box", "collection_times": "Mo-Fr 12:45; Sa 12:15", "note": "ON 12/24 AND 12/31, THIS BOX MAY BE COLLECTED AS EARLY AS 12 NOON.", "nsi_id": "unitedstatespostalservice-a77078", "operator": "United States Postal Service", "operator:short": "USPS", "operator:type": "public", "operator:wikidata": "Q668687", "ref": "8090600046"}, "type": "Feature"}
{"geometry": {"coordinates": [-104.815988, 38.796363], "type": "Point"}, "id": "d3vjqwnE4fPndSUxBMDaYUJbFgg=", "properties": {"@source_uri": "https://tools.usps.com/UspsToolsRestServices/rest/POLocator/findLocations", "@spider": "usps_collection_boxes", "addr:city": "COLORADO SPGS", "addr:country": "US", "addr:postcode": "80906", "addr:state": "CO", "addr:street_address": "675 SOUTHPOINTE CT", "amenity": "post_box", "collection_times": "Mo-Fr 13:00; Sa 12:15", "note": "ON 12/24 AND 12/31, THIS BOX MAY BE COLLECTED AS EARLY AS 12 NOON.", "nsi_id": "unitedstatespostalservice-a77078", "operator": "United States Postal Service", "operator:short": "USPS", "operator:type": "public", "operator:wikidata": "Q668687", "ref": "8090600049"}, "type": "Feature"}
{"geometry": {"coordinates": [-104.830473, 38.795112], "type": "Point"}, "id": "SOn4nHaguYsshseJBStgSbja7fw=", "properties": {"@source_uri": "https://tools.usps.com/UspsToolsRestServices/rest/POLocator/findLocations", "@spider": "usps_collection_boxes", "addr:city": "COLORADO SPGS", "addr:country": "US", "addr:postcode": "80906", "addr:state": "CO", "addr:street_address": "154 E CHEYENNE MOUNTAIN BLVD", "amenity": "post_box", "collection_times": "Mo-Fr 12:15; Sa 11:30", "note": "ON 12/24 AND 12/31, THIS BOX MAY BE COLLECTED AS EARLY AS 12 NOON.", "nsi_id": "unitedstatespostalservice-a77078", "operator": "United States Postal Service", "operator:short": "USPS", "operator:type": "public", "operator:wikidata": "Q668687", "ref": "8090600051"}, "type": "Feature"}
{"geometry": {"coordinates": [-104.815422, 38.767108], "type": "Point"}, "id": "p6cxYReD2nJF7H05jl95yWF7msE=", "properties": {"@source_uri": "https://tools.usps.com/UspsToolsRestServices/rest/POLocator/findLocations", "@spider": "usps_collection_boxes", "addr:city": "COLORADO SPGS", "addr:country": "US", "addr:postcode": "80906", "addr:state": "CO", "addr:street_address": "6520 S ACADEMY BLVD", "amenity": "post_box", "collection_times": "Mo-Fr 12:30; Sa 11:45", "note": "ON 12/24 AND 12/31, THIS BOX MAY BE COLLECTED AS EARLY AS 12 NOON.", "nsi_id": "unitedstatespostalservice-a77078", "operator": "United States Postal Service", "operator:short": "USPS", "operator:type": "public", "operator:wikidata": "Q668687", "ref": "8090600056"}, "type": "Feature"}
{"geometry": {"coordinates": [-104.817316, 38.861014], "type": "Point"}, "id": "bWKoIYnALbh8MJUP8vvKkNGJIsc=", "properties": {"@source_uri": "https://tools.usps.com/UspsToolsRestServices/rest/POLocator/findLocations", "@spider": "usps_collection_boxes", "addr:city": "COLORADO SPGS", "addr:country": "US", "addr:postcode": "80907", "addr:state": "CO", "addr:street_address": "320 E FONTANERO ST", "amenity": "post_box", "collection_times": "Mo-Fr 12:00; Sa 11:00", "nsi_id": "unitedstatespostalservice-a77078", "operator": "United States Postal Service", "operator:short": "USPS", "operator:type": "public", "operator:wikidata": "Q668687", "ref": "8090700004"}, "type": "Feature"}
{"geometry": {"coordinates": [-104.83688, 38.896578], "type": "Point"}, "id": "l5HzaHxtR2uCEkhpMeRGPaE6_3M=", "properties": {"@source_uri": "https://tools.usps.com/UspsToolsRestServices/rest/POLocator/findLocations", "@spider": "usps_collection_boxes", "addr:city": "COLORADO SPGS", "addr:country": "US", "addr:postcode": "80907", "addr:state": "CO", "addr:street_address": "777 GARDEN OF THE GODS RD", "amenity": "post_box", "collection_times": "Mo-Fr 11:45; Sa 10:30", "nsi_id": "unitedstatespostalservice-a77078", "operator": "United States Postal Service", "operator:short": "USPS", "operator:type": "public", "operator:wikidata": "Q668687", "ref": "8090700006"}, "type": "Feature"}
{"geometry": {"coordinates": [-104.8117250133, 38.8735169959], "type": "Point"}, "id": "F56ByHw-5iwpzqJmjsZwFb3NSTo=", "properties": {"@source_uri": "https://tools.usps.com/UspsToolsRestServices/rest/POLocator/findLocations", "@spider": "usps_collection_boxes", "addr:city": "COLORADO SPGS", "addr:country": "US", "addr:postcode": "80907", "addr:state": "CO", "addr:street_address": "2940 N PROSPECT ST", "amenity": "post_box", "collection_times": "Mo-Fr 17:00; Sa 13:00", "note": "ON 12/24 AND 12/31, THIS BOX MAY BE COLLECTED AS EARLY AS 12 NOON.", "nsi_id": "unitedstatespostalservice-a77078", "operator": "United States Postal Service", "operator:short": "USPS", "operator:type": "public", "operator:wikidata": "Q668687", "ref": "8090700015"}, "type": "Feature"}
{"geometry": {"coordinates": [-104.811227, 38.873463], "type": "Point"}, "id": "Ud_B1CH5BMV7JIGhXxl0cE8J1_k=", "properties": {"@source_uri": "https://tools.usps.com/UspsToolsRestServices/rest/POLocator/findLocations", "@spider": "usps_collection_boxes", "addr:city": "COLORADO SPGS", "addr:country": "US", "addr:postcode": "80907", "addr:state": "CO", "addr:street_address": "2940 N PROSPECT ST", "amenity": "post_box", "collection_times": "Mo-Fr 17:00; Sa 13:00", "indoor": "yes", "note": "ON 12/24 AND 12/31, THIS BOX MAY BE COLLECTED AS EARLY AS 12 NOON.", "nsi_id": "unitedstatespostalservice-a77078", "operator": "United States Postal Service", "operator:short": "USPS", "operator:type": "public", "operator:wikidata": "Q668687", "ref": "8090700017"}, "type": "Feature"}
{"geometry": {"coordinates": [-104.809813, 38.863851], "type": "Point"}, "id": "XXLRF5XQ-Tt2tXUcudZkPws9340=", "properties": {"@source_uri": "https://tools.usps.com/UspsToolsRestServices/rest/POLocator/findLocations", "@spider": "usps_collection_boxes", "addr:city": "COLORADO SPGS", "addr:country": "US", "addr:postcode": "80907", "addr:state": "CO", "addr:street_address": "2129 TEMPLETON GAP RD", "amenity": "post_box", "collection_times": "Mo-Fr 12:00; Sa 10:45", "nsi_id": "unitedstatespostalservice-a77078", "operator": "United States Postal Service", "operator:short": "USPS", "operator:type": "public", "operator:wikidata": "Q668687", "ref": "8090700022"}, "type": "Feature"}
{"geometry": {"coordinates": [-104.817044, 38.865191], "type": "Point"}, "id": "jmX5wxp-wdcuVfrQ7OOS7bBKWvw=", "properties": {"@source_uri": "https://tools.usps.com/UspsToolsRestServices/rest/POLocator/findLocations", "@spider": "usps_collection_boxes", "addr:city": "COLORADO SPGS", "addr:country": "US", "addr:postcode": "80907", "addr:state": "CO", "addr:street_address": "2230 N WAHSATCH AVE", "amenity": "post_box", "collection_times": "Mo-Sa 10:00", "nsi_id": "unitedstatespostalservice-a77078", "operator": "United States Postal Service", "operator:short": "USPS", "operator:type": "public", "operator:wikidata": "Q668687", "ref": "8090700023"}, "type": "Feature"}
{"geometry": {"coordinates": [-104.811227, 38.873463], "type": "Point"}, "id": "-WjKPI2PZBN9Oy8jO6krGxfNzX8=", "properties": {"@source_uri": "https://tools.usps.com/UspsToolsRestServices/rest/POLocator/findLocations", "@spider": "usps_collection_boxes", "addr:city": "COLORADO SPGS", "addr:country": "US", "addr:postcode": "80907", "addr:state": "CO", "addr:street_address": "2940 N PROSPECT ST", "amenity": "post_box", "collection_times": "Mo-Fr 17:00; Sa 13:00", "indoor": "yes", "note": "ON 12/24 AND 12/31, THIS BOX MAY BE COLLECTED AS EARLY AS 12 NOON.", "nsi_id": "unitedstatespostalservice-a77078", "operator": "United States Postal Service", "operator:short": "USPS", "operator:type": "public", "operator:wikidata": "Q668687", "ref": "8090700047"}, "type": "Feature"}
{"geometry": {"coordinates": [-104.796382, 38.874495], "type": "Point"}, "id": "_CRp_78Hlc5ExBX8hlOgiQRhng8=", "properties": {"@source_uri": "https://tools.usps.com/UspsToolsRestServices/rest/POLocator/findLocations", "@spider": "usps_collection_boxes", "addr:city": "COLORADO SPGS", "addr:country": "US", "addr:postcode": "80907", "addr:state": "CO", "addr:street_address": "1625 MEDICAL CENTER PT", "amenity": "post_box", "collection_times": "Mo-Sa 10:00", "nsi_id": "unitedstatespostalservice-a77078", "operator": "United States Postal Service", "operator:short": "USPS", "operator:type": "public", "operator:wikidata": "Q668687", "ref": "8090700049"}, "type": "Feature"}
{"geometry": {"coordinates": [-104.8511949795, 38.8931702024], "type": "Point"}, "id": "gPX5rYB52ZtuV8g5qrBi3UNJKnw=", "properties": {"@source_uri": "https://tools.usps.com/UspsToolsRestServices/rest/POLocator/findLocations", "@spider": "usps_collection_boxes", "addr:city": "COLORADO SPGS", "addr:country": "US", "addr:postcode": "80907", "addr:state": "CO", "addr:street_address": "4315 CENTENNIAL BLVD", "amenity": "post_box", "collection_times": "Mo-Fr 11:15; Sa 10:30", "nsi_id": "unitedstatespostalservice-a77078", "operator": "United States Postal Service", "operator:short": "USPS", "operator:type": "public", "operator:wikidata": "Q668687", "ref": "8090700056"}, "type": "Feature"}
{"geometry": {"coordinates": [-104.818402, 38.858933], "type": "Point"}, "id": "LFZgIe8LPwrNKe_a22krZAJSxzA=", "properties": {"@source_uri": "https://tools.usps.com/UspsToolsRestServices/rest/POLocator/findLocations", "@spider": "usps_collection_boxes", "addr:city": "COLORADO SPGS", "addr:country": "US", "addr:postcode": "80907", "addr:state": "CO", "addr:street_address": "1733 N WEBER ST", "amenity": "post_box", "collection_times": "Mo-Sa 09:00", "nsi_id": "unitedstatespostalservice-a77078", "operator": "United States Postal Service", "operator:short": "USPS", "operator:type": "public", "operator:wikidata": "Q668687", "ref": "8090700057"}, "type": "Feature"}
{"geometry": {"coordinates": [-104.811227, 38.873463], "type": "Point"}, "id": "9hiY9CtZUe9hJeGDJFD6QKZE1b0=", "properties": {"@source_uri": "https://tools.usps.com/UspsToolsRestServices/rest/POLocator/findLocations", "@spider": "usps_collection_boxes", "addr:city": "COLORADO SPGS", "addr:country": "US", "addr:postcode": "80907", "addr:state": "CO", "addr:street_address": "2940 N PROSPECT ST", "amenity": "post_box", "collection_times": "Mo-Fr 17:00; Sa 13:00", "name": "USPS COLLECTION BOX - APC", "note": "ON 12/24 AND 12/31, THIS BOX MAY BE COLLECTED AS EARLY AS 12 NOON.", "nsi_id": "unitedstatespostalservice-a77078", "operator": "United States Postal Service", "operator:short": "USPS", "operator:type": "public", "operator:wikidata": "Q668687", "ref": "8090700067"}, "type": "Feature"}
{"geometry": {"coordinates": [-104.8112276979, 38.8734567275], "type": "Point"}, "id": "FS2HpycXPfqy5TV3txjeW5SAU_E=", "properties": {"@source_uri": "https://tools.usps.com/UspsToolsRestServices/rest/POLocator/findLocations", "@spider": "usps_collection_boxes", "addr:city": "COLORADO SPGS", "addr:country": "US", "addr:postcode": "80907", "addr:state": "CO", "addr:street_address": "2940 N PROSPECT ST", "amenity": "post_box", "collection_times": "Mo-Fr 17:00; Sa 13:00", "indoor": "yes", "note": "ON 12/24 AND 12/31, THIS BOX MAY BE COLLECTED AS EARLY AS 12 NOON.", "nsi_id": "unitedstatespostalservice-a77078", "operator": "United States Postal Service", "operator:short": "USPS", "operator:type": "public", "operator:wikidata": "Q668687", "ref": "8090700075"}, "type": "Feature"}
{"geometry": {"coordinates": [-104.6998570323, 38.9963860153], "type": "Point"}, "id": "KfROywvm54J720KAjVHm4Uf9LaA=", "properties": {"@source_uri": "https://tools.usps.com/UspsToolsRestServices/rest/POLocator/findLocations", "@spider": "usps_collection_boxes", "addr:city": "COLORADO SPGS", "addr:country": "US", "addr:postcode": "80908", "addr:state": "CO", "addr:street_address": "11425 BLACK FOREST RD", "amenity": "post_box", "collection_times": "Mo-Sa 13:45", "note": "ON 12/24 AND 12/31, THIS BOX MAY BE COLLECTED AS EARLY AS 12 NOON.", "nsi_id": "unitedstatespostalservice-a77078", "operator": "United States Postal Service", "operator:short": "USPS", "operator:type": "public", "operator:wikidata": "Q668687", "ref": "8090800000"}, "type": "Feature"}
{"geometry": {"coordinates": [-104.7549639588, 38.8543091364], "type": "Point"}, "id": "F7xG-ozLJS5An3KpTZGwUd_QOOk=", "properties": {"@source_uri": "https://tools.usps.com/UspsToolsRestServices/rest/POLocator/findLocations", "@spider": "usps_collection_boxes", "addr:city": "COLORADO SPGS", "addr:country": "US", "addr:postcode": "80909", "addr:state": "CO", "addr:street_address": "3921 PALMER PARK BLVD", "amenity": "post_box", "collection_times": "Mo-Fr 12:30; Sa 12:00", "note": "ON 12/24 AND 12/31, THIS BOX MAY BE COLLECTED AS EARLY AS 12 NOON.", "nsi_id": "unitedstatespostalservice-a77078", "operator": "United States Postal Service", "operator:short": "USPS", "operator:type": "public", "operator:wikidata": "Q668687", "ref": "8090900006"}, "type": "Feature"}
{"geometry": {"coordinates": [-104.793638, 38.858557], "type": "Point"}, "id": "nkT61xeF-lwisiLHQtDi8JZbn8A=", "properties": {"@source_uri": "https://tools.usps.com/UspsToolsRestServices/rest/POLocator/findLocations", "@spider": "usps_collection_boxes", "addr:city": "COLORADO SPGS", "addr:country": "US", "addr:postcode": "80909", "addr:state": "CO", "addr:street_address": "1801 N UNION BLVD", "amenity": "post_box", "collection_times": "Mo-Fr 12:00; Sa 11:15", "nsi_id": "unitedstatespostalservice-a77078", "operator": "United States Postal Service", "operator:short": "USPS", "operator:type": "public", "operator:wikidata": "Q668687", "ref": "8090900010"}, "type": "Feature"}
{"geometry": {"coordinates": [-104.800056, 38.839685], "type": "Point"}, "id": "FZS4hk5SoSRF_dXIhPZtzzL_NQM=", "properties": {"@source_uri": "https://tools.usps.com/UspsToolsRestServices/rest/POLocator/findLocations", "@spider": "usps_collection_boxes", "addr:city": "COLORADO SPGS", "addr:country": "US", "addr:postcode": "80909", "addr:state": "CO", "addr:street_address": "1400 E BOULDER ST", "amenity": "post_box", "collection_times": "Mo-Fr 11:45; Sa 11:00", "nsi_id": "unitedstatespostalservice-a77078", "operator": "United States Postal Service", "operator:short": "USPS", "operator:type": "public", "operator:wikidata": "Q668687", "ref": "8090900014"}, "type": "Feature"}
{"geometry": {"coordinates": [-104.755841, 38.86815], "type": "Point"}, "id": "MJSopkBBy8hIHYwlYY7bADxvE40=", "properties": {"@source_uri": "https://tools.usps.com/UspsToolsRestServices/rest/POLocator/findLocations", "@spider": "usps_collection_boxes", "addr:city": "COLORADO SPGS", "addr:country": "US", "addr:postcode": "80909", "addr:state": "CO", "addr:street_address": "3960 MAIZELAND RD", "amenity": "post_box", "collection_times": "Mo-Fr 12:15; Sa 11:30", "note": "ON 12/24 AND 12/31, THIS BOX MAY BE COLLECTED AS EARLY AS 12 NOON.", "nsi_id": "unitedstatespostalservice-a77078", "operator": "United States Postal Service", "operator:short": "USPS", "operator:type": "public", "operator:wikidata": "Q668687", "ref": "8090900035"}, "type": "Feature"}
{"geometry": {"coordinates": [-104.775028, 38.832885], "type": "Point"}, "id": "zMLw4wgGqERWP_VbhrGwAqhQg1s=", "properties": {"@source_uri": "https://tools.usps.com/UspsToolsRestServices/rest/POLocator/findLocations", "@spider": "usps_collection_boxes", "addr:city": "COLORADO SPGS", "addr:country": "US", "addr:postcode": "80909", "addr:state": "CO", "addr:street_address": "2808 E PIKES PEAK AVE", "amenity": "post_box", "collection_times": "Mo-Fr 11:45; Sa 11:00", "nsi_id": "unitedstatespostalservice-a77078", "operator": "United States Postal Service", "operator:short": "USPS", "operator:type": "public", "operator:wikidata": "Q668687", "ref": "8090900039"}, "type": "Feature"}
{"geometry": {"coordinates": [-104.7787729859, 38.8486149902], "type": "Point"}, "id": "ScvSwUBKr7SKI7SwYfexMpMKEfg=", "properties": {"@source_uri": "https://tools.usps.com/UspsToolsRestServices/rest/POLocator/findLocations", "@spider": "usps_collection_boxes", "addr:city": "COLORADO SPGS", "addr:country": "US", "addr:postcode": "80909", "addr:state": "CO", "addr:street_address": "2641 E UINTAH ST", "amenity": "post_box", "collection_times": "Mo-Fr 17:00; Sa 13:00", "note": "ON 12/24 AND 12/31, THIS BOX MAY BE COLLECTED AS EARLY AS 12 NOON.", "nsi_id": "unitedstatespostalservice-a77078", "operator": "United States Postal Service", "operator:short": "USPS", "operator:type": "public", "operator:wikidata": "Q668687", "ref": "8090900041"}, "type": "Feature"}
{"geometry": {"coordinates": [-104.772765, 38.848129], "type": "Point"}, "id": "XXSePWPIoSMiptaGr7c_pCzaaCc=", "properties": {"@source_uri": "https://tools.usps.com/UspsToolsRestServices/rest/POLocator/findLocations", "@spider": "usps_collection_boxes", "addr:city": "COLORADO SPGS", "addr:country": "US", "addr:postcode": "80909", "addr:state": "CO", "addr:street_address": "1121 N CIRCLE DR", "amenity": "post_box", "collection_times": "Mo-Fr 12:00; Sa 11:15", "nsi_id": "unitedstatespostalservice-a77078", "operator": "United States Postal Service", "operator:short": "USPS", "operator:type": "public", "operator:wikidata": "Q668687", "ref": "8090900052"}, "type": "Feature"}
{"geometry": {"coordinates": [-104.769688, 38.83785], "type": "Point"}, "id": "5ZsjQRVwkDVp4ePrl9x6072swWo=", "properties": {"@source_uri": "https://tools.usps.com/UspsToolsRestServices/rest/POLocator/findLocations", "@spider": "usps_collection_boxes", "addr:city": "COLORADO SPGS", "addr:country": "US", "addr:postcode": "80909", "addr:state": "CO", "addr:street_address": "3201 E PLATTE AVE", "amenity": "post_box", "collection_times": "Mo-Sa 09:00", "nsi_id": "unitedstatespostalservice-a77078", "operator": "United States Postal Service", "operator:short": "USPS", "operator:type": "public", "operator:wikidata": "Q668687", "ref": "8090900058"}, "type": "Feature"}
{"geometry": {"coordinates": [-104.778622, 38.848964], "type": "Point"}, "id": "QkFjpbj63B65OXMH3ldCAEX9eZ0=", "properties": {"@source_uri": "https://tools.usps.com/UspsToolsRestServices/rest/POLocator/findLocations", "@spider": "usps_collection_boxes", "addr:city": "COLORADO SPGS", "addr:country": "US", "addr:postcode": "80909", "addr:state": "CO", "addr:street_address": "2641 E UINTAH ST", "amenity": "post_box", "collection_times": "Mo-Fr 17:00; Sa 13:00", "indoor": "yes", "note": "ON 12/24 AND 12/31, THIS BOX MAY BE COLLECTED AS EARLY AS 12 NOON.", "nsi_id": "unitedstatespostalservice-a77078", "operator": "United States Postal Service", "operator:short": "USPS", "operator:type": "public", "operator:wikidata": "Q668687", "ref": "8090900062"}, "type": "Feature"}
{"geometry": {"coordinates": [-104.778622, 38.848964], "type": "Point"}, "id": "-Da6S6SxstOY2P3SgsV0Ju70LL4=", "properties": {"@source_uri": "https://tools.usps.com/UspsToolsRestServices/rest/POLocator/findLocations", "@spider": "usps_collection_boxes", "addr:city": "COLORADO SPGS", "addr:country": "US", "addr:postcode": "80909", "addr:state": "CO", "addr:street_address": "2641 E UINTAH ST", "amenity": "post_box", "collection_times": "Mo-Fr 17:00; Sa 13:00", "indoor": "yes", "note": "ON 12/24 AND 12/31, THIS BOX MAY BE COLLECTED AS EARLY AS 12 NOON.", "nsi_id": "unitedstatespostalservice-a77078", "operator": "United States Postal Service", "operator:short": "USPS", "operator:type": "public", "operator:wikidata": "Q668687", "ref": "8090900063"}, "type": "Feature"}
{"geometry": {"coordinates": [-104.7932, 38.8423], "type": "Point"}, "id": "YDBC4G4mXMx_Od3QSsMcSz7Pxsg=", "properties": {"@source_uri": "https://tools.usps.com/UspsToolsRestServices/rest/POLocator/findLocations", "@spider": "usps_collection_boxes", "addr:city": "COLORADO SPGS", "addr:country": "US", "addr:postcode": "80909", "addr:state": "CO", "addr:street_address": "3050 N CIRCLE DR", "amenity": "post_box", "collection_times": "Mo-Fr 12:00; Sa 11:30", "nsi_id": "unitedstatespostalservice-a77078", "operator": "United States Postal Service", "operator:short": "USPS", "operator:type": "public", "operator:wikidata": "Q668687", "ref": "8090900070"}, "type": "Feature"}
{"geometry": {"coordinates": [-104.7786236719, 38.8489595062], "type": "Point"}, "id": "ZKabTapLns0mX1u86tbhJX9fyEA=", "properties": {"@source_uri": "https://tools.usps.com/UspsToolsRestServices/rest/POLocator/findLocations", "@spider": "usps_collection_boxes", "addr:city": "COLORADO SPGS", "addr:country": "US", "addr:postcode": "80909", "addr:state": "CO", "addr:street_address": "2641 E UINTAH ST", "amenity": "post_box", "collection_times": "Mo-Fr 17:00; Sa 13:00", "indoor": "yes", "note": "ON 12/24 AND 12/31, THIS BOX MAY BE COLLECTED AS EARLY AS 12 NOON.", "nsi_id": "unitedstatespostalservice-a77078", "operator": "United States Postal Service", "operator:short": "USPS", "operator:type": "public", "operator:wikidata": "Q668687", "ref": "8090900077"}, "type": "Feature"}
{"geometry": {"coordinates": [-104.760652, 38.813781], "type": "Point"}, "id": "BVqwg4lMeUK0cvfkHnD-lpRVUOI=", "properties": {"@source_uri": "https://tools.usps.com/UspsToolsRestServices/rest/POLocator/findLocations", "@spider": "usps_collection_boxes", "addr:city": "COLORADO SPGS", "addr:country": "US", "addr:postcode": "80910", "addr:state": "CO", "addr:street_address": "3655 E FOUNTAIN BLVD", "amenity": "post_box", "collection_times": "Mo-Fr 18:00; Sa 13:00", "note": "ON 12/24 AND 12/31, THIS BOX MAY BE COLLECTED AS EARLY AS 12 NOON.", "nsi_id": "unitedstatespostalservice-a77078", "operator": "United States Postal Service", "operator:short": "USPS", "operator:type": "public", "operator:wikidata": "Q668687", "ref": "8091000013"}, "type": "Feature"}
{"geometry": {"coordinates": [-104.759127, 38.822953], "type": "Point"}, "id": "Y6UzXeOeNL6umFCXcxoCULiYq4o=", "properties": {"@source_uri": "https://tools.usps.com/UspsToolsRestServices/rest/POLocator/findLocations", "@spider": "usps_collection_boxes", "addr:city": "COLORADO SPGS", "addr:country": "US", "addr:postcode": "80910", "addr:state": "CO", "addr:street_address": "411 LAKEWOOD CIR", "amenity": "post_box", "collection_times": "Mo-Sa 10:00", "nsi_id": "unitedstatespostalservice-a77078", "operator": "United States Postal Service", "operator:short": "USPS", "operator:type": "public", "operator:wikidata": "Q668687", "ref": "8091000021"}, "type": "Feature"}
{"geometry": {"coordinates": [-104.760461, 38.813182], "type": "Point"}, "id": "fabg4OCKCZLxlYFWuvSvMDwMMKM=", "properties": {"@source_uri": "https://tools.usps.com/UspsToolsRestServices/rest/POLocator/findLocations", "@spider": "usps_collection_boxes", "addr:city": "COLORADO SPGS", "addr:country": "US", "addr:postcode": "80910", "addr:state": "CO", "addr:street_address": "3655 E FOUNTAIN BLVD", "amenity": "post_box", "collection_times": "Mo-Fr 18:00; Sa 13:00", "indoor": "yes", "note": "ON 12/24 AND 12/31, THIS BOX MAY BE COLLECTED AS EARLY AS 12 NOON.", "nsi_id": "unitedstatespostalservice-a77078", "operator": "United States Postal Service", "operator:short": "USPS", "operator:type": "public", "operator:wikidata": "Q668687", "ref": "8091000023"}, "type": "Feature"}
{"geometry": {"coordinates": [-104.760472, 38.813182], "type": "Point"}, "id": "DlHQ7WtnDwkFOMKNz4oSfovNykQ=", "properties": {"@source_uri": "https://tools.usps.com/UspsToolsRestServices/rest/POLocator/findLocations", "@spider": "usps_collection_boxes", "addr:city": "COLORADO SPGS", "addr:country": "US", "addr:postcode": "80910", "addr:state": "CO", "addr:street_address": "3655 E FOUNTAIN BLVD", "amenity": "post_box", "collection_times": "Mo-Fr 18:00; Sa 13:00", "indoor": "yes", "note": "ON 12/24 AND 12/31, THIS BOX MAY BE COLLECTED AS EARLY AS 12 NOON.", "nsi_id": "unitedstatespostalservice-a77078", "operator": "United States Postal Service", "operator:short": "USPS", "operator:type": "public", "operator:wikidata": "Q668687", "ref": "8091000024"}, "type": "Feature"}
{"geometry": {"coordinates": [-104.760383, 38.813186], "type": "Point"}, "id": "oZf40u9-HITYfBnuWhNsRDFSVs4=", "properties": {"@source_uri": "https://tools.usps.com/UspsToolsRestServices/rest/POLocator/findLocations", "@spider": "usps_collection_boxes", "addr:city": "COLORADO SPGS", "addr:country": "US", "addr:postcode": "80910", "addr:state": "CO", "addr:street_address": "3655 E FOUNTAIN BLVD", "amenity": "post_box", "collection_times": "Mo-Fr 18:00; Sa 13:00", "name": "USPS COLLECTION BOX - APC", "note": "ON 12/24 AND 12/31, THIS BOX MAY BE COLLECTED AS EARLY AS 12 NOON.", "nsi_id": "unitedstatespostalservice-a77078", "operator": "United States Postal Service", "operator:short": "USPS", "operator:type": "public", "operator:wikidata": "Q668687", "ref": "8091000025"}, "type": "Feature"}
{"geometry": {"coordinates": [-104.793142, 38.829766], "type": "Point"}, "id": "HBSw8LUB6F6LzgoZ9PkOkYPmrGU=", "properties": {"@source_uri": "https://tools.usps.com/UspsToolsRestServices/rest/POLocator/findLocations", "@spider": "usps_collection_boxes", "addr:city": "COLORADO SPGS", "addr:country": "US", "addr:postcode": "80910", "addr:state": "CO", "addr:street_address": "175 S UNION BLVD", "amenity": "post_box", "collection_times": "Mo-Fr 11:30; Sa 11:00", "nsi_id": "unitedstatespostalservice-a77078", "operator": "United States Postal Service", "operator:short": "USPS", "operator:type": "public", "operator:wikidata": "Q668687", "ref": "8091000038"}, "type": "Feature"}
{"geometry": {"coordinates": [-104.7598957555, 38.8140482515], "type": "Point"}, "id": "ML39eCxoGUP_1o3GQslo6jnDPcY=", "properties": {"@source_uri": "https://tools.usps.com/UspsToolsRestServices/rest/POLocator/findLocations", "@spider": "usps_collection_boxes", "addr:city": "COLORADO SPGS", "addr:country": "US", "addr:postcode": "80910", "addr:state": "CO", "addr:street_address": "3655 E FOUNTAIN BLVD", "amenity": "post_box", "collection_times": "Mo-Fr 18:00; Sa 14:00", "indoor": "yes", "note": "ON 12/24 AND 12/31, THIS BOX MAY BE COLLECTED AS EARLY AS 12 NOON.", "nsi_id": "unitedstatespostalservice-a77078", "operator": "United States Postal Service", "operator:short": "USPS", "operator:type": "public", "operator:wikidata": "Q668687", "ref": "8091000042"}, "type": "Feature"}
{"geometry": {"coordinates": [-104.727398, 38.737024], "type": "Point"}, "id": "09Bs7yVNzjHDfqzR37WAUaEBWZ8=", "properties": {"@source_uri": "https://tools.usps.com/UspsToolsRestServices/rest/POLocator/findLocations", "@spider": "usps_collection_boxes", "addr:city": "COLORADO SPGS", "addr:country": "US", "addr:postcode": "80911", "addr:state": "CO", "addr:street_address": "165 FONTAINE BLVD", "amenity": "post_box", "collection_times": "Mo-Fr 11:30; Sa 10:30", "nsi_id": "unitedstatespostalservice-a77078", "operator": "United States Postal Service", "operator:short": "USPS", "operator:type": "public", "operator:wikidata": "Q668687", "ref": "8091100000"}, "type": "Feature"}
{"geometry": {"coordinates": [-104.720434, 38.747976], "type": "Point"}, "id": "DFob7BSt4oxQzd2sUIIci1o-X9k=", "properties": {"@source_uri": "https://tools.usps.com/UspsToolsRestServices/rest/POLocator/findLocations", "@spider": "usps_collection_boxes", "addr:city": "COLORADO SPGS", "addr:country": "US", "addr:postcode": "80911", "addr:state": "CO", "addr:street_address": "5755 KITTERY DR", "amenity": "post_box", "collection_times": "Mo-Fr 17:00; Sa 14:00", "note": "ON 12/24 AND 12/31, THIS BOX MAY BE COLLECTED AS EARLY AS 12 NOON.", "nsi_id": "unitedstatespostalservice-a77078", "operator": "United States Postal Service", "operator:short": "USPS", "operator:type": "public", "operator:wikidata": "Q668687", "ref": "8091100004"}, "type": "Feature"}
{"geometry": {"coordinates": [-104.7575996, 38.7818081], "type": "Point"}, "id": "Sr8Lf1KB6K0QHkHS7JdXQw9Ichc=", "properties": {"@source_uri": "https://tools.usps.com/UspsToolsRestServices/rest/POLocator/findLocations", "@spider": "usps_collection_boxes", "addr:city": "COLORADO SPGS", "addr:country": "US", "addr:postcode": "80911", "addr:state": "CO", "addr:street_address": "352 MAIN ST", "amenity": "post_box", "collection_times": "Mo-Fr 11:30; Sa 10:30", "nsi_id": "unitedstatespostalservice-a77078", "operator": "United States Postal Service", "operator:short": "USPS", "operator:type": "public", "operator:wikidata": "Q668687", "ref": "8091100006"}, "type": "Feature"}
{"geometry": {"coordinates": [-104.720434, 38.747976], "type": "Point"}, "id": "MPZVDZcagQegVedJQTbf_m_9_dA=", "properties": {"@source_uri": "https://tools.usps.com/UspsToolsRestServices/rest/POLocator/findLocations", "@spider": "usps_collection_boxes", "addr:city": "COLORADO SPGS", "addr:country": "US", "addr:postcode": "80911", "addr:state": "CO", "addr:street_address": "5755 KITTERY DR", "amenity": "post_box", "collection_times": "Mo-Fr 17:00; Sa 14:00", "indoor": "yes", "note": "ON 12/24 AND 12/31, THIS BOX MAY BE COLLECTED AS EARLY AS 12 NOON.", "nsi_id": "unitedstatespostalservice-a77078", "operator": "United States Postal Service", "operator:short": "USPS", "operator:type": "public", "operator:wikidata": "Q668687", "ref": "8091100013"}, "type": "Feature"}
{"geometry": {"coordinates": [-104.720434, 38.747976], "type": "Point"}, "id": "5VXaVrvjfpGe_nfSn05FjuFQ8aU=", "properties": {"@source_uri": "https://tools.usps.com/UspsToolsRestServices/rest/POLocator/findLocations", "@spider": "usps_collection_boxes", "addr:city": "COLORADO SPGS", "addr:country": "US", "addr:postcode": "80911", "addr:state": "CO", "addr:street_address": "5755 KITTERY DR", "amenity": "post_box", "collection_times": "Mo-Fr 17:00; Sa 14:00", "indoor": "yes", "note": "ON 12/24 AND 12/31, THIS BOX MAY BE COLLECTED AS EARLY AS 12 NOON.", "nsi_id": "unitedstatespostalservice-a77078", "operator": "United States Postal Service", "operator:short": "USPS", "operator:type": "public", "operator:wikidata": "Q668687", "ref": "8091100014"}, "type": "Feature"}
{"geometry": {"coordinates": [-104.720434, 38.747976], "type": "Point"}, "id": "0d0oeGTvVs80DWVr_LbaHP-pQx4=", "properties": {"@source_uri": "https://tools.usps.com/UspsToolsRestServices/rest/POLocator/findLocations", "@spider": "usps_collection_boxes", "addr:city": "COLORADO SPGS", "addr:country": "US", "addr:postcode": "80911", "addr:state": "CO", "addr:street_address": "5755 KITTERY DR", "amenity": "post_box", "collection_times": "Mo-Fr 17:00; Sa 14:00", "name": "USPS COLLECTION BOX - APC", "note": "ON 12/24 AND 12/31, THIS BOX MAY BE COLLECTED AS EARLY AS 12 NOON.", "nsi_id": "unitedstatespostalservice-a77078", "operator": "United States Postal Service", "operator:short": "USPS", "operator:type": "public", "operator:wikidata": "Q668687", "ref": "8091100016"}, "type": "Feature"}
{"geometry": {"coordinates": [-104.7204146091, 38.7479791306], "type": "Point"}, "id": "2ICioe6PCa3TAdvEr6YIdhInp6c=", "properties": {"@source_uri": "https://tools.usps.com/UspsToolsRestServices/rest/POLocator/findLocations", "@spider": "usps_collection_boxes", "addr:city": "COLORADO SPGS", "addr:country": "US", "addr:postcode": "80911", "addr:state": "CO", "addr:street_address": "5755 KITTERY DR", "amenity": "post_box", "collection_times": "Mo-Fr 17:00; Sa 14:00", "indoor": "yes", "note": "ON 12/24 AND 12/31, THIS BOX MAY BE COLLECTED AS EARLY AS 12 NOON.", "nsi_id": "unitedstatespostalservice-a77078", "operator": "United States Postal Service", "operator:short": "USPS", "operator:type": "public", "operator:wikidata": "Q668687", "ref": "8091100018"}, "type": "Feature"}
{"geometry": {"coordinates": [-104.789038, 38.738762], "type": "Point"}, "id": "cmWAnlB3mC8ZNbAQSRqPJHuYMXQ=", "properties": {"@source_uri": "https://tools.usps.com/UspsToolsRestServices/rest/POLocator/findLocations", "@spider": "usps_collection_boxes", "addr:city": "COLORADO SPRINGS", "addr:country": "US", "addr:postcode": "80913", "addr:state": "CO", "addr:street_address": "1611 MCDONALD ST", "amenity": "post_box", "collection_times": "Mo-Fr 16:30; Sa 12:00", "note": "ON 12/24 AND 12/31, THIS BOX MAY BE COLLECTED AS EARLY AS 12 NOON.", "nsi_id": "unitedstatespostalservice-a77078", "operator": "United States Postal Service", "operator:short": "USPS", "operator:type": "public", "operator:wikidata": "Q668687", "ref": "8091300013"}, "type": "Feature"}
{"geometry": {"coordinates": [-104.789412, 38.738238], "type": "Point"}, "id": "5pXculttrt7keBijSaBOMsYeBh8=", "properties": {"@source_uri": "https://tools.usps.com/UspsToolsRestServices/rest/POLocator/findLocations", "@spider": "usps_collection_boxes", "addr:city": "COLORADO SPRINGS", "addr:country": "US", "addr:postcode": "80913", "addr:state": "CO", "addr:street_address": "1611 MCDONALD ST", "amenity": "post_box", "collection_times": "Mo-Fr 16:30; Sa 12:00", "indoor": "yes", "note": "ON 12/24 AND 12/31, THIS BOX MAY BE COLLECTED AS EARLY AS 12 NOON.", "nsi_id": "unitedstatespostalservice-a77078", "operator": "United States Postal Service", "operator:short": "USPS", "operator:type": "public", "operator:wikidata": "Q668687", "ref": "8091300015"}, "type": "Feature"}
{"geometry": {"coordinates": [-104.798048, 38.718951], "type": "Point"}, "id": "gvRVJOmmQ9Z5TOggBVikcyIQll0=", "properties": {"@source_uri": "https://tools.usps.com/UspsToolsRestServices/rest/POLocator/findLocations", "@spider": "usps_collection_boxes", "addr:city": "COLORADO SPRINGS", "addr:country": "US", "addr:postcode": "80913", "addr:state": "CO", "addr:street_address": "1650 COCHRANE CIR", "amenity": "post_box", "collection_times": "Mo-Fr 14:30; Sa 12:30", "note": "ON 12/24 AND 12/31, THIS BOX MAY BE COLLECTED AS EARLY AS 12 NOON.", "nsi_id": "unitedstatespostalservice-a77078", "operator": "United States Postal Service", "operator:short": "USPS", "operator:type": "public", "operator:wikidata": "Q668687", "ref": "8091300018"}, "type": "Feature"}
{"geometry": {"coordinates": [-104.7905867447, 38.7378845786], "type": "Point"}, "id": "QPwG-mJrrkRzhMqGIcTpi-YBwis=", "properties": {"@source_uri": "https://tools.usps.com/UspsToolsRestServices/rest/POLocator/findLocations", "@spider": "usps_collection_boxes", "addr:city": "COLORADO SPRINGS", "addr:country": "US", "addr:postcode": "80913", "addr:state": "CO", "addr:street_address": "1611 MCDONALD ST", "amenity": "post_box", "collection_times": "Mo-Fr 16:30; Sa 12:00", "indoor": "yes", "note": "ON 12/24 AND 12/31, THIS BOX MAY BE COLLECTED AS EARLY AS 12 NOON.", "nsi_id": "unitedstatespostalservice-a77078", "operator": "United States Postal Service", "operator:short": "USPS", "operator:type": "public", "operator:wikidata": "Q668687", "ref": "8091300021"}, "type": "Feature"}
{"geometry": {"coordinates": [-104.698523, 38.834018], "type": "Point"}, "id": "GSLsAg5tO3DlgqxYMtuLfzmIe1A=", "properties": {"@source_uri": "https://tools.usps.com/UspsToolsRestServices/rest/POLocator/findLocations", "@spider": "usps_collection_boxes", "addr:city": "COLORADO SPRINGS", "addr:country": "US", "addr:postcode": "80914", "addr:state": "CO", "addr:street_address": "360 W OTIS ST", "amenity": "post_box", "collection_times": "Mo-Sa 11:30", "nsi_id": "unitedstatespostalservice-a77078", "operator": "United States Postal Service", "operator:short": "USPS", "operator:type": "public", "operator:wikidata": "Q668687", "ref": "8091400009"}, "type": "Feature"}
{"geometry": {"coordinates": [-104.6819745, 38.8522694], "type": "Point"}, "id": "BT5TPPFKmVceLnUoft28lPCeW3Y=", "properties": {"@source_uri": "https://tools.usps.com/UspsToolsRestServices/rest/POLocator/findLocations", "@spider": "usps_collection_boxes", "addr:city": "COLORADO SPGS", "addr:country": "US", "addr:postcode": "80915", "addr:state": "CO", "addr:street_address": "645 N MURRAY BLVD", "amenity": "post_box", "collection_times": "Mo-Fr 12:45; Sa 12:15", "note": "ON 12/24 AND 12/31, THIS BOX MAY BE COLLECTED AS EARLY AS 12 NOON.", "nsi_id": "unitedstatespostalservice-a77078", "operator": "United States Postal Service", "operator:short": "USPS", "operator:type": "public", "operator:wikidata": "Q668687", "ref": "8091500005"}, "type": "Feature"}
{"geometry": {"coordinates": [-104.700038, 38.8583], "type": "Point"}, "id": "2h4s7TeUek-750AjUSR-VSM1_Ao=", "properties": {"@source_uri": "https://tools.usps.com/UspsToolsRestServices/rest/POLocator/findLocations", "@spider": "usps_collection_boxes", "addr:city": "COLORADO SPGS", "addr:country": "US", "addr:postcode": "80915", "addr:state": "CO", "addr:street_address": "1817 PETERSON RD", "amenity": "post_box", "collection_times": "Mo-Fr 12:45; Sa 12:15", "note": "ON 12/24 AND 12/31, THIS BOX MAY BE COLLECTED AS EARLY AS 12 NOON.", "nsi_id": "unitedstatespostalservice-a77078", "operator": "United States Postal Service", "operator:short": "USPS", "operator:type": "public", "operator:wikidata": "Q668687", "ref": "8091500008"}, "type": "Feature"}
{"geometry": {"coordinates": [-104.7167900255, 38.8461905162], "type": "Point"}, "id": "SbR8xBOtsA-MBhoT9UJ7iW27orI=", "properties": {"@source_uri": "https://tools.usps.com/UspsToolsRestServices/rest/POLocator/findLocations", "@spider": "usps_collection_boxes", "addr:city": "COLORADO SPGS", "addr:country": "US", "addr:postcode": "80915", "addr:state": "CO", "addr:street_address": "5925 GALLEY RD", "amenity": "post_box", "collection_times": "Mo-Fr 17:00; Sa 13:00", "note": "ON 12/24 AND 12/31, THIS BOX MAY BE COLLECTED AS EARLY AS 12 NOON.", "nsi_id": "unitedstatespostalservice-a77078", "operator": "United States Postal Service", "operator:short": "USPS", "operator:type": "public", "operator:wikidata": "Q668687", "ref": "8091500011"}, "type": "Feature"}
{"geometry": {"coordinates": [-104.717166, 38.846203], "type": "Point"}, "id": "MQdbWc7g7k_P0k_jqgYWenPghtk=", "properties": {"@source_uri": "https://tools.usps.com/UspsToolsRestServices/rest/POLocator/findLocations", "@spider": "usps_collection_boxes", "addr:city": "COLORADO SPGS", "addr:country": "US", "addr:postcode": "80915", "addr:state": "CO", "addr:street_address": "5925 GALLEY RD", "amenity": "post_box", "collection_times": "Mo-Fr 17:00; Sa 13:00", "indoor": "yes", "note": "ON 12/24 AND 12/31, THIS BOX MAY BE COLLECTED AS EARLY AS 12 NOON.", "nsi_id": "unitedstatespostalservice-a77078", "operator": "United States Postal Service", "operator:short": "USPS", "operator:type": "public", "operator:wikidata": "Q668687", "ref": "8091500020"}, "type": "Feature"}
{"geometry": {"coordinates": [-104.717166, 38.846203], "type": "Point"}, "id": "7UKWzvgvIcbep0PP1B0t9AqIY5o=", "properties": {"@source_uri": "https://tools.usps.com/UspsToolsRestServices/rest/POLocator/findLocations", "@spider": "usps_collection_boxes", "addr:city": "COLORADO SPGS", "addr:country": "US", "addr:postcode": "80915", "addr:state": "CO", "addr:street_address": "5925 GALLEY RD", "amenity": "post_box", "collection_times": "Mo-Fr 17:00; Sa 13:00", "indoor": "yes", "note": "ON 12/24 AND 12/31, THIS BOX MAY BE COLLECTED AS EARLY AS 12 NOON.", "nsi_id": "unitedstatespostalservice-a77078", "operator": "United States Postal Service", "operator:short": "USPS", "operator:type": "public", "operator:wikidata": "Q668687", "ref": "8091500021"}, "type": "Feature"}
{"geometry": {"coordinates": [-104.717166, 38.846203], "type": "Point"}, "id": "SRzP-EAxJytg8n_Flc14D8kCry4=", "properties": {"@source_uri": "https://tools.usps.com/UspsToolsRestServices/rest/POLocator/findLocations", "@spider": "usps_collection_boxes", "addr:city": "COLORADO SPGS", "addr:country": "US", "addr:postcode": "80915", "addr:state": "CO", "addr:street_address": "5925 GALLEY RD", "amenity": "post_box", "collection_times": "Mo-Fr 17:00; Sa 13:00", "indoor": "yes", "note": "ON 12/24 AND 12/31, THIS BOX MAY BE COLLECTED AS EARLY AS 12 NOON.", "nsi_id": "unitedstatespostalservice-a77078", "operator": "United States Postal Service", "operator:short": "USPS", "operator:type": "public", "operator:wikidata": "Q668687", "ref": "8091500022"}, "type": "Feature"}
{"geometry": {"coordinates": [-104.72169, 38.855048], "type": "Point"}, "id": "VWCLQhNv0UXPwn4asmcHBPlLeGE=", "properties": {"@source_uri": "https://tools.usps.com/UspsToolsRestServices/rest/POLocator/findLocations", "@spider": "usps_collection_boxes", "addr:city": "COLORADO SPGS", "addr:country": "US", "addr:postcode": "80915", "addr:state": "CO", "addr:street_address": "1575 SPACE CENTER DR", "amenity": "post_box", "collection_times": "Mo-Fr 12:45; Sa 12:15", "note": "ON 12/24 AND 12/31, THIS BOX MAY BE COLLECTED AS EARLY AS 12 NOON.", "nsi_id": "unitedstatespostalservice-a77078", "operator": "United States Postal Service", "operator:short": "USPS", "operator:type": "public", "operator:wikidata": "Q668687", "ref": "8091500024"}, "type": "Feature"}
{"geometry": {"coordinates": [-104.717166, 38.846203], "type": "Point"}, "id": "CwYe63bQOMJW76YT8tpfJzKHEVU=", "properties": {"@source_uri": "https://tools.usps.com/UspsToolsRestServices/rest/POLocator/findLocations", "@spider": "usps_collection_boxes", "addr:city": "COLORADO SPGS", "addr:country": "US", "addr:postcode": "80915", "addr:state": "CO", "addr:street_address": "5925 GALLEY RD", "amenity": "post_box", "collection_times": "Mo-Fr 17:00; Sa 13:00", "name": "USPS COLLECTION BOX - APC", "note": "ON 12/24 AND 12/31, THIS BOX MAY BE COLLECTED AS EARLY AS 12 NOON.", "nsi_id": "unitedstatespostalservice-a77078", "operator": "United States Postal Service", "operator:short": "USPS", "operator:type": "public", "operator:wikidata": "Q668687", "ref": "8091500025"}, "type": "Feature"}
{"geometry": {"coordinates": [-104.7167900255, 38.8461905162], "type": "Point"}, "id": "Fp8CJA4tH7MHigVFXomX1lm_uGs=", "properties": {"@source_uri": "https://tools.usps.com/UspsToolsRestServices/rest/POLocator/findLocations", "@spider": "usps_collection_boxes", "addr:city": "COLORADO SPGS", "addr:country": "US", "addr:postcode": "80915", "addr:state": "CO", "addr:street_address": "5925 GALLEY RD", "amenity": "post_box", "collection_times": "Mo-Fr 17:00; Sa 13:00", "indoor": "yes", "note": "ON 12/24 AND 12/31, THIS BOX MAY BE COLLECTED AS EARLY AS 12 NOON.", "nsi_id": "unitedstatespostalservice-a77078", "operator": "United States Postal Service", "operator:short": "USPS", "operator:type": "public", "operator:wikidata": "Q668687", "ref": "8091500027"}, "type": "Feature"}
{"geometry": {"coordinates": [-104.755511, 38.880455], "type": "Point"}, "id": "kxe7HxNSOIsPLruLir_kWosrzXU=", "properties": {"@source_uri": "https://tools.usps.com/UspsToolsRestServices/rest/POLocator/findLocations", "@spider": "usps_collection_boxes", "addr:city": "COLORADO SPGS", "addr:country": "US", "addr:postcode": "80917", "addr:state": "CO", "addr:street_address": "3325 N ACADEMY BLVD", "amenity": "post_box", "collection_times": "Mo-Fr 11:00; Sa 10:30", "nsi_id": "unitedstatespostalservice-a77078", "operator": "United States Postal Service", "operator:short": "USPS", "operator:type": "public", "operator:wikidata": "Q668687", "ref": "8091700001"}, "type": "Feature"}
{"geometry": {"coordinates": [-104.7397679671, 38.8854110003], "type": "Point"}, "id": "HMs5u5V4HyLcd1syi56RA_SU7Fs=", "properties": {"@source_uri": "https://tools.usps.com/UspsToolsRestServices/rest/POLocator/findLocations", "@spider": "usps_collection_boxes", "addr:city": "COLORADO SPGS", "addr:country": "US", "addr:postcode": "80917", "addr:state": "CO", "addr:street_address": "4715 N CAREFREE CIR", "amenity": "post_box", "collection_times": "Mo-Fr 12:45; Sa 12:15", "note": "ON 12/24 AND 12/31, THIS BOX MAY BE COLLECTED AS EARLY AS 12 NOON.", "nsi_id": "unitedstatespostalservice-a77078", "operator": "United States Postal Service", "operator:short": "USPS", "operator:type": "public", "operator:wikidata": "Q668687", "ref": "8091700002"}, "type": "Feature"}
{"geometry": {"coordinates": [-104.721739, 38.885732], "type": "Point"}, "id": "IgH_kk5Ufd2itzOWuPk7C9FnUUA=", "properties": {"@source_uri": "https://tools.usps.com/UspsToolsRestServices/rest/POLocator/findLocations", "@spider": "usps_collection_boxes", "addr:city": "COLORADO SPGS", "addr:country": "US", "addr:postcode": "80917", "addr:state": "CO", "addr:street_address": "5720 N CAREFREE CIR", "amenity": "post_box", "collection_times": "Mo-Sa 10:00", "nsi_id": "unitedstatespostalservice-a77078", "operator": "United States Postal Service", "operator:short": "USPS", "operator:type": "public", "operator:wikidata": "Q668687", "ref": "8091700004"}, "type": "Feature"}
{"geometry": {"coordinates": [-104.747688, 38.873306], "type": "Point"}, "id": "7mFZWL-b7g2YEk21k3f-_cbMSCA=", "properties": {"@source_uri": "https://tools.usps.com/UspsToolsRestServices/rest/POLocator/findLocations", "@spider": "usps_collection_boxes", "addr:city": "COLORADO SPGS", "addr:country": "US", "addr:postcode": "80917", "addr:state": "CO", "addr:street_address": "2855 N MURRAY BLVD", "amenity": "post_box", "collection_times": "Mo-Sa 11:00", "nsi_id": "unitedstatespostalservice-a77078", "operator": "United States Postal Service", "operator:short": "USPS", "operator:type": "public", "operator:wikidata": "Q668687", "ref": "8091700009"}, "type": "Feature"}
{"geometry": {"coordinates": [-104.737503, 38.896735], "type": "Point"}, "id": "RSZvdXfUkI7lbOU19l93eMrICPI=", "properties": {"@source_uri": "https://tools.usps.com/UspsToolsRestServices/rest/POLocator/findLocations", "@spider": "usps_collection_boxes", "addr:city": "COLORADO SPGS", "addr:country": "US", "addr:postcode": "80917", "addr:state": "CO", "addr:street_address": "4700 ORO BLANCO DR", "amenity": "post_box", "collection_times": "Mo-Sa 10:00", "nsi_id": "unitedstatespostalservice-a77078", "operator": "United States Postal Service", "operator:short": "USPS", "operator:type": "public", "operator:wikidata": "Q668687", "ref": "8091700010"}, "type": "Feature"}
{"geometry": {"coordinates": [-104.753812, 38.880948], "type": "Point"}, "id": "9UXgZg0Cy6wEnJjAOisgVFRKNtI=", "properties": {"@source_uri": "https://tools.usps.com/UspsToolsRestServices/rest/POLocator/findLocations", "@spider": "usps_collection_boxes", "addr:city": "COLORADO SPGS", "addr:country": "US", "addr:postcode": "80917", "addr:state": "CO", "addr:street_address": "4356 MONTEBELLO DR", "amenity": "post_box", "collection_times": "Mo-Fr 17:30; Sa 14:00", "indoor": "yes", "note": "ON 12/24 AND 12/31, THIS BOX MAY BE COLLECTED AS EARLY AS 12 NOON.", "nsi_id": "unitedstatespostalservice-a77078", "operator": "United States Postal Service", "operator:short": "USPS", "operator:type": "public", "operator:wikidata": "Q668687", "ref": "8091700017"}, "type": "Feature"}
{"geometry": {"coordinates": [-104.756386, 38.89503], "type": "Point"}, "id": "G9O1JhIXmiQSiSb-O1pUHO1yaNo=", "properties": {"@source_uri": "https://tools.usps.com/UspsToolsRestServices/rest/POLocator/findLocations", "@spider": "usps_collection_boxes", "addr:city": "COLORADO SPGS", "addr:country": "US", "addr:postcode": "80917", "addr:state": "CO", "addr:street_address": "4356 MONTEBELLO DR", "amenity": "post_box", "collection_times": "Mo-Fr 17:30; Sa 14:00", "name": "USPS COLLECTION BOX - APC", "note": "ON 12/24 AND 12/31, THIS BOX MAY BE COLLECTED AS EARLY AS 12 NOON.", "nsi_id": "unitedstatespostalservice-a77078", "operator": "United States Postal Service", "operator:short": "USPS", "operator:type": "public", "operator:wikidata": "Q668687", "ref": "8091700023"}, "type": "Feature"}
{"geometry": {"coordinates": [-104.7567451294, 38.8948528141], "type": "Point"}, "id": "AOssi0IsONf-nzV9XhlgPF92uyc=", "properties": {"@source_uri": "https://tools.usps.com/UspsToolsRestServices/rest/POLocator/findLocations", "@spider": "usps_collection_boxes", "addr:city": "COLORADO SPGS", "addr:country": "US", "addr:postcode": "80917", "addr:state": "CO", "addr:street_address": "4356 MONTEBELLO DR", "amenity": "post_box", "collection_times": "Mo-Fr 17:30; Sa 14:00", "indoor": "yes", "note": "ON 12/24 AND 12/31, THIS BOX MAY BE COLLECTED AS EARLY AS 12 NOON.", "nsi_id": "unitedstatespostalservice-a77078", "operator": "United States Postal Service", "operator:short": "USPS", "operator:type": "public", "operator:wikidata": "Q668687", "ref": "8091700028"}, "type": "Feature"}
{"geometry": {"coordinates": [-104.786118, 38.913777], "type": "Point"}, "id": "2vVtBmZvV9U89APGrmSZMt1Kpb8=", "properties": {"@source_uri": "https://tools.usps.com/UspsToolsRestServices/rest/POLocator/findLocations", "@spider": "usps_collection_boxes", "addr:city": "COLORADO SPGS", "addr:country": "US", "addr:postcode": "80918", "addr:state": "CO", "addr:street_address": "5691 N ACADEMY BLVD", "amenity": "post_box", "collection_times": "Mo-Sa 09:00", "nsi_id": "unitedstatespostalservice-a77078", "operator": "United States Postal Service", "operator:short": "USPS", "operator:type": "public", "operator:wikidata": "Q668687", "ref": "8091800005"}, "type": "Feature"}
{"geometry": {"coordinates": [-104.7731272392, 38.9257635309], "type": "Point"}, "id": "HyPspsI90BoGr5EFAIY3fmr50wk=", "properties": {"@source_uri": "https://tools.usps.com/UspsToolsRestServices/rest/POLocator/findLocations", "@spider": "usps_collection_boxes", "addr:city": "COLORADO SPGS", "addr:country": "US", "addr:postcode": "80918", "addr:state": "CO", "addr:street_address": "2865 DUBLIN BLVD", "amenity": "post_box", "collection_times": "Mo-Fr 12:30; Sa 12:00", "note": "ON 12/24 AND 12/31, THIS BOX MAY BE COLLECTED AS EARLY AS 12 NOON.", "nsi_id": "unitedstatespostalservice-a77078", "operator": "United States Postal Service", "operator:short": "USPS", "operator:type": "public", "operator:wikidata": "Q668687", "ref": "8091800022"}, "type": "Feature"}
{"geometry": {"coordinates": [-104.7567406294, 38.8948528141], "type": "Point"}, "id": "AM8NclK6nNW4C5Ff1Maf0eeNPc8=", "properties": {"@source_uri": "https://tools.usps.com/UspsToolsRestServices/rest/POLocator/findLocations", "@spider": "usps_collection_boxes", "addr:city": "COLORADO SPGS", "addr:country": "US", "addr:postcode": "80918", "addr:state": "CO", "addr:street_address": "4356 MONTEBELLO DR", "amenity": "post_box", "collection_times": "Mo-Fr 17:30; Sa 14:00", "note": "ON 12/24 AND 12/31, THIS BOX MAY BE COLLECTED AS EARLY AS 12 NOON.", "nsi_id": "unitedstatespostalservice-a77078", "operator": "United States Postal Service", "operator:short": "USPS", "operator:type": "public", "operator:wikidata": "Q668687", "ref": "8091800027"}, "type": "Feature"}
{"geometry": {"coordinates": [-104.756794, 38.894835], "type": "Point"}, "id": "kgGDtuqUrUYKrZjVuIyrf1L_-bk=", "properties": {"@source_uri": "https://tools.usps.com/UspsToolsRestServices/rest/POLocator/findLocations", "@spider": "usps_collection_boxes", "addr:city": "COLORADO SPGS", "addr:country": "US", "addr:postcode": "80918", "addr:state": "CO", "addr:street_address": "4356 MONTEBELLO DR", "amenity": "post_box", "collection_times": "Mo-Fr 17:30; Sa 14:00", "indoor": "yes", "note": "ON 12/24 AND 12/31, THIS BOX MAY BE COLLECTED AS EARLY AS 12 NOON.", "nsi_id": "unitedstatespostalservice-a77078", "operator": "United States Postal Service", "operator:short": "USPS", "operator:type": "public", "operator:wikidata": "Q668687", "ref": "8091800028"}, "type": "Feature"}
{"geometry": {"coordinates": [-104.756794, 38.894835], "type": "Point"}, "id": "_R2z9X8aDfj_AprcTmiw9w5zzWI=", "properties": {"@source_uri": "https://tools.usps.com/UspsToolsRestServices/rest/POLocator/findLocations", "@spider": "usps_collection_boxes", "addr:city": "COLORADO SPGS", "addr:country": "US", "addr:postcode": "80918", "addr:state": "CO", "addr:street_address": "4356 MONTEBELLO DR", "amenity": "post_box", "collection_times": "Mo-Fr 17:30; Sa 14:00", "indoor": "yes", "note": "ON 12/24 AND 12/31, THIS BOX MAY BE COLLECTED AS EARLY AS 12 NOON.", "nsi_id": "unitedstatespostalservice-a77078", "operator": "United States Postal Service", "operator:short": "USPS", "operator:type": "public", "operator:wikidata": "Q668687", "ref": "8091800029"}, "type": "Feature"}
{"geometry": {"coordinates": [-104.7948508603, 38.9307776509], "type": "Point"}, "id": "VzEoHPJ4-bp-_GX_cww2D3AeUY8=", "properties": {"@source_uri": "https://tools.usps.com/UspsToolsRestServices/rest/POLocator/findLocations", "@spider": "usps_collection_boxes", "addr:city": "COLORADO SPGS", "addr:country": "US", "addr:postcode": "80918", "addr:state": "CO", "addr:street_address": "6982 N ACADEMY BLVD", "amenity": "post_box", "collection_times": "Mo-Fr 12:30; Sa 11:30", "note": "ON 12/24 AND 12/31, THIS BOX MAY BE COLLECTED AS EARLY AS 12 NOON.", "nsi_id": "unitedstatespostalservice-a77078", "operator": "United States Postal Service", "operator:short": "USPS", "operator:type": "public", "operator:wikidata": "Q668687", "ref": "8091800036"}, "type": "Feature"}
{"geometry": {"coordinates": [-104.795828, 38.926327], "type": "Point"}, "id": "M6TptLOhdGy4ixeBTaWyTdB74pY=", "properties": {"@source_uri": "https://tools.usps.com/UspsToolsRestServices/rest/POLocator/findLocations", "@spider": "usps_collection_boxes", "addr:city": "COLORADO SPGS", "addr:country": "US", "addr:postcode": "80918", "addr:state": "CO", "addr:street_address": "1714 DUBLIN BLVD", "amenity": "post_box", "collection_times": "Mo-Fr 12:00; Sa 11:30", "nsi_id": "unitedstatespostalservice-a77078", "operator": "United States Postal Service", "operator:short": "USPS", "operator:type": "public", "operator:wikidata": "Q668687", "ref": "8091800043"}, "type": "Feature"}
{"geometry": {"coordinates": [-104.7782490332, 38.9126239805], "type": "Point"}, "id": "G0EHRlJtLwBXfl-IoQQmxsgwTaA=", "properties": {"@source_uri": "https://tools.usps.com/UspsToolsRestServices/rest/POLocator/findLocations", "@spider": "usps_collection_boxes", "addr:city": "COLORADO SPGS", "addr:country": "US", "addr:postcode": "80918", "addr:state": "CO", "addr:street_address": "5550 N UNION BLVD", "amenity": "post_box", "collection_times": "Mo-Fr 11:45; Sa 11:00", "nsi_id": "unitedstatespostalservice-a77078", "operator": "United States Postal Service", "operator:short": "USPS", "operator:type": "public", "operator:wikidata": "Q668687", "ref": "8091800045"}, "type": "Feature"}
{"geometry": {"coordinates": [-104.767445, 38.900736], "type": "Point"}, "id": "395DrgDhzj1CT5vpP5tB_ALQoAw=", "properties": {"@source_uri": "https://tools.usps.com/UspsToolsRestServices/rest/POLocator/findLocations", "@spider": "usps_collection_boxes", "addr:city": "COLORADO SPGS", "addr:country": "US", "addr:postcode": "80918", "addr:state": "CO", "addr:street_address": "4790 N ACADEMY BLVD", "amenity": "post_box", "collection_times": "Mo-Fr 11:45; Sa 10:30", "nsi_id": "unitedstatespostalservice-a77078", "operator": "United States Postal Service", "operator:short": "USPS", "operator:type": "public", "operator:wikidata": "Q668687", "ref": "8091800049"}, "type": "Feature"}
{"geometry": {"coordinates": [-104.778825, 38.905228], "type": "Point"}, "id": "nAfIIS54Xynw3i0u5jtkxCZANks=", "properties": {"@source_uri": "https://tools.usps.com/UspsToolsRestServices/rest/POLocator/findLocations", "@spider": "usps_collection_boxes", "addr:city": "COLORADO SPGS", "addr:country": "US", "addr:postcode": "80918", "addr:state": "CO", "addr:street_address": "5160 N ACADEMY BLVD", "amenity": "post_box", "collection_times": "Mo-Fr 11:45; Sa 11:00", "nsi_id": "unitedstatespostalservice-a77078", "operator": "United States Postal Service", "operator:short": "USPS", "operator:type": "public", "operator:wikidata": "Q668687", "ref": "8091800055"}, "type": "Feature"}
{"geometry": {"coordinates": [-104.739187, 38.93234], "type": "Point"}, "id": "bnMqaJ3xXUU4DbQpu_7oHXIsNSs=", "properties": {"@source_uri": "https://tools.usps.com/UspsToolsRestServices/rest/POLocator/findLocations", "@spider": "usps_collection_boxes", "addr:city": "COLORADO SPGS", "addr:country": "US", "addr:postcode": "80918", "addr:state": "CO", "addr:street_address": "7055 AUSTIN BLUFFS PKWY", "amenity": "post_box", "collection_times": "Mo-Fr 12:45; Sa 12:00", "note": "ON 12/24 AND 12/31, THIS BOX MAY BE COLLECTED AS EARLY AS 12 NOON.", "nsi_id": "unitedstatespostalservice-a77078", "operator": "United States Postal Service", "operator:short": "USPS", "operator:type": "public", "operator:wikidata": "Q668687", "ref": "8091800056"}, "type": "Feature"}
{"geometry": {"coordinates": [-104.756794, 38.894835], "type": "Point"}, "id": "qRoki1BS8AkaA6QzruNIEdb6vh0=", "properties": {"@source_uri": "https://tools.usps.com/UspsToolsRestServices/rest/POLocator/findLocations", "@spider": "usps_collection_boxes", "addr:city": "COLORADO SPGS", "addr:country": "US", "addr:postcode": "80918", "addr:state": "CO", "addr:street_address": "4356 MONTEBELLO DR", "amenity": "post_box", "collection_times": "Mo-Fr 17:30; Sa 14:00", "name": "USPS COLLECTION BOX - APC", "note": "ON 12/24 AND 12/31, THIS BOX MAY BE COLLECTED AS EARLY AS 12 NOON.", "nsi_id": "unitedstatespostalservice-a77078", "operator": "United States Postal Service", "operator:short": "USPS", "operator:type": "public", "operator:wikidata": "Q668687", "ref": "8091800057"}, "type": "Feature"}
{"geometry": {"coordinates": [-104.85863, 38.903758], "type": "Point"}, "id": "jXQwxdk0paA9kHIAJkr-27QQxa4=", "properties": {"@source_uri": "https://tools.usps.com/UspsToolsRestServices/rest/POLocator/findLocations", "@spider": "usps_collection_boxes", "addr:city": "COLORADO SPGS", "addr:country": "US", "addr:postcode": "80919", "addr:state": "CO", "addr:street_address": "5001 CENTENNIAL BLVD", "amenity": "post_box", "collection_times": "Mo-Fr 17:00; Sa 13:00", "note": "ON 12/24 AND 12/31, THIS BOX MAY BE COLLECTED AS EARLY AS 12 NOON.", "nsi_id": "unitedstatespostalservice-a77078", "operator": "United States Postal Service", "operator:short": "USPS", "operator:type": "public", "operator:wikidata": "Q668687", "ref": "8091900001"}, "type": "Feature"}
{"geometry": {"coordinates": [-104.843948, 38.923644], "type": "Point"}, "id": "Zeyic6xF3ZXoiY_GvtptZvvWghc=", "properties": {"@source_uri": "https://tools.usps.com/UspsToolsRestServices/rest/POLocator/findLocations", "@spider": "usps_collection_boxes", "addr:city": "COLORADO SPGS", "addr:country": "US", "addr:postcode": "80919", "addr:state": "CO", "addr:street_address": "840 VILLAGE CENTER DR", "amenity": "post_box", "collection_times": "Mo-Sa 12:30", "note": "ON 12/24 AND 12/31, THIS BOX MAY BE COLLECTED AS EARLY AS 12 NOON.", "nsi_id": "unitedstatespostalservice-a77078", "operator": "United States Postal Service", "operator:short": "USPS", "operator:type": "public", "operator:wikidata": "Q668687", "ref": "8091900017"}, "type": "Feature"}
{"geometry": {"coordinates": [-104.864429, 38.928713], "type": "Point"}, "id": "-MtWb5kxSZpe5R2ltLiQBrrQXgo=", "properties": {"@source_uri": "https://tools.usps.com/UspsToolsRestServices/rest/POLocator/findLocations", "@spider": "usps_collection_boxes", "addr:city": "COLORADO SPGS", "addr:country": "US", "addr:postcode": "80919", "addr:state": "CO", "addr:street_address": "6820 CENTENNIAL BLVD", "amenity": "post_box", "collection_times": "Mo-Sa 12:30", "note": "ON 12/24 AND 12/31, THIS BOX MAY BE COLLECTED AS EARLY AS 12 NOON.", "nsi_id": "unitedstatespostalservice-a77078", "operator": "United States Postal Service", "operator:short": "USPS", "operator:type": "public", "operator:wikidata": "Q668687", "ref": "8091900021"}, "type": "Feature"}
{"geometry": {"coordinates": [-104.830346, 38.927508], "type": "Point"}, "id": "mSdrev_7EuG8pUGis86fumnHUsE=", "properties": {"@source_uri": "https://tools.usps.com/UspsToolsRestServices/rest/POLocator/findLocations", "@spider": "usps_collection_boxes", "addr:city": "COLORADO SPGS", "addr:country": "US", "addr:postcode": "80919", "addr:state": "CO", "addr:street_address": "6600 DELMONICO DR", "amenity": "post_box", "collection_times": "Mo-Fr 13:00; Sa 12:45", "note": "ON 12/24 AND 12/31, THIS BOX MAY BE COLLECTED AS EARLY AS 12 NOON.", "nsi_id": "unitedstatespostalservice-a77078", "operator": "United States Postal Service", "operator:short": "USPS", "operator:type": "public", "operator:wikidata": "Q668687", "ref": "8091900023"}, "type": "Feature"}
{"geometry": {"coordinates": [-104.821545, 38.914543], "type": "Point"}, "id": "9ii-QmygK73UAkEKkomHlmon9z8=", "properties": {"@source_uri": "https://tools.usps.com/UspsToolsRestServices/rest/POLocator/findLocations", "@spider": "usps_collection_boxes", "addr:city": "COLORADO SPGS", "addr:country": "US", "addr:postcode": "80919", "addr:state": "CO", "addr:street_address": "5745 MARK DABLING BLVD", "amenity": "post_box", "collection_times": "Mo-Sa 09:00", "nsi_id": "unitedstatespostalservice-a77078", "operator": "United States Postal Service", "operator:short": "USPS", "operator:type": "public", "operator:wikidata": "Q668687", "ref": "8091900038"}, "type": "Feature"}
{"geometry": {"coordinates": [-104.85863, 38.903758], "type": "Point"}, "id": "j4xqTxZLyRX-XQYwwdcXg-OhZCU=", "properties": {"@source_uri": "https://tools.usps.com/UspsToolsRestServices/rest/POLocator/findLocations", "@spider": "usps_collection_boxes", "addr:city": "COLORADO SPGS", "addr:country": "US", "addr:postcode": "80919", "addr:state": "CO", "addr:street_address": "5001 CENTENNIAL BLVD", "amenity": "post_box", "collection_times": "Mo-Fr 17:00; Sa 13:00", "name": "USPS COLLECTION BOX - APC", "note": "ON 12/24 AND 12/31, THIS BOX MAY BE COLLECTED AS EARLY AS 12 NOON.", "nsi_id": "unitedstatespostalservice-a77078", "operator": "United States Postal Service", "operator:short": "USPS", "operator:type": "public", "operator:wikidata": "Q668687", "ref": "8091900040"}, "type": "Feature"}
{"geometry": {"coordinates": [-104.85863, 38.903758], "type": "Point"}, "id": "MSxuOqiUn3xdr6QDsPtHL2iq4sI=", "properties": {"@source_uri": "https://tools.usps.com/UspsToolsRestServices/rest/POLocator/findLocations", "@spider": "usps_collection_boxes", "addr:city": "COLORADO SPGS", "addr:country": "US", "addr:postcode": "80919", "addr:state": "CO", "addr:street_address": "5001 CENTENNIAL BLVD", "amenity": "post_box", "collection_times": "Mo-Fr 17:00; Sa 13:00", "indoor": "yes", "note": "ON 12/24 AND 12/31, THIS BOX MAY BE COLLECTED AS EARLY AS 12 NOON.", "nsi_id": "unitedstatespostalservice-a77078", "operator": "United States Postal Service", "operator:short": "USPS", "operator:type": "public", "operator:wikidata": "Q668687", "ref": "8091900043"}, "type": "Feature"}
{"geometry": {"coordinates": [-104.85863, 38.903758], "type": "Point"}, "id": "6iRu8JX19-sho0iJefYpQgIq_HM=", "properties": {"@source_uri": "https://tools.usps.com/UspsToolsRestServices/rest/POLocator/findLocations", "@spider": "usps_collection_boxes", "addr:city": "COLORADO SPGS", "addr:country": "US", "addr:postcode": "80919", "addr:state": "CO", "addr:street_address": "5001 CENTENNIAL BLVD", "amenity": "post_box", "collection_times": "Mo-Fr 17:00; Sa 13:00", "indoor": "yes", "note": "ON 12/24 AND 12/31, THIS BOX MAY BE COLLECTED AS EARLY AS 12 NOON.", "nsi_id": "unitedstatespostalservice-a77078", "operator": "United States Postal Service", "operator:short": "USPS", "operator:type": "public", "operator:wikidata": "Q668687", "ref": "8091900044"}, "type": "Feature"}
{"geometry": {"coordinates": [-104.8586291035, 38.9037514655], "type": "Point"}, "id": "s0Hl98d2HV59pQF4H-dkHj8JIgw=", "properties": {"@source_uri": "https://tools.usps.com/UspsToolsRestServices/rest/POLocator/findLocations", "@spider": "usps_collection_boxes", "addr:city": "COLORADO SPGS", "addr:country": "US", "addr:postcode": "80919", "addr:state": "CO", "addr:street_address": "5001 CENTENNIAL BLVD", "amenity": "post_box", "collection_times": "Mo-Fr 17:00; Sa 13:00", "indoor": "yes", "note": "ON 12/24 AND 12/31, THIS BOX MAY BE COLLECTED AS EARLY AS 12 NOON.", "nsi_id": "unitedstatespostalservice-a77078", "operator": "United States Postal Service", "operator:short": "USPS", "operator:type": "public", "operator:wikidata": "Q668687", "ref": "8091900048"}, "type": "Feature"}
{"geometry": {"coordinates": [-104.8091569658, 38.9473020094], "type": "Point"}, "id": "KkEqNIbMWxZnlRcFR25vHkBOVO8=", "properties": {"@source_uri": "https://tools.usps.com/UspsToolsRestServices/rest/POLocator/findLocations", "@spider": "usps_collection_boxes", "addr:city": "COLORADO SPGS", "addr:country": "US", "addr:postcode": "80920", "addr:state": "CO", "addr:street_address": "1155 KELLY JOHNSON BLVD", "amenity": "post_box", "collection_times": "Mo-Fr 10:30", "nsi_id": "unitedstatespostalservice-a77078", "operator": "United States Postal Service", "operator:short": "USPS", "operator:type": "public", "operator:wikidata": "Q668687", "ref": "8092000009"}, "type": "Feature"}
{"geometry": {"coordinates": [-104.797145, 38.959275], "type": "Point"}, "id": "qReeIRw_20eHsBvbBct7hHWA3a4=", "properties": {"@source_uri": "https://tools.usps.com/UspsToolsRestServices/rest/POLocator/findLocations", "@spider": "usps_collection_boxes", "addr:city": "COLORADO SPGS", "addr:country": "US", "addr:postcode": "80920", "addr:state": "CO", "addr:street_address": "1755 TELSTAR DR", "amenity": "post_box", "collection_times": "Mo-Sa 12:00", "nsi_id": "unitedstatespostalservice-a77078", "operator": "United States Postal Service", "operator:short": "USPS", "operator:type": "public", "operator:wikidata": "Q668687", "ref": "8092000011"}, "type": "Feature"}
{"geometry": {"coordinates": [-104.8109378425, 38.9351243927], "type": "Point"}, "id": "cL3uQh0O69Uu_2sBdAkKc0uuUqM=", "properties": {"@source_uri": "https://tools.usps.com/UspsToolsRestServices/rest/POLocator/findLocations", "@spider": "usps_collection_boxes", "addr:city": "COLORADO SPGS", "addr:country": "US", "addr:postcode": "80920", "addr:state": "CO", "addr:street_address": "7150 CAMPUS DR", "amenity": "post_box", "collection_times": "Mo-Sa 11:00", "nsi_id": "unitedstatespostalservice-a77078", "operator": "United States Postal Service", "operator:short": "USPS", "operator:type": "public", "operator:wikidata": "Q668687", "ref": "8092000015"}, "type": "Feature"}
{"geometry": {"coordinates": [-104.773889, 38.942987], "type": "Point"}, "id": "KMEfBJVM6sfNRTsj1ERoo27aQBo=", "properties": {"@source_uri": "https://tools.usps.com/UspsToolsRestServices/rest/POLocator/findLocations", "@spider": "usps_collection_boxes", "addr:city": "COLORADO SPGS", "addr:country": "US", "addr:postcode": "80920", "addr:state": "CO", "addr:street_address": "7649 N UNION BLVD", "amenity": "post_box", "collection_times": "Mo-Sa 10:00", "nsi_id": "unitedstatespostalservice-a77078", "operator": "United States Postal Service", "operator:short": "USPS", "operator:type": "public", "operator:wikidata": "Q668687", "ref": "8092000022"}, "type": "Feature"}
{"geometry": {"coordinates": [-104.7882513094, 38.9595026775], "type": "Point"}, "id": "-waePejVL0dnD9ry5AgW3FC80YE=", "properties": {"@source_uri": "https://tools.usps.com/UspsToolsRestServices/rest/POLocator/findLocations", "@spider": "usps_collection_boxes", "addr:city": "COLORADO SPGS", "addr:country": "US", "addr:postcode": "80920", "addr:state": "CO", "addr:street_address": "8585 CRITERION DR", "amenity": "post_box", "collection_times": "Mo-Fr 17:30; Sa 15:00", "note": "ON 12/24 AND 12/31, THIS BOX MAY BE COLLECTED AS EARLY AS 12 NOON.", "nsi_id": "unitedstatespostalservice-a77078", "operator": "United States Postal Service", "operator:short": "USPS", "operator:type": "public", "operator:wikidata": "Q668687", "ref": "8092000025"}, "type": "Feature"}
{"geometry": {"coordinates": [-104.788251, 38.959504], "type": "Point"}, "id": "kH-xl5aOw3BFFh-vyYVTIxpQyBE=", "properties": {"@source_uri": "https://tools.usps.com/UspsToolsRestServices/rest/POLocator/findLocations", "@spider": "usps_collection_boxes", "addr:city": "COLORADO SPGS", "addr:country": "US", "addr:postcode": "80920", "addr:state": "CO", "addr:street_address": "8585 CRITERION DR", "amenity": "post_box", "collection_times": "Mo-Fr 17:30; Sa 15:00", "indoor": "yes", "note": "ON 12/24 AND 12/31, THIS BOX MAY BE COLLECTED AS EARLY AS 12 NOON.", "nsi_id": "unitedstatespostalservice-a77078", "operator": "United States Postal Service", "operator:short": "USPS", "operator:type": "public", "operator:wikidata": "Q668687", "ref": "8092000026"}, "type": "Feature"}
{"geometry": {"coordinates": [-104.788251, 38.959504], "type": "Point"}, "id": "OgBNUwkp2tHtmHgz3QZAX7wXmnA=", "properties": {"@source_uri": "https://tools.usps.com/UspsToolsRestServices/rest/POLocator/findLocations", "@spider": "usps_collection_boxes", "addr:city": "COLORADO SPGS", "addr:country": "US", "addr:postcode": "80920", "addr:state": "CO", "addr:street_address": "8585 CRITERION DR", "amenity": "post_box", "collection_times": "Mo-Fr 17:30; Sa 15:00", "indoor": "yes", "note": "ON 12/24 AND 12/31, THIS BOX MAY BE COLLECTED AS EARLY AS 12 NOON.", "nsi_id": "unitedstatespostalservice-a77078", "operator": "United States Postal Service", "operator:short": "USPS", "operator:type": "public", "operator:wikidata": "Q668687", "ref": "8092000028"}, "type": "Feature"}
{"geometry": {"coordinates": [-104.760319, 38.939665], "type": "Point"}, "id": "QFk-p2gGTxEBYx9IbN1uYqGpEH0=", "properties": {"@source_uri": "https://tools.usps.com/UspsToolsRestServices/rest/POLocator/findLocations", "@spider": "usps_collection_boxes", "addr:city": "COLORADO SPGS", "addr:country": "US", "addr:postcode": "80920", "addr:state": "CO", "addr:street_address": "3540 HARTSEL DR", "amenity": "post_box", "collection_times": "Mo-Sa 10:30", "nsi_id": "unitedstatespostalservice-a77078", "operator": "United States Postal Service", "operator:short": "USPS", "operator:type": "public", "operator:wikidata": "Q668687", "ref": "8092000029"}, "type": "Feature"}
{"geometry": {"coordinates": [-104.78999, 38.966981], "type": "Point"}, "id": "FYd7_8pLo7dgXch6msYYuORyIX8=", "properties": {"@source_uri": "https://tools.usps.com/UspsToolsRestServices/rest/POLocator/findLocations", "@spider": "usps_collection_boxes", "addr:city": "COLORADO SPGS", "addr:country": "US", "addr:postcode": "80920", "addr:state": "CO", "addr:street_address": "9240 EXPLORER DR", "amenity": "post_box", "collection_times": "Mo-Fr 09:00", "nsi_id": "unitedstatespostalservice-a77078", "operator": "United States Postal Service", "operator:short": "USPS", "operator:type": "public", "operator:wikidata": "Q668687", "ref": "8092000030"}, "type": "Feature"}
{"geometry": {"coordinates": [-104.766112, 38.96073], "type": "Point"}, "id": "cnihQcimx3AitvoBDybVZAQRyY8=", "properties": {"@source_uri": "https://tools.usps.com/UspsToolsRestServices/rest/POLocator/findLocations", "@spider": "usps_collection_boxes", "addr:city": "COLORADO SPGS", "addr:country": "US", "addr:postcode": "80920", "addr:state": "CO", "addr:street_address": "8890 N UNION BLVD", "amenity": "post_box", "collection_times": "Mo-Fr 10:45", "nsi_id": "unitedstatespostalservice-a77078", "operator": "United States Postal Service", "operator:short": "USPS", "operator:type": "public", "operator:wikidata": "Q668687", "ref": "8092000035"}, "type": "Feature"}
{"geometry": {"coordinates": [-104.766621, 38.958395], "type": "Point"}, "id": "oQcTMIngSaimQBfl09Ic8tsDVl0=", "properties": {"@source_uri": "https://tools.usps.com/UspsToolsRestServices/rest/POLocator/findLocations", "@spider": "usps_collection_boxes", "addr:city": "COLORADO SPGS", "addr:country": "US", "addr:postcode": "80920", "addr:state": "CO", "addr:street_address": "8750 N UNION BLVD", "amenity": "post_box", "collection_times": "Mo-Sa 10:45", "nsi_id": "unitedstatespostalservice-a77078", "operator": "United States Postal Service", "operator:short": "USPS", "operator:type": "public", "operator:wikidata": "Q668687", "ref": "8092000037"}, "type": "Feature"}
{"geometry": {"coordinates": [-104.724409, 38.942466], "type": "Point"}, "id": "q-RhMu4wT2P0FFiWGZdEQJzRCpk=", "properties": {"@source_uri": "https://tools.usps.com/UspsToolsRestServices/rest/POLocator/findLocations", "@spider": "usps_collection_boxes", "addr:city": "COLORADO SPGS", "addr:country": "US", "addr:postcode": "80920", "addr:state": "CO", "addr:street_address": "5550 E WOODMEN RD", "amenity": "post_box", "collection_times": "Mo-Sa 12:00", "nsi_id": "unitedstatespostalservice-a77078", "operator": "United States Postal Service", "operator:short": "USPS", "operator:type": "public", "operator:wikidata": "Q668687", "ref": "8092000038"}, "type": "Feature"}
{"geometry": {"coordinates": [-104.788251, 38.959504], "type": "Point"}, "id": "uxarHrUtkzk4Oh3Uh6tv4LuGaS4=", "properties": {"@source_uri": "https://tools.usps.com/UspsToolsRestServices/rest/POLocator/findLocations", "@spider": "usps_collection_boxes", "addr:city": "COLORADO SPGS", "addr:country": "US", "addr:postcode": "80920", "addr:state": "CO", "addr:street_address": "8585 CRITERION DR", "amenity": "post_box", "collection_times": "Mo-Fr 17:30; Sa 15:00", "name": "USPS COLLECTION BOX - APC", "note": "ON 12/24 AND 12/31, THIS BOX MAY BE COLLECTED AS EARLY AS 12 NOON.", "nsi_id": "unitedstatespostalservice-a77078", "operator": "United States Postal Service", "operator:short": "USPS", "operator:type": "public", "operator:wikidata": "Q668687", "ref": "8092000039"}, "type": "Feature"}
{"geometry": {"coordinates": [-104.764289, 38.936582], "type": "Point"}, "id": "yFRvATO8wQ49sqMIax4RivLacuk=", "properties": {"@source_uri": "https://tools.usps.com/UspsToolsRestServices/rest/POLocator/findLocations", "@spider": "usps_collection_boxes", "addr:city": "COLORADO SPGS", "addr:country": "US", "addr:postcode": "80920", "addr:state": "CO", "addr:street_address": "3280 E WOODMEN RD", "amenity": "post_box", "collection_times": "Mo-Sa 12:00", "nsi_id": "unitedstatespostalservice-a77078", "operator": "United States Postal Service", "operator:short": "USPS", "operator:type": "public", "operator:wikidata": "Q668687", "ref": "8092000043"}, "type": "Feature"}
{"geometry": {"coordinates": [-104.7882513094, 38.9595026775], "type": "Point"}, "id": "YUQghLKTFmosTiWze_JS_f-P1bk=", "properties": {"@source_uri": "https://tools.usps.com/UspsToolsRestServices/rest/POLocator/findLocations", "@spider": "usps_collection_boxes", "addr:city": "COLORADO SPGS", "addr:country": "US", "addr:postcode": "80920", "addr:state": "CO", "addr:street_address": "8585 CRITERION DR", "amenity": "post_box", "collection_times": "Mo-Fr 17:30; Sa 15:00", "indoor": "yes", "note": "ON 12/24 AND 12/31, THIS BOX MAY BE COLLECTED AS EARLY AS 12 NOON.", "nsi_id": "unitedstatespostalservice-a77078", "operator": "United States Postal Service", "operator:short": "USPS", "operator:type": "public", "operator:wikidata": "Q668687", "ref": "8092000052"}, "type": "Feature"}
{"geometry": {"coordinates": [-104.8294913415, 39.0326192183], "type": "Point"}, "id": "xzM6i34OB5GBI63X5AONqudNMR8=", "properties": {"@source_uri": "https://tools.usps.com/UspsToolsRestServices/rest/POLocator/findLocations", "@spider": "usps_collection_boxes", "addr:city": "COLORADO SPGS", "addr:country": "US", "addr:postcode": "80921", "addr:state": "CO", "addr:street_address": "13854 GLENEAGLE DR", "amenity": "post_box", "collection_times": "Mo-Sa 13:30", "note": "ON 12/24 AND 12/31, THIS BOX MAY BE COLLECTED AS EARLY AS 12 NOON.", "nsi_id": "unitedstatespostalservice-a77078", "operator": "United States Postal Service", "operator:short": "USPS", "operator:type": "public", "operator:wikidata": "Q668687", "ref": "8092100002"}, "type": "Feature"}
{"geometry": {"coordinates": [-104.842717, 39.057734], "type": "Point"}, "id": "JAFCVMMqtmgTeao1107rwXWwosI=", "properties": {"@source_uri": "https://tools.usps.com/UspsToolsRestServices/rest/POLocator/findLocations", "@spider": "usps_collection_boxes", "addr:city": "COLORADO SPGS", "addr:country": "US", "addr:postcode": "80921", "addr:state": "CO", "addr:street_address": "1070 W BAPTIST RD", "amenity": "post_box", "collection_times": "Mo-Sa 12:00", "nsi_id": "unitedstatespostalservice-a77078", "operator": "United States Postal Service", "operator:short": "USPS", "operator:type": "public", "operator:wikidata": "Q668687", "ref": "8092100005"}, "type": "Feature"}
{"geometry": {"coordinates": [-104.721991, 38.873491], "type": "Point"}, "id": "Y35oVjOD-KX5NYKE6qgN31bN5d4=", "properties": {"@source_uri": "https://tools.usps.com/UspsToolsRestServices/rest/POLocator/findLocations", "@spider": "usps_collection_boxes", "addr:city": "COLORADO SPRINGS", "addr:country": "US", "addr:postcode": "80922", "addr:state": "CO", "addr:street_address": "2890 N POWERS BLVD", "amenity": "post_box", "collection_times": "Mo-Fr 13:00; Sa 12:30", "note": "ON 12/24 AND 12/31, THIS BOX MAY BE COLLECTED AS EARLY AS 12 NOON.", "nsi_id": "unitedstatespostalservice-a77078", "operator": "United States Postal Service", "operator:short": "USPS", "operator:type": "public", "operator:wikidata": "Q668687", "ref": "8092200001"}, "type": "Feature"}
{"geometry": {"coordinates": [-104.716309, 38.912097], "type": "Point"}, "id": "nf5OjORI0veCho1vX3NJBRnYxsI=", "properties": {"@source_uri": "https://tools.usps.com/UspsToolsRestServices/rest/POLocator/findLocations", "@spider": "usps_collection_boxes", "addr:city": "COLORADO SPRINGS", "addr:country": "US", "addr:postcode": "80923", "addr:state": "CO", "addr:street_address": "6020 STETSON HILLS BLVD", "amenity": "post_box", "collection_times": "Mo-Fr 13:00; Sa 12:45", "note": "ON 12/24 AND 12/31, THIS BOX MAY BE COLLECTED AS EARLY AS 12 NOON.", "nsi_id": "unitedstatespostalservice-a77078", "operator": "United States Postal Service", "operator:short": "USPS", "operator:type": "public", "operator:wikidata": "Q668687", "ref": "8092300001"}, "type": "Feature"}
{"geometry": {"coordinates": [-104.52452, 38.804768], "type": "Point"}, "id": "SEVTxxBE0xAXyaeVXscGYqz7HV0=", "properties": {"@source_uri": "https://tools.usps.com/UspsToolsRestServices/rest/POLocator/findLocations", "@spider": "usps_collection_boxes", "addr:city": "COLORADO SPRINGS", "addr:country": "US", "addr:postcode": "80928", "addr:state": "CO", "addr:street_address": "1 SCHRIEVER AFB", "amenity": "post_box", "collection_times": "Mo-Sa 11:30", "nsi_id": "unitedstatespostalservice-a77078", "operator": "United States Postal Service", "operator:short": "USPS", "operator:type": "public", "operator:wikidata": "Q668687", "ref": "8092800002"}, "type": "Feature"}
{"geometry": {"coordinates": [-104.533064, 38.802356], "type": "Point"}, "id": "g3wf0WrAISSj5m2e2qGk6oE_62U=", "properties": {"@source_uri": "https://tools.usps.com/UspsToolsRestServices/rest/POLocator/findLocations", "@spider": "usps_collection_boxes", "addr:city": "COLORADO SPRINGS", "addr:country": "US", "addr:postcode": "80928", "addr:state": "CO", "addr:street_address": "1 SCHRIEVER AFB STA", "amenity": "post_box", "collection_times": "Mo-Sa 11:30", "nsi_id": "unitedstatespostalservice-a77078", "operator": "United States Postal Service", "operator:short": "USPS", "operator:type": "public", "operator:wikidata": "Q668687", "ref": "8092800003"}, "type": "Feature"}
