{"geometry": {"coordinates": [-104.6003110356, 38.2779909895], "type": "Point"}, "id": "I4OcUB4Zwowiz5zAHcYE1AzeeU8=", "properties": {"@source_uri": "https://tools.usps.com/UspsToolsRestServices/rest/POLocator/findLocations", "@spider": "usps_collection_boxes", "addr:city": "PUEBLO", "addr:country": "US", "addr:postcode": "81001", "addr:state": "CO", "addr:street_address": "1115 N ERIE AVE", "amenity": "post_box", "collection_times": "Mo-Fr 13:00", "note": "ON 12/24 AND 12/31, THIS BOX MAY BE COLLECTED AS EARLY AS 12 NOON.", "nsi_id": "unitedstatespostalservice-a77078", "operator": "United States Postal Service", "operator:short": "USPS", "operator:type": "public", "operator:wikidata": "Q668687", "ref": "8100100007"}, "type": "Feature"}
{"geometry": {"coordinates": [-104.495461, 38.283658], "type": "Point"}, "id": "0elBwDjgWz1zyRRyO25MrGliYzA=", "properties": {"@source_uri": "https://tools.usps.com/UspsToolsRestServices/rest/POLocator/findLocations", "@spider": "usps_collection_boxes", "addr:city": "PUEBLO", "addr:country": "US", "addr:postcode": "81001", "addr:state": "CO", "addr:street_address": "31201 BRYAN CIR", "amenity": "post_box", "collection_times": "Mo-Fr 11:00", "nsi_id": "unitedstatespostalservice-a77078", "operator": "United States Postal Service", "operator:short": "USPS", "operator:type": "public", "operator:wikidata": "Q668687", "ref": "8100100010"}, "type": "Feature"}
{"geometry": {"coordinates": [-104.5865295, 38.275155], "type": "Point"}, "id": "aLC4fc7ROAWOja9AgZIV_iCeiX4=", "properties": {"@source_uri": "https://tools.usps.com/UspsToolsRestServices/rest/POLocator/findLocations", "@spider": "usps_collection_boxes", "addr:city": "PUEBLO", "addr:country": "US", "addr:postcode": "81001", "addr:state": "CO", "addr:street_address": "1401 E 8TH ST", "amenity": "post_box", "collection_times": "Mo-Sa 13:00", "note": "ON 12/24 AND 12/31, THIS BOX MAY BE COLLECTED AS EARLY AS 12 NOON.", "nsi_id": "unitedstatespostalservice-a77078", "operator": "United States Postal Service", "operator:short": "USPS", "operator:type": "public", "operator:wikidata": "Q668687", "ref": "8100100040"}, "type": "Feature"}
{"geometry": {"coordinates": [-104.599431, 38.310412], "type": "Point"}, "id": "ceoJ8w_vyBYFaluVlye9wgcR6kU=", "properties": {"@source_uri": "https://tools.usps.com/UspsToolsRestServices/rest/POLocator/findLocations", "@spider": "usps_collection_boxes", "addr:city": "PUEBLO", "addr:country": "US", "addr:postcode": "81001", "addr:state": "CO", "addr:street_address": "4001 JERRY MURPHY RD", "amenity": "post_box", "collection_times": "Mo-Sa 13:00", "note": "ON 12/24 AND 12/31, THIS BOX MAY BE COLLECTED AS EARLY AS 12 NOON.", "nsi_id": "unitedstatespostalservice-a77078", "operator": "United States Postal Service", "operator:short": "USPS", "operator:type": "public", "operator:wikidata": "Q668687", "ref": "8100100042"}, "type": "Feature"}
{"geometry": {"coordinates": [-104.59431, 38.286944], "type": "Point"}, "id": "V19sRihg_GQCzsYd8s-bFiRMZF0=", "properties": {"@source_uri": "https://tools.usps.com/UspsToolsRestServices/rest/POLocator/findLocations", "@spider": "usps_collection_boxes", "addr:city": "PUEBLO", "addr:country": "US", "addr:postcode": "81001", "addr:state": "CO", "addr:street_address": "1025 E US HIGHWAY 50 BYP", "amenity": "post_box", "collection_times": "Mo-Fr 16:45; Sa 11:45", "indoor": "yes", "note": "ON 12/24 AND 12/31, THIS BOX MAY BE COLLECTED AS EARLY AS 12 NOON.", "nsi_id": "unitedstatespostalservice-a77078", "operator": "United States Postal Service", "operator:short": "USPS", "operator:type": "public", "operator:wikidata": "Q668687", "ref": "8100100043"}, "type": "Feature"}
{"geometry": {"coordinates": [-104.60869, 38.271085], "type": "Point"}, "id": "Mw1kWq0DbLymY8clFRj2CoYKbOg=", "properties": {"@source_uri": "https://tools.usps.com/UspsToolsRestServices/rest/POLocator/findLocations", "@spider": "usps_collection_boxes", "addr:city": "PUEBLO", "addr:country": "US", "addr:postcode": "81003", "addr:state": "CO", "addr:street_address": "421 N MAIN ST", "amenity": "post_box", "collection_times": "Mo-Fr 15:00; Sa 12:30", "note": "ON 12/24 AND 12/31, THIS BOX MAY BE COLLECTED AS EARLY AS 12 NOON.", "nsi_id": "unitedstatespostalservice-a77078", "operator": "United States Postal Service", "operator:short": "USPS", "operator:type": "public", "operator:wikidata": "Q668687", "ref": "8100300010"}, "type": "Feature"}
{"geometry": {"coordinates": [-104.619142, 38.272357], "type": "Point"}, "id": "X12XCIw5C0kyIyNaoIWz59BuclI=", "properties": {"@source_uri": "https://tools.usps.com/UspsToolsRestServices/rest/POLocator/findLocations", "@spider": "usps_collection_boxes", "addr:city": "PUEBLO", "addr:country": "US", "addr:postcode": "81003", "addr:state": "CO", "addr:street_address": "1000 W 6TH ST STE U", "amenity": "post_box", "collection_times": "Mo-Fr 16:15; Sa 12:30", "note": "ON 12/24 AND 12/31, THIS BOX MAY BE COLLECTED AS EARLY AS 12 NOON.", "nsi_id": "unitedstatespostalservice-a77078", "operator": "United States Postal Service", "operator:short": "USPS", "operator:type": "public", "operator:wikidata": "Q668687", "ref": "8100300015"}, "type": "Feature"}
{"geometry": {"coordinates": [-104.6237794, 38.2805839], "type": "Point"}, "id": "SoZZ4dr20vyBp13Bgon4LvpSmMw=", "properties": {"@source_uri": "https://tools.usps.com/UspsToolsRestServices/rest/POLocator/findLocations", "@spider": "usps_collection_boxes", "addr:city": "PUEBLO", "addr:country": "US", "addr:postcode": "81003", "addr:state": "CO", "addr:street_address": "601 N MAIN ST", "amenity": "post_box", "collection_times": "Mo-Fr 15:00", "note": "ON 12/24 AND 12/31, THIS BOX MAY BE COLLECTED AS EARLY AS 12 NOON.", "nsi_id": "unitedstatespostalservice-a77078", "operator": "United States Postal Service", "operator:short": "USPS", "operator:type": "public", "operator:wikidata": "Q668687", "ref": "8100300018"}, "type": "Feature"}
{"geometry": {"coordinates": [-104.610415, 38.271636], "type": "Point"}, "id": "_TPSF75gu-_cYdqwOzjmAbM3X08=", "properties": {"@source_uri": "https://tools.usps.com/UspsToolsRestServices/rest/POLocator/findLocations", "@spider": "usps_collection_boxes", "addr:city": "PUEBLO", "addr:country": "US", "addr:postcode": "81003", "addr:state": "CO", "addr:street_address": "301 W 5TH ST", "amenity": "post_box", "collection_times": "Mo-Fr 15:00; Sa 12:30", "note": "ON 12/24 AND 12/31, THIS BOX MAY BE COLLECTED AS EARLY AS 12 NOON.", "nsi_id": "unitedstatespostalservice-a77078", "operator": "United States Postal Service", "operator:short": "USPS", "operator:type": "public", "operator:wikidata": "Q668687", "ref": "8100300019"}, "type": "Feature"}
{"geometry": {"coordinates": [-104.60878, 38.275158], "type": "Point"}, "id": "sefB93MqooRP0G2XvRYH9i5ePJg=", "properties": {"@source_uri": "https://tools.usps.com/UspsToolsRestServices/rest/POLocator/findLocations", "@spider": "usps_collection_boxes", "addr:city": "PUEBLO", "addr:country": "US", "addr:postcode": "81003", "addr:state": "CO", "addr:street_address": "201 W 8TH ST", "amenity": "post_box", "collection_times": "Mo-Fr 13:00; Sa 12:30", "note": "ON 12/24 AND 12/31, THIS BOX MAY BE COLLECTED AS EARLY AS 12 NOON.", "nsi_id": "unitedstatespostalservice-a77078", "operator": "United States Postal Service", "operator:short": "USPS", "operator:type": "public", "operator:wikidata": "Q668687", "ref": "8100300025"}, "type": "Feature"}
{"geometry": {"coordinates": [-104.618435, 38.272485], "type": "Point"}, "id": "ymwCheTJdGwOriFpJtiw5vqoz0w=", "properties": {"@source_uri": "https://tools.usps.com/UspsToolsRestServices/rest/POLocator/findLocations", "@spider": "usps_collection_boxes", "addr:city": "PUEBLO", "addr:country": "US", "addr:postcode": "81003", "addr:state": "CO", "addr:street_address": "825 W 6TH ST", "amenity": "post_box", "collection_times": "Mo-Fr 15:00; Sa 12:45", "note": "ON 12/24 AND 12/31, THIS BOX MAY BE COLLECTED AS EARLY AS 12 NOON.", "nsi_id": "unitedstatespostalservice-a77078", "operator": "United States Postal Service", "operator:short": "USPS", "operator:type": "public", "operator:wikidata": "Q668687", "ref": "8100300029"}, "type": "Feature"}
{"geometry": {"coordinates": [-104.617679, 38.271307], "type": "Point"}, "id": "G-uhyTq3Oesmjnz_TiXQ0xhHfEg=", "properties": {"@source_uri": "https://tools.usps.com/UspsToolsRestServices/rest/POLocator/findLocations", "@spider": "usps_collection_boxes", "addr:city": "PUEBLO", "addr:country": "US", "addr:postcode": "81003", "addr:state": "CO", "addr:street_address": "803 W 4TH ST", "amenity": "post_box", "collection_times": "Mo-Fr 12:30; Sa 12:45", "note": "ON 12/24 AND 12/31, THIS BOX MAY BE COLLECTED AS EARLY AS 12 NOON.", "nsi_id": "unitedstatespostalservice-a77078", "operator": "United States Postal Service", "operator:short": "USPS", "operator:type": "public", "operator:wikidata": "Q668687", "ref": "8100300030"}, "type": "Feature"}
{"geometry": {"coordinates": [-104.61666, 38.263317], "type": "Point"}, "id": "G2A7WRBzyr5QO5g_6hG9ohMYR14=", "properties": {"@source_uri": "https://tools.usps.com/UspsToolsRestServices/rest/POLocator/findLocations", "@spider": "usps_collection_boxes", "addr:city": "PUEBLO", "addr:country": "US", "addr:postcode": "81003", "addr:state": "CO", "addr:street_address": "129 W B ST", "amenity": "post_box", "collection_times": "Mo-Fr 13:00", "note": "ON 12/24 AND 12/31, THIS BOX MAY BE COLLECTED AS EARLY AS 12 NOON.", "nsi_id": "unitedstatespostalservice-a77078", "operator": "United States Postal Service", "operator:short": "USPS", "operator:type": "public", "operator:wikidata": "Q668687", "ref": "8100300035"}, "type": "Feature"}
{"geometry": {"coordinates": [-104.611932, 38.28158], "type": "Point"}, "id": "8KIGhusVDCV4Zk_CEsvWVyRTk3o=", "properties": {"@source_uri": "https://tools.usps.com/UspsToolsRestServices/rest/POLocator/findLocations", "@spider": "usps_collection_boxes", "addr:city": "PUEBLO", "addr:country": "US", "addr:postcode": "81003", "addr:state": "CO", "addr:street_address": "400 W 16TH ST", "amenity": "post_box", "collection_times": "Mo-Fr 12:00", "nsi_id": "unitedstatespostalservice-a77078", "operator": "United States Postal Service", "operator:short": "USPS", "operator:type": "public", "operator:wikidata": "Q668687", "ref": "8100300038"}, "type": "Feature"}
{"geometry": {"coordinates": [-104.6145290065, 38.2786430178], "type": "Point"}, "id": "TbOyKrGDtM8ZFkudqCMIiwzjeFE=", "properties": {"@source_uri": "https://tools.usps.com/UspsToolsRestServices/rest/POLocator/findLocations", "@spider": "usps_collection_boxes", "addr:city": "PUEBLO", "addr:country": "US", "addr:postcode": "81003", "addr:state": "CO", "addr:street_address": "1214 N ELIZABETH ST", "amenity": "post_box", "collection_times": "Mo-Sa 12:00", "nsi_id": "unitedstatespostalservice-a77078", "operator": "United States Postal Service", "operator:short": "USPS", "operator:type": "public", "operator:wikidata": "Q668687", "ref": "8100300044"}, "type": "Feature"}
{"geometry": {"coordinates": [-104.609335, 38.272295], "type": "Point"}, "id": "YBNDOLiC70Y74AkJIInCNd_FCjw=", "properties": {"@source_uri": "https://tools.usps.com/UspsToolsRestServices/rest/POLocator/findLocations", "@spider": "usps_collection_boxes", "addr:city": "PUEBLO", "addr:country": "US", "addr:postcode": "81003", "addr:state": "CO", "addr:street_address": "503 N MAIN ST", "amenity": "post_box", "collection_times": "Mo-Fr 14:00", "note": "ON 12/24 AND 12/31, THIS BOX MAY BE COLLECTED AS EARLY AS 12 NOON.", "nsi_id": "unitedstatespostalservice-a77078", "operator": "United States Postal Service", "operator:short": "USPS", "operator:type": "public", "operator:wikidata": "Q668687", "ref": "8100300065"}, "type": "Feature"}
{"geometry": {"coordinates": [-104.619142, 38.272357], "type": "Point"}, "id": "VuGhzjbA7o3xxtydU1CaPFiKIyg=", "properties": {"@source_uri": "https://tools.usps.com/UspsToolsRestServices/rest/POLocator/findLocations", "@spider": "usps_collection_boxes", "addr:city": "PUEBLO", "addr:country": "US", "addr:postcode": "81003", "addr:state": "CO", "addr:street_address": "1000 W 6TH ST STE U", "amenity": "post_box", "collection_times": "Mo-Fr 16:15", "indoor": "yes", "note": "ON 12/24 AND 12/31, THIS BOX MAY BE COLLECTED AS EARLY AS 12 NOON.", "nsi_id": "unitedstatespostalservice-a77078", "operator": "United States Postal Service", "operator:short": "USPS", "operator:type": "public", "operator:wikidata": "Q668687", "ref": "8100300067"}, "type": "Feature"}
{"geometry": {"coordinates": [-104.608128, 38.274153], "type": "Point"}, "id": "IdzgGEz6jKU5Z5y1Lb81BQT7hbA=", "properties": {"@source_uri": "https://tools.usps.com/UspsToolsRestServices/rest/POLocator/findLocations", "@spider": "usps_collection_boxes", "addr:city": "PUEBLO", "addr:country": "US", "addr:postcode": "81003", "addr:state": "CO", "addr:street_address": "720 N MAIN ST", "amenity": "post_box", "collection_times": "Mo-Fr 13:00; Sa 12:30", "note": "ON 12/24 AND 12/31, THIS BOX MAY BE COLLECTED AS EARLY AS 12 NOON.", "nsi_id": "unitedstatespostalservice-a77078", "operator": "United States Postal Service", "operator:short": "USPS", "operator:type": "public", "operator:wikidata": "Q668687", "ref": "8100300068"}, "type": "Feature"}
{"geometry": {"coordinates": [-104.608596, 38.268951], "type": "Point"}, "id": "k9iY_Z9SvxOyvjARSR8xC5rbDgQ=", "properties": {"@source_uri": "https://tools.usps.com/UspsToolsRestServices/rest/POLocator/findLocations", "@spider": "usps_collection_boxes", "addr:city": "PUEBLO", "addr:country": "US", "addr:postcode": "81003", "addr:state": "CO", "addr:street_address": "203 N MAIN ST", "amenity": "post_box", "collection_times": "Mo-Fr 15:00", "note": "ON 12/24 AND 12/31, THIS BOX MAY BE COLLECTED AS EARLY AS 12 NOON.", "nsi_id": "unitedstatespostalservice-a77078", "operator": "United States Postal Service", "operator:short": "USPS", "operator:type": "public", "operator:wikidata": "Q668687", "ref": "8100300070"}, "type": "Feature"}
{"geometry": {"coordinates": [-104.619142, 38.272357], "type": "Point"}, "id": "Hvd1rSjhBoNVNCj7rcIK1g5TiUM=", "properties": {"@source_uri": "https://tools.usps.com/UspsToolsRestServices/rest/POLocator/findLocations", "@spider": "usps_collection_boxes", "addr:city": "PUEBLO", "addr:country": "US", "addr:postcode": "81003", "addr:state": "CO", "addr:street_address": "1000 W 6TH ST STE U", "amenity": "post_box", "collection_times": "Mo-Fr 16:15", "indoor": "yes", "note": "ON 12/24 AND 12/31, THIS BOX MAY BE COLLECTED AS EARLY AS 12 NOON.", "nsi_id": "unitedstatespostalservice-a77078", "operator": "United States Postal Service", "operator:short": "USPS", "operator:type": "public", "operator:wikidata": "Q668687", "ref": "8100300073"}, "type": "Feature"}
{"geometry": {"coordinates": [-104.608596, 38.269835], "type": "Point"}, "id": "pkr1zzMzf5jFzsg7FIqa1L36FNQ=", "properties": {"@source_uri": "https://tools.usps.com/UspsToolsRestServices/rest/POLocator/findLocations", "@spider": "usps_collection_boxes", "addr:city": "PUEBLO", "addr:country": "US", "addr:postcode": "81003", "addr:state": "CO", "addr:street_address": "301 N MAIN ST", "amenity": "post_box", "collection_times": "Mo-Fr 15:00", "note": "ON 12/24 AND 12/31, THIS BOX MAY BE COLLECTED AS EARLY AS 12 NOON.", "nsi_id": "unitedstatespostalservice-a77078", "operator": "United States Postal Service", "operator:short": "USPS", "operator:type": "public", "operator:wikidata": "Q668687", "ref": "8100300074"}, "type": "Feature"}
{"geometry": {"coordinates": [-104.62112, 38.253975], "type": "Point"}, "id": "Pwt3ZeT3u6y_vwi_nj00WHKrrvQ=", "properties": {"@source_uri": "https://tools.usps.com/UspsToolsRestServices/rest/POLocator/findLocations", "@spider": "usps_collection_boxes", "addr:city": "PUEBLO", "addr:country": "US", "addr:postcode": "81004", "addr:state": "CO", "addr:street_address": "310 E ABRIENDO AVE", "amenity": "post_box", "collection_times": "Mo-Fr 13:00", "note": "ON 12/24 AND 12/31, THIS BOX MAY BE COLLECTED AS EARLY AS 12 NOON.", "nsi_id": "unitedstatespostalservice-a77078", "operator": "United States Postal Service", "operator:short": "USPS", "operator:type": "public", "operator:wikidata": "Q668687", "ref": "8100400001"}, "type": "Feature"}
{"geometry": {"coordinates": [-104.615065, 38.255547], "type": "Point"}, "id": "qIozW2xZvf5_d-N9OEW_c0bILfY=", "properties": {"@source_uri": "https://tools.usps.com/UspsToolsRestServices/rest/POLocator/findLocations", "@spider": "usps_collection_boxes", "addr:city": "PUEBLO", "addr:country": "US", "addr:postcode": "81004", "addr:state": "CO", "addr:street_address": "540 E ABRIENDO AVE", "amenity": "post_box", "collection_times": "Mo-Fr 13:00; Sa 11:00", "note": "ON 12/24 AND 12/31, THIS BOX MAY BE COLLECTED AS EARLY AS 12 NOON.", "nsi_id": "unitedstatespostalservice-a77078", "operator": "United States Postal Service", "operator:short": "USPS", "operator:type": "public", "operator:wikidata": "Q668687", "ref": "8100400002"}, "type": "Feature"}
{"geometry": {"coordinates": [-104.632568, 38.268202], "type": "Point"}, "id": "AsBmbIbpPZZfjcJtxu8yZsrHKjE=", "properties": {"@source_uri": "https://tools.usps.com/UspsToolsRestServices/rest/POLocator/findLocations", "@spider": "usps_collection_boxes", "addr:city": "PUEBLO", "addr:country": "US", "addr:postcode": "81004", "addr:state": "CO", "addr:street_address": "926 W ABRIENDO AVE", "amenity": "post_box", "collection_times": "Mo-Sa 09:30", "nsi_id": "unitedstatespostalservice-a77078", "operator": "United States Postal Service", "operator:short": "USPS", "operator:type": "public", "operator:wikidata": "Q668687", "ref": "8100400003"}, "type": "Feature"}
{"geometry": {"coordinates": [-104.624158, 38.231539], "type": "Point"}, "id": "dQsnkRX9ipBRKTUOPppY2eHJPS4=", "properties": {"@source_uri": "https://tools.usps.com/UspsToolsRestServices/rest/POLocator/findLocations", "@spider": "usps_collection_boxes", "addr:city": "PUEBLO", "addr:country": "US", "addr:postcode": "81004", "addr:state": "CO", "addr:street_address": "2050 LAKE AVE", "amenity": "post_box", "collection_times": "Mo-Fr 13:00; Sa 11:00", "note": "ON 12/24 AND 12/31, THIS BOX MAY BE COLLECTED AS EARLY AS 12 NOON.", "nsi_id": "unitedstatespostalservice-a77078", "operator": "United States Postal Service", "operator:short": "USPS", "operator:type": "public", "operator:wikidata": "Q668687", "ref": "8100400015"}, "type": "Feature"}
{"geometry": {"coordinates": [-104.622635, 38.23358], "type": "Point"}, "id": "0MbN__XaJh_atbioPUZrfTlpIfk=", "properties": {"@source_uri": "https://tools.usps.com/UspsToolsRestServices/rest/POLocator/findLocations", "@spider": "usps_collection_boxes", "addr:city": "PUEBLO", "addr:country": "US", "addr:postcode": "81004", "addr:state": "CO", "addr:street_address": "1008 MINNEQUA AVE", "amenity": "post_box", "collection_times": "Mo-Fr 13:00; Sa 12:00", "note": "ON 12/24 AND 12/31, THIS BOX MAY BE COLLECTED AS EARLY AS 12 NOON.", "nsi_id": "unitedstatespostalservice-a77078", "operator": "United States Postal Service", "operator:short": "USPS", "operator:type": "public", "operator:wikidata": "Q668687", "ref": "8100400020"}, "type": "Feature"}
{"geometry": {"coordinates": [-104.621411, 38.244337], "type": "Point"}, "id": "QxSUAVlDNEr8Xw8Rz_kysaXHHOQ=", "properties": {"@source_uri": "https://tools.usps.com/UspsToolsRestServices/rest/POLocator/findLocations", "@spider": "usps_collection_boxes", "addr:city": "PUEBLO", "addr:country": "US", "addr:postcode": "81004", "addr:state": "CO", "addr:street_address": "915 W NORTHERN AVE", "amenity": "post_box", "collection_times": "Mo-Fr 13:00; Sa 12:00", "note": "ON 12/24 AND 12/31, THIS BOX MAY BE COLLECTED AS EARLY AS 12 NOON.", "nsi_id": "unitedstatespostalservice-a77078", "operator": "United States Postal Service", "operator:short": "USPS", "operator:type": "public", "operator:wikidata": "Q668687", "ref": "8100400022"}, "type": "Feature"}
{"geometry": {"coordinates": [-104.621372, 38.233918], "type": "Point"}, "id": "7vJDMYeFaYqf4K9HcPXcNMIxtYs=", "properties": {"@source_uri": "https://tools.usps.com/UspsToolsRestServices/rest/POLocator/findLocations", "@spider": "usps_collection_boxes", "addr:city": "PUEBLO", "addr:country": "US", "addr:postcode": "81004", "addr:state": "CO", "addr:street_address": "1925 E ORMAN AVE", "amenity": "post_box", "collection_times": "Mo-Fr 13:00", "note": "ON 12/24 AND 12/31, THIS BOX MAY BE COLLECTED AS EARLY AS 12 NOON.", "nsi_id": "unitedstatespostalservice-a77078", "operator": "United States Postal Service", "operator:short": "USPS", "operator:type": "public", "operator:wikidata": "Q668687", "ref": "8100400024"}, "type": "Feature"}
{"geometry": {"coordinates": [-104.62112, 38.253975], "type": "Point"}, "id": "7_6sJns71l09n0SqzV5XuQS1z-w=", "properties": {"@source_uri": "https://tools.usps.com/UspsToolsRestServices/rest/POLocator/findLocations", "@spider": "usps_collection_boxes", "addr:city": "PUEBLO", "addr:country": "US", "addr:postcode": "81004", "addr:state": "CO", "addr:street_address": "2503 SAINT CLAIR AVE", "amenity": "post_box", "collection_times": "Mo-Sa 10:00", "nsi_id": "unitedstatespostalservice-a77078", "operator": "United States Postal Service", "operator:short": "USPS", "operator:type": "public", "operator:wikidata": "Q668687", "ref": "8100400028"}, "type": "Feature"}
{"geometry": {"coordinates": [-104.660328, 38.219941], "type": "Point"}, "id": "0hq9DpYepcoHMojOM9SYWJk_vtI=", "properties": {"@source_uri": "https://tools.usps.com/UspsToolsRestServices/rest/POLocator/findLocations", "@spider": "usps_collection_boxes", "addr:city": "PUEBLO", "addr:country": "US", "addr:postcode": "81005", "addr:state": "CO", "addr:street_address": "3900 HOLLYBROOK LN", "amenity": "post_box", "collection_times": "Mo-Sa 12:30", "note": "ON 12/24 AND 12/31, THIS BOX MAY BE COLLECTED AS EARLY AS 12 NOON.", "nsi_id": "unitedstatespostalservice-a77078", "operator": "United States Postal Service", "operator:short": "USPS", "operator:type": "public", "operator:wikidata": "Q668687", "ref": "8100500003"}, "type": "Feature"}
{"geometry": {"coordinates": [-104.668585, 38.248085], "type": "Point"}, "id": "1klOeGbUAAAM-lzzyAbJVm4lTh4=", "properties": {"@source_uri": "https://tools.usps.com/UspsToolsRestServices/rest/POLocator/findLocations", "@spider": "usps_collection_boxes", "addr:city": "PUEBLO", "addr:country": "US", "addr:postcode": "81005", "addr:state": "CO", "addr:street_address": "1829 S PUEBLO BLVD", "amenity": "post_box", "collection_times": "Mo-Fr 13:00; Sa 12:00", "note": "ON 12/24 AND 12/31, THIS BOX MAY BE COLLECTED AS EARLY AS 12 NOON.", "nsi_id": "unitedstatespostalservice-a77078", "operator": "United States Postal Service", "operator:short": "USPS", "operator:type": "public", "operator:wikidata": "Q668687", "ref": "8100500004"}, "type": "Feature"}
{"geometry": {"coordinates": [-104.6462130196, 38.2415230052], "type": "Point"}, "id": "ps5RlOwWHYVNs6KQVTcL55NPw8k=", "properties": {"@source_uri": "https://tools.usps.com/UspsToolsRestServices/rest/POLocator/findLocations", "@spider": "usps_collection_boxes", "addr:city": "PUEBLO", "addr:country": "US", "addr:postcode": "81005", "addr:state": "CO", "addr:street_address": "3000 WEDGEWOOD DR", "amenity": "post_box", "collection_times": "Mo-Fr 17:00; Sa 16:00", "note": "ON 12/24 AND 12/31, THIS BOX MAY BE COLLECTED AS EARLY AS 12 NOON.", "nsi_id": "unitedstatespostalservice-a77078", "operator": "United States Postal Service", "operator:short": "USPS", "operator:type": "public", "operator:wikidata": "Q668687", "ref": "8100500012"}, "type": "Feature"}
{"geometry": {"coordinates": [-104.668585, 38.248085], "type": "Point"}, "id": "D1m6Qc5VttfleLjKKT2Wx-XjqZw=", "properties": {"@source_uri": "https://tools.usps.com/UspsToolsRestServices/rest/POLocator/findLocations", "@spider": "usps_collection_boxes", "addr:city": "PUEBLO", "addr:country": "US", "addr:postcode": "81005", "addr:state": "CO", "addr:street_address": "142 ENCINO DR", "amenity": "post_box", "collection_times": "Mo-Sa 12:00", "nsi_id": "unitedstatespostalservice-a77078", "operator": "United States Postal Service", "operator:short": "USPS", "operator:type": "public", "operator:wikidata": "Q668687", "ref": "8100500051"}, "type": "Feature"}
{"geometry": {"coordinates": [-104.645195, 38.242052], "type": "Point"}, "id": "5kPu_2Ff24fv9r7C7rdPVpCb94w=", "properties": {"@source_uri": "https://tools.usps.com/UspsToolsRestServices/rest/POLocator/findLocations", "@spider": "usps_collection_boxes", "addr:city": "PUEBLO", "addr:country": "US", "addr:postcode": "81005", "addr:state": "CO", "addr:street_address": "3000 WEDGEWOOD DR", "amenity": "post_box", "collection_times": "Mo-Fr 17:00; Sa 16:00", "indoor": "yes", "note": "ON 12/24 AND 12/31, THIS BOX MAY BE COLLECTED AS EARLY AS 12 NOON.", "nsi_id": "unitedstatespostalservice-a77078", "operator": "United States Postal Service", "operator:short": "USPS", "operator:type": "public", "operator:wikidata": "Q668687", "ref": "8100500052"}, "type": "Feature"}
{"geometry": {"coordinates": [-104.577541, 38.245749], "type": "Point"}, "id": "xLnYqOWPKzmkdqqZHfU_BGePiy0=", "properties": {"@source_uri": "https://tools.usps.com/UspsToolsRestServices/rest/POLocator/findLocations", "@spider": "usps_collection_boxes", "addr:city": "PUEBLO", "addr:country": "US", "addr:postcode": "81006", "addr:state": "CO", "addr:street_address": "1805 SANTA FE DR", "amenity": "post_box", "collection_times": "Mo-Fr 14:00; Sa 10:00", "note": "ON 12/24 AND 12/31, THIS BOX MAY BE COLLECTED AS EARLY AS 12 NOON.", "nsi_id": "unitedstatespostalservice-a77078", "operator": "United States Postal Service", "operator:short": "USPS", "operator:type": "public", "operator:wikidata": "Q668687", "ref": "8100600002"}, "type": "Feature"}
{"geometry": {"coordinates": [-104.73003, 38.304605], "type": "Point"}, "id": "IpzZu5fQI9ITpV7yu56f_MCmGbw=", "properties": {"@source_uri": "https://tools.usps.com/UspsToolsRestServices/rest/POLocator/findLocations", "@spider": "usps_collection_boxes", "addr:city": "PUEBLO", "addr:country": "US", "addr:postcode": "81007", "addr:state": "CO", "addr:street_address": "136 S PURCELL BLVD", "amenity": "post_box", "collection_times": "Mo-Sa 13:00", "note": "ON 12/24 AND 12/31, THIS BOX MAY BE COLLECTED AS EARLY AS 12 NOON.", "nsi_id": "unitedstatespostalservice-a77078", "operator": "United States Postal Service", "operator:short": "USPS", "operator:type": "public", "operator:wikidata": "Q668687", "ref": "8100700002"}, "type": "Feature"}
{"geometry": {"coordinates": [-104.749229, 38.318171], "type": "Point"}, "id": "ma1PocSFDBd0fgCm3NmrLI-UEkA=", "properties": {"@source_uri": "https://tools.usps.com/UspsToolsRestServices/rest/POLocator/findLocations", "@spider": "usps_collection_boxes", "addr:city": "PUEBLO", "addr:country": "US", "addr:postcode": "81007", "addr:state": "CO", "addr:street_address": "434 S MCCULLOCH BLVD", "amenity": "post_box", "collection_times": "Mo-Fr 17:00; Sa 12:00", "note": "ON 12/24 AND 12/31, THIS BOX MAY BE COLLECTED AS EARLY AS 12 NOON.", "nsi_id": "unitedstatespostalservice-a77078", "operator": "United States Postal Service", "operator:short": "USPS", "operator:type": "public", "operator:wikidata": "Q668687", "ref": "8100700005"}, "type": "Feature"}
{"geometry": {"coordinates": [-104.701677, 38.325587], "type": "Point"}, "id": "aH97gxoCrrxINidpjghh_fepDuM=", "properties": {"@source_uri": "https://tools.usps.com/UspsToolsRestServices/rest/POLocator/findLocations", "@spider": "usps_collection_boxes", "addr:city": "PUEBLO", "addr:country": "US", "addr:postcode": "81007", "addr:state": "CO", "addr:street_address": "958 HAILEY LN", "amenity": "post_box", "collection_times": "Mo-Sa 13:00", "note": "ON 12/24 AND 12/31, THIS BOX MAY BE COLLECTED AS EARLY AS 12 NOON.", "nsi_id": "unitedstatespostalservice-a77078", "operator": "United States Postal Service", "operator:short": "USPS", "operator:type": "public", "operator:wikidata": "Q668687", "ref": "8100700007"}, "type": "Feature"}
{"geometry": {"coordinates": [-104.606866, 38.297653], "type": "Point"}, "id": "x3SYKzPjgFawI3mxIElOtGPkOII=", "properties": {"@source_uri": "https://tools.usps.com/UspsToolsRestServices/rest/POLocator/findLocations", "@spider": "usps_collection_boxes", "addr:city": "PUEBLO", "addr:country": "US", "addr:postcode": "81008", "addr:state": "CO", "addr:street_address": "102 W 29TH ST", "amenity": "post_box", "collection_times": "Mo-Fr 13:00; Sa 12:00", "note": "ON 12/24 AND 12/31, THIS BOX MAY BE COLLECTED AS EARLY AS 12 NOON.", "nsi_id": "unitedstatespostalservice-a77078", "operator": "United States Postal Service", "operator:short": "USPS", "operator:type": "public", "operator:wikidata": "Q668687", "ref": "8100800000"}, "type": "Feature"}
{"geometry": {"coordinates": [-104.63023, 38.31519], "type": "Point"}, "id": "EZ-w8ZmUG_JA6HY4r7rglcFCzO8=", "properties": {"@source_uri": "https://tools.usps.com/UspsToolsRestServices/rest/POLocator/findLocations", "@spider": "usps_collection_boxes", "addr:city": "PUEBLO", "addr:country": "US", "addr:postcode": "81008", "addr:state": "CO", "addr:street_address": "615 W 29TH ST", "amenity": "post_box", "collection_times": "Mo-Fr 12:00; Sa 11:00", "nsi_id": "unitedstatespostalservice-a77078", "operator": "United States Postal Service", "operator:short": "USPS", "operator:type": "public", "operator:wikidata": "Q668687", "ref": "8100800001"}, "type": "Feature"}
{"geometry": {"coordinates": [-104.620538, 38.312556], "type": "Point"}, "id": "7gp3Lb6vCEt5EgjLVBI8-4YCw-M=", "properties": {"@source_uri": "https://tools.usps.com/UspsToolsRestServices/rest/POLocator/findLocations", "@spider": "usps_collection_boxes", "addr:city": "PUEBLO", "addr:country": "US", "addr:postcode": "81008", "addr:state": "CO", "addr:street_address": "1022 FORTINO BLVD", "amenity": "post_box", "collection_times": "Mo-Sa 17:00", "indoor": "yes", "note": "ON 12/24 AND 12/31, THIS BOX MAY BE COLLECTED AS EARLY AS 12 NOON.", "nsi_id": "unitedstatespostalservice-a77078", "operator": "United States Postal Service", "operator:short": "USPS", "operator:type": "public", "operator:wikidata": "Q668687", "ref": "8100800015"}, "type": "Feature"}
{"geometry": {"coordinates": [-104.620538, 38.312556], "type": "Point"}, "id": "5YKYzFnEaOEr0robhLRk7oCsmu4=", "properties": {"@source_uri": "https://tools.usps.com/UspsToolsRestServices/rest/POLocator/findLocations", "@spider": "usps_collection_boxes", "addr:city": "PUEBLO", "addr:country": "US", "addr:postcode": "81008", "addr:state": "CO", "addr:street_address": "1022 FORTINO BLVD", "amenity": "post_box", "collection_times": "Mo-Sa 17:00", "indoor": "yes", "note": "ON 12/24 AND 12/31, THIS BOX MAY BE COLLECTED AS EARLY AS 12 NOON.", "nsi_id": "unitedstatespostalservice-a77078", "operator": "United States Postal Service", "operator:short": "USPS", "operator:type": "public", "operator:wikidata": "Q668687", "ref": "8100800016"}, "type": "Feature"}
{"geometry": {"coordinates": [-104.659226, 38.310321], "type": "Point"}, "id": "3f0UtlxQVRVdLULBa3G3KCVzIe0=", "properties": {"@source_uri": "https://tools.usps.com/UspsToolsRestServices/rest/POLocator/findLocations", "@spider": "usps_collection_boxes", "addr:city": "PUEBLO", "addr:country": "US", "addr:postcode": "81008", "addr:state": "CO", "addr:street_address": "3676 PARKER BLVD", "amenity": "post_box", "collection_times": "Mo-Fr 12:00; Sa 10:00", "nsi_id": "unitedstatespostalservice-a77078", "operator": "United States Postal Service", "operator:short": "USPS", "operator:type": "public", "operator:wikidata": "Q668687", "ref": "8100800018"}, "type": "Feature"}
{"geometry": {"coordinates": [-104.661521, 38.309863], "type": "Point"}, "id": "Mcjl1oQd0LGN4eTR-Nuo1ECg4HM=", "properties": {"@source_uri": "https://tools.usps.com/UspsToolsRestServices/rest/POLocator/findLocations", "@spider": "usps_collection_boxes", "addr:city": "PUEBLO", "addr:country": "US", "addr:postcode": "81008", "addr:state": "CO", "addr:street_address": "3673 PARKER BLVD", "amenity": "post_box", "collection_times": "Mo-Fr 12:00; Sa 10:00", "nsi_id": "unitedstatespostalservice-a77078", "operator": "United States Postal Service", "operator:short": "USPS", "operator:type": "public", "operator:wikidata": "Q668687", "ref": "8100800021"}, "type": "Feature"}
{"geometry": {"coordinates": [-104.620538, 38.312556], "type": "Point"}, "id": "8FNdr9swfMiuYV36RIRWYPibolo=", "properties": {"@source_uri": "https://tools.usps.com/UspsToolsRestServices/rest/POLocator/findLocations", "@spider": "usps_collection_boxes", "addr:city": "PUEBLO", "addr:country": "US", "addr:postcode": "81008", "addr:state": "CO", "addr:street_address": "1022 FORTINO BLVD", "amenity": "post_box", "collection_times": "Mo-Sa 17:00", "name": "USPS COLLECTION BOX - APC", "note": "ON 12/24 AND 12/31, THIS BOX MAY BE COLLECTED AS EARLY AS 12 NOON.", "nsi_id": "unitedstatespostalservice-a77078", "operator": "United States Postal Service", "operator:short": "USPS", "operator:type": "public", "operator:wikidata": "Q668687", "ref": "8100800022"}, "type": "Feature"}
{"geometry": {"coordinates": [-104.655321, 37.401663], "type": "Point"}, "id": "8mVRoc6IHzUQrTtzXBIsl4M5IHI=", "properties": {"@source_uri": "https://tools.usps.com/UspsToolsRestServices/rest/POLocator/findLocations", "@spider": "usps_collection_boxes", "addr:city": "AGUILAR", "addr:country": "US", "addr:postcode": "81020", "addr:state": "CO", "addr:street_address": "106 E MAIN ST", "amenity": "post_box", "collection_times": "Mo-Fr 13:45; Sa 11:45", "note": "ON 12/24 AND 12/31, THIS BOX MAY BE COLLECTED AS EARLY AS 12 NOON.", "nsi_id": "unitedstatespostalservice-a77078", "operator": "United States Postal Service", "operator:short": "USPS", "operator:type": "public", "operator:wikidata": "Q668687", "ref": "8102000000"}, "type": "Feature"}
{"geometry": {"coordinates": [-104.655321, 37.401663], "type": "Point"}, "id": "0bSYePtm8pqW1LiulIUS_aXcM5E=", "properties": {"@source_uri": "https://tools.usps.com/UspsToolsRestServices/rest/POLocator/findLocations", "@spider": "usps_collection_boxes", "addr:city": "AGUILAR", "addr:country": "US", "addr:postcode": "81020", "addr:state": "CO", "addr:street_address": "106 E MAIN ST", "amenity": "post_box", "collection_times": "Mo-Fr 13:45; Sa 11:45", "indoor": "yes", "note": "ON 12/24 AND 12/31, THIS BOX MAY BE COLLECTED AS EARLY AS 12 NOON.", "nsi_id": "unitedstatespostalservice-a77078", "operator": "United States Postal Service", "operator:short": "USPS", "operator:type": "public", "operator:wikidata": "Q668687", "ref": "8102000002"}, "type": "Feature"}
{"geometry": {"coordinates": [-104.349912, 38.236817], "type": "Point"}, "id": "cPtjOko3vOEZ0uBC5nJD1TPVca0=", "properties": {"@source_uri": "https://tools.usps.com/UspsToolsRestServices/rest/POLocator/findLocations", "@spider": "usps_collection_boxes", "addr:city": "AVONDALE", "addr:country": "US", "addr:postcode": "81022", "addr:state": "CO", "addr:street_address": "230 AVONDALE BLVD", "amenity": "post_box", "collection_times": "Mo-Fr 14:15; Sa 10:00", "indoor": "yes", "note": "ON 12/24 AND 12/31, THIS BOX MAY BE COLLECTED AS EARLY AS 12 NOON.", "nsi_id": "unitedstatespostalservice-a77078", "operator": "United States Postal Service", "operator:short": "USPS", "operator:type": "public", "operator:wikidata": "Q668687", "ref": "8102200000"}, "type": "Feature"}
{"geometry": {"coordinates": [-104.349912, 38.236817], "type": "Point"}, "id": "rsAMsZXW6ESUUMI1qsR1TDMrwY8=", "properties": {"@source_uri": "https://tools.usps.com/UspsToolsRestServices/rest/POLocator/findLocations", "@spider": "usps_collection_boxes", "addr:city": "AVONDALE", "addr:country": "US", "addr:postcode": "81022", "addr:state": "CO", "addr:street_address": "230 AVONDALE BLVD", "amenity": "post_box", "collection_times": "Mo-Fr 14:15; Sa 10:00", "note": "ON 12/24 AND 12/31, THIS BOX MAY BE COLLECTED AS EARLY AS 12 NOON.", "nsi_id": "unitedstatespostalservice-a77078", "operator": "United States Postal Service", "operator:short": "USPS", "operator:type": "public", "operator:wikidata": "Q668687", "ref": "8102200001"}, "type": "Feature"}
{"geometry": {"coordinates": [-104.986259, 38.075007], "type": "Point"}, "id": "pwA7fTdJ3-XCCKrh5h_LP76barI=", "properties": {"@source_uri": "https://tools.usps.com/UspsToolsRestServices/rest/POLocator/findLocations", "@spider": "usps_collection_boxes", "addr:city": "BEULAH", "addr:country": "US", "addr:postcode": "81023", "addr:state": "CO", "addr:street_address": "8867 GRAND AVE", "amenity": "post_box", "collection_times": "Mo-Fr 15:45; Sa 11:45", "note": "ON 12/24 AND 12/31, THIS BOX MAY BE COLLECTED AS EARLY AS 12 NOON.", "nsi_id": "unitedstatespostalservice-a77078", "operator": "United States Postal Service", "operator:short": "USPS", "operator:type": "public", "operator:wikidata": "Q668687", "ref": "8102300000"}, "type": "Feature"}
{"geometry": {"coordinates": [-104.986259, 38.075007], "type": "Point"}, "id": "WZ-F7t1rRJWO6cFkowLp4b2NrJc=", "properties": {"@source_uri": "https://tools.usps.com/UspsToolsRestServices/rest/POLocator/findLocations", "@spider": "usps_collection_boxes", "addr:city": "BEULAH", "addr:country": "US", "addr:postcode": "81023", "addr:state": "CO", "addr:street_address": "8867 GRAND AVE", "amenity": "post_box", "collection_times": "Mo-Fr 15:45; Sa 11:45", "indoor": "yes", "note": "ON 12/24 AND 12/31, THIS BOX MAY BE COLLECTED AS EARLY AS 12 NOON.", "nsi_id": "unitedstatespostalservice-a77078", "operator": "United States Postal Service", "operator:short": "USPS", "operator:type": "public", "operator:wikidata": "Q668687", "ref": "8102300001"}, "type": "Feature"}
{"geometry": {"coordinates": [-104.257114, 38.248202], "type": "Point"}, "id": "y85r_-I4sB6zy5B1wq166Fwhy6g=", "properties": {"@source_uri": "https://tools.usps.com/UspsToolsRestServices/rest/POLocator/findLocations", "@spider": "usps_collection_boxes", "addr:city": "BOONE", "addr:country": "US", "addr:postcode": "81025", "addr:state": "CO", "addr:street_address": "524 MAIN ST", "amenity": "post_box", "collection_times": "Mo-Fr 16:00; Sa 12:45", "indoor": "yes", "note": "ON 12/24 AND 12/31, THIS BOX MAY BE COLLECTED AS EARLY AS 12 NOON.", "nsi_id": "unitedstatespostalservice-a77078", "operator": "United States Postal Service", "operator:short": "USPS", "operator:type": "public", "operator:wikidata": "Q668687", "ref": "8102500000"}, "type": "Feature"}
{"geometry": {"coordinates": [-104.257114, 38.248202], "type": "Point"}, "id": "Y7sdPOmCUaLXiaEiNmUoWxdxKc0=", "properties": {"@source_uri": "https://tools.usps.com/UspsToolsRestServices/rest/POLocator/findLocations", "@spider": "usps_collection_boxes", "addr:city": "BOONE", "addr:country": "US", "addr:postcode": "81025", "addr:state": "CO", "addr:street_address": "524 MAIN ST", "amenity": "post_box", "collection_times": "Mo-Fr 16:00; Sa 12:45", "note": "ON 12/24 AND 12/31, THIS BOX MAY BE COLLECTED AS EARLY AS 12 NOON.", "nsi_id": "unitedstatespostalservice-a77078", "operator": "United States Postal Service", "operator:short": "USPS", "operator:type": "public", "operator:wikidata": "Q668687", "ref": "8102500001"}, "type": "Feature"}
{"geometry": {"coordinates": [-103.884851, 37.019041], "type": "Point"}, "id": "9PskyfQGV3cUuQABB1x0gkVbxr4=", "properties": {"@source_uri": "https://tools.usps.com/UspsToolsRestServices/rest/POLocator/findLocations", "@spider": "usps_collection_boxes", "addr:city": "BRANSON", "addr:country": "US", "addr:postcode": "81027", "addr:state": "CO", "addr:street_address": "334 SADDLEROCK DR", "amenity": "post_box", "collection_times": "Mo-Fr 13:45; Sa 11:45", "note": "ON 12/24 AND 12/31, THIS BOX MAY BE COLLECTED AS EARLY AS 12 NOON.", "nsi_id": "unitedstatespostalservice-a77078", "operator": "United States Postal Service", "operator:short": "USPS", "operator:type": "public", "operator:wikidata": "Q668687", "ref": "8102700000"}, "type": "Feature"}
{"geometry": {"coordinates": [-103.884851, 37.019041], "type": "Point"}, "id": "6X3IUHzlWd8IelkO2WGycIM5D-w=", "properties": {"@source_uri": "https://tools.usps.com/UspsToolsRestServices/rest/POLocator/findLocations", "@spider": "usps_collection_boxes", "addr:city": "BRANSON", "addr:country": "US", "addr:postcode": "81027", "addr:state": "CO", "addr:street_address": "334 SADDLEROCK DR", "amenity": "post_box", "collection_times": "Mo-Fr 13:45; Sa 11:45", "indoor": "yes", "note": "ON 12/24 AND 12/31, THIS BOX MAY BE COLLECTED AS EARLY AS 12 NOON.", "nsi_id": "unitedstatespostalservice-a77078", "operator": "United States Postal Service", "operator:short": "USPS", "operator:type": "public", "operator:wikidata": "Q668687", "ref": "8102700001"}, "type": "Feature"}
{"geometry": {"coordinates": [-102.580146, 37.105269], "type": "Point"}, "id": "thu3LVcuOs--K0Xb3YNfaMRlx-o=", "properties": {"@source_uri": "https://tools.usps.com/UspsToolsRestServices/rest/POLocator/findLocations", "@spider": "usps_collection_boxes", "addr:city": "CAMPO", "addr:country": "US", "addr:postcode": "81029", "addr:state": "CO", "addr:street_address": "183 W 4TH ST", "amenity": "post_box", "collection_times": "Mo-Fr 13:45; Sa 11:45", "note": "ON 12/24 AND 12/31, THIS BOX MAY BE COLLECTED AS EARLY AS 12 NOON.", "nsi_id": "unitedstatespostalservice-a77078", "operator": "United States Postal Service", "operator:short": "USPS", "operator:type": "public", "operator:wikidata": "Q668687", "ref": "8102900000"}, "type": "Feature"}
{"geometry": {"coordinates": [-102.580146, 37.105269], "type": "Point"}, "id": "YBgEQundA7KIUKEAHnNVWnAhxKo=", "properties": {"@source_uri": "https://tools.usps.com/UspsToolsRestServices/rest/POLocator/findLocations", "@spider": "usps_collection_boxes", "addr:city": "CAMPO", "addr:country": "US", "addr:postcode": "81029", "addr:state": "CO", "addr:street_address": "183 W 4TH ST", "amenity": "post_box", "collection_times": "Mo-Fr 13:45; Sa 11:45", "indoor": "yes", "note": "ON 12/24 AND 12/31, THIS BOX MAY BE COLLECTED AS EARLY AS 12 NOON.", "nsi_id": "unitedstatespostalservice-a77078", "operator": "United States Postal Service", "operator:short": "USPS", "operator:type": "public", "operator:wikidata": "Q668687", "ref": "8102900001"}, "type": "Feature"}
{"geometry": {"coordinates": [-103.510631, 38.107237], "type": "Point"}, "id": "IJMemDAU1uNzFVwk-zdkU9O6J4w=", "properties": {"@source_uri": "https://tools.usps.com/UspsToolsRestServices/rest/POLocator/findLocations", "@spider": "usps_collection_boxes", "addr:city": "CHERAW", "addr:country": "US", "addr:postcode": "81030", "addr:state": "CO", "addr:street_address": "207 W GRAND AVE", "amenity": "post_box", "collection_times": "Mo-Fr 14:00; Sa 09:30", "note": "ON 12/24 AND 12/31, THIS BOX MAY BE COLLECTED AS EARLY AS 12 NOON.", "nsi_id": "unitedstatespostalservice-a77078", "operator": "United States Postal Service", "operator:short": "USPS", "operator:type": "public", "operator:wikidata": "Q668687", "ref": "8103000000"}, "type": "Feature"}
{"geometry": {"coordinates": [-103.510531, 38.107264], "type": "Point"}, "id": "7GOz9JXyhwS9zsQTtjqQnYWYnLk=", "properties": {"@source_uri": "https://tools.usps.com/UspsToolsRestServices/rest/POLocator/findLocations", "@spider": "usps_collection_boxes", "addr:city": "CHERAW", "addr:country": "US", "addr:postcode": "81030", "addr:state": "CO", "addr:street_address": "207 W GRAND AVE", "amenity": "post_box", "collection_times": "Mo-Fr 14:00; Sa 09:45", "indoor": "yes", "note": "ON 12/24 AND 12/31, THIS BOX MAY BE COLLECTED AS EARLY AS 12 NOON.", "nsi_id": "unitedstatespostalservice-a77078", "operator": "United States Postal Service", "operator:short": "USPS", "operator:type": "public", "operator:wikidata": "Q668687", "ref": "8103000001"}, "type": "Feature"}
{"geometry": {"coordinates": [-103.857342, 38.195341], "type": "Point"}, "id": "ZRL7xn_bFozA_rX080plr_NjvjM=", "properties": {"@source_uri": "https://tools.usps.com/UspsToolsRestServices/rest/POLocator/findLocations", "@spider": "usps_collection_boxes", "addr:city": "CROWLEY", "addr:country": "US", "addr:postcode": "81033", "addr:state": "CO", "addr:street_address": "208 BROADWAY ST", "amenity": "post_box", "collection_times": "Mo-Fr 14:45; Sa 09:45", "note": "ON 12/24 AND 12/31, THIS BOX MAY BE COLLECTED AS EARLY AS 12 NOON.", "nsi_id": "unitedstatespostalservice-a77078", "operator": "United States Postal Service", "operator:short": "USPS", "operator:type": "public", "operator:wikidata": "Q668687", "ref": "8103300000"}, "type": "Feature"}
{"geometry": {"coordinates": [-103.857377, 38.195423], "type": "Point"}, "id": "jR8s-RmxzvPMCRUexEMjQKz3tqo=", "properties": {"@source_uri": "https://tools.usps.com/UspsToolsRestServices/rest/POLocator/findLocations", "@spider": "usps_collection_boxes", "addr:city": "CROWLEY", "addr:country": "US", "addr:postcode": "81033", "addr:state": "CO", "addr:street_address": "208 BROADWAY ST", "amenity": "post_box", "collection_times": "Mo-Fr 14:45; Sa 09:45", "indoor": "yes", "note": "ON 12/24 AND 12/31, THIS BOX MAY BE COLLECTED AS EARLY AS 12 NOON.", "nsi_id": "unitedstatespostalservice-a77078", "operator": "United States Postal Service", "operator:short": "USPS", "operator:type": "public", "operator:wikidata": "Q668687", "ref": "8103300001"}, "type": "Feature"}
{"geometry": {"coordinates": [-102.781752, 38.480801], "type": "Point"}, "id": "seI24ssBxveKqAcDYtElGz33MXY=", "properties": {"@source_uri": "https://tools.usps.com/UspsToolsRestServices/rest/POLocator/findLocations", "@spider": "usps_collection_boxes", "addr:city": "EADS", "addr:country": "US", "addr:postcode": "81036", "addr:state": "CO", "addr:street_address": "1200 MAINE ST", "amenity": "post_box", "collection_times": "Mo-Fr 13:15; Sa 11:30", "note": "ON 12/24 AND 12/31, THIS BOX MAY BE COLLECTED AS EARLY AS 12 NOON.", "nsi_id": "unitedstatespostalservice-a77078", "operator": "United States Postal Service", "operator:short": "USPS", "operator:type": "public", "operator:wikidata": "Q668687", "ref": "8103600000"}, "type": "Feature"}
{"geometry": {"coordinates": [-102.781752, 38.480801], "type": "Point"}, "id": "txQI3vDWPP7Sv18KqHLY5URTQB0=", "properties": {"@source_uri": "https://tools.usps.com/UspsToolsRestServices/rest/POLocator/findLocations", "@spider": "usps_collection_boxes", "addr:city": "EADS", "addr:country": "US", "addr:postcode": "81036", "addr:state": "CO", "addr:street_address": "1200 MAINE ST", "amenity": "post_box", "collection_times": "Mo-Fr 13:15; Sa 11:30", "indoor": "yes", "note": "ON 12/24 AND 12/31, THIS BOX MAY BE COLLECTED AS EARLY AS 12 NOON.", "nsi_id": "unitedstatespostalservice-a77078", "operator": "United States Postal Service", "operator:short": "USPS", "operator:type": "public", "operator:wikidata": "Q668687", "ref": "8103600001"}, "type": "Feature"}
{"geometry": {"coordinates": [-104.014345, 38.130091], "type": "Point"}, "id": "-BkTg4sROms0S2Y6pJo72CuRiHI=", "properties": {"@source_uri": "https://tools.usps.com/UspsToolsRestServices/rest/POLocator/findLocations", "@spider": "usps_collection_boxes", "addr:city": "FOWLER", "addr:country": "US", "addr:postcode": "81039", "addr:state": "CO", "addr:street_address": "34191 COUNTY ROAD 3.5", "amenity": "post_box", "collection_times": "Mo-Fr 15:30; Sa 13:30", "indoor": "yes", "note": "ON 12/24 AND 12/31, THIS BOX MAY BE COLLECTED AS EARLY AS 12 NOON.", "nsi_id": "unitedstatespostalservice-a77078", "operator": "United States Postal Service", "operator:short": "USPS", "operator:type": "public", "operator:wikidata": "Q668687", "ref": "8103900003"}, "type": "Feature"}
{"geometry": {"coordinates": [-104.023311, 38.130865], "type": "Point"}, "id": "M0B2OB30KOGvPuZV8wClvghMDnk=", "properties": {"@source_uri": "https://tools.usps.com/UspsToolsRestServices/rest/POLocator/findLocations", "@spider": "usps_collection_boxes", "addr:city": "FOWLER", "addr:country": "US", "addr:postcode": "81039", "addr:state": "CO", "addr:street_address": "123 MAIN ST", "amenity": "post_box", "collection_times": "Mo-Sa 12:00", "nsi_id": "unitedstatespostalservice-a77078", "operator": "United States Postal Service", "operator:short": "USPS", "operator:type": "public", "operator:wikidata": "Q668687", "ref": "8103900004"}, "type": "Feature"}
{"geometry": {"coordinates": [-104.013656, 38.130327], "type": "Point"}, "id": "Diy-7l0PxQw42LVcEHR7rW7BKW4=", "properties": {"@source_uri": "https://tools.usps.com/UspsToolsRestServices/rest/POLocator/findLocations", "@spider": "usps_collection_boxes", "addr:city": "FOWLER", "addr:country": "US", "addr:postcode": "81039", "addr:state": "CO", "addr:street_address": "34191 COUNTY ROAD 3.5", "amenity": "post_box", "collection_times": "Mo-Fr 15:30; Sa 13:30", "note": "ON 12/24 AND 12/31, THIS BOX MAY BE COLLECTED AS EARLY AS 12 NOON.", "nsi_id": "unitedstatespostalservice-a77078", "operator": "United States Postal Service", "operator:short": "USPS", "operator:type": "public", "operator:wikidata": "Q668687", "ref": "8103900005"}, "type": "Feature"}
{"geometry": {"coordinates": [-105.166420935, 37.783237554], "type": "Point"}, "id": "eZMLEd1iYQo7cLwM-EoiTJDoQoE=", "properties": {"@source_uri": "https://tools.usps.com/UspsToolsRestServices/rest/POLocator/findLocations", "@spider": "usps_collection_boxes", "addr:city": "GARDNER", "addr:country": "US", "addr:postcode": "81040", "addr:state": "CO", "addr:street_address": "25336 STATE HIGHWAY 69 #A", "amenity": "post_box", "collection_times": "Mo-Fr 13:15; Sa 11:30", "note": "ON 12/24 AND 12/31, THIS BOX MAY BE COLLECTED AS EARLY AS 12 NOON.", "nsi_id": "unitedstatespostalservice-a77078", "operator": "United States Postal Service", "operator:short": "USPS", "operator:type": "public", "operator:wikidata": "Q668687", "ref": "8104000000"}, "type": "Feature"}
{"geometry": {"coordinates": [-105.166420935, 37.783237554], "type": "Point"}, "id": "PU_-0lHEvjUONh2eSPTJJ5HITCs=", "properties": {"@source_uri": "https://tools.usps.com/UspsToolsRestServices/rest/POLocator/findLocations", "@spider": "usps_collection_boxes", "addr:city": "GARDNER", "addr:country": "US", "addr:postcode": "81040", "addr:state": "CO", "addr:street_address": "25336 STATE HIGHWAY 69 #A", "amenity": "post_box", "collection_times": "Mo-Fr 13:15; Sa 11:30", "indoor": "yes", "note": "ON 12/24 AND 12/31, THIS BOX MAY BE COLLECTED AS EARLY AS 12 NOON.", "nsi_id": "unitedstatespostalservice-a77078", "operator": "United States Postal Service", "operator:short": "USPS", "operator:type": "public", "operator:wikidata": "Q668687", "ref": "8104000001"}, "type": "Feature"}
{"geometry": {"coordinates": [-102.310306, 38.061731], "type": "Point"}, "id": "AFH3tFhe2Wzuu2da8tGcCTNFDkE=", "properties": {"@source_uri": "https://tools.usps.com/UspsToolsRestServices/rest/POLocator/findLocations", "@spider": "usps_collection_boxes", "addr:city": "GRANADA", "addr:country": "US", "addr:postcode": "81041", "addr:state": "CO", "addr:street_address": "111 S MAIN ST", "amenity": "post_box", "collection_times": "Mo-Fr 15:00; Sa 11:30", "note": "ON 12/24 AND 12/31, THIS BOX MAY BE COLLECTED AS EARLY AS 12 NOON.", "nsi_id": "unitedstatespostalservice-a77078", "operator": "United States Postal Service", "operator:short": "USPS", "operator:type": "public", "operator:wikidata": "Q668687", "ref": "8104100000"}, "type": "Feature"}
{"geometry": {"coordinates": [-102.310306, 38.061731], "type": "Point"}, "id": "oPTXdzuW3Rxz6uSlvg9JWTLg8AQ=", "properties": {"@source_uri": "https://tools.usps.com/UspsToolsRestServices/rest/POLocator/findLocations", "@spider": "usps_collection_boxes", "addr:city": "GRANADA", "addr:country": "US", "addr:postcode": "81041", "addr:state": "CO", "addr:street_address": "111 S MAIN ST", "amenity": "post_box", "collection_times": "Mo-Fr 15:00; Sa 11:30", "indoor": "yes", "note": "ON 12/24 AND 12/31, THIS BOX MAY BE COLLECTED AS EARLY AS 12 NOON.", "nsi_id": "unitedstatespostalservice-a77078", "operator": "United States Postal Service", "operator:short": "USPS", "operator:type": "public", "operator:wikidata": "Q668687", "ref": "8104100001"}, "type": "Feature"}
{"geometry": {"coordinates": [-102.219042, 38.121592], "type": "Point"}, "id": "AEitPCGUsGLyDhc45T2OaFB5CX8=", "properties": {"@source_uri": "https://tools.usps.com/UspsToolsRestServices/rest/POLocator/findLocations", "@spider": "usps_collection_boxes", "addr:city": "HARTMAN", "addr:country": "US", "addr:postcode": "81043", "addr:state": "CO", "addr:street_address": "108 N MAIN ST", "amenity": "post_box", "collection_times": "Mo-Sa 10:00", "indoor": "yes", "nsi_id": "unitedstatespostalservice-a77078", "operator": "United States Postal Service", "operator:short": "USPS", "operator:type": "public", "operator:wikidata": "Q668687", "ref": "8104300001"}, "type": "Feature"}
{"geometry": {"coordinates": [-102.957282, 38.113461], "type": "Point"}, "id": "r0CwdV8f8CaxAJryQbtizDGCCvc=", "properties": {"@source_uri": "https://tools.usps.com/UspsToolsRestServices/rest/POLocator/findLocations", "@spider": "usps_collection_boxes", "addr:city": "HASTY", "addr:country": "US", "addr:postcode": "81044", "addr:state": "CO", "addr:street_address": "101 S MAIN ST", "amenity": "post_box", "collection_times": "Mo-Sa 14:00", "note": "ON 12/24 AND 12/31, THIS BOX MAY BE COLLECTED AS EARLY AS 12 NOON.", "nsi_id": "unitedstatespostalservice-a77078", "operator": "United States Postal Service", "operator:short": "USPS", "operator:type": "public", "operator:wikidata": "Q668687", "ref": "8104400000"}, "type": "Feature"}
{"geometry": {"coordinates": [-102.957282, 38.113461], "type": "Point"}, "id": "CvjQUngkKNgYHV5Tw1TfweEKFgc=", "properties": {"@source_uri": "https://tools.usps.com/UspsToolsRestServices/rest/POLocator/findLocations", "@spider": "usps_collection_boxes", "addr:city": "HASTY", "addr:country": "US", "addr:postcode": "81044", "addr:state": "CO", "addr:street_address": "101 S MAIN ST", "amenity": "post_box", "collection_times": "Mo-Fr 14:00; Sa 12:30", "indoor": "yes", "note": "ON 12/24 AND 12/31, THIS BOX MAY BE COLLECTED AS EARLY AS 12 NOON.", "nsi_id": "unitedstatespostalservice-a77078", "operator": "United States Postal Service", "operator:short": "USPS", "operator:type": "public", "operator:wikidata": "Q668687", "ref": "8104400001"}, "type": "Feature"}
{"geometry": {"coordinates": [-103.163429, 38.438833], "type": "Point"}, "id": "NQ1IRqDsWLf_rkXutoiIc9SKr2s=", "properties": {"@source_uri": "https://tools.usps.com/UspsToolsRestServices/rest/POLocator/findLocations", "@spider": "usps_collection_boxes", "addr:city": "HASWELL", "addr:country": "US", "addr:postcode": "81045", "addr:state": "CO", "addr:street_address": "301 MAIN ST", "amenity": "post_box", "collection_times": "Mo-Fr 13:45; Sa 10:45", "indoor": "yes", "note": "ON 12/24 AND 12/31, THIS BOX MAY BE COLLECTED AS EARLY AS 12 NOON.", "nsi_id": "unitedstatespostalservice-a77078", "operator": "United States Postal Service", "operator:short": "USPS", "operator:type": "public", "operator:wikidata": "Q668687", "ref": "8104500000"}, "type": "Feature"}
{"geometry": {"coordinates": [-103.163766, 38.452466], "type": "Point"}, "id": "z-fll6aGLNLdQHTIktP4CJmIrT8=", "properties": {"@source_uri": "https://tools.usps.com/UspsToolsRestServices/rest/POLocator/findLocations", "@spider": "usps_collection_boxes", "addr:city": "HASWELL", "addr:country": "US", "addr:postcode": "81045", "addr:state": "CO", "addr:street_address": "301 MAIN ST", "amenity": "post_box", "collection_times": "Mo-Fr 13:45; Sa 10:45", "note": "ON 12/24 AND 12/31, THIS BOX MAY BE COLLECTED AS EARLY AS 12 NOON.", "nsi_id": "unitedstatespostalservice-a77078", "operator": "United States Postal Service", "operator:short": "USPS", "operator:type": "public", "operator:wikidata": "Q668687", "ref": "8104500001"}, "type": "Feature"}
{"geometry": {"coordinates": [-104.379603, 37.281168], "type": "Point"}, "id": "yi6pw8mMXpYWk41hizgRyUkrA6g=", "properties": {"@source_uri": "https://tools.usps.com/UspsToolsRestServices/rest/POLocator/findLocations", "@spider": "usps_collection_boxes", "addr:city": "HOEHNE", "addr:country": "US", "addr:postcode": "81046", "addr:state": "CO", "addr:street_address": "42607 COUNTY ROAD 40.6", "amenity": "post_box", "collection_times": "Mo-Fr 10:45; Sa 11:00", "nsi_id": "unitedstatespostalservice-a77078", "operator": "United States Postal Service", "operator:short": "USPS", "operator:type": "public", "operator:wikidata": "Q668687", "ref": "8104600000"}, "type": "Feature"}
{"geometry": {"coordinates": [-104.379526, 37.281231], "type": "Point"}, "id": "hFF_nt1rgGJonogDn5xeaH665Hw=", "properties": {"@source_uri": "https://tools.usps.com/UspsToolsRestServices/rest/POLocator/findLocations", "@spider": "usps_collection_boxes", "addr:city": "HOEHNE", "addr:country": "US", "addr:postcode": "81046", "addr:state": "CO", "addr:street_address": "42607 COUNTY ROAD 40.6", "amenity": "post_box", "collection_times": "Mo-Fr 10:45; Sa 11:00", "indoor": "yes", "nsi_id": "unitedstatespostalservice-a77078", "operator": "United States Postal Service", "operator:short": "USPS", "operator:type": "public", "operator:wikidata": "Q668687", "ref": "8104600001"}, "type": "Feature"}
{"geometry": {"coordinates": [-102.12226, 38.050987], "type": "Point"}, "id": "60Kug0wnnBRMG8HI6hKoFFJdr60=", "properties": {"@source_uri": "https://tools.usps.com/UspsToolsRestServices/rest/POLocator/findLocations", "@spider": "usps_collection_boxes", "addr:city": "HOLLY", "addr:country": "US", "addr:postcode": "81047", "addr:state": "CO", "addr:street_address": "101 E SANTA FE ST", "amenity": "post_box", "collection_times": "Mo-Fr 14:45; Sa 11:45", "note": "ON 12/24 AND 12/31, THIS BOX MAY BE COLLECTED AS EARLY AS 12 NOON.", "nsi_id": "unitedstatespostalservice-a77078", "operator": "United States Postal Service", "operator:short": "USPS", "operator:type": "public", "operator:wikidata": "Q668687", "ref": "8104700000"}, "type": "Feature"}
{"geometry": {"coordinates": [-102.12226, 38.050987], "type": "Point"}, "id": "fBPv6Dnkldz2y9o8XLRVs9S1Lys=", "properties": {"@source_uri": "https://tools.usps.com/UspsToolsRestServices/rest/POLocator/findLocations", "@spider": "usps_collection_boxes", "addr:city": "HOLLY", "addr:country": "US", "addr:postcode": "81047", "addr:state": "CO", "addr:street_address": "101 E SANTA FE ST", "amenity": "post_box", "collection_times": "Mo-Fr 14:45; Sa 11:45", "indoor": "yes", "note": "ON 12/24 AND 12/31, THIS BOX MAY BE COLLECTED AS EARLY AS 12 NOON.", "nsi_id": "unitedstatespostalservice-a77078", "operator": "United States Postal Service", "operator:short": "USPS", "operator:type": "public", "operator:wikidata": "Q668687", "ref": "8104700002"}, "type": "Feature"}
{"geometry": {"coordinates": [-103.352981, 37.243336], "type": "Point"}, "id": "_JKMrle69qfYQ6zwG4PUiUAN6oU=", "properties": {"@source_uri": "https://tools.usps.com/UspsToolsRestServices/rest/POLocator/findLocations", "@spider": "usps_collection_boxes", "addr:city": "KIM", "addr:country": "US", "addr:postcode": "81049", "addr:state": "CO", "addr:street_address": "185 STATE ST", "amenity": "post_box", "collection_times": "Mo-Fr 13:00; Sa 12:15", "note": "ON 12/24 AND 12/31, THIS BOX MAY BE COLLECTED AS EARLY AS 12 NOON.", "nsi_id": "unitedstatespostalservice-a77078", "operator": "United States Postal Service", "operator:short": "USPS", "operator:type": "public", "operator:wikidata": "Q668687", "ref": "8104900001"}, "type": "Feature"}
{"geometry": {"coordinates": [-103.352981, 37.243336], "type": "Point"}, "id": "1Ukn5xrD-S2s4QiByPRVrnkTdSs=", "properties": {"@source_uri": "https://tools.usps.com/UspsToolsRestServices/rest/POLocator/findLocations", "@spider": "usps_collection_boxes", "addr:city": "KIM", "addr:country": "US", "addr:postcode": "81049", "addr:state": "CO", "addr:street_address": "185 STATE ST", "amenity": "post_box", "collection_times": "Mo-Fr 13:00; Sa 12:15", "indoor": "yes", "note": "ON 12/24 AND 12/31, THIS BOX MAY BE COLLECTED AS EARLY AS 12 NOON.", "nsi_id": "unitedstatespostalservice-a77078", "operator": "United States Postal Service", "operator:short": "USPS", "operator:type": "public", "operator:wikidata": "Q668687", "ref": "8104900003"}, "type": "Feature"}
{"geometry": {"coordinates": [-103.5431796975, 37.9856682635], "type": "Point"}, "id": "ltB8-dNEJKYlw64xI-g3m1Ktwyc=", "properties": {"@source_uri": "https://tools.usps.com/UspsToolsRestServices/rest/POLocator/findLocations", "@spider": "usps_collection_boxes", "addr:city": "LA JUNTA", "addr:country": "US", "addr:postcode": "81050", "addr:state": "CO", "addr:street_address": "324 COLORADO AVE", "amenity": "post_box", "collection_times": "Mo-Sa 14:45", "note": "ON 12/24 AND 12/31, THIS BOX MAY BE COLLECTED AS EARLY AS 12 NOON.", "nsi_id": "unitedstatespostalservice-a77078", "operator": "United States Postal Service", "operator:short": "USPS", "operator:type": "public", "operator:wikidata": "Q668687", "ref": "8105000001"}, "type": "Feature"}
{"geometry": {"coordinates": [-103.545211, 37.969276], "type": "Point"}, "id": "T1tg2pJNtHoKr6RmtzLdP3eC-qc=", "properties": {"@source_uri": "https://tools.usps.com/UspsToolsRestServices/rest/POLocator/findLocations", "@spider": "usps_collection_boxes", "addr:city": "LA JUNTA", "addr:country": "US", "addr:postcode": "81050", "addr:state": "CO", "addr:street_address": "122 WESTERN AVE", "amenity": "post_box", "collection_times": "Mo-Fr 12:00; Sa 09:30", "nsi_id": "unitedstatespostalservice-a77078", "operator": "United States Postal Service", "operator:short": "USPS", "operator:type": "public", "operator:wikidata": "Q668687", "ref": "8105000016"}, "type": "Feature"}
{"geometry": {"coordinates": [-103.543139, 37.985653], "type": "Point"}, "id": "kW6eqedhb5QlC50sxkKBSkhPi_U=", "properties": {"@source_uri": "https://tools.usps.com/UspsToolsRestServices/rest/POLocator/findLocations", "@spider": "usps_collection_boxes", "addr:city": "LA JUNTA", "addr:country": "US", "addr:postcode": "81050", "addr:state": "CO", "addr:street_address": "324 COLORADO AVE", "amenity": "post_box", "collection_times": "Mo-Sa 14:45", "indoor": "yes", "note": "ON 12/24 AND 12/31, THIS BOX MAY BE COLLECTED AS EARLY AS 12 NOON.", "nsi_id": "unitedstatespostalservice-a77078", "operator": "United States Postal Service", "operator:short": "USPS", "operator:type": "public", "operator:wikidata": "Q668687", "ref": "8105000023"}, "type": "Feature"}
{"geometry": {"coordinates": [-102.620436, 38.086607], "type": "Point"}, "id": "ifPILgBf8jlQU1K11pGSxfr3qCU=", "properties": {"@source_uri": "https://tools.usps.com/UspsToolsRestServices/rest/POLocator/findLocations", "@spider": "usps_collection_boxes", "addr:city": "LAMAR", "addr:country": "US", "addr:postcode": "81052", "addr:state": "CO", "addr:street_address": "300 S 5TH ST", "amenity": "post_box", "collection_times": "Mo-Fr 15:30; Sa 14:00", "note": "ON 12/24 AND 12/31, THIS BOX MAY BE COLLECTED AS EARLY AS 12 NOON.", "nsi_id": "unitedstatespostalservice-a77078", "operator": "United States Postal Service", "operator:short": "USPS", "operator:type": "public", "operator:wikidata": "Q668687", "ref": "8105200001"}, "type": "Feature"}
{"geometry": {"coordinates": [-102.620436, 38.086607], "type": "Point"}, "id": "lBP3BnCGGa5OrT2HPmpAmAa5PlU=", "properties": {"@source_uri": "https://tools.usps.com/UspsToolsRestServices/rest/POLocator/findLocations", "@spider": "usps_collection_boxes", "addr:city": "LAMAR", "addr:country": "US", "addr:postcode": "81052", "addr:state": "CO", "addr:street_address": "300 S 5TH ST", "amenity": "post_box", "collection_times": "Mo-Fr 15:30; Sa 14:00", "indoor": "yes", "note": "ON 12/24 AND 12/31, THIS BOX MAY BE COLLECTED AS EARLY AS 12 NOON.", "nsi_id": "unitedstatespostalservice-a77078", "operator": "United States Postal Service", "operator:short": "USPS", "operator:type": "public", "operator:wikidata": "Q668687", "ref": "8105200020"}, "type": "Feature"}
{"geometry": {"coordinates": [-102.620436, 38.086607], "type": "Point"}, "id": "RonxkAftlWeLzJB24QA_6utUdlk=", "properties": {"@source_uri": "https://tools.usps.com/UspsToolsRestServices/rest/POLocator/findLocations", "@spider": "usps_collection_boxes", "addr:city": "LAMAR", "addr:country": "US", "addr:postcode": "81052", "addr:state": "CO", "addr:street_address": "300 S 5TH ST", "amenity": "post_box", "collection_times": "Mo-Fr 15:30; Sa 14:00", "indoor": "yes", "note": "ON 12/24 AND 12/31, THIS BOX MAY BE COLLECTED AS EARLY AS 12 NOON.", "nsi_id": "unitedstatespostalservice-a77078", "operator": "United States Postal Service", "operator:short": "USPS", "operator:type": "public", "operator:wikidata": "Q668687", "ref": "8105200023"}, "type": "Feature"}
{"geometry": {"coordinates": [-103.222865, 38.066313], "type": "Point"}, "id": "dtCtzMLl9-A1ib-ZnkQhXxp3py8=", "properties": {"@source_uri": "https://tools.usps.com/UspsToolsRestServices/rest/POLocator/findLocations", "@spider": "usps_collection_boxes", "addr:city": "LAS ANIMAS", "addr:country": "US", "addr:postcode": "81054", "addr:state": "CO", "addr:street_address": "513 6TH ST", "amenity": "post_box", "collection_times": "Mo-Sa 14:15", "note": "ON 12/24 AND 12/31, THIS BOX MAY BE COLLECTED AS EARLY AS 12 NOON.", "nsi_id": "unitedstatespostalservice-a77078", "operator": "United States Postal Service", "operator:short": "USPS", "operator:type": "public", "operator:wikidata": "Q668687", "ref": "8105400000"}, "type": "Feature"}
{"geometry": {"coordinates": [-103.222865, 38.066313], "type": "Point"}, "id": "O1VpE9dhYgv4sfHgbMebTcUmmr8=", "properties": {"@source_uri": "https://tools.usps.com/UspsToolsRestServices/rest/POLocator/findLocations", "@spider": "usps_collection_boxes", "addr:city": "LAS ANIMAS", "addr:country": "US", "addr:postcode": "81054", "addr:state": "CO", "addr:street_address": "513 6TH ST", "amenity": "post_box", "collection_times": "Mo-Sa 14:15", "indoor": "yes", "note": "ON 12/24 AND 12/31, THIS BOX MAY BE COLLECTED AS EARLY AS 12 NOON.", "nsi_id": "unitedstatespostalservice-a77078", "operator": "United States Postal Service", "operator:short": "USPS", "operator:type": "public", "operator:wikidata": "Q668687", "ref": "8105400008"}, "type": "Feature"}
{"geometry": {"coordinates": [-103.222865, 38.066313], "type": "Point"}, "id": "kmN7j9ZhxTPKYPBzLNZmC1CkHHE=", "properties": {"@source_uri": "https://tools.usps.com/UspsToolsRestServices/rest/POLocator/findLocations", "@spider": "usps_collection_boxes", "addr:city": "LAS ANIMAS", "addr:country": "US", "addr:postcode": "81054", "addr:state": "CO", "addr:street_address": "513 6TH ST", "amenity": "post_box", "collection_times": "Mo-Sa 14:15", "indoor": "yes", "note": "ON 12/24 AND 12/31, THIS BOX MAY BE COLLECTED AS EARLY AS 12 NOON.", "nsi_id": "unitedstatespostalservice-a77078", "operator": "United States Postal Service", "operator:short": "USPS", "operator:type": "public", "operator:wikidata": "Q668687", "ref": "8105400009"}, "type": "Feature"}
{"geometry": {"coordinates": [-105.007795, 37.509123], "type": "Point"}, "id": "S-rcxqu3ZSfv8V8gZtHRbAJnjv8=", "properties": {"@source_uri": "https://tools.usps.com/UspsToolsRestServices/rest/POLocator/findLocations", "@spider": "usps_collection_boxes", "addr:city": "LA VETA", "addr:country": "US", "addr:postcode": "81055", "addr:state": "CO", "addr:street_address": "117 E RYUS ST", "amenity": "post_box", "collection_times": "Mo-Fr 15:15; Sa 12:00", "note": "ON 12/24 AND 12/31, THIS BOX MAY BE COLLECTED AS EARLY AS 12 NOON.", "nsi_id": "unitedstatespostalservice-a77078", "operator": "United States Postal Service", "operator:short": "USPS", "operator:type": "public", "operator:wikidata": "Q668687", "ref": "8105500000"}, "type": "Feature"}
{"geometry": {"coordinates": [-105.007795, 37.509123], "type": "Point"}, "id": "NuliUHa11khmFbtfVOkaSc5pE0Q=", "properties": {"@source_uri": "https://tools.usps.com/UspsToolsRestServices/rest/POLocator/findLocations", "@spider": "usps_collection_boxes", "addr:city": "LA VETA", "addr:country": "US", "addr:postcode": "81055", "addr:state": "CO", "addr:street_address": "117 E RYUS ST", "amenity": "post_box", "collection_times": "Mo-Fr 15:15; Sa 12:00", "indoor": "yes", "note": "ON 12/24 AND 12/31, THIS BOX MAY BE COLLECTED AS EARLY AS 12 NOON.", "nsi_id": "unitedstatespostalservice-a77078", "operator": "United States Postal Service", "operator:short": "USPS", "operator:type": "public", "operator:wikidata": "Q668687", "ref": "8105500002"}, "type": "Feature"}
{"geometry": {"coordinates": [-105.007795, 37.509123], "type": "Point"}, "id": "PK4CJ13PGmXvC9cuZpvGVv2WzoM=", "properties": {"@source_uri": "https://tools.usps.com/UspsToolsRestServices/rest/POLocator/findLocations", "@spider": "usps_collection_boxes", "addr:city": "LA VETA", "addr:country": "US", "addr:postcode": "81055", "addr:state": "CO", "addr:street_address": "117 E RYUS ST", "amenity": "post_box", "collection_times": "Mo-Fr 15:15; Sa 12:00", "indoor": "yes", "note": "ON 12/24 AND 12/31, THIS BOX MAY BE COLLECTED AS EARLY AS 12 NOON.", "nsi_id": "unitedstatespostalservice-a77078", "operator": "United States Postal Service", "operator:short": "USPS", "operator:type": "public", "operator:wikidata": "Q668687", "ref": "8105500003"}, "type": "Feature"}
{"geometry": {"coordinates": [-102.850561, 38.136798], "type": "Point"}, "id": "ne7R0STNZqLagqo8TvCCTK0FAyk=", "properties": {"@source_uri": "https://tools.usps.com/UspsToolsRestServices/rest/POLocator/findLocations", "@spider": "usps_collection_boxes", "addr:city": "MCCLAVE", "addr:country": "US", "addr:postcode": "81057", "addr:state": "CO", "addr:street_address": "111 E 1ST ST", "amenity": "post_box", "collection_times": "Mo-Fr 14:45; Sa 10:45", "note": "ON 12/24 AND 12/31, THIS BOX MAY BE COLLECTED AS EARLY AS 12 NOON.", "nsi_id": "unitedstatespostalservice-a77078", "operator": "United States Postal Service", "operator:short": "USPS", "operator:type": "public", "operator:wikidata": "Q668687", "ref": "8105700000"}, "type": "Feature"}
{"geometry": {"coordinates": [-102.850972, 38.137768], "type": "Point"}, "id": "SUOVjx7Juwmle3B78iH4oMrBo1M=", "properties": {"@source_uri": "https://tools.usps.com/UspsToolsRestServices/rest/POLocator/findLocations", "@spider": "usps_collection_boxes", "addr:city": "MCCLAVE", "addr:country": "US", "addr:postcode": "81057", "addr:state": "CO", "addr:street_address": "111 E 1ST ST", "amenity": "post_box", "collection_times": "Mo-Fr 11:30; Sa 10:45", "indoor": "yes", "nsi_id": "unitedstatespostalservice-a77078", "operator": "United States Postal Service", "operator:short": "USPS", "operator:type": "public", "operator:wikidata": "Q668687", "ref": "8105700001"}, "type": "Feature"}
{"geometry": {"coordinates": [-103.866775, 38.107602], "type": "Point"}, "id": "1NYSR3AwNoQ1jjY2IrhgfPuR1u4=", "properties": {"@source_uri": "https://tools.usps.com/UspsToolsRestServices/rest/POLocator/findLocations", "@spider": "usps_collection_boxes", "addr:city": "MANZANOLA", "addr:country": "US", "addr:postcode": "81058", "addr:state": "CO", "addr:street_address": "103 S PARK ST", "amenity": "post_box", "collection_times": "Mo-Fr 11:30; Sa 09:30", "nsi_id": "unitedstatespostalservice-a77078", "operator": "United States Postal Service", "operator:short": "USPS", "operator:type": "public", "operator:wikidata": "Q668687", "ref": "8105800000"}, "type": "Feature"}
{"geometry": {"coordinates": [-103.866775, 38.107602], "type": "Point"}, "id": "IW1KNa-0bFWacm9JUU4dq9AK8og=", "properties": {"@source_uri": "https://tools.usps.com/UspsToolsRestServices/rest/POLocator/findLocations", "@spider": "usps_collection_boxes", "addr:city": "MANZANOLA", "addr:country": "US", "addr:postcode": "81058", "addr:state": "CO", "addr:street_address": "103 S PARK ST", "amenity": "post_box", "collection_times": "Mo-Fr 11:30; Sa 09:30", "indoor": "yes", "nsi_id": "unitedstatespostalservice-a77078", "operator": "United States Postal Service", "operator:short": "USPS", "operator:type": "public", "operator:wikidata": "Q668687", "ref": "8105800001"}, "type": "Feature"}
{"geometry": {"coordinates": [-103.943428, 38.166209], "type": "Point"}, "id": "8KMpijF-CIZ_QGTvA8vJbzQ_6Fc=", "properties": {"@source_uri": "https://tools.usps.com/UspsToolsRestServices/rest/POLocator/findLocations", "@spider": "usps_collection_boxes", "addr:city": "OLNEY SPRINGS", "addr:country": "US", "addr:postcode": "81062", "addr:state": "CO", "addr:street_address": "601 WARNER ST", "amenity": "post_box", "collection_times": "Mo-Sa 11:45", "nsi_id": "unitedstatespostalservice-a77078", "operator": "United States Postal Service", "operator:short": "USPS", "operator:type": "public", "operator:wikidata": "Q668687", "ref": "8106200000"}, "type": "Feature"}
{"geometry": {"coordinates": [-103.943428, 38.166209], "type": "Point"}, "id": "2RQO0IwzFsaFZ5FP2HbAe_5OXoI=", "properties": {"@source_uri": "https://tools.usps.com/UspsToolsRestServices/rest/POLocator/findLocations", "@spider": "usps_collection_boxes", "addr:city": "OLNEY SPRINGS", "addr:country": "US", "addr:postcode": "81062", "addr:state": "CO", "addr:street_address": "601 WARNER ST", "amenity": "post_box", "collection_times": "Mo-Sa 11:45", "indoor": "yes", "nsi_id": "unitedstatespostalservice-a77078", "operator": "United States Postal Service", "operator:short": "USPS", "operator:type": "public", "operator:wikidata": "Q668687", "ref": "8106200001"}, "type": "Feature"}
{"geometry": {"coordinates": [-103.755256, 38.215797], "type": "Point"}, "id": "XqWHvI24ftKPQzV_VZ6DQRTu8KA=", "properties": {"@source_uri": "https://tools.usps.com/UspsToolsRestServices/rest/POLocator/findLocations", "@spider": "usps_collection_boxes", "addr:city": "ORDWAY", "addr:country": "US", "addr:postcode": "81063", "addr:state": "CO", "addr:street_address": "115 SHERMAN AVE", "amenity": "post_box", "collection_times": "Mo-Fr 15:00; Sa 12:00", "indoor": "yes", "note": "ON 12/24 AND 12/31, THIS BOX MAY BE COLLECTED AS EARLY AS 12 NOON.", "nsi_id": "unitedstatespostalservice-a77078", "operator": "United States Postal Service", "operator:short": "USPS", "operator:type": "public", "operator:wikidata": "Q668687", "ref": "8106300007"}, "type": "Feature"}
{"geometry": {"coordinates": [-103.755256, 38.215797], "type": "Point"}, "id": "67RKiywJ2pkS5TsdbahxTc5JlOs=", "properties": {"@source_uri": "https://tools.usps.com/UspsToolsRestServices/rest/POLocator/findLocations", "@spider": "usps_collection_boxes", "addr:city": "ORDWAY", "addr:country": "US", "addr:postcode": "81063", "addr:state": "CO", "addr:street_address": "115 SHERMAN AVE", "amenity": "post_box", "collection_times": "Mo-Fr 15:00; Sa 12:00", "indoor": "yes", "note": "ON 12/24 AND 12/31, THIS BOX MAY BE COLLECTED AS EARLY AS 12 NOON.", "nsi_id": "unitedstatespostalservice-a77078", "operator": "United States Postal Service", "operator:short": "USPS", "operator:type": "public", "operator:wikidata": "Q668687", "ref": "8106300008"}, "type": "Feature"}
{"geometry": {"coordinates": [-103.755256, 38.215797], "type": "Point"}, "id": "Y8KR59wjHuyt_nCh4IAmkJr7yz4=", "properties": {"@source_uri": "https://tools.usps.com/UspsToolsRestServices/rest/POLocator/findLocations", "@spider": "usps_collection_boxes", "addr:city": "ORDWAY", "addr:country": "US", "addr:postcode": "81063", "addr:state": "CO", "addr:street_address": "115 SHERMAN AVE", "amenity": "post_box", "collection_times": "Mo-Fr 15:00; Sa 12:00", "note": "ON 12/24 AND 12/31, THIS BOX MAY BE COLLECTED AS EARLY AS 12 NOON.", "nsi_id": "unitedstatespostalservice-a77078", "operator": "United States Postal Service", "operator:short": "USPS", "operator:type": "public", "operator:wikidata": "Q668687", "ref": "8106300010"}, "type": "Feature"}
{"geometry": {"coordinates": [-102.860023, 37.368049], "type": "Point"}, "id": "fMdq8Qm3dqIBzYarZECio-tVwIc=", "properties": {"@source_uri": "https://tools.usps.com/UspsToolsRestServices/rest/POLocator/findLocations", "@spider": "usps_collection_boxes", "addr:city": "PRITCHETT", "addr:country": "US", "addr:postcode": "81064", "addr:state": "CO", "addr:street_address": "153 RANDOLPH ST", "amenity": "post_box", "collection_times": "Mo-Fr 13:45; Sa 13:00", "note": "ON 12/24 AND 12/31, THIS BOX MAY BE COLLECTED AS EARLY AS 12 NOON.", "nsi_id": "unitedstatespostalservice-a77078", "operator": "United States Postal Service", "operator:short": "USPS", "operator:type": "public", "operator:wikidata": "Q668687", "ref": "8106400000"}, "type": "Feature"}
{"geometry": {"coordinates": [-102.860023, 37.368049], "type": "Point"}, "id": "Pg6VUQluCn1wNjbyRG6X0LZYb3s=", "properties": {"@source_uri": "https://tools.usps.com/UspsToolsRestServices/rest/POLocator/findLocations", "@spider": "usps_collection_boxes", "addr:city": "PRITCHETT", "addr:country": "US", "addr:postcode": "81064", "addr:state": "CO", "addr:street_address": "153 RANDOLPH ST", "amenity": "post_box", "collection_times": "Mo-Fr 13:45; Sa 13:00", "indoor": "yes", "note": "ON 12/24 AND 12/31, THIS BOX MAY BE COLLECTED AS EARLY AS 12 NOON.", "nsi_id": "unitedstatespostalservice-a77078", "operator": "United States Postal Service", "operator:short": "USPS", "operator:type": "public", "operator:wikidata": "Q668687", "ref": "8106400001"}, "type": "Feature"}
{"geometry": {"coordinates": [-103.720118, 38.054972], "type": "Point"}, "id": "9d-vyl98hq3f3i8gJ1tX9vNgAwY=", "properties": {"@source_uri": "https://tools.usps.com/UspsToolsRestServices/rest/POLocator/findLocations", "@spider": "usps_collection_boxes", "addr:city": "ROCKY FORD", "addr:country": "US", "addr:postcode": "81067", "addr:state": "CO", "addr:street_address": "401 N 9TH ST", "amenity": "post_box", "collection_times": "Mo-Fr 15:45; Sa 14:30", "note": "ON 12/24 AND 12/31, THIS BOX MAY BE COLLECTED AS EARLY AS 12 NOON.", "nsi_id": "unitedstatespostalservice-a77078", "operator": "United States Postal Service", "operator:short": "USPS", "operator:type": "public", "operator:wikidata": "Q668687", "ref": "8106700000"}, "type": "Feature"}
{"geometry": {"coordinates": [-103.720118, 38.054972], "type": "Point"}, "id": "AULOB1eG9U0urVobScjD4EndZmc=", "properties": {"@source_uri": "https://tools.usps.com/UspsToolsRestServices/rest/POLocator/findLocations", "@spider": "usps_collection_boxes", "addr:city": "ROCKY FORD", "addr:country": "US", "addr:postcode": "81067", "addr:state": "CO", "addr:street_address": "401 N 9TH ST", "amenity": "post_box", "collection_times": "Mo-Fr 15:45; Sa 14:30", "indoor": "yes", "note": "ON 12/24 AND 12/31, THIS BOX MAY BE COLLECTED AS EARLY AS 12 NOON.", "nsi_id": "unitedstatespostalservice-a77078", "operator": "United States Postal Service", "operator:short": "USPS", "operator:type": "public", "operator:wikidata": "Q668687", "ref": "8106700013"}, "type": "Feature"}
{"geometry": {"coordinates": [-104.928937, 37.923796], "type": "Point"}, "id": "-yL3__KWXT7JrNpnxrZtc5rpHw8=", "properties": {"@source_uri": "https://tools.usps.com/UspsToolsRestServices/rest/POLocator/findLocations", "@spider": "usps_collection_boxes", "addr:city": "RYE", "addr:country": "US", "addr:postcode": "81069", "addr:state": "CO", "addr:street_address": "8084 HIGHWAY 165", "amenity": "post_box", "collection_times": "Mo-Fr 15:30; Sa 11:20", "note": "ON 12/24 AND 12/31, THIS BOX MAY BE COLLECTED AS EARLY AS 12 NOON.", "nsi_id": "unitedstatespostalservice-a77078", "operator": "United States Postal Service", "operator:short": "USPS", "operator:type": "public", "operator:wikidata": "Q668687", "ref": "8106900000"}, "type": "Feature"}
{"geometry": {"coordinates": [-104.928937, 37.923796], "type": "Point"}, "id": "3slgXcALAZUHqHwf05nmfHaZVS0=", "properties": {"@source_uri": "https://tools.usps.com/UspsToolsRestServices/rest/POLocator/findLocations", "@spider": "usps_collection_boxes", "addr:city": "RYE", "addr:country": "US", "addr:postcode": "81069", "addr:state": "CO", "addr:street_address": "8084 HIGHWAY 165", "amenity": "post_box", "collection_times": "Mo-Fr 15:30; Sa 11:20", "indoor": "yes", "note": "ON 12/24 AND 12/31, THIS BOX MAY BE COLLECTED AS EARLY AS 12 NOON.", "nsi_id": "unitedstatespostalservice-a77078", "operator": "United States Postal Service", "operator:short": "USPS", "operator:type": "public", "operator:wikidata": "Q668687", "ref": "8106900001"}, "type": "Feature"}
{"geometry": {"coordinates": [-102.293403, 38.468604], "type": "Point"}, "id": "64VozpSYVNzyJan2YoFqro_OBC0=", "properties": {"@source_uri": "https://tools.usps.com/UspsToolsRestServices/rest/POLocator/findLocations", "@spider": "usps_collection_boxes", "addr:city": "SHERIDAN LAKE", "addr:country": "US", "addr:postcode": "81071", "addr:state": "CO", "addr:street_address": "619 BURNETTE ST", "amenity": "post_box", "collection_times": "Mo-Fr 12:30; Sa 12:15", "note": "ON 12/24 AND 12/31, THIS BOX MAY BE COLLECTED AS EARLY AS 12 NOON.", "nsi_id": "unitedstatespostalservice-a77078", "operator": "United States Postal Service", "operator:short": "USPS", "operator:type": "public", "operator:wikidata": "Q668687", "ref": "8107100000"}, "type": "Feature"}
{"geometry": {"coordinates": [-102.293403, 38.468604], "type": "Point"}, "id": "jfNoAdmxhoNpqGHkUvfwsRyFdU0=", "properties": {"@source_uri": "https://tools.usps.com/UspsToolsRestServices/rest/POLocator/findLocations", "@spider": "usps_collection_boxes", "addr:city": "SHERIDAN LAKE", "addr:country": "US", "addr:postcode": "81071", "addr:state": "CO", "addr:street_address": "619 BURNETTE ST", "amenity": "post_box", "collection_times": "Mo-Fr 12:30; Sa 12:15", "indoor": "yes", "note": "ON 12/24 AND 12/31, THIS BOX MAY BE COLLECTED AS EARLY AS 12 NOON.", "nsi_id": "unitedstatespostalservice-a77078", "operator": "United States Postal Service", "operator:short": "USPS", "operator:type": "public", "operator:wikidata": "Q668687", "ref": "8107100003"}, "type": "Feature"}
{"geometry": {"coordinates": [-102.615493, 37.405054], "type": "Point"}, "id": "7YfaaCMtxq9pMHs3T6ZdRwsER8E=", "properties": {"@source_uri": "https://tools.usps.com/UspsToolsRestServices/rest/POLocator/findLocations", "@spider": "usps_collection_boxes", "addr:city": "SPRINGFIELD", "addr:country": "US", "addr:postcode": "81073", "addr:state": "CO", "addr:street_address": "188 E 9TH AVE", "amenity": "post_box", "collection_times": "Mo-Sa 07:00", "nsi_id": "unitedstatespostalservice-a77078", "operator": "United States Postal Service", "operator:short": "USPS", "operator:type": "public", "operator:wikidata": "Q668687", "ref": "8107300000"}, "type": "Feature"}
{"geometry": {"coordinates": [-102.615425, 37.405014], "type": "Point"}, "id": "drxxHRzwRS6wPy1rdTYCMB6COl4=", "properties": {"@source_uri": "https://tools.usps.com/UspsToolsRestServices/rest/POLocator/findLocations", "@spider": "usps_collection_boxes", "addr:city": "SPRINGFIELD", "addr:country": "US", "addr:postcode": "81073", "addr:state": "CO", "addr:street_address": "188 E 9TH AVE", "amenity": "post_box", "collection_times": "Mo-Sa 07:00", "indoor": "yes", "nsi_id": "unitedstatespostalservice-a77078", "operator": "United States Postal Service", "operator:short": "USPS", "operator:type": "public", "operator:wikidata": "Q668687", "ref": "8107300002"}, "type": "Feature"}
{"geometry": {"coordinates": [-103.662953, 38.233269], "type": "Point"}, "id": "vz3G9vbNxcHt1LlopMvou6SImpg=", "properties": {"@source_uri": "https://tools.usps.com/UspsToolsRestServices/rest/POLocator/findLocations", "@spider": "usps_collection_boxes", "addr:city": "SUGAR CITY", "addr:country": "US", "addr:postcode": "81076", "addr:state": "CO", "addr:street_address": "208 COLORADO AVE", "amenity": "post_box", "collection_times": "Mo-Fr 14:45; Sa 09:45", "note": "ON 12/24 AND 12/31, THIS BOX MAY BE COLLECTED AS EARLY AS 12 NOON.", "nsi_id": "unitedstatespostalservice-a77078", "operator": "United States Postal Service", "operator:short": "USPS", "operator:type": "public", "operator:wikidata": "Q668687", "ref": "8107600000"}, "type": "Feature"}
{"geometry": {"coordinates": [-103.662953, 38.233269], "type": "Point"}, "id": "DqlODvXFy4CF7ZJ0yMFC2p5RRlc=", "properties": {"@source_uri": "https://tools.usps.com/UspsToolsRestServices/rest/POLocator/findLocations", "@spider": "usps_collection_boxes", "addr:city": "SUGAR CITY", "addr:country": "US", "addr:postcode": "81076", "addr:state": "CO", "addr:street_address": "208 COLORADO AVE", "amenity": "post_box", "collection_times": "Mo-Fr 12:30; Sa 09:45", "indoor": "yes", "note": "ON 12/24 AND 12/31, THIS BOX MAY BE COLLECTED AS EARLY AS 12 NOON.", "nsi_id": "unitedstatespostalservice-a77078", "operator": "United States Postal Service", "operator:short": "USPS", "operator:type": "public", "operator:wikidata": "Q668687", "ref": "8107600001"}, "type": "Feature"}
{"geometry": {"coordinates": [-103.628749, 38.014385], "type": "Point"}, "id": "Y2ETHYheieuwMIsqZd2Tx59FYfo=", "properties": {"@source_uri": "https://tools.usps.com/UspsToolsRestServices/rest/POLocator/findLocations", "@spider": "usps_collection_boxes", "addr:city": "SWINK", "addr:country": "US", "addr:postcode": "81077", "addr:state": "CO", "addr:street_address": "302 COLUMBIA AVE", "amenity": "post_box", "collection_times": "Mo-Fr 14:15; Sa 10:30", "note": "ON 12/24 AND 12/31, THIS BOX MAY BE COLLECTED AS EARLY AS 12 NOON.", "nsi_id": "unitedstatespostalservice-a77078", "operator": "United States Postal Service", "operator:short": "USPS", "operator:type": "public", "operator:wikidata": "Q668687", "ref": "8107700000"}, "type": "Feature"}
{"geometry": {"coordinates": [-103.628718, 38.014472], "type": "Point"}, "id": "R_0m-qQdv5jGOrO5-T1csXQ3o1Q=", "properties": {"@source_uri": "https://tools.usps.com/UspsToolsRestServices/rest/POLocator/findLocations", "@spider": "usps_collection_boxes", "addr:city": "SWINK", "addr:country": "US", "addr:postcode": "81077", "addr:state": "CO", "addr:street_address": "302 COLUMBIA AVE", "amenity": "post_box", "collection_times": "Mo-Fr 14:15; Sa 10:45", "indoor": "yes", "note": "ON 12/24 AND 12/31, THIS BOX MAY BE COLLECTED AS EARLY AS 12 NOON.", "nsi_id": "unitedstatespostalservice-a77078", "operator": "United States Postal Service", "operator:short": "USPS", "operator:type": "public", "operator:wikidata": "Q668687", "ref": "8107700001"}, "type": "Feature"}
{"geometry": {"coordinates": [-104.502749, 37.169661], "type": "Point"}, "id": "mbvQIMMHsqW-2rI5ymZjdDkMuV8=", "properties": {"@source_uri": "https://tools.usps.com/UspsToolsRestServices/rest/POLocator/findLocations", "@spider": "usps_collection_boxes", "addr:city": "TRINIDAD", "addr:country": "US", "addr:postcode": "81082", "addr:state": "CO", "addr:street_address": "301 E MAIN ST", "amenity": "post_box", "collection_times": "Mo-Sa 15:30", "note": "ON 12/24 AND 12/31, THIS BOX MAY BE COLLECTED AS EARLY AS 12 NOON.", "nsi_id": "unitedstatespostalservice-a77078", "operator": "United States Postal Service", "operator:short": "USPS", "operator:type": "public", "operator:wikidata": "Q668687", "ref": "8108200000"}, "type": "Feature"}
{"geometry": {"coordinates": [-104.505598, 37.168537], "type": "Point"}, "id": "gAcKndqaMewARCq0g0jJm0NTptc=", "properties": {"@source_uri": "https://tools.usps.com/UspsToolsRestServices/rest/POLocator/findLocations", "@spider": "usps_collection_boxes", "addr:city": "TRINIDAD", "addr:country": "US", "addr:postcode": "81082", "addr:state": "CO", "addr:street_address": "100 E MAIN ST", "amenity": "post_box", "collection_times": "Mo-Sa 09:00", "nsi_id": "unitedstatespostalservice-a77078", "operator": "United States Postal Service", "operator:short": "USPS", "operator:type": "public", "operator:wikidata": "Q668687", "ref": "8108200003"}, "type": "Feature"}
{"geometry": {"coordinates": [-104.507729, 37.17997], "type": "Point"}, "id": "aiVlIfjlHNg45sauNAfkkYZtAk0=", "properties": {"@source_uri": "https://tools.usps.com/UspsToolsRestServices/rest/POLocator/findLocations", "@spider": "usps_collection_boxes", "addr:city": "TRINIDAD", "addr:country": "US", "addr:postcode": "81082", "addr:state": "CO", "addr:street_address": "1222 SAN PEDRO AVE", "amenity": "post_box", "collection_times": "Mo-Sa 09:00", "nsi_id": "unitedstatespostalservice-a77078", "operator": "United States Postal Service", "operator:short": "USPS", "operator:type": "public", "operator:wikidata": "Q668687", "ref": "8108200010"}, "type": "Feature"}
{"geometry": {"coordinates": [-104.522706, 37.138357], "type": "Point"}, "id": "N3iyGeX-jd_l3OKBL-wII2_flTg=", "properties": {"@source_uri": "https://tools.usps.com/UspsToolsRestServices/rest/POLocator/findLocations", "@spider": "usps_collection_boxes", "addr:city": "TRINIDAD", "addr:country": "US", "addr:postcode": "81082", "addr:state": "CO", "addr:street_address": "2921 TOUPAL DR", "amenity": "post_box", "collection_times": "Mo-Sa 09:00", "nsi_id": "unitedstatespostalservice-a77078", "operator": "United States Postal Service", "operator:short": "USPS", "operator:type": "public", "operator:wikidata": "Q668687", "ref": "8108200016"}, "type": "Feature"}
{"geometry": {"coordinates": [-104.503034, 37.169795], "type": "Point"}, "id": "hIg3lwARE-oi2SOMS7Zb-I606sk=", "properties": {"@source_uri": "https://tools.usps.com/UspsToolsRestServices/rest/POLocator/findLocations", "@spider": "usps_collection_boxes", "addr:city": "TRINIDAD", "addr:country": "US", "addr:postcode": "81082", "addr:state": "CO", "addr:street_address": "301 E MAIN ST", "amenity": "post_box", "collection_times": "Mo-Sa 15:30", "indoor": "yes", "note": "ON 12/24 AND 12/31, THIS BOX MAY BE COLLECTED AS EARLY AS 12 NOON.", "nsi_id": "unitedstatespostalservice-a77078", "operator": "United States Postal Service", "operator:short": "USPS", "operator:type": "public", "operator:wikidata": "Q668687", "ref": "8108200017"}, "type": "Feature"}
{"geometry": {"coordinates": [-102.397087, 37.556984], "type": "Point"}, "id": "hYs-Mhoi54A_wvCRaT6q86smtDY=", "properties": {"@source_uri": "https://tools.usps.com/UspsToolsRestServices/rest/POLocator/findLocations", "@spider": "usps_collection_boxes", "addr:city": "TWO BUTTES", "addr:country": "US", "addr:postcode": "81084", "addr:state": "CO", "addr:street_address": "448 MAIN ST", "amenity": "post_box", "collection_times": "Mo-Fr 13:15; Sa 11:45", "note": "ON 12/24 AND 12/31, THIS BOX MAY BE COLLECTED AS EARLY AS 12 NOON.", "nsi_id": "unitedstatespostalservice-a77078", "operator": "United States Postal Service", "operator:short": "USPS", "operator:type": "public", "operator:wikidata": "Q668687", "ref": "8108400000"}, "type": "Feature"}
{"geometry": {"coordinates": [-102.397101, 37.561217], "type": "Point"}, "id": "oDjd1VMZUxxe29x3z539mx-A0ok=", "properties": {"@source_uri": "https://tools.usps.com/UspsToolsRestServices/rest/POLocator/findLocations", "@spider": "usps_collection_boxes", "addr:city": "TWO BUTTES", "addr:country": "US", "addr:postcode": "81084", "addr:state": "CO", "addr:street_address": "448 MAIN ST", "amenity": "post_box", "collection_times": "Mo-Fr 13:15; Sa 12:00", "indoor": "yes", "note": "ON 12/24 AND 12/31, THIS BOX MAY BE COLLECTED AS EARLY AS 12 NOON.", "nsi_id": "unitedstatespostalservice-a77078", "operator": "United States Postal Service", "operator:short": "USPS", "operator:type": "public", "operator:wikidata": "Q668687", "ref": "8108400001"}, "type": "Feature"}
{"geometry": {"coordinates": [-102.44641, 37.373683], "type": "Point"}, "id": "aY6geva3nfW-U3vMDx0oKoasT_U=", "properties": {"@source_uri": "https://tools.usps.com/UspsToolsRestServices/rest/POLocator/findLocations", "@spider": "usps_collection_boxes", "addr:city": "VILAS", "addr:country": "US", "addr:postcode": "81087", "addr:state": "CO", "addr:street_address": "202 MAIN ST", "amenity": "post_box", "collection_times": "Mo-Fr 10:15; Sa 09:45", "indoor": "yes", "nsi_id": "unitedstatespostalservice-a77078", "operator": "United States Postal Service", "operator:short": "USPS", "operator:type": "public", "operator:wikidata": "Q668687", "ref": "8108700000"}, "type": "Feature"}
{"geometry": {"coordinates": [-102.446314, 37.373551], "type": "Point"}, "id": "KPZGoATn1AMehnzcgG0_F52d7J0=", "properties": {"@source_uri": "https://tools.usps.com/UspsToolsRestServices/rest/POLocator/findLocations", "@spider": "usps_collection_boxes", "addr:city": "VILAS", "addr:country": "US", "addr:postcode": "81087", "addr:state": "CO", "addr:street_address": "202 MAIN ST", "amenity": "post_box", "collection_times": "Mo-Fr 10:15; Sa 09:45", "nsi_id": "unitedstatespostalservice-a77078", "operator": "United States Postal Service", "operator:short": "USPS", "operator:type": "public", "operator:wikidata": "Q668687", "ref": "8108700001"}, "type": "Feature"}
{"geometry": {"coordinates": [-104.779103, 37.62449], "type": "Point"}, "id": "y_LKyX2ORS8xtNuBTbAaw45EpLA=", "properties": {"@source_uri": "https://tools.usps.com/UspsToolsRestServices/rest/POLocator/findLocations", "@spider": "usps_collection_boxes", "addr:city": "WALSENBURG", "addr:country": "US", "addr:postcode": "81089", "addr:state": "CO", "addr:street_address": "204 E 6TH ST", "amenity": "post_box", "collection_times": "Mo-Fr 15:45; Sa 15:00", "indoor": "yes", "note": "ON 12/24 AND 12/31, THIS BOX MAY BE COLLECTED AS EARLY AS 12 NOON.", "nsi_id": "unitedstatespostalservice-a77078", "operator": "United States Postal Service", "operator:short": "USPS", "operator:type": "public", "operator:wikidata": "Q668687", "ref": "8108900006"}, "type": "Feature"}
{"geometry": {"coordinates": [-104.779008, 37.624421], "type": "Point"}, "id": "RlJnZ6ALe69xsjk0xwqiO2W3APU=", "properties": {"@source_uri": "https://tools.usps.com/UspsToolsRestServices/rest/POLocator/findLocations", "@spider": "usps_collection_boxes", "addr:city": "WALSENBURG", "addr:country": "US", "addr:postcode": "81089", "addr:state": "CO", "addr:street_address": "204 E 6TH ST", "amenity": "post_box", "collection_times": "Mo-Fr 15:45; Sa 15:00", "note": "ON 12/24 AND 12/31, THIS BOX MAY BE COLLECTED AS EARLY AS 12 NOON.", "nsi_id": "unitedstatespostalservice-a77078", "operator": "United States Postal Service", "operator:short": "USPS", "operator:type": "public", "operator:wikidata": "Q668687", "ref": "8108900007"}, "type": "Feature"}
{"geometry": {"coordinates": [-102.278244, 37.388385], "type": "Point"}, "id": "CivrtsDduuAKms_mto2Ss4Odlh8=", "properties": {"@source_uri": "https://tools.usps.com/UspsToolsRestServices/rest/POLocator/findLocations", "@spider": "usps_collection_boxes", "addr:city": "WALSH", "addr:country": "US", "addr:postcode": "81090", "addr:state": "CO", "addr:street_address": "529 COLORADO AVE", "amenity": "post_box", "collection_times": "Mo-Sa 14:00", "note": "ON 12/24 AND 12/31, THIS BOX MAY BE COLLECTED AS EARLY AS 12 NOON.", "nsi_id": "unitedstatespostalservice-a77078", "operator": "United States Postal Service", "operator:short": "USPS", "operator:type": "public", "operator:wikidata": "Q668687", "ref": "8109000000"}, "type": "Feature"}
{"geometry": {"coordinates": [-102.278244, 37.388385], "type": "Point"}, "id": "RDLD6T73pb_rS1QMCUXFKjfLZc8=", "properties": {"@source_uri": "https://tools.usps.com/UspsToolsRestServices/rest/POLocator/findLocations", "@spider": "usps_collection_boxes", "addr:city": "WALSH", "addr:country": "US", "addr:postcode": "81090", "addr:state": "CO", "addr:street_address": "529 COLORADO AVE", "amenity": "post_box", "collection_times": "Mo-Sa 14:00", "indoor": "yes", "note": "ON 12/24 AND 12/31, THIS BOX MAY BE COLLECTED AS EARLY AS 12 NOON.", "nsi_id": "unitedstatespostalservice-a77078", "operator": "United States Postal Service", "operator:short": "USPS", "operator:type": "public", "operator:wikidata": "Q668687", "ref": "8109000001"}, "type": "Feature"}
{"geometry": {"coordinates": [-104.86357, 37.132668], "type": "Point"}, "id": "9ihOttxZ38cRouy8LGqjX7WGcP8=", "properties": {"@source_uri": "https://tools.usps.com/UspsToolsRestServices/rest/POLocator/findLocations", "@spider": "usps_collection_boxes", "addr:city": "WESTON", "addr:country": "US", "addr:postcode": "81091", "addr:state": "CO", "addr:street_address": "16900 STATE HIGHWAY 12", "amenity": "post_box", "collection_times": "Mo-Fr 13:45; Sa 12:00", "note": "ON 12/24 AND 12/31, THIS BOX MAY BE COLLECTED AS EARLY AS 12 NOON.", "nsi_id": "unitedstatespostalservice-a77078", "operator": "United States Postal Service", "operator:short": "USPS", "operator:type": "public", "operator:wikidata": "Q668687", "ref": "8109100000"}, "type": "Feature"}
{"geometry": {"coordinates": [-104.86357, 37.132668], "type": "Point"}, "id": "fhKyATfg9Hzun-R0HnOYWdBEtog=", "properties": {"@source_uri": "https://tools.usps.com/UspsToolsRestServices/rest/POLocator/findLocations", "@spider": "usps_collection_boxes", "addr:city": "WESTON", "addr:country": "US", "addr:postcode": "81091", "addr:state": "CO", "addr:street_address": "16900 STATE HIGHWAY 12", "amenity": "post_box", "collection_times": "Mo-Fr 13:45; Sa 12:00", "indoor": "yes", "note": "ON 12/24 AND 12/31, THIS BOX MAY BE COLLECTED AS EARLY AS 12 NOON.", "nsi_id": "unitedstatespostalservice-a77078", "operator": "United States Postal Service", "operator:short": "USPS", "operator:type": "public", "operator:wikidata": "Q668687", "ref": "8109100001"}, "type": "Feature"}
{"geometry": {"coordinates": [-102.719766, 38.153711], "type": "Point"}, "id": "h5TxG1w1NeDa4BwYIRbEzIQYGHg=", "properties": {"@source_uri": "https://tools.usps.com/UspsToolsRestServices/rest/POLocator/findLocations", "@spider": "usps_collection_boxes", "addr:city": "WILEY", "addr:country": "US", "addr:postcode": "81092", "addr:state": "CO", "addr:street_address": "301 MAIN ST", "amenity": "post_box", "collection_times": "Mo-Fr 15:15; Sa 10:15", "note": "ON 12/24 AND 12/31, THIS BOX MAY BE COLLECTED AS EARLY AS 12 NOON.", "nsi_id": "unitedstatespostalservice-a77078", "operator": "United States Postal Service", "operator:short": "USPS", "operator:type": "public", "operator:wikidata": "Q668687", "ref": "8109200000"}, "type": "Feature"}
{"geometry": {"coordinates": [-102.7197639609, 38.1537119234], "type": "Point"}, "id": "FWCUmAW0QWtMbOBaPREXWXMnFvs=", "properties": {"@source_uri": "https://tools.usps.com/UspsToolsRestServices/rest/POLocator/findLocations", "@spider": "usps_collection_boxes", "addr:city": "WILEY", "addr:country": "US", "addr:postcode": "81092", "addr:state": "CO", "addr:street_address": "301 MAIN ST", "amenity": "post_box", "collection_times": "Mo-Fr 15:15; Sa 10:15", "indoor": "yes", "note": "ON 12/24 AND 12/31, THIS BOX MAY BE COLLECTED AS EARLY AS 12 NOON.", "nsi_id": "unitedstatespostalservice-a77078", "operator": "United States Postal Service", "operator:short": "USPS", "operator:type": "public", "operator:wikidata": "Q668687", "ref": "8109200001"}, "type": "Feature"}
