{"dataset_attributes": {"@spider": "usps_collection_boxes", "spider:collection_time": "2023-10-07T08:22:43.442925"}, "geometry": {"coordinates": [-105.89258, 37.475913], "type": "Point"}, "id": "PhEKDB_7CA_fk3FJIcRLhRrvaG8=", "properties": {"@spider": "usps_collection_boxes", "addr:city": "ALAMOSA", "addr:country": "US", "addr:full": "2431 MAIN ST", "addr:postcode": "81101", "addr:state": "CO", "amenity": "post_box", "brand": "United States Postal Service", "brand:wikidata": "Q668687", "collection_times": "Mo-Sa 09:00", "name": "USPS COLLECTION BOX - BLUE BOX", "nsi_id": "unitedstatespostalservice-a77078", "operator": "United States Postal Service", "operator:short": "USPS", "operator:type": "public", "operator:wikidata": "Q668687", "ref": "8110100000"}, "type": "Feature"}
{"dataset_attributes": {"@spider": "usps_collection_boxes", "spider:collection_time": "2023-10-07T08:22:43.442925"}, "geometry": {"coordinates": [-105.880036, 37.473146], "type": "Point"}, "id": "t74f6KBpAcaao4eAJCbPBQjk2Wc=", "properties": {"@spider": "usps_collection_boxes", "addr:city": "ALAMOSA", "addr:country": "US", "addr:full": "1601 1ST ST", "addr:postcode": "81101", "addr:state": "CO", "amenity": "post_box", "brand": "United States Postal Service", "brand:wikidata": "Q668687", "collection_times": "Mo-Sa 09:00", "name": "USPS COLLECTION BOX - BLUE BOX", "nsi_id": "unitedstatespostalservice-a77078", "operator": "United States Postal Service", "operator:short": "USPS", "operator:type": "public", "operator:wikidata": "Q668687", "ref": "8110100002"}, "type": "Feature"}
{"dataset_attributes": {"@spider": "usps_collection_boxes", "spider:collection_time": "2023-10-07T08:22:43.442925"}, "geometry": {"coordinates": [-105.900913, 37.478457], "type": "Point"}, "id": "ibOjQ8PAQib4PN3QvS5TGUpjddI=", "properties": {"@spider": "usps_collection_boxes", "addr:city": "ALAMOSA", "addr:country": "US", "addr:full": "7565 W US HIGHWAY 160", "addr:postcode": "81101", "addr:state": "CO", "amenity": "post_box", "brand": "United States Postal Service", "brand:wikidata": "Q668687", "collection_times": "Mo-Sa 09:00", "name": "USPS COLLECTION BOX - BLUE BOX", "nsi_id": "unitedstatespostalservice-a77078", "operator": "United States Postal Service", "operator:short": "USPS", "operator:type": "public", "operator:wikidata": "Q668687", "ref": "8110100004"}, "type": "Feature"}
{"dataset_attributes": {"@spider": "usps_collection_boxes", "spider:collection_time": "2023-10-07T08:22:43.442925"}, "geometry": {"coordinates": [-105.876116, 37.469477], "type": "Point"}, "id": "nVvT9IB3MEjck0lHlbPu2exxi2Y=", "properties": {"@spider": "usps_collection_boxes", "addr:city": "ALAMOSA", "addr:country": "US", "addr:full": "1301 MAIN ST", "addr:postcode": "81101", "addr:state": "CO", "amenity": "post_box", "brand": "United States Postal Service", "brand:wikidata": "Q668687", "collection_times": "Mo-Sa 09:00", "name": "USPS COLLECTION BOX - BLUE BOX", "nsi_id": "unitedstatespostalservice-a77078", "operator": "United States Postal Service", "operator:short": "USPS", "operator:type": "public", "operator:wikidata": "Q668687", "ref": "8110100005"}, "type": "Feature"}
{"dataset_attributes": {"@spider": "usps_collection_boxes", "spider:collection_time": "2023-10-07T08:22:43.442925"}, "geometry": {"coordinates": [-105.8802254519, 37.4452281498], "type": "Point"}, "id": "83abHUT0_WoZMKJY06l-o2-I09s=", "properties": {"@spider": "usps_collection_boxes", "addr:city": "ALAMOSA", "addr:country": "US", "addr:full": "8955 INDEPENDENCE WAY", "addr:postcode": "81101", "addr:state": "CO", "amenity": "post_box", "brand": "United States Postal Service", "brand:wikidata": "Q668687", "collection_times": "Mo-Sa 09:00", "name": "USPS COLLECTION BOX - BLUE BOX", "nsi_id": "unitedstatespostalservice-a77078", "operator": "United States Postal Service", "operator:short": "USPS", "operator:type": "public", "operator:wikidata": "Q668687", "ref": "8110100008"}, "type": "Feature"}
{"dataset_attributes": {"@spider": "usps_collection_boxes", "spider:collection_time": "2023-10-07T08:22:43.442925"}, "geometry": {"coordinates": [-105.865669, 37.464826], "type": "Point"}, "id": "rcZKMLVB4Jjsfhibzi0pak_DN48=", "properties": {"@spider": "usps_collection_boxes", "addr:city": "ALAMOSA", "addr:country": "US", "addr:full": "725 STATE AVE", "addr:postcode": "81101", "addr:state": "CO", "amenity": "post_box", "brand": "United States Postal Service", "brand:wikidata": "Q668687", "collection_times": "Mo-Sa 09:00", "name": "USPS COLLECTION BOX - BLUE BOX", "nsi_id": "unitedstatespostalservice-a77078", "operator": "United States Postal Service", "operator:short": "USPS", "operator:type": "public", "operator:wikidata": "Q668687", "ref": "8110100010"}, "type": "Feature"}
{"dataset_attributes": {"@spider": "usps_collection_boxes", "spider:collection_time": "2023-10-07T08:22:43.442925"}, "geometry": {"coordinates": [-105.86511, 37.466898], "type": "Point"}, "id": "B6ohpNKOrKH8YDOtKmJypGh-l6Y=", "properties": {"@spider": "usps_collection_boxes", "addr:city": "ALAMOSA", "addr:country": "US", "addr:full": "610 STATE AVE", "addr:postcode": "81101", "addr:state": "CO", "amenity": "post_box", "brand": "United States Postal Service", "brand:wikidata": "Q668687", "collection_times": "Mo-Sa 09:00", "name": "USPS COLLECTION BOX - BLUE BOX", "nsi_id": "unitedstatespostalservice-a77078", "operator": "United States Postal Service", "operator:short": "USPS", "operator:type": "public", "operator:wikidata": "Q668687", "ref": "8110100012"}, "type": "Feature"}
{"dataset_attributes": {"@spider": "usps_collection_boxes", "spider:collection_time": "2023-10-07T08:22:43.442925"}, "geometry": {"coordinates": [-105.856853, 37.473524], "type": "Point"}, "id": "GEyrwwsqyP_OaQk0BgSKTmLmXdE=", "properties": {"@spider": "usps_collection_boxes", "addr:city": "ALAMOSA", "addr:country": "US", "addr:full": "6988 STATE HIGHWAY 17", "addr:postcode": "81101", "addr:state": "CO", "amenity": "post_box", "brand": "United States Postal Service", "brand:wikidata": "Q668687", "collection_times": "Mo-Sa 09:00", "name": "USPS COLLECTION BOX - BLUE BOX", "nsi_id": "unitedstatespostalservice-a77078", "operator": "United States Postal Service", "operator:short": "USPS", "operator:type": "public", "operator:wikidata": "Q668687", "ref": "8110100013"}, "type": "Feature"}
{"dataset_attributes": {"@spider": "usps_collection_boxes", "spider:collection_time": "2023-10-07T08:22:43.442925"}, "geometry": {"coordinates": [-105.863891, 37.470407], "type": "Point"}, "id": "xxmEtzXKOI0hgCJtYpznOsV0AYA=", "properties": {"@spider": "usps_collection_boxes", "addr:city": "ALAMOSA", "addr:country": "US", "addr:full": "505 3RD ST", "addr:postcode": "81101", "addr:state": "CO", "amenity": "post_box", "brand": "United States Postal Service", "brand:wikidata": "Q668687", "collection_times": "Mo-Sa 15:00", "name": "USPS COLLECTION BOX - BLUE BOX", "note": "ON 12/24 AND 12/31, THIS BOX MAY BE COLLECTED AS EARLY AS 12 NOON.", "nsi_id": "unitedstatespostalservice-a77078", "operator": "United States Postal Service", "operator:short": "USPS", "operator:type": "public", "operator:wikidata": "Q668687", "ref": "8110100014"}, "type": "Feature"}
{"dataset_attributes": {"@spider": "usps_collection_boxes", "spider:collection_time": "2023-10-07T08:22:43.442925"}, "geometry": {"coordinates": [-105.863891, 37.470407], "type": "Point"}, "id": "g-BsV038G26EaKlBruDsHe3H3fA=", "properties": {"@spider": "usps_collection_boxes", "addr:city": "ALAMOSA", "addr:country": "US", "addr:full": "505 3RD ST", "addr:postcode": "81101", "addr:state": "CO", "amenity": "post_box", "brand": "United States Postal Service", "brand:wikidata": "Q668687", "collection_times": "Mo-Sa 15:00", "name": "USPS COLLECTION BOX - BLUE BOX", "note": "ON 12/24 AND 12/31, THIS BOX MAY BE COLLECTED AS EARLY AS 12 NOON.", "nsi_id": "unitedstatespostalservice-a77078", "operator": "United States Postal Service", "operator:short": "USPS", "operator:type": "public", "operator:wikidata": "Q668687", "ref": "8110100015"}, "type": "Feature"}
{"dataset_attributes": {"@spider": "usps_collection_boxes", "spider:collection_time": "2023-10-07T08:22:43.442925"}, "geometry": {"coordinates": [-105.863891, 37.470407], "type": "Point"}, "id": "hazXgOJ7ulmUV79JSQLjDZlwdw8=", "properties": {"@spider": "usps_collection_boxes", "addr:city": "ALAMOSA", "addr:country": "US", "addr:full": "505 3RD ST", "addr:postcode": "81101", "addr:state": "CO", "amenity": "post_box", "brand": "United States Postal Service", "brand:wikidata": "Q668687", "collection_times": "Mo-Sa 15:00", "name": "USPS COLLECTION BOX - BLUE BOX", "note": "ON 12/24 AND 12/31, THIS BOX MAY BE COLLECTED AS EARLY AS 12 NOON.", "nsi_id": "unitedstatespostalservice-a77078", "operator": "United States Postal Service", "operator:short": "USPS", "operator:type": "public", "operator:wikidata": "Q668687", "ref": "8110100016"}, "type": "Feature"}
{"dataset_attributes": {"@spider": "usps_collection_boxes", "spider:collection_time": "2023-10-07T08:22:43.442925"}, "geometry": {"coordinates": [-105.863891, 37.470407], "type": "Point"}, "id": "GxZ2vbOUvmKN6JlQqbiySlbQZX0=", "properties": {"@spider": "usps_collection_boxes", "addr:city": "ALAMOSA", "addr:country": "US", "addr:full": "505 3RD ST", "addr:postcode": "81101", "addr:state": "CO", "amenity": "post_box", "brand": "United States Postal Service", "brand:wikidata": "Q668687", "collection_times": "Mo-Sa 15:00", "name": "USPS COLLECTION BOX - PO LOBBY", "note": "ON 12/24 AND 12/31, THIS BOX MAY BE COLLECTED AS EARLY AS 12 NOON.", "nsi_id": "unitedstatespostalservice-a77078", "operator": "United States Postal Service", "operator:short": "USPS", "operator:type": "public", "operator:wikidata": "Q668687", "ref": "8110100017"}, "type": "Feature"}
{"dataset_attributes": {"@spider": "usps_collection_boxes", "spider:collection_time": "2023-10-07T08:22:43.442925"}, "geometry": {"coordinates": [-105.863891, 37.470407], "type": "Point"}, "id": "l2ZBbia0carXwGEMD6MowXBw058=", "properties": {"@spider": "usps_collection_boxes", "addr:city": "ALAMOSA", "addr:country": "US", "addr:full": "505 3RD ST", "addr:postcode": "81101", "addr:state": "CO", "amenity": "post_box", "brand": "United States Postal Service", "brand:wikidata": "Q668687", "collection_times": "Mo-Sa 15:00", "name": "USPS COLLECTION BOX - PO LOBBY", "note": "ON 12/24 AND 12/31, THIS BOX MAY BE COLLECTED AS EARLY AS 12 NOON.", "nsi_id": "unitedstatespostalservice-a77078", "operator": "United States Postal Service", "operator:short": "USPS", "operator:type": "public", "operator:wikidata": "Q668687", "ref": "8110100018"}, "type": "Feature"}
{"dataset_attributes": {"@spider": "usps_collection_boxes", "spider:collection_time": "2023-10-07T08:22:43.442925"}, "geometry": {"coordinates": [-105.903841, 37.481639], "type": "Point"}, "id": "F1fvKaxLjXLxlrx7rk3H4UK5eE4=", "properties": {"@spider": "usps_collection_boxes", "addr:city": "ALAMOSA", "addr:country": "US", "addr:full": "3333 CLARK ST", "addr:postcode": "81101", "addr:state": "CO", "amenity": "post_box", "brand": "United States Postal Service", "brand:wikidata": "Q668687", "collection_times": "Mo-Sa 09:00", "name": "USPS COLLECTION BOX - BLUE BOX", "nsi_id": "unitedstatespostalservice-a77078", "operator": "United States Postal Service", "operator:short": "USPS", "operator:type": "public", "operator:wikidata": "Q668687", "ref": "8110100019"}, "type": "Feature"}
{"dataset_attributes": {"@spider": "usps_collection_boxes", "spider:collection_time": "2023-10-07T08:22:43.442925"}, "geometry": {"coordinates": [-106.008761, 37.075395], "type": "Point"}, "id": "ZQ62Xztu2q6FHkEBTjGzTDqLPUc=", "properties": {"@spider": "usps_collection_boxes", "addr:city": "ANTONITO", "addr:country": "US", "addr:full": "438 MAIN ST", "addr:postcode": "81120", "addr:state": "CO", "amenity": "post_box", "brand": "United States Postal Service", "brand:wikidata": "Q668687", "collection_times": "Mo-Fr 13:00; Sa 12:00", "name": "USPS COLLECTION BOX - BLUE BOX", "note": "ON 12/24 AND 12/31, THIS BOX MAY BE COLLECTED AS EARLY AS 12 NOON.", "nsi_id": "unitedstatespostalservice-a77078", "operator": "United States Postal Service", "operator:short": "USPS", "operator:type": "public", "operator:wikidata": "Q668687", "ref": "8112000000"}, "type": "Feature"}
{"dataset_attributes": {"@spider": "usps_collection_boxes", "spider:collection_time": "2023-10-07T08:22:43.442925"}, "geometry": {"coordinates": [-106.008761, 37.075396], "type": "Point"}, "id": "Zki4fGHZmxXeKmvMpLircatG8jQ=", "properties": {"@spider": "usps_collection_boxes", "addr:city": "ANTONITO", "addr:country": "US", "addr:full": "438 MAIN ST", "addr:postcode": "81120", "addr:state": "CO", "amenity": "post_box", "brand": "United States Postal Service", "brand:wikidata": "Q668687", "collection_times": "Mo-Fr 13:00; Sa 12:00", "name": "USPS COLLECTION BOX - PO LOBBY", "note": "ON 12/24 AND 12/31, THIS BOX MAY BE COLLECTED AS EARLY AS 12 NOON.", "nsi_id": "unitedstatespostalservice-a77078", "operator": "United States Postal Service", "operator:short": "USPS", "operator:type": "public", "operator:wikidata": "Q668687", "ref": "8112000002"}, "type": "Feature"}
{"dataset_attributes": {"@spider": "usps_collection_boxes", "spider:collection_time": "2023-10-07T08:22:43.442925"}, "geometry": {"coordinates": [-107.418361, 37.02365], "type": "Point"}, "id": "Tx_7yyb-zB4Hq4XI89k-4nMpN7k=", "properties": {"@spider": "usps_collection_boxes", "addr:city": "ARBOLES", "addr:country": "US", "addr:full": "86 COUNTY ROAD 982", "addr:postcode": "81121", "addr:state": "CO", "amenity": "post_box", "brand": "United States Postal Service", "brand:wikidata": "Q668687", "collection_times": "Mo-Fr 11:15; Sa 11:00", "name": "USPS COLLECTION BOX - BLUE BOX", "nsi_id": "unitedstatespostalservice-a77078", "operator": "United States Postal Service", "operator:short": "USPS", "operator:type": "public", "operator:wikidata": "Q668687", "ref": "8112100000"}, "type": "Feature"}
{"dataset_attributes": {"@spider": "usps_collection_boxes", "spider:collection_time": "2023-10-07T08:22:43.442925"}, "geometry": {"coordinates": [-107.602191, 37.227367], "type": "Point"}, "id": "I52wPh7otmTC3cb-dIVJn6owiPs=", "properties": {"@spider": "usps_collection_boxes", "addr:city": "BAYFIELD", "addr:country": "US", "addr:full": "145 PARK ST", "addr:postcode": "81122", "addr:state": "CO", "amenity": "post_box", "brand": "United States Postal Service", "brand:wikidata": "Q668687", "collection_times": "Mo-Sa 11:30", "name": "USPS COLLECTION BOX - BLUE BOX", "nsi_id": "unitedstatespostalservice-a77078", "operator": "United States Postal Service", "operator:short": "USPS", "operator:type": "public", "operator:wikidata": "Q668687", "ref": "8112200000"}, "type": "Feature"}
{"dataset_attributes": {"@spider": "usps_collection_boxes", "spider:collection_time": "2023-10-07T08:22:43.442925"}, "geometry": {"coordinates": [-107.602191, 37.227367], "type": "Point"}, "id": "_Pvvv-kBADcihfB0_uyrMn2iESg=", "properties": {"@spider": "usps_collection_boxes", "addr:city": "BAYFIELD", "addr:country": "US", "addr:full": "145 PARK ST", "addr:postcode": "81122", "addr:state": "CO", "amenity": "post_box", "brand": "United States Postal Service", "brand:wikidata": "Q668687", "collection_times": "Mo-Sa 11:30", "name": "USPS COLLECTION BOX - PO LOBBY", "nsi_id": "unitedstatespostalservice-a77078", "operator": "United States Postal Service", "operator:short": "USPS", "operator:type": "public", "operator:wikidata": "Q668687", "ref": "8112200002"}, "type": "Feature"}
{"dataset_attributes": {"@spider": "usps_collection_boxes", "spider:collection_time": "2023-10-07T08:22:43.442925"}, "geometry": {"coordinates": [-107.601994, 37.227638], "type": "Point"}, "id": "SN38oAq35ZSr_y2pFChVOSn9BCA=", "properties": {"@spider": "usps_collection_boxes", "addr:city": "BAYFIELD", "addr:country": "US", "addr:full": "257 ALPINE FOREST DR", "addr:postcode": "81122", "addr:state": "CO", "amenity": "post_box", "brand": "United States Postal Service", "brand:wikidata": "Q668687", "collection_times": "Mo-Sa 10:00", "name": "USPS COLLECTION BOX - BLUE BOX", "nsi_id": "unitedstatespostalservice-a77078", "operator": "United States Postal Service", "operator:short": "USPS", "operator:type": "public", "operator:wikidata": "Q668687", "ref": "8112200003"}, "type": "Feature"}
{"dataset_attributes": {"@spider": "usps_collection_boxes", "spider:collection_time": "2023-10-07T08:22:43.442925"}, "geometry": {"coordinates": [-105.516684, 37.434921], "type": "Point"}, "id": "Z0AAWRlwq3uWINiCC4iaIz_HgjA=", "properties": {"@spider": "usps_collection_boxes", "addr:city": "BLANCA", "addr:country": "US", "addr:full": "406 SMITH ST", "addr:postcode": "81123", "addr:state": "CO", "amenity": "post_box", "brand": "United States Postal Service", "brand:wikidata": "Q668687", "collection_times": "Mo-Fr 14:30; Sa 11:30", "name": "USPS COLLECTION BOX - BLUE BOX", "note": "ON 12/24 AND 12/31, THIS BOX MAY BE COLLECTED AS EARLY AS 12 NOON.", "nsi_id": "unitedstatespostalservice-a77078", "operator": "United States Postal Service", "operator:short": "USPS", "operator:type": "public", "operator:wikidata": "Q668687", "ref": "8112300000"}, "type": "Feature"}
{"dataset_attributes": {"@spider": "usps_collection_boxes", "spider:collection_time": "2023-10-07T08:22:43.442925"}, "geometry": {"coordinates": [-105.516684, 37.434921], "type": "Point"}, "id": "m4jHJ8baqgPSxcRVrZ2bu1GdxCk=", "properties": {"@spider": "usps_collection_boxes", "addr:city": "BLANCA", "addr:country": "US", "addr:full": "406 SMITH ST", "addr:postcode": "81123", "addr:state": "CO", "amenity": "post_box", "brand": "United States Postal Service", "brand:wikidata": "Q668687", "collection_times": "Mo-Fr 14:30; Sa 11:30", "name": "USPS COLLECTION BOX - PO LOBBY", "note": "ON 12/24 AND 12/31, THIS BOX MAY BE COLLECTED AS EARLY AS 12 NOON.", "nsi_id": "unitedstatespostalservice-a77078", "operator": "United States Postal Service", "operator:short": "USPS", "operator:type": "public", "operator:wikidata": "Q668687", "ref": "8112300001"}, "type": "Feature"}
{"dataset_attributes": {"@spider": "usps_collection_boxes", "spider:collection_time": "2023-10-07T08:22:43.442925"}, "geometry": {"coordinates": [-106.111252, 37.283546], "type": "Point"}, "id": "m1cPL1r8BTdcFynqY42ovEY6608=", "properties": {"@spider": "usps_collection_boxes", "addr:city": "CAPULIN", "addr:country": "US", "addr:full": "7999 STATE HIGHWAY 15", "addr:postcode": "81124", "addr:state": "CO", "amenity": "post_box", "brand": "United States Postal Service", "brand:wikidata": "Q668687", "collection_times": "Mo-Sa 10:00", "name": "USPS COLLECTION BOX - PO LOBBY", "nsi_id": "unitedstatespostalservice-a77078", "operator": "United States Postal Service", "operator:short": "USPS", "operator:type": "public", "operator:wikidata": "Q668687", "ref": "8112400000"}, "type": "Feature"}
{"dataset_attributes": {"@spider": "usps_collection_boxes", "spider:collection_time": "2023-10-07T08:22:43.442925"}, "geometry": {"coordinates": [-106.111139, 37.283521], "type": "Point"}, "id": "Kl-W4QY23zhkfQEH0NLqkwxRI20=", "properties": {"@spider": "usps_collection_boxes", "addr:city": "CAPULIN", "addr:country": "US", "addr:full": "7999 STATE HIGHWAY 15", "addr:postcode": "81124", "addr:state": "CO", "amenity": "post_box", "brand": "United States Postal Service", "brand:wikidata": "Q668687", "collection_times": "Mo-Sa 10:00", "name": "USPS COLLECTION BOX - BLUE BOX", "nsi_id": "unitedstatespostalservice-a77078", "operator": "United States Postal Service", "operator:short": "USPS", "operator:type": "public", "operator:wikidata": "Q668687", "ref": "8112400001"}, "type": "Feature"}
{"dataset_attributes": {"@spider": "usps_collection_boxes", "spider:collection_time": "2023-10-07T08:22:43.442925"}, "geometry": {"coordinates": [-106.111139, 37.283521], "type": "Point"}, "id": "FoHa0ChacEUoqIA2m64gJt6grLQ=", "properties": {"@spider": "usps_collection_boxes", "addr:city": "CAPULIN", "addr:country": "US", "addr:full": "7999 STATE HIGHWAY 15", "addr:postcode": "81124", "addr:state": "CO", "amenity": "post_box", "brand": "United States Postal Service", "brand:wikidata": "Q668687", "collection_times": "Mo-Sa 10:00", "name": "USPS COLLECTION BOX - PO LOBBY", "nsi_id": "unitedstatespostalservice-a77078", "operator": "United States Postal Service", "operator:short": "USPS", "operator:type": "public", "operator:wikidata": "Q668687", "ref": "8112400002"}, "type": "Feature"}
{"dataset_attributes": {"@spider": "usps_collection_boxes", "spider:collection_time": "2023-10-07T08:22:43.442925"}, "geometry": {"coordinates": [-106.108388, 37.753898], "type": "Point"}, "id": "VUD7BA7SRRBGaflI8Ex8b7rSX94=", "properties": {"@spider": "usps_collection_boxes", "addr:city": "CENTER", "addr:country": "US", "addr:full": "255 S WORTH ST", "addr:postcode": "81125", "addr:state": "CO", "amenity": "post_box", "brand": "United States Postal Service", "brand:wikidata": "Q668687", "collection_times": "Mo-Fr 13:45; Sa 12:30", "name": "USPS COLLECTION BOX - BLUE BOX", "note": "ON 12/24 AND 12/31, THIS BOX MAY BE COLLECTED AS EARLY AS 12 NOON.", "nsi_id": "unitedstatespostalservice-a77078", "operator": "United States Postal Service", "operator:short": "USPS", "operator:type": "public", "operator:wikidata": "Q668687", "ref": "8112500001"}, "type": "Feature"}
{"dataset_attributes": {"@spider": "usps_collection_boxes", "spider:collection_time": "2023-10-07T08:22:43.442925"}, "geometry": {"coordinates": [-106.108354, 37.753888], "type": "Point"}, "id": "AKW8dzY2xP1A61ohc4xdj2ZMo1w=", "properties": {"@spider": "usps_collection_boxes", "addr:city": "CENTER", "addr:country": "US", "addr:full": "255 S WORTH ST", "addr:postcode": "81125", "addr:state": "CO", "amenity": "post_box", "brand": "United States Postal Service", "brand:wikidata": "Q668687", "collection_times": "Mo-Fr 13:45; Sa 12:30", "name": "USPS COLLECTION BOX - PO LOBBY", "note": "ON 12/24 AND 12/31, THIS BOX MAY BE COLLECTED AS EARLY AS 12 NOON.", "nsi_id": "unitedstatespostalservice-a77078", "operator": "United States Postal Service", "operator:short": "USPS", "operator:type": "public", "operator:wikidata": "Q668687", "ref": "8112500002"}, "type": "Feature"}
{"dataset_attributes": {"@spider": "usps_collection_boxes", "spider:collection_time": "2023-10-07T08:22:43.442925"}, "geometry": {"coordinates": [-106.108354, 37.753888], "type": "Point"}, "id": "_muzPPEMqlzpU_KXOomnX825c7A=", "properties": {"@spider": "usps_collection_boxes", "addr:city": "CENTER", "addr:country": "US", "addr:full": "255 S WORTH ST", "addr:postcode": "81125", "addr:state": "CO", "amenity": "post_box", "brand": "United States Postal Service", "brand:wikidata": "Q668687", "collection_times": "Mo-Fr 13:45; Sa 12:30", "name": "USPS COLLECTION BOX - PO LOBBY", "note": "ON 12/24 AND 12/31, THIS BOX MAY BE COLLECTED AS EARLY AS 12 NOON.", "nsi_id": "unitedstatespostalservice-a77078", "operator": "United States Postal Service", "operator:short": "USPS", "operator:type": "public", "operator:wikidata": "Q668687", "ref": "8112500003"}, "type": "Feature"}
{"dataset_attributes": {"@spider": "usps_collection_boxes", "spider:collection_time": "2023-10-07T08:22:43.442925"}, "geometry": {"coordinates": [-106.844693, 37.035666], "type": "Point"}, "id": "JObiRfXmuJ490D7tugmyIEFAh-k=", "properties": {"@spider": "usps_collection_boxes", "addr:city": "CHROMO", "addr:country": "US", "addr:full": "460 COUNTY ROAD 391", "addr:postcode": "81128", "addr:state": "CO", "amenity": "post_box", "brand": "United States Postal Service", "brand:wikidata": "Q668687", "collection_times": "Mo-Sa 11:30", "name": "USPS COLLECTION BOX - BLUE BOX", "nsi_id": "unitedstatespostalservice-a77078", "operator": "United States Postal Service", "operator:short": "USPS", "operator:type": "public", "operator:wikidata": "Q668687", "ref": "8112800000"}, "type": "Feature"}
{"dataset_attributes": {"@spider": "usps_collection_boxes", "spider:collection_time": "2023-10-07T08:22:43.442925"}, "geometry": {"coordinates": [-106.839818, 37.035631], "type": "Point"}, "id": "_jkmdEju0LVp4Ugzxp_Q_-q28HU=", "properties": {"@spider": "usps_collection_boxes", "addr:city": "CHROMO", "addr:country": "US", "addr:full": "23470 US HIGHWAY 84", "addr:postcode": "81128", "addr:state": "CO", "amenity": "post_box", "brand": "United States Postal Service", "brand:wikidata": "Q668687", "collection_times": "Mo-Sa 11:30", "name": "USPS COLLECTION BOX - PO LOBBY", "nsi_id": "unitedstatespostalservice-a77078", "operator": "United States Postal Service", "operator:short": "USPS", "operator:type": "public", "operator:wikidata": "Q668687", "ref": "8112800002"}, "type": "Feature"}
{"dataset_attributes": {"@spider": "usps_collection_boxes", "spider:collection_time": "2023-10-07T08:22:43.442925"}, "geometry": {"coordinates": [-106.021011, 37.090434], "type": "Point"}, "id": "Z_fOhsuUL67Wor0M9ir3AvQzWn4=", "properties": {"@spider": "usps_collection_boxes", "addr:city": "CONEJOS", "addr:country": "US", "addr:full": "6731 COUNTY ROAD 13", "addr:postcode": "81129", "addr:state": "CO", "amenity": "post_box", "brand": "United States Postal Service", "brand:wikidata": "Q668687", "collection_times": "Mo-Fr 13:00; Sa 09:45", "name": "USPS COLLECTION BOX - BLUE BOX", "note": "ON 12/24 AND 12/31, THIS BOX MAY BE COLLECTED AS EARLY AS 12 NOON.", "nsi_id": "unitedstatespostalservice-a77078", "operator": "United States Postal Service", "operator:short": "USPS", "operator:type": "public", "operator:wikidata": "Q668687", "ref": "8112900000"}, "type": "Feature"}
{"dataset_attributes": {"@spider": "usps_collection_boxes", "spider:collection_time": "2023-10-07T08:22:43.442925"}, "geometry": {"coordinates": [-106.020924, 37.090395], "type": "Point"}, "id": "qyUozk4VEYnmBvcpbQq8OiUXKkM=", "properties": {"@spider": "usps_collection_boxes", "addr:city": "CONEJOS", "addr:country": "US", "addr:full": "6731 COUNTY ROAD 13", "addr:postcode": "81129", "addr:state": "CO", "amenity": "post_box", "brand": "United States Postal Service", "brand:wikidata": "Q668687", "collection_times": "Mo-Fr 13:00; Sa 09:45", "name": "USPS COLLECTION BOX - PO LOBBY", "note": "ON 12/24 AND 12/31, THIS BOX MAY BE COLLECTED AS EARLY AS 12 NOON.", "nsi_id": "unitedstatespostalservice-a77078", "operator": "United States Postal Service", "operator:short": "USPS", "operator:type": "public", "operator:wikidata": "Q668687", "ref": "8112900001"}, "type": "Feature"}
{"dataset_attributes": {"@spider": "usps_collection_boxes", "spider:collection_time": "2023-10-07T08:22:43.442925"}, "geometry": {"coordinates": [-106.926926575, 37.852500133], "type": "Point"}, "id": "27k2Uqb6xG67usBLJQsI7pO8bno=", "properties": {"@spider": "usps_collection_boxes", "addr:city": "CREEDE", "addr:country": "US", "addr:full": "10 S MAIN ST", "addr:postcode": "81130", "addr:state": "CO", "amenity": "post_box", "brand": "United States Postal Service", "brand:wikidata": "Q668687", "collection_times": "Mo-Fr 12:45; Sa 11:50", "name": "USPS COLLECTION BOX - PO LOBBY", "note": "ON 12/24 AND 12/31, THIS BOX MAY BE COLLECTED AS EARLY AS 12 NOON.", "nsi_id": "unitedstatespostalservice-a77078", "operator": "United States Postal Service", "operator:short": "USPS", "operator:type": "public", "operator:wikidata": "Q668687", "ref": "8113000000"}, "type": "Feature"}
{"dataset_attributes": {"@spider": "usps_collection_boxes", "spider:collection_time": "2023-10-07T08:22:43.442925"}, "geometry": {"coordinates": [-106.926926575, 37.852500133], "type": "Point"}, "id": "NZW0FJawlv3HuSSWmGKua2sZmo8=", "properties": {"@spider": "usps_collection_boxes", "addr:city": "CREEDE", "addr:country": "US", "addr:full": "10 S MAIN ST", "addr:postcode": "81130", "addr:state": "CO", "amenity": "post_box", "brand": "United States Postal Service", "brand:wikidata": "Q668687", "collection_times": "Mo-Fr 12:45; Sa 11:50", "name": "USPS COLLECTION BOX - PO LOBBY", "note": "ON 12/24 AND 12/31, THIS BOX MAY BE COLLECTED AS EARLY AS 12 NOON.", "nsi_id": "unitedstatespostalservice-a77078", "operator": "United States Postal Service", "operator:short": "USPS", "operator:type": "public", "operator:wikidata": "Q668687", "ref": "8113000001"}, "type": "Feature"}
{"dataset_attributes": {"@spider": "usps_collection_boxes", "spider:collection_time": "2023-10-07T08:22:43.442925"}, "geometry": {"coordinates": [-105.699005, 37.994594], "type": "Point"}, "id": "Ijf83L-tA3zO4erKHmRtgcOADko=", "properties": {"@spider": "usps_collection_boxes", "addr:city": "CRESTONE", "addr:country": "US", "addr:full": "166 S ALDER AVE", "addr:postcode": "81131", "addr:state": "CO", "amenity": "post_box", "brand": "United States Postal Service", "brand:wikidata": "Q668687", "collection_times": "Mo-Fr 12:15; Sa 12:00", "name": "USPS COLLECTION BOX - BLUE BOX", "note": "ON 12/24 AND 12/31, THIS BOX MAY BE COLLECTED AS EARLY AS 12 NOON.", "nsi_id": "unitedstatespostalservice-a77078", "operator": "United States Postal Service", "operator:short": "USPS", "operator:type": "public", "operator:wikidata": "Q668687", "ref": "8113100000"}, "type": "Feature"}
{"dataset_attributes": {"@spider": "usps_collection_boxes", "spider:collection_time": "2023-10-07T08:22:43.442925"}, "geometry": {"coordinates": [-105.699039, 37.994562], "type": "Point"}, "id": "hcO66poDK_aCeQvZNVXcc3PGykY=", "properties": {"@spider": "usps_collection_boxes", "addr:city": "CRESTONE", "addr:country": "US", "addr:full": "166 S ALDER AVE", "addr:postcode": "81131", "addr:state": "CO", "amenity": "post_box", "brand": "United States Postal Service", "brand:wikidata": "Q668687", "collection_times": "Mo-Fr 12:15; Sa 11:45", "name": "USPS COLLECTION BOX - PO LOBBY", "note": "ON 12/24 AND 12/31, THIS BOX MAY BE COLLECTED AS EARLY AS 12 NOON.", "nsi_id": "unitedstatespostalservice-a77078", "operator": "United States Postal Service", "operator:short": "USPS", "operator:type": "public", "operator:wikidata": "Q668687", "ref": "8113100001"}, "type": "Feature"}
{"dataset_attributes": {"@spider": "usps_collection_boxes", "spider:collection_time": "2023-10-07T08:22:43.442925"}, "geometry": {"coordinates": [-106.354726, 37.67806], "type": "Point"}, "id": "Fr23f2_h24wBjc53QZ5egGFafW4=", "properties": {"@spider": "usps_collection_boxes", "addr:city": "DEL NORTE", "addr:country": "US", "addr:full": "590 COLUMBIA AVE", "addr:postcode": "81132", "addr:state": "CO", "amenity": "post_box", "brand": "United States Postal Service", "brand:wikidata": "Q668687", "collection_times": "Mo-Fr 13:45; Sa 12:00", "name": "USPS COLLECTION BOX - PO LOBBY", "note": "ON 12/24 AND 12/31, THIS BOX MAY BE COLLECTED AS EARLY AS 12 NOON.", "nsi_id": "unitedstatespostalservice-a77078", "operator": "United States Postal Service", "operator:short": "USPS", "operator:type": "public", "operator:wikidata": "Q668687", "ref": "8113200003"}, "type": "Feature"}
{"dataset_attributes": {"@spider": "usps_collection_boxes", "spider:collection_time": "2023-10-07T08:22:43.442925"}, "geometry": {"coordinates": [-106.354726, 37.67806], "type": "Point"}, "id": "aI2vobSMHj07sGB9nI9ZJDjy_7Y=", "properties": {"@spider": "usps_collection_boxes", "addr:city": "DEL NORTE", "addr:country": "US", "addr:full": "590 COLUMBIA AVE", "addr:postcode": "81132", "addr:state": "CO", "amenity": "post_box", "brand": "United States Postal Service", "brand:wikidata": "Q668687", "collection_times": "Mo-Fr 13:45; Sa 12:00", "name": "USPS COLLECTION BOX - BLUE BOX", "note": "ON 12/24 AND 12/31, THIS BOX MAY BE COLLECTED AS EARLY AS 12 NOON.", "nsi_id": "unitedstatespostalservice-a77078", "operator": "United States Postal Service", "operator:short": "USPS", "operator:type": "public", "operator:wikidata": "Q668687", "ref": "8113200004"}, "type": "Feature"}
{"dataset_attributes": {"@spider": "usps_collection_boxes", "spider:collection_time": "2023-10-07T08:22:43.442925"}, "geometry": {"coordinates": [-105.43106, 37.4264], "type": "Point"}, "id": "Cmzl8zRxYCboYzK7l_JvB1klYvc=", "properties": {"@spider": "usps_collection_boxes", "addr:city": "FT GARLAND", "addr:country": "US", "addr:full": "313 HIGHWAY 159", "addr:postcode": "81133", "addr:state": "CO", "amenity": "post_box", "brand": "United States Postal Service", "brand:wikidata": "Q668687", "collection_times": "Mo-Fr 14:15; Sa 11:45", "name": "USPS COLLECTION BOX - BLUE BOX", "note": "ON 12/24 AND 12/31, THIS BOX MAY BE COLLECTED AS EARLY AS 12 NOON.", "nsi_id": "unitedstatespostalservice-a77078", "operator": "United States Postal Service", "operator:short": "USPS", "operator:type": "public", "operator:wikidata": "Q668687", "ref": "8113300000"}, "type": "Feature"}
{"dataset_attributes": {"@spider": "usps_collection_boxes", "spider:collection_time": "2023-10-07T08:22:43.442925"}, "geometry": {"coordinates": [-105.2430040288, 37.5225477057], "type": "Point"}, "id": "Kava184n1gYdZgifAO_kVbya-Bw=", "properties": {"@spider": "usps_collection_boxes", "addr:city": "FT GARLAND", "addr:country": "US", "addr:full": "313 FORBES PARK RD", "addr:postcode": "81133", "addr:state": "CO", "amenity": "post_box", "brand": "United States Postal Service", "brand:wikidata": "Q668687", "collection_times": "Mo-Sa 10:00", "name": "USPS COLLECTION BOX - BLUE BOX", "nsi_id": "unitedstatespostalservice-a77078", "operator": "United States Postal Service", "operator:short": "USPS", "operator:type": "public", "operator:wikidata": "Q668687", "ref": "8113300001"}, "type": "Feature"}
{"dataset_attributes": {"@spider": "usps_collection_boxes", "spider:collection_time": "2023-10-07T08:22:43.442925"}, "geometry": {"coordinates": [-105.431035, 37.42633], "type": "Point"}, "id": "wprSJ85pNskwxvmmzQzpA8eHz_c=", "properties": {"@spider": "usps_collection_boxes", "addr:city": "FT GARLAND", "addr:country": "US", "addr:full": "313 HIGHWAY 159", "addr:postcode": "81133", "addr:state": "CO", "amenity": "post_box", "brand": "United States Postal Service", "brand:wikidata": "Q668687", "collection_times": "Mo-Fr 14:15; Sa 11:45", "name": "USPS COLLECTION BOX - PO LOBBY", "note": "ON 12/24 AND 12/31, THIS BOX MAY BE COLLECTED AS EARLY AS 12 NOON.", "nsi_id": "unitedstatespostalservice-a77078", "operator": "United States Postal Service", "operator:short": "USPS", "operator:type": "public", "operator:wikidata": "Q668687", "ref": "8113300002"}, "type": "Feature"}
{"dataset_attributes": {"@spider": "usps_collection_boxes", "spider:collection_time": "2023-10-07T08:22:43.442925"}, "geometry": {"coordinates": [-105.880573, 37.746338], "type": "Point"}, "id": "rm9wCEGIlkBhztLrbNxRdRfKaS8=", "properties": {"@spider": "usps_collection_boxes", "addr:city": "HOOPER", "addr:country": "US", "addr:full": "11701 W HWY 17", "addr:postcode": "81136", "addr:state": "CO", "amenity": "post_box", "brand": "United States Postal Service", "brand:wikidata": "Q668687", "collection_times": "Mo-Fr 13:00; Sa 11:15", "name": "USPS COLLECTION BOX - BLUE BOX", "note": "ON 12/24 AND 12/31, THIS BOX MAY BE COLLECTED AS EARLY AS 12 NOON.", "nsi_id": "unitedstatespostalservice-a77078", "operator": "United States Postal Service", "operator:short": "USPS", "operator:type": "public", "operator:wikidata": "Q668687", "ref": "8113600000"}, "type": "Feature"}
{"dataset_attributes": {"@spider": "usps_collection_boxes", "spider:collection_time": "2023-10-07T08:22:43.442925"}, "geometry": {"coordinates": [-105.880573, 37.746338], "type": "Point"}, "id": "Gd4FCsrCmm51pPhx10Ui0uOA5pk=", "properties": {"@spider": "usps_collection_boxes", "addr:city": "HOOPER", "addr:country": "US", "addr:full": "11701 W HWY 17", "addr:postcode": "81136", "addr:state": "CO", "amenity": "post_box", "brand": "United States Postal Service", "brand:wikidata": "Q668687", "collection_times": "Mo-Fr 13:00; Sa 11:15", "name": "USPS COLLECTION BOX - PO LOBBY", "note": "ON 12/24 AND 12/31, THIS BOX MAY BE COLLECTED AS EARLY AS 12 NOON.", "nsi_id": "unitedstatespostalservice-a77078", "operator": "United States Postal Service", "operator:short": "USPS", "operator:type": "public", "operator:wikidata": "Q668687", "ref": "8113600002"}, "type": "Feature"}
{"dataset_attributes": {"@spider": "usps_collection_boxes", "spider:collection_time": "2023-10-07T08:22:43.442925"}, "geometry": {"coordinates": [-107.632711, 37.109801], "type": "Point"}, "id": "-8QGrmthS3faSJSizkHtYM2vHZs=", "properties": {"@spider": "usps_collection_boxes", "addr:city": "IGNACIO", "addr:country": "US", "addr:full": "1001 WILLIAMS ST", "addr:postcode": "81137", "addr:state": "CO", "amenity": "post_box", "brand": "United States Postal Service", "brand:wikidata": "Q668687", "collection_times": "Mo-Sa 11:00", "name": "USPS COLLECTION BOX - BLUE BOX", "nsi_id": "unitedstatespostalservice-a77078", "operator": "United States Postal Service", "operator:short": "USPS", "operator:type": "public", "operator:wikidata": "Q668687", "ref": "8113700001"}, "type": "Feature"}
{"dataset_attributes": {"@spider": "usps_collection_boxes", "spider:collection_time": "2023-10-07T08:22:43.442925"}, "geometry": {"coordinates": [-107.632677, 37.109891], "type": "Point"}, "id": "30gDDwp1FIOSsZQQ3453ajR5H_Q=", "properties": {"@spider": "usps_collection_boxes", "addr:city": "IGNACIO", "addr:country": "US", "addr:full": "1001 WILLIAMS ST", "addr:postcode": "81137", "addr:state": "CO", "amenity": "post_box", "brand": "United States Postal Service", "brand:wikidata": "Q668687", "collection_times": "Mo-Sa 11:00", "name": "USPS COLLECTION BOX - BLUE BOX", "nsi_id": "unitedstatespostalservice-a77078", "operator": "United States Postal Service", "operator:short": "USPS", "operator:type": "public", "operator:wikidata": "Q668687", "ref": "8113700002"}, "type": "Feature"}
{"dataset_attributes": {"@spider": "usps_collection_boxes", "spider:collection_time": "2023-10-07T08:22:43.442925"}, "geometry": {"coordinates": [-107.632677, 37.109891], "type": "Point"}, "id": "7HKmuK7wi1WhsMM6f_NtQKSFQsU=", "properties": {"@spider": "usps_collection_boxes", "addr:city": "IGNACIO", "addr:country": "US", "addr:full": "1001 WILLIAMS ST", "addr:postcode": "81137", "addr:state": "CO", "amenity": "post_box", "brand": "United States Postal Service", "brand:wikidata": "Q668687", "collection_times": "Mo-Sa 11:00", "name": "USPS COLLECTION BOX - PO LOBBY", "nsi_id": "unitedstatespostalservice-a77078", "operator": "United States Postal Service", "operator:short": "USPS", "operator:type": "public", "operator:wikidata": "Q668687", "ref": "8113700003"}, "type": "Feature"}
{"dataset_attributes": {"@spider": "usps_collection_boxes", "spider:collection_time": "2023-10-07T08:22:43.442925"}, "geometry": {"coordinates": [-107.632677, 37.109891], "type": "Point"}, "id": "pupAYGIgbG2ZseWfJAq37gFz9Ss=", "properties": {"@spider": "usps_collection_boxes", "addr:city": "IGNACIO", "addr:country": "US", "addr:full": "1001 WILLIAMS ST", "addr:postcode": "81137", "addr:state": "CO", "amenity": "post_box", "brand": "United States Postal Service", "brand:wikidata": "Q668687", "collection_times": "Mo-Sa 11:00", "name": "USPS COLLECTION BOX - PO LOBBY", "nsi_id": "unitedstatespostalservice-a77078", "operator": "United States Postal Service", "operator:short": "USPS", "operator:type": "public", "operator:wikidata": "Q668687", "ref": "8113700004"}, "type": "Feature"}
{"dataset_attributes": {"@spider": "usps_collection_boxes", "spider:collection_time": "2023-10-07T08:22:43.442925"}, "geometry": {"coordinates": [-105.6234431302, 37.0028331828], "type": "Point"}, "id": "ZAjY_opxlq-ClFHWZo53xnTgcB0=", "properties": {"@spider": "usps_collection_boxes", "addr:city": "JAROSO", "addr:country": "US", "addr:full": "111 COSTILLA RD", "addr:postcode": "81138", "addr:state": "CO", "amenity": "post_box", "brand": "United States Postal Service", "brand:wikidata": "Q668687", "collection_times": "Mo-Sa 11:30", "name": "USPS COLLECTION BOX - PO LOBBY", "nsi_id": "unitedstatespostalservice-a77078", "operator": "United States Postal Service", "operator:short": "USPS", "operator:type": "public", "operator:wikidata": "Q668687", "ref": "8113800000"}, "type": "Feature"}
{"dataset_attributes": {"@spider": "usps_collection_boxes", "spider:collection_time": "2023-10-07T08:22:43.442925"}, "geometry": {"coordinates": [-105.958855, 37.274741], "type": "Point"}, "id": "88YZJ7ZtsKacJHZ_KMPuO45XhmY=", "properties": {"@spider": "usps_collection_boxes", "addr:city": "LA JARA", "addr:country": "US", "addr:full": "525 MAIN ST", "addr:postcode": "81140", "addr:state": "CO", "amenity": "post_box", "brand": "United States Postal Service", "brand:wikidata": "Q668687", "collection_times": "Mo-Fr 14:15; Sa 12:00", "name": "USPS COLLECTION BOX - BLUE BOX", "note": "ON 12/24 AND 12/31, THIS BOX MAY BE COLLECTED AS EARLY AS 12 NOON.", "nsi_id": "unitedstatespostalservice-a77078", "operator": "United States Postal Service", "operator:short": "USPS", "operator:type": "public", "operator:wikidata": "Q668687", "ref": "8114000000"}, "type": "Feature"}
{"dataset_attributes": {"@spider": "usps_collection_boxes", "spider:collection_time": "2023-10-07T08:22:43.442925"}, "geometry": {"coordinates": [-105.958855, 37.274741], "type": "Point"}, "id": "wJ4qjVBPSN8VuKpTL4zks7mBlj0=", "properties": {"@spider": "usps_collection_boxes", "addr:city": "LA JARA", "addr:country": "US", "addr:full": "525 MAIN ST", "addr:postcode": "81140", "addr:state": "CO", "amenity": "post_box", "brand": "United States Postal Service", "brand:wikidata": "Q668687", "collection_times": "Mo-Fr 14:15; Sa 12:00", "name": "USPS COLLECTION BOX - PO LOBBY", "note": "ON 12/24 AND 12/31, THIS BOX MAY BE COLLECTED AS EARLY AS 12 NOON.", "nsi_id": "unitedstatespostalservice-a77078", "operator": "United States Postal Service", "operator:short": "USPS", "operator:type": "public", "operator:wikidata": "Q668687", "ref": "8114000001"}, "type": "Feature"}
{"dataset_attributes": {"@spider": "usps_collection_boxes", "spider:collection_time": "2023-10-07T08:22:43.442925"}, "geometry": {"coordinates": [-105.935384, 37.173851], "type": "Point"}, "id": "jxG-8eZgdEzO0w8SqcL7q_5GPTI=", "properties": {"@spider": "usps_collection_boxes", "addr:city": "MANASSA", "addr:country": "US", "addr:full": "413 MAIN ST", "addr:postcode": "81141", "addr:state": "CO", "amenity": "post_box", "brand": "United States Postal Service", "brand:wikidata": "Q668687", "collection_times": "Mo-Fr 13:30; Sa 11:15", "name": "USPS COLLECTION BOX - BLUE BOX", "note": "ON 12/24 AND 12/31, THIS BOX MAY BE COLLECTED AS EARLY AS 12 NOON.", "nsi_id": "unitedstatespostalservice-a77078", "operator": "United States Postal Service", "operator:short": "USPS", "operator:type": "public", "operator:wikidata": "Q668687", "ref": "8114100000"}, "type": "Feature"}
{"dataset_attributes": {"@spider": "usps_collection_boxes", "spider:collection_time": "2023-10-07T08:22:43.442925"}, "geometry": {"coordinates": [-105.935299, 37.173824], "type": "Point"}, "id": "D4gANoYGD8whPJF-9EMU0gZcngo=", "properties": {"@spider": "usps_collection_boxes", "addr:city": "MANASSA", "addr:country": "US", "addr:full": "413 MAIN ST", "addr:postcode": "81141", "addr:state": "CO", "amenity": "post_box", "brand": "United States Postal Service", "brand:wikidata": "Q668687", "collection_times": "Mo-Fr 13:30; Sa 11:15", "name": "USPS COLLECTION BOX - PO LOBBY", "note": "ON 12/24 AND 12/31, THIS BOX MAY BE COLLECTED AS EARLY AS 12 NOON.", "nsi_id": "unitedstatespostalservice-a77078", "operator": "United States Postal Service", "operator:short": "USPS", "operator:type": "public", "operator:wikidata": "Q668687", "ref": "8114100001"}, "type": "Feature"}
{"dataset_attributes": {"@spider": "usps_collection_boxes", "spider:collection_time": "2023-10-07T08:22:43.442925"}, "geometry": {"coordinates": [-105.9084652968, 37.9982410646], "type": "Point"}, "id": "c54u448YYL2YF4cFik-wTnhK_Rs=", "properties": {"@spider": "usps_collection_boxes", "addr:city": "MOFFAT", "addr:country": "US", "addr:full": "17363 STATE HIGHWAY 17", "addr:postcode": "81143", "addr:state": "CO", "amenity": "post_box", "brand": "United States Postal Service", "brand:wikidata": "Q668687", "collection_times": "Mo-Fr 12:00; Sa 10:30", "name": "USPS COLLECTION BOX - PO LOBBY", "nsi_id": "unitedstatespostalservice-a77078", "operator": "United States Postal Service", "operator:short": "USPS", "operator:type": "public", "operator:wikidata": "Q668687", "ref": "8114300001"}, "type": "Feature"}
{"dataset_attributes": {"@spider": "usps_collection_boxes", "spider:collection_time": "2023-10-07T08:22:43.442925"}, "geometry": {"coordinates": [-105.9084652968, 37.9982410646], "type": "Point"}, "id": "cZ7W0jM265771pItyC0Bj6C2C08=", "properties": {"@spider": "usps_collection_boxes", "addr:city": "MOFFAT", "addr:country": "US", "addr:full": "17363 STATE HIGHWAY 17", "addr:postcode": "81143", "addr:state": "CO", "amenity": "post_box", "brand": "United States Postal Service", "brand:wikidata": "Q668687", "collection_times": "Mo-Fr 12:00; Sa 10:30", "name": "USPS COLLECTION BOX - BLUE BOX", "nsi_id": "unitedstatespostalservice-a77078", "operator": "United States Postal Service", "operator:short": "USPS", "operator:type": "public", "operator:wikidata": "Q668687", "ref": "8114300002"}, "type": "Feature"}
{"dataset_attributes": {"@spider": "usps_collection_boxes", "spider:collection_time": "2023-10-07T08:22:43.442925"}, "geometry": {"coordinates": [-106.148056, 37.57929], "type": "Point"}, "id": "DVpNJqWQjbSKM-iE4VpRU-fpWYE=", "properties": {"@spider": "usps_collection_boxes", "addr:city": "MONTE VISTA", "addr:country": "US", "addr:full": "150 WASHINGTON ST", "addr:postcode": "81144", "addr:state": "CO", "amenity": "post_box", "brand": "United States Postal Service", "brand:wikidata": "Q668687", "collection_times": "Mo-Fr 14:00; Sa 12:00", "name": "USPS COLLECTION BOX - PO LOBBY", "note": "ON 12/24 AND 12/31, THIS BOX MAY BE COLLECTED AS EARLY AS 12 NOON.", "nsi_id": "unitedstatespostalservice-a77078", "operator": "United States Postal Service", "operator:short": "USPS", "operator:type": "public", "operator:wikidata": "Q668687", "ref": "8114400000"}, "type": "Feature"}
{"dataset_attributes": {"@spider": "usps_collection_boxes", "spider:collection_time": "2023-10-07T08:22:43.442925"}, "geometry": {"coordinates": [-106.148056, 37.57929], "type": "Point"}, "id": "5Rl-FTT0G1CvgYz-dORVzX7qiuA=", "properties": {"@spider": "usps_collection_boxes", "addr:city": "MONTE VISTA", "addr:country": "US", "addr:full": "150 WASHINGTON ST", "addr:postcode": "81144", "addr:state": "CO", "amenity": "post_box", "brand": "United States Postal Service", "brand:wikidata": "Q668687", "collection_times": "Mo-Fr 14:00; Sa 12:00", "name": "USPS COLLECTION BOX - BLUE BOX", "note": "ON 12/24 AND 12/31, THIS BOX MAY BE COLLECTED AS EARLY AS 12 NOON.", "nsi_id": "unitedstatespostalservice-a77078", "operator": "United States Postal Service", "operator:short": "USPS", "operator:type": "public", "operator:wikidata": "Q668687", "ref": "8114400003"}, "type": "Feature"}
{"dataset_attributes": {"@spider": "usps_collection_boxes", "spider:collection_time": "2023-10-07T08:22:43.442925"}, "geometry": {"coordinates": [-106.148056, 37.57929], "type": "Point"}, "id": "AjNInk3Vp2p4wKZb_1tRl0R4tDU=", "properties": {"@spider": "usps_collection_boxes", "addr:city": "MONTE VISTA", "addr:country": "US", "addr:full": "150 WASHINGTON ST", "addr:postcode": "81144", "addr:state": "CO", "amenity": "post_box", "brand": "United States Postal Service", "brand:wikidata": "Q668687", "collection_times": "Mo-Fr 14:00; Sa 12:00", "name": "USPS COLLECTION BOX - BLUE BOX", "note": "ON 12/24 AND 12/31, THIS BOX MAY BE COLLECTED AS EARLY AS 12 NOON.", "nsi_id": "unitedstatespostalservice-a77078", "operator": "United States Postal Service", "operator:short": "USPS", "operator:type": "public", "operator:wikidata": "Q668687", "ref": "8114400004"}, "type": "Feature"}
{"dataset_attributes": {"@spider": "usps_collection_boxes", "spider:collection_time": "2023-10-07T08:22:43.442925"}, "geometry": {"coordinates": [-106.148056, 37.57929], "type": "Point"}, "id": "cAYeAfNBbRfSE0l1FY7KBIp-cHA=", "properties": {"@spider": "usps_collection_boxes", "addr:city": "MONTE VISTA", "addr:country": "US", "addr:full": "150 WASHINGTON ST", "addr:postcode": "81144", "addr:state": "CO", "amenity": "post_box", "brand": "United States Postal Service", "brand:wikidata": "Q668687", "collection_times": "Mo-Fr 14:00; Sa 12:00", "name": "USPS COLLECTION BOX - PO LOBBY", "note": "ON 12/24 AND 12/31, THIS BOX MAY BE COLLECTED AS EARLY AS 12 NOON.", "nsi_id": "unitedstatespostalservice-a77078", "operator": "United States Postal Service", "operator:short": "USPS", "operator:type": "public", "operator:wikidata": "Q668687", "ref": "8114400008"}, "type": "Feature"}
{"dataset_attributes": {"@spider": "usps_collection_boxes", "spider:collection_time": "2023-10-07T08:22:43.442925"}, "geometry": {"coordinates": [-105.870907, 37.652567], "type": "Point"}, "id": "K4622JNWMIocvOqg_9a78jbWzlo=", "properties": {"@spider": "usps_collection_boxes", "addr:city": "MOSCA", "addr:country": "US", "addr:full": "9260 4TH AVE", "addr:postcode": "81146", "addr:state": "CO", "amenity": "post_box", "brand": "United States Postal Service", "brand:wikidata": "Q668687", "collection_times": "Mo-Fr 14:30; Sa 11:15", "name": "USPS COLLECTION BOX - BLUE BOX", "note": "ON 12/24 AND 12/31, THIS BOX MAY BE COLLECTED AS EARLY AS 12 NOON.", "nsi_id": "unitedstatespostalservice-a77078", "operator": "United States Postal Service", "operator:short": "USPS", "operator:type": "public", "operator:wikidata": "Q668687", "ref": "8114600000"}, "type": "Feature"}
{"dataset_attributes": {"@spider": "usps_collection_boxes", "spider:collection_time": "2023-10-07T08:22:43.442925"}, "geometry": {"coordinates": [-105.870727, 37.652781], "type": "Point"}, "id": "tT9kxc62bHya3DD-RLjo0v_W0ic=", "properties": {"@spider": "usps_collection_boxes", "addr:city": "MOSCA", "addr:country": "US", "addr:full": "9260 4TH AVE", "addr:postcode": "81146", "addr:state": "CO", "amenity": "post_box", "brand": "United States Postal Service", "brand:wikidata": "Q668687", "collection_times": "Mo-Fr 11:45; Sa 11:15", "name": "USPS COLLECTION BOX - PO LOBBY", "nsi_id": "unitedstatespostalservice-a77078", "operator": "United States Postal Service", "operator:short": "USPS", "operator:type": "public", "operator:wikidata": "Q668687", "ref": "8114600001"}, "type": "Feature"}
{"dataset_attributes": {"@spider": "usps_collection_boxes", "spider:collection_time": "2023-10-07T08:22:43.442925"}, "geometry": {"coordinates": [-105.512457, 37.732923], "type": "Point"}, "id": "FLWxDpG7Xh85xKu1QpqxYBMvZsU=", "properties": {"@spider": "usps_collection_boxes", "addr:city": "MOSCA", "addr:country": "US", "addr:full": "11999 STATE HIGHWAY 150", "addr:postcode": "81146", "addr:state": "CO", "amenity": "post_box", "brand": "United States Postal Service", "brand:wikidata": "Q668687", "collection_times": "Mo-Sa 11:45", "name": "USPS COLLECTION BOX - BLUE BOX", "nsi_id": "unitedstatespostalservice-a77078", "operator": "United States Postal Service", "operator:short": "USPS", "operator:type": "public", "operator:wikidata": "Q668687", "ref": "8114600002"}, "type": "Feature"}
{"dataset_attributes": {"@spider": "usps_collection_boxes", "spider:collection_time": "2023-10-07T08:22:43.442925"}, "geometry": {"coordinates": [-107.009592, 37.264614], "type": "Point"}, "id": "Qdq6jioGnrSvdLsit1LTmiMYuk8=", "properties": {"@spider": "usps_collection_boxes", "addr:city": "PAGOSA SPRINGS", "addr:country": "US", "addr:full": "250 HOT SPRINGS BLVD", "addr:postcode": "81147", "addr:state": "CO", "amenity": "post_box", "brand": "United States Postal Service", "brand:wikidata": "Q668687", "collection_times": "Mo-Sa 12:15", "name": "USPS COLLECTION BOX - PO LOBBY", "note": "ON 12/24 AND 12/31, THIS BOX MAY BE COLLECTED AS EARLY AS 12 NOON.", "nsi_id": "unitedstatespostalservice-a77078", "operator": "United States Postal Service", "operator:short": "USPS", "operator:type": "public", "operator:wikidata": "Q668687", "ref": "8114700000"}, "type": "Feature"}
{"dataset_attributes": {"@spider": "usps_collection_boxes", "spider:collection_time": "2023-10-07T08:22:43.442925"}, "geometry": {"coordinates": [-107.009623, 37.264667], "type": "Point"}, "id": "AThFndHVxFzIiC5Ci6FsFny0Ygw=", "properties": {"@spider": "usps_collection_boxes", "addr:city": "PAGOSA SPRINGS", "addr:country": "US", "addr:full": "250 HOT SPRINGS BLVD", "addr:postcode": "81147", "addr:state": "CO", "amenity": "post_box", "brand": "United States Postal Service", "brand:wikidata": "Q668687", "collection_times": "Mo-Sa 12:15", "name": "USPS COLLECTION BOX - PO LOBBY", "note": "ON 12/24 AND 12/31, THIS BOX MAY BE COLLECTED AS EARLY AS 12 NOON.", "nsi_id": "unitedstatespostalservice-a77078", "operator": "United States Postal Service", "operator:short": "USPS", "operator:type": "public", "operator:wikidata": "Q668687", "ref": "8114700001"}, "type": "Feature"}
{"dataset_attributes": {"@spider": "usps_collection_boxes", "spider:collection_time": "2023-10-07T08:22:43.442925"}, "geometry": {"coordinates": [-107.009623, 37.264667], "type": "Point"}, "id": "EUBEEzMkgJ2nOtxKdTk_KsQPdic=", "properties": {"@spider": "usps_collection_boxes", "addr:city": "PAGOSA SPRINGS", "addr:country": "US", "addr:full": "250 HOT SPRINGS BLVD", "addr:postcode": "81147", "addr:state": "CO", "amenity": "post_box", "brand": "United States Postal Service", "brand:wikidata": "Q668687", "collection_times": "Mo-Sa 12:15", "name": "USPS COLLECTION BOX - BLUE BOX", "note": "ON 12/24 AND 12/31, THIS BOX MAY BE COLLECTED AS EARLY AS 12 NOON.", "nsi_id": "unitedstatespostalservice-a77078", "operator": "United States Postal Service", "operator:short": "USPS", "operator:type": "public", "operator:wikidata": "Q668687", "ref": "8114700004"}, "type": "Feature"}
{"dataset_attributes": {"@spider": "usps_collection_boxes", "spider:collection_time": "2023-10-07T08:22:43.442925"}, "geometry": {"coordinates": [-107.009623, 37.264667], "type": "Point"}, "id": "_rhavKhCsuyjcho9Aqa5uBSAWq4=", "properties": {"@spider": "usps_collection_boxes", "addr:city": "PAGOSA SPRINGS", "addr:country": "US", "addr:full": "250 HOT SPRINGS BLVD", "addr:postcode": "81147", "addr:state": "CO", "amenity": "post_box", "brand": "United States Postal Service", "brand:wikidata": "Q668687", "collection_times": "Mo-Sa 12:15", "name": "USPS COLLECTION BOX - BLUE BOX", "note": "ON 12/24 AND 12/31, THIS BOX MAY BE COLLECTED AS EARLY AS 12 NOON.", "nsi_id": "unitedstatespostalservice-a77078", "operator": "United States Postal Service", "operator:short": "USPS", "operator:type": "public", "operator:wikidata": "Q668687", "ref": "8114700005"}, "type": "Feature"}
{"dataset_attributes": {"@spider": "usps_collection_boxes", "spider:collection_time": "2023-10-07T08:22:43.442925"}, "geometry": {"coordinates": [-107.078354, 37.254852], "type": "Point"}, "id": "aIojiz7Ls6NJUr7JaCVj0O2o6y0=", "properties": {"@spider": "usps_collection_boxes", "addr:city": "PAGOSA SPRINGS", "addr:country": "US", "addr:full": "63 N PAGOSA BLVD", "addr:postcode": "81147", "addr:state": "CO", "amenity": "post_box", "brand": "United States Postal Service", "brand:wikidata": "Q668687", "collection_times": "Mo-Sa 11:45", "name": "USPS COLLECTION BOX - BLUE BOX", "nsi_id": "unitedstatespostalservice-a77078", "operator": "United States Postal Service", "operator:short": "USPS", "operator:type": "public", "operator:wikidata": "Q668687", "ref": "8114700008"}, "type": "Feature"}
{"dataset_attributes": {"@spider": "usps_collection_boxes", "spider:collection_time": "2023-10-07T08:22:43.442925"}, "geometry": {"coordinates": [-107.074153, 37.257741], "type": "Point"}, "id": "025LDl_jA5A7TipVZYh1KSOY1bM=", "properties": {"@spider": "usps_collection_boxes", "addr:city": "PAGOSA SPRINGS", "addr:country": "US", "addr:full": "56 TALISMAN DR", "addr:postcode": "81147", "addr:state": "CO", "amenity": "post_box", "brand": "United States Postal Service", "brand:wikidata": "Q668687", "collection_times": "Mo-Sa 11:45", "name": "USPS COLLECTION BOX - BLUE BOX", "nsi_id": "unitedstatespostalservice-a77078", "operator": "United States Postal Service", "operator:short": "USPS", "operator:type": "public", "operator:wikidata": "Q668687", "ref": "8114700009"}, "type": "Feature"}
{"dataset_attributes": {"@spider": "usps_collection_boxes", "spider:collection_time": "2023-10-07T08:22:43.442925"}, "geometry": {"coordinates": [-107.009623, 37.264667], "type": "Point"}, "id": "f-88cgnoXJxP2yaZKiQl3MwGbYU=", "properties": {"@spider": "usps_collection_boxes", "addr:city": "PAGOSA SPRINGS", "addr:country": "US", "addr:full": "250 HOT SPRINGS BLVD", "addr:postcode": "81147", "addr:state": "CO", "amenity": "post_box", "brand": "United States Postal Service", "brand:wikidata": "Q668687", "collection_times": "Mo-Sa 12:15", "name": "USPS COLLECTION BOX - PO LOBBY", "note": "ON 12/24 AND 12/31, THIS BOX MAY BE COLLECTED AS EARLY AS 12 NOON.", "nsi_id": "unitedstatespostalservice-a77078", "operator": "United States Postal Service", "operator:short": "USPS", "operator:type": "public", "operator:wikidata": "Q668687", "ref": "8114700013"}, "type": "Feature"}
{"dataset_attributes": {"@spider": "usps_collection_boxes", "spider:collection_time": "2023-10-07T08:22:43.442925"}, "geometry": {"coordinates": [-105.985355, 37.173408], "type": "Point"}, "id": "buh6CGEZTuGLrY814vFAsMIPyWk=", "properties": {"@spider": "usps_collection_boxes", "addr:city": "ROMEO", "addr:country": "US", "addr:full": "615 2ND AVE", "addr:postcode": "81148", "addr:state": "CO", "amenity": "post_box", "brand": "United States Postal Service", "brand:wikidata": "Q668687", "collection_times": "Mo-Fr 13:15; Sa 09:50", "name": "USPS COLLECTION BOX - BLUE BOX", "note": "ON 12/24 AND 12/31, THIS BOX MAY BE COLLECTED AS EARLY AS 12 NOON.", "nsi_id": "unitedstatespostalservice-a77078", "operator": "United States Postal Service", "operator:short": "USPS", "operator:type": "public", "operator:wikidata": "Q668687", "ref": "8114800000"}, "type": "Feature"}
{"dataset_attributes": {"@spider": "usps_collection_boxes", "spider:collection_time": "2023-10-07T08:22:43.442925"}, "geometry": {"coordinates": [-105.985323, 37.173343], "type": "Point"}, "id": "eH8fWnQa16OjvNPb2zoWoYWQOL0=", "properties": {"@spider": "usps_collection_boxes", "addr:city": "ROMEO", "addr:country": "US", "addr:full": "615 2ND AVE", "addr:postcode": "81148", "addr:state": "CO", "amenity": "post_box", "brand": "United States Postal Service", "brand:wikidata": "Q668687", "collection_times": "Mo-Fr 13:15; Sa 09:50", "name": "USPS COLLECTION BOX - PO LOBBY", "note": "ON 12/24 AND 12/31, THIS BOX MAY BE COLLECTED AS EARLY AS 12 NOON.", "nsi_id": "unitedstatespostalservice-a77078", "operator": "United States Postal Service", "operator:short": "USPS", "operator:type": "public", "operator:wikidata": "Q668687", "ref": "8114800001"}, "type": "Feature"}
{"dataset_attributes": {"@spider": "usps_collection_boxes", "spider:collection_time": "2023-10-07T08:22:43.442925"}, "geometry": {"coordinates": [-106.136215, 38.087685], "type": "Point"}, "id": "QikPWW8UzDQjQlZs8i5AB9sN7jQ=", "properties": {"@spider": "usps_collection_boxes", "addr:city": "SAGUACHE", "addr:country": "US", "addr:full": "350 DENVER AVE", "addr:postcode": "81149", "addr:state": "CO", "amenity": "post_box", "brand": "United States Postal Service", "brand:wikidata": "Q668687", "collection_times": "Mo-Fr 13:00; Sa 11:00", "name": "USPS COLLECTION BOX - BLUE BOX", "note": "ON 12/24 AND 12/31, THIS BOX MAY BE COLLECTED AS EARLY AS 12 NOON.", "nsi_id": "unitedstatespostalservice-a77078", "operator": "United States Postal Service", "operator:short": "USPS", "operator:type": "public", "operator:wikidata": "Q668687", "ref": "8114900000"}, "type": "Feature"}
{"dataset_attributes": {"@spider": "usps_collection_boxes", "spider:collection_time": "2023-10-07T08:22:43.442925"}, "geometry": {"coordinates": [-106.136215, 38.087685], "type": "Point"}, "id": "xb-rHydR995nkZ3omvYAG26E2eU=", "properties": {"@spider": "usps_collection_boxes", "addr:city": "SAGUACHE", "addr:country": "US", "addr:full": "350 DENVER AVE", "addr:postcode": "81149", "addr:state": "CO", "amenity": "post_box", "brand": "United States Postal Service", "brand:wikidata": "Q668687", "collection_times": "Mo-Fr 13:00; Sa 11:00", "name": "USPS COLLECTION BOX - PO LOBBY", "note": "ON 12/24 AND 12/31, THIS BOX MAY BE COLLECTED AS EARLY AS 12 NOON.", "nsi_id": "unitedstatespostalservice-a77078", "operator": "United States Postal Service", "operator:short": "USPS", "operator:type": "public", "operator:wikidata": "Q668687", "ref": "8114900001"}, "type": "Feature"}
{"dataset_attributes": {"@spider": "usps_collection_boxes", "spider:collection_time": "2023-10-07T08:22:43.442925"}, "geometry": {"coordinates": [-105.905537, 37.256383], "type": "Point"}, "id": "pDp-AeRXSv2c2_gMGlPugFkHPxg=", "properties": {"@spider": "usps_collection_boxes", "addr:city": "SANFORD", "addr:country": "US", "addr:full": "810 MAIN ST", "addr:postcode": "81151", "addr:state": "CO", "amenity": "post_box", "brand": "United States Postal Service", "brand:wikidata": "Q668687", "collection_times": "Mo-Fr 14:00; Sa 10:00", "name": "USPS COLLECTION BOX - BLUE BOX", "note": "ON 12/24 AND 12/31, THIS BOX MAY BE COLLECTED AS EARLY AS 12 NOON.", "nsi_id": "unitedstatespostalservice-a77078", "operator": "United States Postal Service", "operator:short": "USPS", "operator:type": "public", "operator:wikidata": "Q668687", "ref": "8115100000"}, "type": "Feature"}
{"dataset_attributes": {"@spider": "usps_collection_boxes", "spider:collection_time": "2023-10-07T08:22:43.442925"}, "geometry": {"coordinates": [-105.905537, 37.256383], "type": "Point"}, "id": "PMXVD4_t6YqYdQUq2I2kxzhRAN0=", "properties": {"@spider": "usps_collection_boxes", "addr:city": "SANFORD", "addr:country": "US", "addr:full": "810 MAIN ST", "addr:postcode": "81151", "addr:state": "CO", "amenity": "post_box", "brand": "United States Postal Service", "brand:wikidata": "Q668687", "collection_times": "Mo-Fr 14:00; Sa 10:00", "name": "USPS COLLECTION BOX - PO LOBBY", "note": "ON 12/24 AND 12/31, THIS BOX MAY BE COLLECTED AS EARLY AS 12 NOON.", "nsi_id": "unitedstatespostalservice-a77078", "operator": "United States Postal Service", "operator:short": "USPS", "operator:type": "public", "operator:wikidata": "Q668687", "ref": "8115100001"}, "type": "Feature"}
{"dataset_attributes": {"@spider": "usps_collection_boxes", "spider:collection_time": "2023-10-07T08:22:43.442925"}, "geometry": {"coordinates": [-105.493574, 37.172958], "type": "Point"}, "id": "8v8bvkwmzAkKegSyDTF0skLc9_E=", "properties": {"@spider": "usps_collection_boxes", "addr:city": "SAN LUIS", "addr:country": "US", "addr:full": "13 9TH ST", "addr:postcode": "81152", "addr:state": "CO", "amenity": "post_box", "brand": "United States Postal Service", "brand:wikidata": "Q668687", "collection_times": "Mo-Fr 13:45; Sa 11:45", "name": "USPS COLLECTION BOX - BLUE BOX", "note": "ON 12/24 AND 12/31, THIS BOX MAY BE COLLECTED AS EARLY AS 12 NOON.", "nsi_id": "unitedstatespostalservice-a77078", "operator": "United States Postal Service", "operator:short": "USPS", "operator:type": "public", "operator:wikidata": "Q668687", "ref": "8115200000"}, "type": "Feature"}
{"dataset_attributes": {"@spider": "usps_collection_boxes", "spider:collection_time": "2023-10-07T08:22:43.442925"}, "geometry": {"coordinates": [-105.493574, 37.172958], "type": "Point"}, "id": "dE9dpqM9eUfQo-k5y27bdBhtzmQ=", "properties": {"@spider": "usps_collection_boxes", "addr:city": "SAN LUIS", "addr:country": "US", "addr:full": "13 9TH ST", "addr:postcode": "81152", "addr:state": "CO", "amenity": "post_box", "brand": "United States Postal Service", "brand:wikidata": "Q668687", "collection_times": "Mo-Fr 13:45; Sa 11:45", "name": "USPS COLLECTION BOX - PO LOBBY", "note": "ON 12/24 AND 12/31, THIS BOX MAY BE COLLECTED AS EARLY AS 12 NOON.", "nsi_id": "unitedstatespostalservice-a77078", "operator": "United States Postal Service", "operator:short": "USPS", "operator:type": "public", "operator:wikidata": "Q668687", "ref": "8115200001"}, "type": "Feature"}
{"dataset_attributes": {"@spider": "usps_collection_boxes", "spider:collection_time": "2023-10-07T08:22:43.442925"}, "geometry": {"coordinates": [-106.644916, 37.66605], "type": "Point"}, "id": "Gpv6MDx5oRFxiqnBTrz6ubHrp2s=", "properties": {"@spider": "usps_collection_boxes", "addr:city": "SOUTH FORK", "addr:country": "US", "addr:full": "130 W FRONTAGE RD", "addr:postcode": "81154", "addr:state": "CO", "amenity": "post_box", "brand": "United States Postal Service", "brand:wikidata": "Q668687", "collection_times": "Mo-Fr 13:15; Sa 10:00", "name": "USPS COLLECTION BOX - PO LOBBY", "note": "ON 12/24 AND 12/31, THIS BOX MAY BE COLLECTED AS EARLY AS 12 NOON.", "nsi_id": "unitedstatespostalservice-a77078", "operator": "United States Postal Service", "operator:short": "USPS", "operator:type": "public", "operator:wikidata": "Q668687", "ref": "8115400001"}, "type": "Feature"}
{"dataset_attributes": {"@spider": "usps_collection_boxes", "spider:collection_time": "2023-10-07T08:22:43.442925"}, "geometry": {"coordinates": [-106.644901, 37.666109], "type": "Point"}, "id": "gq1Oxj8dHdXjzwTErnk5WLWL70A=", "properties": {"@spider": "usps_collection_boxes", "addr:city": "SOUTH FORK", "addr:country": "US", "addr:full": "130 W FRONTAGE RD", "addr:postcode": "81154", "addr:state": "CO", "amenity": "post_box", "brand": "United States Postal Service", "brand:wikidata": "Q668687", "collection_times": "Mo-Fr 13:15; Sa 10:00", "name": "USPS COLLECTION BOX - BLUE BOX", "note": "ON 12/24 AND 12/31, THIS BOX MAY BE COLLECTED AS EARLY AS 12 NOON.", "nsi_id": "unitedstatespostalservice-a77078", "operator": "United States Postal Service", "operator:short": "USPS", "operator:type": "public", "operator:wikidata": "Q668687", "ref": "8115400002"}, "type": "Feature"}
{"dataset_attributes": {"@spider": "usps_collection_boxes", "spider:collection_time": "2023-10-07T08:22:43.442925"}, "geometry": {"coordinates": [-105.947342, 38.245872], "type": "Point"}, "id": "jAtjericy694Xa2ZorNXMCwbxrs=", "properties": {"@spider": "usps_collection_boxes", "addr:city": "VILLA GROVE", "addr:country": "US", "addr:full": "33937 HIGHWAY 285", "addr:postcode": "81155", "addr:state": "CO", "amenity": "post_box", "brand": "United States Postal Service", "brand:wikidata": "Q668687", "collection_times": "Mo-Fr 11:30; Sa 10:15", "name": "USPS COLLECTION BOX - BLUE BOX", "nsi_id": "unitedstatespostalservice-a77078", "operator": "United States Postal Service", "operator:short": "USPS", "operator:type": "public", "operator:wikidata": "Q668687", "ref": "8115500000"}, "type": "Feature"}
{"dataset_attributes": {"@spider": "usps_collection_boxes", "spider:collection_time": "2023-10-07T08:22:43.442925"}, "geometry": {"coordinates": [-105.947342, 38.245873], "type": "Point"}, "id": "yRXQ6PEg9_lEq72wz5YpUgOC8IM=", "properties": {"@spider": "usps_collection_boxes", "addr:city": "VILLA GROVE", "addr:country": "US", "addr:full": "33937 HIGHWAY 285", "addr:postcode": "81155", "addr:state": "CO", "amenity": "post_box", "brand": "United States Postal Service", "brand:wikidata": "Q668687", "collection_times": "Mo-Fr 11:30; Sa 10:15", "name": "USPS COLLECTION BOX - PO LOBBY", "nsi_id": "unitedstatespostalservice-a77078", "operator": "United States Postal Service", "operator:short": "USPS", "operator:type": "public", "operator:wikidata": "Q668687", "ref": "8115500001"}, "type": "Feature"}
