{"geometry": {"coordinates": [-105.991652, 38.533003], "type": "Point"}, "id": "BdTyeIf5n1cEkvQmjmKirFtjaeE=", "properties": {"@source_uri": "https://tools.usps.com/UspsToolsRestServices/rest/POLocator/findLocations", "@spider": "usps_collection_boxes", "addr:city": "SALIDA", "addr:country": "US", "addr:postcode": "81201", "addr:state": "CO", "addr:street_address": "310 D ST", "amenity": "post_box", "collection_times": "Mo-Fr 17:00; Sa 16:00", "note": "ON 12/24 AND 12/31, THIS BOX MAY BE COLLECTED AS EARLY AS 12 NOON.", "nsi_id": "unitedstatespostalservice-a77078", "operator": "United States Postal Service", "operator:short": "USPS", "operator:type": "public", "operator:wikidata": "Q668687", "ref": "8120100000"}, "type": "Feature"}
{"geometry": {"coordinates": [-105.991652, 38.533003], "type": "Point"}, "id": "eaS6CixlfHEGW9CbF4FhMU9tTSQ=", "properties": {"@source_uri": "https://tools.usps.com/UspsToolsRestServices/rest/POLocator/findLocations", "@spider": "usps_collection_boxes", "addr:city": "SALIDA", "addr:country": "US", "addr:postcode": "81201", "addr:state": "CO", "addr:street_address": "310 D ST", "amenity": "post_box", "collection_times": "Mo-Fr 17:00; Sa 16:00", "note": "ON 12/24 AND 12/31, THIS BOX MAY BE COLLECTED AS EARLY AS 12 NOON.", "nsi_id": "unitedstatespostalservice-a77078", "operator": "United States Postal Service", "operator:short": "USPS", "operator:type": "public", "operator:wikidata": "Q668687", "ref": "8120100001"}, "type": "Feature"}
{"geometry": {"coordinates": [-105.992754, 38.535438], "type": "Point"}, "id": "ihm__5SKM0bfTZAVRWs-GZqLxkQ=", "properties": {"@source_uri": "https://tools.usps.com/UspsToolsRestServices/rest/POLocator/findLocations", "@spider": "usps_collection_boxes", "addr:city": "SALIDA", "addr:country": "US", "addr:postcode": "81201", "addr:state": "CO", "addr:street_address": "197 W 2ND ST", "amenity": "post_box", "collection_times": "Mo-Sa 10:00", "nsi_id": "unitedstatespostalservice-a77078", "operator": "United States Postal Service", "operator:short": "USPS", "operator:type": "public", "operator:wikidata": "Q668687", "ref": "8120100002"}, "type": "Feature"}
{"geometry": {"coordinates": [-105.994545, 38.535905], "type": "Point"}, "id": "xPhyFV0aZmeVZIZTz4-3_NPGrvc=", "properties": {"@source_uri": "https://tools.usps.com/UspsToolsRestServices/rest/POLocator/findLocations", "@spider": "usps_collection_boxes", "addr:city": "SALIDA", "addr:country": "US", "addr:postcode": "81201", "addr:state": "CO", "addr:street_address": "232 G ST", "amenity": "post_box", "collection_times": "Mo-Sa 10:00", "nsi_id": "unitedstatespostalservice-a77078", "operator": "United States Postal Service", "operator:short": "USPS", "operator:type": "public", "operator:wikidata": "Q668687", "ref": "8120100004"}, "type": "Feature"}
{"geometry": {"coordinates": [-105.992565, 38.53028], "type": "Point"}, "id": "GBhhEhzgkZy7Qz7NGlh7IA1Co3s=", "properties": {"@source_uri": "https://tools.usps.com/UspsToolsRestServices/rest/POLocator/findLocations", "@spider": "usps_collection_boxes", "addr:city": "SALIDA", "addr:country": "US", "addr:postcode": "81201", "addr:state": "CO", "addr:street_address": "132 CRESTONE AVE", "amenity": "post_box", "collection_times": "Mo-Fr 14:00", "note": "ON 12/24 AND 12/31, THIS BOX MAY BE COLLECTED AS EARLY AS 12 NOON.", "nsi_id": "unitedstatespostalservice-a77078", "operator": "United States Postal Service", "operator:short": "USPS", "operator:type": "public", "operator:wikidata": "Q668687", "ref": "8120100006"}, "type": "Feature"}
{"geometry": {"coordinates": [-105.992565, 38.53028], "type": "Point"}, "id": "5F-6V_HeMlc0LMsQeV7dcy9XAIw=", "properties": {"@source_uri": "https://tools.usps.com/UspsToolsRestServices/rest/POLocator/findLocations", "@spider": "usps_collection_boxes", "addr:city": "SALIDA", "addr:country": "US", "addr:postcode": "81201", "addr:state": "CO", "addr:street_address": "402 W HIGHWAY 50", "amenity": "post_box", "collection_times": "Mo-Fr 10:00", "nsi_id": "unitedstatespostalservice-a77078", "operator": "United States Postal Service", "operator:short": "USPS", "operator:type": "public", "operator:wikidata": "Q668687", "ref": "8120100012"}, "type": "Feature"}
{"geometry": {"coordinates": [-106.022881, 38.524107], "type": "Point"}, "id": "RZstaxpUvuQ4A0oLQiNJBBcLD70=", "properties": {"@source_uri": "https://tools.usps.com/UspsToolsRestServices/rest/POLocator/findLocations", "@spider": "usps_collection_boxes", "addr:city": "SALIDA", "addr:country": "US", "addr:postcode": "81201", "addr:state": "CO", "addr:street_address": "7865 W US HIGHWAY 50", "amenity": "post_box", "collection_times": "Mo-Sa 10:00", "nsi_id": "unitedstatespostalservice-a77078", "operator": "United States Postal Service", "operator:short": "USPS", "operator:type": "public", "operator:wikidata": "Q668687", "ref": "8120100014"}, "type": "Feature"}
{"geometry": {"coordinates": [-105.991652, 38.533003], "type": "Point"}, "id": "IBItb8bBrwRMGCSwdFagU0fReFw=", "properties": {"@source_uri": "https://tools.usps.com/UspsToolsRestServices/rest/POLocator/findLocations", "@spider": "usps_collection_boxes", "addr:city": "SALIDA", "addr:country": "US", "addr:postcode": "81201", "addr:state": "CO", "addr:street_address": "310 D ST", "amenity": "post_box", "collection_times": "Mo-Fr 17:00; Sa 16:00", "indoor": "yes", "note": "ON 12/24 AND 12/31, THIS BOX MAY BE COLLECTED AS EARLY AS 12 NOON.", "nsi_id": "unitedstatespostalservice-a77078", "operator": "United States Postal Service", "operator:short": "USPS", "operator:type": "public", "operator:wikidata": "Q668687", "ref": "8120100015"}, "type": "Feature"}
{"geometry": {"coordinates": [-105.991652, 38.533003], "type": "Point"}, "id": "7Wc5_cscwIZoxTM0Yd6lY_zGoZY=", "properties": {"@source_uri": "https://tools.usps.com/UspsToolsRestServices/rest/POLocator/findLocations", "@spider": "usps_collection_boxes", "addr:city": "SALIDA", "addr:country": "US", "addr:postcode": "81201", "addr:state": "CO", "addr:street_address": "310 D ST", "amenity": "post_box", "collection_times": "Mo-Fr 17:00; Sa 16:00", "indoor": "yes", "note": "ON 12/24 AND 12/31, THIS BOX MAY BE COLLECTED AS EARLY AS 12 NOON.", "nsi_id": "unitedstatespostalservice-a77078", "operator": "United States Postal Service", "operator:short": "USPS", "operator:type": "public", "operator:wikidata": "Q668687", "ref": "8120100016"}, "type": "Feature"}
{"geometry": {"coordinates": [-106.83794, 38.666268], "type": "Point"}, "id": "3phIUKbublvHhTWvLZMXHcYrdNA=", "properties": {"@source_uri": "https://tools.usps.com/UspsToolsRestServices/rest/POLocator/findLocations", "@spider": "usps_collection_boxes", "addr:city": "ALMONT", "addr:country": "US", "addr:postcode": "81210", "addr:state": "CO", "addr:street_address": "500 COUNTY ROAD 742", "amenity": "post_box", "collection_times": "Mo-Sa 11:45", "indoor": "yes", "nsi_id": "unitedstatespostalservice-a77078", "operator": "United States Postal Service", "operator:short": "USPS", "operator:type": "public", "operator:wikidata": "Q668687", "ref": "8121000000"}, "type": "Feature"}
{"geometry": {"coordinates": [-106.83794, 38.666268], "type": "Point"}, "id": "WbWEVm4xifsV2ZTT7mcNqyQSLwQ=", "properties": {"@source_uri": "https://tools.usps.com/UspsToolsRestServices/rest/POLocator/findLocations", "@spider": "usps_collection_boxes", "addr:city": "ALMONT", "addr:country": "US", "addr:postcode": "81210", "addr:state": "CO", "addr:street_address": "500 COUNTY ROAD 742", "amenity": "post_box", "collection_times": "Mo-Fr 12:00; Sa 11:45", "nsi_id": "unitedstatespostalservice-a77078", "operator": "United States Postal Service", "operator:short": "USPS", "operator:type": "public", "operator:wikidata": "Q668687", "ref": "8121000003"}, "type": "Feature"}
{"geometry": {"coordinates": [-106.136372, 38.845499], "type": "Point"}, "id": "zpf1m1PoRes2wL6I0KpIasySg4w=", "properties": {"@source_uri": "https://tools.usps.com/UspsToolsRestServices/rest/POLocator/findLocations", "@spider": "usps_collection_boxes", "addr:city": "BUENA VISTA", "addr:country": "US", "addr:postcode": "81211", "addr:state": "CO", "addr:street_address": "110 BROOKDALE AVE", "amenity": "post_box", "collection_times": "Mo-Sa 14:30", "note": "ON 12/24 AND 12/31, THIS BOX MAY BE COLLECTED AS EARLY AS 12 NOON.", "nsi_id": "unitedstatespostalservice-a77078", "operator": "United States Postal Service", "operator:short": "USPS", "operator:type": "public", "operator:wikidata": "Q668687", "ref": "8121100000"}, "type": "Feature"}
{"geometry": {"coordinates": [-106.136374, 38.845492], "type": "Point"}, "id": "Z5hJVvQFxVogQMrjXaVybz695SE=", "properties": {"@source_uri": "https://tools.usps.com/UspsToolsRestServices/rest/POLocator/findLocations", "@spider": "usps_collection_boxes", "addr:city": "BUENA VISTA", "addr:country": "US", "addr:postcode": "81211", "addr:state": "CO", "addr:street_address": "110 BROOKDALE AVE", "amenity": "post_box", "collection_times": "Mo-Sa 14:30", "note": "ON 12/24 AND 12/31, THIS BOX MAY BE COLLECTED AS EARLY AS 12 NOON.", "nsi_id": "unitedstatespostalservice-a77078", "operator": "United States Postal Service", "operator:short": "USPS", "operator:type": "public", "operator:wikidata": "Q668687", "ref": "8121100001"}, "type": "Feature"}
{"geometry": {"coordinates": [-106.136493, 38.845208], "type": "Point"}, "id": "AGecxUv3HyqoIqKaYHFk60bFIx8=", "properties": {"@source_uri": "https://tools.usps.com/UspsToolsRestServices/rest/POLocator/findLocations", "@spider": "usps_collection_boxes", "addr:city": "BUENA VISTA", "addr:country": "US", "addr:postcode": "81211", "addr:state": "CO", "addr:street_address": "110 BROOKDALE AVE", "amenity": "post_box", "collection_times": "Mo-Fr 14:30; Sa 13:00", "indoor": "yes", "note": "ON 12/24 AND 12/31, THIS BOX MAY BE COLLECTED AS EARLY AS 12 NOON.", "nsi_id": "unitedstatespostalservice-a77078", "operator": "United States Postal Service", "operator:short": "USPS", "operator:type": "public", "operator:wikidata": "Q668687", "ref": "8121100004"}, "type": "Feature"}
{"geometry": {"coordinates": [-106.136493, 38.845208], "type": "Point"}, "id": "Tl9pmrFUbn-0b3Q7_cVRXe_03L4=", "properties": {"@source_uri": "https://tools.usps.com/UspsToolsRestServices/rest/POLocator/findLocations", "@spider": "usps_collection_boxes", "addr:city": "BUENA VISTA", "addr:country": "US", "addr:postcode": "81211", "addr:state": "CO", "addr:street_address": "110 BROOKDALE AVE", "amenity": "post_box", "collection_times": "Mo-Fr 14:30; Sa 13:00", "indoor": "yes", "note": "ON 12/24 AND 12/31, THIS BOX MAY BE COLLECTED AS EARLY AS 12 NOON.", "nsi_id": "unitedstatespostalservice-a77078", "operator": "United States Postal Service", "operator:short": "USPS", "operator:type": "public", "operator:wikidata": "Q668687", "ref": "8121100005"}, "type": "Feature"}
{"geometry": {"coordinates": [-106.131477, 38.842211], "type": "Point"}, "id": "Mnkp_hfu5j4TkD4qn_mQwUottt0=", "properties": {"@source_uri": "https://tools.usps.com/UspsToolsRestServices/rest/POLocator/findLocations", "@spider": "usps_collection_boxes", "addr:city": "BUENA VISTA", "addr:country": "US", "addr:postcode": "81211", "addr:state": "CO", "addr:street_address": "210 E MAIN ST", "amenity": "post_box", "collection_times": "Mo-Sa 14:30", "note": "ON 12/24 AND 12/31, THIS BOX MAY BE COLLECTED AS EARLY AS 12 NOON.", "nsi_id": "unitedstatespostalservice-a77078", "operator": "United States Postal Service", "operator:short": "USPS", "operator:type": "public", "operator:wikidata": "Q668687", "ref": "8121100006"}, "type": "Feature"}
{"geometry": {"coordinates": [-105.192206, 38.448582], "type": "Point"}, "id": "JnCG3QKQAR1DGRJmPKgQ8oR6kzY=", "properties": {"@source_uri": "https://tools.usps.com/UspsToolsRestServices/rest/POLocator/findLocations", "@spider": "usps_collection_boxes", "addr:city": "CANON CITY", "addr:country": "US", "addr:postcode": "81212", "addr:state": "CO", "addr:street_address": "3105 E US HIGHWAY 50", "amenity": "post_box", "collection_times": "Mo-Sa 12:30", "note": "ON 12/24 AND 12/31, THIS BOX MAY BE COLLECTED AS EARLY AS 12 NOON.", "nsi_id": "unitedstatespostalservice-a77078", "operator": "United States Postal Service", "operator:short": "USPS", "operator:type": "public", "operator:wikidata": "Q668687", "ref": "8121200000"}, "type": "Feature"}
{"geometry": {"coordinates": [-105.227145, 38.4474], "type": "Point"}, "id": "LjU2zB9ccOXrpoJqQS56WSC6VlA=", "properties": {"@source_uri": "https://tools.usps.com/UspsToolsRestServices/rest/POLocator/findLocations", "@spider": "usps_collection_boxes", "addr:city": "CANON CITY", "addr:country": "US", "addr:postcode": "81212", "addr:state": "CO", "addr:street_address": "1501 MAIN ST", "amenity": "post_box", "collection_times": "Mo-Sa 15:30", "note": "ON 12/24 AND 12/31, THIS BOX MAY BE COLLECTED AS EARLY AS 12 NOON.", "nsi_id": "unitedstatespostalservice-a77078", "operator": "United States Postal Service", "operator:short": "USPS", "operator:type": "public", "operator:wikidata": "Q668687", "ref": "8121200019"}, "type": "Feature"}
{"geometry": {"coordinates": [-105.226757, 38.446897], "type": "Point"}, "id": "LLf3Dn5BA7tM7KTSIg0kQIPiOCk=", "properties": {"@source_uri": "https://tools.usps.com/UspsToolsRestServices/rest/POLocator/findLocations", "@spider": "usps_collection_boxes", "addr:city": "CANON CITY", "addr:country": "US", "addr:postcode": "81212", "addr:state": "CO", "addr:street_address": "1501 MAIN ST", "amenity": "post_box", "collection_times": "Mo-Sa 15:30", "indoor": "yes", "note": "ON 12/24 AND 12/31, THIS BOX MAY BE COLLECTED AS EARLY AS 12 NOON.", "nsi_id": "unitedstatespostalservice-a77078", "operator": "United States Postal Service", "operator:short": "USPS", "operator:type": "public", "operator:wikidata": "Q668687", "ref": "8121200023"}, "type": "Feature"}
{"geometry": {"coordinates": [-105.226843, 38.446947], "type": "Point"}, "id": "auhuZ8HGqpRg-CJ5MsAjUUuSYVM=", "properties": {"@source_uri": "https://tools.usps.com/UspsToolsRestServices/rest/POLocator/findLocations", "@spider": "usps_collection_boxes", "addr:city": "CANON CITY", "addr:country": "US", "addr:postcode": "81212", "addr:state": "CO", "addr:street_address": "1501 MAIN ST", "amenity": "post_box", "collection_times": "Mo-Sa 15:30", "indoor": "yes", "note": "ON 12/24 AND 12/31, THIS BOX MAY BE COLLECTED AS EARLY AS 12 NOON.", "nsi_id": "unitedstatespostalservice-a77078", "operator": "United States Postal Service", "operator:short": "USPS", "operator:type": "public", "operator:wikidata": "Q668687", "ref": "8121200024"}, "type": "Feature"}
{"geometry": {"coordinates": [-105.226958, 38.447024], "type": "Point"}, "id": "Oirju1wJAHAUZEq0X75Pzim_kFo=", "properties": {"@source_uri": "https://tools.usps.com/UspsToolsRestServices/rest/POLocator/findLocations", "@spider": "usps_collection_boxes", "addr:city": "CANON CITY", "addr:country": "US", "addr:postcode": "81212", "addr:state": "CO", "addr:street_address": "1501 MAIN ST", "amenity": "post_box", "collection_times": "Mo-Sa 15:30", "indoor": "yes", "note": "ON 12/24 AND 12/31, THIS BOX MAY BE COLLECTED AS EARLY AS 12 NOON.", "nsi_id": "unitedstatespostalservice-a77078", "operator": "United States Postal Service", "operator:short": "USPS", "operator:type": "public", "operator:wikidata": "Q668687", "ref": "8121200025"}, "type": "Feature"}
{"geometry": {"coordinates": [-105.227018, 38.447134], "type": "Point"}, "id": "KUtZQlm3vkIfxdlG294Vkl-AdIg=", "properties": {"@source_uri": "https://tools.usps.com/UspsToolsRestServices/rest/POLocator/findLocations", "@spider": "usps_collection_boxes", "addr:city": "CANON CITY", "addr:country": "US", "addr:postcode": "81212", "addr:state": "CO", "addr:street_address": "1501 MAIN ST", "amenity": "post_box", "collection_times": "Mo-Sa 15:30", "name": "USPS COLLECTION BOX - APC", "note": "ON 12/24 AND 12/31, THIS BOX MAY BE COLLECTED AS EARLY AS 12 NOON.", "nsi_id": "unitedstatespostalservice-a77078", "operator": "United States Postal Service", "operator:short": "USPS", "operator:type": "public", "operator:wikidata": "Q668687", "ref": "8121200030"}, "type": "Feature"}
{"geometry": {"coordinates": [-105.227112, 38.447376], "type": "Point"}, "id": "Q72GBD7FEH0SgmbIMIM8YjLkMUU=", "properties": {"@source_uri": "https://tools.usps.com/UspsToolsRestServices/rest/POLocator/findLocations", "@spider": "usps_collection_boxes", "addr:city": "CANON CITY", "addr:country": "US", "addr:postcode": "81212", "addr:state": "CO", "addr:street_address": "1501 MAIN ST", "amenity": "post_box", "collection_times": "Mo-Sa 15:30", "note": "ON 12/24 AND 12/31, THIS BOX MAY BE COLLECTED AS EARLY AS 12 NOON.", "nsi_id": "unitedstatespostalservice-a77078", "operator": "United States Postal Service", "operator:short": "USPS", "operator:type": "public", "operator:wikidata": "Q668687", "ref": "8121200031"}, "type": "Feature"}
{"geometry": {"coordinates": [-107.557459, 38.443293], "type": "Point"}, "id": "fPtBOwczPGZRssQau05iBdtOERY=", "properties": {"@source_uri": "https://tools.usps.com/UspsToolsRestServices/rest/POLocator/findLocations", "@spider": "usps_collection_boxes", "addr:city": "CIMARRON", "addr:country": "US", "addr:postcode": "81220", "addr:state": "CO", "addr:street_address": "82111 E US HIGHWAY 50", "amenity": "post_box", "collection_times": "Mo-Fr 12:45; Sa 12:00", "note": "ON 12/24 AND 12/31, THIS BOX MAY BE COLLECTED AS EARLY AS 12 NOON.", "nsi_id": "unitedstatespostalservice-a77078", "operator": "United States Postal Service", "operator:short": "USPS", "operator:type": "public", "operator:wikidata": "Q668687", "ref": "8122000000"}, "type": "Feature"}
{"geometry": {"coordinates": [-107.557405, 38.442667], "type": "Point"}, "id": "prXbwpFg5GzeFkSYS-mcS4DK3rc=", "properties": {"@source_uri": "https://tools.usps.com/UspsToolsRestServices/rest/POLocator/findLocations", "@spider": "usps_collection_boxes", "addr:city": "CIMARRON", "addr:country": "US", "addr:postcode": "81220", "addr:state": "CO", "addr:street_address": "82111 E US HIGHWAY 50", "amenity": "post_box", "collection_times": "Mo-Fr 12:45; Sa 12:00", "indoor": "yes", "note": "ON 12/24 AND 12/31, THIS BOX MAY BE COLLECTED AS EARLY AS 12 NOON.", "nsi_id": "unitedstatespostalservice-a77078", "operator": "United States Postal Service", "operator:short": "USPS", "operator:type": "public", "operator:wikidata": "Q668687", "ref": "8122000001"}, "type": "Feature"}
{"geometry": {"coordinates": [-105.146867, 38.361861], "type": "Point"}, "id": "TD5dZ_XF2g1QRMGxkQDFNNj-rAg=", "properties": {"@source_uri": "https://tools.usps.com/UspsToolsRestServices/rest/POLocator/findLocations", "@spider": "usps_collection_boxes", "addr:city": "COAL CREEK", "addr:country": "US", "addr:postcode": "81221", "addr:state": "CO", "addr:street_address": "201 COAL CREEK DR", "amenity": "post_box", "collection_times": "Mo-Fr 13:15; Sa 10:45", "note": "ON 12/24 AND 12/31, THIS BOX MAY BE COLLECTED AS EARLY AS 12 NOON.", "nsi_id": "unitedstatespostalservice-a77078", "operator": "United States Postal Service", "operator:short": "USPS", "operator:type": "public", "operator:wikidata": "Q668687", "ref": "8122100000"}, "type": "Feature"}
{"geometry": {"coordinates": [-105.748538, 38.365248], "type": "Point"}, "id": "IcDu2f9wR0ozA1kXSLM5wS41AI0=", "properties": {"@source_uri": "https://tools.usps.com/UspsToolsRestServices/rest/POLocator/findLocations", "@spider": "usps_collection_boxes", "addr:city": "COALDALE", "addr:country": "US", "addr:postcode": "81222", "addr:state": "CO", "addr:street_address": "16081 US HIGHWAY 50", "amenity": "post_box", "collection_times": "Mo-Fr 15:30; Sa 09:15", "note": "ON 12/24 AND 12/31, THIS BOX MAY BE COLLECTED AS EARLY AS 12 NOON.", "nsi_id": "unitedstatespostalservice-a77078", "operator": "United States Postal Service", "operator:short": "USPS", "operator:type": "public", "operator:wikidata": "Q668687", "ref": "8122200000"}, "type": "Feature"}
{"geometry": {"coordinates": [-105.748575, 38.365236], "type": "Point"}, "id": "ewra1vYObNC5oWzYC0D9-Jpr3cc=", "properties": {"@source_uri": "https://tools.usps.com/UspsToolsRestServices/rest/POLocator/findLocations", "@spider": "usps_collection_boxes", "addr:city": "COALDALE", "addr:country": "US", "addr:postcode": "81222", "addr:state": "CO", "addr:street_address": "16081 US HIGHWAY 50", "amenity": "post_box", "collection_times": "Mo-Fr 15:30; Sa 09:15", "indoor": "yes", "note": "ON 12/24 AND 12/31, THIS BOX MAY BE COLLECTED AS EARLY AS 12 NOON.", "nsi_id": "unitedstatespostalservice-a77078", "operator": "United States Postal Service", "operator:short": "USPS", "operator:type": "public", "operator:wikidata": "Q668687", "ref": "8122200001"}, "type": "Feature"}
{"geometry": {"coordinates": [-105.688838, 38.372318], "type": "Point"}, "id": "8PTX5Q7Z46MXakyIhTnvxZFw5K0=", "properties": {"@source_uri": "https://tools.usps.com/UspsToolsRestServices/rest/POLocator/findLocations", "@spider": "usps_collection_boxes", "addr:city": "COTOPAXI", "addr:country": "US", "addr:postcode": "81223", "addr:state": "CO", "addr:street_address": "123 COUNTY ROAD 12", "amenity": "post_box", "collection_times": "Mo-Fr 14:30", "note": "ON 12/24 AND 12/31, THIS BOX MAY BE COLLECTED AS EARLY AS 12 NOON.", "nsi_id": "unitedstatespostalservice-a77078", "operator": "United States Postal Service", "operator:short": "USPS", "operator:type": "public", "operator:wikidata": "Q668687", "ref": "8122300000"}, "type": "Feature"}
{"geometry": {"coordinates": [-105.688838, 38.372318], "type": "Point"}, "id": "wD391p6Wb2yPvbGGxVRei8uxqlA=", "properties": {"@source_uri": "https://tools.usps.com/UspsToolsRestServices/rest/POLocator/findLocations", "@spider": "usps_collection_boxes", "addr:city": "COTOPAXI", "addr:country": "US", "addr:postcode": "81223", "addr:state": "CO", "addr:street_address": "123 COUNTY ROAD 12", "amenity": "post_box", "collection_times": "Sa 11:15", "indoor": "yes", "nsi_id": "unitedstatespostalservice-a77078", "operator": "United States Postal Service", "operator:short": "USPS", "operator:type": "public", "operator:wikidata": "Q668687", "ref": "8122300001"}, "type": "Feature"}
{"geometry": {"coordinates": [-106.986671, 38.869779], "type": "Point"}, "id": "5AqyCor-q6CsMYriVjzp5juMxlM=", "properties": {"@source_uri": "https://tools.usps.com/UspsToolsRestServices/rest/POLocator/findLocations", "@spider": "usps_collection_boxes", "addr:city": "CRESTED BUTTE", "addr:country": "US", "addr:postcode": "81224", "addr:state": "CO", "addr:street_address": "217 ELK AVE", "amenity": "post_box", "collection_times": "Mo-Sa 13:15", "note": "ON 12/24 AND 12/31, THIS BOX MAY BE COLLECTED AS EARLY AS 12 NOON.", "nsi_id": "unitedstatespostalservice-a77078", "operator": "United States Postal Service", "operator:short": "USPS", "operator:type": "public", "operator:wikidata": "Q668687", "ref": "8122400001"}, "type": "Feature"}
{"geometry": {"coordinates": [-106.884408, 38.809524], "type": "Point"}, "id": "sv3GKwzENhGr3dlnjo68hAEmFbc=", "properties": {"@source_uri": "https://tools.usps.com/UspsToolsRestServices/rest/POLocator/findLocations", "@spider": "usps_collection_boxes", "addr:city": "CRESTED BUTTE", "addr:country": "US", "addr:postcode": "81224", "addr:state": "CO", "addr:street_address": "1 TEOCALLI RD N", "amenity": "post_box", "collection_times": "Mo-Sa 10:00", "nsi_id": "unitedstatespostalservice-a77078", "operator": "United States Postal Service", "operator:short": "USPS", "operator:type": "public", "operator:wikidata": "Q668687", "ref": "8122400004"}, "type": "Feature"}
{"geometry": {"coordinates": [-106.986671, 38.869779], "type": "Point"}, "id": "fW1v4WtwADR_HjgiEfMWXUDXVBc=", "properties": {"@source_uri": "https://tools.usps.com/UspsToolsRestServices/rest/POLocator/findLocations", "@spider": "usps_collection_boxes", "addr:city": "CRESTED BUTTE", "addr:country": "US", "addr:postcode": "81224", "addr:state": "CO", "addr:street_address": "217 ELK AVE", "amenity": "post_box", "collection_times": "Mo-Sa 13:15", "note": "ON 12/24 AND 12/31, THIS BOX MAY BE COLLECTED AS EARLY AS 12 NOON.", "nsi_id": "unitedstatespostalservice-a77078", "operator": "United States Postal Service", "operator:short": "USPS", "operator:type": "public", "operator:wikidata": "Q668687", "ref": "8122400006"}, "type": "Feature"}
{"geometry": {"coordinates": [-106.982444, 38.867006], "type": "Point"}, "id": "hlX0t57dK_xwaHACwDrGS6jr2T0=", "properties": {"@source_uri": "https://tools.usps.com/UspsToolsRestServices/rest/POLocator/findLocations", "@spider": "usps_collection_boxes", "addr:city": "CRESTED BUTTE", "addr:country": "US", "addr:postcode": "81224", "addr:state": "CO", "addr:street_address": "500 BELLEVIEW", "amenity": "post_box", "collection_times": "Mo-Sa 10:30", "nsi_id": "unitedstatespostalservice-a77078", "operator": "United States Postal Service", "operator:short": "USPS", "operator:type": "public", "operator:wikidata": "Q668687", "ref": "8122400014"}, "type": "Feature"}
{"geometry": {"coordinates": [-106.981001, 38.869768], "type": "Point"}, "id": "cn0tZ0Tr0bw_47d1XfzAS2rK2qQ=", "properties": {"@source_uri": "https://tools.usps.com/UspsToolsRestServices/rest/POLocator/findLocations", "@spider": "usps_collection_boxes", "addr:city": "CRESTED BUTTE", "addr:country": "US", "addr:postcode": "81224", "addr:state": "CO", "addr:street_address": "601 ELK AVE", "amenity": "post_box", "collection_times": "Mo-Sa 10:30", "nsi_id": "unitedstatespostalservice-a77078", "operator": "United States Postal Service", "operator:short": "USPS", "operator:type": "public", "operator:wikidata": "Q668687", "ref": "8122400017"}, "type": "Feature"}
{"geometry": {"coordinates": [-106.967709, 38.900451], "type": "Point"}, "id": "pvw_DZX-cl2dCjrauEqQgFPPR4g=", "properties": {"@source_uri": "https://tools.usps.com/UspsToolsRestServices/rest/POLocator/findLocations", "@spider": "usps_collection_boxes", "addr:city": "MT CRESTED BUTTE", "addr:country": "US", "addr:postcode": "81225", "addr:state": "CO", "addr:street_address": "620 GOTHIC RD", "amenity": "post_box", "collection_times": "Mo-Sa 10:30", "nsi_id": "unitedstatespostalservice-a77078", "operator": "United States Postal Service", "operator:short": "USPS", "operator:type": "public", "operator:wikidata": "Q668687", "ref": "8122500001"}, "type": "Feature"}
{"geometry": {"coordinates": [-105.117752, 38.390214], "type": "Point"}, "id": "q6ZhT0kr2aWjEaffmOvq-qPoylc=", "properties": {"@source_uri": "https://tools.usps.com/UspsToolsRestServices/rest/POLocator/findLocations", "@spider": "usps_collection_boxes", "addr:city": "FLORENCE", "addr:country": "US", "addr:postcode": "81226", "addr:state": "CO", "addr:street_address": "121 N PIKES PEAK AVE", "amenity": "post_box", "collection_times": "Mo-Fr 15:15; Sa 12:00", "note": "ON 12/24 AND 12/31, THIS BOX MAY BE COLLECTED AS EARLY AS 12 NOON.", "nsi_id": "unitedstatespostalservice-a77078", "operator": "United States Postal Service", "operator:short": "USPS", "operator:type": "public", "operator:wikidata": "Q668687", "ref": "8122600000"}, "type": "Feature"}
{"geometry": {"coordinates": [-105.117752, 38.390214], "type": "Point"}, "id": "MnOv0uuhFsfYuDnuDwrq1Wq5c74=", "properties": {"@source_uri": "https://tools.usps.com/UspsToolsRestServices/rest/POLocator/findLocations", "@spider": "usps_collection_boxes", "addr:city": "FLORENCE", "addr:country": "US", "addr:postcode": "81226", "addr:state": "CO", "addr:street_address": "121 N PIKES PEAK AVE", "amenity": "post_box", "collection_times": "Mo-Fr 15:15; Sa 12:00", "note": "ON 12/24 AND 12/31, THIS BOX MAY BE COLLECTED AS EARLY AS 12 NOON.", "nsi_id": "unitedstatespostalservice-a77078", "operator": "United States Postal Service", "operator:short": "USPS", "operator:type": "public", "operator:wikidata": "Q668687", "ref": "8122600002"}, "type": "Feature"}
{"geometry": {"coordinates": [-105.117752, 38.390214], "type": "Point"}, "id": "JBlYvdohkyiOABN1SodHjttWeuU=", "properties": {"@source_uri": "https://tools.usps.com/UspsToolsRestServices/rest/POLocator/findLocations", "@spider": "usps_collection_boxes", "addr:city": "FLORENCE", "addr:country": "US", "addr:postcode": "81226", "addr:state": "CO", "addr:street_address": "121 N PIKES PEAK AVE", "amenity": "post_box", "collection_times": "Mo-Fr 15:15; Sa 12:00", "indoor": "yes", "note": "ON 12/24 AND 12/31, THIS BOX MAY BE COLLECTED AS EARLY AS 12 NOON.", "nsi_id": "unitedstatespostalservice-a77078", "operator": "United States Postal Service", "operator:short": "USPS", "operator:type": "public", "operator:wikidata": "Q668687", "ref": "8122600003"}, "type": "Feature"}
{"geometry": {"coordinates": [-105.117752, 38.390214], "type": "Point"}, "id": "8Tb1kX60CeSFtiqVPEyeBjK_CUE=", "properties": {"@source_uri": "https://tools.usps.com/UspsToolsRestServices/rest/POLocator/findLocations", "@spider": "usps_collection_boxes", "addr:city": "FLORENCE", "addr:country": "US", "addr:postcode": "81226", "addr:state": "CO", "addr:street_address": "121 N PIKES PEAK AVE", "amenity": "post_box", "collection_times": "Mo-Fr 15:15; Sa 12:00", "indoor": "yes", "note": "ON 12/24 AND 12/31, THIS BOX MAY BE COLLECTED AS EARLY AS 12 NOON.", "nsi_id": "unitedstatespostalservice-a77078", "operator": "United States Postal Service", "operator:short": "USPS", "operator:type": "public", "operator:wikidata": "Q668687", "ref": "8122600004"}, "type": "Feature"}
{"geometry": {"coordinates": [-106.928167, 38.546109], "type": "Point"}, "id": "q9m-XnDn3qQHe8jsktvvvkfGpsM=", "properties": {"@source_uri": "https://tools.usps.com/UspsToolsRestServices/rest/POLocator/findLocations", "@spider": "usps_collection_boxes", "addr:city": "GUNNISON", "addr:country": "US", "addr:postcode": "81230", "addr:state": "CO", "addr:street_address": "200 N WISCONSIN ST", "amenity": "post_box", "collection_times": "Mo-Sa 14:00", "note": "ON 12/24 AND 12/31, THIS BOX MAY BE COLLECTED AS EARLY AS 12 NOON.", "nsi_id": "unitedstatespostalservice-a77078", "operator": "United States Postal Service", "operator:short": "USPS", "operator:type": "public", "operator:wikidata": "Q668687", "ref": "8123000013"}, "type": "Feature"}
{"geometry": {"coordinates": [-106.928167, 38.546109], "type": "Point"}, "id": "ZMFaMZjS1ZF85JL2KekQQGmPQSE=", "properties": {"@source_uri": "https://tools.usps.com/UspsToolsRestServices/rest/POLocator/findLocations", "@spider": "usps_collection_boxes", "addr:city": "GUNNISON", "addr:country": "US", "addr:postcode": "81230", "addr:state": "CO", "addr:street_address": "200 N WISCONSIN ST", "amenity": "post_box", "collection_times": "Mo-Sa 14:00", "note": "ON 12/24 AND 12/31, THIS BOX MAY BE COLLECTED AS EARLY AS 12 NOON.", "nsi_id": "unitedstatespostalservice-a77078", "operator": "United States Postal Service", "operator:short": "USPS", "operator:type": "public", "operator:wikidata": "Q668687", "ref": "8123000014"}, "type": "Feature"}
{"geometry": {"coordinates": [-106.928167, 38.546109], "type": "Point"}, "id": "75hbEOQ9l-LYgQO-NnQ2gUe3_LM=", "properties": {"@source_uri": "https://tools.usps.com/UspsToolsRestServices/rest/POLocator/findLocations", "@spider": "usps_collection_boxes", "addr:city": "GUNNISON", "addr:country": "US", "addr:postcode": "81230", "addr:state": "CO", "addr:street_address": "200 N WISCONSIN ST", "amenity": "post_box", "collection_times": "Mo-Sa 14:00", "note": "ON 12/24 AND 12/31, THIS BOX MAY BE COLLECTED AS EARLY AS 12 NOON.", "nsi_id": "unitedstatespostalservice-a77078", "operator": "United States Postal Service", "operator:short": "USPS", "operator:type": "public", "operator:wikidata": "Q668687", "ref": "8123000015"}, "type": "Feature"}
{"geometry": {"coordinates": [-106.928167, 38.546109], "type": "Point"}, "id": "ak8KuSFMr3jU4OOb4gdDSchLxe8=", "properties": {"@source_uri": "https://tools.usps.com/UspsToolsRestServices/rest/POLocator/findLocations", "@spider": "usps_collection_boxes", "addr:city": "GUNNISON", "addr:country": "US", "addr:postcode": "81230", "addr:state": "CO", "addr:street_address": "200 N WISCONSIN ST", "amenity": "post_box", "collection_times": "Mo-Sa 14:00", "note": "ON 12/24 AND 12/31, THIS BOX MAY BE COLLECTED AS EARLY AS 12 NOON.", "nsi_id": "unitedstatespostalservice-a77078", "operator": "United States Postal Service", "operator:short": "USPS", "operator:type": "public", "operator:wikidata": "Q668687", "ref": "8123000017"}, "type": "Feature"}
{"geometry": {"coordinates": [-106.928167, 38.546109], "type": "Point"}, "id": "z9CKmlmKXmYhRyLGoYRgK21EkKc=", "properties": {"@source_uri": "https://tools.usps.com/UspsToolsRestServices/rest/POLocator/findLocations", "@spider": "usps_collection_boxes", "addr:city": "GUNNISON", "addr:country": "US", "addr:postcode": "81230", "addr:state": "CO", "addr:street_address": "200 N WISCONSIN ST", "amenity": "post_box", "collection_times": "Mo-Sa 14:00", "indoor": "yes", "note": "ON 12/24 AND 12/31, THIS BOX MAY BE COLLECTED AS EARLY AS 12 NOON.", "nsi_id": "unitedstatespostalservice-a77078", "operator": "United States Postal Service", "operator:short": "USPS", "operator:type": "public", "operator:wikidata": "Q668687", "ref": "8123000018"}, "type": "Feature"}
{"geometry": {"coordinates": [-106.926886344, 38.553408], "type": "Point"}, "id": "9XASl1YeXG4vdhIRqWWWl-SoVlM=", "properties": {"@source_uri": "https://tools.usps.com/UspsToolsRestServices/rest/POLocator/findLocations", "@spider": "usps_collection_boxes", "addr:city": "GUNNISON", "addr:country": "US", "addr:postcode": "81230", "addr:state": "CO", "addr:street_address": "880 N MAIN ST", "amenity": "post_box", "collection_times": "Mo-Sa 10:30", "nsi_id": "unitedstatespostalservice-a77078", "operator": "United States Postal Service", "operator:short": "USPS", "operator:type": "public", "operator:wikidata": "Q668687", "ref": "8123000024"}, "type": "Feature"}
{"geometry": {"coordinates": [-105.833783, 38.432839], "type": "Point"}, "id": "C3Fq5jSY8fyUfXjo1XnbJh-BwDo=", "properties": {"@source_uri": "https://tools.usps.com/UspsToolsRestServices/rest/POLocator/findLocations", "@spider": "usps_collection_boxes", "addr:city": "HOWARD", "addr:country": "US", "addr:postcode": "81233", "addr:state": "CO", "addr:street_address": "9232 US HIGHWAY 50", "amenity": "post_box", "collection_times": "Mo-Fr 11:00; Sa 09:45", "nsi_id": "unitedstatespostalservice-a77078", "operator": "United States Postal Service", "operator:short": "USPS", "operator:type": "public", "operator:wikidata": "Q668687", "ref": "8123300000"}, "type": "Feature"}
{"geometry": {"coordinates": [-105.833783, 38.432839], "type": "Point"}, "id": "3HllMjv_yUvlCx1XcS4-wq8VA40=", "properties": {"@source_uri": "https://tools.usps.com/UspsToolsRestServices/rest/POLocator/findLocations", "@spider": "usps_collection_boxes", "addr:city": "HOWARD", "addr:country": "US", "addr:postcode": "81233", "addr:state": "CO", "addr:street_address": "9232 US HIGHWAY 50", "amenity": "post_box", "collection_times": "Mo-Fr 11:00; Sa 09:45", "indoor": "yes", "nsi_id": "unitedstatespostalservice-a77078", "operator": "United States Postal Service", "operator:short": "USPS", "operator:type": "public", "operator:wikidata": "Q668687", "ref": "8123300001"}, "type": "Feature"}
{"geometry": {"coordinates": [-107.31291, 38.034833], "type": "Point"}, "id": "B_G_5sA8_got6843OyzhJ75cGT8=", "properties": {"@source_uri": "https://tools.usps.com/UspsToolsRestServices/rest/POLocator/findLocations", "@spider": "usps_collection_boxes", "addr:city": "LAKE CITY", "addr:country": "US", "addr:postcode": "81235", "addr:state": "CO", "addr:street_address": "803 GUNNISON AVE", "amenity": "post_box", "collection_times": "Mo-Sa 12:15", "note": "ON 12/24 AND 12/31, THIS BOX MAY BE COLLECTED AS EARLY AS 12 NOON.", "nsi_id": "unitedstatespostalservice-a77078", "operator": "United States Postal Service", "operator:short": "USPS", "operator:type": "public", "operator:wikidata": "Q668687", "ref": "8123500000"}, "type": "Feature"}
{"geometry": {"coordinates": [-107.31291, 38.034833], "type": "Point"}, "id": "hhSgthJQwEAakU0-eTXBwf7-koc=", "properties": {"@source_uri": "https://tools.usps.com/UspsToolsRestServices/rest/POLocator/findLocations", "@spider": "usps_collection_boxes", "addr:city": "LAKE CITY", "addr:country": "US", "addr:postcode": "81235", "addr:state": "CO", "addr:street_address": "803 GUNNISON AVE", "amenity": "post_box", "collection_times": "Mo-Sa 12:15", "indoor": "yes", "note": "ON 12/24 AND 12/31, THIS BOX MAY BE COLLECTED AS EARLY AS 12 NOON.", "nsi_id": "unitedstatespostalservice-a77078", "operator": "United States Postal Service", "operator:short": "USPS", "operator:type": "public", "operator:wikidata": "Q668687", "ref": "8123500001"}, "type": "Feature"}
{"geometry": {"coordinates": [-106.080993, 38.747354], "type": "Point"}, "id": "BaXKbiRiAKazH0-scH716txRckQ=", "properties": {"@source_uri": "https://tools.usps.com/UspsToolsRestServices/rest/POLocator/findLocations", "@spider": "usps_collection_boxes", "addr:city": "NATHROP", "addr:country": "US", "addr:postcode": "81236", "addr:state": "CO", "addr:street_address": "22617 US HIGHWAY 285", "amenity": "post_box", "collection_times": "Mo-Fr 13:45; Sa 10:00", "note": "ON 12/24 AND 12/31, THIS BOX MAY BE COLLECTED AS EARLY AS 12 NOON.", "nsi_id": "unitedstatespostalservice-a77078", "operator": "United States Postal Service", "operator:short": "USPS", "operator:type": "public", "operator:wikidata": "Q668687", "ref": "8123600000"}, "type": "Feature"}
{"geometry": {"coordinates": [-106.080993, 38.747354], "type": "Point"}, "id": "Du6FXwMEU0UAzevzV-RlMpwB7vE=", "properties": {"@source_uri": "https://tools.usps.com/UspsToolsRestServices/rest/POLocator/findLocations", "@spider": "usps_collection_boxes", "addr:city": "NATHROP", "addr:country": "US", "addr:postcode": "81236", "addr:state": "CO", "addr:street_address": "22617 US HIGHWAY 285", "amenity": "post_box", "collection_times": "Mo-Fr 13:45; Sa 10:00", "indoor": "yes", "note": "ON 12/24 AND 12/31, THIS BOX MAY BE COLLECTED AS EARLY AS 12 NOON.", "nsi_id": "unitedstatespostalservice-a77078", "operator": "United States Postal Service", "operator:short": "USPS", "operator:type": "public", "operator:wikidata": "Q668687", "ref": "8123600001"}, "type": "Feature"}
{"geometry": {"coordinates": [-106.727931, 38.50258], "type": "Point"}, "id": "K9j6k6Xp82VEsifH6CtjSwqE5Jg=", "properties": {"@source_uri": "https://tools.usps.com/UspsToolsRestServices/rest/POLocator/findLocations", "@spider": "usps_collection_boxes", "addr:city": "PARLIN", "addr:country": "US", "addr:postcode": "81239", "addr:state": "CO", "addr:street_address": "51387 US HIGHWAY 50", "amenity": "post_box", "collection_times": "Mo-Sa 10:00", "indoor": "yes", "nsi_id": "unitedstatespostalservice-a77078", "operator": "United States Postal Service", "operator:short": "USPS", "operator:type": "public", "operator:wikidata": "Q668687", "ref": "8123900000"}, "type": "Feature"}
{"geometry": {"coordinates": [-106.727931, 38.50258], "type": "Point"}, "id": "SGnT2NdoKXhW6fxOUKPnGxiyAQY=", "properties": {"@source_uri": "https://tools.usps.com/UspsToolsRestServices/rest/POLocator/findLocations", "@spider": "usps_collection_boxes", "addr:city": "PARLIN", "addr:country": "US", "addr:postcode": "81239", "addr:state": "CO", "addr:street_address": "51387 US HIGHWAY 50", "amenity": "post_box", "collection_times": "Mo-Fr 14:15; Sa 10:00", "note": "ON 12/24 AND 12/31, THIS BOX MAY BE COLLECTED AS EARLY AS 12 NOON.", "nsi_id": "unitedstatespostalservice-a77078", "operator": "United States Postal Service", "operator:short": "USPS", "operator:type": "public", "operator:wikidata": "Q668687", "ref": "8123900001"}, "type": "Feature"}
{"geometry": {"coordinates": [-105.0249199779, 38.4317510102], "type": "Point"}, "id": "Gkt8gz3KDO1qjahyhIVGgRfKQio=", "properties": {"@source_uri": "https://tools.usps.com/UspsToolsRestServices/rest/POLocator/findLocations", "@spider": "usps_collection_boxes", "addr:city": "PENROSE", "addr:country": "US", "addr:postcode": "81240", "addr:state": "CO", "addr:street_address": "15 WERNER RD", "amenity": "post_box", "collection_times": "Mo-Fr 15:00; Sa 16:00", "note": "ON 12/24 AND 12/31, THIS BOX MAY BE COLLECTED AS EARLY AS 12 NOON.", "nsi_id": "unitedstatespostalservice-a77078", "operator": "United States Postal Service", "operator:short": "USPS", "operator:type": "public", "operator:wikidata": "Q668687", "ref": "8124000000"}, "type": "Feature"}
{"geometry": {"coordinates": [-105.024407, 38.43188], "type": "Point"}, "id": "dTw-u9jN7UeBm7C_8vBZK0qBPHE=", "properties": {"@source_uri": "https://tools.usps.com/UspsToolsRestServices/rest/POLocator/findLocations", "@spider": "usps_collection_boxes", "addr:city": "PENROSE", "addr:country": "US", "addr:postcode": "81240", "addr:state": "CO", "addr:street_address": "15 WERNER RD", "amenity": "post_box", "collection_times": "Mo-Fr 15:00; Sa 11:30", "indoor": "yes", "note": "ON 12/24 AND 12/31, THIS BOX MAY BE COLLECTED AS EARLY AS 12 NOON.", "nsi_id": "unitedstatespostalservice-a77078", "operator": "United States Postal Service", "operator:short": "USPS", "operator:type": "public", "operator:wikidata": "Q668687", "ref": "8124000001"}, "type": "Feature"}
{"geometry": {"coordinates": [-106.519445, 38.608086], "type": "Point"}, "id": "3gIUuG5MVKgyC0MZQgvz8ZYX-pk=", "properties": {"@source_uri": "https://tools.usps.com/UspsToolsRestServices/rest/POLocator/findLocations", "@spider": "usps_collection_boxes", "addr:city": "PITKIN", "addr:country": "US", "addr:postcode": "81241", "addr:state": "CO", "addr:street_address": "419 MAIN ST", "amenity": "post_box", "collection_times": "Mo-Sa 11:00", "nsi_id": "unitedstatespostalservice-a77078", "operator": "United States Postal Service", "operator:short": "USPS", "operator:type": "public", "operator:wikidata": "Q668687", "ref": "8124100000"}, "type": "Feature"}
{"geometry": {"coordinates": [-106.519445, 38.608086], "type": "Point"}, "id": "gPJmK0TQTARMfYua4jUfK7_tWG8=", "properties": {"@source_uri": "https://tools.usps.com/UspsToolsRestServices/rest/POLocator/findLocations", "@spider": "usps_collection_boxes", "addr:city": "PITKIN", "addr:country": "US", "addr:postcode": "81241", "addr:state": "CO", "addr:street_address": "419 MAIN ST", "amenity": "post_box", "collection_times": "Mo-Sa 11:00", "indoor": "yes", "nsi_id": "unitedstatespostalservice-a77078", "operator": "United States Postal Service", "operator:short": "USPS", "operator:type": "public", "operator:wikidata": "Q668687", "ref": "8124100001"}, "type": "Feature"}
{"geometry": {"coordinates": [-106.08812, 38.422244], "type": "Point"}, "id": "jajOfQ5XciAWxKRKjECt9UqPYZU=", "properties": {"@source_uri": "https://tools.usps.com/UspsToolsRestServices/rest/POLocator/findLocations", "@spider": "usps_collection_boxes", "addr:city": "PONCHA SPRINGS", "addr:country": "US", "addr:postcode": "81242", "addr:state": "CO", "addr:street_address": "6500 US HIGHWAY 285", "amenity": "post_box", "collection_times": "Mo-Fr 15:30; Sa 12:00", "note": "ON 12/24 AND 12/31, THIS BOX MAY BE COLLECTED AS EARLY AS 12 NOON.", "nsi_id": "unitedstatespostalservice-a77078", "operator": "United States Postal Service", "operator:short": "USPS", "operator:type": "public", "operator:wikidata": "Q668687", "ref": "8124200002"}, "type": "Feature"}
{"geometry": {"coordinates": [-107.129926, 38.274721], "type": "Point"}, "id": "pvB3xmCexY-n__0Vs3ZX-5XVld8=", "properties": {"@source_uri": "https://tools.usps.com/UspsToolsRestServices/rest/POLocator/findLocations", "@spider": "usps_collection_boxes", "addr:city": "POWDERHORN", "addr:country": "US", "addr:postcode": "81243", "addr:state": "CO", "addr:street_address": "616 COUNTY ROAD 28", "amenity": "post_box", "collection_times": "Mo-Sa 12:45", "note": "ON 12/24 AND 12/31, THIS BOX MAY BE COLLECTED AS EARLY AS 12 NOON.", "nsi_id": "unitedstatespostalservice-a77078", "operator": "United States Postal Service", "operator:short": "USPS", "operator:type": "public", "operator:wikidata": "Q668687", "ref": "8124300001"}, "type": "Feature"}
{"geometry": {"coordinates": [-105.163945, 38.368638], "type": "Point"}, "id": "oBSfz4r2KADBMxipTEb56s8QLUw=", "properties": {"@source_uri": "https://tools.usps.com/UspsToolsRestServices/rest/POLocator/findLocations", "@spider": "usps_collection_boxes", "addr:city": "ROCKVALE", "addr:country": "US", "addr:postcode": "81244", "addr:state": "CO", "addr:street_address": "615 RAILROAD ST", "amenity": "post_box", "collection_times": "Mo-Fr 13:30; Sa 11:00", "note": "ON 12/24 AND 12/31, THIS BOX MAY BE COLLECTED AS EARLY AS 12 NOON.", "nsi_id": "unitedstatespostalservice-a77078", "operator": "United States Postal Service", "operator:short": "USPS", "operator:type": "public", "operator:wikidata": "Q668687", "ref": "8124400000"}, "type": "Feature"}
{"geometry": {"coordinates": [-105.164009, 38.368591], "type": "Point"}, "id": "jJefw1VHNLLpHbAPnbTQ417hyxM=", "properties": {"@source_uri": "https://tools.usps.com/UspsToolsRestServices/rest/POLocator/findLocations", "@spider": "usps_collection_boxes", "addr:city": "ROCKVALE", "addr:country": "US", "addr:postcode": "81244", "addr:state": "CO", "addr:street_address": "615 RAILROAD ST", "amenity": "post_box", "collection_times": "Mo-Fr 13:30; Sa 11:00", "indoor": "yes", "note": "ON 12/24 AND 12/31, THIS BOX MAY BE COLLECTED AS EARLY AS 12 NOON.", "nsi_id": "unitedstatespostalservice-a77078", "operator": "United States Postal Service", "operator:short": "USPS", "operator:type": "public", "operator:wikidata": "Q668687", "ref": "8124400001"}, "type": "Feature"}
{"geometry": {"coordinates": [-106.415119, 38.403151], "type": "Point"}, "id": "Pe2u2-Z6u0wQxu0cPKnq3HW6pmM=", "properties": {"@source_uri": "https://tools.usps.com/UspsToolsRestServices/rest/POLocator/findLocations", "@spider": "usps_collection_boxes", "addr:city": "SARGENTS", "addr:country": "US", "addr:postcode": "81248", "addr:state": "CO", "addr:street_address": "174 MEANS AVE", "amenity": "post_box", "collection_times": "Mo-Fr 14:30; Sa 09:30", "note": "ON 12/24 AND 12/31, THIS BOX MAY BE COLLECTED AS EARLY AS 12 NOON.", "nsi_id": "unitedstatespostalservice-a77078", "operator": "United States Postal Service", "operator:short": "USPS", "operator:type": "public", "operator:wikidata": "Q668687", "ref": "8124800000"}, "type": "Feature"}
{"geometry": {"coordinates": [-106.415083, 38.403106], "type": "Point"}, "id": "wo3pS9Le7ccYlzPnMljwVVRDnCU=", "properties": {"@source_uri": "https://tools.usps.com/UspsToolsRestServices/rest/POLocator/findLocations", "@spider": "usps_collection_boxes", "addr:city": "SARGENTS", "addr:country": "US", "addr:postcode": "81248", "addr:state": "CO", "addr:street_address": "174 MEANS AVE", "amenity": "post_box", "collection_times": "Mo-Fr 14:30; Sa 09:30", "indoor": "yes", "note": "ON 12/24 AND 12/31, THIS BOX MAY BE COLLECTED AS EARLY AS 12 NOON.", "nsi_id": "unitedstatespostalservice-a77078", "operator": "United States Postal Service", "operator:short": "USPS", "operator:type": "public", "operator:wikidata": "Q668687", "ref": "8124800001"}, "type": "Feature"}
{"geometry": {"coordinates": [-105.459256, 38.13525], "type": "Point"}, "id": "EBRJt_Abjb5SsyBR7Y5CEsffyio=", "properties": {"@source_uri": "https://tools.usps.com/UspsToolsRestServices/rest/POLocator/findLocations", "@spider": "usps_collection_boxes", "addr:city": "WESTCLIFFE", "addr:country": "US", "addr:postcode": "81252", "addr:state": "CO", "addr:street_address": "4 BASSICK PL", "amenity": "post_box", "collection_times": "Mo-Fr 14:15; Sa 11:00", "note": "ON 12/24 AND 12/31, THIS BOX MAY BE COLLECTED AS EARLY AS 12 NOON.", "nsi_id": "unitedstatespostalservice-a77078", "operator": "United States Postal Service", "operator:short": "USPS", "operator:type": "public", "operator:wikidata": "Q668687", "ref": "8125200000"}, "type": "Feature"}
{"geometry": {"coordinates": [-105.459256, 38.13525], "type": "Point"}, "id": "p4F0k5HTwSeclroq5HpVUu6bX6o=", "properties": {"@source_uri": "https://tools.usps.com/UspsToolsRestServices/rest/POLocator/findLocations", "@spider": "usps_collection_boxes", "addr:city": "WESTCLIFFE", "addr:country": "US", "addr:postcode": "81252", "addr:state": "CO", "addr:street_address": "4 BASSICK PL", "amenity": "post_box", "collection_times": "Mo-Fr 14:15; Sa 11:00", "indoor": "yes", "note": "ON 12/24 AND 12/31, THIS BOX MAY BE COLLECTED AS EARLY AS 12 NOON.", "nsi_id": "unitedstatespostalservice-a77078", "operator": "United States Postal Service", "operator:short": "USPS", "operator:type": "public", "operator:wikidata": "Q668687", "ref": "8125200002"}, "type": "Feature"}
{"geometry": {"coordinates": [-105.084915, 38.236345], "type": "Point"}, "id": "8xL-3JptafmybwJjBkcrd9WCvDE=", "properties": {"@source_uri": "https://tools.usps.com/UspsToolsRestServices/rest/POLocator/findLocations", "@spider": "usps_collection_boxes", "addr:city": "WETMORE", "addr:country": "US", "addr:postcode": "81253", "addr:state": "CO", "addr:street_address": "682 COUNTY ROAD 395", "amenity": "post_box", "collection_times": "Mo-Fr 13:00; Sa 12:00", "indoor": "yes", "note": "ON 12/24 AND 12/31, THIS BOX MAY BE COLLECTED AS EARLY AS 12 NOON.", "nsi_id": "unitedstatespostalservice-a77078", "operator": "United States Postal Service", "operator:short": "USPS", "operator:type": "public", "operator:wikidata": "Q668687", "ref": "8125300001"}, "type": "Feature"}
