{"dataset_attributes": {"@spider": "usps_collection_boxes", "spider:collection_time": "2023-12-31T08:23:44.423400"}, "geometry": {"coordinates": [-107.882175, 37.272528], "type": "Point"}, "id": "wJJQXz_XVjjG0veZwLxFiDLabIk=", "properties": {"@spider": "usps_collection_boxes", "addr:city": "DURANGO", "addr:country": "US", "addr:full": "222 W 8TH ST", "addr:postcode": "81301", "addr:state": "CO", "amenity": "post_box", "brand": "United States Postal Service", "brand:wikidata": "Q668687", "collection_times": "Mo-Sa 15:00", "name": "USPS COLLECTION BOX - BLUE BOX", "note": "ON 12/24 AND 12/31, THIS BOX MAY BE COLLECTED AS EARLY AS 12 NOON.", "nsi_id": "unitedstatespostalservice-a77078", "operator": "United States Postal Service", "operator:short": "USPS", "operator:type": "public", "operator:wikidata": "Q668687", "ref": "8130100000"}, "type": "Feature"}
{"dataset_attributes": {"@spider": "usps_collection_boxes", "spider:collection_time": "2023-12-31T08:23:44.423400"}, "geometry": {"coordinates": [-107.882062, 37.27253], "type": "Point"}, "id": "mN1g6LDLiKIeifw8rZr7gYRS0vo=", "properties": {"@spider": "usps_collection_boxes", "addr:city": "DURANGO", "addr:country": "US", "addr:full": "222 W 8TH ST", "addr:postcode": "81301", "addr:state": "CO", "amenity": "post_box", "brand": "United States Postal Service", "brand:wikidata": "Q668687", "collection_times": "Mo-Fr 15:00; Sa 12:45", "name": "USPS COLLECTION BOX - EXPRESS", "note": "ON 12/24 AND 12/31, THIS BOX MAY BE COLLECTED AS EARLY AS 12 NOON.", "nsi_id": "unitedstatespostalservice-a77078", "operator": "United States Postal Service", "operator:short": "USPS", "operator:type": "public", "operator:wikidata": "Q668687", "ref": "8130100003"}, "type": "Feature"}
{"dataset_attributes": {"@spider": "usps_collection_boxes", "spider:collection_time": "2023-12-31T08:23:44.423400"}, "geometry": {"coordinates": [-107.877467, 37.250685], "type": "Point"}, "id": "WBIHN3S9bvJvFyOr3SA0UOVCgTk=", "properties": {"@spider": "usps_collection_boxes", "addr:city": "DURANGO", "addr:country": "US", "addr:full": "343 S CAMINO DEL RIO", "addr:postcode": "81301", "addr:state": "CO", "amenity": "post_box", "brand": "United States Postal Service", "brand:wikidata": "Q668687", "collection_times": "Mo-Sa 13:00", "name": "USPS COLLECTION BOX - BLUE BOX", "note": "ON 12/24 AND 12/31, THIS BOX MAY BE COLLECTED AS EARLY AS 12 NOON.", "nsi_id": "unitedstatespostalservice-a77078", "operator": "United States Postal Service", "operator:short": "USPS", "operator:type": "public", "operator:wikidata": "Q668687", "ref": "8130100004"}, "type": "Feature"}
{"dataset_attributes": {"@spider": "usps_collection_boxes", "spider:collection_time": "2023-12-31T08:23:44.423400"}, "geometry": {"coordinates": [-107.875404, 37.246767], "type": "Point"}, "id": "MCSNJSuNnRteTkR0GEHkKVAgXU4=", "properties": {"@spider": "usps_collection_boxes", "addr:city": "DURANGO", "addr:country": "US", "addr:full": "15 BODO DR", "addr:postcode": "81301", "addr:state": "CO", "amenity": "post_box", "brand": "United States Postal Service", "brand:wikidata": "Q668687", "collection_times": "Mo-Sa 13:00", "name": "USPS COLLECTION BOX - BLUE BOX", "note": "ON 12/24 AND 12/31, THIS BOX MAY BE COLLECTED AS EARLY AS 12 NOON.", "nsi_id": "unitedstatespostalservice-a77078", "operator": "United States Postal Service", "operator:short": "USPS", "operator:type": "public", "operator:wikidata": "Q668687", "ref": "8130100006"}, "type": "Feature"}
{"dataset_attributes": {"@spider": "usps_collection_boxes", "spider:collection_time": "2023-12-31T08:23:44.423400"}, "geometry": {"coordinates": [-107.878217, 37.243672], "type": "Point"}, "id": "chY4tViHCmtHsvlL-TEJWUJctAE=", "properties": {"@spider": "usps_collection_boxes", "addr:city": "DURANGO", "addr:country": "US", "addr:full": "484 TURNER DR", "addr:postcode": "81301", "addr:state": "CO", "amenity": "post_box", "brand": "United States Postal Service", "brand:wikidata": "Q668687", "collection_times": "Mo-Sa 13:00", "name": "USPS COLLECTION BOX - BLUE BOX", "note": "ON 12/24 AND 12/31, THIS BOX MAY BE COLLECTED AS EARLY AS 12 NOON.", "nsi_id": "unitedstatespostalservice-a77078", "operator": "United States Postal Service", "operator:short": "USPS", "operator:type": "public", "operator:wikidata": "Q668687", "ref": "8130100007"}, "type": "Feature"}
{"dataset_attributes": {"@spider": "usps_collection_boxes", "spider:collection_time": "2023-12-31T08:23:44.423400"}, "geometry": {"coordinates": [-107.882159, 37.26936], "type": "Point"}, "id": "G-jKGMyu9-pp6yWNIlWgpmRHGTw=", "properties": {"@spider": "usps_collection_boxes", "addr:city": "DURANGO", "addr:country": "US", "addr:full": "501 MAIN AVE", "addr:postcode": "81301", "addr:state": "CO", "amenity": "post_box", "brand": "United States Postal Service", "brand:wikidata": "Q668687", "collection_times": "Mo-Sa 14:45", "name": "USPS COLLECTION BOX - BLUE BOX", "note": "ON 12/24 AND 12/31, THIS BOX MAY BE COLLECTED AS EARLY AS 12 NOON.", "nsi_id": "unitedstatespostalservice-a77078", "operator": "United States Postal Service", "operator:short": "USPS", "operator:type": "public", "operator:wikidata": "Q668687", "ref": "8130100010"}, "type": "Feature"}
{"dataset_attributes": {"@spider": "usps_collection_boxes", "spider:collection_time": "2023-12-31T08:23:44.423400"}, "geometry": {"coordinates": [-107.880039, 37.275119], "type": "Point"}, "id": "xSZd6n5BcKjO1AFu5xvqip_x2ls=", "properties": {"@spider": "usps_collection_boxes", "addr:city": "DURANGO", "addr:country": "US", "addr:full": "1060 MAIN AVE", "addr:postcode": "81301", "addr:state": "CO", "amenity": "post_box", "brand": "United States Postal Service", "brand:wikidata": "Q668687", "collection_times": "Mo-Sa 14:40", "name": "USPS COLLECTION BOX - BLUE BOX", "note": "ON 12/24 AND 12/31, THIS BOX MAY BE COLLECTED AS EARLY AS 12 NOON.", "nsi_id": "unitedstatespostalservice-a77078", "operator": "United States Postal Service", "operator:short": "USPS", "operator:type": "public", "operator:wikidata": "Q668687", "ref": "8130100015"}, "type": "Feature"}
{"dataset_attributes": {"@spider": "usps_collection_boxes", "spider:collection_time": "2023-12-31T08:23:44.423400"}, "geometry": {"coordinates": [-107.878619, 37.275147], "type": "Point"}, "id": "v735zpWfAWl-onLviJk4qX5EkcA=", "properties": {"@spider": "usps_collection_boxes", "addr:city": "DURANGO", "addr:country": "US", "addr:full": "1060 E 2ND AVE", "addr:postcode": "81301", "addr:state": "CO", "amenity": "post_box", "brand": "United States Postal Service", "brand:wikidata": "Q668687", "collection_times": "Mo-Sa 14:50", "name": "USPS COLLECTION BOX - BLUE BOX", "note": "ON 12/24 AND 12/31, THIS BOX MAY BE COLLECTED AS EARLY AS 12 NOON.", "nsi_id": "unitedstatespostalservice-a77078", "operator": "United States Postal Service", "operator:short": "USPS", "operator:type": "public", "operator:wikidata": "Q668687", "ref": "8130100016"}, "type": "Feature"}
{"dataset_attributes": {"@spider": "usps_collection_boxes", "spider:collection_time": "2023-12-31T08:23:44.423400"}, "geometry": {"coordinates": [-107.878619, 37.275146], "type": "Point"}, "id": "JKV_bXzi-Za3AumrWxVGiGfZ4ZE=", "properties": {"@spider": "usps_collection_boxes", "addr:city": "DURANGO", "addr:country": "US", "addr:full": "1060 E 2ND AVE", "addr:postcode": "81301", "addr:state": "CO", "amenity": "post_box", "brand": "United States Postal Service", "brand:wikidata": "Q668687", "collection_times": "Mo-Sa 14:50", "name": "USPS COLLECTION BOX - BLUE BOX", "note": "ON 12/24 AND 12/31, THIS BOX MAY BE COLLECTED AS EARLY AS 12 NOON.", "nsi_id": "unitedstatespostalservice-a77078", "operator": "United States Postal Service", "operator:short": "USPS", "operator:type": "public", "operator:wikidata": "Q668687", "ref": "8130100017"}, "type": "Feature"}
{"dataset_attributes": {"@spider": "usps_collection_boxes", "spider:collection_time": "2023-12-31T08:23:44.423400"}, "geometry": {"coordinates": [-107.879681, 37.272417], "type": "Point"}, "id": "4BgTeG9lMf3d2xz-s9TvVmfuZEQ=", "properties": {"@spider": "usps_collection_boxes", "addr:city": "DURANGO", "addr:country": "US", "addr:full": "835 E 2ND AVE", "addr:postcode": "81301", "addr:state": "CO", "amenity": "post_box", "brand": "United States Postal Service", "brand:wikidata": "Q668687", "collection_times": "Mo-Sa 15:00", "name": "USPS COLLECTION BOX - BLUE BOX", "note": "ON 12/24 AND 12/31, THIS BOX MAY BE COLLECTED AS EARLY AS 12 NOON.", "nsi_id": "unitedstatespostalservice-a77078", "operator": "United States Postal Service", "operator:short": "USPS", "operator:type": "public", "operator:wikidata": "Q668687", "ref": "8130100020"}, "type": "Feature"}
{"dataset_attributes": {"@spider": "usps_collection_boxes", "spider:collection_time": "2023-12-31T08:23:44.423400"}, "geometry": {"coordinates": [-107.882672, 37.274587], "type": "Point"}, "id": "XJwGmZ029vker-EvAzO4PgSzwNo=", "properties": {"@spider": "usps_collection_boxes", "addr:city": "DURANGO", "addr:country": "US", "addr:full": "6 TOWN PLZ", "addr:postcode": "81301", "addr:state": "CO", "amenity": "post_box", "brand": "United States Postal Service", "brand:wikidata": "Q668687", "collection_times": "Mo-Sa 14:30", "name": "USPS COLLECTION BOX - BLUE BOX", "note": "ON 12/24 AND 12/31, THIS BOX MAY BE COLLECTED AS EARLY AS 12 NOON.", "nsi_id": "unitedstatespostalservice-a77078", "operator": "United States Postal Service", "operator:short": "USPS", "operator:type": "public", "operator:wikidata": "Q668687", "ref": "8130100023"}, "type": "Feature"}
{"dataset_attributes": {"@spider": "usps_collection_boxes", "spider:collection_time": "2023-12-31T08:23:44.423400"}, "geometry": {"coordinates": [-107.879409, 37.277552], "type": "Point"}, "id": "-IIHV9wT7w13VTDB-ZGl2vGJheg=", "properties": {"@spider": "usps_collection_boxes", "addr:city": "DURANGO", "addr:country": "US", "addr:full": "1315 MAIN AVE", "addr:postcode": "81301", "addr:state": "CO", "amenity": "post_box", "brand": "United States Postal Service", "brand:wikidata": "Q668687", "collection_times": "Mo-Sa 14:35", "name": "USPS COLLECTION BOX - BLUE BOX", "note": "ON 12/24 AND 12/31, THIS BOX MAY BE COLLECTED AS EARLY AS 12 NOON.", "nsi_id": "unitedstatespostalservice-a77078", "operator": "United States Postal Service", "operator:short": "USPS", "operator:type": "public", "operator:wikidata": "Q668687", "ref": "8130100031"}, "type": "Feature"}
{"dataset_attributes": {"@spider": "usps_collection_boxes", "spider:collection_time": "2023-12-31T08:23:44.423400"}, "geometry": {"coordinates": [-107.987849, 37.264975], "type": "Point"}, "id": "ikcKxXBlhzs0IBU14tyoWaLqn3M=", "properties": {"@spider": "usps_collection_boxes", "addr:city": "DURANGO", "addr:country": "US", "addr:full": "499 ASPEN DR", "addr:postcode": "81301", "addr:state": "CO", "amenity": "post_box", "brand": "United States Postal Service", "brand:wikidata": "Q668687", "collection_times": "Mo-Sa 12:00", "name": "USPS COLLECTION BOX - BLUE BOX", "nsi_id": "unitedstatespostalservice-a77078", "operator": "United States Postal Service", "operator:short": "USPS", "operator:type": "public", "operator:wikidata": "Q668687", "ref": "8130100033"}, "type": "Feature"}
{"dataset_attributes": {"@spider": "usps_collection_boxes", "spider:collection_time": "2023-12-31T08:23:44.423400"}, "geometry": {"coordinates": [-107.996542, 37.264713], "type": "Point"}, "id": "LRMJ5l4Uo84jyCkbsrawKo82Q6w=", "properties": {"@spider": "usps_collection_boxes", "addr:city": "DURANGO", "addr:country": "US", "addr:full": "2 TRAIL WOOD DR", "addr:postcode": "81301", "addr:state": "CO", "amenity": "post_box", "brand": "United States Postal Service", "brand:wikidata": "Q668687", "collection_times": "Mo-Sa 11:00", "name": "USPS COLLECTION BOX - BLUE BOX", "nsi_id": "unitedstatespostalservice-a77078", "operator": "United States Postal Service", "operator:short": "USPS", "operator:type": "public", "operator:wikidata": "Q668687", "ref": "8130100036"}, "type": "Feature"}
{"dataset_attributes": {"@spider": "usps_collection_boxes", "spider:collection_time": "2023-12-31T08:23:44.423400"}, "geometry": {"coordinates": [-107.879217, 37.273926], "type": "Point"}, "id": "FuNLyFphpbl7oe-WwOQtuQ86eu8=", "properties": {"@spider": "usps_collection_boxes", "addr:city": "DURANGO", "addr:country": "US", "addr:full": "949 E 2ND AVE", "addr:postcode": "81301", "addr:state": "CO", "amenity": "post_box", "brand": "United States Postal Service", "brand:wikidata": "Q668687", "collection_times": "Mo-Sa 14:55", "name": "USPS COLLECTION BOX - BLUE BOX", "note": "ON 12/24 AND 12/31, THIS BOX MAY BE COLLECTED AS EARLY AS 12 NOON.", "nsi_id": "unitedstatespostalservice-a77078", "operator": "United States Postal Service", "operator:short": "USPS", "operator:type": "public", "operator:wikidata": "Q668687", "ref": "8130100037"}, "type": "Feature"}
{"dataset_attributes": {"@spider": "usps_collection_boxes", "spider:collection_time": "2023-12-31T08:23:44.423400"}, "geometry": {"coordinates": [-107.882062, 37.27253], "type": "Point"}, "id": "EYcpTivg2LrJSaYYK9n899W-aoQ=", "properties": {"@spider": "usps_collection_boxes", "addr:city": "DURANGO", "addr:country": "US", "addr:full": "222 W 8TH ST", "addr:postcode": "81301", "addr:state": "CO", "amenity": "post_box", "brand": "United States Postal Service", "brand:wikidata": "Q668687", "collection_times": "Mo-Sa 15:00", "name": "USPS COLLECTION BOX - PO LOBBY", "note": "ON 12/24 AND 12/31, THIS BOX MAY BE COLLECTED AS EARLY AS 12 NOON.", "nsi_id": "unitedstatespostalservice-a77078", "operator": "United States Postal Service", "operator:short": "USPS", "operator:type": "public", "operator:wikidata": "Q668687", "ref": "8130100041"}, "type": "Feature"}
{"dataset_attributes": {"@spider": "usps_collection_boxes", "spider:collection_time": "2023-12-31T08:23:44.423400"}, "geometry": {"coordinates": [-107.870471, 37.299873], "type": "Point"}, "id": "qN17HOUt_QR0aVYodTo8miAu6EM=", "properties": {"@spider": "usps_collection_boxes", "addr:city": "DURANGO", "addr:country": "US", "addr:full": "3130 MAIN AVE", "addr:postcode": "81301", "addr:state": "CO", "amenity": "post_box", "brand": "United States Postal Service", "brand:wikidata": "Q668687", "collection_times": "Mo-Sa 13:00", "name": "USPS COLLECTION BOX - BLUE BOX", "note": "ON 12/24 AND 12/31, THIS BOX MAY BE COLLECTED AS EARLY AS 12 NOON.", "nsi_id": "unitedstatespostalservice-a77078", "operator": "United States Postal Service", "operator:short": "USPS", "operator:type": "public", "operator:wikidata": "Q668687", "ref": "8130100045"}, "type": "Feature"}
{"dataset_attributes": {"@spider": "usps_collection_boxes", "spider:collection_time": "2023-12-31T08:23:44.423400"}, "geometry": {"coordinates": [-107.869682, 37.302974], "type": "Point"}, "id": "sTovnt8axaB4wxRaLdsE8uoAXnw=", "properties": {"@spider": "usps_collection_boxes", "addr:city": "DURANGO", "addr:country": "US", "addr:full": "3465 MAIN AVE", "addr:postcode": "81301", "addr:state": "CO", "amenity": "post_box", "brand": "United States Postal Service", "brand:wikidata": "Q668687", "collection_times": "Mo-Sa 12:00", "name": "USPS COLLECTION BOX - BLUE BOX", "nsi_id": "unitedstatespostalservice-a77078", "operator": "United States Postal Service", "operator:short": "USPS", "operator:type": "public", "operator:wikidata": "Q668687", "ref": "8130100049"}, "type": "Feature"}
{"dataset_attributes": {"@spider": "usps_collection_boxes", "spider:collection_time": "2023-12-31T08:23:44.423400"}, "geometry": {"coordinates": [-107.848328, 37.297911], "type": "Point"}, "id": "a7vuQvjLqTyoh1_dHFQovnB4auM=", "properties": {"@spider": "usps_collection_boxes", "addr:city": "DURANGO", "addr:country": "US", "addr:full": "42 COUNTY ROAD 250", "addr:postcode": "81301", "addr:state": "CO", "amenity": "post_box", "brand": "United States Postal Service", "brand:wikidata": "Q668687", "collection_times": "Mo-Sa 11:30", "name": "USPS COLLECTION BOX - BLUE BOX", "nsi_id": "unitedstatespostalservice-a77078", "operator": "United States Postal Service", "operator:short": "USPS", "operator:type": "public", "operator:wikidata": "Q668687", "ref": "8130100050"}, "type": "Feature"}
{"dataset_attributes": {"@spider": "usps_collection_boxes", "spider:collection_time": "2023-12-31T08:23:44.423400"}, "geometry": {"coordinates": [-107.882062, 37.27253], "type": "Point"}, "id": "25qnov4o4KUc0hpIgL62Z7hxUBg=", "properties": {"@spider": "usps_collection_boxes", "addr:city": "DURANGO", "addr:country": "US", "addr:full": "222 W 8TH ST", "addr:postcode": "81301", "addr:state": "CO", "amenity": "post_box", "brand": "United States Postal Service", "brand:wikidata": "Q668687", "collection_times": "Mo-Sa 15:00", "name": "USPS COLLECTION BOX - PO LOBBY", "note": "ON 12/24 AND 12/31, THIS BOX MAY BE COLLECTED AS EARLY AS 12 NOON.", "nsi_id": "unitedstatespostalservice-a77078", "operator": "United States Postal Service", "operator:short": "USPS", "operator:type": "public", "operator:wikidata": "Q668687", "ref": "8130100052"}, "type": "Feature"}
{"dataset_attributes": {"@spider": "usps_collection_boxes", "spider:collection_time": "2023-12-31T08:23:44.423400"}, "geometry": {"coordinates": [-107.879101004, 37.24572902], "type": "Point"}, "id": "Cr_-9nJcBSagE6lfXJ8pX_SI16s=", "properties": {"@spider": "usps_collection_boxes", "addr:city": "DURANGO", "addr:country": "US", "addr:full": "679 TURNER DR", "addr:postcode": "81301", "addr:state": "CO", "amenity": "post_box", "brand": "United States Postal Service", "brand:wikidata": "Q668687", "collection_times": "Mo-Sa 13:00", "name": "USPS COLLECTION BOX - BLUE BOX", "note": "ON 12/24 AND 12/31, THIS BOX MAY BE COLLECTED AS EARLY AS 12 NOON.", "nsi_id": "unitedstatespostalservice-a77078", "operator": "United States Postal Service", "operator:short": "USPS", "operator:type": "public", "operator:wikidata": "Q668687", "ref": "8130100055"}, "type": "Feature"}
{"dataset_attributes": {"@spider": "usps_collection_boxes", "spider:collection_time": "2023-12-31T08:23:44.423400"}, "geometry": {"coordinates": [-108.808311, 37.660071], "type": "Point"}, "id": "WF_oc7fsyPVSaNlfD4ZmXckqO4M=", "properties": {"@spider": "usps_collection_boxes", "addr:city": "CAHONE", "addr:country": "US", "addr:full": "14042 HIGHWAY 491", "addr:postcode": "81320", "addr:state": "CO", "amenity": "post_box", "brand": "United States Postal Service", "brand:wikidata": "Q668687", "collection_times": "Mo-Fr 12:45; Sa 10:45", "name": "USPS COLLECTION BOX - PO LOBBY", "note": "ON 12/24 AND 12/31, THIS BOX MAY BE COLLECTED AS EARLY AS 12 NOON.", "nsi_id": "unitedstatespostalservice-a77078", "operator": "United States Postal Service", "operator:short": "USPS", "operator:type": "public", "operator:wikidata": "Q668687", "ref": "8132000000"}, "type": "Feature"}
{"dataset_attributes": {"@spider": "usps_collection_boxes", "spider:collection_time": "2023-12-31T08:23:44.423400"}, "geometry": {"coordinates": [-108.808316, 37.659669], "type": "Point"}, "id": "tL8oopUio0ekRKQrCBE_3NQ-c20=", "properties": {"@spider": "usps_collection_boxes", "addr:city": "CAHONE", "addr:country": "US", "addr:full": "14042 HIGHWAY 491", "addr:postcode": "81320", "addr:state": "CO", "amenity": "post_box", "brand": "United States Postal Service", "brand:wikidata": "Q668687", "collection_times": "Mo-Fr 12:45; Sa 10:30", "name": "USPS COLLECTION BOX - BLUE BOX", "note": "ON 12/24 AND 12/31, THIS BOX MAY BE COLLECTED AS EARLY AS 12 NOON.", "nsi_id": "unitedstatespostalservice-a77078", "operator": "United States Postal Service", "operator:short": "USPS", "operator:type": "public", "operator:wikidata": "Q668687", "ref": "8132000001"}, "type": "Feature"}
{"dataset_attributes": {"@spider": "usps_collection_boxes", "spider:collection_time": "2023-12-31T08:23:44.423400"}, "geometry": {"coordinates": [-108.562085, 37.346753], "type": "Point"}, "id": "gc5keTspHyyDasU57I-MbDlRkxw=", "properties": {"@spider": "usps_collection_boxes", "addr:city": "CORTEZ", "addr:country": "US", "addr:full": "1835 E MAIN ST", "addr:postcode": "81321", "addr:state": "CO", "amenity": "post_box", "brand": "United States Postal Service", "brand:wikidata": "Q668687", "collection_times": "Mo-Sa 12:00", "name": "USPS COLLECTION BOX - BLUE BOX", "nsi_id": "unitedstatespostalservice-a77078", "operator": "United States Postal Service", "operator:short": "USPS", "operator:type": "public", "operator:wikidata": "Q668687", "ref": "8132100000"}, "type": "Feature"}
{"dataset_attributes": {"@spider": "usps_collection_boxes", "spider:collection_time": "2023-12-31T08:23:44.423400"}, "geometry": {"coordinates": [-108.578262, 37.349654], "type": "Point"}, "id": "_WGUwSR4Vwyxe2ZCd-UK-20JFi0=", "properties": {"@spider": "usps_collection_boxes", "addr:city": "CORTEZ", "addr:country": "US", "addr:full": "508 E MAIN ST", "addr:postcode": "81321", "addr:state": "CO", "amenity": "post_box", "brand": "United States Postal Service", "brand:wikidata": "Q668687", "collection_times": "Mo-Sa 12:00", "name": "USPS COLLECTION BOX - BLUE BOX", "nsi_id": "unitedstatespostalservice-a77078", "operator": "United States Postal Service", "operator:short": "USPS", "operator:type": "public", "operator:wikidata": "Q668687", "ref": "8132100001"}, "type": "Feature"}
{"dataset_attributes": {"@spider": "usps_collection_boxes", "spider:collection_time": "2023-12-31T08:23:44.423400"}, "geometry": {"coordinates": [-108.586694, 37.348502], "type": "Point"}, "id": "pKnC1nY-eh0dsg2ZESSP-S_mzE0=", "properties": {"@spider": "usps_collection_boxes", "addr:city": "CORTEZ", "addr:country": "US", "addr:full": "109 W MAIN ST", "addr:postcode": "81321", "addr:state": "CO", "amenity": "post_box", "brand": "United States Postal Service", "brand:wikidata": "Q668687", "collection_times": "Mo-Fr 12:00", "name": "USPS COLLECTION BOX - BLUE BOX", "nsi_id": "unitedstatespostalservice-a77078", "operator": "United States Postal Service", "operator:short": "USPS", "operator:type": "public", "operator:wikidata": "Q668687", "ref": "8132100003"}, "type": "Feature"}
{"dataset_attributes": {"@spider": "usps_collection_boxes", "spider:collection_time": "2023-12-31T08:23:44.423400"}, "geometry": {"coordinates": [-108.587616, 37.348713], "type": "Point"}, "id": "cntuc6sjkazLlTVdk8onsIQsCYc=", "properties": {"@spider": "usps_collection_boxes", "addr:city": "CORTEZ", "addr:country": "US", "addr:full": "140 W MAIN ST", "addr:postcode": "81321", "addr:state": "CO", "amenity": "post_box", "brand": "United States Postal Service", "brand:wikidata": "Q668687", "collection_times": "Mo-Sa 12:00", "name": "USPS COLLECTION BOX - BLUE BOX", "nsi_id": "unitedstatespostalservice-a77078", "operator": "United States Postal Service", "operator:short": "USPS", "operator:type": "public", "operator:wikidata": "Q668687", "ref": "8132100004"}, "type": "Feature"}
{"dataset_attributes": {"@spider": "usps_collection_boxes", "spider:collection_time": "2023-12-31T08:23:44.423400"}, "geometry": {"coordinates": [-108.583856, 37.348307], "type": "Point"}, "id": "tNt8kZ0aFyy2uRoGhJvaiQZ7u1Q=", "properties": {"@spider": "usps_collection_boxes", "addr:city": "CORTEZ", "addr:country": "US", "addr:full": "35 S BEECH ST", "addr:postcode": "81321", "addr:state": "CO", "amenity": "post_box", "brand": "United States Postal Service", "brand:wikidata": "Q668687", "collection_times": "Mo-Sa 13:00", "name": "USPS COLLECTION BOX - BLUE BOX", "note": "ON 12/24 AND 12/31, THIS BOX MAY BE COLLECTED AS EARLY AS 12 NOON.", "nsi_id": "unitedstatespostalservice-a77078", "operator": "United States Postal Service", "operator:short": "USPS", "operator:type": "public", "operator:wikidata": "Q668687", "ref": "8132100007"}, "type": "Feature"}
{"dataset_attributes": {"@spider": "usps_collection_boxes", "spider:collection_time": "2023-12-31T08:23:44.423400"}, "geometry": {"coordinates": [-108.583825, 37.348374], "type": "Point"}, "id": "ERZA3FwsZiGcn3kUkOA4eKH6Nhc=", "properties": {"@spider": "usps_collection_boxes", "addr:city": "CORTEZ", "addr:country": "US", "addr:full": "35 S BEECH ST", "addr:postcode": "81321", "addr:state": "CO", "amenity": "post_box", "brand": "United States Postal Service", "brand:wikidata": "Q668687", "collection_times": "Mo-Sa 13:00", "name": "USPS COLLECTION BOX - BLUE BOX", "note": "ON 12/24 AND 12/31, THIS BOX MAY BE COLLECTED AS EARLY AS 12 NOON.", "nsi_id": "unitedstatespostalservice-a77078", "operator": "United States Postal Service", "operator:short": "USPS", "operator:type": "public", "operator:wikidata": "Q668687", "ref": "8132100008"}, "type": "Feature"}
{"dataset_attributes": {"@spider": "usps_collection_boxes", "spider:collection_time": "2023-12-31T08:23:44.423400"}, "geometry": {"coordinates": [-108.583825, 37.348374], "type": "Point"}, "id": "ej1jGg6pzl8oNKMK_xEXqsqyOqs=", "properties": {"@spider": "usps_collection_boxes", "addr:city": "CORTEZ", "addr:country": "US", "addr:full": "35 S BEECH ST", "addr:postcode": "81321", "addr:state": "CO", "amenity": "post_box", "brand": "United States Postal Service", "brand:wikidata": "Q668687", "collection_times": "Mo-Sa 13:00", "name": "USPS COLLECTION BOX - PO LOBBY", "note": "ON 12/24 AND 12/31, THIS BOX MAY BE COLLECTED AS EARLY AS 12 NOON.", "nsi_id": "unitedstatespostalservice-a77078", "operator": "United States Postal Service", "operator:short": "USPS", "operator:type": "public", "operator:wikidata": "Q668687", "ref": "8132100010"}, "type": "Feature"}
{"dataset_attributes": {"@spider": "usps_collection_boxes", "spider:collection_time": "2023-12-31T08:23:44.423400"}, "geometry": {"coordinates": [-108.4973273861, 37.4742287105], "type": "Point"}, "id": "A8ME2tTaUh100alO_JCwEbSSZBY=", "properties": {"@spider": "usps_collection_boxes", "addr:city": "DOLORES", "addr:country": "US", "addr:full": "1000 RAILROAD AVE N", "addr:postcode": "81323", "addr:state": "CO", "amenity": "post_box", "brand": "United States Postal Service", "brand:wikidata": "Q668687", "collection_times": "Mo-Fr 13:45; Sa 12:00", "name": "USPS COLLECTION BOX - BLUE BOX", "note": "ON 12/24 AND 12/31, THIS BOX MAY BE COLLECTED AS EARLY AS 12 NOON.", "nsi_id": "unitedstatespostalservice-a77078", "operator": "United States Postal Service", "operator:short": "USPS", "operator:type": "public", "operator:wikidata": "Q668687", "ref": "8132300000"}, "type": "Feature"}
{"dataset_attributes": {"@spider": "usps_collection_boxes", "spider:collection_time": "2023-12-31T08:23:44.423400"}, "geometry": {"coordinates": [-108.496453, 37.474403], "type": "Point"}, "id": "ozw4dYUKuLv9rcsrdt3pSJ2xweY=", "properties": {"@spider": "usps_collection_boxes", "addr:city": "DOLORES", "addr:country": "US", "addr:full": "1000 RAILROAD AVE N", "addr:postcode": "81323", "addr:state": "CO", "amenity": "post_box", "brand": "United States Postal Service", "brand:wikidata": "Q668687", "collection_times": "Mo-Fr 13:45; Sa 12:00", "name": "USPS COLLECTION BOX - PO LOBBY", "note": "ON 12/24 AND 12/31, THIS BOX MAY BE COLLECTED AS EARLY AS 12 NOON.", "nsi_id": "unitedstatespostalservice-a77078", "operator": "United States Postal Service", "operator:short": "USPS", "operator:type": "public", "operator:wikidata": "Q668687", "ref": "8132300001"}, "type": "Feature"}
{"dataset_attributes": {"@spider": "usps_collection_boxes", "spider:collection_time": "2023-12-31T08:23:44.423400"}, "geometry": {"coordinates": [-108.496453, 37.474403], "type": "Point"}, "id": "LEwLOYBAsW92eVsvE02UQmXSDLY=", "properties": {"@spider": "usps_collection_boxes", "addr:city": "DOLORES", "addr:country": "US", "addr:full": "1000 RAILROAD AVE N", "addr:postcode": "81323", "addr:state": "CO", "amenity": "post_box", "brand": "United States Postal Service", "brand:wikidata": "Q668687", "collection_times": "Mo-Fr 13:45; Sa 12:00", "name": "USPS COLLECTION BOX - PO LOBBY", "note": "ON 12/24 AND 12/31, THIS BOX MAY BE COLLECTED AS EARLY AS 12 NOON.", "nsi_id": "unitedstatespostalservice-a77078", "operator": "United States Postal Service", "operator:short": "USPS", "operator:type": "public", "operator:wikidata": "Q668687", "ref": "8132300002"}, "type": "Feature"}
{"dataset_attributes": {"@spider": "usps_collection_boxes", "spider:collection_time": "2023-12-31T08:23:44.423400"}, "geometry": {"coordinates": [-108.86322, 37.729874], "type": "Point"}, "id": "hncDJ8rt1EFcT18PvVXG3vnjDmk=", "properties": {"@spider": "usps_collection_boxes", "addr:city": "DOVE CREEK", "addr:country": "US", "addr:full": "80 HIGHWAY 666", "addr:postcode": "81324", "addr:state": "CO", "amenity": "post_box", "brand": "United States Postal Service", "brand:wikidata": "Q668687", "collection_times": "Mo-Fr 12:30; Sa 12:00", "name": "USPS COLLECTION BOX - BLUE BOX", "note": "ON 12/24 AND 12/31, THIS BOX MAY BE COLLECTED AS EARLY AS 12 NOON.", "nsi_id": "unitedstatespostalservice-a77078", "operator": "United States Postal Service", "operator:short": "USPS", "operator:type": "public", "operator:wikidata": "Q668687", "ref": "8132400000"}, "type": "Feature"}
{"dataset_attributes": {"@spider": "usps_collection_boxes", "spider:collection_time": "2023-12-31T08:23:44.423400"}, "geometry": {"coordinates": [-108.86322, 37.729874], "type": "Point"}, "id": "Ecsbze-vhrMyP2IE5Pmyl8ZNNsg=", "properties": {"@spider": "usps_collection_boxes", "addr:city": "DOVE CREEK", "addr:country": "US", "addr:full": "80 HIGHWAY 666", "addr:postcode": "81324", "addr:state": "CO", "amenity": "post_box", "brand": "United States Postal Service", "brand:wikidata": "Q668687", "collection_times": "Mo-Fr 12:30; Sa 12:00", "name": "USPS COLLECTION BOX - PO LOBBY", "note": "ON 12/24 AND 12/31, THIS BOX MAY BE COLLECTED AS EARLY AS 12 NOON.", "nsi_id": "unitedstatespostalservice-a77078", "operator": "United States Postal Service", "operator:short": "USPS", "operator:type": "public", "operator:wikidata": "Q668687", "ref": "8132400001"}, "type": "Feature"}
{"dataset_attributes": {"@spider": "usps_collection_boxes", "spider:collection_time": "2023-12-31T08:23:44.423400"}, "geometry": {"coordinates": [-108.940792, 37.902123], "type": "Point"}, "id": "HNxzcSVsa7dUG-PNH42g6dmHMBc=", "properties": {"@spider": "usps_collection_boxes", "addr:city": "EGNAR", "addr:country": "US", "addr:full": "8715 HIGHWAY 141", "addr:postcode": "81325", "addr:state": "CO", "amenity": "post_box", "brand": "United States Postal Service", "brand:wikidata": "Q668687", "collection_times": "Mo-Sa 11:15", "name": "USPS COLLECTION BOX - PO LOBBY", "nsi_id": "unitedstatespostalservice-a77078", "operator": "United States Postal Service", "operator:short": "USPS", "operator:type": "public", "operator:wikidata": "Q668687", "ref": "8132500001"}, "type": "Feature"}
{"dataset_attributes": {"@spider": "usps_collection_boxes", "spider:collection_time": "2023-12-31T08:23:44.423400"}, "geometry": {"coordinates": [-108.040035, 37.290992], "type": "Point"}, "id": "I3155a26D0mwdEP7S33SGqLXLd8=", "properties": {"@spider": "usps_collection_boxes", "addr:city": "HESPERUS", "addr:country": "US", "addr:full": "10864 HIGHWAY 160", "addr:postcode": "81326", "addr:state": "CO", "amenity": "post_box", "brand": "United States Postal Service", "brand:wikidata": "Q668687", "collection_times": "Mo-Fr 14:15; Sa 11:00", "name": "USPS COLLECTION BOX - BLUE BOX", "note": "ON 12/24 AND 12/31, THIS BOX MAY BE COLLECTED AS EARLY AS 12 NOON.", "nsi_id": "unitedstatespostalservice-a77078", "operator": "United States Postal Service", "operator:short": "USPS", "operator:type": "public", "operator:wikidata": "Q668687", "ref": "8132600000"}, "type": "Feature"}
{"dataset_attributes": {"@spider": "usps_collection_boxes", "spider:collection_time": "2023-12-31T08:23:44.423400"}, "geometry": {"coordinates": [-108.040035, 37.290992], "type": "Point"}, "id": "T10OTWAGUzzlszhnR5ZJMRqftyc=", "properties": {"@spider": "usps_collection_boxes", "addr:city": "HESPERUS", "addr:country": "US", "addr:full": "10864 HIGHWAY 160", "addr:postcode": "81326", "addr:state": "CO", "amenity": "post_box", "brand": "United States Postal Service", "brand:wikidata": "Q668687", "collection_times": "Mo-Fr 14:15; Sa 11:15", "name": "USPS COLLECTION BOX - PO LOBBY", "note": "ON 12/24 AND 12/31, THIS BOX MAY BE COLLECTED AS EARLY AS 12 NOON.", "nsi_id": "unitedstatespostalservice-a77078", "operator": "United States Postal Service", "operator:short": "USPS", "operator:type": "public", "operator:wikidata": "Q668687", "ref": "8132600001"}, "type": "Feature"}
{"dataset_attributes": {"@spider": "usps_collection_boxes", "spider:collection_time": "2023-12-31T08:23:44.423400"}, "geometry": {"coordinates": [-108.662227, 37.482932], "type": "Point"}, "id": "aZ-wB3jmxhEfoVXwBmj88jZubSM=", "properties": {"@spider": "usps_collection_boxes", "addr:city": "LEWIS", "addr:country": "US", "addr:full": "18794 HIGHWAY 666", "addr:postcode": "81327", "addr:state": "CO", "amenity": "post_box", "brand": "United States Postal Service", "brand:wikidata": "Q668687", "collection_times": "Mo-Fr 13:30; Sa 12:00", "name": "USPS COLLECTION BOX - BLUE BOX", "note": "ON 12/24 AND 12/31, THIS BOX MAY BE COLLECTED AS EARLY AS 12 NOON.", "nsi_id": "unitedstatespostalservice-a77078", "operator": "United States Postal Service", "operator:short": "USPS", "operator:type": "public", "operator:wikidata": "Q668687", "ref": "8132700000"}, "type": "Feature"}
{"dataset_attributes": {"@spider": "usps_collection_boxes", "spider:collection_time": "2023-12-31T08:23:44.423400"}, "geometry": {"coordinates": [-108.662311, 37.483241], "type": "Point"}, "id": "S8Mqzkoy8Qxr8ATS1sq-szvS-bM=", "properties": {"@spider": "usps_collection_boxes", "addr:city": "LEWIS", "addr:country": "US", "addr:full": "18794 HIGHWAY 666", "addr:postcode": "81327", "addr:state": "CO", "amenity": "post_box", "brand": "United States Postal Service", "brand:wikidata": "Q668687", "collection_times": "Mo-Fr 13:30; Sa 12:00", "name": "USPS COLLECTION BOX - PO LOBBY", "note": "ON 12/24 AND 12/31, THIS BOX MAY BE COLLECTED AS EARLY AS 12 NOON.", "nsi_id": "unitedstatespostalservice-a77078", "operator": "United States Postal Service", "operator:short": "USPS", "operator:type": "public", "operator:wikidata": "Q668687", "ref": "8132700001"}, "type": "Feature"}
{"dataset_attributes": {"@spider": "usps_collection_boxes", "spider:collection_time": "2023-12-31T08:23:44.423400"}, "geometry": {"coordinates": [-108.291721, 37.346681], "type": "Point"}, "id": "mdOnHSJnGBx6IoBuWZvMYBFIEuY=", "properties": {"@spider": "usps_collection_boxes", "addr:city": "MANCOS", "addr:country": "US", "addr:full": "291 N WALNUT ST", "addr:postcode": "81328", "addr:state": "CO", "amenity": "post_box", "brand": "United States Postal Service", "brand:wikidata": "Q668687", "collection_times": "Mo-Fr 13:30; Sa 12:30", "name": "USPS COLLECTION BOX - PO LOBBY", "note": "ON 12/24 AND 12/31, THIS BOX MAY BE COLLECTED AS EARLY AS 12 NOON.", "nsi_id": "unitedstatespostalservice-a77078", "operator": "United States Postal Service", "operator:short": "USPS", "operator:type": "public", "operator:wikidata": "Q668687", "ref": "8132800005"}, "type": "Feature"}
{"dataset_attributes": {"@spider": "usps_collection_boxes", "spider:collection_time": "2023-12-31T08:23:44.423400"}, "geometry": {"coordinates": [-108.291755, 37.346674], "type": "Point"}, "id": "xU6Y35cP2s1J_82vJJQgo7Cx0dk=", "properties": {"@spider": "usps_collection_boxes", "addr:city": "MANCOS", "addr:country": "US", "addr:full": "291 N WALNUT ST", "addr:postcode": "81328", "addr:state": "CO", "amenity": "post_box", "brand": "United States Postal Service", "brand:wikidata": "Q668687", "collection_times": "Mo-Fr 13:30; Sa 12:30", "name": "USPS COLLECTION BOX - PO LOBBY", "note": "ON 12/24 AND 12/31, THIS BOX MAY BE COLLECTED AS EARLY AS 12 NOON.", "nsi_id": "unitedstatespostalservice-a77078", "operator": "United States Postal Service", "operator:short": "USPS", "operator:type": "public", "operator:wikidata": "Q668687", "ref": "8132800006"}, "type": "Feature"}
{"dataset_attributes": {"@spider": "usps_collection_boxes", "spider:collection_time": "2023-12-31T08:23:44.423400"}, "geometry": {"coordinates": [-108.291755, 37.346674], "type": "Point"}, "id": "5qMcEUTHi4FyqtSVY8tQTTUpqNk=", "properties": {"@spider": "usps_collection_boxes", "addr:city": "MANCOS", "addr:country": "US", "addr:full": "291 N WALNUT ST", "addr:postcode": "81328", "addr:state": "CO", "amenity": "post_box", "brand": "United States Postal Service", "brand:wikidata": "Q668687", "collection_times": "Mo-Fr 13:30; Sa 12:30", "name": "USPS COLLECTION BOX - BLUE BOX", "note": "ON 12/24 AND 12/31, THIS BOX MAY BE COLLECTED AS EARLY AS 12 NOON.", "nsi_id": "unitedstatespostalservice-a77078", "operator": "United States Postal Service", "operator:short": "USPS", "operator:type": "public", "operator:wikidata": "Q668687", "ref": "8132800007"}, "type": "Feature"}
{"dataset_attributes": {"@spider": "usps_collection_boxes", "spider:collection_time": "2023-12-31T08:23:44.423400"}, "geometry": {"coordinates": [-105.5478136962, 38.9985525982], "type": "Point"}, "id": "zjHmiJXw3v0cdhhqIHQX4EiH-Kg=", "properties": {"@spider": "usps_collection_boxes", "addr:city": "MARVEL", "addr:country": "US", "addr:full": "10383 COUNTY ROAD 100", "addr:postcode": "81329", "addr:state": "CO", "amenity": "post_box", "brand": "United States Postal Service", "brand:wikidata": "Q668687", "collection_times": "Mo-Sa 11:00", "name": "USPS COLLECTION BOX - BLUE BOX", "nsi_id": "unitedstatespostalservice-a77078", "operator": "United States Postal Service", "operator:short": "USPS", "operator:type": "public", "operator:wikidata": "Q668687", "ref": "8132900000"}, "type": "Feature"}
{"dataset_attributes": {"@spider": "usps_collection_boxes", "spider:collection_time": "2023-12-31T08:23:44.423400"}, "geometry": {"coordinates": [-108.41557, 37.33172], "type": "Point"}, "id": "TFF-BhR03X6ueO-R8msoxnAbjuY=", "properties": {"@spider": "usps_collection_boxes", "addr:city": "MESA VERDE", "addr:country": "US", "addr:full": "1 MESA VERDE NATIONAL", "addr:postcode": "81330", "addr:state": "CO", "amenity": "post_box", "brand": "United States Postal Service", "brand:wikidata": "Q668687", "collection_times": "Mo-Fr 12:00", "name": "USPS COLLECTION BOX - PO LOBBY", "nsi_id": "unitedstatespostalservice-a77078", "operator": "United States Postal Service", "operator:short": "USPS", "operator:type": "public", "operator:wikidata": "Q668687", "ref": "8133000000"}, "type": "Feature"}
{"dataset_attributes": {"@spider": "usps_collection_boxes", "spider:collection_time": "2023-12-31T08:23:44.423400"}, "geometry": {"coordinates": [-108.41557, 37.33172], "type": "Point"}, "id": "LcPsdGxp57B_ahQXBL6o6fCm3cI=", "properties": {"@spider": "usps_collection_boxes", "addr:city": "MESA VERDE", "addr:country": "US", "addr:full": "1 MESA VERDE NATIONAL", "addr:postcode": "81330", "addr:state": "CO", "amenity": "post_box", "brand": "United States Postal Service", "brand:wikidata": "Q668687", "collection_times": "Mo-Fr 12:00", "name": "USPS COLLECTION BOX - BLUE BOX", "nsi_id": "unitedstatespostalservice-a77078", "operator": "United States Postal Service", "operator:short": "USPS", "operator:type": "public", "operator:wikidata": "Q668687", "ref": "8133000005"}, "type": "Feature"}
{"dataset_attributes": {"@spider": "usps_collection_boxes", "spider:collection_time": "2023-12-31T08:23:44.423400"}, "geometry": {"coordinates": [-108.765569, 37.589223], "type": "Point"}, "id": "uEPdBi6PZSzLICN4dbJtoQCXPjk=", "properties": {"@spider": "usps_collection_boxes", "addr:city": "PLEASANT VIEW", "addr:country": "US", "addr:full": "26070 HIGHWAY 491", "addr:postcode": "81331", "addr:state": "CO", "amenity": "post_box", "brand": "United States Postal Service", "brand:wikidata": "Q668687", "collection_times": "Mo-Fr 13:00; Sa 11:45", "name": "USPS COLLECTION BOX - PO LOBBY", "note": "ON 12/24 AND 12/31, THIS BOX MAY BE COLLECTED AS EARLY AS 12 NOON.", "nsi_id": "unitedstatespostalservice-a77078", "operator": "United States Postal Service", "operator:short": "USPS", "operator:type": "public", "operator:wikidata": "Q668687", "ref": "8133100000"}, "type": "Feature"}
{"dataset_attributes": {"@spider": "usps_collection_boxes", "spider:collection_time": "2023-12-31T08:23:44.423400"}, "geometry": {"coordinates": [-108.76564, 37.589275], "type": "Point"}, "id": "7S4tJ6UtNx-0Z9coa5NsXkyJw1M=", "properties": {"@spider": "usps_collection_boxes", "addr:city": "PLEASANT VIEW", "addr:country": "US", "addr:full": "26070 HIGHWAY 491", "addr:postcode": "81331", "addr:state": "CO", "amenity": "post_box", "brand": "United States Postal Service", "brand:wikidata": "Q668687", "collection_times": "Mo-Fr 13:00; Sa 11:45", "name": "USPS COLLECTION BOX - BLUE BOX", "note": "ON 12/24 AND 12/31, THIS BOX MAY BE COLLECTED AS EARLY AS 12 NOON.", "nsi_id": "unitedstatespostalservice-a77078", "operator": "United States Postal Service", "operator:short": "USPS", "operator:type": "public", "operator:wikidata": "Q668687", "ref": "8133100001"}, "type": "Feature"}
{"dataset_attributes": {"@spider": "usps_collection_boxes", "spider:collection_time": "2023-12-31T08:23:44.423400"}, "geometry": {"coordinates": [-108.031451, 37.692162], "type": "Point"}, "id": "4LJXO2uvnmGOHn25m-W2-EtB2PI=", "properties": {"@spider": "usps_collection_boxes", "addr:city": "RICO", "addr:country": "US", "addr:full": "28 S GLASGOW AVE", "addr:postcode": "81332", "addr:state": "CO", "amenity": "post_box", "brand": "United States Postal Service", "brand:wikidata": "Q668687", "collection_times": "Mo-Sa 12:00", "name": "USPS COLLECTION BOX - BLUE BOX", "nsi_id": "unitedstatespostalservice-a77078", "operator": "United States Postal Service", "operator:short": "USPS", "operator:type": "public", "operator:wikidata": "Q668687", "ref": "8133200000"}, "type": "Feature"}
{"dataset_attributes": {"@spider": "usps_collection_boxes", "spider:collection_time": "2023-12-31T08:23:44.423400"}, "geometry": {"coordinates": [-108.031487, 37.692203], "type": "Point"}, "id": "Uc-e0A-mCtlFP88bitgCVPDjgSI=", "properties": {"@spider": "usps_collection_boxes", "addr:city": "RICO", "addr:country": "US", "addr:full": "28 S GLASGOW AVE", "addr:postcode": "81332", "addr:state": "CO", "amenity": "post_box", "brand": "United States Postal Service", "brand:wikidata": "Q668687", "collection_times": "Mo-Sa 12:00", "name": "USPS COLLECTION BOX - PO LOBBY", "nsi_id": "unitedstatespostalservice-a77078", "operator": "United States Postal Service", "operator:short": "USPS", "operator:type": "public", "operator:wikidata": "Q668687", "ref": "8133200001"}, "type": "Feature"}
{"dataset_attributes": {"@spider": "usps_collection_boxes", "spider:collection_time": "2023-12-31T08:23:44.423400"}, "geometry": {"coordinates": [-108.776618634, 37.0825530531], "type": "Point"}, "id": "lqofBlKRaj83M4Th2IK-uJiUZMo=", "properties": {"@spider": "usps_collection_boxes", "addr:city": "TOWAOC", "addr:country": "US", "addr:full": "119.8 MIKE WASH RD", "addr:postcode": "81334", "addr:state": "CO", "amenity": "post_box", "brand": "United States Postal Service", "brand:wikidata": "Q668687", "collection_times": "Mo-Fr 11:00", "name": "USPS COLLECTION BOX - PO LOBBY", "nsi_id": "unitedstatespostalservice-a77078", "operator": "United States Postal Service", "operator:short": "USPS", "operator:type": "public", "operator:wikidata": "Q668687", "ref": "8133400000"}, "type": "Feature"}
{"dataset_attributes": {"@spider": "usps_collection_boxes", "spider:collection_time": "2023-12-31T08:23:44.423400"}, "geometry": {"coordinates": [-108.776618634, 37.0825530531], "type": "Point"}, "id": "nm_8w0pVRPhGDQByAundPEA1M50=", "properties": {"@spider": "usps_collection_boxes", "addr:city": "TOWAOC", "addr:country": "US", "addr:full": "119.8 MIKE WASH RD", "addr:postcode": "81334", "addr:state": "CO", "amenity": "post_box", "brand": "United States Postal Service", "brand:wikidata": "Q668687", "collection_times": "Mo-Fr 11:00", "name": "USPS COLLECTION BOX - BLUE BOX", "nsi_id": "unitedstatespostalservice-a77078", "operator": "United States Postal Service", "operator:short": "USPS", "operator:type": "public", "operator:wikidata": "Q668687", "ref": "8133400001"}, "type": "Feature"}
{"dataset_attributes": {"@spider": "usps_collection_boxes", "spider:collection_time": "2023-12-31T08:23:44.423400"}, "geometry": {"coordinates": [-108.719124, 37.530048], "type": "Point"}, "id": "aab0_o7X6n7IuxtLnvFG5jCy1oQ=", "properties": {"@spider": "usps_collection_boxes", "addr:city": "YELLOW JACKET", "addr:country": "US", "addr:full": "22009 COUNTY ROAD 18", "addr:postcode": "81335", "addr:state": "CO", "amenity": "post_box", "brand": "United States Postal Service", "brand:wikidata": "Q668687", "collection_times": "Mo-Fr 13:15; Sa 11:45", "name": "USPS COLLECTION BOX - PO LOBBY", "note": "ON 12/24 AND 12/31, THIS BOX MAY BE COLLECTED AS EARLY AS 12 NOON.", "nsi_id": "unitedstatespostalservice-a77078", "operator": "United States Postal Service", "operator:short": "USPS", "operator:type": "public", "operator:wikidata": "Q668687", "ref": "8133500000"}, "type": "Feature"}
{"dataset_attributes": {"@spider": "usps_collection_boxes", "spider:collection_time": "2023-12-31T08:23:44.423400"}, "geometry": {"coordinates": [-108.719051, 37.529996], "type": "Point"}, "id": "chJdQuxElYs4jhXNE0fugMMQjEo=", "properties": {"@spider": "usps_collection_boxes", "addr:city": "YELLOW JACKET", "addr:country": "US", "addr:full": "22009 COUNTY ROAD 18", "addr:postcode": "81335", "addr:state": "CO", "amenity": "post_box", "brand": "United States Postal Service", "brand:wikidata": "Q668687", "collection_times": "Mo-Fr 13:15; Sa 11:45", "name": "USPS COLLECTION BOX - BLUE BOX", "note": "ON 12/24 AND 12/31, THIS BOX MAY BE COLLECTED AS EARLY AS 12 NOON.", "nsi_id": "unitedstatespostalservice-a77078", "operator": "United States Postal Service", "operator:short": "USPS", "operator:type": "public", "operator:wikidata": "Q668687", "ref": "8133500001"}, "type": "Feature"}
