{"geometry": {"coordinates": [-107.876448, 38.478355], "type": "Point"}, "id": "qUiFKnWiAPc6EKkkJ-_EW1X5g0o=", "properties": {"@source_uri": "https://tools.usps.com/UspsToolsRestServices/rest/POLocator/findLocations", "@spider": "usps_collection_boxes", "addr:city": "MONTROSE", "addr:country": "US", "addr:postcode": "81401", "addr:state": "CO", "addr:street_address": "321 S 1ST ST", "amenity": "post_box", "collection_times": "Mo-Fr 17:00; Sa 12:00", "note": "ON 12/24 AND 12/31, THIS BOX MAY BE COLLECTED AS EARLY AS 12 NOON.", "nsi_id": "unitedstatespostalservice-a77078", "operator": "United States Postal Service", "operator:short": "USPS", "operator:type": "public", "operator:wikidata": "Q668687", "ref": "8140100000"}, "type": "Feature"}
{"geometry": {"coordinates": [-107.876448, 38.478355], "type": "Point"}, "id": "RyN5QcApPgSYo2tICsoy9-xMtE8=", "properties": {"@source_uri": "https://tools.usps.com/UspsToolsRestServices/rest/POLocator/findLocations", "@spider": "usps_collection_boxes", "addr:city": "MONTROSE", "addr:country": "US", "addr:postcode": "81401", "addr:state": "CO", "addr:street_address": "321 S 1ST ST", "amenity": "post_box", "collection_times": "Mo-Fr 17:00; Sa 12:00", "note": "ON 12/24 AND 12/31, THIS BOX MAY BE COLLECTED AS EARLY AS 12 NOON.", "nsi_id": "unitedstatespostalservice-a77078", "operator": "United States Postal Service", "operator:short": "USPS", "operator:type": "public", "operator:wikidata": "Q668687", "ref": "8140100001"}, "type": "Feature"}
{"geometry": {"coordinates": [-107.877887, 38.477074], "type": "Point"}, "id": "uJdZmxYcxn-YQ0UC74T0akgTxWc=", "properties": {"@source_uri": "https://tools.usps.com/UspsToolsRestServices/rest/POLocator/findLocations", "@spider": "usps_collection_boxes", "addr:city": "MONTROSE", "addr:country": "US", "addr:postcode": "81401", "addr:state": "CO", "addr:street_address": "128 S TOWNSEND AVE", "amenity": "post_box", "collection_times": "Mo-Sa 12:00", "nsi_id": "unitedstatespostalservice-a77078", "operator": "United States Postal Service", "operator:short": "USPS", "operator:type": "public", "operator:wikidata": "Q668687", "ref": "8140100005"}, "type": "Feature"}
{"geometry": {"coordinates": [-107.874105, 38.481127], "type": "Point"}, "id": "Wb8Vw8GRnhTyWsFf5bdQSKjD_w4=", "properties": {"@source_uri": "https://tools.usps.com/UspsToolsRestServices/rest/POLocator/findLocations", "@spider": "usps_collection_boxes", "addr:city": "MONTROSE", "addr:country": "US", "addr:postcode": "81401", "addr:state": "CO", "addr:street_address": "614 E MAIN ST", "amenity": "post_box", "collection_times": "Mo-Sa 12:00", "nsi_id": "unitedstatespostalservice-a77078", "operator": "United States Postal Service", "operator:short": "USPS", "operator:type": "public", "operator:wikidata": "Q668687", "ref": "8140100007"}, "type": "Feature"}
{"geometry": {"coordinates": [-107.8702, 38.480125], "type": "Point"}, "id": "r-3VpsDU8UBlH-r4ic57VULXyEw=", "properties": {"@source_uri": "https://tools.usps.com/UspsToolsRestServices/rest/POLocator/findLocations", "@spider": "usps_collection_boxes", "addr:city": "MONTROSE", "addr:country": "US", "addr:postcode": "81401", "addr:state": "CO", "addr:street_address": "230 S NEVADA AVE", "amenity": "post_box", "collection_times": "Mo-Sa 12:00", "nsi_id": "unitedstatespostalservice-a77078", "operator": "United States Postal Service", "operator:short": "USPS", "operator:type": "public", "operator:wikidata": "Q668687", "ref": "8140100008"}, "type": "Feature"}
{"geometry": {"coordinates": [-107.869469, 38.484619], "type": "Point"}, "id": "Evd2cCxTp5IvaYw3YuCDyKsD49I=", "properties": {"@source_uri": "https://tools.usps.com/UspsToolsRestServices/rest/POLocator/findLocations", "@spider": "usps_collection_boxes", "addr:city": "MONTROSE", "addr:country": "US", "addr:postcode": "81401", "addr:state": "CO", "addr:street_address": "1101 E MAIN ST", "amenity": "post_box", "collection_times": "Mo-Sa 12:00", "nsi_id": "unitedstatespostalservice-a77078", "operator": "United States Postal Service", "operator:short": "USPS", "operator:type": "public", "operator:wikidata": "Q668687", "ref": "8140100010"}, "type": "Feature"}
{"geometry": {"coordinates": [-107.878865, 38.480805], "type": "Point"}, "id": "xj5LEicwy4yxD2WM5UwMCDHWh-8=", "properties": {"@source_uri": "https://tools.usps.com/UspsToolsRestServices/rest/POLocator/findLocations", "@spider": "usps_collection_boxes", "addr:city": "MONTROSE", "addr:country": "US", "addr:postcode": "81401", "addr:state": "CO", "addr:street_address": "325 N 2ND ST", "amenity": "post_box", "collection_times": "Mo-Sa 13:30", "name": "USPS COLLECTION BOX - EXPRESS", "note": "ON 12/24 AND 12/31, THIS BOX MAY BE COLLECTED AS EARLY AS 12 NOON.", "nsi_id": "unitedstatespostalservice-a77078", "operator": "United States Postal Service", "operator:short": "USPS", "operator:type": "public", "operator:wikidata": "Q668687", "ref": "8140100015"}, "type": "Feature"}
{"geometry": {"coordinates": [-107.89315, 38.47426], "type": "Point"}, "id": "G-qN-Ep3GULkrsdeWQDjqBAWuEY=", "properties": {"@source_uri": "https://tools.usps.com/UspsToolsRestServices/rest/POLocator/findLocations", "@spider": "usps_collection_boxes", "addr:city": "MONTROSE", "addr:country": "US", "addr:postcode": "81401", "addr:state": "CO", "addr:street_address": "924 SPRING CREEK RD STE A", "amenity": "post_box", "collection_times": "Mo-Sa 12:00", "nsi_id": "unitedstatespostalservice-a77078", "operator": "United States Postal Service", "operator:short": "USPS", "operator:type": "public", "operator:wikidata": "Q668687", "ref": "8140100019"}, "type": "Feature"}
{"geometry": {"coordinates": [-107.8634619723, 38.4521176733], "type": "Point"}, "id": "h6Q4QszbvDQyMbLhkWjB_yIWvvo=", "properties": {"@source_uri": "https://tools.usps.com/UspsToolsRestServices/rest/POLocator/findLocations", "@spider": "usps_collection_boxes", "addr:city": "MONTROSE", "addr:country": "US", "addr:postcode": "81401", "addr:state": "CO", "addr:street_address": "3025 WOODGATE RD", "amenity": "post_box", "collection_times": "Mo-Fr 14:00; Sa 13:00", "note": "ON 12/24 AND 12/31, THIS BOX MAY BE COLLECTED AS EARLY AS 12 NOON.", "nsi_id": "unitedstatespostalservice-a77078", "operator": "United States Postal Service", "operator:short": "USPS", "operator:type": "public", "operator:wikidata": "Q668687", "ref": "8140100022"}, "type": "Feature"}
{"geometry": {"coordinates": [-107.8634619723, 38.4521176733], "type": "Point"}, "id": "7WbHdleY_txlCkIfRQimnbb5wDQ=", "properties": {"@source_uri": "https://tools.usps.com/UspsToolsRestServices/rest/POLocator/findLocations", "@spider": "usps_collection_boxes", "addr:city": "MONTROSE", "addr:country": "US", "addr:postcode": "81401", "addr:state": "CO", "addr:street_address": "3025 WOODGATE RD", "amenity": "post_box", "collection_times": "Mo-Fr 14:00; Sa 13:00", "note": "ON 12/24 AND 12/31, THIS BOX MAY BE COLLECTED AS EARLY AS 12 NOON.", "nsi_id": "unitedstatespostalservice-a77078", "operator": "United States Postal Service", "operator:short": "USPS", "operator:type": "public", "operator:wikidata": "Q668687", "ref": "8140100023"}, "type": "Feature"}
{"geometry": {"coordinates": [-107.8652550224, 38.4693520183], "type": "Point"}, "id": "wMKYLUybDlsi_461WZXFEIS_3v4=", "properties": {"@source_uri": "https://tools.usps.com/UspsToolsRestServices/rest/POLocator/findLocations", "@spider": "usps_collection_boxes", "addr:city": "MONTROSE", "addr:country": "US", "addr:postcode": "81401", "addr:state": "CO", "addr:street_address": "1329 S TOWNSEND AVE", "amenity": "post_box", "collection_times": "Mo-Fr 14:00; Sa 13:00", "note": "ON 12/24 AND 12/31, THIS BOX MAY BE COLLECTED AS EARLY AS 12 NOON.", "nsi_id": "unitedstatespostalservice-a77078", "operator": "United States Postal Service", "operator:short": "USPS", "operator:type": "public", "operator:wikidata": "Q668687", "ref": "8140100024"}, "type": "Feature"}
{"geometry": {"coordinates": [-107.876448, 38.478355], "type": "Point"}, "id": "gBQeT-TvVVY0esTvwdzR09ugw1A=", "properties": {"@source_uri": "https://tools.usps.com/UspsToolsRestServices/rest/POLocator/findLocations", "@spider": "usps_collection_boxes", "addr:city": "MONTROSE", "addr:country": "US", "addr:postcode": "81401", "addr:state": "CO", "addr:street_address": "321 S 1ST ST", "amenity": "post_box", "collection_times": "Mo-Fr 17:00; Sa 12:00", "indoor": "yes", "note": "ON 12/24 AND 12/31, THIS BOX MAY BE COLLECTED AS EARLY AS 12 NOON.", "nsi_id": "unitedstatespostalservice-a77078", "operator": "United States Postal Service", "operator:short": "USPS", "operator:type": "public", "operator:wikidata": "Q668687", "ref": "8140100026"}, "type": "Feature"}
{"geometry": {"coordinates": [-107.876448, 38.478355], "type": "Point"}, "id": "_jQnrZ6ohpsbrs66pUFUYvz9drc=", "properties": {"@source_uri": "https://tools.usps.com/UspsToolsRestServices/rest/POLocator/findLocations", "@spider": "usps_collection_boxes", "addr:city": "MONTROSE", "addr:country": "US", "addr:postcode": "81401", "addr:state": "CO", "addr:street_address": "321 S 1ST ST", "amenity": "post_box", "collection_times": "Mo-Fr 17:00; Sa 12:00", "indoor": "yes", "note": "ON 12/24 AND 12/31, THIS BOX MAY BE COLLECTED AS EARLY AS 12 NOON.", "nsi_id": "unitedstatespostalservice-a77078", "operator": "United States Postal Service", "operator:short": "USPS", "operator:type": "public", "operator:wikidata": "Q668687", "ref": "8140100027"}, "type": "Feature"}
{"geometry": {"coordinates": [-107.876448, 38.478355], "type": "Point"}, "id": "ZxZHsp4qsBVncYMtbwI9tpFzAQg=", "properties": {"@source_uri": "https://tools.usps.com/UspsToolsRestServices/rest/POLocator/findLocations", "@spider": "usps_collection_boxes", "addr:city": "MONTROSE", "addr:country": "US", "addr:postcode": "81401", "addr:state": "CO", "addr:street_address": "321 S 1ST ST", "amenity": "post_box", "collection_times": "Mo-Fr 17:00; Sa 12:00", "note": "ON 12/24 AND 12/31, THIS BOX MAY BE COLLECTED AS EARLY AS 12 NOON.", "nsi_id": "unitedstatespostalservice-a77078", "operator": "United States Postal Service", "operator:short": "USPS", "operator:type": "public", "operator:wikidata": "Q668687", "ref": "8140100031"}, "type": "Feature"}
{"geometry": {"coordinates": [-107.914714, 38.502704], "type": "Point"}, "id": "dTfKsk-JvjUaHbNz-6gwS13mAn4=", "properties": {"@source_uri": "https://tools.usps.com/UspsToolsRestServices/rest/POLocator/findLocations", "@spider": "usps_collection_boxes", "addr:city": "MONTROSE", "addr:country": "US", "addr:postcode": "81401", "addr:state": "CO", "addr:street_address": "62880 LASALLE RD", "amenity": "post_box", "collection_times": "Mo-Sa 10:30", "nsi_id": "unitedstatespostalservice-a77078", "operator": "United States Postal Service", "operator:short": "USPS", "operator:type": "public", "operator:wikidata": "Q668687", "ref": "8140100033"}, "type": "Feature"}
{"geometry": {"coordinates": [-107.878865, 38.480793], "type": "Point"}, "id": "D-O60spIZoiHFqTlOYuPq_JHYMQ=", "properties": {"@source_uri": "https://tools.usps.com/UspsToolsRestServices/rest/POLocator/findLocations", "@spider": "usps_collection_boxes", "addr:city": "MONTROSE", "addr:country": "US", "addr:postcode": "81401", "addr:state": "CO", "addr:street_address": "325 N 2ND ST", "amenity": "post_box", "collection_times": "Mo-Sa 13:30", "note": "ON 12/24 AND 12/31, THIS BOX MAY BE COLLECTED AS EARLY AS 12 NOON.", "nsi_id": "unitedstatespostalservice-a77078", "operator": "United States Postal Service", "operator:short": "USPS", "operator:type": "public", "operator:wikidata": "Q668687", "ref": "8140100035"}, "type": "Feature"}
{"geometry": {"coordinates": [-107.878857, 38.480807], "type": "Point"}, "id": "C9vFWC2qS1NAp7Jiz6Q5pbOe3Jo=", "properties": {"@source_uri": "https://tools.usps.com/UspsToolsRestServices/rest/POLocator/findLocations", "@spider": "usps_collection_boxes", "addr:city": "MONTROSE", "addr:country": "US", "addr:postcode": "81401", "addr:state": "CO", "addr:street_address": "325 N 2ND ST", "amenity": "post_box", "collection_times": "Mo-Sa 13:30", "note": "ON 12/24 AND 12/31, THIS BOX MAY BE COLLECTED AS EARLY AS 12 NOON.", "nsi_id": "unitedstatespostalservice-a77078", "operator": "United States Postal Service", "operator:short": "USPS", "operator:type": "public", "operator:wikidata": "Q668687", "ref": "8140100036"}, "type": "Feature"}
{"geometry": {"coordinates": [-107.878845, 38.480802], "type": "Point"}, "id": "MfYDu4QUTtykSHaCXfoxyLYQS_w=", "properties": {"@source_uri": "https://tools.usps.com/UspsToolsRestServices/rest/POLocator/findLocations", "@spider": "usps_collection_boxes", "addr:city": "MONTROSE", "addr:country": "US", "addr:postcode": "81401", "addr:state": "CO", "addr:street_address": "325 N 2ND ST", "amenity": "post_box", "collection_times": "Mo-Sa 13:30", "note": "ON 12/24 AND 12/31, THIS BOX MAY BE COLLECTED AS EARLY AS 12 NOON.", "nsi_id": "unitedstatespostalservice-a77078", "operator": "United States Postal Service", "operator:short": "USPS", "operator:type": "public", "operator:wikidata": "Q668687", "ref": "8140100037"}, "type": "Feature"}
{"geometry": {"coordinates": [-107.859, 38.480742], "type": "Point"}, "id": "eQAjFIKgvGwUVrHFWHrr-YFBWAU=", "properties": {"@source_uri": "https://tools.usps.com/UspsToolsRestServices/rest/POLocator/findLocations", "@spider": "usps_collection_boxes", "addr:city": "MONTROSE", "addr:country": "US", "addr:postcode": "81401", "addr:state": "CO", "addr:street_address": "611 E STAR CT", "amenity": "post_box", "collection_times": "Mo-Sa 10:30", "nsi_id": "unitedstatespostalservice-a77078", "operator": "United States Postal Service", "operator:short": "USPS", "operator:type": "public", "operator:wikidata": "Q668687", "ref": "8140100038"}, "type": "Feature"}
{"geometry": {"coordinates": [-108.722821, 38.243894], "type": "Point"}, "id": "Y2DH5I5KoDFbNJDZUNyEJmsg_Vc=", "properties": {"@source_uri": "https://tools.usps.com/UspsToolsRestServices/rest/POLocator/findLocations", "@spider": "usps_collection_boxes", "addr:city": "BEDROCK", "addr:country": "US", "addr:postcode": "81411", "addr:state": "CO", "addr:street_address": "9538 HIGHWAY 90", "amenity": "post_box", "collection_times": "Mo-Fr 10:45; Sa 10:00", "indoor": "yes", "nsi_id": "unitedstatespostalservice-a77078", "operator": "United States Postal Service", "operator:short": "USPS", "operator:type": "public", "operator:wikidata": "Q668687", "ref": "8141100000"}, "type": "Feature"}
{"geometry": {"coordinates": [-108.57123, 38.217458], "type": "Point"}, "id": "Jhg9FzWJuRymLuKsGyU4YN5sAOI=", "properties": {"@source_uri": "https://tools.usps.com/UspsToolsRestServices/rest/POLocator/findLocations", "@spider": "usps_collection_boxes", "addr:city": "NATURITA", "addr:country": "US", "addr:postcode": "81422", "addr:state": "CO", "addr:street_address": "211 W MAIN ST", "amenity": "post_box", "collection_times": "Mo-Fr 14:30; Sa 12:00", "note": "ON 12/24 AND 12/31, THIS BOX MAY BE COLLECTED AS EARLY AS 12 NOON.", "nsi_id": "unitedstatespostalservice-a77078", "operator": "United States Postal Service", "operator:short": "USPS", "operator:type": "public", "operator:wikidata": "Q668687", "ref": "8142200000"}, "type": "Feature"}
{"geometry": {"coordinates": [-108.57123, 38.217458], "type": "Point"}, "id": "QijP2qNx0K4vsS7XepXyrOWxgNY=", "properties": {"@source_uri": "https://tools.usps.com/UspsToolsRestServices/rest/POLocator/findLocations", "@spider": "usps_collection_boxes", "addr:city": "NATURITA", "addr:country": "US", "addr:postcode": "81422", "addr:state": "CO", "addr:street_address": "211 W MAIN ST", "amenity": "post_box", "collection_times": "Mo-Fr 14:30; Sa 12:00", "indoor": "yes", "note": "ON 12/24 AND 12/31, THIS BOX MAY BE COLLECTED AS EARLY AS 12 NOON.", "nsi_id": "unitedstatespostalservice-a77078", "operator": "United States Postal Service", "operator:short": "USPS", "operator:type": "public", "operator:wikidata": "Q668687", "ref": "8142200001"}, "type": "Feature"}
{"geometry": {"coordinates": [-108.57123, 38.217458], "type": "Point"}, "id": "xXLeNKI3cRYXwKYxrxsnn3ZY3E4=", "properties": {"@source_uri": "https://tools.usps.com/UspsToolsRestServices/rest/POLocator/findLocations", "@spider": "usps_collection_boxes", "addr:city": "NATURITA", "addr:country": "US", "addr:postcode": "81422", "addr:state": "CO", "addr:street_address": "211 W MAIN ST", "amenity": "post_box", "collection_times": "Mo-Fr 14:30; Sa 12:00", "indoor": "yes", "note": "ON 12/24 AND 12/31, THIS BOX MAY BE COLLECTED AS EARLY AS 12 NOON.", "nsi_id": "unitedstatespostalservice-a77078", "operator": "United States Postal Service", "operator:short": "USPS", "operator:type": "public", "operator:wikidata": "Q668687", "ref": "8142200002"}, "type": "Feature"}
{"geometry": {"coordinates": [-108.290098, 38.130794], "type": "Point"}, "id": "m55OPGutdpIYBbk42e5ikATjXJg=", "properties": {"@source_uri": "https://tools.usps.com/UspsToolsRestServices/rest/POLocator/findLocations", "@spider": "usps_collection_boxes", "addr:city": "NORWOOD", "addr:country": "US", "addr:postcode": "81423", "addr:state": "CO", "addr:street_address": "1555 GRAND AVE", "amenity": "post_box", "collection_times": "Mo-Fr 13:45; Sa 11:45", "note": "ON 12/24 AND 12/31, THIS BOX MAY BE COLLECTED AS EARLY AS 12 NOON.", "nsi_id": "unitedstatespostalservice-a77078", "operator": "United States Postal Service", "operator:short": "USPS", "operator:type": "public", "operator:wikidata": "Q668687", "ref": "8142300000"}, "type": "Feature"}
{"geometry": {"coordinates": [-108.290087, 38.130767], "type": "Point"}, "id": "XJOUgleTosSumYsn2aVIxJIErXY=", "properties": {"@source_uri": "https://tools.usps.com/UspsToolsRestServices/rest/POLocator/findLocations", "@spider": "usps_collection_boxes", "addr:city": "NORWOOD", "addr:country": "US", "addr:postcode": "81423", "addr:state": "CO", "addr:street_address": "1555 GRAND AVE", "amenity": "post_box", "collection_times": "Mo-Fr 14:00; Sa 12:00", "indoor": "yes", "note": "ON 12/24 AND 12/31, THIS BOX MAY BE COLLECTED AS EARLY AS 12 NOON.", "nsi_id": "unitedstatespostalservice-a77078", "operator": "United States Postal Service", "operator:short": "USPS", "operator:type": "public", "operator:wikidata": "Q668687", "ref": "8142300001"}, "type": "Feature"}
{"geometry": {"coordinates": [-108.290087, 38.130767], "type": "Point"}, "id": "sdxsGg5ymdh6Y7tZ_ozNBppGqTU=", "properties": {"@source_uri": "https://tools.usps.com/UspsToolsRestServices/rest/POLocator/findLocations", "@spider": "usps_collection_boxes", "addr:city": "NORWOOD", "addr:country": "US", "addr:postcode": "81423", "addr:state": "CO", "addr:street_address": "1555 GRAND AVE", "amenity": "post_box", "collection_times": "Mo-Fr 14:00; Sa 12:00", "indoor": "yes", "note": "ON 12/24 AND 12/31, THIS BOX MAY BE COLLECTED AS EARLY AS 12 NOON.", "nsi_id": "unitedstatespostalservice-a77078", "operator": "United States Postal Service", "operator:short": "USPS", "operator:type": "public", "operator:wikidata": "Q668687", "ref": "8142300002"}, "type": "Feature"}
{"geometry": {"coordinates": [-108.290087, 38.130767], "type": "Point"}, "id": "A-M0OHyYEisO-aGcn0hTRXw6YZw=", "properties": {"@source_uri": "https://tools.usps.com/UspsToolsRestServices/rest/POLocator/findLocations", "@spider": "usps_collection_boxes", "addr:city": "NORWOOD", "addr:country": "US", "addr:postcode": "81423", "addr:state": "CO", "addr:street_address": "1555 GRAND AVE", "amenity": "post_box", "collection_times": "Mo-Fr 14:00; Sa 12:00", "indoor": "yes", "note": "ON 12/24 AND 12/31, THIS BOX MAY BE COLLECTED AS EARLY AS 12 NOON.", "nsi_id": "unitedstatespostalservice-a77078", "operator": "United States Postal Service", "operator:short": "USPS", "operator:type": "public", "operator:wikidata": "Q668687", "ref": "8142300003"}, "type": "Feature"}
{"geometry": {"coordinates": [-108.546824, 38.268853], "type": "Point"}, "id": "8KiQU2YoPmCQYcrwVKaym7HYniM=", "properties": {"@source_uri": "https://tools.usps.com/UspsToolsRestServices/rest/POLocator/findLocations", "@spider": "usps_collection_boxes", "addr:city": "NUCLA", "addr:country": "US", "addr:postcode": "81424", "addr:state": "CO", "addr:street_address": "145 W 5TH AVE", "amenity": "post_box", "collection_times": "Mo-Fr 14:15; Sa 12:00", "note": "ON 12/24 AND 12/31, THIS BOX MAY BE COLLECTED AS EARLY AS 12 NOON.", "nsi_id": "unitedstatespostalservice-a77078", "operator": "United States Postal Service", "operator:short": "USPS", "operator:type": "public", "operator:wikidata": "Q668687", "ref": "8142400000"}, "type": "Feature"}
{"geometry": {"coordinates": [-108.546835, 38.268826], "type": "Point"}, "id": "-o3hj2GxunxTkHUbygRUtmqGRfY=", "properties": {"@source_uri": "https://tools.usps.com/UspsToolsRestServices/rest/POLocator/findLocations", "@spider": "usps_collection_boxes", "addr:city": "NUCLA", "addr:country": "US", "addr:postcode": "81424", "addr:state": "CO", "addr:street_address": "145 W 5TH AVE", "amenity": "post_box", "collection_times": "Mo-Fr 14:15; Sa 12:00", "indoor": "yes", "note": "ON 12/24 AND 12/31, THIS BOX MAY BE COLLECTED AS EARLY AS 12 NOON.", "nsi_id": "unitedstatespostalservice-a77078", "operator": "United States Postal Service", "operator:short": "USPS", "operator:type": "public", "operator:wikidata": "Q668687", "ref": "8142400001"}, "type": "Feature"}
{"geometry": {"coordinates": [-108.546835, 38.268826], "type": "Point"}, "id": "QAeinVj0KG9rhnSpV7h7_uNm3dU=", "properties": {"@source_uri": "https://tools.usps.com/UspsToolsRestServices/rest/POLocator/findLocations", "@spider": "usps_collection_boxes", "addr:city": "NUCLA", "addr:country": "US", "addr:postcode": "81424", "addr:state": "CO", "addr:street_address": "145 W 5TH AVE", "amenity": "post_box", "collection_times": "Mo-Fr 14:15; Sa 12:00", "indoor": "yes", "note": "ON 12/24 AND 12/31, THIS BOX MAY BE COLLECTED AS EARLY AS 12 NOON.", "nsi_id": "unitedstatespostalservice-a77078", "operator": "United States Postal Service", "operator:short": "USPS", "operator:type": "public", "operator:wikidata": "Q668687", "ref": "8142400002"}, "type": "Feature"}
{"geometry": {"coordinates": [-107.9789793084, 38.6077277993], "type": "Point"}, "id": "swRA_43IXUax4uoOG2uNrDjEl1s=", "properties": {"@source_uri": "https://tools.usps.com/UspsToolsRestServices/rest/POLocator/findLocations", "@spider": "usps_collection_boxes", "addr:city": "OLATHE", "addr:country": "US", "addr:postcode": "81425", "addr:state": "CO", "addr:street_address": "215 HIGHWAY 50 BUSINESS LOOP", "amenity": "post_box", "collection_times": "Mo-Fr 16:00; Sa 12:30", "note": "ON 12/24 AND 12/31, THIS BOX MAY BE COLLECTED AS EARLY AS 12 NOON.", "nsi_id": "unitedstatespostalservice-a77078", "operator": "United States Postal Service", "operator:short": "USPS", "operator:type": "public", "operator:wikidata": "Q668687", "ref": "8142500000"}, "type": "Feature"}
{"geometry": {"coordinates": [-107.979301, 38.60763], "type": "Point"}, "id": "Ycoxq_INRvjzcgvBX4U-cyaIxfg=", "properties": {"@source_uri": "https://tools.usps.com/UspsToolsRestServices/rest/POLocator/findLocations", "@spider": "usps_collection_boxes", "addr:city": "OLATHE", "addr:country": "US", "addr:postcode": "81425", "addr:state": "CO", "addr:street_address": "215 HIGHWAY 50 BUSINESS LOOP", "amenity": "post_box", "collection_times": "Mo-Fr 16:15; Sa 12:30", "indoor": "yes", "note": "ON 12/24 AND 12/31, THIS BOX MAY BE COLLECTED AS EARLY AS 12 NOON.", "nsi_id": "unitedstatespostalservice-a77078", "operator": "United States Postal Service", "operator:short": "USPS", "operator:type": "public", "operator:wikidata": "Q668687", "ref": "8142500001"}, "type": "Feature"}
{"geometry": {"coordinates": [-107.979301, 38.60763], "type": "Point"}, "id": "RsXNcMDQx-1yFxY9_K93f6TSHiA=", "properties": {"@source_uri": "https://tools.usps.com/UspsToolsRestServices/rest/POLocator/findLocations", "@spider": "usps_collection_boxes", "addr:city": "OLATHE", "addr:country": "US", "addr:postcode": "81425", "addr:state": "CO", "addr:street_address": "215 S HIGHWAY 50 BUSINESS LOOP", "amenity": "post_box", "collection_times": "Mo-Fr 16:15; Sa 12:30", "indoor": "yes", "note": "ON 12/24 AND 12/31, THIS BOX MAY BE COLLECTED AS EARLY AS 12 NOON.", "nsi_id": "unitedstatespostalservice-a77078", "operator": "United States Postal Service", "operator:short": "USPS", "operator:type": "public", "operator:wikidata": "Q668687", "ref": "8142500002"}, "type": "Feature"}
{"geometry": {"coordinates": [-107.868589, 37.860198], "type": "Point"}, "id": "FPMnbltbuJJUfOZWA6x6OQGmNvk=", "properties": {"@source_uri": "https://tools.usps.com/UspsToolsRestServices/rest/POLocator/findLocations", "@spider": "usps_collection_boxes", "addr:city": "OPHIR", "addr:country": "US", "addr:postcode": "81426", "addr:state": "CO", "addr:street_address": "430 COUNTY RD 630", "amenity": "post_box", "collection_times": "Mo-Fr 15:00; Sa 11:50", "indoor": "yes", "note": "ON 12/24 AND 12/31, THIS BOX MAY BE COLLECTED AS EARLY AS 12 NOON.", "nsi_id": "unitedstatespostalservice-a77078", "operator": "United States Postal Service", "operator:short": "USPS", "operator:type": "public", "operator:wikidata": "Q668687", "ref": "8142600001"}, "type": "Feature"}
{"geometry": {"coordinates": [-107.671504, 38.023069], "type": "Point"}, "id": "uJaJrFlT-LTakjBqCEn5fZlAqVY=", "properties": {"@source_uri": "https://tools.usps.com/UspsToolsRestServices/rest/POLocator/findLocations", "@spider": "usps_collection_boxes", "addr:city": "OURAY", "addr:country": "US", "addr:postcode": "81427", "addr:state": "CO", "addr:street_address": "620 MAIN ST", "amenity": "post_box", "collection_times": "Sa 12:00", "indoor": "yes", "nsi_id": "unitedstatespostalservice-a77078", "operator": "United States Postal Service", "operator:short": "USPS", "operator:type": "public", "operator:wikidata": "Q668687", "ref": "8142700000"}, "type": "Feature"}
{"geometry": {"coordinates": [-107.67147, 38.023016], "type": "Point"}, "id": "eWYK4-VOy0HKDqWQPV55GSbOngk=", "properties": {"@source_uri": "https://tools.usps.com/UspsToolsRestServices/rest/POLocator/findLocations", "@spider": "usps_collection_boxes", "addr:city": "OURAY", "addr:country": "US", "addr:postcode": "81427", "addr:state": "CO", "addr:street_address": "620 MAIN ST", "amenity": "post_box", "collection_times": "Mo-Fr 16:00; Sa 12:00", "note": "ON 12/24 AND 12/31, THIS BOX MAY BE COLLECTED AS EARLY AS 12 NOON.", "nsi_id": "unitedstatespostalservice-a77078", "operator": "United States Postal Service", "operator:short": "USPS", "operator:type": "public", "operator:wikidata": "Q668687", "ref": "8142700001"}, "type": "Feature"}
{"geometry": {"coordinates": [-107.67147, 38.023016], "type": "Point"}, "id": "_LdpRlynzZ0J6bqDha-5StFbPTE=", "properties": {"@source_uri": "https://tools.usps.com/UspsToolsRestServices/rest/POLocator/findLocations", "@spider": "usps_collection_boxes", "addr:city": "OURAY", "addr:country": "US", "addr:postcode": "81427", "addr:state": "CO", "addr:street_address": "620 MAIN ST", "amenity": "post_box", "collection_times": "Mo-Fr 16:00; Sa 12:00", "indoor": "yes", "note": "ON 12/24 AND 12/31, THIS BOX MAY BE COLLECTED AS EARLY AS 12 NOON.", "nsi_id": "unitedstatespostalservice-a77078", "operator": "United States Postal Service", "operator:short": "USPS", "operator:type": "public", "operator:wikidata": "Q668687", "ref": "8142700002"}, "type": "Feature"}
{"geometry": {"coordinates": [-108.9622673036, 38.3730812638], "type": "Point"}, "id": "pKC7TpKOHz0mWhrJWaNltphPRaM=", "properties": {"@source_uri": "https://tools.usps.com/UspsToolsRestServices/rest/POLocator/findLocations", "@spider": "usps_collection_boxes", "addr:city": "PARADOX", "addr:country": "US", "addr:postcode": "81429", "addr:state": "CO", "addr:street_address": "21395 6.0 RD", "amenity": "post_box", "collection_times": "Mo-Fr 12:30; Sa 10:45", "indoor": "yes", "note": "ON 12/24 AND 12/31, THIS BOX MAY BE COLLECTED AS EARLY AS 12 NOON.", "nsi_id": "unitedstatespostalservice-a77078", "operator": "United States Postal Service", "operator:short": "USPS", "operator:type": "public", "operator:wikidata": "Q668687", "ref": "8142900000"}, "type": "Feature"}
{"geometry": {"coordinates": [-108.9622673036, 38.3730812638], "type": "Point"}, "id": "9UPF3VPyJmoEA0IJHYHDss3TYOg=", "properties": {"@source_uri": "https://tools.usps.com/UspsToolsRestServices/rest/POLocator/findLocations", "@spider": "usps_collection_boxes", "addr:city": "PARADOX", "addr:country": "US", "addr:postcode": "81429", "addr:state": "CO", "addr:street_address": "21395 6.0 RD", "amenity": "post_box", "collection_times": "Mo-Fr 12:30; Sa 10:30", "indoor": "yes", "note": "ON 12/24 AND 12/31, THIS BOX MAY BE COLLECTED AS EARLY AS 12 NOON.", "nsi_id": "unitedstatespostalservice-a77078", "operator": "United States Postal Service", "operator:short": "USPS", "operator:type": "public", "operator:wikidata": "Q668687", "ref": "8142900001"}, "type": "Feature"}
{"geometry": {"coordinates": [-108.053657, 38.017348], "type": "Point"}, "id": "dVCcakmQzfgM90K2AltAlm3msi8=", "properties": {"@source_uri": "https://tools.usps.com/UspsToolsRestServices/rest/POLocator/findLocations", "@spider": "usps_collection_boxes", "addr:city": "PLACERVILLE", "addr:country": "US", "addr:postcode": "81430", "addr:state": "CO", "addr:street_address": "300 FRONT ST", "amenity": "post_box", "collection_times": "Mo-Fr 15:35; Sa 11:35", "note": "ON 12/24 AND 12/31, THIS BOX MAY BE COLLECTED AS EARLY AS 12 NOON.", "nsi_id": "unitedstatespostalservice-a77078", "operator": "United States Postal Service", "operator:short": "USPS", "operator:type": "public", "operator:wikidata": "Q668687", "ref": "8143000000"}, "type": "Feature"}
{"geometry": {"coordinates": [-108.053713, 38.017385], "type": "Point"}, "id": "YJYTPFwnp6zjgBzzSnHbZTKgfHw=", "properties": {"@source_uri": "https://tools.usps.com/UspsToolsRestServices/rest/POLocator/findLocations", "@spider": "usps_collection_boxes", "addr:city": "PLACERVILLE", "addr:country": "US", "addr:postcode": "81430", "addr:state": "CO", "addr:street_address": "300 FRONT ST", "amenity": "post_box", "collection_times": "Mo-Fr 15:35; Sa 11:35", "indoor": "yes", "note": "ON 12/24 AND 12/31, THIS BOX MAY BE COLLECTED AS EARLY AS 12 NOON.", "nsi_id": "unitedstatespostalservice-a77078", "operator": "United States Postal Service", "operator:short": "USPS", "operator:type": "public", "operator:wikidata": "Q668687", "ref": "8143000001"}, "type": "Feature"}
{"geometry": {"coordinates": [-108.417507, 38.172674], "type": "Point"}, "id": "sFExbUJOGcph4mwQQPJVtBV2NXc=", "properties": {"@source_uri": "https://tools.usps.com/UspsToolsRestServices/rest/POLocator/findLocations", "@spider": "usps_collection_boxes", "addr:city": "REDVALE", "addr:country": "US", "addr:postcode": "81431", "addr:state": "CO", "addr:street_address": "404 REDVALE RD", "amenity": "post_box", "collection_times": "Mo-Fr 13:30; Sa 10:30", "note": "ON 12/24 AND 12/31, THIS BOX MAY BE COLLECTED AS EARLY AS 12 NOON.", "nsi_id": "unitedstatespostalservice-a77078", "operator": "United States Postal Service", "operator:short": "USPS", "operator:type": "public", "operator:wikidata": "Q668687", "ref": "8143100000"}, "type": "Feature"}
{"geometry": {"coordinates": [-108.417507, 38.172674], "type": "Point"}, "id": "kiXhwU1y_qPj2geMqe7PmJH86TU=", "properties": {"@source_uri": "https://tools.usps.com/UspsToolsRestServices/rest/POLocator/findLocations", "@spider": "usps_collection_boxes", "addr:city": "REDVALE", "addr:country": "US", "addr:postcode": "81431", "addr:state": "CO", "addr:street_address": "404 REDVALE RD", "amenity": "post_box", "collection_times": "Mo-Fr 14:00; Sa 10:50", "indoor": "yes", "note": "ON 12/24 AND 12/31, THIS BOX MAY BE COLLECTED AS EARLY AS 12 NOON.", "nsi_id": "unitedstatespostalservice-a77078", "operator": "United States Postal Service", "operator:short": "USPS", "operator:type": "public", "operator:wikidata": "Q668687", "ref": "8143100001"}, "type": "Feature"}
{"geometry": {"coordinates": [-107.756855, 38.152429], "type": "Point"}, "id": "fbS-jhZgBxNsjfLLXJxlEWIDogo=", "properties": {"@source_uri": "https://tools.usps.com/UspsToolsRestServices/rest/POLocator/findLocations", "@spider": "usps_collection_boxes", "addr:city": "RIDGWAY", "addr:country": "US", "addr:postcode": "81432", "addr:state": "CO", "addr:street_address": "485 CLINTON ST", "amenity": "post_box", "collection_times": "Mo-Fr 16:15; Sa 12:00", "note": "ON 12/24 AND 12/31, THIS BOX MAY BE COLLECTED AS EARLY AS 12 NOON.", "nsi_id": "unitedstatespostalservice-a77078", "operator": "United States Postal Service", "operator:short": "USPS", "operator:type": "public", "operator:wikidata": "Q668687", "ref": "8143200000"}, "type": "Feature"}
{"geometry": {"coordinates": [-107.756838, 38.152401], "type": "Point"}, "id": "FmTqEwyZF_IYh8jLpF_IBKx7eyg=", "properties": {"@source_uri": "https://tools.usps.com/UspsToolsRestServices/rest/POLocator/findLocations", "@spider": "usps_collection_boxes", "addr:city": "RIDGWAY", "addr:country": "US", "addr:postcode": "81432", "addr:state": "CO", "addr:street_address": "485 CLINTON ST", "amenity": "post_box", "collection_times": "Mo-Fr 16:15; Sa 12:00", "indoor": "yes", "note": "ON 12/24 AND 12/31, THIS BOX MAY BE COLLECTED AS EARLY AS 12 NOON.", "nsi_id": "unitedstatespostalservice-a77078", "operator": "United States Postal Service", "operator:short": "USPS", "operator:type": "public", "operator:wikidata": "Q668687", "ref": "8143200004"}, "type": "Feature"}
{"geometry": {"coordinates": [-107.796871, 38.186648], "type": "Point"}, "id": "EEp1X-QhTzsi2ZsNq3xVz3Pth48=", "properties": {"@source_uri": "https://tools.usps.com/UspsToolsRestServices/rest/POLocator/findLocations", "@spider": "usps_collection_boxes", "addr:city": "RIDGWAY", "addr:country": "US", "addr:postcode": "81432", "addr:state": "CO", "addr:street_address": "200 PONDEROSA DR", "amenity": "post_box", "collection_times": "Mo-Sa 11:00", "nsi_id": "unitedstatespostalservice-a77078", "operator": "United States Postal Service", "operator:short": "USPS", "operator:type": "public", "operator:wikidata": "Q668687", "ref": "8143200005"}, "type": "Feature"}
{"geometry": {"coordinates": [-107.785114, 38.08983], "type": "Point"}, "id": "yx4pjXQ3hy3wA5SQ6__e4Pu93d4=", "properties": {"@source_uri": "https://tools.usps.com/UspsToolsRestServices/rest/POLocator/findLocations", "@spider": "usps_collection_boxes", "addr:city": "RIDGWAY", "addr:country": "US", "addr:postcode": "81432", "addr:state": "CO", "addr:street_address": "1000 ASPEN DR", "amenity": "post_box", "collection_times": "Mo-Sa 09:30", "nsi_id": "unitedstatespostalservice-a77078", "operator": "United States Postal Service", "operator:short": "USPS", "operator:type": "public", "operator:wikidata": "Q668687", "ref": "8143200006"}, "type": "Feature"}
{"geometry": {"coordinates": [-107.75755, 38.147868], "type": "Point"}, "id": "9lyXTnAN-I8uSNBgz4BK_ahebbw=", "properties": {"@source_uri": "https://tools.usps.com/UspsToolsRestServices/rest/POLocator/findLocations", "@spider": "usps_collection_boxes", "addr:city": "RIDGWAY", "addr:country": "US", "addr:postcode": "81432", "addr:state": "CO", "addr:street_address": "602 SABETA DR", "amenity": "post_box", "collection_times": "Mo-Sa 12:30", "note": "ON 12/24 AND 12/31, THIS BOX MAY BE COLLECTED AS EARLY AS 12 NOON.", "nsi_id": "unitedstatespostalservice-a77078", "operator": "United States Postal Service", "operator:short": "USPS", "operator:type": "public", "operator:wikidata": "Q668687", "ref": "8143200007"}, "type": "Feature"}
{"geometry": {"coordinates": [-107.664719, 37.811863], "type": "Point"}, "id": "eOxdDBezQLAQ2UZo2Al3nbLz8tU=", "properties": {"@source_uri": "https://tools.usps.com/UspsToolsRestServices/rest/POLocator/findLocations", "@spider": "usps_collection_boxes", "addr:city": "SILVERTON", "addr:country": "US", "addr:postcode": "81433", "addr:state": "CO", "addr:street_address": "138 W 12TH ST", "amenity": "post_box", "collection_times": "Mo-Fr 14:15; Sa 12:45", "note": "ON 12/24 AND 12/31, THIS BOX MAY BE COLLECTED AS EARLY AS 12 NOON.", "nsi_id": "unitedstatespostalservice-a77078", "operator": "United States Postal Service", "operator:short": "USPS", "operator:type": "public", "operator:wikidata": "Q668687", "ref": "8143300000"}, "type": "Feature"}
{"geometry": {"coordinates": [-107.664719, 37.811829], "type": "Point"}, "id": "rI-Uo7gBVwwvs_NMV4W_mj3fbV4=", "properties": {"@source_uri": "https://tools.usps.com/UspsToolsRestServices/rest/POLocator/findLocations", "@spider": "usps_collection_boxes", "addr:city": "SILVERTON", "addr:country": "US", "addr:postcode": "81433", "addr:state": "CO", "addr:street_address": "138 W 12TH ST", "amenity": "post_box", "collection_times": "Mo-Fr 14:15; Sa 12:45", "indoor": "yes", "note": "ON 12/24 AND 12/31, THIS BOX MAY BE COLLECTED AS EARLY AS 12 NOON.", "nsi_id": "unitedstatespostalservice-a77078", "operator": "United States Postal Service", "operator:short": "USPS", "operator:type": "public", "operator:wikidata": "Q668687", "ref": "8143300001"}, "type": "Feature"}
{"geometry": {"coordinates": [-107.664719, 37.811829], "type": "Point"}, "id": "k9CQLp-ZMPfyHbde6xI40AitRQk=", "properties": {"@source_uri": "https://tools.usps.com/UspsToolsRestServices/rest/POLocator/findLocations", "@spider": "usps_collection_boxes", "addr:city": "SILVERTON", "addr:country": "US", "addr:postcode": "81433", "addr:state": "CO", "addr:street_address": "138 W 12TH ST", "amenity": "post_box", "collection_times": "Mo-Fr 14:15; Sa 12:45", "indoor": "yes", "note": "ON 12/24 AND 12/31, THIS BOX MAY BE COLLECTED AS EARLY AS 12 NOON.", "nsi_id": "unitedstatespostalservice-a77078", "operator": "United States Postal Service", "operator:short": "USPS", "operator:type": "public", "operator:wikidata": "Q668687", "ref": "8143300002"}, "type": "Feature"}
{"geometry": {"coordinates": [-107.808845, 37.936384], "type": "Point"}, "id": "OGkOQK3hHNSdxbFtoiVrxXPs-Z8=", "properties": {"@source_uri": "https://tools.usps.com/UspsToolsRestServices/rest/POLocator/findLocations", "@spider": "usps_collection_boxes", "addr:city": "TELLURIDE", "addr:country": "US", "addr:postcode": "81435", "addr:state": "CO", "addr:street_address": "150 S WILLOW ST", "amenity": "post_box", "collection_times": "Mo-Fr 15:15; Sa 12:00", "indoor": "yes", "note": "ON 12/24 AND 12/31, THIS BOX MAY BE COLLECTED AS EARLY AS 12 NOON.", "nsi_id": "unitedstatespostalservice-a77078", "operator": "United States Postal Service", "operator:short": "USPS", "operator:type": "public", "operator:wikidata": "Q668687", "ref": "8143500002"}, "type": "Feature"}
{"geometry": {"coordinates": [-107.808856, 37.936436], "type": "Point"}, "id": "GiOWrpZzXtdkDrBjtXULLmOSLDU=", "properties": {"@source_uri": "https://tools.usps.com/UspsToolsRestServices/rest/POLocator/findLocations", "@spider": "usps_collection_boxes", "addr:city": "TELLURIDE", "addr:country": "US", "addr:postcode": "81435", "addr:state": "CO", "addr:street_address": "150 S WILLOW ST", "amenity": "post_box", "collection_times": "Mo-Fr 15:15; Sa 12:00", "indoor": "yes", "note": "ON 12/24 AND 12/31, THIS BOX MAY BE COLLECTED AS EARLY AS 12 NOON.", "nsi_id": "unitedstatespostalservice-a77078", "operator": "United States Postal Service", "operator:short": "USPS", "operator:type": "public", "operator:wikidata": "Q668687", "ref": "8143500003"}, "type": "Feature"}
{"geometry": {"coordinates": [-107.857436, 37.939451], "type": "Point"}, "id": "uj4zuxXkuA9UyBUoNxAVjdDXuO8=", "properties": {"@source_uri": "https://tools.usps.com/UspsToolsRestServices/rest/POLocator/findLocations", "@spider": "usps_collection_boxes", "addr:city": "TELLURIDE", "addr:country": "US", "addr:postcode": "81435", "addr:state": "CO", "addr:street_address": "330 ADAMS RANCH RD", "amenity": "post_box", "collection_times": "Mo-Sa 12:30", "note": "ON 12/24 AND 12/31, THIS BOX MAY BE COLLECTED AS EARLY AS 12 NOON.", "nsi_id": "unitedstatespostalservice-a77078", "operator": "United States Postal Service", "operator:short": "USPS", "operator:type": "public", "operator:wikidata": "Q668687", "ref": "8143500006"}, "type": "Feature"}
{"geometry": {"coordinates": [-107.847064, 37.938295], "type": "Point"}, "id": "4TDvdgGZ5wvdQRuXpBuOyTRC91s=", "properties": {"@source_uri": "https://tools.usps.com/UspsToolsRestServices/rest/POLocator/findLocations", "@spider": "usps_collection_boxes", "addr:city": "TELLURIDE", "addr:country": "US", "addr:postcode": "81435", "addr:state": "CO", "addr:street_address": "620 MOUNTAIN VILLAGE BLVD", "amenity": "post_box", "collection_times": "Mo-Sa 11:00", "nsi_id": "unitedstatespostalservice-a77078", "operator": "United States Postal Service", "operator:short": "USPS", "operator:type": "public", "operator:wikidata": "Q668687", "ref": "8143500011"}, "type": "Feature"}
{"geometry": {"coordinates": [-107.812893, 37.937782], "type": "Point"}, "id": "wwFvzekQ73weLzaJsJNHq58TGdk=", "properties": {"@source_uri": "https://tools.usps.com/UspsToolsRestServices/rest/POLocator/findLocations", "@spider": "usps_collection_boxes", "addr:city": "TELLURIDE", "addr:country": "US", "addr:postcode": "81435", "addr:state": "CO", "addr:street_address": "305 E COLORADO ST", "amenity": "post_box", "collection_times": "Mo-Sa 12:00", "nsi_id": "unitedstatespostalservice-a77078", "operator": "United States Postal Service", "operator:short": "USPS", "operator:type": "public", "operator:wikidata": "Q668687", "ref": "8143500012"}, "type": "Feature"}
{"geometry": {"coordinates": [-107.808856, 37.936436], "type": "Point"}, "id": "ttMGzJAsksidou-kRUlEyZ3cQvE=", "properties": {"@source_uri": "https://tools.usps.com/UspsToolsRestServices/rest/POLocator/findLocations", "@spider": "usps_collection_boxes", "addr:city": "TELLURIDE", "addr:country": "US", "addr:postcode": "81435", "addr:state": "CO", "addr:street_address": "150 S WILLOW ST", "amenity": "post_box", "collection_times": "Mo-Fr 15:05; Sa 12:00", "note": "ON 12/24 AND 12/31, THIS BOX MAY BE COLLECTED AS EARLY AS 12 NOON.", "nsi_id": "unitedstatespostalservice-a77078", "operator": "United States Postal Service", "operator:short": "USPS", "operator:type": "public", "operator:wikidata": "Q668687", "ref": "8143500013"}, "type": "Feature"}
{"geometry": {"coordinates": [-107.819723, 37.939794], "type": "Point"}, "id": "Mfis_3QABCseUdODqExVd19ef34=", "properties": {"@source_uri": "https://tools.usps.com/UspsToolsRestServices/rest/POLocator/findLocations", "@spider": "usps_collection_boxes", "addr:city": "TELLURIDE", "addr:country": "US", "addr:postcode": "81435", "addr:state": "CO", "addr:street_address": "700 W COLORADAO AVE", "amenity": "post_box", "collection_times": "Mo-Sa 12:08", "note": "ON 12/24 AND 12/31, THIS BOX MAY BE COLLECTED AS EARLY AS 12 NOON.", "nsi_id": "unitedstatespostalservice-a77078", "operator": "United States Postal Service", "operator:short": "USPS", "operator:type": "public", "operator:wikidata": "Q668687", "ref": "8143500014"}, "type": "Feature"}
{"geometry": {"coordinates": [-107.881941, 37.946403], "type": "Point"}, "id": "yMLlJnk8J7yIDUnxaSSiA38i27Y=", "properties": {"@source_uri": "https://tools.usps.com/UspsToolsRestServices/rest/POLocator/findLocations", "@spider": "usps_collection_boxes", "addr:city": "TELLURIDE", "addr:country": "US", "addr:postcode": "81435", "addr:state": "CO", "addr:street_address": "307 SOCIETY DR", "amenity": "post_box", "collection_times": "Mo-Sa 12:00", "nsi_id": "unitedstatespostalservice-a77078", "operator": "United States Postal Service", "operator:short": "USPS", "operator:type": "public", "operator:wikidata": "Q668687", "ref": "8143500015"}, "type": "Feature"}
{"geometry": {"coordinates": [-107.872965, 37.947992], "type": "Point"}, "id": "R8njKp8ZihgbOprOE0l01vAynkA=", "properties": {"@source_uri": "https://tools.usps.com/UspsToolsRestServices/rest/POLocator/findLocations", "@spider": "usps_collection_boxes", "addr:city": "TELLURIDE", "addr:country": "US", "addr:postcode": "81435", "addr:state": "CO", "addr:street_address": "100 SOCIETY DR", "amenity": "post_box", "collection_times": "Mo-Sa 12:00", "nsi_id": "unitedstatespostalservice-a77078", "operator": "United States Postal Service", "operator:short": "USPS", "operator:type": "public", "operator:wikidata": "Q668687", "ref": "8143500016"}, "type": "Feature"}
{"geometry": {"coordinates": [-107.846813, 37.938313], "type": "Point"}, "id": "X1VoB-ge64OurYNv9HCZbJMKJfY=", "properties": {"@source_uri": "https://tools.usps.com/UspsToolsRestServices/rest/POLocator/findLocations", "@spider": "usps_collection_boxes", "addr:city": "TELLURIDE", "addr:country": "US", "addr:postcode": "81435", "addr:state": "CO", "addr:street_address": "620 MOUNTAIN VILLAGE BLVD", "amenity": "post_box", "collection_times": "Mo-Sa 11:00", "nsi_id": "unitedstatespostalservice-a77078", "operator": "United States Postal Service", "operator:short": "USPS", "operator:type": "public", "operator:wikidata": "Q668687", "ref": "8143500017"}, "type": "Feature"}
{"geometry": {"coordinates": [-107.85372, 37.932354], "type": "Point"}, "id": "9_dbb6NhTu_XPP01UHezcBbonb4=", "properties": {"@source_uri": "https://tools.usps.com/UspsToolsRestServices/rest/POLocator/findLocations", "@spider": "usps_collection_boxes", "addr:city": "TELLURIDE", "addr:country": "US", "addr:postcode": "81435", "addr:state": "CO", "addr:street_address": "456 MOUNTAIN VILLAGE BLVD", "amenity": "post_box", "collection_times": "Mo-Sa 11:00", "nsi_id": "unitedstatespostalservice-a77078", "operator": "United States Postal Service", "operator:short": "USPS", "operator:type": "public", "operator:wikidata": "Q668687", "ref": "8143500018"}, "type": "Feature"}
