{"geometry": {"coordinates": [-108.56677, 39.06725], "type": "Point"}, "id": "v9j8DsSRK5YbXce7K-JaKukr_JE=", "properties": {"@source_uri": "https://tools.usps.com/UspsToolsRestServices/rest/POLocator/findLocations", "@spider": "usps_collection_boxes", "addr:city": "GRAND JUNCTION", "addr:country": "US", "addr:postcode": "81501", "addr:state": "CO", "addr:street_address": "355 MAIN ST", "amenity": "post_box", "collection_times": "Mo-Fr 10:00", "nsi_id": "unitedstatespostalservice-a77078", "operator": "United States Postal Service", "operator:short": "USPS", "operator:type": "public", "operator:wikidata": "Q668687", "ref": "8150100024"}, "type": "Feature"}
{"geometry": {"coordinates": [-108.56946, 39.0709], "type": "Point"}, "id": "RiN5ASOp4zwTZe79bZ7x5FU2dNk=", "properties": {"@source_uri": "https://tools.usps.com/UspsToolsRestServices/rest/POLocator/findLocations", "@spider": "usps_collection_boxes", "addr:city": "GRAND JUNCTION", "addr:country": "US", "addr:postcode": "81501", "addr:state": "CO", "addr:street_address": "202 GRAND AVE", "amenity": "post_box", "collection_times": "Mo-Fr 12:00", "nsi_id": "unitedstatespostalservice-a77078", "operator": "United States Postal Service", "operator:short": "USPS", "operator:type": "public", "operator:wikidata": "Q668687", "ref": "8150100037"}, "type": "Feature"}
{"geometry": {"coordinates": [-108.566702, 39.068991], "type": "Point"}, "id": "bN91q8PbGu3MsOjTHJcTRk1uBGQ=", "properties": {"@source_uri": "https://tools.usps.com/UspsToolsRestServices/rest/POLocator/findLocations", "@spider": "usps_collection_boxes", "addr:city": "GRAND JUNCTION", "addr:country": "US", "addr:postcode": "81501", "addr:state": "CO", "addr:street_address": "241 N 4TH ST", "amenity": "post_box", "collection_times": "Mo-Fr 17:00; Sa 13:00", "note": "ON 12/24 AND 12/31, THIS BOX MAY BE COLLECTED AS EARLY AS 12 NOON.", "nsi_id": "unitedstatespostalservice-a77078", "operator": "United States Postal Service", "operator:short": "USPS", "operator:type": "public", "operator:wikidata": "Q668687", "ref": "8150100066"}, "type": "Feature"}
{"geometry": {"coordinates": [-108.559274, 39.067188], "type": "Point"}, "id": "pcXdoGRRKLSlVKdPTQlDv49fo8M=", "properties": {"@source_uri": "https://tools.usps.com/UspsToolsRestServices/rest/POLocator/findLocations", "@spider": "usps_collection_boxes", "addr:city": "GRAND JUNCTION", "addr:country": "US", "addr:postcode": "81501", "addr:state": "CO", "addr:street_address": "801 MAIN ST", "amenity": "post_box", "collection_times": "Mo-Fr 09:00", "nsi_id": "unitedstatespostalservice-a77078", "operator": "United States Postal Service", "operator:short": "USPS", "operator:type": "public", "operator:wikidata": "Q668687", "ref": "8150100073"}, "type": "Feature"}
{"geometry": {"coordinates": [-108.561271, 39.087266], "type": "Point"}, "id": "Te2WSbHc7dlSLgjbne6ERx6VfmE=", "properties": {"@source_uri": "https://tools.usps.com/UspsToolsRestServices/rest/POLocator/findLocations", "@spider": "usps_collection_boxes", "addr:city": "GRAND JUNCTION", "addr:country": "US", "addr:postcode": "81501", "addr:state": "CO", "addr:street_address": "2131 N 7TH ST", "amenity": "post_box", "collection_times": "Mo-Fr 10:00", "nsi_id": "unitedstatespostalservice-a77078", "operator": "United States Postal Service", "operator:short": "USPS", "operator:type": "public", "operator:wikidata": "Q668687", "ref": "8150100080"}, "type": "Feature"}
{"geometry": {"coordinates": [-108.562635, 39.065918], "type": "Point"}, "id": "ITvsG8UQ9K4fMOzrMT3-VGD2Y0U=", "properties": {"@source_uri": "https://tools.usps.com/UspsToolsRestServices/rest/POLocator/findLocations", "@spider": "usps_collection_boxes", "addr:city": "GRAND JUNCTION", "addr:country": "US", "addr:postcode": "81501", "addr:state": "CO", "addr:street_address": "222 S 6TH ST", "amenity": "post_box", "collection_times": "Mo-Fr 10:00", "nsi_id": "unitedstatespostalservice-a77078", "operator": "United States Postal Service", "operator:short": "USPS", "operator:type": "public", "operator:wikidata": "Q668687", "ref": "8150100083"}, "type": "Feature"}
{"geometry": {"coordinates": [-108.564547, 39.069031], "type": "Point"}, "id": "bE0OmRWgec6hccTaEVxobNA_9t0=", "properties": {"@source_uri": "https://tools.usps.com/UspsToolsRestServices/rest/POLocator/findLocations", "@spider": "usps_collection_boxes", "addr:city": "GRAND JUNCTION", "addr:country": "US", "addr:postcode": "81501", "addr:state": "CO", "addr:street_address": "225 N 5TH ST", "amenity": "post_box", "collection_times": "Mo-Fr 15:00", "note": "ON 12/24 AND 12/31, THIS BOX MAY BE COLLECTED AS EARLY AS 12 NOON.", "nsi_id": "unitedstatespostalservice-a77078", "operator": "United States Postal Service", "operator:short": "USPS", "operator:type": "public", "operator:wikidata": "Q668687", "ref": "8150100088"}, "type": "Feature"}
{"geometry": {"coordinates": [-108.562989, 39.069192], "type": "Point"}, "id": "tjg_d2m5J-0UrJG7dyrtXFJjTqA=", "properties": {"@source_uri": "https://tools.usps.com/UspsToolsRestServices/rest/POLocator/findLocations", "@spider": "usps_collection_boxes", "addr:city": "GRAND JUNCTION", "addr:country": "US", "addr:postcode": "81501", "addr:state": "CO", "addr:street_address": "559 WHITE AVE", "amenity": "post_box", "collection_times": "Mo-Fr 09:00", "nsi_id": "unitedstatespostalservice-a77078", "operator": "United States Postal Service", "operator:short": "USPS", "operator:type": "public", "operator:wikidata": "Q668687", "ref": "8150100092"}, "type": "Feature"}
{"geometry": {"coordinates": [-108.562414, 39.068355], "type": "Point"}, "id": "W-BrD8Lp8E91EQSQB7N9lr6brq4=", "properties": {"@source_uri": "https://tools.usps.com/UspsToolsRestServices/rest/POLocator/findLocations", "@spider": "usps_collection_boxes", "addr:city": "GRAND JUNCTION", "addr:country": "US", "addr:postcode": "81501", "addr:state": "CO", "addr:street_address": "600 ROOD AVE", "amenity": "post_box", "collection_times": "Mo-Fr 09:00", "nsi_id": "unitedstatespostalservice-a77078", "operator": "United States Postal Service", "operator:short": "USPS", "operator:type": "public", "operator:wikidata": "Q668687", "ref": "8150100106"}, "type": "Feature"}
{"geometry": {"coordinates": [-108.570784, 39.085343], "type": "Point"}, "id": "3_jtn1zYBeiIPlhDGfrqHX5cx38=", "properties": {"@source_uri": "https://tools.usps.com/UspsToolsRestServices/rest/POLocator/findLocations", "@spider": "usps_collection_boxes", "addr:city": "GRAND JUNCTION", "addr:country": "US", "addr:postcode": "81501", "addr:state": "CO", "addr:street_address": "1938 N 1ST ST", "amenity": "post_box", "collection_times": "Mo-Fr 09:00", "nsi_id": "unitedstatespostalservice-a77078", "operator": "United States Postal Service", "operator:short": "USPS", "operator:type": "public", "operator:wikidata": "Q668687", "ref": "8150100107"}, "type": "Feature"}
{"geometry": {"coordinates": [-108.566077, 39.069078], "type": "Point"}, "id": "OMI4UOgDNyKqFc0-7iriywn6RLM=", "properties": {"@source_uri": "https://tools.usps.com/UspsToolsRestServices/rest/POLocator/findLocations", "@spider": "usps_collection_boxes", "addr:city": "GRAND JUNCTION", "addr:country": "US", "addr:postcode": "81501", "addr:state": "CO", "addr:street_address": "241 N 4TH ST", "amenity": "post_box", "collection_times": "Mo-Fr 17:00; Sa 13:00", "indoor": "yes", "note": "ON 12/24 AND 12/31, THIS BOX MAY BE COLLECTED AS EARLY AS 12 NOON.", "nsi_id": "unitedstatespostalservice-a77078", "operator": "United States Postal Service", "operator:short": "USPS", "operator:type": "public", "operator:wikidata": "Q668687", "ref": "8150100110"}, "type": "Feature"}
{"geometry": {"coordinates": [-108.566238, 39.069056], "type": "Point"}, "id": "vL9KiY6reP1xInwb7zA43U9q2y8=", "properties": {"@source_uri": "https://tools.usps.com/UspsToolsRestServices/rest/POLocator/findLocations", "@spider": "usps_collection_boxes", "addr:city": "GRAND JUNCTION", "addr:country": "US", "addr:postcode": "81501", "addr:state": "CO", "addr:street_address": "241 N 4TH ST", "amenity": "post_box", "collection_times": "Mo-Fr 17:00; Sa 13:00", "indoor": "yes", "note": "ON 12/24 AND 12/31, THIS BOX MAY BE COLLECTED AS EARLY AS 12 NOON.", "nsi_id": "unitedstatespostalservice-a77078", "operator": "United States Postal Service", "operator:short": "USPS", "operator:type": "public", "operator:wikidata": "Q668687", "ref": "8150100111"}, "type": "Feature"}
{"geometry": {"coordinates": [-108.565974, 39.069037], "type": "Point"}, "id": "3_p7BnvzIN-Id5J3UcznlzWpymI=", "properties": {"@source_uri": "https://tools.usps.com/UspsToolsRestServices/rest/POLocator/findLocations", "@spider": "usps_collection_boxes", "addr:city": "GRAND JUNCTION", "addr:country": "US", "addr:postcode": "81501", "addr:state": "CO", "addr:street_address": "241 N 4TH ST", "amenity": "post_box", "collection_times": "Mo-Fr 17:00; Sa 13:00", "name": "USPS COLLECTION BOX - APC", "note": "ON 12/24 AND 12/31, THIS BOX MAY BE COLLECTED AS EARLY AS 12 NOON.", "nsi_id": "unitedstatespostalservice-a77078", "operator": "United States Postal Service", "operator:short": "USPS", "operator:type": "public", "operator:wikidata": "Q668687", "ref": "8150100114"}, "type": "Feature"}
{"geometry": {"coordinates": [-108.56534, 39.070335], "type": "Point"}, "id": "-SUm8NMIloByNPMMz0NkV1e_bKo=", "properties": {"@source_uri": "https://tools.usps.com/UspsToolsRestServices/rest/POLocator/findLocations", "@spider": "usps_collection_boxes", "addr:city": "GRAND JUNCTION", "addr:country": "US", "addr:postcode": "81501", "addr:state": "CO", "addr:street_address": "337 S 1ST ST", "amenity": "post_box", "collection_times": "Mo-Fr 09:00", "nsi_id": "unitedstatespostalservice-a77078", "operator": "United States Postal Service", "operator:short": "USPS", "operator:type": "public", "operator:wikidata": "Q668687", "ref": "8150100117"}, "type": "Feature"}
{"geometry": {"coordinates": [-108.555489, 39.041955], "type": "Point"}, "id": "eVd6hYzgsYHDihy7Hp-YuwZvlVg=", "properties": {"@source_uri": "https://tools.usps.com/UspsToolsRestServices/rest/POLocator/findLocations", "@spider": "usps_collection_boxes", "addr:city": "GRAND JUNCTION", "addr:country": "US", "addr:postcode": "81503", "addr:state": "CO", "addr:street_address": "2680 B 1/2 RD", "amenity": "post_box", "collection_times": "Mo-Fr 10:00", "nsi_id": "unitedstatespostalservice-a77078", "operator": "United States Postal Service", "operator:short": "USPS", "operator:type": "public", "operator:wikidata": "Q668687", "ref": "8150300001"}, "type": "Feature"}
{"geometry": {"coordinates": [-108.549819, 39.040583], "type": "Point"}, "id": "u0ezawJlVGuKwrirANAlt8waMcQ=", "properties": {"@source_uri": "https://tools.usps.com/UspsToolsRestServices/rest/POLocator/findLocations", "@spider": "usps_collection_boxes", "addr:city": "GRAND JUNCTION", "addr:country": "US", "addr:postcode": "81503", "addr:state": "CO", "addr:street_address": "2713 B 1/2 RD", "amenity": "post_box", "collection_times": "Mo-Fr 09:00", "nsi_id": "unitedstatespostalservice-a77078", "operator": "United States Postal Service", "operator:short": "USPS", "operator:type": "public", "operator:wikidata": "Q668687", "ref": "8150300002"}, "type": "Feature"}
{"geometry": {"coordinates": [-108.554953, 39.04434], "type": "Point"}, "id": "T3KFWfkWZFQneSH5O7RolX1U2n0=", "properties": {"@source_uri": "https://tools.usps.com/UspsToolsRestServices/rest/POLocator/findLocations", "@spider": "usps_collection_boxes", "addr:city": "GRAND JUNCTION", "addr:country": "US", "addr:postcode": "81503", "addr:state": "CO", "addr:street_address": "2686 HIGHWAY 50", "amenity": "post_box", "collection_times": "Mo-Fr 10:00", "nsi_id": "unitedstatespostalservice-a77078", "operator": "United States Postal Service", "operator:short": "USPS", "operator:type": "public", "operator:wikidata": "Q668687", "ref": "8150300005"}, "type": "Feature"}
{"geometry": {"coordinates": [-108.588562, 39.066548], "type": "Point"}, "id": "_lodhaJ9G9pVYGb-9kl4J7e_ooA=", "properties": {"@source_uri": "https://tools.usps.com/UspsToolsRestServices/rest/POLocator/findLocations", "@spider": "usps_collection_boxes", "addr:city": "GRAND JUNCTION", "addr:country": "US", "addr:postcode": "81503", "addr:state": "CO", "addr:street_address": "2512 BROADWAY", "amenity": "post_box", "collection_times": "Mo-Fr 13:00", "note": "ON 12/24 AND 12/31, THIS BOX MAY BE COLLECTED AS EARLY AS 12 NOON.", "nsi_id": "unitedstatespostalservice-a77078", "operator": "United States Postal Service", "operator:short": "USPS", "operator:type": "public", "operator:wikidata": "Q668687", "ref": "8150300007"}, "type": "Feature"}
{"geometry": {"coordinates": [-108.555007, 39.048173], "type": "Point"}, "id": "k6rk0MadpqyEuaPTI0Z45CZ8Lqs=", "properties": {"@source_uri": "https://tools.usps.com/UspsToolsRestServices/rest/POLocator/findLocations", "@spider": "usps_collection_boxes", "addr:city": "GRAND JUNCTION", "addr:country": "US", "addr:postcode": "81503", "addr:state": "CO", "addr:street_address": "2685 UNAWEEP AVE", "amenity": "post_box", "collection_times": "Mo-Fr 10:00", "nsi_id": "unitedstatespostalservice-a77078", "operator": "United States Postal Service", "operator:short": "USPS", "operator:type": "public", "operator:wikidata": "Q668687", "ref": "8150300008"}, "type": "Feature"}
{"geometry": {"coordinates": [-108.603658, 39.095218], "type": "Point"}, "id": "i3F9jh4rjgW2w2AjrVybFZZdCs0=", "properties": {"@source_uri": "https://tools.usps.com/UspsToolsRestServices/rest/POLocator/findLocations", "@spider": "usps_collection_boxes", "addr:city": "GRAND JUNCTION", "addr:country": "US", "addr:postcode": "81505", "addr:state": "CO", "addr:street_address": "2424 F RD", "amenity": "post_box", "collection_times": "Mo-Fr 10:00", "nsi_id": "unitedstatespostalservice-a77078", "operator": "United States Postal Service", "operator:short": "USPS", "operator:type": "public", "operator:wikidata": "Q668687", "ref": "8150500000"}, "type": "Feature"}
{"geometry": {"coordinates": [-108.582184, 39.09201], "type": "Point"}, "id": "L8CRFifAb5tfatDwNWh_6NlDp4E=", "properties": {"@source_uri": "https://tools.usps.com/UspsToolsRestServices/rest/POLocator/findLocations", "@spider": "usps_collection_boxes", "addr:city": "GRAND JUNCTION", "addr:country": "US", "addr:postcode": "81505", "addr:state": "CO", "addr:street_address": "602 BURKEY ST", "amenity": "post_box", "collection_times": "Mo-Fr 18:00; Sa 13:00", "note": "ON 12/24 AND 12/31, THIS BOX MAY BE COLLECTED AS EARLY AS 12 NOON.", "nsi_id": "unitedstatespostalservice-a77078", "operator": "United States Postal Service", "operator:short": "USPS", "operator:type": "public", "operator:wikidata": "Q668687", "ref": "8150500004"}, "type": "Feature"}
{"geometry": {"coordinates": [-108.582591, 39.082532], "type": "Point"}, "id": "Ml38AErGANyyuqCreSg3aSbSja8=", "properties": {"@source_uri": "https://tools.usps.com/UspsToolsRestServices/rest/POLocator/findLocations", "@spider": "usps_collection_boxes", "addr:city": "GRAND JUNCTION", "addr:country": "US", "addr:postcode": "81505", "addr:state": "CO", "addr:street_address": "1040 INDEPENDENT AVE", "amenity": "post_box", "collection_times": "Mo-Fr 10:00", "nsi_id": "unitedstatespostalservice-a77078", "operator": "United States Postal Service", "operator:short": "USPS", "operator:type": "public", "operator:wikidata": "Q668687", "ref": "8150500007"}, "type": "Feature"}
{"geometry": {"coordinates": [-108.586082, 39.087773], "type": "Point"}, "id": "x8yE7wlf9HhEK9JwnEOGT8yob0E=", "properties": {"@source_uri": "https://tools.usps.com/UspsToolsRestServices/rest/POLocator/findLocations", "@spider": "usps_collection_boxes", "addr:city": "GRAND JUNCTION", "addr:country": "US", "addr:postcode": "81505", "addr:state": "CO", "addr:street_address": "573 S COMMERCIAL DR", "amenity": "post_box", "collection_times": "Mo-Fr 10:00", "nsi_id": "unitedstatespostalservice-a77078", "operator": "United States Postal Service", "operator:short": "USPS", "operator:type": "public", "operator:wikidata": "Q668687", "ref": "8150500010"}, "type": "Feature"}
{"geometry": {"coordinates": [-108.598138, 39.087468], "type": "Point"}, "id": "XhpjdoJ7m4sydSJL4utuCmdjWls=", "properties": {"@source_uri": "https://tools.usps.com/UspsToolsRestServices/rest/POLocator/findLocations", "@spider": "usps_collection_boxes", "addr:city": "GRAND JUNCTION", "addr:country": "US", "addr:postcode": "81505", "addr:state": "CO", "addr:street_address": "2452 HIGHWAY 6 50", "amenity": "post_box", "collection_times": "Mo-Fr 10:00", "nsi_id": "unitedstatespostalservice-a77078", "operator": "United States Postal Service", "operator:short": "USPS", "operator:type": "public", "operator:wikidata": "Q668687", "ref": "8150500011"}, "type": "Feature"}
{"geometry": {"coordinates": [-108.593596, 39.09294], "type": "Point"}, "id": "YMCdhcDoLa56Tb4AUlTU_cXjNbQ=", "properties": {"@source_uri": "https://tools.usps.com/UspsToolsRestServices/rest/POLocator/findLocations", "@spider": "usps_collection_boxes", "addr:city": "GRAND JUNCTION", "addr:country": "US", "addr:postcode": "81505", "addr:state": "CO", "addr:street_address": "2478 F RD", "amenity": "post_box", "collection_times": "Mo-Fr 13:00", "note": "ON 12/24 AND 12/31, THIS BOX MAY BE COLLECTED AS EARLY AS 12 NOON.", "nsi_id": "unitedstatespostalservice-a77078", "operator": "United States Postal Service", "operator:short": "USPS", "operator:type": "public", "operator:wikidata": "Q668687", "ref": "8150500013"}, "type": "Feature"}
{"geometry": {"coordinates": [-108.582219, 39.091923], "type": "Point"}, "id": "iNR4pW8Upo7lMorG9uvpLcWVrJU=", "properties": {"@source_uri": "https://tools.usps.com/UspsToolsRestServices/rest/POLocator/findLocations", "@spider": "usps_collection_boxes", "addr:city": "GRAND JUNCTION", "addr:country": "US", "addr:postcode": "81505", "addr:state": "CO", "addr:street_address": "602 BURKEY ST", "amenity": "post_box", "collection_times": "Mo-Fr 18:00; Sa 13:00", "note": "ON 12/24 AND 12/31, THIS BOX MAY BE COLLECTED AS EARLY AS 12 NOON.", "nsi_id": "unitedstatespostalservice-a77078", "operator": "United States Postal Service", "operator:short": "USPS", "operator:type": "public", "operator:wikidata": "Q668687", "ref": "8150500014"}, "type": "Feature"}
{"geometry": {"coordinates": [-108.572144, 39.091417], "type": "Point"}, "id": "lhqjOL5kwFGT15PbAwo-rs7AlwY=", "properties": {"@source_uri": "https://tools.usps.com/UspsToolsRestServices/rest/POLocator/findLocations", "@spider": "usps_collection_boxes", "addr:city": "GRAND JUNCTION", "addr:country": "US", "addr:postcode": "81505", "addr:state": "CO", "addr:street_address": "120 W PARK DR", "amenity": "post_box", "collection_times": "Mo-Fr 13:00", "note": "ON 12/24 AND 12/31, THIS BOX MAY BE COLLECTED AS EARLY AS 12 NOON.", "nsi_id": "unitedstatespostalservice-a77078", "operator": "United States Postal Service", "operator:short": "USPS", "operator:type": "public", "operator:wikidata": "Q668687", "ref": "8150500015"}, "type": "Feature"}
{"geometry": {"coordinates": [-108.562123, 39.090381], "type": "Point"}, "id": "6Y0yifzlrRG38UKayb_DlnLH_9s=", "properties": {"@source_uri": "https://tools.usps.com/UspsToolsRestServices/rest/POLocator/findLocations", "@spider": "usps_collection_boxes", "addr:city": "GRAND JUNCTION", "addr:country": "US", "addr:postcode": "81506", "addr:state": "CO", "addr:street_address": "2635 N 7TH ST", "amenity": "post_box", "collection_times": "Mo-Fr 10:00", "nsi_id": "unitedstatespostalservice-a77078", "operator": "United States Postal Service", "operator:short": "USPS", "operator:type": "public", "operator:wikidata": "Q668687", "ref": "8150600009"}, "type": "Feature"}
{"geometry": {"coordinates": [-108.586280262, 39.066064699], "type": "Point"}, "id": "MlXrOe3DlXol66wU8fDq2Z33ojs=", "properties": {"@source_uri": "https://tools.usps.com/UspsToolsRestServices/rest/POLocator/findLocations", "@spider": "usps_collection_boxes", "addr:city": "GRAND JUNCTION", "addr:country": "US", "addr:postcode": "81507", "addr:state": "CO", "addr:street_address": "2520 BROADWAY", "amenity": "post_box", "collection_times": "Mo-Fr 12:00", "nsi_id": "unitedstatespostalservice-a77078", "operator": "United States Postal Service", "operator:short": "USPS", "operator:type": "public", "operator:wikidata": "Q668687", "ref": "8150700001"}, "type": "Feature"}
{"geometry": {"coordinates": [-108.636314, 39.079305], "type": "Point"}, "id": "-WMFGGUvGBnvkpGK2759buGdQSA=", "properties": {"@source_uri": "https://tools.usps.com/UspsToolsRestServices/rest/POLocator/findLocations", "@spider": "usps_collection_boxes", "addr:city": "GRAND JUNCTION", "addr:country": "US", "addr:postcode": "81507", "addr:state": "CO", "addr:street_address": "2249 BROADWAY", "amenity": "post_box", "collection_times": "Mo-Fr 12:00", "nsi_id": "unitedstatespostalservice-a77078", "operator": "United States Postal Service", "operator:short": "USPS", "operator:type": "public", "operator:wikidata": "Q668687", "ref": "8150700002"}, "type": "Feature"}
{"geometry": {"coordinates": [-108.642548, 39.084141], "type": "Point"}, "id": "dLZynnrlUxYkArjewRCQj0rGmmQ=", "properties": {"@source_uri": "https://tools.usps.com/UspsToolsRestServices/rest/POLocator/findLocations", "@spider": "usps_collection_boxes", "addr:city": "GRAND JUNCTION", "addr:country": "US", "addr:postcode": "81507", "addr:state": "CO", "addr:street_address": "9 ARBOR CIR", "amenity": "post_box", "collection_times": "Mo-Fr 10:00", "nsi_id": "unitedstatespostalservice-a77078", "operator": "United States Postal Service", "operator:short": "USPS", "operator:type": "public", "operator:wikidata": "Q668687", "ref": "8150700003"}, "type": "Feature"}
{"geometry": {"coordinates": [-108.7343660131, 39.1592039816], "type": "Point"}, "id": "WcrPRmOnO1NhINcyiwv7kb6T_hA=", "properties": {"@source_uri": "https://tools.usps.com/UspsToolsRestServices/rest/POLocator/findLocations", "@spider": "usps_collection_boxes", "addr:city": "FRUITA", "addr:country": "US", "addr:postcode": "81521", "addr:state": "CO", "addr:street_address": "113 N PARK SQ", "amenity": "post_box", "collection_times": "Mo-Fr 17:00; Sa 12:00", "note": "ON 12/24 AND 12/31, THIS BOX MAY BE COLLECTED AS EARLY AS 12 NOON.", "nsi_id": "unitedstatespostalservice-a77078", "operator": "United States Postal Service", "operator:short": "USPS", "operator:type": "public", "operator:wikidata": "Q668687", "ref": "8152100000"}, "type": "Feature"}
{"geometry": {"coordinates": [-108.735004, 39.158089], "type": "Point"}, "id": "wezMGg8MchR3-X_wuPhAqS87QvU=", "properties": {"@source_uri": "https://tools.usps.com/UspsToolsRestServices/rest/POLocator/findLocations", "@spider": "usps_collection_boxes", "addr:city": "FRUITA", "addr:country": "US", "addr:postcode": "81521", "addr:state": "CO", "addr:street_address": "135 S PLUM ST", "amenity": "post_box", "collection_times": "Mo-Sa 12:00", "nsi_id": "unitedstatespostalservice-a77078", "operator": "United States Postal Service", "operator:short": "USPS", "operator:type": "public", "operator:wikidata": "Q668687", "ref": "8152100001"}, "type": "Feature"}
{"geometry": {"coordinates": [-108.734906, 39.153294], "type": "Point"}, "id": "aSx0iSzpcaSqtUhUN_EZCZhmijM=", "properties": {"@source_uri": "https://tools.usps.com/UspsToolsRestServices/rest/POLocator/findLocations", "@spider": "usps_collection_boxes", "addr:city": "FRUITA", "addr:country": "US", "addr:postcode": "81521", "addr:state": "CO", "addr:street_address": "456 KOKOPELLI BLVD", "amenity": "post_box", "collection_times": "Mo-Sa 10:30", "nsi_id": "unitedstatespostalservice-a77078", "operator": "United States Postal Service", "operator:short": "USPS", "operator:type": "public", "operator:wikidata": "Q668687", "ref": "8152100002"}, "type": "Feature"}
{"geometry": {"coordinates": [-108.735993, 39.151013], "type": "Point"}, "id": "I15_4dN-qxoHLduKxBf99N1q9vA=", "properties": {"@source_uri": "https://tools.usps.com/UspsToolsRestServices/rest/POLocator/findLocations", "@spider": "usps_collection_boxes", "addr:city": "FRUITA", "addr:country": "US", "addr:postcode": "81521", "addr:state": "CO", "addr:street_address": "551 KOKOPELLI BLVD", "amenity": "post_box", "collection_times": "Mo-Sa 10:40", "nsi_id": "unitedstatespostalservice-a77078", "operator": "United States Postal Service", "operator:short": "USPS", "operator:type": "public", "operator:wikidata": "Q668687", "ref": "8152100003"}, "type": "Feature"}
{"geometry": {"coordinates": [-108.73401, 39.15905], "type": "Point"}, "id": "AYuTNWfZpBIp0Ssb3PXfKWtN3Xo=", "properties": {"@source_uri": "https://tools.usps.com/UspsToolsRestServices/rest/POLocator/findLocations", "@spider": "usps_collection_boxes", "addr:city": "FRUITA", "addr:country": "US", "addr:postcode": "81521", "addr:state": "CO", "addr:street_address": "113 N PARK SQ", "amenity": "post_box", "collection_times": "Mo-Fr 17:00; Sa 12:00", "indoor": "yes", "note": "ON 12/24 AND 12/31, THIS BOX MAY BE COLLECTED AS EARLY AS 12 NOON.", "nsi_id": "unitedstatespostalservice-a77078", "operator": "United States Postal Service", "operator:short": "USPS", "operator:type": "public", "operator:wikidata": "Q668687", "ref": "8152100004"}, "type": "Feature"}
{"geometry": {"coordinates": [-108.972656, 38.683178], "type": "Point"}, "id": "WtWND2vYyt_R5tpXVLv52q4hmQo=", "properties": {"@source_uri": "https://tools.usps.com/UspsToolsRestServices/rest/POLocator/findLocations", "@spider": "usps_collection_boxes", "addr:city": "GATEWAY", "addr:country": "US", "addr:postcode": "81522", "addr:state": "CO", "addr:street_address": "42700 HIGHWAY 141", "amenity": "post_box", "collection_times": "Mo-Fr 16:00; Sa 11:30", "indoor": "yes", "note": "ON 12/24 AND 12/31, THIS BOX MAY BE COLLECTED AS EARLY AS 12 NOON.", "nsi_id": "unitedstatespostalservice-a77078", "operator": "United States Postal Service", "operator:short": "USPS", "operator:type": "public", "operator:wikidata": "Q668687", "ref": "8152200000"}, "type": "Feature"}
{"geometry": {"coordinates": [-108.972592, 38.683161], "type": "Point"}, "id": "-IT4I35k4DlQuqFatSYIud4tzQI=", "properties": {"@source_uri": "https://tools.usps.com/UspsToolsRestServices/rest/POLocator/findLocations", "@spider": "usps_collection_boxes", "addr:city": "GATEWAY", "addr:country": "US", "addr:postcode": "81522", "addr:state": "CO", "addr:street_address": "42700 HIGHWAY 141", "amenity": "post_box", "collection_times": "Mo-Fr 16:00; Sa 11:30", "indoor": "yes", "note": "ON 12/24 AND 12/31, THIS BOX MAY BE COLLECTED AS EARLY AS 12 NOON.", "nsi_id": "unitedstatespostalservice-a77078", "operator": "United States Postal Service", "operator:short": "USPS", "operator:type": "public", "operator:wikidata": "Q668687", "ref": "8152200001"}, "type": "Feature"}
{"geometry": {"coordinates": [-108.972592, 38.683161], "type": "Point"}, "id": "9tuWCNdIHZPgmRy7gQ7WMnWtD7k=", "properties": {"@source_uri": "https://tools.usps.com/UspsToolsRestServices/rest/POLocator/findLocations", "@spider": "usps_collection_boxes", "addr:city": "GATEWAY", "addr:country": "US", "addr:postcode": "81522", "addr:state": "CO", "addr:street_address": "42700 HIGHWAY 141", "amenity": "post_box", "collection_times": "Mo-Fr 16:00; Sa 11:30", "note": "ON 12/24 AND 12/31, THIS BOX MAY BE COLLECTED AS EARLY AS 12 NOON.", "nsi_id": "unitedstatespostalservice-a77078", "operator": "United States Postal Service", "operator:short": "USPS", "operator:type": "public", "operator:wikidata": "Q668687", "ref": "8152200002"}, "type": "Feature"}
{"geometry": {"coordinates": [-108.812954, 39.199618], "type": "Point"}, "id": "c7XO4YhTTroGYWbxW1p3Gd0EGOs=", "properties": {"@source_uri": "https://tools.usps.com/UspsToolsRestServices/rest/POLocator/findLocations", "@spider": "usps_collection_boxes", "addr:city": "LOMA", "addr:country": "US", "addr:postcode": "81524", "addr:state": "CO", "addr:street_address": "1345 13 RD", "amenity": "post_box", "collection_times": "Mo-Fr 16:30; Sa 11:30", "indoor": "yes", "note": "ON 12/24 AND 12/31, THIS BOX MAY BE COLLECTED AS EARLY AS 12 NOON.", "nsi_id": "unitedstatespostalservice-a77078", "operator": "United States Postal Service", "operator:short": "USPS", "operator:type": "public", "operator:wikidata": "Q668687", "ref": "8152400001"}, "type": "Feature"}
{"geometry": {"coordinates": [-108.812919, 39.199617], "type": "Point"}, "id": "TXjrt21j7XnaKaYu7otDKoF9kaI=", "properties": {"@source_uri": "https://tools.usps.com/UspsToolsRestServices/rest/POLocator/findLocations", "@spider": "usps_collection_boxes", "addr:city": "LOMA", "addr:country": "US", "addr:postcode": "81524", "addr:state": "CO", "addr:street_address": "1345 13 RD", "amenity": "post_box", "collection_times": "Mo-Fr 16:30; Sa 11:30", "note": "ON 12/24 AND 12/31, THIS BOX MAY BE COLLECTED AS EARLY AS 12 NOON.", "nsi_id": "unitedstatespostalservice-a77078", "operator": "United States Postal Service", "operator:short": "USPS", "operator:type": "public", "operator:wikidata": "Q668687", "ref": "8152400002"}, "type": "Feature"}
{"geometry": {"coordinates": [-108.864976, 39.223991], "type": "Point"}, "id": "S64HwGEPNfyexQnVfxLO8YAXObM=", "properties": {"@source_uri": "https://tools.usps.com/UspsToolsRestServices/rest/POLocator/findLocations", "@spider": "usps_collection_boxes", "addr:city": "MACK", "addr:country": "US", "addr:postcode": "81525", "addr:state": "CO", "addr:street_address": "1021 M.8 RD", "amenity": "post_box", "collection_times": "Mo-Fr 16:30; Sa 11:30", "note": "ON 12/24 AND 12/31, THIS BOX MAY BE COLLECTED AS EARLY AS 12 NOON.", "nsi_id": "unitedstatespostalservice-a77078", "operator": "United States Postal Service", "operator:short": "USPS", "operator:type": "public", "operator:wikidata": "Q668687", "ref": "8152500000"}, "type": "Feature"}
{"geometry": {"coordinates": [-108.864976, 39.223992], "type": "Point"}, "id": "3k_D9ndz7uHn7JRiYTesq42Ej2g=", "properties": {"@source_uri": "https://tools.usps.com/UspsToolsRestServices/rest/POLocator/findLocations", "@spider": "usps_collection_boxes", "addr:city": "MACK", "addr:country": "US", "addr:postcode": "81525", "addr:state": "CO", "addr:street_address": "1021 M.8 RD", "amenity": "post_box", "collection_times": "Mo-Fr 14:15; Sa 11:30", "indoor": "yes", "note": "ON 12/24 AND 12/31, THIS BOX MAY BE COLLECTED AS EARLY AS 12 NOON.", "nsi_id": "unitedstatespostalservice-a77078", "operator": "United States Postal Service", "operator:short": "USPS", "operator:type": "public", "operator:wikidata": "Q668687", "ref": "8152500001"}, "type": "Feature"}
{"geometry": {"coordinates": [-108.864976, 39.223992], "type": "Point"}, "id": "K2-Q-ClztbzFYN3AV6w4ACTYhfw=", "properties": {"@source_uri": "https://tools.usps.com/UspsToolsRestServices/rest/POLocator/findLocations", "@spider": "usps_collection_boxes", "addr:city": "MACK", "addr:country": "US", "addr:postcode": "81525", "addr:state": "CO", "addr:street_address": "1021 M.8 RD", "amenity": "post_box", "collection_times": "Mo-Fr 14:15; Sa 11:30", "indoor": "yes", "note": "ON 12/24 AND 12/31, THIS BOX MAY BE COLLECTED AS EARLY AS 12 NOON.", "nsi_id": "unitedstatespostalservice-a77078", "operator": "United States Postal Service", "operator:short": "USPS", "operator:type": "public", "operator:wikidata": "Q668687", "ref": "8152500002"}, "type": "Feature"}
