{"geometry": {"coordinates": [-107.325741, 39.536943], "type": "Point"}, "id": "F10RA6awd5J1SuLDGb27Zoa4d0w=", "properties": {"@source_uri": "https://tools.usps.com/UspsToolsRestServices/rest/POLocator/findLocations", "@spider": "usps_collection_boxes", "addr:city": "GLENWOOD SPGS", "addr:country": "US", "addr:postcode": "81601", "addr:state": "CO", "addr:street_address": "1605 GRAND AVE", "amenity": "post_box", "collection_times": "Mo-Fr 15:30; Sa 14:00", "note": "ON 12/24 AND 12/31, THIS BOX MAY BE COLLECTED AS EARLY AS 12 NOON.", "nsi_id": "unitedstatespostalservice-a77078", "operator": "United States Postal Service", "operator:short": "USPS", "operator:type": "public", "operator:wikidata": "Q668687", "ref": "8160100001"}, "type": "Feature"}
{"geometry": {"coordinates": [-107.319293, 39.520448], "type": "Point"}, "id": "PeuezbaXORQ2GtXtTsx7ySan6lA=", "properties": {"@source_uri": "https://tools.usps.com/UspsToolsRestServices/rest/POLocator/findLocations", "@spider": "usps_collection_boxes", "addr:city": "GLENWOOD SPGS", "addr:country": "US", "addr:postcode": "81601", "addr:state": "CO", "addr:street_address": "3010 BLAKE AVE", "amenity": "post_box", "collection_times": "Mo-Sa 10:00", "nsi_id": "unitedstatespostalservice-a77078", "operator": "United States Postal Service", "operator:short": "USPS", "operator:type": "public", "operator:wikidata": "Q668687", "ref": "8160100003"}, "type": "Feature"}
{"geometry": {"coordinates": [-107.324677, 39.529908], "type": "Point"}, "id": "SWVHJXMdtDtXsOz1GowosEg5mEE=", "properties": {"@source_uri": "https://tools.usps.com/UspsToolsRestServices/rest/POLocator/findLocations", "@spider": "usps_collection_boxes", "addr:city": "GLENWOOD SPGS", "addr:country": "US", "addr:postcode": "81601", "addr:state": "CO", "addr:street_address": "2200 GRAND AVE", "amenity": "post_box", "collection_times": "Mo-Fr 15:30; Sa 14:00", "note": "ON 12/24 AND 12/31, THIS BOX MAY BE COLLECTED AS EARLY AS 12 NOON.", "nsi_id": "unitedstatespostalservice-a77078", "operator": "United States Postal Service", "operator:short": "USPS", "operator:type": "public", "operator:wikidata": "Q668687", "ref": "8160100004"}, "type": "Feature"}
{"geometry": {"coordinates": [-107.324351, 39.538521], "type": "Point"}, "id": "KiU8kmjTpns1_gjAd5n-hOz1YnY=", "properties": {"@source_uri": "https://tools.usps.com/UspsToolsRestServices/rest/POLocator/findLocations", "@spider": "usps_collection_boxes", "addr:city": "GLENWOOD SPGS", "addr:country": "US", "addr:postcode": "81601", "addr:state": "CO", "addr:street_address": "1414 GRAND AVE", "amenity": "post_box", "collection_times": "Mo-Fr 15:30; Sa 14:00", "note": "ON 12/24 AND 12/31, THIS BOX MAY BE COLLECTED AS EARLY AS 12 NOON.", "nsi_id": "unitedstatespostalservice-a77078", "operator": "United States Postal Service", "operator:short": "USPS", "operator:type": "public", "operator:wikidata": "Q668687", "ref": "8160100005"}, "type": "Feature"}
{"geometry": {"coordinates": [-107.323789, 39.546731], "type": "Point"}, "id": "KlF8_YDsP4JsLqd6Ipzf1f2BuMk=", "properties": {"@source_uri": "https://tools.usps.com/UspsToolsRestServices/rest/POLocator/findLocations", "@spider": "usps_collection_boxes", "addr:city": "GLENWOOD SPGS", "addr:country": "US", "addr:postcode": "81601", "addr:state": "CO", "addr:street_address": "315 8TH ST", "amenity": "post_box", "collection_times": "Mo-Fr 15:30; Sa 14:00", "note": "ON 12/24 AND 12/31, THIS BOX MAY BE COLLECTED AS EARLY AS 12 NOON.", "nsi_id": "unitedstatespostalservice-a77078", "operator": "United States Postal Service", "operator:short": "USPS", "operator:type": "public", "operator:wikidata": "Q668687", "ref": "8160100007"}, "type": "Feature"}
{"geometry": {"coordinates": [-107.343519, 39.553676], "type": "Point"}, "id": "Rl3FPRhuq9zZyTsgng2ZqmoW3_g=", "properties": {"@source_uri": "https://tools.usps.com/UspsToolsRestServices/rest/POLocator/findLocations", "@spider": "usps_collection_boxes", "addr:city": "GLENWOOD SPGS", "addr:country": "US", "addr:postcode": "81601", "addr:state": "CO", "addr:street_address": "40 MARKET ST", "amenity": "post_box", "collection_times": "Mo-Fr 15:15; Sa 13:00", "note": "ON 12/24 AND 12/31, THIS BOX MAY BE COLLECTED AS EARLY AS 12 NOON.", "nsi_id": "unitedstatespostalservice-a77078", "operator": "United States Postal Service", "operator:short": "USPS", "operator:type": "public", "operator:wikidata": "Q668687", "ref": "8160100008"}, "type": "Feature"}
{"geometry": {"coordinates": [-107.362756, 39.562834], "type": "Point"}, "id": "Lvh4PcZH32ckVUgzMrblN9QnZoQ=", "properties": {"@source_uri": "https://tools.usps.com/UspsToolsRestServices/rest/POLocator/findLocations", "@spider": "usps_collection_boxes", "addr:city": "GLENWOOD SPGS", "addr:country": "US", "addr:postcode": "81601", "addr:state": "CO", "addr:street_address": "51027 HIGHWAY 6 AND 24", "amenity": "post_box", "collection_times": "Mo-Fr 15:15; Sa 13:00", "note": "ON 12/24 AND 12/31, THIS BOX MAY BE COLLECTED AS EARLY AS 12 NOON.", "nsi_id": "unitedstatespostalservice-a77078", "operator": "United States Postal Service", "operator:short": "USPS", "operator:type": "public", "operator:wikidata": "Q668687", "ref": "8160100009"}, "type": "Feature"}
{"geometry": {"coordinates": [-107.325962, 39.546801], "type": "Point"}, "id": "StWdr7lRPt1cZuNhnrk2LpyQRsk=", "properties": {"@source_uri": "https://tools.usps.com/UspsToolsRestServices/rest/POLocator/findLocations", "@spider": "usps_collection_boxes", "addr:city": "GLENWOOD SPGS", "addr:country": "US", "addr:postcode": "81601", "addr:state": "CO", "addr:street_address": "109 8TH ST", "amenity": "post_box", "collection_times": "Mo-Fr 15:30; Sa 14:00", "note": "ON 12/24 AND 12/31, THIS BOX MAY BE COLLECTED AS EARLY AS 12 NOON.", "nsi_id": "unitedstatespostalservice-a77078", "operator": "United States Postal Service", "operator:short": "USPS", "operator:type": "public", "operator:wikidata": "Q668687", "ref": "8160100010"}, "type": "Feature"}
{"geometry": {"coordinates": [-107.323056, 39.532152], "type": "Point"}, "id": "nBRSrUAuw44eTu3yoz4UJGCfwmU=", "properties": {"@source_uri": "https://tools.usps.com/UspsToolsRestServices/rest/POLocator/findLocations", "@spider": "usps_collection_boxes", "addr:city": "GLENWOOD SPGS", "addr:country": "US", "addr:postcode": "81601", "addr:state": "CO", "addr:street_address": "1999 BLAKE AVE", "amenity": "post_box", "collection_times": "Mo-Fr 15:30; Sa 14:00", "note": "ON 12/24 AND 12/31, THIS BOX MAY BE COLLECTED AS EARLY AS 12 NOON.", "nsi_id": "unitedstatespostalservice-a77078", "operator": "United States Postal Service", "operator:short": "USPS", "operator:type": "public", "operator:wikidata": "Q668687", "ref": "8160100014"}, "type": "Feature"}
{"geometry": {"coordinates": [-107.32596, 39.550128], "type": "Point"}, "id": "zB6xKJJACtRNi6CuD-fGNP4LHqU=", "properties": {"@source_uri": "https://tools.usps.com/UspsToolsRestServices/rest/POLocator/findLocations", "@spider": "usps_collection_boxes", "addr:city": "GLENWOOD SPGS", "addr:country": "US", "addr:postcode": "81601", "addr:state": "CO", "addr:street_address": "114 6TH ST", "amenity": "post_box", "collection_times": "Mo-Sa 10:00", "nsi_id": "unitedstatespostalservice-a77078", "operator": "United States Postal Service", "operator:short": "USPS", "operator:type": "public", "operator:wikidata": "Q668687", "ref": "8160100015"}, "type": "Feature"}
{"geometry": {"coordinates": [-107.326232, 39.545666], "type": "Point"}, "id": "cuQgkQtmT6Bf76eTkZPK8DmnJo8=", "properties": {"@source_uri": "https://tools.usps.com/UspsToolsRestServices/rest/POLocator/findLocations", "@spider": "usps_collection_boxes", "addr:city": "GLENWOOD SPGS", "addr:country": "US", "addr:postcode": "81601", "addr:state": "CO", "addr:street_address": "113 9TH ST", "amenity": "post_box", "collection_times": "Mo-Fr 17:30; Sa 15:00", "indoor": "yes", "note": "ON 12/24 AND 12/31, THIS BOX MAY BE COLLECTED AS EARLY AS 12 NOON.", "nsi_id": "unitedstatespostalservice-a77078", "operator": "United States Postal Service", "operator:short": "USPS", "operator:type": "public", "operator:wikidata": "Q668687", "ref": "8160100021"}, "type": "Feature"}
{"geometry": {"coordinates": [-107.326005, 39.545631], "type": "Point"}, "id": "iyFnBxpvj_22G6Mg-ClOnUUb0VU=", "properties": {"@source_uri": "https://tools.usps.com/UspsToolsRestServices/rest/POLocator/findLocations", "@spider": "usps_collection_boxes", "addr:city": "GLENWOOD SPGS", "addr:country": "US", "addr:postcode": "81601", "addr:state": "CO", "addr:street_address": "113 9TH ST", "amenity": "post_box", "collection_times": "Mo-Fr 17:30; Sa 15:00", "indoor": "yes", "note": "ON 12/24 AND 12/31, THIS BOX MAY BE COLLECTED AS EARLY AS 12 NOON.", "nsi_id": "unitedstatespostalservice-a77078", "operator": "United States Postal Service", "operator:short": "USPS", "operator:type": "public", "operator:wikidata": "Q668687", "ref": "8160100022"}, "type": "Feature"}
{"geometry": {"coordinates": [-107.326001, 39.545615], "type": "Point"}, "id": "8_oNxN96YIEjHcmYhAeHksTxCgg=", "properties": {"@source_uri": "https://tools.usps.com/UspsToolsRestServices/rest/POLocator/findLocations", "@spider": "usps_collection_boxes", "addr:city": "GLENWOOD SPGS", "addr:country": "US", "addr:postcode": "81601", "addr:state": "CO", "addr:street_address": "113 9TH ST", "amenity": "post_box", "collection_times": "Mo-Fr 17:30; Sa 15:00", "indoor": "yes", "note": "ON 12/24 AND 12/31, THIS BOX MAY BE COLLECTED AS EARLY AS 12 NOON.", "nsi_id": "unitedstatespostalservice-a77078", "operator": "United States Postal Service", "operator:short": "USPS", "operator:type": "public", "operator:wikidata": "Q668687", "ref": "8160100023"}, "type": "Feature"}
{"geometry": {"coordinates": [-107.335607, 39.552967], "type": "Point"}, "id": "OpfORdyVWzUxefSi_Yns_kxsAVY=", "properties": {"@source_uri": "https://tools.usps.com/UspsToolsRestServices/rest/POLocator/findLocations", "@spider": "usps_collection_boxes", "addr:city": "GLENWOOD SPGS", "addr:country": "US", "addr:postcode": "81601", "addr:state": "CO", "addr:street_address": "201 CENTENNIAL DR", "amenity": "post_box", "collection_times": "Mo-Fr 15:15; Sa 13:00", "note": "ON 12/24 AND 12/31, THIS BOX MAY BE COLLECTED AS EARLY AS 12 NOON.", "nsi_id": "unitedstatespostalservice-a77078", "operator": "United States Postal Service", "operator:short": "USPS", "operator:type": "public", "operator:wikidata": "Q668687", "ref": "8160100024"}, "type": "Feature"}
{"geometry": {"coordinates": [-107.32422, 39.537726], "type": "Point"}, "id": "E8et9lARf8e-WtwOZlGkHApzvNk=", "properties": {"@source_uri": "https://tools.usps.com/UspsToolsRestServices/rest/POLocator/findLocations", "@spider": "usps_collection_boxes", "addr:city": "GLENWOOD SPGS", "addr:country": "US", "addr:postcode": "81601", "addr:state": "CO", "addr:street_address": "1512 GRAND AVE", "amenity": "post_box", "collection_times": "Mo-Fr 15:30; Sa 14:00", "note": "ON 12/24 AND 12/31, THIS BOX MAY BE COLLECTED AS EARLY AS 12 NOON.", "nsi_id": "unitedstatespostalservice-a77078", "operator": "United States Postal Service", "operator:short": "USPS", "operator:type": "public", "operator:wikidata": "Q668687", "ref": "8160100025"}, "type": "Feature"}
{"geometry": {"coordinates": [-107.324537, 39.525975], "type": "Point"}, "id": "m0yWzLcgX4DZZPbWhbLqyrymv1Q=", "properties": {"@source_uri": "https://tools.usps.com/UspsToolsRestServices/rest/POLocator/findLocations", "@spider": "usps_collection_boxes", "addr:city": "GLENWOOD SPGS", "addr:country": "US", "addr:postcode": "81601", "addr:state": "CO", "addr:street_address": "2520 GRAND AVE", "amenity": "post_box", "collection_times": "Mo-Sa 10:00", "nsi_id": "unitedstatespostalservice-a77078", "operator": "United States Postal Service", "operator:short": "USPS", "operator:type": "public", "operator:wikidata": "Q668687", "ref": "8160100026"}, "type": "Feature"}
{"geometry": {"coordinates": [-107.326468, 39.545494], "type": "Point"}, "id": "xftRABA9iLjHYit2uMiS40btt-Y=", "properties": {"@source_uri": "https://tools.usps.com/UspsToolsRestServices/rest/POLocator/findLocations", "@spider": "usps_collection_boxes", "addr:city": "GLENWOOD SPGS", "addr:country": "US", "addr:postcode": "81601", "addr:state": "CO", "addr:street_address": "113 9TH ST", "amenity": "post_box", "collection_times": "Mo-Fr 17:30; Sa 15:00", "note": "ON 12/24 AND 12/31, THIS BOX MAY BE COLLECTED AS EARLY AS 12 NOON.", "nsi_id": "unitedstatespostalservice-a77078", "operator": "United States Postal Service", "operator:short": "USPS", "operator:type": "public", "operator:wikidata": "Q668687", "ref": "8160100027"}, "type": "Feature"}
{"geometry": {"coordinates": [-109.009749, 40.245347], "type": "Point"}, "id": "Q0BfNS1MAYp6SLuHD4SxQoGKGkU=", "properties": {"@source_uri": "https://tools.usps.com/UspsToolsRestServices/rest/POLocator/findLocations", "@spider": "usps_collection_boxes", "addr:city": "DINOSAUR", "addr:country": "US", "addr:postcode": "81610", "addr:state": "CO", "addr:street_address": "114 STEGOSAURUS FWY", "amenity": "post_box", "collection_times": "Mo-Fr 14:00; Sa 10:45", "note": "ON 12/24 AND 12/31, THIS BOX MAY BE COLLECTED AS EARLY AS 12 NOON.", "nsi_id": "unitedstatespostalservice-a77078", "operator": "United States Postal Service", "operator:short": "USPS", "operator:type": "public", "operator:wikidata": "Q668687", "ref": "8161000000"}, "type": "Feature"}
{"geometry": {"coordinates": [-109.009777, 40.245375], "type": "Point"}, "id": "ttT4t7tn9oXmeKW6shZT84bF6oM=", "properties": {"@source_uri": "https://tools.usps.com/UspsToolsRestServices/rest/POLocator/findLocations", "@spider": "usps_collection_boxes", "addr:city": "DINOSAUR", "addr:country": "US", "addr:postcode": "81610", "addr:state": "CO", "addr:street_address": "114 STEGOSAURUS FWY", "amenity": "post_box", "collection_times": "Mo-Fr 14:00; Sa 11:00", "indoor": "yes", "note": "ON 12/24 AND 12/31, THIS BOX MAY BE COLLECTED AS EARLY AS 12 NOON.", "nsi_id": "unitedstatespostalservice-a77078", "operator": "United States Postal Service", "operator:short": "USPS", "operator:type": "public", "operator:wikidata": "Q668687", "ref": "8161000002"}, "type": "Feature"}
{"geometry": {"coordinates": [-106.819475, 39.194192], "type": "Point"}, "id": "Zd-Sx9nctCMjD_26OcZDyzUBuI4=", "properties": {"@source_uri": "https://tools.usps.com/UspsToolsRestServices/rest/POLocator/findLocations", "@spider": "usps_collection_boxes", "addr:city": "ASPEN", "addr:country": "US", "addr:postcode": "81611", "addr:state": "CO", "addr:street_address": "235 PUPPY SMITH ST", "amenity": "post_box", "collection_times": "Mo-Fr 15:00; Sa 13:00", "note": "ON 12/24 AND 12/31, THIS BOX MAY BE COLLECTED AS EARLY AS 12 NOON.", "nsi_id": "unitedstatespostalservice-a77078", "operator": "United States Postal Service", "operator:short": "USPS", "operator:type": "public", "operator:wikidata": "Q668687", "ref": "8161100003"}, "type": "Feature"}
{"geometry": {"coordinates": [-106.817941, 39.190555], "type": "Point"}, "id": "lrNNhWdfxcHmXdjdld2mXdMI-Zs=", "properties": {"@source_uri": "https://tools.usps.com/UspsToolsRestServices/rest/POLocator/findLocations", "@spider": "usps_collection_boxes", "addr:city": "ASPEN", "addr:country": "US", "addr:postcode": "81611", "addr:state": "CO", "addr:street_address": "506 E MAIN ST", "amenity": "post_box", "collection_times": "Mo-Sa 12:00", "nsi_id": "unitedstatespostalservice-a77078", "operator": "United States Postal Service", "operator:short": "USPS", "operator:type": "public", "operator:wikidata": "Q668687", "ref": "8161100005"}, "type": "Feature"}
{"geometry": {"coordinates": [-106.817002, 39.189482], "type": "Point"}, "id": "hvQQ18432sCJEzgR_R_FQpixXoE=", "properties": {"@source_uri": "https://tools.usps.com/UspsToolsRestServices/rest/POLocator/findLocations", "@spider": "usps_collection_boxes", "addr:city": "ASPEN", "addr:country": "US", "addr:postcode": "81611", "addr:state": "CO", "addr:street_address": "600 E HOPKINS AVE", "amenity": "post_box", "collection_times": "Mo-Sa 12:00", "nsi_id": "unitedstatespostalservice-a77078", "operator": "United States Postal Service", "operator:short": "USPS", "operator:type": "public", "operator:wikidata": "Q668687", "ref": "8161100007"}, "type": "Feature"}
{"geometry": {"coordinates": [-106.817407, 39.188333], "type": "Point"}, "id": "e4SiGaq4HlWS1RNqsSWQ2a5u4_k=", "properties": {"@source_uri": "https://tools.usps.com/UspsToolsRestServices/rest/POLocator/findLocations", "@spider": "usps_collection_boxes", "addr:city": "ASPEN", "addr:country": "US", "addr:postcode": "81611", "addr:state": "CO", "addr:street_address": "300 S HUNTER ST", "amenity": "post_box", "collection_times": "Mo-Sa 12:00", "nsi_id": "unitedstatespostalservice-a77078", "operator": "United States Postal Service", "operator:short": "USPS", "operator:type": "public", "operator:wikidata": "Q668687", "ref": "8161100008"}, "type": "Feature"}
{"geometry": {"coordinates": [-106.815969, 39.187401], "type": "Point"}, "id": "D0NFlPSm4Q3OVdCwrl65y58sP04=", "properties": {"@source_uri": "https://tools.usps.com/UspsToolsRestServices/rest/POLocator/findLocations", "@spider": "usps_collection_boxes", "addr:city": "ASPEN", "addr:country": "US", "addr:postcode": "81611", "addr:state": "CO", "addr:street_address": "711 E COOPER AVE", "amenity": "post_box", "collection_times": "Mo-Sa 12:00", "nsi_id": "unitedstatespostalservice-a77078", "operator": "United States Postal Service", "operator:short": "USPS", "operator:type": "public", "operator:wikidata": "Q668687", "ref": "8161100009"}, "type": "Feature"}
{"geometry": {"coordinates": [-106.818012, 39.187181], "type": "Point"}, "id": "UZYELTSB4EKkpv3uFN4jZGnO-Aw=", "properties": {"@source_uri": "https://tools.usps.com/UspsToolsRestServices/rest/POLocator/findLocations", "@spider": "usps_collection_boxes", "addr:city": "ASPEN", "addr:country": "US", "addr:postcode": "81611", "addr:state": "CO", "addr:street_address": "520 E DURANT AVE", "amenity": "post_box", "collection_times": "Mo-Sa 12:00", "nsi_id": "unitedstatespostalservice-a77078", "operator": "United States Postal Service", "operator:short": "USPS", "operator:type": "public", "operator:wikidata": "Q668687", "ref": "8161100010"}, "type": "Feature"}
{"geometry": {"coordinates": [-106.818896, 39.188206], "type": "Point"}, "id": "jU8n5GxOUPGc-2WedQsImoa1P-4=", "properties": {"@source_uri": "https://tools.usps.com/UspsToolsRestServices/rest/POLocator/findLocations", "@spider": "usps_collection_boxes", "addr:city": "ASPEN", "addr:country": "US", "addr:postcode": "81611", "addr:state": "CO", "addr:street_address": "434 E COOPER AVE", "amenity": "post_box", "collection_times": "Mo-Sa 12:00", "nsi_id": "unitedstatespostalservice-a77078", "operator": "United States Postal Service", "operator:short": "USPS", "operator:type": "public", "operator:wikidata": "Q668687", "ref": "8161100011"}, "type": "Feature"}
{"geometry": {"coordinates": [-106.820986, 39.189433], "type": "Point"}, "id": "dmzsS3bhyFWUGX40XPw7K11RTfk=", "properties": {"@source_uri": "https://tools.usps.com/UspsToolsRestServices/rest/POLocator/findLocations", "@spider": "usps_collection_boxes", "addr:city": "ASPEN", "addr:country": "US", "addr:postcode": "81611", "addr:state": "CO", "addr:street_address": "215 S MONARCH ST", "amenity": "post_box", "collection_times": "Mo-Sa 12:00", "nsi_id": "unitedstatespostalservice-a77078", "operator": "United States Postal Service", "operator:short": "USPS", "operator:type": "public", "operator:wikidata": "Q668687", "ref": "8161100012"}, "type": "Feature"}
{"geometry": {"coordinates": [-106.861658, 39.220728], "type": "Point"}, "id": "tAj53TpfqqZXt0Zx10CESWOKzOo=", "properties": {"@source_uri": "https://tools.usps.com/UspsToolsRestServices/rest/POLocator/findLocations", "@spider": "usps_collection_boxes", "addr:city": "ASPEN", "addr:country": "US", "addr:postcode": "81611", "addr:state": "CO", "addr:street_address": "119 AABC", "amenity": "post_box", "collection_times": "Mo-Sa 12:00", "nsi_id": "unitedstatespostalservice-a77078", "operator": "United States Postal Service", "operator:short": "USPS", "operator:type": "public", "operator:wikidata": "Q668687", "ref": "8161100014"}, "type": "Feature"}
{"geometry": {"coordinates": [-106.821429, 39.191261], "type": "Point"}, "id": "7t8oXsligKKaMUT-p9rI668J5zs=", "properties": {"@source_uri": "https://tools.usps.com/UspsToolsRestServices/rest/POLocator/findLocations", "@spider": "usps_collection_boxes", "addr:city": "ASPEN", "addr:country": "US", "addr:postcode": "81611", "addr:state": "CO", "addr:street_address": "200 E MAIN ST", "amenity": "post_box", "collection_times": "Mo-Sa 12:00", "nsi_id": "unitedstatespostalservice-a77078", "operator": "United States Postal Service", "operator:short": "USPS", "operator:type": "public", "operator:wikidata": "Q668687", "ref": "8161100016"}, "type": "Feature"}
{"geometry": {"coordinates": [-106.837988, 39.189647], "type": "Point"}, "id": "fErtONGja37VjxUhwaZ6gbzuniA=", "properties": {"@source_uri": "https://tools.usps.com/UspsToolsRestServices/rest/POLocator/findLocations", "@spider": "usps_collection_boxes", "addr:city": "ASPEN", "addr:country": "US", "addr:postcode": "81611", "addr:state": "CO", "addr:street_address": "405 CASTLE CREEK RD", "amenity": "post_box", "collection_times": "Mo-Sa 12:00", "nsi_id": "unitedstatespostalservice-a77078", "operator": "United States Postal Service", "operator:short": "USPS", "operator:type": "public", "operator:wikidata": "Q668687", "ref": "8161100017"}, "type": "Feature"}
{"geometry": {"coordinates": [-106.819983, 39.189056], "type": "Point"}, "id": "KxnO4BtywqlXibEMqNNDjNS6Ktc=", "properties": {"@source_uri": "https://tools.usps.com/UspsToolsRestServices/rest/POLocator/findLocations", "@spider": "usps_collection_boxes", "addr:city": "ASPEN", "addr:country": "US", "addr:postcode": "81611", "addr:state": "CO", "addr:street_address": "235 PUPPY SMITH ST", "amenity": "post_box", "collection_times": "Mo-Fr 15:00; Sa 13:00", "indoor": "yes", "note": "ON 12/24 AND 12/31, THIS BOX MAY BE COLLECTED AS EARLY AS 12 NOON.", "nsi_id": "unitedstatespostalservice-a77078", "operator": "United States Postal Service", "operator:short": "USPS", "operator:type": "public", "operator:wikidata": "Q668687", "ref": "8161100020"}, "type": "Feature"}
{"geometry": {"coordinates": [-106.8636705271, 39.2195200147], "type": "Point"}, "id": "UlAiwtPxPog5aLDB8oLWDMv8yrg=", "properties": {"@source_uri": "https://tools.usps.com/UspsToolsRestServices/rest/POLocator/findLocations", "@spider": "usps_collection_boxes", "addr:city": "ASPEN", "addr:country": "US", "addr:postcode": "81611", "addr:state": "CO", "addr:street_address": "233 E AIRPORT RD", "amenity": "post_box", "collection_times": "Mo-Sa 12:00", "nsi_id": "unitedstatespostalservice-a77078", "operator": "United States Postal Service", "operator:short": "USPS", "operator:type": "public", "operator:wikidata": "Q668687", "ref": "8161100026"}, "type": "Feature"}
{"geometry": {"coordinates": [-106.819475, 39.194192], "type": "Point"}, "id": "VK42pPKIyVGmE43Y41ijciHSL0k=", "properties": {"@source_uri": "https://tools.usps.com/UspsToolsRestServices/rest/POLocator/findLocations", "@spider": "usps_collection_boxes", "addr:city": "ASPEN", "addr:country": "US", "addr:postcode": "81611", "addr:state": "CO", "addr:street_address": "235 PUPPY SMITH ST", "amenity": "post_box", "collection_times": "Mo-Fr 15:00; Sa 13:00", "indoor": "yes", "note": "ON 12/24 AND 12/31, THIS BOX MAY BE COLLECTED AS EARLY AS 12 NOON.", "nsi_id": "unitedstatespostalservice-a77078", "operator": "United States Postal Service", "operator:short": "USPS", "operator:type": "public", "operator:wikidata": "Q668687", "ref": "8161100030"}, "type": "Feature"}
{"geometry": {"coordinates": [-106.819475, 39.194192], "type": "Point"}, "id": "MLFy_AI-gFibUjprgzWEbL13xYk=", "properties": {"@source_uri": "https://tools.usps.com/UspsToolsRestServices/rest/POLocator/findLocations", "@spider": "usps_collection_boxes", "addr:city": "ASPEN", "addr:country": "US", "addr:postcode": "81611", "addr:state": "CO", "addr:street_address": "235 PUPPY SMITH ST", "amenity": "post_box", "collection_times": "Mo-Fr 15:00; Sa 13:00", "indoor": "yes", "note": "ON 12/24 AND 12/31, THIS BOX MAY BE COLLECTED AS EARLY AS 12 NOON.", "nsi_id": "unitedstatespostalservice-a77078", "operator": "United States Postal Service", "operator:short": "USPS", "operator:type": "public", "operator:wikidata": "Q668687", "ref": "8161100031"}, "type": "Feature"}
{"geometry": {"coordinates": [-106.819475, 39.194192], "type": "Point"}, "id": "E_l_diq65vJO5R941AyHh5h9vGo=", "properties": {"@source_uri": "https://tools.usps.com/UspsToolsRestServices/rest/POLocator/findLocations", "@spider": "usps_collection_boxes", "addr:city": "ASPEN", "addr:country": "US", "addr:postcode": "81611", "addr:state": "CO", "addr:street_address": "235 PUPPY SMITH ST", "amenity": "post_box", "collection_times": "Mo-Fr 15:00; Sa 13:00", "name": "USPS COLLECTION BOX - APC", "note": "ON 12/24 AND 12/31, THIS BOX MAY BE COLLECTED AS EARLY AS 12 NOON.", "nsi_id": "unitedstatespostalservice-a77078", "operator": "United States Postal Service", "operator:short": "USPS", "operator:type": "public", "operator:wikidata": "Q668687", "ref": "8161100034"}, "type": "Feature"}
{"geometry": {"coordinates": [-106.819475, 39.194192], "type": "Point"}, "id": "llR4mTOd8-mVIA5-5uM83k4V5Rs=", "properties": {"@source_uri": "https://tools.usps.com/UspsToolsRestServices/rest/POLocator/findLocations", "@spider": "usps_collection_boxes", "addr:city": "ASPEN", "addr:country": "US", "addr:postcode": "81611", "addr:state": "CO", "addr:street_address": "235 PUPPY SMITH ST", "amenity": "post_box", "collection_times": "Mo-Fr 15:00; Sa 13:00", "indoor": "yes", "note": "ON 12/24 AND 12/31, THIS BOX MAY BE COLLECTED AS EARLY AS 12 NOON.", "nsi_id": "unitedstatespostalservice-a77078", "operator": "United States Postal Service", "operator:short": "USPS", "operator:type": "public", "operator:wikidata": "Q668687", "ref": "8161100035"}, "type": "Feature"}
{"geometry": {"coordinates": [-106.945976, 39.211333], "type": "Point"}, "id": "axT0d2d05n6FLY9CwGG0hvtmKGA=", "properties": {"@source_uri": "https://tools.usps.com/UspsToolsRestServices/rest/POLocator/findLocations", "@spider": "usps_collection_boxes", "addr:city": "SNOWMASS VILLAGE", "addr:country": "US", "addr:postcode": "81615", "addr:state": "CO", "addr:street_address": "016 KEARNS RD", "amenity": "post_box", "collection_times": "Mo-Fr 15:00; Sa 13:00", "note": "ON 12/24 AND 12/31, THIS BOX MAY BE COLLECTED AS EARLY AS 12 NOON.", "nsi_id": "unitedstatespostalservice-a77078", "operator": "United States Postal Service", "operator:short": "USPS", "operator:type": "public", "operator:wikidata": "Q668687", "ref": "8161500000"}, "type": "Feature"}
{"geometry": {"coordinates": [-106.945976, 39.211333], "type": "Point"}, "id": "agjIZmuRry1mrg9qaZz9UJgPoD8=", "properties": {"@source_uri": "https://tools.usps.com/UspsToolsRestServices/rest/POLocator/findLocations", "@spider": "usps_collection_boxes", "addr:city": "SNOWMASS VILLAGE", "addr:country": "US", "addr:postcode": "81615", "addr:state": "CO", "addr:street_address": "016 KEARNS RD", "amenity": "post_box", "collection_times": "Mo-Fr 15:00; Sa 13:00", "indoor": "yes", "note": "ON 12/24 AND 12/31, THIS BOX MAY BE COLLECTED AS EARLY AS 12 NOON.", "nsi_id": "unitedstatespostalservice-a77078", "operator": "United States Postal Service", "operator:short": "USPS", "operator:type": "public", "operator:wikidata": "Q668687", "ref": "8161500002"}, "type": "Feature"}
{"geometry": {"coordinates": [-106.945976, 39.211333], "type": "Point"}, "id": "JcM4LRw9v6ath154JIZoANoKKas=", "properties": {"@source_uri": "https://tools.usps.com/UspsToolsRestServices/rest/POLocator/findLocations", "@spider": "usps_collection_boxes", "addr:city": "SNOWMASS VILLAGE", "addr:country": "US", "addr:postcode": "81615", "addr:state": "CO", "addr:street_address": "016 KEARNS RD", "amenity": "post_box", "collection_times": "Mo-Fr 15:00; Sa 13:00", "indoor": "yes", "note": "ON 12/24 AND 12/31, THIS BOX MAY BE COLLECTED AS EARLY AS 12 NOON.", "nsi_id": "unitedstatespostalservice-a77078", "operator": "United States Postal Service", "operator:short": "USPS", "operator:type": "public", "operator:wikidata": "Q668687", "ref": "8161500003"}, "type": "Feature"}
{"geometry": {"coordinates": [-106.524166, 39.636259], "type": "Point"}, "id": "_s588Taim0oauha_Bq7u1cy_u5w=", "properties": {"@source_uri": "https://tools.usps.com/UspsToolsRestServices/rest/POLocator/findLocations", "@spider": "usps_collection_boxes", "addr:city": "AVON", "addr:country": "US", "addr:postcode": "81620", "addr:state": "CO", "addr:street_address": "111 W BEAVER CREEK BLVD", "amenity": "post_box", "collection_times": "Mo-Fr 15:40; Sa 12:30", "indoor": "yes", "note": "ON 12/24 AND 12/31, THIS BOX MAY BE COLLECTED AS EARLY AS 12 NOON.", "nsi_id": "unitedstatespostalservice-a77078", "operator": "United States Postal Service", "operator:short": "USPS", "operator:type": "public", "operator:wikidata": "Q668687", "ref": "8162000000"}, "type": "Feature"}
{"geometry": {"coordinates": [-106.524145, 39.636181], "type": "Point"}, "id": "T86y2LPPyWOM_OdcoMHf9itYp_Q=", "properties": {"@source_uri": "https://tools.usps.com/UspsToolsRestServices/rest/POLocator/findLocations", "@spider": "usps_collection_boxes", "addr:city": "AVON", "addr:country": "US", "addr:postcode": "81620", "addr:state": "CO", "addr:street_address": "111 W BEAVER CREEK BLVD", "amenity": "post_box", "collection_times": "Mo-Fr 15:40; Sa 12:30", "indoor": "yes", "note": "ON 12/24 AND 12/31, THIS BOX MAY BE COLLECTED AS EARLY AS 12 NOON.", "nsi_id": "unitedstatespostalservice-a77078", "operator": "United States Postal Service", "operator:short": "USPS", "operator:type": "public", "operator:wikidata": "Q668687", "ref": "8162000001"}, "type": "Feature"}
{"geometry": {"coordinates": [-106.524145, 39.636181], "type": "Point"}, "id": "Cwwd4Rx1GmXskSWTPz26Wbiey1Q=", "properties": {"@source_uri": "https://tools.usps.com/UspsToolsRestServices/rest/POLocator/findLocations", "@spider": "usps_collection_boxes", "addr:city": "AVON", "addr:country": "US", "addr:postcode": "81620", "addr:state": "CO", "addr:street_address": "111 W BEAVER CREEK BLVD", "amenity": "post_box", "collection_times": "Mo-Fr 15:40; Sa 12:30", "note": "ON 12/24 AND 12/31, THIS BOX MAY BE COLLECTED AS EARLY AS 12 NOON.", "nsi_id": "unitedstatespostalservice-a77078", "operator": "United States Postal Service", "operator:short": "USPS", "operator:type": "public", "operator:wikidata": "Q668687", "ref": "8162000002"}, "type": "Feature"}
{"geometry": {"coordinates": [-107.033584, 39.368768], "type": "Point"}, "id": "81Qallg7b9go7uLbpy2z9AIUmpI=", "properties": {"@source_uri": "https://tools.usps.com/UspsToolsRestServices/rest/POLocator/findLocations", "@spider": "usps_collection_boxes", "addr:city": "BASALT", "addr:country": "US", "addr:postcode": "81621", "addr:state": "CO", "addr:street_address": "137 MIDLAND AVE", "amenity": "post_box", "collection_times": "Mo-Sa 12:00", "nsi_id": "unitedstatespostalservice-a77078", "operator": "United States Postal Service", "operator:short": "USPS", "operator:type": "public", "operator:wikidata": "Q668687", "ref": "8162100001"}, "type": "Feature"}
{"geometry": {"coordinates": [-107.0346, 39.368504], "type": "Point"}, "id": "MU6HhKJmtcYfAFnwh008fX8a-Ms=", "properties": {"@source_uri": "https://tools.usps.com/UspsToolsRestServices/rest/POLocator/findLocations", "@spider": "usps_collection_boxes", "addr:city": "BASALT", "addr:country": "US", "addr:postcode": "81621", "addr:state": "CO", "addr:street_address": "12 MIDLAND AVE", "amenity": "post_box", "collection_times": "Mo-Fr 15:00; Sa 12:00", "indoor": "yes", "note": "ON 12/24 AND 12/31, THIS BOX MAY BE COLLECTED AS EARLY AS 12 NOON.", "nsi_id": "unitedstatespostalservice-a77078", "operator": "United States Postal Service", "operator:short": "USPS", "operator:type": "public", "operator:wikidata": "Q668687", "ref": "8162100005"}, "type": "Feature"}
{"geometry": {"coordinates": [-107.0346, 39.368504], "type": "Point"}, "id": "vi5tKpFWk6pIvoE5Vcjgo0AFcEI=", "properties": {"@source_uri": "https://tools.usps.com/UspsToolsRestServices/rest/POLocator/findLocations", "@spider": "usps_collection_boxes", "addr:city": "BASALT", "addr:country": "US", "addr:postcode": "81621", "addr:state": "CO", "addr:street_address": "12 MIDLAND AVE", "amenity": "post_box", "collection_times": "Mo-Fr 15:00; Sa 12:00", "indoor": "yes", "note": "ON 12/24 AND 12/31, THIS BOX MAY BE COLLECTED AS EARLY AS 12 NOON.", "nsi_id": "unitedstatespostalservice-a77078", "operator": "United States Postal Service", "operator:short": "USPS", "operator:type": "public", "operator:wikidata": "Q668687", "ref": "8162100006"}, "type": "Feature"}
{"geometry": {"coordinates": [-107.0346, 39.368504], "type": "Point"}, "id": "9lGMHQXt88WlmmFLa12c-p_EUxo=", "properties": {"@source_uri": "https://tools.usps.com/UspsToolsRestServices/rest/POLocator/findLocations", "@spider": "usps_collection_boxes", "addr:city": "BASALT", "addr:country": "US", "addr:postcode": "81621", "addr:state": "CO", "addr:street_address": "12 MIDLAND AVE", "amenity": "post_box", "collection_times": "Mo-Fr 15:00; Sa 12:00", "indoor": "yes", "note": "ON 12/24 AND 12/31, THIS BOX MAY BE COLLECTED AS EARLY AS 12 NOON.", "nsi_id": "unitedstatespostalservice-a77078", "operator": "United States Postal Service", "operator:short": "USPS", "operator:type": "public", "operator:wikidata": "Q668687", "ref": "8162100007"}, "type": "Feature"}
{"geometry": {"coordinates": [-107.0346, 39.368504], "type": "Point"}, "id": "kYaSbP27hdXCJoHxXpmWLxfrIck=", "properties": {"@source_uri": "https://tools.usps.com/UspsToolsRestServices/rest/POLocator/findLocations", "@spider": "usps_collection_boxes", "addr:city": "BASALT", "addr:country": "US", "addr:postcode": "81621", "addr:state": "CO", "addr:street_address": "12 MIDLAND AVE", "amenity": "post_box", "collection_times": "Mo-Fr 15:00; Sa 12:00", "note": "ON 12/24 AND 12/31, THIS BOX MAY BE COLLECTED AS EARLY AS 12 NOON.", "nsi_id": "unitedstatespostalservice-a77078", "operator": "United States Postal Service", "operator:short": "USPS", "operator:type": "public", "operator:wikidata": "Q668687", "ref": "8162100010"}, "type": "Feature"}
{"geometry": {"coordinates": [-107.077265, 39.374566], "type": "Point"}, "id": "cTxyQd_bqbuS992QSa17exOy6sI=", "properties": {"@source_uri": "https://tools.usps.com/UspsToolsRestServices/rest/POLocator/findLocations", "@spider": "usps_collection_boxes", "addr:city": "BASALT", "addr:country": "US", "addr:postcode": "81621", "addr:state": "CO", "addr:street_address": "1450 E VALLEY RD", "amenity": "post_box", "collection_times": "Mo-Fr 12:00", "nsi_id": "unitedstatespostalservice-a77078", "operator": "United States Postal Service", "operator:short": "USPS", "operator:type": "public", "operator:wikidata": "Q668687", "ref": "8162100012"}, "type": "Feature"}
{"geometry": {"coordinates": [-107.034044, 39.364579], "type": "Point"}, "id": "B3LQTghdTNJqgsHwCYdPM7cijAs=", "properties": {"@source_uri": "https://tools.usps.com/UspsToolsRestServices/rest/POLocator/findLocations", "@spider": "usps_collection_boxes", "addr:city": "BASALT", "addr:country": "US", "addr:postcode": "81621", "addr:state": "CO", "addr:street_address": "136 EMMA RD", "amenity": "post_box", "collection_times": "Mo-Sa 11:00", "nsi_id": "unitedstatespostalservice-a77078", "operator": "United States Postal Service", "operator:short": "USPS", "operator:type": "public", "operator:wikidata": "Q668687", "ref": "8162100015"}, "type": "Feature"}
{"geometry": {"coordinates": [-107.213579, 39.400557], "type": "Point"}, "id": "6luGUcOtj84LEKycH0KCbBL3-m8=", "properties": {"@source_uri": "https://tools.usps.com/UspsToolsRestServices/rest/POLocator/findLocations", "@spider": "usps_collection_boxes", "addr:city": "CARBONDALE", "addr:country": "US", "addr:postcode": "81623", "addr:state": "CO", "addr:street_address": "655 MAIN ST", "amenity": "post_box", "collection_times": "Mo-Fr 15:00; Sa 13:00", "note": "ON 12/24 AND 12/31, THIS BOX MAY BE COLLECTED AS EARLY AS 12 NOON.", "nsi_id": "unitedstatespostalservice-a77078", "operator": "United States Postal Service", "operator:short": "USPS", "operator:type": "public", "operator:wikidata": "Q668687", "ref": "8162300000"}, "type": "Feature"}
{"geometry": {"coordinates": [-107.220191, 39.400618], "type": "Point"}, "id": "RjjF94oGdxnUgoKgu9oYvx4Euk4=", "properties": {"@source_uri": "https://tools.usps.com/UspsToolsRestServices/rest/POLocator/findLocations", "@spider": "usps_collection_boxes", "addr:city": "CARBONDALE", "addr:country": "US", "addr:postcode": "81623", "addr:state": "CO", "addr:street_address": "1051 HIGHWAY 133", "amenity": "post_box", "collection_times": "Mo-Sa 11:00", "nsi_id": "unitedstatespostalservice-a77078", "operator": "United States Postal Service", "operator:short": "USPS", "operator:type": "public", "operator:wikidata": "Q668687", "ref": "8162300002"}, "type": "Feature"}
{"geometry": {"coordinates": [-107.237827, 39.183086], "type": "Point"}, "id": "Rg8f_eBMKe2AH3izjElAyM9HhBY=", "properties": {"@source_uri": "https://tools.usps.com/UspsToolsRestServices/rest/POLocator/findLocations", "@spider": "usps_collection_boxes", "addr:city": "CARBONDALE", "addr:country": "US", "addr:postcode": "81623", "addr:state": "CO", "addr:street_address": "292 REDSTONE BLVD", "amenity": "post_box", "collection_times": "Mo-Sa 10:30", "nsi_id": "unitedstatespostalservice-a77078", "operator": "United States Postal Service", "operator:short": "USPS", "operator:type": "public", "operator:wikidata": "Q668687", "ref": "8162300003"}, "type": "Feature"}
{"geometry": {"coordinates": [-107.0878787784, 39.3920807105], "type": "Point"}, "id": "Cji94KLLkRjIfGClwgckHmPFMgw=", "properties": {"@source_uri": "https://tools.usps.com/UspsToolsRestServices/rest/POLocator/findLocations", "@spider": "usps_collection_boxes", "addr:city": "CARBONDALE", "addr:country": "US", "addr:postcode": "81623", "addr:state": "CO", "addr:street_address": "250 E VALLEY RD", "amenity": "post_box", "collection_times": "Mo-Sa 11:00", "nsi_id": "unitedstatespostalservice-a77078", "operator": "United States Postal Service", "operator:short": "USPS", "operator:type": "public", "operator:wikidata": "Q668687", "ref": "8162300004"}, "type": "Feature"}
{"geometry": {"coordinates": [-107.213591, 39.40053], "type": "Point"}, "id": "evjwumtOFiTV-QhD00SBA98bv-w=", "properties": {"@source_uri": "https://tools.usps.com/UspsToolsRestServices/rest/POLocator/findLocations", "@spider": "usps_collection_boxes", "addr:city": "CARBONDALE", "addr:country": "US", "addr:postcode": "81623", "addr:state": "CO", "addr:street_address": "655 MAIN ST", "amenity": "post_box", "collection_times": "Mo-Fr 15:00; Sa 13:00", "indoor": "yes", "note": "ON 12/24 AND 12/31, THIS BOX MAY BE COLLECTED AS EARLY AS 12 NOON.", "nsi_id": "unitedstatespostalservice-a77078", "operator": "United States Postal Service", "operator:short": "USPS", "operator:type": "public", "operator:wikidata": "Q668687", "ref": "8162300006"}, "type": "Feature"}
{"geometry": {"coordinates": [-107.190896, 39.07022], "type": "Point"}, "id": "Pd82xM3mAy8Va1DpBSONBDV07EI=", "properties": {"@source_uri": "https://tools.usps.com/UspsToolsRestServices/rest/POLocator/findLocations", "@spider": "usps_collection_boxes", "addr:city": "CARBONDALE", "addr:country": "US", "addr:postcode": "81623", "addr:state": "CO", "addr:street_address": "300 W PARK ST", "amenity": "post_box", "collection_times": "Mo-Sa 10:00", "nsi_id": "unitedstatespostalservice-a77078", "operator": "United States Postal Service", "operator:short": "USPS", "operator:type": "public", "operator:wikidata": "Q668687", "ref": "8162300009"}, "type": "Feature"}
{"geometry": {"coordinates": [-107.213591, 39.40053], "type": "Point"}, "id": "ShZKTcBjU7gKmT5Hr62YEuzj4W4=", "properties": {"@source_uri": "https://tools.usps.com/UspsToolsRestServices/rest/POLocator/findLocations", "@spider": "usps_collection_boxes", "addr:city": "CARBONDALE", "addr:country": "US", "addr:postcode": "81623", "addr:state": "CO", "addr:street_address": "655 MAIN ST", "amenity": "post_box", "collection_times": "Mo-Fr 15:00; Sa 13:00", "indoor": "yes", "note": "ON 12/24 AND 12/31, THIS BOX MAY BE COLLECTED AS EARLY AS 12 NOON.", "nsi_id": "unitedstatespostalservice-a77078", "operator": "United States Postal Service", "operator:short": "USPS", "operator:type": "public", "operator:wikidata": "Q668687", "ref": "8162300010"}, "type": "Feature"}
{"geometry": {"coordinates": [-107.960905, 39.23941], "type": "Point"}, "id": "5fJCa4S3o1WfT4XmikLHA0GfcDE=", "properties": {"@source_uri": "https://tools.usps.com/UspsToolsRestServices/rest/POLocator/findLocations", "@spider": "usps_collection_boxes", "addr:city": "COLLBRAN", "addr:country": "US", "addr:postcode": "81624", "addr:state": "CO", "addr:street_address": "110 MAIN ST", "amenity": "post_box", "collection_times": "Mo-Fr 16:30; Sa 12:00", "note": "ON 12/24 AND 12/31, THIS BOX MAY BE COLLECTED AS EARLY AS 12 NOON.", "nsi_id": "unitedstatespostalservice-a77078", "operator": "United States Postal Service", "operator:short": "USPS", "operator:type": "public", "operator:wikidata": "Q668687", "ref": "8162400001"}, "type": "Feature"}
{"geometry": {"coordinates": [-107.960905, 39.23941], "type": "Point"}, "id": "lM9j1ZRcPVc5T6Uqbf_bz-9K3eI=", "properties": {"@source_uri": "https://tools.usps.com/UspsToolsRestServices/rest/POLocator/findLocations", "@spider": "usps_collection_boxes", "addr:city": "COLLBRAN", "addr:country": "US", "addr:postcode": "81624", "addr:state": "CO", "addr:street_address": "110 MAIN ST", "amenity": "post_box", "collection_times": "Mo-Fr 16:30; Sa 12:00", "indoor": "yes", "note": "ON 12/24 AND 12/31, THIS BOX MAY BE COLLECTED AS EARLY AS 12 NOON.", "nsi_id": "unitedstatespostalservice-a77078", "operator": "United States Postal Service", "operator:short": "USPS", "operator:type": "public", "operator:wikidata": "Q668687", "ref": "8162400002"}, "type": "Feature"}
{"geometry": {"coordinates": [-107.554921, 40.515086], "type": "Point"}, "id": "Wn5e3GdJ13fgtnrEhN_ZCjZ7KR4=", "properties": {"@source_uri": "https://tools.usps.com/UspsToolsRestServices/rest/POLocator/findLocations", "@spider": "usps_collection_boxes", "addr:city": "CRAIG", "addr:country": "US", "addr:postcode": "81625", "addr:state": "CO", "addr:street_address": "556 PERSHING ST", "amenity": "post_box", "collection_times": "Mo-Sa 15:00", "note": "ON 12/24 AND 12/31, THIS BOX MAY BE COLLECTED AS EARLY AS 12 NOON.", "nsi_id": "unitedstatespostalservice-a77078", "operator": "United States Postal Service", "operator:short": "USPS", "operator:type": "public", "operator:wikidata": "Q668687", "ref": "8162500000"}, "type": "Feature"}
{"geometry": {"coordinates": [-107.555255, 40.515145], "type": "Point"}, "id": "6cY5mQ2IZ46e89-2cXau-Qmqnlo=", "properties": {"@source_uri": "https://tools.usps.com/UspsToolsRestServices/rest/POLocator/findLocations", "@spider": "usps_collection_boxes", "addr:city": "CRAIG", "addr:country": "US", "addr:postcode": "81625", "addr:state": "CO", "addr:street_address": "556 PERSHING ST", "amenity": "post_box", "collection_times": "Mo-Sa 15:00", "indoor": "yes", "note": "ON 12/24 AND 12/31, THIS BOX MAY BE COLLECTED AS EARLY AS 12 NOON.", "nsi_id": "unitedstatespostalservice-a77078", "operator": "United States Postal Service", "operator:short": "USPS", "operator:type": "public", "operator:wikidata": "Q668687", "ref": "8162500001"}, "type": "Feature"}
{"geometry": {"coordinates": [-107.5513300335, 40.5119100076], "type": "Point"}, "id": "A8B26Wd_nhV5GCoTCWGVhOFuI_E=", "properties": {"@source_uri": "https://tools.usps.com/UspsToolsRestServices/rest/POLocator/findLocations", "@spider": "usps_collection_boxes", "addr:city": "CRAIG", "addr:country": "US", "addr:postcode": "81625", "addr:state": "CO", "addr:street_address": "300 W 4TH ST", "amenity": "post_box", "collection_times": "Mo-Sa 15:00", "note": "ON 12/24 AND 12/31, THIS BOX MAY BE COLLECTED AS EARLY AS 12 NOON.", "nsi_id": "unitedstatespostalservice-a77078", "operator": "United States Postal Service", "operator:short": "USPS", "operator:type": "public", "operator:wikidata": "Q668687", "ref": "8162500002"}, "type": "Feature"}
{"geometry": {"coordinates": [-107.5468390098, 40.5142999815], "type": "Point"}, "id": "oRNV4N8WgBmMZl1T2_DGER4JVeU=", "properties": {"@source_uri": "https://tools.usps.com/UspsToolsRestServices/rest/POLocator/findLocations", "@spider": "usps_collection_boxes", "addr:city": "CRAIG", "addr:country": "US", "addr:postcode": "81625", "addr:state": "CO", "addr:street_address": "11 E VICTORY WAY", "amenity": "post_box", "collection_times": "Mo-Sa 15:00", "note": "ON 12/24 AND 12/31, THIS BOX MAY BE COLLECTED AS EARLY AS 12 NOON.", "nsi_id": "unitedstatespostalservice-a77078", "operator": "United States Postal Service", "operator:short": "USPS", "operator:type": "public", "operator:wikidata": "Q668687", "ref": "8162500003"}, "type": "Feature"}
{"geometry": {"coordinates": [-108.213796, 39.332864], "type": "Point"}, "id": "_MzpWhcEymL7Pya_MRbLM-gmHuk=", "properties": {"@source_uri": "https://tools.usps.com/UspsToolsRestServices/rest/POLocator/findLocations", "@spider": "usps_collection_boxes", "addr:city": "DE BEQUE", "addr:country": "US", "addr:postcode": "81630", "addr:state": "CO", "addr:street_address": "347 MINTER AVE", "amenity": "post_box", "collection_times": "Mo-Fr 16:30; Sa 11:30", "note": "ON 12/24 AND 12/31, THIS BOX MAY BE COLLECTED AS EARLY AS 12 NOON.", "nsi_id": "unitedstatespostalservice-a77078", "operator": "United States Postal Service", "operator:short": "USPS", "operator:type": "public", "operator:wikidata": "Q668687", "ref": "8163000000"}, "type": "Feature"}
{"geometry": {"coordinates": [-108.213855, 39.332832], "type": "Point"}, "id": "jPtGnArR-wuGQDQorgAa3zBI6NU=", "properties": {"@source_uri": "https://tools.usps.com/UspsToolsRestServices/rest/POLocator/findLocations", "@spider": "usps_collection_boxes", "addr:city": "DE BEQUE", "addr:country": "US", "addr:postcode": "81630", "addr:state": "CO", "addr:street_address": "347 MINTER AVE", "amenity": "post_box", "collection_times": "Mo-Fr 16:30; Sa 11:30", "indoor": "yes", "note": "ON 12/24 AND 12/31, THIS BOX MAY BE COLLECTED AS EARLY AS 12 NOON.", "nsi_id": "unitedstatespostalservice-a77078", "operator": "United States Postal Service", "operator:short": "USPS", "operator:type": "public", "operator:wikidata": "Q668687", "ref": "8163000001"}, "type": "Feature"}
{"geometry": {"coordinates": [-106.824503, 39.65984], "type": "Point"}, "id": "8-k-tKwo8RcxP-3w6jp6Pk3wMN4=", "properties": {"@source_uri": "https://tools.usps.com/UspsToolsRestServices/rest/POLocator/findLocations", "@spider": "usps_collection_boxes", "addr:city": "EAGLE", "addr:country": "US", "addr:postcode": "81631", "addr:state": "CO", "addr:street_address": "264 CHAMBERS AVE", "amenity": "post_box", "collection_times": "Mo-Fr 15:25; Sa 12:00", "note": "ON 12/24 AND 12/31, THIS BOX MAY BE COLLECTED AS EARLY AS 12 NOON.", "nsi_id": "unitedstatespostalservice-a77078", "operator": "United States Postal Service", "operator:short": "USPS", "operator:type": "public", "operator:wikidata": "Q668687", "ref": "8163100000"}, "type": "Feature"}
{"geometry": {"coordinates": [-106.824607, 39.659805], "type": "Point"}, "id": "8hXZxJpzqMCbl8noQNGoWya98DM=", "properties": {"@source_uri": "https://tools.usps.com/UspsToolsRestServices/rest/POLocator/findLocations", "@spider": "usps_collection_boxes", "addr:city": "EAGLE", "addr:country": "US", "addr:postcode": "81631", "addr:state": "CO", "addr:street_address": "264 CHAMBERS AVE", "amenity": "post_box", "collection_times": "Mo-Fr 15:25; Sa 12:00", "indoor": "yes", "note": "ON 12/24 AND 12/31, THIS BOX MAY BE COLLECTED AS EARLY AS 12 NOON.", "nsi_id": "unitedstatespostalservice-a77078", "operator": "United States Postal Service", "operator:short": "USPS", "operator:type": "public", "operator:wikidata": "Q668687", "ref": "8163100001"}, "type": "Feature"}
{"geometry": {"coordinates": [-106.82637, 39.66254], "type": "Point"}, "id": "rFP7zcBV5VudAvhMX2tUDzNTndg=", "properties": {"@source_uri": "https://tools.usps.com/UspsToolsRestServices/rest/POLocator/findLocations", "@spider": "usps_collection_boxes", "addr:city": "EAGLE", "addr:country": "US", "addr:postcode": "81631", "addr:state": "CO", "addr:street_address": "103 MARKET ST", "amenity": "post_box", "collection_times": "Mo-Fr 15:00; Sa 12:00", "note": "ON 12/24 AND 12/31, THIS BOX MAY BE COLLECTED AS EARLY AS 12 NOON.", "nsi_id": "unitedstatespostalservice-a77078", "operator": "United States Postal Service", "operator:short": "USPS", "operator:type": "public", "operator:wikidata": "Q668687", "ref": "8163100002"}, "type": "Feature"}
{"geometry": {"coordinates": [-106.828171, 39.65395], "type": "Point"}, "id": "4GQx_pDfWs1-_q7opf0238So97E=", "properties": {"@source_uri": "https://tools.usps.com/UspsToolsRestServices/rest/POLocator/findLocations", "@spider": "usps_collection_boxes", "addr:city": "EAGLE", "addr:country": "US", "addr:postcode": "81631", "addr:state": "CO", "addr:street_address": "301 BROADWAY ST", "amenity": "post_box", "collection_times": "Mo-Fr 15:00; Sa 12:00", "note": "ON 12/24 AND 12/31, THIS BOX MAY BE COLLECTED AS EARLY AS 12 NOON.", "nsi_id": "unitedstatespostalservice-a77078", "operator": "United States Postal Service", "operator:short": "USPS", "operator:type": "public", "operator:wikidata": "Q668687", "ref": "8163100003"}, "type": "Feature"}
{"geometry": {"coordinates": [-106.824607, 39.659805], "type": "Point"}, "id": "bQf6_1w9C225ajII9H90zOMjR5M=", "properties": {"@source_uri": "https://tools.usps.com/UspsToolsRestServices/rest/POLocator/findLocations", "@spider": "usps_collection_boxes", "addr:city": "EAGLE", "addr:country": "US", "addr:postcode": "81631", "addr:state": "CO", "addr:street_address": "264 CHAMBERS AVE", "amenity": "post_box", "collection_times": "Mo-Fr 15:25; Sa 12:00", "indoor": "yes", "note": "ON 12/24 AND 12/31, THIS BOX MAY BE COLLECTED AS EARLY AS 12 NOON.", "nsi_id": "unitedstatespostalservice-a77078", "operator": "United States Postal Service", "operator:short": "USPS", "operator:type": "public", "operator:wikidata": "Q668687", "ref": "8163100004"}, "type": "Feature"}
{"geometry": {"coordinates": [-106.595261, 39.643643], "type": "Point"}, "id": "xC-f4aeV_k-Yh3GxDV6cFRqjXOE=", "properties": {"@source_uri": "https://tools.usps.com/UspsToolsRestServices/rest/POLocator/findLocations", "@spider": "usps_collection_boxes", "addr:city": "EDWARDS", "addr:country": "US", "addr:postcode": "81632", "addr:state": "CO", "addr:street_address": "105 EDWARDS VILLAGE BLVD", "amenity": "post_box", "collection_times": "Mo-Fr 15:00; Sa 12:00", "note": "ON 12/24 AND 12/31, THIS BOX MAY BE COLLECTED AS EARLY AS 12 NOON.", "nsi_id": "unitedstatespostalservice-a77078", "operator": "United States Postal Service", "operator:short": "USPS", "operator:type": "public", "operator:wikidata": "Q668687", "ref": "8163200000"}, "type": "Feature"}
{"geometry": {"coordinates": [-106.621591, 39.653541], "type": "Point"}, "id": "iIn293FRAaqHQQi-WwxAQ78utTQ=", "properties": {"@source_uri": "https://tools.usps.com/UspsToolsRestServices/rest/POLocator/findLocations", "@spider": "usps_collection_boxes", "addr:city": "EDWARDS", "addr:country": "US", "addr:postcode": "81632", "addr:state": "CO", "addr:street_address": "4923 LAKE CREEK VILLAGE DR", "amenity": "post_box", "collection_times": "Mo-Sa 10:00", "nsi_id": "unitedstatespostalservice-a77078", "operator": "United States Postal Service", "operator:short": "USPS", "operator:type": "public", "operator:wikidata": "Q668687", "ref": "8163200001"}, "type": "Feature"}
{"geometry": {"coordinates": [-106.597416, 39.644581], "type": "Point"}, "id": "fHGV-PYVScFPGvtkgfSbmE_68hA=", "properties": {"@source_uri": "https://tools.usps.com/UspsToolsRestServices/rest/POLocator/findLocations", "@spider": "usps_collection_boxes", "addr:city": "EDWARDS", "addr:country": "US", "addr:postcode": "81632", "addr:state": "CO", "addr:street_address": "105 EDWARDS VILLAGE BLVD", "amenity": "post_box", "collection_times": "Mo-Fr 15:00; Sa 12:00", "indoor": "yes", "note": "ON 12/24 AND 12/31, THIS BOX MAY BE COLLECTED AS EARLY AS 12 NOON.", "nsi_id": "unitedstatespostalservice-a77078", "operator": "United States Postal Service", "operator:short": "USPS", "operator:type": "public", "operator:wikidata": "Q668687", "ref": "8163200002"}, "type": "Feature"}
{"geometry": {"coordinates": [-106.597416, 39.644581], "type": "Point"}, "id": "qsHKCQKkMbfufIHIImAFE5tTHIE=", "properties": {"@source_uri": "https://tools.usps.com/UspsToolsRestServices/rest/POLocator/findLocations", "@spider": "usps_collection_boxes", "addr:city": "EDWARDS", "addr:country": "US", "addr:postcode": "81632", "addr:state": "CO", "addr:street_address": "105 EDWARDS VILLAGE BLVD", "amenity": "post_box", "collection_times": "Mo-Fr 15:00; Sa 12:00", "indoor": "yes", "note": "ON 12/24 AND 12/31, THIS BOX MAY BE COLLECTED AS EARLY AS 12 NOON.", "nsi_id": "unitedstatespostalservice-a77078", "operator": "United States Postal Service", "operator:short": "USPS", "operator:type": "public", "operator:wikidata": "Q668687", "ref": "8163200003"}, "type": "Feature"}
{"geometry": {"coordinates": [-106.597416, 39.644581], "type": "Point"}, "id": "AUMgeLqma2e3-ZJITO2RmAy6NF0=", "properties": {"@source_uri": "https://tools.usps.com/UspsToolsRestServices/rest/POLocator/findLocations", "@spider": "usps_collection_boxes", "addr:city": "EDWARDS", "addr:country": "US", "addr:postcode": "81632", "addr:state": "CO", "addr:street_address": "105 EDWARDS VILLAGE BLVD", "amenity": "post_box", "collection_times": "Mo-Fr 15:00; Sa 12:00", "indoor": "yes", "note": "ON 12/24 AND 12/31, THIS BOX MAY BE COLLECTED AS EARLY AS 12 NOON.", "nsi_id": "unitedstatespostalservice-a77078", "operator": "United States Postal Service", "operator:short": "USPS", "operator:type": "public", "operator:wikidata": "Q668687", "ref": "8163200004"}, "type": "Feature"}
{"geometry": {"coordinates": [-106.597416, 39.644581], "type": "Point"}, "id": "wrk1g5wXIA_ppN7nk-EZhSVNDwU=", "properties": {"@source_uri": "https://tools.usps.com/UspsToolsRestServices/rest/POLocator/findLocations", "@spider": "usps_collection_boxes", "addr:city": "EDWARDS", "addr:country": "US", "addr:postcode": "81632", "addr:state": "CO", "addr:street_address": "105 EDWARDS VILLAGE BLVD", "amenity": "post_box", "collection_times": "Mo-Fr 15:00; Sa 12:00", "indoor": "yes", "note": "ON 12/24 AND 12/31, THIS BOX MAY BE COLLECTED AS EARLY AS 12 NOON.", "nsi_id": "unitedstatespostalservice-a77078", "operator": "United States Postal Service", "operator:short": "USPS", "operator:type": "public", "operator:wikidata": "Q668687", "ref": "8163200005"}, "type": "Feature"}
{"geometry": {"coordinates": [-106.595261, 39.643643], "type": "Point"}, "id": "Jphi8s3Usb2aI8KPwSUcg2CRH8w=", "properties": {"@source_uri": "https://tools.usps.com/UspsToolsRestServices/rest/POLocator/findLocations", "@spider": "usps_collection_boxes", "addr:city": "EDWARDS", "addr:country": "US", "addr:postcode": "81632", "addr:state": "CO", "addr:street_address": "105 EDWARDS VILLAGE BLVD", "amenity": "post_box", "collection_times": "Mo-Fr 15:00; Sa 12:00", "note": "ON 12/24 AND 12/31, THIS BOX MAY BE COLLECTED AS EARLY AS 12 NOON.", "nsi_id": "unitedstatespostalservice-a77078", "operator": "United States Postal Service", "operator:short": "USPS", "operator:type": "public", "operator:wikidata": "Q668687", "ref": "8163200006"}, "type": "Feature"}
{"geometry": {"coordinates": [-106.592777, 39.644391], "type": "Point"}, "id": "ot_fa_cJEP8dsfdndrX05yCZs7o=", "properties": {"@source_uri": "https://tools.usps.com/UspsToolsRestServices/rest/POLocator/findLocations", "@spider": "usps_collection_boxes", "addr:city": "EDWARDS", "addr:country": "US", "addr:postcode": "81632", "addr:state": "CO", "addr:street_address": "27 MAIN ST", "amenity": "post_box", "collection_times": "Mo-Sa 12:00", "nsi_id": "unitedstatespostalservice-a77078", "operator": "United States Postal Service", "operator:short": "USPS", "operator:type": "public", "operator:wikidata": "Q668687", "ref": "8163200007"}, "type": "Feature"}
{"geometry": {"coordinates": [-106.643148, 39.62848], "type": "Point"}, "id": "ZU7JUpqdV9gID6CcW6IO36z-fC0=", "properties": {"@source_uri": "https://tools.usps.com/UspsToolsRestServices/rest/POLocator/findLocations", "@spider": "usps_collection_boxes", "addr:city": "EDWARDS", "addr:country": "US", "addr:postcode": "81632", "addr:state": "CO", "addr:street_address": "360 CARTERVILLE RD", "amenity": "post_box", "collection_times": "Mo-Sa 11:30", "nsi_id": "unitedstatespostalservice-a77078", "operator": "United States Postal Service", "operator:short": "USPS", "operator:type": "public", "operator:wikidata": "Q668687", "ref": "8163200008"}, "type": "Feature"}
{"geometry": {"coordinates": [-108.051147, 39.454383], "type": "Point"}, "id": "Ebmq0CE84nv6Pgop0MVgyty4IRI=", "properties": {"@source_uri": "https://tools.usps.com/UspsToolsRestServices/rest/POLocator/findLocations", "@spider": "usps_collection_boxes", "addr:city": "PARACHUTE", "addr:country": "US", "addr:postcode": "81635", "addr:state": "CO", "addr:street_address": "120 N RAILROAD AVE", "amenity": "post_box", "collection_times": "Mo-Fr 15:30; Sa 11:30", "note": "ON 12/24 AND 12/31, THIS BOX MAY BE COLLECTED AS EARLY AS 12 NOON.", "nsi_id": "unitedstatespostalservice-a77078", "operator": "United States Postal Service", "operator:short": "USPS", "operator:type": "public", "operator:wikidata": "Q668687", "ref": "8163500005"}, "type": "Feature"}
{"geometry": {"coordinates": [-108.02514, 39.443264], "type": "Point"}, "id": "yql2GbR89DSU5OpEbhptyvdiNZM=", "properties": {"@source_uri": "https://tools.usps.com/UspsToolsRestServices/rest/POLocator/findLocations", "@spider": "usps_collection_boxes", "addr:city": "PARACHUTE", "addr:country": "US", "addr:postcode": "81635", "addr:state": "CO", "addr:street_address": "71 SIPPRELLE DR", "amenity": "post_box", "collection_times": "Mo-Fr 12:00; Sa 11:30", "nsi_id": "unitedstatespostalservice-a77078", "operator": "United States Postal Service", "operator:short": "USPS", "operator:type": "public", "operator:wikidata": "Q668687", "ref": "8163500009"}, "type": "Feature"}
{"geometry": {"coordinates": [-108.051103, 39.45443], "type": "Point"}, "id": "f_oWG-yOMzVyn2EX3MMS5Sjjdv8=", "properties": {"@source_uri": "https://tools.usps.com/UspsToolsRestServices/rest/POLocator/findLocations", "@spider": "usps_collection_boxes", "addr:city": "PARACHUTE", "addr:country": "US", "addr:postcode": "81635", "addr:state": "CO", "addr:street_address": "120 N RAILROAD AVE", "amenity": "post_box", "collection_times": "Mo-Fr 15:30; Sa 11:30", "indoor": "yes", "note": "ON 12/24 AND 12/31, THIS BOX MAY BE COLLECTED AS EARLY AS 12 NOON.", "nsi_id": "unitedstatespostalservice-a77078", "operator": "United States Postal Service", "operator:short": "USPS", "operator:type": "public", "operator:wikidata": "Q668687", "ref": "8163500010"}, "type": "Feature"}
{"geometry": {"coordinates": [-108.051112, 39.454438], "type": "Point"}, "id": "0aeLNR1lrW_aqQ-jGL8skJBcDGA=", "properties": {"@source_uri": "https://tools.usps.com/UspsToolsRestServices/rest/POLocator/findLocations", "@spider": "usps_collection_boxes", "addr:city": "PARACHUTE", "addr:country": "US", "addr:postcode": "81635", "addr:state": "CO", "addr:street_address": "120 N RAILROAD AVE", "amenity": "post_box", "collection_times": "Mo-Fr 15:30; Sa 11:30", "indoor": "yes", "note": "ON 12/24 AND 12/31, THIS BOX MAY BE COLLECTED AS EARLY AS 12 NOON.", "nsi_id": "unitedstatespostalservice-a77078", "operator": "United States Postal Service", "operator:short": "USPS", "operator:type": "public", "operator:wikidata": "Q668687", "ref": "8163500011"}, "type": "Feature"}
{"geometry": {"coordinates": [-106.947518, 39.645523], "type": "Point"}, "id": "txyHw-7tT-4fhF2-SlIRsFG71kc=", "properties": {"@source_uri": "https://tools.usps.com/UspsToolsRestServices/rest/POLocator/findLocations", "@spider": "usps_collection_boxes", "addr:city": "GYPSUM", "addr:country": "US", "addr:postcode": "81637", "addr:state": "CO", "addr:street_address": "100 OAKRIDGE CT", "amenity": "post_box", "collection_times": "Mo-Fr 16:00; Sa 12:00", "note": "ON 12/24 AND 12/31, THIS BOX MAY BE COLLECTED AS EARLY AS 12 NOON.", "nsi_id": "unitedstatespostalservice-a77078", "operator": "United States Postal Service", "operator:short": "USPS", "operator:type": "public", "operator:wikidata": "Q668687", "ref": "8163700000"}, "type": "Feature"}
{"geometry": {"coordinates": [-106.947397, 39.64551], "type": "Point"}, "id": "bVgClOfwHpY_OsxE0E7JRRr8Wiw=", "properties": {"@source_uri": "https://tools.usps.com/UspsToolsRestServices/rest/POLocator/findLocations", "@spider": "usps_collection_boxes", "addr:city": "GYPSUM", "addr:country": "US", "addr:postcode": "81637", "addr:state": "CO", "addr:street_address": "100 OAKRIDGE CT", "amenity": "post_box", "collection_times": "Mo-Fr 16:00; Sa 12:00", "indoor": "yes", "note": "ON 12/24 AND 12/31, THIS BOX MAY BE COLLECTED AS EARLY AS 12 NOON.", "nsi_id": "unitedstatespostalservice-a77078", "operator": "United States Postal Service", "operator:short": "USPS", "operator:type": "public", "operator:wikidata": "Q668687", "ref": "8163700001"}, "type": "Feature"}
{"geometry": {"coordinates": [-106.947397, 39.64551], "type": "Point"}, "id": "iVsvQhJcDXaXk4NKbnJG6xZ36RY=", "properties": {"@source_uri": "https://tools.usps.com/UspsToolsRestServices/rest/POLocator/findLocations", "@spider": "usps_collection_boxes", "addr:city": "GYPSUM", "addr:country": "US", "addr:postcode": "81637", "addr:state": "CO", "addr:street_address": "100 OAKRIDGE CT", "amenity": "post_box", "collection_times": "Mo-Fr 16:00; Sa 12:00", "indoor": "yes", "note": "ON 12/24 AND 12/31, THIS BOX MAY BE COLLECTED AS EARLY AS 12 NOON.", "nsi_id": "unitedstatespostalservice-a77078", "operator": "United States Postal Service", "operator:short": "USPS", "operator:type": "public", "operator:wikidata": "Q668687", "ref": "8163700002"}, "type": "Feature"}
{"geometry": {"coordinates": [-107.614904, 40.3724], "type": "Point"}, "id": "W86ytcQcWNkf8HMWHqcI1WvDo7s=", "properties": {"@source_uri": "https://tools.usps.com/UspsToolsRestServices/rest/POLocator/findLocations", "@spider": "usps_collection_boxes", "addr:city": "HAMILTON", "addr:country": "US", "addr:postcode": "81638", "addr:state": "CO", "addr:street_address": "17436 S HIGHWAY 13", "amenity": "post_box", "collection_times": "Mo-Sa 13:30", "indoor": "yes", "note": "ON 12/24 AND 12/31, THIS BOX MAY BE COLLECTED AS EARLY AS 12 NOON.", "nsi_id": "unitedstatespostalservice-a77078", "operator": "United States Postal Service", "operator:short": "USPS", "operator:type": "public", "operator:wikidata": "Q668687", "ref": "8163800000"}, "type": "Feature"}
{"geometry": {"coordinates": [-107.61487, 40.372332], "type": "Point"}, "id": "AnymqMzD_6dpRoRV5NF6qyiL3n4=", "properties": {"@source_uri": "https://tools.usps.com/UspsToolsRestServices/rest/POLocator/findLocations", "@spider": "usps_collection_boxes", "addr:city": "HAMILTON", "addr:country": "US", "addr:postcode": "81638", "addr:state": "CO", "addr:street_address": "17436 S HIGHWAY 13", "amenity": "post_box", "collection_times": "Mo-Sa 13:30", "indoor": "yes", "note": "ON 12/24 AND 12/31, THIS BOX MAY BE COLLECTED AS EARLY AS 12 NOON.", "nsi_id": "unitedstatespostalservice-a77078", "operator": "United States Postal Service", "operator:short": "USPS", "operator:type": "public", "operator:wikidata": "Q668687", "ref": "8163800001"}, "type": "Feature"}
{"geometry": {"coordinates": [-107.266514, 40.493969], "type": "Point"}, "id": "K3cTkZYmM5jDXOwN6XqUDloSM_E=", "properties": {"@source_uri": "https://tools.usps.com/UspsToolsRestServices/rest/POLocator/findLocations", "@spider": "usps_collection_boxes", "addr:city": "HAYDEN", "addr:country": "US", "addr:postcode": "81639", "addr:state": "CO", "addr:street_address": "850 W JEFFERSON AVE", "amenity": "post_box", "collection_times": "Mo-Fr 15:00; Sa 12:30", "indoor": "yes", "note": "ON 12/24 AND 12/31, THIS BOX MAY BE COLLECTED AS EARLY AS 12 NOON.", "nsi_id": "unitedstatespostalservice-a77078", "operator": "United States Postal Service", "operator:short": "USPS", "operator:type": "public", "operator:wikidata": "Q668687", "ref": "8163900001"}, "type": "Feature"}
{"geometry": {"coordinates": [-107.266455, 40.493942], "type": "Point"}, "id": "c-sp-h9FJ-UMcOdvsNjiKLdK8sM=", "properties": {"@source_uri": "https://tools.usps.com/UspsToolsRestServices/rest/POLocator/findLocations", "@spider": "usps_collection_boxes", "addr:city": "HAYDEN", "addr:country": "US", "addr:postcode": "81639", "addr:state": "CO", "addr:street_address": "850 W JEFFERSON AVE", "amenity": "post_box", "collection_times": "Mo-Fr 15:00; Sa 12:30", "indoor": "yes", "note": "ON 12/24 AND 12/31, THIS BOX MAY BE COLLECTED AS EARLY AS 12 NOON.", "nsi_id": "unitedstatespostalservice-a77078", "operator": "United States Postal Service", "operator:short": "USPS", "operator:type": "public", "operator:wikidata": "Q668687", "ref": "8163900002"}, "type": "Feature"}
{"geometry": {"coordinates": [-107.266455, 40.493942], "type": "Point"}, "id": "novjAtNiA_GrDel_Z4EP7l9n7jE=", "properties": {"@source_uri": "https://tools.usps.com/UspsToolsRestServices/rest/POLocator/findLocations", "@spider": "usps_collection_boxes", "addr:city": "HAYDEN", "addr:country": "US", "addr:postcode": "81639", "addr:state": "CO", "addr:street_address": "850 W JEFFERSON AVE", "amenity": "post_box", "collection_times": "Mo-Fr 15:00; Sa 12:30", "note": "ON 12/24 AND 12/31, THIS BOX MAY BE COLLECTED AS EARLY AS 12 NOON.", "nsi_id": "unitedstatespostalservice-a77078", "operator": "United States Postal Service", "operator:short": "USPS", "operator:type": "public", "operator:wikidata": "Q668687", "ref": "8163900006"}, "type": "Feature"}
{"geometry": {"coordinates": [-108.085669, 40.514637], "type": "Point"}, "id": "g22mVb35TWe5yjDwtLHQ9RYgu8A=", "properties": {"@source_uri": "https://tools.usps.com/UspsToolsRestServices/rest/POLocator/findLocations", "@spider": "usps_collection_boxes", "addr:city": "MAYBELL", "addr:country": "US", "addr:postcode": "81640", "addr:state": "CO", "addr:street_address": "200 COLLUM ST", "amenity": "post_box", "collection_times": "Mo-Sa 10:30", "indoor": "yes", "nsi_id": "unitedstatespostalservice-a77078", "operator": "United States Postal Service", "operator:short": "USPS", "operator:type": "public", "operator:wikidata": "Q668687", "ref": "8164000001"}, "type": "Feature"}
{"geometry": {"coordinates": [-107.913898, 40.037963], "type": "Point"}, "id": "jHEOl1xH9GtdjnX9T2CklJgxeyw=", "properties": {"@source_uri": "https://tools.usps.com/UspsToolsRestServices/rest/POLocator/findLocations", "@spider": "usps_collection_boxes", "addr:city": "MEEKER", "addr:country": "US", "addr:postcode": "81641", "addr:state": "CO", "addr:street_address": "365 6TH ST", "amenity": "post_box", "collection_times": "Mo-Fr 16:00; Sa 11:45", "note": "ON 12/24 AND 12/31, THIS BOX MAY BE COLLECTED AS EARLY AS 12 NOON.", "nsi_id": "unitedstatespostalservice-a77078", "operator": "United States Postal Service", "operator:short": "USPS", "operator:type": "public", "operator:wikidata": "Q668687", "ref": "8164100000"}, "type": "Feature"}
{"geometry": {"coordinates": [-107.913872, 40.037996], "type": "Point"}, "id": "3wSAuBDHCFYqsMnEL6eCnzcuebg=", "properties": {"@source_uri": "https://tools.usps.com/UspsToolsRestServices/rest/POLocator/findLocations", "@spider": "usps_collection_boxes", "addr:city": "MEEKER", "addr:country": "US", "addr:postcode": "81641", "addr:state": "CO", "addr:street_address": "365 6TH ST", "amenity": "post_box", "collection_times": "Mo-Fr 16:00; Sa 12:00", "indoor": "yes", "note": "ON 12/24 AND 12/31, THIS BOX MAY BE COLLECTED AS EARLY AS 12 NOON.", "nsi_id": "unitedstatespostalservice-a77078", "operator": "United States Postal Service", "operator:short": "USPS", "operator:type": "public", "operator:wikidata": "Q668687", "ref": "8164100001"}, "type": "Feature"}
{"geometry": {"coordinates": [-107.91446, 40.039945], "type": "Point"}, "id": "PB3Q1PS-r8fpB51QP4CrmjTsQv8=", "properties": {"@source_uri": "https://tools.usps.com/UspsToolsRestServices/rest/POLocator/findLocations", "@spider": "usps_collection_boxes", "addr:city": "MEEKER", "addr:country": "US", "addr:postcode": "81641", "addr:state": "CO", "addr:street_address": "365 6TH ST", "amenity": "post_box", "collection_times": "Mo-Fr 16:00; Sa 12:00", "indoor": "yes", "note": "ON 12/24 AND 12/31, THIS BOX MAY BE COLLECTED AS EARLY AS 12 NOON.", "nsi_id": "unitedstatespostalservice-a77078", "operator": "United States Postal Service", "operator:short": "USPS", "operator:type": "public", "operator:wikidata": "Q668687", "ref": "8164100002"}, "type": "Feature"}
{"geometry": {"coordinates": [-106.729895, 39.362048], "type": "Point"}, "id": "Fq51_uldxuHfn_vmxLYnw1U_itI=", "properties": {"@source_uri": "https://tools.usps.com/UspsToolsRestServices/rest/POLocator/findLocations", "@spider": "usps_collection_boxes", "addr:city": "MEREDITH", "addr:country": "US", "addr:postcode": "81642", "addr:state": "CO", "addr:street_address": "22971 FRYING PAN RD", "amenity": "post_box", "collection_times": "Mo-Sa 11:30", "nsi_id": "unitedstatespostalservice-a77078", "operator": "United States Postal Service", "operator:short": "USPS", "operator:type": "public", "operator:wikidata": "Q668687", "ref": "8164200000"}, "type": "Feature"}
{"geometry": {"coordinates": [-106.729895, 39.362048], "type": "Point"}, "id": "O4-ovYGQozb0e7l3GxzsGGMTAXQ=", "properties": {"@source_uri": "https://tools.usps.com/UspsToolsRestServices/rest/POLocator/findLocations", "@spider": "usps_collection_boxes", "addr:city": "MEREDITH", "addr:country": "US", "addr:postcode": "81642", "addr:state": "CO", "addr:street_address": "22971 FRYING PAN RD", "amenity": "post_box", "collection_times": "Mo-Sa 11:30", "indoor": "yes", "nsi_id": "unitedstatespostalservice-a77078", "operator": "United States Postal Service", "operator:short": "USPS", "operator:type": "public", "operator:wikidata": "Q668687", "ref": "8164200001"}, "type": "Feature"}
{"geometry": {"coordinates": [-108.138577, 39.16629], "type": "Point"}, "id": "epG-aA2Whox_uz5ddSzKgH_shSM=", "properties": {"@source_uri": "https://tools.usps.com/UspsToolsRestServices/rest/POLocator/findLocations", "@spider": "usps_collection_boxes", "addr:city": "MESA", "addr:country": "US", "addr:postcode": "81643", "addr:state": "CO", "addr:street_address": "49012 KE RD", "amenity": "post_box", "collection_times": "Mo-Fr 16:30; Sa 11:30", "indoor": "yes", "note": "ON 12/24 AND 12/31, THIS BOX MAY BE COLLECTED AS EARLY AS 12 NOON.", "nsi_id": "unitedstatespostalservice-a77078", "operator": "United States Postal Service", "operator:short": "USPS", "operator:type": "public", "operator:wikidata": "Q668687", "ref": "8164300000"}, "type": "Feature"}
{"geometry": {"coordinates": [-106.430402, 39.586322], "type": "Point"}, "id": "faiI_DDg9x0Puw97Y0ivWl68RM4=", "properties": {"@source_uri": "https://tools.usps.com/UspsToolsRestServices/rest/POLocator/findLocations", "@spider": "usps_collection_boxes", "addr:city": "MINTURN", "addr:country": "US", "addr:postcode": "81645", "addr:state": "CO", "addr:street_address": "301 BOULDER ST", "amenity": "post_box", "collection_times": "Mo-Fr 15:00; Sa 11:00", "indoor": "yes", "note": "ON 12/24 AND 12/31, THIS BOX MAY BE COLLECTED AS EARLY AS 12 NOON.", "nsi_id": "unitedstatespostalservice-a77078", "operator": "United States Postal Service", "operator:short": "USPS", "operator:type": "public", "operator:wikidata": "Q668687", "ref": "8164500000"}, "type": "Feature"}
{"geometry": {"coordinates": [-106.430428, 39.586413], "type": "Point"}, "id": "GbcO752O1v9dbdiAah6uFqadi9M=", "properties": {"@source_uri": "https://tools.usps.com/UspsToolsRestServices/rest/POLocator/findLocations", "@spider": "usps_collection_boxes", "addr:city": "MINTURN", "addr:country": "US", "addr:postcode": "81645", "addr:state": "CO", "addr:street_address": "301 BOULDER ST", "amenity": "post_box", "collection_times": "Mo-Fr 15:00; Sa 11:00", "indoor": "yes", "note": "ON 12/24 AND 12/31, THIS BOX MAY BE COLLECTED AS EARLY AS 12 NOON.", "nsi_id": "unitedstatespostalservice-a77078", "operator": "United States Postal Service", "operator:short": "USPS", "operator:type": "public", "operator:wikidata": "Q668687", "ref": "8164500001"}, "type": "Feature"}
{"geometry": {"coordinates": [-106.430428, 39.586413], "type": "Point"}, "id": "wZJqAsbisRfC9g1OeCdu7H9oPvA=", "properties": {"@source_uri": "https://tools.usps.com/UspsToolsRestServices/rest/POLocator/findLocations", "@spider": "usps_collection_boxes", "addr:city": "MINTURN", "addr:country": "US", "addr:postcode": "81645", "addr:state": "CO", "addr:street_address": "301 BOULDER ST", "amenity": "post_box", "collection_times": "Mo-Fr 15:00; Sa 11:00", "indoor": "yes", "note": "ON 12/24 AND 12/31, THIS BOX MAY BE COLLECTED AS EARLY AS 12 NOON.", "nsi_id": "unitedstatespostalservice-a77078", "operator": "United States Postal Service", "operator:short": "USPS", "operator:type": "public", "operator:wikidata": "Q668687", "ref": "8164500002"}, "type": "Feature"}
{"geometry": {"coordinates": [-108.063253, 39.187613], "type": "Point"}, "id": "uDfObJgkAfsSivhLiNxKUFDwUiU=", "properties": {"@source_uri": "https://tools.usps.com/UspsToolsRestServices/rest/POLocator/findLocations", "@spider": "usps_collection_boxes", "addr:city": "MOLINA", "addr:country": "US", "addr:postcode": "81646", "addr:state": "CO", "addr:street_address": "53169 KE RD", "amenity": "post_box", "collection_times": "Mo-Fr 12:00; Sa 11:30", "nsi_id": "unitedstatespostalservice-a77078", "operator": "United States Postal Service", "operator:short": "USPS", "operator:type": "public", "operator:wikidata": "Q668687", "ref": "8164600000"}, "type": "Feature"}
{"geometry": {"coordinates": [-108.063286, 39.187629], "type": "Point"}, "id": "MzHfzKaLFmDr0RvoLI9UA-AKGEU=", "properties": {"@source_uri": "https://tools.usps.com/UspsToolsRestServices/rest/POLocator/findLocations", "@spider": "usps_collection_boxes", "addr:city": "MOLINA", "addr:country": "US", "addr:postcode": "81646", "addr:state": "CO", "addr:street_address": "53169 KE RD", "amenity": "post_box", "collection_times": "Mo-Fr 12:00; Sa 11:50", "indoor": "yes", "nsi_id": "unitedstatespostalservice-a77078", "operator": "United States Postal Service", "operator:short": "USPS", "operator:type": "public", "operator:wikidata": "Q668687", "ref": "8164600001"}, "type": "Feature"}
{"geometry": {"coordinates": [-107.531479, 39.571492], "type": "Point"}, "id": "GFFKDlY0iyNqxgvsc9IjVoqbKgs=", "properties": {"@source_uri": "https://tools.usps.com/UspsToolsRestServices/rest/POLocator/findLocations", "@spider": "usps_collection_boxes", "addr:city": "NEW CASTLE", "addr:country": "US", "addr:postcode": "81647", "addr:state": "CO", "addr:street_address": "112 W MAIN ST", "amenity": "post_box", "collection_times": "Mo-Fr 16:30; Sa 11:30", "indoor": "yes", "note": "ON 12/24 AND 12/31, THIS BOX MAY BE COLLECTED AS EARLY AS 12 NOON.", "nsi_id": "unitedstatespostalservice-a77078", "operator": "United States Postal Service", "operator:short": "USPS", "operator:type": "public", "operator:wikidata": "Q668687", "ref": "8164700001"}, "type": "Feature"}
{"geometry": {"coordinates": [-107.514115, 39.568483], "type": "Point"}, "id": "ymrBpuWT-RW9kANjbBNWJmJfM-8=", "properties": {"@source_uri": "https://tools.usps.com/UspsToolsRestServices/rest/POLocator/findLocations", "@spider": "usps_collection_boxes", "addr:city": "NEW CASTLE", "addr:country": "US", "addr:postcode": "81647", "addr:state": "CO", "addr:street_address": "850 CASTLE VALLEY BLVD", "amenity": "post_box", "collection_times": "Mo-Sa 12:10", "note": "ON 12/24 AND 12/31, THIS BOX MAY BE COLLECTED AS EARLY AS 12 NOON.", "nsi_id": "unitedstatespostalservice-a77078", "operator": "United States Postal Service", "operator:short": "USPS", "operator:type": "public", "operator:wikidata": "Q668687", "ref": "8164700002"}, "type": "Feature"}
{"geometry": {"coordinates": [-107.517091, 39.567918], "type": "Point"}, "id": "BRQsGngBv2s1MkHRVpSijIING3A=", "properties": {"@source_uri": "https://tools.usps.com/UspsToolsRestServices/rest/POLocator/findLocations", "@spider": "usps_collection_boxes", "addr:city": "NEW CASTLE", "addr:country": "US", "addr:postcode": "81647", "addr:state": "CO", "addr:street_address": "791 BURNING MOUNTAIN AVE", "amenity": "post_box", "collection_times": "Mo-Sa 10:30", "nsi_id": "unitedstatespostalservice-a77078", "operator": "United States Postal Service", "operator:short": "USPS", "operator:type": "public", "operator:wikidata": "Q668687", "ref": "8164700003"}, "type": "Feature"}
{"geometry": {"coordinates": [-107.545681, 39.562598], "type": "Point"}, "id": "RL3rQJu4vySTLK5ql3CoW0NTT-8=", "properties": {"@source_uri": "https://tools.usps.com/UspsToolsRestServices/rest/POLocator/findLocations", "@spider": "usps_collection_boxes", "addr:city": "NEW CASTLE", "addr:country": "US", "addr:postcode": "81647", "addr:state": "CO", "addr:street_address": "5033 CO RD 335", "amenity": "post_box", "collection_times": "Mo-Sa 12:00", "nsi_id": "unitedstatespostalservice-a77078", "operator": "United States Postal Service", "operator:short": "USPS", "operator:type": "public", "operator:wikidata": "Q668687", "ref": "8164700004"}, "type": "Feature"}
{"geometry": {"coordinates": [-108.799205, 40.087421], "type": "Point"}, "id": "TFNI97yRK8WU5gHnMX8CkMpSNVU=", "properties": {"@source_uri": "https://tools.usps.com/UspsToolsRestServices/rest/POLocator/findLocations", "@spider": "usps_collection_boxes", "addr:city": "RANGELY", "addr:country": "US", "addr:postcode": "81648", "addr:state": "CO", "addr:street_address": "104 S BIRCH AVE", "amenity": "post_box", "collection_times": "Mo-Fr 15:00; Sa 11:45", "note": "ON 12/24 AND 12/31, THIS BOX MAY BE COLLECTED AS EARLY AS 12 NOON.", "nsi_id": "unitedstatespostalservice-a77078", "operator": "United States Postal Service", "operator:short": "USPS", "operator:type": "public", "operator:wikidata": "Q668687", "ref": "8164800000"}, "type": "Feature"}
{"geometry": {"coordinates": [-108.799238, 40.087506], "type": "Point"}, "id": "dSMOr0x1dQ2dNgSSuvYd8aszhow=", "properties": {"@source_uri": "https://tools.usps.com/UspsToolsRestServices/rest/POLocator/findLocations", "@spider": "usps_collection_boxes", "addr:city": "RANGELY", "addr:country": "US", "addr:postcode": "81648", "addr:state": "CO", "addr:street_address": "104 S BIRCH AVE", "amenity": "post_box", "collection_times": "Mo-Fr 15:00; Sa 11:45", "indoor": "yes", "note": "ON 12/24 AND 12/31, THIS BOX MAY BE COLLECTED AS EARLY AS 12 NOON.", "nsi_id": "unitedstatespostalservice-a77078", "operator": "United States Postal Service", "operator:short": "USPS", "operator:type": "public", "operator:wikidata": "Q668687", "ref": "8164800001"}, "type": "Feature"}
{"geometry": {"coordinates": [-108.799238, 40.087506], "type": "Point"}, "id": "pX3SVOSTqdfTLOpS_yr3Gp0OqFI=", "properties": {"@source_uri": "https://tools.usps.com/UspsToolsRestServices/rest/POLocator/findLocations", "@spider": "usps_collection_boxes", "addr:city": "RANGELY", "addr:country": "US", "addr:postcode": "81648", "addr:state": "CO", "addr:street_address": "104 S BIRCH AVE", "amenity": "post_box", "collection_times": "Mo-Fr 15:00; Sa 11:45", "indoor": "yes", "note": "ON 12/24 AND 12/31, THIS BOX MAY BE COLLECTED AS EARLY AS 12 NOON.", "nsi_id": "unitedstatespostalservice-a77078", "operator": "United States Postal Service", "operator:short": "USPS", "operator:type": "public", "operator:wikidata": "Q668687", "ref": "8164800002"}, "type": "Feature"}
{"geometry": {"coordinates": [-106.368079, 39.513019], "type": "Point"}, "id": "QjqzQbIaKeFeiUMmmwFywh8RB2s=", "properties": {"@source_uri": "https://tools.usps.com/UspsToolsRestServices/rest/POLocator/findLocations", "@spider": "usps_collection_boxes", "addr:city": "REDCLIFF", "addr:country": "US", "addr:postcode": "81649", "addr:state": "CO", "addr:street_address": "102 WATER ST", "amenity": "post_box", "collection_times": "Mo-Fr 15:00; Sa 11:30", "indoor": "yes", "note": "ON 12/24 AND 12/31, THIS BOX MAY BE COLLECTED AS EARLY AS 12 NOON.", "nsi_id": "unitedstatespostalservice-a77078", "operator": "United States Postal Service", "operator:short": "USPS", "operator:type": "public", "operator:wikidata": "Q668687", "ref": "8164900001"}, "type": "Feature"}
{"geometry": {"coordinates": [-106.367965, 39.51299], "type": "Point"}, "id": "-ug62uI96mZANP0OaB0MNGV12ls=", "properties": {"@source_uri": "https://tools.usps.com/UspsToolsRestServices/rest/POLocator/findLocations", "@spider": "usps_collection_boxes", "addr:city": "REDCLIFF", "addr:country": "US", "addr:postcode": "81649", "addr:state": "CO", "addr:street_address": "102 WATER ST", "amenity": "post_box", "collection_times": "Mo-Fr 15:00; Sa 11:30", "note": "ON 12/24 AND 12/31, THIS BOX MAY BE COLLECTED AS EARLY AS 12 NOON.", "nsi_id": "unitedstatespostalservice-a77078", "operator": "United States Postal Service", "operator:short": "USPS", "operator:type": "public", "operator:wikidata": "Q668687", "ref": "8164900002"}, "type": "Feature"}
{"geometry": {"coordinates": [-107.77519, 39.533439], "type": "Point"}, "id": "LumAwRdWb8nInv49rBYxFebl1SU=", "properties": {"@source_uri": "https://tools.usps.com/UspsToolsRestServices/rest/POLocator/findLocations", "@spider": "usps_collection_boxes", "addr:city": "RIFLE", "addr:country": "US", "addr:postcode": "81650", "addr:state": "CO", "addr:street_address": "525 ASPEN AVE", "amenity": "post_box", "collection_times": "Mo-Sa 11:00", "nsi_id": "unitedstatespostalservice-a77078", "operator": "United States Postal Service", "operator:short": "USPS", "operator:type": "public", "operator:wikidata": "Q668687", "ref": "8165000000"}, "type": "Feature"}
{"geometry": {"coordinates": [-107.775643, 39.530946], "type": "Point"}, "id": "OgfpWXGq-JF7BmEBhzOKaxx0AXI=", "properties": {"@source_uri": "https://tools.usps.com/UspsToolsRestServices/rest/POLocator/findLocations", "@spider": "usps_collection_boxes", "addr:city": "RIFLE", "addr:country": "US", "addr:postcode": "81650", "addr:state": "CO", "addr:street_address": "250 UTE AVE", "amenity": "post_box", "collection_times": "Mo-Sa 11:00", "nsi_id": "unitedstatespostalservice-a77078", "operator": "United States Postal Service", "operator:short": "USPS", "operator:type": "public", "operator:wikidata": "Q668687", "ref": "8165000001"}, "type": "Feature"}
{"geometry": {"coordinates": [-107.782972, 39.542298], "type": "Point"}, "id": "jhePTtv9Nm5oWgBQVJwGj3YE66c=", "properties": {"@source_uri": "https://tools.usps.com/UspsToolsRestServices/rest/POLocator/findLocations", "@spider": "usps_collection_boxes", "addr:city": "RIFLE", "addr:country": "US", "addr:postcode": "81650", "addr:state": "CO", "addr:street_address": "1320 RAILROAD AVE", "amenity": "post_box", "collection_times": "Mo-Sa 10:00", "nsi_id": "unitedstatespostalservice-a77078", "operator": "United States Postal Service", "operator:short": "USPS", "operator:type": "public", "operator:wikidata": "Q668687", "ref": "8165000005"}, "type": "Feature"}
{"geometry": {"coordinates": [-107.752192, 39.537464], "type": "Point"}, "id": "DQ_L0AEID-oaVxPRshMVJSNZO8A=", "properties": {"@source_uri": "https://tools.usps.com/UspsToolsRestServices/rest/POLocator/findLocations", "@spider": "usps_collection_boxes", "addr:city": "RIFLE", "addr:country": "US", "addr:postcode": "81650", "addr:state": "CO", "addr:street_address": "27653 HIGHWAY 6", "amenity": "post_box", "collection_times": "Mo-Sa 09:00", "nsi_id": "unitedstatespostalservice-a77078", "operator": "United States Postal Service", "operator:short": "USPS", "operator:type": "public", "operator:wikidata": "Q668687", "ref": "8165000007"}, "type": "Feature"}
{"geometry": {"coordinates": [-107.785411, 39.548988], "type": "Point"}, "id": "5QOiPDSo1FcBPoZbU49NexZ-v64=", "properties": {"@source_uri": "https://tools.usps.com/UspsToolsRestServices/rest/POLocator/findLocations", "@spider": "usps_collection_boxes", "addr:city": "RIFLE", "addr:country": "US", "addr:postcode": "81650", "addr:state": "CO", "addr:street_address": "200 W 20TH ST", "amenity": "post_box", "collection_times": "Mo-Sa 12:00", "nsi_id": "unitedstatespostalservice-a77078", "operator": "United States Postal Service", "operator:short": "USPS", "operator:type": "public", "operator:wikidata": "Q668687", "ref": "8165000009"}, "type": "Feature"}
{"geometry": {"coordinates": [-107.783279, 39.531869], "type": "Point"}, "id": "X3aa_ss_DlRh0b9a4cRcZ90LYQQ=", "properties": {"@source_uri": "https://tools.usps.com/UspsToolsRestServices/rest/POLocator/findLocations", "@spider": "usps_collection_boxes", "addr:city": "RIFLE", "addr:country": "US", "addr:postcode": "81650", "addr:state": "CO", "addr:street_address": "330 RAILROAD AVE", "amenity": "post_box", "collection_times": "Mo-Fr 17:00; Sa 15:30", "note": "ON 12/24 AND 12/31, THIS BOX MAY BE COLLECTED AS EARLY AS 12 NOON.", "nsi_id": "unitedstatespostalservice-a77078", "operator": "United States Postal Service", "operator:short": "USPS", "operator:type": "public", "operator:wikidata": "Q668687", "ref": "8165000010"}, "type": "Feature"}
{"geometry": {"coordinates": [-107.783279, 39.531869], "type": "Point"}, "id": "xUAfeANgC0lY-p-jjSLcYWxns3M=", "properties": {"@source_uri": "https://tools.usps.com/UspsToolsRestServices/rest/POLocator/findLocations", "@spider": "usps_collection_boxes", "addr:city": "RIFLE", "addr:country": "US", "addr:postcode": "81650", "addr:state": "CO", "addr:street_address": "330 RAILROAD AVE", "amenity": "post_box", "collection_times": "Mo-Fr 17:00; Sa 15:30", "indoor": "yes", "note": "ON 12/24 AND 12/31, THIS BOX MAY BE COLLECTED AS EARLY AS 12 NOON.", "nsi_id": "unitedstatespostalservice-a77078", "operator": "United States Postal Service", "operator:short": "USPS", "operator:type": "public", "operator:wikidata": "Q668687", "ref": "8165000012"}, "type": "Feature"}
{"geometry": {"coordinates": [-107.767463, 39.524283], "type": "Point"}, "id": "FZE90HOvhTX3_iZM_x425QLTPjU=", "properties": {"@source_uri": "https://tools.usps.com/UspsToolsRestServices/rest/POLocator/findLocations", "@spider": "usps_collection_boxes", "addr:city": "RIFLE", "addr:country": "US", "addr:postcode": "81650", "addr:state": "CO", "addr:street_address": "1000 AIRPORT RD", "amenity": "post_box", "collection_times": "Mo-Sa 10:00", "nsi_id": "unitedstatespostalservice-a77078", "operator": "United States Postal Service", "operator:short": "USPS", "operator:type": "public", "operator:wikidata": "Q668687", "ref": "8165000016"}, "type": "Feature"}
{"geometry": {"coordinates": [-107.784251, 39.541709], "type": "Point"}, "id": "XSocI8Y9qVMKRFPit1Nvrrqb-xQ=", "properties": {"@source_uri": "https://tools.usps.com/UspsToolsRestServices/rest/POLocator/findLocations", "@spider": "usps_collection_boxes", "addr:city": "RIFLE", "addr:country": "US", "addr:postcode": "81650", "addr:state": "CO", "addr:street_address": "195 W 14TH", "amenity": "post_box", "collection_times": "Mo-Sa 11:00", "nsi_id": "unitedstatespostalservice-a77078", "operator": "United States Postal Service", "operator:short": "USPS", "operator:type": "public", "operator:wikidata": "Q668687", "ref": "8165000017"}, "type": "Feature"}
{"geometry": {"coordinates": [-107.717334, 39.517145], "type": "Point"}, "id": "-ZjmmgB76RORSdy8tDwbW-Wh0Fs=", "properties": {"@source_uri": "https://tools.usps.com/UspsToolsRestServices/rest/POLocator/findLocations", "@spider": "usps_collection_boxes", "addr:city": "RIFLE", "addr:country": "US", "addr:postcode": "81650", "addr:state": "CO", "addr:street_address": "298 COUNTY ROAD 333A", "amenity": "post_box", "collection_times": "Mo-Sa 10:00", "nsi_id": "unitedstatespostalservice-a77078", "operator": "United States Postal Service", "operator:short": "USPS", "operator:type": "public", "operator:wikidata": "Q668687", "ref": "8165000018"}, "type": "Feature"}
{"geometry": {"coordinates": [-107.783279, 39.531869], "type": "Point"}, "id": "zv4X6CMTta1UW-8ksBB0DwJnrfY=", "properties": {"@source_uri": "https://tools.usps.com/UspsToolsRestServices/rest/POLocator/findLocations", "@spider": "usps_collection_boxes", "addr:city": "RIFLE", "addr:country": "US", "addr:postcode": "81650", "addr:state": "CO", "addr:street_address": "330 RAILROAD AVE", "amenity": "post_box", "collection_times": "Mo-Fr 17:00; Sa 15:30", "indoor": "yes", "note": "ON 12/24 AND 12/31, THIS BOX MAY BE COLLECTED AS EARLY AS 12 NOON.", "nsi_id": "unitedstatespostalservice-a77078", "operator": "United States Postal Service", "operator:short": "USPS", "operator:type": "public", "operator:wikidata": "Q668687", "ref": "8165000019"}, "type": "Feature"}
{"geometry": {"coordinates": [-107.641887, 39.54626], "type": "Point"}, "id": "1UEkNONQCH7XofFFkNPk_0NOaKQ=", "properties": {"@source_uri": "https://tools.usps.com/UspsToolsRestServices/rest/POLocator/findLocations", "@spider": "usps_collection_boxes", "addr:city": "SILT", "addr:country": "US", "addr:postcode": "81652", "addr:state": "CO", "addr:street_address": "116 LYON BLVD", "amenity": "post_box", "collection_times": "Mo-Fr 16:30; Sa 12:00", "note": "ON 12/24 AND 12/31, THIS BOX MAY BE COLLECTED AS EARLY AS 12 NOON.", "nsi_id": "unitedstatespostalservice-a77078", "operator": "United States Postal Service", "operator:short": "USPS", "operator:type": "public", "operator:wikidata": "Q668687", "ref": "8165200004"}, "type": "Feature"}
{"geometry": {"coordinates": [-107.64192, 39.546342], "type": "Point"}, "id": "wJvcVCDsk2wgk8bUgmUWKqr0nPw=", "properties": {"@source_uri": "https://tools.usps.com/UspsToolsRestServices/rest/POLocator/findLocations", "@spider": "usps_collection_boxes", "addr:city": "SILT", "addr:country": "US", "addr:postcode": "81652", "addr:state": "CO", "addr:street_address": "116 LYON BLVD", "amenity": "post_box", "collection_times": "Mo-Fr 16:30; Sa 12:00", "indoor": "yes", "note": "ON 12/24 AND 12/31, THIS BOX MAY BE COLLECTED AS EARLY AS 12 NOON.", "nsi_id": "unitedstatespostalservice-a77078", "operator": "United States Postal Service", "operator:short": "USPS", "operator:type": "public", "operator:wikidata": "Q668687", "ref": "8165200006"}, "type": "Feature"}
{"geometry": {"coordinates": [-107.64192, 39.546342], "type": "Point"}, "id": "iIpJ3ln3i3HI95sgPzu0eaLMsOU=", "properties": {"@source_uri": "https://tools.usps.com/UspsToolsRestServices/rest/POLocator/findLocations", "@spider": "usps_collection_boxes", "addr:city": "SILT", "addr:country": "US", "addr:postcode": "81652", "addr:state": "CO", "addr:street_address": "116 LYON BLVD", "amenity": "post_box", "collection_times": "Mo-Fr 16:30; Sa 12:00", "indoor": "yes", "note": "ON 12/24 AND 12/31, THIS BOX MAY BE COLLECTED AS EARLY AS 12 NOON.", "nsi_id": "unitedstatespostalservice-a77078", "operator": "United States Postal Service", "operator:short": "USPS", "operator:type": "public", "operator:wikidata": "Q668687", "ref": "8165200007"}, "type": "Feature"}
{"geometry": {"coordinates": [-107.64192, 39.546342], "type": "Point"}, "id": "aA3cZ6JmG61cmZkMv82V_YbyuR0=", "properties": {"@source_uri": "https://tools.usps.com/UspsToolsRestServices/rest/POLocator/findLocations", "@spider": "usps_collection_boxes", "addr:city": "SILT", "addr:country": "US", "addr:postcode": "81652", "addr:state": "CO", "addr:street_address": "116 LYON BLVD", "amenity": "post_box", "collection_times": "Mo-Fr 16:30; Sa 12:00", "indoor": "yes", "note": "ON 12/24 AND 12/31, THIS BOX MAY BE COLLECTED AS EARLY AS 12 NOON.", "nsi_id": "unitedstatespostalservice-a77078", "operator": "United States Postal Service", "operator:short": "USPS", "operator:type": "public", "operator:wikidata": "Q668687", "ref": "8165200009"}, "type": "Feature"}
{"geometry": {"coordinates": [-107.352382, 40.999567], "type": "Point"}, "id": "7ZYU4ripMxVn_-STgjUs2C-aSAY=", "properties": {"@source_uri": "https://tools.usps.com/UspsToolsRestServices/rest/POLocator/findLocations", "@spider": "usps_collection_boxes", "addr:city": "SLATER", "addr:country": "US", "addr:postcode": "81653", "addr:state": "CO", "addr:street_address": "681 COUNTY ROAD 129", "amenity": "post_box", "collection_times": "Mo-Fr 11:00; Sa 09:50", "nsi_id": "unitedstatespostalservice-a77078", "operator": "United States Postal Service", "operator:short": "USPS", "operator:type": "public", "operator:wikidata": "Q668687", "ref": "8165300000"}, "type": "Feature"}
{"geometry": {"coordinates": [-107.352374, 40.999539], "type": "Point"}, "id": "XnY-Kz3BvKi11-0dg6LlVhldOjA=", "properties": {"@source_uri": "https://tools.usps.com/UspsToolsRestServices/rest/POLocator/findLocations", "@spider": "usps_collection_boxes", "addr:city": "SLATER", "addr:country": "US", "addr:postcode": "81653", "addr:state": "CO", "addr:street_address": "681 COUNTY ROAD 129", "amenity": "post_box", "collection_times": "Mo-Fr 11:00; Sa 09:50", "indoor": "yes", "nsi_id": "unitedstatespostalservice-a77078", "operator": "United States Postal Service", "operator:short": "USPS", "operator:type": "public", "operator:wikidata": "Q668687", "ref": "8165300001"}, "type": "Feature"}
{"geometry": {"coordinates": [-106.983168, 39.330533], "type": "Point"}, "id": "m95b2byvPv_EvD-oSSDCScGGlog=", "properties": {"@source_uri": "https://tools.usps.com/UspsToolsRestServices/rest/POLocator/findLocations", "@spider": "usps_collection_boxes", "addr:city": "SNOWMASS", "addr:country": "US", "addr:postcode": "81654", "addr:state": "CO", "addr:street_address": "26900 HIGHWAY 82", "amenity": "post_box", "collection_times": "Mo-Fr 15:00; Sa 11:30", "indoor": "yes", "note": "ON 12/24 AND 12/31, THIS BOX MAY BE COLLECTED AS EARLY AS 12 NOON.", "nsi_id": "unitedstatespostalservice-a77078", "operator": "United States Postal Service", "operator:short": "USPS", "operator:type": "public", "operator:wikidata": "Q668687", "ref": "8165400000"}, "type": "Feature"}
{"geometry": {"coordinates": [-106.983168, 39.330533], "type": "Point"}, "id": "RzKeMMxHJOq867pPW__RLpQ73zs=", "properties": {"@source_uri": "https://tools.usps.com/UspsToolsRestServices/rest/POLocator/findLocations", "@spider": "usps_collection_boxes", "addr:city": "SNOWMASS", "addr:country": "US", "addr:postcode": "81654", "addr:state": "CO", "addr:street_address": "26900 HIGHWAY 82", "amenity": "post_box", "collection_times": "Mo-Fr 15:00; Sa 11:30", "note": "ON 12/24 AND 12/31, THIS BOX MAY BE COLLECTED AS EARLY AS 12 NOON.", "nsi_id": "unitedstatespostalservice-a77078", "operator": "United States Postal Service", "operator:short": "USPS", "operator:type": "public", "operator:wikidata": "Q668687", "ref": "8165400001"}, "type": "Feature"}
{"geometry": {"coordinates": [-106.983168, 39.330533], "type": "Point"}, "id": "kwlg-Npr862Q-t96ZbY-9iGSj9k=", "properties": {"@source_uri": "https://tools.usps.com/UspsToolsRestServices/rest/POLocator/findLocations", "@spider": "usps_collection_boxes", "addr:city": "SNOWMASS", "addr:country": "US", "addr:postcode": "81654", "addr:state": "CO", "addr:street_address": "26900 HIGHWAY 82", "amenity": "post_box", "collection_times": "Mo-Fr 15:00; Sa 11:30", "indoor": "yes", "note": "ON 12/24 AND 12/31, THIS BOX MAY BE COLLECTED AS EARLY AS 12 NOON.", "nsi_id": "unitedstatespostalservice-a77078", "operator": "United States Postal Service", "operator:short": "USPS", "operator:type": "public", "operator:wikidata": "Q668687", "ref": "8165400002"}, "type": "Feature"}
{"geometry": {"coordinates": [-106.669266, 39.700512], "type": "Point"}, "id": "2hmqoHG9RvH4J4g--imNjm6WbNc=", "properties": {"@source_uri": "https://tools.usps.com/UspsToolsRestServices/rest/POLocator/findLocations", "@spider": "usps_collection_boxes", "addr:city": "WOLCOTT", "addr:country": "US", "addr:postcode": "81655", "addr:state": "CO", "addr:street_address": "28000 HIGHWAY 6", "amenity": "post_box", "collection_times": "Mo-Fr 15:00; Sa 10:00", "note": "ON 12/24 AND 12/31, THIS BOX MAY BE COLLECTED AS EARLY AS 12 NOON.", "nsi_id": "unitedstatespostalservice-a77078", "operator": "United States Postal Service", "operator:short": "USPS", "operator:type": "public", "operator:wikidata": "Q668687", "ref": "8165500000"}, "type": "Feature"}
{"geometry": {"coordinates": [-106.669377, 39.700551], "type": "Point"}, "id": "j81-_ZesrfUBj0du59LuKaeFULY=", "properties": {"@source_uri": "https://tools.usps.com/UspsToolsRestServices/rest/POLocator/findLocations", "@spider": "usps_collection_boxes", "addr:city": "WOLCOTT", "addr:country": "US", "addr:postcode": "81655", "addr:state": "CO", "addr:street_address": "28000 HIGHWAY 6", "amenity": "post_box", "collection_times": "Mo-Fr 15:00; Sa 10:00", "indoor": "yes", "note": "ON 12/24 AND 12/31, THIS BOX MAY BE COLLECTED AS EARLY AS 12 NOON.", "nsi_id": "unitedstatespostalservice-a77078", "operator": "United States Postal Service", "operator:short": "USPS", "operator:type": "public", "operator:wikidata": "Q668687", "ref": "8165500001"}, "type": "Feature"}
{"geometry": {"coordinates": [-106.669377, 39.700551], "type": "Point"}, "id": "wfjN1MkM0bYoD6Su1JIzbnscRZU=", "properties": {"@source_uri": "https://tools.usps.com/UspsToolsRestServices/rest/POLocator/findLocations", "@spider": "usps_collection_boxes", "addr:city": "WOLCOTT", "addr:country": "US", "addr:postcode": "81655", "addr:state": "CO", "addr:street_address": "28000 HIGHWAY 6", "amenity": "post_box", "collection_times": "Mo-Fr 15:00; Sa 10:00", "indoor": "yes", "note": "ON 12/24 AND 12/31, THIS BOX MAY BE COLLECTED AS EARLY AS 12 NOON.", "nsi_id": "unitedstatespostalservice-a77078", "operator": "United States Postal Service", "operator:short": "USPS", "operator:type": "public", "operator:wikidata": "Q668687", "ref": "8165500002"}, "type": "Feature"}
{"geometry": {"coordinates": [-106.669377, 39.700551], "type": "Point"}, "id": "wf5aSjFEyo2KtwUgIyIJlCGv1Cg=", "properties": {"@source_uri": "https://tools.usps.com/UspsToolsRestServices/rest/POLocator/findLocations", "@spider": "usps_collection_boxes", "addr:city": "WOLCOTT", "addr:country": "US", "addr:postcode": "81655", "addr:state": "CO", "addr:street_address": "28000 HIGHWAY 6", "amenity": "post_box", "collection_times": "Mo-Fr 15:00; Sa 10:00", "indoor": "yes", "note": "ON 12/24 AND 12/31, THIS BOX MAY BE COLLECTED AS EARLY AS 12 NOON.", "nsi_id": "unitedstatespostalservice-a77078", "operator": "United States Postal Service", "operator:short": "USPS", "operator:type": "public", "operator:wikidata": "Q668687", "ref": "8165500003"}, "type": "Feature"}
{"geometry": {"coordinates": [-106.886607, 39.273212], "type": "Point"}, "id": "oOx81Dkp2lfWjh7Jdi-GCsjzNbI=", "properties": {"@source_uri": "https://tools.usps.com/UspsToolsRestServices/rest/POLocator/findLocations", "@spider": "usps_collection_boxes", "addr:city": "WOODY CREEK", "addr:country": "US", "addr:postcode": "81656", "addr:state": "CO", "addr:street_address": "7909 UPPER RIVER RD", "amenity": "post_box", "collection_times": "Mo-Fr 14:30; Sa 11:00", "note": "ON 12/24 AND 12/31, THIS BOX MAY BE COLLECTED AS EARLY AS 12 NOON.", "nsi_id": "unitedstatespostalservice-a77078", "operator": "United States Postal Service", "operator:short": "USPS", "operator:type": "public", "operator:wikidata": "Q668687", "ref": "8165600000"}, "type": "Feature"}
{"geometry": {"coordinates": [-106.88663, 39.27312], "type": "Point"}, "id": "CQmkconT7Dna7DlHC9Z3p6oBPOY=", "properties": {"@source_uri": "https://tools.usps.com/UspsToolsRestServices/rest/POLocator/findLocations", "@spider": "usps_collection_boxes", "addr:city": "WOODY CREEK", "addr:country": "US", "addr:postcode": "81656", "addr:state": "CO", "addr:street_address": "7909 UPPER RIVER RD", "amenity": "post_box", "collection_times": "Mo-Fr 14:30; Sa 11:00", "indoor": "yes", "note": "ON 12/24 AND 12/31, THIS BOX MAY BE COLLECTED AS EARLY AS 12 NOON.", "nsi_id": "unitedstatespostalservice-a77078", "operator": "United States Postal Service", "operator:short": "USPS", "operator:type": "public", "operator:wikidata": "Q668687", "ref": "8165600001"}, "type": "Feature"}
{"geometry": {"coordinates": [-106.407066, 39.637716], "type": "Point"}, "id": "JjOg3Itw758zQKalPuKfLwnuWMc=", "properties": {"@source_uri": "https://tools.usps.com/UspsToolsRestServices/rest/POLocator/findLocations", "@spider": "usps_collection_boxes", "addr:city": "VAIL", "addr:country": "US", "addr:postcode": "81657", "addr:state": "CO", "addr:street_address": "1300 N FRONTAGE RD W", "amenity": "post_box", "collection_times": "Mo-Sa 15:00", "note": "ON 12/24 AND 12/31, THIS BOX MAY BE COLLECTED AS EARLY AS 12 NOON.", "nsi_id": "unitedstatespostalservice-a77078", "operator": "United States Postal Service", "operator:short": "USPS", "operator:type": "public", "operator:wikidata": "Q668687", "ref": "8165700000"}, "type": "Feature"}
{"geometry": {"coordinates": [-106.373152, 39.640807], "type": "Point"}, "id": "tCYoS7L6k42IncgrqDkwJ-eE6Gk=", "properties": {"@source_uri": "https://tools.usps.com/UspsToolsRestServices/rest/POLocator/findLocations", "@spider": "usps_collection_boxes", "addr:city": "VAIL", "addr:country": "US", "addr:postcode": "81657", "addr:state": "CO", "addr:street_address": "263 E GORE CREEK DR", "amenity": "post_box", "collection_times": "Mo-Sa 13:00", "note": "ON 12/24 AND 12/31, THIS BOX MAY BE COLLECTED AS EARLY AS 12 NOON.", "nsi_id": "unitedstatespostalservice-a77078", "operator": "United States Postal Service", "operator:short": "USPS", "operator:type": "public", "operator:wikidata": "Q668687", "ref": "8165700003"}, "type": "Feature"}
{"geometry": {"coordinates": [-106.378285, 39.641682], "type": "Point"}, "id": "qooHmyjssiGxK6OXj7y829TzXM4=", "properties": {"@source_uri": "https://tools.usps.com/UspsToolsRestServices/rest/POLocator/findLocations", "@spider": "usps_collection_boxes", "addr:city": "VAIL", "addr:country": "US", "addr:postcode": "81657", "addr:state": "CO", "addr:street_address": "17 VAIL RD", "amenity": "post_box", "collection_times": "Mo-Sa 13:00", "note": "ON 12/24 AND 12/31, THIS BOX MAY BE COLLECTED AS EARLY AS 12 NOON.", "nsi_id": "unitedstatespostalservice-a77078", "operator": "United States Postal Service", "operator:short": "USPS", "operator:type": "public", "operator:wikidata": "Q668687", "ref": "8165700005"}, "type": "Feature"}
{"geometry": {"coordinates": [-106.3799881718, 39.6453044139], "type": "Point"}, "id": "6jtQdd3MzbSziy5jYiuyKTz3TU8=", "properties": {"@source_uri": "https://tools.usps.com/UspsToolsRestServices/rest/POLocator/findLocations", "@spider": "usps_collection_boxes", "addr:city": "VAIL", "addr:country": "US", "addr:postcode": "81657", "addr:state": "CO", "addr:street_address": "145 N FRONTAGE RD W", "amenity": "post_box", "collection_times": "Mo-Sa 13:00", "note": "ON 12/24 AND 12/31, THIS BOX MAY BE COLLECTED AS EARLY AS 12 NOON.", "nsi_id": "unitedstatespostalservice-a77078", "operator": "United States Postal Service", "operator:short": "USPS", "operator:type": "public", "operator:wikidata": "Q668687", "ref": "8165700006"}, "type": "Feature"}
{"geometry": {"coordinates": [-106.386964, 39.64388], "type": "Point"}, "id": "yYoZa5uZeVbrpJuIm69CUeejsxA=", "properties": {"@source_uri": "https://tools.usps.com/UspsToolsRestServices/rest/POLocator/findLocations", "@spider": "usps_collection_boxes", "addr:city": "VAIL", "addr:country": "US", "addr:postcode": "81657", "addr:state": "CO", "addr:street_address": "520 E LIONSHEAD CIR", "amenity": "post_box", "collection_times": "Mo-Sa 13:00", "note": "ON 12/24 AND 12/31, THIS BOX MAY BE COLLECTED AS EARLY AS 12 NOON.", "nsi_id": "unitedstatespostalservice-a77078", "operator": "United States Postal Service", "operator:short": "USPS", "operator:type": "public", "operator:wikidata": "Q668687", "ref": "8165700008"}, "type": "Feature"}
{"geometry": {"coordinates": [-106.417468, 39.63128], "type": "Point"}, "id": "mwwpOJHv_Pm0gr-i5JDXgJ6W_58=", "properties": {"@source_uri": "https://tools.usps.com/UspsToolsRestServices/rest/POLocator/findLocations", "@spider": "usps_collection_boxes", "addr:city": "VAIL", "addr:country": "US", "addr:postcode": "81657", "addr:state": "CO", "addr:street_address": "2151 N FRONTAGE RD W", "amenity": "post_box", "collection_times": "Mo-Sa 13:00", "note": "ON 12/24 AND 12/31, THIS BOX MAY BE COLLECTED AS EARLY AS 12 NOON.", "nsi_id": "unitedstatespostalservice-a77078", "operator": "United States Postal Service", "operator:short": "USPS", "operator:type": "public", "operator:wikidata": "Q668687", "ref": "8165700012"}, "type": "Feature"}
{"geometry": {"coordinates": [-106.4164240316, 39.6322430156], "type": "Point"}, "id": "u_sSWdLsOnAeBK8Kl5wqksU5xoo=", "properties": {"@source_uri": "https://tools.usps.com/UspsToolsRestServices/rest/POLocator/findLocations", "@spider": "usps_collection_boxes", "addr:city": "VAIL", "addr:country": "US", "addr:postcode": "81657", "addr:state": "CO", "addr:street_address": "2109 N FRONTAGE RD W", "amenity": "post_box", "collection_times": "Mo-Sa 13:00", "note": "ON 12/24 AND 12/31, THIS BOX MAY BE COLLECTED AS EARLY AS 12 NOON.", "nsi_id": "unitedstatespostalservice-a77078", "operator": "United States Postal Service", "operator:short": "USPS", "operator:type": "public", "operator:wikidata": "Q668687", "ref": "8165700013"}, "type": "Feature"}
{"geometry": {"coordinates": [-106.303495, 39.641279], "type": "Point"}, "id": "9PmREVUaRJGrfqGWzAlg4AtJWio=", "properties": {"@source_uri": "https://tools.usps.com/UspsToolsRestServices/rest/POLocator/findLocations", "@spider": "usps_collection_boxes", "addr:city": "VAIL", "addr:country": "US", "addr:postcode": "81657", "addr:state": "CO", "addr:street_address": "3971 BIG HORN RD", "amenity": "post_box", "collection_times": "Mo-Sa 12:00", "nsi_id": "unitedstatespostalservice-a77078", "operator": "United States Postal Service", "operator:short": "USPS", "operator:type": "public", "operator:wikidata": "Q668687", "ref": "8165700015"}, "type": "Feature"}
{"geometry": {"coordinates": [-106.406895, 39.638042], "type": "Point"}, "id": "zlqdcuWzM1DKXM7lKSs8lw-uwwY=", "properties": {"@source_uri": "https://tools.usps.com/UspsToolsRestServices/rest/POLocator/findLocations", "@spider": "usps_collection_boxes", "addr:city": "VAIL", "addr:country": "US", "addr:postcode": "81657", "addr:state": "CO", "addr:street_address": "1300 N FRONTAGE RD W", "amenity": "post_box", "collection_times": "Mo-Sa 15:00", "indoor": "yes", "note": "ON 12/24 AND 12/31, THIS BOX MAY BE COLLECTED AS EARLY AS 12 NOON.", "nsi_id": "unitedstatespostalservice-a77078", "operator": "United States Postal Service", "operator:short": "USPS", "operator:type": "public", "operator:wikidata": "Q668687", "ref": "8165700017"}, "type": "Feature"}
{"geometry": {"coordinates": [-106.406895, 39.638042], "type": "Point"}, "id": "dR9SSNKUkN4sOEpwKUDteWksVl0=", "properties": {"@source_uri": "https://tools.usps.com/UspsToolsRestServices/rest/POLocator/findLocations", "@spider": "usps_collection_boxes", "addr:city": "VAIL", "addr:country": "US", "addr:postcode": "81657", "addr:state": "CO", "addr:street_address": "1300 N FRONTAGE RD W", "amenity": "post_box", "collection_times": "Mo-Sa 15:00", "indoor": "yes", "note": "ON 12/24 AND 12/31, THIS BOX MAY BE COLLECTED AS EARLY AS 12 NOON.", "nsi_id": "unitedstatespostalservice-a77078", "operator": "United States Postal Service", "operator:short": "USPS", "operator:type": "public", "operator:wikidata": "Q668687", "ref": "8165700018"}, "type": "Feature"}
