{"geometry": {"coordinates": [-104.817438, 41.1359], "type": "Point"}, "id": "6GRJFuqc6jYSZb6d_JeMGnd3MZ8=", "properties": {"@source_uri": "https://tools.usps.com/UspsToolsRestServices/rest/POLocator/findLocations", "@spider": "usps_collection_boxes", "addr:city": "FE WARREN AFB", "addr:country": "US", "addr:postcode": "82001", "addr:state": "WY", "addr:street_address": "1912 CAPITOL AVE", "amenity": "post_box", "collection_times": "Mo-Fr 16:00", "note": "ON 12/24 AND 12/31, THIS BOX MAY BE COLLECTED AS EARLY AS 12 NOON.", "nsi_id": "unitedstatespostalservice-a77078", "operator": "United States Postal Service", "operator:short": "USPS", "operator:type": "public", "operator:wikidata": "Q668687", "ref": "8200100017"}, "type": "Feature"}
{"geometry": {"coordinates": [-104.8175260505, 41.1338783614], "type": "Point"}, "id": "gDiWvqUHs8JTjEV7h-1ZD0MZiqQ=", "properties": {"@source_uri": "https://tools.usps.com/UspsToolsRestServices/rest/POLocator/findLocations", "@spider": "usps_collection_boxes", "addr:city": "FE WARREN AFB", "addr:country": "US", "addr:postcode": "82001", "addr:state": "WY", "addr:street_address": "1720 CAREY AVE", "amenity": "post_box", "collection_times": "Mo-Fr 16:00; Sa 12:00", "note": "ON 12/24 AND 12/31, THIS BOX MAY BE COLLECTED AS EARLY AS 12 NOON.", "nsi_id": "unitedstatespostalservice-a77078", "operator": "United States Postal Service", "operator:short": "USPS", "operator:type": "public", "operator:wikidata": "Q668687", "ref": "8200100026"}, "type": "Feature"}
{"geometry": {"coordinates": [-104.815913, 41.1401], "type": "Point"}, "id": "lP4j1NdFi_PRl9Cw9Rzml4yKM3g=", "properties": {"@source_uri": "https://tools.usps.com/UspsToolsRestServices/rest/POLocator/findLocations", "@spider": "usps_collection_boxes", "addr:city": "FE WARREN AFB", "addr:country": "US", "addr:postcode": "82001", "addr:state": "WY", "addr:street_address": "2301 HOUSE AVE", "amenity": "post_box", "collection_times": "Mo-Fr 16:00; Sa 12:00", "note": "ON 12/24 AND 12/31, THIS BOX MAY BE COLLECTED AS EARLY AS 12 NOON.", "nsi_id": "unitedstatespostalservice-a77078", "operator": "United States Postal Service", "operator:short": "USPS", "operator:type": "public", "operator:wikidata": "Q668687", "ref": "8200100034"}, "type": "Feature"}
{"geometry": {"coordinates": [-104.764332, 41.137376], "type": "Point"}, "id": "EkIBnP0z3aboo6SYkYmJFTW3j6A=", "properties": {"@source_uri": "https://tools.usps.com/UspsToolsRestServices/rest/POLocator/findLocations", "@spider": "usps_collection_boxes", "addr:city": "FE WARREN AFB", "addr:country": "US", "addr:postcode": "82001", "addr:state": "WY", "addr:street_address": "3577 E LINCOLNWAY", "amenity": "post_box", "collection_times": "Mo-Fr 13:00; Sa 12:00", "note": "ON 12/24 AND 12/31, THIS BOX MAY BE COLLECTED AS EARLY AS 12 NOON.", "nsi_id": "unitedstatespostalservice-a77078", "operator": "United States Postal Service", "operator:short": "USPS", "operator:type": "public", "operator:wikidata": "Q668687", "ref": "8200100035"}, "type": "Feature"}
{"geometry": {"coordinates": [-104.82679, 41.14499], "type": "Point"}, "id": "dEeCXkLIhSVVIqCyJHM6u14ZK1Y=", "properties": {"@source_uri": "https://tools.usps.com/UspsToolsRestServices/rest/POLocator/findLocations", "@spider": "usps_collection_boxes", "addr:city": "FE WARREN AFB", "addr:country": "US", "addr:postcode": "82001", "addr:state": "WY", "addr:street_address": "124 E 8TH AVE", "amenity": "post_box", "collection_times": "Mo-Fr 17:00; Sa 13:00", "note": "ON 12/24 AND 12/31, THIS BOX MAY BE COLLECTED AS EARLY AS 12 NOON.", "nsi_id": "unitedstatespostalservice-a77078", "operator": "United States Postal Service", "operator:short": "USPS", "operator:type": "public", "operator:wikidata": "Q668687", "ref": "8200100037"}, "type": "Feature"}
{"geometry": {"coordinates": [-104.822487, 41.135415], "type": "Point"}, "id": "Gd5hHYwWlv_SODJBNQbWHhVW48o=", "properties": {"@source_uri": "https://tools.usps.com/UspsToolsRestServices/rest/POLocator/findLocations", "@spider": "usps_collection_boxes", "addr:city": "FE WARREN AFB", "addr:country": "US", "addr:postcode": "82001", "addr:state": "WY", "addr:street_address": "2101 ONEIL AVE", "amenity": "post_box", "collection_times": "Mo-Fr 16:15", "note": "ON 12/24 AND 12/31, THIS BOX MAY BE COLLECTED AS EARLY AS 12 NOON.", "nsi_id": "unitedstatespostalservice-a77078", "operator": "United States Postal Service", "operator:short": "USPS", "operator:type": "public", "operator:wikidata": "Q668687", "ref": "8200100042"}, "type": "Feature"}
{"geometry": {"coordinates": [-104.820515, 41.136595], "type": "Point"}, "id": "jAEhFDG3AL4vDhHrAeBPDRP0zig=", "properties": {"@source_uri": "https://tools.usps.com/UspsToolsRestServices/rest/POLocator/findLocations", "@spider": "usps_collection_boxes", "addr:city": "FE WARREN AFB", "addr:country": "US", "addr:postcode": "82001", "addr:state": "WY", "addr:street_address": "2100 PIONEER AVE", "amenity": "post_box", "collection_times": "Mo-Fr 16:00; Sa 14:00", "note": "ON 12/24 AND 12/31, THIS BOX MAY BE COLLECTED AS EARLY AS 12 NOON.", "nsi_id": "unitedstatespostalservice-a77078", "operator": "United States Postal Service", "operator:short": "USPS", "operator:type": "public", "operator:wikidata": "Q668687", "ref": "8200100052"}, "type": "Feature"}
{"geometry": {"coordinates": [-104.85618, 41.151397], "type": "Point"}, "id": "lP6jSLurfihY0eq9hsZoiJ2FtME=", "properties": {"@source_uri": "https://tools.usps.com/UspsToolsRestServices/rest/POLocator/findLocations", "@spider": "usps_collection_boxes", "addr:city": "FE WARREN AFB", "addr:country": "US", "addr:postcode": "82001", "addr:state": "WY", "addr:street_address": "6109 RANDALL AVE", "amenity": "post_box", "collection_times": "Mo-Fr 17:00; Sa 12:00", "note": "ON 12/24 AND 12/31, THIS BOX MAY BE COLLECTED AS EARLY AS 12 NOON.", "nsi_id": "unitedstatespostalservice-a77078", "operator": "United States Postal Service", "operator:short": "USPS", "operator:type": "public", "operator:wikidata": "Q668687", "ref": "8200100065"}, "type": "Feature"}
{"geometry": {"coordinates": [-104.816129, 41.133957], "type": "Point"}, "id": "FZvIYJ7uRq31DO-lPZhDr-P6nJc=", "properties": {"@source_uri": "https://tools.usps.com/UspsToolsRestServices/rest/POLocator/findLocations", "@spider": "usps_collection_boxes", "addr:city": "FE WARREN AFB", "addr:country": "US", "addr:postcode": "82001", "addr:state": "WY", "addr:street_address": "1710 CAPITOL AVE", "amenity": "post_box", "collection_times": "Mo-Fr 16:00; Sa 12:00", "note": "ON 12/24 AND 12/31, THIS BOX MAY BE COLLECTED AS EARLY AS 12 NOON.", "nsi_id": "unitedstatespostalservice-a77078", "operator": "United States Postal Service", "operator:short": "USPS", "operator:type": "public", "operator:wikidata": "Q668687", "ref": "8200100068"}, "type": "Feature"}
{"geometry": {"coordinates": [-104.801942, 41.112787], "type": "Point"}, "id": "CpT60yVpowQ-bBNr_PbCm2kDcrU=", "properties": {"@source_uri": "https://tools.usps.com/UspsToolsRestServices/rest/POLocator/findLocations", "@spider": "usps_collection_boxes", "addr:city": "CHEYENNE", "addr:country": "US", "addr:postcode": "82007", "addr:state": "WY", "addr:street_address": "700 S GREELEY HWY", "amenity": "post_box", "collection_times": "Mo-Fr 16:00; Sa 12:00", "note": "ON 12/24 AND 12/31, THIS BOX MAY BE COLLECTED AS EARLY AS 12 NOON.", "nsi_id": "unitedstatespostalservice-a77078", "operator": "United States Postal Service", "operator:short": "USPS", "operator:type": "public", "operator:wikidata": "Q668687", "ref": "8200700006"}, "type": "Feature"}
{"geometry": {"coordinates": [-104.829537, 41.172515], "type": "Point"}, "id": "RYmNIA6oEStKvWbl5Vci8pej6_A=", "properties": {"@source_uri": "https://tools.usps.com/UspsToolsRestServices/rest/POLocator/findLocations", "@spider": "usps_collection_boxes", "addr:city": "CHEYENNE", "addr:country": "US", "addr:postcode": "82009", "addr:state": "WY", "addr:street_address": "5800 YELLOWSTONE RD", "amenity": "post_box", "collection_times": "Mo-Fr 14:20; Sa 13:00", "note": "ON 12/24 AND 12/31, THIS BOX MAY BE COLLECTED AS EARLY AS 12 NOON.", "nsi_id": "unitedstatespostalservice-a77078", "operator": "United States Postal Service", "operator:short": "USPS", "operator:type": "public", "operator:wikidata": "Q668687", "ref": "8200900001"}, "type": "Feature"}
{"geometry": {"coordinates": [-104.827097, 41.168662], "type": "Point"}, "id": "UpVsFlfGx3-FXwJaJrJXS6iVoY0=", "properties": {"@source_uri": "https://tools.usps.com/UspsToolsRestServices/rest/POLocator/findLocations", "@spider": "usps_collection_boxes", "addr:city": "CHEYENNE", "addr:country": "US", "addr:postcode": "82009", "addr:state": "WY", "addr:street_address": "5353 YELLOWSTONE RD", "amenity": "post_box", "collection_times": "Mo-Fr 16:45", "note": "ON 12/24 AND 12/31, THIS BOX MAY BE COLLECTED AS EARLY AS 12 NOON.", "nsi_id": "unitedstatespostalservice-a77078", "operator": "United States Postal Service", "operator:short": "USPS", "operator:type": "public", "operator:wikidata": "Q668687", "ref": "8200900002"}, "type": "Feature"}
{"geometry": {"coordinates": [-104.826944, 41.175137], "type": "Point"}, "id": "750EfdlBnNOTOcQZiLkgaIW-hxE=", "properties": {"@source_uri": "https://tools.usps.com/UspsToolsRestServices/rest/POLocator/findLocations", "@spider": "usps_collection_boxes", "addr:city": "CHEYENNE", "addr:country": "US", "addr:postcode": "82009", "addr:state": "WY", "addr:street_address": "6101 YELLOWSTONE RD", "amenity": "post_box", "collection_times": "Mo-Fr 16:45; Sa 13:00", "note": "ON 12/24 AND 12/31, THIS BOX MAY BE COLLECTED AS EARLY AS 12 NOON.", "nsi_id": "unitedstatespostalservice-a77078", "operator": "United States Postal Service", "operator:short": "USPS", "operator:type": "public", "operator:wikidata": "Q668687", "ref": "8200900003"}, "type": "Feature"}
{"geometry": {"coordinates": [-104.786114, 41.160575], "type": "Point"}, "id": "x8UmPo6s5OgAbPv9dPFK8jZgtsc=", "properties": {"@source_uri": "https://tools.usps.com/UspsToolsRestServices/rest/POLocator/findLocations", "@spider": "usps_collection_boxes", "addr:city": "CHEYENNE", "addr:country": "US", "addr:postcode": "82009", "addr:state": "WY", "addr:street_address": "2232 DELL RANGE BLVD", "amenity": "post_box", "collection_times": "Mo-Sa 12:45", "note": "ON 12/24 AND 12/31, THIS BOX MAY BE COLLECTED AS EARLY AS 12 NOON.", "nsi_id": "unitedstatespostalservice-a77078", "operator": "United States Postal Service", "operator:short": "USPS", "operator:type": "public", "operator:wikidata": "Q668687", "ref": "8200900011"}, "type": "Feature"}
{"geometry": {"coordinates": [-104.820048, 41.170513], "type": "Point"}, "id": "in_IXxdKA3oPhCy8HfKRphWiiJk=", "properties": {"@source_uri": "https://tools.usps.com/UspsToolsRestServices/rest/POLocator/findLocations", "@spider": "usps_collection_boxes", "addr:city": "CHEYENNE", "addr:country": "US", "addr:postcode": "82009", "addr:state": "WY", "addr:street_address": "601 E CARLSON ST", "amenity": "post_box", "collection_times": "Mo-Fr 13:50; Sa 13:00", "note": "ON 12/24 AND 12/31, THIS BOX MAY BE COLLECTED AS EARLY AS 12 NOON.", "nsi_id": "unitedstatespostalservice-a77078", "operator": "United States Postal Service", "operator:short": "USPS", "operator:type": "public", "operator:wikidata": "Q668687", "ref": "8200900014"}, "type": "Feature"}
{"geometry": {"coordinates": [-104.772424, 41.144536], "type": "Point"}, "id": "H_YriPPf7PlfpZIUX_42WVI04sc=", "properties": {"@source_uri": "https://tools.usps.com/UspsToolsRestServices/rest/POLocator/findLocations", "@spider": "usps_collection_boxes", "addr:city": "CHEYENNE", "addr:country": "US", "addr:postcode": "82009", "addr:state": "WY", "addr:street_address": "3001 E PERSHING BLVD", "amenity": "post_box", "collection_times": "Mo-Fr 12:30; Sa 12:00", "note": "ON 12/24 AND 12/31, THIS BOX MAY BE COLLECTED AS EARLY AS 12 NOON.", "nsi_id": "unitedstatespostalservice-a77078", "operator": "United States Postal Service", "operator:short": "USPS", "operator:type": "public", "operator:wikidata": "Q668687", "ref": "8200900015"}, "type": "Feature"}
{"geometry": {"coordinates": [-104.810033, 41.165018], "type": "Point"}, "id": "nJ6au2PDzp7mE2LLJyivaALCmcI=", "properties": {"@source_uri": "https://tools.usps.com/UspsToolsRestServices/rest/POLocator/findLocations", "@spider": "usps_collection_boxes", "addr:city": "CHEYENNE", "addr:country": "US", "addr:postcode": "82009", "addr:state": "WY", "addr:street_address": "5050 POWDERHOUSE RD", "amenity": "post_box", "collection_times": "Mo-Fr 16:45", "note": "ON 12/24 AND 12/31, THIS BOX MAY BE COLLECTED AS EARLY AS 12 NOON.", "nsi_id": "unitedstatespostalservice-a77078", "operator": "United States Postal Service", "operator:short": "USPS", "operator:type": "public", "operator:wikidata": "Q668687", "ref": "8200900019"}, "type": "Feature"}
{"geometry": {"coordinates": [-104.786521, 41.162489], "type": "Point"}, "id": "JYvmCFocpSLifdQPpbk9ndKomTw=", "properties": {"@source_uri": "https://tools.usps.com/UspsToolsRestServices/rest/POLocator/findLocations", "@spider": "usps_collection_boxes", "addr:city": "CHEYENNE", "addr:country": "US", "addr:postcode": "82009", "addr:state": "WY", "addr:street_address": "4800 CONVERSE AVE", "amenity": "post_box", "collection_times": "Mo-Fr 17:30; Sa 16:00", "note": "ON 12/24 AND 12/31, THIS BOX MAY BE COLLECTED AS EARLY AS 12 NOON.", "nsi_id": "unitedstatespostalservice-a77078", "operator": "United States Postal Service", "operator:short": "USPS", "operator:type": "public", "operator:wikidata": "Q668687", "ref": "8200900026"}, "type": "Feature"}
{"geometry": {"coordinates": [-104.786215, 41.163966], "type": "Point"}, "id": "Pu4RImaQAFLMtgNrHuwCCzuz2WQ=", "properties": {"@source_uri": "https://tools.usps.com/UspsToolsRestServices/rest/POLocator/findLocations", "@spider": "usps_collection_boxes", "addr:city": "CHEYENNE", "addr:country": "US", "addr:postcode": "82009", "addr:state": "WY", "addr:street_address": "4800 CONVERSE AVE", "amenity": "post_box", "collection_times": "Mo-Fr 17:30; Sa 16:00", "indoor": "yes", "note": "ON 12/24 AND 12/31, THIS BOX MAY BE COLLECTED AS EARLY AS 12 NOON.", "nsi_id": "unitedstatespostalservice-a77078", "operator": "United States Postal Service", "operator:short": "USPS", "operator:type": "public", "operator:wikidata": "Q668687", "ref": "8200900027"}, "type": "Feature"}
{"geometry": {"coordinates": [-104.786215, 41.163966], "type": "Point"}, "id": "iwQXGPc0-IyPBXBOnqJxc7FD7ec=", "properties": {"@source_uri": "https://tools.usps.com/UspsToolsRestServices/rest/POLocator/findLocations", "@spider": "usps_collection_boxes", "addr:city": "CHEYENNE", "addr:country": "US", "addr:postcode": "82009", "addr:state": "WY", "addr:street_address": "4800 CONVERSE AVE", "amenity": "post_box", "collection_times": "Mo-Fr 17:30; Sa 16:00", "indoor": "yes", "note": "ON 12/24 AND 12/31, THIS BOX MAY BE COLLECTED AS EARLY AS 12 NOON.", "nsi_id": "unitedstatespostalservice-a77078", "operator": "United States Postal Service", "operator:short": "USPS", "operator:type": "public", "operator:wikidata": "Q668687", "ref": "8200900028"}, "type": "Feature"}
{"geometry": {"coordinates": [-104.765777, 41.161153], "type": "Point"}, "id": "lPYD1rydiSjiA2H2LuvyaA2iiAM=", "properties": {"@source_uri": "https://tools.usps.com/UspsToolsRestServices/rest/POLocator/findLocations", "@spider": "usps_collection_boxes", "addr:city": "CHEYENNE", "addr:country": "US", "addr:postcode": "82009", "addr:state": "WY", "addr:street_address": "3610 DELL RANGE BLVD", "amenity": "post_box", "collection_times": "Mo-Fr 12:40; Sa 12:00", "note": "ON 12/24 AND 12/31, THIS BOX MAY BE COLLECTED AS EARLY AS 12 NOON.", "nsi_id": "unitedstatespostalservice-a77078", "operator": "United States Postal Service", "operator:short": "USPS", "operator:type": "public", "operator:wikidata": "Q668687", "ref": "8200900030"}, "type": "Feature"}
{"geometry": {"coordinates": [-104.786528, 41.162464], "type": "Point"}, "id": "DqCF4hKLgdJJbgOcWlqJFFI3pdg=", "properties": {"@source_uri": "https://tools.usps.com/UspsToolsRestServices/rest/POLocator/findLocations", "@spider": "usps_collection_boxes", "addr:city": "CHEYENNE", "addr:country": "US", "addr:postcode": "82009", "addr:state": "WY", "addr:street_address": "4800 CONVERSE AVE", "amenity": "post_box", "collection_times": "Mo-Fr 17:30; Sa 16:00", "note": "ON 12/24 AND 12/31, THIS BOX MAY BE COLLECTED AS EARLY AS 12 NOON.", "nsi_id": "unitedstatespostalservice-a77078", "operator": "United States Postal Service", "operator:short": "USPS", "operator:type": "public", "operator:wikidata": "Q668687", "ref": "8200900031"}, "type": "Feature"}
{"geometry": {"coordinates": [-104.786215, 41.163966], "type": "Point"}, "id": "nJBIAyJjSF-a_dJ21j5E2sNuVSc=", "properties": {"@source_uri": "https://tools.usps.com/UspsToolsRestServices/rest/POLocator/findLocations", "@spider": "usps_collection_boxes", "addr:city": "CHEYENNE", "addr:country": "US", "addr:postcode": "82009", "addr:state": "WY", "addr:street_address": "4800 CONVERSE AVE", "amenity": "post_box", "collection_times": "Mo-Fr 17:30; Sa 16:00", "name": "USPS COLLECTION BOX - APC", "note": "ON 12/24 AND 12/31, THIS BOX MAY BE COLLECTED AS EARLY AS 12 NOON.", "nsi_id": "unitedstatespostalservice-a77078", "operator": "United States Postal Service", "operator:short": "USPS", "operator:type": "public", "operator:wikidata": "Q668687", "ref": "8200900032"}, "type": "Feature"}
{"geometry": {"coordinates": [-104.099738, 41.418439], "type": "Point"}, "id": "RDEXGnnpi1ShcKl-riwriCKYBzU=", "properties": {"@source_uri": "https://tools.usps.com/UspsToolsRestServices/rest/POLocator/findLocations", "@spider": "usps_collection_boxes", "addr:city": "ALBIN", "addr:country": "US", "addr:postcode": "82050", "addr:state": "WY", "addr:street_address": "221 CHEYENNE AVE", "amenity": "post_box", "collection_times": "Mo-Fr 11:45; Sa 10:15", "indoor": "yes", "nsi_id": "unitedstatespostalservice-a77078", "operator": "United States Postal Service", "operator:short": "USPS", "operator:type": "public", "operator:wikidata": "Q668687", "ref": "8205000001"}, "type": "Feature"}
{"geometry": {"coordinates": [-104.35892, 41.192791], "type": "Point"}, "id": "aQMQpaML0no6wahp6SFw1tAC36Y=", "properties": {"@source_uri": "https://tools.usps.com/UspsToolsRestServices/rest/POLocator/findLocations", "@spider": "usps_collection_boxes", "addr:city": "BURNS", "addr:country": "US", "addr:postcode": "82053", "addr:state": "WY", "addr:street_address": "102 MAIN ST", "amenity": "post_box", "collection_times": "Mo-Fr 16:15; Sa 09:30", "note": "ON 12/24 AND 12/31, THIS BOX MAY BE COLLECTED AS EARLY AS 12 NOON.", "nsi_id": "unitedstatespostalservice-a77078", "operator": "United States Postal Service", "operator:short": "USPS", "operator:type": "public", "operator:wikidata": "Q668687", "ref": "8205300000"}, "type": "Feature"}
{"geometry": {"coordinates": [-104.35892, 41.192791], "type": "Point"}, "id": "__smzn8O1GLgPPeLOFTGVDt0pNE=", "properties": {"@source_uri": "https://tools.usps.com/UspsToolsRestServices/rest/POLocator/findLocations", "@spider": "usps_collection_boxes", "addr:city": "BURNS", "addr:country": "US", "addr:postcode": "82053", "addr:state": "WY", "addr:street_address": "102 MAIN ST", "amenity": "post_box", "collection_times": "Mo-Fr 16:15; Sa 09:30", "indoor": "yes", "note": "ON 12/24 AND 12/31, THIS BOX MAY BE COLLECTED AS EARLY AS 12 NOON.", "nsi_id": "unitedstatespostalservice-a77078", "operator": "United States Postal Service", "operator:short": "USPS", "operator:type": "public", "operator:wikidata": "Q668687", "ref": "8205300001"}, "type": "Feature"}
{"geometry": {"coordinates": [-104.520545, 41.160111], "type": "Point"}, "id": "cHSgxxiqEul2YqTFEnXxQ6Ahhow=", "properties": {"@source_uri": "https://tools.usps.com/UspsToolsRestServices/rest/POLocator/findLocations", "@spider": "usps_collection_boxes", "addr:city": "BURNS", "addr:country": "US", "addr:postcode": "82053", "addr:state": "WY", "addr:street_address": "4000 RD 211", "amenity": "post_box", "collection_times": "Mo-Sa 11:00", "nsi_id": "unitedstatespostalservice-a77078", "operator": "United States Postal Service", "operator:short": "USPS", "operator:type": "public", "operator:wikidata": "Q668687", "ref": "8205300004"}, "type": "Feature"}
{"geometry": {"coordinates": [-104.365718, 41.04578], "type": "Point"}, "id": "QiaVAXerknIcA-M01-ZW-OOj1Xk=", "properties": {"@source_uri": "https://tools.usps.com/UspsToolsRestServices/rest/POLocator/findLocations", "@spider": "usps_collection_boxes", "addr:city": "CARPENTER", "addr:country": "US", "addr:postcode": "82054", "addr:state": "WY", "addr:street_address": "322 1ST ST", "amenity": "post_box", "collection_times": "Mo-Fr 15:30; Sa 09:15", "note": "ON 12/24 AND 12/31, THIS BOX MAY BE COLLECTED AS EARLY AS 12 NOON.", "nsi_id": "unitedstatespostalservice-a77078", "operator": "United States Postal Service", "operator:short": "USPS", "operator:type": "public", "operator:wikidata": "Q668687", "ref": "8205400000"}, "type": "Feature"}
{"geometry": {"coordinates": [-104.365718, 41.04578], "type": "Point"}, "id": "7v_6ZpoMH6T9SgZwC8y8X3ZC4no=", "properties": {"@source_uri": "https://tools.usps.com/UspsToolsRestServices/rest/POLocator/findLocations", "@spider": "usps_collection_boxes", "addr:city": "CARPENTER", "addr:country": "US", "addr:postcode": "82054", "addr:state": "WY", "addr:street_address": "322 1ST ST", "amenity": "post_box", "collection_times": "Mo-Fr 15:30; Sa 09:15", "indoor": "yes", "note": "ON 12/24 AND 12/31, THIS BOX MAY BE COLLECTED AS EARLY AS 12 NOON.", "nsi_id": "unitedstatespostalservice-a77078", "operator": "United States Postal Service", "operator:short": "USPS", "operator:type": "public", "operator:wikidata": "Q668687", "ref": "8205400001"}, "type": "Feature"}
{"geometry": {"coordinates": [-106.142212, 41.298354], "type": "Point"}, "id": "9cxQLX9zlN7W2eyJY4Vg_TelWHs=", "properties": {"@source_uri": "https://tools.usps.com/UspsToolsRestServices/rest/POLocator/findLocations", "@spider": "usps_collection_boxes", "addr:city": "CENTENNIAL", "addr:country": "US", "addr:postcode": "82055", "addr:state": "WY", "addr:street_address": "1 PINE ST", "amenity": "post_box", "collection_times": "Mo-Sa 10:00", "nsi_id": "unitedstatespostalservice-a77078", "operator": "United States Postal Service", "operator:short": "USPS", "operator:type": "public", "operator:wikidata": "Q668687", "ref": "8205500000"}, "type": "Feature"}
{"geometry": {"coordinates": [-106.142178, 41.298444], "type": "Point"}, "id": "Sg-MrI1GJ8uOfkVFs0-nTRHQTKs=", "properties": {"@source_uri": "https://tools.usps.com/UspsToolsRestServices/rest/POLocator/findLocations", "@spider": "usps_collection_boxes", "addr:city": "CENTENNIAL", "addr:country": "US", "addr:postcode": "82055", "addr:state": "WY", "addr:street_address": "1 PINE ST", "amenity": "post_box", "collection_times": "Mo-Sa 10:00", "indoor": "yes", "nsi_id": "unitedstatespostalservice-a77078", "operator": "United States Postal Service", "operator:short": "USPS", "operator:type": "public", "operator:wikidata": "Q668687", "ref": "8205500001"}, "type": "Feature"}
{"geometry": {"coordinates": [-104.478367, 41.210722], "type": "Point"}, "id": "sdKw_o5FZsIh2KARe1x2L2kAsA4=", "properties": {"@source_uri": "https://tools.usps.com/UspsToolsRestServices/rest/POLocator/findLocations", "@spider": "usps_collection_boxes", "addr:city": "HILLSDALE", "addr:country": "US", "addr:postcode": "82060", "addr:state": "CO", "addr:street_address": "1463 COATES AVE", "amenity": "post_box", "collection_times": "Mo-Fr 10:15; Sa 10:00", "indoor": "yes", "nsi_id": "unitedstatespostalservice-a77078", "operator": "United States Postal Service", "operator:short": "USPS", "operator:type": "public", "operator:wikidata": "Q668687", "ref": "8206000000"}, "type": "Feature"}
{"geometry": {"coordinates": [-105.577779, 41.302227], "type": "Point"}, "id": "ra_pF3m7KjIjdDsWiPXbUU-EwmE=", "properties": {"@source_uri": "https://tools.usps.com/UspsToolsRestServices/rest/POLocator/findLocations", "@spider": "usps_collection_boxes", "addr:city": "LARAMIE", "addr:country": "US", "addr:postcode": "82070", "addr:state": "WY", "addr:street_address": "1107 S 15TH ST", "amenity": "post_box", "collection_times": "Mo-Fr 16:00", "note": "ON 12/24 AND 12/31, THIS BOX MAY BE COLLECTED AS EARLY AS 12 NOON.", "nsi_id": "unitedstatespostalservice-a77078", "operator": "United States Postal Service", "operator:short": "USPS", "operator:type": "public", "operator:wikidata": "Q668687", "ref": "8207000011"}, "type": "Feature"}
{"geometry": {"coordinates": [-105.595357, 41.312144], "type": "Point"}, "id": "xn5VTWLuKptHbK818eYnZxdJ_I4=", "properties": {"@source_uri": "https://tools.usps.com/UspsToolsRestServices/rest/POLocator/findLocations", "@spider": "usps_collection_boxes", "addr:city": "LARAMIE", "addr:country": "US", "addr:postcode": "82070", "addr:state": "WY", "addr:street_address": "115 E IVINSON ST", "amenity": "post_box", "collection_times": "Mo-Fr 16:30; Sa 12:45", "note": "ON 12/24 AND 12/31, THIS BOX MAY BE COLLECTED AS EARLY AS 12 NOON.", "nsi_id": "unitedstatespostalservice-a77078", "operator": "United States Postal Service", "operator:short": "USPS", "operator:type": "public", "operator:wikidata": "Q668687", "ref": "8207000024"}, "type": "Feature"}
{"geometry": {"coordinates": [-105.567924, 41.309108], "type": "Point"}, "id": "sjcBV_wFmaKKnsfi4iWhVlQszgY=", "properties": {"@source_uri": "https://tools.usps.com/UspsToolsRestServices/rest/POLocator/findLocations", "@spider": "usps_collection_boxes", "addr:city": "LARAMIE", "addr:country": "US", "addr:postcode": "82070", "addr:state": "WY", "addr:street_address": "2020 E GRAND AVE", "amenity": "post_box", "collection_times": "Mo-Fr 17:00", "note": "ON 12/24 AND 12/31, THIS BOX MAY BE COLLECTED AS EARLY AS 12 NOON.", "nsi_id": "unitedstatespostalservice-a77078", "operator": "United States Postal Service", "operator:short": "USPS", "operator:type": "public", "operator:wikidata": "Q668687", "ref": "8207000032"}, "type": "Feature"}
{"geometry": {"coordinates": [-105.567, 41.308076], "type": "Point"}, "id": "WhAuNyPvWVN_y-yS6_zloiPmCq8=", "properties": {"@source_uri": "https://tools.usps.com/UspsToolsRestServices/rest/POLocator/findLocations", "@spider": "usps_collection_boxes", "addr:city": "LARAMIE", "addr:country": "US", "addr:postcode": "82070", "addr:state": "WY", "addr:street_address": "413 S 21ST ST", "amenity": "post_box", "collection_times": "Mo-Fr 16:45", "note": "ON 12/24 AND 12/31, THIS BOX MAY BE COLLECTED AS EARLY AS 12 NOON.", "nsi_id": "unitedstatespostalservice-a77078", "operator": "United States Postal Service", "operator:short": "USPS", "operator:type": "public", "operator:wikidata": "Q668687", "ref": "8207000041"}, "type": "Feature"}
{"geometry": {"coordinates": [-105.555798, 41.30834], "type": "Point"}, "id": "KZlB8uGNoZQ-S_EtVBk7D4pDY08=", "properties": {"@source_uri": "https://tools.usps.com/UspsToolsRestServices/rest/POLocator/findLocations", "@spider": "usps_collection_boxes", "addr:city": "LARAMIE", "addr:country": "US", "addr:postcode": "82070", "addr:state": "WY", "addr:street_address": "3112 E GRAND AVE", "amenity": "post_box", "collection_times": "Mo-Fr 16:45; Sa 12:45", "note": "ON 12/24 AND 12/31, THIS BOX MAY BE COLLECTED AS EARLY AS 12 NOON.", "nsi_id": "unitedstatespostalservice-a77078", "operator": "United States Postal Service", "operator:short": "USPS", "operator:type": "public", "operator:wikidata": "Q668687", "ref": "8207000044"}, "type": "Feature"}
{"geometry": {"coordinates": [-105.555677, 41.310364], "type": "Point"}, "id": "Rk1v09sUGofl6fR_bkZs0Q6131Y=", "properties": {"@source_uri": "https://tools.usps.com/UspsToolsRestServices/rest/POLocator/findLocations", "@spider": "usps_collection_boxes", "addr:city": "LARAMIE", "addr:country": "US", "addr:postcode": "82070", "addr:state": "WY", "addr:street_address": "204 MCCOLLUM ST", "amenity": "post_box", "collection_times": "Mo-Fr 16:45", "note": "ON 12/24 AND 12/31, THIS BOX MAY BE COLLECTED AS EARLY AS 12 NOON.", "nsi_id": "unitedstatespostalservice-a77078", "operator": "United States Postal Service", "operator:short": "USPS", "operator:type": "public", "operator:wikidata": "Q668687", "ref": "8207000045"}, "type": "Feature"}
{"geometry": {"coordinates": [-105.587299, 41.309386], "type": "Point"}, "id": "lPhlKzItkyuH_gI1UhOsdviNMVg=", "properties": {"@source_uri": "https://tools.usps.com/UspsToolsRestServices/rest/POLocator/findLocations", "@spider": "usps_collection_boxes", "addr:city": "LARAMIE", "addr:country": "US", "addr:postcode": "82070", "addr:state": "WY", "addr:street_address": "710 E GARFIELD ST", "amenity": "post_box", "collection_times": "Mo-Fr 16:30", "note": "ON 12/24 AND 12/31, THIS BOX MAY BE COLLECTED AS EARLY AS 12 NOON.", "nsi_id": "unitedstatespostalservice-a77078", "operator": "United States Postal Service", "operator:short": "USPS", "operator:type": "public", "operator:wikidata": "Q668687", "ref": "8207000053"}, "type": "Feature"}
{"geometry": {"coordinates": [-105.5404530398, 41.3016300003], "type": "Point"}, "id": "0jqGmx6qvHHhlNCILVxXLuhVbYg=", "properties": {"@source_uri": "https://tools.usps.com/UspsToolsRestServices/rest/POLocator/findLocations", "@spider": "usps_collection_boxes", "addr:city": "LARAMIE", "addr:country": "US", "addr:postcode": "82070", "addr:state": "WY", "addr:street_address": "4308 E GRAND AVE", "amenity": "post_box", "collection_times": "Mo-Fr 15:00; Sa 11:00", "note": "ON 12/24 AND 12/31, THIS BOX MAY BE COLLECTED AS EARLY AS 12 NOON.", "nsi_id": "unitedstatespostalservice-a77078", "operator": "United States Postal Service", "operator:short": "USPS", "operator:type": "public", "operator:wikidata": "Q668687", "ref": "8207000056"}, "type": "Feature"}
{"geometry": {"coordinates": [-105.555811, 41.308334], "type": "Point"}, "id": "7T9rUmobfY5U9M1C8O4sDuCMpRk=", "properties": {"@source_uri": "https://tools.usps.com/UspsToolsRestServices/rest/POLocator/findLocations", "@spider": "usps_collection_boxes", "addr:city": "LARAMIE", "addr:country": "US", "addr:postcode": "82070", "addr:state": "WY", "addr:street_address": "3112 E GRAND AVE", "amenity": "post_box", "collection_times": "Mo-Fr 16:45; Sa 12:45", "note": "ON 12/24 AND 12/31, THIS BOX MAY BE COLLECTED AS EARLY AS 12 NOON.", "nsi_id": "unitedstatespostalservice-a77078", "operator": "United States Postal Service", "operator:short": "USPS", "operator:type": "public", "operator:wikidata": "Q668687", "ref": "8207000057"}, "type": "Feature"}
{"geometry": {"coordinates": [-105.586725, 41.3201], "type": "Point"}, "id": "XFWQCTACPjt6VK8L8DodojGO0gY=", "properties": {"@source_uri": "https://tools.usps.com/UspsToolsRestServices/rest/POLocator/findLocations", "@spider": "usps_collection_boxes", "addr:city": "LARAMIE", "addr:country": "US", "addr:postcode": "82072", "addr:state": "WY", "addr:street_address": "1000 UNIVERSITY AVE E", "amenity": "post_box", "collection_times": "Mo-Fr 14:00; Sa 12:45", "note": "ON 12/24 AND 12/31, THIS BOX MAY BE COLLECTED AS EARLY AS 12 NOON.", "nsi_id": "unitedstatespostalservice-a77078", "operator": "United States Postal Service", "operator:short": "USPS", "operator:type": "public", "operator:wikidata": "Q668687", "ref": "8207200003"}, "type": "Feature"}
{"geometry": {"coordinates": [-105.594303, 41.317862], "type": "Point"}, "id": "NWv-yS1wvTCoSfZwF46nkDKVSeo=", "properties": {"@source_uri": "https://tools.usps.com/UspsToolsRestServices/rest/POLocator/findLocations", "@spider": "usps_collection_boxes", "addr:city": "LARAMIE", "addr:country": "US", "addr:postcode": "82072", "addr:state": "WY", "addr:street_address": "654 N 3RD ST", "amenity": "post_box", "collection_times": "Mo-Fr 16:00; Sa 12:45", "note": "ON 12/24 AND 12/31, THIS BOX MAY BE COLLECTED AS EARLY AS 12 NOON.", "nsi_id": "unitedstatespostalservice-a77078", "operator": "United States Postal Service", "operator:short": "USPS", "operator:type": "public", "operator:wikidata": "Q668687", "ref": "8207200005"}, "type": "Feature"}
{"geometry": {"coordinates": [-105.5908017895, 41.3132166119], "type": "Point"}, "id": "J7rWvILlsXkXC65qUQZ2lkqq9SM=", "properties": {"@source_uri": "https://tools.usps.com/UspsToolsRestServices/rest/POLocator/findLocations", "@spider": "usps_collection_boxes", "addr:city": "LARAMIE", "addr:country": "US", "addr:postcode": "82072", "addr:state": "WY", "addr:street_address": "152 N 5TH ST", "amenity": "post_box", "collection_times": "Mo-Fr 17:00; Sa 12:45", "name": "USPS COLLECTION BOX - EXPRESS", "note": "ON 12/24 AND 12/31, THIS BOX MAY BE COLLECTED AS EARLY AS 12 NOON.", "nsi_id": "unitedstatespostalservice-a77078", "operator": "United States Postal Service", "operator:short": "USPS", "operator:type": "public", "operator:wikidata": "Q668687", "ref": "8207200013"}, "type": "Feature"}
{"geometry": {"coordinates": [-105.590746, 41.313257], "type": "Point"}, "id": "SnW6IL1C9JK32sPyEVxyiNpK64o=", "properties": {"@source_uri": "https://tools.usps.com/UspsToolsRestServices/rest/POLocator/findLocations", "@spider": "usps_collection_boxes", "addr:city": "LARAMIE", "addr:country": "US", "addr:postcode": "82072", "addr:state": "WY", "addr:street_address": "152 N 5TH ST", "amenity": "post_box", "collection_times": "Mo-Fr 17:00; Sa 12:45", "indoor": "yes", "note": "ON 12/24 AND 12/31, THIS BOX MAY BE COLLECTED AS EARLY AS 12 NOON.", "nsi_id": "unitedstatespostalservice-a77078", "operator": "United States Postal Service", "operator:short": "USPS", "operator:type": "public", "operator:wikidata": "Q668687", "ref": "8207200014"}, "type": "Feature"}
{"geometry": {"coordinates": [-105.569217, 41.322575], "type": "Point"}, "id": "9OxqiyTyEv4X0TbUFUfBg8uFBCE=", "properties": {"@source_uri": "https://tools.usps.com/UspsToolsRestServices/rest/POLocator/findLocations", "@spider": "usps_collection_boxes", "addr:city": "LARAMIE", "addr:country": "US", "addr:postcode": "82072", "addr:state": "WY", "addr:street_address": "1251 N 21ST ST", "amenity": "post_box", "collection_times": "Mo-Sa 12:45", "note": "ON 12/24 AND 12/31, THIS BOX MAY BE COLLECTED AS EARLY AS 12 NOON.", "nsi_id": "unitedstatespostalservice-a77078", "operator": "United States Postal Service", "operator:short": "USPS", "operator:type": "public", "operator:wikidata": "Q668687", "ref": "8207200025"}, "type": "Feature"}
{"geometry": {"coordinates": [-105.576836, 41.322536], "type": "Point"}, "id": "UbqyRJz_la2kt68N5l5yWb3O7Og=", "properties": {"@source_uri": "https://tools.usps.com/UspsToolsRestServices/rest/POLocator/findLocations", "@spider": "usps_collection_boxes", "addr:city": "LARAMIE", "addr:country": "US", "addr:postcode": "82072", "addr:state": "WY", "addr:street_address": "1267 N 15TH ST", "amenity": "post_box", "collection_times": "Mo-Fr 16:00", "note": "ON 12/24 AND 12/31, THIS BOX MAY BE COLLECTED AS EARLY AS 12 NOON.", "nsi_id": "unitedstatespostalservice-a77078", "operator": "United States Postal Service", "operator:short": "USPS", "operator:type": "public", "operator:wikidata": "Q668687", "ref": "8207200029"}, "type": "Feature"}
{"geometry": {"coordinates": [-105.590746, 41.313257], "type": "Point"}, "id": "SG7yTxv8YzmTft1FeXU6gcL-pKM=", "properties": {"@source_uri": "https://tools.usps.com/UspsToolsRestServices/rest/POLocator/findLocations", "@spider": "usps_collection_boxes", "addr:city": "LARAMIE", "addr:country": "US", "addr:postcode": "82072", "addr:state": "WY", "addr:street_address": "152 N 5TH ST", "amenity": "post_box", "collection_times": "Mo-Fr 17:00; Sa 12:45", "name": "USPS COLLECTION BOX - APC", "note": "ON 12/24 AND 12/31, THIS BOX MAY BE COLLECTED AS EARLY AS 12 NOON.", "nsi_id": "unitedstatespostalservice-a77078", "operator": "United States Postal Service", "operator:short": "USPS", "operator:type": "public", "operator:wikidata": "Q668687", "ref": "8207200031"}, "type": "Feature"}
{"geometry": {"coordinates": [-105.5908017895, 41.3132166119], "type": "Point"}, "id": "LRvpRVqzeCsl0ahbh93pplKABhk=", "properties": {"@source_uri": "https://tools.usps.com/UspsToolsRestServices/rest/POLocator/findLocations", "@spider": "usps_collection_boxes", "addr:city": "LARAMIE", "addr:country": "US", "addr:postcode": "82072", "addr:state": "WY", "addr:street_address": "152 N 5TH ST", "amenity": "post_box", "collection_times": "Mo-Fr 17:00; Sa 12:45", "note": "ON 12/24 AND 12/31, THIS BOX MAY BE COLLECTED AS EARLY AS 12 NOON.", "nsi_id": "unitedstatespostalservice-a77078", "operator": "United States Postal Service", "operator:short": "USPS", "operator:type": "public", "operator:wikidata": "Q668687", "ref": "8207200032"}, "type": "Feature"}
{"geometry": {"coordinates": [-104.069121, 41.180867], "type": "Point"}, "id": "nRx06nkp1wV6CKFi4CUpwaDhwsM=", "properties": {"@source_uri": "https://tools.usps.com/UspsToolsRestServices/rest/POLocator/findLocations", "@spider": "usps_collection_boxes", "addr:city": "PINE BLUFFS", "addr:country": "US", "addr:postcode": "82082", "addr:state": "WY", "addr:street_address": "115 W 4TH ST", "amenity": "post_box", "collection_times": "Mo-Fr 16:40; Sa 12:00", "note": "ON 12/24 AND 12/31, THIS BOX MAY BE COLLECTED AS EARLY AS 12 NOON.", "nsi_id": "unitedstatespostalservice-a77078", "operator": "United States Postal Service", "operator:short": "USPS", "operator:type": "public", "operator:wikidata": "Q668687", "ref": "8208200000"}, "type": "Feature"}
{"geometry": {"coordinates": [-104.069121, 41.180867], "type": "Point"}, "id": "uodNrp7rjmCE6PtVtFQW7_e1QYs=", "properties": {"@source_uri": "https://tools.usps.com/UspsToolsRestServices/rest/POLocator/findLocations", "@spider": "usps_collection_boxes", "addr:city": "PINE BLUFFS", "addr:country": "US", "addr:postcode": "82082", "addr:state": "WY", "addr:street_address": "115 W 4TH ST", "amenity": "post_box", "collection_times": "Mo-Fr 16:45; Sa 12:00", "indoor": "yes", "note": "ON 12/24 AND 12/31, THIS BOX MAY BE COLLECTED AS EARLY AS 12 NOON.", "nsi_id": "unitedstatespostalservice-a77078", "operator": "United States Postal Service", "operator:short": "USPS", "operator:type": "public", "operator:wikidata": "Q668687", "ref": "8208200001"}, "type": "Feature"}
{"geometry": {"coordinates": [-104.075909, 41.17762], "type": "Point"}, "id": "tebO3ijm0opp42_xqvmn47x8T3I=", "properties": {"@source_uri": "https://tools.usps.com/UspsToolsRestServices/rest/POLocator/findLocations", "@spider": "usps_collection_boxes", "addr:city": "PINE BLUFFS", "addr:country": "US", "addr:postcode": "82082", "addr:state": "WY", "addr:street_address": "706 PARSONS ST", "amenity": "post_box", "collection_times": "Mo-Sa 11:45", "nsi_id": "unitedstatespostalservice-a77078", "operator": "United States Postal Service", "operator:short": "USPS", "operator:type": "public", "operator:wikidata": "Q668687", "ref": "8208200002"}, "type": "Feature"}
{"geometry": {"coordinates": [-104.069121, 41.180867], "type": "Point"}, "id": "BV_pd-Bt-WobeyM6q63SHNFo5GU=", "properties": {"@source_uri": "https://tools.usps.com/UspsToolsRestServices/rest/POLocator/findLocations", "@spider": "usps_collection_boxes", "addr:city": "PINE BLUFFS", "addr:country": "US", "addr:postcode": "82082", "addr:state": "WY", "addr:street_address": "115 W 4TH ST", "amenity": "post_box", "collection_times": "Mo-Fr 16:45; Sa 12:00", "indoor": "yes", "note": "ON 12/24 AND 12/31, THIS BOX MAY BE COLLECTED AS EARLY AS 12 NOON.", "nsi_id": "unitedstatespostalservice-a77078", "operator": "United States Postal Service", "operator:short": "USPS", "operator:type": "public", "operator:wikidata": "Q668687", "ref": "8208200003"}, "type": "Feature"}
{"geometry": {"coordinates": [-105.975523, 41.74114], "type": "Point"}, "id": "4e53ZQON5deGAPrfNimmYZwusa4=", "properties": {"@source_uri": "https://tools.usps.com/UspsToolsRestServices/rest/POLocator/findLocations", "@spider": "usps_collection_boxes", "addr:city": "ROCK RIVER", "addr:country": "US", "addr:postcode": "82083", "addr:state": "WY", "addr:street_address": "104 S 5TH ST", "amenity": "post_box", "collection_times": "Mo-Fr 15:15; Sa 10:15", "indoor": "yes", "note": "ON 12/24 AND 12/31, THIS BOX MAY BE COLLECTED AS EARLY AS 12 NOON.", "nsi_id": "unitedstatespostalservice-a77078", "operator": "United States Postal Service", "operator:short": "USPS", "operator:type": "public", "operator:wikidata": "Q668687", "ref": "8208300001"}, "type": "Feature"}
