{"geometry": {"coordinates": [-110.699464, 44.976913], "type": "Point"}, "id": "-LLi3RbUhveoDLAGYrTwzs1nlpU=", "properties": {"@spider": "usps_collection_boxes", "addr:city": "YELLOWSTONE", "addr:country": "US", "addr:full": "1000 MAMMOTH HOT SPGS", "addr:postcode": "82190", "addr:state": "WY", "brand": "USPS", "collection_times": "Mo-Fr 14:30; Sa 08:45", "name": "USPS COLLECTION BOX - BLUE BOX", "note": "ON 12/24 AND 12/31, THIS BOX MAY BE COLLECTED AS EARLY AS 12 NOON.", "ref": "8219000005"}, "type": "Feature"}
{"geometry": {"coordinates": [-110.5185348276, 44.5747179426], "type": "Point"}, "id": "3zKEFJkserQFx2SnrXioPM04Xgk=", "properties": {"@spider": "usps_collection_boxes", "addr:city": "YELLOWSTONE", "addr:country": "US", "addr:full": "1000 MAMMOTH HOT SPGS", "addr:postcode": "82190", "addr:state": "WY", "brand": "USPS", "collection_times": "Mo-Fr 15:15; Sa 11:30", "name": "USPS COLLECTION BOX - PO LOBBY", "note": "ON 12/24 AND 12/31, THIS BOX MAY BE COLLECTED AS EARLY AS 12 NOON.", "ref": "8219000006"}, "type": "Feature"}
{"geometry": {"coordinates": [-110.830719243, 44.456553815], "type": "Point"}, "id": "enlBDJs0eGvnivxbAMF6imcLUYg=", "properties": {"@spider": "usps_collection_boxes", "addr:city": "YELLOWSTONE", "addr:country": "US", "addr:full": "1000 OLD FAITHFUL", "addr:postcode": "82190", "addr:state": "WY", "brand": "USPS", "collection_times": "Mo-Sa 10:45", "name": "USPS COLLECTION BOX - BLUE BOX", "ref": "8219000007"}, "type": "Feature"}
{"geometry": {"coordinates": [-110.4016613104, 44.5518179565], "type": "Point"}, "id": "ski12rSRhxjWDTROPvyHqt8Sjdo=", "properties": {"@spider": "usps_collection_boxes", "addr:city": "YELLOWSTONE", "addr:country": "US", "addr:full": "1000 LAKE VLG", "addr:postcode": "82190", "addr:state": "WY", "brand": "USPS", "collection_times": "Mo-Sa 11:45", "name": "USPS COLLECTION BOX - BLUE BOX", "ref": "8219000009"}, "type": "Feature"}
{"geometry": {"coordinates": [-110.4899795195, 44.7341105431], "type": "Point"}, "id": "uLDDrNmNjkTvZ-mf14rV37mkZJM=", "properties": {"@spider": "usps_collection_boxes", "addr:city": "YELLOWSTONE", "addr:country": "US", "addr:full": "139 CANYON VLG", "addr:postcode": "82190", "addr:state": "WY", "brand": "USPS", "collection_times": "Mo-Sa 12:30", "name": "USPS COLLECTION BOX - BLUE BOX", "note": "ON 12/24 AND 12/31, THIS BOX MAY BE COLLECTED AS EARLY AS 12 NOON.", "ref": "8219000011"}, "type": "Feature"}
