{"geometry": {"coordinates": [-104.95201, 42.0565], "type": "Point"}, "id": "Jq1cZPAPjjxdFLDP9zUg38IvIXE=", "properties": {"@source_uri": "https://tools.usps.com/UspsToolsRestServices/rest/POLocator/findLocations", "@spider": "usps_collection_boxes", "addr:city": "WHEATLAND", "addr:country": "US", "addr:postcode": "82201", "addr:state": "WY", "addr:street_address": "852 WALNUT ST", "amenity": "post_box", "brand": "United States Postal Service", "brand:wikidata": "Q668687", "collection_times": "Mo-Fr 17:30; Sa 14:00", "note": "ON 12/24 AND 12/31, THIS BOX MAY BE COLLECTED AS EARLY AS 12 NOON.", "nsi_id": "unitedstatespostalservice-a77078", "operator": "United States Postal Service", "operator:short": "USPS", "operator:type": "public", "operator:wikidata": "Q668687", "ref": "8220100000"}, "type": "Feature"}
{"geometry": {"coordinates": [-104.95232, 42.056435], "type": "Point"}, "id": "pwLIlQw1q44RWXjJLxfTzPzZCYo=", "properties": {"@source_uri": "https://tools.usps.com/UspsToolsRestServices/rest/POLocator/findLocations", "@spider": "usps_collection_boxes", "addr:city": "WHEATLAND", "addr:country": "US", "addr:postcode": "82201", "addr:state": "WY", "addr:street_address": "852 WALNUT ST", "amenity": "post_box", "brand": "United States Postal Service", "brand:wikidata": "Q668687", "collection_times": "Mo-Fr 17:30; Sa 14:00", "indoor": "yes", "note": "ON 12/24 AND 12/31, THIS BOX MAY BE COLLECTED AS EARLY AS 12 NOON.", "nsi_id": "unitedstatespostalservice-a77078", "operator": "United States Postal Service", "operator:short": "USPS", "operator:type": "public", "operator:wikidata": "Q668687", "ref": "8220100002"}, "type": "Feature"}
{"geometry": {"coordinates": [-104.952331, 42.056418], "type": "Point"}, "id": "nJWBpkam9_PEmW5UVQv4ObblBMw=", "properties": {"@source_uri": "https://tools.usps.com/UspsToolsRestServices/rest/POLocator/findLocations", "@spider": "usps_collection_boxes", "addr:city": "WHEATLAND", "addr:country": "US", "addr:postcode": "82201", "addr:state": "WY", "addr:street_address": "852 WALNUT ST", "amenity": "post_box", "brand": "United States Postal Service", "brand:wikidata": "Q668687", "collection_times": "Mo-Fr 17:30; Sa 14:00", "indoor": "yes", "note": "ON 12/24 AND 12/31, THIS BOX MAY BE COLLECTED AS EARLY AS 12 NOON.", "nsi_id": "unitedstatespostalservice-a77078", "operator": "United States Postal Service", "operator:short": "USPS", "operator:type": "public", "operator:wikidata": "Q668687", "ref": "8220100003"}, "type": "Feature"}
{"geometry": {"coordinates": [-104.952026, 42.056508], "type": "Point"}, "id": "4ugGNowO5iGfBBSSlezZtKp-Npc=", "properties": {"@source_uri": "https://tools.usps.com/UspsToolsRestServices/rest/POLocator/findLocations", "@spider": "usps_collection_boxes", "addr:city": "WHEATLAND", "addr:country": "US", "addr:postcode": "82201", "addr:state": "WY", "addr:street_address": "852 WALNUT ST", "amenity": "post_box", "brand": "United States Postal Service", "brand:wikidata": "Q668687", "collection_times": "Mo-Fr 17:30; Sa 14:00", "note": "ON 12/24 AND 12/31, THIS BOX MAY BE COLLECTED AS EARLY AS 12 NOON.", "nsi_id": "unitedstatespostalservice-a77078", "operator": "United States Postal Service", "operator:short": "USPS", "operator:type": "public", "operator:wikidata": "Q668687", "ref": "8220100004"}, "type": "Feature"}
{"geometry": {"coordinates": [-104.823825, 41.756346], "type": "Point"}, "id": "SgPWhB00_T3RvmRgArXCp4LbA4o=", "properties": {"@source_uri": "https://tools.usps.com/UspsToolsRestServices/rest/POLocator/findLocations", "@spider": "usps_collection_boxes", "addr:city": "CHUGWATER", "addr:country": "US", "addr:postcode": "82210", "addr:state": "WY", "addr:street_address": "237 2ND ST", "amenity": "post_box", "brand": "United States Postal Service", "brand:wikidata": "Q668687", "collection_times": "Mo-Fr 15:00; Sa 09:30", "indoor": "yes", "note": "ON 12/24 AND 12/31, THIS BOX MAY BE COLLECTED AS EARLY AS 12 NOON.", "nsi_id": "unitedstatespostalservice-a77078", "operator": "United States Postal Service", "operator:short": "USPS", "operator:type": "public", "operator:wikidata": "Q668687", "ref": "8221000000"}, "type": "Feature"}
{"geometry": {"coordinates": [-104.516952, 42.212752], "type": "Point"}, "id": "RJXzA4QGeKlCxIW7P4gCGyxQpUc=", "properties": {"@source_uri": "https://tools.usps.com/UspsToolsRestServices/rest/POLocator/findLocations", "@spider": "usps_collection_boxes", "addr:city": "FORT LARAMIE", "addr:country": "US", "addr:postcode": "82212", "addr:state": "WY", "addr:street_address": "105 E MERRIAM ST", "amenity": "post_box", "brand": "United States Postal Service", "brand:wikidata": "Q668687", "collection_times": "Mo-Fr 10:45; Sa 09:45", "indoor": "yes", "nsi_id": "unitedstatespostalservice-a77078", "operator": "United States Postal Service", "operator:short": "USPS", "operator:type": "public", "operator:wikidata": "Q668687", "ref": "8221200000"}, "type": "Feature"}
{"geometry": {"coordinates": [-105.026169, 42.503458], "type": "Point"}, "id": "0YEPfV5KvRxaTR2xJ1nwv3t2DF8=", "properties": {"@source_uri": "https://tools.usps.com/UspsToolsRestServices/rest/POLocator/findLocations", "@spider": "usps_collection_boxes", "addr:city": "GLENDO", "addr:country": "US", "addr:postcode": "82213", "addr:state": "WY", "addr:street_address": "118 N YELLOWSTONE HWY", "amenity": "post_box", "brand": "United States Postal Service", "brand:wikidata": "Q668687", "collection_times": "Mo-Fr 15:15; Sa 10:15", "note": "ON 12/24 AND 12/31, THIS BOX MAY BE COLLECTED AS EARLY AS 12 NOON.", "nsi_id": "unitedstatespostalservice-a77078", "operator": "United States Postal Service", "operator:short": "USPS", "operator:type": "public", "operator:wikidata": "Q668687", "ref": "8221300000"}, "type": "Feature"}
{"geometry": {"coordinates": [-105.026169, 42.503458], "type": "Point"}, "id": "a4KCM4ryhg1uZ2-sphBpAgJskC0=", "properties": {"@source_uri": "https://tools.usps.com/UspsToolsRestServices/rest/POLocator/findLocations", "@spider": "usps_collection_boxes", "addr:city": "GLENDO", "addr:country": "US", "addr:postcode": "82213", "addr:state": "WY", "addr:street_address": "118 N YELLOWSTONE HWY", "amenity": "post_box", "brand": "United States Postal Service", "brand:wikidata": "Q668687", "collection_times": "Mo-Fr 15:15; Sa 10:15", "indoor": "yes", "note": "ON 12/24 AND 12/31, THIS BOX MAY BE COLLECTED AS EARLY AS 12 NOON.", "nsi_id": "unitedstatespostalservice-a77078", "operator": "United States Postal Service", "operator:short": "USPS", "operator:type": "public", "operator:wikidata": "Q668687", "ref": "8221300001"}, "type": "Feature"}
{"geometry": {"coordinates": [-104.741596, 42.268732], "type": "Point"}, "id": "a4UTxIFo8UfpVBCKssH-h0Ig1Po=", "properties": {"@source_uri": "https://tools.usps.com/UspsToolsRestServices/rest/POLocator/findLocations", "@spider": "usps_collection_boxes", "addr:city": "GUERNSEY", "addr:country": "US", "addr:postcode": "82214", "addr:state": "WY", "addr:street_address": "101 S WYOMING", "amenity": "post_box", "brand": "United States Postal Service", "brand:wikidata": "Q668687", "collection_times": "Mo-Fr 15:00; Sa 09:00", "note": "ON 12/24 AND 12/31, THIS BOX MAY BE COLLECTED AS EARLY AS 12 NOON.", "nsi_id": "unitedstatespostalservice-a77078", "operator": "United States Postal Service", "operator:short": "USPS", "operator:type": "public", "operator:wikidata": "Q668687", "ref": "8221400000"}, "type": "Feature"}
{"geometry": {"coordinates": [-104.741596, 42.268732], "type": "Point"}, "id": "GotV2dY30snJB-oL_A8ahv6axnI=", "properties": {"@source_uri": "https://tools.usps.com/UspsToolsRestServices/rest/POLocator/findLocations", "@spider": "usps_collection_boxes", "addr:city": "GUERNSEY", "addr:country": "US", "addr:postcode": "82214", "addr:state": "WY", "addr:street_address": "101 S WYOMING", "amenity": "post_box", "brand": "United States Postal Service", "brand:wikidata": "Q668687", "collection_times": "Mo-Fr 15:00; Sa 09:00", "indoor": "yes", "note": "ON 12/24 AND 12/31, THIS BOX MAY BE COLLECTED AS EARLY AS 12 NOON.", "nsi_id": "unitedstatespostalservice-a77078", "operator": "United States Postal Service", "operator:short": "USPS", "operator:type": "public", "operator:wikidata": "Q668687", "ref": "8221400001"}, "type": "Feature"}
{"geometry": {"coordinates": [-104.72211, 42.328508], "type": "Point"}, "id": "-9ROf-r-99jO860usEWjCt_irDM=", "properties": {"@source_uri": "https://tools.usps.com/UspsToolsRestServices/rest/POLocator/findLocations", "@spider": "usps_collection_boxes", "addr:city": "HARTVILLE", "addr:country": "US", "addr:postcode": "82215", "addr:state": "WY", "addr:street_address": "135 MAIN ST", "amenity": "post_box", "brand": "United States Postal Service", "brand:wikidata": "Q668687", "collection_times": "Mo-Fr 10:15; Sa 09:15", "indoor": "yes", "nsi_id": "unitedstatespostalservice-a77078", "operator": "United States Postal Service", "operator:short": "USPS", "operator:type": "public", "operator:wikidata": "Q668687", "ref": "8221500000"}, "type": "Feature"}
{"geometry": {"coordinates": [-104.265845, 41.784224], "type": "Point"}, "id": "CNpaAvwXwsn_yejcTqju7aTGAuA=", "properties": {"@source_uri": "https://tools.usps.com/UspsToolsRestServices/rest/POLocator/findLocations", "@spider": "usps_collection_boxes", "addr:city": "HAWK SPRINGS", "addr:country": "US", "addr:postcode": "82217", "addr:state": "WY", "addr:street_address": "114 RAILWAY ST", "amenity": "post_box", "brand": "United States Postal Service", "brand:wikidata": "Q668687", "collection_times": "Mo-Fr 11:45; Sa 10:15", "indoor": "yes", "nsi_id": "unitedstatespostalservice-a77078", "operator": "United States Postal Service", "operator:short": "USPS", "operator:type": "public", "operator:wikidata": "Q668687", "ref": "8221700000"}, "type": "Feature"}
{"geometry": {"coordinates": [-104.265845, 41.784224], "type": "Point"}, "id": "3LKMt_ohnO39uw0oTsLdrkxdc_o=", "properties": {"@source_uri": "https://tools.usps.com/UspsToolsRestServices/rest/POLocator/findLocations", "@spider": "usps_collection_boxes", "addr:city": "HAWK SPRINGS", "addr:country": "US", "addr:postcode": "82217", "addr:state": "WY", "addr:street_address": "114 RAILWAY ST", "amenity": "post_box", "brand": "United States Postal Service", "brand:wikidata": "Q668687", "collection_times": "Mo-Fr 11:45; Sa 10:15", "nsi_id": "unitedstatespostalservice-a77078", "operator": "United States Postal Service", "operator:short": "USPS", "operator:type": "public", "operator:wikidata": "Q668687", "ref": "8221700001"}, "type": "Feature"}
{"geometry": {"coordinates": [-104.146949, 41.933768], "type": "Point"}, "id": "19AOMW0MpjSa9353rPCDpqRsqM4=", "properties": {"@source_uri": "https://tools.usps.com/UspsToolsRestServices/rest/POLocator/findLocations", "@spider": "usps_collection_boxes", "addr:city": "HUNTLEY", "addr:country": "US", "addr:postcode": "82218", "addr:state": "WY", "addr:street_address": "245 BROADWAY", "amenity": "post_box", "brand": "United States Postal Service", "brand:wikidata": "Q668687", "collection_times": "Mo-Fr 12:00; Sa 11:30", "indoor": "yes", "nsi_id": "unitedstatespostalservice-a77078", "operator": "United States Postal Service", "operator:short": "USPS", "operator:type": "public", "operator:wikidata": "Q668687", "ref": "8221800001"}, "type": "Feature"}
{"geometry": {"coordinates": [-104.369332, 42.461627], "type": "Point"}, "id": "OQWSPtVMmvNeC4Amg3lBeeTr8ao=", "properties": {"@source_uri": "https://tools.usps.com/UspsToolsRestServices/rest/POLocator/findLocations", "@spider": "usps_collection_boxes", "addr:city": "JAY EM", "addr:country": "US", "addr:postcode": "82219", "addr:state": "WY", "addr:street_address": "220 AUTUMN ST", "amenity": "post_box", "brand": "United States Postal Service", "brand:wikidata": "Q668687", "collection_times": "Mo-Fr 10:30; Sa 10:00", "indoor": "yes", "nsi_id": "unitedstatespostalservice-a77078", "operator": "United States Postal Service", "operator:short": "USPS", "operator:type": "public", "operator:wikidata": "Q668687", "ref": "8221900000"}, "type": "Feature"}
{"geometry": {"coordinates": [-104.16358, 41.637901], "type": "Point"}, "id": "RRRMJ1HNSsq5CATap4Sdi4yop3g=", "properties": {"@source_uri": "https://tools.usps.com/UspsToolsRestServices/rest/POLocator/findLocations", "@spider": "usps_collection_boxes", "addr:city": "LAGRANGE", "addr:country": "US", "addr:postcode": "82221", "addr:state": "WY", "addr:street_address": "201 5TH AVE", "amenity": "post_box", "brand": "United States Postal Service", "brand:wikidata": "Q668687", "collection_times": "Mo-Fr 14:00; Sa 10:00", "indoor": "yes", "note": "ON 12/24 AND 12/31, THIS BOX MAY BE COLLECTED AS EARLY AS 12 NOON.", "nsi_id": "unitedstatespostalservice-a77078", "operator": "United States Postal Service", "operator:short": "USPS", "operator:type": "public", "operator:wikidata": "Q668687", "ref": "8222100001"}, "type": "Feature"}
{"geometry": {"coordinates": [-104.6474459975, 43.0332379895], "type": "Point"}, "id": "-bdB7fexMThyGL5aJLlk14K4jrU=", "properties": {"@source_uri": "https://tools.usps.com/UspsToolsRestServices/rest/POLocator/findLocations", "@spider": "usps_collection_boxes", "addr:city": "LANCE CREEK", "addr:country": "US", "addr:postcode": "82222", "addr:state": "WY", "addr:street_address": "1805 HIGHWAY 270", "amenity": "post_box", "brand": "United States Postal Service", "brand:wikidata": "Q668687", "collection_times": "Mo-Fr 11:45; Sa 10:30", "nsi_id": "unitedstatespostalservice-a77078", "operator": "United States Postal Service", "operator:short": "USPS", "operator:type": "public", "operator:wikidata": "Q668687", "ref": "8222200000"}, "type": "Feature"}
{"geometry": {"coordinates": [-104.6474459975, 43.0332379895], "type": "Point"}, "id": "YgrVtDd8-7cPmjogEqjOjqfIpR8=", "properties": {"@source_uri": "https://tools.usps.com/UspsToolsRestServices/rest/POLocator/findLocations", "@spider": "usps_collection_boxes", "addr:city": "LANCE CREEK", "addr:country": "US", "addr:postcode": "82222", "addr:state": "WY", "addr:street_address": "1805 HIGHWAY 270", "amenity": "post_box", "brand": "United States Postal Service", "brand:wikidata": "Q668687", "collection_times": "Mo-Fr 11:45; Sa 10:15", "indoor": "yes", "nsi_id": "unitedstatespostalservice-a77078", "operator": "United States Postal Service", "operator:short": "USPS", "operator:type": "public", "operator:wikidata": "Q668687", "ref": "8222200001"}, "type": "Feature"}
{"geometry": {"coordinates": [-104.345484, 42.13523], "type": "Point"}, "id": "6gvR9dX2_OIvit4rnBrkVL58vgs=", "properties": {"@source_uri": "https://tools.usps.com/UspsToolsRestServices/rest/POLocator/findLocations", "@spider": "usps_collection_boxes", "addr:city": "LINGLE", "addr:country": "US", "addr:postcode": "82223", "addr:state": "WY", "addr:street_address": "209 MAIN ST", "amenity": "post_box", "brand": "United States Postal Service", "brand:wikidata": "Q668687", "collection_times": "Mo-Fr 16:00; Sa 10:00", "note": "ON 12/24 AND 12/31, THIS BOX MAY BE COLLECTED AS EARLY AS 12 NOON.", "nsi_id": "unitedstatespostalservice-a77078", "operator": "United States Postal Service", "operator:short": "USPS", "operator:type": "public", "operator:wikidata": "Q668687", "ref": "8222300000"}, "type": "Feature"}
{"geometry": {"coordinates": [-104.345484, 42.13523], "type": "Point"}, "id": "8BKDOG8u6mhF4sxL70a8-OPR9Cc=", "properties": {"@source_uri": "https://tools.usps.com/UspsToolsRestServices/rest/POLocator/findLocations", "@spider": "usps_collection_boxes", "addr:city": "LINGLE", "addr:country": "US", "addr:postcode": "82223", "addr:state": "WY", "addr:street_address": "209 MAIN ST", "amenity": "post_box", "brand": "United States Postal Service", "brand:wikidata": "Q668687", "collection_times": "Mo-Fr 16:00; Sa 10:00", "indoor": "yes", "note": "ON 12/24 AND 12/31, THIS BOX MAY BE COLLECTED AS EARLY AS 12 NOON.", "nsi_id": "unitedstatespostalservice-a77078", "operator": "United States Postal Service", "operator:short": "USPS", "operator:type": "public", "operator:wikidata": "Q668687", "ref": "8222300001"}, "type": "Feature"}
{"geometry": {"coordinates": [-104.452388, 42.762591], "type": "Point"}, "id": "s5LP4zRSRrMizp0fSRKIZ4K9Jhg=", "properties": {"@source_uri": "https://tools.usps.com/UspsToolsRestServices/rest/POLocator/findLocations", "@spider": "usps_collection_boxes", "addr:city": "LUSK", "addr:country": "US", "addr:postcode": "82225", "addr:state": "WY", "addr:street_address": "116 W 3RD ST", "amenity": "post_box", "brand": "United States Postal Service", "brand:wikidata": "Q668687", "collection_times": "Mo-Fr 15:00; Sa 10:00", "indoor": "yes", "note": "ON 12/24 AND 12/31, THIS BOX MAY BE COLLECTED AS EARLY AS 12 NOON.", "nsi_id": "unitedstatespostalservice-a77078", "operator": "United States Postal Service", "operator:short": "USPS", "operator:type": "public", "operator:wikidata": "Q668687", "ref": "8222500000"}, "type": "Feature"}
{"geometry": {"coordinates": [-104.452388, 42.762591], "type": "Point"}, "id": "ExCcZNzFC97B2ZRdkjNe7_judeQ=", "properties": {"@source_uri": "https://tools.usps.com/UspsToolsRestServices/rest/POLocator/findLocations", "@spider": "usps_collection_boxes", "addr:city": "LUSK", "addr:country": "US", "addr:postcode": "82225", "addr:state": "WY", "addr:street_address": "116 W 3RD ST", "amenity": "post_box", "brand": "United States Postal Service", "brand:wikidata": "Q668687", "collection_times": "Mo-Fr 15:00; Sa 10:00", "note": "ON 12/24 AND 12/31, THIS BOX MAY BE COLLECTED AS EARLY AS 12 NOON.", "nsi_id": "unitedstatespostalservice-a77078", "operator": "United States Postal Service", "operator:short": "USPS", "operator:type": "public", "operator:wikidata": "Q668687", "ref": "8222500001"}, "type": "Feature"}
{"geometry": {"coordinates": [-104.452388, 42.762591], "type": "Point"}, "id": "WFDziBQQSqEkFphT8HSz5sr9nCE=", "properties": {"@source_uri": "https://tools.usps.com/UspsToolsRestServices/rest/POLocator/findLocations", "@spider": "usps_collection_boxes", "addr:city": "LUSK", "addr:country": "US", "addr:postcode": "82225", "addr:state": "WY", "addr:street_address": "116 W 3RD ST", "amenity": "post_box", "brand": "United States Postal Service", "brand:wikidata": "Q668687", "collection_times": "Mo-Fr 15:00; Sa 10:00", "indoor": "yes", "note": "ON 12/24 AND 12/31, THIS BOX MAY BE COLLECTED AS EARLY AS 12 NOON.", "nsi_id": "unitedstatespostalservice-a77078", "operator": "United States Postal Service", "operator:short": "USPS", "operator:type": "public", "operator:wikidata": "Q668687", "ref": "8222500002"}, "type": "Feature"}
{"geometry": {"coordinates": [-104.452388, 42.762591], "type": "Point"}, "id": "GmF7r0016Kz9mLb4IKdOAxtTgco=", "properties": {"@source_uri": "https://tools.usps.com/UspsToolsRestServices/rest/POLocator/findLocations", "@spider": "usps_collection_boxes", "addr:city": "LUSK", "addr:country": "US", "addr:postcode": "82225", "addr:state": "WY", "addr:street_address": "116 W 3RD ST", "amenity": "post_box", "brand": "United States Postal Service", "brand:wikidata": "Q668687", "collection_times": "Mo-Fr 15:00; Sa 10:00", "indoor": "yes", "note": "ON 12/24 AND 12/31, THIS BOX MAY BE COLLECTED AS EARLY AS 12 NOON.", "nsi_id": "unitedstatespostalservice-a77078", "operator": "United States Postal Service", "operator:short": "USPS", "operator:type": "public", "operator:wikidata": "Q668687", "ref": "8222500003"}, "type": "Feature"}
{"geometry": {"coordinates": [-104.451944, 42.761012], "type": "Point"}, "id": "Uo28fE2y-3WDHfCo7S21rgLmnME=", "properties": {"@source_uri": "https://tools.usps.com/UspsToolsRestServices/rest/POLocator/findLocations", "@spider": "usps_collection_boxes", "addr:city": "LUSK", "addr:country": "US", "addr:postcode": "82225", "addr:state": "WY", "addr:street_address": "405 S MAIN ST", "amenity": "post_box", "brand": "United States Postal Service", "brand:wikidata": "Q668687", "collection_times": "Mo-Fr 10:30; Sa 10:00", "nsi_id": "unitedstatespostalservice-a77078", "operator": "United States Postal Service", "operator:short": "USPS", "operator:type": "public", "operator:wikidata": "Q668687", "ref": "8222500004"}, "type": "Feature"}
{"geometry": {"coordinates": [-104.6148549787, 42.7773549979], "type": "Point"}, "id": "QEHsI0ZTm5ui3fYWXIhD-ZOT_Wg=", "properties": {"@source_uri": "https://tools.usps.com/UspsToolsRestServices/rest/POLocator/findLocations", "@spider": "usps_collection_boxes", "addr:city": "MANVILLE", "addr:country": "US", "addr:postcode": "82227", "addr:state": "WY", "addr:street_address": "225 9TH AVE", "amenity": "post_box", "brand": "United States Postal Service", "brand:wikidata": "Q668687", "collection_times": "Mo-Fr 12:00; Sa 10:30", "nsi_id": "unitedstatespostalservice-a77078", "operator": "United States Postal Service", "operator:short": "USPS", "operator:type": "public", "operator:wikidata": "Q668687", "ref": "8222700000"}, "type": "Feature"}
{"geometry": {"coordinates": [-104.6148549787, 42.7773549979], "type": "Point"}, "id": "OxOLoO8TX27PDUQxVHjTMyWEzWc=", "properties": {"@source_uri": "https://tools.usps.com/UspsToolsRestServices/rest/POLocator/findLocations", "@spider": "usps_collection_boxes", "addr:city": "MANVILLE", "addr:country": "US", "addr:postcode": "82227", "addr:state": "WY", "addr:street_address": "225 9TH AVE", "amenity": "post_box", "brand": "United States Postal Service", "brand:wikidata": "Q668687", "collection_times": "Mo-Fr 11:30; Sa 10:30", "indoor": "yes", "nsi_id": "unitedstatespostalservice-a77078", "operator": "United States Postal Service", "operator:short": "USPS", "operator:type": "public", "operator:wikidata": "Q668687", "ref": "8222700001"}, "type": "Feature"}
{"geometry": {"coordinates": [-104.184365, 42.065669], "type": "Point"}, "id": "MpBn7w5OF9MjouWjGihkOQBTDoY=", "properties": {"@source_uri": "https://tools.usps.com/UspsToolsRestServices/rest/POLocator/findLocations", "@spider": "usps_collection_boxes", "addr:city": "TORRINGTON", "addr:country": "US", "addr:postcode": "82240", "addr:state": "WY", "addr:street_address": "2145 MAIN ST", "amenity": "post_box", "brand": "United States Postal Service", "brand:wikidata": "Q668687", "collection_times": "Mo-Fr 16:00; Sa 12:00", "note": "ON 12/24 AND 12/31, THIS BOX MAY BE COLLECTED AS EARLY AS 12 NOON.", "nsi_id": "unitedstatespostalservice-a77078", "operator": "United States Postal Service", "operator:short": "USPS", "operator:type": "public", "operator:wikidata": "Q668687", "ref": "8224000009"}, "type": "Feature"}
{"geometry": {"coordinates": [-104.184365, 42.065669], "type": "Point"}, "id": "0y7lRhlnPz_W_aHmVlUFtYbLzDI=", "properties": {"@source_uri": "https://tools.usps.com/UspsToolsRestServices/rest/POLocator/findLocations", "@spider": "usps_collection_boxes", "addr:city": "TORRINGTON", "addr:country": "US", "addr:postcode": "82240", "addr:state": "WY", "addr:street_address": "2145 MAIN ST", "amenity": "post_box", "brand": "United States Postal Service", "brand:wikidata": "Q668687", "collection_times": "Mo-Fr 16:00; Sa 12:00", "note": "ON 12/24 AND 12/31, THIS BOX MAY BE COLLECTED AS EARLY AS 12 NOON.", "nsi_id": "unitedstatespostalservice-a77078", "operator": "United States Postal Service", "operator:short": "USPS", "operator:type": "public", "operator:wikidata": "Q668687", "ref": "8224000010"}, "type": "Feature"}
{"geometry": {"coordinates": [-104.184365, 42.065669], "type": "Point"}, "id": "3QgraAYl98N1Uo6fEusC5Aef2SU=", "properties": {"@source_uri": "https://tools.usps.com/UspsToolsRestServices/rest/POLocator/findLocations", "@spider": "usps_collection_boxes", "addr:city": "TORRINGTON", "addr:country": "US", "addr:postcode": "82240", "addr:state": "WY", "addr:street_address": "2145 MAIN ST", "amenity": "post_box", "brand": "United States Postal Service", "brand:wikidata": "Q668687", "collection_times": "Mo-Fr 16:00; Sa 12:00", "note": "ON 12/24 AND 12/31, THIS BOX MAY BE COLLECTED AS EARLY AS 12 NOON.", "nsi_id": "unitedstatespostalservice-a77078", "operator": "United States Postal Service", "operator:short": "USPS", "operator:type": "public", "operator:wikidata": "Q668687", "ref": "8224000011"}, "type": "Feature"}
{"geometry": {"coordinates": [-104.184365, 42.065669], "type": "Point"}, "id": "I7T6u8KkPZhZbuz8Ovr2YNgMaqY=", "properties": {"@source_uri": "https://tools.usps.com/UspsToolsRestServices/rest/POLocator/findLocations", "@spider": "usps_collection_boxes", "addr:city": "TORRINGTON", "addr:country": "US", "addr:postcode": "82240", "addr:state": "WY", "addr:street_address": "2145 MAIN ST", "amenity": "post_box", "brand": "United States Postal Service", "brand:wikidata": "Q668687", "collection_times": "Mo-Fr 16:00; Sa 12:00", "indoor": "yes", "note": "ON 12/24 AND 12/31, THIS BOX MAY BE COLLECTED AS EARLY AS 12 NOON.", "nsi_id": "unitedstatespostalservice-a77078", "operator": "United States Postal Service", "operator:short": "USPS", "operator:type": "public", "operator:wikidata": "Q668687", "ref": "8224000012"}, "type": "Feature"}
{"geometry": {"coordinates": [-104.184365, 42.065669], "type": "Point"}, "id": "dJNoS0cEwuCyhJaAWn3Y7VBiUxc=", "properties": {"@source_uri": "https://tools.usps.com/UspsToolsRestServices/rest/POLocator/findLocations", "@spider": "usps_collection_boxes", "addr:city": "TORRINGTON", "addr:country": "US", "addr:postcode": "82240", "addr:state": "WY", "addr:street_address": "2145 MAIN ST", "amenity": "post_box", "brand": "United States Postal Service", "brand:wikidata": "Q668687", "collection_times": "Mo-Fr 16:00; Sa 12:00", "indoor": "yes", "note": "ON 12/24 AND 12/31, THIS BOX MAY BE COLLECTED AS EARLY AS 12 NOON.", "nsi_id": "unitedstatespostalservice-a77078", "operator": "United States Postal Service", "operator:short": "USPS", "operator:type": "public", "operator:wikidata": "Q668687", "ref": "8224000013"}, "type": "Feature"}
{"geometry": {"coordinates": [-104.184365, 42.065669], "type": "Point"}, "id": "_JuPJKX8GH_3mGFgAtnLdAfiUOM=", "properties": {"@source_uri": "https://tools.usps.com/UspsToolsRestServices/rest/POLocator/findLocations", "@spider": "usps_collection_boxes", "addr:city": "TORRINGTON", "addr:country": "US", "addr:postcode": "82240", "addr:state": "WY", "addr:street_address": "2145 MAIN ST", "amenity": "post_box", "brand": "United States Postal Service", "brand:wikidata": "Q668687", "collection_times": "Mo-Fr 16:00; Sa 12:00", "indoor": "yes", "note": "ON 12/24 AND 12/31, THIS BOX MAY BE COLLECTED AS EARLY AS 12 NOON.", "nsi_id": "unitedstatespostalservice-a77078", "operator": "United States Postal Service", "operator:short": "USPS", "operator:type": "public", "operator:wikidata": "Q668687", "ref": "8224000014"}, "type": "Feature"}
{"geometry": {"coordinates": [-104.3620701961, 41.9740690113], "type": "Point"}, "id": "GkqjgYeFnCtT34hURgopJ0surKk=", "properties": {"@source_uri": "https://tools.usps.com/UspsToolsRestServices/rest/POLocator/findLocations", "@spider": "usps_collection_boxes", "addr:city": "VETERAN", "addr:country": "US", "addr:postcode": "82243", "addr:state": "WY", "addr:street_address": "' HWY 154", "amenity": "post_box", "brand": "United States Postal Service", "brand:wikidata": "Q668687", "collection_times": "Mo-Fr 11:15; Sa 11:00", "indoor": "yes", "nsi_id": "unitedstatespostalservice-a77078", "operator": "United States Postal Service", "operator:short": "USPS", "operator:type": "public", "operator:wikidata": "Q668687", "ref": "8224300000"}, "type": "Feature"}
{"geometry": {"coordinates": [-104.3620701961, 41.9740690113], "type": "Point"}, "id": "aD8cnfzkAZ91asEAcOAVOhV0lps=", "properties": {"@source_uri": "https://tools.usps.com/UspsToolsRestServices/rest/POLocator/findLocations", "@spider": "usps_collection_boxes", "addr:city": "VETERAN", "addr:country": "US", "addr:postcode": "82243", "addr:state": "WY", "addr:street_address": "' HWY 154", "amenity": "post_box", "brand": "United States Postal Service", "brand:wikidata": "Q668687", "collection_times": "Mo-Fr 11:15; Sa 11:00", "indoor": "yes", "nsi_id": "unitedstatespostalservice-a77078", "operator": "United States Postal Service", "operator:short": "USPS", "operator:type": "public", "operator:wikidata": "Q668687", "ref": "8224300001"}, "type": "Feature"}
{"geometry": {"coordinates": [-104.5045124183, 41.9872538963], "type": "Point"}, "id": "Mn2oztc5R8jQzl3mZ4lgHwo8hYc=", "properties": {"@source_uri": "https://tools.usps.com/UspsToolsRestServices/rest/POLocator/findLocations", "@spider": "usps_collection_boxes", "addr:city": "YODER", "addr:country": "US", "addr:postcode": "82244", "addr:state": "WY", "addr:street_address": "PO BOX 9998", "amenity": "post_box", "brand": "United States Postal Service", "brand:wikidata": "Q668687", "collection_times": "Mo-Fr 10:45; Sa 09:15", "indoor": "yes", "nsi_id": "unitedstatespostalservice-a77078", "operator": "United States Postal Service", "operator:short": "USPS", "operator:type": "public", "operator:wikidata": "Q668687", "ref": "8224400000"}, "type": "Feature"}
