{"dataset_attributes": {"@spider": "usps_collection_boxes", "spider:collection_time": "2023-11-04T08:23:02.835734"}, "geometry": {"coordinates": [-107.239967, 41.786712], "type": "Point"}, "id": "7lk4ifIIUp1tZYmJ8am_QhKfQmE=", "properties": {"@spider": "usps_collection_boxes", "addr:city": "RAWLINS", "addr:country": "US", "addr:full": "106 5TH ST", "addr:postcode": "82301", "addr:state": "WY", "amenity": "post_box", "brand": "United States Postal Service", "brand:wikidata": "Q668687", "collection_times": "Mo-Fr 16:45; Sa 13:30", "name": "USPS COLLECTION BOX - BLUE BOX", "note": "ON 12/24 AND 12/31, THIS BOX MAY BE COLLECTED AS EARLY AS 12 NOON.", "nsi_id": "unitedstatespostalservice-a77078", "operator": "United States Postal Service", "operator:short": "USPS", "operator:type": "public", "operator:wikidata": "Q668687", "ref": "8230100000"}, "type": "Feature"}
{"dataset_attributes": {"@spider": "usps_collection_boxes", "spider:collection_time": "2023-11-04T08:23:02.835734"}, "geometry": {"coordinates": [-107.2404099486, 41.7876347427], "type": "Point"}, "id": "7xIqisRXreo3ABUZUQNSzj2CiTM=", "properties": {"@spider": "usps_collection_boxes", "addr:city": "RAWLINS", "addr:country": "US", "addr:full": "521 W CEDAR ST", "addr:postcode": "82301", "addr:state": "WY", "amenity": "post_box", "brand": "United States Postal Service", "brand:wikidata": "Q668687", "collection_times": "Mo-Fr 14:00; Sa 10:30", "name": "USPS COLLECTION BOX - BLUE BOX", "note": "ON 12/24 AND 12/31, THIS BOX MAY BE COLLECTED AS EARLY AS 12 NOON.", "nsi_id": "unitedstatespostalservice-a77078", "operator": "United States Postal Service", "operator:short": "USPS", "operator:type": "public", "operator:wikidata": "Q668687", "ref": "8230100002"}, "type": "Feature"}
{"dataset_attributes": {"@spider": "usps_collection_boxes", "spider:collection_time": "2023-11-04T08:23:02.835734"}, "geometry": {"coordinates": [-107.2370845832, 41.7893831969], "type": "Point"}, "id": "ccyv9Sw4mdYgn-DUK8M1gqdGYnY=", "properties": {"@spider": "usps_collection_boxes", "addr:city": "RAWLINS", "addr:country": "US", "addr:full": "215 W BUFFALO ST", "addr:postcode": "82301", "addr:state": "WY", "amenity": "post_box", "brand": "United States Postal Service", "brand:wikidata": "Q668687", "collection_times": "Mo-Fr 14:00; Sa 10:30", "name": "USPS COLLECTION BOX - BLUE BOX", "note": "ON 12/24 AND 12/31, THIS BOX MAY BE COLLECTED AS EARLY AS 12 NOON.", "nsi_id": "unitedstatespostalservice-a77078", "operator": "United States Postal Service", "operator:short": "USPS", "operator:type": "public", "operator:wikidata": "Q668687", "ref": "8230100003"}, "type": "Feature"}
{"dataset_attributes": {"@spider": "usps_collection_boxes", "spider:collection_time": "2023-11-04T08:23:02.835734"}, "geometry": {"coordinates": [-107.2398687433, 41.7897947025], "type": "Point"}, "id": "PON7VWL4ANthu5LDA780OjUofAs=", "properties": {"@spider": "usps_collection_boxes", "addr:city": "RAWLINS", "addr:country": "US", "addr:full": "415 W PINE ST", "addr:postcode": "82301", "addr:state": "WY", "amenity": "post_box", "brand": "United States Postal Service", "brand:wikidata": "Q668687", "collection_times": "Mo-Fr 14:00; Sa 10:30", "name": "USPS COLLECTION BOX - BLUE BOX", "note": "ON 12/24 AND 12/31, THIS BOX MAY BE COLLECTED AS EARLY AS 12 NOON.", "nsi_id": "unitedstatespostalservice-a77078", "operator": "United States Postal Service", "operator:short": "USPS", "operator:type": "public", "operator:wikidata": "Q668687", "ref": "8230100004"}, "type": "Feature"}
{"dataset_attributes": {"@spider": "usps_collection_boxes", "spider:collection_time": "2023-11-04T08:23:02.835734"}, "geometry": {"coordinates": [-107.2173560351, 41.7946180058], "type": "Point"}, "id": "lnpd5lwPEtAjOEXJQh0xBn9f3aY=", "properties": {"@spider": "usps_collection_boxes", "addr:city": "RAWLINS", "addr:country": "US", "addr:full": "602 N HIGLEY BLVD", "addr:postcode": "82301", "addr:state": "WY", "amenity": "post_box", "brand": "United States Postal Service", "brand:wikidata": "Q668687", "collection_times": "Mo-Fr 14:00; Sa 10:30", "name": "USPS COLLECTION BOX - BLUE BOX", "note": "ON 12/24 AND 12/31, THIS BOX MAY BE COLLECTED AS EARLY AS 12 NOON.", "nsi_id": "unitedstatespostalservice-a77078", "operator": "United States Postal Service", "operator:short": "USPS", "operator:type": "public", "operator:wikidata": "Q668687", "ref": "8230100010"}, "type": "Feature"}
{"dataset_attributes": {"@spider": "usps_collection_boxes", "spider:collection_time": "2023-11-04T08:23:02.835734"}, "geometry": {"coordinates": [-107.239964, 41.786717], "type": "Point"}, "id": "U8rGPpOYxMnTdqOkzmWFs3paguk=", "properties": {"@spider": "usps_collection_boxes", "addr:city": "RAWLINS", "addr:country": "US", "addr:full": "106 5TH ST", "addr:postcode": "82301", "addr:state": "WY", "amenity": "post_box", "brand": "United States Postal Service", "brand:wikidata": "Q668687", "collection_times": "Mo-Fr 16:45; Sa 13:30", "name": "USPS COLLECTION BOX - BLUE BOX", "note": "ON 12/24 AND 12/31, THIS BOX MAY BE COLLECTED AS EARLY AS 12 NOON.", "nsi_id": "unitedstatespostalservice-a77078", "operator": "United States Postal Service", "operator:short": "USPS", "operator:type": "public", "operator:wikidata": "Q668687", "ref": "8230100023"}, "type": "Feature"}
{"dataset_attributes": {"@spider": "usps_collection_boxes", "spider:collection_time": "2023-11-04T08:23:02.835734"}, "geometry": {"coordinates": [-107.240256, 41.786753], "type": "Point"}, "id": "1M3E_7g_uu-bd_5r0JFOYCssMMU=", "properties": {"@spider": "usps_collection_boxes", "addr:city": "RAWLINS", "addr:country": "US", "addr:full": "106 5TH ST", "addr:postcode": "82301", "addr:state": "WY", "amenity": "post_box", "brand": "United States Postal Service", "brand:wikidata": "Q668687", "collection_times": "Mo-Fr 16:20; Sa 13:30", "name": "USPS COLLECTION BOX - PO LOBBY", "note": "ON 12/24 AND 12/31, THIS BOX MAY BE COLLECTED AS EARLY AS 12 NOON.", "nsi_id": "unitedstatespostalservice-a77078", "operator": "United States Postal Service", "operator:short": "USPS", "operator:type": "public", "operator:wikidata": "Q668687", "ref": "8230100024"}, "type": "Feature"}
{"dataset_attributes": {"@spider": "usps_collection_boxes", "spider:collection_time": "2023-11-04T08:23:02.835734"}, "geometry": {"coordinates": [-107.240211, 41.78678], "type": "Point"}, "id": "yUD1Nrzo4hc58ZkQCF3kMXJkb8Q=", "properties": {"@spider": "usps_collection_boxes", "addr:city": "RAWLINS", "addr:country": "US", "addr:full": "106 5TH ST", "addr:postcode": "82301", "addr:state": "WY", "amenity": "post_box", "brand": "United States Postal Service", "brand:wikidata": "Q668687", "collection_times": "Mo-Fr 16:20; Sa 13:30", "name": "USPS COLLECTION BOX - PO LOBBY", "note": "ON 12/24 AND 12/31, THIS BOX MAY BE COLLECTED AS EARLY AS 12 NOON.", "nsi_id": "unitedstatespostalservice-a77078", "operator": "United States Postal Service", "operator:short": "USPS", "operator:type": "public", "operator:wikidata": "Q668687", "ref": "8230100025"}, "type": "Feature"}
{"dataset_attributes": {"@spider": "usps_collection_boxes", "spider:collection_time": "2023-11-04T08:23:02.835734"}, "geometry": {"coordinates": [-107.240218, 41.786844], "type": "Point"}, "id": "vKWnsdOy-DBvCaRm29t9FipKx1o=", "properties": {"@spider": "usps_collection_boxes", "addr:city": "RAWLINS", "addr:country": "US", "addr:full": "106 5TH ST", "addr:postcode": "82301", "addr:state": "WY", "amenity": "post_box", "brand": "United States Postal Service", "brand:wikidata": "Q668687", "collection_times": "Mo-Fr 16:20; Sa 13:30", "name": "USPS COLLECTION BOX - PO LOBBY", "note": "ON 12/24 AND 12/31, THIS BOX MAY BE COLLECTED AS EARLY AS 12 NOON.", "nsi_id": "unitedstatespostalservice-a77078", "operator": "United States Postal Service", "operator:short": "USPS", "operator:type": "public", "operator:wikidata": "Q668687", "ref": "8230100027"}, "type": "Feature"}
{"dataset_attributes": {"@spider": "usps_collection_boxes", "spider:collection_time": "2023-11-04T08:23:02.835734"}, "geometry": {"coordinates": [-107.657853, 41.035431], "type": "Point"}, "id": "A4mYp0pftRyA2LJgsyvw_S7Qht0=", "properties": {"@spider": "usps_collection_boxes", "addr:city": "BAGGS", "addr:country": "US", "addr:full": "55 S PENLAND ST", "addr:postcode": "82321", "addr:state": "WY", "amenity": "post_box", "brand": "United States Postal Service", "brand:wikidata": "Q668687", "collection_times": "Mo-Fr 13:50; Sa 10:00", "name": "USPS COLLECTION BOX - BLUE BOX", "note": "ON 12/24 AND 12/31, THIS BOX MAY BE COLLECTED AS EARLY AS 12 NOON.", "nsi_id": "unitedstatespostalservice-a77078", "operator": "United States Postal Service", "operator:short": "USPS", "operator:type": "public", "operator:wikidata": "Q668687", "ref": "8232100000"}, "type": "Feature"}
{"dataset_attributes": {"@spider": "usps_collection_boxes", "spider:collection_time": "2023-11-04T08:23:02.835734"}, "geometry": {"coordinates": [-107.657853, 41.035431], "type": "Point"}, "id": "ZjlO5gZvDItjVtQzOTFZATrSKRs=", "properties": {"@spider": "usps_collection_boxes", "addr:city": "BAGGS", "addr:country": "US", "addr:full": "55 S PENLAND ST", "addr:postcode": "82321", "addr:state": "WY", "amenity": "post_box", "brand": "United States Postal Service", "brand:wikidata": "Q668687", "collection_times": "Mo-Fr 13:50; Sa 10:00", "name": "USPS COLLECTION BOX - PO LOBBY", "note": "ON 12/24 AND 12/31, THIS BOX MAY BE COLLECTED AS EARLY AS 12 NOON.", "nsi_id": "unitedstatespostalservice-a77078", "operator": "United States Postal Service", "operator:short": "USPS", "operator:type": "public", "operator:wikidata": "Q668687", "ref": "8232100001"}, "type": "Feature"}
{"dataset_attributes": {"@spider": "usps_collection_boxes", "spider:collection_time": "2023-11-04T08:23:02.835734"}, "geometry": {"coordinates": [-107.55921, 42.243408], "type": "Point"}, "id": "dW9tidYgqGNQO0rhcdzhAQgB8Ak=", "properties": {"@spider": "usps_collection_boxes", "addr:city": "BAIROIL", "addr:country": "US", "addr:full": "503 ANTELOPE DR", "addr:postcode": "82322", "addr:state": "WY", "amenity": "post_box", "brand": "United States Postal Service", "brand:wikidata": "Q668687", "collection_times": "Mo-Fr 13:20; Sa 08:45", "name": "USPS COLLECTION BOX - PO LOBBY", "note": "ON 12/24 AND 12/31, THIS BOX MAY BE COLLECTED AS EARLY AS 12 NOON.", "nsi_id": "unitedstatespostalservice-a77078", "operator": "United States Postal Service", "operator:short": "USPS", "operator:type": "public", "operator:wikidata": "Q668687", "ref": "8232200001"}, "type": "Feature"}
{"dataset_attributes": {"@spider": "usps_collection_boxes", "spider:collection_time": "2023-11-04T08:23:02.835734"}, "geometry": {"coordinates": [-107.592777, 41.021571], "type": "Point"}, "id": "wFuxedMygyAZRjF002H4SxqRaS4=", "properties": {"@spider": "usps_collection_boxes", "addr:city": "DIXON", "addr:country": "US", "addr:full": "207 HIGHWAY 70", "addr:postcode": "82323", "addr:state": "WY", "amenity": "post_box", "brand": "United States Postal Service", "brand:wikidata": "Q668687", "collection_times": "Mo-Fr 12:30; Sa 10:00", "name": "USPS COLLECTION BOX - PO LOBBY", "note": "ON 12/24 AND 12/31, THIS BOX MAY BE COLLECTED AS EARLY AS 12 NOON.", "nsi_id": "unitedstatespostalservice-a77078", "operator": "United States Postal Service", "operator:short": "USPS", "operator:type": "public", "operator:wikidata": "Q668687", "ref": "8232300000"}, "type": "Feature"}
{"dataset_attributes": {"@spider": "usps_collection_boxes", "spider:collection_time": "2023-11-04T08:23:02.835734"}, "geometry": {"coordinates": [-106.413775, 41.687314], "type": "Point"}, "id": "FEWgLAEJFgqGGhgBAZlBsXmZ2fI=", "properties": {"@spider": "usps_collection_boxes", "addr:city": "ELK MOUNTAIN", "addr:country": "US", "addr:full": "211 BRIDGE ST", "addr:postcode": "82324", "addr:state": "WY", "amenity": "post_box", "brand": "United States Postal Service", "brand:wikidata": "Q668687", "collection_times": "Mo-Fr 15:00; Sa 09:15", "name": "USPS COLLECTION BOX - PO LOBBY", "note": "ON 12/24 AND 12/31, THIS BOX MAY BE COLLECTED AS EARLY AS 12 NOON.", "nsi_id": "unitedstatespostalservice-a77078", "operator": "United States Postal Service", "operator:short": "USPS", "operator:type": "public", "operator:wikidata": "Q668687", "ref": "8232400000"}, "type": "Feature"}
{"dataset_attributes": {"@spider": "usps_collection_boxes", "spider:collection_time": "2023-11-04T08:23:02.835734"}, "geometry": {"coordinates": [-106.791175, 41.20738], "type": "Point"}, "id": "xK-Jhdm8B9IFooJAMq48dw69wAE=", "properties": {"@spider": "usps_collection_boxes", "addr:city": "ENCAMPMENT", "addr:country": "US", "addr:full": "622 MCCAFFREY AVE", "addr:postcode": "82325", "addr:state": "WY", "amenity": "post_box", "brand": "United States Postal Service", "brand:wikidata": "Q668687", "collection_times": "Mo-Fr 13:20; Sa 08:30", "name": "USPS COLLECTION BOX - BLUE BOX", "note": "ON 12/24 AND 12/31, THIS BOX MAY BE COLLECTED AS EARLY AS 12 NOON.", "nsi_id": "unitedstatespostalservice-a77078", "operator": "United States Postal Service", "operator:short": "USPS", "operator:type": "public", "operator:wikidata": "Q668687", "ref": "8232500000"}, "type": "Feature"}
{"dataset_attributes": {"@spider": "usps_collection_boxes", "spider:collection_time": "2023-11-04T08:23:02.835734"}, "geometry": {"coordinates": [-106.791175, 41.20738], "type": "Point"}, "id": "WxxXy4kkWD52gAoYgFFlPnROwns=", "properties": {"@spider": "usps_collection_boxes", "addr:city": "ENCAMPMENT", "addr:country": "US", "addr:full": "622 MCCAFFREY AVE", "addr:postcode": "82325", "addr:state": "WY", "amenity": "post_box", "brand": "United States Postal Service", "brand:wikidata": "Q668687", "collection_times": "Mo-Fr 14:05; Sa 08:30", "name": "USPS COLLECTION BOX - PO LOBBY", "note": "ON 12/24 AND 12/31, THIS BOX MAY BE COLLECTED AS EARLY AS 12 NOON.", "nsi_id": "unitedstatespostalservice-a77078", "operator": "United States Postal Service", "operator:short": "USPS", "operator:type": "public", "operator:wikidata": "Q668687", "ref": "8232500001"}, "type": "Feature"}
{"dataset_attributes": {"@spider": "usps_collection_boxes", "spider:collection_time": "2023-11-04T08:23:02.835734"}, "geometry": {"coordinates": [-106.552094, 41.871948], "type": "Point"}, "id": "MtwsF8cBCG_82RUQdSGFGKJlsUI=", "properties": {"@spider": "usps_collection_boxes", "addr:city": "HANNA", "addr:country": "US", "addr:full": "1001 JADE DR", "addr:postcode": "82327", "addr:state": "WY", "amenity": "post_box", "brand": "United States Postal Service", "brand:wikidata": "Q668687", "collection_times": "Mo-Fr 14:20; Sa 10:00", "name": "USPS COLLECTION BOX - PO LOBBY", "note": "ON 12/24 AND 12/31, THIS BOX MAY BE COLLECTED AS EARLY AS 12 NOON.", "nsi_id": "unitedstatespostalservice-a77078", "operator": "United States Postal Service", "operator:short": "USPS", "operator:type": "public", "operator:wikidata": "Q668687", "ref": "8232700000"}, "type": "Feature"}
{"dataset_attributes": {"@spider": "usps_collection_boxes", "spider:collection_time": "2023-11-04T08:23:02.835734"}, "geometry": {"coordinates": [-106.552094, 41.871948], "type": "Point"}, "id": "9Bdrqcv482j4135EGk6xXDc7TTQ=", "properties": {"@spider": "usps_collection_boxes", "addr:city": "HANNA", "addr:country": "US", "addr:full": "1001 JADE DR", "addr:postcode": "82327", "addr:state": "WY", "amenity": "post_box", "brand": "United States Postal Service", "brand:wikidata": "Q668687", "collection_times": "Mo-Fr 14:20; Sa 10:00", "name": "USPS COLLECTION BOX - BLUE BOX", "note": "ON 12/24 AND 12/31, THIS BOX MAY BE COLLECTED AS EARLY AS 12 NOON.", "nsi_id": "unitedstatespostalservice-a77078", "operator": "United States Postal Service", "operator:short": "USPS", "operator:type": "public", "operator:wikidata": "Q668687", "ref": "8232700001"}, "type": "Feature"}
{"dataset_attributes": {"@spider": "usps_collection_boxes", "spider:collection_time": "2023-11-04T08:23:02.835734"}, "geometry": {"coordinates": [-106.200988, 41.895944], "type": "Point"}, "id": "OkbG9owQyfL_WEWFGU-_2yUsl9w=", "properties": {"@spider": "usps_collection_boxes", "addr:city": "MEDICINE BOW", "addr:country": "US", "addr:full": "113 CEDAR ST", "addr:postcode": "82329", "addr:state": "WY", "amenity": "post_box", "brand": "United States Postal Service", "brand:wikidata": "Q668687", "collection_times": "Mo-Fr 14:10; Sa 10:00", "name": "USPS COLLECTION BOX - PO LOBBY", "note": "ON 12/24 AND 12/31, THIS BOX MAY BE COLLECTED AS EARLY AS 12 NOON.", "nsi_id": "unitedstatespostalservice-a77078", "operator": "United States Postal Service", "operator:short": "USPS", "operator:type": "public", "operator:wikidata": "Q668687", "ref": "8232900000"}, "type": "Feature"}
{"dataset_attributes": {"@spider": "usps_collection_boxes", "spider:collection_time": "2023-11-04T08:23:02.835734"}, "geometry": {"coordinates": [-106.809293, 41.45571], "type": "Point"}, "id": "NG6dIopCfAMli_Nj4TTJf74YZ2o=", "properties": {"@spider": "usps_collection_boxes", "addr:city": "SARATOGA", "addr:country": "US", "addr:full": "105 W MAIN ST", "addr:postcode": "82331", "addr:state": "WY", "amenity": "post_box", "brand": "United States Postal Service", "brand:wikidata": "Q668687", "collection_times": "Mo-Fr 14:50; Sa 09:00", "name": "USPS COLLECTION BOX - BLUE BOX", "note": "ON 12/24 AND 12/31, THIS BOX MAY BE COLLECTED AS EARLY AS 12 NOON.", "nsi_id": "unitedstatespostalservice-a77078", "operator": "United States Postal Service", "operator:short": "USPS", "operator:type": "public", "operator:wikidata": "Q668687", "ref": "8233100000"}, "type": "Feature"}
{"dataset_attributes": {"@spider": "usps_collection_boxes", "spider:collection_time": "2023-11-04T08:23:02.835734"}, "geometry": {"coordinates": [-106.809293, 41.45571], "type": "Point"}, "id": "kEBrq7QWRGaG1QbXOIM_FR0I4qk=", "properties": {"@spider": "usps_collection_boxes", "addr:city": "SARATOGA", "addr:country": "US", "addr:full": "105 W MAIN ST", "addr:postcode": "82331", "addr:state": "WY", "amenity": "post_box", "brand": "United States Postal Service", "brand:wikidata": "Q668687", "collection_times": "Mo-Fr 14:50; Sa 09:00", "name": "USPS COLLECTION BOX - PO LOBBY", "note": "ON 12/24 AND 12/31, THIS BOX MAY BE COLLECTED AS EARLY AS 12 NOON.", "nsi_id": "unitedstatespostalservice-a77078", "operator": "United States Postal Service", "operator:short": "USPS", "operator:type": "public", "operator:wikidata": "Q668687", "ref": "8233100001"}, "type": "Feature"}
{"dataset_attributes": {"@spider": "usps_collection_boxes", "spider:collection_time": "2023-11-04T08:23:02.835734"}, "geometry": {"coordinates": [-106.809293, 41.45571], "type": "Point"}, "id": "tbWHr0Bpx2S6lHwdHM16YIYiPZo=", "properties": {"@spider": "usps_collection_boxes", "addr:city": "SARATOGA", "addr:country": "US", "addr:full": "105 W MAIN ST", "addr:postcode": "82331", "addr:state": "WY", "amenity": "post_box", "brand": "United States Postal Service", "brand:wikidata": "Q668687", "collection_times": "Mo-Fr 14:50; Sa 09:00", "name": "USPS COLLECTION BOX - PO LOBBY", "note": "ON 12/24 AND 12/31, THIS BOX MAY BE COLLECTED AS EARLY AS 12 NOON.", "nsi_id": "unitedstatespostalservice-a77078", "operator": "United States Postal Service", "operator:short": "USPS", "operator:type": "public", "operator:wikidata": "Q668687", "ref": "8233100002"}, "type": "Feature"}
{"dataset_attributes": {"@spider": "usps_collection_boxes", "spider:collection_time": "2023-11-04T08:23:02.835734"}, "geometry": {"coordinates": [-107.386019, 41.002923], "type": "Point"}, "id": "ZShqFueiTKGOP6tsWcCJsme3qAY=", "properties": {"@spider": "usps_collection_boxes", "addr:city": "SAVERY", "addr:country": "US", "addr:full": "1132 STATE HIGHWAY 70", "addr:postcode": "82332", "addr:state": "WY", "amenity": "post_box", "brand": "United States Postal Service", "brand:wikidata": "Q668687", "collection_times": "Mo-Fr 13:10; Sa 10:00", "name": "USPS COLLECTION BOX - PO LOBBY", "note": "ON 12/24 AND 12/31, THIS BOX MAY BE COLLECTED AS EARLY AS 12 NOON.", "nsi_id": "unitedstatespostalservice-a77078", "operator": "United States Postal Service", "operator:short": "USPS", "operator:type": "public", "operator:wikidata": "Q668687", "ref": "8233200000"}, "type": "Feature"}
{"dataset_attributes": {"@spider": "usps_collection_boxes", "spider:collection_time": "2023-11-04T08:23:02.835734"}, "geometry": {"coordinates": [-107.116067, 41.779074], "type": "Point"}, "id": "cxXQbe2SrrwtW0mUGAMZ_0SmVuA=", "properties": {"@spider": "usps_collection_boxes", "addr:city": "SINCLAIR", "addr:country": "US", "addr:full": "100 N 5TH ST", "addr:postcode": "82334", "addr:state": "WY", "amenity": "post_box", "brand": "United States Postal Service", "brand:wikidata": "Q668687", "collection_times": "Mo-Fr 12:45; Sa 09:00", "name": "USPS COLLECTION BOX - PO LOBBY", "note": "ON 12/24 AND 12/31, THIS BOX MAY BE COLLECTED AS EARLY AS 12 NOON.", "nsi_id": "unitedstatespostalservice-a77078", "operator": "United States Postal Service", "operator:short": "USPS", "operator:type": "public", "operator:wikidata": "Q668687", "ref": "8233400000"}, "type": "Feature"}
{"dataset_attributes": {"@spider": "usps_collection_boxes", "spider:collection_time": "2023-11-04T08:23:02.835734"}, "geometry": {"coordinates": [-107.974506, 41.672855], "type": "Point"}, "id": "jo1gGnY1F7fM3lasRqLao3L3lGs=", "properties": {"@spider": "usps_collection_boxes", "addr:city": "WAMSUTTER", "addr:country": "US", "addr:full": "302 BROADWAY ST", "addr:postcode": "82336", "addr:state": "WY", "amenity": "post_box", "brand": "United States Postal Service", "brand:wikidata": "Q668687", "collection_times": "Mo-Fr 14:35; Sa 09:00", "name": "USPS COLLECTION BOX - PO LOBBY", "note": "ON 12/24 AND 12/31, THIS BOX MAY BE COLLECTED AS EARLY AS 12 NOON.", "nsi_id": "unitedstatespostalservice-a77078", "operator": "United States Postal Service", "operator:short": "USPS", "operator:type": "public", "operator:wikidata": "Q668687", "ref": "8233600000"}, "type": "Feature"}
