{"geometry": {"coordinates": [-107.959908, 44.017083], "type": "Point"}, "id": "g3UodltqSwyZ3U9jgt-r4nDbhnM=", "properties": {"@source_uri": "https://tools.usps.com/UspsToolsRestServices/rest/POLocator/findLocations", "@spider": "usps_collection_boxes", "addr:city": "WORLAND", "addr:country": "US", "addr:postcode": "82401", "addr:state": "WY", "addr:street_address": "119 N 7TH ST", "amenity": "post_box", "collection_times": "Mo-Fr 17:00; Sa 12:30", "note": "ON 12/24 AND 12/31, THIS BOX MAY BE COLLECTED AS EARLY AS 12 NOON.", "nsi_id": "unitedstatespostalservice-a77078", "operator": "United States Postal Service", "operator:short": "USPS", "operator:type": "public", "operator:wikidata": "Q668687", "ref": "8240100000"}, "type": "Feature"}
{"geometry": {"coordinates": [-107.953474, 44.010316], "type": "Point"}, "id": "UMOkPE7LI-mEEVhnD-gMVpFMDh4=", "properties": {"@source_uri": "https://tools.usps.com/UspsToolsRestServices/rest/POLocator/findLocations", "@spider": "usps_collection_boxes", "addr:city": "WORLAND", "addr:country": "US", "addr:postcode": "82401", "addr:state": "WY", "addr:street_address": "612 S 12TH ST", "amenity": "post_box", "collection_times": "Mo-Fr 12:30; Sa 12:15", "note": "ON 12/24 AND 12/31, THIS BOX MAY BE COLLECTED AS EARLY AS 12 NOON.", "nsi_id": "unitedstatespostalservice-a77078", "operator": "United States Postal Service", "operator:short": "USPS", "operator:type": "public", "operator:wikidata": "Q668687", "ref": "8240100004"}, "type": "Feature"}
{"geometry": {"coordinates": [-107.955708, 44.017794], "type": "Point"}, "id": "2zUmE_754mh603A9cVNCfFhTljw=", "properties": {"@source_uri": "https://tools.usps.com/UspsToolsRestServices/rest/POLocator/findLocations", "@spider": "usps_collection_boxes", "addr:city": "WORLAND", "addr:country": "US", "addr:postcode": "82401", "addr:state": "WY", "addr:street_address": "120 N 10TH ST", "amenity": "post_box", "collection_times": "Mo-Fr 13:15; Sa 12:15", "note": "ON 12/24 AND 12/31, THIS BOX MAY BE COLLECTED AS EARLY AS 12 NOON.", "nsi_id": "unitedstatespostalservice-a77078", "operator": "United States Postal Service", "operator:short": "USPS", "operator:type": "public", "operator:wikidata": "Q668687", "ref": "8240100005"}, "type": "Feature"}
{"geometry": {"coordinates": [-107.950183, 44.016978], "type": "Point"}, "id": "HNTY6tJMDe1ksNbrdDZMHLpQPmQ=", "properties": {"@source_uri": "https://tools.usps.com/UspsToolsRestServices/rest/POLocator/findLocations", "@spider": "usps_collection_boxes", "addr:city": "WORLAND", "addr:country": "US", "addr:postcode": "82401", "addr:state": "WY", "addr:street_address": "1401 BIG HORN AVE", "amenity": "post_box", "collection_times": "Mo-Fr 13:15; Sa 12:15", "note": "ON 12/24 AND 12/31, THIS BOX MAY BE COLLECTED AS EARLY AS 12 NOON.", "nsi_id": "unitedstatespostalservice-a77078", "operator": "United States Postal Service", "operator:short": "USPS", "operator:type": "public", "operator:wikidata": "Q668687", "ref": "8240100006"}, "type": "Feature"}
{"geometry": {"coordinates": [-107.959871, 44.017026], "type": "Point"}, "id": "YvafdbFjZ-iAMnZCnAs-01qUjZA=", "properties": {"@source_uri": "https://tools.usps.com/UspsToolsRestServices/rest/POLocator/findLocations", "@spider": "usps_collection_boxes", "addr:city": "WORLAND", "addr:country": "US", "addr:postcode": "82401", "addr:state": "WY", "addr:street_address": "119 N 7TH ST", "amenity": "post_box", "collection_times": "Mo-Fr 17:00; Sa 12:30", "indoor": "yes", "note": "ON 12/24 AND 12/31, THIS BOX MAY BE COLLECTED AS EARLY AS 12 NOON.", "nsi_id": "unitedstatespostalservice-a77078", "operator": "United States Postal Service", "operator:short": "USPS", "operator:type": "public", "operator:wikidata": "Q668687", "ref": "8240100007"}, "type": "Feature"}
{"geometry": {"coordinates": [-107.959871, 44.017026], "type": "Point"}, "id": "lIEJkPBRFawiCLfeimCBpiXaQuc=", "properties": {"@source_uri": "https://tools.usps.com/UspsToolsRestServices/rest/POLocator/findLocations", "@spider": "usps_collection_boxes", "addr:city": "WORLAND", "addr:country": "US", "addr:postcode": "82401", "addr:state": "WY", "addr:street_address": "119 N 7TH ST", "amenity": "post_box", "collection_times": "Mo-Fr 17:00; Sa 12:30", "indoor": "yes", "note": "ON 12/24 AND 12/31, THIS BOX MAY BE COLLECTED AS EARLY AS 12 NOON.", "nsi_id": "unitedstatespostalservice-a77078", "operator": "United States Postal Service", "operator:short": "USPS", "operator:type": "public", "operator:wikidata": "Q668687", "ref": "8240100008"}, "type": "Feature"}
{"geometry": {"coordinates": [-107.959871, 44.017026], "type": "Point"}, "id": "wL5x2MBxaxNKSYc4AEZJn_FdGg4=", "properties": {"@source_uri": "https://tools.usps.com/UspsToolsRestServices/rest/POLocator/findLocations", "@spider": "usps_collection_boxes", "addr:city": "WORLAND", "addr:country": "US", "addr:postcode": "82401", "addr:state": "WY", "addr:street_address": "119 N 7TH ST", "amenity": "post_box", "collection_times": "Mo-Fr 17:00; Sa 12:30", "indoor": "yes", "note": "ON 12/24 AND 12/31, THIS BOX MAY BE COLLECTED AS EARLY AS 12 NOON.", "nsi_id": "unitedstatespostalservice-a77078", "operator": "United States Postal Service", "operator:short": "USPS", "operator:type": "public", "operator:wikidata": "Q668687", "ref": "8240100009"}, "type": "Feature"}
{"geometry": {"coordinates": [-107.959871, 44.017026], "type": "Point"}, "id": "TwPqMmb_5j9bPj1hvuV-Z6c3EPU=", "properties": {"@source_uri": "https://tools.usps.com/UspsToolsRestServices/rest/POLocator/findLocations", "@spider": "usps_collection_boxes", "addr:city": "WORLAND", "addr:country": "US", "addr:postcode": "82401", "addr:state": "WY", "addr:street_address": "119 N 7TH ST", "amenity": "post_box", "collection_times": "Mo-Fr 17:00; Sa 12:30", "indoor": "yes", "note": "ON 12/24 AND 12/31, THIS BOX MAY BE COLLECTED AS EARLY AS 12 NOON.", "nsi_id": "unitedstatespostalservice-a77078", "operator": "United States Postal Service", "operator:short": "USPS", "operator:type": "public", "operator:wikidata": "Q668687", "ref": "8240100010"}, "type": "Feature"}
{"geometry": {"coordinates": [-108.039936, 44.381146], "type": "Point"}, "id": "f83H623uKtdrRDwbJhQI9aPRYrE=", "properties": {"@source_uri": "https://tools.usps.com/UspsToolsRestServices/rest/POLocator/findLocations", "@spider": "usps_collection_boxes", "addr:city": "BASIN", "addr:country": "US", "addr:postcode": "82410", "addr:state": "WY", "addr:street_address": "402 W C ST", "amenity": "post_box", "collection_times": "Mo-Fr 15:20; Sa 12:15", "note": "ON 12/24 AND 12/31, THIS BOX MAY BE COLLECTED AS EARLY AS 12 NOON.", "nsi_id": "unitedstatespostalservice-a77078", "operator": "United States Postal Service", "operator:short": "USPS", "operator:type": "public", "operator:wikidata": "Q668687", "ref": "8241000000"}, "type": "Feature"}
{"geometry": {"coordinates": [-108.039936, 44.381146], "type": "Point"}, "id": "EWg_zAYK-VWJ30UhLLeyoWV6cb0=", "properties": {"@source_uri": "https://tools.usps.com/UspsToolsRestServices/rest/POLocator/findLocations", "@spider": "usps_collection_boxes", "addr:city": "BASIN", "addr:country": "US", "addr:postcode": "82410", "addr:state": "WY", "addr:street_address": "402 W C ST", "amenity": "post_box", "collection_times": "Mo-Fr 15:20; Sa 12:15", "indoor": "yes", "note": "ON 12/24 AND 12/31, THIS BOX MAY BE COLLECTED AS EARLY AS 12 NOON.", "nsi_id": "unitedstatespostalservice-a77078", "operator": "United States Postal Service", "operator:short": "USPS", "operator:type": "public", "operator:wikidata": "Q668687", "ref": "8241000001"}, "type": "Feature"}
{"geometry": {"coordinates": [-108.431644, 44.444729], "type": "Point"}, "id": "D_VG7Ob0SCQ8R2G7JBTlRBDj3zw=", "properties": {"@source_uri": "https://tools.usps.com/UspsToolsRestServices/rest/POLocator/findLocations", "@spider": "usps_collection_boxes", "addr:city": "BURLINGTON", "addr:country": "US", "addr:postcode": "82411", "addr:state": "WY", "addr:street_address": "211 S MAIN ST", "amenity": "post_box", "collection_times": "Mo-Fr 14:30; Sa 09:30", "note": "ON 12/24 AND 12/31, THIS BOX MAY BE COLLECTED AS EARLY AS 12 NOON.", "nsi_id": "unitedstatespostalservice-a77078", "operator": "United States Postal Service", "operator:short": "USPS", "operator:type": "public", "operator:wikidata": "Q668687", "ref": "8241100000"}, "type": "Feature"}
{"geometry": {"coordinates": [-108.431644, 44.444729], "type": "Point"}, "id": "K1Wsg5cGBNL2IL-W05uUcZNV31Q=", "properties": {"@source_uri": "https://tools.usps.com/UspsToolsRestServices/rest/POLocator/findLocations", "@spider": "usps_collection_boxes", "addr:city": "BURLINGTON", "addr:country": "US", "addr:postcode": "82411", "addr:state": "WY", "addr:street_address": "211 S MAIN ST", "amenity": "post_box", "collection_times": "Mo-Fr 14:30; Sa 09:30", "indoor": "yes", "note": "ON 12/24 AND 12/31, THIS BOX MAY BE COLLECTED AS EARLY AS 12 NOON.", "nsi_id": "unitedstatespostalservice-a77078", "operator": "United States Postal Service", "operator:short": "USPS", "operator:type": "public", "operator:wikidata": "Q668687", "ref": "8241100001"}, "type": "Feature"}
{"geometry": {"coordinates": [-108.504161, 44.79625], "type": "Point"}, "id": "PhjIHoTTfi7IiK-F__5SrCgiCyg=", "properties": {"@source_uri": "https://tools.usps.com/UspsToolsRestServices/rest/POLocator/findLocations", "@spider": "usps_collection_boxes", "addr:city": "BYRON", "addr:country": "US", "addr:postcode": "82412", "addr:state": "WY", "addr:street_address": "120 E MAIN ST", "amenity": "post_box", "collection_times": "Mo-Fr 13:30; Sa 11:00", "note": "ON 12/24 AND 12/31, THIS BOX MAY BE COLLECTED AS EARLY AS 12 NOON.", "nsi_id": "unitedstatespostalservice-a77078", "operator": "United States Postal Service", "operator:short": "USPS", "operator:type": "public", "operator:wikidata": "Q668687", "ref": "8241200000"}, "type": "Feature"}
{"geometry": {"coordinates": [-108.504161, 44.79625], "type": "Point"}, "id": "HkiJRJQ4MOOxt-79Du1V0mzcrd0=", "properties": {"@source_uri": "https://tools.usps.com/UspsToolsRestServices/rest/POLocator/findLocations", "@spider": "usps_collection_boxes", "addr:city": "BYRON", "addr:country": "US", "addr:postcode": "82412", "addr:state": "WY", "addr:street_address": "120 E MAIN ST", "amenity": "post_box", "collection_times": "Mo-Fr 13:30; Sa 11:00", "indoor": "yes", "note": "ON 12/24 AND 12/31, THIS BOX MAY BE COLLECTED AS EARLY AS 12 NOON.", "nsi_id": "unitedstatespostalservice-a77078", "operator": "United States Postal Service", "operator:short": "USPS", "operator:type": "public", "operator:wikidata": "Q668687", "ref": "8241200001"}, "type": "Feature"}
{"geometry": {"coordinates": [-108.504161, 44.79625], "type": "Point"}, "id": "4TQVuBPQ8wlWlGRDk2PCcPTbwSg=", "properties": {"@source_uri": "https://tools.usps.com/UspsToolsRestServices/rest/POLocator/findLocations", "@spider": "usps_collection_boxes", "addr:city": "BYRON", "addr:country": "US", "addr:postcode": "82412", "addr:state": "WY", "addr:street_address": "120 E MAIN ST", "amenity": "post_box", "collection_times": "Mo-Fr 13:30; Sa 11:00", "indoor": "yes", "note": "ON 12/24 AND 12/31, THIS BOX MAY BE COLLECTED AS EARLY AS 12 NOON.", "nsi_id": "unitedstatespostalservice-a77078", "operator": "United States Postal Service", "operator:short": "USPS", "operator:type": "public", "operator:wikidata": "Q668687", "ref": "8241200002"}, "type": "Feature"}
{"geometry": {"coordinates": [-109.055052, 44.518284], "type": "Point"}, "id": "bLoOXL0W0fM2mqePCwXoK0hy4vc=", "properties": {"@source_uri": "https://tools.usps.com/UspsToolsRestServices/rest/POLocator/findLocations", "@spider": "usps_collection_boxes", "addr:city": "CODY", "addr:country": "US", "addr:postcode": "82414", "addr:state": "WY", "addr:street_address": "1825 17TH ST", "amenity": "post_box", "collection_times": "Mo-Sa 10:00", "nsi_id": "unitedstatespostalservice-a77078", "operator": "United States Postal Service", "operator:short": "USPS", "operator:type": "public", "operator:wikidata": "Q668687", "ref": "8241400001"}, "type": "Feature"}
{"geometry": {"coordinates": [-109.053289, 44.526204], "type": "Point"}, "id": "GZKGLvcJXAXVnkBrWYA3JGyxb1g=", "properties": {"@source_uri": "https://tools.usps.com/UspsToolsRestServices/rest/POLocator/findLocations", "@spider": "usps_collection_boxes", "addr:city": "CODY", "addr:country": "US", "addr:postcode": "82414", "addr:state": "WY", "addr:street_address": "1725 SHERIDAN AVE", "amenity": "post_box", "collection_times": "Mo-Sa 10:00", "nsi_id": "unitedstatespostalservice-a77078", "operator": "United States Postal Service", "operator:short": "USPS", "operator:type": "public", "operator:wikidata": "Q668687", "ref": "8241400003"}, "type": "Feature"}
{"geometry": {"coordinates": [-109.062165, 44.526204], "type": "Point"}, "id": "hECiLVASJ14DW5BRX0gNyznXfUk=", "properties": {"@source_uri": "https://tools.usps.com/UspsToolsRestServices/rest/POLocator/findLocations", "@spider": "usps_collection_boxes", "addr:city": "CODY", "addr:country": "US", "addr:postcode": "82414", "addr:state": "WY", "addr:street_address": "1291 SHERIDAN AVE", "amenity": "post_box", "collection_times": "Mo-Sa 10:00", "nsi_id": "unitedstatespostalservice-a77078", "operator": "United States Postal Service", "operator:short": "USPS", "operator:type": "public", "operator:wikidata": "Q668687", "ref": "8241400007"}, "type": "Feature"}
{"geometry": {"coordinates": [-109.066754, 44.52593], "type": "Point"}, "id": "SwnDvTN3O36IYgdZLNLj09loUU0=", "properties": {"@source_uri": "https://tools.usps.com/UspsToolsRestServices/rest/POLocator/findLocations", "@spider": "usps_collection_boxes", "addr:city": "CODY", "addr:country": "US", "addr:postcode": "82414", "addr:state": "WY", "addr:street_address": "1002 SHERIDAN AVE", "amenity": "post_box", "collection_times": "Mo-Sa 10:00", "nsi_id": "unitedstatespostalservice-a77078", "operator": "United States Postal Service", "operator:short": "USPS", "operator:type": "public", "operator:wikidata": "Q668687", "ref": "8241400010"}, "type": "Feature"}
{"geometry": {"coordinates": [-109.089094, 44.517643], "type": "Point"}, "id": "LD92Jrt-2mx5ciqhGS5N2sEHnzE=", "properties": {"@source_uri": "https://tools.usps.com/UspsToolsRestServices/rest/POLocator/findLocations", "@spider": "usps_collection_boxes", "addr:city": "CODY", "addr:country": "US", "addr:postcode": "82414", "addr:state": "WY", "addr:street_address": "321 YELLOWSTONE AVE", "amenity": "post_box", "collection_times": "Mo-Sa 08:00", "nsi_id": "unitedstatespostalservice-a77078", "operator": "United States Postal Service", "operator:short": "USPS", "operator:type": "public", "operator:wikidata": "Q668687", "ref": "8241400011"}, "type": "Feature"}
{"geometry": {"coordinates": [-109.061474, 44.518872], "type": "Point"}, "id": "c4LmMHKwg4LbHq6q6DOlxZPYJqA=", "properties": {"@source_uri": "https://tools.usps.com/UspsToolsRestServices/rest/POLocator/findLocations", "@spider": "usps_collection_boxes", "addr:city": "CODY", "addr:country": "US", "addr:postcode": "82414", "addr:state": "WY", "addr:street_address": "1301 STAMPEDE AVE", "amenity": "post_box", "collection_times": "Mo-Fr 16:15; Sa 16:00", "note": "ON 12/24 AND 12/31, THIS BOX MAY BE COLLECTED AS EARLY AS 12 NOON.", "nsi_id": "unitedstatespostalservice-a77078", "operator": "United States Postal Service", "operator:short": "USPS", "operator:type": "public", "operator:wikidata": "Q668687", "ref": "8241400012"}, "type": "Feature"}
{"geometry": {"coordinates": [-109.061474, 44.518872], "type": "Point"}, "id": "Gi9kBFXmGKN0roXJzGsFFHrzafM=", "properties": {"@source_uri": "https://tools.usps.com/UspsToolsRestServices/rest/POLocator/findLocations", "@spider": "usps_collection_boxes", "addr:city": "CODY", "addr:country": "US", "addr:postcode": "82414", "addr:state": "WY", "addr:street_address": "1301 STAMPEDE AVE", "amenity": "post_box", "collection_times": "Mo-Fr 16:15; Sa 16:00", "note": "ON 12/24 AND 12/31, THIS BOX MAY BE COLLECTED AS EARLY AS 12 NOON.", "nsi_id": "unitedstatespostalservice-a77078", "operator": "United States Postal Service", "operator:short": "USPS", "operator:type": "public", "operator:wikidata": "Q668687", "ref": "8241400013"}, "type": "Feature"}
{"geometry": {"coordinates": [-109.061474, 44.518872], "type": "Point"}, "id": "lfhh6bODPXWXXaHWYUfO_wsvvCk=", "properties": {"@source_uri": "https://tools.usps.com/UspsToolsRestServices/rest/POLocator/findLocations", "@spider": "usps_collection_boxes", "addr:city": "CODY", "addr:country": "US", "addr:postcode": "82414", "addr:state": "WY", "addr:street_address": "1301 STAMPEDE AVE", "amenity": "post_box", "collection_times": "Mo-Fr 16:15; Sa 16:00", "indoor": "yes", "note": "ON 12/24 AND 12/31, THIS BOX MAY BE COLLECTED AS EARLY AS 12 NOON.", "nsi_id": "unitedstatespostalservice-a77078", "operator": "United States Postal Service", "operator:short": "USPS", "operator:type": "public", "operator:wikidata": "Q668687", "ref": "8241400014"}, "type": "Feature"}
{"geometry": {"coordinates": [-109.061474, 44.518872], "type": "Point"}, "id": "_6M1fYjjgvgHj9Gj1N83wWrgvUo=", "properties": {"@source_uri": "https://tools.usps.com/UspsToolsRestServices/rest/POLocator/findLocations", "@spider": "usps_collection_boxes", "addr:city": "CODY", "addr:country": "US", "addr:postcode": "82414", "addr:state": "WY", "addr:street_address": "1301 STAMPEDE AVE", "amenity": "post_box", "collection_times": "Mo-Fr 16:15; Sa 16:00", "indoor": "yes", "note": "ON 12/24 AND 12/31, THIS BOX MAY BE COLLECTED AS EARLY AS 12 NOON.", "nsi_id": "unitedstatespostalservice-a77078", "operator": "United States Postal Service", "operator:short": "USPS", "operator:type": "public", "operator:wikidata": "Q668687", "ref": "8241400015"}, "type": "Feature"}
{"geometry": {"coordinates": [-108.467809, 44.883564], "type": "Point"}, "id": "ktx5vSrf1nBvDxnNe7VRkFkoktA=", "properties": {"@source_uri": "https://tools.usps.com/UspsToolsRestServices/rest/POLocator/findLocations", "@spider": "usps_collection_boxes", "addr:city": "COWLEY", "addr:country": "US", "addr:postcode": "82420", "addr:state": "WY", "addr:street_address": "71 E MAIN ST", "amenity": "post_box", "collection_times": "Mo-Fr 13:15; Sa 11:00", "indoor": "yes", "note": "ON 12/24 AND 12/31, THIS BOX MAY BE COLLECTED AS EARLY AS 12 NOON.", "nsi_id": "unitedstatespostalservice-a77078", "operator": "United States Postal Service", "operator:short": "USPS", "operator:type": "public", "operator:wikidata": "Q668687", "ref": "8242000001"}, "type": "Feature"}
{"geometry": {"coordinates": [-108.5948, 44.891827], "type": "Point"}, "id": "EZ8hq509yIJMmAljMK6n0Ec-gAg=", "properties": {"@source_uri": "https://tools.usps.com/UspsToolsRestServices/rest/POLocator/findLocations", "@spider": "usps_collection_boxes", "addr:city": "DEAVER", "addr:country": "US", "addr:postcode": "82421", "addr:state": "WY", "addr:street_address": "18 CENTRAL AVE", "amenity": "post_box", "collection_times": "Mo-Fr 13:15; Sa 11:30", "indoor": "yes", "note": "ON 12/24 AND 12/31, THIS BOX MAY BE COLLECTED AS EARLY AS 12 NOON.", "nsi_id": "unitedstatespostalservice-a77078", "operator": "United States Postal Service", "operator:short": "USPS", "operator:type": "public", "operator:wikidata": "Q668687", "ref": "8242100000"}, "type": "Feature"}
{"geometry": {"coordinates": [-108.391301408, 44.5057430926], "type": "Point"}, "id": "jShHpLc9OESLYmfGIoCNaRq0mro=", "properties": {"@source_uri": "https://tools.usps.com/UspsToolsRestServices/rest/POLocator/findLocations", "@spider": "usps_collection_boxes", "addr:city": "EMBLEM", "addr:country": "US", "addr:postcode": "82422", "addr:state": "WY", "addr:street_address": "929 US HIGHWAY 20", "amenity": "post_box", "collection_times": "Mo-Fr 10:15; Sa 12:00", "indoor": "yes", "nsi_id": "unitedstatespostalservice-a77078", "operator": "United States Postal Service", "operator:short": "USPS", "operator:type": "public", "operator:wikidata": "Q668687", "ref": "8242200001"}, "type": "Feature"}
{"geometry": {"coordinates": [-108.621465, 44.969114], "type": "Point"}, "id": "vOXW_9BDmyRCgN_ejSRAqNE9NIw=", "properties": {"@source_uri": "https://tools.usps.com/UspsToolsRestServices/rest/POLocator/findLocations", "@spider": "usps_collection_boxes", "addr:city": "FRANNIE", "addr:country": "US", "addr:postcode": "82423", "addr:state": "WY", "addr:street_address": "392 ASH ST", "amenity": "post_box", "collection_times": "Mo-Fr 13:00; Sa 11:30", "indoor": "yes", "note": "ON 12/24 AND 12/31, THIS BOX MAY BE COLLECTED AS EARLY AS 12 NOON.", "nsi_id": "unitedstatespostalservice-a77078", "operator": "United States Postal Service", "operator:short": "USPS", "operator:type": "public", "operator:wikidata": "Q668687", "ref": "8242300000"}, "type": "Feature"}
{"geometry": {"coordinates": [-108.052924, 44.488593], "type": "Point"}, "id": "XbjVpp9sJ7-I7OdLXIVhupM7V8U=", "properties": {"@source_uri": "https://tools.usps.com/UspsToolsRestServices/rest/POLocator/findLocations", "@spider": "usps_collection_boxes", "addr:city": "GREYBULL", "addr:country": "US", "addr:postcode": "82426", "addr:state": "WY", "addr:street_address": "401 GREYBULL AVE", "amenity": "post_box", "collection_times": "Mo-Fr 15:00; Sa 12:30", "indoor": "yes", "note": "ON 12/24 AND 12/31, THIS BOX MAY BE COLLECTED AS EARLY AS 12 NOON.", "nsi_id": "unitedstatespostalservice-a77078", "operator": "United States Postal Service", "operator:short": "USPS", "operator:type": "public", "operator:wikidata": "Q668687", "ref": "8242600000"}, "type": "Feature"}
{"geometry": {"coordinates": [-108.052687, 44.488378], "type": "Point"}, "id": "KZmuC6ob15j8IZ6tPi8ZuIgftrk=", "properties": {"@source_uri": "https://tools.usps.com/UspsToolsRestServices/rest/POLocator/findLocations", "@spider": "usps_collection_boxes", "addr:city": "GREYBULL", "addr:country": "US", "addr:postcode": "82426", "addr:state": "WY", "addr:street_address": "401 GREYBULL AVE", "amenity": "post_box", "collection_times": "Mo-Fr 15:00; Sa 12:30", "note": "ON 12/24 AND 12/31, THIS BOX MAY BE COLLECTED AS EARLY AS 12 NOON.", "nsi_id": "unitedstatespostalservice-a77078", "operator": "United States Postal Service", "operator:short": "USPS", "operator:type": "public", "operator:wikidata": "Q668687", "ref": "8242600001"}, "type": "Feature"}
{"geometry": {"coordinates": [-107.602723, 44.245871], "type": "Point"}, "id": "m-HKjshs-0YI8aJN9xg4pTbBt5Y=", "properties": {"@source_uri": "https://tools.usps.com/UspsToolsRestServices/rest/POLocator/findLocations", "@spider": "usps_collection_boxes", "addr:city": "HYATTVILLE", "addr:country": "US", "addr:postcode": "82428", "addr:state": "WY", "addr:street_address": "223 S MAIN ST", "amenity": "post_box", "collection_times": "Mo-Fr 13:15; Sa 11:15", "note": "ON 12/24 AND 12/31, THIS BOX MAY BE COLLECTED AS EARLY AS 12 NOON.", "nsi_id": "unitedstatespostalservice-a77078", "operator": "United States Postal Service", "operator:short": "USPS", "operator:type": "public", "operator:wikidata": "Q668687", "ref": "8242800000"}, "type": "Feature"}
{"geometry": {"coordinates": [-107.602723, 44.245871], "type": "Point"}, "id": "jNbcfJbHhQsHmcWX2JMl0IP8mdg=", "properties": {"@source_uri": "https://tools.usps.com/UspsToolsRestServices/rest/POLocator/findLocations", "@spider": "usps_collection_boxes", "addr:city": "HYATTVILLE", "addr:country": "US", "addr:postcode": "82428", "addr:state": "WY", "addr:street_address": "223 S MAIN ST", "amenity": "post_box", "collection_times": "Mo-Fr 13:15; Sa 11:15", "indoor": "yes", "note": "ON 12/24 AND 12/31, THIS BOX MAY BE COLLECTED AS EARLY AS 12 NOON.", "nsi_id": "unitedstatespostalservice-a77078", "operator": "United States Postal Service", "operator:short": "USPS", "operator:type": "public", "operator:wikidata": "Q668687", "ref": "8242800001"}, "type": "Feature"}
{"geometry": {"coordinates": [-108.390172, 44.839036], "type": "Point"}, "id": "7dGDwn-IKNFqZb7e-eMjMJRijIs=", "properties": {"@source_uri": "https://tools.usps.com/UspsToolsRestServices/rest/POLocator/findLocations", "@spider": "usps_collection_boxes", "addr:city": "LOVELL", "addr:country": "US", "addr:postcode": "82431", "addr:state": "WY", "addr:street_address": "167 E 3RD ST", "amenity": "post_box", "collection_times": "Mo-Fr 14:10; Sa 13:00", "note": "ON 12/24 AND 12/31, THIS BOX MAY BE COLLECTED AS EARLY AS 12 NOON.", "nsi_id": "unitedstatespostalservice-a77078", "operator": "United States Postal Service", "operator:short": "USPS", "operator:type": "public", "operator:wikidata": "Q668687", "ref": "8243100000"}, "type": "Feature"}
{"geometry": {"coordinates": [-108.390172, 44.839036], "type": "Point"}, "id": "B676BLH1CHQT0iYZYgwcZjkKkFA=", "properties": {"@source_uri": "https://tools.usps.com/UspsToolsRestServices/rest/POLocator/findLocations", "@spider": "usps_collection_boxes", "addr:city": "LOVELL", "addr:country": "US", "addr:postcode": "82431", "addr:state": "WY", "addr:street_address": "167 E 3RD ST", "amenity": "post_box", "collection_times": "Mo-Fr 14:10; Sa 12:15", "indoor": "yes", "note": "ON 12/24 AND 12/31, THIS BOX MAY BE COLLECTED AS EARLY AS 12 NOON.", "nsi_id": "unitedstatespostalservice-a77078", "operator": "United States Postal Service", "operator:short": "USPS", "operator:type": "public", "operator:wikidata": "Q668687", "ref": "8243100001"}, "type": "Feature"}
{"geometry": {"coordinates": [-108.390172, 44.839036], "type": "Point"}, "id": "_fPo2YqwN2go_G4mKImAPnRK5Iw=", "properties": {"@source_uri": "https://tools.usps.com/UspsToolsRestServices/rest/POLocator/findLocations", "@spider": "usps_collection_boxes", "addr:city": "LOVELL", "addr:country": "US", "addr:postcode": "82431", "addr:state": "WY", "addr:street_address": "167 E 3RD ST", "amenity": "post_box", "collection_times": "Mo-Fr 14:10; Sa 12:15", "indoor": "yes", "note": "ON 12/24 AND 12/31, THIS BOX MAY BE COLLECTED AS EARLY AS 12 NOON.", "nsi_id": "unitedstatespostalservice-a77078", "operator": "United States Postal Service", "operator:short": "USPS", "operator:type": "public", "operator:wikidata": "Q668687", "ref": "8243100002"}, "type": "Feature"}
{"geometry": {"coordinates": [-107.963885, 44.269084], "type": "Point"}, "id": "aGs5mxWR9DfHHSYykt2TTGq3tgE=", "properties": {"@source_uri": "https://tools.usps.com/UspsToolsRestServices/rest/POLocator/findLocations", "@spider": "usps_collection_boxes", "addr:city": "MANDERSON", "addr:country": "US", "addr:postcode": "82432", "addr:state": "WY", "addr:street_address": "193 N SHERMAN AVE", "amenity": "post_box", "collection_times": "Mo-Fr 11:45; Sa 11:00", "nsi_id": "unitedstatespostalservice-a77078", "operator": "United States Postal Service", "operator:short": "USPS", "operator:type": "public", "operator:wikidata": "Q668687", "ref": "8243200000"}, "type": "Feature"}
{"geometry": {"coordinates": [-107.963885, 44.269084], "type": "Point"}, "id": "vZWxz6TpIykw_nOURzXjqOLjxI0=", "properties": {"@source_uri": "https://tools.usps.com/UspsToolsRestServices/rest/POLocator/findLocations", "@spider": "usps_collection_boxes", "addr:city": "MANDERSON", "addr:country": "US", "addr:postcode": "82432", "addr:state": "WY", "addr:street_address": "193 N SHERMAN AVE", "amenity": "post_box", "collection_times": "Mo-Fr 11:45; Sa 11:00", "indoor": "yes", "nsi_id": "unitedstatespostalservice-a77078", "operator": "United States Postal Service", "operator:short": "USPS", "operator:type": "public", "operator:wikidata": "Q668687", "ref": "8243200001"}, "type": "Feature"}
{"geometry": {"coordinates": [-108.871883, 44.157155], "type": "Point"}, "id": "MlXiCt_JkbcyICcyolufeBwJscw=", "properties": {"@source_uri": "https://tools.usps.com/UspsToolsRestServices/rest/POLocator/findLocations", "@spider": "usps_collection_boxes", "addr:city": "MEETEETSE", "addr:country": "US", "addr:postcode": "82433", "addr:state": "WY", "addr:street_address": "1022 PARK AVE", "amenity": "post_box", "collection_times": "Mo-Fr 16:00; Sa 09:30", "indoor": "yes", "note": "ON 12/24 AND 12/31, THIS BOX MAY BE COLLECTED AS EARLY AS 12 NOON.", "nsi_id": "unitedstatespostalservice-a77078", "operator": "United States Postal Service", "operator:short": "USPS", "operator:type": "public", "operator:wikidata": "Q668687", "ref": "8243300001"}, "type": "Feature"}
{"geometry": {"coordinates": [-108.871883, 44.157155], "type": "Point"}, "id": "P7PMcb_5IZ-IX8l3q-dvFfJ82VM=", "properties": {"@source_uri": "https://tools.usps.com/UspsToolsRestServices/rest/POLocator/findLocations", "@spider": "usps_collection_boxes", "addr:city": "MEETEETSE", "addr:country": "US", "addr:postcode": "82433", "addr:state": "WY", "addr:street_address": "1022 PARK AVE", "amenity": "post_box", "collection_times": "Mo-Fr 16:00; Sa 09:30", "note": "ON 12/24 AND 12/31, THIS BOX MAY BE COLLECTED AS EARLY AS 12 NOON.", "nsi_id": "unitedstatespostalservice-a77078", "operator": "United States Postal Service", "operator:short": "USPS", "operator:type": "public", "operator:wikidata": "Q668687", "ref": "8243300002"}, "type": "Feature"}
{"geometry": {"coordinates": [-108.871883, 44.157155], "type": "Point"}, "id": "kd-N0oV3XNrFSrygVf1X0ZmAKWs=", "properties": {"@source_uri": "https://tools.usps.com/UspsToolsRestServices/rest/POLocator/findLocations", "@spider": "usps_collection_boxes", "addr:city": "MEETEETSE", "addr:country": "US", "addr:postcode": "82433", "addr:state": "WY", "addr:street_address": "1022 PARK AVE", "amenity": "post_box", "collection_times": "Mo-Fr 16:00; Sa 09:30", "indoor": "yes", "note": "ON 12/24 AND 12/31, THIS BOX MAY BE COLLECTED AS EARLY AS 12 NOON.", "nsi_id": "unitedstatespostalservice-a77078", "operator": "United States Postal Service", "operator:short": "USPS", "operator:type": "public", "operator:wikidata": "Q668687", "ref": "8243300003"}, "type": "Feature"}
{"geometry": {"coordinates": [-108.757991, 44.755249], "type": "Point"}, "id": "7KkDbOC1U8I_siFWpm2a1Kl-uPk=", "properties": {"@source_uri": "https://tools.usps.com/UspsToolsRestServices/rest/POLocator/findLocations", "@spider": "usps_collection_boxes", "addr:city": "POWELL", "addr:country": "US", "addr:postcode": "82435", "addr:state": "WY", "addr:street_address": "270 N BENT ST", "amenity": "post_box", "collection_times": "Mo-Sa 15:30", "note": "ON 12/24 AND 12/31, THIS BOX MAY BE COLLECTED AS EARLY AS 12 NOON.", "nsi_id": "unitedstatespostalservice-a77078", "operator": "United States Postal Service", "operator:short": "USPS", "operator:type": "public", "operator:wikidata": "Q668687", "ref": "8243500000"}, "type": "Feature"}
{"geometry": {"coordinates": [-108.757991, 44.755249], "type": "Point"}, "id": "_mHjxRPGzfk91uduPZsCJHSqFqI=", "properties": {"@source_uri": "https://tools.usps.com/UspsToolsRestServices/rest/POLocator/findLocations", "@spider": "usps_collection_boxes", "addr:city": "POWELL", "addr:country": "US", "addr:postcode": "82435", "addr:state": "WY", "addr:street_address": "270 N BENT ST", "amenity": "post_box", "collection_times": "Mo-Sa 15:30", "indoor": "yes", "note": "ON 12/24 AND 12/31, THIS BOX MAY BE COLLECTED AS EARLY AS 12 NOON.", "nsi_id": "unitedstatespostalservice-a77078", "operator": "United States Postal Service", "operator:short": "USPS", "operator:type": "public", "operator:wikidata": "Q668687", "ref": "8243500004"}, "type": "Feature"}
{"geometry": {"coordinates": [-108.757991, 44.755249], "type": "Point"}, "id": "BwcVVavSYEP_EN6laglQa1Emt5E=", "properties": {"@source_uri": "https://tools.usps.com/UspsToolsRestServices/rest/POLocator/findLocations", "@spider": "usps_collection_boxes", "addr:city": "POWELL", "addr:country": "US", "addr:postcode": "82435", "addr:state": "WY", "addr:street_address": "270 N BENT ST", "amenity": "post_box", "collection_times": "Mo-Sa 15:30", "indoor": "yes", "note": "ON 12/24 AND 12/31, THIS BOX MAY BE COLLECTED AS EARLY AS 12 NOON.", "nsi_id": "unitedstatespostalservice-a77078", "operator": "United States Postal Service", "operator:short": "USPS", "operator:type": "public", "operator:wikidata": "Q668687", "ref": "8243500005"}, "type": "Feature"}
{"geometry": {"coordinates": [-108.858684, 44.718451], "type": "Point"}, "id": "0F9xeZSTlKgqnVH4Fsvge6TUNo0=", "properties": {"@source_uri": "https://tools.usps.com/UspsToolsRestServices/rest/POLocator/findLocations", "@spider": "usps_collection_boxes", "addr:city": "RALSTON", "addr:country": "US", "addr:postcode": "82440", "addr:state": "WY", "addr:street_address": "680 MAIN ST", "amenity": "post_box", "collection_times": "Mo-Fr 15:45; Sa 10:45", "note": "ON 12/24 AND 12/31, THIS BOX MAY BE COLLECTED AS EARLY AS 12 NOON.", "nsi_id": "unitedstatespostalservice-a77078", "operator": "United States Postal Service", "operator:short": "USPS", "operator:type": "public", "operator:wikidata": "Q668687", "ref": "8244000000"}, "type": "Feature"}
{"geometry": {"coordinates": [-108.858594, 44.718515], "type": "Point"}, "id": "ewAfCSWTUDjyxeoZXjF_sK-sf_w=", "properties": {"@source_uri": "https://tools.usps.com/UspsToolsRestServices/rest/POLocator/findLocations", "@spider": "usps_collection_boxes", "addr:city": "RALSTON", "addr:country": "US", "addr:postcode": "82440", "addr:state": "WY", "addr:street_address": "680 MAIN ST", "amenity": "post_box", "collection_times": "Mo-Fr 15:45; Sa 10:45", "indoor": "yes", "note": "ON 12/24 AND 12/31, THIS BOX MAY BE COLLECTED AS EARLY AS 12 NOON.", "nsi_id": "unitedstatespostalservice-a77078", "operator": "United States Postal Service", "operator:short": "USPS", "operator:type": "public", "operator:wikidata": "Q668687", "ref": "8244000001"}, "type": "Feature"}
{"geometry": {"coordinates": [-107.78004, 44.535009], "type": "Point"}, "id": "GgZFrzxiHlA1Pvv9w6GOPQW2w3g=", "properties": {"@source_uri": "https://tools.usps.com/UspsToolsRestServices/rest/POLocator/findLocations", "@spider": "usps_collection_boxes", "addr:city": "SHELL", "addr:country": "US", "addr:postcode": "82441", "addr:state": "WY", "addr:street_address": "114 MAIN ST", "amenity": "post_box", "collection_times": "Mo-Fr 13:45; Sa 10:45", "note": "ON 12/24 AND 12/31, THIS BOX MAY BE COLLECTED AS EARLY AS 12 NOON.", "nsi_id": "unitedstatespostalservice-a77078", "operator": "United States Postal Service", "operator:short": "USPS", "operator:type": "public", "operator:wikidata": "Q668687", "ref": "8244100000"}, "type": "Feature"}
{"geometry": {"coordinates": [-107.78004, 44.535009], "type": "Point"}, "id": "G9Db34C48QTt_p8aAkC77OIZfdI=", "properties": {"@source_uri": "https://tools.usps.com/UspsToolsRestServices/rest/POLocator/findLocations", "@spider": "usps_collection_boxes", "addr:city": "SHELL", "addr:country": "US", "addr:postcode": "82441", "addr:state": "WY", "addr:street_address": "114 MAIN ST", "amenity": "post_box", "collection_times": "Mo-Fr 13:45; Sa 10:45", "indoor": "yes", "note": "ON 12/24 AND 12/31, THIS BOX MAY BE COLLECTED AS EARLY AS 12 NOON.", "nsi_id": "unitedstatespostalservice-a77078", "operator": "United States Postal Service", "operator:short": "USPS", "operator:type": "public", "operator:wikidata": "Q668687", "ref": "8244100002"}, "type": "Feature"}
{"geometry": {"coordinates": [-107.78004, 44.535009], "type": "Point"}, "id": "QJOpASclY99wOi7-TAOhuoVULtw=", "properties": {"@source_uri": "https://tools.usps.com/UspsToolsRestServices/rest/POLocator/findLocations", "@spider": "usps_collection_boxes", "addr:city": "SHELL", "addr:country": "US", "addr:postcode": "82441", "addr:state": "WY", "addr:street_address": "114 MAIN ST", "amenity": "post_box", "collection_times": "Mo-Fr 13:45; Sa 10:45", "indoor": "yes", "note": "ON 12/24 AND 12/31, THIS BOX MAY BE COLLECTED AS EARLY AS 12 NOON.", "nsi_id": "unitedstatespostalservice-a77078", "operator": "United States Postal Service", "operator:short": "USPS", "operator:type": "public", "operator:wikidata": "Q668687", "ref": "8244100003"}, "type": "Feature"}
{"geometry": {"coordinates": [-107.449744, 44.034613], "type": "Point"}, "id": "5395wVhzIzhRpSZJOp51QMvdRDk=", "properties": {"@source_uri": "https://tools.usps.com/UspsToolsRestServices/rest/POLocator/findLocations", "@spider": "usps_collection_boxes", "addr:city": "TEN SLEEP", "addr:country": "US", "addr:postcode": "82442", "addr:state": "WY", "addr:street_address": "115 PINE ST", "amenity": "post_box", "collection_times": "Mo-Fr 15:15; Sa 10:00", "note": "ON 12/24 AND 12/31, THIS BOX MAY BE COLLECTED AS EARLY AS 12 NOON.", "nsi_id": "unitedstatespostalservice-a77078", "operator": "United States Postal Service", "operator:short": "USPS", "operator:type": "public", "operator:wikidata": "Q668687", "ref": "8244200000"}, "type": "Feature"}
{"geometry": {"coordinates": [-107.449744, 44.034613], "type": "Point"}, "id": "zhmtrvhAWjN3PkcoOmgP9W-m6zQ=", "properties": {"@source_uri": "https://tools.usps.com/UspsToolsRestServices/rest/POLocator/findLocations", "@spider": "usps_collection_boxes", "addr:city": "TEN SLEEP", "addr:country": "US", "addr:postcode": "82442", "addr:state": "WY", "addr:street_address": "115 PINE ST", "amenity": "post_box", "collection_times": "Mo-Fr 15:15; Sa 10:00", "indoor": "yes", "note": "ON 12/24 AND 12/31, THIS BOX MAY BE COLLECTED AS EARLY AS 12 NOON.", "nsi_id": "unitedstatespostalservice-a77078", "operator": "United States Postal Service", "operator:short": "USPS", "operator:type": "public", "operator:wikidata": "Q668687", "ref": "8244200001"}, "type": "Feature"}
{"geometry": {"coordinates": [-108.210109, 43.647739], "type": "Point"}, "id": "MJRZTGgucqCis64uXi4j3TOK5Fo=", "properties": {"@source_uri": "https://tools.usps.com/UspsToolsRestServices/rest/POLocator/findLocations", "@spider": "usps_collection_boxes", "addr:city": "THERMOPOLIS", "addr:country": "US", "addr:postcode": "82443", "addr:state": "WY", "addr:street_address": "440 ARAPAHOE ST", "amenity": "post_box", "collection_times": "Mo-Fr 17:00; Sa 15:00", "note": "ON 12/24 AND 12/31, THIS BOX MAY BE COLLECTED AS EARLY AS 12 NOON.", "nsi_id": "unitedstatespostalservice-a77078", "operator": "United States Postal Service", "operator:short": "USPS", "operator:type": "public", "operator:wikidata": "Q668687", "ref": "8244300000"}, "type": "Feature"}
{"geometry": {"coordinates": [-108.208307, 43.644383], "type": "Point"}, "id": "GLqh26gFeFb9DjXm1IQmNLnLDNg=", "properties": {"@source_uri": "https://tools.usps.com/UspsToolsRestServices/rest/POLocator/findLocations", "@spider": "usps_collection_boxes", "addr:city": "THERMOPOLIS", "addr:country": "US", "addr:postcode": "82443", "addr:state": "WY", "addr:street_address": "600 S 6TH ST", "amenity": "post_box", "collection_times": "Mo-Sa 12:00", "nsi_id": "unitedstatespostalservice-a77078", "operator": "United States Postal Service", "operator:short": "USPS", "operator:type": "public", "operator:wikidata": "Q668687", "ref": "8244300002"}, "type": "Feature"}
{"geometry": {"coordinates": [-108.209805, 43.647493], "type": "Point"}, "id": "3RrqXBB69Hunmh50wcZXXmPTzjw=", "properties": {"@source_uri": "https://tools.usps.com/UspsToolsRestServices/rest/POLocator/findLocations", "@spider": "usps_collection_boxes", "addr:city": "THERMOPOLIS", "addr:country": "US", "addr:postcode": "82443", "addr:state": "WY", "addr:street_address": "440 ARAPAHOE ST", "amenity": "post_box", "collection_times": "Mo-Fr 17:00; Sa 12:00", "indoor": "yes", "note": "ON 12/24 AND 12/31, THIS BOX MAY BE COLLECTED AS EARLY AS 12 NOON.", "nsi_id": "unitedstatespostalservice-a77078", "operator": "United States Postal Service", "operator:short": "USPS", "operator:type": "public", "operator:wikidata": "Q668687", "ref": "8244300005"}, "type": "Feature"}
{"geometry": {"coordinates": [-108.20987, 43.647507], "type": "Point"}, "id": "mywnUilh8Dzuh0E_Lv4NXZDvmBg=", "properties": {"@source_uri": "https://tools.usps.com/UspsToolsRestServices/rest/POLocator/findLocations", "@spider": "usps_collection_boxes", "addr:city": "THERMOPOLIS", "addr:country": "US", "addr:postcode": "82443", "addr:state": "WY", "addr:street_address": "440 ARAPAHOE ST", "amenity": "post_box", "collection_times": "Mo-Fr 17:00; Sa 12:00", "indoor": "yes", "note": "ON 12/24 AND 12/31, THIS BOX MAY BE COLLECTED AS EARLY AS 12 NOON.", "nsi_id": "unitedstatespostalservice-a77078", "operator": "United States Postal Service", "operator:short": "USPS", "operator:type": "public", "operator:wikidata": "Q668687", "ref": "8244300006"}, "type": "Feature"}
{"geometry": {"coordinates": [-109.346959, 44.485949], "type": "Point"}, "id": "SUvrwxcfrC7gcSW_0WFisaqoyBE=", "properties": {"@source_uri": "https://tools.usps.com/UspsToolsRestServices/rest/POLocator/findLocations", "@spider": "usps_collection_boxes", "addr:city": "WAPITI", "addr:country": "US", "addr:postcode": "82450", "addr:state": "WY", "addr:street_address": "1 STREAMSIDE DR", "amenity": "post_box", "collection_times": "Mo-Fr 14:00; Sa 13:00", "note": "ON 12/24 AND 12/31, THIS BOX MAY BE COLLECTED AS EARLY AS 12 NOON.", "nsi_id": "unitedstatespostalservice-a77078", "operator": "United States Postal Service", "operator:short": "USPS", "operator:type": "public", "operator:wikidata": "Q668687", "ref": "8245000000"}, "type": "Feature"}
{"geometry": {"coordinates": [-109.347352, 44.486181], "type": "Point"}, "id": "KeT3hBB9iYJ6m87Mc0jdB8ztIPA=", "properties": {"@source_uri": "https://tools.usps.com/UspsToolsRestServices/rest/POLocator/findLocations", "@spider": "usps_collection_boxes", "addr:city": "WAPITI", "addr:country": "US", "addr:postcode": "82450", "addr:state": "WY", "addr:street_address": "1 STREAMSIDE DR", "amenity": "post_box", "collection_times": "Mo-Fr 13:45; Sa 13:00", "indoor": "yes", "note": "ON 12/24 AND 12/31, THIS BOX MAY BE COLLECTED AS EARLY AS 12 NOON.", "nsi_id": "unitedstatespostalservice-a77078", "operator": "United States Postal Service", "operator:short": "USPS", "operator:type": "public", "operator:wikidata": "Q668687", "ref": "8245000001"}, "type": "Feature"}
{"geometry": {"coordinates": [-109.347352, 44.486181], "type": "Point"}, "id": "EnXFSvi2Z19pl4DtvcXIi0TdZIQ=", "properties": {"@source_uri": "https://tools.usps.com/UspsToolsRestServices/rest/POLocator/findLocations", "@spider": "usps_collection_boxes", "addr:city": "WAPITI", "addr:country": "US", "addr:postcode": "82450", "addr:state": "WY", "addr:street_address": "1 STREAMSIDE DR", "amenity": "post_box", "collection_times": "Mo-Fr 13:45; Sa 13:00", "indoor": "yes", "note": "ON 12/24 AND 12/31, THIS BOX MAY BE COLLECTED AS EARLY AS 12 NOON.", "nsi_id": "unitedstatespostalservice-a77078", "operator": "United States Postal Service", "operator:short": "USPS", "operator:type": "public", "operator:wikidata": "Q668687", "ref": "8245000002"}, "type": "Feature"}
