{"geometry": {"coordinates": [-108.384701, 43.02463], "type": "Point"}, "id": "b6USOkbyEEHhlal51IpHUvyVbpE=", "properties": {"@source_uri": "https://tools.usps.com/UspsToolsRestServices/rest/POLocator/findLocations", "@spider": "usps_collection_boxes", "addr:city": "RIVERTON", "addr:country": "US", "addr:postcode": "82501", "addr:state": "WY", "addr:street_address": "501 E MAIN ST", "amenity": "post_box", "collection_times": "Mo-Fr 16:10; Sa 14:00", "note": "ON 12/24 AND 12/31, THIS BOX MAY BE COLLECTED AS EARLY AS 12 NOON.", "nsi_id": "unitedstatespostalservice-a77078", "operator": "United States Postal Service", "operator:short": "USPS", "operator:type": "public", "operator:wikidata": "Q668687", "ref": "8250100003"}, "type": "Feature"}
{"geometry": {"coordinates": [-108.380449, 43.031171], "type": "Point"}, "id": "fJiuM1glQeor_UzD4RjmZDFKX50=", "properties": {"@source_uri": "https://tools.usps.com/UspsToolsRestServices/rest/POLocator/findLocations", "@spider": "usps_collection_boxes", "addr:city": "RIVERTON", "addr:country": "US", "addr:postcode": "82501", "addr:state": "WY", "addr:street_address": "709 N FEDERAL BLVD", "amenity": "post_box", "collection_times": "Mo-Sa 14:30", "note": "ON 12/24 AND 12/31, THIS BOX MAY BE COLLECTED AS EARLY AS 12 NOON.", "nsi_id": "unitedstatespostalservice-a77078", "operator": "United States Postal Service", "operator:short": "USPS", "operator:type": "public", "operator:wikidata": "Q668687", "ref": "8250100012"}, "type": "Feature"}
{"geometry": {"coordinates": [-108.380039, 43.043015], "type": "Point"}, "id": "0NxtIUa1jQBWR3imcg3FfyJYpiM=", "properties": {"@source_uri": "https://tools.usps.com/UspsToolsRestServices/rest/POLocator/findLocations", "@spider": "usps_collection_boxes", "addr:city": "RIVERTON", "addr:country": "US", "addr:postcode": "82501", "addr:state": "WY", "addr:street_address": "1733 N FEDERAL BLVD", "amenity": "post_box", "collection_times": "Mo-Sa 09:00", "nsi_id": "unitedstatespostalservice-a77078", "operator": "United States Postal Service", "operator:short": "USPS", "operator:type": "public", "operator:wikidata": "Q668687", "ref": "8250100017"}, "type": "Feature"}
{"geometry": {"coordinates": [-108.408585, 43.024681], "type": "Point"}, "id": "fWiyInDuJhNkx9NaBRqPSMa2xG8=", "properties": {"@source_uri": "https://tools.usps.com/UspsToolsRestServices/rest/POLocator/findLocations", "@spider": "usps_collection_boxes", "addr:city": "RIVERTON", "addr:country": "US", "addr:postcode": "82501", "addr:state": "WY", "addr:street_address": "1307 W MAIN ST", "amenity": "post_box", "collection_times": "Mo-Fr 17:00; Sa 16:00", "note": "ON 12/24 AND 12/31, THIS BOX MAY BE COLLECTED AS EARLY AS 12 NOON.", "nsi_id": "unitedstatespostalservice-a77078", "operator": "United States Postal Service", "operator:short": "USPS", "operator:type": "public", "operator:wikidata": "Q668687", "ref": "8250100019"}, "type": "Feature"}
{"geometry": {"coordinates": [-108.408585, 43.024681], "type": "Point"}, "id": "MVLnVMNpYhFwOz7nD1dio6hwbTM=", "properties": {"@source_uri": "https://tools.usps.com/UspsToolsRestServices/rest/POLocator/findLocations", "@spider": "usps_collection_boxes", "addr:city": "RIVERTON", "addr:country": "US", "addr:postcode": "82501", "addr:state": "WY", "addr:street_address": "1307 W MAIN ST", "amenity": "post_box", "collection_times": "Mo-Fr 17:00; Sa 16:00", "note": "ON 12/24 AND 12/31, THIS BOX MAY BE COLLECTED AS EARLY AS 12 NOON.", "nsi_id": "unitedstatespostalservice-a77078", "operator": "United States Postal Service", "operator:short": "USPS", "operator:type": "public", "operator:wikidata": "Q668687", "ref": "8250100020"}, "type": "Feature"}
{"geometry": {"coordinates": [-108.384701, 43.02463], "type": "Point"}, "id": "WN_oKM9FDfqWBeyDW3CRL6JKhA0=", "properties": {"@source_uri": "https://tools.usps.com/UspsToolsRestServices/rest/POLocator/findLocations", "@spider": "usps_collection_boxes", "addr:city": "RIVERTON", "addr:country": "US", "addr:postcode": "82501", "addr:state": "WY", "addr:street_address": "501 E MAIN ST", "amenity": "post_box", "collection_times": "Mo-Fr 16:10; Sa 14:00", "note": "ON 12/24 AND 12/31, THIS BOX MAY BE COLLECTED AS EARLY AS 12 NOON.", "nsi_id": "unitedstatespostalservice-a77078", "operator": "United States Postal Service", "operator:short": "USPS", "operator:type": "public", "operator:wikidata": "Q668687", "ref": "8250100021"}, "type": "Feature"}
{"geometry": {"coordinates": [-108.384701, 43.02463], "type": "Point"}, "id": "e4RqxvCBHYMSV4BbqViEZ7QW2cI=", "properties": {"@source_uri": "https://tools.usps.com/UspsToolsRestServices/rest/POLocator/findLocations", "@spider": "usps_collection_boxes", "addr:city": "RIVERTON", "addr:country": "US", "addr:postcode": "82501", "addr:state": "WY", "addr:street_address": "501 E MAIN ST", "amenity": "post_box", "collection_times": "Mo-Fr 16:10; Sa 14:00", "note": "ON 12/24 AND 12/31, THIS BOX MAY BE COLLECTED AS EARLY AS 12 NOON.", "nsi_id": "unitedstatespostalservice-a77078", "operator": "United States Postal Service", "operator:short": "USPS", "operator:type": "public", "operator:wikidata": "Q668687", "ref": "8250100022"}, "type": "Feature"}
{"geometry": {"coordinates": [-108.384701, 43.02463], "type": "Point"}, "id": "sOiAtewFGNzHvATOi283kheStwQ=", "properties": {"@source_uri": "https://tools.usps.com/UspsToolsRestServices/rest/POLocator/findLocations", "@spider": "usps_collection_boxes", "addr:city": "RIVERTON", "addr:country": "US", "addr:postcode": "82501", "addr:state": "WY", "addr:street_address": "501 E MAIN ST", "amenity": "post_box", "collection_times": "Mo-Fr 16:10; Sa 14:00", "indoor": "yes", "note": "ON 12/24 AND 12/31, THIS BOX MAY BE COLLECTED AS EARLY AS 12 NOON.", "nsi_id": "unitedstatespostalservice-a77078", "operator": "United States Postal Service", "operator:short": "USPS", "operator:type": "public", "operator:wikidata": "Q668687", "ref": "8250100023"}, "type": "Feature"}
{"geometry": {"coordinates": [-108.444637, 43.025371], "type": "Point"}, "id": "LFR2NqQb1YYO3NlEhHK2v9WyV6c=", "properties": {"@source_uri": "https://tools.usps.com/UspsToolsRestServices/rest/POLocator/findLocations", "@spider": "usps_collection_boxes", "addr:city": "RIVERTON", "addr:country": "US", "addr:postcode": "82501", "addr:state": "WY", "addr:street_address": "401 VILLAGE DR", "amenity": "post_box", "collection_times": "Mo-Fr 11:00; Sa 10:30", "nsi_id": "unitedstatespostalservice-a77078", "operator": "United States Postal Service", "operator:short": "USPS", "operator:type": "public", "operator:wikidata": "Q668687", "ref": "8250100024"}, "type": "Feature"}
{"geometry": {"coordinates": [-108.384701, 43.02463], "type": "Point"}, "id": "sQc4K-s0Pg-ZOhUW2L46mX2jW8A=", "properties": {"@source_uri": "https://tools.usps.com/UspsToolsRestServices/rest/POLocator/findLocations", "@spider": "usps_collection_boxes", "addr:city": "RIVERTON", "addr:country": "US", "addr:postcode": "82501", "addr:state": "WY", "addr:street_address": "501 E MAIN ST", "amenity": "post_box", "collection_times": "Mo-Fr 16:10; Sa 14:00", "indoor": "yes", "note": "ON 12/24 AND 12/31, THIS BOX MAY BE COLLECTED AS EARLY AS 12 NOON.", "nsi_id": "unitedstatespostalservice-a77078", "operator": "United States Postal Service", "operator:short": "USPS", "operator:type": "public", "operator:wikidata": "Q668687", "ref": "8250100025"}, "type": "Feature"}
{"geometry": {"coordinates": [-108.408585, 43.024681], "type": "Point"}, "id": "dmwPkXeE34aihinG46uXtdA6jkg=", "properties": {"@source_uri": "https://tools.usps.com/UspsToolsRestServices/rest/POLocator/findLocations", "@spider": "usps_collection_boxes", "addr:city": "RIVERTON", "addr:country": "US", "addr:postcode": "82501", "addr:state": "WY", "addr:street_address": "1307 W MAIN ST", "amenity": "post_box", "collection_times": "Mo-Fr 17:00; Sa 16:00", "note": "ON 12/24 AND 12/31, THIS BOX MAY BE COLLECTED AS EARLY AS 12 NOON.", "nsi_id": "unitedstatespostalservice-a77078", "operator": "United States Postal Service", "operator:short": "USPS", "operator:type": "public", "operator:wikidata": "Q668687", "ref": "8250100026"}, "type": "Feature"}
{"geometry": {"coordinates": [-109.194657, 43.309706], "type": "Point"}, "id": "L5M4SVvB0U357C0r2n9XENy7Gi4=", "properties": {"@source_uri": "https://tools.usps.com/UspsToolsRestServices/rest/POLocator/findLocations", "@spider": "usps_collection_boxes", "addr:city": "CROWHEART", "addr:country": "US", "addr:postcode": "82512", "addr:state": "WY", "addr:street_address": "8526 US HIGHWAY 26-287", "amenity": "post_box", "collection_times": "Mo-Fr 15:00; Sa 10:00", "note": "ON 12/24 AND 12/31, THIS BOX MAY BE COLLECTED AS EARLY AS 12 NOON.", "nsi_id": "unitedstatespostalservice-a77078", "operator": "United States Postal Service", "operator:short": "USPS", "operator:type": "public", "operator:wikidata": "Q668687", "ref": "8251200000"}, "type": "Feature"}
{"geometry": {"coordinates": [-109.194657, 43.309706], "type": "Point"}, "id": "AJZY8p4EvGWwNbEmdD0bxeWROHA=", "properties": {"@source_uri": "https://tools.usps.com/UspsToolsRestServices/rest/POLocator/findLocations", "@spider": "usps_collection_boxes", "addr:city": "CROWHEART", "addr:country": "US", "addr:postcode": "82512", "addr:state": "WY", "addr:street_address": "8526 US HIGHWAY 26", "amenity": "post_box", "collection_times": "Mo-Fr 15:00; Sa 10:00", "indoor": "yes", "note": "ON 12/24 AND 12/31, THIS BOX MAY BE COLLECTED AS EARLY AS 12 NOON.", "nsi_id": "unitedstatespostalservice-a77078", "operator": "United States Postal Service", "operator:short": "USPS", "operator:type": "public", "operator:wikidata": "Q668687", "ref": "8251200001"}, "type": "Feature"}
{"geometry": {"coordinates": [-109.642973, 43.537146], "type": "Point"}, "id": "06iqx_tf05AYMnlvaOmgs4IwtN0=", "properties": {"@source_uri": "https://tools.usps.com/UspsToolsRestServices/rest/POLocator/findLocations", "@spider": "usps_collection_boxes", "addr:city": "DUBOIS", "addr:country": "US", "addr:postcode": "82513", "addr:state": "WY", "addr:street_address": "804 RAMSHORN ST", "amenity": "post_box", "collection_times": "Mo-Fr 14:10; Sa 12:45", "note": "ON 12/24 AND 12/31, THIS BOX MAY BE COLLECTED AS EARLY AS 12 NOON.", "nsi_id": "unitedstatespostalservice-a77078", "operator": "United States Postal Service", "operator:short": "USPS", "operator:type": "public", "operator:wikidata": "Q668687", "ref": "8251300000"}, "type": "Feature"}
{"geometry": {"coordinates": [-109.631363, 43.533778], "type": "Point"}, "id": "y5vKLSzAvfliWhVwgNtWSFO5RHU=", "properties": {"@source_uri": "https://tools.usps.com/UspsToolsRestServices/rest/POLocator/findLocations", "@spider": "usps_collection_boxes", "addr:city": "DUBOIS", "addr:country": "US", "addr:postcode": "82513", "addr:state": "WY", "addr:street_address": "126 E RAMSHORN", "amenity": "post_box", "collection_times": "Mo-Sa 10:15", "nsi_id": "unitedstatespostalservice-a77078", "operator": "United States Postal Service", "operator:short": "USPS", "operator:type": "public", "operator:wikidata": "Q668687", "ref": "8251300001"}, "type": "Feature"}
{"geometry": {"coordinates": [-109.642973, 43.537146], "type": "Point"}, "id": "JOeyqVD6dLwoAyADdVU4FzkrG-g=", "properties": {"@source_uri": "https://tools.usps.com/UspsToolsRestServices/rest/POLocator/findLocations", "@spider": "usps_collection_boxes", "addr:city": "DUBOIS", "addr:country": "US", "addr:postcode": "82513", "addr:state": "WY", "addr:street_address": "804 RAMSHORN ST", "amenity": "post_box", "collection_times": "Mo-Fr 14:10; Sa 12:45", "indoor": "yes", "note": "ON 12/24 AND 12/31, THIS BOX MAY BE COLLECTED AS EARLY AS 12 NOON.", "nsi_id": "unitedstatespostalservice-a77078", "operator": "United States Postal Service", "operator:short": "USPS", "operator:type": "public", "operator:wikidata": "Q668687", "ref": "8251300003"}, "type": "Feature"}
{"geometry": {"coordinates": [-108.882791, 43.003408], "type": "Point"}, "id": "bJSc2MerE8NEW-Zmb7uZtOYgnq0=", "properties": {"@source_uri": "https://tools.usps.com/UspsToolsRestServices/rest/POLocator/findLocations", "@spider": "usps_collection_boxes", "addr:city": "FORT WASHAKIE", "addr:country": "US", "addr:postcode": "82514", "addr:state": "WY", "addr:street_address": "14 N FORK RD", "amenity": "post_box", "collection_times": "Mo-Fr 14:15; Sa 11:15", "indoor": "yes", "note": "ON 12/24 AND 12/31, THIS BOX MAY BE COLLECTED AS EARLY AS 12 NOON.", "nsi_id": "unitedstatespostalservice-a77078", "operator": "United States Postal Service", "operator:short": "USPS", "operator:type": "public", "operator:wikidata": "Q668687", "ref": "8251400005"}, "type": "Feature"}
{"geometry": {"coordinates": [-108.583686, 42.903984], "type": "Point"}, "id": "uDpoZb-HaFoxphGP5wGpgliIbfE=", "properties": {"@source_uri": "https://tools.usps.com/UspsToolsRestServices/rest/POLocator/findLocations", "@spider": "usps_collection_boxes", "addr:city": "HUDSON", "addr:country": "US", "addr:postcode": "82515", "addr:state": "WY", "addr:street_address": "280 S MAIN ST", "amenity": "post_box", "collection_times": "Mo-Fr 11:30; Sa 10:15", "nsi_id": "unitedstatespostalservice-a77078", "operator": "United States Postal Service", "operator:short": "USPS", "operator:type": "public", "operator:wikidata": "Q668687", "ref": "8251500000"}, "type": "Feature"}
{"geometry": {"coordinates": [-108.583649, 42.903935], "type": "Point"}, "id": "-cY_lYqLU-OyPYyjENyBVrEhcSc=", "properties": {"@source_uri": "https://tools.usps.com/UspsToolsRestServices/rest/POLocator/findLocations", "@spider": "usps_collection_boxes", "addr:city": "HUDSON", "addr:country": "US", "addr:postcode": "82515", "addr:state": "WY", "addr:street_address": "280 S MAIN ST", "amenity": "post_box", "collection_times": "Mo-Fr 11:30; Sa 10:15", "indoor": "yes", "nsi_id": "unitedstatespostalservice-a77078", "operator": "United States Postal Service", "operator:short": "USPS", "operator:type": "public", "operator:wikidata": "Q668687", "ref": "8251500001"}, "type": "Feature"}
{"geometry": {"coordinates": [-108.677898, 43.151716], "type": "Point"}, "id": "7unpIJvNM_NRUZrmyBuULau-8h0=", "properties": {"@source_uri": "https://tools.usps.com/UspsToolsRestServices/rest/POLocator/findLocations", "@spider": "usps_collection_boxes", "addr:city": "KINNEAR", "addr:country": "US", "addr:postcode": "82516", "addr:state": "WY", "addr:street_address": "11517 US HIGHWAY 26", "amenity": "post_box", "collection_times": "Mo-Fr 15:45; Sa 10:15", "note": "ON 12/24 AND 12/31, THIS BOX MAY BE COLLECTED AS EARLY AS 12 NOON.", "nsi_id": "unitedstatespostalservice-a77078", "operator": "United States Postal Service", "operator:short": "USPS", "operator:type": "public", "operator:wikidata": "Q668687", "ref": "8251600000"}, "type": "Feature"}
{"geometry": {"coordinates": [-108.677929, 43.151721], "type": "Point"}, "id": "tiT4LC2JDmWOfbfIuSZiTtIx5cQ=", "properties": {"@source_uri": "https://tools.usps.com/UspsToolsRestServices/rest/POLocator/findLocations", "@spider": "usps_collection_boxes", "addr:city": "KINNEAR", "addr:country": "US", "addr:postcode": "82516", "addr:state": "WY", "addr:street_address": "11517 US HIGHWAY 26", "amenity": "post_box", "collection_times": "Mo-Fr 15:45; Sa 10:15", "indoor": "yes", "note": "ON 12/24 AND 12/31, THIS BOX MAY BE COLLECTED AS EARLY AS 12 NOON.", "nsi_id": "unitedstatespostalservice-a77078", "operator": "United States Postal Service", "operator:short": "USPS", "operator:type": "public", "operator:wikidata": "Q668687", "ref": "8251600001"}, "type": "Feature"}
{"geometry": {"coordinates": [-108.730586, 42.832931], "type": "Point"}, "id": "aTGre77Rub_j6iyug5Jml1xSch0=", "properties": {"@source_uri": "https://tools.usps.com/UspsToolsRestServices/rest/POLocator/findLocations", "@spider": "usps_collection_boxes", "addr:city": "LANDER", "addr:country": "US", "addr:postcode": "82520", "addr:state": "WY", "addr:street_address": "273 W MAIN ST", "amenity": "post_box", "collection_times": "Mo-Fr 15:00; Sa 13:00", "note": "ON 12/24 AND 12/31, THIS BOX MAY BE COLLECTED AS EARLY AS 12 NOON.", "nsi_id": "unitedstatespostalservice-a77078", "operator": "United States Postal Service", "operator:short": "USPS", "operator:type": "public", "operator:wikidata": "Q668687", "ref": "8252000000"}, "type": "Feature"}
{"geometry": {"coordinates": [-108.743264, 42.835556], "type": "Point"}, "id": "uHDtSXWvgexn4MeREN3YFa67k5o=", "properties": {"@source_uri": "https://tools.usps.com/UspsToolsRestServices/rest/POLocator/findLocations", "@spider": "usps_collection_boxes", "addr:city": "LANDER", "addr:country": "US", "addr:postcode": "82520", "addr:state": "WY", "addr:street_address": "895 MAIN ST", "amenity": "post_box", "collection_times": "Mo-Fr 15:00; Sa 13:00", "note": "ON 12/24 AND 12/31, THIS BOX MAY BE COLLECTED AS EARLY AS 12 NOON.", "nsi_id": "unitedstatespostalservice-a77078", "operator": "United States Postal Service", "operator:short": "USPS", "operator:type": "public", "operator:wikidata": "Q668687", "ref": "8252000001"}, "type": "Feature"}
{"geometry": {"coordinates": [-108.731059, 42.833794], "type": "Point"}, "id": "F8XBtRZKLCvj4v0PrzGAqcXZHNk=", "properties": {"@source_uri": "https://tools.usps.com/UspsToolsRestServices/rest/POLocator/findLocations", "@spider": "usps_collection_boxes", "addr:city": "LANDER", "addr:country": "US", "addr:postcode": "82520", "addr:state": "WY", "addr:street_address": "177 N 3RD ST", "amenity": "post_box", "collection_times": "Mo-Fr 15:00; Sa 13:00", "note": "ON 12/24 AND 12/31, THIS BOX MAY BE COLLECTED AS EARLY AS 12 NOON.", "nsi_id": "unitedstatespostalservice-a77078", "operator": "United States Postal Service", "operator:short": "USPS", "operator:type": "public", "operator:wikidata": "Q668687", "ref": "8252000004"}, "type": "Feature"}
{"geometry": {"coordinates": [-108.733808, 42.833592], "type": "Point"}, "id": "CD1wTgRbihA9MqHCeOLin33q8_A=", "properties": {"@source_uri": "https://tools.usps.com/UspsToolsRestServices/rest/POLocator/findLocations", "@spider": "usps_collection_boxes", "addr:city": "LANDER", "addr:country": "US", "addr:postcode": "82520", "addr:state": "WY", "addr:street_address": "423 MAIN ST", "amenity": "post_box", "collection_times": "Mo-Fr 15:00; Sa 13:00", "note": "ON 12/24 AND 12/31, THIS BOX MAY BE COLLECTED AS EARLY AS 12 NOON.", "nsi_id": "unitedstatespostalservice-a77078", "operator": "United States Postal Service", "operator:short": "USPS", "operator:type": "public", "operator:wikidata": "Q668687", "ref": "8252000005"}, "type": "Feature"}
{"geometry": {"coordinates": [-108.72202, 42.831643], "type": "Point"}, "id": "asgIbN8yIJpBA2TP_lbBU0w9hPw=", "properties": {"@source_uri": "https://tools.usps.com/UspsToolsRestServices/rest/POLocator/findLocations", "@spider": "usps_collection_boxes", "addr:city": "LANDER", "addr:country": "US", "addr:postcode": "82520", "addr:state": "WY", "addr:street_address": "230 GRANDVIEW DR", "amenity": "post_box", "collection_times": "Mo-Sa 15:30", "note": "ON 12/24 AND 12/31, THIS BOX MAY BE COLLECTED AS EARLY AS 12 NOON.", "nsi_id": "unitedstatespostalservice-a77078", "operator": "United States Postal Service", "operator:short": "USPS", "operator:type": "public", "operator:wikidata": "Q668687", "ref": "8252000012"}, "type": "Feature"}
{"geometry": {"coordinates": [-108.72202, 42.831643], "type": "Point"}, "id": "S4UkRpZ3SuFo6GavZTcAreY2i5A=", "properties": {"@source_uri": "https://tools.usps.com/UspsToolsRestServices/rest/POLocator/findLocations", "@spider": "usps_collection_boxes", "addr:city": "LANDER", "addr:country": "US", "addr:postcode": "82520", "addr:state": "WY", "addr:street_address": "230 GRANDVIEW DR", "amenity": "post_box", "collection_times": "Mo-Sa 15:30", "note": "ON 12/24 AND 12/31, THIS BOX MAY BE COLLECTED AS EARLY AS 12 NOON.", "nsi_id": "unitedstatespostalservice-a77078", "operator": "United States Postal Service", "operator:short": "USPS", "operator:type": "public", "operator:wikidata": "Q668687", "ref": "8252000013"}, "type": "Feature"}
{"geometry": {"coordinates": [-108.72202, 42.831643], "type": "Point"}, "id": "1nhSKdErzEfcO-bvFgrqeMzfPEs=", "properties": {"@source_uri": "https://tools.usps.com/UspsToolsRestServices/rest/POLocator/findLocations", "@spider": "usps_collection_boxes", "addr:city": "LANDER", "addr:country": "US", "addr:postcode": "82520", "addr:state": "WY", "addr:street_address": "230 GRANDVIEW DR", "amenity": "post_box", "collection_times": "Mo-Sa 15:30", "indoor": "yes", "note": "ON 12/24 AND 12/31, THIS BOX MAY BE COLLECTED AS EARLY AS 12 NOON.", "nsi_id": "unitedstatespostalservice-a77078", "operator": "United States Postal Service", "operator:short": "USPS", "operator:type": "public", "operator:wikidata": "Q668687", "ref": "8252000018"}, "type": "Feature"}
{"geometry": {"coordinates": [-108.72202, 42.831643], "type": "Point"}, "id": "UvWiLLtWerXuNEiC6iJQxWTDa8s=", "properties": {"@source_uri": "https://tools.usps.com/UspsToolsRestServices/rest/POLocator/findLocations", "@spider": "usps_collection_boxes", "addr:city": "LANDER", "addr:country": "US", "addr:postcode": "82520", "addr:state": "WY", "addr:street_address": "230 GRANDVIEW DR", "amenity": "post_box", "collection_times": "Mo-Sa 15:30", "indoor": "yes", "note": "ON 12/24 AND 12/31, THIS BOX MAY BE COLLECTED AS EARLY AS 12 NOON.", "nsi_id": "unitedstatespostalservice-a77078", "operator": "United States Postal Service", "operator:short": "USPS", "operator:type": "public", "operator:wikidata": "Q668687", "ref": "8252000019"}, "type": "Feature"}
{"geometry": {"coordinates": [-108.690807, 43.245407], "type": "Point"}, "id": "S_QTRdtH76If55BN5ubIxyAmgWU=", "properties": {"@source_uri": "https://tools.usps.com/UspsToolsRestServices/rest/POLocator/findLocations", "@spider": "usps_collection_boxes", "addr:city": "PAVILLION", "addr:country": "US", "addr:postcode": "82523", "addr:state": "WY", "addr:street_address": "224 N MAIN ST", "amenity": "post_box", "collection_times": "Mo-Fr 15:30; Sa 10:00", "note": "ON 12/24 AND 12/31, THIS BOX MAY BE COLLECTED AS EARLY AS 12 NOON.", "nsi_id": "unitedstatespostalservice-a77078", "operator": "United States Postal Service", "operator:short": "USPS", "operator:type": "public", "operator:wikidata": "Q668687", "ref": "8252300000"}, "type": "Feature"}
{"geometry": {"coordinates": [-108.690679, 43.245289], "type": "Point"}, "id": "70JmDCgo7YQjO0BdZnWkMSQTMCM=", "properties": {"@source_uri": "https://tools.usps.com/UspsToolsRestServices/rest/POLocator/findLocations", "@spider": "usps_collection_boxes", "addr:city": "PAVILLION", "addr:country": "US", "addr:postcode": "82523", "addr:state": "WY", "addr:street_address": "224 N MAIN ST", "amenity": "post_box", "collection_times": "Mo-Fr 14:00; Sa 10:00", "indoor": "yes", "note": "ON 12/24 AND 12/31, THIS BOX MAY BE COLLECTED AS EARLY AS 12 NOON.", "nsi_id": "unitedstatespostalservice-a77078", "operator": "United States Postal Service", "operator:short": "USPS", "operator:type": "public", "operator:wikidata": "Q668687", "ref": "8252300001"}, "type": "Feature"}
{"geometry": {"coordinates": [-108.41560531, 42.9842750913], "type": "Point"}, "id": "na3aBxZdE6pejZ6foRxKF_Dc9rk=", "properties": {"@source_uri": "https://tools.usps.com/UspsToolsRestServices/rest/POLocator/findLocations", "@spider": "usps_collection_boxes", "addr:city": "ST. STEPHENS", "addr:country": "US", "addr:postcode": "82524", "addr:state": "WY", "addr:street_address": "33 SAINT STEPHENS RD", "amenity": "post_box", "collection_times": "Mo-Fr 15:00; Sa 09:00", "indoor": "yes", "note": "ON 12/24 AND 12/31, THIS BOX MAY BE COLLECTED AS EARLY AS 12 NOON.", "nsi_id": "unitedstatespostalservice-a77078", "operator": "United States Postal Service", "operator:short": "USPS", "operator:type": "public", "operator:wikidata": "Q668687", "ref": "8252400000"}, "type": "Feature"}
