{"geometry": {"coordinates": [-106.340217, 42.91367], "type": "Point"}, "id": "24B2eBX6lB4H6SFqgc2bltcxHTo=", "properties": {"@source_uri": "https://tools.usps.com/UspsToolsRestServices/rest/POLocator/findLocations", "@spider": "usps_collection_boxes", "addr:city": "CASPER", "addr:country": "US", "addr:postcode": "82601", "addr:state": "WY", "addr:street_address": "1401 SUNSET BLVD", "amenity": "post_box", "brand": "United States Postal Service", "brand:wikidata": "Q668687", "collection_times": "Mo-Sa 09:30", "nsi_id": "unitedstatespostalservice-a77078", "operator": "United States Postal Service", "operator:short": "USPS", "operator:type": "public", "operator:wikidata": "Q668687", "ref": "8260100000"}, "type": "Feature"}
{"geometry": {"coordinates": [-106.358657, 42.867917], "type": "Point"}, "id": "IGb-ZEFdoO48uOpNh7-l2MeLJeM=", "properties": {"@source_uri": "https://tools.usps.com/UspsToolsRestServices/rest/POLocator/findLocations", "@spider": "usps_collection_boxes", "addr:city": "CASPER", "addr:country": "US", "addr:postcode": "82601", "addr:state": "WY", "addr:street_address": "1711 SALT CREEK HWY", "amenity": "post_box", "brand": "United States Postal Service", "brand:wikidata": "Q668687", "collection_times": "Mo-Sa 09:00", "nsi_id": "unitedstatespostalservice-a77078", "operator": "United States Postal Service", "operator:short": "USPS", "operator:type": "public", "operator:wikidata": "Q668687", "ref": "8260100001"}, "type": "Feature"}
{"geometry": {"coordinates": [-106.323704138, 42.852801437], "type": "Point"}, "id": "PkYUYft7kiCUBwjobIwZue9lv8w=", "properties": {"@source_uri": "https://tools.usps.com/UspsToolsRestServices/rest/POLocator/findLocations", "@spider": "usps_collection_boxes", "addr:city": "CASPER", "addr:country": "US", "addr:postcode": "82601", "addr:state": "WY", "addr:street_address": "315 N WOLCOTT ST", "amenity": "post_box", "brand": "United States Postal Service", "brand:wikidata": "Q668687", "collection_times": "Mo-Fr 17:00; Sa 14:00", "note": "ON 12/24 AND 12/31, THIS BOX MAY BE COLLECTED AS EARLY AS 12 NOON.", "nsi_id": "unitedstatespostalservice-a77078", "operator": "United States Postal Service", "operator:short": "USPS", "operator:type": "public", "operator:wikidata": "Q668687", "ref": "8260100004"}, "type": "Feature"}
{"geometry": {"coordinates": [-106.323704138, 42.852801437], "type": "Point"}, "id": "P7opAXZe69Wyi_SkYIXtBUwDcFk=", "properties": {"@source_uri": "https://tools.usps.com/UspsToolsRestServices/rest/POLocator/findLocations", "@spider": "usps_collection_boxes", "addr:city": "CASPER", "addr:country": "US", "addr:postcode": "82601", "addr:state": "WY", "addr:street_address": "315 N WOLCOTT ST", "amenity": "post_box", "brand": "United States Postal Service", "brand:wikidata": "Q668687", "collection_times": "Mo-Fr 17:00; Sa 14:00", "note": "ON 12/24 AND 12/31, THIS BOX MAY BE COLLECTED AS EARLY AS 12 NOON.", "nsi_id": "unitedstatespostalservice-a77078", "operator": "United States Postal Service", "operator:short": "USPS", "operator:type": "public", "operator:wikidata": "Q668687", "ref": "8260100005"}, "type": "Feature"}
{"geometry": {"coordinates": [-106.323704138, 42.852801437], "type": "Point"}, "id": "RtYjlzm8c5px0PY_EqCLbmoPHj8=", "properties": {"@source_uri": "https://tools.usps.com/UspsToolsRestServices/rest/POLocator/findLocations", "@spider": "usps_collection_boxes", "addr:city": "CASPER", "addr:country": "US", "addr:postcode": "82601", "addr:state": "WY", "addr:street_address": "315 N WOLCOTT ST", "amenity": "post_box", "brand": "United States Postal Service", "brand:wikidata": "Q668687", "collection_times": "Mo-Fr 17:00; Sa 14:00", "note": "ON 12/24 AND 12/31, THIS BOX MAY BE COLLECTED AS EARLY AS 12 NOON.", "nsi_id": "unitedstatespostalservice-a77078", "operator": "United States Postal Service", "operator:short": "USPS", "operator:type": "public", "operator:wikidata": "Q668687", "ref": "8260100009"}, "type": "Feature"}
{"geometry": {"coordinates": [-106.323704138, 42.852801437], "type": "Point"}, "id": "hZQQ2v9vtCzzfyWGsIFox9DPYWg=", "properties": {"@source_uri": "https://tools.usps.com/UspsToolsRestServices/rest/POLocator/findLocations", "@spider": "usps_collection_boxes", "addr:city": "CASPER", "addr:country": "US", "addr:postcode": "82601", "addr:state": "WY", "addr:street_address": "315 N WOLCOTT ST", "amenity": "post_box", "brand": "United States Postal Service", "brand:wikidata": "Q668687", "collection_times": "Mo-Fr 17:00; Sa 14:00", "note": "ON 12/24 AND 12/31, THIS BOX MAY BE COLLECTED AS EARLY AS 12 NOON.", "nsi_id": "unitedstatespostalservice-a77078", "operator": "United States Postal Service", "operator:short": "USPS", "operator:type": "public", "operator:wikidata": "Q668687", "ref": "8260100010"}, "type": "Feature"}
{"geometry": {"coordinates": [-106.312351, 42.857395], "type": "Point"}, "id": "b7K5K0ITDl_d3qgzkeaLBGOoKsA=", "properties": {"@source_uri": "https://tools.usps.com/UspsToolsRestServices/rest/POLocator/findLocations", "@spider": "usps_collection_boxes", "addr:city": "CASPER", "addr:country": "US", "addr:postcode": "82601", "addr:state": "WY", "addr:street_address": "714 N MCKINLEY ST", "amenity": "post_box", "brand": "United States Postal Service", "brand:wikidata": "Q668687", "collection_times": "Mo-Fr 10:30; Sa 12:00", "nsi_id": "unitedstatespostalservice-a77078", "operator": "United States Postal Service", "operator:short": "USPS", "operator:type": "public", "operator:wikidata": "Q668687", "ref": "8260100012"}, "type": "Feature"}
{"geometry": {"coordinates": [-106.337306, 42.840759], "type": "Point"}, "id": "1OIGIqRDXjwiLYuv4o9uAUMMyfI=", "properties": {"@source_uri": "https://tools.usps.com/UspsToolsRestServices/rest/POLocator/findLocations", "@spider": "usps_collection_boxes", "addr:city": "CASPER", "addr:country": "US", "addr:postcode": "82601", "addr:state": "WY", "addr:street_address": "938 S POPLAR ST", "amenity": "post_box", "brand": "United States Postal Service", "brand:wikidata": "Q668687", "collection_times": "Mo-Fr 12:00; Sa 14:00", "note": "ON 12/24 AND 12/31, THIS BOX MAY BE COLLECTED AS EARLY AS 12 NOON.", "nsi_id": "unitedstatespostalservice-a77078", "operator": "United States Postal Service", "operator:short": "USPS", "operator:type": "public", "operator:wikidata": "Q668687", "ref": "8260100014"}, "type": "Feature"}
{"geometry": {"coordinates": [-106.331295, 42.859535], "type": "Point"}, "id": "or03vHnBWh78Voase2NwhK71-Xc=", "properties": {"@source_uri": "https://tools.usps.com/UspsToolsRestServices/rest/POLocator/findLocations", "@spider": "usps_collection_boxes", "addr:city": "CASPER", "addr:country": "US", "addr:postcode": "82601", "addr:state": "WY", "addr:street_address": "907 N POPLAR ST", "amenity": "post_box", "brand": "United States Postal Service", "brand:wikidata": "Q668687", "collection_times": "Mo-Fr 08:30", "nsi_id": "unitedstatespostalservice-a77078", "operator": "United States Postal Service", "operator:short": "USPS", "operator:type": "public", "operator:wikidata": "Q668687", "ref": "8260100019"}, "type": "Feature"}
{"geometry": {"coordinates": [-106.333313, 42.859745], "type": "Point"}, "id": "GU3eSZHVwF-oXtDQHZGuyAqUomE=", "properties": {"@source_uri": "https://tools.usps.com/UspsToolsRestServices/rest/POLocator/findLocations", "@spider": "usps_collection_boxes", "addr:city": "CASPER", "addr:country": "US", "addr:postcode": "82601", "addr:state": "WY", "addr:street_address": "800 N POPLAR ST", "amenity": "post_box", "brand": "United States Postal Service", "brand:wikidata": "Q668687", "collection_times": "Mo-Fr 08:30", "nsi_id": "unitedstatespostalservice-a77078", "operator": "United States Postal Service", "operator:short": "USPS", "operator:type": "public", "operator:wikidata": "Q668687", "ref": "8260100024"}, "type": "Feature"}
{"geometry": {"coordinates": [-106.325126, 42.859203], "type": "Point"}, "id": "jhrXXObKrtneHdkOyDzpfyIo1jo=", "properties": {"@source_uri": "https://tools.usps.com/UspsToolsRestServices/rest/POLocator/findLocations", "@spider": "usps_collection_boxes", "addr:city": "CASPER", "addr:country": "US", "addr:postcode": "82601", "addr:state": "WY", "addr:street_address": "901 N CENTER ST", "amenity": "post_box", "brand": "United States Postal Service", "brand:wikidata": "Q668687", "collection_times": "Mo-Fr 09:00; Sa 10:00", "nsi_id": "unitedstatespostalservice-a77078", "operator": "United States Postal Service", "operator:short": "USPS", "operator:type": "public", "operator:wikidata": "Q668687", "ref": "8260100029"}, "type": "Feature"}
{"geometry": {"coordinates": [-106.329114, 42.851068458], "type": "Point"}, "id": "Jzxn_30dBTK81eUUEtIOw9MUUg0=", "properties": {"@source_uri": "https://tools.usps.com/UspsToolsRestServices/rest/POLocator/findLocations", "@spider": "usps_collection_boxes", "addr:city": "CASPER", "addr:country": "US", "addr:postcode": "82601", "addr:state": "WY", "addr:street_address": "310 W A ST", "amenity": "post_box", "brand": "United States Postal Service", "brand:wikidata": "Q668687", "collection_times": "Mo-Fr 10:00", "nsi_id": "unitedstatespostalservice-a77078", "operator": "United States Postal Service", "operator:short": "USPS", "operator:type": "public", "operator:wikidata": "Q668687", "ref": "8260100033"}, "type": "Feature"}
{"geometry": {"coordinates": [-106.326538, 42.849959], "type": "Point"}, "id": "x7wpS8DshDoJ24v96lxWBeNSDPE=", "properties": {"@source_uri": "https://tools.usps.com/UspsToolsRestServices/rest/POLocator/findLocations", "@spider": "usps_collection_boxes", "addr:city": "CASPER", "addr:country": "US", "addr:postcode": "82601", "addr:state": "WY", "addr:street_address": "123 W 1ST ST", "amenity": "post_box", "brand": "United States Postal Service", "brand:wikidata": "Q668687", "collection_times": "Mo-Fr 08:45", "nsi_id": "unitedstatespostalservice-a77078", "operator": "United States Postal Service", "operator:short": "USPS", "operator:type": "public", "operator:wikidata": "Q668687", "ref": "8260100034"}, "type": "Feature"}
{"geometry": {"coordinates": [-106.3254870038, 42.8466390133], "type": "Point"}, "id": "Wp9eayyU7cCdkU-sBJlLzKy7a6E=", "properties": {"@source_uri": "https://tools.usps.com/UspsToolsRestServices/rest/POLocator/findLocations", "@spider": "usps_collection_boxes", "addr:city": "CASPER", "addr:country": "US", "addr:postcode": "82601", "addr:state": "WY", "addr:street_address": "330 S CENTER ST", "amenity": "post_box", "brand": "United States Postal Service", "brand:wikidata": "Q668687", "collection_times": "Mo-Fr 10:30", "nsi_id": "unitedstatespostalservice-a77078", "operator": "United States Postal Service", "operator:short": "USPS", "operator:type": "public", "operator:wikidata": "Q668687", "ref": "8260100037"}, "type": "Feature"}
{"geometry": {"coordinates": [-106.325786457, 42.848706438], "type": "Point"}, "id": "IIRyIzyYk_oMiIYWS4vEW3yGJ5Y=", "properties": {"@source_uri": "https://tools.usps.com/UspsToolsRestServices/rest/POLocator/findLocations", "@spider": "usps_collection_boxes", "addr:city": "CASPER", "addr:country": "US", "addr:postcode": "82601", "addr:state": "WY", "addr:street_address": "111 W 2ND ST", "amenity": "post_box", "brand": "United States Postal Service", "brand:wikidata": "Q668687", "collection_times": "Mo-Fr 10:00", "nsi_id": "unitedstatespostalservice-a77078", "operator": "United States Postal Service", "operator:short": "USPS", "operator:type": "public", "operator:wikidata": "Q668687", "ref": "8260100038"}, "type": "Feature"}
{"geometry": {"coordinates": [-106.3249695, 42.849279], "type": "Point"}, "id": "AhWeQKnFyU8uELS9_HHyFTUfNM4=", "properties": {"@source_uri": "https://tools.usps.com/UspsToolsRestServices/rest/POLocator/findLocations", "@spider": "usps_collection_boxes", "addr:city": "CASPER", "addr:country": "US", "addr:postcode": "82601", "addr:state": "WY", "addr:street_address": "141 S CENTER ST", "amenity": "post_box", "brand": "United States Postal Service", "brand:wikidata": "Q668687", "collection_times": "Mo-Fr 11:00", "nsi_id": "unitedstatespostalservice-a77078", "operator": "United States Postal Service", "operator:short": "USPS", "operator:type": "public", "operator:wikidata": "Q668687", "ref": "8260100039"}, "type": "Feature"}
{"geometry": {"coordinates": [-106.344196, 42.811277], "type": "Point"}, "id": "1YintD9LnkgPxpPS6pLi3q9Z0Ak=", "properties": {"@source_uri": "https://tools.usps.com/UspsToolsRestServices/rest/POLocator/findLocations", "@spider": "usps_collection_boxes", "addr:city": "CASPER", "addr:country": "US", "addr:postcode": "82601", "addr:state": "WY", "addr:street_address": "3960 S POPLAR ST", "amenity": "post_box", "brand": "United States Postal Service", "brand:wikidata": "Q668687", "collection_times": "Sa 12:00", "nsi_id": "unitedstatespostalservice-a77078", "operator": "United States Postal Service", "operator:short": "USPS", "operator:type": "public", "operator:wikidata": "Q668687", "ref": "8260100048"}, "type": "Feature"}
{"geometry": {"coordinates": [-106.325071, 42.841772], "type": "Point"}, "id": "qV1QwIH6zIMsI0J2UcFL4j5PAJ8=", "properties": {"@source_uri": "https://tools.usps.com/UspsToolsRestServices/rest/POLocator/findLocations", "@spider": "usps_collection_boxes", "addr:city": "CASPER", "addr:country": "US", "addr:postcode": "82601", "addr:state": "WY", "addr:street_address": "843 S CENTER ST", "amenity": "post_box", "brand": "United States Postal Service", "brand:wikidata": "Q668687", "collection_times": "Mo-Fr 12:00", "nsi_id": "unitedstatespostalservice-a77078", "operator": "United States Postal Service", "operator:short": "USPS", "operator:type": "public", "operator:wikidata": "Q668687", "ref": "8260100050"}, "type": "Feature"}
{"geometry": {"coordinates": [-106.3236976615, 42.8504183235], "type": "Point"}, "id": "7LVzJ8jnWMg7bMNFNdKSos_fbdk=", "properties": {"@source_uri": "https://tools.usps.com/UspsToolsRestServices/rest/POLocator/findLocations", "@spider": "usps_collection_boxes", "addr:city": "CASPER", "addr:country": "US", "addr:postcode": "82601", "addr:state": "WY", "addr:street_address": "123 N WOLCOTT ST", "amenity": "post_box", "brand": "United States Postal Service", "brand:wikidata": "Q668687", "collection_times": "Mo-Fr 09:30", "nsi_id": "unitedstatespostalservice-a77078", "operator": "United States Postal Service", "operator:short": "USPS", "operator:type": "public", "operator:wikidata": "Q668687", "ref": "8260100051"}, "type": "Feature"}
{"geometry": {"coordinates": [-106.3237885232, 42.849873], "type": "Point"}, "id": "5zWxoz9f4iE1Wsucko8W4qP2rlM=", "properties": {"@source_uri": "https://tools.usps.com/UspsToolsRestServices/rest/POLocator/findLocations", "@spider": "usps_collection_boxes", "addr:city": "CASPER", "addr:country": "US", "addr:postcode": "82601", "addr:state": "WY", "addr:street_address": "104 S WOLCOTT ST", "amenity": "post_box", "brand": "United States Postal Service", "brand:wikidata": "Q668687", "collection_times": "Mo-Fr 09:00", "nsi_id": "unitedstatespostalservice-a77078", "operator": "United States Postal Service", "operator:short": "USPS", "operator:type": "public", "operator:wikidata": "Q668687", "ref": "8260100053"}, "type": "Feature"}
{"geometry": {"coordinates": [-106.323816296, 42.84904786], "type": "Point"}, "id": "ARAaSJSUqSU5JcB_dt7R4cWfsxY=", "properties": {"@source_uri": "https://tools.usps.com/UspsToolsRestServices/rest/POLocator/findLocations", "@spider": "usps_collection_boxes", "addr:city": "CASPER", "addr:country": "US", "addr:postcode": "82601", "addr:state": "WY", "addr:street_address": "154 S WOLCOTT ST", "amenity": "post_box", "brand": "United States Postal Service", "brand:wikidata": "Q668687", "collection_times": "Mo-Fr 10:30", "nsi_id": "unitedstatespostalservice-a77078", "operator": "United States Postal Service", "operator:short": "USPS", "operator:type": "public", "operator:wikidata": "Q668687", "ref": "8260100056"}, "type": "Feature"}
{"geometry": {"coordinates": [-106.324537, 42.847334], "type": "Point"}, "id": "qSIcbg26_Olp404UMd2jqQ6Tg_I=", "properties": {"@source_uri": "https://tools.usps.com/UspsToolsRestServices/rest/POLocator/findLocations", "@spider": "usps_collection_boxes", "addr:city": "CASPER", "addr:country": "US", "addr:postcode": "82601", "addr:state": "WY", "addr:street_address": "300 S WOLCOTT ST", "amenity": "post_box", "brand": "United States Postal Service", "brand:wikidata": "Q668687", "collection_times": "Mo-Fr 09:00", "nsi_id": "unitedstatespostalservice-a77078", "operator": "United States Postal Service", "operator:short": "USPS", "operator:type": "public", "operator:wikidata": "Q668687", "ref": "8260100057"}, "type": "Feature"}
{"geometry": {"coordinates": [-106.320162, 42.850327], "type": "Point"}, "id": "uOc3_tLcIRUEOXYllGipBhMJWvU=", "properties": {"@source_uri": "https://tools.usps.com/UspsToolsRestServices/rest/POLocator/findLocations", "@spider": "usps_collection_boxes", "addr:city": "CASPER", "addr:country": "US", "addr:postcode": "82601", "addr:state": "WY", "addr:street_address": "400 E 1ST ST", "amenity": "post_box", "brand": "United States Postal Service", "brand:wikidata": "Q668687", "collection_times": "Mo-Fr 12:00", "nsi_id": "unitedstatespostalservice-a77078", "operator": "United States Postal Service", "operator:short": "USPS", "operator:type": "public", "operator:wikidata": "Q668687", "ref": "8260100061"}, "type": "Feature"}
{"geometry": {"coordinates": [-106.313748, 42.847803], "type": "Point"}, "id": "C32Q8uz9iispi_oBQyRbr8EeceA=", "properties": {"@source_uri": "https://tools.usps.com/UspsToolsRestServices/rest/POLocator/findLocations", "@spider": "usps_collection_boxes", "addr:city": "CASPER", "addr:country": "US", "addr:postcode": "82601", "addr:state": "WY", "addr:street_address": "241 S JEFFERSON ST", "amenity": "post_box", "brand": "United States Postal Service", "brand:wikidata": "Q668687", "collection_times": "Mo-Sa 09:30", "nsi_id": "unitedstatespostalservice-a77078", "operator": "United States Postal Service", "operator:short": "USPS", "operator:type": "public", "operator:wikidata": "Q668687", "ref": "8260100063"}, "type": "Feature"}
{"geometry": {"coordinates": [-106.300607, 42.838], "type": "Point"}, "id": "aXwBAUPxpSXp8aGsNYg5rLYMd_E=", "properties": {"@source_uri": "https://tools.usps.com/UspsToolsRestServices/rest/POLocator/findLocations", "@spider": "usps_collection_boxes", "addr:city": "CASPER", "addr:country": "US", "addr:postcode": "82601", "addr:state": "WY", "addr:street_address": "2101 E 12TH ST", "amenity": "post_box", "brand": "United States Postal Service", "brand:wikidata": "Q668687", "collection_times": "Mo-Sa 10:00", "nsi_id": "unitedstatespostalservice-a77078", "operator": "United States Postal Service", "operator:short": "USPS", "operator:type": "public", "operator:wikidata": "Q668687", "ref": "8260100064"}, "type": "Feature"}
{"geometry": {"coordinates": [-106.324597, 42.851996], "type": "Point"}, "id": "j8G75DjW_wNfPEWMlexurAs55TQ=", "properties": {"@source_uri": "https://tools.usps.com/UspsToolsRestServices/rest/POLocator/findLocations", "@spider": "usps_collection_boxes", "addr:city": "CASPER", "addr:country": "US", "addr:postcode": "82601", "addr:state": "WY", "addr:street_address": "150 E B ST", "amenity": "post_box", "brand": "United States Postal Service", "brand:wikidata": "Q668687", "collection_times": "Mo-Fr 17:00; Sa 12:00", "indoor": "yes", "note": "ON 12/24 AND 12/31, THIS BOX MAY BE COLLECTED AS EARLY AS 12 NOON.", "nsi_id": "unitedstatespostalservice-a77078", "operator": "United States Postal Service", "operator:short": "USPS", "operator:type": "public", "operator:wikidata": "Q668687", "ref": "8260100066"}, "type": "Feature"}
{"geometry": {"coordinates": [-106.325181, 42.862369], "type": "Point"}, "id": "6iMrhON46XS5jRdHZDCfGqzE-L4=", "properties": {"@source_uri": "https://tools.usps.com/UspsToolsRestServices/rest/POLocator/findLocations", "@spider": "usps_collection_boxes", "addr:city": "CASPER", "addr:country": "US", "addr:postcode": "82601", "addr:state": "WY", "addr:street_address": "1250 N CENTER ST", "amenity": "post_box", "brand": "United States Postal Service", "brand:wikidata": "Q668687", "collection_times": "Mo-Sa 09:30", "nsi_id": "unitedstatespostalservice-a77078", "operator": "United States Postal Service", "operator:short": "USPS", "operator:type": "public", "operator:wikidata": "Q668687", "ref": "8260100068"}, "type": "Feature"}
{"geometry": {"coordinates": [-106.322259, 42.849575], "type": "Point"}, "id": "_2tNNqDoKeEVLjUNBQuW3V7KlGM=", "properties": {"@source_uri": "https://tools.usps.com/UspsToolsRestServices/rest/POLocator/findLocations", "@spider": "usps_collection_boxes", "addr:city": "CASPER", "addr:country": "US", "addr:postcode": "82601", "addr:state": "WY", "addr:street_address": "123 S DURBIN ST", "amenity": "post_box", "brand": "United States Postal Service", "brand:wikidata": "Q668687", "collection_times": "Mo-Fr 08:30", "nsi_id": "unitedstatespostalservice-a77078", "operator": "United States Postal Service", "operator:short": "USPS", "operator:type": "public", "operator:wikidata": "Q668687", "ref": "8260100071"}, "type": "Feature"}
{"geometry": {"coordinates": [-106.324597, 42.851996], "type": "Point"}, "id": "N0lMZw5VhOOB-crfOzs-PnWIOAw=", "properties": {"@source_uri": "https://tools.usps.com/UspsToolsRestServices/rest/POLocator/findLocations", "@spider": "usps_collection_boxes", "addr:city": "CASPER", "addr:country": "US", "addr:postcode": "82601", "addr:state": "WY", "addr:street_address": "150 E B ST", "amenity": "post_box", "brand": "United States Postal Service", "brand:wikidata": "Q668687", "collection_times": "Mo-Fr 17:00; Sa 12:00", "indoor": "yes", "note": "ON 12/24 AND 12/31, THIS BOX MAY BE COLLECTED AS EARLY AS 12 NOON.", "nsi_id": "unitedstatespostalservice-a77078", "operator": "United States Postal Service", "operator:short": "USPS", "operator:type": "public", "operator:wikidata": "Q668687", "ref": "8260100073"}, "type": "Feature"}
{"geometry": {"coordinates": [-106.324597, 42.851996], "type": "Point"}, "id": "yRTj66uu2_ATbR3cA38MSx1TP3w=", "properties": {"@source_uri": "https://tools.usps.com/UspsToolsRestServices/rest/POLocator/findLocations", "@spider": "usps_collection_boxes", "addr:city": "CASPER", "addr:country": "US", "addr:postcode": "82601", "addr:state": "WY", "addr:street_address": "150 E B ST", "amenity": "post_box", "brand": "United States Postal Service", "brand:wikidata": "Q668687", "collection_times": "Mo-Fr 17:00; Sa 12:00", "indoor": "yes", "note": "ON 12/24 AND 12/31, THIS BOX MAY BE COLLECTED AS EARLY AS 12 NOON.", "nsi_id": "unitedstatespostalservice-a77078", "operator": "United States Postal Service", "operator:short": "USPS", "operator:type": "public", "operator:wikidata": "Q668687", "ref": "8260100074"}, "type": "Feature"}
{"geometry": {"coordinates": [-106.333295, 42.859735], "type": "Point"}, "id": "k3M1X66dycSnV0Kh6Y6Po8xfx4w=", "properties": {"@source_uri": "https://tools.usps.com/UspsToolsRestServices/rest/POLocator/findLocations", "@spider": "usps_collection_boxes", "addr:city": "CASPER", "addr:country": "US", "addr:postcode": "82601", "addr:state": "WY", "addr:street_address": "800 N POPLAR ST", "amenity": "post_box", "brand": "United States Postal Service", "brand:wikidata": "Q668687", "collection_times": "Mo-Fr 08:30", "nsi_id": "unitedstatespostalservice-a77078", "operator": "United States Postal Service", "operator:short": "USPS", "operator:type": "public", "operator:wikidata": "Q668687", "ref": "8260100078"}, "type": "Feature"}
{"geometry": {"coordinates": [-106.3254105, 42.833511], "type": "Point"}, "id": "7_G5b1In95bSdUhczqk51keGWgY=", "properties": {"@source_uri": "https://tools.usps.com/UspsToolsRestServices/rest/POLocator/findLocations", "@spider": "usps_collection_boxes", "addr:city": "CASPER", "addr:country": "US", "addr:postcode": "82601", "addr:state": "WY", "addr:street_address": "125 COLLEGE DR", "amenity": "post_box", "brand": "United States Postal Service", "brand:wikidata": "Q668687", "collection_times": "Mo-Fr 08:30", "nsi_id": "unitedstatespostalservice-a77078", "operator": "United States Postal Service", "operator:short": "USPS", "operator:type": "public", "operator:wikidata": "Q668687", "ref": "8260100080"}, "type": "Feature"}
{"geometry": {"coordinates": [-106.339464, 42.833322], "type": "Point"}, "id": "1nnWvgaCUTmuwMHvz0gvvbIuZu0=", "properties": {"@source_uri": "https://tools.usps.com/UspsToolsRestServices/rest/POLocator/findLocations", "@spider": "usps_collection_boxes", "addr:city": "CASPER", "addr:country": "US", "addr:postcode": "82604", "addr:state": "WY", "addr:street_address": "1351 CY AVE", "amenity": "post_box", "brand": "United States Postal Service", "brand:wikidata": "Q668687", "collection_times": "Mo-Fr 08:30; Sa 12:00", "nsi_id": "unitedstatespostalservice-a77078", "operator": "United States Postal Service", "operator:short": "USPS", "operator:type": "public", "operator:wikidata": "Q668687", "ref": "8260400011"}, "type": "Feature"}
{"geometry": {"coordinates": [-106.353299, 42.828825], "type": "Point"}, "id": "6mQ3YVFBPoJPPkUwtdLD_iAV654=", "properties": {"@source_uri": "https://tools.usps.com/UspsToolsRestServices/rest/POLocator/findLocations", "@spider": "usps_collection_boxes", "addr:city": "CASPER", "addr:country": "US", "addr:postcode": "82604", "addr:state": "WY", "addr:street_address": "2405 CY AVE", "amenity": "post_box", "brand": "United States Postal Service", "brand:wikidata": "Q668687", "collection_times": "Mo-Fr 09:30; Sa 10:30", "nsi_id": "unitedstatespostalservice-a77078", "operator": "United States Postal Service", "operator:short": "USPS", "operator:type": "public", "operator:wikidata": "Q668687", "ref": "8260400012"}, "type": "Feature"}
{"geometry": {"coordinates": [-106.371281, 42.819386], "type": "Point"}, "id": "u-tS7lSa1y5fu3jwCEeojiIgAzQ=", "properties": {"@source_uri": "https://tools.usps.com/UspsToolsRestServices/rest/POLocator/findLocations", "@spider": "usps_collection_boxes", "addr:city": "CASPER", "addr:country": "US", "addr:postcode": "82604", "addr:state": "WY", "addr:street_address": "4075 CY AVE", "amenity": "post_box", "brand": "United States Postal Service", "brand:wikidata": "Q668687", "collection_times": "Mo-Fr 09:00; Sa 10:00", "nsi_id": "unitedstatespostalservice-a77078", "operator": "United States Postal Service", "operator:short": "USPS", "operator:type": "public", "operator:wikidata": "Q668687", "ref": "8260400015"}, "type": "Feature"}
{"geometry": {"coordinates": [-106.371272, 42.819375], "type": "Point"}, "id": "8Q5dDjjZHm8IEGmmPrOt2gD0hbw=", "properties": {"@source_uri": "https://tools.usps.com/UspsToolsRestServices/rest/POLocator/findLocations", "@spider": "usps_collection_boxes", "addr:city": "CASPER", "addr:country": "US", "addr:postcode": "82604", "addr:state": "WY", "addr:street_address": "4075 CY AVE", "amenity": "post_box", "brand": "United States Postal Service", "brand:wikidata": "Q668687", "collection_times": "Mo-Fr 09:00; Sa 10:00", "nsi_id": "unitedstatespostalservice-a77078", "operator": "United States Postal Service", "operator:short": "USPS", "operator:type": "public", "operator:wikidata": "Q668687", "ref": "8260400016"}, "type": "Feature"}
{"geometry": {"coordinates": [-106.258389, 42.835842], "type": "Point"}, "id": "7ywsCykhLBxShqUixOs3RT_fWOE=", "properties": {"@source_uri": "https://tools.usps.com/UspsToolsRestServices/rest/POLocator/findLocations", "@spider": "usps_collection_boxes", "addr:city": "CASPER", "addr:country": "US", "addr:postcode": "82609", "addr:state": "WY", "addr:street_address": "4700 E 12TH ST", "amenity": "post_box", "brand": "United States Postal Service", "brand:wikidata": "Q668687", "collection_times": "Mo-Sa 12:00", "nsi_id": "unitedstatespostalservice-a77078", "operator": "United States Postal Service", "operator:short": "USPS", "operator:type": "public", "operator:wikidata": "Q668687", "ref": "8260900001"}, "type": "Feature"}
{"geometry": {"coordinates": [-106.265632, 42.847383], "type": "Point"}, "id": "MdbBXu-QMdjbkLBkGmASj5xXYc4=", "properties": {"@source_uri": "https://tools.usps.com/UspsToolsRestServices/rest/POLocator/findLocations", "@spider": "usps_collection_boxes", "addr:city": "CASPER", "addr:country": "US", "addr:postcode": "82609", "addr:state": "WY", "addr:street_address": "601 SE WYOMING BLVD", "amenity": "post_box", "brand": "United States Postal Service", "brand:wikidata": "Q668687", "collection_times": "Mo-Sa 11:00", "nsi_id": "unitedstatespostalservice-a77078", "operator": "United States Postal Service", "operator:short": "USPS", "operator:type": "public", "operator:wikidata": "Q668687", "ref": "8260900004"}, "type": "Feature"}
{"geometry": {"coordinates": [-106.274896, 42.849336], "type": "Point"}, "id": "weVXvmM669JTBB4R0Dfg_CAdepA=", "properties": {"@source_uri": "https://tools.usps.com/UspsToolsRestServices/rest/POLocator/findLocations", "@spider": "usps_collection_boxes", "addr:city": "CASPER", "addr:country": "US", "addr:postcode": "82609", "addr:state": "WY", "addr:street_address": "4000 E 2ND ST", "amenity": "post_box", "brand": "United States Postal Service", "brand:wikidata": "Q668687", "collection_times": "Mo-Sa 09:00", "nsi_id": "unitedstatespostalservice-a77078", "operator": "United States Postal Service", "operator:short": "USPS", "operator:type": "public", "operator:wikidata": "Q668687", "ref": "8260900005"}, "type": "Feature"}
{"geometry": {"coordinates": [-106.291651, 42.84858], "type": "Point"}, "id": "94_9tmxRZuKiIZuQZj4Ty0O4Xck=", "properties": {"@source_uri": "https://tools.usps.com/UspsToolsRestServices/rest/POLocator/findLocations", "@spider": "usps_collection_boxes", "addr:city": "CASPER", "addr:country": "US", "addr:postcode": "82609", "addr:state": "WY", "addr:street_address": "2635 E 2ND ST", "amenity": "post_box", "brand": "United States Postal Service", "brand:wikidata": "Q668687", "collection_times": "Mo-Fr 09:00; Sa 10:00", "nsi_id": "unitedstatespostalservice-a77078", "operator": "United States Postal Service", "operator:short": "USPS", "operator:type": "public", "operator:wikidata": "Q668687", "ref": "8260900008"}, "type": "Feature"}
{"geometry": {"coordinates": [-106.291663, 42.848566], "type": "Point"}, "id": "QDwCKzh4El3Fft3ehSwISoSWmqg=", "properties": {"@source_uri": "https://tools.usps.com/UspsToolsRestServices/rest/POLocator/findLocations", "@spider": "usps_collection_boxes", "addr:city": "CASPER", "addr:country": "US", "addr:postcode": "82609", "addr:state": "WY", "addr:street_address": "2635 E 2ND ST", "amenity": "post_box", "brand": "United States Postal Service", "brand:wikidata": "Q668687", "collection_times": "Mo-Fr 09:00; Sa 10:00", "nsi_id": "unitedstatespostalservice-a77078", "operator": "United States Postal Service", "operator:short": "USPS", "operator:type": "public", "operator:wikidata": "Q668687", "ref": "8260900009"}, "type": "Feature"}
{"geometry": {"coordinates": [-106.281366, 42.853237], "type": "Point"}, "id": "qQhxeHg5VRtNiMeLGmBS2ZTKm3M=", "properties": {"@source_uri": "https://tools.usps.com/UspsToolsRestServices/rest/POLocator/findLocations", "@spider": "usps_collection_boxes", "addr:city": "CASPER", "addr:country": "US", "addr:postcode": "82609", "addr:state": "WY", "addr:street_address": "411 N FOREST DR", "amenity": "post_box", "brand": "United States Postal Service", "brand:wikidata": "Q668687", "collection_times": "Mo-Sa 17:00", "indoor": "yes", "note": "ON 12/24 AND 12/31, THIS BOX MAY BE COLLECTED AS EARLY AS 12 NOON.", "nsi_id": "unitedstatespostalservice-a77078", "operator": "United States Postal Service", "operator:short": "USPS", "operator:type": "public", "operator:wikidata": "Q668687", "ref": "8260900010"}, "type": "Feature"}
{"geometry": {"coordinates": [-106.281366, 42.853237], "type": "Point"}, "id": "Ekw3yGoE40X5nr6zN1K3Z0yj3LE=", "properties": {"@source_uri": "https://tools.usps.com/UspsToolsRestServices/rest/POLocator/findLocations", "@spider": "usps_collection_boxes", "addr:city": "CASPER", "addr:country": "US", "addr:postcode": "82609", "addr:state": "WY", "addr:street_address": "411 N FOREST DR", "amenity": "post_box", "brand": "United States Postal Service", "brand:wikidata": "Q668687", "collection_times": "Mo-Sa 17:00", "indoor": "yes", "note": "ON 12/24 AND 12/31, THIS BOX MAY BE COLLECTED AS EARLY AS 12 NOON.", "nsi_id": "unitedstatespostalservice-a77078", "operator": "United States Postal Service", "operator:short": "USPS", "operator:type": "public", "operator:wikidata": "Q668687", "ref": "8260900011"}, "type": "Feature"}
{"geometry": {"coordinates": [-106.281366, 42.853237], "type": "Point"}, "id": "HpQegjthbNZ1P0aN0BXegWDBTRg=", "properties": {"@source_uri": "https://tools.usps.com/UspsToolsRestServices/rest/POLocator/findLocations", "@spider": "usps_collection_boxes", "addr:city": "CASPER", "addr:country": "US", "addr:postcode": "82609", "addr:state": "WY", "addr:street_address": "411 N FOREST DR", "amenity": "post_box", "brand": "United States Postal Service", "brand:wikidata": "Q668687", "collection_times": "Mo-Sa 17:00", "indoor": "yes", "note": "ON 12/24 AND 12/31, THIS BOX MAY BE COLLECTED AS EARLY AS 12 NOON.", "nsi_id": "unitedstatespostalservice-a77078", "operator": "United States Postal Service", "operator:short": "USPS", "operator:type": "public", "operator:wikidata": "Q668687", "ref": "8260900012"}, "type": "Feature"}
{"geometry": {"coordinates": [-106.281366, 42.853237], "type": "Point"}, "id": "3LXZBMznDN80lzkQ_cptbiIRUDI=", "properties": {"@source_uri": "https://tools.usps.com/UspsToolsRestServices/rest/POLocator/findLocations", "@spider": "usps_collection_boxes", "addr:city": "CASPER", "addr:country": "US", "addr:postcode": "82609", "addr:state": "WY", "addr:street_address": "411 N FOREST DR", "amenity": "post_box", "brand": "United States Postal Service", "brand:wikidata": "Q668687", "collection_times": "Mo-Sa 17:00", "indoor": "yes", "note": "ON 12/24 AND 12/31, THIS BOX MAY BE COLLECTED AS EARLY AS 12 NOON.", "nsi_id": "unitedstatespostalservice-a77078", "operator": "United States Postal Service", "operator:short": "USPS", "operator:type": "public", "operator:wikidata": "Q668687", "ref": "8260900013"}, "type": "Feature"}
{"geometry": {"coordinates": [-106.281366, 42.853237], "type": "Point"}, "id": "GUHuPnZo51nuALPWDpvT9i6NntU=", "properties": {"@source_uri": "https://tools.usps.com/UspsToolsRestServices/rest/POLocator/findLocations", "@spider": "usps_collection_boxes", "addr:city": "CASPER", "addr:country": "US", "addr:postcode": "82609", "addr:state": "WY", "addr:street_address": "411 N FOREST DR", "amenity": "post_box", "brand": "United States Postal Service", "brand:wikidata": "Q668687", "collection_times": "Mo-Sa 17:00", "note": "ON 12/24 AND 12/31, THIS BOX MAY BE COLLECTED AS EARLY AS 12 NOON.", "nsi_id": "unitedstatespostalservice-a77078", "operator": "United States Postal Service", "operator:short": "USPS", "operator:type": "public", "operator:wikidata": "Q668687", "ref": "8260900014"}, "type": "Feature"}
{"geometry": {"coordinates": [-106.290705, 42.846835], "type": "Point"}, "id": "cy5MMhsiaIQI8DAnIVFfFin1_ZM=", "properties": {"@source_uri": "https://tools.usps.com/UspsToolsRestServices/rest/POLocator/findLocations", "@spider": "usps_collection_boxes", "addr:city": "CASPER", "addr:country": "US", "addr:postcode": "82609", "addr:state": "WY", "addr:street_address": "300 COUNTRY CLUB RD", "amenity": "post_box", "brand": "United States Postal Service", "brand:wikidata": "Q668687", "collection_times": "Mo-Sa 10:30", "nsi_id": "unitedstatespostalservice-a77078", "operator": "United States Postal Service", "operator:short": "USPS", "operator:type": "public", "operator:wikidata": "Q668687", "ref": "8260900020"}, "type": "Feature"}
{"geometry": {"coordinates": [-106.266602, 42.850747], "type": "Point"}, "id": "eL1jO4x6awQ_cZBjIyRZ6kOvbG8=", "properties": {"@source_uri": "https://tools.usps.com/UspsToolsRestServices/rest/POLocator/findLocations", "@spider": "usps_collection_boxes", "addr:city": "CASPER", "addr:country": "US", "addr:postcode": "82609", "addr:state": "WY", "addr:street_address": "4400 E 2ND ST", "amenity": "post_box", "brand": "United States Postal Service", "brand:wikidata": "Q668687", "collection_times": "Mo-Fr 12:00; Sa 13:00", "note": "ON 12/24 AND 12/31, THIS BOX MAY BE COLLECTED AS EARLY AS 12 NOON.", "nsi_id": "unitedstatespostalservice-a77078", "operator": "United States Postal Service", "operator:short": "USPS", "operator:type": "public", "operator:wikidata": "Q668687", "ref": "8260900021"}, "type": "Feature"}
{"geometry": {"coordinates": [-106.7479013014, 42.5615601115], "type": "Point"}, "id": "oLfKIqmh2bzifGyDgeyRT-ykPpM=", "properties": {"@source_uri": "https://tools.usps.com/UspsToolsRestServices/rest/POLocator/findLocations", "@spider": "usps_collection_boxes", "addr:city": "ALCOVA", "addr:country": "US", "addr:postcode": "82620", "addr:state": "WY", "addr:street_address": "22495 STATE HIGHWAY 220", "amenity": "post_box", "brand": "United States Postal Service", "brand:wikidata": "Q668687", "collection_times": "Mo-Fr 10:25; Sa 10:00", "nsi_id": "unitedstatespostalservice-a77078", "operator": "United States Postal Service", "operator:short": "USPS", "operator:type": "public", "operator:wikidata": "Q668687", "ref": "8262000000"}, "type": "Feature"}
{"geometry": {"coordinates": [-106.7479013014, 42.5615601115], "type": "Point"}, "id": "McmtnbaqdNBONHvNqeMKMGBpM5Y=", "properties": {"@source_uri": "https://tools.usps.com/UspsToolsRestServices/rest/POLocator/findLocations", "@spider": "usps_collection_boxes", "addr:city": "ALCOVA", "addr:country": "US", "addr:postcode": "82620", "addr:state": "WY", "addr:street_address": "22495 STATE HIGHWAY 220", "amenity": "post_box", "brand": "United States Postal Service", "brand:wikidata": "Q668687", "collection_times": "Mo-Fr 10:25; Sa 10:00", "indoor": "yes", "nsi_id": "unitedstatespostalservice-a77078", "operator": "United States Postal Service", "operator:short": "USPS", "operator:type": "public", "operator:wikidata": "Q668687", "ref": "8262000001"}, "type": "Feature"}
{"geometry": {"coordinates": [-105.403546, 42.762669], "type": "Point"}, "id": "v5uQdgYtVRRHKxBlzJx0g6HgICs=", "properties": {"@source_uri": "https://tools.usps.com/UspsToolsRestServices/rest/POLocator/findLocations", "@spider": "usps_collection_boxes", "addr:city": "DOUGLAS", "addr:country": "US", "addr:postcode": "82633", "addr:state": "WY", "addr:street_address": "1115 W YELLOWSTONE HWY", "amenity": "post_box", "brand": "United States Postal Service", "brand:wikidata": "Q668687", "collection_times": "Mo-Sa 11:00", "nsi_id": "unitedstatespostalservice-a77078", "operator": "United States Postal Service", "operator:short": "USPS", "operator:type": "public", "operator:wikidata": "Q668687", "ref": "8263300002"}, "type": "Feature"}
{"geometry": {"coordinates": [-105.361471, 42.744202], "type": "Point"}, "id": "5rW7wE-hizhI4XqDDyEr7cR6KY0=", "properties": {"@source_uri": "https://tools.usps.com/UspsToolsRestServices/rest/POLocator/findLocations", "@spider": "usps_collection_boxes", "addr:city": "DOUGLAS", "addr:country": "US", "addr:postcode": "82633", "addr:state": "WY", "addr:street_address": "1900 E RICHARDS ST", "amenity": "post_box", "brand": "United States Postal Service", "brand:wikidata": "Q668687", "collection_times": "Mo-Sa 12:00", "nsi_id": "unitedstatespostalservice-a77078", "operator": "United States Postal Service", "operator:short": "USPS", "operator:type": "public", "operator:wikidata": "Q668687", "ref": "8263300007"}, "type": "Feature"}
{"geometry": {"coordinates": [-105.383693, 42.760511], "type": "Point"}, "id": "Z2Zb3I-6UuSnFJhifq45ViMGdJg=", "properties": {"@source_uri": "https://tools.usps.com/UspsToolsRestServices/rest/POLocator/findLocations", "@spider": "usps_collection_boxes", "addr:city": "DOUGLAS", "addr:country": "US", "addr:postcode": "82633", "addr:state": "WY", "addr:street_address": "129 N 3RD ST", "amenity": "post_box", "brand": "United States Postal Service", "brand:wikidata": "Q668687", "collection_times": "Mo-Fr 16:30; Sa 12:00", "note": "ON 12/24 AND 12/31, THIS BOX MAY BE COLLECTED AS EARLY AS 12 NOON.", "nsi_id": "unitedstatespostalservice-a77078", "operator": "United States Postal Service", "operator:short": "USPS", "operator:type": "public", "operator:wikidata": "Q668687", "ref": "8263300008"}, "type": "Feature"}
{"geometry": {"coordinates": [-105.383719, 42.760508], "type": "Point"}, "id": "_KJ2dgZ2KUFJSswZZ7PO3eMWPxE=", "properties": {"@source_uri": "https://tools.usps.com/UspsToolsRestServices/rest/POLocator/findLocations", "@spider": "usps_collection_boxes", "addr:city": "DOUGLAS", "addr:country": "US", "addr:postcode": "82633", "addr:state": "WY", "addr:street_address": "129 N 3RD ST", "amenity": "post_box", "brand": "United States Postal Service", "brand:wikidata": "Q668687", "collection_times": "Mo-Fr 16:30; Sa 12:00", "note": "ON 12/24 AND 12/31, THIS BOX MAY BE COLLECTED AS EARLY AS 12 NOON.", "nsi_id": "unitedstatespostalservice-a77078", "operator": "United States Postal Service", "operator:short": "USPS", "operator:type": "public", "operator:wikidata": "Q668687", "ref": "8263300009"}, "type": "Feature"}
{"geometry": {"coordinates": [-105.383718, 42.760518], "type": "Point"}, "id": "zNF8Bfmv-2bxBMagde-wkRHetxI=", "properties": {"@source_uri": "https://tools.usps.com/UspsToolsRestServices/rest/POLocator/findLocations", "@spider": "usps_collection_boxes", "addr:city": "DOUGLAS", "addr:country": "US", "addr:postcode": "82633", "addr:state": "WY", "addr:street_address": "129 N 3RD ST", "amenity": "post_box", "brand": "United States Postal Service", "brand:wikidata": "Q668687", "collection_times": "Mo-Fr 16:30; Sa 12:00", "note": "ON 12/24 AND 12/31, THIS BOX MAY BE COLLECTED AS EARLY AS 12 NOON.", "nsi_id": "unitedstatespostalservice-a77078", "operator": "United States Postal Service", "operator:short": "USPS", "operator:type": "public", "operator:wikidata": "Q668687", "ref": "8263300010"}, "type": "Feature"}
{"geometry": {"coordinates": [-105.383859, 42.760667], "type": "Point"}, "id": "FsdVOablgPxLLntkYgPkyH4WzWM=", "properties": {"@source_uri": "https://tools.usps.com/UspsToolsRestServices/rest/POLocator/findLocations", "@spider": "usps_collection_boxes", "addr:city": "DOUGLAS", "addr:country": "US", "addr:postcode": "82633", "addr:state": "WY", "addr:street_address": "129 N 3RD ST", "amenity": "post_box", "brand": "United States Postal Service", "brand:wikidata": "Q668687", "collection_times": "Mo-Fr 16:30; Sa 12:00", "indoor": "yes", "note": "ON 12/24 AND 12/31, THIS BOX MAY BE COLLECTED AS EARLY AS 12 NOON.", "nsi_id": "unitedstatespostalservice-a77078", "operator": "United States Postal Service", "operator:short": "USPS", "operator:type": "public", "operator:wikidata": "Q668687", "ref": "8263300011"}, "type": "Feature"}
{"geometry": {"coordinates": [-106.247163, 43.412643], "type": "Point"}, "id": "RyuWPFyZs7FjOljAu9iGjmaKS9w=", "properties": {"@source_uri": "https://tools.usps.com/UspsToolsRestServices/rest/POLocator/findLocations", "@spider": "usps_collection_boxes", "addr:city": "EDGERTON", "addr:country": "US", "addr:postcode": "82635", "addr:state": "WY", "addr:street_address": "307 S 2 ST", "amenity": "post_box", "brand": "United States Postal Service", "brand:wikidata": "Q668687", "collection_times": "Mo-Fr 14:30; Sa 09:30", "indoor": "yes", "note": "ON 12/24 AND 12/31, THIS BOX MAY BE COLLECTED AS EARLY AS 12 NOON.", "nsi_id": "unitedstatespostalservice-a77078", "operator": "United States Postal Service", "operator:short": "USPS", "operator:type": "public", "operator:wikidata": "Q668687", "ref": "8263500000"}, "type": "Feature"}
{"geometry": {"coordinates": [-106.268447, 42.861343], "type": "Point"}, "id": "uI9qDcDL2llQnhSdDrl3X86beZw=", "properties": {"@source_uri": "https://tools.usps.com/UspsToolsRestServices/rest/POLocator/findLocations", "@spider": "usps_collection_boxes", "addr:city": "EVANSVILLE", "addr:country": "US", "addr:postcode": "82636", "addr:state": "WY", "addr:street_address": "236 TEXAS ST", "amenity": "post_box", "brand": "United States Postal Service", "brand:wikidata": "Q668687", "collection_times": "Mo-Fr 17:00; Sa 11:30", "note": "ON 12/24 AND 12/31, THIS BOX MAY BE COLLECTED AS EARLY AS 12 NOON.", "nsi_id": "unitedstatespostalservice-a77078", "operator": "United States Postal Service", "operator:short": "USPS", "operator:type": "public", "operator:wikidata": "Q668687", "ref": "8263600002"}, "type": "Feature"}
{"geometry": {"coordinates": [-106.26841, 42.861319], "type": "Point"}, "id": "aBmsJFqHTQZpNKg7KStOzEjyo8I=", "properties": {"@source_uri": "https://tools.usps.com/UspsToolsRestServices/rest/POLocator/findLocations", "@spider": "usps_collection_boxes", "addr:city": "EVANSVILLE", "addr:country": "US", "addr:postcode": "82636", "addr:state": "WY", "addr:street_address": "236 TEXAS ST", "amenity": "post_box", "brand": "United States Postal Service", "brand:wikidata": "Q668687", "collection_times": "Mo-Fr 17:00; Sa 11:30", "indoor": "yes", "note": "ON 12/24 AND 12/31, THIS BOX MAY BE COLLECTED AS EARLY AS 12 NOON.", "nsi_id": "unitedstatespostalservice-a77078", "operator": "United States Postal Service", "operator:short": "USPS", "operator:type": "public", "operator:wikidata": "Q668687", "ref": "8263600004"}, "type": "Feature"}
{"geometry": {"coordinates": [-105.876151, 42.861397], "type": "Point"}, "id": "nsQwC1s9AeHBRCDF_n52RM30fBU=", "properties": {"@source_uri": "https://tools.usps.com/UspsToolsRestServices/rest/POLocator/findLocations", "@spider": "usps_collection_boxes", "addr:city": "GLENROCK", "addr:country": "US", "addr:postcode": "82637", "addr:state": "WY", "addr:street_address": "703 W BIRCH ST", "amenity": "post_box", "brand": "United States Postal Service", "brand:wikidata": "Q668687", "collection_times": "Mo-Fr 17:00; Sa 11:00", "note": "ON 12/24 AND 12/31, THIS BOX MAY BE COLLECTED AS EARLY AS 12 NOON.", "nsi_id": "unitedstatespostalservice-a77078", "operator": "United States Postal Service", "operator:short": "USPS", "operator:type": "public", "operator:wikidata": "Q668687", "ref": "8263700000"}, "type": "Feature"}
{"geometry": {"coordinates": [-105.876033, 42.861424], "type": "Point"}, "id": "CaKIacbhn_EDG7a8Fl8TXcQwrMI=", "properties": {"@source_uri": "https://tools.usps.com/UspsToolsRestServices/rest/POLocator/findLocations", "@spider": "usps_collection_boxes", "addr:city": "GLENROCK", "addr:country": "US", "addr:postcode": "82637", "addr:state": "WY", "addr:street_address": "703 W BIRCH ST", "amenity": "post_box", "brand": "United States Postal Service", "brand:wikidata": "Q668687", "collection_times": "Mo-Fr 17:00; Sa 11:00", "indoor": "yes", "note": "ON 12/24 AND 12/31, THIS BOX MAY BE COLLECTED AS EARLY AS 12 NOON.", "nsi_id": "unitedstatespostalservice-a77078", "operator": "United States Postal Service", "operator:short": "USPS", "operator:type": "public", "operator:wikidata": "Q668687", "ref": "8263700001"}, "type": "Feature"}
{"geometry": {"coordinates": [-105.837771, 42.896891], "type": "Point"}, "id": "pZq4Zx__qrMqZGfImI3c89PGRP0=", "properties": {"@source_uri": "https://tools.usps.com/UspsToolsRestServices/rest/POLocator/findLocations", "@spider": "usps_collection_boxes", "addr:city": "GLENROCK", "addr:country": "US", "addr:postcode": "82637", "addr:state": "WY", "addr:street_address": "55 RANCH RD", "amenity": "post_box", "brand": "United States Postal Service", "brand:wikidata": "Q668687", "collection_times": "Mo-Sa 09:45", "nsi_id": "unitedstatespostalservice-a77078", "operator": "United States Postal Service", "operator:short": "USPS", "operator:type": "public", "operator:wikidata": "Q668687", "ref": "8263700002"}, "type": "Feature"}
{"geometry": {"coordinates": [-105.8471160316, 42.8599949893], "type": "Point"}, "id": "XgLe7iaIoi1sKKfxzyg62PwLDnk=", "properties": {"@source_uri": "https://tools.usps.com/UspsToolsRestServices/rest/POLocator/findLocations", "@spider": "usps_collection_boxes", "addr:city": "GLENROCK", "addr:country": "US", "addr:postcode": "82637", "addr:state": "WY", "addr:street_address": "130 BOXELDER TRL", "amenity": "post_box", "brand": "United States Postal Service", "brand:wikidata": "Q668687", "collection_times": "Mo-Sa 08:30", "nsi_id": "unitedstatespostalservice-a77078", "operator": "United States Postal Service", "operator:short": "USPS", "operator:type": "public", "operator:wikidata": "Q668687", "ref": "8263700003"}, "type": "Feature"}
{"geometry": {"coordinates": [-106.639179, 43.710816], "type": "Point"}, "id": "B3j3KWK-rohTyOQznyVscQ7r1PA=", "properties": {"@source_uri": "https://tools.usps.com/UspsToolsRestServices/rest/POLocator/findLocations", "@spider": "usps_collection_boxes", "addr:city": "KAYCEE", "addr:country": "US", "addr:postcode": "82639", "addr:state": "WY", "addr:street_address": "352 NOLAN AVE", "amenity": "post_box", "brand": "United States Postal Service", "brand:wikidata": "Q668687", "collection_times": "Mo-Fr 16:15; Sa 09:30", "note": "ON 12/24 AND 12/31, THIS BOX MAY BE COLLECTED AS EARLY AS 12 NOON.", "nsi_id": "unitedstatespostalservice-a77078", "operator": "United States Postal Service", "operator:short": "USPS", "operator:type": "public", "operator:wikidata": "Q668687", "ref": "8263900000"}, "type": "Feature"}
{"geometry": {"coordinates": [-106.639141, 43.710879], "type": "Point"}, "id": "wUYpozmIK-E1IQgW-_n9vQ8gleI=", "properties": {"@source_uri": "https://tools.usps.com/UspsToolsRestServices/rest/POLocator/findLocations", "@spider": "usps_collection_boxes", "addr:city": "KAYCEE", "addr:country": "US", "addr:postcode": "82639", "addr:state": "WY", "addr:street_address": "352 NOLAN AVE", "amenity": "post_box", "brand": "United States Postal Service", "brand:wikidata": "Q668687", "collection_times": "Mo-Fr 16:30; Sa 09:30", "indoor": "yes", "note": "ON 12/24 AND 12/31, THIS BOX MAY BE COLLECTED AS EARLY AS 12 NOON.", "nsi_id": "unitedstatespostalservice-a77078", "operator": "United States Postal Service", "operator:short": "USPS", "operator:type": "public", "operator:wikidata": "Q668687", "ref": "8263900001"}, "type": "Feature"}
{"geometry": {"coordinates": [-106.197387, 43.605212], "type": "Point"}, "id": "vKG67xTG_5W3v-SIakwUfzcfqQg=", "properties": {"@source_uri": "https://tools.usps.com/UspsToolsRestServices/rest/POLocator/findLocations", "@spider": "usps_collection_boxes", "addr:city": "LINCH", "addr:country": "US", "addr:postcode": "82640", "addr:state": "WY", "addr:street_address": "200 JACKSON ST", "amenity": "post_box", "brand": "United States Postal Service", "brand:wikidata": "Q668687", "collection_times": "Mo-Fr 12:35; Sa 10:00", "indoor": "yes", "note": "ON 12/24 AND 12/31, THIS BOX MAY BE COLLECTED AS EARLY AS 12 NOON.", "nsi_id": "unitedstatespostalservice-a77078", "operator": "United States Postal Service", "operator:short": "USPS", "operator:type": "public", "operator:wikidata": "Q668687", "ref": "8264000000"}, "type": "Feature"}
{"geometry": {"coordinates": [-107.6909609734, 43.2679580167], "type": "Point"}, "id": "CXLr-A3oxawcgmXAvqqf3VTBPc0=", "properties": {"@source_uri": "https://tools.usps.com/UspsToolsRestServices/rest/POLocator/findLocations", "@spider": "usps_collection_boxes", "addr:city": "LYSITE", "addr:country": "US", "addr:postcode": "82642", "addr:state": "WY", "addr:street_address": "25 FREMONT ST", "amenity": "post_box", "brand": "United States Postal Service", "brand:wikidata": "Q668687", "collection_times": "Mo-Sa 09:30", "nsi_id": "unitedstatespostalservice-a77078", "operator": "United States Postal Service", "operator:short": "USPS", "operator:type": "public", "operator:wikidata": "Q668687", "ref": "8264200000"}, "type": "Feature"}
{"geometry": {"coordinates": [-106.277365, 43.409733], "type": "Point"}, "id": "XPejjZCNz7cMVgO_igUP4mR4A6A=", "properties": {"@source_uri": "https://tools.usps.com/UspsToolsRestServices/rest/POLocator/findLocations", "@spider": "usps_collection_boxes", "addr:city": "MIDWEST", "addr:country": "US", "addr:postcode": "82643", "addr:state": "WY", "addr:street_address": "132 STOCK ST", "amenity": "post_box", "brand": "United States Postal Service", "brand:wikidata": "Q668687", "collection_times": "Mo-Fr 16:30; Sa 09:45", "note": "ON 12/24 AND 12/31, THIS BOX MAY BE COLLECTED AS EARLY AS 12 NOON.", "nsi_id": "unitedstatespostalservice-a77078", "operator": "United States Postal Service", "operator:short": "USPS", "operator:type": "public", "operator:wikidata": "Q668687", "ref": "8264300000"}, "type": "Feature"}
{"geometry": {"coordinates": [-106.277417, 43.409769], "type": "Point"}, "id": "PwUhlWiF8zo0BmoeCklhjheJbfU=", "properties": {"@source_uri": "https://tools.usps.com/UspsToolsRestServices/rest/POLocator/findLocations", "@spider": "usps_collection_boxes", "addr:city": "MIDWEST", "addr:country": "US", "addr:postcode": "82643", "addr:state": "WY", "addr:street_address": "132 STOCK ST", "amenity": "post_box", "brand": "United States Postal Service", "brand:wikidata": "Q668687", "collection_times": "Mo-Fr 16:30; Sa 09:45", "indoor": "yes", "note": "ON 12/24 AND 12/31, THIS BOX MAY BE COLLECTED AS EARLY AS 12 NOON.", "nsi_id": "unitedstatespostalservice-a77078", "operator": "United States Postal Service", "operator:short": "USPS", "operator:type": "public", "operator:wikidata": "Q668687", "ref": "8264300001"}, "type": "Feature"}
{"geometry": {"coordinates": [-106.375597, 42.844602], "type": "Point"}, "id": "yuNHFySAlu1jrHm2W-wruEWAviE=", "properties": {"@source_uri": "https://tools.usps.com/UspsToolsRestServices/rest/POLocator/findLocations", "@spider": "usps_collection_boxes", "addr:city": "MILLS", "addr:country": "US", "addr:postcode": "82644", "addr:state": "WY", "addr:street_address": "526 SW WYOMING BLVD", "amenity": "post_box", "brand": "United States Postal Service", "brand:wikidata": "Q668687", "collection_times": "Mo-Fr 17:00; Sa 11:30", "indoor": "yes", "note": "ON 12/24 AND 12/31, THIS BOX MAY BE COLLECTED AS EARLY AS 12 NOON.", "nsi_id": "unitedstatespostalservice-a77078", "operator": "United States Postal Service", "operator:short": "USPS", "operator:type": "public", "operator:wikidata": "Q668687", "ref": "8264400000"}, "type": "Feature"}
{"geometry": {"coordinates": [-106.37556, 42.844527], "type": "Point"}, "id": "Pd234S5gVTE9hPv8BqmzbzuTYYM=", "properties": {"@source_uri": "https://tools.usps.com/UspsToolsRestServices/rest/POLocator/findLocations", "@spider": "usps_collection_boxes", "addr:city": "MILLS", "addr:country": "US", "addr:postcode": "82644", "addr:state": "WY", "addr:street_address": "526 SW WYOMING BLVD", "amenity": "post_box", "brand": "United States Postal Service", "brand:wikidata": "Q668687", "collection_times": "Mo-Fr 17:00; Sa 11:30", "indoor": "yes", "note": "ON 12/24 AND 12/31, THIS BOX MAY BE COLLECTED AS EARLY AS 12 NOON.", "nsi_id": "unitedstatespostalservice-a77078", "operator": "United States Postal Service", "operator:short": "USPS", "operator:type": "public", "operator:wikidata": "Q668687", "ref": "8264400001"}, "type": "Feature"}
{"geometry": {"coordinates": [-106.370375, 42.84422], "type": "Point"}, "id": "ey-4V6s7xNOggNUKIVQ_H5Myk2w=", "properties": {"@source_uri": "https://tools.usps.com/UspsToolsRestServices/rest/POLocator/findLocations", "@spider": "usps_collection_boxes", "addr:city": "MILLS", "addr:country": "US", "addr:postcode": "82644", "addr:state": "WY", "addr:street_address": "526 SW WYOMING BLVD", "amenity": "post_box", "brand": "United States Postal Service", "brand:wikidata": "Q668687", "collection_times": "Mo-Fr 17:00; Sa 11:30", "note": "ON 12/24 AND 12/31, THIS BOX MAY BE COLLECTED AS EARLY AS 12 NOON.", "nsi_id": "unitedstatespostalservice-a77078", "operator": "United States Postal Service", "operator:short": "USPS", "operator:type": "public", "operator:wikidata": "Q668687", "ref": "8264400002"}, "type": "Feature"}
{"geometry": {"coordinates": [-106.37556, 42.844527], "type": "Point"}, "id": "WlYhqhibtQAa8QytdUmJ-hpWz-0=", "properties": {"@source_uri": "https://tools.usps.com/UspsToolsRestServices/rest/POLocator/findLocations", "@spider": "usps_collection_boxes", "addr:city": "MILLS", "addr:country": "US", "addr:postcode": "82644", "addr:state": "WY", "addr:street_address": "526 SW WYOMING BLVD", "amenity": "post_box", "brand": "United States Postal Service", "brand:wikidata": "Q668687", "collection_times": "Mo-Fr 17:00; Sa 11:30", "indoor": "yes", "note": "ON 12/24 AND 12/31, THIS BOX MAY BE COLLECTED AS EARLY AS 12 NOON.", "nsi_id": "unitedstatespostalservice-a77078", "operator": "United States Postal Service", "operator:short": "USPS", "operator:type": "public", "operator:wikidata": "Q668687", "ref": "8264400003"}, "type": "Feature"}
{"geometry": {"coordinates": [-106.987908, 43.032002], "type": "Point"}, "id": "Pd5Ab0f5hs8C_cwevs0fdmErXAE=", "properties": {"@source_uri": "https://tools.usps.com/UspsToolsRestServices/rest/POLocator/findLocations", "@spider": "usps_collection_boxes", "addr:city": "POWDER RIVER", "addr:country": "US", "addr:postcode": "82648", "addr:state": "WY", "addr:street_address": "35304 W HIGHWAY 20 26", "amenity": "post_box", "brand": "United States Postal Service", "brand:wikidata": "Q668687", "collection_times": "Mo-Fr 13:30; Sa 10:30", "note": "ON 12/24 AND 12/31, THIS BOX MAY BE COLLECTED AS EARLY AS 12 NOON.", "nsi_id": "unitedstatespostalservice-a77078", "operator": "United States Postal Service", "operator:short": "USPS", "operator:type": "public", "operator:wikidata": "Q668687", "ref": "8264800000"}, "type": "Feature"}
{"geometry": {"coordinates": [-106.987908, 43.032002], "type": "Point"}, "id": "MzJ-vJdW2D-HjPqbiegGmqq0gpY=", "properties": {"@source_uri": "https://tools.usps.com/UspsToolsRestServices/rest/POLocator/findLocations", "@spider": "usps_collection_boxes", "addr:city": "POWDER RIVER", "addr:country": "US", "addr:postcode": "82648", "addr:state": "WY", "addr:street_address": "35304 W HIGHWAY 20 26", "amenity": "post_box", "brand": "United States Postal Service", "brand:wikidata": "Q668687", "collection_times": "Mo-Fr 13:30; Sa 10:30", "indoor": "yes", "note": "ON 12/24 AND 12/31, THIS BOX MAY BE COLLECTED AS EARLY AS 12 NOON.", "nsi_id": "unitedstatespostalservice-a77078", "operator": "United States Postal Service", "operator:short": "USPS", "operator:type": "public", "operator:wikidata": "Q668687", "ref": "8264800001"}, "type": "Feature"}
{"geometry": {"coordinates": [-108.109072, 43.234416], "type": "Point"}, "id": "qFY5Vd4LVF_l8EY9HiXzkzcXRUc=", "properties": {"@source_uri": "https://tools.usps.com/UspsToolsRestServices/rest/POLocator/findLocations", "@spider": "usps_collection_boxes", "addr:city": "SHOSHONI", "addr:country": "US", "addr:postcode": "82649", "addr:state": "WY", "addr:street_address": "112 WYOMING ST", "amenity": "post_box", "brand": "United States Postal Service", "brand:wikidata": "Q668687", "collection_times": "Mo-Fr 15:30; Sa 08:30", "indoor": "yes", "note": "ON 12/24 AND 12/31, THIS BOX MAY BE COLLECTED AS EARLY AS 12 NOON.", "nsi_id": "unitedstatespostalservice-a77078", "operator": "United States Postal Service", "operator:short": "USPS", "operator:type": "public", "operator:wikidata": "Q668687", "ref": "8264900000"}, "type": "Feature"}
{"geometry": {"coordinates": [-108.109109, 43.234348], "type": "Point"}, "id": "OuWumUGiCVxEqYqYGIQd87j2JDA=", "properties": {"@source_uri": "https://tools.usps.com/UspsToolsRestServices/rest/POLocator/findLocations", "@spider": "usps_collection_boxes", "addr:city": "SHOSHONI", "addr:country": "US", "addr:postcode": "82649", "addr:state": "WY", "addr:street_address": "112 WYOMING ST", "amenity": "post_box", "brand": "United States Postal Service", "brand:wikidata": "Q668687", "collection_times": "Mo-Fr 15:30; Sa 08:30", "note": "ON 12/24 AND 12/31, THIS BOX MAY BE COLLECTED AS EARLY AS 12 NOON.", "nsi_id": "unitedstatespostalservice-a77078", "operator": "United States Postal Service", "operator:short": "USPS", "operator:type": "public", "operator:wikidata": "Q668687", "ref": "8264900001"}, "type": "Feature"}
