{"geometry": {"coordinates": [-104.202871, 43.855353], "type": "Point"}, "id": "xFomCQRkrTPVNVG_-0hWvbcJUOQ=", "properties": {"@spider": "usps_collection_boxes", "addr:city": "NEWCASTLE", "addr:country": "US", "addr:full": "24 W MAIN ST", "addr:postcode": "82701", "addr:state": "WY", "brand": "USPS", "collection_times": "Mo-Fr 15:40; Sa 14:45", "name": "USPS COLLECTION BOX - BLUE BOX", "note": "ON 12/24 AND 12/31, THIS BOX MAY BE COLLECTED AS EARLY AS 12 NOON.", "ref": "8270100000"}, "type": "Feature"}
{"geometry": {"coordinates": [-104.2122596869, 43.8518091918], "type": "Point"}, "id": "vvJkQolVOl3dboZuGGl77JAaAL0=", "properties": {"@spider": "usps_collection_boxes", "addr:city": "NEWCASTLE", "addr:country": "US", "addr:full": "622 W MAIN ST", "addr:postcode": "82701", "addr:state": "WY", "brand": "USPS", "collection_times": "Mo-Sa 12:00", "name": "USPS COLLECTION BOX - BLUE BOX", "ref": "8270100001"}, "type": "Feature"}
{"geometry": {"coordinates": [-104.194736, 43.849142], "type": "Point"}, "id": "auZEAclI4xdz3aIoHJfFEA6Kojw=", "properties": {"@spider": "usps_collection_boxes", "addr:city": "NEWCASTLE", "addr:country": "US", "addr:full": "727 WASHINGTON BLVD", "addr:postcode": "82701", "addr:state": "WY", "brand": "USPS", "collection_times": "Mo-Sa 12:00", "name": "USPS COLLECTION BOX - BLUE BOX", "ref": "8270100003"}, "type": "Feature"}
{"geometry": {"coordinates": [-104.202871, 43.855353], "type": "Point"}, "id": "_iF39fhoNTbP-oNrVsqKo45WFxM=", "properties": {"@spider": "usps_collection_boxes", "addr:city": "NEWCASTLE", "addr:country": "US", "addr:full": "24 W MAIN ST", "addr:postcode": "82701", "addr:state": "WY", "brand": "USPS", "collection_times": "Mo-Fr 15:40; Sa 14:45", "name": "USPS COLLECTION BOX - PO LOBBY", "note": "ON 12/24 AND 12/31, THIS BOX MAY BE COLLECTED AS EARLY AS 12 NOON.", "ref": "8270100005"}, "type": "Feature"}
{"geometry": {"coordinates": [-104.202403, 43.854968], "type": "Point"}, "id": "8IVDYJdTEqrwHf_Rl6KdsfT2TJ8=", "properties": {"@spider": "usps_collection_boxes", "addr:city": "NEWCASTLE", "addr:country": "US", "addr:full": "24 W MAIN ST", "addr:postcode": "82701", "addr:state": "WY", "brand": "USPS", "collection_times": "Mo-Fr 15:40; Sa 14:45", "name": "USPS COLLECTION BOX - BLUE BOX", "note": "ON 12/24 AND 12/31, THIS BOX MAY BE COLLECTED AS EARLY AS 12 NOON.", "ref": "8270100007"}, "type": "Feature"}
{"geometry": {"coordinates": [-104.202871, 43.855353], "type": "Point"}, "id": "ddfWOsarAMS-TC_IpBdT2ebagB0=", "properties": {"@spider": "usps_collection_boxes", "addr:city": "NEWCASTLE", "addr:country": "US", "addr:full": "24 W MAIN ST", "addr:postcode": "82701", "addr:state": "WY", "brand": "USPS", "collection_times": "Mo-Fr 15:40; Sa 14:45", "name": "USPS COLLECTION BOX - PO LOBBY", "note": "ON 12/24 AND 12/31, THIS BOX MAY BE COLLECTED AS EARLY AS 12 NOON.", "ref": "8270100008"}, "type": "Feature"}
{"geometry": {"coordinates": [-104.202871, 43.855353], "type": "Point"}, "id": "JxpPZpqIaQsACOkVG-Cpljg8rGw=", "properties": {"@spider": "usps_collection_boxes", "addr:city": "NEWCASTLE", "addr:country": "US", "addr:full": "24 W MAIN ST", "addr:postcode": "82701", "addr:state": "WY", "brand": "USPS", "collection_times": "Mo-Fr 15:40; Sa 14:45", "name": "USPS COLLECTION BOX - PO LOBBY", "note": "ON 12/24 AND 12/31, THIS BOX MAY BE COLLECTED AS EARLY AS 12 NOON.", "ref": "8270100009"}, "type": "Feature"}
{"geometry": {"coordinates": [-104.202871, 43.855353], "type": "Point"}, "id": "MSgTVi0qvfBI6WwBp0OoxvzI3Pg=", "properties": {"@spider": "usps_collection_boxes", "addr:city": "NEWCASTLE", "addr:country": "US", "addr:full": "24 W MAIN ST", "addr:postcode": "82701", "addr:state": "WY", "brand": "USPS", "collection_times": "Mo-Fr 15:40; Sa 14:45", "name": "USPS COLLECTION BOX - PO LOBBY", "note": "ON 12/24 AND 12/31, THIS BOX MAY BE COLLECTED AS EARLY AS 12 NOON.", "ref": "8270100010"}, "type": "Feature"}
{"geometry": {"coordinates": [-104.180622441, 43.848839449], "type": "Point"}, "id": "qvVaGydQn29LOe8V-Q9Kl715FSY=", "properties": {"@spider": "usps_collection_boxes", "addr:city": "NEWCASTLE", "addr:country": "US", "addr:full": "5007 US HIGHWAY 16", "addr:postcode": "82701", "addr:state": "WY", "brand": "USPS", "collection_times": "Mo-Sa 12:00", "name": "USPS COLLECTION BOX - BLUE BOX", "ref": "8270100012"}, "type": "Feature"}
{"geometry": {"coordinates": [-104.082642, 44.544452], "type": "Point"}, "id": "qnFXh1r9DyP13WH4d_GAtEEZfeE=", "properties": {"@spider": "usps_collection_boxes", "addr:city": "BEULAH", "addr:country": "US", "addr:full": "5930 OLD HIGHWAY 14", "addr:postcode": "82712", "addr:state": "WY", "brand": "USPS", "collection_times": "Mo-Fr 11:30; Sa 11:00", "name": "USPS COLLECTION BOX - PO LOBBY", "ref": "8271200000"}, "type": "Feature"}
{"geometry": {"coordinates": [-104.082642, 44.544452], "type": "Point"}, "id": "oIUkkkMj-bw5cGVPESnaK8V_fUI=", "properties": {"@spider": "usps_collection_boxes", "addr:city": "BEULAH", "addr:country": "US", "addr:full": "5930 OLD HIGHWAY 14", "addr:postcode": "82712", "addr:state": "WY", "brand": "USPS", "collection_times": "Mo-Fr 11:30; Sa 11:00", "name": "USPS COLLECTION BOX - BLUE BOX", "ref": "8271200001"}, "type": "Feature"}
{"geometry": {"coordinates": [-104.69853, 44.588653], "type": "Point"}, "id": "R5tlRRxeBvau6j8USkLmziCi9zU=", "properties": {"@spider": "usps_collection_boxes", "addr:city": "DEVILS TOWER", "addr:country": "US", "addr:full": "56 STATE HIGHWAY 110", "addr:postcode": "82714", "addr:state": "WY", "brand": "USPS", "collection_times": "Mo-Fr 11:45; Sa 13:00", "name": "USPS COLLECTION BOX - PO LOBBY", "note": "ON 12/24 AND 12/31, THIS BOX MAY BE COLLECTED AS EARLY AS 12 NOON.", "ref": "8271400000"}, "type": "Feature"}
{"geometry": {"coordinates": [-104.69853, 44.588653], "type": "Point"}, "id": "cgy0mki4Z1E711Kk4B-9Dwqmbng=", "properties": {"@spider": "usps_collection_boxes", "addr:city": "DEVILS TOWER", "addr:country": "US", "addr:full": "56 STATE HIGHWAY 110", "addr:postcode": "82714", "addr:state": "WY", "brand": "USPS", "collection_times": "Mo-Fr 11:45; Sa 13:00", "name": "USPS COLLECTION BOX - PO LOBBY", "note": "ON 12/24 AND 12/31, THIS BOX MAY BE COLLECTED AS EARLY AS 12 NOON.", "ref": "8271400001"}, "type": "Feature"}
{"geometry": {"coordinates": [-105.496138, 44.270679], "type": "Point"}, "id": "TFd9_cE6gbRZL4BoPYWHTc-FK78=", "properties": {"@spider": "usps_collection_boxes", "addr:city": "GILLETTE", "addr:country": "US", "addr:full": "2610 S DOUGLAS HWY", "addr:postcode": "82716", "addr:state": "WY", "brand": "USPS", "collection_times": "Mo-Fr 16:30; Sa 09:30", "name": "USPS COLLECTION BOX - BLUE BOX", "note": "ON 12/24 AND 12/31, THIS BOX MAY BE COLLECTED AS EARLY AS 12 NOON.", "ref": "8271600001"}, "type": "Feature"}
{"geometry": {"coordinates": [-105.502024, 44.291635], "type": "Point"}, "id": "tFY_WLNW-wegTcFEXWzdf4vorgg=", "properties": {"@spider": "usps_collection_boxes", "addr:city": "GILLETTE", "addr:country": "US", "addr:full": "311 S KENDRICK AVE", "addr:postcode": "82716", "addr:state": "WY", "brand": "USPS", "collection_times": "Mo-Fr 17:20; Sa 17:00", "name": "USPS COLLECTION BOX - PO LOBBY", "note": "ON 12/24 AND 12/31, THIS BOX MAY BE COLLECTED AS EARLY AS 12 NOON.", "ref": "8271600002"}, "type": "Feature"}
{"geometry": {"coordinates": [-105.502037, 44.291636], "type": "Point"}, "id": "H1Db9Vc1B7O0yzVdepvYHnHU3IU=", "properties": {"@spider": "usps_collection_boxes", "addr:city": "GILLETTE", "addr:country": "US", "addr:full": "311 S KENDRICK AVE", "addr:postcode": "82716", "addr:state": "WY", "brand": "USPS", "collection_times": "Mo-Fr 17:20; Sa 17:00", "name": "USPS COLLECTION BOX - PO LOBBY", "note": "ON 12/24 AND 12/31, THIS BOX MAY BE COLLECTED AS EARLY AS 12 NOON.", "ref": "8271600004"}, "type": "Feature"}
{"geometry": {"coordinates": [-105.501677, 44.291468], "type": "Point"}, "id": "DSDGybJLKQC6fHbzp4TlhQvYOYs=", "properties": {"@spider": "usps_collection_boxes", "addr:city": "GILLETTE", "addr:country": "US", "addr:full": "311 S KENDRICK AVE", "addr:postcode": "82716", "addr:state": "WY", "brand": "USPS", "collection_times": "Mo-Fr 17:20; Sa 17:00", "name": "USPS COLLECTION BOX - BLUE BOX", "note": "ON 12/24 AND 12/31, THIS BOX MAY BE COLLECTED AS EARLY AS 12 NOON.", "ref": "8271600005"}, "type": "Feature"}
{"geometry": {"coordinates": [-105.519502204, 44.291547851], "type": "Point"}, "id": "yo_pZAUaHmmcgxEOBVfYCJOdGwU=", "properties": {"@spider": "usps_collection_boxes", "addr:city": "GILLETTE", "addr:country": "US", "addr:full": "501 S BURMA AVE", "addr:postcode": "82716", "addr:state": "WY", "brand": "USPS", "collection_times": "Mo-Fr 16:00; Sa 09:30", "name": "USPS COLLECTION BOX - BLUE BOX", "note": "ON 12/24 AND 12/31, THIS BOX MAY BE COLLECTED AS EARLY AS 12 NOON.", "ref": "8271600006"}, "type": "Feature"}
{"geometry": {"coordinates": [-105.494564, 44.289839], "type": "Point"}, "id": "y0yX4MianmRgGSC1aMxqNs5jts8=", "properties": {"@spider": "usps_collection_boxes", "addr:city": "GILLETTE", "addr:country": "US", "addr:full": "500 S DOUGLAS HWY", "addr:postcode": "82716", "addr:state": "WY", "brand": "USPS", "collection_times": "Mo-Fr 16:00; Sa 10:00", "name": "USPS COLLECTION BOX - BLUE BOX", "note": "ON 12/24 AND 12/31, THIS BOX MAY BE COLLECTED AS EARLY AS 12 NOON.", "ref": "8271600007"}, "type": "Feature"}
{"geometry": {"coordinates": [-105.490161, 44.281181], "type": "Point"}, "id": "qTcpqtr1t6pS6eOnLBb43ogMs3A=", "properties": {"@spider": "usps_collection_boxes", "addr:city": "GILLETTE", "addr:country": "US", "addr:full": "906 CAMEL DR", "addr:postcode": "82716", "addr:state": "WY", "brand": "USPS", "collection_times": "Mo-Fr 16:20; Sa 10:00", "name": "USPS COLLECTION BOX - BLUE BOX", "note": "ON 12/24 AND 12/31, THIS BOX MAY BE COLLECTED AS EARLY AS 12 NOON.", "ref": "8271600008"}, "type": "Feature"}
{"geometry": {"coordinates": [-105.4931638904, 44.2929642052], "type": "Point"}, "id": "nmO37ZknBBpPAnhG_VMsWZFNlQo=", "properties": {"@spider": "usps_collection_boxes", "addr:city": "GILLETTE", "addr:country": "US", "addr:full": "802 E 2ND ST", "addr:postcode": "82716", "addr:state": "WY", "brand": "USPS", "collection_times": "Mo-Fr 16:00; Sa 11:00", "name": "USPS COLLECTION BOX - BLUE BOX", "note": "ON 12/24 AND 12/31, THIS BOX MAY BE COLLECTED AS EARLY AS 12 NOON.", "ref": "8271600009"}, "type": "Feature"}
{"geometry": {"coordinates": [-105.509028, 44.268723], "type": "Point"}, "id": "pEv5rhFPkGcXslh42Q7s7RXr74o=", "properties": {"@spider": "usps_collection_boxes", "addr:city": "GILLETTE", "addr:country": "US", "addr:full": "405 W LAKEWAY", "addr:postcode": "82716", "addr:state": "WY", "brand": "USPS", "collection_times": "Mo-Fr 16:30; Sa 09:55", "name": "USPS COLLECTION BOX - BLUE BOX", "note": "ON 12/24 AND 12/31, THIS BOX MAY BE COLLECTED AS EARLY AS 12 NOON.", "ref": "8271600010"}, "type": "Feature"}
{"geometry": {"coordinates": [-105.505422, 44.268745], "type": "Point"}, "id": "fO1QRSgxYIQQ3x1J_fln03ESsfc=", "properties": {"@spider": "usps_collection_boxes", "addr:city": "GILLETTE", "addr:country": "US", "addr:full": "201 W LAKEWAY", "addr:postcode": "82716", "addr:state": "WY", "brand": "USPS", "collection_times": "Mo-Fr 16:30; Sa 10:00", "name": "USPS COLLECTION BOX - BLUE BOX", "note": "ON 12/24 AND 12/31, THIS BOX MAY BE COLLECTED AS EARLY AS 12 NOON.", "ref": "8271600011"}, "type": "Feature"}
{"geometry": {"coordinates": [-105.504162, 44.29061], "type": "Point"}, "id": "XU4hTAKSrcjGmj3OmBd87ZbwlSA=", "properties": {"@spider": "usps_collection_boxes", "addr:city": "GILLETTE", "addr:country": "US", "addr:full": "500 S GILLETTE AVE", "addr:postcode": "82716", "addr:state": "WY", "brand": "USPS", "collection_times": "Mo-Fr 16:00; Sa 09:30", "name": "USPS COLLECTION BOX - BLUE BOX", "note": "ON 12/24 AND 12/31, THIS BOX MAY BE COLLECTED AS EARLY AS 12 NOON.", "ref": "8271600012"}, "type": "Feature"}
{"geometry": {"coordinates": [-105.523711, 44.29234], "type": "Point"}, "id": "ScVkyroOcWgZBDvSr9eUeS1VASs=", "properties": {"@spider": "usps_collection_boxes", "addr:city": "GILLETTE", "addr:country": "US", "addr:full": "1501 W HWY 14", "addr:postcode": "82716", "addr:state": "WY", "brand": "USPS", "collection_times": "Mo-Fr 16:00; Sa 12:00", "name": "USPS COLLECTION BOX - BLUE BOX", "note": "ON 12/24 AND 12/31, THIS BOX MAY BE COLLECTED AS EARLY AS 12 NOON.", "ref": "8271600014"}, "type": "Feature"}
{"geometry": {"coordinates": [-105.530226, 44.300434], "type": "Point"}, "id": "QkdX_p8DrFKKp9ZCoTr6BO4h5ZA=", "properties": {"@spider": "usps_collection_boxes", "addr:city": "GILLETTE", "addr:country": "US", "addr:full": "719 N HIGHWAY 14 16", "addr:postcode": "82716", "addr:state": "WY", "brand": "USPS", "collection_times": "Mo-Fr 15:00; Sa 12:30", "name": "USPS COLLECTION BOX - BLUE BOX", "note": "ON 12/24 AND 12/31, THIS BOX MAY BE COLLECTED AS EARLY AS 12 NOON.", "ref": "8271600015"}, "type": "Feature"}
{"geometry": {"coordinates": [-105.491851, 44.275939], "type": "Point"}, "id": "R8Nje4Hbxusi1ZfL5WGVsskGfyc=", "properties": {"@spider": "usps_collection_boxes", "addr:city": "GILLETTE", "addr:country": "US", "addr:full": "2007 S DOUGLAS HWY", "addr:postcode": "82716", "addr:state": "WY", "brand": "USPS", "collection_times": "Mo-Fr 16:25; Sa 11:00", "name": "USPS COLLECTION BOX - BLUE BOX", "note": "ON 12/24 AND 12/31, THIS BOX MAY BE COLLECTED AS EARLY AS 12 NOON.", "ref": "8271600016"}, "type": "Feature"}
{"geometry": {"coordinates": [-105.458719713, 44.228099082], "type": "Point"}, "id": "IncE5VL15OiiWkxiM2uXLeVZg9E=", "properties": {"@spider": "usps_collection_boxes", "addr:city": "GILLETTE", "addr:country": "US", "addr:full": "2951 DOVE RD", "addr:postcode": "82716", "addr:state": "WY", "brand": "USPS", "collection_times": "Mo-Sa 12:00", "name": "USPS COLLECTION BOX - BLUE BOX", "ref": "8271600020"}, "type": "Feature"}
{"geometry": {"coordinates": [-105.505429, 44.268746], "type": "Point"}, "id": "eK2NKzuB-yq7q49DWUg8m724Pi8=", "properties": {"@spider": "usps_collection_boxes", "addr:city": "GILLETTE", "addr:country": "US", "addr:full": "201 W LAKEWAY", "addr:postcode": "82716", "addr:state": "WY", "brand": "USPS", "collection_times": "Mo-Fr 16:30; Sa 10:00", "name": "USPS COLLECTION BOX - BLUE BOX", "note": "ON 12/24 AND 12/31, THIS BOX MAY BE COLLECTED AS EARLY AS 12 NOON.", "ref": "8271600026"}, "type": "Feature"}
{"geometry": {"coordinates": [-105.520409, 44.290387], "type": "Point"}, "id": "D_bRRvUW5HKcIC8oHlrwSfXoIp8=", "properties": {"@spider": "usps_collection_boxes", "addr:city": "GILLETTE", "addr:country": "US", "addr:full": "407 MEDICAL HL", "addr:postcode": "82716", "addr:state": "WY", "brand": "USPS", "collection_times": "Mo-Fr 16:00; Sa 09:30", "name": "USPS COLLECTION BOX - BLUE BOX", "note": "ON 12/24 AND 12/31, THIS BOX MAY BE COLLECTED AS EARLY AS 12 NOON.", "ref": "8271600027"}, "type": "Feature"}
{"geometry": {"coordinates": [-105.501676, 44.291462], "type": "Point"}, "id": "EvnY_8wTTY1B1ps9x9bHeo00nG4=", "properties": {"@spider": "usps_collection_boxes", "addr:city": "GILLETTE", "addr:country": "US", "addr:full": "311 S KENDRICK AVE", "addr:postcode": "82716", "addr:state": "WY", "brand": "USPS", "collection_times": "Mo-Fr 17:20; Sa 17:00", "name": "USPS COLLECTION BOX - BLUE BOX", "note": "ON 12/24 AND 12/31, THIS BOX MAY BE COLLECTED AS EARLY AS 12 NOON.", "ref": "8271600030"}, "type": "Feature"}
{"geometry": {"coordinates": [-105.501678, 44.291466], "type": "Point"}, "id": "Sz1ePmiuruwHtwP_nILZdOjgur4=", "properties": {"@spider": "usps_collection_boxes", "addr:city": "GILLETTE", "addr:country": "US", "addr:full": "311 S KENDRICK AVE", "addr:postcode": "82716", "addr:state": "WY", "brand": "USPS", "collection_times": "Mo-Fr 17:20; Sa 17:00", "name": "USPS COLLECTION BOX - BLUE BOX", "note": "ON 12/24 AND 12/31, THIS BOX MAY BE COLLECTED AS EARLY AS 12 NOON.", "ref": "8271600031"}, "type": "Feature"}
{"geometry": {"coordinates": [-105.501676, 44.291482], "type": "Point"}, "id": "6E8LOROGQ1kMOWwOOouR9lAjMwU=", "properties": {"@spider": "usps_collection_boxes", "addr:city": "GILLETTE", "addr:country": "US", "addr:full": "311 S KENDRICK AVE", "addr:postcode": "82716", "addr:state": "WY", "brand": "USPS", "collection_times": "Mo-Fr 17:20; Sa 17:00", "name": "USPS COLLECTION BOX - BLUE BOX", "note": "ON 12/24 AND 12/31, THIS BOX MAY BE COLLECTED AS EARLY AS 12 NOON.", "ref": "8271600032"}, "type": "Feature"}
{"geometry": {"coordinates": [-104.597391, 44.6811], "type": "Point"}, "id": "99ZngvdLvkWFwk1dhQ3jaKHMHr8=", "properties": {"@spider": "usps_collection_boxes", "addr:city": "HULETT", "addr:country": "US", "addr:full": "193 BIRCH ST", "addr:postcode": "82720", "addr:state": "WY", "brand": "USPS", "collection_times": "Mo-Fr 15:20; Sa 09:30", "name": "USPS COLLECTION BOX - BLUE BOX", "note": "ON 12/24 AND 12/31, THIS BOX MAY BE COLLECTED AS EARLY AS 12 NOON.", "ref": "8272000000"}, "type": "Feature"}
{"geometry": {"coordinates": [-104.597391, 44.6811], "type": "Point"}, "id": "6zmzyB2TXQMRlfy_eeyD7MLreq8=", "properties": {"@spider": "usps_collection_boxes", "addr:city": "HULETT", "addr:country": "US", "addr:full": "193 BIRCH ST", "addr:postcode": "82720", "addr:state": "WY", "brand": "USPS", "collection_times": "Mo-Fr 15:20; Sa 09:30", "name": "USPS COLLECTION BOX - PO LOBBY", "note": "ON 12/24 AND 12/31, THIS BOX MAY BE COLLECTED AS EARLY AS 12 NOON.", "ref": "8272000001"}, "type": "Feature"}
{"geometry": {"coordinates": [-104.597391, 44.6811], "type": "Point"}, "id": "Yu63-yHy-V5PrRF9ggaNBe49poY=", "properties": {"@spider": "usps_collection_boxes", "addr:city": "HULETT", "addr:country": "US", "addr:full": "193 BIRCH ST", "addr:postcode": "82720", "addr:state": "WY", "brand": "USPS", "collection_times": "Mo-Fr 15:20; Sa 09:30", "name": "USPS COLLECTION BOX - PO LOBBY", "note": "ON 12/24 AND 12/31, THIS BOX MAY BE COLLECTED AS EARLY AS 12 NOON.", "ref": "8272000002"}, "type": "Feature"}
{"geometry": {"coordinates": [-104.951758, 44.263782], "type": "Point"}, "id": "rm4cUzxHWZHyHlosQ-hJue057F4=", "properties": {"@spider": "usps_collection_boxes", "addr:city": "MOORCROFT", "addr:country": "US", "addr:full": "120 N BIGHORN AVE", "addr:postcode": "82721", "addr:state": "WY", "brand": "USPS", "collection_times": "Mo-Fr 16:30; Sa 09:30", "name": "USPS COLLECTION BOX - BLUE BOX", "note": "ON 12/24 AND 12/31, THIS BOX MAY BE COLLECTED AS EARLY AS 12 NOON.", "ref": "8272100000"}, "type": "Feature"}
{"geometry": {"coordinates": [-104.951758, 44.263782], "type": "Point"}, "id": "e3oxV5MDNTyU95X02ufOsAXbAqs=", "properties": {"@spider": "usps_collection_boxes", "addr:city": "MOORCROFT", "addr:country": "US", "addr:full": "120 N BIGHORN AVE", "addr:postcode": "82721", "addr:state": "WY", "brand": "USPS", "collection_times": "Mo-Fr 16:30; Sa 09:30", "name": "USPS COLLECTION BOX - PO LOBBY", "note": "ON 12/24 AND 12/31, THIS BOX MAY BE COLLECTED AS EARLY AS 12 NOON.", "ref": "8272100001"}, "type": "Feature"}
{"geometry": {"coordinates": [-104.420387, 43.972624], "type": "Point"}, "id": "1H327ybrg-k3tY_tZekzrQ7IHTs=", "properties": {"@spider": "usps_collection_boxes", "addr:city": "OSAGE", "addr:country": "US", "addr:full": "319 NEFSY AVE", "addr:postcode": "82723", "addr:state": "WY", "brand": "USPS", "collection_times": "Mo-Fr 11:45; Sa 09:30", "name": "USPS COLLECTION BOX - PO LOBBY", "ref": "8272300000"}, "type": "Feature"}
{"geometry": {"coordinates": [-104.420159, 43.97775], "type": "Point"}, "id": "WdcPda_sz1eVVCU3W_nF-XJB0Jo=", "properties": {"@spider": "usps_collection_boxes", "addr:city": "OSAGE", "addr:country": "US", "addr:full": "319 NEFSY AVE", "addr:postcode": "82723", "addr:state": "WY", "brand": "USPS", "collection_times": "Mo-Fr 11:45; Sa 09:30", "name": "USPS COLLECTION BOX - PO LOBBY", "ref": "8272300001"}, "type": "Feature"}
{"geometry": {"coordinates": [-105.709731, 44.740862], "type": "Point"}, "id": "fyBhDGBG0JcUE0rMFy4xXApXSRc=", "properties": {"@spider": "usps_collection_boxes", "addr:city": "RECLUSE", "addr:country": "US", "addr:full": "485 RECLUSE RD", "addr:postcode": "82725", "addr:state": "WY", "brand": "USPS", "collection_times": "Mo-Fr 10:30", "name": "USPS COLLECTION BOX - BLUE BOX", "ref": "8272500001"}, "type": "Feature"}
{"geometry": {"coordinates": [-105.709731, 44.740862], "type": "Point"}, "id": "L4zMwvt88BUI9WGtc5oKhrzM-qg=", "properties": {"@spider": "usps_collection_boxes", "addr:city": "RECLUSE", "addr:country": "US", "addr:full": "485 RECLUSE RD", "addr:postcode": "82725", "addr:state": "WY", "brand": "USPS", "collection_times": "Mo-Fr 10:45", "name": "USPS COLLECTION BOX - PO LOBBY", "ref": "8272500002"}, "type": "Feature"}
{"geometry": {"coordinates": [-105.204612, 44.27846], "type": "Point"}, "id": "7DyDuJnU9Hir11w_8KNhx-ej3AY=", "properties": {"@spider": "usps_collection_boxes", "addr:city": "ROZET", "addr:country": "US", "addr:full": "14076 HIGHWAY 51", "addr:postcode": "82727", "addr:state": "WY", "brand": "USPS", "collection_times": "Mo-Fr 16:45; Sa 09:15", "name": "USPS COLLECTION BOX - BLUE BOX", "note": "ON 12/24 AND 12/31, THIS BOX MAY BE COLLECTED AS EARLY AS 12 NOON.", "ref": "8272700000"}, "type": "Feature"}
{"geometry": {"coordinates": [-105.204612, 44.27846], "type": "Point"}, "id": "Yg_nH9CsBWtgFZgXEj8txFyewK4=", "properties": {"@spider": "usps_collection_boxes", "addr:city": "ROZET", "addr:country": "US", "addr:full": "14076 HIGHWAY 51", "addr:postcode": "82727", "addr:state": "WY", "brand": "USPS", "collection_times": "Mo-Fr 16:45; Sa 09:15", "name": "USPS COLLECTION BOX - PO LOBBY", "note": "ON 12/24 AND 12/31, THIS BOX MAY BE COLLECTED AS EARLY AS 12 NOON.", "ref": "8272700001"}, "type": "Feature"}
{"geometry": {"coordinates": [-104.381452, 44.405096], "type": "Point"}, "id": "fbuTDzxQA9nc9TE2ZokuQ7D9buQ=", "properties": {"@spider": "usps_collection_boxes", "addr:city": "SUNDANCE", "addr:country": "US", "addr:full": "121 E MAIN ST", "addr:postcode": "82729", "addr:state": "WY", "brand": "USPS", "collection_times": "Mo-Fr 15:45; Sa 11:45", "name": "USPS COLLECTION BOX - BLUE BOX", "note": "ON 12/24 AND 12/31, THIS BOX MAY BE COLLECTED AS EARLY AS 12 NOON.", "ref": "8272900000"}, "type": "Feature"}
{"geometry": {"coordinates": [-104.381452, 44.405096], "type": "Point"}, "id": "LF4G8vqF7ARXJWRzdGazNSlBiNE=", "properties": {"@spider": "usps_collection_boxes", "addr:city": "SUNDANCE", "addr:country": "US", "addr:full": "121 E MAIN ST", "addr:postcode": "82729", "addr:state": "WY", "brand": "USPS", "collection_times": "Mo-Fr 15:45; Sa 11:45", "name": "USPS COLLECTION BOX - PO LOBBY", "note": "ON 12/24 AND 12/31, THIS BOX MAY BE COLLECTED AS EARLY AS 12 NOON.", "ref": "8272900001"}, "type": "Feature"}
{"geometry": {"coordinates": [-104.381452, 44.405096], "type": "Point"}, "id": "Rg-lQ84slNMBUqb_7rpg8TcFgMU=", "properties": {"@spider": "usps_collection_boxes", "addr:city": "SUNDANCE", "addr:country": "US", "addr:full": "121 E MAIN ST", "addr:postcode": "82729", "addr:state": "WY", "brand": "USPS", "collection_times": "Mo-Fr 15:45; Sa 11:45", "name": "USPS COLLECTION BOX - PO LOBBY", "note": "ON 12/24 AND 12/31, THIS BOX MAY BE COLLECTED AS EARLY AS 12 NOON.", "ref": "8272900002"}, "type": "Feature"}
{"geometry": {"coordinates": [-104.626426, 44.099459], "type": "Point"}, "id": "AeBljRie_GIjN8n8DJLCVvRwDVs=", "properties": {"@spider": "usps_collection_boxes", "addr:city": "UPTON", "addr:country": "US", "addr:full": "622 PINE ST", "addr:postcode": "82730", "addr:state": "WY", "brand": "USPS", "collection_times": "Mo-Fr 16:30; Sa 09:30", "name": "USPS COLLECTION BOX - BLUE BOX", "note": "ON 12/24 AND 12/31, THIS BOX MAY BE COLLECTED AS EARLY AS 12 NOON.", "ref": "8273000000"}, "type": "Feature"}
{"geometry": {"coordinates": [-104.626426, 44.099459], "type": "Point"}, "id": "OQ0uOoVtzD3VBHpU83nIh1UZ_YU=", "properties": {"@spider": "usps_collection_boxes", "addr:city": "UPTON", "addr:country": "US", "addr:full": "622 PINE ST", "addr:postcode": "82730", "addr:state": "WY", "brand": "USPS", "collection_times": "Mo-Fr 16:30; Sa 09:30", "name": "USPS COLLECTION BOX - PO LOBBY", "note": "ON 12/24 AND 12/31, THIS BOX MAY BE COLLECTED AS EARLY AS 12 NOON.", "ref": "8273000001"}, "type": "Feature"}
{"geometry": {"coordinates": [-104.626426, 44.099459], "type": "Point"}, "id": "KTiKcW3RN_YPYtk6MVXnJG_ZsRI=", "properties": {"@spider": "usps_collection_boxes", "addr:city": "UPTON", "addr:country": "US", "addr:full": "622 PINE ST", "addr:postcode": "82730", "addr:state": "WY", "brand": "USPS", "collection_times": "Mo-Fr 16:30; Sa 09:30", "name": "USPS COLLECTION BOX - PO LOBBY", "note": "ON 12/24 AND 12/31, THIS BOX MAY BE COLLECTED AS EARLY AS 12 NOON.", "ref": "8273000002"}, "type": "Feature"}
