{"dataset_attributes": {"@spider": "usps_collection_boxes", "spider:collection_time": "2023-12-16T08:23:48.880691"}, "geometry": {"coordinates": [-106.95392, 44.79749], "type": "Point"}, "id": "ybM4D3qejOYa3_qkHqk7RchtG2w=", "properties": {"@spider": "usps_collection_boxes", "addr:city": "SHERIDAN", "addr:country": "US", "addr:full": "101 E LOUCKS ST", "addr:postcode": "82801", "addr:state": "WY", "amenity": "post_box", "brand": "United States Postal Service", "brand:wikidata": "Q668687", "collection_times": "Mo-Fr 17:00; Sa 11:45", "name": "USPS COLLECTION BOX - EXPRESS", "note": "ON 12/24 AND 12/31, THIS BOX MAY BE COLLECTED AS EARLY AS 12 NOON.", "nsi_id": "unitedstatespostalservice-a77078", "operator": "United States Postal Service", "operator:short": "USPS", "operator:type": "public", "operator:wikidata": "Q668687", "ref": "8280100000"}, "type": "Feature"}
{"dataset_attributes": {"@spider": "usps_collection_boxes", "spider:collection_time": "2023-12-16T08:23:48.880691"}, "geometry": {"coordinates": [-106.95392, 44.79749], "type": "Point"}, "id": "NljPXrt7lW915ZCabpqc0Vp_FvI=", "properties": {"@spider": "usps_collection_boxes", "addr:city": "SHERIDAN", "addr:country": "US", "addr:full": "101 E LOUCKS ST", "addr:postcode": "82801", "addr:state": "WY", "amenity": "post_box", "brand": "United States Postal Service", "brand:wikidata": "Q668687", "collection_times": "Mo-Fr 17:00; Sa 16:00", "name": "USPS COLLECTION BOX - BLUE BOX", "note": "ON 12/24 AND 12/31, THIS BOX MAY BE COLLECTED AS EARLY AS 12 NOON.", "nsi_id": "unitedstatespostalservice-a77078", "operator": "United States Postal Service", "operator:short": "USPS", "operator:type": "public", "operator:wikidata": "Q668687", "ref": "8280100001"}, "type": "Feature"}
{"dataset_attributes": {"@spider": "usps_collection_boxes", "spider:collection_time": "2023-12-16T08:23:48.880691"}, "geometry": {"coordinates": [-106.95392, 44.79749], "type": "Point"}, "id": "MIcoOPsrJAYJzWI04QA0fUab8B4=", "properties": {"@spider": "usps_collection_boxes", "addr:city": "SHERIDAN", "addr:country": "US", "addr:full": "101 E LOUCKS ST", "addr:postcode": "82801", "addr:state": "WY", "amenity": "post_box", "brand": "United States Postal Service", "brand:wikidata": "Q668687", "collection_times": "Mo-Fr 17:00; Sa 16:00", "name": "USPS COLLECTION BOX - BLUE BOX", "note": "ON 12/24 AND 12/31, THIS BOX MAY BE COLLECTED AS EARLY AS 12 NOON.", "nsi_id": "unitedstatespostalservice-a77078", "operator": "United States Postal Service", "operator:short": "USPS", "operator:type": "public", "operator:wikidata": "Q668687", "ref": "8280100002"}, "type": "Feature"}
{"dataset_attributes": {"@spider": "usps_collection_boxes", "spider:collection_time": "2023-12-16T08:23:48.880691"}, "geometry": {"coordinates": [-106.95392, 44.79749], "type": "Point"}, "id": "VcTsa82JBSgZj9kk6beYn1zRepk=", "properties": {"@spider": "usps_collection_boxes", "addr:city": "SHERIDAN", "addr:country": "US", "addr:full": "101 E LOUCKS ST", "addr:postcode": "82801", "addr:state": "WY", "amenity": "post_box", "brand": "United States Postal Service", "brand:wikidata": "Q668687", "collection_times": "Mo-Fr 17:00; Sa 16:00", "name": "USPS COLLECTION BOX - BLUE BOX", "note": "ON 12/24 AND 12/31, THIS BOX MAY BE COLLECTED AS EARLY AS 12 NOON.", "nsi_id": "unitedstatespostalservice-a77078", "operator": "United States Postal Service", "operator:short": "USPS", "operator:type": "public", "operator:wikidata": "Q668687", "ref": "8280100003"}, "type": "Feature"}
{"dataset_attributes": {"@spider": "usps_collection_boxes", "spider:collection_time": "2023-12-16T08:23:48.880691"}, "geometry": {"coordinates": [-106.95392, 44.79749], "type": "Point"}, "id": "XTSEUvUBT8WpU6-H9gqYvml06gY=", "properties": {"@spider": "usps_collection_boxes", "addr:city": "SHERIDAN", "addr:country": "US", "addr:full": "101 E LOUCKS ST", "addr:postcode": "82801", "addr:state": "WY", "amenity": "post_box", "brand": "United States Postal Service", "brand:wikidata": "Q668687", "collection_times": "Mo-Fr 17:00; Sa 16:00", "name": "USPS COLLECTION BOX - BLUE BOX", "note": "ON 12/24 AND 12/31, THIS BOX MAY BE COLLECTED AS EARLY AS 12 NOON.", "nsi_id": "unitedstatespostalservice-a77078", "operator": "United States Postal Service", "operator:short": "USPS", "operator:type": "public", "operator:wikidata": "Q668687", "ref": "8280100004"}, "type": "Feature"}
{"dataset_attributes": {"@spider": "usps_collection_boxes", "spider:collection_time": "2023-12-16T08:23:48.880691"}, "geometry": {"coordinates": [-106.941376, 44.777953], "type": "Point"}, "id": "2BMLk1b_Xb60mTKN_2GxEbqAULo=", "properties": {"@spider": "usps_collection_boxes", "addr:city": "SHERIDAN", "addr:country": "US", "addr:full": "1865 COFFEEN AVE", "addr:postcode": "82801", "addr:state": "WY", "amenity": "post_box", "brand": "United States Postal Service", "brand:wikidata": "Q668687", "collection_times": "Mo-Fr 16:00; Sa 13:00", "name": "USPS COLLECTION BOX - BLUE BOX", "note": "ON 12/24 AND 12/31, THIS BOX MAY BE COLLECTED AS EARLY AS 12 NOON.", "nsi_id": "unitedstatespostalservice-a77078", "operator": "United States Postal Service", "operator:short": "USPS", "operator:type": "public", "operator:wikidata": "Q668687", "ref": "8280100006"}, "type": "Feature"}
{"dataset_attributes": {"@spider": "usps_collection_boxes", "spider:collection_time": "2023-12-16T08:23:48.880691"}, "geometry": {"coordinates": [-106.95595, 44.804767], "type": "Point"}, "id": "y5Ts953YXQ8Jv_A4dcpjwN4sr9M=", "properties": {"@spider": "usps_collection_boxes", "addr:city": "SHERIDAN", "addr:country": "US", "addr:full": "700 N MAIN ST", "addr:postcode": "82801", "addr:state": "WY", "amenity": "post_box", "brand": "United States Postal Service", "brand:wikidata": "Q668687", "collection_times": "Mo-Fr 16:00; Sa 13:00", "name": "USPS COLLECTION BOX - BLUE BOX", "note": "ON 12/24 AND 12/31, THIS BOX MAY BE COLLECTED AS EARLY AS 12 NOON.", "nsi_id": "unitedstatespostalservice-a77078", "operator": "United States Postal Service", "operator:short": "USPS", "operator:type": "public", "operator:wikidata": "Q668687", "ref": "8280100008"}, "type": "Feature"}
{"dataset_attributes": {"@spider": "usps_collection_boxes", "spider:collection_time": "2023-12-16T08:23:48.880691"}, "geometry": {"coordinates": [-106.956006, 44.800672], "type": "Point"}, "id": "ZjgwzbhmST669RkAE0S6fW5Tamc=", "properties": {"@spider": "usps_collection_boxes", "addr:city": "SHERIDAN", "addr:country": "US", "addr:full": "264 N MAIN ST", "addr:postcode": "82801", "addr:state": "WY", "amenity": "post_box", "brand": "United States Postal Service", "brand:wikidata": "Q668687", "collection_times": "Mo-Fr 16:00; Sa 13:00", "name": "USPS COLLECTION BOX - BLUE BOX", "note": "ON 12/24 AND 12/31, THIS BOX MAY BE COLLECTED AS EARLY AS 12 NOON.", "nsi_id": "unitedstatespostalservice-a77078", "operator": "United States Postal Service", "operator:short": "USPS", "operator:type": "public", "operator:wikidata": "Q668687", "ref": "8280100009"}, "type": "Feature"}
{"dataset_attributes": {"@spider": "usps_collection_boxes", "spider:collection_time": "2023-12-16T08:23:48.880691"}, "geometry": {"coordinates": [-106.942177, 44.78035], "type": "Point"}, "id": "x_2qetODB7EqlsZGCeda9Gvf1CU=", "properties": {"@spider": "usps_collection_boxes", "addr:city": "SHERIDAN", "addr:country": "US", "addr:full": "1613 COFFEEN AVE", "addr:postcode": "82801", "addr:state": "WY", "amenity": "post_box", "brand": "United States Postal Service", "brand:wikidata": "Q668687", "collection_times": "Mo-Fr 16:00; Sa 13:00", "name": "USPS COLLECTION BOX - BLUE BOX", "note": "ON 12/24 AND 12/31, THIS BOX MAY BE COLLECTED AS EARLY AS 12 NOON.", "nsi_id": "unitedstatespostalservice-a77078", "operator": "United States Postal Service", "operator:short": "USPS", "operator:type": "public", "operator:wikidata": "Q668687", "ref": "8280100010"}, "type": "Feature"}
{"dataset_attributes": {"@spider": "usps_collection_boxes", "spider:collection_time": "2023-12-16T08:23:48.880691"}, "geometry": {"coordinates": [-106.956071, 44.798164], "type": "Point"}, "id": "wNoY6YhavmN-z7y7lRNyKZhNnyo=", "properties": {"@spider": "usps_collection_boxes", "addr:city": "SHERIDAN", "addr:country": "US", "addr:full": "50 N MAIN ST", "addr:postcode": "82801", "addr:state": "WY", "amenity": "post_box", "brand": "United States Postal Service", "brand:wikidata": "Q668687", "collection_times": "Mo-Fr 16:00; Sa 13:00", "name": "USPS COLLECTION BOX - BLUE BOX", "note": "ON 12/24 AND 12/31, THIS BOX MAY BE COLLECTED AS EARLY AS 12 NOON.", "nsi_id": "unitedstatespostalservice-a77078", "operator": "United States Postal Service", "operator:short": "USPS", "operator:type": "public", "operator:wikidata": "Q668687", "ref": "8280100012"}, "type": "Feature"}
{"dataset_attributes": {"@spider": "usps_collection_boxes", "spider:collection_time": "2023-12-16T08:23:48.880691"}, "geometry": {"coordinates": [-106.956456, 44.797311], "type": "Point"}, "id": "Q31MJQ2MkrYBrnHMYeHygFdMElM=", "properties": {"@spider": "usps_collection_boxes", "addr:city": "SHERIDAN", "addr:country": "US", "addr:full": "2 N MAIN ST", "addr:postcode": "82801", "addr:state": "WY", "amenity": "post_box", "brand": "United States Postal Service", "brand:wikidata": "Q668687", "collection_times": "Mo-Fr 16:00; Sa 13:00", "name": "USPS COLLECTION BOX - BLUE BOX", "note": "ON 12/24 AND 12/31, THIS BOX MAY BE COLLECTED AS EARLY AS 12 NOON.", "nsi_id": "unitedstatespostalservice-a77078", "operator": "United States Postal Service", "operator:short": "USPS", "operator:type": "public", "operator:wikidata": "Q668687", "ref": "8280100013"}, "type": "Feature"}
{"dataset_attributes": {"@spider": "usps_collection_boxes", "spider:collection_time": "2023-12-16T08:23:48.880691"}, "geometry": {"coordinates": [-106.957694, 44.796542], "type": "Point"}, "id": "qQtDmdOaigFXDY-6H6wlbGxGlvc=", "properties": {"@spider": "usps_collection_boxes", "addr:city": "SHERIDAN", "addr:country": "US", "addr:full": "101 W WORKS ST", "addr:postcode": "82801", "addr:state": "WY", "amenity": "post_box", "brand": "United States Postal Service", "brand:wikidata": "Q668687", "collection_times": "Mo-Fr 16:00; Sa 13:00", "name": "USPS COLLECTION BOX - BLUE BOX", "note": "ON 12/24 AND 12/31, THIS BOX MAY BE COLLECTED AS EARLY AS 12 NOON.", "nsi_id": "unitedstatespostalservice-a77078", "operator": "United States Postal Service", "operator:short": "USPS", "operator:type": "public", "operator:wikidata": "Q668687", "ref": "8280100014"}, "type": "Feature"}
{"dataset_attributes": {"@spider": "usps_collection_boxes", "spider:collection_time": "2023-12-16T08:23:48.880691"}, "geometry": {"coordinates": [-106.956051, 44.795532], "type": "Point"}, "id": "UldhomOUgzFpJec1dIb9Ds83Y_0=", "properties": {"@spider": "usps_collection_boxes", "addr:city": "SHERIDAN", "addr:country": "US", "addr:full": "150 S MAIN ST", "addr:postcode": "82801", "addr:state": "WY", "amenity": "post_box", "brand": "United States Postal Service", "brand:wikidata": "Q668687", "collection_times": "Mo-Fr 16:00; Sa 13:00", "name": "USPS COLLECTION BOX - BLUE BOX", "note": "ON 12/24 AND 12/31, THIS BOX MAY BE COLLECTED AS EARLY AS 12 NOON.", "nsi_id": "unitedstatespostalservice-a77078", "operator": "United States Postal Service", "operator:short": "USPS", "operator:type": "public", "operator:wikidata": "Q668687", "ref": "8280100015"}, "type": "Feature"}
{"dataset_attributes": {"@spider": "usps_collection_boxes", "spider:collection_time": "2023-12-16T08:23:48.880691"}, "geometry": {"coordinates": [-106.938596, 44.776809], "type": "Point"}, "id": "Gv8BYN_2PV-0DbsaVMc3x7r20X0=", "properties": {"@spider": "usps_collection_boxes", "addr:city": "SHERIDAN", "addr:country": "US", "addr:full": "1949 SUGARLAND DR", "addr:postcode": "82801", "addr:state": "WY", "amenity": "post_box", "brand": "United States Postal Service", "brand:wikidata": "Q668687", "collection_times": "Mo-Fr 16:00; Sa 13:00", "name": "USPS COLLECTION BOX - BLUE BOX", "note": "ON 12/24 AND 12/31, THIS BOX MAY BE COLLECTED AS EARLY AS 12 NOON.", "nsi_id": "unitedstatespostalservice-a77078", "operator": "United States Postal Service", "operator:short": "USPS", "operator:type": "public", "operator:wikidata": "Q668687", "ref": "8280100024"}, "type": "Feature"}
{"dataset_attributes": {"@spider": "usps_collection_boxes", "spider:collection_time": "2023-12-16T08:23:48.880691"}, "geometry": {"coordinates": [-106.95392, 44.79749], "type": "Point"}, "id": "vtSn7AGsXAQ1UXq9GYNeZErs3bo=", "properties": {"@spider": "usps_collection_boxes", "addr:city": "SHERIDAN", "addr:country": "US", "addr:full": "101 E LOUCKS ST", "addr:postcode": "82801", "addr:state": "WY", "amenity": "post_box", "brand": "United States Postal Service", "brand:wikidata": "Q668687", "collection_times": "Mo-Fr 17:00; Sa 16:00", "name": "USPS COLLECTION BOX - PO LOBBY", "note": "ON 12/24 AND 12/31, THIS BOX MAY BE COLLECTED AS EARLY AS 12 NOON.", "nsi_id": "unitedstatespostalservice-a77078", "operator": "United States Postal Service", "operator:short": "USPS", "operator:type": "public", "operator:wikidata": "Q668687", "ref": "8280100025"}, "type": "Feature"}
{"dataset_attributes": {"@spider": "usps_collection_boxes", "spider:collection_time": "2023-12-16T08:23:48.880691"}, "geometry": {"coordinates": [-106.95392, 44.79749], "type": "Point"}, "id": "npvv1mQ8Rd4xG95GyFGl5E9YFAk=", "properties": {"@spider": "usps_collection_boxes", "addr:city": "SHERIDAN", "addr:country": "US", "addr:full": "101 E LOUCKS ST", "addr:postcode": "82801", "addr:state": "WY", "amenity": "post_box", "brand": "United States Postal Service", "brand:wikidata": "Q668687", "collection_times": "Mo-Fr 17:00; Sa 16:00", "name": "USPS COLLECTION BOX - PO LOBBY", "note": "ON 12/24 AND 12/31, THIS BOX MAY BE COLLECTED AS EARLY AS 12 NOON.", "nsi_id": "unitedstatespostalservice-a77078", "operator": "United States Postal Service", "operator:short": "USPS", "operator:type": "public", "operator:wikidata": "Q668687", "ref": "8280100026"}, "type": "Feature"}
{"dataset_attributes": {"@spider": "usps_collection_boxes", "spider:collection_time": "2023-12-16T08:23:48.880691"}, "geometry": {"coordinates": [-106.940695, 44.779853], "type": "Point"}, "id": "PBbATwVbPtllYrN_eLg_NQP4eUM=", "properties": {"@spider": "usps_collection_boxes", "addr:city": "SHERIDAN", "addr:country": "US", "addr:full": "1695 COFFEEN AVE", "addr:postcode": "82801", "addr:state": "WY", "amenity": "post_box", "brand": "United States Postal Service", "brand:wikidata": "Q668687", "collection_times": "Mo-Fr 16:00; Sa 13:00", "name": "USPS COLLECTION BOX - BLUE BOX", "note": "ON 12/24 AND 12/31, THIS BOX MAY BE COLLECTED AS EARLY AS 12 NOON.", "nsi_id": "unitedstatespostalservice-a77078", "operator": "United States Postal Service", "operator:short": "USPS", "operator:type": "public", "operator:wikidata": "Q668687", "ref": "8280100028"}, "type": "Feature"}
{"dataset_attributes": {"@spider": "usps_collection_boxes", "spider:collection_time": "2023-12-16T08:23:48.880691"}, "geometry": {"coordinates": [-106.95392, 44.79749], "type": "Point"}, "id": "9dfDplesAKV8bxjH9k805CPIyMg=", "properties": {"@spider": "usps_collection_boxes", "addr:city": "SHERIDAN", "addr:country": "US", "addr:full": "101 E LOUCKS ST", "addr:postcode": "82801", "addr:state": "WY", "amenity": "post_box", "brand": "United States Postal Service", "brand:wikidata": "Q668687", "collection_times": "Mo-Fr 17:00; Sa 16:00", "name": "USPS COLLECTION BOX - BLUE BOX", "note": "ON 12/24 AND 12/31, THIS BOX MAY BE COLLECTED AS EARLY AS 12 NOON.", "nsi_id": "unitedstatespostalservice-a77078", "operator": "United States Postal Service", "operator:short": "USPS", "operator:type": "public", "operator:wikidata": "Q668687", "ref": "8280100029"}, "type": "Feature"}
{"dataset_attributes": {"@spider": "usps_collection_boxes", "spider:collection_time": "2023-12-16T08:23:48.880691"}, "geometry": {"coordinates": [-106.95392, 44.79749], "type": "Point"}, "id": "x_WKBywT03d-TJ1Z7X5oU0mJhQA=", "properties": {"@spider": "usps_collection_boxes", "addr:city": "SHERIDAN", "addr:country": "US", "addr:full": "101 E LOUCKS ST", "addr:postcode": "82801", "addr:state": "WY", "amenity": "post_box", "brand": "United States Postal Service", "brand:wikidata": "Q668687", "collection_times": "Mo-Fr 17:00; Sa 16:00", "name": "USPS COLLECTION BOX - BLUE BOX", "note": "ON 12/24 AND 12/31, THIS BOX MAY BE COLLECTED AS EARLY AS 12 NOON.", "nsi_id": "unitedstatespostalservice-a77078", "operator": "United States Postal Service", "operator:short": "USPS", "operator:type": "public", "operator:wikidata": "Q668687", "ref": "8280100030"}, "type": "Feature"}
{"dataset_attributes": {"@spider": "usps_collection_boxes", "spider:collection_time": "2023-12-16T08:23:48.880691"}, "geometry": {"coordinates": [-106.974668, 44.80838], "type": "Point"}, "id": "QfQvnE6ShUqpHTQ1UVU8hmviAF4=", "properties": {"@spider": "usps_collection_boxes", "addr:city": "SHERIDAN", "addr:country": "US", "addr:full": "1333 W 5TH ST", "addr:postcode": "82801", "addr:state": "WY", "amenity": "post_box", "brand": "United States Postal Service", "brand:wikidata": "Q668687", "collection_times": "Mo-Sa 11:00", "name": "USPS COLLECTION BOX - BLUE BOX", "nsi_id": "unitedstatespostalservice-a77078", "operator": "United States Postal Service", "operator:short": "USPS", "operator:type": "public", "operator:wikidata": "Q668687", "ref": "8280100032"}, "type": "Feature"}
{"dataset_attributes": {"@spider": "usps_collection_boxes", "spider:collection_time": "2023-12-16T08:23:48.880691"}, "geometry": {"coordinates": [-106.95487, 44.79967], "type": "Point"}, "id": "E1P0NDuT6zmSlzZBULURxYWA-CM=", "properties": {"@spider": "usps_collection_boxes", "addr:city": "SHERIDAN", "addr:country": "US", "addr:full": "55 E GRINNELL PLZ", "addr:postcode": "82801", "addr:state": "WY", "amenity": "post_box", "brand": "United States Postal Service", "brand:wikidata": "Q668687", "collection_times": "Mo-Fr 16:00; Sa 13:00", "name": "USPS COLLECTION BOX - BLUE BOX", "note": "ON 12/24 AND 12/31, THIS BOX MAY BE COLLECTED AS EARLY AS 12 NOON.", "nsi_id": "unitedstatespostalservice-a77078", "operator": "United States Postal Service", "operator:short": "USPS", "operator:type": "public", "operator:wikidata": "Q668687", "ref": "8280100033"}, "type": "Feature"}
{"dataset_attributes": {"@spider": "usps_collection_boxes", "spider:collection_time": "2023-12-16T08:23:48.880691"}, "geometry": {"coordinates": [-106.131928, 44.65395], "type": "Point"}, "id": "_NK-rz1Qzw4ENDSMLNd1-32C-1Q=", "properties": {"@spider": "usps_collection_boxes", "addr:city": "ARVADA", "addr:country": "US", "addr:full": "25 ATOKA ST", "addr:postcode": "82831", "addr:state": "WY", "amenity": "post_box", "brand": "United States Postal Service", "brand:wikidata": "Q668687", "collection_times": "Mo-Fr 15:00; Sa 11:00", "name": "USPS COLLECTION BOX - PO LOBBY", "note": "ON 12/24 AND 12/31, THIS BOX MAY BE COLLECTED AS EARLY AS 12 NOON.", "nsi_id": "unitedstatespostalservice-a77078", "operator": "United States Postal Service", "operator:short": "USPS", "operator:type": "public", "operator:wikidata": "Q668687", "ref": "8283100001"}, "type": "Feature"}
{"dataset_attributes": {"@spider": "usps_collection_boxes", "spider:collection_time": "2023-12-16T08:23:48.880691"}, "geometry": {"coordinates": [-106.991645, 44.680591], "type": "Point"}, "id": "cFKBtkIuZhEm96j-44DZOHch6FU=", "properties": {"@spider": "usps_collection_boxes", "addr:city": "BIG HORN", "addr:country": "US", "addr:full": "226 JOHNSON ST", "addr:postcode": "82833", "addr:state": "WY", "amenity": "post_box", "brand": "United States Postal Service", "brand:wikidata": "Q668687", "collection_times": "Mo-Fr 15:15; Sa 09:30", "name": "USPS COLLECTION BOX - PO LOBBY", "note": "ON 12/24 AND 12/31, THIS BOX MAY BE COLLECTED AS EARLY AS 12 NOON.", "nsi_id": "unitedstatespostalservice-a77078", "operator": "United States Postal Service", "operator:short": "USPS", "operator:type": "public", "operator:wikidata": "Q668687", "ref": "8283300000"}, "type": "Feature"}
{"dataset_attributes": {"@spider": "usps_collection_boxes", "spider:collection_time": "2023-12-16T08:23:48.880691"}, "geometry": {"coordinates": [-106.991605, 44.680632], "type": "Point"}, "id": "VjtNTPH7MfvHMOJlG77MlmHuanI=", "properties": {"@spider": "usps_collection_boxes", "addr:city": "BIG HORN", "addr:country": "US", "addr:full": "226 JOHNSON ST", "addr:postcode": "82833", "addr:state": "WY", "amenity": "post_box", "brand": "United States Postal Service", "brand:wikidata": "Q668687", "collection_times": "Mo-Fr 15:15; Sa 09:30", "name": "USPS COLLECTION BOX - PO LOBBY", "note": "ON 12/24 AND 12/31, THIS BOX MAY BE COLLECTED AS EARLY AS 12 NOON.", "nsi_id": "unitedstatespostalservice-a77078", "operator": "United States Postal Service", "operator:short": "USPS", "operator:type": "public", "operator:wikidata": "Q668687", "ref": "8283300001"}, "type": "Feature"}
{"dataset_attributes": {"@spider": "usps_collection_boxes", "spider:collection_time": "2023-12-16T08:23:48.880691"}, "geometry": {"coordinates": [-106.697344, 44.345062], "type": "Point"}, "id": "0HSiy7V3TRwc47v-YmMXyeIikOc=", "properties": {"@spider": "usps_collection_boxes", "addr:city": "BUFFALO", "addr:country": "US", "addr:full": "193 S MAIN ST", "addr:postcode": "82834", "addr:state": "WY", "amenity": "post_box", "brand": "United States Postal Service", "brand:wikidata": "Q668687", "collection_times": "Mo-Fr 16:15; Sa 14:30", "name": "USPS COLLECTION BOX - BLUE BOX", "note": "ON 12/24 AND 12/31, THIS BOX MAY BE COLLECTED AS EARLY AS 12 NOON.", "nsi_id": "unitedstatespostalservice-a77078", "operator": "United States Postal Service", "operator:short": "USPS", "operator:type": "public", "operator:wikidata": "Q668687", "ref": "8283400000"}, "type": "Feature"}
{"dataset_attributes": {"@spider": "usps_collection_boxes", "spider:collection_time": "2023-12-16T08:23:48.880691"}, "geometry": {"coordinates": [-106.697663, 44.344882], "type": "Point"}, "id": "X5-t9wWfDqjd_d8rwf6f3gCznYo=", "properties": {"@spider": "usps_collection_boxes", "addr:city": "BUFFALO", "addr:country": "US", "addr:full": "193 S MAIN ST", "addr:postcode": "82834", "addr:state": "WY", "amenity": "post_box", "brand": "United States Postal Service", "brand:wikidata": "Q668687", "collection_times": "Mo-Fr 16:30; Sa 14:30", "name": "USPS COLLECTION BOX - PO LOBBY", "note": "ON 12/24 AND 12/31, THIS BOX MAY BE COLLECTED AS EARLY AS 12 NOON.", "nsi_id": "unitedstatespostalservice-a77078", "operator": "United States Postal Service", "operator:short": "USPS", "operator:type": "public", "operator:wikidata": "Q668687", "ref": "8283400002"}, "type": "Feature"}
{"dataset_attributes": {"@spider": "usps_collection_boxes", "spider:collection_time": "2023-12-16T08:23:48.880691"}, "geometry": {"coordinates": [-106.697605, 44.344893], "type": "Point"}, "id": "uC_eJhqC59iXrAR8BLJO5OLsfRs=", "properties": {"@spider": "usps_collection_boxes", "addr:city": "BUFFALO", "addr:country": "US", "addr:full": "193 S MAIN ST", "addr:postcode": "82834", "addr:state": "WY", "amenity": "post_box", "brand": "United States Postal Service", "brand:wikidata": "Q668687", "collection_times": "Mo-Fr 16:30; Sa 14:30", "name": "USPS COLLECTION BOX - PO LOBBY", "note": "ON 12/24 AND 12/31, THIS BOX MAY BE COLLECTED AS EARLY AS 12 NOON.", "nsi_id": "unitedstatespostalservice-a77078", "operator": "United States Postal Service", "operator:short": "USPS", "operator:type": "public", "operator:wikidata": "Q668687", "ref": "8283400003"}, "type": "Feature"}
{"dataset_attributes": {"@spider": "usps_collection_boxes", "spider:collection_time": "2023-12-16T08:23:48.880691"}, "geometry": {"coordinates": [-106.381804, 44.638269], "type": "Point"}, "id": "bIB65OdEB1s3rrGoLpIzPFTdDdI=", "properties": {"@spider": "usps_collection_boxes", "addr:city": "CLEARMONT", "addr:country": "US", "addr:full": "1210 FRONT ST", "addr:postcode": "82835", "addr:state": "WY", "amenity": "post_box", "brand": "United States Postal Service", "brand:wikidata": "Q668687", "collection_times": "Mo-Fr 15:00; Sa 10:00", "name": "USPS COLLECTION BOX - PO LOBBY", "note": "ON 12/24 AND 12/31, THIS BOX MAY BE COLLECTED AS EARLY AS 12 NOON.", "nsi_id": "unitedstatespostalservice-a77078", "operator": "United States Postal Service", "operator:short": "USPS", "operator:type": "public", "operator:wikidata": "Q668687", "ref": "8283500001"}, "type": "Feature"}
{"dataset_attributes": {"@spider": "usps_collection_boxes", "spider:collection_time": "2023-12-16T08:23:48.880691"}, "geometry": {"coordinates": [-107.262126775, 44.8762893064], "type": "Point"}, "id": "H5oJxis1QNg2Iumsc7iJlP1WIyo=", "properties": {"@spider": "usps_collection_boxes", "addr:city": "DAYTON", "addr:country": "US", "addr:full": "112 3RD ST W", "addr:postcode": "82836", "addr:state": "WY", "amenity": "post_box", "brand": "United States Postal Service", "brand:wikidata": "Q668687", "collection_times": "Mo-Fr 15:45; Sa 09:00", "name": "USPS COLLECTION BOX - BLUE BOX", "note": "ON 12/24 AND 12/31, THIS BOX MAY BE COLLECTED AS EARLY AS 12 NOON.", "nsi_id": "unitedstatespostalservice-a77078", "operator": "United States Postal Service", "operator:short": "USPS", "operator:type": "public", "operator:wikidata": "Q668687", "ref": "8283600000"}, "type": "Feature"}
{"dataset_attributes": {"@spider": "usps_collection_boxes", "spider:collection_time": "2023-12-16T08:23:48.880691"}, "geometry": {"coordinates": [-107.262126775, 44.8762893064], "type": "Point"}, "id": "fHlahfkeBn-5MyNTQcQ4wwC--Uw=", "properties": {"@spider": "usps_collection_boxes", "addr:city": "DAYTON", "addr:country": "US", "addr:full": "112 3RD ST W", "addr:postcode": "82836", "addr:state": "WY", "amenity": "post_box", "brand": "United States Postal Service", "brand:wikidata": "Q668687", "collection_times": "Mo-Fr 15:45; Sa 09:00", "name": "USPS COLLECTION BOX - PO LOBBY", "note": "ON 12/24 AND 12/31, THIS BOX MAY BE COLLECTED AS EARLY AS 12 NOON.", "nsi_id": "unitedstatespostalservice-a77078", "operator": "United States Postal Service", "operator:short": "USPS", "operator:type": "public", "operator:wikidata": "Q668687", "ref": "8283600001"}, "type": "Feature"}
{"dataset_attributes": {"@spider": "usps_collection_boxes", "spider:collection_time": "2023-12-16T08:23:48.880691"}, "geometry": {"coordinates": [-107.262126775, 44.8762893064], "type": "Point"}, "id": "_aw1SrNs6QI1nhhpnZs48wAyFyY=", "properties": {"@spider": "usps_collection_boxes", "addr:city": "DAYTON", "addr:country": "US", "addr:full": "112 3RD ST W", "addr:postcode": "82836", "addr:state": "WY", "amenity": "post_box", "brand": "United States Postal Service", "brand:wikidata": "Q668687", "collection_times": "Mo-Fr 15:45; Sa 09:00", "name": "USPS COLLECTION BOX - BLUE BOX", "note": "ON 12/24 AND 12/31, THIS BOX MAY BE COLLECTED AS EARLY AS 12 NOON.", "nsi_id": "unitedstatespostalservice-a77078", "operator": "United States Postal Service", "operator:short": "USPS", "operator:type": "public", "operator:wikidata": "Q668687", "ref": "8283600002"}, "type": "Feature"}
{"dataset_attributes": {"@spider": "usps_collection_boxes", "spider:collection_time": "2023-12-16T08:23:48.880691"}, "geometry": {"coordinates": [-106.268609, 44.717869], "type": "Point"}, "id": "Beotipe2Mbsl3siBnrC9pJYP5no=", "properties": {"@spider": "usps_collection_boxes", "addr:city": "LEITER", "addr:country": "US", "addr:full": "4679 HIGHWAY 14-16 E", "addr:postcode": "82837", "addr:state": "WY", "amenity": "post_box", "brand": "United States Postal Service", "brand:wikidata": "Q668687", "collection_times": "Mo-Sa 11:30", "name": "USPS COLLECTION BOX - PO LOBBY", "nsi_id": "unitedstatespostalservice-a77078", "operator": "United States Postal Service", "operator:short": "USPS", "operator:type": "public", "operator:wikidata": "Q668687", "ref": "8283700000"}, "type": "Feature"}
{"dataset_attributes": {"@spider": "usps_collection_boxes", "spider:collection_time": "2023-12-16T08:23:48.880691"}, "geometry": {"coordinates": [-106.268721, 44.71782], "type": "Point"}, "id": "TLw3j95t_oP7Qts-AyCGOhuhxVs=", "properties": {"@spider": "usps_collection_boxes", "addr:city": "LEITER", "addr:country": "US", "addr:full": "4679 HIGHWAY 14-16 E", "addr:postcode": "82837", "addr:state": "WY", "amenity": "post_box", "brand": "United States Postal Service", "brand:wikidata": "Q668687", "collection_times": "Mo-Sa 11:30", "name": "USPS COLLECTION BOX - BLUE BOX", "nsi_id": "unitedstatespostalservice-a77078", "operator": "United States Postal Service", "operator:short": "USPS", "operator:type": "public", "operator:wikidata": "Q668687", "ref": "8283700001"}, "type": "Feature"}
{"dataset_attributes": {"@spider": "usps_collection_boxes", "spider:collection_time": "2023-12-16T08:23:48.880691"}, "geometry": {"coordinates": [-107.332599, 44.957062], "type": "Point"}, "id": "e7Itajr_TlhOaNVFX4fLiVZ-91s=", "properties": {"@spider": "usps_collection_boxes", "addr:city": "PARKMAN", "addr:country": "US", "addr:full": "49 RAILWAY AVE", "addr:postcode": "82838", "addr:state": "WY", "amenity": "post_box", "brand": "United States Postal Service", "brand:wikidata": "Q668687", "collection_times": "Mo-Fr 09:15; Sa 09:00", "name": "USPS COLLECTION BOX - PO LOBBY", "nsi_id": "unitedstatespostalservice-a77078", "operator": "United States Postal Service", "operator:short": "USPS", "operator:type": "public", "operator:wikidata": "Q668687", "ref": "8283800000"}, "type": "Feature"}
{"dataset_attributes": {"@spider": "usps_collection_boxes", "spider:collection_time": "2023-12-16T08:23:48.880691"}, "geometry": {"coordinates": [-107.166135, 44.908849], "type": "Point"}, "id": "0cO0jvepD47PCAj8UJki2i-SBlQ=", "properties": {"@spider": "usps_collection_boxes", "addr:city": "RANCHESTER", "addr:country": "US", "addr:full": "551 US HIGHWAY 14", "addr:postcode": "82839", "addr:state": "WY", "amenity": "post_box", "brand": "United States Postal Service", "brand:wikidata": "Q668687", "collection_times": "Mo-Fr 16:00; Sa 09:30", "name": "USPS COLLECTION BOX - BLUE BOX", "note": "ON 12/24 AND 12/31, THIS BOX MAY BE COLLECTED AS EARLY AS 12 NOON.", "nsi_id": "unitedstatespostalservice-a77078", "operator": "United States Postal Service", "operator:short": "USPS", "operator:type": "public", "operator:wikidata": "Q668687", "ref": "8283900000"}, "type": "Feature"}
{"dataset_attributes": {"@spider": "usps_collection_boxes", "spider:collection_time": "2023-12-16T08:23:48.880691"}, "geometry": {"coordinates": [-107.174811, 44.905943], "type": "Point"}, "id": "PXVJafMooaPEvTRfp4Pga-ROQxw=", "properties": {"@spider": "usps_collection_boxes", "addr:city": "RANCHESTER", "addr:country": "US", "addr:full": "551 US HIGHWAY 14", "addr:postcode": "82839", "addr:state": "WY", "amenity": "post_box", "brand": "United States Postal Service", "brand:wikidata": "Q668687", "collection_times": "Mo-Fr 16:00; Sa 09:30", "name": "USPS COLLECTION BOX - PO LOBBY", "note": "ON 12/24 AND 12/31, THIS BOX MAY BE COLLECTED AS EARLY AS 12 NOON.", "nsi_id": "unitedstatespostalservice-a77078", "operator": "United States Postal Service", "operator:short": "USPS", "operator:type": "public", "operator:wikidata": "Q668687", "ref": "8283900001"}, "type": "Feature"}
{"dataset_attributes": {"@spider": "usps_collection_boxes", "spider:collection_time": "2023-12-16T08:23:48.880691"}, "geometry": {"coordinates": [-106.891803, 44.574701], "type": "Point"}, "id": "Oitgg_Fk962tby6CNYNtz7H-Rlg=", "properties": {"@spider": "usps_collection_boxes", "addr:city": "STORY", "addr:country": "US", "addr:full": "23 N PINEY RD", "addr:postcode": "82842", "addr:state": "WY", "amenity": "post_box", "brand": "United States Postal Service", "brand:wikidata": "Q668687", "collection_times": "Mo-Fr 15:00; Sa 10:30", "name": "USPS COLLECTION BOX - BLUE BOX", "note": "ON 12/24 AND 12/31, THIS BOX MAY BE COLLECTED AS EARLY AS 12 NOON.", "nsi_id": "unitedstatespostalservice-a77078", "operator": "United States Postal Service", "operator:short": "USPS", "operator:type": "public", "operator:wikidata": "Q668687", "ref": "8284200000"}, "type": "Feature"}
{"dataset_attributes": {"@spider": "usps_collection_boxes", "spider:collection_time": "2023-12-16T08:23:48.880691"}, "geometry": {"coordinates": [-106.89189, 44.574673], "type": "Point"}, "id": "8_XKHBbGzyrZ1TZ9pobgHdgPZSw=", "properties": {"@spider": "usps_collection_boxes", "addr:city": "STORY", "addr:country": "US", "addr:full": "23 N PINEY RD", "addr:postcode": "82842", "addr:state": "WY", "amenity": "post_box", "brand": "United States Postal Service", "brand:wikidata": "Q668687", "collection_times": "Mo-Fr 15:00; Sa 10:30", "name": "USPS COLLECTION BOX - PO LOBBY", "note": "ON 12/24 AND 12/31, THIS BOX MAY BE COLLECTED AS EARLY AS 12 NOON.", "nsi_id": "unitedstatespostalservice-a77078", "operator": "United States Postal Service", "operator:short": "USPS", "operator:type": "public", "operator:wikidata": "Q668687", "ref": "8284200001"}, "type": "Feature"}
{"dataset_attributes": {"@spider": "usps_collection_boxes", "spider:collection_time": "2023-12-16T08:23:48.880691"}, "geometry": {"coordinates": [-106.89189, 44.574673], "type": "Point"}, "id": "z6bDMLdkq2WqHDGg5ndF-apeTf4=", "properties": {"@spider": "usps_collection_boxes", "addr:city": "STORY", "addr:country": "US", "addr:full": "23 N PINEY RD", "addr:postcode": "82842", "addr:state": "WY", "amenity": "post_box", "brand": "United States Postal Service", "brand:wikidata": "Q668687", "collection_times": "Mo-Fr 15:00; Sa 10:30", "name": "USPS COLLECTION BOX - PO LOBBY", "note": "ON 12/24 AND 12/31, THIS BOX MAY BE COLLECTED AS EARLY AS 12 NOON.", "nsi_id": "unitedstatespostalservice-a77078", "operator": "United States Postal Service", "operator:short": "USPS", "operator:type": "public", "operator:wikidata": "Q668687", "ref": "8284200002"}, "type": "Feature"}
{"dataset_attributes": {"@spider": "usps_collection_boxes", "spider:collection_time": "2023-12-16T08:23:48.880691"}, "geometry": {"coordinates": [-106.773984, 44.813024], "type": "Point"}, "id": "G3vn571gqGk0OKwH2d1L10-p-cs=", "properties": {"@spider": "usps_collection_boxes", "addr:city": "WYARNO", "addr:country": "US", "addr:full": "1041 STATE HIGHWAY 336", "addr:postcode": "82845", "addr:state": "WY", "amenity": "post_box", "brand": "United States Postal Service", "brand:wikidata": "Q668687", "collection_times": "Mo-Fr 13:15; Sa 10:45", "name": "USPS COLLECTION BOX - BLUE BOX", "note": "ON 12/24 AND 12/31, THIS BOX MAY BE COLLECTED AS EARLY AS 12 NOON.", "nsi_id": "unitedstatespostalservice-a77078", "operator": "United States Postal Service", "operator:short": "USPS", "operator:type": "public", "operator:wikidata": "Q668687", "ref": "8284500000"}, "type": "Feature"}
