{"geometry": {"coordinates": [-109.253675, 41.583849], "type": "Point"}, "id": "SHGdT9dhVrgaGYJW1R3Jnn8CDd8=", "properties": {"@spider": "usps_collection_boxes", "addr:city": "ROCK SPRINGS", "addr:country": "US", "addr:full": "2829 COMMERCIAL WAY", "addr:postcode": "82901", "addr:state": "WY", "brand": "USPS", "collection_times": "Mo-Sa 16:40", "name": "USPS COLLECTION BOX - BLUE BOX", "note": "ON 12/24 AND 12/31, THIS BOX MAY BE COLLECTED AS EARLY AS 12 NOON.", "ref": "8290100001"}, "type": "Feature"}
{"geometry": {"coordinates": [-109.253675, 41.583849], "type": "Point"}, "id": "4JvbRS14mEj9j0qS2M0R7hCxXW8=", "properties": {"@spider": "usps_collection_boxes", "addr:city": "ROCK SPRINGS", "addr:country": "US", "addr:full": "2829 COMMERCIAL WAY", "addr:postcode": "82901", "addr:state": "WY", "brand": "USPS", "collection_times": "Mo-Sa 16:40", "name": "USPS COLLECTION BOX - BLUE BOX", "note": "ON 12/24 AND 12/31, THIS BOX MAY BE COLLECTED AS EARLY AS 12 NOON.", "ref": "8290100002"}, "type": "Feature"}
{"geometry": {"coordinates": [-109.2482699683, 41.5743899958], "type": "Point"}, "id": "PpttUrzdCQQ5mo3aicQWDhqMQRQ=", "properties": {"@spider": "usps_collection_boxes", "addr:city": "ROCK SPRINGS", "addr:country": "US", "addr:full": "1993 DEWAR DR", "addr:postcode": "82901", "addr:state": "WY", "brand": "USPS", "collection_times": "Mo-Fr 15:00; Sa 09:30", "name": "USPS COLLECTION BOX - BLUE BOX", "note": "ON 12/24 AND 12/31, THIS BOX MAY BE COLLECTED AS EARLY AS 12 NOON.", "ref": "8290100006"}, "type": "Feature"}
{"geometry": {"coordinates": [-109.24758, 41.577198], "type": "Point"}, "id": "67MyPmV03qPuwvPbYBJhJzdfmP4=", "properties": {"@spider": "usps_collection_boxes", "addr:city": "ROCK SPRINGS", "addr:country": "US", "addr:full": "79 WINSTON DR", "addr:postcode": "82901", "addr:state": "WY", "brand": "USPS", "collection_times": "Mo-Fr 15:00; Sa 12:00", "name": "USPS COLLECTION BOX - BLUE BOX", "note": "ON 12/24 AND 12/31, THIS BOX MAY BE COLLECTED AS EARLY AS 12 NOON.", "ref": "8290100007"}, "type": "Feature"}
{"geometry": {"coordinates": [-109.232303, 41.584167], "type": "Point"}, "id": "GK2H_o8fPl9hsyLUUdSKSNQcDts=", "properties": {"@spider": "usps_collection_boxes", "addr:city": "ROCK SPRINGS", "addr:country": "US", "addr:full": "1204 HILLTOP DR", "addr:postcode": "82901", "addr:state": "WY", "brand": "USPS", "collection_times": "Mo-Fr 15:00; Sa 12:00", "name": "USPS COLLECTION BOX - BLUE BOX", "note": "ON 12/24 AND 12/31, THIS BOX MAY BE COLLECTED AS EARLY AS 12 NOON.", "ref": "8290100008"}, "type": "Feature"}
{"geometry": {"coordinates": [-109.236658, 41.575737], "type": "Point"}, "id": "8IPRK57jYTNDmTCCxKICNS_7AOQ=", "properties": {"@spider": "usps_collection_boxes", "addr:city": "ROCK SPRINGS", "addr:country": "US", "addr:full": "1323 DEWAR DR", "addr:postcode": "82901", "addr:state": "WY", "brand": "USPS", "collection_times": "Mo-Fr 15:00; Sa 09:30", "name": "USPS COLLECTION BOX - BLUE BOX", "note": "ON 12/24 AND 12/31, THIS BOX MAY BE COLLECTED AS EARLY AS 12 NOON.", "ref": "8290100009"}, "type": "Feature"}
{"geometry": {"coordinates": [-109.230288, 41.612125], "type": "Point"}, "id": "ISqm2UOZKV1rdHyYkO0adwsv01Y=", "properties": {"@spider": "usps_collection_boxes", "addr:city": "ROCK SPRINGS", "addr:country": "US", "addr:full": "1630 ELK ST", "addr:postcode": "82901", "addr:state": "WY", "brand": "USPS", "collection_times": "Mo-Fr 15:00; Sa 09:00", "name": "USPS COLLECTION BOX - BLUE BOX", "note": "ON 12/24 AND 12/31, THIS BOX MAY BE COLLECTED AS EARLY AS 12 NOON.", "ref": "8290100013"}, "type": "Feature"}
{"geometry": {"coordinates": [-109.219479, 41.587927], "type": "Point"}, "id": "UGIjlOWVcY4Y761wAxkgr6p-EQU=", "properties": {"@spider": "usps_collection_boxes", "addr:city": "ROCK SPRINGS", "addr:country": "US", "addr:full": "553 N FRONT ST", "addr:postcode": "82901", "addr:state": "WY", "brand": "USPS", "collection_times": "Mo-Fr 15:00; Sa 09:00", "name": "USPS COLLECTION BOX - BLUE BOX", "note": "ON 12/24 AND 12/31, THIS BOX MAY BE COLLECTED AS EARLY AS 12 NOON.", "ref": "8290100016"}, "type": "Feature"}
{"geometry": {"coordinates": [-109.251739, 41.580027], "type": "Point"}, "id": "O3AIH5FaNMTGG-vap-8geeENBwI=", "properties": {"@spider": "usps_collection_boxes", "addr:city": "ROCK SPRINGS", "addr:country": "US", "addr:full": "201 GATEWAY BLVD", "addr:postcode": "82901", "addr:state": "WY", "brand": "USPS", "collection_times": "Mo-Sa 12:00", "name": "USPS COLLECTION BOX - BLUE BOX", "ref": "8290100020"}, "type": "Feature"}
{"geometry": {"coordinates": [-109.2536747301, 41.5838406655], "type": "Point"}, "id": "W7s1uKMQHfw1Vi9KphgykmzceCo=", "properties": {"@spider": "usps_collection_boxes", "addr:city": "ROCK SPRINGS", "addr:country": "US", "addr:full": "2829 COMMERCIAL WAY", "addr:postcode": "82901", "addr:state": "WY", "brand": "USPS", "collection_times": "Mo-Sa 16:00", "name": "USPS COLLECTION BOX - PO LOBBY", "note": "ON 12/24 AND 12/31, THIS BOX MAY BE COLLECTED AS EARLY AS 12 NOON.", "ref": "8290100031"}, "type": "Feature"}
{"geometry": {"coordinates": [-109.260197, 41.581603], "type": "Point"}, "id": "GyxJ-v0We4bld9XtaE5ZzMYbgYU=", "properties": {"@spider": "usps_collection_boxes", "addr:city": "ROCK SPRINGS", "addr:country": "US", "addr:full": "2515 FOOTHILL BLVD", "addr:postcode": "82901", "addr:state": "WY", "brand": "USPS", "collection_times": "Mo-Fr 15:00; Sa 08:30", "name": "USPS COLLECTION BOX - BLUE BOX", "note": "ON 12/24 AND 12/31, THIS BOX MAY BE COLLECTED AS EARLY AS 12 NOON.", "ref": "8290100036"}, "type": "Feature"}
{"geometry": {"coordinates": [-109.219462, 41.58567], "type": "Point"}, "id": "9iAqU3Rslro_gQ1s_QB0a1pzSDs=", "properties": {"@spider": "usps_collection_boxes", "addr:city": "ROCK SPRINGS", "addr:country": "US", "addr:full": "212 D ST", "addr:postcode": "82901", "addr:state": "WY", "brand": "USPS", "collection_times": "Mo-Fr 15:00; Sa 09:00", "name": "USPS COLLECTION BOX - BLUE BOX", "note": "ON 12/24 AND 12/31, THIS BOX MAY BE COLLECTED AS EARLY AS 12 NOON.", "ref": "8290100037"}, "type": "Feature"}
{"geometry": {"coordinates": [-109.21945, 41.586064], "type": "Point"}, "id": "sxkqMtMayu1lJiitPrxb4V_FI-8=", "properties": {"@spider": "usps_collection_boxes", "addr:city": "ROCK SPRINGS", "addr:country": "US", "addr:full": "212 D ST", "addr:postcode": "82901", "addr:state": "WY", "brand": "USPS", "collection_times": "Mo-Fr 15:00; Sa 09:00", "name": "USPS COLLECTION BOX - BLUE BOX", "note": "ON 12/24 AND 12/31, THIS BOX MAY BE COLLECTED AS EARLY AS 12 NOON.", "ref": "8290100039"}, "type": "Feature"}
{"geometry": {"coordinates": [-109.20594, 41.597925], "type": "Point"}, "id": "Hu6i2rqzOQ6eUlMlLYSS6NdZQI8=", "properties": {"@spider": "usps_collection_boxes", "addr:city": "ROCK SPRINGS", "addr:country": "US", "addr:full": "1520 9TH ST", "addr:postcode": "82901", "addr:state": "WY", "brand": "USPS", "collection_times": "Mo-Sa 09:00", "name": "USPS COLLECTION BOX - BLUE BOX", "ref": "8290100044"}, "type": "Feature"}
{"geometry": {"coordinates": [-109.253042, 41.642367], "type": "Point"}, "id": "Vdq5Q8QVdvGhReBMleCICoHau2w=", "properties": {"@spider": "usps_collection_boxes", "addr:city": "ROCK SPRINGS", "addr:country": "US", "addr:full": "1900 YELLOWSTONE RD", "addr:postcode": "82901", "addr:state": "WY", "brand": "USPS", "collection_times": "Mo-Sa 10:00", "name": "USPS COLLECTION BOX - BLUE BOX", "ref": "8290100045"}, "type": "Feature"}
{"geometry": {"coordinates": [-110.36437, 43.159875], "type": "Point"}, "id": "_aYWz0ppa_iExMCnGycARO-_QXE=", "properties": {"@spider": "usps_collection_boxes", "addr:city": "BONDURANT", "addr:country": "US", "addr:full": "13884 HIGHWAY 191", "addr:postcode": "82922", "addr:state": "WY", "brand": "USPS", "collection_times": "Mo-Fr 12:50; Sa 10:20", "name": "USPS COLLECTION BOX - PO LOBBY", "note": "ON 12/24 AND 12/31, THIS BOX MAY BE COLLECTED AS EARLY AS 12 NOON.", "ref": "8292200000"}, "type": "Feature"}
{"geometry": {"coordinates": [-109.719635, 42.746693], "type": "Point"}, "id": "CGmSzpD1ryJalFidufkVqVkK5FY=", "properties": {"@spider": "usps_collection_boxes", "addr:city": "BOULDER WY", "addr:country": "US", "addr:full": "7 HIGHWAY 353", "addr:postcode": "82923", "addr:state": "WY", "brand": "USPS", "collection_times": "Mo-Fr 14:10; Sa 09:15", "name": "USPS COLLECTION BOX - BLUE BOX", "note": "ON 12/24 AND 12/31, THIS BOX MAY BE COLLECTED AS EARLY AS 12 NOON.", "ref": "8292300000"}, "type": "Feature"}
{"geometry": {"coordinates": [-109.719635, 42.746693], "type": "Point"}, "id": "v4K-6bKFyA9ii91yo7FjaqUe54s=", "properties": {"@spider": "usps_collection_boxes", "addr:city": "BOULDER WY", "addr:country": "US", "addr:full": "7 HIGHWAY 353", "addr:postcode": "82923", "addr:state": "WY", "brand": "USPS", "collection_times": "Mo-Fr 14:10; Sa 09:15", "name": "USPS COLLECTION BOX - PO LOBBY", "note": "ON 12/24 AND 12/31, THIS BOX MAY BE COLLECTED AS EARLY AS 12 NOON.", "ref": "8292300001"}, "type": "Feature"}
{"geometry": {"coordinates": [-109.97834, 42.939317], "type": "Point"}, "id": "qLTAcAr8lBnT-6JdVvdxkfcavTM=", "properties": {"@spider": "usps_collection_boxes", "addr:city": "CORA", "addr:country": "US", "addr:full": "5 NOBLE RD", "addr:postcode": "82925", "addr:state": "WY", "brand": "USPS", "collection_times": "Mo-Fr 13:25; Sa 10:15", "name": "USPS COLLECTION BOX - BLUE BOX", "note": "ON 12/24 AND 12/31, THIS BOX MAY BE COLLECTED AS EARLY AS 12 NOON.", "ref": "8292500001"}, "type": "Feature"}
{"geometry": {"coordinates": [-109.857035, 41.543711], "type": "Point"}, "id": "I_9YDT8Iw9ExSbQ5xnPYexazseg=", "properties": {"@spider": "usps_collection_boxes", "addr:city": "LITTLE AMERICA", "addr:country": "US", "addr:full": "6945 STATE HIGHWAY 374", "addr:postcode": "82929", "addr:state": "WY", "brand": "USPS", "collection_times": "Mo-Fr 15:10; Sa 11:45", "name": "USPS COLLECTION BOX - BLUE BOX", "note": "ON 12/24 AND 12/31, THIS BOX MAY BE COLLECTED AS EARLY AS 12 NOON.", "ref": "8292900000"}, "type": "Feature"}
{"geometry": {"coordinates": [-109.857035, 41.543711], "type": "Point"}, "id": "l6btQxQRnkpLTk2iQ31mfBfxvnU=", "properties": {"@spider": "usps_collection_boxes", "addr:city": "LITTLE AMERICA", "addr:country": "US", "addr:full": "6945 STATE HIGHWAY 374", "addr:postcode": "82929", "addr:state": "WY", "brand": "USPS", "collection_times": "Mo-Fr 15:00; Sa 11:30", "name": "USPS COLLECTION BOX - BLUE BOX", "note": "ON 12/24 AND 12/31, THIS BOX MAY BE COLLECTED AS EARLY AS 12 NOON.", "ref": "8292900001"}, "type": "Feature"}
{"geometry": {"coordinates": [-109.857035, 41.543711], "type": "Point"}, "id": "m15V5PtODJW1PwriJy9KtNyixBM=", "properties": {"@spider": "usps_collection_boxes", "addr:city": "LITTLE AMERICA", "addr:country": "US", "addr:full": "6945 STATE HIGHWAY 374", "addr:postcode": "82929", "addr:state": "WY", "brand": "USPS", "collection_times": "Mo-Fr 15:10; Sa 11:45", "name": "USPS COLLECTION BOX - PO LOBBY", "note": "ON 12/24 AND 12/31, THIS BOX MAY BE COLLECTED AS EARLY AS 12 NOON.", "ref": "8292900002"}, "type": "Feature"}
{"geometry": {"coordinates": [-110.967463, 41.269489], "type": "Point"}, "id": "nhAGsWxhU1GAc5oL-VVNejjxq6c=", "properties": {"@spider": "usps_collection_boxes", "addr:city": "EVANSTON", "addr:country": "US", "addr:full": "100 HARRISON DR", "addr:postcode": "82930", "addr:state": "WY", "brand": "USPS", "collection_times": "Mo-Fr 16:45; Sa 12:45", "name": "USPS COLLECTION BOX - EXPRESS", "note": "ON 12/24 AND 12/31, THIS BOX MAY BE COLLECTED AS EARLY AS 12 NOON.", "ref": "8293000009"}, "type": "Feature"}
{"geometry": {"coordinates": [-110.967455, 41.269496], "type": "Point"}, "id": "r_1Txdsh7mjxt0Y_NJE_OHSsOWE=", "properties": {"@spider": "usps_collection_boxes", "addr:city": "EVANSTON", "addr:country": "US", "addr:full": "100 HARRISON DR", "addr:postcode": "82930", "addr:state": "WY", "brand": "USPS", "collection_times": "Mo-Sa 17:00", "name": "USPS COLLECTION BOX - BLUE BOX", "note": "ON 12/24 AND 12/31, THIS BOX MAY BE COLLECTED AS EARLY AS 12 NOON.", "ref": "8293000010"}, "type": "Feature"}
{"geometry": {"coordinates": [-110.967458, 41.269502], "type": "Point"}, "id": "vdxNtf0TrWS8hIcj0TrZLzNjEDc=", "properties": {"@spider": "usps_collection_boxes", "addr:city": "EVANSTON", "addr:country": "US", "addr:full": "100 HARRISON DR", "addr:postcode": "82930", "addr:state": "WY", "brand": "USPS", "collection_times": "Mo-Sa 17:00", "name": "USPS COLLECTION BOX - BLUE BOX", "note": "ON 12/24 AND 12/31, THIS BOX MAY BE COLLECTED AS EARLY AS 12 NOON.", "ref": "8293000011"}, "type": "Feature"}
{"geometry": {"coordinates": [-110.967459, 41.269509], "type": "Point"}, "id": "YcX2zOYj7J7ywOfh5nrv8_NHf9g=", "properties": {"@spider": "usps_collection_boxes", "addr:city": "EVANSTON", "addr:country": "US", "addr:full": "100 HARRISON DR", "addr:postcode": "82930", "addr:state": "WY", "brand": "USPS", "collection_times": "Mo-Sa 17:00", "name": "USPS COLLECTION BOX - BLUE BOX", "note": "ON 12/24 AND 12/31, THIS BOX MAY BE COLLECTED AS EARLY AS 12 NOON.", "ref": "8293000012"}, "type": "Feature"}
{"geometry": {"coordinates": [-111.034495, 41.380538], "type": "Point"}, "id": "nJRqfEt1P0eBjsLarc7jINAzJ6o=", "properties": {"@spider": "usps_collection_boxes", "addr:city": "EVANSTON", "addr:country": "US", "addr:full": "21 N DEER MOUNTAIN RD", "addr:postcode": "82930", "addr:state": "WY", "brand": "USPS", "collection_times": "Mo-Sa 09:30", "name": "USPS COLLECTION BOX - BLUE BOX", "ref": "8293000013"}, "type": "Feature"}
{"geometry": {"coordinates": [-110.964498, 41.26687], "type": "Point"}, "id": "3A8QixeTq3Iq6vb15922XeWZc08=", "properties": {"@spider": "usps_collection_boxes", "addr:city": "EVANSTON", "addr:country": "US", "addr:full": "848 MAIN ST", "addr:postcode": "82930", "addr:state": "WY", "brand": "USPS", "collection_times": "Mo-Sa 14:30", "name": "USPS COLLECTION BOX - BLUE BOX", "note": "ON 12/24 AND 12/31, THIS BOX MAY BE COLLECTED AS EARLY AS 12 NOON.", "ref": "8293000015"}, "type": "Feature"}
{"geometry": {"coordinates": [-110.95496, 41.264094], "type": "Point"}, "id": "b1jRMSv-Q1t7qojpNGYmEKaMWNc=", "properties": {"@spider": "usps_collection_boxes", "addr:city": "EVANSTON", "addr:country": "US", "addr:full": "100 N 2ND ST", "addr:postcode": "82930", "addr:state": "WY", "brand": "USPS", "collection_times": "Mo-Sa 14:30", "name": "USPS COLLECTION BOX - BLUE BOX", "note": "ON 12/24 AND 12/31, THIS BOX MAY BE COLLECTED AS EARLY AS 12 NOON.", "ref": "8293000019"}, "type": "Feature"}
{"geometry": {"coordinates": [-110.966964, 41.268919], "type": "Point"}, "id": "Z8JNSclJxbPuojb10Eu4lCj4vPM=", "properties": {"@spider": "usps_collection_boxes", "addr:city": "EVANSTON", "addr:country": "US", "addr:full": "100 HARRISON DR", "addr:postcode": "82930", "addr:state": "WY", "brand": "USPS", "collection_times": "Mo-Sa 17:00", "name": "USPS COLLECTION BOX - PO LOBBY", "note": "ON 12/24 AND 12/31, THIS BOX MAY BE COLLECTED AS EARLY AS 12 NOON.", "ref": "8293000022"}, "type": "Feature"}
{"geometry": {"coordinates": [-110.966923, 41.268926], "type": "Point"}, "id": "XCMz7_JyK_qKXlZAdrSPDF4NWn0=", "properties": {"@spider": "usps_collection_boxes", "addr:city": "EVANSTON", "addr:country": "US", "addr:full": "100 HARRISON DR", "addr:postcode": "82930", "addr:state": "WY", "brand": "USPS", "collection_times": "Mo-Sa 17:00", "name": "USPS COLLECTION BOX - PO LOBBY", "note": "ON 12/24 AND 12/31, THIS BOX MAY BE COLLECTED AS EARLY AS 12 NOON.", "ref": "8293000023"}, "type": "Feature"}
{"geometry": {"coordinates": [-110.967034, 41.268918], "type": "Point"}, "id": "7Iz8hAOFvvQwtojPGwsiYE_02sA=", "properties": {"@spider": "usps_collection_boxes", "addr:city": "EVANSTON", "addr:country": "US", "addr:full": "100 HARRISON DR", "addr:postcode": "82930", "addr:state": "WY", "brand": "USPS", "collection_times": "Mo-Sa 17:00", "name": "USPS COLLECTION BOX - PO LOBBY", "note": "ON 12/24 AND 12/31, THIS BOX MAY BE COLLECTED AS EARLY AS 12 NOON.", "ref": "8293000024"}, "type": "Feature"}
{"geometry": {"coordinates": [-110.966919, 41.268906], "type": "Point"}, "id": "K4GK1vWwHUPbyJnORhXgBSk-zv4=", "properties": {"@spider": "usps_collection_boxes", "addr:city": "EVANSTON", "addr:country": "US", "addr:full": "100 HARRISON DR", "addr:postcode": "82930", "addr:state": "WY", "brand": "USPS", "collection_times": "Mo-Sa 17:00", "name": "USPS COLLECTION BOX - PO LOBBY", "note": "ON 12/24 AND 12/31, THIS BOX MAY BE COLLECTED AS EARLY AS 12 NOON.", "ref": "8293000025"}, "type": "Feature"}
{"geometry": {"coordinates": [-110.95512, 41.25512], "type": "Point"}, "id": "LqXtS9XPsxheb39gR9tNIYnBMdw=", "properties": {"@spider": "usps_collection_boxes", "addr:city": "EVANSTON", "addr:country": "US", "addr:full": "350 CITY VIEW DR", "addr:postcode": "82930", "addr:state": "WY", "brand": "USPS", "collection_times": "Mo-Sa 14:30", "name": "USPS COLLECTION BOX - BLUE BOX", "note": "ON 12/24 AND 12/31, THIS BOX MAY BE COLLECTED AS EARLY AS 12 NOON.", "ref": "8293000026"}, "type": "Feature"}
{"geometry": {"coordinates": [-110.969456, 41.255434], "type": "Point"}, "id": "qgijdoFUjyUSt2f7WCk3AamyFUQ=", "properties": {"@spider": "usps_collection_boxes", "addr:city": "EVANSTON", "addr:country": "US", "addr:full": "70 YELLOW CREEK RD", "addr:postcode": "82930", "addr:state": "WY", "brand": "USPS", "collection_times": "Mo-Sa 14:30", "name": "USPS COLLECTION BOX - BLUE BOX", "note": "ON 12/24 AND 12/31, THIS BOX MAY BE COLLECTED AS EARLY AS 12 NOON.", "ref": "8293000027"}, "type": "Feature"}
{"geometry": {"coordinates": [-109.449274, 42.109298], "type": "Point"}, "id": "uFwBA9JuBj7HzB7fEZM22nTl8zI=", "properties": {"@spider": "usps_collection_boxes", "addr:city": "FARSON", "addr:country": "US", "addr:full": "4050 N US HIGHWAY 191", "addr:postcode": "82932", "addr:state": "WY", "brand": "USPS", "collection_times": "Mo-Fr 15:10; Sa 10:15", "name": "USPS COLLECTION BOX - BLUE BOX", "note": "ON 12/24 AND 12/31, THIS BOX MAY BE COLLECTED AS EARLY AS 12 NOON.", "ref": "8293200000"}, "type": "Feature"}
{"geometry": {"coordinates": [-109.449274, 42.109296], "type": "Point"}, "id": "J3KBs6DNrNzIRa6jLowH8FlT9-w=", "properties": {"@spider": "usps_collection_boxes", "addr:city": "FARSON", "addr:country": "US", "addr:full": "4050 N US HIGHWAY 191", "addr:postcode": "82932", "addr:state": "WY", "brand": "USPS", "collection_times": "Mo-Fr 15:10; Sa 10:15", "name": "USPS COLLECTION BOX - PO LOBBY", "note": "ON 12/24 AND 12/31, THIS BOX MAY BE COLLECTED AS EARLY AS 12 NOON.", "ref": "8293200001"}, "type": "Feature"}
{"geometry": {"coordinates": [-110.384176, 41.316208], "type": "Point"}, "id": "K919BlhBvwUMcsXl8GVoz5B84TQ=", "properties": {"@spider": "usps_collection_boxes", "addr:city": "FORT BRIDGER", "addr:country": "US", "addr:full": "3730 COUNTY ROAD 219", "addr:postcode": "82933", "addr:state": "WY", "brand": "USPS", "collection_times": "Mo-Fr 16:20", "name": "USPS COLLECTION BOX - BLUE BOX", "note": "ON 12/24 AND 12/31, THIS BOX MAY BE COLLECTED AS EARLY AS 12 NOON.", "ref": "8293300000"}, "type": "Feature"}
{"geometry": {"coordinates": [-110.509211, 41.314334], "type": "Point"}, "id": "60s8SQUrijMt_gLbH7jUbaa4Z64=", "properties": {"@spider": "usps_collection_boxes", "addr:city": "FORT BRIDGER", "addr:country": "US", "addr:full": "1 BIGELOW RD", "addr:postcode": "82933", "addr:state": "WY", "brand": "USPS", "collection_times": "Mo-Fr 12:30", "name": "USPS COLLECTION BOX - BLUE BOX", "note": "ON 12/24 AND 12/31, THIS BOX MAY BE COLLECTED AS EARLY AS 12 NOON.", "ref": "8293300001"}, "type": "Feature"}
{"geometry": {"coordinates": [-110.384221, 41.315758], "type": "Point"}, "id": "grJ2z9vAXRxwAPJOtXjOGMuQBSk=", "properties": {"@spider": "usps_collection_boxes", "addr:city": "FORT BRIDGER", "addr:country": "US", "addr:full": "3730 COUNTY ROAD 219", "addr:postcode": "82933", "addr:state": "WY", "brand": "USPS", "collection_times": "Mo-Fr 15:15; Sa 11:45", "name": "USPS COLLECTION BOX - PO LOBBY", "note": "ON 12/24 AND 12/31, THIS BOX MAY BE COLLECTED AS EARLY AS 12 NOON.", "ref": "8293300003"}, "type": "Feature"}
{"geometry": {"coordinates": [-110.384221, 41.315758], "type": "Point"}, "id": "QoNoI_UKM3KPmKeliH-lahO0Rz4=", "properties": {"@spider": "usps_collection_boxes", "addr:city": "FORT BRIDGER", "addr:country": "US", "addr:full": "3720 COUNTY ROAD 219", "addr:postcode": "82933", "addr:state": "WY", "brand": "USPS", "collection_times": "Mo-Fr 15:15; Sa 11:45", "name": "USPS COLLECTION BOX - PO LOBBY", "note": "ON 12/24 AND 12/31, THIS BOX MAY BE COLLECTED AS EARLY AS 12 NOON.", "ref": "8293300004"}, "type": "Feature"}
{"geometry": {"coordinates": [-109.968262, 41.592796], "type": "Point"}, "id": "SQ9B5dmIzXQqTHp9_nBJJdcUJcE=", "properties": {"@spider": "usps_collection_boxes", "addr:city": "GRANGER", "addr:country": "US", "addr:full": "102 PINE ST", "addr:postcode": "82934", "addr:state": "WY", "brand": "USPS", "collection_times": "Mo-Fr 14:55; Sa 11:15", "name": "USPS COLLECTION BOX - BLUE BOX", "note": "ON 12/24 AND 12/31, THIS BOX MAY BE COLLECTED AS EARLY AS 12 NOON.", "ref": "8293400000"}, "type": "Feature"}
{"geometry": {"coordinates": [-109.968373, 41.592831], "type": "Point"}, "id": "FJMq829PmucymqNK6RvHV440VoU=", "properties": {"@spider": "usps_collection_boxes", "addr:city": "GRANGER", "addr:country": "US", "addr:full": "102 PINE ST", "addr:postcode": "82934", "addr:state": "WY", "brand": "USPS", "collection_times": "Mo-Fr 14:55; Sa 11:15", "name": "USPS COLLECTION BOX - PO LOBBY", "note": "ON 12/24 AND 12/31, THIS BOX MAY BE COLLECTED AS EARLY AS 12 NOON.", "ref": "8293400001"}, "type": "Feature"}
{"geometry": {"coordinates": [-109.470281, 41.516274], "type": "Point"}, "id": "dW21R7yjJN9AHmwNujGwPDSPapc=", "properties": {"@spider": "usps_collection_boxes", "addr:city": "GREEN RIVER", "addr:country": "US", "addr:full": "350 UINTA DR", "addr:postcode": "82935", "addr:state": "WY", "brand": "USPS", "collection_times": "Mo-Fr 15:50; Sa 15:30", "name": "USPS COLLECTION BOX - PO LOBBY", "note": "ON 12/24 AND 12/31, THIS BOX MAY BE COLLECTED AS EARLY AS 12 NOON.", "ref": "8293500001"}, "type": "Feature"}
{"geometry": {"coordinates": [-109.470281, 41.516274], "type": "Point"}, "id": "stmzCOtAzt7P-rYpkii2gGcFBSA=", "properties": {"@spider": "usps_collection_boxes", "addr:city": "GREEN RIVER", "addr:country": "US", "addr:full": "350 UINTA DR", "addr:postcode": "82935", "addr:state": "WY", "brand": "USPS", "collection_times": "Mo-Fr 15:50; Sa 15:30", "name": "USPS COLLECTION BOX - PO LOBBY", "note": "ON 12/24 AND 12/31, THIS BOX MAY BE COLLECTED AS EARLY AS 12 NOON.", "ref": "8293500004"}, "type": "Feature"}
{"geometry": {"coordinates": [-109.457896, 41.50786], "type": "Point"}, "id": "sdRru4ec5-taaBNeH8hGMAeFNCs=", "properties": {"@spider": "usps_collection_boxes", "addr:city": "GREEN RIVER", "addr:country": "US", "addr:full": "' PIONEER BLVD", "addr:postcode": "82935", "addr:state": "WY", "brand": "USPS", "collection_times": "Mo-Fr 14:00; Sa 12:30", "name": "USPS COLLECTION BOX - BLUE BOX", "note": "ON 12/24 AND 12/31, THIS BOX MAY BE COLLECTED AS EARLY AS 12 NOON.", "ref": "8293500005"}, "type": "Feature"}
{"geometry": {"coordinates": [-109.470281, 41.516274], "type": "Point"}, "id": "s-T1sANJLdcTg2dVrVtHIi4rIlw=", "properties": {"@spider": "usps_collection_boxes", "addr:city": "GREEN RIVER", "addr:country": "US", "addr:full": "350 UINTA DR", "addr:postcode": "82935", "addr:state": "WY", "brand": "USPS", "collection_times": "Mo-Fr 15:50; Sa 15:30", "name": "USPS COLLECTION BOX - BLUE BOX", "note": "ON 12/24 AND 12/31, THIS BOX MAY BE COLLECTED AS EARLY AS 12 NOON.", "ref": "8293500008"}, "type": "Feature"}
{"geometry": {"coordinates": [-109.454242, 41.503367], "type": "Point"}, "id": "4xU0XO4TPZst4qtu9wMxVi9OU98=", "properties": {"@spider": "usps_collection_boxes", "addr:city": "GREEN RIVER", "addr:country": "US", "addr:full": "1325 BRIDGER DR", "addr:postcode": "82935", "addr:state": "WY", "brand": "USPS", "collection_times": "Mo-Fr 14:00; Sa 12:30", "name": "USPS COLLECTION BOX - BLUE BOX", "note": "ON 12/24 AND 12/31, THIS BOX MAY BE COLLECTED AS EARLY AS 12 NOON.", "ref": "8293500010"}, "type": "Feature"}
{"geometry": {"coordinates": [-109.470281, 41.516274], "type": "Point"}, "id": "ciedGQYPWkP_XP2W-66QUUkhnHM=", "properties": {"@spider": "usps_collection_boxes", "addr:city": "GREEN RIVER", "addr:country": "US", "addr:full": "350 UINTA DR", "addr:postcode": "82935", "addr:state": "WY", "brand": "USPS", "collection_times": "Mo-Fr 14:45; Sa 11:45", "name": "USPS COLLECTION BOX - EXPRESS", "note": "ON 12/24 AND 12/31, THIS BOX MAY BE COLLECTED AS EARLY AS 12 NOON.", "ref": "8293500011"}, "type": "Feature"}
{"geometry": {"coordinates": [-109.470281, 41.516274], "type": "Point"}, "id": "jEOe6XVZmFQiAG5uRHCPK-UBSx0=", "properties": {"@spider": "usps_collection_boxes", "addr:city": "GREEN RIVER", "addr:country": "US", "addr:full": "350 UINTA DR", "addr:postcode": "82935", "addr:state": "WY", "brand": "USPS", "collection_times": "Mo-Fr 15:50; Sa 15:30", "name": "USPS COLLECTION BOX - BLUE BOX", "note": "ON 12/24 AND 12/31, THIS BOX MAY BE COLLECTED AS EARLY AS 12 NOON.", "ref": "8293500013"}, "type": "Feature"}
{"geometry": {"coordinates": [-110.33646, 41.316802], "type": "Point"}, "id": "ZCOljw0edQ0uHG8G_5Q-nGh5D1M=", "properties": {"@spider": "usps_collection_boxes", "addr:city": "LYMAN", "addr:country": "US", "addr:full": "US HWY 410", "addr:postcode": "82937", "addr:state": "WY", "brand": "USPS", "collection_times": "Mo-Fr 17:00; Sa 12:00", "name": "USPS COLLECTION BOX - BLUE BOX", "note": "ON 12/24 AND 12/31, THIS BOX MAY BE COLLECTED AS EARLY AS 12 NOON.", "ref": "8293700000"}, "type": "Feature"}
{"geometry": {"coordinates": [-110.29297, 41.327305], "type": "Point"}, "id": "NvV_lVvRp-8NSUYao-rNBd36JGs=", "properties": {"@spider": "usps_collection_boxes", "addr:city": "LYMAN", "addr:country": "US", "addr:full": "102 S MAIN ST", "addr:postcode": "82937", "addr:state": "WY", "brand": "USPS", "collection_times": "Mo-Fr 17:00; Sa 12:00", "name": "USPS COLLECTION BOX - BLUE BOX", "note": "ON 12/24 AND 12/31, THIS BOX MAY BE COLLECTED AS EARLY AS 12 NOON.", "ref": "8293700001"}, "type": "Feature"}
{"geometry": {"coordinates": [-110.29297, 41.327305], "type": "Point"}, "id": "wWQFNGYlQHWsZplZI_OT5TNqzB4=", "properties": {"@spider": "usps_collection_boxes", "addr:city": "LYMAN", "addr:country": "US", "addr:full": "102 S MAIN ST", "addr:postcode": "82937", "addr:state": "WY", "brand": "USPS", "collection_times": "Mo-Fr 17:30; Sa 12:00", "name": "USPS COLLECTION BOX - PO LOBBY", "note": "ON 12/24 AND 12/31, THIS BOX MAY BE COLLECTED AS EARLY AS 12 NOON.", "ref": "8293700002"}, "type": "Feature"}
{"geometry": {"coordinates": [-110.336271, 41.273279], "type": "Point"}, "id": "v_FingOLT9aaR74dcaCCVnVCbrA=", "properties": {"@spider": "usps_collection_boxes", "addr:city": "MOUNTAIN VIEW", "addr:country": "US", "addr:full": "1700 E PARKWAY ST", "addr:postcode": "82939", "addr:state": "WY", "brand": "USPS", "collection_times": "Mo-Fr 16:30; Sa 11:20", "name": "USPS COLLECTION BOX - BLUE BOX", "note": "ON 12/24 AND 12/31, THIS BOX MAY BE COLLECTED AS EARLY AS 12 NOON.", "ref": "8293900000"}, "type": "Feature"}
{"geometry": {"coordinates": [-110.33639, 41.273251], "type": "Point"}, "id": "1nxo7FqIoemdaPnGlSf5D77y2Z4=", "properties": {"@spider": "usps_collection_boxes", "addr:city": "MOUNTAIN VIEW", "addr:country": "US", "addr:full": "1700 E PARKWAY ST", "addr:postcode": "82939", "addr:state": "WY", "brand": "USPS", "collection_times": "Mo-Fr 16:30; Sa 11:20", "name": "USPS COLLECTION BOX - PO LOBBY", "note": "ON 12/24 AND 12/31, THIS BOX MAY BE COLLECTED AS EARLY AS 12 NOON.", "ref": "8293900001"}, "type": "Feature"}
{"geometry": {"coordinates": [-109.854535, 42.865136], "type": "Point"}, "id": "-OHxtgSZr5Rl8qTK8jg8oEEbvOk=", "properties": {"@spider": "usps_collection_boxes", "addr:city": "PINEDALE", "addr:country": "US", "addr:full": "413 PINE ST", "addr:postcode": "82941", "addr:state": "WY", "brand": "USPS", "collection_times": "Mo-Fr 13:50; Sa 11:00", "name": "USPS COLLECTION BOX - BLUE BOX", "note": "ON 12/24 AND 12/31, THIS BOX MAY BE COLLECTED AS EARLY AS 12 NOON.", "ref": "8294100000"}, "type": "Feature"}
{"geometry": {"coordinates": [-109.854708, 42.865354], "type": "Point"}, "id": "G4JULDGaJh0Sa-lQxaQhV1YKIIk=", "properties": {"@spider": "usps_collection_boxes", "addr:city": "PINEDALE", "addr:country": "US", "addr:full": "413 PINE ST", "addr:postcode": "82941", "addr:state": "WY", "brand": "USPS", "collection_times": "Mo-Fr 13:50; Sa 11:00", "name": "USPS COLLECTION BOX - PO LOBBY", "note": "ON 12/24 AND 12/31, THIS BOX MAY BE COLLECTED AS EARLY AS 12 NOON.", "ref": "8294100001"}, "type": "Feature"}
{"geometry": {"coordinates": [-109.874553, 42.866088], "type": "Point"}, "id": "bfoV6BuoeeH3GtZThZIZF8Q_2Jw=", "properties": {"@spider": "usps_collection_boxes", "addr:city": "PINEDALE", "addr:country": "US", "addr:full": "1088 PINE ST", "addr:postcode": "82941", "addr:state": "WY", "brand": "USPS", "collection_times": "Mo-Sa 09:25", "name": "USPS COLLECTION BOX - BLUE BOX", "ref": "8294100002"}, "type": "Feature"}
{"geometry": {"coordinates": [-109.199987, 41.668713], "type": "Point"}, "id": "3R4Z95cpokhrcRhpn-nQTiA4eoU=", "properties": {"@spider": "usps_collection_boxes", "addr:city": "RELIANCE", "addr:country": "US", "addr:full": "1004 S 1ST ST", "addr:postcode": "82943", "addr:state": "WY", "brand": "USPS", "collection_times": "Mo-Sa 10:00", "name": "USPS COLLECTION BOX - BLUE BOX", "ref": "8294300000"}, "type": "Feature"}
{"geometry": {"coordinates": [-110.4066252753, 41.1852946375], "type": "Point"}, "id": "bjlKgYRTRsgeyXgnrttl7teU-Y0=", "properties": {"@spider": "usps_collection_boxes", "addr:city": "ROBERTSON", "addr:country": "US", "addr:full": "' HWY 410", "addr:postcode": "82944", "addr:state": "WY", "brand": "USPS", "collection_times": "Mo-Sa 11:00", "name": "USPS COLLECTION BOX - PO LOBBY", "ref": "8294400000"}, "type": "Feature"}
{"geometry": {"coordinates": [-108.967498, 41.765857], "type": "Point"}, "id": "JQ6HA16aQFoa2SkN1vB5UvUaXLk=", "properties": {"@spider": "usps_collection_boxes", "addr:city": "SUPERIOR", "addr:country": "US", "addr:full": "81 MAIN ST", "addr:postcode": "82945", "addr:state": "WY", "brand": "USPS", "collection_times": "Mo-Fr 15:00; Sa 11:15", "name": "USPS COLLECTION BOX - BLUE BOX", "note": "ON 12/24 AND 12/31, THIS BOX MAY BE COLLECTED AS EARLY AS 12 NOON.", "ref": "8294500000"}, "type": "Feature"}
{"geometry": {"coordinates": [-108.967498, 41.765857], "type": "Point"}, "id": "LY6wAF14-BQI5Hp7vSzddTCJoic=", "properties": {"@spider": "usps_collection_boxes", "addr:city": "SUPERIOR", "addr:country": "US", "addr:full": "81 MAIN ST", "addr:postcode": "82945", "addr:state": "WY", "brand": "USPS", "collection_times": "Mo-Fr 15:00; Sa 11:15", "name": "USPS COLLECTION BOX - PO LOBBY", "note": "ON 12/24 AND 12/31, THIS BOX MAY BE COLLECTED AS EARLY AS 12 NOON.", "ref": "8294500001"}, "type": "Feature"}
