{"geometry": {"coordinates": [-110.785956, 43.470286], "type": "Point"}, "id": "InbE0HzyNcXHJvfk10axgtEKa5k=", "properties": {"@source_uri": "https://tools.usps.com/UspsToolsRestServices/rest/POLocator/findLocations", "@spider": "usps_collection_boxes", "addr:city": "JACKSON", "addr:country": "US", "addr:postcode": "83001", "addr:state": "WY", "addr:street_address": "1070 MAPLE WAY", "amenity": "post_box", "collection_times": "Mo-Fr 15:00; Sa 14:30", "note": "ON 12/24 AND 12/31, THIS BOX MAY BE COLLECTED AS EARLY AS 12 NOON.", "nsi_id": "unitedstatespostalservice-a77078", "operator": "United States Postal Service", "operator:short": "USPS", "operator:type": "public", "operator:wikidata": "Q668687", "ref": "8300100000"}, "type": "Feature"}
{"geometry": {"coordinates": [-110.765368, 43.478532], "type": "Point"}, "id": "NWKPrndeCKWcP0FreIDnJy9Dmik=", "properties": {"@source_uri": "https://tools.usps.com/UspsToolsRestServices/rest/POLocator/findLocations", "@spider": "usps_collection_boxes", "addr:city": "JACKSON", "addr:country": "US", "addr:postcode": "83001", "addr:state": "WY", "addr:street_address": "220 W PEARL ST", "amenity": "post_box", "collection_times": "Mo-Fr 15:00; Sa 14:30", "note": "ON 12/24 AND 12/31, THIS BOX MAY BE COLLECTED AS EARLY AS 12 NOON.", "nsi_id": "unitedstatespostalservice-a77078", "operator": "United States Postal Service", "operator:short": "USPS", "operator:type": "public", "operator:wikidata": "Q668687", "ref": "8300100007"}, "type": "Feature"}
{"geometry": {"coordinates": [-110.789609, 43.472335], "type": "Point"}, "id": "pmF76UBP2DjoLXNpycrwV8UKR1U=", "properties": {"@source_uri": "https://tools.usps.com/UspsToolsRestServices/rest/POLocator/findLocations", "@spider": "usps_collection_boxes", "addr:city": "JACKSON", "addr:country": "US", "addr:postcode": "83001", "addr:state": "WY", "addr:street_address": "105 BUFFALO WAY", "amenity": "post_box", "collection_times": "Mo-Fr 14:00; Sa 12:00", "note": "ON 12/24 AND 12/31, THIS BOX MAY BE COLLECTED AS EARLY AS 12 NOON.", "nsi_id": "unitedstatespostalservice-a77078", "operator": "United States Postal Service", "operator:short": "USPS", "operator:type": "public", "operator:wikidata": "Q668687", "ref": "8300100014"}, "type": "Feature"}
{"geometry": {"coordinates": [-110.789972, 43.469706], "type": "Point"}, "id": "tHK6MwtGD9ezEzAmIOXcjGzHAaM=", "properties": {"@source_uri": "https://tools.usps.com/UspsToolsRestServices/rest/POLocator/findLocations", "@spider": "usps_collection_boxes", "addr:city": "JACKSON", "addr:country": "US", "addr:postcode": "83001", "addr:state": "WY", "addr:street_address": "1357 S HWY 89", "amenity": "post_box", "collection_times": "Mo-Fr 14:00; Sa 12:00", "note": "ON 12/24 AND 12/31, THIS BOX MAY BE COLLECTED AS EARLY AS 12 NOON.", "nsi_id": "unitedstatespostalservice-a77078", "operator": "United States Postal Service", "operator:short": "USPS", "operator:type": "public", "operator:wikidata": "Q668687", "ref": "8300100016"}, "type": "Feature"}
{"geometry": {"coordinates": [-110.762164, 43.480366], "type": "Point"}, "id": "S8G_0yrcWQMm-1kkWvbUI5T7CRo=", "properties": {"@source_uri": "https://tools.usps.com/UspsToolsRestServices/rest/POLocator/findLocations", "@spider": "usps_collection_boxes", "addr:city": "JACKSON", "addr:country": "US", "addr:postcode": "83001", "addr:state": "WY", "addr:street_address": "15 E DELONEY AVE", "amenity": "post_box", "collection_times": "Mo-Fr 14:00; Sa 12:00", "note": "ON 12/24 AND 12/31, THIS BOX MAY BE COLLECTED AS EARLY AS 12 NOON.", "nsi_id": "unitedstatespostalservice-a77078", "operator": "United States Postal Service", "operator:short": "USPS", "operator:type": "public", "operator:wikidata": "Q668687", "ref": "8300100017"}, "type": "Feature"}
{"geometry": {"coordinates": [-110.762428, 43.479438], "type": "Point"}, "id": "5Zq_eCgNnqGm1MZbdOUbBuu3x0M=", "properties": {"@source_uri": "https://tools.usps.com/UspsToolsRestServices/rest/POLocator/findLocations", "@spider": "usps_collection_boxes", "addr:city": "JACKSON", "addr:country": "US", "addr:postcode": "83001", "addr:state": "WY", "addr:street_address": "10 W BROADWAY AVE", "amenity": "post_box", "collection_times": "Mo-Fr 14:00; Sa 12:00", "note": "ON 12/24 AND 12/31, THIS BOX MAY BE COLLECTED AS EARLY AS 12 NOON.", "nsi_id": "unitedstatespostalservice-a77078", "operator": "United States Postal Service", "operator:short": "USPS", "operator:type": "public", "operator:wikidata": "Q668687", "ref": "8300100018"}, "type": "Feature"}
{"geometry": {"coordinates": [-110.826297, 43.586056], "type": "Point"}, "id": "qPv4GYubIC_mQ0Lv7Zxik3YxFWw=", "properties": {"@source_uri": "https://tools.usps.com/UspsToolsRestServices/rest/POLocator/findLocations", "@spider": "usps_collection_boxes", "addr:city": "JACKSON", "addr:country": "US", "addr:postcode": "83001", "addr:state": "WY", "addr:street_address": "3230 MCCOLLISTER DR", "amenity": "post_box", "collection_times": "Mo-Fr 14:15; Sa 12:00", "note": "ON 12/24 AND 12/31, THIS BOX MAY BE COLLECTED AS EARLY AS 12 NOON.", "nsi_id": "unitedstatespostalservice-a77078", "operator": "United States Postal Service", "operator:short": "USPS", "operator:type": "public", "operator:wikidata": "Q668687", "ref": "8300100021"}, "type": "Feature"}
{"geometry": {"coordinates": [-110.735848, 43.603314], "type": "Point"}, "id": "vtrhc_IPJHi7hcksNiiOkAOqmJU=", "properties": {"@source_uri": "https://tools.usps.com/UspsToolsRestServices/rest/POLocator/findLocations", "@spider": "usps_collection_boxes", "addr:city": "JACKSON", "addr:country": "US", "addr:postcode": "83001", "addr:state": "WY", "addr:street_address": "1250 E AIRPORT RD", "amenity": "post_box", "collection_times": "Mo-Sa 12:45", "note": "ON 12/24 AND 12/31, THIS BOX MAY BE COLLECTED AS EARLY AS 12 NOON.", "nsi_id": "unitedstatespostalservice-a77078", "operator": "United States Postal Service", "operator:short": "USPS", "operator:type": "public", "operator:wikidata": "Q668687", "ref": "8300100022"}, "type": "Feature"}
{"geometry": {"coordinates": [-110.786009, 43.470313], "type": "Point"}, "id": "VO1FhragP4VY0atDmVwgdz6SxPA=", "properties": {"@source_uri": "https://tools.usps.com/UspsToolsRestServices/rest/POLocator/findLocations", "@spider": "usps_collection_boxes", "addr:city": "JACKSON", "addr:country": "US", "addr:postcode": "83001", "addr:state": "WY", "addr:street_address": "1070 MAPLE WAY", "amenity": "post_box", "collection_times": "Mo-Fr 15:00; Sa 14:15", "indoor": "yes", "note": "ON 12/24 AND 12/31, THIS BOX MAY BE COLLECTED AS EARLY AS 12 NOON.", "nsi_id": "unitedstatespostalservice-a77078", "operator": "United States Postal Service", "operator:short": "USPS", "operator:type": "public", "operator:wikidata": "Q668687", "ref": "8300100023"}, "type": "Feature"}
{"geometry": {"coordinates": [-110.786009, 43.470313], "type": "Point"}, "id": "bS_DMP9dps38cemH__WsxdCYbwk=", "properties": {"@source_uri": "https://tools.usps.com/UspsToolsRestServices/rest/POLocator/findLocations", "@spider": "usps_collection_boxes", "addr:city": "JACKSON", "addr:country": "US", "addr:postcode": "83001", "addr:state": "WY", "addr:street_address": "1070 MAPLE WAY", "amenity": "post_box", "collection_times": "Mo-Fr 15:00; Sa 14:15", "indoor": "yes", "note": "ON 12/24 AND 12/31, THIS BOX MAY BE COLLECTED AS EARLY AS 12 NOON.", "nsi_id": "unitedstatespostalservice-a77078", "operator": "United States Postal Service", "operator:short": "USPS", "operator:type": "public", "operator:wikidata": "Q668687", "ref": "8300100024"}, "type": "Feature"}
{"geometry": {"coordinates": [-110.786009, 43.470313], "type": "Point"}, "id": "UsPH6f8JvOb8erzpmmArMXwdYDg=", "properties": {"@source_uri": "https://tools.usps.com/UspsToolsRestServices/rest/POLocator/findLocations", "@spider": "usps_collection_boxes", "addr:city": "JACKSON", "addr:country": "US", "addr:postcode": "83001", "addr:state": "WY", "addr:street_address": "1070 MAPLE WAY", "amenity": "post_box", "collection_times": "Mo-Fr 15:00; Sa 14:15", "indoor": "yes", "note": "ON 12/24 AND 12/31, THIS BOX MAY BE COLLECTED AS EARLY AS 12 NOON.", "nsi_id": "unitedstatespostalservice-a77078", "operator": "United States Postal Service", "operator:short": "USPS", "operator:type": "public", "operator:wikidata": "Q668687", "ref": "8300100025"}, "type": "Feature"}
{"geometry": {"coordinates": [-110.786009, 43.470313], "type": "Point"}, "id": "9zpvdY1u5Sq3X8djeqiTNgyEd4I=", "properties": {"@source_uri": "https://tools.usps.com/UspsToolsRestServices/rest/POLocator/findLocations", "@spider": "usps_collection_boxes", "addr:city": "JACKSON", "addr:country": "US", "addr:postcode": "83001", "addr:state": "WY", "addr:street_address": "1070 MAPLE WAY", "amenity": "post_box", "collection_times": "Mo-Fr 15:00; Sa 14:15", "indoor": "yes", "note": "ON 12/24 AND 12/31, THIS BOX MAY BE COLLECTED AS EARLY AS 12 NOON.", "nsi_id": "unitedstatespostalservice-a77078", "operator": "United States Postal Service", "operator:short": "USPS", "operator:type": "public", "operator:wikidata": "Q668687", "ref": "8300100026"}, "type": "Feature"}
{"geometry": {"coordinates": [-110.786009, 43.470313], "type": "Point"}, "id": "ahCVBVgwQsJr5jZxQnq_e_GVC7o=", "properties": {"@source_uri": "https://tools.usps.com/UspsToolsRestServices/rest/POLocator/findLocations", "@spider": "usps_collection_boxes", "addr:city": "JACKSON", "addr:country": "US", "addr:postcode": "83001", "addr:state": "WY", "addr:street_address": "1070 MAPLE WAY", "amenity": "post_box", "collection_times": "Mo-Fr 15:00; Sa 14:15", "indoor": "yes", "note": "ON 12/24 AND 12/31, THIS BOX MAY BE COLLECTED AS EARLY AS 12 NOON.", "nsi_id": "unitedstatespostalservice-a77078", "operator": "United States Postal Service", "operator:short": "USPS", "operator:type": "public", "operator:wikidata": "Q668687", "ref": "8300100027"}, "type": "Feature"}
{"geometry": {"coordinates": [-110.765368, 43.478532], "type": "Point"}, "id": "CcJ5ty0wZcLmPMsn8jUneGfm8SM=", "properties": {"@source_uri": "https://tools.usps.com/UspsToolsRestServices/rest/POLocator/findLocations", "@spider": "usps_collection_boxes", "addr:city": "JACKSON", "addr:country": "US", "addr:postcode": "83001", "addr:state": "WY", "addr:street_address": "220 W PEARL ST", "amenity": "post_box", "collection_times": "Mo-Fr 15:00; Sa 14:15", "indoor": "yes", "note": "ON 12/24 AND 12/31, THIS BOX MAY BE COLLECTED AS EARLY AS 12 NOON.", "nsi_id": "unitedstatespostalservice-a77078", "operator": "United States Postal Service", "operator:short": "USPS", "operator:type": "public", "operator:wikidata": "Q668687", "ref": "8300100029"}, "type": "Feature"}
{"geometry": {"coordinates": [-110.765368, 43.478532], "type": "Point"}, "id": "yOD_JA-tTNG2Rkn0sHYKd7hGVfE=", "properties": {"@source_uri": "https://tools.usps.com/UspsToolsRestServices/rest/POLocator/findLocations", "@spider": "usps_collection_boxes", "addr:city": "JACKSON", "addr:country": "US", "addr:postcode": "83001", "addr:state": "WY", "addr:street_address": "220 W PEARL ST", "amenity": "post_box", "collection_times": "Mo-Fr 15:00; Sa 14:15", "indoor": "yes", "note": "ON 12/24 AND 12/31, THIS BOX MAY BE COLLECTED AS EARLY AS 12 NOON.", "nsi_id": "unitedstatespostalservice-a77078", "operator": "United States Postal Service", "operator:short": "USPS", "operator:type": "public", "operator:wikidata": "Q668687", "ref": "8300100030"}, "type": "Feature"}
{"geometry": {"coordinates": [-110.765368, 43.478532], "type": "Point"}, "id": "JCqj6dwtNv-QAeHU3h7VP30oWrw=", "properties": {"@source_uri": "https://tools.usps.com/UspsToolsRestServices/rest/POLocator/findLocations", "@spider": "usps_collection_boxes", "addr:city": "JACKSON", "addr:country": "US", "addr:postcode": "83001", "addr:state": "WY", "addr:street_address": "220 W PEARL ST", "amenity": "post_box", "collection_times": "Mo-Fr 15:00; Sa 14:15", "indoor": "yes", "note": "ON 12/24 AND 12/31, THIS BOX MAY BE COLLECTED AS EARLY AS 12 NOON.", "nsi_id": "unitedstatespostalservice-a77078", "operator": "United States Postal Service", "operator:short": "USPS", "operator:type": "public", "operator:wikidata": "Q668687", "ref": "8300100031"}, "type": "Feature"}
{"geometry": {"coordinates": [-110.765368, 43.478532], "type": "Point"}, "id": "Dr30wVqifoyCXBOI26VqTIj_8n0=", "properties": {"@source_uri": "https://tools.usps.com/UspsToolsRestServices/rest/POLocator/findLocations", "@spider": "usps_collection_boxes", "addr:city": "JACKSON", "addr:country": "US", "addr:postcode": "83001", "addr:state": "WY", "addr:street_address": "220 W PEARL ST", "amenity": "post_box", "collection_times": "Mo-Fr 15:00; Sa 14:15", "indoor": "yes", "note": "ON 12/24 AND 12/31, THIS BOX MAY BE COLLECTED AS EARLY AS 12 NOON.", "nsi_id": "unitedstatespostalservice-a77078", "operator": "United States Postal Service", "operator:short": "USPS", "operator:type": "public", "operator:wikidata": "Q668687", "ref": "8300100032"}, "type": "Feature"}
{"geometry": {"coordinates": [-110.765368, 43.478532], "type": "Point"}, "id": "aptzCxUJBoJmZnlZPUTEu8KE8NM=", "properties": {"@source_uri": "https://tools.usps.com/UspsToolsRestServices/rest/POLocator/findLocations", "@spider": "usps_collection_boxes", "addr:city": "JACKSON", "addr:country": "US", "addr:postcode": "83001", "addr:state": "WY", "addr:street_address": "220 W PEARL ST", "amenity": "post_box", "collection_times": "Mo-Fr 15:00; Sa 14:15", "indoor": "yes", "note": "ON 12/24 AND 12/31, THIS BOX MAY BE COLLECTED AS EARLY AS 12 NOON.", "nsi_id": "unitedstatespostalservice-a77078", "operator": "United States Postal Service", "operator:short": "USPS", "operator:type": "public", "operator:wikidata": "Q668687", "ref": "8300100033"}, "type": "Feature"}
{"geometry": {"coordinates": [-110.786009, 43.470313], "type": "Point"}, "id": "AcZy_oLN1ucBZOJGcyNdDEtK4_g=", "properties": {"@source_uri": "https://tools.usps.com/UspsToolsRestServices/rest/POLocator/findLocations", "@spider": "usps_collection_boxes", "addr:city": "JACKSON", "addr:country": "US", "addr:postcode": "83001", "addr:state": "WY", "addr:street_address": "1070 MAPLE WAY", "amenity": "post_box", "collection_times": "Mo-Fr 15:00; Sa 14:15", "indoor": "yes", "note": "ON 12/24 AND 12/31, THIS BOX MAY BE COLLECTED AS EARLY AS 12 NOON.", "nsi_id": "unitedstatespostalservice-a77078", "operator": "United States Postal Service", "operator:short": "USPS", "operator:type": "public", "operator:wikidata": "Q668687", "ref": "8300100037"}, "type": "Feature"}
{"geometry": {"coordinates": [-110.786009, 43.470313], "type": "Point"}, "id": "H_0CWB_yHA9uV43UOLVumTHqJ2s=", "properties": {"@source_uri": "https://tools.usps.com/UspsToolsRestServices/rest/POLocator/findLocations", "@spider": "usps_collection_boxes", "addr:city": "JACKSON", "addr:country": "US", "addr:postcode": "83001", "addr:state": "WY", "addr:street_address": "1070 MAPLE WAY", "amenity": "post_box", "collection_times": "Mo-Fr 15:00; Sa 14:15", "indoor": "yes", "note": "ON 12/24 AND 12/31, THIS BOX MAY BE COLLECTED AS EARLY AS 12 NOON.", "nsi_id": "unitedstatespostalservice-a77078", "operator": "United States Postal Service", "operator:short": "USPS", "operator:type": "public", "operator:wikidata": "Q668687", "ref": "8300100038"}, "type": "Feature"}
{"geometry": {"coordinates": [-110.786009, 43.470313], "type": "Point"}, "id": "Grr2L09PFqvFF_LzRgXAKUY-xOA=", "properties": {"@source_uri": "https://tools.usps.com/UspsToolsRestServices/rest/POLocator/findLocations", "@spider": "usps_collection_boxes", "addr:city": "JACKSON", "addr:country": "US", "addr:postcode": "83001", "addr:state": "WY", "addr:street_address": "1070 MAPLE WAY", "amenity": "post_box", "collection_times": "Mo-Fr 15:00; Sa 14:15", "indoor": "yes", "note": "ON 12/24 AND 12/31, THIS BOX MAY BE COLLECTED AS EARLY AS 12 NOON.", "nsi_id": "unitedstatespostalservice-a77078", "operator": "United States Postal Service", "operator:short": "USPS", "operator:type": "public", "operator:wikidata": "Q668687", "ref": "8300100039"}, "type": "Feature"}
{"geometry": {"coordinates": [-110.786009, 43.470313], "type": "Point"}, "id": "BtBQUCwQZ4_-kcoj-YdnhFfd71U=", "properties": {"@source_uri": "https://tools.usps.com/UspsToolsRestServices/rest/POLocator/findLocations", "@spider": "usps_collection_boxes", "addr:city": "JACKSON", "addr:country": "US", "addr:postcode": "83001", "addr:state": "WY", "addr:street_address": "1070 MAPLE WAY", "amenity": "post_box", "collection_times": "Mo-Fr 15:00; Sa 14:15", "indoor": "yes", "note": "ON 12/24 AND 12/31, THIS BOX MAY BE COLLECTED AS EARLY AS 12 NOON.", "nsi_id": "unitedstatespostalservice-a77078", "operator": "United States Postal Service", "operator:short": "USPS", "operator:type": "public", "operator:wikidata": "Q668687", "ref": "8300100040"}, "type": "Feature"}
{"geometry": {"coordinates": [-110.786009, 43.470313], "type": "Point"}, "id": "sLfmaTu3AlX_L01J1Y_p76Jt7yA=", "properties": {"@source_uri": "https://tools.usps.com/UspsToolsRestServices/rest/POLocator/findLocations", "@spider": "usps_collection_boxes", "addr:city": "JACKSON", "addr:country": "US", "addr:postcode": "83001", "addr:state": "WY", "addr:street_address": "1070 MAPLE WAY", "amenity": "post_box", "collection_times": "Mo-Fr 15:00; Sa 14:15", "indoor": "yes", "note": "ON 12/24 AND 12/31, THIS BOX MAY BE COLLECTED AS EARLY AS 12 NOON.", "nsi_id": "unitedstatespostalservice-a77078", "operator": "United States Postal Service", "operator:short": "USPS", "operator:type": "public", "operator:wikidata": "Q668687", "ref": "8300100042"}, "type": "Feature"}
{"geometry": {"coordinates": [-110.729498, 43.323535], "type": "Point"}, "id": "HTLTR04cTa1EBPM0a6s0GzSDhwQ=", "properties": {"@source_uri": "https://tools.usps.com/UspsToolsRestServices/rest/POLocator/findLocations", "@spider": "usps_collection_boxes", "addr:city": "JACKSON", "addr:country": "US", "addr:postcode": "83001", "addr:state": "WY", "addr:street_address": "10880 S US HIGHWAY 89", "amenity": "post_box", "collection_times": "Mo-Fr 12:30; Sa 12:00", "note": "ON 12/24 AND 12/31, THIS BOX MAY BE COLLECTED AS EARLY AS 12 NOON.", "nsi_id": "unitedstatespostalservice-a77078", "operator": "United States Postal Service", "operator:short": "USPS", "operator:type": "public", "operator:wikidata": "Q668687", "ref": "8300100045"}, "type": "Feature"}
{"geometry": {"coordinates": [-110.761977, 43.486309], "type": "Point"}, "id": "nZ6S85P4VrxGrmYaEGXx4CBJSlQ=", "properties": {"@source_uri": "https://tools.usps.com/UspsToolsRestServices/rest/POLocator/findLocations", "@spider": "usps_collection_boxes", "addr:city": "JACKSON", "addr:country": "US", "addr:postcode": "83001", "addr:state": "WY", "addr:street_address": "532 N CACHE ST", "amenity": "post_box", "collection_times": "Mo-Fr 14:00; Sa 12:00", "note": "ON 12/24 AND 12/31, THIS BOX MAY BE COLLECTED AS EARLY AS 12 NOON.", "nsi_id": "unitedstatespostalservice-a77078", "operator": "United States Postal Service", "operator:short": "USPS", "operator:type": "public", "operator:wikidata": "Q668687", "ref": "8300100046"}, "type": "Feature"}
{"geometry": {"coordinates": [-110.78804, 43.437066], "type": "Point"}, "id": "Fji4e1VeNRGtuvoAKlArFyRdYGs=", "properties": {"@source_uri": "https://tools.usps.com/UspsToolsRestServices/rest/POLocator/findLocations", "@spider": "usps_collection_boxes", "addr:city": "JACKSON", "addr:country": "US", "addr:postcode": "83001", "addr:state": "WY", "addr:street_address": "2951 W BIG TRAIL DR", "amenity": "post_box", "collection_times": "Mo-Sa 11:30", "nsi_id": "unitedstatespostalservice-a77078", "operator": "United States Postal Service", "operator:short": "USPS", "operator:type": "public", "operator:wikidata": "Q668687", "ref": "8300100048"}, "type": "Feature"}
{"geometry": {"coordinates": [-110.795283, 43.45899], "type": "Point"}, "id": "uHAMWA67OBsZviudjq2h_V-T-jM=", "properties": {"@source_uri": "https://tools.usps.com/UspsToolsRestServices/rest/POLocator/findLocations", "@spider": "usps_collection_boxes", "addr:city": "JACKSON", "addr:country": "US", "addr:postcode": "83001", "addr:state": "WY", "addr:street_address": "1425 S HWY 89", "amenity": "post_box", "collection_times": "Mo-Fr 14:00; Sa 12:00", "note": "ON 12/24 AND 12/31, THIS BOX MAY BE COLLECTED AS EARLY AS 12 NOON.", "nsi_id": "unitedstatespostalservice-a77078", "operator": "United States Postal Service", "operator:short": "USPS", "operator:type": "public", "operator:wikidata": "Q668687", "ref": "8300100049"}, "type": "Feature"}
{"geometry": {"coordinates": [-110.62676, 43.625248], "type": "Point"}, "id": "FtqEhg06wyiPe1sfiEbgBic3_mM=", "properties": {"@source_uri": "https://tools.usps.com/UspsToolsRestServices/rest/POLocator/findLocations", "@spider": "usps_collection_boxes", "addr:city": "KELLY", "addr:country": "US", "addr:postcode": "83011", "addr:state": "WY", "addr:street_address": "4486 LOWER GROS VENTRE RD", "amenity": "post_box", "collection_times": "Mo-Fr 13:30; Sa 11:35", "indoor": "yes", "note": "ON 12/24 AND 12/31, THIS BOX MAY BE COLLECTED AS EARLY AS 12 NOON.", "nsi_id": "unitedstatespostalservice-a77078", "operator": "United States Postal Service", "operator:short": "USPS", "operator:type": "public", "operator:wikidata": "Q668687", "ref": "8301100000"}, "type": "Feature"}
{"geometry": {"coordinates": [-110.62676, 43.625248], "type": "Point"}, "id": "9cXOHQwkH0_Ile49UFPtG7pz1VA=", "properties": {"@source_uri": "https://tools.usps.com/UspsToolsRestServices/rest/POLocator/findLocations", "@spider": "usps_collection_boxes", "addr:city": "KELLY", "addr:country": "US", "addr:postcode": "83011", "addr:state": "WY", "addr:street_address": "4486 LOWER GROS VENTRE RD", "amenity": "post_box", "collection_times": "Mo-Fr 13:30; Sa 11:35", "note": "ON 12/24 AND 12/31, THIS BOX MAY BE COLLECTED AS EARLY AS 12 NOON.", "nsi_id": "unitedstatespostalservice-a77078", "operator": "United States Postal Service", "operator:short": "USPS", "operator:type": "public", "operator:wikidata": "Q668687", "ref": "8301100001"}, "type": "Feature"}
{"geometry": {"coordinates": [-110.716754, 43.654784], "type": "Point"}, "id": "jXqD3OrPet75I52b_MWAzL0uq4w=", "properties": {"@source_uri": "https://tools.usps.com/UspsToolsRestServices/rest/POLocator/findLocations", "@spider": "usps_collection_boxes", "addr:city": "MOOSE", "addr:country": "US", "addr:postcode": "83012", "addr:state": "WY", "addr:street_address": "3 TETON PARK RD", "amenity": "post_box", "collection_times": "Mo-Fr 13:00; Sa 11:00", "note": "ON 12/24 AND 12/31, THIS BOX MAY BE COLLECTED AS EARLY AS 12 NOON.", "nsi_id": "unitedstatespostalservice-a77078", "operator": "United States Postal Service", "operator:short": "USPS", "operator:type": "public", "operator:wikidata": "Q668687", "ref": "8301200000"}, "type": "Feature"}
{"geometry": {"coordinates": [-110.716685, 43.654747], "type": "Point"}, "id": "N0Rvzs0A4QvWSZwm5wVR_7mylMw=", "properties": {"@source_uri": "https://tools.usps.com/UspsToolsRestServices/rest/POLocator/findLocations", "@spider": "usps_collection_boxes", "addr:city": "MOOSE", "addr:country": "US", "addr:postcode": "83012", "addr:state": "WY", "addr:street_address": "3 TETON PARK RD", "amenity": "post_box", "collection_times": "Mo-Fr 13:00; Sa 11:00", "indoor": "yes", "note": "ON 12/24 AND 12/31, THIS BOX MAY BE COLLECTED AS EARLY AS 12 NOON.", "nsi_id": "unitedstatespostalservice-a77078", "operator": "United States Postal Service", "operator:short": "USPS", "operator:type": "public", "operator:wikidata": "Q668687", "ref": "8301200001"}, "type": "Feature"}
{"geometry": {"coordinates": [-110.509311, 43.842326], "type": "Point"}, "id": "8y6ICFPEUysa1CZDRhOkK1-XBCA=", "properties": {"@source_uri": "https://tools.usps.com/UspsToolsRestServices/rest/POLocator/findLocations", "@spider": "usps_collection_boxes", "addr:city": "MORAN", "addr:country": "US", "addr:postcode": "83013", "addr:state": "WY", "addr:street_address": "1 CENTRAL ST", "amenity": "post_box", "collection_times": "Mo-Fr 13:05; Sa 12:15", "indoor": "yes", "note": "ON 12/24 AND 12/31, THIS BOX MAY BE COLLECTED AS EARLY AS 12 NOON.", "nsi_id": "unitedstatespostalservice-a77078", "operator": "United States Postal Service", "operator:short": "USPS", "operator:type": "public", "operator:wikidata": "Q668687", "ref": "8301300007"}, "type": "Feature"}
{"geometry": {"coordinates": [-110.874106, 43.498166], "type": "Point"}, "id": "7IcNNkEFJyFLLJ2e7Q44kglmRSk=", "properties": {"@source_uri": "https://tools.usps.com/UspsToolsRestServices/rest/POLocator/findLocations", "@spider": "usps_collection_boxes", "addr:city": "WILSON", "addr:country": "US", "addr:postcode": "83014", "addr:state": "WY", "addr:street_address": "5605 W HIGHWAY 22", "amenity": "post_box", "collection_times": "Mo-Fr 14:50; Sa 12:15", "note": "ON 12/24 AND 12/31, THIS BOX MAY BE COLLECTED AS EARLY AS 12 NOON.", "nsi_id": "unitedstatespostalservice-a77078", "operator": "United States Postal Service", "operator:short": "USPS", "operator:type": "public", "operator:wikidata": "Q668687", "ref": "8301400000"}, "type": "Feature"}
{"geometry": {"coordinates": [-110.842206, 43.531932], "type": "Point"}, "id": "qTMj15FxaCbtYdj9waQ80_AMK7w=", "properties": {"@source_uri": "https://tools.usps.com/UspsToolsRestServices/rest/POLocator/findLocations", "@spider": "usps_collection_boxes", "addr:city": "WILSON", "addr:country": "US", "addr:postcode": "83014", "addr:state": "WY", "addr:street_address": "4015 W LAKE CREEK DR", "amenity": "post_box", "collection_times": "Mo-Sa 12:00", "nsi_id": "unitedstatespostalservice-a77078", "operator": "United States Postal Service", "operator:short": "USPS", "operator:type": "public", "operator:wikidata": "Q668687", "ref": "8301400001"}, "type": "Feature"}
{"geometry": {"coordinates": [-110.874106, 43.498166], "type": "Point"}, "id": "S2kvyaqVjfrLybFgqoZDSZjcGKk=", "properties": {"@source_uri": "https://tools.usps.com/UspsToolsRestServices/rest/POLocator/findLocations", "@spider": "usps_collection_boxes", "addr:city": "WILSON", "addr:country": "US", "addr:postcode": "83014", "addr:state": "WY", "addr:street_address": "5605 W HIGHWAY 22", "amenity": "post_box", "collection_times": "Mo-Fr 14:50; Sa 12:15", "indoor": "yes", "note": "ON 12/24 AND 12/31, THIS BOX MAY BE COLLECTED AS EARLY AS 12 NOON.", "nsi_id": "unitedstatespostalservice-a77078", "operator": "United States Postal Service", "operator:short": "USPS", "operator:type": "public", "operator:wikidata": "Q668687", "ref": "8301400002"}, "type": "Feature"}
{"geometry": {"coordinates": [-110.874106, 43.498166], "type": "Point"}, "id": "tphR-TcRadIqq8aMNxl1SIIziMQ=", "properties": {"@source_uri": "https://tools.usps.com/UspsToolsRestServices/rest/POLocator/findLocations", "@spider": "usps_collection_boxes", "addr:city": "WILSON", "addr:country": "US", "addr:postcode": "83014", "addr:state": "WY", "addr:street_address": "5605 W HIGHWAY 22", "amenity": "post_box", "collection_times": "Mo-Fr 14:50; Sa 12:15", "indoor": "yes", "note": "ON 12/24 AND 12/31, THIS BOX MAY BE COLLECTED AS EARLY AS 12 NOON.", "nsi_id": "unitedstatespostalservice-a77078", "operator": "United States Postal Service", "operator:short": "USPS", "operator:type": "public", "operator:wikidata": "Q668687", "ref": "8301400003"}, "type": "Feature"}
{"geometry": {"coordinates": [-110.844881, 43.530281], "type": "Point"}, "id": "RJZn0eY4tI6oMYybuBBokU94EPA=", "properties": {"@source_uri": "https://tools.usps.com/UspsToolsRestServices/rest/POLocator/findLocations", "@spider": "usps_collection_boxes", "addr:city": "WILSON", "addr:country": "US", "addr:postcode": "83014", "addr:state": "WY", "addr:street_address": "3450 CLUBHOUSE DR", "amenity": "post_box", "collection_times": "Mo-Sa 12:15", "note": "ON 12/24 AND 12/31, THIS BOX MAY BE COLLECTED AS EARLY AS 12 NOON.", "nsi_id": "unitedstatespostalservice-a77078", "operator": "United States Postal Service", "operator:short": "USPS", "operator:type": "public", "operator:wikidata": "Q668687", "ref": "8301400004"}, "type": "Feature"}
