{"dataset_attributes": {"@spider": "usps_collection_boxes", "spider:collection_time": "2023-09-01T08:24:43.385582"}, "geometry": {"coordinates": [-110.539371, 41.794179], "type": "Point"}, "id": "po1Wk_pMSzPm-su7LdJZb_NJqhk=", "properties": {"@spider": "usps_collection_boxes", "addr:city": "KEMMERER", "addr:country": "US", "addr:full": "820 CEDAR AVE", "addr:postcode": "83101", "addr:state": "WY", "amenity": "post_box", "brand": "United States Postal Service", "brand:wikidata": "Q668687", "collection_times": "Mo-Fr 16:00; Sa 12:00", "name": "USPS COLLECTION BOX - BLUE BOX", "note": "ON 12/24 AND 12/31, THIS BOX MAY BE COLLECTED AS EARLY AS 12 NOON.", "nsi_id": "unitedstatespostalservice-a77078", "operator": "United States Postal Service", "operator:short": "USPS", "operator:type": "public", "operator:wikidata": "Q668687", "ref": "8310100001"}, "type": "Feature"}
{"dataset_attributes": {"@spider": "usps_collection_boxes", "spider:collection_time": "2023-09-01T08:24:43.385582"}, "geometry": {"coordinates": [-110.539143, 41.796153], "type": "Point"}, "id": "vGnwlEePbooHAR5tnmbCcITKOHE=", "properties": {"@spider": "usps_collection_boxes", "addr:city": "KEMMERER", "addr:country": "US", "addr:full": "620 PINE AVE", "addr:postcode": "83101", "addr:state": "WY", "amenity": "post_box", "brand": "United States Postal Service", "brand:wikidata": "Q668687", "collection_times": "Mo-Fr 14:00; Sa 12:00", "name": "USPS COLLECTION BOX - BLUE BOX", "note": "ON 12/24 AND 12/31, THIS BOX MAY BE COLLECTED AS EARLY AS 12 NOON.", "nsi_id": "unitedstatespostalservice-a77078", "operator": "United States Postal Service", "operator:short": "USPS", "operator:type": "public", "operator:wikidata": "Q668687", "ref": "8310100002"}, "type": "Feature"}
{"dataset_attributes": {"@spider": "usps_collection_boxes", "spider:collection_time": "2023-09-01T08:24:43.385582"}, "geometry": {"coordinates": [-110.539062, 41.794553], "type": "Point"}, "id": "C__jG7iv2K7L8xCyUJ-LIzCBqDE=", "properties": {"@spider": "usps_collection_boxes", "addr:city": "KEMMERER", "addr:country": "US", "addr:full": "318 SAPPHIRE ST", "addr:postcode": "83101", "addr:state": "WY", "amenity": "post_box", "brand": "United States Postal Service", "brand:wikidata": "Q668687", "collection_times": "Mo-Fr 16:00; Sa 12:00", "name": "USPS COLLECTION BOX - PO LOBBY", "note": "ON 12/24 AND 12/31, THIS BOX MAY BE COLLECTED AS EARLY AS 12 NOON.", "nsi_id": "unitedstatespostalservice-a77078", "operator": "United States Postal Service", "operator:short": "USPS", "operator:type": "public", "operator:wikidata": "Q668687", "ref": "8310100003"}, "type": "Feature"}
{"dataset_attributes": {"@spider": "usps_collection_boxes", "spider:collection_time": "2023-09-01T08:24:43.385582"}, "geometry": {"coordinates": [-110.934509, 42.725377], "type": "Point"}, "id": "aRvPRzAmUyrXjMMR-Ukz9P2tLYc=", "properties": {"@spider": "usps_collection_boxes", "addr:city": "AFTON", "addr:country": "US", "addr:full": "31 W 4TH AVE", "addr:postcode": "83110", "addr:state": "WY", "amenity": "post_box", "brand": "United States Postal Service", "brand:wikidata": "Q668687", "collection_times": "Mo-Fr 15:25; Sa 09:00", "name": "USPS COLLECTION BOX - BLUE BOX", "note": "ON 12/24 AND 12/31, THIS BOX MAY BE COLLECTED AS EARLY AS 12 NOON.", "nsi_id": "unitedstatespostalservice-a77078", "operator": "United States Postal Service", "operator:short": "USPS", "operator:type": "public", "operator:wikidata": "Q668687", "ref": "8311000000"}, "type": "Feature"}
{"dataset_attributes": {"@spider": "usps_collection_boxes", "spider:collection_time": "2023-09-01T08:24:43.385582"}, "geometry": {"coordinates": [-110.934509, 42.725377], "type": "Point"}, "id": "Dj6mjb5sypvackaxXw7gosC-le8=", "properties": {"@spider": "usps_collection_boxes", "addr:city": "AFTON", "addr:country": "US", "addr:full": "31 W 4TH AVE", "addr:postcode": "83110", "addr:state": "WY", "amenity": "post_box", "brand": "United States Postal Service", "brand:wikidata": "Q668687", "collection_times": "Mo-Fr 15:25; Sa 09:00", "name": "USPS COLLECTION BOX - PO LOBBY", "note": "ON 12/24 AND 12/31, THIS BOX MAY BE COLLECTED AS EARLY AS 12 NOON.", "nsi_id": "unitedstatespostalservice-a77078", "operator": "United States Postal Service", "operator:short": "USPS", "operator:type": "public", "operator:wikidata": "Q668687", "ref": "8311000002"}, "type": "Feature"}
{"dataset_attributes": {"@spider": "usps_collection_boxes", "spider:collection_time": "2023-09-01T08:24:43.385582"}, "geometry": {"coordinates": [-111.001003, 42.792679], "type": "Point"}, "id": "GhrA08DQ4hbpoxVu9f3kfTzYZK4=", "properties": {"@spider": "usps_collection_boxes", "addr:city": "AUBURN", "addr:country": "US", "addr:full": "449 1ST WEST ST", "addr:postcode": "83111", "addr:state": "WY", "amenity": "post_box", "brand": "United States Postal Service", "brand:wikidata": "Q668687", "collection_times": "Mo-Sa 11:30", "name": "USPS COLLECTION BOX - PO LOBBY", "nsi_id": "unitedstatespostalservice-a77078", "operator": "United States Postal Service", "operator:short": "USPS", "operator:type": "public", "operator:wikidata": "Q668687", "ref": "8311100001"}, "type": "Feature"}
{"dataset_attributes": {"@spider": "usps_collection_boxes", "spider:collection_time": "2023-09-01T08:24:43.385582"}, "geometry": {"coordinates": [-110.937828, 42.89947], "type": "Point"}, "id": "CFBCVuWkWkpumWN13P8euA8Lk8E=", "properties": {"@spider": "usps_collection_boxes", "addr:city": "BEDFORD", "addr:country": "US", "addr:full": "4436 MAIN ST", "addr:postcode": "83112", "addr:state": "WY", "amenity": "post_box", "brand": "United States Postal Service", "brand:wikidata": "Q668687", "collection_times": "Mo-Fr 13:15; Sa 12:00", "name": "USPS COLLECTION BOX - PO LOBBY", "note": "ON 12/24 AND 12/31, THIS BOX MAY BE COLLECTED AS EARLY AS 12 NOON.", "nsi_id": "unitedstatespostalservice-a77078", "operator": "United States Postal Service", "operator:short": "USPS", "operator:type": "public", "operator:wikidata": "Q668687", "ref": "8311200000"}, "type": "Feature"}
{"dataset_attributes": {"@spider": "usps_collection_boxes", "spider:collection_time": "2023-09-01T08:24:43.385582"}, "geometry": {"coordinates": [-110.937828, 42.89947], "type": "Point"}, "id": "toJ6mxbSGNekKLZCn82wu1UFpSc=", "properties": {"@spider": "usps_collection_boxes", "addr:city": "BEDFORD", "addr:country": "US", "addr:full": "4436 MAIN ST", "addr:postcode": "83112", "addr:state": "WY", "amenity": "post_box", "brand": "United States Postal Service", "brand:wikidata": "Q668687", "collection_times": "Mo-Fr 13:15; Sa 12:00", "name": "USPS COLLECTION BOX - BLUE BOX", "note": "ON 12/24 AND 12/31, THIS BOX MAY BE COLLECTED AS EARLY AS 12 NOON.", "nsi_id": "unitedstatespostalservice-a77078", "operator": "United States Postal Service", "operator:short": "USPS", "operator:type": "public", "operator:wikidata": "Q668687", "ref": "8311200001"}, "type": "Feature"}
{"dataset_attributes": {"@spider": "usps_collection_boxes", "spider:collection_time": "2023-09-01T08:24:43.385582"}, "geometry": {"coordinates": [-110.114054, 42.538302], "type": "Point"}, "id": "Y-QfcplPW3fOGf2iu6I1T_896eU=", "properties": {"@spider": "usps_collection_boxes", "addr:city": "BIG PINEY", "addr:country": "US", "addr:full": "420 BUDD AVE", "addr:postcode": "83113", "addr:state": "WY", "amenity": "post_box", "brand": "United States Postal Service", "brand:wikidata": "Q668687", "collection_times": "Mo-Fr 12:20; Sa 10:00", "name": "USPS COLLECTION BOX - PO LOBBY", "note": "ON 12/24 AND 12/31, THIS BOX MAY BE COLLECTED AS EARLY AS 12 NOON.", "nsi_id": "unitedstatespostalservice-a77078", "operator": "United States Postal Service", "operator:short": "USPS", "operator:type": "public", "operator:wikidata": "Q668687", "ref": "8311300000"}, "type": "Feature"}
{"dataset_attributes": {"@spider": "usps_collection_boxes", "spider:collection_time": "2023-09-01T08:24:43.385582"}, "geometry": {"coordinates": [-110.114054, 42.538302], "type": "Point"}, "id": "_2GBsofBF9vdCD7Tqq87wBWXYQM=", "properties": {"@spider": "usps_collection_boxes", "addr:city": "BIG PINEY", "addr:country": "US", "addr:full": "420 BUDD AVE", "addr:postcode": "83113", "addr:state": "WY", "amenity": "post_box", "brand": "United States Postal Service", "brand:wikidata": "Q668687", "collection_times": "Mo-Fr 12:20; Sa 10:00", "name": "USPS COLLECTION BOX - BLUE BOX", "note": "ON 12/24 AND 12/31, THIS BOX MAY BE COLLECTED AS EARLY AS 12 NOON.", "nsi_id": "unitedstatespostalservice-a77078", "operator": "United States Postal Service", "operator:short": "USPS", "operator:type": "public", "operator:wikidata": "Q668687", "ref": "8311300001"}, "type": "Feature"}
{"dataset_attributes": {"@spider": "usps_collection_boxes", "spider:collection_time": "2023-09-01T08:24:43.385582"}, "geometry": {"coordinates": [-110.957768, 42.085132], "type": "Point"}, "id": "W6M9uc4XNX0Juag7KuBm5_S0aNo=", "properties": {"@spider": "usps_collection_boxes", "addr:city": "COKEVILLE", "addr:country": "US", "addr:full": "100 POST ST", "addr:postcode": "83114", "addr:state": "WY", "amenity": "post_box", "brand": "United States Postal Service", "brand:wikidata": "Q668687", "collection_times": "Mo-Fr 16:00; Sa 10:45", "name": "USPS COLLECTION BOX - PO LOBBY", "note": "ON 12/24 AND 12/31, THIS BOX MAY BE COLLECTED AS EARLY AS 12 NOON.", "nsi_id": "unitedstatespostalservice-a77078", "operator": "United States Postal Service", "operator:short": "USPS", "operator:type": "public", "operator:wikidata": "Q668687", "ref": "8311400000"}, "type": "Feature"}
{"dataset_attributes": {"@spider": "usps_collection_boxes", "spider:collection_time": "2023-09-01T08:24:43.385582"}, "geometry": {"coordinates": [-110.947741, 42.086965], "type": "Point"}, "id": "ZZ63v3go6wznj8OvtlZYpp8icfw=", "properties": {"@spider": "usps_collection_boxes", "addr:city": "COKEVILLE", "addr:country": "US", "addr:full": "10501 N US HIGHWAY 30", "addr:postcode": "83114", "addr:state": "WY", "amenity": "post_box", "brand": "United States Postal Service", "brand:wikidata": "Q668687", "collection_times": "Mo-Fr 10:30", "name": "USPS COLLECTION BOX - BLUE BOX", "nsi_id": "unitedstatespostalservice-a77078", "operator": "United States Postal Service", "operator:short": "USPS", "operator:type": "public", "operator:wikidata": "Q668687", "ref": "8311400001"}, "type": "Feature"}
{"dataset_attributes": {"@spider": "usps_collection_boxes", "spider:collection_time": "2023-09-01T08:24:43.385582"}, "geometry": {"coordinates": [-110.071822, 42.863152], "type": "Point"}, "id": "GJPG5MdSm9u1g2VNBUuX5tJWsmY=", "properties": {"@spider": "usps_collection_boxes", "addr:city": "DANIEL", "addr:country": "US", "addr:full": "12958 STATE HIGHWAY 189", "addr:postcode": "83115", "addr:state": "WY", "amenity": "post_box", "brand": "United States Postal Service", "brand:wikidata": "Q668687", "collection_times": "Mo-Fr 13:00; Sa 09:30", "name": "USPS COLLECTION BOX - PO LOBBY", "note": "ON 12/24 AND 12/31, THIS BOX MAY BE COLLECTED AS EARLY AS 12 NOON.", "nsi_id": "unitedstatespostalservice-a77078", "operator": "United States Postal Service", "operator:short": "USPS", "operator:type": "public", "operator:wikidata": "Q668687", "ref": "8311500001"}, "type": "Feature"}
{"dataset_attributes": {"@spider": "usps_collection_boxes", "spider:collection_time": "2023-09-01T08:24:43.385582"}, "geometry": {"coordinates": [-110.536077, 41.772121], "type": "Point"}, "id": "6SzmKagkGmoBqsZXenK1myUIrWI=", "properties": {"@spider": "usps_collection_boxes", "addr:city": "DIAMONDVILLE", "addr:country": "US", "addr:full": "317 DIAMONDVILLE AVE", "addr:postcode": "83116", "addr:state": "WY", "amenity": "post_box", "brand": "United States Postal Service", "brand:wikidata": "Q668687", "collection_times": "Mo-Fr 16:15; Sa 11:00", "name": "USPS COLLECTION BOX - BLUE BOX", "note": "ON 12/24 AND 12/31, THIS BOX MAY BE COLLECTED AS EARLY AS 12 NOON.", "nsi_id": "unitedstatespostalservice-a77078", "operator": "United States Postal Service", "operator:short": "USPS", "operator:type": "public", "operator:wikidata": "Q668687", "ref": "8311600000"}, "type": "Feature"}
{"dataset_attributes": {"@spider": "usps_collection_boxes", "spider:collection_time": "2023-09-01T08:24:43.385582"}, "geometry": {"coordinates": [-110.536077, 41.772121], "type": "Point"}, "id": "RC21ceCgPmTX0jVczBIFIp3dTQs=", "properties": {"@spider": "usps_collection_boxes", "addr:city": "DIAMONDVILLE", "addr:country": "US", "addr:full": "317 DIAMONDVILLE AVE", "addr:postcode": "83116", "addr:state": "WY", "amenity": "post_box", "brand": "United States Postal Service", "brand:wikidata": "Q668687", "collection_times": "Mo-Fr 16:15; Sa 11:00", "name": "USPS COLLECTION BOX - PO LOBBY", "note": "ON 12/24 AND 12/31, THIS BOX MAY BE COLLECTED AS EARLY AS 12 NOON.", "nsi_id": "unitedstatespostalservice-a77078", "operator": "United States Postal Service", "operator:short": "USPS", "operator:type": "public", "operator:wikidata": "Q668687", "ref": "8311600001"}, "type": "Feature"}
{"dataset_attributes": {"@spider": "usps_collection_boxes", "spider:collection_time": "2023-09-01T08:24:43.385582"}, "geometry": {"coordinates": [-111.012273, 43.03267], "type": "Point"}, "id": "zYD1b3FFMOKdX8VusVZkmQ3niDU=", "properties": {"@spider": "usps_collection_boxes", "addr:city": "ETNA", "addr:country": "US", "addr:full": "107857 N US HIGHWAY 89", "addr:postcode": "83118", "addr:state": "WY", "amenity": "post_box", "brand": "United States Postal Service", "brand:wikidata": "Q668687", "collection_times": "Mo-Fr 13:50; Sa 11:15", "name": "USPS COLLECTION BOX - BLUE BOX", "note": "ON 12/24 AND 12/31, THIS BOX MAY BE COLLECTED AS EARLY AS 12 NOON.", "nsi_id": "unitedstatespostalservice-a77078", "operator": "United States Postal Service", "operator:short": "USPS", "operator:type": "public", "operator:wikidata": "Q668687", "ref": "8311800000"}, "type": "Feature"}
{"dataset_attributes": {"@spider": "usps_collection_boxes", "spider:collection_time": "2023-09-01T08:24:43.385582"}, "geometry": {"coordinates": [-110.986681, 42.68878], "type": "Point"}, "id": "Gt05os4h_rLxjzA14r4tdNO1SZ0=", "properties": {"@spider": "usps_collection_boxes", "addr:city": "FAIRVIEW", "addr:country": "US", "addr:full": "210 FAIRVIEW S", "addr:postcode": "83119", "addr:state": "WY", "amenity": "post_box", "brand": "United States Postal Service", "brand:wikidata": "Q668687", "collection_times": "Mo-Fr 15:30; Sa 11:00", "name": "USPS COLLECTION BOX - PO LOBBY", "note": "ON 12/24 AND 12/31, THIS BOX MAY BE COLLECTED AS EARLY AS 12 NOON.", "nsi_id": "unitedstatespostalservice-a77078", "operator": "United States Postal Service", "operator:short": "USPS", "operator:type": "public", "operator:wikidata": "Q668687", "ref": "8311900000"}, "type": "Feature"}
{"dataset_attributes": {"@spider": "usps_collection_boxes", "spider:collection_time": "2023-09-01T08:24:43.385582"}, "geometry": {"coordinates": [-110.986791, 42.688752], "type": "Point"}, "id": "l0dpgnEYg_3uxivM5xKfxJdncsU=", "properties": {"@spider": "usps_collection_boxes", "addr:city": "FAIRVIEW", "addr:country": "US", "addr:full": "210 FAIRVIEW S", "addr:postcode": "83119", "addr:state": "WY", "amenity": "post_box", "brand": "United States Postal Service", "brand:wikidata": "Q668687", "collection_times": "Mo-Fr 15:30; Sa 11:00", "name": "USPS COLLECTION BOX - BLUE BOX", "note": "ON 12/24 AND 12/31, THIS BOX MAY BE COLLECTED AS EARLY AS 12 NOON.", "nsi_id": "unitedstatespostalservice-a77078", "operator": "United States Postal Service", "operator:short": "USPS", "operator:type": "public", "operator:wikidata": "Q668687", "ref": "8311900001"}, "type": "Feature"}
{"dataset_attributes": {"@spider": "usps_collection_boxes", "spider:collection_time": "2023-09-01T08:24:43.385582"}, "geometry": {"coordinates": [-111.043837, 42.982273], "type": "Point"}, "id": "LxYaLP5LqyxiZ7iIq5xyV2b6CsQ=", "properties": {"@spider": "usps_collection_boxes", "addr:city": "FREEDOM", "addr:country": "US", "addr:full": "5740 COUNTY ROAD 125", "addr:postcode": "83120", "addr:state": "WY", "amenity": "post_box", "brand": "United States Postal Service", "brand:wikidata": "Q668687", "collection_times": "Mo-Fr 14:10; Sa 11:00", "name": "USPS COLLECTION BOX - BLUE BOX", "note": "ON 12/24 AND 12/31, THIS BOX MAY BE COLLECTED AS EARLY AS 12 NOON.", "nsi_id": "unitedstatespostalservice-a77078", "operator": "United States Postal Service", "operator:short": "USPS", "operator:type": "public", "operator:wikidata": "Q668687", "ref": "8312000000"}, "type": "Feature"}
{"dataset_attributes": {"@spider": "usps_collection_boxes", "spider:collection_time": "2023-09-01T08:24:43.385582"}, "geometry": {"coordinates": [-111.04404, 42.982027], "type": "Point"}, "id": "-1_Sjb-uptGxQx0w5rjg9V1bVY0=", "properties": {"@spider": "usps_collection_boxes", "addr:city": "FREEDOM", "addr:country": "US", "addr:full": "5740 COUNTY ROAD 125", "addr:postcode": "83120", "addr:state": "WY", "amenity": "post_box", "brand": "United States Postal Service", "brand:wikidata": "Q668687", "collection_times": "Mo-Fr 13:00; Sa 11:00", "name": "USPS COLLECTION BOX - PO LOBBY", "note": "ON 12/24 AND 12/31, THIS BOX MAY BE COLLECTED AS EARLY AS 12 NOON.", "nsi_id": "unitedstatespostalservice-a77078", "operator": "United States Postal Service", "operator:short": "USPS", "operator:type": "public", "operator:wikidata": "Q668687", "ref": "8312000001"}, "type": "Feature"}
{"dataset_attributes": {"@spider": "usps_collection_boxes", "spider:collection_time": "2023-09-01T08:24:43.385582"}, "geometry": {"coordinates": [-110.933347, 42.791785], "type": "Point"}, "id": "PJ8et_tSW10kc0bUK2q9oSZlVLY=", "properties": {"@spider": "usps_collection_boxes", "addr:city": "GROVER", "addr:country": "US", "addr:full": "89768 US HIGHWAY 89", "addr:postcode": "83122", "addr:state": "WY", "amenity": "post_box", "brand": "United States Postal Service", "brand:wikidata": "Q668687", "collection_times": "Mo-Fr 14:50; Sa 11:30", "name": "USPS COLLECTION BOX - BLUE BOX", "note": "ON 12/24 AND 12/31, THIS BOX MAY BE COLLECTED AS EARLY AS 12 NOON.", "nsi_id": "unitedstatespostalservice-a77078", "operator": "United States Postal Service", "operator:short": "USPS", "operator:type": "public", "operator:wikidata": "Q668687", "ref": "8312200000"}, "type": "Feature"}
{"dataset_attributes": {"@spider": "usps_collection_boxes", "spider:collection_time": "2023-09-01T08:24:43.385582"}, "geometry": {"coordinates": [-110.933353, 42.791389], "type": "Point"}, "id": "qwfnu2vJ7zslEaG3s1AUW5VQCUI=", "properties": {"@spider": "usps_collection_boxes", "addr:city": "GROVER", "addr:country": "US", "addr:full": "89768 US HIGHWAY 89", "addr:postcode": "83122", "addr:state": "WY", "amenity": "post_box", "brand": "United States Postal Service", "brand:wikidata": "Q668687", "collection_times": "Mo-Fr 14:50; Sa 11:30", "name": "USPS COLLECTION BOX - PO LOBBY", "note": "ON 12/24 AND 12/31, THIS BOX MAY BE COLLECTED AS EARLY AS 12 NOON.", "nsi_id": "unitedstatespostalservice-a77078", "operator": "United States Postal Service", "operator:short": "USPS", "operator:type": "public", "operator:wikidata": "Q668687", "ref": "8312200001"}, "type": "Feature"}
{"dataset_attributes": {"@spider": "usps_collection_boxes", "spider:collection_time": "2023-09-01T08:24:43.385582"}, "geometry": {"coordinates": [-110.19433, 42.263452], "type": "Point"}, "id": "TzdFzoexJ23egqs-42Obl4Rr4GU=", "properties": {"@spider": "usps_collection_boxes", "addr:city": "LABARGE", "addr:country": "US", "addr:full": "125 N MAIN ST", "addr:postcode": "83123", "addr:state": "WY", "amenity": "post_box", "brand": "United States Postal Service", "brand:wikidata": "Q668687", "collection_times": "Mo-Fr 15:00; Sa 11:00", "name": "USPS COLLECTION BOX - BLUE BOX", "note": "ON 12/24 AND 12/31, THIS BOX MAY BE COLLECTED AS EARLY AS 12 NOON.", "nsi_id": "unitedstatespostalservice-a77078", "operator": "United States Postal Service", "operator:short": "USPS", "operator:type": "public", "operator:wikidata": "Q668687", "ref": "8312300000"}, "type": "Feature"}
{"dataset_attributes": {"@spider": "usps_collection_boxes", "spider:collection_time": "2023-09-01T08:24:43.385582"}, "geometry": {"coordinates": [-110.19433, 42.263452], "type": "Point"}, "id": "ZLkBiVC4JJDDwZZN--xMi8W7R4M=", "properties": {"@spider": "usps_collection_boxes", "addr:city": "LABARGE", "addr:country": "US", "addr:full": "125 N MAIN ST", "addr:postcode": "83123", "addr:state": "WY", "amenity": "post_box", "brand": "United States Postal Service", "brand:wikidata": "Q668687", "collection_times": "Mo-Fr 15:00; Sa 11:00", "name": "USPS COLLECTION BOX - PO LOBBY", "note": "ON 12/24 AND 12/31, THIS BOX MAY BE COLLECTED AS EARLY AS 12 NOON.", "nsi_id": "unitedstatespostalservice-a77078", "operator": "United States Postal Service", "operator:short": "USPS", "operator:type": "public", "operator:wikidata": "Q668687", "ref": "8312300001"}, "type": "Feature"}
{"dataset_attributes": {"@spider": "usps_collection_boxes", "spider:collection_time": "2023-09-01T08:24:43.385582"}, "geometry": {"coordinates": [-110.32218, 41.77077], "type": "Point"}, "id": "N5nucpRRuhq4oPNUvSHFqPfDuZI=", "properties": {"@spider": "usps_collection_boxes", "addr:city": "OPAL", "addr:country": "US", "addr:full": "554 SOLIDAY ST", "addr:postcode": "83124", "addr:state": "WY", "amenity": "post_box", "brand": "United States Postal Service", "brand:wikidata": "Q668687", "collection_times": "Mo-Fr 09:30; Sa 11:00", "name": "USPS COLLECTION BOX - PO LOBBY", "nsi_id": "unitedstatespostalservice-a77078", "operator": "United States Postal Service", "operator:short": "USPS", "operator:type": "public", "operator:wikidata": "Q668687", "ref": "8312400000"}, "type": "Feature"}
{"dataset_attributes": {"@spider": "usps_collection_boxes", "spider:collection_time": "2023-09-01T08:24:43.385582"}, "geometry": {"coordinates": [-110.913986, 42.619066], "type": "Point"}, "id": "Bh5X9ZiDYo0bChjYK4G2wWemSiI=", "properties": {"@spider": "usps_collection_boxes", "addr:city": "SMOOT", "addr:country": "US", "addr:full": "77693 US HIGHWAY 89", "addr:postcode": "83126", "addr:state": "WY", "amenity": "post_box", "brand": "United States Postal Service", "brand:wikidata": "Q668687", "collection_times": "Mo-Sa 11:30", "name": "USPS COLLECTION BOX - PO LOBBY", "nsi_id": "unitedstatespostalservice-a77078", "operator": "United States Postal Service", "operator:short": "USPS", "operator:type": "public", "operator:wikidata": "Q668687", "ref": "8312600000"}, "type": "Feature"}
{"dataset_attributes": {"@spider": "usps_collection_boxes", "spider:collection_time": "2023-09-01T08:24:43.385582"}, "geometry": {"coordinates": [-111.002391, 42.92201], "type": "Point"}, "id": "ILhGenLmOUGd2FW4YZvWih94nyw=", "properties": {"@spider": "usps_collection_boxes", "addr:city": "THAYNE", "addr:country": "US", "addr:full": "390 N MAIN ST", "addr:postcode": "83127", "addr:state": "WY", "amenity": "post_box", "brand": "United States Postal Service", "brand:wikidata": "Q668687", "collection_times": "Mo-Fr 14:30; Sa 10:45", "name": "USPS COLLECTION BOX - PO LOBBY", "note": "ON 12/24 AND 12/31, THIS BOX MAY BE COLLECTED AS EARLY AS 12 NOON.", "nsi_id": "unitedstatespostalservice-a77078", "operator": "United States Postal Service", "operator:short": "USPS", "operator:type": "public", "operator:wikidata": "Q668687", "ref": "8312700000"}, "type": "Feature"}
{"dataset_attributes": {"@spider": "usps_collection_boxes", "spider:collection_time": "2023-09-01T08:24:43.385582"}, "geometry": {"coordinates": [-111.002391, 42.92201], "type": "Point"}, "id": "TQEjYSXEDn6et2ZKA_7xBXYmUgQ=", "properties": {"@spider": "usps_collection_boxes", "addr:city": "THAYNE", "addr:country": "US", "addr:full": "390 N MAIN ST", "addr:postcode": "83127", "addr:state": "WY", "amenity": "post_box", "brand": "United States Postal Service", "brand:wikidata": "Q668687", "collection_times": "Mo-Fr 14:30; Sa 10:45", "name": "USPS COLLECTION BOX - BLUE BOX", "note": "ON 12/24 AND 12/31, THIS BOX MAY BE COLLECTED AS EARLY AS 12 NOON.", "nsi_id": "unitedstatespostalservice-a77078", "operator": "United States Postal Service", "operator:short": "USPS", "operator:type": "public", "operator:wikidata": "Q668687", "ref": "8312700001"}, "type": "Feature"}
{"dataset_attributes": {"@spider": "usps_collection_boxes", "spider:collection_time": "2023-09-01T08:24:43.385582"}, "geometry": {"coordinates": [-111.002391, 42.92201], "type": "Point"}, "id": "MbQ7jdIiePTeR9X3I1I9Kw7tK3I=", "properties": {"@spider": "usps_collection_boxes", "addr:city": "THAYNE", "addr:country": "US", "addr:full": "390 N MAIN ST", "addr:postcode": "83127", "addr:state": "WY", "amenity": "post_box", "brand": "United States Postal Service", "brand:wikidata": "Q668687", "collection_times": "Mo-Fr 14:30; Sa 10:45", "name": "USPS COLLECTION BOX - BLUE BOX", "note": "ON 12/24 AND 12/31, THIS BOX MAY BE COLLECTED AS EARLY AS 12 NOON.", "nsi_id": "unitedstatespostalservice-a77078", "operator": "United States Postal Service", "operator:short": "USPS", "operator:type": "public", "operator:wikidata": "Q668687", "ref": "8312700002"}, "type": "Feature"}
{"dataset_attributes": {"@spider": "usps_collection_boxes", "spider:collection_time": "2023-09-01T08:24:43.385582"}, "geometry": {"coordinates": [-111.01869, 43.087574], "type": "Point"}, "id": "KDc3jfhVDsF2t1Yp0ksugQYWQgo=", "properties": {"@spider": "usps_collection_boxes", "addr:city": "ALPINE", "addr:country": "US", "addr:full": "102 US HIGHWAY 89", "addr:postcode": "83128", "addr:state": "WY", "amenity": "post_box", "brand": "United States Postal Service", "brand:wikidata": "Q668687", "collection_times": "Mo-Fr 13:30; Sa 10:30", "name": "USPS COLLECTION BOX - PO LOBBY", "note": "ON 12/24 AND 12/31, THIS BOX MAY BE COLLECTED AS EARLY AS 12 NOON.", "nsi_id": "unitedstatespostalservice-a77078", "operator": "United States Postal Service", "operator:short": "USPS", "operator:type": "public", "operator:wikidata": "Q668687", "ref": "8312800000"}, "type": "Feature"}
{"dataset_attributes": {"@spider": "usps_collection_boxes", "spider:collection_time": "2023-09-01T08:24:43.385582"}, "geometry": {"coordinates": [-111.019342, 43.163424], "type": "Point"}, "id": "95oDdJSDmyF8Y3sUtj-yxGNPeIQ=", "properties": {"@spider": "usps_collection_boxes", "addr:city": "ALPINE", "addr:country": "US", "addr:full": "102 US HIGHWAY 89", "addr:postcode": "83128", "addr:state": "WY", "amenity": "post_box", "brand": "United States Postal Service", "brand:wikidata": "Q668687", "collection_times": "Mo-Fr 13:30; Sa 10:30", "name": "USPS COLLECTION BOX - BLUE BOX", "note": "ON 12/24 AND 12/31, THIS BOX MAY BE COLLECTED AS EARLY AS 12 NOON.", "nsi_id": "unitedstatespostalservice-a77078", "operator": "United States Postal Service", "operator:short": "USPS", "operator:type": "public", "operator:wikidata": "Q668687", "ref": "8312800001"}, "type": "Feature"}
