{"geometry": {"coordinates": [-114.233132, 44.505227], "type": "Point"}, "id": "VZSHc2-rQeMAQ6mkry8NivfeWtY=", "properties": {"@spider": "usps_collection_boxes", "addr:city": "CHALLIS", "addr:country": "US", "addr:full": "601 N MAIN ST", "addr:postcode": "83226", "addr:state": "ID", "brand": "USPS", "collection_times": "Mo-Sa 13:45", "name": "USPS COLLECTION BOX - BLUE BOX", "note": "ON 12/24 AND 12/31, THIS BOX MAY BE COLLECTED AS EARLY AS 12 NOON.", "ref": "8322600000"}, "type": "Feature"}
{"geometry": {"coordinates": [-114.241804, 44.504554], "type": "Point"}, "id": "lk9vDbG96ELMmMuQfiEYxYQ4jXI=", "properties": {"@spider": "usps_collection_boxes", "addr:city": "CHALLIS", "addr:country": "US", "addr:full": "601 N MAIN ST", "addr:postcode": "83226", "addr:state": "ID", "brand": "USPS", "collection_times": "Mo-Fr 13:45; Sa 09:00", "name": "USPS COLLECTION BOX - PO LOBBY", "note": "ON 12/24 AND 12/31, THIS BOX MAY BE COLLECTED AS EARLY AS 12 NOON.", "ref": "8322600001"}, "type": "Feature"}
{"geometry": {"coordinates": [-114.241775486, 44.504535864], "type": "Point"}, "id": "c4s12fHIxKvchUgZ4BJHYZILl8I=", "properties": {"@spider": "usps_collection_boxes", "addr:city": "CHALLIS", "addr:country": "US", "addr:full": "601 N MAIN AVE", "addr:postcode": "83226", "addr:state": "ID", "brand": "USPS", "collection_times": "Mo-Fr 13:45", "name": "USPS COLLECTION BOX - PO LOBBY", "note": "ON 12/24 AND 12/31, THIS BOX MAY BE COLLECTED AS EARLY AS 12 NOON.", "ref": "8322600002"}, "type": "Feature"}
{"geometry": {"coordinates": [-114.238149, 44.504724], "type": "Point"}, "id": "_fdPLTqZb9lq7gX9yuMVm4X82gg=", "properties": {"@spider": "usps_collection_boxes", "addr:city": "CLAYTON", "addr:country": "US", "addr:full": "101 MAIN ST", "addr:postcode": "83227", "addr:state": "ID", "brand": "USPS", "collection_times": "Mo-Sa 12:30", "name": "USPS COLLECTION BOX - BLUE BOX", "note": "ON 12/24 AND 12/31, THIS BOX MAY BE COLLECTED AS EARLY AS 12 NOON.", "ref": "8322700000"}, "type": "Feature"}
{"geometry": {"coordinates": [-114.238149, 44.504724], "type": "Point"}, "id": "35Ptp7YjbF37F50fKkmT1a5LCXU=", "properties": {"@spider": "usps_collection_boxes", "addr:city": "CLAYTON", "addr:country": "US", "addr:full": "101 MAIN ST", "addr:postcode": "83227", "addr:state": "ID", "brand": "USPS", "collection_times": "Mo-Fr 12:30; Sa 10:45", "name": "USPS COLLECTION BOX - PO LOBBY", "note": "ON 12/24 AND 12/31, THIS BOX MAY BE COLLECTED AS EARLY AS 12 NOON.", "ref": "8322700001"}, "type": "Feature"}
{"geometry": {"coordinates": [-114.048629, 44.691405], "type": "Point"}, "id": "9U8eaqnRiRXWdB8j-DQPxhhhFGY=", "properties": {"@spider": "usps_collection_boxes", "addr:city": "ELLIS", "addr:country": "US", "addr:full": "26375 HIGHWAY 93", "addr:postcode": "83235", "addr:state": "ID", "brand": "USPS", "collection_times": "Mo-Sa 12:35", "name": "USPS COLLECTION BOX - BLUE BOX", "note": "ON 12/24 AND 12/31, THIS BOX MAY BE COLLECTED AS EARLY AS 12 NOON.", "ref": "8323500000"}, "type": "Feature"}
{"geometry": {"coordinates": [-114.048543, 44.691363], "type": "Point"}, "id": "4bwjTYbSo_QcIk2mIVoEy9GGOtQ=", "properties": {"@spider": "usps_collection_boxes", "addr:city": "ELLIS", "addr:country": "US", "addr:full": "26375 HIGHWAY 93", "addr:postcode": "83235", "addr:state": "ID", "brand": "USPS", "collection_times": "Mo-Fr 11:45; Sa 12:35", "name": "USPS COLLECTION BOX - PO LOBBY", "note": "ON 12/24 AND 12/31, THIS BOX MAY BE COLLECTED AS EARLY AS 12 NOON.", "ref": "8323500001"}, "type": "Feature"}
{"geometry": {"coordinates": [-114.048856066, 44.6914723], "type": "Point"}, "id": "wxBJq5nfB6n2zl_5kSpyBAP0oO8=", "properties": {"@spider": "usps_collection_boxes", "addr:city": "ELLIS", "addr:country": "US", "addr:full": "26375 HIGHWAY 93", "addr:postcode": "83235", "addr:state": "ID", "brand": "USPS", "collection_times": "Mo-Fr 11:45; Sa 12:45", "name": "USPS COLLECTION BOX - PO LOBBY", "note": "ON 12/24 AND 12/31, THIS BOX MAY BE COLLECTED AS EARLY AS 12 NOON.", "ref": "8323500003"}, "type": "Feature"}
{"geometry": {"coordinates": [-114.938312, 44.216219], "type": "Point"}, "id": "KRQ2_yJeS7O93h-Bkm5Mjaa2JZo=", "properties": {"@spider": "usps_collection_boxes", "addr:city": "STANLEY", "addr:country": "US", "addr:full": "36 ACE OF DIAMONDS BLVD", "addr:postcode": "83278", "addr:state": "ID", "brand": "USPS", "collection_times": "Mo-Sa 11:15", "name": "USPS COLLECTION BOX - PO LOBBY", "ref": "8327800000"}, "type": "Feature"}
{"geometry": {"coordinates": [-114.937679574, 44.216314723], "type": "Point"}, "id": "0jpA26Zh8CsZU0ee_ieRNOnXNSY=", "properties": {"@spider": "usps_collection_boxes", "addr:city": "STANLEY", "addr:country": "US", "addr:full": "36 ACE OF DIAMONDS BLVD", "addr:postcode": "83278", "addr:state": "ID", "brand": "USPS", "collection_times": "Mo-Fr 11:15", "name": "USPS COLLECTION BOX - PO LOBBY", "ref": "8327800001"}, "type": "Feature"}
