{"dataset_attributes": {"@spider": "usps_collection_boxes", "spider:collection_time": "2023-12-31T08:23:44.423400"}, "geometry": {"coordinates": [-114.473754, 42.557281], "type": "Point"}, "id": "4_xIbgo_uX2G9auy14-zExRJfY4=", "properties": {"@spider": "usps_collection_boxes", "addr:city": "TWIN FALLS", "addr:country": "US", "addr:full": "320 2ND AVE W", "addr:postcode": "83301", "addr:state": "ID", "amenity": "post_box", "brand": "United States Postal Service", "brand:wikidata": "Q668687", "collection_times": "Mo-Sa 17:00", "name": "USPS COLLECTION BOX - BLUE BOX", "note": "ON 12/24 AND 12/31, THIS BOX MAY BE COLLECTED AS EARLY AS 12 NOON.", "nsi_id": "unitedstatespostalservice-a77078", "operator": "United States Postal Service", "operator:short": "USPS", "operator:type": "public", "operator:wikidata": "Q668687", "ref": "8330100005"}, "type": "Feature"}
{"dataset_attributes": {"@spider": "usps_collection_boxes", "spider:collection_time": "2023-12-31T08:23:44.423400"}, "geometry": {"coordinates": [-114.459484, 42.570548], "type": "Point"}, "id": "x4CpURs2QJG9T0JhBout8qlivMw=", "properties": {"@spider": "usps_collection_boxes", "addr:city": "TWIN FALLS", "addr:country": "US", "addr:full": "1147 FILER AVE E", "addr:postcode": "83301", "addr:state": "ID", "amenity": "post_box", "brand": "United States Postal Service", "brand:wikidata": "Q668687", "collection_times": "Mo-Sa 17:00", "name": "USPS COLLECTION BOX - BLUE BOX", "note": "ON 12/24 AND 12/31, THIS BOX MAY BE COLLECTED AS EARLY AS 12 NOON.", "nsi_id": "unitedstatespostalservice-a77078", "operator": "United States Postal Service", "operator:short": "USPS", "operator:type": "public", "operator:wikidata": "Q668687", "ref": "8330100006"}, "type": "Feature"}
{"dataset_attributes": {"@spider": "usps_collection_boxes", "spider:collection_time": "2023-12-31T08:23:44.423400"}, "geometry": {"coordinates": [-114.46641153, 42.5586100828], "type": "Point"}, "id": "t5LXVcmljLvovdwOMuMuawFaFcA=", "properties": {"@spider": "usps_collection_boxes", "addr:city": "TWIN FALLS", "addr:country": "US", "addr:full": "425 SHOSHONE ST N", "addr:postcode": "83301", "addr:state": "ID", "amenity": "post_box", "brand": "United States Postal Service", "brand:wikidata": "Q668687", "collection_times": "Mo-Sa 17:00", "name": "USPS COLLECTION BOX - BLUE BOX", "note": "ON 12/24 AND 12/31, THIS BOX MAY BE COLLECTED AS EARLY AS 12 NOON.", "nsi_id": "unitedstatespostalservice-a77078", "operator": "United States Postal Service", "operator:short": "USPS", "operator:type": "public", "operator:wikidata": "Q668687", "ref": "8330100008"}, "type": "Feature"}
{"dataset_attributes": {"@spider": "usps_collection_boxes", "spider:collection_time": "2023-12-31T08:23:44.423400"}, "geometry": {"coordinates": [-114.467571, 42.592476], "type": "Point"}, "id": "dSqymDEAsD5ruoNg4-cAZTmUUbc=", "properties": {"@spider": "usps_collection_boxes", "addr:city": "TWIN FALLS", "addr:country": "US", "addr:full": "601 POLE LINE RD", "addr:postcode": "83301", "addr:state": "ID", "amenity": "post_box", "brand": "United States Postal Service", "brand:wikidata": "Q668687", "collection_times": "Mo-Sa 17:00", "name": "USPS COLLECTION BOX - BLUE BOX", "note": "ON 12/24 AND 12/31, THIS BOX MAY BE COLLECTED AS EARLY AS 12 NOON.", "nsi_id": "unitedstatespostalservice-a77078", "operator": "United States Postal Service", "operator:short": "USPS", "operator:type": "public", "operator:wikidata": "Q668687", "ref": "8330100012"}, "type": "Feature"}
{"dataset_attributes": {"@spider": "usps_collection_boxes", "spider:collection_time": "2023-12-31T08:23:44.423400"}, "geometry": {"coordinates": [-114.473326, 42.556708], "type": "Point"}, "id": "M4myCMvf0K6zj282G3ixx_B52XE=", "properties": {"@spider": "usps_collection_boxes", "addr:city": "TWIN FALLS", "addr:country": "US", "addr:full": "253 2ND AVE W", "addr:postcode": "83301", "addr:state": "ID", "amenity": "post_box", "brand": "United States Postal Service", "brand:wikidata": "Q668687", "collection_times": "Mo-Sa 17:00", "name": "USPS COLLECTION BOX - EXPRESS", "note": "ON 12/24 AND 12/31, THIS BOX MAY BE COLLECTED AS EARLY AS 12 NOON.", "nsi_id": "unitedstatespostalservice-a77078", "operator": "United States Postal Service", "operator:short": "USPS", "operator:type": "public", "operator:wikidata": "Q668687", "ref": "8330100013"}, "type": "Feature"}
{"dataset_attributes": {"@spider": "usps_collection_boxes", "spider:collection_time": "2023-12-31T08:23:44.423400"}, "geometry": {"coordinates": [-114.473525, 42.555984], "type": "Point"}, "id": "JlVq-AucOR6K9VH7bCNnsFVtmKo=", "properties": {"@spider": "usps_collection_boxes", "addr:city": "TWIN FALLS", "addr:country": "US", "addr:full": "253 2ND AVE W", "addr:postcode": "83301", "addr:state": "ID", "amenity": "post_box", "brand": "United States Postal Service", "brand:wikidata": "Q668687", "collection_times": "Mo-Sa 17:00", "name": "USPS COLLECTION BOX - BLUE BOX", "note": "ON 12/24 AND 12/31, THIS BOX MAY BE COLLECTED AS EARLY AS 12 NOON.", "nsi_id": "unitedstatespostalservice-a77078", "operator": "United States Postal Service", "operator:short": "USPS", "operator:type": "public", "operator:wikidata": "Q668687", "ref": "8330100018"}, "type": "Feature"}
{"dataset_attributes": {"@spider": "usps_collection_boxes", "spider:collection_time": "2023-12-31T08:23:44.423400"}, "geometry": {"coordinates": [-114.464843, 42.585568], "type": "Point"}, "id": "8a7Q_y1s7QWzhd0lK78e31NWrzI=", "properties": {"@spider": "usps_collection_boxes", "addr:city": "TWIN FALLS", "addr:country": "US", "addr:full": "621 N COLLEGE RD", "addr:postcode": "83301", "addr:state": "ID", "amenity": "post_box", "brand": "United States Postal Service", "brand:wikidata": "Q668687", "collection_times": "Mo-Sa 17:00", "name": "USPS COLLECTION BOX - BLUE BOX", "note": "ON 12/24 AND 12/31, THIS BOX MAY BE COLLECTED AS EARLY AS 12 NOON.", "nsi_id": "unitedstatespostalservice-a77078", "operator": "United States Postal Service", "operator:short": "USPS", "operator:type": "public", "operator:wikidata": "Q668687", "ref": "8330100020"}, "type": "Feature"}
{"dataset_attributes": {"@spider": "usps_collection_boxes", "spider:collection_time": "2023-12-31T08:23:44.423400"}, "geometry": {"coordinates": [-114.440542231, 42.5500829162], "type": "Point"}, "id": "S6calIX5aKkYIQm687vqoIdj_k4=", "properties": {"@spider": "usps_collection_boxes", "addr:city": "TWIN FALLS", "addr:country": "US", "addr:full": "220 EASTLAND DR", "addr:postcode": "83301", "addr:state": "ID", "amenity": "post_box", "brand": "United States Postal Service", "brand:wikidata": "Q668687", "collection_times": "Mo-Sa 17:00", "name": "USPS COLLECTION BOX - BLUE BOX", "note": "ON 12/24 AND 12/31, THIS BOX MAY BE COLLECTED AS EARLY AS 12 NOON.", "nsi_id": "unitedstatespostalservice-a77078", "operator": "United States Postal Service", "operator:short": "USPS", "operator:type": "public", "operator:wikidata": "Q668687", "ref": "8330100021"}, "type": "Feature"}
{"dataset_attributes": {"@spider": "usps_collection_boxes", "spider:collection_time": "2023-12-31T08:23:44.423400"}, "geometry": {"coordinates": [-114.4785700061, 42.5500200142], "type": "Point"}, "id": "cdsHxf5GxmcpOnHEmjMWoLL_vgU=", "properties": {"@spider": "usps_collection_boxes", "addr:city": "TWIN FALLS", "addr:country": "US", "addr:full": "880 SHOSHONE ST W", "addr:postcode": "83301", "addr:state": "ID", "amenity": "post_box", "brand": "United States Postal Service", "brand:wikidata": "Q668687", "collection_times": "Mo-Sa 17:00", "name": "USPS COLLECTION BOX - BLUE BOX", "note": "ON 12/24 AND 12/31, THIS BOX MAY BE COLLECTED AS EARLY AS 12 NOON.", "nsi_id": "unitedstatespostalservice-a77078", "operator": "United States Postal Service", "operator:short": "USPS", "operator:type": "public", "operator:wikidata": "Q668687", "ref": "8330100022"}, "type": "Feature"}
{"dataset_attributes": {"@spider": "usps_collection_boxes", "spider:collection_time": "2023-12-31T08:23:44.423400"}, "geometry": {"coordinates": [-114.4688849684, 42.5545850082], "type": "Point"}, "id": "tB9qf7xBxywlsGLsKj0jab4IDqk=", "properties": {"@spider": "usps_collection_boxes", "addr:city": "TWIN FALLS", "addr:country": "US", "addr:full": "202 MAIN AVE S", "addr:postcode": "83301", "addr:state": "ID", "amenity": "post_box", "brand": "United States Postal Service", "brand:wikidata": "Q668687", "collection_times": "Mo-Sa 17:00", "name": "USPS COLLECTION BOX - BLUE BOX", "note": "ON 12/24 AND 12/31, THIS BOX MAY BE COLLECTED AS EARLY AS 12 NOON.", "nsi_id": "unitedstatespostalservice-a77078", "operator": "United States Postal Service", "operator:short": "USPS", "operator:type": "public", "operator:wikidata": "Q668687", "ref": "8330100028"}, "type": "Feature"}
{"dataset_attributes": {"@spider": "usps_collection_boxes", "spider:collection_time": "2023-12-31T08:23:44.423400"}, "geometry": {"coordinates": [-114.47561, 42.56311], "type": "Point"}, "id": "KsIk1Ta4ywBhcjDkjh2K086LicM=", "properties": {"@spider": "usps_collection_boxes", "addr:city": "TWIN FALLS", "addr:country": "US", "addr:full": "601 POLE LINE RD", "addr:postcode": "83301", "addr:state": "ID", "amenity": "post_box", "brand": "United States Postal Service", "brand:wikidata": "Q668687", "collection_times": "Mo-Sa 17:00", "name": "USPS COLLECTION BOX - BLUE BOX", "note": "ON 12/24 AND 12/31, THIS BOX MAY BE COLLECTED AS EARLY AS 12 NOON.", "nsi_id": "unitedstatespostalservice-a77078", "operator": "United States Postal Service", "operator:short": "USPS", "operator:type": "public", "operator:wikidata": "Q668687", "ref": "8330100029"}, "type": "Feature"}
{"dataset_attributes": {"@spider": "usps_collection_boxes", "spider:collection_time": "2023-12-31T08:23:44.423400"}, "geometry": {"coordinates": [-114.459606, 42.577287], "type": "Point"}, "id": "ox1PNOwOPhgle5BwFosRaKuQ6W8=", "properties": {"@spider": "usps_collection_boxes", "addr:city": "TWIN FALLS", "addr:country": "US", "addr:full": "886 BLUE LAKES BLVD N", "addr:postcode": "83301", "addr:state": "ID", "amenity": "post_box", "brand": "United States Postal Service", "brand:wikidata": "Q668687", "collection_times": "Mo-Sa 17:00", "name": "USPS COLLECTION BOX - BLUE BOX", "note": "ON 12/24 AND 12/31, THIS BOX MAY BE COLLECTED AS EARLY AS 12 NOON.", "nsi_id": "unitedstatespostalservice-a77078", "operator": "United States Postal Service", "operator:short": "USPS", "operator:type": "public", "operator:wikidata": "Q668687", "ref": "8330100031"}, "type": "Feature"}
{"dataset_attributes": {"@spider": "usps_collection_boxes", "spider:collection_time": "2023-12-31T08:23:44.423400"}, "geometry": {"coordinates": [-114.454185, 42.594707], "type": "Point"}, "id": "jNAGT95cguH2DqsI_TODcZPtSMk=", "properties": {"@spider": "usps_collection_boxes", "addr:city": "TWIN FALLS", "addr:country": "US", "addr:full": "1485 POLE LINE RD E", "addr:postcode": "83301", "addr:state": "ID", "amenity": "post_box", "brand": "United States Postal Service", "brand:wikidata": "Q668687", "collection_times": "Mo-Sa 17:00", "name": "USPS COLLECTION BOX - BLUE BOX", "note": "ON 12/24 AND 12/31, THIS BOX MAY BE COLLECTED AS EARLY AS 12 NOON.", "nsi_id": "unitedstatespostalservice-a77078", "operator": "United States Postal Service", "operator:short": "USPS", "operator:type": "public", "operator:wikidata": "Q668687", "ref": "8330100034"}, "type": "Feature"}
{"dataset_attributes": {"@spider": "usps_collection_boxes", "spider:collection_time": "2023-12-31T08:23:44.423400"}, "geometry": {"coordinates": [-114.458523, 42.577823], "type": "Point"}, "id": "IRKGEtb1vnMRXeBkDwFezLc6Bxk=", "properties": {"@spider": "usps_collection_boxes", "addr:city": "TWIN FALLS", "addr:country": "US", "addr:full": "1201 FALLS AVE E", "addr:postcode": "83301", "addr:state": "ID", "amenity": "post_box", "brand": "United States Postal Service", "brand:wikidata": "Q668687", "collection_times": "Mo-Sa 17:00", "name": "USPS COLLECTION BOX - BLUE BOX", "note": "ON 12/24 AND 12/31, THIS BOX MAY BE COLLECTED AS EARLY AS 12 NOON.", "nsi_id": "unitedstatespostalservice-a77078", "operator": "United States Postal Service", "operator:short": "USPS", "operator:type": "public", "operator:wikidata": "Q668687", "ref": "8330100035"}, "type": "Feature"}
{"dataset_attributes": {"@spider": "usps_collection_boxes", "spider:collection_time": "2023-12-31T08:23:44.423400"}, "geometry": {"coordinates": [-114.462729, 42.550634], "type": "Point"}, "id": "nkJ05D6EFVRBdiS1zY9cjP5bBhE=", "properties": {"@spider": "usps_collection_boxes", "addr:city": "TWIN FALLS", "addr:country": "US", "addr:full": "633 MAIN AVE E", "addr:postcode": "83301", "addr:state": "ID", "amenity": "post_box", "brand": "United States Postal Service", "brand:wikidata": "Q668687", "collection_times": "Mo-Sa 17:00", "name": "USPS COLLECTION BOX - BLUE BOX", "note": "ON 12/24 AND 12/31, THIS BOX MAY BE COLLECTED AS EARLY AS 12 NOON.", "nsi_id": "unitedstatespostalservice-a77078", "operator": "United States Postal Service", "operator:short": "USPS", "operator:type": "public", "operator:wikidata": "Q668687", "ref": "8330100036"}, "type": "Feature"}
{"dataset_attributes": {"@spider": "usps_collection_boxes", "spider:collection_time": "2023-12-31T08:23:44.423400"}, "geometry": {"coordinates": [-114.484788, 42.483526], "type": "Point"}, "id": "dCZaqdD0qhXWNxnKuDjj5z7FdL4=", "properties": {"@spider": "usps_collection_boxes", "addr:city": "TWIN FALLS", "addr:country": "US", "addr:full": "524 AIRPORT LOOP", "addr:postcode": "83301", "addr:state": "ID", "amenity": "post_box", "brand": "United States Postal Service", "brand:wikidata": "Q668687", "collection_times": "Mo-Sa 11:00", "name": "USPS COLLECTION BOX - BLUE BOX", "nsi_id": "unitedstatespostalservice-a77078", "operator": "United States Postal Service", "operator:short": "USPS", "operator:type": "public", "operator:wikidata": "Q668687", "ref": "8330100037"}, "type": "Feature"}
{"dataset_attributes": {"@spider": "usps_collection_boxes", "spider:collection_time": "2023-12-31T08:23:44.423400"}, "geometry": {"coordinates": [-114.465698, 42.570547], "type": "Point"}, "id": "x7nEogPa9EiqnETYb5Hbghguxrc=", "properties": {"@spider": "usps_collection_boxes", "addr:city": "TWIN FALLS", "addr:country": "US", "addr:full": "647 FILER AVE", "addr:postcode": "83301", "addr:state": "ID", "amenity": "post_box", "brand": "United States Postal Service", "brand:wikidata": "Q668687", "collection_times": "Mo-Sa 17:00", "name": "USPS COLLECTION BOX - BLUE BOX", "note": "ON 12/24 AND 12/31, THIS BOX MAY BE COLLECTED AS EARLY AS 12 NOON.", "nsi_id": "unitedstatespostalservice-a77078", "operator": "United States Postal Service", "operator:short": "USPS", "operator:type": "public", "operator:wikidata": "Q668687", "ref": "8330100038"}, "type": "Feature"}
{"dataset_attributes": {"@spider": "usps_collection_boxes", "spider:collection_time": "2023-12-31T08:23:44.423400"}, "geometry": {"coordinates": [-114.446837, 42.563276], "type": "Point"}, "id": "q63ivFPyFgFmg9yD-dahuQZxH_k=", "properties": {"@spider": "usps_collection_boxes", "addr:city": "TWIN FALLS", "addr:country": "US", "addr:full": "1913 ADDISON AVE E", "addr:postcode": "83301", "addr:state": "ID", "amenity": "post_box", "brand": "United States Postal Service", "brand:wikidata": "Q668687", "collection_times": "Mo-Sa 17:00", "name": "USPS COLLECTION BOX - BLUE BOX", "note": "ON 12/24 AND 12/31, THIS BOX MAY BE COLLECTED AS EARLY AS 12 NOON.", "nsi_id": "unitedstatespostalservice-a77078", "operator": "United States Postal Service", "operator:short": "USPS", "operator:type": "public", "operator:wikidata": "Q668687", "ref": "8330100040"}, "type": "Feature"}
{"dataset_attributes": {"@spider": "usps_collection_boxes", "spider:collection_time": "2023-12-31T08:23:44.423400"}, "geometry": {"coordinates": [-114.45605, 42.5633], "type": "Point"}, "id": "zRAhVissY1aknxUG77ivqKMTuFs=", "properties": {"@spider": "usps_collection_boxes", "addr:city": "TWIN FALLS", "addr:country": "US", "addr:full": "1445 ADDISON AVE E", "addr:postcode": "83301", "addr:state": "ID", "amenity": "post_box", "brand": "United States Postal Service", "brand:wikidata": "Q668687", "collection_times": "Mo-Sa 17:00", "name": "USPS COLLECTION BOX - BLUE BOX", "note": "ON 12/24 AND 12/31, THIS BOX MAY BE COLLECTED AS EARLY AS 12 NOON.", "nsi_id": "unitedstatespostalservice-a77078", "operator": "United States Postal Service", "operator:short": "USPS", "operator:type": "public", "operator:wikidata": "Q668687", "ref": "8330100041"}, "type": "Feature"}
{"dataset_attributes": {"@spider": "usps_collection_boxes", "spider:collection_time": "2023-12-31T08:23:44.423400"}, "geometry": {"coordinates": [-114.459141, 42.563324], "type": "Point"}, "id": "qOXbEyRIEkOz11IehBYpRwrkuHs=", "properties": {"@spider": "usps_collection_boxes", "addr:city": "TWIN FALLS", "addr:country": "US", "addr:full": "1139 ADDISON AVE E", "addr:postcode": "83301", "addr:state": "ID", "amenity": "post_box", "brand": "United States Postal Service", "brand:wikidata": "Q668687", "collection_times": "Mo-Sa 17:00", "name": "USPS COLLECTION BOX - BLUE BOX", "note": "ON 12/24 AND 12/31, THIS BOX MAY BE COLLECTED AS EARLY AS 12 NOON.", "nsi_id": "unitedstatespostalservice-a77078", "operator": "United States Postal Service", "operator:short": "USPS", "operator:type": "public", "operator:wikidata": "Q668687", "ref": "8330100042"}, "type": "Feature"}
{"dataset_attributes": {"@spider": "usps_collection_boxes", "spider:collection_time": "2023-12-31T08:23:44.423400"}, "geometry": {"coordinates": [-114.574944, 42.353573], "type": "Point"}, "id": "tkUkBGhKcsB8cwN_rwIPgyZ4gPA=", "properties": {"@spider": "usps_collection_boxes", "addr:city": "TWIN FALLS", "addr:country": "US", "addr:full": "2701 HIGHWAY 93", "addr:postcode": "83301", "addr:state": "ID", "amenity": "post_box", "brand": "United States Postal Service", "brand:wikidata": "Q668687", "collection_times": "Mo-Sa 11:30", "name": "USPS COLLECTION BOX - BLUE BOX", "nsi_id": "unitedstatespostalservice-a77078", "operator": "United States Postal Service", "operator:short": "USPS", "operator:type": "public", "operator:wikidata": "Q668687", "ref": "8330100044"}, "type": "Feature"}
{"dataset_attributes": {"@spider": "usps_collection_boxes", "spider:collection_time": "2023-12-31T08:23:44.423400"}, "geometry": {"coordinates": [-114.477312, 42.518831], "type": "Point"}, "id": "t1ojGG-4zQGV8s_b7PdAcslpC3Y=", "properties": {"@spider": "usps_collection_boxes", "addr:city": "TWIN FALLS", "addr:country": "US", "addr:full": "2913 E 3600 N", "addr:postcode": "83301", "addr:state": "ID", "amenity": "post_box", "brand": "United States Postal Service", "brand:wikidata": "Q668687", "collection_times": "Mo-Fr 09:00; Sa 10:00", "name": "USPS COLLECTION BOX - BLUE BOX", "nsi_id": "unitedstatespostalservice-a77078", "operator": "United States Postal Service", "operator:short": "USPS", "operator:type": "public", "operator:wikidata": "Q668687", "ref": "8330100045"}, "type": "Feature"}
{"dataset_attributes": {"@spider": "usps_collection_boxes", "spider:collection_time": "2023-12-31T08:23:44.423400"}, "geometry": {"coordinates": [-114.470546, 42.591061], "type": "Point"}, "id": "MDwGveD4UgXSLkhD6CmMc3ba-z4=", "properties": {"@spider": "usps_collection_boxes", "addr:city": "TWIN FALLS", "addr:country": "US", "addr:full": "450 POLE LINE RD", "addr:postcode": "83301", "addr:state": "ID", "amenity": "post_box", "brand": "United States Postal Service", "brand:wikidata": "Q668687", "collection_times": "Mo-Sa 17:00", "name": "USPS COLLECTION BOX - BLUE BOX", "note": "ON 12/24 AND 12/31, THIS BOX MAY BE COLLECTED AS EARLY AS 12 NOON.", "nsi_id": "unitedstatespostalservice-a77078", "operator": "United States Postal Service", "operator:short": "USPS", "operator:type": "public", "operator:wikidata": "Q668687", "ref": "8330100046"}, "type": "Feature"}
{"dataset_attributes": {"@spider": "usps_collection_boxes", "spider:collection_time": "2023-12-31T08:23:44.423400"}, "geometry": {"coordinates": [-114.46454, 42.586181], "type": "Point"}, "id": "7aVHGZpRLUgC-Vzud1DsGKE3Oaw=", "properties": {"@spider": "usps_collection_boxes", "addr:city": "TWIN FALLS", "addr:country": "US", "addr:full": "1376 FILLMORE ST", "addr:postcode": "83301", "addr:state": "ID", "amenity": "post_box", "brand": "United States Postal Service", "brand:wikidata": "Q668687", "collection_times": "Mo-Fr 17:45; Sa 17:30", "name": "USPS COLLECTION BOX - BLUE BOX", "note": "ON 12/24 AND 12/31, THIS BOX MAY BE COLLECTED AS EARLY AS 12 NOON.", "nsi_id": "unitedstatespostalservice-a77078", "operator": "United States Postal Service", "operator:short": "USPS", "operator:type": "public", "operator:wikidata": "Q668687", "ref": "8330100047"}, "type": "Feature"}
{"dataset_attributes": {"@spider": "usps_collection_boxes", "spider:collection_time": "2023-12-31T08:23:44.423400"}, "geometry": {"coordinates": [-114.46454, 42.586181], "type": "Point"}, "id": "evfUf-mhMAoZyBD1v2nSNMb4rH4=", "properties": {"@spider": "usps_collection_boxes", "addr:city": "TWIN FALLS", "addr:country": "US", "addr:full": "1376 FILLMORE ST", "addr:postcode": "83301", "addr:state": "ID", "amenity": "post_box", "brand": "United States Postal Service", "brand:wikidata": "Q668687", "collection_times": "Mo-Fr 17:45; Sa 17:30", "name": "USPS COLLECTION BOX - BLUE BOX", "note": "ON 12/24 AND 12/31, THIS BOX MAY BE COLLECTED AS EARLY AS 12 NOON.", "nsi_id": "unitedstatespostalservice-a77078", "operator": "United States Postal Service", "operator:short": "USPS", "operator:type": "public", "operator:wikidata": "Q668687", "ref": "8330100048"}, "type": "Feature"}
{"dataset_attributes": {"@spider": "usps_collection_boxes", "spider:collection_time": "2023-12-31T08:23:44.423400"}, "geometry": {"coordinates": [-114.46454, 42.586181], "type": "Point"}, "id": "KNt3LAe2f1sckhA4Shc8Ja1d3lE=", "properties": {"@spider": "usps_collection_boxes", "addr:city": "TWIN FALLS", "addr:country": "US", "addr:full": "1376 FILLMORE ST", "addr:postcode": "83301", "addr:state": "ID", "amenity": "post_box", "brand": "United States Postal Service", "brand:wikidata": "Q668687", "collection_times": "Mo-Fr 17:45; Sa 17:30", "name": "USPS COLLECTION BOX - EXPRESS", "note": "ON 12/24 AND 12/31, THIS BOX MAY BE COLLECTED AS EARLY AS 12 NOON.", "nsi_id": "unitedstatespostalservice-a77078", "operator": "United States Postal Service", "operator:short": "USPS", "operator:type": "public", "operator:wikidata": "Q668687", "ref": "8330100049"}, "type": "Feature"}
{"dataset_attributes": {"@spider": "usps_collection_boxes", "spider:collection_time": "2023-12-31T08:23:44.423400"}, "geometry": {"coordinates": [-114.473338, 42.556707], "type": "Point"}, "id": "2pESfMY4YL6K_ZImLIUStUp9wnk=", "properties": {"@spider": "usps_collection_boxes", "addr:city": "TWIN FALLS", "addr:country": "US", "addr:full": "253 2ND AVE W", "addr:postcode": "83301", "addr:state": "ID", "amenity": "post_box", "brand": "United States Postal Service", "brand:wikidata": "Q668687", "collection_times": "Mo-Sa 17:00", "name": "USPS COLLECTION BOX - BLUE BOX", "note": "ON 12/24 AND 12/31, THIS BOX MAY BE COLLECTED AS EARLY AS 12 NOON.", "nsi_id": "unitedstatespostalservice-a77078", "operator": "United States Postal Service", "operator:short": "USPS", "operator:type": "public", "operator:wikidata": "Q668687", "ref": "8330100050"}, "type": "Feature"}
{"dataset_attributes": {"@spider": "usps_collection_boxes", "spider:collection_time": "2023-12-31T08:23:44.423400"}, "geometry": {"coordinates": [-114.473463, 42.556528], "type": "Point"}, "id": "LWYcq1GzGh4lKh0p1t3YFv1jB24=", "properties": {"@spider": "usps_collection_boxes", "addr:city": "TWIN FALLS", "addr:country": "US", "addr:full": "253 2ND AVE W", "addr:postcode": "83301", "addr:state": "ID", "amenity": "post_box", "brand": "United States Postal Service", "brand:wikidata": "Q668687", "collection_times": "Mo-Sa 17:00", "name": "USPS COLLECTION BOX - PO LOBBY", "note": "ON 12/24 AND 12/31, THIS BOX MAY BE COLLECTED AS EARLY AS 12 NOON.", "nsi_id": "unitedstatespostalservice-a77078", "operator": "United States Postal Service", "operator:short": "USPS", "operator:type": "public", "operator:wikidata": "Q668687", "ref": "8330100051"}, "type": "Feature"}
{"dataset_attributes": {"@spider": "usps_collection_boxes", "spider:collection_time": "2023-12-31T08:23:44.423400"}, "geometry": {"coordinates": [-114.46454, 42.586181], "type": "Point"}, "id": "ZS_dREMmzgD0jg5t3mOn3LxZ3No=", "properties": {"@spider": "usps_collection_boxes", "addr:city": "TWIN FALLS", "addr:country": "US", "addr:full": "1376 FILLMORE ST", "addr:postcode": "83301", "addr:state": "ID", "amenity": "post_box", "brand": "United States Postal Service", "brand:wikidata": "Q668687", "collection_times": "Mo-Fr 18:00; Sa 17:30", "name": "USPS COLLECTION BOX - PO LOBBY", "note": "ON 12/24 AND 12/31, THIS BOX MAY BE COLLECTED AS EARLY AS 12 NOON.", "nsi_id": "unitedstatespostalservice-a77078", "operator": "United States Postal Service", "operator:short": "USPS", "operator:type": "public", "operator:wikidata": "Q668687", "ref": "8330100052"}, "type": "Feature"}
{"dataset_attributes": {"@spider": "usps_collection_boxes", "spider:collection_time": "2023-12-31T08:23:44.423400"}, "geometry": {"coordinates": [-114.467572, 42.592476], "type": "Point"}, "id": "ZiJcUwfjlqVaF4Gdtl7IhIT-CT0=", "properties": {"@spider": "usps_collection_boxes", "addr:city": "TWIN FALLS", "addr:country": "US", "addr:full": "601 POLE LINE RD", "addr:postcode": "83301", "addr:state": "ID", "amenity": "post_box", "brand": "United States Postal Service", "brand:wikidata": "Q668687", "collection_times": "Mo-Sa 17:00", "name": "USPS COLLECTION BOX - BLUE BOX", "note": "ON 12/24 AND 12/31, THIS BOX MAY BE COLLECTED AS EARLY AS 12 NOON.", "nsi_id": "unitedstatespostalservice-a77078", "operator": "United States Postal Service", "operator:short": "USPS", "operator:type": "public", "operator:wikidata": "Q668687", "ref": "8330100065"}, "type": "Feature"}
{"dataset_attributes": {"@spider": "usps_collection_boxes", "spider:collection_time": "2023-12-31T08:23:44.423400"}, "geometry": {"coordinates": [-114.461721, 42.574952], "type": "Point"}, "id": "MtVSu3IMjRL0If2qphoAl6VQTfQ=", "properties": {"@spider": "usps_collection_boxes", "addr:city": "TWIN FALLS", "addr:country": "US", "addr:full": "705 BLUE LAKES BLVD N", "addr:postcode": "83301", "addr:state": "ID", "amenity": "post_box", "brand": "United States Postal Service", "brand:wikidata": "Q668687", "collection_times": "Mo-Sa 17:00", "name": "USPS COLLECTION BOX - BLUE BOX", "note": "ON 12/24 AND 12/31, THIS BOX MAY BE COLLECTED AS EARLY AS 12 NOON.", "nsi_id": "unitedstatespostalservice-a77078", "operator": "United States Postal Service", "operator:short": "USPS", "operator:type": "public", "operator:wikidata": "Q668687", "ref": "8330100066"}, "type": "Feature"}
{"dataset_attributes": {"@spider": "usps_collection_boxes", "spider:collection_time": "2023-12-31T08:23:44.423400"}, "geometry": {"coordinates": [-114.490017, 42.565683], "type": "Point"}, "id": "9TYUqOA9WrYqp84PUJ6-VVyPxu8=", "properties": {"@spider": "usps_collection_boxes", "addr:city": "TWIN FALLS", "addr:country": "US", "addr:full": "526 SHOUP AVE W", "addr:postcode": "83301", "addr:state": "ID", "amenity": "post_box", "brand": "United States Postal Service", "brand:wikidata": "Q668687", "collection_times": "Mo-Sa 17:00", "name": "USPS COLLECTION BOX - BLUE BOX", "note": "ON 12/24 AND 12/31, THIS BOX MAY BE COLLECTED AS EARLY AS 12 NOON.", "nsi_id": "unitedstatespostalservice-a77078", "operator": "United States Postal Service", "operator:short": "USPS", "operator:type": "public", "operator:wikidata": "Q668687", "ref": "8330100067"}, "type": "Feature"}
{"dataset_attributes": {"@spider": "usps_collection_boxes", "spider:collection_time": "2023-12-31T08:23:44.423400"}, "geometry": {"coordinates": [-114.46454, 42.586181], "type": "Point"}, "id": "ITjrkzK1ntJtJ-BvOpjM_6iLI4g=", "properties": {"@spider": "usps_collection_boxes", "addr:city": "TWIN FALLS", "addr:country": "US", "addr:full": "1376 FILLMORE ST", "addr:postcode": "83301", "addr:state": "ID", "amenity": "post_box", "brand": "United States Postal Service", "brand:wikidata": "Q668687", "collection_times": "Mo-Fr 18:00; Sa 17:30", "name": "USPS COLLECTION BOX - APC", "note": "ON 12/24 AND 12/31, THIS BOX MAY BE COLLECTED AS EARLY AS 12 NOON.", "nsi_id": "unitedstatespostalservice-a77078", "operator": "United States Postal Service", "operator:short": "USPS", "operator:type": "public", "operator:wikidata": "Q668687", "ref": "8330100069"}, "type": "Feature"}
{"dataset_attributes": {"@spider": "usps_collection_boxes", "spider:collection_time": "2023-12-31T08:23:44.423400"}, "geometry": {"coordinates": [-114.456045, 42.594192], "type": "Point"}, "id": "PYSScyorvKOfX9VnPDAuh-rEYtI=", "properties": {"@spider": "usps_collection_boxes", "addr:city": "TWIN FALLS", "addr:country": "US", "addr:full": "1485 POLE LINE RD E", "addr:postcode": "83301", "addr:state": "ID", "amenity": "post_box", "brand": "United States Postal Service", "brand:wikidata": "Q668687", "collection_times": "Mo-Sa 17:00", "name": "USPS COLLECTION BOX - BLUE BOX", "note": "ON 12/24 AND 12/31, THIS BOX MAY BE COLLECTED AS EARLY AS 12 NOON.", "nsi_id": "unitedstatespostalservice-a77078", "operator": "United States Postal Service", "operator:short": "USPS", "operator:type": "public", "operator:wikidata": "Q668687", "ref": "8330100071"}, "type": "Feature"}
{"dataset_attributes": {"@spider": "usps_collection_boxes", "spider:collection_time": "2023-12-31T08:23:44.423400"}, "geometry": {"coordinates": [-114.46454, 42.586181], "type": "Point"}, "id": "CmrPS2Gyol4BDRwXBt3d2Shu-hI=", "properties": {"@spider": "usps_collection_boxes", "addr:city": "TWIN FALLS", "addr:country": "US", "addr:full": "1376 FILLMORE ST", "addr:postcode": "83301", "addr:state": "ID", "amenity": "post_box", "brand": "United States Postal Service", "brand:wikidata": "Q668687", "collection_times": "Mo-Fr 18:00; Sa 17:30", "name": "USPS COLLECTION BOX - PO LOBBY", "note": "ON 12/24 AND 12/31, THIS BOX MAY BE COLLECTED AS EARLY AS 12 NOON.", "nsi_id": "unitedstatespostalservice-a77078", "operator": "United States Postal Service", "operator:short": "USPS", "operator:type": "public", "operator:wikidata": "Q668687", "ref": "8330100072"}, "type": "Feature"}
{"dataset_attributes": {"@spider": "usps_collection_boxes", "spider:collection_time": "2023-12-31T08:23:44.423400"}, "geometry": {"coordinates": [-114.46454, 42.586181], "type": "Point"}, "id": "Jv4PuR0ERS-Bsbo0U3U_VShHGS4=", "properties": {"@spider": "usps_collection_boxes", "addr:city": "TWIN FALLS", "addr:country": "US", "addr:full": "1376 FILLMORE ST", "addr:postcode": "83301", "addr:state": "ID", "amenity": "post_box", "brand": "United States Postal Service", "brand:wikidata": "Q668687", "collection_times": "Mo-Fr 18:00; Sa 17:30", "name": "USPS COLLECTION BOX - PO LOBBY", "note": "ON 12/24 AND 12/31, THIS BOX MAY BE COLLECTED AS EARLY AS 12 NOON.", "nsi_id": "unitedstatespostalservice-a77078", "operator": "United States Postal Service", "operator:short": "USPS", "operator:type": "public", "operator:wikidata": "Q668687", "ref": "8330100073"}, "type": "Feature"}
{"dataset_attributes": {"@spider": "usps_collection_boxes", "spider:collection_time": "2023-12-31T08:23:44.423400"}, "geometry": {"coordinates": [-114.473471, 42.556542], "type": "Point"}, "id": "ZK_z_Js8KdZG8lsFp750Lf2s3sc=", "properties": {"@spider": "usps_collection_boxes", "addr:city": "TWIN FALLS", "addr:country": "US", "addr:full": "253 2ND AVE W", "addr:postcode": "83301", "addr:state": "ID", "amenity": "post_box", "brand": "United States Postal Service", "brand:wikidata": "Q668687", "collection_times": "Mo-Sa 17:00", "name": "USPS COLLECTION BOX - PO LOBBY", "note": "ON 12/24 AND 12/31, THIS BOX MAY BE COLLECTED AS EARLY AS 12 NOON.", "nsi_id": "unitedstatespostalservice-a77078", "operator": "United States Postal Service", "operator:short": "USPS", "operator:type": "public", "operator:wikidata": "Q668687", "ref": "8330100074"}, "type": "Feature"}
{"dataset_attributes": {"@spider": "usps_collection_boxes", "spider:collection_time": "2023-12-31T08:23:44.423400"}, "geometry": {"coordinates": [-114.473519, 42.55651], "type": "Point"}, "id": "1RK4zM53fld4FN8_-FUJHZwzvCQ=", "properties": {"@spider": "usps_collection_boxes", "addr:city": "TWIN FALLS", "addr:country": "US", "addr:full": "253 2ND AVE W", "addr:postcode": "83301", "addr:state": "ID", "amenity": "post_box", "brand": "United States Postal Service", "brand:wikidata": "Q668687", "collection_times": "Mo-Sa 17:00", "name": "USPS COLLECTION BOX - PO LOBBY", "note": "ON 12/24 AND 12/31, THIS BOX MAY BE COLLECTED AS EARLY AS 12 NOON.", "nsi_id": "unitedstatespostalservice-a77078", "operator": "United States Postal Service", "operator:short": "USPS", "operator:type": "public", "operator:wikidata": "Q668687", "ref": "8330100075"}, "type": "Feature"}
{"dataset_attributes": {"@spider": "usps_collection_boxes", "spider:collection_time": "2023-12-31T08:23:44.423400"}, "geometry": {"coordinates": [-114.464532705, 42.586307749], "type": "Point"}, "id": "FdfiC358QXfWU8DAKtdwSExL5TA=", "properties": {"@spider": "usps_collection_boxes", "addr:city": "TWIN FALLS", "addr:country": "US", "addr:full": "1376 FILLMORE ST", "addr:postcode": "83301", "addr:state": "ID", "amenity": "post_box", "brand": "United States Postal Service", "brand:wikidata": "Q668687", "collection_times": "Mo-Fr 18:00; Sa 17:30", "name": "USPS COLLECTION BOX - PO LOBBY", "note": "ON 12/24 AND 12/31, THIS BOX MAY BE COLLECTED AS EARLY AS 12 NOON.", "nsi_id": "unitedstatespostalservice-a77078", "operator": "United States Postal Service", "operator:short": "USPS", "operator:type": "public", "operator:wikidata": "Q668687", "ref": "8330100078"}, "type": "Feature"}
{"dataset_attributes": {"@spider": "usps_collection_boxes", "spider:collection_time": "2023-12-31T08:23:44.423400"}, "geometry": {"coordinates": [-114.473119329, 42.55664483], "type": "Point"}, "id": "vPfl37C1pDBSthHJbUTqcDCjQcg=", "properties": {"@spider": "usps_collection_boxes", "addr:city": "TWIN FALLS", "addr:country": "US", "addr:full": "253 2ND AVE W", "addr:postcode": "83301", "addr:state": "ID", "amenity": "post_box", "brand": "United States Postal Service", "brand:wikidata": "Q668687", "collection_times": "Mo-Fr 17:00", "name": "USPS COLLECTION BOX - PO LOBBY", "note": "ON 12/24 AND 12/31, THIS BOX MAY BE COLLECTED AS EARLY AS 12 NOON.", "nsi_id": "unitedstatespostalservice-a77078", "operator": "United States Postal Service", "operator:short": "USPS", "operator:type": "public", "operator:wikidata": "Q668687", "ref": "8330100079"}, "type": "Feature"}
{"dataset_attributes": {"@spider": "usps_collection_boxes", "spider:collection_time": "2023-12-31T08:23:44.423400"}, "geometry": {"coordinates": [-113.579708, 42.411654], "type": "Point"}, "id": "-EcUefTuMfwDTQgUt_PQc7cEgzo=", "properties": {"@spider": "usps_collection_boxes", "addr:city": "ALBION", "addr:country": "US", "addr:full": "150 W MARKET ST", "addr:postcode": "83311", "addr:state": "ID", "amenity": "post_box", "brand": "United States Postal Service", "brand:wikidata": "Q668687", "collection_times": "Mo-Fr 15:30; Sa 11:30", "name": "USPS COLLECTION BOX - BLUE BOX", "note": "ON 12/24 AND 12/31, THIS BOX MAY BE COLLECTED AS EARLY AS 12 NOON.", "nsi_id": "unitedstatespostalservice-a77078", "operator": "United States Postal Service", "operator:short": "USPS", "operator:type": "public", "operator:wikidata": "Q668687", "ref": "8331100000"}, "type": "Feature"}
{"dataset_attributes": {"@spider": "usps_collection_boxes", "spider:collection_time": "2023-12-31T08:23:44.423400"}, "geometry": {"coordinates": [-113.578935, 42.411574], "type": "Point"}, "id": "RKMZX1ybE8ZcjkuDvZr8fHrV8Vk=", "properties": {"@spider": "usps_collection_boxes", "addr:city": "ALBION", "addr:country": "US", "addr:full": "150 W MARKET ST", "addr:postcode": "83311", "addr:state": "ID", "amenity": "post_box", "brand": "United States Postal Service", "brand:wikidata": "Q668687", "collection_times": "Mo-Fr 12:45; Sa 09:30", "name": "USPS COLLECTION BOX - PO LOBBY", "note": "ON 12/24 AND 12/31, THIS BOX MAY BE COLLECTED AS EARLY AS 12 NOON.", "nsi_id": "unitedstatespostalservice-a77078", "operator": "United States Postal Service", "operator:short": "USPS", "operator:type": "public", "operator:wikidata": "Q668687", "ref": "8331100001"}, "type": "Feature"}
{"dataset_attributes": {"@spider": "usps_collection_boxes", "spider:collection_time": "2023-12-31T08:23:44.423400"}, "geometry": {"coordinates": [-113.57946022, 42.411601508], "type": "Point"}, "id": "Jk8rUqlQma7Fct5R4cqAUrYWnME=", "properties": {"@spider": "usps_collection_boxes", "addr:city": "ALBION", "addr:country": "US", "addr:full": "150 W MARKET ST", "addr:postcode": "83311", "addr:state": "ID", "amenity": "post_box", "brand": "United States Postal Service", "brand:wikidata": "Q668687", "collection_times": "Mo-Fr 12:45; Sa 09:30", "name": "USPS COLLECTION BOX - PO LOBBY", "note": "ON 12/24 AND 12/31, THIS BOX MAY BE COLLECTED AS EARLY AS 12 NOON.", "nsi_id": "unitedstatespostalservice-a77078", "operator": "United States Postal Service", "operator:short": "USPS", "operator:type": "public", "operator:wikidata": "Q668687", "ref": "8331100002"}, "type": "Feature"}
{"dataset_attributes": {"@spider": "usps_collection_boxes", "spider:collection_time": "2023-12-31T08:23:44.423400"}, "geometry": {"coordinates": [-113.633257, 42.096426], "type": "Point"}, "id": "guzZ1si7pdYugAobIIypcsZIpYg=", "properties": {"@spider": "usps_collection_boxes", "addr:city": "ALMO", "addr:country": "US", "addr:full": "3001 ELBA ALMO RD", "addr:postcode": "83312", "addr:state": "ID", "amenity": "post_box", "brand": "United States Postal Service", "brand:wikidata": "Q668687", "collection_times": "Mo-Sa 11:45", "name": "USPS COLLECTION BOX - BLUE BOX", "nsi_id": "unitedstatespostalservice-a77078", "operator": "United States Postal Service", "operator:short": "USPS", "operator:type": "public", "operator:wikidata": "Q668687", "ref": "8331200000"}, "type": "Feature"}
{"dataset_attributes": {"@spider": "usps_collection_boxes", "spider:collection_time": "2023-12-31T08:23:44.423400"}, "geometry": {"coordinates": [-113.63333, 42.096503], "type": "Point"}, "id": "8GUav0XXtt4x2LWRg8F6rUPJXgU=", "properties": {"@spider": "usps_collection_boxes", "addr:city": "ALMO", "addr:country": "US", "addr:full": "3001 ELBA ALMO RD", "addr:postcode": "83312", "addr:state": "ID", "amenity": "post_box", "brand": "United States Postal Service", "brand:wikidata": "Q668687", "collection_times": "Mo-Sa 11:45", "name": "USPS COLLECTION BOX - PO LOBBY", "nsi_id": "unitedstatespostalservice-a77078", "operator": "United States Postal Service", "operator:short": "USPS", "operator:type": "public", "operator:wikidata": "Q668687", "ref": "8331200001"}, "type": "Feature"}
{"dataset_attributes": {"@spider": "usps_collection_boxes", "spider:collection_time": "2023-12-31T08:23:44.423400"}, "geometry": {"coordinates": [-113.633156931, 42.096153687], "type": "Point"}, "id": "Cx4urNZL_MONutHG-angYbFIbsM=", "properties": {"@spider": "usps_collection_boxes", "addr:city": "ALMO", "addr:country": "US", "addr:full": "3001 ELBA ALMO RD", "addr:postcode": "83312", "addr:state": "ID", "amenity": "post_box", "brand": "United States Postal Service", "brand:wikidata": "Q668687", "collection_times": "Mo-Sa 11:45", "name": "USPS COLLECTION BOX - PO LOBBY", "nsi_id": "unitedstatespostalservice-a77078", "operator": "United States Postal Service", "operator:short": "USPS", "operator:type": "public", "operator:wikidata": "Q668687", "ref": "8331200002"}, "type": "Feature"}
{"dataset_attributes": {"@spider": "usps_collection_boxes", "spider:collection_time": "2023-12-31T08:23:44.423400"}, "geometry": {"coordinates": [-114.260035, 43.462852], "type": "Point"}, "id": "-QR7k1dkJYTrVGcU1Y3lPqAcixI=", "properties": {"@spider": "usps_collection_boxes", "addr:city": "BELLEVUE", "addr:country": "US", "addr:full": "101 E PINE ST", "addr:postcode": "83313", "addr:state": "ID", "amenity": "post_box", "brand": "United States Postal Service", "brand:wikidata": "Q668687", "collection_times": "Mo-Fr 16:00; Sa 15:15", "name": "USPS COLLECTION BOX - BLUE BOX", "note": "ON 12/24 AND 12/31, THIS BOX MAY BE COLLECTED AS EARLY AS 12 NOON.", "nsi_id": "unitedstatespostalservice-a77078", "operator": "United States Postal Service", "operator:short": "USPS", "operator:type": "public", "operator:wikidata": "Q668687", "ref": "8331300000"}, "type": "Feature"}
{"dataset_attributes": {"@spider": "usps_collection_boxes", "spider:collection_time": "2023-12-31T08:23:44.423400"}, "geometry": {"coordinates": [-114.260137, 43.462794], "type": "Point"}, "id": "cSfKHHe612E2x71ke6alFmCQ8IY=", "properties": {"@spider": "usps_collection_boxes", "addr:city": "BELLEVUE", "addr:country": "US", "addr:full": "101 E PINE ST", "addr:postcode": "83313", "addr:state": "ID", "amenity": "post_box", "brand": "United States Postal Service", "brand:wikidata": "Q668687", "collection_times": "Mo-Fr 16:00", "name": "USPS COLLECTION BOX - PO LOBBY", "note": "ON 12/24 AND 12/31, THIS BOX MAY BE COLLECTED AS EARLY AS 12 NOON.", "nsi_id": "unitedstatespostalservice-a77078", "operator": "United States Postal Service", "operator:short": "USPS", "operator:type": "public", "operator:wikidata": "Q668687", "ref": "8331300001"}, "type": "Feature"}
{"dataset_attributes": {"@spider": "usps_collection_boxes", "spider:collection_time": "2023-12-31T08:23:44.423400"}, "geometry": {"coordinates": [-114.266176, 43.473839], "type": "Point"}, "id": "hCBSqNdS4Z92qai_5vQ2peTP-oA=", "properties": {"@spider": "usps_collection_boxes", "addr:city": "BELLEVUE", "addr:country": "US", "addr:full": "757 N MAIN ST", "addr:postcode": "83313", "addr:state": "ID", "amenity": "post_box", "brand": "United States Postal Service", "brand:wikidata": "Q668687", "collection_times": "Mo-Sa 10:00", "name": "USPS COLLECTION BOX - BLUE BOX", "nsi_id": "unitedstatespostalservice-a77078", "operator": "United States Postal Service", "operator:short": "USPS", "operator:type": "public", "operator:wikidata": "Q668687", "ref": "8331300002"}, "type": "Feature"}
{"dataset_attributes": {"@spider": "usps_collection_boxes", "spider:collection_time": "2023-12-31T08:23:44.423400"}, "geometry": {"coordinates": [-114.260102934, 43.462901033], "type": "Point"}, "id": "B5aUXNLpuLPEPOsiZuTTdVbfujM=", "properties": {"@spider": "usps_collection_boxes", "addr:city": "BELLEVUE", "addr:country": "US", "addr:full": "101 E PINE ST", "addr:postcode": "83313", "addr:state": "ID", "amenity": "post_box", "brand": "United States Postal Service", "brand:wikidata": "Q668687", "collection_times": "Mo-Fr 16:00", "name": "USPS COLLECTION BOX - PO LOBBY", "note": "ON 12/24 AND 12/31, THIS BOX MAY BE COLLECTED AS EARLY AS 12 NOON.", "nsi_id": "unitedstatespostalservice-a77078", "operator": "United States Postal Service", "operator:short": "USPS", "operator:type": "public", "operator:wikidata": "Q668687", "ref": "8331300003"}, "type": "Feature"}
{"dataset_attributes": {"@spider": "usps_collection_boxes", "spider:collection_time": "2023-12-31T08:23:44.423400"}, "geometry": {"coordinates": [-114.949479, 42.924224], "type": "Point"}, "id": "mSFI-fk9UV6JfvygsMddJOHPhMk=", "properties": {"@spider": "usps_collection_boxes", "addr:city": "BLISS", "addr:country": "US", "addr:full": "100 E HIGHWAY 30", "addr:postcode": "83314", "addr:state": "ID", "amenity": "post_box", "brand": "United States Postal Service", "brand:wikidata": "Q668687", "collection_times": "Mo-Fr 15:40; Sa 15:30", "name": "USPS COLLECTION BOX - BLUE BOX", "note": "ON 12/24 AND 12/31, THIS BOX MAY BE COLLECTED AS EARLY AS 12 NOON.", "nsi_id": "unitedstatespostalservice-a77078", "operator": "United States Postal Service", "operator:short": "USPS", "operator:type": "public", "operator:wikidata": "Q668687", "ref": "8331400000"}, "type": "Feature"}
{"dataset_attributes": {"@spider": "usps_collection_boxes", "spider:collection_time": "2023-12-31T08:23:44.423400"}, "geometry": {"coordinates": [-114.949479, 42.924224], "type": "Point"}, "id": "0z9mV0whOlM0KuUxDbNj85sjegg=", "properties": {"@spider": "usps_collection_boxes", "addr:city": "BLISS", "addr:country": "US", "addr:full": "100 E HIGHWAY 30", "addr:postcode": "83314", "addr:state": "ID", "amenity": "post_box", "brand": "United States Postal Service", "brand:wikidata": "Q668687", "collection_times": "Mo-Fr 12:15; Sa 09:30", "name": "USPS COLLECTION BOX - PO LOBBY", "note": "ON 12/24 AND 12/31, THIS BOX MAY BE COLLECTED AS EARLY AS 12 NOON.", "nsi_id": "unitedstatespostalservice-a77078", "operator": "United States Postal Service", "operator:short": "USPS", "operator:type": "public", "operator:wikidata": "Q668687", "ref": "8331400001"}, "type": "Feature"}
{"dataset_attributes": {"@spider": "usps_collection_boxes", "spider:collection_time": "2023-12-31T08:23:44.423400"}, "geometry": {"coordinates": [-114.949517587, 42.924274277], "type": "Point"}, "id": "gmnbO9mYzQOolqLNd9ehlT-3s-A=", "properties": {"@spider": "usps_collection_boxes", "addr:city": "BLISS", "addr:country": "US", "addr:full": "100 E HIGHWAY 30", "addr:postcode": "83314", "addr:state": "ID", "amenity": "post_box", "brand": "United States Postal Service", "brand:wikidata": "Q668687", "collection_times": "Mo-Fr 12:15", "name": "USPS COLLECTION BOX - PO LOBBY", "note": "ON 12/24 AND 12/31, THIS BOX MAY BE COLLECTED AS EARLY AS 12 NOON.", "nsi_id": "unitedstatespostalservice-a77078", "operator": "United States Postal Service", "operator:short": "USPS", "operator:type": "public", "operator:wikidata": "Q668687", "ref": "8331400002"}, "type": "Feature"}
{"dataset_attributes": {"@spider": "usps_collection_boxes", "spider:collection_time": "2023-12-31T08:23:44.423400"}, "geometry": {"coordinates": [-114.758488, 42.599944], "type": "Point"}, "id": "GSuYUPr3h3dt8_vPUBuUeBhrJXY=", "properties": {"@spider": "usps_collection_boxes", "addr:city": "BUHL", "addr:country": "US", "addr:full": "830 MAIN ST", "addr:postcode": "83316", "addr:state": "ID", "amenity": "post_box", "brand": "United States Postal Service", "brand:wikidata": "Q668687", "collection_times": "Mo-Fr 16:35; Sa 16:00", "name": "USPS COLLECTION BOX - BLUE BOX", "note": "ON 12/24 AND 12/31, THIS BOX MAY BE COLLECTED AS EARLY AS 12 NOON.", "nsi_id": "unitedstatespostalservice-a77078", "operator": "United States Postal Service", "operator:short": "USPS", "operator:type": "public", "operator:wikidata": "Q668687", "ref": "8331600000"}, "type": "Feature"}
{"dataset_attributes": {"@spider": "usps_collection_boxes", "spider:collection_time": "2023-12-31T08:23:44.423400"}, "geometry": {"coordinates": [-114.758488, 42.599944], "type": "Point"}, "id": "VYDpQ5tGCK8ZTxhYa1i3GMNOc84=", "properties": {"@spider": "usps_collection_boxes", "addr:city": "BUHL", "addr:country": "US", "addr:full": "830 MAIN ST", "addr:postcode": "83316", "addr:state": "ID", "amenity": "post_box", "brand": "United States Postal Service", "brand:wikidata": "Q668687", "collection_times": "Mo-Fr 16:35; Sa 16:00", "name": "USPS COLLECTION BOX - PO LOBBY", "note": "ON 12/24 AND 12/31, THIS BOX MAY BE COLLECTED AS EARLY AS 12 NOON.", "nsi_id": "unitedstatespostalservice-a77078", "operator": "United States Postal Service", "operator:short": "USPS", "operator:type": "public", "operator:wikidata": "Q668687", "ref": "8331600002"}, "type": "Feature"}
{"dataset_attributes": {"@spider": "usps_collection_boxes", "spider:collection_time": "2023-12-31T08:23:44.423400"}, "geometry": {"coordinates": [-114.74946, 42.593355], "type": "Point"}, "id": "FgvnZJPU5k3GQ_UJ9w9jgP4woPc=", "properties": {"@spider": "usps_collection_boxes", "addr:city": "BUHL", "addr:country": "US", "addr:full": "705 HIGHWAY 30", "addr:postcode": "83316", "addr:state": "ID", "amenity": "post_box", "brand": "United States Postal Service", "brand:wikidata": "Q668687", "collection_times": "Mo-Fr 15:00; Sa 14:00", "name": "USPS COLLECTION BOX - BLUE BOX", "note": "ON 12/24 AND 12/31, THIS BOX MAY BE COLLECTED AS EARLY AS 12 NOON.", "nsi_id": "unitedstatespostalservice-a77078", "operator": "United States Postal Service", "operator:short": "USPS", "operator:type": "public", "operator:wikidata": "Q668687", "ref": "8331600003"}, "type": "Feature"}
{"dataset_attributes": {"@spider": "usps_collection_boxes", "spider:collection_time": "2023-12-31T08:23:44.423400"}, "geometry": {"coordinates": [-114.758488, 42.599944], "type": "Point"}, "id": "JAcdnDR5QFNnzIjhDusugUcKEps=", "properties": {"@spider": "usps_collection_boxes", "addr:city": "BUHL", "addr:country": "US", "addr:full": "830 MAIN ST", "addr:postcode": "83316", "addr:state": "ID", "amenity": "post_box", "brand": "United States Postal Service", "brand:wikidata": "Q668687", "collection_times": "Mo-Fr 16:35; Sa 16:00", "name": "USPS COLLECTION BOX - PO LOBBY", "note": "ON 12/24 AND 12/31, THIS BOX MAY BE COLLECTED AS EARLY AS 12 NOON.", "nsi_id": "unitedstatespostalservice-a77078", "operator": "United States Postal Service", "operator:short": "USPS", "operator:type": "public", "operator:wikidata": "Q668687", "ref": "8331600004"}, "type": "Feature"}
{"dataset_attributes": {"@spider": "usps_collection_boxes", "spider:collection_time": "2023-12-31T08:23:44.423400"}, "geometry": {"coordinates": [-114.758488, 42.599944], "type": "Point"}, "id": "BMGIBezZq5KBLSd7-w-rkxBd6ow=", "properties": {"@spider": "usps_collection_boxes", "addr:city": "BUHL", "addr:country": "US", "addr:full": "830 MAIN ST", "addr:postcode": "83316", "addr:state": "ID", "amenity": "post_box", "brand": "United States Postal Service", "brand:wikidata": "Q668687", "collection_times": "Mo-Fr 16:35; Sa 16:00", "name": "USPS COLLECTION BOX - PO LOBBY", "note": "ON 12/24 AND 12/31, THIS BOX MAY BE COLLECTED AS EARLY AS 12 NOON.", "nsi_id": "unitedstatespostalservice-a77078", "operator": "United States Postal Service", "operator:short": "USPS", "operator:type": "public", "operator:wikidata": "Q668687", "ref": "8331600005"}, "type": "Feature"}
{"dataset_attributes": {"@spider": "usps_collection_boxes", "spider:collection_time": "2023-12-31T08:23:44.423400"}, "geometry": {"coordinates": [-114.758491289, 42.599938231], "type": "Point"}, "id": "ENEVglB5YbBPB5qI8rYSX9nOVzY=", "properties": {"@spider": "usps_collection_boxes", "addr:city": "BUHL", "addr:country": "US", "addr:full": "830 MAIN ST", "addr:postcode": "83316", "addr:state": "ID", "amenity": "post_box", "brand": "United States Postal Service", "brand:wikidata": "Q668687", "collection_times": "Mo-Fr 16:30", "name": "USPS COLLECTION BOX - PO LOBBY", "note": "ON 12/24 AND 12/31, THIS BOX MAY BE COLLECTED AS EARLY AS 12 NOON.", "nsi_id": "unitedstatespostalservice-a77078", "operator": "United States Postal Service", "operator:short": "USPS", "operator:type": "public", "operator:wikidata": "Q668687", "ref": "8331600006"}, "type": "Feature"}
{"dataset_attributes": {"@spider": "usps_collection_boxes", "spider:collection_time": "2023-12-31T08:23:44.423400"}, "geometry": {"coordinates": [-113.777711, 42.536481], "type": "Point"}, "id": "k0chStHlFJsltW9Pnk8OXig7bqI=", "properties": {"@spider": "usps_collection_boxes", "addr:city": "BURLEY", "addr:country": "US", "addr:full": "1350 POMERELLE AVE", "addr:postcode": "83318", "addr:state": "ID", "amenity": "post_box", "brand": "United States Postal Service", "brand:wikidata": "Q668687", "collection_times": "Mo-Fr 15:25; Sa 15:45", "name": "USPS COLLECTION BOX - BLUE BOX", "note": "ON 12/24 AND 12/31, THIS BOX MAY BE COLLECTED AS EARLY AS 12 NOON.", "nsi_id": "unitedstatespostalservice-a77078", "operator": "United States Postal Service", "operator:short": "USPS", "operator:type": "public", "operator:wikidata": "Q668687", "ref": "8331800000"}, "type": "Feature"}
{"dataset_attributes": {"@spider": "usps_collection_boxes", "spider:collection_time": "2023-12-31T08:23:44.423400"}, "geometry": {"coordinates": [-113.7905496932, 42.5614665166], "type": "Point"}, "id": "udJem_5zW3ojB3IZDnpe6ZXXo8Q=", "properties": {"@spider": "usps_collection_boxes", "addr:city": "BURLEY", "addr:country": "US", "addr:full": "236 E 5TH N", "addr:postcode": "83318", "addr:state": "ID", "amenity": "post_box", "brand": "United States Postal Service", "brand:wikidata": "Q668687", "collection_times": "Mo-Fr 11:30; Sa 11:00", "name": "USPS COLLECTION BOX - BLUE BOX", "nsi_id": "unitedstatespostalservice-a77078", "operator": "United States Postal Service", "operator:short": "USPS", "operator:type": "public", "operator:wikidata": "Q668687", "ref": "8331800002"}, "type": "Feature"}
{"dataset_attributes": {"@spider": "usps_collection_boxes", "spider:collection_time": "2023-12-31T08:23:44.423400"}, "geometry": {"coordinates": [-113.793079, 42.524694], "type": "Point"}, "id": "XYxL9prfnc5Ai9GHwgUMHaB9IEo=", "properties": {"@spider": "usps_collection_boxes", "addr:city": "BURLEY", "addr:country": "US", "addr:full": "2301 OVERLAND AVE", "addr:postcode": "83318", "addr:state": "ID", "amenity": "post_box", "brand": "United States Postal Service", "brand:wikidata": "Q668687", "collection_times": "Mo-Sa 15:55", "name": "USPS COLLECTION BOX - BLUE BOX", "note": "ON 12/24 AND 12/31, THIS BOX MAY BE COLLECTED AS EARLY AS 12 NOON.", "nsi_id": "unitedstatespostalservice-a77078", "operator": "United States Postal Service", "operator:short": "USPS", "operator:type": "public", "operator:wikidata": "Q668687", "ref": "8331800004"}, "type": "Feature"}
{"dataset_attributes": {"@spider": "usps_collection_boxes", "spider:collection_time": "2023-12-31T08:23:44.423400"}, "geometry": {"coordinates": [-113.791397, 42.535689], "type": "Point"}, "id": "ieaq1NGX6AnXQraQPGAmTFlR6nM=", "properties": {"@spider": "usps_collection_boxes", "addr:city": "BURLEY", "addr:country": "US", "addr:full": "1359 ALBION AVE", "addr:postcode": "83318", "addr:state": "ID", "amenity": "post_box", "brand": "United States Postal Service", "brand:wikidata": "Q668687", "collection_times": "Mo-Sa 15:55", "name": "USPS COLLECTION BOX - BLUE BOX", "note": "ON 12/24 AND 12/31, THIS BOX MAY BE COLLECTED AS EARLY AS 12 NOON.", "nsi_id": "unitedstatespostalservice-a77078", "operator": "United States Postal Service", "operator:short": "USPS", "operator:type": "public", "operator:wikidata": "Q668687", "ref": "8331800005"}, "type": "Feature"}
{"dataset_attributes": {"@spider": "usps_collection_boxes", "spider:collection_time": "2023-12-31T08:23:44.423400"}, "geometry": {"coordinates": [-113.792992, 42.53581], "type": "Point"}, "id": "Wj36sDW_TvKLUGAfPLm0jUJSH2I=", "properties": {"@spider": "usps_collection_boxes", "addr:city": "BURLEY", "addr:country": "US", "addr:full": "1353 OVERLAND AVE", "addr:postcode": "83318", "addr:state": "ID", "amenity": "post_box", "brand": "United States Postal Service", "brand:wikidata": "Q668687", "collection_times": "Mo-Fr 16:30; Sa 16:15", "name": "USPS COLLECTION BOX - PO LOBBY", "note": "ON 12/24 AND 12/31, THIS BOX MAY BE COLLECTED AS EARLY AS 12 NOON.", "nsi_id": "unitedstatespostalservice-a77078", "operator": "United States Postal Service", "operator:short": "USPS", "operator:type": "public", "operator:wikidata": "Q668687", "ref": "8331800010"}, "type": "Feature"}
{"dataset_attributes": {"@spider": "usps_collection_boxes", "spider:collection_time": "2023-12-31T08:23:44.423400"}, "geometry": {"coordinates": [-113.793076, 42.535763], "type": "Point"}, "id": "gjiQ_Piic5zKDn61b8krAHMbTgY=", "properties": {"@spider": "usps_collection_boxes", "addr:city": "BURLEY", "addr:country": "US", "addr:full": "1353 OVERLAND AVE", "addr:postcode": "83318", "addr:state": "ID", "amenity": "post_box", "brand": "United States Postal Service", "brand:wikidata": "Q668687", "collection_times": "Mo-Fr 16:30; Sa 16:15", "name": "USPS COLLECTION BOX - PO LOBBY", "note": "ON 12/24 AND 12/31, THIS BOX MAY BE COLLECTED AS EARLY AS 12 NOON.", "nsi_id": "unitedstatespostalservice-a77078", "operator": "United States Postal Service", "operator:short": "USPS", "operator:type": "public", "operator:wikidata": "Q668687", "ref": "8331800014"}, "type": "Feature"}
{"dataset_attributes": {"@spider": "usps_collection_boxes", "spider:collection_time": "2023-12-31T08:23:44.423400"}, "geometry": {"coordinates": [-113.793018, 42.535794], "type": "Point"}, "id": "FJSd5cwwuwIW3xD1fUWBNiqBWUE=", "properties": {"@spider": "usps_collection_boxes", "addr:city": "BURLEY", "addr:country": "US", "addr:full": "1353 OVERLAND AVE", "addr:postcode": "83318", "addr:state": "ID", "amenity": "post_box", "brand": "United States Postal Service", "brand:wikidata": "Q668687", "collection_times": "Mo-Fr 16:30; Sa 16:15", "name": "USPS COLLECTION BOX - PO LOBBY", "note": "ON 12/24 AND 12/31, THIS BOX MAY BE COLLECTED AS EARLY AS 12 NOON.", "nsi_id": "unitedstatespostalservice-a77078", "operator": "United States Postal Service", "operator:short": "USPS", "operator:type": "public", "operator:wikidata": "Q668687", "ref": "8331800015"}, "type": "Feature"}
{"dataset_attributes": {"@spider": "usps_collection_boxes", "spider:collection_time": "2023-12-31T08:23:44.423400"}, "geometry": {"coordinates": [-113.793256667, 42.535746251], "type": "Point"}, "id": "CBgz1tgp13nrIkRqskuOWtZFVvw=", "properties": {"@spider": "usps_collection_boxes", "addr:city": "BURLEY", "addr:country": "US", "addr:full": "1353 OVERLAND AVE", "addr:postcode": "83318", "addr:state": "ID", "amenity": "post_box", "brand": "United States Postal Service", "brand:wikidata": "Q668687", "collection_times": "Mo-Fr 16:30; Sa 16:15", "name": "USPS COLLECTION BOX - PO LOBBY", "note": "ON 12/24 AND 12/31, THIS BOX MAY BE COLLECTED AS EARLY AS 12 NOON.", "nsi_id": "unitedstatespostalservice-a77078", "operator": "United States Postal Service", "operator:short": "USPS", "operator:type": "public", "operator:wikidata": "Q668687", "ref": "8331800016"}, "type": "Feature"}
{"dataset_attributes": {"@spider": "usps_collection_boxes", "spider:collection_time": "2023-12-31T08:23:44.423400"}, "geometry": {"coordinates": [-113.945573, 43.310593], "type": "Point"}, "id": "CLnpeXrSUA_BGqHEzWP5-D4HAvI=", "properties": {"@spider": "usps_collection_boxes", "addr:city": "CAREY", "addr:country": "US", "addr:full": "20492 N MAIN ST", "addr:postcode": "83320", "addr:state": "ID", "amenity": "post_box", "brand": "United States Postal Service", "brand:wikidata": "Q668687", "collection_times": "Mo-Fr 13:30; Sa 08:30", "name": "USPS COLLECTION BOX - BLUE BOX", "note": "ON 12/24 AND 12/31, THIS BOX MAY BE COLLECTED AS EARLY AS 12 NOON.", "nsi_id": "unitedstatespostalservice-a77078", "operator": "United States Postal Service", "operator:short": "USPS", "operator:type": "public", "operator:wikidata": "Q668687", "ref": "8332000000"}, "type": "Feature"}
{"dataset_attributes": {"@spider": "usps_collection_boxes", "spider:collection_time": "2023-12-31T08:23:44.423400"}, "geometry": {"coordinates": [-113.945832, 43.310589], "type": "Point"}, "id": "I7A0VFNM9Wwp5c9N9Ml5Z5u768U=", "properties": {"@spider": "usps_collection_boxes", "addr:city": "CAREY", "addr:country": "US", "addr:full": "20492 N MAIN ST", "addr:postcode": "83320", "addr:state": "ID", "amenity": "post_box", "brand": "United States Postal Service", "brand:wikidata": "Q668687", "collection_times": "Mo-Fr 11:45; Sa 08:30", "name": "USPS COLLECTION BOX - PO LOBBY", "nsi_id": "unitedstatespostalservice-a77078", "operator": "United States Postal Service", "operator:short": "USPS", "operator:type": "public", "operator:wikidata": "Q668687", "ref": "8332000001"}, "type": "Feature"}
{"dataset_attributes": {"@spider": "usps_collection_boxes", "spider:collection_time": "2023-12-31T08:23:44.423400"}, "geometry": {"coordinates": [-113.945835696, 43.310582528], "type": "Point"}, "id": "FfiCEvd-wNHyshDz-_9aMqtzqiE=", "properties": {"@spider": "usps_collection_boxes", "addr:city": "CAREY", "addr:country": "US", "addr:full": "20492 N MAIN ST", "addr:postcode": "83320", "addr:state": "ID", "amenity": "post_box", "brand": "United States Postal Service", "brand:wikidata": "Q668687", "collection_times": "Mo-Fr 11:45", "name": "USPS COLLECTION BOX - PO LOBBY", "nsi_id": "unitedstatespostalservice-a77078", "operator": "United States Postal Service", "operator:short": "USPS", "operator:type": "public", "operator:wikidata": "Q668687", "ref": "8332000002"}, "type": "Feature"}
{"dataset_attributes": {"@spider": "usps_collection_boxes", "spider:collection_time": "2023-12-31T08:23:44.423400"}, "geometry": {"coordinates": [-114.872301, 42.520612], "type": "Point"}, "id": "ikF9Yf78xdLvyRVXPxIwUjdBIJI=", "properties": {"@spider": "usps_collection_boxes", "addr:city": "CASTLEFORD", "addr:country": "US", "addr:full": "357 MAIN ST", "addr:postcode": "83321", "addr:state": "ID", "amenity": "post_box", "brand": "United States Postal Service", "brand:wikidata": "Q668687", "collection_times": "Mo-Fr 16:00; Sa 09:00", "name": "USPS COLLECTION BOX - BLUE BOX", "note": "ON 12/24 AND 12/31, THIS BOX MAY BE COLLECTED AS EARLY AS 12 NOON.", "nsi_id": "unitedstatespostalservice-a77078", "operator": "United States Postal Service", "operator:short": "USPS", "operator:type": "public", "operator:wikidata": "Q668687", "ref": "8332100000"}, "type": "Feature"}
{"dataset_attributes": {"@spider": "usps_collection_boxes", "spider:collection_time": "2023-12-31T08:23:44.423400"}, "geometry": {"coordinates": [-114.872301, 42.520612], "type": "Point"}, "id": "SW0vqm3RTjiX_7O-xNevf3qrfEE=", "properties": {"@spider": "usps_collection_boxes", "addr:city": "CASTLEFORD", "addr:country": "US", "addr:full": "357 MAIN ST", "addr:postcode": "83321", "addr:state": "ID", "amenity": "post_box", "brand": "United States Postal Service", "brand:wikidata": "Q668687", "collection_times": "Mo-Fr 11:45; Sa 09:00", "name": "USPS COLLECTION BOX - PO LOBBY", "nsi_id": "unitedstatespostalservice-a77078", "operator": "United States Postal Service", "operator:short": "USPS", "operator:type": "public", "operator:wikidata": "Q668687", "ref": "8332100001"}, "type": "Feature"}
{"dataset_attributes": {"@spider": "usps_collection_boxes", "spider:collection_time": "2023-12-31T08:23:44.423400"}, "geometry": {"coordinates": [-114.872382084, 42.52058447], "type": "Point"}, "id": "fUNmIdmM5kucW5fp3evsn_oKbzY=", "properties": {"@spider": "usps_collection_boxes", "addr:city": "CASTLEFORD", "addr:country": "US", "addr:full": "357 MAIN ST", "addr:postcode": "83321", "addr:state": "ID", "amenity": "post_box", "brand": "United States Postal Service", "brand:wikidata": "Q668687", "collection_times": "Mo-Fr 11:45", "name": "USPS COLLECTION BOX - PO LOBBY", "nsi_id": "unitedstatespostalservice-a77078", "operator": "United States Postal Service", "operator:short": "USPS", "operator:type": "public", "operator:wikidata": "Q668687", "ref": "8332100002"}, "type": "Feature"}
{"dataset_attributes": {"@spider": "usps_collection_boxes", "spider:collection_time": "2023-12-31T08:23:44.423400"}, "geometry": {"coordinates": [-113.628719, 42.51806], "type": "Point"}, "id": "VoG1yMsQDVimTZMb4yq3nm3QFyk=", "properties": {"@spider": "usps_collection_boxes", "addr:city": "DECLO", "addr:country": "US", "addr:full": "17 W MAIN ST", "addr:postcode": "83323", "addr:state": "ID", "amenity": "post_box", "brand": "United States Postal Service", "brand:wikidata": "Q668687", "collection_times": "Mo-Fr 15:45; Sa 11:00", "name": "USPS COLLECTION BOX - BLUE BOX", "note": "ON 12/24 AND 12/31, THIS BOX MAY BE COLLECTED AS EARLY AS 12 NOON.", "nsi_id": "unitedstatespostalservice-a77078", "operator": "United States Postal Service", "operator:short": "USPS", "operator:type": "public", "operator:wikidata": "Q668687", "ref": "8332300000"}, "type": "Feature"}
{"dataset_attributes": {"@spider": "usps_collection_boxes", "spider:collection_time": "2023-12-31T08:23:44.423400"}, "geometry": {"coordinates": [-113.628287, 42.518132], "type": "Point"}, "id": "_Zk20F6dqpnd3Egh3stCWoWtnb0=", "properties": {"@spider": "usps_collection_boxes", "addr:city": "DECLO", "addr:country": "US", "addr:full": "17 W MAIN ST", "addr:postcode": "83323", "addr:state": "ID", "amenity": "post_box", "brand": "United States Postal Service", "brand:wikidata": "Q668687", "collection_times": "Mo-Fr 12:45; Sa 09:00", "name": "USPS COLLECTION BOX - PO LOBBY", "note": "ON 12/24 AND 12/31, THIS BOX MAY BE COLLECTED AS EARLY AS 12 NOON.", "nsi_id": "unitedstatespostalservice-a77078", "operator": "United States Postal Service", "operator:short": "USPS", "operator:type": "public", "operator:wikidata": "Q668687", "ref": "8332300001"}, "type": "Feature"}
{"dataset_attributes": {"@spider": "usps_collection_boxes", "spider:collection_time": "2023-12-31T08:23:44.423400"}, "geometry": {"coordinates": [-113.628342816, 42.518046471], "type": "Point"}, "id": "tBGIp4xESIaL1t0rBRs_6YWEVKE=", "properties": {"@spider": "usps_collection_boxes", "addr:city": "DECLO", "addr:country": "US", "addr:full": "17 W MAIN ST", "addr:postcode": "83323", "addr:state": "ID", "amenity": "post_box", "brand": "United States Postal Service", "brand:wikidata": "Q668687", "collection_times": "Mo-Fr 12:45; Sa 09:00", "name": "USPS COLLECTION BOX - PO LOBBY", "note": "ON 12/24 AND 12/31, THIS BOX MAY BE COLLECTED AS EARLY AS 12 NOON.", "nsi_id": "unitedstatespostalservice-a77078", "operator": "United States Postal Service", "operator:short": "USPS", "operator:type": "public", "operator:wikidata": "Q668687", "ref": "8332300002"}, "type": "Feature"}
{"dataset_attributes": {"@spider": "usps_collection_boxes", "spider:collection_time": "2023-12-31T08:23:44.423400"}, "geometry": {"coordinates": [-114.206356, 42.60562], "type": "Point"}, "id": "NOUgcSrcMClWHvuYuU5B_FH3YDE=", "properties": {"@spider": "usps_collection_boxes", "addr:city": "EDEN", "addr:country": "US", "addr:full": "220 WILSON ST E", "addr:postcode": "83325", "addr:state": "ID", "amenity": "post_box", "brand": "United States Postal Service", "brand:wikidata": "Q668687", "collection_times": "Mo-Sa 16:20", "name": "USPS COLLECTION BOX - BLUE BOX", "note": "ON 12/24 AND 12/31, THIS BOX MAY BE COLLECTED AS EARLY AS 12 NOON.", "nsi_id": "unitedstatespostalservice-a77078", "operator": "United States Postal Service", "operator:short": "USPS", "operator:type": "public", "operator:wikidata": "Q668687", "ref": "8332500000"}, "type": "Feature"}
{"dataset_attributes": {"@spider": "usps_collection_boxes", "spider:collection_time": "2023-12-31T08:23:44.423400"}, "geometry": {"coordinates": [-114.20631, 42.605587], "type": "Point"}, "id": "vvrq9yRIGmnay0c2_jRy31EJYDY=", "properties": {"@spider": "usps_collection_boxes", "addr:city": "EDEN", "addr:country": "US", "addr:full": "220 WILSON ST E", "addr:postcode": "83325", "addr:state": "ID", "amenity": "post_box", "brand": "United States Postal Service", "brand:wikidata": "Q668687", "collection_times": "Mo-Fr 11:45; Sa 09:00", "name": "USPS COLLECTION BOX - PO LOBBY", "nsi_id": "unitedstatespostalservice-a77078", "operator": "United States Postal Service", "operator:short": "USPS", "operator:type": "public", "operator:wikidata": "Q668687", "ref": "8332500001"}, "type": "Feature"}
{"dataset_attributes": {"@spider": "usps_collection_boxes", "spider:collection_time": "2023-12-31T08:23:44.423400"}, "geometry": {"coordinates": [-114.208863765, 42.605690638], "type": "Point"}, "id": "T3QjQ5aeIdWKzkG7-H4w4Kgrt1k=", "properties": {"@spider": "usps_collection_boxes", "addr:city": "EDEN", "addr:country": "US", "addr:full": "220 WILSON ST E", "addr:postcode": "83325", "addr:state": "ID", "amenity": "post_box", "brand": "United States Postal Service", "brand:wikidata": "Q668687", "collection_times": "Mo-Fr 11:45", "name": "USPS COLLECTION BOX - PO LOBBY", "nsi_id": "unitedstatespostalservice-a77078", "operator": "United States Postal Service", "operator:short": "USPS", "operator:type": "public", "operator:wikidata": "Q668687", "ref": "8332500004"}, "type": "Feature"}
{"dataset_attributes": {"@spider": "usps_collection_boxes", "spider:collection_time": "2023-12-31T08:23:44.423400"}, "geometry": {"coordinates": [-114.791972, 43.34639], "type": "Point"}, "id": "TPxdLkYJeMPOExtpSJIJkaTvidk=", "properties": {"@spider": "usps_collection_boxes", "addr:city": "FAIRFIELD", "addr:country": "US", "addr:full": "518 SOLDIER RD", "addr:postcode": "83327", "addr:state": "ID", "amenity": "post_box", "brand": "United States Postal Service", "brand:wikidata": "Q668687", "collection_times": "Mo-Fr 15:00; Sa 13:15", "name": "USPS COLLECTION BOX - BLUE BOX", "note": "ON 12/24 AND 12/31, THIS BOX MAY BE COLLECTED AS EARLY AS 12 NOON.", "nsi_id": "unitedstatespostalservice-a77078", "operator": "United States Postal Service", "operator:short": "USPS", "operator:type": "public", "operator:wikidata": "Q668687", "ref": "8332700000"}, "type": "Feature"}
{"dataset_attributes": {"@spider": "usps_collection_boxes", "spider:collection_time": "2023-12-31T08:23:44.423400"}, "geometry": {"coordinates": [-114.791972, 43.34639], "type": "Point"}, "id": "suZeOk83N54x36ZLnwKqV8JiKbg=", "properties": {"@spider": "usps_collection_boxes", "addr:city": "FAIRFIELD", "addr:country": "US", "addr:full": "518 SOLDIER RD", "addr:postcode": "83327", "addr:state": "ID", "amenity": "post_box", "brand": "United States Postal Service", "brand:wikidata": "Q668687", "collection_times": "Mo-Fr 15:00; Sa 09:15", "name": "USPS COLLECTION BOX - PO LOBBY", "note": "ON 12/24 AND 12/31, THIS BOX MAY BE COLLECTED AS EARLY AS 12 NOON.", "nsi_id": "unitedstatespostalservice-a77078", "operator": "United States Postal Service", "operator:short": "USPS", "operator:type": "public", "operator:wikidata": "Q668687", "ref": "8332700001"}, "type": "Feature"}
{"dataset_attributes": {"@spider": "usps_collection_boxes", "spider:collection_time": "2023-12-31T08:23:44.423400"}, "geometry": {"coordinates": [-114.791975715, 43.346382412], "type": "Point"}, "id": "DgsTMnxnVlnd4Xb3Ev9je7F-MTk=", "properties": {"@spider": "usps_collection_boxes", "addr:city": "FAIRFIELD", "addr:country": "US", "addr:full": "518 SOLDIER RD", "addr:postcode": "83327", "addr:state": "ID", "amenity": "post_box", "brand": "United States Postal Service", "brand:wikidata": "Q668687", "collection_times": "Mo-Fr 15:00", "name": "USPS COLLECTION BOX - PO LOBBY", "note": "ON 12/24 AND 12/31, THIS BOX MAY BE COLLECTED AS EARLY AS 12 NOON.", "nsi_id": "unitedstatespostalservice-a77078", "operator": "United States Postal Service", "operator:short": "USPS", "operator:type": "public", "operator:wikidata": "Q668687", "ref": "8332700002"}, "type": "Feature"}
{"dataset_attributes": {"@spider": "usps_collection_boxes", "spider:collection_time": "2023-12-31T08:23:44.423400"}, "geometry": {"coordinates": [-114.609776, 42.570025], "type": "Point"}, "id": "MXIsNZYhgcvkfxrh7NPfhkM2ni8=", "properties": {"@spider": "usps_collection_boxes", "addr:city": "FILER", "addr:country": "US", "addr:full": "413 MAIN ST", "addr:postcode": "83328", "addr:state": "ID", "amenity": "post_box", "brand": "United States Postal Service", "brand:wikidata": "Q668687", "collection_times": "Mo-Fr 16:30; Sa 13:00", "name": "USPS COLLECTION BOX - PO LOBBY", "note": "ON 12/24 AND 12/31, THIS BOX MAY BE COLLECTED AS EARLY AS 12 NOON.", "nsi_id": "unitedstatespostalservice-a77078", "operator": "United States Postal Service", "operator:short": "USPS", "operator:type": "public", "operator:wikidata": "Q668687", "ref": "8332800001"}, "type": "Feature"}
{"dataset_attributes": {"@spider": "usps_collection_boxes", "spider:collection_time": "2023-12-31T08:23:44.423400"}, "geometry": {"coordinates": [-114.604957, 42.564104], "type": "Point"}, "id": "PgwQg7Zkhxeh7ok5MRRPTPN8MUo=", "properties": {"@spider": "usps_collection_boxes", "addr:city": "FILER", "addr:country": "US", "addr:full": "130 HIGHWAY 30", "addr:postcode": "83328", "addr:state": "ID", "amenity": "post_box", "brand": "United States Postal Service", "brand:wikidata": "Q668687", "collection_times": "Mo-Sa 13:00", "name": "USPS COLLECTION BOX - BLUE BOX", "note": "ON 12/24 AND 12/31, THIS BOX MAY BE COLLECTED AS EARLY AS 12 NOON.", "nsi_id": "unitedstatespostalservice-a77078", "operator": "United States Postal Service", "operator:short": "USPS", "operator:type": "public", "operator:wikidata": "Q668687", "ref": "8332800002"}, "type": "Feature"}
{"dataset_attributes": {"@spider": "usps_collection_boxes", "spider:collection_time": "2023-12-31T08:23:44.423400"}, "geometry": {"coordinates": [-114.609843, 42.570184507], "type": "Point"}, "id": "FMeh1EGuaPE26zqaSIXxWn0lysE=", "properties": {"@spider": "usps_collection_boxes", "addr:city": "FILER", "addr:country": "US", "addr:full": "413 MAIN ST", "addr:postcode": "83328", "addr:state": "ID", "amenity": "post_box", "brand": "United States Postal Service", "brand:wikidata": "Q668687", "collection_times": "Mo-Fr 16:30", "name": "USPS COLLECTION BOX - PO LOBBY", "note": "ON 12/24 AND 12/31, THIS BOX MAY BE COLLECTED AS EARLY AS 12 NOON.", "nsi_id": "unitedstatespostalservice-a77078", "operator": "United States Postal Service", "operator:short": "USPS", "operator:type": "public", "operator:wikidata": "Q668687", "ref": "8332800003"}, "type": "Feature"}
{"dataset_attributes": {"@spider": "usps_collection_boxes", "spider:collection_time": "2023-12-31T08:23:44.423400"}, "geometry": {"coordinates": [-114.711434, 42.942716], "type": "Point"}, "id": "8_hpxZdMG9-kaOw-84EzvUJkYLA=", "properties": {"@spider": "usps_collection_boxes", "addr:city": "GOODING", "addr:country": "US", "addr:full": "201 3RD AVE E", "addr:postcode": "83330", "addr:state": "ID", "amenity": "post_box", "brand": "United States Postal Service", "brand:wikidata": "Q668687", "collection_times": "Mo-Sa 16:00", "name": "USPS COLLECTION BOX - BLUE BOX", "note": "ON 12/24 AND 12/31, THIS BOX MAY BE COLLECTED AS EARLY AS 12 NOON.", "nsi_id": "unitedstatespostalservice-a77078", "operator": "United States Postal Service", "operator:short": "USPS", "operator:type": "public", "operator:wikidata": "Q668687", "ref": "8333000000"}, "type": "Feature"}
{"dataset_attributes": {"@spider": "usps_collection_boxes", "spider:collection_time": "2023-12-31T08:23:44.423400"}, "geometry": {"coordinates": [-114.711557, 42.942743], "type": "Point"}, "id": "wLBY0wA989xAr4dXt6rtONZFdFM=", "properties": {"@spider": "usps_collection_boxes", "addr:city": "GOODING", "addr:country": "US", "addr:full": "201 3RD AVE E", "addr:postcode": "83330", "addr:state": "ID", "amenity": "post_box", "brand": "United States Postal Service", "brand:wikidata": "Q668687", "collection_times": "Mo-Sa 16:00", "name": "USPS COLLECTION BOX - PO LOBBY", "note": "ON 12/24 AND 12/31, THIS BOX MAY BE COLLECTED AS EARLY AS 12 NOON.", "nsi_id": "unitedstatespostalservice-a77078", "operator": "United States Postal Service", "operator:short": "USPS", "operator:type": "public", "operator:wikidata": "Q668687", "ref": "8333000001"}, "type": "Feature"}
{"dataset_attributes": {"@spider": "usps_collection_boxes", "spider:collection_time": "2023-12-31T08:23:44.423400"}, "geometry": {"coordinates": [-114.711353, 42.942525], "type": "Point"}, "id": "_hNBvgwh_QOG-QS8J_iLF58kmhI=", "properties": {"@spider": "usps_collection_boxes", "addr:city": "GOODING", "addr:country": "US", "addr:full": "201 3RD AVE E", "addr:postcode": "83330", "addr:state": "ID", "amenity": "post_box", "brand": "United States Postal Service", "brand:wikidata": "Q668687", "collection_times": "Mo-Sa 16:00", "name": "USPS COLLECTION BOX - BLUE BOX", "note": "ON 12/24 AND 12/31, THIS BOX MAY BE COLLECTED AS EARLY AS 12 NOON.", "nsi_id": "unitedstatespostalservice-a77078", "operator": "United States Postal Service", "operator:short": "USPS", "operator:type": "public", "operator:wikidata": "Q668687", "ref": "8333000002"}, "type": "Feature"}
{"dataset_attributes": {"@spider": "usps_collection_boxes", "spider:collection_time": "2023-12-31T08:23:44.423400"}, "geometry": {"coordinates": [-114.711223668, 42.942718521], "type": "Point"}, "id": "mvLYs2cOthzszAhlJGO32pScZOo=", "properties": {"@spider": "usps_collection_boxes", "addr:city": "GOODING", "addr:country": "US", "addr:full": "201 3RD AVE E", "addr:postcode": "83330", "addr:state": "ID", "amenity": "post_box", "brand": "United States Postal Service", "brand:wikidata": "Q668687", "collection_times": "Mo-Fr 16:00", "name": "USPS COLLECTION BOX - PO LOBBY", "note": "ON 12/24 AND 12/31, THIS BOX MAY BE COLLECTED AS EARLY AS 12 NOON.", "nsi_id": "unitedstatespostalservice-a77078", "operator": "United States Postal Service", "operator:short": "USPS", "operator:type": "public", "operator:wikidata": "Q668687", "ref": "8333000003"}, "type": "Feature"}
{"dataset_attributes": {"@spider": "usps_collection_boxes", "spider:collection_time": "2023-12-31T08:23:44.423400"}, "geometry": {"coordinates": [-114.8985714316, 42.819489], "type": "Point"}, "id": "rZ1nsYKBQ1INYe_sD7MImygXUNE=", "properties": {"@spider": "usps_collection_boxes", "addr:city": "HAGERMAN", "addr:country": "US", "addr:full": "444 N STATE ST", "addr:postcode": "83332", "addr:state": "ID", "amenity": "post_box", "brand": "United States Postal Service", "brand:wikidata": "Q668687", "collection_times": "Mo-Fr 15:25; Sa 15:15", "name": "USPS COLLECTION BOX - BLUE BOX", "note": "ON 12/24 AND 12/31, THIS BOX MAY BE COLLECTED AS EARLY AS 12 NOON.", "nsi_id": "unitedstatespostalservice-a77078", "operator": "United States Postal Service", "operator:short": "USPS", "operator:type": "public", "operator:wikidata": "Q668687", "ref": "8333200000"}, "type": "Feature"}
{"dataset_attributes": {"@spider": "usps_collection_boxes", "spider:collection_time": "2023-12-31T08:23:44.423400"}, "geometry": {"coordinates": [-114.898825, 42.819596], "type": "Point"}, "id": "WECzIY8khCaoQLcn_jTIGSLTiGE=", "properties": {"@spider": "usps_collection_boxes", "addr:city": "HAGERMAN", "addr:country": "US", "addr:full": "444 N STATE ST", "addr:postcode": "83332", "addr:state": "ID", "amenity": "post_box", "brand": "United States Postal Service", "brand:wikidata": "Q668687", "collection_times": "Mo-Fr 15:25; Sa 10:30", "name": "USPS COLLECTION BOX - PO LOBBY", "note": "ON 12/24 AND 12/31, THIS BOX MAY BE COLLECTED AS EARLY AS 12 NOON.", "nsi_id": "unitedstatespostalservice-a77078", "operator": "United States Postal Service", "operator:short": "USPS", "operator:type": "public", "operator:wikidata": "Q668687", "ref": "8333200001"}, "type": "Feature"}
{"dataset_attributes": {"@spider": "usps_collection_boxes", "spider:collection_time": "2023-12-31T08:23:44.423400"}, "geometry": {"coordinates": [-114.898571432, 42.819489], "type": "Point"}, "id": "9Var_24JD9yGcHkGo5BF18ua4eI=", "properties": {"@spider": "usps_collection_boxes", "addr:city": "HAGERMAN", "addr:country": "US", "addr:full": "444 N STATE ST", "addr:postcode": "83332", "addr:state": "ID", "amenity": "post_box", "brand": "United States Postal Service", "brand:wikidata": "Q668687", "collection_times": "Mo-Fr 15:15", "name": "USPS COLLECTION BOX - PO LOBBY", "note": "ON 12/24 AND 12/31, THIS BOX MAY BE COLLECTED AS EARLY AS 12 NOON.", "nsi_id": "unitedstatespostalservice-a77078", "operator": "United States Postal Service", "operator:short": "USPS", "operator:type": "public", "operator:wikidata": "Q668687", "ref": "8333200002"}, "type": "Feature"}
{"dataset_attributes": {"@spider": "usps_collection_boxes", "spider:collection_time": "2023-12-31T08:23:44.423400"}, "geometry": {"coordinates": [-114.315235, 43.518612], "type": "Point"}, "id": "4CGEOhVoIvHUtO5Z1laiD7P4iU0=", "properties": {"@spider": "usps_collection_boxes", "addr:city": "HAILEY", "addr:country": "US", "addr:full": "7 W CROY ST", "addr:postcode": "83333", "addr:state": "ID", "amenity": "post_box", "brand": "United States Postal Service", "brand:wikidata": "Q668687", "collection_times": "Mo-Fr 14:00; Sa 12:15", "name": "USPS COLLECTION BOX - BLUE BOX", "note": "ON 12/24 AND 12/31, THIS BOX MAY BE COLLECTED AS EARLY AS 12 NOON.", "nsi_id": "unitedstatespostalservice-a77078", "operator": "United States Postal Service", "operator:short": "USPS", "operator:type": "public", "operator:wikidata": "Q668687", "ref": "8333300000"}, "type": "Feature"}
{"dataset_attributes": {"@spider": "usps_collection_boxes", "spider:collection_time": "2023-12-31T08:23:44.423400"}, "geometry": {"coordinates": [-114.308332, 43.512673], "type": "Point"}, "id": "_FrS_grKTHwfAc_Oya8xzQuvn3A=", "properties": {"@spider": "usps_collection_boxes", "addr:city": "HAILEY", "addr:country": "US", "addr:full": "820 S MAIN ST", "addr:postcode": "83333", "addr:state": "ID", "amenity": "post_box", "brand": "United States Postal Service", "brand:wikidata": "Q668687", "collection_times": "Mo-Fr 15:45; Sa 13:00", "name": "USPS COLLECTION BOX - PO LOBBY", "note": "ON 12/24 AND 12/31, THIS BOX MAY BE COLLECTED AS EARLY AS 12 NOON.", "nsi_id": "unitedstatespostalservice-a77078", "operator": "United States Postal Service", "operator:short": "USPS", "operator:type": "public", "operator:wikidata": "Q668687", "ref": "8333300002"}, "type": "Feature"}
{"dataset_attributes": {"@spider": "usps_collection_boxes", "spider:collection_time": "2023-12-31T08:23:44.423400"}, "geometry": {"coordinates": [-114.313481, 43.51945], "type": "Point"}, "id": "qLPnxPGT6X_l1T426g3erqX8LH0=", "properties": {"@spider": "usps_collection_boxes", "addr:city": "HAILEY", "addr:country": "US", "addr:full": "93 E CROY ST", "addr:postcode": "83333", "addr:state": "ID", "amenity": "post_box", "brand": "United States Postal Service", "brand:wikidata": "Q668687", "collection_times": "Mo-Fr 11:30; Sa 10:30", "name": "USPS COLLECTION BOX - BLUE BOX", "nsi_id": "unitedstatespostalservice-a77078", "operator": "United States Postal Service", "operator:short": "USPS", "operator:type": "public", "operator:wikidata": "Q668687", "ref": "8333300004"}, "type": "Feature"}
{"dataset_attributes": {"@spider": "usps_collection_boxes", "spider:collection_time": "2023-12-31T08:23:44.423400"}, "geometry": {"coordinates": [-114.308409, 43.512694], "type": "Point"}, "id": "eslIWfmwNpLoiAq3HiCHbm1IhSw=", "properties": {"@spider": "usps_collection_boxes", "addr:city": "HAILEY", "addr:country": "US", "addr:full": "820 S MAIN ST", "addr:postcode": "83333", "addr:state": "ID", "amenity": "post_box", "brand": "United States Postal Service", "brand:wikidata": "Q668687", "collection_times": "Mo-Fr 15:45; Sa 15:30", "name": "USPS COLLECTION BOX - BLUE BOX", "note": "ON 12/24 AND 12/31, THIS BOX MAY BE COLLECTED AS EARLY AS 12 NOON.", "nsi_id": "unitedstatespostalservice-a77078", "operator": "United States Postal Service", "operator:short": "USPS", "operator:type": "public", "operator:wikidata": "Q668687", "ref": "8333300008"}, "type": "Feature"}
{"dataset_attributes": {"@spider": "usps_collection_boxes", "spider:collection_time": "2023-12-31T08:23:44.423400"}, "geometry": {"coordinates": [-114.321863, 43.52779], "type": "Point"}, "id": "9y31qAnq7mtzY-VgSJ3y89vZu_4=", "properties": {"@spider": "usps_collection_boxes", "addr:city": "HAILEY", "addr:country": "US", "addr:full": "911 N MAIN ST", "addr:postcode": "83333", "addr:state": "ID", "amenity": "post_box", "brand": "United States Postal Service", "brand:wikidata": "Q668687", "collection_times": "Mo-Fr 12:30; Sa 11:30", "name": "USPS COLLECTION BOX - BLUE BOX", "note": "ON 12/24 AND 12/31, THIS BOX MAY BE COLLECTED AS EARLY AS 12 NOON.", "nsi_id": "unitedstatespostalservice-a77078", "operator": "United States Postal Service", "operator:short": "USPS", "operator:type": "public", "operator:wikidata": "Q668687", "ref": "8333300013"}, "type": "Feature"}
{"dataset_attributes": {"@spider": "usps_collection_boxes", "spider:collection_time": "2023-12-31T08:23:44.423400"}, "geometry": {"coordinates": [-114.308579122, 43.512644542], "type": "Point"}, "id": "AVx84ZVbsQFP3mTk_IoGJABDtgM=", "properties": {"@spider": "usps_collection_boxes", "addr:city": "HAILEY", "addr:country": "US", "addr:full": "820 S MAIN ST", "addr:postcode": "83333", "addr:state": "ID", "amenity": "post_box", "brand": "United States Postal Service", "brand:wikidata": "Q668687", "collection_times": "Mo-Fr 15:45; Sa 13:00", "name": "USPS COLLECTION BOX - PO LOBBY", "note": "ON 12/24 AND 12/31, THIS BOX MAY BE COLLECTED AS EARLY AS 12 NOON.", "nsi_id": "unitedstatespostalservice-a77078", "operator": "United States Postal Service", "operator:short": "USPS", "operator:type": "public", "operator:wikidata": "Q668687", "ref": "8333300014"}, "type": "Feature"}
{"dataset_attributes": {"@spider": "usps_collection_boxes", "spider:collection_time": "2023-12-31T08:23:44.423400"}, "geometry": {"coordinates": [-114.299823, 42.533324], "type": "Point"}, "id": "AZN6kv-KEcGX7Zh-HbXnaOuDpLA=", "properties": {"@spider": "usps_collection_boxes", "addr:city": "HANSEN", "addr:country": "US", "addr:full": "217 HIGHWAY 30", "addr:postcode": "83334", "addr:state": "ID", "amenity": "post_box", "brand": "United States Postal Service", "brand:wikidata": "Q668687", "collection_times": "Mo-Sa 15:40", "name": "USPS COLLECTION BOX - BLUE BOX", "note": "ON 12/24 AND 12/31, THIS BOX MAY BE COLLECTED AS EARLY AS 12 NOON.", "nsi_id": "unitedstatespostalservice-a77078", "operator": "United States Postal Service", "operator:short": "USPS", "operator:type": "public", "operator:wikidata": "Q668687", "ref": "8333400000"}, "type": "Feature"}
{"dataset_attributes": {"@spider": "usps_collection_boxes", "spider:collection_time": "2023-12-31T08:23:44.423400"}, "geometry": {"coordinates": [-114.299823, 42.533324], "type": "Point"}, "id": "TAya0m0cKMIsFCxb7RFuhx_y2rY=", "properties": {"@spider": "usps_collection_boxes", "addr:city": "HANSEN", "addr:country": "US", "addr:full": "217 HIGHWAY 30", "addr:postcode": "83334", "addr:state": "ID", "amenity": "post_box", "brand": "United States Postal Service", "brand:wikidata": "Q668687", "collection_times": "Mo-Fr 14:30; Sa 09:00", "name": "USPS COLLECTION BOX - PO LOBBY", "note": "ON 12/24 AND 12/31, THIS BOX MAY BE COLLECTED AS EARLY AS 12 NOON.", "nsi_id": "unitedstatespostalservice-a77078", "operator": "United States Postal Service", "operator:short": "USPS", "operator:type": "public", "operator:wikidata": "Q668687", "ref": "8333400001"}, "type": "Feature"}
{"dataset_attributes": {"@spider": "usps_collection_boxes", "spider:collection_time": "2023-12-31T08:23:44.423400"}, "geometry": {"coordinates": [-114.3030866606, 42.5333863463], "type": "Point"}, "id": "MAAYshZukqR6ByghxS6CWVOBriw=", "properties": {"@spider": "usps_collection_boxes", "addr:city": "HANSEN", "addr:country": "US", "addr:full": "217 HIGHWAY 30", "addr:postcode": "83334", "addr:state": "ID", "amenity": "post_box", "brand": "United States Postal Service", "brand:wikidata": "Q668687", "collection_times": "Mo-Fr 14:30", "name": "USPS COLLECTION BOX - PO LOBBY", "note": "ON 12/24 AND 12/31, THIS BOX MAY BE COLLECTED AS EARLY AS 12 NOON.", "nsi_id": "unitedstatespostalservice-a77078", "operator": "United States Postal Service", "operator:short": "USPS", "operator:type": "public", "operator:wikidata": "Q668687", "ref": "8333400003"}, "type": "Feature"}
{"dataset_attributes": {"@spider": "usps_collection_boxes", "spider:collection_time": "2023-12-31T08:23:44.423400"}, "geometry": {"coordinates": [-114.13469, 42.596192], "type": "Point"}, "id": "GxHMfaEjDLunhtj-fABKrJ6H4rM=", "properties": {"@spider": "usps_collection_boxes", "addr:city": "HAZELTON", "addr:country": "US", "addr:full": "360 MAIN ST", "addr:postcode": "83335", "addr:state": "ID", "amenity": "post_box", "brand": "United States Postal Service", "brand:wikidata": "Q668687", "collection_times": "Mo-Sa 16:10", "name": "USPS COLLECTION BOX - BLUE BOX", "note": "ON 12/24 AND 12/31, THIS BOX MAY BE COLLECTED AS EARLY AS 12 NOON.", "nsi_id": "unitedstatespostalservice-a77078", "operator": "United States Postal Service", "operator:short": "USPS", "operator:type": "public", "operator:wikidata": "Q668687", "ref": "8333500000"}, "type": "Feature"}
{"dataset_attributes": {"@spider": "usps_collection_boxes", "spider:collection_time": "2023-12-31T08:23:44.423400"}, "geometry": {"coordinates": [-114.13469, 42.596192], "type": "Point"}, "id": "HKiBRt9EdfjHrBOuwp7Jq8R1BgM=", "properties": {"@spider": "usps_collection_boxes", "addr:city": "HAZELTON", "addr:country": "US", "addr:full": "360 MAIN ST", "addr:postcode": "83335", "addr:state": "ID", "amenity": "post_box", "brand": "United States Postal Service", "brand:wikidata": "Q668687", "collection_times": "Mo-Fr 15:50; Sa 09:00", "name": "USPS COLLECTION BOX - PO LOBBY", "note": "ON 12/24 AND 12/31, THIS BOX MAY BE COLLECTED AS EARLY AS 12 NOON.", "nsi_id": "unitedstatespostalservice-a77078", "operator": "United States Postal Service", "operator:short": "USPS", "operator:type": "public", "operator:wikidata": "Q668687", "ref": "8333500001"}, "type": "Feature"}
{"dataset_attributes": {"@spider": "usps_collection_boxes", "spider:collection_time": "2023-12-31T08:23:44.423400"}, "geometry": {"coordinates": [-114.1346925, 42.596190547], "type": "Point"}, "id": "DuJRG3MWbqUz8IpWEDx1A5Mjasg=", "properties": {"@spider": "usps_collection_boxes", "addr:city": "HAZELTON", "addr:country": "US", "addr:full": "360 MAIN ST", "addr:postcode": "83335", "addr:state": "ID", "amenity": "post_box", "brand": "United States Postal Service", "brand:wikidata": "Q668687", "collection_times": "Mo-Fr 15:45", "name": "USPS COLLECTION BOX - PO LOBBY", "note": "ON 12/24 AND 12/31, THIS BOX MAY BE COLLECTED AS EARLY AS 12 NOON.", "nsi_id": "unitedstatespostalservice-a77078", "operator": "United States Postal Service", "operator:short": "USPS", "operator:type": "public", "operator:wikidata": "Q668687", "ref": "8333500002"}, "type": "Feature"}
{"dataset_attributes": {"@spider": "usps_collection_boxes", "spider:collection_time": "2023-12-31T08:23:44.423400"}, "geometry": {"coordinates": [-113.757149, 42.557838], "type": "Point"}, "id": "GB6plBpwjtSE-9qw-4A05i8-t7U=", "properties": {"@spider": "usps_collection_boxes", "addr:city": "HEYBURN", "addr:country": "US", "addr:full": "1030 17TH ST", "addr:postcode": "83336", "addr:state": "ID", "amenity": "post_box", "brand": "United States Postal Service", "brand:wikidata": "Q668687", "collection_times": "Mo-Fr 16:00; Sa 13:30", "name": "USPS COLLECTION BOX - BLUE BOX", "note": "ON 12/24 AND 12/31, THIS BOX MAY BE COLLECTED AS EARLY AS 12 NOON.", "nsi_id": "unitedstatespostalservice-a77078", "operator": "United States Postal Service", "operator:short": "USPS", "operator:type": "public", "operator:wikidata": "Q668687", "ref": "8333600000"}, "type": "Feature"}
{"dataset_attributes": {"@spider": "usps_collection_boxes", "spider:collection_time": "2023-12-31T08:23:44.423400"}, "geometry": {"coordinates": [-113.757539, 42.557754], "type": "Point"}, "id": "XR9ebm6GG8RQNbMLT0Iz5BxpQlE=", "properties": {"@spider": "usps_collection_boxes", "addr:city": "HEYBURN", "addr:country": "US", "addr:full": "1030 17TH ST", "addr:postcode": "83336", "addr:state": "ID", "amenity": "post_box", "brand": "United States Postal Service", "brand:wikidata": "Q668687", "collection_times": "Mo-Fr 16:00; Sa 13:30", "name": "USPS COLLECTION BOX - PO LOBBY", "note": "ON 12/24 AND 12/31, THIS BOX MAY BE COLLECTED AS EARLY AS 12 NOON.", "nsi_id": "unitedstatespostalservice-a77078", "operator": "United States Postal Service", "operator:short": "USPS", "operator:type": "public", "operator:wikidata": "Q668687", "ref": "8333600001"}, "type": "Feature"}
{"dataset_attributes": {"@spider": "usps_collection_boxes", "spider:collection_time": "2023-12-31T08:23:44.423400"}, "geometry": {"coordinates": [-113.757429, 42.557793], "type": "Point"}, "id": "8fzEuCjbN_CycgQPyImLrQmMprI=", "properties": {"@spider": "usps_collection_boxes", "addr:city": "HEYBURN", "addr:country": "US", "addr:full": "1030 17TH ST", "addr:postcode": "83336", "addr:state": "ID", "amenity": "post_box", "brand": "United States Postal Service", "brand:wikidata": "Q668687", "collection_times": "Mo-Fr 16:00; Sa 13:30", "name": "USPS COLLECTION BOX - PO LOBBY", "note": "ON 12/24 AND 12/31, THIS BOX MAY BE COLLECTED AS EARLY AS 12 NOON.", "nsi_id": "unitedstatespostalservice-a77078", "operator": "United States Postal Service", "operator:short": "USPS", "operator:type": "public", "operator:wikidata": "Q668687", "ref": "8333600003"}, "type": "Feature"}
{"dataset_attributes": {"@spider": "usps_collection_boxes", "spider:collection_time": "2023-12-31T08:23:44.423400"}, "geometry": {"coordinates": [-113.757266774, 42.55743552], "type": "Point"}, "id": "M2uoM7SFNsc3tIpRkcFwfKD6sDs=", "properties": {"@spider": "usps_collection_boxes", "addr:city": "HEYBURN", "addr:country": "US", "addr:full": "1030 17TH ST", "addr:postcode": "83336", "addr:state": "ID", "amenity": "post_box", "brand": "United States Postal Service", "brand:wikidata": "Q668687", "collection_times": "Mo-Fr 16:00; Sa 13:30", "name": "USPS COLLECTION BOX - PO LOBBY", "note": "ON 12/24 AND 12/31, THIS BOX MAY BE COLLECTED AS EARLY AS 12 NOON.", "nsi_id": "unitedstatespostalservice-a77078", "operator": "United States Postal Service", "operator:short": "USPS", "operator:type": "public", "operator:wikidata": "Q668687", "ref": "8333600004"}, "type": "Feature"}
{"dataset_attributes": {"@spider": "usps_collection_boxes", "spider:collection_time": "2023-12-31T08:23:44.423400"}, "geometry": {"coordinates": [-115.050282, 43.300188], "type": "Point"}, "id": "LmwlApYSwQNVusfT0soyyNiu6Ac=", "properties": {"@spider": "usps_collection_boxes", "addr:city": "HILL CITY", "addr:country": "US", "addr:full": "601 MAIN ST", "addr:postcode": "83337", "addr:state": "ID", "amenity": "post_box", "brand": "United States Postal Service", "brand:wikidata": "Q668687", "collection_times": "Mo-Sa 08:30", "name": "USPS COLLECTION BOX - BLUE BOX", "nsi_id": "unitedstatespostalservice-a77078", "operator": "United States Postal Service", "operator:short": "USPS", "operator:type": "public", "operator:wikidata": "Q668687", "ref": "8333700000"}, "type": "Feature"}
{"dataset_attributes": {"@spider": "usps_collection_boxes", "spider:collection_time": "2023-12-31T08:23:44.423400"}, "geometry": {"coordinates": [-114.51705, 42.725146], "type": "Point"}, "id": "IyL7dUlgUrTkyTGYAn8JzqGXjxI=", "properties": {"@spider": "usps_collection_boxes", "addr:city": "JEROME", "addr:country": "US", "addr:full": "154 1ST AVE E", "addr:postcode": "83338", "addr:state": "ID", "amenity": "post_box", "brand": "United States Postal Service", "brand:wikidata": "Q668687", "collection_times": "Mo-Fr 16:45; Sa 16:00", "name": "USPS COLLECTION BOX - BLUE BOX", "note": "ON 12/24 AND 12/31, THIS BOX MAY BE COLLECTED AS EARLY AS 12 NOON.", "nsi_id": "unitedstatespostalservice-a77078", "operator": "United States Postal Service", "operator:short": "USPS", "operator:type": "public", "operator:wikidata": "Q668687", "ref": "8333800005"}, "type": "Feature"}
{"dataset_attributes": {"@spider": "usps_collection_boxes", "spider:collection_time": "2023-12-31T08:23:44.423400"}, "geometry": {"coordinates": [-114.51705, 42.725146], "type": "Point"}, "id": "HpoByQFFiKJj37cdxXLjE8pV2KQ=", "properties": {"@spider": "usps_collection_boxes", "addr:city": "JEROME", "addr:country": "US", "addr:full": "154 1ST AVE E", "addr:postcode": "83338", "addr:state": "ID", "amenity": "post_box", "brand": "United States Postal Service", "brand:wikidata": "Q668687", "collection_times": "Mo-Fr 16:45; Sa 16:00", "name": "USPS COLLECTION BOX - PO LOBBY", "note": "ON 12/24 AND 12/31, THIS BOX MAY BE COLLECTED AS EARLY AS 12 NOON.", "nsi_id": "unitedstatespostalservice-a77078", "operator": "United States Postal Service", "operator:short": "USPS", "operator:type": "public", "operator:wikidata": "Q668687", "ref": "8333800007"}, "type": "Feature"}
{"dataset_attributes": {"@spider": "usps_collection_boxes", "spider:collection_time": "2023-12-31T08:23:44.423400"}, "geometry": {"coordinates": [-114.517424, 42.71439], "type": "Point"}, "id": "eymIHoxPMewDFuREsGhozjsU1sE=", "properties": {"@spider": "usps_collection_boxes", "addr:city": "JEROME", "addr:country": "US", "addr:full": "1016 S LINCOLN AVE", "addr:postcode": "83338", "addr:state": "ID", "amenity": "post_box", "brand": "United States Postal Service", "brand:wikidata": "Q668687", "collection_times": "Mo-Sa 15:15", "name": "USPS COLLECTION BOX - BLUE BOX", "note": "ON 12/24 AND 12/31, THIS BOX MAY BE COLLECTED AS EARLY AS 12 NOON.", "nsi_id": "unitedstatespostalservice-a77078", "operator": "United States Postal Service", "operator:short": "USPS", "operator:type": "public", "operator:wikidata": "Q668687", "ref": "8333800008"}, "type": "Feature"}
{"dataset_attributes": {"@spider": "usps_collection_boxes", "spider:collection_time": "2023-12-31T08:23:44.423400"}, "geometry": {"coordinates": [-114.51705, 42.725146], "type": "Point"}, "id": "2yr8rP9vHhX-NnPKQvm97shzM-M=", "properties": {"@spider": "usps_collection_boxes", "addr:city": "JEROME", "addr:country": "US", "addr:full": "154 1ST AVE E", "addr:postcode": "83338", "addr:state": "ID", "amenity": "post_box", "brand": "United States Postal Service", "brand:wikidata": "Q668687", "collection_times": "Mo-Fr 16:45; Sa 16:00", "name": "USPS COLLECTION BOX - PO LOBBY", "note": "ON 12/24 AND 12/31, THIS BOX MAY BE COLLECTED AS EARLY AS 12 NOON.", "nsi_id": "unitedstatespostalservice-a77078", "operator": "United States Postal Service", "operator:short": "USPS", "operator:type": "public", "operator:wikidata": "Q668687", "ref": "8333800010"}, "type": "Feature"}
{"dataset_attributes": {"@spider": "usps_collection_boxes", "spider:collection_time": "2023-12-31T08:23:44.423400"}, "geometry": {"coordinates": [-114.517044084, 42.725142512], "type": "Point"}, "id": "i7znBTTYTAG9Kk3twf5otX_cQzQ=", "properties": {"@spider": "usps_collection_boxes", "addr:city": "JEROME", "addr:country": "US", "addr:full": "154 1ST AVE E", "addr:postcode": "83338", "addr:state": "ID", "amenity": "post_box", "brand": "United States Postal Service", "brand:wikidata": "Q668687", "collection_times": "Mo-Fr 16:45; Sa 16:00", "name": "USPS COLLECTION BOX - PO LOBBY", "note": "ON 12/24 AND 12/31, THIS BOX MAY BE COLLECTED AS EARLY AS 12 NOON.", "nsi_id": "unitedstatespostalservice-a77078", "operator": "United States Postal Service", "operator:short": "USPS", "operator:type": "public", "operator:wikidata": "Q668687", "ref": "8333800011"}, "type": "Feature"}
{"dataset_attributes": {"@spider": "usps_collection_boxes", "spider:collection_time": "2023-12-31T08:23:44.423400"}, "geometry": {"coordinates": [-114.363567, 43.682358], "type": "Point"}, "id": "dI1S7SVXq7oVbOgKkcsCSS3kdUc=", "properties": {"@spider": "usps_collection_boxes", "addr:city": "KETCHUM", "addr:country": "US", "addr:full": "451 4TH ST E", "addr:postcode": "83340", "addr:state": "ID", "amenity": "post_box", "brand": "United States Postal Service", "brand:wikidata": "Q668687", "collection_times": "Mo-Sa 14:00", "name": "USPS COLLECTION BOX - BLUE BOX", "note": "ON 12/24 AND 12/31, THIS BOX MAY BE COLLECTED AS EARLY AS 12 NOON.", "nsi_id": "unitedstatespostalservice-a77078", "operator": "United States Postal Service", "operator:short": "USPS", "operator:type": "public", "operator:wikidata": "Q668687", "ref": "8334000001"}, "type": "Feature"}
{"dataset_attributes": {"@spider": "usps_collection_boxes", "spider:collection_time": "2023-12-31T08:23:44.423400"}, "geometry": {"coordinates": [-114.366666, 43.682788], "type": "Point"}, "id": "w6IvKu4OOU2dV_OOB8t1vmrl9Dw=", "properties": {"@spider": "usps_collection_boxes", "addr:city": "KETCHUM", "addr:country": "US", "addr:full": "640 N MAIN ST", "addr:postcode": "83340", "addr:state": "ID", "amenity": "post_box", "brand": "United States Postal Service", "brand:wikidata": "Q668687", "collection_times": "Mo-Sa 14:00", "name": "USPS COLLECTION BOX - BLUE BOX", "note": "ON 12/24 AND 12/31, THIS BOX MAY BE COLLECTED AS EARLY AS 12 NOON.", "nsi_id": "unitedstatespostalservice-a77078", "operator": "United States Postal Service", "operator:short": "USPS", "operator:type": "public", "operator:wikidata": "Q668687", "ref": "8334000002"}, "type": "Feature"}
{"dataset_attributes": {"@spider": "usps_collection_boxes", "spider:collection_time": "2023-12-31T08:23:44.423400"}, "geometry": {"coordinates": [-114.367889, 43.686048], "type": "Point"}, "id": "vUmc1xlLjswwk5tGsRQy12iK5iY=", "properties": {"@spider": "usps_collection_boxes", "addr:city": "KETCHUM", "addr:country": "US", "addr:full": "491 10TH ST E", "addr:postcode": "83340", "addr:state": "ID", "amenity": "post_box", "brand": "United States Postal Service", "brand:wikidata": "Q668687", "collection_times": "Mo-Sa 14:00", "name": "USPS COLLECTION BOX - BLUE BOX", "note": "ON 12/24 AND 12/31, THIS BOX MAY BE COLLECTED AS EARLY AS 12 NOON.", "nsi_id": "unitedstatespostalservice-a77078", "operator": "United States Postal Service", "operator:short": "USPS", "operator:type": "public", "operator:wikidata": "Q668687", "ref": "8334000004"}, "type": "Feature"}
{"dataset_attributes": {"@spider": "usps_collection_boxes", "spider:collection_time": "2023-12-31T08:23:44.423400"}, "geometry": {"coordinates": [-114.369219, 43.689796], "type": "Point"}, "id": "fipDVzw2EyHDS0iOZN4KKn-h03o=", "properties": {"@spider": "usps_collection_boxes", "addr:city": "KETCHUM", "addr:country": "US", "addr:full": "251 NORTHWOOD WAY", "addr:postcode": "83340", "addr:state": "ID", "amenity": "post_box", "brand": "United States Postal Service", "brand:wikidata": "Q668687", "collection_times": "Mo-Sa 14:00", "name": "USPS COLLECTION BOX - BLUE BOX", "note": "ON 12/24 AND 12/31, THIS BOX MAY BE COLLECTED AS EARLY AS 12 NOON.", "nsi_id": "unitedstatespostalservice-a77078", "operator": "United States Postal Service", "operator:short": "USPS", "operator:type": "public", "operator:wikidata": "Q668687", "ref": "8334000008"}, "type": "Feature"}
{"dataset_attributes": {"@spider": "usps_collection_boxes", "spider:collection_time": "2023-12-31T08:23:44.423400"}, "geometry": {"coordinates": [-114.360475, 43.68263], "type": "Point"}, "id": "gO_F9BkmoALL_b7UQI3fllRxQh8=", "properties": {"@spider": "usps_collection_boxes", "addr:city": "KETCHUM", "addr:country": "US", "addr:full": "620 SUN VALLEY RD", "addr:postcode": "83340", "addr:state": "ID", "amenity": "post_box", "brand": "United States Postal Service", "brand:wikidata": "Q668687", "collection_times": "Mo-Sa 14:00", "name": "USPS COLLECTION BOX - BLUE BOX", "note": "ON 12/24 AND 12/31, THIS BOX MAY BE COLLECTED AS EARLY AS 12 NOON.", "nsi_id": "unitedstatespostalservice-a77078", "operator": "United States Postal Service", "operator:short": "USPS", "operator:type": "public", "operator:wikidata": "Q668687", "ref": "8334000015"}, "type": "Feature"}
{"dataset_attributes": {"@spider": "usps_collection_boxes", "spider:collection_time": "2023-12-31T08:23:44.423400"}, "geometry": {"coordinates": [-114.362503, 43.679883], "type": "Point"}, "id": "g-mUXoFTD059SB_fGhyoa4oqHE8=", "properties": {"@spider": "usps_collection_boxes", "addr:city": "KETCHUM", "addr:country": "US", "addr:full": "100 N MAIN ST", "addr:postcode": "83340", "addr:state": "ID", "amenity": "post_box", "brand": "United States Postal Service", "brand:wikidata": "Q668687", "collection_times": "Mo-Sa 14:00", "name": "USPS COLLECTION BOX - BLUE BOX", "note": "ON 12/24 AND 12/31, THIS BOX MAY BE COLLECTED AS EARLY AS 12 NOON.", "nsi_id": "unitedstatespostalservice-a77078", "operator": "United States Postal Service", "operator:short": "USPS", "operator:type": "public", "operator:wikidata": "Q668687", "ref": "8334000016"}, "type": "Feature"}
{"dataset_attributes": {"@spider": "usps_collection_boxes", "spider:collection_time": "2023-12-31T08:23:44.423400"}, "geometry": {"coordinates": [-114.367692, 43.68002], "type": "Point"}, "id": "JMhW0J4saraL-wSMdk6kRusiL9M=", "properties": {"@spider": "usps_collection_boxes", "addr:city": "KETCHUM", "addr:country": "US", "addr:full": "151 4TH ST W", "addr:postcode": "83340", "addr:state": "ID", "amenity": "post_box", "brand": "United States Postal Service", "brand:wikidata": "Q668687", "collection_times": "Mo-Sa 15:00", "name": "USPS COLLECTION BOX - BLUE BOX", "note": "ON 12/24 AND 12/31, THIS BOX MAY BE COLLECTED AS EARLY AS 12 NOON.", "nsi_id": "unitedstatespostalservice-a77078", "operator": "United States Postal Service", "operator:short": "USPS", "operator:type": "public", "operator:wikidata": "Q668687", "ref": "8334000017"}, "type": "Feature"}
{"dataset_attributes": {"@spider": "usps_collection_boxes", "spider:collection_time": "2023-12-31T08:23:44.423400"}, "geometry": {"coordinates": [-114.368127, 43.679677], "type": "Point"}, "id": "HV7iAzfHzUu8RhoF1t2Tl84Ncjk=", "properties": {"@spider": "usps_collection_boxes", "addr:city": "KETCHUM", "addr:country": "US", "addr:full": "151 4TH ST W", "addr:postcode": "83340", "addr:state": "ID", "amenity": "post_box", "brand": "United States Postal Service", "brand:wikidata": "Q668687", "collection_times": "Mo-Sa 15:00", "name": "USPS COLLECTION BOX - BLUE BOX", "note": "ON 12/24 AND 12/31, THIS BOX MAY BE COLLECTED AS EARLY AS 12 NOON.", "nsi_id": "unitedstatespostalservice-a77078", "operator": "United States Postal Service", "operator:short": "USPS", "operator:type": "public", "operator:wikidata": "Q668687", "ref": "8334000018"}, "type": "Feature"}
{"dataset_attributes": {"@spider": "usps_collection_boxes", "spider:collection_time": "2023-12-31T08:23:44.423400"}, "geometry": {"coordinates": [-114.367606, 43.679642], "type": "Point"}, "id": "B7SxL2mu8krpii2i5nAFBmCKmU0=", "properties": {"@spider": "usps_collection_boxes", "addr:city": "KETCHUM", "addr:country": "US", "addr:full": "151 4TH ST W", "addr:postcode": "83340", "addr:state": "ID", "amenity": "post_box", "brand": "United States Postal Service", "brand:wikidata": "Q668687", "collection_times": "Mo-Fr 15:15; Sa 15:00", "name": "USPS COLLECTION BOX - PO LOBBY", "note": "ON 12/24 AND 12/31, THIS BOX MAY BE COLLECTED AS EARLY AS 12 NOON.", "nsi_id": "unitedstatespostalservice-a77078", "operator": "United States Postal Service", "operator:short": "USPS", "operator:type": "public", "operator:wikidata": "Q668687", "ref": "8334000019"}, "type": "Feature"}
{"dataset_attributes": {"@spider": "usps_collection_boxes", "spider:collection_time": "2023-12-31T08:23:44.423400"}, "geometry": {"coordinates": [-114.361594, 43.676413], "type": "Point"}, "id": "7DDvCefta5WumYZD-PhebDposEk=", "properties": {"@spider": "usps_collection_boxes", "addr:city": "KETCHUM", "addr:country": "US", "addr:full": "333 S MAIN ST", "addr:postcode": "83340", "addr:state": "ID", "amenity": "post_box", "brand": "United States Postal Service", "brand:wikidata": "Q668687", "collection_times": "Mo-Sa 14:00", "name": "USPS COLLECTION BOX - BLUE BOX", "note": "ON 12/24 AND 12/31, THIS BOX MAY BE COLLECTED AS EARLY AS 12 NOON.", "nsi_id": "unitedstatespostalservice-a77078", "operator": "United States Postal Service", "operator:short": "USPS", "operator:type": "public", "operator:wikidata": "Q668687", "ref": "8334000020"}, "type": "Feature"}
{"dataset_attributes": {"@spider": "usps_collection_boxes", "spider:collection_time": "2023-12-31T08:23:44.423400"}, "geometry": {"coordinates": [-114.362813, 43.679491], "type": "Point"}, "id": "wAgVcGIH6YjCznFh5SaxxeAG_Qw=", "properties": {"@spider": "usps_collection_boxes", "addr:city": "KETCHUM", "addr:country": "US", "addr:full": "111 S MAIN ST", "addr:postcode": "83340", "addr:state": "ID", "amenity": "post_box", "brand": "United States Postal Service", "brand:wikidata": "Q668687", "collection_times": "Mo-Sa 14:00", "name": "USPS COLLECTION BOX - BLUE BOX", "note": "ON 12/24 AND 12/31, THIS BOX MAY BE COLLECTED AS EARLY AS 12 NOON.", "nsi_id": "unitedstatespostalservice-a77078", "operator": "United States Postal Service", "operator:short": "USPS", "operator:type": "public", "operator:wikidata": "Q668687", "ref": "8334000021"}, "type": "Feature"}
{"dataset_attributes": {"@spider": "usps_collection_boxes", "spider:collection_time": "2023-12-31T08:23:44.423400"}, "geometry": {"coordinates": [-114.367604, 43.679626], "type": "Point"}, "id": "HB_j8374FKfCPdxDlt2IrJxGvRc=", "properties": {"@spider": "usps_collection_boxes", "addr:city": "KETCHUM", "addr:country": "US", "addr:full": "151 4TH ST W", "addr:postcode": "83340", "addr:state": "ID", "amenity": "post_box", "brand": "United States Postal Service", "brand:wikidata": "Q668687", "collection_times": "Mo-Fr 15:15; Sa 15:00", "name": "USPS COLLECTION BOX - PO LOBBY", "note": "ON 12/24 AND 12/31, THIS BOX MAY BE COLLECTED AS EARLY AS 12 NOON.", "nsi_id": "unitedstatespostalservice-a77078", "operator": "United States Postal Service", "operator:short": "USPS", "operator:type": "public", "operator:wikidata": "Q668687", "ref": "8334000022"}, "type": "Feature"}
{"dataset_attributes": {"@spider": "usps_collection_boxes", "spider:collection_time": "2023-12-31T08:23:44.423400"}, "geometry": {"coordinates": [-114.367624, 43.679638], "type": "Point"}, "id": "ltlGcVgIMSbNgkmg5PgKTh_nMzo=", "properties": {"@spider": "usps_collection_boxes", "addr:city": "KETCHUM", "addr:country": "US", "addr:full": "151 4TH ST W", "addr:postcode": "83340", "addr:state": "ID", "amenity": "post_box", "brand": "United States Postal Service", "brand:wikidata": "Q668687", "collection_times": "Mo-Fr 15:15; Sa 15:00", "name": "USPS COLLECTION BOX - PO LOBBY", "note": "ON 12/24 AND 12/31, THIS BOX MAY BE COLLECTED AS EARLY AS 12 NOON.", "nsi_id": "unitedstatespostalservice-a77078", "operator": "United States Postal Service", "operator:short": "USPS", "operator:type": "public", "operator:wikidata": "Q668687", "ref": "8334000023"}, "type": "Feature"}
{"dataset_attributes": {"@spider": "usps_collection_boxes", "spider:collection_time": "2023-12-31T08:23:44.423400"}, "geometry": {"coordinates": [-114.367656, 43.679621], "type": "Point"}, "id": "fptfS9hPbIfEflCkxU5hIeXYsGM=", "properties": {"@spider": "usps_collection_boxes", "addr:city": "KETCHUM", "addr:country": "US", "addr:full": "151 4TH ST W", "addr:postcode": "83340", "addr:state": "ID", "amenity": "post_box", "brand": "United States Postal Service", "brand:wikidata": "Q668687", "collection_times": "Mo-Fr 15:15; Sa 15:00", "name": "USPS COLLECTION BOX - PO LOBBY", "note": "ON 12/24 AND 12/31, THIS BOX MAY BE COLLECTED AS EARLY AS 12 NOON.", "nsi_id": "unitedstatespostalservice-a77078", "operator": "United States Postal Service", "operator:short": "USPS", "operator:type": "public", "operator:wikidata": "Q668687", "ref": "8334000024"}, "type": "Feature"}
{"dataset_attributes": {"@spider": "usps_collection_boxes", "spider:collection_time": "2023-12-31T08:23:44.423400"}, "geometry": {"coordinates": [-114.36768, 43.679625], "type": "Point"}, "id": "p0R-8WVCSOH-smhOBMSwgPhlJ-4=", "properties": {"@spider": "usps_collection_boxes", "addr:city": "KETCHUM", "addr:country": "US", "addr:full": "151 4TH ST W", "addr:postcode": "83340", "addr:state": "ID", "amenity": "post_box", "brand": "United States Postal Service", "brand:wikidata": "Q668687", "collection_times": "Mo-Fr 15:15; Sa 15:00", "name": "USPS COLLECTION BOX - PO LOBBY", "note": "ON 12/24 AND 12/31, THIS BOX MAY BE COLLECTED AS EARLY AS 12 NOON.", "nsi_id": "unitedstatespostalservice-a77078", "operator": "United States Postal Service", "operator:short": "USPS", "operator:type": "public", "operator:wikidata": "Q668687", "ref": "8334000025"}, "type": "Feature"}
{"dataset_attributes": {"@spider": "usps_collection_boxes", "spider:collection_time": "2023-12-31T08:23:44.423400"}, "geometry": {"coordinates": [-114.367447402, 43.679469425], "type": "Point"}, "id": "itUq2K3NwW5teMqAFIen4Kfkn6M=", "properties": {"@spider": "usps_collection_boxes", "addr:city": "KETCHUM", "addr:country": "US", "addr:full": "151 4TH ST W", "addr:postcode": "83340", "addr:state": "ID", "amenity": "post_box", "brand": "United States Postal Service", "brand:wikidata": "Q668687", "collection_times": "Mo-Fr 15:15; Sa 15:00", "name": "USPS COLLECTION BOX - PO LOBBY", "note": "ON 12/24 AND 12/31, THIS BOX MAY BE COLLECTED AS EARLY AS 12 NOON.", "nsi_id": "unitedstatespostalservice-a77078", "operator": "United States Postal Service", "operator:short": "USPS", "operator:type": "public", "operator:wikidata": "Q668687", "ref": "8334000026"}, "type": "Feature"}
{"dataset_attributes": {"@spider": "usps_collection_boxes", "spider:collection_time": "2023-12-31T08:23:44.423400"}, "geometry": {"coordinates": [-114.364835, 42.534871], "type": "Point"}, "id": "yIsZxrD43bYBTthcbxSr9kH_2j8=", "properties": {"@spider": "usps_collection_boxes", "addr:city": "KIMBERLY", "addr:country": "US", "addr:full": "225 MAIN ST N", "addr:postcode": "83341", "addr:state": "ID", "amenity": "post_box", "brand": "United States Postal Service", "brand:wikidata": "Q668687", "collection_times": "Mo-Fr 15:25; Sa 15:00", "name": "USPS COLLECTION BOX - BLUE BOX", "note": "ON 12/24 AND 12/31, THIS BOX MAY BE COLLECTED AS EARLY AS 12 NOON.", "nsi_id": "unitedstatespostalservice-a77078", "operator": "United States Postal Service", "operator:short": "USPS", "operator:type": "public", "operator:wikidata": "Q668687", "ref": "8334100001"}, "type": "Feature"}
{"dataset_attributes": {"@spider": "usps_collection_boxes", "spider:collection_time": "2023-12-31T08:23:44.423400"}, "geometry": {"coordinates": [-114.364799, 42.534825], "type": "Point"}, "id": "L9llNGtpDt7EQykYg_2A7-Opzxs=", "properties": {"@spider": "usps_collection_boxes", "addr:city": "KIMBERLY", "addr:country": "US", "addr:full": "225 MAIN ST N", "addr:postcode": "83341", "addr:state": "ID", "amenity": "post_box", "brand": "United States Postal Service", "brand:wikidata": "Q668687", "collection_times": "Mo-Fr 15:25; Sa 11:00", "name": "USPS COLLECTION BOX - PO LOBBY", "note": "ON 12/24 AND 12/31, THIS BOX MAY BE COLLECTED AS EARLY AS 12 NOON.", "nsi_id": "unitedstatespostalservice-a77078", "operator": "United States Postal Service", "operator:short": "USPS", "operator:type": "public", "operator:wikidata": "Q668687", "ref": "8334100002"}, "type": "Feature"}
{"dataset_attributes": {"@spider": "usps_collection_boxes", "spider:collection_time": "2023-12-31T08:23:44.423400"}, "geometry": {"coordinates": [-114.364850834, 42.534845143], "type": "Point"}, "id": "irwgI5nn0lfL4yw6ZEqgTwDduaI=", "properties": {"@spider": "usps_collection_boxes", "addr:city": "KIMBERLY", "addr:country": "US", "addr:full": "225 MAIN ST N", "addr:postcode": "83341", "addr:state": "ID", "amenity": "post_box", "brand": "United States Postal Service", "brand:wikidata": "Q668687", "collection_times": "Mo-Fr 15:15; Sa 11:00", "name": "USPS COLLECTION BOX - PO LOBBY", "note": "ON 12/24 AND 12/31, THIS BOX MAY BE COLLECTED AS EARLY AS 12 NOON.", "nsi_id": "unitedstatespostalservice-a77078", "operator": "United States Postal Service", "operator:short": "USPS", "operator:type": "public", "operator:wikidata": "Q668687", "ref": "8334100003"}, "type": "Feature"}
{"dataset_attributes": {"@spider": "usps_collection_boxes", "spider:collection_time": "2023-12-31T08:23:44.423400"}, "geometry": {"coordinates": [-113.368929, 42.306514], "type": "Point"}, "id": "RPT8lM75UnbQnUYAw_LO79Eo-HM=", "properties": {"@spider": "usps_collection_boxes", "addr:city": "MALTA", "addr:country": "US", "addr:full": "15 S MAIN ST", "addr:postcode": "83342", "addr:state": "ID", "amenity": "post_box", "brand": "United States Postal Service", "brand:wikidata": "Q668687", "collection_times": "Mo-Fr 14:55; Sa 13:15", "name": "USPS COLLECTION BOX - BLUE BOX", "note": "ON 12/24 AND 12/31, THIS BOX MAY BE COLLECTED AS EARLY AS 12 NOON.", "nsi_id": "unitedstatespostalservice-a77078", "operator": "United States Postal Service", "operator:short": "USPS", "operator:type": "public", "operator:wikidata": "Q668687", "ref": "8334200000"}, "type": "Feature"}
{"dataset_attributes": {"@spider": "usps_collection_boxes", "spider:collection_time": "2023-12-31T08:23:44.423400"}, "geometry": {"coordinates": [-113.369302, 42.30621], "type": "Point"}, "id": "m1yX61Bhc0neyd3O0Ej52SRG0Q8=", "properties": {"@spider": "usps_collection_boxes", "addr:city": "MALTA", "addr:country": "US", "addr:full": "15 S MAIN ST", "addr:postcode": "83342", "addr:state": "ID", "amenity": "post_box", "brand": "United States Postal Service", "brand:wikidata": "Q668687", "collection_times": "Mo-Fr 14:55; Sa 11:00", "name": "USPS COLLECTION BOX - PO LOBBY", "note": "ON 12/24 AND 12/31, THIS BOX MAY BE COLLECTED AS EARLY AS 12 NOON.", "nsi_id": "unitedstatespostalservice-a77078", "operator": "United States Postal Service", "operator:short": "USPS", "operator:type": "public", "operator:wikidata": "Q668687", "ref": "8334200003"}, "type": "Feature"}
{"dataset_attributes": {"@spider": "usps_collection_boxes", "spider:collection_time": "2023-12-31T08:23:44.423400"}, "geometry": {"coordinates": [-113.369304868, 42.306408], "type": "Point"}, "id": "uFzUPdCTkKQ_zdo7gUopkl6xRhc=", "properties": {"@spider": "usps_collection_boxes", "addr:city": "MALTA", "addr:country": "US", "addr:full": "15 S MAIN ST", "addr:postcode": "83342", "addr:state": "ID", "amenity": "post_box", "brand": "United States Postal Service", "brand:wikidata": "Q668687", "collection_times": "Mo-Fr 14:45; Sa 11:00", "name": "USPS COLLECTION BOX - PO LOBBY", "note": "ON 12/24 AND 12/31, THIS BOX MAY BE COLLECTED AS EARLY AS 12 NOON.", "nsi_id": "unitedstatespostalservice-a77078", "operator": "United States Postal Service", "operator:short": "USPS", "operator:type": "public", "operator:wikidata": "Q668687", "ref": "8334200005"}, "type": "Feature"}
{"dataset_attributes": {"@spider": "usps_collection_boxes", "spider:collection_time": "2023-12-31T08:23:44.423400"}, "geometry": {"coordinates": [-113.490301, 42.753778], "type": "Point"}, "id": "LeiyvrlgMfj5Q_ZPn2IdhH2pXqI=", "properties": {"@spider": "usps_collection_boxes", "addr:city": "MINIDOKA", "addr:country": "US", "addr:full": "402 CHERRY ST", "addr:postcode": "83343", "addr:state": "ID", "amenity": "post_box", "brand": "United States Postal Service", "brand:wikidata": "Q668687", "collection_times": "Mo-Sa 11:00", "name": "USPS COLLECTION BOX - BLUE BOX", "nsi_id": "unitedstatespostalservice-a77078", "operator": "United States Postal Service", "operator:short": "USPS", "operator:type": "public", "operator:wikidata": "Q668687", "ref": "8334300001"}, "type": "Feature"}
{"dataset_attributes": {"@spider": "usps_collection_boxes", "spider:collection_time": "2023-12-31T08:23:44.423400"}, "geometry": {"coordinates": [-114.161869, 42.493547], "type": "Point"}, "id": "CmDYGEbJ9ab10KVJyg7Uift7zD0=", "properties": {"@spider": "usps_collection_boxes", "addr:city": "MURTAUGH", "addr:country": "US", "addr:full": "244 1ST ST S", "addr:postcode": "83344", "addr:state": "ID", "amenity": "post_box", "brand": "United States Postal Service", "brand:wikidata": "Q668687", "collection_times": "Mo-Sa 15:55", "name": "USPS COLLECTION BOX - BLUE BOX", "note": "ON 12/24 AND 12/31, THIS BOX MAY BE COLLECTED AS EARLY AS 12 NOON.", "nsi_id": "unitedstatespostalservice-a77078", "operator": "United States Postal Service", "operator:short": "USPS", "operator:type": "public", "operator:wikidata": "Q668687", "ref": "8334400000"}, "type": "Feature"}
{"dataset_attributes": {"@spider": "usps_collection_boxes", "spider:collection_time": "2023-12-31T08:23:44.423400"}, "geometry": {"coordinates": [-114.161869, 42.493547], "type": "Point"}, "id": "MoHydygL4d_tXOU-wR_U4FpLLuQ=", "properties": {"@spider": "usps_collection_boxes", "addr:city": "MURTAUGH", "addr:country": "US", "addr:full": "244 1ST ST S", "addr:postcode": "83344", "addr:state": "ID", "amenity": "post_box", "brand": "United States Postal Service", "brand:wikidata": "Q668687", "collection_times": "Mo-Fr 11:55; Sa 09:00", "name": "USPS COLLECTION BOX - PO LOBBY", "nsi_id": "unitedstatespostalservice-a77078", "operator": "United States Postal Service", "operator:short": "USPS", "operator:type": "public", "operator:wikidata": "Q668687", "ref": "8334400001"}, "type": "Feature"}
{"dataset_attributes": {"@spider": "usps_collection_boxes", "spider:collection_time": "2023-12-31T08:23:44.423400"}, "geometry": {"coordinates": [-114.161972526, 42.490841449], "type": "Point"}, "id": "6FU1sGipGaGsF6sevnRSlK8ah28=", "properties": {"@spider": "usps_collection_boxes", "addr:city": "MURTAUGH", "addr:country": "US", "addr:full": "244 1ST ST S", "addr:postcode": "83344", "addr:state": "ID", "amenity": "post_box", "brand": "United States Postal Service", "brand:wikidata": "Q668687", "collection_times": "Mo-Fr 11:45", "name": "USPS COLLECTION BOX - PO LOBBY", "nsi_id": "unitedstatespostalservice-a77078", "operator": "United States Postal Service", "operator:short": "USPS", "operator:type": "public", "operator:wikidata": "Q668687", "ref": "8334400002"}, "type": "Feature"}
{"dataset_attributes": {"@spider": "usps_collection_boxes", "spider:collection_time": "2023-12-31T08:23:44.423400"}, "geometry": {"coordinates": [-113.882761, 42.243089], "type": "Point"}, "id": "xmx-u5x7GGYtJIHZYVE8yH2BjJo=", "properties": {"@spider": "usps_collection_boxes", "addr:city": "OAKLEY", "addr:country": "US", "addr:full": "130 W MAIN ST", "addr:postcode": "83346", "addr:state": "ID", "amenity": "post_box", "brand": "United States Postal Service", "brand:wikidata": "Q668687", "collection_times": "Mo-Fr 15:45; Sa 10:30", "name": "USPS COLLECTION BOX - PO LOBBY", "note": "ON 12/24 AND 12/31, THIS BOX MAY BE COLLECTED AS EARLY AS 12 NOON.", "nsi_id": "unitedstatespostalservice-a77078", "operator": "United States Postal Service", "operator:short": "USPS", "operator:type": "public", "operator:wikidata": "Q668687", "ref": "8334600001"}, "type": "Feature"}
{"dataset_attributes": {"@spider": "usps_collection_boxes", "spider:collection_time": "2023-12-31T08:23:44.423400"}, "geometry": {"coordinates": [-113.882761, 42.243089], "type": "Point"}, "id": "SoUzedgeQRl6QT361gN__g39CJY=", "properties": {"@spider": "usps_collection_boxes", "addr:city": "OAKLEY", "addr:country": "US", "addr:full": "130 W MAIN ST", "addr:postcode": "83346", "addr:state": "ID", "amenity": "post_box", "brand": "United States Postal Service", "brand:wikidata": "Q668687", "collection_times": "Mo-Fr 15:45; Sa 10:30", "name": "USPS COLLECTION BOX - PO LOBBY", "note": "ON 12/24 AND 12/31, THIS BOX MAY BE COLLECTED AS EARLY AS 12 NOON.", "nsi_id": "unitedstatespostalservice-a77078", "operator": "United States Postal Service", "operator:short": "USPS", "operator:type": "public", "operator:wikidata": "Q668687", "ref": "8334600002"}, "type": "Feature"}
{"dataset_attributes": {"@spider": "usps_collection_boxes", "spider:collection_time": "2023-12-31T08:23:44.423400"}, "geometry": {"coordinates": [-113.882511777, 42.243052507], "type": "Point"}, "id": "oE0g3Pf2UwIRyRo6man723R0r2M=", "properties": {"@spider": "usps_collection_boxes", "addr:city": "OAKLEY", "addr:country": "US", "addr:full": "130 W MAIN ST", "addr:postcode": "83346", "addr:state": "ID", "amenity": "post_box", "brand": "United States Postal Service", "brand:wikidata": "Q668687", "collection_times": "Mo-Fr 15:45; Sa 10:30", "name": "USPS COLLECTION BOX - PO LOBBY", "note": "ON 12/24 AND 12/31, THIS BOX MAY BE COLLECTED AS EARLY AS 12 NOON.", "nsi_id": "unitedstatespostalservice-a77078", "operator": "United States Postal Service", "operator:short": "USPS", "operator:type": "public", "operator:wikidata": "Q668687", "ref": "8334600003"}, "type": "Feature"}
{"dataset_attributes": {"@spider": "usps_collection_boxes", "spider:collection_time": "2023-12-31T08:23:44.423400"}, "geometry": {"coordinates": [-113.781973, 42.607939], "type": "Point"}, "id": "nb7jAnHnq5HqLQ0Uw7gSGYi3OMo=", "properties": {"@spider": "usps_collection_boxes", "addr:city": "PAUL", "addr:country": "US", "addr:full": "110 E IDAHO ST", "addr:postcode": "83347", "addr:state": "ID", "amenity": "post_box", "brand": "United States Postal Service", "brand:wikidata": "Q668687", "collection_times": "Mo-Sa 15:30", "name": "USPS COLLECTION BOX - BLUE BOX", "note": "ON 12/24 AND 12/31, THIS BOX MAY BE COLLECTED AS EARLY AS 12 NOON.", "nsi_id": "unitedstatespostalservice-a77078", "operator": "United States Postal Service", "operator:short": "USPS", "operator:type": "public", "operator:wikidata": "Q668687", "ref": "8334700000"}, "type": "Feature"}
{"dataset_attributes": {"@spider": "usps_collection_boxes", "spider:collection_time": "2023-12-31T08:23:44.423400"}, "geometry": {"coordinates": [-113.782071, 42.607913], "type": "Point"}, "id": "PKhLsmvvxZvsoxvYYRdqTc7Mrp0=", "properties": {"@spider": "usps_collection_boxes", "addr:city": "PAUL", "addr:country": "US", "addr:full": "110 E IDAHO ST", "addr:postcode": "83347", "addr:state": "ID", "amenity": "post_box", "brand": "United States Postal Service", "brand:wikidata": "Q668687", "collection_times": "Mo-Fr 15:45; Sa 09:00", "name": "USPS COLLECTION BOX - PO LOBBY", "note": "ON 12/24 AND 12/31, THIS BOX MAY BE COLLECTED AS EARLY AS 12 NOON.", "nsi_id": "unitedstatespostalservice-a77078", "operator": "United States Postal Service", "operator:short": "USPS", "operator:type": "public", "operator:wikidata": "Q668687", "ref": "8334700001"}, "type": "Feature"}
{"dataset_attributes": {"@spider": "usps_collection_boxes", "spider:collection_time": "2023-12-31T08:23:44.423400"}, "geometry": {"coordinates": [-113.781680277, 42.607874496], "type": "Point"}, "id": "0ocYtPZrPEfYrvaQmcA5jyMv4oQ=", "properties": {"@spider": "usps_collection_boxes", "addr:city": "PAUL", "addr:country": "US", "addr:full": "110 E IDAHO ST", "addr:postcode": "83347", "addr:state": "ID", "amenity": "post_box", "brand": "United States Postal Service", "brand:wikidata": "Q668687", "collection_times": "Mo-Fr 15:45; Sa 09:00", "name": "USPS COLLECTION BOX - PO LOBBY", "note": "ON 12/24 AND 12/31, THIS BOX MAY BE COLLECTED AS EARLY AS 12 NOON.", "nsi_id": "unitedstatespostalservice-a77078", "operator": "United States Postal Service", "operator:short": "USPS", "operator:type": "public", "operator:wikidata": "Q668687", "ref": "8334700002"}, "type": "Feature"}
{"dataset_attributes": {"@spider": "usps_collection_boxes", "spider:collection_time": "2023-12-31T08:23:44.423400"}, "geometry": {"coordinates": [-114.153619, 43.050025], "type": "Point"}, "id": "OX7617zGY0p_mX0DhZYMpsolKG4=", "properties": {"@spider": "usps_collection_boxes", "addr:city": "RICHFIELD", "addr:country": "US", "addr:full": "180 N MAIN ST", "addr:postcode": "83349", "addr:state": "ID", "amenity": "post_box", "brand": "United States Postal Service", "brand:wikidata": "Q668687", "collection_times": "Mo-Fr 14:00; Sa 12:00", "name": "USPS COLLECTION BOX - BLUE BOX", "note": "ON 12/24 AND 12/31, THIS BOX MAY BE COLLECTED AS EARLY AS 12 NOON.", "nsi_id": "unitedstatespostalservice-a77078", "operator": "United States Postal Service", "operator:short": "USPS", "operator:type": "public", "operator:wikidata": "Q668687", "ref": "8334900000"}, "type": "Feature"}
{"dataset_attributes": {"@spider": "usps_collection_boxes", "spider:collection_time": "2023-12-31T08:23:44.423400"}, "geometry": {"coordinates": [-114.153724, 43.050007], "type": "Point"}, "id": "IFasb_hLu7gzV0-LsKvFrJ9lpbs=", "properties": {"@spider": "usps_collection_boxes", "addr:city": "RICHFIELD", "addr:country": "US", "addr:full": "180 N MAIN ST", "addr:postcode": "83349", "addr:state": "ID", "amenity": "post_box", "brand": "United States Postal Service", "brand:wikidata": "Q668687", "collection_times": "Mo-Fr 11:45; Sa 08:30", "name": "USPS COLLECTION BOX - PO LOBBY", "nsi_id": "unitedstatespostalservice-a77078", "operator": "United States Postal Service", "operator:short": "USPS", "operator:type": "public", "operator:wikidata": "Q668687", "ref": "8334900001"}, "type": "Feature"}
{"dataset_attributes": {"@spider": "usps_collection_boxes", "spider:collection_time": "2023-12-31T08:23:44.423400"}, "geometry": {"coordinates": [-114.153782148, 43.050045416], "type": "Point"}, "id": "lWyR80MJ5APwGVrNVarF9oc6yqQ=", "properties": {"@spider": "usps_collection_boxes", "addr:city": "RICHFIELD", "addr:country": "US", "addr:full": "180 N MAIN ST", "addr:postcode": "83349", "addr:state": "ID", "amenity": "post_box", "brand": "United States Postal Service", "brand:wikidata": "Q668687", "collection_times": "Mo-Fr 11:45", "name": "USPS COLLECTION BOX - PO LOBBY", "nsi_id": "unitedstatespostalservice-a77078", "operator": "United States Postal Service", "operator:short": "USPS", "operator:type": "public", "operator:wikidata": "Q668687", "ref": "8334900002"}, "type": "Feature"}
{"dataset_attributes": {"@spider": "usps_collection_boxes", "spider:collection_time": "2023-12-31T08:23:44.423400"}, "geometry": {"coordinates": [-113.671883, 42.615649], "type": "Point"}, "id": "DVrM6bVNgpFTYPZOat66gBP-YBw=", "properties": {"@spider": "usps_collection_boxes", "addr:city": "RUPERT", "addr:country": "US", "addr:full": "310 ONEIDA ST", "addr:postcode": "83350", "addr:state": "ID", "amenity": "post_box", "brand": "United States Postal Service", "brand:wikidata": "Q668687", "collection_times": "Mo-Sa 14:30", "name": "USPS COLLECTION BOX - BLUE BOX", "note": "ON 12/24 AND 12/31, THIS BOX MAY BE COLLECTED AS EARLY AS 12 NOON.", "nsi_id": "unitedstatespostalservice-a77078", "operator": "United States Postal Service", "operator:short": "USPS", "operator:type": "public", "operator:wikidata": "Q668687", "ref": "8335000001"}, "type": "Feature"}
{"dataset_attributes": {"@spider": "usps_collection_boxes", "spider:collection_time": "2023-12-31T08:23:44.423400"}, "geometry": {"coordinates": [-113.674952, 42.618879], "type": "Point"}, "id": "ZKjRiIY9t5Zo-LOYs242ezzBvB8=", "properties": {"@spider": "usps_collection_boxes", "addr:city": "RUPERT", "addr:country": "US", "addr:full": "724 F ST", "addr:postcode": "83350", "addr:state": "ID", "amenity": "post_box", "brand": "United States Postal Service", "brand:wikidata": "Q668687", "collection_times": "Mo-Fr 16:00; Sa 15:15", "name": "USPS COLLECTION BOX - BLUE BOX", "note": "ON 12/24 AND 12/31, THIS BOX MAY BE COLLECTED AS EARLY AS 12 NOON.", "nsi_id": "unitedstatespostalservice-a77078", "operator": "United States Postal Service", "operator:short": "USPS", "operator:type": "public", "operator:wikidata": "Q668687", "ref": "8335000003"}, "type": "Feature"}
{"dataset_attributes": {"@spider": "usps_collection_boxes", "spider:collection_time": "2023-12-31T08:23:44.423400"}, "geometry": {"coordinates": [-113.674952, 42.618879], "type": "Point"}, "id": "vvedBS7qJNMvB2NxAsNXwXEmDgY=", "properties": {"@spider": "usps_collection_boxes", "addr:city": "RUPERT", "addr:country": "US", "addr:full": "724 F ST", "addr:postcode": "83350", "addr:state": "ID", "amenity": "post_box", "brand": "United States Postal Service", "brand:wikidata": "Q668687", "collection_times": "Mo-Fr 16:00; Sa 15:15", "name": "USPS COLLECTION BOX - BLUE BOX", "note": "ON 12/24 AND 12/31, THIS BOX MAY BE COLLECTED AS EARLY AS 12 NOON.", "nsi_id": "unitedstatespostalservice-a77078", "operator": "United States Postal Service", "operator:short": "USPS", "operator:type": "public", "operator:wikidata": "Q668687", "ref": "8335000004"}, "type": "Feature"}
{"dataset_attributes": {"@spider": "usps_collection_boxes", "spider:collection_time": "2023-12-31T08:23:44.423400"}, "geometry": {"coordinates": [-113.674952, 42.618879], "type": "Point"}, "id": "BB-E6aDT_62B7UJRYGjtQzGVWXA=", "properties": {"@spider": "usps_collection_boxes", "addr:city": "RUPERT", "addr:country": "US", "addr:full": "724 F ST", "addr:postcode": "83350", "addr:state": "ID", "amenity": "post_box", "brand": "United States Postal Service", "brand:wikidata": "Q668687", "collection_times": "Mo-Fr 16:00; Sa 12:15", "name": "USPS COLLECTION BOX - PO LOBBY", "note": "ON 12/24 AND 12/31, THIS BOX MAY BE COLLECTED AS EARLY AS 12 NOON.", "nsi_id": "unitedstatespostalservice-a77078", "operator": "United States Postal Service", "operator:short": "USPS", "operator:type": "public", "operator:wikidata": "Q668687", "ref": "8335000005"}, "type": "Feature"}
{"dataset_attributes": {"@spider": "usps_collection_boxes", "spider:collection_time": "2023-12-31T08:23:44.423400"}, "geometry": {"coordinates": [-113.674954634, 42.619383], "type": "Point"}, "id": "WFBM6ZrPW_a9fBYF-SUk1WBnbR4=", "properties": {"@spider": "usps_collection_boxes", "addr:city": "RUPERT", "addr:country": "US", "addr:full": "724 F ST", "addr:postcode": "83350", "addr:state": "ID", "amenity": "post_box", "brand": "United States Postal Service", "brand:wikidata": "Q668687", "collection_times": "Mo-Fr 16:00; Sa 12:15", "name": "USPS COLLECTION BOX - PO LOBBY", "note": "ON 12/24 AND 12/31, THIS BOX MAY BE COLLECTED AS EARLY AS 12 NOON.", "nsi_id": "unitedstatespostalservice-a77078", "operator": "United States Postal Service", "operator:short": "USPS", "operator:type": "public", "operator:wikidata": "Q668687", "ref": "8335000008"}, "type": "Feature"}
{"dataset_attributes": {"@spider": "usps_collection_boxes", "spider:collection_time": "2023-12-31T08:23:44.423400"}, "geometry": {"coordinates": [-114.409349, 42.935322], "type": "Point"}, "id": "14FZwWg3CqmwwhAg9BDgTMysu40=", "properties": {"@spider": "usps_collection_boxes", "addr:city": "SHOSHONE", "addr:country": "US", "addr:full": "211 W A ST", "addr:postcode": "83352", "addr:state": "ID", "amenity": "post_box", "brand": "United States Postal Service", "brand:wikidata": "Q668687", "collection_times": "Mo-Fr 16:45; Sa 16:30", "name": "USPS COLLECTION BOX - BLUE BOX", "note": "ON 12/24 AND 12/31, THIS BOX MAY BE COLLECTED AS EARLY AS 12 NOON.", "nsi_id": "unitedstatespostalservice-a77078", "operator": "United States Postal Service", "operator:short": "USPS", "operator:type": "public", "operator:wikidata": "Q668687", "ref": "8335200000"}, "type": "Feature"}
{"dataset_attributes": {"@spider": "usps_collection_boxes", "spider:collection_time": "2023-12-31T08:23:44.423400"}, "geometry": {"coordinates": [-114.409212489, 42.935271487], "type": "Point"}, "id": "cYeX-BrzQwAOoBt7a23-z-yLPeM=", "properties": {"@spider": "usps_collection_boxes", "addr:city": "SHOSHONE", "addr:country": "US", "addr:full": "211 W A ST", "addr:postcode": "83352", "addr:state": "ID", "amenity": "post_box", "brand": "United States Postal Service", "brand:wikidata": "Q668687", "collection_times": "Mo-Fr 16:45; Sa 09:00", "name": "USPS COLLECTION BOX - PO LOBBY", "note": "ON 12/24 AND 12/31, THIS BOX MAY BE COLLECTED AS EARLY AS 12 NOON.", "nsi_id": "unitedstatespostalservice-a77078", "operator": "United States Postal Service", "operator:short": "USPS", "operator:type": "public", "operator:wikidata": "Q668687", "ref": "8335200001"}, "type": "Feature"}
{"dataset_attributes": {"@spider": "usps_collection_boxes", "spider:collection_time": "2023-12-31T08:23:44.423400"}, "geometry": {"coordinates": [-114.4092124895, 42.9352714871], "type": "Point"}, "id": "LDgjpNxkS31iG0Ugf8h516QiZP4=", "properties": {"@spider": "usps_collection_boxes", "addr:city": "SHOSHONE", "addr:country": "US", "addr:full": "211 W A ST", "addr:postcode": "83352", "addr:state": "ID", "amenity": "post_box", "brand": "United States Postal Service", "brand:wikidata": "Q668687", "collection_times": "Mo-Fr 16:45", "name": "USPS COLLECTION BOX - PO LOBBY", "note": "ON 12/24 AND 12/31, THIS BOX MAY BE COLLECTED AS EARLY AS 12 NOON.", "nsi_id": "unitedstatespostalservice-a77078", "operator": "United States Postal Service", "operator:short": "USPS", "operator:type": "public", "operator:wikidata": "Q668687", "ref": "8335200003"}, "type": "Feature"}
{"dataset_attributes": {"@spider": "usps_collection_boxes", "spider:collection_time": "2023-12-31T08:23:44.423400"}, "geometry": {"coordinates": [-114.356195, 43.696579], "type": "Point"}, "id": "qdQNtFKOKXU_qBplXPTkUOJhQFg=", "properties": {"@spider": "usps_collection_boxes", "addr:city": "SUN VALLEY", "addr:country": "US", "addr:full": "100 SUN VALLEY RD", "addr:postcode": "83353", "addr:state": "ID", "amenity": "post_box", "brand": "United States Postal Service", "brand:wikidata": "Q668687", "collection_times": "Mo-Fr 14:50; Sa 12:15", "name": "USPS COLLECTION BOX - BLUE BOX", "note": "ON 12/24 AND 12/31, THIS BOX MAY BE COLLECTED AS EARLY AS 12 NOON.", "nsi_id": "unitedstatespostalservice-a77078", "operator": "United States Postal Service", "operator:short": "USPS", "operator:type": "public", "operator:wikidata": "Q668687", "ref": "8335300000"}, "type": "Feature"}
{"dataset_attributes": {"@spider": "usps_collection_boxes", "spider:collection_time": "2023-12-31T08:23:44.423400"}, "geometry": {"coordinates": [-114.356205, 43.696516], "type": "Point"}, "id": "fYq5CjMvggaG15QzrD7rEGZUjac=", "properties": {"@spider": "usps_collection_boxes", "addr:city": "SUN VALLEY", "addr:country": "US", "addr:full": "100 SUN VALLEY RD", "addr:postcode": "83353", "addr:state": "ID", "amenity": "post_box", "brand": "United States Postal Service", "brand:wikidata": "Q668687", "collection_times": "Mo-Fr 14:50; Sa 12:15", "name": "USPS COLLECTION BOX - PO LOBBY", "note": "ON 12/24 AND 12/31, THIS BOX MAY BE COLLECTED AS EARLY AS 12 NOON.", "nsi_id": "unitedstatespostalservice-a77078", "operator": "United States Postal Service", "operator:short": "USPS", "operator:type": "public", "operator:wikidata": "Q668687", "ref": "8335300001"}, "type": "Feature"}
{"dataset_attributes": {"@spider": "usps_collection_boxes", "spider:collection_time": "2023-12-31T08:23:44.423400"}, "geometry": {"coordinates": [-114.356242633, 43.696562391], "type": "Point"}, "id": "Frx7fM_qWi__Ddp-dzc-7qFzqDE=", "properties": {"@spider": "usps_collection_boxes", "addr:city": "SUN VALLEY", "addr:country": "US", "addr:full": "100 SUN VALLEY RD", "addr:postcode": "83353", "addr:state": "ID", "amenity": "post_box", "brand": "United States Postal Service", "brand:wikidata": "Q668687", "collection_times": "Mo-Fr 14:45; Sa 12:15", "name": "USPS COLLECTION BOX - PO LOBBY", "note": "ON 12/24 AND 12/31, THIS BOX MAY BE COLLECTED AS EARLY AS 12 NOON.", "nsi_id": "unitedstatespostalservice-a77078", "operator": "United States Postal Service", "operator:short": "USPS", "operator:type": "public", "operator:wikidata": "Q668687", "ref": "8335300002"}, "type": "Feature"}
{"dataset_attributes": {"@spider": "usps_collection_boxes", "spider:collection_time": "2023-12-31T08:23:44.423400"}, "geometry": {"coordinates": [-114.345645, 43.692718], "type": "Point"}, "id": "SveSdq8JZyQP9Fvzhc4awjFmOHs=", "properties": {"@spider": "usps_collection_boxes", "addr:city": "ELKHORN", "addr:country": "US", "addr:full": "90 ELKHORN RD", "addr:postcode": "83354", "addr:state": "ID", "amenity": "post_box", "brand": "United States Postal Service", "brand:wikidata": "Q668687", "collection_times": "Mo-Sa 13:00", "name": "USPS COLLECTION BOX - BLUE BOX", "note": "ON 12/24 AND 12/31, THIS BOX MAY BE COLLECTED AS EARLY AS 12 NOON.", "nsi_id": "unitedstatespostalservice-a77078", "operator": "United States Postal Service", "operator:short": "USPS", "operator:type": "public", "operator:wikidata": "Q668687", "ref": "8335400000"}, "type": "Feature"}
{"dataset_attributes": {"@spider": "usps_collection_boxes", "spider:collection_time": "2023-12-31T08:23:44.423400"}, "geometry": {"coordinates": [-114.706014, 42.776224], "type": "Point"}, "id": "5N6U3SqmdygAgvLzVhE-Cn34fu8=", "properties": {"@spider": "usps_collection_boxes", "addr:city": "WENDELL", "addr:country": "US", "addr:full": "32 N SHOSHONE ST", "addr:postcode": "83355", "addr:state": "ID", "amenity": "post_box", "brand": "United States Postal Service", "brand:wikidata": "Q668687", "collection_times": "Mo-Sa 16:00", "name": "USPS COLLECTION BOX - BLUE BOX", "note": "ON 12/24 AND 12/31, THIS BOX MAY BE COLLECTED AS EARLY AS 12 NOON.", "nsi_id": "unitedstatespostalservice-a77078", "operator": "United States Postal Service", "operator:short": "USPS", "operator:type": "public", "operator:wikidata": "Q668687", "ref": "8335500000"}, "type": "Feature"}
{"dataset_attributes": {"@spider": "usps_collection_boxes", "spider:collection_time": "2023-12-31T08:23:44.423400"}, "geometry": {"coordinates": [-114.706014, 42.776224], "type": "Point"}, "id": "hFGCIei9BaCUzWenzIDakM2fKPY=", "properties": {"@spider": "usps_collection_boxes", "addr:city": "WENDELL", "addr:country": "US", "addr:full": "32 N SHOSHONE ST", "addr:postcode": "83355", "addr:state": "ID", "amenity": "post_box", "brand": "United States Postal Service", "brand:wikidata": "Q668687", "collection_times": "Mo-Fr 16:30; Sa 10:00", "name": "USPS COLLECTION BOX - PO LOBBY", "note": "ON 12/24 AND 12/31, THIS BOX MAY BE COLLECTED AS EARLY AS 12 NOON.", "nsi_id": "unitedstatespostalservice-a77078", "operator": "United States Postal Service", "operator:short": "USPS", "operator:type": "public", "operator:wikidata": "Q668687", "ref": "8335500001"}, "type": "Feature"}
{"dataset_attributes": {"@spider": "usps_collection_boxes", "spider:collection_time": "2023-12-31T08:23:44.423400"}, "geometry": {"coordinates": [-114.705739876, 42.775748125], "type": "Point"}, "id": "lyCPoDHc9dIfEPRZezIEqgr0i1o=", "properties": {"@spider": "usps_collection_boxes", "addr:city": "WENDELL", "addr:country": "US", "addr:full": "32 N SHOSHONE ST", "addr:postcode": "83355", "addr:state": "ID", "amenity": "post_box", "brand": "United States Postal Service", "brand:wikidata": "Q668687", "collection_times": "Mo-Fr 16:30", "name": "USPS COLLECTION BOX - PO LOBBY", "note": "ON 12/24 AND 12/31, THIS BOX MAY BE COLLECTED AS EARLY AS 12 NOON.", "nsi_id": "unitedstatespostalservice-a77078", "operator": "United States Postal Service", "operator:short": "USPS", "operator:type": "public", "operator:wikidata": "Q668687", "ref": "8335500002"}, "type": "Feature"}
