{"geometry": {"coordinates": [-112.230603, 44.176366], "type": "Point"}, "id": "jXh0ZCKHP0EAEWrxhDMP7sfMbJI=", "properties": {"@spider": "usps_collection_boxes", "addr:city": "DUBOIS", "addr:country": "US", "addr:full": "72 W MAIN ST", "addr:postcode": "83423", "addr:state": "ID", "brand": "USPS", "collection_times": "Mo-Sa 13:30", "name": "USPS COLLECTION BOX - BLUE BOX", "note": "ON 12/24 AND 12/31, THIS BOX MAY BE COLLECTED AS EARLY AS 12 NOON.", "ref": "8342300000"}, "type": "Feature"}
{"geometry": {"coordinates": [-112.230551, 44.17651], "type": "Point"}, "id": "tGbA0VUv13kIJg7e4R8eV9VFZCc=", "properties": {"@spider": "usps_collection_boxes", "addr:city": "DUBOIS", "addr:country": "US", "addr:full": "72 W MAIN ST", "addr:postcode": "83423", "addr:state": "ID", "brand": "USPS", "collection_times": "Mo-Fr 13:30; Sa 09:30", "name": "USPS COLLECTION BOX - PO LOBBY", "note": "ON 12/24 AND 12/31, THIS BOX MAY BE COLLECTED AS EARLY AS 12 NOON.", "ref": "8342300001"}, "type": "Feature"}
{"geometry": {"coordinates": [-112.185869, 44.361077], "type": "Point"}, "id": "D5yAXgdYws4BNUU3oyn1qqr_8Ao=", "properties": {"@spider": "usps_collection_boxes", "addr:city": "DUBOIS", "addr:country": "US", "addr:full": "32 OPAL AVE", "addr:postcode": "83423", "addr:state": "ID", "brand": "USPS", "collection_times": "Mo-Sa 09:15", "name": "USPS COLLECTION BOX - BLUE BOX", "ref": "8342300002"}, "type": "Feature"}
{"geometry": {"coordinates": [-112.230551, 44.17651], "type": "Point"}, "id": "u17Fmve5qz5ggALYYT-NU4rwnU8=", "properties": {"@spider": "usps_collection_boxes", "addr:city": "DUBOIS", "addr:country": "US", "addr:full": "72 W MAIN ST", "addr:postcode": "83423", "addr:state": "ID", "brand": "USPS", "collection_times": "Mo-Fr 13:30", "name": "USPS COLLECTION BOX - PO LOBBY", "note": "ON 12/24 AND 12/31, THIS BOX MAY BE COLLECTED AS EARLY AS 12 NOON.", "ref": "8342300003"}, "type": "Feature"}
{"geometry": {"coordinates": [-112.230563055, 44.176276486], "type": "Point"}, "id": "YFo9QWKM7V_pmynmrd8sfRXosjk=", "properties": {"@spider": "usps_collection_boxes", "addr:city": "DUBOIS", "addr:country": "US", "addr:full": "72 W MAIN ST", "addr:postcode": "83423", "addr:state": "ID", "brand": "USPS", "collection_times": "Mo-Fr 13:30", "name": "USPS COLLECTION BOX - PO LOBBY", "note": "ON 12/24 AND 12/31, THIS BOX MAY BE COLLECTED AS EARLY AS 12 NOON.", "ref": "8342300004"}, "type": "Feature"}
{"geometry": {"coordinates": [-112.206824, 43.926786], "type": "Point"}, "id": "G82AWr7jvEjoeuHy1od7UiqRfnI=", "properties": {"@spider": "usps_collection_boxes", "addr:city": "HAMER", "addr:country": "US", "addr:full": "2449 E 2100 N", "addr:postcode": "83425", "addr:state": "ID", "brand": "USPS", "collection_times": "Mo-Sa 14:10", "name": "USPS COLLECTION BOX - BLUE BOX", "note": "ON 12/24 AND 12/31, THIS BOX MAY BE COLLECTED AS EARLY AS 12 NOON.", "ref": "8342500000"}, "type": "Feature"}
{"geometry": {"coordinates": [-112.20685, 43.926685], "type": "Point"}, "id": "3wCeprows6mSnxbwMPkXe8ImdAs=", "properties": {"@spider": "usps_collection_boxes", "addr:city": "HAMER", "addr:country": "US", "addr:full": "2449 E 2100 N", "addr:postcode": "83425", "addr:state": "ID", "brand": "USPS", "collection_times": "Mo-Fr 12:45; Sa 11:00", "name": "USPS COLLECTION BOX - PO LOBBY", "note": "ON 12/24 AND 12/31, THIS BOX MAY BE COLLECTED AS EARLY AS 12 NOON.", "ref": "8342500001"}, "type": "Feature"}
{"geometry": {"coordinates": [-112.206848521, 43.92668483], "type": "Point"}, "id": "Fak5eA0IENfDp7EPmDlWEAWNWE8=", "properties": {"@spider": "usps_collection_boxes", "addr:city": "HAMER", "addr:country": "US", "addr:full": "2449 E 2100 N", "addr:postcode": "83425", "addr:state": "ID", "brand": "USPS", "collection_times": "Mo-Fr 12:45", "name": "USPS COLLECTION BOX - PO LOBBY", "note": "ON 12/24 AND 12/31, THIS BOX MAY BE COLLECTED AS EARLY AS 12 NOON.", "ref": "8342500002"}, "type": "Feature"}
{"geometry": {"coordinates": [-111.295478, 43.406941], "type": "Point"}, "id": "rfwK0AQjnLOGAOiCOuy1YFAyw_I=", "properties": {"@spider": "usps_collection_boxes", "addr:city": "IRWIN", "addr:country": "US", "addr:full": "3373 SWAN VALLEY HWY", "addr:postcode": "83428", "addr:state": "ID", "brand": "USPS", "collection_times": "Mo-Fr 13:05; Sa 12:00", "name": "USPS COLLECTION BOX - PO LOBBY", "note": "ON 12/24 AND 12/31, THIS BOX MAY BE COLLECTED AS EARLY AS 12 NOON.", "ref": "8342800000"}, "type": "Feature"}
{"geometry": {"coordinates": [-111.295478, 43.406941], "type": "Point"}, "id": "UUJXk1HePNItcLtbbqr1HP9ID0I=", "properties": {"@spider": "usps_collection_boxes", "addr:city": "IRWIN", "addr:country": "US", "addr:full": "3373 SWAN VALLEY HWY", "addr:postcode": "83428", "addr:state": "ID", "brand": "USPS", "collection_times": "Mo-Fr 13:05; Sa 12:00", "name": "USPS COLLECTION BOX - BLUE BOX", "note": "ON 12/24 AND 12/31, THIS BOX MAY BE COLLECTED AS EARLY AS 12 NOON.", "ref": "8342800002"}, "type": "Feature"}
{"geometry": {"coordinates": [-111.295616209, 43.407088396], "type": "Point"}, "id": "1qjmNiiUfiyiQSfpix0EFGeM18o=", "properties": {"@spider": "usps_collection_boxes", "addr:city": "IRWIN", "addr:country": "US", "addr:full": "3373 SWAN VALLEY HWY", "addr:postcode": "83428", "addr:state": "ID", "brand": "USPS", "collection_times": "Mo-Fr 13:00", "name": "USPS COLLECTION BOX - PO LOBBY", "note": "ON 12/24 AND 12/31, THIS BOX MAY BE COLLECTED AS EARLY AS 12 NOON.", "ref": "8342800003"}, "type": "Feature"}
{"geometry": {"coordinates": [-112.53628, 43.968908], "type": "Point"}, "id": "lABCi1GurX5zYRSZ8gxUXgae9OE=", "properties": {"@spider": "usps_collection_boxes", "addr:city": "MONTEVIEW", "addr:country": "US", "addr:full": "2381 N 800 E", "addr:postcode": "83435", "addr:state": "ID", "brand": "USPS", "collection_times": "Mo-Fr 13:00; Sa 11:30", "name": "USPS COLLECTION BOX - BLUE BOX", "note": "ON 12/24 AND 12/31, THIS BOX MAY BE COLLECTED AS EARLY AS 12 NOON.", "ref": "8343500000"}, "type": "Feature"}
{"geometry": {"coordinates": [-112.53628, 43.968908], "type": "Point"}, "id": "fNF79JFHnTLJAkqykYa0bnYmd7Q=", "properties": {"@spider": "usps_collection_boxes", "addr:city": "MONTEVIEW", "addr:country": "US", "addr:full": "2381 N 800 E", "addr:postcode": "83435", "addr:state": "ID", "brand": "USPS", "collection_times": "Mo-Fr 13:00; Sa 11:30", "name": "USPS COLLECTION BOX - PO LOBBY", "note": "ON 12/24 AND 12/31, THIS BOX MAY BE COLLECTED AS EARLY AS 12 NOON.", "ref": "8343500001"}, "type": "Feature"}
{"geometry": {"coordinates": [-112.536278689, 43.968906], "type": "Point"}, "id": "FVb3dTQROJoi88Y7k9M8paVyA9E=", "properties": {"@spider": "usps_collection_boxes", "addr:city": "MONTEVIEW", "addr:country": "US", "addr:full": "2381 N 800 E", "addr:postcode": "83435", "addr:state": "ID", "brand": "USPS", "collection_times": "Mo-Fr 13:00", "name": "USPS COLLECTION BOX - PO LOBBY", "note": "ON 12/24 AND 12/31, THIS BOX MAY BE COLLECTED AS EARLY AS 12 NOON.", "ref": "8343500002"}, "type": "Feature"}
{"geometry": {"coordinates": [-111.33877, 43.450485], "type": "Point"}, "id": "cKFMi831Qd8Lr5M5PBf8H_SytHg=", "properties": {"@spider": "usps_collection_boxes", "addr:city": "SWAN VALLEY", "addr:country": "US", "addr:full": "3004 SWAN VALLEY HWY", "addr:postcode": "83449", "addr:state": "ID", "brand": "USPS", "collection_times": "Mo-Fr 13:20; Sa 12:00", "name": "USPS COLLECTION BOX - BLUE BOX", "note": "ON 12/24 AND 12/31, THIS BOX MAY BE COLLECTED AS EARLY AS 12 NOON.", "ref": "8344900000"}, "type": "Feature"}
{"geometry": {"coordinates": [-111.33877, 43.450485], "type": "Point"}, "id": "PkEypb4U6n3NyeOdaOnOs92JJNM=", "properties": {"@spider": "usps_collection_boxes", "addr:city": "SWAN VALLEY", "addr:country": "US", "addr:full": "3004 SWAN VALLEY HWY", "addr:postcode": "83449", "addr:state": "ID", "brand": "USPS", "collection_times": "Mo-Fr 13:15; Sa 11:45", "name": "USPS COLLECTION BOX - PO LOBBY", "note": "ON 12/24 AND 12/31, THIS BOX MAY BE COLLECTED AS EARLY AS 12 NOON.", "ref": "8344900001"}, "type": "Feature"}
{"geometry": {"coordinates": [-111.338560629, 43.450342673], "type": "Point"}, "id": "B6XJrsLEkhO6pnSJ7SSdAcm3bf0=", "properties": {"@spider": "usps_collection_boxes", "addr:city": "SWAN VALLEY", "addr:country": "US", "addr:full": "3004 SWAN VALLEY HWY", "addr:postcode": "83449", "addr:state": "ID", "brand": "USPS", "collection_times": "Mo-Fr 13:15; Sa 11:45", "name": "USPS COLLECTION BOX - PO LOBBY", "note": "ON 12/24 AND 12/31, THIS BOX MAY BE COLLECTED AS EARLY AS 12 NOON.", "ref": "8344900002"}, "type": "Feature"}
{"geometry": {"coordinates": [-112.437262, 43.841352], "type": "Point"}, "id": "ByhcV48lXnm0FTt0vp8r9dbj97Q=", "properties": {"@spider": "usps_collection_boxes", "addr:city": "TERRETON", "addr:country": "US", "addr:full": "1290 E 1500 N", "addr:postcode": "83450", "addr:state": "ID", "brand": "USPS", "collection_times": "Mo-Sa 14:55", "name": "USPS COLLECTION BOX - BLUE BOX", "note": "ON 12/24 AND 12/31, THIS BOX MAY BE COLLECTED AS EARLY AS 12 NOON.", "ref": "8345000000"}, "type": "Feature"}
{"geometry": {"coordinates": [-112.437262, 43.841352], "type": "Point"}, "id": "PjDL3l6I2RA0AydKuPNVzF20-yc=", "properties": {"@spider": "usps_collection_boxes", "addr:city": "TERRETON", "addr:country": "US", "addr:full": "1290 E 1500 N", "addr:postcode": "83450", "addr:state": "ID", "brand": "USPS", "collection_times": "Mo-Fr 14:55; Sa 10:00", "name": "USPS COLLECTION BOX - PO LOBBY", "note": "ON 12/24 AND 12/31, THIS BOX MAY BE COLLECTED AS EARLY AS 12 NOON.", "ref": "8345000001"}, "type": "Feature"}
{"geometry": {"coordinates": [-112.437261, 43.841348488], "type": "Point"}, "id": "_GIyinojaIGEjedz1AhDbk0MCOk=", "properties": {"@spider": "usps_collection_boxes", "addr:city": "TERRETON", "addr:country": "US", "addr:full": "1290 E 1500 N", "addr:postcode": "83450", "addr:state": "ID", "brand": "USPS", "collection_times": "Mo-Fr 14:45", "name": "USPS COLLECTION BOX - PO LOBBY", "note": "ON 12/24 AND 12/31, THIS BOX MAY BE COLLECTED AS EARLY AS 12 NOON.", "ref": "8345000002"}, "type": "Feature"}
{"geometry": {"coordinates": [-111.111333, 43.600869], "type": "Point"}, "id": "W6S4cxPJJoFVcqSYytCTt2hm7ro=", "properties": {"@spider": "usps_collection_boxes", "addr:city": "VICTOR", "addr:country": "US", "addr:full": "92 S MAIN ST", "addr:postcode": "83455", "addr:state": "ID", "brand": "USPS", "collection_times": "Mo-Fr 13:35; Sa 12:30", "name": "USPS COLLECTION BOX - BLUE BOX", "note": "ON 12/24 AND 12/31, THIS BOX MAY BE COLLECTED AS EARLY AS 12 NOON.", "ref": "8345500000"}, "type": "Feature"}
{"geometry": {"coordinates": [-111.111333, 43.600869], "type": "Point"}, "id": "e3W_hhfhudT_op6KwQMkK8aOb8E=", "properties": {"@spider": "usps_collection_boxes", "addr:city": "VICTOR", "addr:country": "US", "addr:full": "92 S MAIN ST", "addr:postcode": "83455", "addr:state": "ID", "brand": "USPS", "collection_times": "Mo-Fr 13:35; Sa 12:30", "name": "USPS COLLECTION BOX - PO LOBBY", "note": "ON 12/24 AND 12/31, THIS BOX MAY BE COLLECTED AS EARLY AS 12 NOON.", "ref": "8345500001"}, "type": "Feature"}
{"geometry": {"coordinates": [-111.111332087, 43.600752], "type": "Point"}, "id": "nZfZlymCqURhqshK2a4GW4K5ne0=", "properties": {"@spider": "usps_collection_boxes", "addr:city": "VICTOR", "addr:country": "US", "addr:full": "92 S MAIN ST", "addr:postcode": "83455", "addr:state": "ID", "brand": "USPS", "collection_times": "Mo-Fr 13:30; Sa 12:30", "name": "USPS COLLECTION BOX - PO LOBBY", "note": "ON 12/24 AND 12/31, THIS BOX MAY BE COLLECTED AS EARLY AS 12 NOON.", "ref": "8345500002"}, "type": "Feature"}
{"geometry": {"coordinates": [-113.893152, 45.242358], "type": "Point"}, "id": "ze7aFU9aF0pKpZR3CWu3M_UGlyk=", "properties": {"@spider": "usps_collection_boxes", "addr:city": "CARMEN", "addr:country": "US", "addr:full": "401 HIGHWAY 93 N", "addr:postcode": "83462", "addr:state": "ID", "brand": "USPS", "collection_times": "Mo-Sa 12:05", "name": "USPS COLLECTION BOX - BLUE BOX", "note": "ON 12/24 AND 12/31, THIS BOX MAY BE COLLECTED AS EARLY AS 12 NOON.", "ref": "8346200000"}, "type": "Feature"}
{"geometry": {"coordinates": [-113.893152, 45.242358], "type": "Point"}, "id": "4MWO_3ImZPQZBt83ywXz7PcwZ3U=", "properties": {"@spider": "usps_collection_boxes", "addr:city": "CARMEN", "addr:country": "US", "addr:full": "401 HIGHWAY 93 N", "addr:postcode": "83462", "addr:state": "ID", "brand": "USPS", "collection_times": "Mo-Fr 12:05; Sa 11:00", "name": "USPS COLLECTION BOX - PO LOBBY", "note": "ON 12/24 AND 12/31, THIS BOX MAY BE COLLECTED AS EARLY AS 12 NOON.", "ref": "8346200001"}, "type": "Feature"}
{"geometry": {"coordinates": [-113.893222996, 45.242468842], "type": "Point"}, "id": "MsFNb0yxWP-Q1snGD-jhrBecivc=", "properties": {"@spider": "usps_collection_boxes", "addr:city": "CARMEN", "addr:country": "US", "addr:full": "401 HIGHWAY 93 N", "addr:postcode": "83462", "addr:state": "ID", "brand": "USPS", "collection_times": "Mo-Fr 12:00; Sa 11:00", "name": "USPS COLLECTION BOX - PO LOBBY", "ref": "8346200002"}, "type": "Feature"}
{"geometry": {"coordinates": [-113.357878, 44.680545], "type": "Point"}, "id": "aug_6Y05DI3U90MR7-I6Z7R8JBw=", "properties": {"@spider": "usps_collection_boxes", "addr:city": "LEADORE", "addr:country": "US", "addr:full": "115 S RAILROAD ST", "addr:postcode": "83464", "addr:state": "ID", "brand": "USPS", "collection_times": "Mo-Fr 13:30; Sa 10:45", "name": "USPS COLLECTION BOX - BLUE BOX", "note": "ON 12/24 AND 12/31, THIS BOX MAY BE COLLECTED AS EARLY AS 12 NOON.", "ref": "8346400000"}, "type": "Feature"}
{"geometry": {"coordinates": [-113.357878, 44.680545], "type": "Point"}, "id": "s8rPjqtD_t1qG3UQLB_A8H25zVc=", "properties": {"@spider": "usps_collection_boxes", "addr:city": "LEADORE", "addr:country": "US", "addr:full": "115 S RAILROAD ST", "addr:postcode": "83464", "addr:state": "ID", "brand": "USPS", "collection_times": "Mo-Fr 13:30; Sa 10:15", "name": "USPS COLLECTION BOX - PO LOBBY", "note": "ON 12/24 AND 12/31, THIS BOX MAY BE COLLECTED AS EARLY AS 12 NOON.", "ref": "8346400001"}, "type": "Feature"}
{"geometry": {"coordinates": [-113.357876703, 44.680540014], "type": "Point"}, "id": "fySybxMC7zic_ilUf3Ni6LGxVwE=", "properties": {"@spider": "usps_collection_boxes", "addr:city": "LEADORE", "addr:country": "US", "addr:full": "115 S RAILROAD ST", "addr:postcode": "83464", "addr:state": "ID", "brand": "USPS", "collection_times": "Mo-Fr 13:30; Sa 10:15", "name": "USPS COLLECTION BOX - PO LOBBY", "note": "ON 12/24 AND 12/31, THIS BOX MAY BE COLLECTED AS EARLY AS 12 NOON.", "ref": "8346400002"}, "type": "Feature"}
{"geometry": {"coordinates": [-113.620098, 44.851807], "type": "Point"}, "id": "5Y17g04WEIj5VhcuObf4de2B0BQ=", "properties": {"@spider": "usps_collection_boxes", "addr:city": "LEMHI", "addr:country": "US", "addr:full": "3000 LEMHI RD", "addr:postcode": "83465", "addr:state": "ID", "brand": "USPS", "collection_times": "Mo-Fr 13:10; Sa 10:00", "name": "USPS COLLECTION BOX - BLUE BOX", "note": "ON 12/24 AND 12/31, THIS BOX MAY BE COLLECTED AS EARLY AS 12 NOON.", "ref": "8346500000"}, "type": "Feature"}
{"geometry": {"coordinates": [-113.619552, 44.851816], "type": "Point"}, "id": "HJh31pn2RqHSOLNB0YYC5e8YVOM=", "properties": {"@spider": "usps_collection_boxes", "addr:city": "LEMHI", "addr:country": "US", "addr:full": "3000 LEMHI RD", "addr:postcode": "83465", "addr:state": "ID", "brand": "USPS", "collection_times": "Mo-Fr 13:10; Sa 09:45", "name": "USPS COLLECTION BOX - PO LOBBY", "note": "ON 12/24 AND 12/31, THIS BOX MAY BE COLLECTED AS EARLY AS 12 NOON.", "ref": "8346500001"}, "type": "Feature"}
{"geometry": {"coordinates": [-113.619552906, 44.851815856], "type": "Point"}, "id": "NSm90NT5vZ1_QhySY4x7nT3YTiE=", "properties": {"@spider": "usps_collection_boxes", "addr:city": "LEMHI", "addr:country": "US", "addr:full": "3000 LEMHI RD", "addr:postcode": "83465", "addr:state": "ID", "brand": "USPS", "collection_times": "Mo-Fr 13:00; Sa 09:45", "name": "USPS COLLECTION BOX - PO LOBBY", "note": "ON 12/24 AND 12/31, THIS BOX MAY BE COLLECTED AS EARLY AS 12 NOON.", "ref": "8346500002"}, "type": "Feature"}
{"geometry": {"coordinates": [-113.995285, 45.407161], "type": "Point"}, "id": "wS8HS1naMZR7gvBNrPw_pxYsKYM=", "properties": {"@spider": "usps_collection_boxes", "addr:city": "NORTH FORK", "addr:country": "US", "addr:full": "2048 HIGHWAY 93 N", "addr:postcode": "83466", "addr:state": "ID", "brand": "USPS", "collection_times": "Mo-Sa 11:25", "name": "USPS COLLECTION BOX - BLUE BOX", "ref": "8346600000"}, "type": "Feature"}
{"geometry": {"coordinates": [-113.995285, 45.407161], "type": "Point"}, "id": "NIGyi8c18sALP5ntltW3qA-oS9o=", "properties": {"@spider": "usps_collection_boxes", "addr:city": "NORTH FORK", "addr:country": "US", "addr:full": "2048 HIGHWAY 93 N", "addr:postcode": "83466", "addr:state": "ID", "brand": "USPS", "collection_times": "Mo-Sa 11:25", "name": "USPS COLLECTION BOX - PO LOBBY", "ref": "8346600001"}, "type": "Feature"}
{"geometry": {"coordinates": [-113.995282063, 45.407107748], "type": "Point"}, "id": "4VQhEhVW8eXW4VMXqDISO0Xchpo=", "properties": {"@spider": "usps_collection_boxes", "addr:city": "NORTH FORK", "addr:country": "US", "addr:full": "2048 HIGHWAY 93 N", "addr:postcode": "83466", "addr:state": "ID", "brand": "USPS", "collection_times": "Mo-Sa 11:15", "name": "USPS COLLECTION BOX - PO LOBBY", "ref": "8346600002"}, "type": "Feature"}
{"geometry": {"coordinates": [-113.891909, 45.175852], "type": "Point"}, "id": "nDzB350Pkw7YWmx5YwIeMxj2Oxk=", "properties": {"@spider": "usps_collection_boxes", "addr:city": "SALMON", "addr:country": "US", "addr:full": "600 SHOUP ST", "addr:postcode": "83467", "addr:state": "ID", "brand": "USPS", "collection_times": "Mo-Sa 12:30", "name": "USPS COLLECTION BOX - BLUE BOX", "note": "ON 12/24 AND 12/31, THIS BOX MAY BE COLLECTED AS EARLY AS 12 NOON.", "ref": "8346700000"}, "type": "Feature"}
{"geometry": {"coordinates": [-113.891928, 45.175828], "type": "Point"}, "id": "kFjPdekM5SGIywExQ6c5MCoeC6s=", "properties": {"@spider": "usps_collection_boxes", "addr:city": "SALMON", "addr:country": "US", "addr:full": "600 SHOUP ST", "addr:postcode": "83467", "addr:state": "ID", "brand": "USPS", "collection_times": "Mo-Sa 12:30", "name": "USPS COLLECTION BOX - PO LOBBY", "note": "ON 12/24 AND 12/31, THIS BOX MAY BE COLLECTED AS EARLY AS 12 NOON.", "ref": "8346700001"}, "type": "Feature"}
{"geometry": {"coordinates": [-113.891928, 45.175828], "type": "Point"}, "id": "WQceqRvIDvScYi8WmsPqBNSb6dc=", "properties": {"@spider": "usps_collection_boxes", "addr:city": "SALMON", "addr:country": "US", "addr:full": "600 SHOUP ST", "addr:postcode": "83467", "addr:state": "ID", "brand": "USPS", "collection_times": "Mo-Sa 12:30", "name": "USPS COLLECTION BOX - BLUE BOX", "note": "ON 12/24 AND 12/31, THIS BOX MAY BE COLLECTED AS EARLY AS 12 NOON.", "ref": "8346700002"}, "type": "Feature"}
{"geometry": {"coordinates": [-113.891904072, 45.175891052], "type": "Point"}, "id": "qjP6sVpANm-nHLZ38YRIwxZOsrU=", "properties": {"@spider": "usps_collection_boxes", "addr:city": "SALMON", "addr:country": "US", "addr:full": "600 SHOUP ST", "addr:postcode": "83467", "addr:state": "ID", "brand": "USPS", "collection_times": "Mo-Sa 12:30", "name": "USPS COLLECTION BOX - PO LOBBY", "note": "ON 12/24 AND 12/31, THIS BOX MAY BE COLLECTED AS EARLY AS 12 NOON.", "ref": "8346700003"}, "type": "Feature"}
{"geometry": {"coordinates": [-113.644093, 44.959954], "type": "Point"}, "id": "7NhJQmQlyfQsNKWfVi3S_gnEUSk=", "properties": {"@spider": "usps_collection_boxes", "addr:city": "TENDOY", "addr:country": "US", "addr:full": "1944 HIGHWAY 28", "addr:postcode": "83468", "addr:state": "ID", "brand": "USPS", "collection_times": "Mo-Sa 12:55", "name": "USPS COLLECTION BOX - BLUE BOX", "note": "ON 12/24 AND 12/31, THIS BOX MAY BE COLLECTED AS EARLY AS 12 NOON.", "ref": "8346800000"}, "type": "Feature"}
{"geometry": {"coordinates": [-113.644724, 44.961016], "type": "Point"}, "id": "dM1gbWrDcFLaH-jq4PPcs8qs-JE=", "properties": {"@spider": "usps_collection_boxes", "addr:city": "TENDOY", "addr:country": "US", "addr:full": "1944 HIGHWAY 28", "addr:postcode": "83468", "addr:state": "ID", "brand": "USPS", "collection_times": "Mo-Fr 11:45; Sa 10:00", "name": "USPS COLLECTION BOX - PO LOBBY", "ref": "8346800001"}, "type": "Feature"}
{"geometry": {"coordinates": [-113.644670967, 44.961021311], "type": "Point"}, "id": "W_OR9LRZHFT3GZ0rfZD27yhNQso=", "properties": {"@spider": "usps_collection_boxes", "addr:city": "TENDOY", "addr:country": "US", "addr:full": "1944 HIGHWAY 28", "addr:postcode": "83468", "addr:state": "ID", "brand": "USPS", "collection_times": "Mo-Fr 11:45; Sa 10:00", "name": "USPS COLLECTION BOX - PO LOBBY", "ref": "8346800002"}, "type": "Feature"}
