{"dataset_attributes": {"@spider": "usps_collection_boxes", "spider:collection_time": "2023-10-01T08:22:44.298171"}, "geometry": {"coordinates": [-117.008099, 46.403528], "type": "Point"}, "id": "PiHVpyMKwj5bMtcmII-wnPc3JZA=", "properties": {"@spider": "usps_collection_boxes", "addr:city": "LEWISTON", "addr:country": "US", "addr:full": "1616 17TH ST", "addr:postcode": "83501", "addr:state": "ID", "amenity": "post_box", "brand": "United States Postal Service", "brand:wikidata": "Q668687", "collection_times": "Mo-Fr 16:30; Sa 16:15", "name": "USPS COLLECTION BOX - BLUE BOX", "note": "ON 12/24 AND 12/31, THIS BOX MAY BE COLLECTED AS EARLY AS 12 NOON.", "nsi_id": "unitedstatespostalservice-a77078", "operator": "United States Postal Service", "operator:short": "USPS", "operator:type": "public", "operator:wikidata": "Q668687", "ref": "8350100005"}, "type": "Feature"}
{"dataset_attributes": {"@spider": "usps_collection_boxes", "spider:collection_time": "2023-10-01T08:22:44.298171"}, "geometry": {"coordinates": [-117.028184, 46.421605], "type": "Point"}, "id": "DonQ4Ti24YgU2CAdkKhrhLbW5ls=", "properties": {"@spider": "usps_collection_boxes", "addr:city": "LEWISTON", "addr:country": "US", "addr:full": "399 MAIN ST", "addr:postcode": "83501", "addr:state": "ID", "amenity": "post_box", "brand": "United States Postal Service", "brand:wikidata": "Q668687", "collection_times": "Mo-Fr 17:15; Sa 16:00", "name": "USPS COLLECTION BOX - BLUE BOX", "note": "ON 12/24 AND 12/31, THIS BOX MAY BE COLLECTED AS EARLY AS 12 NOON.", "nsi_id": "unitedstatespostalservice-a77078", "operator": "United States Postal Service", "operator:short": "USPS", "operator:type": "public", "operator:wikidata": "Q668687", "ref": "8350100007"}, "type": "Feature"}
{"dataset_attributes": {"@spider": "usps_collection_boxes", "spider:collection_time": "2023-10-01T08:22:44.298171"}, "geometry": {"coordinates": [-117.024114, 46.420725], "type": "Point"}, "id": "adDA35vSVz0UxrTe_pIrxD4N3qE=", "properties": {"@spider": "usps_collection_boxes", "addr:city": "LEWISTON", "addr:country": "US", "addr:full": "739 MAIN ST", "addr:postcode": "83501", "addr:state": "ID", "amenity": "post_box", "brand": "United States Postal Service", "brand:wikidata": "Q668687", "collection_times": "Mo-Fr 17:15; Sa 16:00", "name": "USPS COLLECTION BOX - BLUE BOX", "note": "ON 12/24 AND 12/31, THIS BOX MAY BE COLLECTED AS EARLY AS 12 NOON.", "nsi_id": "unitedstatespostalservice-a77078", "operator": "United States Postal Service", "operator:short": "USPS", "operator:type": "public", "operator:wikidata": "Q668687", "ref": "8350100009"}, "type": "Feature"}
{"dataset_attributes": {"@spider": "usps_collection_boxes", "spider:collection_time": "2023-10-01T08:22:44.298171"}, "geometry": {"coordinates": [-117.0163557544, 46.4164094012], "type": "Point"}, "id": "RSOzemYd2kVrNmUFXKIQjYSaGpc=", "properties": {"@spider": "usps_collection_boxes", "addr:city": "LEWISTON", "addr:country": "US", "addr:full": "1240 IDAHO ST", "addr:postcode": "83501", "addr:state": "ID", "amenity": "post_box", "brand": "United States Postal Service", "brand:wikidata": "Q668687", "collection_times": "Mo-Fr 17:15; Sa 16:00", "name": "USPS COLLECTION BOX - BLUE BOX", "note": "ON 12/24 AND 12/31, THIS BOX MAY BE COLLECTED AS EARLY AS 12 NOON.", "nsi_id": "unitedstatespostalservice-a77078", "operator": "United States Postal Service", "operator:short": "USPS", "operator:type": "public", "operator:wikidata": "Q668687", "ref": "8350100014"}, "type": "Feature"}
{"dataset_attributes": {"@spider": "usps_collection_boxes", "spider:collection_time": "2023-10-01T08:22:44.298171"}, "geometry": {"coordinates": [-117.005046, 46.399572], "type": "Point"}, "id": "D-zB_HmJNBhGC9GI1IcTggJNt1U=", "properties": {"@spider": "usps_collection_boxes", "addr:city": "LEWISTON", "addr:country": "US", "addr:full": "1920 19TH AVE", "addr:postcode": "83501", "addr:state": "ID", "amenity": "post_box", "brand": "United States Postal Service", "brand:wikidata": "Q668687", "collection_times": "Mo-Fr 17:15; Sa 16:15", "name": "USPS COLLECTION BOX - BLUE BOX", "note": "ON 12/24 AND 12/31, THIS BOX MAY BE COLLECTED AS EARLY AS 12 NOON.", "nsi_id": "unitedstatespostalservice-a77078", "operator": "United States Postal Service", "operator:short": "USPS", "operator:type": "public", "operator:wikidata": "Q668687", "ref": "8350100015"}, "type": "Feature"}
{"dataset_attributes": {"@spider": "usps_collection_boxes", "spider:collection_time": "2023-10-01T08:22:44.298171"}, "geometry": {"coordinates": [-117.02647, 46.417857], "type": "Point"}, "id": "fqIKZZ58_n5aKSI5Cx-GCoFQczk=", "properties": {"@spider": "usps_collection_boxes", "addr:city": "LEWISTON", "addr:country": "US", "addr:full": "307 SAINT JOHNS WAY", "addr:postcode": "83501", "addr:state": "ID", "amenity": "post_box", "brand": "United States Postal Service", "brand:wikidata": "Q668687", "collection_times": "Mo-Fr 17:00; Sa 16:00", "name": "USPS COLLECTION BOX - BLUE BOX", "note": "ON 12/24 AND 12/31, THIS BOX MAY BE COLLECTED AS EARLY AS 12 NOON.", "nsi_id": "unitedstatespostalservice-a77078", "operator": "United States Postal Service", "operator:short": "USPS", "operator:type": "public", "operator:wikidata": "Q668687", "ref": "8350100016"}, "type": "Feature"}
{"dataset_attributes": {"@spider": "usps_collection_boxes", "spider:collection_time": "2023-10-01T08:22:44.298171"}, "geometry": {"coordinates": [-117.024933, 46.41709], "type": "Point"}, "id": "8UxK0Xk-dlPs4SLou18Y1tovUWk=", "properties": {"@spider": "usps_collection_boxes", "addr:city": "LEWISTON", "addr:country": "US", "addr:full": "415 6TH ST", "addr:postcode": "83501", "addr:state": "ID", "amenity": "post_box", "brand": "United States Postal Service", "brand:wikidata": "Q668687", "collection_times": "Mo-Fr 17:00; Sa 16:00", "name": "USPS COLLECTION BOX - BLUE BOX", "note": "ON 12/24 AND 12/31, THIS BOX MAY BE COLLECTED AS EARLY AS 12 NOON.", "nsi_id": "unitedstatespostalservice-a77078", "operator": "United States Postal Service", "operator:short": "USPS", "operator:type": "public", "operator:wikidata": "Q668687", "ref": "8350100017"}, "type": "Feature"}
{"dataset_attributes": {"@spider": "usps_collection_boxes", "spider:collection_time": "2023-10-01T08:22:44.298171"}, "geometry": {"coordinates": [-116.9894122066, 46.3900372221], "type": "Point"}, "id": "6v944MFxqFWc9s3mWhfmfhgmG3A=", "properties": {"@spider": "usps_collection_boxes", "addr:city": "LEWISTON", "addr:country": "US", "addr:full": "117 THAIN RD", "addr:postcode": "83501", "addr:state": "ID", "amenity": "post_box", "brand": "United States Postal Service", "brand:wikidata": "Q668687", "collection_times": "Mo-Sa 17:00", "name": "USPS COLLECTION BOX - BLUE BOX", "note": "ON 12/24 AND 12/31, THIS BOX MAY BE COLLECTED AS EARLY AS 12 NOON.", "nsi_id": "unitedstatespostalservice-a77078", "operator": "United States Postal Service", "operator:short": "USPS", "operator:type": "public", "operator:wikidata": "Q668687", "ref": "8350100019"}, "type": "Feature"}
{"dataset_attributes": {"@spider": "usps_collection_boxes", "spider:collection_time": "2023-10-01T08:22:44.298171"}, "geometry": {"coordinates": [-117.020989, 46.418535], "type": "Point"}, "id": "eI0eFiU-yKouFis7x6P8OPDokeM=", "properties": {"@spider": "usps_collection_boxes", "addr:city": "LEWISTON", "addr:country": "US", "addr:full": "1002 F ST", "addr:postcode": "83501", "addr:state": "ID", "amenity": "post_box", "brand": "United States Postal Service", "brand:wikidata": "Q668687", "collection_times": "Mo-Fr 17:15; Sa 16:00", "name": "USPS COLLECTION BOX - BLUE BOX", "note": "ON 12/24 AND 12/31, THIS BOX MAY BE COLLECTED AS EARLY AS 12 NOON.", "nsi_id": "unitedstatespostalservice-a77078", "operator": "United States Postal Service", "operator:short": "USPS", "operator:type": "public", "operator:wikidata": "Q668687", "ref": "8350100020"}, "type": "Feature"}
{"dataset_attributes": {"@spider": "usps_collection_boxes", "spider:collection_time": "2023-10-01T08:22:44.298171"}, "geometry": {"coordinates": [-116.97037826, 46.3765641138], "type": "Point"}, "id": "vExFVXWQQ6Zri04gnw0kkQ1HabQ=", "properties": {"@spider": "usps_collection_boxes", "addr:city": "LEWISTON", "addr:country": "US", "addr:full": "3501 12TH ST", "addr:postcode": "83501", "addr:state": "ID", "amenity": "post_box", "brand": "United States Postal Service", "brand:wikidata": "Q668687", "collection_times": "Mo-Fr 17:00; Sa 16:45", "name": "USPS COLLECTION BOX - BLUE BOX", "note": "ON 12/24 AND 12/31, THIS BOX MAY BE COLLECTED AS EARLY AS 12 NOON.", "nsi_id": "unitedstatespostalservice-a77078", "operator": "United States Postal Service", "operator:short": "USPS", "operator:type": "public", "operator:wikidata": "Q668687", "ref": "8350100021"}, "type": "Feature"}
{"dataset_attributes": {"@spider": "usps_collection_boxes", "spider:collection_time": "2023-10-01T08:22:44.298171"}, "geometry": {"coordinates": [-117.009521, 46.415521], "type": "Point"}, "id": "WdnPrOTKkrXmobV7mSkyrSlPSUE=", "properties": {"@spider": "usps_collection_boxes", "addr:city": "LEWISTON", "addr:country": "US", "addr:full": "1613 IDAHO ST", "addr:postcode": "83501", "addr:state": "ID", "amenity": "post_box", "brand": "United States Postal Service", "brand:wikidata": "Q668687", "collection_times": "Mo-Sa 17:30", "name": "USPS COLLECTION BOX - BLUE BOX", "note": "ON 12/24 AND 12/31, THIS BOX MAY BE COLLECTED AS EARLY AS 12 NOON.", "nsi_id": "unitedstatespostalservice-a77078", "operator": "United States Postal Service", "operator:short": "USPS", "operator:type": "public", "operator:wikidata": "Q668687", "ref": "8350100024"}, "type": "Feature"}
{"dataset_attributes": {"@spider": "usps_collection_boxes", "spider:collection_time": "2023-10-01T08:22:44.298171"}, "geometry": {"coordinates": [-117.003195, 46.409767], "type": "Point"}, "id": "YJ7krLlzDhtOyah7vi8JG3eOuKs=", "properties": {"@spider": "usps_collection_boxes", "addr:city": "LEWISTON", "addr:country": "US", "addr:full": "1024 21ST ST", "addr:postcode": "83501", "addr:state": "ID", "amenity": "post_box", "brand": "United States Postal Service", "brand:wikidata": "Q668687", "collection_times": "Mo-Fr 16:30; Sa 17:15", "name": "USPS COLLECTION BOX - BLUE BOX", "note": "ON 12/24 AND 12/31, THIS BOX MAY BE COLLECTED AS EARLY AS 12 NOON.", "nsi_id": "unitedstatespostalservice-a77078", "operator": "United States Postal Service", "operator:short": "USPS", "operator:type": "public", "operator:wikidata": "Q668687", "ref": "8350100025"}, "type": "Feature"}
{"dataset_attributes": {"@spider": "usps_collection_boxes", "spider:collection_time": "2023-10-01T08:22:44.298171"}, "geometry": {"coordinates": [-116.977659912, 46.381688293], "type": "Point"}, "id": "9XsHbW2Eo6lKe7TenxGYD8wJ2nw=", "properties": {"@spider": "usps_collection_boxes", "addr:city": "LEWISTON", "addr:country": "US", "addr:full": "332 THAIN RD", "addr:postcode": "83501", "addr:state": "ID", "amenity": "post_box", "brand": "United States Postal Service", "brand:wikidata": "Q668687", "collection_times": "Mo-Fr 17:00; Sa 16:45", "name": "USPS COLLECTION BOX - PO LOBBY", "note": "ON 12/24 AND 12/31, THIS BOX MAY BE COLLECTED AS EARLY AS 12 NOON.", "nsi_id": "unitedstatespostalservice-a77078", "operator": "United States Postal Service", "operator:short": "USPS", "operator:type": "public", "operator:wikidata": "Q668687", "ref": "8350100026"}, "type": "Feature"}
{"dataset_attributes": {"@spider": "usps_collection_boxes", "spider:collection_time": "2023-10-01T08:22:44.298171"}, "geometry": {"coordinates": [-117.01658, 46.417736], "type": "Point"}, "id": "sAf8a9WHc1ij-5xwOv7aWEFrg5E=", "properties": {"@spider": "usps_collection_boxes", "addr:city": "LEWISTON", "addr:country": "US", "addr:full": "1202 F ST", "addr:postcode": "83501", "addr:state": "ID", "amenity": "post_box", "brand": "United States Postal Service", "brand:wikidata": "Q668687", "collection_times": "Mo-Fr 16:45", "name": "USPS COLLECTION BOX - BLUE BOX", "note": "ON 12/24 AND 12/31, THIS BOX MAY BE COLLECTED AS EARLY AS 12 NOON.", "nsi_id": "unitedstatespostalservice-a77078", "operator": "United States Postal Service", "operator:short": "USPS", "operator:type": "public", "operator:wikidata": "Q668687", "ref": "8350100031"}, "type": "Feature"}
{"dataset_attributes": {"@spider": "usps_collection_boxes", "spider:collection_time": "2023-10-01T08:22:44.298171"}, "geometry": {"coordinates": [-117.009053, 46.415373], "type": "Point"}, "id": "0GSs_QrDJ2qCp0sVt0QTKWV2UOU=", "properties": {"@spider": "usps_collection_boxes", "addr:city": "LEWISTON", "addr:country": "US", "addr:full": "1613 IDAHO ST", "addr:postcode": "83501", "addr:state": "ID", "amenity": "post_box", "brand": "United States Postal Service", "brand:wikidata": "Q668687", "collection_times": "Mo-Sa 17:30", "name": "USPS COLLECTION BOX - PO LOBBY", "note": "ON 12/24 AND 12/31, THIS BOX MAY BE COLLECTED AS EARLY AS 12 NOON.", "nsi_id": "unitedstatespostalservice-a77078", "operator": "United States Postal Service", "operator:short": "USPS", "operator:type": "public", "operator:wikidata": "Q668687", "ref": "8350100032"}, "type": "Feature"}
{"dataset_attributes": {"@spider": "usps_collection_boxes", "spider:collection_time": "2023-10-01T08:22:44.298171"}, "geometry": {"coordinates": [-117.032504, 46.401526], "type": "Point"}, "id": "kwrVdj0E0oQcDF_vDctbzOwnCxM=", "properties": {"@spider": "usps_collection_boxes", "addr:city": "LEWISTON", "addr:country": "US", "addr:full": "99 SOUTHWAY AVE", "addr:postcode": "83501", "addr:state": "ID", "amenity": "post_box", "brand": "United States Postal Service", "brand:wikidata": "Q668687", "collection_times": "Mo-Fr 17:00; Sa 16:15", "name": "USPS COLLECTION BOX - BLUE BOX", "note": "ON 12/24 AND 12/31, THIS BOX MAY BE COLLECTED AS EARLY AS 12 NOON.", "nsi_id": "unitedstatespostalservice-a77078", "operator": "United States Postal Service", "operator:short": "USPS", "operator:type": "public", "operator:wikidata": "Q668687", "ref": "8350100033"}, "type": "Feature"}
{"dataset_attributes": {"@spider": "usps_collection_boxes", "spider:collection_time": "2023-10-01T08:22:44.298171"}, "geometry": {"coordinates": [-117.008203, 46.397188], "type": "Point"}, "id": "4KNmRq-EIttjehPmeZ8ABnvCM7Q=", "properties": {"@spider": "usps_collection_boxes", "addr:city": "LEWISTON", "addr:country": "US", "addr:full": "1600 23RD AVE", "addr:postcode": "83501", "addr:state": "ID", "amenity": "post_box", "brand": "United States Postal Service", "brand:wikidata": "Q668687", "collection_times": "Mo-Fr 16:30; Sa 16:15", "name": "USPS COLLECTION BOX - BLUE BOX", "note": "ON 12/24 AND 12/31, THIS BOX MAY BE COLLECTED AS EARLY AS 12 NOON.", "nsi_id": "unitedstatespostalservice-a77078", "operator": "United States Postal Service", "operator:short": "USPS", "operator:type": "public", "operator:wikidata": "Q668687", "ref": "8350100036"}, "type": "Feature"}
{"dataset_attributes": {"@spider": "usps_collection_boxes", "spider:collection_time": "2023-10-01T08:22:44.298171"}, "geometry": {"coordinates": [-117.009168429, 46.415095352], "type": "Point"}, "id": "KVkFdht1_wC2mExbJ3XVke7DFWQ=", "properties": {"@spider": "usps_collection_boxes", "addr:city": "LEWISTON", "addr:country": "US", "addr:full": "1613 IDAHO ST", "addr:postcode": "83501", "addr:state": "ID", "amenity": "post_box", "brand": "United States Postal Service", "brand:wikidata": "Q668687", "collection_times": "Mo-Fr 17:00; Sa 12:00", "name": "USPS COLLECTION BOX - PO LOBBY", "note": "ON 12/24 AND 12/31, THIS BOX MAY BE COLLECTED AS EARLY AS 12 NOON.", "nsi_id": "unitedstatespostalservice-a77078", "operator": "United States Postal Service", "operator:short": "USPS", "operator:type": "public", "operator:wikidata": "Q668687", "ref": "8350100039"}, "type": "Feature"}
{"dataset_attributes": {"@spider": "usps_collection_boxes", "spider:collection_time": "2023-10-01T08:22:44.298171"}, "geometry": {"coordinates": [-116.320841, 46.505136], "type": "Point"}, "id": "3G6XOO7BOh1OuIcBnJig9OJ7tOI=", "properties": {"@spider": "usps_collection_boxes", "addr:city": "AHSAHKA", "addr:country": "US", "addr:full": "103 NORTHFORK DR", "addr:postcode": "83520", "addr:state": "ID", "amenity": "post_box", "brand": "United States Postal Service", "brand:wikidata": "Q668687", "collection_times": "Mo-Fr 14:00; Sa 09:45", "name": "USPS COLLECTION BOX - BLUE BOX", "note": "ON 12/24 AND 12/31, THIS BOX MAY BE COLLECTED AS EARLY AS 12 NOON.", "nsi_id": "unitedstatespostalservice-a77078", "operator": "United States Postal Service", "operator:short": "USPS", "operator:type": "public", "operator:wikidata": "Q668687", "ref": "8352000001"}, "type": "Feature"}
{"dataset_attributes": {"@spider": "usps_collection_boxes", "spider:collection_time": "2023-10-01T08:22:44.298171"}, "geometry": {"coordinates": [-116.320841, 46.505136], "type": "Point"}, "id": "abxhSyif6ouqD6uABDcCEgpdzG0=", "properties": {"@spider": "usps_collection_boxes", "addr:city": "AHSAHKA", "addr:country": "US", "addr:full": "103 NORTHFORK DR", "addr:postcode": "83520", "addr:state": "ID", "amenity": "post_box", "brand": "United States Postal Service", "brand:wikidata": "Q668687", "collection_times": "Mo-Fr 14:00; Sa 10:00", "name": "USPS COLLECTION BOX - PO LOBBY", "note": "ON 12/24 AND 12/31, THIS BOX MAY BE COLLECTED AS EARLY AS 12 NOON.", "nsi_id": "unitedstatespostalservice-a77078", "operator": "United States Postal Service", "operator:short": "USPS", "operator:type": "public", "operator:wikidata": "Q668687", "ref": "8352000002"}, "type": "Feature"}
{"dataset_attributes": {"@spider": "usps_collection_boxes", "spider:collection_time": "2023-10-01T08:22:44.298171"}, "geometry": {"coordinates": [-116.320842671, 46.505135504], "type": "Point"}, "id": "3sbMEb1x68zKDXu8yoU0UQi1qLg=", "properties": {"@spider": "usps_collection_boxes", "addr:city": "AHSAHKA", "addr:country": "US", "addr:full": "103 NORTHFORK DR", "addr:postcode": "83520", "addr:state": "ID", "amenity": "post_box", "brand": "United States Postal Service", "brand:wikidata": "Q668687", "collection_times": "Mo-Fr 14:00; Sa 10:00", "name": "USPS COLLECTION BOX - PO LOBBY", "note": "ON 12/24 AND 12/31, THIS BOX MAY BE COLLECTED AS EARLY AS 12 NOON.", "nsi_id": "unitedstatespostalservice-a77078", "operator": "United States Postal Service", "operator:short": "USPS", "operator:type": "public", "operator:wikidata": "Q668687", "ref": "8352000003"}, "type": "Feature"}
{"dataset_attributes": {"@spider": "usps_collection_boxes", "spider:collection_time": "2023-10-01T08:22:44.298171"}, "geometry": {"coordinates": [-116.351167, 46.04787], "type": "Point"}, "id": "zrKc3u7_krNUDelsze3YUuymgn8=", "properties": {"@spider": "usps_collection_boxes", "addr:city": "COTTONWOOD", "addr:country": "US", "addr:full": "301 BROADWAY", "addr:postcode": "83522", "addr:state": "ID", "amenity": "post_box", "brand": "United States Postal Service", "brand:wikidata": "Q668687", "collection_times": "Mo-Fr 15:30; Sa 10:00", "name": "USPS COLLECTION BOX - BLUE BOX", "note": "ON 12/24 AND 12/31, THIS BOX MAY BE COLLECTED AS EARLY AS 12 NOON.", "nsi_id": "unitedstatespostalservice-a77078", "operator": "United States Postal Service", "operator:short": "USPS", "operator:type": "public", "operator:wikidata": "Q668687", "ref": "8352200001"}, "type": "Feature"}
{"dataset_attributes": {"@spider": "usps_collection_boxes", "spider:collection_time": "2023-10-01T08:22:44.298171"}, "geometry": {"coordinates": [-116.351167, 46.04787], "type": "Point"}, "id": "25stjwTTe3lwlheJU-GIwA5sznE=", "properties": {"@spider": "usps_collection_boxes", "addr:city": "COTTONWOOD", "addr:country": "US", "addr:full": "301 BROADWAY", "addr:postcode": "83522", "addr:state": "ID", "amenity": "post_box", "brand": "United States Postal Service", "brand:wikidata": "Q668687", "collection_times": "Mo-Fr 16:00; Sa 10:00", "name": "USPS COLLECTION BOX - PO LOBBY", "note": "ON 12/24 AND 12/31, THIS BOX MAY BE COLLECTED AS EARLY AS 12 NOON.", "nsi_id": "unitedstatespostalservice-a77078", "operator": "United States Postal Service", "operator:short": "USPS", "operator:type": "public", "operator:wikidata": "Q668687", "ref": "8352200003"}, "type": "Feature"}
{"dataset_attributes": {"@spider": "usps_collection_boxes", "spider:collection_time": "2023-10-01T08:22:44.298171"}, "geometry": {"coordinates": [-116.351008569, 46.047993454], "type": "Point"}, "id": "C1EKMymVZ6W7XMkWhoPwBhqZ19c=", "properties": {"@spider": "usps_collection_boxes", "addr:city": "COTTONWOOD", "addr:country": "US", "addr:full": "301 BROADWAY", "addr:postcode": "83522", "addr:state": "ID", "amenity": "post_box", "brand": "United States Postal Service", "brand:wikidata": "Q668687", "collection_times": "Mo-Fr 16:00; Sa 10:00", "name": "USPS COLLECTION BOX - PO LOBBY", "note": "ON 12/24 AND 12/31, THIS BOX MAY BE COLLECTED AS EARLY AS 12 NOON.", "nsi_id": "unitedstatespostalservice-a77078", "operator": "United States Postal Service", "operator:short": "USPS", "operator:type": "public", "operator:wikidata": "Q668687", "ref": "8352200004"}, "type": "Feature"}
{"dataset_attributes": {"@spider": "usps_collection_boxes", "spider:collection_time": "2023-10-01T08:22:44.298171"}, "geometry": {"coordinates": [-116.4758615255, 46.2407915043], "type": "Point"}, "id": "HFTlXJLP9X8OntnneXTVoF6uDDI=", "properties": {"@spider": "usps_collection_boxes", "addr:city": "CRAIGMONT", "addr:country": "US", "addr:full": "118 W MAIN ST", "addr:postcode": "83523", "addr:state": "ID", "amenity": "post_box", "brand": "United States Postal Service", "brand:wikidata": "Q668687", "collection_times": "Mo-Fr 15:30; Sa 10:00", "name": "USPS COLLECTION BOX - BLUE BOX", "note": "ON 12/24 AND 12/31, THIS BOX MAY BE COLLECTED AS EARLY AS 12 NOON.", "nsi_id": "unitedstatespostalservice-a77078", "operator": "United States Postal Service", "operator:short": "USPS", "operator:type": "public", "operator:wikidata": "Q668687", "ref": "8352300001"}, "type": "Feature"}
{"dataset_attributes": {"@spider": "usps_collection_boxes", "spider:collection_time": "2023-10-01T08:22:44.298171"}, "geometry": {"coordinates": [-116.47583, 46.240786], "type": "Point"}, "id": "how_od8e-3x_XWmEWlYnODeuLF0=", "properties": {"@spider": "usps_collection_boxes", "addr:city": "CRAIGMONT", "addr:country": "US", "addr:full": "118 W MAIN ST", "addr:postcode": "83523", "addr:state": "ID", "amenity": "post_box", "brand": "United States Postal Service", "brand:wikidata": "Q668687", "collection_times": "Mo-Fr 15:30; Sa 10:00", "name": "USPS COLLECTION BOX - PO LOBBY", "note": "ON 12/24 AND 12/31, THIS BOX MAY BE COLLECTED AS EARLY AS 12 NOON.", "nsi_id": "unitedstatespostalservice-a77078", "operator": "United States Postal Service", "operator:short": "USPS", "operator:type": "public", "operator:wikidata": "Q668687", "ref": "8352300002"}, "type": "Feature"}
{"dataset_attributes": {"@spider": "usps_collection_boxes", "spider:collection_time": "2023-10-01T08:22:44.298171"}, "geometry": {"coordinates": [-116.475861526, 46.240782504], "type": "Point"}, "id": "nowvyJNJO33Is7neshyXyLLsT78=", "properties": {"@spider": "usps_collection_boxes", "addr:city": "CRAIGMONT", "addr:country": "US", "addr:full": "118 W MAIN ST", "addr:postcode": "83523", "addr:state": "ID", "amenity": "post_box", "brand": "United States Postal Service", "brand:wikidata": "Q668687", "collection_times": "Mo-Fr 15:45; Sa 09:45", "name": "USPS COLLECTION BOX - PO LOBBY", "note": "ON 12/24 AND 12/31, THIS BOX MAY BE COLLECTED AS EARLY AS 12 NOON.", "nsi_id": "unitedstatespostalservice-a77078", "operator": "United States Postal Service", "operator:short": "USPS", "operator:type": "public", "operator:wikidata": "Q668687", "ref": "8352300003"}, "type": "Feature"}
{"dataset_attributes": {"@spider": "usps_collection_boxes", "spider:collection_time": "2023-10-01T08:22:44.298171"}, "geometry": {"coordinates": [-116.668125618, 46.373921551], "type": "Point"}, "id": "YL1401wEMBbEMfXggicvKERh_JM=", "properties": {"@spider": "usps_collection_boxes", "addr:city": "CULDESAC", "addr:country": "US", "addr:full": "902 PHINNEY ST", "addr:postcode": "83524", "addr:state": "ID", "amenity": "post_box", "brand": "United States Postal Service", "brand:wikidata": "Q668687", "collection_times": "Mo-Fr 16:15; Sa 13:00", "name": "USPS COLLECTION BOX - BLUE BOX", "note": "ON 12/24 AND 12/31, THIS BOX MAY BE COLLECTED AS EARLY AS 12 NOON.", "nsi_id": "unitedstatespostalservice-a77078", "operator": "United States Postal Service", "operator:short": "USPS", "operator:type": "public", "operator:wikidata": "Q668687", "ref": "8352400001"}, "type": "Feature"}
{"dataset_attributes": {"@spider": "usps_collection_boxes", "spider:collection_time": "2023-10-01T08:22:44.298171"}, "geometry": {"coordinates": [-116.668125618, 46.373921551], "type": "Point"}, "id": "52hFW4FhwLTOzAD0D11VF4YcZgw=", "properties": {"@spider": "usps_collection_boxes", "addr:city": "CULDESAC", "addr:country": "US", "addr:full": "902 PHINNEY ST", "addr:postcode": "83524", "addr:state": "ID", "amenity": "post_box", "brand": "United States Postal Service", "brand:wikidata": "Q668687", "collection_times": "Mo-Fr 12:00; Sa 09:00", "name": "USPS COLLECTION BOX - PO LOBBY", "nsi_id": "unitedstatespostalservice-a77078", "operator": "United States Postal Service", "operator:short": "USPS", "operator:type": "public", "operator:wikidata": "Q668687", "ref": "8352400002"}, "type": "Feature"}
{"dataset_attributes": {"@spider": "usps_collection_boxes", "spider:collection_time": "2023-10-01T08:22:44.298171"}, "geometry": {"coordinates": [-115.436856, 45.826529], "type": "Point"}, "id": "COoEAbiBXHeZM_tjp18VRdyoJO8=", "properties": {"@spider": "usps_collection_boxes", "addr:city": "ELK CITY", "addr:country": "US", "addr:full": "313 MAIN ST", "addr:postcode": "83525", "addr:state": "ID", "amenity": "post_box", "brand": "United States Postal Service", "brand:wikidata": "Q668687", "collection_times": "Mo-Sa 11:30", "name": "USPS COLLECTION BOX - BLUE BOX", "nsi_id": "unitedstatespostalservice-a77078", "operator": "United States Postal Service", "operator:short": "USPS", "operator:type": "public", "operator:wikidata": "Q668687", "ref": "8352500001"}, "type": "Feature"}
{"dataset_attributes": {"@spider": "usps_collection_boxes", "spider:collection_time": "2023-10-01T08:22:44.298171"}, "geometry": {"coordinates": [-115.436856, 45.826529], "type": "Point"}, "id": "GKbbtyCuHRT4imjrwC4lYOs1zoQ=", "properties": {"@spider": "usps_collection_boxes", "addr:city": "ELK CITY", "addr:country": "US", "addr:full": "313 MAIN ST", "addr:postcode": "83525", "addr:state": "ID", "amenity": "post_box", "brand": "United States Postal Service", "brand:wikidata": "Q668687", "collection_times": "Mo-Sa 12:00", "name": "USPS COLLECTION BOX - PO LOBBY", "nsi_id": "unitedstatespostalservice-a77078", "operator": "United States Postal Service", "operator:short": "USPS", "operator:type": "public", "operator:wikidata": "Q668687", "ref": "8352500004"}, "type": "Feature"}
{"dataset_attributes": {"@spider": "usps_collection_boxes", "spider:collection_time": "2023-10-01T08:22:44.298171"}, "geometry": {"coordinates": [-115.436846575, 45.826560415], "type": "Point"}, "id": "Lv_OVWuLkFAHbZA6ukzeoawUyYs=", "properties": {"@spider": "usps_collection_boxes", "addr:city": "ELK CITY", "addr:country": "US", "addr:full": "313 MAIN ST", "addr:postcode": "83525", "addr:state": "ID", "amenity": "post_box", "brand": "United States Postal Service", "brand:wikidata": "Q668687", "collection_times": "Mo-Sa 12:00", "name": "USPS COLLECTION BOX - PO LOBBY", "nsi_id": "unitedstatespostalservice-a77078", "operator": "United States Postal Service", "operator:short": "USPS", "operator:type": "public", "operator:wikidata": "Q668687", "ref": "8352500005"}, "type": "Feature"}
{"dataset_attributes": {"@spider": "usps_collection_boxes", "spider:collection_time": "2023-10-01T08:22:44.298171"}, "geometry": {"coordinates": [-116.389482, 46.152411], "type": "Point"}, "id": "X8of9yuwMN-w0Oy4PBAjrpQXMTM=", "properties": {"@spider": "usps_collection_boxes", "addr:city": "FERDINAND", "addr:country": "US", "addr:full": "341 MAIN ST", "addr:postcode": "83526", "addr:state": "ID", "amenity": "post_box", "brand": "United States Postal Service", "brand:wikidata": "Q668687", "collection_times": "Mo-Fr 16:00; Sa 15:45", "name": "USPS COLLECTION BOX - BLUE BOX", "note": "ON 12/24 AND 12/31, THIS BOX MAY BE COLLECTED AS EARLY AS 12 NOON.", "nsi_id": "unitedstatespostalservice-a77078", "operator": "United States Postal Service", "operator:short": "USPS", "operator:type": "public", "operator:wikidata": "Q668687", "ref": "8352600001"}, "type": "Feature"}
{"dataset_attributes": {"@spider": "usps_collection_boxes", "spider:collection_time": "2023-10-01T08:22:44.298171"}, "geometry": {"coordinates": [-116.389482, 46.152411], "type": "Point"}, "id": "Hyt1s6Wm7d9fl62HHcatkoHYIpc=", "properties": {"@spider": "usps_collection_boxes", "addr:city": "FERDINAND", "addr:country": "US", "addr:full": "341 MAIN ST", "addr:postcode": "83526", "addr:state": "ID", "amenity": "post_box", "brand": "United States Postal Service", "brand:wikidata": "Q668687", "collection_times": "Mo-Fr 16:00; Sa 10:00", "name": "USPS COLLECTION BOX - PO LOBBY", "note": "ON 12/24 AND 12/31, THIS BOX MAY BE COLLECTED AS EARLY AS 12 NOON.", "nsi_id": "unitedstatespostalservice-a77078", "operator": "United States Postal Service", "operator:short": "USPS", "operator:type": "public", "operator:wikidata": "Q668687", "ref": "8352600002"}, "type": "Feature"}
{"dataset_attributes": {"@spider": "usps_collection_boxes", "spider:collection_time": "2023-10-01T08:22:44.298171"}, "geometry": {"coordinates": [-116.389475271, 46.152408513], "type": "Point"}, "id": "JtVUtcICWkIfyGA6zOj4REoNHSA=", "properties": {"@spider": "usps_collection_boxes", "addr:city": "FERDINAND", "addr:country": "US", "addr:full": "341 MAIN ST", "addr:postcode": "83526", "addr:state": "ID", "amenity": "post_box", "brand": "United States Postal Service", "brand:wikidata": "Q668687", "collection_times": "Mo-Fr 16:00; Sa 10:00", "name": "USPS COLLECTION BOX - PO LOBBY", "note": "ON 12/24 AND 12/31, THIS BOX MAY BE COLLECTED AS EARLY AS 12 NOON.", "nsi_id": "unitedstatespostalservice-a77078", "operator": "United States Postal Service", "operator:short": "USPS", "operator:type": "public", "operator:wikidata": "Q668687", "ref": "8352600003"}, "type": "Feature"}
{"dataset_attributes": {"@spider": "usps_collection_boxes", "spider:collection_time": "2023-10-01T08:22:44.298171"}, "geometry": {"coordinates": [-116.122536, 45.926332], "type": "Point"}, "id": "YFWICTB9iealedGYzfBuLqDXBoY=", "properties": {"@spider": "usps_collection_boxes", "addr:city": "GRANGEVILLE", "addr:country": "US", "addr:full": "300 W MAIN ST", "addr:postcode": "83530", "addr:state": "ID", "amenity": "post_box", "brand": "United States Postal Service", "brand:wikidata": "Q668687", "collection_times": "Mo-Sa 15:00", "name": "USPS COLLECTION BOX - BLUE BOX", "note": "ON 12/24 AND 12/31, THIS BOX MAY BE COLLECTED AS EARLY AS 12 NOON.", "nsi_id": "unitedstatespostalservice-a77078", "operator": "United States Postal Service", "operator:short": "USPS", "operator:type": "public", "operator:wikidata": "Q668687", "ref": "8353000007"}, "type": "Feature"}
{"dataset_attributes": {"@spider": "usps_collection_boxes", "spider:collection_time": "2023-10-01T08:22:44.298171"}, "geometry": {"coordinates": [-116.122536, 45.926332], "type": "Point"}, "id": "Bf_E9jKWf4zppQomSWO1Y2N-Ie8=", "properties": {"@spider": "usps_collection_boxes", "addr:city": "GRANGEVILLE", "addr:country": "US", "addr:full": "300 W MAIN ST", "addr:postcode": "83530", "addr:state": "ID", "amenity": "post_box", "brand": "United States Postal Service", "brand:wikidata": "Q668687", "collection_times": "Mo-Sa 15:30", "name": "USPS COLLECTION BOX - PO LOBBY", "note": "ON 12/24 AND 12/31, THIS BOX MAY BE COLLECTED AS EARLY AS 12 NOON.", "nsi_id": "unitedstatespostalservice-a77078", "operator": "United States Postal Service", "operator:short": "USPS", "operator:type": "public", "operator:wikidata": "Q668687", "ref": "8353000008"}, "type": "Feature"}
{"dataset_attributes": {"@spider": "usps_collection_boxes", "spider:collection_time": "2023-10-01T08:22:44.298171"}, "geometry": {"coordinates": [-116.122545973, 45.926328805], "type": "Point"}, "id": "9lBAs5Ktm295deTzK40nCDpAZB4=", "properties": {"@spider": "usps_collection_boxes", "addr:city": "GRANGEVILLE", "addr:country": "US", "addr:full": "300 W MAIN ST STE 100", "addr:postcode": "83530", "addr:state": "ID", "amenity": "post_box", "brand": "United States Postal Service", "brand:wikidata": "Q668687", "collection_times": "Mo-Fr 15:30; Sa 14:00", "name": "USPS COLLECTION BOX - PO LOBBY", "note": "ON 12/24 AND 12/31, THIS BOX MAY BE COLLECTED AS EARLY AS 12 NOON.", "nsi_id": "unitedstatespostalservice-a77078", "operator": "United States Postal Service", "operator:short": "USPS", "operator:type": "public", "operator:wikidata": "Q668687", "ref": "8353000009"}, "type": "Feature"}
{"dataset_attributes": {"@spider": "usps_collection_boxes", "spider:collection_time": "2023-10-01T08:22:44.298171"}, "geometry": {"coordinates": [-116.707993, 46.576631], "type": "Point"}, "id": "-xDkY9VRiSlmB1wULJdlumMZv_k=", "properties": {"@spider": "usps_collection_boxes", "addr:city": "JULIAETTA", "addr:country": "US", "addr:full": "195 MAIN ST", "addr:postcode": "83535", "addr:state": "ID", "amenity": "post_box", "brand": "United States Postal Service", "brand:wikidata": "Q668687", "collection_times": "Mo-Fr 16:15; Sa 16:00", "name": "USPS COLLECTION BOX - BLUE BOX", "note": "ON 12/24 AND 12/31, THIS BOX MAY BE COLLECTED AS EARLY AS 12 NOON.", "nsi_id": "unitedstatespostalservice-a77078", "operator": "United States Postal Service", "operator:short": "USPS", "operator:type": "public", "operator:wikidata": "Q668687", "ref": "8353500001"}, "type": "Feature"}
{"dataset_attributes": {"@spider": "usps_collection_boxes", "spider:collection_time": "2023-10-01T08:22:44.298171"}, "geometry": {"coordinates": [-116.707993, 46.576631], "type": "Point"}, "id": "VFgTzPAv0cds2jWN3aG2KDvaD_8=", "properties": {"@spider": "usps_collection_boxes", "addr:city": "JULIAETTA", "addr:country": "US", "addr:full": "195 MAIN ST", "addr:postcode": "83535", "addr:state": "ID", "amenity": "post_box", "brand": "United States Postal Service", "brand:wikidata": "Q668687", "collection_times": "Mo-Fr 16:15; Sa 09:15", "name": "USPS COLLECTION BOX - PO LOBBY", "note": "ON 12/24 AND 12/31, THIS BOX MAY BE COLLECTED AS EARLY AS 12 NOON.", "nsi_id": "unitedstatespostalservice-a77078", "operator": "United States Postal Service", "operator:short": "USPS", "operator:type": "public", "operator:wikidata": "Q668687", "ref": "8353500002"}, "type": "Feature"}
{"dataset_attributes": {"@spider": "usps_collection_boxes", "spider:collection_time": "2023-10-01T08:22:44.298171"}, "geometry": {"coordinates": [-116.707995988, 46.576630267], "type": "Point"}, "id": "G_bxYxkVF1mUaLnNdCzJivtZBHU=", "properties": {"@spider": "usps_collection_boxes", "addr:city": "JULIAETTA", "addr:country": "US", "addr:full": "195 MAIN ST", "addr:postcode": "83535", "addr:state": "ID", "amenity": "post_box", "brand": "United States Postal Service", "brand:wikidata": "Q668687", "collection_times": "Mo-Fr 16:15; Sa 09:15", "name": "USPS COLLECTION BOX - PO LOBBY", "note": "ON 12/24 AND 12/31, THIS BOX MAY BE COLLECTED AS EARLY AS 12 NOON.", "nsi_id": "unitedstatespostalservice-a77078", "operator": "United States Postal Service", "operator:short": "USPS", "operator:type": "public", "operator:wikidata": "Q668687", "ref": "8353500003"}, "type": "Feature"}
{"dataset_attributes": {"@spider": "usps_collection_boxes", "spider:collection_time": "2023-10-01T08:22:44.298171"}, "geometry": {"coordinates": [-116.028128, 46.227729], "type": "Point"}, "id": "eNctUWnlTWYjdqRSfoJPqx9D-Bg=", "properties": {"@spider": "usps_collection_boxes", "addr:city": "KAMIAH", "addr:country": "US", "addr:full": "412 MAIN ST", "addr:postcode": "83536", "addr:state": "ID", "amenity": "post_box", "brand": "United States Postal Service", "brand:wikidata": "Q668687", "collection_times": "Mo-Fr 15:15; Sa 11:30", "name": "USPS COLLECTION BOX - BLUE BOX", "note": "ON 12/24 AND 12/31, THIS BOX MAY BE COLLECTED AS EARLY AS 12 NOON.", "nsi_id": "unitedstatespostalservice-a77078", "operator": "United States Postal Service", "operator:short": "USPS", "operator:type": "public", "operator:wikidata": "Q668687", "ref": "8353600001"}, "type": "Feature"}
{"dataset_attributes": {"@spider": "usps_collection_boxes", "spider:collection_time": "2023-10-01T08:22:44.298171"}, "geometry": {"coordinates": [-116.028233, 46.227706], "type": "Point"}, "id": "jPMM62b-8Zh-JzQY0h-e_W_4v8c=", "properties": {"@spider": "usps_collection_boxes", "addr:city": "KAMIAH", "addr:country": "US", "addr:full": "412 MAIN ST", "addr:postcode": "83536", "addr:state": "ID", "amenity": "post_box", "brand": "United States Postal Service", "brand:wikidata": "Q668687", "collection_times": "Mo-Fr 15:15; Sa 11:30", "name": "USPS COLLECTION BOX - PO LOBBY", "note": "ON 12/24 AND 12/31, THIS BOX MAY BE COLLECTED AS EARLY AS 12 NOON.", "nsi_id": "unitedstatespostalservice-a77078", "operator": "United States Postal Service", "operator:short": "USPS", "operator:type": "public", "operator:wikidata": "Q668687", "ref": "8353600002"}, "type": "Feature"}
{"dataset_attributes": {"@spider": "usps_collection_boxes", "spider:collection_time": "2023-10-01T08:22:44.298171"}, "geometry": {"coordinates": [-116.027406, 46.229528], "type": "Point"}, "id": "vkgGBt8nJ3GSlFxdmzeCPKmXSoo=", "properties": {"@spider": "usps_collection_boxes", "addr:city": "KAMIAH", "addr:country": "US", "addr:full": "508 3RD ST", "addr:postcode": "83536", "addr:state": "ID", "amenity": "post_box", "brand": "United States Postal Service", "brand:wikidata": "Q668687", "collection_times": "Mo-Sa 12:15", "name": "USPS COLLECTION BOX - BLUE BOX", "note": "ON 12/24 AND 12/31, THIS BOX MAY BE COLLECTED AS EARLY AS 12 NOON.", "nsi_id": "unitedstatespostalservice-a77078", "operator": "United States Postal Service", "operator:short": "USPS", "operator:type": "public", "operator:wikidata": "Q668687", "ref": "8353600003"}, "type": "Feature"}
{"dataset_attributes": {"@spider": "usps_collection_boxes", "spider:collection_time": "2023-10-01T08:22:44.298171"}, "geometry": {"coordinates": [-116.028030188, 46.227779581], "type": "Point"}, "id": "6kvN5iCAqFYz9eYGqZIQ9xEwkOY=", "properties": {"@spider": "usps_collection_boxes", "addr:city": "KAMIAH", "addr:country": "US", "addr:full": "412 MAIN ST", "addr:postcode": "83536", "addr:state": "ID", "amenity": "post_box", "brand": "United States Postal Service", "brand:wikidata": "Q668687", "collection_times": "Mo-Fr 15:15; Sa 12:30", "name": "USPS COLLECTION BOX - PO LOBBY", "note": "ON 12/24 AND 12/31, THIS BOX MAY BE COLLECTED AS EARLY AS 12 NOON.", "nsi_id": "unitedstatespostalservice-a77078", "operator": "United States Postal Service", "operator:short": "USPS", "operator:type": "public", "operator:wikidata": "Q668687", "ref": "8353600004"}, "type": "Feature"}
{"dataset_attributes": {"@spider": "usps_collection_boxes", "spider:collection_time": "2023-10-01T08:22:44.298171"}, "geometry": {"coordinates": [-116.649379, 46.613872], "type": "Point"}, "id": "KPXQ-Una82-YY4mwfokeagUkEg4=", "properties": {"@spider": "usps_collection_boxes", "addr:city": "KENDRICK", "addr:country": "US", "addr:full": "703 E MAIN ST", "addr:postcode": "83537", "addr:state": "ID", "amenity": "post_box", "brand": "United States Postal Service", "brand:wikidata": "Q668687", "collection_times": "Mo-Sa 16:30", "name": "USPS COLLECTION BOX - BLUE BOX", "note": "ON 12/24 AND 12/31, THIS BOX MAY BE COLLECTED AS EARLY AS 12 NOON.", "nsi_id": "unitedstatespostalservice-a77078", "operator": "United States Postal Service", "operator:short": "USPS", "operator:type": "public", "operator:wikidata": "Q668687", "ref": "8353700001"}, "type": "Feature"}
{"dataset_attributes": {"@spider": "usps_collection_boxes", "spider:collection_time": "2023-10-01T08:22:44.298171"}, "geometry": {"coordinates": [-116.649379, 46.613872], "type": "Point"}, "id": "sTORGpePukr1JXmbGq0LJZrBSMY=", "properties": {"@spider": "usps_collection_boxes", "addr:city": "KENDRICK", "addr:country": "US", "addr:full": "703 E MAIN ST", "addr:postcode": "83537", "addr:state": "ID", "amenity": "post_box", "brand": "United States Postal Service", "brand:wikidata": "Q668687", "collection_times": "Mo-Fr 16:45; Sa 13:00", "name": "USPS COLLECTION BOX - PO LOBBY", "note": "ON 12/24 AND 12/31, THIS BOX MAY BE COLLECTED AS EARLY AS 12 NOON.", "nsi_id": "unitedstatespostalservice-a77078", "operator": "United States Postal Service", "operator:short": "USPS", "operator:type": "public", "operator:wikidata": "Q668687", "ref": "8353700002"}, "type": "Feature"}
{"dataset_attributes": {"@spider": "usps_collection_boxes", "spider:collection_time": "2023-10-01T08:22:44.298171"}, "geometry": {"coordinates": [-116.649382249, 46.613865532], "type": "Point"}, "id": "PxSJjrqdBFNBKfwl33FWrEQblAI=", "properties": {"@spider": "usps_collection_boxes", "addr:city": "KENDRICK", "addr:country": "US", "addr:full": "703 E MAIN ST", "addr:postcode": "83537", "addr:state": "ID", "amenity": "post_box", "brand": "United States Postal Service", "brand:wikidata": "Q668687", "collection_times": "Mo-Fr 16:45", "name": "USPS COLLECTION BOX - PO LOBBY", "note": "ON 12/24 AND 12/31, THIS BOX MAY BE COLLECTED AS EARLY AS 12 NOON.", "nsi_id": "unitedstatespostalservice-a77078", "operator": "United States Postal Service", "operator:short": "USPS", "operator:type": "public", "operator:wikidata": "Q668687", "ref": "8353700003"}, "type": "Feature"}
{"dataset_attributes": {"@spider": "usps_collection_boxes", "spider:collection_time": "2023-10-01T08:22:44.298171"}, "geometry": {"coordinates": [-115.97888, 46.139024], "type": "Point"}, "id": "X8Ph7QgG56KayideiMkj5otLhJ0=", "properties": {"@spider": "usps_collection_boxes", "addr:city": "KOOSKIA", "addr:country": "US", "addr:full": "104 S MAIN ST", "addr:postcode": "83539", "addr:state": "ID", "amenity": "post_box", "brand": "United States Postal Service", "brand:wikidata": "Q668687", "collection_times": "Mo-Fr 14:45; Sa 11:30", "name": "USPS COLLECTION BOX - BLUE BOX", "note": "ON 12/24 AND 12/31, THIS BOX MAY BE COLLECTED AS EARLY AS 12 NOON.", "nsi_id": "unitedstatespostalservice-a77078", "operator": "United States Postal Service", "operator:short": "USPS", "operator:type": "public", "operator:wikidata": "Q668687", "ref": "8353900001"}, "type": "Feature"}
{"dataset_attributes": {"@spider": "usps_collection_boxes", "spider:collection_time": "2023-10-01T08:22:44.298171"}, "geometry": {"coordinates": [-115.97888, 46.139024], "type": "Point"}, "id": "kdkMYywE7077BZ3Q7NhJ5RzAhn4=", "properties": {"@spider": "usps_collection_boxes", "addr:city": "KOOSKIA", "addr:country": "US", "addr:full": "104 S MAIN ST", "addr:postcode": "83539", "addr:state": "ID", "amenity": "post_box", "brand": "United States Postal Service", "brand:wikidata": "Q668687", "collection_times": "Mo-Fr 14:45; Sa 11:30", "name": "USPS COLLECTION BOX - PO LOBBY", "note": "ON 12/24 AND 12/31, THIS BOX MAY BE COLLECTED AS EARLY AS 12 NOON.", "nsi_id": "unitedstatespostalservice-a77078", "operator": "United States Postal Service", "operator:short": "USPS", "operator:type": "public", "operator:wikidata": "Q668687", "ref": "8353900002"}, "type": "Feature"}
{"dataset_attributes": {"@spider": "usps_collection_boxes", "spider:collection_time": "2023-10-01T08:22:44.298171"}, "geometry": {"coordinates": [-115.978881308, 46.139020429], "type": "Point"}, "id": "WBpHbrl_mzP8XnvWXVXcPkzpKJ8=", "properties": {"@spider": "usps_collection_boxes", "addr:city": "KOOSKIA", "addr:country": "US", "addr:full": "104 S MAIN ST", "addr:postcode": "83539", "addr:state": "ID", "amenity": "post_box", "brand": "United States Postal Service", "brand:wikidata": "Q668687", "collection_times": "Mo-Fr 14:45; Sa 11:30", "name": "USPS COLLECTION BOX - PO LOBBY", "note": "ON 12/24 AND 12/31, THIS BOX MAY BE COLLECTED AS EARLY AS 12 NOON.", "nsi_id": "unitedstatespostalservice-a77078", "operator": "United States Postal Service", "operator:short": "USPS", "operator:type": "public", "operator:wikidata": "Q668687", "ref": "8353900003"}, "type": "Feature"}
{"dataset_attributes": {"@spider": "usps_collection_boxes", "spider:collection_time": "2023-10-01T08:22:44.298171"}, "geometry": {"coordinates": [-116.80493, 46.40489], "type": "Point"}, "id": "hffImE0_2-jeS0xHY6E6ntuI3ao=", "properties": {"@spider": "usps_collection_boxes", "addr:city": "LAPWAI", "addr:country": "US", "addr:full": "102 S MAIN ST", "addr:postcode": "83540", "addr:state": "ID", "amenity": "post_box", "brand": "United States Postal Service", "brand:wikidata": "Q668687", "collection_times": "Mo-Fr 16:30; Sa 09:30", "name": "USPS COLLECTION BOX - BLUE BOX", "note": "ON 12/24 AND 12/31, THIS BOX MAY BE COLLECTED AS EARLY AS 12 NOON.", "nsi_id": "unitedstatespostalservice-a77078", "operator": "United States Postal Service", "operator:short": "USPS", "operator:type": "public", "operator:wikidata": "Q668687", "ref": "8354000001"}, "type": "Feature"}
{"dataset_attributes": {"@spider": "usps_collection_boxes", "spider:collection_time": "2023-10-01T08:22:44.298171"}, "geometry": {"coordinates": [-116.80493, 46.40489], "type": "Point"}, "id": "vMo2niUbMX8hdcoGDmIdDSBnIuQ=", "properties": {"@spider": "usps_collection_boxes", "addr:city": "LAPWAI", "addr:country": "US", "addr:full": "102 S MAIN ST", "addr:postcode": "83540", "addr:state": "ID", "amenity": "post_box", "brand": "United States Postal Service", "brand:wikidata": "Q668687", "collection_times": "Mo-Fr 16:30; Sa 09:30", "name": "USPS COLLECTION BOX - PO LOBBY", "note": "ON 12/24 AND 12/31, THIS BOX MAY BE COLLECTED AS EARLY AS 12 NOON.", "nsi_id": "unitedstatespostalservice-a77078", "operator": "United States Postal Service", "operator:short": "USPS", "operator:type": "public", "operator:wikidata": "Q668687", "ref": "8354000002"}, "type": "Feature"}
{"dataset_attributes": {"@spider": "usps_collection_boxes", "spider:collection_time": "2023-10-01T08:22:44.298171"}, "geometry": {"coordinates": [-116.80492987, 46.404882], "type": "Point"}, "id": "C6iz0RCotW48BiCHMq9jq5qqInE=", "properties": {"@spider": "usps_collection_boxes", "addr:city": "LAPWAI", "addr:country": "US", "addr:full": "102 S MAIN ST", "addr:postcode": "83540", "addr:state": "ID", "amenity": "post_box", "brand": "United States Postal Service", "brand:wikidata": "Q668687", "collection_times": "Mo-Fr 16:30; Sa 09:30", "name": "USPS COLLECTION BOX - PO LOBBY", "note": "ON 12/24 AND 12/31, THIS BOX MAY BE COLLECTED AS EARLY AS 12 NOON.", "nsi_id": "unitedstatespostalservice-a77078", "operator": "United States Postal Service", "operator:short": "USPS", "operator:type": "public", "operator:wikidata": "Q668687", "ref": "8354000003"}, "type": "Feature"}
{"dataset_attributes": {"@spider": "usps_collection_boxes", "spider:collection_time": "2023-10-01T08:22:44.298171"}, "geometry": {"coordinates": [-116.55126, 46.508212], "type": "Point"}, "id": "ELpc3qOQf8gy9vQSxMaPztxuIFM=", "properties": {"@spider": "usps_collection_boxes", "addr:city": "LENORE", "addr:country": "US", "addr:full": "19770 LENORE GRADE", "addr:postcode": "83541", "addr:state": "ID", "amenity": "post_box", "brand": "United States Postal Service", "brand:wikidata": "Q668687", "collection_times": "Mo-Fr 16:15; Sa 09:15", "name": "USPS COLLECTION BOX - BLUE BOX", "note": "ON 12/24 AND 12/31, THIS BOX MAY BE COLLECTED AS EARLY AS 12 NOON.", "nsi_id": "unitedstatespostalservice-a77078", "operator": "United States Postal Service", "operator:short": "USPS", "operator:type": "public", "operator:wikidata": "Q668687", "ref": "8354100001"}, "type": "Feature"}
{"dataset_attributes": {"@spider": "usps_collection_boxes", "spider:collection_time": "2023-10-01T08:22:44.298171"}, "geometry": {"coordinates": [-116.55126, 46.508212], "type": "Point"}, "id": "tPgzia2_IFrAjBRkoc6AyvRj4Tk=", "properties": {"@spider": "usps_collection_boxes", "addr:city": "LENORE", "addr:country": "US", "addr:full": "19770 LENORE GRADE", "addr:postcode": "83541", "addr:state": "ID", "amenity": "post_box", "brand": "United States Postal Service", "brand:wikidata": "Q668687", "collection_times": "Mo-Fr 16:15; Sa 09:15", "name": "USPS COLLECTION BOX - PO LOBBY", "note": "ON 12/24 AND 12/31, THIS BOX MAY BE COLLECTED AS EARLY AS 12 NOON.", "nsi_id": "unitedstatespostalservice-a77078", "operator": "United States Postal Service", "operator:short": "USPS", "operator:type": "public", "operator:wikidata": "Q668687", "ref": "8354100002"}, "type": "Feature"}
{"dataset_attributes": {"@spider": "usps_collection_boxes", "spider:collection_time": "2023-10-01T08:22:44.298171"}, "geometry": {"coordinates": [-116.551168248, 46.508279405], "type": "Point"}, "id": "wHNfIFLOwCY89btJSz5-OwyU9PM=", "properties": {"@spider": "usps_collection_boxes", "addr:city": "LENORE", "addr:country": "US", "addr:full": "19770 LENORE GRADE", "addr:postcode": "83541", "addr:state": "ID", "amenity": "post_box", "brand": "United States Postal Service", "brand:wikidata": "Q668687", "collection_times": "Mo-Fr 11:30; Sa 09:00", "name": "USPS COLLECTION BOX - PO LOBBY", "nsi_id": "unitedstatespostalservice-a77078", "operator": "United States Postal Service", "operator:short": "USPS", "operator:type": "public", "operator:wikidata": "Q668687", "ref": "8354100003"}, "type": "Feature"}
{"dataset_attributes": {"@spider": "usps_collection_boxes", "spider:collection_time": "2023-10-01T08:22:44.298171"}, "geometry": {"coordinates": [-116.309204989, 45.534757045], "type": "Point"}, "id": "IdtkKk7dNPVEuWKMa7Bg2gUvkMY=", "properties": {"@spider": "usps_collection_boxes", "addr:city": "LUCILE", "addr:country": "US", "addr:full": "106 COW CREEK RD", "addr:postcode": "83542", "addr:state": "ID", "amenity": "post_box", "brand": "United States Postal Service", "brand:wikidata": "Q668687", "collection_times": "Mo-Fr 15:00; Sa 12:00", "name": "USPS COLLECTION BOX - BLUE BOX", "note": "ON 12/24 AND 12/31, THIS BOX MAY BE COLLECTED AS EARLY AS 12 NOON.", "nsi_id": "unitedstatespostalservice-a77078", "operator": "United States Postal Service", "operator:short": "USPS", "operator:type": "public", "operator:wikidata": "Q668687", "ref": "8354200001"}, "type": "Feature"}
{"dataset_attributes": {"@spider": "usps_collection_boxes", "spider:collection_time": "2023-10-01T08:22:44.298171"}, "geometry": {"coordinates": [-116.309204989, 45.534757045], "type": "Point"}, "id": "6UEnS8OT-nTb4i2fiEjiOrZa6hI=", "properties": {"@spider": "usps_collection_boxes", "addr:city": "LUCILE", "addr:country": "US", "addr:full": "106 COW CREEK RD", "addr:postcode": "83542", "addr:state": "ID", "amenity": "post_box", "brand": "United States Postal Service", "brand:wikidata": "Q668687", "collection_times": "Mo-Fr 15:00; Sa 12:00", "name": "USPS COLLECTION BOX - PO LOBBY", "note": "ON 12/24 AND 12/31, THIS BOX MAY BE COLLECTED AS EARLY AS 12 NOON.", "nsi_id": "unitedstatespostalservice-a77078", "operator": "United States Postal Service", "operator:short": "USPS", "operator:type": "public", "operator:wikidata": "Q668687", "ref": "8354200002"}, "type": "Feature"}
{"dataset_attributes": {"@spider": "usps_collection_boxes", "spider:collection_time": "2023-10-01T08:22:44.298171"}, "geometry": {"coordinates": [-116.309204989, 45.534757045], "type": "Point"}, "id": "6WMIbSDr0HhKEYLRQ9MIxFZuFxo=", "properties": {"@spider": "usps_collection_boxes", "addr:city": "LUCILE", "addr:country": "US", "addr:full": "106 COW CREEK RD", "addr:postcode": "83542", "addr:state": "ID", "amenity": "post_box", "brand": "United States Postal Service", "brand:wikidata": "Q668687", "collection_times": "Mo-Fr 15:00; Sa 12:15", "name": "USPS COLLECTION BOX - PO LOBBY", "note": "ON 12/24 AND 12/31, THIS BOX MAY BE COLLECTED AS EARLY AS 12 NOON.", "nsi_id": "unitedstatespostalservice-a77078", "operator": "United States Postal Service", "operator:short": "USPS", "operator:type": "public", "operator:wikidata": "Q668687", "ref": "8354200003"}, "type": "Feature"}
{"dataset_attributes": {"@spider": "usps_collection_boxes", "spider:collection_time": "2023-10-01T08:22:44.298171"}, "geometry": {"coordinates": [-116.240696, 46.235422], "type": "Point"}, "id": "yGYFehWuZMapRHdJgSoXZbzb9x8=", "properties": {"@spider": "usps_collection_boxes", "addr:city": "NEZPERCE", "addr:country": "US", "addr:full": "310 OAK ST", "addr:postcode": "83543", "addr:state": "ID", "amenity": "post_box", "brand": "United States Postal Service", "brand:wikidata": "Q668687", "collection_times": "Mo-Fr 15:15; Sa 11:00", "name": "USPS COLLECTION BOX - BLUE BOX", "note": "ON 12/24 AND 12/31, THIS BOX MAY BE COLLECTED AS EARLY AS 12 NOON.", "nsi_id": "unitedstatespostalservice-a77078", "operator": "United States Postal Service", "operator:short": "USPS", "operator:type": "public", "operator:wikidata": "Q668687", "ref": "8354300001"}, "type": "Feature"}
{"dataset_attributes": {"@spider": "usps_collection_boxes", "spider:collection_time": "2023-10-01T08:22:44.298171"}, "geometry": {"coordinates": [-116.240833, 46.235501], "type": "Point"}, "id": "gJCWcKNJqAVkMUg20jfEIUAQezs=", "properties": {"@spider": "usps_collection_boxes", "addr:city": "NEZPERCE", "addr:country": "US", "addr:full": "310 OAK ST", "addr:postcode": "83543", "addr:state": "ID", "amenity": "post_box", "brand": "United States Postal Service", "brand:wikidata": "Q668687", "collection_times": "Mo-Fr 15:15; Sa 11:00", "name": "USPS COLLECTION BOX - PO LOBBY", "note": "ON 12/24 AND 12/31, THIS BOX MAY BE COLLECTED AS EARLY AS 12 NOON.", "nsi_id": "unitedstatespostalservice-a77078", "operator": "United States Postal Service", "operator:short": "USPS", "operator:type": "public", "operator:wikidata": "Q668687", "ref": "8354300002"}, "type": "Feature"}
{"dataset_attributes": {"@spider": "usps_collection_boxes", "spider:collection_time": "2023-10-01T08:22:44.298171"}, "geometry": {"coordinates": [-116.240555762, 46.235902203], "type": "Point"}, "id": "0bpoRcOvk4ypabujek89KFS_8DU=", "properties": {"@spider": "usps_collection_boxes", "addr:city": "NEZPERCE", "addr:country": "US", "addr:full": "310 OAK ST", "addr:postcode": "83543", "addr:state": "ID", "amenity": "post_box", "brand": "United States Postal Service", "brand:wikidata": "Q668687", "collection_times": "Mo-Fr 15:30; Sa 10:45", "name": "USPS COLLECTION BOX - PO LOBBY", "note": "ON 12/24 AND 12/31, THIS BOX MAY BE COLLECTED AS EARLY AS 12 NOON.", "nsi_id": "unitedstatespostalservice-a77078", "operator": "United States Postal Service", "operator:short": "USPS", "operator:type": "public", "operator:wikidata": "Q668687", "ref": "8354300003"}, "type": "Feature"}
{"dataset_attributes": {"@spider": "usps_collection_boxes", "spider:collection_time": "2023-10-01T08:22:44.298171"}, "geometry": {"coordinates": [-116.295059, 46.494706], "type": "Point"}, "id": "82ZrCMMyd4gf3Y9weaC8p4TNSsA=", "properties": {"@spider": "usps_collection_boxes", "addr:city": "OROFINO", "addr:country": "US", "addr:full": "10840 HIGHWAY 12", "addr:postcode": "83544", "addr:state": "ID", "amenity": "post_box", "brand": "United States Postal Service", "brand:wikidata": "Q668687", "collection_times": "Mo-Fr 13:00; Sa 12:00", "name": "USPS COLLECTION BOX - BLUE BOX", "note": "ON 12/24 AND 12/31, THIS BOX MAY BE COLLECTED AS EARLY AS 12 NOON.", "nsi_id": "unitedstatespostalservice-a77078", "operator": "United States Postal Service", "operator:short": "USPS", "operator:type": "public", "operator:wikidata": "Q668687", "ref": "8354400001"}, "type": "Feature"}
{"dataset_attributes": {"@spider": "usps_collection_boxes", "spider:collection_time": "2023-10-01T08:22:44.298171"}, "geometry": {"coordinates": [-116.242860042, 46.483540012], "type": "Point"}, "id": "1acOWjAGhb-mOvdMfzOGaZyCALo=", "properties": {"@spider": "usps_collection_boxes", "addr:city": "OROFINO", "addr:country": "US", "addr:full": "1130 MICHIGAN AVE", "addr:postcode": "83544", "addr:state": "ID", "amenity": "post_box", "brand": "United States Postal Service", "brand:wikidata": "Q668687", "collection_times": "Mo-Sa 12:00", "name": "USPS COLLECTION BOX - BLUE BOX", "nsi_id": "unitedstatespostalservice-a77078", "operator": "United States Postal Service", "operator:short": "USPS", "operator:type": "public", "operator:wikidata": "Q668687", "ref": "8354400002"}, "type": "Feature"}
{"dataset_attributes": {"@spider": "usps_collection_boxes", "spider:collection_time": "2023-10-01T08:22:44.298171"}, "geometry": {"coordinates": [-116.32039, 46.498719], "type": "Point"}, "id": "MoeEcBnhsWiZLiwlrFwxN1MxX_Q=", "properties": {"@spider": "usps_collection_boxes", "addr:city": "OROFINO", "addr:country": "US", "addr:full": "13030 HIGHWAY 12", "addr:postcode": "83544", "addr:state": "ID", "amenity": "post_box", "brand": "United States Postal Service", "brand:wikidata": "Q668687", "collection_times": "Mo-Fr 15:15; Sa 13:15", "name": "USPS COLLECTION BOX - BLUE BOX", "note": "ON 12/24 AND 12/31, THIS BOX MAY BE COLLECTED AS EARLY AS 12 NOON.", "nsi_id": "unitedstatespostalservice-a77078", "operator": "United States Postal Service", "operator:short": "USPS", "operator:type": "public", "operator:wikidata": "Q668687", "ref": "8354400003"}, "type": "Feature"}
{"dataset_attributes": {"@spider": "usps_collection_boxes", "spider:collection_time": "2023-10-01T08:22:44.298171"}, "geometry": {"coordinates": [-116.175504, 46.390171], "type": "Point"}, "id": "Q3JUOkHNRCIRQIrummku1oI-KLk=", "properties": {"@spider": "usps_collection_boxes", "addr:city": "OROFINO", "addr:country": "US", "addr:full": "3540 HIGHWAY 11", "addr:postcode": "83544", "addr:state": "ID", "amenity": "post_box", "brand": "United States Postal Service", "brand:wikidata": "Q668687", "collection_times": "Mo-Fr 14:45; Sa 12:45", "name": "USPS COLLECTION BOX - BLUE BOX", "note": "ON 12/24 AND 12/31, THIS BOX MAY BE COLLECTED AS EARLY AS 12 NOON.", "nsi_id": "unitedstatespostalservice-a77078", "operator": "United States Postal Service", "operator:short": "USPS", "operator:type": "public", "operator:wikidata": "Q668687", "ref": "8354400005"}, "type": "Feature"}
{"dataset_attributes": {"@spider": "usps_collection_boxes", "spider:collection_time": "2023-10-01T08:22:44.298171"}, "geometry": {"coordinates": [-116.252517, 46.480246], "type": "Point"}, "id": "c_Mc41xHWttrQyWfx4_hnE3s3iY=", "properties": {"@spider": "usps_collection_boxes", "addr:city": "OROFINO", "addr:country": "US", "addr:full": "320 MICHIGAN AVE", "addr:postcode": "83544", "addr:state": "ID", "amenity": "post_box", "brand": "United States Postal Service", "brand:wikidata": "Q668687", "collection_times": "Mo-Fr 15:30; Sa 14:30", "name": "USPS COLLECTION BOX - PO LOBBY", "note": "ON 12/24 AND 12/31, THIS BOX MAY BE COLLECTED AS EARLY AS 12 NOON.", "nsi_id": "unitedstatespostalservice-a77078", "operator": "United States Postal Service", "operator:short": "USPS", "operator:type": "public", "operator:wikidata": "Q668687", "ref": "8354400006"}, "type": "Feature"}
{"dataset_attributes": {"@spider": "usps_collection_boxes", "spider:collection_time": "2023-10-01T08:22:44.298171"}, "geometry": {"coordinates": [-116.252517, 46.480246], "type": "Point"}, "id": "Qu1QPDt0xpAo4l0iKeOS_oF4Hoc=", "properties": {"@spider": "usps_collection_boxes", "addr:city": "OROFINO", "addr:country": "US", "addr:full": "320 MICHIGAN AVE", "addr:postcode": "83544", "addr:state": "ID", "amenity": "post_box", "brand": "United States Postal Service", "brand:wikidata": "Q668687", "collection_times": "Mo-Fr 15:30; Sa 14:30", "name": "USPS COLLECTION BOX - BLUE BOX", "note": "ON 12/24 AND 12/31, THIS BOX MAY BE COLLECTED AS EARLY AS 12 NOON.", "nsi_id": "unitedstatespostalservice-a77078", "operator": "United States Postal Service", "operator:short": "USPS", "operator:type": "public", "operator:wikidata": "Q668687", "ref": "8354400007"}, "type": "Feature"}
{"dataset_attributes": {"@spider": "usps_collection_boxes", "spider:collection_time": "2023-10-01T08:22:44.298171"}, "geometry": {"coordinates": [-116.252470157, 46.480255972], "type": "Point"}, "id": "4pjRY4c0SIJ-kt7SPZQEDilZiYA=", "properties": {"@spider": "usps_collection_boxes", "addr:city": "OROFINO", "addr:country": "US", "addr:full": "320 MICHIGAN AVE", "addr:postcode": "83544", "addr:state": "ID", "amenity": "post_box", "brand": "United States Postal Service", "brand:wikidata": "Q668687", "collection_times": "Mo-Fr 15:30; Sa 14:00", "name": "USPS COLLECTION BOX - PO LOBBY", "note": "ON 12/24 AND 12/31, THIS BOX MAY BE COLLECTED AS EARLY AS 12 NOON.", "nsi_id": "unitedstatespostalservice-a77078", "operator": "United States Postal Service", "operator:short": "USPS", "operator:type": "public", "operator:wikidata": "Q668687", "ref": "8354400008"}, "type": "Feature"}
{"dataset_attributes": {"@spider": "usps_collection_boxes", "spider:collection_time": "2023-10-01T08:22:44.298171"}, "geometry": {"coordinates": [-116.42173, 46.47373], "type": "Point"}, "id": "_2LWdJ3zi-_tCWebJlaGaq0SvWQ=", "properties": {"@spider": "usps_collection_boxes", "addr:city": "PECK", "addr:country": "US", "addr:full": "102 N MAIN ST", "addr:postcode": "83545", "addr:state": "ID", "amenity": "post_box", "brand": "United States Postal Service", "brand:wikidata": "Q668687", "collection_times": "Mo-Fr 15:45; Sa 16:15", "name": "USPS COLLECTION BOX - BLUE BOX", "note": "ON 12/24 AND 12/31, THIS BOX MAY BE COLLECTED AS EARLY AS 12 NOON.", "nsi_id": "unitedstatespostalservice-a77078", "operator": "United States Postal Service", "operator:short": "USPS", "operator:type": "public", "operator:wikidata": "Q668687", "ref": "8354500001"}, "type": "Feature"}
{"dataset_attributes": {"@spider": "usps_collection_boxes", "spider:collection_time": "2023-10-01T08:22:44.298171"}, "geometry": {"coordinates": [-116.42173, 46.47373], "type": "Point"}, "id": "D23BmO4qFvpFpxCfxEzphBUDKGk=", "properties": {"@spider": "usps_collection_boxes", "addr:city": "PECK", "addr:country": "US", "addr:full": "102 N MAIN ST", "addr:postcode": "83545", "addr:state": "ID", "amenity": "post_box", "brand": "United States Postal Service", "brand:wikidata": "Q668687", "collection_times": "Mo-Fr 11:45; Sa 08:00", "name": "USPS COLLECTION BOX - PO LOBBY", "nsi_id": "unitedstatespostalservice-a77078", "operator": "United States Postal Service", "operator:short": "USPS", "operator:type": "public", "operator:wikidata": "Q668687", "ref": "8354500002"}, "type": "Feature"}
{"dataset_attributes": {"@spider": "usps_collection_boxes", "spider:collection_time": "2023-10-01T08:22:44.298171"}, "geometry": {"coordinates": [-116.421732736, 46.473729319], "type": "Point"}, "id": "Ubi6XgZGIg8IWm7-oPIzRy2k508=", "properties": {"@spider": "usps_collection_boxes", "addr:city": "PECK", "addr:country": "US", "addr:full": "102 N MAIN ST", "addr:postcode": "83545", "addr:state": "ID", "amenity": "post_box", "brand": "United States Postal Service", "brand:wikidata": "Q668687", "collection_times": "Mo-Fr 12:00; Sa 09:30", "name": "USPS COLLECTION BOX - PO LOBBY", "nsi_id": "unitedstatespostalservice-a77078", "operator": "United States Postal Service", "operator:short": "USPS", "operator:type": "public", "operator:wikidata": "Q668687", "ref": "8354500003"}, "type": "Feature"}
{"dataset_attributes": {"@spider": "usps_collection_boxes", "spider:collection_time": "2023-10-01T08:22:44.298171"}, "geometry": {"coordinates": [-115.798895, 46.489652], "type": "Point"}, "id": "bIE5SYYR70JrpPk51Df6riCHTck=", "properties": {"@spider": "usps_collection_boxes", "addr:city": "PIERCE", "addr:country": "US", "addr:full": "111 S MAIN ST", "addr:postcode": "83546", "addr:state": "ID", "amenity": "post_box", "brand": "United States Postal Service", "brand:wikidata": "Q668687", "collection_times": "Mo-Fr 13:45; Sa 12:00", "name": "USPS COLLECTION BOX - BLUE BOX", "note": "ON 12/24 AND 12/31, THIS BOX MAY BE COLLECTED AS EARLY AS 12 NOON.", "nsi_id": "unitedstatespostalservice-a77078", "operator": "United States Postal Service", "operator:short": "USPS", "operator:type": "public", "operator:wikidata": "Q668687", "ref": "8354600001"}, "type": "Feature"}
{"dataset_attributes": {"@spider": "usps_collection_boxes", "spider:collection_time": "2023-10-01T08:22:44.298171"}, "geometry": {"coordinates": [-115.7989, 46.489669], "type": "Point"}, "id": "385D-4OqoxVKvQXn8vkgPJlo2bs=", "properties": {"@spider": "usps_collection_boxes", "addr:city": "PIERCE", "addr:country": "US", "addr:full": "111 S MAIN ST", "addr:postcode": "83546", "addr:state": "ID", "amenity": "post_box", "brand": "United States Postal Service", "brand:wikidata": "Q668687", "collection_times": "Mo-Fr 13:45; Sa 11:00", "name": "USPS COLLECTION BOX - PO LOBBY", "note": "ON 12/24 AND 12/31, THIS BOX MAY BE COLLECTED AS EARLY AS 12 NOON.", "nsi_id": "unitedstatespostalservice-a77078", "operator": "United States Postal Service", "operator:short": "USPS", "operator:type": "public", "operator:wikidata": "Q668687", "ref": "8354600002"}, "type": "Feature"}
{"dataset_attributes": {"@spider": "usps_collection_boxes", "spider:collection_time": "2023-10-01T08:22:44.298171"}, "geometry": {"coordinates": [-115.798901623, 46.489653503], "type": "Point"}, "id": "fWuBCdCSYfIDTcS54KSqefsxJ8g=", "properties": {"@spider": "usps_collection_boxes", "addr:city": "PIERCE", "addr:country": "US", "addr:full": "111 S MAIN ST", "addr:postcode": "83546", "addr:state": "ID", "amenity": "post_box", "brand": "United States Postal Service", "brand:wikidata": "Q668687", "collection_times": "Mo-Fr 13:45; Sa 11:00", "name": "USPS COLLECTION BOX - PO LOBBY", "note": "ON 12/24 AND 12/31, THIS BOX MAY BE COLLECTED AS EARLY AS 12 NOON.", "nsi_id": "unitedstatespostalservice-a77078", "operator": "United States Postal Service", "operator:short": "USPS", "operator:type": "public", "operator:wikidata": "Q668687", "ref": "8354600003"}, "type": "Feature"}
{"dataset_attributes": {"@spider": "usps_collection_boxes", "spider:collection_time": "2023-10-01T08:22:44.298171"}, "geometry": {"coordinates": [-116.358907199, 45.31273598], "type": "Point"}, "id": "mtBoQZP1UcQD-GfUau_uiKf4Ir8=", "properties": {"@spider": "usps_collection_boxes", "addr:city": "POLLOCK", "addr:country": "US", "addr:full": "169 OLD POLLOCK RD", "addr:postcode": "83547", "addr:state": "ID", "amenity": "post_box", "brand": "United States Postal Service", "brand:wikidata": "Q668687", "collection_times": "Mo-Fr 14:00; Sa 13:00", "name": "USPS COLLECTION BOX - BLUE BOX", "note": "ON 12/24 AND 12/31, THIS BOX MAY BE COLLECTED AS EARLY AS 12 NOON.", "nsi_id": "unitedstatespostalservice-a77078", "operator": "United States Postal Service", "operator:short": "USPS", "operator:type": "public", "operator:wikidata": "Q668687", "ref": "8354700001"}, "type": "Feature"}
{"dataset_attributes": {"@spider": "usps_collection_boxes", "spider:collection_time": "2023-10-01T08:22:44.298171"}, "geometry": {"coordinates": [-116.358907199, 45.31273598], "type": "Point"}, "id": "pYujbNszhXwMqs-4iSvsS456rNs=", "properties": {"@spider": "usps_collection_boxes", "addr:city": "POLLOCK", "addr:country": "US", "addr:full": "169 OLD POLLOCK RD", "addr:postcode": "83547", "addr:state": "ID", "amenity": "post_box", "brand": "United States Postal Service", "brand:wikidata": "Q668687", "collection_times": "Mo-Fr 14:00; Sa 13:00", "name": "USPS COLLECTION BOX - PO LOBBY", "note": "ON 12/24 AND 12/31, THIS BOX MAY BE COLLECTED AS EARLY AS 12 NOON.", "nsi_id": "unitedstatespostalservice-a77078", "operator": "United States Postal Service", "operator:short": "USPS", "operator:type": "public", "operator:wikidata": "Q668687", "ref": "8354700002"}, "type": "Feature"}
{"dataset_attributes": {"@spider": "usps_collection_boxes", "spider:collection_time": "2023-10-01T08:22:44.298171"}, "geometry": {"coordinates": [-116.3161911507, 45.4200334577], "type": "Point"}, "id": "3vCq6b-DSox7Jeju8-fnqrtdeS4=", "properties": {"@spider": "usps_collection_boxes", "addr:city": "RIGGINS", "addr:country": "US", "addr:full": "400 S MAIN ST", "addr:postcode": "83549", "addr:state": "ID", "amenity": "post_box", "brand": "United States Postal Service", "brand:wikidata": "Q668687", "collection_times": "Mo-Fr 14:45; Sa 13:45", "name": "USPS COLLECTION BOX - BLUE BOX", "note": "ON 12/24 AND 12/31, THIS BOX MAY BE COLLECTED AS EARLY AS 12 NOON.", "nsi_id": "unitedstatespostalservice-a77078", "operator": "United States Postal Service", "operator:short": "USPS", "operator:type": "public", "operator:wikidata": "Q668687", "ref": "8354900001"}, "type": "Feature"}
{"dataset_attributes": {"@spider": "usps_collection_boxes", "spider:collection_time": "2023-10-01T08:22:44.298171"}, "geometry": {"coordinates": [-116.316191151, 45.420033458], "type": "Point"}, "id": "XEnfVNK2I5NFQnXkrBNp8l3zPEM=", "properties": {"@spider": "usps_collection_boxes", "addr:city": "RIGGINS", "addr:country": "US", "addr:full": "400 S MAIN ST", "addr:postcode": "83549", "addr:state": "ID", "amenity": "post_box", "brand": "United States Postal Service", "brand:wikidata": "Q668687", "collection_times": "Mo-Fr 14:45; Sa 13:45", "name": "USPS COLLECTION BOX - PO LOBBY", "note": "ON 12/24 AND 12/31, THIS BOX MAY BE COLLECTED AS EARLY AS 12 NOON.", "nsi_id": "unitedstatespostalservice-a77078", "operator": "United States Postal Service", "operator:short": "USPS", "operator:type": "public", "operator:wikidata": "Q668687", "ref": "8354900002"}, "type": "Feature"}
{"dataset_attributes": {"@spider": "usps_collection_boxes", "spider:collection_time": "2023-10-01T08:22:44.298171"}, "geometry": {"coordinates": [-116.316191151, 45.420033458], "type": "Point"}, "id": "7aueiMVQr0wpw24rgrNyuU8neDA=", "properties": {"@spider": "usps_collection_boxes", "addr:city": "RIGGINS", "addr:country": "US", "addr:full": "400 S MAIN ST", "addr:postcode": "83549", "addr:state": "ID", "amenity": "post_box", "brand": "United States Postal Service", "brand:wikidata": "Q668687", "collection_times": "Mo-Fr 14:45; Sa 13:00", "name": "USPS COLLECTION BOX - PO LOBBY", "note": "ON 12/24 AND 12/31, THIS BOX MAY BE COLLECTED AS EARLY AS 12 NOON.", "nsi_id": "unitedstatespostalservice-a77078", "operator": "United States Postal Service", "operator:short": "USPS", "operator:type": "public", "operator:wikidata": "Q668687", "ref": "8354900003"}, "type": "Feature"}
{"dataset_attributes": {"@spider": "usps_collection_boxes", "spider:collection_time": "2023-10-01T08:22:44.298171"}, "geometry": {"coordinates": [-115.976131, 46.089999], "type": "Point"}, "id": "8goAs-mQkfeWi3kxcUAw4rwXC3M=", "properties": {"@spider": "usps_collection_boxes", "addr:city": "STITES", "addr:country": "US", "addr:full": "212 MAIN ST", "addr:postcode": "83552", "addr:state": "ID", "amenity": "post_box", "brand": "United States Postal Service", "brand:wikidata": "Q668687", "collection_times": "Mo-Fr 14:30; Sa 14:45", "name": "USPS COLLECTION BOX - BLUE BOX", "note": "ON 12/24 AND 12/31, THIS BOX MAY BE COLLECTED AS EARLY AS 12 NOON.", "nsi_id": "unitedstatespostalservice-a77078", "operator": "United States Postal Service", "operator:short": "USPS", "operator:type": "public", "operator:wikidata": "Q668687", "ref": "8355200001"}, "type": "Feature"}
{"dataset_attributes": {"@spider": "usps_collection_boxes", "spider:collection_time": "2023-10-01T08:22:44.298171"}, "geometry": {"coordinates": [-115.976131, 46.089999], "type": "Point"}, "id": "u4fkg_BEEn7LLn5XSFM40SUOLfk=", "properties": {"@spider": "usps_collection_boxes", "addr:city": "STITES", "addr:country": "US", "addr:full": "212 MAIN ST", "addr:postcode": "83552", "addr:state": "ID", "amenity": "post_box", "brand": "United States Postal Service", "brand:wikidata": "Q668687", "collection_times": "Mo-Fr 14:45; Sa 10:00", "name": "USPS COLLECTION BOX - PO LOBBY", "note": "ON 12/24 AND 12/31, THIS BOX MAY BE COLLECTED AS EARLY AS 12 NOON.", "nsi_id": "unitedstatespostalservice-a77078", "operator": "United States Postal Service", "operator:short": "USPS", "operator:type": "public", "operator:wikidata": "Q668687", "ref": "8355200002"}, "type": "Feature"}
{"dataset_attributes": {"@spider": "usps_collection_boxes", "spider:collection_time": "2023-10-01T08:22:44.298171"}, "geometry": {"coordinates": [-115.976174046, 46.091314289], "type": "Point"}, "id": "bv6ohvMajm6btEIACC51xteCpeQ=", "properties": {"@spider": "usps_collection_boxes", "addr:city": "STITES", "addr:country": "US", "addr:full": "212 MAIN ST", "addr:postcode": "83552", "addr:state": "ID", "amenity": "post_box", "brand": "United States Postal Service", "brand:wikidata": "Q668687", "collection_times": "Mo-Fr 14:45; Sa 10:00", "name": "USPS COLLECTION BOX - PO LOBBY", "note": "ON 12/24 AND 12/31, THIS BOX MAY BE COLLECTED AS EARLY AS 12 NOON.", "nsi_id": "unitedstatespostalservice-a77078", "operator": "United States Postal Service", "operator:short": "USPS", "operator:type": "public", "operator:wikidata": "Q668687", "ref": "8355200003"}, "type": "Feature"}
{"dataset_attributes": {"@spider": "usps_collection_boxes", "spider:collection_time": "2023-10-01T08:22:44.298171"}, "geometry": {"coordinates": [-115.938326, 46.377096], "type": "Point"}, "id": "JcxoLGi6VC7ttTB6288LKvaX0iw=", "properties": {"@spider": "usps_collection_boxes", "addr:city": "WEIPPE", "addr:country": "US", "addr:full": "207 N MAIN ST", "addr:postcode": "83553", "addr:state": "ID", "amenity": "post_box", "brand": "United States Postal Service", "brand:wikidata": "Q668687", "collection_times": "Mo-Fr 14:00; Sa 12:00", "name": "USPS COLLECTION BOX - BLUE BOX", "note": "ON 12/24 AND 12/31, THIS BOX MAY BE COLLECTED AS EARLY AS 12 NOON.", "nsi_id": "unitedstatespostalservice-a77078", "operator": "United States Postal Service", "operator:short": "USPS", "operator:type": "public", "operator:wikidata": "Q668687", "ref": "8355300001"}, "type": "Feature"}
{"dataset_attributes": {"@spider": "usps_collection_boxes", "spider:collection_time": "2023-10-01T08:22:44.298171"}, "geometry": {"coordinates": [-115.938221, 46.377259], "type": "Point"}, "id": "gDzVHqJfTFiuTqNKlaWDXtLPakc=", "properties": {"@spider": "usps_collection_boxes", "addr:city": "WEIPPE", "addr:country": "US", "addr:full": "207 N MAIN ST", "addr:postcode": "83553", "addr:state": "ID", "amenity": "post_box", "brand": "United States Postal Service", "brand:wikidata": "Q668687", "collection_times": "Mo-Fr 14:00; Sa 10:00", "name": "USPS COLLECTION BOX - PO LOBBY", "note": "ON 12/24 AND 12/31, THIS BOX MAY BE COLLECTED AS EARLY AS 12 NOON.", "nsi_id": "unitedstatespostalservice-a77078", "operator": "United States Postal Service", "operator:short": "USPS", "operator:type": "public", "operator:wikidata": "Q668687", "ref": "8355300002"}, "type": "Feature"}
{"dataset_attributes": {"@spider": "usps_collection_boxes", "spider:collection_time": "2023-10-01T08:22:44.298171"}, "geometry": {"coordinates": [-115.938221844, 46.377089581], "type": "Point"}, "id": "1c02s-BWQvswKscE7InnMAegujM=", "properties": {"@spider": "usps_collection_boxes", "addr:city": "WEIPPE", "addr:country": "US", "addr:full": "207 N MAIN ST", "addr:postcode": "83553", "addr:state": "ID", "amenity": "post_box", "brand": "United States Postal Service", "brand:wikidata": "Q668687", "collection_times": "Mo-Fr 14:00; Sa 10:00", "name": "USPS COLLECTION BOX - PO LOBBY", "note": "ON 12/24 AND 12/31, THIS BOX MAY BE COLLECTED AS EARLY AS 12 NOON.", "nsi_id": "unitedstatespostalservice-a77078", "operator": "United States Postal Service", "operator:short": "USPS", "operator:type": "public", "operator:wikidata": "Q668687", "ref": "8355300003"}, "type": "Feature"}
{"dataset_attributes": {"@spider": "usps_collection_boxes", "spider:collection_time": "2023-10-01T08:22:44.298171"}, "geometry": {"coordinates": [-116.30049, 45.762241], "type": "Point"}, "id": "gsHoD8FaXAwQaf6Vne_96Hyh7WA=", "properties": {"@spider": "usps_collection_boxes", "addr:city": "WHITE BIRD", "addr:country": "US", "addr:full": "255 RIVER ST", "addr:postcode": "83554", "addr:state": "ID", "amenity": "post_box", "brand": "United States Postal Service", "brand:wikidata": "Q668687", "collection_times": "Mo-Fr 14:45; Sa 13:30", "name": "USPS COLLECTION BOX - BLUE BOX", "note": "ON 12/24 AND 12/31, THIS BOX MAY BE COLLECTED AS EARLY AS 12 NOON.", "nsi_id": "unitedstatespostalservice-a77078", "operator": "United States Postal Service", "operator:short": "USPS", "operator:type": "public", "operator:wikidata": "Q668687", "ref": "8355400003"}, "type": "Feature"}
{"dataset_attributes": {"@spider": "usps_collection_boxes", "spider:collection_time": "2023-10-01T08:22:44.298171"}, "geometry": {"coordinates": [-116.300472418, 45.762258458], "type": "Point"}, "id": "B-fXe17gCo9VoYLybjokBmgSzx8=", "properties": {"@spider": "usps_collection_boxes", "addr:city": "WHITE BIRD", "addr:country": "US", "addr:full": "255 RIVER ST", "addr:postcode": "83554", "addr:state": "ID", "amenity": "post_box", "brand": "United States Postal Service", "brand:wikidata": "Q668687", "collection_times": "Mo-Fr 14:45", "name": "USPS COLLECTION BOX - PO LOBBY", "note": "ON 12/24 AND 12/31, THIS BOX MAY BE COLLECTED AS EARLY AS 12 NOON.", "nsi_id": "unitedstatespostalservice-a77078", "operator": "United States Postal Service", "operator:short": "USPS", "operator:type": "public", "operator:wikidata": "Q668687", "ref": "8355400004"}, "type": "Feature"}
{"dataset_attributes": {"@spider": "usps_collection_boxes", "spider:collection_time": "2023-10-01T08:22:44.298171"}, "geometry": {"coordinates": [-116.622611, 46.239716], "type": "Point"}, "id": "EGf1kjiwjFEmQI-yRQYghWtsaa0=", "properties": {"@spider": "usps_collection_boxes", "addr:city": "WINCHESTER", "addr:country": "US", "addr:full": "318 NEZPERCE AVE", "addr:postcode": "83555", "addr:state": "ID", "amenity": "post_box", "brand": "United States Postal Service", "brand:wikidata": "Q668687", "collection_times": "Mo-Fr 16:00; Sa 10:00", "name": "USPS COLLECTION BOX - BLUE BOX", "note": "ON 12/24 AND 12/31, THIS BOX MAY BE COLLECTED AS EARLY AS 12 NOON.", "nsi_id": "unitedstatespostalservice-a77078", "operator": "United States Postal Service", "operator:short": "USPS", "operator:type": "public", "operator:wikidata": "Q668687", "ref": "8355500001"}, "type": "Feature"}
{"dataset_attributes": {"@spider": "usps_collection_boxes", "spider:collection_time": "2023-10-01T08:22:44.298171"}, "geometry": {"coordinates": [-116.622693794, 46.240055864], "type": "Point"}, "id": "TpL1qoDv7NiKds4lSOa2gEWx2Js=", "properties": {"@spider": "usps_collection_boxes", "addr:city": "WINCHESTER", "addr:country": "US", "addr:full": "318 NEZPERCE AVE", "addr:postcode": "83555", "addr:state": "ID", "amenity": "post_box", "brand": "United States Postal Service", "brand:wikidata": "Q668687", "collection_times": "Mo-Fr 16:00; Sa 09:30", "name": "USPS COLLECTION BOX - PO LOBBY", "note": "ON 12/24 AND 12/31, THIS BOX MAY BE COLLECTED AS EARLY AS 12 NOON.", "nsi_id": "unitedstatespostalservice-a77078", "operator": "United States Postal Service", "operator:short": "USPS", "operator:type": "public", "operator:wikidata": "Q668687", "ref": "8355500002"}, "type": "Feature"}
