{"geometry": {"coordinates": [-115.799434, 42.881644], "type": "Point"}, "id": "zNNgwjlhJJ6Dy-JJf0A_K6NsnTc=", "properties": {"@spider": "usps_collection_boxes", "addr:city": "BRUNEAU", "addr:country": "US", "addr:full": "32078 RUTH ST", "addr:postcode": "83604", "addr:state": "ID", "brand": "USPS", "collection_times": "Mo-Fr 10:30; Sa 08:00", "name": "USPS COLLECTION BOX - BLUE BOX", "ref": "8360400000"}, "type": "Feature"}
{"geometry": {"coordinates": [-115.799434, 42.881644], "type": "Point"}, "id": "Vs9zuURVI97gHsVc7QS7ZJjiAII=", "properties": {"@spider": "usps_collection_boxes", "addr:city": "BRUNEAU", "addr:country": "US", "addr:full": "32078 RUTH ST", "addr:postcode": "83604", "addr:state": "ID", "brand": "USPS", "collection_times": "Mo-Fr 10:30; Sa 09:00", "name": "USPS COLLECTION BOX - PO LOBBY", "ref": "8360400001"}, "type": "Feature"}
{"geometry": {"coordinates": [-115.799436218, 42.881644759], "type": "Point"}, "id": "y0QZGZLeUVQLHHRliPRA8MUilX0=", "properties": {"@spider": "usps_collection_boxes", "addr:city": "BRUNEAU", "addr:country": "US", "addr:full": "32078 RUTH ST", "addr:postcode": "83604", "addr:state": "ID", "brand": "USPS", "collection_times": "Mo-Fr 10:30; Sa 08:00", "name": "USPS COLLECTION BOX - PO LOBBY", "ref": "8360400004"}, "type": "Feature"}
{"geometry": {"coordinates": [-116.688938, 43.66176], "type": "Point"}, "id": "bm1Q4zK62LjKbdeStnKyVN0eyvs=", "properties": {"@spider": "usps_collection_boxes", "addr:city": "CALDWELL", "addr:country": "US", "addr:full": "517 S 10TH AVE", "addr:postcode": "83605", "addr:state": "ID", "brand": "USPS", "collection_times": "Mo-Sa 17:00", "name": "USPS COLLECTION BOX - BLUE BOX", "note": "ON 12/24 AND 12/31, THIS BOX MAY BE COLLECTED AS EARLY AS 12 NOON.", "ref": "8360500001"}, "type": "Feature"}
{"geometry": {"coordinates": [-116.696426, 43.659249], "type": "Point"}, "id": "UJY33aohoznxO0P7dGJuNjpi9HA=", "properties": {"@spider": "usps_collection_boxes", "addr:city": "CALDWELL", "addr:country": "US", "addr:full": "1118 S KIMBALL AVE", "addr:postcode": "83605", "addr:state": "ID", "brand": "USPS", "collection_times": "Mo-Sa 17:00", "name": "USPS COLLECTION BOX - BLUE BOX", "note": "ON 12/24 AND 12/31, THIS BOX MAY BE COLLECTED AS EARLY AS 12 NOON.", "ref": "8360500003"}, "type": "Feature"}
{"geometry": {"coordinates": [-116.672348, 43.653307], "type": "Point"}, "id": "Ln521UmcrfCbARGLu1xM6AUBmXU=", "properties": {"@spider": "usps_collection_boxes", "addr:city": "CALDWELL", "addr:country": "US", "addr:full": "2500 BLAINE ST", "addr:postcode": "83605", "addr:state": "ID", "brand": "USPS", "collection_times": "Mo-Sa 16:45", "name": "USPS COLLECTION BOX - BLUE BOX", "note": "ON 12/24 AND 12/31, THIS BOX MAY BE COLLECTED AS EARLY AS 12 NOON.", "ref": "8360500005"}, "type": "Feature"}
{"geometry": {"coordinates": [-116.690808, 43.665142], "type": "Point"}, "id": "Y0IqKwSRNgZLBwQzNOAyYszkjA4=", "properties": {"@spider": "usps_collection_boxes", "addr:city": "CALDWELL", "addr:country": "US", "addr:full": "621 CLEVELAND BLVD", "addr:postcode": "83605", "addr:state": "ID", "brand": "USPS", "collection_times": "Mo-Fr 17:00", "name": "USPS COLLECTION BOX - BLUE BOX", "note": "ON 12/24 AND 12/31, THIS BOX MAY BE COLLECTED AS EARLY AS 12 NOON.", "ref": "8360500010"}, "type": "Feature"}
{"geometry": {"coordinates": [-116.687304, 43.665143], "type": "Point"}, "id": "AqMdSHaJZUM5FDUGBK-qbZkBMZ4=", "properties": {"@spider": "usps_collection_boxes", "addr:city": "CALDWELL", "addr:country": "US", "addr:full": "823 ARTHUR ST", "addr:postcode": "83605", "addr:state": "ID", "brand": "USPS", "collection_times": "Mo-Sa 17:30", "name": "USPS COLLECTION BOX - PO LOBBY", "note": "ON 12/24 AND 12/31, THIS BOX MAY BE COLLECTED AS EARLY AS 12 NOON.", "ref": "8360500011"}, "type": "Feature"}
{"geometry": {"coordinates": [-116.687413, 43.663642], "type": "Point"}, "id": "IiisJhk_FiGJpLAr0hNYR4Nv-WY=", "properties": {"@spider": "usps_collection_boxes", "addr:city": "CALDWELL", "addr:country": "US", "addr:full": "918 BLAINE ST", "addr:postcode": "83605", "addr:state": "ID", "brand": "USPS", "collection_times": "Mo-Sa 17:00", "name": "USPS COLLECTION BOX - BLUE BOX", "note": "ON 12/24 AND 12/31, THIS BOX MAY BE COLLECTED AS EARLY AS 12 NOON.", "ref": "8360500017"}, "type": "Feature"}
{"geometry": {"coordinates": [-116.687304, 43.665143], "type": "Point"}, "id": "wbg0QQ98enyoGosFT-quSgCZzKo=", "properties": {"@spider": "usps_collection_boxes", "addr:city": "CALDWELL", "addr:country": "US", "addr:full": "823 ARTHUR ST", "addr:postcode": "83605", "addr:state": "ID", "brand": "USPS", "collection_times": "Mo-Sa 17:15", "name": "USPS COLLECTION BOX - BLUE BOX", "note": "ON 12/24 AND 12/31, THIS BOX MAY BE COLLECTED AS EARLY AS 12 NOON.", "ref": "8360500020"}, "type": "Feature"}
{"geometry": {"coordinates": [-116.687304, 43.665143], "type": "Point"}, "id": "IXDPu6OknlInhI1OFxKX9SI2fVY=", "properties": {"@spider": "usps_collection_boxes", "addr:city": "CALDWELL", "addr:country": "US", "addr:full": "823 ARTHUR ST", "addr:postcode": "83605", "addr:state": "ID", "brand": "USPS", "collection_times": "Mo-Sa 17:15", "name": "USPS COLLECTION BOX - BLUE BOX", "note": "ON 12/24 AND 12/31, THIS BOX MAY BE COLLECTED AS EARLY AS 12 NOON.", "ref": "8360500021"}, "type": "Feature"}
{"geometry": {"coordinates": [-116.702704, 43.667178], "type": "Point"}, "id": "1URI4Ma3DuQr04TBVsg2L0Ciz68=", "properties": {"@spider": "usps_collection_boxes", "addr:city": "CALDWELL", "addr:country": "US", "addr:full": "311 EVANS ST", "addr:postcode": "83605", "addr:state": "ID", "brand": "USPS", "collection_times": "Mo-Fr 17:00", "name": "USPS COLLECTION BOX - BLUE BOX", "note": "ON 12/24 AND 12/31, THIS BOX MAY BE COLLECTED AS EARLY AS 12 NOON.", "ref": "8360500031"}, "type": "Feature"}
{"geometry": {"coordinates": [-116.65449, 43.661793], "type": "Point"}, "id": "RFoN38ycACJodr48y_sz1qZXFO8=", "properties": {"@spider": "usps_collection_boxes", "addr:city": "CALDWELL", "addr:country": "US", "addr:full": "3512 FRANKLIN RD", "addr:postcode": "83605", "addr:state": "ID", "brand": "USPS", "collection_times": "Mo-Fr 16:30", "name": "USPS COLLECTION BOX - BLUE BOX", "note": "ON 12/24 AND 12/31, THIS BOX MAY BE COLLECTED AS EARLY AS 12 NOON.", "ref": "8360500035"}, "type": "Feature"}
{"geometry": {"coordinates": [-116.687304, 43.665143], "type": "Point"}, "id": "yIc7yaBhyvSh-E4zk9om6yexWtM=", "properties": {"@spider": "usps_collection_boxes", "addr:city": "CALDWELL", "addr:country": "US", "addr:full": "823 ARTHUR ST", "addr:postcode": "83605", "addr:state": "ID", "brand": "USPS", "collection_times": "Mo-Sa 17:30", "name": "USPS COLLECTION BOX - PO LOBBY", "note": "ON 12/24 AND 12/31, THIS BOX MAY BE COLLECTED AS EARLY AS 12 NOON.", "ref": "8360500036"}, "type": "Feature"}
{"geometry": {"coordinates": [-116.687304, 43.665143], "type": "Point"}, "id": "cavdd2F3h69Y7n-_fsIuwnBUVaI=", "properties": {"@spider": "usps_collection_boxes", "addr:city": "CALDWELL", "addr:country": "US", "addr:full": "823 ARTHUR ST", "addr:postcode": "83605", "addr:state": "ID", "brand": "USPS", "collection_times": "Mo-Sa 17:30", "name": "USPS COLLECTION BOX - PO LOBBY", "note": "ON 12/24 AND 12/31, THIS BOX MAY BE COLLECTED AS EARLY AS 12 NOON.", "ref": "8360500037"}, "type": "Feature"}
{"geometry": {"coordinates": [-116.687304, 43.665143], "type": "Point"}, "id": "sFVt5z604nsk2bshO8SXfY3CTEk=", "properties": {"@spider": "usps_collection_boxes", "addr:city": "CALDWELL", "addr:country": "US", "addr:full": "823 ARTHUR ST", "addr:postcode": "83605", "addr:state": "ID", "brand": "USPS", "collection_times": "Mo-Sa 17:30", "name": "USPS COLLECTION BOX - PO LOBBY", "note": "ON 12/24 AND 12/31, THIS BOX MAY BE COLLECTED AS EARLY AS 12 NOON.", "ref": "8360500038"}, "type": "Feature"}
{"geometry": {"coordinates": [-116.681016, 43.668209], "type": "Point"}, "id": "ndQVAT4_Wgkm5OEy1fg-IVgcml0=", "properties": {"@spider": "usps_collection_boxes", "addr:city": "CALDWELL", "addr:country": "US", "addr:full": "425 N 10TH AVE", "addr:postcode": "83605", "addr:state": "ID", "brand": "USPS", "collection_times": "Mo-Sa 16:00", "name": "USPS COLLECTION BOX - BLUE BOX", "note": "ON 12/24 AND 12/31, THIS BOX MAY BE COLLECTED AS EARLY AS 12 NOON.", "ref": "8360500039"}, "type": "Feature"}
{"geometry": {"coordinates": [-116.687303312, 43.665137673], "type": "Point"}, "id": "TC9SRyHr0YFvW0y1w2sSseQiBfE=", "properties": {"@spider": "usps_collection_boxes", "addr:city": "CALDWELL", "addr:country": "US", "addr:full": "823 ARTHUR ST", "addr:postcode": "83605", "addr:state": "ID", "brand": "USPS", "collection_times": "Mo-Sa 17:30", "name": "USPS COLLECTION BOX - PO LOBBY", "note": "ON 12/24 AND 12/31, THIS BOX MAY BE COLLECTED AS EARLY AS 12 NOON.", "ref": "8360500040"}, "type": "Feature"}
{"geometry": {"coordinates": [-116.633905, 43.627361], "type": "Point"}, "id": "B4a-90LBJelRwuEReF6iKre22QI=", "properties": {"@spider": "usps_collection_boxes", "addr:city": "CALDWELL", "addr:country": "US", "addr:full": "317 HAPPY DAY BLVD", "addr:postcode": "83607", "addr:state": "ID", "brand": "USPS", "collection_times": "Mo-Fr 17:00", "name": "USPS COLLECTION BOX - BLUE BOX", "note": "ON 12/24 AND 12/31, THIS BOX MAY BE COLLECTED AS EARLY AS 12 NOON.", "ref": "8360700000"}, "type": "Feature"}
{"geometry": {"coordinates": [-116.643668, 43.632463], "type": "Point"}, "id": "GSkyl5GPOztcykYsAKMU_o-YcgU=", "properties": {"@spider": "usps_collection_boxes", "addr:city": "CALDWELL", "addr:country": "US", "addr:full": "5210 CLEVELAND BLVD", "addr:postcode": "83607", "addr:state": "ID", "brand": "USPS", "collection_times": "Mo-Sa 16:45", "name": "USPS COLLECTION BOX - BLUE BOX", "note": "ON 12/24 AND 12/31, THIS BOX MAY BE COLLECTED AS EARLY AS 12 NOON.", "ref": "8360700001"}, "type": "Feature"}
{"geometry": {"coordinates": [-116.681743, 43.633175], "type": "Point"}, "id": "L7tP08kx9p_SWnaXtGdtYo_Zbmc=", "properties": {"@spider": "usps_collection_boxes", "addr:city": "CALDWELL", "addr:country": "US", "addr:full": "4105 CLOCK TOWER AVE", "addr:postcode": "83607", "addr:state": "ID", "brand": "USPS", "collection_times": "Mo-Fr 16:45", "name": "USPS COLLECTION BOX - BLUE BOX", "note": "ON 12/24 AND 12/31, THIS BOX MAY BE COLLECTED AS EARLY AS 12 NOON.", "ref": "8360700002"}, "type": "Feature"}
{"geometry": {"coordinates": [-116.436922, 44.728177], "type": "Point"}, "id": "PITyUw6UB5WiWYMpycsWeeI_nNY=", "properties": {"@spider": "usps_collection_boxes", "addr:city": "COUNCIL", "addr:country": "US", "addr:full": "101 CALIFORNIA AVE", "addr:postcode": "83612", "addr:state": "ID", "brand": "USPS", "collection_times": "Mo-Fr 14:30; Sa 13:30", "name": "USPS COLLECTION BOX - BLUE BOX", "note": "ON 12/24 AND 12/31, THIS BOX MAY BE COLLECTED AS EARLY AS 12 NOON.", "ref": "8361200000"}, "type": "Feature"}
{"geometry": {"coordinates": [-116.436922, 44.728177], "type": "Point"}, "id": "kkp5Jvev7OXh0ppItkEO45zNY0Q=", "properties": {"@spider": "usps_collection_boxes", "addr:city": "COUNCIL", "addr:country": "US", "addr:full": "101 CALIFORNIA AVE", "addr:postcode": "83612", "addr:state": "ID", "brand": "USPS", "collection_times": "Mo-Fr 14:30; Sa 13:30", "name": "USPS COLLECTION BOX - PO LOBBY", "note": "ON 12/24 AND 12/31, THIS BOX MAY BE COLLECTED AS EARLY AS 12 NOON.", "ref": "8361200001"}, "type": "Feature"}
{"geometry": {"coordinates": [-116.436968501, 44.728120682], "type": "Point"}, "id": "WxlQNzYPGiJWBwxy00I3frt5WCc=", "properties": {"@spider": "usps_collection_boxes", "addr:city": "COUNCIL", "addr:country": "US", "addr:full": "101 CALIFORNIA AVE", "addr:postcode": "83612", "addr:state": "ID", "brand": "USPS", "collection_times": "Mo-Fr 14:30; Sa 13:30", "name": "USPS COLLECTION BOX - PO LOBBY", "note": "ON 12/24 AND 12/31, THIS BOX MAY BE COLLECTED AS EARLY AS 12 NOON.", "ref": "8361200002"}, "type": "Feature"}
{"geometry": {"coordinates": [-115.300486, 42.955396], "type": "Point"}, "id": "prunRxOZwtG8-UKH9hgb471FVRk=", "properties": {"@spider": "usps_collection_boxes", "addr:city": "GLENNS FERRY", "addr:country": "US", "addr:full": "22 E 2ND AVE", "addr:postcode": "83623", "addr:state": "ID", "brand": "USPS", "collection_times": "Mo-Sa 16:30", "name": "USPS COLLECTION BOX - BLUE BOX", "note": "ON 12/24 AND 12/31, THIS BOX MAY BE COLLECTED AS EARLY AS 12 NOON.", "ref": "8362300000"}, "type": "Feature"}
{"geometry": {"coordinates": [-115.300486, 42.955396], "type": "Point"}, "id": "evZ1EnKN1ASUlLjir0upqO9BXIw=", "properties": {"@spider": "usps_collection_boxes", "addr:city": "GLENNS FERRY", "addr:country": "US", "addr:full": "22 E 2ND AVE", "addr:postcode": "83623", "addr:state": "ID", "brand": "USPS", "collection_times": "Mo-Fr 16:30; Sa 11:30", "name": "USPS COLLECTION BOX - PO LOBBY", "note": "ON 12/24 AND 12/31, THIS BOX MAY BE COLLECTED AS EARLY AS 12 NOON.", "ref": "8362300001"}, "type": "Feature"}
{"geometry": {"coordinates": [-115.300446951, 42.955380092], "type": "Point"}, "id": "LKPdiD-njrC2YYRjnKCeR4o3j68=", "properties": {"@spider": "usps_collection_boxes", "addr:city": "GLENNS FERRY", "addr:country": "US", "addr:full": "22 E 2ND AVE", "addr:postcode": "83623", "addr:state": "ID", "brand": "USPS", "collection_times": "Mo-Fr 16:30; Sa 11:30", "name": "USPS COLLECTION BOX - PO LOBBY", "note": "ON 12/24 AND 12/31, THIS BOX MAY BE COLLECTED AS EARLY AS 12 NOON.", "ref": "8362300002"}, "type": "Feature"}
{"geometry": {"coordinates": [-116.095839, 42.989389], "type": "Point"}, "id": "zxQwTNcKV3tJBM60NlpkChYCYcY=", "properties": {"@spider": "usps_collection_boxes", "addr:city": "GRANDVIEW", "addr:country": "US", "addr:full": "265 STATE ST", "addr:postcode": "83624", "addr:state": "ID", "brand": "USPS", "collection_times": "Mo-Fr 14:15; Sa 12:00", "name": "USPS COLLECTION BOX - PO LOBBY", "note": "ON 12/24 AND 12/31, THIS BOX MAY BE COLLECTED AS EARLY AS 12 NOON.", "ref": "8362400001"}, "type": "Feature"}
{"geometry": {"coordinates": [-116.095839, 42.989389], "type": "Point"}, "id": "JWB923z-LJkTiC62b3V7H9Rki_M=", "properties": {"@spider": "usps_collection_boxes", "addr:city": "GRANDVIEW", "addr:country": "US", "addr:full": "265 STATE ST", "addr:postcode": "83624", "addr:state": "ID", "brand": "USPS", "collection_times": "Mo-Fr 14:15; Sa 12:00", "name": "USPS COLLECTION BOX - PO LOBBY", "note": "ON 12/24 AND 12/31, THIS BOX MAY BE COLLECTED AS EARLY AS 12 NOON.", "ref": "8362400002"}, "type": "Feature"}
{"geometry": {"coordinates": [-116.095865052, 42.989420143], "type": "Point"}, "id": "oBR5pE82WaruQ60GX0eJ4TsinAM=", "properties": {"@spider": "usps_collection_boxes", "addr:city": "GRANDVIEW", "addr:country": "US", "addr:full": "265 STATE ST", "addr:postcode": "83624", "addr:state": "ID", "brand": "USPS", "collection_times": "Mo-Fr 14:15; Sa 12:00", "name": "USPS COLLECTION BOX - PO LOBBY", "note": "ON 12/24 AND 12/31, THIS BOX MAY BE COLLECTED AS EARLY AS 12 NOON.", "ref": "8362400003"}, "type": "Feature"}
{"geometry": {"coordinates": [-116.819839, 43.669421], "type": "Point"}, "id": "WRklUU7k-S9THw2jMJiO_lYuPco=", "properties": {"@spider": "usps_collection_boxes", "addr:city": "GREENLEAF", "addr:country": "US", "addr:full": "21344 MAIN ST", "addr:postcode": "83626", "addr:state": "ID", "brand": "USPS", "collection_times": "Mo-Sa 16:30", "name": "USPS COLLECTION BOX - BLUE BOX", "note": "ON 12/24 AND 12/31, THIS BOX MAY BE COLLECTED AS EARLY AS 12 NOON.", "ref": "8362600000"}, "type": "Feature"}
{"geometry": {"coordinates": [-116.819839, 43.669421], "type": "Point"}, "id": "yUeN5vyrFSvWP0B8Dnuj5qeQpPQ=", "properties": {"@spider": "usps_collection_boxes", "addr:city": "GREENLEAF", "addr:country": "US", "addr:full": "21344 MAIN ST", "addr:postcode": "83626", "addr:state": "ID", "brand": "USPS", "collection_times": "Mo-Fr 14:45; Sa 10:00", "name": "USPS COLLECTION BOX - PO LOBBY", "note": "ON 12/24 AND 12/31, THIS BOX MAY BE COLLECTED AS EARLY AS 12 NOON.", "ref": "8362600001"}, "type": "Feature"}
{"geometry": {"coordinates": [-116.819874795, 43.669467346], "type": "Point"}, "id": "n6C5k3aBdXDnAGj7r6kvMz1OpWE=", "properties": {"@spider": "usps_collection_boxes", "addr:city": "GREENLEAF", "addr:country": "US", "addr:full": "21344 MAIN ST", "addr:postcode": "83626", "addr:state": "ID", "brand": "USPS", "collection_times": "Mo-Fr 14:45; Sa 10:00", "name": "USPS COLLECTION BOX - PO LOBBY", "note": "ON 12/24 AND 12/31, THIS BOX MAY BE COLLECTED AS EARLY AS 12 NOON.", "ref": "8362600002"}, "type": "Feature"}
{"geometry": {"coordinates": [-115.46481, 42.949204], "type": "Point"}, "id": "_rcK7qmUSH5b5t0w9Z-IZGP4SDI=", "properties": {"@spider": "usps_collection_boxes", "addr:city": "HAMMETT", "addr:country": "US", "addr:full": "9344 W KOCH CIR", "addr:postcode": "83627", "addr:state": "ID", "brand": "USPS", "collection_times": "Mo-Fr 11:45; Sa 09:00", "name": "USPS COLLECTION BOX - PO LOBBY", "ref": "8362700001"}, "type": "Feature"}
{"geometry": {"coordinates": [-115.465938, 42.94906], "type": "Point"}, "id": "VQClbYlVv9Kv9l0lzflihaG8_IU=", "properties": {"@spider": "usps_collection_boxes", "addr:city": "HAMMETT", "addr:country": "US", "addr:full": "9344 W KOCH CIR", "addr:postcode": "83627", "addr:state": "ID", "brand": "USPS", "collection_times": "Mo-Sa 16:30", "name": "USPS COLLECTION BOX - BLUE BOX", "note": "ON 12/24 AND 12/31, THIS BOX MAY BE COLLECTED AS EARLY AS 12 NOON.", "ref": "8362700002"}, "type": "Feature"}
{"geometry": {"coordinates": [-115.464859803, 42.948813014], "type": "Point"}, "id": "LqTUyFKPQF4EcyN27LqmSYGVbXU=", "properties": {"@spider": "usps_collection_boxes", "addr:city": "HAMMETT", "addr:country": "US", "addr:full": "9344 W KOCH CIR", "addr:postcode": "83627", "addr:state": "ID", "brand": "USPS", "collection_times": "Mo-Fr 11:45; Sa 09:00", "name": "USPS COLLECTION BOX - PO LOBBY", "ref": "8362700003"}, "type": "Feature"}
{"geometry": {"coordinates": [-116.934319, 43.618108], "type": "Point"}, "id": "l8bmJDHCnrGCForL0P-cgLIUsdw=", "properties": {"@spider": "usps_collection_boxes", "addr:city": "HOMEDALE", "addr:country": "US", "addr:full": "7 N MAIN ST", "addr:postcode": "83628", "addr:state": "ID", "brand": "USPS", "collection_times": "Mo-Sa 16:00", "name": "USPS COLLECTION BOX - BLUE BOX", "note": "ON 12/24 AND 12/31, THIS BOX MAY BE COLLECTED AS EARLY AS 12 NOON.", "ref": "8362800000"}, "type": "Feature"}
{"geometry": {"coordinates": [-116.9343164201, 43.618104], "type": "Point"}, "id": "JekiTg41ifZEYkWXXxe4b6zcYw4=", "properties": {"@spider": "usps_collection_boxes", "addr:city": "HOMEDALE", "addr:country": "US", "addr:full": "7 N MAIN ST", "addr:postcode": "83628", "addr:state": "ID", "brand": "USPS", "collection_times": "Mo-Fr 16:30; Sa 12:00", "name": "USPS COLLECTION BOX - PO LOBBY", "note": "ON 12/24 AND 12/31, THIS BOX MAY BE COLLECTED AS EARLY AS 12 NOON.", "ref": "8362800001"}, "type": "Feature"}
{"geometry": {"coordinates": [-116.932979, 43.616377], "type": "Point"}, "id": "4Jc6sqzuWXlHC2Pc0oUJTyZIwTc=", "properties": {"@spider": "usps_collection_boxes", "addr:city": "HOMEDALE", "addr:country": "US", "addr:full": "24 E WYOMING AVE", "addr:postcode": "83628", "addr:state": "ID", "brand": "USPS", "collection_times": "Mo-Sa 10:00", "name": "USPS COLLECTION BOX - BLUE BOX", "ref": "8362800002"}, "type": "Feature"}
{"geometry": {"coordinates": [-116.9343164201, 43.618104], "type": "Point"}, "id": "M03STHncoGgaV5bMx8O_HJUAgpo=", "properties": {"@spider": "usps_collection_boxes", "addr:city": "HOMEDALE", "addr:country": "US", "addr:full": "7 N MAIN ST", "addr:postcode": "83628", "addr:state": "ID", "brand": "USPS", "collection_times": "Mo-Fr 16:30", "name": "USPS COLLECTION BOX - PO LOBBY", "note": "ON 12/24 AND 12/31, THIS BOX MAY BE COLLECTED AS EARLY AS 12 NOON.", "ref": "8362800003"}, "type": "Feature"}
{"geometry": {"coordinates": [-116.782811, 43.603318], "type": "Point"}, "id": "l_sG_mHb4ZwBn21Wq-VOrE-hZkA=", "properties": {"@spider": "usps_collection_boxes", "addr:city": "MARSING", "addr:country": "US", "addr:full": "16021 PRIDE LN", "addr:postcode": "83630", "addr:state": "ID", "brand": "USPS", "collection_times": "Mo-Fr 16:15; Sa 15:30", "name": "USPS COLLECTION BOX - BLUE BOX", "note": "ON 12/24 AND 12/31, THIS BOX MAY BE COLLECTED AS EARLY AS 12 NOON.", "ref": "8363000000"}, "type": "Feature"}
{"geometry": {"coordinates": [-116.782644, 43.607849], "type": "Point"}, "id": "1EuD4c2OMQY_ObayXpJ1HgdiH2k=", "properties": {"@spider": "usps_collection_boxes", "addr:city": "MARSING", "addr:country": "US", "addr:full": "16021 PRIDE LN", "addr:postcode": "83630", "addr:state": "ID", "brand": "USPS", "collection_times": "Mo-Fr 16:00; Sa 10:15", "name": "USPS COLLECTION BOX - PO LOBBY", "note": "ON 12/24 AND 12/31, THIS BOX MAY BE COLLECTED AS EARLY AS 12 NOON.", "ref": "8363000001"}, "type": "Feature"}
{"geometry": {"coordinates": [-116.782720047, 43.603397899], "type": "Point"}, "id": "Lszu7C1s0TcHXBdWtS_tmNauwT8=", "properties": {"@spider": "usps_collection_boxes", "addr:city": "MARSING", "addr:country": "US", "addr:full": "16021 PRIDE LN", "addr:postcode": "83630", "addr:state": "ID", "brand": "USPS", "collection_times": "Mo-Fr 16:00; Sa 10:15", "name": "USPS COLLECTION BOX - PO LOBBY", "note": "ON 12/24 AND 12/31, THIS BOX MAY BE COLLECTED AS EARLY AS 12 NOON.", "ref": "8363000002"}, "type": "Feature"}
{"geometry": {"coordinates": [-115.837731, 43.824235], "type": "Point"}, "id": "aqTBJoCI5qpIU05cvQcQqCCqLa0=", "properties": {"@spider": "usps_collection_boxes", "addr:city": "IDAHO CITY", "addr:country": "US", "addr:full": "3860 HIGHWAY 21", "addr:postcode": "83631", "addr:state": "ID", "brand": "USPS", "collection_times": "Mo-Fr 12:30; Sa 11:30", "name": "USPS COLLECTION BOX - PO LOBBY", "note": "ON 12/24 AND 12/31, THIS BOX MAY BE COLLECTED AS EARLY AS 12 NOON.", "ref": "8363100000"}, "type": "Feature"}
{"geometry": {"coordinates": [-115.837731, 43.824235], "type": "Point"}, "id": "vT23O0rsFE1dUVKV-U8yXs2Wxk4=", "properties": {"@spider": "usps_collection_boxes", "addr:city": "IDAHO CITY", "addr:country": "US", "addr:full": "3860 HIGHWAY 21", "addr:postcode": "83631", "addr:state": "ID", "brand": "USPS", "collection_times": "Mo-Fr 12:30; Sa 11:30", "name": "USPS COLLECTION BOX - BLUE BOX", "note": "ON 12/24 AND 12/31, THIS BOX MAY BE COLLECTED AS EARLY AS 12 NOON.", "ref": "8363100001"}, "type": "Feature"}
{"geometry": {"coordinates": [-115.83829278, 43.824009382], "type": "Point"}, "id": "EvztRJyCbpR-IiMOVwxtYYn0g_k=", "properties": {"@spider": "usps_collection_boxes", "addr:city": "IDAHO CITY", "addr:country": "US", "addr:full": "3860 HIGHWAY 21", "addr:postcode": "83631", "addr:state": "ID", "brand": "USPS", "collection_times": "Mo-Fr 12:30; Sa 11:30", "name": "USPS COLLECTION BOX - PO LOBBY", "note": "ON 12/24 AND 12/31, THIS BOX MAY BE COLLECTED AS EARLY AS 12 NOON.", "ref": "8363100002"}, "type": "Feature"}
{"geometry": {"coordinates": [-116.40529001, 43.487324996], "type": "Point"}, "id": "3dLTEwoCwwWTysSyCiCd9N4x02o=", "properties": {"@spider": "usps_collection_boxes", "addr:city": "KUNA", "addr:country": "US", "addr:full": "693 E WYTHE CREEK CT", "addr:postcode": "83634", "addr:state": "ID", "brand": "USPS", "collection_times": "Mo-Fr 17:00; Sa 11:00", "name": "USPS COLLECTION BOX - PO LOBBY", "note": "ON 12/24 AND 12/31, THIS BOX MAY BE COLLECTED AS EARLY AS 12 NOON.", "ref": "8363400001"}, "type": "Feature"}
{"geometry": {"coordinates": [-116.405125, 43.489511], "type": "Point"}, "id": "pOcqDAUustiEqiXiYjDu9yyR4FQ=", "properties": {"@spider": "usps_collection_boxes", "addr:city": "KUNA", "addr:country": "US", "addr:full": "710 E AVALON ST", "addr:postcode": "83634", "addr:state": "ID", "brand": "USPS", "collection_times": "Mo-Sa 13:00", "name": "USPS COLLECTION BOX - BLUE BOX", "note": "ON 12/24 AND 12/31, THIS BOX MAY BE COLLECTED AS EARLY AS 12 NOON.", "ref": "8363400002"}, "type": "Feature"}
{"geometry": {"coordinates": [-116.40529001, 43.487324996], "type": "Point"}, "id": "A3cGYF8TPNhp-dPRv2_j_k3qBs8=", "properties": {"@spider": "usps_collection_boxes", "addr:city": "KUNA", "addr:country": "US", "addr:full": "693 E WYTHE CREEK CT", "addr:postcode": "83634", "addr:state": "ID", "brand": "USPS", "collection_times": "Mo-Sa 16:30", "name": "USPS COLLECTION BOX - BLUE BOX", "note": "ON 12/24 AND 12/31, THIS BOX MAY BE COLLECTED AS EARLY AS 12 NOON.", "ref": "8363400003"}, "type": "Feature"}
{"geometry": {"coordinates": [-116.40529001, 43.487324996], "type": "Point"}, "id": "seSm1GSx8WSZ55Ci_1RbLBSy0MQ=", "properties": {"@spider": "usps_collection_boxes", "addr:city": "KUNA", "addr:country": "US", "addr:full": "693 E WYTHE CREEK CT", "addr:postcode": "83634", "addr:state": "ID", "brand": "USPS", "collection_times": "Mo-Fr 17:00; Sa 11:00", "name": "USPS COLLECTION BOX - PO LOBBY", "note": "ON 12/24 AND 12/31, THIS BOX MAY BE COLLECTED AS EARLY AS 12 NOON.", "ref": "8363400005"}, "type": "Feature"}
{"geometry": {"coordinates": [-116.851069963, 43.5458090126], "type": "Point"}, "id": "pYHnj0py_kKerOTATsjW4_3tFYY=", "properties": {"@spider": "usps_collection_boxes", "addr:city": "MARSING", "addr:country": "US", "addr:full": "5644 BUNTROCK RD", "addr:postcode": "83639", "addr:state": "ID", "brand": "USPS", "collection_times": "Mo-Sa 12:30", "name": "USPS COLLECTION BOX - BLUE BOX", "note": "ON 12/24 AND 12/31, THIS BOX MAY BE COLLECTED AS EARLY AS 12 NOON.", "ref": "8363900000"}, "type": "Feature"}
{"geometry": {"coordinates": [-116.805846216, 43.546072865], "type": "Point"}, "id": "Kha0-6j7A5R6movY7dB_sV3-y84=", "properties": {"@spider": "usps_collection_boxes", "addr:city": "MARSING", "addr:country": "US", "addr:full": "210 W MAIN ST", "addr:postcode": "83639", "addr:state": "ID", "brand": "USPS", "collection_times": "Mo-Fr 16:30; Sa 12:30", "name": "USPS COLLECTION BOX - PO LOBBY", "note": "ON 12/24 AND 12/31, THIS BOX MAY BE COLLECTED AS EARLY AS 12 NOON.", "ref": "8363900002"}, "type": "Feature"}
{"geometry": {"coordinates": [-116.8058462163, 43.5460728649], "type": "Point"}, "id": "aaFnnGHpsk9ZYRoFT7k-cw43ZDc=", "properties": {"@spider": "usps_collection_boxes", "addr:city": "MARSING", "addr:country": "US", "addr:full": "210 W MAIN ST", "addr:postcode": "83639", "addr:state": "ID", "brand": "USPS", "collection_times": "Mo-Fr 16:30", "name": "USPS COLLECTION BOX - PO LOBBY", "note": "ON 12/24 AND 12/31, THIS BOX MAY BE COLLECTED AS EARLY AS 12 NOON.", "ref": "8363900003"}, "type": "Feature"}
{"geometry": {"coordinates": [-116.529812, 43.375199], "type": "Point"}, "id": "vELOMaUzXPrUF1r-b4uvSL_b5Dw=", "properties": {"@spider": "usps_collection_boxes", "addr:city": "MELBA", "addr:country": "US", "addr:full": "314 CARRIE REX AVE", "addr:postcode": "83641", "addr:state": "ID", "brand": "USPS", "collection_times": "Mo-Sa 16:00", "name": "USPS COLLECTION BOX - BLUE BOX", "note": "ON 12/24 AND 12/31, THIS BOX MAY BE COLLECTED AS EARLY AS 12 NOON.", "ref": "8364100000"}, "type": "Feature"}
{"geometry": {"coordinates": [-116.529812, 43.375199], "type": "Point"}, "id": "et-gJofY0Wp4S1NgB8kdMTL1Bhs=", "properties": {"@spider": "usps_collection_boxes", "addr:city": "MELBA", "addr:country": "US", "addr:full": "314 CARRIE REX AVE", "addr:postcode": "83641", "addr:state": "ID", "brand": "USPS", "collection_times": "Mo-Fr 16:30; Sa 09:00", "name": "USPS COLLECTION BOX - PO LOBBY", "note": "ON 12/24 AND 12/31, THIS BOX MAY BE COLLECTED AS EARLY AS 12 NOON.", "ref": "8364100001"}, "type": "Feature"}
{"geometry": {"coordinates": [-116.529812175, 43.375194], "type": "Point"}, "id": "aMCd0PjyWfcwF9qV2ISOrZVbADk=", "properties": {"@spider": "usps_collection_boxes", "addr:city": "MELBA", "addr:country": "US", "addr:full": "314 CARRIE REX AVE", "addr:postcode": "83641", "addr:state": "ID", "brand": "USPS", "collection_times": "Mo-Fr 16:30; Sa 09:00", "name": "USPS COLLECTION BOX - PO LOBBY", "note": "ON 12/24 AND 12/31, THIS BOX MAY BE COLLECTED AS EARLY AS 12 NOON.", "ref": "8364100002"}, "type": "Feature"}
{"geometry": {"coordinates": [-116.414228, 43.618827], "type": "Point"}, "id": "pO7H0XjC0Jl5k2s_m-hJg8m92EU=", "properties": {"@spider": "usps_collection_boxes", "addr:city": "MERIDIAN", "addr:country": "US", "addr:full": "1605 W CHERRY LN", "addr:postcode": "83642", "addr:state": "ID", "brand": "USPS", "collection_times": "Mo-Sa 15:00", "name": "USPS COLLECTION BOX - BLUE BOX", "note": "ON 12/24 AND 12/31, THIS BOX MAY BE COLLECTED AS EARLY AS 12 NOON.", "ref": "8364200002"}, "type": "Feature"}
{"geometry": {"coordinates": [-116.391552, 43.614638], "type": "Point"}, "id": "cyd-UnfuGVoJPld4DzyyT7kmzIs=", "properties": {"@spider": "usps_collection_boxes", "addr:city": "MERIDIAN", "addr:country": "US", "addr:full": "1200 N MAIN ST", "addr:postcode": "83642", "addr:state": "ID", "brand": "USPS", "collection_times": "Mo-Fr 17:15; Sa 15:00", "name": "USPS COLLECTION BOX - PO LOBBY", "note": "ON 12/24 AND 12/31, THIS BOX MAY BE COLLECTED AS EARLY AS 12 NOON.", "ref": "8364200004"}, "type": "Feature"}
{"geometry": {"coordinates": [-116.391098, 43.613912], "type": "Point"}, "id": "jB55DGL5SKhTETYUlcCvsCNOEUE=", "properties": {"@spider": "usps_collection_boxes", "addr:city": "MERIDIAN", "addr:country": "US", "addr:full": "1200 N MAIN ST", "addr:postcode": "83642", "addr:state": "ID", "brand": "USPS", "collection_times": "Mo-Fr 17:15; Sa 14:30", "name": "USPS COLLECTION BOX - BLUE BOX", "note": "ON 12/24 AND 12/31, THIS BOX MAY BE COLLECTED AS EARLY AS 12 NOON.", "ref": "8364200005"}, "type": "Feature"}
{"geometry": {"coordinates": [-116.373266, 43.620777], "type": "Point"}, "id": "wMRmmQvc7xooIbINv_fwOWqn4OE=", "properties": {"@spider": "usps_collection_boxes", "addr:city": "MERIDIAN", "addr:country": "US", "addr:full": "1850 E FAIRVIEW AVE", "addr:postcode": "83642", "addr:state": "ID", "brand": "USPS", "collection_times": "Mo-Fr 15:30; Sa 15:00", "name": "USPS COLLECTION BOX - BLUE BOX", "note": "ON 12/24 AND 12/31, THIS BOX MAY BE COLLECTED AS EARLY AS 12 NOON.", "ref": "8364200007"}, "type": "Feature"}
{"geometry": {"coordinates": [-116.391665, 43.619747], "type": "Point"}, "id": "BBTrErNMFkIEyc4n_Im1n90a7OU=", "properties": {"@spider": "usps_collection_boxes", "addr:city": "MERIDIAN", "addr:country": "US", "addr:full": "104 E FAIRVIEW AVE", "addr:postcode": "83642", "addr:state": "ID", "brand": "USPS", "collection_times": "Mo-Sa 14:45", "name": "USPS COLLECTION BOX - BLUE BOX", "note": "ON 12/24 AND 12/31, THIS BOX MAY BE COLLECTED AS EARLY AS 12 NOON.", "ref": "8364200008"}, "type": "Feature"}
{"geometry": {"coordinates": [-116.390651, 43.599024], "type": "Point"}, "id": "iEXgQ-S8gRUZCpqogVA51tCz4oE=", "properties": {"@spider": "usps_collection_boxes", "addr:city": "MERIDIAN", "addr:country": "US", "addr:full": "280 E CORPORATE DR", "addr:postcode": "83642", "addr:state": "ID", "brand": "USPS", "collection_times": "Mo-Fr 15:30", "name": "USPS COLLECTION BOX - BLUE BOX", "note": "ON 12/24 AND 12/31, THIS BOX MAY BE COLLECTED AS EARLY AS 12 NOON.", "ref": "8364200010"}, "type": "Feature"}
{"geometry": {"coordinates": [-116.391126, 43.613901], "type": "Point"}, "id": "lm03qacuYo4doYUGsuGTINrnoPU=", "properties": {"@spider": "usps_collection_boxes", "addr:city": "MERIDIAN", "addr:country": "US", "addr:full": "1200 N MAIN ST", "addr:postcode": "83642", "addr:state": "ID", "brand": "USPS", "collection_times": "Mo-Fr 17:15; Sa 14:30", "name": "USPS COLLECTION BOX - BLUE BOX", "note": "ON 12/24 AND 12/31, THIS BOX MAY BE COLLECTED AS EARLY AS 12 NOON.", "ref": "8364200012"}, "type": "Feature"}
{"geometry": {"coordinates": [-116.3913819, 43.6129749], "type": "Point"}, "id": "h6ZfEsgVvlk6FsNipeTmk0OJ7hc=", "properties": {"@spider": "usps_collection_boxes", "addr:city": "MERIDIAN", "addr:country": "US", "addr:full": "3540 W LONGWING AVE", "addr:postcode": "83642", "addr:state": "ID", "brand": "USPS", "collection_times": "Mo-Fr 15:30; Sa 15:00", "name": "USPS COLLECTION BOX - BLUE BOX", "note": "ON 12/24 AND 12/31, THIS BOX MAY BE COLLECTED AS EARLY AS 12 NOON.", "ref": "8364200017"}, "type": "Feature"}
{"geometry": {"coordinates": [-116.357494, 43.599297], "type": "Point"}, "id": "r9Uc2YkBc3Y_U9SVfmMcsR1_RkY=", "properties": {"@spider": "usps_collection_boxes", "addr:city": "MERIDIAN", "addr:country": "US", "addr:full": "2947 E MAGIC VIEW DR", "addr:postcode": "83642", "addr:state": "ID", "brand": "USPS", "collection_times": "Mo-Fr 15:45; Sa 15:00", "name": "USPS COLLECTION BOX - BLUE BOX", "note": "ON 12/24 AND 12/31, THIS BOX MAY BE COLLECTED AS EARLY AS 12 NOON.", "ref": "8364200018"}, "type": "Feature"}
{"geometry": {"coordinates": [-116.391552, 43.614638], "type": "Point"}, "id": "vRz32VdremIC1PQfCnRS_5lns8M=", "properties": {"@spider": "usps_collection_boxes", "addr:city": "MERIDIAN", "addr:country": "US", "addr:full": "1200 N MAIN ST", "addr:postcode": "83642", "addr:state": "ID", "brand": "USPS", "collection_times": "Mo-Fr 17:15; Sa 15:00", "name": "USPS COLLECTION BOX - APC", "note": "ON 12/24 AND 12/31, THIS BOX MAY BE COLLECTED AS EARLY AS 12 NOON.", "ref": "8364200021"}, "type": "Feature"}
{"geometry": {"coordinates": [-116.357607, 43.587643], "type": "Point"}, "id": "fC4hDFQg4g_odBdksrhjHhRoOTs=", "properties": {"@spider": "usps_collection_boxes", "addr:city": "MERIDIAN", "addr:country": "US", "addr:full": "1940 S BONITO WAY", "addr:postcode": "83642", "addr:state": "ID", "brand": "USPS", "collection_times": "Mo-Fr 15:45; Sa 15:00", "name": "USPS COLLECTION BOX - BLUE BOX", "note": "ON 12/24 AND 12/31, THIS BOX MAY BE COLLECTED AS EARLY AS 12 NOON.", "ref": "8364200022"}, "type": "Feature"}
{"geometry": {"coordinates": [-116.350372, 43.583752], "type": "Point"}, "id": "Np4npGE0L6WC0mH4kf6CHOdimLA=", "properties": {"@spider": "usps_collection_boxes", "addr:city": "MERIDIAN", "addr:country": "US", "addr:full": "3451 E COPPER POINT DR", "addr:postcode": "83642", "addr:state": "ID", "brand": "USPS", "collection_times": "Mo-Fr 15:45; Sa 15:00", "name": "USPS COLLECTION BOX - BLUE BOX", "note": "ON 12/24 AND 12/31, THIS BOX MAY BE COLLECTED AS EARLY AS 12 NOON.", "ref": "8364200023"}, "type": "Feature"}
{"geometry": {"coordinates": [-116.35149, 43.588863], "type": "Point"}, "id": "EDFpjKfqgbGX0NV4pVeJX4QkSTo=", "properties": {"@spider": "usps_collection_boxes", "addr:city": "MERIDIAN", "addr:country": "US", "addr:full": "3581 E OVERLAND RD", "addr:postcode": "83642", "addr:state": "ID", "brand": "USPS", "collection_times": "Mo-Fr 15:45; Sa 15:00", "name": "USPS COLLECTION BOX - BLUE BOX", "note": "ON 12/24 AND 12/31, THIS BOX MAY BE COLLECTED AS EARLY AS 12 NOON.", "ref": "8364200024"}, "type": "Feature"}
{"geometry": {"coordinates": [-116.383953, 43.61822], "type": "Point"}, "id": "R-O6GxYHB5ZmLlW3RscxdxvpHAo=", "properties": {"@spider": "usps_collection_boxes", "addr:city": "MERIDIAN", "addr:country": "US", "addr:full": "841 E FAIRVIEW AVE", "addr:postcode": "83642", "addr:state": "ID", "brand": "USPS", "collection_times": "Mo-Fr 15:30; Sa 15:00", "name": "USPS COLLECTION BOX - BLUE BOX", "note": "ON 12/24 AND 12/31, THIS BOX MAY BE COLLECTED AS EARLY AS 12 NOON.", "ref": "8364200026"}, "type": "Feature"}
{"geometry": {"coordinates": [-116.391552, 43.614638], "type": "Point"}, "id": "oQycM3rm1y7lHGmZK5ZO5E0Eb0Y=", "properties": {"@spider": "usps_collection_boxes", "addr:city": "MERIDIAN", "addr:country": "US", "addr:full": "1200 N MAIN ST", "addr:postcode": "83642", "addr:state": "ID", "brand": "USPS", "collection_times": "Mo-Fr 17:15; Sa 15:00", "name": "USPS COLLECTION BOX - PO LOBBY", "note": "ON 12/24 AND 12/31, THIS BOX MAY BE COLLECTED AS EARLY AS 12 NOON.", "ref": "8364200028"}, "type": "Feature"}
{"geometry": {"coordinates": [-116.391554072, 43.614638665], "type": "Point"}, "id": "FaXDF2AwmEqfXhRsC7vx4_YnIOs=", "properties": {"@spider": "usps_collection_boxes", "addr:city": "MERIDIAN", "addr:country": "US", "addr:full": "1200 N MAIN ST", "addr:postcode": "83642", "addr:state": "ID", "brand": "USPS", "collection_times": "Mo-Fr 17:15; Sa 15:00", "name": "USPS COLLECTION BOX - PO LOBBY", "note": "ON 12/24 AND 12/31, THIS BOX MAY BE COLLECTED AS EARLY AS 12 NOON.", "ref": "8364200032"}, "type": "Feature"}
{"geometry": {"coordinates": [-116.6230726223, 43.7058963178], "type": "Point"}, "id": "fBP50JupF3fyh94g-JOYRPhPsdo=", "properties": {"@spider": "usps_collection_boxes", "addr:city": "MIDDLETON", "addr:country": "US", "addr:full": "10 S HAWTHORNE AVE", "addr:postcode": "83644", "addr:state": "ID", "brand": "USPS", "collection_times": "Mo-Fr 17:00; Sa 12:00", "name": "USPS COLLECTION BOX - BLUE BOX", "note": "ON 12/24 AND 12/31, THIS BOX MAY BE COLLECTED AS EARLY AS 12 NOON.", "ref": "8364400000"}, "type": "Feature"}
{"geometry": {"coordinates": [-116.6230726223, 43.7058963178], "type": "Point"}, "id": "ViFSUMkL0YMLFBfrye-ca8PQrb0=", "properties": {"@spider": "usps_collection_boxes", "addr:city": "MIDDLETON", "addr:country": "US", "addr:full": "10 S HAWTHORNE AVE", "addr:postcode": "83644", "addr:state": "ID", "brand": "USPS", "collection_times": "Mo-Fr 17:00; Sa 12:00", "name": "USPS COLLECTION BOX - PO LOBBY", "note": "ON 12/24 AND 12/31, THIS BOX MAY BE COLLECTED AS EARLY AS 12 NOON.", "ref": "8364400001"}, "type": "Feature"}
{"geometry": {"coordinates": [-116.623087982, 43.705838452], "type": "Point"}, "id": "ZErwClSQ3w3Oo9yr-8WfBBH_dVI=", "properties": {"@spider": "usps_collection_boxes", "addr:city": "MIDDLETON", "addr:country": "US", "addr:full": "10 S HAWTHORNE AVE", "addr:postcode": "83644", "addr:state": "ID", "brand": "USPS", "collection_times": "Mo-Fr 17:00; Sa 12:00", "name": "USPS COLLECTION BOX - PO LOBBY", "note": "ON 12/24 AND 12/31, THIS BOX MAY BE COLLECTED AS EARLY AS 12 NOON.", "ref": "8364400002"}, "type": "Feature"}
{"geometry": {"coordinates": [-115.697964, 43.131892], "type": "Point"}, "id": "kMGCpbLUJVizp4aDtNTuQ4MwPYo=", "properties": {"@spider": "usps_collection_boxes", "addr:city": "MOUNTAIN HOME", "addr:country": "US", "addr:full": "350 N 3RD E", "addr:postcode": "83647", "addr:state": "ID", "brand": "USPS", "collection_times": "Mo-Sa 17:15", "name": "USPS COLLECTION BOX - BLUE BOX", "note": "ON 12/24 AND 12/31, THIS BOX MAY BE COLLECTED AS EARLY AS 12 NOON.", "ref": "8364700011"}, "type": "Feature"}
{"geometry": {"coordinates": [-115.698028, 43.131918], "type": "Point"}, "id": "SDrLjvkRruFuD1foThU-_TiKmDg=", "properties": {"@spider": "usps_collection_boxes", "addr:city": "MOUNTAIN HOME", "addr:country": "US", "addr:full": "350 N 3RD E", "addr:postcode": "83647", "addr:state": "ID", "brand": "USPS", "collection_times": "Mo-Fr 17:15; Sa 15:15", "name": "USPS COLLECTION BOX - PO LOBBY", "note": "ON 12/24 AND 12/31, THIS BOX MAY BE COLLECTED AS EARLY AS 12 NOON.", "ref": "8364700014"}, "type": "Feature"}
{"geometry": {"coordinates": [-115.693878784, 43.133893449], "type": "Point"}, "id": "9QAeRt7gjhNQPJFobWMC551iO4c=", "properties": {"@spider": "usps_collection_boxes", "addr:city": "MOUNTAIN HOME", "addr:country": "US", "addr:full": "350 N 3RD E", "addr:postcode": "83647", "addr:state": "ID", "brand": "USPS", "collection_times": "Mo-Fr 17:15; Sa 15:15", "name": "USPS COLLECTION BOX - PO LOBBY", "note": "ON 12/24 AND 12/31, THIS BOX MAY BE COLLECTED AS EARLY AS 12 NOON.", "ref": "8364700019"}, "type": "Feature"}
{"geometry": {"coordinates": [-115.857116, 43.055326], "type": "Point"}, "id": "x5NqNG-Pf0P2m-5Wj6-FogDPDe4=", "properties": {"@spider": "usps_collection_boxes", "addr:city": "MTN HOME AFB", "addr:country": "US", "addr:full": "625 GUNFIGHTER AVE", "addr:postcode": "83648", "addr:state": "ID", "brand": "USPS", "collection_times": "Mo-Sa 09:00", "name": "USPS COLLECTION BOX - BLUE BOX", "ref": "8364800003"}, "type": "Feature"}
{"geometry": {"coordinates": [-115.8647956784, 43.0498257655], "type": "Point"}, "id": "Q6XdaBXXbJ-qfkm2jpE0F-SSDSI=", "properties": {"@spider": "usps_collection_boxes", "addr:city": "MTN HOME AFB", "addr:country": "US", "addr:full": "480 5TH ST STE 150", "addr:postcode": "83648", "addr:state": "ID", "brand": "USPS", "collection_times": "Mo-Fr 09:00", "name": "USPS COLLECTION BOX - PO LOBBY", "ref": "8364800010"}, "type": "Feature"}
{"geometry": {"coordinates": [-116.551857, 43.215653], "type": "Point"}, "id": "9NMGvaUYGI5XdeyHDcgHY3ejs-8=", "properties": {"@spider": "usps_collection_boxes", "addr:city": "MURPHY", "addr:country": "US", "addr:full": "17026 HAILEY ST", "addr:postcode": "83650", "addr:state": "ID", "brand": "USPS", "collection_times": "Mo-Fr 13:45; Sa 10:00", "name": "USPS COLLECTION BOX - BLUE BOX", "note": "ON 12/24 AND 12/31, THIS BOX MAY BE COLLECTED AS EARLY AS 12 NOON.", "ref": "8365000000"}, "type": "Feature"}
{"geometry": {"coordinates": [-116.607754, 43.593291], "type": "Point"}, "id": "sPAScmUDdV-9Ieuk2dK7phh7fUE=", "properties": {"@spider": "usps_collection_boxes", "addr:city": "NAMPA", "addr:country": "US", "addr:full": "1100 BURNETT DR", "addr:postcode": "83651", "addr:state": "ID", "brand": "USPS", "collection_times": "Mo-Fr 14:15; Sa 16:00", "name": "USPS COLLECTION BOX - BLUE BOX", "note": "ON 12/24 AND 12/31, THIS BOX MAY BE COLLECTED AS EARLY AS 12 NOON.", "ref": "8365100001"}, "type": "Feature"}
{"geometry": {"coordinates": [-116.604901, 43.596301], "type": "Point"}, "id": "X27OvIjFo-n8aQRdn1AlT1kx2CQ=", "properties": {"@spider": "usps_collection_boxes", "addr:city": "NAMPA", "addr:country": "US", "addr:full": "1907 W FLAMINGO AVE", "addr:postcode": "83651", "addr:state": "ID", "brand": "USPS", "collection_times": "Mo-Fr 14:15; Sa 16:00", "name": "USPS COLLECTION BOX - BLUE BOX", "note": "ON 12/24 AND 12/31, THIS BOX MAY BE COLLECTED AS EARLY AS 12 NOON.", "ref": "8365100005"}, "type": "Feature"}
{"geometry": {"coordinates": [-116.559647, 43.578801], "type": "Point"}, "id": "qTl9tHnBRV1iggvpirWHaMlagMc=", "properties": {"@spider": "usps_collection_boxes", "addr:city": "NAMPA", "addr:country": "US", "addr:full": "100 12TH AVE S", "addr:postcode": "83651", "addr:state": "ID", "brand": "USPS", "collection_times": "Mo-Sa 17:45", "name": "USPS COLLECTION BOX - BLUE BOX", "note": "ON 12/24 AND 12/31, THIS BOX MAY BE COLLECTED AS EARLY AS 12 NOON.", "ref": "8365100006"}, "type": "Feature"}
{"geometry": {"coordinates": [-116.575375, 43.588295], "type": "Point"}, "id": "bvgFE0aR38l1tn72_p1xfLPXCRc=", "properties": {"@spider": "usps_collection_boxes", "addr:city": "NAMPA", "addr:country": "US", "addr:full": "50 2ND ST S", "addr:postcode": "83651", "addr:state": "ID", "brand": "USPS", "collection_times": "Mo-Sa 16:30", "name": "USPS COLLECTION BOX - BLUE BOX", "note": "ON 12/24 AND 12/31, THIS BOX MAY BE COLLECTED AS EARLY AS 12 NOON.", "ref": "8365100009"}, "type": "Feature"}
{"geometry": {"coordinates": [-116.566445, 43.574368], "type": "Point"}, "id": "KNdJK1Mhr2qF0ZokAnCISTn6okg=", "properties": {"@spider": "usps_collection_boxes", "addr:city": "NAMPA", "addr:country": "US", "addr:full": "715 12TH AVE S", "addr:postcode": "83651", "addr:state": "ID", "brand": "USPS", "collection_times": "Mo-Sa 17:00", "name": "USPS COLLECTION BOX - BLUE BOX", "note": "ON 12/24 AND 12/31, THIS BOX MAY BE COLLECTED AS EARLY AS 12 NOON.", "ref": "8365100010"}, "type": "Feature"}
{"geometry": {"coordinates": [-116.593051, 43.600785], "type": "Point"}, "id": "ZOftzy48AmTvPGVYxTHHw7FbccY=", "properties": {"@spider": "usps_collection_boxes", "addr:city": "NAMPA", "addr:country": "US", "addr:full": "1822 N MIDLAND BLVD", "addr:postcode": "83651", "addr:state": "ID", "brand": "USPS", "collection_times": "Mo-Sa 16:45", "name": "USPS COLLECTION BOX - BLUE BOX", "note": "ON 12/24 AND 12/31, THIS BOX MAY BE COLLECTED AS EARLY AS 12 NOON.", "ref": "8365100011"}, "type": "Feature"}
{"geometry": {"coordinates": [-116.567594, 43.572548], "type": "Point"}, "id": "z65pWzFi6oZ2XpvCOovvwHIDvhI=", "properties": {"@spider": "usps_collection_boxes", "addr:city": "NAMPA", "addr:country": "US", "addr:full": "900 12TH AVE S", "addr:postcode": "83651", "addr:state": "ID", "brand": "USPS", "collection_times": "Mo-Sa 17:30", "name": "USPS COLLECTION BOX - BLUE BOX", "note": "ON 12/24 AND 12/31, THIS BOX MAY BE COLLECTED AS EARLY AS 12 NOON.", "ref": "8365100012"}, "type": "Feature"}
{"geometry": {"coordinates": [-116.562471, 43.579362], "type": "Point"}, "id": "v4PZyF9sj34bMIDJTXCfNprxyuQ=", "properties": {"@spider": "usps_collection_boxes", "addr:city": "NAMPA", "addr:country": "US", "addr:full": "123 11TH AVE S", "addr:postcode": "83651", "addr:state": "ID", "brand": "USPS", "collection_times": "Mo-Sa 18:00", "name": "USPS COLLECTION BOX - BLUE BOX", "note": "ON 12/24 AND 12/31, THIS BOX MAY BE COLLECTED AS EARLY AS 12 NOON.", "ref": "8365100016"}, "type": "Feature"}
{"geometry": {"coordinates": [-116.512369, 43.605659], "type": "Point"}, "id": "96a-2JTIjV9ww65ImD5UmyvoWEo=", "properties": {"@spider": "usps_collection_boxes", "addr:city": "NAMPA", "addr:country": "US", "addr:full": "5950 E FRANKLIN RD", "addr:postcode": "83651", "addr:state": "ID", "brand": "USPS", "collection_times": "Mo-Sa 10:30", "name": "USPS COLLECTION BOX - BLUE BOX", "ref": "8365100020"}, "type": "Feature"}
{"geometry": {"coordinates": [-116.561609, 43.578983], "type": "Point"}, "id": "N_xa4xyn1UBG4xfImIdWC4poQzA=", "properties": {"@spider": "usps_collection_boxes", "addr:city": "NAMPA", "addr:country": "US", "addr:full": "123 11TH AVE S", "addr:postcode": "83651", "addr:state": "ID", "brand": "USPS", "collection_times": "Mo-Fr 18:00; Sa 17:45", "name": "USPS COLLECTION BOX - PO LOBBY", "note": "ON 12/24 AND 12/31, THIS BOX MAY BE COLLECTED AS EARLY AS 12 NOON.", "ref": "8365100021"}, "type": "Feature"}
{"geometry": {"coordinates": [-116.58954, 43.599527], "type": "Point"}, "id": "fHucnOnnEwoj28HGuMOLVg7Hf1o=", "properties": {"@spider": "usps_collection_boxes", "addr:city": "NAMPA", "addr:country": "US", "addr:full": "820 PARKCENTRE WAY", "addr:postcode": "83651", "addr:state": "ID", "brand": "USPS", "collection_times": "Mo-Sa 17:45", "name": "USPS COLLECTION BOX - BLUE BOX", "note": "ON 12/24 AND 12/31, THIS BOX MAY BE COLLECTED AS EARLY AS 12 NOON.", "ref": "8365100027"}, "type": "Feature"}
{"geometry": {"coordinates": [-116.561609, 43.578983], "type": "Point"}, "id": "ZE-ANDUeDGKug_iGJy_mGtD3OFk=", "properties": {"@spider": "usps_collection_boxes", "addr:city": "NAMPA", "addr:country": "US", "addr:full": "123 11TH AVE S", "addr:postcode": "83651", "addr:state": "ID", "brand": "USPS", "collection_times": "Mo-Fr 18:00; Sa 17:45", "name": "USPS COLLECTION BOX - PO LOBBY", "note": "ON 12/24 AND 12/31, THIS BOX MAY BE COLLECTED AS EARLY AS 12 NOON.", "ref": "8365100028"}, "type": "Feature"}
{"geometry": {"coordinates": [-116.561609, 43.578983], "type": "Point"}, "id": "5Tp49eCt1YLYqBgvWtAFlV9i-ow=", "properties": {"@spider": "usps_collection_boxes", "addr:city": "NAMPA", "addr:country": "US", "addr:full": "123 11TH AVE S", "addr:postcode": "83651", "addr:state": "ID", "brand": "USPS", "collection_times": "Mo-Fr 18:00; Sa 17:45", "name": "USPS COLLECTION BOX - APC", "note": "ON 12/24 AND 12/31, THIS BOX MAY BE COLLECTED AS EARLY AS 12 NOON.", "ref": "8365100029"}, "type": "Feature"}
{"geometry": {"coordinates": [-116.561581091, 43.578993173], "type": "Point"}, "id": "IZKPcCk15OCpwyryQzWfchL1Kw8=", "properties": {"@spider": "usps_collection_boxes", "addr:city": "NAMPA", "addr:country": "US", "addr:full": "123 11TH AVE S", "addr:postcode": "83651", "addr:state": "ID", "brand": "USPS", "collection_times": "Mo-Fr 18:00; Sa 13:00", "name": "USPS COLLECTION BOX - PO LOBBY", "note": "ON 12/24 AND 12/31, THIS BOX MAY BE COLLECTED AS EARLY AS 12 NOON.", "ref": "8365100032"}, "type": "Feature"}
{"geometry": {"coordinates": [-116.28558, 44.971051], "type": "Point"}, "id": "iHHpqWy_Sg0foGu0d4O1HgayZcE=", "properties": {"@spider": "usps_collection_boxes", "addr:city": "NEW MEADOWS", "addr:country": "US", "addr:full": "221 VIRGINIA ST", "addr:postcode": "83654", "addr:state": "ID", "brand": "USPS", "collection_times": "Mo-Fr 14:45; Sa 12:00", "name": "USPS COLLECTION BOX - PO LOBBY", "note": "ON 12/24 AND 12/31, THIS BOX MAY BE COLLECTED AS EARLY AS 12 NOON.", "ref": "8365400001"}, "type": "Feature"}
{"geometry": {"coordinates": [-116.285608683, 44.970988482], "type": "Point"}, "id": "WoDRQQMFKPJgRTTobMhOV3Ar9qE=", "properties": {"@spider": "usps_collection_boxes", "addr:city": "NEW MEADOWS", "addr:country": "US", "addr:full": "221 VIRGINIA ST", "addr:postcode": "83654", "addr:state": "ID", "brand": "USPS", "collection_times": "Mo-Fr 14:45; Sa 12:00", "name": "USPS COLLECTION BOX - PO LOBBY", "note": "ON 12/24 AND 12/31, THIS BOX MAY BE COLLECTED AS EARLY AS 12 NOON.", "ref": "8365400002"}, "type": "Feature"}
{"geometry": {"coordinates": [-116.799953, 43.725871], "type": "Point"}, "id": "2yD8JTm4qir7Q_znwgOBBLNHHm4=", "properties": {"@spider": "usps_collection_boxes", "addr:city": "NOTUS", "addr:country": "US", "addr:full": "385 FARGO AVE", "addr:postcode": "83656", "addr:state": "ID", "brand": "USPS", "collection_times": "Mo-Fr 17:00; Sa 09:45", "name": "USPS COLLECTION BOX - BLUE BOX", "note": "ON 12/24 AND 12/31, THIS BOX MAY BE COLLECTED AS EARLY AS 12 NOON.", "ref": "8365600000"}, "type": "Feature"}
{"geometry": {"coordinates": [-116.800019, 43.725922], "type": "Point"}, "id": "9TaX71itliYcWMfXOgV8BUH09KY=", "properties": {"@spider": "usps_collection_boxes", "addr:city": "NOTUS", "addr:country": "US", "addr:full": "385 FARGO AVE", "addr:postcode": "83656", "addr:state": "ID", "brand": "USPS", "collection_times": "Mo-Fr 14:45; Sa 09:45", "name": "USPS COLLECTION BOX - PO LOBBY", "note": "ON 12/24 AND 12/31, THIS BOX MAY BE COLLECTED AS EARLY AS 12 NOON.", "ref": "8365600001"}, "type": "Feature"}
{"geometry": {"coordinates": [-116.799992191, 43.725819691], "type": "Point"}, "id": "G5RhDvGZHLlcnNGd3S6EpWNj6Dg=", "properties": {"@spider": "usps_collection_boxes", "addr:city": "NOTUS", "addr:country": "US", "addr:full": "385 FARGO AVE", "addr:postcode": "83656", "addr:state": "ID", "brand": "USPS", "collection_times": "Mo-Fr 14:45; Sa 09:45", "name": "USPS COLLECTION BOX - PO LOBBY", "note": "ON 12/24 AND 12/31, THIS BOX MAY BE COLLECTED AS EARLY AS 12 NOON.", "ref": "8365600002"}, "type": "Feature"}
{"geometry": {"coordinates": [-116.943432, 43.786071], "type": "Point"}, "id": "n-jW38O27XvY_eEzsiCI05XmL9k=", "properties": {"@spider": "usps_collection_boxes", "addr:city": "PARMA", "addr:country": "US", "addr:full": "207 N 3RD ST", "addr:postcode": "83660", "addr:state": "ID", "brand": "USPS", "collection_times": "Mo-Fr 16:30; Sa 12:00", "name": "USPS COLLECTION BOX - BLUE BOX", "note": "ON 12/24 AND 12/31, THIS BOX MAY BE COLLECTED AS EARLY AS 12 NOON.", "ref": "8366000000"}, "type": "Feature"}
{"geometry": {"coordinates": [-116.943432, 43.786071], "type": "Point"}, "id": "pudJ972WEYiOwY6clhsg2bW2GYg=", "properties": {"@spider": "usps_collection_boxes", "addr:city": "PARMA", "addr:country": "US", "addr:full": "207 N 3RD ST", "addr:postcode": "83660", "addr:state": "ID", "brand": "USPS", "collection_times": "Mo-Fr 16:45; Sa 12:00", "name": "USPS COLLECTION BOX - PO LOBBY", "note": "ON 12/24 AND 12/31, THIS BOX MAY BE COLLECTED AS EARLY AS 12 NOON.", "ref": "8366000001"}, "type": "Feature"}
{"geometry": {"coordinates": [-116.943432735, 43.786068537], "type": "Point"}, "id": "tRXnreJ4uq5ItgMhS4RHxEsJ090=", "properties": {"@spider": "usps_collection_boxes", "addr:city": "PARMA", "addr:country": "US", "addr:full": "207 N 3RD ST", "addr:postcode": "83660", "addr:state": "ID", "brand": "USPS", "collection_times": "Mo-Fr 16:45", "name": "USPS COLLECTION BOX - PO LOBBY", "note": "ON 12/24 AND 12/31, THIS BOX MAY BE COLLECTED AS EARLY AS 12 NOON.", "ref": "8366000004"}, "type": "Feature"}
{"geometry": {"coordinates": [-116.912141, 43.675795], "type": "Point"}, "id": "N9q9-goQqHY2OvjRev6ksd5F0dU=", "properties": {"@spider": "usps_collection_boxes", "addr:city": "WILDER", "addr:country": "US", "addr:full": "109 5TH ST STE B", "addr:postcode": "83676", "addr:state": "ID", "brand": "USPS", "collection_times": "Mo-Fr 16:30; Sa 12:00", "name": "USPS COLLECTION BOX - BLUE BOX", "note": "ON 12/24 AND 12/31, THIS BOX MAY BE COLLECTED AS EARLY AS 12 NOON.", "ref": "8367600000"}, "type": "Feature"}
{"geometry": {"coordinates": [-116.91237, 43.67562], "type": "Point"}, "id": "rDpt0O8C3d_uLj7nDBFope-1LBs=", "properties": {"@spider": "usps_collection_boxes", "addr:city": "WILDER", "addr:country": "US", "addr:full": "109 5TH ST STE B", "addr:postcode": "83676", "addr:state": "ID", "brand": "USPS", "collection_times": "Mo-Fr 16:45; Sa 12:00", "name": "USPS COLLECTION BOX - PO LOBBY", "note": "ON 12/24 AND 12/31, THIS BOX MAY BE COLLECTED AS EARLY AS 12 NOON.", "ref": "8367600001"}, "type": "Feature"}
{"geometry": {"coordinates": [-116.912039493, 43.676223448], "type": "Point"}, "id": "3caArrfq5pd5u4yOyh_kI9XGZUM=", "properties": {"@spider": "usps_collection_boxes", "addr:city": "WILDER", "addr:country": "US", "addr:full": "109 5TH ST STE B", "addr:postcode": "83676", "addr:state": "ID", "brand": "USPS", "collection_times": "Mo-Fr 16:45", "name": "USPS COLLECTION BOX - PO LOBBY", "note": "ON 12/24 AND 12/31, THIS BOX MAY BE COLLECTED AS EARLY AS 12 NOON.", "ref": "8367600002"}, "type": "Feature"}
{"geometry": {"coordinates": [-116.573798, 43.565001], "type": "Point"}, "id": "eTtQhv6RAgzvKm988kjzQZ9zbtw=", "properties": {"@spider": "usps_collection_boxes", "addr:city": "NAMPA", "addr:country": "US", "addr:full": "407 12TH AVE RD", "addr:postcode": "83686", "addr:state": "ID", "brand": "USPS", "collection_times": "Mo-Fr 17:30; Sa 16:45", "name": "USPS COLLECTION BOX - BLUE BOX", "note": "ON 12/24 AND 12/31, THIS BOX MAY BE COLLECTED AS EARLY AS 12 NOON.", "ref": "8368600003"}, "type": "Feature"}
{"geometry": {"coordinates": [-116.563635, 43.568532], "type": "Point"}, "id": "_i6pWXer6YUlZ35BUXTV45eIWhQ=", "properties": {"@spider": "usps_collection_boxes", "addr:city": "NAMPA", "addr:country": "US", "addr:full": "120 HOLLY ST", "addr:postcode": "83686", "addr:state": "ID", "brand": "USPS", "collection_times": "Mo-Sa 17:15", "name": "USPS COLLECTION BOX - BLUE BOX", "note": "ON 12/24 AND 12/31, THIS BOX MAY BE COLLECTED AS EARLY AS 12 NOON.", "ref": "8368600005"}, "type": "Feature"}
{"geometry": {"coordinates": [-116.571794, 43.545732], "type": "Point"}, "id": "jmxv2IWvwVWAkPnpuxeIVHqTkqg=", "properties": {"@spider": "usps_collection_boxes", "addr:city": "NAMPA", "addr:country": "US", "addr:full": "2400 12TH AVE RD", "addr:postcode": "83686", "addr:state": "ID", "brand": "USPS", "collection_times": "Mo-Fr 17:00; Sa 15:45", "name": "USPS COLLECTION BOX - BLUE BOX", "note": "ON 12/24 AND 12/31, THIS BOX MAY BE COLLECTED AS EARLY AS 12 NOON.", "ref": "8368600008"}, "type": "Feature"}
{"geometry": {"coordinates": [-116.5728087309, 43.5535925726], "type": "Point"}, "id": "HSrDw0noH6gyHOLqqK9di7qWBXQ=", "properties": {"@spider": "usps_collection_boxes", "addr:city": "NAMPA", "addr:country": "US", "addr:full": "1510 12TH AVE RD", "addr:postcode": "83686", "addr:state": "ID", "brand": "USPS", "collection_times": "Mo-Fr 17:00; Sa 15:45", "name": "USPS COLLECTION BOX - BLUE BOX", "note": "ON 12/24 AND 12/31, THIS BOX MAY BE COLLECTED AS EARLY AS 12 NOON.", "ref": "8368600009"}, "type": "Feature"}
{"geometry": {"coordinates": [-116.553624, 43.600867], "type": "Point"}, "id": "FwNiuIW8HdcJoWEmBaLXoRwlxm8=", "properties": {"@spider": "usps_collection_boxes", "addr:city": "NAMPA", "addr:country": "US", "addr:full": "1401 SHILO", "addr:postcode": "83687", "addr:state": "ID", "brand": "USPS", "collection_times": "Mo-Sa 16:30", "name": "USPS COLLECTION BOX - BLUE BOX", "note": "ON 12/24 AND 12/31, THIS BOX MAY BE COLLECTED AS EARLY AS 12 NOON.", "ref": "8368700002"}, "type": "Feature"}
{"geometry": {"coordinates": [-116.517522, 43.59408], "type": "Point"}, "id": "fkARX_0zVq9pzsWC6OTQCrpCfCc=", "properties": {"@spider": "usps_collection_boxes", "addr:city": "NAMPA", "addr:country": "US", "addr:full": "4315 GARRITY BLVD", "addr:postcode": "83687", "addr:state": "ID", "brand": "USPS", "collection_times": "Mo-Sa 14:30", "name": "USPS COLLECTION BOX - BLUE BOX", "note": "ON 12/24 AND 12/31, THIS BOX MAY BE COLLECTED AS EARLY AS 12 NOON.", "ref": "8368700003"}, "type": "Feature"}
