{"dataset_attributes": {"@spider": "usps_collection_boxes"}, "geometry": {"coordinates": [-116.1995445, 43.62012], "type": "Point"}, "id": "35pq-xcTQD6d2YSIVaaSsHPfEjY=", "properties": {"@spider": "usps_collection_boxes", "addr:city": "BOISE", "addr:country": "US", "addr:full": "805 W FRANKLIN ST", "addr:postcode": "83702", "addr:state": "ID", "amenity": "post_box", "brand": "United States Postal Service", "brand:wikidata": "Q668687", "collection_times": "Mo-Fr 15:30", "name": "USPS COLLECTION BOX - BLUE BOX", "note": "ON 12/24 AND 12/31, THIS BOX MAY BE COLLECTED AS EARLY AS 12 NOON.", "nsi_id": "unitedstatespostalservice-a77078", "operator": "United States Postal Service", "operator:short": "USPS", "operator:type": "public", "operator:wikidata": "Q668687", "ref": "8370200005"}, "type": "Feature"}
{"dataset_attributes": {"@spider": "usps_collection_boxes"}, "geometry": {"coordinates": [-116.204930385, 43.6196964466], "type": "Point"}, "id": "St7pyxEhzz7sgnM8eYsGRPaLcsc=", "properties": {"@spider": "usps_collection_boxes", "addr:city": "BOISE", "addr:country": "US", "addr:full": "1101 W JEFFERSON ST", "addr:postcode": "83702", "addr:state": "ID", "amenity": "post_box", "brand": "United States Postal Service", "brand:wikidata": "Q668687", "collection_times": "Mo-Fr 15:45; Sa 13:00", "name": "USPS COLLECTION BOX - BLUE BOX", "note": "ON 12/24 AND 12/31, THIS BOX MAY BE COLLECTED AS EARLY AS 12 NOON.", "nsi_id": "unitedstatespostalservice-a77078", "operator": "United States Postal Service", "operator:short": "USPS", "operator:type": "public", "operator:wikidata": "Q668687", "ref": "8370200008"}, "type": "Feature"}
{"dataset_attributes": {"@spider": "usps_collection_boxes"}, "geometry": {"coordinates": [-116.214981, 43.612741], "type": "Point"}, "id": "G1U-QglNXvRksosEYqnWSaEjoZo=", "properties": {"@spider": "usps_collection_boxes", "addr:city": "BOISE", "addr:country": "US", "addr:full": "1161 W RIVER ST", "addr:postcode": "83702", "addr:state": "ID", "amenity": "post_box", "brand": "United States Postal Service", "brand:wikidata": "Q668687", "collection_times": "Mo-Fr 16:15; Sa 13:00", "name": "USPS COLLECTION BOX - BLUE BOX", "note": "ON 12/24 AND 12/31, THIS BOX MAY BE COLLECTED AS EARLY AS 12 NOON.", "nsi_id": "unitedstatespostalservice-a77078", "operator": "United States Postal Service", "operator:short": "USPS", "operator:type": "public", "operator:wikidata": "Q668687", "ref": "8370200011"}, "type": "Feature"}
{"dataset_attributes": {"@spider": "usps_collection_boxes"}, "geometry": {"coordinates": [-116.208893, 43.620731], "type": "Point"}, "id": "wzxgs5MQiyKYytUZTjMp8wwnvb4=", "properties": {"@spider": "usps_collection_boxes", "addr:city": "BOISE", "addr:country": "US", "addr:full": "1398 W BANNOCK ST", "addr:postcode": "83702", "addr:state": "ID", "amenity": "post_box", "brand": "United States Postal Service", "brand:wikidata": "Q668687", "collection_times": "Mo-Fr 15:45", "name": "USPS COLLECTION BOX - BLUE BOX", "note": "ON 12/24 AND 12/31, THIS BOX MAY BE COLLECTED AS EARLY AS 12 NOON.", "nsi_id": "unitedstatespostalservice-a77078", "operator": "United States Postal Service", "operator:short": "USPS", "operator:type": "public", "operator:wikidata": "Q668687", "ref": "8370200015"}, "type": "Feature"}
{"dataset_attributes": {"@spider": "usps_collection_boxes"}, "geometry": {"coordinates": [-116.219869, 43.615166], "type": "Point"}, "id": "mE069p8KWqeKgt6vpQ456_xrLgQ=", "properties": {"@spider": "usps_collection_boxes", "addr:city": "BOISE", "addr:country": "US", "addr:full": "1471 W SHORELINE DR", "addr:postcode": "83702", "addr:state": "ID", "amenity": "post_box", "brand": "United States Postal Service", "brand:wikidata": "Q668687", "collection_times": "Mo-Fr 09:00", "name": "USPS COLLECTION BOX - BLUE BOX", "nsi_id": "unitedstatespostalservice-a77078", "operator": "United States Postal Service", "operator:short": "USPS", "operator:type": "public", "operator:wikidata": "Q668687", "ref": "8370200016"}, "type": "Feature"}
{"dataset_attributes": {"@spider": "usps_collection_boxes"}, "geometry": {"coordinates": [-116.2065375, 43.624755], "type": "Point"}, "id": "r6S1t7mE0dzO19-oWGpGd_uKVA0=", "properties": {"@spider": "usps_collection_boxes", "addr:city": "BOISE", "addr:country": "US", "addr:full": "1499 W HAYS ST", "addr:postcode": "83702", "addr:state": "ID", "amenity": "post_box", "brand": "United States Postal Service", "brand:wikidata": "Q668687", "collection_times": "Mo-Fr 15:30; Sa 15:15", "name": "USPS COLLECTION BOX - BLUE BOX", "note": "ON 12/24 AND 12/31, THIS BOX MAY BE COLLECTED AS EARLY AS 12 NOON.", "nsi_id": "unitedstatespostalservice-a77078", "operator": "United States Postal Service", "operator:short": "USPS", "operator:type": "public", "operator:wikidata": "Q668687", "ref": "8370200017"}, "type": "Feature"}
{"dataset_attributes": {"@spider": "usps_collection_boxes"}, "geometry": {"coordinates": [-116.199153486, 43.6127561632], "type": "Point"}, "id": "XOQd-9lIpDRg8y9Zn912VkaeSBs=", "properties": {"@spider": "usps_collection_boxes", "addr:city": "BOISE", "addr:country": "US", "addr:full": "150 S 4TH ST", "addr:postcode": "83702", "addr:state": "ID", "amenity": "post_box", "brand": "United States Postal Service", "brand:wikidata": "Q668687", "collection_times": "Mo-Fr 16:15", "name": "USPS COLLECTION BOX - BLUE BOX", "note": "ON 12/24 AND 12/31, THIS BOX MAY BE COLLECTED AS EARLY AS 12 NOON.", "nsi_id": "unitedstatespostalservice-a77078", "operator": "United States Postal Service", "operator:short": "USPS", "operator:type": "public", "operator:wikidata": "Q668687", "ref": "8370200018"}, "type": "Feature"}
{"dataset_attributes": {"@spider": "usps_collection_boxes"}, "geometry": {"coordinates": [-116.220375, 43.615746], "type": "Point"}, "id": "_rXRYIbORcykLxe353r3LBne9Aw=", "properties": {"@spider": "usps_collection_boxes", "addr:city": "BOISE", "addr:country": "US", "addr:full": "1555 W SHORELINE DR", "addr:postcode": "83702", "addr:state": "ID", "amenity": "post_box", "brand": "United States Postal Service", "brand:wikidata": "Q668687", "collection_times": "Mo-Fr 16:15; Sa 13:00", "name": "USPS COLLECTION BOX - BLUE BOX", "note": "ON 12/24 AND 12/31, THIS BOX MAY BE COLLECTED AS EARLY AS 12 NOON.", "nsi_id": "unitedstatespostalservice-a77078", "operator": "United States Postal Service", "operator:short": "USPS", "operator:type": "public", "operator:wikidata": "Q668687", "ref": "8370200019"}, "type": "Feature"}
{"dataset_attributes": {"@spider": "usps_collection_boxes"}, "geometry": {"coordinates": [-116.208277624, 43.641456422], "type": "Point"}, "id": "OJYi84JJmfl8h15UYK_A-dKjGso=", "properties": {"@spider": "usps_collection_boxes", "addr:city": "BOISE", "addr:country": "US", "addr:full": "2405 N BOGUS BASIN RD", "addr:postcode": "83702", "addr:state": "ID", "amenity": "post_box", "brand": "United States Postal Service", "brand:wikidata": "Q668687", "collection_times": "Mo-Fr 15:45", "name": "USPS COLLECTION BOX - BLUE BOX", "note": "ON 12/24 AND 12/31, THIS BOX MAY BE COLLECTED AS EARLY AS 12 NOON.", "nsi_id": "unitedstatespostalservice-a77078", "operator": "United States Postal Service", "operator:short": "USPS", "operator:type": "public", "operator:wikidata": "Q668687", "ref": "8370200029"}, "type": "Feature"}
{"dataset_attributes": {"@spider": "usps_collection_boxes"}, "geometry": {"coordinates": [-116.198189024, 43.6154290166], "type": "Point"}, "id": "LFovyubN1BLQ4_3EIZwc8GpSVNc=", "properties": {"@spider": "usps_collection_boxes", "addr:city": "BOISE", "addr:country": "US", "addr:full": "304 N 5TH ST", "addr:postcode": "83702", "addr:state": "ID", "amenity": "post_box", "brand": "United States Postal Service", "brand:wikidata": "Q668687", "collection_times": "Mo-Fr 16:45; Sa 13:00", "name": "USPS COLLECTION BOX - BLUE BOX", "note": "ON 12/24 AND 12/31, THIS BOX MAY BE COLLECTED AS EARLY AS 12 NOON.", "nsi_id": "unitedstatespostalservice-a77078", "operator": "United States Postal Service", "operator:short": "USPS", "operator:type": "public", "operator:wikidata": "Q668687", "ref": "8370200031"}, "type": "Feature"}
{"dataset_attributes": {"@spider": "usps_collection_boxes"}, "geometry": {"coordinates": [-116.205743464, 43.613305886], "type": "Point"}, "id": "_n55_tXjxSZK78a4iXh1h2uho2g=", "properties": {"@spider": "usps_collection_boxes", "addr:city": "BOISE", "addr:country": "US", "addr:full": "401 S 8TH ST", "addr:postcode": "83702", "addr:state": "ID", "amenity": "post_box", "brand": "United States Postal Service", "brand:wikidata": "Q668687", "collection_times": "Mo-Fr 16:45; Sa 13:00", "name": "USPS COLLECTION BOX - BLUE BOX", "note": "ON 12/24 AND 12/31, THIS BOX MAY BE COLLECTED AS EARLY AS 12 NOON.", "nsi_id": "unitedstatespostalservice-a77078", "operator": "United States Postal Service", "operator:short": "USPS", "operator:type": "public", "operator:wikidata": "Q668687", "ref": "8370200034"}, "type": "Feature"}
{"dataset_attributes": {"@spider": "usps_collection_boxes"}, "geometry": {"coordinates": [-116.210480909, 43.6227932679], "type": "Point"}, "id": "6-Zqyfh4B2_iwsvlLFGHhpS2Rzo=", "properties": {"@spider": "usps_collection_boxes", "addr:city": "BOISE", "addr:country": "US", "addr:full": "420 N 16TH ST", "addr:postcode": "83702", "addr:state": "ID", "amenity": "post_box", "brand": "United States Postal Service", "brand:wikidata": "Q668687", "collection_times": "Mo-Fr 16:00; Sa 13:00", "name": "USPS COLLECTION BOX - BLUE BOX", "note": "ON 12/24 AND 12/31, THIS BOX MAY BE COLLECTED AS EARLY AS 12 NOON.", "nsi_id": "unitedstatespostalservice-a77078", "operator": "United States Postal Service", "operator:short": "USPS", "operator:type": "public", "operator:wikidata": "Q668687", "ref": "8370200036"}, "type": "Feature"}
{"dataset_attributes": {"@spider": "usps_collection_boxes"}, "geometry": {"coordinates": [-116.1951506975, 43.6199426653], "type": "Point"}, "id": "5BLkyuxOAIAZwUm58XpgFn2Lvrk=", "properties": {"@spider": "usps_collection_boxes", "addr:city": "BOISE", "addr:country": "US", "addr:full": "550 W FORT ST", "addr:postcode": "83702", "addr:state": "ID", "amenity": "post_box", "brand": "United States Postal Service", "brand:wikidata": "Q668687", "collection_times": "Mo-Fr 09:30", "name": "USPS COLLECTION BOX - BLUE BOX", "nsi_id": "unitedstatespostalservice-a77078", "operator": "United States Postal Service", "operator:short": "USPS", "operator:type": "public", "operator:wikidata": "Q668687", "ref": "8370200037"}, "type": "Feature"}
{"dataset_attributes": {"@spider": "usps_collection_boxes"}, "geometry": {"coordinates": [-116.1966015, 43.618671], "type": "Point"}, "id": "822zYCNoQimCmZhYw4z5Sp8qH4Q=", "properties": {"@spider": "usps_collection_boxes", "addr:city": "BOISE", "addr:country": "US", "addr:full": "620 N 6TH ST", "addr:postcode": "83702", "addr:state": "ID", "amenity": "post_box", "brand": "United States Postal Service", "brand:wikidata": "Q668687", "collection_times": "Mo-Fr 17:00; Sa 13:00", "name": "USPS COLLECTION BOX - BLUE BOX", "note": "ON 12/24 AND 12/31, THIS BOX MAY BE COLLECTED AS EARLY AS 12 NOON.", "nsi_id": "unitedstatespostalservice-a77078", "operator": "United States Postal Service", "operator:short": "USPS", "operator:type": "public", "operator:wikidata": "Q668687", "ref": "8370200039"}, "type": "Feature"}
{"dataset_attributes": {"@spider": "usps_collection_boxes"}, "geometry": {"coordinates": [-116.1964381543, 43.6210583961], "type": "Point"}, "id": "HlL3CBoxySrbKrRKSvosBtGJbiM=", "properties": {"@spider": "usps_collection_boxes", "addr:city": "BOISE", "addr:country": "US", "addr:full": "701 W FORT ST", "addr:postcode": "83702", "addr:state": "ID", "amenity": "post_box", "brand": "United States Postal Service", "brand:wikidata": "Q668687", "collection_times": "Mo-Fr 10:00", "name": "USPS COLLECTION BOX - BLUE BOX", "nsi_id": "unitedstatespostalservice-a77078", "operator": "United States Postal Service", "operator:short": "USPS", "operator:type": "public", "operator:wikidata": "Q668687", "ref": "8370200043"}, "type": "Feature"}
{"dataset_attributes": {"@spider": "usps_collection_boxes"}, "geometry": {"coordinates": [-116.2016100139, 43.6162429832], "type": "Point"}, "id": "pVdajLRvFBys95rj2MCFfKsKOW8=", "properties": {"@spider": "usps_collection_boxes", "addr:city": "BOISE", "addr:country": "US", "addr:full": "702 W IDAHO ST", "addr:postcode": "83702", "addr:state": "ID", "amenity": "post_box", "brand": "United States Postal Service", "brand:wikidata": "Q668687", "collection_times": "Mo-Fr 17:00; Sa 13:00", "name": "USPS COLLECTION BOX - BLUE BOX", "note": "ON 12/24 AND 12/31, THIS BOX MAY BE COLLECTED AS EARLY AS 12 NOON.", "nsi_id": "unitedstatespostalservice-a77078", "operator": "United States Postal Service", "operator:short": "USPS", "operator:type": "public", "operator:wikidata": "Q668687", "ref": "8370200045"}, "type": "Feature"}
{"dataset_attributes": {"@spider": "usps_collection_boxes"}, "geometry": {"coordinates": [-116.198217, 43.622766], "type": "Point"}, "id": "9JXVGy3JN8Asm69RkxSOyyG-zuA=", "properties": {"@spider": "usps_collection_boxes", "addr:city": "BOISE", "addr:country": "US", "addr:full": "888 W FORT ST", "addr:postcode": "83702", "addr:state": "ID", "amenity": "post_box", "brand": "United States Postal Service", "brand:wikidata": "Q668687", "collection_times": "Mo-Fr 11:30; Sa 15:00", "name": "USPS COLLECTION BOX - BLUE BOX", "note": "ON 12/24 AND 12/31, THIS BOX MAY BE COLLECTED AS EARLY AS 12 NOON.", "nsi_id": "unitedstatespostalservice-a77078", "operator": "United States Postal Service", "operator:short": "USPS", "operator:type": "public", "operator:wikidata": "Q668687", "ref": "8370200050"}, "type": "Feature"}
{"dataset_attributes": {"@spider": "usps_collection_boxes"}, "geometry": {"coordinates": [-116.2118229889, 43.6110819132], "type": "Point"}, "id": "56sFG7TfMp6Jw7gf9jUJ2MNC8RA=", "properties": {"@spider": "usps_collection_boxes", "addr:city": "BOISE", "addr:country": "US", "addr:full": "1087 W RIVER ST", "addr:postcode": "83702", "addr:state": "ID", "amenity": "post_box", "brand": "United States Postal Service", "brand:wikidata": "Q668687", "collection_times": "Mo-Fr 16:15; Sa 13:00", "name": "USPS COLLECTION BOX - BLUE BOX", "note": "ON 12/24 AND 12/31, THIS BOX MAY BE COLLECTED AS EARLY AS 12 NOON.", "nsi_id": "unitedstatespostalservice-a77078", "operator": "United States Postal Service", "operator:short": "USPS", "operator:type": "public", "operator:wikidata": "Q668687", "ref": "8370200060"}, "type": "Feature"}
{"dataset_attributes": {"@spider": "usps_collection_boxes"}, "geometry": {"coordinates": [-116.2028476094, 43.6163366786], "type": "Point"}, "id": "9EeR1vJOTy2lDl1qxKkkZFAd16k=", "properties": {"@spider": "usps_collection_boxes", "addr:city": "BOISE", "addr:country": "US", "addr:full": "801 W IDAHO ST", "addr:postcode": "83702", "addr:state": "ID", "amenity": "post_box", "brand": "United States Postal Service", "brand:wikidata": "Q668687", "collection_times": "Mo-Fr 17:00; Sa 15:00", "name": "USPS COLLECTION BOX - BLUE BOX", "note": "ON 12/24 AND 12/31, THIS BOX MAY BE COLLECTED AS EARLY AS 12 NOON.", "nsi_id": "unitedstatespostalservice-a77078", "operator": "United States Postal Service", "operator:short": "USPS", "operator:type": "public", "operator:wikidata": "Q668687", "ref": "8370200063"}, "type": "Feature"}
{"dataset_attributes": {"@spider": "usps_collection_boxes"}, "geometry": {"coordinates": [-116.2058960163, 43.616470007], "type": "Point"}, "id": "FiFbm0-BFVwEDr6radh-cByiNXU=", "properties": {"@spider": "usps_collection_boxes", "addr:city": "BOISE", "addr:country": "US", "addr:full": "999 W MAIN ST", "addr:postcode": "83702", "addr:state": "ID", "amenity": "post_box", "brand": "United States Postal Service", "brand:wikidata": "Q668687", "collection_times": "Mo-Fr 16:30; Sa 13:00", "name": "USPS COLLECTION BOX - BLUE BOX", "note": "ON 12/24 AND 12/31, THIS BOX MAY BE COLLECTED AS EARLY AS 12 NOON.", "nsi_id": "unitedstatespostalservice-a77078", "operator": "United States Postal Service", "operator:short": "USPS", "operator:type": "public", "operator:wikidata": "Q668687", "ref": "8370200066"}, "type": "Feature"}
{"dataset_attributes": {"@spider": "usps_collection_boxes"}, "geometry": {"coordinates": [-116.203344399, 43.629886289], "type": "Point"}, "id": "g_TWsy4SvGDQPZHDmxpccXUwfJ4=", "properties": {"@spider": "usps_collection_boxes", "addr:city": "BOISE", "addr:country": "US", "addr:full": "1507 N 13TH ST", "addr:postcode": "83702", "addr:state": "ID", "amenity": "post_box", "brand": "United States Postal Service", "brand:wikidata": "Q668687", "collection_times": "Mo-Sa 12:00", "name": "USPS COLLECTION BOX - BLUE BOX", "nsi_id": "unitedstatespostalservice-a77078", "operator": "United States Postal Service", "operator:short": "USPS", "operator:type": "public", "operator:wikidata": "Q668687", "ref": "8370200071"}, "type": "Feature"}
{"dataset_attributes": {"@spider": "usps_collection_boxes"}, "geometry": {"coordinates": [-116.2120393561, 43.6245703457], "type": "Point"}, "id": "c0Slb7lBehmvxh0juSc5wMtuO5Y=", "properties": {"@spider": "usps_collection_boxes", "addr:city": "BOISE", "addr:country": "US", "addr:full": "1764 W STATE ST", "addr:postcode": "83702", "addr:state": "ID", "amenity": "post_box", "brand": "United States Postal Service", "brand:wikidata": "Q668687", "collection_times": "Mo-Fr 16:00; Sa 15:15", "name": "USPS COLLECTION BOX - BLUE BOX", "note": "ON 12/24 AND 12/31, THIS BOX MAY BE COLLECTED AS EARLY AS 12 NOON.", "nsi_id": "unitedstatespostalservice-a77078", "operator": "United States Postal Service", "operator:short": "USPS", "operator:type": "public", "operator:wikidata": "Q668687", "ref": "8370200074"}, "type": "Feature"}
{"dataset_attributes": {"@spider": "usps_collection_boxes"}, "geometry": {"coordinates": [-116.2028729991, 43.6183480144], "type": "Point"}, "id": "xLhuTBhrQBPt8fAJS1GkA-fdHvE=", "properties": {"@spider": "usps_collection_boxes", "addr:city": "BOISE", "addr:country": "US", "addr:full": "317 N 9TH ST", "addr:postcode": "83702", "addr:state": "ID", "amenity": "post_box", "brand": "United States Postal Service", "brand:wikidata": "Q668687", "collection_times": "Mo-Fr 17:00; Sa 13:00", "name": "USPS COLLECTION BOX - BLUE BOX", "note": "ON 12/24 AND 12/31, THIS BOX MAY BE COLLECTED AS EARLY AS 12 NOON.", "nsi_id": "unitedstatespostalservice-a77078", "operator": "United States Postal Service", "operator:short": "USPS", "operator:type": "public", "operator:wikidata": "Q668687", "ref": "8370200076"}, "type": "Feature"}
{"dataset_attributes": {"@spider": "usps_collection_boxes"}, "geometry": {"coordinates": [-116.212888049, 43.611442625], "type": "Point"}, "id": "uSHSENgDFRFWlvCwpdYU3Wmimbs=", "properties": {"@spider": "usps_collection_boxes", "addr:city": "BOISE", "addr:country": "US", "addr:full": "1101 W RIVER ST", "addr:postcode": "83702", "addr:state": "ID", "amenity": "post_box", "brand": "United States Postal Service", "brand:wikidata": "Q668687", "collection_times": "Mo-Fr 16:15", "name": "USPS COLLECTION BOX - BLUE BOX", "note": "ON 12/24 AND 12/31, THIS BOX MAY BE COLLECTED AS EARLY AS 12 NOON.", "nsi_id": "unitedstatespostalservice-a77078", "operator": "United States Postal Service", "operator:short": "USPS", "operator:type": "public", "operator:wikidata": "Q668687", "ref": "8370200083"}, "type": "Feature"}
{"dataset_attributes": {"@spider": "usps_collection_boxes"}, "geometry": {"coordinates": [-116.2014159729, 43.6170859931], "type": "Point"}, "id": "6YfmarlAsZ57-2K3bTLohzDiD7U=", "properties": {"@spider": "usps_collection_boxes", "addr:city": "BOISE", "addr:country": "US", "addr:full": "750 W BANNOCK ST", "addr:postcode": "83702", "addr:state": "ID", "amenity": "post_box", "brand": "United States Postal Service", "brand:wikidata": "Q668687", "collection_times": "Mo-Fr 17:15", "name": "USPS COLLECTION BOX - PO LOBBY", "note": "ON 12/24 AND 12/31, THIS BOX MAY BE COLLECTED AS EARLY AS 12 NOON.", "nsi_id": "unitedstatespostalservice-a77078", "operator": "United States Postal Service", "operator:short": "USPS", "operator:type": "public", "operator:wikidata": "Q668687", "ref": "8370200105"}, "type": "Feature"}
{"dataset_attributes": {"@spider": "usps_collection_boxes"}, "geometry": {"coordinates": [-116.2166475958, 43.6143675958], "type": "Point"}, "id": "9WkUQpaH23JChgzg-6cTkLOyqYg=", "properties": {"@spider": "usps_collection_boxes", "addr:city": "BOISE", "addr:country": "US", "addr:full": "770 S 13TH ST", "addr:postcode": "83702", "addr:state": "ID", "amenity": "post_box", "brand": "United States Postal Service", "brand:wikidata": "Q668687", "collection_times": "Mo-Fr 17:15; Sa 15:30", "name": "USPS COLLECTION BOX - BLUE BOX", "note": "ON 12/24 AND 12/31, THIS BOX MAY BE COLLECTED AS EARLY AS 12 NOON.", "nsi_id": "unitedstatespostalservice-a77078", "operator": "United States Postal Service", "operator:short": "USPS", "operator:type": "public", "operator:wikidata": "Q668687", "ref": "8370200111"}, "type": "Feature"}
{"dataset_attributes": {"@spider": "usps_collection_boxes"}, "geometry": {"coordinates": [-116.2008910143, 43.6122109944], "type": "Point"}, "id": "JRguHfzl07lu3ate0AqlmD0G3Wg=", "properties": {"@spider": "usps_collection_boxes", "addr:city": "BOISE", "addr:country": "US", "addr:full": "250 S 5TH ST", "addr:postcode": "83702", "addr:state": "ID", "amenity": "post_box", "brand": "United States Postal Service", "brand:wikidata": "Q668687", "collection_times": "Mo-Fr 14:45; Sa 13:00", "name": "USPS COLLECTION BOX - BLUE BOX", "note": "ON 12/24 AND 12/31, THIS BOX MAY BE COLLECTED AS EARLY AS 12 NOON.", "nsi_id": "unitedstatespostalservice-a77078", "operator": "United States Postal Service", "operator:short": "USPS", "operator:type": "public", "operator:wikidata": "Q668687", "ref": "8370200128"}, "type": "Feature"}
{"dataset_attributes": {"@spider": "usps_collection_boxes"}, "geometry": {"coordinates": [-116.2166475958, 43.6143675958], "type": "Point"}, "id": "74jD3r-UIcaAyhqKecBzrtiUFWA=", "properties": {"@spider": "usps_collection_boxes", "addr:city": "BOISE", "addr:country": "US", "addr:full": "770 S 13TH ST", "addr:postcode": "83702", "addr:state": "ID", "amenity": "post_box", "brand": "United States Postal Service", "brand:wikidata": "Q668687", "collection_times": "Mo-Fr 17:30; Sa 15:00", "name": "USPS COLLECTION BOX - APC", "note": "ON 12/24 AND 12/31, THIS BOX MAY BE COLLECTED AS EARLY AS 12 NOON.", "nsi_id": "unitedstatespostalservice-a77078", "operator": "United States Postal Service", "operator:short": "USPS", "operator:type": "public", "operator:wikidata": "Q668687", "ref": "8370200133"}, "type": "Feature"}
{"dataset_attributes": {"@spider": "usps_collection_boxes"}, "geometry": {"coordinates": [-116.204068007, 43.6183659935], "type": "Point"}, "id": "rs3Kkz93BM-iXEeXFgKSvbl7cuQ=", "properties": {"@spider": "usps_collection_boxes", "addr:city": "BOISE", "addr:country": "US", "addr:full": "950 W BANNOCK ST", "addr:postcode": "83702", "addr:state": "ID", "amenity": "post_box", "brand": "United States Postal Service", "brand:wikidata": "Q668687", "collection_times": "Mo-Fr 14:30; Sa 13:00", "name": "USPS COLLECTION BOX - BLUE BOX", "note": "ON 12/24 AND 12/31, THIS BOX MAY BE COLLECTED AS EARLY AS 12 NOON.", "nsi_id": "unitedstatespostalservice-a77078", "operator": "United States Postal Service", "operator:short": "USPS", "operator:type": "public", "operator:wikidata": "Q668687", "ref": "8370200134"}, "type": "Feature"}
{"dataset_attributes": {"@spider": "usps_collection_boxes"}, "geometry": {"coordinates": [-116.200872, 43.611363], "type": "Point"}, "id": "VZp2logM-J_391XecsoYlrq0GXQ=", "properties": {"@spider": "usps_collection_boxes", "addr:city": "BOISE", "addr:country": "US", "addr:full": "401 W FRONT ST", "addr:postcode": "83702", "addr:state": "ID", "amenity": "post_box", "brand": "United States Postal Service", "brand:wikidata": "Q668687", "collection_times": "Mo-Fr 11:30", "name": "USPS COLLECTION BOX - BLUE BOX", "nsi_id": "unitedstatespostalservice-a77078", "operator": "United States Postal Service", "operator:short": "USPS", "operator:type": "public", "operator:wikidata": "Q668687", "ref": "8370200135"}, "type": "Feature"}
{"dataset_attributes": {"@spider": "usps_collection_boxes"}, "geometry": {"coordinates": [-116.2014159729, 43.6170859931], "type": "Point"}, "id": "EmX4ZgMLcUfxbU5p4EzE9cb8lB4=", "properties": {"@spider": "usps_collection_boxes", "addr:city": "BOISE", "addr:country": "US", "addr:full": "750 W BANNOCK ST", "addr:postcode": "83702", "addr:state": "ID", "amenity": "post_box", "brand": "United States Postal Service", "brand:wikidata": "Q668687", "collection_times": "Mo-Fr 17:15", "name": "USPS COLLECTION BOX - PO LOBBY", "note": "ON 12/24 AND 12/31, THIS BOX MAY BE COLLECTED AS EARLY AS 12 NOON.", "nsi_id": "unitedstatespostalservice-a77078", "operator": "United States Postal Service", "operator:short": "USPS", "operator:type": "public", "operator:wikidata": "Q668687", "ref": "8370200136"}, "type": "Feature"}
{"dataset_attributes": {"@spider": "usps_collection_boxes"}, "geometry": {"coordinates": [-116.2166475958, 43.6143675958], "type": "Point"}, "id": "-v4ZFonaMV1phBPasPC-yXFzHL8=", "properties": {"@spider": "usps_collection_boxes", "addr:city": "BOISE", "addr:country": "US", "addr:full": "770 S 13TH ST", "addr:postcode": "83702", "addr:state": "ID", "amenity": "post_box", "brand": "United States Postal Service", "brand:wikidata": "Q668687", "collection_times": "Mo-Fr 17:30; Sa 15:00", "name": "USPS COLLECTION BOX - PO LOBBY", "note": "ON 12/24 AND 12/31, THIS BOX MAY BE COLLECTED AS EARLY AS 12 NOON.", "nsi_id": "unitedstatespostalservice-a77078", "operator": "United States Postal Service", "operator:short": "USPS", "operator:type": "public", "operator:wikidata": "Q668687", "ref": "8370200137"}, "type": "Feature"}
{"dataset_attributes": {"@spider": "usps_collection_boxes"}, "geometry": {"coordinates": [-116.2166475958, 43.6143675958], "type": "Point"}, "id": "g8Hod60CIljfgbbBZnax6L0exRg=", "properties": {"@spider": "usps_collection_boxes", "addr:city": "BOISE", "addr:country": "US", "addr:full": "770 S 13TH ST", "addr:postcode": "83702", "addr:state": "ID", "amenity": "post_box", "brand": "United States Postal Service", "brand:wikidata": "Q668687", "collection_times": "Mo-Fr 17:30; Sa 15:00", "name": "USPS COLLECTION BOX - PO LOBBY", "note": "ON 12/24 AND 12/31, THIS BOX MAY BE COLLECTED AS EARLY AS 12 NOON.", "nsi_id": "unitedstatespostalservice-a77078", "operator": "United States Postal Service", "operator:short": "USPS", "operator:type": "public", "operator:wikidata": "Q668687", "ref": "8370200138"}, "type": "Feature"}
{"dataset_attributes": {"@spider": "usps_collection_boxes"}, "geometry": {"coordinates": [-116.2014159729, 43.6170859931], "type": "Point"}, "id": "1JC0A4Xh6hIg4ygU5Bl_TtT7r2A=", "properties": {"@spider": "usps_collection_boxes", "addr:city": "BOISE", "addr:country": "US", "addr:full": "750 W BANNOCK ST", "addr:postcode": "83702", "addr:state": "ID", "amenity": "post_box", "brand": "United States Postal Service", "brand:wikidata": "Q668687", "collection_times": "Mo-Fr 16:30", "name": "USPS COLLECTION BOX - PO LOBBY", "note": "ON 12/24 AND 12/31, THIS BOX MAY BE COLLECTED AS EARLY AS 12 NOON.", "nsi_id": "unitedstatespostalservice-a77078", "operator": "United States Postal Service", "operator:short": "USPS", "operator:type": "public", "operator:wikidata": "Q668687", "ref": "8370200142"}, "type": "Feature"}
{"dataset_attributes": {"@spider": "usps_collection_boxes"}, "geometry": {"coordinates": [-116.2044870184, 43.6158059927], "type": "Point"}, "id": "Z9fg8ZdDNAV4iMACzyWs5TMCPbU=", "properties": {"@spider": "usps_collection_boxes", "addr:city": "BOISE", "addr:country": "US", "addr:full": "877 W MAIN ST", "addr:postcode": "83702", "addr:state": "ID", "amenity": "post_box", "brand": "United States Postal Service", "brand:wikidata": "Q668687", "collection_times": "Mo-Fr 16:45", "name": "USPS COLLECTION BOX - BLUE BOX", "note": "ON 12/24 AND 12/31, THIS BOX MAY BE COLLECTED AS EARLY AS 12 NOON.", "nsi_id": "unitedstatespostalservice-a77078", "operator": "United States Postal Service", "operator:short": "USPS", "operator:type": "public", "operator:wikidata": "Q668687", "ref": "8370200143"}, "type": "Feature"}
{"dataset_attributes": {"@spider": "usps_collection_boxes"}, "geometry": {"coordinates": [-116.2166475958, 43.6143675958], "type": "Point"}, "id": "Nl00fr1NR_14GWfYpviaTgikRyM=", "properties": {"@spider": "usps_collection_boxes", "addr:city": "BOISE", "addr:country": "US", "addr:full": "770 S 13TH ST", "addr:postcode": "83702", "addr:state": "ID", "amenity": "post_box", "brand": "United States Postal Service", "brand:wikidata": "Q668687", "collection_times": "Mo-Fr 17:30; Sa 15:00", "name": "USPS COLLECTION BOX - PO LOBBY", "note": "ON 12/24 AND 12/31, THIS BOX MAY BE COLLECTED AS EARLY AS 12 NOON.", "nsi_id": "unitedstatespostalservice-a77078", "operator": "United States Postal Service", "operator:short": "USPS", "operator:type": "public", "operator:wikidata": "Q668687", "ref": "8370200144"}, "type": "Feature"}
{"dataset_attributes": {"@spider": "usps_collection_boxes"}, "geometry": {"coordinates": [-116.2014159729, 43.6170859931], "type": "Point"}, "id": "bt9Os_UvSdoWaC0d8bwuUDeAEVM=", "properties": {"@spider": "usps_collection_boxes", "addr:city": "BOISE", "addr:country": "US", "addr:full": "750 W BANNOCK ST", "addr:postcode": "83702", "addr:state": "ID", "amenity": "post_box", "brand": "United States Postal Service", "brand:wikidata": "Q668687", "collection_times": "Mo-Fr 17:15", "name": "USPS COLLECTION BOX - PO LOBBY", "note": "ON 12/24 AND 12/31, THIS BOX MAY BE COLLECTED AS EARLY AS 12 NOON.", "nsi_id": "unitedstatespostalservice-a77078", "operator": "United States Postal Service", "operator:short": "USPS", "operator:type": "public", "operator:wikidata": "Q668687", "ref": "8370200145"}, "type": "Feature"}
{"dataset_attributes": {"@spider": "usps_collection_boxes"}, "geometry": {"coordinates": [-116.1904185, 43.621065], "type": "Point"}, "id": "PYBRBZxl7IMJRUxkbxNmbX3hibU=", "properties": {"@spider": "usps_collection_boxes", "addr:city": "BOISE", "addr:country": "US", "addr:full": "500 W FORT ST", "addr:postcode": "83702", "addr:state": "ID", "amenity": "post_box", "brand": "United States Postal Service", "brand:wikidata": "Q668687", "collection_times": "Mo-Fr 12:00", "name": "USPS COLLECTION BOX - BLUE BOX", "nsi_id": "unitedstatespostalservice-a77078", "operator": "United States Postal Service", "operator:short": "USPS", "operator:type": "public", "operator:wikidata": "Q668687", "ref": "8370200147"}, "type": "Feature"}
{"dataset_attributes": {"@spider": "usps_collection_boxes"}, "geometry": {"coordinates": [-116.278614, 43.669331], "type": "Point"}, "id": "OZHVpMB4pZBC5xaMgPxnMLYZ32k=", "properties": {"@spider": "usps_collection_boxes", "addr:city": "BOISE", "addr:country": "US", "addr:full": "7154 W STATE ST", "addr:postcode": "83703", "addr:state": "ID", "amenity": "post_box", "brand": "United States Postal Service", "brand:wikidata": "Q668687", "collection_times": "Mo-Fr 16:45", "name": "USPS COLLECTION BOX - BLUE BOX", "note": "ON 12/24 AND 12/31, THIS BOX MAY BE COLLECTED AS EARLY AS 12 NOON.", "nsi_id": "unitedstatespostalservice-a77078", "operator": "United States Postal Service", "operator:short": "USPS", "operator:type": "public", "operator:wikidata": "Q668687", "ref": "8370300007"}, "type": "Feature"}
{"dataset_attributes": {"@spider": "usps_collection_boxes"}, "geometry": {"coordinates": [-116.253822, 43.651616], "type": "Point"}, "id": "YiXMDKkr-5Cqi8zIaU3MDihfH34=", "properties": {"@spider": "usps_collection_boxes", "addr:city": "BOISE", "addr:country": "US", "addr:full": "3150 N LAKEHARBOR LN", "addr:postcode": "83703", "addr:state": "ID", "amenity": "post_box", "brand": "United States Postal Service", "brand:wikidata": "Q668687", "collection_times": "Mo-Fr 09:00", "name": "USPS COLLECTION BOX - BLUE BOX", "nsi_id": "unitedstatespostalservice-a77078", "operator": "United States Postal Service", "operator:short": "USPS", "operator:type": "public", "operator:wikidata": "Q668687", "ref": "8370300009"}, "type": "Feature"}
{"dataset_attributes": {"@spider": "usps_collection_boxes"}, "geometry": {"coordinates": [-116.246455, 43.648882], "type": "Point"}, "id": "KM_J8vDy4-poEkTHCCeav9S67Tg=", "properties": {"@spider": "usps_collection_boxes", "addr:city": "BOISE", "addr:country": "US", "addr:full": "4650 W STATE ST", "addr:postcode": "83703", "addr:state": "ID", "amenity": "post_box", "brand": "United States Postal Service", "brand:wikidata": "Q668687", "collection_times": "Mo-Fr 17:15; Sa 16:45", "name": "USPS COLLECTION BOX - BLUE BOX", "note": "ON 12/24 AND 12/31, THIS BOX MAY BE COLLECTED AS EARLY AS 12 NOON.", "nsi_id": "unitedstatespostalservice-a77078", "operator": "United States Postal Service", "operator:short": "USPS", "operator:type": "public", "operator:wikidata": "Q668687", "ref": "8370300011"}, "type": "Feature"}
{"dataset_attributes": {"@spider": "usps_collection_boxes"}, "geometry": {"coordinates": [-116.246464, 43.64894], "type": "Point"}, "id": "qf-_iV7QgYKVOnK0PTb8C8JNhoY=", "properties": {"@spider": "usps_collection_boxes", "addr:city": "BOISE", "addr:country": "US", "addr:full": "4650 W STATE ST", "addr:postcode": "83703", "addr:state": "ID", "amenity": "post_box", "brand": "United States Postal Service", "brand:wikidata": "Q668687", "collection_times": "Mo-Fr 17:00", "name": "USPS COLLECTION BOX - PO LOBBY", "note": "ON 12/24 AND 12/31, THIS BOX MAY BE COLLECTED AS EARLY AS 12 NOON.", "nsi_id": "unitedstatespostalservice-a77078", "operator": "United States Postal Service", "operator:short": "USPS", "operator:type": "public", "operator:wikidata": "Q668687", "ref": "8370300015"}, "type": "Feature"}
{"dataset_attributes": {"@spider": "usps_collection_boxes"}, "geometry": {"coordinates": [-116.288258, 43.606561], "type": "Point"}, "id": "_7H3K3zOjndtteq_t57eE0wK3bU=", "properties": {"@spider": "usps_collection_boxes", "addr:city": "BOISE", "addr:country": "US", "addr:full": "153 N BENJAMIN LN", "addr:postcode": "83704", "addr:state": "ID", "amenity": "post_box", "brand": "United States Postal Service", "brand:wikidata": "Q668687", "collection_times": "Mo-Fr 15:00", "name": "USPS COLLECTION BOX - BLUE BOX", "note": "ON 12/24 AND 12/31, THIS BOX MAY BE COLLECTED AS EARLY AS 12 NOON.", "nsi_id": "unitedstatespostalservice-a77078", "operator": "United States Postal Service", "operator:short": "USPS", "operator:type": "public", "operator:wikidata": "Q668687", "ref": "8370400010"}, "type": "Feature"}
{"dataset_attributes": {"@spider": "usps_collection_boxes"}, "geometry": {"coordinates": [-116.2779880111, 43.6087620089], "type": "Point"}, "id": "JBCDdgGUOQpLq9wKoFLdQWbDoXY=", "properties": {"@spider": "usps_collection_boxes", "addr:city": "BOISE", "addr:country": "US", "addr:full": "350 N MILWAUKEE ST", "addr:postcode": "83704", "addr:state": "ID", "amenity": "post_box", "brand": "United States Postal Service", "brand:wikidata": "Q668687", "collection_times": "Mo-Fr 15:00; Sa 17:15", "name": "USPS COLLECTION BOX - BLUE BOX", "note": "ON 12/24 AND 12/31, THIS BOX MAY BE COLLECTED AS EARLY AS 12 NOON.", "nsi_id": "unitedstatespostalservice-a77078", "operator": "United States Postal Service", "operator:short": "USPS", "operator:type": "public", "operator:wikidata": "Q668687", "ref": "8370400016"}, "type": "Feature"}
{"dataset_attributes": {"@spider": "usps_collection_boxes"}, "geometry": {"coordinates": [-116.257025, 43.611962], "type": "Point"}, "id": "ywC9nufbWZQxd-VBAzeoUIP8TD0=", "properties": {"@spider": "usps_collection_boxes", "addr:city": "BOISE", "addr:country": "US", "addr:full": "6060 W EMERALD ST", "addr:postcode": "83704", "addr:state": "ID", "amenity": "post_box", "brand": "United States Postal Service", "brand:wikidata": "Q668687", "collection_times": "Mo-Fr 16:00", "name": "USPS COLLECTION BOX - BLUE BOX", "note": "ON 12/24 AND 12/31, THIS BOX MAY BE COLLECTED AS EARLY AS 12 NOON.", "nsi_id": "unitedstatespostalservice-a77078", "operator": "United States Postal Service", "operator:short": "USPS", "operator:type": "public", "operator:wikidata": "Q668687", "ref": "8370400020"}, "type": "Feature"}
{"dataset_attributes": {"@spider": "usps_collection_boxes"}, "geometry": {"coordinates": [-116.271001, 43.610959], "type": "Point"}, "id": "VTgxmjyYt5OkM00NvWv207RO8Mo=", "properties": {"@spider": "usps_collection_boxes", "addr:city": "BOISE", "addr:country": "US", "addr:full": "7150 W POTOMAC DR", "addr:postcode": "83704", "addr:state": "ID", "amenity": "post_box", "brand": "United States Postal Service", "brand:wikidata": "Q668687", "collection_times": "Mo-Fr 16:15", "name": "USPS COLLECTION BOX - BLUE BOX", "note": "ON 12/24 AND 12/31, THIS BOX MAY BE COLLECTED AS EARLY AS 12 NOON.", "nsi_id": "unitedstatespostalservice-a77078", "operator": "United States Postal Service", "operator:short": "USPS", "operator:type": "public", "operator:wikidata": "Q668687", "ref": "8370400023"}, "type": "Feature"}
{"dataset_attributes": {"@spider": "usps_collection_boxes"}, "geometry": {"coordinates": [-116.279432, 43.619745], "type": "Point"}, "id": "fmzVWGWIm65aiFSTxMB2tRGIDI8=", "properties": {"@spider": "usps_collection_boxes", "addr:city": "BOISE", "addr:country": "US", "addr:full": "7736 W FAIRVIEW AVE", "addr:postcode": "83704", "addr:state": "ID", "amenity": "post_box", "brand": "United States Postal Service", "brand:wikidata": "Q668687", "collection_times": "Mo-Fr 14:45", "name": "USPS COLLECTION BOX - BLUE BOX", "note": "ON 12/24 AND 12/31, THIS BOX MAY BE COLLECTED AS EARLY AS 12 NOON.", "nsi_id": "unitedstatespostalservice-a77078", "operator": "United States Postal Service", "operator:short": "USPS", "operator:type": "public", "operator:wikidata": "Q668687", "ref": "8370400025"}, "type": "Feature"}
{"dataset_attributes": {"@spider": "usps_collection_boxes"}, "geometry": {"coordinates": [-116.2821099797, 43.6117439967], "type": "Point"}, "id": "qpjJBsAx7wUeIEh2GHkyp29WcF0=", "properties": {"@spider": "usps_collection_boxes", "addr:city": "BOISE", "addr:country": "US", "addr:full": "8030 W EMERALD ST", "addr:postcode": "83704", "addr:state": "ID", "amenity": "post_box", "brand": "United States Postal Service", "brand:wikidata": "Q668687", "collection_times": "Mo-Fr 16:15", "name": "USPS COLLECTION BOX - BLUE BOX", "note": "ON 12/24 AND 12/31, THIS BOX MAY BE COLLECTED AS EARLY AS 12 NOON.", "nsi_id": "unitedstatespostalservice-a77078", "operator": "United States Postal Service", "operator:short": "USPS", "operator:type": "public", "operator:wikidata": "Q668687", "ref": "8370400026"}, "type": "Feature"}
{"dataset_attributes": {"@spider": "usps_collection_boxes"}, "geometry": {"coordinates": [-116.300304, 43.619827], "type": "Point"}, "id": "63eK1KG4nLuQSa-mnn5rHIohEvw=", "properties": {"@spider": "usps_collection_boxes", "addr:city": "BOISE", "addr:country": "US", "addr:full": "9500 W FAIRVIEW AVE", "addr:postcode": "83704", "addr:state": "ID", "amenity": "post_box", "brand": "United States Postal Service", "brand:wikidata": "Q668687", "collection_times": "Mo-Fr 12:00", "name": "USPS COLLECTION BOX - BLUE BOX", "nsi_id": "unitedstatespostalservice-a77078", "operator": "United States Postal Service", "operator:short": "USPS", "operator:type": "public", "operator:wikidata": "Q668687", "ref": "8370400034"}, "type": "Feature"}
{"dataset_attributes": {"@spider": "usps_collection_boxes"}, "geometry": {"coordinates": [-116.274483, 43.635545], "type": "Point"}, "id": "SvTZVn1MIajU2TTv339_fO6IEa8=", "properties": {"@spider": "usps_collection_boxes", "addr:city": "BOISE", "addr:country": "US", "addr:full": "3485 N COLE RD", "addr:postcode": "83704", "addr:state": "ID", "amenity": "post_box", "brand": "United States Postal Service", "brand:wikidata": "Q668687", "collection_times": "Mo-Fr 16:30; Sa 17:15", "name": "USPS COLLECTION BOX - BLUE BOX", "note": "ON 12/24 AND 12/31, THIS BOX MAY BE COLLECTED AS EARLY AS 12 NOON.", "nsi_id": "unitedstatespostalservice-a77078", "operator": "United States Postal Service", "operator:short": "USPS", "operator:type": "public", "operator:wikidata": "Q668687", "ref": "8370400039"}, "type": "Feature"}
{"dataset_attributes": {"@spider": "usps_collection_boxes"}, "geometry": {"coordinates": [-116.284007, 43.619682], "type": "Point"}, "id": "zhoILvrEfXrMy9jucBB4iQWvFYQ=", "properties": {"@spider": "usps_collection_boxes", "addr:city": "BOISE", "addr:country": "US", "addr:full": "8100 W FAIRVIEW AVE", "addr:postcode": "83704", "addr:state": "ID", "amenity": "post_box", "brand": "United States Postal Service", "brand:wikidata": "Q668687", "collection_times": "Mo-Fr 14:45", "name": "USPS COLLECTION BOX - BLUE BOX", "note": "ON 12/24 AND 12/31, THIS BOX MAY BE COLLECTED AS EARLY AS 12 NOON.", "nsi_id": "unitedstatespostalservice-a77078", "operator": "United States Postal Service", "operator:short": "USPS", "operator:type": "public", "operator:wikidata": "Q668687", "ref": "8370400066"}, "type": "Feature"}
{"dataset_attributes": {"@spider": "usps_collection_boxes"}, "geometry": {"coordinates": [-116.29152, 43.61179], "type": "Point"}, "id": "bJhk4UMHu14RrIhayMA3lvTwyDw=", "properties": {"@spider": "usps_collection_boxes", "addr:city": "BOISE", "addr:country": "US", "addr:full": "8850 W EMERALD ST", "addr:postcode": "83704", "addr:state": "ID", "amenity": "post_box", "brand": "United States Postal Service", "brand:wikidata": "Q668687", "collection_times": "Mo-Fr 16:30", "name": "USPS COLLECTION BOX - BLUE BOX", "note": "ON 12/24 AND 12/31, THIS BOX MAY BE COLLECTED AS EARLY AS 12 NOON.", "nsi_id": "unitedstatespostalservice-a77078", "operator": "United States Postal Service", "operator:short": "USPS", "operator:type": "public", "operator:wikidata": "Q668687", "ref": "8370400067"}, "type": "Feature"}
{"dataset_attributes": {"@spider": "usps_collection_boxes"}, "geometry": {"coordinates": [-116.274295, 43.63673], "type": "Point"}, "id": "RaOjH3M8-MkBbUH9J_Zkclx2OlA=", "properties": {"@spider": "usps_collection_boxes", "addr:city": "BOISE", "addr:country": "US", "addr:full": "3485 N COLE RD", "addr:postcode": "83704", "addr:state": "ID", "amenity": "post_box", "brand": "United States Postal Service", "brand:wikidata": "Q668687", "collection_times": "Mo-Fr 17:30", "name": "USPS COLLECTION BOX - APC", "note": "ON 12/24 AND 12/31, THIS BOX MAY BE COLLECTED AS EARLY AS 12 NOON.", "nsi_id": "unitedstatespostalservice-a77078", "operator": "United States Postal Service", "operator:short": "USPS", "operator:type": "public", "operator:wikidata": "Q668687", "ref": "8370400069"}, "type": "Feature"}
{"dataset_attributes": {"@spider": "usps_collection_boxes"}, "geometry": {"coordinates": [-116.274295, 43.63673], "type": "Point"}, "id": "rL1KdhKYhyMuWeA8Tem_xCB8PtU=", "properties": {"@spider": "usps_collection_boxes", "addr:city": "BOISE", "addr:country": "US", "addr:full": "3485 N COLE RD", "addr:postcode": "83704", "addr:state": "ID", "amenity": "post_box", "brand": "United States Postal Service", "brand:wikidata": "Q668687", "collection_times": "Mo-Fr 17:30", "name": "USPS COLLECTION BOX - PO LOBBY", "note": "ON 12/24 AND 12/31, THIS BOX MAY BE COLLECTED AS EARLY AS 12 NOON.", "nsi_id": "unitedstatespostalservice-a77078", "operator": "United States Postal Service", "operator:short": "USPS", "operator:type": "public", "operator:wikidata": "Q668687", "ref": "8370400070"}, "type": "Feature"}
{"dataset_attributes": {"@spider": "usps_collection_boxes"}, "geometry": {"coordinates": [-116.274319842, 43.636726738], "type": "Point"}, "id": "E9BKu3yQDBNL3z0GzbKhMo3abNg=", "properties": {"@spider": "usps_collection_boxes", "addr:city": "BOISE", "addr:country": "US", "addr:full": "3485 N COLE RD", "addr:postcode": "83704", "addr:state": "ID", "amenity": "post_box", "brand": "United States Postal Service", "brand:wikidata": "Q668687", "collection_times": "Mo-Fr 17:00", "name": "USPS COLLECTION BOX - PO LOBBY", "note": "ON 12/24 AND 12/31, THIS BOX MAY BE COLLECTED AS EARLY AS 12 NOON.", "nsi_id": "unitedstatespostalservice-a77078", "operator": "United States Postal Service", "operator:short": "USPS", "operator:type": "public", "operator:wikidata": "Q668687", "ref": "8370400073"}, "type": "Feature"}
{"dataset_attributes": {"@spider": "usps_collection_boxes"}, "geometry": {"coordinates": [-116.243803, 43.593299], "type": "Point"}, "id": "zHDRPYZkt_i5eSjXymiyathDFeo=", "properties": {"@spider": "usps_collection_boxes", "addr:city": "BOISE", "addr:country": "US", "addr:full": "1203 S ORCHARD ST", "addr:postcode": "83705", "addr:state": "ID", "amenity": "post_box", "brand": "United States Postal Service", "brand:wikidata": "Q668687", "collection_times": "Mo-Fr 15:30", "name": "USPS COLLECTION BOX - BLUE BOX", "note": "ON 12/24 AND 12/31, THIS BOX MAY BE COLLECTED AS EARLY AS 12 NOON.", "nsi_id": "unitedstatespostalservice-a77078", "operator": "United States Postal Service", "operator:short": "USPS", "operator:type": "public", "operator:wikidata": "Q668687", "ref": "8370500002"}, "type": "Feature"}
{"dataset_attributes": {"@spider": "usps_collection_boxes"}, "geometry": {"coordinates": [-116.201501, 43.582919], "type": "Point"}, "id": "pPAIyjJ17LGCWJ04jh29s3-V2Fg=", "properties": {"@spider": "usps_collection_boxes", "addr:city": "BOISE", "addr:country": "US", "addr:full": "1650 W TARGEE ST", "addr:postcode": "83705", "addr:state": "ID", "amenity": "post_box", "brand": "United States Postal Service", "brand:wikidata": "Q668687", "collection_times": "Mo-Fr 17:00; Sa 16:15", "name": "USPS COLLECTION BOX - BLUE BOX", "note": "ON 12/24 AND 12/31, THIS BOX MAY BE COLLECTED AS EARLY AS 12 NOON.", "nsi_id": "unitedstatespostalservice-a77078", "operator": "United States Postal Service", "operator:short": "USPS", "operator:type": "public", "operator:wikidata": "Q668687", "ref": "8370500005"}, "type": "Feature"}
{"dataset_attributes": {"@spider": "usps_collection_boxes"}, "geometry": {"coordinates": [-116.230754, 43.589486], "type": "Point"}, "id": "9ER8HUGEvzdWSgLPw0qrOo5GAjk=", "properties": {"@spider": "usps_collection_boxes", "addr:city": "BOISE", "addr:country": "US", "addr:full": "3929 W OVERLAND RD", "addr:postcode": "83705", "addr:state": "ID", "amenity": "post_box", "brand": "United States Postal Service", "brand:wikidata": "Q668687", "collection_times": "Mo-Fr 09:00", "name": "USPS COLLECTION BOX - BLUE BOX", "nsi_id": "unitedstatespostalservice-a77078", "operator": "United States Postal Service", "operator:short": "USPS", "operator:type": "public", "operator:wikidata": "Q668687", "ref": "8370500017"}, "type": "Feature"}
{"dataset_attributes": {"@spider": "usps_collection_boxes"}, "geometry": {"coordinates": [-116.242369, 43.600578], "type": "Point"}, "id": "1l2dCRI0wzvaPCJeXWPMPD7R6Uo=", "properties": {"@spider": "usps_collection_boxes", "addr:city": "BOISE", "addr:country": "US", "addr:full": "410 S ORCHARD ST", "addr:postcode": "83705", "addr:state": "ID", "amenity": "post_box", "brand": "United States Postal Service", "brand:wikidata": "Q668687", "collection_times": "Mo-Fr 15:45", "name": "USPS COLLECTION BOX - BLUE BOX", "note": "ON 12/24 AND 12/31, THIS BOX MAY BE COLLECTED AS EARLY AS 12 NOON.", "nsi_id": "unitedstatespostalservice-a77078", "operator": "United States Postal Service", "operator:short": "USPS", "operator:type": "public", "operator:wikidata": "Q668687", "ref": "8370500018"}, "type": "Feature"}
{"dataset_attributes": {"@spider": "usps_collection_boxes"}, "geometry": {"coordinates": [-116.249557, 43.603136], "type": "Point"}, "id": "5JgRiONKz0CtWqqo97md-wrVa5w=", "properties": {"@spider": "usps_collection_boxes", "addr:city": "BOISE", "addr:country": "US", "addr:full": "5460 W FRANKLIN RD", "addr:postcode": "83705", "addr:state": "ID", "amenity": "post_box", "brand": "United States Postal Service", "brand:wikidata": "Q668687", "collection_times": "Mo-Fr 10:30", "name": "USPS COLLECTION BOX - BLUE BOX", "nsi_id": "unitedstatespostalservice-a77078", "operator": "United States Postal Service", "operator:short": "USPS", "operator:type": "public", "operator:wikidata": "Q668687", "ref": "8370500023"}, "type": "Feature"}
{"dataset_attributes": {"@spider": "usps_collection_boxes"}, "geometry": {"coordinates": [-116.228719, 43.595759], "type": "Point"}, "id": "_3vZPcjr62se15yKs69UxYNwulU=", "properties": {"@spider": "usps_collection_boxes", "addr:city": "BOISE", "addr:country": "US", "addr:full": "913 S LATAH ST", "addr:postcode": "83705", "addr:state": "ID", "amenity": "post_box", "brand": "United States Postal Service", "brand:wikidata": "Q668687", "collection_times": "Mo-Fr 14:30", "name": "USPS COLLECTION BOX - BLUE BOX", "note": "ON 12/24 AND 12/31, THIS BOX MAY BE COLLECTED AS EARLY AS 12 NOON.", "nsi_id": "unitedstatespostalservice-a77078", "operator": "United States Postal Service", "operator:short": "USPS", "operator:type": "public", "operator:wikidata": "Q668687", "ref": "8370500026"}, "type": "Feature"}
{"dataset_attributes": {"@spider": "usps_collection_boxes"}, "geometry": {"coordinates": [-116.201494, 43.582915], "type": "Point"}, "id": "iHWmmvmp_bFOEVoapDQPHICfHCQ=", "properties": {"@spider": "usps_collection_boxes", "addr:city": "BOISE", "addr:country": "US", "addr:full": "1650 W TARGEE ST", "addr:postcode": "83705", "addr:state": "ID", "amenity": "post_box", "brand": "United States Postal Service", "brand:wikidata": "Q668687", "collection_times": "Mo-Fr 17:00; Sa 16:15", "name": "USPS COLLECTION BOX - BLUE BOX", "note": "ON 12/24 AND 12/31, THIS BOX MAY BE COLLECTED AS EARLY AS 12 NOON.", "nsi_id": "unitedstatespostalservice-a77078", "operator": "United States Postal Service", "operator:short": "USPS", "operator:type": "public", "operator:wikidata": "Q668687", "ref": "8370500027"}, "type": "Feature"}
{"dataset_attributes": {"@spider": "usps_collection_boxes"}, "geometry": {"coordinates": [-116.244919, 43.591526], "type": "Point"}, "id": "HVc0LSBZfQ9M2QD4PP3eg3BZP5o=", "properties": {"@spider": "usps_collection_boxes", "addr:city": "BOISE", "addr:country": "US", "addr:full": "5100 W OVERLAND RD", "addr:postcode": "83705", "addr:state": "ID", "amenity": "post_box", "brand": "United States Postal Service", "brand:wikidata": "Q668687", "collection_times": "Mo-Fr 15:45; Sa 13:15", "name": "USPS COLLECTION BOX - BLUE BOX", "note": "ON 12/24 AND 12/31, THIS BOX MAY BE COLLECTED AS EARLY AS 12 NOON.", "nsi_id": "unitedstatespostalservice-a77078", "operator": "United States Postal Service", "operator:short": "USPS", "operator:type": "public", "operator:wikidata": "Q668687", "ref": "8370500032"}, "type": "Feature"}
{"dataset_attributes": {"@spider": "usps_collection_boxes"}, "geometry": {"coordinates": [-116.213655, 43.56709], "type": "Point"}, "id": "Ruvq88czseeQgx0QpUb8qswBsEA=", "properties": {"@spider": "usps_collection_boxes", "addr:city": "BOISE", "addr:country": "US", "addr:full": "2625 W APOLLO ST", "addr:postcode": "83705", "addr:state": "ID", "amenity": "post_box", "brand": "United States Postal Service", "brand:wikidata": "Q668687", "collection_times": "Mo-Fr 17:00; Sa 13:45", "name": "USPS COLLECTION BOX - BLUE BOX", "note": "ON 12/24 AND 12/31, THIS BOX MAY BE COLLECTED AS EARLY AS 12 NOON.", "nsi_id": "unitedstatespostalservice-a77078", "operator": "United States Postal Service", "operator:short": "USPS", "operator:type": "public", "operator:wikidata": "Q668687", "ref": "8370500036"}, "type": "Feature"}
{"dataset_attributes": {"@spider": "usps_collection_boxes"}, "geometry": {"coordinates": [-116.2219099776, 43.5684950108], "type": "Point"}, "id": "F35pL088CM_vF_V3wdexQPHwf10=", "properties": {"@spider": "usps_collection_boxes", "addr:city": "BOISE", "addr:country": "US", "addr:full": "3201 W AIRPORT WAY", "addr:postcode": "83705", "addr:state": "ID", "amenity": "post_box", "brand": "United States Postal Service", "brand:wikidata": "Q668687", "collection_times": "Mo-Fr 13:15; Sa 13:00", "name": "USPS COLLECTION BOX - BLUE BOX", "note": "ON 12/24 AND 12/31, THIS BOX MAY BE COLLECTED AS EARLY AS 12 NOON.", "nsi_id": "unitedstatespostalservice-a77078", "operator": "United States Postal Service", "operator:short": "USPS", "operator:type": "public", "operator:wikidata": "Q668687", "ref": "8370500037"}, "type": "Feature"}
{"dataset_attributes": {"@spider": "usps_collection_boxes"}, "geometry": {"coordinates": [-116.215809964, 43.573121989], "type": "Point"}, "id": "V-c4n1b_uy4HccxjLKkDFGAHnFY=", "properties": {"@spider": "usps_collection_boxes", "addr:city": "BOISE", "addr:country": "US", "addr:full": "2773 W ELDER ST", "addr:postcode": "83705", "addr:state": "ID", "amenity": "post_box", "brand": "United States Postal Service", "brand:wikidata": "Q668687", "collection_times": "Mo-Fr 16:00", "name": "USPS COLLECTION BOX - BLUE BOX", "note": "ON 12/24 AND 12/31, THIS BOX MAY BE COLLECTED AS EARLY AS 12 NOON.", "nsi_id": "unitedstatespostalservice-a77078", "operator": "United States Postal Service", "operator:short": "USPS", "operator:type": "public", "operator:wikidata": "Q668687", "ref": "8370500050"}, "type": "Feature"}
{"dataset_attributes": {"@spider": "usps_collection_boxes"}, "geometry": {"coordinates": [-116.211928, 43.590977], "type": "Point"}, "id": "xfyp-dIKWKNtUEsjXgk5fCl42ok=", "properties": {"@spider": "usps_collection_boxes", "addr:city": "BOISE", "addr:country": "US", "addr:full": "2417 W BANK DR", "addr:postcode": "83705", "addr:state": "ID", "amenity": "post_box", "brand": "United States Postal Service", "brand:wikidata": "Q668687", "collection_times": "Mo-Fr 14:45", "name": "USPS COLLECTION BOX - BLUE BOX", "note": "ON 12/24 AND 12/31, THIS BOX MAY BE COLLECTED AS EARLY AS 12 NOON.", "nsi_id": "unitedstatespostalservice-a77078", "operator": "United States Postal Service", "operator:short": "USPS", "operator:type": "public", "operator:wikidata": "Q668687", "ref": "8370500051"}, "type": "Feature"}
{"dataset_attributes": {"@spider": "usps_collection_boxes"}, "geometry": {"coordinates": [-116.20213, 43.582636], "type": "Point"}, "id": "4HuFzX5L3QewrWKnNbcmxFdaq4k=", "properties": {"@spider": "usps_collection_boxes", "addr:city": "BOISE", "addr:country": "US", "addr:full": "1650 W TARGEE ST", "addr:postcode": "83705", "addr:state": "ID", "amenity": "post_box", "brand": "United States Postal Service", "brand:wikidata": "Q668687", "collection_times": "Mo-Fr 17:00; Sa 16:00", "name": "USPS COLLECTION BOX - PO LOBBY", "note": "ON 12/24 AND 12/31, THIS BOX MAY BE COLLECTED AS EARLY AS 12 NOON.", "nsi_id": "unitedstatespostalservice-a77078", "operator": "United States Postal Service", "operator:short": "USPS", "operator:type": "public", "operator:wikidata": "Q668687", "ref": "8370500057"}, "type": "Feature"}
{"dataset_attributes": {"@spider": "usps_collection_boxes"}, "geometry": {"coordinates": [-116.20213, 43.582636], "type": "Point"}, "id": "Xl3fZnJ4rfCxpSCK5jt2s-cR4U0=", "properties": {"@spider": "usps_collection_boxes", "addr:city": "BOISE", "addr:country": "US", "addr:full": "1650 W TARGEE ST", "addr:postcode": "83705", "addr:state": "ID", "amenity": "post_box", "brand": "United States Postal Service", "brand:wikidata": "Q668687", "collection_times": "Mo-Fr 17:00; Sa 16:00", "name": "USPS COLLECTION BOX - PO LOBBY", "note": "ON 12/24 AND 12/31, THIS BOX MAY BE COLLECTED AS EARLY AS 12 NOON.", "nsi_id": "unitedstatespostalservice-a77078", "operator": "United States Postal Service", "operator:short": "USPS", "operator:type": "public", "operator:wikidata": "Q668687", "ref": "8370500058"}, "type": "Feature"}
{"dataset_attributes": {"@spider": "usps_collection_boxes"}, "geometry": {"coordinates": [-116.20213, 43.582636], "type": "Point"}, "id": "2Gc7TWSOrt0hjOjFY2ih_ihWX-8=", "properties": {"@spider": "usps_collection_boxes", "addr:city": "BOISE", "addr:country": "US", "addr:full": "1650 W TARGEE ST", "addr:postcode": "83705", "addr:state": "ID", "amenity": "post_box", "brand": "United States Postal Service", "brand:wikidata": "Q668687", "collection_times": "Mo-Fr 17:00; Sa 16:00", "name": "USPS COLLECTION BOX - PO LOBBY", "note": "ON 12/24 AND 12/31, THIS BOX MAY BE COLLECTED AS EARLY AS 12 NOON.", "nsi_id": "unitedstatespostalservice-a77078", "operator": "United States Postal Service", "operator:short": "USPS", "operator:type": "public", "operator:wikidata": "Q668687", "ref": "8370500059"}, "type": "Feature"}
{"dataset_attributes": {"@spider": "usps_collection_boxes"}, "geometry": {"coordinates": [-116.213947, 43.567664], "type": "Point"}, "id": "FsSmOm-c2MMQ2hGOsWBWVv705FE=", "properties": {"@spider": "usps_collection_boxes", "addr:city": "BOISE", "addr:country": "US", "addr:full": "2625 W APOLLO ST", "addr:postcode": "83705", "addr:state": "ID", "amenity": "post_box", "brand": "United States Postal Service", "brand:wikidata": "Q668687", "collection_times": "Mo-Fr 17:00", "name": "USPS COLLECTION BOX - PO LOBBY", "note": "ON 12/24 AND 12/31, THIS BOX MAY BE COLLECTED AS EARLY AS 12 NOON.", "nsi_id": "unitedstatespostalservice-a77078", "operator": "United States Postal Service", "operator:short": "USPS", "operator:type": "public", "operator:wikidata": "Q668687", "ref": "8370500060"}, "type": "Feature"}
{"dataset_attributes": {"@spider": "usps_collection_boxes"}, "geometry": {"coordinates": [-116.213947, 43.567664], "type": "Point"}, "id": "QKuzWClIzT9-EABcAHgcoj0ykrA=", "properties": {"@spider": "usps_collection_boxes", "addr:city": "BOISE", "addr:country": "US", "addr:full": "2625 W APOLLO ST", "addr:postcode": "83705", "addr:state": "ID", "amenity": "post_box", "brand": "United States Postal Service", "brand:wikidata": "Q668687", "collection_times": "Mo-Fr 17:00", "name": "USPS COLLECTION BOX - PO LOBBY", "note": "ON 12/24 AND 12/31, THIS BOX MAY BE COLLECTED AS EARLY AS 12 NOON.", "nsi_id": "unitedstatespostalservice-a77078", "operator": "United States Postal Service", "operator:short": "USPS", "operator:type": "public", "operator:wikidata": "Q668687", "ref": "8370500061"}, "type": "Feature"}
{"dataset_attributes": {"@spider": "usps_collection_boxes"}, "geometry": {"coordinates": [-116.20213, 43.582636], "type": "Point"}, "id": "b8DjyA3nzu67h60etAm3FfoidEM=", "properties": {"@spider": "usps_collection_boxes", "addr:city": "BOISE", "addr:country": "US", "addr:full": "1650 W TARGEE ST", "addr:postcode": "83705", "addr:state": "ID", "amenity": "post_box", "brand": "United States Postal Service", "brand:wikidata": "Q668687", "collection_times": "Mo-Fr 17:00; Sa 16:00", "name": "USPS COLLECTION BOX - APC", "note": "ON 12/24 AND 12/31, THIS BOX MAY BE COLLECTED AS EARLY AS 12 NOON.", "nsi_id": "unitedstatespostalservice-a77078", "operator": "United States Postal Service", "operator:short": "USPS", "operator:type": "public", "operator:wikidata": "Q668687", "ref": "8370500062"}, "type": "Feature"}
{"dataset_attributes": {"@spider": "usps_collection_boxes"}, "geometry": {"coordinates": [-116.20213353, 43.58263752], "type": "Point"}, "id": "FvfY5F-b2T3rtZxfwR7izigMb1Y=", "properties": {"@spider": "usps_collection_boxes", "addr:city": "BOISE", "addr:country": "US", "addr:full": "1650 W TARGEE ST", "addr:postcode": "83705", "addr:state": "ID", "amenity": "post_box", "brand": "United States Postal Service", "brand:wikidata": "Q668687", "collection_times": "Mo-Fr 17:00; Sa 16:00", "name": "USPS COLLECTION BOX - PO LOBBY", "note": "ON 12/24 AND 12/31, THIS BOX MAY BE COLLECTED AS EARLY AS 12 NOON.", "nsi_id": "unitedstatespostalservice-a77078", "operator": "United States Postal Service", "operator:short": "USPS", "operator:type": "public", "operator:wikidata": "Q668687", "ref": "8370500065"}, "type": "Feature"}
{"dataset_attributes": {"@spider": "usps_collection_boxes"}, "geometry": {"coordinates": [-116.213925108, 43.567603987], "type": "Point"}, "id": "NA4D767gUxRKST0zYf6FTdbFy7o=", "properties": {"@spider": "usps_collection_boxes", "addr:city": "BOISE", "addr:country": "US", "addr:full": "2625 W APOLLO ST", "addr:postcode": "83705", "addr:state": "ID", "amenity": "post_box", "brand": "United States Postal Service", "brand:wikidata": "Q668687", "collection_times": "Mo-Fr 17:00", "name": "USPS COLLECTION BOX - PO LOBBY", "note": "ON 12/24 AND 12/31, THIS BOX MAY BE COLLECTED AS EARLY AS 12 NOON.", "nsi_id": "unitedstatespostalservice-a77078", "operator": "United States Postal Service", "operator:short": "USPS", "operator:type": "public", "operator:wikidata": "Q668687", "ref": "8370500066"}, "type": "Feature"}
{"dataset_attributes": {"@spider": "usps_collection_boxes"}, "geometry": {"coordinates": [-116.193580477, 43.597719], "type": "Point"}, "id": "RD1xiOhf5KcFg2-vHJjmT9QqqK0=", "properties": {"@spider": "usps_collection_boxes", "addr:city": "BOISE", "addr:country": "US", "addr:full": "1219 S BROADWAY AVE", "addr:postcode": "83706", "addr:state": "ID", "amenity": "post_box", "brand": "United States Postal Service", "brand:wikidata": "Q668687", "collection_times": "Mo-Fr 16:30; Sa 14:45", "name": "USPS COLLECTION BOX - BLUE BOX", "note": "ON 12/24 AND 12/31, THIS BOX MAY BE COLLECTED AS EARLY AS 12 NOON.", "nsi_id": "unitedstatespostalservice-a77078", "operator": "United States Postal Service", "operator:short": "USPS", "operator:type": "public", "operator:wikidata": "Q668687", "ref": "8370600005"}, "type": "Feature"}
{"dataset_attributes": {"@spider": "usps_collection_boxes"}, "geometry": {"coordinates": [-116.179728, 43.595971], "type": "Point"}, "id": "0V56t-Pdz7QAqdUWMyl56smkgTQ=", "properties": {"@spider": "usps_collection_boxes", "addr:city": "BOISE", "addr:country": "US", "addr:full": "1401 S TYRELL LN", "addr:postcode": "83706", "addr:state": "ID", "amenity": "post_box", "brand": "United States Postal Service", "brand:wikidata": "Q668687", "collection_times": "Mo-Fr 15:45; Sa 13:00", "name": "USPS COLLECTION BOX - BLUE BOX", "note": "ON 12/24 AND 12/31, THIS BOX MAY BE COLLECTED AS EARLY AS 12 NOON.", "nsi_id": "unitedstatespostalservice-a77078", "operator": "United States Postal Service", "operator:short": "USPS", "operator:type": "public", "operator:wikidata": "Q668687", "ref": "8370600036"}, "type": "Feature"}
{"dataset_attributes": {"@spider": "usps_collection_boxes"}, "geometry": {"coordinates": [-116.177388, 43.597842], "type": "Point"}, "id": "PkCsP8b1x20dbRdBsh5RBDw5HQE=", "properties": {"@spider": "usps_collection_boxes", "addr:city": "BOISE", "addr:country": "US", "addr:full": "485 E BAYBROOK CT", "addr:postcode": "83706", "addr:state": "ID", "amenity": "post_box", "brand": "United States Postal Service", "brand:wikidata": "Q668687", "collection_times": "Mo-Fr 16:00", "name": "USPS COLLECTION BOX - BLUE BOX", "note": "ON 12/24 AND 12/31, THIS BOX MAY BE COLLECTED AS EARLY AS 12 NOON.", "nsi_id": "unitedstatespostalservice-a77078", "operator": "United States Postal Service", "operator:short": "USPS", "operator:type": "public", "operator:wikidata": "Q668687", "ref": "8370600051"}, "type": "Feature"}
{"dataset_attributes": {"@spider": "usps_collection_boxes"}, "geometry": {"coordinates": [-116.184694, 43.597162], "type": "Point"}, "id": "w9hyRjOqY0UiPyw0NodIEZuMHQI=", "properties": {"@spider": "usps_collection_boxes", "addr:city": "BOISE", "addr:country": "US", "addr:full": "250 W BOBWHITE CT", "addr:postcode": "83706", "addr:state": "ID", "amenity": "post_box", "brand": "United States Postal Service", "brand:wikidata": "Q668687", "collection_times": "Mo-Fr 15:45", "name": "USPS COLLECTION BOX - BLUE BOX", "note": "ON 12/24 AND 12/31, THIS BOX MAY BE COLLECTED AS EARLY AS 12 NOON.", "nsi_id": "unitedstatespostalservice-a77078", "operator": "United States Postal Service", "operator:short": "USPS", "operator:type": "public", "operator:wikidata": "Q668687", "ref": "8370600052"}, "type": "Feature"}
{"dataset_attributes": {"@spider": "usps_collection_boxes"}, "geometry": {"coordinates": [-116.192525, 43.60203], "type": "Point"}, "id": "o3nn98n2WDmlFkXZEFQVcbt9dV4=", "properties": {"@spider": "usps_collection_boxes", "addr:city": "BOISE", "addr:country": "US", "addr:full": "960 S BROADWAY AVE", "addr:postcode": "83706", "addr:state": "ID", "amenity": "post_box", "brand": "United States Postal Service", "brand:wikidata": "Q668687", "collection_times": "Mo-Fr 16:45", "name": "USPS COLLECTION BOX - BLUE BOX", "note": "ON 12/24 AND 12/31, THIS BOX MAY BE COLLECTED AS EARLY AS 12 NOON.", "nsi_id": "unitedstatespostalservice-a77078", "operator": "United States Postal Service", "operator:short": "USPS", "operator:type": "public", "operator:wikidata": "Q668687", "ref": "8370600056"}, "type": "Feature"}
{"dataset_attributes": {"@spider": "usps_collection_boxes"}, "geometry": {"coordinates": [-116.253867, 43.608082], "type": "Point"}, "id": "JmFEO3lQPHSGqVj8-Fg_3ezJ71Q=", "properties": {"@spider": "usps_collection_boxes", "addr:city": "BOISE", "addr:country": "US", "addr:full": "415 N CURTIS RD", "addr:postcode": "83706", "addr:state": "ID", "amenity": "post_box", "brand": "United States Postal Service", "brand:wikidata": "Q668687", "collection_times": "Mo-Fr 09:00", "name": "USPS COLLECTION BOX - BLUE BOX", "nsi_id": "unitedstatespostalservice-a77078", "operator": "United States Postal Service", "operator:short": "USPS", "operator:type": "public", "operator:wikidata": "Q668687", "ref": "8370600062"}, "type": "Feature"}
{"dataset_attributes": {"@spider": "usps_collection_boxes"}, "geometry": {"coordinates": [-116.254702, 43.61334], "type": "Point"}, "id": "8pClDRHUraOKwOtuT2uRyEBGb0U=", "properties": {"@spider": "usps_collection_boxes", "addr:city": "BOISE", "addr:country": "US", "addr:full": "999 N CURTIS RD", "addr:postcode": "83706", "addr:state": "ID", "amenity": "post_box", "brand": "United States Postal Service", "brand:wikidata": "Q668687", "collection_times": "Mo-Fr 15:45; Sa 12:15", "name": "USPS COLLECTION BOX - BLUE BOX", "note": "ON 12/24 AND 12/31, THIS BOX MAY BE COLLECTED AS EARLY AS 12 NOON.", "nsi_id": "unitedstatespostalservice-a77078", "operator": "United States Postal Service", "operator:short": "USPS", "operator:type": "public", "operator:wikidata": "Q668687", "ref": "8370600063"}, "type": "Feature"}
{"dataset_attributes": {"@spider": "usps_collection_boxes"}, "geometry": {"coordinates": [-116.243642, 43.61695], "type": "Point"}, "id": "akkvSb6PdXNkCVzzCx26_H_g7H0=", "properties": {"@spider": "usps_collection_boxes", "addr:city": "BOISE", "addr:country": "US", "addr:full": "1365 N ORCHARD ST", "addr:postcode": "83706", "addr:state": "ID", "amenity": "post_box", "brand": "United States Postal Service", "brand:wikidata": "Q668687", "collection_times": "Mo-Fr 15:30; Sa 13:00", "name": "USPS COLLECTION BOX - BLUE BOX", "note": "ON 12/24 AND 12/31, THIS BOX MAY BE COLLECTED AS EARLY AS 12 NOON.", "nsi_id": "unitedstatespostalservice-a77078", "operator": "United States Postal Service", "operator:short": "USPS", "operator:type": "public", "operator:wikidata": "Q668687", "ref": "8370600076"}, "type": "Feature"}
{"dataset_attributes": {"@spider": "usps_collection_boxes"}, "geometry": {"coordinates": [-116.175929, 43.580191], "type": "Point"}, "id": "pP1He5jWBof5JyNAJUkG0wx0FJo=", "properties": {"@spider": "usps_collection_boxes", "addr:city": "BOISE", "addr:country": "US", "addr:full": "582 E BOISE AVE", "addr:postcode": "83706", "addr:state": "ID", "amenity": "post_box", "brand": "United States Postal Service", "brand:wikidata": "Q668687", "collection_times": "Mo-Sa 09:00", "name": "USPS COLLECTION BOX - BLUE BOX", "nsi_id": "unitedstatespostalservice-a77078", "operator": "United States Postal Service", "operator:short": "USPS", "operator:type": "public", "operator:wikidata": "Q668687", "ref": "8370600080"}, "type": "Feature"}
{"dataset_attributes": {"@spider": "usps_collection_boxes"}, "geometry": {"coordinates": [-116.170038731, 43.582370738], "type": "Point"}, "id": "iWyZaCOdFThLsycucA00dxRvA2Q=", "properties": {"@spider": "usps_collection_boxes", "addr:city": "BOISE", "addr:country": "US", "addr:full": "1001 E PARKCENTER BLVD", "addr:postcode": "83706", "addr:state": "ID", "amenity": "post_box", "brand": "United States Postal Service", "brand:wikidata": "Q668687", "collection_times": "Mo-Fr 16:00; Sa 14:15", "name": "USPS COLLECTION BOX - BLUE BOX", "note": "ON 12/24 AND 12/31, THIS BOX MAY BE COLLECTED AS EARLY AS 12 NOON.", "nsi_id": "unitedstatespostalservice-a77078", "operator": "United States Postal Service", "operator:short": "USPS", "operator:type": "public", "operator:wikidata": "Q668687", "ref": "8370600081"}, "type": "Feature"}
{"dataset_attributes": {"@spider": "usps_collection_boxes"}, "geometry": {"coordinates": [-116.195027, 43.577877], "type": "Point"}, "id": "NWPtOePPm7DWznfeOvautdcS8zY=", "properties": {"@spider": "usps_collection_boxes", "addr:city": "BOISE", "addr:country": "US", "addr:full": "2721 S BROADWAY AVE", "addr:postcode": "83706", "addr:state": "ID", "amenity": "post_box", "brand": "United States Postal Service", "brand:wikidata": "Q668687", "collection_times": "Mo-Fr 12:00", "name": "USPS COLLECTION BOX - BLUE BOX", "nsi_id": "unitedstatespostalservice-a77078", "operator": "United States Postal Service", "operator:short": "USPS", "operator:type": "public", "operator:wikidata": "Q668687", "ref": "8370600083"}, "type": "Feature"}
{"dataset_attributes": {"@spider": "usps_collection_boxes"}, "geometry": {"coordinates": [-116.1750480142, 43.5912839806], "type": "Point"}, "id": "ZXaHOuMsswXR4F4gHyVhtFs8tfU=", "properties": {"@spider": "usps_collection_boxes", "addr:city": "BOISE", "addr:country": "US", "addr:full": "670 E RIVERPARK LN", "addr:postcode": "83706", "addr:state": "ID", "amenity": "post_box", "brand": "United States Postal Service", "brand:wikidata": "Q668687", "collection_times": "Mo-Fr 16:00", "name": "USPS COLLECTION BOX - BLUE BOX", "note": "ON 12/24 AND 12/31, THIS BOX MAY BE COLLECTED AS EARLY AS 12 NOON.", "nsi_id": "unitedstatespostalservice-a77078", "operator": "United States Postal Service", "operator:short": "USPS", "operator:type": "public", "operator:wikidata": "Q668687", "ref": "8370600084"}, "type": "Feature"}
{"dataset_attributes": {"@spider": "usps_collection_boxes"}, "geometry": {"coordinates": [-116.253161, 43.615608], "type": "Point"}, "id": "wSg35G9gcv5CHSXNZruEUPncKqk=", "properties": {"@spider": "usps_collection_boxes", "addr:city": "BOISE", "addr:country": "US", "addr:full": "1200 N CURTIS RD", "addr:postcode": "83706", "addr:state": "ID", "amenity": "post_box", "brand": "United States Postal Service", "brand:wikidata": "Q668687", "collection_times": "Mo-Fr 15:15", "name": "USPS COLLECTION BOX - BLUE BOX", "note": "ON 12/24 AND 12/31, THIS BOX MAY BE COLLECTED AS EARLY AS 12 NOON.", "nsi_id": "unitedstatespostalservice-a77078", "operator": "United States Postal Service", "operator:short": "USPS", "operator:type": "public", "operator:wikidata": "Q668687", "ref": "8370600085"}, "type": "Feature"}
{"dataset_attributes": {"@spider": "usps_collection_boxes"}, "geometry": {"coordinates": [-116.276883, 43.58207], "type": "Point"}, "id": "eUqsqXV5yeM3Wtt90ubHTAG3lnw=", "properties": {"@spider": "usps_collection_boxes", "addr:city": "BOISE", "addr:country": "US", "addr:full": "2201 S COLE RD", "addr:postcode": "83708", "addr:state": "ID", "amenity": "post_box", "brand": "United States Postal Service", "brand:wikidata": "Q668687", "collection_times": "Mo-Sa 20:00", "name": "USPS COLLECTION BOX - EXPRESS", "note": "ON 12/24 AND 12/31, THIS BOX MAY BE COLLECTED AS EARLY AS 12 NOON.", "nsi_id": "unitedstatespostalservice-a77078", "operator": "United States Postal Service", "operator:short": "USPS", "operator:type": "public", "operator:wikidata": "Q668687", "ref": "8370800003"}, "type": "Feature"}
{"dataset_attributes": {"@spider": "usps_collection_boxes"}, "geometry": {"coordinates": [-116.276883, 43.58207], "type": "Point"}, "id": "DcNIkQpOEZqLUDz0ZEPOrENEGo8=", "properties": {"@spider": "usps_collection_boxes", "addr:city": "BOISE", "addr:country": "US", "addr:full": "2201 S COLE RD", "addr:postcode": "83708", "addr:state": "ID", "amenity": "post_box", "brand": "United States Postal Service", "brand:wikidata": "Q668687", "collection_times": "Mo-Sa 20:00", "name": "USPS COLLECTION BOX - BLUE BOX", "note": "ON 12/24 AND 12/31, THIS BOX MAY BE COLLECTED AS EARLY AS 12 NOON.", "nsi_id": "unitedstatespostalservice-a77078", "operator": "United States Postal Service", "operator:short": "USPS", "operator:type": "public", "operator:wikidata": "Q668687", "ref": "8370800004"}, "type": "Feature"}
{"dataset_attributes": {"@spider": "usps_collection_boxes"}, "geometry": {"coordinates": [-116.276883, 43.58207], "type": "Point"}, "id": "PUcAmbVJse1d4aFRJyX590jxmIU=", "properties": {"@spider": "usps_collection_boxes", "addr:city": "BOISE", "addr:country": "US", "addr:full": "2201 S COLE RD", "addr:postcode": "83708", "addr:state": "ID", "amenity": "post_box", "brand": "United States Postal Service", "brand:wikidata": "Q668687", "collection_times": "Mo-Fr 20:00", "name": "USPS COLLECTION BOX - APC", "note": "ON 12/24 AND 12/31, THIS BOX MAY BE COLLECTED AS EARLY AS 12 NOON.", "nsi_id": "unitedstatespostalservice-a77078", "operator": "United States Postal Service", "operator:short": "USPS", "operator:type": "public", "operator:wikidata": "Q668687", "ref": "8370800005"}, "type": "Feature"}
{"dataset_attributes": {"@spider": "usps_collection_boxes"}, "geometry": {"coordinates": [-116.313309, 43.592562], "type": "Point"}, "id": "NdJJ9IcC-w-1N6NmGyOAoO8KQJU=", "properties": {"@spider": "usps_collection_boxes", "addr:city": "BOISE", "addr:country": "US", "addr:full": "1350 S FIVE MILE RD", "addr:postcode": "83709", "addr:state": "ID", "amenity": "post_box", "brand": "United States Postal Service", "brand:wikidata": "Q668687", "collection_times": "Mo-Fr 17:00; Sa 17:30", "name": "USPS COLLECTION BOX - BLUE BOX", "note": "ON 12/24 AND 12/31, THIS BOX MAY BE COLLECTED AS EARLY AS 12 NOON.", "nsi_id": "unitedstatespostalservice-a77078", "operator": "United States Postal Service", "operator:short": "USPS", "operator:type": "public", "operator:wikidata": "Q668687", "ref": "8370900016"}, "type": "Feature"}
{"dataset_attributes": {"@spider": "usps_collection_boxes"}, "geometry": {"coordinates": [-116.315208, 43.589512], "type": "Point"}, "id": "BMH86BtUiN1RvCd2sWA-vWavNoU=", "properties": {"@spider": "usps_collection_boxes", "addr:city": "BOISE", "addr:country": "US", "addr:full": "10751 W OVERLAND RD", "addr:postcode": "83709", "addr:state": "ID", "amenity": "post_box", "brand": "United States Postal Service", "brand:wikidata": "Q668687", "collection_times": "Mo-Fr 10:00", "name": "USPS COLLECTION BOX - BLUE BOX", "nsi_id": "unitedstatespostalservice-a77078", "operator": "United States Postal Service", "operator:short": "USPS", "operator:type": "public", "operator:wikidata": "Q668687", "ref": "8370900020"}, "type": "Feature"}
{"dataset_attributes": {"@spider": "usps_collection_boxes"}, "geometry": {"coordinates": [-116.272956, 43.603241], "type": "Point"}, "id": "Al7zxQUPvbM6oOcYzclyAWT_HaY=", "properties": {"@spider": "usps_collection_boxes", "addr:city": "BOISE", "addr:country": "US", "addr:full": "200 S COLE RD", "addr:postcode": "83709", "addr:state": "ID", "amenity": "post_box", "brand": "United States Postal Service", "brand:wikidata": "Q668687", "collection_times": "Mo-Fr 16:00; Sa 13:00", "name": "USPS COLLECTION BOX - BLUE BOX", "note": "ON 12/24 AND 12/31, THIS BOX MAY BE COLLECTED AS EARLY AS 12 NOON.", "nsi_id": "unitedstatespostalservice-a77078", "operator": "United States Postal Service", "operator:short": "USPS", "operator:type": "public", "operator:wikidata": "Q668687", "ref": "8370900023"}, "type": "Feature"}
{"dataset_attributes": {"@spider": "usps_collection_boxes"}, "geometry": {"coordinates": [-116.311864, 43.590626], "type": "Point"}, "id": "poABKHQN-kpdDYDG2DA4wNjIm2k=", "properties": {"@spider": "usps_collection_boxes", "addr:city": "BOISE", "addr:country": "US", "addr:full": "10400 W OVERLAND RD", "addr:postcode": "83709", "addr:state": "ID", "amenity": "post_box", "brand": "United States Postal Service", "brand:wikidata": "Q668687", "collection_times": "Mo-Sa 08:30", "name": "USPS COLLECTION BOX - BLUE BOX", "nsi_id": "unitedstatespostalservice-a77078", "operator": "United States Postal Service", "operator:short": "USPS", "operator:type": "public", "operator:wikidata": "Q668687", "ref": "8370900025"}, "type": "Feature"}
{"dataset_attributes": {"@spider": "usps_collection_boxes"}, "geometry": {"coordinates": [-116.296468, 43.59326], "type": "Point"}, "id": "9iJ3T6bjtpg5eo5p8mMRyEWFENI=", "properties": {"@spider": "usps_collection_boxes", "addr:city": "BOISE", "addr:country": "US", "addr:full": "9196 W BARNES DR", "addr:postcode": "83709", "addr:state": "ID", "amenity": "post_box", "brand": "United States Postal Service", "brand:wikidata": "Q668687", "collection_times": "Mo-Fr 17:00; Sa 13:00", "name": "USPS COLLECTION BOX - BLUE BOX", "note": "ON 12/24 AND 12/31, THIS BOX MAY BE COLLECTED AS EARLY AS 12 NOON.", "nsi_id": "unitedstatespostalservice-a77078", "operator": "United States Postal Service", "operator:short": "USPS", "operator:type": "public", "operator:wikidata": "Q668687", "ref": "8370900029"}, "type": "Feature"}
{"dataset_attributes": {"@spider": "usps_collection_boxes"}, "geometry": {"coordinates": [-116.313309, 43.592562], "type": "Point"}, "id": "PeGHBUiI4x0WiAjNkob_Z7MOR18=", "properties": {"@spider": "usps_collection_boxes", "addr:city": "BOISE", "addr:country": "US", "addr:full": "1350 S FIVE MILE RD", "addr:postcode": "83709", "addr:state": "ID", "amenity": "post_box", "brand": "United States Postal Service", "brand:wikidata": "Q668687", "collection_times": "Mo-Fr 17:00; Sa 15:00", "name": "USPS COLLECTION BOX - APC", "note": "ON 12/24 AND 12/31, THIS BOX MAY BE COLLECTED AS EARLY AS 12 NOON.", "nsi_id": "unitedstatespostalservice-a77078", "operator": "United States Postal Service", "operator:short": "USPS", "operator:type": "public", "operator:wikidata": "Q668687", "ref": "8370900034"}, "type": "Feature"}
{"dataset_attributes": {"@spider": "usps_collection_boxes"}, "geometry": {"coordinates": [-116.313881, 43.545337], "type": "Point"}, "id": "GheoqmvTufAztzXmbqq5Uls5Xl8=", "properties": {"@spider": "usps_collection_boxes", "addr:city": "BOISE", "addr:country": "US", "addr:full": "10565 W LAKE HAZEL RD", "addr:postcode": "83709", "addr:state": "ID", "amenity": "post_box", "brand": "United States Postal Service", "brand:wikidata": "Q668687", "collection_times": "Mo-Fr 17:15; Sa 13:00", "name": "USPS COLLECTION BOX - BLUE BOX", "note": "ON 12/24 AND 12/31, THIS BOX MAY BE COLLECTED AS EARLY AS 12 NOON.", "nsi_id": "unitedstatespostalservice-a77078", "operator": "United States Postal Service", "operator:short": "USPS", "operator:type": "public", "operator:wikidata": "Q668687", "ref": "8370900035"}, "type": "Feature"}
{"dataset_attributes": {"@spider": "usps_collection_boxes"}, "geometry": {"coordinates": [-116.313309, 43.592562], "type": "Point"}, "id": "ms4n51CxfHVpluMOC6hjmUY7Eyo=", "properties": {"@spider": "usps_collection_boxes", "addr:city": "BOISE", "addr:country": "US", "addr:full": "1350 S FIVE MILE RD", "addr:postcode": "83709", "addr:state": "ID", "amenity": "post_box", "brand": "United States Postal Service", "brand:wikidata": "Q668687", "collection_times": "Mo-Fr 17:00; Sa 15:00", "name": "USPS COLLECTION BOX - PO LOBBY", "note": "ON 12/24 AND 12/31, THIS BOX MAY BE COLLECTED AS EARLY AS 12 NOON.", "nsi_id": "unitedstatespostalservice-a77078", "operator": "United States Postal Service", "operator:short": "USPS", "operator:type": "public", "operator:wikidata": "Q668687", "ref": "8370900036"}, "type": "Feature"}
{"dataset_attributes": {"@spider": "usps_collection_boxes"}, "geometry": {"coordinates": [-116.313309, 43.592562], "type": "Point"}, "id": "XJz7iR8ajYydo6JmOp-T8US6L5g=", "properties": {"@spider": "usps_collection_boxes", "addr:city": "BOISE", "addr:country": "US", "addr:full": "1350 S FIVE MILE RD", "addr:postcode": "83709", "addr:state": "ID", "amenity": "post_box", "brand": "United States Postal Service", "brand:wikidata": "Q668687", "collection_times": "Mo-Fr 17:00; Sa 15:00", "name": "USPS COLLECTION BOX - PO LOBBY", "note": "ON 12/24 AND 12/31, THIS BOX MAY BE COLLECTED AS EARLY AS 12 NOON.", "nsi_id": "unitedstatespostalservice-a77078", "operator": "United States Postal Service", "operator:short": "USPS", "operator:type": "public", "operator:wikidata": "Q668687", "ref": "8370900043"}, "type": "Feature"}
{"dataset_attributes": {"@spider": "usps_collection_boxes"}, "geometry": {"coordinates": [-116.190799, 43.603366], "type": "Point"}, "id": "3IcQSEUYCSrLmo-PBaN-GHw-TE8=", "properties": {"@spider": "usps_collection_boxes", "addr:city": "BOISE", "addr:country": "US", "addr:full": "815 E PARK BLVD", "addr:postcode": "83712", "addr:state": "ID", "amenity": "post_box", "brand": "United States Postal Service", "brand:wikidata": "Q668687", "collection_times": "Mo-Fr 17:00", "name": "USPS COLLECTION BOX - BLUE BOX", "note": "ON 12/24 AND 12/31, THIS BOX MAY BE COLLECTED AS EARLY AS 12 NOON.", "nsi_id": "unitedstatespostalservice-a77078", "operator": "United States Postal Service", "operator:short": "USPS", "operator:type": "public", "operator:wikidata": "Q668687", "ref": "8371200004"}, "type": "Feature"}
{"dataset_attributes": {"@spider": "usps_collection_boxes"}, "geometry": {"coordinates": [-116.189976, 43.604361], "type": "Point"}, "id": "o_I3omTGpyBeanPBZUSo3ikoSdc=", "properties": {"@spider": "usps_collection_boxes", "addr:city": "BOISE", "addr:country": "US", "addr:full": "800 E PARK BLVD", "addr:postcode": "83712", "addr:state": "ID", "amenity": "post_box", "brand": "United States Postal Service", "brand:wikidata": "Q668687", "collection_times": "Mo-Fr 17:00; Sa 13:00", "name": "USPS COLLECTION BOX - BLUE BOX", "note": "ON 12/24 AND 12/31, THIS BOX MAY BE COLLECTED AS EARLY AS 12 NOON.", "nsi_id": "unitedstatespostalservice-a77078", "operator": "United States Postal Service", "operator:short": "USPS", "operator:type": "public", "operator:wikidata": "Q668687", "ref": "8371200009"}, "type": "Feature"}
{"dataset_attributes": {"@spider": "usps_collection_boxes"}, "geometry": {"coordinates": [-116.315458, 43.610039], "type": "Point"}, "id": "v1nmQUqsZdNBcwznm26G51lk3HA=", "properties": {"@spider": "usps_collection_boxes", "addr:city": "BOISE", "addr:country": "US", "addr:full": "10688 W EXECUTIVE DR", "addr:postcode": "83713", "addr:state": "ID", "amenity": "post_box", "brand": "United States Postal Service", "brand:wikidata": "Q668687", "collection_times": "Mo-Fr 16:45; Sa 13:00", "name": "USPS COLLECTION BOX - BLUE BOX", "note": "ON 12/24 AND 12/31, THIS BOX MAY BE COLLECTED AS EARLY AS 12 NOON.", "nsi_id": "unitedstatespostalservice-a77078", "operator": "United States Postal Service", "operator:short": "USPS", "operator:type": "public", "operator:wikidata": "Q668687", "ref": "8371300001"}, "type": "Feature"}
{"dataset_attributes": {"@spider": "usps_collection_boxes"}, "geometry": {"coordinates": [-116.336512, 43.659758], "type": "Point"}, "id": "AuylEpcENeZkmay-5fRI1nBAtBg=", "properties": {"@spider": "usps_collection_boxes", "addr:city": "BOISE", "addr:country": "US", "addr:full": "12302 W EXPLORER DR", "addr:postcode": "83713", "addr:state": "ID", "amenity": "post_box", "brand": "United States Postal Service", "brand:wikidata": "Q668687", "collection_times": "Mo-Fr 15:45; Sa 13:00", "name": "USPS COLLECTION BOX - BLUE BOX", "note": "ON 12/24 AND 12/31, THIS BOX MAY BE COLLECTED AS EARLY AS 12 NOON.", "nsi_id": "unitedstatespostalservice-a77078", "operator": "United States Postal Service", "operator:short": "USPS", "operator:type": "public", "operator:wikidata": "Q668687", "ref": "8371300003"}, "type": "Feature"}
{"dataset_attributes": {"@spider": "usps_collection_boxes"}, "geometry": {"coordinates": [-116.238626, 43.621795], "type": "Point"}, "id": "uXT5tpvLB1EnGmlM1fLgvTe0BAw=", "properties": {"@spider": "usps_collection_boxes", "addr:city": "BOISE", "addr:country": "US", "addr:full": "100 W 33RD ST", "addr:postcode": "83714", "addr:state": "ID", "amenity": "post_box", "brand": "United States Postal Service", "brand:wikidata": "Q668687", "collection_times": "Mo-Fr 10:00", "name": "USPS COLLECTION BOX - BLUE BOX", "nsi_id": "unitedstatespostalservice-a77078", "operator": "United States Postal Service", "operator:short": "USPS", "operator:type": "public", "operator:wikidata": "Q668687", "ref": "8371400000"}, "type": "Feature"}
{"dataset_attributes": {"@spider": "usps_collection_boxes"}, "geometry": {"coordinates": [-116.27541, 43.645672], "type": "Point"}, "id": "7WC-uKzUWNNezjJY_WyACsaS7wY=", "properties": {"@spider": "usps_collection_boxes", "addr:city": "BOISE", "addr:country": "US", "addr:full": "5425 W CHINDEN BLVD", "addr:postcode": "83714", "addr:state": "ID", "amenity": "post_box", "brand": "United States Postal Service", "brand:wikidata": "Q668687", "collection_times": "Mo-Fr 10:00", "name": "USPS COLLECTION BOX - BLUE BOX", "nsi_id": "unitedstatespostalservice-a77078", "operator": "United States Postal Service", "operator:short": "USPS", "operator:type": "public", "operator:wikidata": "Q668687", "ref": "8371400004"}, "type": "Feature"}
{"dataset_attributes": {"@spider": "usps_collection_boxes"}, "geometry": {"coordinates": [-116.282398, 43.659454], "type": "Point"}, "id": "uj9l2f0uqeEkLb57r2TG6Iz4mw0=", "properties": {"@spider": "usps_collection_boxes", "addr:city": "BOISE", "addr:country": "US", "addr:full": "8100 W MARIGOLD ST", "addr:postcode": "83714", "addr:state": "ID", "amenity": "post_box", "brand": "United States Postal Service", "brand:wikidata": "Q668687", "collection_times": "Mo-Fr 16:45; Sa 17:00", "name": "USPS COLLECTION BOX - BLUE BOX", "note": "ON 12/24 AND 12/31, THIS BOX MAY BE COLLECTED AS EARLY AS 12 NOON.", "nsi_id": "unitedstatespostalservice-a77078", "operator": "United States Postal Service", "operator:short": "USPS", "operator:type": "public", "operator:wikidata": "Q668687", "ref": "8371400005"}, "type": "Feature"}
{"dataset_attributes": {"@spider": "usps_collection_boxes"}, "geometry": {"coordinates": [-116.283188, 43.659279], "type": "Point"}, "id": "lAo5oD4pBUq-RnvImUVED7-POXI=", "properties": {"@spider": "usps_collection_boxes", "addr:city": "BOISE", "addr:country": "US", "addr:full": "8100 W MARIGOLD ST", "addr:postcode": "83714", "addr:state": "ID", "amenity": "post_box", "brand": "United States Postal Service", "brand:wikidata": "Q668687", "collection_times": "Mo-Fr 16:45; Sa 15:30", "name": "USPS COLLECTION BOX - PO LOBBY", "note": "ON 12/24 AND 12/31, THIS BOX MAY BE COLLECTED AS EARLY AS 12 NOON.", "nsi_id": "unitedstatespostalservice-a77078", "operator": "United States Postal Service", "operator:short": "USPS", "operator:type": "public", "operator:wikidata": "Q668687", "ref": "8371400007"}, "type": "Feature"}
{"dataset_attributes": {"@spider": "usps_collection_boxes"}, "geometry": {"coordinates": [-116.283188, 43.659279], "type": "Point"}, "id": "iwBrI2hNuitJZUutou6jYOslwNI=", "properties": {"@spider": "usps_collection_boxes", "addr:city": "BOISE", "addr:country": "US", "addr:full": "8100 W MARIGOLD ST", "addr:postcode": "83714", "addr:state": "ID", "amenity": "post_box", "brand": "United States Postal Service", "brand:wikidata": "Q668687", "collection_times": "Mo-Fr 16:45; Sa 15:30", "name": "USPS COLLECTION BOX - PO LOBBY", "note": "ON 12/24 AND 12/31, THIS BOX MAY BE COLLECTED AS EARLY AS 12 NOON.", "nsi_id": "unitedstatespostalservice-a77078", "operator": "United States Postal Service", "operator:short": "USPS", "operator:type": "public", "operator:wikidata": "Q668687", "ref": "8371400009"}, "type": "Feature"}
{"dataset_attributes": {"@spider": "usps_collection_boxes"}, "geometry": {"coordinates": [-116.283188, 43.659279], "type": "Point"}, "id": "0GcOvCGeFgxE4cVZ8wvMN7Joe8E=", "properties": {"@spider": "usps_collection_boxes", "addr:city": "BOISE", "addr:country": "US", "addr:full": "8100 W MARIGOLD ST", "addr:postcode": "83714", "addr:state": "ID", "amenity": "post_box", "brand": "United States Postal Service", "brand:wikidata": "Q668687", "collection_times": "Mo-Fr 16:45; Sa 15:30", "name": "USPS COLLECTION BOX - APC", "note": "ON 12/24 AND 12/31, THIS BOX MAY BE COLLECTED AS EARLY AS 12 NOON.", "nsi_id": "unitedstatespostalservice-a77078", "operator": "United States Postal Service", "operator:short": "USPS", "operator:type": "public", "operator:wikidata": "Q668687", "ref": "8371400010"}, "type": "Feature"}
{"dataset_attributes": {"@spider": "usps_collection_boxes"}, "geometry": {"coordinates": [-116.282339916, 43.659294483], "type": "Point"}, "id": "_Z46nx9raiw_RkC6Rf8irLJTV4o=", "properties": {"@spider": "usps_collection_boxes", "addr:city": "BOISE", "addr:country": "US", "addr:full": "8100 W MARIGOLD ST", "addr:postcode": "83714", "addr:state": "ID", "amenity": "post_box", "brand": "United States Postal Service", "brand:wikidata": "Q668687", "collection_times": "Mo-Fr 17:00", "name": "USPS COLLECTION BOX - PO LOBBY", "note": "ON 12/24 AND 12/31, THIS BOX MAY BE COLLECTED AS EARLY AS 12 NOON.", "nsi_id": "unitedstatespostalservice-a77078", "operator": "United States Postal Service", "operator:short": "USPS", "operator:type": "public", "operator:wikidata": "Q668687", "ref": "8371400013"}, "type": "Feature"}
{"dataset_attributes": {"@spider": "usps_collection_boxes"}, "geometry": {"coordinates": [-116.155202, 43.546967], "type": "Point"}, "id": "zGQsvC6ILoT3uaoHX4HIdSCYB14=", "properties": {"@spider": "usps_collection_boxes", "addr:city": "BOISE", "addr:country": "US", "addr:full": "2208 E SUMMERSWEET DR", "addr:postcode": "83716", "addr:state": "ID", "amenity": "post_box", "brand": "United States Postal Service", "brand:wikidata": "Q668687", "collection_times": "Mo-Fr 16:45; Sa 14:00", "name": "USPS COLLECTION BOX - BLUE BOX", "note": "ON 12/24 AND 12/31, THIS BOX MAY BE COLLECTED AS EARLY AS 12 NOON.", "nsi_id": "unitedstatespostalservice-a77078", "operator": "United States Postal Service", "operator:short": "USPS", "operator:type": "public", "operator:wikidata": "Q668687", "ref": "8371600001"}, "type": "Feature"}
{"dataset_attributes": {"@spider": "usps_collection_boxes"}, "geometry": {"coordinates": [-116.155124, 43.546747], "type": "Point"}, "id": "vYvlvzjbJ2r6NI26fsT3KNlbh-E=", "properties": {"@spider": "usps_collection_boxes", "addr:city": "BOISE", "addr:country": "US", "addr:full": "2208 E SUMMERSWEET DR", "addr:postcode": "83716", "addr:state": "ID", "amenity": "post_box", "brand": "United States Postal Service", "brand:wikidata": "Q668687", "collection_times": "Mo-Fr 17:00", "name": "USPS COLLECTION BOX - PO LOBBY", "note": "ON 12/24 AND 12/31, THIS BOX MAY BE COLLECTED AS EARLY AS 12 NOON.", "nsi_id": "unitedstatespostalservice-a77078", "operator": "United States Postal Service", "operator:short": "USPS", "operator:type": "public", "operator:wikidata": "Q668687", "ref": "8371600002"}, "type": "Feature"}
{"dataset_attributes": {"@spider": "usps_collection_boxes"}, "geometry": {"coordinates": [-116.155124, 43.546747], "type": "Point"}, "id": "YAZQxS42yBmmg4kyXWA1g6sHoiw=", "properties": {"@spider": "usps_collection_boxes", "addr:city": "BOISE", "addr:country": "US", "addr:full": "2208 E SUMMERSWEET DR", "addr:postcode": "83716", "addr:state": "ID", "amenity": "post_box", "brand": "United States Postal Service", "brand:wikidata": "Q668687", "collection_times": "Mo-Fr 17:00", "name": "USPS COLLECTION BOX - PO LOBBY", "note": "ON 12/24 AND 12/31, THIS BOX MAY BE COLLECTED AS EARLY AS 12 NOON.", "nsi_id": "unitedstatespostalservice-a77078", "operator": "United States Postal Service", "operator:short": "USPS", "operator:type": "public", "operator:wikidata": "Q668687", "ref": "8371600003"}, "type": "Feature"}
{"dataset_attributes": {"@spider": "usps_collection_boxes"}, "geometry": {"coordinates": [-116.155463419, 43.546859568], "type": "Point"}, "id": "TkuJ03zxi5aLygu46NKdgAVDm0c=", "properties": {"@spider": "usps_collection_boxes", "addr:city": "BOISE", "addr:country": "US", "addr:full": "2208 E SUMMERSWEET DR", "addr:postcode": "83716", "addr:state": "ID", "amenity": "post_box", "brand": "United States Postal Service", "brand:wikidata": "Q668687", "collection_times": "Mo-Fr 17:00", "name": "USPS COLLECTION BOX - PO LOBBY", "note": "ON 12/24 AND 12/31, THIS BOX MAY BE COLLECTED AS EARLY AS 12 NOON.", "nsi_id": "unitedstatespostalservice-a77078", "operator": "United States Postal Service", "operator:short": "USPS", "operator:type": "public", "operator:wikidata": "Q668687", "ref": "8371600005"}, "type": "Feature"}
