{"geometry": {"coordinates": [-116.699004998, 47.941622445], "type": "Point"}, "id": "tl-SBFQ__VsYKZtdIJwmIwyGjNo=", "properties": {"@source_uri": "https://tools.usps.com/UspsToolsRestServices/rest/POLocator/findLocations", "@spider": "usps_collection_boxes", "addr:city": "ATHOL", "addr:country": "US", "addr:postcode": "83801", "addr:state": "ID", "addr:street_address": "29777 N OLD HIGHWAY 95", "amenity": "post_box", "collection_times": "Mo-Fr 16:45; Sa 13:30", "indoor": "yes", "note": "ON 12/24 AND 12/31, THIS BOX MAY BE COLLECTED AS EARLY AS 12 NOON.", "nsi_id": "unitedstatespostalservice-a77078", "operator": "United States Postal Service", "operator:short": "USPS", "operator:type": "public", "operator:wikidata": "Q668687", "ref": "8380100003"}, "type": "Feature"}
{"geometry": {"coordinates": [-116.699004998, 47.941622445], "type": "Point"}, "id": "Xkd3vAilBq8FXUhNKoEU16ae95g=", "properties": {"@source_uri": "https://tools.usps.com/UspsToolsRestServices/rest/POLocator/findLocations", "@spider": "usps_collection_boxes", "addr:city": "ATHOL", "addr:country": "US", "addr:postcode": "83801", "addr:state": "ID", "addr:street_address": "29777 N OLD HIGHWAY 95", "amenity": "post_box", "collection_times": "Mo-Fr 16:45; Sa 13:30", "note": "ON 12/24 AND 12/31, THIS BOX MAY BE COLLECTED AS EARLY AS 12 NOON.", "nsi_id": "unitedstatespostalservice-a77078", "operator": "United States Postal Service", "operator:short": "USPS", "operator:type": "public", "operator:wikidata": "Q668687", "ref": "8380100004"}, "type": "Feature"}
{"geometry": {"coordinates": [-116.699004998, 47.941622445], "type": "Point"}, "id": "jt4hRtH1m5HPEca9BEp9TSnm_-0=", "properties": {"@source_uri": "https://tools.usps.com/UspsToolsRestServices/rest/POLocator/findLocations", "@spider": "usps_collection_boxes", "addr:city": "ATHOL", "addr:country": "US", "addr:postcode": "83801", "addr:state": "ID", "addr:street_address": "29777 N OLD HIGHWAY 95", "amenity": "post_box", "collection_times": "Mo-Fr 17:00; Sa 11:00", "indoor": "yes", "note": "ON 12/24 AND 12/31, THIS BOX MAY BE COLLECTED AS EARLY AS 12 NOON.", "nsi_id": "unitedstatespostalservice-a77078", "operator": "United States Postal Service", "operator:short": "USPS", "operator:type": "public", "operator:wikidata": "Q668687", "ref": "8380100005"}, "type": "Feature"}
{"geometry": {"coordinates": [-115.807073, 47.250847], "type": "Point"}, "id": "aFZQv44jRKQKh72OkwH5A3x5Juw=", "properties": {"@source_uri": "https://tools.usps.com/UspsToolsRestServices/rest/POLocator/findLocations", "@spider": "usps_collection_boxes", "addr:city": "AVERY", "addr:country": "US", "addr:postcode": "83802", "addr:state": "ID", "addr:street_address": "10 DEPOT RD", "amenity": "post_box", "collection_times": "Mo-Sa 14:30", "note": "ON 12/24 AND 12/31, THIS BOX MAY BE COLLECTED AS EARLY AS 12 NOON.", "nsi_id": "unitedstatespostalservice-a77078", "operator": "United States Postal Service", "operator:short": "USPS", "operator:type": "public", "operator:wikidata": "Q668687", "ref": "8380200001"}, "type": "Feature"}
{"geometry": {"coordinates": [-115.807073, 47.250847], "type": "Point"}, "id": "XvZ5faMCKctmtXOaR3_O_p2icOA=", "properties": {"@source_uri": "https://tools.usps.com/UspsToolsRestServices/rest/POLocator/findLocations", "@spider": "usps_collection_boxes", "addr:city": "AVERY", "addr:country": "US", "addr:postcode": "83802", "addr:state": "ID", "addr:street_address": "10 DEPOT RD", "amenity": "post_box", "collection_times": "Mo-Sa 14:30", "indoor": "yes", "note": "ON 12/24 AND 12/31, THIS BOX MAY BE COLLECTED AS EARLY AS 12 NOON.", "nsi_id": "unitedstatespostalservice-a77078", "operator": "United States Postal Service", "operator:short": "USPS", "operator:type": "public", "operator:wikidata": "Q668687", "ref": "8380200002"}, "type": "Feature"}
{"geometry": {"coordinates": [-115.807096117, 47.250791787], "type": "Point"}, "id": "Jg4XBhQ17gaRSRQ2CNOlKNGbbQs=", "properties": {"@source_uri": "https://tools.usps.com/UspsToolsRestServices/rest/POLocator/findLocations", "@spider": "usps_collection_boxes", "addr:city": "AVERY", "addr:country": "US", "addr:postcode": "83802", "addr:state": "ID", "addr:street_address": "10 DEPOT RD", "amenity": "post_box", "collection_times": "Mo-Sa 14:30", "indoor": "yes", "note": "ON 12/24 AND 12/31, THIS BOX MAY BE COLLECTED AS EARLY AS 12 NOON.", "nsi_id": "unitedstatespostalservice-a77078", "operator": "United States Postal Service", "operator:short": "USPS", "operator:type": "public", "operator:wikidata": "Q668687", "ref": "8380200003"}, "type": "Feature"}
{"geometry": {"coordinates": [-116.565911, 47.984046], "type": "Point"}, "id": "wuwxMaArQnh7JSVm76gY8uKVqxE=", "properties": {"@source_uri": "https://tools.usps.com/UspsToolsRestServices/rest/POLocator/findLocations", "@spider": "usps_collection_boxes", "addr:city": "BAYVIEW", "addr:country": "US", "addr:postcode": "83803", "addr:state": "ID", "addr:street_address": "20157 E PERIMETER RD", "amenity": "post_box", "collection_times": "Mo-Fr 16:45; Sa 10:00", "indoor": "yes", "note": "ON 12/24 AND 12/31, THIS BOX MAY BE COLLECTED AS EARLY AS 12 NOON.", "nsi_id": "unitedstatespostalservice-a77078", "operator": "United States Postal Service", "operator:short": "USPS", "operator:type": "public", "operator:wikidata": "Q668687", "ref": "8380300001"}, "type": "Feature"}
{"geometry": {"coordinates": [-116.565911, 47.984046], "type": "Point"}, "id": "yPfnXVeMbJfjlnSX2fxfKxP7ntM=", "properties": {"@source_uri": "https://tools.usps.com/UspsToolsRestServices/rest/POLocator/findLocations", "@spider": "usps_collection_boxes", "addr:city": "BAYVIEW", "addr:country": "US", "addr:postcode": "83803", "addr:state": "ID", "addr:street_address": "20157 E PERIMETER RD", "amenity": "post_box", "collection_times": "Mo-Fr 16:45; Sa 10:00", "note": "ON 12/24 AND 12/31, THIS BOX MAY BE COLLECTED AS EARLY AS 12 NOON.", "nsi_id": "unitedstatespostalservice-a77078", "operator": "United States Postal Service", "operator:short": "USPS", "operator:type": "public", "operator:wikidata": "Q668687", "ref": "8380300002"}, "type": "Feature"}
{"geometry": {"coordinates": [-116.565912, 47.984041527], "type": "Point"}, "id": "GAouUX45KIYa6WAsOR5HviWFY8g=", "properties": {"@source_uri": "https://tools.usps.com/UspsToolsRestServices/rest/POLocator/findLocations", "@spider": "usps_collection_boxes", "addr:city": "BAYVIEW", "addr:country": "US", "addr:postcode": "83803", "addr:state": "ID", "addr:street_address": "20157 E PERIMETER RD", "amenity": "post_box", "collection_times": "Mo-Fr 16:45; Sa 10:00", "indoor": "yes", "note": "ON 12/24 AND 12/31, THIS BOX MAY BE COLLECTED AS EARLY AS 12 NOON.", "nsi_id": "unitedstatespostalservice-a77078", "operator": "United States Postal Service", "operator:short": "USPS", "operator:type": "public", "operator:wikidata": "Q668687", "ref": "8380300003"}, "type": "Feature"}
{"geometry": {"coordinates": [-116.983492, 48.016177], "type": "Point"}, "id": "oc4Buf2Bmd-zr3oz8N2qpBCcAhM=", "properties": {"@source_uri": "https://tools.usps.com/UspsToolsRestServices/rest/POLocator/findLocations", "@spider": "usps_collection_boxes", "addr:city": "BLANCHARD", "addr:country": "US", "addr:postcode": "83804", "addr:state": "ID", "addr:street_address": "425 RAILROAD AVE", "amenity": "post_box", "collection_times": "Mo-Fr 16:15; Sa 10:15", "note": "ON 12/24 AND 12/31, THIS BOX MAY BE COLLECTED AS EARLY AS 12 NOON.", "nsi_id": "unitedstatespostalservice-a77078", "operator": "United States Postal Service", "operator:short": "USPS", "operator:type": "public", "operator:wikidata": "Q668687", "ref": "8380400001"}, "type": "Feature"}
{"geometry": {"coordinates": [-116.983571, 48.016172], "type": "Point"}, "id": "AKmuaUa9DC6MnHAYlkZ6-mV_1qY=", "properties": {"@source_uri": "https://tools.usps.com/UspsToolsRestServices/rest/POLocator/findLocations", "@spider": "usps_collection_boxes", "addr:city": "BLANCHARD", "addr:country": "US", "addr:postcode": "83804", "addr:state": "ID", "addr:street_address": "425 RAILROAD AVE", "amenity": "post_box", "collection_times": "Mo-Fr 16:30; Sa 10:30", "indoor": "yes", "note": "ON 12/24 AND 12/31, THIS BOX MAY BE COLLECTED AS EARLY AS 12 NOON.", "nsi_id": "unitedstatespostalservice-a77078", "operator": "United States Postal Service", "operator:short": "USPS", "operator:type": "public", "operator:wikidata": "Q668687", "ref": "8380400002"}, "type": "Feature"}
{"geometry": {"coordinates": [-116.982904097, 48.01595314], "type": "Point"}, "id": "NYPZcebokPBTIx0X5m0DUrvmFBA=", "properties": {"@source_uri": "https://tools.usps.com/UspsToolsRestServices/rest/POLocator/findLocations", "@spider": "usps_collection_boxes", "addr:city": "BLANCHARD", "addr:country": "US", "addr:postcode": "83804", "addr:state": "ID", "addr:street_address": "425 RAILROAD AVE", "amenity": "post_box", "collection_times": "Mo-Fr 16:30; Sa 10:30", "indoor": "yes", "note": "ON 12/24 AND 12/31, THIS BOX MAY BE COLLECTED AS EARLY AS 12 NOON.", "nsi_id": "unitedstatespostalservice-a77078", "operator": "United States Postal Service", "operator:short": "USPS", "operator:type": "public", "operator:wikidata": "Q668687", "ref": "8380400003"}, "type": "Feature"}
{"geometry": {"coordinates": [-116.313717, 48.696923], "type": "Point"}, "id": "kyXpYE-gf1VxtvqR6kGTpNovDeM=", "properties": {"@source_uri": "https://tools.usps.com/UspsToolsRestServices/rest/POLocator/findLocations", "@spider": "usps_collection_boxes", "addr:city": "BONNERS FERRY", "addr:country": "US", "addr:postcode": "83805", "addr:state": "ID", "addr:street_address": "7167 1ST ST", "amenity": "post_box", "collection_times": "Mo-Fr 16:00; Sa 15:45", "note": "ON 12/24 AND 12/31, THIS BOX MAY BE COLLECTED AS EARLY AS 12 NOON.", "nsi_id": "unitedstatespostalservice-a77078", "operator": "United States Postal Service", "operator:short": "USPS", "operator:type": "public", "operator:wikidata": "Q668687", "ref": "8380500001"}, "type": "Feature"}
{"geometry": {"coordinates": [-116.298449, 48.731746], "type": "Point"}, "id": "lemolENjU0bFtv2nnRLfd4ugjDg=", "properties": {"@source_uri": "https://tools.usps.com/UspsToolsRestServices/rest/POLocator/findLocations", "@spider": "usps_collection_boxes", "addr:city": "BONNERS FERRY", "addr:country": "US", "addr:postcode": "83805", "addr:state": "ID", "addr:street_address": "3000 HIGHWAY 1", "amenity": "post_box", "collection_times": "Mo-Sa 11:30", "nsi_id": "unitedstatespostalservice-a77078", "operator": "United States Postal Service", "operator:short": "USPS", "operator:type": "public", "operator:wikidata": "Q668687", "ref": "8380500002"}, "type": "Feature"}
{"geometry": {"coordinates": [-116.331834611, 48.67699326], "type": "Point"}, "id": "iK2mGO0pdvWrdoRdeX60GCPXAVQ=", "properties": {"@source_uri": "https://tools.usps.com/UspsToolsRestServices/rest/POLocator/findLocations", "@spider": "usps_collection_boxes", "addr:city": "BONNERS FERRY", "addr:country": "US", "addr:postcode": "83805", "addr:state": "ID", "addr:street_address": "6452 MAIN ST", "amenity": "post_box", "collection_times": "Mo-Sa 11:00", "nsi_id": "unitedstatespostalservice-a77078", "operator": "United States Postal Service", "operator:short": "USPS", "operator:type": "public", "operator:wikidata": "Q668687", "ref": "8380500005"}, "type": "Feature"}
{"geometry": {"coordinates": [-116.313717, 48.696923], "type": "Point"}, "id": "Dvk0pUn4j9sTnhtVg5_mSDj4rWM=", "properties": {"@source_uri": "https://tools.usps.com/UspsToolsRestServices/rest/POLocator/findLocations", "@spider": "usps_collection_boxes", "addr:city": "BONNERS FERRY", "addr:country": "US", "addr:postcode": "83805", "addr:state": "ID", "addr:street_address": "7167 1ST ST", "amenity": "post_box", "collection_times": "Mo-Fr 16:00; Sa 15:45", "indoor": "yes", "note": "ON 12/24 AND 12/31, THIS BOX MAY BE COLLECTED AS EARLY AS 12 NOON.", "nsi_id": "unitedstatespostalservice-a77078", "operator": "United States Postal Service", "operator:short": "USPS", "operator:type": "public", "operator:wikidata": "Q668687", "ref": "8380500006"}, "type": "Feature"}
{"geometry": {"coordinates": [-116.32895, 48.67798], "type": "Point"}, "id": "Ug07ZQBmf7D0WAfsuyRivbUXfUM=", "properties": {"@source_uri": "https://tools.usps.com/UspsToolsRestServices/rest/POLocator/findLocations", "@spider": "usps_collection_boxes", "addr:city": "BONNERS FERRY", "addr:country": "US", "addr:postcode": "83805", "addr:state": "ID", "addr:street_address": "6519 MAIN ST", "amenity": "post_box", "collection_times": "Mo-Sa 11:00", "nsi_id": "unitedstatespostalservice-a77078", "operator": "United States Postal Service", "operator:short": "USPS", "operator:type": "public", "operator:wikidata": "Q668687", "ref": "8380500009"}, "type": "Feature"}
{"geometry": {"coordinates": [-116.313153719, 48.69643895], "type": "Point"}, "id": "HeIZLTCftvV1Z92ygH5shaB-2jo=", "properties": {"@source_uri": "https://tools.usps.com/UspsToolsRestServices/rest/POLocator/findLocations", "@spider": "usps_collection_boxes", "addr:city": "BONNERS FERRY", "addr:country": "US", "addr:postcode": "83805", "addr:state": "ID", "addr:street_address": "7167 1ST ST", "amenity": "post_box", "collection_times": "Mo-Fr 16:30", "indoor": "yes", "note": "ON 12/24 AND 12/31, THIS BOX MAY BE COLLECTED AS EARLY AS 12 NOON.", "nsi_id": "unitedstatespostalservice-a77078", "operator": "United States Postal Service", "operator:short": "USPS", "operator:type": "public", "operator:wikidata": "Q668687", "ref": "8380500010"}, "type": "Feature"}
{"geometry": {"coordinates": [-116.396759, 46.860385], "type": "Point"}, "id": "eRcNkVxAs8rh4w2lrjg_uttga9g=", "properties": {"@source_uri": "https://tools.usps.com/UspsToolsRestServices/rest/POLocator/findLocations", "@spider": "usps_collection_boxes", "addr:city": "BOVILL", "addr:country": "US", "addr:postcode": "83806", "addr:state": "ID", "addr:street_address": "202 MAIN ST", "amenity": "post_box", "collection_times": "Mo-Fr 15:30; Sa 10:15", "note": "ON 12/24 AND 12/31, THIS BOX MAY BE COLLECTED AS EARLY AS 12 NOON.", "nsi_id": "unitedstatespostalservice-a77078", "operator": "United States Postal Service", "operator:short": "USPS", "operator:type": "public", "operator:wikidata": "Q668687", "ref": "8380600001"}, "type": "Feature"}
{"geometry": {"coordinates": [-116.396759, 46.860385], "type": "Point"}, "id": "4LVwn_0zXosuPGEyw_dc08k7dgo=", "properties": {"@source_uri": "https://tools.usps.com/UspsToolsRestServices/rest/POLocator/findLocations", "@spider": "usps_collection_boxes", "addr:city": "BOVILL", "addr:country": "US", "addr:postcode": "83806", "addr:state": "ID", "addr:street_address": "202 MAIN ST", "amenity": "post_box", "collection_times": "Mo-Fr 16:00; Sa 10:15", "indoor": "yes", "note": "ON 12/24 AND 12/31, THIS BOX MAY BE COLLECTED AS EARLY AS 12 NOON.", "nsi_id": "unitedstatespostalservice-a77078", "operator": "United States Postal Service", "operator:short": "USPS", "operator:type": "public", "operator:wikidata": "Q668687", "ref": "8380600002"}, "type": "Feature"}
{"geometry": {"coordinates": [-116.396236063, 46.860269649], "type": "Point"}, "id": "naOrtUGJ2-uFnPwqPB81-jAZEzo=", "properties": {"@source_uri": "https://tools.usps.com/UspsToolsRestServices/rest/POLocator/findLocations", "@spider": "usps_collection_boxes", "addr:city": "BOVILL", "addr:country": "US", "addr:postcode": "83806", "addr:state": "ID", "addr:street_address": "202 MAIN ST", "amenity": "post_box", "collection_times": "Mo-Fr 16:00", "indoor": "yes", "note": "ON 12/24 AND 12/31, THIS BOX MAY BE COLLECTED AS EARLY AS 12 NOON.", "nsi_id": "unitedstatespostalservice-a77078", "operator": "United States Postal Service", "operator:short": "USPS", "operator:type": "public", "operator:wikidata": "Q668687", "ref": "8380600003"}, "type": "Feature"}
{"geometry": {"coordinates": [-116.189341, 47.275688], "type": "Point"}, "id": "mCO7DXhv0PiFg1R4mUbunSNrpM4=", "properties": {"@source_uri": "https://tools.usps.com/UspsToolsRestServices/rest/POLocator/findLocations", "@spider": "usps_collection_boxes", "addr:city": "CALDER", "addr:country": "US", "addr:postcode": "83808", "addr:state": "ID", "addr:street_address": "36 RAILROAD ST", "amenity": "post_box", "collection_times": "Mo-Fr 15:00; Sa 12:30", "note": "ON 12/24 AND 12/31, THIS BOX MAY BE COLLECTED AS EARLY AS 12 NOON.", "nsi_id": "unitedstatespostalservice-a77078", "operator": "United States Postal Service", "operator:short": "USPS", "operator:type": "public", "operator:wikidata": "Q668687", "ref": "8380800001"}, "type": "Feature"}
{"geometry": {"coordinates": [-116.189341, 47.275688], "type": "Point"}, "id": "C1dE5tpgHXxe9PXnnZGlhyTyZJE=", "properties": {"@source_uri": "https://tools.usps.com/UspsToolsRestServices/rest/POLocator/findLocations", "@spider": "usps_collection_boxes", "addr:city": "CALDER", "addr:country": "US", "addr:postcode": "83808", "addr:state": "ID", "addr:street_address": "36 RAILROAD ST", "amenity": "post_box", "collection_times": "Mo-Fr 15:00; Sa 12:30", "indoor": "yes", "note": "ON 12/24 AND 12/31, THIS BOX MAY BE COLLECTED AS EARLY AS 12 NOON.", "nsi_id": "unitedstatespostalservice-a77078", "operator": "United States Postal Service", "operator:short": "USPS", "operator:type": "public", "operator:wikidata": "Q668687", "ref": "8380800002"}, "type": "Feature"}
{"geometry": {"coordinates": [-116.188862575, 47.275700575], "type": "Point"}, "id": "qnVYNnD4-Nm3RxFbY4t6Na0h5lo=", "properties": {"@source_uri": "https://tools.usps.com/UspsToolsRestServices/rest/POLocator/findLocations", "@spider": "usps_collection_boxes", "addr:city": "CALDER", "addr:country": "US", "addr:postcode": "83808", "addr:state": "ID", "addr:street_address": "36 RAILROAD ST", "amenity": "post_box", "collection_times": "Mo-Fr 15:30; Sa 12:45", "indoor": "yes", "note": "ON 12/24 AND 12/31, THIS BOX MAY BE COLLECTED AS EARLY AS 12 NOON.", "nsi_id": "unitedstatespostalservice-a77078", "operator": "United States Postal Service", "operator:short": "USPS", "operator:type": "public", "operator:wikidata": "Q668687", "ref": "8380800003"}, "type": "Feature"}
{"geometry": {"coordinates": [-116.330164, 47.548862], "type": "Point"}, "id": "5GgP1QswjkbJVyxtRYJYyX0YINg=", "properties": {"@source_uri": "https://tools.usps.com/UspsToolsRestServices/rest/POLocator/findLocations", "@spider": "usps_collection_boxes", "addr:city": "CATALDO", "addr:country": "US", "addr:postcode": "83810", "addr:state": "ID", "addr:street_address": "36180 E CANYON RD", "amenity": "post_box", "collection_times": "Mo-Fr 16:45; Sa 14:00", "note": "ON 12/24 AND 12/31, THIS BOX MAY BE COLLECTED AS EARLY AS 12 NOON.", "nsi_id": "unitedstatespostalservice-a77078", "operator": "United States Postal Service", "operator:short": "USPS", "operator:type": "public", "operator:wikidata": "Q668687", "ref": "8381000001"}, "type": "Feature"}
{"geometry": {"coordinates": [-116.330164, 47.548862], "type": "Point"}, "id": "4UaiLuiYdgzeD-1sjlYM_opMTMw=", "properties": {"@source_uri": "https://tools.usps.com/UspsToolsRestServices/rest/POLocator/findLocations", "@spider": "usps_collection_boxes", "addr:city": "CATALDO", "addr:country": "US", "addr:postcode": "83810", "addr:state": "ID", "addr:street_address": "36180 E CANYON RD", "amenity": "post_box", "collection_times": "Mo-Fr 16:45; Sa 14:00", "indoor": "yes", "note": "ON 12/24 AND 12/31, THIS BOX MAY BE COLLECTED AS EARLY AS 12 NOON.", "nsi_id": "unitedstatespostalservice-a77078", "operator": "United States Postal Service", "operator:short": "USPS", "operator:type": "public", "operator:wikidata": "Q668687", "ref": "8381000002"}, "type": "Feature"}
{"geometry": {"coordinates": [-116.330613046, 47.548725875], "type": "Point"}, "id": "I0acidHe6-xk8RERCv6jWwhuAnc=", "properties": {"@source_uri": "https://tools.usps.com/UspsToolsRestServices/rest/POLocator/findLocations", "@spider": "usps_collection_boxes", "addr:city": "CATALDO", "addr:country": "US", "addr:postcode": "83810", "addr:state": "ID", "addr:street_address": "36180 E CANYON RD", "amenity": "post_box", "collection_times": "Mo-Fr 17:00", "indoor": "yes", "note": "ON 12/24 AND 12/31, THIS BOX MAY BE COLLECTED AS EARLY AS 12 NOON.", "nsi_id": "unitedstatespostalservice-a77078", "operator": "United States Postal Service", "operator:short": "USPS", "operator:type": "public", "operator:wikidata": "Q668687", "ref": "8381000003"}, "type": "Feature"}
{"geometry": {"coordinates": [-116.1789436315, 48.1453483821], "type": "Point"}, "id": "-g3o8EnYJfddyRN9S1GXToqUQP8=", "properties": {"@source_uri": "https://tools.usps.com/UspsToolsRestServices/rest/POLocator/findLocations", "@spider": "usps_collection_boxes", "addr:city": "CLARK FORK", "addr:country": "US", "addr:postcode": "83811", "addr:state": "ID", "addr:street_address": "230 N MAIN ST", "amenity": "post_box", "collection_times": "Mo-Fr 15:45; Sa 12:00", "note": "ON 12/24 AND 12/31, THIS BOX MAY BE COLLECTED AS EARLY AS 12 NOON.", "nsi_id": "unitedstatespostalservice-a77078", "operator": "United States Postal Service", "operator:short": "USPS", "operator:type": "public", "operator:wikidata": "Q668687", "ref": "8381100001"}, "type": "Feature"}
{"geometry": {"coordinates": [-116.1789436315, 48.1453483821], "type": "Point"}, "id": "CRUq8z-oqjj_GcWULgX6rJqcEnE=", "properties": {"@source_uri": "https://tools.usps.com/UspsToolsRestServices/rest/POLocator/findLocations", "@spider": "usps_collection_boxes", "addr:city": "CLARK FORK", "addr:country": "US", "addr:postcode": "83811", "addr:state": "ID", "addr:street_address": "230 N MAIN ST", "amenity": "post_box", "collection_times": "Mo-Fr 15:45; Sa 12:00", "indoor": "yes", "note": "ON 12/24 AND 12/31, THIS BOX MAY BE COLLECTED AS EARLY AS 12 NOON.", "nsi_id": "unitedstatespostalservice-a77078", "operator": "United States Postal Service", "operator:short": "USPS", "operator:type": "public", "operator:wikidata": "Q668687", "ref": "8381100002"}, "type": "Feature"}
{"geometry": {"coordinates": [-116.178943632, 48.145348382], "type": "Point"}, "id": "R5TGEFP5FOej1WOdJtp6AVTfGI0=", "properties": {"@source_uri": "https://tools.usps.com/UspsToolsRestServices/rest/POLocator/findLocations", "@spider": "usps_collection_boxes", "addr:city": "CLARK FORK", "addr:country": "US", "addr:postcode": "83811", "addr:state": "ID", "addr:street_address": "230 N MAIN ST", "amenity": "post_box", "collection_times": "Mo-Fr 15:45; Sa 12:00", "indoor": "yes", "note": "ON 12/24 AND 12/31, THIS BOX MAY BE COLLECTED AS EARLY AS 12 NOON.", "nsi_id": "unitedstatespostalservice-a77078", "operator": "United States Postal Service", "operator:short": "USPS", "operator:type": "public", "operator:wikidata": "Q668687", "ref": "8381100003"}, "type": "Feature"}
{"geometry": {"coordinates": [-116.248757036, 47.010934874], "type": "Point"}, "id": "5pINvnWZD402rRF3wI7I4R2bq8k=", "properties": {"@source_uri": "https://tools.usps.com/UspsToolsRestServices/rest/POLocator/findLocations", "@spider": "usps_collection_boxes", "addr:city": "CLARKIA", "addr:country": "US", "addr:postcode": "83812", "addr:state": "ID", "addr:street_address": "179 CEDAR ST", "amenity": "post_box", "collection_times": "Mo-Fr 14:45; Sa 14:15", "note": "ON 12/24 AND 12/31, THIS BOX MAY BE COLLECTED AS EARLY AS 12 NOON.", "nsi_id": "unitedstatespostalservice-a77078", "operator": "United States Postal Service", "operator:short": "USPS", "operator:type": "public", "operator:wikidata": "Q668687", "ref": "8381200001"}, "type": "Feature"}
{"geometry": {"coordinates": [-116.24806, 47.013114], "type": "Point"}, "id": "-mHQLDdqHsi5bMTcmX5FxQZZGTY=", "properties": {"@source_uri": "https://tools.usps.com/UspsToolsRestServices/rest/POLocator/findLocations", "@spider": "usps_collection_boxes", "addr:city": "CLARKIA", "addr:country": "US", "addr:postcode": "83812", "addr:state": "ID", "addr:street_address": "179 CEDAR ST", "amenity": "post_box", "collection_times": "Mo-Fr 14:45; Sa 14:15", "indoor": "yes", "note": "ON 12/24 AND 12/31, THIS BOX MAY BE COLLECTED AS EARLY AS 12 NOON.", "nsi_id": "unitedstatespostalservice-a77078", "operator": "United States Postal Service", "operator:short": "USPS", "operator:type": "public", "operator:wikidata": "Q668687", "ref": "8381200002"}, "type": "Feature"}
{"geometry": {"coordinates": [-116.60072, 48.143321], "type": "Point"}, "id": "Mn7k7WhTVi9EtJHqtPNsCX8pudk=", "properties": {"@source_uri": "https://tools.usps.com/UspsToolsRestServices/rest/POLocator/findLocations", "@spider": "usps_collection_boxes", "addr:city": "COCOLALLA", "addr:country": "US", "addr:postcode": "83813", "addr:state": "ID", "addr:street_address": "31 COCOLALLA LOOP RD", "amenity": "post_box", "collection_times": "Mo-Fr 16:30; Sa 10:00", "note": "ON 12/24 AND 12/31, THIS BOX MAY BE COLLECTED AS EARLY AS 12 NOON.", "nsi_id": "unitedstatespostalservice-a77078", "operator": "United States Postal Service", "operator:short": "USPS", "operator:type": "public", "operator:wikidata": "Q668687", "ref": "8381300001"}, "type": "Feature"}
{"geometry": {"coordinates": [-116.60072, 48.143321], "type": "Point"}, "id": "fbmHOgbuBI2HoLFQCZYxD5aYV_U=", "properties": {"@source_uri": "https://tools.usps.com/UspsToolsRestServices/rest/POLocator/findLocations", "@spider": "usps_collection_boxes", "addr:city": "COCOLALLA", "addr:country": "US", "addr:postcode": "83813", "addr:state": "ID", "addr:street_address": "31 COCOLALLA LOOP RD", "amenity": "post_box", "collection_times": "Mo-Fr 16:30; Sa 10:00", "indoor": "yes", "note": "ON 12/24 AND 12/31, THIS BOX MAY BE COLLECTED AS EARLY AS 12 NOON.", "nsi_id": "unitedstatespostalservice-a77078", "operator": "United States Postal Service", "operator:short": "USPS", "operator:type": "public", "operator:wikidata": "Q668687", "ref": "8381300002"}, "type": "Feature"}
{"geometry": {"coordinates": [-116.600713722, 48.143320514], "type": "Point"}, "id": "AyN11PrJGNm0_yBmqwnFVPngRqk=", "properties": {"@source_uri": "https://tools.usps.com/UspsToolsRestServices/rest/POLocator/findLocations", "@spider": "usps_collection_boxes", "addr:city": "COCOLALLA", "addr:country": "US", "addr:postcode": "83813", "addr:state": "ID", "addr:street_address": "31 COCOLALLA LOOP RD", "amenity": "post_box", "collection_times": "Mo-Fr 16:30", "indoor": "yes", "note": "ON 12/24 AND 12/31, THIS BOX MAY BE COLLECTED AS EARLY AS 12 NOON.", "nsi_id": "unitedstatespostalservice-a77078", "operator": "United States Postal Service", "operator:short": "USPS", "operator:type": "public", "operator:wikidata": "Q668687", "ref": "8381300003"}, "type": "Feature"}
{"geometry": {"coordinates": [-116.801834999, 47.6979000018], "type": "Point"}, "id": "L4igiSeBEjVlXc2aCYK3rkeLa5M=", "properties": {"@source_uri": "https://tools.usps.com/UspsToolsRestServices/rest/POLocator/findLocations", "@spider": "usps_collection_boxes", "addr:city": "COEUR D ALENE", "addr:country": "US", "addr:postcode": "83814", "addr:state": "ID", "addr:street_address": "1201 W IRONWOOD DR", "amenity": "post_box", "collection_times": "Mo-Sa 09:15", "nsi_id": "unitedstatespostalservice-a77078", "operator": "United States Postal Service", "operator:short": "USPS", "operator:type": "public", "operator:wikidata": "Q668687", "ref": "8381400005"}, "type": "Feature"}
{"geometry": {"coordinates": [-116.768049, 47.673832], "type": "Point"}, "id": "5CHlrk_Y6ve3Oj91n99sC7xgI9Q=", "properties": {"@source_uri": "https://tools.usps.com/UspsToolsRestServices/rest/POLocator/findLocations", "@spider": "usps_collection_boxes", "addr:city": "COEUR D ALENE", "addr:country": "US", "addr:postcode": "83814", "addr:state": "ID", "addr:street_address": "1215 E SHERMAN AVE", "amenity": "post_box", "collection_times": "Mo-Sa 09:00", "nsi_id": "unitedstatespostalservice-a77078", "operator": "United States Postal Service", "operator:short": "USPS", "operator:type": "public", "operator:wikidata": "Q668687", "ref": "8381400008"}, "type": "Feature"}
{"geometry": {"coordinates": [-116.783869982, 47.673770011], "type": "Point"}, "id": "89G9UnkCZyFMYdGLt0qw3JA03GA=", "properties": {"@source_uri": "https://tools.usps.com/UspsToolsRestServices/rest/POLocator/findLocations", "@spider": "usps_collection_boxes", "addr:city": "COEUR D ALENE", "addr:country": "US", "addr:postcode": "83814", "addr:state": "ID", "addr:street_address": "201 E SHERMAN AVE", "amenity": "post_box", "collection_times": "Mo-Fr 08:45", "nsi_id": "unitedstatespostalservice-a77078", "operator": "United States Postal Service", "operator:short": "USPS", "operator:type": "public", "operator:wikidata": "Q668687", "ref": "8381400013"}, "type": "Feature"}
{"geometry": {"coordinates": [-116.781112624, 47.673569127], "type": "Point"}, "id": "gk8wrbwbsSAzS_0vcJZTCLXyLAE=", "properties": {"@source_uri": "https://tools.usps.com/UspsToolsRestServices/rest/POLocator/findLocations", "@spider": "usps_collection_boxes", "addr:city": "COEUR D ALENE", "addr:country": "US", "addr:postcode": "83814", "addr:state": "ID", "addr:street_address": "102 N 4TH ST", "amenity": "post_box", "collection_times": "Mo-Fr 09:15", "nsi_id": "unitedstatespostalservice-a77078", "operator": "United States Postal Service", "operator:short": "USPS", "operator:type": "public", "operator:wikidata": "Q668687", "ref": "8381400018"}, "type": "Feature"}
{"geometry": {"coordinates": [-116.7929830387, 47.6935950144], "type": "Point"}, "id": "SzcAfzE5WB10MFLAv6Uv7vrud_8=", "properties": {"@source_uri": "https://tools.usps.com/UspsToolsRestServices/rest/POLocator/findLocations", "@spider": "usps_collection_boxes", "addr:city": "COEUR D ALENE", "addr:country": "US", "addr:postcode": "83814", "addr:state": "ID", "addr:street_address": "700 W IRONWOOD DR", "amenity": "post_box", "collection_times": "Mo-Sa 09:00", "nsi_id": "unitedstatespostalservice-a77078", "operator": "United States Postal Service", "operator:short": "USPS", "operator:type": "public", "operator:wikidata": "Q668687", "ref": "8381400022"}, "type": "Feature"}
{"geometry": {"coordinates": [-116.802902, 47.693972], "type": "Point"}, "id": "7krEw1T_3l84fdMwuntrpHyPsJM=", "properties": {"@source_uri": "https://tools.usps.com/UspsToolsRestServices/rest/POLocator/findLocations", "@spider": "usps_collection_boxes", "addr:city": "COEUR D ALENE", "addr:country": "US", "addr:postcode": "83814", "addr:state": "ID", "addr:street_address": "1910 NORTHWEST BLVD", "amenity": "post_box", "collection_times": "Mo-Fr 09:15", "nsi_id": "unitedstatespostalservice-a77078", "operator": "United States Postal Service", "operator:short": "USPS", "operator:type": "public", "operator:wikidata": "Q668687", "ref": "8381400038"}, "type": "Feature"}
{"geometry": {"coordinates": [-116.777330002, 47.673989994], "type": "Point"}, "id": "AFWPDCdrKbz5Wmrt0txX-QIm3_s=", "properties": {"@source_uri": "https://tools.usps.com/UspsToolsRestServices/rest/POLocator/findLocations", "@spider": "usps_collection_boxes", "addr:city": "COEUR D ALENE", "addr:country": "US", "addr:postcode": "83814", "addr:state": "ID", "addr:street_address": "111 N 7TH ST", "amenity": "post_box", "collection_times": "Mo-Fr 16:45", "note": "ON 12/24 AND 12/31, THIS BOX MAY BE COLLECTED AS EARLY AS 12 NOON.", "nsi_id": "unitedstatespostalservice-a77078", "operator": "United States Postal Service", "operator:short": "USPS", "operator:type": "public", "operator:wikidata": "Q668687", "ref": "8381400043"}, "type": "Feature"}
{"geometry": {"coordinates": [-116.7812290121, 47.6868870192], "type": "Point"}, "id": "QvrNmcOYa7HWFZO144axBCfeheQ=", "properties": {"@source_uri": "https://tools.usps.com/UspsToolsRestServices/rest/POLocator/findLocations", "@spider": "usps_collection_boxes", "addr:city": "COEUR D ALENE", "addr:country": "US", "addr:postcode": "83814", "addr:state": "ID", "addr:street_address": "1217 N 4TH ST", "amenity": "post_box", "collection_times": "Mo-Sa 09:00", "nsi_id": "unitedstatespostalservice-a77078", "operator": "United States Postal Service", "operator:short": "USPS", "operator:type": "public", "operator:wikidata": "Q668687", "ref": "8381400045"}, "type": "Feature"}
{"geometry": {"coordinates": [-116.793053, 47.68208], "type": "Point"}, "id": "DFsCDElBDXloZG4IRxJYeRXK0tQ=", "properties": {"@source_uri": "https://tools.usps.com/UspsToolsRestServices/rest/POLocator/findLocations", "@spider": "usps_collection_boxes", "addr:city": "COEUR D ALENE", "addr:country": "US", "addr:postcode": "83814", "addr:state": "ID", "addr:street_address": "610 W HUBBARD ST", "amenity": "post_box", "collection_times": "Mo-Fr 09:15", "nsi_id": "unitedstatespostalservice-a77078", "operator": "United States Postal Service", "operator:short": "USPS", "operator:type": "public", "operator:wikidata": "Q668687", "ref": "8381400048"}, "type": "Feature"}
{"geometry": {"coordinates": [-116.777335, 47.674016], "type": "Point"}, "id": "v1D2obfIjm1glVvsRrsdihtQ-5Y=", "properties": {"@source_uri": "https://tools.usps.com/UspsToolsRestServices/rest/POLocator/findLocations", "@spider": "usps_collection_boxes", "addr:city": "COEUR D ALENE", "addr:country": "US", "addr:postcode": "83814", "addr:state": "ID", "addr:street_address": "111 N 7TH ST", "amenity": "post_box", "collection_times": "Mo-Fr 17:30; Sa 14:45", "indoor": "yes", "note": "ON 12/24 AND 12/31, THIS BOX MAY BE COLLECTED AS EARLY AS 12 NOON.", "nsi_id": "unitedstatespostalservice-a77078", "operator": "United States Postal Service", "operator:short": "USPS", "operator:type": "public", "operator:wikidata": "Q668687", "ref": "8381400056"}, "type": "Feature"}
{"geometry": {"coordinates": [-116.802438, 47.695907], "type": "Point"}, "id": "tZDDkn_KDukhd2L6JqiTqeGppXs=", "properties": {"@source_uri": "https://tools.usps.com/UspsToolsRestServices/rest/POLocator/findLocations", "@spider": "usps_collection_boxes", "addr:city": "COEUR D ALENE", "addr:country": "US", "addr:postcode": "83814", "addr:state": "ID", "addr:street_address": "2005 IRONWOOD PKWY", "amenity": "post_box", "collection_times": "Mo-Fr 09:15", "nsi_id": "unitedstatespostalservice-a77078", "operator": "United States Postal Service", "operator:short": "USPS", "operator:type": "public", "operator:wikidata": "Q668687", "ref": "8381400062"}, "type": "Feature"}
{"geometry": {"coordinates": [-116.7813499629, 47.6745400148], "type": "Point"}, "id": "YEhO1utdO4O1-CwQtbB6V2uCXRA=", "properties": {"@source_uri": "https://tools.usps.com/UspsToolsRestServices/rest/POLocator/findLocations", "@spider": "usps_collection_boxes", "addr:city": "COEUR D ALENE", "addr:country": "US", "addr:postcode": "83814", "addr:state": "ID", "addr:street_address": "205 N 4TH ST", "amenity": "post_box", "collection_times": "Mo-Sa 12:00", "nsi_id": "unitedstatespostalservice-a77078", "operator": "United States Postal Service", "operator:short": "USPS", "operator:type": "public", "operator:wikidata": "Q668687", "ref": "8381400065"}, "type": "Feature"}
{"geometry": {"coordinates": [-116.792646, 47.702511], "type": "Point"}, "id": "m-6Z2gavkZeOVnHeyWIgcHnH9AI=", "properties": {"@source_uri": "https://tools.usps.com/UspsToolsRestServices/rest/POLocator/findLocations", "@spider": "usps_collection_boxes", "addr:city": "COEUR D ALENE", "addr:country": "US", "addr:postcode": "83814", "addr:state": "ID", "addr:street_address": "501 W APPLEWAY AVE", "amenity": "post_box", "collection_times": "Mo-Sa 09:15", "nsi_id": "unitedstatespostalservice-a77078", "operator": "United States Postal Service", "operator:short": "USPS", "operator:type": "public", "operator:wikidata": "Q668687", "ref": "8381400069"}, "type": "Feature"}
{"geometry": {"coordinates": [-116.784042, 47.701465], "type": "Point"}, "id": "1LrwQnMn5fJ8EUKJXgojdW4FtWg=", "properties": {"@source_uri": "https://tools.usps.com/UspsToolsRestServices/rest/POLocator/findLocations", "@spider": "usps_collection_boxes", "addr:city": "COEUR D ALENE", "addr:country": "US", "addr:postcode": "83814", "addr:state": "ID", "addr:street_address": "111 E BEST AVE", "amenity": "post_box", "collection_times": "Mo-Sa 09:00", "nsi_id": "unitedstatespostalservice-a77078", "operator": "United States Postal Service", "operator:short": "USPS", "operator:type": "public", "operator:wikidata": "Q668687", "ref": "8381400070"}, "type": "Feature"}
{"geometry": {"coordinates": [-116.792290023, 47.675109984], "type": "Point"}, "id": "xHOLvPbluCJrXTv5sniYYIYXAQM=", "properties": {"@source_uri": "https://tools.usps.com/UspsToolsRestServices/rest/POLocator/findLocations", "@spider": "usps_collection_boxes", "addr:city": "COEUR D ALENE", "addr:country": "US", "addr:postcode": "83814", "addr:state": "ID", "addr:street_address": "310 MILITARY DR", "amenity": "post_box", "collection_times": "Mo-Sa 12:00", "nsi_id": "unitedstatespostalservice-a77078", "operator": "United States Postal Service", "operator:short": "USPS", "operator:type": "public", "operator:wikidata": "Q668687", "ref": "8381400073"}, "type": "Feature"}
{"geometry": {"coordinates": [-116.776840731, 47.673971979], "type": "Point"}, "id": "0YXpgYLcsPf6A3CG0qxFexeTm3w=", "properties": {"@source_uri": "https://tools.usps.com/UspsToolsRestServices/rest/POLocator/findLocations", "@spider": "usps_collection_boxes", "addr:city": "COEUR D ALENE", "addr:country": "US", "addr:postcode": "83814", "addr:state": "ID", "addr:street_address": "111 N 7TH ST", "amenity": "post_box", "collection_times": "Mo-Fr 17:00", "indoor": "yes", "note": "ON 12/24 AND 12/31, THIS BOX MAY BE COLLECTED AS EARLY AS 12 NOON.", "nsi_id": "unitedstatespostalservice-a77078", "operator": "United States Postal Service", "operator:short": "USPS", "operator:type": "public", "operator:wikidata": "Q668687", "ref": "8381400074"}, "type": "Feature"}
{"geometry": {"coordinates": [-116.802927, 47.712096], "type": "Point"}, "id": "ZOmoK9EKAYOHey6lWubSTIbO-Uc=", "properties": {"@source_uri": "https://tools.usps.com/UspsToolsRestServices/rest/POLocator/findLocations", "@spider": "usps_collection_boxes", "addr:city": "DALTON GARDENS", "addr:country": "US", "addr:postcode": "83815", "addr:state": "ID", "addr:street_address": "3845 N SCHREIBER WAY", "amenity": "post_box", "collection_times": "Mo-Sa 17:00", "note": "ON 12/24 AND 12/31, THIS BOX MAY BE COLLECTED AS EARLY AS 12 NOON.", "nsi_id": "unitedstatespostalservice-a77078", "operator": "United States Postal Service", "operator:short": "USPS", "operator:type": "public", "operator:wikidata": "Q668687", "ref": "8381500000"}, "type": "Feature"}
{"geometry": {"coordinates": [-116.764745, 47.722723], "type": "Point"}, "id": "4MiN4WHsjj6jPtJ-9judOCQWVk0=", "properties": {"@source_uri": "https://tools.usps.com/UspsToolsRestServices/rest/POLocator/findLocations", "@spider": "usps_collection_boxes", "addr:city": "DALTON GARDENS", "addr:country": "US", "addr:postcode": "83815", "addr:state": "ID", "addr:street_address": "5632 N 15TH ST", "amenity": "post_box", "collection_times": "Mo-Sa 09:15", "nsi_id": "unitedstatespostalservice-a77078", "operator": "United States Postal Service", "operator:short": "USPS", "operator:type": "public", "operator:wikidata": "Q668687", "ref": "8381500002"}, "type": "Feature"}
{"geometry": {"coordinates": [-116.790037, 47.732378], "type": "Point"}, "id": "ktSO9jeJsYmHwzlNvRQ62eOMR8c=", "properties": {"@source_uri": "https://tools.usps.com/UspsToolsRestServices/rest/POLocator/findLocations", "@spider": "usps_collection_boxes", "addr:city": "DALTON GARDENS", "addr:country": "US", "addr:postcode": "83815", "addr:state": "ID", "addr:street_address": "200 W HANLEY AVE", "amenity": "post_box", "collection_times": "Mo-Fr 10:00", "nsi_id": "unitedstatespostalservice-a77078", "operator": "United States Postal Service", "operator:short": "USPS", "operator:type": "public", "operator:wikidata": "Q668687", "ref": "8381500010"}, "type": "Feature"}
{"geometry": {"coordinates": [-116.790806, 47.715862], "type": "Point"}, "id": "5Owkq6d6AlVKit7i9JjhmEi6sM4=", "properties": {"@source_uri": "https://tools.usps.com/UspsToolsRestServices/rest/POLocator/findLocations", "@spider": "usps_collection_boxes", "addr:city": "DALTON GARDENS", "addr:country": "US", "addr:postcode": "83815", "addr:state": "ID", "addr:street_address": "305 W KATHLEEN AVE", "amenity": "post_box", "collection_times": "Mo-Sa 09:15", "nsi_id": "unitedstatespostalservice-a77078", "operator": "United States Postal Service", "operator:short": "USPS", "operator:type": "public", "operator:wikidata": "Q668687", "ref": "8381500012"}, "type": "Feature"}
{"geometry": {"coordinates": [-116.788342, 47.70847], "type": "Point"}, "id": "Tm2OLjuYZCPVAwpuVRJsXbYNMkk=", "properties": {"@source_uri": "https://tools.usps.com/UspsToolsRestServices/rest/POLocator/findLocations", "@spider": "usps_collection_boxes", "addr:city": "DALTON GARDENS", "addr:country": "US", "addr:postcode": "83815", "addr:state": "ID", "addr:street_address": "121 W NEIDER AVE", "amenity": "post_box", "collection_times": "Mo-Sa 08:45", "nsi_id": "unitedstatespostalservice-a77078", "operator": "United States Postal Service", "operator:short": "USPS", "operator:type": "public", "operator:wikidata": "Q668687", "ref": "8381500013"}, "type": "Feature"}
{"geometry": {"coordinates": [-116.794127, 47.712999], "type": "Point"}, "id": "tngzwXpkrUMgAnKlMH9EX-wqBUI=", "properties": {"@source_uri": "https://tools.usps.com/UspsToolsRestServices/rest/POLocator/findLocations", "@spider": "usps_collection_boxes", "addr:city": "DALTON GARDENS", "addr:country": "US", "addr:postcode": "83815", "addr:state": "ID", "addr:street_address": "560 W KATHLEEN AVE", "amenity": "post_box", "collection_times": "Mo-Sa 09:30", "nsi_id": "unitedstatespostalservice-a77078", "operator": "United States Postal Service", "operator:short": "USPS", "operator:type": "public", "operator:wikidata": "Q668687", "ref": "8381500016"}, "type": "Feature"}
{"geometry": {"coordinates": [-116.848912, 48.480081], "type": "Point"}, "id": "64LgKSVo2iZHodnr9KOgvX6TNdA=", "properties": {"@source_uri": "https://tools.usps.com/UspsToolsRestServices/rest/POLocator/findLocations", "@spider": "usps_collection_boxes", "addr:city": "COOLIN", "addr:country": "US", "addr:postcode": "83821", "addr:state": "ID", "addr:street_address": "367 BAY VIEW DR", "amenity": "post_box", "collection_times": "Mo-Fr 14:00; Sa 12:00", "indoor": "yes", "note": "ON 12/24 AND 12/31, THIS BOX MAY BE COLLECTED AS EARLY AS 12 NOON.", "nsi_id": "unitedstatespostalservice-a77078", "operator": "United States Postal Service", "operator:short": "USPS", "operator:type": "public", "operator:wikidata": "Q668687", "ref": "8382100002"}, "type": "Feature"}
{"geometry": {"coordinates": [-116.848666453, 48.480425571], "type": "Point"}, "id": "dYoIz1UDhMJLkT2bW-3GCloLK2E=", "properties": {"@source_uri": "https://tools.usps.com/UspsToolsRestServices/rest/POLocator/findLocations", "@spider": "usps_collection_boxes", "addr:city": "COOLIN", "addr:country": "US", "addr:postcode": "83821", "addr:state": "ID", "addr:street_address": "367 BAY VIEW DR", "amenity": "post_box", "collection_times": "Mo-Fr 14:45; Sa 10:30", "indoor": "yes", "note": "ON 12/24 AND 12/31, THIS BOX MAY BE COLLECTED AS EARLY AS 12 NOON.", "nsi_id": "unitedstatespostalservice-a77078", "operator": "United States Postal Service", "operator:short": "USPS", "operator:type": "public", "operator:wikidata": "Q668687", "ref": "8382100003"}, "type": "Feature"}
{"geometry": {"coordinates": [-117.03945, 48.18376], "type": "Point"}, "id": "wCZxsntPyJt9-FjGAXhlBmIWXUw=", "properties": {"@source_uri": "https://tools.usps.com/UspsToolsRestServices/rest/POLocator/findLocations", "@spider": "usps_collection_boxes", "addr:city": "NEWPORT", "addr:country": "US", "addr:postcode": "83822", "addr:state": "WA", "addr:street_address": "86 TANK RD", "amenity": "post_box", "collection_times": "Mo-Sa 09:00", "nsi_id": "unitedstatespostalservice-a77078", "operator": "United States Postal Service", "operator:short": "USPS", "operator:type": "public", "operator:wikidata": "Q668687", "ref": "8382200001"}, "type": "Feature"}
{"geometry": {"coordinates": [-116.5625019914, 46.8003539912], "type": "Point"}, "id": "QkXPdZ3ConzDEYsCJc9B6mRqhdk=", "properties": {"@source_uri": "https://tools.usps.com/UspsToolsRestServices/rest/POLocator/findLocations", "@spider": "usps_collection_boxes", "addr:city": "DEARY", "addr:country": "US", "addr:postcode": "83823", "addr:state": "ID", "addr:street_address": "407 LINE ST", "amenity": "post_box", "collection_times": "Mo-Fr 16:00; Sa 10:30", "note": "ON 12/24 AND 12/31, THIS BOX MAY BE COLLECTED AS EARLY AS 12 NOON.", "nsi_id": "unitedstatespostalservice-a77078", "operator": "United States Postal Service", "operator:short": "USPS", "operator:type": "public", "operator:wikidata": "Q668687", "ref": "8382300001"}, "type": "Feature"}
{"geometry": {"coordinates": [-116.5625019914, 46.8003539912], "type": "Point"}, "id": "LxEfQFhldKjzYCWMQrD_w8jCRRg=", "properties": {"@source_uri": "https://tools.usps.com/UspsToolsRestServices/rest/POLocator/findLocations", "@spider": "usps_collection_boxes", "addr:city": "DEARY", "addr:country": "US", "addr:postcode": "83823", "addr:state": "ID", "addr:street_address": "407 LINE ST", "amenity": "post_box", "collection_times": "Mo-Fr 16:00; Sa 10:30", "indoor": "yes", "note": "ON 12/24 AND 12/31, THIS BOX MAY BE COLLECTED AS EARLY AS 12 NOON.", "nsi_id": "unitedstatespostalservice-a77078", "operator": "United States Postal Service", "operator:short": "USPS", "operator:type": "public", "operator:wikidata": "Q668687", "ref": "8382300004"}, "type": "Feature"}
{"geometry": {"coordinates": [-116.916332739, 47.144838869], "type": "Point"}, "id": "-rhJ6ZSVXFLAlXzuIBFu_fVglJA=", "properties": {"@source_uri": "https://tools.usps.com/UspsToolsRestServices/rest/POLocator/findLocations", "@spider": "usps_collection_boxes", "addr:city": "DESMET", "addr:country": "US", "addr:postcode": "83824", "addr:state": "ID", "addr:street_address": "111 BYRNES AVE", "amenity": "post_box", "collection_times": "Sa 11:15", "indoor": "yes", "nsi_id": "unitedstatespostalservice-a77078", "operator": "United States Postal Service", "operator:short": "USPS", "operator:type": "public", "operator:wikidata": "Q668687", "ref": "8382400002"}, "type": "Feature"}
{"geometry": {"coordinates": [-116.605232, 48.248954], "type": "Point"}, "id": "0N0YLU-ok5z0KW00a7J8PjE5K-0=", "properties": {"@source_uri": "https://tools.usps.com/UspsToolsRestServices/rest/POLocator/findLocations", "@spider": "usps_collection_boxes", "addr:city": "DOVER", "addr:country": "US", "addr:postcode": "83825", "addr:state": "ID", "addr:street_address": "304 JACKSON AVE", "amenity": "post_box", "collection_times": "Mo-Fr 16:00; Sa 12:15", "note": "ON 12/24 AND 12/31, THIS BOX MAY BE COLLECTED AS EARLY AS 12 NOON.", "nsi_id": "unitedstatespostalservice-a77078", "operator": "United States Postal Service", "operator:short": "USPS", "operator:type": "public", "operator:wikidata": "Q668687", "ref": "8382500001"}, "type": "Feature"}
{"geometry": {"coordinates": [-116.605103, 48.248927], "type": "Point"}, "id": "DPwQDuqfOdLq45X1O_K7e5FWfgk=", "properties": {"@source_uri": "https://tools.usps.com/UspsToolsRestServices/rest/POLocator/findLocations", "@spider": "usps_collection_boxes", "addr:city": "DOVER", "addr:country": "US", "addr:postcode": "83825", "addr:state": "ID", "addr:street_address": "304 JACKSON AVE", "amenity": "post_box", "collection_times": "Mo-Fr 16:00; Sa 12:15", "indoor": "yes", "note": "ON 12/24 AND 12/31, THIS BOX MAY BE COLLECTED AS EARLY AS 12 NOON.", "nsi_id": "unitedstatespostalservice-a77078", "operator": "United States Postal Service", "operator:short": "USPS", "operator:type": "public", "operator:wikidata": "Q668687", "ref": "8382500002"}, "type": "Feature"}
{"geometry": {"coordinates": [-116.605799832, 48.248950493], "type": "Point"}, "id": "Lny9r4I7N1IfK1gWdlht0ynRqaA=", "properties": {"@source_uri": "https://tools.usps.com/UspsToolsRestServices/rest/POLocator/findLocations", "@spider": "usps_collection_boxes", "addr:city": "DOVER", "addr:country": "US", "addr:postcode": "83825", "addr:state": "ID", "addr:street_address": "304 JACKSON AVE", "amenity": "post_box", "collection_times": "Mo-Fr 16:00; Sa 12:15", "indoor": "yes", "note": "ON 12/24 AND 12/31, THIS BOX MAY BE COLLECTED AS EARLY AS 12 NOON.", "nsi_id": "unitedstatespostalservice-a77078", "operator": "United States Postal Service", "operator:short": "USPS", "operator:type": "public", "operator:wikidata": "Q668687", "ref": "8382500003"}, "type": "Feature"}
{"geometry": {"coordinates": [-116.180857, 49.00005], "type": "Point"}, "id": "Pk0emaeVjFbXsJaGr-HMKyzh0vU=", "properties": {"@source_uri": "https://tools.usps.com/UspsToolsRestServices/rest/POLocator/findLocations", "@spider": "usps_collection_boxes", "addr:city": "EASTPORT", "addr:country": "US", "addr:postcode": "83826", "addr:state": "ID", "addr:street_address": "100 E FERRY AVE", "amenity": "post_box", "collection_times": "Mo-Fr 13:00; Sa 12:00", "note": "ON 12/24 AND 12/31, THIS BOX MAY BE COLLECTED AS EARLY AS 12 NOON.", "nsi_id": "unitedstatespostalservice-a77078", "operator": "United States Postal Service", "operator:short": "USPS", "operator:type": "public", "operator:wikidata": "Q668687", "ref": "8382600001"}, "type": "Feature"}
{"geometry": {"coordinates": [-116.18092, 49.000106], "type": "Point"}, "id": "f714Kku6qEt3xTl59NA573po-QI=", "properties": {"@source_uri": "https://tools.usps.com/UspsToolsRestServices/rest/POLocator/findLocations", "@spider": "usps_collection_boxes", "addr:city": "EASTPORT", "addr:country": "US", "addr:postcode": "83826", "addr:state": "ID", "addr:street_address": "100 E FERRY AVE", "amenity": "post_box", "collection_times": "Mo-Fr 13:00; Sa 11:00", "indoor": "yes", "note": "ON 12/24 AND 12/31, THIS BOX MAY BE COLLECTED AS EARLY AS 12 NOON.", "nsi_id": "unitedstatespostalservice-a77078", "operator": "United States Postal Service", "operator:short": "USPS", "operator:type": "public", "operator:wikidata": "Q668687", "ref": "8382600002"}, "type": "Feature"}
{"geometry": {"coordinates": [-116.180068639, 48.999970553], "type": "Point"}, "id": "PIrioW_vmVt63iVMMKracFgnTOE=", "properties": {"@source_uri": "https://tools.usps.com/UspsToolsRestServices/rest/POLocator/findLocations", "@spider": "usps_collection_boxes", "addr:city": "EASTPORT", "addr:country": "US", "addr:postcode": "83826", "addr:state": "ID", "addr:street_address": "100 E FERRY AVE", "amenity": "post_box", "collection_times": "Mo-Fr 13:00; Sa 11:00", "indoor": "yes", "note": "ON 12/24 AND 12/31, THIS BOX MAY BE COLLECTED AS EARLY AS 12 NOON.", "nsi_id": "unitedstatespostalservice-a77078", "operator": "United States Postal Service", "operator:short": "USPS", "operator:type": "public", "operator:wikidata": "Q668687", "ref": "8382600003"}, "type": "Feature"}
{"geometry": {"coordinates": [-116.179249, 46.782798], "type": "Point"}, "id": "0wiP8D-3T85aM3uMz0i_q1ILXec=", "properties": {"@source_uri": "https://tools.usps.com/UspsToolsRestServices/rest/POLocator/findLocations", "@spider": "usps_collection_boxes", "addr:city": "ELK RIVER", "addr:country": "US", "addr:postcode": "83827", "addr:state": "ID", "addr:street_address": "202 MAIN ST", "amenity": "post_box", "collection_times": "Mo-Fr 14:30; Sa 10:15", "note": "ON 12/24 AND 12/31, THIS BOX MAY BE COLLECTED AS EARLY AS 12 NOON.", "nsi_id": "unitedstatespostalservice-a77078", "operator": "United States Postal Service", "operator:short": "USPS", "operator:type": "public", "operator:wikidata": "Q668687", "ref": "8382700001"}, "type": "Feature"}
{"geometry": {"coordinates": [-116.179249, 46.782798], "type": "Point"}, "id": "NAxVM9wdjYychS5hamra_z-aAOc=", "properties": {"@source_uri": "https://tools.usps.com/UspsToolsRestServices/rest/POLocator/findLocations", "@spider": "usps_collection_boxes", "addr:city": "ELK RIVER", "addr:country": "US", "addr:postcode": "83827", "addr:state": "ID", "addr:street_address": "202 MAIN ST", "amenity": "post_box", "collection_times": "Mo-Fr 14:30; Sa 10:15", "indoor": "yes", "note": "ON 12/24 AND 12/31, THIS BOX MAY BE COLLECTED AS EARLY AS 12 NOON.", "nsi_id": "unitedstatespostalservice-a77078", "operator": "United States Postal Service", "operator:short": "USPS", "operator:type": "public", "operator:wikidata": "Q668687", "ref": "8382700002"}, "type": "Feature"}
{"geometry": {"coordinates": [-116.179269684, 46.782779815], "type": "Point"}, "id": "QnJKHIjqQ3iHra7fjo06b8z08FE=", "properties": {"@source_uri": "https://tools.usps.com/UspsToolsRestServices/rest/POLocator/findLocations", "@spider": "usps_collection_boxes", "addr:city": "ELK RIVER", "addr:country": "US", "addr:postcode": "83827", "addr:state": "ID", "addr:street_address": "202 MAIN ST", "amenity": "post_box", "collection_times": "Mo-Fr 15:15", "indoor": "yes", "note": "ON 12/24 AND 12/31, THIS BOX MAY BE COLLECTED AS EARLY AS 12 NOON.", "nsi_id": "unitedstatespostalservice-a77078", "operator": "United States Postal Service", "operator:short": "USPS", "operator:type": "public", "operator:wikidata": "Q668687", "ref": "8382700003"}, "type": "Feature"}
{"geometry": {"coordinates": [-116.393138, 47.111806], "type": "Point"}, "id": "YjCgZzNsnfXDRVOasGihrdx-kbk=", "properties": {"@source_uri": "https://tools.usps.com/UspsToolsRestServices/rest/POLocator/findLocations", "@spider": "usps_collection_boxes", "addr:city": "FERNWOOD", "addr:country": "US", "addr:postcode": "83830", "addr:state": "ID", "addr:street_address": "64127 HIGHWAY 3 S", "amenity": "post_box", "collection_times": "Mo-Fr 15:00; Sa 12:45", "indoor": "yes", "note": "ON 12/24 AND 12/31, THIS BOX MAY BE COLLECTED AS EARLY AS 12 NOON.", "nsi_id": "unitedstatespostalservice-a77078", "operator": "United States Postal Service", "operator:short": "USPS", "operator:type": "public", "operator:wikidata": "Q668687", "ref": "8383000002"}, "type": "Feature"}
{"geometry": {"coordinates": [-116.393201793, 47.112875633], "type": "Point"}, "id": "lVFvDp3y09cul_crOUxQ_AATnQY=", "properties": {"@source_uri": "https://tools.usps.com/UspsToolsRestServices/rest/POLocator/findLocations", "@spider": "usps_collection_boxes", "addr:city": "FERNWOOD", "addr:country": "US", "addr:postcode": "83830", "addr:state": "ID", "addr:street_address": "64127 HIGHWAY 3 S", "amenity": "post_box", "collection_times": "Mo-Fr 15:00; Sa 12:00", "indoor": "yes", "note": "ON 12/24 AND 12/31, THIS BOX MAY BE COLLECTED AS EARLY AS 12 NOON.", "nsi_id": "unitedstatespostalservice-a77078", "operator": "United States Postal Service", "operator:short": "USPS", "operator:type": "public", "operator:wikidata": "Q668687", "ref": "8383000003"}, "type": "Feature"}
{"geometry": {"coordinates": [-116.9255, 46.550536], "type": "Point"}, "id": "0kq8f9z5hgcaLAvvsgHKiWhXlmM=", "properties": {"@source_uri": "https://tools.usps.com/UspsToolsRestServices/rest/POLocator/findLocations", "@spider": "usps_collection_boxes", "addr:city": "GENESEE", "addr:country": "US", "addr:postcode": "83832", "addr:state": "ID", "addr:street_address": "110 W WALNUT ST", "amenity": "post_box", "collection_times": "Mo-Fr 16:30; Sa 12:00", "indoor": "yes", "note": "ON 12/24 AND 12/31, THIS BOX MAY BE COLLECTED AS EARLY AS 12 NOON.", "nsi_id": "unitedstatespostalservice-a77078", "operator": "United States Postal Service", "operator:short": "USPS", "operator:type": "public", "operator:wikidata": "Q668687", "ref": "8383200002"}, "type": "Feature"}
{"geometry": {"coordinates": [-116.9255, 46.550536], "type": "Point"}, "id": "u41NcjKVqYi8IzBnxqixqBRTYW4=", "properties": {"@source_uri": "https://tools.usps.com/UspsToolsRestServices/rest/POLocator/findLocations", "@spider": "usps_collection_boxes", "addr:city": "GENESEE", "addr:country": "US", "addr:postcode": "83832", "addr:state": "ID", "addr:street_address": "110 W WALNUT ST", "amenity": "post_box", "collection_times": "Mo-Fr 16:30; Sa 12:00", "note": "ON 12/24 AND 12/31, THIS BOX MAY BE COLLECTED AS EARLY AS 12 NOON.", "nsi_id": "unitedstatespostalservice-a77078", "operator": "United States Postal Service", "operator:short": "USPS", "operator:type": "public", "operator:wikidata": "Q668687", "ref": "8383200003"}, "type": "Feature"}
{"geometry": {"coordinates": [-116.9255025, 46.550532519], "type": "Point"}, "id": "YgY7vEGOCWty1zAC3JM2uUJthQo=", "properties": {"@source_uri": "https://tools.usps.com/UspsToolsRestServices/rest/POLocator/findLocations", "@spider": "usps_collection_boxes", "addr:city": "GENESEE", "addr:country": "US", "addr:postcode": "83832", "addr:state": "ID", "addr:street_address": "110 W WALNUT ST", "amenity": "post_box", "collection_times": "Mo-Fr 16:45; Sa 12:00", "indoor": "yes", "note": "ON 12/24 AND 12/31, THIS BOX MAY BE COLLECTED AS EARLY AS 12 NOON.", "nsi_id": "unitedstatespostalservice-a77078", "operator": "United States Postal Service", "operator:short": "USPS", "operator:type": "public", "operator:wikidata": "Q668687", "ref": "8383200004"}, "type": "Feature"}
{"geometry": {"coordinates": [-116.7858050283, 47.4539939954], "type": "Point"}, "id": "obg54HG5svX1Lb3vp2QeALHz6TU=", "properties": {"@source_uri": "https://tools.usps.com/UspsToolsRestServices/rest/POLocator/findLocations", "@spider": "usps_collection_boxes", "addr:city": "HARRISON", "addr:country": "US", "addr:postcode": "83833", "addr:state": "ID", "addr:street_address": "103 S COEUR DALENE AVE", "amenity": "post_box", "collection_times": "Mo-Fr 16:00; Sa 11:30", "note": "ON 12/24 AND 12/31, THIS BOX MAY BE COLLECTED AS EARLY AS 12 NOON.", "nsi_id": "unitedstatespostalservice-a77078", "operator": "United States Postal Service", "operator:short": "USPS", "operator:type": "public", "operator:wikidata": "Q668687", "ref": "8383300000"}, "type": "Feature"}
{"geometry": {"coordinates": [-116.7679532, 47.6222246], "type": "Point"}, "id": "Jc5XHyO-Jyr3XqItnFe8hGfdhMU=", "properties": {"@source_uri": "https://tools.usps.com/UspsToolsRestServices/rest/POLocator/findLocations", "@spider": "usps_collection_boxes", "addr:city": "HARRISON", "addr:country": "US", "addr:postcode": "83833", "addr:state": "ID", "addr:street_address": "103 S COEUR DALENE AVE", "amenity": "post_box", "collection_times": "Mo-Fr 16:00; Sa 11:30", "indoor": "yes", "note": "ON 12/24 AND 12/31, THIS BOX MAY BE COLLECTED AS EARLY AS 12 NOON.", "nsi_id": "unitedstatespostalservice-a77078", "operator": "United States Postal Service", "operator:short": "USPS", "operator:type": "public", "operator:wikidata": "Q668687", "ref": "8383300001"}, "type": "Feature"}
{"geometry": {"coordinates": [-116.7679532, 47.6222246], "type": "Point"}, "id": "q377pzDneasFFHHBAU08KZAOLbE=", "properties": {"@source_uri": "https://tools.usps.com/UspsToolsRestServices/rest/POLocator/findLocations", "@spider": "usps_collection_boxes", "addr:city": "HARRISON", "addr:country": "US", "addr:postcode": "83833", "addr:state": "ID", "addr:street_address": "103 S COEUR DALENE AVE", "amenity": "post_box", "collection_times": "Mo-Fr 15:45; Sa 11:00", "indoor": "yes", "note": "ON 12/24 AND 12/31, THIS BOX MAY BE COLLECTED AS EARLY AS 12 NOON.", "nsi_id": "unitedstatespostalservice-a77078", "operator": "United States Postal Service", "operator:short": "USPS", "operator:type": "public", "operator:wikidata": "Q668687", "ref": "8383300003"}, "type": "Feature"}
{"geometry": {"coordinates": [-116.72993, 46.917484], "type": "Point"}, "id": "ziMO38QJBdb_O2t14tb2dE3nxOE=", "properties": {"@source_uri": "https://tools.usps.com/UspsToolsRestServices/rest/POLocator/findLocations", "@spider": "usps_collection_boxes", "addr:city": "HARVARD", "addr:country": "US", "addr:postcode": "83834", "addr:state": "ID", "addr:street_address": "4011 HIGHWAY 6", "amenity": "post_box", "collection_times": "Mo-Fr 13:45; Sa 11:45", "indoor": "yes", "note": "ON 12/24 AND 12/31, THIS BOX MAY BE COLLECTED AS EARLY AS 12 NOON.", "nsi_id": "unitedstatespostalservice-a77078", "operator": "United States Postal Service", "operator:short": "USPS", "operator:type": "public", "operator:wikidata": "Q668687", "ref": "8383400002"}, "type": "Feature"}
{"geometry": {"coordinates": [-116.729929238, 46.917483487], "type": "Point"}, "id": "AccEs2S3sQ6wuLchSiH3Ly-Gj4k=", "properties": {"@source_uri": "https://tools.usps.com/UspsToolsRestServices/rest/POLocator/findLocations", "@spider": "usps_collection_boxes", "addr:city": "HARVARD", "addr:country": "US", "addr:postcode": "83834", "addr:state": "ID", "addr:street_address": "4011 HIGHWAY 6", "amenity": "post_box", "collection_times": "Mo-Fr 13:45; Sa 12:00", "indoor": "yes", "note": "ON 12/24 AND 12/31, THIS BOX MAY BE COLLECTED AS EARLY AS 12 NOON.", "nsi_id": "unitedstatespostalservice-a77078", "operator": "United States Postal Service", "operator:short": "USPS", "operator:type": "public", "operator:wikidata": "Q668687", "ref": "8383400003"}, "type": "Feature"}
{"geometry": {"coordinates": [-116.787847, 47.751784], "type": "Point"}, "id": "W1vEOHlluVHR7ijoUNOq-R09-0U=", "properties": {"@source_uri": "https://tools.usps.com/UspsToolsRestServices/rest/POLocator/findLocations", "@spider": "usps_collection_boxes", "addr:city": "HAYDEN", "addr:country": "US", "addr:postcode": "83835", "addr:state": "ID", "addr:street_address": "109 W HONEYSUCKLE AVE", "amenity": "post_box", "collection_times": "Mo-Fr 16:30; Sa 15:15", "note": "ON 12/24 AND 12/31, THIS BOX MAY BE COLLECTED AS EARLY AS 12 NOON.", "nsi_id": "unitedstatespostalservice-a77078", "operator": "United States Postal Service", "operator:short": "USPS", "operator:type": "public", "operator:wikidata": "Q668687", "ref": "8383500001"}, "type": "Feature"}
{"geometry": {"coordinates": [-116.787803, 47.751757], "type": "Point"}, "id": "qPWQ_heXfmbki_A96ZFIa0ydJOo=", "properties": {"@source_uri": "https://tools.usps.com/UspsToolsRestServices/rest/POLocator/findLocations", "@spider": "usps_collection_boxes", "addr:city": "HAYDEN", "addr:country": "US", "addr:postcode": "83835", "addr:state": "ID", "addr:street_address": "109 W HONEYSUCKLE AVE", "amenity": "post_box", "collection_times": "Mo-Fr 17:15; Sa 15:00", "indoor": "yes", "note": "ON 12/24 AND 12/31, THIS BOX MAY BE COLLECTED AS EARLY AS 12 NOON.", "nsi_id": "unitedstatespostalservice-a77078", "operator": "United States Postal Service", "operator:short": "USPS", "operator:type": "public", "operator:wikidata": "Q668687", "ref": "8383500003"}, "type": "Feature"}
{"geometry": {"coordinates": [-116.78879, 47.745287], "type": "Point"}, "id": "AYOnsGzWCepwB5XWP-q4NJoac0k=", "properties": {"@source_uri": "https://tools.usps.com/UspsToolsRestServices/rest/POLocator/findLocations", "@spider": "usps_collection_boxes", "addr:city": "HAYDEN", "addr:country": "US", "addr:postcode": "83835", "addr:state": "ID", "addr:street_address": "197 W PRAIRIE AVE", "amenity": "post_box", "collection_times": "Mo-Sa 11:00", "nsi_id": "unitedstatespostalservice-a77078", "operator": "United States Postal Service", "operator:short": "USPS", "operator:type": "public", "operator:wikidata": "Q668687", "ref": "8383500004"}, "type": "Feature"}
{"geometry": {"coordinates": [-116.787803, 47.751757], "type": "Point"}, "id": "aWStBR9mg-2ODRtCaOvzRmdHqmI=", "properties": {"@source_uri": "https://tools.usps.com/UspsToolsRestServices/rest/POLocator/findLocations", "@spider": "usps_collection_boxes", "addr:city": "HAYDEN", "addr:country": "US", "addr:postcode": "83835", "addr:state": "ID", "addr:street_address": "109 W HONEYSUCKLE AVE", "amenity": "post_box", "collection_times": "Mo-Fr 17:15; Sa 15:00", "name": "USPS COLLECTION BOX - APC", "note": "ON 12/24 AND 12/31, THIS BOX MAY BE COLLECTED AS EARLY AS 12 NOON.", "nsi_id": "unitedstatespostalservice-a77078", "operator": "United States Postal Service", "operator:short": "USPS", "operator:type": "public", "operator:wikidata": "Q668687", "ref": "8383500006"}, "type": "Feature"}
{"geometry": {"coordinates": [-116.78832, 47.751802519], "type": "Point"}, "id": "m3jOzIGDF0QSzDvHnRcnnsGTCSs=", "properties": {"@source_uri": "https://tools.usps.com/UspsToolsRestServices/rest/POLocator/findLocations", "@spider": "usps_collection_boxes", "addr:city": "HAYDEN", "addr:country": "US", "addr:postcode": "83835", "addr:state": "ID", "addr:street_address": "109 W HONEYSUCKLE AVE", "amenity": "post_box", "collection_times": "Mo-Fr 17:00", "indoor": "yes", "note": "ON 12/24 AND 12/31, THIS BOX MAY BE COLLECTED AS EARLY AS 12 NOON.", "nsi_id": "unitedstatespostalservice-a77078", "operator": "United States Postal Service", "operator:short": "USPS", "operator:type": "public", "operator:wikidata": "Q668687", "ref": "8383500007"}, "type": "Feature"}
{"geometry": {"coordinates": [-116.3004449738, 48.2433969845], "type": "Point"}, "id": "kIFHVLV7V9XMdO4YpgGix-VEEKc=", "properties": {"@source_uri": "https://tools.usps.com/UspsToolsRestServices/rest/POLocator/findLocations", "@spider": "usps_collection_boxes", "addr:city": "HOPE", "addr:country": "US", "addr:postcode": "83836", "addr:state": "ID", "addr:street_address": "626 WELLINGTON PL", "amenity": "post_box", "collection_times": "Mo-Fr 16:00; Sa 11:30", "note": "ON 12/24 AND 12/31, THIS BOX MAY BE COLLECTED AS EARLY AS 12 NOON.", "nsi_id": "unitedstatespostalservice-a77078", "operator": "United States Postal Service", "operator:short": "USPS", "operator:type": "public", "operator:wikidata": "Q668687", "ref": "8383600001"}, "type": "Feature"}
{"geometry": {"coordinates": [-116.300856, 48.243285], "type": "Point"}, "id": "pQTrPscsKh0_T_AaECtV_MsE0U8=", "properties": {"@source_uri": "https://tools.usps.com/UspsToolsRestServices/rest/POLocator/findLocations", "@spider": "usps_collection_boxes", "addr:city": "HOPE", "addr:country": "US", "addr:postcode": "83836", "addr:state": "ID", "addr:street_address": "626 WELLINGTON PL", "amenity": "post_box", "collection_times": "Mo-Fr 16:00; Sa 11:30", "indoor": "yes", "note": "ON 12/24 AND 12/31, THIS BOX MAY BE COLLECTED AS EARLY AS 12 NOON.", "nsi_id": "unitedstatespostalservice-a77078", "operator": "United States Postal Service", "operator:short": "USPS", "operator:type": "public", "operator:wikidata": "Q668687", "ref": "8383600002"}, "type": "Feature"}
{"geometry": {"coordinates": [-116.300817505, 48.243292093], "type": "Point"}, "id": "tfG0MUh1NMf23l4uw2y7YkIvEVs=", "properties": {"@source_uri": "https://tools.usps.com/UspsToolsRestServices/rest/POLocator/findLocations", "@spider": "usps_collection_boxes", "addr:city": "HOPE", "addr:country": "US", "addr:postcode": "83836", "addr:state": "ID", "addr:street_address": "626 WELLINGTON PL", "amenity": "post_box", "collection_times": "Mo-Fr 16:00; Sa 10:00", "indoor": "yes", "note": "ON 12/24 AND 12/31, THIS BOX MAY BE COLLECTED AS EARLY AS 12 NOON.", "nsi_id": "unitedstatespostalservice-a77078", "operator": "United States Postal Service", "operator:short": "USPS", "operator:type": "public", "operator:wikidata": "Q668687", "ref": "8383600003"}, "type": "Feature"}
{"geometry": {"coordinates": [-116.121721, 47.534546], "type": "Point"}, "id": "yVEvzMkRf72pHRQlxGIgzuajQ3s=", "properties": {"@source_uri": "https://tools.usps.com/UspsToolsRestServices/rest/POLocator/findLocations", "@spider": "usps_collection_boxes", "addr:city": "KELLOGG", "addr:country": "US", "addr:postcode": "83837", "addr:state": "ID", "addr:street_address": "302 S DIVISION ST", "amenity": "post_box", "collection_times": "Mo-Fr 17:00; Sa 11:00", "note": "ON 12/24 AND 12/31, THIS BOX MAY BE COLLECTED AS EARLY AS 12 NOON.", "nsi_id": "unitedstatespostalservice-a77078", "operator": "United States Postal Service", "operator:short": "USPS", "operator:type": "public", "operator:wikidata": "Q668687", "ref": "8383700003"}, "type": "Feature"}
{"geometry": {"coordinates": [-116.126406, 47.53828], "type": "Point"}, "id": "zCidFjPM91_FRDsJMAN0cxtOGdY=", "properties": {"@source_uri": "https://tools.usps.com/UspsToolsRestServices/rest/POLocator/findLocations", "@spider": "usps_collection_boxes", "addr:city": "KELLOGG", "addr:country": "US", "addr:postcode": "83837", "addr:state": "ID", "addr:street_address": "401 BUNKER AVE", "amenity": "post_box", "collection_times": "Mo-Sa 10:00", "nsi_id": "unitedstatespostalservice-a77078", "operator": "United States Postal Service", "operator:short": "USPS", "operator:type": "public", "operator:wikidata": "Q668687", "ref": "8383700004"}, "type": "Feature"}
{"geometry": {"coordinates": [-116.121721, 47.534546], "type": "Point"}, "id": "Kby357wv-G-FIvdOMYXZJV1XtEI=", "properties": {"@source_uri": "https://tools.usps.com/UspsToolsRestServices/rest/POLocator/findLocations", "@spider": "usps_collection_boxes", "addr:city": "KELLOGG", "addr:country": "US", "addr:postcode": "83837", "addr:state": "ID", "addr:street_address": "302 S DIVISION ST", "amenity": "post_box", "collection_times": "Mo-Fr 17:00; Sa 11:00", "indoor": "yes", "note": "ON 12/24 AND 12/31, THIS BOX MAY BE COLLECTED AS EARLY AS 12 NOON.", "nsi_id": "unitedstatespostalservice-a77078", "operator": "United States Postal Service", "operator:short": "USPS", "operator:type": "public", "operator:wikidata": "Q668687", "ref": "8383700009"}, "type": "Feature"}
{"geometry": {"coordinates": [-116.121472906, 47.534681029], "type": "Point"}, "id": "Qk9rI-bxx1jI_BuSEFStkv5bLwg=", "properties": {"@source_uri": "https://tools.usps.com/UspsToolsRestServices/rest/POLocator/findLocations", "@spider": "usps_collection_boxes", "addr:city": "KELLOGG", "addr:country": "US", "addr:postcode": "83837", "addr:state": "ID", "addr:street_address": "302 S DIVISION ST", "amenity": "post_box", "collection_times": "Mo-Fr 17:00", "indoor": "yes", "note": "ON 12/24 AND 12/31, THIS BOX MAY BE COLLECTED AS EARLY AS 12 NOON.", "nsi_id": "unitedstatespostalservice-a77078", "operator": "United States Postal Service", "operator:short": "USPS", "operator:type": "public", "operator:wikidata": "Q668687", "ref": "8383700010"}, "type": "Feature"}
{"geometry": {"coordinates": [-116.271056, 47.548751], "type": "Point"}, "id": "T2TJxKu1oM9BW33n0g_6-5aasSw=", "properties": {"@source_uri": "https://tools.usps.com/UspsToolsRestServices/rest/POLocator/findLocations", "@spider": "usps_collection_boxes", "addr:city": "KINGSTON", "addr:country": "US", "addr:postcode": "83839", "addr:state": "ID", "addr:street_address": "43051 SILVER VALLEY RD", "amenity": "post_box", "collection_times": "Mo-Fr 17:15; Sa 09:45", "indoor": "yes", "note": "ON 12/24 AND 12/31, THIS BOX MAY BE COLLECTED AS EARLY AS 12 NOON.", "nsi_id": "unitedstatespostalservice-a77078", "operator": "United States Postal Service", "operator:short": "USPS", "operator:type": "public", "operator:wikidata": "Q668687", "ref": "8383900002"}, "type": "Feature"}
{"geometry": {"coordinates": [-116.271056, 47.548751], "type": "Point"}, "id": "QRuHFDXp8Khd1IZ1FKjrqZi1TBg=", "properties": {"@source_uri": "https://tools.usps.com/UspsToolsRestServices/rest/POLocator/findLocations", "@spider": "usps_collection_boxes", "addr:city": "KINGSTON", "addr:country": "US", "addr:postcode": "83839", "addr:state": "ID", "addr:street_address": "43051 SILVER VALLEY RD", "amenity": "post_box", "collection_times": "Mo-Fr 17:15; Sa 09:45", "note": "ON 12/24 AND 12/31, THIS BOX MAY BE COLLECTED AS EARLY AS 12 NOON.", "nsi_id": "unitedstatespostalservice-a77078", "operator": "United States Postal Service", "operator:short": "USPS", "operator:type": "public", "operator:wikidata": "Q668687", "ref": "8383900003"}, "type": "Feature"}
{"geometry": {"coordinates": [-116.270805226, 47.548532293], "type": "Point"}, "id": "wh7UDpr5KG_kCqjq3i5EVV-yUuI=", "properties": {"@source_uri": "https://tools.usps.com/UspsToolsRestServices/rest/POLocator/findLocations", "@spider": "usps_collection_boxes", "addr:city": "KINGSTON", "addr:country": "US", "addr:postcode": "83839", "addr:state": "ID", "addr:street_address": "43051 SILVER VALLEY RD", "amenity": "post_box", "collection_times": "Mo-Fr 17:30", "indoor": "yes", "note": "ON 12/24 AND 12/31, THIS BOX MAY BE COLLECTED AS EARLY AS 12 NOON.", "nsi_id": "unitedstatespostalservice-a77078", "operator": "United States Postal Service", "operator:short": "USPS", "operator:type": "public", "operator:wikidata": "Q668687", "ref": "8383900004"}, "type": "Feature"}
{"geometry": {"coordinates": [-116.91285572, 48.507395639], "type": "Point"}, "id": "JZP7zD0HV0bWTknltHppC4dbJJw=", "properties": {"@source_uri": "https://tools.usps.com/UspsToolsRestServices/rest/POLocator/findLocations", "@spider": "usps_collection_boxes", "addr:city": "KOOTENAI", "addr:country": "US", "addr:postcode": "83840", "addr:state": "ID", "addr:street_address": "109 1ST ST", "amenity": "post_box", "collection_times": "Mo-Fr 14:00", "indoor": "yes", "note": "ON 12/24 AND 12/31, THIS BOX MAY BE COLLECTED AS EARLY AS 12 NOON.", "nsi_id": "unitedstatespostalservice-a77078", "operator": "United States Postal Service", "operator:short": "USPS", "operator:type": "public", "operator:wikidata": "Q668687", "ref": "8384000001"}, "type": "Feature"}
{"geometry": {"coordinates": [-116.755943, 48.16749], "type": "Point"}, "id": "akZinz56dBuBBnT4QkTCvoQ-eBo=", "properties": {"@source_uri": "https://tools.usps.com/UspsToolsRestServices/rest/POLocator/findLocations", "@spider": "usps_collection_boxes", "addr:city": "LACLEDE", "addr:country": "US", "addr:postcode": "83841", "addr:state": "ID", "addr:street_address": "163 RILEY CREEK PARK RD", "amenity": "post_box", "collection_times": "Mo-Fr 16:00; Sa 10:00", "note": "ON 12/24 AND 12/31, THIS BOX MAY BE COLLECTED AS EARLY AS 12 NOON.", "nsi_id": "unitedstatespostalservice-a77078", "operator": "United States Postal Service", "operator:short": "USPS", "operator:type": "public", "operator:wikidata": "Q668687", "ref": "8384100001"}, "type": "Feature"}
{"geometry": {"coordinates": [-116.755983, 48.167507], "type": "Point"}, "id": "KMFlQTtysdgnqZ0dCCVfX0SB974=", "properties": {"@source_uri": "https://tools.usps.com/UspsToolsRestServices/rest/POLocator/findLocations", "@spider": "usps_collection_boxes", "addr:city": "LACLEDE", "addr:country": "US", "addr:postcode": "83841", "addr:state": "ID", "addr:street_address": "163 RILEY CREEK PARK RD", "amenity": "post_box", "collection_times": "Mo-Fr 16:00; Sa 10:00", "indoor": "yes", "note": "ON 12/24 AND 12/31, THIS BOX MAY BE COLLECTED AS EARLY AS 12 NOON.", "nsi_id": "unitedstatespostalservice-a77078", "operator": "United States Postal Service", "operator:short": "USPS", "operator:type": "public", "operator:wikidata": "Q668687", "ref": "8384100002"}, "type": "Feature"}
{"geometry": {"coordinates": [-116.755948774, 48.167577168], "type": "Point"}, "id": "AfbxYY_fBVhgsn9h0i9nckBcMgM=", "properties": {"@source_uri": "https://tools.usps.com/UspsToolsRestServices/rest/POLocator/findLocations", "@spider": "usps_collection_boxes", "addr:city": "LACLEDE", "addr:country": "US", "addr:postcode": "83841", "addr:state": "ID", "addr:street_address": "163 RILEY CREEK PARK RD", "amenity": "post_box", "collection_times": "Mo-Fr 16:00", "indoor": "yes", "note": "ON 12/24 AND 12/31, THIS BOX MAY BE COLLECTED AS EARLY AS 12 NOON.", "nsi_id": "unitedstatespostalservice-a77078", "operator": "United States Postal Service", "operator:short": "USPS", "operator:type": "public", "operator:wikidata": "Q668687", "ref": "8384100003"}, "type": "Feature"}
{"geometry": {"coordinates": [-117.001328, 46.733537], "type": "Point"}, "id": "9g4kcshSfpvWmmcNiwPIxesF4Uc=", "properties": {"@source_uri": "https://tools.usps.com/UspsToolsRestServices/rest/POLocator/findLocations", "@spider": "usps_collection_boxes", "addr:city": "MOSCOW", "addr:country": "US", "addr:postcode": "83843", "addr:state": "ID", "addr:street_address": "104 S MAIN ST", "amenity": "post_box", "collection_times": "Mo-Sa 17:00", "note": "ON 12/24 AND 12/31, THIS BOX MAY BE COLLECTED AS EARLY AS 12 NOON.", "nsi_id": "unitedstatespostalservice-a77078", "operator": "United States Postal Service", "operator:short": "USPS", "operator:type": "public", "operator:wikidata": "Q668687", "ref": "8384300001"}, "type": "Feature"}
{"geometry": {"coordinates": [-117.001231, 46.731112], "type": "Point"}, "id": "OzKtYvafiXKYWbadJW3KmC6vECQ=", "properties": {"@source_uri": "https://tools.usps.com/UspsToolsRestServices/rest/POLocator/findLocations", "@spider": "usps_collection_boxes", "addr:city": "MOSCOW", "addr:country": "US", "addr:postcode": "83843", "addr:state": "ID", "addr:street_address": "414 S MAIN ST", "amenity": "post_box", "collection_times": "Mo-Sa 17:00", "note": "ON 12/24 AND 12/31, THIS BOX MAY BE COLLECTED AS EARLY AS 12 NOON.", "nsi_id": "unitedstatespostalservice-a77078", "operator": "United States Postal Service", "operator:short": "USPS", "operator:type": "public", "operator:wikidata": "Q668687", "ref": "8384300003"}, "type": "Feature"}
{"geometry": {"coordinates": [-116.999281, 46.731389], "type": "Point"}, "id": "wiT_opWTI_SRHpjHckDq-HZbSKA=", "properties": {"@source_uri": "https://tools.usps.com/UspsToolsRestServices/rest/POLocator/findLocations", "@spider": "usps_collection_boxes", "addr:city": "MOSCOW", "addr:country": "US", "addr:postcode": "83843", "addr:state": "ID", "addr:street_address": "220 E 5TH ST", "amenity": "post_box", "collection_times": "Mo-Sa 17:15", "note": "ON 12/24 AND 12/31, THIS BOX MAY BE COLLECTED AS EARLY AS 12 NOON.", "nsi_id": "unitedstatespostalservice-a77078", "operator": "United States Postal Service", "operator:short": "USPS", "operator:type": "public", "operator:wikidata": "Q668687", "ref": "8384300004"}, "type": "Feature"}
{"geometry": {"coordinates": [-117.001268, 46.729878], "type": "Point"}, "id": "gMM8VLD8VnNvYWK-9nWqZVl9WjM=", "properties": {"@source_uri": "https://tools.usps.com/UspsToolsRestServices/rest/POLocator/findLocations", "@spider": "usps_collection_boxes", "addr:city": "MOSCOW", "addr:country": "US", "addr:postcode": "83843", "addr:state": "ID", "addr:street_address": "608 S MAIN ST", "amenity": "post_box", "collection_times": "Mo-Fr 17:00; Sa 09:00", "note": "ON 12/24 AND 12/31, THIS BOX MAY BE COLLECTED AS EARLY AS 12 NOON.", "nsi_id": "unitedstatespostalservice-a77078", "operator": "United States Postal Service", "operator:short": "USPS", "operator:type": "public", "operator:wikidata": "Q668687", "ref": "8384300005"}, "type": "Feature"}
{"geometry": {"coordinates": [-116.9909627, 46.7311012], "type": "Point"}, "id": "1xJCYXuVGSUXkIh3oDarBzPAX4U=", "properties": {"@source_uri": "https://tools.usps.com/UspsToolsRestServices/rest/POLocator/findLocations", "@spider": "usps_collection_boxes", "addr:city": "MOSCOW", "addr:country": "US", "addr:postcode": "83843", "addr:state": "ID", "addr:street_address": "1020 W 6TH ST", "amenity": "post_box", "collection_times": "Mo-Sa 09:00", "nsi_id": "unitedstatespostalservice-a77078", "operator": "United States Postal Service", "operator:short": "USPS", "operator:type": "public", "operator:wikidata": "Q668687", "ref": "8384300006"}, "type": "Feature"}
{"geometry": {"coordinates": [-116.99706194, 46.730637], "type": "Point"}, "id": "NjUcN7cZiUQ6vCO8Kd9rUFIz7Iw=", "properties": {"@source_uri": "https://tools.usps.com/UspsToolsRestServices/rest/POLocator/findLocations", "@spider": "usps_collection_boxes", "addr:city": "MOSCOW", "addr:country": "US", "addr:postcode": "83843", "addr:state": "ID", "addr:street_address": "522 S ADAMS ST", "amenity": "post_box", "collection_times": "Mo-Sa 09:00", "nsi_id": "unitedstatespostalservice-a77078", "operator": "United States Postal Service", "operator:short": "USPS", "operator:type": "public", "operator:wikidata": "Q668687", "ref": "8384300009"}, "type": "Feature"}
{"geometry": {"coordinates": [-117.026741, 46.734219], "type": "Point"}, "id": "uOnDZH9K8pmkRBKrRcb42nuBkAw=", "properties": {"@source_uri": "https://tools.usps.com/UspsToolsRestServices/rest/POLocator/findLocations", "@spider": "usps_collection_boxes", "addr:city": "MOSCOW", "addr:country": "US", "addr:postcode": "83843", "addr:state": "ID", "addr:street_address": "1810 W PULLMAN RD", "amenity": "post_box", "collection_times": "Mo-Sa 12:00", "nsi_id": "unitedstatespostalservice-a77078", "operator": "United States Postal Service", "operator:short": "USPS", "operator:type": "public", "operator:wikidata": "Q668687", "ref": "8384300014"}, "type": "Feature"}
{"geometry": {"coordinates": [-117.0032669683, 46.7379370177], "type": "Point"}, "id": "nHOOXcU4vNMI_boUaxkILzxDdkA=", "properties": {"@source_uri": "https://tools.usps.com/UspsToolsRestServices/rest/POLocator/findLocations", "@spider": "usps_collection_boxes", "addr:city": "MOSCOW", "addr:country": "US", "addr:postcode": "83843", "addr:state": "ID", "addr:street_address": "411 N MAIN ST", "amenity": "post_box", "collection_times": "Mo-Sa 17:00", "note": "ON 12/24 AND 12/31, THIS BOX MAY BE COLLECTED AS EARLY AS 12 NOON.", "nsi_id": "unitedstatespostalservice-a77078", "operator": "United States Postal Service", "operator:short": "USPS", "operator:type": "public", "operator:wikidata": "Q668687", "ref": "8384300016"}, "type": "Feature"}
{"geometry": {"coordinates": [-117.00684044, 46.7282600969], "type": "Point"}, "id": "lIRa2M5tn0oTX-y_Y0U6kflodXM=", "properties": {"@source_uri": "https://tools.usps.com/UspsToolsRestServices/rest/POLocator/findLocations", "@spider": "usps_collection_boxes", "addr:city": "MOSCOW", "addr:country": "US", "addr:postcode": "83843", "addr:state": "ID", "addr:street_address": "710 S DEAKIN ST", "amenity": "post_box", "collection_times": "Mo-Sa 10:00", "nsi_id": "unitedstatespostalservice-a77078", "operator": "United States Postal Service", "operator:short": "USPS", "operator:type": "public", "operator:wikidata": "Q668687", "ref": "8384300018"}, "type": "Feature"}
{"geometry": {"coordinates": [-116.983297, 46.72139], "type": "Point"}, "id": "fnGmZxUWag8ANSTEuW0G2qsUyX8=", "properties": {"@source_uri": "https://tools.usps.com/UspsToolsRestServices/rest/POLocator/findLocations", "@spider": "usps_collection_boxes", "addr:city": "MOSCOW", "addr:country": "US", "addr:postcode": "83843", "addr:state": "ID", "addr:street_address": "1420 S BLAINE ST", "amenity": "post_box", "collection_times": "Mo-Sa 10:00", "nsi_id": "unitedstatespostalservice-a77078", "operator": "United States Postal Service", "operator:short": "USPS", "operator:type": "public", "operator:wikidata": "Q668687", "ref": "8384300033"}, "type": "Feature"}
{"geometry": {"coordinates": [-116.999281, 46.731389], "type": "Point"}, "id": "coruChjf-LbWL7P3yOnpCXHu-os=", "properties": {"@source_uri": "https://tools.usps.com/UspsToolsRestServices/rest/POLocator/findLocations", "@spider": "usps_collection_boxes", "addr:city": "MOSCOW", "addr:country": "US", "addr:postcode": "83843", "addr:state": "ID", "addr:street_address": "220 E 5TH ST", "amenity": "post_box", "collection_times": "Mo-Sa 17:15", "indoor": "yes", "note": "ON 12/24 AND 12/31, THIS BOX MAY BE COLLECTED AS EARLY AS 12 NOON.", "nsi_id": "unitedstatespostalservice-a77078", "operator": "United States Postal Service", "operator:short": "USPS", "operator:type": "public", "operator:wikidata": "Q668687", "ref": "8384300038"}, "type": "Feature"}
{"geometry": {"coordinates": [-116.992849, 46.721179], "type": "Point"}, "id": "_ToQAzbplawS52LVS61V0uvf0vY=", "properties": {"@source_uri": "https://tools.usps.com/UspsToolsRestServices/rest/POLocator/findLocations", "@spider": "usps_collection_boxes", "addr:city": "MOSCOW", "addr:country": "US", "addr:postcode": "83843", "addr:state": "ID", "addr:street_address": "482 NORTHWOOD DR", "amenity": "post_box", "collection_times": "Mo-Sa 12:00", "nsi_id": "unitedstatespostalservice-a77078", "operator": "United States Postal Service", "operator:short": "USPS", "operator:type": "public", "operator:wikidata": "Q668687", "ref": "8384300039"}, "type": "Feature"}
{"geometry": {"coordinates": [-116.999279832, 46.731091472], "type": "Point"}, "id": "XrTs47cfWd9JkJw2BVSSk19SJIc=", "properties": {"@source_uri": "https://tools.usps.com/UspsToolsRestServices/rest/POLocator/findLocations", "@spider": "usps_collection_boxes", "addr:city": "MOSCOW", "addr:country": "US", "addr:postcode": "83843", "addr:state": "ID", "addr:street_address": "220 E 5TH ST LBBY", "amenity": "post_box", "collection_times": "Mo-Fr 17:00; Sa 13:30", "indoor": "yes", "note": "ON 12/24 AND 12/31, THIS BOX MAY BE COLLECTED AS EARLY AS 12 NOON.", "nsi_id": "unitedstatespostalservice-a77078", "operator": "United States Postal Service", "operator:short": "USPS", "operator:type": "public", "operator:wikidata": "Q668687", "ref": "8384300042"}, "type": "Feature"}
{"geometry": {"coordinates": [-116.188992, 48.726404], "type": "Point"}, "id": "cgYy49vIywXvdmMWOh41EdQeVzo=", "properties": {"@source_uri": "https://tools.usps.com/UspsToolsRestServices/rest/POLocator/findLocations", "@spider": "usps_collection_boxes", "addr:city": "MOYIE SPRINGS", "addr:country": "US", "addr:postcode": "83845", "addr:state": "ID", "addr:street_address": "3197 ROOSEVELT RD", "amenity": "post_box", "collection_times": "Mo-Sa 14:45", "note": "ON 12/24 AND 12/31, THIS BOX MAY BE COLLECTED AS EARLY AS 12 NOON.", "nsi_id": "unitedstatespostalservice-a77078", "operator": "United States Postal Service", "operator:short": "USPS", "operator:type": "public", "operator:wikidata": "Q668687", "ref": "8384500001"}, "type": "Feature"}
{"geometry": {"coordinates": [-116.188972, 48.726451], "type": "Point"}, "id": "UOKCeqQ4IlviXvXFn3VTv2XjBi4=", "properties": {"@source_uri": "https://tools.usps.com/UspsToolsRestServices/rest/POLocator/findLocations", "@spider": "usps_collection_boxes", "addr:city": "MOYIE SPRINGS", "addr:country": "US", "addr:postcode": "83845", "addr:state": "ID", "addr:street_address": "3197 ROOSEVELT RD", "amenity": "post_box", "collection_times": "Mo-Sa 14:45", "indoor": "yes", "note": "ON 12/24 AND 12/31, THIS BOX MAY BE COLLECTED AS EARLY AS 12 NOON.", "nsi_id": "unitedstatespostalservice-a77078", "operator": "United States Postal Service", "operator:short": "USPS", "operator:type": "public", "operator:wikidata": "Q668687", "ref": "8384500003"}, "type": "Feature"}
{"geometry": {"coordinates": [-116.189056978, 48.726379928], "type": "Point"}, "id": "IACT7JQiXFesoiyrCOLQifKIEZ0=", "properties": {"@source_uri": "https://tools.usps.com/UspsToolsRestServices/rest/POLocator/findLocations", "@spider": "usps_collection_boxes", "addr:city": "MOYIE SPRINGS", "addr:country": "US", "addr:postcode": "83845", "addr:state": "ID", "addr:street_address": "3197 ROOSEVELT RD", "amenity": "post_box", "collection_times": "Mo-Fr 14:45; Sa 11:00", "indoor": "yes", "note": "ON 12/24 AND 12/31, THIS BOX MAY BE COLLECTED AS EARLY AS 12 NOON.", "nsi_id": "unitedstatespostalservice-a77078", "operator": "United States Postal Service", "operator:short": "USPS", "operator:type": "public", "operator:wikidata": "Q668687", "ref": "8384500004"}, "type": "Feature"}
{"geometry": {"coordinates": [-115.80063, 47.470511], "type": "Point"}, "id": "QgtSK4VtUESCe4TS1h34HZ76k70=", "properties": {"@source_uri": "https://tools.usps.com/UspsToolsRestServices/rest/POLocator/findLocations", "@spider": "usps_collection_boxes", "addr:city": "MULLAN", "addr:country": "US", "addr:postcode": "83846", "addr:state": "ID", "addr:street_address": "237 EARLE AVE", "amenity": "post_box", "collection_times": "Mo-Fr 15:45; Sa 10:30", "note": "ON 12/24 AND 12/31, THIS BOX MAY BE COLLECTED AS EARLY AS 12 NOON.", "nsi_id": "unitedstatespostalservice-a77078", "operator": "United States Postal Service", "operator:short": "USPS", "operator:type": "public", "operator:wikidata": "Q668687", "ref": "8384600001"}, "type": "Feature"}
{"geometry": {"coordinates": [-115.80063, 47.470511], "type": "Point"}, "id": "v3VYLbje1PCUiUJzC768KKHfbNg=", "properties": {"@source_uri": "https://tools.usps.com/UspsToolsRestServices/rest/POLocator/findLocations", "@spider": "usps_collection_boxes", "addr:city": "MULLAN", "addr:country": "US", "addr:postcode": "83846", "addr:state": "ID", "addr:street_address": "237 EARLE AVE", "amenity": "post_box", "collection_times": "Mo-Fr 15:45; Sa 10:00", "indoor": "yes", "note": "ON 12/24 AND 12/31, THIS BOX MAY BE COLLECTED AS EARLY AS 12 NOON.", "nsi_id": "unitedstatespostalservice-a77078", "operator": "United States Postal Service", "operator:short": "USPS", "operator:type": "public", "operator:wikidata": "Q668687", "ref": "8384600002"}, "type": "Feature"}
{"geometry": {"coordinates": [-115.800065585, 47.470591318], "type": "Point"}, "id": "HBzAICtZ2UM0NhVyJVnEnCrw7V4=", "properties": {"@source_uri": "https://tools.usps.com/UspsToolsRestServices/rest/POLocator/findLocations", "@spider": "usps_collection_boxes", "addr:city": "MULLAN", "addr:country": "US", "addr:postcode": "83846", "addr:state": "ID", "addr:street_address": "237 EARLE AVE", "amenity": "post_box", "collection_times": "Mo-Fr 15:45", "indoor": "yes", "note": "ON 12/24 AND 12/31, THIS BOX MAY BE COLLECTED AS EARLY AS 12 NOON.", "nsi_id": "unitedstatespostalservice-a77078", "operator": "United States Postal Service", "operator:short": "USPS", "operator:type": "public", "operator:wikidata": "Q668687", "ref": "8384600003"}, "type": "Feature"}
{"geometry": {"coordinates": [-116.3939420024, 48.5699900047], "type": "Point"}, "id": "iDbfzojsu7qaCZ8IpLn4C8vyipE=", "properties": {"@source_uri": "https://tools.usps.com/UspsToolsRestServices/rest/POLocator/findLocations", "@spider": "usps_collection_boxes", "addr:city": "NAPLES", "addr:country": "US", "addr:postcode": "83847", "addr:state": "ID", "addr:street_address": "517 DEEP CREEK LOOP", "amenity": "post_box", "collection_times": "Mo-Fr 14:45; Sa 11:00", "indoor": "yes", "note": "ON 12/24 AND 12/31, THIS BOX MAY BE COLLECTED AS EARLY AS 12 NOON.", "nsi_id": "unitedstatespostalservice-a77078", "operator": "United States Postal Service", "operator:short": "USPS", "operator:type": "public", "operator:wikidata": "Q668687", "ref": "8384700002"}, "type": "Feature"}
{"geometry": {"coordinates": [-116.3939420024, 48.5699900047], "type": "Point"}, "id": "XlCzLp5LuyiQVZfLn06XM8Tz7Zc=", "properties": {"@source_uri": "https://tools.usps.com/UspsToolsRestServices/rest/POLocator/findLocations", "@spider": "usps_collection_boxes", "addr:city": "NAPLES", "addr:country": "US", "addr:postcode": "83847", "addr:state": "ID", "addr:street_address": "517 DEEP CREEK LOOP", "amenity": "post_box", "collection_times": "Mo-Fr 15:00; Sa 11:00", "indoor": "yes", "note": "ON 12/24 AND 12/31, THIS BOX MAY BE COLLECTED AS EARLY AS 12 NOON.", "nsi_id": "unitedstatespostalservice-a77078", "operator": "United States Postal Service", "operator:short": "USPS", "operator:type": "public", "operator:wikidata": "Q668687", "ref": "8384700003"}, "type": "Feature"}
{"geometry": {"coordinates": [-116.968421, 48.599759], "type": "Point"}, "id": "yl3s2qbKGNjCDqpO_68H7T5nlOI=", "properties": {"@source_uri": "https://tools.usps.com/UspsToolsRestServices/rest/POLocator/findLocations", "@spider": "usps_collection_boxes", "addr:city": "NORDMAN", "addr:country": "US", "addr:postcode": "83848", "addr:state": "ID", "addr:street_address": "36442 HIGHWAY 57", "amenity": "post_box", "collection_times": "Mo-Sa 13:30", "indoor": "yes", "note": "ON 12/24 AND 12/31, THIS BOX MAY BE COLLECTED AS EARLY AS 12 NOON.", "nsi_id": "unitedstatespostalservice-a77078", "operator": "United States Postal Service", "operator:short": "USPS", "operator:type": "public", "operator:wikidata": "Q668687", "ref": "8384800002"}, "type": "Feature"}
{"geometry": {"coordinates": [-116.946369428, 48.630487865], "type": "Point"}, "id": "Df5neCHCsmJnDK5mfpREa5ZDobE=", "properties": {"@source_uri": "https://tools.usps.com/UspsToolsRestServices/rest/POLocator/findLocations", "@spider": "usps_collection_boxes", "addr:city": "NORDMAN", "addr:country": "US", "addr:postcode": "83848", "addr:state": "ID", "addr:street_address": "36442 HIGHWAY 57", "amenity": "post_box", "collection_times": "Mo-Fr 14:00; Sa 13:30", "indoor": "yes", "note": "ON 12/24 AND 12/31, THIS BOX MAY BE COLLECTED AS EARLY AS 12 NOON.", "nsi_id": "unitedstatespostalservice-a77078", "operator": "United States Postal Service", "operator:short": "USPS", "operator:type": "public", "operator:wikidata": "Q668687", "ref": "8384800003"}, "type": "Feature"}
{"geometry": {"coordinates": [-115.9987729862, 47.5053020136], "type": "Point"}, "id": "rpQ5I6ZTD2Lkjr7KcGXmXpKX5po=", "properties": {"@source_uri": "https://tools.usps.com/UspsToolsRestServices/rest/POLocator/findLocations", "@spider": "usps_collection_boxes", "addr:city": "OSBURN", "addr:country": "US", "addr:postcode": "83849", "addr:state": "ID", "addr:street_address": "107 N 4TH ST", "amenity": "post_box", "collection_times": "Mo-Fr 16:45; Sa 11:00", "note": "ON 12/24 AND 12/31, THIS BOX MAY BE COLLECTED AS EARLY AS 12 NOON.", "nsi_id": "unitedstatespostalservice-a77078", "operator": "United States Postal Service", "operator:short": "USPS", "operator:type": "public", "operator:wikidata": "Q668687", "ref": "8384900001"}, "type": "Feature"}
{"geometry": {"coordinates": [-115.99831, 47.5055], "type": "Point"}, "id": "GZt9mEEm3e5C0WVLRrmD9zIn6PE=", "properties": {"@source_uri": "https://tools.usps.com/UspsToolsRestServices/rest/POLocator/findLocations", "@spider": "usps_collection_boxes", "addr:city": "OSBURN", "addr:country": "US", "addr:postcode": "83849", "addr:state": "ID", "addr:street_address": "107 N 4TH ST", "amenity": "post_box", "collection_times": "Mo-Fr 16:45; Sa 11:00", "indoor": "yes", "note": "ON 12/24 AND 12/31, THIS BOX MAY BE COLLECTED AS EARLY AS 12 NOON.", "nsi_id": "unitedstatespostalservice-a77078", "operator": "United States Postal Service", "operator:short": "USPS", "operator:type": "public", "operator:wikidata": "Q668687", "ref": "8384900002"}, "type": "Feature"}
{"geometry": {"coordinates": [-115.998232781, 47.505507457], "type": "Point"}, "id": "a5N1bnzR-Gm0lbqzDcL8ycpQVDU=", "properties": {"@source_uri": "https://tools.usps.com/UspsToolsRestServices/rest/POLocator/findLocations", "@spider": "usps_collection_boxes", "addr:city": "OSBURN", "addr:country": "US", "addr:postcode": "83849", "addr:state": "ID", "addr:street_address": "107 N 4TH ST", "amenity": "post_box", "collection_times": "Mo-Fr 17:00", "indoor": "yes", "note": "ON 12/24 AND 12/31, THIS BOX MAY BE COLLECTED AS EARLY AS 12 NOON.", "nsi_id": "unitedstatespostalservice-a77078", "operator": "United States Postal Service", "operator:short": "USPS", "operator:type": "public", "operator:wikidata": "Q668687", "ref": "8384900003"}, "type": "Feature"}
{"geometry": {"coordinates": [-116.234869, 47.537628], "type": "Point"}, "id": "roQ6S_NXepZHoVPLEn0BpTKH1SM=", "properties": {"@source_uri": "https://tools.usps.com/UspsToolsRestServices/rest/POLocator/findLocations", "@spider": "usps_collection_boxes", "addr:city": "PINEHURST", "addr:country": "US", "addr:postcode": "83850", "addr:state": "ID", "addr:street_address": "9 MAIN ST", "amenity": "post_box", "collection_times": "Mo-Fr 17:00; Sa 11:00", "indoor": "yes", "note": "ON 12/24 AND 12/31, THIS BOX MAY BE COLLECTED AS EARLY AS 12 NOON.", "nsi_id": "unitedstatespostalservice-a77078", "operator": "United States Postal Service", "operator:short": "USPS", "operator:type": "public", "operator:wikidata": "Q668687", "ref": "8385000001"}, "type": "Feature"}
{"geometry": {"coordinates": [-116.234750712, 47.537750999], "type": "Point"}, "id": "Q6Ev7vSTHddOvBEPDnfUMatpHck=", "properties": {"@source_uri": "https://tools.usps.com/UspsToolsRestServices/rest/POLocator/findLocations", "@spider": "usps_collection_boxes", "addr:city": "PINEHURST", "addr:country": "US", "addr:postcode": "83850", "addr:state": "ID", "addr:street_address": "9 MAIN ST", "amenity": "post_box", "collection_times": "Mo-Fr 17:00", "indoor": "yes", "note": "ON 12/24 AND 12/31, THIS BOX MAY BE COLLECTED AS EARLY AS 12 NOON.", "nsi_id": "unitedstatespostalservice-a77078", "operator": "United States Postal Service", "operator:short": "USPS", "operator:type": "public", "operator:wikidata": "Q668687", "ref": "8385000002"}, "type": "Feature"}
{"geometry": {"coordinates": [-116.888117, 47.335773], "type": "Point"}, "id": "kzjFI1b0ucnJreH6kwH9EyXlKp0=", "properties": {"@source_uri": "https://tools.usps.com/UspsToolsRestServices/rest/POLocator/findLocations", "@spider": "usps_collection_boxes", "addr:city": "PLUMMER", "addr:country": "US", "addr:postcode": "83851", "addr:state": "ID", "addr:street_address": "235 10TH ST", "amenity": "post_box", "collection_times": "Mo-Fr 16:45; Sa 10:00", "note": "ON 12/24 AND 12/31, THIS BOX MAY BE COLLECTED AS EARLY AS 12 NOON.", "nsi_id": "unitedstatespostalservice-a77078", "operator": "United States Postal Service", "operator:short": "USPS", "operator:type": "public", "operator:wikidata": "Q668687", "ref": "8385100001"}, "type": "Feature"}
{"geometry": {"coordinates": [-116.888079, 47.335792], "type": "Point"}, "id": "YVv2Q9gFRg3NaODuxVWzg--jTDE=", "properties": {"@source_uri": "https://tools.usps.com/UspsToolsRestServices/rest/POLocator/findLocations", "@spider": "usps_collection_boxes", "addr:city": "PLUMMER", "addr:country": "US", "addr:postcode": "83851", "addr:state": "ID", "addr:street_address": "235 10TH ST", "amenity": "post_box", "collection_times": "Mo-Fr 16:30; Sa 10:00", "indoor": "yes", "note": "ON 12/24 AND 12/31, THIS BOX MAY BE COLLECTED AS EARLY AS 12 NOON.", "nsi_id": "unitedstatespostalservice-a77078", "operator": "United States Postal Service", "operator:short": "USPS", "operator:type": "public", "operator:wikidata": "Q668687", "ref": "8385100002"}, "type": "Feature"}
{"geometry": {"coordinates": [-116.88814963, 47.335884758], "type": "Point"}, "id": "Pl9ws1yQnEgbx6Qd8TsBaxFQcf4=", "properties": {"@source_uri": "https://tools.usps.com/UspsToolsRestServices/rest/POLocator/findLocations", "@spider": "usps_collection_boxes", "addr:city": "PLUMMER", "addr:country": "US", "addr:postcode": "83851", "addr:state": "ID", "addr:street_address": "235 10TH ST", "amenity": "post_box", "collection_times": "Mo-Fr 17:00", "indoor": "yes", "note": "ON 12/24 AND 12/31, THIS BOX MAY BE COLLECTED AS EARLY AS 12 NOON.", "nsi_id": "unitedstatespostalservice-a77078", "operator": "United States Postal Service", "operator:short": "USPS", "operator:type": "public", "operator:wikidata": "Q668687", "ref": "8385100003"}, "type": "Feature"}
{"geometry": {"coordinates": [-116.532581, 48.304344], "type": "Point"}, "id": "-STL2A9pxExdmTrLaqGn24RVxKA=", "properties": {"@source_uri": "https://tools.usps.com/UspsToolsRestServices/rest/POLocator/findLocations", "@spider": "usps_collection_boxes", "addr:city": "PONDERAY", "addr:country": "US", "addr:postcode": "83852", "addr:state": "ID", "addr:street_address": "296 4TH ST", "amenity": "post_box", "collection_times": "Mo-Sa 12:00", "nsi_id": "unitedstatespostalservice-a77078", "operator": "United States Postal Service", "operator:short": "USPS", "operator:type": "public", "operator:wikidata": "Q668687", "ref": "8385200001"}, "type": "Feature"}
{"geometry": {"coordinates": [-116.5370205, 48.305788], "type": "Point"}, "id": "AiMGB6EtwWrr8IMkN0ILrUUJ05M=", "properties": {"@source_uri": "https://tools.usps.com/UspsToolsRestServices/rest/POLocator/findLocations", "@spider": "usps_collection_boxes", "addr:city": "PONDERAY", "addr:country": "US", "addr:postcode": "83852", "addr:state": "ID", "addr:street_address": "480 BONNER MALL WAY", "amenity": "post_box", "collection_times": "Mo-Fr 16:30; Sa 10:45", "indoor": "yes", "note": "ON 12/24 AND 12/31, THIS BOX MAY BE COLLECTED AS EARLY AS 12 NOON.", "nsi_id": "unitedstatespostalservice-a77078", "operator": "United States Postal Service", "operator:short": "USPS", "operator:type": "public", "operator:wikidata": "Q668687", "ref": "8385200002"}, "type": "Feature"}
{"geometry": {"coordinates": [-116.5370205, 48.305788], "type": "Point"}, "id": "Brbt_-fOZ2YUPAT2B2YFkfGvmYw=", "properties": {"@source_uri": "https://tools.usps.com/UspsToolsRestServices/rest/POLocator/findLocations", "@spider": "usps_collection_boxes", "addr:city": "PONDERAY", "addr:country": "US", "addr:postcode": "83852", "addr:state": "ID", "addr:street_address": "480 BONNER MALL WAY", "amenity": "post_box", "collection_times": "Mo-Fr 16:30; Sa 10:45", "note": "ON 12/24 AND 12/31, THIS BOX MAY BE COLLECTED AS EARLY AS 12 NOON.", "nsi_id": "unitedstatespostalservice-a77078", "operator": "United States Postal Service", "operator:short": "USPS", "operator:type": "public", "operator:wikidata": "Q668687", "ref": "8385200003"}, "type": "Feature"}
{"geometry": {"coordinates": [-116.5370205, 48.305788], "type": "Point"}, "id": "HPYyR36fv9-TqkLE8sCzFLqJnD0=", "properties": {"@source_uri": "https://tools.usps.com/UspsToolsRestServices/rest/POLocator/findLocations", "@spider": "usps_collection_boxes", "addr:city": "PONDERAY", "addr:country": "US", "addr:postcode": "83852", "addr:state": "ID", "addr:street_address": "480 BONNER MALL WAY", "amenity": "post_box", "collection_times": "Mo-Fr 16:30; Sa 10:45", "indoor": "yes", "note": "ON 12/24 AND 12/31, THIS BOX MAY BE COLLECTED AS EARLY AS 12 NOON.", "nsi_id": "unitedstatespostalservice-a77078", "operator": "United States Postal Service", "operator:short": "USPS", "operator:type": "public", "operator:wikidata": "Q668687", "ref": "8385200004"}, "type": "Feature"}
{"geometry": {"coordinates": [-116.496984, 48.998816], "type": "Point"}, "id": "Fgo4HYVwIKFWX3HPUcdL8zqR21c=", "properties": {"@source_uri": "https://tools.usps.com/UspsToolsRestServices/rest/POLocator/findLocations", "@spider": "usps_collection_boxes", "addr:city": "PORTHILL", "addr:country": "US", "addr:postcode": "83853", "addr:state": "ID", "addr:street_address": "3329 PORTHILL LOOP RD", "amenity": "post_box", "collection_times": "Mo-Fr 13:00; Sa 12:00", "indoor": "yes", "note": "ON 12/24 AND 12/31, THIS BOX MAY BE COLLECTED AS EARLY AS 12 NOON.", "nsi_id": "unitedstatespostalservice-a77078", "operator": "United States Postal Service", "operator:short": "USPS", "operator:type": "public", "operator:wikidata": "Q668687", "ref": "8385300001"}, "type": "Feature"}
{"geometry": {"coordinates": [-116.497038, 48.998729], "type": "Point"}, "id": "lJxJv3ft8Okxexz52Ssodiz-Q0E=", "properties": {"@source_uri": "https://tools.usps.com/UspsToolsRestServices/rest/POLocator/findLocations", "@spider": "usps_collection_boxes", "addr:city": "PORTHILL", "addr:country": "US", "addr:postcode": "83853", "addr:state": "ID", "addr:street_address": "3329 PORTHILL LOOP RD", "amenity": "post_box", "collection_times": "Mo-Fr 13:00; Sa 12:00", "note": "ON 12/24 AND 12/31, THIS BOX MAY BE COLLECTED AS EARLY AS 12 NOON.", "nsi_id": "unitedstatespostalservice-a77078", "operator": "United States Postal Service", "operator:short": "USPS", "operator:type": "public", "operator:wikidata": "Q668687", "ref": "8385300002"}, "type": "Feature"}
{"geometry": {"coordinates": [-116.496848734, 48.998859998], "type": "Point"}, "id": "EZd7_-IPQlN532IUzFqC8b5Eyjo=", "properties": {"@source_uri": "https://tools.usps.com/UspsToolsRestServices/rest/POLocator/findLocations", "@spider": "usps_collection_boxes", "addr:city": "PORTHILL", "addr:country": "US", "addr:postcode": "83853", "addr:state": "ID", "addr:street_address": "3329 PORTHILL LOOP RD", "amenity": "post_box", "collection_times": "Mo-Fr 13:00", "indoor": "yes", "note": "ON 12/24 AND 12/31, THIS BOX MAY BE COLLECTED AS EARLY AS 12 NOON.", "nsi_id": "unitedstatespostalservice-a77078", "operator": "United States Postal Service", "operator:short": "USPS", "operator:type": "public", "operator:wikidata": "Q668687", "ref": "8385300003"}, "type": "Feature"}
{"geometry": {"coordinates": [-116.915693, 47.709454], "type": "Point"}, "id": "V3F9Kj39zNjmN1h7gPf3Nesw0_I=", "properties": {"@source_uri": "https://tools.usps.com/UspsToolsRestServices/rest/POLocator/findLocations", "@spider": "usps_collection_boxes", "addr:city": "POST FALLS", "addr:country": "US", "addr:postcode": "83854", "addr:state": "ID", "addr:street_address": "405 N GREENSFERRY RD", "amenity": "post_box", "collection_times": "Mo-Fr 17:00; Sa 14:00", "note": "ON 12/24 AND 12/31, THIS BOX MAY BE COLLECTED AS EARLY AS 12 NOON.", "nsi_id": "unitedstatespostalservice-a77078", "operator": "United States Postal Service", "operator:short": "USPS", "operator:type": "public", "operator:wikidata": "Q668687", "ref": "8385400002"}, "type": "Feature"}
{"geometry": {"coordinates": [-116.925481, 47.711486], "type": "Point"}, "id": "OOC57KtESEG5NBg7n-3AmDaf1PU=", "properties": {"@source_uri": "https://tools.usps.com/UspsToolsRestServices/rest/POLocator/findLocations", "@spider": "usps_collection_boxes", "addr:city": "POST FALLS", "addr:country": "US", "addr:postcode": "83854", "addr:state": "ID", "addr:street_address": "1501 E SELTICE WAY", "amenity": "post_box", "collection_times": "Mo-Sa 10:30", "nsi_id": "unitedstatespostalservice-a77078", "operator": "United States Postal Service", "operator:short": "USPS", "operator:type": "public", "operator:wikidata": "Q668687", "ref": "8385400009"}, "type": "Feature"}
{"geometry": {"coordinates": [-116.915651, 47.709395], "type": "Point"}, "id": "y7F97S_fgy5SppN7VcbYjq-Dy3s=", "properties": {"@source_uri": "https://tools.usps.com/UspsToolsRestServices/rest/POLocator/findLocations", "@spider": "usps_collection_boxes", "addr:city": "POST FALLS", "addr:country": "US", "addr:postcode": "83854", "addr:state": "ID", "addr:street_address": "405 N GREENSFERRY RD", "amenity": "post_box", "collection_times": "Mo-Fr 17:00; Sa 14:00", "indoor": "yes", "note": "ON 12/24 AND 12/31, THIS BOX MAY BE COLLECTED AS EARLY AS 12 NOON.", "nsi_id": "unitedstatespostalservice-a77078", "operator": "United States Postal Service", "operator:short": "USPS", "operator:type": "public", "operator:wikidata": "Q668687", "ref": "8385400010"}, "type": "Feature"}
{"geometry": {"coordinates": [-116.943613, 47.715541], "type": "Point"}, "id": "W_qkrq0gzy_3VA0w1_2oHlN8dns=", "properties": {"@source_uri": "https://tools.usps.com/UspsToolsRestServices/rest/POLocator/findLocations", "@spider": "usps_collection_boxes", "addr:city": "POST FALLS", "addr:country": "US", "addr:postcode": "83854", "addr:state": "ID", "addr:street_address": "317 E SELTICE WAY", "amenity": "post_box", "collection_times": "Mo-Sa 12:30", "note": "ON 12/24 AND 12/31, THIS BOX MAY BE COLLECTED AS EARLY AS 12 NOON.", "nsi_id": "unitedstatespostalservice-a77078", "operator": "United States Postal Service", "operator:short": "USPS", "operator:type": "public", "operator:wikidata": "Q668687", "ref": "8385400011"}, "type": "Feature"}
{"geometry": {"coordinates": [-116.936513, 47.715293], "type": "Point"}, "id": "xRN1skZMOUAut7b__65RtrOqWiI=", "properties": {"@source_uri": "https://tools.usps.com/UspsToolsRestServices/rest/POLocator/findLocations", "@spider": "usps_collection_boxes", "addr:city": "POST FALLS", "addr:country": "US", "addr:postcode": "83854", "addr:state": "ID", "addr:street_address": "805 E POLSTON AVE", "amenity": "post_box", "collection_times": "Mo-Sa 10:30", "nsi_id": "unitedstatespostalservice-a77078", "operator": "United States Postal Service", "operator:short": "USPS", "operator:type": "public", "operator:wikidata": "Q668687", "ref": "8385400013"}, "type": "Feature"}
{"geometry": {"coordinates": [-116.997084, 47.711482], "type": "Point"}, "id": "LGhdq0cYl7BnkGSGlbBCIg5IOaE=", "properties": {"@source_uri": "https://tools.usps.com/UspsToolsRestServices/rest/POLocator/findLocations", "@spider": "usps_collection_boxes", "addr:city": "POST FALLS", "addr:country": "US", "addr:postcode": "83854", "addr:state": "ID", "addr:street_address": "3636 W 5TH AVE", "amenity": "post_box", "collection_times": "Mo-Sa 10:00", "nsi_id": "unitedstatespostalservice-a77078", "operator": "United States Postal Service", "operator:short": "USPS", "operator:type": "public", "operator:wikidata": "Q668687", "ref": "8385400015"}, "type": "Feature"}
{"geometry": {"coordinates": [-116.915651, 47.709395], "type": "Point"}, "id": "2w3loPZfxtwaB6xA35-mIYPpAnE=", "properties": {"@source_uri": "https://tools.usps.com/UspsToolsRestServices/rest/POLocator/findLocations", "@spider": "usps_collection_boxes", "addr:city": "POST FALLS", "addr:country": "US", "addr:postcode": "83854", "addr:state": "ID", "addr:street_address": "405 N GREENSFERRY RD", "amenity": "post_box", "collection_times": "Mo-Fr 17:00; Sa 14:00", "name": "USPS COLLECTION BOX - APC", "note": "ON 12/24 AND 12/31, THIS BOX MAY BE COLLECTED AS EARLY AS 12 NOON.", "nsi_id": "unitedstatespostalservice-a77078", "operator": "United States Postal Service", "operator:short": "USPS", "operator:type": "public", "operator:wikidata": "Q668687", "ref": "8385400016"}, "type": "Feature"}
{"geometry": {"coordinates": [-116.915651, 47.709395], "type": "Point"}, "id": "LFDC7Jhy1dohaYTTioDOJZsJBWw=", "properties": {"@source_uri": "https://tools.usps.com/UspsToolsRestServices/rest/POLocator/findLocations", "@spider": "usps_collection_boxes", "addr:city": "POST FALLS", "addr:country": "US", "addr:postcode": "83854", "addr:state": "ID", "addr:street_address": "405 N GREENSFERRY RD", "amenity": "post_box", "collection_times": "Mo-Fr 17:00; Sa 14:00", "indoor": "yes", "note": "ON 12/24 AND 12/31, THIS BOX MAY BE COLLECTED AS EARLY AS 12 NOON.", "nsi_id": "unitedstatespostalservice-a77078", "operator": "United States Postal Service", "operator:short": "USPS", "operator:type": "public", "operator:wikidata": "Q668687", "ref": "8385400017"}, "type": "Feature"}
{"geometry": {"coordinates": [-116.915824308, 47.709648], "type": "Point"}, "id": "qV1G0k8xJrWHphvM6BKA2TQR1rI=", "properties": {"@source_uri": "https://tools.usps.com/UspsToolsRestServices/rest/POLocator/findLocations", "@spider": "usps_collection_boxes", "addr:city": "POST FALLS", "addr:country": "US", "addr:postcode": "83854", "addr:state": "ID", "addr:street_address": "405 N GREENSFERRY RD", "amenity": "post_box", "collection_times": "Mo-Fr 17:00; Sa 12:00", "indoor": "yes", "note": "ON 12/24 AND 12/31, THIS BOX MAY BE COLLECTED AS EARLY AS 12 NOON.", "nsi_id": "unitedstatespostalservice-a77078", "operator": "United States Postal Service", "operator:short": "USPS", "operator:type": "public", "operator:wikidata": "Q668687", "ref": "8385400021"}, "type": "Feature"}
{"geometry": {"coordinates": [-116.900487, 46.921429], "type": "Point"}, "id": "nqjLtiFfWtA-4liO-P9sxJLbMlc=", "properties": {"@source_uri": "https://tools.usps.com/UspsToolsRestServices/rest/POLocator/findLocations", "@spider": "usps_collection_boxes", "addr:city": "POTLATCH", "addr:country": "US", "addr:postcode": "83855", "addr:state": "ID", "addr:street_address": "535 PINE ST", "amenity": "post_box", "collection_times": "Mo-Fr 16:00; Sa 11:00", "indoor": "yes", "note": "ON 12/24 AND 12/31, THIS BOX MAY BE COLLECTED AS EARLY AS 12 NOON.", "nsi_id": "unitedstatespostalservice-a77078", "operator": "United States Postal Service", "operator:short": "USPS", "operator:type": "public", "operator:wikidata": "Q668687", "ref": "8385500002"}, "type": "Feature"}
{"geometry": {"coordinates": [-116.900492269, 46.921166717], "type": "Point"}, "id": "ButalRFUtJNlk8IU2ePNVCjQvXE=", "properties": {"@source_uri": "https://tools.usps.com/UspsToolsRestServices/rest/POLocator/findLocations", "@spider": "usps_collection_boxes", "addr:city": "POTLATCH", "addr:country": "US", "addr:postcode": "83855", "addr:state": "ID", "addr:street_address": "535 PINE ST", "amenity": "post_box", "collection_times": "Mo-Fr 16:15", "indoor": "yes", "note": "ON 12/24 AND 12/31, THIS BOX MAY BE COLLECTED AS EARLY AS 12 NOON.", "nsi_id": "unitedstatespostalservice-a77078", "operator": "United States Postal Service", "operator:short": "USPS", "operator:type": "public", "operator:wikidata": "Q668687", "ref": "8385500003"}, "type": "Feature"}
{"geometry": {"coordinates": [-116.923582, 48.181226], "type": "Point"}, "id": "UOH5FB8OlAYY29VnlBKbPPWfuqg=", "properties": {"@source_uri": "https://tools.usps.com/UspsToolsRestServices/rest/POLocator/findLocations", "@spider": "usps_collection_boxes", "addr:city": "PRIEST RIVER", "addr:country": "US", "addr:postcode": "83856", "addr:state": "ID", "addr:street_address": "1206 HIGHWAY 2", "amenity": "post_box", "collection_times": "Mo-Sa 13:00", "note": "ON 12/24 AND 12/31, THIS BOX MAY BE COLLECTED AS EARLY AS 12 NOON.", "nsi_id": "unitedstatespostalservice-a77078", "operator": "United States Postal Service", "operator:short": "USPS", "operator:type": "public", "operator:wikidata": "Q668687", "ref": "8385600002"}, "type": "Feature"}
{"geometry": {"coordinates": [-116.921126, 48.18103], "type": "Point"}, "id": "XI2tvsYnHsqJcaGHcAKzTx5zw7U=", "properties": {"@source_uri": "https://tools.usps.com/UspsToolsRestServices/rest/POLocator/findLocations", "@spider": "usps_collection_boxes", "addr:city": "PRIEST RIVER", "addr:country": "US", "addr:postcode": "83856", "addr:state": "ID", "addr:street_address": "1002 HIGHWAY 2", "amenity": "post_box", "collection_times": "Mo-Sa 13:00", "note": "ON 12/24 AND 12/31, THIS BOX MAY BE COLLECTED AS EARLY AS 12 NOON.", "nsi_id": "unitedstatespostalservice-a77078", "operator": "United States Postal Service", "operator:short": "USPS", "operator:type": "public", "operator:wikidata": "Q668687", "ref": "8385600003"}, "type": "Feature"}
{"geometry": {"coordinates": [-116.90486, 48.178439], "type": "Point"}, "id": "Me-e6cePblN1b17HjAO-GKIRvhQ=", "properties": {"@source_uri": "https://tools.usps.com/UspsToolsRestServices/rest/POLocator/findLocations", "@spider": "usps_collection_boxes", "addr:city": "PRIEST RIVER", "addr:country": "US", "addr:postcode": "83856", "addr:state": "ID", "addr:street_address": "43 TREAT ST", "amenity": "post_box", "collection_times": "Mo-Fr 17:00; Sa 11:00", "indoor": "yes", "note": "ON 12/24 AND 12/31, THIS BOX MAY BE COLLECTED AS EARLY AS 12 NOON.", "nsi_id": "unitedstatespostalservice-a77078", "operator": "United States Postal Service", "operator:short": "USPS", "operator:type": "public", "operator:wikidata": "Q668687", "ref": "8385600004"}, "type": "Feature"}
{"geometry": {"coordinates": [-116.90486, 48.178439], "type": "Point"}, "id": "kmgLTTSS-tmqtYjIBfDGJTNYwwM=", "properties": {"@source_uri": "https://tools.usps.com/UspsToolsRestServices/rest/POLocator/findLocations", "@spider": "usps_collection_boxes", "addr:city": "PRIEST RIVER", "addr:country": "US", "addr:postcode": "83856", "addr:state": "ID", "addr:street_address": "43 TREAT ST", "amenity": "post_box", "collection_times": "Mo-Fr 16:45; Sa 11:00", "note": "ON 12/24 AND 12/31, THIS BOX MAY BE COLLECTED AS EARLY AS 12 NOON.", "nsi_id": "unitedstatespostalservice-a77078", "operator": "United States Postal Service", "operator:short": "USPS", "operator:type": "public", "operator:wikidata": "Q668687", "ref": "8385600005"}, "type": "Feature"}
{"geometry": {"coordinates": [-116.904859829, 48.179843466], "type": "Point"}, "id": "yXC41xfsRNpTgVIofCYEieRtZto=", "properties": {"@source_uri": "https://tools.usps.com/UspsToolsRestServices/rest/POLocator/findLocations", "@spider": "usps_collection_boxes", "addr:city": "PRIEST RIVER", "addr:country": "US", "addr:postcode": "83856", "addr:state": "ID", "addr:street_address": "43 TREAT ST", "amenity": "post_box", "collection_times": "Mo-Fr 17:00", "indoor": "yes", "note": "ON 12/24 AND 12/31, THIS BOX MAY BE COLLECTED AS EARLY AS 12 NOON.", "nsi_id": "unitedstatespostalservice-a77078", "operator": "United States Postal Service", "operator:short": "USPS", "operator:type": "public", "operator:wikidata": "Q668687", "ref": "8385600006"}, "type": "Feature"}
{"geometry": {"coordinates": [-116.836617, 46.913495], "type": "Point"}, "id": "MgbzbrDwZ2ZPcQxnUcpR0Y5u2oY=", "properties": {"@source_uri": "https://tools.usps.com/UspsToolsRestServices/rest/POLocator/findLocations", "@spider": "usps_collection_boxes", "addr:city": "PRINCETON", "addr:country": "US", "addr:postcode": "83857", "addr:state": "ID", "addr:street_address": "3469 HIGHWAY 6", "amenity": "post_box", "collection_times": "Mo-Fr 16:00; Sa 12:00", "note": "ON 12/24 AND 12/31, THIS BOX MAY BE COLLECTED AS EARLY AS 12 NOON.", "nsi_id": "unitedstatespostalservice-a77078", "operator": "United States Postal Service", "operator:short": "USPS", "operator:type": "public", "operator:wikidata": "Q668687", "ref": "8385700001"}, "type": "Feature"}
{"geometry": {"coordinates": [-116.836571, 46.913691], "type": "Point"}, "id": "X4qXnwRpRgPyZGLY01zFVASScdw=", "properties": {"@source_uri": "https://tools.usps.com/UspsToolsRestServices/rest/POLocator/findLocations", "@spider": "usps_collection_boxes", "addr:city": "PRINCETON", "addr:country": "US", "addr:postcode": "83857", "addr:state": "ID", "addr:street_address": "3469 HIGHWAY 6", "amenity": "post_box", "collection_times": "Mo-Fr 14:00; Sa 12:00", "indoor": "yes", "note": "ON 12/24 AND 12/31, THIS BOX MAY BE COLLECTED AS EARLY AS 12 NOON.", "nsi_id": "unitedstatespostalservice-a77078", "operator": "United States Postal Service", "operator:short": "USPS", "operator:type": "public", "operator:wikidata": "Q668687", "ref": "8385700002"}, "type": "Feature"}
{"geometry": {"coordinates": [-116.836500777, 46.91368554], "type": "Point"}, "id": "CUSuFwIRSYrfLRjo5Iv84DHlGZU=", "properties": {"@source_uri": "https://tools.usps.com/UspsToolsRestServices/rest/POLocator/findLocations", "@spider": "usps_collection_boxes", "addr:city": "PRINCETON", "addr:country": "US", "addr:postcode": "83857", "addr:state": "ID", "addr:street_address": "3469 HIGHWAY 6", "amenity": "post_box", "collection_times": "Mo-Fr 14:00; Sa 12:00", "indoor": "yes", "note": "ON 12/24 AND 12/31, THIS BOX MAY BE COLLECTED AS EARLY AS 12 NOON.", "nsi_id": "unitedstatespostalservice-a77078", "operator": "United States Postal Service", "operator:short": "USPS", "operator:type": "public", "operator:wikidata": "Q668687", "ref": "8385700003"}, "type": "Feature"}
{"geometry": {"coordinates": [-116.888702, 47.817763], "type": "Point"}, "id": "c5zlq4NaymfN679cU3h1f5jUiRY=", "properties": {"@source_uri": "https://tools.usps.com/UspsToolsRestServices/rest/POLocator/findLocations", "@spider": "usps_collection_boxes", "addr:city": "RATHDRUM", "addr:country": "US", "addr:postcode": "83858", "addr:state": "ID", "addr:street_address": "13867 W HIGHWAY 53", "amenity": "post_box", "collection_times": "Mo-Fr 17:00; Sa 09:15", "note": "ON 12/24 AND 12/31, THIS BOX MAY BE COLLECTED AS EARLY AS 12 NOON.", "nsi_id": "unitedstatespostalservice-a77078", "operator": "United States Postal Service", "operator:short": "USPS", "operator:type": "public", "operator:wikidata": "Q668687", "ref": "8385800001"}, "type": "Feature"}
{"geometry": {"coordinates": [-116.882121, 47.820083], "type": "Point"}, "id": "JmMkG2SKtcifH2w8BfEYXt2FS2k=", "properties": {"@source_uri": "https://tools.usps.com/UspsToolsRestServices/rest/POLocator/findLocations", "@spider": "usps_collection_boxes", "addr:city": "RATHDRUM", "addr:country": "US", "addr:postcode": "83858", "addr:state": "ID", "addr:street_address": "16376 N HIGHWAY 41", "amenity": "post_box", "collection_times": "Mo-Sa 12:00", "nsi_id": "unitedstatespostalservice-a77078", "operator": "United States Postal Service", "operator:short": "USPS", "operator:type": "public", "operator:wikidata": "Q668687", "ref": "8385800003"}, "type": "Feature"}
{"geometry": {"coordinates": [-116.888702, 47.817763], "type": "Point"}, "id": "dwK-djBbPz0zMyHwaovE9f-O5po=", "properties": {"@source_uri": "https://tools.usps.com/UspsToolsRestServices/rest/POLocator/findLocations", "@spider": "usps_collection_boxes", "addr:city": "RATHDRUM", "addr:country": "US", "addr:postcode": "83858", "addr:state": "ID", "addr:street_address": "13867 W HIGHWAY 53", "amenity": "post_box", "collection_times": "Mo-Fr 17:00; Sa 09:15", "indoor": "yes", "note": "ON 12/24 AND 12/31, THIS BOX MAY BE COLLECTED AS EARLY AS 12 NOON.", "nsi_id": "unitedstatespostalservice-a77078", "operator": "United States Postal Service", "operator:short": "USPS", "operator:type": "public", "operator:wikidata": "Q668687", "ref": "8385800005"}, "type": "Feature"}
{"geometry": {"coordinates": [-116.877205, 47.815966], "type": "Point"}, "id": "25fTWOXHy9tufTEJGR0NJTmpfdg=", "properties": {"@source_uri": "https://tools.usps.com/UspsToolsRestServices/rest/POLocator/findLocations", "@spider": "usps_collection_boxes", "addr:city": "RATHDRUM", "addr:country": "US", "addr:postcode": "83858", "addr:state": "ID", "addr:street_address": "15837 N WESTWOOD DR STE A", "amenity": "post_box", "collection_times": "Mo-Sa 12:00", "nsi_id": "unitedstatespostalservice-a77078", "operator": "United States Postal Service", "operator:short": "USPS", "operator:type": "public", "operator:wikidata": "Q668687", "ref": "8385800006"}, "type": "Feature"}
{"geometry": {"coordinates": [-116.888205307, 47.817412478], "type": "Point"}, "id": "IMRdWAFMOgor_Aq9_cR7irXmLD4=", "properties": {"@source_uri": "https://tools.usps.com/UspsToolsRestServices/rest/POLocator/findLocations", "@spider": "usps_collection_boxes", "addr:city": "RATHDRUM", "addr:country": "US", "addr:postcode": "83858", "addr:state": "ID", "addr:street_address": "13867 W HIGHWAY 53", "amenity": "post_box", "collection_times": "Mo-Fr 17:00", "indoor": "yes", "note": "ON 12/24 AND 12/31, THIS BOX MAY BE COLLECTED AS EARLY AS 12 NOON.", "nsi_id": "unitedstatespostalservice-a77078", "operator": "United States Postal Service", "operator:short": "USPS", "operator:type": "public", "operator:wikidata": "Q668687", "ref": "8385800007"}, "type": "Feature"}
{"geometry": {"coordinates": [-116.567078, 48.200817], "type": "Point"}, "id": "TL50VYy37Ac-c_XOC27Er8ZkyTQ=", "properties": {"@source_uri": "https://tools.usps.com/UspsToolsRestServices/rest/POLocator/findLocations", "@spider": "usps_collection_boxes", "addr:city": "SAGLE", "addr:country": "US", "addr:postcode": "83860", "addr:state": "ID", "addr:street_address": "468665 HIGHWAY 95", "amenity": "post_box", "collection_times": "Mo-Fr 17:00; Sa 12:00", "indoor": "yes", "note": "ON 12/24 AND 12/31, THIS BOX MAY BE COLLECTED AS EARLY AS 12 NOON.", "nsi_id": "unitedstatespostalservice-a77078", "operator": "United States Postal Service", "operator:short": "USPS", "operator:type": "public", "operator:wikidata": "Q668687", "ref": "8386000002"}, "type": "Feature"}
{"geometry": {"coordinates": [-116.56727094, 48.201497295], "type": "Point"}, "id": "LrnLXLcJ-INLUNeiX9zv-rhvEQw=", "properties": {"@source_uri": "https://tools.usps.com/UspsToolsRestServices/rest/POLocator/findLocations", "@spider": "usps_collection_boxes", "addr:city": "SAGLE", "addr:country": "US", "addr:postcode": "83860", "addr:state": "ID", "addr:street_address": "468665 HIGHWAY 95", "amenity": "post_box", "collection_times": "Mo-Fr 17:00; Sa 12:00", "indoor": "yes", "note": "ON 12/24 AND 12/31, THIS BOX MAY BE COLLECTED AS EARLY AS 12 NOON.", "nsi_id": "unitedstatespostalservice-a77078", "operator": "United States Postal Service", "operator:short": "USPS", "operator:type": "public", "operator:wikidata": "Q668687", "ref": "8386000003"}, "type": "Feature"}
{"geometry": {"coordinates": [-116.559663, 47.314686], "type": "Point"}, "id": "renDG0T2VC10F5l3oQaIBAbICy8=", "properties": {"@source_uri": "https://tools.usps.com/UspsToolsRestServices/rest/POLocator/findLocations", "@spider": "usps_collection_boxes", "addr:city": "ST MARIES", "addr:country": "US", "addr:postcode": "83861", "addr:state": "ID", "addr:street_address": "109 E COLLEGE AVE", "amenity": "post_box", "collection_times": "Mo-Fr 14:00; Sa 13:00", "note": "ON 12/24 AND 12/31, THIS BOX MAY BE COLLECTED AS EARLY AS 12 NOON.", "nsi_id": "unitedstatespostalservice-a77078", "operator": "United States Postal Service", "operator:short": "USPS", "operator:type": "public", "operator:wikidata": "Q668687", "ref": "8386100001"}, "type": "Feature"}
{"geometry": {"coordinates": [-116.568639, 47.316319], "type": "Point"}, "id": "xfMeGc26RoX8-hUsaDGkpOGdy6Y=", "properties": {"@source_uri": "https://tools.usps.com/UspsToolsRestServices/rest/POLocator/findLocations", "@spider": "usps_collection_boxes", "addr:city": "ST MARIES", "addr:country": "US", "addr:postcode": "83861", "addr:state": "ID", "addr:street_address": "834 MAIN AVE", "amenity": "post_box", "collection_times": "Mo-Fr 14:00; Sa 13:00", "note": "ON 12/24 AND 12/31, THIS BOX MAY BE COLLECTED AS EARLY AS 12 NOON.", "nsi_id": "unitedstatespostalservice-a77078", "operator": "United States Postal Service", "operator:short": "USPS", "operator:type": "public", "operator:wikidata": "Q668687", "ref": "8386100010"}, "type": "Feature"}
{"geometry": {"coordinates": [-116.551561, 47.313151], "type": "Point"}, "id": "rEIyU2rmS8tpoiTNc9omMoWJLTo=", "properties": {"@source_uri": "https://tools.usps.com/UspsToolsRestServices/rest/POLocator/findLocations", "@spider": "usps_collection_boxes", "addr:city": "ST MARIES", "addr:country": "US", "addr:postcode": "83861", "addr:state": "ID", "addr:street_address": "40 HOMER DR", "amenity": "post_box", "collection_times": "Mo-Fr 14:00; Sa 13:00", "note": "ON 12/24 AND 12/31, THIS BOX MAY BE COLLECTED AS EARLY AS 12 NOON.", "nsi_id": "unitedstatespostalservice-a77078", "operator": "United States Postal Service", "operator:short": "USPS", "operator:type": "public", "operator:wikidata": "Q668687", "ref": "8386100011"}, "type": "Feature"}
{"geometry": {"coordinates": [-116.566769, 47.314579], "type": "Point"}, "id": "Q1neVBae0tC3QKpl2qhmiI21M0E=", "properties": {"@source_uri": "https://tools.usps.com/UspsToolsRestServices/rest/POLocator/findLocations", "@spider": "usps_collection_boxes", "addr:city": "ST MARIES", "addr:country": "US", "addr:postcode": "83861", "addr:state": "ID", "addr:street_address": "222 S 7TH ST", "amenity": "post_box", "collection_times": "Mo-Fr 17:00; Sa 16:00", "indoor": "yes", "note": "ON 12/24 AND 12/31, THIS BOX MAY BE COLLECTED AS EARLY AS 12 NOON.", "nsi_id": "unitedstatespostalservice-a77078", "operator": "United States Postal Service", "operator:short": "USPS", "operator:type": "public", "operator:wikidata": "Q668687", "ref": "8386100012"}, "type": "Feature"}
{"geometry": {"coordinates": [-116.566769, 47.314579], "type": "Point"}, "id": "HPq8IVMo_Vad3soj7gPEjA75ca4=", "properties": {"@source_uri": "https://tools.usps.com/UspsToolsRestServices/rest/POLocator/findLocations", "@spider": "usps_collection_boxes", "addr:city": "ST MARIES", "addr:country": "US", "addr:postcode": "83861", "addr:state": "ID", "addr:street_address": "222 S 7TH ST", "amenity": "post_box", "collection_times": "Mo-Fr 17:00; Sa 16:00", "note": "ON 12/24 AND 12/31, THIS BOX MAY BE COLLECTED AS EARLY AS 12 NOON.", "nsi_id": "unitedstatespostalservice-a77078", "operator": "United States Postal Service", "operator:short": "USPS", "operator:type": "public", "operator:wikidata": "Q668687", "ref": "8386100014"}, "type": "Feature"}
{"geometry": {"coordinates": [-116.566630029, 47.314746702], "type": "Point"}, "id": "bm3KiG3k6Wemkhi_CctG8652U8k=", "properties": {"@source_uri": "https://tools.usps.com/UspsToolsRestServices/rest/POLocator/findLocations", "@spider": "usps_collection_boxes", "addr:city": "ST MARIES", "addr:country": "US", "addr:postcode": "83861", "addr:state": "ID", "addr:street_address": "222 S 7TH ST", "amenity": "post_box", "collection_times": "Mo-Fr 17:00; Sa 13:00", "indoor": "yes", "note": "ON 12/24 AND 12/31, THIS BOX MAY BE COLLECTED AS EARLY AS 12 NOON.", "nsi_id": "unitedstatespostalservice-a77078", "operator": "United States Postal Service", "operator:short": "USPS", "operator:type": "public", "operator:wikidata": "Q668687", "ref": "8386100015"}, "type": "Feature"}
{"geometry": {"coordinates": [-116.547906, 48.270096], "type": "Point"}, "id": "WynL0ePRYaI590DNrSNylFaht20=", "properties": {"@source_uri": "https://tools.usps.com/UspsToolsRestServices/rest/POLocator/findLocations", "@spider": "usps_collection_boxes", "addr:city": "SANDPOINT", "addr:country": "US", "addr:postcode": "83864", "addr:state": "ID", "addr:street_address": "302 S 1ST AVE", "amenity": "post_box", "collection_times": "Mo-Sa 15:45", "note": "ON 12/24 AND 12/31, THIS BOX MAY BE COLLECTED AS EARLY AS 12 NOON.", "nsi_id": "unitedstatespostalservice-a77078", "operator": "United States Postal Service", "operator:short": "USPS", "operator:type": "public", "operator:wikidata": "Q668687", "ref": "8386400001"}, "type": "Feature"}
{"geometry": {"coordinates": [-116.548672, 48.274821], "type": "Point"}, "id": "60pOtxMNTm0bX2zPlzmF_jPTUA0=", "properties": {"@source_uri": "https://tools.usps.com/UspsToolsRestServices/rest/POLocator/findLocations", "@spider": "usps_collection_boxes", "addr:city": "SANDPOINT", "addr:country": "US", "addr:postcode": "83864", "addr:state": "ID", "addr:street_address": "113 MAIN ST", "amenity": "post_box", "collection_times": "Mo-Sa 15:45", "note": "ON 12/24 AND 12/31, THIS BOX MAY BE COLLECTED AS EARLY AS 12 NOON.", "nsi_id": "unitedstatespostalservice-a77078", "operator": "United States Postal Service", "operator:short": "USPS", "operator:type": "public", "operator:wikidata": "Q668687", "ref": "8386400004"}, "type": "Feature"}
{"geometry": {"coordinates": [-116.549504, 48.277939], "type": "Point"}, "id": "q3BD4ZVUIA0KZ0qbRkh8Z-oVGDs=", "properties": {"@source_uri": "https://tools.usps.com/UspsToolsRestServices/rest/POLocator/findLocations", "@spider": "usps_collection_boxes", "addr:city": "SANDPOINT", "addr:country": "US", "addr:postcode": "83864", "addr:state": "ID", "addr:street_address": "602 N THIRD AVE", "amenity": "post_box", "collection_times": "Mo-Fr 16:00; Sa 15:45", "note": "ON 12/24 AND 12/31, THIS BOX MAY BE COLLECTED AS EARLY AS 12 NOON.", "nsi_id": "unitedstatespostalservice-a77078", "operator": "United States Postal Service", "operator:short": "USPS", "operator:type": "public", "operator:wikidata": "Q668687", "ref": "8386400005"}, "type": "Feature"}
{"geometry": {"coordinates": [-116.549111, 48.272767], "type": "Point"}, "id": "5meoQvl3em5MhbkA3ZPWL2qi5Rc=", "properties": {"@source_uri": "https://tools.usps.com/UspsToolsRestServices/rest/POLocator/findLocations", "@spider": "usps_collection_boxes", "addr:city": "SANDPOINT", "addr:country": "US", "addr:postcode": "83864", "addr:state": "ID", "addr:street_address": "108 S SECOND AVE", "amenity": "post_box", "collection_times": "Mo-Sa 15:45", "note": "ON 12/24 AND 12/31, THIS BOX MAY BE COLLECTED AS EARLY AS 12 NOON.", "nsi_id": "unitedstatespostalservice-a77078", "operator": "United States Postal Service", "operator:short": "USPS", "operator:type": "public", "operator:wikidata": "Q668687", "ref": "8386400006"}, "type": "Feature"}
{"geometry": {"coordinates": [-116.553167, 48.278688], "type": "Point"}, "id": "9ig73UmLpLPkYgdVdJAQu9ju5xE=", "properties": {"@source_uri": "https://tools.usps.com/UspsToolsRestServices/rest/POLocator/findLocations", "@spider": "usps_collection_boxes", "addr:city": "SANDPOINT", "addr:country": "US", "addr:postcode": "83864", "addr:state": "ID", "addr:street_address": "602 N FIFTH AVE", "amenity": "post_box", "collection_times": "Mo-Fr 16:00; Sa 15:45", "note": "ON 12/24 AND 12/31, THIS BOX MAY BE COLLECTED AS EARLY AS 12 NOON.", "nsi_id": "unitedstatespostalservice-a77078", "operator": "United States Postal Service", "operator:short": "USPS", "operator:type": "public", "operator:wikidata": "Q668687", "ref": "8386400007"}, "type": "Feature"}
{"geometry": {"coordinates": [-116.548577, 48.276036], "type": "Point"}, "id": "WTB5OeZMq_kCQMSMJTy1i-Cm7d8=", "properties": {"@source_uri": "https://tools.usps.com/UspsToolsRestServices/rest/POLocator/findLocations", "@spider": "usps_collection_boxes", "addr:city": "SANDPOINT", "addr:country": "US", "addr:postcode": "83864", "addr:state": "ID", "addr:street_address": "111 CEDAR ST", "amenity": "post_box", "collection_times": "Mo-Fr 16:00; Sa 15:45", "note": "ON 12/24 AND 12/31, THIS BOX MAY BE COLLECTED AS EARLY AS 12 NOON.", "nsi_id": "unitedstatespostalservice-a77078", "operator": "United States Postal Service", "operator:short": "USPS", "operator:type": "public", "operator:wikidata": "Q668687", "ref": "8386400010"}, "type": "Feature"}
{"geometry": {"coordinates": [-116.551412, 48.274525], "type": "Point"}, "id": "JJJhhEaoaPEr-hVLqCwZAfyH_eE=", "properties": {"@source_uri": "https://tools.usps.com/UspsToolsRestServices/rest/POLocator/findLocations", "@spider": "usps_collection_boxes", "addr:city": "SANDPOINT", "addr:country": "US", "addr:postcode": "83864", "addr:state": "ID", "addr:street_address": "204 N FOURTH AVE", "amenity": "post_box", "collection_times": "Mo-Fr 17:15; Sa 16:00", "note": "ON 12/24 AND 12/31, THIS BOX MAY BE COLLECTED AS EARLY AS 12 NOON.", "nsi_id": "unitedstatespostalservice-a77078", "operator": "United States Postal Service", "operator:short": "USPS", "operator:type": "public", "operator:wikidata": "Q668687", "ref": "8386400011"}, "type": "Feature"}
{"geometry": {"coordinates": [-116.563076, 48.271959], "type": "Point"}, "id": "9JXd8DbflwT3Zya80TfEKOohvHg=", "properties": {"@source_uri": "https://tools.usps.com/UspsToolsRestServices/rest/POLocator/findLocations", "@spider": "usps_collection_boxes", "addr:city": "SANDPOINT", "addr:country": "US", "addr:postcode": "83864", "addr:state": "ID", "addr:street_address": "1123 LAKE ST", "amenity": "post_box", "collection_times": "Mo-Fr 15:45", "note": "ON 12/24 AND 12/31, THIS BOX MAY BE COLLECTED AS EARLY AS 12 NOON.", "nsi_id": "unitedstatespostalservice-a77078", "operator": "United States Postal Service", "operator:short": "USPS", "operator:type": "public", "operator:wikidata": "Q668687", "ref": "8386400014"}, "type": "Feature"}
{"geometry": {"coordinates": [-116.551296, 48.27426], "type": "Point"}, "id": "BDZZ6ld5bRx7eXXjacDR1W8fT1U=", "properties": {"@source_uri": "https://tools.usps.com/UspsToolsRestServices/rest/POLocator/findLocations", "@spider": "usps_collection_boxes", "addr:city": "SANDPOINT", "addr:country": "US", "addr:postcode": "83864", "addr:state": "ID", "addr:street_address": "204 N FOURTH AVE", "amenity": "post_box", "collection_times": "Mo-Fr 17:15; Sa 16:00", "indoor": "yes", "note": "ON 12/24 AND 12/31, THIS BOX MAY BE COLLECTED AS EARLY AS 12 NOON.", "nsi_id": "unitedstatespostalservice-a77078", "operator": "United States Postal Service", "operator:short": "USPS", "operator:type": "public", "operator:wikidata": "Q668687", "ref": "8386400016"}, "type": "Feature"}
{"geometry": {"coordinates": [-116.545895, 48.27157], "type": "Point"}, "id": "YslnC-16nRlX1DrT78NWSIqDqt8=", "properties": {"@source_uri": "https://tools.usps.com/UspsToolsRestServices/rest/POLocator/findLocations", "@spider": "usps_collection_boxes", "addr:city": "SANDPOINT", "addr:country": "US", "addr:postcode": "83864", "addr:state": "ID", "addr:street_address": "120 E LAKE ST", "amenity": "post_box", "collection_times": "Mo-Fr 15:45", "note": "ON 12/24 AND 12/31, THIS BOX MAY BE COLLECTED AS EARLY AS 12 NOON.", "nsi_id": "unitedstatespostalservice-a77078", "operator": "United States Postal Service", "operator:short": "USPS", "operator:type": "public", "operator:wikidata": "Q668687", "ref": "8386400017"}, "type": "Feature"}
{"geometry": {"coordinates": [-116.5558815, 48.280370489], "type": "Point"}, "id": "zJXBXNgXcb4ebQ3KTbxsXymQsAs=", "properties": {"@source_uri": "https://tools.usps.com/UspsToolsRestServices/rest/POLocator/findLocations", "@spider": "usps_collection_boxes", "addr:city": "SANDPOINT", "addr:country": "US", "addr:postcode": "83864", "addr:state": "ID", "addr:street_address": "624 LARCH ST", "amenity": "post_box", "collection_times": "Mo-Sa 15:30", "indoor": "yes", "note": "ON 12/24 AND 12/31, THIS BOX MAY BE COLLECTED AS EARLY AS 12 NOON.", "nsi_id": "unitedstatespostalservice-a77078", "operator": "United States Postal Service", "operator:short": "USPS", "operator:type": "public", "operator:wikidata": "Q668687", "ref": "8386400020"}, "type": "Feature"}
{"geometry": {"coordinates": [-116.555806, 48.280374], "type": "Point"}, "id": "bnqUEfnJ1WM96Z1BwY92CYJtDjc=", "properties": {"@source_uri": "https://tools.usps.com/UspsToolsRestServices/rest/POLocator/findLocations", "@spider": "usps_collection_boxes", "addr:city": "SANDPOINT", "addr:country": "US", "addr:postcode": "83864", "addr:state": "ID", "addr:street_address": "624 LARCH ST", "amenity": "post_box", "collection_times": "Mo-Sa 15:30", "note": "ON 12/24 AND 12/31, THIS BOX MAY BE COLLECTED AS EARLY AS 12 NOON.", "nsi_id": "unitedstatespostalservice-a77078", "operator": "United States Postal Service", "operator:short": "USPS", "operator:type": "public", "operator:wikidata": "Q668687", "ref": "8386400021"}, "type": "Feature"}
{"geometry": {"coordinates": [-116.551784858, 48.274124856], "type": "Point"}, "id": "HiWR4SFq5uGsgF7rnMWh_22ZNy4=", "properties": {"@source_uri": "https://tools.usps.com/UspsToolsRestServices/rest/POLocator/findLocations", "@spider": "usps_collection_boxes", "addr:city": "SANDPOINT", "addr:country": "US", "addr:postcode": "83864", "addr:state": "ID", "addr:street_address": "204 N FOURTH AVE", "amenity": "post_box", "collection_times": "Mo-Fr 17:00; Sa 13:00", "indoor": "yes", "note": "ON 12/24 AND 12/31, THIS BOX MAY BE COLLECTED AS EARLY AS 12 NOON.", "nsi_id": "unitedstatespostalservice-a77078", "operator": "United States Postal Service", "operator:short": "USPS", "operator:type": "public", "operator:wikidata": "Q668687", "ref": "8386400022"}, "type": "Feature"}
{"geometry": {"coordinates": [-116.457759275, 48.489584981], "type": "Point"}, "id": "ZgVbbdl_NUawb7zl-onMOQqInV8=", "properties": {"@source_uri": "https://tools.usps.com/UspsToolsRestServices/rest/POLocator/findLocations", "@spider": "usps_collection_boxes", "addr:city": "COLBURN-ELMIRA", "addr:country": "US", "addr:postcode": "83865", "addr:state": "WA", "addr:street_address": "490870 HIGHWAY 95", "amenity": "post_box", "collection_times": "Mo-Sa 10:00", "nsi_id": "unitedstatespostalservice-a77078", "operator": "United States Postal Service", "operator:short": "USPS", "operator:type": "public", "operator:wikidata": "Q668687", "ref": "8386500000"}, "type": "Feature"}
{"geometry": {"coordinates": [-116.449044, 47.149824], "type": "Point"}, "id": "4bKEo3rTu1e6NyxWvLw7XsmoiqQ=", "properties": {"@source_uri": "https://tools.usps.com/UspsToolsRestServices/rest/POLocator/findLocations", "@spider": "usps_collection_boxes", "addr:city": "SANTA", "addr:country": "US", "addr:postcode": "83866", "addr:state": "ID", "addr:street_address": "68244 HIGHWAY 3 S", "amenity": "post_box", "collection_times": "Mo-Fr 15:00; Sa 12:00", "indoor": "yes", "note": "ON 12/24 AND 12/31, THIS BOX MAY BE COLLECTED AS EARLY AS 12 NOON.", "nsi_id": "unitedstatespostalservice-a77078", "operator": "United States Postal Service", "operator:short": "USPS", "operator:type": "public", "operator:wikidata": "Q668687", "ref": "8386600002"}, "type": "Feature"}
{"geometry": {"coordinates": [-116.449053, 47.149873], "type": "Point"}, "id": "W7qOFG65qG149nzWoBwbbiHmX8o=", "properties": {"@source_uri": "https://tools.usps.com/UspsToolsRestServices/rest/POLocator/findLocations", "@spider": "usps_collection_boxes", "addr:city": "SANTA", "addr:country": "US", "addr:postcode": "83866", "addr:state": "ID", "addr:street_address": "68244 HIGHWAY 3 S", "amenity": "post_box", "collection_times": "Mo-Fr 15:00; Sa 12:00", "note": "ON 12/24 AND 12/31, THIS BOX MAY BE COLLECTED AS EARLY AS 12 NOON.", "nsi_id": "unitedstatespostalservice-a77078", "operator": "United States Postal Service", "operator:short": "USPS", "operator:type": "public", "operator:wikidata": "Q668687", "ref": "8386600003"}, "type": "Feature"}
{"geometry": {"coordinates": [-116.449502332, 47.150176213], "type": "Point"}, "id": "m4wuM9aZVwrXDwXtDPaPLR0H2cw=", "properties": {"@source_uri": "https://tools.usps.com/UspsToolsRestServices/rest/POLocator/findLocations", "@spider": "usps_collection_boxes", "addr:city": "SANTA", "addr:country": "US", "addr:postcode": "83866", "addr:state": "ID", "addr:street_address": "68244 HIGHWAY 3 S", "amenity": "post_box", "collection_times": "Mo-Fr 15:00", "indoor": "yes", "note": "ON 12/24 AND 12/31, THIS BOX MAY BE COLLECTED AS EARLY AS 12 NOON.", "nsi_id": "unitedstatespostalservice-a77078", "operator": "United States Postal Service", "operator:short": "USPS", "operator:type": "public", "operator:wikidata": "Q668687", "ref": "8386600004"}, "type": "Feature"}
{"geometry": {"coordinates": [-115.9547700062, 47.4930589867], "type": "Point"}, "id": "Hs7Y-hAW40A7Sh6qUOYFc4YneVQ=", "properties": {"@source_uri": "https://tools.usps.com/UspsToolsRestServices/rest/POLocator/findLocations", "@spider": "usps_collection_boxes", "addr:city": "SILVERTON", "addr:country": "US", "addr:postcode": "83867", "addr:state": "ID", "addr:street_address": "102 W YELLOWSTONE AVE", "amenity": "post_box", "collection_times": "Mo-Fr 16:45; Sa 09:45", "note": "ON 12/24 AND 12/31, THIS BOX MAY BE COLLECTED AS EARLY AS 12 NOON.", "nsi_id": "unitedstatespostalservice-a77078", "operator": "United States Postal Service", "operator:short": "USPS", "operator:type": "public", "operator:wikidata": "Q668687", "ref": "8386700001"}, "type": "Feature"}
{"geometry": {"coordinates": [-115.9547700062, 47.4930589867], "type": "Point"}, "id": "Yd3y90wlhrl_r50QBDIRiUOUjlk=", "properties": {"@source_uri": "https://tools.usps.com/UspsToolsRestServices/rest/POLocator/findLocations", "@spider": "usps_collection_boxes", "addr:city": "SILVERTON", "addr:country": "US", "addr:postcode": "83867", "addr:state": "ID", "addr:street_address": "102 W YELLOWSTONE AVE", "amenity": "post_box", "collection_times": "Mo-Fr 17:00; Sa 10:00", "indoor": "yes", "note": "ON 12/24 AND 12/31, THIS BOX MAY BE COLLECTED AS EARLY AS 12 NOON.", "nsi_id": "unitedstatespostalservice-a77078", "operator": "United States Postal Service", "operator:short": "USPS", "operator:type": "public", "operator:wikidata": "Q668687", "ref": "8386700002"}, "type": "Feature"}
{"geometry": {"coordinates": [-115.9547700062, 47.4930589867], "type": "Point"}, "id": "OzS11M7Q08CutXu6Gztpc8DtDoI=", "properties": {"@source_uri": "https://tools.usps.com/UspsToolsRestServices/rest/POLocator/findLocations", "@spider": "usps_collection_boxes", "addr:city": "SILVERTON", "addr:country": "US", "addr:postcode": "83867", "addr:state": "ID", "addr:street_address": "102 W YELLOWSTONE AVE", "amenity": "post_box", "collection_times": "Mo-Fr 17:00; Sa 09:30", "indoor": "yes", "note": "ON 12/24 AND 12/31, THIS BOX MAY BE COLLECTED AS EARLY AS 12 NOON.", "nsi_id": "unitedstatespostalservice-a77078", "operator": "United States Postal Service", "operator:short": "USPS", "operator:type": "public", "operator:wikidata": "Q668687", "ref": "8386700003"}, "type": "Feature"}
{"geometry": {"coordinates": [-116.177713, 47.543474], "type": "Point"}, "id": "1JtVnqzVsr0uEp1a_qUhQsntorw=", "properties": {"@source_uri": "https://tools.usps.com/UspsToolsRestServices/rest/POLocator/findLocations", "@spider": "usps_collection_boxes", "addr:city": "SMELTERVILLE", "addr:country": "US", "addr:postcode": "83868", "addr:state": "ID", "addr:street_address": "223 MAIN ST", "amenity": "post_box", "collection_times": "Mo-Fr 16:45; Sa 09:45", "note": "ON 12/24 AND 12/31, THIS BOX MAY BE COLLECTED AS EARLY AS 12 NOON.", "nsi_id": "unitedstatespostalservice-a77078", "operator": "United States Postal Service", "operator:short": "USPS", "operator:type": "public", "operator:wikidata": "Q668687", "ref": "8386800001"}, "type": "Feature"}
{"geometry": {"coordinates": [-116.177713, 47.543474], "type": "Point"}, "id": "65xG7hz269d7ZSbmRJTiCQ1ZalI=", "properties": {"@source_uri": "https://tools.usps.com/UspsToolsRestServices/rest/POLocator/findLocations", "@spider": "usps_collection_boxes", "addr:city": "SMELTERVILLE", "addr:country": "US", "addr:postcode": "83868", "addr:state": "ID", "addr:street_address": "223 MAIN ST", "amenity": "post_box", "collection_times": "Mo-Fr 17:00; Sa 10:00", "indoor": "yes", "note": "ON 12/24 AND 12/31, THIS BOX MAY BE COLLECTED AS EARLY AS 12 NOON.", "nsi_id": "unitedstatespostalservice-a77078", "operator": "United States Postal Service", "operator:short": "USPS", "operator:type": "public", "operator:wikidata": "Q668687", "ref": "8386800002"}, "type": "Feature"}
{"geometry": {"coordinates": [-116.168961113, 47.544903797], "type": "Point"}, "id": "pNtg0PXNQ0gQgl67Vv6J8JAOPUA=", "properties": {"@source_uri": "https://tools.usps.com/UspsToolsRestServices/rest/POLocator/findLocations", "@spider": "usps_collection_boxes", "addr:city": "SMELTERVILLE", "addr:country": "US", "addr:postcode": "83868", "addr:state": "ID", "addr:street_address": "223 MAIN ST", "amenity": "post_box", "collection_times": "Mo-Fr 17:00; Sa 09:30", "indoor": "yes", "note": "ON 12/24 AND 12/31, THIS BOX MAY BE COLLECTED AS EARLY AS 12 NOON.", "nsi_id": "unitedstatespostalservice-a77078", "operator": "United States Postal Service", "operator:short": "USPS", "operator:type": "public", "operator:wikidata": "Q668687", "ref": "8386800003"}, "type": "Feature"}
{"geometry": {"coordinates": [-116.86842, 47.965237], "type": "Point"}, "id": "MFOuiA5_UTCacuYen071HTKDYoI=", "properties": {"@source_uri": "https://tools.usps.com/UspsToolsRestServices/rest/POLocator/findLocations", "@spider": "usps_collection_boxes", "addr:city": "SPIRIT LAKE", "addr:country": "US", "addr:postcode": "83869", "addr:state": "ID", "addr:street_address": "6087 W MAINE ST", "amenity": "post_box", "collection_times": "Mo-Fr 16:30; Sa 12:00", "note": "ON 12/24 AND 12/31, THIS BOX MAY BE COLLECTED AS EARLY AS 12 NOON.", "nsi_id": "unitedstatespostalservice-a77078", "operator": "United States Postal Service", "operator:short": "USPS", "operator:type": "public", "operator:wikidata": "Q668687", "ref": "8386900001"}, "type": "Feature"}
{"geometry": {"coordinates": [-116.86842, 47.965237], "type": "Point"}, "id": "Xu3OH6dR5WAV8ujTdh8sYmoS7Ok=", "properties": {"@source_uri": "https://tools.usps.com/UspsToolsRestServices/rest/POLocator/findLocations", "@spider": "usps_collection_boxes", "addr:city": "SPIRIT LAKE", "addr:country": "US", "addr:postcode": "83869", "addr:state": "ID", "addr:street_address": "6087 W MAINE ST", "amenity": "post_box", "collection_times": "Mo-Fr 16:45; Sa 12:15", "indoor": "yes", "note": "ON 12/24 AND 12/31, THIS BOX MAY BE COLLECTED AS EARLY AS 12 NOON.", "nsi_id": "unitedstatespostalservice-a77078", "operator": "United States Postal Service", "operator:short": "USPS", "operator:type": "public", "operator:wikidata": "Q668687", "ref": "8386900002"}, "type": "Feature"}
{"geometry": {"coordinates": [-116.868200055, 47.965220453], "type": "Point"}, "id": "M-om8Pby91FiX7RSGwME-ZRW5Qo=", "properties": {"@source_uri": "https://tools.usps.com/UspsToolsRestServices/rest/POLocator/findLocations", "@spider": "usps_collection_boxes", "addr:city": "SPIRIT LAKE", "addr:country": "US", "addr:postcode": "83869", "addr:state": "ID", "addr:street_address": "6087 W MAINE ST", "amenity": "post_box", "collection_times": "Mo-Fr 16:45; Sa 12:00", "indoor": "yes", "note": "ON 12/24 AND 12/31, THIS BOX MAY BE COLLECTED AS EARLY AS 12 NOON.", "nsi_id": "unitedstatespostalservice-a77078", "operator": "United States Postal Service", "operator:short": "USPS", "operator:type": "public", "operator:wikidata": "Q668687", "ref": "8386900003"}, "type": "Feature"}
{"geometry": {"coordinates": [-116.921779, 47.159664], "type": "Point"}, "id": "X2-FThnhW-J1y0C04oHys6XuTl8=", "properties": {"@source_uri": "https://tools.usps.com/UspsToolsRestServices/rest/POLocator/findLocations", "@spider": "usps_collection_boxes", "addr:city": "TENSED", "addr:country": "US", "addr:postcode": "83870", "addr:state": "ID", "addr:street_address": "208 3RD ST", "amenity": "post_box", "collection_times": "Mo-Fr 15:15; Sa 11:45", "note": "ON 12/24 AND 12/31, THIS BOX MAY BE COLLECTED AS EARLY AS 12 NOON.", "nsi_id": "unitedstatespostalservice-a77078", "operator": "United States Postal Service", "operator:short": "USPS", "operator:type": "public", "operator:wikidata": "Q668687", "ref": "8387000001"}, "type": "Feature"}
{"geometry": {"coordinates": [-116.921779, 47.159664], "type": "Point"}, "id": "Yw1MQHIsdfTUZxesdk_V4yPrPdo=", "properties": {"@source_uri": "https://tools.usps.com/UspsToolsRestServices/rest/POLocator/findLocations", "@spider": "usps_collection_boxes", "addr:city": "TENSED", "addr:country": "US", "addr:postcode": "83870", "addr:state": "ID", "addr:street_address": "208 3RD ST", "amenity": "post_box", "collection_times": "Mo-Fr 15:15; Sa 11:45", "indoor": "yes", "note": "ON 12/24 AND 12/31, THIS BOX MAY BE COLLECTED AS EARLY AS 12 NOON.", "nsi_id": "unitedstatespostalservice-a77078", "operator": "United States Postal Service", "operator:short": "USPS", "operator:type": "public", "operator:wikidata": "Q668687", "ref": "8387000002"}, "type": "Feature"}
{"geometry": {"coordinates": [-116.921788473, 47.159570612], "type": "Point"}, "id": "vmkB-H8D2gunn0dMb3YxQKPIyCo=", "properties": {"@source_uri": "https://tools.usps.com/UspsToolsRestServices/rest/POLocator/findLocations", "@spider": "usps_collection_boxes", "addr:city": "TENSED", "addr:country": "US", "addr:postcode": "83870", "addr:state": "ID", "addr:street_address": "208 3RD ST", "amenity": "post_box", "collection_times": "Mo-Fr 15:15; Sa 11:45", "indoor": "yes", "note": "ON 12/24 AND 12/31, THIS BOX MAY BE COLLECTED AS EARLY AS 12 NOON.", "nsi_id": "unitedstatespostalservice-a77078", "operator": "United States Postal Service", "operator:short": "USPS", "operator:type": "public", "operator:wikidata": "Q668687", "ref": "8387000004"}, "type": "Feature"}
{"geometry": {"coordinates": [-116.766231, 46.733846], "type": "Point"}, "id": "LiQ_tkY6w9vlh4NHU8zyMkI_Rwg=", "properties": {"@source_uri": "https://tools.usps.com/UspsToolsRestServices/rest/POLocator/findLocations", "@spider": "usps_collection_boxes", "addr:city": "TROY", "addr:country": "US", "addr:postcode": "83871", "addr:state": "ID", "addr:street_address": "605 S MAIN ST", "amenity": "post_box", "collection_times": "Mo-Fr 16:30; Sa 11:30", "note": "ON 12/24 AND 12/31, THIS BOX MAY BE COLLECTED AS EARLY AS 12 NOON.", "nsi_id": "unitedstatespostalservice-a77078", "operator": "United States Postal Service", "operator:short": "USPS", "operator:type": "public", "operator:wikidata": "Q668687", "ref": "8387100002"}, "type": "Feature"}
{"geometry": {"coordinates": [-116.766231, 46.733846], "type": "Point"}, "id": "9aKvvOrLX6tQ295ih4WlMR5dwK4=", "properties": {"@source_uri": "https://tools.usps.com/UspsToolsRestServices/rest/POLocator/findLocations", "@spider": "usps_collection_boxes", "addr:city": "TROY", "addr:country": "US", "addr:postcode": "83871", "addr:state": "ID", "addr:street_address": "605 S MAIN ST", "amenity": "post_box", "collection_times": "Mo-Fr 16:30; Sa 11:30", "indoor": "yes", "note": "ON 12/24 AND 12/31, THIS BOX MAY BE COLLECTED AS EARLY AS 12 NOON.", "nsi_id": "unitedstatespostalservice-a77078", "operator": "United States Postal Service", "operator:short": "USPS", "operator:type": "public", "operator:wikidata": "Q668687", "ref": "8387100004"}, "type": "Feature"}
{"geometry": {"coordinates": [-116.766234149, 46.733844406], "type": "Point"}, "id": "p8EaJc5VwSZmhGbDjEkaP9ax7hc=", "properties": {"@source_uri": "https://tools.usps.com/UspsToolsRestServices/rest/POLocator/findLocations", "@spider": "usps_collection_boxes", "addr:city": "TROY", "addr:country": "US", "addr:postcode": "83871", "addr:state": "ID", "addr:street_address": "605 S MAIN ST", "amenity": "post_box", "collection_times": "Mo-Fr 16:45; Sa 11:30", "indoor": "yes", "note": "ON 12/24 AND 12/31, THIS BOX MAY BE COLLECTED AS EARLY AS 12 NOON.", "nsi_id": "unitedstatespostalservice-a77078", "operator": "United States Postal Service", "operator:short": "USPS", "operator:type": "public", "operator:wikidata": "Q668687", "ref": "8387100005"}, "type": "Feature"}
{"geometry": {"coordinates": [-115.924078, 47.471531], "type": "Point"}, "id": "tTqde_j15WNftIR354PSkm2ByQU=", "properties": {"@source_uri": "https://tools.usps.com/UspsToolsRestServices/rest/POLocator/findLocations", "@spider": "usps_collection_boxes", "addr:city": "WALLACE", "addr:country": "US", "addr:postcode": "83873", "addr:state": "ID", "addr:street_address": "530 BANK ST", "amenity": "post_box", "collection_times": "Mo-Sa 14:30", "note": "ON 12/24 AND 12/31, THIS BOX MAY BE COLLECTED AS EARLY AS 12 NOON.", "nsi_id": "unitedstatespostalservice-a77078", "operator": "United States Postal Service", "operator:short": "USPS", "operator:type": "public", "operator:wikidata": "Q668687", "ref": "8387300005"}, "type": "Feature"}
{"geometry": {"coordinates": [-115.923748, 47.472353], "type": "Point"}, "id": "sToMX__16YiaJnyeSSsHBJShZMI=", "properties": {"@source_uri": "https://tools.usps.com/UspsToolsRestServices/rest/POLocator/findLocations", "@spider": "usps_collection_boxes", "addr:city": "WALLACE", "addr:country": "US", "addr:postcode": "83873", "addr:state": "ID", "addr:street_address": "600 CEDAR ST", "amenity": "post_box", "collection_times": "Mo-Sa 14:30", "note": "ON 12/24 AND 12/31, THIS BOX MAY BE COLLECTED AS EARLY AS 12 NOON.", "nsi_id": "unitedstatespostalservice-a77078", "operator": "United States Postal Service", "operator:short": "USPS", "operator:type": "public", "operator:wikidata": "Q668687", "ref": "8387300006"}, "type": "Feature"}
{"geometry": {"coordinates": [-115.922237, 47.471537], "type": "Point"}, "id": "iIIfMbLbX_SEKo-oUqDiEpTI_y4=", "properties": {"@source_uri": "https://tools.usps.com/UspsToolsRestServices/rest/POLocator/findLocations", "@spider": "usps_collection_boxes", "addr:city": "WALLACE", "addr:country": "US", "addr:postcode": "83873", "addr:state": "ID", "addr:street_address": "700 BANK ST", "amenity": "post_box", "collection_times": "Mo-Sa 14:30", "note": "ON 12/24 AND 12/31, THIS BOX MAY BE COLLECTED AS EARLY AS 12 NOON.", "nsi_id": "unitedstatespostalservice-a77078", "operator": "United States Postal Service", "operator:short": "USPS", "operator:type": "public", "operator:wikidata": "Q668687", "ref": "8387300007"}, "type": "Feature"}
{"geometry": {"coordinates": [-115.926783, 47.472427], "type": "Point"}, "id": "OMhWWeQNl4B__PQRJK4UPoJ_CRA=", "properties": {"@source_uri": "https://tools.usps.com/UspsToolsRestServices/rest/POLocator/findLocations", "@spider": "usps_collection_boxes", "addr:city": "WALLACE", "addr:country": "US", "addr:postcode": "83873", "addr:state": "ID", "addr:street_address": "403 CEDAR ST", "amenity": "post_box", "collection_times": "Mo-Fr 17:00; Sa 10:00", "indoor": "yes", "note": "ON 12/24 AND 12/31, THIS BOX MAY BE COLLECTED AS EARLY AS 12 NOON.", "nsi_id": "unitedstatespostalservice-a77078", "operator": "United States Postal Service", "operator:short": "USPS", "operator:type": "public", "operator:wikidata": "Q668687", "ref": "8387300012"}, "type": "Feature"}
{"geometry": {"coordinates": [-115.926871526, 47.472483515], "type": "Point"}, "id": "4mRm7oNGEsRnuy5suP3iBO5Dtm0=", "properties": {"@source_uri": "https://tools.usps.com/UspsToolsRestServices/rest/POLocator/findLocations", "@spider": "usps_collection_boxes", "addr:city": "WALLACE", "addr:country": "US", "addr:postcode": "83873", "addr:state": "ID", "addr:street_address": "403 CEDAR ST", "amenity": "post_box", "collection_times": "Mo-Fr 17:00", "indoor": "yes", "note": "ON 12/24 AND 12/31, THIS BOX MAY BE COLLECTED AS EARLY AS 12 NOON.", "nsi_id": "unitedstatespostalservice-a77078", "operator": "United States Postal Service", "operator:short": "USPS", "operator:type": "public", "operator:wikidata": "Q668687", "ref": "8387300013"}, "type": "Feature"}
{"geometry": {"coordinates": [-116.7614813, 47.4038902], "type": "Point"}, "id": "13rgcP9Ue7WbUKYrhLhQs3wtTAY=", "properties": {"@source_uri": "https://tools.usps.com/UspsToolsRestServices/rest/POLocator/findLocations", "@spider": "usps_collection_boxes", "addr:city": "WORLEY", "addr:country": "US", "addr:postcode": "83876", "addr:state": "ID", "addr:street_address": "29801 S 3RD ST", "amenity": "post_box", "collection_times": "Mo-Fr 16:15; Sa 13:45", "note": "ON 12/24 AND 12/31, THIS BOX MAY BE COLLECTED AS EARLY AS 12 NOON.", "nsi_id": "unitedstatespostalservice-a77078", "operator": "United States Postal Service", "operator:short": "USPS", "operator:type": "public", "operator:wikidata": "Q668687", "ref": "8387600001"}, "type": "Feature"}
{"geometry": {"coordinates": [-116.920965, 47.40146], "type": "Point"}, "id": "NpjRgZ8cNwJQWjcgv2Qf-GNfpiQ=", "properties": {"@source_uri": "https://tools.usps.com/UspsToolsRestServices/rest/POLocator/findLocations", "@spider": "usps_collection_boxes", "addr:city": "WORLEY", "addr:country": "US", "addr:postcode": "83876", "addr:state": "ID", "addr:street_address": "29801 S 3RD ST", "amenity": "post_box", "collection_times": "Mo-Fr 16:15; Sa 13:45", "indoor": "yes", "note": "ON 12/24 AND 12/31, THIS BOX MAY BE COLLECTED AS EARLY AS 12 NOON.", "nsi_id": "unitedstatespostalservice-a77078", "operator": "United States Postal Service", "operator:short": "USPS", "operator:type": "public", "operator:wikidata": "Q668687", "ref": "8387600002"}, "type": "Feature"}
{"geometry": {"coordinates": [-116.920977, 47.401472], "type": "Point"}, "id": "Wiq3NxEuPdWPZoMuRPnHf7pBOqE=", "properties": {"@source_uri": "https://tools.usps.com/UspsToolsRestServices/rest/POLocator/findLocations", "@spider": "usps_collection_boxes", "addr:city": "WORLEY", "addr:country": "US", "addr:postcode": "83876", "addr:state": "ID", "addr:street_address": "29801 S 3RD ST", "amenity": "post_box", "collection_times": "Mo-Fr 16:15; Sa 13:45", "indoor": "yes", "note": "ON 12/24 AND 12/31, THIS BOX MAY BE COLLECTED AS EARLY AS 12 NOON.", "nsi_id": "unitedstatespostalservice-a77078", "operator": "United States Postal Service", "operator:short": "USPS", "operator:type": "public", "operator:wikidata": "Q668687", "ref": "8387600003"}, "type": "Feature"}
{"geometry": {"coordinates": [-116.920410555, 47.40150622], "type": "Point"}, "id": "hp9-yLx3J49c2oKXjKwJ9RKImS0=", "properties": {"@source_uri": "https://tools.usps.com/UspsToolsRestServices/rest/POLocator/findLocations", "@spider": "usps_collection_boxes", "addr:city": "WORLEY", "addr:country": "US", "addr:postcode": "83876", "addr:state": "ID", "addr:street_address": "29801 S 3RD ST", "amenity": "post_box", "collection_times": "Mo-Fr 16:15; Sa 10:00", "indoor": "yes", "note": "ON 12/24 AND 12/31, THIS BOX MAY BE COLLECTED AS EARLY AS 12 NOON.", "nsi_id": "unitedstatespostalservice-a77078", "operator": "United States Postal Service", "operator:short": "USPS", "operator:type": "public", "operator:wikidata": "Q668687", "ref": "8387600004"}, "type": "Feature"}
