{"geometry": {"coordinates": [-110.285008, 40.359297], "type": "Point"}, "id": "Mxp9Vdkr8tFYf4ugjuYDZW2ChpA=", "properties": {"@spider": "usps_collection_boxes", "addr:city": "ALTAMONT", "addr:country": "US", "addr:full": "15537 W 4000 N", "addr:postcode": "84001", "addr:state": "UT", "brand": "USPS", "collection_times": "Mo-Fr 15:30; Sa 11:00", "name": "USPS COLLECTION BOX - BLUE BOX", "note": "ON 12/24 AND 12/31, THIS BOX MAY BE COLLECTED AS EARLY AS 12 NOON.", "ref": "8400100001"}, "type": "Feature"}
{"geometry": {"coordinates": [-110.285068, 40.359323], "type": "Point"}, "id": "_5LxpFQ7k020kdTMcMcML1NG4KU=", "properties": {"@spider": "usps_collection_boxes", "addr:city": "ALTAMONT", "addr:country": "US", "addr:full": "15537 W 4000 N", "addr:postcode": "84001", "addr:state": "UT", "brand": "USPS", "collection_times": "Mo-Fr 15:30; Sa 11:00", "name": "USPS COLLECTION BOX - PO LOBBY", "note": "ON 12/24 AND 12/31, THIS BOX MAY BE COLLECTED AS EARLY AS 12 NOON.", "ref": "8400100002"}, "type": "Feature"}
{"geometry": {"coordinates": [-110.285034875, 40.359237972], "type": "Point"}, "id": "TCOZsA3ad1DIFr0hQlqjrnWZ90Y=", "properties": {"@spider": "usps_collection_boxes", "addr:city": "ALTAMONT", "addr:country": "US", "addr:full": "15537 W 4000 N", "addr:postcode": "84001", "addr:state": "UT", "brand": "USPS", "collection_times": "Mo-Fr 15:30; Sa 11:00", "name": "USPS COLLECTION BOX - PO LOBBY", "note": "ON 12/24 AND 12/31, THIS BOX MAY BE COLLECTED AS EARLY AS 12 NOON.", "ref": "8400100006"}, "type": "Feature"}
{"geometry": {"coordinates": [-111.801055, 40.377428], "type": "Point"}, "id": "RFr_K5KdusUzm7RqnamH75_TiHk=", "properties": {"@spider": "usps_collection_boxes", "addr:city": "AMERICAN FORK", "addr:country": "US", "addr:full": "50 N 100 W", "addr:postcode": "84003", "addr:state": "UT", "brand": "USPS", "collection_times": "Mo-Fr 17:00; Sa 15:30", "name": "USPS COLLECTION BOX - BLUE BOX", "note": "ON 12/24 AND 12/31, THIS BOX MAY BE COLLECTED AS EARLY AS 12 NOON.", "ref": "8400300008"}, "type": "Feature"}
{"geometry": {"coordinates": [-111.801069, 40.377425], "type": "Point"}, "id": "uu3wPGKGhSPLpJ3CHjmPfIFO55g=", "properties": {"@spider": "usps_collection_boxes", "addr:city": "AMERICAN FORK", "addr:country": "US", "addr:full": "50 N 100 W", "addr:postcode": "84003", "addr:state": "UT", "brand": "USPS", "collection_times": "Mo-Fr 17:00; Sa 15:30", "name": "USPS COLLECTION BOX - BLUE BOX", "note": "ON 12/24 AND 12/31, THIS BOX MAY BE COLLECTED AS EARLY AS 12 NOON.", "ref": "8400300009"}, "type": "Feature"}
{"geometry": {"coordinates": [-111.799642, 40.377886], "type": "Point"}, "id": "SYzuOpvD91FBeNwGwYMQm2UXGFk=", "properties": {"@spider": "usps_collection_boxes", "addr:city": "AMERICAN FORK", "addr:country": "US", "addr:full": "55 N MERCHANT ST", "addr:postcode": "84003", "addr:state": "UT", "brand": "USPS", "collection_times": "Mo-Fr 17:30; Sa 15:30", "name": "USPS COLLECTION BOX - PO LOBBY", "note": "ON 12/24 AND 12/31, THIS BOX MAY BE COLLECTED AS EARLY AS 12 NOON.", "ref": "8400300013"}, "type": "Feature"}
{"geometry": {"coordinates": [-111.811166, 40.377526], "type": "Point"}, "id": "gUueqaou9TqFXeHWVpn3vrUSpeg=", "properties": {"@spider": "usps_collection_boxes", "addr:city": "AMERICAN FORK", "addr:country": "US", "addr:full": "470 W 30 N", "addr:postcode": "84003", "addr:state": "UT", "brand": "USPS", "collection_times": "Mo-Fr 10:00", "name": "USPS COLLECTION BOX - BLUE BOX", "ref": "8400300017"}, "type": "Feature"}
{"geometry": {"coordinates": [-111.778914, 40.448926], "type": "Point"}, "id": "ygm7rg5SPiTB-DqqmyEU3-B1HZo=", "properties": {"@spider": "usps_collection_boxes", "addr:city": "AMERICAN FORK", "addr:country": "US", "addr:full": "20 W MAIN ST", "addr:postcode": "84003", "addr:state": "UT", "brand": "USPS", "collection_times": "Mo-Fr 15:30", "name": "USPS COLLECTION BOX - BLUE BOX", "note": "ON 12/24 AND 12/31, THIS BOX MAY BE COLLECTED AS EARLY AS 12 NOON.", "ref": "8400300019"}, "type": "Feature"}
{"geometry": {"coordinates": [-111.799749, 40.3778], "type": "Point"}, "id": "FMCrxqWunSG82LxRPad2qRNJ_LE=", "properties": {"@spider": "usps_collection_boxes", "addr:city": "AMERICAN FORK", "addr:country": "US", "addr:full": "55 N MERCHANT ST", "addr:postcode": "84003", "addr:state": "UT", "brand": "USPS", "collection_times": "Mo-Fr 17:30; Sa 15:30", "name": "USPS COLLECTION BOX - APC", "note": "ON 12/24 AND 12/31, THIS BOX MAY BE COLLECTED AS EARLY AS 12 NOON.", "ref": "8400300020"}, "type": "Feature"}
{"geometry": {"coordinates": [-111.799592, 40.37788], "type": "Point"}, "id": "8dcmqHCk1S1LRcmRBqxhpX4tj8w=", "properties": {"@spider": "usps_collection_boxes", "addr:city": "AMERICAN FORK", "addr:country": "US", "addr:full": "55 N MERCHANT ST", "addr:postcode": "84003", "addr:state": "UT", "brand": "USPS", "collection_times": "Mo-Fr 17:30; Sa 15:30", "name": "USPS COLLECTION BOX - PO LOBBY", "note": "ON 12/24 AND 12/31, THIS BOX MAY BE COLLECTED AS EARLY AS 12 NOON.", "ref": "8400300021"}, "type": "Feature"}
{"geometry": {"coordinates": [-111.789048, 40.428473], "type": "Point"}, "id": "MOqJCwVg7Yw6RPD0aLJXwoCkyPY=", "properties": {"@spider": "usps_collection_boxes", "addr:city": "AMERICAN FORK", "addr:country": "US", "addr:full": "5400 W CIVIC CENTER DR", "addr:postcode": "84003", "addr:state": "UT", "brand": "USPS", "collection_times": "Mo-Fr 15:30", "name": "USPS COLLECTION BOX - BLUE BOX", "note": "ON 12/24 AND 12/31, THIS BOX MAY BE COLLECTED AS EARLY AS 12 NOON.", "ref": "8400300022"}, "type": "Feature"}
{"geometry": {"coordinates": [-111.799271505, 40.377986956], "type": "Point"}, "id": "a_v1MLSu5k_-PzMSG1rd23j7czQ=", "properties": {"@spider": "usps_collection_boxes", "addr:city": "AMERICAN FORK", "addr:country": "US", "addr:full": "55 N MERCHANT ST", "addr:postcode": "84003", "addr:state": "UT", "brand": "USPS", "collection_times": "Mo-Fr 17:30; Sa 15:30", "name": "USPS COLLECTION BOX - PO LOBBY", "note": "ON 12/24 AND 12/31, THIS BOX MAY BE COLLECTED AS EARLY AS 12 NOON.", "ref": "8400300028"}, "type": "Feature"}
{"geometry": {"coordinates": [-112.09492, 40.566129], "type": "Point"}, "id": "Hj10du0lgcukkhx4bIY-qlT_g68=", "properties": {"@spider": "usps_collection_boxes", "addr:city": "BINGHAM CANYON", "addr:country": "US", "addr:full": "8545 W STATE HWY", "addr:postcode": "84006", "addr:state": "UT", "brand": "USPS", "collection_times": "Mo-Fr 16:15; Sa 11:00", "name": "USPS COLLECTION BOX - BLUE BOX", "note": "ON 12/24 AND 12/31, THIS BOX MAY BE COLLECTED AS EARLY AS 12 NOON.", "ref": "8400600001"}, "type": "Feature"}
{"geometry": {"coordinates": [-112.095012, 40.566158], "type": "Point"}, "id": "BzXq3u_sxVYZ_lVWoYd5hT9f8Fc=", "properties": {"@spider": "usps_collection_boxes", "addr:city": "BINGHAM CANYON", "addr:country": "US", "addr:full": "8545 W STATE HWY", "addr:postcode": "84006", "addr:state": "UT", "brand": "USPS", "collection_times": "Mo-Fr 16:30; Sa 10:45", "name": "USPS COLLECTION BOX - PO LOBBY", "note": "ON 12/24 AND 12/31, THIS BOX MAY BE COLLECTED AS EARLY AS 12 NOON.", "ref": "8400600005"}, "type": "Feature"}
{"geometry": {"coordinates": [-112.094783864, 40.566115478], "type": "Point"}, "id": "WcQpGy24VVokMtcoHpDZ8_oT8dY=", "properties": {"@spider": "usps_collection_boxes", "addr:city": "BINGHAM CANYON", "addr:country": "US", "addr:full": "8545 W STATE HWY", "addr:postcode": "84006", "addr:state": "UT", "brand": "USPS", "collection_times": "Mo-Fr 16:30; Sa 10:45", "name": "USPS COLLECTION BOX - PO LOBBY", "note": "ON 12/24 AND 12/31, THIS BOX MAY BE COLLECTED AS EARLY AS 12 NOON.", "ref": "8400600006"}, "type": "Feature"}
{"geometry": {"coordinates": [-110.218122, 40.359545], "type": "Point"}, "id": "4YTsOGaRpNBHTOGZXBl7dXmmwOg=", "properties": {"@spider": "usps_collection_boxes", "addr:city": "BLUEBELL", "addr:country": "US", "addr:full": "11978 W 4000 N", "addr:postcode": "84007", "addr:state": "UT", "brand": "USPS", "collection_times": "Mo-Fr 15:00; Sa 11:00", "name": "USPS COLLECTION BOX - BLUE BOX", "note": "ON 12/24 AND 12/31, THIS BOX MAY BE COLLECTED AS EARLY AS 12 NOON.", "ref": "8400700001"}, "type": "Feature"}
{"geometry": {"coordinates": [-110.218011, 40.359429], "type": "Point"}, "id": "2oYojH4E9LqmVRF9Gq_acPPaflU=", "properties": {"@spider": "usps_collection_boxes", "addr:city": "BLUEBELL", "addr:country": "US", "addr:full": "11978 W 4000 N", "addr:postcode": "84007", "addr:state": "UT", "brand": "USPS", "collection_times": "Mo-Fr 11:45; Sa 11:00", "name": "USPS COLLECTION BOX - PO LOBBY", "ref": "8400700002"}, "type": "Feature"}
{"geometry": {"coordinates": [-110.217994782, 40.359477002], "type": "Point"}, "id": "fWXoNB-snjPPRcyWjOtcytHlt2o=", "properties": {"@spider": "usps_collection_boxes", "addr:city": "BLUEBELL", "addr:country": "US", "addr:full": "11978 W 4000 N", "addr:postcode": "84007", "addr:state": "UT", "brand": "USPS", "collection_times": "Mo-Fr 11:45; Sa 11:00", "name": "USPS COLLECTION BOX - PO LOBBY", "ref": "8400700003"}, "type": "Feature"}
{"geometry": {"coordinates": [-112.102325, 40.325415], "type": "Point"}, "id": "Hxhju72XwhuRTANnAJO0XwXuabs=", "properties": {"@spider": "usps_collection_boxes", "addr:city": "CEDAR VALLEY", "addr:country": "US", "addr:full": "103 S 200 E", "addr:postcode": "84013", "addr:state": "UT", "brand": "USPS", "collection_times": "Mo-Fr 13:00; Sa 12:45", "name": "USPS COLLECTION BOX - PO LOBBY", "note": "ON 12/24 AND 12/31, THIS BOX MAY BE COLLECTED AS EARLY AS 12 NOON.", "ref": "8401300001"}, "type": "Feature"}
{"geometry": {"coordinates": [-112.10236, 40.325497], "type": "Point"}, "id": "lfpZtAYyXOaRxOLuyMzJGiFEHz4=", "properties": {"@spider": "usps_collection_boxes", "addr:city": "CEDAR VALLEY", "addr:country": "US", "addr:full": "103 S 200 E", "addr:postcode": "84013", "addr:state": "UT", "brand": "USPS", "collection_times": "Mo-Fr 13:00; Sa 12:45", "name": "USPS COLLECTION BOX - BLUE BOX", "note": "ON 12/24 AND 12/31, THIS BOX MAY BE COLLECTED AS EARLY AS 12 NOON.", "ref": "8401300002"}, "type": "Feature"}
{"geometry": {"coordinates": [-112.102305544, 40.325427441], "type": "Point"}, "id": "WLqpPKIu6WenkoSmdEqNtgb4aBM=", "properties": {"@spider": "usps_collection_boxes", "addr:city": "CEDAR VALLEY", "addr:country": "US", "addr:full": "103 S 200 E", "addr:postcode": "84013", "addr:state": "UT", "brand": "USPS", "collection_times": "Mo-Fr 13:00; Sa 12:45", "name": "USPS COLLECTION BOX - PO LOBBY", "note": "ON 12/24 AND 12/31, THIS BOX MAY BE COLLECTED AS EARLY AS 12 NOON.", "ref": "8401300003"}, "type": "Feature"}
{"geometry": {"coordinates": [-111.881824, 40.529363], "type": "Point"}, "id": "LCll8SHpjhjgvQBprKUO_WJn2n4=", "properties": {"@spider": "usps_collection_boxes", "addr:city": "DRAPER", "addr:country": "US", "addr:full": "12180 S 300 E", "addr:postcode": "84020", "addr:state": "UT", "brand": "USPS", "collection_times": "Mo-Fr 17:00; Sa 13:00", "name": "USPS COLLECTION BOX - BLUE BOX", "note": "ON 12/24 AND 12/31, THIS BOX MAY BE COLLECTED AS EARLY AS 12 NOON.", "ref": "8402000001"}, "type": "Feature"}
{"geometry": {"coordinates": [-111.881789, 40.529343], "type": "Point"}, "id": "3qa8vyMXUJXFcvz6bh2zrAbUtDQ=", "properties": {"@spider": "usps_collection_boxes", "addr:city": "DRAPER", "addr:country": "US", "addr:full": "12180 S 300 E", "addr:postcode": "84020", "addr:state": "UT", "brand": "USPS", "collection_times": "Mo-Fr 17:00; Sa 13:00", "name": "USPS COLLECTION BOX - PO LOBBY", "note": "ON 12/24 AND 12/31, THIS BOX MAY BE COLLECTED AS EARLY AS 12 NOON.", "ref": "8402000004"}, "type": "Feature"}
{"geometry": {"coordinates": [-111.893457, 40.529517], "type": "Point"}, "id": "ox1HtW0xExoWZX2l0Hij-tmqchE=", "properties": {"@spider": "usps_collection_boxes", "addr:city": "DRAPER", "addr:country": "US", "addr:full": "12187 S BUSINESS PARK DR", "addr:postcode": "84020", "addr:state": "UT", "brand": "USPS", "collection_times": "Mo-Fr 10:00", "name": "USPS COLLECTION BOX - BLUE BOX", "ref": "8402000005"}, "type": "Feature"}
{"geometry": {"coordinates": [-111.895325, 40.535924], "type": "Point"}, "id": "csJ9s71CyFre9ph2Dxoz58-9p_M=", "properties": {"@spider": "usps_collection_boxes", "addr:city": "DRAPER", "addr:country": "US", "addr:full": "180 W ELECTION RD", "addr:postcode": "84020", "addr:state": "UT", "brand": "USPS", "collection_times": "Mo-Fr 10:00", "name": "USPS COLLECTION BOX - BLUE BOX", "ref": "8402000007"}, "type": "Feature"}
{"geometry": {"coordinates": [-111.881789, 40.529343], "type": "Point"}, "id": "q4XCT0w7SvGrhd7-AUX7qyarugI=", "properties": {"@spider": "usps_collection_boxes", "addr:city": "DRAPER", "addr:country": "US", "addr:full": "12180 S 300 E", "addr:postcode": "84020", "addr:state": "UT", "brand": "USPS", "collection_times": "Mo-Fr 17:00; Sa 13:00", "name": "USPS COLLECTION BOX - APC", "note": "ON 12/24 AND 12/31, THIS BOX MAY BE COLLECTED AS EARLY AS 12 NOON.", "ref": "8402000010"}, "type": "Feature"}
{"geometry": {"coordinates": [-111.881789, 40.529343], "type": "Point"}, "id": "_KeTM8vpTjT8DSMtS_MnV46Eyxk=", "properties": {"@spider": "usps_collection_boxes", "addr:city": "DRAPER", "addr:country": "US", "addr:full": "12180 S 300 E", "addr:postcode": "84020", "addr:state": "UT", "brand": "USPS", "collection_times": "Mo-Fr 17:00; Sa 13:00", "name": "USPS COLLECTION BOX - PO LOBBY", "note": "ON 12/24 AND 12/31, THIS BOX MAY BE COLLECTED AS EARLY AS 12 NOON.", "ref": "8402000011"}, "type": "Feature"}
{"geometry": {"coordinates": [-111.881826617, 40.529323949], "type": "Point"}, "id": "g-jLgpG6mbvf1o9Bd4sjBcikFYE=", "properties": {"@spider": "usps_collection_boxes", "addr:city": "DRAPER", "addr:country": "US", "addr:full": "12180 S 300 E", "addr:postcode": "84020", "addr:state": "UT", "brand": "USPS", "collection_times": "Mo-Fr 17:00; Sa 13:00", "name": "USPS COLLECTION BOX - PO LOBBY", "note": "ON 12/24 AND 12/31, THIS BOX MAY BE COLLECTED AS EARLY AS 12 NOON.", "ref": "8402000014"}, "type": "Feature"}
{"geometry": {"coordinates": [-110.3970597485, 40.1634134716], "type": "Point"}, "id": "oDzrwxIzfs2zKgXq5xcWO65mdj8=", "properties": {"@spider": "usps_collection_boxes", "addr:city": "DUCHESNE", "addr:country": "US", "addr:full": "243 E MAIN ST", "addr:postcode": "84021", "addr:state": "UT", "brand": "USPS", "collection_times": "Mo-Fr 16:30; Sa 11:00", "name": "USPS COLLECTION BOX - BLUE BOX", "note": "ON 12/24 AND 12/31, THIS BOX MAY BE COLLECTED AS EARLY AS 12 NOON.", "ref": "8402100001"}, "type": "Feature"}
{"geometry": {"coordinates": [-110.397259, 40.163387], "type": "Point"}, "id": "C2dsWycvn8Ai-lhXoLalwanlYdA=", "properties": {"@spider": "usps_collection_boxes", "addr:city": "DUCHESNE", "addr:country": "US", "addr:full": "243 E MAIN ST", "addr:postcode": "84021", "addr:state": "UT", "brand": "USPS", "collection_times": "Mo-Fr 16:30; Sa 11:00", "name": "USPS COLLECTION BOX - PO LOBBY", "note": "ON 12/24 AND 12/31, THIS BOX MAY BE COLLECTED AS EARLY AS 12 NOON.", "ref": "8402100002"}, "type": "Feature"}
{"geometry": {"coordinates": [-110.397259, 40.163387], "type": "Point"}, "id": "FikSArFzORMHlUKticwaI6q4jY0=", "properties": {"@spider": "usps_collection_boxes", "addr:city": "DUCHESNE", "addr:country": "US", "addr:full": "243 E MAIN ST", "addr:postcode": "84021", "addr:state": "UT", "brand": "USPS", "collection_times": "Mo-Fr 16:30; Sa 11:00", "name": "USPS COLLECTION BOX - PO LOBBY", "note": "ON 12/24 AND 12/31, THIS BOX MAY BE COLLECTED AS EARLY AS 12 NOON.", "ref": "8402100003"}, "type": "Feature"}
{"geometry": {"coordinates": [-110.397059749, 40.163413472], "type": "Point"}, "id": "jtZTSupnaBMzHkTyfB7PU2wrhgI=", "properties": {"@spider": "usps_collection_boxes", "addr:city": "DUCHESNE", "addr:country": "US", "addr:full": "243 E MAIN ST", "addr:postcode": "84021", "addr:state": "UT", "brand": "USPS", "collection_times": "Mo-Fr 16:30; Sa 11:00", "name": "USPS COLLECTION BOX - PO LOBBY", "note": "ON 12/24 AND 12/31, THIS BOX MAY BE COLLECTED AS EARLY AS 12 NOON.", "ref": "8402100004"}, "type": "Feature"}
{"geometry": {"coordinates": [-112.749574, 40.222223], "type": "Point"}, "id": "a4VZSqMWPj9s7JNlpcw7H3ySxgg=", "properties": {"@spider": "usps_collection_boxes", "addr:city": "DUGWAY", "addr:country": "US", "addr:full": "5326 VALDEZ CIR", "addr:postcode": "84022", "addr:state": "UT", "brand": "USPS", "collection_times": "Mo-Fr 16:00; Sa 11:00", "name": "USPS COLLECTION BOX - BLUE BOX", "note": "ON 12/24 AND 12/31, THIS BOX MAY BE COLLECTED AS EARLY AS 12 NOON.", "ref": "8402200001"}, "type": "Feature"}
{"geometry": {"coordinates": [-112.739421, 40.22189], "type": "Point"}, "id": "AXSNVYcgLfY_ex2n1Rv75DbIQOo=", "properties": {"@spider": "usps_collection_boxes", "addr:city": "DUGWAY", "addr:country": "US", "addr:full": "5440 STARK RD", "addr:postcode": "84022", "addr:state": "UT", "brand": "USPS", "collection_times": "Mo-Sa 11:00", "name": "USPS COLLECTION BOX - BLUE BOX", "ref": "8402200002"}, "type": "Feature"}
{"geometry": {"coordinates": [-112.749608, 40.221902], "type": "Point"}, "id": "YLDu1qYoiTiyEg6DQFsIfZPhCg0=", "properties": {"@spider": "usps_collection_boxes", "addr:city": "DUGWAY", "addr:country": "US", "addr:full": "5326 VALDEZ CIR", "addr:postcode": "84022", "addr:state": "UT", "brand": "USPS", "collection_times": "Mo-Fr 16:00; Sa 11:00", "name": "USPS COLLECTION BOX - PO LOBBY", "note": "ON 12/24 AND 12/31, THIS BOX MAY BE COLLECTED AS EARLY AS 12 NOON.", "ref": "8402200003"}, "type": "Feature"}
{"geometry": {"coordinates": [-112.74962315, 40.219947666], "type": "Point"}, "id": "BpP7VPVdu3qHCuVQTPupMAux4C8=", "properties": {"@spider": "usps_collection_boxes", "addr:city": "DUGWAY", "addr:country": "US", "addr:full": "5326 VALDEZ CIR", "addr:postcode": "84022", "addr:state": "UT", "brand": "USPS", "collection_times": "Mo-Fr 16:00; Sa 11:00", "name": "USPS COLLECTION BOX - PO LOBBY", "note": "ON 12/24 AND 12/31, THIS BOX MAY BE COLLECTED AS EARLY AS 12 NOON.", "ref": "8402200004"}, "type": "Feature"}
{"geometry": {"coordinates": [-109.862353, 40.301873], "type": "Point"}, "id": "jUGFiujOR0r_16tZGXWCFzrqQ4c=", "properties": {"@spider": "usps_collection_boxes", "addr:city": "FORT DUCHESNE", "addr:country": "US", "addr:full": "7299 E HIGHWAY 40", "addr:postcode": "84026", "addr:state": "UT", "brand": "USPS", "collection_times": "Mo-Fr 16:00; Sa 11:00", "name": "USPS COLLECTION BOX - PO LOBBY", "note": "ON 12/24 AND 12/31, THIS BOX MAY BE COLLECTED AS EARLY AS 12 NOON.", "ref": "8402600002"}, "type": "Feature"}
{"geometry": {"coordinates": [-109.862891832, 40.301877454], "type": "Point"}, "id": "tpLpRiIQcanB-s64gQ1oSZ_lcYI=", "properties": {"@spider": "usps_collection_boxes", "addr:city": "FORT DUCHESNE", "addr:country": "US", "addr:full": "7299 E HIGHWAY 40", "addr:postcode": "84026", "addr:state": "UT", "brand": "USPS", "collection_times": "Mo-Fr 16:00; Sa 11:00", "name": "USPS COLLECTION BOX - PO LOBBY", "note": "ON 12/24 AND 12/31, THIS BOX MAY BE COLLECTED AS EARLY AS 12 NOON.", "ref": "8402600003"}, "type": "Feature"}
{"geometry": {"coordinates": [-110.840193, 40.209452], "type": "Point"}, "id": "mZQ5VXb6hE1iTMsVAtRFaxCINe0=", "properties": {"@spider": "usps_collection_boxes", "addr:city": "FRUITLAND", "addr:country": "US", "addr:full": "6186 S 45000 W", "addr:postcode": "84027", "addr:state": "UT", "brand": "USPS", "collection_times": "Mo-Sa 11:00", "name": "USPS COLLECTION BOX - BLUE BOX", "ref": "8402700001"}, "type": "Feature"}
{"geometry": {"coordinates": [-111.395609, 41.946699], "type": "Point"}, "id": "Yl_-NtSLGPU2Vg3yjtjPEeGzGPk=", "properties": {"@spider": "usps_collection_boxes", "addr:city": "GARDEN CITY", "addr:country": "US", "addr:full": "95 W LOGAN RD", "addr:postcode": "84028", "addr:state": "UT", "brand": "USPS", "collection_times": "Mo-Fr 14:45; Sa 12:00", "name": "USPS COLLECTION BOX - BLUE BOX", "note": "ON 12/24 AND 12/31, THIS BOX MAY BE COLLECTED AS EARLY AS 12 NOON.", "ref": "8402800001"}, "type": "Feature"}
{"geometry": {"coordinates": [-111.39572, 41.946672], "type": "Point"}, "id": "jsEWx_3HnXCEd9kDAUHgn1vZahQ=", "properties": {"@spider": "usps_collection_boxes", "addr:city": "GARDEN CITY", "addr:country": "US", "addr:full": "95 W LOGAN RD", "addr:postcode": "84028", "addr:state": "UT", "brand": "USPS", "collection_times": "Mo-Fr 15:00; Sa 12:00", "name": "USPS COLLECTION BOX - PO LOBBY", "note": "ON 12/24 AND 12/31, THIS BOX MAY BE COLLECTED AS EARLY AS 12 NOON.", "ref": "8402800002"}, "type": "Feature"}
{"geometry": {"coordinates": [-111.395564026, 41.946694522], "type": "Point"}, "id": "vNm7VVUImjZvLXNSUppXJotH8LE=", "properties": {"@spider": "usps_collection_boxes", "addr:city": "GARDEN CITY", "addr:country": "US", "addr:full": "95 W LOGAN RD", "addr:postcode": "84028", "addr:state": "UT", "brand": "USPS", "collection_times": "Mo-Fr 15:00; Sa 12:00", "name": "USPS COLLECTION BOX - PO LOBBY", "note": "ON 12/24 AND 12/31, THIS BOX MAY BE COLLECTED AS EARLY AS 12 NOON.", "ref": "8402800003"}, "type": "Feature"}
{"geometry": {"coordinates": [-112.46502, 40.599914], "type": "Point"}, "id": "qg6LtoTZ-csG_D6XzXvWLetOFqs=", "properties": {"@spider": "usps_collection_boxes", "addr:city": "GRANTSVILLE", "addr:country": "US", "addr:full": "36 W MAIN ST", "addr:postcode": "84029", "addr:state": "UT", "brand": "USPS", "collection_times": "Mo-Fr 16:30; Sa 11:30", "name": "USPS COLLECTION BOX - PO LOBBY", "note": "ON 12/24 AND 12/31, THIS BOX MAY BE COLLECTED AS EARLY AS 12 NOON.", "ref": "8402900003"}, "type": "Feature"}
{"geometry": {"coordinates": [-112.46502, 40.599914], "type": "Point"}, "id": "W7DuDVoBhYsR9O7a_koO-qY1E8o=", "properties": {"@spider": "usps_collection_boxes", "addr:city": "GRANTSVILLE", "addr:country": "US", "addr:full": "36 W MAIN ST", "addr:postcode": "84029", "addr:state": "UT", "brand": "USPS", "collection_times": "Mo-Fr 16:00; Sa 11:30", "name": "USPS COLLECTION BOX - BLUE BOX", "note": "ON 12/24 AND 12/31, THIS BOX MAY BE COLLECTED AS EARLY AS 12 NOON.", "ref": "8402900004"}, "type": "Feature"}
{"geometry": {"coordinates": [-112.46502, 40.599914], "type": "Point"}, "id": "7RNK-L2Rxk9pcdTlvIIFhyBYQ-E=", "properties": {"@spider": "usps_collection_boxes", "addr:city": "GRANTSVILLE", "addr:country": "US", "addr:full": "36 W MAIN ST", "addr:postcode": "84029", "addr:state": "UT", "brand": "USPS", "collection_times": "Mo-Fr 16:30; Sa 11:30", "name": "USPS COLLECTION BOX - PO LOBBY", "note": "ON 12/24 AND 12/31, THIS BOX MAY BE COLLECTED AS EARLY AS 12 NOON.", "ref": "8402900005"}, "type": "Feature"}
{"geometry": {"coordinates": [-112.464803001, 40.599926494], "type": "Point"}, "id": "VqljxTyCMf66GonKdGCI3mLfmXQ=", "properties": {"@spider": "usps_collection_boxes", "addr:city": "GRANTSVILLE", "addr:country": "US", "addr:full": "36 W MAIN ST", "addr:postcode": "84029", "addr:state": "UT", "brand": "USPS", "collection_times": "Mo-Fr 16:30; Sa 11:30", "name": "USPS COLLECTION BOX - PO LOBBY", "note": "ON 12/24 AND 12/31, THIS BOX MAY BE COLLECTED AS EARLY AS 12 NOON.", "ref": "8402900006"}, "type": "Feature"}
{"geometry": {"coordinates": [-111.411174, 40.50896], "type": "Point"}, "id": "pxS9vSEoZCRFi-dz3JDnIBDYFoM=", "properties": {"@spider": "usps_collection_boxes", "addr:city": "HEBER CITY", "addr:country": "US", "addr:full": "125 E 100 N", "addr:postcode": "84032", "addr:state": "UT", "brand": "USPS", "collection_times": "Mo-Fr 17:00; Sa 13:00", "name": "USPS COLLECTION BOX - BLUE BOX", "note": "ON 12/24 AND 12/31, THIS BOX MAY BE COLLECTED AS EARLY AS 12 NOON.", "ref": "8403200001"}, "type": "Feature"}
{"geometry": {"coordinates": [-111.413546, 40.503622], "type": "Point"}, "id": "L2_SAtyR6aqI5DXWXfbQojDnoFM=", "properties": {"@spider": "usps_collection_boxes", "addr:city": "HEBER CITY", "addr:country": "US", "addr:full": "300 S MAIN ST", "addr:postcode": "84032", "addr:state": "UT", "brand": "USPS", "collection_times": "Mo-Fr 17:00; Sa 13:00", "name": "USPS COLLECTION BOX - BLUE BOX", "note": "ON 12/24 AND 12/31, THIS BOX MAY BE COLLECTED AS EARLY AS 12 NOON.", "ref": "8403200003"}, "type": "Feature"}
{"geometry": {"coordinates": [-111.411235, 40.508934], "type": "Point"}, "id": "jaSO4LoCz4-9oJVul_ZCsdwz15k=", "properties": {"@spider": "usps_collection_boxes", "addr:city": "HEBER CITY", "addr:country": "US", "addr:full": "125 E 100 N", "addr:postcode": "84032", "addr:state": "UT", "brand": "USPS", "collection_times": "Mo-Fr 17:00; Sa 13:00", "name": "USPS COLLECTION BOX - PO LOBBY", "note": "ON 12/24 AND 12/31, THIS BOX MAY BE COLLECTED AS EARLY AS 12 NOON.", "ref": "8403200005"}, "type": "Feature"}
{"geometry": {"coordinates": [-111.411235, 40.508934], "type": "Point"}, "id": "hmJxzy-t-1SVPjqYufSzaRhVqfw=", "properties": {"@spider": "usps_collection_boxes", "addr:city": "HEBER CITY", "addr:country": "US", "addr:full": "125 E 100 N", "addr:postcode": "84032", "addr:state": "UT", "brand": "USPS", "collection_times": "Mo-Fr 17:00; Sa 13:00", "name": "USPS COLLECTION BOX - BLUE BOX", "note": "ON 12/24 AND 12/31, THIS BOX MAY BE COLLECTED AS EARLY AS 12 NOON.", "ref": "8403200006"}, "type": "Feature"}
{"geometry": {"coordinates": [-111.411283081, 40.508950515], "type": "Point"}, "id": "IzZ5Z-vZ6yX-jZ3YmSJm1uv-aag=", "properties": {"@spider": "usps_collection_boxes", "addr:city": "HEBER CITY", "addr:country": "US", "addr:full": "125 E 100 N", "addr:postcode": "84032", "addr:state": "UT", "brand": "USPS", "collection_times": "Mo-Fr 17:00; Sa 13:00", "name": "USPS COLLECTION BOX - PO LOBBY", "note": "ON 12/24 AND 12/31, THIS BOX MAY BE COLLECTED AS EARLY AS 12 NOON.", "ref": "8403200008"}, "type": "Feature"}
{"geometry": {"coordinates": [-109.336767, 40.369941], "type": "Point"}, "id": "Eg1zRA-z1sDG5e9aRNjOjTqFT4Q=", "properties": {"@spider": "usps_collection_boxes", "addr:city": "JENSEN", "addr:country": "US", "addr:full": "9947 E 6000 S", "addr:postcode": "84035", "addr:state": "UT", "brand": "USPS", "collection_times": "Mo-Fr 16:00; Sa 11:15", "name": "USPS COLLECTION BOX - BLUE BOX", "note": "ON 12/24 AND 12/31, THIS BOX MAY BE COLLECTED AS EARLY AS 12 NOON.", "ref": "8403500001"}, "type": "Feature"}
{"geometry": {"coordinates": [-109.336834, 40.369782], "type": "Point"}, "id": "5eWdgldCLPhBAiytpxFL2vu4FSo=", "properties": {"@spider": "usps_collection_boxes", "addr:city": "JENSEN", "addr:country": "US", "addr:full": "9947 E 6000 S", "addr:postcode": "84035", "addr:state": "UT", "brand": "USPS", "collection_times": "Mo-Fr 15:15; Sa 11:15", "name": "USPS COLLECTION BOX - PO LOBBY", "note": "ON 12/24 AND 12/31, THIS BOX MAY BE COLLECTED AS EARLY AS 12 NOON.", "ref": "8403500002"}, "type": "Feature"}
{"geometry": {"coordinates": [-109.336909636, 40.369774472], "type": "Point"}, "id": "rS5MU_CsVdi4sANG2R6IVWI_Ymk=", "properties": {"@spider": "usps_collection_boxes", "addr:city": "JENSEN", "addr:country": "US", "addr:full": "9947 E 6000 S", "addr:postcode": "84035", "addr:state": "UT", "brand": "USPS", "collection_times": "Mo-Fr 15:15; Sa 11:15", "name": "USPS COLLECTION BOX - PO LOBBY", "note": "ON 12/24 AND 12/31, THIS BOX MAY BE COLLECTED AS EARLY AS 12 NOON.", "ref": "8403500003"}, "type": "Feature"}
{"geometry": {"coordinates": [-111.281956, 40.644774], "type": "Point"}, "id": "eQcck8BXZ_5Q5U_MlyuqCNuEoN0=", "properties": {"@spider": "usps_collection_boxes", "addr:city": "KAMAS", "addr:country": "US", "addr:full": "55 W 100 N", "addr:postcode": "84036", "addr:state": "UT", "brand": "USPS", "collection_times": "Mo-Fr 16:00; Sa 11:00", "name": "USPS COLLECTION BOX - BLUE BOX", "note": "ON 12/24 AND 12/31, THIS BOX MAY BE COLLECTED AS EARLY AS 12 NOON.", "ref": "8403600001"}, "type": "Feature"}
{"geometry": {"coordinates": [-111.281968, 40.644801], "type": "Point"}, "id": "jSenn6PBy4Z4LDG7dP36P4Z5H1Y=", "properties": {"@spider": "usps_collection_boxes", "addr:city": "KAMAS", "addr:country": "US", "addr:full": "55 W 100 N", "addr:postcode": "84036", "addr:state": "UT", "brand": "USPS", "collection_times": "Mo-Fr 16:30; Sa 11:15", "name": "USPS COLLECTION BOX - PO LOBBY", "note": "ON 12/24 AND 12/31, THIS BOX MAY BE COLLECTED AS EARLY AS 12 NOON.", "ref": "8403600002"}, "type": "Feature"}
{"geometry": {"coordinates": [-111.283454, 40.640582], "type": "Point"}, "id": "vx2pWlRhkxO74qikiTfCQlbxslc=", "properties": {"@spider": "usps_collection_boxes", "addr:city": "KAMAS", "addr:country": "US", "addr:full": "145 W 200 S", "addr:postcode": "84036", "addr:state": "UT", "brand": "USPS", "collection_times": "Mo-Fr 12:00", "name": "USPS COLLECTION BOX - BLUE BOX", "ref": "8403600003"}, "type": "Feature"}
{"geometry": {"coordinates": [-111.2819805, 40.644765528], "type": "Point"}, "id": "HtpMD60oZX387kP4JFK4THW_ejc=", "properties": {"@spider": "usps_collection_boxes", "addr:city": "KAMAS", "addr:country": "US", "addr:full": "55 W 100 N", "addr:postcode": "84036", "addr:state": "UT", "brand": "USPS", "collection_times": "Mo-Fr 16:30; Sa 11:15", "name": "USPS COLLECTION BOX - PO LOBBY", "note": "ON 12/24 AND 12/31, THIS BOX MAY BE COLLECTED AS EARLY AS 12 NOON.", "ref": "8403600004"}, "type": "Feature"}
{"geometry": {"coordinates": [-111.324787, 41.825342], "type": "Point"}, "id": "gNiyNUIX6qflzDomDGq4ABE9WLw=", "properties": {"@spider": "usps_collection_boxes", "addr:city": "LAKETOWN", "addr:country": "US", "addr:full": "80 W CENTER ST", "addr:postcode": "84038", "addr:state": "UT", "brand": "USPS", "collection_times": "Mo-Fr 15:00; Sa 11:00", "name": "USPS COLLECTION BOX - BLUE BOX", "note": "ON 12/24 AND 12/31, THIS BOX MAY BE COLLECTED AS EARLY AS 12 NOON.", "ref": "8403800001"}, "type": "Feature"}
{"geometry": {"coordinates": [-111.325119, 41.82547], "type": "Point"}, "id": "6_BHyACBx1382XYlJgVDpctkS1k=", "properties": {"@spider": "usps_collection_boxes", "addr:city": "LAKETOWN", "addr:country": "US", "addr:full": "80 W CENTER ST", "addr:postcode": "84038", "addr:state": "UT", "brand": "USPS", "collection_times": "Mo-Fr 12:45; Sa 11:00", "name": "USPS COLLECTION BOX - PO LOBBY", "note": "ON 12/24 AND 12/31, THIS BOX MAY BE COLLECTED AS EARLY AS 12 NOON.", "ref": "8403800002"}, "type": "Feature"}
{"geometry": {"coordinates": [-111.324680665, 41.825468474], "type": "Point"}, "id": "S0ljXfuEoaQl2nFyQUk0uBu0ZAE=", "properties": {"@spider": "usps_collection_boxes", "addr:city": "LAKETOWN", "addr:country": "US", "addr:full": "80 W CENTER ST", "addr:postcode": "84038", "addr:state": "UT", "brand": "USPS", "collection_times": "Mo-Fr 12:45; Sa 11:00", "name": "USPS COLLECTION BOX - PO LOBBY", "note": "ON 12/24 AND 12/31, THIS BOX MAY BE COLLECTED AS EARLY AS 12 NOON.", "ref": "8403800003"}, "type": "Feature"}
{"geometry": {"coordinates": [-109.796199, 40.403708], "type": "Point"}, "id": "-ovxKQ3UuTVoOVOtWRVcOdhP-L8=", "properties": {"@spider": "usps_collection_boxes", "addr:city": "LAPOINT", "addr:country": "US", "addr:full": "10815 E 7000 N", "addr:postcode": "84039", "addr:state": "UT", "brand": "USPS", "collection_times": "Mo-Fr 14:45; Sa 11:15", "name": "USPS COLLECTION BOX - PO LOBBY", "note": "ON 12/24 AND 12/31, THIS BOX MAY BE COLLECTED AS EARLY AS 12 NOON.", "ref": "8403900002"}, "type": "Feature"}
{"geometry": {"coordinates": [-109.7962685255, 40.4037704788], "type": "Point"}, "id": "Tx6zoFBS7hREEOzuOX8WBo2Cxq0=", "properties": {"@spider": "usps_collection_boxes", "addr:city": "LAPOINT", "addr:country": "US", "addr:full": "10815 E 7000 N", "addr:postcode": "84039", "addr:state": "UT", "brand": "USPS", "collection_times": "Mo-Fr 15:45; Sa 11:15", "name": "USPS COLLECTION BOX - BLUE BOX", "note": "ON 12/24 AND 12/31, THIS BOX MAY BE COLLECTED AS EARLY AS 12 NOON.", "ref": "8403900003"}, "type": "Feature"}
{"geometry": {"coordinates": [-109.796283, 40.403761479], "type": "Point"}, "id": "scQhSNTFqw5sv8DkaKMWCCzwViw=", "properties": {"@spider": "usps_collection_boxes", "addr:city": "LAPOINT", "addr:country": "US", "addr:full": "10815 E 7000 N", "addr:postcode": "84039", "addr:state": "UT", "brand": "USPS", "collection_times": "Mo-Fr 14:45; Sa 11:15", "name": "USPS COLLECTION BOX - PO LOBBY", "note": "ON 12/24 AND 12/31, THIS BOX MAY BE COLLECTED AS EARLY AS 12 NOON.", "ref": "8403900004"}, "type": "Feature"}
{"geometry": {"coordinates": [-111.843786, 40.388064], "type": "Point"}, "id": "zaQw68f1bc2i9GMxjc_q9Q6gZYU=", "properties": {"@spider": "usps_collection_boxes", "addr:city": "LEHI", "addr:country": "US", "addr:full": "333 E MAIN ST", "addr:postcode": "84043", "addr:state": "UT", "brand": "USPS", "collection_times": "Mo-Fr 17:00; Sa 14:00", "name": "USPS COLLECTION BOX - PO LOBBY", "note": "ON 12/24 AND 12/31, THIS BOX MAY BE COLLECTED AS EARLY AS 12 NOON.", "ref": "8404300005"}, "type": "Feature"}
{"geometry": {"coordinates": [-111.836921, 40.386719], "type": "Point"}, "id": "61GMoy8IanDSqxeWfzS-0ItvCTY=", "properties": {"@spider": "usps_collection_boxes", "addr:city": "LEHI", "addr:country": "US", "addr:full": "760 E MAIN ST", "addr:postcode": "84043", "addr:state": "UT", "brand": "USPS", "collection_times": "Mo-Sa 10:00", "name": "USPS COLLECTION BOX - BLUE BOX", "ref": "8404300007"}, "type": "Feature"}
{"geometry": {"coordinates": [-111.861159, 40.406586], "type": "Point"}, "id": "Y6Y6fTNMKqQL3b9j4Qpeqw1zu1A=", "properties": {"@spider": "usps_collection_boxes", "addr:city": "LEHI", "addr:country": "US", "addr:full": "1531 W STATE ST", "addr:postcode": "84043", "addr:state": "UT", "brand": "USPS", "collection_times": "Mo-Sa 11:30", "name": "USPS COLLECTION BOX - BLUE BOX", "ref": "8404300008"}, "type": "Feature"}
{"geometry": {"coordinates": [-112.01186, 40.309588], "type": "Point"}, "id": "ZIo0JkmJLLm6Kr5n8hbgyGS3tWY=", "properties": {"@spider": "usps_collection_boxes", "addr:city": "LEHI", "addr:country": "US", "addr:full": "1650 STAGE COACH RUN", "addr:postcode": "84043", "addr:state": "UT", "brand": "USPS", "collection_times": "Mo-Sa 09:00", "name": "USPS COLLECTION BOX - BLUE BOX", "ref": "8404300012"}, "type": "Feature"}
{"geometry": {"coordinates": [-111.843826, 40.388036], "type": "Point"}, "id": "L-dmK4zm4KlV7udNQ6Yif5ojEuk=", "properties": {"@spider": "usps_collection_boxes", "addr:city": "LEHI", "addr:country": "US", "addr:full": "333 E MAIN ST", "addr:postcode": "84043", "addr:state": "UT", "brand": "USPS", "collection_times": "Mo-Fr 17:00; Sa 14:00", "name": "USPS COLLECTION BOX - BLUE BOX", "note": "ON 12/24 AND 12/31, THIS BOX MAY BE COLLECTED AS EARLY AS 12 NOON.", "ref": "8404300013"}, "type": "Feature"}
{"geometry": {"coordinates": [-111.843826, 40.388036], "type": "Point"}, "id": "va31BqCKsBx2Rrqhwgwmw7f9QMQ=", "properties": {"@spider": "usps_collection_boxes", "addr:city": "LEHI", "addr:country": "US", "addr:full": "333 E MAIN ST", "addr:postcode": "84043", "addr:state": "UT", "brand": "USPS", "collection_times": "Mo-Fr 17:00; Sa 14:00", "name": "USPS COLLECTION BOX - PO LOBBY", "note": "ON 12/24 AND 12/31, THIS BOX MAY BE COLLECTED AS EARLY AS 12 NOON.", "ref": "8404300014"}, "type": "Feature"}
{"geometry": {"coordinates": [-111.917812, 40.387713], "type": "Point"}, "id": "PxjOGVxXh9e-8pB4qX6KV5eMHlk=", "properties": {"@spider": "usps_collection_boxes", "addr:city": "LEHI", "addr:country": "US", "addr:full": "74 W HIGHWAY 73", "addr:postcode": "84043", "addr:state": "UT", "brand": "USPS", "collection_times": "Mo-Sa 10:00", "name": "USPS COLLECTION BOX - BLUE BOX", "ref": "8404300015"}, "type": "Feature"}
{"geometry": {"coordinates": [-111.843826, 40.388036], "type": "Point"}, "id": "U-b5QB-pV7lko9Fz64S3KkQ5p7w=", "properties": {"@spider": "usps_collection_boxes", "addr:city": "LEHI", "addr:country": "US", "addr:full": "333 E MAIN ST", "addr:postcode": "84043", "addr:state": "UT", "brand": "USPS", "collection_times": "Mo-Fr 17:00; Sa 14:00", "name": "USPS COLLECTION BOX - APC", "note": "ON 12/24 AND 12/31, THIS BOX MAY BE COLLECTED AS EARLY AS 12 NOON.", "ref": "8404300016"}, "type": "Feature"}
{"geometry": {"coordinates": [-111.892633, 40.428178], "type": "Point"}, "id": "SjNXA9LJCTXr7d7BsVToG-dy9Oo=", "properties": {"@spider": "usps_collection_boxes", "addr:city": "LEHI", "addr:country": "US", "addr:full": "2600 EXECUTIVE PKWY", "addr:postcode": "84043", "addr:state": "UT", "brand": "USPS", "collection_times": "Mo-Sa 10:00", "name": "USPS COLLECTION BOX - BLUE BOX", "ref": "8404300017"}, "type": "Feature"}
{"geometry": {"coordinates": [-111.84354428, 40.388063446], "type": "Point"}, "id": "HOqdUGBFSyoRmiR20LJgMRX-aVk=", "properties": {"@spider": "usps_collection_boxes", "addr:city": "LEHI", "addr:country": "US", "addr:full": "333 E MAIN ST", "addr:postcode": "84043", "addr:state": "UT", "brand": "USPS", "collection_times": "Mo-Fr 17:00; Sa 14:00", "name": "USPS COLLECTION BOX - PO LOBBY", "note": "ON 12/24 AND 12/31, THIS BOX MAY BE COLLECTED AS EARLY AS 12 NOON.", "ref": "8404300020"}, "type": "Feature"}
{"geometry": {"coordinates": [-111.910197, 40.612389], "type": "Point"}, "id": "cT6VjMvsWghoXdy9Vj8yn0PMlWo=", "properties": {"@spider": "usps_collection_boxes", "addr:city": "MIDVALE", "addr:country": "US", "addr:full": "7651 S MAIN ST", "addr:postcode": "84047", "addr:state": "UT", "brand": "USPS", "collection_times": "Mo-Fr 15:00; Sa 14:00", "name": "USPS COLLECTION BOX - BLUE BOX", "note": "ON 12/24 AND 12/31, THIS BOX MAY BE COLLECTED AS EARLY AS 12 NOON.", "ref": "8404700006"}, "type": "Feature"}
{"geometry": {"coordinates": [-111.910074, 40.620011], "type": "Point"}, "id": "DpAg54Sq0zi1loe8ix-0YjXNzuk=", "properties": {"@spider": "usps_collection_boxes", "addr:city": "MIDVALE", "addr:country": "US", "addr:full": "7257 S 700 W", "addr:postcode": "84047", "addr:state": "UT", "brand": "USPS", "collection_times": "Mo-Fr 15:00; Sa 14:00", "name": "USPS COLLECTION BOX - BLUE BOX", "note": "ON 12/24 AND 12/31, THIS BOX MAY BE COLLECTED AS EARLY AS 12 NOON.", "ref": "8404700007"}, "type": "Feature"}
{"geometry": {"coordinates": [-111.86619, 40.617256], "type": "Point"}, "id": "ZYltoYFvAp-T5X6KnPja6LYj4fk=", "properties": {"@spider": "usps_collection_boxes", "addr:city": "MIDVALE", "addr:country": "US", "addr:full": "7331 S 900 E", "addr:postcode": "84047", "addr:state": "UT", "brand": "USPS", "collection_times": "Mo-Fr 16:00; Sa 13:30", "name": "USPS COLLECTION BOX - BLUE BOX", "note": "ON 12/24 AND 12/31, THIS BOX MAY BE COLLECTED AS EARLY AS 12 NOON.", "ref": "8404700011"}, "type": "Feature"}
{"geometry": {"coordinates": [-111.854581, 40.610919], "type": "Point"}, "id": "cznS_wXsIVDQGtf5nfO7cpNTvoU=", "properties": {"@spider": "usps_collection_boxes", "addr:city": "MIDVALE", "addr:country": "US", "addr:full": "7730 S UNION PARK AVE", "addr:postcode": "84047", "addr:state": "UT", "brand": "USPS", "collection_times": "Mo-Fr 16:15; Sa 13:45", "name": "USPS COLLECTION BOX - BLUE BOX", "note": "ON 12/24 AND 12/31, THIS BOX MAY BE COLLECTED AS EARLY AS 12 NOON.", "ref": "8404700013"}, "type": "Feature"}
{"geometry": {"coordinates": [-111.862586, 40.623356], "type": "Point"}, "id": "6pl6lVaY1JtO2_qFZhYcTj9zoXs=", "properties": {"@spider": "usps_collection_boxes", "addr:city": "MIDVALE", "addr:country": "US", "addr:full": "995 E FORT UNION BLVD", "addr:postcode": "84047", "addr:state": "UT", "brand": "USPS", "collection_times": "Mo-Fr 16:15; Sa 13:45", "name": "USPS COLLECTION BOX - BLUE BOX", "note": "ON 12/24 AND 12/31, THIS BOX MAY BE COLLECTED AS EARLY AS 12 NOON.", "ref": "8404700014"}, "type": "Feature"}
{"geometry": {"coordinates": [-111.858677, 40.624766], "type": "Point"}, "id": "D8SaiHKJfR_MbSaqdlKIZhn1dDQ=", "properties": {"@spider": "usps_collection_boxes", "addr:city": "MIDVALE", "addr:country": "US", "addr:full": "6925 S UNION PARK CTR", "addr:postcode": "84047", "addr:state": "UT", "brand": "USPS", "collection_times": "Mo-Fr 16:45; Sa 13:45", "name": "USPS COLLECTION BOX - BLUE BOX", "note": "ON 12/24 AND 12/31, THIS BOX MAY BE COLLECTED AS EARLY AS 12 NOON.", "ref": "8404700016"}, "type": "Feature"}
{"geometry": {"coordinates": [-111.857036, 40.623742], "type": "Point"}, "id": "dKGs_n324MUKDrxGiAs8GMmXDuQ=", "properties": {"@spider": "usps_collection_boxes", "addr:city": "MIDVALE", "addr:country": "US", "addr:full": "6985 S UNION PARK CTR", "addr:postcode": "84047", "addr:state": "UT", "brand": "USPS", "collection_times": "Mo-Fr 16:30; Sa 13:45", "name": "USPS COLLECTION BOX - BLUE BOX", "note": "ON 12/24 AND 12/31, THIS BOX MAY BE COLLECTED AS EARLY AS 12 NOON.", "ref": "8404700018"}, "type": "Feature"}
{"geometry": {"coordinates": [-111.857968, 40.622171], "type": "Point"}, "id": "gXdeLpNyfUsXRGCgl7UKF8ULK5Y=", "properties": {"@spider": "usps_collection_boxes", "addr:city": "MIDVALE", "addr:country": "US", "addr:full": "7090 S UNION PARK AVE", "addr:postcode": "84047", "addr:state": "UT", "brand": "USPS", "collection_times": "Mo-Fr 17:00; Sa 13:45", "name": "USPS COLLECTION BOX - BLUE BOX", "note": "ON 12/24 AND 12/31, THIS BOX MAY BE COLLECTED AS EARLY AS 12 NOON.", "ref": "8404700019"}, "type": "Feature"}
{"geometry": {"coordinates": [-111.8996689581, 40.6237988954], "type": "Point"}, "id": "h2DXj70rfyc6Oo6j7DApKPsdPlM=", "properties": {"@spider": "usps_collection_boxes", "addr:city": "MIDVALE", "addr:country": "US", "addr:full": "7043 S COTTONWOOD ST", "addr:postcode": "84047", "addr:state": "UT", "brand": "USPS", "collection_times": "Mo-Fr 15:45; Sa 14:00", "name": "USPS COLLECTION BOX - BLUE BOX", "note": "ON 12/24 AND 12/31, THIS BOX MAY BE COLLECTED AS EARLY AS 12 NOON.", "ref": "8404700029"}, "type": "Feature"}
{"geometry": {"coordinates": [-111.8658, 40.626244], "type": "Point"}, "id": "sk2WfKFajcuMjEPmvrwdD2POSMw=", "properties": {"@spider": "usps_collection_boxes", "addr:city": "MIDVALE", "addr:country": "US", "addr:full": "6875 S 900 E", "addr:postcode": "84047", "addr:state": "UT", "brand": "USPS", "collection_times": "Mo-Fr 16:15; Sa 13:45", "name": "USPS COLLECTION BOX - BLUE BOX", "note": "ON 12/24 AND 12/31, THIS BOX MAY BE COLLECTED AS EARLY AS 12 NOON.", "ref": "8404700034"}, "type": "Feature"}
{"geometry": {"coordinates": [-111.89201, 40.610239], "type": "Point"}, "id": "nvYZGDDTuEjscdHfg1yj-ioTp1A=", "properties": {"@spider": "usps_collection_boxes", "addr:city": "MIDVALE", "addr:country": "US", "addr:full": "35 W CENTER ST", "addr:postcode": "84047", "addr:state": "UT", "brand": "USPS", "collection_times": "Mo-Fr 17:30; Sa 14:30", "name": "USPS COLLECTION BOX - PO LOBBY", "note": "ON 12/24 AND 12/31, THIS BOX MAY BE COLLECTED AS EARLY AS 12 NOON.", "ref": "8404700038"}, "type": "Feature"}
{"geometry": {"coordinates": [-111.856202, 40.624768], "type": "Point"}, "id": "YVIENCRMbNKt5b3_IL1xvY8XkjA=", "properties": {"@spider": "usps_collection_boxes", "addr:city": "MIDVALE", "addr:country": "US", "addr:full": "6965 S UNION PARK CTR", "addr:postcode": "84047", "addr:state": "UT", "brand": "USPS", "collection_times": "Mo-Fr 17:00; Sa 13:45", "name": "USPS COLLECTION BOX - BLUE BOX", "note": "ON 12/24 AND 12/31, THIS BOX MAY BE COLLECTED AS EARLY AS 12 NOON.", "ref": "8404700044"}, "type": "Feature"}
{"geometry": {"coordinates": [-111.892043, 40.610792], "type": "Point"}, "id": "LjpjbQgWbuQBMgDI9dLO2xBBfjM=", "properties": {"@spider": "usps_collection_boxes", "addr:city": "MIDVALE", "addr:country": "US", "addr:full": "35 W CENTER ST", "addr:postcode": "84047", "addr:state": "UT", "brand": "USPS", "collection_times": "Mo-Fr 17:00; Sa 14:15", "name": "USPS COLLECTION BOX - BLUE BOX", "note": "ON 12/24 AND 12/31, THIS BOX MAY BE COLLECTED AS EARLY AS 12 NOON.", "ref": "8404700046"}, "type": "Feature"}
{"geometry": {"coordinates": [-111.85617, 40.623712], "type": "Point"}, "id": "2pQxovfya_2NHUf2QeiRMS_Ypsg=", "properties": {"@spider": "usps_collection_boxes", "addr:city": "MIDVALE", "addr:country": "US", "addr:full": "6975 S UNION PARK CTR", "addr:postcode": "84047", "addr:state": "UT", "brand": "USPS", "collection_times": "Mo-Fr 16:30; Sa 13:45", "name": "USPS COLLECTION BOX - BLUE BOX", "note": "ON 12/24 AND 12/31, THIS BOX MAY BE COLLECTED AS EARLY AS 12 NOON.", "ref": "8404700047"}, "type": "Feature"}
{"geometry": {"coordinates": [-111.859656, 40.617787], "type": "Point"}, "id": "-V8zSWlR7RL1SRFtdbtAIBndrAc=", "properties": {"@spider": "usps_collection_boxes", "addr:city": "MIDVALE", "addr:country": "US", "addr:full": "1092 E SOUTH UNION AVE", "addr:postcode": "84047", "addr:state": "UT", "brand": "USPS", "collection_times": "Mo-Fr 16:00; Sa 13:30", "name": "USPS COLLECTION BOX - BLUE BOX", "note": "ON 12/24 AND 12/31, THIS BOX MAY BE COLLECTED AS EARLY AS 12 NOON.", "ref": "8404700048"}, "type": "Feature"}
{"geometry": {"coordinates": [-111.8919015, 40.610912484], "type": "Point"}, "id": "YHuJbqn814DF4iU2pkqD2_UdQbc=", "properties": {"@spider": "usps_collection_boxes", "addr:city": "MIDVALE", "addr:country": "US", "addr:full": "35 W CENTER ST", "addr:postcode": "84047", "addr:state": "UT", "brand": "USPS", "collection_times": "Mo-Fr 17:30; Sa 14:30", "name": "USPS COLLECTION BOX - PO LOBBY", "note": "ON 12/24 AND 12/31, THIS BOX MAY BE COLLECTED AS EARLY AS 12 NOON.", "ref": "8404700052"}, "type": "Feature"}
{"geometry": {"coordinates": [-111.475032, 40.512204], "type": "Point"}, "id": "yFRTULE2dpPOfaXRO_8hkTf_s_Y=", "properties": {"@spider": "usps_collection_boxes", "addr:city": "MIDWAY", "addr:country": "US", "addr:full": "125 W MAIN ST", "addr:postcode": "84049", "addr:state": "UT", "brand": "USPS", "collection_times": "Mo-Fr 16:30; Sa 11:30", "name": "USPS COLLECTION BOX - BLUE BOX", "note": "ON 12/24 AND 12/31, THIS BOX MAY BE COLLECTED AS EARLY AS 12 NOON.", "ref": "8404900001"}, "type": "Feature"}
{"geometry": {"coordinates": [-111.474971, 40.51223], "type": "Point"}, "id": "msbMyzN8DLDH_b0f16JfEk9gnbU=", "properties": {"@spider": "usps_collection_boxes", "addr:city": "MIDWAY", "addr:country": "US", "addr:full": "125 W MAIN ST", "addr:postcode": "84049", "addr:state": "UT", "brand": "USPS", "collection_times": "Mo-Fr 16:30; Sa 11:30", "name": "USPS COLLECTION BOX - PO LOBBY", "note": "ON 12/24 AND 12/31, THIS BOX MAY BE COLLECTED AS EARLY AS 12 NOON.", "ref": "8404900002"}, "type": "Feature"}
{"geometry": {"coordinates": [-111.475210835, 40.512194467], "type": "Point"}, "id": "7kRI3dORsb7YYtlPTkQklhjROE0=", "properties": {"@spider": "usps_collection_boxes", "addr:city": "MIDWAY", "addr:country": "US", "addr:full": "125 W MAIN ST", "addr:postcode": "84049", "addr:state": "UT", "brand": "USPS", "collection_times": "Mo-Fr 16:30; Sa 11:30", "name": "USPS COLLECTION BOX - PO LOBBY", "note": "ON 12/24 AND 12/31, THIS BOX MAY BE COLLECTED AS EARLY AS 12 NOON.", "ref": "8404900003"}, "type": "Feature"}
{"geometry": {"coordinates": [-110.061846, 40.19455], "type": "Point"}, "id": "wNXQgxbOnIB7TzjIgwj5rqErctY=", "properties": {"@spider": "usps_collection_boxes", "addr:city": "MYTON", "addr:country": "US", "addr:full": "80 E MAIN ST", "addr:postcode": "84052", "addr:state": "UT", "brand": "USPS", "collection_times": "Mo-Fr 15:45; Sa 12:00", "name": "USPS COLLECTION BOX - PO LOBBY", "note": "ON 12/24 AND 12/31, THIS BOX MAY BE COLLECTED AS EARLY AS 12 NOON.", "ref": "8405200002"}, "type": "Feature"}
{"geometry": {"coordinates": [-110.061798757, 40.194495641], "type": "Point"}, "id": "h_kk7J3-gEB9m3MxyxKKQVY-5cs=", "properties": {"@spider": "usps_collection_boxes", "addr:city": "MYTON", "addr:country": "US", "addr:full": "80 E MAIN ST", "addr:postcode": "84052", "addr:state": "UT", "brand": "USPS", "collection_times": "Mo-Fr 15:45; Sa 12:00", "name": "USPS COLLECTION BOX - PO LOBBY", "note": "ON 12/24 AND 12/31, THIS BOX MAY BE COLLECTED AS EARLY AS 12 NOON.", "ref": "8405200003"}, "type": "Feature"}
{"geometry": {"coordinates": [-110.030093, 40.436111], "type": "Point"}, "id": "XHbEDjGw4YF5jKv4yGk5n7s4XTQ=", "properties": {"@spider": "usps_collection_boxes", "addr:city": "NEOLA", "addr:country": "US", "addr:full": "9086 N 2000 W", "addr:postcode": "84053", "addr:state": "UT", "brand": "USPS", "collection_times": "Mo-Fr 12:45; Sa 09:15", "name": "USPS COLLECTION BOX - PO LOBBY", "note": "ON 12/24 AND 12/31, THIS BOX MAY BE COLLECTED AS EARLY AS 12 NOON.", "ref": "8405300002"}, "type": "Feature"}
{"geometry": {"coordinates": [-109.9882786, 40.4330797], "type": "Point"}, "id": "lRQWey5qVnVh_WD9MlUZCkByU6g=", "properties": {"@spider": "usps_collection_boxes", "addr:city": "NEOLA", "addr:country": "US", "addr:full": "9086 N 2000 W", "addr:postcode": "84053", "addr:state": "UT", "brand": "USPS", "collection_times": "Mo-Fr 12:45; Sa 09:15", "name": "USPS COLLECTION BOX - PO LOBBY", "note": "ON 12/24 AND 12/31, THIS BOX MAY BE COLLECTED AS EARLY AS 12 NOON.", "ref": "8405300003"}, "type": "Feature"}
{"geometry": {"coordinates": [-111.300012, 40.714683], "type": "Point"}, "id": "FkhHaalERXWiizi9uEs__-iGOi4=", "properties": {"@spider": "usps_collection_boxes", "addr:city": "OAKLEY", "addr:country": "US", "addr:full": "4820 N STATE ROAD 32", "addr:postcode": "84055", "addr:state": "UT", "brand": "USPS", "collection_times": "Mo-Fr 16:00; Sa 11:00", "name": "USPS COLLECTION BOX - BLUE BOX", "note": "ON 12/24 AND 12/31, THIS BOX MAY BE COLLECTED AS EARLY AS 12 NOON.", "ref": "8405500001"}, "type": "Feature"}
{"geometry": {"coordinates": [-111.300253735, 40.714632], "type": "Point"}, "id": "FkUtRfL166QYaM5xjCsq5G3Ny2Y=", "properties": {"@spider": "usps_collection_boxes", "addr:city": "OAKLEY", "addr:country": "US", "addr:full": "4820 N STATE ROAD 32", "addr:postcode": "84055", "addr:state": "UT", "brand": "USPS", "collection_times": "Mo-Fr 16:30; Sa 11:00", "name": "USPS COLLECTION BOX - PO LOBBY", "note": "ON 12/24 AND 12/31, THIS BOX MAY BE COLLECTED AS EARLY AS 12 NOON.", "ref": "8405500002"}, "type": "Feature"}
{"geometry": {"coordinates": [-111.694119, 40.297621], "type": "Point"}, "id": "muILWQeERJxxloLOygANFGBX2LY=", "properties": {"@spider": "usps_collection_boxes", "addr:city": "OREM", "addr:country": "US", "addr:full": "14 E CENTER ST", "addr:postcode": "84057", "addr:state": "UT", "brand": "USPS", "collection_times": "Mo-Fr 16:00", "name": "USPS COLLECTION BOX - BLUE BOX", "note": "ON 12/24 AND 12/31, THIS BOX MAY BE COLLECTED AS EARLY AS 12 NOON.", "ref": "8405700018"}, "type": "Feature"}
{"geometry": {"coordinates": [-111.705377455, 40.29989939], "type": "Point"}, "id": "1Ynt4Hq6lMLPMxpjijSzqRP6CBI=", "properties": {"@spider": "usps_collection_boxes", "addr:city": "OREM", "addr:country": "US", "addr:full": "151 N 400 W", "addr:postcode": "84057", "addr:state": "UT", "brand": "USPS", "collection_times": "Mo-Fr 15:30", "name": "USPS COLLECTION BOX - BLUE BOX", "note": "ON 12/24 AND 12/31, THIS BOX MAY BE COLLECTED AS EARLY AS 12 NOON.", "ref": "8405700021"}, "type": "Feature"}
{"geometry": {"coordinates": [-111.701245, 40.297179], "type": "Point"}, "id": "8L2b6D2hRe99WkcZ3QvKvlIYWs8=", "properties": {"@spider": "usps_collection_boxes", "addr:city": "OREM", "addr:country": "US", "addr:full": "222 W CENTER ST", "addr:postcode": "84057", "addr:state": "UT", "brand": "USPS", "collection_times": "Mo-Fr 17:30; Sa 16:30", "name": "USPS COLLECTION BOX - BLUE BOX", "note": "ON 12/24 AND 12/31, THIS BOX MAY BE COLLECTED AS EARLY AS 12 NOON.", "ref": "8405700030"}, "type": "Feature"}
{"geometry": {"coordinates": [-111.699008, 40.301834], "type": "Point"}, "id": "xc_V7SsPq4jHyuCc3X5KXxg52Qw=", "properties": {"@spider": "usps_collection_boxes", "addr:city": "OREM", "addr:country": "US", "addr:full": "240 N OREM BLVD", "addr:postcode": "84057", "addr:state": "UT", "brand": "USPS", "collection_times": "Mo-Fr 16:00", "name": "USPS COLLECTION BOX - BLUE BOX", "note": "ON 12/24 AND 12/31, THIS BOX MAY BE COLLECTED AS EARLY AS 12 NOON.", "ref": "8405700044"}, "type": "Feature"}
{"geometry": {"coordinates": [-111.701127, 40.297152], "type": "Point"}, "id": "66_rjTNMvm8dabNcdD_b-PQnRF8=", "properties": {"@spider": "usps_collection_boxes", "addr:city": "OREM", "addr:country": "US", "addr:full": "222 W CENTER ST", "addr:postcode": "84057", "addr:state": "UT", "brand": "USPS", "collection_times": "Mo-Fr 17:45; Sa 16:30", "name": "USPS COLLECTION BOX - APC", "note": "ON 12/24 AND 12/31, THIS BOX MAY BE COLLECTED AS EARLY AS 12 NOON.", "ref": "8405700045"}, "type": "Feature"}
{"geometry": {"coordinates": [-111.708255, 40.313105], "type": "Point"}, "id": "BCYN6SQ5ESbPqPODjU63Bo80Cy0=", "properties": {"@spider": "usps_collection_boxes", "addr:city": "OREM", "addr:country": "US", "addr:full": "472 W 800 N", "addr:postcode": "84057", "addr:state": "UT", "brand": "USPS", "collection_times": "Mo-Fr 16:00", "name": "USPS COLLECTION BOX - BLUE BOX", "note": "ON 12/24 AND 12/31, THIS BOX MAY BE COLLECTED AS EARLY AS 12 NOON.", "ref": "8405700046"}, "type": "Feature"}
{"geometry": {"coordinates": [-111.701127, 40.297152], "type": "Point"}, "id": "zEh_bMou256py6vFFKj78U50FkY=", "properties": {"@spider": "usps_collection_boxes", "addr:city": "OREM", "addr:country": "US", "addr:full": "222 W CENTER ST", "addr:postcode": "84057", "addr:state": "UT", "brand": "USPS", "collection_times": "Mo-Fr 17:45; Sa 16:30", "name": "USPS COLLECTION BOX - PO LOBBY", "note": "ON 12/24 AND 12/31, THIS BOX MAY BE COLLECTED AS EARLY AS 12 NOON.", "ref": "8405700049"}, "type": "Feature"}
{"geometry": {"coordinates": [-111.682983, 40.311487], "type": "Point"}, "id": "xbIAJlPL7mL892WuIcbcWVBhQ54=", "properties": {"@spider": "usps_collection_boxes", "addr:city": "OREM", "addr:country": "US", "addr:full": "532 E 800 N", "addr:postcode": "84057", "addr:state": "UT", "brand": "USPS", "collection_times": "Mo-Fr 16:00", "name": "USPS COLLECTION BOX - BLUE BOX", "note": "ON 12/24 AND 12/31, THIS BOX MAY BE COLLECTED AS EARLY AS 12 NOON.", "ref": "8405700052"}, "type": "Feature"}
{"geometry": {"coordinates": [-111.68061, 40.322986], "type": "Point"}, "id": "Rz24ReOKCPwr5Op_P6tqlau2YO0=", "properties": {"@spider": "usps_collection_boxes", "addr:city": "OREM", "addr:country": "US", "addr:full": "1555 N TECHNOLOGY WAY", "addr:postcode": "84057", "addr:state": "UT", "brand": "USPS", "collection_times": "Mo-Fr 16:00", "name": "USPS COLLECTION BOX - BLUE BOX", "note": "ON 12/24 AND 12/31, THIS BOX MAY BE COLLECTED AS EARLY AS 12 NOON.", "ref": "8405700053"}, "type": "Feature"}
{"geometry": {"coordinates": [-111.727046916, 40.296031712], "type": "Point"}, "id": "_vNJAGyiUwXuTPYHieL8CIjlAIM=", "properties": {"@spider": "usps_collection_boxes", "addr:city": "OREM", "addr:country": "US", "addr:full": "100 MOUNTAIN WAY DR", "addr:postcode": "84057", "addr:state": "UT", "brand": "USPS", "collection_times": "Mo-Fr 15:30", "name": "USPS COLLECTION BOX - BLUE BOX", "note": "ON 12/24 AND 12/31, THIS BOX MAY BE COLLECTED AS EARLY AS 12 NOON.", "ref": "8405700054"}, "type": "Feature"}
{"geometry": {"coordinates": [-111.701664, 40.297176509], "type": "Point"}, "id": "OlSRDbMB1YhKdXXWucTaSbCOp8w=", "properties": {"@spider": "usps_collection_boxes", "addr:city": "OREM", "addr:country": "US", "addr:full": "222 W CENTER ST", "addr:postcode": "84057", "addr:state": "UT", "brand": "USPS", "collection_times": "Mo-Fr 17:45; Sa 16:30", "name": "USPS COLLECTION BOX - PO LOBBY", "note": "ON 12/24 AND 12/31, THIS BOX MAY BE COLLECTED AS EARLY AS 12 NOON.", "ref": "8405700055"}, "type": "Feature"}
{"geometry": {"coordinates": [-111.495841, 40.643638], "type": "Point"}, "id": "DshfNmXUiCKMgH-9RX3JYSwBKXw=", "properties": {"@spider": "usps_collection_boxes", "addr:city": "PARK CITY", "addr:country": "US", "addr:full": "450 MAIN ST", "addr:postcode": "84060", "addr:state": "UT", "brand": "USPS", "collection_times": "Mo-Fr 17:00; Sa 13:00", "name": "USPS COLLECTION BOX - BLUE BOX", "note": "ON 12/24 AND 12/31, THIS BOX MAY BE COLLECTED AS EARLY AS 12 NOON.", "ref": "8406000000"}, "type": "Feature"}
{"geometry": {"coordinates": [-111.495841, 40.643638], "type": "Point"}, "id": "UyNQwEohZIMDJMCTht9FUSYSYmo=", "properties": {"@spider": "usps_collection_boxes", "addr:city": "PARK CITY", "addr:country": "US", "addr:full": "450 MAIN ST", "addr:postcode": "84060", "addr:state": "UT", "brand": "USPS", "collection_times": "Mo-Fr 16:45; Sa 12:45", "name": "USPS COLLECTION BOX - BLUE BOX", "note": "ON 12/24 AND 12/31, THIS BOX MAY BE COLLECTED AS EARLY AS 12 NOON.", "ref": "8406000001"}, "type": "Feature"}
{"geometry": {"coordinates": [-111.495841, 40.643638], "type": "Point"}, "id": "YyL4anvzLuCaSQ1RS_C9rjA-2Q0=", "properties": {"@spider": "usps_collection_boxes", "addr:city": "PARK CITY", "addr:country": "US", "addr:full": "450 MAIN ST", "addr:postcode": "84060", "addr:state": "UT", "brand": "USPS", "collection_times": "Mo-Fr 17:00; Sa 13:00", "name": "USPS COLLECTION BOX - PO LOBBY", "note": "ON 12/24 AND 12/31, THIS BOX MAY BE COLLECTED AS EARLY AS 12 NOON.", "ref": "8406000002"}, "type": "Feature"}
{"geometry": {"coordinates": [-111.495841, 40.643638], "type": "Point"}, "id": "TJNgYLJgtcaX_RfSkdnAUztTSG4=", "properties": {"@spider": "usps_collection_boxes", "addr:city": "PARK CITY", "addr:country": "US", "addr:full": "450 MAIN ST", "addr:postcode": "84060", "addr:state": "UT", "brand": "USPS", "collection_times": "Mo-Fr 17:00; Sa 13:00", "name": "USPS COLLECTION BOX - PO LOBBY", "note": "ON 12/24 AND 12/31, THIS BOX MAY BE COLLECTED AS EARLY AS 12 NOON.", "ref": "8406000003"}, "type": "Feature"}
{"geometry": {"coordinates": [-111.496011728, 40.644034239], "type": "Point"}, "id": "MG_Eaa3FH0CWB2E1DAs6JOha-KY=", "properties": {"@spider": "usps_collection_boxes", "addr:city": "PARK CITY", "addr:country": "US", "addr:full": "450 MAIN ST", "addr:postcode": "84060", "addr:state": "UT", "brand": "USPS", "collection_times": "Mo-Fr 17:00; Sa 13:00", "name": "USPS COLLECTION BOX - PO LOBBY", "note": "ON 12/24 AND 12/31, THIS BOX MAY BE COLLECTED AS EARLY AS 12 NOON.", "ref": "8406000006"}, "type": "Feature"}
{"geometry": {"coordinates": [-111.726411, 40.33102], "type": "Point"}, "id": "6bitz7gRkO-ZZO1AjDBZ3nP2wQk=", "properties": {"@spider": "usps_collection_boxes", "addr:city": "PLEASANT GROVE", "addr:country": "US", "addr:full": "350 S 500 W", "addr:postcode": "84062", "addr:state": "UT", "brand": "USPS", "collection_times": "Mo-Fr 15:00", "name": "USPS COLLECTION BOX - BLUE BOX", "note": "ON 12/24 AND 12/31, THIS BOX MAY BE COLLECTED AS EARLY AS 12 NOON.", "ref": "8406200001"}, "type": "Feature"}
{"geometry": {"coordinates": [-111.714625, 40.33479], "type": "Point"}, "id": "r6xdcdxl84a1n3ufZhuUPB3UHwQ=", "properties": {"@spider": "usps_collection_boxes", "addr:city": "PLEASANT GROVE", "addr:country": "US", "addr:full": "144 S STATE ST", "addr:postcode": "84062", "addr:state": "UT", "brand": "USPS", "collection_times": "Mo-Sa 10:00", "name": "USPS COLLECTION BOX - BLUE BOX", "ref": "8406200002"}, "type": "Feature"}
{"geometry": {"coordinates": [-111.739545, 40.36303], "type": "Point"}, "id": "oR6-WVE78Fk_l_gtV1s8WNdhttg=", "properties": {"@spider": "usps_collection_boxes", "addr:city": "PLEASANT GROVE", "addr:country": "US", "addr:full": "87 S 100 E", "addr:postcode": "84062", "addr:state": "UT", "brand": "USPS", "collection_times": "Mo-Fr 17:00; Sa 15:00", "name": "USPS COLLECTION BOX - BLUE BOX", "note": "ON 12/24 AND 12/31, THIS BOX MAY BE COLLECTED AS EARLY AS 12 NOON.", "ref": "8406200005"}, "type": "Feature"}
{"geometry": {"coordinates": [-111.742355, 40.361639], "type": "Point"}, "id": "58SOpUEjSArSgwuDg5ZtWgMMv5g=", "properties": {"@spider": "usps_collection_boxes", "addr:city": "PLEASANT GROVE", "addr:country": "US", "addr:full": "180 S 100 W", "addr:postcode": "84062", "addr:state": "UT", "brand": "USPS", "collection_times": "Mo-Fr 17:00; Sa 15:00", "name": "USPS COLLECTION BOX - BLUE BOX", "note": "ON 12/24 AND 12/31, THIS BOX MAY BE COLLECTED AS EARLY AS 12 NOON.", "ref": "8406200006"}, "type": "Feature"}
{"geometry": {"coordinates": [-111.74297, 40.361805], "type": "Point"}, "id": "Z4I0zpDseEcvk24cCYVYK4r12W0=", "properties": {"@spider": "usps_collection_boxes", "addr:city": "PLEASANT GROVE", "addr:country": "US", "addr:full": "180 S 100 W", "addr:postcode": "84062", "addr:state": "UT", "brand": "USPS", "collection_times": "Mo-Fr 17:15; Sa 14:45", "name": "USPS COLLECTION BOX - PO LOBBY", "note": "ON 12/24 AND 12/31, THIS BOX MAY BE COLLECTED AS EARLY AS 12 NOON.", "ref": "8406200010"}, "type": "Feature"}
{"geometry": {"coordinates": [-111.752889, 40.414833], "type": "Point"}, "id": "k2KubyLPZFkeW1BHoTYeZzBiqsQ=", "properties": {"@spider": "usps_collection_boxes", "addr:city": "PLEASANT GROVE", "addr:country": "US", "addr:full": "3925 W CEDAR HILLS DR", "addr:postcode": "84062", "addr:state": "UT", "brand": "USPS", "collection_times": "Mo-Sa 10:30", "name": "USPS COLLECTION BOX - BLUE BOX", "ref": "8406200011"}, "type": "Feature"}
{"geometry": {"coordinates": [-111.718054, 40.339998], "type": "Point"}, "id": "_q8sM6fEI251aqx1MGah3t6po4Y=", "properties": {"@spider": "usps_collection_boxes", "addr:city": "PLEASANT GROVE", "addr:country": "US", "addr:full": "100 N STATE ST", "addr:postcode": "84062", "addr:state": "UT", "brand": "USPS", "collection_times": "Mo-Sa 10:00", "name": "USPS COLLECTION BOX - BLUE BOX", "ref": "8406200012"}, "type": "Feature"}
{"geometry": {"coordinates": [-111.742925, 40.361897], "type": "Point"}, "id": "iVMZnDufqWcBY5cNOCpfZAS8ws0=", "properties": {"@spider": "usps_collection_boxes", "addr:city": "PLEASANT GROVE", "addr:country": "US", "addr:full": "180 S 100 W", "addr:postcode": "84062", "addr:state": "UT", "brand": "USPS", "collection_times": "Mo-Fr 17:15; Sa 14:45", "name": "USPS COLLECTION BOX - APC", "note": "ON 12/24 AND 12/31, THIS BOX MAY BE COLLECTED AS EARLY AS 12 NOON.", "ref": "8406200014"}, "type": "Feature"}
{"geometry": {"coordinates": [-111.742274107, 40.361491375], "type": "Point"}, "id": "gGYlQMnOsFy3JnZNcStrGQtzut8=", "properties": {"@spider": "usps_collection_boxes", "addr:city": "PLEASANT GROVE", "addr:country": "US", "addr:full": "180 S 100 W", "addr:postcode": "84062", "addr:state": "UT", "brand": "USPS", "collection_times": "Mo-Fr 17:15; Sa 14:45", "name": "USPS COLLECTION BOX - PO LOBBY", "note": "ON 12/24 AND 12/31, THIS BOX MAY BE COLLECTED AS EARLY AS 12 NOON.", "ref": "8406200016"}, "type": "Feature"}
{"geometry": {"coordinates": [-111.184958, 41.66398], "type": "Point"}, "id": "J5CIsWIwxgTw_cVhM92wHqeXEVE=", "properties": {"@spider": "usps_collection_boxes", "addr:city": "RANDOLPH", "addr:country": "US", "addr:full": "75 S MAIN ST", "addr:postcode": "84064", "addr:state": "UT", "brand": "USPS", "collection_times": "Mo-Fr 12:15; Sa 10:15", "name": "USPS COLLECTION BOX - PO LOBBY", "note": "ON 12/24 AND 12/31, THIS BOX MAY BE COLLECTED AS EARLY AS 12 NOON.", "ref": "8406400001"}, "type": "Feature"}
{"geometry": {"coordinates": [-111.185114, 41.66402], "type": "Point"}, "id": "mePBlImrPiVFJqK3gltHghbi550=", "properties": {"@spider": "usps_collection_boxes", "addr:city": "RANDOLPH", "addr:country": "US", "addr:full": "75 S MAIN ST", "addr:postcode": "84064", "addr:state": "UT", "brand": "USPS", "collection_times": "Mo-Fr 15:30; Sa 10:15", "name": "USPS COLLECTION BOX - BLUE BOX", "note": "ON 12/24 AND 12/31, THIS BOX MAY BE COLLECTED AS EARLY AS 12 NOON.", "ref": "8406400003"}, "type": "Feature"}
{"geometry": {"coordinates": [-111.184956753, 41.664023749], "type": "Point"}, "id": "8krCxmovTWmHwcDL5RUyYHD1SZY=", "properties": {"@spider": "usps_collection_boxes", "addr:city": "RANDOLPH", "addr:country": "US", "addr:full": "75 S MAIN ST", "addr:postcode": "84064", "addr:state": "UT", "brand": "USPS", "collection_times": "Mo-Fr 12:15; Sa 10:15", "name": "USPS COLLECTION BOX - PO LOBBY", "note": "ON 12/24 AND 12/31, THIS BOX MAY BE COLLECTED AS EARLY AS 12 NOON.", "ref": "8406400004"}, "type": "Feature"}
{"geometry": {"coordinates": [-111.938608, 40.493491], "type": "Point"}, "id": "ofyHPtbQUlL3I3sLMS-OvaqBPUE=", "properties": {"@spider": "usps_collection_boxes", "addr:city": "RIVERTON", "addr:country": "US", "addr:full": "14177 S REDWOOD RD", "addr:postcode": "84065", "addr:state": "UT", "brand": "USPS", "collection_times": "Mo-Fr 12:00", "name": "USPS COLLECTION BOX - BLUE BOX", "ref": "8406500000"}, "type": "Feature"}
{"geometry": {"coordinates": [-112.025369, 40.514126], "type": "Point"}, "id": "AW-TnXAS11R-IwNc0O_glv3T36k=", "properties": {"@spider": "usps_collection_boxes", "addr:city": "RIVERTON", "addr:country": "US", "addr:full": "5626 W 13100 S", "addr:postcode": "84065", "addr:state": "UT", "brand": "USPS", "collection_times": "Mo-Fr 12:00", "name": "USPS COLLECTION BOX - BLUE BOX", "ref": "8406500001"}, "type": "Feature"}
{"geometry": {"coordinates": [-111.946908, 40.520065], "type": "Point"}, "id": "QjrgoNzcNHxAsG-CxsyjNrg9b28=", "properties": {"@spider": "usps_collection_boxes", "addr:city": "RIVERTON", "addr:country": "US", "addr:full": "12760 S PARK AVE", "addr:postcode": "84065", "addr:state": "UT", "brand": "USPS", "collection_times": "Mo-Fr 17:00; Sa 14:00", "name": "USPS COLLECTION BOX - APC", "note": "ON 12/24 AND 12/31, THIS BOX MAY BE COLLECTED AS EARLY AS 12 NOON.", "ref": "8406500002"}, "type": "Feature"}
{"geometry": {"coordinates": [-111.946119, 40.520104], "type": "Point"}, "id": "Q36F_PZcxQwrF46V6Dq1zxqG4GU=", "properties": {"@spider": "usps_collection_boxes", "addr:city": "RIVERTON", "addr:country": "US", "addr:full": "12760 S PARK AVE", "addr:postcode": "84065", "addr:state": "UT", "brand": "USPS", "collection_times": "Mo-Fr 16:00; Sa 14:00", "name": "USPS COLLECTION BOX - BLUE BOX", "note": "ON 12/24 AND 12/31, THIS BOX MAY BE COLLECTED AS EARLY AS 12 NOON.", "ref": "8406500004"}, "type": "Feature"}
{"geometry": {"coordinates": [-111.946699, 40.520203], "type": "Point"}, "id": "7rtIM9aA835s9ZPT-M0Z_l6qRHw=", "properties": {"@spider": "usps_collection_boxes", "addr:city": "RIVERTON", "addr:country": "US", "addr:full": "12760 S PARK AVE", "addr:postcode": "84065", "addr:state": "UT", "brand": "USPS", "collection_times": "Mo-Fr 17:00; Sa 14:00", "name": "USPS COLLECTION BOX - PO LOBBY", "note": "ON 12/24 AND 12/31, THIS BOX MAY BE COLLECTED AS EARLY AS 12 NOON.", "ref": "8406500005"}, "type": "Feature"}
{"geometry": {"coordinates": [-111.946652, 40.520255], "type": "Point"}, "id": "774hl9UIKJwvYet0hBq8b25GXek=", "properties": {"@spider": "usps_collection_boxes", "addr:city": "RIVERTON", "addr:country": "US", "addr:full": "12760 S PARK AVE", "addr:postcode": "84065", "addr:state": "UT", "brand": "USPS", "collection_times": "Mo-Fr 17:00; Sa 14:00", "name": "USPS COLLECTION BOX - PO LOBBY", "note": "ON 12/24 AND 12/31, THIS BOX MAY BE COLLECTED AS EARLY AS 12 NOON.", "ref": "8406500006"}, "type": "Feature"}
{"geometry": {"coordinates": [-111.945988635, 40.520294885], "type": "Point"}, "id": "m3KSP5amBKCz9ysZlsrWtJW-jFo=", "properties": {"@spider": "usps_collection_boxes", "addr:city": "RIVERTON", "addr:country": "US", "addr:full": "12760 S PARK AVE", "addr:postcode": "84065", "addr:state": "UT", "brand": "USPS", "collection_times": "Mo-Fr 17:00; Sa 14:00", "name": "USPS COLLECTION BOX - PO LOBBY", "note": "ON 12/24 AND 12/31, THIS BOX MAY BE COLLECTED AS EARLY AS 12 NOON.", "ref": "8406500010"}, "type": "Feature"}
{"geometry": {"coordinates": [-109.987307, 40.298356], "type": "Point"}, "id": "gGPQ1xMbG98vjfondl5noQ-bSX0=", "properties": {"@spider": "usps_collection_boxes", "addr:city": "ROOSEVELT", "addr:country": "US", "addr:full": "81 S 300 E", "addr:postcode": "84066", "addr:state": "UT", "brand": "USPS", "collection_times": "Mo-Fr 17:00; Sa 12:00", "name": "USPS COLLECTION BOX - BLUE BOX", "note": "ON 12/24 AND 12/31, THIS BOX MAY BE COLLECTED AS EARLY AS 12 NOON.", "ref": "8406600002"}, "type": "Feature"}
{"geometry": {"coordinates": [-109.987307, 40.298356], "type": "Point"}, "id": "Uy90c-0liTxwrpnw3ouUjNUQLAw=", "properties": {"@spider": "usps_collection_boxes", "addr:city": "ROOSEVELT", "addr:country": "US", "addr:full": "81 S 300 E", "addr:postcode": "84066", "addr:state": "UT", "brand": "USPS", "collection_times": "Mo-Fr 17:00; Sa 12:00", "name": "USPS COLLECTION BOX - BLUE BOX", "note": "ON 12/24 AND 12/31, THIS BOX MAY BE COLLECTED AS EARLY AS 12 NOON.", "ref": "8406600003"}, "type": "Feature"}
{"geometry": {"coordinates": [-109.987307, 40.298356], "type": "Point"}, "id": "8yUezBMGuBfoYr2eQaFu3FxN8es=", "properties": {"@spider": "usps_collection_boxes", "addr:city": "ROOSEVELT", "addr:country": "US", "addr:full": "81 S 300 E", "addr:postcode": "84066", "addr:state": "UT", "brand": "USPS", "collection_times": "Mo-Fr 17:00; Sa 12:00", "name": "USPS COLLECTION BOX - PO LOBBY", "note": "ON 12/24 AND 12/31, THIS BOX MAY BE COLLECTED AS EARLY AS 12 NOON.", "ref": "8406600004"}, "type": "Feature"}
{"geometry": {"coordinates": [-109.987307, 40.298356], "type": "Point"}, "id": "_HmJgRt-DcSx7BNG4boo6tsCJj8=", "properties": {"@spider": "usps_collection_boxes", "addr:city": "ROOSEVELT", "addr:country": "US", "addr:full": "81 S 300 E", "addr:postcode": "84066", "addr:state": "UT", "brand": "USPS", "collection_times": "Mo-Fr 17:00; Sa 12:00", "name": "USPS COLLECTION BOX - PO LOBBY", "note": "ON 12/24 AND 12/31, THIS BOX MAY BE COLLECTED AS EARLY AS 12 NOON.", "ref": "8406600006"}, "type": "Feature"}
{"geometry": {"coordinates": [-109.987306517, 40.298435941], "type": "Point"}, "id": "GXvpB2RxE62KBGGptQYDTJUGkmQ=", "properties": {"@spider": "usps_collection_boxes", "addr:city": "ROOSEVELT", "addr:country": "US", "addr:full": "81 S 300 E", "addr:postcode": "84066", "addr:state": "UT", "brand": "USPS", "collection_times": "Mo-Fr 17:00; Sa 12:00", "name": "USPS COLLECTION BOX - PO LOBBY", "note": "ON 12/24 AND 12/31, THIS BOX MAY BE COLLECTED AS EARLY AS 12 NOON.", "ref": "8406600007"}, "type": "Feature"}
{"geometry": {"coordinates": [-111.498453, 40.663151], "type": "Point"}, "id": "Z7dOOtZgMYD0h2iNGUrmat6atcg=", "properties": {"@spider": "usps_collection_boxes", "addr:city": "PARK CITY", "addr:country": "US", "addr:full": "1780 SIDEWINDER DR", "addr:postcode": "84068", "addr:state": "UT", "brand": "USPS", "collection_times": "Mo-Sa 10:30", "name": "USPS COLLECTION BOX - BLUE BOX", "ref": "8406800002"}, "type": "Feature"}
{"geometry": {"coordinates": [-111.5132397757, 40.6639251391], "type": "Point"}, "id": "yrALvweJ384hW9USusPDcSm3JRE=", "properties": {"@spider": "usps_collection_boxes", "addr:city": "PARK CITY", "addr:country": "US", "addr:full": "2100 PARK AVE", "addr:postcode": "84068", "addr:state": "UT", "brand": "USPS", "collection_times": "Mo-Fr 17:00; Sa 12:30", "name": "USPS COLLECTION BOX - BLUE BOX", "note": "ON 12/24 AND 12/31, THIS BOX MAY BE COLLECTED AS EARLY AS 12 NOON.", "ref": "8406800005"}, "type": "Feature"}
{"geometry": {"coordinates": [-111.512699, 40.664416], "type": "Point"}, "id": "SsnYtDjW1oIHNAoCtObvLA6ywEU=", "properties": {"@spider": "usps_collection_boxes", "addr:city": "PARK CITY", "addr:country": "US", "addr:full": "2100 PARK AVE", "addr:postcode": "84068", "addr:state": "UT", "brand": "USPS", "collection_times": "Mo-Fr 17:00; Sa 12:30", "name": "USPS COLLECTION BOX - BLUE BOX", "note": "ON 12/24 AND 12/31, THIS BOX MAY BE COLLECTED AS EARLY AS 12 NOON.", "ref": "8406800008"}, "type": "Feature"}
{"geometry": {"coordinates": [-111.512391, 40.664091], "type": "Point"}, "id": "gvTHy4XhkOSAUKHj80cOGmtNGDA=", "properties": {"@spider": "usps_collection_boxes", "addr:city": "PARK CITY", "addr:country": "US", "addr:full": "2100 PARK AVE", "addr:postcode": "84068", "addr:state": "UT", "brand": "USPS", "collection_times": "Mo-Fr 17:30; Sa 13:00", "name": "USPS COLLECTION BOX - PO LOBBY", "note": "ON 12/24 AND 12/31, THIS BOX MAY BE COLLECTED AS EARLY AS 12 NOON.", "ref": "8406800009"}, "type": "Feature"}
{"geometry": {"coordinates": [-111.512407, 40.664067], "type": "Point"}, "id": "5stSZJS-19n9JcrwkifqYR1JyNY=", "properties": {"@spider": "usps_collection_boxes", "addr:city": "PARK CITY", "addr:country": "US", "addr:full": "2100 PARK AVE", "addr:postcode": "84068", "addr:state": "UT", "brand": "USPS", "collection_times": "Mo-Fr 17:30; Sa 13:00", "name": "USPS COLLECTION BOX - PO LOBBY", "note": "ON 12/24 AND 12/31, THIS BOX MAY BE COLLECTED AS EARLY AS 12 NOON.", "ref": "8406800026"}, "type": "Feature"}
{"geometry": {"coordinates": [-111.512401, 40.664073], "type": "Point"}, "id": "7IOgSaTtE1lAP7g-H80C7tdnyys=", "properties": {"@spider": "usps_collection_boxes", "addr:city": "PARK CITY", "addr:country": "US", "addr:full": "2100 PARK AVE", "addr:postcode": "84068", "addr:state": "UT", "brand": "USPS", "collection_times": "Mo-Fr 17:30; Sa 13:00", "name": "USPS COLLECTION BOX - PO LOBBY", "note": "ON 12/24 AND 12/31, THIS BOX MAY BE COLLECTED AS EARLY AS 12 NOON.", "ref": "8406800027"}, "type": "Feature"}
{"geometry": {"coordinates": [-111.513239776, 40.663925139], "type": "Point"}, "id": "IoNNEImLGRD6xj9bObBYCSctwNk=", "properties": {"@spider": "usps_collection_boxes", "addr:city": "PARK CITY", "addr:country": "US", "addr:full": "2100 PARK AVE", "addr:postcode": "84068", "addr:state": "UT", "brand": "USPS", "collection_times": "Mo-Fr 17:30; Sa 13:00", "name": "USPS COLLECTION BOX - PO LOBBY", "note": "ON 12/24 AND 12/31, THIS BOX MAY BE COLLECTED AS EARLY AS 12 NOON.", "ref": "8406800028"}, "type": "Feature"}
{"geometry": {"coordinates": [-112.454563, 40.355074], "type": "Point"}, "id": "NAeXWOSjXYg_nfB_yGdZjS0Eo-4=", "properties": {"@spider": "usps_collection_boxes", "addr:city": "RUSH VALLEY", "addr:country": "US", "addr:full": "326 W CENTER ST", "addr:postcode": "84069", "addr:state": "UT", "brand": "USPS", "collection_times": "Mo-Fr 13:15; Sa 12:30", "name": "USPS COLLECTION BOX - BLUE BOX", "note": "ON 12/24 AND 12/31, THIS BOX MAY BE COLLECTED AS EARLY AS 12 NOON.", "ref": "8406900001"}, "type": "Feature"}
{"geometry": {"coordinates": [-112.456653, 40.35469], "type": "Point"}, "id": "o0inWWszwea8VgP8mxREhakaZhE=", "properties": {"@spider": "usps_collection_boxes", "addr:city": "RUSH VALLEY", "addr:country": "US", "addr:full": "326 W CENTER ST", "addr:postcode": "84069", "addr:state": "UT", "brand": "USPS", "collection_times": "Mo-Fr 12:45; Sa 12:30", "name": "USPS COLLECTION BOX - PO LOBBY", "note": "ON 12/24 AND 12/31, THIS BOX MAY BE COLLECTED AS EARLY AS 12 NOON.", "ref": "8406900002"}, "type": "Feature"}
{"geometry": {"coordinates": [-112.456704886, 40.354754725], "type": "Point"}, "id": "4ezvIj-d7TJ0s0D3PATFiqb_1rM=", "properties": {"@spider": "usps_collection_boxes", "addr:city": "RUSH VALLEY", "addr:country": "US", "addr:full": "326 W CENTER ST", "addr:postcode": "84069", "addr:state": "UT", "brand": "USPS", "collection_times": "Mo-Fr 12:45; Sa 12:30", "name": "USPS COLLECTION BOX - PO LOBBY", "note": "ON 12/24 AND 12/31, THIS BOX MAY BE COLLECTED AS EARLY AS 12 NOON.", "ref": "8406900003"}, "type": "Feature"}
{"geometry": {"coordinates": [-111.872725345, 40.605940815], "type": "Point"}, "id": "3g4qJvLofAOom0Xn9EoGBgh0Roo=", "properties": {"@spider": "usps_collection_boxes", "addr:city": "SANDY", "addr:country": "US", "addr:full": "675 E 8000 S", "addr:postcode": "84070", "addr:state": "UT", "brand": "USPS", "collection_times": "Mo-Sa 12:00", "name": "USPS COLLECTION BOX - BLUE BOX", "ref": "8407000002"}, "type": "Feature"}
{"geometry": {"coordinates": [-111.872546, 40.589996], "type": "Point"}, "id": "ebbGDHvtZ5joSBYjBFo-K88ipwI=", "properties": {"@spider": "usps_collection_boxes", "addr:city": "SANDY", "addr:country": "US", "addr:full": "8850 S 700 E", "addr:postcode": "84070", "addr:state": "UT", "brand": "USPS", "collection_times": "Mo-Fr 17:30; Sa 15:00", "name": "USPS COLLECTION BOX - BLUE BOX", "note": "ON 12/24 AND 12/31, THIS BOX MAY BE COLLECTED AS EARLY AS 12 NOON.", "ref": "8407000003"}, "type": "Feature"}
{"geometry": {"coordinates": [-111.872526, 40.590014], "type": "Point"}, "id": "4XjDzCHaGn7CqdOkvv1v__DarVw=", "properties": {"@spider": "usps_collection_boxes", "addr:city": "SANDY", "addr:country": "US", "addr:full": "8850 S 700 E", "addr:postcode": "84070", "addr:state": "UT", "brand": "USPS", "collection_times": "Mo-Fr 17:30; Sa 15:00", "name": "USPS COLLECTION BOX - EXPRESS", "note": "ON 12/24 AND 12/31, THIS BOX MAY BE COLLECTED AS EARLY AS 12 NOON.", "ref": "8407000006"}, "type": "Feature"}
{"geometry": {"coordinates": [-111.9007078335, 40.5928445867], "type": "Point"}, "id": "H7bQGBUFzDAvmUzlACZfUKCeYKs=", "properties": {"@spider": "usps_collection_boxes", "addr:city": "SANDY", "addr:country": "US", "addr:full": "8741 S HARRISON ST", "addr:postcode": "84070", "addr:state": "UT", "brand": "USPS", "collection_times": "Mo-Sa 12:00", "name": "USPS COLLECTION BOX - BLUE BOX", "ref": "8407000007"}, "type": "Feature"}
{"geometry": {"coordinates": [-111.900869, 40.584835], "type": "Point"}, "id": "VAlH7W_WMbV00KZy8FSMRlY_hz0=", "properties": {"@spider": "usps_collection_boxes", "addr:city": "SANDY", "addr:country": "US", "addr:full": "9150 S 300 W", "addr:postcode": "84070", "addr:state": "UT", "brand": "USPS", "collection_times": "Mo-Sa 12:00", "name": "USPS COLLECTION BOX - BLUE BOX", "ref": "8407000010"}, "type": "Feature"}
{"geometry": {"coordinates": [-111.8818132647, 40.5812428032], "type": "Point"}, "id": "vva8sDX1IrU6wSJVS-skZ3aGuD0=", "properties": {"@spider": "usps_collection_boxes", "addr:city": "SANDY", "addr:country": "US", "addr:full": "9380 S 300 E", "addr:postcode": "84070", "addr:state": "UT", "brand": "USPS", "collection_times": "Mo-Sa 12:00", "name": "USPS COLLECTION BOX - BLUE BOX", "ref": "8407000012"}, "type": "Feature"}
{"geometry": {"coordinates": [-111.872374, 40.574855], "type": "Point"}, "id": "5mokPBTJ6kfkvwyat18iYEfhQuc=", "properties": {"@spider": "usps_collection_boxes", "addr:city": "SANDY", "addr:country": "US", "addr:full": "9710 S 700 E", "addr:postcode": "84070", "addr:state": "UT", "brand": "USPS", "collection_times": "Mo-Sa 12:00", "name": "USPS COLLECTION BOX - BLUE BOX", "ref": "8407000013"}, "type": "Feature"}
{"geometry": {"coordinates": [-111.872001, 40.559772], "type": "Point"}, "id": "oykFvAofOFqoCJhc43N_5ma5K-Q=", "properties": {"@spider": "usps_collection_boxes", "addr:city": "SANDY", "addr:country": "US", "addr:full": "10575 S 700 E", "addr:postcode": "84070", "addr:state": "UT", "brand": "USPS", "collection_times": "Mo-Sa 12:00", "name": "USPS COLLECTION BOX - BLUE BOX", "ref": "8407000021"}, "type": "Feature"}
{"geometry": {"coordinates": [-111.893513, 40.562242], "type": "Point"}, "id": "CJNcKW6UQ1ikdthPNnIeSXIeZ6M=", "properties": {"@spider": "usps_collection_boxes", "addr:city": "SANDY", "addr:country": "US", "addr:full": "10450 S STATE ST", "addr:postcode": "84070", "addr:state": "UT", "brand": "USPS", "collection_times": "Mo-Sa 12:00", "name": "USPS COLLECTION BOX - BLUE BOX", "ref": "8407000022"}, "type": "Feature"}
{"geometry": {"coordinates": [-111.896895, 40.570001], "type": "Point"}, "id": "U1yRdFTSna9GzQ1rBsweqqO4rSQ=", "properties": {"@spider": "usps_collection_boxes", "addr:city": "SANDY", "addr:country": "US", "addr:full": "210 W SEGO LILY DR", "addr:postcode": "84070", "addr:state": "UT", "brand": "USPS", "collection_times": "Mo-Sa 12:00", "name": "USPS COLLECTION BOX - BLUE BOX", "ref": "8407000025"}, "type": "Feature"}
{"geometry": {"coordinates": [-111.872829, 40.590451], "type": "Point"}, "id": "zhDL21JR7fcvL2mtcCBO860XC6U=", "properties": {"@spider": "usps_collection_boxes", "addr:city": "SANDY", "addr:country": "US", "addr:full": "8850 S 700 E", "addr:postcode": "84070", "addr:state": "UT", "brand": "USPS", "collection_times": "Mo-Fr 18:00; Sa 15:00", "name": "USPS COLLECTION BOX - PO LOBBY", "note": "ON 12/24 AND 12/31, THIS BOX MAY BE COLLECTED AS EARLY AS 12 NOON.", "ref": "8407000049"}, "type": "Feature"}
{"geometry": {"coordinates": [-111.872753, 40.590425], "type": "Point"}, "id": "hvReAVje3tX-wobSAwvMnk_SQTQ=", "properties": {"@spider": "usps_collection_boxes", "addr:city": "SANDY", "addr:country": "US", "addr:full": "8850 S 700 E", "addr:postcode": "84070", "addr:state": "UT", "brand": "USPS", "collection_times": "Mo-Fr 18:00; Sa 15:00", "name": "USPS COLLECTION BOX - PO LOBBY", "note": "ON 12/24 AND 12/31, THIS BOX MAY BE COLLECTED AS EARLY AS 12 NOON.", "ref": "8407000052"}, "type": "Feature"}
{"geometry": {"coordinates": [-111.893667, 40.569573], "type": "Point"}, "id": "nzpCUWeJx5NoNPgcN0yaOLugb2c=", "properties": {"@spider": "usps_collection_boxes", "addr:city": "SANDY", "addr:country": "US", "addr:full": "50 W SEGO LILY DR", "addr:postcode": "84070", "addr:state": "UT", "brand": "USPS", "collection_times": "Mo-Sa 12:00", "name": "USPS COLLECTION BOX - BLUE BOX", "ref": "8407000067"}, "type": "Feature"}
{"geometry": {"coordinates": [-111.88747, 40.581685], "type": "Point"}, "id": "7mQxUR_NiWU-FWKMNjoRVcP7g8o=", "properties": {"@spider": "usps_collection_boxes", "addr:city": "SANDY", "addr:country": "US", "addr:full": "9350 S 150 E", "addr:postcode": "84070", "addr:state": "UT", "brand": "USPS", "collection_times": "Mo-Fr 12:00", "name": "USPS COLLECTION BOX - BLUE BOX", "ref": "8407000068"}, "type": "Feature"}
{"geometry": {"coordinates": [-111.8964913324, 40.5696695467], "type": "Point"}, "id": "K8C9SDbR3YPNSxL92zm6QJXMGPc=", "properties": {"@spider": "usps_collection_boxes", "addr:city": "SANDY", "addr:country": "US", "addr:full": "215 W SEGO LILY DR", "addr:postcode": "84070", "addr:state": "UT", "brand": "USPS", "collection_times": "Mo-Fr 15:00", "name": "USPS COLLECTION BOX - PO LOBBY", "note": "ON 12/24 AND 12/31, THIS BOX MAY BE COLLECTED AS EARLY AS 12 NOON.", "ref": "8407000072"}, "type": "Feature"}
{"geometry": {"coordinates": [-111.872839, 40.590479], "type": "Point"}, "id": "0jELoSZf_6OYYQR8n-aUP7M0jTA=", "properties": {"@spider": "usps_collection_boxes", "addr:city": "SANDY", "addr:country": "US", "addr:full": "8850 S 700 E", "addr:postcode": "84070", "addr:state": "UT", "brand": "USPS", "collection_times": "Mo-Fr 18:00; Sa 15:00", "name": "USPS COLLECTION BOX - APC", "note": "ON 12/24 AND 12/31, THIS BOX MAY BE COLLECTED AS EARLY AS 12 NOON.", "ref": "8407000076"}, "type": "Feature"}
{"geometry": {"coordinates": [-111.896182, 40.569675], "type": "Point"}, "id": "KtZ0VZUNwUUBZtEJjqxQiErktzo=", "properties": {"@spider": "usps_collection_boxes", "addr:city": "SANDY", "addr:country": "US", "addr:full": "215 W SEGO LILY DR", "addr:postcode": "84070", "addr:state": "UT", "brand": "USPS", "collection_times": "Mo-Fr 17:00", "name": "USPS COLLECTION BOX - PO LOBBY", "note": "ON 12/24 AND 12/31, THIS BOX MAY BE COLLECTED AS EARLY AS 12 NOON.", "ref": "8407000082"}, "type": "Feature"}
{"geometry": {"coordinates": [-111.896182, 40.569675], "type": "Point"}, "id": "yB0Svag8efvGyg6Khv1xYyXZb1o=", "properties": {"@spider": "usps_collection_boxes", "addr:city": "SANDY", "addr:country": "US", "addr:full": "215 W SEGO LILY DR", "addr:postcode": "84070", "addr:state": "UT", "brand": "USPS", "collection_times": "Mo-Fr 17:00", "name": "USPS COLLECTION BOX - PO LOBBY", "note": "ON 12/24 AND 12/31, THIS BOX MAY BE COLLECTED AS EARLY AS 12 NOON.", "ref": "8407000083"}, "type": "Feature"}
{"geometry": {"coordinates": [-111.896182, 40.569675], "type": "Point"}, "id": "jdhXkjEPDWqT27LvDJEgwpo_Ams=", "properties": {"@spider": "usps_collection_boxes", "addr:city": "SANDY", "addr:country": "US", "addr:full": "215 W SEGO LILY DR", "addr:postcode": "84070", "addr:state": "UT", "brand": "USPS", "collection_times": "Mo-Fr 17:00", "name": "USPS COLLECTION BOX - PO LOBBY", "note": "ON 12/24 AND 12/31, THIS BOX MAY BE COLLECTED AS EARLY AS 12 NOON.", "ref": "8407000084"}, "type": "Feature"}
{"geometry": {"coordinates": [-111.896733693, 40.5696525], "type": "Point"}, "id": "5MVfp31prYUu2yBIH6WzumUF0S8=", "properties": {"@spider": "usps_collection_boxes", "addr:city": "SANDY", "addr:country": "US", "addr:full": "215 W SEGO LILY DR", "addr:postcode": "84070", "addr:state": "UT", "brand": "USPS", "collection_times": "Mo-Fr 17:00", "name": "USPS COLLECTION BOX - PO LOBBY", "note": "ON 12/24 AND 12/31, THIS BOX MAY BE COLLECTED AS EARLY AS 12 NOON.", "ref": "8407000091"}, "type": "Feature"}
{"geometry": {"coordinates": [-111.872247697, 40.590432], "type": "Point"}, "id": "9rL6beiNNKuxaTgsi4zqviQD2oI=", "properties": {"@spider": "usps_collection_boxes", "addr:city": "SANDY", "addr:country": "US", "addr:full": "8850 S 700 E", "addr:postcode": "84070", "addr:state": "UT", "brand": "USPS", "collection_times": "Mo-Fr 18:00; Sa 15:00", "name": "USPS COLLECTION BOX - PO LOBBY", "note": "ON 12/24 AND 12/31, THIS BOX MAY BE COLLECTED AS EARLY AS 12 NOON.", "ref": "8407000092"}, "type": "Feature"}
{"geometry": {"coordinates": [-111.939745, 40.72801], "type": "Point"}, "id": "pUJZ5cSs4SdqZscRJWkrMfKTg4c=", "properties": {"@spider": "usps_collection_boxes", "addr:city": "STOCKTON", "addr:country": "US", "addr:full": "231 N CONNER AVE", "addr:postcode": "84071", "addr:state": "UT", "brand": "USPS", "collection_times": "Mo-Fr 15:15; Sa 10:15", "name": "USPS COLLECTION BOX - BLUE BOX", "note": "ON 12/24 AND 12/31, THIS BOX MAY BE COLLECTED AS EARLY AS 12 NOON.", "ref": "8407100001"}, "type": "Feature"}
{"geometry": {"coordinates": [-112.360107, 40.455433], "type": "Point"}, "id": "25zEopxJppLohaT1thw5YhlhlDs=", "properties": {"@spider": "usps_collection_boxes", "addr:city": "STOCKTON", "addr:country": "US", "addr:full": "231 N CONNER AVE", "addr:postcode": "84071", "addr:state": "UT", "brand": "USPS", "collection_times": "Mo-Fr 15:15; Sa 10:15", "name": "USPS COLLECTION BOX - PO LOBBY", "note": "ON 12/24 AND 12/31, THIS BOX MAY BE COLLECTED AS EARLY AS 12 NOON.", "ref": "8407100002"}, "type": "Feature"}
{"geometry": {"coordinates": [-112.359999407, 40.455657397], "type": "Point"}, "id": "FAUWfRKNEZJPOBS3pgkujMctMRw=", "properties": {"@spider": "usps_collection_boxes", "addr:city": "STOCKTON", "addr:country": "US", "addr:full": "231 N CONNER AVE", "addr:postcode": "84071", "addr:state": "UT", "brand": "USPS", "collection_times": "Mo-Fr 15:15; Sa 10:15", "name": "USPS COLLECTION BOX - PO LOBBY", "note": "ON 12/24 AND 12/31, THIS BOX MAY BE COLLECTED AS EARLY AS 12 NOON.", "ref": "8407100003"}, "type": "Feature"}
{"geometry": {"coordinates": [-110.710975, 40.352151], "type": "Point"}, "id": "t7U1frQ0ibDopCqqoH5FBf7IbyQ=", "properties": {"@spider": "usps_collection_boxes", "addr:city": "TABIONA", "addr:country": "US", "addr:full": "38060 W STATE HIGHWAY 35", "addr:postcode": "84072", "addr:state": "UT", "brand": "USPS", "collection_times": "Mo-Sa 10:30", "name": "USPS COLLECTION BOX - BLUE BOX", "ref": "8407200001"}, "type": "Feature"}
{"geometry": {"coordinates": [-110.710975, 40.35215], "type": "Point"}, "id": "du_ZlDWiV8jJuLaRVIl57JH1xEg=", "properties": {"@spider": "usps_collection_boxes", "addr:city": "TABIONA", "addr:country": "US", "addr:full": "38060 W STATE HIGHWAY 35", "addr:postcode": "84072", "addr:state": "UT", "brand": "USPS", "collection_times": "Mo-Sa 10:30", "name": "USPS COLLECTION BOX - PO LOBBY", "ref": "8407200002"}, "type": "Feature"}
{"geometry": {"coordinates": [-110.710182742, 40.351799156], "type": "Point"}, "id": "gBtM6eujlHDLwFFLZBjjQhh0Xmw=", "properties": {"@spider": "usps_collection_boxes", "addr:city": "TABIONA", "addr:country": "US", "addr:full": "38060 W STATE HIGHWAY 35", "addr:postcode": "84072", "addr:state": "UT", "brand": "USPS", "collection_times": "Mo-Sa 10:30", "name": "USPS COLLECTION BOX - PO LOBBY", "ref": "8407200004"}, "type": "Feature"}
{"geometry": {"coordinates": [-112.298597, 40.531975], "type": "Point"}, "id": "mBGQJ0Ik8NLWMABg2a-3pmwFR2Y=", "properties": {"@spider": "usps_collection_boxes", "addr:city": "TOOELE", "addr:country": "US", "addr:full": "65 N MAIN ST", "addr:postcode": "84074", "addr:state": "UT", "brand": "USPS", "collection_times": "Mo-Fr 17:00; Sa 15:00", "name": "USPS COLLECTION BOX - BLUE BOX", "note": "ON 12/24 AND 12/31, THIS BOX MAY BE COLLECTED AS EARLY AS 12 NOON.", "ref": "8407400001"}, "type": "Feature"}
{"geometry": {"coordinates": [-112.298597, 40.531975], "type": "Point"}, "id": "dWEYy5WGA2vHoxsecjBaXWY6XIo=", "properties": {"@spider": "usps_collection_boxes", "addr:city": "TOOELE", "addr:country": "US", "addr:full": "65 N MAIN ST", "addr:postcode": "84074", "addr:state": "UT", "brand": "USPS", "collection_times": "Mo-Fr 17:00; Sa 15:00", "name": "USPS COLLECTION BOX - PO LOBBY", "note": "ON 12/24 AND 12/31, THIS BOX MAY BE COLLECTED AS EARLY AS 12 NOON.", "ref": "8407400006"}, "type": "Feature"}
{"geometry": {"coordinates": [-112.288833, 40.645238], "type": "Point"}, "id": "JH3w7ImpdUT4rwcoAlTDF-8Prdk=", "properties": {"@spider": "usps_collection_boxes", "addr:city": "TOOELE", "addr:country": "US", "addr:full": "220 MILLPOND", "addr:postcode": "84074", "addr:state": "UT", "brand": "USPS", "collection_times": "Mo-Sa 09:30", "name": "USPS COLLECTION BOX - BLUE BOX", "ref": "8407400007"}, "type": "Feature"}
{"geometry": {"coordinates": [-112.298599594, 40.531922948], "type": "Point"}, "id": "fHzd-iAneQlMpBELmS8mYf1-81Y=", "properties": {"@spider": "usps_collection_boxes", "addr:city": "TOOELE", "addr:country": "US", "addr:full": "65 N MAIN ST", "addr:postcode": "84074", "addr:state": "UT", "brand": "USPS", "collection_times": "Mo-Fr 17:00; Sa 15:00", "name": "USPS COLLECTION BOX - PO LOBBY", "note": "ON 12/24 AND 12/31, THIS BOX MAY BE COLLECTED AS EARLY AS 12 NOON.", "ref": "8407400009"}, "type": "Feature"}
{"geometry": {"coordinates": [-109.542996, 40.456518], "type": "Point"}, "id": "IAL87oOfRCBTvVXjuiji6GtcJNI=", "properties": {"@spider": "usps_collection_boxes", "addr:city": "VERNAL", "addr:country": "US", "addr:full": "67 N 800 W", "addr:postcode": "84078", "addr:state": "UT", "brand": "USPS", "collection_times": "Mo-Fr 16:15; Sa 16:00", "name": "USPS COLLECTION BOX - PO LOBBY", "note": "ON 12/24 AND 12/31, THIS BOX MAY BE COLLECTED AS EARLY AS 12 NOON.", "ref": "8407800001"}, "type": "Feature"}
{"geometry": {"coordinates": [-109.543316, 40.455657], "type": "Point"}, "id": "TP4wmJ0DyQhks4c42PIRS-uMDrQ=", "properties": {"@spider": "usps_collection_boxes", "addr:city": "VERNAL", "addr:country": "US", "addr:full": "820 W MAIN ST", "addr:postcode": "84078", "addr:state": "UT", "brand": "USPS", "collection_times": "Mo-Fr 16:15; Sa 16:00", "name": "USPS COLLECTION BOX - BLUE BOX", "note": "ON 12/24 AND 12/31, THIS BOX MAY BE COLLECTED AS EARLY AS 12 NOON.", "ref": "8407800002"}, "type": "Feature"}
{"geometry": {"coordinates": [-109.542962, 40.45655], "type": "Point"}, "id": "gy-KUEqL68J2f9K5TN4pQo71eso=", "properties": {"@spider": "usps_collection_boxes", "addr:city": "VERNAL", "addr:country": "US", "addr:full": "67 N 800 W", "addr:postcode": "84078", "addr:state": "UT", "brand": "USPS", "collection_times": "Mo-Fr 16:15; Sa 16:00", "name": "USPS COLLECTION BOX - PO LOBBY", "note": "ON 12/24 AND 12/31, THIS BOX MAY BE COLLECTED AS EARLY AS 12 NOON.", "ref": "8407800005"}, "type": "Feature"}
{"geometry": {"coordinates": [-109.543023652, 40.456526137], "type": "Point"}, "id": "OdWBkPHBlNHogFCzGcYPw5lYy9s=", "properties": {"@spider": "usps_collection_boxes", "addr:city": "VERNAL", "addr:country": "US", "addr:full": "67 N 800 W", "addr:postcode": "84078", "addr:state": "UT", "brand": "USPS", "collection_times": "Mo-Fr 16:15; Sa 16:00", "name": "USPS COLLECTION BOX - PO LOBBY", "note": "ON 12/24 AND 12/31, THIS BOX MAY BE COLLECTED AS EARLY AS 12 NOON.", "ref": "8407800010"}, "type": "Feature"}
{"geometry": {"coordinates": [-111.425237, 40.387754], "type": "Point"}, "id": "eVdzo0tg5B7gzdouXGokkHv8-rc=", "properties": {"@spider": "usps_collection_boxes", "addr:city": "WALLSBURG", "addr:country": "US", "addr:full": "154 W MAIN ST", "addr:postcode": "84082", "addr:state": "UT", "brand": "USPS", "collection_times": "Mo-Fr 10:45; Sa 09:45", "name": "USPS COLLECTION BOX - PO LOBBY", "ref": "8408200001"}, "type": "Feature"}
{"geometry": {"coordinates": [-111.42507, 40.387975], "type": "Point"}, "id": "7FCViBMO9HMOsoSXGfVWpOQ2r6Q=", "properties": {"@spider": "usps_collection_boxes", "addr:city": "WALLSBURG", "addr:country": "US", "addr:full": "154 W MAIN ST", "addr:postcode": "84082", "addr:state": "UT", "brand": "USPS", "collection_times": "Mo-Fr 16:00; Sa 10:00", "name": "USPS COLLECTION BOX - BLUE BOX", "note": "ON 12/24 AND 12/31, THIS BOX MAY BE COLLECTED AS EARLY AS 12 NOON.", "ref": "8408200002"}, "type": "Feature"}
{"geometry": {"coordinates": [-111.425243242, 40.387795925], "type": "Point"}, "id": "C-cz5GyR4AAhIRzlTK_x1yTGryE=", "properties": {"@spider": "usps_collection_boxes", "addr:city": "WALLSBURG", "addr:country": "US", "addr:full": "154 W MAIN ST", "addr:postcode": "84082", "addr:state": "UT", "brand": "USPS", "collection_times": "Mo-Fr 10:45; Sa 09:45", "name": "USPS COLLECTION BOX - PO LOBBY", "ref": "8408200003"}, "type": "Feature"}
{"geometry": {"coordinates": [-114.036412, 40.737346], "type": "Point"}, "id": "xqSwtaOSaPKRuWJ22rCdAsAF1-c=", "properties": {"@spider": "usps_collection_boxes", "addr:city": "WENDOVER", "addr:country": "US", "addr:full": "550 E WENDOVER BLVD", "addr:postcode": "84083", "addr:state": "UT", "brand": "USPS", "collection_times": "Mo-Fr 16:30; Sa 12:00", "name": "USPS COLLECTION BOX - BLUE BOX", "note": "ON 12/24 AND 12/31, THIS BOX MAY BE COLLECTED AS EARLY AS 12 NOON.", "ref": "8408300001"}, "type": "Feature"}
{"geometry": {"coordinates": [-114.03642, 40.737372], "type": "Point"}, "id": "SINEPr5kREclQPlL3uWehRHMsVU=", "properties": {"@spider": "usps_collection_boxes", "addr:city": "WENDOVER", "addr:country": "US", "addr:full": "550 E WENDOVER BLVD", "addr:postcode": "84083", "addr:state": "UT", "brand": "USPS", "collection_times": "Mo-Fr 16:30; Sa 12:00", "name": "USPS COLLECTION BOX - PO LOBBY", "note": "ON 12/24 AND 12/31, THIS BOX MAY BE COLLECTED AS EARLY AS 12 NOON.", "ref": "8408300002"}, "type": "Feature"}
{"geometry": {"coordinates": [-114.036424586, 40.73732493], "type": "Point"}, "id": "jplFDKBzdMCVlgK4ERxmkwIacIE=", "properties": {"@spider": "usps_collection_boxes", "addr:city": "WENDOVER", "addr:country": "US", "addr:full": "550 E WENDOVER BLVD", "addr:postcode": "84083", "addr:state": "UT", "brand": "USPS", "collection_times": "Mo-Fr 16:30; Sa 12:00", "name": "USPS COLLECTION BOX - PO LOBBY", "note": "ON 12/24 AND 12/31, THIS BOX MAY BE COLLECTED AS EARLY AS 12 NOON.", "ref": "8408300003"}, "type": "Feature"}
{"geometry": {"coordinates": [-111.937914, 40.583802], "type": "Point"}, "id": "ldyiDF17trgzpdYiRltiSkYa2M4=", "properties": {"@spider": "usps_collection_boxes", "addr:city": "WEST JORDAN", "addr:country": "US", "addr:full": "9215 S REDWOOD RD", "addr:postcode": "84084", "addr:state": "UT", "brand": "USPS", "collection_times": "Mo-Fr 16:00; Sa 14:00", "name": "USPS COLLECTION BOX - BLUE BOX", "note": "ON 12/24 AND 12/31, THIS BOX MAY BE COLLECTED AS EARLY AS 12 NOON.", "ref": "8408400001"}, "type": "Feature"}
{"geometry": {"coordinates": [-111.956126, 40.587893], "type": "Point"}, "id": "kSpOg3v8vKP3NS_z1vMSLTiPLyI=", "properties": {"@spider": "usps_collection_boxes", "addr:city": "WEST JORDAN", "addr:country": "US", "addr:full": "2640 W 9000 S", "addr:postcode": "84084", "addr:state": "UT", "brand": "USPS", "collection_times": "Mo-Fr 16:00; Sa 14:15", "name": "USPS COLLECTION BOX - BLUE BOX", "note": "ON 12/24 AND 12/31, THIS BOX MAY BE COLLECTED AS EARLY AS 12 NOON.", "ref": "8408400007"}, "type": "Feature"}
{"geometry": {"coordinates": [-111.97393, 40.590266], "type": "Point"}, "id": "4814LfENb7kcE6J3lL8yfzv_oJ0=", "properties": {"@spider": "usps_collection_boxes", "addr:city": "WEST JORDAN", "addr:country": "US", "addr:full": "3580 W 9000 S", "addr:postcode": "84084", "addr:state": "UT", "brand": "USPS", "collection_times": "Mo-Fr 16:15; Sa 14:15", "name": "USPS COLLECTION BOX - BLUE BOX", "note": "ON 12/24 AND 12/31, THIS BOX MAY BE COLLECTED AS EARLY AS 12 NOON.", "ref": "8408400015"}, "type": "Feature"}
{"geometry": {"coordinates": [-111.929325, 40.604791], "type": "Point"}, "id": "n7Ttx_zyR9DvRogU1M53RuNSvcw=", "properties": {"@spider": "usps_collection_boxes", "addr:city": "WEST JORDAN", "addr:country": "US", "addr:full": "8060 S 1300 W", "addr:postcode": "84084", "addr:state": "UT", "brand": "USPS", "collection_times": "Mo-Fr 15:45; Sa 13:45", "name": "USPS COLLECTION BOX - BLUE BOX", "note": "ON 12/24 AND 12/31, THIS BOX MAY BE COLLECTED AS EARLY AS 12 NOON.", "ref": "8408400018"}, "type": "Feature"}
{"geometry": {"coordinates": [-111.940133, 40.605838], "type": "Point"}, "id": "jxEoFUEXP3_NOb9Ll3jO6ByZ4OA=", "properties": {"@spider": "usps_collection_boxes", "addr:city": "WEST JORDAN", "addr:country": "US", "addr:full": "8000 S REDWOOD RD", "addr:postcode": "84084", "addr:state": "UT", "brand": "USPS", "collection_times": "Mo-Fr 15:45; Sa 13:45", "name": "USPS COLLECTION BOX - BLUE BOX", "note": "ON 12/24 AND 12/31, THIS BOX MAY BE COLLECTED AS EARLY AS 12 NOON.", "ref": "8408400020"}, "type": "Feature"}
{"geometry": {"coordinates": [-111.936197, 40.58618], "type": "Point"}, "id": "WO46hT2BFGiWNocDKO-kf5UKKkM=", "properties": {"@spider": "usps_collection_boxes", "addr:city": "WEST JORDAN", "addr:country": "US", "addr:full": "1593 W 9000 S", "addr:postcode": "84084", "addr:state": "UT", "brand": "USPS", "collection_times": "Mo-Fr 16:00; Sa 14:00", "name": "USPS COLLECTION BOX - BLUE BOX", "note": "ON 12/24 AND 12/31, THIS BOX MAY BE COLLECTED AS EARLY AS 12 NOON.", "ref": "8408400028"}, "type": "Feature"}
{"geometry": {"coordinates": [-111.929036, 40.62474], "type": "Point"}, "id": "XSyeu-zgY73D-PUe-WgrRfGaWJI=", "properties": {"@spider": "usps_collection_boxes", "addr:city": "WEST JORDAN", "addr:country": "US", "addr:full": "6995 S 1300 W", "addr:postcode": "84084", "addr:state": "UT", "brand": "USPS", "collection_times": "Mo-Fr 15:45; Sa 13:45", "name": "USPS COLLECTION BOX - BLUE BOX", "note": "ON 12/24 AND 12/31, THIS BOX MAY BE COLLECTED AS EARLY AS 12 NOON.", "ref": "8408400036"}, "type": "Feature"}
{"geometry": {"coordinates": [-111.978683, 40.611941], "type": "Point"}, "id": "BQC6ebs0Qh8ig_kwk_yNUaOY3oY=", "properties": {"@spider": "usps_collection_boxes", "addr:city": "WEST JORDAN", "addr:country": "US", "addr:full": "7671 S 3800 W", "addr:postcode": "84084", "addr:state": "UT", "brand": "USPS", "collection_times": "Mo-Fr 16:15; Sa 14:15", "name": "USPS COLLECTION BOX - BLUE BOX", "note": "ON 12/24 AND 12/31, THIS BOX MAY BE COLLECTED AS EARLY AS 12 NOON.", "ref": "8408400037"}, "type": "Feature"}
{"geometry": {"coordinates": [-109.93056, 40.46758], "type": "Point"}, "id": "N8OojsWJY_ktoeGvr8-rcU5X7ZE=", "properties": {"@spider": "usps_collection_boxes", "addr:city": "WHITEROCKS", "addr:country": "US", "addr:full": "11444 N WHITEROCKS HWY", "addr:postcode": "84085", "addr:state": "UT", "brand": "USPS", "collection_times": "Mo-Fr 12:45; Sa 11:30", "name": "USPS COLLECTION BOX - PO LOBBY", "note": "ON 12/24 AND 12/31, THIS BOX MAY BE COLLECTED AS EARLY AS 12 NOON.", "ref": "8408500001"}, "type": "Feature"}
{"geometry": {"coordinates": [-109.930542471, 40.467565461], "type": "Point"}, "id": "VuhppT7NhPDptBsexpu4n7sL-Vs=", "properties": {"@spider": "usps_collection_boxes", "addr:city": "WHITEROCKS", "addr:country": "US", "addr:full": "11444 N WHITEROCKS HWY", "addr:postcode": "84085", "addr:state": "UT", "brand": "USPS", "collection_times": "Mo-Fr 12:45; Sa 11:30", "name": "USPS COLLECTION BOX - PO LOBBY", "note": "ON 12/24 AND 12/31, THIS BOX MAY BE COLLECTED AS EARLY AS 12 NOON.", "ref": "8408500003"}, "type": "Feature"}
{"geometry": {"coordinates": [-111.16291, 41.523187], "type": "Point"}, "id": "dH23X1muUNY2PmK9e5JEt_BNBbg=", "properties": {"@spider": "usps_collection_boxes", "addr:city": "WOODRUFF", "addr:country": "US", "addr:full": "40 S MAIN ST", "addr:postcode": "84086", "addr:state": "UT", "brand": "USPS", "collection_times": "Mo-Fr 15:15; Sa 10:30", "name": "USPS COLLECTION BOX - PO LOBBY", "note": "ON 12/24 AND 12/31, THIS BOX MAY BE COLLECTED AS EARLY AS 12 NOON.", "ref": "8408600002"}, "type": "Feature"}
{"geometry": {"coordinates": [-111.162874827, 41.523219], "type": "Point"}, "id": "1ryAH2JBXqlUHnw2QNuq97qerIo=", "properties": {"@spider": "usps_collection_boxes", "addr:city": "WOODRUFF", "addr:country": "US", "addr:full": "40 S MAIN ST", "addr:postcode": "84086", "addr:state": "UT", "brand": "USPS", "collection_times": "Mo-Fr 15:15; Sa 10:30", "name": "USPS COLLECTION BOX - PO LOBBY", "note": "ON 12/24 AND 12/31, THIS BOX MAY BE COLLECTED AS EARLY AS 12 NOON.", "ref": "8408600003"}, "type": "Feature"}
{"geometry": {"coordinates": [-111.833796, 40.602748], "type": "Point"}, "id": "My3IobPEVRClPRC1QZENXTDYRsk=", "properties": {"@spider": "usps_collection_boxes", "addr:city": "SANDY", "addr:country": "US", "addr:full": "8160 S HIGHLAND DR", "addr:postcode": "84093", "addr:state": "UT", "brand": "USPS", "collection_times": "Mo-Fr 12:00", "name": "USPS COLLECTION BOX - BLUE BOX", "ref": "8409300000"}, "type": "Feature"}
{"geometry": {"coordinates": [-111.832132, 40.594462], "type": "Point"}, "id": "RNi_Q1FRO46yZBP06SIvZ1kfxsY=", "properties": {"@spider": "usps_collection_boxes", "addr:city": "SANDY", "addr:country": "US", "addr:full": "8600 S HIGHLAND DR", "addr:postcode": "84093", "addr:state": "UT", "brand": "USPS", "collection_times": "Mo-Sa 12:00", "name": "USPS COLLECTION BOX - BLUE BOX", "ref": "8409300001"}, "type": "Feature"}
{"geometry": {"coordinates": [-111.83364, 40.583186], "type": "Point"}, "id": "HHLAcvxhfT0zj5U_zY6_gb5gaGk=", "properties": {"@spider": "usps_collection_boxes", "addr:city": "SANDY", "addr:country": "US", "addr:full": "9265 S HIGHLAND DR", "addr:postcode": "84093", "addr:state": "UT", "brand": "USPS", "collection_times": "Mo-Fr 17:30; Sa 15:00", "name": "USPS COLLECTION BOX - BLUE BOX", "note": "ON 12/24 AND 12/31, THIS BOX MAY BE COLLECTED AS EARLY AS 12 NOON.", "ref": "8409300003"}, "type": "Feature"}
{"geometry": {"coordinates": [-111.833144, 40.583095], "type": "Point"}, "id": "SwwyIBH5p3-00m3gZmKQmPFWSOg=", "properties": {"@spider": "usps_collection_boxes", "addr:city": "SANDY", "addr:country": "US", "addr:full": "9265 S HIGHLAND DR", "addr:postcode": "84093", "addr:state": "UT", "brand": "USPS", "collection_times": "Mo-Fr 17:30; Sa 15:00", "name": "USPS COLLECTION BOX - PO LOBBY", "note": "ON 12/24 AND 12/31, THIS BOX MAY BE COLLECTED AS EARLY AS 12 NOON.", "ref": "8409300004"}, "type": "Feature"}
{"geometry": {"coordinates": [-111.833079, 40.583092], "type": "Point"}, "id": "31TE6q98owxVP4XWy4wXFZIUCH0=", "properties": {"@spider": "usps_collection_boxes", "addr:city": "SANDY", "addr:country": "US", "addr:full": "9265 S HIGHLAND DR", "addr:postcode": "84093", "addr:state": "UT", "brand": "USPS", "collection_times": "Mo-Fr 17:30; Sa 15:00", "name": "USPS COLLECTION BOX - APC", "note": "ON 12/24 AND 12/31, THIS BOX MAY BE COLLECTED AS EARLY AS 12 NOON.", "ref": "8409300006"}, "type": "Feature"}
{"geometry": {"coordinates": [-111.833975784, 40.582944], "type": "Point"}, "id": "tupOu4jERT7vLYWboY-qvow0tes=", "properties": {"@spider": "usps_collection_boxes", "addr:city": "SANDY", "addr:country": "US", "addr:full": "9265 S HIGHLAND DR", "addr:postcode": "84093", "addr:state": "UT", "brand": "USPS", "collection_times": "Mo-Fr 17:30; Sa 15:00", "name": "USPS COLLECTION BOX - PO LOBBY", "note": "ON 12/24 AND 12/31, THIS BOX MAY BE COLLECTED AS EARLY AS 12 NOON.", "ref": "8409300008"}, "type": "Feature"}
{"geometry": {"coordinates": [-111.853077, 40.559763], "type": "Point"}, "id": "83UBbqKuztaStr9ab3cJNEoEis8=", "properties": {"@spider": "usps_collection_boxes", "addr:city": "SANDY", "addr:country": "US", "addr:full": "10575 S 1300 E", "addr:postcode": "84094", "addr:state": "UT", "brand": "USPS", "collection_times": "Mo-Sa 12:00", "name": "USPS COLLECTION BOX - BLUE BOX", "ref": "8409400000"}, "type": "Feature"}
{"geometry": {"coordinates": [-111.853444, 40.596049], "type": "Point"}, "id": "oPnB_Y1SnN107dnQ1v4lUYBruKg=", "properties": {"@spider": "usps_collection_boxes", "addr:city": "SANDY", "addr:country": "US", "addr:full": "8550 S 1300 E", "addr:postcode": "84094", "addr:state": "UT", "brand": "USPS", "collection_times": "Mo-Sa 12:00", "name": "USPS COLLECTION BOX - BLUE BOX", "ref": "8409400001"}, "type": "Feature"}
{"geometry": {"coordinates": [-111.86849, 40.580398], "type": "Point"}, "id": "RegieFnMZwHqaACIiY5Nv1xw7-k=", "properties": {"@spider": "usps_collection_boxes", "addr:city": "SANDY", "addr:country": "US", "addr:full": "826 E 9400 S", "addr:postcode": "84094", "addr:state": "UT", "brand": "USPS", "collection_times": "Mo-Sa 12:00", "name": "USPS COLLECTION BOX - BLUE BOX", "ref": "8409400004"}, "type": "Feature"}
{"geometry": {"coordinates": [-111.869448, 40.580739], "type": "Point"}, "id": "GJ11SFj9MN6mzb6XcXL47PE0n48=", "properties": {"@spider": "usps_collection_boxes", "addr:city": "SANDY", "addr:country": "US", "addr:full": "825 E 9400 S", "addr:postcode": "84094", "addr:state": "UT", "brand": "USPS", "collection_times": "Mo-Sa 12:00", "name": "USPS COLLECTION BOX - BLUE BOX", "ref": "8409400005"}, "type": "Feature"}
{"geometry": {"coordinates": [-111.938716, 40.567755], "type": "Point"}, "id": "y5B8H0UAm6RFFj0Rs438t7IO6Z0=", "properties": {"@spider": "usps_collection_boxes", "addr:city": "SOUTH JORDAN", "addr:country": "US", "addr:full": "10102 S REDWOOD RD", "addr:postcode": "84095", "addr:state": "UT", "brand": "USPS", "collection_times": "Mo-Fr 16:30; Sa 14:00", "name": "USPS COLLECTION BOX - BLUE BOX", "note": "ON 12/24 AND 12/31, THIS BOX MAY BE COLLECTED AS EARLY AS 12 NOON.", "ref": "8409500000"}, "type": "Feature"}
{"geometry": {"coordinates": [-111.938681, 40.567669], "type": "Point"}, "id": "t9_4Aps4AV1OXRJSBpn0exzZQ8Y=", "properties": {"@spider": "usps_collection_boxes", "addr:city": "SOUTH JORDAN", "addr:country": "US", "addr:full": "10102 S REDWOOD RD", "addr:postcode": "84095", "addr:state": "UT", "brand": "USPS", "collection_times": "Mo-Fr 17:00; Sa 14:00", "name": "USPS COLLECTION BOX - PO LOBBY", "note": "ON 12/24 AND 12/31, THIS BOX MAY BE COLLECTED AS EARLY AS 12 NOON.", "ref": "8409500012"}, "type": "Feature"}
{"geometry": {"coordinates": [-111.909783, 40.556932], "type": "Point"}, "id": "hZERzZmR-GxHxvEdd8Dw2mD3C-s=", "properties": {"@spider": "usps_collection_boxes", "addr:city": "SOUTH JORDAN", "addr:country": "US", "addr:full": "10653 S RIVER FRONT PKWY", "addr:postcode": "84095", "addr:state": "UT", "brand": "USPS", "collection_times": "Mo-Fr 14:00", "name": "USPS COLLECTION BOX - BLUE BOX", "note": "ON 12/24 AND 12/31, THIS BOX MAY BE COLLECTED AS EARLY AS 12 NOON.", "ref": "8409500018"}, "type": "Feature"}
{"geometry": {"coordinates": [-111.9029366032, 40.5563993563], "type": "Point"}, "id": "-KPVV_bm78ddPkY2dtpF-HXUTs4=", "properties": {"@spider": "usps_collection_boxes", "addr:city": "SOUTH JORDAN", "addr:country": "US", "addr:full": "10705 S JORDAN GTWY", "addr:postcode": "84095", "addr:state": "UT", "brand": "USPS", "collection_times": "Mo-Fr 14:00", "name": "USPS COLLECTION BOX - BLUE BOX", "note": "ON 12/24 AND 12/31, THIS BOX MAY BE COLLECTED AS EARLY AS 12 NOON.", "ref": "8409500020"}, "type": "Feature"}
{"geometry": {"coordinates": [-111.904389, 40.559569], "type": "Point"}, "id": "EHY6sER8y0SzJxGyxZ9r0rUy808=", "properties": {"@spider": "usps_collection_boxes", "addr:city": "SOUTH JORDAN", "addr:country": "US", "addr:full": "406 SOUTH JORDAN PKWY", "addr:postcode": "84095", "addr:state": "UT", "brand": "USPS", "collection_times": "Mo-Fr 14:00", "name": "USPS COLLECTION BOX - BLUE BOX", "note": "ON 12/24 AND 12/31, THIS BOX MAY BE COLLECTED AS EARLY AS 12 NOON.", "ref": "8409500022"}, "type": "Feature"}
{"geometry": {"coordinates": [-111.923846, 40.561831], "type": "Point"}, "id": "sgtiRd341tS39dniqXNjzeLHJwc=", "properties": {"@spider": "usps_collection_boxes", "addr:city": "SOUTH JORDAN", "addr:country": "US", "addr:full": "1122 SOUTH JORDAN PKWY", "addr:postcode": "84095", "addr:state": "UT", "brand": "USPS", "collection_times": "Mo-Fr 14:00", "name": "USPS COLLECTION BOX - BLUE BOX", "note": "ON 12/24 AND 12/31, THIS BOX MAY BE COLLECTED AS EARLY AS 12 NOON.", "ref": "8409500025"}, "type": "Feature"}
{"geometry": {"coordinates": [-111.938681, 40.567669], "type": "Point"}, "id": "fqyLUo98pIdkv5OoHY-LFkV7z3E=", "properties": {"@spider": "usps_collection_boxes", "addr:city": "SOUTH JORDAN", "addr:country": "US", "addr:full": "10102 S REDWOOD RD", "addr:postcode": "84095", "addr:state": "UT", "brand": "USPS", "collection_times": "Mo-Fr 17:00; Sa 14:00", "name": "USPS COLLECTION BOX - APC", "note": "ON 12/24 AND 12/31, THIS BOX MAY BE COLLECTED AS EARLY AS 12 NOON.", "ref": "8409500027"}, "type": "Feature"}
{"geometry": {"coordinates": [-111.938681, 40.567669], "type": "Point"}, "id": "zFD9AARD1yIt1ID0Nen2BBUgV1E=", "properties": {"@spider": "usps_collection_boxes", "addr:city": "SOUTH JORDAN", "addr:country": "US", "addr:full": "10102 S REDWOOD RD", "addr:postcode": "84095", "addr:state": "UT", "brand": "USPS", "collection_times": "Mo-Fr 17:00; Sa 14:00", "name": "USPS COLLECTION BOX - PO LOBBY", "note": "ON 12/24 AND 12/31, THIS BOX MAY BE COLLECTED AS EARLY AS 12 NOON.", "ref": "8409500028"}, "type": "Feature"}
{"geometry": {"coordinates": [-111.938717194, 40.567923], "type": "Point"}, "id": "oo6H665gQnSNqgS7wjosu383RNQ=", "properties": {"@spider": "usps_collection_boxes", "addr:city": "SOUTH JORDAN", "addr:country": "US", "addr:full": "10102 S REDWOOD RD", "addr:postcode": "84095", "addr:state": "UT", "brand": "USPS", "collection_times": "Mo-Fr 17:00; Sa 14:00", "name": "USPS COLLECTION BOX - PO LOBBY", "note": "ON 12/24 AND 12/31, THIS BOX MAY BE COLLECTED AS EARLY AS 12 NOON.", "ref": "8409500030"}, "type": "Feature"}
{"geometry": {"coordinates": [-111.686769, 40.283073], "type": "Point"}, "id": "IVt3GAx1w_6kLUtARnRgahmFMnM=", "properties": {"@spider": "usps_collection_boxes", "addr:city": "OREM", "addr:country": "US", "addr:full": "345 E 800 S", "addr:postcode": "84097", "addr:state": "UT", "brand": "USPS", "collection_times": "Mo-Sa 15:00", "name": "USPS COLLECTION BOX - BLUE BOX", "note": "ON 12/24 AND 12/31, THIS BOX MAY BE COLLECTED AS EARLY AS 12 NOON.", "ref": "8409700018"}, "type": "Feature"}
{"geometry": {"coordinates": [-111.674809, 40.275118], "type": "Point"}, "id": "V0Qm0ecnAnBkMcS1w6_LJSjC0dw=", "properties": {"@spider": "usps_collection_boxes", "addr:city": "OREM", "addr:country": "US", "addr:full": "877 E 1200 S", "addr:postcode": "84097", "addr:state": "UT", "brand": "USPS", "collection_times": "Mo-Fr 17:00; Sa 16:00", "name": "USPS COLLECTION BOX - BLUE BOX", "note": "ON 12/24 AND 12/31, THIS BOX MAY BE COLLECTED AS EARLY AS 12 NOON.", "ref": "8409700020"}, "type": "Feature"}
{"geometry": {"coordinates": [-111.674827, 40.27509], "type": "Point"}, "id": "otLbGViQc33GXcRwRVq3cp3WHn8=", "properties": {"@spider": "usps_collection_boxes", "addr:city": "OREM", "addr:country": "US", "addr:full": "877 E 1200 S", "addr:postcode": "84097", "addr:state": "UT", "brand": "USPS", "collection_times": "Mo-Fr 17:00; Sa 16:30", "name": "USPS COLLECTION BOX - PO LOBBY", "note": "ON 12/24 AND 12/31, THIS BOX MAY BE COLLECTED AS EARLY AS 12 NOON.", "ref": "8409700023"}, "type": "Feature"}
{"geometry": {"coordinates": [-111.674827, 40.27509], "type": "Point"}, "id": "rH5PDuFIxXpVYCEKR__EryKp7oo=", "properties": {"@spider": "usps_collection_boxes", "addr:city": "OREM", "addr:country": "US", "addr:full": "877 E 1200 S", "addr:postcode": "84097", "addr:state": "UT", "brand": "USPS", "collection_times": "Mo-Fr 17:00; Sa 16:30", "name": "USPS COLLECTION BOX - APC", "note": "ON 12/24 AND 12/31, THIS BOX MAY BE COLLECTED AS EARLY AS 12 NOON.", "ref": "8409700028"}, "type": "Feature"}
{"geometry": {"coordinates": [-111.6872260122, 40.2723449889], "type": "Point"}, "id": "caof15yj4wyPi7FJM9XcV0RVhJs=", "properties": {"@spider": "usps_collection_boxes", "addr:city": "OREM", "addr:country": "US", "addr:full": "336 UNIVERSITY PARKWAY", "addr:postcode": "84097", "addr:state": "UT", "brand": "USPS", "collection_times": "Mo-Sa 15:00", "name": "USPS COLLECTION BOX - BLUE BOX", "note": "ON 12/24 AND 12/31, THIS BOX MAY BE COLLECTED AS EARLY AS 12 NOON.", "ref": "8409700030"}, "type": "Feature"}
{"geometry": {"coordinates": [-111.674827, 40.27509], "type": "Point"}, "id": "tTJj4H3jLYNWAOCrzxqAoQm_av0=", "properties": {"@spider": "usps_collection_boxes", "addr:city": "OREM", "addr:country": "US", "addr:full": "877 E 1200 S", "addr:postcode": "84097", "addr:state": "UT", "brand": "USPS", "collection_times": "Mo-Fr 17:00; Sa 16:30", "name": "USPS COLLECTION BOX - PO LOBBY", "note": "ON 12/24 AND 12/31, THIS BOX MAY BE COLLECTED AS EARLY AS 12 NOON.", "ref": "8409700031"}, "type": "Feature"}
{"geometry": {"coordinates": [-111.689811, 40.280679], "type": "Point"}, "id": "Jo2HDkqLAtTy5rUZND3TqFf6jZU=", "properties": {"@spider": "usps_collection_boxes", "addr:city": "OREM", "addr:country": "US", "addr:full": "901 S OREM BLVD", "addr:postcode": "84097", "addr:state": "UT", "brand": "USPS", "collection_times": "Mo-Sa 15:00", "name": "USPS COLLECTION BOX - BLUE BOX", "note": "ON 12/24 AND 12/31, THIS BOX MAY BE COLLECTED AS EARLY AS 12 NOON.", "ref": "8409700034"}, "type": "Feature"}
{"geometry": {"coordinates": [-111.674831829, 40.275152313], "type": "Point"}, "id": "nyrHDV9Xo6XCmd5LJwOnn9DepWU=", "properties": {"@spider": "usps_collection_boxes", "addr:city": "OREM", "addr:country": "US", "addr:full": "877 E 1200 S", "addr:postcode": "84097", "addr:state": "UT", "brand": "USPS", "collection_times": "Mo-Fr 17:00; Sa 16:30", "name": "USPS COLLECTION BOX - PO LOBBY", "note": "ON 12/24 AND 12/31, THIS BOX MAY BE COLLECTED AS EARLY AS 12 NOON.", "ref": "8409700038"}, "type": "Feature"}
{"geometry": {"coordinates": [-111.544658, 40.724063], "type": "Point"}, "id": "EBdot2FGdWtYLVOc2oTsa5GglGE=", "properties": {"@spider": "usps_collection_boxes", "addr:city": "SNYDERVILLE", "addr:country": "US", "addr:full": "6440 HIGHWAY 224", "addr:postcode": "84098", "addr:state": "UT", "brand": "USPS", "collection_times": "Mo-Fr 17:30; Sa 12:45", "name": "USPS COLLECTION BOX - PO LOBBY", "note": "ON 12/24 AND 12/31, THIS BOX MAY BE COLLECTED AS EARLY AS 12 NOON.", "ref": "8409800002"}, "type": "Feature"}
{"geometry": {"coordinates": [-111.544658, 40.724063], "type": "Point"}, "id": "0uuYBRIFx0L-hWqaM6rVUdpFSAQ=", "properties": {"@spider": "usps_collection_boxes", "addr:city": "SNYDERVILLE", "addr:country": "US", "addr:full": "6440 HIGHWAY 224", "addr:postcode": "84098", "addr:state": "UT", "brand": "USPS", "collection_times": "Mo-Fr 16:30; Sa 12:45", "name": "USPS COLLECTION BOX - BLUE BOX", "note": "ON 12/24 AND 12/31, THIS BOX MAY BE COLLECTED AS EARLY AS 12 NOON.", "ref": "8409800003"}, "type": "Feature"}
{"geometry": {"coordinates": [-111.548768, 40.724958], "type": "Point"}, "id": "5h4mukGFwDw9giA9vHrT__Uc-vU=", "properties": {"@spider": "usps_collection_boxes", "addr:city": "SNYDERVILLE", "addr:country": "US", "addr:full": "6541 N LANDMARK DR", "addr:postcode": "84098", "addr:state": "UT", "brand": "USPS", "collection_times": "Mo-Sa 11:00", "name": "USPS COLLECTION BOX - BLUE BOX", "ref": "8409800007"}, "type": "Feature"}
{"geometry": {"coordinates": [-111.570889, 40.750084], "type": "Point"}, "id": "603__yo_QJzB_gP_dA7GfbrBt90=", "properties": {"@spider": "usps_collection_boxes", "addr:city": "SNYDERVILLE", "addr:country": "US", "addr:full": "3151 KILBY RD", "addr:postcode": "84098", "addr:state": "UT", "brand": "USPS", "collection_times": "Mo-Sa 10:30", "name": "USPS COLLECTION BOX - BLUE BOX", "ref": "8409800008"}, "type": "Feature"}
{"geometry": {"coordinates": [-111.544658, 40.724063], "type": "Point"}, "id": "5gq6WbV2d5_4YEJRDoM0KI2qAdk=", "properties": {"@spider": "usps_collection_boxes", "addr:city": "SNYDERVILLE", "addr:country": "US", "addr:full": "6440 HIGHWAY 224", "addr:postcode": "84098", "addr:state": "UT", "brand": "USPS", "collection_times": "Mo-Fr 17:30; Sa 12:45", "name": "USPS COLLECTION BOX - PO LOBBY", "note": "ON 12/24 AND 12/31, THIS BOX MAY BE COLLECTED AS EARLY AS 12 NOON.", "ref": "8409800009"}, "type": "Feature"}
{"geometry": {"coordinates": [-111.544658, 40.724063], "type": "Point"}, "id": "2Cg3OujSbXCKWDFLq0m6pHJ_zcU=", "properties": {"@spider": "usps_collection_boxes", "addr:city": "SNYDERVILLE", "addr:country": "US", "addr:full": "6440 HIGHWAY 224", "addr:postcode": "84098", "addr:state": "UT", "brand": "USPS", "collection_times": "Mo-Fr 17:30; Sa 12:45", "name": "USPS COLLECTION BOX - PO LOBBY", "note": "ON 12/24 AND 12/31, THIS BOX MAY BE COLLECTED AS EARLY AS 12 NOON.", "ref": "8409800010"}, "type": "Feature"}
{"geometry": {"coordinates": [-111.544641731, 40.724069534], "type": "Point"}, "id": "SDZWIzz032S1Tbdj8N5sHh2-kxA=", "properties": {"@spider": "usps_collection_boxes", "addr:city": "SNYDERVILLE", "addr:country": "US", "addr:full": "6440 HIGHWAY 224", "addr:postcode": "84098", "addr:state": "UT", "brand": "USPS", "collection_times": "Mo-Fr 17:30; Sa 12:45", "name": "USPS COLLECTION BOX - PO LOBBY", "note": "ON 12/24 AND 12/31, THIS BOX MAY BE COLLECTED AS EARLY AS 12 NOON.", "ref": "8409800012"}, "type": "Feature"}
