{"geometry": {"coordinates": [-111.897475, 40.751803], "type": "Point"}, "id": "nHJOGbfDj1oKmkmahGtq9kYLglc=", "properties": {"@spider": "usps_collection_boxes", "addr:city": "SALT LAKE CITY", "addr:country": "US", "addr:full": "215 W 800 S", "addr:postcode": "84101", "addr:state": "UT", "brand": "USPS", "collection_times": "Mo-Fr 17:00", "name": "USPS COLLECTION BOX - BLUE BOX", "note": "ON 12/24 AND 12/31, THIS BOX MAY BE COLLECTED AS EARLY AS 12 NOON.", "ref": "8410100002"}, "type": "Feature"}
{"geometry": {"coordinates": [-111.891461, 40.766964], "type": "Point"}, "id": "dC1C4Lp9yKqWGeHy5KtJYvi8-fs=", "properties": {"@spider": "usps_collection_boxes", "addr:city": "SALT LAKE CITY", "addr:country": "US", "addr:full": "8 W 100 S", "addr:postcode": "84101", "addr:state": "UT", "brand": "USPS", "collection_times": "Mo-Fr 14:00", "name": "USPS COLLECTION BOX - BLUE BOX", "note": "ON 12/24 AND 12/31, THIS BOX MAY BE COLLECTED AS EARLY AS 12 NOON.", "ref": "8410100016"}, "type": "Feature"}
{"geometry": {"coordinates": [-111.897941, 40.765199], "type": "Point"}, "id": "l_CAyKhKlnJLjUBulegFYkh9Ubw=", "properties": {"@spider": "usps_collection_boxes", "addr:city": "SALT LAKE CITY", "addr:country": "US", "addr:full": "230 W 200 S", "addr:postcode": "84101", "addr:state": "UT", "brand": "USPS", "collection_times": "Mo-Fr 18:00; Sa 17:00", "name": "USPS COLLECTION BOX - BLUE BOX", "note": "ON 12/24 AND 12/31, THIS BOX MAY BE COLLECTED AS EARLY AS 12 NOON.", "ref": "8410100041"}, "type": "Feature"}
{"geometry": {"coordinates": [-111.891759195, 40.762974454], "type": "Point"}, "id": "OxkqyX1Fxn6gs6hW93RcpsuAU-Y=", "properties": {"@spider": "usps_collection_boxes", "addr:city": "SALT LAKE CITY", "addr:country": "US", "addr:full": "20 W 300 S", "addr:postcode": "84101", "addr:state": "UT", "brand": "USPS", "collection_times": "Mo-Fr 17:00", "name": "USPS COLLECTION BOX - BLUE BOX", "note": "ON 12/24 AND 12/31, THIS BOX MAY BE COLLECTED AS EARLY AS 12 NOON.", "ref": "8410100048"}, "type": "Feature"}
{"geometry": {"coordinates": [-111.8926892515, 40.7650404749], "type": "Point"}, "id": "AEadjdnH2Ey3gESnJnb0NBsuuW4=", "properties": {"@spider": "usps_collection_boxes", "addr:city": "SALT LAKE CITY", "addr:country": "US", "addr:full": "50 W 200 S", "addr:postcode": "84101", "addr:state": "UT", "brand": "USPS", "collection_times": "Mo-Fr 17:00", "name": "USPS COLLECTION BOX - BLUE BOX", "note": "ON 12/24 AND 12/31, THIS BOX MAY BE COLLECTED AS EARLY AS 12 NOON.", "ref": "8410100096"}, "type": "Feature"}
{"geometry": {"coordinates": [-111.897632, 40.765028], "type": "Point"}, "id": "tIHXZq2L7wO54TTNAzyoRbPtvN8=", "properties": {"@spider": "usps_collection_boxes", "addr:city": "SALT LAKE CITY", "addr:country": "US", "addr:full": "230 W 200 S", "addr:postcode": "84101", "addr:state": "UT", "brand": "USPS", "collection_times": "Mo-Fr 17:00", "name": "USPS COLLECTION BOX - PO LOBBY", "note": "ON 12/24 AND 12/31, THIS BOX MAY BE COLLECTED AS EARLY AS 12 NOON.", "ref": "8410100101"}, "type": "Feature"}
{"geometry": {"coordinates": [-111.897632, 40.765028], "type": "Point"}, "id": "L1FqJtWZGEwwyu6XgYi6UqdQ-5s=", "properties": {"@spider": "usps_collection_boxes", "addr:city": "SALT LAKE CITY", "addr:country": "US", "addr:full": "230 W 200 S", "addr:postcode": "84101", "addr:state": "UT", "brand": "USPS", "collection_times": "Mo-Fr 17:30; Sa 14:00", "name": "USPS COLLECTION BOX - PO LOBBY", "note": "ON 12/24 AND 12/31, THIS BOX MAY BE COLLECTED AS EARLY AS 12 NOON.", "ref": "8410100102"}, "type": "Feature"}
{"geometry": {"coordinates": [-111.8911906503, 40.7691070776], "type": "Point"}, "id": "8tI9_n9Ael-ka7QDO5nWlnafhcY=", "properties": {"@spider": "usps_collection_boxes", "addr:city": "SALT LAKE CITY", "addr:country": "US", "addr:full": "4 S MAIN ST", "addr:postcode": "84101", "addr:state": "UT", "brand": "USPS", "collection_times": "Mo-Fr 17:00", "name": "USPS COLLECTION BOX - BLUE BOX", "note": "ON 12/24 AND 12/31, THIS BOX MAY BE COLLECTED AS EARLY AS 12 NOON.", "ref": "8410100107"}, "type": "Feature"}
{"geometry": {"coordinates": [-111.8911906503, 40.7691070776], "type": "Point"}, "id": "l4ijzzZPcsikmVioclR5G_e8tqY=", "properties": {"@spider": "usps_collection_boxes", "addr:city": "SALT LAKE CITY", "addr:country": "US", "addr:full": "4 S MAIN ST", "addr:postcode": "84101", "addr:state": "UT", "brand": "USPS", "collection_times": "Mo-Fr 17:00", "name": "USPS COLLECTION BOX - BLUE BOX", "note": "ON 12/24 AND 12/31, THIS BOX MAY BE COLLECTED AS EARLY AS 12 NOON.", "ref": "8410100110"}, "type": "Feature"}
{"geometry": {"coordinates": [-111.897632, 40.765028], "type": "Point"}, "id": "cIKQEFQhpObzkIC8jO4aJou8-ZQ=", "properties": {"@spider": "usps_collection_boxes", "addr:city": "SALT LAKE CITY", "addr:country": "US", "addr:full": "230 W 200 S", "addr:postcode": "84101", "addr:state": "UT", "brand": "USPS", "collection_times": "Mo-Fr 17:30; Sa 14:00", "name": "USPS COLLECTION BOX - APC", "note": "ON 12/24 AND 12/31, THIS BOX MAY BE COLLECTED AS EARLY AS 12 NOON.", "ref": "8410100129"}, "type": "Feature"}
{"geometry": {"coordinates": [-111.9041467878, 40.7663381418], "type": "Point"}, "id": "ihql0ZiP3JgTPveIDi4LjYt_0z8=", "properties": {"@spider": "usps_collection_boxes", "addr:city": "SALT LAKE CITY", "addr:country": "US", "addr:full": "172 S RIO GRANDE ST", "addr:postcode": "84101", "addr:state": "UT", "brand": "USPS", "collection_times": "Mo-Fr 14:00", "name": "USPS COLLECTION BOX - BLUE BOX", "note": "ON 12/24 AND 12/31, THIS BOX MAY BE COLLECTED AS EARLY AS 12 NOON.", "ref": "8410100131"}, "type": "Feature"}
{"geometry": {"coordinates": [-111.8911906503, 40.7691070776], "type": "Point"}, "id": "g4-koQbqugQYuN7E5nMuaYEcawk=", "properties": {"@spider": "usps_collection_boxes", "addr:city": "SALT LAKE CITY", "addr:country": "US", "addr:full": "4 S MAIN ST", "addr:postcode": "84101", "addr:state": "UT", "brand": "USPS", "collection_times": "Mo-Fr 17:00", "name": "USPS COLLECTION BOX - BLUE BOX", "note": "ON 12/24 AND 12/31, THIS BOX MAY BE COLLECTED AS EARLY AS 12 NOON.", "ref": "8410100132"}, "type": "Feature"}
{"geometry": {"coordinates": [-111.890938, 40.766118], "type": "Point"}, "id": "Jmca-CJyFuL9GgkeNZ7--Ox0eyk=", "properties": {"@spider": "usps_collection_boxes", "addr:city": "SALT LAKE CITY", "addr:country": "US", "addr:full": "136 S MAIN ST", "addr:postcode": "84101", "addr:state": "UT", "brand": "USPS", "collection_times": "Mo-Fr 17:00", "name": "USPS COLLECTION BOX - BLUE BOX", "note": "ON 12/24 AND 12/31, THIS BOX MAY BE COLLECTED AS EARLY AS 12 NOON.", "ref": "8410100133"}, "type": "Feature"}
{"geometry": {"coordinates": [-111.8976525, 40.765019508], "type": "Point"}, "id": "OUjWSWchFKR6FR0LDEoslrdmmMY=", "properties": {"@spider": "usps_collection_boxes", "addr:city": "SALT LAKE CITY", "addr:country": "US", "addr:full": "230 W 200 S", "addr:postcode": "84101", "addr:state": "UT", "brand": "USPS", "collection_times": "Mo-Fr 17:30; Sa 14:00", "name": "USPS COLLECTION BOX - PO LOBBY", "note": "ON 12/24 AND 12/31, THIS BOX MAY BE COLLECTED AS EARLY AS 12 NOON.", "ref": "8410100135"}, "type": "Feature"}
{"geometry": {"coordinates": [-111.859775, 40.768668], "type": "Point"}, "id": "yWNocOUQcyUMR_7J3y41M9GX6qE=", "properties": {"@spider": "usps_collection_boxes", "addr:city": "SALT LAKE CITY", "addr:country": "US", "addr:full": "24 S 1100 E", "addr:postcode": "84102", "addr:state": "UT", "brand": "USPS", "collection_times": "Mo-Fr 17:00", "name": "USPS COLLECTION BOX - BLUE BOX", "note": "ON 12/24 AND 12/31, THIS BOX MAY BE COLLECTED AS EARLY AS 12 NOON.", "ref": "8410200009"}, "type": "Feature"}
{"geometry": {"coordinates": [-111.874124, 40.765942], "type": "Point"}, "id": "WK0QPz3gRq8YmGrT6ncLtdkEVl4=", "properties": {"@spider": "usps_collection_boxes", "addr:city": "SALT LAKE CITY", "addr:country": "US", "addr:full": "150 S 600 E", "addr:postcode": "84102", "addr:state": "UT", "brand": "USPS", "collection_times": "Mo-Fr 17:00; Sa 16:00", "name": "USPS COLLECTION BOX - BLUE BOX", "note": "ON 12/24 AND 12/31, THIS BOX MAY BE COLLECTED AS EARLY AS 12 NOON.", "ref": "8410200023"}, "type": "Feature"}
{"geometry": {"coordinates": [-111.871666, 40.756428], "type": "Point"}, "id": "S6EWsCYhVwlWFvCHTx_hG5mR-Og=", "properties": {"@spider": "usps_collection_boxes", "addr:city": "SALT LAKE CITY", "addr:country": "US", "addr:full": "675 E 600 S", "addr:postcode": "84102", "addr:state": "UT", "brand": "USPS", "collection_times": "Mo-Fr 13:00; Sa 16:00", "name": "USPS COLLECTION BOX - BLUE BOX", "note": "ON 12/24 AND 12/31, THIS BOX MAY BE COLLECTED AS EARLY AS 12 NOON.", "ref": "8410200036"}, "type": "Feature"}
{"geometry": {"coordinates": [-111.869971, 40.769482], "type": "Point"}, "id": "hv50w8sD0tQzmnOTi8LKRlgw6Ws=", "properties": {"@spider": "usps_collection_boxes", "addr:city": "SALT LAKE CITY", "addr:country": "US", "addr:full": "731 E SOUTH TEMPLE", "addr:postcode": "84102", "addr:state": "UT", "brand": "USPS", "collection_times": "Mo-Fr 17:00", "name": "USPS COLLECTION BOX - BLUE BOX", "note": "ON 12/24 AND 12/31, THIS BOX MAY BE COLLECTED AS EARLY AS 12 NOON.", "ref": "8410200042"}, "type": "Feature"}
{"geometry": {"coordinates": [-111.876999, 40.765129], "type": "Point"}, "id": "sfrvC5yBQSXHYXiIHi5G-AK08-M=", "properties": {"@spider": "usps_collection_boxes", "addr:city": "SALT LAKE CITY", "addr:country": "US", "addr:full": "500 E 200 S", "addr:postcode": "84102", "addr:state": "UT", "brand": "USPS", "collection_times": "Mo-Fr 17:00", "name": "USPS COLLECTION BOX - BLUE BOX", "note": "ON 12/24 AND 12/31, THIS BOX MAY BE COLLECTED AS EARLY AS 12 NOON.", "ref": "8410200043"}, "type": "Feature"}
{"geometry": {"coordinates": [-111.874934, 40.758642], "type": "Point"}, "id": "2lEaV95O0znQMCq84nhd7kiWcFs=", "properties": {"@spider": "usps_collection_boxes", "addr:city": "SALT LAKE CITY", "addr:country": "US", "addr:full": "551 E 500 S", "addr:postcode": "84102", "addr:state": "UT", "brand": "USPS", "collection_times": "Mo-Fr 17:00", "name": "USPS COLLECTION BOX - EXPRESS", "note": "ON 12/24 AND 12/31, THIS BOX MAY BE COLLECTED AS EARLY AS 12 NOON.", "ref": "8410200048"}, "type": "Feature"}
{"geometry": {"coordinates": [-111.874094, 40.767338], "type": "Point"}, "id": "WOaTUUHIieL9LcRfJA9BGha86Dc=", "properties": {"@spider": "usps_collection_boxes", "addr:city": "SALT LAKE CITY", "addr:country": "US", "addr:full": "100 S 600 E", "addr:postcode": "84102", "addr:state": "UT", "brand": "USPS", "collection_times": "Mo-Fr 14:00; Sa 16:00", "name": "USPS COLLECTION BOX - BLUE BOX", "note": "ON 12/24 AND 12/31, THIS BOX MAY BE COLLECTED AS EARLY AS 12 NOON.", "ref": "8410200049"}, "type": "Feature"}
{"geometry": {"coordinates": [-111.874947, 40.758641], "type": "Point"}, "id": "8fs3616wz7XsGkDNE9z6E4_k4cY=", "properties": {"@spider": "usps_collection_boxes", "addr:city": "SALT LAKE CITY", "addr:country": "US", "addr:full": "551 E 500 S", "addr:postcode": "84102", "addr:state": "UT", "brand": "USPS", "collection_times": "Mo-Fr 17:00", "name": "USPS COLLECTION BOX - BLUE BOX", "note": "ON 12/24 AND 12/31, THIS BOX MAY BE COLLECTED AS EARLY AS 12 NOON.", "ref": "8410200060"}, "type": "Feature"}
{"geometry": {"coordinates": [-111.866006, 40.750998], "type": "Point"}, "id": "b3113639xUKZkNxLt-248FTUgRQ=", "properties": {"@spider": "usps_collection_boxes", "addr:city": "SALT LAKE CITY", "addr:country": "US", "addr:full": "876 E 800 S", "addr:postcode": "84102", "addr:state": "UT", "brand": "USPS", "collection_times": "Mo-Fr 13:00; Sa 16:00", "name": "USPS COLLECTION BOX - BLUE BOX", "note": "ON 12/24 AND 12/31, THIS BOX MAY BE COLLECTED AS EARLY AS 12 NOON.", "ref": "8410200061"}, "type": "Feature"}
{"geometry": {"coordinates": [-111.869793, 40.7693824971], "type": "Point"}, "id": "10NIabr2bVscaVMzszkEItO_rhs=", "properties": {"@spider": "usps_collection_boxes", "addr:city": "SALT LAKE CITY", "addr:country": "US", "addr:full": "731 E SOUTH TEMPLE", "addr:postcode": "84102", "addr:state": "UT", "brand": "USPS", "collection_times": "Mo-Fr 17:00", "name": "USPS COLLECTION BOX - BLUE BOX", "note": "ON 12/24 AND 12/31, THIS BOX MAY BE COLLECTED AS EARLY AS 12 NOON.", "ref": "8410200063"}, "type": "Feature"}
{"geometry": {"coordinates": [-111.868475, 40.77271], "type": "Point"}, "id": "VEU5CPHI28oz6cGRvaZ2mMUvlVY=", "properties": {"@spider": "usps_collection_boxes", "addr:city": "SALT LAKE CITY", "addr:country": "US", "addr:full": "702 THIRD AVE", "addr:postcode": "84103", "addr:state": "UT", "brand": "USPS", "collection_times": "Mo-Sa 13:00", "name": "USPS COLLECTION BOX - BLUE BOX", "note": "ON 12/24 AND 12/31, THIS BOX MAY BE COLLECTED AS EARLY AS 12 NOON.", "ref": "8410300004"}, "type": "Feature"}
{"geometry": {"coordinates": [-111.881942, 40.771612], "type": "Point"}, "id": "EGONQeaKeKgbcFAezdEkPv7S_4Q=", "properties": {"@spider": "usps_collection_boxes", "addr:city": "SALT LAKE CITY", "addr:country": "US", "addr:full": "256 SECOND AVE", "addr:postcode": "84103", "addr:state": "UT", "brand": "USPS", "collection_times": "Mo-Fr 14:00; Sa 13:00", "name": "USPS COLLECTION BOX - BLUE BOX", "note": "ON 12/24 AND 12/31, THIS BOX MAY BE COLLECTED AS EARLY AS 12 NOON.", "ref": "8410300010"}, "type": "Feature"}
{"geometry": {"coordinates": [-111.851845, 40.777016], "type": "Point"}, "id": "U-hZubsX12aM0gPJ6D0yLx8DNaM=", "properties": {"@spider": "usps_collection_boxes", "addr:city": "SALT LAKE CITY", "addr:country": "US", "addr:full": "1260 E FAIRFAX RD", "addr:postcode": "84103", "addr:state": "UT", "brand": "USPS", "collection_times": "Mo-Sa 13:00", "name": "USPS COLLECTION BOX - BLUE BOX", "note": "ON 12/24 AND 12/31, THIS BOX MAY BE COLLECTED AS EARLY AS 12 NOON.", "ref": "8410300035"}, "type": "Feature"}
{"geometry": {"coordinates": [-111.878318, 40.779596], "type": "Point"}, "id": "GUhgefoN8860nzachMyAG-X2xoY=", "properties": {"@spider": "usps_collection_boxes", "addr:city": "SALT LAKE CITY", "addr:country": "US", "addr:full": "370 NINTH AVE", "addr:postcode": "84103", "addr:state": "UT", "brand": "USPS", "collection_times": "Mo-Fr 13:00", "name": "USPS COLLECTION BOX - BLUE BOX", "note": "ON 12/24 AND 12/31, THIS BOX MAY BE COLLECTED AS EARLY AS 12 NOON.", "ref": "8410300038"}, "type": "Feature"}
{"geometry": {"coordinates": [-111.917061, 40.751322], "type": "Point"}, "id": "znsjJyk3ihCGgQxa7pCPaB4smJI=", "properties": {"@spider": "usps_collection_boxes", "addr:city": "SALT LAKE CITY", "addr:country": "US", "addr:full": "820 S 900 W", "addr:postcode": "84104", "addr:state": "UT", "brand": "USPS", "collection_times": "Mo-Sa 13:00", "name": "USPS COLLECTION BOX - BLUE BOX", "note": "ON 12/24 AND 12/31, THIS BOX MAY BE COLLECTED AS EARLY AS 12 NOON.", "ref": "8410400014"}, "type": "Feature"}
{"geometry": {"coordinates": [-111.977287, 40.726582], "type": "Point"}, "id": "0pjUnf--OTqzf5X8AK_X9bCFP_I=", "properties": {"@spider": "usps_collection_boxes", "addr:city": "SALT LAKE CITY", "addr:country": "US", "addr:full": "2098 S 3600 W", "addr:postcode": "84104", "addr:state": "UT", "brand": "USPS", "collection_times": "Mo-Fr 16:00", "name": "USPS COLLECTION BOX - BLUE BOX", "note": "ON 12/24 AND 12/31, THIS BOX MAY BE COLLECTED AS EARLY AS 12 NOON.", "ref": "8410400018"}, "type": "Feature"}
{"geometry": {"coordinates": [-111.946588, 40.740071], "type": "Point"}, "id": "gCKVbBQVFYR6wau1jlLJwuv7qnk=", "properties": {"@spider": "usps_collection_boxes", "addr:city": "SALT LAKE CITY", "addr:country": "US", "addr:full": "1953 W CALIFORNIA AVE", "addr:postcode": "84104", "addr:state": "UT", "brand": "USPS", "collection_times": "Mo-Fr 16:00", "name": "USPS COLLECTION BOX - BLUE BOX", "note": "ON 12/24 AND 12/31, THIS BOX MAY BE COLLECTED AS EARLY AS 12 NOON.", "ref": "8410400029"}, "type": "Feature"}
{"geometry": {"coordinates": [-111.956236, 40.740351], "type": "Point"}, "id": "vkBPdh8BL8OEIRlZwybXbH9Civg=", "properties": {"@spider": "usps_collection_boxes", "addr:city": "SALT LAKE CITY", "addr:country": "US", "addr:full": "2597 CALIFORNIA AVE", "addr:postcode": "84104", "addr:state": "UT", "brand": "USPS", "collection_times": "Mo-Fr 16:00", "name": "USPS COLLECTION BOX - BLUE BOX", "note": "ON 12/24 AND 12/31, THIS BOX MAY BE COLLECTED AS EARLY AS 12 NOON.", "ref": "8410400038"}, "type": "Feature"}
{"geometry": {"coordinates": [-111.9897700017, 40.7293055525], "type": "Point"}, "id": "l5q8OT3hIXzUCEcB0MyHowlHF-g=", "properties": {"@spider": "usps_collection_boxes", "addr:city": "SALT LAKE CITY", "addr:country": "US", "addr:full": "1825 S 4130 W", "addr:postcode": "84104", "addr:state": "UT", "brand": "USPS", "collection_times": "Mo-Fr 16:00", "name": "USPS COLLECTION BOX - BLUE BOX", "note": "ON 12/24 AND 12/31, THIS BOX MAY BE COLLECTED AS EARLY AS 12 NOON.", "ref": "8410400041"}, "type": "Feature"}
{"geometry": {"coordinates": [-112.004665, 40.742795], "type": "Point"}, "id": "548sExBM-QQ4I2lidIWFm9v2tc0=", "properties": {"@spider": "usps_collection_boxes", "addr:city": "SALT LAKE CITY", "addr:country": "US", "addr:full": "1275 S 4800 W", "addr:postcode": "84104", "addr:state": "UT", "brand": "USPS", "collection_times": "Mo-Fr 13:00", "name": "USPS COLLECTION BOX - BLUE BOX", "note": "ON 12/24 AND 12/31, THIS BOX MAY BE COLLECTED AS EARLY AS 12 NOON.", "ref": "8410400044"}, "type": "Feature"}
{"geometry": {"coordinates": [-111.847879888, 40.737087501], "type": "Point"}, "id": "wSfVAW1XCrSeOhO-sFKsvIATzEQ=", "properties": {"@spider": "usps_collection_boxes", "addr:city": "SALT LAKE CITY", "addr:country": "US", "addr:full": "1500 E EMERSON AVE", "addr:postcode": "84105", "addr:state": "UT", "brand": "USPS", "collection_times": "Mo-Fr 13:00; Sa 14:00", "name": "USPS COLLECTION BOX - BLUE BOX", "note": "ON 12/24 AND 12/31, THIS BOX MAY BE COLLECTED AS EARLY AS 12 NOON.", "ref": "8410500030"}, "type": "Feature"}
{"geometry": {"coordinates": [-111.859313411, 40.712621411], "type": "Point"}, "id": "wZZUotvLdL3tyOTqU6ijf4Ae7y0=", "properties": {"@spider": "usps_collection_boxes", "addr:city": "SALT LAKE CITY", "addr:country": "US", "addr:full": "1100 E 2700 S", "addr:postcode": "84106", "addr:state": "UT", "brand": "USPS", "collection_times": "Mo-Fr 13:00; Sa 15:00", "name": "USPS COLLECTION BOX - BLUE BOX", "note": "ON 12/24 AND 12/31, THIS BOX MAY BE COLLECTED AS EARLY AS 12 NOON.", "ref": "8410600010"}, "type": "Feature"}
{"geometry": {"coordinates": [-111.871568, 40.699128], "type": "Point"}, "id": "lf2YlLK_4F4TjWPA6vWBLBdiuOU=", "properties": {"@spider": "usps_collection_boxes", "addr:city": "SALT LAKE CITY", "addr:country": "US", "addr:full": "3330 S 700 E", "addr:postcode": "84106", "addr:state": "UT", "brand": "USPS", "collection_times": "Mo-Fr 13:00", "name": "USPS COLLECTION BOX - BLUE BOX", "note": "ON 12/24 AND 12/31, THIS BOX MAY BE COLLECTED AS EARLY AS 12 NOON.", "ref": "8410600011"}, "type": "Feature"}
{"geometry": {"coordinates": [-111.843665479, 40.7076856251], "type": "Point"}, "id": "CzfYnRCxW8iSiK10uXxiEdUI6cw=", "properties": {"@spider": "usps_collection_boxes", "addr:city": "SALT LAKE CITY", "addr:country": "US", "addr:full": "2910 S IMPERIAL ST", "addr:postcode": "84106", "addr:state": "UT", "brand": "USPS", "collection_times": "Mo-Fr 13:00; Sa 15:00", "name": "USPS COLLECTION BOX - BLUE BOX", "note": "ON 12/24 AND 12/31, THIS BOX MAY BE COLLECTED AS EARLY AS 12 NOON.", "ref": "8410600013"}, "type": "Feature"}
{"geometry": {"coordinates": [-111.852971, 40.705448], "type": "Point"}, "id": "P6hEE8vETh8Ny09MC_cdEUGmZNo=", "properties": {"@spider": "usps_collection_boxes", "addr:city": "SALT LAKE CITY", "addr:country": "US", "addr:full": "3015 S HIGHLAND DR", "addr:postcode": "84106", "addr:state": "UT", "brand": "USPS", "collection_times": "Mo-Fr 15:00; Sa 16:00", "name": "USPS COLLECTION BOX - BLUE BOX", "note": "ON 12/24 AND 12/31, THIS BOX MAY BE COLLECTED AS EARLY AS 12 NOON.", "ref": "8410600014"}, "type": "Feature"}
{"geometry": {"coordinates": [-111.865374, 40.690787], "type": "Point"}, "id": "RB7dEKp4j0V4UpKinfSJESrkM9A=", "properties": {"@spider": "usps_collection_boxes", "addr:city": "SALT LAKE CITY", "addr:country": "US", "addr:full": "3725 S 900 E", "addr:postcode": "84106", "addr:state": "UT", "brand": "USPS", "collection_times": "Mo-Fr 13:00; Sa 15:00", "name": "USPS COLLECTION BOX - BLUE BOX", "note": "ON 12/24 AND 12/31, THIS BOX MAY BE COLLECTED AS EARLY AS 12 NOON.", "ref": "8410600021"}, "type": "Feature"}
{"geometry": {"coordinates": [-111.8604927433, 40.7033782145], "type": "Point"}, "id": "roqjaz0oTwiXw2mzGVzZGrEjv_M=", "properties": {"@spider": "usps_collection_boxes", "addr:city": "SALT LAKE CITY", "addr:country": "US", "addr:full": "1143 E BRICKYARD RD", "addr:postcode": "84106", "addr:state": "UT", "brand": "USPS", "collection_times": "Mo-Fr 16:00", "name": "USPS COLLECTION BOX - BLUE BOX", "note": "ON 12/24 AND 12/31, THIS BOX MAY BE COLLECTED AS EARLY AS 12 NOON.", "ref": "8410600029"}, "type": "Feature"}
{"geometry": {"coordinates": [-111.853827683, 40.724148133], "type": "Point"}, "id": "nfGLppywC9iVW39vTXRphDi7yjQ=", "properties": {"@spider": "usps_collection_boxes", "addr:city": "SALT LAKE CITY", "addr:country": "US", "addr:full": "2150 S 1300 E", "addr:postcode": "84106", "addr:state": "UT", "brand": "USPS", "collection_times": "Mo-Fr 17:00", "name": "USPS COLLECTION BOX - BLUE BOX", "note": "ON 12/24 AND 12/31, THIS BOX MAY BE COLLECTED AS EARLY AS 12 NOON.", "ref": "8410600033"}, "type": "Feature"}
{"geometry": {"coordinates": [-111.859516, 40.727656], "type": "Point"}, "id": "wLqEVqJ6cmI9nu-yHTNAymSbMlk=", "properties": {"@spider": "usps_collection_boxes", "addr:city": "SALT LAKE CITY", "addr:country": "US", "addr:full": "1953 S 1100 E", "addr:postcode": "84106", "addr:state": "UT", "brand": "USPS", "collection_times": "Mo-Fr 18:00; Sa 17:00", "name": "USPS COLLECTION BOX - BLUE BOX", "note": "ON 12/24 AND 12/31, THIS BOX MAY BE COLLECTED AS EARLY AS 12 NOON.", "ref": "8410600044"}, "type": "Feature"}
{"geometry": {"coordinates": [-111.85889, 40.727659], "type": "Point"}, "id": "bUaQ7uNGqOgrsBAR0N81KZFmrHw=", "properties": {"@spider": "usps_collection_boxes", "addr:city": "SALT LAKE CITY", "addr:country": "US", "addr:full": "1953 S 1100 E", "addr:postcode": "84106", "addr:state": "UT", "brand": "USPS", "collection_times": "Mo-Fr 18:00; Sa 16:45", "name": "USPS COLLECTION BOX - PO LOBBY", "note": "ON 12/24 AND 12/31, THIS BOX MAY BE COLLECTED AS EARLY AS 12 NOON.", "ref": "8410600048"}, "type": "Feature"}
{"geometry": {"coordinates": [-111.845627, 40.715556], "type": "Point"}, "id": "zinrbhIUZbBlO2lnnNtnKAyVKgU=", "properties": {"@spider": "usps_collection_boxes", "addr:city": "SALT LAKE CITY", "addr:country": "US", "addr:full": "1575 E STRATFORD AVE", "addr:postcode": "84106", "addr:state": "UT", "brand": "USPS", "collection_times": "Mo-Fr 13:00; Sa 15:00", "name": "USPS COLLECTION BOX - BLUE BOX", "note": "ON 12/24 AND 12/31, THIS BOX MAY BE COLLECTED AS EARLY AS 12 NOON.", "ref": "8410600051"}, "type": "Feature"}
{"geometry": {"coordinates": [-111.858909, 40.72765], "type": "Point"}, "id": "NVI-PdRdEBUp4nIVJoVjUTf1qHI=", "properties": {"@spider": "usps_collection_boxes", "addr:city": "SALT LAKE CITY", "addr:country": "US", "addr:full": "1953 S 1100 E", "addr:postcode": "84106", "addr:state": "UT", "brand": "USPS", "collection_times": "Mo-Fr 18:00; Sa 16:45", "name": "USPS COLLECTION BOX - APC", "note": "ON 12/24 AND 12/31, THIS BOX MAY BE COLLECTED AS EARLY AS 12 NOON.", "ref": "8410600054"}, "type": "Feature"}
{"geometry": {"coordinates": [-111.859597723, 40.727645665], "type": "Point"}, "id": "j4_gfGsjXtpZyaZiFcfzDidi1Wo=", "properties": {"@spider": "usps_collection_boxes", "addr:city": "SALT LAKE CITY", "addr:country": "US", "addr:full": "1953 S 1100 E", "addr:postcode": "84106", "addr:state": "UT", "brand": "USPS", "collection_times": "Mo-Fr 18:00; Sa 16:45", "name": "USPS COLLECTION BOX - PO LOBBY", "note": "ON 12/24 AND 12/31, THIS BOX MAY BE COLLECTED AS EARLY AS 12 NOON.", "ref": "8410600059"}, "type": "Feature"}
{"geometry": {"coordinates": [-111.887038, 40.662834], "type": "Point"}, "id": "tRAZU5wpT6gO4Zkd2gSFSTsBM1o=", "properties": {"@spider": "usps_collection_boxes", "addr:city": "SALT LAKE CITY", "addr:country": "US", "addr:full": "120 E ARLINGTON AVE", "addr:postcode": "84107", "addr:state": "UT", "brand": "USPS", "collection_times": "Mo-Fr 18:00; Sa 17:00", "name": "USPS COLLECTION BOX - BLUE BOX", "note": "ON 12/24 AND 12/31, THIS BOX MAY BE COLLECTED AS EARLY AS 12 NOON.", "ref": "8410700005"}, "type": "Feature"}
{"geometry": {"coordinates": [-111.887029, 40.662852], "type": "Point"}, "id": "5HKAcQN1s6cGXqEAQVvzXp-AABk=", "properties": {"@spider": "usps_collection_boxes", "addr:city": "SALT LAKE CITY", "addr:country": "US", "addr:full": "120 E ARLINGTON AVE", "addr:postcode": "84107", "addr:state": "UT", "brand": "USPS", "collection_times": "Mo-Fr 18:00; Sa 17:00", "name": "USPS COLLECTION BOX - BLUE BOX", "note": "ON 12/24 AND 12/31, THIS BOX MAY BE COLLECTED AS EARLY AS 12 NOON.", "ref": "8410700006"}, "type": "Feature"}
{"geometry": {"coordinates": [-111.899198, 40.656404], "type": "Point"}, "id": "ipLY0mVsqDAWsx8gWm95I4gbvZI=", "properties": {"@spider": "usps_collection_boxes", "addr:city": "SALT LAKE CITY", "addr:country": "US", "addr:full": "5290 S COMMERCE DR", "addr:postcode": "84107", "addr:state": "UT", "brand": "USPS", "collection_times": "Mo-Fr 17:00", "name": "USPS COLLECTION BOX - BLUE BOX", "note": "ON 12/24 AND 12/31, THIS BOX MAY BE COLLECTED AS EARLY AS 12 NOON.", "ref": "8410700008"}, "type": "Feature"}
{"geometry": {"coordinates": [-111.899209, 40.656399], "type": "Point"}, "id": "R3zwRq_3e98uRX6dGyw77wbs8OA=", "properties": {"@spider": "usps_collection_boxes", "addr:city": "SALT LAKE CITY", "addr:country": "US", "addr:full": "5290 S COMMERCE DR", "addr:postcode": "84107", "addr:state": "UT", "brand": "USPS", "collection_times": "Mo-Fr 17:00", "name": "USPS COLLECTION BOX - BLUE BOX", "note": "ON 12/24 AND 12/31, THIS BOX MAY BE COLLECTED AS EARLY AS 12 NOON.", "ref": "8410700009"}, "type": "Feature"}
{"geometry": {"coordinates": [-111.893634, 40.674148], "type": "Point"}, "id": "GgP0SXy4vH1JTOULqV_KxtTz_7Q=", "properties": {"@spider": "usps_collection_boxes", "addr:city": "SALT LAKE CITY", "addr:country": "US", "addr:full": "79 W 4500 S", "addr:postcode": "84107", "addr:state": "UT", "brand": "USPS", "collection_times": "Mo-Fr 13:00", "name": "USPS COLLECTION BOX - BLUE BOX", "note": "ON 12/24 AND 12/31, THIS BOX MAY BE COLLECTED AS EARLY AS 12 NOON.", "ref": "8410700011"}, "type": "Feature"}
{"geometry": {"coordinates": [-111.892617, 40.643042], "type": "Point"}, "id": "P2jRgKAnwUyP9fbpHIZisuLGumo=", "properties": {"@spider": "usps_collection_boxes", "addr:city": "SALT LAKE CITY", "addr:country": "US", "addr:full": "5899 S SAGEWOOD DR", "addr:postcode": "84107", "addr:state": "UT", "brand": "USPS", "collection_times": "Mo-Fr 14:00; Sa 13:00", "name": "USPS COLLECTION BOX - BLUE BOX", "note": "ON 12/24 AND 12/31, THIS BOX MAY BE COLLECTED AS EARLY AS 12 NOON.", "ref": "8410700012"}, "type": "Feature"}
{"geometry": {"coordinates": [-111.890421, 40.633241], "type": "Point"}, "id": "9gkME3iVbFssTAddX1NkHir3e4c=", "properties": {"@spider": "usps_collection_boxes", "addr:city": "SALT LAKE CITY", "addr:country": "US", "addr:full": "10 W WINCHESTER ST", "addr:postcode": "84107", "addr:state": "UT", "brand": "USPS", "collection_times": "Mo-Fr 14:00", "name": "USPS COLLECTION BOX - BLUE BOX", "note": "ON 12/24 AND 12/31, THIS BOX MAY BE COLLECTED AS EARLY AS 12 NOON.", "ref": "8410700023"}, "type": "Feature"}
{"geometry": {"coordinates": [-111.88582164, 40.645887538], "type": "Point"}, "id": "cQAyVb2oxCeRLE-uJhUJOqXsyL8=", "properties": {"@spider": "usps_collection_boxes", "addr:city": "SALT LAKE CITY", "addr:country": "US", "addr:full": "250 E 5770 S", "addr:postcode": "84107", "addr:state": "UT", "brand": "USPS", "collection_times": "Mo-Fr 14:00; Sa 13:00", "name": "USPS COLLECTION BOX - BLUE BOX", "note": "ON 12/24 AND 12/31, THIS BOX MAY BE COLLECTED AS EARLY AS 12 NOON.", "ref": "8410700024"}, "type": "Feature"}
{"geometry": {"coordinates": [-111.885999, 40.636507], "type": "Point"}, "id": "0NxlvgmDeEAYECf-1TFuF2phXqM=", "properties": {"@spider": "usps_collection_boxes", "addr:city": "SALT LAKE CITY", "addr:country": "US", "addr:full": "250 E 6100 S", "addr:postcode": "84107", "addr:state": "UT", "brand": "USPS", "collection_times": "Mo-Fr 14:00; Sa 13:00", "name": "USPS COLLECTION BOX - BLUE BOX", "note": "ON 12/24 AND 12/31, THIS BOX MAY BE COLLECTED AS EARLY AS 12 NOON.", "ref": "8410700025"}, "type": "Feature"}
{"geometry": {"coordinates": [-111.882654, 40.686929], "type": "Point"}, "id": "wkknAfLqY-ozoQ5MJ-T1P4e1-aU=", "properties": {"@spider": "usps_collection_boxes", "addr:city": "SALT LAKE CITY", "addr:country": "US", "addr:full": "3905 S 300 E", "addr:postcode": "84107", "addr:state": "UT", "brand": "USPS", "collection_times": "Mo-Fr 17:00; Sa 15:00", "name": "USPS COLLECTION BOX - BLUE BOX", "note": "ON 12/24 AND 12/31, THIS BOX MAY BE COLLECTED AS EARLY AS 12 NOON.", "ref": "8410700027"}, "type": "Feature"}
{"geometry": {"coordinates": [-111.881933832, 40.674294547], "type": "Point"}, "id": "EQlPkIF5YyvzB2YrZAbWu0R6x0U=", "properties": {"@spider": "usps_collection_boxes", "addr:city": "SALT LAKE CITY", "addr:country": "US", "addr:full": "310 E 4500 S", "addr:postcode": "84107", "addr:state": "UT", "brand": "USPS", "collection_times": "Mo-Fr 16:30", "name": "USPS COLLECTION BOX - BLUE BOX", "note": "ON 12/24 AND 12/31, THIS BOX MAY BE COLLECTED AS EARLY AS 12 NOON.", "ref": "8410700029"}, "type": "Feature"}
{"geometry": {"coordinates": [-111.881933832, 40.674294547], "type": "Point"}, "id": "xBLeGFB4UZ-sAJqza9ZQvfYAOow=", "properties": {"@spider": "usps_collection_boxes", "addr:city": "SALT LAKE CITY", "addr:country": "US", "addr:full": "310 E 4500 S", "addr:postcode": "84107", "addr:state": "UT", "brand": "USPS", "collection_times": "Mo-Fr 16:30", "name": "USPS COLLECTION BOX - BLUE BOX", "note": "ON 12/24 AND 12/31, THIS BOX MAY BE COLLECTED AS EARLY AS 12 NOON.", "ref": "8410700030"}, "type": "Feature"}
{"geometry": {"coordinates": [-111.877215, 40.63163], "type": "Point"}, "id": "V3VinIIzIoClhQ3a1oZXwT9P_B4=", "properties": {"@spider": "usps_collection_boxes", "addr:city": "SALT LAKE CITY", "addr:country": "US", "addr:full": "488 E WINCHESTER ST", "addr:postcode": "84107", "addr:state": "UT", "brand": "USPS", "collection_times": "Mo-Fr 17:00", "name": "USPS COLLECTION BOX - BLUE BOX", "note": "ON 12/24 AND 12/31, THIS BOX MAY BE COLLECTED AS EARLY AS 12 NOON.", "ref": "8410700035"}, "type": "Feature"}
{"geometry": {"coordinates": [-111.874294, 40.674473], "type": "Point"}, "id": "TywUY0CFRa5lp72UNXrGyclngyw=", "properties": {"@spider": "usps_collection_boxes", "addr:city": "SALT LAKE CITY", "addr:country": "US", "addr:full": "575 E 4500 S", "addr:postcode": "84107", "addr:state": "UT", "brand": "USPS", "collection_times": "Mo-Fr 16:30", "name": "USPS COLLECTION BOX - BLUE BOX", "note": "ON 12/24 AND 12/31, THIS BOX MAY BE COLLECTED AS EARLY AS 12 NOON.", "ref": "8410700038"}, "type": "Feature"}
{"geometry": {"coordinates": [-111.869985, 40.684003], "type": "Point"}, "id": "0_uqrBmYEY4lgd_z8j8DrJgTxoE=", "properties": {"@spider": "usps_collection_boxes", "addr:city": "SALT LAKE CITY", "addr:country": "US", "addr:full": "4001 S 700 E", "addr:postcode": "84107", "addr:state": "UT", "brand": "USPS", "collection_times": "Mo-Fr 17:00", "name": "USPS COLLECTION BOX - BLUE BOX", "note": "ON 12/24 AND 12/31, THIS BOX MAY BE COLLECTED AS EARLY AS 12 NOON.", "ref": "8410700043"}, "type": "Feature"}
{"geometry": {"coordinates": [-111.8698680177, 40.6846860101], "type": "Point"}, "id": "bZhh-y5X-WCjGXzUJajS3oXOnM4=", "properties": {"@spider": "usps_collection_boxes", "addr:city": "SALT LAKE CITY", "addr:country": "US", "addr:full": "4001 S 700 E", "addr:postcode": "84107", "addr:state": "UT", "brand": "USPS", "collection_times": "Mo-Fr 17:00", "name": "USPS COLLECTION BOX - BLUE BOX", "note": "ON 12/24 AND 12/31, THIS BOX MAY BE COLLECTED AS EARLY AS 12 NOON.", "ref": "8410700044"}, "type": "Feature"}
{"geometry": {"coordinates": [-111.881933832, 40.674294547], "type": "Point"}, "id": "GienzGFSMRQUkA4X5V4wuLLVd1Q=", "properties": {"@spider": "usps_collection_boxes", "addr:city": "SALT LAKE CITY", "addr:country": "US", "addr:full": "310 E 4500 S", "addr:postcode": "84107", "addr:state": "UT", "brand": "USPS", "collection_times": "Mo-Fr 16:30", "name": "USPS COLLECTION BOX - BLUE BOX", "note": "ON 12/24 AND 12/31, THIS BOX MAY BE COLLECTED AS EARLY AS 12 NOON.", "ref": "8410700070"}, "type": "Feature"}
{"geometry": {"coordinates": [-111.8698680177, 40.6846860101], "type": "Point"}, "id": "9XCbGCkhN3kn628bXOHN-bu7zLQ=", "properties": {"@spider": "usps_collection_boxes", "addr:city": "SALT LAKE CITY", "addr:country": "US", "addr:full": "4001 S 700 E", "addr:postcode": "84107", "addr:state": "UT", "brand": "USPS", "collection_times": "Mo-Fr 17:00", "name": "USPS COLLECTION BOX - BLUE BOX", "note": "ON 12/24 AND 12/31, THIS BOX MAY BE COLLECTED AS EARLY AS 12 NOON.", "ref": "8410700074"}, "type": "Feature"}
{"geometry": {"coordinates": [-111.888281, 40.66371], "type": "Point"}, "id": "7d6V24NhgahtnqKuv1PUrE-FAT0=", "properties": {"@spider": "usps_collection_boxes", "addr:city": "SALT LAKE CITY", "addr:country": "US", "addr:full": "4989 S STATE ST", "addr:postcode": "84107", "addr:state": "UT", "brand": "USPS", "collection_times": "Mo-Fr 18:00; Sa 15:30", "name": "USPS COLLECTION BOX - APC", "note": "ON 12/24 AND 12/31, THIS BOX MAY BE COLLECTED AS EARLY AS 12 NOON.", "ref": "8410700075"}, "type": "Feature"}
{"geometry": {"coordinates": [-111.870968, 40.68612], "type": "Point"}, "id": "lO46vouoUPnx56LiYulz4y_FAf4=", "properties": {"@spider": "usps_collection_boxes", "addr:city": "SALT LAKE CITY", "addr:country": "US", "addr:full": "3949 S 700 E", "addr:postcode": "84107", "addr:state": "UT", "brand": "USPS", "collection_times": "Mo-Fr 17:00", "name": "USPS COLLECTION BOX - BLUE BOX", "note": "ON 12/24 AND 12/31, THIS BOX MAY BE COLLECTED AS EARLY AS 12 NOON.", "ref": "8410700085"}, "type": "Feature"}
{"geometry": {"coordinates": [-111.887236, 40.649397], "type": "Point"}, "id": "t8MNdJLGPHawWnYT343BtOmJiiw=", "properties": {"@spider": "usps_collection_boxes", "addr:city": "SALT LAKE CITY", "addr:country": "US", "addr:full": "111 E 5600 S", "addr:postcode": "84107", "addr:state": "UT", "brand": "USPS", "collection_times": "Mo-Fr 14:00", "name": "USPS COLLECTION BOX - BLUE BOX", "note": "ON 12/24 AND 12/31, THIS BOX MAY BE COLLECTED AS EARLY AS 12 NOON.", "ref": "8410700095"}, "type": "Feature"}
{"geometry": {"coordinates": [-111.894289481, 40.658899228], "type": "Point"}, "id": "lm7pdZiBSYePeT_ZPlFTkrPIPPw=", "properties": {"@spider": "usps_collection_boxes", "addr:city": "SALT LAKE CITY", "addr:country": "US", "addr:full": "5169 S COTTONWOOD ST", "addr:postcode": "84107", "addr:state": "UT", "brand": "USPS", "collection_times": "Mo-Fr 14:00", "name": "USPS COLLECTION BOX - BLUE BOX", "note": "ON 12/24 AND 12/31, THIS BOX MAY BE COLLECTED AS EARLY AS 12 NOON.", "ref": "8410700096"}, "type": "Feature"}
{"geometry": {"coordinates": [-111.891509, 40.6599], "type": "Point"}, "id": "ImcMjtl430huqNiBRi1pDsXs-YQ=", "properties": {"@spider": "usps_collection_boxes", "addr:city": "SALT LAKE CITY", "addr:country": "US", "addr:full": "5121 S COTTONWOOD ST", "addr:postcode": "84107", "addr:state": "UT", "brand": "USPS", "collection_times": "Mo-Fr 14:00", "name": "USPS COLLECTION BOX - BLUE BOX", "note": "ON 12/24 AND 12/31, THIS BOX MAY BE COLLECTED AS EARLY AS 12 NOON.", "ref": "8410700097"}, "type": "Feature"}
{"geometry": {"coordinates": [-111.871894, 40.630949], "type": "Point"}, "id": "KgOpLurUvnaV9LAXpqSUZt_Jubc=", "properties": {"@spider": "usps_collection_boxes", "addr:city": "SALT LAKE CITY", "addr:country": "US", "addr:full": "746 E WINCHESTER ST", "addr:postcode": "84107", "addr:state": "UT", "brand": "USPS", "collection_times": "Mo-Fr 13:00", "name": "USPS COLLECTION BOX - BLUE BOX", "note": "ON 12/24 AND 12/31, THIS BOX MAY BE COLLECTED AS EARLY AS 12 NOON.", "ref": "8410700098"}, "type": "Feature"}
{"geometry": {"coordinates": [-111.888281, 40.66371], "type": "Point"}, "id": "rhhuIsANf6F-72cwH2eGefZCLdY=", "properties": {"@spider": "usps_collection_boxes", "addr:city": "SALT LAKE CITY", "addr:country": "US", "addr:full": "4989 S STATE ST", "addr:postcode": "84107", "addr:state": "UT", "brand": "USPS", "collection_times": "Mo-Fr 18:00; Sa 15:30", "name": "USPS COLLECTION BOX - PO LOBBY", "note": "ON 12/24 AND 12/31, THIS BOX MAY BE COLLECTED AS EARLY AS 12 NOON.", "ref": "8410700099"}, "type": "Feature"}
{"geometry": {"coordinates": [-111.888287299, 40.663242], "type": "Point"}, "id": "jWP0Yx3L7oJFyzKaWrwDvS2r6A0=", "properties": {"@spider": "usps_collection_boxes", "addr:city": "SALT LAKE CITY", "addr:country": "US", "addr:full": "4989 S STATE ST", "addr:postcode": "84107", "addr:state": "UT", "brand": "USPS", "collection_times": "Mo-Fr 18:00; Sa 15:30", "name": "USPS COLLECTION BOX - PO LOBBY", "note": "ON 12/24 AND 12/31, THIS BOX MAY BE COLLECTED AS EARLY AS 12 NOON.", "ref": "8410700103"}, "type": "Feature"}
{"geometry": {"coordinates": [-111.842192, 40.741517], "type": "Point"}, "id": "3hy4Rq-JrxgwrlApPm_XhBPdICw=", "properties": {"@spider": "usps_collection_boxes", "addr:city": "SALT LAKE CITY", "addr:country": "US", "addr:full": "1305 S 1700 E", "addr:postcode": "84108", "addr:state": "UT", "brand": "USPS", "collection_times": "Mo-Fr 13:00; Sa 14:00", "name": "USPS COLLECTION BOX - BLUE BOX", "note": "ON 12/24 AND 12/31, THIS BOX MAY BE COLLECTED AS EARLY AS 12 NOON.", "ref": "8410800002"}, "type": "Feature"}
{"geometry": {"coordinates": [-111.825159, 40.726118], "type": "Point"}, "id": "v6N5ffZeVlxlJDwYSdjRMnHYl4Q=", "properties": {"@spider": "usps_collection_boxes", "addr:city": "SALT LAKE CITY", "addr:country": "US", "addr:full": "2080 S 2300 E", "addr:postcode": "84108", "addr:state": "UT", "brand": "USPS", "collection_times": "Mo-Fr 15:00; Sa 14:00", "name": "USPS COLLECTION BOX - BLUE BOX", "note": "ON 12/24 AND 12/31, THIS BOX MAY BE COLLECTED AS EARLY AS 12 NOON.", "ref": "8410800005"}, "type": "Feature"}
{"geometry": {"coordinates": [-111.8278451289, 40.7402921272], "type": "Point"}, "id": "xbCvfs_G91ORU1kIZXQeF2hHNbM=", "properties": {"@spider": "usps_collection_boxes", "addr:city": "SALT LAKE CITY", "addr:country": "US", "addr:full": "1351 S 2200 E", "addr:postcode": "84108", "addr:state": "UT", "brand": "USPS", "collection_times": "Mo-Fr 17:00; Sa 14:00", "name": "USPS COLLECTION BOX - BLUE BOX", "note": "ON 12/24 AND 12/31, THIS BOX MAY BE COLLECTED AS EARLY AS 12 NOON.", "ref": "8410800009"}, "type": "Feature"}
{"geometry": {"coordinates": [-111.825852, 40.750998], "type": "Point"}, "id": "6Cer1aMZoB0-E2qrhzUV9ghqAH8=", "properties": {"@spider": "usps_collection_boxes", "addr:city": "SALT LAKE CITY", "addr:country": "US", "addr:full": "2255 E SUNNYSIDE AVE", "addr:postcode": "84108", "addr:state": "UT", "brand": "USPS", "collection_times": "Mo-Fr 18:00; Sa 17:00", "name": "USPS COLLECTION BOX - BLUE BOX", "note": "ON 12/24 AND 12/31, THIS BOX MAY BE COLLECTED AS EARLY AS 12 NOON.", "ref": "8410800013"}, "type": "Feature"}
{"geometry": {"coordinates": [-111.826107, 40.75135], "type": "Point"}, "id": "_QW2cww0E29SLSp4ihEUno7Lx50=", "properties": {"@spider": "usps_collection_boxes", "addr:city": "SALT LAKE CITY", "addr:country": "US", "addr:full": "2255 E SUNNYSIDE AVE", "addr:postcode": "84108", "addr:state": "UT", "brand": "USPS", "collection_times": "Mo-Fr 17:30; Sa 16:00", "name": "USPS COLLECTION BOX - PO LOBBY", "note": "ON 12/24 AND 12/31, THIS BOX MAY BE COLLECTED AS EARLY AS 12 NOON.", "ref": "8410800017"}, "type": "Feature"}
{"geometry": {"coordinates": [-111.825942, 40.750819], "type": "Point"}, "id": "FpfiOHB7tEDcD4S2OAfMqxxqDd8=", "properties": {"@spider": "usps_collection_boxes", "addr:city": "SALT LAKE CITY", "addr:country": "US", "addr:full": "2255 E SUNNYSIDE AVE", "addr:postcode": "84108", "addr:state": "UT", "brand": "USPS", "collection_times": "Mo-Fr 17:30; Sa 16:00", "name": "USPS COLLECTION BOX - PO LOBBY", "note": "ON 12/24 AND 12/31, THIS BOX MAY BE COLLECTED AS EARLY AS 12 NOON.", "ref": "8410800018"}, "type": "Feature"}
{"geometry": {"coordinates": [-111.825942, 40.750819], "type": "Point"}, "id": "Yn7F-BGsu5ZtAFUXuzz7CDWkmIU=", "properties": {"@spider": "usps_collection_boxes", "addr:city": "SALT LAKE CITY", "addr:country": "US", "addr:full": "2255 E SUNNYSIDE AVE", "addr:postcode": "84108", "addr:state": "UT", "brand": "USPS", "collection_times": "Mo-Fr 17:30; Sa 16:00", "name": "USPS COLLECTION BOX - PO LOBBY", "note": "ON 12/24 AND 12/31, THIS BOX MAY BE COLLECTED AS EARLY AS 12 NOON.", "ref": "8410800019"}, "type": "Feature"}
{"geometry": {"coordinates": [-111.825942, 40.750819], "type": "Point"}, "id": "53a6crEEGGMnnaMrN_47YxJsDgg=", "properties": {"@spider": "usps_collection_boxes", "addr:city": "SALT LAKE CITY", "addr:country": "US", "addr:full": "2255 E SUNNYSIDE AVE", "addr:postcode": "84108", "addr:state": "UT", "brand": "USPS", "collection_times": "Mo-Fr 17:30; Sa 16:00", "name": "USPS COLLECTION BOX - APC", "note": "ON 12/24 AND 12/31, THIS BOX MAY BE COLLECTED AS EARLY AS 12 NOON.", "ref": "8410800021"}, "type": "Feature"}
{"geometry": {"coordinates": [-111.825941956, 40.750817465], "type": "Point"}, "id": "duvivtahDhlUdqVl1XF5XV6u_AI=", "properties": {"@spider": "usps_collection_boxes", "addr:city": "SALT LAKE CITY", "addr:country": "US", "addr:full": "2255 E SUNNYSIDE AVE", "addr:postcode": "84108", "addr:state": "UT", "brand": "USPS", "collection_times": "Mo-Fr 17:30; Sa 16:00", "name": "USPS COLLECTION BOX - PO LOBBY", "note": "ON 12/24 AND 12/31, THIS BOX MAY BE COLLECTED AS EARLY AS 12 NOON.", "ref": "8410800023"}, "type": "Feature"}
{"geometry": {"coordinates": [-111.8235605589, 40.6998415084], "type": "Point"}, "id": "fh_zC-ZHMMNTEuMRIkm4QB6gOyo=", "properties": {"@spider": "usps_collection_boxes", "addr:city": "SALT LAKE CITY", "addr:country": "US", "addr:full": "2330 E 3300 S", "addr:postcode": "84109", "addr:state": "UT", "brand": "USPS", "collection_times": "Mo-Fr 16:00; Sa 14:00", "name": "USPS COLLECTION BOX - BLUE BOX", "note": "ON 12/24 AND 12/31, THIS BOX MAY BE COLLECTED AS EARLY AS 12 NOON.", "ref": "8410900008"}, "type": "Feature"}
{"geometry": {"coordinates": [-111.799586, 40.700804], "type": "Point"}, "id": "0CUanmxGFvseq__gz1LVxXPOaHI=", "properties": {"@spider": "usps_collection_boxes", "addr:city": "SALT LAKE CITY", "addr:country": "US", "addr:full": "3215 S VALLEY ST", "addr:postcode": "84109", "addr:state": "UT", "brand": "USPS", "collection_times": "Mo-Fr 13:00; Sa 14:00", "name": "USPS COLLECTION BOX - BLUE BOX", "note": "ON 12/24 AND 12/31, THIS BOX MAY BE COLLECTED AS EARLY AS 12 NOON.", "ref": "8410900010"}, "type": "Feature"}
{"geometry": {"coordinates": [-111.809288, 40.698988], "type": "Point"}, "id": "XgofETQfx8ynvDw8aF0WiXacQCw=", "properties": {"@spider": "usps_collection_boxes", "addr:city": "SALT LAKE CITY", "addr:country": "US", "addr:full": "3350 S 2940 E", "addr:postcode": "84109", "addr:state": "UT", "brand": "USPS", "collection_times": "Mo-Fr 17:30; Sa 14:30", "name": "USPS COLLECTION BOX - PO LOBBY", "note": "ON 12/24 AND 12/31, THIS BOX MAY BE COLLECTED AS EARLY AS 12 NOON.", "ref": "8410900028"}, "type": "Feature"}
{"geometry": {"coordinates": [-111.809288, 40.698988], "type": "Point"}, "id": "s1c9c5zfmxoU45J4XEOAz2gMvu4=", "properties": {"@spider": "usps_collection_boxes", "addr:city": "SALT LAKE CITY", "addr:country": "US", "addr:full": "3350 S 2940 E", "addr:postcode": "84109", "addr:state": "UT", "brand": "USPS", "collection_times": "Mo-Fr 17:30; Sa 14:30", "name": "USPS COLLECTION BOX - PO LOBBY", "note": "ON 12/24 AND 12/31, THIS BOX MAY BE COLLECTED AS EARLY AS 12 NOON.", "ref": "8410900029"}, "type": "Feature"}
{"geometry": {"coordinates": [-111.834283, 40.699707], "type": "Point"}, "id": "5woLpnQgKha4iFOUjW-7iqiKU5A=", "properties": {"@spider": "usps_collection_boxes", "addr:city": "SALT LAKE CITY", "addr:country": "US", "addr:full": "2000 E 3300 S", "addr:postcode": "84109", "addr:state": "UT", "brand": "USPS", "collection_times": "Mo-Sa 16:00", "name": "USPS COLLECTION BOX - BLUE BOX", "note": "ON 12/24 AND 12/31, THIS BOX MAY BE COLLECTED AS EARLY AS 12 NOON.", "ref": "8410900030"}, "type": "Feature"}
{"geometry": {"coordinates": [-111.8097300417, 40.6988460201], "type": "Point"}, "id": "8HLChl7QG6LZWnr8ay1QK-06_o0=", "properties": {"@spider": "usps_collection_boxes", "addr:city": "SALT LAKE CITY", "addr:country": "US", "addr:full": "3350 S 2940 E", "addr:postcode": "84109", "addr:state": "UT", "brand": "USPS", "collection_times": "Mo-Fr 18:00; Sa 17:00", "name": "USPS COLLECTION BOX - BLUE BOX", "note": "ON 12/24 AND 12/31, THIS BOX MAY BE COLLECTED AS EARLY AS 12 NOON.", "ref": "8410900034"}, "type": "Feature"}
{"geometry": {"coordinates": [-111.809288, 40.698988], "type": "Point"}, "id": "gV9REQ2m-HX0wfIU80tRixTFGiI=", "properties": {"@spider": "usps_collection_boxes", "addr:city": "SALT LAKE CITY", "addr:country": "US", "addr:full": "3350 S 2940 E", "addr:postcode": "84109", "addr:state": "UT", "brand": "USPS", "collection_times": "Mo-Fr 17:30; Sa 14:30", "name": "USPS COLLECTION BOX - APC", "note": "ON 12/24 AND 12/31, THIS BOX MAY BE COLLECTED AS EARLY AS 12 NOON.", "ref": "8410900035"}, "type": "Feature"}
{"geometry": {"coordinates": [-111.809286644, 40.69898824], "type": "Point"}, "id": "NgFhABEaLLjeP3-rUb82RyEG4nI=", "properties": {"@spider": "usps_collection_boxes", "addr:city": "SALT LAKE CITY", "addr:country": "US", "addr:full": "3350 S 2940 E", "addr:postcode": "84109", "addr:state": "UT", "brand": "USPS", "collection_times": "Mo-Fr 17:30; Sa 14:30", "name": "USPS COLLECTION BOX - PO LOBBY", "note": "ON 12/24 AND 12/31, THIS BOX MAY BE COLLECTED AS EARLY AS 12 NOON.", "ref": "8410900037"}, "type": "Feature"}
{"geometry": {"coordinates": [-111.882618, 40.749643], "type": "Point"}, "id": "J4aSda3xOgEYGf9XkpSRS7PQY80=", "properties": {"@spider": "usps_collection_boxes", "addr:city": "SALT LAKE CITY", "addr:country": "US", "addr:full": "300 E 900 S", "addr:postcode": "84111", "addr:state": "UT", "brand": "USPS", "collection_times": "Mo-Fr 14:00; Sa 16:00", "name": "USPS COLLECTION BOX - BLUE BOX", "note": "ON 12/24 AND 12/31, THIS BOX MAY BE COLLECTED AS EARLY AS 12 NOON.", "ref": "8411100003"}, "type": "Feature"}
{"geometry": {"coordinates": [-111.879814, 40.762991], "type": "Point"}, "id": "4qETwFHiVRPQ6aeNFSOIpK7_pEA=", "properties": {"@spider": "usps_collection_boxes", "addr:city": "SALT LAKE CITY", "addr:country": "US", "addr:full": "400 E 300 S", "addr:postcode": "84111", "addr:state": "UT", "brand": "USPS", "collection_times": "Mo-Fr 15:00", "name": "USPS COLLECTION BOX - BLUE BOX", "note": "ON 12/24 AND 12/31, THIS BOX MAY BE COLLECTED AS EARLY AS 12 NOON.", "ref": "8411100045"}, "type": "Feature"}
{"geometry": {"coordinates": [-111.882663, 40.767314], "type": "Point"}, "id": "zjdNG2I6tL4fz_gevqRjyQy_zik=", "properties": {"@spider": "usps_collection_boxes", "addr:city": "SALT LAKE CITY", "addr:country": "US", "addr:full": "300 E 100 S", "addr:postcode": "84111", "addr:state": "UT", "brand": "USPS", "collection_times": "Mo-Fr 15:00", "name": "USPS COLLECTION BOX - BLUE BOX", "note": "ON 12/24 AND 12/31, THIS BOX MAY BE COLLECTED AS EARLY AS 12 NOON.", "ref": "8411100050"}, "type": "Feature"}
{"geometry": {"coordinates": [-111.885197, 40.762982], "type": "Point"}, "id": "Lkad3LvLwa41r98kbsBTQzJw8Gs=", "properties": {"@spider": "usps_collection_boxes", "addr:city": "SALT LAKE CITY", "addr:country": "US", "addr:full": "200 E 300 S", "addr:postcode": "84111", "addr:state": "UT", "brand": "USPS", "collection_times": "Mo-Fr 15:00", "name": "USPS COLLECTION BOX - BLUE BOX", "note": "ON 12/24 AND 12/31, THIS BOX MAY BE COLLECTED AS EARLY AS 12 NOON.", "ref": "8411100053"}, "type": "Feature"}
{"geometry": {"coordinates": [-111.887976, 40.769301], "type": "Point"}, "id": "JoEW12Zu7S4MYZdja0tIsRAWG_o=", "properties": {"@spider": "usps_collection_boxes", "addr:city": "SALT LAKE CITY", "addr:country": "US", "addr:full": "102 E SOUTH TEMPLE", "addr:postcode": "84111", "addr:state": "UT", "brand": "USPS", "collection_times": "Mo-Fr 17:00", "name": "USPS COLLECTION BOX - BLUE BOX", "note": "ON 12/24 AND 12/31, THIS BOX MAY BE COLLECTED AS EARLY AS 12 NOON.", "ref": "8411100058"}, "type": "Feature"}
{"geometry": {"coordinates": [-111.888225, 40.765167], "type": "Point"}, "id": "NemejUuLOHA_kIZ3QCQ0XILW95A=", "properties": {"@spider": "usps_collection_boxes", "addr:city": "SALT LAKE CITY", "addr:country": "US", "addr:full": "185 S STATE ST", "addr:postcode": "84111", "addr:state": "UT", "brand": "USPS", "collection_times": "Mo-Fr 17:00", "name": "USPS COLLECTION BOX - BLUE BOX", "note": "ON 12/24 AND 12/31, THIS BOX MAY BE COLLECTED AS EARLY AS 12 NOON.", "ref": "8411100060"}, "type": "Feature"}
{"geometry": {"coordinates": [-111.890789, 40.764993], "type": "Point"}, "id": "DcPjroEiRniISzpN9Xw1Av2sH3k=", "properties": {"@spider": "usps_collection_boxes", "addr:city": "SALT LAKE CITY", "addr:country": "US", "addr:full": "5 E 200 S", "addr:postcode": "84111", "addr:state": "UT", "brand": "USPS", "collection_times": "Mo-Fr 17:00", "name": "USPS COLLECTION BOX - BLUE BOX", "note": "ON 12/24 AND 12/31, THIS BOX MAY BE COLLECTED AS EARLY AS 12 NOON.", "ref": "8411100071"}, "type": "Feature"}
{"geometry": {"coordinates": [-111.888335, 40.764445], "type": "Point"}, "id": "gpnHGJUZTFQAmOhj9WjEsu9yjgw=", "properties": {"@spider": "usps_collection_boxes", "addr:city": "SALT LAKE CITY", "addr:country": "US", "addr:full": "215 S STATE ST", "addr:postcode": "84111", "addr:state": "UT", "brand": "USPS", "collection_times": "Mo-Fr 16:00", "name": "USPS COLLECTION BOX - BLUE BOX", "note": "ON 12/24 AND 12/31, THIS BOX MAY BE COLLECTED AS EARLY AS 12 NOON.", "ref": "8411100089"}, "type": "Feature"}
{"geometry": {"coordinates": [-111.883819, 40.762686], "type": "Point"}, "id": "wCsGlxamT5kaPUQQd4V5ArV3qGI=", "properties": {"@spider": "usps_collection_boxes", "addr:city": "SALT LAKE CITY", "addr:country": "US", "addr:full": "250 E 300 S", "addr:postcode": "84111", "addr:state": "UT", "brand": "USPS", "collection_times": "Mo-Fr 15:00", "name": "USPS COLLECTION BOX - BLUE BOX", "note": "ON 12/24 AND 12/31, THIS BOX MAY BE COLLECTED AS EARLY AS 12 NOON.", "ref": "8411100091"}, "type": "Feature"}
{"geometry": {"coordinates": [-111.882697, 40.75658], "type": "Point"}, "id": "aC2Gp_qOMzWlkydxx6pbQl2fZq4=", "properties": {"@spider": "usps_collection_boxes", "addr:city": "SALT LAKE CITY", "addr:country": "US", "addr:full": "300 E 600 S", "addr:postcode": "84111", "addr:state": "UT", "brand": "USPS", "collection_times": "Mo-Fr 15:00; Sa 16:00", "name": "USPS COLLECTION BOX - BLUE BOX", "note": "ON 12/24 AND 12/31, THIS BOX MAY BE COLLECTED AS EARLY AS 12 NOON.", "ref": "8411100094"}, "type": "Feature"}
{"geometry": {"coordinates": [-111.888057, 40.762906], "type": "Point"}, "id": "3CrQOYZAbuNcn9mYSdtS39GJ8S0=", "properties": {"@spider": "usps_collection_boxes", "addr:city": "SALT LAKE CITY", "addr:country": "US", "addr:full": "111 E 300 S", "addr:postcode": "84111", "addr:state": "UT", "brand": "USPS", "collection_times": "Mo-Fr 16:00", "name": "USPS COLLECTION BOX - BLUE BOX", "note": "ON 12/24 AND 12/31, THIS BOX MAY BE COLLECTED AS EARLY AS 12 NOON.", "ref": "8411100099"}, "type": "Feature"}
{"geometry": {"coordinates": [-111.88807, 40.762909], "type": "Point"}, "id": "Ltl65Bq4JVxy5-coJza5w2YkJTA=", "properties": {"@spider": "usps_collection_boxes", "addr:city": "SALT LAKE CITY", "addr:country": "US", "addr:full": "111 E 300 S", "addr:postcode": "84111", "addr:state": "UT", "brand": "USPS", "collection_times": "Mo-Fr 16:00", "name": "USPS COLLECTION BOX - BLUE BOX", "note": "ON 12/24 AND 12/31, THIS BOX MAY BE COLLECTED AS EARLY AS 12 NOON.", "ref": "8411100102"}, "type": "Feature"}
{"geometry": {"coordinates": [-111.890511, 40.765177], "type": "Point"}, "id": "vZEpIew6F-yPQcT8vIFJHWdoEK8=", "properties": {"@spider": "usps_collection_boxes", "addr:city": "SALT LAKE CITY", "addr:country": "US", "addr:full": "26 E 200 S", "addr:postcode": "84111", "addr:state": "UT", "brand": "USPS", "collection_times": "Mo-Fr 15:00", "name": "USPS COLLECTION BOX - BLUE BOX", "note": "ON 12/24 AND 12/31, THIS BOX MAY BE COLLECTED AS EARLY AS 12 NOON.", "ref": "8411100135"}, "type": "Feature"}
{"geometry": {"coordinates": [-111.879507, 40.769078], "type": "Point"}, "id": "jBHQJSp6C1K2Px3CdHFt-gNAeTA=", "properties": {"@spider": "usps_collection_boxes", "addr:city": "SALT LAKE CITY", "addr:country": "US", "addr:full": "400 E SOUTH TEMPLE", "addr:postcode": "84111", "addr:state": "UT", "brand": "USPS", "collection_times": "Mo-Fr 17:00", "name": "USPS COLLECTION BOX - BLUE BOX", "note": "ON 12/24 AND 12/31, THIS BOX MAY BE COLLECTED AS EARLY AS 12 NOON.", "ref": "8411100145"}, "type": "Feature"}
{"geometry": {"coordinates": [-111.890728, 40.761482], "type": "Point"}, "id": "EOZgAx78Lg6cG-9t-0WtRSN9NtE=", "properties": {"@spider": "usps_collection_boxes", "addr:city": "SALT LAKE CITY", "addr:country": "US", "addr:full": "5 E EXCHANGE PL", "addr:postcode": "84111", "addr:state": "UT", "brand": "USPS", "collection_times": "Mo-Fr 17:00", "name": "USPS COLLECTION BOX - BLUE BOX", "note": "ON 12/24 AND 12/31, THIS BOX MAY BE COLLECTED AS EARLY AS 12 NOON.", "ref": "8411100153"}, "type": "Feature"}
{"geometry": {"coordinates": [-111.878522, 40.767032], "type": "Point"}, "id": "IheRsW7z3AuMHnyia351TfXKuXo=", "properties": {"@spider": "usps_collection_boxes", "addr:city": "SALT LAKE CITY", "addr:country": "US", "addr:full": "440 E 100 S", "addr:postcode": "84111", "addr:state": "UT", "brand": "USPS", "collection_times": "Mo-Fr 17:00", "name": "USPS COLLECTION BOX - BLUE BOX", "note": "ON 12/24 AND 12/31, THIS BOX MAY BE COLLECTED AS EARLY AS 12 NOON.", "ref": "8411100158"}, "type": "Feature"}
{"geometry": {"coordinates": [-111.888049, 40.762919], "type": "Point"}, "id": "Z6rx_FptRr4Lu2U5yfU1m8823Ao=", "properties": {"@spider": "usps_collection_boxes", "addr:city": "SALT LAKE CITY", "addr:country": "US", "addr:full": "111 E 300 S", "addr:postcode": "84111", "addr:state": "UT", "brand": "USPS", "collection_times": "Mo-Fr 16:00", "name": "USPS COLLECTION BOX - BLUE BOX", "note": "ON 12/24 AND 12/31, THIS BOX MAY BE COLLECTED AS EARLY AS 12 NOON.", "ref": "8411100162"}, "type": "Feature"}
{"geometry": {"coordinates": [-111.890073, 40.760513], "type": "Point"}, "id": "WSAmJ9-Qc_5hNJLkwBV7ROePXJ4=", "properties": {"@spider": "usps_collection_boxes", "addr:city": "SALT LAKE CITY", "addr:country": "US", "addr:full": "34 E 400 S", "addr:postcode": "84111", "addr:state": "UT", "brand": "USPS", "collection_times": "Mo-Fr 16:00", "name": "USPS COLLECTION BOX - BLUE BOX", "note": "ON 12/24 AND 12/31, THIS BOX MAY BE COLLECTED AS EARLY AS 12 NOON.", "ref": "8411100169"}, "type": "Feature"}
{"geometry": {"coordinates": [-111.88509, 40.758589], "type": "Point"}, "id": "In1v_xvMOwMk77nUE4tYKUy9ziM=", "properties": {"@spider": "usps_collection_boxes", "addr:city": "SALT LAKE CITY", "addr:country": "US", "addr:full": "200 E 500 S", "addr:postcode": "84111", "addr:state": "UT", "brand": "USPS", "collection_times": "Mo-Fr 17:00", "name": "USPS COLLECTION BOX - BLUE BOX", "note": "ON 12/24 AND 12/31, THIS BOX MAY BE COLLECTED AS EARLY AS 12 NOON.", "ref": "8411100173"}, "type": "Feature"}
{"geometry": {"coordinates": [-111.879485, 40.758644], "type": "Point"}, "id": "AiAD71Qcla3LGlA8m7Y0A4tGUmQ=", "properties": {"@spider": "usps_collection_boxes", "addr:city": "SALT LAKE CITY", "addr:country": "US", "addr:full": "400 E 500 S", "addr:postcode": "84111", "addr:state": "UT", "brand": "USPS", "collection_times": "Mo-Fr 17:00", "name": "USPS COLLECTION BOX - BLUE BOX", "note": "ON 12/24 AND 12/31, THIS BOX MAY BE COLLECTED AS EARLY AS 12 NOON.", "ref": "8411100175"}, "type": "Feature"}
{"geometry": {"coordinates": [-111.845447, 40.765071], "type": "Point"}, "id": "S0Zb2jfGtIUryj963RydxAmAogM=", "properties": {"@spider": "usps_collection_boxes", "addr:city": "SALT LAKE CITY", "addr:country": "US", "addr:full": "200 S CENTRAL CAMPUS DR", "addr:postcode": "84112", "addr:state": "UT", "brand": "USPS", "collection_times": "Mo-Fr 15:00", "name": "USPS COLLECTION BOX - BLUE BOX", "note": "ON 12/24 AND 12/31, THIS BOX MAY BE COLLECTED AS EARLY AS 12 NOON.", "ref": "8411200007"}, "type": "Feature"}
{"geometry": {"coordinates": [-111.847245, 40.763564], "type": "Point"}, "id": "UVCS5Z7yUQP7kTidvb3AdlH_rD4=", "properties": {"@spider": "usps_collection_boxes", "addr:city": "SALT LAKE CITY", "addr:country": "US", "addr:full": "270 S 1500 E", "addr:postcode": "84112", "addr:state": "UT", "brand": "USPS", "collection_times": "Mo-Fr 15:00", "name": "USPS COLLECTION BOX - BLUE BOX", "note": "ON 12/24 AND 12/31, THIS BOX MAY BE COLLECTED AS EARLY AS 12 NOON.", "ref": "8411200014"}, "type": "Feature"}
{"geometry": {"coordinates": [-111.841709, 40.757626], "type": "Point"}, "id": "ndxxqyQmSC4fiGdpYFSYTfN4QNs=", "properties": {"@spider": "usps_collection_boxes", "addr:city": "SALT LAKE CITY", "addr:country": "US", "addr:full": "500 S FOOTHILL DR", "addr:postcode": "84113", "addr:state": "UT", "brand": "USPS", "collection_times": "Mo-Fr 15:00", "name": "USPS COLLECTION BOX - BLUE BOX", "note": "ON 12/24 AND 12/31, THIS BOX MAY BE COLLECTED AS EARLY AS 12 NOON.", "ref": "8411300002"}, "type": "Feature"}
{"geometry": {"coordinates": [-111.8911592854, 40.730697], "type": "Point"}, "id": "8ienRPWLRujZhw22Q_hyXj0m_lg=", "properties": {"@spider": "usps_collection_boxes", "addr:city": "SALT LAKE CITY", "addr:country": "US", "addr:full": "1810 S MAIN ST", "addr:postcode": "84115", "addr:state": "UT", "brand": "USPS", "collection_times": "Mo-Fr 14:00; Sa 15:00", "name": "USPS COLLECTION BOX - BLUE BOX", "note": "ON 12/24 AND 12/31, THIS BOX MAY BE COLLECTED AS EARLY AS 12 NOON.", "ref": "8411500010"}, "type": "Feature"}
{"geometry": {"coordinates": [-111.890884, 40.740567], "type": "Point"}, "id": "1iPzZ6Xuk66dHjvQ07vBmw3O6XU=", "properties": {"@spider": "usps_collection_boxes", "addr:city": "SALT LAKE CITY", "addr:country": "US", "addr:full": "1333 S MAIN ST", "addr:postcode": "84115", "addr:state": "UT", "brand": "USPS", "collection_times": "Mo-Fr 17:00", "name": "USPS COLLECTION BOX - BLUE BOX", "note": "ON 12/24 AND 12/31, THIS BOX MAY BE COLLECTED AS EARLY AS 12 NOON.", "ref": "8411500035"}, "type": "Feature"}
{"geometry": {"coordinates": [-111.8907945, 40.735404], "type": "Point"}, "id": "Ozvc39NFeKLfVu8_cNQML8xo1x0=", "properties": {"@spider": "usps_collection_boxes", "addr:city": "SALT LAKE CITY", "addr:country": "US", "addr:full": "1575 S MAIN ST", "addr:postcode": "84115", "addr:state": "UT", "brand": "USPS", "collection_times": "Mo-Fr 14:00; Sa 16:00", "name": "USPS COLLECTION BOX - BLUE BOX", "note": "ON 12/24 AND 12/31, THIS BOX MAY BE COLLECTED AS EARLY AS 12 NOON.", "ref": "8411500038"}, "type": "Feature"}
{"geometry": {"coordinates": [-111.893972494, 40.702338], "type": "Point"}, "id": "VoIIvPcho6pzPcVTLhRycArwFvM=", "properties": {"@spider": "usps_collection_boxes", "addr:city": "SALT LAKE CITY", "addr:country": "US", "addr:full": "3161 S WEST TEMPLE", "addr:postcode": "84115", "addr:state": "UT", "brand": "USPS", "collection_times": "Mo-Fr 18:00; Sa 17:00", "name": "USPS COLLECTION BOX - BLUE BOX", "note": "ON 12/24 AND 12/31, THIS BOX MAY BE COLLECTED AS EARLY AS 12 NOON.", "ref": "8411500064"}, "type": "Feature"}
{"geometry": {"coordinates": [-111.893964, 40.70224], "type": "Point"}, "id": "xWI-TemZrTUQmD1-LwbdmQJGSzo=", "properties": {"@spider": "usps_collection_boxes", "addr:city": "SALT LAKE CITY", "addr:country": "US", "addr:full": "3161 S WEST TEMPLE", "addr:postcode": "84115", "addr:state": "UT", "brand": "USPS", "collection_times": "Mo-Fr 17:45; Sa 16:00", "name": "USPS COLLECTION BOX - PO LOBBY", "note": "ON 12/24 AND 12/31, THIS BOX MAY BE COLLECTED AS EARLY AS 12 NOON.", "ref": "8411500079"}, "type": "Feature"}
{"geometry": {"coordinates": [-111.905619, 40.690746], "type": "Point"}, "id": "3nREjTsc-BMWNrfhHQpNzjae3kU=", "properties": {"@spider": "usps_collection_boxes", "addr:city": "SALT LAKE CITY", "addr:country": "US", "addr:full": "3710 S 500 W", "addr:postcode": "84115", "addr:state": "UT", "brand": "USPS", "collection_times": "Mo-Fr 15:00", "name": "USPS COLLECTION BOX - BLUE BOX", "note": "ON 12/24 AND 12/31, THIS BOX MAY BE COLLECTED AS EARLY AS 12 NOON.", "ref": "8411500084"}, "type": "Feature"}
{"geometry": {"coordinates": [-111.887091, 40.727232], "type": "Point"}, "id": "vDzCmDPl9__7A_22tPXh_LQIVFA=", "properties": {"@spider": "usps_collection_boxes", "addr:city": "SALT LAKE CITY", "addr:country": "US", "addr:full": "2000 S 150 E", "addr:postcode": "84115", "addr:state": "UT", "brand": "USPS", "collection_times": "Mo-Fr 17:00", "name": "USPS COLLECTION BOX - BLUE BOX", "note": "ON 12/24 AND 12/31, THIS BOX MAY BE COLLECTED AS EARLY AS 12 NOON.", "ref": "8411500092"}, "type": "Feature"}
{"geometry": {"coordinates": [-111.884721, 40.7176], "type": "Point"}, "id": "HR8FwraBwVIfnYdGIeB7gxJwggM=", "properties": {"@spider": "usps_collection_boxes", "addr:city": "SALT LAKE CITY", "addr:country": "US", "addr:full": "220 MORRIS AVE", "addr:postcode": "84115", "addr:state": "UT", "brand": "USPS", "collection_times": "Mo-Fr 17:00", "name": "USPS COLLECTION BOX - BLUE BOX", "note": "ON 12/24 AND 12/31, THIS BOX MAY BE COLLECTED AS EARLY AS 12 NOON.", "ref": "8411500098"}, "type": "Feature"}
{"geometry": {"coordinates": [-111.88709, 40.727232], "type": "Point"}, "id": "WTC7nJfzipCIoIoL2HJGPI806V0=", "properties": {"@spider": "usps_collection_boxes", "addr:city": "SALT LAKE CITY", "addr:country": "US", "addr:full": "2000 S 150 E", "addr:postcode": "84115", "addr:state": "UT", "brand": "USPS", "collection_times": "Mo-Fr 17:00", "name": "USPS COLLECTION BOX - BLUE BOX", "note": "ON 12/24 AND 12/31, THIS BOX MAY BE COLLECTED AS EARLY AS 12 NOON.", "ref": "8411500099"}, "type": "Feature"}
{"geometry": {"coordinates": [-111.893964, 40.70224], "type": "Point"}, "id": "s6hHSW0ROo3TiJ75yhtYdDRiAC8=", "properties": {"@spider": "usps_collection_boxes", "addr:city": "SALT LAKE CITY", "addr:country": "US", "addr:full": "3161 S WEST TEMPLE", "addr:postcode": "84115", "addr:state": "UT", "brand": "USPS", "collection_times": "Mo-Fr 17:45; Sa 16:00", "name": "USPS COLLECTION BOX - PO LOBBY", "note": "ON 12/24 AND 12/31, THIS BOX MAY BE COLLECTED AS EARLY AS 12 NOON.", "ref": "8411500101"}, "type": "Feature"}
{"geometry": {"coordinates": [-111.89396526, 40.702329], "type": "Point"}, "id": "6jPfosOgQguJBZGsX0nHIDvaWcQ=", "properties": {"@spider": "usps_collection_boxes", "addr:city": "SALT LAKE CITY", "addr:country": "US", "addr:full": "3161 S WEST TEMPLE", "addr:postcode": "84115", "addr:state": "UT", "brand": "USPS", "collection_times": "Mo-Fr 17:45; Sa 16:00", "name": "USPS COLLECTION BOX - PO LOBBY", "note": "ON 12/24 AND 12/31, THIS BOX MAY BE COLLECTED AS EARLY AS 12 NOON.", "ref": "8411500104"}, "type": "Feature"}
{"geometry": {"coordinates": [-111.924189, 40.783281], "type": "Point"}, "id": "KJSbnrhyUgEsDwR7I_lvXEbHYBs=", "properties": {"@spider": "usps_collection_boxes", "addr:city": "SALT LAKE CITY", "addr:country": "US", "addr:full": "1174 W 600 N", "addr:postcode": "84116", "addr:state": "UT", "brand": "USPS", "collection_times": "Mo-Sa 13:00", "name": "USPS COLLECTION BOX - BLUE BOX", "note": "ON 12/24 AND 12/31, THIS BOX MAY BE COLLECTED AS EARLY AS 12 NOON.", "ref": "8411600019"}, "type": "Feature"}
{"geometry": {"coordinates": [-111.939558, 40.787128], "type": "Point"}, "id": "YLHGnzb9kg9JcopB4EeIoNJCjfI=", "properties": {"@spider": "usps_collection_boxes", "addr:city": "SALT LAKE CITY", "addr:country": "US", "addr:full": "801 N REDWOOD RD", "addr:postcode": "84116", "addr:state": "UT", "brand": "USPS", "collection_times": "Mo-Sa 18:00", "name": "USPS COLLECTION BOX - BLUE BOX", "note": "ON 12/24 AND 12/31, THIS BOX MAY BE COLLECTED AS EARLY AS 12 NOON.", "ref": "8411600021"}, "type": "Feature"}
{"geometry": {"coordinates": [-111.939418, 40.787062], "type": "Point"}, "id": "xVo4o7lSDR0aLzDmZPeQnDqVOzU=", "properties": {"@spider": "usps_collection_boxes", "addr:city": "SALT LAKE CITY", "addr:country": "US", "addr:full": "801 N REDWOOD RD", "addr:postcode": "84116", "addr:state": "UT", "brand": "USPS", "collection_times": "Mo-Fr 17:30; Sa 16:30", "name": "USPS COLLECTION BOX - PO LOBBY", "note": "ON 12/24 AND 12/31, THIS BOX MAY BE COLLECTED AS EARLY AS 12 NOON.", "ref": "8411600041"}, "type": "Feature"}
{"geometry": {"coordinates": [-111.939418, 40.787062], "type": "Point"}, "id": "CMV4o5UInpqL9zzuFPJhrK1RGJQ=", "properties": {"@spider": "usps_collection_boxes", "addr:city": "SALT LAKE CITY", "addr:country": "US", "addr:full": "801 N REDWOOD RD", "addr:postcode": "84116", "addr:state": "UT", "brand": "USPS", "collection_times": "Mo-Fr 17:30; Sa 16:30", "name": "USPS COLLECTION BOX - PO LOBBY", "note": "ON 12/24 AND 12/31, THIS BOX MAY BE COLLECTED AS EARLY AS 12 NOON.", "ref": "8411600042"}, "type": "Feature"}
{"geometry": {"coordinates": [-112.005961, 40.772735], "type": "Point"}, "id": "lNtunye3Gii6mx3GwDa_eGM1EDQ=", "properties": {"@spider": "usps_collection_boxes", "addr:city": "SALT LAKE CITY", "addr:country": "US", "addr:full": "175 N WRIGHT BROTHERS DR", "addr:postcode": "84116", "addr:state": "UT", "brand": "USPS", "collection_times": "Mo-Fr 17:00", "name": "USPS COLLECTION BOX - BLUE BOX", "note": "ON 12/24 AND 12/31, THIS BOX MAY BE COLLECTED AS EARLY AS 12 NOON.", "ref": "8411600046"}, "type": "Feature"}
{"geometry": {"coordinates": [-111.946101, 40.774749], "type": "Point"}, "id": "eAY4R-pWP00N2-XTxPHqz-SUzww=", "properties": {"@spider": "usps_collection_boxes", "addr:city": "SALT LAKE CITY", "addr:country": "US", "addr:full": "210 N 1950 W", "addr:postcode": "84116", "addr:state": "UT", "brand": "USPS", "collection_times": "Mo-Fr 13:00", "name": "USPS COLLECTION BOX - BLUE BOX", "note": "ON 12/24 AND 12/31, THIS BOX MAY BE COLLECTED AS EARLY AS 12 NOON.", "ref": "8411600047"}, "type": "Feature"}
{"geometry": {"coordinates": [-111.939420317, 40.787046419], "type": "Point"}, "id": "r5wgnEDNjMWx70zTijc9nozHJZk=", "properties": {"@spider": "usps_collection_boxes", "addr:city": "SALT LAKE CITY", "addr:country": "US", "addr:full": "801 N REDWOOD RD", "addr:postcode": "84116", "addr:state": "UT", "brand": "USPS", "collection_times": "Mo-Fr 17:30; Sa 16:30", "name": "USPS COLLECTION BOX - PO LOBBY", "note": "ON 12/24 AND 12/31, THIS BOX MAY BE COLLECTED AS EARLY AS 12 NOON.", "ref": "8411600048"}, "type": "Feature"}
{"geometry": {"coordinates": [-111.832811, 40.665774], "type": "Point"}, "id": "uzYzgClGQ0hUWzSZzsxS-FAqfA0=", "properties": {"@spider": "usps_collection_boxes", "addr:city": "SALT LAKE CITY", "addr:country": "US", "addr:full": "2040 E MURRAY HOLLADAY RD", "addr:postcode": "84117", "addr:state": "UT", "brand": "USPS", "collection_times": "Mo-Sa 15:00", "name": "USPS COLLECTION BOX - BLUE BOX", "note": "ON 12/24 AND 12/31, THIS BOX MAY BE COLLECTED AS EARLY AS 12 NOON.", "ref": "8411700005"}, "type": "Feature"}
{"geometry": {"coordinates": [-111.854335, 40.655811], "type": "Point"}, "id": "IBGQcn_Z0mZcuQIlXKfyTPzGaIk=", "properties": {"@spider": "usps_collection_boxes", "addr:city": "SALT LAKE CITY", "addr:country": "US", "addr:full": "5255 S 1300 E", "addr:postcode": "84117", "addr:state": "UT", "brand": "USPS", "collection_times": "Mo-Fr 14:30; Sa 15:00", "name": "USPS COLLECTION BOX - BLUE BOX", "note": "ON 12/24 AND 12/31, THIS BOX MAY BE COLLECTED AS EARLY AS 12 NOON.", "ref": "8411700018"}, "type": "Feature"}
{"geometry": {"coordinates": [-111.865477, 40.668926], "type": "Point"}, "id": "XdxX3WjqtnhUovsf6CkOxVv8NzQ=", "properties": {"@spider": "usps_collection_boxes", "addr:city": "SALT LAKE CITY", "addr:country": "US", "addr:full": "4670 S 900 E", "addr:postcode": "84117", "addr:state": "UT", "brand": "USPS", "collection_times": "Mo-Fr 16:30; Sa 15:00", "name": "USPS COLLECTION BOX - BLUE BOX", "note": "ON 12/24 AND 12/31, THIS BOX MAY BE COLLECTED AS EARLY AS 12 NOON.", "ref": "8411700020"}, "type": "Feature"}
{"geometry": {"coordinates": [-111.827612, 40.674089], "type": "Point"}, "id": "AfvBYfYYJDHn_RwHHqj3T1vM2KU=", "properties": {"@spider": "usps_collection_boxes", "addr:city": "SALT LAKE CITY", "addr:country": "US", "addr:full": "2220 E 4500 S", "addr:postcode": "84117", "addr:state": "UT", "brand": "USPS", "collection_times": "Mo-Fr 16:15; Sa 14:00", "name": "USPS COLLECTION BOX - BLUE BOX", "note": "ON 12/24 AND 12/31, THIS BOX MAY BE COLLECTED AS EARLY AS 12 NOON.", "ref": "8411700026"}, "type": "Feature"}
{"geometry": {"coordinates": [-111.865293, 40.661275], "type": "Point"}, "id": "FVY1kIiJ5hxOpRKS5VAG15g_I4w=", "properties": {"@spider": "usps_collection_boxes", "addr:city": "SALT LAKE CITY", "addr:country": "US", "addr:full": "4970 S 900 E", "addr:postcode": "84117", "addr:state": "UT", "brand": "USPS", "collection_times": "Mo-Fr 14:00; Sa 15:00", "name": "USPS COLLECTION BOX - BLUE BOX", "note": "ON 12/24 AND 12/31, THIS BOX MAY BE COLLECTED AS EARLY AS 12 NOON.", "ref": "8411700027"}, "type": "Feature"}
{"geometry": {"coordinates": [-111.823386, 40.665945], "type": "Point"}, "id": "T_1eJBQmzr4Vs7CBn7KIduJO2Ds=", "properties": {"@spider": "usps_collection_boxes", "addr:city": "SALT LAKE CITY", "addr:country": "US", "addr:full": "2350 E ARBOR LN", "addr:postcode": "84117", "addr:state": "UT", "brand": "USPS", "collection_times": "Mo-Fr 18:00; Sa 16:45", "name": "USPS COLLECTION BOX - PO LOBBY", "note": "ON 12/24 AND 12/31, THIS BOX MAY BE COLLECTED AS EARLY AS 12 NOON.", "ref": "8411700028"}, "type": "Feature"}
{"geometry": {"coordinates": [-111.822872, 40.666141], "type": "Point"}, "id": "g3sfo9IKqKC2gtUte5zgLkUo-wE=", "properties": {"@spider": "usps_collection_boxes", "addr:city": "SALT LAKE CITY", "addr:country": "US", "addr:full": "2350 E ARBOR LN", "addr:postcode": "84117", "addr:state": "UT", "brand": "USPS", "collection_times": "Mo-Fr 18:00; Sa 17:00", "name": "USPS COLLECTION BOX - BLUE BOX", "note": "ON 12/24 AND 12/31, THIS BOX MAY BE COLLECTED AS EARLY AS 12 NOON.", "ref": "8411700033"}, "type": "Feature"}
{"geometry": {"coordinates": [-111.823387267, 40.665943069], "type": "Point"}, "id": "O4Uh1eyIMYKfYdCnqNN4E5QoGfc=", "properties": {"@spider": "usps_collection_boxes", "addr:city": "SALT LAKE CITY", "addr:country": "US", "addr:full": "2350 E ARBOR LN", "addr:postcode": "84117", "addr:state": "UT", "brand": "USPS", "collection_times": "Mo-Fr 18:00; Sa 16:45", "name": "USPS COLLECTION BOX - PO LOBBY", "note": "ON 12/24 AND 12/31, THIS BOX MAY BE COLLECTED AS EARLY AS 12 NOON.", "ref": "8411700036"}, "type": "Feature"}
{"geometry": {"coordinates": [-111.958776, 40.693756], "type": "Point"}, "id": "-3RfFeeX57EX7AXYpPqxM6RVPxo=", "properties": {"@spider": "usps_collection_boxes", "addr:city": "SALT LAKE CITY", "addr:country": "US", "addr:full": "3600 CONSTITUTION BLVD", "addr:postcode": "84119", "addr:state": "UT", "brand": "USPS", "collection_times": "Mo-Fr 15:00", "name": "USPS COLLECTION BOX - BLUE BOX", "note": "ON 12/24 AND 12/31, THIS BOX MAY BE COLLECTED AS EARLY AS 12 NOON.", "ref": "8411900017"}, "type": "Feature"}
{"geometry": {"coordinates": [-111.955919, 40.69238], "type": "Point"}, "id": "drXrf2-FB171SYTUdaEA2eZR8I0=", "properties": {"@spider": "usps_collection_boxes", "addr:city": "SALT LAKE CITY", "addr:country": "US", "addr:full": "3601 CONSTITUTION BLVD", "addr:postcode": "84119", "addr:state": "UT", "brand": "USPS", "collection_times": "Mo-Sa 15:00", "name": "USPS COLLECTION BOX - BLUE BOX", "note": "ON 12/24 AND 12/31, THIS BOX MAY BE COLLECTED AS EARLY AS 12 NOON.", "ref": "8411900018"}, "type": "Feature"}
{"geometry": {"coordinates": [-111.93845, 40.721628], "type": "Point"}, "id": "-dgaRcrFmmffgYGLM7ztl3hoTpI=", "properties": {"@spider": "usps_collection_boxes", "addr:city": "SALT LAKE CITY", "addr:country": "US", "addr:full": "2261 S REDWOOD RD", "addr:postcode": "84119", "addr:state": "UT", "brand": "USPS", "collection_times": "Mo-Fr 14:00", "name": "USPS COLLECTION BOX - BLUE BOX", "note": "ON 12/24 AND 12/31, THIS BOX MAY BE COLLECTED AS EARLY AS 12 NOON.", "ref": "8411900020"}, "type": "Feature"}
{"geometry": {"coordinates": [-111.978285, 40.709073], "type": "Point"}, "id": "ddFvUZfGm--k0jbzDbea5iA1xQI=", "properties": {"@spider": "usps_collection_boxes", "addr:city": "SALT LAKE CITY", "addr:country": "US", "addr:full": "2734 S 3600 W", "addr:postcode": "84119", "addr:state": "UT", "brand": "USPS", "collection_times": "Mo-Fr 09:00", "name": "USPS COLLECTION BOX - BLUE BOX", "ref": "8411900057"}, "type": "Feature"}
{"geometry": {"coordinates": [-111.967542, 40.725642], "type": "Point"}, "id": "JA1uzrR3CO8K6955HHk3P35hIpQ=", "properties": {"@spider": "usps_collection_boxes", "addr:city": "SALT LAKE CITY", "addr:country": "US", "addr:full": "3199 W 2100 S", "addr:postcode": "84119", "addr:state": "UT", "brand": "USPS", "collection_times": "Mo-Fr 16:00", "name": "USPS COLLECTION BOX - BLUE BOX", "note": "ON 12/24 AND 12/31, THIS BOX MAY BE COLLECTED AS EARLY AS 12 NOON.", "ref": "8411900059"}, "type": "Feature"}
{"geometry": {"coordinates": [-111.985369, 40.696411], "type": "Point"}, "id": "jT9jua-aV8BBfjQ2yKs_Ry5_UVQ=", "properties": {"@spider": "usps_collection_boxes", "addr:city": "SALT LAKE CITY", "addr:country": "US", "addr:full": "3955 W 3500 S", "addr:postcode": "84120", "addr:state": "UT", "brand": "USPS", "collection_times": "Mo-Sa 15:00", "name": "USPS COLLECTION BOX - BLUE BOX", "note": "ON 12/24 AND 12/31, THIS BOX MAY BE COLLECTED AS EARLY AS 12 NOON.", "ref": "8412000002"}, "type": "Feature"}
{"geometry": {"coordinates": [-111.990261, 40.697907], "type": "Point"}, "id": "8jaqB8kuQv9KSzS9t7OILhGfRc4=", "properties": {"@spider": "usps_collection_boxes", "addr:city": "SALT LAKE CITY", "addr:country": "US", "addr:full": "3425 S PIONEER PKWY", "addr:postcode": "84120", "addr:state": "UT", "brand": "USPS", "collection_times": "Mo-Fr 10:00", "name": "USPS COLLECTION BOX - BLUE BOX", "ref": "8412000004"}, "type": "Feature"}
{"geometry": {"coordinates": [-111.987034, 40.696093], "type": "Point"}, "id": "0lqlToGSdPlxTxjfd6JABuP39L4=", "properties": {"@spider": "usps_collection_boxes", "addr:city": "SALT LAKE CITY", "addr:country": "US", "addr:full": "3540 S 4000 W", "addr:postcode": "84120", "addr:state": "UT", "brand": "USPS", "collection_times": "Mo-Fr 17:00", "name": "USPS COLLECTION BOX - BLUE BOX", "note": "ON 12/24 AND 12/31, THIS BOX MAY BE COLLECTED AS EARLY AS 12 NOON.", "ref": "8412000008"}, "type": "Feature"}
{"geometry": {"coordinates": [-112.026014, 40.704085], "type": "Point"}, "id": "lwQVUUxk7rCGmytVRPNAfz_7xRw=", "properties": {"@spider": "usps_collection_boxes", "addr:city": "SALT LAKE CITY", "addr:country": "US", "addr:full": "3069 S COLT PLAZA DR", "addr:postcode": "84120", "addr:state": "UT", "brand": "USPS", "collection_times": "Mo-Fr 08:30", "name": "USPS COLLECTION BOX - BLUE BOX", "ref": "8412000023"}, "type": "Feature"}
{"geometry": {"coordinates": [-111.980442001, 40.721187983], "type": "Point"}, "id": "WsfMFShHMPG7aE2pL-4e1ZDSgcU=", "properties": {"@spider": "usps_collection_boxes", "addr:city": "SALT LAKE CITY", "addr:country": "US", "addr:full": "3739 W 2270 S", "addr:postcode": "84120", "addr:state": "UT", "brand": "USPS", "collection_times": "Mo-Fr 16:30", "name": "USPS COLLECTION BOX - BLUE BOX", "note": "ON 12/24 AND 12/31, THIS BOX MAY BE COLLECTED AS EARLY AS 12 NOON.", "ref": "8412000025"}, "type": "Feature"}
{"geometry": {"coordinates": [-111.996229, 40.697534], "type": "Point"}, "id": "kLMGa5ju4MU6rl1mBFhWYFLmquM=", "properties": {"@spider": "usps_collection_boxes", "addr:city": "SALT LAKE CITY", "addr:country": "US", "addr:full": "3450 S 4400 W", "addr:postcode": "84120", "addr:state": "UT", "brand": "USPS", "collection_times": "Mo-Fr 18:00; Sa 17:00", "name": "USPS COLLECTION BOX - BLUE BOX", "note": "ON 12/24 AND 12/31, THIS BOX MAY BE COLLECTED AS EARLY AS 12 NOON.", "ref": "8412000027"}, "type": "Feature"}
{"geometry": {"coordinates": [-111.996228, 40.697119], "type": "Point"}, "id": "QaNl9oVO8US6VozdfsV-XA2Ryzs=", "properties": {"@spider": "usps_collection_boxes", "addr:city": "SALT LAKE CITY", "addr:country": "US", "addr:full": "3490 S 4400 W", "addr:postcode": "84120", "addr:state": "UT", "brand": "USPS", "collection_times": "Mo-Fr 18:00; Sa 16:00", "name": "USPS COLLECTION BOX - APC", "note": "ON 12/24 AND 12/31, THIS BOX MAY BE COLLECTED AS EARLY AS 12 NOON.", "ref": "8412000028"}, "type": "Feature"}
{"geometry": {"coordinates": [-111.996228, 40.697119], "type": "Point"}, "id": "gAxP_NMJa0bV1HENZAcU2U51zTM=", "properties": {"@spider": "usps_collection_boxes", "addr:city": "SALT LAKE CITY", "addr:country": "US", "addr:full": "3490 S 4400 W", "addr:postcode": "84120", "addr:state": "UT", "brand": "USPS", "collection_times": "Mo-Fr 18:00; Sa 16:00", "name": "USPS COLLECTION BOX - PO LOBBY", "note": "ON 12/24 AND 12/31, THIS BOX MAY BE COLLECTED AS EARLY AS 12 NOON.", "ref": "8412000029"}, "type": "Feature"}
{"geometry": {"coordinates": [-111.996226762, 40.69692], "type": "Point"}, "id": "Ab-IKzzBMfJbYDNmbsDHq4Kt57s=", "properties": {"@spider": "usps_collection_boxes", "addr:city": "SALT LAKE CITY", "addr:country": "US", "addr:full": "3490 S 4400 W", "addr:postcode": "84120", "addr:state": "UT", "brand": "USPS", "collection_times": "Mo-Fr 18:00; Sa 16:00", "name": "USPS COLLECTION BOX - PO LOBBY", "note": "ON 12/24 AND 12/31, THIS BOX MAY BE COLLECTED AS EARLY AS 12 NOON.", "ref": "8412000031"}, "type": "Feature"}
{"geometry": {"coordinates": [-111.849197024, 40.649312027], "type": "Point"}, "id": "j83Z0SKcazZPi6QtRE58bJyICgk=", "properties": {"@spider": "usps_collection_boxes", "addr:city": "SALT LAKE CITY", "addr:country": "US", "addr:full": "1480 E 5600 S", "addr:postcode": "84121", "addr:state": "UT", "brand": "USPS", "collection_times": "Mo-Fr 14:30; Sa 15:00", "name": "USPS COLLECTION BOX - BLUE BOX", "note": "ON 12/24 AND 12/31, THIS BOX MAY BE COLLECTED AS EARLY AS 12 NOON.", "ref": "8412100001"}, "type": "Feature"}
{"geometry": {"coordinates": [-111.8558565, 40.6406055134], "type": "Point"}, "id": "ERn2xyVS842eb4ieqe0lQb7TWTk=", "properties": {"@spider": "usps_collection_boxes", "addr:city": "SALT LAKE CITY", "addr:country": "US", "addr:full": "1260 E VINE ST", "addr:postcode": "84121", "addr:state": "UT", "brand": "USPS", "collection_times": "Mo-Fr 14:30; Sa 15:00", "name": "USPS COLLECTION BOX - BLUE BOX", "note": "ON 12/24 AND 12/31, THIS BOX MAY BE COLLECTED AS EARLY AS 12 NOON.", "ref": "8412100003"}, "type": "Feature"}
{"geometry": {"coordinates": [-111.8473076697, 40.6253884785], "type": "Point"}, "id": "t_BIG8NVR--_MOBb-dqmsazUYuo=", "properties": {"@spider": "usps_collection_boxes", "addr:city": "SALT LAKE CITY", "addr:country": "US", "addr:full": "1590 E FORT UNION BLVD", "addr:postcode": "84121", "addr:state": "UT", "brand": "USPS", "collection_times": "Mo-Sa 13:00", "name": "USPS COLLECTION BOX - BLUE BOX", "note": "ON 12/24 AND 12/31, THIS BOX MAY BE COLLECTED AS EARLY AS 12 NOON.", "ref": "8412100004"}, "type": "Feature"}
{"geometry": {"coordinates": [-111.824927, 40.626255], "type": "Point"}, "id": "eMBK8Hk65or08OwuahKhYffswyo=", "properties": {"@spider": "usps_collection_boxes", "addr:city": "SALT LAKE CITY", "addr:country": "US", "addr:full": "6890 S 2300 E", "addr:postcode": "84121", "addr:state": "UT", "brand": "USPS", "collection_times": "Mo-Fr 18:00; Sa 17:00", "name": "USPS COLLECTION BOX - BLUE BOX", "note": "ON 12/24 AND 12/31, THIS BOX MAY BE COLLECTED AS EARLY AS 12 NOON.", "ref": "8412100021"}, "type": "Feature"}
{"geometry": {"coordinates": [-111.824797, 40.62652], "type": "Point"}, "id": "iYORjF9JSvJYSMebAge381GVf6s=", "properties": {"@spider": "usps_collection_boxes", "addr:city": "SALT LAKE CITY", "addr:country": "US", "addr:full": "6890 S 2300 E", "addr:postcode": "84121", "addr:state": "UT", "brand": "USPS", "collection_times": "Mo-Fr 17:30; Sa 16:00", "name": "USPS COLLECTION BOX - PO LOBBY", "note": "ON 12/24 AND 12/31, THIS BOX MAY BE COLLECTED AS EARLY AS 12 NOON.", "ref": "8412100022"}, "type": "Feature"}
{"geometry": {"coordinates": [-111.808389, 40.635013], "type": "Point"}, "id": "YZ0iFj9oraCJIH74ME_fQ-W8c8w=", "properties": {"@spider": "usps_collection_boxes", "addr:city": "SALT LAKE CITY", "addr:country": "US", "addr:full": "6340 S 3000 E", "addr:postcode": "84121", "addr:state": "UT", "brand": "USPS", "collection_times": "Mo-Fr 15:00", "name": "USPS COLLECTION BOX - BLUE BOX", "note": "ON 12/24 AND 12/31, THIS BOX MAY BE COLLECTED AS EARLY AS 12 NOON.", "ref": "8412100027"}, "type": "Feature"}
{"geometry": {"coordinates": [-111.855772, 40.628248], "type": "Point"}, "id": "t5N7YyPEuVPJs7CIroQm_FIVt3k=", "properties": {"@spider": "usps_collection_boxes", "addr:city": "SALT LAKE CITY", "addr:country": "US", "addr:full": "6772 S 1300 E", "addr:postcode": "84121", "addr:state": "UT", "brand": "USPS", "collection_times": "Mo-Fr 17:00", "name": "USPS COLLECTION BOX - BLUE BOX", "note": "ON 12/24 AND 12/31, THIS BOX MAY BE COLLECTED AS EARLY AS 12 NOON.", "ref": "8412100034"}, "type": "Feature"}
{"geometry": {"coordinates": [-111.824797, 40.62652], "type": "Point"}, "id": "E9Qp5ZsyO8Wj2TaFxibu22r8504=", "properties": {"@spider": "usps_collection_boxes", "addr:city": "SALT LAKE CITY", "addr:country": "US", "addr:full": "6890 S 2300 E", "addr:postcode": "84121", "addr:state": "UT", "brand": "USPS", "collection_times": "Mo-Fr 17:30; Sa 16:00", "name": "USPS COLLECTION BOX - APC", "note": "ON 12/24 AND 12/31, THIS BOX MAY BE COLLECTED AS EARLY AS 12 NOON.", "ref": "8412100039"}, "type": "Feature"}
{"geometry": {"coordinates": [-111.796333, 40.607528], "type": "Point"}, "id": "bVCejCh38QTJNmtDNUvZOjSdG7U=", "properties": {"@spider": "usps_collection_boxes", "addr:city": "SALT LAKE CITY", "addr:country": "US", "addr:full": "7910 S 3500 E", "addr:postcode": "84121", "addr:state": "UT", "brand": "USPS", "collection_times": "Mo-Sa 13:00", "name": "USPS COLLECTION BOX - BLUE BOX", "note": "ON 12/24 AND 12/31, THIS BOX MAY BE COLLECTED AS EARLY AS 12 NOON.", "ref": "8412100040"}, "type": "Feature"}
{"geometry": {"coordinates": [-111.8660175314, 40.6479171287], "type": "Point"}, "id": "lyA9DpZnJeasYNSKSK-XulMIdvk=", "properties": {"@spider": "usps_collection_boxes", "addr:city": "SALT LAKE CITY", "addr:country": "US", "addr:full": "5642 S 900 E", "addr:postcode": "84121", "addr:state": "UT", "brand": "USPS", "collection_times": "Mo-Fr 14:30; Sa 15:00", "name": "USPS COLLECTION BOX - BLUE BOX", "note": "ON 12/24 AND 12/31, THIS BOX MAY BE COLLECTED AS EARLY AS 12 NOON.", "ref": "8412100041"}, "type": "Feature"}
{"geometry": {"coordinates": [-111.82479822, 40.626549], "type": "Point"}, "id": "TueCmFEDFjeHGcD8s7_5EF16WvQ=", "properties": {"@spider": "usps_collection_boxes", "addr:city": "SALT LAKE CITY", "addr:country": "US", "addr:full": "6890 S 2300 E", "addr:postcode": "84121", "addr:state": "UT", "brand": "USPS", "collection_times": "Mo-Fr 17:30; Sa 16:00", "name": "USPS COLLECTION BOX - PO LOBBY", "note": "ON 12/24 AND 12/31, THIS BOX MAY BE COLLECTED AS EARLY AS 12 NOON.", "ref": "8412100043"}, "type": "Feature"}
{"geometry": {"coordinates": [-111.801981206, 40.633006987], "type": "Point"}, "id": "a60EOdMu5pl4ncfrLhWpXU2zs2g=", "properties": {"@spider": "usps_collection_boxes", "addr:city": "SALT LAKE CITY", "addr:country": "US", "addr:full": "6510 S MILLROCK DR", "addr:postcode": "84121", "addr:state": "UT", "brand": "USPS", "collection_times": "Mo-Fr 15:00", "name": "USPS COLLECTION BOX - BLUE BOX", "note": "ON 12/24 AND 12/31, THIS BOX MAY BE COLLECTED AS EARLY AS 12 NOON.", "ref": "8412100045"}, "type": "Feature"}
{"geometry": {"coordinates": [-111.9794061901, 40.7764972394], "type": "Point"}, "id": "6zsW8r7x9fGi_6i_cJ355D8FniU=", "properties": {"@spider": "usps_collection_boxes", "addr:city": "SALT LAKE CITY", "addr:country": "US", "addr:full": "320 N 3700 W", "addr:postcode": "84122", "addr:state": "UT", "brand": "USPS", "collection_times": "Mo-Sa 18:00", "name": "USPS COLLECTION BOX - PO LOBBY", "note": "ON 12/24 AND 12/31, THIS BOX MAY BE COLLECTED AS EARLY AS 12 NOON.", "ref": "8412200004"}, "type": "Feature"}
{"geometry": {"coordinates": [-111.9794061901, 40.7764972394], "type": "Point"}, "id": "a_wmbwNXzdymyeJWJwG_BJdzd-4=", "properties": {"@spider": "usps_collection_boxes", "addr:city": "SALT LAKE CITY", "addr:country": "US", "addr:full": "320 N 3700 W", "addr:postcode": "84122", "addr:state": "UT", "brand": "USPS", "collection_times": "Mo-Sa 18:00", "name": "USPS COLLECTION BOX - BLUE BOX", "note": "ON 12/24 AND 12/31, THIS BOX MAY BE COLLECTED AS EARLY AS 12 NOON.", "ref": "8412200005"}, "type": "Feature"}
{"geometry": {"coordinates": [-111.9794061901, 40.7764972394], "type": "Point"}, "id": "7v1GkNgjp9OiXmoN65MaQ6DpANI=", "properties": {"@spider": "usps_collection_boxes", "addr:city": "SALT LAKE CITY", "addr:country": "US", "addr:full": "320 N 3700 W", "addr:postcode": "84122", "addr:state": "UT", "brand": "USPS", "collection_times": "Mo-Sa 14:00", "name": "USPS COLLECTION BOX - PO LOBBY", "note": "ON 12/24 AND 12/31, THIS BOX MAY BE COLLECTED AS EARLY AS 12 NOON.", "ref": "8412200006"}, "type": "Feature"}
{"geometry": {"coordinates": [-111.905597, 40.685711], "type": "Point"}, "id": "jEBdqXN7_CZQD1dk-KgnJC1XioI=", "properties": {"@spider": "usps_collection_boxes", "addr:city": "SALT LAKE CITY", "addr:country": "US", "addr:full": "3950 S 500 W", "addr:postcode": "84123", "addr:state": "UT", "brand": "USPS", "collection_times": "Mo-Fr 15:00", "name": "USPS COLLECTION BOX - BLUE BOX", "note": "ON 12/24 AND 12/31, THIS BOX MAY BE COLLECTED AS EARLY AS 12 NOON.", "ref": "8412300022"}, "type": "Feature"}
{"geometry": {"coordinates": [-111.909393, 40.653742], "type": "Point"}, "id": "1bJADldr9ap9XqMqujQWEifo8i0=", "properties": {"@spider": "usps_collection_boxes", "addr:city": "SALT LAKE CITY", "addr:country": "US", "addr:full": "665 W 5300 S", "addr:postcode": "84123", "addr:state": "UT", "brand": "USPS", "collection_times": "Mo-Fr 15:00; Sa 14:00", "name": "USPS COLLECTION BOX - BLUE BOX", "note": "ON 12/24 AND 12/31, THIS BOX MAY BE COLLECTED AS EARLY AS 12 NOON.", "ref": "8412300029"}, "type": "Feature"}
{"geometry": {"coordinates": [-111.914666, 40.675136], "type": "Point"}, "id": "USVpsETbW58-dphsnGoEczffEnU=", "properties": {"@spider": "usps_collection_boxes", "addr:city": "SALT LAKE CITY", "addr:country": "US", "addr:full": "815 W LEVOY DR", "addr:postcode": "84123", "addr:state": "UT", "brand": "USPS", "collection_times": "Mo-Fr 15:00", "name": "USPS COLLECTION BOX - BLUE BOX", "note": "ON 12/24 AND 12/31, THIS BOX MAY BE COLLECTED AS EARLY AS 12 NOON.", "ref": "8412300039"}, "type": "Feature"}
{"geometry": {"coordinates": [-111.922392264, 40.671893494], "type": "Point"}, "id": "smaN05sxbW4PHVIjbcc1_DkcOAI=", "properties": {"@spider": "usps_collection_boxes", "addr:city": "SALT LAKE CITY", "addr:country": "US", "addr:full": "4555 S ATHERTON DR", "addr:postcode": "84123", "addr:state": "UT", "brand": "USPS", "collection_times": "Mo-Fr 15:00", "name": "USPS COLLECTION BOX - BLUE BOX", "note": "ON 12/24 AND 12/31, THIS BOX MAY BE COLLECTED AS EARLY AS 12 NOON.", "ref": "8412300048"}, "type": "Feature"}
{"geometry": {"coordinates": [-111.794842, 40.684759], "type": "Point"}, "id": "yrIFdAi5AswTrNiu03HtZ0O-XfE=", "properties": {"@spider": "usps_collection_boxes", "addr:city": "SALT LAKE CITY", "addr:country": "US", "addr:full": "3991 S WASATCH BLVD", "addr:postcode": "84124", "addr:state": "UT", "brand": "USPS", "collection_times": "Mo-Fr 17:00; Sa 14:00", "name": "USPS COLLECTION BOX - BLUE BOX", "note": "ON 12/24 AND 12/31, THIS BOX MAY BE COLLECTED AS EARLY AS 12 NOON.", "ref": "8412400001"}, "type": "Feature"}
{"geometry": {"coordinates": [-111.8239498985, 40.6871655837], "type": "Point"}, "id": "Qpj4yGtuXzviJRowYzhsVroHAP8=", "properties": {"@spider": "usps_collection_boxes", "addr:city": "SALT LAKE CITY", "addr:country": "US", "addr:full": "2325 E 3900 S", "addr:postcode": "84124", "addr:state": "UT", "brand": "USPS", "collection_times": "Mo-Fr 13:00; Sa 14:00", "name": "USPS COLLECTION BOX - BLUE BOX", "note": "ON 12/24 AND 12/31, THIS BOX MAY BE COLLECTED AS EARLY AS 12 NOON.", "ref": "8412400003"}, "type": "Feature"}
{"geometry": {"coordinates": [-111.857769, 40.687090472], "type": "Point"}, "id": "Ix6WBJfiMsEmqWFeA1qZPyqtFww=", "properties": {"@spider": "usps_collection_boxes", "addr:city": "SALT LAKE CITY", "addr:country": "US", "addr:full": "1151 E 3900 S", "addr:postcode": "84124", "addr:state": "UT", "brand": "USPS", "collection_times": "Mo-Fr 17:00", "name": "USPS COLLECTION BOX - BLUE BOX", "note": "ON 12/24 AND 12/31, THIS BOX MAY BE COLLECTED AS EARLY AS 12 NOON.", "ref": "8412400015"}, "type": "Feature"}
{"geometry": {"coordinates": [-111.84304659, 40.68052681], "type": "Point"}, "id": "nYyj8N1jUDnDL0o-xlbFQ8I5f98=", "properties": {"@spider": "usps_collection_boxes", "addr:city": "SALT LAKE CITY", "addr:country": "US", "addr:full": "4190 S HIGHLAND DR", "addr:postcode": "84124", "addr:state": "UT", "brand": "USPS", "collection_times": "Mo-Fr 17:00; Sa 14:00", "name": "USPS COLLECTION BOX - BLUE BOX", "note": "ON 12/24 AND 12/31, THIS BOX MAY BE COLLECTED AS EARLY AS 12 NOON.", "ref": "8412400021"}, "type": "Feature"}
{"geometry": {"coordinates": [-111.8018, 40.672882], "type": "Point"}, "id": "JIymeuXzySRDSL037P7T0ZDRdLw=", "properties": {"@spider": "usps_collection_boxes", "addr:city": "SALT LAKE CITY", "addr:country": "US", "addr:full": "4525 S WASATCH BLVD", "addr:postcode": "84124", "addr:state": "UT", "brand": "USPS", "collection_times": "Mo-Fr 17:00", "name": "USPS COLLECTION BOX - BLUE BOX", "note": "ON 12/24 AND 12/31, THIS BOX MAY BE COLLECTED AS EARLY AS 12 NOON.", "ref": "8412400026"}, "type": "Feature"}
{"geometry": {"coordinates": [-111.854823, 40.687215], "type": "Point"}, "id": "a1De2WBRVdrHE7WBPbiSWHmL5YQ=", "properties": {"@spider": "usps_collection_boxes", "addr:city": "SALT LAKE CITY", "addr:country": "US", "addr:full": "1285 E 3900 S", "addr:postcode": "84124", "addr:state": "UT", "brand": "USPS", "collection_times": "Mo-Fr 17:00", "name": "USPS COLLECTION BOX - BLUE BOX", "note": "ON 12/24 AND 12/31, THIS BOX MAY BE COLLECTED AS EARLY AS 12 NOON.", "ref": "8412400032"}, "type": "Feature"}
{"geometry": {"coordinates": [-111.845389005, 40.685916012], "type": "Point"}, "id": "Fl_s9YNxrMkG9LBTC4LBoDOb0ZY=", "properties": {"@spider": "usps_collection_boxes", "addr:city": "SALT LAKE CITY", "addr:country": "US", "addr:full": "3950 S HIGHLAND DR", "addr:postcode": "84124", "addr:state": "UT", "brand": "USPS", "collection_times": "Mo-Fr 17:00; Sa 14:00", "name": "USPS COLLECTION BOX - BLUE BOX", "note": "ON 12/24 AND 12/31, THIS BOX MAY BE COLLECTED AS EARLY AS 12 NOON.", "ref": "8412400035"}, "type": "Feature"}
{"geometry": {"coordinates": [-111.8580848828, 40.6869804401], "type": "Point"}, "id": "mN_ROqpnGm34wVZft_B9QO5wXwk=", "properties": {"@spider": "usps_collection_boxes", "addr:city": "SALT LAKE CITY", "addr:country": "US", "addr:full": "1150 E 3900 S", "addr:postcode": "84124", "addr:state": "UT", "brand": "USPS", "collection_times": "Mo-Fr 17:00", "name": "USPS COLLECTION BOX - BLUE BOX", "note": "ON 12/24 AND 12/31, THIS BOX MAY BE COLLECTED AS EARLY AS 12 NOON.", "ref": "8412400036"}, "type": "Feature"}
{"geometry": {"coordinates": [-111.939818, 40.672645], "type": "Point"}, "id": "pklDfe6N-TGpJ2IJFabnYdQ_UQE=", "properties": {"@spider": "usps_collection_boxes", "addr:city": "SALT LAKE CITY", "addr:country": "US", "addr:full": "1750 W 4500 S", "addr:postcode": "84129", "addr:state": "UT", "brand": "USPS", "collection_times": "Mo-Fr 09:30", "name": "USPS COLLECTION BOX - BLUE BOX", "ref": "8412900002"}, "type": "Feature"}
{"geometry": {"coordinates": [-111.986743, 40.651288], "type": "Point"}, "id": "Y8QGcucNKoAYZjng9GCxxRnNBiM=", "properties": {"@spider": "usps_collection_boxes", "addr:city": "SALT LAKE CITY", "addr:country": "US", "addr:full": "5495 S 4015 W", "addr:postcode": "84129", "addr:state": "UT", "brand": "USPS", "collection_times": "Mo-Fr 18:00; Sa 17:00", "name": "USPS COLLECTION BOX - BLUE BOX", "note": "ON 12/24 AND 12/31, THIS BOX MAY BE COLLECTED AS EARLY AS 12 NOON.", "ref": "8412900005"}, "type": "Feature"}
{"geometry": {"coordinates": [-111.986876, 40.65129], "type": "Point"}, "id": "srg37kUOo4JbnEK5pQpA_FJoOx4=", "properties": {"@spider": "usps_collection_boxes", "addr:city": "SALT LAKE CITY", "addr:country": "US", "addr:full": "5495 S 4015 W", "addr:postcode": "84129", "addr:state": "UT", "brand": "USPS", "collection_times": "Mo-Fr 17:30; Sa 15:00", "name": "USPS COLLECTION BOX - PO LOBBY", "note": "ON 12/24 AND 12/31, THIS BOX MAY BE COLLECTED AS EARLY AS 12 NOON.", "ref": "8412900009"}, "type": "Feature"}
{"geometry": {"coordinates": [-111.956691, 40.668698], "type": "Point"}, "id": "eFDJZ4ZoBTMN0XBRHDmmdgtO8qc=", "properties": {"@spider": "usps_collection_boxes", "addr:city": "SALT LAKE CITY", "addr:country": "US", "addr:full": "2680 W 4700 S", "addr:postcode": "84129", "addr:state": "UT", "brand": "USPS", "collection_times": "Mo-Fr 16:00", "name": "USPS COLLECTION BOX - BLUE BOX", "note": "ON 12/24 AND 12/31, THIS BOX MAY BE COLLECTED AS EARLY AS 12 NOON.", "ref": "8412900011"}, "type": "Feature"}
{"geometry": {"coordinates": [-111.986876, 40.65129], "type": "Point"}, "id": "i1mFXgb7tfP16MmwcrBghcBgj5w=", "properties": {"@spider": "usps_collection_boxes", "addr:city": "SALT LAKE CITY", "addr:country": "US", "addr:full": "5495 S 4015 W", "addr:postcode": "84129", "addr:state": "UT", "brand": "USPS", "collection_times": "Mo-Fr 17:30; Sa 15:00", "name": "USPS COLLECTION BOX - APC", "note": "ON 12/24 AND 12/31, THIS BOX MAY BE COLLECTED AS EARLY AS 12 NOON.", "ref": "8412900012"}, "type": "Feature"}
{"geometry": {"coordinates": [-111.986877237, 40.651289026], "type": "Point"}, "id": "cNW4wSkOo2LIIrDryNC41Zy96Ck=", "properties": {"@spider": "usps_collection_boxes", "addr:city": "SALT LAKE CITY", "addr:country": "US", "addr:full": "5495 S 4015 W", "addr:postcode": "84129", "addr:state": "UT", "brand": "USPS", "collection_times": "Mo-Fr 17:30; Sa 15:00", "name": "USPS COLLECTION BOX - PO LOBBY", "note": "ON 12/24 AND 12/31, THIS BOX MAY BE COLLECTED AS EARLY AS 12 NOON.", "ref": "8412900013"}, "type": "Feature"}
{"geometry": {"coordinates": [-111.899794, 40.770105], "type": "Point"}, "id": "Y1mB5d-IvjGkxCBzhwXV8QDArd0=", "properties": {"@spider": "usps_collection_boxes", "addr:city": "SALT LAKE CITY", "addr:country": "US", "addr:full": "55 N 300 W", "addr:postcode": "84180", "addr:state": "UT", "brand": "USPS", "collection_times": "Mo-Fr 17:00", "name": "USPS COLLECTION BOX - BLUE BOX", "note": "ON 12/24 AND 12/31, THIS BOX MAY BE COLLECTED AS EARLY AS 12 NOON.", "ref": "8418000000"}, "type": "Feature"}
{"geometry": {"coordinates": [-111.899817, 40.770109], "type": "Point"}, "id": "uoRMC7-HLs2H5x2aQIOGkK_MMB8=", "properties": {"@spider": "usps_collection_boxes", "addr:city": "SALT LAKE CITY", "addr:country": "US", "addr:full": "55 N 300 W", "addr:postcode": "84180", "addr:state": "UT", "brand": "USPS", "collection_times": "Mo-Fr 17:00", "name": "USPS COLLECTION BOX - BLUE BOX", "note": "ON 12/24 AND 12/31, THIS BOX MAY BE COLLECTED AS EARLY AS 12 NOON.", "ref": "8418000001"}, "type": "Feature"}
{"geometry": {"coordinates": [-111.941039, 40.726719], "type": "Point"}, "id": "vNlnQ_rDAOf6jHBI9yvDcB3OX3g=", "properties": {"@spider": "usps_collection_boxes", "addr:city": "SALT LAKE CITY", "addr:country": "US", "addr:full": "1760 W 2100 S", "addr:postcode": "84199", "addr:state": "UT", "brand": "USPS", "collection_times": "Mo-Fr 17:00", "name": "USPS COLLECTION BOX - EXPRESS", "note": "ON 12/24 AND 12/31, THIS BOX MAY BE COLLECTED AS EARLY AS 12 NOON.", "ref": "8419900004"}, "type": "Feature"}
{"geometry": {"coordinates": [-111.941195, 40.726701], "type": "Point"}, "id": "5yiPlDSFX8n9wNnJuRybjJAN6oo=", "properties": {"@spider": "usps_collection_boxes", "addr:city": "SALT LAKE CITY", "addr:country": "US", "addr:full": "1760 W 2100 S", "addr:postcode": "84199", "addr:state": "UT", "brand": "USPS", "collection_times": "Mo-Sa 20:15", "name": "USPS COLLECTION BOX - PO LOBBY", "note": "ON 12/24 AND 12/31, THIS BOX MAY BE COLLECTED AS EARLY AS 12 NOON.", "ref": "8419900005"}, "type": "Feature"}
{"geometry": {"coordinates": [-111.941163, 40.726672], "type": "Point"}, "id": "b2-LZrlpgFm3-E9gxZyg3An1tb0=", "properties": {"@spider": "usps_collection_boxes", "addr:city": "SALT LAKE CITY", "addr:country": "US", "addr:full": "1760 W 2100 S", "addr:postcode": "84199", "addr:state": "UT", "brand": "USPS", "collection_times": "Mo-Sa 20:15", "name": "USPS COLLECTION BOX - PO LOBBY", "note": "ON 12/24 AND 12/31, THIS BOX MAY BE COLLECTED AS EARLY AS 12 NOON.", "ref": "8419900006"}, "type": "Feature"}
{"geometry": {"coordinates": [-111.941101, 40.726134], "type": "Point"}, "id": "9WbjUM_AVuZBTMvFfSyB8fPTMUs=", "properties": {"@spider": "usps_collection_boxes", "addr:city": "SALT LAKE CITY", "addr:country": "US", "addr:full": "1760 W 2100 S", "addr:postcode": "84199", "addr:state": "UT", "brand": "USPS", "collection_times": "Mo-Sa 20:15", "name": "USPS COLLECTION BOX - BLUE BOX", "note": "ON 12/24 AND 12/31, THIS BOX MAY BE COLLECTED AS EARLY AS 12 NOON.", "ref": "8419900008"}, "type": "Feature"}
{"geometry": {"coordinates": [-111.941086, 40.72614], "type": "Point"}, "id": "NtPJy2fxP1iBhsMnMYdrWjbB__Q=", "properties": {"@spider": "usps_collection_boxes", "addr:city": "SALT LAKE CITY", "addr:country": "US", "addr:full": "1760 W 2100 S", "addr:postcode": "84199", "addr:state": "UT", "brand": "USPS", "collection_times": "Mo-Sa 20:15", "name": "USPS COLLECTION BOX - BLUE BOX", "note": "ON 12/24 AND 12/31, THIS BOX MAY BE COLLECTED AS EARLY AS 12 NOON.", "ref": "8419900009"}, "type": "Feature"}
{"geometry": {"coordinates": [-111.941089, 40.726139], "type": "Point"}, "id": "Y2BsXLXIBtfgaR5Auys1GHC5JGM=", "properties": {"@spider": "usps_collection_boxes", "addr:city": "SALT LAKE CITY", "addr:country": "US", "addr:full": "1760 W 2100 S", "addr:postcode": "84199", "addr:state": "UT", "brand": "USPS", "collection_times": "Mo-Fr 17:00", "name": "USPS COLLECTION BOX - EXPRESS", "note": "ON 12/24 AND 12/31, THIS BOX MAY BE COLLECTED AS EARLY AS 12 NOON.", "ref": "8419900010"}, "type": "Feature"}
{"geometry": {"coordinates": [-111.941067, 40.72615], "type": "Point"}, "id": "46bNQfmYm2HVuH-ut1mLZ821ils=", "properties": {"@spider": "usps_collection_boxes", "addr:city": "SALT LAKE CITY", "addr:country": "US", "addr:full": "1760 W 2100 S", "addr:postcode": "84199", "addr:state": "UT", "brand": "USPS", "collection_times": "Mo-Sa 20:15", "name": "USPS COLLECTION BOX - BLUE BOX", "note": "ON 12/24 AND 12/31, THIS BOX MAY BE COLLECTED AS EARLY AS 12 NOON.", "ref": "8419900012"}, "type": "Feature"}
{"geometry": {"coordinates": [-111.941172, 40.72664], "type": "Point"}, "id": "fIsgLkvq-1i29J8f6XHIentnp1I=", "properties": {"@spider": "usps_collection_boxes", "addr:city": "SALT LAKE CITY", "addr:country": "US", "addr:full": "1760 W 2100 S", "addr:postcode": "84199", "addr:state": "UT", "brand": "USPS", "collection_times": "Mo-Sa 20:15", "name": "USPS COLLECTION BOX - APC", "note": "ON 12/24 AND 12/31, THIS BOX MAY BE COLLECTED AS EARLY AS 12 NOON.", "ref": "8419900015"}, "type": "Feature"}
{"geometry": {"coordinates": [-111.940730277, 40.725909466], "type": "Point"}, "id": "vIkxR-dAhMdAeESJmfTxYXRk20s=", "properties": {"@spider": "usps_collection_boxes", "addr:city": "SALT LAKE CITY", "addr:country": "US", "addr:full": "1760 W 2100 S", "addr:postcode": "84199", "addr:state": "UT", "brand": "USPS", "collection_times": "Mo-Sa 18:00", "name": "USPS COLLECTION BOX - PO LOBBY", "note": "ON 12/24 AND 12/31, THIS BOX MAY BE COLLECTED AS EARLY AS 12 NOON.", "ref": "8419900017"}, "type": "Feature"}
