{"geometry": {"coordinates": [-111.82443, 41.798623], "type": "Point"}, "id": "IHq0Ja7HyQJ9tUdvyLj3Hi36Kto=", "properties": {"@spider": "usps_collection_boxes", "addr:city": "HYDE PARK", "addr:country": "US", "addr:full": "25 S 200 W", "addr:postcode": "84318", "addr:state": "UT", "brand": "USPS", "collection_times": "Mo-Fr 16:15; Sa 10:45", "name": "USPS COLLECTION BOX - BLUE BOX", "note": "ON 12/24 AND 12/31, THIS BOX MAY BE COLLECTED AS EARLY AS 12 NOON.", "ref": "8431800001"}, "type": "Feature"}
{"geometry": {"coordinates": [-111.824866, 41.798766], "type": "Point"}, "id": "VrAVFdkj0IvpO5r0BgOLB4F--fk=", "properties": {"@spider": "usps_collection_boxes", "addr:city": "HYDE PARK", "addr:country": "US", "addr:full": "25 S 200 W", "addr:postcode": "84318", "addr:state": "UT", "brand": "USPS", "collection_times": "Mo-Fr 16:30; Sa 10:45", "name": "USPS COLLECTION BOX - PO LOBBY", "note": "ON 12/24 AND 12/31, THIS BOX MAY BE COLLECTED AS EARLY AS 12 NOON.", "ref": "8431800002"}, "type": "Feature"}
{"geometry": {"coordinates": [-111.824902, 41.798786], "type": "Point"}, "id": "CP5CM7Ft0ICaqM_0so37yfh7sIg=", "properties": {"@spider": "usps_collection_boxes", "addr:city": "HYDE PARK", "addr:country": "US", "addr:full": "25 S 200 W", "addr:postcode": "84318", "addr:state": "UT", "brand": "USPS", "collection_times": "Mo-Fr 16:30; Sa 10:45", "name": "USPS COLLECTION BOX - PO LOBBY", "note": "ON 12/24 AND 12/31, THIS BOX MAY BE COLLECTED AS EARLY AS 12 NOON.", "ref": "8431800003"}, "type": "Feature"}
{"geometry": {"coordinates": [-111.824911, 41.798794], "type": "Point"}, "id": "68veXHsa0hmn-9fYg9HV8q_gWpc=", "properties": {"@spider": "usps_collection_boxes", "addr:city": "HYDE PARK", "addr:country": "US", "addr:full": "25 S 200 W", "addr:postcode": "84318", "addr:state": "UT", "brand": "USPS", "collection_times": "Mo-Fr 16:30; Sa 10:45", "name": "USPS COLLECTION BOX - PO LOBBY", "note": "ON 12/24 AND 12/31, THIS BOX MAY BE COLLECTED AS EARLY AS 12 NOON.", "ref": "8431800004"}, "type": "Feature"}
{"geometry": {"coordinates": [-111.82489, 41.798769], "type": "Point"}, "id": "EY2iFjK4Vc-_jeLOpMsk5Vs-T5g=", "properties": {"@spider": "usps_collection_boxes", "addr:city": "HYDE PARK", "addr:country": "US", "addr:full": "25 S 200 W", "addr:postcode": "84318", "addr:state": "UT", "brand": "USPS", "collection_times": "Mo-Fr 16:30; Sa 10:45", "name": "USPS COLLECTION BOX - PO LOBBY", "note": "ON 12/24 AND 12/31, THIS BOX MAY BE COLLECTED AS EARLY AS 12 NOON.", "ref": "8431800005"}, "type": "Feature"}
{"geometry": {"coordinates": [-111.824455752, 41.798620959], "type": "Point"}, "id": "RU9gY2o9StcNsE02WABwdjgHyfw=", "properties": {"@spider": "usps_collection_boxes", "addr:city": "HYDE PARK", "addr:country": "US", "addr:full": "25 S 200 W", "addr:postcode": "84318", "addr:state": "UT", "brand": "USPS", "collection_times": "Mo-Fr 16:30; Sa 10:45", "name": "USPS COLLECTION BOX - PO LOBBY", "note": "ON 12/24 AND 12/31, THIS BOX MAY BE COLLECTED AS EARLY AS 12 NOON.", "ref": "8431800006"}, "type": "Feature"}
{"geometry": {"coordinates": [-111.856531, 41.97437], "type": "Point"}, "id": "rFZaDfiBlHP2c_WXYtHszpA6wKI=", "properties": {"@spider": "usps_collection_boxes", "addr:city": "LEWISTON", "addr:country": "US", "addr:full": "61 S MAIN ST", "addr:postcode": "84320", "addr:state": "UT", "brand": "USPS", "collection_times": "Mo-Fr 16:15; Sa 11:30", "name": "USPS COLLECTION BOX - BLUE BOX", "note": "ON 12/24 AND 12/31, THIS BOX MAY BE COLLECTED AS EARLY AS 12 NOON.", "ref": "8432000001"}, "type": "Feature"}
{"geometry": {"coordinates": [-111.856644, 41.97448], "type": "Point"}, "id": "fdXGgPmt-ffSSPcaVjimUyFCMf4=", "properties": {"@spider": "usps_collection_boxes", "addr:city": "LEWISTON", "addr:country": "US", "addr:full": "61 S MAIN ST", "addr:postcode": "84320", "addr:state": "UT", "brand": "USPS", "collection_times": "Mo-Fr 14:45; Sa 12:00", "name": "USPS COLLECTION BOX - PO LOBBY", "note": "ON 12/24 AND 12/31, THIS BOX MAY BE COLLECTED AS EARLY AS 12 NOON.", "ref": "8432000002"}, "type": "Feature"}
{"geometry": {"coordinates": [-111.856646024, 41.974506587], "type": "Point"}, "id": "CEU-CS-No6kQ6zAVHIR7CNZdBMo=", "properties": {"@spider": "usps_collection_boxes", "addr:city": "LEWISTON", "addr:country": "US", "addr:full": "61 S MAIN ST", "addr:postcode": "84320", "addr:state": "UT", "brand": "USPS", "collection_times": "Mo-Fr 14:45; Sa 12:00", "name": "USPS COLLECTION BOX - PO LOBBY", "note": "ON 12/24 AND 12/31, THIS BOX MAY BE COLLECTED AS EARLY AS 12 NOON.", "ref": "8432000004"}, "type": "Feature"}
{"geometry": {"coordinates": [-111.836739, 41.735595], "type": "Point"}, "id": "2I7u_BhdA6qrJ3PPCtCV4AYfmaM=", "properties": {"@spider": "usps_collection_boxes", "addr:city": "LOGAN", "addr:country": "US", "addr:full": "75 W 200 N", "addr:postcode": "84321", "addr:state": "UT", "brand": "USPS", "collection_times": "Mo-Sa 17:45", "name": "USPS COLLECTION BOX - PO LOBBY", "note": "ON 12/24 AND 12/31, THIS BOX MAY BE COLLECTED AS EARLY AS 12 NOON.", "ref": "8432100006"}, "type": "Feature"}
{"geometry": {"coordinates": [-111.802081, 41.749636], "type": "Point"}, "id": "g5BxmzPA6mXNMu2FWzL1g6ArQHY=", "properties": {"@spider": "usps_collection_boxes", "addr:city": "LOGAN", "addr:country": "US", "addr:full": "1305 E 1000 N", "addr:postcode": "84321", "addr:state": "UT", "brand": "USPS", "collection_times": "Mo-Fr 16:15; Sa 17:00", "name": "USPS COLLECTION BOX - BLUE BOX", "note": "ON 12/24 AND 12/31, THIS BOX MAY BE COLLECTED AS EARLY AS 12 NOON.", "ref": "8432100020"}, "type": "Feature"}
{"geometry": {"coordinates": [-111.834427, 41.745923], "type": "Point"}, "id": "y-iBkDDMTknD7gvUM4st0xNQAds=", "properties": {"@spider": "usps_collection_boxes", "addr:city": "LOGAN", "addr:country": "US", "addr:full": "750 N MAIN ST", "addr:postcode": "84321", "addr:state": "UT", "brand": "USPS", "collection_times": "Mo-Fr 16:30; Sa 16:45", "name": "USPS COLLECTION BOX - BLUE BOX", "note": "ON 12/24 AND 12/31, THIS BOX MAY BE COLLECTED AS EARLY AS 12 NOON.", "ref": "8432100022"}, "type": "Feature"}
{"geometry": {"coordinates": [-111.835105, 41.733055], "type": "Point"}, "id": "JWiu0llhyLkZJaN4Ui3213XMBZU=", "properties": {"@spider": "usps_collection_boxes", "addr:city": "LOGAN", "addr:country": "US", "addr:full": "99 N MAIN ST", "addr:postcode": "84321", "addr:state": "UT", "brand": "USPS", "collection_times": "Mo-Fr 16:00; Sa 16:30", "name": "USPS COLLECTION BOX - BLUE BOX", "note": "ON 12/24 AND 12/31, THIS BOX MAY BE COLLECTED AS EARLY AS 12 NOON.", "ref": "8432100024"}, "type": "Feature"}
{"geometry": {"coordinates": [-111.837281, 41.735759], "type": "Point"}, "id": "hnP5ZiWGOus4eJQ7WZpaVrGxpHE=", "properties": {"@spider": "usps_collection_boxes", "addr:city": "LOGAN", "addr:country": "US", "addr:full": "75 W 200 N", "addr:postcode": "84321", "addr:state": "UT", "brand": "USPS", "collection_times": "Mo-Sa 17:45", "name": "USPS COLLECTION BOX - BLUE BOX", "note": "ON 12/24 AND 12/31, THIS BOX MAY BE COLLECTED AS EARLY AS 12 NOON.", "ref": "8432100038"}, "type": "Feature"}
{"geometry": {"coordinates": [-111.836884, 41.735698], "type": "Point"}, "id": "mPW50lhdyTE5EUrM0FsPgqAyuEg=", "properties": {"@spider": "usps_collection_boxes", "addr:city": "LOGAN", "addr:country": "US", "addr:full": "75 W 200 N", "addr:postcode": "84321", "addr:state": "UT", "brand": "USPS", "collection_times": "Mo-Sa 17:45", "name": "USPS COLLECTION BOX - APC", "note": "ON 12/24 AND 12/31, THIS BOX MAY BE COLLECTED AS EARLY AS 12 NOON.", "ref": "8432100039"}, "type": "Feature"}
{"geometry": {"coordinates": [-111.836732, 41.735611], "type": "Point"}, "id": "GtY3av5St6jdkt5SkreIQspPAmc=", "properties": {"@spider": "usps_collection_boxes", "addr:city": "LOGAN", "addr:country": "US", "addr:full": "75 W 200 N", "addr:postcode": "84321", "addr:state": "UT", "brand": "USPS", "collection_times": "Mo-Sa 17:45", "name": "USPS COLLECTION BOX - PO LOBBY", "note": "ON 12/24 AND 12/31, THIS BOX MAY BE COLLECTED AS EARLY AS 12 NOON.", "ref": "8432100040"}, "type": "Feature"}
{"geometry": {"coordinates": [-111.836820616, 41.735335581], "type": "Point"}, "id": "MDptKL-HJzBUS5Otzi576-sNUhI=", "properties": {"@spider": "usps_collection_boxes", "addr:city": "LOGAN", "addr:country": "US", "addr:full": "75 W 200 N", "addr:postcode": "84321", "addr:state": "UT", "brand": "USPS", "collection_times": "Mo-Fr 17:45; Sa 14:30", "name": "USPS COLLECTION BOX - PO LOBBY", "note": "ON 12/24 AND 12/31, THIS BOX MAY BE COLLECTED AS EARLY AS 12 NOON.", "ref": "8432100042"}, "type": "Feature"}
{"geometry": {"coordinates": [-113.404096, 41.819437], "type": "Point"}, "id": "1zTq6IaD1vpTTKbSwUUZfNvtEd0=", "properties": {"@spider": "usps_collection_boxes", "addr:city": "PARK VALLEY", "addr:country": "US", "addr:full": "57560 W 17600 N", "addr:postcode": "84329", "addr:state": "UT", "brand": "USPS", "collection_times": "Mo-Sa 12:45", "name": "USPS COLLECTION BOX - PO LOBBY", "note": "ON 12/24 AND 12/31, THIS BOX MAY BE COLLECTED AS EARLY AS 12 NOON.", "ref": "8432900001"}, "type": "Feature"}
{"geometry": {"coordinates": [-113.40775082, 41.819381371], "type": "Point"}, "id": "-JWIQSS4MgwVe6_nDVVJM_c6OAA=", "properties": {"@spider": "usps_collection_boxes", "addr:city": "PARK VALLEY", "addr:country": "US", "addr:full": "57560 W 17600 N", "addr:postcode": "84329", "addr:state": "UT", "brand": "USPS", "collection_times": "Mo-Sa 12:45", "name": "USPS COLLECTION BOX - PO LOBBY", "note": "ON 12/24 AND 12/31, THIS BOX MAY BE COLLECTED AS EARLY AS 12 NOON.", "ref": "8432900002"}, "type": "Feature"}
{"geometry": {"coordinates": [-111.808491, 41.922367], "type": "Point"}, "id": "tJ7ZNs3EJebBZmfk0MwHizct0RY=", "properties": {"@spider": "usps_collection_boxes", "addr:city": "RICHMOND", "addr:country": "US", "addr:full": "3 S STATE ST", "addr:postcode": "84333", "addr:state": "UT", "brand": "USPS", "collection_times": "Mo-Fr 16:15; Sa 12:30", "name": "USPS COLLECTION BOX - BLUE BOX", "note": "ON 12/24 AND 12/31, THIS BOX MAY BE COLLECTED AS EARLY AS 12 NOON.", "ref": "8433300001"}, "type": "Feature"}
{"geometry": {"coordinates": [-111.808348, 41.922421], "type": "Point"}, "id": "TOIpsZUhuxkPAKtVJErPhjUQ3lU=", "properties": {"@spider": "usps_collection_boxes", "addr:city": "RICHMOND", "addr:country": "US", "addr:full": "3 S STATE ST", "addr:postcode": "84333", "addr:state": "UT", "brand": "USPS", "collection_times": "Mo-Fr 16:15; Sa 12:30", "name": "USPS COLLECTION BOX - PO LOBBY", "note": "ON 12/24 AND 12/31, THIS BOX MAY BE COLLECTED AS EARLY AS 12 NOON.", "ref": "8433300002"}, "type": "Feature"}
{"geometry": {"coordinates": [-111.808676046, 41.922422413], "type": "Point"}, "id": "CtGIWH2VpzoQaUCUh3ugaob5CwA=", "properties": {"@spider": "usps_collection_boxes", "addr:city": "RICHMOND", "addr:country": "US", "addr:full": "3 S STATE ST", "addr:postcode": "84333", "addr:state": "UT", "brand": "USPS", "collection_times": "Mo-Fr 16:15; Sa 12:30", "name": "USPS COLLECTION BOX - PO LOBBY", "note": "ON 12/24 AND 12/31, THIS BOX MAY BE COLLECTED AS EARLY AS 12 NOON.", "ref": "8433300003"}, "type": "Feature"}
{"geometry": {"coordinates": [-111.832557, 41.840061], "type": "Point"}, "id": "MNJci_dVxluAXCDeI31zeU6AKOI=", "properties": {"@spider": "usps_collection_boxes", "addr:city": "SMITHFIELD", "addr:country": "US", "addr:full": "170 N MAIN ST", "addr:postcode": "84335", "addr:state": "UT", "brand": "USPS", "collection_times": "Mo-Fr 16:30; Sa 12:00", "name": "USPS COLLECTION BOX - BLUE BOX", "note": "ON 12/24 AND 12/31, THIS BOX MAY BE COLLECTED AS EARLY AS 12 NOON.", "ref": "8433500000"}, "type": "Feature"}
{"geometry": {"coordinates": [-111.832594, 41.840062], "type": "Point"}, "id": "WEBBPBNrZxvv-l76Drcytbh6hFk=", "properties": {"@spider": "usps_collection_boxes", "addr:city": "SMITHFIELD", "addr:country": "US", "addr:full": "170 N MAIN ST", "addr:postcode": "84335", "addr:state": "UT", "brand": "USPS", "collection_times": "Mo-Fr 16:30; Sa 12:00", "name": "USPS COLLECTION BOX - BLUE BOX", "note": "ON 12/24 AND 12/31, THIS BOX MAY BE COLLECTED AS EARLY AS 12 NOON.", "ref": "8433500001"}, "type": "Feature"}
{"geometry": {"coordinates": [-111.832594, 41.840062], "type": "Point"}, "id": "oaRVMwv6bUoOPUL5cRPodlst-uY=", "properties": {"@spider": "usps_collection_boxes", "addr:city": "SMITHFIELD", "addr:country": "US", "addr:full": "170 N MAIN ST", "addr:postcode": "84335", "addr:state": "UT", "brand": "USPS", "collection_times": "Mo-Fr 16:55; Sa 12:00", "name": "USPS COLLECTION BOX - PO LOBBY", "note": "ON 12/24 AND 12/31, THIS BOX MAY BE COLLECTED AS EARLY AS 12 NOON.", "ref": "8433500004"}, "type": "Feature"}
{"geometry": {"coordinates": [-111.832563147, 41.839992052], "type": "Point"}, "id": "M_q6xf-dzDFX9YGw0bQjxTbfgA4=", "properties": {"@spider": "usps_collection_boxes", "addr:city": "SMITHFIELD", "addr:country": "US", "addr:full": "170 N MAIN ST", "addr:postcode": "84335", "addr:state": "UT", "brand": "USPS", "collection_times": "Mo-Fr 16:45; Sa 12:00", "name": "USPS COLLECTION BOX - PO LOBBY", "note": "ON 12/24 AND 12/31, THIS BOX MAY BE COLLECTED AS EARLY AS 12 NOON.", "ref": "8433500005"}, "type": "Feature"}
{"geometry": {"coordinates": [-112.713454, 41.965563], "type": "Point"}, "id": "l2sCPEZnFK6zOO1UoiNwVUUmhcw=", "properties": {"@spider": "usps_collection_boxes", "addr:city": "SNOWVILLE", "addr:country": "US", "addr:full": "115 W MAIN ST", "addr:postcode": "84336", "addr:state": "UT", "brand": "USPS", "collection_times": "Mo-Fr 15:00; Sa 11:45", "name": "USPS COLLECTION BOX - BLUE BOX", "note": "ON 12/24 AND 12/31, THIS BOX MAY BE COLLECTED AS EARLY AS 12 NOON.", "ref": "8433600000"}, "type": "Feature"}
{"geometry": {"coordinates": [-112.713454, 41.965563], "type": "Point"}, "id": "nvyghcbGwgOBIx7lxmhpveiiga8=", "properties": {"@spider": "usps_collection_boxes", "addr:city": "SNOWVILLE", "addr:country": "US", "addr:full": "115 W MAIN ST", "addr:postcode": "84336", "addr:state": "UT", "brand": "USPS", "collection_times": "Mo-Fr 14:45; Sa 11:45", "name": "USPS COLLECTION BOX - PO LOBBY", "note": "ON 12/24 AND 12/31, THIS BOX MAY BE COLLECTED AS EARLY AS 12 NOON.", "ref": "8433600001"}, "type": "Feature"}
{"geometry": {"coordinates": [-112.6577753013, 41.8477413327], "type": "Point"}, "id": "6z3ySnkz4L3DzC4tTt26XGHITT8=", "properties": {"@spider": "usps_collection_boxes", "addr:city": "SNOWVILLE", "addr:country": "US", "addr:full": "11625 N GROUSE CREEK RD", "addr:postcode": "84336", "addr:state": "UT", "brand": "USPS", "collection_times": "Mo-Fr 12:00; Sa 11:45", "name": "USPS COLLECTION BOX - PO LOBBY", "ref": "8433600002"}, "type": "Feature"}
{"geometry": {"coordinates": [-112.9606091, 41.9284314], "type": "Point"}, "id": "W_zrDRxZgnmza1SgXcGRSikMnko=", "properties": {"@spider": "usps_collection_boxes", "addr:city": "SNOWVILLE", "addr:country": "US", "addr:full": "11625 N GROUSE CREEK RD", "addr:postcode": "84336", "addr:state": "UT", "brand": "USPS", "collection_times": "Mo-Fr 12:00; Sa 11:45", "name": "USPS COLLECTION BOX - PO LOBBY", "ref": "8433600003"}, "type": "Feature"}
{"geometry": {"coordinates": [-112.713912, 41.965526496], "type": "Point"}, "id": "-mJ_wOTLFYpx_c1NDFFLpr1lkrs=", "properties": {"@spider": "usps_collection_boxes", "addr:city": "SNOWVILLE", "addr:country": "US", "addr:full": "115 W MAIN ST", "addr:postcode": "84336", "addr:state": "UT", "brand": "USPS", "collection_times": "Mo-Fr 14:45; Sa 11:45", "name": "USPS COLLECTION BOX - PO LOBBY", "note": "ON 12/24 AND 12/31, THIS BOX MAY BE COLLECTED AS EARLY AS 12 NOON.", "ref": "8433600004"}, "type": "Feature"}
{"geometry": {"coordinates": [-111.942962, 41.91763], "type": "Point"}, "id": "4kNlr5igFNYYRcblSNaY_tafX9k=", "properties": {"@spider": "usps_collection_boxes", "addr:city": "TRENTON", "addr:country": "US", "addr:full": "11 E MAIN ST", "addr:postcode": "84338", "addr:state": "UT", "brand": "USPS", "collection_times": "Mo-Fr 11:45; Sa 10:15", "name": "USPS COLLECTION BOX - PO LOBBY", "ref": "8433800001"}, "type": "Feature"}
{"geometry": {"coordinates": [-111.942832217, 41.917656457], "type": "Point"}, "id": "hIOPBWcLkojST8_HH-pGv6RysPw=", "properties": {"@spider": "usps_collection_boxes", "addr:city": "TRENTON", "addr:country": "US", "addr:full": "11 E MAIN ST", "addr:postcode": "84338", "addr:state": "UT", "brand": "USPS", "collection_times": "Mo-Fr 11:45; Sa 10:15", "name": "USPS COLLECTION BOX - PO LOBBY", "ref": "8433800002"}, "type": "Feature"}
{"geometry": {"coordinates": [-111.8237502094, 41.7631522631], "type": "Point"}, "id": "swE00937m8V26JTWGntnIhOpsp8=", "properties": {"@spider": "usps_collection_boxes", "addr:city": "LOGAN", "addr:country": "US", "addr:full": "1721 N 400 E", "addr:postcode": "84341", "addr:state": "UT", "brand": "USPS", "collection_times": "Mo-Fr 16:45; Sa 16:00", "name": "USPS COLLECTION BOX - BLUE BOX", "note": "ON 12/24 AND 12/31, THIS BOX MAY BE COLLECTED AS EARLY AS 12 NOON.", "ref": "8434100000"}, "type": "Feature"}
{"geometry": {"coordinates": [-111.824408, 41.763232], "type": "Point"}, "id": "BB1dm8hqhvFHELUPktME1WsKU3s=", "properties": {"@spider": "usps_collection_boxes", "addr:city": "LOGAN", "addr:country": "US", "addr:full": "1721 N 400 E", "addr:postcode": "84341", "addr:state": "UT", "brand": "USPS", "collection_times": "Mo-Fr 17:00; Sa 15:30", "name": "USPS COLLECTION BOX - PO LOBBY", "note": "ON 12/24 AND 12/31, THIS BOX MAY BE COLLECTED AS EARLY AS 12 NOON.", "ref": "8434100002"}, "type": "Feature"}
{"geometry": {"coordinates": [-111.824415, 41.763251], "type": "Point"}, "id": "y9ML9CvfOasv5rHZE_DeM6l33-g=", "properties": {"@spider": "usps_collection_boxes", "addr:city": "LOGAN", "addr:country": "US", "addr:full": "1721 N 400 E", "addr:postcode": "84341", "addr:state": "UT", "brand": "USPS", "collection_times": "Mo-Fr 17:00; Sa 15:30", "name": "USPS COLLECTION BOX - PO LOBBY", "note": "ON 12/24 AND 12/31, THIS BOX MAY BE COLLECTED AS EARLY AS 12 NOON.", "ref": "8434100003"}, "type": "Feature"}
{"geometry": {"coordinates": [-111.823750209, 41.763152263], "type": "Point"}, "id": "ZYPafN3U_viAVZjHHreGptSgVS8=", "properties": {"@spider": "usps_collection_boxes", "addr:city": "LOGAN", "addr:country": "US", "addr:full": "1721 N 400 E", "addr:postcode": "84341", "addr:state": "UT", "brand": "USPS", "collection_times": "Mo-Fr 17:00; Sa 15:30", "name": "USPS COLLECTION BOX - PO LOBBY", "note": "ON 12/24 AND 12/31, THIS BOX MAY BE COLLECTED AS EARLY AS 12 NOON.", "ref": "8434100006"}, "type": "Feature"}
