{"dataset_attributes": {"@spider": "usps_collection_boxes", "spider:collection_time": "2023-08-31T08:24:48.849802"}, "geometry": {"coordinates": [-111.9710609745, 41.2230349897], "type": "Point"}, "id": "e7-Gd35Cj6K8fD1FKXDIAWkovyU=", "properties": {"@spider": "usps_collection_boxes", "addr:city": "OGDEN", "addr:country": "US", "addr:full": "2389 WASHINGTON BLVD", "addr:postcode": "84401", "addr:state": "UT", "amenity": "post_box", "brand": "United States Postal Service", "brand:wikidata": "Q668687", "collection_times": "Mo-Sa 12:00", "name": "USPS COLLECTION BOX - BLUE BOX", "nsi_id": "unitedstatespostalservice-a77078", "operator": "United States Postal Service", "operator:short": "USPS", "operator:type": "public", "operator:wikidata": "Q668687", "ref": "8440100013"}, "type": "Feature"}
{"dataset_attributes": {"@spider": "usps_collection_boxes", "spider:collection_time": "2023-08-31T08:24:48.849802"}, "geometry": {"coordinates": [-111.976497, 41.198939], "type": "Point"}, "id": "Xw6DHJRznTmAPpHmrxKNu46Zh1I=", "properties": {"@spider": "usps_collection_boxes", "addr:city": "OGDEN", "addr:country": "US", "addr:full": "3544 LINCOLN AVE", "addr:postcode": "84401", "addr:state": "UT", "amenity": "post_box", "brand": "United States Postal Service", "brand:wikidata": "Q668687", "collection_times": "Mo-Sa 12:00", "name": "USPS COLLECTION BOX - BLUE BOX", "nsi_id": "unitedstatespostalservice-a77078", "operator": "United States Postal Service", "operator:short": "USPS", "operator:type": "public", "operator:wikidata": "Q668687", "ref": "8440100018"}, "type": "Feature"}
{"dataset_attributes": {"@spider": "usps_collection_boxes", "spider:collection_time": "2023-08-31T08:24:48.849802"}, "geometry": {"coordinates": [-111.9848119896, 41.1956039961], "type": "Point"}, "id": "Oyosv6XD0HLtuDRFcQDamdHM0dc=", "properties": {"@spider": "usps_collection_boxes", "addr:city": "OGDEN", "addr:country": "US", "addr:full": "3680 PACIFIC AVE", "addr:postcode": "84401", "addr:state": "UT", "amenity": "post_box", "brand": "United States Postal Service", "brand:wikidata": "Q668687", "collection_times": "Mo-Sa 17:00", "name": "USPS COLLECTION BOX - BLUE BOX", "note": "ON 12/24 AND 12/31, THIS BOX MAY BE COLLECTED AS EARLY AS 12 NOON.", "nsi_id": "unitedstatespostalservice-a77078", "operator": "United States Postal Service", "operator:short": "USPS", "operator:type": "public", "operator:wikidata": "Q668687", "ref": "8440100021"}, "type": "Feature"}
{"dataset_attributes": {"@spider": "usps_collection_boxes", "spider:collection_time": "2023-08-31T08:24:48.849802"}, "geometry": {"coordinates": [-111.970081, 41.21473], "type": "Point"}, "id": "sLR9Qed_cwn1fIsf00I4zJaianw=", "properties": {"@spider": "usps_collection_boxes", "addr:city": "OGDEN", "addr:country": "US", "addr:full": "2730 WASHINGTON BLVD", "addr:postcode": "84401", "addr:state": "UT", "amenity": "post_box", "brand": "United States Postal Service", "brand:wikidata": "Q668687", "collection_times": "Mo-Fr 17:00; Sa 16:45", "name": "USPS COLLECTION BOX - BLUE BOX", "note": "ON 12/24 AND 12/31, THIS BOX MAY BE COLLECTED AS EARLY AS 12 NOON.", "nsi_id": "unitedstatespostalservice-a77078", "operator": "United States Postal Service", "operator:short": "USPS", "operator:type": "public", "operator:wikidata": "Q668687", "ref": "8440100028"}, "type": "Feature"}
{"dataset_attributes": {"@spider": "usps_collection_boxes", "spider:collection_time": "2023-08-31T08:24:48.849802"}, "geometry": {"coordinates": [-111.970144, 41.214737], "type": "Point"}, "id": "2b5QSGhsfKYf955RjIpbXXHaCcE=", "properties": {"@spider": "usps_collection_boxes", "addr:city": "OGDEN", "addr:country": "US", "addr:full": "2730 WASHINGTON BLVD", "addr:postcode": "84401", "addr:state": "UT", "amenity": "post_box", "brand": "United States Postal Service", "brand:wikidata": "Q668687", "collection_times": "Mo-Fr 17:00; Sa 16:45", "name": "USPS COLLECTION BOX - BLUE BOX", "note": "ON 12/24 AND 12/31, THIS BOX MAY BE COLLECTED AS EARLY AS 12 NOON.", "nsi_id": "unitedstatespostalservice-a77078", "operator": "United States Postal Service", "operator:short": "USPS", "operator:type": "public", "operator:wikidata": "Q668687", "ref": "8440100029"}, "type": "Feature"}
{"dataset_attributes": {"@spider": "usps_collection_boxes", "spider:collection_time": "2023-08-31T08:24:48.849802"}, "geometry": {"coordinates": [-111.957019, 41.195547], "type": "Point"}, "id": "M9jvtEIS5f72p0UpSwE-GCqiJ7Y=", "properties": {"@spider": "usps_collection_boxes", "addr:city": "OGDEN", "addr:country": "US", "addr:full": "3710 QUINCY AVE", "addr:postcode": "84401", "addr:state": "UT", "amenity": "post_box", "brand": "United States Postal Service", "brand:wikidata": "Q668687", "collection_times": "Mo-Sa 12:00", "name": "USPS COLLECTION BOX - BLUE BOX", "nsi_id": "unitedstatespostalservice-a77078", "operator": "United States Postal Service", "operator:short": "USPS", "operator:type": "public", "operator:wikidata": "Q668687", "ref": "8440100064"}, "type": "Feature"}
{"dataset_attributes": {"@spider": "usps_collection_boxes", "spider:collection_time": "2023-08-31T08:24:48.849802"}, "geometry": {"coordinates": [-111.969866, 41.263327], "type": "Point"}, "id": "GJC62e2wFVXyaw1f55immZIevmc=", "properties": {"@spider": "usps_collection_boxes", "addr:city": "OGDEN", "addr:country": "US", "addr:full": "221 N WASHINGTON BLVD", "addr:postcode": "84401", "addr:state": "UT", "amenity": "post_box", "brand": "United States Postal Service", "brand:wikidata": "Q668687", "collection_times": "Mo-Fr 16:45; Sa 17:00", "name": "USPS COLLECTION BOX - BLUE BOX", "note": "ON 12/24 AND 12/31, THIS BOX MAY BE COLLECTED AS EARLY AS 12 NOON.", "nsi_id": "unitedstatespostalservice-a77078", "operator": "United States Postal Service", "operator:short": "USPS", "operator:type": "public", "operator:wikidata": "Q668687", "ref": "8440100093"}, "type": "Feature"}
{"dataset_attributes": {"@spider": "usps_collection_boxes", "spider:collection_time": "2023-08-31T08:24:48.849802"}, "geometry": {"coordinates": [-111.964739, 41.168082], "type": "Point"}, "id": "YBlgEUuAq-kwW6IGA3iyXtfyV7o=", "properties": {"@spider": "usps_collection_boxes", "addr:city": "OGDEN", "addr:country": "US", "addr:full": "625 E 5300 S", "addr:postcode": "84401", "addr:state": "UT", "amenity": "post_box", "brand": "United States Postal Service", "brand:wikidata": "Q668687", "collection_times": "Mo-Sa 12:00", "name": "USPS COLLECTION BOX - BLUE BOX", "nsi_id": "unitedstatespostalservice-a77078", "operator": "United States Postal Service", "operator:short": "USPS", "operator:type": "public", "operator:wikidata": "Q668687", "ref": "8440100104"}, "type": "Feature"}
{"dataset_attributes": {"@spider": "usps_collection_boxes", "spider:collection_time": "2023-08-31T08:24:48.849802"}, "geometry": {"coordinates": [-111.968279, 41.167796], "type": "Point"}, "id": "6T2VFNxCxe8N-nm5Z67dNszKEK0=", "properties": {"@spider": "usps_collection_boxes", "addr:city": "OGDEN", "addr:country": "US", "addr:full": "5300 ADAMS AVENUE PKWY", "addr:postcode": "84401", "addr:state": "UT", "amenity": "post_box", "brand": "United States Postal Service", "brand:wikidata": "Q668687", "collection_times": "Mo-Sa 12:00", "name": "USPS COLLECTION BOX - BLUE BOX", "nsi_id": "unitedstatespostalservice-a77078", "operator": "United States Postal Service", "operator:short": "USPS", "operator:type": "public", "operator:wikidata": "Q668687", "ref": "8440100107"}, "type": "Feature"}
{"dataset_attributes": {"@spider": "usps_collection_boxes", "spider:collection_time": "2023-08-31T08:24:48.849802"}, "geometry": {"coordinates": [-111.938081, 41.13304], "type": "Point"}, "id": "XKQCdKqrE8kzLOc17uaCYqahxto=", "properties": {"@spider": "usps_collection_boxes", "addr:city": "OGDEN", "addr:country": "US", "addr:full": "1600 E SOUTH WEBER DR", "addr:postcode": "84401", "addr:state": "UT", "amenity": "post_box", "brand": "United States Postal Service", "brand:wikidata": "Q668687", "collection_times": "Mo-Sa 10:00", "name": "USPS COLLECTION BOX - BLUE BOX", "nsi_id": "unitedstatespostalservice-a77078", "operator": "United States Postal Service", "operator:short": "USPS", "operator:type": "public", "operator:wikidata": "Q668687", "ref": "8440100108"}, "type": "Feature"}
{"dataset_attributes": {"@spider": "usps_collection_boxes", "spider:collection_time": "2023-08-31T08:24:48.849802"}, "geometry": {"coordinates": [-111.984779, 41.196548], "type": "Point"}, "id": "W2zMvpR0Sh3l6FOc4lHNjocLirw=", "properties": {"@spider": "usps_collection_boxes", "addr:city": "OGDEN", "addr:country": "US", "addr:full": "3680 PACIFIC AVE", "addr:postcode": "84401", "addr:state": "UT", "amenity": "post_box", "brand": "United States Postal Service", "brand:wikidata": "Q668687", "collection_times": "Mo-Sa 17:00", "name": "USPS COLLECTION BOX - PO LOBBY", "note": "ON 12/24 AND 12/31, THIS BOX MAY BE COLLECTED AS EARLY AS 12 NOON.", "nsi_id": "unitedstatespostalservice-a77078", "operator": "United States Postal Service", "operator:short": "USPS", "operator:type": "public", "operator:wikidata": "Q668687", "ref": "8440100162"}, "type": "Feature"}
{"dataset_attributes": {"@spider": "usps_collection_boxes", "spider:collection_time": "2023-08-31T08:24:48.849802"}, "geometry": {"coordinates": [-111.970004, 41.215473], "type": "Point"}, "id": "jxbBgN6uqkYaj_C8iMWnFAOAux0=", "properties": {"@spider": "usps_collection_boxes", "addr:city": "OGDEN", "addr:country": "US", "addr:full": "2730 WASHINGTON BLVD", "addr:postcode": "84401", "addr:state": "UT", "amenity": "post_box", "brand": "United States Postal Service", "brand:wikidata": "Q668687", "collection_times": "Mo-Fr 17:00; Sa 15:30", "name": "USPS COLLECTION BOX - PO LOBBY", "note": "ON 12/24 AND 12/31, THIS BOX MAY BE COLLECTED AS EARLY AS 12 NOON.", "nsi_id": "unitedstatespostalservice-a77078", "operator": "United States Postal Service", "operator:short": "USPS", "operator:type": "public", "operator:wikidata": "Q668687", "ref": "8440100163"}, "type": "Feature"}
{"dataset_attributes": {"@spider": "usps_collection_boxes", "spider:collection_time": "2023-08-31T08:24:48.849802"}, "geometry": {"coordinates": [-112.017081, 41.217365], "type": "Point"}, "id": "NXDvfl1rb3zD0GTPZRPg2jbofjQ=", "properties": {"@spider": "usps_collection_boxes", "addr:city": "OGDEN", "addr:country": "US", "addr:full": "2693 COMMERCE WAY", "addr:postcode": "84401", "addr:state": "UT", "amenity": "post_box", "brand": "United States Postal Service", "brand:wikidata": "Q668687", "collection_times": "Mo-Sa 12:00", "name": "USPS COLLECTION BOX - BLUE BOX", "nsi_id": "unitedstatespostalservice-a77078", "operator": "United States Postal Service", "operator:short": "USPS", "operator:type": "public", "operator:wikidata": "Q668687", "ref": "8440100166"}, "type": "Feature"}
{"dataset_attributes": {"@spider": "usps_collection_boxes", "spider:collection_time": "2023-08-31T08:24:48.849802"}, "geometry": {"coordinates": [-111.9663861968, 41.1918563792], "type": "Point"}, "id": "sT4sBfgg7xnt3TYk8cG1oIT6M_k=", "properties": {"@spider": "usps_collection_boxes", "addr:city": "OGDEN", "addr:country": "US", "addr:full": "560 39TH ST", "addr:postcode": "84401", "addr:state": "UT", "amenity": "post_box", "brand": "United States Postal Service", "brand:wikidata": "Q668687", "collection_times": "Mo-Sa 12:00", "name": "USPS COLLECTION BOX - BLUE BOX", "nsi_id": "unitedstatespostalservice-a77078", "operator": "United States Postal Service", "operator:short": "USPS", "operator:type": "public", "operator:wikidata": "Q668687", "ref": "8440100178"}, "type": "Feature"}
{"dataset_attributes": {"@spider": "usps_collection_boxes", "spider:collection_time": "2023-08-31T08:24:48.849802"}, "geometry": {"coordinates": [-111.983141, 41.179473], "type": "Point"}, "id": "stGCftD2IGzcuUzAkjAOeZb8xYU=", "properties": {"@spider": "usps_collection_boxes", "addr:city": "OGDEN", "addr:country": "US", "addr:full": "4601 S 300 W", "addr:postcode": "84401", "addr:state": "UT", "amenity": "post_box", "brand": "United States Postal Service", "brand:wikidata": "Q668687", "collection_times": "Mo-Sa 12:00", "name": "USPS COLLECTION BOX - BLUE BOX", "nsi_id": "unitedstatespostalservice-a77078", "operator": "United States Postal Service", "operator:short": "USPS", "operator:type": "public", "operator:wikidata": "Q668687", "ref": "8440100186"}, "type": "Feature"}
{"dataset_attributes": {"@spider": "usps_collection_boxes", "spider:collection_time": "2023-08-31T08:24:48.849802"}, "geometry": {"coordinates": [-111.922725, 41.144098], "type": "Point"}, "id": "nhKBay0hk3KeuDx_m_xanY8Ifo4=", "properties": {"@spider": "usps_collection_boxes", "addr:city": "OGDEN", "addr:country": "US", "addr:full": "2191 E 6550 S", "addr:postcode": "84401", "addr:state": "UT", "amenity": "post_box", "brand": "United States Postal Service", "brand:wikidata": "Q668687", "collection_times": "Mo-Sa 08:45", "name": "USPS COLLECTION BOX - BLUE BOX", "nsi_id": "unitedstatespostalservice-a77078", "operator": "United States Postal Service", "operator:short": "USPS", "operator:type": "public", "operator:wikidata": "Q668687", "ref": "8440100194"}, "type": "Feature"}
{"dataset_attributes": {"@spider": "usps_collection_boxes", "spider:collection_time": "2023-08-31T08:24:48.849802"}, "geometry": {"coordinates": [-111.950784, 41.179099], "type": "Point"}, "id": "M88kMLCmiCQexkIINnkQQT6GEIY=", "properties": {"@spider": "usps_collection_boxes", "addr:city": "OGDEN", "addr:country": "US", "addr:full": "1145 E 4600 S", "addr:postcode": "84401", "addr:state": "UT", "amenity": "post_box", "brand": "United States Postal Service", "brand:wikidata": "Q668687", "collection_times": "Mo-Fr 16:45; Sa 16:30", "name": "USPS COLLECTION BOX - BLUE BOX", "note": "ON 12/24 AND 12/31, THIS BOX MAY BE COLLECTED AS EARLY AS 12 NOON.", "nsi_id": "unitedstatespostalservice-a77078", "operator": "United States Postal Service", "operator:short": "USPS", "operator:type": "public", "operator:wikidata": "Q668687", "ref": "8440100195"}, "type": "Feature"}
{"dataset_attributes": {"@spider": "usps_collection_boxes", "spider:collection_time": "2023-08-31T08:24:48.849802"}, "geometry": {"coordinates": [-111.969853, 41.21544], "type": "Point"}, "id": "RQE7arW8rnBcoEAJ59xhrPgf7WQ=", "properties": {"@spider": "usps_collection_boxes", "addr:city": "OGDEN", "addr:country": "US", "addr:full": "2730 WASHINGTON BLVD", "addr:postcode": "84401", "addr:state": "UT", "amenity": "post_box", "brand": "United States Postal Service", "brand:wikidata": "Q668687", "collection_times": "Mo-Fr 17:00; Sa 15:30", "name": "USPS COLLECTION BOX - PO LOBBY", "note": "ON 12/24 AND 12/31, THIS BOX MAY BE COLLECTED AS EARLY AS 12 NOON.", "nsi_id": "unitedstatespostalservice-a77078", "operator": "United States Postal Service", "operator:short": "USPS", "operator:type": "public", "operator:wikidata": "Q668687", "ref": "8440100197"}, "type": "Feature"}
{"dataset_attributes": {"@spider": "usps_collection_boxes", "spider:collection_time": "2023-08-31T08:24:48.849802"}, "geometry": {"coordinates": [-111.994322, 41.257414], "type": "Point"}, "id": "Av90cSA6zhgjo6hNw7Oe4RRVcU0=", "properties": {"@spider": "usps_collection_boxes", "addr:city": "OGDEN", "addr:country": "US", "addr:full": "712 AMIDAN DR", "addr:postcode": "84401", "addr:state": "UT", "amenity": "post_box", "brand": "United States Postal Service", "brand:wikidata": "Q668687", "collection_times": "Mo-Fr 12:00", "name": "USPS COLLECTION BOX - BLUE BOX", "nsi_id": "unitedstatespostalservice-a77078", "operator": "United States Postal Service", "operator:short": "USPS", "operator:type": "public", "operator:wikidata": "Q668687", "ref": "8440100198"}, "type": "Feature"}
{"dataset_attributes": {"@spider": "usps_collection_boxes", "spider:collection_time": "2023-08-31T08:24:48.849802"}, "geometry": {"coordinates": [-111.969736, 41.246427], "type": "Point"}, "id": "4myA0u3sIi9Am8TLezcEAvNu0Ro=", "properties": {"@spider": "usps_collection_boxes", "addr:city": "OGDEN", "addr:country": "US", "addr:full": "1016 WASHINGTON BLVD", "addr:postcode": "84401", "addr:state": "UT", "amenity": "post_box", "brand": "United States Postal Service", "brand:wikidata": "Q668687", "collection_times": "Mo-Sa 12:00", "name": "USPS COLLECTION BOX - BLUE BOX", "nsi_id": "unitedstatespostalservice-a77078", "operator": "United States Postal Service", "operator:short": "USPS", "operator:type": "public", "operator:wikidata": "Q668687", "ref": "8440100210"}, "type": "Feature"}
{"dataset_attributes": {"@spider": "usps_collection_boxes", "spider:collection_time": "2023-08-31T08:24:48.849802"}, "geometry": {"coordinates": [-111.953156, 41.183046], "type": "Point"}, "id": "M5TsKC6xRZqZaTrXEL1i-u0G-ms=", "properties": {"@spider": "usps_collection_boxes", "addr:city": "OGDEN", "addr:country": "US", "addr:full": "4401 HARRISON BLVD", "addr:postcode": "84401", "addr:state": "UT", "amenity": "post_box", "brand": "United States Postal Service", "brand:wikidata": "Q668687", "collection_times": "Mo-Sa 12:00", "name": "USPS COLLECTION BOX - BLUE BOX", "nsi_id": "unitedstatespostalservice-a77078", "operator": "United States Postal Service", "operator:short": "USPS", "operator:type": "public", "operator:wikidata": "Q668687", "ref": "8440100212"}, "type": "Feature"}
{"dataset_attributes": {"@spider": "usps_collection_boxes", "spider:collection_time": "2023-08-31T08:24:48.849802"}, "geometry": {"coordinates": [-111.970555, 41.226448], "type": "Point"}, "id": "elvTm9JejxscTzkSM3waX819ha4=", "properties": {"@spider": "usps_collection_boxes", "addr:city": "OGDEN", "addr:country": "US", "addr:full": "2225 WASHINGTON BLVD", "addr:postcode": "84401", "addr:state": "UT", "amenity": "post_box", "brand": "United States Postal Service", "brand:wikidata": "Q668687", "collection_times": "Mo-Sa 12:00", "name": "USPS COLLECTION BOX - BLUE BOX", "nsi_id": "unitedstatespostalservice-a77078", "operator": "United States Postal Service", "operator:short": "USPS", "operator:type": "public", "operator:wikidata": "Q668687", "ref": "8440100220"}, "type": "Feature"}
{"dataset_attributes": {"@spider": "usps_collection_boxes", "spider:collection_time": "2023-08-31T08:24:48.849802"}, "geometry": {"coordinates": [-111.971286, 41.168641], "type": "Point"}, "id": "TfUmoFOGrYnK9CUUCjxfs-uhCJw=", "properties": {"@spider": "usps_collection_boxes", "addr:city": "OGDEN", "addr:country": "US", "addr:full": "5249 S POINTE DR", "addr:postcode": "84401", "addr:state": "UT", "amenity": "post_box", "brand": "United States Postal Service", "brand:wikidata": "Q668687", "collection_times": "Mo-Sa 12:00", "name": "USPS COLLECTION BOX - BLUE BOX", "nsi_id": "unitedstatespostalservice-a77078", "operator": "United States Postal Service", "operator:short": "USPS", "operator:type": "public", "operator:wikidata": "Q668687", "ref": "8440100222"}, "type": "Feature"}
{"dataset_attributes": {"@spider": "usps_collection_boxes", "spider:collection_time": "2023-08-31T08:24:48.849802"}, "geometry": {"coordinates": [-111.969693, 41.164501], "type": "Point"}, "id": "MtTxkezZPPjkQCfipe7A8O0flio=", "properties": {"@spider": "usps_collection_boxes", "addr:city": "OGDEN", "addr:country": "US", "addr:full": "5475 S 500 E", "addr:postcode": "84401", "addr:state": "UT", "amenity": "post_box", "brand": "United States Postal Service", "brand:wikidata": "Q668687", "collection_times": "Mo-Sa 12:00", "name": "USPS COLLECTION BOX - BLUE BOX", "nsi_id": "unitedstatespostalservice-a77078", "operator": "United States Postal Service", "operator:short": "USPS", "operator:type": "public", "operator:wikidata": "Q668687", "ref": "8440100224"}, "type": "Feature"}
{"dataset_attributes": {"@spider": "usps_collection_boxes", "spider:collection_time": "2023-08-31T08:24:48.849802"}, "geometry": {"coordinates": [-111.970519828, 41.215796714], "type": "Point"}, "id": "dgO4sF1H2c9T8OJvvC4wT17iRSg=", "properties": {"@spider": "usps_collection_boxes", "addr:city": "OGDEN", "addr:country": "US", "addr:full": "2730 WASHINGTON BLVD", "addr:postcode": "84401", "addr:state": "UT", "amenity": "post_box", "brand": "United States Postal Service", "brand:wikidata": "Q668687", "collection_times": "Mo-Fr 17:00; Sa 15:30", "name": "USPS COLLECTION BOX - PO LOBBY", "note": "ON 12/24 AND 12/31, THIS BOX MAY BE COLLECTED AS EARLY AS 12 NOON.", "nsi_id": "unitedstatespostalservice-a77078", "operator": "United States Postal Service", "operator:short": "USPS", "operator:type": "public", "operator:wikidata": "Q668687", "ref": "8440100225"}, "type": "Feature"}
{"dataset_attributes": {"@spider": "usps_collection_boxes", "spider:collection_time": "2023-08-31T08:24:48.849802"}, "geometry": {"coordinates": [-111.98555357, 41.195960602], "type": "Point"}, "id": "dRr2kMwfU7Isl3gzOjRClSCMT0Y=", "properties": {"@spider": "usps_collection_boxes", "addr:city": "OGDEN", "addr:country": "US", "addr:full": "3680 PACIFIC AVE", "addr:postcode": "84401", "addr:state": "UT", "amenity": "post_box", "brand": "United States Postal Service", "brand:wikidata": "Q668687", "collection_times": "Mo-Sa 17:00", "name": "USPS COLLECTION BOX - PO LOBBY", "note": "ON 12/24 AND 12/31, THIS BOX MAY BE COLLECTED AS EARLY AS 12 NOON.", "nsi_id": "unitedstatespostalservice-a77078", "operator": "United States Postal Service", "operator:short": "USPS", "operator:type": "public", "operator:wikidata": "Q668687", "ref": "8440100226"}, "type": "Feature"}
{"dataset_attributes": {"@spider": "usps_collection_boxes", "spider:collection_time": "2023-08-31T08:24:48.849802"}, "geometry": {"coordinates": [-111.950925, 41.179349], "type": "Point"}, "id": "NDgIHBDtj3heHEKo-FbklElm2U4=", "properties": {"@spider": "usps_collection_boxes", "addr:city": "OGDEN", "addr:country": "US", "addr:full": "1145 E 4600 S", "addr:postcode": "84403", "addr:state": "UT", "amenity": "post_box", "brand": "United States Postal Service", "brand:wikidata": "Q668687", "collection_times": "Mo-Fr 17:00; Sa 16:00", "name": "USPS COLLECTION BOX - APC", "note": "ON 12/24 AND 12/31, THIS BOX MAY BE COLLECTED AS EARLY AS 12 NOON.", "nsi_id": "unitedstatespostalservice-a77078", "operator": "United States Postal Service", "operator:short": "USPS", "operator:type": "public", "operator:wikidata": "Q668687", "ref": "8440300003"}, "type": "Feature"}
{"dataset_attributes": {"@spider": "usps_collection_boxes", "spider:collection_time": "2023-08-31T08:24:48.849802"}, "geometry": {"coordinates": [-111.942781, 41.1585], "type": "Point"}, "id": "lV0KnlLQkvPLmt-S8ALN3RhqryE=", "properties": {"@spider": "usps_collection_boxes", "addr:city": "OGDEN", "addr:country": "US", "addr:full": "5728 S 1475 E", "addr:postcode": "84403", "addr:state": "UT", "amenity": "post_box", "brand": "United States Postal Service", "brand:wikidata": "Q668687", "collection_times": "Mo-Fr 11:00", "name": "USPS COLLECTION BOX - BLUE BOX", "nsi_id": "unitedstatespostalservice-a77078", "operator": "United States Postal Service", "operator:short": "USPS", "operator:type": "public", "operator:wikidata": "Q668687", "ref": "8440300004"}, "type": "Feature"}
{"dataset_attributes": {"@spider": "usps_collection_boxes", "spider:collection_time": "2023-08-31T08:24:48.849802"}, "geometry": {"coordinates": [-111.950925, 41.179349], "type": "Point"}, "id": "Nter6VkoY4yT_6E7U8I0PDAbDdY=", "properties": {"@spider": "usps_collection_boxes", "addr:city": "OGDEN", "addr:country": "US", "addr:full": "1145 E 4600 S", "addr:postcode": "84403", "addr:state": "UT", "amenity": "post_box", "brand": "United States Postal Service", "brand:wikidata": "Q668687", "collection_times": "Mo-Fr 17:00; Sa 16:00", "name": "USPS COLLECTION BOX - PO LOBBY", "note": "ON 12/24 AND 12/31, THIS BOX MAY BE COLLECTED AS EARLY AS 12 NOON.", "nsi_id": "unitedstatespostalservice-a77078", "operator": "United States Postal Service", "operator:short": "USPS", "operator:type": "public", "operator:wikidata": "Q668687", "ref": "8440300005"}, "type": "Feature"}
{"dataset_attributes": {"@spider": "usps_collection_boxes", "spider:collection_time": "2023-08-31T08:24:48.849802"}, "geometry": {"coordinates": [-111.950925, 41.179349], "type": "Point"}, "id": "PRsu2f2NKvCpVVGHEUlwY5LSRjA=", "properties": {"@spider": "usps_collection_boxes", "addr:city": "OGDEN", "addr:country": "US", "addr:full": "1145 E 4600 S", "addr:postcode": "84403", "addr:state": "UT", "amenity": "post_box", "brand": "United States Postal Service", "brand:wikidata": "Q668687", "collection_times": "Mo-Fr 17:00; Sa 16:00", "name": "USPS COLLECTION BOX - PO LOBBY", "note": "ON 12/24 AND 12/31, THIS BOX MAY BE COLLECTED AS EARLY AS 12 NOON.", "nsi_id": "unitedstatespostalservice-a77078", "operator": "United States Postal Service", "operator:short": "USPS", "operator:type": "public", "operator:wikidata": "Q668687", "ref": "8440300007"}, "type": "Feature"}
{"dataset_attributes": {"@spider": "usps_collection_boxes", "spider:collection_time": "2023-08-31T08:24:48.849802"}, "geometry": {"coordinates": [-111.951245216, 41.179249258], "type": "Point"}, "id": "wr0mNqFcju6JcedakP7v_ufP1as=", "properties": {"@spider": "usps_collection_boxes", "addr:city": "OGDEN", "addr:country": "US", "addr:full": "1145 E 4600 S", "addr:postcode": "84403", "addr:state": "UT", "amenity": "post_box", "brand": "United States Postal Service", "brand:wikidata": "Q668687", "collection_times": "Mo-Fr 17:00; Sa 16:00", "name": "USPS COLLECTION BOX - PO LOBBY", "note": "ON 12/24 AND 12/31, THIS BOX MAY BE COLLECTED AS EARLY AS 12 NOON.", "nsi_id": "unitedstatespostalservice-a77078", "operator": "United States Postal Service", "operator:short": "USPS", "operator:type": "public", "operator:wikidata": "Q668687", "ref": "8440300011"}, "type": "Feature"}
{"dataset_attributes": {"@spider": "usps_collection_boxes", "spider:collection_time": "2023-08-31T08:24:48.849802"}, "geometry": {"coordinates": [-111.970388, 41.263609], "type": "Point"}, "id": "ZegDkFTX1aRJ5t7QKhvTtz8OBmU=", "properties": {"@spider": "usps_collection_boxes", "addr:city": "OGDEN", "addr:country": "US", "addr:full": "221 N WASHINGTON BLVD", "addr:postcode": "84404", "addr:state": "UT", "amenity": "post_box", "brand": "United States Postal Service", "brand:wikidata": "Q668687", "collection_times": "Mo-Fr 17:00; Sa 16:00", "name": "USPS COLLECTION BOX - APC", "note": "ON 12/24 AND 12/31, THIS BOX MAY BE COLLECTED AS EARLY AS 12 NOON.", "nsi_id": "unitedstatespostalservice-a77078", "operator": "United States Postal Service", "operator:short": "USPS", "operator:type": "public", "operator:wikidata": "Q668687", "ref": "8440400001"}, "type": "Feature"}
{"dataset_attributes": {"@spider": "usps_collection_boxes", "spider:collection_time": "2023-08-31T08:24:48.849802"}, "geometry": {"coordinates": [-111.970442, 41.263632], "type": "Point"}, "id": "P3YKAqcZ-tmKnwDATAUJJ6PDPyg=", "properties": {"@spider": "usps_collection_boxes", "addr:city": "OGDEN", "addr:country": "US", "addr:full": "221 N WASHINGTON BLVD", "addr:postcode": "84404", "addr:state": "UT", "amenity": "post_box", "brand": "United States Postal Service", "brand:wikidata": "Q668687", "collection_times": "Mo-Fr 17:00; Sa 16:00", "name": "USPS COLLECTION BOX - PO LOBBY", "note": "ON 12/24 AND 12/31, THIS BOX MAY BE COLLECTED AS EARLY AS 12 NOON.", "nsi_id": "unitedstatespostalservice-a77078", "operator": "United States Postal Service", "operator:short": "USPS", "operator:type": "public", "operator:wikidata": "Q668687", "ref": "8440400002"}, "type": "Feature"}
{"dataset_attributes": {"@spider": "usps_collection_boxes", "spider:collection_time": "2023-08-31T08:24:48.849802"}, "geometry": {"coordinates": [-112.079538, 41.297956], "type": "Point"}, "id": "N40G-x3-1DFrHMks0_Cv6kYfzL0=", "properties": {"@spider": "usps_collection_boxes", "addr:city": "OGDEN", "addr:country": "US", "addr:full": "4160 W 2200 N", "addr:postcode": "84404", "addr:state": "UT", "amenity": "post_box", "brand": "United States Postal Service", "brand:wikidata": "Q668687", "collection_times": "Mo-Sa 11:00", "name": "USPS COLLECTION BOX - BLUE BOX", "nsi_id": "unitedstatespostalservice-a77078", "operator": "United States Postal Service", "operator:short": "USPS", "operator:type": "public", "operator:wikidata": "Q668687", "ref": "8440400004"}, "type": "Feature"}
{"dataset_attributes": {"@spider": "usps_collection_boxes", "spider:collection_time": "2023-08-31T08:24:48.849802"}, "geometry": {"coordinates": [-112.027595, 41.296669], "type": "Point"}, "id": "YhrI3zr3jLrAtxbaBh4x5-M7OA8=", "properties": {"@spider": "usps_collection_boxes", "addr:city": "OGDEN", "addr:country": "US", "addr:full": "2090 N 2000 W", "addr:postcode": "84404", "addr:state": "UT", "amenity": "post_box", "brand": "United States Postal Service", "brand:wikidata": "Q668687", "collection_times": "Mo-Sa 12:00", "name": "USPS COLLECTION BOX - BLUE BOX", "nsi_id": "unitedstatespostalservice-a77078", "operator": "United States Postal Service", "operator:short": "USPS", "operator:type": "public", "operator:wikidata": "Q668687", "ref": "8440400005"}, "type": "Feature"}
{"dataset_attributes": {"@spider": "usps_collection_boxes", "spider:collection_time": "2023-08-31T08:24:48.849802"}, "geometry": {"coordinates": [-111.969628316, 41.263481101], "type": "Point"}, "id": "-wl_4PpmL0HTJ8FbEQ4CDcH-95c=", "properties": {"@spider": "usps_collection_boxes", "addr:city": "OGDEN", "addr:country": "US", "addr:full": "221 N WASHINGTON BLVD", "addr:postcode": "84404", "addr:state": "UT", "amenity": "post_box", "brand": "United States Postal Service", "brand:wikidata": "Q668687", "collection_times": "Mo-Fr 17:00; Sa 16:00", "name": "USPS COLLECTION BOX - PO LOBBY", "note": "ON 12/24 AND 12/31, THIS BOX MAY BE COLLECTED AS EARLY AS 12 NOON.", "nsi_id": "unitedstatespostalservice-a77078", "operator": "United States Postal Service", "operator:short": "USPS", "operator:type": "public", "operator:wikidata": "Q668687", "ref": "8440400007"}, "type": "Feature"}
{"dataset_attributes": {"@spider": "usps_collection_boxes", "spider:collection_time": "2023-08-31T08:24:48.849802"}, "geometry": {"coordinates": [-111.988392, 41.320203], "type": "Point"}, "id": "1F4cwnjVQ0llnDmi1gCPeBCswN0=", "properties": {"@spider": "usps_collection_boxes", "addr:city": "OGDEN", "addr:country": "US", "addr:full": "3311 N 500 W", "addr:postcode": "84414", "addr:state": "UT", "amenity": "post_box", "brand": "United States Postal Service", "brand:wikidata": "Q668687", "collection_times": "Mo-Sa 12:00", "name": "USPS COLLECTION BOX - BLUE BOX", "nsi_id": "unitedstatespostalservice-a77078", "operator": "United States Postal Service", "operator:short": "USPS", "operator:type": "public", "operator:wikidata": "Q668687", "ref": "8441400002"}, "type": "Feature"}
{"dataset_attributes": {"@spider": "usps_collection_boxes", "spider:collection_time": "2023-08-31T08:24:48.849802"}, "geometry": {"coordinates": [-111.964737, 41.305727], "type": "Point"}, "id": "HOSLOKUKvM2W7XFXqp6iuzsn67Y=", "properties": {"@spider": "usps_collection_boxes", "addr:city": "OGDEN", "addr:country": "US", "addr:full": "505 E 2600 N", "addr:postcode": "84414", "addr:state": "UT", "amenity": "post_box", "brand": "United States Postal Service", "brand:wikidata": "Q668687", "collection_times": "Mo-Sa 12:00", "name": "USPS COLLECTION BOX - BLUE BOX", "nsi_id": "unitedstatespostalservice-a77078", "operator": "United States Postal Service", "operator:short": "USPS", "operator:type": "public", "operator:wikidata": "Q668687", "ref": "8441400004"}, "type": "Feature"}
