{"dataset_attributes": {"@spider": "usps_collection_boxes", "spider:collection_time": "2023-11-07T08:25:32.615229"}, "geometry": {"coordinates": [-110.811213, 39.598223], "type": "Point"}, "id": "3MmNpAOQpleL3FGDNTptc89qdEU=", "properties": {"@spider": "usps_collection_boxes", "addr:city": "PRICE", "addr:country": "US", "addr:full": "95 S CARBON AVE", "addr:postcode": "84501", "addr:state": "UT", "amenity": "post_box", "brand": "United States Postal Service", "brand:wikidata": "Q668687", "collection_times": "Mo-Fr 17:00; Sa 12:00", "name": "USPS COLLECTION BOX - BLUE BOX", "note": "ON 12/24 AND 12/31, THIS BOX MAY BE COLLECTED AS EARLY AS 12 NOON.", "nsi_id": "unitedstatespostalservice-a77078", "operator": "United States Postal Service", "operator:short": "USPS", "operator:type": "public", "operator:wikidata": "Q668687", "ref": "8450100001"}, "type": "Feature"}
{"dataset_attributes": {"@spider": "usps_collection_boxes", "spider:collection_time": "2023-11-07T08:25:32.615229"}, "geometry": {"coordinates": [-110.811249, 39.598147], "type": "Point"}, "id": "ILxJ1C4FrqIMduQ9JbOjGTPBxrQ=", "properties": {"@spider": "usps_collection_boxes", "addr:city": "PRICE", "addr:country": "US", "addr:full": "95 S CARBON AVE", "addr:postcode": "84501", "addr:state": "UT", "amenity": "post_box", "brand": "United States Postal Service", "brand:wikidata": "Q668687", "collection_times": "Mo-Fr 17:00; Sa 12:00", "name": "USPS COLLECTION BOX - BLUE BOX", "note": "ON 12/24 AND 12/31, THIS BOX MAY BE COLLECTED AS EARLY AS 12 NOON.", "nsi_id": "unitedstatespostalservice-a77078", "operator": "United States Postal Service", "operator:short": "USPS", "operator:type": "public", "operator:wikidata": "Q668687", "ref": "8450100002"}, "type": "Feature"}
{"dataset_attributes": {"@spider": "usps_collection_boxes", "spider:collection_time": "2023-11-07T08:25:32.615229"}, "geometry": {"coordinates": [-110.811249, 39.598147], "type": "Point"}, "id": "SYSYsfOACNVoXeZRg_uzroAusPo=", "properties": {"@spider": "usps_collection_boxes", "addr:city": "PRICE", "addr:country": "US", "addr:full": "95 S CARBON AVE", "addr:postcode": "84501", "addr:state": "UT", "amenity": "post_box", "brand": "United States Postal Service", "brand:wikidata": "Q668687", "collection_times": "Mo-Fr 17:00; Sa 12:00", "name": "USPS COLLECTION BOX - BLUE BOX", "note": "ON 12/24 AND 12/31, THIS BOX MAY BE COLLECTED AS EARLY AS 12 NOON.", "nsi_id": "unitedstatespostalservice-a77078", "operator": "United States Postal Service", "operator:short": "USPS", "operator:type": "public", "operator:wikidata": "Q668687", "ref": "8450100003"}, "type": "Feature"}
{"dataset_attributes": {"@spider": "usps_collection_boxes", "spider:collection_time": "2023-11-07T08:25:32.615229"}, "geometry": {"coordinates": [-110.793855, 39.598957], "type": "Point"}, "id": "AxNwDMClWVdujcFjhFsaCnR0-Kw=", "properties": {"@spider": "usps_collection_boxes", "addr:city": "PRICE", "addr:country": "US", "addr:full": "979 E MAIN ST", "addr:postcode": "84501", "addr:state": "UT", "amenity": "post_box", "brand": "United States Postal Service", "brand:wikidata": "Q668687", "collection_times": "Mo-Sa 09:45", "name": "USPS COLLECTION BOX - BLUE BOX", "nsi_id": "unitedstatespostalservice-a77078", "operator": "United States Postal Service", "operator:short": "USPS", "operator:type": "public", "operator:wikidata": "Q668687", "ref": "8450100006"}, "type": "Feature"}
{"dataset_attributes": {"@spider": "usps_collection_boxes", "spider:collection_time": "2023-11-07T08:25:32.615229"}, "geometry": {"coordinates": [-110.803262, 39.600924], "type": "Point"}, "id": "fh0sqwHH3cqc5Q3vBmvAhyJh8Kc=", "properties": {"@spider": "usps_collection_boxes", "addr:city": "PRICE", "addr:country": "US", "addr:full": "406 E 100 N", "addr:postcode": "84501", "addr:state": "UT", "amenity": "post_box", "brand": "United States Postal Service", "brand:wikidata": "Q668687", "collection_times": "Mo-Sa 10:15", "name": "USPS COLLECTION BOX - BLUE BOX", "nsi_id": "unitedstatespostalservice-a77078", "operator": "United States Postal Service", "operator:short": "USPS", "operator:type": "public", "operator:wikidata": "Q668687", "ref": "8450100007"}, "type": "Feature"}
{"dataset_attributes": {"@spider": "usps_collection_boxes", "spider:collection_time": "2023-11-07T08:25:32.615229"}, "geometry": {"coordinates": [-110.807202, 39.599776], "type": "Point"}, "id": "A2zvOpKNEhmyiBTIkMulcx5Y-50=", "properties": {"@spider": "usps_collection_boxes", "addr:city": "PRICE", "addr:country": "US", "addr:full": "10 N 200 E", "addr:postcode": "84501", "addr:state": "UT", "amenity": "post_box", "brand": "United States Postal Service", "brand:wikidata": "Q668687", "collection_times": "Mo-Sa 11:00", "name": "USPS COLLECTION BOX - BLUE BOX", "nsi_id": "unitedstatespostalservice-a77078", "operator": "United States Postal Service", "operator:short": "USPS", "operator:type": "public", "operator:wikidata": "Q668687", "ref": "8450100018"}, "type": "Feature"}
{"dataset_attributes": {"@spider": "usps_collection_boxes", "spider:collection_time": "2023-11-07T08:25:32.615229"}, "geometry": {"coordinates": [-110.811249, 39.598147], "type": "Point"}, "id": "LfX_73M71sLGAG52N4bbX2b1Bgs=", "properties": {"@spider": "usps_collection_boxes", "addr:city": "PRICE", "addr:country": "US", "addr:full": "95 S CARBON AVE", "addr:postcode": "84501", "addr:state": "UT", "amenity": "post_box", "brand": "United States Postal Service", "brand:wikidata": "Q668687", "collection_times": "Mo-Fr 17:00; Sa 13:30", "name": "USPS COLLECTION BOX - PO LOBBY", "note": "ON 12/24 AND 12/31, THIS BOX MAY BE COLLECTED AS EARLY AS 12 NOON.", "nsi_id": "unitedstatespostalservice-a77078", "operator": "United States Postal Service", "operator:short": "USPS", "operator:type": "public", "operator:wikidata": "Q668687", "ref": "8450100019"}, "type": "Feature"}
{"dataset_attributes": {"@spider": "usps_collection_boxes", "spider:collection_time": "2023-11-07T08:25:32.615229"}, "geometry": {"coordinates": [-110.811249, 39.598147], "type": "Point"}, "id": "qWcUJQQKt3Z23mouckdieOGAL4s=", "properties": {"@spider": "usps_collection_boxes", "addr:city": "PRICE", "addr:country": "US", "addr:full": "95 S CARBON AVE", "addr:postcode": "84501", "addr:state": "UT", "amenity": "post_box", "brand": "United States Postal Service", "brand:wikidata": "Q668687", "collection_times": "Mo-Fr 17:00; Sa 13:30", "name": "USPS COLLECTION BOX - PO LOBBY", "note": "ON 12/24 AND 12/31, THIS BOX MAY BE COLLECTED AS EARLY AS 12 NOON.", "nsi_id": "unitedstatespostalservice-a77078", "operator": "United States Postal Service", "operator:short": "USPS", "operator:type": "public", "operator:wikidata": "Q668687", "ref": "8450100020"}, "type": "Feature"}
{"dataset_attributes": {"@spider": "usps_collection_boxes", "spider:collection_time": "2023-11-07T08:25:32.615229"}, "geometry": {"coordinates": [-110.811214851, 39.598361413], "type": "Point"}, "id": "MwTlmQhH-BZUtRrvKmVnwT64HqU=", "properties": {"@spider": "usps_collection_boxes", "addr:city": "PRICE", "addr:country": "US", "addr:full": "95 S CARBON AVE", "addr:postcode": "84501", "addr:state": "UT", "amenity": "post_box", "brand": "United States Postal Service", "brand:wikidata": "Q668687", "collection_times": "Mo-Fr 17:00; Sa 13:30", "name": "USPS COLLECTION BOX - PO LOBBY", "note": "ON 12/24 AND 12/31, THIS BOX MAY BE COLLECTED AS EARLY AS 12 NOON.", "nsi_id": "unitedstatespostalservice-a77078", "operator": "United States Postal Service", "operator:short": "USPS", "operator:type": "public", "operator:wikidata": "Q668687", "ref": "8450100022"}, "type": "Feature"}
{"dataset_attributes": {"@spider": "usps_collection_boxes", "spider:collection_time": "2023-11-07T08:25:32.615229"}, "geometry": {"coordinates": [-109.47798, 37.626733], "type": "Point"}, "id": "YJkwpR3CY9NyRHGqSzRHRD47zNI=", "properties": {"@spider": "usps_collection_boxes", "addr:city": "BLANDING", "addr:country": "US", "addr:full": "90 N MAIN ST", "addr:postcode": "84511", "addr:state": "UT", "amenity": "post_box", "brand": "United States Postal Service", "brand:wikidata": "Q668687", "collection_times": "Mo-Sa 14:35", "name": "USPS COLLECTION BOX - BLUE BOX", "note": "ON 12/24 AND 12/31, THIS BOX MAY BE COLLECTED AS EARLY AS 12 NOON.", "nsi_id": "unitedstatespostalservice-a77078", "operator": "United States Postal Service", "operator:short": "USPS", "operator:type": "public", "operator:wikidata": "Q668687", "ref": "8451100001"}, "type": "Feature"}
{"dataset_attributes": {"@spider": "usps_collection_boxes", "spider:collection_time": "2023-11-07T08:25:32.615229"}, "geometry": {"coordinates": [-109.47798, 37.626733], "type": "Point"}, "id": "xCKz4f4bHafnJWRd_fxHmTa7IiI=", "properties": {"@spider": "usps_collection_boxes", "addr:city": "BLANDING", "addr:country": "US", "addr:full": "90 N MAIN ST", "addr:postcode": "84511", "addr:state": "UT", "amenity": "post_box", "brand": "United States Postal Service", "brand:wikidata": "Q668687", "collection_times": "Mo-Sa 14:35", "name": "USPS COLLECTION BOX - PO LOBBY", "note": "ON 12/24 AND 12/31, THIS BOX MAY BE COLLECTED AS EARLY AS 12 NOON.", "nsi_id": "unitedstatespostalservice-a77078", "operator": "United States Postal Service", "operator:short": "USPS", "operator:type": "public", "operator:wikidata": "Q668687", "ref": "8451100002"}, "type": "Feature"}
{"dataset_attributes": {"@spider": "usps_collection_boxes", "spider:collection_time": "2023-11-07T08:25:32.615229"}, "geometry": {"coordinates": [-109.477998802, 37.626686361], "type": "Point"}, "id": "FJhHDGT7y_w0I2oYX8o194C9u1w=", "properties": {"@spider": "usps_collection_boxes", "addr:city": "BLANDING", "addr:country": "US", "addr:full": "90 N MAIN ST", "addr:postcode": "84511", "addr:state": "UT", "amenity": "post_box", "brand": "United States Postal Service", "brand:wikidata": "Q668687", "collection_times": "Mo-Sa 14:30", "name": "USPS COLLECTION BOX - PO LOBBY", "note": "ON 12/24 AND 12/31, THIS BOX MAY BE COLLECTED AS EARLY AS 12 NOON.", "nsi_id": "unitedstatespostalservice-a77078", "operator": "United States Postal Service", "operator:short": "USPS", "operator:type": "public", "operator:wikidata": "Q668687", "ref": "8451100003"}, "type": "Feature"}
{"dataset_attributes": {"@spider": "usps_collection_boxes", "spider:collection_time": "2023-11-07T08:25:32.615229"}, "geometry": {"coordinates": [-109.5537102444, 37.2837791114], "type": "Point"}, "id": "cEwVZw-BDyk_TsHj1xT1ynWp1iw=", "properties": {"@spider": "usps_collection_boxes", "addr:city": "BLUFF", "addr:country": "US", "addr:full": "55 N 500 E", "addr:postcode": "84512", "addr:state": "UT", "amenity": "post_box", "brand": "United States Postal Service", "brand:wikidata": "Q668687", "collection_times": "Mo-Fr 12:15; Sa 11:45", "name": "USPS COLLECTION BOX - BLUE BOX", "note": "ON 12/24 AND 12/31, THIS BOX MAY BE COLLECTED AS EARLY AS 12 NOON.", "nsi_id": "unitedstatespostalservice-a77078", "operator": "United States Postal Service", "operator:short": "USPS", "operator:type": "public", "operator:wikidata": "Q668687", "ref": "8451200001"}, "type": "Feature"}
{"dataset_attributes": {"@spider": "usps_collection_boxes", "spider:collection_time": "2023-11-07T08:25:32.615229"}, "geometry": {"coordinates": [-109.5537102444, 37.2837791114], "type": "Point"}, "id": "LjuEpPzbqLHul6pIj_-b2KPqMN8=", "properties": {"@spider": "usps_collection_boxes", "addr:city": "BLUFF", "addr:country": "US", "addr:full": "55 N 500 E", "addr:postcode": "84512", "addr:state": "UT", "amenity": "post_box", "brand": "United States Postal Service", "brand:wikidata": "Q668687", "collection_times": "Mo-Fr 12:15; Sa 12:00", "name": "USPS COLLECTION BOX - PO LOBBY", "note": "ON 12/24 AND 12/31, THIS BOX MAY BE COLLECTED AS EARLY AS 12 NOON.", "nsi_id": "unitedstatespostalservice-a77078", "operator": "United States Postal Service", "operator:short": "USPS", "operator:type": "public", "operator:wikidata": "Q668687", "ref": "8451200002"}, "type": "Feature"}
{"dataset_attributes": {"@spider": "usps_collection_boxes", "spider:collection_time": "2023-11-07T08:25:32.615229"}, "geometry": {"coordinates": [-109.5537102444, 37.2837791114], "type": "Point"}, "id": "pGqMovEvKrreK7VIRq-hS8QRdaU=", "properties": {"@spider": "usps_collection_boxes", "addr:city": "BLUFF", "addr:country": "US", "addr:full": "55 N 500 E", "addr:postcode": "84512", "addr:state": "UT", "amenity": "post_box", "brand": "United States Postal Service", "brand:wikidata": "Q668687", "collection_times": "Mo-Fr 12:15; Sa 12:00", "name": "USPS COLLECTION BOX - PO LOBBY", "note": "ON 12/24 AND 12/31, THIS BOX MAY BE COLLECTED AS EARLY AS 12 NOON.", "nsi_id": "unitedstatespostalservice-a77078", "operator": "United States Postal Service", "operator:short": "USPS", "operator:type": "public", "operator:wikidata": "Q668687", "ref": "8451200003"}, "type": "Feature"}
{"dataset_attributes": {"@spider": "usps_collection_boxes", "spider:collection_time": "2023-11-07T08:25:32.615229"}, "geometry": {"coordinates": [-109.5537102444, 37.2837791114], "type": "Point"}, "id": "P3ikaXLM3ZfZn-niUMkEjATqf8A=", "properties": {"@spider": "usps_collection_boxes", "addr:city": "BLUFF", "addr:country": "US", "addr:full": "55 N 500 E", "addr:postcode": "84512", "addr:state": "UT", "amenity": "post_box", "brand": "United States Postal Service", "brand:wikidata": "Q668687", "collection_times": "Mo-Fr 12:15; Sa 12:00", "name": "USPS COLLECTION BOX - PO LOBBY", "note": "ON 12/24 AND 12/31, THIS BOX MAY BE COLLECTED AS EARLY AS 12 NOON.", "nsi_id": "unitedstatespostalservice-a77078", "operator": "United States Postal Service", "operator:short": "USPS", "operator:type": "public", "operator:wikidata": "Q668687", "ref": "8451200004"}, "type": "Feature"}
{"dataset_attributes": {"@spider": "usps_collection_boxes", "spider:collection_time": "2023-11-07T08:25:32.615229"}, "geometry": {"coordinates": [-111.019608, 39.210915], "type": "Point"}, "id": "7-GEIW_ngIRxAWOMWgZK_rqQZVI=", "properties": {"@spider": "usps_collection_boxes", "addr:city": "CASTLE DALE", "addr:country": "US", "addr:full": "55 S CENTER ST", "addr:postcode": "84513", "addr:state": "UT", "amenity": "post_box", "brand": "United States Postal Service", "brand:wikidata": "Q668687", "collection_times": "Mo-Fr 16:15; Sa 11:15", "name": "USPS COLLECTION BOX - BLUE BOX", "note": "ON 12/24 AND 12/31, THIS BOX MAY BE COLLECTED AS EARLY AS 12 NOON.", "nsi_id": "unitedstatespostalservice-a77078", "operator": "United States Postal Service", "operator:short": "USPS", "operator:type": "public", "operator:wikidata": "Q668687", "ref": "8451300001"}, "type": "Feature"}
{"dataset_attributes": {"@spider": "usps_collection_boxes", "spider:collection_time": "2023-11-07T08:25:32.615229"}, "geometry": {"coordinates": [-111.019643, 39.210906], "type": "Point"}, "id": "5QpPu_v5trLtcP_eR4mdEkSbHbQ=", "properties": {"@spider": "usps_collection_boxes", "addr:city": "CASTLE DALE", "addr:country": "US", "addr:full": "55 S CENTER ST", "addr:postcode": "84513", "addr:state": "UT", "amenity": "post_box", "brand": "United States Postal Service", "brand:wikidata": "Q668687", "collection_times": "Mo-Fr 16:15; Sa 11:15", "name": "USPS COLLECTION BOX - PO LOBBY", "note": "ON 12/24 AND 12/31, THIS BOX MAY BE COLLECTED AS EARLY AS 12 NOON.", "nsi_id": "unitedstatespostalservice-a77078", "operator": "United States Postal Service", "operator:short": "USPS", "operator:type": "public", "operator:wikidata": "Q668687", "ref": "8451300002"}, "type": "Feature"}
{"dataset_attributes": {"@spider": "usps_collection_boxes", "spider:collection_time": "2023-11-07T08:25:32.615229"}, "geometry": {"coordinates": [-111.019643, 39.210906], "type": "Point"}, "id": "_ew5so3iadw3K3PFpbpNlvLwS0c=", "properties": {"@spider": "usps_collection_boxes", "addr:city": "CASTLE DALE", "addr:country": "US", "addr:full": "55 S CENTER ST", "addr:postcode": "84513", "addr:state": "UT", "amenity": "post_box", "brand": "United States Postal Service", "brand:wikidata": "Q668687", "collection_times": "Mo-Fr 16:15; Sa 11:15", "name": "USPS COLLECTION BOX - PO LOBBY", "note": "ON 12/24 AND 12/31, THIS BOX MAY BE COLLECTED AS EARLY AS 12 NOON.", "nsi_id": "unitedstatespostalservice-a77078", "operator": "United States Postal Service", "operator:short": "USPS", "operator:type": "public", "operator:wikidata": "Q668687", "ref": "8451300003"}, "type": "Feature"}
{"dataset_attributes": {"@spider": "usps_collection_boxes", "spider:collection_time": "2023-11-07T08:25:32.615229"}, "geometry": {"coordinates": [-111.019604566, 39.21087578], "type": "Point"}, "id": "pUp13s4Wc_kUPuttb8acn_Z70wg=", "properties": {"@spider": "usps_collection_boxes", "addr:city": "CASTLE DALE", "addr:country": "US", "addr:full": "55 S CENTER ST", "addr:postcode": "84513", "addr:state": "UT", "amenity": "post_box", "brand": "United States Postal Service", "brand:wikidata": "Q668687", "collection_times": "Mo-Fr 16:15; Sa 11:15", "name": "USPS COLLECTION BOX - PO LOBBY", "note": "ON 12/24 AND 12/31, THIS BOX MAY BE COLLECTED AS EARLY AS 12 NOON.", "nsi_id": "unitedstatespostalservice-a77078", "operator": "United States Postal Service", "operator:short": "USPS", "operator:type": "public", "operator:wikidata": "Q668687", "ref": "8451300004"}, "type": "Feature"}
{"dataset_attributes": {"@spider": "usps_collection_boxes", "spider:collection_time": "2023-11-07T08:25:32.615229"}, "geometry": {"coordinates": [-111.097036, 39.132101], "type": "Point"}, "id": "_38MqsiWVjr8Xrk2Mfo5QnonOL0=", "properties": {"@spider": "usps_collection_boxes", "addr:city": "CLAWSON", "addr:country": "US", "addr:full": "10 S MAIN ST", "addr:postcode": "84516", "addr:state": "UT", "amenity": "post_box", "brand": "United States Postal Service", "brand:wikidata": "Q668687", "collection_times": "Mo-Fr 13:45", "name": "USPS COLLECTION BOX - BLUE BOX", "note": "ON 12/24 AND 12/31, THIS BOX MAY BE COLLECTED AS EARLY AS 12 NOON.", "nsi_id": "unitedstatespostalservice-a77078", "operator": "United States Postal Service", "operator:short": "USPS", "operator:type": "public", "operator:wikidata": "Q668687", "ref": "8451600000"}, "type": "Feature"}
{"dataset_attributes": {"@spider": "usps_collection_boxes", "spider:collection_time": "2023-11-07T08:25:32.615229"}, "geometry": {"coordinates": [-110.857511, 39.348806], "type": "Point"}, "id": "qf8r_Uldnr4jhR4qC6mnTF0yCM8=", "properties": {"@spider": "usps_collection_boxes", "addr:city": "CLEVELAND", "addr:country": "US", "addr:full": "290 W MAIN ST", "addr:postcode": "84518", "addr:state": "UT", "amenity": "post_box", "brand": "United States Postal Service", "brand:wikidata": "Q668687", "collection_times": "Mo-Fr 16:30; Sa 10:30", "name": "USPS COLLECTION BOX - BLUE BOX", "note": "ON 12/24 AND 12/31, THIS BOX MAY BE COLLECTED AS EARLY AS 12 NOON.", "nsi_id": "unitedstatespostalservice-a77078", "operator": "United States Postal Service", "operator:short": "USPS", "operator:type": "public", "operator:wikidata": "Q668687", "ref": "8451800000"}, "type": "Feature"}
{"dataset_attributes": {"@spider": "usps_collection_boxes", "spider:collection_time": "2023-11-07T08:25:32.615229"}, "geometry": {"coordinates": [-110.857783, 39.348635], "type": "Point"}, "id": "DiBVYRBJCmZRRmOsat556VW0sNU=", "properties": {"@spider": "usps_collection_boxes", "addr:city": "CLEVELAND", "addr:country": "US", "addr:full": "290 W MAIN ST", "addr:postcode": "84518", "addr:state": "UT", "amenity": "post_box", "brand": "United States Postal Service", "brand:wikidata": "Q668687", "collection_times": "Mo-Fr 11:45; Sa 10:30", "name": "USPS COLLECTION BOX - PO LOBBY", "nsi_id": "unitedstatespostalservice-a77078", "operator": "United States Postal Service", "operator:short": "USPS", "operator:type": "public", "operator:wikidata": "Q668687", "ref": "8451800001"}, "type": "Feature"}
{"dataset_attributes": {"@spider": "usps_collection_boxes", "spider:collection_time": "2023-11-07T08:25:32.615229"}, "geometry": {"coordinates": [-110.857472361, 39.348666512], "type": "Point"}, "id": "lkiDGIA0EmkDlNH362o-B5u89iQ=", "properties": {"@spider": "usps_collection_boxes", "addr:city": "CLEVELAND", "addr:country": "US", "addr:full": "290 W MAIN ST", "addr:postcode": "84518", "addr:state": "UT", "amenity": "post_box", "brand": "United States Postal Service", "brand:wikidata": "Q668687", "collection_times": "Mo-Fr 11:45; Sa 10:30", "name": "USPS COLLECTION BOX - PO LOBBY", "nsi_id": "unitedstatespostalservice-a77078", "operator": "United States Postal Service", "operator:short": "USPS", "operator:type": "public", "operator:wikidata": "Q668687", "ref": "8451800002"}, "type": "Feature"}
{"dataset_attributes": {"@spider": "usps_collection_boxes", "spider:collection_time": "2023-11-07T08:25:32.615229"}, "geometry": {"coordinates": [-110.421068, 39.543165], "type": "Point"}, "id": "iS46n9r6ryFTO-JwlCHg8Yekzvg=", "properties": {"@spider": "usps_collection_boxes", "addr:city": "EAST CARBON", "addr:country": "US", "addr:full": "109 W WHITMORE DR", "addr:postcode": "84520", "addr:state": "UT", "amenity": "post_box", "brand": "United States Postal Service", "brand:wikidata": "Q668687", "collection_times": "Mo-Fr 16:30; Sa 13:00", "name": "USPS COLLECTION BOX - BLUE BOX", "note": "ON 12/24 AND 12/31, THIS BOX MAY BE COLLECTED AS EARLY AS 12 NOON.", "nsi_id": "unitedstatespostalservice-a77078", "operator": "United States Postal Service", "operator:short": "USPS", "operator:type": "public", "operator:wikidata": "Q668687", "ref": "8452000000"}, "type": "Feature"}
{"dataset_attributes": {"@spider": "usps_collection_boxes", "spider:collection_time": "2023-11-07T08:25:32.615229"}, "geometry": {"coordinates": [-110.4160377584, 39.5436070258], "type": "Point"}, "id": "h8-JZRPvunbuC3BM-x2U2rvWOVE=", "properties": {"@spider": "usps_collection_boxes", "addr:city": "EAST CARBON", "addr:country": "US", "addr:full": "109 W WHITMORE DR", "addr:postcode": "84520", "addr:state": "UT", "amenity": "post_box", "brand": "United States Postal Service", "brand:wikidata": "Q668687", "collection_times": "Mo-Fr 16:45; Sa 11:00", "name": "USPS COLLECTION BOX - PO LOBBY", "note": "ON 12/24 AND 12/31, THIS BOX MAY BE COLLECTED AS EARLY AS 12 NOON.", "nsi_id": "unitedstatespostalservice-a77078", "operator": "United States Postal Service", "operator:short": "USPS", "operator:type": "public", "operator:wikidata": "Q668687", "ref": "8452000001"}, "type": "Feature"}
{"dataset_attributes": {"@spider": "usps_collection_boxes", "spider:collection_time": "2023-11-07T08:25:32.615229"}, "geometry": {"coordinates": [-110.4213398843, 39.5432571157], "type": "Point"}, "id": "5cjHeXJGG4LVB-R2fYoZt93itew=", "properties": {"@spider": "usps_collection_boxes", "addr:city": "EAST CARBON", "addr:country": "US", "addr:full": "109 W WHITMORE DR", "addr:postcode": "84520", "addr:state": "UT", "amenity": "post_box", "brand": "United States Postal Service", "brand:wikidata": "Q668687", "collection_times": "Mo-Fr 16:45; Sa 11:00", "name": "USPS COLLECTION BOX - PO LOBBY", "note": "ON 12/24 AND 12/31, THIS BOX MAY BE COLLECTED AS EARLY AS 12 NOON.", "nsi_id": "unitedstatespostalservice-a77078", "operator": "United States Postal Service", "operator:short": "USPS", "operator:type": "public", "operator:wikidata": "Q668687", "ref": "8452000002"}, "type": "Feature"}
{"dataset_attributes": {"@spider": "usps_collection_boxes", "spider:collection_time": "2023-11-07T08:25:32.615229"}, "geometry": {"coordinates": [-110.817453, 39.3894], "type": "Point"}, "id": "EffkcSHrMjw_O7KxjBV3wQs_lpY=", "properties": {"@spider": "usps_collection_boxes", "addr:city": "ELMO", "addr:country": "US", "addr:full": "100 E MAIN ST", "addr:postcode": "84521", "addr:state": "UT", "amenity": "post_box", "brand": "United States Postal Service", "brand:wikidata": "Q668687", "collection_times": "Mo-Fr 16:00; Sa 10:45", "name": "USPS COLLECTION BOX - BLUE BOX", "note": "ON 12/24 AND 12/31, THIS BOX MAY BE COLLECTED AS EARLY AS 12 NOON.", "nsi_id": "unitedstatespostalservice-a77078", "operator": "United States Postal Service", "operator:short": "USPS", "operator:type": "public", "operator:wikidata": "Q668687", "ref": "8452100000"}, "type": "Feature"}
{"dataset_attributes": {"@spider": "usps_collection_boxes", "spider:collection_time": "2023-11-07T08:25:32.615229"}, "geometry": {"coordinates": [-110.817117, 39.389601], "type": "Point"}, "id": "TlljN2YLYWQOGJC5mISymaQmoPI=", "properties": {"@spider": "usps_collection_boxes", "addr:city": "ELMO", "addr:country": "US", "addr:full": "100 E MAIN ST", "addr:postcode": "84521", "addr:state": "UT", "amenity": "post_box", "brand": "United States Postal Service", "brand:wikidata": "Q668687", "collection_times": "Mo-Fr 11:45; Sa 10:45", "name": "USPS COLLECTION BOX - PO LOBBY", "nsi_id": "unitedstatespostalservice-a77078", "operator": "United States Postal Service", "operator:short": "USPS", "operator:type": "public", "operator:wikidata": "Q668687", "ref": "8452100001"}, "type": "Feature"}
{"dataset_attributes": {"@spider": "usps_collection_boxes", "spider:collection_time": "2023-11-07T08:25:32.615229"}, "geometry": {"coordinates": [-110.817103916, 39.389524546], "type": "Point"}, "id": "cjuoWp9QjsAanss5VSuXilN3NrY=", "properties": {"@spider": "usps_collection_boxes", "addr:city": "ELMO", "addr:country": "US", "addr:full": "100 E MAIN ST", "addr:postcode": "84521", "addr:state": "UT", "amenity": "post_box", "brand": "United States Postal Service", "brand:wikidata": "Q668687", "collection_times": "Mo-Fr 11:45; Sa 10:45", "name": "USPS COLLECTION BOX - PO LOBBY", "nsi_id": "unitedstatespostalservice-a77078", "operator": "United States Postal Service", "operator:short": "USPS", "operator:type": "public", "operator:wikidata": "Q668687", "ref": "8452100003"}, "type": "Feature"}
{"dataset_attributes": {"@spider": "usps_collection_boxes", "spider:collection_time": "2023-11-07T08:25:32.615229"}, "geometry": {"coordinates": [-111.248283, 38.923022], "type": "Point"}, "id": "2fnB3tAuNa24P0AcBrlm9g6XatU=", "properties": {"@spider": "usps_collection_boxes", "addr:city": "EMERY", "addr:country": "US", "addr:full": "31 E MAIN ST", "addr:postcode": "84522", "addr:state": "UT", "amenity": "post_box", "brand": "United States Postal Service", "brand:wikidata": "Q668687", "collection_times": "Mo-Fr 15:45; Sa 10:45", "name": "USPS COLLECTION BOX - BLUE BOX", "note": "ON 12/24 AND 12/31, THIS BOX MAY BE COLLECTED AS EARLY AS 12 NOON.", "nsi_id": "unitedstatespostalservice-a77078", "operator": "United States Postal Service", "operator:short": "USPS", "operator:type": "public", "operator:wikidata": "Q668687", "ref": "8452200000"}, "type": "Feature"}
{"dataset_attributes": {"@spider": "usps_collection_boxes", "spider:collection_time": "2023-11-07T08:25:32.615229"}, "geometry": {"coordinates": [-111.248051, 38.923169], "type": "Point"}, "id": "H2BxXHCWcb2oRURmeA9XoxyktgI=", "properties": {"@spider": "usps_collection_boxes", "addr:city": "EMERY", "addr:country": "US", "addr:full": "31 E MAIN ST", "addr:postcode": "84522", "addr:state": "UT", "amenity": "post_box", "brand": "United States Postal Service", "brand:wikidata": "Q668687", "collection_times": "Mo-Fr 11:45; Sa 10:45", "name": "USPS COLLECTION BOX - PO LOBBY", "nsi_id": "unitedstatespostalservice-a77078", "operator": "United States Postal Service", "operator:short": "USPS", "operator:type": "public", "operator:wikidata": "Q668687", "ref": "8452200001"}, "type": "Feature"}
{"dataset_attributes": {"@spider": "usps_collection_boxes", "spider:collection_time": "2023-11-07T08:25:32.615229"}, "geometry": {"coordinates": [-111.248028502, 38.923235249], "type": "Point"}, "id": "Zpj6ZvszAdB9GolE0vu5pngA6Zk=", "properties": {"@spider": "usps_collection_boxes", "addr:city": "EMERY", "addr:country": "US", "addr:full": "31 E MAIN ST", "addr:postcode": "84522", "addr:state": "UT", "amenity": "post_box", "brand": "United States Postal Service", "brand:wikidata": "Q668687", "collection_times": "Mo-Fr 11:45; Sa 10:45", "name": "USPS COLLECTION BOX - PO LOBBY", "nsi_id": "unitedstatespostalservice-a77078", "operator": "United States Postal Service", "operator:short": "USPS", "operator:type": "public", "operator:wikidata": "Q668687", "ref": "8452200002"}, "type": "Feature"}
{"dataset_attributes": {"@spider": "usps_collection_boxes", "spider:collection_time": "2023-11-07T08:25:32.615229"}, "geometry": {"coordinates": [-111.134199, 39.09097], "type": "Point"}, "id": "56jLFdZAmAqVgs3RZMDXLSSJINA=", "properties": {"@spider": "usps_collection_boxes", "addr:city": "FERRON", "addr:country": "US", "addr:full": "60 N 100 W", "addr:postcode": "84523", "addr:state": "UT", "amenity": "post_box", "brand": "United States Postal Service", "brand:wikidata": "Q668687", "collection_times": "Mo-Fr 15:45; Sa 11:15", "name": "USPS COLLECTION BOX - BLUE BOX", "note": "ON 12/24 AND 12/31, THIS BOX MAY BE COLLECTED AS EARLY AS 12 NOON.", "nsi_id": "unitedstatespostalservice-a77078", "operator": "United States Postal Service", "operator:short": "USPS", "operator:type": "public", "operator:wikidata": "Q668687", "ref": "8452300001"}, "type": "Feature"}
{"dataset_attributes": {"@spider": "usps_collection_boxes", "spider:collection_time": "2023-11-07T08:25:32.615229"}, "geometry": {"coordinates": [-111.134234, 39.090988], "type": "Point"}, "id": "glgOdbHohWMet9i18NdhbbBFihU=", "properties": {"@spider": "usps_collection_boxes", "addr:city": "FERRON", "addr:country": "US", "addr:full": "60 N 100 W", "addr:postcode": "84523", "addr:state": "UT", "amenity": "post_box", "brand": "United States Postal Service", "brand:wikidata": "Q668687", "collection_times": "Mo-Fr 16:00; Sa 11:15", "name": "USPS COLLECTION BOX - PO LOBBY", "note": "ON 12/24 AND 12/31, THIS BOX MAY BE COLLECTED AS EARLY AS 12 NOON.", "nsi_id": "unitedstatespostalservice-a77078", "operator": "United States Postal Service", "operator:short": "USPS", "operator:type": "public", "operator:wikidata": "Q668687", "ref": "8452300002"}, "type": "Feature"}
{"dataset_attributes": {"@spider": "usps_collection_boxes", "spider:collection_time": "2023-11-07T08:25:32.615229"}, "geometry": {"coordinates": [-111.134234, 39.090988], "type": "Point"}, "id": "pdVdoD61lo_vsxStBydUsN2etTY=", "properties": {"@spider": "usps_collection_boxes", "addr:city": "FERRON", "addr:country": "US", "addr:full": "60 N 100 W", "addr:postcode": "84523", "addr:state": "UT", "amenity": "post_box", "brand": "United States Postal Service", "brand:wikidata": "Q668687", "collection_times": "Mo-Fr 16:00; Sa 11:15", "name": "USPS COLLECTION BOX - PO LOBBY", "note": "ON 12/24 AND 12/31, THIS BOX MAY BE COLLECTED AS EARLY AS 12 NOON.", "nsi_id": "unitedstatespostalservice-a77078", "operator": "United States Postal Service", "operator:short": "USPS", "operator:type": "public", "operator:wikidata": "Q668687", "ref": "8452300003"}, "type": "Feature"}
{"dataset_attributes": {"@spider": "usps_collection_boxes", "spider:collection_time": "2023-11-07T08:25:32.615229"}, "geometry": {"coordinates": [-111.134238084, 39.090986864], "type": "Point"}, "id": "ca2XYRKOCivyC_TCcZEv_7NXDAA=", "properties": {"@spider": "usps_collection_boxes", "addr:city": "FERRON", "addr:country": "US", "addr:full": "60 N 100 W", "addr:postcode": "84523", "addr:state": "UT", "amenity": "post_box", "brand": "United States Postal Service", "brand:wikidata": "Q668687", "collection_times": "Mo-Fr 16:00; Sa 11:15", "name": "USPS COLLECTION BOX - PO LOBBY", "note": "ON 12/24 AND 12/31, THIS BOX MAY BE COLLECTED AS EARLY AS 12 NOON.", "nsi_id": "unitedstatespostalservice-a77078", "operator": "United States Postal Service", "operator:short": "USPS", "operator:type": "public", "operator:wikidata": "Q668687", "ref": "8452300004"}, "type": "Feature"}
{"dataset_attributes": {"@spider": "usps_collection_boxes", "spider:collection_time": "2023-11-07T08:25:32.615229"}, "geometry": {"coordinates": [-110.1614082485, 38.9954655284], "type": "Point"}, "id": "DcFMbEyFt4oahSEF5ohRuzQSXFg=", "properties": {"@spider": "usps_collection_boxes", "addr:city": "GREEN RIVER", "addr:country": "US", "addr:full": "80 E MAIN ST", "addr:postcode": "84525", "addr:state": "UT", "amenity": "post_box", "brand": "United States Postal Service", "brand:wikidata": "Q668687", "collection_times": "Mo-Fr 16:30; Sa 11:45", "name": "USPS COLLECTION BOX - BLUE BOX", "note": "ON 12/24 AND 12/31, THIS BOX MAY BE COLLECTED AS EARLY AS 12 NOON.", "nsi_id": "unitedstatespostalservice-a77078", "operator": "United States Postal Service", "operator:short": "USPS", "operator:type": "public", "operator:wikidata": "Q668687", "ref": "8452500001"}, "type": "Feature"}
{"dataset_attributes": {"@spider": "usps_collection_boxes", "spider:collection_time": "2023-11-07T08:25:32.615229"}, "geometry": {"coordinates": [-110.1614082485, 38.9954655284], "type": "Point"}, "id": "Hqs5yUg8oOGcXDCMZwmM01EPoj4=", "properties": {"@spider": "usps_collection_boxes", "addr:city": "GREEN RIVER", "addr:country": "US", "addr:full": "80 E MAIN ST", "addr:postcode": "84525", "addr:state": "UT", "amenity": "post_box", "brand": "United States Postal Service", "brand:wikidata": "Q668687", "collection_times": "Mo-Fr 16:30; Sa 11:45", "name": "USPS COLLECTION BOX - PO LOBBY", "note": "ON 12/24 AND 12/31, THIS BOX MAY BE COLLECTED AS EARLY AS 12 NOON.", "nsi_id": "unitedstatespostalservice-a77078", "operator": "United States Postal Service", "operator:short": "USPS", "operator:type": "public", "operator:wikidata": "Q668687", "ref": "8452500002"}, "type": "Feature"}
{"dataset_attributes": {"@spider": "usps_collection_boxes", "spider:collection_time": "2023-11-07T08:25:32.615229"}, "geometry": {"coordinates": [-110.1614082485, 38.9954655284], "type": "Point"}, "id": "TvykgQqV11hw0dhme9wfx6x9oPA=", "properties": {"@spider": "usps_collection_boxes", "addr:city": "GREEN RIVER", "addr:country": "US", "addr:full": "80 E MAIN ST", "addr:postcode": "84525", "addr:state": "UT", "amenity": "post_box", "brand": "United States Postal Service", "brand:wikidata": "Q668687", "collection_times": "Mo-Fr 16:30; Sa 11:45", "name": "USPS COLLECTION BOX - PO LOBBY", "note": "ON 12/24 AND 12/31, THIS BOX MAY BE COLLECTED AS EARLY AS 12 NOON.", "nsi_id": "unitedstatespostalservice-a77078", "operator": "United States Postal Service", "operator:short": "USPS", "operator:type": "public", "operator:wikidata": "Q668687", "ref": "8452500003"}, "type": "Feature"}
{"dataset_attributes": {"@spider": "usps_collection_boxes", "spider:collection_time": "2023-11-07T08:25:32.615229"}, "geometry": {"coordinates": [-110.854368, 39.688384], "type": "Point"}, "id": "2Rea96YomJL1uGnauH7kZH46120=", "properties": {"@spider": "usps_collection_boxes", "addr:city": "HELPER", "addr:country": "US", "addr:full": "1 S MAIN ST", "addr:postcode": "84526", "addr:state": "UT", "amenity": "post_box", "brand": "United States Postal Service", "brand:wikidata": "Q668687", "collection_times": "Mo-Sa 12:00", "name": "USPS COLLECTION BOX - BLUE BOX", "nsi_id": "unitedstatespostalservice-a77078", "operator": "United States Postal Service", "operator:short": "USPS", "operator:type": "public", "operator:wikidata": "Q668687", "ref": "8452600001"}, "type": "Feature"}
{"dataset_attributes": {"@spider": "usps_collection_boxes", "spider:collection_time": "2023-11-07T08:25:32.615229"}, "geometry": {"coordinates": [-110.854555, 39.686599], "type": "Point"}, "id": "ijeuWE9wkHaWXpnb2HvfWyFbOhw=", "properties": {"@spider": "usps_collection_boxes", "addr:city": "HELPER", "addr:country": "US", "addr:full": "45 S MAIN ST", "addr:postcode": "84526", "addr:state": "UT", "amenity": "post_box", "brand": "United States Postal Service", "brand:wikidata": "Q668687", "collection_times": "Mo-Fr 17:00; Sa 12:00", "name": "USPS COLLECTION BOX - PO LOBBY", "note": "ON 12/24 AND 12/31, THIS BOX MAY BE COLLECTED AS EARLY AS 12 NOON.", "nsi_id": "unitedstatespostalservice-a77078", "operator": "United States Postal Service", "operator:short": "USPS", "operator:type": "public", "operator:wikidata": "Q668687", "ref": "8452600006"}, "type": "Feature"}
{"dataset_attributes": {"@spider": "usps_collection_boxes", "spider:collection_time": "2023-11-07T08:25:32.615229"}, "geometry": {"coordinates": [-110.854555, 39.686599], "type": "Point"}, "id": "93A1EIvtO2XgSBoOmeAhAxuOyGI=", "properties": {"@spider": "usps_collection_boxes", "addr:city": "HELPER", "addr:country": "US", "addr:full": "45 S MAIN ST", "addr:postcode": "84526", "addr:state": "UT", "amenity": "post_box", "brand": "United States Postal Service", "brand:wikidata": "Q668687", "collection_times": "Mo-Fr 17:00; Sa 12:00", "name": "USPS COLLECTION BOX - BLUE BOX", "note": "ON 12/24 AND 12/31, THIS BOX MAY BE COLLECTED AS EARLY AS 12 NOON.", "nsi_id": "unitedstatespostalservice-a77078", "operator": "United States Postal Service", "operator:short": "USPS", "operator:type": "public", "operator:wikidata": "Q668687", "ref": "8452600011"}, "type": "Feature"}
{"dataset_attributes": {"@spider": "usps_collection_boxes", "spider:collection_time": "2023-11-07T08:25:32.615229"}, "geometry": {"coordinates": [-110.854558311, 39.686597497], "type": "Point"}, "id": "fzvjSw3WXcjRRygG81X64P0z1PQ=", "properties": {"@spider": "usps_collection_boxes", "addr:city": "HELPER", "addr:country": "US", "addr:full": "45 S MAIN ST", "addr:postcode": "84526", "addr:state": "UT", "amenity": "post_box", "brand": "United States Postal Service", "brand:wikidata": "Q668687", "collection_times": "Mo-Fr 17:00; Sa 12:00", "name": "USPS COLLECTION BOX - PO LOBBY", "note": "ON 12/24 AND 12/31, THIS BOX MAY BE COLLECTED AS EARLY AS 12 NOON.", "nsi_id": "unitedstatespostalservice-a77078", "operator": "United States Postal Service", "operator:short": "USPS", "operator:type": "public", "operator:wikidata": "Q668687", "ref": "8452600012"}, "type": "Feature"}
{"dataset_attributes": {"@spider": "usps_collection_boxes", "spider:collection_time": "2023-11-07T08:25:32.615229"}, "geometry": {"coordinates": [-110.963561695, 39.328322957], "type": "Point"}, "id": "TWa5VAoCw5Y0X2E7k7ouVYru8Jg=", "properties": {"@spider": "usps_collection_boxes", "addr:city": "HUNTINGTON", "addr:country": "US", "addr:full": "45 E 100 N", "addr:postcode": "84528", "addr:state": "UT", "amenity": "post_box", "brand": "United States Postal Service", "brand:wikidata": "Q668687", "collection_times": "Mo-Fr 16:00; Sa 11:00", "name": "USPS COLLECTION BOX - BLUE BOX", "note": "ON 12/24 AND 12/31, THIS BOX MAY BE COLLECTED AS EARLY AS 12 NOON.", "nsi_id": "unitedstatespostalservice-a77078", "operator": "United States Postal Service", "operator:short": "USPS", "operator:type": "public", "operator:wikidata": "Q668687", "ref": "8452800001"}, "type": "Feature"}
{"dataset_attributes": {"@spider": "usps_collection_boxes", "spider:collection_time": "2023-11-07T08:25:32.615229"}, "geometry": {"coordinates": [-110.963561695, 39.328322957], "type": "Point"}, "id": "_oDpC1V2g21czICXpW58uwJp0dE=", "properties": {"@spider": "usps_collection_boxes", "addr:city": "HUNTINGTON", "addr:country": "US", "addr:full": "45 E 100 N", "addr:postcode": "84528", "addr:state": "UT", "amenity": "post_box", "brand": "United States Postal Service", "brand:wikidata": "Q668687", "collection_times": "Mo-Fr 16:00; Sa 11:30", "name": "USPS COLLECTION BOX - PO LOBBY", "note": "ON 12/24 AND 12/31, THIS BOX MAY BE COLLECTED AS EARLY AS 12 NOON.", "nsi_id": "unitedstatespostalservice-a77078", "operator": "United States Postal Service", "operator:short": "USPS", "operator:type": "public", "operator:wikidata": "Q668687", "ref": "8452800002"}, "type": "Feature"}
{"dataset_attributes": {"@spider": "usps_collection_boxes", "spider:collection_time": "2023-11-07T08:25:32.615229"}, "geometry": {"coordinates": [-110.963561695, 39.328322957], "type": "Point"}, "id": "_6_zjDSwb7_IC6BLwosA4YFKyPs=", "properties": {"@spider": "usps_collection_boxes", "addr:city": "HUNTINGTON", "addr:country": "US", "addr:full": "45 E 100 N", "addr:postcode": "84528", "addr:state": "UT", "amenity": "post_box", "brand": "United States Postal Service", "brand:wikidata": "Q668687", "collection_times": "Mo-Fr 16:00; Sa 11:30", "name": "USPS COLLECTION BOX - PO LOBBY", "note": "ON 12/24 AND 12/31, THIS BOX MAY BE COLLECTED AS EARLY AS 12 NOON.", "nsi_id": "unitedstatespostalservice-a77078", "operator": "United States Postal Service", "operator:short": "USPS", "operator:type": "public", "operator:wikidata": "Q668687", "ref": "8452800003"}, "type": "Feature"}
{"dataset_attributes": {"@spider": "usps_collection_boxes", "spider:collection_time": "2023-11-07T08:25:32.615229"}, "geometry": {"coordinates": [-109.2564387139, 38.3107510339], "type": "Point"}, "id": "ykII1Gnv49tzOIl0vP9Zb6k6kHs=", "properties": {"@spider": "usps_collection_boxes", "addr:city": "LASAL", "addr:country": "US", "addr:full": "2 MAIN ST", "addr:postcode": "84530", "addr:state": "UT", "amenity": "post_box", "brand": "United States Postal Service", "brand:wikidata": "Q668687", "collection_times": "Mo-Fr 15:00; Sa 10:30", "name": "USPS COLLECTION BOX - BLUE BOX", "note": "ON 12/24 AND 12/31, THIS BOX MAY BE COLLECTED AS EARLY AS 12 NOON.", "nsi_id": "unitedstatespostalservice-a77078", "operator": "United States Postal Service", "operator:short": "USPS", "operator:type": "public", "operator:wikidata": "Q668687", "ref": "8453000000"}, "type": "Feature"}
{"dataset_attributes": {"@spider": "usps_collection_boxes", "spider:collection_time": "2023-11-07T08:25:32.615229"}, "geometry": {"coordinates": [-109.2564387139, 38.3107510339], "type": "Point"}, "id": "Em89Zp3Avlxx885y2zVkChSG0WU=", "properties": {"@spider": "usps_collection_boxes", "addr:city": "LASAL", "addr:country": "US", "addr:full": "2 MAIN ST", "addr:postcode": "84530", "addr:state": "UT", "amenity": "post_box", "brand": "United States Postal Service", "brand:wikidata": "Q668687", "collection_times": "Mo-Fr 15:00", "name": "USPS COLLECTION BOX - PO LOBBY", "note": "ON 12/24 AND 12/31, THIS BOX MAY BE COLLECTED AS EARLY AS 12 NOON.", "nsi_id": "unitedstatespostalservice-a77078", "operator": "United States Postal Service", "operator:short": "USPS", "operator:type": "public", "operator:wikidata": "Q668687", "ref": "8453000001"}, "type": "Feature"}
{"dataset_attributes": {"@spider": "usps_collection_boxes", "spider:collection_time": "2023-11-07T08:25:32.615229"}, "geometry": {"coordinates": [-111.890950762, 40.593234262], "type": "Point"}, "id": "tmYLMjB7KBKSjyxCEUPXfbw9STQ=", "properties": {"@spider": "usps_collection_boxes", "addr:city": "LASAL", "addr:country": "US", "addr:full": "2 MAIN ST", "addr:postcode": "84530", "addr:state": "UT", "amenity": "post_box", "brand": "United States Postal Service", "brand:wikidata": "Q668687", "collection_times": "Mo-Fr 15:00", "name": "USPS COLLECTION BOX - PO LOBBY", "note": "ON 12/24 AND 12/31, THIS BOX MAY BE COLLECTED AS EARLY AS 12 NOON.", "nsi_id": "unitedstatespostalservice-a77078", "operator": "United States Postal Service", "operator:short": "USPS", "operator:type": "public", "operator:wikidata": "Q668687", "ref": "8453000002"}, "type": "Feature"}
{"dataset_attributes": {"@spider": "usps_collection_boxes", "spider:collection_time": "2023-11-07T08:25:32.615229"}, "geometry": {"coordinates": [-109.850980592, 37.156556151], "type": "Point"}, "id": "3D7JOnDgC621a2kZUzatP7QgSGo=", "properties": {"@spider": "usps_collection_boxes", "addr:city": "MEXICAN HAT", "addr:country": "US", "addr:full": "US HWY 163 S", "addr:postcode": "84531", "addr:state": "UT", "amenity": "post_box", "brand": "United States Postal Service", "brand:wikidata": "Q668687", "collection_times": "Mo-Sa 11:45", "name": "USPS COLLECTION BOX - PO LOBBY", "nsi_id": "unitedstatespostalservice-a77078", "operator": "United States Postal Service", "operator:short": "USPS", "operator:type": "public", "operator:wikidata": "Q668687", "ref": "8453100002"}, "type": "Feature"}
{"dataset_attributes": {"@spider": "usps_collection_boxes", "spider:collection_time": "2023-11-07T08:25:32.615229"}, "geometry": {"coordinates": [-109.850980592, 37.156556151], "type": "Point"}, "id": "A1b8ZjIv_XbWAs6JyOZBljjJJHQ=", "properties": {"@spider": "usps_collection_boxes", "addr:city": "MEXICAN HAT", "addr:country": "US", "addr:full": "US HWY 163 S", "addr:postcode": "84531", "addr:state": "UT", "amenity": "post_box", "brand": "United States Postal Service", "brand:wikidata": "Q668687", "collection_times": "Mo-Sa 11:45", "name": "USPS COLLECTION BOX - PO LOBBY", "nsi_id": "unitedstatespostalservice-a77078", "operator": "United States Postal Service", "operator:short": "USPS", "operator:type": "public", "operator:wikidata": "Q668687", "ref": "8453100003"}, "type": "Feature"}
{"dataset_attributes": {"@spider": "usps_collection_boxes", "spider:collection_time": "2023-11-07T08:25:32.615229"}, "geometry": {"coordinates": [-109.549792, 38.574816], "type": "Point"}, "id": "ytILy0rWE_px0JAwFzBvC2CRSC0=", "properties": {"@spider": "usps_collection_boxes", "addr:city": "MOAB", "addr:country": "US", "addr:full": "50 E 100 N", "addr:postcode": "84532", "addr:state": "UT", "amenity": "post_box", "brand": "United States Postal Service", "brand:wikidata": "Q668687", "collection_times": "Mo-Fr 16:00; Sa 13:45", "name": "USPS COLLECTION BOX - BLUE BOX", "note": "ON 12/24 AND 12/31, THIS BOX MAY BE COLLECTED AS EARLY AS 12 NOON.", "nsi_id": "unitedstatespostalservice-a77078", "operator": "United States Postal Service", "operator:short": "USPS", "operator:type": "public", "operator:wikidata": "Q668687", "ref": "8453200002"}, "type": "Feature"}
{"dataset_attributes": {"@spider": "usps_collection_boxes", "spider:collection_time": "2023-11-07T08:25:32.615229"}, "geometry": {"coordinates": [-109.549793, 38.574843], "type": "Point"}, "id": "PPstg7HBD480cBYwVtsTt_IVuno=", "properties": {"@spider": "usps_collection_boxes", "addr:city": "MOAB", "addr:country": "US", "addr:full": "50 E 100 N", "addr:postcode": "84532", "addr:state": "UT", "amenity": "post_box", "brand": "United States Postal Service", "brand:wikidata": "Q668687", "collection_times": "Mo-Fr 16:00; Sa 13:45", "name": "USPS COLLECTION BOX - BLUE BOX", "note": "ON 12/24 AND 12/31, THIS BOX MAY BE COLLECTED AS EARLY AS 12 NOON.", "nsi_id": "unitedstatespostalservice-a77078", "operator": "United States Postal Service", "operator:short": "USPS", "operator:type": "public", "operator:wikidata": "Q668687", "ref": "8453200003"}, "type": "Feature"}
{"dataset_attributes": {"@spider": "usps_collection_boxes", "spider:collection_time": "2023-11-07T08:25:32.615229"}, "geometry": {"coordinates": [-109.550016, 38.573244], "type": "Point"}, "id": "qsNTgmyl0dXEANOB9cku4OW2Ol0=", "properties": {"@spider": "usps_collection_boxes", "addr:city": "MOAB", "addr:country": "US", "addr:full": "38 E CENTER ST", "addr:postcode": "84532", "addr:state": "UT", "amenity": "post_box", "brand": "United States Postal Service", "brand:wikidata": "Q668687", "collection_times": "Mo-Fr 16:00; Sa 13:45", "name": "USPS COLLECTION BOX - BLUE BOX", "note": "ON 12/24 AND 12/31, THIS BOX MAY BE COLLECTED AS EARLY AS 12 NOON.", "nsi_id": "unitedstatespostalservice-a77078", "operator": "United States Postal Service", "operator:short": "USPS", "operator:type": "public", "operator:wikidata": "Q668687", "ref": "8453200005"}, "type": "Feature"}
{"dataset_attributes": {"@spider": "usps_collection_boxes", "spider:collection_time": "2023-11-07T08:25:32.615229"}, "geometry": {"coordinates": [-109.549793, 38.574843], "type": "Point"}, "id": "WAd3a2KTPEcqmujICHkA1siA8n4=", "properties": {"@spider": "usps_collection_boxes", "addr:city": "MOAB", "addr:country": "US", "addr:full": "50 E 100 N", "addr:postcode": "84532", "addr:state": "UT", "amenity": "post_box", "brand": "United States Postal Service", "brand:wikidata": "Q668687", "collection_times": "Mo-Fr 16:45; Sa 13:45", "name": "USPS COLLECTION BOX - PO LOBBY", "note": "ON 12/24 AND 12/31, THIS BOX MAY BE COLLECTED AS EARLY AS 12 NOON.", "nsi_id": "unitedstatespostalservice-a77078", "operator": "United States Postal Service", "operator:short": "USPS", "operator:type": "public", "operator:wikidata": "Q668687", "ref": "8453200006"}, "type": "Feature"}
{"dataset_attributes": {"@spider": "usps_collection_boxes", "spider:collection_time": "2023-11-07T08:25:32.615229"}, "geometry": {"coordinates": [-109.420566, 38.65984], "type": "Point"}, "id": "UOQ8-rem_T1V_RLZjV74t74n6Hc=", "properties": {"@spider": "usps_collection_boxes", "addr:city": "MOAB", "addr:country": "US", "addr:full": "1 CASTLE VALLEY DR", "addr:postcode": "84532", "addr:state": "UT", "amenity": "post_box", "brand": "United States Postal Service", "brand:wikidata": "Q668687", "collection_times": "Mo-Sa 09:00", "name": "USPS COLLECTION BOX - BLUE BOX", "nsi_id": "unitedstatespostalservice-a77078", "operator": "United States Postal Service", "operator:short": "USPS", "operator:type": "public", "operator:wikidata": "Q668687", "ref": "8453200007"}, "type": "Feature"}
{"dataset_attributes": {"@spider": "usps_collection_boxes", "spider:collection_time": "2023-11-07T08:25:32.615229"}, "geometry": {"coordinates": [-109.549793, 38.574843], "type": "Point"}, "id": "OcuflMYeuNIxHRxXj8a9OxXmJ7o=", "properties": {"@spider": "usps_collection_boxes", "addr:city": "MOAB", "addr:country": "US", "addr:full": "50 E 100 N", "addr:postcode": "84532", "addr:state": "UT", "amenity": "post_box", "brand": "United States Postal Service", "brand:wikidata": "Q668687", "collection_times": "Mo-Fr 16:45; Sa 13:45", "name": "USPS COLLECTION BOX - PO LOBBY", "note": "ON 12/24 AND 12/31, THIS BOX MAY BE COLLECTED AS EARLY AS 12 NOON.", "nsi_id": "unitedstatespostalservice-a77078", "operator": "United States Postal Service", "operator:short": "USPS", "operator:type": "public", "operator:wikidata": "Q668687", "ref": "8453200012"}, "type": "Feature"}
{"dataset_attributes": {"@spider": "usps_collection_boxes", "spider:collection_time": "2023-11-07T08:25:32.615229"}, "geometry": {"coordinates": [-109.549961821, 38.57475868], "type": "Point"}, "id": "QZuaAINDLJcEw3-hyslMDaQDr5Q=", "properties": {"@spider": "usps_collection_boxes", "addr:city": "MOAB", "addr:country": "US", "addr:full": "50 E 100 N", "addr:postcode": "84532", "addr:state": "UT", "amenity": "post_box", "brand": "United States Postal Service", "brand:wikidata": "Q668687", "collection_times": "Mo-Fr 16:45; Sa 13:45", "name": "USPS COLLECTION BOX - PO LOBBY", "note": "ON 12/24 AND 12/31, THIS BOX MAY BE COLLECTED AS EARLY AS 12 NOON.", "nsi_id": "unitedstatespostalservice-a77078", "operator": "United States Postal Service", "operator:short": "USPS", "operator:type": "public", "operator:wikidata": "Q668687", "ref": "8453200013"}, "type": "Feature"}
{"dataset_attributes": {"@spider": "usps_collection_boxes", "spider:collection_time": "2023-11-07T08:25:32.615229"}, "geometry": {"coordinates": [-109.3616562442, 37.1657277329], "type": "Point"}, "id": "NwrDhrBPdMV4tDIDL2a1JjEJy-Q=", "properties": {"@spider": "usps_collection_boxes", "addr:city": "MONTEZUMA CREEK", "addr:country": "US", "addr:full": "50 CENTER ST", "addr:postcode": "84534", "addr:state": "UT", "amenity": "post_box", "brand": "United States Postal Service", "brand:wikidata": "Q668687", "collection_times": "Mo-Fr 12:55; Sa 12:00", "name": "USPS COLLECTION BOX - BLUE BOX", "note": "ON 12/24 AND 12/31, THIS BOX MAY BE COLLECTED AS EARLY AS 12 NOON.", "nsi_id": "unitedstatespostalservice-a77078", "operator": "United States Postal Service", "operator:short": "USPS", "operator:type": "public", "operator:wikidata": "Q668687", "ref": "8453400000"}, "type": "Feature"}
{"dataset_attributes": {"@spider": "usps_collection_boxes", "spider:collection_time": "2023-11-07T08:25:32.615229"}, "geometry": {"coordinates": [-109.3616562442, 37.1657277329], "type": "Point"}, "id": "-A9oAYmFpKVE1H7fAbncCqVAV7o=", "properties": {"@spider": "usps_collection_boxes", "addr:city": "MONTEZUMA CREEK", "addr:country": "US", "addr:full": "50 CENTER ST", "addr:postcode": "84534", "addr:state": "UT", "amenity": "post_box", "brand": "United States Postal Service", "brand:wikidata": "Q668687", "collection_times": "Mo-Fr 12:55; Sa 12:00", "name": "USPS COLLECTION BOX - PO LOBBY", "note": "ON 12/24 AND 12/31, THIS BOX MAY BE COLLECTED AS EARLY AS 12 NOON.", "nsi_id": "unitedstatespostalservice-a77078", "operator": "United States Postal Service", "operator:short": "USPS", "operator:type": "public", "operator:wikidata": "Q668687", "ref": "8453400001"}, "type": "Feature"}
{"dataset_attributes": {"@spider": "usps_collection_boxes", "spider:collection_time": "2023-11-07T08:25:32.615229"}, "geometry": {"coordinates": [-109.298028, 37.274788], "type": "Point"}, "id": "mAgWQ5F2mkICzWLU10mbqwMA6qE=", "properties": {"@spider": "usps_collection_boxes", "addr:city": "MONTEZUMA CREEK", "addr:country": "US", "addr:full": "10 STATE HWY 262", "addr:postcode": "84534", "addr:state": "UT", "amenity": "post_box", "brand": "United States Postal Service", "brand:wikidata": "Q668687", "collection_times": "Mo-Fr 12:45; Sa 12:00", "name": "USPS COLLECTION BOX - PO LOBBY", "note": "ON 12/24 AND 12/31, THIS BOX MAY BE COLLECTED AS EARLY AS 12 NOON.", "nsi_id": "unitedstatespostalservice-a77078", "operator": "United States Postal Service", "operator:short": "USPS", "operator:type": "public", "operator:wikidata": "Q668687", "ref": "8453400002"}, "type": "Feature"}
{"dataset_attributes": {"@spider": "usps_collection_boxes", "spider:collection_time": "2023-11-07T08:25:32.615229"}, "geometry": {"coordinates": [-109.307652579, 37.259799807], "type": "Point"}, "id": "hakTypSkWKsxrz06aFaZwa376A0=", "properties": {"@spider": "usps_collection_boxes", "addr:city": "MONTEZUMA CREEK", "addr:country": "US", "addr:full": "50 CENTER ST", "addr:postcode": "84534", "addr:state": "UT", "amenity": "post_box", "brand": "United States Postal Service", "brand:wikidata": "Q668687", "collection_times": "Mo-Fr 12:45; Sa 12:00", "name": "USPS COLLECTION BOX - PO LOBBY", "note": "ON 12/24 AND 12/31, THIS BOX MAY BE COLLECTED AS EARLY AS 12 NOON.", "nsi_id": "unitedstatespostalservice-a77078", "operator": "United States Postal Service", "operator:short": "USPS", "operator:type": "public", "operator:wikidata": "Q668687", "ref": "8453400003"}, "type": "Feature"}
{"dataset_attributes": {"@spider": "usps_collection_boxes", "spider:collection_time": "2023-11-07T08:25:32.615229"}, "geometry": {"coordinates": [-109.29804416, 37.27482131], "type": "Point"}, "id": "nr_yUO6LomiWzglv7T3R-_vvMXw=", "properties": {"@spider": "usps_collection_boxes", "addr:city": "MONTEZUMA CREEK", "addr:country": "US", "addr:full": "10 STATE HWY 262", "addr:postcode": "84534", "addr:state": "UT", "amenity": "post_box", "brand": "United States Postal Service", "brand:wikidata": "Q668687", "collection_times": "Mo-Fr 12:45; Sa 12:00", "name": "USPS COLLECTION BOX - PO LOBBY", "note": "ON 12/24 AND 12/31, THIS BOX MAY BE COLLECTED AS EARLY AS 12 NOON.", "nsi_id": "unitedstatespostalservice-a77078", "operator": "United States Postal Service", "operator:short": "USPS", "operator:type": "public", "operator:wikidata": "Q668687", "ref": "8453400004"}, "type": "Feature"}
{"dataset_attributes": {"@spider": "usps_collection_boxes", "spider:collection_time": "2023-11-07T08:25:32.615229"}, "geometry": {"coordinates": [-109.342883, 37.869849], "type": "Point"}, "id": "S7ekTwXx8MDZGdb9uAMpDDioqOg=", "properties": {"@spider": "usps_collection_boxes", "addr:city": "MONTICELLO", "addr:country": "US", "addr:full": "197 S MAIN ST", "addr:postcode": "84535", "addr:state": "UT", "amenity": "post_box", "brand": "United States Postal Service", "brand:wikidata": "Q668687", "collection_times": "Mo-Fr 15:20; Sa 11:30", "name": "USPS COLLECTION BOX - BLUE BOX", "note": "ON 12/24 AND 12/31, THIS BOX MAY BE COLLECTED AS EARLY AS 12 NOON.", "nsi_id": "unitedstatespostalservice-a77078", "operator": "United States Postal Service", "operator:short": "USPS", "operator:type": "public", "operator:wikidata": "Q668687", "ref": "8453500001"}, "type": "Feature"}
{"dataset_attributes": {"@spider": "usps_collection_boxes", "spider:collection_time": "2023-11-07T08:25:32.615229"}, "geometry": {"coordinates": [-109.342919, 37.869763], "type": "Point"}, "id": "cz59TENsZay884MwKZYXwMhZ1l0=", "properties": {"@spider": "usps_collection_boxes", "addr:city": "MONTICELLO", "addr:country": "US", "addr:full": "197 S MAIN ST", "addr:postcode": "84535", "addr:state": "UT", "amenity": "post_box", "brand": "United States Postal Service", "brand:wikidata": "Q668687", "collection_times": "Mo-Fr 15:20; Sa 11:30", "name": "USPS COLLECTION BOX - PO LOBBY", "note": "ON 12/24 AND 12/31, THIS BOX MAY BE COLLECTED AS EARLY AS 12 NOON.", "nsi_id": "unitedstatespostalservice-a77078", "operator": "United States Postal Service", "operator:short": "USPS", "operator:type": "public", "operator:wikidata": "Q668687", "ref": "8453500002"}, "type": "Feature"}
{"dataset_attributes": {"@spider": "usps_collection_boxes", "spider:collection_time": "2023-11-07T08:25:32.615229"}, "geometry": {"coordinates": [-109.342862148, 37.8698291], "type": "Point"}, "id": "ojGYQAGyaIq_uwrADpWAd2GMQIQ=", "properties": {"@spider": "usps_collection_boxes", "addr:city": "MONTICELLO", "addr:country": "US", "addr:full": "197 S MAIN ST", "addr:postcode": "84535", "addr:state": "UT", "amenity": "post_box", "brand": "United States Postal Service", "brand:wikidata": "Q668687", "collection_times": "Mo-Fr 15:15; Sa 11:30", "name": "USPS COLLECTION BOX - PO LOBBY", "note": "ON 12/24 AND 12/31, THIS BOX MAY BE COLLECTED AS EARLY AS 12 NOON.", "nsi_id": "unitedstatespostalservice-a77078", "operator": "United States Postal Service", "operator:short": "USPS", "operator:type": "public", "operator:wikidata": "Q668687", "ref": "8453500003"}, "type": "Feature"}
{"dataset_attributes": {"@spider": "usps_collection_boxes", "spider:collection_time": "2023-11-07T08:25:32.615229"}, "geometry": {"coordinates": [-110.765568, 37.058844], "type": "Point"}, "id": "YIeuerhvixr0kmIRwFs9rkUhTeA=", "properties": {"@spider": "usps_collection_boxes", "addr:city": "MONUMENT VALLEY", "addr:country": "US", "addr:full": "50 RED ROCK RD", "addr:postcode": "84536", "addr:state": "UT", "amenity": "post_box", "brand": "United States Postal Service", "brand:wikidata": "Q668687", "collection_times": "Mo-Sa 11:20", "name": "USPS COLLECTION BOX - BLUE BOX", "nsi_id": "unitedstatespostalservice-a77078", "operator": "United States Postal Service", "operator:short": "USPS", "operator:type": "public", "operator:wikidata": "Q668687", "ref": "8453600001"}, "type": "Feature"}
{"dataset_attributes": {"@spider": "usps_collection_boxes", "spider:collection_time": "2023-11-07T08:25:32.615229"}, "geometry": {"coordinates": [-110.765469, 37.05888], "type": "Point"}, "id": "mAu2hQTpUhh_vKSHaXVypQ8CgEI=", "properties": {"@spider": "usps_collection_boxes", "addr:city": "MONUMENT VALLEY", "addr:country": "US", "addr:full": "50 RED ROCK RD", "addr:postcode": "84536", "addr:state": "UT", "amenity": "post_box", "brand": "United States Postal Service", "brand:wikidata": "Q668687", "collection_times": "Mo-Sa 11:20", "name": "USPS COLLECTION BOX - PO LOBBY", "nsi_id": "unitedstatespostalservice-a77078", "operator": "United States Postal Service", "operator:short": "USPS", "operator:type": "public", "operator:wikidata": "Q668687", "ref": "8453600002"}, "type": "Feature"}
{"dataset_attributes": {"@spider": "usps_collection_boxes", "spider:collection_time": "2023-11-07T08:25:32.615229"}, "geometry": {"coordinates": [-110.443262688, 37.17392], "type": "Point"}, "id": "9lY0B8d4MEPL5vcIUmbvvl4px6Q=", "properties": {"@spider": "usps_collection_boxes", "addr:city": "MONUMENT VALLEY", "addr:country": "US", "addr:full": "50 RED ROCK RD", "addr:postcode": "84536", "addr:state": "UT", "amenity": "post_box", "brand": "United States Postal Service", "brand:wikidata": "Q668687", "collection_times": "Mo-Sa 11:15", "name": "USPS COLLECTION BOX - PO LOBBY", "nsi_id": "unitedstatespostalservice-a77078", "operator": "United States Postal Service", "operator:short": "USPS", "operator:type": "public", "operator:wikidata": "Q668687", "ref": "8453600003"}, "type": "Feature"}
{"dataset_attributes": {"@spider": "usps_collection_boxes", "spider:collection_time": "2023-11-07T08:25:32.615229"}, "geometry": {"coordinates": [-111.053152, 39.22269], "type": "Point"}, "id": "4fj4xDTMTMFTg9C8Mm6ZJvZ64gs=", "properties": {"@spider": "usps_collection_boxes", "addr:city": "ORANGEVILLE", "addr:country": "US", "addr:full": "350 S MAIN ST", "addr:postcode": "84537", "addr:state": "UT", "amenity": "post_box", "brand": "United States Postal Service", "brand:wikidata": "Q668687", "collection_times": "Mo-Fr 15:30; Sa 11:00", "name": "USPS COLLECTION BOX - BLUE BOX", "note": "ON 12/24 AND 12/31, THIS BOX MAY BE COLLECTED AS EARLY AS 12 NOON.", "nsi_id": "unitedstatespostalservice-a77078", "operator": "United States Postal Service", "operator:short": "USPS", "operator:type": "public", "operator:wikidata": "Q668687", "ref": "8453700000"}, "type": "Feature"}
{"dataset_attributes": {"@spider": "usps_collection_boxes", "spider:collection_time": "2023-11-07T08:25:32.615229"}, "geometry": {"coordinates": [-111.053117, 39.222688], "type": "Point"}, "id": "PyufqhJg_TpNg0bWGhHKTtiHdOk=", "properties": {"@spider": "usps_collection_boxes", "addr:city": "ORANGEVILLE", "addr:country": "US", "addr:full": "350 S MAIN ST", "addr:postcode": "84537", "addr:state": "UT", "amenity": "post_box", "brand": "United States Postal Service", "brand:wikidata": "Q668687", "collection_times": "Mo-Fr 15:30; Sa 11:00", "name": "USPS COLLECTION BOX - PO LOBBY", "note": "ON 12/24 AND 12/31, THIS BOX MAY BE COLLECTED AS EARLY AS 12 NOON.", "nsi_id": "unitedstatespostalservice-a77078", "operator": "United States Postal Service", "operator:short": "USPS", "operator:type": "public", "operator:wikidata": "Q668687", "ref": "8453700001"}, "type": "Feature"}
{"dataset_attributes": {"@spider": "usps_collection_boxes", "spider:collection_time": "2023-11-07T08:25:32.615229"}, "geometry": {"coordinates": [-111.053176886, 39.22267907], "type": "Point"}, "id": "3ilc4PtCPOhmvdFYiCG57B0J0y8=", "properties": {"@spider": "usps_collection_boxes", "addr:city": "ORANGEVILLE", "addr:country": "US", "addr:full": "350 S MAIN ST", "addr:postcode": "84537", "addr:state": "UT", "amenity": "post_box", "brand": "United States Postal Service", "brand:wikidata": "Q668687", "collection_times": "Mo-Fr 15:30; Sa 11:00", "name": "USPS COLLECTION BOX - PO LOBBY", "note": "ON 12/24 AND 12/31, THIS BOX MAY BE COLLECTED AS EARLY AS 12 NOON.", "nsi_id": "unitedstatespostalservice-a77078", "operator": "United States Postal Service", "operator:short": "USPS", "operator:type": "public", "operator:wikidata": "Q668687", "ref": "8453700002"}, "type": "Feature"}
{"dataset_attributes": {"@spider": "usps_collection_boxes", "spider:collection_time": "2023-11-07T08:25:32.615229"}, "geometry": {"coordinates": [-110.386472, 39.551553], "type": "Point"}, "id": "pPtcZaeJM_7T9JT7xhMZUPQkZLY=", "properties": {"@spider": "usps_collection_boxes", "addr:city": "SUNNYSIDE", "addr:country": "US", "addr:full": "1 MARKET ST", "addr:postcode": "84539", "addr:state": "UT", "amenity": "post_box", "brand": "United States Postal Service", "brand:wikidata": "Q668687", "collection_times": "Mo-Fr 16:45; Sa 13:00", "name": "USPS COLLECTION BOX - BLUE BOX", "note": "ON 12/24 AND 12/31, THIS BOX MAY BE COLLECTED AS EARLY AS 12 NOON.", "nsi_id": "unitedstatespostalservice-a77078", "operator": "United States Postal Service", "operator:short": "USPS", "operator:type": "public", "operator:wikidata": "Q668687", "ref": "8453900000"}, "type": "Feature"}
{"dataset_attributes": {"@spider": "usps_collection_boxes", "spider:collection_time": "2023-11-07T08:25:32.615229"}, "geometry": {"coordinates": [-110.38567, 39.551314], "type": "Point"}, "id": "YkqvYjgyVofycTUopZeM1t5SiAI=", "properties": {"@spider": "usps_collection_boxes", "addr:city": "SUNNYSIDE", "addr:country": "US", "addr:full": "1 MARKET ST", "addr:postcode": "84539", "addr:state": "UT", "amenity": "post_box", "brand": "United States Postal Service", "brand:wikidata": "Q668687", "collection_times": "Mo-Fr 12:15; Sa 10:30", "name": "USPS COLLECTION BOX - PO LOBBY", "note": "ON 12/24 AND 12/31, THIS BOX MAY BE COLLECTED AS EARLY AS 12 NOON.", "nsi_id": "unitedstatespostalservice-a77078", "operator": "United States Postal Service", "operator:short": "USPS", "operator:type": "public", "operator:wikidata": "Q668687", "ref": "8453900001"}, "type": "Feature"}
{"dataset_attributes": {"@spider": "usps_collection_boxes", "spider:collection_time": "2023-11-07T08:25:32.615229"}, "geometry": {"coordinates": [-110.385751155, 39.551336038], "type": "Point"}, "id": "6Yvs24WiFIe6mOpx-y3hjVkRLXg=", "properties": {"@spider": "usps_collection_boxes", "addr:city": "SUNNYSIDE", "addr:country": "US", "addr:full": "1 MARKET ST", "addr:postcode": "84539", "addr:state": "UT", "amenity": "post_box", "brand": "United States Postal Service", "brand:wikidata": "Q668687", "collection_times": "Mo-Fr 12:15; Sa 10:30", "name": "USPS COLLECTION BOX - PO LOBBY", "note": "ON 12/24 AND 12/31, THIS BOX MAY BE COLLECTED AS EARLY AS 12 NOON.", "nsi_id": "unitedstatespostalservice-a77078", "operator": "United States Postal Service", "operator:short": "USPS", "operator:type": "public", "operator:wikidata": "Q668687", "ref": "8453900002"}, "type": "Feature"}
{"dataset_attributes": {"@spider": "usps_collection_boxes", "spider:collection_time": "2023-11-07T08:25:32.615229"}, "geometry": {"coordinates": [-110.725849965, 39.5421940086], "type": "Point"}, "id": "NUrcM3zAe4FVqnlDPrRJfIm9Pdk=", "properties": {"@spider": "usps_collection_boxes", "addr:city": "WELLINGTON", "addr:country": "US", "addr:full": "610 E MAIN ST", "addr:postcode": "84542", "addr:state": "UT", "amenity": "post_box", "brand": "United States Postal Service", "brand:wikidata": "Q668687", "collection_times": "Mo-Fr 16:30; Sa 12:00", "name": "USPS COLLECTION BOX - BLUE BOX", "note": "ON 12/24 AND 12/31, THIS BOX MAY BE COLLECTED AS EARLY AS 12 NOON.", "nsi_id": "unitedstatespostalservice-a77078", "operator": "United States Postal Service", "operator:short": "USPS", "operator:type": "public", "operator:wikidata": "Q668687", "ref": "8454200001"}, "type": "Feature"}
{"dataset_attributes": {"@spider": "usps_collection_boxes", "spider:collection_time": "2023-11-07T08:25:32.615229"}, "geometry": {"coordinates": [-110.725849965, 39.5421940086], "type": "Point"}, "id": "vCc9WOJl6y3fJaJRVpOUDOkBjOc=", "properties": {"@spider": "usps_collection_boxes", "addr:city": "WELLINGTON", "addr:country": "US", "addr:full": "610 E MAIN ST", "addr:postcode": "84542", "addr:state": "UT", "amenity": "post_box", "brand": "United States Postal Service", "brand:wikidata": "Q668687", "collection_times": "Mo-Fr 15:15; Sa 12:00", "name": "USPS COLLECTION BOX - PO LOBBY", "note": "ON 12/24 AND 12/31, THIS BOX MAY BE COLLECTED AS EARLY AS 12 NOON.", "nsi_id": "unitedstatespostalservice-a77078", "operator": "United States Postal Service", "operator:short": "USPS", "operator:type": "public", "operator:wikidata": "Q668687", "ref": "8454200002"}, "type": "Feature"}
{"dataset_attributes": {"@spider": "usps_collection_boxes", "spider:collection_time": "2023-11-07T08:25:32.615229"}, "geometry": {"coordinates": [-110.725849965, 39.5421940086], "type": "Point"}, "id": "s7iqcUD-6GhNQhtLwgddB82G5HE=", "properties": {"@spider": "usps_collection_boxes", "addr:city": "WELLINGTON", "addr:country": "US", "addr:full": "610 E MAIN ST", "addr:postcode": "84542", "addr:state": "UT", "amenity": "post_box", "brand": "United States Postal Service", "brand:wikidata": "Q668687", "collection_times": "Mo-Fr 15:15; Sa 12:00", "name": "USPS COLLECTION BOX - PO LOBBY", "note": "ON 12/24 AND 12/31, THIS BOX MAY BE COLLECTED AS EARLY AS 12 NOON.", "nsi_id": "unitedstatespostalservice-a77078", "operator": "United States Postal Service", "operator:short": "USPS", "operator:type": "public", "operator:wikidata": "Q668687", "ref": "8454200003"}, "type": "Feature"}
