{"dataset_attributes": {"@spider": "usps_collection_boxes", "spider:collection_time": "2023-12-10T08:24:07.887270"}, "geometry": {"coordinates": [-111.657153, 40.266589], "type": "Point"}, "id": "giOpvC7UkcxgmOaR8W_r5DXHtYk=", "properties": {"@spider": "usps_collection_boxes", "addr:city": "PROVO", "addr:country": "US", "addr:full": "2500 N UNIVERSITY AVE", "addr:postcode": "84601", "addr:state": "UT", "amenity": "post_box", "brand": "United States Postal Service", "brand:wikidata": "Q668687", "collection_times": "Mo-Fr 15:15; Sa 16:05", "name": "USPS COLLECTION BOX - BLUE BOX", "note": "ON 12/24 AND 12/31, THIS BOX MAY BE COLLECTED AS EARLY AS 12 NOON.", "nsi_id": "unitedstatespostalservice-a77078", "operator": "United States Postal Service", "operator:short": "USPS", "operator:type": "public", "operator:wikidata": "Q668687", "ref": "8460100008"}, "type": "Feature"}
{"dataset_attributes": {"@spider": "usps_collection_boxes", "spider:collection_time": "2023-12-10T08:24:07.887270"}, "geometry": {"coordinates": [-111.658432, 40.279666], "type": "Point"}, "id": "GphXQbZc64q6g54ZSyxbEqwkPrU=", "properties": {"@spider": "usps_collection_boxes", "addr:city": "PROVO", "addr:country": "US", "addr:full": "3325 N UNIVERSITY AVE", "addr:postcode": "84601", "addr:state": "UT", "amenity": "post_box", "brand": "United States Postal Service", "brand:wikidata": "Q668687", "collection_times": "Mo-Fr 15:25; Sa 16:10", "name": "USPS COLLECTION BOX - BLUE BOX", "note": "ON 12/24 AND 12/31, THIS BOX MAY BE COLLECTED AS EARLY AS 12 NOON.", "nsi_id": "unitedstatespostalservice-a77078", "operator": "United States Postal Service", "operator:short": "USPS", "operator:type": "public", "operator:wikidata": "Q668687", "ref": "8460100009"}, "type": "Feature"}
{"dataset_attributes": {"@spider": "usps_collection_boxes", "spider:collection_time": "2023-12-10T08:24:07.887270"}, "geometry": {"coordinates": [-111.664174, 40.247755], "type": "Point"}, "id": "ONQcUUFTNbyKZy3SQoJiRuH8Wms=", "properties": {"@spider": "usps_collection_boxes", "addr:city": "PROVO", "addr:country": "US", "addr:full": "1055 N 300 W", "addr:postcode": "84601", "addr:state": "UT", "amenity": "post_box", "brand": "United States Postal Service", "brand:wikidata": "Q668687", "collection_times": "Mo-Fr 16:40", "name": "USPS COLLECTION BOX - BLUE BOX", "note": "ON 12/24 AND 12/31, THIS BOX MAY BE COLLECTED AS EARLY AS 12 NOON.", "nsi_id": "unitedstatespostalservice-a77078", "operator": "United States Postal Service", "operator:short": "USPS", "operator:type": "public", "operator:wikidata": "Q668687", "ref": "8460100011"}, "type": "Feature"}
{"dataset_attributes": {"@spider": "usps_collection_boxes", "spider:collection_time": "2023-12-10T08:24:07.887270"}, "geometry": {"coordinates": [-111.665829, 40.2629], "type": "Point"}, "id": "h0Px9BbkGonj5ArrO0FBvogWsxM=", "properties": {"@spider": "usps_collection_boxes", "addr:city": "PROVO", "addr:country": "US", "addr:full": "2230 N UNIVERSITY PKWY", "addr:postcode": "84601", "addr:state": "UT", "amenity": "post_box", "brand": "United States Postal Service", "brand:wikidata": "Q668687", "collection_times": "Mo-Fr 17:00", "name": "USPS COLLECTION BOX - BLUE BOX", "note": "ON 12/24 AND 12/31, THIS BOX MAY BE COLLECTED AS EARLY AS 12 NOON.", "nsi_id": "unitedstatespostalservice-a77078", "operator": "United States Postal Service", "operator:short": "USPS", "operator:type": "public", "operator:wikidata": "Q668687", "ref": "8460100014"}, "type": "Feature"}
{"dataset_attributes": {"@spider": "usps_collection_boxes", "spider:collection_time": "2023-12-10T08:24:07.887270"}, "geometry": {"coordinates": [-111.657682, 40.281095], "type": "Point"}, "id": "WFSjlJnDjRuGH3iWUKLO-Is7Ejw=", "properties": {"@spider": "usps_collection_boxes", "addr:city": "PROVO", "addr:country": "US", "addr:full": "3550 N UNIVERSITY AVE", "addr:postcode": "84601", "addr:state": "UT", "amenity": "post_box", "brand": "United States Postal Service", "brand:wikidata": "Q668687", "collection_times": "Mo-Fr 15:30", "name": "USPS COLLECTION BOX - BLUE BOX", "note": "ON 12/24 AND 12/31, THIS BOX MAY BE COLLECTED AS EARLY AS 12 NOON.", "nsi_id": "unitedstatespostalservice-a77078", "operator": "United States Postal Service", "operator:short": "USPS", "operator:type": "public", "operator:wikidata": "Q668687", "ref": "8460100015"}, "type": "Feature"}
{"dataset_attributes": {"@spider": "usps_collection_boxes", "spider:collection_time": "2023-12-10T08:24:07.887270"}, "geometry": {"coordinates": [-111.66279, 40.256982], "type": "Point"}, "id": "OuORZc4vcJki2-qH-ydiinyRvdw=", "properties": {"@spider": "usps_collection_boxes", "addr:city": "PROVO", "addr:country": "US", "addr:full": "1675 N FREEDOM BLVD", "addr:postcode": "84601", "addr:state": "UT", "amenity": "post_box", "brand": "United States Postal Service", "brand:wikidata": "Q668687", "collection_times": "Mo-Fr 18:00", "name": "USPS COLLECTION BOX - BLUE BOX", "note": "ON 12/24 AND 12/31, THIS BOX MAY BE COLLECTED AS EARLY AS 12 NOON.", "nsi_id": "unitedstatespostalservice-a77078", "operator": "United States Postal Service", "operator:short": "USPS", "operator:type": "public", "operator:wikidata": "Q668687", "ref": "8460100017"}, "type": "Feature"}
{"dataset_attributes": {"@spider": "usps_collection_boxes", "spider:collection_time": "2023-12-10T08:24:07.887270"}, "geometry": {"coordinates": [-111.660397, 40.235381], "type": "Point"}, "id": "Z3Y0zs_MyxXHyJYaR6W5jdy9sEc=", "properties": {"@spider": "usps_collection_boxes", "addr:city": "PROVO", "addr:country": "US", "addr:full": "110 N 100 W", "addr:postcode": "84601", "addr:state": "UT", "amenity": "post_box", "brand": "United States Postal Service", "brand:wikidata": "Q668687", "collection_times": "Mo-Fr 17:15; Sa 16:50", "name": "USPS COLLECTION BOX - BLUE BOX", "note": "ON 12/24 AND 12/31, THIS BOX MAY BE COLLECTED AS EARLY AS 12 NOON.", "nsi_id": "unitedstatespostalservice-a77078", "operator": "United States Postal Service", "operator:short": "USPS", "operator:type": "public", "operator:wikidata": "Q668687", "ref": "8460100024"}, "type": "Feature"}
{"dataset_attributes": {"@spider": "usps_collection_boxes", "spider:collection_time": "2023-12-10T08:24:07.887270"}, "geometry": {"coordinates": [-111.667607, 40.244061], "type": "Point"}, "id": "627XbyxT3x38tC5UbeyINU8nqfE=", "properties": {"@spider": "usps_collection_boxes", "addr:city": "PROVO", "addr:country": "US", "addr:full": "777 N 500 W", "addr:postcode": "84601", "addr:state": "UT", "amenity": "post_box", "brand": "United States Postal Service", "brand:wikidata": "Q668687", "collection_times": "Mo-Fr 15:45; Sa 15:30", "name": "USPS COLLECTION BOX - BLUE BOX", "note": "ON 12/24 AND 12/31, THIS BOX MAY BE COLLECTED AS EARLY AS 12 NOON.", "nsi_id": "unitedstatespostalservice-a77078", "operator": "United States Postal Service", "operator:short": "USPS", "operator:type": "public", "operator:wikidata": "Q668687", "ref": "8460100057"}, "type": "Feature"}
{"dataset_attributes": {"@spider": "usps_collection_boxes", "spider:collection_time": "2023-12-10T08:24:07.887270"}, "geometry": {"coordinates": [-111.65241, 40.282597], "type": "Point"}, "id": "EpxI5nrhDJ4Oa2SAJ6DKrMECN7Q=", "properties": {"@spider": "usps_collection_boxes", "addr:city": "PROVO", "addr:country": "US", "addr:full": "3707 N CANYON RD", "addr:postcode": "84601", "addr:state": "UT", "amenity": "post_box", "brand": "United States Postal Service", "brand:wikidata": "Q668687", "collection_times": "Mo-Fr 15:30", "name": "USPS COLLECTION BOX - BLUE BOX", "note": "ON 12/24 AND 12/31, THIS BOX MAY BE COLLECTED AS EARLY AS 12 NOON.", "nsi_id": "unitedstatespostalservice-a77078", "operator": "United States Postal Service", "operator:short": "USPS", "operator:type": "public", "operator:wikidata": "Q668687", "ref": "8460100070"}, "type": "Feature"}
{"dataset_attributes": {"@spider": "usps_collection_boxes", "spider:collection_time": "2023-12-10T08:24:07.887270"}, "geometry": {"coordinates": [-111.659755, 40.230939], "type": "Point"}, "id": "91pAygmnJHLf3CxVjsEU94tQi80=", "properties": {"@spider": "usps_collection_boxes", "addr:city": "PROVO", "addr:country": "US", "addr:full": "45 W 200 S", "addr:postcode": "84601", "addr:state": "UT", "amenity": "post_box", "brand": "United States Postal Service", "brand:wikidata": "Q668687", "collection_times": "Mo-Fr 18:15; Sa 17:45", "name": "USPS COLLECTION BOX - BLUE BOX", "note": "ON 12/24 AND 12/31, THIS BOX MAY BE COLLECTED AS EARLY AS 12 NOON.", "nsi_id": "unitedstatespostalservice-a77078", "operator": "United States Postal Service", "operator:short": "USPS", "operator:type": "public", "operator:wikidata": "Q668687", "ref": "8460100084"}, "type": "Feature"}
{"dataset_attributes": {"@spider": "usps_collection_boxes", "spider:collection_time": "2023-12-10T08:24:07.887270"}, "geometry": {"coordinates": [-111.654763, 40.22203], "type": "Point"}, "id": "D4btJXk8u5_4ivHvOGPRU1tljeo=", "properties": {"@spider": "usps_collection_boxes", "addr:city": "PROVO", "addr:country": "US", "addr:full": "210 E 900 S", "addr:postcode": "84601", "addr:state": "UT", "amenity": "post_box", "brand": "United States Postal Service", "brand:wikidata": "Q668687", "collection_times": "Mo-Sa 20:30", "name": "USPS COLLECTION BOX - BLUE BOX", "note": "ON 12/24 AND 12/31, THIS BOX MAY BE COLLECTED AS EARLY AS 12 NOON.", "nsi_id": "unitedstatespostalservice-a77078", "operator": "United States Postal Service", "operator:short": "USPS", "operator:type": "public", "operator:wikidata": "Q668687", "ref": "8460100088"}, "type": "Feature"}
{"dataset_attributes": {"@spider": "usps_collection_boxes", "spider:collection_time": "2023-12-10T08:24:07.887270"}, "geometry": {"coordinates": [-111.645116001, 40.26030099], "type": "Point"}, "id": "IkVQmTMSjJzw8s_u13YO30XP_1c=", "properties": {"@spider": "usps_collection_boxes", "addr:city": "PROVO", "addr:country": "US", "addr:full": "2005 N 900 E", "addr:postcode": "84601", "addr:state": "UT", "amenity": "post_box", "brand": "United States Postal Service", "brand:wikidata": "Q668687", "collection_times": "Mo-Fr 15:45", "name": "USPS COLLECTION BOX - BLUE BOX", "note": "ON 12/24 AND 12/31, THIS BOX MAY BE COLLECTED AS EARLY AS 12 NOON.", "nsi_id": "unitedstatespostalservice-a77078", "operator": "United States Postal Service", "operator:short": "USPS", "operator:type": "public", "operator:wikidata": "Q668687", "ref": "8460100106"}, "type": "Feature"}
{"dataset_attributes": {"@spider": "usps_collection_boxes", "spider:collection_time": "2023-12-10T08:24:07.887270"}, "geometry": {"coordinates": [-111.656997, 40.233918], "type": "Point"}, "id": "lBZC879opC8E2obOezfmq7zZsPE=", "properties": {"@spider": "usps_collection_boxes", "addr:city": "PROVO", "addr:country": "US", "addr:full": "1 N 100 E", "addr:postcode": "84601", "addr:state": "UT", "amenity": "post_box", "brand": "United States Postal Service", "brand:wikidata": "Q668687", "collection_times": "Mo-Fr 17:15", "name": "USPS COLLECTION BOX - BLUE BOX", "note": "ON 12/24 AND 12/31, THIS BOX MAY BE COLLECTED AS EARLY AS 12 NOON.", "nsi_id": "unitedstatespostalservice-a77078", "operator": "United States Postal Service", "operator:short": "USPS", "operator:type": "public", "operator:wikidata": "Q668687", "ref": "8460100155"}, "type": "Feature"}
{"dataset_attributes": {"@spider": "usps_collection_boxes", "spider:collection_time": "2023-12-10T08:24:07.887270"}, "geometry": {"coordinates": [-111.660131, 40.231912], "type": "Point"}, "id": "Gwgcyyp4Il7ut3BJCNuSAJTY7YI=", "properties": {"@spider": "usps_collection_boxes", "addr:city": "PROVO", "addr:country": "US", "addr:full": "95 W 100 S", "addr:postcode": "84601", "addr:state": "UT", "amenity": "post_box", "brand": "United States Postal Service", "brand:wikidata": "Q668687", "collection_times": "Mo-Fr 18:15; Sa 17:30", "name": "USPS COLLECTION BOX - PO LOBBY", "note": "ON 12/24 AND 12/31, THIS BOX MAY BE COLLECTED AS EARLY AS 12 NOON.", "nsi_id": "unitedstatespostalservice-a77078", "operator": "United States Postal Service", "operator:short": "USPS", "operator:type": "public", "operator:wikidata": "Q668687", "ref": "8460100158"}, "type": "Feature"}
{"dataset_attributes": {"@spider": "usps_collection_boxes", "spider:collection_time": "2023-12-10T08:24:07.887270"}, "geometry": {"coordinates": [-111.676278, 40.25975], "type": "Point"}, "id": "SM2EFsPZrpXm5LXG77g3c1tb-kg=", "properties": {"@spider": "usps_collection_boxes", "addr:city": "PROVO", "addr:country": "US", "addr:full": "1955 N 1120 W", "addr:postcode": "84601", "addr:state": "UT", "amenity": "post_box", "brand": "United States Postal Service", "brand:wikidata": "Q668687", "collection_times": "Mo-Fr 17:45; Sa 16:00", "name": "USPS COLLECTION BOX - BLUE BOX", "note": "ON 12/24 AND 12/31, THIS BOX MAY BE COLLECTED AS EARLY AS 12 NOON.", "nsi_id": "unitedstatespostalservice-a77078", "operator": "United States Postal Service", "operator:short": "USPS", "operator:type": "public", "operator:wikidata": "Q668687", "ref": "8460100162"}, "type": "Feature"}
{"dataset_attributes": {"@spider": "usps_collection_boxes", "spider:collection_time": "2023-12-10T08:24:07.887270"}, "geometry": {"coordinates": [-111.660111, 40.231868], "type": "Point"}, "id": "RzlPhazfnTfIdsOTanRc2QPAVik=", "properties": {"@spider": "usps_collection_boxes", "addr:city": "PROVO", "addr:country": "US", "addr:full": "95 W 100 S", "addr:postcode": "84601", "addr:state": "UT", "amenity": "post_box", "brand": "United States Postal Service", "brand:wikidata": "Q668687", "collection_times": "Mo-Fr 18:15; Sa 17:30", "name": "USPS COLLECTION BOX - APC", "note": "ON 12/24 AND 12/31, THIS BOX MAY BE COLLECTED AS EARLY AS 12 NOON.", "nsi_id": "unitedstatespostalservice-a77078", "operator": "United States Postal Service", "operator:short": "USPS", "operator:type": "public", "operator:wikidata": "Q668687", "ref": "8460100164"}, "type": "Feature"}
{"dataset_attributes": {"@spider": "usps_collection_boxes", "spider:collection_time": "2023-12-10T08:24:07.887270"}, "geometry": {"coordinates": [-111.657826, 40.231749], "type": "Point"}, "id": "dYfF7VhJxqvYmBdpRhnR9t-Pz6U=", "properties": {"@spider": "usps_collection_boxes", "addr:city": "PROVO", "addr:country": "US", "addr:full": "10 E 100 S", "addr:postcode": "84601", "addr:state": "UT", "amenity": "post_box", "brand": "United States Postal Service", "brand:wikidata": "Q668687", "collection_times": "Mo-Fr 17:15", "name": "USPS COLLECTION BOX - BLUE BOX", "note": "ON 12/24 AND 12/31, THIS BOX MAY BE COLLECTED AS EARLY AS 12 NOON.", "nsi_id": "unitedstatespostalservice-a77078", "operator": "United States Postal Service", "operator:short": "USPS", "operator:type": "public", "operator:wikidata": "Q668687", "ref": "8460100165"}, "type": "Feature"}
{"dataset_attributes": {"@spider": "usps_collection_boxes", "spider:collection_time": "2023-12-10T08:24:07.887270"}, "geometry": {"coordinates": [-111.654022, 40.221395], "type": "Point"}, "id": "51enltXXRoLg6T-WYNUZUqDd_yI=", "properties": {"@spider": "usps_collection_boxes", "addr:city": "PROVO", "addr:country": "US", "addr:full": "936 S 250 E", "addr:postcode": "84601", "addr:state": "UT", "amenity": "post_box", "brand": "United States Postal Service", "brand:wikidata": "Q668687", "collection_times": "Mo-Sa 20:30", "name": "USPS COLLECTION BOX - PO LOBBY", "note": "ON 12/24 AND 12/31, THIS BOX MAY BE COLLECTED AS EARLY AS 12 NOON.", "nsi_id": "unitedstatespostalservice-a77078", "operator": "United States Postal Service", "operator:short": "USPS", "operator:type": "public", "operator:wikidata": "Q668687", "ref": "8460100166"}, "type": "Feature"}
{"dataset_attributes": {"@spider": "usps_collection_boxes", "spider:collection_time": "2023-12-10T08:24:07.887270"}, "geometry": {"coordinates": [-111.663056, 40.221338], "type": "Point"}, "id": "Z6fRmy6tdpqPrLfOhT9f_iumeE0=", "properties": {"@spider": "usps_collection_boxes", "addr:city": "PROVO", "addr:country": "US", "addr:full": "936 S 250 E", "addr:postcode": "84601", "addr:state": "UT", "amenity": "post_box", "brand": "United States Postal Service", "brand:wikidata": "Q668687", "collection_times": "Mo-Sa 20:30", "name": "USPS COLLECTION BOX - PO LOBBY", "note": "ON 12/24 AND 12/31, THIS BOX MAY BE COLLECTED AS EARLY AS 12 NOON.", "nsi_id": "unitedstatespostalservice-a77078", "operator": "United States Postal Service", "operator:short": "USPS", "operator:type": "public", "operator:wikidata": "Q668687", "ref": "8460100167"}, "type": "Feature"}
{"dataset_attributes": {"@spider": "usps_collection_boxes", "spider:collection_time": "2023-12-10T08:24:07.887270"}, "geometry": {"coordinates": [-111.663056, 40.221338], "type": "Point"}, "id": "nicamXay_LHipmOOpYTDUIWxs9o=", "properties": {"@spider": "usps_collection_boxes", "addr:city": "PROVO", "addr:country": "US", "addr:full": "936 S 250 E", "addr:postcode": "84601", "addr:state": "UT", "amenity": "post_box", "brand": "United States Postal Service", "brand:wikidata": "Q668687", "collection_times": "Mo-Sa 20:30", "name": "USPS COLLECTION BOX - APC", "note": "ON 12/24 AND 12/31, THIS BOX MAY BE COLLECTED AS EARLY AS 12 NOON.", "nsi_id": "unitedstatespostalservice-a77078", "operator": "United States Postal Service", "operator:short": "USPS", "operator:type": "public", "operator:wikidata": "Q668687", "ref": "8460100168"}, "type": "Feature"}
{"dataset_attributes": {"@spider": "usps_collection_boxes", "spider:collection_time": "2023-12-10T08:24:07.887270"}, "geometry": {"coordinates": [-111.656985, 40.232892], "type": "Point"}, "id": "JGle32d0yn5zL9cGOaG_eDqn0vo=", "properties": {"@spider": "usps_collection_boxes", "addr:city": "PROVO", "addr:country": "US", "addr:full": "45 E 100 S", "addr:postcode": "84601", "addr:state": "UT", "amenity": "post_box", "brand": "United States Postal Service", "brand:wikidata": "Q668687", "collection_times": "Mo-Fr 17:15", "name": "USPS COLLECTION BOX - BLUE BOX", "note": "ON 12/24 AND 12/31, THIS BOX MAY BE COLLECTED AS EARLY AS 12 NOON.", "nsi_id": "unitedstatespostalservice-a77078", "operator": "United States Postal Service", "operator:short": "USPS", "operator:type": "public", "operator:wikidata": "Q668687", "ref": "8460100169"}, "type": "Feature"}
{"dataset_attributes": {"@spider": "usps_collection_boxes", "spider:collection_time": "2023-12-10T08:24:07.887270"}, "geometry": {"coordinates": [-111.660429709, 40.232265138], "type": "Point"}, "id": "bqUl0FJCPLLJqaRrRn6m4YxIYhQ=", "properties": {"@spider": "usps_collection_boxes", "addr:city": "PROVO", "addr:country": "US", "addr:full": "95 W 100 S", "addr:postcode": "84601", "addr:state": "UT", "amenity": "post_box", "brand": "United States Postal Service", "brand:wikidata": "Q668687", "collection_times": "Mo-Fr 18:15; Sa 17:30", "name": "USPS COLLECTION BOX - PO LOBBY", "note": "ON 12/24 AND 12/31, THIS BOX MAY BE COLLECTED AS EARLY AS 12 NOON.", "nsi_id": "unitedstatespostalservice-a77078", "operator": "United States Postal Service", "operator:short": "USPS", "operator:type": "public", "operator:wikidata": "Q668687", "ref": "8460100173"}, "type": "Feature"}
{"dataset_attributes": {"@spider": "usps_collection_boxes", "spider:collection_time": "2023-12-10T08:24:07.887270"}, "geometry": {"coordinates": [-111.654029526, 40.221594], "type": "Point"}, "id": "NNwjGH_r7gIZEuCrjkpIg93MHkY=", "properties": {"@spider": "usps_collection_boxes", "addr:city": "PROVO", "addr:country": "US", "addr:full": "936 S 250 E", "addr:postcode": "84601", "addr:state": "UT", "amenity": "post_box", "brand": "United States Postal Service", "brand:wikidata": "Q668687", "collection_times": "Mo-Sa 20:30", "name": "USPS COLLECTION BOX - PO LOBBY", "note": "ON 12/24 AND 12/31, THIS BOX MAY BE COLLECTED AS EARLY AS 12 NOON.", "nsi_id": "unitedstatespostalservice-a77078", "operator": "United States Postal Service", "operator:short": "USPS", "operator:type": "public", "operator:wikidata": "Q668687", "ref": "8460100174"}, "type": "Feature"}
{"dataset_attributes": {"@spider": "usps_collection_boxes", "spider:collection_time": "2023-12-10T08:24:07.887270"}, "geometry": {"coordinates": [-111.937087, 38.920781], "type": "Point"}, "id": "a2p6YtKI9JNf-jvhjGxgMK0w4Dc=", "properties": {"@spider": "usps_collection_boxes", "addr:city": "AURORA", "addr:country": "US", "addr:full": "178 W CENTER ST", "addr:postcode": "84620", "addr:state": "UT", "amenity": "post_box", "brand": "United States Postal Service", "brand:wikidata": "Q668687", "collection_times": "Mo-Fr 14:45; Sa 10:30", "name": "USPS COLLECTION BOX - BLUE BOX", "note": "ON 12/24 AND 12/31, THIS BOX MAY BE COLLECTED AS EARLY AS 12 NOON.", "nsi_id": "unitedstatespostalservice-a77078", "operator": "United States Postal Service", "operator:short": "USPS", "operator:type": "public", "operator:wikidata": "Q668687", "ref": "8462000000"}, "type": "Feature"}
{"dataset_attributes": {"@spider": "usps_collection_boxes", "spider:collection_time": "2023-12-10T08:24:07.887270"}, "geometry": {"coordinates": [-111.937155, 38.920752], "type": "Point"}, "id": "8j4aEiNKiDRkJ4iuXy__3oTs_lA=", "properties": {"@spider": "usps_collection_boxes", "addr:city": "AURORA", "addr:country": "US", "addr:full": "178 W CENTER ST", "addr:postcode": "84620", "addr:state": "UT", "amenity": "post_box", "brand": "United States Postal Service", "brand:wikidata": "Q668687", "collection_times": "Mo-Fr 14:45; Sa 10:30", "name": "USPS COLLECTION BOX - PO LOBBY", "note": "ON 12/24 AND 12/31, THIS BOX MAY BE COLLECTED AS EARLY AS 12 NOON.", "nsi_id": "unitedstatespostalservice-a77078", "operator": "United States Postal Service", "operator:short": "USPS", "operator:type": "public", "operator:wikidata": "Q668687", "ref": "8462000001"}, "type": "Feature"}
{"dataset_attributes": {"@spider": "usps_collection_boxes", "spider:collection_time": "2023-12-10T08:24:07.887270"}, "geometry": {"coordinates": [-111.93712178, 38.920793489], "type": "Point"}, "id": "msRw9ZWvEs-eL6D5LdRUNbW20jw=", "properties": {"@spider": "usps_collection_boxes", "addr:city": "AURORA", "addr:country": "US", "addr:full": "178 W CENTER ST", "addr:postcode": "84620", "addr:state": "UT", "amenity": "post_box", "brand": "United States Postal Service", "brand:wikidata": "Q668687", "collection_times": "Mo-Fr 14:45; Sa 10:30", "name": "USPS COLLECTION BOX - PO LOBBY", "note": "ON 12/24 AND 12/31, THIS BOX MAY BE COLLECTED AS EARLY AS 12 NOON.", "nsi_id": "unitedstatespostalservice-a77078", "operator": "United States Postal Service", "operator:short": "USPS", "operator:type": "public", "operator:wikidata": "Q668687", "ref": "8462000002"}, "type": "Feature"}
{"dataset_attributes": {"@spider": "usps_collection_boxes", "spider:collection_time": "2023-12-10T08:24:07.887270"}, "geometry": {"coordinates": [-111.8189481122, 39.136967801], "type": "Point"}, "id": "5D8wqnKl4XreD_SOR2FxURmZ4G8=", "properties": {"@spider": "usps_collection_boxes", "addr:city": "CENTERFIELD", "addr:country": "US", "addr:full": "540 N MAIN ST", "addr:postcode": "84622", "addr:state": "UT", "amenity": "post_box", "brand": "United States Postal Service", "brand:wikidata": "Q668687", "collection_times": "Mo-Fr 16:15; Sa 11:45", "name": "USPS COLLECTION BOX - BLUE BOX", "note": "ON 12/24 AND 12/31, THIS BOX MAY BE COLLECTED AS EARLY AS 12 NOON.", "nsi_id": "unitedstatespostalservice-a77078", "operator": "United States Postal Service", "operator:short": "USPS", "operator:type": "public", "operator:wikidata": "Q668687", "ref": "8462200000"}, "type": "Feature"}
{"dataset_attributes": {"@spider": "usps_collection_boxes", "spider:collection_time": "2023-12-10T08:24:07.887270"}, "geometry": {"coordinates": [-112.56807, 39.350939], "type": "Point"}, "id": "9eqv5wT3shbYhWYWC34ongO3QvA=", "properties": {"@spider": "usps_collection_boxes", "addr:city": "DELTA", "addr:country": "US", "addr:full": "86 S 300 E", "addr:postcode": "84624", "addr:state": "UT", "amenity": "post_box", "brand": "United States Postal Service", "brand:wikidata": "Q668687", "collection_times": "Mo-Fr 16:30; Sa 14:00", "name": "USPS COLLECTION BOX - BLUE BOX", "note": "ON 12/24 AND 12/31, THIS BOX MAY BE COLLECTED AS EARLY AS 12 NOON.", "nsi_id": "unitedstatespostalservice-a77078", "operator": "United States Postal Service", "operator:short": "USPS", "operator:type": "public", "operator:wikidata": "Q668687", "ref": "8462400001"}, "type": "Feature"}
{"dataset_attributes": {"@spider": "usps_collection_boxes", "spider:collection_time": "2023-12-10T08:24:07.887270"}, "geometry": {"coordinates": [-112.560164, 39.349735], "type": "Point"}, "id": "vs0m1Vd3gWn6SwqSuF1sXdWMLNo=", "properties": {"@spider": "usps_collection_boxes", "addr:city": "DELTA", "addr:country": "US", "addr:full": "145 WHITE SAGE AVE", "addr:postcode": "84624", "addr:state": "UT", "amenity": "post_box", "brand": "United States Postal Service", "brand:wikidata": "Q668687", "collection_times": "Mo-Sa 08:30", "name": "USPS COLLECTION BOX - BLUE BOX", "nsi_id": "unitedstatespostalservice-a77078", "operator": "United States Postal Service", "operator:short": "USPS", "operator:type": "public", "operator:wikidata": "Q668687", "ref": "8462400002"}, "type": "Feature"}
{"dataset_attributes": {"@spider": "usps_collection_boxes", "spider:collection_time": "2023-12-10T08:24:07.887270"}, "geometry": {"coordinates": [-112.581152, 39.352281], "type": "Point"}, "id": "KsRXeBaA5DcZuQ5jG44OFN8lwbo=", "properties": {"@spider": "usps_collection_boxes", "addr:city": "DELTA", "addr:country": "US", "addr:full": "291 W MAIN ST", "addr:postcode": "84624", "addr:state": "UT", "amenity": "post_box", "brand": "United States Postal Service", "brand:wikidata": "Q668687", "collection_times": "Mo-Sa 12:00", "name": "USPS COLLECTION BOX - BLUE BOX", "nsi_id": "unitedstatespostalservice-a77078", "operator": "United States Postal Service", "operator:short": "USPS", "operator:type": "public", "operator:wikidata": "Q668687", "ref": "8462400003"}, "type": "Feature"}
{"dataset_attributes": {"@spider": "usps_collection_boxes", "spider:collection_time": "2023-12-10T08:24:07.887270"}, "geometry": {"coordinates": [-112.568036, 39.350872], "type": "Point"}, "id": "opNIMvJud97ucskvSNfWu6M2K_8=", "properties": {"@spider": "usps_collection_boxes", "addr:city": "DELTA", "addr:country": "US", "addr:full": "86 S 300 E", "addr:postcode": "84624", "addr:state": "UT", "amenity": "post_box", "brand": "United States Postal Service", "brand:wikidata": "Q668687", "collection_times": "Mo-Fr 16:30; Sa 14:00", "name": "USPS COLLECTION BOX - PO LOBBY", "note": "ON 12/24 AND 12/31, THIS BOX MAY BE COLLECTED AS EARLY AS 12 NOON.", "nsi_id": "unitedstatespostalservice-a77078", "operator": "United States Postal Service", "operator:short": "USPS", "operator:type": "public", "operator:wikidata": "Q668687", "ref": "8462400004"}, "type": "Feature"}
{"dataset_attributes": {"@spider": "usps_collection_boxes", "spider:collection_time": "2023-12-10T08:24:07.887270"}, "geometry": {"coordinates": [-112.568036, 39.350872], "type": "Point"}, "id": "1eq-a2wfnoOsenVfIotHBepDHx4=", "properties": {"@spider": "usps_collection_boxes", "addr:city": "DELTA", "addr:country": "US", "addr:full": "86 S 300 E", "addr:postcode": "84624", "addr:state": "UT", "amenity": "post_box", "brand": "United States Postal Service", "brand:wikidata": "Q668687", "collection_times": "Mo-Fr 16:30; Sa 14:00", "name": "USPS COLLECTION BOX - PO LOBBY", "note": "ON 12/24 AND 12/31, THIS BOX MAY BE COLLECTED AS EARLY AS 12 NOON.", "nsi_id": "unitedstatespostalservice-a77078", "operator": "United States Postal Service", "operator:short": "USPS", "operator:type": "public", "operator:wikidata": "Q668687", "ref": "8462400007"}, "type": "Feature"}
{"dataset_attributes": {"@spider": "usps_collection_boxes", "spider:collection_time": "2023-12-10T08:24:07.887270"}, "geometry": {"coordinates": [-112.568109504, 39.351105], "type": "Point"}, "id": "9p0Yq9BcULOJLLNI6JIh0CjvRRw=", "properties": {"@spider": "usps_collection_boxes", "addr:city": "DELTA", "addr:country": "US", "addr:full": "86 S 300 E", "addr:postcode": "84624", "addr:state": "UT", "amenity": "post_box", "brand": "United States Postal Service", "brand:wikidata": "Q668687", "collection_times": "Mo-Fr 16:30; Sa 14:00", "name": "USPS COLLECTION BOX - PO LOBBY", "note": "ON 12/24 AND 12/31, THIS BOX MAY BE COLLECTED AS EARLY AS 12 NOON.", "nsi_id": "unitedstatespostalservice-a77078", "operator": "United States Postal Service", "operator:short": "USPS", "operator:type": "public", "operator:wikidata": "Q668687", "ref": "8462400008"}, "type": "Feature"}
{"dataset_attributes": {"@spider": "usps_collection_boxes", "spider:collection_time": "2023-12-10T08:24:07.887270"}, "geometry": {"coordinates": [-111.956243, 39.95321], "type": "Point"}, "id": "Gq65ue2DWWrG70ehMoQXkDZ9uTQ=", "properties": {"@spider": "usps_collection_boxes", "addr:city": "ELBERTA", "addr:country": "US", "addr:full": "15156 S 12800 W", "addr:postcode": "84626", "addr:state": "UT", "amenity": "post_box", "brand": "United States Postal Service", "brand:wikidata": "Q668687", "collection_times": "Mo-Fr 15:00; Sa 10:30", "name": "USPS COLLECTION BOX - BLUE BOX", "note": "ON 12/24 AND 12/31, THIS BOX MAY BE COLLECTED AS EARLY AS 12 NOON.", "nsi_id": "unitedstatespostalservice-a77078", "operator": "United States Postal Service", "operator:short": "USPS", "operator:type": "public", "operator:wikidata": "Q668687", "ref": "8462600000"}, "type": "Feature"}
{"dataset_attributes": {"@spider": "usps_collection_boxes", "spider:collection_time": "2023-12-10T08:24:07.887270"}, "geometry": {"coordinates": [-111.956207, 39.953159], "type": "Point"}, "id": "rYskCLN-z_DeWsVVBX-IgfkVCk8=", "properties": {"@spider": "usps_collection_boxes", "addr:city": "ELBERTA", "addr:country": "US", "addr:full": "15156 S 12800 W", "addr:postcode": "84626", "addr:state": "UT", "amenity": "post_box", "brand": "United States Postal Service", "brand:wikidata": "Q668687", "collection_times": "Mo-Fr 11:45; Sa 10:30", "name": "USPS COLLECTION BOX - PO LOBBY", "nsi_id": "unitedstatespostalservice-a77078", "operator": "United States Postal Service", "operator:short": "USPS", "operator:type": "public", "operator:wikidata": "Q668687", "ref": "8462600001"}, "type": "Feature"}
{"dataset_attributes": {"@spider": "usps_collection_boxes", "spider:collection_time": "2023-12-10T08:24:07.887270"}, "geometry": {"coordinates": [-111.956229306, 39.952556078], "type": "Point"}, "id": "g50DnyXZzpX8xJbiHQuWR7GUHE8=", "properties": {"@spider": "usps_collection_boxes", "addr:city": "ELBERTA", "addr:country": "US", "addr:full": "15156 S 12800 W", "addr:postcode": "84626", "addr:state": "UT", "amenity": "post_box", "brand": "United States Postal Service", "brand:wikidata": "Q668687", "collection_times": "Mo-Fr 11:45", "name": "USPS COLLECTION BOX - PO LOBBY", "nsi_id": "unitedstatespostalservice-a77078", "operator": "United States Postal Service", "operator:short": "USPS", "operator:type": "public", "operator:wikidata": "Q668687", "ref": "8462600002"}, "type": "Feature"}
{"dataset_attributes": {"@spider": "usps_collection_boxes", "spider:collection_time": "2023-12-10T08:24:07.887270"}, "geometry": {"coordinates": [-111.585483, 39.36164], "type": "Point"}, "id": "a011arQRqgxlO70FUWo5JgV3xVs=", "properties": {"@spider": "usps_collection_boxes", "addr:city": "EPHRAIM", "addr:country": "US", "addr:full": "55 E 100 N", "addr:postcode": "84627", "addr:state": "UT", "amenity": "post_box", "brand": "United States Postal Service", "brand:wikidata": "Q668687", "collection_times": "Mo-Fr 16:30; Sa 12:15", "name": "USPS COLLECTION BOX - BLUE BOX", "note": "ON 12/24 AND 12/31, THIS BOX MAY BE COLLECTED AS EARLY AS 12 NOON.", "nsi_id": "unitedstatespostalservice-a77078", "operator": "United States Postal Service", "operator:short": "USPS", "operator:type": "public", "operator:wikidata": "Q668687", "ref": "8462700001"}, "type": "Feature"}
{"dataset_attributes": {"@spider": "usps_collection_boxes", "spider:collection_time": "2023-12-10T08:24:07.887270"}, "geometry": {"coordinates": [-111.585472, 39.361613], "type": "Point"}, "id": "eakv32_lGT88Fr0JvFJWu6kyk84=", "properties": {"@spider": "usps_collection_boxes", "addr:city": "EPHRAIM", "addr:country": "US", "addr:full": "55 E 100 N", "addr:postcode": "84627", "addr:state": "UT", "amenity": "post_box", "brand": "United States Postal Service", "brand:wikidata": "Q668687", "collection_times": "Mo-Fr 16:30; Sa 12:15", "name": "USPS COLLECTION BOX - PO LOBBY", "note": "ON 12/24 AND 12/31, THIS BOX MAY BE COLLECTED AS EARLY AS 12 NOON.", "nsi_id": "unitedstatespostalservice-a77078", "operator": "United States Postal Service", "operator:short": "USPS", "operator:type": "public", "operator:wikidata": "Q668687", "ref": "8462700002"}, "type": "Feature"}
{"dataset_attributes": {"@spider": "usps_collection_boxes", "spider:collection_time": "2023-12-10T08:24:07.887270"}, "geometry": {"coordinates": [-111.585472, 39.361613], "type": "Point"}, "id": "znLFXK3SVhkr_bPrPCmceFqLzPY=", "properties": {"@spider": "usps_collection_boxes", "addr:city": "EPHRAIM", "addr:country": "US", "addr:full": "55 E 100 N", "addr:postcode": "84627", "addr:state": "UT", "amenity": "post_box", "brand": "United States Postal Service", "brand:wikidata": "Q668687", "collection_times": "Mo-Fr 16:30; Sa 12:15", "name": "USPS COLLECTION BOX - PO LOBBY", "note": "ON 12/24 AND 12/31, THIS BOX MAY BE COLLECTED AS EARLY AS 12 NOON.", "nsi_id": "unitedstatespostalservice-a77078", "operator": "United States Postal Service", "operator:short": "USPS", "operator:type": "public", "operator:wikidata": "Q668687", "ref": "8462700003"}, "type": "Feature"}
{"dataset_attributes": {"@spider": "usps_collection_boxes", "spider:collection_time": "2023-12-10T08:24:07.887270"}, "geometry": {"coordinates": [-111.585530768, 39.361681923], "type": "Point"}, "id": "as2o8GD-79eYEgF7gwdGH8b-rcE=", "properties": {"@spider": "usps_collection_boxes", "addr:city": "EPHRAIM", "addr:country": "US", "addr:full": "55 E 100 N", "addr:postcode": "84627", "addr:state": "UT", "amenity": "post_box", "brand": "United States Postal Service", "brand:wikidata": "Q668687", "collection_times": "Mo-Fr 16:30; Sa 12:15", "name": "USPS COLLECTION BOX - PO LOBBY", "note": "ON 12/24 AND 12/31, THIS BOX MAY BE COLLECTED AS EARLY AS 12 NOON.", "nsi_id": "unitedstatespostalservice-a77078", "operator": "United States Postal Service", "operator:short": "USPS", "operator:type": "public", "operator:wikidata": "Q668687", "ref": "8462700004"}, "type": "Feature"}
{"dataset_attributes": {"@spider": "usps_collection_boxes", "spider:collection_time": "2023-12-10T08:24:07.887270"}, "geometry": {"coordinates": [-112.103772, 39.958466], "type": "Point"}, "id": "mtmAqpKVoHuBcZculHIMeIxSarY=", "properties": {"@spider": "usps_collection_boxes", "addr:city": "EUREKA", "addr:country": "US", "addr:full": "482 E MAIN ST", "addr:postcode": "84628", "addr:state": "UT", "amenity": "post_box", "brand": "United States Postal Service", "brand:wikidata": "Q668687", "collection_times": "Mo-Fr 16:30; Sa 11:30", "name": "USPS COLLECTION BOX - BLUE BOX", "note": "ON 12/24 AND 12/31, THIS BOX MAY BE COLLECTED AS EARLY AS 12 NOON.", "nsi_id": "unitedstatespostalservice-a77078", "operator": "United States Postal Service", "operator:short": "USPS", "operator:type": "public", "operator:wikidata": "Q668687", "ref": "8462800000"}, "type": "Feature"}
{"dataset_attributes": {"@spider": "usps_collection_boxes", "spider:collection_time": "2023-12-10T08:24:07.887270"}, "geometry": {"coordinates": [-112.105365, 39.957856], "type": "Point"}, "id": "2tcBJP1sNxjRp3dqD4M-pl-z-7o=", "properties": {"@spider": "usps_collection_boxes", "addr:city": "EUREKA", "addr:country": "US", "addr:full": "482 E MAIN ST", "addr:postcode": "84628", "addr:state": "UT", "amenity": "post_box", "brand": "United States Postal Service", "brand:wikidata": "Q668687", "collection_times": "Mo-Sa 11:45", "name": "USPS COLLECTION BOX - PO LOBBY", "nsi_id": "unitedstatespostalservice-a77078", "operator": "United States Postal Service", "operator:short": "USPS", "operator:type": "public", "operator:wikidata": "Q668687", "ref": "8462800001"}, "type": "Feature"}
{"dataset_attributes": {"@spider": "usps_collection_boxes", "spider:collection_time": "2023-12-10T08:24:07.887270"}, "geometry": {"coordinates": [-112.105287659, 39.957819115], "type": "Point"}, "id": "l4HITeTK70mP1nAgH955qr_ZrgI=", "properties": {"@spider": "usps_collection_boxes", "addr:city": "EUREKA", "addr:country": "US", "addr:full": "482 E MAIN ST", "addr:postcode": "84628", "addr:state": "UT", "amenity": "post_box", "brand": "United States Postal Service", "brand:wikidata": "Q668687", "collection_times": "Mo-Sa 11:45", "name": "USPS COLLECTION BOX - PO LOBBY", "nsi_id": "unitedstatespostalservice-a77078", "operator": "United States Postal Service", "operator:short": "USPS", "operator:type": "public", "operator:wikidata": "Q668687", "ref": "8462800002"}, "type": "Feature"}
{"dataset_attributes": {"@spider": "usps_collection_boxes", "spider:collection_time": "2023-12-10T08:24:07.887270"}, "geometry": {"coordinates": [-111.440502, 39.628102], "type": "Point"}, "id": "oIWNxOppgni-P8__qrpohWZyhPk=", "properties": {"@spider": "usps_collection_boxes", "addr:city": "FAIRVIEW", "addr:country": "US", "addr:full": "62 W CENTER ST", "addr:postcode": "84629", "addr:state": "UT", "amenity": "post_box", "brand": "United States Postal Service", "brand:wikidata": "Q668687", "collection_times": "Mo-Fr 16:00; Sa 11:30", "name": "USPS COLLECTION BOX - BLUE BOX", "note": "ON 12/24 AND 12/31, THIS BOX MAY BE COLLECTED AS EARLY AS 12 NOON.", "nsi_id": "unitedstatespostalservice-a77078", "operator": "United States Postal Service", "operator:short": "USPS", "operator:type": "public", "operator:wikidata": "Q668687", "ref": "8462900001"}, "type": "Feature"}
{"dataset_attributes": {"@spider": "usps_collection_boxes", "spider:collection_time": "2023-12-10T08:24:07.887270"}, "geometry": {"coordinates": [-111.440531, 39.628075], "type": "Point"}, "id": "Tvr5IU5RuBeh6PfF7_ae-O72HSk=", "properties": {"@spider": "usps_collection_boxes", "addr:city": "FAIRVIEW", "addr:country": "US", "addr:full": "62 W CENTER ST", "addr:postcode": "84629", "addr:state": "UT", "amenity": "post_box", "brand": "United States Postal Service", "brand:wikidata": "Q668687", "collection_times": "Mo-Fr 16:15; Sa 11:30", "name": "USPS COLLECTION BOX - PO LOBBY", "note": "ON 12/24 AND 12/31, THIS BOX MAY BE COLLECTED AS EARLY AS 12 NOON.", "nsi_id": "unitedstatespostalservice-a77078", "operator": "United States Postal Service", "operator:short": "USPS", "operator:type": "public", "operator:wikidata": "Q668687", "ref": "8462900002"}, "type": "Feature"}
{"dataset_attributes": {"@spider": "usps_collection_boxes", "spider:collection_time": "2023-12-10T08:24:07.887270"}, "geometry": {"coordinates": [-111.440509557, 39.628132748], "type": "Point"}, "id": "qXDkQYdE3oZvb8gfDSJEiaQNdJ4=", "properties": {"@spider": "usps_collection_boxes", "addr:city": "FAIRVIEW", "addr:country": "US", "addr:full": "62 W CENTER ST", "addr:postcode": "84629", "addr:state": "UT", "amenity": "post_box", "brand": "United States Postal Service", "brand:wikidata": "Q668687", "collection_times": "Mo-Fr 16:15; Sa 11:30", "name": "USPS COLLECTION BOX - PO LOBBY", "note": "ON 12/24 AND 12/31, THIS BOX MAY BE COLLECTED AS EARLY AS 12 NOON.", "nsi_id": "unitedstatespostalservice-a77078", "operator": "United States Postal Service", "operator:short": "USPS", "operator:type": "public", "operator:wikidata": "Q668687", "ref": "8462900003"}, "type": "Feature"}
{"dataset_attributes": {"@spider": "usps_collection_boxes", "spider:collection_time": "2023-12-10T08:24:07.887270"}, "geometry": {"coordinates": [-112.322285, 38.9685], "type": "Point"}, "id": "Myg8o_0jnFdfeywzAbWGn2qJ19Y=", "properties": {"@spider": "usps_collection_boxes", "addr:city": "FILLMORE", "addr:country": "US", "addr:full": "60 E CENTER ST", "addr:postcode": "84631", "addr:state": "UT", "amenity": "post_box", "brand": "United States Postal Service", "brand:wikidata": "Q668687", "collection_times": "Mo-Fr 16:00; Sa 11:00", "name": "USPS COLLECTION BOX - BLUE BOX", "note": "ON 12/24 AND 12/31, THIS BOX MAY BE COLLECTED AS EARLY AS 12 NOON.", "nsi_id": "unitedstatespostalservice-a77078", "operator": "United States Postal Service", "operator:short": "USPS", "operator:type": "public", "operator:wikidata": "Q668687", "ref": "8463100001"}, "type": "Feature"}
{"dataset_attributes": {"@spider": "usps_collection_boxes", "spider:collection_time": "2023-12-10T08:24:07.887270"}, "geometry": {"coordinates": [-112.322055, 38.968714], "type": "Point"}, "id": "XjjhAlP7idbICg3jRDJihQLZzgQ=", "properties": {"@spider": "usps_collection_boxes", "addr:city": "FILLMORE", "addr:country": "US", "addr:full": "60 E CENTER ST", "addr:postcode": "84631", "addr:state": "UT", "amenity": "post_box", "brand": "United States Postal Service", "brand:wikidata": "Q668687", "collection_times": "Mo-Fr 16:00; Sa 11:00", "name": "USPS COLLECTION BOX - PO LOBBY", "note": "ON 12/24 AND 12/31, THIS BOX MAY BE COLLECTED AS EARLY AS 12 NOON.", "nsi_id": "unitedstatespostalservice-a77078", "operator": "United States Postal Service", "operator:short": "USPS", "operator:type": "public", "operator:wikidata": "Q668687", "ref": "8463100005"}, "type": "Feature"}
{"dataset_attributes": {"@spider": "usps_collection_boxes", "spider:collection_time": "2023-12-10T08:24:07.887270"}, "geometry": {"coordinates": [-112.323715, 38.981018], "type": "Point"}, "id": "SsCat1DJYYl0S8WH4HusYoQzR-Q=", "properties": {"@spider": "usps_collection_boxes", "addr:city": "FILLMORE", "addr:country": "US", "addr:full": "556 N MAIN ST", "addr:postcode": "84631", "addr:state": "UT", "amenity": "post_box", "brand": "United States Postal Service", "brand:wikidata": "Q668687", "collection_times": "Mo-Fr 16:15; Sa 11:45", "name": "USPS COLLECTION BOX - PO LOBBY", "note": "ON 12/24 AND 12/31, THIS BOX MAY BE COLLECTED AS EARLY AS 12 NOON.", "nsi_id": "unitedstatespostalservice-a77078", "operator": "United States Postal Service", "operator:short": "USPS", "operator:type": "public", "operator:wikidata": "Q668687", "ref": "8463100006"}, "type": "Feature"}
{"dataset_attributes": {"@spider": "usps_collection_boxes", "spider:collection_time": "2023-12-10T08:24:07.887270"}, "geometry": {"coordinates": [-112.326007, 38.964547], "type": "Point"}, "id": "htW89ZJM3mglf-_f-WNqGDL6tWA=", "properties": {"@spider": "usps_collection_boxes", "addr:city": "FILLMORE", "addr:country": "US", "addr:full": "130 N STATE STREET", "addr:postcode": "84631", "addr:state": "UT", "amenity": "post_box", "brand": "United States Postal Service", "brand:wikidata": "Q668687", "collection_times": "Mo-Fr 11:45; Sa 11:00", "name": "USPS COLLECTION BOX - PO LOBBY", "nsi_id": "unitedstatespostalservice-a77078", "operator": "United States Postal Service", "operator:short": "USPS", "operator:type": "public", "operator:wikidata": "Q668687", "ref": "8463100007"}, "type": "Feature"}
{"dataset_attributes": {"@spider": "usps_collection_boxes", "spider:collection_time": "2023-12-10T08:24:07.887270"}, "geometry": {"coordinates": [-112.326001897, 38.964517491], "type": "Point"}, "id": "27SGGIQFpPCQ9rMxZMOrAjhCCNU=", "properties": {"@spider": "usps_collection_boxes", "addr:city": "FILLMORE", "addr:country": "US", "addr:full": "130 N STATE STREET", "addr:postcode": "84631", "addr:state": "UT", "amenity": "post_box", "brand": "United States Postal Service", "brand:wikidata": "Q668687", "collection_times": "Mo-Fr 11:45; Sa 11:00", "name": "USPS COLLECTION BOX - PO LOBBY", "nsi_id": "unitedstatespostalservice-a77078", "operator": "United States Postal Service", "operator:short": "USPS", "operator:type": "public", "operator:wikidata": "Q668687", "ref": "8463100008"}, "type": "Feature"}
{"dataset_attributes": {"@spider": "usps_collection_boxes", "spider:collection_time": "2023-12-10T08:24:07.887270"}, "geometry": {"coordinates": [-112.323695611, 38.981014264], "type": "Point"}, "id": "3VvlSXfiIRn58-G4jZ8gjDYhOHc=", "properties": {"@spider": "usps_collection_boxes", "addr:city": "FILLMORE", "addr:country": "US", "addr:full": "556 N MAIN ST", "addr:postcode": "84631", "addr:state": "UT", "amenity": "post_box", "brand": "United States Postal Service", "brand:wikidata": "Q668687", "collection_times": "Mo-Fr 16:15; Sa 11:45", "name": "USPS COLLECTION BOX - PO LOBBY", "note": "ON 12/24 AND 12/31, THIS BOX MAY BE COLLECTED AS EARLY AS 12 NOON.", "nsi_id": "unitedstatespostalservice-a77078", "operator": "United States Postal Service", "operator:short": "USPS", "operator:type": "public", "operator:wikidata": "Q668687", "ref": "8463100009"}, "type": "Feature"}
{"dataset_attributes": {"@spider": "usps_collection_boxes", "spider:collection_time": "2023-12-10T08:24:07.887270"}, "geometry": {"coordinates": [-112.32207, 38.968906528], "type": "Point"}, "id": "tzM7I4YcgGvDoBEh7JYDaiGxF_o=", "properties": {"@spider": "usps_collection_boxes", "addr:city": "FILLMORE", "addr:country": "US", "addr:full": "60 E CENTER ST", "addr:postcode": "84631", "addr:state": "UT", "amenity": "post_box", "brand": "United States Postal Service", "brand:wikidata": "Q668687", "collection_times": "Mo-Fr 16:00; Sa 11:00", "name": "USPS COLLECTION BOX - PO LOBBY", "note": "ON 12/24 AND 12/31, THIS BOX MAY BE COLLECTED AS EARLY AS 12 NOON.", "nsi_id": "unitedstatespostalservice-a77078", "operator": "United States Postal Service", "operator:short": "USPS", "operator:type": "public", "operator:wikidata": "Q668687", "ref": "8463100010"}, "type": "Feature"}
{"dataset_attributes": {"@spider": "usps_collection_boxes", "spider:collection_time": "2023-12-10T08:24:07.887270"}, "geometry": {"coordinates": [-111.634619, 39.627471], "type": "Point"}, "id": "r-1xBi657bOhRglKXOUTMq802-k=", "properties": {"@spider": "usps_collection_boxes", "addr:city": "FOUNTAIN GREEN", "addr:country": "US", "addr:full": "54 S STATE ST", "addr:postcode": "84632", "addr:state": "UT", "amenity": "post_box", "brand": "United States Postal Service", "brand:wikidata": "Q668687", "collection_times": "Mo-Fr 16:30; Sa 10:30", "name": "USPS COLLECTION BOX - BLUE BOX", "note": "ON 12/24 AND 12/31, THIS BOX MAY BE COLLECTED AS EARLY AS 12 NOON.", "nsi_id": "unitedstatespostalservice-a77078", "operator": "United States Postal Service", "operator:short": "USPS", "operator:type": "public", "operator:wikidata": "Q668687", "ref": "8463200000"}, "type": "Feature"}
{"dataset_attributes": {"@spider": "usps_collection_boxes", "spider:collection_time": "2023-12-10T08:24:07.887270"}, "geometry": {"coordinates": [-111.634444, 39.627557], "type": "Point"}, "id": "RGcvjPWZzCNXNSwKFQMl0T8hzfg=", "properties": {"@spider": "usps_collection_boxes", "addr:city": "FOUNTAIN GREEN", "addr:country": "US", "addr:full": "54 S STATE ST", "addr:postcode": "84632", "addr:state": "UT", "amenity": "post_box", "brand": "United States Postal Service", "brand:wikidata": "Q668687", "collection_times": "Mo-Fr 13:45; Sa 10:30", "name": "USPS COLLECTION BOX - PO LOBBY", "note": "ON 12/24 AND 12/31, THIS BOX MAY BE COLLECTED AS EARLY AS 12 NOON.", "nsi_id": "unitedstatespostalservice-a77078", "operator": "United States Postal Service", "operator:short": "USPS", "operator:type": "public", "operator:wikidata": "Q668687", "ref": "8463200001"}, "type": "Feature"}
{"dataset_attributes": {"@spider": "usps_collection_boxes", "spider:collection_time": "2023-12-10T08:24:07.887270"}, "geometry": {"coordinates": [-111.634504492, 39.627563916], "type": "Point"}, "id": "SAtZbv1qoolY2Q9yGV2QEpOBTKQ=", "properties": {"@spider": "usps_collection_boxes", "addr:city": "FOUNTAIN GREEN", "addr:country": "US", "addr:full": "54 S STATE ST", "addr:postcode": "84632", "addr:state": "UT", "amenity": "post_box", "brand": "United States Postal Service", "brand:wikidata": "Q668687", "collection_times": "Mo-Fr 13:45; Sa 10:30", "name": "USPS COLLECTION BOX - PO LOBBY", "note": "ON 12/24 AND 12/31, THIS BOX MAY BE COLLECTED AS EARLY AS 12 NOON.", "nsi_id": "unitedstatespostalservice-a77078", "operator": "United States Postal Service", "operator:short": "USPS", "operator:type": "public", "operator:wikidata": "Q668687", "ref": "8463200002"}, "type": "Feature"}
{"dataset_attributes": {"@spider": "usps_collection_boxes", "spider:collection_time": "2023-12-10T08:24:07.887270"}, "geometry": {"coordinates": [-111.900497, 39.951168], "type": "Point"}, "id": "w7RBwOIQHHds-oE4mXfDw27C8EQ=", "properties": {"@spider": "usps_collection_boxes", "addr:city": "GOSHEN", "addr:country": "US", "addr:full": "80 S CENTER ST", "addr:postcode": "84633", "addr:state": "UT", "amenity": "post_box", "brand": "United States Postal Service", "brand:wikidata": "Q668687", "collection_times": "Mo-Fr 15:45; Sa 11:30", "name": "USPS COLLECTION BOX - BLUE BOX", "note": "ON 12/24 AND 12/31, THIS BOX MAY BE COLLECTED AS EARLY AS 12 NOON.", "nsi_id": "unitedstatespostalservice-a77078", "operator": "United States Postal Service", "operator:short": "USPS", "operator:type": "public", "operator:wikidata": "Q668687", "ref": "8463300000"}, "type": "Feature"}
{"dataset_attributes": {"@spider": "usps_collection_boxes", "spider:collection_time": "2023-12-10T08:24:07.887270"}, "geometry": {"coordinates": [-111.900264, 39.951108], "type": "Point"}, "id": "9JH1Lh7xAxTy3w5Dy8NqEVSEiw0=", "properties": {"@spider": "usps_collection_boxes", "addr:city": "GOSHEN", "addr:country": "US", "addr:full": "80 S CENTER ST", "addr:postcode": "84633", "addr:state": "UT", "amenity": "post_box", "brand": "United States Postal Service", "brand:wikidata": "Q668687", "collection_times": "Mo-Fr 11:45; Sa 11:30", "name": "USPS COLLECTION BOX - PO LOBBY", "nsi_id": "unitedstatespostalservice-a77078", "operator": "United States Postal Service", "operator:short": "USPS", "operator:type": "public", "operator:wikidata": "Q668687", "ref": "8463300001"}, "type": "Feature"}
{"dataset_attributes": {"@spider": "usps_collection_boxes", "spider:collection_time": "2023-12-10T08:24:07.887270"}, "geometry": {"coordinates": [-111.900309817, 39.951216472], "type": "Point"}, "id": "BnnhXFSXpDvCkILAHq91ZQJIbPM=", "properties": {"@spider": "usps_collection_boxes", "addr:city": "GOSHEN", "addr:country": "US", "addr:full": "80 S CENTER ST", "addr:postcode": "84633", "addr:state": "UT", "amenity": "post_box", "brand": "United States Postal Service", "brand:wikidata": "Q668687", "collection_times": "Mo-Fr 11:45; Sa 11:30", "name": "USPS COLLECTION BOX - PO LOBBY", "nsi_id": "unitedstatespostalservice-a77078", "operator": "United States Postal Service", "operator:short": "USPS", "operator:type": "public", "operator:wikidata": "Q668687", "ref": "8463300002"}, "type": "Feature"}
{"dataset_attributes": {"@spider": "usps_collection_boxes", "spider:collection_time": "2023-12-10T08:24:07.887270"}, "geometry": {"coordinates": [-111.821319, 39.153664], "type": "Point"}, "id": "5Zb7hZ93KU7byVyx0rsLpUIT5wI=", "properties": {"@spider": "usps_collection_boxes", "addr:city": "GUNNISON", "addr:country": "US", "addr:full": "95 W 100 S", "addr:postcode": "84634", "addr:state": "UT", "amenity": "post_box", "brand": "United States Postal Service", "brand:wikidata": "Q668687", "collection_times": "Mo-Fr 16:30; Sa 11:30", "name": "USPS COLLECTION BOX - BLUE BOX", "note": "ON 12/24 AND 12/31, THIS BOX MAY BE COLLECTED AS EARLY AS 12 NOON.", "nsi_id": "unitedstatespostalservice-a77078", "operator": "United States Postal Service", "operator:short": "USPS", "operator:type": "public", "operator:wikidata": "Q668687", "ref": "8463400001"}, "type": "Feature"}
{"dataset_attributes": {"@spider": "usps_collection_boxes", "spider:collection_time": "2023-12-10T08:24:07.887270"}, "geometry": {"coordinates": [-111.821319, 39.153664], "type": "Point"}, "id": "ZcesfHLbPiqFIzwM3FchDMcbBO0=", "properties": {"@spider": "usps_collection_boxes", "addr:city": "GUNNISON", "addr:country": "US", "addr:full": "95 W 100 S", "addr:postcode": "84634", "addr:state": "UT", "amenity": "post_box", "brand": "United States Postal Service", "brand:wikidata": "Q668687", "collection_times": "Mo-Fr 16:30; Sa 11:30", "name": "USPS COLLECTION BOX - PO LOBBY", "note": "ON 12/24 AND 12/31, THIS BOX MAY BE COLLECTED AS EARLY AS 12 NOON.", "nsi_id": "unitedstatespostalservice-a77078", "operator": "United States Postal Service", "operator:short": "USPS", "operator:type": "public", "operator:wikidata": "Q668687", "ref": "8463400002"}, "type": "Feature"}
{"dataset_attributes": {"@spider": "usps_collection_boxes", "spider:collection_time": "2023-12-10T08:24:07.887270"}, "geometry": {"coordinates": [-111.821316057, 39.153570463], "type": "Point"}, "id": "0vb9X3lcBefhDfwkUPYdZ4P-c5Q=", "properties": {"@spider": "usps_collection_boxes", "addr:city": "GUNNISON", "addr:country": "US", "addr:full": "95 W 100 S", "addr:postcode": "84634", "addr:state": "UT", "amenity": "post_box", "brand": "United States Postal Service", "brand:wikidata": "Q668687", "collection_times": "Mo-Fr 16:30; Sa 11:30", "name": "USPS COLLECTION BOX - PO LOBBY", "note": "ON 12/24 AND 12/31, THIS BOX MAY BE COLLECTED AS EARLY AS 12 NOON.", "nsi_id": "unitedstatespostalservice-a77078", "operator": "United States Postal Service", "operator:short": "USPS", "operator:type": "public", "operator:wikidata": "Q668687", "ref": "8463400003"}, "type": "Feature"}
{"dataset_attributes": {"@spider": "usps_collection_boxes", "spider:collection_time": "2023-12-10T08:24:07.887270"}, "geometry": {"coordinates": [-112.671652, 39.323601], "type": "Point"}, "id": "JTsbx_hdIy713DV1twF9f19qHFM=", "properties": {"@spider": "usps_collection_boxes", "addr:city": "HINCKLEY", "addr:country": "US", "addr:full": "5 N MAIN ST", "addr:postcode": "84635", "addr:state": "UT", "amenity": "post_box", "brand": "United States Postal Service", "brand:wikidata": "Q668687", "collection_times": "Mo-Fr 16:00; Sa 11:30", "name": "USPS COLLECTION BOX - BLUE BOX", "note": "ON 12/24 AND 12/31, THIS BOX MAY BE COLLECTED AS EARLY AS 12 NOON.", "nsi_id": "unitedstatespostalservice-a77078", "operator": "United States Postal Service", "operator:short": "USPS", "operator:type": "public", "operator:wikidata": "Q668687", "ref": "8463500000"}, "type": "Feature"}
{"dataset_attributes": {"@spider": "usps_collection_boxes", "spider:collection_time": "2023-12-10T08:24:07.887270"}, "geometry": {"coordinates": [-112.671286, 39.323514], "type": "Point"}, "id": "W7AuM2fB7wOpUXXIxLp9_XqrQVE=", "properties": {"@spider": "usps_collection_boxes", "addr:city": "HINCKLEY", "addr:country": "US", "addr:full": "5 N MAIN ST", "addr:postcode": "84635", "addr:state": "UT", "amenity": "post_box", "brand": "United States Postal Service", "brand:wikidata": "Q668687", "collection_times": "Mo-Fr 11:45; Sa 11:30", "name": "USPS COLLECTION BOX - PO LOBBY", "nsi_id": "unitedstatespostalservice-a77078", "operator": "United States Postal Service", "operator:short": "USPS", "operator:type": "public", "operator:wikidata": "Q668687", "ref": "8463500001"}, "type": "Feature"}
{"dataset_attributes": {"@spider": "usps_collection_boxes", "spider:collection_time": "2023-12-10T08:24:07.887270"}, "geometry": {"coordinates": [-112.671286, 39.323514], "type": "Point"}, "id": "3l-km9soPTjSMZHLzQELNPJTLWQ=", "properties": {"@spider": "usps_collection_boxes", "addr:city": "HINCKLEY", "addr:country": "US", "addr:full": "5 N MAIN ST", "addr:postcode": "84635", "addr:state": "UT", "amenity": "post_box", "brand": "United States Postal Service", "brand:wikidata": "Q668687", "collection_times": "Mo-Fr 11:45; Sa 11:30", "name": "USPS COLLECTION BOX - PO LOBBY", "nsi_id": "unitedstatespostalservice-a77078", "operator": "United States Postal Service", "operator:short": "USPS", "operator:type": "public", "operator:wikidata": "Q668687", "ref": "8463500003"}, "type": "Feature"}
{"dataset_attributes": {"@spider": "usps_collection_boxes", "spider:collection_time": "2023-12-10T08:24:07.887270"}, "geometry": {"coordinates": [-112.671327497, 39.323682], "type": "Point"}, "id": "Vdu81NqMWCw56UQdR4GpU1zDMuQ=", "properties": {"@spider": "usps_collection_boxes", "addr:city": "HINCKLEY", "addr:country": "US", "addr:full": "5 N MAIN ST", "addr:postcode": "84635", "addr:state": "UT", "amenity": "post_box", "brand": "United States Postal Service", "brand:wikidata": "Q668687", "collection_times": "Mo-Fr 11:45; Sa 11:30", "name": "USPS COLLECTION BOX - PO LOBBY", "nsi_id": "unitedstatespostalservice-a77078", "operator": "United States Postal Service", "operator:short": "USPS", "operator:type": "public", "operator:wikidata": "Q668687", "ref": "8463500004"}, "type": "Feature"}
{"dataset_attributes": {"@spider": "usps_collection_boxes", "spider:collection_time": "2023-12-10T08:24:07.887270"}, "geometry": {"coordinates": [-112.437914, 38.800219], "type": "Point"}, "id": "BUOB1GtNWLFawn22UU-8vNNRoTo=", "properties": {"@spider": "usps_collection_boxes", "addr:city": "KANOSH", "addr:country": "US", "addr:full": "50 S MAIN ST", "addr:postcode": "84637", "addr:state": "UT", "amenity": "post_box", "brand": "United States Postal Service", "brand:wikidata": "Q668687", "collection_times": "Mo-Fr 16:30; Sa 11:45", "name": "USPS COLLECTION BOX - BLUE BOX", "note": "ON 12/24 AND 12/31, THIS BOX MAY BE COLLECTED AS EARLY AS 12 NOON.", "nsi_id": "unitedstatespostalservice-a77078", "operator": "United States Postal Service", "operator:short": "USPS", "operator:type": "public", "operator:wikidata": "Q668687", "ref": "8463700000"}, "type": "Feature"}
{"dataset_attributes": {"@spider": "usps_collection_boxes", "spider:collection_time": "2023-12-10T08:24:07.887270"}, "geometry": {"coordinates": [-112.437679, 38.800302], "type": "Point"}, "id": "RzP48s8VhggWysIZRgJQSxE8nIc=", "properties": {"@spider": "usps_collection_boxes", "addr:city": "KANOSH", "addr:country": "US", "addr:full": "50 S MAIN ST", "addr:postcode": "84637", "addr:state": "UT", "amenity": "post_box", "brand": "United States Postal Service", "brand:wikidata": "Q668687", "collection_times": "Mo-Sa 11:45", "name": "USPS COLLECTION BOX - PO LOBBY", "nsi_id": "unitedstatespostalservice-a77078", "operator": "United States Postal Service", "operator:short": "USPS", "operator:type": "public", "operator:wikidata": "Q668687", "ref": "8463700001"}, "type": "Feature"}
{"dataset_attributes": {"@spider": "usps_collection_boxes", "spider:collection_time": "2023-12-10T08:24:07.887270"}, "geometry": {"coordinates": [-112.437717771, 38.800215], "type": "Point"}, "id": "M9OztG8k9KluilWHgddjNblD1U8=", "properties": {"@spider": "usps_collection_boxes", "addr:city": "KANOSH", "addr:country": "US", "addr:full": "50 S MAIN ST", "addr:postcode": "84637", "addr:state": "UT", "amenity": "post_box", "brand": "United States Postal Service", "brand:wikidata": "Q668687", "collection_times": "Mo-Sa 11:45", "name": "USPS COLLECTION BOX - PO LOBBY", "nsi_id": "unitedstatespostalservice-a77078", "operator": "United States Postal Service", "operator:short": "USPS", "operator:type": "public", "operator:wikidata": "Q668687", "ref": "8463700002"}, "type": "Feature"}
{"dataset_attributes": {"@spider": "usps_collection_boxes", "spider:collection_time": "2023-12-10T08:24:07.887270"}, "geometry": {"coordinates": [-112.290592, 39.534022], "type": "Point"}, "id": "d_SQSppdQgbldvSF3Qx3m5CfzoU=", "properties": {"@spider": "usps_collection_boxes", "addr:city": "LEAMINGTON", "addr:country": "US", "addr:full": "291 W MAIN ST", "addr:postcode": "84638", "addr:state": "UT", "amenity": "post_box", "brand": "United States Postal Service", "brand:wikidata": "Q668687", "collection_times": "Mo-Sa 09:00", "name": "USPS COLLECTION BOX - BLUE BOX", "nsi_id": "unitedstatespostalservice-a77078", "operator": "United States Postal Service", "operator:short": "USPS", "operator:type": "public", "operator:wikidata": "Q668687", "ref": "8463800000"}, "type": "Feature"}
{"dataset_attributes": {"@spider": "usps_collection_boxes", "spider:collection_time": "2023-12-10T08:24:07.887270"}, "geometry": {"coordinates": [-112.290597, 39.534048], "type": "Point"}, "id": "7V8lvHgz9C0fWoiUiEcuiln_D50=", "properties": {"@spider": "usps_collection_boxes", "addr:city": "LEAMINGTON", "addr:country": "US", "addr:full": "291 W MAIN ST", "addr:postcode": "84638", "addr:state": "UT", "amenity": "post_box", "brand": "United States Postal Service", "brand:wikidata": "Q668687", "collection_times": "Mo-Sa 09:00", "name": "USPS COLLECTION BOX - PO LOBBY", "nsi_id": "unitedstatespostalservice-a77078", "operator": "United States Postal Service", "operator:short": "USPS", "operator:type": "public", "operator:wikidata": "Q668687", "ref": "8463800001"}, "type": "Feature"}
{"dataset_attributes": {"@spider": "usps_collection_boxes", "spider:collection_time": "2023-12-10T08:24:07.887270"}, "geometry": {"coordinates": [-112.290541711, 39.534016569], "type": "Point"}, "id": "kKWHcIXbQxfj3IpRml_xnrigH18=", "properties": {"@spider": "usps_collection_boxes", "addr:city": "LEAMINGTON", "addr:country": "US", "addr:full": "291 W MAIN ST", "addr:postcode": "84638", "addr:state": "UT", "amenity": "post_box", "brand": "United States Postal Service", "brand:wikidata": "Q668687", "collection_times": "Mo-Sa 09:00", "name": "USPS COLLECTION BOX - PO LOBBY", "nsi_id": "unitedstatespostalservice-a77078", "operator": "United States Postal Service", "operator:short": "USPS", "operator:type": "public", "operator:wikidata": "Q668687", "ref": "8463800002"}, "type": "Feature"}
{"dataset_attributes": {"@spider": "usps_collection_boxes", "spider:collection_time": "2023-12-10T08:24:07.887270"}, "geometry": {"coordinates": [-111.863861, 39.558197], "type": "Point"}, "id": "jrGZ-PBBeYn5wNn-h_Y3v-bG8OA=", "properties": {"@spider": "usps_collection_boxes", "addr:city": "LEVAN", "addr:country": "US", "addr:full": "75 N MAIN ST", "addr:postcode": "84639", "addr:state": "UT", "amenity": "post_box", "brand": "United States Postal Service", "brand:wikidata": "Q668687", "collection_times": "Mo-Fr 11:45; Sa 10:45", "name": "USPS COLLECTION BOX - BLUE BOX", "nsi_id": "unitedstatespostalservice-a77078", "operator": "United States Postal Service", "operator:short": "USPS", "operator:type": "public", "operator:wikidata": "Q668687", "ref": "8463900000"}, "type": "Feature"}
{"dataset_attributes": {"@spider": "usps_collection_boxes", "spider:collection_time": "2023-12-10T08:24:07.887270"}, "geometry": {"coordinates": [-111.863823, 39.558242], "type": "Point"}, "id": "uguxl6M1fDso2tl_Nw2gdUXytzU=", "properties": {"@spider": "usps_collection_boxes", "addr:city": "LEVAN", "addr:country": "US", "addr:full": "75 N MAIN ST", "addr:postcode": "84639", "addr:state": "UT", "amenity": "post_box", "brand": "United States Postal Service", "brand:wikidata": "Q668687", "collection_times": "Mo-Fr 11:45; Sa 10:45", "name": "USPS COLLECTION BOX - PO LOBBY", "nsi_id": "unitedstatespostalservice-a77078", "operator": "United States Postal Service", "operator:short": "USPS", "operator:type": "public", "operator:wikidata": "Q668687", "ref": "8463900001"}, "type": "Feature"}
{"dataset_attributes": {"@spider": "usps_collection_boxes", "spider:collection_time": "2023-12-10T08:24:07.887270"}, "geometry": {"coordinates": [-111.863891496, 39.558111981], "type": "Point"}, "id": "rT8D5v52NnC1EqOtUBqm6zSDQU8=", "properties": {"@spider": "usps_collection_boxes", "addr:city": "LEVAN", "addr:country": "US", "addr:full": "75 N MAIN ST", "addr:postcode": "84639", "addr:state": "UT", "amenity": "post_box", "brand": "United States Postal Service", "brand:wikidata": "Q668687", "collection_times": "Mo-Fr 11:45; Sa 10:45", "name": "USPS COLLECTION BOX - PO LOBBY", "nsi_id": "unitedstatespostalservice-a77078", "operator": "United States Postal Service", "operator:short": "USPS", "operator:type": "public", "operator:wikidata": "Q668687", "ref": "8463900002"}, "type": "Feature"}
{"dataset_attributes": {"@spider": "usps_collection_boxes", "spider:collection_time": "2023-12-10T08:24:07.887270"}, "geometry": {"coordinates": [-112.373605, 39.519247], "type": "Point"}, "id": "sdkdkm3VkOT58zMEoDK7NRCop1E=", "properties": {"@spider": "usps_collection_boxes", "addr:city": "LYNNDYL", "addr:country": "US", "addr:full": "106 E CENTER ST", "addr:postcode": "84640", "addr:state": "UT", "amenity": "post_box", "brand": "United States Postal Service", "brand:wikidata": "Q668687", "collection_times": "Mo-Sa 11:00", "name": "USPS COLLECTION BOX - BLUE BOX", "nsi_id": "unitedstatespostalservice-a77078", "operator": "United States Postal Service", "operator:short": "USPS", "operator:type": "public", "operator:wikidata": "Q668687", "ref": "8464000000"}, "type": "Feature"}
{"dataset_attributes": {"@spider": "usps_collection_boxes", "spider:collection_time": "2023-12-10T08:24:07.887270"}, "geometry": {"coordinates": [-111.636976, 39.267401], "type": "Point"}, "id": "985biA6oj7JuUWpj9zDT2JWU6mc=", "properties": {"@spider": "usps_collection_boxes", "addr:city": "MANTI", "addr:country": "US", "addr:full": "140 N MAIN ST", "addr:postcode": "84642", "addr:state": "UT", "amenity": "post_box", "brand": "United States Postal Service", "brand:wikidata": "Q668687", "collection_times": "Mo-Fr 16:30; Sa 11:30", "name": "USPS COLLECTION BOX - BLUE BOX", "note": "ON 12/24 AND 12/31, THIS BOX MAY BE COLLECTED AS EARLY AS 12 NOON.", "nsi_id": "unitedstatespostalservice-a77078", "operator": "United States Postal Service", "operator:short": "USPS", "operator:type": "public", "operator:wikidata": "Q668687", "ref": "8464200001"}, "type": "Feature"}
{"dataset_attributes": {"@spider": "usps_collection_boxes", "spider:collection_time": "2023-12-10T08:24:07.887270"}, "geometry": {"coordinates": [-111.637174, 39.264723], "type": "Point"}, "id": "9Yq0L4LCeaLvOmKYP1ORzjWs8VA=", "properties": {"@spider": "usps_collection_boxes", "addr:city": "MANTI", "addr:country": "US", "addr:full": "50 S MAIN ST", "addr:postcode": "84642", "addr:state": "UT", "amenity": "post_box", "brand": "United States Postal Service", "brand:wikidata": "Q668687", "collection_times": "Mo-Fr 14:45; Sa 12:00", "name": "USPS COLLECTION BOX - BLUE BOX", "note": "ON 12/24 AND 12/31, THIS BOX MAY BE COLLECTED AS EARLY AS 12 NOON.", "nsi_id": "unitedstatespostalservice-a77078", "operator": "United States Postal Service", "operator:short": "USPS", "operator:type": "public", "operator:wikidata": "Q668687", "ref": "8464200002"}, "type": "Feature"}
{"dataset_attributes": {"@spider": "usps_collection_boxes", "spider:collection_time": "2023-12-10T08:24:07.887270"}, "geometry": {"coordinates": [-111.636976, 39.267401], "type": "Point"}, "id": "n2G_o6OoIwpjcsoOvd81ZwG_iXE=", "properties": {"@spider": "usps_collection_boxes", "addr:city": "MANTI", "addr:country": "US", "addr:full": "140 N MAIN ST", "addr:postcode": "84642", "addr:state": "UT", "amenity": "post_box", "brand": "United States Postal Service", "brand:wikidata": "Q668687", "collection_times": "Mo-Fr 17:00; Sa 12:00", "name": "USPS COLLECTION BOX - PO LOBBY", "note": "ON 12/24 AND 12/31, THIS BOX MAY BE COLLECTED AS EARLY AS 12 NOON.", "nsi_id": "unitedstatespostalservice-a77078", "operator": "United States Postal Service", "operator:short": "USPS", "operator:type": "public", "operator:wikidata": "Q668687", "ref": "8464200003"}, "type": "Feature"}
{"dataset_attributes": {"@spider": "usps_collection_boxes", "spider:collection_time": "2023-12-10T08:24:07.887270"}, "geometry": {"coordinates": [-111.636997493, 39.267476832], "type": "Point"}, "id": "nm0jCX5bmLWwWk793HZ0J0D800I=", "properties": {"@spider": "usps_collection_boxes", "addr:city": "MANTI", "addr:country": "US", "addr:full": "140 N MAIN ST", "addr:postcode": "84642", "addr:state": "UT", "amenity": "post_box", "brand": "United States Postal Service", "brand:wikidata": "Q668687", "collection_times": "Mo-Fr 17:00; Sa 12:00", "name": "USPS COLLECTION BOX - PO LOBBY", "note": "ON 12/24 AND 12/31, THIS BOX MAY BE COLLECTED AS EARLY AS 12 NOON.", "nsi_id": "unitedstatespostalservice-a77078", "operator": "United States Postal Service", "operator:short": "USPS", "operator:type": "public", "operator:wikidata": "Q668687", "ref": "8464200004"}, "type": "Feature"}
{"dataset_attributes": {"@spider": "usps_collection_boxes", "spider:collection_time": "2023-12-10T08:24:07.887270"}, "geometry": {"coordinates": [-111.708581, 39.114867], "type": "Point"}, "id": "RLTdNOSKCpyDjSbmN98C0IdePeU=", "properties": {"@spider": "usps_collection_boxes", "addr:city": "MAYFIELD", "addr:country": "US", "addr:full": "48 N MAIN ST", "addr:postcode": "84643", "addr:state": "UT", "amenity": "post_box", "brand": "United States Postal Service", "brand:wikidata": "Q668687", "collection_times": "Mo-Fr 16:15; Sa 10:00", "name": "USPS COLLECTION BOX - BLUE BOX", "note": "ON 12/24 AND 12/31, THIS BOX MAY BE COLLECTED AS EARLY AS 12 NOON.", "nsi_id": "unitedstatespostalservice-a77078", "operator": "United States Postal Service", "operator:short": "USPS", "operator:type": "public", "operator:wikidata": "Q668687", "ref": "8464300000"}, "type": "Feature"}
{"dataset_attributes": {"@spider": "usps_collection_boxes", "spider:collection_time": "2023-12-10T08:24:07.887270"}, "geometry": {"coordinates": [-111.708686621, 39.114898659], "type": "Point"}, "id": "llhCGY1k8p9VLzZ7LmdthRyzBXk=", "properties": {"@spider": "usps_collection_boxes", "addr:city": "MAYFIELD", "addr:country": "US", "addr:full": "48 N MAIN ST", "addr:postcode": "84643", "addr:state": "UT", "amenity": "post_box", "brand": "United States Postal Service", "brand:wikidata": "Q668687", "collection_times": "Mo-Fr 11:30; Sa 10:00", "name": "USPS COLLECTION BOX - PO LOBBY", "nsi_id": "unitedstatespostalservice-a77078", "operator": "United States Postal Service", "operator:short": "USPS", "operator:type": "public", "operator:wikidata": "Q668687", "ref": "8464300002"}, "type": "Feature"}
{"dataset_attributes": {"@spider": "usps_collection_boxes", "spider:collection_time": "2023-12-10T08:24:07.887270"}, "geometry": {"coordinates": [-112.410577, 38.888127], "type": "Point"}, "id": "ZXhbaQkzQPxsVFB-zsbh3Qs_1ZA=", "properties": {"@spider": "usps_collection_boxes", "addr:city": "MEADOW", "addr:country": "US", "addr:full": "120 N MAIN ST", "addr:postcode": "84644", "addr:state": "UT", "amenity": "post_box", "brand": "United States Postal Service", "brand:wikidata": "Q668687", "collection_times": "Mo-Fr 16:00; Sa 11:30", "name": "USPS COLLECTION BOX - BLUE BOX", "note": "ON 12/24 AND 12/31, THIS BOX MAY BE COLLECTED AS EARLY AS 12 NOON.", "nsi_id": "unitedstatespostalservice-a77078", "operator": "United States Postal Service", "operator:short": "USPS", "operator:type": "public", "operator:wikidata": "Q668687", "ref": "8464400000"}, "type": "Feature"}
{"dataset_attributes": {"@spider": "usps_collection_boxes", "spider:collection_time": "2023-12-10T08:24:07.887270"}, "geometry": {"coordinates": [-112.410577, 38.888127], "type": "Point"}, "id": "j3s4rA0QregaCkCF6tQGnNPN_cI=", "properties": {"@spider": "usps_collection_boxes", "addr:city": "MEADOW", "addr:country": "US", "addr:full": "120 N MAIN ST", "addr:postcode": "84644", "addr:state": "UT", "amenity": "post_box", "brand": "United States Postal Service", "brand:wikidata": "Q668687", "collection_times": "Mo-Fr 11:45; Sa 11:30", "name": "USPS COLLECTION BOX - PO LOBBY", "nsi_id": "unitedstatespostalservice-a77078", "operator": "United States Postal Service", "operator:short": "USPS", "operator:type": "public", "operator:wikidata": "Q668687", "ref": "8464400001"}, "type": "Feature"}
{"dataset_attributes": {"@spider": "usps_collection_boxes", "spider:collection_time": "2023-12-10T08:24:07.887270"}, "geometry": {"coordinates": [-112.410547682, 38.888307031], "type": "Point"}, "id": "hIt-jwpqpezHSYlLu_c23asz0Ek=", "properties": {"@spider": "usps_collection_boxes", "addr:city": "MEADOW", "addr:country": "US", "addr:full": "120 N MAIN ST", "addr:postcode": "84644", "addr:state": "UT", "amenity": "post_box", "brand": "United States Postal Service", "brand:wikidata": "Q668687", "collection_times": "Mo-Fr 11:45; Sa 11:30", "name": "USPS COLLECTION BOX - PO LOBBY", "nsi_id": "unitedstatespostalservice-a77078", "operator": "United States Postal Service", "operator:short": "USPS", "operator:type": "public", "operator:wikidata": "Q668687", "ref": "8464400002"}, "type": "Feature"}
{"dataset_attributes": {"@spider": "usps_collection_boxes", "spider:collection_time": "2023-12-10T08:24:07.887270"}, "geometry": {"coordinates": [-111.856131, 39.817651], "type": "Point"}, "id": "gXeP7BBWIESdrvvZeAKkdUSiJYA=", "properties": {"@spider": "usps_collection_boxes", "addr:city": "MONA", "addr:country": "US", "addr:full": "44 W 100 N", "addr:postcode": "84645", "addr:state": "UT", "amenity": "post_box", "brand": "United States Postal Service", "brand:wikidata": "Q668687", "collection_times": "Mo-Fr 16:15; Sa 11:45", "name": "USPS COLLECTION BOX - PO LOBBY", "note": "ON 12/24 AND 12/31, THIS BOX MAY BE COLLECTED AS EARLY AS 12 NOON.", "nsi_id": "unitedstatespostalservice-a77078", "operator": "United States Postal Service", "operator:short": "USPS", "operator:type": "public", "operator:wikidata": "Q668687", "ref": "8464500000"}, "type": "Feature"}
{"dataset_attributes": {"@spider": "usps_collection_boxes", "spider:collection_time": "2023-12-10T08:24:07.887270"}, "geometry": {"coordinates": [-111.856140251, 39.817642515], "type": "Point"}, "id": "bmmQXtWY5BezGtcoRV5j1jOkQ1c=", "properties": {"@spider": "usps_collection_boxes", "addr:city": "MONA", "addr:country": "US", "addr:full": "44 W 100 N", "addr:postcode": "84645", "addr:state": "UT", "amenity": "post_box", "brand": "United States Postal Service", "brand:wikidata": "Q668687", "collection_times": "Mo-Fr 16:15; Sa 11:45", "name": "USPS COLLECTION BOX - PO LOBBY", "note": "ON 12/24 AND 12/31, THIS BOX MAY BE COLLECTED AS EARLY AS 12 NOON.", "nsi_id": "unitedstatespostalservice-a77078", "operator": "United States Postal Service", "operator:short": "USPS", "operator:type": "public", "operator:wikidata": "Q668687", "ref": "8464500003"}, "type": "Feature"}
{"dataset_attributes": {"@spider": "usps_collection_boxes", "spider:collection_time": "2023-12-10T08:24:07.887270"}, "geometry": {"coordinates": [-111.576183, 39.525532], "type": "Point"}, "id": "9stXgWH5nwUSh3j16PDv8UuIgXs=", "properties": {"@spider": "usps_collection_boxes", "addr:city": "MORONI", "addr:country": "US", "addr:full": "46 N 400 E", "addr:postcode": "84646", "addr:state": "UT", "amenity": "post_box", "brand": "United States Postal Service", "brand:wikidata": "Q668687", "collection_times": "Mo-Fr 16:15; Sa 10:45", "name": "USPS COLLECTION BOX - PO LOBBY", "note": "ON 12/24 AND 12/31, THIS BOX MAY BE COLLECTED AS EARLY AS 12 NOON.", "nsi_id": "unitedstatespostalservice-a77078", "operator": "United States Postal Service", "operator:short": "USPS", "operator:type": "public", "operator:wikidata": "Q668687", "ref": "8464600002"}, "type": "Feature"}
{"dataset_attributes": {"@spider": "usps_collection_boxes", "spider:collection_time": "2023-12-10T08:24:07.887270"}, "geometry": {"coordinates": [-111.576219, 39.525527], "type": "Point"}, "id": "nqIPA2f7mnfp63qS1R9657x0lvU=", "properties": {"@spider": "usps_collection_boxes", "addr:city": "MORONI", "addr:country": "US", "addr:full": "46 N 400 E", "addr:postcode": "84646", "addr:state": "UT", "amenity": "post_box", "brand": "United States Postal Service", "brand:wikidata": "Q668687", "collection_times": "Mo-Fr 16:15; Sa 10:45", "name": "USPS COLLECTION BOX - PO LOBBY", "note": "ON 12/24 AND 12/31, THIS BOX MAY BE COLLECTED AS EARLY AS 12 NOON.", "nsi_id": "unitedstatespostalservice-a77078", "operator": "United States Postal Service", "operator:short": "USPS", "operator:type": "public", "operator:wikidata": "Q668687", "ref": "8464600003"}, "type": "Feature"}
{"dataset_attributes": {"@spider": "usps_collection_boxes", "spider:collection_time": "2023-12-10T08:24:07.887270"}, "geometry": {"coordinates": [-111.57618439, 39.525984], "type": "Point"}, "id": "NEmiq8M5ewTutQ66pO08R_SZxys=", "properties": {"@spider": "usps_collection_boxes", "addr:city": "MORONI", "addr:country": "US", "addr:full": "46 N 400 E", "addr:postcode": "84646", "addr:state": "UT", "amenity": "post_box", "brand": "United States Postal Service", "brand:wikidata": "Q668687", "collection_times": "Mo-Fr 16:15; Sa 10:45", "name": "USPS COLLECTION BOX - PO LOBBY", "note": "ON 12/24 AND 12/31, THIS BOX MAY BE COLLECTED AS EARLY AS 12 NOON.", "nsi_id": "unitedstatespostalservice-a77078", "operator": "United States Postal Service", "operator:short": "USPS", "operator:type": "public", "operator:wikidata": "Q668687", "ref": "8464600004"}, "type": "Feature"}
{"dataset_attributes": {"@spider": "usps_collection_boxes", "spider:collection_time": "2023-12-10T08:24:07.887270"}, "geometry": {"coordinates": [-111.457329, 39.547718], "type": "Point"}, "id": "RfJ6L5GBVwieJDzTh8je7kScpYE=", "properties": {"@spider": "usps_collection_boxes", "addr:city": "MOUNT PLEASANT", "addr:country": "US", "addr:full": "55 N 100 W", "addr:postcode": "84647", "addr:state": "UT", "amenity": "post_box", "brand": "United States Postal Service", "brand:wikidata": "Q668687", "collection_times": "Mo-Fr 16:30; Sa 11:30", "name": "USPS COLLECTION BOX - BLUE BOX", "note": "ON 12/24 AND 12/31, THIS BOX MAY BE COLLECTED AS EARLY AS 12 NOON.", "nsi_id": "unitedstatespostalservice-a77078", "operator": "United States Postal Service", "operator:short": "USPS", "operator:type": "public", "operator:wikidata": "Q668687", "ref": "8464700001"}, "type": "Feature"}
{"dataset_attributes": {"@spider": "usps_collection_boxes", "spider:collection_time": "2023-12-10T08:24:07.887270"}, "geometry": {"coordinates": [-111.457292, 39.547657], "type": "Point"}, "id": "BaeNGSfet4Vqcwk4FumAa6t0hpM=", "properties": {"@spider": "usps_collection_boxes", "addr:city": "MOUNT PLEASANT", "addr:country": "US", "addr:full": "55 N 100 W", "addr:postcode": "84647", "addr:state": "UT", "amenity": "post_box", "brand": "United States Postal Service", "brand:wikidata": "Q668687", "collection_times": "Mo-Fr 16:30; Sa 11:30", "name": "USPS COLLECTION BOX - PO LOBBY", "note": "ON 12/24 AND 12/31, THIS BOX MAY BE COLLECTED AS EARLY AS 12 NOON.", "nsi_id": "unitedstatespostalservice-a77078", "operator": "United States Postal Service", "operator:short": "USPS", "operator:type": "public", "operator:wikidata": "Q668687", "ref": "8464700002"}, "type": "Feature"}
{"dataset_attributes": {"@spider": "usps_collection_boxes", "spider:collection_time": "2023-12-10T08:24:07.887270"}, "geometry": {"coordinates": [-111.457338131, 39.547646497], "type": "Point"}, "id": "MMzggoBRfCwDAGOcbqnykcSG7C0=", "properties": {"@spider": "usps_collection_boxes", "addr:city": "MOUNT PLEASANT", "addr:country": "US", "addr:full": "55 N 100 W", "addr:postcode": "84647", "addr:state": "UT", "amenity": "post_box", "brand": "United States Postal Service", "brand:wikidata": "Q668687", "collection_times": "Mo-Fr 16:30; Sa 11:30", "name": "USPS COLLECTION BOX - PO LOBBY", "note": "ON 12/24 AND 12/31, THIS BOX MAY BE COLLECTED AS EARLY AS 12 NOON.", "nsi_id": "unitedstatespostalservice-a77078", "operator": "United States Postal Service", "operator:short": "USPS", "operator:type": "public", "operator:wikidata": "Q668687", "ref": "8464700003"}, "type": "Feature"}
{"dataset_attributes": {"@spider": "usps_collection_boxes", "spider:collection_time": "2023-12-10T08:24:07.887270"}, "geometry": {"coordinates": [-111.836088, 39.708665], "type": "Point"}, "id": "zwU7CGl03Le0J6qo4GBlYa4hGtE=", "properties": {"@spider": "usps_collection_boxes", "addr:city": "NEPHI", "addr:country": "US", "addr:full": "10 N MAIN ST", "addr:postcode": "84648", "addr:state": "UT", "amenity": "post_box", "brand": "United States Postal Service", "brand:wikidata": "Q668687", "collection_times": "Mo-Fr 17:00; Sa 12:00", "name": "USPS COLLECTION BOX - BLUE BOX", "note": "ON 12/24 AND 12/31, THIS BOX MAY BE COLLECTED AS EARLY AS 12 NOON.", "nsi_id": "unitedstatespostalservice-a77078", "operator": "United States Postal Service", "operator:short": "USPS", "operator:type": "public", "operator:wikidata": "Q668687", "ref": "8464800001"}, "type": "Feature"}
{"dataset_attributes": {"@spider": "usps_collection_boxes", "spider:collection_time": "2023-12-10T08:24:07.887270"}, "geometry": {"coordinates": [-111.836088, 39.708665], "type": "Point"}, "id": "0lZ-jaOWFKPDypPhnr5Z_w7wLkM=", "properties": {"@spider": "usps_collection_boxes", "addr:city": "NEPHI", "addr:country": "US", "addr:full": "10 N MAIN ST", "addr:postcode": "84648", "addr:state": "UT", "amenity": "post_box", "brand": "United States Postal Service", "brand:wikidata": "Q668687", "collection_times": "Mo-Fr 17:00; Sa 12:00", "name": "USPS COLLECTION BOX - BLUE BOX", "note": "ON 12/24 AND 12/31, THIS BOX MAY BE COLLECTED AS EARLY AS 12 NOON.", "nsi_id": "unitedstatespostalservice-a77078", "operator": "United States Postal Service", "operator:short": "USPS", "operator:type": "public", "operator:wikidata": "Q668687", "ref": "8464800002"}, "type": "Feature"}
{"dataset_attributes": {"@spider": "usps_collection_boxes", "spider:collection_time": "2023-12-10T08:24:07.887270"}, "geometry": {"coordinates": [-111.836088, 39.708665], "type": "Point"}, "id": "GowjwzPucCoON-6btt_3id0vrG0=", "properties": {"@spider": "usps_collection_boxes", "addr:city": "NEPHI", "addr:country": "US", "addr:full": "10 N MAIN ST", "addr:postcode": "84648", "addr:state": "UT", "amenity": "post_box", "brand": "United States Postal Service", "brand:wikidata": "Q668687", "collection_times": "Mo-Fr 17:00; Sa 12:00", "name": "USPS COLLECTION BOX - PO LOBBY", "note": "ON 12/24 AND 12/31, THIS BOX MAY BE COLLECTED AS EARLY AS 12 NOON.", "nsi_id": "unitedstatespostalservice-a77078", "operator": "United States Postal Service", "operator:short": "USPS", "operator:type": "public", "operator:wikidata": "Q668687", "ref": "8464800003"}, "type": "Feature"}
{"dataset_attributes": {"@spider": "usps_collection_boxes", "spider:collection_time": "2023-12-10T08:24:07.887270"}, "geometry": {"coordinates": [-111.836035119, 39.708714381], "type": "Point"}, "id": "5RxOQ8Ri4D1L7iOqbTb5fl4tXR4=", "properties": {"@spider": "usps_collection_boxes", "addr:city": "NEPHI", "addr:country": "US", "addr:full": "10 N MAIN ST", "addr:postcode": "84648", "addr:state": "UT", "amenity": "post_box", "brand": "United States Postal Service", "brand:wikidata": "Q668687", "collection_times": "Mo-Fr 17:00; Sa 12:00", "name": "USPS COLLECTION BOX - PO LOBBY", "note": "ON 12/24 AND 12/31, THIS BOX MAY BE COLLECTED AS EARLY AS 12 NOON.", "nsi_id": "unitedstatespostalservice-a77078", "operator": "United States Postal Service", "operator:short": "USPS", "operator:type": "public", "operator:wikidata": "Q668687", "ref": "8464800004"}, "type": "Feature"}
{"dataset_attributes": {"@spider": "usps_collection_boxes", "spider:collection_time": "2023-12-10T08:24:07.887270"}, "geometry": {"coordinates": [-112.335584, 39.376408], "type": "Point"}, "id": "AL3AXLJqMGvYvCVIJK7GrKndl3g=", "properties": {"@spider": "usps_collection_boxes", "addr:city": "OAK CITY", "addr:country": "US", "addr:full": "70 N MAIN ST", "addr:postcode": "84649", "addr:state": "UT", "amenity": "post_box", "brand": "United States Postal Service", "brand:wikidata": "Q668687", "collection_times": "Mo-Fr 16:15; Sa 11:45", "name": "USPS COLLECTION BOX - BLUE BOX", "note": "ON 12/24 AND 12/31, THIS BOX MAY BE COLLECTED AS EARLY AS 12 NOON.", "nsi_id": "unitedstatespostalservice-a77078", "operator": "United States Postal Service", "operator:short": "USPS", "operator:type": "public", "operator:wikidata": "Q668687", "ref": "8464900000"}, "type": "Feature"}
{"dataset_attributes": {"@spider": "usps_collection_boxes", "spider:collection_time": "2023-12-10T08:24:07.887270"}, "geometry": {"coordinates": [-112.336073, 39.376552], "type": "Point"}, "id": "6Fpv3aVvhiaRDYQyFF5GSvQV6DA=", "properties": {"@spider": "usps_collection_boxes", "addr:city": "OAK CITY", "addr:country": "US", "addr:full": "70 N MAIN ST", "addr:postcode": "84649", "addr:state": "UT", "amenity": "post_box", "brand": "United States Postal Service", "brand:wikidata": "Q668687", "collection_times": "Mo-Sa 11:45", "name": "USPS COLLECTION BOX - PO LOBBY", "nsi_id": "unitedstatespostalservice-a77078", "operator": "United States Postal Service", "operator:short": "USPS", "operator:type": "public", "operator:wikidata": "Q668687", "ref": "8464900001"}, "type": "Feature"}
{"dataset_attributes": {"@spider": "usps_collection_boxes", "spider:collection_time": "2023-12-10T08:24:07.887270"}, "geometry": {"coordinates": [-112.336073, 39.376552], "type": "Point"}, "id": "G4yEhQZ_amzgwueNi3RmbETNoRU=", "properties": {"@spider": "usps_collection_boxes", "addr:city": "OAK CITY", "addr:country": "US", "addr:full": "70 N MAIN ST", "addr:postcode": "84649", "addr:state": "UT", "amenity": "post_box", "brand": "United States Postal Service", "brand:wikidata": "Q668687", "collection_times": "Mo-Sa 11:45", "name": "USPS COLLECTION BOX - PO LOBBY", "nsi_id": "unitedstatespostalservice-a77078", "operator": "United States Postal Service", "operator:short": "USPS", "operator:type": "public", "operator:wikidata": "Q668687", "ref": "8464900002"}, "type": "Feature"}
{"dataset_attributes": {"@spider": "usps_collection_boxes", "spider:collection_time": "2023-12-10T08:24:07.887270"}, "geometry": {"coordinates": [-112.336047485, 39.376484885], "type": "Point"}, "id": "itZK0ZGMJHOeBeP9WTB4plnZBDs=", "properties": {"@spider": "usps_collection_boxes", "addr:city": "OAK CITY", "addr:country": "US", "addr:full": "70 N MAIN ST", "addr:postcode": "84649", "addr:state": "UT", "amenity": "post_box", "brand": "United States Postal Service", "brand:wikidata": "Q668687", "collection_times": "Mo-Sa 11:45", "name": "USPS COLLECTION BOX - PO LOBBY", "nsi_id": "unitedstatespostalservice-a77078", "operator": "United States Postal Service", "operator:short": "USPS", "operator:type": "public", "operator:wikidata": "Q668687", "ref": "8464900003"}, "type": "Feature"}
{"dataset_attributes": {"@spider": "usps_collection_boxes", "spider:collection_time": "2023-12-10T08:24:07.887270"}, "geometry": {"coordinates": [-111.7168670202, 40.0451040082], "type": "Point"}, "id": "cQXek9cqYeBGFvdBrkyV6tmjwog=", "properties": {"@spider": "usps_collection_boxes", "addr:city": "PAYSON", "addr:country": "US", "addr:full": "955 E 100 N", "addr:postcode": "84651", "addr:state": "UT", "amenity": "post_box", "brand": "United States Postal Service", "brand:wikidata": "Q668687", "collection_times": "Mo-Fr 17:00; Sa 14:00", "name": "USPS COLLECTION BOX - BLUE BOX", "note": "ON 12/24 AND 12/31, THIS BOX MAY BE COLLECTED AS EARLY AS 12 NOON.", "nsi_id": "unitedstatespostalservice-a77078", "operator": "United States Postal Service", "operator:short": "USPS", "operator:type": "public", "operator:wikidata": "Q668687", "ref": "8465100001"}, "type": "Feature"}
{"dataset_attributes": {"@spider": "usps_collection_boxes", "spider:collection_time": "2023-12-10T08:24:07.887270"}, "geometry": {"coordinates": [-111.7168670202, 40.0451040082], "type": "Point"}, "id": "VvfukOib8K2Q6oNX6lWJyVPfpxA=", "properties": {"@spider": "usps_collection_boxes", "addr:city": "PAYSON", "addr:country": "US", "addr:full": "955 E 100 N", "addr:postcode": "84651", "addr:state": "UT", "amenity": "post_box", "brand": "United States Postal Service", "brand:wikidata": "Q668687", "collection_times": "Mo-Fr 17:00; Sa 14:00", "name": "USPS COLLECTION BOX - BLUE BOX", "note": "ON 12/24 AND 12/31, THIS BOX MAY BE COLLECTED AS EARLY AS 12 NOON.", "nsi_id": "unitedstatespostalservice-a77078", "operator": "United States Postal Service", "operator:short": "USPS", "operator:type": "public", "operator:wikidata": "Q668687", "ref": "8465100002"}, "type": "Feature"}
{"dataset_attributes": {"@spider": "usps_collection_boxes", "spider:collection_time": "2023-12-10T08:24:07.887270"}, "geometry": {"coordinates": [-111.6806588593, 40.0146384885], "type": "Point"}, "id": "b9L3bbsS2rFZhwYAcGLJzZkGXh0=", "properties": {"@spider": "usps_collection_boxes", "addr:city": "PAYSON", "addr:country": "US", "addr:full": "80 E PARK DR", "addr:postcode": "84651", "addr:state": "UT", "amenity": "post_box", "brand": "United States Postal Service", "brand:wikidata": "Q668687", "collection_times": "Mo-Fr 10:00; Sa 11:00", "name": "USPS COLLECTION BOX - BLUE BOX", "nsi_id": "unitedstatespostalservice-a77078", "operator": "United States Postal Service", "operator:short": "USPS", "operator:type": "public", "operator:wikidata": "Q668687", "ref": "8465100003"}, "type": "Feature"}
{"dataset_attributes": {"@spider": "usps_collection_boxes", "spider:collection_time": "2023-12-10T08:24:07.887270"}, "geometry": {"coordinates": [-111.716697, 40.044524], "type": "Point"}, "id": "fPKPQXpZZa2PLXWlQdJGz2Mfiwo=", "properties": {"@spider": "usps_collection_boxes", "addr:city": "PAYSON", "addr:country": "US", "addr:full": "955 E 100 N", "addr:postcode": "84651", "addr:state": "UT", "amenity": "post_box", "brand": "United States Postal Service", "brand:wikidata": "Q668687", "collection_times": "Mo-Fr 17:00; Sa 14:00", "name": "USPS COLLECTION BOX - PO LOBBY", "note": "ON 12/24 AND 12/31, THIS BOX MAY BE COLLECTED AS EARLY AS 12 NOON.", "nsi_id": "unitedstatespostalservice-a77078", "operator": "United States Postal Service", "operator:short": "USPS", "operator:type": "public", "operator:wikidata": "Q668687", "ref": "8465100009"}, "type": "Feature"}
{"dataset_attributes": {"@spider": "usps_collection_boxes", "spider:collection_time": "2023-12-10T08:24:07.887270"}, "geometry": {"coordinates": [-111.716697, 40.044524], "type": "Point"}, "id": "DuEvKaQ-xng_2HjrGpkG2DIt-f4=", "properties": {"@spider": "usps_collection_boxes", "addr:city": "PAYSON", "addr:country": "US", "addr:full": "955 E 100 N", "addr:postcode": "84651", "addr:state": "UT", "amenity": "post_box", "brand": "United States Postal Service", "brand:wikidata": "Q668687", "collection_times": "Mo-Fr 17:00; Sa 14:00", "name": "USPS COLLECTION BOX - PO LOBBY", "note": "ON 12/24 AND 12/31, THIS BOX MAY BE COLLECTED AS EARLY AS 12 NOON.", "nsi_id": "unitedstatespostalservice-a77078", "operator": "United States Postal Service", "operator:short": "USPS", "operator:type": "public", "operator:wikidata": "Q668687", "ref": "8465100010"}, "type": "Feature"}
{"dataset_attributes": {"@spider": "usps_collection_boxes", "spider:collection_time": "2023-12-10T08:24:07.887270"}, "geometry": {"coordinates": [-111.7322156219, 40.0434941222], "type": "Point"}, "id": "K3fmDODqgiYPFinTrrBoN_PO1bQ=", "properties": {"@spider": "usps_collection_boxes", "addr:city": "PAYSON", "addr:country": "US", "addr:full": "5 S MAIN ST", "addr:postcode": "84651", "addr:state": "UT", "amenity": "post_box", "brand": "United States Postal Service", "brand:wikidata": "Q668687", "collection_times": "Mo-Sa 11:00", "name": "USPS COLLECTION BOX - BLUE BOX", "nsi_id": "unitedstatespostalservice-a77078", "operator": "United States Postal Service", "operator:short": "USPS", "operator:type": "public", "operator:wikidata": "Q668687", "ref": "8465100012"}, "type": "Feature"}
{"dataset_attributes": {"@spider": "usps_collection_boxes", "spider:collection_time": "2023-12-10T08:24:07.887270"}, "geometry": {"coordinates": [-111.716697, 40.044524], "type": "Point"}, "id": "ekALYfgUZQMgnsWX4IDRnd_Mkn0=", "properties": {"@spider": "usps_collection_boxes", "addr:city": "PAYSON", "addr:country": "US", "addr:full": "955 E 100 N", "addr:postcode": "84651", "addr:state": "UT", "amenity": "post_box", "brand": "United States Postal Service", "brand:wikidata": "Q668687", "collection_times": "Mo-Fr 17:00; Sa 14:00", "name": "USPS COLLECTION BOX - PO LOBBY", "note": "ON 12/24 AND 12/31, THIS BOX MAY BE COLLECTED AS EARLY AS 12 NOON.", "nsi_id": "unitedstatespostalservice-a77078", "operator": "United States Postal Service", "operator:short": "USPS", "operator:type": "public", "operator:wikidata": "Q668687", "ref": "8465100013"}, "type": "Feature"}
{"dataset_attributes": {"@spider": "usps_collection_boxes", "spider:collection_time": "2023-12-10T08:24:07.887270"}, "geometry": {"coordinates": [-111.716697, 40.044524], "type": "Point"}, "id": "c4MyYWXmSdoL0h9v6D4buw14OZU=", "properties": {"@spider": "usps_collection_boxes", "addr:city": "PAYSON", "addr:country": "US", "addr:full": "955 E 100 N", "addr:postcode": "84651", "addr:state": "UT", "amenity": "post_box", "brand": "United States Postal Service", "brand:wikidata": "Q668687", "collection_times": "Mo-Fr 17:00; Sa 14:00", "name": "USPS COLLECTION BOX - PO LOBBY", "note": "ON 12/24 AND 12/31, THIS BOX MAY BE COLLECTED AS EARLY AS 12 NOON.", "nsi_id": "unitedstatespostalservice-a77078", "operator": "United States Postal Service", "operator:short": "USPS", "operator:type": "public", "operator:wikidata": "Q668687", "ref": "8465100014"}, "type": "Feature"}
{"dataset_attributes": {"@spider": "usps_collection_boxes", "spider:collection_time": "2023-12-10T08:24:07.887270"}, "geometry": {"coordinates": [-111.716781999, 40.044540516], "type": "Point"}, "id": "weo-tPjqyhfse0wiGFprqIJTEBw=", "properties": {"@spider": "usps_collection_boxes", "addr:city": "PAYSON", "addr:country": "US", "addr:full": "955 E 100 N", "addr:postcode": "84651", "addr:state": "UT", "amenity": "post_box", "brand": "United States Postal Service", "brand:wikidata": "Q668687", "collection_times": "Mo-Fr 17:00; Sa 14:00", "name": "USPS COLLECTION BOX - PO LOBBY", "note": "ON 12/24 AND 12/31, THIS BOX MAY BE COLLECTED AS EARLY AS 12 NOON.", "nsi_id": "unitedstatespostalservice-a77078", "operator": "United States Postal Service", "operator:short": "USPS", "operator:type": "public", "operator:wikidata": "Q668687", "ref": "8465100015"}, "type": "Feature"}
{"dataset_attributes": {"@spider": "usps_collection_boxes", "spider:collection_time": "2023-12-10T08:24:07.887270"}, "geometry": {"coordinates": [-111.866081, 39.005711], "type": "Point"}, "id": "i9Bc6Zc1er6oEENDyaJgHcroGJ8=", "properties": {"@spider": "usps_collection_boxes", "addr:city": "REDMOND", "addr:country": "US", "addr:full": "19 S 100 W", "addr:postcode": "84652", "addr:state": "UT", "amenity": "post_box", "brand": "United States Postal Service", "brand:wikidata": "Q668687", "collection_times": "Mo-Fr 11:45; Sa 09:45", "name": "USPS COLLECTION BOX - BLUE BOX", "nsi_id": "unitedstatespostalservice-a77078", "operator": "United States Postal Service", "operator:short": "USPS", "operator:type": "public", "operator:wikidata": "Q668687", "ref": "8465200000"}, "type": "Feature"}
{"dataset_attributes": {"@spider": "usps_collection_boxes", "spider:collection_time": "2023-12-10T08:24:07.887270"}, "geometry": {"coordinates": [-111.866269, 39.005697], "type": "Point"}, "id": "RmZ_oDA65TJd5iv-_HewyEh_yqY=", "properties": {"@spider": "usps_collection_boxes", "addr:city": "REDMOND", "addr:country": "US", "addr:full": "19 S 100 W", "addr:postcode": "84652", "addr:state": "UT", "amenity": "post_box", "brand": "United States Postal Service", "brand:wikidata": "Q668687", "collection_times": "Mo-Fr 11:45; Sa 09:45", "name": "USPS COLLECTION BOX - PO LOBBY", "nsi_id": "unitedstatespostalservice-a77078", "operator": "United States Postal Service", "operator:short": "USPS", "operator:type": "public", "operator:wikidata": "Q668687", "ref": "8465200001"}, "type": "Feature"}
{"dataset_attributes": {"@spider": "usps_collection_boxes", "spider:collection_time": "2023-12-10T08:24:07.887270"}, "geometry": {"coordinates": [-111.866268679, 39.005694618], "type": "Point"}, "id": "tUVzp2VC05JX1YTx214G1fVq1OY=", "properties": {"@spider": "usps_collection_boxes", "addr:city": "REDMOND", "addr:country": "US", "addr:full": "19 S 100 W", "addr:postcode": "84652", "addr:state": "UT", "amenity": "post_box", "brand": "United States Postal Service", "brand:wikidata": "Q668687", "collection_times": "Mo-Fr 11:45; Sa 09:45", "name": "USPS COLLECTION BOX - PO LOBBY", "nsi_id": "unitedstatespostalservice-a77078", "operator": "United States Postal Service", "operator:short": "USPS", "operator:type": "public", "operator:wikidata": "Q668687", "ref": "8465200002"}, "type": "Feature"}
{"dataset_attributes": {"@spider": "usps_collection_boxes", "spider:collection_time": "2023-12-10T08:24:07.887270"}, "geometry": {"coordinates": [-111.670637, 40.057555], "type": "Point"}, "id": "6tw65pI9PBVI6_I03j7t6yg6p_E=", "properties": {"@spider": "usps_collection_boxes", "addr:city": "SALEM", "addr:country": "US", "addr:full": "134 E 200 N", "addr:postcode": "84653", "addr:state": "UT", "amenity": "post_box", "brand": "United States Postal Service", "brand:wikidata": "Q668687", "collection_times": "Mo-Fr 16:00; Sa 11:30", "name": "USPS COLLECTION BOX - BLUE BOX", "note": "ON 12/24 AND 12/31, THIS BOX MAY BE COLLECTED AS EARLY AS 12 NOON.", "nsi_id": "unitedstatespostalservice-a77078", "operator": "United States Postal Service", "operator:short": "USPS", "operator:type": "public", "operator:wikidata": "Q668687", "ref": "8465300001"}, "type": "Feature"}
{"dataset_attributes": {"@spider": "usps_collection_boxes", "spider:collection_time": "2023-12-10T08:24:07.887270"}, "geometry": {"coordinates": [-111.670673, 40.057581], "type": "Point"}, "id": "aYF3IV2HjAj7ngsEbF5xHi_BVhM=", "properties": {"@spider": "usps_collection_boxes", "addr:city": "SALEM", "addr:country": "US", "addr:full": "134 E 200 N", "addr:postcode": "84653", "addr:state": "UT", "amenity": "post_box", "brand": "United States Postal Service", "brand:wikidata": "Q668687", "collection_times": "Mo-Fr 16:30; Sa 11:30", "name": "USPS COLLECTION BOX - PO LOBBY", "note": "ON 12/24 AND 12/31, THIS BOX MAY BE COLLECTED AS EARLY AS 12 NOON.", "nsi_id": "unitedstatespostalservice-a77078", "operator": "United States Postal Service", "operator:short": "USPS", "operator:type": "public", "operator:wikidata": "Q668687", "ref": "8465300002"}, "type": "Feature"}
{"dataset_attributes": {"@spider": "usps_collection_boxes", "spider:collection_time": "2023-12-10T08:24:07.887270"}, "geometry": {"coordinates": [-111.670673, 40.057581], "type": "Point"}, "id": "u3B3iFbJ_B1CeOAGVJpPM7PfV5s=", "properties": {"@spider": "usps_collection_boxes", "addr:city": "SALEM", "addr:country": "US", "addr:full": "134 E 200 N", "addr:postcode": "84653", "addr:state": "UT", "amenity": "post_box", "brand": "United States Postal Service", "brand:wikidata": "Q668687", "collection_times": "Mo-Fr 16:00; Sa 11:30", "name": "USPS COLLECTION BOX - BLUE BOX", "note": "ON 12/24 AND 12/31, THIS BOX MAY BE COLLECTED AS EARLY AS 12 NOON.", "nsi_id": "unitedstatespostalservice-a77078", "operator": "United States Postal Service", "operator:short": "USPS", "operator:type": "public", "operator:wikidata": "Q668687", "ref": "8465300003"}, "type": "Feature"}
{"dataset_attributes": {"@spider": "usps_collection_boxes", "spider:collection_time": "2023-12-10T08:24:07.887270"}, "geometry": {"coordinates": [-111.670673, 40.057581], "type": "Point"}, "id": "82xWNpAC6VwA7Vz4clBiZVl6P54=", "properties": {"@spider": "usps_collection_boxes", "addr:city": "SALEM", "addr:country": "US", "addr:full": "134 E 200 N", "addr:postcode": "84653", "addr:state": "UT", "amenity": "post_box", "brand": "United States Postal Service", "brand:wikidata": "Q668687", "collection_times": "Mo-Fr 16:30; Sa 11:30", "name": "USPS COLLECTION BOX - PO LOBBY", "note": "ON 12/24 AND 12/31, THIS BOX MAY BE COLLECTED AS EARLY AS 12 NOON.", "nsi_id": "unitedstatespostalservice-a77078", "operator": "United States Postal Service", "operator:short": "USPS", "operator:type": "public", "operator:wikidata": "Q668687", "ref": "8465300004"}, "type": "Feature"}
{"dataset_attributes": {"@spider": "usps_collection_boxes", "spider:collection_time": "2023-12-10T08:24:07.887270"}, "geometry": {"coordinates": [-111.653322, 40.027678], "type": "Point"}, "id": "m5QU30Rhyk4lLL1WhkfwSYFJsIo=", "properties": {"@spider": "usps_collection_boxes", "addr:city": "SALEM", "addr:country": "US", "addr:full": "11200 S WOODLAND HILLS DR", "addr:postcode": "84653", "addr:state": "UT", "amenity": "post_box", "brand": "United States Postal Service", "brand:wikidata": "Q668687", "collection_times": "Mo-Sa 10:30", "name": "USPS COLLECTION BOX - BLUE BOX", "nsi_id": "unitedstatespostalservice-a77078", "operator": "United States Postal Service", "operator:short": "USPS", "operator:type": "public", "operator:wikidata": "Q668687", "ref": "8465300005"}, "type": "Feature"}
{"dataset_attributes": {"@spider": "usps_collection_boxes", "spider:collection_time": "2023-12-10T08:24:07.887270"}, "geometry": {"coordinates": [-111.67065554, 40.057504013], "type": "Point"}, "id": "dxlowO8R-8hSW4pUAblmtNwMt8w=", "properties": {"@spider": "usps_collection_boxes", "addr:city": "SALEM", "addr:country": "US", "addr:full": "134 E 200 N", "addr:postcode": "84653", "addr:state": "UT", "amenity": "post_box", "brand": "United States Postal Service", "brand:wikidata": "Q668687", "collection_times": "Mo-Fr 16:30; Sa 11:30", "name": "USPS COLLECTION BOX - PO LOBBY", "note": "ON 12/24 AND 12/31, THIS BOX MAY BE COLLECTED AS EARLY AS 12 NOON.", "nsi_id": "unitedstatespostalservice-a77078", "operator": "United States Postal Service", "operator:short": "USPS", "operator:type": "public", "operator:wikidata": "Q668687", "ref": "8465300006"}, "type": "Feature"}
{"dataset_attributes": {"@spider": "usps_collection_boxes", "spider:collection_time": "2023-12-10T08:24:07.887270"}, "geometry": {"coordinates": [-111.858322, 38.958083], "type": "Point"}, "id": "DtQFGI44FzgsQ5cyxTKtxra4aus=", "properties": {"@spider": "usps_collection_boxes", "addr:city": "SALINA", "addr:country": "US", "addr:full": "35 N 100 E", "addr:postcode": "84654", "addr:state": "UT", "amenity": "post_box", "brand": "United States Postal Service", "brand:wikidata": "Q668687", "collection_times": "Mo-Fr 16:00; Sa 12:00", "name": "USPS COLLECTION BOX - BLUE BOX", "note": "ON 12/24 AND 12/31, THIS BOX MAY BE COLLECTED AS EARLY AS 12 NOON.", "nsi_id": "unitedstatespostalservice-a77078", "operator": "United States Postal Service", "operator:short": "USPS", "operator:type": "public", "operator:wikidata": "Q668687", "ref": "8465400001"}, "type": "Feature"}
{"dataset_attributes": {"@spider": "usps_collection_boxes", "spider:collection_time": "2023-12-10T08:24:07.887270"}, "geometry": {"coordinates": [-111.858287, 38.958056], "type": "Point"}, "id": "SpUZvcuufZttio7aNTjj7nlkicE=", "properties": {"@spider": "usps_collection_boxes", "addr:city": "SALINA", "addr:country": "US", "addr:full": "35 N 100 E", "addr:postcode": "84654", "addr:state": "UT", "amenity": "post_box", "brand": "United States Postal Service", "brand:wikidata": "Q668687", "collection_times": "Mo-Fr 16:30; Sa 12:00", "name": "USPS COLLECTION BOX - PO LOBBY", "note": "ON 12/24 AND 12/31, THIS BOX MAY BE COLLECTED AS EARLY AS 12 NOON.", "nsi_id": "unitedstatespostalservice-a77078", "operator": "United States Postal Service", "operator:short": "USPS", "operator:type": "public", "operator:wikidata": "Q668687", "ref": "8465400004"}, "type": "Feature"}
{"dataset_attributes": {"@spider": "usps_collection_boxes", "spider:collection_time": "2023-12-10T08:24:07.887270"}, "geometry": {"coordinates": [-111.858325788, 38.95802978], "type": "Point"}, "id": "JWc6EnpYACqqMBiZ-TV5MHmD5cs=", "properties": {"@spider": "usps_collection_boxes", "addr:city": "SALINA", "addr:country": "US", "addr:full": "35 N 100 E", "addr:postcode": "84654", "addr:state": "UT", "amenity": "post_box", "brand": "United States Postal Service", "brand:wikidata": "Q668687", "collection_times": "Mo-Fr 16:30; Sa 12:00", "name": "USPS COLLECTION BOX - PO LOBBY", "note": "ON 12/24 AND 12/31, THIS BOX MAY BE COLLECTED AS EARLY AS 12 NOON.", "nsi_id": "unitedstatespostalservice-a77078", "operator": "United States Postal Service", "operator:short": "USPS", "operator:type": "public", "operator:wikidata": "Q668687", "ref": "8465400005"}, "type": "Feature"}
{"dataset_attributes": {"@spider": "usps_collection_boxes", "spider:collection_time": "2023-12-10T08:24:07.887270"}, "geometry": {"coordinates": [-111.785643, 39.9756], "type": "Point"}, "id": "JBRosTKnJmDLEFSiWYTTVDOyWW0=", "properties": {"@spider": "usps_collection_boxes", "addr:city": "SANTAQUIN", "addr:country": "US", "addr:full": "20 W MAIN ST", "addr:postcode": "84655", "addr:state": "UT", "amenity": "post_box", "brand": "United States Postal Service", "brand:wikidata": "Q668687", "collection_times": "Mo-Fr 16:45; Sa 12:00", "name": "USPS COLLECTION BOX - BLUE BOX", "note": "ON 12/24 AND 12/31, THIS BOX MAY BE COLLECTED AS EARLY AS 12 NOON.", "nsi_id": "unitedstatespostalservice-a77078", "operator": "United States Postal Service", "operator:short": "USPS", "operator:type": "public", "operator:wikidata": "Q668687", "ref": "8465500002"}, "type": "Feature"}
{"dataset_attributes": {"@spider": "usps_collection_boxes", "spider:collection_time": "2023-12-10T08:24:07.887270"}, "geometry": {"coordinates": [-111.785643, 39.9756], "type": "Point"}, "id": "p2K6LCp_e3xyx7zdE45rnnw_h_4=", "properties": {"@spider": "usps_collection_boxes", "addr:city": "SANTAQUIN", "addr:country": "US", "addr:full": "20 W MAIN ST", "addr:postcode": "84655", "addr:state": "UT", "amenity": "post_box", "brand": "United States Postal Service", "brand:wikidata": "Q668687", "collection_times": "Mo-Fr 17:00; Sa 12:00", "name": "USPS COLLECTION BOX - PO LOBBY", "note": "ON 12/24 AND 12/31, THIS BOX MAY BE COLLECTED AS EARLY AS 12 NOON.", "nsi_id": "unitedstatespostalservice-a77078", "operator": "United States Postal Service", "operator:short": "USPS", "operator:type": "public", "operator:wikidata": "Q668687", "ref": "8465500003"}, "type": "Feature"}
{"dataset_attributes": {"@spider": "usps_collection_boxes", "spider:collection_time": "2023-12-10T08:24:07.887270"}, "geometry": {"coordinates": [-111.785643, 39.9756], "type": "Point"}, "id": "3OEngJyhY9iQM9Bo9G_6q3Bk1Ac=", "properties": {"@spider": "usps_collection_boxes", "addr:city": "SANTAQUIN", "addr:country": "US", "addr:full": "20 W MAIN ST", "addr:postcode": "84655", "addr:state": "UT", "amenity": "post_box", "brand": "United States Postal Service", "brand:wikidata": "Q668687", "collection_times": "Mo-Fr 17:00; Sa 12:00", "name": "USPS COLLECTION BOX - PO LOBBY", "note": "ON 12/24 AND 12/31, THIS BOX MAY BE COLLECTED AS EARLY AS 12 NOON.", "nsi_id": "unitedstatespostalservice-a77078", "operator": "United States Postal Service", "operator:short": "USPS", "operator:type": "public", "operator:wikidata": "Q668687", "ref": "8465500004"}, "type": "Feature"}
{"dataset_attributes": {"@spider": "usps_collection_boxes", "spider:collection_time": "2023-12-10T08:24:07.887270"}, "geometry": {"coordinates": [-111.78567, 39.975619534], "type": "Point"}, "id": "hWeWse-co8BrgfVOpiUtKs0BBCM=", "properties": {"@spider": "usps_collection_boxes", "addr:city": "SANTAQUIN", "addr:country": "US", "addr:full": "20 W MAIN ST", "addr:postcode": "84655", "addr:state": "UT", "amenity": "post_box", "brand": "United States Postal Service", "brand:wikidata": "Q668687", "collection_times": "Mo-Fr 17:00", "name": "USPS COLLECTION BOX - PO LOBBY", "note": "ON 12/24 AND 12/31, THIS BOX MAY BE COLLECTED AS EARLY AS 12 NOON.", "nsi_id": "unitedstatespostalservice-a77078", "operator": "United States Postal Service", "operator:short": "USPS", "operator:type": "public", "operator:wikidata": "Q668687", "ref": "8465500006"}, "type": "Feature"}
{"dataset_attributes": {"@spider": "usps_collection_boxes", "spider:collection_time": "2023-12-10T08:24:07.887270"}, "geometry": {"coordinates": [-111.651867, 40.121426], "type": "Point"}, "id": "LL8mtaNdrfaGmUqGuSiCknVcEe0=", "properties": {"@spider": "usps_collection_boxes", "addr:city": "SPANISH FORK", "addr:country": "US", "addr:full": "165 E 900 N", "addr:postcode": "84660", "addr:state": "UT", "amenity": "post_box", "brand": "United States Postal Service", "brand:wikidata": "Q668687", "collection_times": "Mo-Fr 17:00; Sa 13:00", "name": "USPS COLLECTION BOX - BLUE BOX", "note": "ON 12/24 AND 12/31, THIS BOX MAY BE COLLECTED AS EARLY AS 12 NOON.", "nsi_id": "unitedstatespostalservice-a77078", "operator": "United States Postal Service", "operator:short": "USPS", "operator:type": "public", "operator:wikidata": "Q668687", "ref": "8466000004"}, "type": "Feature"}
{"dataset_attributes": {"@spider": "usps_collection_boxes", "spider:collection_time": "2023-12-10T08:24:07.887270"}, "geometry": {"coordinates": [-111.6548648885, 40.108923545], "type": "Point"}, "id": "F9dRKA0Z7_JN8p57gwW6mBQeinY=", "properties": {"@spider": "usps_collection_boxes", "addr:city": "SPANISH FORK", "addr:country": "US", "addr:full": "80 S MAIN ST", "addr:postcode": "84660", "addr:state": "UT", "amenity": "post_box", "brand": "United States Postal Service", "brand:wikidata": "Q668687", "collection_times": "Mo-Sa 13:00", "name": "USPS COLLECTION BOX - BLUE BOX", "note": "ON 12/24 AND 12/31, THIS BOX MAY BE COLLECTED AS EARLY AS 12 NOON.", "nsi_id": "unitedstatespostalservice-a77078", "operator": "United States Postal Service", "operator:short": "USPS", "operator:type": "public", "operator:wikidata": "Q668687", "ref": "8466000006"}, "type": "Feature"}
{"dataset_attributes": {"@spider": "usps_collection_boxes", "spider:collection_time": "2023-12-10T08:24:07.887270"}, "geometry": {"coordinates": [-111.651832, 40.121399], "type": "Point"}, "id": "2IqEGJt-1XfZvzVo7tRxkXrNZIs=", "properties": {"@spider": "usps_collection_boxes", "addr:city": "SPANISH FORK", "addr:country": "US", "addr:full": "165 E 900 N", "addr:postcode": "84660", "addr:state": "UT", "amenity": "post_box", "brand": "United States Postal Service", "brand:wikidata": "Q668687", "collection_times": "Mo-Fr 17:00; Sa 14:00", "name": "USPS COLLECTION BOX - PO LOBBY", "note": "ON 12/24 AND 12/31, THIS BOX MAY BE COLLECTED AS EARLY AS 12 NOON.", "nsi_id": "unitedstatespostalservice-a77078", "operator": "United States Postal Service", "operator:short": "USPS", "operator:type": "public", "operator:wikidata": "Q668687", "ref": "8466000018"}, "type": "Feature"}
{"dataset_attributes": {"@spider": "usps_collection_boxes", "spider:collection_time": "2023-12-10T08:24:07.887270"}, "geometry": {"coordinates": [-111.651832, 40.121399], "type": "Point"}, "id": "_OUDld1vzvHwe9-hkRhpKpt6xyc=", "properties": {"@spider": "usps_collection_boxes", "addr:city": "SPANISH FORK", "addr:country": "US", "addr:full": "165 E 900 N", "addr:postcode": "84660", "addr:state": "UT", "amenity": "post_box", "brand": "United States Postal Service", "brand:wikidata": "Q668687", "collection_times": "Mo-Fr 17:00; Sa 14:00", "name": "USPS COLLECTION BOX - PO LOBBY", "note": "ON 12/24 AND 12/31, THIS BOX MAY BE COLLECTED AS EARLY AS 12 NOON.", "nsi_id": "unitedstatespostalservice-a77078", "operator": "United States Postal Service", "operator:short": "USPS", "operator:type": "public", "operator:wikidata": "Q668687", "ref": "8466000021"}, "type": "Feature"}
{"dataset_attributes": {"@spider": "usps_collection_boxes", "spider:collection_time": "2023-12-10T08:24:07.887270"}, "geometry": {"coordinates": [-111.651857469, 40.121469227], "type": "Point"}, "id": "O9W-i7u3j0KDaW38RoVo8SBuJNg=", "properties": {"@spider": "usps_collection_boxes", "addr:city": "SPANISH FORK", "addr:country": "US", "addr:full": "165 E 900 N", "addr:postcode": "84660", "addr:state": "UT", "amenity": "post_box", "brand": "United States Postal Service", "brand:wikidata": "Q668687", "collection_times": "Mo-Fr 17:00; Sa 14:00", "name": "USPS COLLECTION BOX - PO LOBBY", "note": "ON 12/24 AND 12/31, THIS BOX MAY BE COLLECTED AS EARLY AS 12 NOON.", "nsi_id": "unitedstatespostalservice-a77078", "operator": "United States Postal Service", "operator:short": "USPS", "operator:type": "public", "operator:wikidata": "Q668687", "ref": "8466000022"}, "type": "Feature"}
{"dataset_attributes": {"@spider": "usps_collection_boxes", "spider:collection_time": "2023-12-10T08:24:07.887270"}, "geometry": {"coordinates": [-111.496071, 39.478446], "type": "Point"}, "id": "qFXHCojgnQlLtkjn5CqTEpHAdug=", "properties": {"@spider": "usps_collection_boxes", "addr:city": "SPRING CITY", "addr:country": "US", "addr:full": "24 N MAIN ST", "addr:postcode": "84662", "addr:state": "UT", "amenity": "post_box", "brand": "United States Postal Service", "brand:wikidata": "Q668687", "collection_times": "Mo-Fr 16:00; Sa 11:30", "name": "USPS COLLECTION BOX - BLUE BOX", "note": "ON 12/24 AND 12/31, THIS BOX MAY BE COLLECTED AS EARLY AS 12 NOON.", "nsi_id": "unitedstatespostalservice-a77078", "operator": "United States Postal Service", "operator:short": "USPS", "operator:type": "public", "operator:wikidata": "Q668687", "ref": "8466200000"}, "type": "Feature"}
{"dataset_attributes": {"@spider": "usps_collection_boxes", "spider:collection_time": "2023-12-10T08:24:07.887270"}, "geometry": {"coordinates": [-111.496071, 39.478446], "type": "Point"}, "id": "j1G-swn27ygGHKqkd1_oI3Oqv2Q=", "properties": {"@spider": "usps_collection_boxes", "addr:city": "SPRING CITY", "addr:country": "US", "addr:full": "24 N MAIN ST", "addr:postcode": "84662", "addr:state": "UT", "amenity": "post_box", "brand": "United States Postal Service", "brand:wikidata": "Q668687", "collection_times": "Mo-Fr 16:00; Sa 11:30", "name": "USPS COLLECTION BOX - PO LOBBY", "note": "ON 12/24 AND 12/31, THIS BOX MAY BE COLLECTED AS EARLY AS 12 NOON.", "nsi_id": "unitedstatespostalservice-a77078", "operator": "United States Postal Service", "operator:short": "USPS", "operator:type": "public", "operator:wikidata": "Q668687", "ref": "8466200001"}, "type": "Feature"}
{"dataset_attributes": {"@spider": "usps_collection_boxes", "spider:collection_time": "2023-12-10T08:24:07.887270"}, "geometry": {"coordinates": [-111.496035365, 39.478608251], "type": "Point"}, "id": "Usje9OItb3HfLCdhKJBsSS5Xlmw=", "properties": {"@spider": "usps_collection_boxes", "addr:city": "SPRING CITY", "addr:country": "US", "addr:full": "24 N MAIN ST", "addr:postcode": "84662", "addr:state": "UT", "amenity": "post_box", "brand": "United States Postal Service", "brand:wikidata": "Q668687", "collection_times": "Mo-Fr 16:00; Sa 11:30", "name": "USPS COLLECTION BOX - PO LOBBY", "note": "ON 12/24 AND 12/31, THIS BOX MAY BE COLLECTED AS EARLY AS 12 NOON.", "nsi_id": "unitedstatespostalservice-a77078", "operator": "United States Postal Service", "operator:short": "USPS", "operator:type": "public", "operator:wikidata": "Q668687", "ref": "8466200002"}, "type": "Feature"}
{"dataset_attributes": {"@spider": "usps_collection_boxes", "spider:collection_time": "2023-12-10T08:24:07.887270"}, "geometry": {"coordinates": [-111.577914, 40.130505], "type": "Point"}, "id": "sFDjmxE1ZUxmifJBB5Hti1FWni4=", "properties": {"@spider": "usps_collection_boxes", "addr:city": "SPRINGVILLE", "addr:country": "US", "addr:full": "35 E MAPLE ST", "addr:postcode": "84663", "addr:state": "UT", "amenity": "post_box", "brand": "United States Postal Service", "brand:wikidata": "Q668687", "collection_times": "Mo-Fr 12:00", "name": "USPS COLLECTION BOX - BLUE BOX", "nsi_id": "unitedstatespostalservice-a77078", "operator": "United States Postal Service", "operator:short": "USPS", "operator:type": "public", "operator:wikidata": "Q668687", "ref": "8466300002"}, "type": "Feature"}
{"dataset_attributes": {"@spider": "usps_collection_boxes", "spider:collection_time": "2023-12-10T08:24:07.887270"}, "geometry": {"coordinates": [-111.624366, 40.183747], "type": "Point"}, "id": "ZVTvyftTZcJNrI43R1h_Ra2UJtI=", "properties": {"@spider": "usps_collection_boxes", "addr:city": "SPRINGVILLE", "addr:country": "US", "addr:full": "775 W 1200 N", "addr:postcode": "84663", "addr:state": "UT", "amenity": "post_box", "brand": "United States Postal Service", "brand:wikidata": "Q668687", "collection_times": "Mo-Sa 11:00", "name": "USPS COLLECTION BOX - BLUE BOX", "nsi_id": "unitedstatespostalservice-a77078", "operator": "United States Postal Service", "operator:short": "USPS", "operator:type": "public", "operator:wikidata": "Q668687", "ref": "8466300003"}, "type": "Feature"}
{"dataset_attributes": {"@spider": "usps_collection_boxes", "spider:collection_time": "2023-12-10T08:24:07.887270"}, "geometry": {"coordinates": [-111.61086, 40.161649], "type": "Point"}, "id": "tjNuCY9hcI-hVk2r9YzwxfTny6w=", "properties": {"@spider": "usps_collection_boxes", "addr:city": "SPRINGVILLE", "addr:country": "US", "addr:full": "380 S MAIN ST", "addr:postcode": "84663", "addr:state": "UT", "amenity": "post_box", "brand": "United States Postal Service", "brand:wikidata": "Q668687", "collection_times": "Mo-Sa 12:00", "name": "USPS COLLECTION BOX - BLUE BOX", "nsi_id": "unitedstatespostalservice-a77078", "operator": "United States Postal Service", "operator:short": "USPS", "operator:type": "public", "operator:wikidata": "Q668687", "ref": "8466300005"}, "type": "Feature"}
{"dataset_attributes": {"@spider": "usps_collection_boxes", "spider:collection_time": "2023-12-10T08:24:07.887270"}, "geometry": {"coordinates": [-111.609328, 40.167948], "type": "Point"}, "id": "VhXLsOKGwNw1egG7aq7O_fOHi24=", "properties": {"@spider": "usps_collection_boxes", "addr:city": "SPRINGVILLE", "addr:country": "US", "addr:full": "76 E 100 N", "addr:postcode": "84663", "addr:state": "UT", "amenity": "post_box", "brand": "United States Postal Service", "brand:wikidata": "Q668687", "collection_times": "Mo-Fr 17:00; Sa 12:30", "name": "USPS COLLECTION BOX - BLUE BOX", "note": "ON 12/24 AND 12/31, THIS BOX MAY BE COLLECTED AS EARLY AS 12 NOON.", "nsi_id": "unitedstatespostalservice-a77078", "operator": "United States Postal Service", "operator:short": "USPS", "operator:type": "public", "operator:wikidata": "Q668687", "ref": "8466300007"}, "type": "Feature"}
{"dataset_attributes": {"@spider": "usps_collection_boxes", "spider:collection_time": "2023-12-10T08:24:07.887270"}, "geometry": {"coordinates": [-111.608888, 40.167839], "type": "Point"}, "id": "0x6OIuiU5T5DKDgNL7i3boSxiws=", "properties": {"@spider": "usps_collection_boxes", "addr:city": "SPRINGVILLE", "addr:country": "US", "addr:full": "75 E CENTER ST", "addr:postcode": "84663", "addr:state": "UT", "amenity": "post_box", "brand": "United States Postal Service", "brand:wikidata": "Q668687", "collection_times": "Mo-Fr 17:00; Sa 12:30", "name": "USPS COLLECTION BOX - PO LOBBY", "note": "ON 12/24 AND 12/31, THIS BOX MAY BE COLLECTED AS EARLY AS 12 NOON.", "nsi_id": "unitedstatespostalservice-a77078", "operator": "United States Postal Service", "operator:short": "USPS", "operator:type": "public", "operator:wikidata": "Q668687", "ref": "8466300010"}, "type": "Feature"}
{"dataset_attributes": {"@spider": "usps_collection_boxes", "spider:collection_time": "2023-12-10T08:24:07.887270"}, "geometry": {"coordinates": [-111.609259, 40.167234], "type": "Point"}, "id": "1YmxcbaXne_jH4j51GxzBlwNkQk=", "properties": {"@spider": "usps_collection_boxes", "addr:city": "SPRINGVILLE", "addr:country": "US", "addr:full": "75 E CENTER ST", "addr:postcode": "84663", "addr:state": "UT", "amenity": "post_box", "brand": "United States Postal Service", "brand:wikidata": "Q668687", "collection_times": "Mo-Fr 17:00; Sa 12:30", "name": "USPS COLLECTION BOX - PO LOBBY", "note": "ON 12/24 AND 12/31, THIS BOX MAY BE COLLECTED AS EARLY AS 12 NOON.", "nsi_id": "unitedstatespostalservice-a77078", "operator": "United States Postal Service", "operator:short": "USPS", "operator:type": "public", "operator:wikidata": "Q668687", "ref": "8466300011"}, "type": "Feature"}
{"dataset_attributes": {"@spider": "usps_collection_boxes", "spider:collection_time": "2023-12-10T08:24:07.887270"}, "geometry": {"coordinates": [-111.6093105, 40.166701454], "type": "Point"}, "id": "y5lfvYTapCaV8IN1Y2eu9I7N_dw=", "properties": {"@spider": "usps_collection_boxes", "addr:city": "SPRINGVILLE", "addr:country": "US", "addr:full": "75 E CENTER ST", "addr:postcode": "84663", "addr:state": "UT", "amenity": "post_box", "brand": "United States Postal Service", "brand:wikidata": "Q668687", "collection_times": "Mo-Fr 17:00; Sa 12:30", "name": "USPS COLLECTION BOX - PO LOBBY", "note": "ON 12/24 AND 12/31, THIS BOX MAY BE COLLECTED AS EARLY AS 12 NOON.", "nsi_id": "unitedstatespostalservice-a77078", "operator": "United States Postal Service", "operator:short": "USPS", "operator:type": "public", "operator:wikidata": "Q668687", "ref": "8466300013"}, "type": "Feature"}
