{"geometry": {"coordinates": [-111.457092, 33.352112], "type": "Point"}, "id": "DRpTsEVGKsx_8GV5zgB_4M4wd3Y=", "properties": {"@spider": "usps_collection_boxes", "addr:city": "APACHE JUNCTION", "addr:country": "US", "addr:full": "6951 S KINGS RANCH RD", "addr:postcode": "85118", "addr:state": "AZ", "amenity": "post_box", "brand": "United States Postal Service", "brand:wikidata": "Q668687", "collection_times": "Mo-Fr 14:15; Sa 13:00", "name": "USPS COLLECTION BOX - BLUE BOX", "note": "ON 12/24 AND 12/31, THIS BOX MAY BE COLLECTED AS EARLY AS 12 NOON.", "nsi_id": "unitedstatespostalservice-a77078", "operator": "United States Postal Service", "operator:short": "USPS", "operator:type": "public", "operator:wikidata": "Q668687", "ref": "8511800001"}, "type": "Feature"}
{"geometry": {"coordinates": [-111.474874, 33.366201], "type": "Point"}, "id": "281JmX7JMyweF3p5Xe8WSnPEEJs=", "properties": {"@spider": "usps_collection_boxes", "addr:city": "APACHE JUNCTION", "addr:country": "US", "addr:full": "5311 S SUPERSTITION MOUNTAIN DR", "addr:postcode": "85118", "addr:state": "AZ", "amenity": "post_box", "brand": "United States Postal Service", "brand:wikidata": "Q668687", "collection_times": "Mo-Fr 14:15; Sa 13:00", "name": "USPS COLLECTION BOX - BLUE BOX", "note": "ON 12/24 AND 12/31, THIS BOX MAY BE COLLECTED AS EARLY AS 12 NOON.", "nsi_id": "unitedstatespostalservice-a77078", "operator": "United States Postal Service", "operator:short": "USPS", "operator:type": "public", "operator:wikidata": "Q668687", "ref": "8511800002"}, "type": "Feature"}
{"geometry": {"coordinates": [-111.463831, 33.362913], "type": "Point"}, "id": "DGxtNwC1CLS-wsj8CABq6aeXU7o=", "properties": {"@spider": "usps_collection_boxes", "addr:city": "APACHE JUNCTION", "addr:country": "US", "addr:full": "5782 S MOUNTAINBROOK DR", "addr:postcode": "85118", "addr:state": "AZ", "amenity": "post_box", "brand": "United States Postal Service", "brand:wikidata": "Q668687", "collection_times": "Mo-Fr 14:15; Sa 13:00", "name": "USPS COLLECTION BOX - BLUE BOX", "note": "ON 12/24 AND 12/31, THIS BOX MAY BE COLLECTED AS EARLY AS 12 NOON.", "nsi_id": "unitedstatespostalservice-a77078", "operator": "United States Postal Service", "operator:short": "USPS", "operator:type": "public", "operator:wikidata": "Q668687", "ref": "8511800003"}, "type": "Feature"}
{"geometry": {"coordinates": [-111.547953, 33.422311508], "type": "Point"}, "id": "F3kOKj_U_ekmf5uK2aZNvk62c38=", "properties": {"@spider": "usps_collection_boxes", "addr:city": "APACHE JUNCTION", "addr:country": "US", "addr:full": "151 W SUPERSTITION BLVD", "addr:postcode": "85120", "addr:state": "AZ", "amenity": "post_box", "brand": "United States Postal Service", "brand:wikidata": "Q668687", "collection_times": "Mo-Fr 13:45; Sa 16:00", "name": "USPS COLLECTION BOX - EXPRESS", "note": "ON 12/24 AND 12/31, THIS BOX MAY BE COLLECTED AS EARLY AS 12 NOON.", "nsi_id": "unitedstatespostalservice-a77078", "operator": "United States Postal Service", "operator:short": "USPS", "operator:type": "public", "operator:wikidata": "Q668687", "ref": "8512000001"}, "type": "Feature"}
{"geometry": {"coordinates": [-111.548098, 33.422158], "type": "Point"}, "id": "wNWN6B3aYkHKfLTQsNq853RYsJM=", "properties": {"@spider": "usps_collection_boxes", "addr:city": "APACHE JUNCTION", "addr:country": "US", "addr:full": "151 W SUPERSTITION BLVD", "addr:postcode": "85120", "addr:state": "AZ", "amenity": "post_box", "brand": "United States Postal Service", "brand:wikidata": "Q668687", "collection_times": "Mo-Fr 17:00; Sa 16:00", "name": "USPS COLLECTION BOX - BLUE BOX", "note": "ON 12/24 AND 12/31, THIS BOX MAY BE COLLECTED AS EARLY AS 12 NOON.", "nsi_id": "unitedstatespostalservice-a77078", "operator": "United States Postal Service", "operator:short": "USPS", "operator:type": "public", "operator:wikidata": "Q668687", "ref": "8512000002"}, "type": "Feature"}
{"geometry": {"coordinates": [-111.554353, 33.413595], "type": "Point"}, "id": "sYCnhWTnmbwMDNbXJJV3mEsVS9s=", "properties": {"@spider": "usps_collection_boxes", "addr:city": "APACHE JUNCTION", "addr:country": "US", "addr:full": "725 W APACHE TRL", "addr:postcode": "85120", "addr:state": "AZ", "amenity": "post_box", "brand": "United States Postal Service", "brand:wikidata": "Q668687", "collection_times": "Mo-Sa 09:45", "name": "USPS COLLECTION BOX - BLUE BOX", "nsi_id": "unitedstatespostalservice-a77078", "operator": "United States Postal Service", "operator:short": "USPS", "operator:type": "public", "operator:wikidata": "Q668687", "ref": "8512000003"}, "type": "Feature"}
{"geometry": {"coordinates": [-111.550575083, 33.415056168], "type": "Point"}, "id": "CuB_LT-uFxBJ-ZduuOVkhN7RoZk=", "properties": {"@spider": "usps_collection_boxes", "addr:city": "APACHE JUNCTION", "addr:country": "US", "addr:full": "350 W APACHE TRL", "addr:postcode": "85120", "addr:state": "AZ", "amenity": "post_box", "brand": "United States Postal Service", "brand:wikidata": "Q668687", "collection_times": "Mo-Fr 15:15; Sa 13:00", "name": "USPS COLLECTION BOX - BLUE BOX", "note": "ON 12/24 AND 12/31, THIS BOX MAY BE COLLECTED AS EARLY AS 12 NOON.", "nsi_id": "unitedstatespostalservice-a77078", "operator": "United States Postal Service", "operator:short": "USPS", "operator:type": "public", "operator:wikidata": "Q668687", "ref": "8512000004"}, "type": "Feature"}
{"geometry": {"coordinates": [-111.601304, 33.415067], "type": "Point"}, "id": "EOuw_1G1BsFRGuszp3aYXgGGo4s=", "properties": {"@spider": "usps_collection_boxes", "addr:city": "APACHE JUNCTION", "addr:country": "US", "addr:full": "10653 E APACHE TRL", "addr:postcode": "85120", "addr:state": "AZ", "amenity": "post_box", "brand": "United States Postal Service", "brand:wikidata": "Q668687", "collection_times": "Mo-Sa 09:30", "name": "USPS COLLECTION BOX - BLUE BOX", "nsi_id": "unitedstatespostalservice-a77078", "operator": "United States Postal Service", "operator:short": "USPS", "operator:type": "public", "operator:wikidata": "Q668687", "ref": "8512000005"}, "type": "Feature"}
{"geometry": {"coordinates": [-111.548049, 33.422154], "type": "Point"}, "id": "1Ep6YrJfL6cQqPJPwIOnnI_Ewp0=", "properties": {"@spider": "usps_collection_boxes", "addr:city": "APACHE JUNCTION", "addr:country": "US", "addr:full": "151 W SUPERSTITION BLVD", "addr:postcode": "85120", "addr:state": "AZ", "amenity": "post_box", "brand": "United States Postal Service", "brand:wikidata": "Q668687", "collection_times": "Mo-Fr 17:00; Sa 16:00", "name": "USPS COLLECTION BOX - BLUE BOX", "note": "ON 12/24 AND 12/31, THIS BOX MAY BE COLLECTED AS EARLY AS 12 NOON.", "nsi_id": "unitedstatespostalservice-a77078", "operator": "United States Postal Service", "operator:short": "USPS", "operator:type": "public", "operator:wikidata": "Q668687", "ref": "8512000006"}, "type": "Feature"}
{"geometry": {"coordinates": [-111.547867, 33.421498], "type": "Point"}, "id": "q7TmaQfupSx7OvmbjzKixwm2Zh4=", "properties": {"@spider": "usps_collection_boxes", "addr:city": "APACHE JUNCTION", "addr:country": "US", "addr:full": "151 W SUPERSTITION BLVD", "addr:postcode": "85120", "addr:state": "AZ", "amenity": "post_box", "brand": "United States Postal Service", "brand:wikidata": "Q668687", "collection_times": "Mo-Fr 17:00; Sa 16:00", "name": "USPS COLLECTION BOX - PO LOBBY", "note": "ON 12/24 AND 12/31, THIS BOX MAY BE COLLECTED AS EARLY AS 12 NOON.", "nsi_id": "unitedstatespostalservice-a77078", "operator": "United States Postal Service", "operator:short": "USPS", "operator:type": "public", "operator:wikidata": "Q668687", "ref": "8512000007"}, "type": "Feature"}
{"geometry": {"coordinates": [-111.548752, 33.412494], "type": "Point"}, "id": "pWlVlpeDVYk4hSV6qkruUpXLg5c=", "properties": {"@spider": "usps_collection_boxes", "addr:city": "APACHE JUNCTION", "addr:country": "US", "addr:full": "185 W APACHE TRL", "addr:postcode": "85120", "addr:state": "AZ", "amenity": "post_box", "brand": "United States Postal Service", "brand:wikidata": "Q668687", "collection_times": "Mo-Fr 15:15; Sa 13:00", "name": "USPS COLLECTION BOX - BLUE BOX", "note": "ON 12/24 AND 12/31, THIS BOX MAY BE COLLECTED AS EARLY AS 12 NOON.", "nsi_id": "unitedstatespostalservice-a77078", "operator": "United States Postal Service", "operator:short": "USPS", "operator:type": "public", "operator:wikidata": "Q668687", "ref": "8512000008"}, "type": "Feature"}
{"geometry": {"coordinates": [-111.578982, 33.414045], "type": "Point"}, "id": "B9lKcHlklKQ4pj3XJVOSCrsP004=", "properties": {"@spider": "usps_collection_boxes", "addr:city": "APACHE JUNCTION", "addr:country": "US", "addr:full": "3003 W APACHE TRL", "addr:postcode": "85120", "addr:state": "AZ", "amenity": "post_box", "brand": "United States Postal Service", "brand:wikidata": "Q668687", "collection_times": "Mo-Fr 15:00; Sa 13:00", "name": "USPS COLLECTION BOX - BLUE BOX", "note": "ON 12/24 AND 12/31, THIS BOX MAY BE COLLECTED AS EARLY AS 12 NOON.", "nsi_id": "unitedstatespostalservice-a77078", "operator": "United States Postal Service", "operator:short": "USPS", "operator:type": "public", "operator:wikidata": "Q668687", "ref": "8512000009"}, "type": "Feature"}
{"geometry": {"coordinates": [-111.547878, 33.421498], "type": "Point"}, "id": "qB0G7rZnaqP_i3rY-SZxueiu8H0=", "properties": {"@spider": "usps_collection_boxes", "addr:city": "APACHE JUNCTION", "addr:country": "US", "addr:full": "151 W SUPERSTITION BLVD", "addr:postcode": "85120", "addr:state": "AZ", "amenity": "post_box", "brand": "United States Postal Service", "brand:wikidata": "Q668687", "collection_times": "Mo-Fr 17:00; Sa 16:00", "name": "USPS COLLECTION BOX - APC", "note": "ON 12/24 AND 12/31, THIS BOX MAY BE COLLECTED AS EARLY AS 12 NOON.", "nsi_id": "unitedstatespostalservice-a77078", "operator": "United States Postal Service", "operator:short": "USPS", "operator:type": "public", "operator:wikidata": "Q668687", "ref": "8512000010"}, "type": "Feature"}
{"geometry": {"coordinates": [-111.547953, 33.422311508], "type": "Point"}, "id": "BOvD-Dj8oSyoc0QJz5uLId15Zf0=", "properties": {"@spider": "usps_collection_boxes", "addr:city": "APACHE JUNCTION", "addr:country": "US", "addr:full": "151 W SUPERSTITION BLVD", "addr:postcode": "85120", "addr:state": "AZ", "amenity": "post_box", "brand": "United States Postal Service", "brand:wikidata": "Q668687", "collection_times": "Mo-Fr 17:00; Sa 16:00", "name": "USPS COLLECTION BOX - PO LOBBY", "note": "ON 12/24 AND 12/31, THIS BOX MAY BE COLLECTED AS EARLY AS 12 NOON.", "nsi_id": "unitedstatespostalservice-a77078", "operator": "United States Postal Service", "operator:short": "USPS", "operator:type": "public", "operator:wikidata": "Q668687", "ref": "8512000013"}, "type": "Feature"}
{"geometry": {"coordinates": [-111.7416651846, 33.0797170603], "type": "Point"}, "id": "PJNfhM-DsE2iZSxZGYv-t928wQo=", "properties": {"@spider": "usps_collection_boxes", "addr:city": "SACATON", "addr:country": "US", "addr:full": "1 PIMA RD", "addr:postcode": "85121", "addr:state": "AZ", "amenity": "post_box", "brand": "United States Postal Service", "brand:wikidata": "Q668687", "collection_times": "Mo-Fr 16:00", "name": "USPS COLLECTION BOX - PO LOBBY", "note": "ON 12/24 AND 12/31, THIS BOX MAY BE COLLECTED AS EARLY AS 12 NOON.", "nsi_id": "unitedstatespostalservice-a77078", "operator": "United States Postal Service", "operator:short": "USPS", "operator:type": "public", "operator:wikidata": "Q668687", "ref": "8512100001"}, "type": "Feature"}
{"geometry": {"coordinates": [-111.742671693, 32.894165455], "type": "Point"}, "id": "wKtY0Xn2GaNN8qefoYASFzNukSQ=", "properties": {"@spider": "usps_collection_boxes", "addr:city": "CASA GRANDE", "addr:country": "US", "addr:full": "820 E COTTONWOOD LN", "addr:postcode": "85122", "addr:state": "AZ", "amenity": "post_box", "brand": "United States Postal Service", "brand:wikidata": "Q668687", "collection_times": "Mo-Sa 14:30", "name": "USPS COLLECTION BOX - BLUE BOX", "note": "ON 12/24 AND 12/31, THIS BOX MAY BE COLLECTED AS EARLY AS 12 NOON.", "nsi_id": "unitedstatespostalservice-a77078", "operator": "United States Postal Service", "operator:short": "USPS", "operator:type": "public", "operator:wikidata": "Q668687", "ref": "8512200002"}, "type": "Feature"}
{"geometry": {"coordinates": [-111.7475720255, 32.8795774944], "type": "Point"}, "id": "sNQZmiXJEJTRVeCQdu9cAQLe67g=", "properties": {"@spider": "usps_collection_boxes", "addr:city": "CASA GRANDE", "addr:country": "US", "addr:full": "510 E FLORENCE BLVD", "addr:postcode": "85122", "addr:state": "AZ", "amenity": "post_box", "brand": "United States Postal Service", "brand:wikidata": "Q668687", "collection_times": "Mo-Sa 11:00", "name": "USPS COLLECTION BOX - BLUE BOX", "nsi_id": "unitedstatespostalservice-a77078", "operator": "United States Postal Service", "operator:short": "USPS", "operator:type": "public", "operator:wikidata": "Q668687", "ref": "8512200003"}, "type": "Feature"}
{"geometry": {"coordinates": [-111.736883, 32.880411], "type": "Point"}, "id": "KtwD72gjQm1RDz4D8xwYuhAIibk=", "properties": {"@spider": "usps_collection_boxes", "addr:city": "CASA GRANDE", "addr:country": "US", "addr:full": "1162 E FLORENCE BLVD", "addr:postcode": "85122", "addr:state": "AZ", "amenity": "post_box", "brand": "United States Postal Service", "brand:wikidata": "Q668687", "collection_times": "Mo-Sa 10:00", "name": "USPS COLLECTION BOX - BLUE BOX", "nsi_id": "unitedstatespostalservice-a77078", "operator": "United States Postal Service", "operator:short": "USPS", "operator:type": "public", "operator:wikidata": "Q668687", "ref": "8512200004"}, "type": "Feature"}
{"geometry": {"coordinates": [-111.709476, 32.880834], "type": "Point"}, "id": "Stz3E-YneMFTzuPgPXGpxxGs4cQ=", "properties": {"@spider": "usps_collection_boxes", "addr:city": "CASA GRANDE", "addr:country": "US", "addr:full": "1800 E FLORENCE BLVD", "addr:postcode": "85122", "addr:state": "AZ", "amenity": "post_box", "brand": "United States Postal Service", "brand:wikidata": "Q668687", "collection_times": "Mo-Sa 11:00", "name": "USPS COLLECTION BOX - BLUE BOX", "nsi_id": "unitedstatespostalservice-a77078", "operator": "United States Postal Service", "operator:short": "USPS", "operator:type": "public", "operator:wikidata": "Q668687", "ref": "8512200005"}, "type": "Feature"}
{"geometry": {"coordinates": [-111.728197, 32.877842], "type": "Point"}, "id": "9DEagHV_3kPge3UxgkNUrm5G2PE=", "properties": {"@spider": "usps_collection_boxes", "addr:city": "CASA GRANDE", "addr:country": "US", "addr:full": "1377 E FLORENCE BLVD", "addr:postcode": "85122", "addr:state": "AZ", "amenity": "post_box", "brand": "United States Postal Service", "brand:wikidata": "Q668687", "collection_times": "Mo-Sa 10:00", "name": "USPS COLLECTION BOX - BLUE BOX", "nsi_id": "unitedstatespostalservice-a77078", "operator": "United States Postal Service", "operator:short": "USPS", "operator:type": "public", "operator:wikidata": "Q668687", "ref": "8512200007"}, "type": "Feature"}
{"geometry": {"coordinates": [-111.734359, 32.87608], "type": "Point"}, "id": "v07S_JCDx44HBpLBTwNI6gbssg8=", "properties": {"@spider": "usps_collection_boxes", "addr:city": "CASA GRANDE", "addr:country": "US", "addr:full": "320 N AVENUE A", "addr:postcode": "85122", "addr:state": "AZ", "amenity": "post_box", "brand": "United States Postal Service", "brand:wikidata": "Q668687", "collection_times": "Mo-Sa 11:00", "name": "USPS COLLECTION BOX - BLUE BOX", "nsi_id": "unitedstatespostalservice-a77078", "operator": "United States Postal Service", "operator:short": "USPS", "operator:type": "public", "operator:wikidata": "Q668687", "ref": "8512200008"}, "type": "Feature"}
{"geometry": {"coordinates": [-111.739103, 32.878803], "type": "Point"}, "id": "wPS0cF5oqtBVqEZewzuCusosTeM=", "properties": {"@spider": "usps_collection_boxes", "addr:city": "CASA GRANDE", "addr:country": "US", "addr:full": "1115 E FLORENCE BLVD", "addr:postcode": "85122", "addr:state": "AZ", "amenity": "post_box", "brand": "United States Postal Service", "brand:wikidata": "Q668687", "collection_times": "Mo-Sa 11:00", "name": "USPS COLLECTION BOX - BLUE BOX", "nsi_id": "unitedstatespostalservice-a77078", "operator": "United States Postal Service", "operator:short": "USPS", "operator:type": "public", "operator:wikidata": "Q668687", "ref": "8512200009"}, "type": "Feature"}
{"geometry": {"coordinates": [-111.750219, 32.877581], "type": "Point"}, "id": "5bGUTqMFgiW9IQ6-wUPnPgGqDFc=", "properties": {"@spider": "usps_collection_boxes", "addr:city": "CASA GRANDE", "addr:country": "US", "addr:full": "300 E 4TH ST", "addr:postcode": "85122", "addr:state": "AZ", "amenity": "post_box", "brand": "United States Postal Service", "brand:wikidata": "Q668687", "collection_times": "Mo-Sa 13:00", "name": "USPS COLLECTION BOX - BLUE BOX", "note": "ON 12/24 AND 12/31, THIS BOX MAY BE COLLECTED AS EARLY AS 12 NOON.", "nsi_id": "unitedstatespostalservice-a77078", "operator": "United States Postal Service", "operator:short": "USPS", "operator:type": "public", "operator:wikidata": "Q668687", "ref": "8512200010"}, "type": "Feature"}
{"geometry": {"coordinates": [-111.691478, 32.877857], "type": "Point"}, "id": "qecMGn498JctWDaPrsNnUNJAGfU=", "properties": {"@spider": "usps_collection_boxes", "addr:city": "CASA GRANDE", "addr:country": "US", "addr:full": "560 N CAMINO MERCADO", "addr:postcode": "85122", "addr:state": "AZ", "amenity": "post_box", "brand": "United States Postal Service", "brand:wikidata": "Q668687", "collection_times": "Mo-Sa 11:00", "name": "USPS COLLECTION BOX - BLUE BOX", "nsi_id": "unitedstatespostalservice-a77078", "operator": "United States Postal Service", "operator:short": "USPS", "operator:type": "public", "operator:wikidata": "Q668687", "ref": "8512200011"}, "type": "Feature"}
{"geometry": {"coordinates": [-111.754583, 32.877822], "type": "Point"}, "id": "TtD5Q8INw32Tg9UaSo5QKwkiV5g=", "properties": {"@spider": "usps_collection_boxes", "addr:city": "CASA GRANDE", "addr:country": "US", "addr:full": "200 W 2ND ST", "addr:postcode": "85122", "addr:state": "AZ", "amenity": "post_box", "brand": "United States Postal Service", "brand:wikidata": "Q668687", "collection_times": "Mo-Sa 13:00", "name": "USPS COLLECTION BOX - BLUE BOX", "note": "ON 12/24 AND 12/31, THIS BOX MAY BE COLLECTED AS EARLY AS 12 NOON.", "nsi_id": "unitedstatespostalservice-a77078", "operator": "United States Postal Service", "operator:short": "USPS", "operator:type": "public", "operator:wikidata": "Q668687", "ref": "8512200012"}, "type": "Feature"}
{"geometry": {"coordinates": [-111.752673, 32.878665], "type": "Point"}, "id": "aTdDs0xINhoG5a3Rg5_A5TJVEhg=", "properties": {"@spider": "usps_collection_boxes", "addr:city": "CASA GRANDE", "addr:country": "US", "addr:full": "423 N FLORENCE ST", "addr:postcode": "85122", "addr:state": "AZ", "amenity": "post_box", "brand": "United States Postal Service", "brand:wikidata": "Q668687", "collection_times": "Mo-Sa 11:00", "name": "USPS COLLECTION BOX - BLUE BOX", "nsi_id": "unitedstatespostalservice-a77078", "operator": "United States Postal Service", "operator:short": "USPS", "operator:type": "public", "operator:wikidata": "Q668687", "ref": "8512200013"}, "type": "Feature"}
{"geometry": {"coordinates": [-111.751209, 32.878958], "type": "Point"}, "id": "Cc3xDl3xJmqqmhRj5c99qenfwik=", "properties": {"@spider": "usps_collection_boxes", "addr:city": "CASA GRANDE", "addr:country": "US", "addr:full": "575 N MARSHALL ST", "addr:postcode": "85122", "addr:state": "AZ", "amenity": "post_box", "brand": "United States Postal Service", "brand:wikidata": "Q668687", "collection_times": "Mo-Sa 11:00", "name": "USPS COLLECTION BOX - BLUE BOX", "nsi_id": "unitedstatespostalservice-a77078", "operator": "United States Postal Service", "operator:short": "USPS", "operator:type": "public", "operator:wikidata": "Q668687", "ref": "8512200014"}, "type": "Feature"}
{"geometry": {"coordinates": [-111.748566, 32.89395], "type": "Point"}, "id": "MEPkTzOoljzcty4t-1fc4WV5_aI=", "properties": {"@spider": "usps_collection_boxes", "addr:city": "CASA GRANDE", "addr:country": "US", "addr:full": "1592 N CASA GRANDE AVE", "addr:postcode": "85122", "addr:state": "AZ", "amenity": "post_box", "brand": "United States Postal Service", "brand:wikidata": "Q668687", "collection_times": "Mo-Sa 11:00", "name": "USPS COLLECTION BOX - BLUE BOX", "nsi_id": "unitedstatespostalservice-a77078", "operator": "United States Postal Service", "operator:short": "USPS", "operator:type": "public", "operator:wikidata": "Q668687", "ref": "8512200016"}, "type": "Feature"}
{"geometry": {"coordinates": [-111.757262, 32.89672], "type": "Point"}, "id": "DYtjyY1b6wHWIU2dDg5msKXiLsw=", "properties": {"@spider": "usps_collection_boxes", "addr:city": "CASA GRANDE", "addr:country": "US", "addr:full": "1670 N PINAL AVE", "addr:postcode": "85122", "addr:state": "AZ", "amenity": "post_box", "brand": "United States Postal Service", "brand:wikidata": "Q668687", "collection_times": "Mo-Fr 17:00; Sa 16:30", "name": "USPS COLLECTION BOX - BLUE BOX", "note": "ON 12/24 AND 12/31, THIS BOX MAY BE COLLECTED AS EARLY AS 12 NOON.", "nsi_id": "unitedstatespostalservice-a77078", "operator": "United States Postal Service", "operator:short": "USPS", "operator:type": "public", "operator:wikidata": "Q668687", "ref": "8512200017"}, "type": "Feature"}
{"geometry": {"coordinates": [-111.757295, 32.896758], "type": "Point"}, "id": "-cjwcZhEoZjViNC4nbJFINVJLq4=", "properties": {"@spider": "usps_collection_boxes", "addr:city": "CASA GRANDE", "addr:country": "US", "addr:full": "1670 N PINAL AVE", "addr:postcode": "85122", "addr:state": "AZ", "amenity": "post_box", "brand": "United States Postal Service", "brand:wikidata": "Q668687", "collection_times": "Mo-Fr 17:00; Sa 16:30", "name": "USPS COLLECTION BOX - BLUE BOX", "note": "ON 12/24 AND 12/31, THIS BOX MAY BE COLLECTED AS EARLY AS 12 NOON.", "nsi_id": "unitedstatespostalservice-a77078", "operator": "United States Postal Service", "operator:short": "USPS", "operator:type": "public", "operator:wikidata": "Q668687", "ref": "8512200018"}, "type": "Feature"}
{"geometry": {"coordinates": [-111.714545, 32.884959], "type": "Point"}, "id": "NmhLd8ZB04MfCFx0sXm5OwUgUaY=", "properties": {"@spider": "usps_collection_boxes", "addr:city": "CASA GRANDE", "addr:country": "US", "addr:full": "1676 E MCMURRAY BLVD", "addr:postcode": "85122", "addr:state": "AZ", "amenity": "post_box", "brand": "United States Postal Service", "brand:wikidata": "Q668687", "collection_times": "Mo-Sa 11:00", "name": "USPS COLLECTION BOX - BLUE BOX", "nsi_id": "unitedstatespostalservice-a77078", "operator": "United States Postal Service", "operator:short": "USPS", "operator:type": "public", "operator:wikidata": "Q668687", "ref": "8512200019"}, "type": "Feature"}
{"geometry": {"coordinates": [-111.757295, 32.896758], "type": "Point"}, "id": "xaTWSez6P2s2QYtUtEHTrQ5QbiE=", "properties": {"@spider": "usps_collection_boxes", "addr:city": "CASA GRANDE", "addr:country": "US", "addr:full": "1670 N PINAL AVE", "addr:postcode": "85122", "addr:state": "AZ", "amenity": "post_box", "brand": "United States Postal Service", "brand:wikidata": "Q668687", "collection_times": "Mo-Fr 17:00; Sa 16:30", "name": "USPS COLLECTION BOX - PO LOBBY", "note": "ON 12/24 AND 12/31, THIS BOX MAY BE COLLECTED AS EARLY AS 12 NOON.", "nsi_id": "unitedstatespostalservice-a77078", "operator": "United States Postal Service", "operator:short": "USPS", "operator:type": "public", "operator:wikidata": "Q668687", "ref": "8512200020"}, "type": "Feature"}
{"geometry": {"coordinates": [-111.757295, 32.896758], "type": "Point"}, "id": "dGJgnENVPdjJ6H4gWOm66oUb2RQ=", "properties": {"@spider": "usps_collection_boxes", "addr:city": "CASA GRANDE", "addr:country": "US", "addr:full": "1670 N PINAL AVE", "addr:postcode": "85122", "addr:state": "AZ", "amenity": "post_box", "brand": "United States Postal Service", "brand:wikidata": "Q668687", "collection_times": "Mo-Fr 17:00; Sa 16:30", "name": "USPS COLLECTION BOX - PO LOBBY", "note": "ON 12/24 AND 12/31, THIS BOX MAY BE COLLECTED AS EARLY AS 12 NOON.", "nsi_id": "unitedstatespostalservice-a77078", "operator": "United States Postal Service", "operator:short": "USPS", "operator:type": "public", "operator:wikidata": "Q668687", "ref": "8512200021"}, "type": "Feature"}
{"geometry": {"coordinates": [-111.74717, 32.880113], "type": "Point"}, "id": "_7nt159CcJqOX6gK7KOE9ogZCyg=", "properties": {"@spider": "usps_collection_boxes", "addr:city": "CASA GRANDE", "addr:country": "US", "addr:full": "510 E FLORENCE BLVD", "addr:postcode": "85122", "addr:state": "AZ", "amenity": "post_box", "brand": "United States Postal Service", "brand:wikidata": "Q668687", "collection_times": "Mo-Sa 14:30", "name": "USPS COLLECTION BOX - BLUE BOX", "note": "ON 12/24 AND 12/31, THIS BOX MAY BE COLLECTED AS EARLY AS 12 NOON.", "nsi_id": "unitedstatespostalservice-a77078", "operator": "United States Postal Service", "operator:short": "USPS", "operator:type": "public", "operator:wikidata": "Q668687", "ref": "8512200022"}, "type": "Feature"}
{"geometry": {"coordinates": [-111.757295, 32.896758], "type": "Point"}, "id": "eytz_jFGK6UCzGFUfomlYN2WUL0=", "properties": {"@spider": "usps_collection_boxes", "addr:city": "CASA GRANDE", "addr:country": "US", "addr:full": "1670 N PINAL AVE", "addr:postcode": "85122", "addr:state": "AZ", "amenity": "post_box", "brand": "United States Postal Service", "brand:wikidata": "Q668687", "collection_times": "Mo-Fr 17:00; Sa 16:30", "name": "USPS COLLECTION BOX - BLUE BOX", "note": "ON 12/24 AND 12/31, THIS BOX MAY BE COLLECTED AS EARLY AS 12 NOON.", "nsi_id": "unitedstatespostalservice-a77078", "operator": "United States Postal Service", "operator:short": "USPS", "operator:type": "public", "operator:wikidata": "Q668687", "ref": "8512200024"}, "type": "Feature"}
{"geometry": {"coordinates": [-111.741192, 32.89507], "type": "Point"}, "id": "X3LsL_n4Iq2IQ-T_yGPFoDG-91Y=", "properties": {"@spider": "usps_collection_boxes", "addr:city": "CASA GRANDE", "addr:country": "US", "addr:full": "1637 N TREKELL RD", "addr:postcode": "85122", "addr:state": "AZ", "amenity": "post_box", "brand": "United States Postal Service", "brand:wikidata": "Q668687", "collection_times": "Mo-Sa 10:00", "name": "USPS COLLECTION BOX - BLUE BOX", "nsi_id": "unitedstatespostalservice-a77078", "operator": "United States Postal Service", "operator:short": "USPS", "operator:type": "public", "operator:wikidata": "Q668687", "ref": "8512200025"}, "type": "Feature"}
{"geometry": {"coordinates": [-111.757791, 32.909516], "type": "Point"}, "id": "Uhfpzrr7V5q-LxIiqUQznR0w3cA=", "properties": {"@spider": "usps_collection_boxes", "addr:city": "CASA GRANDE", "addr:country": "US", "addr:full": "2021 N PINAL AVE", "addr:postcode": "85122", "addr:state": "AZ", "amenity": "post_box", "brand": "United States Postal Service", "brand:wikidata": "Q668687", "collection_times": "Mo-Sa 14:30", "name": "USPS COLLECTION BOX - BLUE BOX", "note": "ON 12/24 AND 12/31, THIS BOX MAY BE COLLECTED AS EARLY AS 12 NOON.", "nsi_id": "unitedstatespostalservice-a77078", "operator": "United States Postal Service", "operator:short": "USPS", "operator:type": "public", "operator:wikidata": "Q668687", "ref": "8512200026"}, "type": "Feature"}
{"geometry": {"coordinates": [-111.739689, 32.915649], "type": "Point"}, "id": "-J4P-QdAsC9GQKNyZyN1WNUVXG0=", "properties": {"@spider": "usps_collection_boxes", "addr:city": "CASA GRANDE", "addr:country": "US", "addr:full": "2194 N TREKELL RD", "addr:postcode": "85122", "addr:state": "AZ", "amenity": "post_box", "brand": "United States Postal Service", "brand:wikidata": "Q668687", "collection_times": "Mo-Sa 11:00", "name": "USPS COLLECTION BOX - BLUE BOX", "nsi_id": "unitedstatespostalservice-a77078", "operator": "United States Postal Service", "operator:short": "USPS", "operator:type": "public", "operator:wikidata": "Q668687", "ref": "8512200027"}, "type": "Feature"}
{"geometry": {"coordinates": [-111.757295, 32.896758], "type": "Point"}, "id": "hlBhpNo5ud53T9MYAQWe7dWAfmM=", "properties": {"@spider": "usps_collection_boxes", "addr:city": "CASA GRANDE", "addr:country": "US", "addr:full": "1670 N PINAL AVE", "addr:postcode": "85122", "addr:state": "AZ", "amenity": "post_box", "brand": "United States Postal Service", "brand:wikidata": "Q668687", "collection_times": "Mo-Fr 17:00; Sa 16:30", "name": "USPS COLLECTION BOX - APC", "note": "ON 12/24 AND 12/31, THIS BOX MAY BE COLLECTED AS EARLY AS 12 NOON.", "nsi_id": "unitedstatespostalservice-a77078", "operator": "United States Postal Service", "operator:short": "USPS", "operator:type": "public", "operator:wikidata": "Q668687", "ref": "8512200028"}, "type": "Feature"}
{"geometry": {"coordinates": [-111.762912, 32.896023], "type": "Point"}, "id": "LXWqo0ECv735qHaYCGqOiw0m6Xo=", "properties": {"@spider": "usps_collection_boxes", "addr:city": "CASA GRANDE", "addr:country": "US", "addr:full": "450 W SUNWEST DR", "addr:postcode": "85122", "addr:state": "AZ", "amenity": "post_box", "brand": "United States Postal Service", "brand:wikidata": "Q668687", "collection_times": "Mo-Sa 10:00", "name": "USPS COLLECTION BOX - BLUE BOX", "nsi_id": "unitedstatespostalservice-a77078", "operator": "United States Postal Service", "operator:short": "USPS", "operator:type": "public", "operator:wikidata": "Q668687", "ref": "8512200029"}, "type": "Feature"}
{"geometry": {"coordinates": [-111.757270253, 32.896709193], "type": "Point"}, "id": "UUFZelARgQPR92LaBL1at64R-y0=", "properties": {"@spider": "usps_collection_boxes", "addr:city": "CASA GRANDE", "addr:country": "US", "addr:full": "1670 N PINAL AVE", "addr:postcode": "85122", "addr:state": "AZ", "amenity": "post_box", "brand": "United States Postal Service", "brand:wikidata": "Q668687", "collection_times": "Mo-Fr 17:00; Sa 16:30", "name": "USPS COLLECTION BOX - PO LOBBY", "note": "ON 12/24 AND 12/31, THIS BOX MAY BE COLLECTED AS EARLY AS 12 NOON.", "nsi_id": "unitedstatespostalservice-a77078", "operator": "United States Postal Service", "operator:short": "USPS", "operator:type": "public", "operator:wikidata": "Q668687", "ref": "8512200034"}, "type": "Feature"}
{"geometry": {"coordinates": [-111.523432, 32.961014], "type": "Point"}, "id": "YWuSvEk6aUFB6wBVSECynH_kweY=", "properties": {"@spider": "usps_collection_boxes", "addr:city": "COOLIDGE", "addr:country": "US", "addr:full": "1925 S ARIZONA BLVD", "addr:postcode": "85128", "addr:state": "AZ", "amenity": "post_box", "brand": "United States Postal Service", "brand:wikidata": "Q668687", "collection_times": "Mo-Sa 10:00", "name": "USPS COLLECTION BOX - BLUE BOX", "nsi_id": "unitedstatespostalservice-a77078", "operator": "United States Postal Service", "operator:short": "USPS", "operator:type": "public", "operator:wikidata": "Q668687", "ref": "8512800002"}, "type": "Feature"}
{"geometry": {"coordinates": [-111.518743, 32.977548], "type": "Point"}, "id": "yTulDODtVQyQsQekrs7FbyiBamk=", "properties": {"@spider": "usps_collection_boxes", "addr:city": "COOLIDGE", "addr:country": "US", "addr:full": "229 W CENTRAL AVE", "addr:postcode": "85128", "addr:state": "AZ", "amenity": "post_box", "brand": "United States Postal Service", "brand:wikidata": "Q668687", "collection_times": "Mo-Fr 17:10; Sa 15:00", "name": "USPS COLLECTION BOX - BLUE BOX", "note": "ON 12/24 AND 12/31, THIS BOX MAY BE COLLECTED AS EARLY AS 12 NOON.", "nsi_id": "unitedstatespostalservice-a77078", "operator": "United States Postal Service", "operator:short": "USPS", "operator:type": "public", "operator:wikidata": "Q668687", "ref": "8512800003"}, "type": "Feature"}
{"geometry": {"coordinates": [-111.518734, 32.977555], "type": "Point"}, "id": "p91FVCctU_vg-DmsAuitLnGil-E=", "properties": {"@spider": "usps_collection_boxes", "addr:city": "COOLIDGE", "addr:country": "US", "addr:full": "229 W CENTRAL AVE", "addr:postcode": "85128", "addr:state": "AZ", "amenity": "post_box", "brand": "United States Postal Service", "brand:wikidata": "Q668687", "collection_times": "Mo-Fr 17:10; Sa 15:00", "name": "USPS COLLECTION BOX - BLUE BOX", "note": "ON 12/24 AND 12/31, THIS BOX MAY BE COLLECTED AS EARLY AS 12 NOON.", "nsi_id": "unitedstatespostalservice-a77078", "operator": "United States Postal Service", "operator:short": "USPS", "operator:type": "public", "operator:wikidata": "Q668687", "ref": "8512800004"}, "type": "Feature"}
{"geometry": {"coordinates": [-111.524742, 32.986658], "type": "Point"}, "id": "3IlO6I5oeEB09f4cQctLmagwtG4=", "properties": {"@spider": "usps_collection_boxes", "addr:city": "COOLIDGE", "addr:country": "US", "addr:full": "1060 N ARIZONA BLVD", "addr:postcode": "85128", "addr:state": "AZ", "amenity": "post_box", "brand": "United States Postal Service", "brand:wikidata": "Q668687", "collection_times": "Mo-Sa 14:00", "name": "USPS COLLECTION BOX - BLUE BOX", "note": "ON 12/24 AND 12/31, THIS BOX MAY BE COLLECTED AS EARLY AS 12 NOON.", "nsi_id": "unitedstatespostalservice-a77078", "operator": "United States Postal Service", "operator:short": "USPS", "operator:type": "public", "operator:wikidata": "Q668687", "ref": "8512800005"}, "type": "Feature"}
{"geometry": {"coordinates": [-111.518616, 32.977482], "type": "Point"}, "id": "Sz7uQ7MMX5WnZF4XOtFucykrgb0=", "properties": {"@spider": "usps_collection_boxes", "addr:city": "COOLIDGE", "addr:country": "US", "addr:full": "229 W CENTRAL AVE", "addr:postcode": "85128", "addr:state": "AZ", "amenity": "post_box", "brand": "United States Postal Service", "brand:wikidata": "Q668687", "collection_times": "Mo-Fr 16:30; Sa 15:00", "name": "USPS COLLECTION BOX - PO LOBBY", "note": "ON 12/24 AND 12/31, THIS BOX MAY BE COLLECTED AS EARLY AS 12 NOON.", "nsi_id": "unitedstatespostalservice-a77078", "operator": "United States Postal Service", "operator:short": "USPS", "operator:type": "public", "operator:wikidata": "Q668687", "ref": "8512800006"}, "type": "Feature"}
{"geometry": {"coordinates": [-111.654959, 32.954279], "type": "Point"}, "id": "fxlG0H3iHkow8E9FCklhwAHIbqU=", "properties": {"@spider": "usps_collection_boxes", "addr:city": "COOLIDGE", "addr:country": "US", "addr:full": "8470 N OVERFIELD RD", "addr:postcode": "85128", "addr:state": "AZ", "amenity": "post_box", "brand": "United States Postal Service", "brand:wikidata": "Q668687", "collection_times": "Mo-Sa 10:30", "name": "USPS COLLECTION BOX - BLUE BOX", "nsi_id": "unitedstatespostalservice-a77078", "operator": "United States Postal Service", "operator:short": "USPS", "operator:type": "public", "operator:wikidata": "Q668687", "ref": "8512800007"}, "type": "Feature"}
{"geometry": {"coordinates": [-111.541113, 32.976517], "type": "Point"}, "id": "Zfw1V1pehyfQmqqDagixrq07-vw=", "properties": {"@spider": "usps_collection_boxes", "addr:city": "COOLIDGE", "addr:country": "US", "addr:full": "102 N CHOLLA", "addr:postcode": "85128", "addr:state": "AZ", "amenity": "post_box", "brand": "United States Postal Service", "brand:wikidata": "Q668687", "collection_times": "Mo-Sa 12:00", "name": "USPS COLLECTION BOX - BLUE BOX", "nsi_id": "unitedstatespostalservice-a77078", "operator": "United States Postal Service", "operator:short": "USPS", "operator:type": "public", "operator:wikidata": "Q668687", "ref": "8512800008"}, "type": "Feature"}
{"geometry": {"coordinates": [-111.518604, 32.977580481], "type": "Point"}, "id": "HpDYPI7DWudJ2Tp3vbTfYZAiIaU=", "properties": {"@spider": "usps_collection_boxes", "addr:city": "COOLIDGE", "addr:country": "US", "addr:full": "229 W CENTRAL AVE", "addr:postcode": "85128", "addr:state": "AZ", "amenity": "post_box", "brand": "United States Postal Service", "brand:wikidata": "Q668687", "collection_times": "Mo-Fr 16:30; Sa 15:00", "name": "USPS COLLECTION BOX - PO LOBBY", "note": "ON 12/24 AND 12/31, THIS BOX MAY BE COLLECTED AS EARLY AS 12 NOON.", "nsi_id": "unitedstatespostalservice-a77078", "operator": "United States Postal Service", "operator:short": "USPS", "operator:type": "public", "operator:wikidata": "Q668687", "ref": "8512800010"}, "type": "Feature"}
{"geometry": {"coordinates": [-111.555375, 32.755338], "type": "Point"}, "id": "7FlJufp3qoMH2AWY_ZbOKNc9J6A=", "properties": {"@spider": "usps_collection_boxes", "addr:city": "ELOY", "addr:country": "US", "addr:full": "620 N MAIN ST", "addr:postcode": "85131", "addr:state": "AZ", "amenity": "post_box", "brand": "United States Postal Service", "brand:wikidata": "Q668687", "collection_times": "Mo-Fr 16:45; Sa 16:00", "name": "USPS COLLECTION BOX - BLUE BOX", "note": "ON 12/24 AND 12/31, THIS BOX MAY BE COLLECTED AS EARLY AS 12 NOON.", "nsi_id": "unitedstatespostalservice-a77078", "operator": "United States Postal Service", "operator:short": "USPS", "operator:type": "public", "operator:wikidata": "Q668687", "ref": "8513100001"}, "type": "Feature"}
{"geometry": {"coordinates": [-111.555368, 32.755318], "type": "Point"}, "id": "pWYxAmjPIVuD_KC9eg0Mbo5tXoE=", "properties": {"@spider": "usps_collection_boxes", "addr:city": "ELOY", "addr:country": "US", "addr:full": "620 N MAIN ST", "addr:postcode": "85131", "addr:state": "AZ", "amenity": "post_box", "brand": "United States Postal Service", "brand:wikidata": "Q668687", "collection_times": "Mo-Fr 16:45; Sa 16:00", "name": "USPS COLLECTION BOX - BLUE BOX", "note": "ON 12/24 AND 12/31, THIS BOX MAY BE COLLECTED AS EARLY AS 12 NOON.", "nsi_id": "unitedstatespostalservice-a77078", "operator": "United States Postal Service", "operator:short": "USPS", "operator:type": "public", "operator:wikidata": "Q668687", "ref": "8513100002"}, "type": "Feature"}
{"geometry": {"coordinates": [-111.549606, 32.732344], "type": "Point"}, "id": "azYHOhc-cYVSWj0HhCqWy3nc4WY=", "properties": {"@spider": "usps_collection_boxes", "addr:city": "ELOY", "addr:country": "US", "addr:full": "1005 S SUNSHINE BLVD", "addr:postcode": "85131", "addr:state": "AZ", "amenity": "post_box", "brand": "United States Postal Service", "brand:wikidata": "Q668687", "collection_times": "Mo-Sa 12:45", "name": "USPS COLLECTION BOX - BLUE BOX", "note": "ON 12/24 AND 12/31, THIS BOX MAY BE COLLECTED AS EARLY AS 12 NOON.", "nsi_id": "unitedstatespostalservice-a77078", "operator": "United States Postal Service", "operator:short": "USPS", "operator:type": "public", "operator:wikidata": "Q668687", "ref": "8513100003"}, "type": "Feature"}
{"geometry": {"coordinates": [-111.617471, 32.773575], "type": "Point"}, "id": "SCkOEpYOyxzh6Z8G8aWemSQlFAY=", "properties": {"@spider": "usps_collection_boxes", "addr:city": "ELOY", "addr:country": "US", "addr:full": "2949 S TOLTEC RD", "addr:postcode": "85131", "addr:state": "AZ", "amenity": "post_box", "brand": "United States Postal Service", "brand:wikidata": "Q668687", "collection_times": "Mo-Fr 11:00; Sa 10:45", "name": "USPS COLLECTION BOX - BLUE BOX", "nsi_id": "unitedstatespostalservice-a77078", "operator": "United States Postal Service", "operator:short": "USPS", "operator:type": "public", "operator:wikidata": "Q668687", "ref": "8513100004"}, "type": "Feature"}
{"geometry": {"coordinates": [-111.555056, 32.755081], "type": "Point"}, "id": "0guQl-0x6K7KEk_wDjPjJEZnMhs=", "properties": {"@spider": "usps_collection_boxes", "addr:city": "ELOY", "addr:country": "US", "addr:full": "620 N MAIN ST", "addr:postcode": "85131", "addr:state": "AZ", "amenity": "post_box", "brand": "United States Postal Service", "brand:wikidata": "Q668687", "collection_times": "Mo-Fr 16:30", "name": "USPS COLLECTION BOX - PO LOBBY", "note": "ON 12/24 AND 12/31, THIS BOX MAY BE COLLECTED AS EARLY AS 12 NOON.", "nsi_id": "unitedstatespostalservice-a77078", "operator": "United States Postal Service", "operator:short": "USPS", "operator:type": "public", "operator:wikidata": "Q668687", "ref": "8513100005"}, "type": "Feature"}
{"geometry": {"coordinates": [-111.671221, 32.812365], "type": "Point"}, "id": "DokBAIUEVBoAGgAXD99qsW-0cMc=", "properties": {"@spider": "usps_collection_boxes", "addr:city": "ELOY", "addr:country": "US", "addr:full": "5300 N SUNLAND GIN RD", "addr:postcode": "85131", "addr:state": "AZ", "amenity": "post_box", "brand": "United States Postal Service", "brand:wikidata": "Q668687", "collection_times": "Mo-Sa 10:15", "name": "USPS COLLECTION BOX - BLUE BOX", "nsi_id": "unitedstatespostalservice-a77078", "operator": "United States Postal Service", "operator:short": "USPS", "operator:type": "public", "operator:wikidata": "Q668687", "ref": "8513100006"}, "type": "Feature"}
{"geometry": {"coordinates": [-111.5549547155, 32.755176], "type": "Point"}, "id": "mzcS6TFaKgqSlb2qnii3rOMYdk8=", "properties": {"@spider": "usps_collection_boxes", "addr:city": "ELOY", "addr:country": "US", "addr:full": "620 N MAIN ST", "addr:postcode": "85131", "addr:state": "AZ", "amenity": "post_box", "brand": "United States Postal Service", "brand:wikidata": "Q668687", "collection_times": "Mo-Fr 16:30", "name": "USPS COLLECTION BOX - PO LOBBY", "note": "ON 12/24 AND 12/31, THIS BOX MAY BE COLLECTED AS EARLY AS 12 NOON.", "nsi_id": "unitedstatespostalservice-a77078", "operator": "United States Postal Service", "operator:short": "USPS", "operator:type": "public", "operator:wikidata": "Q668687", "ref": "8513100008"}, "type": "Feature"}
{"geometry": {"coordinates": [-111.485828412, 33.0622659631], "type": "Point"}, "id": "aFYPKSaOPfzsIuMw26Rcn9eR3KQ=", "properties": {"@spider": "usps_collection_boxes", "addr:city": "FLORENCE", "addr:country": "US", "addr:full": "3325 N HUNT HWY", "addr:postcode": "85132", "addr:state": "AZ", "amenity": "post_box", "brand": "United States Postal Service", "brand:wikidata": "Q668687", "collection_times": "Mo-Sa 12:00", "name": "USPS COLLECTION BOX - BLUE BOX", "nsi_id": "unitedstatespostalservice-a77078", "operator": "United States Postal Service", "operator:short": "USPS", "operator:type": "public", "operator:wikidata": "Q668687", "ref": "8513200002"}, "type": "Feature"}
{"geometry": {"coordinates": [-111.386719, 33.036036], "type": "Point"}, "id": "FPIE4jRRiIZ8AvhyBkc8ksWD098=", "properties": {"@spider": "usps_collection_boxes", "addr:city": "FLORENCE", "addr:country": "US", "addr:full": "501 N MAIN ST", "addr:postcode": "85132", "addr:state": "AZ", "amenity": "post_box", "brand": "United States Postal Service", "brand:wikidata": "Q668687", "collection_times": "Mo-Fr 16:45; Sa 12:00", "name": "USPS COLLECTION BOX - BLUE BOX", "note": "ON 12/24 AND 12/31, THIS BOX MAY BE COLLECTED AS EARLY AS 12 NOON.", "nsi_id": "unitedstatespostalservice-a77078", "operator": "United States Postal Service", "operator:short": "USPS", "operator:type": "public", "operator:wikidata": "Q668687", "ref": "8513200003"}, "type": "Feature"}
{"geometry": {"coordinates": [-111.386712, 33.036047], "type": "Point"}, "id": "dm8UNx0da3TuV1NLjYil8XsbEYI=", "properties": {"@spider": "usps_collection_boxes", "addr:city": "FLORENCE", "addr:country": "US", "addr:full": "501 N MAIN ST", "addr:postcode": "85132", "addr:state": "AZ", "amenity": "post_box", "brand": "United States Postal Service", "brand:wikidata": "Q668687", "collection_times": "Mo-Fr 16:45; Sa 12:00", "name": "USPS COLLECTION BOX - BLUE BOX", "note": "ON 12/24 AND 12/31, THIS BOX MAY BE COLLECTED AS EARLY AS 12 NOON.", "nsi_id": "unitedstatespostalservice-a77078", "operator": "United States Postal Service", "operator:short": "USPS", "operator:type": "public", "operator:wikidata": "Q668687", "ref": "8513200004"}, "type": "Feature"}
{"geometry": {"coordinates": [-111.387212, 33.036288], "type": "Point"}, "id": "xZ0YTLQCEF-TYsMStL00UV6VLJI=", "properties": {"@spider": "usps_collection_boxes", "addr:city": "FLORENCE", "addr:country": "US", "addr:full": "501 N MAIN ST", "addr:postcode": "85132", "addr:state": "AZ", "amenity": "post_box", "brand": "United States Postal Service", "brand:wikidata": "Q668687", "collection_times": "Mo-Fr 16:45; Sa 12:00", "name": "USPS COLLECTION BOX - PO LOBBY", "note": "ON 12/24 AND 12/31, THIS BOX MAY BE COLLECTED AS EARLY AS 12 NOON.", "nsi_id": "unitedstatespostalservice-a77078", "operator": "United States Postal Service", "operator:short": "USPS", "operator:type": "public", "operator:wikidata": "Q668687", "ref": "8513200005"}, "type": "Feature"}
{"geometry": {"coordinates": [-111.387397703, 33.036309], "type": "Point"}, "id": "njdsv6Ia8MvOiMMO01TV9DjcVgU=", "properties": {"@spider": "usps_collection_boxes", "addr:city": "FLORENCE", "addr:country": "US", "addr:full": "501 N MAIN ST", "addr:postcode": "85132", "addr:state": "AZ", "amenity": "post_box", "brand": "United States Postal Service", "brand:wikidata": "Q668687", "collection_times": "Mo-Fr 16:45", "name": "USPS COLLECTION BOX - PO LOBBY", "note": "ON 12/24 AND 12/31, THIS BOX MAY BE COLLECTED AS EARLY AS 12 NOON.", "nsi_id": "unitedstatespostalservice-a77078", "operator": "United States Postal Service", "operator:short": "USPS", "operator:type": "public", "operator:wikidata": "Q668687", "ref": "8513200008"}, "type": "Feature"}
{"geometry": {"coordinates": [-110.784241, 33.005992], "type": "Point"}, "id": "4osWndcftITjXIJTG76C-Fd8kog=", "properties": {"@spider": "usps_collection_boxes", "addr:city": "HAYDEN", "addr:country": "US", "addr:full": "154 PARK LN", "addr:postcode": "85135", "addr:state": "AZ", "amenity": "post_box", "brand": "United States Postal Service", "brand:wikidata": "Q668687", "collection_times": "Mo-Fr 13:00; Sa 09:00", "name": "USPS COLLECTION BOX - BLUE BOX", "note": "ON 12/24 AND 12/31, THIS BOX MAY BE COLLECTED AS EARLY AS 12 NOON.", "nsi_id": "unitedstatespostalservice-a77078", "operator": "United States Postal Service", "operator:short": "USPS", "operator:type": "public", "operator:wikidata": "Q668687", "ref": "8513500001"}, "type": "Feature"}
{"geometry": {"coordinates": [-110.784241, 33.005992], "type": "Point"}, "id": "9cdgZ4VP44yikNyEK2NryT7ZpT0=", "properties": {"@spider": "usps_collection_boxes", "addr:city": "HAYDEN", "addr:country": "US", "addr:full": "154 PARK LN", "addr:postcode": "85135", "addr:state": "AZ", "amenity": "post_box", "brand": "United States Postal Service", "brand:wikidata": "Q668687", "collection_times": "Mo-Fr 13:00; Sa 09:00", "name": "USPS COLLECTION BOX - PO LOBBY", "note": "ON 12/24 AND 12/31, THIS BOX MAY BE COLLECTED AS EARLY AS 12 NOON.", "nsi_id": "unitedstatespostalservice-a77078", "operator": "United States Postal Service", "operator:short": "USPS", "operator:type": "public", "operator:wikidata": "Q668687", "ref": "8513500002"}, "type": "Feature"}
{"geometry": {"coordinates": [-110.7845851543, 33.006149236], "type": "Point"}, "id": "USRcKRKtIe9AUo7b9rGaeEM-y9M=", "properties": {"@spider": "usps_collection_boxes", "addr:city": "HAYDEN", "addr:country": "US", "addr:full": "154 PARK LN", "addr:postcode": "85135", "addr:state": "AZ", "amenity": "post_box", "brand": "United States Postal Service", "brand:wikidata": "Q668687", "collection_times": "Mo-Fr 13:00", "name": "USPS COLLECTION BOX - PO LOBBY", "note": "ON 12/24 AND 12/31, THIS BOX MAY BE COLLECTED AS EARLY AS 12 NOON.", "nsi_id": "unitedstatespostalservice-a77078", "operator": "United States Postal Service", "operator:short": "USPS", "operator:type": "public", "operator:wikidata": "Q668687", "ref": "8513500003"}, "type": "Feature"}
{"geometry": {"coordinates": [-110.906568, 33.060034], "type": "Point"}, "id": "IgtyfJYud5Ca2Mf6PyRg3xgR0x8=", "properties": {"@spider": "usps_collection_boxes", "addr:city": "KEARNY", "addr:country": "US", "addr:full": "388 ALDEN RD", "addr:postcode": "85137", "addr:state": "AZ", "amenity": "post_box", "brand": "United States Postal Service", "brand:wikidata": "Q668687", "collection_times": "Mo-Fr 16:30; Sa 09:00", "name": "USPS COLLECTION BOX - BLUE BOX", "note": "ON 12/24 AND 12/31, THIS BOX MAY BE COLLECTED AS EARLY AS 12 NOON.", "nsi_id": "unitedstatespostalservice-a77078", "operator": "United States Postal Service", "operator:short": "USPS", "operator:type": "public", "operator:wikidata": "Q668687", "ref": "8513700001"}, "type": "Feature"}
{"geometry": {"coordinates": [-110.906558, 33.059969], "type": "Point"}, "id": "vZ5Who9wL48_nL60jCGUZIP9OAs=", "properties": {"@spider": "usps_collection_boxes", "addr:city": "KEARNY", "addr:country": "US", "addr:full": "388 ALDEN RD", "addr:postcode": "85137", "addr:state": "AZ", "amenity": "post_box", "brand": "United States Postal Service", "brand:wikidata": "Q668687", "collection_times": "Mo-Fr 16:30; Sa 09:00", "name": "USPS COLLECTION BOX - PO LOBBY", "note": "ON 12/24 AND 12/31, THIS BOX MAY BE COLLECTED AS EARLY AS 12 NOON.", "nsi_id": "unitedstatespostalservice-a77078", "operator": "United States Postal Service", "operator:short": "USPS", "operator:type": "public", "operator:wikidata": "Q668687", "ref": "8513700002"}, "type": "Feature"}
{"geometry": {"coordinates": [-110.9064467531, 33.0598579653], "type": "Point"}, "id": "6nq-zH1V3HMm8c9kSihdUwAQG78=", "properties": {"@spider": "usps_collection_boxes", "addr:city": "KEARNY", "addr:country": "US", "addr:full": "388 ALDEN RD", "addr:postcode": "85137", "addr:state": "AZ", "amenity": "post_box", "brand": "United States Postal Service", "brand:wikidata": "Q668687", "collection_times": "Mo-Fr 16:30", "name": "USPS COLLECTION BOX - PO LOBBY", "note": "ON 12/24 AND 12/31, THIS BOX MAY BE COLLECTED AS EARLY AS 12 NOON.", "nsi_id": "unitedstatespostalservice-a77078", "operator": "United States Postal Service", "operator:short": "USPS", "operator:type": "public", "operator:wikidata": "Q668687", "ref": "8513700003"}, "type": "Feature"}
{"geometry": {"coordinates": [-112.049829, 33.062383], "type": "Point"}, "id": "oqOAo_nSAn89JbpAheRb9UGeGGc=", "properties": {"@spider": "usps_collection_boxes", "addr:city": "MARICOPA", "addr:country": "US", "addr:full": "44920 W HATHAWAY AVE", "addr:postcode": "85139", "addr:state": "AZ", "amenity": "post_box", "brand": "United States Postal Service", "brand:wikidata": "Q668687", "collection_times": "Mo-Fr 16:30; Sa 15:45", "name": "USPS COLLECTION BOX - BLUE BOX", "note": "ON 12/24 AND 12/31, THIS BOX MAY BE COLLECTED AS EARLY AS 12 NOON.", "nsi_id": "unitedstatespostalservice-a77078", "operator": "United States Postal Service", "operator:short": "USPS", "operator:type": "public", "operator:wikidata": "Q668687", "ref": "8513900001"}, "type": "Feature"}
{"geometry": {"coordinates": [-112.049779, 33.06234], "type": "Point"}, "id": "UhwQARHRp8-72CYPBbrDupQrGx0=", "properties": {"@spider": "usps_collection_boxes", "addr:city": "MARICOPA", "addr:country": "US", "addr:full": "44920 W HATHAWAY AVE", "addr:postcode": "85139", "addr:state": "AZ", "amenity": "post_box", "brand": "United States Postal Service", "brand:wikidata": "Q668687", "collection_times": "Mo-Fr 16:45; Sa 16:00", "name": "USPS COLLECTION BOX - PO LOBBY", "note": "ON 12/24 AND 12/31, THIS BOX MAY BE COLLECTED AS EARLY AS 12 NOON.", "nsi_id": "unitedstatespostalservice-a77078", "operator": "United States Postal Service", "operator:short": "USPS", "operator:type": "public", "operator:wikidata": "Q668687", "ref": "8513900002"}, "type": "Feature"}
{"geometry": {"coordinates": [-112.050545025, 33.062571772], "type": "Point"}, "id": "tCBXb4kPn3cVoY5J2CXg2H7dqCM=", "properties": {"@spider": "usps_collection_boxes", "addr:city": "MARICOPA", "addr:country": "US", "addr:full": "44920 W HATHAWAY AVE", "addr:postcode": "85139", "addr:state": "AZ", "amenity": "post_box", "brand": "United States Postal Service", "brand:wikidata": "Q668687", "collection_times": "Mo-Fr 16:45", "name": "USPS COLLECTION BOX - PO LOBBY", "note": "ON 12/24 AND 12/31, THIS BOX MAY BE COLLECTED AS EARLY AS 12 NOON.", "nsi_id": "unitedstatespostalservice-a77078", "operator": "United States Postal Service", "operator:short": "USPS", "operator:type": "public", "operator:wikidata": "Q668687", "ref": "8513900004"}, "type": "Feature"}
{"geometry": {"coordinates": [-112.050417146, 33.062796063], "type": "Point"}, "id": "29_9uzCuM6OFgXUJBwtSI3c1dwo=", "properties": {"@spider": "usps_collection_boxes", "addr:city": "MARICOPA", "addr:country": "US", "addr:full": "44920 W HATHAWAY AVE", "addr:postcode": "85139", "addr:state": "AZ", "amenity": "post_box", "brand": "United States Postal Service", "brand:wikidata": "Q668687", "collection_times": "Mo-Fr 16:30; Sa 15:45", "name": "USPS COLLECTION BOX - BLUE BOX", "note": "ON 12/24 AND 12/31, THIS BOX MAY BE COLLECTED AS EARLY AS 12 NOON.", "nsi_id": "unitedstatespostalservice-a77078", "operator": "United States Postal Service", "operator:short": "USPS", "operator:type": "public", "operator:wikidata": "Q668687", "ref": "8513900005"}, "type": "Feature"}
{"geometry": {"coordinates": [-111.637631, 33.242233], "type": "Point"}, "id": "EY83wXEiHvIx8xxCmt9HnugKlgc=", "properties": {"@spider": "usps_collection_boxes", "addr:city": "QUEEN CREEK", "addr:country": "US", "addr:full": "22424 S ELLSWORTH LOOP RD", "addr:postcode": "85142", "addr:state": "AZ", "amenity": "post_box", "brand": "United States Postal Service", "brand:wikidata": "Q668687", "collection_times": "Mo-Sa 17:00", "name": "USPS COLLECTION BOX - PO LOBBY", "note": "ON 12/24 AND 12/31, THIS BOX MAY BE COLLECTED AS EARLY AS 12 NOON.", "nsi_id": "unitedstatespostalservice-a77078", "operator": "United States Postal Service", "operator:short": "USPS", "operator:type": "public", "operator:wikidata": "Q668687", "ref": "8514200004"}, "type": "Feature"}
{"geometry": {"coordinates": [-111.637565, 33.242191], "type": "Point"}, "id": "Q0fdVsKX-qKCkXB8PV1DA_RJQ-E=", "properties": {"@spider": "usps_collection_boxes", "addr:city": "QUEEN CREEK", "addr:country": "US", "addr:full": "22424 S ELLSWORTH LOOP RD", "addr:postcode": "85142", "addr:state": "AZ", "amenity": "post_box", "brand": "United States Postal Service", "brand:wikidata": "Q668687", "collection_times": "Mo-Sa 17:00", "name": "USPS COLLECTION BOX - BLUE BOX", "note": "ON 12/24 AND 12/31, THIS BOX MAY BE COLLECTED AS EARLY AS 12 NOON.", "nsi_id": "unitedstatespostalservice-a77078", "operator": "United States Postal Service", "operator:short": "USPS", "operator:type": "public", "operator:wikidata": "Q668687", "ref": "8514200005"}, "type": "Feature"}
{"geometry": {"coordinates": [-111.637913355, 33.244632], "type": "Point"}, "id": "JiDeIE9pmPJAS-nEnqFCflV1cIw=", "properties": {"@spider": "usps_collection_boxes", "addr:city": "QUEEN CREEK", "addr:country": "US", "addr:full": "22424 S ELLSWORTH LOOP RD", "addr:postcode": "85142", "addr:state": "AZ", "amenity": "post_box", "brand": "United States Postal Service", "brand:wikidata": "Q668687", "collection_times": "Mo-Sa 17:00", "name": "USPS COLLECTION BOX - BLUE BOX", "note": "ON 12/24 AND 12/31, THIS BOX MAY BE COLLECTED AS EARLY AS 12 NOON.", "nsi_id": "unitedstatespostalservice-a77078", "operator": "United States Postal Service", "operator:short": "USPS", "operator:type": "public", "operator:wikidata": "Q668687", "ref": "8514200006"}, "type": "Feature"}
{"geometry": {"coordinates": [-111.6379133549, 33.244632], "type": "Point"}, "id": "yRH3TxuawmhA84VWLNcYIlYsO_A=", "properties": {"@spider": "usps_collection_boxes", "addr:city": "QUEEN CREEK", "addr:country": "US", "addr:full": "22424 S ELLSWORTH LOOP RD", "addr:postcode": "85142", "addr:state": "AZ", "amenity": "post_box", "brand": "United States Postal Service", "brand:wikidata": "Q668687", "collection_times": "Mo-Sa 17:00", "name": "USPS COLLECTION BOX - PO LOBBY", "note": "ON 12/24 AND 12/31, THIS BOX MAY BE COLLECTED AS EARLY AS 12 NOON.", "nsi_id": "unitedstatespostalservice-a77078", "operator": "United States Postal Service", "operator:short": "USPS", "operator:type": "public", "operator:wikidata": "Q668687", "ref": "8514200014"}, "type": "Feature"}
{"geometry": {"coordinates": [-111.329143, 32.579819], "type": "Point"}, "id": "2ZddpF0uQeCifTNoO2mt1uWbZJM=", "properties": {"@spider": "usps_collection_boxes", "addr:city": "RED ROCK", "addr:country": "US", "addr:full": "22187 E CAMINO CORREO", "addr:postcode": "85145", "addr:state": "AZ", "amenity": "post_box", "brand": "United States Postal Service", "brand:wikidata": "Q668687", "collection_times": "Mo-Fr 14:00; Sa 09:00", "name": "USPS COLLECTION BOX - BLUE BOX", "note": "ON 12/24 AND 12/31, THIS BOX MAY BE COLLECTED AS EARLY AS 12 NOON.", "nsi_id": "unitedstatespostalservice-a77078", "operator": "United States Postal Service", "operator:short": "USPS", "operator:type": "public", "operator:wikidata": "Q668687", "ref": "8514500001"}, "type": "Feature"}
{"geometry": {"coordinates": [-111.329071, 32.579779], "type": "Point"}, "id": "cEo8Wnhc71NTZavsFj-8VLsRwpY=", "properties": {"@spider": "usps_collection_boxes", "addr:city": "RED ROCK", "addr:country": "US", "addr:full": "22187 E CAMINO CORREO", "addr:postcode": "85145", "addr:state": "AZ", "amenity": "post_box", "brand": "United States Postal Service", "brand:wikidata": "Q668687", "collection_times": "Mo-Fr 14:00; Sa 09:00", "name": "USPS COLLECTION BOX - PO LOBBY", "note": "ON 12/24 AND 12/31, THIS BOX MAY BE COLLECTED AS EARLY AS 12 NOON.", "nsi_id": "unitedstatespostalservice-a77078", "operator": "United States Postal Service", "operator:short": "USPS", "operator:type": "public", "operator:wikidata": "Q668687", "ref": "8514500002"}, "type": "Feature"}
{"geometry": {"coordinates": [-111.330567349, 32.581536235], "type": "Point"}, "id": "e7YA2aWiROBjDvrUm-hYhVoDie0=", "properties": {"@spider": "usps_collection_boxes", "addr:city": "RED ROCK", "addr:country": "US", "addr:full": "22187 E CAMINO CORREO", "addr:postcode": "85145", "addr:state": "AZ", "amenity": "post_box", "brand": "United States Postal Service", "brand:wikidata": "Q668687", "collection_times": "Mo-Fr 14:00", "name": "USPS COLLECTION BOX - PO LOBBY", "note": "ON 12/24 AND 12/31, THIS BOX MAY BE COLLECTED AS EARLY AS 12 NOON.", "nsi_id": "unitedstatespostalservice-a77078", "operator": "United States Postal Service", "operator:short": "USPS", "operator:type": "public", "operator:wikidata": "Q668687", "ref": "8514500004"}, "type": "Feature"}
{"geometry": {"coordinates": [-111.744245, 33.080914], "type": "Point"}, "id": "tcHodANoUIhm7T161TMeBFmlG3M=", "properties": {"@spider": "usps_collection_boxes", "addr:city": "SACATON", "addr:country": "US", "addr:full": "190 W PIMA ST", "addr:postcode": "85147", "addr:state": "AZ", "amenity": "post_box", "brand": "United States Postal Service", "brand:wikidata": "Q668687", "collection_times": "Mo-Fr 16:45; Sa 11:30", "name": "USPS COLLECTION BOX - BLUE BOX", "note": "ON 12/24 AND 12/31, THIS BOX MAY BE COLLECTED AS EARLY AS 12 NOON.", "nsi_id": "unitedstatespostalservice-a77078", "operator": "United States Postal Service", "operator:short": "USPS", "operator:type": "public", "operator:wikidata": "Q668687", "ref": "8514700001"}, "type": "Feature"}
{"geometry": {"coordinates": [-111.74434, 33.080921], "type": "Point"}, "id": "Ku_VdJ_CYAiBavN7-t2XmYIfF7Y=", "properties": {"@spider": "usps_collection_boxes", "addr:city": "SACATON", "addr:country": "US", "addr:full": "190 W PIMA ST", "addr:postcode": "85147", "addr:state": "AZ", "amenity": "post_box", "brand": "United States Postal Service", "brand:wikidata": "Q668687", "collection_times": "Mo-Fr 17:00; Sa 11:30", "name": "USPS COLLECTION BOX - PO LOBBY", "note": "ON 12/24 AND 12/31, THIS BOX MAY BE COLLECTED AS EARLY AS 12 NOON.", "nsi_id": "unitedstatespostalservice-a77078", "operator": "United States Postal Service", "operator:short": "USPS", "operator:type": "public", "operator:wikidata": "Q668687", "ref": "8514700002"}, "type": "Feature"}
{"geometry": {"coordinates": [-111.963139, 32.879618], "type": "Point"}, "id": "Ps9pGhXMsxqwLVMND3hqbHrRtUc=", "properties": {"@spider": "usps_collection_boxes", "addr:city": "STANFIELD", "addr:country": "US", "addr:full": "36840 W HIGHWAY 84", "addr:postcode": "85172", "addr:state": "AZ", "amenity": "post_box", "brand": "United States Postal Service", "brand:wikidata": "Q668687", "collection_times": "Mo-Fr 15:45; Sa 09:00", "name": "USPS COLLECTION BOX - BLUE BOX", "note": "ON 12/24 AND 12/31, THIS BOX MAY BE COLLECTED AS EARLY AS 12 NOON.", "nsi_id": "unitedstatespostalservice-a77078", "operator": "United States Postal Service", "operator:short": "USPS", "operator:type": "public", "operator:wikidata": "Q668687", "ref": "8517200001"}, "type": "Feature"}
{"geometry": {"coordinates": [-111.963183, 32.879591], "type": "Point"}, "id": "LH8z8KBciQOciKnvgm510pbNjqg=", "properties": {"@spider": "usps_collection_boxes", "addr:city": "STANFIELD", "addr:country": "US", "addr:full": "36840 W HIGHWAY 84", "addr:postcode": "85172", "addr:state": "AZ", "amenity": "post_box", "brand": "United States Postal Service", "brand:wikidata": "Q668687", "collection_times": "Mo-Fr 15:45; Sa 09:00", "name": "USPS COLLECTION BOX - PO LOBBY", "note": "ON 12/24 AND 12/31, THIS BOX MAY BE COLLECTED AS EARLY AS 12 NOON.", "nsi_id": "unitedstatespostalservice-a77078", "operator": "United States Postal Service", "operator:short": "USPS", "operator:type": "public", "operator:wikidata": "Q668687", "ref": "8517200002"}, "type": "Feature"}
{"geometry": {"coordinates": [-111.9632930255, 32.8796175004], "type": "Point"}, "id": "OD5Lf7BOBUOqVaChm5b1wjN_DP0=", "properties": {"@spider": "usps_collection_boxes", "addr:city": "STANFIELD", "addr:country": "US", "addr:full": "36840 W HIGHWAY 84", "addr:postcode": "85172", "addr:state": "AZ", "amenity": "post_box", "brand": "United States Postal Service", "brand:wikidata": "Q668687", "collection_times": "Mo-Fr 16:00", "name": "USPS COLLECTION BOX - PO LOBBY", "note": "ON 12/24 AND 12/31, THIS BOX MAY BE COLLECTED AS EARLY AS 12 NOON.", "nsi_id": "unitedstatespostalservice-a77078", "operator": "United States Postal Service", "operator:short": "USPS", "operator:type": "public", "operator:wikidata": "Q668687", "ref": "8517200003"}, "type": "Feature"}
{"geometry": {"coordinates": [-111.0954018701, 33.2942023344], "type": "Point"}, "id": "jsxgpJXRc4m9FNBquUl8-fv8El0=", "properties": {"@spider": "usps_collection_boxes", "addr:city": "SUPERIOR", "addr:country": "US", "addr:full": "25 N HIGH SCHOOL AVE", "addr:postcode": "85173", "addr:state": "AZ", "amenity": "post_box", "brand": "United States Postal Service", "brand:wikidata": "Q668687", "collection_times": "Mo-Fr 16:45; Sa 09:00", "name": "USPS COLLECTION BOX - BLUE BOX", "note": "ON 12/24 AND 12/31, THIS BOX MAY BE COLLECTED AS EARLY AS 12 NOON.", "nsi_id": "unitedstatespostalservice-a77078", "operator": "United States Postal Service", "operator:short": "USPS", "operator:type": "public", "operator:wikidata": "Q668687", "ref": "8517300001"}, "type": "Feature"}
{"geometry": {"coordinates": [-111.095323, 33.294014], "type": "Point"}, "id": "XnGtwm1HW4Yz113WgQ1QAzP8SfI=", "properties": {"@spider": "usps_collection_boxes", "addr:city": "SUPERIOR", "addr:country": "US", "addr:full": "25 N HIGH SCHOOL AVE", "addr:postcode": "85173", "addr:state": "AZ", "amenity": "post_box", "brand": "United States Postal Service", "brand:wikidata": "Q668687", "collection_times": "Mo-Fr 16:45; Sa 09:00", "name": "USPS COLLECTION BOX - PO LOBBY", "note": "ON 12/24 AND 12/31, THIS BOX MAY BE COLLECTED AS EARLY AS 12 NOON.", "nsi_id": "unitedstatespostalservice-a77078", "operator": "United States Postal Service", "operator:short": "USPS", "operator:type": "public", "operator:wikidata": "Q668687", "ref": "8517300002"}, "type": "Feature"}
{"geometry": {"coordinates": [-111.09540187, 33.294202334], "type": "Point"}, "id": "7LSTL-I93LUp-CyW_dv4oaGOO58=", "properties": {"@spider": "usps_collection_boxes", "addr:city": "SUPERIOR", "addr:country": "US", "addr:full": "25 N HIGH SCHOOL AVE", "addr:postcode": "85173", "addr:state": "AZ", "amenity": "post_box", "brand": "United States Postal Service", "brand:wikidata": "Q668687", "collection_times": "Mo-Fr 16:45", "name": "USPS COLLECTION BOX - PO LOBBY", "note": "ON 12/24 AND 12/31, THIS BOX MAY BE COLLECTED AS EARLY AS 12 NOON.", "nsi_id": "unitedstatespostalservice-a77078", "operator": "United States Postal Service", "operator:short": "USPS", "operator:type": "public", "operator:wikidata": "Q668687", "ref": "8517300003"}, "type": "Feature"}
{"geometry": {"coordinates": [-111.448575, 32.988304], "type": "Point"}, "id": "3uJzBjh3hhkDh8AI8lKYJeTL86U=", "properties": {"@spider": "usps_collection_boxes", "addr:city": "VALLEY FARMS", "addr:country": "US", "addr:full": "10995 E VAH KI INN RD", "addr:postcode": "85191", "addr:state": "AZ", "amenity": "post_box", "brand": "United States Postal Service", "brand:wikidata": "Q668687", "collection_times": "Mo-Fr 12:00", "name": "USPS COLLECTION BOX - PO LOBBY", "nsi_id": "unitedstatespostalservice-a77078", "operator": "United States Postal Service", "operator:short": "USPS", "operator:type": "public", "operator:wikidata": "Q668687", "ref": "8519100001"}, "type": "Feature"}
{"geometry": {"coordinates": [-111.448859, 32.988214], "type": "Point"}, "id": "SuDZGnfWWesKqWv4InB1hBYSe6M=", "properties": {"@spider": "usps_collection_boxes", "addr:city": "VALLEY FARMS", "addr:country": "US", "addr:full": "10995 E VAH KI INN RD", "addr:postcode": "85191", "addr:state": "AZ", "amenity": "post_box", "brand": "United States Postal Service", "brand:wikidata": "Q668687", "collection_times": "Mo-Fr 12:00; Sa 08:00", "name": "USPS COLLECTION BOX - BLUE BOX", "nsi_id": "unitedstatespostalservice-a77078", "operator": "United States Postal Service", "operator:short": "USPS", "operator:type": "public", "operator:wikidata": "Q668687", "ref": "8519100002"}, "type": "Feature"}
{"geometry": {"coordinates": [-111.4489125, 32.988301492], "type": "Point"}, "id": "nNIRk3xzI-2enhRDslW3yvcxqgU=", "properties": {"@spider": "usps_collection_boxes", "addr:city": "VALLEY FARMS", "addr:country": "US", "addr:full": "10995 E VAH KI INN RD", "addr:postcode": "85191", "addr:state": "AZ", "amenity": "post_box", "brand": "United States Postal Service", "brand:wikidata": "Q668687", "collection_times": "Mo-Fr 12:00", "name": "USPS COLLECTION BOX - PO LOBBY", "nsi_id": "unitedstatespostalservice-a77078", "operator": "United States Postal Service", "operator:short": "USPS", "operator:type": "public", "operator:wikidata": "Q668687", "ref": "8519100003"}, "type": "Feature"}
{"geometry": {"coordinates": [-110.772199, 32.987841], "type": "Point"}, "id": "UBOfNvOOq5lm2ljCWhgbVaYm-UU=", "properties": {"@spider": "usps_collection_boxes", "addr:city": "WINKELMAN", "addr:country": "US", "addr:full": "301 GIFFIN AVE", "addr:postcode": "85192", "addr:state": "AZ", "amenity": "post_box", "brand": "United States Postal Service", "brand:wikidata": "Q668687", "collection_times": "Mo-Fr 16:00; Sa 09:00", "name": "USPS COLLECTION BOX - BLUE BOX", "note": "ON 12/24 AND 12/31, THIS BOX MAY BE COLLECTED AS EARLY AS 12 NOON.", "nsi_id": "unitedstatespostalservice-a77078", "operator": "United States Postal Service", "operator:short": "USPS", "operator:type": "public", "operator:wikidata": "Q668687", "ref": "8519200001"}, "type": "Feature"}
{"geometry": {"coordinates": [-110.772231, 32.987751], "type": "Point"}, "id": "L7DcUiv7gtvksJjexv-gTZEuEUA=", "properties": {"@spider": "usps_collection_boxes", "addr:city": "WINKELMAN", "addr:country": "US", "addr:full": "301 GIFFIN AVE", "addr:postcode": "85192", "addr:state": "AZ", "amenity": "post_box", "brand": "United States Postal Service", "brand:wikidata": "Q668687", "collection_times": "Mo-Fr 16:00; Sa 09:00", "name": "USPS COLLECTION BOX - PO LOBBY", "note": "ON 12/24 AND 12/31, THIS BOX MAY BE COLLECTED AS EARLY AS 12 NOON.", "nsi_id": "unitedstatespostalservice-a77078", "operator": "United States Postal Service", "operator:short": "USPS", "operator:type": "public", "operator:wikidata": "Q668687", "ref": "8519200002"}, "type": "Feature"}
{"geometry": {"coordinates": [-110.7722012484, 32.9879433353], "type": "Point"}, "id": "RRjK6A1alRb0aEPGMqbEmwYYpwk=", "properties": {"@spider": "usps_collection_boxes", "addr:city": "WINKELMAN", "addr:country": "US", "addr:full": "301 GIFFIN AVE", "addr:postcode": "85192", "addr:state": "AZ", "amenity": "post_box", "brand": "United States Postal Service", "brand:wikidata": "Q668687", "collection_times": "Mo-Fr 16:00", "name": "USPS COLLECTION BOX - PO LOBBY", "note": "ON 12/24 AND 12/31, THIS BOX MAY BE COLLECTED AS EARLY AS 12 NOON.", "nsi_id": "unitedstatespostalservice-a77078", "operator": "United States Postal Service", "operator:short": "USPS", "operator:type": "public", "operator:wikidata": "Q668687", "ref": "8519200003"}, "type": "Feature"}
{"geometry": {"coordinates": [-111.681625, 32.762724], "type": "Point"}, "id": "oHMFcy2T1DC0xQoCcuZnHPDFZdQ=", "properties": {"@spider": "usps_collection_boxes", "addr:city": "CASA GRANDE", "addr:country": "US", "addr:full": "10601 W BATTAGLIA DR", "addr:postcode": "85193", "addr:state": "AZ", "amenity": "post_box", "brand": "United States Postal Service", "brand:wikidata": "Q668687", "collection_times": "Mo-Fr 11:00; Sa 10:00", "name": "USPS COLLECTION BOX - BLUE BOX", "nsi_id": "unitedstatespostalservice-a77078", "operator": "United States Postal Service", "operator:short": "USPS", "operator:type": "public", "operator:wikidata": "Q668687", "ref": "8519300001"}, "type": "Feature"}
{"geometry": {"coordinates": [-111.681530026, 32.762926546], "type": "Point"}, "id": "oAPn-Q9-umrqZXaqoNEfvE8yF0Q=", "properties": {"@spider": "usps_collection_boxes", "addr:city": "CASA GRANDE", "addr:country": "US", "addr:full": "10601 W BATTAGLIA DR STE A", "addr:postcode": "85193", "addr:state": "AZ", "amenity": "post_box", "brand": "United States Postal Service", "brand:wikidata": "Q668687", "collection_times": "Mo-Fr 15:45; Sa 11:45", "name": "USPS COLLECTION BOX - PO LOBBY", "note": "ON 12/24 AND 12/31, THIS BOX MAY BE COLLECTED AS EARLY AS 12 NOON.", "nsi_id": "unitedstatespostalservice-a77078", "operator": "United States Postal Service", "operator:short": "USPS", "operator:type": "public", "operator:wikidata": "Q668687", "ref": "8519300002"}, "type": "Feature"}
{"geometry": {"coordinates": [-111.681298, 32.882749], "type": "Point"}, "id": "eQJpw6sl49nYzhdY-uHVz4RS58Q=", "properties": {"@spider": "usps_collection_boxes", "addr:city": "CASA GRANDE", "addr:country": "US", "addr:full": "1004 N PROMENADE PKWY STE 119", "addr:postcode": "85194", "addr:state": "AZ", "amenity": "post_box", "brand": "United States Postal Service", "brand:wikidata": "Q668687", "collection_times": "Mo-Sa 14:30", "name": "USPS COLLECTION BOX - BLUE BOX", "note": "ON 12/24 AND 12/31, THIS BOX MAY BE COLLECTED AS EARLY AS 12 NOON.", "nsi_id": "unitedstatespostalservice-a77078", "operator": "United States Postal Service", "operator:short": "USPS", "operator:type": "public", "operator:wikidata": "Q668687", "ref": "8519400001"}, "type": "Feature"}
