{"geometry": {"coordinates": [-114.783433, 32.493609], "type": "Point"}, "id": "xvvE6cFzKENYdtvHBjp0_uuTR0c=", "properties": {"@spider": "usps_collection_boxes", "addr:city": "SAN LUIS", "addr:country": "US", "addr:full": "874 S MAIN ST", "addr:postcode": "85349", "addr:state": "AZ", "brand": "USPS", "collection_times": "Mo-Fr 14:30; Sa 12:00", "name": "USPS COLLECTION BOX - BLUE BOX", "note": "ON 12/24 AND 12/31, THIS BOX MAY BE COLLECTED AS EARLY AS 12 NOON.", "ref": "8534900001"}, "type": "Feature"}
{"geometry": {"coordinates": [-114.783424, 32.493661], "type": "Point"}, "id": "kniP7suhfY6BURRLI-58J6xRSLM=", "properties": {"@spider": "usps_collection_boxes", "addr:city": "SAN LUIS", "addr:country": "US", "addr:full": "874 S MAIN ST", "addr:postcode": "85349", "addr:state": "AZ", "brand": "USPS", "collection_times": "Mo-Fr 14:30; Sa 12:00", "name": "USPS COLLECTION BOX - BLUE BOX", "note": "ON 12/24 AND 12/31, THIS BOX MAY BE COLLECTED AS EARLY AS 12 NOON.", "ref": "8534900002"}, "type": "Feature"}
{"geometry": {"coordinates": [-114.783424, 32.493661], "type": "Point"}, "id": "VofYI7znfgCfw_FY7JESMi0KwXE=", "properties": {"@spider": "usps_collection_boxes", "addr:city": "SAN LUIS", "addr:country": "US", "addr:full": "874 S MAIN ST", "addr:postcode": "85349", "addr:state": "AZ", "brand": "USPS", "collection_times": "Mo-Fr 14:30; Sa 12:00", "name": "USPS COLLECTION BOX - PO LOBBY", "note": "ON 12/24 AND 12/31, THIS BOX MAY BE COLLECTED AS EARLY AS 12 NOON.", "ref": "8534900004"}, "type": "Feature"}
{"geometry": {"coordinates": [-114.783424, 32.493661], "type": "Point"}, "id": "T0pUEd-1T_uWO-z35keEqQNohPI=", "properties": {"@spider": "usps_collection_boxes", "addr:city": "SAN LUIS", "addr:country": "US", "addr:full": "874 S MAIN ST", "addr:postcode": "85349", "addr:state": "AZ", "brand": "USPS", "collection_times": "Mo-Fr 14:30; Sa 12:00", "name": "USPS COLLECTION BOX - BLUE BOX", "note": "ON 12/24 AND 12/31, THIS BOX MAY BE COLLECTED AS EARLY AS 12 NOON.", "ref": "8534900005"}, "type": "Feature"}
{"geometry": {"coordinates": [-114.7836737007, 32.4938991464], "type": "Point"}, "id": "HXCukY2l8qHigC2K1uBrR5t4WA0=", "properties": {"@spider": "usps_collection_boxes", "addr:city": "SAN LUIS", "addr:country": "US", "addr:full": "874 S MAIN ST", "addr:postcode": "85349", "addr:state": "AZ", "brand": "USPS", "collection_times": "Mo-Fr 14:30; Sa 12:00", "name": "USPS COLLECTION BOX - PO LOBBY", "note": "ON 12/24 AND 12/31, THIS BOX MAY BE COLLECTED AS EARLY AS 12 NOON.", "ref": "8534900007"}, "type": "Feature"}
{"geometry": {"coordinates": [-114.706363, 32.597296], "type": "Point"}, "id": "fnUnX79TdcKWHuiznDX_3RWqqF4=", "properties": {"@spider": "usps_collection_boxes", "addr:city": "SOMERTON", "addr:country": "US", "addr:full": "450 E MAIN ST", "addr:postcode": "85350", "addr:state": "AZ", "brand": "USPS", "collection_times": "Mo-Sa 15:00", "name": "USPS COLLECTION BOX - BLUE BOX", "note": "ON 12/24 AND 12/31, THIS BOX MAY BE COLLECTED AS EARLY AS 12 NOON.", "ref": "8535000001"}, "type": "Feature"}
{"geometry": {"coordinates": [-114.7059, 32.59733], "type": "Point"}, "id": "epIfriYHVyPYcmT3LEhZBpxEV9w=", "properties": {"@spider": "usps_collection_boxes", "addr:city": "SOMERTON", "addr:country": "US", "addr:full": "450 E MAIN ST", "addr:postcode": "85350", "addr:state": "AZ", "brand": "USPS", "collection_times": "Mo-Sa 15:00", "name": "USPS COLLECTION BOX - PO LOBBY", "note": "ON 12/24 AND 12/31, THIS BOX MAY BE COLLECTED AS EARLY AS 12 NOON.", "ref": "8535000003"}, "type": "Feature"}
{"geometry": {"coordinates": [-114.7060531676, 32.596674461], "type": "Point"}, "id": "xxfTC9XpqvOsPN_9xYmGlaAC7J8=", "properties": {"@spider": "usps_collection_boxes", "addr:city": "SOMERTON", "addr:country": "US", "addr:full": "450 E MAIN ST", "addr:postcode": "85350", "addr:state": "AZ", "brand": "USPS", "collection_times": "Mo-Fr 15:00", "name": "USPS COLLECTION BOX - PO LOBBY", "note": "ON 12/24 AND 12/31, THIS BOX MAY BE COLLECTED AS EARLY AS 12 NOON.", "ref": "8535000004"}, "type": "Feature"}
{"geometry": {"coordinates": [-113.952467, 32.697254], "type": "Point"}, "id": "naBDzrKxGU1R_FLrmAb822-I26U=", "properties": {"@spider": "usps_collection_boxes", "addr:city": "TACNA", "addr:country": "US", "addr:full": "40140 E HWY 80", "addr:postcode": "85352", "addr:state": "AZ", "brand": "USPS", "collection_times": "Mo-Fr 16:15; Sa 08:45", "name": "USPS COLLECTION BOX - BLUE BOX", "note": "ON 12/24 AND 12/31, THIS BOX MAY BE COLLECTED AS EARLY AS 12 NOON.", "ref": "8535200000"}, "type": "Feature"}
{"geometry": {"coordinates": [-113.952541, 32.697356], "type": "Point"}, "id": "ABcPbhJC5NfzDbJKA-g0v5lxBxM=", "properties": {"@spider": "usps_collection_boxes", "addr:city": "TACNA", "addr:country": "US", "addr:full": "40140 E HWY 80", "addr:postcode": "85352", "addr:state": "AZ", "brand": "USPS", "collection_times": "Mo-Fr 16:15; Sa 08:45", "name": "USPS COLLECTION BOX - PO LOBBY", "note": "ON 12/24 AND 12/31, THIS BOX MAY BE COLLECTED AS EARLY AS 12 NOON.", "ref": "8535200001"}, "type": "Feature"}
{"geometry": {"coordinates": [-113.95241606, 32.697172297], "type": "Point"}, "id": "9UeNJ5SCOBjxDlsuDoFMmWfrO-0=", "properties": {"@spider": "usps_collection_boxes", "addr:city": "TACNA", "addr:country": "US", "addr:full": "40140 E HWY 80", "addr:postcode": "85352", "addr:state": "AZ", "brand": "USPS", "collection_times": "Mo-Fr 16:15", "name": "USPS COLLECTION BOX - PO LOBBY", "note": "ON 12/24 AND 12/31, THIS BOX MAY BE COLLECTED AS EARLY AS 12 NOON.", "ref": "8535200002"}, "type": "Feature"}
{"geometry": {"coordinates": [-114.148497, 32.672678], "type": "Point"}, "id": "VFmjjZz7ObraCktCWIvxRoZ80vs=", "properties": {"@spider": "usps_collection_boxes", "addr:city": "WELLTON", "addr:country": "US", "addr:full": "28610 OAKLAND AVE", "addr:postcode": "85356", "addr:state": "AZ", "brand": "USPS", "collection_times": "Mo-Fr 16:15; Sa 08:00", "name": "USPS COLLECTION BOX - BLUE BOX", "note": "ON 12/24 AND 12/31, THIS BOX MAY BE COLLECTED AS EARLY AS 12 NOON.", "ref": "8535600001"}, "type": "Feature"}
{"geometry": {"coordinates": [-114.14858, 32.672647], "type": "Point"}, "id": "NSj0J5MgencDNg73eeo-IlclujU=", "properties": {"@spider": "usps_collection_boxes", "addr:city": "WELLTON", "addr:country": "US", "addr:full": "28610 OAKLAND AVE", "addr:postcode": "85356", "addr:state": "AZ", "brand": "USPS", "collection_times": "Mo-Fr 16:15; Sa 08:00", "name": "USPS COLLECTION BOX - PO LOBBY", "note": "ON 12/24 AND 12/31, THIS BOX MAY BE COLLECTED AS EARLY AS 12 NOON.", "ref": "8535600002"}, "type": "Feature"}
{"geometry": {"coordinates": [-114.142863, 32.657176], "type": "Point"}, "id": "7iF74zQK7RpfNge1liAmaxRZ0OM=", "properties": {"@spider": "usps_collection_boxes", "addr:city": "WELLTON", "addr:country": "US", "addr:full": "28864 COMMERCE WAY", "addr:postcode": "85356", "addr:state": "AZ", "brand": "USPS", "collection_times": "Mo-Sa 09:30", "name": "USPS COLLECTION BOX - BLUE BOX", "ref": "8535600003"}, "type": "Feature"}
{"geometry": {"coordinates": [-114.1485292094, 32.6727016956], "type": "Point"}, "id": "ChX15mHKMeh_iY-RSvFpk27I8ak=", "properties": {"@spider": "usps_collection_boxes", "addr:city": "WELLTON", "addr:country": "US", "addr:full": "28610 OAKLAND AVE", "addr:postcode": "85356", "addr:state": "AZ", "brand": "USPS", "collection_times": "Mo-Fr 16:15", "name": "USPS COLLECTION BOX - PO LOBBY", "note": "ON 12/24 AND 12/31, THIS BOX MAY BE COLLECTED AS EARLY AS 12 NOON.", "ref": "8535600005"}, "type": "Feature"}
{"geometry": {"coordinates": [-114.634822, 32.712753], "type": "Point"}, "id": "DAs_FafodrPTavq45qe0fO-SqE0=", "properties": {"@spider": "usps_collection_boxes", "addr:city": "YUMA", "addr:country": "US", "addr:full": "1215 W 8TH ST", "addr:postcode": "85364", "addr:state": "AZ", "brand": "USPS", "collection_times": "Mo-Sa 10:00", "name": "USPS COLLECTION BOX - BLUE BOX", "ref": "8536400001"}, "type": "Feature"}
{"geometry": {"coordinates": [-114.625426, 32.687509], "type": "Point"}, "id": "lJYDTHFU6Jt2ShLUWkdAJnF7xi0=", "properties": {"@spider": "usps_collection_boxes", "addr:city": "YUMA", "addr:country": "US", "addr:full": "2222 S 4TH AVE", "addr:postcode": "85364", "addr:state": "AZ", "brand": "USPS", "collection_times": "Mo-Fr 17:30; Sa 15:30", "name": "USPS COLLECTION BOX - BLUE BOX", "note": "ON 12/24 AND 12/31, THIS BOX MAY BE COLLECTED AS EARLY AS 12 NOON.", "ref": "8536400003"}, "type": "Feature"}
{"geometry": {"coordinates": [-114.615844, 32.689836], "type": "Point"}, "id": "DKcA0GLcBEIk0Hv5GpB9PjazPSM=", "properties": {"@spider": "usps_collection_boxes", "addr:city": "YUMA", "addr:country": "US", "addr:full": "2055 S ARIZONA AVE", "addr:postcode": "85364", "addr:state": "AZ", "brand": "USPS", "collection_times": "Mo-Sa 09:00", "name": "USPS COLLECTION BOX - BLUE BOX", "ref": "8536400007"}, "type": "Feature"}
{"geometry": {"coordinates": [-114.624341, 32.703642], "type": "Point"}, "id": "M2DxI9aE7Yw4B47EHCp-ffGmVB8=", "properties": {"@spider": "usps_collection_boxes", "addr:city": "YUMA", "addr:country": "US", "addr:full": "1315 S 4TH AVE", "addr:postcode": "85364", "addr:state": "AZ", "brand": "USPS", "collection_times": "Mo-Sa 09:00", "name": "USPS COLLECTION BOX - BLUE BOX", "ref": "8536400010"}, "type": "Feature"}
{"geometry": {"coordinates": [-114.623177, 32.71324], "type": "Point"}, "id": "5NYQ-TEC-p0Gqe-_-gu6D8mxMVw=", "properties": {"@spider": "usps_collection_boxes", "addr:city": "YUMA", "addr:country": "US", "addr:full": "773 S ORANGE AVE", "addr:postcode": "85364", "addr:state": "AZ", "brand": "USPS", "collection_times": "Mo-Fr 15:00; Sa 12:00", "name": "USPS COLLECTION BOX - BLUE BOX", "note": "ON 12/24 AND 12/31, THIS BOX MAY BE COLLECTED AS EARLY AS 12 NOON.", "ref": "8536400011"}, "type": "Feature"}
{"geometry": {"coordinates": [-114.617361, 32.72262], "type": "Point"}, "id": "lwMzdMFyiYS8ullUw_FQazFrMxM=", "properties": {"@spider": "usps_collection_boxes", "addr:city": "YUMA", "addr:country": "US", "addr:full": "102 E 3RD ST", "addr:postcode": "85364", "addr:state": "AZ", "brand": "USPS", "collection_times": "Mo-Fr 15:00; Sa 12:00", "name": "USPS COLLECTION BOX - BLUE BOX", "note": "ON 12/24 AND 12/31, THIS BOX MAY BE COLLECTED AS EARLY AS 12 NOON.", "ref": "8536400013"}, "type": "Feature"}
{"geometry": {"coordinates": [-114.6257, 32.706972], "type": "Point"}, "id": "VarvqCI50av3sdoE_RmaG0FVG4w=", "properties": {"@spider": "usps_collection_boxes", "addr:city": "YUMA", "addr:country": "US", "addr:full": "1107 S 5TH AVE", "addr:postcode": "85364", "addr:state": "AZ", "brand": "USPS", "collection_times": "Mo-Fr 15:30; Sa 14:15", "name": "USPS COLLECTION BOX - BLUE BOX", "note": "ON 12/24 AND 12/31, THIS BOX MAY BE COLLECTED AS EARLY AS 12 NOON.", "ref": "8536400016"}, "type": "Feature"}
{"geometry": {"coordinates": [-114.62614, 32.685175], "type": "Point"}, "id": "j3re_UpgEEw2rKvTnazRxUMK0as=", "properties": {"@spider": "usps_collection_boxes", "addr:city": "YUMA", "addr:country": "US", "addr:full": "500 W 24TH ST", "addr:postcode": "85364", "addr:state": "AZ", "brand": "USPS", "collection_times": "Mo-Sa 09:00", "name": "USPS COLLECTION BOX - BLUE BOX", "ref": "8536400020"}, "type": "Feature"}
{"geometry": {"coordinates": [-114.632904, 32.682723], "type": "Point"}, "id": "cDXs6VS1YLsjSrMXFey6uNBeOeQ=", "properties": {"@spider": "usps_collection_boxes", "addr:city": "YUMA", "addr:country": "US", "addr:full": "2451 S AVENUE A", "addr:postcode": "85364", "addr:state": "AZ", "brand": "USPS", "collection_times": "Mo-Fr 10:00", "name": "USPS COLLECTION BOX - BLUE BOX", "ref": "8536400024"}, "type": "Feature"}
{"geometry": {"coordinates": [-114.625495, 32.683247], "type": "Point"}, "id": "c2clsba00hYPapPTLuJIl9IE-4Y=", "properties": {"@spider": "usps_collection_boxes", "addr:city": "YUMA", "addr:country": "US", "addr:full": "2450 S 4TH AVE", "addr:postcode": "85364", "addr:state": "AZ", "brand": "USPS", "collection_times": "Mo-Sa 09:30", "name": "USPS COLLECTION BOX - BLUE BOX", "ref": "8536400026"}, "type": "Feature"}
{"geometry": {"coordinates": [-114.646339, 32.721604], "type": "Point"}, "id": "fRoQTBTq4QAFUufMq_74ju_bpoc=", "properties": {"@spider": "usps_collection_boxes", "addr:city": "YUMA", "addr:country": "US", "addr:full": "2200 W 3RD ST", "addr:postcode": "85364", "addr:state": "AZ", "brand": "USPS", "collection_times": "Mo-Sa 11:30", "name": "USPS COLLECTION BOX - BLUE BOX", "ref": "8536400038"}, "type": "Feature"}
{"geometry": {"coordinates": [-114.653243, 32.699515], "type": "Point"}, "id": "Y23-GbXIkZliqkpyjwvJS0Hu4C0=", "properties": {"@spider": "usps_collection_boxes", "addr:city": "YUMA", "addr:country": "US", "addr:full": "2704 W 16TH ST", "addr:postcode": "85364", "addr:state": "AZ", "brand": "USPS", "collection_times": "Mo-Fr 15:30; Sa 03:00", "name": "USPS COLLECTION BOX - BLUE BOX", "note": "ON 12/24 AND 12/31, THIS BOX MAY BE COLLECTED AS EARLY AS 12 NOON.", "ref": "8536400039"}, "type": "Feature"}
{"geometry": {"coordinates": [-114.623189, 32.69315], "type": "Point"}, "id": "NL8_SQsVu8EIO7Cb8aFzLQQ5LJA=", "properties": {"@spider": "usps_collection_boxes", "addr:city": "YUMA", "addr:country": "US", "addr:full": "324 W 19TH ST", "addr:postcode": "85364", "addr:state": "AZ", "brand": "USPS", "collection_times": "Mo-Fr 11:30", "name": "USPS COLLECTION BOX - BLUE BOX", "ref": "8536400040"}, "type": "Feature"}
{"geometry": {"coordinates": [-114.623749, 32.699165], "type": "Point"}, "id": "7Ne1UeGSm3C461VB3upzCoTRIcU=", "properties": {"@spider": "usps_collection_boxes", "addr:city": "YUMA", "addr:country": "US", "addr:full": "350 W 16TH ST", "addr:postcode": "85364", "addr:state": "AZ", "brand": "USPS", "collection_times": "Mo-Fr 09:00", "name": "USPS COLLECTION BOX - BLUE BOX", "ref": "8536400049"}, "type": "Feature"}
{"geometry": {"coordinates": [-114.623741, 32.699184], "type": "Point"}, "id": "1MwPbZ7Adi6U0mzZe4aFd-iH_dw=", "properties": {"@spider": "usps_collection_boxes", "addr:city": "YUMA", "addr:country": "US", "addr:full": "350 W 16TH ST", "addr:postcode": "85364", "addr:state": "AZ", "brand": "USPS", "collection_times": "Mo-Fr 09:00", "name": "USPS COLLECTION BOX - BLUE BOX", "ref": "8536400050"}, "type": "Feature"}
{"geometry": {"coordinates": [-114.61825, 32.72408], "type": "Point"}, "id": "8i7mcBIuJLdGqNeeDbCVAJEu1rQ=", "properties": {"@spider": "usps_collection_boxes", "addr:city": "YUMA", "addr:country": "US", "addr:full": "198 S MAIN ST", "addr:postcode": "85364", "addr:state": "AZ", "brand": "USPS", "collection_times": "Mo-Fr 15:00", "name": "USPS COLLECTION BOX - BLUE BOX", "note": "ON 12/24 AND 12/31, THIS BOX MAY BE COLLECTED AS EARLY AS 12 NOON.", "ref": "8536400052"}, "type": "Feature"}
{"geometry": {"coordinates": [-114.61827, 32.724112], "type": "Point"}, "id": "tFbmVV4t1ZysG263M_lyAIi1Cww=", "properties": {"@spider": "usps_collection_boxes", "addr:city": "YUMA", "addr:country": "US", "addr:full": "198 S MAIN ST", "addr:postcode": "85364", "addr:state": "AZ", "brand": "USPS", "collection_times": "Mo-Fr 15:00", "name": "USPS COLLECTION BOX - BLUE BOX", "note": "ON 12/24 AND 12/31, THIS BOX MAY BE COLLECTED AS EARLY AS 12 NOON.", "ref": "8536400053"}, "type": "Feature"}
{"geometry": {"coordinates": [-114.650886, 32.712603], "type": "Point"}, "id": "bNEcaOuKtI_oXeqsU1L8erRsnqg=", "properties": {"@spider": "usps_collection_boxes", "addr:city": "YUMA", "addr:country": "US", "addr:full": "2505 W 8TH ST", "addr:postcode": "85364", "addr:state": "AZ", "brand": "USPS", "collection_times": "Mo-Sa 09:30", "name": "USPS COLLECTION BOX - BLUE BOX", "ref": "8536400058"}, "type": "Feature"}
{"geometry": {"coordinates": [-114.621137, 32.694967], "type": "Point"}, "id": "68B9a83SCUX5qowSsrklsN6DWN8=", "properties": {"@spider": "usps_collection_boxes", "addr:city": "YUMA", "addr:country": "US", "addr:full": "1780 S 1ST AVE", "addr:postcode": "85364", "addr:state": "AZ", "brand": "USPS", "collection_times": "Mo-Sa 12:00", "name": "USPS COLLECTION BOX - BLUE BOX", "ref": "8536400066"}, "type": "Feature"}
{"geometry": {"coordinates": [-114.625093, 32.687169], "type": "Point"}, "id": "va7tUXUE1OBwkUeNILXuwMbAbxY=", "properties": {"@spider": "usps_collection_boxes", "addr:city": "YUMA", "addr:country": "US", "addr:full": "2222 S 4TH AVE", "addr:postcode": "85364", "addr:state": "AZ", "brand": "USPS", "collection_times": "Mo-Sa 15:30", "name": "USPS COLLECTION BOX - PO LOBBY", "note": "ON 12/24 AND 12/31, THIS BOX MAY BE COLLECTED AS EARLY AS 12 NOON.", "ref": "8536400068"}, "type": "Feature"}
{"geometry": {"coordinates": [-114.625129, 32.687181], "type": "Point"}, "id": "tI568l6uS_-MT6Tb6Ci9630PpQo=", "properties": {"@spider": "usps_collection_boxes", "addr:city": "YUMA", "addr:country": "US", "addr:full": "2222 S 4TH AVE", "addr:postcode": "85364", "addr:state": "AZ", "brand": "USPS", "collection_times": "Mo-Sa 15:30", "name": "USPS COLLECTION BOX - APC", "note": "ON 12/24 AND 12/31, THIS BOX MAY BE COLLECTED AS EARLY AS 12 NOON.", "ref": "8536400074"}, "type": "Feature"}
{"geometry": {"coordinates": [-114.625433, 32.68751], "type": "Point"}, "id": "cjZtaWS5HgxFOlgd2i36W5zGuhM=", "properties": {"@spider": "usps_collection_boxes", "addr:city": "YUMA", "addr:country": "US", "addr:full": "2222 S 4TH AVE", "addr:postcode": "85364", "addr:state": "AZ", "brand": "USPS", "collection_times": "Mo-Fr 17:30; Sa 15:30", "name": "USPS COLLECTION BOX - BLUE BOX", "note": "ON 12/24 AND 12/31, THIS BOX MAY BE COLLECTED AS EARLY AS 12 NOON.", "ref": "8536400076"}, "type": "Feature"}
{"geometry": {"coordinates": [-114.63286, 32.686632], "type": "Point"}, "id": "BZoLNHwsRIlSC1yyw2rJQ1zEA8g=", "properties": {"@spider": "usps_collection_boxes", "addr:city": "YUMA", "addr:country": "US", "addr:full": "2241 S AVENUE A", "addr:postcode": "85364", "addr:state": "AZ", "brand": "USPS", "collection_times": "Mo-Fr 10:30; Sa 10:00", "name": "USPS COLLECTION BOX - BLUE BOX", "ref": "8536400078"}, "type": "Feature"}
{"geometry": {"coordinates": [-114.648018, 32.681299], "type": "Point"}, "id": "UfYFbWNb97LJzJe1RXPidf1l4Cw=", "properties": {"@spider": "usps_collection_boxes", "addr:city": "YUMA", "addr:country": "US", "addr:full": "2501 S AVENUE B", "addr:postcode": "85364", "addr:state": "AZ", "brand": "USPS", "collection_times": "Mo-Sa 09:00", "name": "USPS COLLECTION BOX - BLUE BOX", "ref": "8536400079"}, "type": "Feature"}
{"geometry": {"coordinates": [-114.615985, 32.669553], "type": "Point"}, "id": "fQSQttvuw6V3JXk1_CLr0JfaAFQ=", "properties": {"@spider": "usps_collection_boxes", "addr:city": "YUMA", "addr:country": "US", "addr:full": "500 E 32ND ST", "addr:postcode": "85364", "addr:state": "AZ", "brand": "USPS", "collection_times": "Mo-Fr 14:00; Sa 13:30", "name": "USPS COLLECTION BOX - BLUE BOX", "note": "ON 12/24 AND 12/31, THIS BOX MAY BE COLLECTED AS EARLY AS 12 NOON.", "ref": "8536400080"}, "type": "Feature"}
{"geometry": {"coordinates": [-114.62067, 32.6983], "type": "Point"}, "id": "g1WiWR0xmwtQUUIosdZI_1J-Bjw=", "properties": {"@spider": "usps_collection_boxes", "addr:city": "YUMA", "addr:country": "US", "addr:full": "105 W 16TH ST", "addr:postcode": "85364", "addr:state": "AZ", "brand": "USPS", "collection_times": "Mo-Sa 09:00", "name": "USPS COLLECTION BOX - BLUE BOX", "ref": "8536400081"}, "type": "Feature"}
{"geometry": {"coordinates": [-114.622189, 32.723456], "type": "Point"}, "id": "UVN6PuCK78e73rslQMYe3S7cSwA=", "properties": {"@spider": "usps_collection_boxes", "addr:city": "YUMA", "addr:country": "US", "addr:full": "200 S 2ND AVE", "addr:postcode": "85364", "addr:state": "AZ", "brand": "USPS", "collection_times": "Mo-Fr 15:00; Sa 12:00", "name": "USPS COLLECTION BOX - BLUE BOX", "note": "ON 12/24 AND 12/31, THIS BOX MAY BE COLLECTED AS EARLY AS 12 NOON.", "ref": "8536400082"}, "type": "Feature"}
{"geometry": {"coordinates": [-114.622184, 32.72345], "type": "Point"}, "id": "fUnoWyQWPSgeY7qxUNPaxwL1DCc=", "properties": {"@spider": "usps_collection_boxes", "addr:city": "YUMA", "addr:country": "US", "addr:full": "200 S 2ND AVE", "addr:postcode": "85364", "addr:state": "AZ", "brand": "USPS", "collection_times": "Mo-Fr 15:00; Sa 12:00", "name": "USPS COLLECTION BOX - BLUE BOX", "note": "ON 12/24 AND 12/31, THIS BOX MAY BE COLLECTED AS EARLY AS 12 NOON.", "ref": "8536400083"}, "type": "Feature"}
{"geometry": {"coordinates": [-114.625085, 32.687154], "type": "Point"}, "id": "qqu3nxmFTkhsX1ffv-qWApwAKO4=", "properties": {"@spider": "usps_collection_boxes", "addr:city": "YUMA", "addr:country": "US", "addr:full": "2222 S 4TH AVE", "addr:postcode": "85364", "addr:state": "AZ", "brand": "USPS", "collection_times": "Mo-Sa 15:30", "name": "USPS COLLECTION BOX - PO LOBBY", "note": "ON 12/24 AND 12/31, THIS BOX MAY BE COLLECTED AS EARLY AS 12 NOON.", "ref": "8536400084"}, "type": "Feature"}
{"geometry": {"coordinates": [-114.624655193, 32.686767807], "type": "Point"}, "id": "DWczp7DW58s_j6BlQgIG3P5IqB8=", "properties": {"@spider": "usps_collection_boxes", "addr:city": "YUMA", "addr:country": "US", "addr:full": "2222 S 4TH AVE", "addr:postcode": "85364", "addr:state": "AZ", "brand": "USPS", "collection_times": "Mo-Sa 15:30", "name": "USPS COLLECTION BOX - PO LOBBY", "note": "ON 12/24 AND 12/31, THIS BOX MAY BE COLLECTED AS EARLY AS 12 NOON.", "ref": "8536400090"}, "type": "Feature"}
{"geometry": {"coordinates": [-114.625791306, 32.706972], "type": "Point"}, "id": "iogZ7akS6u8LTNztVMynY6pwB7c=", "properties": {"@spider": "usps_collection_boxes", "addr:city": "YUMA", "addr:country": "US", "addr:full": "1107 S 5TH AVE", "addr:postcode": "85364", "addr:state": "AZ", "brand": "USPS", "collection_times": "Mo-Fr 15:30", "name": "USPS COLLECTION BOX - PO LOBBY", "note": "ON 12/24 AND 12/31, THIS BOX MAY BE COLLECTED AS EARLY AS 12 NOON.", "ref": "8536400091"}, "type": "Feature"}
{"geometry": {"coordinates": [-114.581098, 32.656091], "type": "Point"}, "id": "yTaifixaUGBxHHQrhoWdO1wxx-0=", "properties": {"@spider": "usps_collection_boxes", "addr:city": "YUMA", "addr:country": "US", "addr:full": "3939 S AVENUE 3 E", "addr:postcode": "85365", "addr:state": "AZ", "brand": "USPS", "collection_times": "Mo-Fr 15:30; Sa 14:30", "name": "USPS COLLECTION BOX - BLUE BOX", "note": "ON 12/24 AND 12/31, THIS BOX MAY BE COLLECTED AS EARLY AS 12 NOON.", "ref": "8536500001"}, "type": "Feature"}
{"geometry": {"coordinates": [-114.600647, 32.675749], "type": "Point"}, "id": "E0fV9Bql5sCjrpKi4CuNOovmJ7Q=", "properties": {"@spider": "usps_collection_boxes", "addr:city": "YUMA", "addr:country": "US", "addr:full": "2850 S PACIFIC AVE", "addr:postcode": "85365", "addr:state": "AZ", "brand": "USPS", "collection_times": "Mo-Sa 09:00", "name": "USPS COLLECTION BOX - BLUE BOX", "ref": "8536500004"}, "type": "Feature"}
{"geometry": {"coordinates": [-114.624516, 32.658967], "type": "Point"}, "id": "1Myd2qbTzpKSq2Aq6g9TxXIn69k=", "properties": {"@spider": "usps_collection_boxes", "addr:city": "YUMA", "addr:country": "US", "addr:full": "3780 S 4TH AVE", "addr:postcode": "85365", "addr:state": "AZ", "brand": "USPS", "collection_times": "Mo-Sa 12:00", "name": "USPS COLLECTION BOX - BLUE BOX", "ref": "8536500013"}, "type": "Feature"}
{"geometry": {"coordinates": [-114.588289, 32.65554], "type": "Point"}, "id": "s-tuSpRjQU2R1gyDXi1lzMr6vBo=", "properties": {"@spider": "usps_collection_boxes", "addr:city": "YUMA", "addr:country": "US", "addr:full": "691 E QUILTER ST", "addr:postcode": "85365", "addr:state": "AZ", "brand": "USPS", "collection_times": "Mo-Fr 15:00; Sa 14:30", "name": "USPS COLLECTION BOX - BLUE BOX", "note": "ON 12/24 AND 12/31, THIS BOX MAY BE COLLECTED AS EARLY AS 12 NOON.", "ref": "8536500014"}, "type": "Feature"}
{"geometry": {"coordinates": [-114.586515, 32.658649], "type": "Point"}, "id": "K8ihk-NMjH2m6VITkSvt00RonpM=", "properties": {"@spider": "usps_collection_boxes", "addr:city": "YUMA", "addr:country": "US", "addr:full": "699 HART ST", "addr:postcode": "85365", "addr:state": "AZ", "brand": "USPS", "collection_times": "Mo-Fr 15:00; Sa 14:30", "name": "USPS COLLECTION BOX - BLUE BOX", "note": "ON 12/24 AND 12/31, THIS BOX MAY BE COLLECTED AS EARLY AS 12 NOON.", "ref": "8536500017"}, "type": "Feature"}
{"geometry": {"coordinates": [-114.4633115336, 32.9697188745], "type": "Point"}, "id": "YujMNstMW6tqnV0D1BF2GM9_13U=", "properties": {"@spider": "usps_collection_boxes", "addr:city": "YUMA", "addr:country": "US", "addr:full": "11176 N FISHERS LANDING RD", "addr:postcode": "85365", "addr:state": "AZ", "brand": "USPS", "collection_times": "Mo-Sa 11:00", "name": "USPS COLLECTION BOX - BLUE BOX", "ref": "8536500018"}, "type": "Feature"}
{"geometry": {"coordinates": [-114.442209, 32.863319], "type": "Point"}, "id": "SVKMDxP4pHOB5OXVneEAAAQFnr8=", "properties": {"@spider": "usps_collection_boxes", "addr:city": "YUMA", "addr:country": "US", "addr:full": "301 C ST", "addr:postcode": "85365", "addr:state": "AZ", "brand": "USPS", "collection_times": "Mo-Fr 15:00; Sa 14:00", "name": "USPS COLLECTION BOX - BLUE BOX", "note": "ON 12/24 AND 12/31, THIS BOX MAY BE COLLECTED AS EARLY AS 12 NOON.", "ref": "8536500019"}, "type": "Feature"}
{"geometry": {"coordinates": [-114.59032, 32.65542], "type": "Point"}, "id": "cH-uM_mYxP7e7_RNjZ02paQYdJc=", "properties": {"@spider": "usps_collection_boxes", "addr:city": "YUMA", "addr:country": "US", "addr:full": "691 E QUILTER ST", "addr:postcode": "85365", "addr:state": "AZ", "brand": "USPS", "collection_times": "Mo-Fr 15:00", "name": "USPS COLLECTION BOX - PO LOBBY", "note": "ON 12/24 AND 12/31, THIS BOX MAY BE COLLECTED AS EARLY AS 12 NOON.", "ref": "8536500026"}, "type": "Feature"}
{"geometry": {"coordinates": [-114.5206200027, 32.6707900002], "type": "Point"}, "id": "Su3O9gZ2Te2vsak0tEsh06C791Y=", "properties": {"@spider": "usps_collection_boxes", "addr:city": "YUMA", "addr:country": "US", "addr:full": "6544 E 32ND ST", "addr:postcode": "85365", "addr:state": "AZ", "brand": "USPS", "collection_times": "Mo-Sa 12:00", "name": "USPS COLLECTION BOX - BLUE BOX", "ref": "8536500029"}, "type": "Feature"}
{"geometry": {"coordinates": [-114.5342700622, 32.6699685123], "type": "Point"}, "id": "rnkFeLB7y9HBWXqslI89za4EC_U=", "properties": {"@spider": "usps_collection_boxes", "addr:city": "YUMA", "addr:country": "US", "addr:full": "5707 E 32ND ST", "addr:postcode": "85365", "addr:state": "AZ", "brand": "USPS", "collection_times": "Mo-Sa 11:30", "name": "USPS COLLECTION BOX - BLUE BOX", "ref": "8536500031"}, "type": "Feature"}
{"geometry": {"coordinates": [-114.5878305942, 32.656977], "type": "Point"}, "id": "O3vMpDHQGFVcGp3XOVUtmC38oag=", "properties": {"@spider": "usps_collection_boxes", "addr:city": "YUMA", "addr:country": "US", "addr:full": "2637 E QUILTER ST", "addr:postcode": "85365", "addr:state": "AZ", "brand": "USPS", "collection_times": "Mo-Fr 15:30", "name": "USPS COLLECTION BOX - PO LOBBY", "note": "ON 12/24 AND 12/31, THIS BOX MAY BE COLLECTED AS EARLY AS 12 NOON.", "ref": "8536500035"}, "type": "Feature"}
{"geometry": {"coordinates": [-114.410392, 32.667307], "type": "Point"}, "id": "vEZhW6jmDZytLHjIeKGdTZhqJK0=", "properties": {"@spider": "usps_collection_boxes", "addr:city": "YUMA", "addr:country": "US", "addr:full": "11242 S FOOTHILLS BLVD", "addr:postcode": "85367", "addr:state": "AZ", "brand": "USPS", "collection_times": "Mo-Sa 10:00", "name": "USPS COLLECTION BOX - BLUE BOX", "ref": "8536700002"}, "type": "Feature"}
{"geometry": {"coordinates": [-114.444425, 32.659648], "type": "Point"}, "id": "Y3Fc_wdPJz1FruWK7YYt2TzL8Dw=", "properties": {"@spider": "usps_collection_boxes", "addr:city": "YUMA", "addr:country": "US", "addr:full": "11692 S FORTUNA RD", "addr:postcode": "85367", "addr:state": "AZ", "brand": "USPS", "collection_times": "Mo-Fr 16:00; Sa 15:30", "name": "USPS COLLECTION BOX - BLUE BOX", "note": "ON 12/24 AND 12/31, THIS BOX MAY BE COLLECTED AS EARLY AS 12 NOON.", "ref": "8536700003"}, "type": "Feature"}
{"geometry": {"coordinates": [-114.444622, 32.65953], "type": "Point"}, "id": "_s05SYbu76j-nJBuzDbOq_MMrd0=", "properties": {"@spider": "usps_collection_boxes", "addr:city": "YUMA", "addr:country": "US", "addr:full": "11692 S FORTUNA RD", "addr:postcode": "85367", "addr:state": "AZ", "brand": "USPS", "collection_times": "Mo-Fr 16:00; Sa 15:30", "name": "USPS COLLECTION BOX - PO LOBBY", "note": "ON 12/24 AND 12/31, THIS BOX MAY BE COLLECTED AS EARLY AS 12 NOON.", "ref": "8536700004"}, "type": "Feature"}
{"geometry": {"coordinates": [-114.44763, 32.668209], "type": "Point"}, "id": "2w3i3qao8IOdRf7RXAcLzWYuSU0=", "properties": {"@spider": "usps_collection_boxes", "addr:city": "YUMA", "addr:country": "US", "addr:full": "11274 S FORTUNA RD", "addr:postcode": "85367", "addr:state": "AZ", "brand": "USPS", "collection_times": "Mo-Sa 10:00", "name": "USPS COLLECTION BOX - BLUE BOX", "ref": "8536700005"}, "type": "Feature"}
{"geometry": {"coordinates": [-114.444144666, 32.659524], "type": "Point"}, "id": "jJ9d410ow_cewtKPSBBc9HHofXc=", "properties": {"@spider": "usps_collection_boxes", "addr:city": "YUMA", "addr:country": "US", "addr:full": "11692 S FORTUNA RD", "addr:postcode": "85367", "addr:state": "AZ", "brand": "USPS", "collection_times": "Mo-Fr 16:00", "name": "USPS COLLECTION BOX - PO LOBBY", "note": "ON 12/24 AND 12/31, THIS BOX MAY BE COLLECTED AS EARLY AS 12 NOON.", "ref": "8536700010"}, "type": "Feature"}
