{"geometry": {"coordinates": [-110.788711, 33.396313], "type": "Point"}, "id": "THazUuklfvTWJN0aO1BBgLyjGFM=", "properties": {"@spider": "usps_collection_boxes", "addr:city": "GLOBE", "addr:country": "US", "addr:full": "150 N PINE ST", "addr:postcode": "85501", "addr:state": "AZ", "brand": "USPS", "collection_times": "Mo-Sa 13:00", "name": "USPS COLLECTION BOX - BLUE BOX", "note": "ON 12/24 AND 12/31, THIS BOX MAY BE COLLECTED AS EARLY AS 12 NOON.", "ref": "8550100002"}, "type": "Feature"}
{"geometry": {"coordinates": [-110.771885, 33.39525], "type": "Point"}, "id": "9EiEtsSO9RhL3djoZfiHD565xz8=", "properties": {"@spider": "usps_collection_boxes", "addr:city": "GLOBE", "addr:country": "US", "addr:full": "1400 E ASH ST", "addr:postcode": "85501", "addr:state": "AZ", "brand": "USPS", "collection_times": "Mo-Sa 13:00", "name": "USPS COLLECTION BOX - BLUE BOX", "note": "ON 12/24 AND 12/31, THIS BOX MAY BE COLLECTED AS EARLY AS 12 NOON.", "ref": "8550100007"}, "type": "Feature"}
{"geometry": {"coordinates": [-110.771887, 33.395274], "type": "Point"}, "id": "-gE54tnfPeoBlRVgiFV-9P2QRS8=", "properties": {"@spider": "usps_collection_boxes", "addr:city": "GLOBE", "addr:country": "US", "addr:full": "1400 E ASH ST", "addr:postcode": "85501", "addr:state": "AZ", "brand": "USPS", "collection_times": "Mo-Sa 13:00", "name": "USPS COLLECTION BOX - BLUE BOX", "note": "ON 12/24 AND 12/31, THIS BOX MAY BE COLLECTED AS EARLY AS 12 NOON.", "ref": "8550100014"}, "type": "Feature"}
{"geometry": {"coordinates": [-110.785215, 33.395777], "type": "Point"}, "id": "xAPEkzbfZ_Uh4AmwPFbrY_0_kPI=", "properties": {"@spider": "usps_collection_boxes", "addr:city": "GLOBE", "addr:country": "US", "addr:full": "101 S HILL ST", "addr:postcode": "85501", "addr:state": "AZ", "brand": "USPS", "collection_times": "Mo-Fr 17:00; Sa 13:00", "name": "USPS COLLECTION BOX - BLUE BOX", "note": "ON 12/24 AND 12/31, THIS BOX MAY BE COLLECTED AS EARLY AS 12 NOON.", "ref": "8550100015"}, "type": "Feature"}
{"geometry": {"coordinates": [-110.785241, 33.395608], "type": "Point"}, "id": "zB2DKVofn1-5wakAfc2M1JJYLZs=", "properties": {"@spider": "usps_collection_boxes", "addr:city": "GLOBE", "addr:country": "US", "addr:full": "200 E SYCAMORE ST", "addr:postcode": "85501", "addr:state": "AZ", "brand": "USPS", "collection_times": "Mo-Fr 17:00; Sa 13:00", "name": "USPS COLLECTION BOX - BLUE BOX", "note": "ON 12/24 AND 12/31, THIS BOX MAY BE COLLECTED AS EARLY AS 12 NOON.", "ref": "8550100016"}, "type": "Feature"}
{"geometry": {"coordinates": [-110.785451, 33.395863], "type": "Point"}, "id": "hO71I_pl2pNzrFfZZt2SmScuWEk=", "properties": {"@spider": "usps_collection_boxes", "addr:city": "GLOBE", "addr:country": "US", "addr:full": "101 S HILL ST", "addr:postcode": "85501", "addr:state": "AZ", "brand": "USPS", "collection_times": "Mo-Fr 17:00; Sa 13:00", "name": "USPS COLLECTION BOX - PO LOBBY", "note": "ON 12/24 AND 12/31, THIS BOX MAY BE COLLECTED AS EARLY AS 12 NOON.", "ref": "8550100025"}, "type": "Feature"}
{"geometry": {"coordinates": [-110.825683, 33.40668], "type": "Point"}, "id": "uHCsLaQ59OLq826O3168uwWbVe8=", "properties": {"@spider": "usps_collection_boxes", "addr:city": "GLOBE", "addr:country": "US", "addr:full": "5860 S HOSPITAL DR", "addr:postcode": "85501", "addr:state": "AZ", "brand": "USPS", "collection_times": "Mo-Sa 09:00", "name": "USPS COLLECTION BOX - BLUE BOX", "ref": "8550100026"}, "type": "Feature"}
{"geometry": {"coordinates": [-110.785804644, 33.395787262], "type": "Point"}, "id": "0wZ4D2Bj6GanMosBuWSu3W0YVho=", "properties": {"@spider": "usps_collection_boxes", "addr:city": "GLOBE", "addr:country": "US", "addr:full": "101 S HILL ST", "addr:postcode": "85501", "addr:state": "AZ", "brand": "USPS", "collection_times": "Mo-Fr 17:00", "name": "USPS COLLECTION BOX - PO LOBBY", "note": "ON 12/24 AND 12/31, THIS BOX MAY BE COLLECTED AS EARLY AS 12 NOON.", "ref": "8550100029"}, "type": "Feature"}
{"geometry": {"coordinates": [-110.843234, 33.410601], "type": "Point"}, "id": "x3fbs8Y7I0jbh5ruk_0UVGuYFJo=", "properties": {"@spider": "usps_collection_boxes", "addr:city": "CLAYPOOL", "addr:country": "US", "addr:full": "4281 E BROADWAY", "addr:postcode": "85532", "addr:state": "AZ", "brand": "USPS", "collection_times": "Mo-Fr 16:30; Sa 11:00", "name": "USPS COLLECTION BOX - BLUE BOX", "note": "ON 12/24 AND 12/31, THIS BOX MAY BE COLLECTED AS EARLY AS 12 NOON.", "ref": "8553200002"}, "type": "Feature"}
{"geometry": {"coordinates": [-110.843234, 33.410601], "type": "Point"}, "id": "uypJmZzU4mAD6W_KMWRz8LhMc-8=", "properties": {"@spider": "usps_collection_boxes", "addr:city": "CLAYPOOL", "addr:country": "US", "addr:full": "4281 E BROADWAY", "addr:postcode": "85532", "addr:state": "AZ", "brand": "USPS", "collection_times": "Mo-Fr 16:30; Sa 11:00", "name": "USPS COLLECTION BOX - PO LOBBY", "note": "ON 12/24 AND 12/31, THIS BOX MAY BE COLLECTED AS EARLY AS 12 NOON.", "ref": "8553200003"}, "type": "Feature"}
{"geometry": {"coordinates": [-110.843361304, 33.410586554], "type": "Point"}, "id": "ZKK45vnt2qEZ94yRB9pWU4cPrAo=", "properties": {"@spider": "usps_collection_boxes", "addr:city": "CLAYPOOL", "addr:country": "US", "addr:full": "4281 E BROADWAY", "addr:postcode": "85532", "addr:state": "AZ", "brand": "USPS", "collection_times": "Mo-Fr 16:30", "name": "USPS COLLECTION BOX - PO LOBBY", "note": "ON 12/24 AND 12/31, THIS BOX MAY BE COLLECTED AS EARLY AS 12 NOON.", "ref": "8553200004"}, "type": "Feature"}
{"geometry": {"coordinates": [-110.826552, 33.41605], "type": "Point"}, "id": "wwBXC1HYVooGe156z1bdgHp8HiY=", "properties": {"@spider": "usps_collection_boxes", "addr:city": "MIAMI", "addr:country": "US", "addr:full": "2250 HIGHWAY 60", "addr:postcode": "85539", "addr:state": "AZ", "brand": "USPS", "collection_times": "Mo-Fr 13:00; Sa 12:00", "name": "USPS COLLECTION BOX - BLUE BOX", "note": "ON 12/24 AND 12/31, THIS BOX MAY BE COLLECTED AS EARLY AS 12 NOON.", "ref": "8553900005"}, "type": "Feature"}
{"geometry": {"coordinates": [-110.86686, 33.40043], "type": "Point"}, "id": "6aIS1wummg7MJg0vca6v8u9wBrQ=", "properties": {"@spider": "usps_collection_boxes", "addr:city": "MIAMI", "addr:country": "US", "addr:full": "161 W LIVE OAK ST", "addr:postcode": "85539", "addr:state": "AZ", "brand": "USPS", "collection_times": "Mo-Fr 16:30; Sa 12:00", "name": "USPS COLLECTION BOX - PO LOBBY", "note": "ON 12/24 AND 12/31, THIS BOX MAY BE COLLECTED AS EARLY AS 12 NOON.", "ref": "8553900006"}, "type": "Feature"}
{"geometry": {"coordinates": [-110.816243, 33.420108], "type": "Point"}, "id": "UcZoKk8I4of7g3SZXnXklzWzBJo=", "properties": {"@spider": "usps_collection_boxes", "addr:city": "MIAMI", "addr:country": "US", "addr:full": "2115 HIGHWAY 60", "addr:postcode": "85539", "addr:state": "AZ", "brand": "USPS", "collection_times": "Mo-Fr 13:00; Sa 12:00", "name": "USPS COLLECTION BOX - BLUE BOX", "note": "ON 12/24 AND 12/31, THIS BOX MAY BE COLLECTED AS EARLY AS 12 NOON.", "ref": "8553900007"}, "type": "Feature"}
{"geometry": {"coordinates": [-110.867127376, 33.400802546], "type": "Point"}, "id": "pi9j2nAqIChp8P2ZzPRWn4razXg=", "properties": {"@spider": "usps_collection_boxes", "addr:city": "MIAMI", "addr:country": "US", "addr:full": "161 W LIVE OAK ST", "addr:postcode": "85539", "addr:state": "AZ", "brand": "USPS", "collection_times": "Mo-Fr 16:30", "name": "USPS COLLECTION BOX - PO LOBBY", "note": "ON 12/24 AND 12/31, THIS BOX MAY BE COLLECTED AS EARLY AS 12 NOON.", "ref": "8553900010"}, "type": "Feature"}
{"geometry": {"coordinates": [-111.454795, 34.386839], "type": "Point"}, "id": "wxDtyQdTOinF9jyJebBc-zFy4Ck=", "properties": {"@spider": "usps_collection_boxes", "addr:city": "PINE", "addr:country": "US", "addr:full": "3847 N HIGHWAY 87", "addr:postcode": "85544", "addr:state": "AZ", "brand": "USPS", "collection_times": "Mo-Fr 14:00; Sa 12:00", "name": "USPS COLLECTION BOX - BLUE BOX", "note": "ON 12/24 AND 12/31, THIS BOX MAY BE COLLECTED AS EARLY AS 12 NOON.", "ref": "8554400001"}, "type": "Feature"}
{"geometry": {"coordinates": [-111.454827, 34.38689], "type": "Point"}, "id": "XyLk7Z7hdEMALtbVTEa5XB23zEs=", "properties": {"@spider": "usps_collection_boxes", "addr:city": "PINE", "addr:country": "US", "addr:full": "3847 N HIGHWAY 87", "addr:postcode": "85544", "addr:state": "AZ", "brand": "USPS", "collection_times": "Mo-Fr 14:00; Sa 12:00", "name": "USPS COLLECTION BOX - PO LOBBY", "note": "ON 12/24 AND 12/31, THIS BOX MAY BE COLLECTED AS EARLY AS 12 NOON.", "ref": "8554400002"}, "type": "Feature"}
{"geometry": {"coordinates": [-111.454800212, 34.386795], "type": "Point"}, "id": "JIks_b3C5LByFi8W5Kzh8hBrHYM=", "properties": {"@spider": "usps_collection_boxes", "addr:city": "PINE", "addr:country": "US", "addr:full": "3847 N AZ HIGHWAY 87", "addr:postcode": "85544", "addr:state": "AZ", "brand": "USPS", "collection_times": "Mo-Fr 14:00", "name": "USPS COLLECTION BOX - PO LOBBY", "note": "ON 12/24 AND 12/31, THIS BOX MAY BE COLLECTED AS EARLY AS 12 NOON.", "ref": "8554400004"}, "type": "Feature"}
{"geometry": {"coordinates": [-111.006563998, 33.6019563], "type": "Point"}, "id": "0TOTJPslxcrA5YSJVCnrNJDP9_A=", "properties": {"@spider": "usps_collection_boxes", "addr:city": "ROOSEVELT", "addr:country": "US", "addr:full": "18762 N AZ HIGHWAY 188", "addr:postcode": "85545", "addr:state": "AZ", "brand": "USPS", "collection_times": "Mo-Fr 15:50; Sa 10:00", "name": "USPS COLLECTION BOX - BLUE BOX", "note": "ON 12/24 AND 12/31, THIS BOX MAY BE COLLECTED AS EARLY AS 12 NOON.", "ref": "8554500001"}, "type": "Feature"}
{"geometry": {"coordinates": [-111.006563998, 33.6019563], "type": "Point"}, "id": "2EoboXSL44F9UIjPnM1eFVzcAT0=", "properties": {"@spider": "usps_collection_boxes", "addr:city": "ROOSEVELT", "addr:country": "US", "addr:full": "18762 N AZ HIGHWAY 188", "addr:postcode": "85545", "addr:state": "AZ", "brand": "USPS", "collection_times": "Mo-Fr 15:50; Sa 10:00", "name": "USPS COLLECTION BOX - PO LOBBY", "note": "ON 12/24 AND 12/31, THIS BOX MAY BE COLLECTED AS EARLY AS 12 NOON.", "ref": "8554500002"}, "type": "Feature"}
{"geometry": {"coordinates": [-111.006563998, 33.6019563], "type": "Point"}, "id": "tBOXTTG6kOrFnRDsoVdB3AmxnRY=", "properties": {"@spider": "usps_collection_boxes", "addr:city": "ROOSEVELT", "addr:country": "US", "addr:full": "18762 N AZ HIGHWAY 188", "addr:postcode": "85545", "addr:state": "AZ", "brand": "USPS", "collection_times": "Mo-Fr 15:45", "name": "USPS COLLECTION BOX - PO LOBBY", "note": "ON 12/24 AND 12/31, THIS BOX MAY BE COLLECTED AS EARLY AS 12 NOON.", "ref": "8554500003"}, "type": "Feature"}
{"geometry": {"coordinates": [-111.3147872151, 33.8762625715], "type": "Point"}, "id": "wOLYIBbQHxc4eZsDmLKCooywEmY=", "properties": {"@spider": "usps_collection_boxes", "addr:city": "TONTO BASIN", "addr:country": "US", "addr:full": "77 OLD HIGHWAY 188", "addr:postcode": "85553", "addr:state": "AZ", "brand": "USPS", "collection_times": "Mo-Fr 15:20; Sa 09:15", "name": "USPS COLLECTION BOX - BLUE BOX", "note": "ON 12/24 AND 12/31, THIS BOX MAY BE COLLECTED AS EARLY AS 12 NOON.", "ref": "8555300001"}, "type": "Feature"}
{"geometry": {"coordinates": [-111.3147872151, 33.8762625715], "type": "Point"}, "id": "Cf9PtQaH57lroSU45fivi3c26gM=", "properties": {"@spider": "usps_collection_boxes", "addr:city": "TONTO BASIN", "addr:country": "US", "addr:full": "77 OLD HIGHWAY 188", "addr:postcode": "85553", "addr:state": "AZ", "brand": "USPS", "collection_times": "Mo-Fr 15:20; Sa 09:15", "name": "USPS COLLECTION BOX - BLUE BOX", "note": "ON 12/24 AND 12/31, THIS BOX MAY BE COLLECTED AS EARLY AS 12 NOON.", "ref": "8555300002"}, "type": "Feature"}
{"geometry": {"coordinates": [-111.3147872151, 33.8762625715], "type": "Point"}, "id": "X2ffSWupzIaQ4p3yAEB7y0kcFB4=", "properties": {"@spider": "usps_collection_boxes", "addr:city": "TONTO BASIN", "addr:country": "US", "addr:full": "77 OLD HIGHWAY 188", "addr:postcode": "85553", "addr:state": "AZ", "brand": "USPS", "collection_times": "Mo-Fr 15:15", "name": "USPS COLLECTION BOX - PO LOBBY", "note": "ON 12/24 AND 12/31, THIS BOX MAY BE COLLECTED AS EARLY AS 12 NOON.", "ref": "8555300003"}, "type": "Feature"}
