{"geometry": {"coordinates": [-111.3315879971, 31.5748665284], "type": "Point"}, "id": "qexvoM3aQanIDM7RBbODd8JR83U=", "properties": {"@spider": "usps_collection_boxes", "addr:city": "ARIVACA", "addr:country": "US", "addr:full": "17245 W 5TH ST", "addr:postcode": "85601", "addr:state": "AZ", "brand": "USPS", "collection_times": "Mo-Sa 10:30", "name": "USPS COLLECTION BOX - BLUE BOX", "ref": "8560100001"}, "type": "Feature"}
{"geometry": {"coordinates": [-111.3315879971, 31.5748665284], "type": "Point"}, "id": "OIrPMtNkDMRxvv95tAw4GkTk9fo=", "properties": {"@spider": "usps_collection_boxes", "addr:city": "ARIVACA", "addr:country": "US", "addr:full": "17245 W 5TH ST", "addr:postcode": "85601", "addr:state": "AZ", "brand": "USPS", "collection_times": "Mo-Sa 10:30", "name": "USPS COLLECTION BOX - PO LOBBY", "ref": "8560100002"}, "type": "Feature"}
{"geometry": {"coordinates": [-111.3315879971, 31.5748665284], "type": "Point"}, "id": "Ig12lu02UpA4DzWSCqDOv2_mxe8=", "properties": {"@spider": "usps_collection_boxes", "addr:city": "ARIVACA", "addr:country": "US", "addr:full": "17245 W 5TH ST", "addr:postcode": "85601", "addr:state": "AZ", "brand": "USPS", "collection_times": "Mo-Fr 10:30", "name": "USPS COLLECTION BOX - PO LOBBY", "ref": "8560100003"}, "type": "Feature"}
{"geometry": {"coordinates": [-110.356679, 31.548675], "type": "Point"}, "id": "HpYPrRQh_IQudPVc25N0otHYWdk=", "properties": {"@spider": "usps_collection_boxes", "addr:city": "FORT HUACHUCA", "addr:country": "US", "addr:full": "47 ARIZONA ST", "addr:postcode": "85613", "addr:state": "AZ", "brand": "USPS", "collection_times": "Mo-Fr 11:00; Sa 11:30", "name": "USPS COLLECTION BOX - PO LOBBY", "ref": "8561300006"}, "type": "Feature"}
{"geometry": {"coordinates": [-110.3567037337, 31.5486432768], "type": "Point"}, "id": "9gHqnFQ7kRvS7gJwC8IgTmCKLLM=", "properties": {"@spider": "usps_collection_boxes", "addr:city": "FORT HUACHUCA", "addr:country": "US", "addr:full": "47 ARIZONA ST", "addr:postcode": "85613", "addr:state": "AZ", "brand": "USPS", "collection_times": "Mo-Fr 11:00", "name": "USPS COLLECTION BOX - PO LOBBY", "ref": "8561300009"}, "type": "Feature"}
{"geometry": {"coordinates": [-110.247788, 31.437558], "type": "Point"}, "id": "XzJAne7wjlA_ZFIRvtdMM4-CVXU=", "properties": {"@spider": "usps_collection_boxes", "addr:city": "HEREFORD", "addr:country": "US", "addr:full": "7268 S HIGHWAY 92", "addr:postcode": "85615", "addr:state": "AZ", "brand": "USPS", "collection_times": "Mo-Sa 14:45", "name": "USPS COLLECTION BOX - BLUE BOX", "note": "ON 12/24 AND 12/31, THIS BOX MAY BE COLLECTED AS EARLY AS 12 NOON.", "ref": "8561500001"}, "type": "Feature"}
{"geometry": {"coordinates": [-110.247788, 31.437596], "type": "Point"}, "id": "UsZUOd8jVN2DQxDHHGRf9lx1DwU=", "properties": {"@spider": "usps_collection_boxes", "addr:city": "HEREFORD", "addr:country": "US", "addr:full": "7268 S HIGHWAY 92", "addr:postcode": "85615", "addr:state": "AZ", "brand": "USPS", "collection_times": "Mo-Sa 14:45", "name": "USPS COLLECTION BOX - PO LOBBY", "note": "ON 12/24 AND 12/31, THIS BOX MAY BE COLLECTED AS EARLY AS 12 NOON.", "ref": "8561500003"}, "type": "Feature"}
{"geometry": {"coordinates": [-110.24781975, 31.437577951], "type": "Point"}, "id": "cu5S4IL8fY1cBTdtOUBySziAzDQ=", "properties": {"@spider": "usps_collection_boxes", "addr:city": "HEREFORD", "addr:country": "US", "addr:full": "7268 S HIGHWAY 92", "addr:postcode": "85615", "addr:state": "AZ", "brand": "USPS", "collection_times": "Mo-Fr 14:45", "name": "USPS COLLECTION BOX - PO LOBBY", "note": "ON 12/24 AND 12/31, THIS BOX MAY BE COLLECTED AS EARLY AS 12 NOON.", "ref": "8561500004"}, "type": "Feature"}
{"geometry": {"coordinates": [-110.937480886, 31.337593985], "type": "Point"}, "id": "VgM3mHVHrfmt6mBZ53OSU0y881Y=", "properties": {"@spider": "usps_collection_boxes", "addr:city": "NOGALES", "addr:country": "US", "addr:full": "300 N MORLEY AVE", "addr:postcode": "85621", "addr:state": "AZ", "brand": "USPS", "collection_times": "Mo-Sa 14:30", "name": "USPS COLLECTION BOX - BLUE BOX", "note": "ON 12/24 AND 12/31, THIS BOX MAY BE COLLECTED AS EARLY AS 12 NOON.", "ref": "8562100003"}, "type": "Feature"}
{"geometry": {"coordinates": [-110.931973, 31.369417], "type": "Point"}, "id": "FqEhMuP51mHCQl1tnqswUu8ippU=", "properties": {"@spider": "usps_collection_boxes", "addr:city": "NOGALES", "addr:country": "US", "addr:full": "2077 N GRAND AVE", "addr:postcode": "85621", "addr:state": "AZ", "brand": "USPS", "collection_times": "Mo-Sa 12:00", "name": "USPS COLLECTION BOX - BLUE BOX", "ref": "8562100012"}, "type": "Feature"}
{"geometry": {"coordinates": [-110.941022, 31.364471], "type": "Point"}, "id": "Y9Lpn3gYUDcbNPg0lihOFzXWYDk=", "properties": {"@spider": "usps_collection_boxes", "addr:city": "NOGALES", "addr:country": "US", "addr:full": "475 W MARIPOSA RD", "addr:postcode": "85621", "addr:state": "AZ", "brand": "USPS", "collection_times": "Mo-Sa 12:00", "name": "USPS COLLECTION BOX - BLUE BOX", "ref": "8562100015"}, "type": "Feature"}
{"geometry": {"coordinates": [-110.933998, 31.365996], "type": "Point"}, "id": "_7f9I8a43d5VGTJsa7TguxJJccM=", "properties": {"@spider": "usps_collection_boxes", "addr:city": "NOGALES", "addr:country": "US", "addr:full": "1857 N MASTICK WAY", "addr:postcode": "85621", "addr:state": "AZ", "brand": "USPS", "collection_times": "Mo-Sa 12:00", "name": "USPS COLLECTION BOX - BLUE BOX", "ref": "8562100016"}, "type": "Feature"}
{"geometry": {"coordinates": [-110.9460297588, 31.3843116829], "type": "Point"}, "id": "2zpGGHfUtEQ9BGJfOZ25YrjFWVk=", "properties": {"@spider": "usps_collection_boxes", "addr:city": "NOGALES", "addr:country": "US", "addr:full": "555 W GOLD HILL RD", "addr:postcode": "85621", "addr:state": "AZ", "brand": "USPS", "collection_times": "Mo-Fr 12:00", "name": "USPS COLLECTION BOX - BLUE BOX", "ref": "8562100022"}, "type": "Feature"}
{"geometry": {"coordinates": [-110.939054, 31.367158], "type": "Point"}, "id": "WSV1VR-QQ7mjGNQsOJQaKk-IUxc=", "properties": {"@spider": "usps_collection_boxes", "addr:city": "NOGALES", "addr:country": "US", "addr:full": "420 W MARIPOSA RD", "addr:postcode": "85621", "addr:state": "AZ", "brand": "USPS", "collection_times": "Mo-Sa 12:00", "name": "USPS COLLECTION BOX - BLUE BOX", "ref": "8562100023"}, "type": "Feature"}
{"geometry": {"coordinates": [-110.950911, 31.358623], "type": "Point"}, "id": "22KW4XeJXkR3dKHkz3gS0JGKUK8=", "properties": {"@spider": "usps_collection_boxes", "addr:city": "NOGALES", "addr:country": "US", "addr:full": "1440 N INDUSTRIAL PARK DR", "addr:postcode": "85621", "addr:state": "AZ", "brand": "USPS", "collection_times": "Mo-Sa 12:00", "name": "USPS COLLECTION BOX - BLUE BOX", "ref": "8562100030"}, "type": "Feature"}
{"geometry": {"coordinates": [-110.9383581349, 31.3394316684], "type": "Point"}, "id": "zsmM1LIY3BQQSHE9ziMHk0ifaXU=", "properties": {"@spider": "usps_collection_boxes", "addr:city": "NOGALES", "addr:country": "US", "addr:full": "441 N GRAND AVE", "addr:postcode": "85621", "addr:state": "AZ", "brand": "USPS", "collection_times": "Mo-Sa 12:00", "name": "USPS COLLECTION BOX - BLUE BOX", "ref": "8562100035"}, "type": "Feature"}
{"geometry": {"coordinates": [-110.940038, 31.372222], "type": "Point"}, "id": "t3QiVDjcyKJ0uODvBVO3y54BmY4=", "properties": {"@spider": "usps_collection_boxes", "addr:city": "NOGALES", "addr:country": "US", "addr:full": "2100 N CONGRESS DR", "addr:postcode": "85621", "addr:state": "AZ", "brand": "USPS", "collection_times": "Mo-Fr 12:00", "name": "USPS COLLECTION BOX - BLUE BOX", "ref": "8562100037"}, "type": "Feature"}
{"geometry": {"coordinates": [-110.937480886, 31.337593985], "type": "Point"}, "id": "xO9qA4rvulvq7-CG2jniYZ0frYU=", "properties": {"@spider": "usps_collection_boxes", "addr:city": "NOGALES", "addr:country": "US", "addr:full": "300 N MORLEY AVE", "addr:postcode": "85621", "addr:state": "AZ", "brand": "USPS", "collection_times": "Mo-Sa 14:30", "name": "USPS COLLECTION BOX - PO LOBBY", "note": "ON 12/24 AND 12/31, THIS BOX MAY BE COLLECTED AS EARLY AS 12 NOON.", "ref": "8562100038"}, "type": "Feature"}
{"geometry": {"coordinates": [-110.936249, 31.366339], "type": "Point"}, "id": "86GD8XfqnxpdcTxOqmgBStHnT7w=", "properties": {"@spider": "usps_collection_boxes", "addr:city": "NOGALES", "addr:country": "US", "addr:full": "321 W MARIPOSA RD", "addr:postcode": "85621", "addr:state": "AZ", "brand": "USPS", "collection_times": "Mo-Sa 12:00", "name": "USPS COLLECTION BOX - BLUE BOX", "ref": "8562100040"}, "type": "Feature"}
{"geometry": {"coordinates": [-110.937480886, 31.337593985], "type": "Point"}, "id": "yPJ3BRFQoWR51fHB-2sGDIsywko=", "properties": {"@spider": "usps_collection_boxes", "addr:city": "NOGALES", "addr:country": "US", "addr:full": "300 N MORLEY AVE", "addr:postcode": "85621", "addr:state": "AZ", "brand": "USPS", "collection_times": "Mo-Sa 14:30", "name": "USPS COLLECTION BOX - PO LOBBY", "note": "ON 12/24 AND 12/31, THIS BOX MAY BE COLLECTED AS EARLY AS 12 NOON.", "ref": "8562100042"}, "type": "Feature"}
{"geometry": {"coordinates": [-110.74971, 31.548042], "type": "Point"}, "id": "pnvz5ek1krP9Zr-2bSzx4W4jPGc=", "properties": {"@spider": "usps_collection_boxes", "addr:city": "PATAGONIA", "addr:country": "US", "addr:full": "100 N TAYLOR LN", "addr:postcode": "85624", "addr:state": "AZ", "brand": "USPS", "collection_times": "Mo-Fr 14:00; Sa 12:00", "name": "USPS COLLECTION BOX - BLUE BOX", "note": "ON 12/24 AND 12/31, THIS BOX MAY BE COLLECTED AS EARLY AS 12 NOON.", "ref": "8562400001"}, "type": "Feature"}
{"geometry": {"coordinates": [-110.749787, 31.548032], "type": "Point"}, "id": "mk5gj9-FXecDxXV8l5SNVXkFbdE=", "properties": {"@spider": "usps_collection_boxes", "addr:city": "PATAGONIA", "addr:country": "US", "addr:full": "100 N TAYLOR LN", "addr:postcode": "85624", "addr:state": "AZ", "brand": "USPS", "collection_times": "Mo-Fr 14:00; Sa 12:00", "name": "USPS COLLECTION BOX - PO LOBBY", "note": "ON 12/24 AND 12/31, THIS BOX MAY BE COLLECTED AS EARLY AS 12 NOON.", "ref": "8562400002"}, "type": "Feature"}
{"geometry": {"coordinates": [-110.751531563, 31.54119679], "type": "Point"}, "id": "urj634wP2RmnR_jHo8RIInMoaeU=", "properties": {"@spider": "usps_collection_boxes", "addr:city": "PATAGONIA", "addr:country": "US", "addr:full": "100 N TAYLOR LN", "addr:postcode": "85624", "addr:state": "AZ", "brand": "USPS", "collection_times": "Mo-Fr 14:00", "name": "USPS COLLECTION BOX - PO LOBBY", "note": "ON 12/24 AND 12/31, THIS BOX MAY BE COLLECTED AS EARLY AS 12 NOON.", "ref": "8562400003"}, "type": "Feature"}
{"geometry": {"coordinates": [-111.542611, 31.488745], "type": "Point"}, "id": "ZvY8rJqiXN9hrUriLOjK_Jo78mo=", "properties": {"@spider": "usps_collection_boxes", "addr:city": "SASABE", "addr:country": "US", "addr:full": "41918 S SASABE HWY", "addr:postcode": "85633", "addr:state": "AZ", "brand": "USPS", "collection_times": "Mo-Fr 11:15", "name": "USPS COLLECTION BOX - BLUE BOX", "ref": "8563300001"}, "type": "Feature"}
{"geometry": {"coordinates": [-111.542576, 31.488759], "type": "Point"}, "id": "bIp8r9zw__tLRgIjyCSrhM2To6Y=", "properties": {"@spider": "usps_collection_boxes", "addr:city": "SASABE", "addr:country": "US", "addr:full": "41918 S SASABE HWY", "addr:postcode": "85633", "addr:state": "AZ", "brand": "USPS", "collection_times": "Mo-Fr 11:15", "name": "USPS COLLECTION BOX - PO LOBBY", "ref": "8563300002"}, "type": "Feature"}
{"geometry": {"coordinates": [-111.542790344, 31.48796932], "type": "Point"}, "id": "goZtU9fxF6h_y7bBiIuBm9Xt1fY=", "properties": {"@spider": "usps_collection_boxes", "addr:city": "SASABE", "addr:country": "US", "addr:full": "41918 S SASABE HWY", "addr:postcode": "85633", "addr:state": "AZ", "brand": "USPS", "collection_times": "Mo-Fr 11:15", "name": "USPS COLLECTION BOX - PO LOBBY", "ref": "8563300004"}, "type": "Feature"}
{"geometry": {"coordinates": [-110.655782, 31.679812], "type": "Point"}, "id": "LHJ0FhO_dAJVxm7BI4akBK9sW48=", "properties": {"@spider": "usps_collection_boxes", "addr:city": "SONOITA", "addr:country": "US", "addr:full": "3166 HIGHWAY 83", "addr:postcode": "85637", "addr:state": "AZ", "brand": "USPS", "collection_times": "Mo-Fr 15:00; Sa 11:00", "name": "USPS COLLECTION BOX - BLUE BOX", "note": "ON 12/24 AND 12/31, THIS BOX MAY BE COLLECTED AS EARLY AS 12 NOON.", "ref": "8563700001"}, "type": "Feature"}
{"geometry": {"coordinates": [-110.656706, 31.67977], "type": "Point"}, "id": "-lr2vezpboCEDrVs7b-kKQYj3lQ=", "properties": {"@spider": "usps_collection_boxes", "addr:city": "SONOITA", "addr:country": "US", "addr:full": "3166 HIGHWAY 83", "addr:postcode": "85637", "addr:state": "AZ", "brand": "USPS", "collection_times": "Mo-Fr 15:00; Sa 11:00", "name": "USPS COLLECTION BOX - PO LOBBY", "note": "ON 12/24 AND 12/31, THIS BOX MAY BE COLLECTED AS EARLY AS 12 NOON.", "ref": "8563700003"}, "type": "Feature"}
{"geometry": {"coordinates": [-110.655810592, 31.6798035], "type": "Point"}, "id": "pnIndVbevLwg_gh19S9UI-3uEno=", "properties": {"@spider": "usps_collection_boxes", "addr:city": "SONOITA", "addr:country": "US", "addr:full": "3166 HIGHWAY 83", "addr:postcode": "85637", "addr:state": "AZ", "brand": "USPS", "collection_times": "Mo-Fr 15:00", "name": "USPS COLLECTION BOX - PO LOBBY", "note": "ON 12/24 AND 12/31, THIS BOX MAY BE COLLECTED AS EARLY AS 12 NOON.", "ref": "8563700005"}, "type": "Feature"}
{"geometry": {"coordinates": [-111.82662, 31.814056], "type": "Point"}, "id": "DfANhBsOndwvPdVv1LKT-T4pkrM=", "properties": {"@spider": "usps_collection_boxes", "addr:city": "TOPAWA", "addr:country": "US", "addr:full": "1 MAIN ST", "addr:postcode": "85639", "addr:state": "AZ", "brand": "USPS", "collection_times": "Mo-Fr 09:00", "name": "USPS COLLECTION BOX - PO LOBBY", "ref": "8563900000"}, "type": "Feature"}
{"geometry": {"coordinates": [-111.767642556, 31.703745706], "type": "Point"}, "id": "a3JDrUGhnyCgHbQuOKMBXCIgn60=", "properties": {"@spider": "usps_collection_boxes", "addr:city": "TOPAWA", "addr:country": "US", "addr:full": "1 MAIN ST", "addr:postcode": "85639", "addr:state": "AZ", "brand": "USPS", "collection_times": "Mo-Fr 09:00", "name": "USPS COLLECTION BOX - PO LOBBY", "ref": "8563900001"}, "type": "Feature"}
{"geometry": {"coordinates": [-111.052121, 31.572744], "type": "Point"}, "id": "nG6EbTvStAhhBUw-wtQQE8NLfmE=", "properties": {"@spider": "usps_collection_boxes", "addr:city": "TUMACACORI", "addr:country": "US", "addr:full": "1910 E FRONTAGE RD", "addr:postcode": "85640", "addr:state": "AZ", "brand": "USPS", "collection_times": "Mo-Fr 15:15; Sa 09:45", "name": "USPS COLLECTION BOX - BLUE BOX", "note": "ON 12/24 AND 12/31, THIS BOX MAY BE COLLECTED AS EARLY AS 12 NOON.", "ref": "8564000001"}, "type": "Feature"}
{"geometry": {"coordinates": [-111.052086, 31.57271], "type": "Point"}, "id": "Jt7dqwPvTIy7gosb8S6fsER56EE=", "properties": {"@spider": "usps_collection_boxes", "addr:city": "TUMACACORI", "addr:country": "US", "addr:full": "1910 E FRONTAGE RD", "addr:postcode": "85640", "addr:state": "AZ", "brand": "USPS", "collection_times": "Mo-Fr 15:15; Sa 09:45", "name": "USPS COLLECTION BOX - PO LOBBY", "note": "ON 12/24 AND 12/31, THIS BOX MAY BE COLLECTED AS EARLY AS 12 NOON.", "ref": "8564000002"}, "type": "Feature"}
{"geometry": {"coordinates": [-111.051861644, 31.569993129], "type": "Point"}, "id": "sBRNp79eVsmUIrzCmy_qUPu8an8=", "properties": {"@spider": "usps_collection_boxes", "addr:city": "TUMACACORI", "addr:country": "US", "addr:full": "1910 E FRONTAGE RD", "addr:postcode": "85640", "addr:state": "AZ", "brand": "USPS", "collection_times": "Mo-Fr 15:15", "name": "USPS COLLECTION BOX - PO LOBBY", "note": "ON 12/24 AND 12/31, THIS BOX MAY BE COLLECTED AS EARLY AS 12 NOON.", "ref": "8564000003"}, "type": "Feature"}
{"geometry": {"coordinates": [-111.059306, 31.730601], "type": "Point"}, "id": "l00vRYXkWFeenPjEjX9gCIN5JRQ=", "properties": {"@spider": "usps_collection_boxes", "addr:city": "AMADO", "addr:country": "US", "addr:full": "28661 S NOGALES HWY", "addr:postcode": "85645", "addr:state": "AZ", "brand": "USPS", "collection_times": "Mo-Fr 13:45; Sa 09:15", "name": "USPS COLLECTION BOX - PO LOBBY", "note": "ON 12/24 AND 12/31, THIS BOX MAY BE COLLECTED AS EARLY AS 12 NOON.", "ref": "8564500000"}, "type": "Feature"}
{"geometry": {"coordinates": [-111.059417655, 31.730446909], "type": "Point"}, "id": "iF6fxygzyQZH_UyIi7El5onbBio=", "properties": {"@spider": "usps_collection_boxes", "addr:city": "AMADO", "addr:country": "US", "addr:full": "28661 S NOGALES HWY", "addr:postcode": "85645", "addr:state": "AZ", "brand": "USPS", "collection_times": "Mo-Fr 13:45", "name": "USPS COLLECTION BOX - PO LOBBY", "note": "ON 12/24 AND 12/31, THIS BOX MAY BE COLLECTED AS EARLY AS 12 NOON.", "ref": "8564500001"}, "type": "Feature"}
{"geometry": {"coordinates": [-111.053882, 31.624107], "type": "Point"}, "id": "4Qa9vaAXafHYp8DgcR51-7XhFDs=", "properties": {"@spider": "usps_collection_boxes", "addr:city": "TUBAC", "addr:country": "US", "addr:full": "2255B E FRONTAGE RD", "addr:postcode": "85646", "addr:state": "AZ", "brand": "USPS", "collection_times": "Mo-Fr 14:45; Sa 09:30", "name": "USPS COLLECTION BOX - PO LOBBY", "note": "ON 12/24 AND 12/31, THIS BOX MAY BE COLLECTED AS EARLY AS 12 NOON.", "ref": "8564600000"}, "type": "Feature"}
{"geometry": {"coordinates": [-111.053863429, 31.624134226], "type": "Point"}, "id": "EUtCFJXpi1V--f1byRphRkypgZw=", "properties": {"@spider": "usps_collection_boxes", "addr:city": "TUBAC", "addr:country": "US", "addr:full": "2255B E FRONTAGE RD", "addr:postcode": "85646", "addr:state": "AZ", "brand": "USPS", "collection_times": "Mo-Fr 14:45", "name": "USPS COLLECTION BOX - PO LOBBY", "note": "ON 12/24 AND 12/31, THIS BOX MAY BE COLLECTED AS EARLY AS 12 NOON.", "ref": "8564600001"}, "type": "Feature"}
{"geometry": {"coordinates": [-110.999426, 31.470538], "type": "Point"}, "id": "WQXagCzHH4UP84ZSB1qDsHIBOV4=", "properties": {"@spider": "usps_collection_boxes", "addr:city": "RIO RICO", "addr:country": "US", "addr:full": "1163 W FRONTAGE RD", "addr:postcode": "85648", "addr:state": "AZ", "brand": "USPS", "collection_times": "Mo-Fr 15:00; Sa 14:00", "name": "USPS COLLECTION BOX - BLUE BOX", "note": "ON 12/24 AND 12/31, THIS BOX MAY BE COLLECTED AS EARLY AS 12 NOON.", "ref": "8564800001"}, "type": "Feature"}
{"geometry": {"coordinates": [-110.997236, 31.464306], "type": "Point"}, "id": "Cfk5xMYbK9c2uZHnghw5Ecnez2U=", "properties": {"@spider": "usps_collection_boxes", "addr:city": "RIO RICO", "addr:country": "US", "addr:full": "1060 YAVAPAI DR", "addr:postcode": "85648", "addr:state": "AZ", "brand": "USPS", "collection_times": "Mo-Sa 13:30", "name": "USPS COLLECTION BOX - BLUE BOX", "note": "ON 12/24 AND 12/31, THIS BOX MAY BE COLLECTED AS EARLY AS 12 NOON.", "ref": "8564800002"}, "type": "Feature"}
{"geometry": {"coordinates": [-110.999793, 31.470596], "type": "Point"}, "id": "aFYfBBWfd3URls0o7a26MI6z97U=", "properties": {"@spider": "usps_collection_boxes", "addr:city": "RIO RICO", "addr:country": "US", "addr:full": "1163 W FRONTAGE RD", "addr:postcode": "85648", "addr:state": "AZ", "brand": "USPS", "collection_times": "Mo-Fr 15:00", "name": "USPS COLLECTION BOX - PO LOBBY", "note": "ON 12/24 AND 12/31, THIS BOX MAY BE COLLECTED AS EARLY AS 12 NOON.", "ref": "8564800004"}, "type": "Feature"}
{"geometry": {"coordinates": [-110.961879, 31.430765], "type": "Point"}, "id": "MrPxt-0ueuTcFG0_U1eDH2qyppY=", "properties": {"@spider": "usps_collection_boxes", "addr:city": "RIO RICO", "addr:country": "US", "addr:full": "769 E FRONTAGE RD", "addr:postcode": "85648", "addr:state": "AZ", "brand": "USPS", "collection_times": "Mo-Sa 11:30", "name": "USPS COLLECTION BOX - BLUE BOX", "ref": "8564800005"}, "type": "Feature"}
{"geometry": {"coordinates": [-110.999959991, 31.470329492], "type": "Point"}, "id": "381gUrMaoO2wl9on1F8OJc5b4sg=", "properties": {"@spider": "usps_collection_boxes", "addr:city": "RIO RICO", "addr:country": "US", "addr:full": "1163 W FRONTAGE RD", "addr:postcode": "85648", "addr:state": "AZ", "brand": "USPS", "collection_times": "Mo-Fr 15:00", "name": "USPS COLLECTION BOX - PO LOBBY", "note": "ON 12/24 AND 12/31, THIS BOX MAY BE COLLECTED AS EARLY AS 12 NOON.", "ref": "8564800007"}, "type": "Feature"}
