{"geometry": {"coordinates": [-110.968590503, 32.220395497], "type": "Point"}, "id": "wDiug3OdJixe_md8kr6D-yB_q74=", "properties": {"@spider": "usps_collection_boxes", "addr:city": "TUCSON", "addr:country": "US", "addr:full": "141 S 6TH AVE", "addr:postcode": "85701", "addr:state": "AZ", "brand": "USPS", "collection_times": "Mo-Fr 17:00; Sa 14:30", "name": "USPS COLLECTION BOX - BLUE BOX", "note": "ON 12/24 AND 12/31, THIS BOX MAY BE COLLECTED AS EARLY AS 12 NOON.", "ref": "8570100002"}, "type": "Feature"}
{"geometry": {"coordinates": [-110.971326, 32.222462], "type": "Point"}, "id": "_gm-csz9PedzDwg9r_2pvke0O9I=", "properties": {"@spider": "usps_collection_boxes", "addr:city": "TUCSON", "addr:country": "US", "addr:full": "33 N STONE AVE", "addr:postcode": "85701", "addr:state": "AZ", "brand": "USPS", "collection_times": "Mo-Fr 14:15", "name": "USPS COLLECTION BOX - BLUE BOX", "note": "ON 12/24 AND 12/31, THIS BOX MAY BE COLLECTED AS EARLY AS 12 NOON.", "ref": "8570100005"}, "type": "Feature"}
{"geometry": {"coordinates": [-110.968590503, 32.220395497], "type": "Point"}, "id": "tijproRfW762-a5o5odGl6eizlY=", "properties": {"@spider": "usps_collection_boxes", "addr:city": "TUCSON", "addr:country": "US", "addr:full": "141 S 6TH AVE", "addr:postcode": "85701", "addr:state": "AZ", "brand": "USPS", "collection_times": "Mo-Fr 16:00", "name": "USPS COLLECTION BOX - EXPRESS", "note": "ON 12/24 AND 12/31, THIS BOX MAY BE COLLECTED AS EARLY AS 12 NOON.", "ref": "8570100007"}, "type": "Feature"}
{"geometry": {"coordinates": [-110.972749, 32.22629], "type": "Point"}, "id": "W62E9rLkZg0ftY03nz55bWWe5N4=", "properties": {"@spider": "usps_collection_boxes", "addr:city": "TUCSON", "addr:country": "US", "addr:full": "70 W FRANKLIN ST", "addr:postcode": "85701", "addr:state": "AZ", "brand": "USPS", "collection_times": "Mo-Fr 13:45", "name": "USPS COLLECTION BOX - BLUE BOX", "note": "ON 12/24 AND 12/31, THIS BOX MAY BE COLLECTED AS EARLY AS 12 NOON.", "ref": "8570100014"}, "type": "Feature"}
{"geometry": {"coordinates": [-110.971486, 32.222526], "type": "Point"}, "id": "Hz4i3emYnGnu4UDVDLTVTnNFaSU=", "properties": {"@spider": "usps_collection_boxes", "addr:city": "TUCSON", "addr:country": "US", "addr:full": "32 N STONE AVE", "addr:postcode": "85701", "addr:state": "AZ", "brand": "USPS", "collection_times": "Mo-Fr 14:30", "name": "USPS COLLECTION BOX - BLUE BOX", "note": "ON 12/24 AND 12/31, THIS BOX MAY BE COLLECTED AS EARLY AS 12 NOON.", "ref": "8570100017"}, "type": "Feature"}
{"geometry": {"coordinates": [-110.978241, 32.22722], "type": "Point"}, "id": "ISmG64gCTCtD6mthmTXYxxhuSaY=", "properties": {"@spider": "usps_collection_boxes", "addr:city": "TUCSON", "addr:country": "US", "addr:full": "461 N GRANADA AVE", "addr:postcode": "85701", "addr:state": "AZ", "brand": "USPS", "collection_times": "Mo-Fr 13:30", "name": "USPS COLLECTION BOX - BLUE BOX", "note": "ON 12/24 AND 12/31, THIS BOX MAY BE COLLECTED AS EARLY AS 12 NOON.", "ref": "8570100018"}, "type": "Feature"}
{"geometry": {"coordinates": [-110.968590503, 32.220395497], "type": "Point"}, "id": "DTyJuBjIzIyNBF1RJOnTtwfefIU=", "properties": {"@spider": "usps_collection_boxes", "addr:city": "TUCSON", "addr:country": "US", "addr:full": "141 S 6TH AVE", "addr:postcode": "85701", "addr:state": "AZ", "brand": "USPS", "collection_times": "Mo-Fr 17:00; Sa 14:30", "name": "USPS COLLECTION BOX - BLUE BOX", "note": "ON 12/24 AND 12/31, THIS BOX MAY BE COLLECTED AS EARLY AS 12 NOON.", "ref": "8570100020"}, "type": "Feature"}
{"geometry": {"coordinates": [-110.97477, 32.224487], "type": "Point"}, "id": "blzfdtia47mKnfn7lImKuVcv_eY=", "properties": {"@spider": "usps_collection_boxes", "addr:city": "TUCSON", "addr:country": "US", "addr:full": "239 N MEYER AVE", "addr:postcode": "85701", "addr:state": "AZ", "brand": "USPS", "collection_times": "Mo-Fr 13:45", "name": "USPS COLLECTION BOX - BLUE BOX", "note": "ON 12/24 AND 12/31, THIS BOX MAY BE COLLECTED AS EARLY AS 12 NOON.", "ref": "8570100024"}, "type": "Feature"}
{"geometry": {"coordinates": [-110.975212, 32.221538], "type": "Point"}, "id": "WLf4n2a7qsOyPi1lR8phRi0YXRU=", "properties": {"@spider": "usps_collection_boxes", "addr:city": "TUCSON", "addr:country": "US", "addr:full": "300 W CONGRESS ST", "addr:postcode": "85701", "addr:state": "AZ", "brand": "USPS", "collection_times": "Mo-Fr 14:30", "name": "USPS COLLECTION BOX - BLUE BOX", "note": "ON 12/24 AND 12/31, THIS BOX MAY BE COLLECTED AS EARLY AS 12 NOON.", "ref": "8570100025"}, "type": "Feature"}
{"geometry": {"coordinates": [-110.971151, 32.221869], "type": "Point"}, "id": "IVld5kuMq_ge8BFheuj2UEanZsQ=", "properties": {"@spider": "usps_collection_boxes", "addr:city": "TUCSON", "addr:country": "US", "addr:full": "2 E CONGRESS ST", "addr:postcode": "85701", "addr:state": "AZ", "brand": "USPS", "collection_times": "Mo-Fr 14:45", "name": "USPS COLLECTION BOX - BLUE BOX", "note": "ON 12/24 AND 12/31, THIS BOX MAY BE COLLECTED AS EARLY AS 12 NOON.", "ref": "8570100028"}, "type": "Feature"}
{"geometry": {"coordinates": [-110.976503, 32.220167], "type": "Point"}, "id": "8dLySB3h9-eNtHimzNYzAjZuw0M=", "properties": {"@spider": "usps_collection_boxes", "addr:city": "TUCSON", "addr:country": "US", "addr:full": "405 W CONGRESS ST", "addr:postcode": "85701", "addr:state": "AZ", "brand": "USPS", "collection_times": "Mo-Fr 14:30", "name": "USPS COLLECTION BOX - BLUE BOX", "note": "ON 12/24 AND 12/31, THIS BOX MAY BE COLLECTED AS EARLY AS 12 NOON.", "ref": "8570100038"}, "type": "Feature"}
{"geometry": {"coordinates": [-110.9724997547, 32.2169330839], "type": "Point"}, "id": "leDzILcJuamhic4h_cDV3WMexS8=", "properties": {"@spider": "usps_collection_boxes", "addr:city": "TUCSON", "addr:country": "US", "addr:full": "130 W CUSHING ST", "addr:postcode": "85701", "addr:state": "AZ", "brand": "USPS", "collection_times": "Mo-Fr 14:30; Sa 13:00", "name": "USPS COLLECTION BOX - BLUE BOX", "note": "ON 12/24 AND 12/31, THIS BOX MAY BE COLLECTED AS EARLY AS 12 NOON.", "ref": "8570100040"}, "type": "Feature"}
{"geometry": {"coordinates": [-110.972207, 32.221445], "type": "Point"}, "id": "--IxMkvjpoK_z93XGTkzXVy7SIo=", "properties": {"@spider": "usps_collection_boxes", "addr:city": "TUCSON", "addr:country": "US", "addr:full": "1 S CHURCH AVE", "addr:postcode": "85701", "addr:state": "AZ", "brand": "USPS", "collection_times": "Mo-Fr 14:30", "name": "USPS COLLECTION BOX - BLUE BOX", "note": "ON 12/24 AND 12/31, THIS BOX MAY BE COLLECTED AS EARLY AS 12 NOON.", "ref": "8570100041"}, "type": "Feature"}
{"geometry": {"coordinates": [-110.968590503, 32.220395497], "type": "Point"}, "id": "rw88a1HOQceSTx_vUTPPAWWnLMY=", "properties": {"@spider": "usps_collection_boxes", "addr:city": "TUCSON", "addr:country": "US", "addr:full": "141 S 6TH AVE", "addr:postcode": "85701", "addr:state": "AZ", "brand": "USPS", "collection_times": "Mo-Fr 17:00; Sa 14:30", "name": "USPS COLLECTION BOX - BLUE BOX", "note": "ON 12/24 AND 12/31, THIS BOX MAY BE COLLECTED AS EARLY AS 12 NOON.", "ref": "8570100042"}, "type": "Feature"}
{"geometry": {"coordinates": [-110.974742, 32.222301], "type": "Point"}, "id": "uuNbwYi_-iH-d7sRGB2f9RJU8sQ=", "properties": {"@spider": "usps_collection_boxes", "addr:city": "TUCSON", "addr:country": "US", "addr:full": "255 W ALAMEDA ST", "addr:postcode": "85701", "addr:state": "AZ", "brand": "USPS", "collection_times": "Mo-Fr 14:00", "name": "USPS COLLECTION BOX - BLUE BOX", "note": "ON 12/24 AND 12/31, THIS BOX MAY BE COLLECTED AS EARLY AS 12 NOON.", "ref": "8570100045"}, "type": "Feature"}
{"geometry": {"coordinates": [-110.977529, 32.22174], "type": "Point"}, "id": "PQIn28pSRMHdAlNxxFo6w-LPveE=", "properties": {"@spider": "usps_collection_boxes", "addr:city": "TUCSON", "addr:country": "US", "addr:full": "400 W CONGRESS ST", "addr:postcode": "85701", "addr:state": "AZ", "brand": "USPS", "collection_times": "Mo-Fr 14:30; Sa 13:00", "name": "USPS COLLECTION BOX - BLUE BOX", "note": "ON 12/24 AND 12/31, THIS BOX MAY BE COLLECTED AS EARLY AS 12 NOON.", "ref": "8570100046"}, "type": "Feature"}
{"geometry": {"coordinates": [-110.973118, 32.224089], "type": "Point"}, "id": "Dt4VD3xgfio88_Mv7UIps-O0vJ4=", "properties": {"@spider": "usps_collection_boxes", "addr:city": "TUCSON", "addr:country": "US", "addr:full": "177 N CHURCH AVE", "addr:postcode": "85701", "addr:state": "AZ", "brand": "USPS", "collection_times": "Mo-Fr 14:30", "name": "USPS COLLECTION BOX - BLUE BOX", "note": "ON 12/24 AND 12/31, THIS BOX MAY BE COLLECTED AS EARLY AS 12 NOON.", "ref": "8570100050"}, "type": "Feature"}
{"geometry": {"coordinates": [-110.9723400609, 32.2214756334], "type": "Point"}, "id": "tl3kLN2I21kAnJNk7QrgLpoue8A=", "properties": {"@spider": "usps_collection_boxes", "addr:city": "TUCSON", "addr:country": "US", "addr:full": "1 S CHURCH AVE", "addr:postcode": "85701", "addr:state": "AZ", "brand": "USPS", "collection_times": "Mo-Fr 14:30; Sa 13:00", "name": "USPS COLLECTION BOX - BLUE BOX", "note": "ON 12/24 AND 12/31, THIS BOX MAY BE COLLECTED AS EARLY AS 12 NOON.", "ref": "8570100051"}, "type": "Feature"}
{"geometry": {"coordinates": [-110.971609, 32.222973], "type": "Point"}, "id": "33PndKCKzzsAyE-Ynr7k1p2LPfo=", "properties": {"@spider": "usps_collection_boxes", "addr:city": "TUCSON", "addr:country": "US", "addr:full": "100 N STONE AVE", "addr:postcode": "85701", "addr:state": "AZ", "brand": "USPS", "collection_times": "Mo-Fr 14:30", "name": "USPS COLLECTION BOX - BLUE BOX", "note": "ON 12/24 AND 12/31, THIS BOX MAY BE COLLECTED AS EARLY AS 12 NOON.", "ref": "8570100058"}, "type": "Feature"}
{"geometry": {"coordinates": [-110.968590503, 32.220395497], "type": "Point"}, "id": "GJg6HR_15YdJsfiG9io6G-EmS8Q=", "properties": {"@spider": "usps_collection_boxes", "addr:city": "TUCSON", "addr:country": "US", "addr:full": "141 S 6TH AVE", "addr:postcode": "85701", "addr:state": "AZ", "brand": "USPS", "collection_times": "Mo-Fr 16:00", "name": "USPS COLLECTION BOX - PO LOBBY", "note": "ON 12/24 AND 12/31, THIS BOX MAY BE COLLECTED AS EARLY AS 12 NOON.", "ref": "8570100059"}, "type": "Feature"}
{"geometry": {"coordinates": [-110.971048, 32.220186], "type": "Point"}, "id": "Fu9Bsq9HlFU8e0-Z3mKHfjrVeEs=", "properties": {"@spider": "usps_collection_boxes", "addr:city": "TUCSON", "addr:country": "US", "addr:full": "102 S STONE AVE", "addr:postcode": "85701", "addr:state": "AZ", "brand": "USPS", "collection_times": "Mo-Fr 14:30", "name": "USPS COLLECTION BOX - BLUE BOX", "note": "ON 12/24 AND 12/31, THIS BOX MAY BE COLLECTED AS EARLY AS 12 NOON.", "ref": "8570100062"}, "type": "Feature"}
{"geometry": {"coordinates": [-110.97636, 32.225524], "type": "Point"}, "id": "Io2kjfVx_DIFjVHQm7zki8EI5pQ=", "properties": {"@spider": "usps_collection_boxes", "addr:city": "TUCSON", "addr:country": "US", "addr:full": "301 W FRANKLIN ST", "addr:postcode": "85701", "addr:state": "AZ", "brand": "USPS", "collection_times": "Mo-Fr 14:30", "name": "USPS COLLECTION BOX - BLUE BOX", "note": "ON 12/24 AND 12/31, THIS BOX MAY BE COLLECTED AS EARLY AS 12 NOON.", "ref": "8570100065"}, "type": "Feature"}
{"geometry": {"coordinates": [-110.968590503, 32.220395497], "type": "Point"}, "id": "hWJJs5gLrEyUmAR0aEoDA1dVmJM=", "properties": {"@spider": "usps_collection_boxes", "addr:city": "TUCSON", "addr:country": "US", "addr:full": "141 S 6TH AVE", "addr:postcode": "85701", "addr:state": "AZ", "brand": "USPS", "collection_times": "Mo-Fr 17:00", "name": "USPS COLLECTION BOX - PO LOBBY", "note": "ON 12/24 AND 12/31, THIS BOX MAY BE COLLECTED AS EARLY AS 12 NOON.", "ref": "8570100071"}, "type": "Feature"}
{"geometry": {"coordinates": [-110.974058, 32.324176], "type": "Point"}, "id": "T3YfX714O3cbFlvM-z3J4B7qJIo=", "properties": {"@spider": "usps_collection_boxes", "addr:city": "TUCSON", "addr:country": "US", "addr:full": "6484 N ORACLE RD", "addr:postcode": "85704", "addr:state": "AZ", "brand": "USPS", "collection_times": "Mo-Fr 14:30; Sa 13:30", "name": "USPS COLLECTION BOX - BLUE BOX", "note": "ON 12/24 AND 12/31, THIS BOX MAY BE COLLECTED AS EARLY AS 12 NOON.", "ref": "8570400002"}, "type": "Feature"}
{"geometry": {"coordinates": [-110.972725, 32.353092], "type": "Point"}, "id": "W250lVsaNtKkH162pV-XE5Fzwe4=", "properties": {"@spider": "usps_collection_boxes", "addr:city": "TUCSON", "addr:country": "US", "addr:full": "180 W MAGEE RD", "addr:postcode": "85704", "addr:state": "AZ", "brand": "USPS", "collection_times": "Mo-Sa 11:00", "name": "USPS COLLECTION BOX - BLUE BOX", "ref": "8570400005"}, "type": "Feature"}
{"geometry": {"coordinates": [-110.974899, 32.320555], "type": "Point"}, "id": "zckrmQJHcQax8y_FQFoG60HsadU=", "properties": {"@spider": "usps_collection_boxes", "addr:city": "TUCSON", "addr:country": "US", "addr:full": "6281 N ORACLE RD", "addr:postcode": "85704", "addr:state": "AZ", "brand": "USPS", "collection_times": "Mo-Fr 17:00; Sa 16:00", "name": "USPS COLLECTION BOX - BLUE BOX", "note": "ON 12/24 AND 12/31, THIS BOX MAY BE COLLECTED AS EARLY AS 12 NOON.", "ref": "8570400006"}, "type": "Feature"}
{"geometry": {"coordinates": [-110.976160607, 32.345057609], "type": "Point"}, "id": "1chF1LmStmqADE6zj6pYeCvicjc=", "properties": {"@spider": "usps_collection_boxes", "addr:city": "TUCSON", "addr:country": "US", "addr:full": "7630 N ORACLE RD", "addr:postcode": "85704", "addr:state": "AZ", "brand": "USPS", "collection_times": "Mo-Fr 14:30", "name": "USPS COLLECTION BOX - BLUE BOX", "note": "ON 12/24 AND 12/31, THIS BOX MAY BE COLLECTED AS EARLY AS 12 NOON.", "ref": "8570400008"}, "type": "Feature"}
{"geometry": {"coordinates": [-110.974873, 32.320507], "type": "Point"}, "id": "mG5uqiUnimIeAzstR6KcY8yzGHg=", "properties": {"@spider": "usps_collection_boxes", "addr:city": "TUCSON", "addr:country": "US", "addr:full": "6281 N ORACLE RD", "addr:postcode": "85704", "addr:state": "AZ", "brand": "USPS", "collection_times": "Mo-Fr 17:00; Sa 16:00", "name": "USPS COLLECTION BOX - BLUE BOX", "note": "ON 12/24 AND 12/31, THIS BOX MAY BE COLLECTED AS EARLY AS 12 NOON.", "ref": "8570400009"}, "type": "Feature"}
{"geometry": {"coordinates": [-110.975527, 32.316053], "type": "Point"}, "id": "CvXuWBl2WxvdlKXwP9bPKYxmSVk=", "properties": {"@spider": "usps_collection_boxes", "addr:city": "TUCSON", "addr:country": "US", "addr:full": "6020 N ORACLE RD", "addr:postcode": "85704", "addr:state": "AZ", "brand": "USPS", "collection_times": "Mo-Fr 12:00", "name": "USPS COLLECTION BOX - BLUE BOX", "ref": "8570400013"}, "type": "Feature"}
{"geometry": {"coordinates": [-110.974873, 32.320507], "type": "Point"}, "id": "N4bfApfuzwKa0DdCHln8MQc--Ps=", "properties": {"@spider": "usps_collection_boxes", "addr:city": "TUCSON", "addr:country": "US", "addr:full": "6281 N ORACLE RD", "addr:postcode": "85704", "addr:state": "AZ", "brand": "USPS", "collection_times": "Mo-Fr 17:00; Sa 16:00", "name": "USPS COLLECTION BOX - BLUE BOX", "note": "ON 12/24 AND 12/31, THIS BOX MAY BE COLLECTED AS EARLY AS 12 NOON.", "ref": "8570400015"}, "type": "Feature"}
{"geometry": {"coordinates": [-110.977946, 32.338902], "type": "Point"}, "id": "Yy9i5rq7Lz4XKgDHm1bV_TKru3Y=", "properties": {"@spider": "usps_collection_boxes", "addr:city": "TUCSON", "addr:country": "US", "addr:full": "7315 N ORACLE RD", "addr:postcode": "85704", "addr:state": "AZ", "brand": "USPS", "collection_times": "Mo-Fr 14:00", "name": "USPS COLLECTION BOX - BLUE BOX", "note": "ON 12/24 AND 12/31, THIS BOX MAY BE COLLECTED AS EARLY AS 12 NOON.", "ref": "8570400017"}, "type": "Feature"}
{"geometry": {"coordinates": [-110.975388, 32.327565], "type": "Point"}, "id": "tA93tk4wkdRXd8cqjTR10dqpmcc=", "properties": {"@spider": "usps_collection_boxes", "addr:city": "TUCSON", "addr:country": "US", "addr:full": "6700 N ORACLE RD", "addr:postcode": "85704", "addr:state": "AZ", "brand": "USPS", "collection_times": "Mo-Fr 11:00", "name": "USPS COLLECTION BOX - BLUE BOX", "ref": "8570400018"}, "type": "Feature"}
{"geometry": {"coordinates": [-111.007818, 32.321843], "type": "Point"}, "id": "0SMzB4DHG1MBefec0AfkZHEqFlo=", "properties": {"@spider": "usps_collection_boxes", "addr:city": "TUCSON", "addr:country": "US", "addr:full": "1919 N CORONA RD", "addr:postcode": "85704", "addr:state": "AZ", "brand": "USPS", "collection_times": "Mo-Fr 11:45", "name": "USPS COLLECTION BOX - BLUE BOX", "ref": "8570400020"}, "type": "Feature"}
{"geometry": {"coordinates": [-110.976497, 32.341651], "type": "Point"}, "id": "fsHstwvPDk4wJhItNg5o69gDqXc=", "properties": {"@spider": "usps_collection_boxes", "addr:city": "TUCSON", "addr:country": "US", "addr:full": "7400 N ORACLE RD", "addr:postcode": "85704", "addr:state": "AZ", "brand": "USPS", "collection_times": "Mo-Fr 11:30", "name": "USPS COLLECTION BOX - BLUE BOX", "ref": "8570400024"}, "type": "Feature"}
{"geometry": {"coordinates": [-110.974873, 32.320507], "type": "Point"}, "id": "oVh-QrfqINRLtXUK7R-M3F8FFAE=", "properties": {"@spider": "usps_collection_boxes", "addr:city": "TUCSON", "addr:country": "US", "addr:full": "6281 N ORACLE RD", "addr:postcode": "85704", "addr:state": "AZ", "brand": "USPS", "collection_times": "Mo-Fr 17:00; Sa 16:00", "name": "USPS COLLECTION BOX - PO LOBBY", "note": "ON 12/24 AND 12/31, THIS BOX MAY BE COLLECTED AS EARLY AS 12 NOON.", "ref": "8570400025"}, "type": "Feature"}
{"geometry": {"coordinates": [-110.975463, 32.345159], "type": "Point"}, "id": "hI2t3SqcAe32ngAzAiF4LbCMhQQ=", "properties": {"@spider": "usps_collection_boxes", "addr:city": "TUCSON", "addr:country": "US", "addr:full": "7630 N ORACLE RD", "addr:postcode": "85704", "addr:state": "AZ", "brand": "USPS", "collection_times": "Mo-Fr 14:30", "name": "USPS COLLECTION BOX - BLUE BOX", "note": "ON 12/24 AND 12/31, THIS BOX MAY BE COLLECTED AS EARLY AS 12 NOON.", "ref": "8570400026"}, "type": "Feature"}
{"geometry": {"coordinates": [-110.997049, 32.298588], "type": "Point"}, "id": "yX4Sb21Id0G6Kiikbh1T4HzHr48=", "properties": {"@spider": "usps_collection_boxes", "addr:city": "TUCSON", "addr:country": "US", "addr:full": "5075 N LA CANADA DR", "addr:postcode": "85704", "addr:state": "AZ", "brand": "USPS", "collection_times": "Mo-Sa 11:30", "name": "USPS COLLECTION BOX - BLUE BOX", "ref": "8570400027"}, "type": "Feature"}
{"geometry": {"coordinates": [-110.976355, 32.335459], "type": "Point"}, "id": "uls1Odwsb2-LT2HKnHLiCJADc-8=", "properties": {"@spider": "usps_collection_boxes", "addr:city": "TUCSON", "addr:country": "US", "addr:full": "7110 N ORACLE RD", "addr:postcode": "85704", "addr:state": "AZ", "brand": "USPS", "collection_times": "Mo-Sa 12:30", "name": "USPS COLLECTION BOX - BLUE BOX", "note": "ON 12/24 AND 12/31, THIS BOX MAY BE COLLECTED AS EARLY AS 12 NOON.", "ref": "8570400032"}, "type": "Feature"}
{"geometry": {"coordinates": [-110.976726, 32.332412], "type": "Point"}, "id": "-cHSLhG-NS7F_Szt41BDeKetYhw=", "properties": {"@spider": "usps_collection_boxes", "addr:city": "TUCSON", "addr:country": "US", "addr:full": "6860 N ORACLE RD", "addr:postcode": "85704", "addr:state": "AZ", "brand": "USPS", "collection_times": "Mo-Fr 14:30", "name": "USPS COLLECTION BOX - BLUE BOX", "note": "ON 12/24 AND 12/31, THIS BOX MAY BE COLLECTED AS EARLY AS 12 NOON.", "ref": "8570400034"}, "type": "Feature"}
{"geometry": {"coordinates": [-110.975636966, 32.3205750167], "type": "Point"}, "id": "FAJxIMRVhkhZMvnOgdntc88CtcA=", "properties": {"@spider": "usps_collection_boxes", "addr:city": "TUCSON", "addr:country": "US", "addr:full": "6281 N ORACLE RD", "addr:postcode": "85704", "addr:state": "AZ", "brand": "USPS", "collection_times": "Mo-Fr 17:00; Sa 16:00", "name": "USPS COLLECTION BOX - APC", "note": "ON 12/24 AND 12/31, THIS BOX MAY BE COLLECTED AS EARLY AS 12 NOON.", "ref": "8570400035"}, "type": "Feature"}
{"geometry": {"coordinates": [-110.973447, 32.35317], "type": "Point"}, "id": "oYWTHYaYaz8h4lJWUldmyL3Zp4o=", "properties": {"@spider": "usps_collection_boxes", "addr:city": "TUCSON", "addr:country": "US", "addr:full": "8080 N ORACLE RD", "addr:postcode": "85704", "addr:state": "AZ", "brand": "USPS", "collection_times": "Mo-Fr 13:45; Sa 13:00", "name": "USPS COLLECTION BOX - BLUE BOX", "note": "ON 12/24 AND 12/31, THIS BOX MAY BE COLLECTED AS EARLY AS 12 NOON.", "ref": "8570400038"}, "type": "Feature"}
{"geometry": {"coordinates": [-110.969348, 32.365664], "type": "Point"}, "id": "Lhe_miCUMXEMsNBTNmtv_OUjD4g=", "properties": {"@spider": "usps_collection_boxes", "addr:city": "TUCSON", "addr:country": "US", "addr:full": "8788 N ORACLE RD", "addr:postcode": "85704", "addr:state": "AZ", "brand": "USPS", "collection_times": "Mo-Fr 13:00", "name": "USPS COLLECTION BOX - BLUE BOX", "note": "ON 12/24 AND 12/31, THIS BOX MAY BE COLLECTED AS EARLY AS 12 NOON.", "ref": "8570400039"}, "type": "Feature"}
{"geometry": {"coordinates": [-110.9749037105, 32.3205538668], "type": "Point"}, "id": "Gk04kpsU4igTjJSwanbPQ8KpZ0Q=", "properties": {"@spider": "usps_collection_boxes", "addr:city": "TUCSON", "addr:country": "US", "addr:full": "6281 N ORACLE RD", "addr:postcode": "85704", "addr:state": "AZ", "brand": "USPS", "collection_times": "Mo-Fr 17:00; Sa 16:00", "name": "USPS COLLECTION BOX - PO LOBBY", "note": "ON 12/24 AND 12/31, THIS BOX MAY BE COLLECTED AS EARLY AS 12 NOON.", "ref": "8570400043"}, "type": "Feature"}
{"geometry": {"coordinates": [-110.9744225151, 32.3534200974], "type": "Point"}, "id": "dQc6Ts51Bxqb4aJPdMMo6KTTl0w=", "properties": {"@spider": "usps_collection_boxes", "addr:city": "TUCSON", "addr:country": "US", "addr:full": "8080 N ORACLE RD", "addr:postcode": "85704", "addr:state": "AZ", "brand": "USPS", "collection_times": "Mo-Sa 16:00", "name": "USPS COLLECTION BOX - PO LOBBY", "note": "ON 12/24 AND 12/31, THIS BOX MAY BE COLLECTED AS EARLY AS 12 NOON.", "ref": "8570400044"}, "type": "Feature"}
{"geometry": {"coordinates": [-110.988906, 32.271518], "type": "Point"}, "id": "t2Uw3BY34CZJr1iVJp-_eskvGwg=", "properties": {"@spider": "usps_collection_boxes", "addr:city": "TUCSON", "addr:country": "US", "addr:full": "1015 W PRINCE RD STE 131", "addr:postcode": "85705", "addr:state": "AZ", "brand": "USPS", "collection_times": "Mo-Fr 14:30; Sa 13:00", "name": "USPS COLLECTION BOX - BLUE BOX", "note": "ON 12/24 AND 12/31, THIS BOX MAY BE COLLECTED AS EARLY AS 12 NOON.", "ref": "8570500001"}, "type": "Feature"}
{"geometry": {"coordinates": [-110.978865, 32.273116], "type": "Point"}, "id": "zWSyregfK4g4JZp0FE5ol5_NEo4=", "properties": {"@spider": "usps_collection_boxes", "addr:city": "TUCSON", "addr:country": "US", "addr:full": "3655 N ORACLE RD STE 101", "addr:postcode": "85705", "addr:state": "AZ", "brand": "USPS", "collection_times": "Mo-Fr 17:00; Sa 14:00", "name": "USPS COLLECTION BOX - BLUE BOX", "note": "ON 12/24 AND 12/31, THIS BOX MAY BE COLLECTED AS EARLY AS 12 NOON.", "ref": "8570500004"}, "type": "Feature"}
{"geometry": {"coordinates": [-111.016307, 32.277277], "type": "Point"}, "id": "q7FBretnBO0x2mnaRT0FvE3w3Dk=", "properties": {"@spider": "usps_collection_boxes", "addr:city": "TUCSON", "addr:country": "US", "addr:full": "3845 N BUSINESS CENTER DR", "addr:postcode": "85705", "addr:state": "AZ", "brand": "USPS", "collection_times": "Mo-Fr 13:45", "name": "USPS COLLECTION BOX - BLUE BOX", "note": "ON 12/24 AND 12/31, THIS BOX MAY BE COLLECTED AS EARLY AS 12 NOON.", "ref": "8570500006"}, "type": "Feature"}
{"geometry": {"coordinates": [-110.978442, 32.276756], "type": "Point"}, "id": "J43pYisD35AlxegUOYEBo7kp968=", "properties": {"@spider": "usps_collection_boxes", "addr:city": "TUCSON", "addr:country": "US", "addr:full": "3867 N ORACLE RD", "addr:postcode": "85705", "addr:state": "AZ", "brand": "USPS", "collection_times": "Mo-Fr 14:30", "name": "USPS COLLECTION BOX - BLUE BOX", "note": "ON 12/24 AND 12/31, THIS BOX MAY BE COLLECTED AS EARLY AS 12 NOON.", "ref": "8570500013"}, "type": "Feature"}
{"geometry": {"coordinates": [-111.005029, 32.272696], "type": "Point"}, "id": "dtoqy2R9kH3o1bl_ss3iXN29wIY=", "properties": {"@spider": "usps_collection_boxes", "addr:city": "TUCSON", "addr:country": "US", "addr:full": "1870 W PRINCE RD", "addr:postcode": "85705", "addr:state": "AZ", "brand": "USPS", "collection_times": "Mo-Fr 13:30", "name": "USPS COLLECTION BOX - BLUE BOX", "note": "ON 12/24 AND 12/31, THIS BOX MAY BE COLLECTED AS EARLY AS 12 NOON.", "ref": "8570500015"}, "type": "Feature"}
{"geometry": {"coordinates": [-111.0192, 32.294703], "type": "Point"}, "id": "YjgSYpYn67hjIlAZRc-xVT805mU=", "properties": {"@spider": "usps_collection_boxes", "addr:city": "TUCSON", "addr:country": "US", "addr:full": "2480 W RUTHRAUFF RD", "addr:postcode": "85705", "addr:state": "AZ", "brand": "USPS", "collection_times": "Mo-Fr 14:30", "name": "USPS COLLECTION BOX - BLUE BOX", "note": "ON 12/24 AND 12/31, THIS BOX MAY BE COLLECTED AS EARLY AS 12 NOON.", "ref": "8570500016"}, "type": "Feature"}
{"geometry": {"coordinates": [-111.019205, 32.294708], "type": "Point"}, "id": "l4CuD-6fXGwx5t-pC_SAZjD8Iv0=", "properties": {"@spider": "usps_collection_boxes", "addr:city": "TUCSON", "addr:country": "US", "addr:full": "2480 W RUTHRAUFF RD", "addr:postcode": "85705", "addr:state": "AZ", "brand": "USPS", "collection_times": "Mo-Fr 14:30", "name": "USPS COLLECTION BOX - BLUE BOX", "note": "ON 12/24 AND 12/31, THIS BOX MAY BE COLLECTED AS EARLY AS 12 NOON.", "ref": "8570500019"}, "type": "Feature"}
{"geometry": {"coordinates": [-110.970736, 32.237264], "type": "Point"}, "id": "rmFDhM0RRj-DsOYyXbkg2Ul9KAQ=", "properties": {"@spider": "usps_collection_boxes", "addr:city": "TUCSON", "addr:country": "US", "addr:full": "55 E HELEN ST", "addr:postcode": "85705", "addr:state": "AZ", "brand": "USPS", "collection_times": "Mo-Fr 13:15", "name": "USPS COLLECTION BOX - BLUE BOX", "note": "ON 12/24 AND 12/31, THIS BOX MAY BE COLLECTED AS EARLY AS 12 NOON.", "ref": "8570500021"}, "type": "Feature"}
{"geometry": {"coordinates": [-110.99443, 32.272333], "type": "Point"}, "id": "JAyVsRUDpS84S6XVzIOEK8XKO6o=", "properties": {"@spider": "usps_collection_boxes", "addr:city": "TUCSON", "addr:country": "US", "addr:full": "1354 W PRINCE RD", "addr:postcode": "85705", "addr:state": "AZ", "brand": "USPS", "collection_times": "Mo-Fr 13:30", "name": "USPS COLLECTION BOX - BLUE BOX", "note": "ON 12/24 AND 12/31, THIS BOX MAY BE COLLECTED AS EARLY AS 12 NOON.", "ref": "8570500023"}, "type": "Feature"}
{"geometry": {"coordinates": [-110.977861, 32.292665], "type": "Point"}, "id": "vQa6iYm8jrEqlD7wTe1r7AYpZkI=", "properties": {"@spider": "usps_collection_boxes", "addr:city": "TUCSON", "addr:country": "US", "addr:full": "4742 N ORACLE RD", "addr:postcode": "85705", "addr:state": "AZ", "brand": "USPS", "collection_times": "Mo-Fr 14:30", "name": "USPS COLLECTION BOX - BLUE BOX", "note": "ON 12/24 AND 12/31, THIS BOX MAY BE COLLECTED AS EARLY AS 12 NOON.", "ref": "8570500024"}, "type": "Feature"}
{"geometry": {"coordinates": [-110.967016, 32.231559], "type": "Point"}, "id": "EEwbKIpQOT-2pQuWSaYeszfKhxk=", "properties": {"@spider": "usps_collection_boxes", "addr:city": "TUCSON", "addr:country": "US", "addr:full": "300 E UNIVERSITY BLVD", "addr:postcode": "85705", "addr:state": "AZ", "brand": "USPS", "collection_times": "Mo-Fr 13:00", "name": "USPS COLLECTION BOX - BLUE BOX", "note": "ON 12/24 AND 12/31, THIS BOX MAY BE COLLECTED AS EARLY AS 12 NOON.", "ref": "8570500025"}, "type": "Feature"}
{"geometry": {"coordinates": [-110.972917, 32.264983], "type": "Point"}, "id": "T5XtJErG_gKsJrAZsZfSRSdH2lk=", "properties": {"@spider": "usps_collection_boxes", "addr:city": "TUCSON", "addr:country": "US", "addr:full": "100 W FORT LOWELL RD", "addr:postcode": "85705", "addr:state": "AZ", "brand": "USPS", "collection_times": "Mo-Fr 14:30", "name": "USPS COLLECTION BOX - BLUE BOX", "note": "ON 12/24 AND 12/31, THIS BOX MAY BE COLLECTED AS EARLY AS 12 NOON.", "ref": "8570500026"}, "type": "Feature"}
{"geometry": {"coordinates": [-111.003754, 32.286439], "type": "Point"}, "id": "nSy0ZaOTM0bOZIptW8JAbgzFsWw=", "properties": {"@spider": "usps_collection_boxes", "addr:city": "TUCSON", "addr:country": "US", "addr:full": "4399 N ROMERO RD", "addr:postcode": "85705", "addr:state": "AZ", "brand": "USPS", "collection_times": "Mo-Fr 14:30", "name": "USPS COLLECTION BOX - BLUE BOX", "note": "ON 12/24 AND 12/31, THIS BOX MAY BE COLLECTED AS EARLY AS 12 NOON.", "ref": "8570500028"}, "type": "Feature"}
{"geometry": {"coordinates": [-110.975273, 32.287878], "type": "Point"}, "id": "0I6FRgrwur_oHGBlVvAr94zufu0=", "properties": {"@spider": "usps_collection_boxes", "addr:city": "TUCSON", "addr:country": "US", "addr:full": "4500 N ORACLE RD", "addr:postcode": "85705", "addr:state": "AZ", "brand": "USPS", "collection_times": "Mo-Fr 14:30", "name": "USPS COLLECTION BOX - BLUE BOX", "note": "ON 12/24 AND 12/31, THIS BOX MAY BE COLLECTED AS EARLY AS 12 NOON.", "ref": "8570500031"}, "type": "Feature"}
{"geometry": {"coordinates": [-110.971564, 32.231616], "type": "Point"}, "id": "ti8MwFVh6tOac0M5wh9HNVXFo4M=", "properties": {"@spider": "usps_collection_boxes", "addr:city": "TUCSON", "addr:country": "US", "addr:full": "10 E UNIVERSITY BLVD", "addr:postcode": "85705", "addr:state": "AZ", "brand": "USPS", "collection_times": "Mo-Fr 13:00", "name": "USPS COLLECTION BOX - BLUE BOX", "note": "ON 12/24 AND 12/31, THIS BOX MAY BE COLLECTED AS EARLY AS 12 NOON.", "ref": "8570500032"}, "type": "Feature"}
{"geometry": {"coordinates": [-110.98841, 32.24972], "type": "Point"}, "id": "dz6tkHBv-e8u1ZYWxKm3eb4x7xw=", "properties": {"@spider": "usps_collection_boxes", "addr:city": "TUCSON", "addr:country": "US", "addr:full": "1101 W GRANT RD", "addr:postcode": "85705", "addr:state": "AZ", "brand": "USPS", "collection_times": "Mo-Fr 13:15", "name": "USPS COLLECTION BOX - BLUE BOX", "note": "ON 12/24 AND 12/31, THIS BOX MAY BE COLLECTED AS EARLY AS 12 NOON.", "ref": "8570500035"}, "type": "Feature"}
{"geometry": {"coordinates": [-110.978274, 32.27338], "type": "Point"}, "id": "4fDe4zHSgNboTVJruUYPuAT2eeA=", "properties": {"@spider": "usps_collection_boxes", "addr:city": "TUCSON", "addr:country": "US", "addr:full": "3655 N ORACLE RD STE 101", "addr:postcode": "85705", "addr:state": "AZ", "brand": "USPS", "collection_times": "Mo-Fr 14:30", "name": "USPS COLLECTION BOX - PO LOBBY", "note": "ON 12/24 AND 12/31, THIS BOX MAY BE COLLECTED AS EARLY AS 12 NOON.", "ref": "8570500036"}, "type": "Feature"}
{"geometry": {"coordinates": [-110.968933, 32.247862], "type": "Point"}, "id": "dIVayv1FbwABAxIRLdhfKOuwrr4=", "properties": {"@spider": "usps_collection_boxes", "addr:city": "TUCSON", "addr:country": "US", "addr:full": "2175 N 6TH AVE", "addr:postcode": "85705", "addr:state": "AZ", "brand": "USPS", "collection_times": "Mo-Fr 13:00", "name": "USPS COLLECTION BOX - BLUE BOX", "note": "ON 12/24 AND 12/31, THIS BOX MAY BE COLLECTED AS EARLY AS 12 NOON.", "ref": "8570500037"}, "type": "Feature"}
{"geometry": {"coordinates": [-110.995885, 32.278238], "type": "Point"}, "id": "gezHJW0BbsnlW9iueFHUBgi2IF4=", "properties": {"@spider": "usps_collection_boxes", "addr:city": "TUCSON", "addr:country": "US", "addr:full": "3923 N FLOWING WELLS RD", "addr:postcode": "85705", "addr:state": "AZ", "brand": "USPS", "collection_times": "Mo-Fr 13:30", "name": "USPS COLLECTION BOX - BLUE BOX", "note": "ON 12/24 AND 12/31, THIS BOX MAY BE COLLECTED AS EARLY AS 12 NOON.", "ref": "8570500038"}, "type": "Feature"}
{"geometry": {"coordinates": [-111.010559, 32.293914], "type": "Point"}, "id": "kWyrp9033Da6Q4dJPs023CFCmlU=", "properties": {"@spider": "usps_collection_boxes", "addr:city": "TUCSON", "addr:country": "US", "addr:full": "2005 W RUTHRAUFF RD", "addr:postcode": "85705", "addr:state": "AZ", "brand": "USPS", "collection_times": "Mo-Fr 14:30", "name": "USPS COLLECTION BOX - BLUE BOX", "note": "ON 12/24 AND 12/31, THIS BOX MAY BE COLLECTED AS EARLY AS 12 NOON.", "ref": "8570500042"}, "type": "Feature"}
{"geometry": {"coordinates": [-110.978263494, 32.273163555], "type": "Point"}, "id": "J2hzoleSXNT6-8zbQ79hatzGjIU=", "properties": {"@spider": "usps_collection_boxes", "addr:city": "TUCSON", "addr:country": "US", "addr:full": "3655 N ORACLE RD STE 101", "addr:postcode": "85705", "addr:state": "AZ", "brand": "USPS", "collection_times": "Mo-Fr 14:30", "name": "USPS COLLECTION BOX - PO LOBBY", "note": "ON 12/24 AND 12/31, THIS BOX MAY BE COLLECTED AS EARLY AS 12 NOON.", "ref": "8570500053"}, "type": "Feature"}
{"geometry": {"coordinates": [-110.974034, 32.133928], "type": "Point"}, "id": "v9WitK81y4I4ISXjSZHmgcDY6zs=", "properties": {"@spider": "usps_collection_boxes", "addr:city": "TUCSON", "addr:country": "US", "addr:full": "315 W VALENCIA RD", "addr:postcode": "85706", "addr:state": "AZ", "brand": "USPS", "collection_times": "Mo-Fr 17:00; Sa 16:00", "name": "USPS COLLECTION BOX - BLUE BOX", "note": "ON 12/24 AND 12/31, THIS BOX MAY BE COLLECTED AS EARLY AS 12 NOON.", "ref": "8570600004"}, "type": "Feature"}
{"geometry": {"coordinates": [-110.9232095638, 32.1378120108], "type": "Point"}, "id": "eDDmBR3kY3u50p3q0uARSuPGdYQ=", "properties": {"@spider": "usps_collection_boxes", "addr:city": "TUCSON", "addr:country": "US", "addr:full": "3296 E HEMISPHERE LOOP", "addr:postcode": "85706", "addr:state": "AZ", "brand": "USPS", "collection_times": "Mo-Sa 12:30", "name": "USPS COLLECTION BOX - BLUE BOX", "note": "ON 12/24 AND 12/31, THIS BOX MAY BE COLLECTED AS EARLY AS 12 NOON.", "ref": "8570600010"}, "type": "Feature"}
{"geometry": {"coordinates": [-110.974063, 32.133955], "type": "Point"}, "id": "ty7kPhIhnbxoaExh_zLc2_tU3j4=", "properties": {"@spider": "usps_collection_boxes", "addr:city": "TUCSON", "addr:country": "US", "addr:full": "315 W VALENCIA RD", "addr:postcode": "85706", "addr:state": "AZ", "brand": "USPS", "collection_times": "Mo-Fr 17:00; Sa 16:00", "name": "USPS COLLECTION BOX - BLUE BOX", "note": "ON 12/24 AND 12/31, THIS BOX MAY BE COLLECTED AS EARLY AS 12 NOON.", "ref": "8570600013"}, "type": "Feature"}
{"geometry": {"coordinates": [-110.974063, 32.133955], "type": "Point"}, "id": "kF-FTtPAhkB7HGzgj8XupnQL-eQ=", "properties": {"@spider": "usps_collection_boxes", "addr:city": "TUCSON", "addr:country": "US", "addr:full": "315 W VALENCIA RD", "addr:postcode": "85706", "addr:state": "AZ", "brand": "USPS", "collection_times": "Mo-Fr 17:00; Sa 16:00", "name": "USPS COLLECTION BOX - PO LOBBY", "note": "ON 12/24 AND 12/31, THIS BOX MAY BE COLLECTED AS EARLY AS 12 NOON.", "ref": "8570600018"}, "type": "Feature"}
{"geometry": {"coordinates": [-110.930573, 32.144085], "type": "Point"}, "id": "hAFPlAxu1R5NeSLeqMWmAvSulWM=", "properties": {"@spider": "usps_collection_boxes", "addr:city": "TUCSON", "addr:country": "US", "addr:full": "2800 E COMMERCE CENTER PL", "addr:postcode": "85706", "addr:state": "AZ", "brand": "USPS", "collection_times": "Mo-Fr 12:30", "name": "USPS COLLECTION BOX - BLUE BOX", "note": "ON 12/24 AND 12/31, THIS BOX MAY BE COLLECTED AS EARLY AS 12 NOON.", "ref": "8570600021"}, "type": "Feature"}
{"geometry": {"coordinates": [-110.974433055, 32.133922498], "type": "Point"}, "id": "kr4yHFwrJzIU3hbmTdOwgUIS_zw=", "properties": {"@spider": "usps_collection_boxes", "addr:city": "TUCSON", "addr:country": "US", "addr:full": "315 W VALENCIA RD", "addr:postcode": "85706", "addr:state": "AZ", "brand": "USPS", "collection_times": "Mo-Fr 17:00; Sa 16:00", "name": "USPS COLLECTION BOX - PO LOBBY", "note": "ON 12/24 AND 12/31, THIS BOX MAY BE COLLECTED AS EARLY AS 12 NOON.", "ref": "8570600027"}, "type": "Feature"}
{"geometry": {"coordinates": [-110.875969, 32.177173], "type": "Point"}, "id": "E4bznr-ks3_zqVmWKDVlkpU84vk=", "properties": {"@spider": "usps_collection_boxes", "addr:city": "TUCSON", "addr:country": "US", "addr:full": "5450 E MADERA", "addr:postcode": "85708", "addr:state": "AZ", "brand": "USPS", "collection_times": "Mo-Fr 16:15; Sa 15:00", "name": "USPS COLLECTION BOX - BLUE BOX", "note": "ON 12/24 AND 12/31, THIS BOX MAY BE COLLECTED AS EARLY AS 12 NOON.", "ref": "8570800005"}, "type": "Feature"}
{"geometry": {"coordinates": [-110.877681, 32.183525], "type": "Point"}, "id": "bylHyExMlQcll3amB2mr4R7vZfA=", "properties": {"@spider": "usps_collection_boxes", "addr:city": "TUCSON", "addr:country": "US", "addr:full": "5405 E GRANITE ST", "addr:postcode": "85708", "addr:state": "AZ", "brand": "USPS", "collection_times": "Mo-Fr 12:15", "name": "USPS COLLECTION BOX - BLUE BOX", "note": "ON 12/24 AND 12/31, THIS BOX MAY BE COLLECTED AS EARLY AS 12 NOON.", "ref": "8570800006"}, "type": "Feature"}
{"geometry": {"coordinates": [-110.825974, 32.222431], "type": "Point"}, "id": "lhb6KROHBS81YWdbmffdzD4StYg=", "properties": {"@spider": "usps_collection_boxes", "addr:city": "TUCSON", "addr:country": "US", "addr:full": "7739 E BROADWAY BLVD", "addr:postcode": "85710", "addr:state": "AZ", "brand": "USPS", "collection_times": "Mo-Fr 14:30; Sa 13:00", "name": "USPS COLLECTION BOX - BLUE BOX", "note": "ON 12/24 AND 12/31, THIS BOX MAY BE COLLECTED AS EARLY AS 12 NOON.", "ref": "8571000001"}, "type": "Feature"}
{"geometry": {"coordinates": [-110.823777, 32.207797], "type": "Point"}, "id": "ZdvYsw3U9OWpBCaZeHyw4e1iwNA=", "properties": {"@spider": "usps_collection_boxes", "addr:city": "TUCSON", "addr:country": "US", "addr:full": "1099 S PANTANO RD", "addr:postcode": "85710", "addr:state": "AZ", "brand": "USPS", "collection_times": "Mo-Fr 17:00; Sa 16:30", "name": "USPS COLLECTION BOX - BLUE BOX", "note": "ON 12/24 AND 12/31, THIS BOX MAY BE COLLECTED AS EARLY AS 12 NOON.", "ref": "8571000004"}, "type": "Feature"}
{"geometry": {"coordinates": [-110.816503, 32.220654], "type": "Point"}, "id": "q7X9c-QJ-zxyOaEECkKO_tn_heU=", "properties": {"@spider": "usps_collection_boxes", "addr:city": "TUCSON", "addr:country": "US", "addr:full": "8230 E BROADWAY BLVD", "addr:postcode": "85710", "addr:state": "AZ", "brand": "USPS", "collection_times": "Mo-Fr 13:45", "name": "USPS COLLECTION BOX - BLUE BOX", "note": "ON 12/24 AND 12/31, THIS BOX MAY BE COLLECTED AS EARLY AS 12 NOON.", "ref": "8571000005"}, "type": "Feature"}
{"geometry": {"coordinates": [-110.806029, 32.235915], "type": "Point"}, "id": "UJ8EAJGk95QLmm9oMs5fGBLBBgw=", "properties": {"@spider": "usps_collection_boxes", "addr:city": "TUCSON", "addr:country": "US", "addr:full": "8705 E SPEEDWAY BLVD", "addr:postcode": "85710", "addr:state": "AZ", "brand": "USPS", "collection_times": "Mo-Fr 14:30", "name": "USPS COLLECTION BOX - BLUE BOX", "note": "ON 12/24 AND 12/31, THIS BOX MAY BE COLLECTED AS EARLY AS 12 NOON.", "ref": "8571000006"}, "type": "Feature"}
{"geometry": {"coordinates": [-110.838069, 32.232648], "type": "Point"}, "id": "-aNqbw4yxfKENVhKX21-A4vlZNM=", "properties": {"@spider": "usps_collection_boxes", "addr:city": "TUCSON", "addr:country": "US", "addr:full": "900 N FINANCE CENTER DR", "addr:postcode": "85710", "addr:state": "AZ", "brand": "USPS", "collection_times": "Mo-Fr 14:30", "name": "USPS COLLECTION BOX - BLUE BOX", "note": "ON 12/24 AND 12/31, THIS BOX MAY BE COLLECTED AS EARLY AS 12 NOON.", "ref": "8571000011"}, "type": "Feature"}
{"geometry": {"coordinates": [-110.823888, 32.228974], "type": "Point"}, "id": "jCAW10cypMDh6o2rm_BEF0qjrr4=", "properties": {"@spider": "usps_collection_boxes", "addr:city": "TUCSON", "addr:country": "US", "addr:full": "555 N PANTANO RD", "addr:postcode": "85710", "addr:state": "AZ", "brand": "USPS", "collection_times": "Mo-Fr 14:30; Sa 14:00", "name": "USPS COLLECTION BOX - BLUE BOX", "note": "ON 12/24 AND 12/31, THIS BOX MAY BE COLLECTED AS EARLY AS 12 NOON.", "ref": "8571000014"}, "type": "Feature"}
{"geometry": {"coordinates": [-110.855477, 32.207531], "type": "Point"}, "id": "gXEnvpwNo0HGAOxaMfPkGSvbZUQ=", "properties": {"@spider": "usps_collection_boxes", "addr:city": "TUCSON", "addr:country": "US", "addr:full": "6363 E 22ND ST", "addr:postcode": "85710", "addr:state": "AZ", "brand": "USPS", "collection_times": "Mo-Fr 14:30; Sa 14:00", "name": "USPS COLLECTION BOX - BLUE BOX", "note": "ON 12/24 AND 12/31, THIS BOX MAY BE COLLECTED AS EARLY AS 12 NOON.", "ref": "8571000016"}, "type": "Feature"}
{"geometry": {"coordinates": [-110.819929, 32.197522], "type": "Point"}, "id": "ulGhOf_hJUrgwkSHvD1j_bkfxiQ=", "properties": {"@spider": "usps_collection_boxes", "addr:city": "TUCSON", "addr:country": "US", "addr:full": "2121 S PANTANO RD", "addr:postcode": "85710", "addr:state": "AZ", "brand": "USPS", "collection_times": "Mo-Fr 14:00; Sa 14:30", "name": "USPS COLLECTION BOX - BLUE BOX", "note": "ON 12/24 AND 12/31, THIS BOX MAY BE COLLECTED AS EARLY AS 12 NOON.", "ref": "8571000017"}, "type": "Feature"}
{"geometry": {"coordinates": [-110.823809, 32.207772], "type": "Point"}, "id": "6Gpj_V6YyUO4Fk6tRJSs1umpfYo=", "properties": {"@spider": "usps_collection_boxes", "addr:city": "TUCSON", "addr:country": "US", "addr:full": "1099 S PANTANO RD", "addr:postcode": "85710", "addr:state": "AZ", "brand": "USPS", "collection_times": "Mo-Fr 17:00; Sa 16:30", "name": "USPS COLLECTION BOX - BLUE BOX", "note": "ON 12/24 AND 12/31, THIS BOX MAY BE COLLECTED AS EARLY AS 12 NOON.", "ref": "8571000018"}, "type": "Feature"}
{"geometry": {"coordinates": [-110.843864, 32.220731], "type": "Point"}, "id": "7fdQkyj58GmYgUxZwvNUGhhoa9o=", "properties": {"@spider": "usps_collection_boxes", "addr:city": "TUCSON", "addr:country": "US", "addr:full": "7000 E BROADWAY BLVD", "addr:postcode": "85710", "addr:state": "AZ", "brand": "USPS", "collection_times": "Mo-Fr 13:30", "name": "USPS COLLECTION BOX - BLUE BOX", "note": "ON 12/24 AND 12/31, THIS BOX MAY BE COLLECTED AS EARLY AS 12 NOON.", "ref": "8571000026"}, "type": "Feature"}
{"geometry": {"coordinates": [-110.823809, 32.207772], "type": "Point"}, "id": "n_1SPzmRSsyJdz_xItg96vtB9OE=", "properties": {"@spider": "usps_collection_boxes", "addr:city": "TUCSON", "addr:country": "US", "addr:full": "1099 S PANTANO RD", "addr:postcode": "85710", "addr:state": "AZ", "brand": "USPS", "collection_times": "Mo-Fr 15:45", "name": "USPS COLLECTION BOX - EXPRESS", "note": "ON 12/24 AND 12/31, THIS BOX MAY BE COLLECTED AS EARLY AS 12 NOON.", "ref": "8571000030"}, "type": "Feature"}
{"geometry": {"coordinates": [-110.791312, 32.207497], "type": "Point"}, "id": "tf7-6cPBXypl-j3IdD7EWW-OdWg=", "properties": {"@spider": "usps_collection_boxes", "addr:city": "TUCSON", "addr:country": "US", "addr:full": "9431 E 22ND ST", "addr:postcode": "85710", "addr:state": "AZ", "brand": "USPS", "collection_times": "Mo-Fr 15:30; Sa 13:45", "name": "USPS COLLECTION BOX - BLUE BOX", "note": "ON 12/24 AND 12/31, THIS BOX MAY BE COLLECTED AS EARLY AS 12 NOON.", "ref": "8571000033"}, "type": "Feature"}
{"geometry": {"coordinates": [-110.808972, 32.22064], "type": "Point"}, "id": "MfzWSmR8e3jII0WjYF0V_5eZBS0=", "properties": {"@spider": "usps_collection_boxes", "addr:city": "TUCSON", "addr:country": "US", "addr:full": "8660 E BROADWAY BLVD", "addr:postcode": "85710", "addr:state": "AZ", "brand": "USPS", "collection_times": "Mo-Fr 13:45", "name": "USPS COLLECTION BOX - BLUE BOX", "note": "ON 12/24 AND 12/31, THIS BOX MAY BE COLLECTED AS EARLY AS 12 NOON.", "ref": "8571000034"}, "type": "Feature"}
{"geometry": {"coordinates": [-110.827964, 32.219638], "type": "Point"}, "id": "wuqNpVwLoS7fTYm9t3lY6vK8rcc=", "properties": {"@spider": "usps_collection_boxes", "addr:city": "TUCSON", "addr:country": "US", "addr:full": "7670 E BROADWAY BLVD", "addr:postcode": "85710", "addr:state": "AZ", "brand": "USPS", "collection_times": "Mo-Fr 13:45", "name": "USPS COLLECTION BOX - BLUE BOX", "note": "ON 12/24 AND 12/31, THIS BOX MAY BE COLLECTED AS EARLY AS 12 NOON.", "ref": "8571000036"}, "type": "Feature"}
{"geometry": {"coordinates": [-110.8565341205, 32.2209635371], "type": "Point"}, "id": "QJjNddPUQM5sRA0ate21tqlGv8k=", "properties": {"@spider": "usps_collection_boxes", "addr:city": "TUCSON", "addr:country": "US", "addr:full": "6400 E BROADWAY BLVD", "addr:postcode": "85710", "addr:state": "AZ", "brand": "USPS", "collection_times": "Mo-Fr 14:30", "name": "USPS COLLECTION BOX - BLUE BOX", "note": "ON 12/24 AND 12/31, THIS BOX MAY BE COLLECTED AS EARLY AS 12 NOON.", "ref": "8571000039"}, "type": "Feature"}
{"geometry": {"coordinates": [-110.825145, 32.201705], "type": "Point"}, "id": "1wpcRbWeuYrx-5bcO8jWy1O2Oh4=", "properties": {"@spider": "usps_collection_boxes", "addr:city": "TUCSON", "addr:country": "US", "addr:full": "1635 S RESEARCH LOOP", "addr:postcode": "85710", "addr:state": "AZ", "brand": "USPS", "collection_times": "Mo-Fr 12:30", "name": "USPS COLLECTION BOX - BLUE BOX", "note": "ON 12/24 AND 12/31, THIS BOX MAY BE COLLECTED AS EARLY AS 12 NOON.", "ref": "8571000041"}, "type": "Feature"}
{"geometry": {"coordinates": [-110.823809, 32.207772], "type": "Point"}, "id": "RvHNA64FmqBa3v4HIwNkEQXSVrA=", "properties": {"@spider": "usps_collection_boxes", "addr:city": "TUCSON", "addr:country": "US", "addr:full": "1099 S PANTANO RD", "addr:postcode": "85710", "addr:state": "AZ", "brand": "USPS", "collection_times": "Mo-Fr 17:00; Sa 16:30", "name": "USPS COLLECTION BOX - PO LOBBY", "note": "ON 12/24 AND 12/31, THIS BOX MAY BE COLLECTED AS EARLY AS 12 NOON.", "ref": "8571000045"}, "type": "Feature"}
{"geometry": {"coordinates": [-110.852381, 32.226084], "type": "Point"}, "id": "JImm34nv6h_2WMM03hO0lc5Mze8=", "properties": {"@spider": "usps_collection_boxes", "addr:city": "TUCSON", "addr:country": "US", "addr:full": "6565 E CARONDELET DR", "addr:postcode": "85710", "addr:state": "AZ", "brand": "USPS", "collection_times": "Mo-Fr 13:30", "name": "USPS COLLECTION BOX - BLUE BOX", "note": "ON 12/24 AND 12/31, THIS BOX MAY BE COLLECTED AS EARLY AS 12 NOON.", "ref": "8571000046"}, "type": "Feature"}
{"geometry": {"coordinates": [-110.834451, 32.22182], "type": "Point"}, "id": "hJAWdzQAiVhgc7teGK7INmtsr68=", "properties": {"@spider": "usps_collection_boxes", "addr:city": "TUCSON", "addr:country": "US", "addr:full": "7451 E BROADWAY BLVD", "addr:postcode": "85710", "addr:state": "AZ", "brand": "USPS", "collection_times": "Mo-Fr 14:00", "name": "USPS COLLECTION BOX - BLUE BOX", "note": "ON 12/24 AND 12/31, THIS BOX MAY BE COLLECTED AS EARLY AS 12 NOON.", "ref": "8571000048"}, "type": "Feature"}
{"geometry": {"coordinates": [-110.829667, 32.235849], "type": "Point"}, "id": "wtWraieVcFdmu2_Pa-Plru_U5ME=", "properties": {"@spider": "usps_collection_boxes", "addr:city": "TUCSON", "addr:country": "US", "addr:full": "7601 E SPEEDWAY BLVD", "addr:postcode": "85710", "addr:state": "AZ", "brand": "USPS", "collection_times": "Mo-Fr 14:30", "name": "USPS COLLECTION BOX - BLUE BOX", "note": "ON 12/24 AND 12/31, THIS BOX MAY BE COLLECTED AS EARLY AS 12 NOON.", "ref": "8571000049"}, "type": "Feature"}
{"geometry": {"coordinates": [-110.7898425, 32.2355265293], "type": "Point"}, "id": "uLg20mh2i1FTiBYy8zIHzjyyucw=", "properties": {"@spider": "usps_collection_boxes", "addr:city": "TUCSON", "addr:country": "US", "addr:full": "9495 E SPEEDWAY BLVD", "addr:postcode": "85710", "addr:state": "AZ", "brand": "USPS", "collection_times": "Mo-Fr 14:30", "name": "USPS COLLECTION BOX - BLUE BOX", "note": "ON 12/24 AND 12/31, THIS BOX MAY BE COLLECTED AS EARLY AS 12 NOON.", "ref": "8571000050"}, "type": "Feature"}
{"geometry": {"coordinates": [-110.842722, 32.20491], "type": "Point"}, "id": "0YsC8ko51RLrk351tpXYBrN6_n4=", "properties": {"@spider": "usps_collection_boxes", "addr:city": "TUCSON", "addr:country": "US", "addr:full": "7050 E 22ND ST", "addr:postcode": "85710", "addr:state": "AZ", "brand": "USPS", "collection_times": "Mo-Fr 13:00", "name": "USPS COLLECTION BOX - BLUE BOX", "note": "ON 12/24 AND 12/31, THIS BOX MAY BE COLLECTED AS EARLY AS 12 NOON.", "ref": "8571000051"}, "type": "Feature"}
{"geometry": {"coordinates": [-110.8231669622, 32.2080519899], "type": "Point"}, "id": "F-NK41iuOoe5J_BFwFvPt6_69Es=", "properties": {"@spider": "usps_collection_boxes", "addr:city": "TUCSON", "addr:country": "US", "addr:full": "1099 S PANTANO RD", "addr:postcode": "85710", "addr:state": "AZ", "brand": "USPS", "collection_times": "Mo-Fr 17:00; Sa 16:30", "name": "USPS COLLECTION BOX - APC", "note": "ON 12/24 AND 12/31, THIS BOX MAY BE COLLECTED AS EARLY AS 12 NOON.", "ref": "8571000052"}, "type": "Feature"}
{"geometry": {"coordinates": [-110.825549, 32.235447], "type": "Point"}, "id": "dhVXj8OJKMIEY1UJTFalrfkvyb8=", "properties": {"@spider": "usps_collection_boxes", "addr:city": "TUCSON", "addr:country": "US", "addr:full": "7812 E SPEEDWAY BLVD", "addr:postcode": "85710", "addr:state": "AZ", "brand": "USPS", "collection_times": "Mo-Fr 14:30; Sa 14:00", "name": "USPS COLLECTION BOX - BLUE BOX", "note": "ON 12/24 AND 12/31, THIS BOX MAY BE COLLECTED AS EARLY AS 12 NOON.", "ref": "8571000056"}, "type": "Feature"}
{"geometry": {"coordinates": [-110.823809, 32.207772], "type": "Point"}, "id": "_3fWe6wrD6EUjse4MXF-NQIGTWQ=", "properties": {"@spider": "usps_collection_boxes", "addr:city": "TUCSON", "addr:country": "US", "addr:full": "1099 S PANTANO RD", "addr:postcode": "85710", "addr:state": "AZ", "brand": "USPS", "collection_times": "Mo-Fr 17:00; Sa 16:30", "name": "USPS COLLECTION BOX - BLUE BOX", "note": "ON 12/24 AND 12/31, THIS BOX MAY BE COLLECTED AS EARLY AS 12 NOON.", "ref": "8571000058"}, "type": "Feature"}
{"geometry": {"coordinates": [-110.823778994, 32.208003974], "type": "Point"}, "id": "y-Masa4RN_Aj5Y9O5hRriWjdsSY=", "properties": {"@spider": "usps_collection_boxes", "addr:city": "TUCSON", "addr:country": "US", "addr:full": "1099 S PANTANO RD", "addr:postcode": "85710", "addr:state": "AZ", "brand": "USPS", "collection_times": "Mo-Fr 17:00; Sa 16:30", "name": "USPS COLLECTION BOX - PO LOBBY", "note": "ON 12/24 AND 12/31, THIS BOX MAY BE COLLECTED AS EARLY AS 12 NOON.", "ref": "8571000065"}, "type": "Feature"}
{"geometry": {"coordinates": [-110.7909139855, 32.207484996], "type": "Point"}, "id": "t0_aPkLo2RtfiOMfL7F0SB-TYic=", "properties": {"@spider": "usps_collection_boxes", "addr:city": "TUCSON", "addr:country": "US", "addr:full": "9431 E 22ND ST STE 101", "addr:postcode": "85710", "addr:state": "AZ", "brand": "USPS", "collection_times": "Mo-Fr 15:00", "name": "USPS COLLECTION BOX - PO LOBBY", "note": "ON 12/24 AND 12/31, THIS BOX MAY BE COLLECTED AS EARLY AS 12 NOON.", "ref": "8571000066"}, "type": "Feature"}
{"geometry": {"coordinates": [-110.909049, 32.200091], "type": "Point"}, "id": "Ti4vI1whMLH16Hq1HLwNAx9cXY4=", "properties": {"@spider": "usps_collection_boxes", "addr:city": "TUCSON", "addr:country": "US", "addr:full": "1875 S ALVERNON WAY", "addr:postcode": "85711", "addr:state": "AZ", "brand": "USPS", "collection_times": "Mo-Fr 13:30", "name": "USPS COLLECTION BOX - BLUE BOX", "note": "ON 12/24 AND 12/31, THIS BOX MAY BE COLLECTED AS EARLY AS 12 NOON.", "ref": "8571100011"}, "type": "Feature"}
{"geometry": {"coordinates": [-110.884154, 32.222697], "type": "Point"}, "id": "Iy6gK0CgnqTAci2-KwKjo5wvVJY=", "properties": {"@spider": "usps_collection_boxes", "addr:city": "TUCSON", "addr:country": "US", "addr:full": "5055 E BROADWAY BLVD", "addr:postcode": "85711", "addr:state": "AZ", "brand": "USPS", "collection_times": "Mo-Fr 12:00", "name": "USPS COLLECTION BOX - BLUE BOX", "ref": "8571100020"}, "type": "Feature"}
{"geometry": {"coordinates": [-110.859079, 32.22462], "type": "Point"}, "id": "rJhA1ZiyDR5pEMRW18GZy787jUk=", "properties": {"@spider": "usps_collection_boxes", "addr:city": "TUCSON", "addr:country": "US", "addr:full": "335 N WILMOT RD", "addr:postcode": "85711", "addr:state": "AZ", "brand": "USPS", "collection_times": "Mo-Fr 13:00", "name": "USPS COLLECTION BOX - BLUE BOX", "note": "ON 12/24 AND 12/31, THIS BOX MAY BE COLLECTED AS EARLY AS 12 NOON.", "ref": "8571100021"}, "type": "Feature"}
{"geometry": {"coordinates": [-110.8971500695, 32.2288973275], "type": "Point"}, "id": "wSAHWdys0COswFX50YPliuyVT-U=", "properties": {"@spider": "usps_collection_boxes", "addr:city": "TUCSON", "addr:country": "US", "addr:full": "4477 E 5TH ST", "addr:postcode": "85711", "addr:state": "AZ", "brand": "USPS", "collection_times": "Mo-Fr 13:30", "name": "USPS COLLECTION BOX - BLUE BOX", "note": "ON 12/24 AND 12/31, THIS BOX MAY BE COLLECTED AS EARLY AS 12 NOON.", "ref": "8571100022"}, "type": "Feature"}
{"geometry": {"coordinates": [-110.908962, 32.229883], "type": "Point"}, "id": "PZVIC2_LlLr0M6C_bSBQ5Dx1bWc=", "properties": {"@spider": "usps_collection_boxes", "addr:city": "TUCSON", "addr:country": "US", "addr:full": "630 N ALVERNON WAY", "addr:postcode": "85711", "addr:state": "AZ", "brand": "USPS", "collection_times": "Mo-Fr 12:30", "name": "USPS COLLECTION BOX - BLUE BOX", "note": "ON 12/24 AND 12/31, THIS BOX MAY BE COLLECTED AS EARLY AS 12 NOON.", "ref": "8571100026"}, "type": "Feature"}
{"geometry": {"coordinates": [-110.875283, 32.198084], "type": "Point"}, "id": "vqouLZBqMgweQcgjl_kXsvnhOoI=", "properties": {"@spider": "usps_collection_boxes", "addr:city": "TUCSON", "addr:country": "US", "addr:full": "2014 S CRAYCROFT RD", "addr:postcode": "85711", "addr:state": "AZ", "brand": "USPS", "collection_times": "Mo-Fr 14:30", "name": "USPS COLLECTION BOX - BLUE BOX", "note": "ON 12/24 AND 12/31, THIS BOX MAY BE COLLECTED AS EARLY AS 12 NOON.", "ref": "8571100031"}, "type": "Feature"}
{"geometry": {"coordinates": [-110.882122, 32.220456], "type": "Point"}, "id": "JLNzUQKDSsXsKT_EQwrioZjzVPk=", "properties": {"@spider": "usps_collection_boxes", "addr:city": "TUCSON", "addr:country": "US", "addr:full": "5210 E WILLIAMS CIR", "addr:postcode": "85711", "addr:state": "AZ", "brand": "USPS", "collection_times": "Mo-Sa 12:00", "name": "USPS COLLECTION BOX - BLUE BOX", "ref": "8571100035"}, "type": "Feature"}
{"geometry": {"coordinates": [-110.858634, 32.231789], "type": "Point"}, "id": "F1UO_u_5_bfTWx3tWbALhDferUI=", "properties": {"@spider": "usps_collection_boxes", "addr:city": "TUCSON", "addr:country": "US", "addr:full": "899 N WILMOT RD", "addr:postcode": "85711", "addr:state": "AZ", "brand": "USPS", "collection_times": "Mo-Fr 12:30", "name": "USPS COLLECTION BOX - BLUE BOX", "note": "ON 12/24 AND 12/31, THIS BOX MAY BE COLLECTED AS EARLY AS 12 NOON.", "ref": "8571100036"}, "type": "Feature"}
{"geometry": {"coordinates": [-110.86709, 32.219321], "type": "Point"}, "id": "gw7ElTMlB9za01ivpPXbX2xpXGc=", "properties": {"@spider": "usps_collection_boxes", "addr:city": "TUCSON", "addr:country": "US", "addr:full": "5870 E BROADWAY BLVD", "addr:postcode": "85711", "addr:state": "AZ", "brand": "USPS", "collection_times": "Mo-Fr 14:30; Sa 13:00", "name": "USPS COLLECTION BOX - BLUE BOX", "note": "ON 12/24 AND 12/31, THIS BOX MAY BE COLLECTED AS EARLY AS 12 NOON.", "ref": "8571100038"}, "type": "Feature"}
{"geometry": {"coordinates": [-110.859649, 32.222112], "type": "Point"}, "id": "Q6F53LHmbg820mJCR3Laeod8QdI=", "properties": {"@spider": "usps_collection_boxes", "addr:city": "TUCSON", "addr:country": "US", "addr:full": "6245 E BROADWAY BLVD", "addr:postcode": "85711", "addr:state": "AZ", "brand": "USPS", "collection_times": "Mo-Fr 14:15", "name": "USPS COLLECTION BOX - BLUE BOX", "note": "ON 12/24 AND 12/31, THIS BOX MAY BE COLLECTED AS EARLY AS 12 NOON.", "ref": "8571100039"}, "type": "Feature"}
{"geometry": {"coordinates": [-110.8593559284, 32.2215820164], "type": "Point"}, "id": "nMPmRwO8TuAakljc8g_S4iMpa_s=", "properties": {"@spider": "usps_collection_boxes", "addr:city": "TUCSON", "addr:country": "US", "addr:full": "6245 E BROADWAY BLVD", "addr:postcode": "85711", "addr:state": "AZ", "brand": "USPS", "collection_times": "Mo-Fr 14:30; Sa 13:00", "name": "USPS COLLECTION BOX - BLUE BOX", "note": "ON 12/24 AND 12/31, THIS BOX MAY BE COLLECTED AS EARLY AS 12 NOON.", "ref": "8571100042"}, "type": "Feature"}
{"geometry": {"coordinates": [-110.883874, 32.224978], "type": "Point"}, "id": "8kLnt6iCDtRP0pQykf-Ex_-BTx8=", "properties": {"@spider": "usps_collection_boxes", "addr:city": "TUCSON", "addr:country": "US", "addr:full": "255 N ROSEMONT BLVD", "addr:postcode": "85711", "addr:state": "AZ", "brand": "USPS", "collection_times": "Mo-Fr 17:00; Sa 16:15", "name": "USPS COLLECTION BOX - BLUE BOX", "note": "ON 12/24 AND 12/31, THIS BOX MAY BE COLLECTED AS EARLY AS 12 NOON.", "ref": "8571100044"}, "type": "Feature"}
{"geometry": {"coordinates": [-110.883874, 32.224978], "type": "Point"}, "id": "zxJTIvrpFryXL5Yqy0z7f4-iPA4=", "properties": {"@spider": "usps_collection_boxes", "addr:city": "TUCSON", "addr:country": "US", "addr:full": "255 N ROSEMONT BLVD", "addr:postcode": "85711", "addr:state": "AZ", "brand": "USPS", "collection_times": "Mo-Fr 17:00; Sa 16:15", "name": "USPS COLLECTION BOX - BLUE BOX", "note": "ON 12/24 AND 12/31, THIS BOX MAY BE COLLECTED AS EARLY AS 12 NOON.", "ref": "8571100045"}, "type": "Feature"}
{"geometry": {"coordinates": [-110.909443, 32.204169], "type": "Point"}, "id": "A_zFgC96fbeWZdOen7MsV31nl9g=", "properties": {"@spider": "usps_collection_boxes", "addr:city": "TUCSON", "addr:country": "US", "addr:full": "1455 S ALVERNON WAY", "addr:postcode": "85711", "addr:state": "AZ", "brand": "USPS", "collection_times": "Mo-Fr 10:00", "name": "USPS COLLECTION BOX - BLUE BOX", "ref": "8571100046"}, "type": "Feature"}
{"geometry": {"coordinates": [-110.892009, 32.22265], "type": "Point"}, "id": "Psa-CEw_MZezjWcmFWmBgNhJS7A=", "properties": {"@spider": "usps_collection_boxes", "addr:city": "TUCSON", "addr:country": "US", "addr:full": "40 N SWAN RD", "addr:postcode": "85711", "addr:state": "AZ", "brand": "USPS", "collection_times": "Mo-Fr 14:30", "name": "USPS COLLECTION BOX - BLUE BOX", "note": "ON 12/24 AND 12/31, THIS BOX MAY BE COLLECTED AS EARLY AS 12 NOON.", "ref": "8571100048"}, "type": "Feature"}
{"geometry": {"coordinates": [-110.883628, 32.222787], "type": "Point"}, "id": "_UTmLvCVEZeV8SDn45OXrjzVOXc=", "properties": {"@spider": "usps_collection_boxes", "addr:city": "TUCSON", "addr:country": "US", "addr:full": "5151 E BROADWAY BLVD", "addr:postcode": "85711", "addr:state": "AZ", "brand": "USPS", "collection_times": "Mo-Fr 13:30", "name": "USPS COLLECTION BOX - BLUE BOX", "note": "ON 12/24 AND 12/31, THIS BOX MAY BE COLLECTED AS EARLY AS 12 NOON.", "ref": "8571100050"}, "type": "Feature"}
{"geometry": {"coordinates": [-110.858944, 32.223838], "type": "Point"}, "id": "YASuXpd7QLOXanR5eHMhQyfCeuY=", "properties": {"@spider": "usps_collection_boxes", "addr:city": "TUCSON", "addr:country": "US", "addr:full": "101 N WILMOT RD", "addr:postcode": "85711", "addr:state": "AZ", "brand": "USPS", "collection_times": "Mo-Fr 09:00", "name": "USPS COLLECTION BOX - BLUE BOX", "ref": "8571100052"}, "type": "Feature"}
{"geometry": {"coordinates": [-110.894265, 32.221752], "type": "Point"}, "id": "_XoaDqNGr0hH4SkVPjo7MMKUrB4=", "properties": {"@spider": "usps_collection_boxes", "addr:city": "TUCSON", "addr:country": "US", "addr:full": "4601 E BROADWAY BLVD", "addr:postcode": "85711", "addr:state": "AZ", "brand": "USPS", "collection_times": "Mo-Fr 13:15", "name": "USPS COLLECTION BOX - BLUE BOX", "note": "ON 12/24 AND 12/31, THIS BOX MAY BE COLLECTED AS EARLY AS 12 NOON.", "ref": "8571100053"}, "type": "Feature"}
{"geometry": {"coordinates": [-110.883874, 32.224978], "type": "Point"}, "id": "A8Nx8Ji7RhOvovfK3IJSdnNl_g4=", "properties": {"@spider": "usps_collection_boxes", "addr:city": "TUCSON", "addr:country": "US", "addr:full": "255 N ROSEMONT BLVD", "addr:postcode": "85711", "addr:state": "AZ", "brand": "USPS", "collection_times": "Mo-Fr 16:00", "name": "USPS COLLECTION BOX - EXPRESS", "note": "ON 12/24 AND 12/31, THIS BOX MAY BE COLLECTED AS EARLY AS 12 NOON.", "ref": "8571100054"}, "type": "Feature"}
{"geometry": {"coordinates": [-110.857552, 32.226618], "type": "Point"}, "id": "1VzEBEeQbhyIKekSxSUI2p79L6Y=", "properties": {"@spider": "usps_collection_boxes", "addr:city": "TUCSON", "addr:country": "US", "addr:full": "420 N WILMOT RD", "addr:postcode": "85711", "addr:state": "AZ", "brand": "USPS", "collection_times": "Mo-Fr 12:00", "name": "USPS COLLECTION BOX - BLUE BOX", "ref": "8571100055"}, "type": "Feature"}
{"geometry": {"coordinates": [-110.883874, 32.224978], "type": "Point"}, "id": "IvMlhRXSVM9ivFYBtsBRZJ1Kj9o=", "properties": {"@spider": "usps_collection_boxes", "addr:city": "TUCSON", "addr:country": "US", "addr:full": "255 N ROSEMONT BLVD", "addr:postcode": "85711", "addr:state": "AZ", "brand": "USPS", "collection_times": "Mo-Fr 17:00; Sa 16:15", "name": "USPS COLLECTION BOX - BLUE BOX", "note": "ON 12/24 AND 12/31, THIS BOX MAY BE COLLECTED AS EARLY AS 12 NOON.", "ref": "8571100059"}, "type": "Feature"}
{"geometry": {"coordinates": [-110.898217, 32.220746], "type": "Point"}, "id": "w3QcZNpmfmX98OMPDa7f3_69Gzs=", "properties": {"@spider": "usps_collection_boxes", "addr:city": "TUCSON", "addr:country": "US", "addr:full": "4400 E BROADWAY BLVD", "addr:postcode": "85711", "addr:state": "AZ", "brand": "USPS", "collection_times": "Mo-Sa 12:30", "name": "USPS COLLECTION BOX - BLUE BOX", "note": "ON 12/24 AND 12/31, THIS BOX MAY BE COLLECTED AS EARLY AS 12 NOON.", "ref": "8571100061"}, "type": "Feature"}
{"geometry": {"coordinates": [-110.883874, 32.224978], "type": "Point"}, "id": "YSuxdL7TzTFw4dD_ShorUO1XfWM=", "properties": {"@spider": "usps_collection_boxes", "addr:city": "TUCSON", "addr:country": "US", "addr:full": "255 N ROSEMONT BLVD", "addr:postcode": "85711", "addr:state": "AZ", "brand": "USPS", "collection_times": "Mo-Fr 17:00; Sa 16:15", "name": "USPS COLLECTION BOX - PO LOBBY", "note": "ON 12/24 AND 12/31, THIS BOX MAY BE COLLECTED AS EARLY AS 12 NOON.", "ref": "8571100062"}, "type": "Feature"}
{"geometry": {"coordinates": [-110.904032, 32.205507], "type": "Point"}, "id": "yDBXNB9pl-3tv2FXUZ779MPkWT8=", "properties": {"@spider": "usps_collection_boxes", "addr:city": "TUCSON", "addr:country": "US", "addr:full": "4150 E 22ND ST", "addr:postcode": "85711", "addr:state": "AZ", "brand": "USPS", "collection_times": "Mo-Fr 12:00", "name": "USPS COLLECTION BOX - BLUE BOX", "ref": "8571100063"}, "type": "Feature"}
{"geometry": {"coordinates": [-110.875981, 32.222576], "type": "Point"}, "id": "rozQQhW7z-OcVgPEm5lKchepC08=", "properties": {"@spider": "usps_collection_boxes", "addr:city": "TUCSON", "addr:country": "US", "addr:full": "5425 E BROADWAY BLVD", "addr:postcode": "85711", "addr:state": "AZ", "brand": "USPS", "collection_times": "Mo-Sa 10:00", "name": "USPS COLLECTION BOX - BLUE BOX", "ref": "8571100065"}, "type": "Feature"}
{"geometry": {"coordinates": [-110.877064, 32.207731], "type": "Point"}, "id": "dVMGdq2Ft125IEJio5xd9m_NKN0=", "properties": {"@spider": "usps_collection_boxes", "addr:city": "TUCSON", "addr:country": "US", "addr:full": "5441 E 22ND ST", "addr:postcode": "85711", "addr:state": "AZ", "brand": "USPS", "collection_times": "Mo-Fr 13:00", "name": "USPS COLLECTION BOX - BLUE BOX", "note": "ON 12/24 AND 12/31, THIS BOX MAY BE COLLECTED AS EARLY AS 12 NOON.", "ref": "8571100066"}, "type": "Feature"}
{"geometry": {"coordinates": [-110.909977, 32.229363], "type": "Point"}, "id": "EY6OpN3qZJZeeJGryXU78yYf4mc=", "properties": {"@spider": "usps_collection_boxes", "addr:city": "TUCSON", "addr:country": "US", "addr:full": "615 N ALVERNON WAY", "addr:postcode": "85711", "addr:state": "AZ", "brand": "USPS", "collection_times": "Mo-Fr 13:00", "name": "USPS COLLECTION BOX - BLUE BOX", "note": "ON 12/24 AND 12/31, THIS BOX MAY BE COLLECTED AS EARLY AS 12 NOON.", "ref": "8571100067"}, "type": "Feature"}
{"geometry": {"coordinates": [-110.883874, 32.224978], "type": "Point"}, "id": "5hs5-iedmEvGKCNjOPnXgizoe30=", "properties": {"@spider": "usps_collection_boxes", "addr:city": "TUCSON", "addr:country": "US", "addr:full": "255 N ROSEMONT BLVD", "addr:postcode": "85711", "addr:state": "AZ", "brand": "USPS", "collection_times": "Mo-Fr 17:00; Sa 16:15", "name": "USPS COLLECTION BOX - APC", "note": "ON 12/24 AND 12/31, THIS BOX MAY BE COLLECTED AS EARLY AS 12 NOON.", "ref": "8571100069"}, "type": "Feature"}
{"geometry": {"coordinates": [-110.883875427, 32.2249784147], "type": "Point"}, "id": "MIvy7gnLQwQ5k4VqoZeNuflwMaY=", "properties": {"@spider": "usps_collection_boxes", "addr:city": "TUCSON", "addr:country": "US", "addr:full": "255 N ROSEMONT BLVD", "addr:postcode": "85711", "addr:state": "AZ", "brand": "USPS", "collection_times": "Mo-Fr 17:00; Sa 16:15", "name": "USPS COLLECTION BOX - PO LOBBY", "note": "ON 12/24 AND 12/31, THIS BOX MAY BE COLLECTED AS EARLY AS 12 NOON.", "ref": "8571100089"}, "type": "Feature"}
{"geometry": {"coordinates": [-110.857802547, 32.226359974], "type": "Point"}, "id": "tH7GbVwjYboZ2s9KdTKXjwjiB5w=", "properties": {"@spider": "usps_collection_boxes", "addr:city": "TUCSON", "addr:country": "US", "addr:full": "420 N WILMOT RD", "addr:postcode": "85711", "addr:state": "AZ", "brand": "USPS", "collection_times": "Mo-Fr 15:00; Sa 14:00", "name": "USPS COLLECTION BOX - PO LOBBY", "note": "ON 12/24 AND 12/31, THIS BOX MAY BE COLLECTED AS EARLY AS 12 NOON.", "ref": "8571100090"}, "type": "Feature"}
{"geometry": {"coordinates": [-110.856674, 32.239942], "type": "Point"}, "id": "SZ1PKQVb31GzaWn8g_2vm818mJk=", "properties": {"@spider": "usps_collection_boxes", "addr:city": "TUCSON", "addr:country": "US", "addr:full": "1400 N WILMOT RD", "addr:postcode": "85712", "addr:state": "AZ", "brand": "USPS", "collection_times": "Mo-Fr 12:30", "name": "USPS COLLECTION BOX - BLUE BOX", "note": "ON 12/24 AND 12/31, THIS BOX MAY BE COLLECTED AS EARLY AS 12 NOON.", "ref": "8571200001"}, "type": "Feature"}
{"geometry": {"coordinates": [-110.891521, 32.23653], "type": "Point"}, "id": "pCK3f4bEJ-VoZjZykqhTdEJONpo=", "properties": {"@spider": "usps_collection_boxes", "addr:city": "TUCSON", "addr:country": "US", "addr:full": "4747 E SPEEDWAY BLVD", "addr:postcode": "85712", "addr:state": "AZ", "brand": "USPS", "collection_times": "Mo-Fr 12:45; Sa 13:00", "name": "USPS COLLECTION BOX - BLUE BOX", "note": "ON 12/24 AND 12/31, THIS BOX MAY BE COLLECTED AS EARLY AS 12 NOON.", "ref": "8571200002"}, "type": "Feature"}
{"geometry": {"coordinates": [-110.878812, 32.249695], "type": "Point"}, "id": "ofl3FRkzijFBgJtmXUiXhqbkxVY=", "properties": {"@spider": "usps_collection_boxes", "addr:city": "TUCSON", "addr:country": "US", "addr:full": "5300 E ERICKSON DR", "addr:postcode": "85712", "addr:state": "AZ", "brand": "USPS", "collection_times": "Mo-Fr 12:45", "name": "USPS COLLECTION BOX - BLUE BOX", "note": "ON 12/24 AND 12/31, THIS BOX MAY BE COLLECTED AS EARLY AS 12 NOON.", "ref": "8571200005"}, "type": "Feature"}
{"geometry": {"coordinates": [-110.88449, 32.2516], "type": "Point"}, "id": "FvkkoAfTKg61Me58KlrhvVrHTRk=", "properties": {"@spider": "usps_collection_boxes", "addr:city": "TUCSON", "addr:country": "US", "addr:full": "5099 E GRANT RD", "addr:postcode": "85712", "addr:state": "AZ", "brand": "USPS", "collection_times": "Mo-Fr 10:00", "name": "USPS COLLECTION BOX - BLUE BOX", "ref": "8571200006"}, "type": "Feature"}
{"geometry": {"coordinates": [-110.85838, 32.241446], "type": "Point"}, "id": "7lM3hl0XfkRztJzpCrI-TpfhjSU=", "properties": {"@spider": "usps_collection_boxes", "addr:city": "TUCSON", "addr:country": "US", "addr:full": "6298 E LEE ST", "addr:postcode": "85712", "addr:state": "AZ", "brand": "USPS", "collection_times": "Mo-Fr 13:30", "name": "USPS COLLECTION BOX - BLUE BOX", "note": "ON 12/24 AND 12/31, THIS BOX MAY BE COLLECTED AS EARLY AS 12 NOON.", "ref": "8571200008"}, "type": "Feature"}
{"geometry": {"coordinates": [-110.875838, 32.243028], "type": "Point"}, "id": "drIRU8c9xN8379U0pBXE-4q1W8I=", "properties": {"@spider": "usps_collection_boxes", "addr:city": "TUCSON", "addr:country": "US", "addr:full": "5700 E PIMA ST", "addr:postcode": "85712", "addr:state": "AZ", "brand": "USPS", "collection_times": "Mo-Fr 12:00", "name": "USPS COLLECTION BOX - BLUE BOX", "ref": "8571200022"}, "type": "Feature"}
{"geometry": {"coordinates": [-110.893805, 32.243301], "type": "Point"}, "id": "_Ftynn4_dwW1MVg8szyrSuKUXrs=", "properties": {"@spider": "usps_collection_boxes", "addr:city": "TUCSON", "addr:country": "US", "addr:full": "4640 E PIMA ST", "addr:postcode": "85712", "addr:state": "AZ", "brand": "USPS", "collection_times": "Mo-Fr 12:30", "name": "USPS COLLECTION BOX - BLUE BOX", "note": "ON 12/24 AND 12/31, THIS BOX MAY BE COLLECTED AS EARLY AS 12 NOON.", "ref": "8571200025"}, "type": "Feature"}
{"geometry": {"coordinates": [-110.908165, 32.236518], "type": "Point"}, "id": "YFOW4iwtyf-JhyvVGaWvxpFRKRI=", "properties": {"@spider": "usps_collection_boxes", "addr:city": "TUCSON", "addr:country": "US", "addr:full": "3955 E SPEEDWAY BLVD", "addr:postcode": "85712", "addr:state": "AZ", "brand": "USPS", "collection_times": "Mo-Fr 11:00; Sa 08:30", "name": "USPS COLLECTION BOX - BLUE BOX", "ref": "8571200026"}, "type": "Feature"}
{"geometry": {"coordinates": [-110.892282, 32.249441], "type": "Point"}, "id": "Xz3ORr1D-x93XgsyDBZ-8WJaTRA=", "properties": {"@spider": "usps_collection_boxes", "addr:city": "TUCSON", "addr:country": "US", "addr:full": "4724 E GRANT RD", "addr:postcode": "85712", "addr:state": "AZ", "brand": "USPS", "collection_times": "Mo-Sa 12:30", "name": "USPS COLLECTION BOX - BLUE BOX", "note": "ON 12/24 AND 12/31, THIS BOX MAY BE COLLECTED AS EARLY AS 12 NOON.", "ref": "8571200027"}, "type": "Feature"}
{"geometry": {"coordinates": [-110.863204, 32.25162], "type": "Point"}, "id": "NymVVs0EOXbpXQpZA6Lw1Yq1tWk=", "properties": {"@spider": "usps_collection_boxes", "addr:city": "TUCSON", "addr:country": "US", "addr:full": "5997 E GRANT RD", "addr:postcode": "85712", "addr:state": "AZ", "brand": "USPS", "collection_times": "Mo-Fr 12:00", "name": "USPS COLLECTION BOX - BLUE BOX", "ref": "8571200040"}, "type": "Feature"}
{"geometry": {"coordinates": [-110.890764, 32.260551], "type": "Point"}, "id": "XVxwyUUXWzS3M4vcYL4hQ0u88a0=", "properties": {"@spider": "usps_collection_boxes", "addr:city": "TUCSON", "addr:country": "US", "addr:full": "2970 N SWAN RD", "addr:postcode": "85712", "addr:state": "AZ", "brand": "USPS", "collection_times": "Mo-Fr 13:00", "name": "USPS COLLECTION BOX - BLUE BOX", "note": "ON 12/24 AND 12/31, THIS BOX MAY BE COLLECTED AS EARLY AS 12 NOON.", "ref": "8571200042"}, "type": "Feature"}
{"geometry": {"coordinates": [-110.892188, 32.258239], "type": "Point"}, "id": "OJxImupWrCtjd36sf08uOtlzR8Y=", "properties": {"@spider": "usps_collection_boxes", "addr:city": "TUCSON", "addr:country": "US", "addr:full": "2810 N SWAN RD", "addr:postcode": "85712", "addr:state": "AZ", "brand": "USPS", "collection_times": "Mo-Fr 12:30", "name": "USPS COLLECTION BOX - BLUE BOX", "note": "ON 12/24 AND 12/31, THIS BOX MAY BE COLLECTED AS EARLY AS 12 NOON.", "ref": "8571200044"}, "type": "Feature"}
{"geometry": {"coordinates": [-110.891134, 32.266466], "type": "Point"}, "id": "HvKye-QJZlOcbC_fSe9TvlEgLM4=", "properties": {"@spider": "usps_collection_boxes", "addr:city": "TUCSON", "addr:country": "US", "addr:full": "4769 E CAMP LOWELL DR", "addr:postcode": "85712", "addr:state": "AZ", "brand": "USPS", "collection_times": "Mo-Fr 14:30", "name": "USPS COLLECTION BOX - BLUE BOX", "note": "ON 12/24 AND 12/31, THIS BOX MAY BE COLLECTED AS EARLY AS 12 NOON.", "ref": "8571200047"}, "type": "Feature"}
{"geometry": {"coordinates": [-110.859574, 32.235396], "type": "Point"}, "id": "GTLn677dJLpkW9VrVXI4KpcZM4A=", "properties": {"@spider": "usps_collection_boxes", "addr:city": "TUCSON", "addr:country": "US", "addr:full": "6230 E SPEEDWAY BLVD", "addr:postcode": "85712", "addr:state": "AZ", "brand": "USPS", "collection_times": "Mo-Fr 13:00", "name": "USPS COLLECTION BOX - BLUE BOX", "note": "ON 12/24 AND 12/31, THIS BOX MAY BE COLLECTED AS EARLY AS 12 NOON.", "ref": "8571200049"}, "type": "Feature"}
{"geometry": {"coordinates": [-110.866112, 32.243592], "type": "Point"}, "id": "cvcg8ztuNA1nv5UgZ9Jy5ddzMJk=", "properties": {"@spider": "usps_collection_boxes", "addr:city": "TUCSON", "addr:country": "US", "addr:full": "5909 E PIMA ST", "addr:postcode": "85712", "addr:state": "AZ", "brand": "USPS", "collection_times": "Mo-Fr 11:30", "name": "USPS COLLECTION BOX - BLUE BOX", "ref": "8571200058"}, "type": "Feature"}
{"geometry": {"coordinates": [-110.893722, 32.261575], "type": "Point"}, "id": "8O_xvca1CdQtSfMantxJ4eRI6Dc=", "properties": {"@spider": "usps_collection_boxes", "addr:city": "TUCSON", "addr:country": "US", "addr:full": "4625 E FORT LOWELL RD", "addr:postcode": "85712", "addr:state": "AZ", "brand": "USPS", "collection_times": "Mo-Fr 12:00", "name": "USPS COLLECTION BOX - BLUE BOX", "ref": "8571200059"}, "type": "Feature"}
{"geometry": {"coordinates": [-110.858378, 32.237145], "type": "Point"}, "id": "uOcM5oupHZpvJ-VPusj2XlnzWhU=", "properties": {"@spider": "usps_collection_boxes", "addr:city": "TUCSON", "addr:country": "US", "addr:full": "1101 N WILMOT RD", "addr:postcode": "85712", "addr:state": "AZ", "brand": "USPS", "collection_times": "Mo-Fr 12:00", "name": "USPS COLLECTION BOX - BLUE BOX", "ref": "8571200060"}, "type": "Feature"}
{"geometry": {"coordinates": [-110.895957, 32.264428], "type": "Point"}, "id": "iCcot0bwW_JiyN2YjhFZisnOFRI=", "properties": {"@spider": "usps_collection_boxes", "addr:city": "TUCSON", "addr:country": "US", "addr:full": "4568 E CAMP LOWELL DR", "addr:postcode": "85712", "addr:state": "AZ", "brand": "USPS", "collection_times": "Mo-Fr 12:30", "name": "USPS COLLECTION BOX - BLUE BOX", "note": "ON 12/24 AND 12/31, THIS BOX MAY BE COLLECTED AS EARLY AS 12 NOON.", "ref": "8571200062"}, "type": "Feature"}
{"geometry": {"coordinates": [-110.89147, 32.25206], "type": "Point"}, "id": "L1SBomoyjKyCS94pjybFn_8SND8=", "properties": {"@spider": "usps_collection_boxes", "addr:city": "TUCSON", "addr:country": "US", "addr:full": "4811 E GRANT RD", "addr:postcode": "85712", "addr:state": "AZ", "brand": "USPS", "collection_times": "Mo-Sa 12:00", "name": "USPS COLLECTION BOX - BLUE BOX", "ref": "8571200066"}, "type": "Feature"}
{"geometry": {"coordinates": [-110.890323, 32.2507534628], "type": "Point"}, "id": "LSexGN5XsZ-rCdd-LH47eDbT5Ns=", "properties": {"@spider": "usps_collection_boxes", "addr:city": "TUCSON", "addr:country": "US", "addr:full": "4811 E GRANT RD STE 117", "addr:postcode": "85712", "addr:state": "AZ", "brand": "USPS", "collection_times": "Mo-Fr 14:30; Sa 14:15", "name": "USPS COLLECTION BOX - PO LOBBY", "note": "ON 12/24 AND 12/31, THIS BOX MAY BE COLLECTED AS EARLY AS 12 NOON.", "ref": "8571200070"}, "type": "Feature"}
{"geometry": {"coordinates": [-110.89495151, 32.2650745417], "type": "Point"}, "id": "8plas_G2xGk8pCRw8AjzrsMCFrs=", "properties": {"@spider": "usps_collection_boxes", "addr:city": "TUCSON", "addr:country": "US", "addr:full": "4568 E CAMP LOWELL DR", "addr:postcode": "85712", "addr:state": "AZ", "brand": "USPS", "collection_times": "Mo-Fr 12:30", "name": "USPS COLLECTION BOX - BLUE BOX", "note": "ON 12/24 AND 12/31, THIS BOX MAY BE COLLECTED AS EARLY AS 12 NOON.", "ref": "8571200071"}, "type": "Feature"}
{"geometry": {"coordinates": [-110.930431, 32.1763], "type": "Point"}, "id": "YosfthhEiTVHKHKcHiDPNF4R2DY=", "properties": {"@spider": "usps_collection_boxes", "addr:city": "TUCSON", "addr:country": "US", "addr:full": "2800 E AJO WAY", "addr:postcode": "85713", "addr:state": "AZ", "brand": "USPS", "collection_times": "Mo-Fr 13:00", "name": "USPS COLLECTION BOX - BLUE BOX", "note": "ON 12/24 AND 12/31, THIS BOX MAY BE COLLECTED AS EARLY AS 12 NOON.", "ref": "8571300003"}, "type": "Feature"}
{"geometry": {"coordinates": [-110.965220021, 32.180239997], "type": "Point"}, "id": "WD2DOP3znB3FymL1EKltExBFluM=", "properties": {"@spider": "usps_collection_boxes", "addr:city": "TUCSON", "addr:country": "US", "addr:full": "3601 S 6TH AVE", "addr:postcode": "85713", "addr:state": "AZ", "brand": "USPS", "collection_times": "Mo-Fr 12:15", "name": "USPS COLLECTION BOX - BLUE BOX", "note": "ON 12/24 AND 12/31, THIS BOX MAY BE COLLECTED AS EARLY AS 12 NOON.", "ref": "8571300004"}, "type": "Feature"}
{"geometry": {"coordinates": [-110.983301, 32.180071], "type": "Point"}, "id": "YGJ1mr0wb4g4_WKjsqoLhG9jh4k=", "properties": {"@spider": "usps_collection_boxes", "addr:city": "TUCSON", "addr:country": "US", "addr:full": "3652 S 16TH AVE", "addr:postcode": "85713", "addr:state": "AZ", "brand": "USPS", "collection_times": "Mo-Fr 14:00; Sa 12:45", "name": "USPS COLLECTION BOX - BLUE BOX", "note": "ON 12/24 AND 12/31, THIS BOX MAY BE COLLECTED AS EARLY AS 12 NOON.", "ref": "8571300005"}, "type": "Feature"}
{"geometry": {"coordinates": [-110.999595, 32.192067], "type": "Point"}, "id": "thUJ882DccKaf0DsmBxgogk_4qA=", "properties": {"@spider": "usps_collection_boxes", "addr:city": "TUCSON", "addr:country": "US", "addr:full": "2616 S MISSION RD", "addr:postcode": "85713", "addr:state": "AZ", "brand": "USPS", "collection_times": "Mo-Fr 13:30; Sa 12:45", "name": "USPS COLLECTION BOX - BLUE BOX", "note": "ON 12/24 AND 12/31, THIS BOX MAY BE COLLECTED AS EARLY AS 12 NOON.", "ref": "8571300007"}, "type": "Feature"}
{"geometry": {"coordinates": [-110.947606, 32.205153], "type": "Point"}, "id": "7WY8slEnNTDdaxVyK6TUxJU59l4=", "properties": {"@spider": "usps_collection_boxes", "addr:city": "TUCSON", "addr:country": "US", "addr:full": "1501 S CHERRYBELL STRA", "addr:postcode": "85713", "addr:state": "AZ", "brand": "USPS", "collection_times": "Mo-Sa 19:00", "name": "USPS COLLECTION BOX - BLUE BOX", "note": "ON 12/24 AND 12/31, THIS BOX MAY BE COLLECTED AS EARLY AS 12 NOON.", "ref": "8571300008"}, "type": "Feature"}
{"geometry": {"coordinates": [-110.978013, 32.17743], "type": "Point"}, "id": "pTrYYarR71F2c7qwFwVbo5QbVg8=", "properties": {"@spider": "usps_collection_boxes", "addr:city": "TUCSON", "addr:country": "US", "addr:full": "605 W AJO WAY", "addr:postcode": "85713", "addr:state": "AZ", "brand": "USPS", "collection_times": "Mo-Fr 14:00", "name": "USPS COLLECTION BOX - BLUE BOX", "note": "ON 12/24 AND 12/31, THIS BOX MAY BE COLLECTED AS EARLY AS 12 NOON.", "ref": "8571300011"}, "type": "Feature"}
{"geometry": {"coordinates": [-110.947619, 32.205114], "type": "Point"}, "id": "65S1B8o4grj4FfDAEjxTZoXD76g=", "properties": {"@spider": "usps_collection_boxes", "addr:city": "TUCSON", "addr:country": "US", "addr:full": "1501 S CHERRYBELL STRA", "addr:postcode": "85713", "addr:state": "AZ", "brand": "USPS", "collection_times": "Mo-Sa 19:00", "name": "USPS COLLECTION BOX - BLUE BOX", "note": "ON 12/24 AND 12/31, THIS BOX MAY BE COLLECTED AS EARLY AS 12 NOON.", "ref": "8571300012"}, "type": "Feature"}
{"geometry": {"coordinates": [-111.092446, 32.18737], "type": "Point"}, "id": "tFIfGZdqj8kjGONujhe8Z468jdk=", "properties": {"@spider": "usps_collection_boxes", "addr:city": "TUCSON", "addr:country": "US", "addr:full": "3025 S KINNEY RD", "addr:postcode": "85713", "addr:state": "AZ", "brand": "USPS", "collection_times": "Mo-Fr 14:00; Sa 13:00", "name": "USPS COLLECTION BOX - BLUE BOX", "note": "ON 12/24 AND 12/31, THIS BOX MAY BE COLLECTED AS EARLY AS 12 NOON.", "ref": "8571300013"}, "type": "Feature"}
{"geometry": {"coordinates": [-110.947619, 32.205114], "type": "Point"}, "id": "uzGvDCzN0XMwQ-AzbnLfWgHcdIU=", "properties": {"@spider": "usps_collection_boxes", "addr:city": "TUCSON", "addr:country": "US", "addr:full": "1501 S CHERRYBELL STRA", "addr:postcode": "85713", "addr:state": "AZ", "brand": "USPS", "collection_times": "Mo-Sa 19:00", "name": "USPS COLLECTION BOX - BLUE BOX", "note": "ON 12/24 AND 12/31, THIS BOX MAY BE COLLECTED AS EARLY AS 12 NOON.", "ref": "8571300015"}, "type": "Feature"}
{"geometry": {"coordinates": [-110.917492, 32.184437], "type": "Point"}, "id": "yNVDEF7uD0PuCAwzVycMZi3YAN8=", "properties": {"@spider": "usps_collection_boxes", "addr:city": "TUCSON", "addr:country": "US", "addr:full": "3441 S PALO VERDE RD", "addr:postcode": "85713", "addr:state": "AZ", "brand": "USPS", "collection_times": "Mo-Fr 14:30", "name": "USPS COLLECTION BOX - BLUE BOX", "note": "ON 12/24 AND 12/31, THIS BOX MAY BE COLLECTED AS EARLY AS 12 NOON.", "ref": "8571300016"}, "type": "Feature"}
{"geometry": {"coordinates": [-110.968706, 32.194012], "type": "Point"}, "id": "xDrYPU30k_lCu5CuBZ3Fu9CelTk=", "properties": {"@spider": "usps_collection_boxes", "addr:city": "TUCSON", "addr:country": "US", "addr:full": "2420 S 6TH AVE", "addr:postcode": "85713", "addr:state": "AZ", "brand": "USPS", "collection_times": "Mo-Fr 13:15", "name": "USPS COLLECTION BOX - BLUE BOX", "note": "ON 12/24 AND 12/31, THIS BOX MAY BE COLLECTED AS EARLY AS 12 NOON.", "ref": "8571300017"}, "type": "Feature"}
{"geometry": {"coordinates": [-110.947619, 32.205114], "type": "Point"}, "id": "osCzSKQ-41JiRwduEgTN_6fj63k=", "properties": {"@spider": "usps_collection_boxes", "addr:city": "TUCSON", "addr:country": "US", "addr:full": "1501 S CHERRYBELL STRA", "addr:postcode": "85713", "addr:state": "AZ", "brand": "USPS", "collection_times": "Mo-Sa 19:00", "name": "USPS COLLECTION BOX - BLUE BOX", "note": "ON 12/24 AND 12/31, THIS BOX MAY BE COLLECTED AS EARLY AS 12 NOON.", "ref": "8571300022"}, "type": "Feature"}
{"geometry": {"coordinates": [-110.947619, 32.205114], "type": "Point"}, "id": "IH-8swQoETTTOg93R-3NVjEBTEQ=", "properties": {"@spider": "usps_collection_boxes", "addr:city": "TUCSON", "addr:country": "US", "addr:full": "1501 S CHERRYBELL STRA", "addr:postcode": "85713", "addr:state": "AZ", "brand": "USPS", "collection_times": "Mo-Sa 19:00", "name": "USPS COLLECTION BOX - PO LOBBY", "note": "ON 12/24 AND 12/31, THIS BOX MAY BE COLLECTED AS EARLY AS 12 NOON.", "ref": "8571300025"}, "type": "Feature"}
{"geometry": {"coordinates": [-110.913483, 32.186579], "type": "Point"}, "id": "bhFxU6RlQiNm7zBrEu3q77PIGMU=", "properties": {"@spider": "usps_collection_boxes", "addr:city": "TUCSON", "addr:country": "US", "addr:full": "3215 S DODGE BLVD", "addr:postcode": "85713", "addr:state": "AZ", "brand": "USPS", "collection_times": "Mo-Sa 12:00", "name": "USPS COLLECTION BOX - BLUE BOX", "ref": "8571300027"}, "type": "Feature"}
{"geometry": {"coordinates": [-110.947619, 32.205114], "type": "Point"}, "id": "tQ4rQPNdl6krxlvUMNpr_DC3G88=", "properties": {"@spider": "usps_collection_boxes", "addr:city": "TUCSON", "addr:country": "US", "addr:full": "1501 S CHERRYBELL STRA", "addr:postcode": "85713", "addr:state": "AZ", "brand": "USPS", "collection_times": "Mo-Fr 19:00", "name": "USPS COLLECTION BOX - EXPRESS", "note": "ON 12/24 AND 12/31, THIS BOX MAY BE COLLECTED AS EARLY AS 12 NOON.", "ref": "8571300028"}, "type": "Feature"}
{"geometry": {"coordinates": [-110.947619, 32.205114], "type": "Point"}, "id": "s6kQhEX6umbLDiuuI2n27Etrwd4=", "properties": {"@spider": "usps_collection_boxes", "addr:city": "TUCSON", "addr:country": "US", "addr:full": "1501 S CHERRYBELL STRA", "addr:postcode": "85713", "addr:state": "AZ", "brand": "USPS", "collection_times": "Mo-Sa 19:00", "name": "USPS COLLECTION BOX - APC", "note": "ON 12/24 AND 12/31, THIS BOX MAY BE COLLECTED AS EARLY AS 12 NOON.", "ref": "8571300029"}, "type": "Feature"}
{"geometry": {"coordinates": [-110.954323, 32.180075], "type": "Point"}, "id": "cvd4mlCpEDkOBg_p9wKIrjTjQP0=", "properties": {"@spider": "usps_collection_boxes", "addr:city": "TUCSON", "addr:country": "US", "addr:full": "1051 E BENSON HWY", "addr:postcode": "85713", "addr:state": "AZ", "brand": "USPS", "collection_times": "Mo-Fr 14:30; Sa 13:00", "name": "USPS COLLECTION BOX - BLUE BOX", "note": "ON 12/24 AND 12/31, THIS BOX MAY BE COLLECTED AS EARLY AS 12 NOON.", "ref": "8571300037"}, "type": "Feature"}
{"geometry": {"coordinates": [-110.9684564383, 32.1940155382], "type": "Point"}, "id": "UnbhHewn6kFpTfy1I2I_VtlDsjk=", "properties": {"@spider": "usps_collection_boxes", "addr:city": "TUCSON", "addr:country": "US", "addr:full": "2420 S 6TH AVE", "addr:postcode": "85713", "addr:state": "AZ", "brand": "USPS", "collection_times": "Mo-Fr 13:00", "name": "USPS COLLECTION BOX - PO LOBBY", "note": "ON 12/24 AND 12/31, THIS BOX MAY BE COLLECTED AS EARLY AS 12 NOON.", "ref": "8571300039"}, "type": "Feature"}
{"geometry": {"coordinates": [-110.916337424, 32.17047703], "type": "Point"}, "id": "9hx96ZDkYETDD07JbJZnlEarqZY=", "properties": {"@spider": "usps_collection_boxes", "addr:city": "TUCSON", "addr:country": "US", "addr:full": "4495 S COACH DR", "addr:postcode": "85714", "addr:state": "AZ", "brand": "USPS", "collection_times": "Mo-Fr 14:30", "name": "USPS COLLECTION BOX - BLUE BOX", "note": "ON 12/24 AND 12/31, THIS BOX MAY BE COLLECTED AS EARLY AS 12 NOON.", "ref": "8571400001"}, "type": "Feature"}
{"geometry": {"coordinates": [-110.956005, 32.171862], "type": "Point"}, "id": "R8Xo8STvT0aCwQRQHL8skTVWOBA=", "properties": {"@spider": "usps_collection_boxes", "addr:city": "TUCSON", "addr:country": "US", "addr:full": "4449 S PARK AVE", "addr:postcode": "85714", "addr:state": "AZ", "brand": "USPS", "collection_times": "Mo-Fr 12:00", "name": "USPS COLLECTION BOX - BLUE BOX", "ref": "8571400002"}, "type": "Feature"}
{"geometry": {"coordinates": [-110.956367878, 32.175091668], "type": "Point"}, "id": "DLVhwz7tzPZB-mHqJ0dh0InLkAA=", "properties": {"@spider": "usps_collection_boxes", "addr:city": "TUCSON", "addr:country": "US", "addr:full": "4004 S PARK AVE", "addr:postcode": "85714", "addr:state": "AZ", "brand": "USPS", "collection_times": "Mo-Fr 10:00", "name": "USPS COLLECTION BOX - BLUE BOX", "ref": "8571400003"}, "type": "Feature"}
{"geometry": {"coordinates": [-110.956663, 32.167572], "type": "Point"}, "id": "ZlwbKsJRPOIdrQDZlanfT95dwao=", "properties": {"@spider": "usps_collection_boxes", "addr:city": "TUCSON", "addr:country": "US", "addr:full": "4700 S PARK AVE", "addr:postcode": "85714", "addr:state": "AZ", "brand": "USPS", "collection_times": "Mo-Fr 12:00", "name": "USPS COLLECTION BOX - BLUE BOX", "ref": "8571400005"}, "type": "Feature"}
{"geometry": {"coordinates": [-110.916337424, 32.17047703], "type": "Point"}, "id": "oz1G6epVpudwJqxRBNz17xlRaNI=", "properties": {"@spider": "usps_collection_boxes", "addr:city": "TUCSON", "addr:country": "US", "addr:full": "4495 S COACH DR", "addr:postcode": "85714", "addr:state": "AZ", "brand": "USPS", "collection_times": "Mo-Fr 12:00; Sa 13:00", "name": "USPS COLLECTION BOX - BLUE BOX", "note": "ON 12/24 AND 12/31, THIS BOX MAY BE COLLECTED AS EARLY AS 12 NOON.", "ref": "8571400011"}, "type": "Feature"}
{"geometry": {"coordinates": [-110.990061, 32.161397], "type": "Point"}, "id": "gLD_trO8jSlDb3Q-sjhH3qvYnow=", "properties": {"@spider": "usps_collection_boxes", "addr:city": "TUCSON", "addr:country": "US", "addr:full": "1221 W IRVINGTON RD", "addr:postcode": "85714", "addr:state": "AZ", "brand": "USPS", "collection_times": "Mo-Fr 13:30", "name": "USPS COLLECTION BOX - BLUE BOX", "note": "ON 12/24 AND 12/31, THIS BOX MAY BE COLLECTED AS EARLY AS 12 NOON.", "ref": "8571400012"}, "type": "Feature"}
{"geometry": {"coordinates": [-110.98197675, 32.1632956826], "type": "Point"}, "id": "CG0zeGDL6nyO-AnyhgwbBfe1bSI=", "properties": {"@spider": "usps_collection_boxes", "addr:city": "TUCSON", "addr:country": "US", "addr:full": "902 W IRVINGTON RD", "addr:postcode": "85714", "addr:state": "AZ", "brand": "USPS", "collection_times": "Mo-Fr 13:30", "name": "USPS COLLECTION BOX - BLUE BOX", "note": "ON 12/24 AND 12/31, THIS BOX MAY BE COLLECTED AS EARLY AS 12 NOON.", "ref": "8571400013"}, "type": "Feature"}
{"geometry": {"coordinates": [-110.855841, 32.236459], "type": "Point"}, "id": "kHdSD0S3ll3FRy0MGDBcJVT2ZCg=", "properties": {"@spider": "usps_collection_boxes", "addr:city": "TUCSON", "addr:country": "US", "addr:full": "1121 N EL DORADO PL", "addr:postcode": "85715", "addr:state": "AZ", "brand": "USPS", "collection_times": "Mo-Fr 13:00", "name": "USPS COLLECTION BOX - BLUE BOX", "note": "ON 12/24 AND 12/31, THIS BOX MAY BE COLLECTED AS EARLY AS 12 NOON.", "ref": "8571500001"}, "type": "Feature"}
{"geometry": {"coordinates": [-110.822839, 32.251174], "type": "Point"}, "id": "hwdqE9dC8IkrPW5NaDojei1HzOY=", "properties": {"@spider": "usps_collection_boxes", "addr:city": "TUCSON", "addr:country": "US", "addr:full": "2440 N PANTANO RD", "addr:postcode": "85715", "addr:state": "AZ", "brand": "USPS", "collection_times": "Mo-Fr 13:00", "name": "USPS COLLECTION BOX - BLUE BOX", "note": "ON 12/24 AND 12/31, THIS BOX MAY BE COLLECTED AS EARLY AS 12 NOON.", "ref": "8571500003"}, "type": "Feature"}
{"geometry": {"coordinates": [-110.853971, 32.250541], "type": "Point"}, "id": "4dDBUnGJ-GaY7DrYKq9NeC2tbw4=", "properties": {"@spider": "usps_collection_boxes", "addr:city": "TUCSON", "addr:country": "US", "addr:full": "6460 E GRANT RD", "addr:postcode": "85715", "addr:state": "AZ", "brand": "USPS", "collection_times": "Mo-Fr 17:00; Sa 16:30", "name": "USPS COLLECTION BOX - BLUE BOX", "note": "ON 12/24 AND 12/31, THIS BOX MAY BE COLLECTED AS EARLY AS 12 NOON.", "ref": "8571500004"}, "type": "Feature"}
{"geometry": {"coordinates": [-110.853868, 32.250555], "type": "Point"}, "id": "s1R1UrRf0yuUMhjHRqx6pdx9Ktw=", "properties": {"@spider": "usps_collection_boxes", "addr:city": "TUCSON", "addr:country": "US", "addr:full": "6460 E GRANT RD", "addr:postcode": "85715", "addr:state": "AZ", "brand": "USPS", "collection_times": "Mo-Fr 16:00", "name": "USPS COLLECTION BOX - EXPRESS", "note": "ON 12/24 AND 12/31, THIS BOX MAY BE COLLECTED AS EARLY AS 12 NOON.", "ref": "8571500006"}, "type": "Feature"}
{"geometry": {"coordinates": [-110.839319, 32.251875], "type": "Point"}, "id": "GEAl15NohTLw5fhdBTVRy0a1mwc=", "properties": {"@spider": "usps_collection_boxes", "addr:city": "TUCSON", "addr:country": "US", "addr:full": "7177 E TANQUE VERDE RD", "addr:postcode": "85715", "addr:state": "AZ", "brand": "USPS", "collection_times": "Mo-Sa 13:00", "name": "USPS COLLECTION BOX - BLUE BOX", "note": "ON 12/24 AND 12/31, THIS BOX MAY BE COLLECTED AS EARLY AS 12 NOON.", "ref": "8571500010"}, "type": "Feature"}
{"geometry": {"coordinates": [-110.855835, 32.236458], "type": "Point"}, "id": "jqGM-kmtp1RNZFGGWWsomsDp47Q=", "properties": {"@spider": "usps_collection_boxes", "addr:city": "TUCSON", "addr:country": "US", "addr:full": "1121 N EL DORADO PL", "addr:postcode": "85715", "addr:state": "AZ", "brand": "USPS", "collection_times": "Mo-Fr 13:00", "name": "USPS COLLECTION BOX - BLUE BOX", "note": "ON 12/24 AND 12/31, THIS BOX MAY BE COLLECTED AS EARLY AS 12 NOON.", "ref": "8571500012"}, "type": "Feature"}
{"geometry": {"coordinates": [-110.847528, 32.246522], "type": "Point"}, "id": "sP3dXTCdcfxaUy9KhThFBzowQsU=", "properties": {"@spider": "usps_collection_boxes", "addr:city": "TUCSON", "addr:country": "US", "addr:full": "2090 N KOLB RD", "addr:postcode": "85715", "addr:state": "AZ", "brand": "USPS", "collection_times": "Mo-Fr 14:30", "name": "USPS COLLECTION BOX - BLUE BOX", "note": "ON 12/24 AND 12/31, THIS BOX MAY BE COLLECTED AS EARLY AS 12 NOON.", "ref": "8571500014"}, "type": "Feature"}
{"geometry": {"coordinates": [-110.854253713, 32.250548563], "type": "Point"}, "id": "8ltZyk75IL0aNg8WWfiG_qAiodU=", "properties": {"@spider": "usps_collection_boxes", "addr:city": "TUCSON", "addr:country": "US", "addr:full": "6460 E GRANT RD", "addr:postcode": "85715", "addr:state": "AZ", "brand": "USPS", "collection_times": "Mo-Fr 17:00; Sa 16:30", "name": "USPS COLLECTION BOX - BLUE BOX", "note": "ON 12/24 AND 12/31, THIS BOX MAY BE COLLECTED AS EARLY AS 12 NOON.", "ref": "8571500017"}, "type": "Feature"}
{"geometry": {"coordinates": [-110.848399, 32.250214], "type": "Point"}, "id": "kl1HAqQZ24f4-A_SJOorZIX_kDc=", "properties": {"@spider": "usps_collection_boxes", "addr:city": "TUCSON", "addr:country": "US", "addr:full": "6722 E CAMINO PRINCIPAL", "addr:postcode": "85715", "addr:state": "AZ", "brand": "USPS", "collection_times": "Mo-Fr 14:30; Sa 14:00", "name": "USPS COLLECTION BOX - BLUE BOX", "note": "ON 12/24 AND 12/31, THIS BOX MAY BE COLLECTED AS EARLY AS 12 NOON.", "ref": "8571500018"}, "type": "Feature"}
{"geometry": {"coordinates": [-110.853868, 32.250555], "type": "Point"}, "id": "XYYV6rkkVXjpHmz0rI17KrHH8Do=", "properties": {"@spider": "usps_collection_boxes", "addr:city": "TUCSON", "addr:country": "US", "addr:full": "6460 E GRANT RD", "addr:postcode": "85715", "addr:state": "AZ", "brand": "USPS", "collection_times": "Mo-Fr 17:00; Sa 16:30", "name": "USPS COLLECTION BOX - BLUE BOX", "note": "ON 12/24 AND 12/31, THIS BOX MAY BE COLLECTED AS EARLY AS 12 NOON.", "ref": "8571500022"}, "type": "Feature"}
{"geometry": {"coordinates": [-110.856833, 32.245361], "type": "Point"}, "id": "C9aHaiYZDUw2w6lHVoR3qVodatY=", "properties": {"@spider": "usps_collection_boxes", "addr:city": "TUCSON", "addr:country": "US", "addr:full": "6369 E TANQUE VERDE RD", "addr:postcode": "85715", "addr:state": "AZ", "brand": "USPS", "collection_times": "Mo-Fr 13:00", "name": "USPS COLLECTION BOX - BLUE BOX", "note": "ON 12/24 AND 12/31, THIS BOX MAY BE COLLECTED AS EARLY AS 12 NOON.", "ref": "8571500024"}, "type": "Feature"}
{"geometry": {"coordinates": [-110.843022, 32.242161], "type": "Point"}, "id": "KKbjSyM8KyrP-svEOrrt0uhTQhU=", "properties": {"@spider": "usps_collection_boxes", "addr:city": "TUCSON", "addr:country": "US", "addr:full": "1650 N KOLB RD", "addr:postcode": "85715", "addr:state": "AZ", "brand": "USPS", "collection_times": "Mo-Fr 12:00", "name": "USPS COLLECTION BOX - BLUE BOX", "ref": "8571500026"}, "type": "Feature"}
{"geometry": {"coordinates": [-110.853868, 32.250555], "type": "Point"}, "id": "E4o9qlLdTIIPvNxtsgYYegIxsBg=", "properties": {"@spider": "usps_collection_boxes", "addr:city": "TUCSON", "addr:country": "US", "addr:full": "6460 E GRANT RD", "addr:postcode": "85715", "addr:state": "AZ", "brand": "USPS", "collection_times": "Mo-Fr 17:00; Sa 16:30", "name": "USPS COLLECTION BOX - PO LOBBY", "note": "ON 12/24 AND 12/31, THIS BOX MAY BE COLLECTED AS EARLY AS 12 NOON.", "ref": "8571500030"}, "type": "Feature"}
{"geometry": {"coordinates": [-110.841776, 32.249747], "type": "Point"}, "id": "8_wDQG0-ijg6hDpasvzOTPxaZ2I=", "properties": {"@spider": "usps_collection_boxes", "addr:city": "TUCSON", "addr:country": "US", "addr:full": "7000 E TANQUE VERDE RD", "addr:postcode": "85715", "addr:state": "AZ", "brand": "USPS", "collection_times": "Mo-Fr 11:00", "name": "USPS COLLECTION BOX - BLUE BOX", "ref": "8571500032"}, "type": "Feature"}
{"geometry": {"coordinates": [-110.853868, 32.250555], "type": "Point"}, "id": "S02RHGRvXYUJ8SrfTcqEw_wFaiI=", "properties": {"@spider": "usps_collection_boxes", "addr:city": "TUCSON", "addr:country": "US", "addr:full": "6460 E GRANT RD", "addr:postcode": "85715", "addr:state": "AZ", "brand": "USPS", "collection_times": "Mo-Fr 17:00; Sa 16:30", "name": "USPS COLLECTION BOX - APC", "note": "ON 12/24 AND 12/31, THIS BOX MAY BE COLLECTED AS EARLY AS 12 NOON.", "ref": "8571500033"}, "type": "Feature"}
{"geometry": {"coordinates": [-110.845188, 32.243413], "type": "Point"}, "id": "0A2WS6GeG13Kk-z2xq2LYNui13A=", "properties": {"@spider": "usps_collection_boxes", "addr:city": "TUCSON", "addr:country": "US", "addr:full": "1849 N KOLB RD", "addr:postcode": "85715", "addr:state": "AZ", "brand": "USPS", "collection_times": "Mo-Fr 12:30", "name": "USPS COLLECTION BOX - BLUE BOX", "note": "ON 12/24 AND 12/31, THIS BOX MAY BE COLLECTED AS EARLY AS 12 NOON.", "ref": "8571500037"}, "type": "Feature"}
{"geometry": {"coordinates": [-110.853868, 32.250555], "type": "Point"}, "id": "z9Tcb7UUzUxJh-Thij6Lk31K3lA=", "properties": {"@spider": "usps_collection_boxes", "addr:city": "TUCSON", "addr:country": "US", "addr:full": "6460 E GRANT RD", "addr:postcode": "85715", "addr:state": "AZ", "brand": "USPS", "collection_times": "Mo-Fr 17:00; Sa 16:30", "name": "USPS COLLECTION BOX - APC", "note": "ON 12/24 AND 12/31, THIS BOX MAY BE COLLECTED AS EARLY AS 12 NOON.", "ref": "8571500039"}, "type": "Feature"}
{"geometry": {"coordinates": [-110.850363, 32.247348], "type": "Point"}, "id": "jgrreBCC5itkwsaxeF9cOGiIOMk=", "properties": {"@spider": "usps_collection_boxes", "addr:city": "TUCSON", "addr:country": "US", "addr:full": "6628 E TANQUE VERDE RD", "addr:postcode": "85715", "addr:state": "AZ", "brand": "USPS", "collection_times": "Mo-Fr 14:30; Sa 12:00", "name": "USPS COLLECTION BOX - BLUE BOX", "note": "ON 12/24 AND 12/31, THIS BOX MAY BE COLLECTED AS EARLY AS 12 NOON.", "ref": "8571500040"}, "type": "Feature"}
{"geometry": {"coordinates": [-110.854253713, 32.2505485633], "type": "Point"}, "id": "UMIWd3bdyzyUKDAMdeN5-3KqiS4=", "properties": {"@spider": "usps_collection_boxes", "addr:city": "TUCSON", "addr:country": "US", "addr:full": "6460 E GRANT RD", "addr:postcode": "85715", "addr:state": "AZ", "brand": "USPS", "collection_times": "Mo-Fr 17:00; Sa 16:30", "name": "USPS COLLECTION BOX - PO LOBBY", "note": "ON 12/24 AND 12/31, THIS BOX MAY BE COLLECTED AS EARLY AS 12 NOON.", "ref": "8571500043"}, "type": "Feature"}
{"geometry": {"coordinates": [-110.8506172699, 32.2475227247], "type": "Point"}, "id": "21UI-DntkrDnv6Y7FdGvX6fOy4k=", "properties": {"@spider": "usps_collection_boxes", "addr:city": "TUCSON", "addr:country": "US", "addr:full": "6628 E TANQUE VERDE RD", "addr:postcode": "85715", "addr:state": "AZ", "brand": "USPS", "collection_times": "Mo-Fr 12:30", "name": "USPS COLLECTION BOX - PO LOBBY", "note": "ON 12/24 AND 12/31, THIS BOX MAY BE COLLECTED AS EARLY AS 12 NOON.", "ref": "8571500044"}, "type": "Feature"}
{"geometry": {"coordinates": [-110.935737, 32.241779], "type": "Point"}, "id": "PF3-QYV_O0a5DOo-7SpAeJ2fOUw=", "properties": {"@spider": "usps_collection_boxes", "addr:city": "TUCSON", "addr:country": "US", "addr:full": "1601 N TUCSON BLVD", "addr:postcode": "85716", "addr:state": "AZ", "brand": "USPS", "collection_times": "Mo-Fr 11:00", "name": "USPS COLLECTION BOX - BLUE BOX", "ref": "8571600003"}, "type": "Feature"}
{"geometry": {"coordinates": [-110.928146, 32.250704], "type": "Point"}, "id": "se91STg6PcLp7Kyy0o91ShMBfqk=", "properties": {"@spider": "usps_collection_boxes", "addr:city": "TUCSON", "addr:country": "US", "addr:full": "2923 E GRANT RD", "addr:postcode": "85716", "addr:state": "AZ", "brand": "USPS", "collection_times": "Mo-Fr 12:00", "name": "USPS COLLECTION BOX - BLUE BOX", "ref": "8571600013"}, "type": "Feature"}
{"geometry": {"coordinates": [-110.9350426073, 32.2146814381], "type": "Point"}, "id": "UHbEwUheCqb2f3XFGW3K40n9xBU=", "properties": {"@spider": "usps_collection_boxes", "addr:city": "TUCSON", "addr:country": "US", "addr:full": "601 S TUCSON BLVD", "addr:postcode": "85716", "addr:state": "AZ", "brand": "USPS", "collection_times": "Mo-Fr 13:15", "name": "USPS COLLECTION BOX - BLUE BOX", "note": "ON 12/24 AND 12/31, THIS BOX MAY BE COLLECTED AS EARLY AS 12 NOON.", "ref": "8571600016"}, "type": "Feature"}
{"geometry": {"coordinates": [-110.931189, 32.24486], "type": "Point"}, "id": "LkJmuP50OnOarqpfUUe0sYmiO3I=", "properties": {"@spider": "usps_collection_boxes", "addr:city": "TUCSON", "addr:country": "US", "addr:full": "1899 N TREAT AVE", "addr:postcode": "85716", "addr:state": "AZ", "brand": "USPS", "collection_times": "Mo-Fr 13:15; Sa 14:00", "name": "USPS COLLECTION BOX - BLUE BOX", "note": "ON 12/24 AND 12/31, THIS BOX MAY BE COLLECTED AS EARLY AS 12 NOON.", "ref": "8571600022"}, "type": "Feature"}
{"geometry": {"coordinates": [-110.920392, 32.23557], "type": "Point"}, "id": "6v1DZ8lHGnYJxlv9dFWNrWA_OmU=", "properties": {"@spider": "usps_collection_boxes", "addr:city": "TUCSON", "addr:country": "US", "addr:full": "3400 E SPEEDWAY BLVD", "addr:postcode": "85716", "addr:state": "AZ", "brand": "USPS", "collection_times": "Mo-Fr 13:30", "name": "USPS COLLECTION BOX - BLUE BOX", "note": "ON 12/24 AND 12/31, THIS BOX MAY BE COLLECTED AS EARLY AS 12 NOON.", "ref": "8571600023"}, "type": "Feature"}
{"geometry": {"coordinates": [-110.927531, 32.220941], "type": "Point"}, "id": "Skq2rH6zaCawo2p-k2KfT71kCKQ=", "properties": {"@spider": "usps_collection_boxes", "addr:city": "TUCSON", "addr:country": "US", "addr:full": "3010 E BROADWAY BLVD", "addr:postcode": "85716", "addr:state": "AZ", "brand": "USPS", "collection_times": "Mo-Fr 13:30", "name": "USPS COLLECTION BOX - BLUE BOX", "note": "ON 12/24 AND 12/31, THIS BOX MAY BE COLLECTED AS EARLY AS 12 NOON.", "ref": "8571600026"}, "type": "Feature"}
{"geometry": {"coordinates": [-110.926973, 32.263903], "type": "Point"}, "id": "m_WT5hTvcfINI7xt1f_CwtXWR-I=", "properties": {"@spider": "usps_collection_boxes", "addr:city": "TUCSON", "addr:country": "US", "addr:full": "3131 N COUNTRY CLUB RD", "addr:postcode": "85716", "addr:state": "AZ", "brand": "USPS", "collection_times": "Mo-Fr 13:00", "name": "USPS COLLECTION BOX - BLUE BOX", "note": "ON 12/24 AND 12/31, THIS BOX MAY BE COLLECTED AS EARLY AS 12 NOON.", "ref": "8571600032"}, "type": "Feature"}
{"geometry": {"coordinates": [-110.912822, 32.264975], "type": "Point"}, "id": "zh2o3lQSOtf26Kh9oWoPtOkECu8=", "properties": {"@spider": "usps_collection_boxes", "addr:city": "TUCSON", "addr:country": "US", "addr:full": "3700 E FORT LOWELL RD", "addr:postcode": "85716", "addr:state": "AZ", "brand": "USPS", "collection_times": "Mo-Fr 13:45", "name": "USPS COLLECTION BOX - BLUE BOX", "note": "ON 12/24 AND 12/31, THIS BOX MAY BE COLLECTED AS EARLY AS 12 NOON.", "ref": "8571600033"}, "type": "Feature"}
{"geometry": {"coordinates": [-110.925744, 32.264547], "type": "Point"}, "id": "ZyFS2sfY5NvMFjfI2Y5jGUimxLQ=", "properties": {"@spider": "usps_collection_boxes", "addr:city": "TUCSON", "addr:country": "US", "addr:full": "3130 E FORT LOWELL RD", "addr:postcode": "85716", "addr:state": "AZ", "brand": "USPS", "collection_times": "Mo-Fr 14:30; Sa 14:00", "name": "USPS COLLECTION BOX - BLUE BOX", "note": "ON 12/24 AND 12/31, THIS BOX MAY BE COLLECTED AS EARLY AS 12 NOON.", "ref": "8571600038"}, "type": "Feature"}
{"geometry": {"coordinates": [-110.917227, 32.320497], "type": "Point"}, "id": "jQJuBznDcdKTq-JGVl2KWcl2gMU=", "properties": {"@spider": "usps_collection_boxes", "addr:city": "TUCSON", "addr:country": "US", "addr:full": "3561 E SUNRISE DR", "addr:postcode": "85718", "addr:state": "AZ", "brand": "USPS", "collection_times": "Mo-Fr 12:30", "name": "USPS COLLECTION BOX - BLUE BOX", "note": "ON 12/24 AND 12/31, THIS BOX MAY BE COLLECTED AS EARLY AS 12 NOON.", "ref": "8571800001"}, "type": "Feature"}
{"geometry": {"coordinates": [-110.946443, 32.287862], "type": "Point"}, "id": "P1HgFr1Vi2WwqFf23sB2yTQHYJk=", "properties": {"@spider": "usps_collection_boxes", "addr:city": "TUCSON", "addr:country": "US", "addr:full": "1700 E RIVER RD", "addr:postcode": "85718", "addr:state": "AZ", "brand": "USPS", "collection_times": "Mo-Fr 17:00; Sa 16:15", "name": "USPS COLLECTION BOX - BLUE BOX", "note": "ON 12/24 AND 12/31, THIS BOX MAY BE COLLECTED AS EARLY AS 12 NOON.", "ref": "8571800002"}, "type": "Feature"}
{"geometry": {"coordinates": [-110.942156, 32.285979], "type": "Point"}, "id": "4WC_SwGvI3PZ2rEGk8Snz7vH8cI=", "properties": {"@spider": "usps_collection_boxes", "addr:city": "TUCSON", "addr:country": "US", "addr:full": "4330 N CAMPBELL AVE", "addr:postcode": "85718", "addr:state": "AZ", "brand": "USPS", "collection_times": "Mo-Fr 13:00", "name": "USPS COLLECTION BOX - BLUE BOX", "note": "ON 12/24 AND 12/31, THIS BOX MAY BE COLLECTED AS EARLY AS 12 NOON.", "ref": "8571800003"}, "type": "Feature"}
{"geometry": {"coordinates": [-110.893707, 32.32295], "type": "Point"}, "id": "ZpcVqWbRET658o0kBTZEJLtAGgw=", "properties": {"@spider": "usps_collection_boxes", "addr:city": "TUCSON", "addr:country": "US", "addr:full": "4661 E SKYLINE DR", "addr:postcode": "85718", "addr:state": "AZ", "brand": "USPS", "collection_times": "Mo-Sa 12:30", "name": "USPS COLLECTION BOX - BLUE BOX", "note": "ON 12/24 AND 12/31, THIS BOX MAY BE COLLECTED AS EARLY AS 12 NOON.", "ref": "8571800004"}, "type": "Feature"}
{"geometry": {"coordinates": [-110.893514, 32.308039], "type": "Point"}, "id": "mi__FgbkgkohTzPWfiP2-aCSbns=", "properties": {"@spider": "usps_collection_boxes", "addr:city": "TUCSON", "addr:country": "US", "addr:full": "4640 E SUNRISE DR", "addr:postcode": "85718", "addr:state": "AZ", "brand": "USPS", "collection_times": "Mo-Fr 12:30", "name": "USPS COLLECTION BOX - BLUE BOX", "note": "ON 12/24 AND 12/31, THIS BOX MAY BE COLLECTED AS EARLY AS 12 NOON.", "ref": "8571800005"}, "type": "Feature"}
{"geometry": {"coordinates": [-110.946577, 32.287995], "type": "Point"}, "id": "fLpaGGN_ZMmhj8FFHZgGiyVJR1I=", "properties": {"@spider": "usps_collection_boxes", "addr:city": "TUCSON", "addr:country": "US", "addr:full": "1700 E RIVER RD", "addr:postcode": "85718", "addr:state": "AZ", "brand": "USPS", "collection_times": "Mo-Fr 17:00; Sa 16:15", "name": "USPS COLLECTION BOX - BLUE BOX", "note": "ON 12/24 AND 12/31, THIS BOX MAY BE COLLECTED AS EARLY AS 12 NOON.", "ref": "8571800007"}, "type": "Feature"}
{"geometry": {"coordinates": [-110.946459, 32.287921], "type": "Point"}, "id": "Mq-YTfIJwMoZukLJjPchpjvTcbo=", "properties": {"@spider": "usps_collection_boxes", "addr:city": "TUCSON", "addr:country": "US", "addr:full": "1700 E RIVER RD", "addr:postcode": "85718", "addr:state": "AZ", "brand": "USPS", "collection_times": "Mo-Fr 15:45", "name": "USPS COLLECTION BOX - EXPRESS", "note": "ON 12/24 AND 12/31, THIS BOX MAY BE COLLECTED AS EARLY AS 12 NOON.", "ref": "8571800015"}, "type": "Feature"}
{"geometry": {"coordinates": [-110.891318, 32.307686], "type": "Point"}, "id": "5PpB5h6PI8g-wcZPyqZ-2DGSc9E=", "properties": {"@spider": "usps_collection_boxes", "addr:city": "TUCSON", "addr:country": "US", "addr:full": "4748 E SUNRISE DR", "addr:postcode": "85718", "addr:state": "AZ", "brand": "USPS", "collection_times": "Mo-Fr 14:30; Sa 13:45", "name": "USPS COLLECTION BOX - BLUE BOX", "note": "ON 12/24 AND 12/31, THIS BOX MAY BE COLLECTED AS EARLY AS 12 NOON.", "ref": "8571800018"}, "type": "Feature"}
{"geometry": {"coordinates": [-110.961313, 32.292182], "type": "Point"}, "id": "UgJRPjJRi04gevSpGAPOUxUEE34=", "properties": {"@spider": "usps_collection_boxes", "addr:city": "TUCSON", "addr:country": "US", "addr:full": "4651 N 1ST AVE", "addr:postcode": "85718", "addr:state": "AZ", "brand": "USPS", "collection_times": "Mo-Fr 12:00", "name": "USPS COLLECTION BOX - BLUE BOX", "ref": "8571800020"}, "type": "Feature"}
{"geometry": {"coordinates": [-110.917223, 32.320509], "type": "Point"}, "id": "3rJNGY-u6mnKR1pJ6hKdxm75Rfg=", "properties": {"@spider": "usps_collection_boxes", "addr:city": "TUCSON", "addr:country": "US", "addr:full": "3561 E SUNRISE DR", "addr:postcode": "85718", "addr:state": "AZ", "brand": "USPS", "collection_times": "Mo-Fr 12:30", "name": "USPS COLLECTION BOX - BLUE BOX", "note": "ON 12/24 AND 12/31, THIS BOX MAY BE COLLECTED AS EARLY AS 12 NOON.", "ref": "8571800022"}, "type": "Feature"}
{"geometry": {"coordinates": [-110.946965, 32.287609], "type": "Point"}, "id": "YsfWiueNE2p9zY_NfXqyrL_oocg=", "properties": {"@spider": "usps_collection_boxes", "addr:city": "TUCSON", "addr:country": "US", "addr:full": "1700 E RIVER RD", "addr:postcode": "85718", "addr:state": "AZ", "brand": "USPS", "collection_times": "Mo-Fr 17:00; Sa 16:15", "name": "USPS COLLECTION BOX - PO LOBBY", "note": "ON 12/24 AND 12/31, THIS BOX MAY BE COLLECTED AS EARLY AS 12 NOON.", "ref": "8571800023"}, "type": "Feature"}
{"geometry": {"coordinates": [-110.920242, 32.320522], "type": "Point"}, "id": "GcdACYSrM5InECrBiv3KlrhK0nM=", "properties": {"@spider": "usps_collection_boxes", "addr:city": "TUCSON", "addr:country": "US", "addr:full": "3430 E SUNRISE DR", "addr:postcode": "85718", "addr:state": "AZ", "brand": "USPS", "collection_times": "Mo-Fr 12:30", "name": "USPS COLLECTION BOX - BLUE BOX", "note": "ON 12/24 AND 12/31, THIS BOX MAY BE COLLECTED AS EARLY AS 12 NOON.", "ref": "8571800024"}, "type": "Feature"}
{"geometry": {"coordinates": [-110.946871, 32.287932], "type": "Point"}, "id": "j9b95ZfkntOlz0wQsYmUtKLihQk=", "properties": {"@spider": "usps_collection_boxes", "addr:city": "TUCSON", "addr:country": "US", "addr:full": "1700 E RIVER RD", "addr:postcode": "85718", "addr:state": "AZ", "brand": "USPS", "collection_times": "Mo-Fr 17:00; Sa 16:15", "name": "USPS COLLECTION BOX - BLUE BOX", "note": "ON 12/24 AND 12/31, THIS BOX MAY BE COLLECTED AS EARLY AS 12 NOON.", "ref": "8571800026"}, "type": "Feature"}
{"geometry": {"coordinates": [-110.947035, 32.287562], "type": "Point"}, "id": "Nirxy-OOy8i3GZtdV3kACpDYhvo=", "properties": {"@spider": "usps_collection_boxes", "addr:city": "TUCSON", "addr:country": "US", "addr:full": "1700 E RIVER RD", "addr:postcode": "85718", "addr:state": "AZ", "brand": "USPS", "collection_times": "Mo-Fr 17:00; Sa 16:15", "name": "USPS COLLECTION BOX - APC", "note": "ON 12/24 AND 12/31, THIS BOX MAY BE COLLECTED AS EARLY AS 12 NOON.", "ref": "8571800027"}, "type": "Feature"}
{"geometry": {"coordinates": [-110.93120718, 32.32298397], "type": "Point"}, "id": "tcyUnHxf_afa5VPeNuOwpTppktU=", "properties": {"@spider": "usps_collection_boxes", "addr:city": "TUCSON", "addr:country": "US", "addr:full": "2905 E SKYLINE DR", "addr:postcode": "85718", "addr:state": "AZ", "brand": "USPS", "collection_times": "Mo-Fr 13:00", "name": "USPS COLLECTION BOX - BLUE BOX", "note": "ON 12/24 AND 12/31, THIS BOX MAY BE COLLECTED AS EARLY AS 12 NOON.", "ref": "8571800028"}, "type": "Feature"}
{"geometry": {"coordinates": [-110.944661, 32.286508], "type": "Point"}, "id": "EnYtIOjYEs_b54neaUdw329x3p0=", "properties": {"@spider": "usps_collection_boxes", "addr:city": "TUCSON", "addr:country": "US", "addr:full": "1860 E RIVER RD", "addr:postcode": "85718", "addr:state": "AZ", "brand": "USPS", "collection_times": "Mo-Fr 14:30", "name": "USPS COLLECTION BOX - BLUE BOX", "note": "ON 12/24 AND 12/31, THIS BOX MAY BE COLLECTED AS EARLY AS 12 NOON.", "ref": "8571800029"}, "type": "Feature"}
{"geometry": {"coordinates": [-110.928086, 32.321901], "type": "Point"}, "id": "IHvvrtGSkqHVVaHJcA25T2fQJl0=", "properties": {"@spider": "usps_collection_boxes", "addr:city": "TUCSON", "addr:country": "US", "addr:full": "6370 N CAMPBELL AVE STE 160", "addr:postcode": "85718", "addr:state": "AZ", "brand": "USPS", "collection_times": "Mo-Fr 10:15", "name": "USPS COLLECTION BOX - BLUE BOX", "ref": "8571800030"}, "type": "Feature"}
{"geometry": {"coordinates": [-110.945599, 32.335493], "type": "Point"}, "id": "ug6BfgXfX49da4jPXpryNRkgo0w=", "properties": {"@spider": "usps_collection_boxes", "addr:city": "TUCSON", "addr:country": "US", "addr:full": "1715 E SKYLINE DR", "addr:postcode": "85718", "addr:state": "AZ", "brand": "USPS", "collection_times": "Mo-Fr 14:00", "name": "USPS COLLECTION BOX - BLUE BOX", "note": "ON 12/24 AND 12/31, THIS BOX MAY BE COLLECTED AS EARLY AS 12 NOON.", "ref": "8571800031"}, "type": "Feature"}
{"geometry": {"coordinates": [-110.9464518025, 32.2881086197], "type": "Point"}, "id": "jw5BVjw1cFBoCR3HiUZ55toBkdM=", "properties": {"@spider": "usps_collection_boxes", "addr:city": "TUCSON", "addr:country": "US", "addr:full": "1700 E RIVER RD", "addr:postcode": "85718", "addr:state": "AZ", "brand": "USPS", "collection_times": "Mo-Fr 17:00", "name": "USPS COLLECTION BOX - PO LOBBY", "note": "ON 12/24 AND 12/31, THIS BOX MAY BE COLLECTED AS EARLY AS 12 NOON.", "ref": "8571800041"}, "type": "Feature"}
{"geometry": {"coordinates": [-110.9594550314, 32.2862569905], "type": "Point"}, "id": "l_3JroEjmdLTddUgXenuXA5e5nE=", "properties": {"@spider": "usps_collection_boxes", "addr:city": "TUCSON", "addr:country": "US", "addr:full": "800 E WETMORE RD", "addr:postcode": "85719", "addr:state": "AZ", "brand": "USPS", "collection_times": "Mo-Fr 11:30", "name": "USPS COLLECTION BOX - BLUE BOX", "ref": "8571900005"}, "type": "Feature"}
{"geometry": {"coordinates": [-110.95996, 32.280706], "type": "Point"}, "id": "MW9USTVXwHAGkfPCnMaNQAK93cM=", "properties": {"@spider": "usps_collection_boxes", "addr:city": "TUCSON", "addr:country": "US", "addr:full": "4036 N 1ST AVE", "addr:postcode": "85719", "addr:state": "AZ", "brand": "USPS", "collection_times": "Mo-Fr 12:00", "name": "USPS COLLECTION BOX - BLUE BOX", "ref": "8571900007"}, "type": "Feature"}
{"geometry": {"coordinates": [-110.945929, 32.212241], "type": "Point"}, "id": "b7-RIHeeNXJTzEMhW-eDTONemBk=", "properties": {"@spider": "usps_collection_boxes", "addr:city": "TUCSON", "addr:country": "US", "addr:full": "1655 E 18TH ST", "addr:postcode": "85719", "addr:state": "AZ", "brand": "USPS", "collection_times": "Mo-Fr 12:45", "name": "USPS COLLECTION BOX - BLUE BOX", "note": "ON 12/24 AND 12/31, THIS BOX MAY BE COLLECTED AS EARLY AS 12 NOON.", "ref": "8571900013"}, "type": "Feature"}
{"geometry": {"coordinates": [-110.944257, 32.252234], "type": "Point"}, "id": "XkU-ZFMP0kPOUzU-CvdLOlCGBBM=", "properties": {"@spider": "usps_collection_boxes", "addr:city": "TUCSON", "addr:country": "US", "addr:full": "2509 N CAMPBELL AVE", "addr:postcode": "85719", "addr:state": "AZ", "brand": "USPS", "collection_times": "Mo-Fr 13:30; Sa 12:45", "name": "USPS COLLECTION BOX - BLUE BOX", "note": "ON 12/24 AND 12/31, THIS BOX MAY BE COLLECTED AS EARLY AS 12 NOON.", "ref": "8571900016"}, "type": "Feature"}
{"geometry": {"coordinates": [-110.945983, 32.27335], "type": "Point"}, "id": "1X8NLXMiSsHTAbkQufqUsAgaHoI=", "properties": {"@spider": "usps_collection_boxes", "addr:city": "TUCSON", "addr:country": "US", "addr:full": "3661 N CAMPBELL AVE", "addr:postcode": "85719", "addr:state": "AZ", "brand": "USPS", "collection_times": "Mo-Sa 13:00", "name": "USPS COLLECTION BOX - BLUE BOX", "note": "ON 12/24 AND 12/31, THIS BOX MAY BE COLLECTED AS EARLY AS 12 NOON.", "ref": "8571900028"}, "type": "Feature"}
{"geometry": {"coordinates": [-110.947730383, 32.239572291], "type": "Point"}, "id": "VrtHZ_m10g0vzKUyIyqWAp1cll0=", "properties": {"@spider": "usps_collection_boxes", "addr:city": "TUCSON", "addr:country": "US", "addr:full": "1670 E DRACHMAN ST", "addr:postcode": "85719", "addr:state": "AZ", "brand": "USPS", "collection_times": "Mo-Fr 13:00", "name": "USPS COLLECTION BOX - BLUE BOX", "note": "ON 12/24 AND 12/31, THIS BOX MAY BE COLLECTED AS EARLY AS 12 NOON.", "ref": "8571900033"}, "type": "Feature"}
{"geometry": {"coordinates": [-110.958326, 32.250606], "type": "Point"}, "id": "XEXped6tMGKV-dV4TWChC6T9BSU=", "properties": {"@spider": "usps_collection_boxes", "addr:city": "TUCSON", "addr:country": "US", "addr:full": "865 E GRANT RD", "addr:postcode": "85719", "addr:state": "AZ", "brand": "USPS", "collection_times": "Mo-Sa 12:00", "name": "USPS COLLECTION BOX - BLUE BOX", "ref": "8571900040"}, "type": "Feature"}
{"geometry": {"coordinates": [-110.948949, 32.237041], "type": "Point"}, "id": "V2V4et_ckOhAUDoEbO7IlkMhfZA=", "properties": {"@spider": "usps_collection_boxes", "addr:city": "TUCSON", "addr:country": "US", "addr:full": "1508 E HELEN ST", "addr:postcode": "85719", "addr:state": "AZ", "brand": "USPS", "collection_times": "Mo-Fr 14:30", "name": "USPS COLLECTION BOX - BLUE BOX", "note": "ON 12/24 AND 12/31, THIS BOX MAY BE COLLECTED AS EARLY AS 12 NOON.", "ref": "8571900048"}, "type": "Feature"}
{"geometry": {"coordinates": [-110.944692, 32.264423], "type": "Point"}, "id": "eQeqdQ7xCMHeqcSrJZ-J41mOSM8=", "properties": {"@spider": "usps_collection_boxes", "addr:city": "TUCSON", "addr:country": "US", "addr:full": "3175 N CAMPBELL AVE", "addr:postcode": "85719", "addr:state": "AZ", "brand": "USPS", "collection_times": "Mo-Fr 12:30", "name": "USPS COLLECTION BOX - BLUE BOX", "note": "ON 12/24 AND 12/31, THIS BOX MAY BE COLLECTED AS EARLY AS 12 NOON.", "ref": "8571900049"}, "type": "Feature"}
{"geometry": {"coordinates": [-110.943074, 32.259432], "type": "Point"}, "id": "U5yTWEIr3GsL75henCOqOSqD428=", "properties": {"@spider": "usps_collection_boxes", "addr:city": "TUCSON", "addr:country": "US", "addr:full": "2818 N CAMPBELL AVE", "addr:postcode": "85719", "addr:state": "AZ", "brand": "USPS", "collection_times": "Mo-Fr 12:30", "name": "USPS COLLECTION BOX - BLUE BOX", "note": "ON 12/24 AND 12/31, THIS BOX MAY BE COLLECTED AS EARLY AS 12 NOON.", "ref": "8571900052"}, "type": "Feature"}
{"geometry": {"coordinates": [-110.937042084, 32.221533497], "type": "Point"}, "id": "E1rXO83AkDKnsAQ7T66KfEf_DKc=", "properties": {"@spider": "usps_collection_boxes", "addr:city": "TUCSON", "addr:country": "US", "addr:full": "2343 E BROADWAY BLVD", "addr:postcode": "85719", "addr:state": "AZ", "brand": "USPS", "collection_times": "Mo-Fr 12:30", "name": "USPS COLLECTION BOX - BLUE BOX", "note": "ON 12/24 AND 12/31, THIS BOX MAY BE COLLECTED AS EARLY AS 12 NOON.", "ref": "8571900054"}, "type": "Feature"}
{"geometry": {"coordinates": [-110.960933, 32.233572], "type": "Point"}, "id": "EvrpN-9Mt1Jt-TS1m6_bJLeLIME=", "properties": {"@spider": "usps_collection_boxes", "addr:city": "TUCSON", "addr:country": "US", "addr:full": "920 N 1ST AVE", "addr:postcode": "85719", "addr:state": "AZ", "brand": "USPS", "collection_times": "Mo-Fr 12:30", "name": "USPS COLLECTION BOX - BLUE BOX", "note": "ON 12/24 AND 12/31, THIS BOX MAY BE COLLECTED AS EARLY AS 12 NOON.", "ref": "8571900055"}, "type": "Feature"}
{"geometry": {"coordinates": [-110.944579, 32.270479], "type": "Point"}, "id": "O6Pu2ph3EtBJLdVCtzJb5Z3s5WY=", "properties": {"@spider": "usps_collection_boxes", "addr:city": "TUCSON", "addr:country": "US", "addr:full": "3501 N CAMPBELL AVE", "addr:postcode": "85719", "addr:state": "AZ", "brand": "USPS", "collection_times": "Mo-Fr 12:30", "name": "USPS COLLECTION BOX - BLUE BOX", "note": "ON 12/24 AND 12/31, THIS BOX MAY BE COLLECTED AS EARLY AS 12 NOON.", "ref": "8571900063"}, "type": "Feature"}
{"geometry": {"coordinates": [-110.940914, 32.235956], "type": "Point"}, "id": "PYRY1MJcdtqlzbP7pzUpGMojUGg=", "properties": {"@spider": "usps_collection_boxes", "addr:city": "TUCSON", "addr:country": "US", "addr:full": "2100 E SPEEDWAY BLVD", "addr:postcode": "85719", "addr:state": "AZ", "brand": "USPS", "collection_times": "Mo-Fr 17:00; Sa 16:45", "name": "USPS COLLECTION BOX - BLUE BOX", "note": "ON 12/24 AND 12/31, THIS BOX MAY BE COLLECTED AS EARLY AS 12 NOON.", "ref": "8571900064"}, "type": "Feature"}
{"geometry": {"coordinates": [-110.959329, 32.23205], "type": "Point"}, "id": "u2ZfUqoLF62xPQavYePDX3cE0xM=", "properties": {"@spider": "usps_collection_boxes", "addr:city": "TUCSON", "addr:country": "US", "addr:full": "825 E UNIVERSITY BLVD", "addr:postcode": "85719", "addr:state": "AZ", "brand": "USPS", "collection_times": "Mo-Fr 14:30; Sa 12:30", "name": "USPS COLLECTION BOX - BLUE BOX", "note": "ON 12/24 AND 12/31, THIS BOX MAY BE COLLECTED AS EARLY AS 12 NOON.", "ref": "8571900065"}, "type": "Feature"}
{"geometry": {"coordinates": [-110.94102, 32.235983], "type": "Point"}, "id": "SmOFl_uw_UXG6Y29rKWcApXInUo=", "properties": {"@spider": "usps_collection_boxes", "addr:city": "TUCSON", "addr:country": "US", "addr:full": "2100 E SPEEDWAY BLVD", "addr:postcode": "85719", "addr:state": "AZ", "brand": "USPS", "collection_times": "Mo-Fr 17:00; Sa 16:45", "name": "USPS COLLECTION BOX - BLUE BOX", "note": "ON 12/24 AND 12/31, THIS BOX MAY BE COLLECTED AS EARLY AS 12 NOON.", "ref": "8571900066"}, "type": "Feature"}
{"geometry": {"coordinates": [-110.94102, 32.235983], "type": "Point"}, "id": "W6bHuQc5wB1Mt7oU25xBemJ6UsA=", "properties": {"@spider": "usps_collection_boxes", "addr:city": "TUCSON", "addr:country": "US", "addr:full": "2100 E SPEEDWAY BLVD", "addr:postcode": "85719", "addr:state": "AZ", "brand": "USPS", "collection_times": "Mo-Fr 17:00; Sa 16:45", "name": "USPS COLLECTION BOX - BLUE BOX", "note": "ON 12/24 AND 12/31, THIS BOX MAY BE COLLECTED AS EARLY AS 12 NOON.", "ref": "8571900068"}, "type": "Feature"}
{"geometry": {"coordinates": [-110.94102, 32.235983], "type": "Point"}, "id": "GsTO3lygYGqL6h9DYHQQJQl94Y4=", "properties": {"@spider": "usps_collection_boxes", "addr:city": "TUCSON", "addr:country": "US", "addr:full": "2100 E SPEEDWAY BLVD", "addr:postcode": "85719", "addr:state": "AZ", "brand": "USPS", "collection_times": "Mo-Fr 15:45", "name": "USPS COLLECTION BOX - EXPRESS", "note": "ON 12/24 AND 12/31, THIS BOX MAY BE COLLECTED AS EARLY AS 12 NOON.", "ref": "8571900069"}, "type": "Feature"}
{"geometry": {"coordinates": [-110.94102, 32.235983], "type": "Point"}, "id": "oYsqjr7Ka1wL_-rr5lDArzuWJxI=", "properties": {"@spider": "usps_collection_boxes", "addr:city": "TUCSON", "addr:country": "US", "addr:full": "2100 E SPEEDWAY BLVD", "addr:postcode": "85719", "addr:state": "AZ", "brand": "USPS", "collection_times": "Mo-Fr 17:00; Sa 16:45", "name": "USPS COLLECTION BOX - PO LOBBY", "note": "ON 12/24 AND 12/31, THIS BOX MAY BE COLLECTED AS EARLY AS 12 NOON.", "ref": "8571900070"}, "type": "Feature"}
{"geometry": {"coordinates": [-110.944576, 32.270485], "type": "Point"}, "id": "0RIyOtfxfoEi8Pu8RkE48iLy1vk=", "properties": {"@spider": "usps_collection_boxes", "addr:city": "TUCSON", "addr:country": "US", "addr:full": "3501 N CAMPBELL AVE", "addr:postcode": "85719", "addr:state": "AZ", "brand": "USPS", "collection_times": "Mo-Fr 12:30", "name": "USPS COLLECTION BOX - BLUE BOX", "note": "ON 12/24 AND 12/31, THIS BOX MAY BE COLLECTED AS EARLY AS 12 NOON.", "ref": "8571900071"}, "type": "Feature"}
{"geometry": {"coordinates": [-110.94102, 32.235983], "type": "Point"}, "id": "NexYNUvdAYjYRznXs7dkrcPPe0c=", "properties": {"@spider": "usps_collection_boxes", "addr:city": "TUCSON", "addr:country": "US", "addr:full": "2100 E SPEEDWAY BLVD", "addr:postcode": "85719", "addr:state": "AZ", "brand": "USPS", "collection_times": "Mo-Fr 17:00; Sa 16:45", "name": "USPS COLLECTION BOX - APC", "note": "ON 12/24 AND 12/31, THIS BOX MAY BE COLLECTED AS EARLY AS 12 NOON.", "ref": "8571900074"}, "type": "Feature"}
{"geometry": {"coordinates": [-110.943405, 32.220322], "type": "Point"}, "id": "LVF3P5009PCf94uNkr7jg_Wp8u4=", "properties": {"@spider": "usps_collection_boxes", "addr:city": "TUCSON", "addr:country": "US", "addr:full": "1940 E BROADWAY BLVD", "addr:postcode": "85719", "addr:state": "AZ", "brand": "USPS", "collection_times": "Mo-Fr 12:45; Sa 13:00", "name": "USPS COLLECTION BOX - BLUE BOX", "note": "ON 12/24 AND 12/31, THIS BOX MAY BE COLLECTED AS EARLY AS 12 NOON.", "ref": "8571900081"}, "type": "Feature"}
{"geometry": {"coordinates": [-110.940687, 32.235643], "type": "Point"}, "id": "4DqDoiwgu_pGuhoxefiPLaw26gQ=", "properties": {"@spider": "usps_collection_boxes", "addr:city": "TUCSON", "addr:country": "US", "addr:full": "2100 E SPEEDWAY BLVD", "addr:postcode": "85719", "addr:state": "AZ", "brand": "USPS", "collection_times": "Mo-Fr 17:00; Sa 16:45", "name": "USPS COLLECTION BOX - PO LOBBY", "note": "ON 12/24 AND 12/31, THIS BOX MAY BE COLLECTED AS EARLY AS 12 NOON.", "ref": "8571900083"}, "type": "Feature"}
{"geometry": {"coordinates": [-110.956824, 32.229606], "type": "Point"}, "id": "nwlOTHcbfbJdn_VNl3Lc8Lepchc=", "properties": {"@spider": "usps_collection_boxes", "addr:city": "TUCSON", "addr:country": "US", "addr:full": "615 N PARK AVE", "addr:postcode": "85719", "addr:state": "AZ", "brand": "USPS", "collection_times": "Mo-Fr 14:30; Sa 13:30", "name": "USPS COLLECTION BOX - BLUE BOX", "note": "ON 12/24 AND 12/31, THIS BOX MAY BE COLLECTED AS EARLY AS 12 NOON.", "ref": "8571900084"}, "type": "Feature"}
{"geometry": {"coordinates": [-110.9402505, 32.235945521], "type": "Point"}, "id": "HYwXc43-UDGL_O1O_nWLyjjv7xc=", "properties": {"@spider": "usps_collection_boxes", "addr:city": "TUCSON", "addr:country": "US", "addr:full": "2100 E SPEEDWAY BLVD", "addr:postcode": "85719", "addr:state": "AZ", "brand": "USPS", "collection_times": "Mo-Fr 17:00", "name": "USPS COLLECTION BOX - PO LOBBY", "note": "ON 12/24 AND 12/31, THIS BOX MAY BE COLLECTED AS EARLY AS 12 NOON.", "ref": "8571900089"}, "type": "Feature"}
{"geometry": {"coordinates": [-110.94745906, 32.204896625], "type": "Point"}, "id": "ioojiuIM2zVSQA4x9BpSDFPL92k=", "properties": {"@spider": "usps_collection_boxes", "addr:city": "TUCSON", "addr:country": "US", "addr:full": "1501 S CHERRYBELL STRA", "addr:postcode": "85726", "addr:state": "AZ", "brand": "USPS", "collection_times": "Mo-Fr 18:00; Sa 15:30", "name": "USPS COLLECTION BOX - PO LOBBY", "note": "ON 12/24 AND 12/31, THIS BOX MAY BE COLLECTED AS EARLY AS 12 NOON.", "ref": "8572600002"}, "type": "Feature"}
{"geometry": {"coordinates": [-110.843501, 32.190896], "type": "Point"}, "id": "gNKvXv4vMj5jVjjcbGq9aJBpKT0=", "properties": {"@spider": "usps_collection_boxes", "addr:city": "TUCSON", "addr:country": "US", "addr:full": "7014 E GOLF LINKS RD", "addr:postcode": "85730", "addr:state": "AZ", "brand": "USPS", "collection_times": "Mo-Fr 13:30; Sa 14:00", "name": "USPS COLLECTION BOX - BLUE BOX", "note": "ON 12/24 AND 12/31, THIS BOX MAY BE COLLECTED AS EARLY AS 12 NOON.", "ref": "8573000004"}, "type": "Feature"}
{"geometry": {"coordinates": [-110.856553, 32.190375], "type": "Point"}, "id": "UuU9hmMa0S8liplD9YyjzePIRsY=", "properties": {"@spider": "usps_collection_boxes", "addr:city": "TUCSON", "addr:country": "US", "addr:full": "6360 E GOLF LINKS RD", "addr:postcode": "85730", "addr:state": "AZ", "brand": "USPS", "collection_times": "Mo-Fr 13:30; Sa 14:00", "name": "USPS COLLECTION BOX - BLUE BOX", "note": "ON 12/24 AND 12/31, THIS BOX MAY BE COLLECTED AS EARLY AS 12 NOON.", "ref": "8573000005"}, "type": "Feature"}
{"geometry": {"coordinates": [-110.8232911676, 32.1918185206], "type": "Point"}, "id": "ZrNEm1gxULCRmryMV7vHsJwId_w=", "properties": {"@spider": "usps_collection_boxes", "addr:city": "TUCSON", "addr:country": "US", "addr:full": "7910 E GOLF LINKS RD", "addr:postcode": "85730", "addr:state": "AZ", "brand": "USPS", "collection_times": "Mo-Fr 14:30; Sa 14:00", "name": "USPS COLLECTION BOX - BLUE BOX", "note": "ON 12/24 AND 12/31, THIS BOX MAY BE COLLECTED AS EARLY AS 12 NOON.", "ref": "8573000006"}, "type": "Feature"}
{"geometry": {"coordinates": [-110.79108, 32.1916565045], "type": "Point"}, "id": "GWHeXLQ8uFiFz-grfhVi5Uw4oLs=", "properties": {"@spider": "usps_collection_boxes", "addr:city": "TUCSON", "addr:country": "US", "addr:full": "9460 E GOLF LINKS RD", "addr:postcode": "85730", "addr:state": "AZ", "brand": "USPS", "collection_times": "Mo-Sa 14:00", "name": "USPS COLLECTION BOX - BLUE BOX", "note": "ON 12/24 AND 12/31, THIS BOX MAY BE COLLECTED AS EARLY AS 12 NOON.", "ref": "8573000009"}, "type": "Feature"}
{"geometry": {"coordinates": [-110.8232911676, 32.1918185206], "type": "Point"}, "id": "4nnKefYD0903c3-bPhUCNE0fyxs=", "properties": {"@spider": "usps_collection_boxes", "addr:city": "TUCSON", "addr:country": "US", "addr:full": "7910 E GOLF LINKS RD", "addr:postcode": "85730", "addr:state": "AZ", "brand": "USPS", "collection_times": "Mo-Sa 14:30", "name": "USPS COLLECTION BOX - PO LOBBY", "note": "ON 12/24 AND 12/31, THIS BOX MAY BE COLLECTED AS EARLY AS 12 NOON.", "ref": "8573000012"}, "type": "Feature"}
{"geometry": {"coordinates": [-111.312712, 32.076623], "type": "Point"}, "id": "lM8Wn4TFuVX0LTBrAF1IYOZoCzk=", "properties": {"@spider": "usps_collection_boxes", "addr:city": "TUCSON", "addr:country": "US", "addr:full": "16225 W AJO HWY", "addr:postcode": "85735", "addr:state": "AZ", "brand": "USPS", "collection_times": "Mo-Fr 11:00; Sa 10:00", "name": "USPS COLLECTION BOX - BLUE BOX", "ref": "8573500001"}, "type": "Feature"}
{"geometry": {"coordinates": [-110.995658443, 32.422758077], "type": "Point"}, "id": "Whv5SSFquKamfkfJKjde4n0uMkI=", "properties": {"@spider": "usps_collection_boxes", "addr:city": "TUCSON", "addr:country": "US", "addr:full": "11900 N LA CANADA DR", "addr:postcode": "85737", "addr:state": "AZ", "brand": "USPS", "collection_times": "Mo-Fr 17:00; Sa 16:00", "name": "USPS COLLECTION BOX - PO LOBBY", "note": "ON 12/24 AND 12/31, THIS BOX MAY BE COLLECTED AS EARLY AS 12 NOON.", "ref": "8573700000"}, "type": "Feature"}
{"geometry": {"coordinates": [-110.995658443, 32.422758077], "type": "Point"}, "id": "cp5U18EcIHSBejNpyGLFERNaj5c=", "properties": {"@spider": "usps_collection_boxes", "addr:city": "TUCSON", "addr:country": "US", "addr:full": "11900 N LA CANADA DR", "addr:postcode": "85737", "addr:state": "AZ", "brand": "USPS", "collection_times": "Mo-Fr 17:00; Sa 16:00", "name": "USPS COLLECTION BOX - BLUE BOX", "note": "ON 12/24 AND 12/31, THIS BOX MAY BE COLLECTED AS EARLY AS 12 NOON.", "ref": "8573700001"}, "type": "Feature"}
{"geometry": {"coordinates": [-110.995658443, 32.422758077], "type": "Point"}, "id": "GEbIfNojsp2tgD7VxLPuWXhN-MI=", "properties": {"@spider": "usps_collection_boxes", "addr:city": "TUCSON", "addr:country": "US", "addr:full": "11900 N LA CANADA DR", "addr:postcode": "85737", "addr:state": "AZ", "brand": "USPS", "collection_times": "Mo-Fr 15:00", "name": "USPS COLLECTION BOX - EXPRESS", "note": "ON 12/24 AND 12/31, THIS BOX MAY BE COLLECTED AS EARLY AS 12 NOON.", "ref": "8573700002"}, "type": "Feature"}
{"geometry": {"coordinates": [-110.994684, 32.406704], "type": "Point"}, "id": "9LHMeCWD34Jx1hrJTWUDbr87Qqg=", "properties": {"@spider": "usps_collection_boxes", "addr:city": "TUCSON", "addr:country": "US", "addr:full": "11000 N LA CANADA DR", "addr:postcode": "85737", "addr:state": "AZ", "brand": "USPS", "collection_times": "Mo-Fr 13:00", "name": "USPS COLLECTION BOX - BLUE BOX", "note": "ON 12/24 AND 12/31, THIS BOX MAY BE COLLECTED AS EARLY AS 12 NOON.", "ref": "8573700003"}, "type": "Feature"}
{"geometry": {"coordinates": [-110.958032, 32.400187], "type": "Point"}, "id": "CNs-np5CMmVeR54wQ9FV56XVPPw=", "properties": {"@spider": "usps_collection_boxes", "addr:city": "TUCSON", "addr:country": "US", "addr:full": "10661 N ORACLE RD", "addr:postcode": "85737", "addr:state": "AZ", "brand": "USPS", "collection_times": "Mo-Sa 11:30", "name": "USPS COLLECTION BOX - BLUE BOX", "ref": "8573700004"}, "type": "Feature"}
{"geometry": {"coordinates": [-110.994176, 32.39631], "type": "Point"}, "id": "eo2NqxWZ8uQ3Z_A2uRUaMjZq86c=", "properties": {"@spider": "usps_collection_boxes", "addr:city": "TUCSON", "addr:country": "US", "addr:full": "10450 N LA CANADA DR", "addr:postcode": "85737", "addr:state": "AZ", "brand": "USPS", "collection_times": "Mo-Fr 12:30; Sa 13:15", "name": "USPS COLLECTION BOX - BLUE BOX", "note": "ON 12/24 AND 12/31, THIS BOX MAY BE COLLECTED AS EARLY AS 12 NOON.", "ref": "8573700008"}, "type": "Feature"}
{"geometry": {"coordinates": [-110.995658443, 32.422758077], "type": "Point"}, "id": "8KWiODZspEHnHLRteVU7DIo84Kk=", "properties": {"@spider": "usps_collection_boxes", "addr:city": "TUCSON", "addr:country": "US", "addr:full": "11900 N LA CANADA DR", "addr:postcode": "85737", "addr:state": "AZ", "brand": "USPS", "collection_times": "Mo-Fr 17:00; Sa 16:00", "name": "USPS COLLECTION BOX - APC", "note": "ON 12/24 AND 12/31, THIS BOX MAY BE COLLECTED AS EARLY AS 12 NOON.", "ref": "8573700013"}, "type": "Feature"}
{"geometry": {"coordinates": [-110.995658443, 32.422758077], "type": "Point"}, "id": "Jng3pWLOMCbqsZsSuGxkrvoU7GA=", "properties": {"@spider": "usps_collection_boxes", "addr:city": "TUCSON", "addr:country": "US", "addr:full": "11900 N LA CANADA DR", "addr:postcode": "85737", "addr:state": "AZ", "brand": "USPS", "collection_times": "Mo-Fr 17:00; Sa 16:00", "name": "USPS COLLECTION BOX - BLUE BOX", "note": "ON 12/24 AND 12/31, THIS BOX MAY BE COLLECTED AS EARLY AS 12 NOON.", "ref": "8573700015"}, "type": "Feature"}
{"geometry": {"coordinates": [-110.995658443, 32.422758077], "type": "Point"}, "id": "VJKNmRN0Ywlprq2NBZm6qEhx6Wc=", "properties": {"@spider": "usps_collection_boxes", "addr:city": "TUCSON", "addr:country": "US", "addr:full": "11900 N LA CANADA DR", "addr:postcode": "85737", "addr:state": "AZ", "brand": "USPS", "collection_times": "Mo-Fr 17:00", "name": "USPS COLLECTION BOX - PO LOBBY", "note": "ON 12/24 AND 12/31, THIS BOX MAY BE COLLECTED AS EARLY AS 12 NOON.", "ref": "8573700022"}, "type": "Feature"}
{"geometry": {"coordinates": [-110.92658, 32.498677], "type": "Point"}, "id": "pfR5BpxHjMY2uznRfmQ09P6xyaM=", "properties": {"@spider": "usps_collection_boxes", "addr:city": "TUCSON", "addr:country": "US", "addr:full": "16141 N ORACLE RD", "addr:postcode": "85739", "addr:state": "AZ", "brand": "USPS", "collection_times": "Mo-Sa 12:30", "name": "USPS COLLECTION BOX - BLUE BOX", "note": "ON 12/24 AND 12/31, THIS BOX MAY BE COLLECTED AS EARLY AS 12 NOON.", "ref": "8573900000"}, "type": "Feature"}
{"geometry": {"coordinates": [-110.88754, 32.535821], "type": "Point"}, "id": "gw8TyTRHEuNf0ZaUoIeG2ixt7h8=", "properties": {"@spider": "usps_collection_boxes", "addr:city": "TUCSON", "addr:country": "US", "addr:full": "63701 E SADDLEBROOKE BLVD", "addr:postcode": "85739", "addr:state": "AZ", "brand": "USPS", "collection_times": "Mo-Fr 14:15; Sa 14:00", "name": "USPS COLLECTION BOX - BLUE BOX", "note": "ON 12/24 AND 12/31, THIS BOX MAY BE COLLECTED AS EARLY AS 12 NOON.", "ref": "8573900001"}, "type": "Feature"}
{"geometry": {"coordinates": [-110.926559, 32.498694], "type": "Point"}, "id": "BHdl_Gu5lBcMvcdgYjnljCYK7dc=", "properties": {"@spider": "usps_collection_boxes", "addr:city": "TUCSON", "addr:country": "US", "addr:full": "16141 N ORACLE RD", "addr:postcode": "85739", "addr:state": "AZ", "brand": "USPS", "collection_times": "Mo-Sa 12:30", "name": "USPS COLLECTION BOX - BLUE BOX", "note": "ON 12/24 AND 12/31, THIS BOX MAY BE COLLECTED AS EARLY AS 12 NOON.", "ref": "8573900002"}, "type": "Feature"}
{"geometry": {"coordinates": [-110.921522, 32.482934], "type": "Point"}, "id": "5s6BzQelqK9qRSXw8bEOXU-j1jc=", "properties": {"@spider": "usps_collection_boxes", "addr:city": "TUCSON", "addr:country": "US", "addr:full": "15310 N ORACLE RD", "addr:postcode": "85739", "addr:state": "AZ", "brand": "USPS", "collection_times": "Mo-Sa 11:00", "name": "USPS COLLECTION BOX - BLUE BOX", "ref": "8573900004"}, "type": "Feature"}
{"geometry": {"coordinates": [-110.9340865325, 32.4415966378], "type": "Point"}, "id": "sk_s3AwYWx68FTWo4ROn5LHFuxE=", "properties": {"@spider": "usps_collection_boxes", "addr:city": "TUCSON", "addr:country": "US", "addr:full": "13005 N ORACLE RD", "addr:postcode": "85739", "addr:state": "AZ", "brand": "USPS", "collection_times": "Mo-Fr 11:00", "name": "USPS COLLECTION BOX - BLUE BOX", "ref": "8573900005"}, "type": "Feature"}
{"geometry": {"coordinates": [-110.8984135179, 32.5248825224], "type": "Point"}, "id": "M8oH1STWL59hq3ni_HCgKWU6Epw=", "properties": {"@spider": "usps_collection_boxes", "addr:city": "TUCSON", "addr:country": "US", "addr:full": "38735 S MOUNTAIN VIEW BLVD", "addr:postcode": "85739", "addr:state": "AZ", "brand": "USPS", "collection_times": "Mo-Sa 11:00", "name": "USPS COLLECTION BOX - BLUE BOX", "ref": "8573900006"}, "type": "Feature"}
{"geometry": {"coordinates": [-110.9031587244, 32.5133985063], "type": "Point"}, "id": "nVB6AeKEjH6q0O9KzwR6wOB5_ps=", "properties": {"@spider": "usps_collection_boxes", "addr:city": "TUCSON", "addr:country": "US", "addr:full": "39900 S CLUBHOUSE DR", "addr:postcode": "85739", "addr:state": "AZ", "brand": "USPS", "collection_times": "Mo-Sa 12:00", "name": "USPS COLLECTION BOX - BLUE BOX", "ref": "8573900008"}, "type": "Feature"}
{"geometry": {"coordinates": [-110.8681598723, 32.5421364936], "type": "Point"}, "id": "0N-t1pK3CTplJpwg_9p4SpfDt58=", "properties": {"@spider": "usps_collection_boxes", "addr:city": "TUCSON", "addr:country": "US", "addr:full": "36795 S RIDGEVIEW BLVD", "addr:postcode": "85739", "addr:state": "AZ", "brand": "USPS", "collection_times": "Mo-Sa 12:00", "name": "USPS COLLECTION BOX - BLUE BOX", "ref": "8573900009"}, "type": "Feature"}
{"geometry": {"coordinates": [-111.013042, 32.33804], "type": "Point"}, "id": "a5I0e9miQNDCjihde86eLFy3fig=", "properties": {"@spider": "usps_collection_boxes", "addr:city": "TUCSON", "addr:country": "US", "addr:full": "7221 N LA CHOLLA BLVD", "addr:postcode": "85741", "addr:state": "AZ", "brand": "USPS", "collection_times": "Mo-Fr 14:15", "name": "USPS COLLECTION BOX - BLUE BOX", "note": "ON 12/24 AND 12/31, THIS BOX MAY BE COLLECTED AS EARLY AS 12 NOON.", "ref": "8574100005"}, "type": "Feature"}
{"geometry": {"coordinates": [-111.0364, 32.337097], "type": "Point"}, "id": "usIVl3OLAxq1TUDDblOsYwsvB24=", "properties": {"@spider": "usps_collection_boxes", "addr:city": "TUCSON", "addr:country": "US", "addr:full": "3275 W INA RD", "addr:postcode": "85741", "addr:state": "AZ", "brand": "USPS", "collection_times": "Mo-Fr 11:30", "name": "USPS COLLECTION BOX - BLUE BOX", "ref": "8574100006"}, "type": "Feature"}
{"geometry": {"coordinates": [-111.047023513, 32.351013], "type": "Point"}, "id": "7ZZXfGYRKNu6UQmJYBm7QHU1V4M=", "properties": {"@spider": "usps_collection_boxes", "addr:city": "TUCSON", "addr:country": "US", "addr:full": "7959 N THORNYDALE RD", "addr:postcode": "85741", "addr:state": "AZ", "brand": "USPS", "collection_times": "Mo-Fr 17:00; Sa 16:15", "name": "USPS COLLECTION BOX - BLUE BOX", "note": "ON 12/24 AND 12/31, THIS BOX MAY BE COLLECTED AS EARLY AS 12 NOON.", "ref": "8574100012"}, "type": "Feature"}
{"geometry": {"coordinates": [-111.047023513, 32.351013], "type": "Point"}, "id": "JueUpA_F99rkjMzJNa7tg3114s8=", "properties": {"@spider": "usps_collection_boxes", "addr:city": "TUCSON", "addr:country": "US", "addr:full": "7959 N THORNYDALE RD", "addr:postcode": "85741", "addr:state": "AZ", "brand": "USPS", "collection_times": "Mo-Fr 15:30", "name": "USPS COLLECTION BOX - EXPRESS", "note": "ON 12/24 AND 12/31, THIS BOX MAY BE COLLECTED AS EARLY AS 12 NOON.", "ref": "8574100014"}, "type": "Feature"}
{"geometry": {"coordinates": [-111.046569, 32.325791], "type": "Point"}, "id": "M6umIgHeDPMbypKTQbBM0qP_adE=", "properties": {"@spider": "usps_collection_boxes", "addr:city": "TUCSON", "addr:country": "US", "addr:full": "3821 W COSTCO DR", "addr:postcode": "85741", "addr:state": "AZ", "brand": "USPS", "collection_times": "Mo-Fr 14:00", "name": "USPS COLLECTION BOX - BLUE BOX", "note": "ON 12/24 AND 12/31, THIS BOX MAY BE COLLECTED AS EARLY AS 12 NOON.", "ref": "8574100015"}, "type": "Feature"}
{"geometry": {"coordinates": [-111.044381, 32.336167], "type": "Point"}, "id": "dLP94DfOlx4Kh5reXubAIIGZVMg=", "properties": {"@spider": "usps_collection_boxes", "addr:city": "TUCSON", "addr:country": "US", "addr:full": "3741 W INA RD", "addr:postcode": "85741", "addr:state": "AZ", "brand": "USPS", "collection_times": "Mo-Sa 11:30", "name": "USPS COLLECTION BOX - BLUE BOX", "ref": "8574100017"}, "type": "Feature"}
{"geometry": {"coordinates": [-111.047023513, 32.351013], "type": "Point"}, "id": "92oJ2bmhdUECPsIKs5PQS4ZkMZc=", "properties": {"@spider": "usps_collection_boxes", "addr:city": "TUCSON", "addr:country": "US", "addr:full": "7959 N THORNYDALE RD", "addr:postcode": "85741", "addr:state": "AZ", "brand": "USPS", "collection_times": "Mo-Fr 17:00; Sa 16:15", "name": "USPS COLLECTION BOX - BLUE BOX", "note": "ON 12/24 AND 12/31, THIS BOX MAY BE COLLECTED AS EARLY AS 12 NOON.", "ref": "8574100020"}, "type": "Feature"}
{"geometry": {"coordinates": [-111.047023513, 32.351013], "type": "Point"}, "id": "8tc9Je4TA4sbrahISvN9vm8wUII=", "properties": {"@spider": "usps_collection_boxes", "addr:city": "TUCSON", "addr:country": "US", "addr:full": "7959 N THORNYDALE RD", "addr:postcode": "85741", "addr:state": "AZ", "brand": "USPS", "collection_times": "Mo-Fr 17:00; Sa 16:15", "name": "USPS COLLECTION BOX - PO LOBBY", "note": "ON 12/24 AND 12/31, THIS BOX MAY BE COLLECTED AS EARLY AS 12 NOON.", "ref": "8574100022"}, "type": "Feature"}
{"geometry": {"coordinates": [-111.044674, 32.357987], "type": "Point"}, "id": "hSokjz-81f76LHzYNffKdoaAVkM=", "properties": {"@spider": "usps_collection_boxes", "addr:city": "TUCSON", "addr:country": "US", "addr:full": "8360 N THORNYDALE RD", "addr:postcode": "85741", "addr:state": "AZ", "brand": "USPS", "collection_times": "Mo-Fr 14:30; Sa 14:00", "name": "USPS COLLECTION BOX - BLUE BOX", "note": "ON 12/24 AND 12/31, THIS BOX MAY BE COLLECTED AS EARLY AS 12 NOON.", "ref": "8574100023"}, "type": "Feature"}
{"geometry": {"coordinates": [-111.011998, 32.3439], "type": "Point"}, "id": "WJbVxEHduyu--m4llQucnFJK9mU=", "properties": {"@spider": "usps_collection_boxes", "addr:city": "TUCSON", "addr:country": "US", "addr:full": "7552 N LA CHOLLA BLVD", "addr:postcode": "85741", "addr:state": "AZ", "brand": "USPS", "collection_times": "Mo-Fr 12:00", "name": "USPS COLLECTION BOX - BLUE BOX", "ref": "8574100024"}, "type": "Feature"}
{"geometry": {"coordinates": [-111.047023513, 32.351013], "type": "Point"}, "id": "Zoh4DmECYmX3HBMa2NGaIOoAEfA=", "properties": {"@spider": "usps_collection_boxes", "addr:city": "TUCSON", "addr:country": "US", "addr:full": "7959 N THORNYDALE RD", "addr:postcode": "85741", "addr:state": "AZ", "brand": "USPS", "collection_times": "Mo-Fr 17:00; Sa 16:15", "name": "USPS COLLECTION BOX - PO LOBBY", "note": "ON 12/24 AND 12/31, THIS BOX MAY BE COLLECTED AS EARLY AS 12 NOON.", "ref": "8574100026"}, "type": "Feature"}
{"geometry": {"coordinates": [-111.010782, 32.320264], "type": "Point"}, "id": "YgY0xbzWWawV43fzfa6K7MnUGoA=", "properties": {"@spider": "usps_collection_boxes", "addr:city": "TUCSON", "addr:country": "US", "addr:full": "6200 N LA CHOLLA BLVD", "addr:postcode": "85741", "addr:state": "AZ", "brand": "USPS", "collection_times": "Mo-Fr 14:15", "name": "USPS COLLECTION BOX - BLUE BOX", "note": "ON 12/24 AND 12/31, THIS BOX MAY BE COLLECTED AS EARLY AS 12 NOON.", "ref": "8574100027"}, "type": "Feature"}
{"geometry": {"coordinates": [-111.011548, 32.303495], "type": "Point"}, "id": "SOCJH_47MA5x-petXXXN01fnqV8=", "properties": {"@spider": "usps_collection_boxes", "addr:city": "TUCSON", "addr:country": "US", "addr:full": "5330 N LA CHOLLA BLVD", "addr:postcode": "85741", "addr:state": "AZ", "brand": "USPS", "collection_times": "Mo-Fr 12:30", "name": "USPS COLLECTION BOX - BLUE BOX", "note": "ON 12/24 AND 12/31, THIS BOX MAY BE COLLECTED AS EARLY AS 12 NOON.", "ref": "8574100033"}, "type": "Feature"}
{"geometry": {"coordinates": [-111.047023513, 32.351013], "type": "Point"}, "id": "NbBS6FrJ5sreXKMkHLiTgOjNyrE=", "properties": {"@spider": "usps_collection_boxes", "addr:city": "TUCSON", "addr:country": "US", "addr:full": "7959 N THORNYDALE RD", "addr:postcode": "85741", "addr:state": "AZ", "brand": "USPS", "collection_times": "Mo-Fr 17:00; Sa 16:15", "name": "USPS COLLECTION BOX - PO LOBBY", "note": "ON 12/24 AND 12/31, THIS BOX MAY BE COLLECTED AS EARLY AS 12 NOON.", "ref": "8574100041"}, "type": "Feature"}
{"geometry": {"coordinates": [-111.046478, 32.374038], "type": "Point"}, "id": "PLcV-8Ve4v_3nrLsfB5bScDybRU=", "properties": {"@spider": "usps_collection_boxes", "addr:city": "TUCSON", "addr:country": "US", "addr:full": "9220 N THORNYDALE RD", "addr:postcode": "85742", "addr:state": "AZ", "brand": "USPS", "collection_times": "Mo-Fr 13:00", "name": "USPS COLLECTION BOX - BLUE BOX", "note": "ON 12/24 AND 12/31, THIS BOX MAY BE COLLECTED AS EARLY AS 12 NOON.", "ref": "8574200000"}, "type": "Feature"}
{"geometry": {"coordinates": [-111.218391, 32.327645], "type": "Point"}, "id": "oHqSLEvq1K35t562Ncl0xD796EM=", "properties": {"@spider": "usps_collection_boxes", "addr:city": "TUCSON", "addr:country": "US", "addr:full": "6777 N SANDARIO RD", "addr:postcode": "85743", "addr:state": "AZ", "brand": "USPS", "collection_times": "Mo-Sa 12:30", "name": "USPS COLLECTION BOX - BLUE BOX", "note": "ON 12/24 AND 12/31, THIS BOX MAY BE COLLECTED AS EARLY AS 12 NOON.", "ref": "8574300000"}, "type": "Feature"}
{"geometry": {"coordinates": [-111.132123, 32.377644], "type": "Point"}, "id": "fPY2n5Y7fakMYx4c4_u6TqNABiI=", "properties": {"@spider": "usps_collection_boxes", "addr:city": "TUCSON", "addr:country": "US", "addr:full": "9401 N SUNFLOWER PARK DR", "addr:postcode": "85743", "addr:state": "AZ", "brand": "USPS", "collection_times": "Mo-Sa 12:30", "name": "USPS COLLECTION BOX - BLUE BOX", "note": "ON 12/24 AND 12/31, THIS BOX MAY BE COLLECTED AS EARLY AS 12 NOON.", "ref": "8574300001"}, "type": "Feature"}
{"geometry": {"coordinates": [-110.9982444465, 32.2287775482], "type": "Point"}, "id": "L1zLVA9rwTCjP2IPiW8QSX_cFfE=", "properties": {"@spider": "usps_collection_boxes", "addr:city": "TUCSON", "addr:country": "US", "addr:full": "1549 W SAINT MARYS RD", "addr:postcode": "85745", "addr:state": "AZ", "brand": "USPS", "collection_times": "Mo-Fr 14:30; Sa 13:15", "name": "USPS COLLECTION BOX - BLUE BOX", "note": "ON 12/24 AND 12/31, THIS BOX MAY BE COLLECTED AS EARLY AS 12 NOON.", "ref": "8574500013"}, "type": "Feature"}
{"geometry": {"coordinates": [-111.003890287, 32.2349601712], "type": "Point"}, "id": "WGUfQcYKlwZBdSZPXU4N3j9MZSY=", "properties": {"@spider": "usps_collection_boxes", "addr:city": "TUCSON", "addr:country": "US", "addr:full": "975 N SILVERBELL RD", "addr:postcode": "85745", "addr:state": "AZ", "brand": "USPS", "collection_times": "Mo-Fr 15:45", "name": "USPS COLLECTION BOX - EXPRESS", "note": "ON 12/24 AND 12/31, THIS BOX MAY BE COLLECTED AS EARLY AS 12 NOON.", "ref": "8574500017"}, "type": "Feature"}
{"geometry": {"coordinates": [-111.002779, 32.228102], "type": "Point"}, "id": "r4L6a_1G3rr6fjsW4J6WBTOsTzI=", "properties": {"@spider": "usps_collection_boxes", "addr:city": "TUCSON", "addr:country": "US", "addr:full": "1701 W SAINT MARYS RD", "addr:postcode": "85745", "addr:state": "AZ", "brand": "USPS", "collection_times": "Mo-Fr 13:15", "name": "USPS COLLECTION BOX - BLUE BOX", "note": "ON 12/24 AND 12/31, THIS BOX MAY BE COLLECTED AS EARLY AS 12 NOON.", "ref": "8574500020"}, "type": "Feature"}
{"geometry": {"coordinates": [-111.004166, 32.234576], "type": "Point"}, "id": "HJd5s0OKt3qirR-BWe5usttq1Rw=", "properties": {"@spider": "usps_collection_boxes", "addr:city": "TUCSON", "addr:country": "US", "addr:full": "975 N SILVERBELL RD", "addr:postcode": "85745", "addr:state": "AZ", "brand": "USPS", "collection_times": "Mo-Fr 17:00; Sa 16:00", "name": "USPS COLLECTION BOX - PO LOBBY", "note": "ON 12/24 AND 12/31, THIS BOX MAY BE COLLECTED AS EARLY AS 12 NOON.", "ref": "8574500021"}, "type": "Feature"}
{"geometry": {"coordinates": [-110.9948209631, 32.2489459963], "type": "Point"}, "id": "0oevXd7NlyUisxX7NA9iyF4Wjg8=", "properties": {"@spider": "usps_collection_boxes", "addr:city": "TUCSON", "addr:country": "US", "addr:full": "2250 N FORBES BLVD", "addr:postcode": "85745", "addr:state": "AZ", "brand": "USPS", "collection_times": "Mo-Fr 14:30", "name": "USPS COLLECTION BOX - BLUE BOX", "note": "ON 12/24 AND 12/31, THIS BOX MAY BE COLLECTED AS EARLY AS 12 NOON.", "ref": "8574500022"}, "type": "Feature"}
{"geometry": {"coordinates": [-111.002189, 32.25081], "type": "Point"}, "id": "ip3CxzhmtACUqUu2pdh6x-vzftw=", "properties": {"@spider": "usps_collection_boxes", "addr:city": "TUCSON", "addr:country": "US", "addr:full": "2410 N HUACHUCA DR", "addr:postcode": "85745", "addr:state": "AZ", "brand": "USPS", "collection_times": "Mo-Fr 14:30", "name": "USPS COLLECTION BOX - BLUE BOX", "note": "ON 12/24 AND 12/31, THIS BOX MAY BE COLLECTED AS EARLY AS 12 NOON.", "ref": "8574500025"}, "type": "Feature"}
{"geometry": {"coordinates": [-110.983918, 32.225508], "type": "Point"}, "id": "69KZjTmIPT7NR_4nwaWYRtm0hfw=", "properties": {"@spider": "usps_collection_boxes", "addr:city": "TUCSON", "addr:country": "US", "addr:full": "330 N COMMERCE PARK LOOP", "addr:postcode": "85745", "addr:state": "AZ", "brand": "USPS", "collection_times": "Mo-Fr 13:00", "name": "USPS COLLECTION BOX - BLUE BOX", "note": "ON 12/24 AND 12/31, THIS BOX MAY BE COLLECTED AS EARLY AS 12 NOON.", "ref": "8574500026"}, "type": "Feature"}
{"geometry": {"coordinates": [-111.003588, 32.234222], "type": "Point"}, "id": "y2i1Vj0De8xqbz-nxpgcgPnd0J4=", "properties": {"@spider": "usps_collection_boxes", "addr:city": "TUCSON", "addr:country": "US", "addr:full": "975 N SILVERBELL RD", "addr:postcode": "85745", "addr:state": "AZ", "brand": "USPS", "collection_times": "Mo-Fr 17:00; Sa 16:00", "name": "USPS COLLECTION BOX - BLUE BOX", "note": "ON 12/24 AND 12/31, THIS BOX MAY BE COLLECTED AS EARLY AS 12 NOON.", "ref": "8574500027"}, "type": "Feature"}
{"geometry": {"coordinates": [-111.003632, 32.234308], "type": "Point"}, "id": "Otv3gax2g72R9ZLLOVTYJz7wcGM=", "properties": {"@spider": "usps_collection_boxes", "addr:city": "TUCSON", "addr:country": "US", "addr:full": "975 N SILVERBELL RD", "addr:postcode": "85745", "addr:state": "AZ", "brand": "USPS", "collection_times": "Mo-Fr 17:00; Sa 16:00", "name": "USPS COLLECTION BOX - BLUE BOX", "note": "ON 12/24 AND 12/31, THIS BOX MAY BE COLLECTED AS EARLY AS 12 NOON.", "ref": "8574500028"}, "type": "Feature"}
{"geometry": {"coordinates": [-111.016514, 32.2269], "type": "Point"}, "id": "lVehpkqegEwhx9T9xr4weBPHHS4=", "properties": {"@spider": "usps_collection_boxes", "addr:city": "TUCSON", "addr:country": "US", "addr:full": "2202 W ANKLAM RD", "addr:postcode": "85745", "addr:state": "AZ", "brand": "USPS", "collection_times": "Mo-Fr 14:30", "name": "USPS COLLECTION BOX - BLUE BOX", "note": "ON 12/24 AND 12/31, THIS BOX MAY BE COLLECTED AS EARLY AS 12 NOON.", "ref": "8574500029"}, "type": "Feature"}
{"geometry": {"coordinates": [-110.999778, 32.227358], "type": "Point"}, "id": "7lJJlzz6F831WaJeBBPWW8ydljg=", "properties": {"@spider": "usps_collection_boxes", "addr:city": "TUCSON", "addr:country": "US", "addr:full": "1601 W SAINT MARYS RD", "addr:postcode": "85745", "addr:state": "AZ", "brand": "USPS", "collection_times": "Mo-Fr 13:30", "name": "USPS COLLECTION BOX - BLUE BOX", "note": "ON 12/24 AND 12/31, THIS BOX MAY BE COLLECTED AS EARLY AS 12 NOON.", "ref": "8574500030"}, "type": "Feature"}
{"geometry": {"coordinates": [-111.00372943, 32.234693041], "type": "Point"}, "id": "kQmtdnrO_w1DFdOl5I0YmLupy6U=", "properties": {"@spider": "usps_collection_boxes", "addr:city": "TUCSON", "addr:country": "US", "addr:full": "975 N SILVERBELL RD", "addr:postcode": "85745", "addr:state": "AZ", "brand": "USPS", "collection_times": "Mo-Fr 17:00", "name": "USPS COLLECTION BOX - PO LOBBY", "note": "ON 12/24 AND 12/31, THIS BOX MAY BE COLLECTED AS EARLY AS 12 NOON.", "ref": "8574500035"}, "type": "Feature"}
{"geometry": {"coordinates": [-111.065099, 32.133845], "type": "Point"}, "id": "XgJ5nmRBPUF6bsiC9XeVZYRBuuA=", "properties": {"@spider": "usps_collection_boxes", "addr:city": "TUCSON", "addr:country": "US", "addr:full": "4700 W VALENCIA RD", "addr:postcode": "85746", "addr:state": "AZ", "brand": "USPS", "collection_times": "Mo-Fr 16:30", "name": "USPS COLLECTION BOX - EXPRESS", "note": "ON 12/24 AND 12/31, THIS BOX MAY BE COLLECTED AS EARLY AS 12 NOON.", "ref": "8574600000"}, "type": "Feature"}
{"geometry": {"coordinates": [-111.06509, 32.133851], "type": "Point"}, "id": "oFUnMMwQxGiOXUdCdxQQImnd53A=", "properties": {"@spider": "usps_collection_boxes", "addr:city": "TUCSON", "addr:country": "US", "addr:full": "4700 W VALENCIA RD", "addr:postcode": "85746", "addr:state": "AZ", "brand": "USPS", "collection_times": "Mo-Fr 17:00; Sa 16:00", "name": "USPS COLLECTION BOX - BLUE BOX", "note": "ON 12/24 AND 12/31, THIS BOX MAY BE COLLECTED AS EARLY AS 12 NOON.", "ref": "8574600001"}, "type": "Feature"}
{"geometry": {"coordinates": [-111.000013, 32.13243], "type": "Point"}, "id": "CnGwirgqrcyXhM1VxKa86cXJ_1A=", "properties": {"@spider": "usps_collection_boxes", "addr:city": "TUCSON", "addr:country": "US", "addr:full": "1645 W VALENCIA RD", "addr:postcode": "85746", "addr:state": "AZ", "brand": "USPS", "collection_times": "Mo-Sa 10:00", "name": "USPS COLLECTION BOX - BLUE BOX", "ref": "8574600002"}, "type": "Feature"}
{"geometry": {"coordinates": [-111.013206, 32.148891], "type": "Point"}, "id": "LynUCQJGklEL0V1LVhasjYWoetI=", "properties": {"@spider": "usps_collection_boxes", "addr:city": "TUCSON", "addr:country": "US", "addr:full": "5680 S MISSION RD", "addr:postcode": "85746", "addr:state": "AZ", "brand": "USPS", "collection_times": "Mo-Fr 13:45", "name": "USPS COLLECTION BOX - BLUE BOX", "note": "ON 12/24 AND 12/31, THIS BOX MAY BE COLLECTED AS EARLY AS 12 NOON.", "ref": "8574600005"}, "type": "Feature"}
{"geometry": {"coordinates": [-111.000634, 32.13462], "type": "Point"}, "id": "QbT-0-BfBhISQBQk3xBSsUr-fXk=", "properties": {"@spider": "usps_collection_boxes", "addr:city": "TUCSON", "addr:country": "US", "addr:full": "1650 W VALENCIA RD", "addr:postcode": "85746", "addr:state": "AZ", "brand": "USPS", "collection_times": "Mo-Fr 10:45", "name": "USPS COLLECTION BOX - BLUE BOX", "ref": "8574600006"}, "type": "Feature"}
{"geometry": {"coordinates": [-111.030338, 32.134911], "type": "Point"}, "id": "g1VCVDfJqhwwUiq2Z4x9kohIdsc=", "properties": {"@spider": "usps_collection_boxes", "addr:city": "TUCSON", "addr:country": "US", "addr:full": "2940 W VALENCIA RD", "addr:postcode": "85746", "addr:state": "AZ", "brand": "USPS", "collection_times": "Mo-Fr 14:30; Sa 13:30", "name": "USPS COLLECTION BOX - BLUE BOX", "note": "ON 12/24 AND 12/31, THIS BOX MAY BE COLLECTED AS EARLY AS 12 NOON.", "ref": "8574600008"}, "type": "Feature"}
{"geometry": {"coordinates": [-110.773435, 32.105072], "type": "Point"}, "id": "zSOkVdXWoNx1QMOh4lbj-UYuecI=", "properties": {"@spider": "usps_collection_boxes", "addr:city": "TUCSON", "addr:country": "US", "addr:full": "8080 S HOUGHTON RD", "addr:postcode": "85747", "addr:state": "AZ", "brand": "USPS", "collection_times": "Mo-Fr 11:30", "name": "USPS COLLECTION BOX - BLUE BOX", "ref": "8574700000"}, "type": "Feature"}
{"geometry": {"coordinates": [-110.798608, 32.118748], "type": "Point"}, "id": "Gp_hlw_-eyG6Anwq62cgGt0r6hA=", "properties": {"@spider": "usps_collection_boxes", "addr:city": "TUCSON", "addr:country": "US", "addr:full": "9040 E VALENCIA RD", "addr:postcode": "85747", "addr:state": "AZ", "brand": "USPS", "collection_times": "Mo-Sa 13:00", "name": "USPS COLLECTION BOX - BLUE BOX", "note": "ON 12/24 AND 12/31, THIS BOX MAY BE COLLECTED AS EARLY AS 12 NOON.", "ref": "8574700001"}, "type": "Feature"}
{"geometry": {"coordinates": [-110.772036, 32.102076], "type": "Point"}, "id": "BsAOOSI22KVICyjLO7B_Ykj1GGg=", "properties": {"@spider": "usps_collection_boxes", "addr:city": "TUCSON", "addr:country": "US", "addr:full": "8235 S HOUGHTON RD", "addr:postcode": "85747", "addr:state": "AZ", "brand": "USPS", "collection_times": "Mo-Fr 14:30", "name": "USPS COLLECTION BOX - BLUE BOX", "note": "ON 12/24 AND 12/31, THIS BOX MAY BE COLLECTED AS EARLY AS 12 NOON.", "ref": "8574700002"}, "type": "Feature"}
{"geometry": {"coordinates": [-110.7725765819, 32.118489], "type": "Point"}, "id": "jig2dP7Gt4KbsCqG9hMj_rWADlE=", "properties": {"@spider": "usps_collection_boxes", "addr:city": "TUCSON", "addr:country": "US", "addr:full": "7335 S HOUGHTON RD", "addr:postcode": "85747", "addr:state": "AZ", "brand": "USPS", "collection_times": "Mo-Fr 14:30; Sa 14:00", "name": "USPS COLLECTION BOX - BLUE BOX", "note": "ON 12/24 AND 12/31, THIS BOX MAY BE COLLECTED AS EARLY AS 12 NOON.", "ref": "8574700003"}, "type": "Feature"}
{"geometry": {"coordinates": [-110.7719309864, 32.1022400177], "type": "Point"}, "id": "nyHxRdtMOjr_0pr0HShAPkuP2uw=", "properties": {"@spider": "usps_collection_boxes", "addr:city": "TUCSON", "addr:country": "US", "addr:full": "8235 S HOUGHTON RD STE 100", "addr:postcode": "85747", "addr:state": "AZ", "brand": "USPS", "collection_times": "Mo-Fr 14:30", "name": "USPS COLLECTION BOX - PO LOBBY", "note": "ON 12/24 AND 12/31, THIS BOX MAY BE COLLECTED AS EARLY AS 12 NOON.", "ref": "8574700004"}, "type": "Feature"}
{"geometry": {"coordinates": [-110.7725765819, 32.118489], "type": "Point"}, "id": "QPylvn2yzLlCyr0D30i8nMPdgLE=", "properties": {"@spider": "usps_collection_boxes", "addr:city": "TUCSON", "addr:country": "US", "addr:full": "7335 S HOUGHTON RD", "addr:postcode": "85747", "addr:state": "AZ", "brand": "USPS", "collection_times": "Mo-Sa 14:30", "name": "USPS COLLECTION BOX - PO LOBBY", "note": "ON 12/24 AND 12/31, THIS BOX MAY BE COLLECTED AS EARLY AS 12 NOON.", "ref": "8574700005"}, "type": "Feature"}
{"geometry": {"coordinates": [-110.787955, 32.221275], "type": "Point"}, "id": "Oi6OVxEHGPl5lH_5GoWauNdphfU=", "properties": {"@spider": "usps_collection_boxes", "addr:city": "TUCSON", "addr:country": "US", "addr:full": "9595 E BROADWAY BLVD", "addr:postcode": "85748", "addr:state": "AZ", "brand": "USPS", "collection_times": "Mo-Fr 14:30", "name": "USPS COLLECTION BOX - BLUE BOX", "note": "ON 12/24 AND 12/31, THIS BOX MAY BE COLLECTED AS EARLY AS 12 NOON.", "ref": "8574800002"}, "type": "Feature"}
{"geometry": {"coordinates": [-110.773893, 32.219324], "type": "Point"}, "id": "Mp8S3SgEFV2ZFS_ihT3HsZaTnrw=", "properties": {"@spider": "usps_collection_boxes", "addr:city": "TUCSON", "addr:country": "US", "addr:full": "120 S HOUGHTON RD", "addr:postcode": "85748", "addr:state": "AZ", "brand": "USPS", "collection_times": "Mo-Fr 14:30; Sa 14:00", "name": "USPS COLLECTION BOX - BLUE BOX", "note": "ON 12/24 AND 12/31, THIS BOX MAY BE COLLECTED AS EARLY AS 12 NOON.", "ref": "8574800003"}, "type": "Feature"}
{"geometry": {"coordinates": [-110.770865, 32.219826], "type": "Point"}, "id": "tG9w-0lqjAOmwZ9ABM09HBazBSc=", "properties": {"@spider": "usps_collection_boxes", "addr:city": "TUCSON", "addr:country": "US", "addr:full": "10380 E BROADWAY BLVD", "addr:postcode": "85748", "addr:state": "AZ", "brand": "USPS", "collection_times": "Mo-Fr 14:30", "name": "USPS COLLECTION BOX - BLUE BOX", "note": "ON 12/24 AND 12/31, THIS BOX MAY BE COLLECTED AS EARLY AS 12 NOON.", "ref": "8574800004"}, "type": "Feature"}
{"geometry": {"coordinates": [-110.799751, 32.259211], "type": "Point"}, "id": "pQguwvxOaGbvbIJ2VY7YmSSQKaU=", "properties": {"@spider": "usps_collection_boxes", "addr:city": "TUCSON", "addr:country": "US", "addr:full": "8987 E TANQUE VERDE RD", "addr:postcode": "85749", "addr:state": "AZ", "brand": "USPS", "collection_times": "Mo-Fr 14:15; Sa 14:00", "name": "USPS COLLECTION BOX - BLUE BOX", "note": "ON 12/24 AND 12/31, THIS BOX MAY BE COLLECTED AS EARLY AS 12 NOON.", "ref": "8574900000"}, "type": "Feature"}
{"geometry": {"coordinates": [-110.799749, 32.259204], "type": "Point"}, "id": "3zBbvm087N0RA9ESvCU_ZuEzbgM=", "properties": {"@spider": "usps_collection_boxes", "addr:city": "TUCSON", "addr:country": "US", "addr:full": "8987 E TANQUE VERDE RD", "addr:postcode": "85749", "addr:state": "AZ", "brand": "USPS", "collection_times": "Mo-Fr 14:15; Sa 14:00", "name": "USPS COLLECTION BOX - BLUE BOX", "note": "ON 12/24 AND 12/31, THIS BOX MAY BE COLLECTED AS EARLY AS 12 NOON.", "ref": "8574900001"}, "type": "Feature"}
{"geometry": {"coordinates": [-110.797529, 32.25892], "type": "Point"}, "id": "IDL_nxFKLHsxaKcXBok_1TW-5Bw=", "properties": {"@spider": "usps_collection_boxes", "addr:city": "TUCSON", "addr:country": "US", "addr:full": "9121 E TANQUE VERDE RD", "addr:postcode": "85749", "addr:state": "AZ", "brand": "USPS", "collection_times": "Mo-Sa 11:15", "name": "USPS COLLECTION BOX - BLUE BOX", "ref": "8574900002"}, "type": "Feature"}
{"geometry": {"coordinates": [-110.803818, 32.25762], "type": "Point"}, "id": "yJ25Lgw1qYvl-uQEtC5vUwLFgQA=", "properties": {"@spider": "usps_collection_boxes", "addr:city": "TUCSON", "addr:country": "US", "addr:full": "8848 E TANQUE VERDE RD", "addr:postcode": "85749", "addr:state": "AZ", "brand": "USPS", "collection_times": "Mo-Fr 10:45", "name": "USPS COLLECTION BOX - BLUE BOX", "ref": "8574900003"}, "type": "Feature"}
{"geometry": {"coordinates": [-110.802767002, 32.258525003], "type": "Point"}, "id": "UbDybSbxGgrslqvVgbZNCHFb92o=", "properties": {"@spider": "usps_collection_boxes", "addr:city": "TUCSON", "addr:country": "US", "addr:full": "8845 E TANQUE VERDE RD", "addr:postcode": "85749", "addr:state": "AZ", "brand": "USPS", "collection_times": "Mo-Sa 12:00", "name": "USPS COLLECTION BOX - BLUE BOX", "ref": "8574900004"}, "type": "Feature"}
{"geometry": {"coordinates": [-110.845469, 32.306815], "type": "Point"}, "id": "ZIzPAH5EsnVpZAEPyv_i9dM3BRE=", "properties": {"@spider": "usps_collection_boxes", "addr:city": "TUCSON", "addr:country": "US", "addr:full": "6890 E SUNRISE DR", "addr:postcode": "85750", "addr:state": "AZ", "brand": "USPS", "collection_times": "Mo-Sa 11:30", "name": "USPS COLLECTION BOX - BLUE BOX", "ref": "8575000000"}, "type": "Feature"}
{"geometry": {"coordinates": [-110.844216, 32.309756], "type": "Point"}, "id": "I7qJWyHfJrUbbSjbhxIOFJl7imo=", "properties": {"@spider": "usps_collection_boxes", "addr:city": "TUCSON", "addr:country": "US", "addr:full": "5620 N KOLB RD", "addr:postcode": "85750", "addr:state": "AZ", "brand": "USPS", "collection_times": "Mo-Fr 14:00", "name": "USPS COLLECTION BOX - BLUE BOX", "note": "ON 12/24 AND 12/31, THIS BOX MAY BE COLLECTED AS EARLY AS 12 NOON.", "ref": "8575000001"}, "type": "Feature"}
{"geometry": {"coordinates": [-110.874558, 32.273955], "type": "Point"}, "id": "6PDir_mm_QCoQmX1nHOha317cKA=", "properties": {"@spider": "usps_collection_boxes", "addr:city": "TUCSON", "addr:country": "US", "addr:full": "5525 E RIVER RD", "addr:postcode": "85750", "addr:state": "AZ", "brand": "USPS", "collection_times": "Mo-Fr 14:30; Sa 13:45", "name": "USPS COLLECTION BOX - BLUE BOX", "note": "ON 12/24 AND 12/31, THIS BOX MAY BE COLLECTED AS EARLY AS 12 NOON.", "ref": "8575000002"}, "type": "Feature"}
{"geometry": {"coordinates": [-110.823779, 32.294829], "type": "Point"}, "id": "v_jA2LBsAvlMcrNvYRE3TtHdoiE=", "properties": {"@spider": "usps_collection_boxes", "addr:city": "TUCSON", "addr:country": "US", "addr:full": "4802 N SABINO CANYON RD", "addr:postcode": "85750", "addr:state": "AZ", "brand": "USPS", "collection_times": "Mo-Sa 13:00", "name": "USPS COLLECTION BOX - BLUE BOX", "note": "ON 12/24 AND 12/31, THIS BOX MAY BE COLLECTED AS EARLY AS 12 NOON.", "ref": "8575000003"}, "type": "Feature"}
{"geometry": {"coordinates": [-110.955412, 32.466461], "type": "Point"}, "id": "DoJBPGnIQeBaEEUkc3ZRW3mFgWY=", "properties": {"@spider": "usps_collection_boxes", "addr:city": "TUCSON", "addr:country": "US", "addr:full": "1117 E RANCHO VISTOSO BLVD", "addr:postcode": "85755", "addr:state": "AZ", "brand": "USPS", "collection_times": "Mo-Sa 11:00", "name": "USPS COLLECTION BOX - BLUE BOX", "ref": "8575500002"}, "type": "Feature"}
{"geometry": {"coordinates": [-110.959356, 32.426167], "type": "Point"}, "id": "5vKCrwTlqcoNO0Mr2g8iGyk1DbM=", "properties": {"@spider": "usps_collection_boxes", "addr:city": "TUCSON", "addr:country": "US", "addr:full": "12112 N RANCHO VISTOSO BLVD", "addr:postcode": "85755", "addr:state": "AZ", "brand": "USPS", "collection_times": "Mo-Sa 11:00", "name": "USPS COLLECTION BOX - BLUE BOX", "ref": "8575500003"}, "type": "Feature"}
{"geometry": {"coordinates": [-110.876387, 32.126937], "type": "Point"}, "id": "sjN2a8j0BwkvB5vSFhkUlkaxDBc=", "properties": {"@spider": "usps_collection_boxes", "addr:city": "TUCSON", "addr:country": "US", "addr:full": "5451 E BENSON HWY", "addr:postcode": "85756", "addr:state": "AZ", "brand": "USPS", "collection_times": "Mo-Sa 11:00", "name": "USPS COLLECTION BOX - BLUE BOX", "ref": "8575600001"}, "type": "Feature"}
{"geometry": {"coordinates": [-110.930747, 32.126763], "type": "Point"}, "id": "nzbLjxOBcZkFJU_zQMFtz4kjW4Y=", "properties": {"@spider": "usps_collection_boxes", "addr:city": "TUCSON", "addr:country": "US", "addr:full": "2650 E ELVIRA RD", "addr:postcode": "85756", "addr:state": "AZ", "brand": "USPS", "collection_times": "Mo-Sa 11:00", "name": "USPS COLLECTION BOX - BLUE BOX", "ref": "8575600005"}, "type": "Feature"}
{"geometry": {"coordinates": [-110.941794, 32.123286], "type": "Point"}, "id": "M4_tRXSUH7_P3O_xesy4Y9YzVs4=", "properties": {"@spider": "usps_collection_boxes", "addr:city": "TUCSON", "addr:country": "US", "addr:full": "7081 S PLUMER AVE", "addr:postcode": "85756", "addr:state": "AZ", "brand": "USPS", "collection_times": "Mo-Fr 11:30", "name": "USPS COLLECTION BOX - BLUE BOX", "ref": "8575600006"}, "type": "Feature"}
{"geometry": {"coordinates": [-111.0707139834, 32.170751012], "type": "Point"}, "id": "aUkU1OFGbuAaDk_8pDe3Tz-OIrU=", "properties": {"@spider": "usps_collection_boxes", "addr:city": "TUCSON", "addr:country": "US", "addr:full": "4965 W AJO WAY", "addr:postcode": "85757", "addr:state": "AZ", "brand": "USPS", "collection_times": "Mo-Fr 13:45; Sa 13:15", "name": "USPS COLLECTION BOX - BLUE BOX", "note": "ON 12/24 AND 12/31, THIS BOX MAY BE COLLECTED AS EARLY AS 12 NOON.", "ref": "8575700001"}, "type": "Feature"}
{"geometry": {"coordinates": [-111.0650142259, 32.1334874661], "type": "Point"}, "id": "FjJAuP_WtVN9tu1MhzsEYvPCihs=", "properties": {"@spider": "usps_collection_boxes", "addr:city": "TUCSON", "addr:country": "US", "addr:full": "4700 W VALENCIA RD", "addr:postcode": "85757", "addr:state": "AZ", "brand": "USPS", "collection_times": "Mo-Fr 16:00", "name": "USPS COLLECTION BOX - PO LOBBY", "note": "ON 12/24 AND 12/31, THIS BOX MAY BE COLLECTED AS EARLY AS 12 NOON.", "ref": "8575700003"}, "type": "Feature"}
