{"geometry": {"coordinates": [-110.080671, 34.498976], "type": "Point"}, "id": "i8ciNYtovmG9hslrA4CyBP4X8lg=", "properties": {"@spider": "usps_collection_boxes", "addr:city": "SNOWFLAKE", "addr:country": "US", "addr:full": "761 S 1ST ST W", "addr:postcode": "85937", "addr:state": "AZ", "brand": "USPS", "collection_times": "Mo-Fr 15:15; Sa 11:30", "name": "USPS COLLECTION BOX - BLUE BOX", "note": "ON 12/24 AND 12/31, THIS BOX MAY BE COLLECTED AS EARLY AS 12 NOON.", "ref": "8593700003"}, "type": "Feature"}
{"geometry": {"coordinates": [-110.080703, 34.498956], "type": "Point"}, "id": "TjgZl8ZiQZRzmW921gu8h_35Bak=", "properties": {"@spider": "usps_collection_boxes", "addr:city": "SNOWFLAKE", "addr:country": "US", "addr:full": "761 S 1ST ST W", "addr:postcode": "85937", "addr:state": "AZ", "brand": "USPS", "collection_times": "Mo-Fr 15:15; Sa 11:30", "name": "USPS COLLECTION BOX - BLUE BOX", "note": "ON 12/24 AND 12/31, THIS BOX MAY BE COLLECTED AS EARLY AS 12 NOON.", "ref": "8593700004"}, "type": "Feature"}
{"geometry": {"coordinates": [-110.080703, 34.498956], "type": "Point"}, "id": "SYjdVtusGPo3GsLOGIWTpauhJa4=", "properties": {"@spider": "usps_collection_boxes", "addr:city": "SNOWFLAKE", "addr:country": "US", "addr:full": "761 S 1ST ST W", "addr:postcode": "85937", "addr:state": "AZ", "brand": "USPS", "collection_times": "Mo-Fr 15:15; Sa 11:30", "name": "USPS COLLECTION BOX - PO LOBBY", "note": "ON 12/24 AND 12/31, THIS BOX MAY BE COLLECTED AS EARLY AS 12 NOON.", "ref": "8593700005"}, "type": "Feature"}
{"geometry": {"coordinates": [-110.080648986, 34.498961068], "type": "Point"}, "id": "mCOaFx-LK_a2TFAT7fTXsGnW0fk=", "properties": {"@spider": "usps_collection_boxes", "addr:city": "SNOWFLAKE", "addr:country": "US", "addr:full": "761 S 1ST ST W", "addr:postcode": "85937", "addr:state": "AZ", "brand": "USPS", "collection_times": "Mo-Fr 15:15", "name": "USPS COLLECTION BOX - PO LOBBY", "note": "ON 12/24 AND 12/31, THIS BOX MAY BE COLLECTED AS EARLY AS 12 NOON.", "ref": "8593700007"}, "type": "Feature"}
{"geometry": {"coordinates": [-110.091218, 34.464698], "type": "Point"}, "id": "QvrZioB-ksyoGqay9Xp6DC-4rIg=", "properties": {"@spider": "usps_collection_boxes", "addr:city": "TAYLOR", "addr:country": "US", "addr:full": "25 S MAIN ST", "addr:postcode": "85939", "addr:state": "AZ", "brand": "USPS", "collection_times": "Mo-Fr 14:55; Sa 11:00", "name": "USPS COLLECTION BOX - BLUE BOX", "note": "ON 12/24 AND 12/31, THIS BOX MAY BE COLLECTED AS EARLY AS 12 NOON.", "ref": "8593900001"}, "type": "Feature"}
{"geometry": {"coordinates": [-110.091252, 34.464743], "type": "Point"}, "id": "wuhr4PwHV66IOLvTo4ZlqFTox_A=", "properties": {"@spider": "usps_collection_boxes", "addr:city": "TAYLOR", "addr:country": "US", "addr:full": "25 S MAIN ST", "addr:postcode": "85939", "addr:state": "AZ", "brand": "USPS", "collection_times": "Mo-Fr 14:55; Sa 11:00", "name": "USPS COLLECTION BOX - PO LOBBY", "note": "ON 12/24 AND 12/31, THIS BOX MAY BE COLLECTED AS EARLY AS 12 NOON.", "ref": "8593900002"}, "type": "Feature"}
{"geometry": {"coordinates": [-110.0912082194, 34.4639526706], "type": "Point"}, "id": "VXh56AJ2czmRaLAj0j6DLAkrTTE=", "properties": {"@spider": "usps_collection_boxes", "addr:city": "TAYLOR", "addr:country": "US", "addr:full": "25 S MAIN ST", "addr:postcode": "85939", "addr:state": "AZ", "brand": "USPS", "collection_times": "Mo-Fr 14:45", "name": "USPS COLLECTION BOX - PO LOBBY", "note": "ON 12/24 AND 12/31, THIS BOX MAY BE COLLECTED AS EARLY AS 12 NOON.", "ref": "8593900003"}, "type": "Feature"}
{"geometry": {"coordinates": [-110.0420414721, 34.7823780445], "type": "Point"}, "id": "gpOkXmED7U9tu3Vgw0gZMax3irU=", "properties": {"@spider": "usps_collection_boxes", "addr:city": "SNOWFLAKE", "addr:country": "US", "addr:full": "6435 W 1ST ST", "addr:postcode": "85942", "addr:state": "AZ", "brand": "USPS", "collection_times": "Mo-Fr 09:45", "name": "USPS COLLECTION BOX - PO LOBBY", "ref": "8594200002"}, "type": "Feature"}
