{"geometry": {"coordinates": [-111.665391, 35.176208], "type": "Point"}, "id": "GlVu0r_XhOhKfHtOhmu6qFFZ6m8=", "properties": {"@source_uri": "https://tools.usps.com/UspsToolsRestServices/rest/POLocator/findLocations", "@spider": "usps_collection_boxes", "addr:city": "FLAGSTAFF", "addr:country": "US", "addr:postcode": "86001", "addr:state": "AZ", "addr:street_address": "2750 S WOODLANDS VILLAGE BLVD", "amenity": "post_box", "collection_times": "Mo-Fr 15:30; Sa 12:00", "note": "ON 12/24 AND 12/31, THIS BOX MAY BE COLLECTED AS EARLY AS 12 NOON.", "nsi_id": "unitedstatespostalservice-a77078", "operator": "United States Postal Service", "operator:short": "USPS", "operator:type": "public", "operator:wikidata": "Q668687", "ref": "8600100002"}, "type": "Feature"}
{"geometry": {"coordinates": [-111.665403, 35.176198], "type": "Point"}, "id": "oYVU3w6Zzs1P_w-5TxVrGQTUNjw=", "properties": {"@source_uri": "https://tools.usps.com/UspsToolsRestServices/rest/POLocator/findLocations", "@spider": "usps_collection_boxes", "addr:city": "FLAGSTAFF", "addr:country": "US", "addr:postcode": "86001", "addr:state": "AZ", "addr:street_address": "2750 S WOODLANDS VILLAGE BLVD", "amenity": "post_box", "collection_times": "Mo-Fr 15:30; Sa 12:00", "note": "ON 12/24 AND 12/31, THIS BOX MAY BE COLLECTED AS EARLY AS 12 NOON.", "nsi_id": "unitedstatespostalservice-a77078", "operator": "United States Postal Service", "operator:short": "USPS", "operator:type": "public", "operator:wikidata": "Q668687", "ref": "8600100005"}, "type": "Feature"}
{"geometry": {"coordinates": [-111.647378, 35.198735], "type": "Point"}, "id": "bJMoR1Lprcktz4rpGn4NOcIug5I=", "properties": {"@source_uri": "https://tools.usps.com/UspsToolsRestServices/rest/POLocator/findLocations", "@spider": "usps_collection_boxes", "addr:city": "FLAGSTAFF", "addr:country": "US", "addr:postcode": "86001", "addr:state": "AZ", "addr:street_address": "114 N SAN FRANCISCO ST", "amenity": "post_box", "collection_times": "Mo-Sa 11:00", "nsi_id": "unitedstatespostalservice-a77078", "operator": "United States Postal Service", "operator:short": "USPS", "operator:type": "public", "operator:wikidata": "Q668687", "ref": "8600100016"}, "type": "Feature"}
{"geometry": {"coordinates": [-111.648048, 35.200335], "type": "Point"}, "id": "Fp3wSGUhJs2dp27UcL5xDSYIwuY=", "properties": {"@source_uri": "https://tools.usps.com/UspsToolsRestServices/rest/POLocator/findLocations", "@spider": "usps_collection_boxes", "addr:city": "FLAGSTAFF", "addr:country": "US", "addr:postcode": "86001", "addr:state": "AZ", "addr:street_address": "223 N LEROUX ST", "amenity": "post_box", "collection_times": "Mo-Fr 15:45", "note": "ON 12/24 AND 12/31, THIS BOX MAY BE COLLECTED AS EARLY AS 12 NOON.", "nsi_id": "unitedstatespostalservice-a77078", "operator": "United States Postal Service", "operator:short": "USPS", "operator:type": "public", "operator:wikidata": "Q668687", "ref": "8600100020"}, "type": "Feature"}
{"geometry": {"coordinates": [-111.654649816, 35.196501499], "type": "Point"}, "id": "snRT1jk0-VGdy8cA3VouEeiOQVc=", "properties": {"@source_uri": "https://tools.usps.com/UspsToolsRestServices/rest/POLocator/findLocations", "@spider": "usps_collection_boxes", "addr:city": "FLAGSTAFF", "addr:country": "US", "addr:postcode": "86001", "addr:state": "AZ", "addr:street_address": "101 W ROUTE 66", "amenity": "post_box", "collection_times": "Mo-Fr 10:00", "nsi_id": "unitedstatespostalservice-a77078", "operator": "United States Postal Service", "operator:short": "USPS", "operator:type": "public", "operator:wikidata": "Q668687", "ref": "8600100027"}, "type": "Feature"}
{"geometry": {"coordinates": [-111.6437, 35.205373], "type": "Point"}, "id": "6aswN7gjo1uq8zX3MZHZiCBvdgM=", "properties": {"@source_uri": "https://tools.usps.com/UspsToolsRestServices/rest/POLocator/findLocations", "@spider": "usps_collection_boxes", "addr:city": "FLAGSTAFF", "addr:country": "US", "addr:postcode": "86001", "addr:state": "AZ", "addr:street_address": "900 N SAN FRANCISCO ST", "amenity": "post_box", "collection_times": "Mo-Fr 16:00", "note": "ON 12/24 AND 12/31, THIS BOX MAY BE COLLECTED AS EARLY AS 12 NOON.", "nsi_id": "unitedstatespostalservice-a77078", "operator": "United States Postal Service", "operator:short": "USPS", "operator:type": "public", "operator:wikidata": "Q668687", "ref": "8600100032"}, "type": "Feature"}
{"geometry": {"coordinates": [-111.651826, 35.199523], "type": "Point"}, "id": "4QcTTAFL3kqJDWwB39yy2k2tGGU=", "properties": {"@source_uri": "https://tools.usps.com/UspsToolsRestServices/rest/POLocator/findLocations", "@spider": "usps_collection_boxes", "addr:city": "FLAGSTAFF", "addr:country": "US", "addr:postcode": "86001", "addr:state": "AZ", "addr:street_address": "211 W ASPEN AVE", "amenity": "post_box", "collection_times": "Mo-Fr 15:00; Sa 15:15", "note": "ON 12/24 AND 12/31, THIS BOX MAY BE COLLECTED AS EARLY AS 12 NOON.", "nsi_id": "unitedstatespostalservice-a77078", "operator": "United States Postal Service", "operator:short": "USPS", "operator:type": "public", "operator:wikidata": "Q668687", "ref": "8600100034"}, "type": "Feature"}
{"geometry": {"coordinates": [-111.662672184, 35.1886996781], "type": "Point"}, "id": "l_3u_0e-ttVUQLkg4hBwFmKOd78=", "properties": {"@source_uri": "https://tools.usps.com/UspsToolsRestServices/rest/POLocator/findLocations", "@spider": "usps_collection_boxes", "addr:city": "FLAGSTAFF", "addr:country": "US", "addr:postcode": "86001", "addr:state": "AZ", "addr:street_address": "1201 S PLAZA WAY", "amenity": "post_box", "collection_times": "Mo-Sa 15:15", "note": "ON 12/24 AND 12/31, THIS BOX MAY BE COLLECTED AS EARLY AS 12 NOON.", "nsi_id": "unitedstatespostalservice-a77078", "operator": "United States Postal Service", "operator:short": "USPS", "operator:type": "public", "operator:wikidata": "Q668687", "ref": "8600100036"}, "type": "Feature"}
{"geometry": {"coordinates": [-111.6469148526, 35.2049392354], "type": "Point"}, "id": "upn0pQEsz06Qx2bosCCLc92OC-Q=", "properties": {"@source_uri": "https://tools.usps.com/UspsToolsRestServices/rest/POLocator/findLocations", "@spider": "usps_collection_boxes", "addr:city": "FLAGSTAFF", "addr:country": "US", "addr:postcode": "86001", "addr:state": "AZ", "addr:street_address": "710 N BEAVER ST", "amenity": "post_box", "collection_times": "Mo-Fr 16:00", "note": "ON 12/24 AND 12/31, THIS BOX MAY BE COLLECTED AS EARLY AS 12 NOON.", "nsi_id": "unitedstatespostalservice-a77078", "operator": "United States Postal Service", "operator:short": "USPS", "operator:type": "public", "operator:wikidata": "Q668687", "ref": "8600100038"}, "type": "Feature"}
{"geometry": {"coordinates": [-111.643854, 35.209451], "type": "Point"}, "id": "BKVn55imF3s8hdjH93mU3kRSS_U=", "properties": {"@source_uri": "https://tools.usps.com/UspsToolsRestServices/rest/POLocator/findLocations", "@spider": "usps_collection_boxes", "addr:city": "FLAGSTAFF", "addr:country": "US", "addr:postcode": "86001", "addr:state": "AZ", "addr:street_address": "77 W FOREST AVE", "amenity": "post_box", "collection_times": "Mo-Fr 16:00", "note": "ON 12/24 AND 12/31, THIS BOX MAY BE COLLECTED AS EARLY AS 12 NOON.", "nsi_id": "unitedstatespostalservice-a77078", "operator": "United States Postal Service", "operator:short": "USPS", "operator:type": "public", "operator:wikidata": "Q668687", "ref": "8600100041"}, "type": "Feature"}
{"geometry": {"coordinates": [-111.646689, 35.207476], "type": "Point"}, "id": "XrkOj3wSBvVNLHEpOxi2dk2oxZ8=", "properties": {"@source_uri": "https://tools.usps.com/UspsToolsRestServices/rest/POLocator/findLocations", "@spider": "usps_collection_boxes", "addr:city": "FLAGSTAFF", "addr:country": "US", "addr:postcode": "86001", "addr:state": "AZ", "addr:street_address": "1000 N HUMPHREYS ST", "amenity": "post_box", "collection_times": "Mo-Fr 15:30; Sa 15:00", "note": "ON 12/24 AND 12/31, THIS BOX MAY BE COLLECTED AS EARLY AS 12 NOON.", "nsi_id": "unitedstatespostalservice-a77078", "operator": "United States Postal Service", "operator:short": "USPS", "operator:type": "public", "operator:wikidata": "Q668687", "ref": "8600100045"}, "type": "Feature"}
{"geometry": {"coordinates": [-111.646423, 35.198012], "type": "Point"}, "id": "QBzgtOhdwRjR4PuFJAXLISYWRAg=", "properties": {"@source_uri": "https://tools.usps.com/UspsToolsRestServices/rest/POLocator/findLocations", "@spider": "usps_collection_boxes", "addr:city": "FLAGSTAFF", "addr:country": "US", "addr:postcode": "86001", "addr:state": "AZ", "addr:street_address": "104 N AGASSIZ ST", "amenity": "post_box", "collection_times": "Mo-Fr 16:00; Sa 13:00", "indoor": "yes", "note": "ON 12/24 AND 12/31, THIS BOX MAY BE COLLECTED AS EARLY AS 12 NOON.", "nsi_id": "unitedstatespostalservice-a77078", "operator": "United States Postal Service", "operator:short": "USPS", "operator:type": "public", "operator:wikidata": "Q668687", "ref": "8600100057"}, "type": "Feature"}
{"geometry": {"coordinates": [-111.634811, 35.194899], "type": "Point"}, "id": "vJjiiA8Edj9UcoHGqMuf2becWkg=", "properties": {"@source_uri": "https://tools.usps.com/UspsToolsRestServices/rest/POLocator/findLocations", "@spider": "usps_collection_boxes", "addr:city": "FLAGSTAFF", "addr:country": "US", "addr:postcode": "86001", "addr:state": "AZ", "addr:street_address": "201 N SWITZER CANYON DR", "amenity": "post_box", "collection_times": "Mo-Sa 15:00", "note": "ON 12/24 AND 12/31, THIS BOX MAY BE COLLECTED AS EARLY AS 12 NOON.", "nsi_id": "unitedstatespostalservice-a77078", "operator": "United States Postal Service", "operator:short": "USPS", "operator:type": "public", "operator:wikidata": "Q668687", "ref": "8600100059"}, "type": "Feature"}
{"geometry": {"coordinates": [-111.646423, 35.198012], "type": "Point"}, "id": "zksvsYFTTxhkvbrgBrZ6X8bfmag=", "properties": {"@source_uri": "https://tools.usps.com/UspsToolsRestServices/rest/POLocator/findLocations", "@spider": "usps_collection_boxes", "addr:city": "FLAGSTAFF", "addr:country": "US", "addr:postcode": "86001", "addr:state": "AZ", "addr:street_address": "104 N AGASSIZ ST", "amenity": "post_box", "collection_times": "Mo-Fr 16:00; Sa 13:00", "name": "USPS COLLECTION BOX - APC", "note": "ON 12/24 AND 12/31, THIS BOX MAY BE COLLECTED AS EARLY AS 12 NOON.", "nsi_id": "unitedstatespostalservice-a77078", "operator": "United States Postal Service", "operator:short": "USPS", "operator:type": "public", "operator:wikidata": "Q668687", "ref": "8600100062"}, "type": "Feature"}
{"geometry": {"coordinates": [-111.646381115, 35.198035534], "type": "Point"}, "id": "-SuiqZxEldY9GN_JXAVfXa4A4UM=", "properties": {"@source_uri": "https://tools.usps.com/UspsToolsRestServices/rest/POLocator/findLocations", "@spider": "usps_collection_boxes", "addr:city": "FLAGSTAFF", "addr:country": "US", "addr:postcode": "86001", "addr:state": "AZ", "addr:street_address": "104 N AGASSIZ ST", "amenity": "post_box", "collection_times": "Mo-Fr 16:00; Sa 13:00", "indoor": "yes", "note": "ON 12/24 AND 12/31, THIS BOX MAY BE COLLECTED AS EARLY AS 12 NOON.", "nsi_id": "unitedstatespostalservice-a77078", "operator": "United States Postal Service", "operator:short": "USPS", "operator:type": "public", "operator:wikidata": "Q668687", "ref": "8600100065"}, "type": "Feature"}
{"geometry": {"coordinates": [-111.651125, 35.19814], "type": "Point"}, "id": "bsfaiuESxi-ac0lj6a-z9-4D4i8=", "properties": {"@source_uri": "https://tools.usps.com/UspsToolsRestServices/rest/POLocator/findLocations", "@spider": "usps_collection_boxes", "addr:city": "FLAGSTAFF", "addr:country": "US", "addr:postcode": "86001", "addr:state": "AZ", "addr:street_address": "104 N WC RILES ST", "amenity": "post_box", "collection_times": "Mo-Sa 16:00", "note": "ON 12/24 AND 12/31, THIS BOX MAY BE COLLECTED AS EARLY AS 12 NOON.", "nsi_id": "unitedstatespostalservice-a77078", "operator": "United States Postal Service", "operator:short": "USPS", "operator:type": "public", "operator:wikidata": "Q668687", "ref": "8600100067"}, "type": "Feature"}
{"geometry": {"coordinates": [-111.651125, 35.19814], "type": "Point"}, "id": "AS5WiJab3kuFWg8wggDAFStFG_M=", "properties": {"@source_uri": "https://tools.usps.com/UspsToolsRestServices/rest/POLocator/findLocations", "@spider": "usps_collection_boxes", "addr:city": "FLAGSTAFF", "addr:country": "US", "addr:postcode": "86001", "addr:state": "AZ", "addr:street_address": "104 N WC RILES ST", "amenity": "post_box", "collection_times": "Mo-Sa 16:00", "note": "ON 12/24 AND 12/31, THIS BOX MAY BE COLLECTED AS EARLY AS 12 NOON.", "nsi_id": "unitedstatespostalservice-a77078", "operator": "United States Postal Service", "operator:short": "USPS", "operator:type": "public", "operator:wikidata": "Q668687", "ref": "8600100068"}, "type": "Feature"}
{"geometry": {"coordinates": [-111.609944, 35.210125], "type": "Point"}, "id": "Akfotr0rjWaouLCmUD687jO6MAY=", "properties": {"@source_uri": "https://tools.usps.com/UspsToolsRestServices/rest/POLocator/findLocations", "@spider": "usps_collection_boxes", "addr:city": "FLAGSTAFF", "addr:country": "US", "addr:postcode": "86004", "addr:state": "AZ", "addr:street_address": "2400 N POSTAL BLVD", "amenity": "post_box", "collection_times": "Mo-Fr 17:00; Sa 16:30", "note": "ON 12/24 AND 12/31, THIS BOX MAY BE COLLECTED AS EARLY AS 12 NOON.", "nsi_id": "unitedstatespostalservice-a77078", "operator": "United States Postal Service", "operator:short": "USPS", "operator:type": "public", "operator:wikidata": "Q668687", "ref": "8600400004"}, "type": "Feature"}
{"geometry": {"coordinates": [-111.620521, 35.217467], "type": "Point"}, "id": "1gLiQMsLSjJA4ONkR4tlvrYqsfg=", "properties": {"@source_uri": "https://tools.usps.com/UspsToolsRestServices/rest/POLocator/findLocations", "@spider": "usps_collection_boxes", "addr:city": "FLAGSTAFF", "addr:country": "US", "addr:postcode": "86004", "addr:state": "AZ", "addr:street_address": "1515 E CEDAR AVE", "amenity": "post_box", "collection_times": "Mo-Fr 15:00", "note": "ON 12/24 AND 12/31, THIS BOX MAY BE COLLECTED AS EARLY AS 12 NOON.", "nsi_id": "unitedstatespostalservice-a77078", "operator": "United States Postal Service", "operator:short": "USPS", "operator:type": "public", "operator:wikidata": "Q668687", "ref": "8600400008"}, "type": "Feature"}
{"geometry": {"coordinates": [-111.617344, 35.218119], "type": "Point"}, "id": "R9P9H3B1PeHtiYDQE-hvhRcu1Ac=", "properties": {"@source_uri": "https://tools.usps.com/UspsToolsRestServices/rest/POLocator/findLocations", "@spider": "usps_collection_boxes", "addr:city": "FLAGSTAFF", "addr:country": "US", "addr:postcode": "86004", "addr:state": "AZ", "addr:street_address": "2200 E CEDAR AVE", "amenity": "post_box", "collection_times": "Mo-Fr 15:00", "note": "ON 12/24 AND 12/31, THIS BOX MAY BE COLLECTED AS EARLY AS 12 NOON.", "nsi_id": "unitedstatespostalservice-a77078", "operator": "United States Postal Service", "operator:short": "USPS", "operator:type": "public", "operator:wikidata": "Q668687", "ref": "8600400010"}, "type": "Feature"}
{"geometry": {"coordinates": [-111.610678, 35.211495], "type": "Point"}, "id": "A9ZYy5XgJZHKHA4vl090CNYJv5o=", "properties": {"@source_uri": "https://tools.usps.com/UspsToolsRestServices/rest/POLocator/findLocations", "@spider": "usps_collection_boxes", "addr:city": "FLAGSTAFF", "addr:country": "US", "addr:postcode": "86004", "addr:state": "AZ", "addr:street_address": "2529 E 7TH AVE", "amenity": "post_box", "collection_times": "Mo-Sa 09:45", "nsi_id": "unitedstatespostalservice-a77078", "operator": "United States Postal Service", "operator:short": "USPS", "operator:type": "public", "operator:wikidata": "Q668687", "ref": "8600400011"}, "type": "Feature"}
{"geometry": {"coordinates": [-111.612682, 35.215008], "type": "Point"}, "id": "thgKeOvaqBQPbC2RUMhhtJEeC68=", "properties": {"@source_uri": "https://tools.usps.com/UspsToolsRestServices/rest/POLocator/findLocations", "@spider": "usps_collection_boxes", "addr:city": "FLAGSTAFF", "addr:country": "US", "addr:postcode": "86004", "addr:state": "AZ", "addr:street_address": "2708 N 4TH ST", "amenity": "post_box", "collection_times": "Mo-Fr 15:00", "note": "ON 12/24 AND 12/31, THIS BOX MAY BE COLLECTED AS EARLY AS 12 NOON.", "nsi_id": "unitedstatespostalservice-a77078", "operator": "United States Postal Service", "operator:short": "USPS", "operator:type": "public", "operator:wikidata": "Q668687", "ref": "8600400015"}, "type": "Feature"}
{"geometry": {"coordinates": [-111.577025, 35.212944], "type": "Point"}, "id": "411ik0C5TG7MUpT9faE8GDL4f_Y=", "properties": {"@source_uri": "https://tools.usps.com/UspsToolsRestServices/rest/POLocator/findLocations", "@spider": "usps_collection_boxes", "addr:city": "FLAGSTAFF", "addr:country": "US", "addr:postcode": "86004", "addr:state": "AZ", "addr:street_address": "5200 E CORTLAND BLVD", "amenity": "post_box", "collection_times": "Mo-Sa 10:00", "nsi_id": "unitedstatespostalservice-a77078", "operator": "United States Postal Service", "operator:short": "USPS", "operator:type": "public", "operator:wikidata": "Q668687", "ref": "8600400023"}, "type": "Feature"}
{"geometry": {"coordinates": [-111.577651, 35.204132], "type": "Point"}, "id": "qBAY-_Bwi7dXNpCpcnRPQpSUIv0=", "properties": {"@source_uri": "https://tools.usps.com/UspsToolsRestServices/rest/POLocator/findLocations", "@spider": "usps_collection_boxes", "addr:city": "FLAGSTAFF", "addr:country": "US", "addr:postcode": "86004", "addr:state": "AZ", "addr:street_address": "1900 N COUNTRY CLUB DR", "amenity": "post_box", "collection_times": "Mo-Fr 15:00; Sa 14:30", "note": "ON 12/24 AND 12/31, THIS BOX MAY BE COLLECTED AS EARLY AS 12 NOON.", "nsi_id": "unitedstatespostalservice-a77078", "operator": "United States Postal Service", "operator:short": "USPS", "operator:type": "public", "operator:wikidata": "Q668687", "ref": "8600400024"}, "type": "Feature"}
{"geometry": {"coordinates": [-111.619026, 35.191244], "type": "Point"}, "id": "a1HwVsG0oRPshfB1YQBetjD8q9Y=", "properties": {"@source_uri": "https://tools.usps.com/UspsToolsRestServices/rest/POLocator/findLocations", "@spider": "usps_collection_boxes", "addr:city": "FLAGSTAFF", "addr:country": "US", "addr:postcode": "86004", "addr:state": "AZ", "addr:street_address": "2515 E BUTLER AVE", "amenity": "post_box", "collection_times": "Mo-Fr 16:30; Sa 12:00", "name": "USPS COLLECTION BOX - EXPRESS", "note": "ON 12/24 AND 12/31, THIS BOX MAY BE COLLECTED AS EARLY AS 12 NOON.", "nsi_id": "unitedstatespostalservice-a77078", "operator": "United States Postal Service", "operator:short": "USPS", "operator:type": "public", "operator:wikidata": "Q668687", "ref": "8600400030"}, "type": "Feature"}
{"geometry": {"coordinates": [-111.610128, 35.209652], "type": "Point"}, "id": "RJiBLJHMie7nhF_3kSK_mXwBOFg=", "properties": {"@source_uri": "https://tools.usps.com/UspsToolsRestServices/rest/POLocator/findLocations", "@spider": "usps_collection_boxes", "addr:city": "FLAGSTAFF", "addr:country": "US", "addr:postcode": "86004", "addr:state": "AZ", "addr:street_address": "2400 N POSTAL BLVD", "amenity": "post_box", "collection_times": "Mo-Fr 17:00; Sa 16:30", "indoor": "yes", "note": "ON 12/24 AND 12/31, THIS BOX MAY BE COLLECTED AS EARLY AS 12 NOON.", "nsi_id": "unitedstatespostalservice-a77078", "operator": "United States Postal Service", "operator:short": "USPS", "operator:type": "public", "operator:wikidata": "Q668687", "ref": "8600400031"}, "type": "Feature"}
{"geometry": {"coordinates": [-111.582171, 35.223253], "type": "Point"}, "id": "AgXc6_yy9Isu7TBfxAV_PBwNrhc=", "properties": {"@source_uri": "https://tools.usps.com/UspsToolsRestServices/rest/POLocator/findLocations", "@spider": "usps_collection_boxes", "addr:city": "FLAGSTAFF", "addr:country": "US", "addr:postcode": "86004", "addr:state": "AZ", "addr:street_address": "4560 N US HIGHWAY 89", "amenity": "post_box", "collection_times": "Mo-Fr 15:00; Sa 14:45", "note": "ON 12/24 AND 12/31, THIS BOX MAY BE COLLECTED AS EARLY AS 12 NOON.", "nsi_id": "unitedstatespostalservice-a77078", "operator": "United States Postal Service", "operator:short": "USPS", "operator:type": "public", "operator:wikidata": "Q668687", "ref": "8600400033"}, "type": "Feature"}
{"geometry": {"coordinates": [-111.610128, 35.209652], "type": "Point"}, "id": "w8aZJEwcNlOEKCYK_1KMxhNmjvs=", "properties": {"@source_uri": "https://tools.usps.com/UspsToolsRestServices/rest/POLocator/findLocations", "@spider": "usps_collection_boxes", "addr:city": "FLAGSTAFF", "addr:country": "US", "addr:postcode": "86004", "addr:state": "AZ", "addr:street_address": "2400 N POSTAL BLVD", "amenity": "post_box", "collection_times": "Mo-Fr 17:00; Sa 16:30", "name": "USPS COLLECTION BOX - APC", "note": "ON 12/24 AND 12/31, THIS BOX MAY BE COLLECTED AS EARLY AS 12 NOON.", "nsi_id": "unitedstatespostalservice-a77078", "operator": "United States Postal Service", "operator:short": "USPS", "operator:type": "public", "operator:wikidata": "Q668687", "ref": "8600400034"}, "type": "Feature"}
{"geometry": {"coordinates": [-111.61569, 35.21265], "type": "Point"}, "id": "vpWXcWshs1QMyzrKp0qzq-2WRLg=", "properties": {"@source_uri": "https://tools.usps.com/UspsToolsRestServices/rest/POLocator/findLocations", "@spider": "usps_collection_boxes", "addr:city": "FLAGSTAFF", "addr:country": "US", "addr:postcode": "86004", "addr:state": "AZ", "addr:street_address": "50 PINEWOOD BLVD", "amenity": "post_box", "collection_times": "Mo-Fr 15:30", "note": "ON 12/24 AND 12/31, THIS BOX MAY BE COLLECTED AS EARLY AS 12 NOON.", "nsi_id": "unitedstatespostalservice-a77078", "operator": "United States Postal Service", "operator:short": "USPS", "operator:type": "public", "operator:wikidata": "Q668687", "ref": "8600400035"}, "type": "Feature"}
{"geometry": {"coordinates": [-111.610077606, 35.209579556], "type": "Point"}, "id": "bRXSuR4Khtkfr-KGwXYSv1rZRqU=", "properties": {"@source_uri": "https://tools.usps.com/UspsToolsRestServices/rest/POLocator/findLocations", "@spider": "usps_collection_boxes", "addr:city": "FLAGSTAFF", "addr:country": "US", "addr:postcode": "86004", "addr:state": "AZ", "addr:street_address": "2400 N POSTAL BLVD", "amenity": "post_box", "collection_times": "Mo-Fr 17:00; Sa 14:30", "indoor": "yes", "note": "ON 12/24 AND 12/31, THIS BOX MAY BE COLLECTED AS EARLY AS 12 NOON.", "nsi_id": "unitedstatespostalservice-a77078", "operator": "United States Postal Service", "operator:short": "USPS", "operator:type": "public", "operator:wikidata": "Q668687", "ref": "8600400042"}, "type": "Feature"}
{"geometry": {"coordinates": [-111.654148, 35.188458], "type": "Point"}, "id": "4Iv0abQ8Skw8TA5wunVHvxWnaYY=", "properties": {"@source_uri": "https://tools.usps.com/UspsToolsRestServices/rest/POLocator/findLocations", "@spider": "usps_collection_boxes", "addr:city": "FLAGSTAFF", "addr:country": "US", "addr:postcode": "86011", "addr:state": "AZ", "addr:street_address": "1 NAU CAMPUS BOOKSTORE", "amenity": "post_box", "collection_times": "Mo-Fr 15:30; Sa 15:00", "note": "ON 12/24 AND 12/31, THIS BOX MAY BE COLLECTED AS EARLY AS 12 NOON.", "nsi_id": "unitedstatespostalservice-a77078", "operator": "United States Postal Service", "operator:short": "USPS", "operator:type": "public", "operator:wikidata": "Q668687", "ref": "8601100008"}, "type": "Feature"}
{"geometry": {"coordinates": [-111.411848539, 35.875199835], "type": "Point"}, "id": "VLJ6AS_5Moq5k2MXLf1wcqInDfY=", "properties": {"@source_uri": "https://tools.usps.com/UspsToolsRestServices/rest/POLocator/findLocations", "@spider": "usps_collection_boxes", "addr:city": "CAMERON", "addr:country": "US", "addr:postcode": "86020", "addr:state": "AZ", "addr:street_address": "465 HIGHWAY 89", "amenity": "post_box", "collection_times": "Mo-Fr 15:45; Sa 10:15", "note": "ON 12/24 AND 12/31, THIS BOX MAY BE COLLECTED AS EARLY AS 12 NOON.", "nsi_id": "unitedstatespostalservice-a77078", "operator": "United States Postal Service", "operator:short": "USPS", "operator:type": "public", "operator:wikidata": "Q668687", "ref": "8602000001"}, "type": "Feature"}
{"geometry": {"coordinates": [-111.411848539, 35.875199835], "type": "Point"}, "id": "O4_ZEYkA7AlLvyMV9HfC6o_i-mA=", "properties": {"@source_uri": "https://tools.usps.com/UspsToolsRestServices/rest/POLocator/findLocations", "@spider": "usps_collection_boxes", "addr:city": "CAMERON", "addr:country": "US", "addr:postcode": "86020", "addr:state": "AZ", "addr:street_address": "465 HIGHWAY 89", "amenity": "post_box", "collection_times": "Mo-Fr 15:45; Sa 10:15", "indoor": "yes", "note": "ON 12/24 AND 12/31, THIS BOX MAY BE COLLECTED AS EARLY AS 12 NOON.", "nsi_id": "unitedstatespostalservice-a77078", "operator": "United States Postal Service", "operator:short": "USPS", "operator:type": "public", "operator:wikidata": "Q668687", "ref": "8602000004"}, "type": "Feature"}
{"geometry": {"coordinates": [-111.411848539, 35.875199835], "type": "Point"}, "id": "Wo2oc_gFmB4D6HBxdiWEoQIgYow=", "properties": {"@source_uri": "https://tools.usps.com/UspsToolsRestServices/rest/POLocator/findLocations", "@spider": "usps_collection_boxes", "addr:city": "CAMERON", "addr:country": "US", "addr:postcode": "86020", "addr:state": "AZ", "addr:street_address": "465 HIGHWAY 89", "amenity": "post_box", "collection_times": "Mo-Fr 15:45; Sa 10:15", "indoor": "yes", "note": "ON 12/24 AND 12/31, THIS BOX MAY BE COLLECTED AS EARLY AS 12 NOON.", "nsi_id": "unitedstatespostalservice-a77078", "operator": "United States Postal Service", "operator:short": "USPS", "operator:type": "public", "operator:wikidata": "Q668687", "ref": "8602000005"}, "type": "Feature"}
{"geometry": {"coordinates": [-112.974058, 36.972524], "type": "Point"}, "id": "rSlNg4fsU7UGmrEvAOQPomWgyE4=", "properties": {"@source_uri": "https://tools.usps.com/UspsToolsRestServices/rest/POLocator/findLocations", "@spider": "usps_collection_boxes", "addr:city": "COLORADO CITY", "addr:country": "US", "addr:postcode": "86021", "addr:state": "AZ", "addr:street_address": "55 S CENTRAL", "amenity": "post_box", "collection_times": "Mo-Sa 11:00", "nsi_id": "unitedstatespostalservice-a77078", "operator": "United States Postal Service", "operator:short": "USPS", "operator:type": "public", "operator:wikidata": "Q668687", "ref": "8602100001"}, "type": "Feature"}
{"geometry": {"coordinates": [-112.973995, 36.972569], "type": "Point"}, "id": "zJkSIv6pneX2i5HNVgf_xxJXZNs=", "properties": {"@source_uri": "https://tools.usps.com/UspsToolsRestServices/rest/POLocator/findLocations", "@spider": "usps_collection_boxes", "addr:city": "COLORADO CITY", "addr:country": "US", "addr:postcode": "86021", "addr:state": "AZ", "addr:street_address": "55 S CENTRAL", "amenity": "post_box", "collection_times": "Mo-Sa 11:00", "indoor": "yes", "nsi_id": "unitedstatespostalservice-a77078", "operator": "United States Postal Service", "operator:short": "USPS", "operator:type": "public", "operator:wikidata": "Q668687", "ref": "8602100002"}, "type": "Feature"}
{"geometry": {"coordinates": [-112.973995, 36.972569], "type": "Point"}, "id": "ozbS5JtujQxzlCcCDyyPD-OsUY4=", "properties": {"@source_uri": "https://tools.usps.com/UspsToolsRestServices/rest/POLocator/findLocations", "@spider": "usps_collection_boxes", "addr:city": "COLORADO CITY", "addr:country": "US", "addr:postcode": "86021", "addr:state": "AZ", "addr:street_address": "55 S CENTRAL", "amenity": "post_box", "collection_times": "Mo-Sa 11:00", "indoor": "yes", "nsi_id": "unitedstatespostalservice-a77078", "operator": "United States Postal Service", "operator:short": "USPS", "operator:type": "public", "operator:wikidata": "Q668687", "ref": "8602100003"}, "type": "Feature"}
{"geometry": {"coordinates": [-112.974077253, 36.972548239], "type": "Point"}, "id": "wkV56UC-9tpSGrHxBGFl6pWiPBM=", "properties": {"@source_uri": "https://tools.usps.com/UspsToolsRestServices/rest/POLocator/findLocations", "@spider": "usps_collection_boxes", "addr:city": "COLORADO CITY", "addr:country": "US", "addr:postcode": "86021", "addr:state": "AZ", "addr:street_address": "55 S CENTRAL ST", "amenity": "post_box", "collection_times": "Mo-Sa 11:00", "indoor": "yes", "nsi_id": "unitedstatespostalservice-a77078", "operator": "United States Postal Service", "operator:short": "USPS", "operator:type": "public", "operator:wikidata": "Q668687", "ref": "8602100004"}, "type": "Feature"}
{"geometry": {"coordinates": [-112.526454, 36.950561], "type": "Point"}, "id": "umpE38CHH_ohUy8KT2xJV1e6uak=", "properties": {"@source_uri": "https://tools.usps.com/UspsToolsRestServices/rest/POLocator/findLocations", "@spider": "usps_collection_boxes", "addr:city": "FREDONIA", "addr:country": "US", "addr:postcode": "86022", "addr:state": "AZ", "addr:street_address": "85 N MAIN ST", "amenity": "post_box", "collection_times": "Mo-Sa 11:30", "nsi_id": "unitedstatespostalservice-a77078", "operator": "United States Postal Service", "operator:short": "USPS", "operator:type": "public", "operator:wikidata": "Q668687", "ref": "8602200001"}, "type": "Feature"}
{"geometry": {"coordinates": [-112.52642, 36.950626], "type": "Point"}, "id": "0V-6MZ8GI0gGmG5fkB1GTiV7ygI=", "properties": {"@source_uri": "https://tools.usps.com/UspsToolsRestServices/rest/POLocator/findLocations", "@spider": "usps_collection_boxes", "addr:city": "FREDONIA", "addr:country": "US", "addr:postcode": "86022", "addr:state": "AZ", "addr:street_address": "85 N MAIN ST", "amenity": "post_box", "collection_times": "Mo-Sa 11:30", "indoor": "yes", "nsi_id": "unitedstatespostalservice-a77078", "operator": "United States Postal Service", "operator:short": "USPS", "operator:type": "public", "operator:wikidata": "Q668687", "ref": "8602200003"}, "type": "Feature"}
{"geometry": {"coordinates": [-112.5264814084, 36.9505814226], "type": "Point"}, "id": "ZcCfHoN0DMimDQZKvNw2ulensX4=", "properties": {"@source_uri": "https://tools.usps.com/UspsToolsRestServices/rest/POLocator/findLocations", "@spider": "usps_collection_boxes", "addr:city": "FREDONIA", "addr:country": "US", "addr:postcode": "86022", "addr:state": "AZ", "addr:street_address": "85 N MAIN ST", "amenity": "post_box", "collection_times": "Mo-Fr 11:30", "indoor": "yes", "nsi_id": "unitedstatespostalservice-a77078", "operator": "United States Postal Service", "operator:short": "USPS", "operator:type": "public", "operator:wikidata": "Q668687", "ref": "8602200004"}, "type": "Feature"}
{"geometry": {"coordinates": [-112.120788417, 36.053952075], "type": "Point"}, "id": "3LwOUP95VWjUhLysXMa1kYGEhIQ=", "properties": {"@source_uri": "https://tools.usps.com/UspsToolsRestServices/rest/POLocator/findLocations", "@spider": "usps_collection_boxes", "addr:city": "GRAND CANYON", "addr:country": "US", "addr:postcode": "86023", "addr:state": "AZ", "addr:street_address": "100 MATHER BUSINESS CTR", "amenity": "post_box", "collection_times": "Mo-Fr 14:30; Sa 11:00", "note": "ON 12/24 AND 12/31, THIS BOX MAY BE COLLECTED AS EARLY AS 12 NOON.", "nsi_id": "unitedstatespostalservice-a77078", "operator": "United States Postal Service", "operator:short": "USPS", "operator:type": "public", "operator:wikidata": "Q668687", "ref": "8602300001"}, "type": "Feature"}
{"geometry": {"coordinates": [-112.1373189, 36.054413], "type": "Point"}, "id": "uWIBDJKKYKi3egGUZ8AzqorKi04=", "properties": {"@source_uri": "https://tools.usps.com/UspsToolsRestServices/rest/POLocator/findLocations", "@spider": "usps_collection_boxes", "addr:city": "GRAND CANYON", "addr:country": "US", "addr:postcode": "86023", "addr:state": "AZ", "addr:street_address": "577 STATE ROUTE 64", "amenity": "post_box", "collection_times": "Mo-Fr 13:30", "note": "ON 12/24 AND 12/31, THIS BOX MAY BE COLLECTED AS EARLY AS 12 NOON.", "nsi_id": "unitedstatespostalservice-a77078", "operator": "United States Postal Service", "operator:short": "USPS", "operator:type": "public", "operator:wikidata": "Q668687", "ref": "8602300002"}, "type": "Feature"}
{"geometry": {"coordinates": [-112.120788417, 36.053952075], "type": "Point"}, "id": "0SP8tCT65-rUujrEk_HB6Vmdrqw=", "properties": {"@source_uri": "https://tools.usps.com/UspsToolsRestServices/rest/POLocator/findLocations", "@spider": "usps_collection_boxes", "addr:city": "GRAND CANYON", "addr:country": "US", "addr:postcode": "86023", "addr:state": "AZ", "addr:street_address": "100 MATHER BUSINESS CTR", "amenity": "post_box", "collection_times": "Mo-Fr 14:30; Sa 11:00", "indoor": "yes", "note": "ON 12/24 AND 12/31, THIS BOX MAY BE COLLECTED AS EARLY AS 12 NOON.", "nsi_id": "unitedstatespostalservice-a77078", "operator": "United States Postal Service", "operator:short": "USPS", "operator:type": "public", "operator:wikidata": "Q668687", "ref": "8602300005"}, "type": "Feature"}
{"geometry": {"coordinates": [-112.120788417, 36.053952075], "type": "Point"}, "id": "cBIw1REfBb1A4SDnW1FIO2aVo3w=", "properties": {"@source_uri": "https://tools.usps.com/UspsToolsRestServices/rest/POLocator/findLocations", "@spider": "usps_collection_boxes", "addr:city": "GRAND CANYON", "addr:country": "US", "addr:postcode": "86023", "addr:state": "AZ", "addr:street_address": "100 MATHER BUSINESS CTR", "amenity": "post_box", "collection_times": "Mo-Fr 14:30", "indoor": "yes", "note": "ON 12/24 AND 12/31, THIS BOX MAY BE COLLECTED AS EARLY AS 12 NOON.", "nsi_id": "unitedstatespostalservice-a77078", "operator": "United States Postal Service", "operator:short": "USPS", "operator:type": "public", "operator:wikidata": "Q668687", "ref": "8602300007"}, "type": "Feature"}
{"geometry": {"coordinates": [-110.158058, 34.905974], "type": "Point"}, "id": "cgE6SU6a6LkQxXHKxA4VpjKmWc4=", "properties": {"@source_uri": "https://tools.usps.com/UspsToolsRestServices/rest/POLocator/findLocations", "@spider": "usps_collection_boxes", "addr:city": "HOLBROOK", "addr:country": "US", "addr:postcode": "86025", "addr:state": "AZ", "addr:street_address": "100 W ERIE ST", "amenity": "post_box", "collection_times": "Mo-Sa 14:15", "note": "ON 12/24 AND 12/31, THIS BOX MAY BE COLLECTED AS EARLY AS 12 NOON.", "nsi_id": "unitedstatespostalservice-a77078", "operator": "United States Postal Service", "operator:short": "USPS", "operator:type": "public", "operator:wikidata": "Q668687", "ref": "8602500004"}, "type": "Feature"}
{"geometry": {"coordinates": [-110.152851, 34.918198], "type": "Point"}, "id": "kuWA426rP6qlfBPxZEZ8OxE5s2A=", "properties": {"@source_uri": "https://tools.usps.com/UspsToolsRestServices/rest/POLocator/findLocations", "@spider": "usps_collection_boxes", "addr:city": "HOLBROOK", "addr:country": "US", "addr:postcode": "86025", "addr:state": "AZ", "addr:street_address": "1501 NAVAJO BLVD", "amenity": "post_box", "collection_times": "Mo-Sa 09:45", "nsi_id": "unitedstatespostalservice-a77078", "operator": "United States Postal Service", "operator:short": "USPS", "operator:type": "public", "operator:wikidata": "Q668687", "ref": "8602500006"}, "type": "Feature"}
{"geometry": {"coordinates": [-110.158058, 34.905974], "type": "Point"}, "id": "NHXg680BlI_HQoso9IYHrqAGrhA=", "properties": {"@source_uri": "https://tools.usps.com/UspsToolsRestServices/rest/POLocator/findLocations", "@spider": "usps_collection_boxes", "addr:city": "HOLBROOK", "addr:country": "US", "addr:postcode": "86025", "addr:state": "AZ", "addr:street_address": "100 W ERIE ST", "amenity": "post_box", "collection_times": "Mo-Sa 14:15", "indoor": "yes", "note": "ON 12/24 AND 12/31, THIS BOX MAY BE COLLECTED AS EARLY AS 12 NOON.", "nsi_id": "unitedstatespostalservice-a77078", "operator": "United States Postal Service", "operator:short": "USPS", "operator:type": "public", "operator:wikidata": "Q668687", "ref": "8602500010"}, "type": "Feature"}
{"geometry": {"coordinates": [-110.1593343353, 34.9059764788], "type": "Point"}, "id": "U1q5T960Xf2hBUWX1UsEE-yY6cw=", "properties": {"@source_uri": "https://tools.usps.com/UspsToolsRestServices/rest/POLocator/findLocations", "@spider": "usps_collection_boxes", "addr:city": "HOLBROOK", "addr:country": "US", "addr:postcode": "86025", "addr:state": "AZ", "addr:street_address": "100 W ERIE ST", "amenity": "post_box", "collection_times": "Mo-Sa 14:15", "indoor": "yes", "note": "ON 12/24 AND 12/31, THIS BOX MAY BE COLLECTED AS EARLY AS 12 NOON.", "nsi_id": "unitedstatespostalservice-a77078", "operator": "United States Postal Service", "operator:short": "USPS", "operator:type": "public", "operator:wikidata": "Q668687", "ref": "8602500012"}, "type": "Feature"}
{"geometry": {"coordinates": [-110.235244, 36.74001], "type": "Point"}, "id": "daZw7M2uxHBFgv4PHCBdE_pq2QY=", "properties": {"@source_uri": "https://tools.usps.com/UspsToolsRestServices/rest/POLocator/findLocations", "@spider": "usps_collection_boxes", "addr:city": "HOTEVILLA", "addr:country": "US", "addr:postcode": "86030", "addr:state": "AZ", "addr:street_address": "3 MAIN ST", "amenity": "post_box", "collection_times": "Mo-Sa 11:00", "nsi_id": "unitedstatespostalservice-a77078", "operator": "United States Postal Service", "operator:short": "USPS", "operator:type": "public", "operator:wikidata": "Q668687", "ref": "8603000001"}, "type": "Feature"}
{"geometry": {"coordinates": [-110.235244, 36.74001], "type": "Point"}, "id": "Kx0YX_vnGw0J-9VriVg_vOFblKk=", "properties": {"@source_uri": "https://tools.usps.com/UspsToolsRestServices/rest/POLocator/findLocations", "@spider": "usps_collection_boxes", "addr:city": "HOTEVILLA", "addr:country": "US", "addr:postcode": "86030", "addr:state": "AZ", "addr:street_address": "3 MAIN ST", "amenity": "post_box", "collection_times": "Mo-Sa 11:00", "indoor": "yes", "nsi_id": "unitedstatespostalservice-a77078", "operator": "United States Postal Service", "operator:short": "USPS", "operator:type": "public", "operator:wikidata": "Q668687", "ref": "8603000002"}, "type": "Feature"}
{"geometry": {"coordinates": [-110.656692826, 36.168165473], "type": "Point"}, "id": "uavIipO8YpbDNgEe11zPtkyRVA4=", "properties": {"@source_uri": "https://tools.usps.com/UspsToolsRestServices/rest/POLocator/findLocations", "@spider": "usps_collection_boxes", "addr:city": "HOTEVILLA", "addr:country": "US", "addr:postcode": "86030", "addr:state": "AZ", "addr:street_address": "3 MAIN ST", "amenity": "post_box", "collection_times": "Mo-Fr 11:00", "indoor": "yes", "nsi_id": "unitedstatespostalservice-a77078", "operator": "United States Postal Service", "operator:short": "USPS", "operator:type": "public", "operator:wikidata": "Q668687", "ref": "8603000003"}, "type": "Feature"}
{"geometry": {"coordinates": [-110.325368, 34.955989], "type": "Point"}, "id": "qkgPLZIJ_fosim0yT34VtiPcTK8=", "properties": {"@source_uri": "https://tools.usps.com/UspsToolsRestServices/rest/POLocator/findLocations", "@spider": "usps_collection_boxes", "addr:city": "JOSEPH CITY", "addr:country": "US", "addr:postcode": "86032", "addr:state": "AZ", "addr:street_address": "4592 W MAIN ST", "amenity": "post_box", "collection_times": "Mo-Fr 14:45; Sa 09:30", "note": "ON 12/24 AND 12/31, THIS BOX MAY BE COLLECTED AS EARLY AS 12 NOON.", "nsi_id": "unitedstatespostalservice-a77078", "operator": "United States Postal Service", "operator:short": "USPS", "operator:type": "public", "operator:wikidata": "Q668687", "ref": "8603200001"}, "type": "Feature"}
{"geometry": {"coordinates": [-110.325313, 34.955962], "type": "Point"}, "id": "krpIMbZ9czhUqdyfqdrE6qek8mI=", "properties": {"@source_uri": "https://tools.usps.com/UspsToolsRestServices/rest/POLocator/findLocations", "@spider": "usps_collection_boxes", "addr:city": "JOSEPH CITY", "addr:country": "US", "addr:postcode": "86032", "addr:state": "AZ", "addr:street_address": "4592 W MAIN ST", "amenity": "post_box", "collection_times": "Mo-Fr 14:45; Sa 09:30", "indoor": "yes", "note": "ON 12/24 AND 12/31, THIS BOX MAY BE COLLECTED AS EARLY AS 12 NOON.", "nsi_id": "unitedstatespostalservice-a77078", "operator": "United States Postal Service", "operator:short": "USPS", "operator:type": "public", "operator:wikidata": "Q668687", "ref": "8603200002"}, "type": "Feature"}
{"geometry": {"coordinates": [-110.325393, 34.955987508], "type": "Point"}, "id": "trA9fGAGkoimcWDPNI-g9RJ-Kts=", "properties": {"@source_uri": "https://tools.usps.com/UspsToolsRestServices/rest/POLocator/findLocations", "@spider": "usps_collection_boxes", "addr:city": "JOSEPH CITY", "addr:country": "US", "addr:postcode": "86032", "addr:state": "AZ", "addr:street_address": "4592 W MAIN ST", "amenity": "post_box", "collection_times": "Mo-Fr 14:45", "indoor": "yes", "note": "ON 12/24 AND 12/31, THIS BOX MAY BE COLLECTED AS EARLY AS 12 NOON.", "nsi_id": "unitedstatespostalservice-a77078", "operator": "United States Postal Service", "operator:short": "USPS", "operator:type": "public", "operator:wikidata": "Q668687", "ref": "8603200003"}, "type": "Feature"}
{"geometry": {"coordinates": [-110.249070328, 36.710739601], "type": "Point"}, "id": "vNhS09Ykeb3eOF9VnFM_OXeTPpc=", "properties": {"@source_uri": "https://tools.usps.com/UspsToolsRestServices/rest/POLocator/findLocations", "@spider": "usps_collection_boxes", "addr:city": "KAYENTA", "addr:country": "US", "addr:postcode": "86033", "addr:state": "AZ", "addr:street_address": "391 HIGHWAY 163", "amenity": "post_box", "collection_times": "Mo-Sa 12:00", "nsi_id": "unitedstatespostalservice-a77078", "operator": "United States Postal Service", "operator:short": "USPS", "operator:type": "public", "operator:wikidata": "Q668687", "ref": "8603300001"}, "type": "Feature"}
{"geometry": {"coordinates": [-110.249070328, 36.710739601], "type": "Point"}, "id": "OX-nd2dZ6TGA1ar46swYxwgMBy0=", "properties": {"@source_uri": "https://tools.usps.com/UspsToolsRestServices/rest/POLocator/findLocations", "@spider": "usps_collection_boxes", "addr:city": "KAYENTA", "addr:country": "US", "addr:postcode": "86033", "addr:state": "AZ", "addr:street_address": "391 HIGHWAY 163", "amenity": "post_box", "collection_times": "Mo-Sa 12:00", "indoor": "yes", "nsi_id": "unitedstatespostalservice-a77078", "operator": "United States Postal Service", "operator:short": "USPS", "operator:type": "public", "operator:wikidata": "Q668687", "ref": "8603300002"}, "type": "Feature"}
{"geometry": {"coordinates": [-110.249070328, 36.710739601], "type": "Point"}, "id": "Rakk_y1z1-ys5CEjQCDWmJI2yRM=", "properties": {"@source_uri": "https://tools.usps.com/UspsToolsRestServices/rest/POLocator/findLocations", "@spider": "usps_collection_boxes", "addr:city": "KAYENTA", "addr:country": "US", "addr:postcode": "86033", "addr:state": "AZ", "addr:street_address": "391 HIGHWAY 163", "amenity": "post_box", "collection_times": "Mo-Sa 12:00", "indoor": "yes", "nsi_id": "unitedstatespostalservice-a77078", "operator": "United States Postal Service", "operator:short": "USPS", "operator:type": "public", "operator:wikidata": "Q668687", "ref": "8603300003"}, "type": "Feature"}
{"geometry": {"coordinates": [-110.41693, 35.80775], "type": "Point"}, "id": "uY2STH6lrX2G5gDOvtYpbbitHLU=", "properties": {"@source_uri": "https://tools.usps.com/UspsToolsRestServices/rest/POLocator/findLocations", "@spider": "usps_collection_boxes", "addr:city": "KEAMS CANYON", "addr:country": "US", "addr:postcode": "86034", "addr:state": "AZ", "addr:street_address": "403 STATE ROUTE 264", "amenity": "post_box", "collection_times": "Mo-Fr 12:00; Sa 09:30", "nsi_id": "unitedstatespostalservice-a77078", "operator": "United States Postal Service", "operator:short": "USPS", "operator:type": "public", "operator:wikidata": "Q668687", "ref": "8603400001"}, "type": "Feature"}
{"geometry": {"coordinates": [-110.41693, 35.80775], "type": "Point"}, "id": "ZroQlwks9AYH5tFGVg__v3YifZQ=", "properties": {"@source_uri": "https://tools.usps.com/UspsToolsRestServices/rest/POLocator/findLocations", "@spider": "usps_collection_boxes", "addr:city": "KEAMS CANYON", "addr:country": "US", "addr:postcode": "86034", "addr:state": "AZ", "addr:street_address": "403 STATE ROUTE 264", "amenity": "post_box", "collection_times": "Mo-Fr 12:00; Sa 09:30", "indoor": "yes", "nsi_id": "unitedstatespostalservice-a77078", "operator": "United States Postal Service", "operator:short": "USPS", "operator:type": "public", "operator:wikidata": "Q668687", "ref": "8603400002"}, "type": "Feature"}
{"geometry": {"coordinates": [-110.416573828, 35.807891685], "type": "Point"}, "id": "QFgJfyqh-jQEQ286Baag_rdC1IQ=", "properties": {"@source_uri": "https://tools.usps.com/UspsToolsRestServices/rest/POLocator/findLocations", "@spider": "usps_collection_boxes", "addr:city": "KEAMS CANYON", "addr:country": "US", "addr:postcode": "86034", "addr:state": "AZ", "addr:street_address": "403 STATE ROUTE 264", "amenity": "post_box", "collection_times": "Mo-Fr 12:00", "indoor": "yes", "nsi_id": "unitedstatespostalservice-a77078", "operator": "United States Postal Service", "operator:short": "USPS", "operator:type": "public", "operator:wikidata": "Q668687", "ref": "8603400003"}, "type": "Feature"}
{"geometry": {"coordinates": [-111.912315, 36.752312922], "type": "Point"}, "id": "ppoQldfAIrhSLFu9hpntiAKKTK8=", "properties": {"@source_uri": "https://tools.usps.com/UspsToolsRestServices/rest/POLocator/findLocations", "@spider": "usps_collection_boxes", "addr:city": "MARBLE CANYON", "addr:country": "US", "addr:postcode": "86036", "addr:state": "AZ", "addr:street_address": "540 HIGHWAY 89A", "amenity": "post_box", "collection_times": "Mo-Sa 10:30", "nsi_id": "unitedstatespostalservice-a77078", "operator": "United States Postal Service", "operator:short": "USPS", "operator:type": "public", "operator:wikidata": "Q668687", "ref": "8603600001"}, "type": "Feature"}
{"geometry": {"coordinates": [-111.912315, 36.752312922], "type": "Point"}, "id": "IZRMauA2kERcZPF1iQ-GEPpVmVs=", "properties": {"@source_uri": "https://tools.usps.com/UspsToolsRestServices/rest/POLocator/findLocations", "@spider": "usps_collection_boxes", "addr:city": "MARBLE CANYON", "addr:country": "US", "addr:postcode": "86036", "addr:state": "AZ", "addr:street_address": "540 HIGHWAY 89A", "amenity": "post_box", "collection_times": "Mo-Sa 10:30", "indoor": "yes", "nsi_id": "unitedstatespostalservice-a77078", "operator": "United States Postal Service", "operator:short": "USPS", "operator:type": "public", "operator:wikidata": "Q668687", "ref": "8603600002"}, "type": "Feature"}
{"geometry": {"coordinates": [-110.1942, 35.813282], "type": "Point"}, "id": "OswYOv07u4MDaHuMdhrhIeW1Umw=", "properties": {"@source_uri": "https://tools.usps.com/UspsToolsRestServices/rest/POLocator/findLocations", "@spider": "usps_collection_boxes", "addr:city": "KYKOTSMOVI VILL", "addr:country": "US", "addr:postcode": "86039", "addr:state": "AZ", "addr:street_address": "113 MAIN ST", "amenity": "post_box", "collection_times": "Mo-Sa 11:30", "nsi_id": "unitedstatespostalservice-a77078", "operator": "United States Postal Service", "operator:short": "USPS", "operator:type": "public", "operator:wikidata": "Q668687", "ref": "8603900001"}, "type": "Feature"}
{"geometry": {"coordinates": [-110.1942, 35.813282], "type": "Point"}, "id": "d7ZSJv41jYdX9mlFzsisOaQvwO4=", "properties": {"@source_uri": "https://tools.usps.com/UspsToolsRestServices/rest/POLocator/findLocations", "@spider": "usps_collection_boxes", "addr:city": "KYKOTSMOVI VILL", "addr:country": "US", "addr:postcode": "86039", "addr:state": "AZ", "addr:street_address": "113 MAIN ST", "amenity": "post_box", "collection_times": "Mo-Sa 11:30", "indoor": "yes", "nsi_id": "unitedstatespostalservice-a77078", "operator": "United States Postal Service", "operator:short": "USPS", "operator:type": "public", "operator:wikidata": "Q668687", "ref": "8603900002"}, "type": "Feature"}
{"geometry": {"coordinates": [-110.574676062, 34.627669428], "type": "Point"}, "id": "_yrYzxRJf-77rFLhomjPJanp2Gg=", "properties": {"@source_uri": "https://tools.usps.com/UspsToolsRestServices/rest/POLocator/findLocations", "@spider": "usps_collection_boxes", "addr:city": "KYKOTSMOVI VILL", "addr:country": "US", "addr:postcode": "86039", "addr:state": "AZ", "addr:street_address": "113 MAIN ST", "amenity": "post_box", "collection_times": "Mo-Fr 11:30", "indoor": "yes", "nsi_id": "unitedstatespostalservice-a77078", "operator": "United States Postal Service", "operator:short": "USPS", "operator:type": "public", "operator:wikidata": "Q668687", "ref": "8603900003"}, "type": "Feature"}
{"geometry": {"coordinates": [-111.461383, 36.916567], "type": "Point"}, "id": "OWqlU_M9baKC13dsdct_lSFS5As=", "properties": {"@source_uri": "https://tools.usps.com/UspsToolsRestServices/rest/POLocator/findLocations", "@spider": "usps_collection_boxes", "addr:city": "PAGE", "addr:country": "US", "addr:postcode": "86040", "addr:state": "AZ", "addr:street_address": "44 6TH AVE", "amenity": "post_box", "collection_times": "Mo-Sa 15:30", "note": "ON 12/24 AND 12/31, THIS BOX MAY BE COLLECTED AS EARLY AS 12 NOON.", "nsi_id": "unitedstatespostalservice-a77078", "operator": "United States Postal Service", "operator:short": "USPS", "operator:type": "public", "operator:wikidata": "Q668687", "ref": "8604000005"}, "type": "Feature"}
{"geometry": {"coordinates": [-111.461367, 36.916593], "type": "Point"}, "id": "8o-ys_dZA20gyLVjDv0Is7Gs9CQ=", "properties": {"@source_uri": "https://tools.usps.com/UspsToolsRestServices/rest/POLocator/findLocations", "@spider": "usps_collection_boxes", "addr:city": "PAGE", "addr:country": "US", "addr:postcode": "86040", "addr:state": "AZ", "addr:street_address": "44 6TH AVE", "amenity": "post_box", "collection_times": "Mo-Sa 15:30", "note": "ON 12/24 AND 12/31, THIS BOX MAY BE COLLECTED AS EARLY AS 12 NOON.", "nsi_id": "unitedstatespostalservice-a77078", "operator": "United States Postal Service", "operator:short": "USPS", "operator:type": "public", "operator:wikidata": "Q668687", "ref": "8604000006"}, "type": "Feature"}
{"geometry": {"coordinates": [-111.461367, 36.916593], "type": "Point"}, "id": "5kgdY6ZcXkmtBWn8-UZKYmDD1Go=", "properties": {"@source_uri": "https://tools.usps.com/UspsToolsRestServices/rest/POLocator/findLocations", "@spider": "usps_collection_boxes", "addr:city": "PAGE", "addr:country": "US", "addr:postcode": "86040", "addr:state": "AZ", "addr:street_address": "44 6TH AVE", "amenity": "post_box", "collection_times": "Mo-Sa 15:30", "indoor": "yes", "note": "ON 12/24 AND 12/31, THIS BOX MAY BE COLLECTED AS EARLY AS 12 NOON.", "nsi_id": "unitedstatespostalservice-a77078", "operator": "United States Postal Service", "operator:short": "USPS", "operator:type": "public", "operator:wikidata": "Q668687", "ref": "8604000009"}, "type": "Feature"}
{"geometry": {"coordinates": [-111.4610023431, 36.916210824], "type": "Point"}, "id": "jxYIUdojjpmD_-lO8GHxDL6GuaM=", "properties": {"@source_uri": "https://tools.usps.com/UspsToolsRestServices/rest/POLocator/findLocations", "@spider": "usps_collection_boxes", "addr:city": "PAGE", "addr:country": "US", "addr:postcode": "86040", "addr:state": "AZ", "addr:street_address": "44 6TH AVE", "amenity": "post_box", "collection_times": "Mo-Fr 15:30", "indoor": "yes", "note": "ON 12/24 AND 12/31, THIS BOX MAY BE COLLECTED AS EARLY AS 12 NOON.", "nsi_id": "unitedstatespostalservice-a77078", "operator": "United States Postal Service", "operator:short": "USPS", "operator:type": "public", "operator:wikidata": "Q668687", "ref": "8604000013"}, "type": "Feature"}
{"geometry": {"coordinates": [-110.41693, 35.80775], "type": "Point"}, "id": "o0TUsAiMLPrxI5k6DaVcN5WK9zQ=", "properties": {"@source_uri": "https://tools.usps.com/UspsToolsRestServices/rest/POLocator/findLocations", "@spider": "usps_collection_boxes", "addr:city": "POLACCA", "addr:country": "US", "addr:postcode": "86042", "addr:state": "AZ", "addr:street_address": "392 STATE ROUTE 264", "amenity": "post_box", "collection_times": "Mo-Fr 12:00; Sa 10:00", "nsi_id": "unitedstatespostalservice-a77078", "operator": "United States Postal Service", "operator:short": "USPS", "operator:type": "public", "operator:wikidata": "Q668687", "ref": "8604200001"}, "type": "Feature"}
{"geometry": {"coordinates": [-110.41693, 35.80775], "type": "Point"}, "id": "6BNPiwSd9zHM6wcix7QNPe6M7t0=", "properties": {"@source_uri": "https://tools.usps.com/UspsToolsRestServices/rest/POLocator/findLocations", "@spider": "usps_collection_boxes", "addr:city": "POLACCA", "addr:country": "US", "addr:postcode": "86042", "addr:state": "AZ", "addr:street_address": "392 STATE ROUTE 264", "amenity": "post_box", "collection_times": "Mo-Fr 12:00; Sa 10:00", "indoor": "yes", "nsi_id": "unitedstatespostalservice-a77078", "operator": "United States Postal Service", "operator:short": "USPS", "operator:type": "public", "operator:wikidata": "Q668687", "ref": "8604200002"}, "type": "Feature"}
{"geometry": {"coordinates": [-110.417420984, 35.807510062], "type": "Point"}, "id": "glz6encpV060sMJ1GSpjGjbdQAE=", "properties": {"@source_uri": "https://tools.usps.com/UspsToolsRestServices/rest/POLocator/findLocations", "@spider": "usps_collection_boxes", "addr:city": "POLACCA", "addr:country": "US", "addr:postcode": "86042", "addr:state": "AZ", "addr:street_address": "392 STATE ROUTE 264", "amenity": "post_box", "collection_times": "Mo-Fr 12:00", "indoor": "yes", "nsi_id": "unitedstatespostalservice-a77078", "operator": "United States Postal Service", "operator:short": "USPS", "operator:type": "public", "operator:wikidata": "Q668687", "ref": "8604200003"}, "type": "Feature"}
{"geometry": {"coordinates": [-110.593137, 35.873184], "type": "Point"}, "id": "Z0I7JZibOgnPYI5jcK_Nf0gWQxE=", "properties": {"@source_uri": "https://tools.usps.com/UspsToolsRestServices/rest/POLocator/findLocations", "@spider": "usps_collection_boxes", "addr:city": "SECOND MESA", "addr:country": "US", "addr:postcode": "86043", "addr:state": "AZ", "addr:street_address": "383 HIGHWAY 264", "amenity": "post_box", "collection_times": "Mo-Fr 12:00; Sa 10:30", "nsi_id": "unitedstatespostalservice-a77078", "operator": "United States Postal Service", "operator:short": "USPS", "operator:type": "public", "operator:wikidata": "Q668687", "ref": "8604300001"}, "type": "Feature"}
{"geometry": {"coordinates": [-110.593137, 35.873184], "type": "Point"}, "id": "p5mdH8a_WQw1l3LV8hP1FTeXUeE=", "properties": {"@source_uri": "https://tools.usps.com/UspsToolsRestServices/rest/POLocator/findLocations", "@spider": "usps_collection_boxes", "addr:city": "SECOND MESA", "addr:country": "US", "addr:postcode": "86043", "addr:state": "AZ", "addr:street_address": "383 HIGHWAY 264", "amenity": "post_box", "collection_times": "Mo-Fr 12:00; Sa 10:30", "indoor": "yes", "nsi_id": "unitedstatespostalservice-a77078", "operator": "United States Postal Service", "operator:short": "USPS", "operator:type": "public", "operator:wikidata": "Q668687", "ref": "8604300002"}, "type": "Feature"}
{"geometry": {"coordinates": [-110.594916805, 35.873113389], "type": "Point"}, "id": "jZPNlkxmLJxSK19RrSUwuXKlkU4=", "properties": {"@source_uri": "https://tools.usps.com/UspsToolsRestServices/rest/POLocator/findLocations", "@spider": "usps_collection_boxes", "addr:city": "SECOND MESA", "addr:country": "US", "addr:postcode": "86043", "addr:state": "AZ", "addr:street_address": "383 HIGHWAY 264", "amenity": "post_box", "collection_times": "Mo-Fr 12:00", "indoor": "yes", "nsi_id": "unitedstatespostalservice-a77078", "operator": "United States Postal Service", "operator:short": "USPS", "operator:type": "public", "operator:wikidata": "Q668687", "ref": "8604300003"}, "type": "Feature"}
{"geometry": {"coordinates": [-111.018668, 36.261521], "type": "Point"}, "id": "gyZ4BgQPpPDSZz73GSHCamvi7dk=", "properties": {"@source_uri": "https://tools.usps.com/UspsToolsRestServices/rest/POLocator/findLocations", "@spider": "usps_collection_boxes", "addr:city": "TONALEA", "addr:country": "US", "addr:postcode": "86044", "addr:state": "AZ", "addr:street_address": "343 HIGHWAY 160", "amenity": "post_box", "collection_times": "Mo-Fr 13:15; Sa 11:00", "indoor": "yes", "note": "ON 12/24 AND 12/31, THIS BOX MAY BE COLLECTED AS EARLY AS 12 NOON.", "nsi_id": "unitedstatespostalservice-a77078", "operator": "United States Postal Service", "operator:short": "USPS", "operator:type": "public", "operator:wikidata": "Q668687", "ref": "8604400002"}, "type": "Feature"}
{"geometry": {"coordinates": [-110.899418971, 36.365155616], "type": "Point"}, "id": "canqQoBO54svP952ZqQ_GG2iNsI=", "properties": {"@source_uri": "https://tools.usps.com/UspsToolsRestServices/rest/POLocator/findLocations", "@spider": "usps_collection_boxes", "addr:city": "TONALEA", "addr:country": "US", "addr:postcode": "86044", "addr:state": "AZ", "addr:street_address": "343 HIGHWAY 160", "amenity": "post_box", "collection_times": "Mo-Fr 13:00; Sa 10:45", "indoor": "yes", "note": "ON 12/24 AND 12/31, THIS BOX MAY BE COLLECTED AS EARLY AS 12 NOON.", "nsi_id": "unitedstatespostalservice-a77078", "operator": "United States Postal Service", "operator:short": "USPS", "operator:type": "public", "operator:wikidata": "Q668687", "ref": "8604400003"}, "type": "Feature"}
{"geometry": {"coordinates": [-111.220706, 36.124293], "type": "Point"}, "id": "57RTTPp6L02iIiaX5_5b17CDSTo=", "properties": {"@source_uri": "https://tools.usps.com/UspsToolsRestServices/rest/POLocator/findLocations", "@spider": "usps_collection_boxes", "addr:city": "TUBA CITY", "addr:country": "US", "addr:postcode": "86045", "addr:state": "AZ", "addr:street_address": "1 WARRIOR DR", "amenity": "post_box", "collection_times": "Mo-Fr 14:00; Sa 11:00", "note": "ON 12/24 AND 12/31, THIS BOX MAY BE COLLECTED AS EARLY AS 12 NOON.", "nsi_id": "unitedstatespostalservice-a77078", "operator": "United States Postal Service", "operator:short": "USPS", "operator:type": "public", "operator:wikidata": "Q668687", "ref": "8604500001"}, "type": "Feature"}
{"geometry": {"coordinates": [-111.220688, 36.1242], "type": "Point"}, "id": "UMGT9R2XgVvN9vrhCEahtTxmk_M=", "properties": {"@source_uri": "https://tools.usps.com/UspsToolsRestServices/rest/POLocator/findLocations", "@spider": "usps_collection_boxes", "addr:city": "TUBA CITY", "addr:country": "US", "addr:postcode": "86045", "addr:state": "AZ", "addr:street_address": "1 WARRIOR DR", "amenity": "post_box", "collection_times": "Mo-Fr 14:00; Sa 11:00", "indoor": "yes", "note": "ON 12/24 AND 12/31, THIS BOX MAY BE COLLECTED AS EARLY AS 12 NOON.", "nsi_id": "unitedstatespostalservice-a77078", "operator": "United States Postal Service", "operator:short": "USPS", "operator:type": "public", "operator:wikidata": "Q668687", "ref": "8604500004"}, "type": "Feature"}
{"geometry": {"coordinates": [-111.220671296, 36.124283215], "type": "Point"}, "id": "vn8MDWwP3Cs_5IMeAjKPhrD2Ks0=", "properties": {"@source_uri": "https://tools.usps.com/UspsToolsRestServices/rest/POLocator/findLocations", "@spider": "usps_collection_boxes", "addr:city": "TUBA CITY", "addr:country": "US", "addr:postcode": "86045", "addr:state": "AZ", "addr:street_address": "1 WARRIOR DR", "amenity": "post_box", "collection_times": "Mo-Fr 14:00", "indoor": "yes", "note": "ON 12/24 AND 12/31, THIS BOX MAY BE COLLECTED AS EARLY AS 12 NOON.", "nsi_id": "unitedstatespostalservice-a77078", "operator": "United States Postal Service", "operator:short": "USPS", "operator:type": "public", "operator:wikidata": "Q668687", "ref": "8604500005"}, "type": "Feature"}
{"geometry": {"coordinates": [-112.186992, 35.250181], "type": "Point"}, "id": "K0kWeL50mj7-iT9L061YWtZEgcQ=", "properties": {"@source_uri": "https://tools.usps.com/UspsToolsRestServices/rest/POLocator/findLocations", "@spider": "usps_collection_boxes", "addr:city": "WILLIAMS", "addr:country": "US", "addr:postcode": "86046", "addr:state": "AZ", "addr:street_address": "120 S 1ST ST", "amenity": "post_box", "collection_times": "Mo-Fr 15:30; Sa 14:00", "note": "ON 12/24 AND 12/31, THIS BOX MAY BE COLLECTED AS EARLY AS 12 NOON.", "nsi_id": "unitedstatespostalservice-a77078", "operator": "United States Postal Service", "operator:short": "USPS", "operator:type": "public", "operator:wikidata": "Q668687", "ref": "8604600003"}, "type": "Feature"}
{"geometry": {"coordinates": [-112.190271, 35.250377], "type": "Point"}, "id": "G_fVgWH63X_UmXjAZKIoK-CGog0=", "properties": {"@source_uri": "https://tools.usps.com/UspsToolsRestServices/rest/POLocator/findLocations", "@spider": "usps_collection_boxes", "addr:city": "WILLIAMS", "addr:country": "US", "addr:postcode": "86046", "addr:state": "AZ", "addr:street_address": "325 W RAILROAD AVE", "amenity": "post_box", "collection_times": "Mo-Sa 09:45", "nsi_id": "unitedstatespostalservice-a77078", "operator": "United States Postal Service", "operator:short": "USPS", "operator:type": "public", "operator:wikidata": "Q668687", "ref": "8604600005"}, "type": "Feature"}
{"geometry": {"coordinates": [-112.187067, 35.250042], "type": "Point"}, "id": "kDqNbPZFidOqxGYaRQ7yvIq2ZJY=", "properties": {"@source_uri": "https://tools.usps.com/UspsToolsRestServices/rest/POLocator/findLocations", "@spider": "usps_collection_boxes", "addr:city": "WILLIAMS", "addr:country": "US", "addr:postcode": "86046", "addr:state": "AZ", "addr:street_address": "120 S 1ST ST", "amenity": "post_box", "collection_times": "Mo-Fr 15:30; Sa 14:00", "indoor": "yes", "note": "ON 12/24 AND 12/31, THIS BOX MAY BE COLLECTED AS EARLY AS 12 NOON.", "nsi_id": "unitedstatespostalservice-a77078", "operator": "United States Postal Service", "operator:short": "USPS", "operator:type": "public", "operator:wikidata": "Q668687", "ref": "8604600008"}, "type": "Feature"}
{"geometry": {"coordinates": [-110.699185, 35.03627], "type": "Point"}, "id": "N3H_gFQLwmC1Uye7KcUeV6iTSgw=", "properties": {"@source_uri": "https://tools.usps.com/UspsToolsRestServices/rest/POLocator/findLocations", "@spider": "usps_collection_boxes", "addr:city": "WINSLOW", "addr:country": "US", "addr:postcode": "86047", "addr:state": "AZ", "addr:street_address": "1601 N PARK DR", "amenity": "post_box", "collection_times": "Mo-Sa 11:00", "nsi_id": "unitedstatespostalservice-a77078", "operator": "United States Postal Service", "operator:short": "USPS", "operator:type": "public", "operator:wikidata": "Q668687", "ref": "8604700001"}, "type": "Feature"}
{"geometry": {"coordinates": [-110.713674, 35.03012], "type": "Point"}, "id": "IJCJ0CI2O27RlGIU4vO5GCIZmag=", "properties": {"@source_uri": "https://tools.usps.com/UspsToolsRestServices/rest/POLocator/findLocations", "@spider": "usps_collection_boxes", "addr:city": "WINSLOW", "addr:country": "US", "addr:postcode": "86047", "addr:state": "AZ", "addr:street_address": "1600 W THIRD ST", "amenity": "post_box", "collection_times": "Mo-Sa 13:30", "note": "ON 12/24 AND 12/31, THIS BOX MAY BE COLLECTED AS EARLY AS 12 NOON.", "nsi_id": "unitedstatespostalservice-a77078", "operator": "United States Postal Service", "operator:short": "USPS", "operator:type": "public", "operator:wikidata": "Q668687", "ref": "8604700002"}, "type": "Feature"}
{"geometry": {"coordinates": [-110.696866, 35.023187], "type": "Point"}, "id": "yvbMaEg75C4Pneev1xL-SdwRFUo=", "properties": {"@source_uri": "https://tools.usps.com/UspsToolsRestServices/rest/POLocator/findLocations", "@spider": "usps_collection_boxes", "addr:city": "WINSLOW", "addr:country": "US", "addr:postcode": "86047", "addr:state": "AZ", "addr:street_address": "223 N WILLIAMSON AVE", "amenity": "post_box", "collection_times": "Mo-Sa 15:20", "note": "ON 12/24 AND 12/31, THIS BOX MAY BE COLLECTED AS EARLY AS 12 NOON.", "nsi_id": "unitedstatespostalservice-a77078", "operator": "United States Postal Service", "operator:short": "USPS", "operator:type": "public", "operator:wikidata": "Q668687", "ref": "8604700009"}, "type": "Feature"}
{"geometry": {"coordinates": [-110.674271, 35.015624], "type": "Point"}, "id": "OLEiFa9z_B9KBqL5w-L6D8gQNew=", "properties": {"@source_uri": "https://tools.usps.com/UspsToolsRestServices/rest/POLocator/findLocations", "@spider": "usps_collection_boxes", "addr:city": "WINSLOW", "addr:country": "US", "addr:postcode": "86047", "addr:state": "AZ", "addr:street_address": "400 TRANSCON LN", "amenity": "post_box", "collection_times": "Mo-Sa 10:30", "nsi_id": "unitedstatespostalservice-a77078", "operator": "United States Postal Service", "operator:short": "USPS", "operator:type": "public", "operator:wikidata": "Q668687", "ref": "8604700016"}, "type": "Feature"}
{"geometry": {"coordinates": [-110.69686, 35.02313], "type": "Point"}, "id": "pCYNdkAVhPmQI4bv8wWZZZkYwNs=", "properties": {"@source_uri": "https://tools.usps.com/UspsToolsRestServices/rest/POLocator/findLocations", "@spider": "usps_collection_boxes", "addr:city": "WINSLOW", "addr:country": "US", "addr:postcode": "86047", "addr:state": "AZ", "addr:street_address": "223 N WILLIAMSON AVE", "amenity": "post_box", "collection_times": "Mo-Sa 15:20", "indoor": "yes", "note": "ON 12/24 AND 12/31, THIS BOX MAY BE COLLECTED AS EARLY AS 12 NOON.", "nsi_id": "unitedstatespostalservice-a77078", "operator": "United States Postal Service", "operator:short": "USPS", "operator:type": "public", "operator:wikidata": "Q668687", "ref": "8604700019"}, "type": "Feature"}
{"geometry": {"coordinates": [-110.6966103141, 35.0236493428], "type": "Point"}, "id": "NYJLktnlSkaCC9b2nuI4VV33Qgw=", "properties": {"@source_uri": "https://tools.usps.com/UspsToolsRestServices/rest/POLocator/findLocations", "@spider": "usps_collection_boxes", "addr:city": "WINSLOW", "addr:country": "US", "addr:postcode": "86047", "addr:state": "AZ", "addr:street_address": "223 N WILLIAMSON AVE", "amenity": "post_box", "collection_times": "Mo-Fr 15:30; Sa 13:30", "indoor": "yes", "note": "ON 12/24 AND 12/31, THIS BOX MAY BE COLLECTED AS EARLY AS 12 NOON.", "nsi_id": "unitedstatespostalservice-a77078", "operator": "United States Postal Service", "operator:short": "USPS", "operator:type": "public", "operator:wikidata": "Q668687", "ref": "8604700024"}, "type": "Feature"}
{"geometry": {"coordinates": [-110.593608689, 36.7871535092], "type": "Point"}, "id": "vHfWpPo49UlcHteoDotVRT02XlY=", "properties": {"@source_uri": "https://tools.usps.com/UspsToolsRestServices/rest/POLocator/findLocations", "@spider": "usps_collection_boxes", "addr:city": "SHONTO", "addr:country": "US", "addr:postcode": "86054", "addr:state": "AZ", "addr:street_address": "293 STATE ROUTE 221", "amenity": "post_box", "collection_times": "Mo-Sa 09:30", "nsi_id": "unitedstatespostalservice-a77078", "operator": "United States Postal Service", "operator:short": "USPS", "operator:type": "public", "operator:wikidata": "Q668687", "ref": "8605400001"}, "type": "Feature"}
