{"dataset_attributes": {"@spider": "usps_collection_boxes", "spider:collection_time": "2023-11-10T08:24:40.300687"}, "geometry": {"coordinates": [-112.477661, 34.547952], "type": "Point"}, "id": "VNnvh7lvZ3eQ6KtrmulIS8CNcwI=", "properties": {"@spider": "usps_collection_boxes", "addr:city": "PRESCOTT", "addr:country": "US", "addr:full": "442 MILLER VALLEY RD", "addr:postcode": "86301", "addr:state": "AZ", "amenity": "post_box", "brand": "United States Postal Service", "brand:wikidata": "Q668687", "collection_times": "Mo-Fr 17:15; Sa 16:00", "name": "USPS COLLECTION BOX - EXPRESS", "note": "ON 12/24 AND 12/31, THIS BOX MAY BE COLLECTED AS EARLY AS 12 NOON.", "nsi_id": "unitedstatespostalservice-a77078", "operator": "United States Postal Service", "operator:short": "USPS", "operator:type": "public", "operator:wikidata": "Q668687", "ref": "8630100005"}, "type": "Feature"}
{"dataset_attributes": {"@spider": "usps_collection_boxes", "spider:collection_time": "2023-11-10T08:24:40.300687"}, "geometry": {"coordinates": [-112.450562, 34.616565], "type": "Point"}, "id": "gN9-pUHtWXVmkH6xZAw9ulyUPm0=", "properties": {"@spider": "usps_collection_boxes", "addr:city": "PRESCOTT", "addr:country": "US", "addr:full": "3700 WILLOW CREEK RD", "addr:postcode": "86301", "addr:state": "AZ", "amenity": "post_box", "brand": "United States Postal Service", "brand:wikidata": "Q668687", "collection_times": "Mo-Fr 14:00", "name": "USPS COLLECTION BOX - BLUE BOX", "note": "ON 12/24 AND 12/31, THIS BOX MAY BE COLLECTED AS EARLY AS 12 NOON.", "nsi_id": "unitedstatespostalservice-a77078", "operator": "United States Postal Service", "operator:short": "USPS", "operator:type": "public", "operator:wikidata": "Q668687", "ref": "8630100013"}, "type": "Feature"}
{"dataset_attributes": {"@spider": "usps_collection_boxes", "spider:collection_time": "2023-11-10T08:24:40.300687"}, "geometry": {"coordinates": [-112.467172, 34.54202], "type": "Point"}, "id": "ev1HTeXosV14VwiUzS0ve5WQOaI=", "properties": {"@spider": "usps_collection_boxes", "addr:city": "PRESCOTT", "addr:country": "US", "addr:full": "200 E GURLEY ST", "addr:postcode": "86301", "addr:state": "AZ", "amenity": "post_box", "brand": "United States Postal Service", "brand:wikidata": "Q668687", "collection_times": "Mo-Sa 08:30", "name": "USPS COLLECTION BOX - BLUE BOX", "nsi_id": "unitedstatespostalservice-a77078", "operator": "United States Postal Service", "operator:short": "USPS", "operator:type": "public", "operator:wikidata": "Q668687", "ref": "8630100018"}, "type": "Feature"}
{"dataset_attributes": {"@spider": "usps_collection_boxes", "spider:collection_time": "2023-11-10T08:24:40.300687"}, "geometry": {"coordinates": [-112.470258, 34.542071], "type": "Point"}, "id": "zlH_5JTZLvrEITnjYEFp-2DHzLc=", "properties": {"@spider": "usps_collection_boxes", "addr:city": "PRESCOTT", "addr:country": "US", "addr:full": "102 N MONTEZUMA ST", "addr:postcode": "86301", "addr:state": "AZ", "amenity": "post_box", "brand": "United States Postal Service", "brand:wikidata": "Q668687", "collection_times": "Mo-Sa 12:00", "name": "USPS COLLECTION BOX - BLUE BOX", "nsi_id": "unitedstatespostalservice-a77078", "operator": "United States Postal Service", "operator:short": "USPS", "operator:type": "public", "operator:wikidata": "Q668687", "ref": "8630100020"}, "type": "Feature"}
{"dataset_attributes": {"@spider": "usps_collection_boxes", "spider:collection_time": "2023-11-10T08:24:40.300687"}, "geometry": {"coordinates": [-112.476552, 34.56229], "type": "Point"}, "id": "dbayPWFHsHEB7GCAn6br5UrlT0A=", "properties": {"@spider": "usps_collection_boxes", "addr:city": "PRESCOTT", "addr:country": "US", "addr:full": "1055 RUTH ST", "addr:postcode": "86301", "addr:state": "AZ", "amenity": "post_box", "brand": "United States Postal Service", "brand:wikidata": "Q668687", "collection_times": "Mo-Sa 11:00", "name": "USPS COLLECTION BOX - BLUE BOX", "nsi_id": "unitedstatespostalservice-a77078", "operator": "United States Postal Service", "operator:short": "USPS", "operator:type": "public", "operator:wikidata": "Q668687", "ref": "8630100022"}, "type": "Feature"}
{"dataset_attributes": {"@spider": "usps_collection_boxes", "spider:collection_time": "2023-11-10T08:24:40.300687"}, "geometry": {"coordinates": [-112.452482, 34.554742], "type": "Point"}, "id": "eAJqAovrZcjVST1nlCXxH9Am8UU=", "properties": {"@spider": "usps_collection_boxes", "addr:city": "PRESCOTT", "addr:country": "US", "addr:full": "500 N US HIGHWAY 89", "addr:postcode": "86301", "addr:state": "AZ", "amenity": "post_box", "brand": "United States Postal Service", "brand:wikidata": "Q668687", "collection_times": "Mo-Fr 13:00", "name": "USPS COLLECTION BOX - BLUE BOX", "note": "ON 12/24 AND 12/31, THIS BOX MAY BE COLLECTED AS EARLY AS 12 NOON.", "nsi_id": "unitedstatespostalservice-a77078", "operator": "United States Postal Service", "operator:short": "USPS", "operator:type": "public", "operator:wikidata": "Q668687", "ref": "8630100024"}, "type": "Feature"}
{"dataset_attributes": {"@spider": "usps_collection_boxes", "spider:collection_time": "2023-11-10T08:24:40.300687"}, "geometry": {"coordinates": [-112.432554857, 34.644011869], "type": "Point"}, "id": "F9t5XETRf_zqqDLLhsheOTzxbq8=", "properties": {"@spider": "usps_collection_boxes", "addr:city": "PRESCOTT", "addr:country": "US", "addr:full": "6004 N STATE ROUTE 89", "addr:postcode": "86301", "addr:state": "AZ", "amenity": "post_box", "brand": "United States Postal Service", "brand:wikidata": "Q668687", "collection_times": "Mo-Fr 12:00", "name": "USPS COLLECTION BOX - BLUE BOX", "nsi_id": "unitedstatespostalservice-a77078", "operator": "United States Postal Service", "operator:short": "USPS", "operator:type": "public", "operator:wikidata": "Q668687", "ref": "8630100029"}, "type": "Feature"}
{"dataset_attributes": {"@spider": "usps_collection_boxes", "spider:collection_time": "2023-11-10T08:24:40.300687"}, "geometry": {"coordinates": [-112.477586, 34.547933], "type": "Point"}, "id": "yRteX5q6qvjJm0lB_zWYS6yvYyQ=", "properties": {"@spider": "usps_collection_boxes", "addr:city": "PRESCOTT", "addr:country": "US", "addr:full": "442 MILLER VALLEY RD", "addr:postcode": "86301", "addr:state": "AZ", "amenity": "post_box", "brand": "United States Postal Service", "brand:wikidata": "Q668687", "collection_times": "Mo-Fr 17:15; Sa 16:00", "name": "USPS COLLECTION BOX - BLUE BOX", "note": "ON 12/24 AND 12/31, THIS BOX MAY BE COLLECTED AS EARLY AS 12 NOON.", "nsi_id": "unitedstatespostalservice-a77078", "operator": "United States Postal Service", "operator:short": "USPS", "operator:type": "public", "operator:wikidata": "Q668687", "ref": "8630100032"}, "type": "Feature"}
{"dataset_attributes": {"@spider": "usps_collection_boxes", "spider:collection_time": "2023-11-10T08:24:40.300687"}, "geometry": {"coordinates": [-112.468822, 34.542045], "type": "Point"}, "id": "MQ1hPIn8I2UlB2Btxse3FOJFNIU=", "properties": {"@spider": "usps_collection_boxes", "addr:city": "PRESCOTT", "addr:country": "US", "addr:full": "102 N CORTEZ ST", "addr:postcode": "86301", "addr:state": "AZ", "amenity": "post_box", "brand": "United States Postal Service", "brand:wikidata": "Q668687", "collection_times": "Mo-Sa 12:00", "name": "USPS COLLECTION BOX - BLUE BOX", "nsi_id": "unitedstatespostalservice-a77078", "operator": "United States Postal Service", "operator:short": "USPS", "operator:type": "public", "operator:wikidata": "Q668687", "ref": "8630100035"}, "type": "Feature"}
{"dataset_attributes": {"@spider": "usps_collection_boxes", "spider:collection_time": "2023-11-10T08:24:40.300687"}, "geometry": {"coordinates": [-112.437826, 34.547639], "type": "Point"}, "id": "v5H4Mgn7Q3jRtlOZi2reUylT-UE=", "properties": {"@spider": "usps_collection_boxes", "addr:city": "PRESCOTT", "addr:country": "US", "addr:full": "1761 E STATE ROUTE 69", "addr:postcode": "86301", "addr:state": "AZ", "amenity": "post_box", "brand": "United States Postal Service", "brand:wikidata": "Q668687", "collection_times": "Mo-Sa 10:00", "name": "USPS COLLECTION BOX - BLUE BOX", "nsi_id": "unitedstatespostalservice-a77078", "operator": "United States Postal Service", "operator:short": "USPS", "operator:type": "public", "operator:wikidata": "Q668687", "ref": "8630100038"}, "type": "Feature"}
{"dataset_attributes": {"@spider": "usps_collection_boxes", "spider:collection_time": "2023-11-10T08:24:40.300687"}, "geometry": {"coordinates": [-112.477586, 34.547933], "type": "Point"}, "id": "5_v4GYWRT1atbEk9dXkwOt3VSO0=", "properties": {"@spider": "usps_collection_boxes", "addr:city": "PRESCOTT", "addr:country": "US", "addr:full": "442 MILLER VALLEY RD", "addr:postcode": "86301", "addr:state": "AZ", "amenity": "post_box", "brand": "United States Postal Service", "brand:wikidata": "Q668687", "collection_times": "Mo-Fr 17:15; Sa 16:00", "name": "USPS COLLECTION BOX - PO LOBBY", "note": "ON 12/24 AND 12/31, THIS BOX MAY BE COLLECTED AS EARLY AS 12 NOON.", "nsi_id": "unitedstatespostalservice-a77078", "operator": "United States Postal Service", "operator:short": "USPS", "operator:type": "public", "operator:wikidata": "Q668687", "ref": "8630100040"}, "type": "Feature"}
{"dataset_attributes": {"@spider": "usps_collection_boxes", "spider:collection_time": "2023-11-10T08:24:40.300687"}, "geometry": {"coordinates": [-112.477586, 34.547933], "type": "Point"}, "id": "DjRThqDJQyLbTHD4rkHu4kb_uaQ=", "properties": {"@spider": "usps_collection_boxes", "addr:city": "PRESCOTT", "addr:country": "US", "addr:full": "442 MILLER VALLEY RD", "addr:postcode": "86301", "addr:state": "AZ", "amenity": "post_box", "brand": "United States Postal Service", "brand:wikidata": "Q668687", "collection_times": "Mo-Fr 17:15; Sa 16:00", "name": "USPS COLLECTION BOX - PO LOBBY", "note": "ON 12/24 AND 12/31, THIS BOX MAY BE COLLECTED AS EARLY AS 12 NOON.", "nsi_id": "unitedstatespostalservice-a77078", "operator": "United States Postal Service", "operator:short": "USPS", "operator:type": "public", "operator:wikidata": "Q668687", "ref": "8630100041"}, "type": "Feature"}
{"dataset_attributes": {"@spider": "usps_collection_boxes", "spider:collection_time": "2023-11-10T08:24:40.300687"}, "geometry": {"coordinates": [-112.480872, 34.558652], "type": "Point"}, "id": "xu0miQKR8BqiwJYfotIeZd9HrqM=", "properties": {"@spider": "usps_collection_boxes", "addr:city": "PRESCOTT", "addr:country": "US", "addr:full": "1003 WILLOW CREEK RD", "addr:postcode": "86301", "addr:state": "AZ", "amenity": "post_box", "brand": "United States Postal Service", "brand:wikidata": "Q668687", "collection_times": "Mo-Sa 10:00", "name": "USPS COLLECTION BOX - BLUE BOX", "nsi_id": "unitedstatespostalservice-a77078", "operator": "United States Postal Service", "operator:short": "USPS", "operator:type": "public", "operator:wikidata": "Q668687", "ref": "8630100043"}, "type": "Feature"}
{"dataset_attributes": {"@spider": "usps_collection_boxes", "spider:collection_time": "2023-11-10T08:24:40.300687"}, "geometry": {"coordinates": [-112.484062, 34.561704], "type": "Point"}, "id": "jm6MsBauBRGN1ZjWDVrP0KHj8vU=", "properties": {"@spider": "usps_collection_boxes", "addr:city": "PRESCOTT", "addr:country": "US", "addr:full": "1046 WILLOW CREEK RD", "addr:postcode": "86301", "addr:state": "AZ", "amenity": "post_box", "brand": "United States Postal Service", "brand:wikidata": "Q668687", "collection_times": "Mo-Sa 10:00", "name": "USPS COLLECTION BOX - BLUE BOX", "nsi_id": "unitedstatespostalservice-a77078", "operator": "United States Postal Service", "operator:short": "USPS", "operator:type": "public", "operator:wikidata": "Q668687", "ref": "8630100044"}, "type": "Feature"}
{"dataset_attributes": {"@spider": "usps_collection_boxes", "spider:collection_time": "2023-11-10T08:24:40.300687"}, "geometry": {"coordinates": [-112.426268, 34.592645], "type": "Point"}, "id": "D96gIaiIiJSt9l9Gtueddz0_sCw=", "properties": {"@spider": "usps_collection_boxes", "addr:city": "PRESCOTT", "addr:country": "US", "addr:full": "3122 N STATE ROUTE 89", "addr:postcode": "86301", "addr:state": "AZ", "amenity": "post_box", "brand": "United States Postal Service", "brand:wikidata": "Q668687", "collection_times": "Mo-Sa 11:00", "name": "USPS COLLECTION BOX - BLUE BOX", "nsi_id": "unitedstatespostalservice-a77078", "operator": "United States Postal Service", "operator:short": "USPS", "operator:type": "public", "operator:wikidata": "Q668687", "ref": "8630100045"}, "type": "Feature"}
{"dataset_attributes": {"@spider": "usps_collection_boxes", "spider:collection_time": "2023-11-10T08:24:40.300687"}, "geometry": {"coordinates": [-112.398242, 34.546954], "type": "Point"}, "id": "d0Bg8QWr_q7TYFzrk4-5SO6ZYJE=", "properties": {"@spider": "usps_collection_boxes", "addr:city": "PRESCOTT", "addr:country": "US", "addr:full": "3911 E STATE ROUTE 69", "addr:postcode": "86301", "addr:state": "AZ", "amenity": "post_box", "brand": "United States Postal Service", "brand:wikidata": "Q668687", "collection_times": "Mo-Sa 11:00", "name": "USPS COLLECTION BOX - BLUE BOX", "nsi_id": "unitedstatespostalservice-a77078", "operator": "United States Postal Service", "operator:short": "USPS", "operator:type": "public", "operator:wikidata": "Q668687", "ref": "8630100046"}, "type": "Feature"}
{"dataset_attributes": {"@spider": "usps_collection_boxes", "spider:collection_time": "2023-11-10T08:24:40.300687"}, "geometry": {"coordinates": [-112.468075, 34.546847], "type": "Point"}, "id": "DtkXEMpzralahSa4UiHY3xabMew=", "properties": {"@spider": "usps_collection_boxes", "addr:city": "PRESCOTT", "addr:country": "US", "addr:full": "174 E SHELDON ST", "addr:postcode": "86301", "addr:state": "AZ", "amenity": "post_box", "brand": "United States Postal Service", "brand:wikidata": "Q668687", "collection_times": "Mo-Sa 10:00", "name": "USPS COLLECTION BOX - BLUE BOX", "nsi_id": "unitedstatespostalservice-a77078", "operator": "United States Postal Service", "operator:short": "USPS", "operator:type": "public", "operator:wikidata": "Q668687", "ref": "8630100047"}, "type": "Feature"}
{"dataset_attributes": {"@spider": "usps_collection_boxes", "spider:collection_time": "2023-11-10T08:24:40.300687"}, "geometry": {"coordinates": [-112.477586, 34.547933], "type": "Point"}, "id": "sDdn7ITloL5GGcy13T-9pjaZtw4=", "properties": {"@spider": "usps_collection_boxes", "addr:city": "PRESCOTT", "addr:country": "US", "addr:full": "442 MILLER VALLEY RD", "addr:postcode": "86301", "addr:state": "AZ", "amenity": "post_box", "brand": "United States Postal Service", "brand:wikidata": "Q668687", "collection_times": "Mo-Fr 17:15; Sa 16:00", "name": "USPS COLLECTION BOX - APC", "note": "ON 12/24 AND 12/31, THIS BOX MAY BE COLLECTED AS EARLY AS 12 NOON.", "nsi_id": "unitedstatespostalservice-a77078", "operator": "United States Postal Service", "operator:short": "USPS", "operator:type": "public", "operator:wikidata": "Q668687", "ref": "8630100048"}, "type": "Feature"}
{"dataset_attributes": {"@spider": "usps_collection_boxes", "spider:collection_time": "2023-11-10T08:24:40.300687"}, "geometry": {"coordinates": [-112.40814, 34.554094], "type": "Point"}, "id": "fIDtjZq4Sjwq9BdEwJmumqYYiXU=", "properties": {"@spider": "usps_collection_boxes", "addr:city": "PRESCOTT", "addr:country": "US", "addr:full": "3050 E STATE ROUTE 69", "addr:postcode": "86301", "addr:state": "AZ", "amenity": "post_box", "brand": "United States Postal Service", "brand:wikidata": "Q668687", "collection_times": "Mo-Sa 11:00", "name": "USPS COLLECTION BOX - BLUE BOX", "nsi_id": "unitedstatespostalservice-a77078", "operator": "United States Postal Service", "operator:short": "USPS", "operator:type": "public", "operator:wikidata": "Q668687", "ref": "8630100050"}, "type": "Feature"}
{"dataset_attributes": {"@spider": "usps_collection_boxes", "spider:collection_time": "2023-11-10T08:24:40.300687"}, "geometry": {"coordinates": [-112.467658, 34.596046], "type": "Point"}, "id": "p_5-cmW2ckJAcfWiuEfiVSbnYe4=", "properties": {"@spider": "usps_collection_boxes", "addr:city": "PRESCOTT", "addr:country": "US", "addr:full": "3630 CROSSINGS DR", "addr:postcode": "86301", "addr:state": "AZ", "amenity": "post_box", "brand": "United States Postal Service", "brand:wikidata": "Q668687", "collection_times": "Mo-Sa 13:00", "name": "USPS COLLECTION BOX - BLUE BOX", "note": "ON 12/24 AND 12/31, THIS BOX MAY BE COLLECTED AS EARLY AS 12 NOON.", "nsi_id": "unitedstatespostalservice-a77078", "operator": "United States Postal Service", "operator:short": "USPS", "operator:type": "public", "operator:wikidata": "Q668687", "ref": "8630100051"}, "type": "Feature"}
{"dataset_attributes": {"@spider": "usps_collection_boxes", "spider:collection_time": "2023-11-10T08:24:40.300687"}, "geometry": {"coordinates": [-112.478090769, 34.548464013], "type": "Point"}, "id": "zHXQEHUxlMque1QkzNzhMMyaYlA=", "properties": {"@spider": "usps_collection_boxes", "addr:city": "PRESCOTT", "addr:country": "US", "addr:full": "442 MILLER VALLEY RD", "addr:postcode": "86301", "addr:state": "AZ", "amenity": "post_box", "brand": "United States Postal Service", "brand:wikidata": "Q668687", "collection_times": "Mo-Fr 17:15; Sa 16:00", "name": "USPS COLLECTION BOX - PO LOBBY", "note": "ON 12/24 AND 12/31, THIS BOX MAY BE COLLECTED AS EARLY AS 12 NOON.", "nsi_id": "unitedstatespostalservice-a77078", "operator": "United States Postal Service", "operator:short": "USPS", "operator:type": "public", "operator:wikidata": "Q668687", "ref": "8630100058"}, "type": "Feature"}
{"dataset_attributes": {"@spider": "usps_collection_boxes", "spider:collection_time": "2023-11-10T08:24:40.300687"}, "geometry": {"coordinates": [-112.4259089838, 34.5927811024], "type": "Point"}, "id": "lRPlyChtTREn5Ln9QDsbCQdfSkI=", "properties": {"@spider": "usps_collection_boxes", "addr:city": "PRESCOTT", "addr:country": "US", "addr:full": "3122 N STATE ROUTE 89", "addr:postcode": "86301", "addr:state": "AZ", "amenity": "post_box", "brand": "United States Postal Service", "brand:wikidata": "Q668687", "collection_times": "Mo-Sa 11:00", "name": "USPS COLLECTION BOX - PO LOBBY", "nsi_id": "unitedstatespostalservice-a77078", "operator": "United States Postal Service", "operator:short": "USPS", "operator:type": "public", "operator:wikidata": "Q668687", "ref": "8630100059"}, "type": "Feature"}
{"dataset_attributes": {"@spider": "usps_collection_boxes", "spider:collection_time": "2023-11-10T08:24:40.300687"}, "geometry": {"coordinates": [-112.469548, 34.539401], "type": "Point"}, "id": "GnkeZAsV0gM45GpF8__odhvWglc=", "properties": {"@spider": "usps_collection_boxes", "addr:city": "PRESCOTT", "addr:country": "US", "addr:full": "101 W GOODWIN ST", "addr:postcode": "86303", "addr:state": "AZ", "amenity": "post_box", "brand": "United States Postal Service", "brand:wikidata": "Q668687", "collection_times": "Mo-Fr 17:00; Sa 13:00", "name": "USPS COLLECTION BOX - BLUE BOX", "note": "ON 12/24 AND 12/31, THIS BOX MAY BE COLLECTED AS EARLY AS 12 NOON.", "nsi_id": "unitedstatespostalservice-a77078", "operator": "United States Postal Service", "operator:short": "USPS", "operator:type": "public", "operator:wikidata": "Q668687", "ref": "8630300001"}, "type": "Feature"}
{"dataset_attributes": {"@spider": "usps_collection_boxes", "spider:collection_time": "2023-11-10T08:24:40.300687"}, "geometry": {"coordinates": [-112.469565, 34.539401], "type": "Point"}, "id": "3S-rVSt9aFwHZd-kxSaIe9x42B4=", "properties": {"@spider": "usps_collection_boxes", "addr:city": "PRESCOTT", "addr:country": "US", "addr:full": "101 W GOODWIN ST", "addr:postcode": "86303", "addr:state": "AZ", "amenity": "post_box", "brand": "United States Postal Service", "brand:wikidata": "Q668687", "collection_times": "Mo-Fr 17:00; Sa 13:00", "name": "USPS COLLECTION BOX - BLUE BOX", "note": "ON 12/24 AND 12/31, THIS BOX MAY BE COLLECTED AS EARLY AS 12 NOON.", "nsi_id": "unitedstatespostalservice-a77078", "operator": "United States Postal Service", "operator:short": "USPS", "operator:type": "public", "operator:wikidata": "Q668687", "ref": "8630300002"}, "type": "Feature"}
{"dataset_attributes": {"@spider": "usps_collection_boxes", "spider:collection_time": "2023-11-10T08:24:40.300687"}, "geometry": {"coordinates": [-112.46956, 34.539401], "type": "Point"}, "id": "ineEqDClS0yj_BWlMTsyuO6ZGjw=", "properties": {"@spider": "usps_collection_boxes", "addr:city": "PRESCOTT", "addr:country": "US", "addr:full": "101 W GOODWIN ST", "addr:postcode": "86303", "addr:state": "AZ", "amenity": "post_box", "brand": "United States Postal Service", "brand:wikidata": "Q668687", "collection_times": "Mo-Fr 17:00; Sa 13:00", "name": "USPS COLLECTION BOX - BLUE BOX", "note": "ON 12/24 AND 12/31, THIS BOX MAY BE COLLECTED AS EARLY AS 12 NOON.", "nsi_id": "unitedstatespostalservice-a77078", "operator": "United States Postal Service", "operator:short": "USPS", "operator:type": "public", "operator:wikidata": "Q668687", "ref": "8630300003"}, "type": "Feature"}
{"dataset_attributes": {"@spider": "usps_collection_boxes", "spider:collection_time": "2023-11-10T08:24:40.300687"}, "geometry": {"coordinates": [-112.468985, 34.539847], "type": "Point"}, "id": "BdzARLZ1mrDa8Lj5Sm7ajmDNBpw=", "properties": {"@spider": "usps_collection_boxes", "addr:city": "PRESCOTT", "addr:country": "US", "addr:full": "101 W GOODWIN ST", "addr:postcode": "86303", "addr:state": "AZ", "amenity": "post_box", "brand": "United States Postal Service", "brand:wikidata": "Q668687", "collection_times": "Mo-Fr 17:00; Sa 13:00", "name": "USPS COLLECTION BOX - BLUE BOX", "note": "ON 12/24 AND 12/31, THIS BOX MAY BE COLLECTED AS EARLY AS 12 NOON.", "nsi_id": "unitedstatespostalservice-a77078", "operator": "United States Postal Service", "operator:short": "USPS", "operator:type": "public", "operator:wikidata": "Q668687", "ref": "8630300004"}, "type": "Feature"}
{"dataset_attributes": {"@spider": "usps_collection_boxes", "spider:collection_time": "2023-11-10T08:24:40.300687"}, "geometry": {"coordinates": [-112.469546, 34.539402], "type": "Point"}, "id": "RO2qHwngo3-8tm4R8BGpK2yNHPM=", "properties": {"@spider": "usps_collection_boxes", "addr:city": "PRESCOTT", "addr:country": "US", "addr:full": "101 W GOODWIN ST", "addr:postcode": "86303", "addr:state": "AZ", "amenity": "post_box", "brand": "United States Postal Service", "brand:wikidata": "Q668687", "collection_times": "Mo-Fr 17:00; Sa 13:00", "name": "USPS COLLECTION BOX - BLUE BOX", "note": "ON 12/24 AND 12/31, THIS BOX MAY BE COLLECTED AS EARLY AS 12 NOON.", "nsi_id": "unitedstatespostalservice-a77078", "operator": "United States Postal Service", "operator:short": "USPS", "operator:type": "public", "operator:wikidata": "Q668687", "ref": "8630300005"}, "type": "Feature"}
{"dataset_attributes": {"@spider": "usps_collection_boxes", "spider:collection_time": "2023-11-10T08:24:40.300687"}, "geometry": {"coordinates": [-112.463447, 34.537922], "type": "Point"}, "id": "d68Hv_3TE1YiXPECXI8IUVbBITY=", "properties": {"@spider": "usps_collection_boxes", "addr:city": "PRESCOTT", "addr:country": "US", "addr:full": "302 S MOUNT VERNON AVE", "addr:postcode": "86303", "addr:state": "AZ", "amenity": "post_box", "brand": "United States Postal Service", "brand:wikidata": "Q668687", "collection_times": "Mo-Sa 09:00", "name": "USPS COLLECTION BOX - BLUE BOX", "nsi_id": "unitedstatespostalservice-a77078", "operator": "United States Postal Service", "operator:short": "USPS", "operator:type": "public", "operator:wikidata": "Q668687", "ref": "8630300008"}, "type": "Feature"}
{"dataset_attributes": {"@spider": "usps_collection_boxes", "spider:collection_time": "2023-11-10T08:24:40.300687"}, "geometry": {"coordinates": [-112.473029, 34.540158], "type": "Point"}, "id": "I1lO8MlUduWAinr8f5ZnF8mrE2A=", "properties": {"@spider": "usps_collection_boxes", "addr:city": "PRESCOTT", "addr:country": "US", "addr:full": "406 W GOODWIN ST", "addr:postcode": "86303", "addr:state": "AZ", "amenity": "post_box", "brand": "United States Postal Service", "brand:wikidata": "Q668687", "collection_times": "Mo-Sa 08:00", "name": "USPS COLLECTION BOX - BLUE BOX", "nsi_id": "unitedstatespostalservice-a77078", "operator": "United States Postal Service", "operator:short": "USPS", "operator:type": "public", "operator:wikidata": "Q668687", "ref": "8630300009"}, "type": "Feature"}
{"dataset_attributes": {"@spider": "usps_collection_boxes", "spider:collection_time": "2023-11-10T08:24:40.300687"}, "geometry": {"coordinates": [-112.469094, 34.539842], "type": "Point"}, "id": "FBU7gxiytjLm-WKzQXc-pwuMqMs=", "properties": {"@spider": "usps_collection_boxes", "addr:city": "PRESCOTT", "addr:country": "US", "addr:full": "101 W GOODWIN ST", "addr:postcode": "86303", "addr:state": "AZ", "amenity": "post_box", "brand": "United States Postal Service", "brand:wikidata": "Q668687", "collection_times": "Mo-Fr 17:00; Sa 13:00", "name": "USPS COLLECTION BOX - PO LOBBY", "note": "ON 12/24 AND 12/31, THIS BOX MAY BE COLLECTED AS EARLY AS 12 NOON.", "nsi_id": "unitedstatespostalservice-a77078", "operator": "United States Postal Service", "operator:short": "USPS", "operator:type": "public", "operator:wikidata": "Q668687", "ref": "8630300013"}, "type": "Feature"}
{"dataset_attributes": {"@spider": "usps_collection_boxes", "spider:collection_time": "2023-11-10T08:24:40.300687"}, "geometry": {"coordinates": [-112.474879, 34.530423], "type": "Point"}, "id": "E-DSqsOHHlYtEwdPl6zYWzXJiLI=", "properties": {"@spider": "usps_collection_boxes", "addr:city": "PRESCOTT", "addr:country": "US", "addr:full": "425 WHITE SPAR RD", "addr:postcode": "86303", "addr:state": "AZ", "amenity": "post_box", "brand": "United States Postal Service", "brand:wikidata": "Q668687", "collection_times": "Mo-Sa 10:00", "name": "USPS COLLECTION BOX - BLUE BOX", "nsi_id": "unitedstatespostalservice-a77078", "operator": "United States Postal Service", "operator:short": "USPS", "operator:type": "public", "operator:wikidata": "Q668687", "ref": "8630300016"}, "type": "Feature"}
{"dataset_attributes": {"@spider": "usps_collection_boxes", "spider:collection_time": "2023-11-10T08:24:40.300687"}, "geometry": {"coordinates": [-112.494398, 34.540835], "type": "Point"}, "id": "bj9CMA8DJuHDc8rnfk-oMn73Peo=", "properties": {"@spider": "usps_collection_boxes", "addr:city": "PRESCOTT", "addr:country": "US", "addr:full": "1570 PLAZA WEST DR", "addr:postcode": "86303", "addr:state": "AZ", "amenity": "post_box", "brand": "United States Postal Service", "brand:wikidata": "Q668687", "collection_times": "Mo-Sa 12:00", "name": "USPS COLLECTION BOX - BLUE BOX", "nsi_id": "unitedstatespostalservice-a77078", "operator": "United States Postal Service", "operator:short": "USPS", "operator:type": "public", "operator:wikidata": "Q668687", "ref": "8630300018"}, "type": "Feature"}
{"dataset_attributes": {"@spider": "usps_collection_boxes", "spider:collection_time": "2023-11-10T08:24:40.300687"}, "geometry": {"coordinates": [-112.409143, 34.546765], "type": "Point"}, "id": "1AFQfUTgbLvnhBLwXaG2P25aHN0=", "properties": {"@spider": "usps_collection_boxes", "addr:city": "PRESCOTT", "addr:country": "US", "addr:full": "3250 GATEWAY BLVD", "addr:postcode": "86303", "addr:state": "AZ", "amenity": "post_box", "brand": "United States Postal Service", "brand:wikidata": "Q668687", "collection_times": "Mo-Sa 10:00", "name": "USPS COLLECTION BOX - BLUE BOX", "nsi_id": "unitedstatespostalservice-a77078", "operator": "United States Postal Service", "operator:short": "USPS", "operator:type": "public", "operator:wikidata": "Q668687", "ref": "8630300021"}, "type": "Feature"}
{"dataset_attributes": {"@spider": "usps_collection_boxes", "spider:collection_time": "2023-11-10T08:24:40.300687"}, "geometry": {"coordinates": [-112.4691525, 34.539935503], "type": "Point"}, "id": "uP5myykPvrqZCIOK9xNtyfdUpPM=", "properties": {"@spider": "usps_collection_boxes", "addr:city": "PRESCOTT", "addr:country": "US", "addr:full": "101 W GOODWIN ST", "addr:postcode": "86303", "addr:state": "AZ", "amenity": "post_box", "brand": "United States Postal Service", "brand:wikidata": "Q668687", "collection_times": "Mo-Fr 16:00", "name": "USPS COLLECTION BOX - PO LOBBY", "note": "ON 12/24 AND 12/31, THIS BOX MAY BE COLLECTED AS EARLY AS 12 NOON.", "nsi_id": "unitedstatespostalservice-a77078", "operator": "United States Postal Service", "operator:short": "USPS", "operator:type": "public", "operator:wikidata": "Q668687", "ref": "8630300025"}, "type": "Feature"}
{"dataset_attributes": {"@spider": "usps_collection_boxes", "spider:collection_time": "2023-11-10T08:24:40.300687"}, "geometry": {"coordinates": [-112.482551, 34.553955], "type": "Point"}, "id": "Vl4kWbdaANo_9rctmsRT9dO8HtM=", "properties": {"@spider": "usps_collection_boxes", "addr:city": "PRESCOTT", "addr:country": "US", "addr:full": "950 FAIR ST", "addr:postcode": "86305", "addr:state": "AZ", "amenity": "post_box", "brand": "United States Postal Service", "brand:wikidata": "Q668687", "collection_times": "Sa 11:00", "name": "USPS COLLECTION BOX - BLUE BOX", "nsi_id": "unitedstatespostalservice-a77078", "operator": "United States Postal Service", "operator:short": "USPS", "operator:type": "public", "operator:wikidata": "Q668687", "ref": "8630500003"}, "type": "Feature"}
{"dataset_attributes": {"@spider": "usps_collection_boxes", "spider:collection_time": "2023-11-10T08:24:40.300687"}, "geometry": {"coordinates": [-112.478452, 34.542815], "type": "Point"}, "id": "dGlCpOXln4Yi78eVFFK5szaP5-Q=", "properties": {"@spider": "usps_collection_boxes", "addr:city": "PRESCOTT", "addr:country": "US", "addr:full": "646 W GURLEY ST", "addr:postcode": "86305", "addr:state": "AZ", "amenity": "post_box", "brand": "United States Postal Service", "brand:wikidata": "Q668687", "collection_times": "Mo-Sa 10:00", "name": "USPS COLLECTION BOX - BLUE BOX", "nsi_id": "unitedstatespostalservice-a77078", "operator": "United States Postal Service", "operator:short": "USPS", "operator:type": "public", "operator:wikidata": "Q668687", "ref": "8630500006"}, "type": "Feature"}
{"dataset_attributes": {"@spider": "usps_collection_boxes", "spider:collection_time": "2023-11-10T08:24:40.300687"}, "geometry": {"coordinates": [-112.456458, 34.603755], "type": "Point"}, "id": "u5bH9jRoL-DGL2qu3LqrzXQUBc4=", "properties": {"@spider": "usps_collection_boxes", "addr:city": "PRESCOTT", "addr:country": "US", "addr:full": "1011 COMMERCE DR", "addr:postcode": "86305", "addr:state": "AZ", "amenity": "post_box", "brand": "United States Postal Service", "brand:wikidata": "Q668687", "collection_times": "Mo-Sa 10:30", "name": "USPS COLLECTION BOX - BLUE BOX", "nsi_id": "unitedstatespostalservice-a77078", "operator": "United States Postal Service", "operator:short": "USPS", "operator:type": "public", "operator:wikidata": "Q668687", "ref": "8630500008"}, "type": "Feature"}
{"dataset_attributes": {"@spider": "usps_collection_boxes", "spider:collection_time": "2023-11-10T08:24:40.300687"}, "geometry": {"coordinates": [-112.518124, 34.658447], "type": "Point"}, "id": "QaT7D4kg3uincucj91-QFFJD_Vk=", "properties": {"@spider": "usps_collection_boxes", "addr:city": "PRESCOTT", "addr:country": "US", "addr:full": "8100 N WILLIAMSON VALLEY RD", "addr:postcode": "86305", "addr:state": "AZ", "amenity": "post_box", "brand": "United States Postal Service", "brand:wikidata": "Q668687", "collection_times": "Mo-Sa 10:00", "name": "USPS COLLECTION BOX - BLUE BOX", "nsi_id": "unitedstatespostalservice-a77078", "operator": "United States Postal Service", "operator:short": "USPS", "operator:type": "public", "operator:wikidata": "Q668687", "ref": "8630500009"}, "type": "Feature"}
{"dataset_attributes": {"@spider": "usps_collection_boxes", "spider:collection_time": "2023-11-10T08:24:40.300687"}, "geometry": {"coordinates": [-112.539233, 34.689465], "type": "Point"}, "id": "oHr61_5SUbaYkGCLFVvnOEWRDEk=", "properties": {"@spider": "usps_collection_boxes", "addr:city": "PRESCOTT", "addr:country": "US", "addr:full": "4125 W OUTER LOOP RD", "addr:postcode": "86305", "addr:state": "AZ", "amenity": "post_box", "brand": "United States Postal Service", "brand:wikidata": "Q668687", "collection_times": "Mo-Sa 10:00", "name": "USPS COLLECTION BOX - BLUE BOX", "nsi_id": "unitedstatespostalservice-a77078", "operator": "United States Postal Service", "operator:short": "USPS", "operator:type": "public", "operator:wikidata": "Q668687", "ref": "8630500010"}, "type": "Feature"}
{"dataset_attributes": {"@spider": "usps_collection_boxes", "spider:collection_time": "2023-11-10T08:24:40.300687"}, "geometry": {"coordinates": [-112.458048, 34.600969], "type": "Point"}, "id": "umR_lFJfkMXbGaAdgi1XfzRRfpQ=", "properties": {"@spider": "usps_collection_boxes", "addr:city": "PRESCOTT", "addr:country": "US", "addr:full": "3198 WILLOW CREEK RD", "addr:postcode": "86305", "addr:state": "AZ", "amenity": "post_box", "brand": "United States Postal Service", "brand:wikidata": "Q668687", "collection_times": "Mo-Sa 11:00", "name": "USPS COLLECTION BOX - BLUE BOX", "nsi_id": "unitedstatespostalservice-a77078", "operator": "United States Postal Service", "operator:short": "USPS", "operator:type": "public", "operator:wikidata": "Q668687", "ref": "8630500012"}, "type": "Feature"}
{"dataset_attributes": {"@spider": "usps_collection_boxes", "spider:collection_time": "2023-11-10T08:24:40.300687"}, "geometry": {"coordinates": [-112.320254, 34.585354], "type": "Point"}, "id": "y7ogvbRmHWMrLSSt6qBED5qgRMI=", "properties": {"@spider": "usps_collection_boxes", "addr:city": "PRESCOTT VALLEY", "addr:country": "US", "addr:full": "8307 E STATE ROUTE 69 STE 1", "addr:postcode": "86314", "addr:state": "AZ", "amenity": "post_box", "brand": "United States Postal Service", "brand:wikidata": "Q668687", "collection_times": "Mo-Fr 16:45; Sa 13:45", "name": "USPS COLLECTION BOX - BLUE BOX", "note": "ON 12/24 AND 12/31, THIS BOX MAY BE COLLECTED AS EARLY AS 12 NOON.", "nsi_id": "unitedstatespostalservice-a77078", "operator": "United States Postal Service", "operator:short": "USPS", "operator:type": "public", "operator:wikidata": "Q668687", "ref": "8631400001"}, "type": "Feature"}
{"dataset_attributes": {"@spider": "usps_collection_boxes", "spider:collection_time": "2023-11-10T08:24:40.300687"}, "geometry": {"coordinates": [-112.333472, 34.635504], "type": "Point"}, "id": "TBkYA5Tsv0MGciJ3gW1pONcdbrM=", "properties": {"@spider": "usps_collection_boxes", "addr:city": "PRESCOTT VALLEY", "addr:country": "US", "addr:full": "6450 N VIEWPOINT DR", "addr:postcode": "86314", "addr:state": "AZ", "amenity": "post_box", "brand": "United States Postal Service", "brand:wikidata": "Q668687", "collection_times": "Mo-Sa 12:00", "name": "USPS COLLECTION BOX - BLUE BOX", "nsi_id": "unitedstatespostalservice-a77078", "operator": "United States Postal Service", "operator:short": "USPS", "operator:type": "public", "operator:wikidata": "Q668687", "ref": "8631400002"}, "type": "Feature"}
{"dataset_attributes": {"@spider": "usps_collection_boxes", "spider:collection_time": "2023-11-10T08:24:40.300687"}, "geometry": {"coordinates": [-112.320254, 34.585354], "type": "Point"}, "id": "H-ufRLgWqK6pqtWUMKssIJzlRdU=", "properties": {"@spider": "usps_collection_boxes", "addr:city": "PRESCOTT VALLEY", "addr:country": "US", "addr:full": "8307 E STATE ROUTE 69 STE 1", "addr:postcode": "86314", "addr:state": "AZ", "amenity": "post_box", "brand": "United States Postal Service", "brand:wikidata": "Q668687", "collection_times": "Mo-Fr 16:45; Sa 13:45", "name": "USPS COLLECTION BOX - BLUE BOX", "note": "ON 12/24 AND 12/31, THIS BOX MAY BE COLLECTED AS EARLY AS 12 NOON.", "nsi_id": "unitedstatespostalservice-a77078", "operator": "United States Postal Service", "operator:short": "USPS", "operator:type": "public", "operator:wikidata": "Q668687", "ref": "8631400004"}, "type": "Feature"}
{"dataset_attributes": {"@spider": "usps_collection_boxes", "spider:collection_time": "2023-11-10T08:24:40.300687"}, "geometry": {"coordinates": [-112.321984983, 34.58672938], "type": "Point"}, "id": "EtjleLkCwGnEmCoOfF2uX0rRaZc=", "properties": {"@spider": "usps_collection_boxes", "addr:city": "PRESCOTT VALLEY", "addr:country": "US", "addr:full": "3035 BOB ROAD", "addr:postcode": "86314", "addr:state": "AZ", "amenity": "post_box", "brand": "United States Postal Service", "brand:wikidata": "Q668687", "collection_times": "Mo-Sa 12:00", "name": "USPS COLLECTION BOX - BLUE BOX", "nsi_id": "unitedstatespostalservice-a77078", "operator": "United States Postal Service", "operator:short": "USPS", "operator:type": "public", "operator:wikidata": "Q668687", "ref": "8631400006"}, "type": "Feature"}
{"dataset_attributes": {"@spider": "usps_collection_boxes", "spider:collection_time": "2023-11-10T08:24:40.300687"}, "geometry": {"coordinates": [-112.321221, 34.609374], "type": "Point"}, "id": "n17cmSBsOQsbhU3wLnK15lcOgR0=", "properties": {"@spider": "usps_collection_boxes", "addr:city": "PRESCOTT VALLEY", "addr:country": "US", "addr:full": "4596 N ROBERT RD", "addr:postcode": "86314", "addr:state": "AZ", "amenity": "post_box", "brand": "United States Postal Service", "brand:wikidata": "Q668687", "collection_times": "Mo-Sa 12:00", "name": "USPS COLLECTION BOX - BLUE BOX", "nsi_id": "unitedstatespostalservice-a77078", "operator": "United States Postal Service", "operator:short": "USPS", "operator:type": "public", "operator:wikidata": "Q668687", "ref": "8631400007"}, "type": "Feature"}
{"dataset_attributes": {"@spider": "usps_collection_boxes", "spider:collection_time": "2023-11-10T08:24:40.300687"}, "geometry": {"coordinates": [-112.318535, 34.591655], "type": "Point"}, "id": "Lsi21sPqEhowzjiX27YBrlMN1jI=", "properties": {"@spider": "usps_collection_boxes", "addr:city": "PRESCOTT VALLEY", "addr:country": "US", "addr:full": "6545 E 2ND ST", "addr:postcode": "86314", "addr:state": "AZ", "amenity": "post_box", "brand": "United States Postal Service", "brand:wikidata": "Q668687", "collection_times": "Mo-Fr 16:00; Sa 13:00", "name": "USPS COLLECTION BOX - BLUE BOX", "note": "ON 12/24 AND 12/31, THIS BOX MAY BE COLLECTED AS EARLY AS 12 NOON.", "nsi_id": "unitedstatespostalservice-a77078", "operator": "United States Postal Service", "operator:short": "USPS", "operator:type": "public", "operator:wikidata": "Q668687", "ref": "8631400009"}, "type": "Feature"}
{"dataset_attributes": {"@spider": "usps_collection_boxes", "spider:collection_time": "2023-11-10T08:24:40.300687"}, "geometry": {"coordinates": [-112.320254, 34.585354], "type": "Point"}, "id": "vv4PUS9Ix_EsjZMdDOqa83m1p6A=", "properties": {"@spider": "usps_collection_boxes", "addr:city": "PRESCOTT VALLEY", "addr:country": "US", "addr:full": "8307 E STATE ROUTE 69 STE 1", "addr:postcode": "86314", "addr:state": "AZ", "amenity": "post_box", "brand": "United States Postal Service", "brand:wikidata": "Q668687", "collection_times": "Mo-Fr 16:45; Sa 13:45", "name": "USPS COLLECTION BOX - BLUE BOX", "note": "ON 12/24 AND 12/31, THIS BOX MAY BE COLLECTED AS EARLY AS 12 NOON.", "nsi_id": "unitedstatespostalservice-a77078", "operator": "United States Postal Service", "operator:short": "USPS", "operator:type": "public", "operator:wikidata": "Q668687", "ref": "8631400010"}, "type": "Feature"}
{"dataset_attributes": {"@spider": "usps_collection_boxes", "spider:collection_time": "2023-11-10T08:24:40.300687"}, "geometry": {"coordinates": [-112.333513, 34.596249], "type": "Point"}, "id": "4IAyEnV-InAxPg5OMdfgUZfJjBw=", "properties": {"@spider": "usps_collection_boxes", "addr:city": "PRESCOTT VALLEY", "addr:country": "US", "addr:full": "7501 E CIVIC CIR", "addr:postcode": "86314", "addr:state": "AZ", "amenity": "post_box", "brand": "United States Postal Service", "brand:wikidata": "Q668687", "collection_times": "Mo-Sa 12:00", "name": "USPS COLLECTION BOX - BLUE BOX", "nsi_id": "unitedstatespostalservice-a77078", "operator": "United States Postal Service", "operator:short": "USPS", "operator:type": "public", "operator:wikidata": "Q668687", "ref": "8631400013"}, "type": "Feature"}
{"dataset_attributes": {"@spider": "usps_collection_boxes", "spider:collection_time": "2023-11-10T08:24:40.300687"}, "geometry": {"coordinates": [-112.329413, 34.587016], "type": "Point"}, "id": "h25wyVfzh5JPx4JAfPBI5w39Fp0=", "properties": {"@spider": "usps_collection_boxes", "addr:city": "PRESCOTT VALLEY", "addr:country": "US", "addr:full": "7720 E STATE ROUTE 69", "addr:postcode": "86314", "addr:state": "AZ", "amenity": "post_box", "brand": "United States Postal Service", "brand:wikidata": "Q668687", "collection_times": "Mo-Sa 12:00", "name": "USPS COLLECTION BOX - BLUE BOX", "nsi_id": "unitedstatespostalservice-a77078", "operator": "United States Postal Service", "operator:short": "USPS", "operator:type": "public", "operator:wikidata": "Q668687", "ref": "8631400015"}, "type": "Feature"}
{"dataset_attributes": {"@spider": "usps_collection_boxes", "spider:collection_time": "2023-11-10T08:24:40.300687"}, "geometry": {"coordinates": [-112.341589, 34.588557], "type": "Point"}, "id": "RGzEkxrUUaz3xTRlgiEHPWSxzdk=", "properties": {"@spider": "usps_collection_boxes", "addr:city": "PRESCOTT VALLEY", "addr:country": "US", "addr:full": "3100 N GLASSFORD HILL RD", "addr:postcode": "86314", "addr:state": "AZ", "amenity": "post_box", "brand": "United States Postal Service", "brand:wikidata": "Q668687", "collection_times": "Mo-Sa 12:00", "name": "USPS COLLECTION BOX - BLUE BOX", "nsi_id": "unitedstatespostalservice-a77078", "operator": "United States Postal Service", "operator:short": "USPS", "operator:type": "public", "operator:wikidata": "Q668687", "ref": "8631400017"}, "type": "Feature"}
{"dataset_attributes": {"@spider": "usps_collection_boxes", "spider:collection_time": "2023-11-10T08:24:40.300687"}, "geometry": {"coordinates": [-112.320254, 34.585354], "type": "Point"}, "id": "zfp8u0ewUFo-6jQ4FgUiLS59HM4=", "properties": {"@spider": "usps_collection_boxes", "addr:city": "PRESCOTT VALLEY", "addr:country": "US", "addr:full": "8307 E STATE ROUTE 69 STE 1", "addr:postcode": "86314", "addr:state": "AZ", "amenity": "post_box", "brand": "United States Postal Service", "brand:wikidata": "Q668687", "collection_times": "Mo-Fr 16:45; Sa 13:45", "name": "USPS COLLECTION BOX - APC", "note": "ON 12/24 AND 12/31, THIS BOX MAY BE COLLECTED AS EARLY AS 12 NOON.", "nsi_id": "unitedstatespostalservice-a77078", "operator": "United States Postal Service", "operator:short": "USPS", "operator:type": "public", "operator:wikidata": "Q668687", "ref": "8631400018"}, "type": "Feature"}
{"dataset_attributes": {"@spider": "usps_collection_boxes", "spider:collection_time": "2023-11-10T08:24:40.300687"}, "geometry": {"coordinates": [-112.341595, 34.561754], "type": "Point"}, "id": "Q8S_9utmeVELTw5EaJJoQL7TWjI=", "properties": {"@spider": "usps_collection_boxes", "addr:city": "PRESCOTT VALLEY", "addr:country": "US", "addr:full": "1300 N STONE RIDGE RD", "addr:postcode": "86314", "addr:state": "AZ", "amenity": "post_box", "brand": "United States Postal Service", "brand:wikidata": "Q668687", "collection_times": "Mo-Sa 10:00", "name": "USPS COLLECTION BOX - BLUE BOX", "nsi_id": "unitedstatespostalservice-a77078", "operator": "United States Postal Service", "operator:short": "USPS", "operator:type": "public", "operator:wikidata": "Q668687", "ref": "8631400019"}, "type": "Feature"}
{"dataset_attributes": {"@spider": "usps_collection_boxes", "spider:collection_time": "2023-11-10T08:24:40.300687"}, "geometry": {"coordinates": [-112.320254409, 34.585345608], "type": "Point"}, "id": "6ZQK3QO0dD_vv9DJFa5hGkUNT84=", "properties": {"@spider": "usps_collection_boxes", "addr:city": "PRESCOTT VALLEY", "addr:country": "US", "addr:full": "8307 E STATE ROUTE 69 STE 1", "addr:postcode": "86314", "addr:state": "AZ", "amenity": "post_box", "brand": "United States Postal Service", "brand:wikidata": "Q668687", "collection_times": "Mo-Fr 17:00; Sa 14:00", "name": "USPS COLLECTION BOX - PO LOBBY", "note": "ON 12/24 AND 12/31, THIS BOX MAY BE COLLECTED AS EARLY AS 12 NOON.", "nsi_id": "unitedstatespostalservice-a77078", "operator": "United States Postal Service", "operator:short": "USPS", "operator:type": "public", "operator:wikidata": "Q668687", "ref": "8631400022"}, "type": "Feature"}
{"dataset_attributes": {"@spider": "usps_collection_boxes", "spider:collection_time": "2023-11-10T08:24:40.300687"}, "geometry": {"coordinates": [-112.485505, 35.223795], "type": "Point"}, "id": "gfh11I_KTPn3ZBilvS1IunIwznI=", "properties": {"@spider": "usps_collection_boxes", "addr:city": "ASHFORK", "addr:country": "US", "addr:full": "435 PARK AVE", "addr:postcode": "86320", "addr:state": "AZ", "amenity": "post_box", "brand": "United States Postal Service", "brand:wikidata": "Q668687", "collection_times": "Mo-Fr 15:30; Sa 10:30", "name": "USPS COLLECTION BOX - BLUE BOX", "note": "ON 12/24 AND 12/31, THIS BOX MAY BE COLLECTED AS EARLY AS 12 NOON.", "nsi_id": "unitedstatespostalservice-a77078", "operator": "United States Postal Service", "operator:short": "USPS", "operator:type": "public", "operator:wikidata": "Q668687", "ref": "8632000001"}, "type": "Feature"}
{"dataset_attributes": {"@spider": "usps_collection_boxes", "spider:collection_time": "2023-11-10T08:24:40.300687"}, "geometry": {"coordinates": [-112.48556, 35.223833], "type": "Point"}, "id": "lc2khO1FCCfa3VT-WmCySLefrT4=", "properties": {"@spider": "usps_collection_boxes", "addr:city": "ASHFORK", "addr:country": "US", "addr:full": "435 PARK AVE", "addr:postcode": "86320", "addr:state": "AZ", "amenity": "post_box", "brand": "United States Postal Service", "brand:wikidata": "Q668687", "collection_times": "Mo-Fr 15:30; Sa 10:30", "name": "USPS COLLECTION BOX - PO LOBBY", "note": "ON 12/24 AND 12/31, THIS BOX MAY BE COLLECTED AS EARLY AS 12 NOON.", "nsi_id": "unitedstatespostalservice-a77078", "operator": "United States Postal Service", "operator:short": "USPS", "operator:type": "public", "operator:wikidata": "Q668687", "ref": "8632000002"}, "type": "Feature"}
{"dataset_attributes": {"@spider": "usps_collection_boxes", "spider:collection_time": "2023-11-10T08:24:40.300687"}, "geometry": {"coordinates": [-112.485647792, 35.223815809], "type": "Point"}, "id": "IEOPALjjypRcOqwVyemQtci65oY=", "properties": {"@spider": "usps_collection_boxes", "addr:city": "ASHFORK", "addr:country": "US", "addr:full": "435 PARK AVE", "addr:postcode": "86320", "addr:state": "AZ", "amenity": "post_box", "brand": "United States Postal Service", "brand:wikidata": "Q668687", "collection_times": "Mo-Fr 15:30", "name": "USPS COLLECTION BOX - PO LOBBY", "note": "ON 12/24 AND 12/31, THIS BOX MAY BE COLLECTED AS EARLY AS 12 NOON.", "nsi_id": "unitedstatespostalservice-a77078", "operator": "United States Postal Service", "operator:short": "USPS", "operator:type": "public", "operator:wikidata": "Q668687", "ref": "8632000003"}, "type": "Feature"}
{"dataset_attributes": {"@spider": "usps_collection_boxes", "spider:collection_time": "2023-11-10T08:24:40.300687"}, "geometry": {"coordinates": [-113.17551, 34.568376], "type": "Point"}, "id": "K0tUISc0Ybt2w68zB6hatrEXxVk=", "properties": {"@spider": "usps_collection_boxes", "addr:city": "BAGDAD", "addr:country": "US", "addr:full": "113 MAIN ST", "addr:postcode": "86321", "addr:state": "AZ", "amenity": "post_box", "brand": "United States Postal Service", "brand:wikidata": "Q668687", "collection_times": "Mo-Fr 15:00; Sa 10:00", "name": "USPS COLLECTION BOX - BLUE BOX", "note": "ON 12/24 AND 12/31, THIS BOX MAY BE COLLECTED AS EARLY AS 12 NOON.", "nsi_id": "unitedstatespostalservice-a77078", "operator": "United States Postal Service", "operator:short": "USPS", "operator:type": "public", "operator:wikidata": "Q668687", "ref": "8632100001"}, "type": "Feature"}
{"dataset_attributes": {"@spider": "usps_collection_boxes", "spider:collection_time": "2023-11-10T08:24:40.300687"}, "geometry": {"coordinates": [-113.17551, 34.568376], "type": "Point"}, "id": "PGN1MLOiceKKnb-2J_v5YE2sR_4=", "properties": {"@spider": "usps_collection_boxes", "addr:city": "BAGDAD", "addr:country": "US", "addr:full": "113 MAIN ST", "addr:postcode": "86321", "addr:state": "AZ", "amenity": "post_box", "brand": "United States Postal Service", "brand:wikidata": "Q668687", "collection_times": "Mo-Fr 15:00; Sa 10:00", "name": "USPS COLLECTION BOX - PO LOBBY", "note": "ON 12/24 AND 12/31, THIS BOX MAY BE COLLECTED AS EARLY AS 12 NOON.", "nsi_id": "unitedstatespostalservice-a77078", "operator": "United States Postal Service", "operator:short": "USPS", "operator:type": "public", "operator:wikidata": "Q668687", "ref": "8632100002"}, "type": "Feature"}
{"dataset_attributes": {"@spider": "usps_collection_boxes", "spider:collection_time": "2023-11-10T08:24:40.300687"}, "geometry": {"coordinates": [-113.17556535, 34.568324548], "type": "Point"}, "id": "FFxfxpPSl3pSKHgK4lFa1ttbsAs=", "properties": {"@spider": "usps_collection_boxes", "addr:city": "BAGDAD", "addr:country": "US", "addr:full": "113 MAIN ST", "addr:postcode": "86321", "addr:state": "AZ", "amenity": "post_box", "brand": "United States Postal Service", "brand:wikidata": "Q668687", "collection_times": "Mo-Fr 15:00", "name": "USPS COLLECTION BOX - PO LOBBY", "note": "ON 12/24 AND 12/31, THIS BOX MAY BE COLLECTED AS EARLY AS 12 NOON.", "nsi_id": "unitedstatespostalservice-a77078", "operator": "United States Postal Service", "operator:short": "USPS", "operator:type": "public", "operator:wikidata": "Q668687", "ref": "8632100003"}, "type": "Feature"}
{"dataset_attributes": {"@spider": "usps_collection_boxes", "spider:collection_time": "2023-11-10T08:24:40.300687"}, "geometry": {"coordinates": [-111.861261, 34.565731], "type": "Point"}, "id": "iqYl4BwYAC4IjY-NXeVc-mJ5-nI=", "properties": {"@spider": "usps_collection_boxes", "addr:city": "CAMP VERDE", "addr:country": "US", "addr:full": "403 W FINNIE FLAT RD", "addr:postcode": "86322", "addr:state": "AZ", "amenity": "post_box", "brand": "United States Postal Service", "brand:wikidata": "Q668687", "collection_times": "Mo-Fr 17:00; Sa 15:30", "name": "USPS COLLECTION BOX - BLUE BOX", "note": "ON 12/24 AND 12/31, THIS BOX MAY BE COLLECTED AS EARLY AS 12 NOON.", "nsi_id": "unitedstatespostalservice-a77078", "operator": "United States Postal Service", "operator:short": "USPS", "operator:type": "public", "operator:wikidata": "Q668687", "ref": "8632200001"}, "type": "Feature"}
{"dataset_attributes": {"@spider": "usps_collection_boxes", "spider:collection_time": "2023-11-10T08:24:40.300687"}, "geometry": {"coordinates": [-111.861156, 34.56576], "type": "Point"}, "id": "_hinIN5fjNHBGBpxTCqT25WeYy8=", "properties": {"@spider": "usps_collection_boxes", "addr:city": "CAMP VERDE", "addr:country": "US", "addr:full": "403 W FINNIE FLAT RD", "addr:postcode": "86322", "addr:state": "AZ", "amenity": "post_box", "brand": "United States Postal Service", "brand:wikidata": "Q668687", "collection_times": "Mo-Fr 17:00; Sa 15:30", "name": "USPS COLLECTION BOX - BLUE BOX", "note": "ON 12/24 AND 12/31, THIS BOX MAY BE COLLECTED AS EARLY AS 12 NOON.", "nsi_id": "unitedstatespostalservice-a77078", "operator": "United States Postal Service", "operator:short": "USPS", "operator:type": "public", "operator:wikidata": "Q668687", "ref": "8632200004"}, "type": "Feature"}
{"dataset_attributes": {"@spider": "usps_collection_boxes", "spider:collection_time": "2023-11-10T08:24:40.300687"}, "geometry": {"coordinates": [-111.861156, 34.56576], "type": "Point"}, "id": "8tqBOghPW0jddACANxNtrCSTtDE=", "properties": {"@spider": "usps_collection_boxes", "addr:city": "CAMP VERDE", "addr:country": "US", "addr:full": "403 W FINNIE FLAT RD", "addr:postcode": "86322", "addr:state": "AZ", "amenity": "post_box", "brand": "United States Postal Service", "brand:wikidata": "Q668687", "collection_times": "Mo-Fr 17:00; Sa 15:30", "name": "USPS COLLECTION BOX - PO LOBBY", "note": "ON 12/24 AND 12/31, THIS BOX MAY BE COLLECTED AS EARLY AS 12 NOON.", "nsi_id": "unitedstatespostalservice-a77078", "operator": "United States Postal Service", "operator:short": "USPS", "operator:type": "public", "operator:wikidata": "Q668687", "ref": "8632200007"}, "type": "Feature"}
{"dataset_attributes": {"@spider": "usps_collection_boxes", "spider:collection_time": "2023-11-10T08:24:40.300687"}, "geometry": {"coordinates": [-111.861449665, 34.565718513], "type": "Point"}, "id": "bCSSpPOej4xA4jJVOTFQaH0br54=", "properties": {"@spider": "usps_collection_boxes", "addr:city": "CAMP VERDE", "addr:country": "US", "addr:full": "403 W FINNIE FLAT RD", "addr:postcode": "86322", "addr:state": "AZ", "amenity": "post_box", "brand": "United States Postal Service", "brand:wikidata": "Q668687", "collection_times": "Mo-Fr 17:00", "name": "USPS COLLECTION BOX - PO LOBBY", "note": "ON 12/24 AND 12/31, THIS BOX MAY BE COLLECTED AS EARLY AS 12 NOON.", "nsi_id": "unitedstatespostalservice-a77078", "operator": "United States Postal Service", "operator:short": "USPS", "operator:type": "public", "operator:wikidata": "Q668687", "ref": "8632200010"}, "type": "Feature"}
{"dataset_attributes": {"@spider": "usps_collection_boxes", "spider:collection_time": "2023-11-10T08:24:40.300687"}, "geometry": {"coordinates": [-112.452901, 34.760107], "type": "Point"}, "id": "qxF5bHRRCiK_IxXl5l2lea8e2Lk=", "properties": {"@spider": "usps_collection_boxes", "addr:city": "CHINO VALLEY", "addr:country": "US", "addr:full": "725 E ROAD 2 N", "addr:postcode": "86323", "addr:state": "AZ", "amenity": "post_box", "brand": "United States Postal Service", "brand:wikidata": "Q668687", "collection_times": "Mo-Fr 16:00; Sa 11:30", "name": "USPS COLLECTION BOX - BLUE BOX", "note": "ON 12/24 AND 12/31, THIS BOX MAY BE COLLECTED AS EARLY AS 12 NOON.", "nsi_id": "unitedstatespostalservice-a77078", "operator": "United States Postal Service", "operator:short": "USPS", "operator:type": "public", "operator:wikidata": "Q668687", "ref": "8632300001"}, "type": "Feature"}
{"dataset_attributes": {"@spider": "usps_collection_boxes", "spider:collection_time": "2023-11-10T08:24:40.300687"}, "geometry": {"coordinates": [-112.454381, 34.773923], "type": "Point"}, "id": "KytQuHdOtH_uUX4EfufSG5gP3mA=", "properties": {"@spider": "usps_collection_boxes", "addr:city": "CHINO VALLEY", "addr:country": "US", "addr:full": "1950 N HIGHWAY 89", "addr:postcode": "86323", "addr:state": "AZ", "amenity": "post_box", "brand": "United States Postal Service", "brand:wikidata": "Q668687", "collection_times": "Mo-Sa 10:30", "name": "USPS COLLECTION BOX - BLUE BOX", "nsi_id": "unitedstatespostalservice-a77078", "operator": "United States Postal Service", "operator:short": "USPS", "operator:type": "public", "operator:wikidata": "Q668687", "ref": "8632300003"}, "type": "Feature"}
{"dataset_attributes": {"@spider": "usps_collection_boxes", "spider:collection_time": "2023-11-10T08:24:40.300687"}, "geometry": {"coordinates": [-112.454819, 34.752296], "type": "Point"}, "id": "uBLI57ZgwkD1lQOgTyEPfvahBBA=", "properties": {"@spider": "usps_collection_boxes", "addr:city": "CHINO VALLEY", "addr:country": "US", "addr:full": "474 N HIGHWAY 89", "addr:postcode": "86323", "addr:state": "AZ", "amenity": "post_box", "brand": "United States Postal Service", "brand:wikidata": "Q668687", "collection_times": "Mo-Sa 11:15", "name": "USPS COLLECTION BOX - BLUE BOX", "nsi_id": "unitedstatespostalservice-a77078", "operator": "United States Postal Service", "operator:short": "USPS", "operator:type": "public", "operator:wikidata": "Q668687", "ref": "8632300005"}, "type": "Feature"}
{"dataset_attributes": {"@spider": "usps_collection_boxes", "spider:collection_time": "2023-11-10T08:24:40.300687"}, "geometry": {"coordinates": [-112.452958, 34.760133], "type": "Point"}, "id": "7CsYlNvO5BzKOGs8MykbRusF8GM=", "properties": {"@spider": "usps_collection_boxes", "addr:city": "CHINO VALLEY", "addr:country": "US", "addr:full": "725 E ROAD 2 N", "addr:postcode": "86323", "addr:state": "AZ", "amenity": "post_box", "brand": "United States Postal Service", "brand:wikidata": "Q668687", "collection_times": "Mo-Fr 16:30; Sa 13:30", "name": "USPS COLLECTION BOX - PO LOBBY", "note": "ON 12/24 AND 12/31, THIS BOX MAY BE COLLECTED AS EARLY AS 12 NOON.", "nsi_id": "unitedstatespostalservice-a77078", "operator": "United States Postal Service", "operator:short": "USPS", "operator:type": "public", "operator:wikidata": "Q668687", "ref": "8632300006"}, "type": "Feature"}
{"dataset_attributes": {"@spider": "usps_collection_boxes", "spider:collection_time": "2023-11-10T08:24:40.300687"}, "geometry": {"coordinates": [-112.454649, 34.730876], "type": "Point"}, "id": "IcZtaOE_FtFXN0kBfLDF9d6037g=", "properties": {"@spider": "usps_collection_boxes", "addr:city": "CHINO VALLEY", "addr:country": "US", "addr:full": "1060 S HIGHWAY 89", "addr:postcode": "86323", "addr:state": "AZ", "amenity": "post_box", "brand": "United States Postal Service", "brand:wikidata": "Q668687", "collection_times": "Mo-Fr 12:00; Sa 11:00", "name": "USPS COLLECTION BOX - BLUE BOX", "nsi_id": "unitedstatespostalservice-a77078", "operator": "United States Postal Service", "operator:short": "USPS", "operator:type": "public", "operator:wikidata": "Q668687", "ref": "8632300009"}, "type": "Feature"}
{"dataset_attributes": {"@spider": "usps_collection_boxes", "spider:collection_time": "2023-11-10T08:24:40.300687"}, "geometry": {"coordinates": [-112.452431223, 34.760104476], "type": "Point"}, "id": "gzSUOaPhXBgIk7rIz6zvHbXr6hY=", "properties": {"@spider": "usps_collection_boxes", "addr:city": "CHINO VALLEY", "addr:country": "US", "addr:full": "725 E ROAD 2 N", "addr:postcode": "86323", "addr:state": "AZ", "amenity": "post_box", "brand": "United States Postal Service", "brand:wikidata": "Q668687", "collection_times": "Mo-Fr 16:30; Sa 13:30", "name": "USPS COLLECTION BOX - PO LOBBY", "note": "ON 12/24 AND 12/31, THIS BOX MAY BE COLLECTED AS EARLY AS 12 NOON.", "nsi_id": "unitedstatespostalservice-a77078", "operator": "United States Postal Service", "operator:short": "USPS", "operator:type": "public", "operator:wikidata": "Q668687", "ref": "8632300011"}, "type": "Feature"}
{"dataset_attributes": {"@spider": "usps_collection_boxes", "spider:collection_time": "2023-11-10T08:24:40.300687"}, "geometry": {"coordinates": [-112.057396, 34.77114], "type": "Point"}, "id": "45qCyJHQgcmJdXRsO5s3PNNNIng=", "properties": {"@spider": "usps_collection_boxes", "addr:city": "CLARKDALE", "addr:country": "US", "addr:full": "9 S 9TH ST", "addr:postcode": "86324", "addr:state": "AZ", "amenity": "post_box", "brand": "United States Postal Service", "brand:wikidata": "Q668687", "collection_times": "Mo-Fr 15:30; Sa 11:45", "name": "USPS COLLECTION BOX - BLUE BOX", "note": "ON 12/24 AND 12/31, THIS BOX MAY BE COLLECTED AS EARLY AS 12 NOON.", "nsi_id": "unitedstatespostalservice-a77078", "operator": "United States Postal Service", "operator:short": "USPS", "operator:type": "public", "operator:wikidata": "Q668687", "ref": "8632400001"}, "type": "Feature"}
{"dataset_attributes": {"@spider": "usps_collection_boxes", "spider:collection_time": "2023-11-10T08:24:40.300687"}, "geometry": {"coordinates": [-112.057444, 34.77121], "type": "Point"}, "id": "cq-m5CZz6zc5ufLajDK-t1JNGZ0=", "properties": {"@spider": "usps_collection_boxes", "addr:city": "CLARKDALE", "addr:country": "US", "addr:full": "9 S 9TH ST", "addr:postcode": "86324", "addr:state": "AZ", "amenity": "post_box", "brand": "United States Postal Service", "brand:wikidata": "Q668687", "collection_times": "Mo-Fr 15:30; Sa 11:45", "name": "USPS COLLECTION BOX - BLUE BOX", "note": "ON 12/24 AND 12/31, THIS BOX MAY BE COLLECTED AS EARLY AS 12 NOON.", "nsi_id": "unitedstatespostalservice-a77078", "operator": "United States Postal Service", "operator:short": "USPS", "operator:type": "public", "operator:wikidata": "Q668687", "ref": "8632400002"}, "type": "Feature"}
{"dataset_attributes": {"@spider": "usps_collection_boxes", "spider:collection_time": "2023-11-10T08:24:40.300687"}, "geometry": {"coordinates": [-112.057444, 34.77121], "type": "Point"}, "id": "EWk2flaTHd_tPJXIkfYTm7nzoQY=", "properties": {"@spider": "usps_collection_boxes", "addr:city": "CLARKDALE", "addr:country": "US", "addr:full": "9 S 9TH ST", "addr:postcode": "86324", "addr:state": "AZ", "amenity": "post_box", "brand": "United States Postal Service", "brand:wikidata": "Q668687", "collection_times": "Mo-Fr 15:30; Sa 11:45", "name": "USPS COLLECTION BOX - PO LOBBY", "note": "ON 12/24 AND 12/31, THIS BOX MAY BE COLLECTED AS EARLY AS 12 NOON.", "nsi_id": "unitedstatespostalservice-a77078", "operator": "United States Postal Service", "operator:short": "USPS", "operator:type": "public", "operator:wikidata": "Q668687", "ref": "8632400003"}, "type": "Feature"}
{"dataset_attributes": {"@spider": "usps_collection_boxes", "spider:collection_time": "2023-11-10T08:24:40.300687"}, "geometry": {"coordinates": [-112.0573790425, 34.7711660662], "type": "Point"}, "id": "UtAY5RArBDtb2hvTTwFhpp_DWKE=", "properties": {"@spider": "usps_collection_boxes", "addr:city": "CLARKDALE", "addr:country": "US", "addr:full": "9 S 9TH ST", "addr:postcode": "86324", "addr:state": "AZ", "amenity": "post_box", "brand": "United States Postal Service", "brand:wikidata": "Q668687", "collection_times": "Mo-Fr 15:30", "name": "USPS COLLECTION BOX - PO LOBBY", "note": "ON 12/24 AND 12/31, THIS BOX MAY BE COLLECTED AS EARLY AS 12 NOON.", "nsi_id": "unitedstatespostalservice-a77078", "operator": "United States Postal Service", "operator:short": "USPS", "operator:type": "public", "operator:wikidata": "Q668687", "ref": "8632400004"}, "type": "Feature"}
{"dataset_attributes": {"@spider": "usps_collection_boxes", "spider:collection_time": "2023-11-10T08:24:40.300687"}, "geometry": {"coordinates": [-111.923858, 34.718546], "type": "Point"}, "id": "rhbbLVpqw0iMvRile5MQ1pPcCwI=", "properties": {"@spider": "usps_collection_boxes", "addr:city": "CORNVILLE", "addr:country": "US", "addr:full": "9400 E CORNVILLE RD", "addr:postcode": "86325", "addr:state": "AZ", "amenity": "post_box", "brand": "United States Postal Service", "brand:wikidata": "Q668687", "collection_times": "Mo-Fr 15:45; Sa 11:00", "name": "USPS COLLECTION BOX - BLUE BOX", "note": "ON 12/24 AND 12/31, THIS BOX MAY BE COLLECTED AS EARLY AS 12 NOON.", "nsi_id": "unitedstatespostalservice-a77078", "operator": "United States Postal Service", "operator:short": "USPS", "operator:type": "public", "operator:wikidata": "Q668687", "ref": "8632500001"}, "type": "Feature"}
{"dataset_attributes": {"@spider": "usps_collection_boxes", "spider:collection_time": "2023-11-10T08:24:40.300687"}, "geometry": {"coordinates": [-111.92385, 34.718404], "type": "Point"}, "id": "_wXi-8m05JwBIWXIU0OFiw4FTyo=", "properties": {"@spider": "usps_collection_boxes", "addr:city": "CORNVILLE", "addr:country": "US", "addr:full": "9400 E CORNVILLE RD", "addr:postcode": "86325", "addr:state": "AZ", "amenity": "post_box", "brand": "United States Postal Service", "brand:wikidata": "Q668687", "collection_times": "Mo-Fr 16:00; Sa 11:00", "name": "USPS COLLECTION BOX - PO LOBBY", "note": "ON 12/24 AND 12/31, THIS BOX MAY BE COLLECTED AS EARLY AS 12 NOON.", "nsi_id": "unitedstatespostalservice-a77078", "operator": "United States Postal Service", "operator:short": "USPS", "operator:type": "public", "operator:wikidata": "Q668687", "ref": "8632500002"}, "type": "Feature"}
{"dataset_attributes": {"@spider": "usps_collection_boxes", "spider:collection_time": "2023-11-10T08:24:40.300687"}, "geometry": {"coordinates": [-111.9241232, 34.717808153], "type": "Point"}, "id": "FlBxJjXcl8zB7-INvIl4zAhEZKo=", "properties": {"@spider": "usps_collection_boxes", "addr:city": "CORNVILLE", "addr:country": "US", "addr:full": "9400 E CORNVILLE RD", "addr:postcode": "86325", "addr:state": "AZ", "amenity": "post_box", "brand": "United States Postal Service", "brand:wikidata": "Q668687", "collection_times": "Mo-Fr 16:00", "name": "USPS COLLECTION BOX - PO LOBBY", "note": "ON 12/24 AND 12/31, THIS BOX MAY BE COLLECTED AS EARLY AS 12 NOON.", "nsi_id": "unitedstatespostalservice-a77078", "operator": "United States Postal Service", "operator:short": "USPS", "operator:type": "public", "operator:wikidata": "Q668687", "ref": "8632500003"}, "type": "Feature"}
{"dataset_attributes": {"@spider": "usps_collection_boxes", "spider:collection_time": "2023-11-10T08:24:40.300687"}, "geometry": {"coordinates": [-112.02175, 34.739579], "type": "Point"}, "id": "6D8GHaxaxU2CoKQFCgRzkSwXaw8=", "properties": {"@spider": "usps_collection_boxes", "addr:city": "COTTONWOOD", "addr:country": "US", "addr:full": "700 E MINGUS AVE", "addr:postcode": "86326", "addr:state": "AZ", "amenity": "post_box", "brand": "United States Postal Service", "brand:wikidata": "Q668687", "collection_times": "Mo-Fr 16:30; Sa 15:30", "name": "USPS COLLECTION BOX - BLUE BOX", "note": "ON 12/24 AND 12/31, THIS BOX MAY BE COLLECTED AS EARLY AS 12 NOON.", "nsi_id": "unitedstatespostalservice-a77078", "operator": "United States Postal Service", "operator:short": "USPS", "operator:type": "public", "operator:wikidata": "Q668687", "ref": "8632600001"}, "type": "Feature"}
{"dataset_attributes": {"@spider": "usps_collection_boxes", "spider:collection_time": "2023-11-10T08:24:40.300687"}, "geometry": {"coordinates": [-112.02186, 34.739554], "type": "Point"}, "id": "60mJXWivB0MoeMw7Mnu4vnznnxU=", "properties": {"@spider": "usps_collection_boxes", "addr:city": "COTTONWOOD", "addr:country": "US", "addr:full": "700 E MINGUS AVE", "addr:postcode": "86326", "addr:state": "AZ", "amenity": "post_box", "brand": "United States Postal Service", "brand:wikidata": "Q668687", "collection_times": "Mo-Fr 16:30; Sa 15:30", "name": "USPS COLLECTION BOX - BLUE BOX", "note": "ON 12/24 AND 12/31, THIS BOX MAY BE COLLECTED AS EARLY AS 12 NOON.", "nsi_id": "unitedstatespostalservice-a77078", "operator": "United States Postal Service", "operator:short": "USPS", "operator:type": "public", "operator:wikidata": "Q668687", "ref": "8632600002"}, "type": "Feature"}
{"dataset_attributes": {"@spider": "usps_collection_boxes", "spider:collection_time": "2023-11-10T08:24:40.300687"}, "geometry": {"coordinates": [-112.027767, 34.734474], "type": "Point"}, "id": "LNCePELwUllcjLY6l_oIu3Xw2mU=", "properties": {"@spider": "usps_collection_boxes", "addr:city": "COTTONWOOD", "addr:country": "US", "addr:full": "300 S WILLARD ST", "addr:postcode": "86326", "addr:state": "AZ", "amenity": "post_box", "brand": "United States Postal Service", "brand:wikidata": "Q668687", "collection_times": "Mo-Sa 10:00", "name": "USPS COLLECTION BOX - BLUE BOX", "nsi_id": "unitedstatespostalservice-a77078", "operator": "United States Postal Service", "operator:short": "USPS", "operator:type": "public", "operator:wikidata": "Q668687", "ref": "8632600003"}, "type": "Feature"}
{"dataset_attributes": {"@spider": "usps_collection_boxes", "spider:collection_time": "2023-11-10T08:24:40.300687"}, "geometry": {"coordinates": [-112.007872087, 34.72854479], "type": "Point"}, "id": "ZTuP-32xlnRp_LZ4SNQcFZmXasE=", "properties": {"@spider": "usps_collection_boxes", "addr:city": "COTTONWOOD", "addr:country": "US", "addr:full": "1645 E COTTONWOOD ST", "addr:postcode": "86326", "addr:state": "AZ", "amenity": "post_box", "brand": "United States Postal Service", "brand:wikidata": "Q668687", "collection_times": "Mo-Fr 13:30; Sa 12:45", "name": "USPS COLLECTION BOX - BLUE BOX", "note": "ON 12/24 AND 12/31, THIS BOX MAY BE COLLECTED AS EARLY AS 12 NOON.", "nsi_id": "unitedstatespostalservice-a77078", "operator": "United States Postal Service", "operator:short": "USPS", "operator:type": "public", "operator:wikidata": "Q668687", "ref": "8632600004"}, "type": "Feature"}
{"dataset_attributes": {"@spider": "usps_collection_boxes", "spider:collection_time": "2023-11-10T08:24:40.300687"}, "geometry": {"coordinates": [-112.027174, 34.746676], "type": "Point"}, "id": "-32VMnqZV-VrzVIFuuFp9og8Mrc=", "properties": {"@spider": "usps_collection_boxes", "addr:city": "COTTONWOOD", "addr:country": "US", "addr:full": "827 N MAIN ST", "addr:postcode": "86326", "addr:state": "AZ", "amenity": "post_box", "brand": "United States Postal Service", "brand:wikidata": "Q668687", "collection_times": "Mo-Sa 10:00", "name": "USPS COLLECTION BOX - BLUE BOX", "nsi_id": "unitedstatespostalservice-a77078", "operator": "United States Postal Service", "operator:short": "USPS", "operator:type": "public", "operator:wikidata": "Q668687", "ref": "8632600006"}, "type": "Feature"}
{"dataset_attributes": {"@spider": "usps_collection_boxes", "spider:collection_time": "2023-11-10T08:24:40.300687"}, "geometry": {"coordinates": [-112.011229, 34.743275], "type": "Point"}, "id": "hbiZuKPM58WtCw0G1YlDJJnQDTA=", "properties": {"@spider": "usps_collection_boxes", "addr:city": "COTTONWOOD", "addr:country": "US", "addr:full": "516 N MAIN ST", "addr:postcode": "86326", "addr:state": "AZ", "amenity": "post_box", "brand": "United States Postal Service", "brand:wikidata": "Q668687", "collection_times": "Mo-Sa 10:00", "name": "USPS COLLECTION BOX - BLUE BOX", "nsi_id": "unitedstatespostalservice-a77078", "operator": "United States Postal Service", "operator:short": "USPS", "operator:type": "public", "operator:wikidata": "Q668687", "ref": "8632600007"}, "type": "Feature"}
{"dataset_attributes": {"@spider": "usps_collection_boxes", "spider:collection_time": "2023-11-10T08:24:40.300687"}, "geometry": {"coordinates": [-112.000482, 34.712626], "type": "Point"}, "id": "zdAJN6RXFIq-ayaL1wj0PrHfv64=", "properties": {"@spider": "usps_collection_boxes", "addr:city": "COTTONWOOD", "addr:country": "US", "addr:full": "2003 E RODEO DR", "addr:postcode": "86326", "addr:state": "AZ", "amenity": "post_box", "brand": "United States Postal Service", "brand:wikidata": "Q668687", "collection_times": "Mo-Sa 12:00", "name": "USPS COLLECTION BOX - BLUE BOX", "nsi_id": "unitedstatespostalservice-a77078", "operator": "United States Postal Service", "operator:short": "USPS", "operator:type": "public", "operator:wikidata": "Q668687", "ref": "8632600008"}, "type": "Feature"}
{"dataset_attributes": {"@spider": "usps_collection_boxes", "spider:collection_time": "2023-11-10T08:24:40.300687"}, "geometry": {"coordinates": [-112.02186, 34.739554], "type": "Point"}, "id": "HPrSFS1EgNM5j9CUMCb1LnNNyBg=", "properties": {"@spider": "usps_collection_boxes", "addr:city": "COTTONWOOD", "addr:country": "US", "addr:full": "700 E MINGUS AVE", "addr:postcode": "86326", "addr:state": "AZ", "amenity": "post_box", "brand": "United States Postal Service", "brand:wikidata": "Q668687", "collection_times": "Mo-Fr 16:30; Sa 15:30", "name": "USPS COLLECTION BOX - BLUE BOX", "note": "ON 12/24 AND 12/31, THIS BOX MAY BE COLLECTED AS EARLY AS 12 NOON.", "nsi_id": "unitedstatespostalservice-a77078", "operator": "United States Postal Service", "operator:short": "USPS", "operator:type": "public", "operator:wikidata": "Q668687", "ref": "8632600009"}, "type": "Feature"}
{"dataset_attributes": {"@spider": "usps_collection_boxes", "spider:collection_time": "2023-11-10T08:24:40.300687"}, "geometry": {"coordinates": [-112.02186, 34.739554], "type": "Point"}, "id": "FsVAn9-7BDrkpkgOPAlrmChj38M=", "properties": {"@spider": "usps_collection_boxes", "addr:city": "COTTONWOOD", "addr:country": "US", "addr:full": "700 E MINGUS AVE", "addr:postcode": "86326", "addr:state": "AZ", "amenity": "post_box", "brand": "United States Postal Service", "brand:wikidata": "Q668687", "collection_times": "Mo-Fr 16:30; Sa 15:30", "name": "USPS COLLECTION BOX - PO LOBBY", "note": "ON 12/24 AND 12/31, THIS BOX MAY BE COLLECTED AS EARLY AS 12 NOON.", "nsi_id": "unitedstatespostalservice-a77078", "operator": "United States Postal Service", "operator:short": "USPS", "operator:type": "public", "operator:wikidata": "Q668687", "ref": "8632600011"}, "type": "Feature"}
{"dataset_attributes": {"@spider": "usps_collection_boxes", "spider:collection_time": "2023-11-10T08:24:40.300687"}, "geometry": {"coordinates": [-112.02186, 34.739554], "type": "Point"}, "id": "Ma2q1n3aUKXqD8o-ftAB_0rWaCY=", "properties": {"@spider": "usps_collection_boxes", "addr:city": "COTTONWOOD", "addr:country": "US", "addr:full": "700 E MINGUS AVE", "addr:postcode": "86326", "addr:state": "AZ", "amenity": "post_box", "brand": "United States Postal Service", "brand:wikidata": "Q668687", "collection_times": "Mo-Fr 16:30; Sa 15:30", "name": "USPS COLLECTION BOX - PO LOBBY", "note": "ON 12/24 AND 12/31, THIS BOX MAY BE COLLECTED AS EARLY AS 12 NOON.", "nsi_id": "unitedstatespostalservice-a77078", "operator": "United States Postal Service", "operator:short": "USPS", "operator:type": "public", "operator:wikidata": "Q668687", "ref": "8632600012"}, "type": "Feature"}
{"dataset_attributes": {"@spider": "usps_collection_boxes", "spider:collection_time": "2023-11-10T08:24:40.300687"}, "geometry": {"coordinates": [-112.02186, 34.739554], "type": "Point"}, "id": "N_fk3y6QNzzXWXSczOp9l9WZ5sM=", "properties": {"@spider": "usps_collection_boxes", "addr:city": "COTTONWOOD", "addr:country": "US", "addr:full": "700 E MINGUS AVE", "addr:postcode": "86326", "addr:state": "AZ", "amenity": "post_box", "brand": "United States Postal Service", "brand:wikidata": "Q668687", "collection_times": "Mo-Fr 16:30; Sa 15:30", "name": "USPS COLLECTION BOX - BLUE BOX", "note": "ON 12/24 AND 12/31, THIS BOX MAY BE COLLECTED AS EARLY AS 12 NOON.", "nsi_id": "unitedstatespostalservice-a77078", "operator": "United States Postal Service", "operator:short": "USPS", "operator:type": "public", "operator:wikidata": "Q668687", "ref": "8632600013"}, "type": "Feature"}
{"dataset_attributes": {"@spider": "usps_collection_boxes", "spider:collection_time": "2023-11-10T08:24:40.300687"}, "geometry": {"coordinates": [-112.021241223, 34.73956552], "type": "Point"}, "id": "1-w_bpc2A8Qmt-6mPzKO2KrAQ3k=", "properties": {"@spider": "usps_collection_boxes", "addr:city": "COTTONWOOD", "addr:country": "US", "addr:full": "700 E MINGUS AVE", "addr:postcode": "86326", "addr:state": "AZ", "amenity": "post_box", "brand": "United States Postal Service", "brand:wikidata": "Q668687", "collection_times": "Mo-Fr 16:30; Sa 13:00", "name": "USPS COLLECTION BOX - PO LOBBY", "note": "ON 12/24 AND 12/31, THIS BOX MAY BE COLLECTED AS EARLY AS 12 NOON.", "nsi_id": "unitedstatespostalservice-a77078", "operator": "United States Postal Service", "operator:short": "USPS", "operator:type": "public", "operator:wikidata": "Q668687", "ref": "8632600018"}, "type": "Feature"}
{"dataset_attributes": {"@spider": "usps_collection_boxes", "spider:collection_time": "2023-11-10T08:24:40.300687"}, "geometry": {"coordinates": [-112.248443, 34.538931], "type": "Point"}, "id": "yr2NyUcC1paYwTmvMwYdUQ-4wjM=", "properties": {"@spider": "usps_collection_boxes", "addr:city": "DEWEY", "addr:country": "US", "addr:full": "12420 E KACHINA PL", "addr:postcode": "86327", "addr:state": "AZ", "amenity": "post_box", "brand": "United States Postal Service", "brand:wikidata": "Q668687", "collection_times": "Mo-Fr 16:00; Sa 13:00", "name": "USPS COLLECTION BOX - BLUE BOX", "note": "ON 12/24 AND 12/31, THIS BOX MAY BE COLLECTED AS EARLY AS 12 NOON.", "nsi_id": "unitedstatespostalservice-a77078", "operator": "United States Postal Service", "operator:short": "USPS", "operator:type": "public", "operator:wikidata": "Q668687", "ref": "8632700001"}, "type": "Feature"}
{"dataset_attributes": {"@spider": "usps_collection_boxes", "spider:collection_time": "2023-11-10T08:24:40.300687"}, "geometry": {"coordinates": [-112.267211, 34.569083], "type": "Point"}, "id": "oVTZbSmfyFQEuLUri7wS7DyXxs0=", "properties": {"@spider": "usps_collection_boxes", "addr:city": "DEWEY", "addr:country": "US", "addr:full": "11250 S STATE RTE 69", "addr:postcode": "86327", "addr:state": "AZ", "amenity": "post_box", "brand": "United States Postal Service", "brand:wikidata": "Q668687", "collection_times": "Mo-Sa 11:00", "name": "USPS COLLECTION BOX - BLUE BOX", "nsi_id": "unitedstatespostalservice-a77078", "operator": "United States Postal Service", "operator:short": "USPS", "operator:type": "public", "operator:wikidata": "Q668687", "ref": "8632700003"}, "type": "Feature"}
{"dataset_attributes": {"@spider": "usps_collection_boxes", "spider:collection_time": "2023-11-10T08:24:40.300687"}, "geometry": {"coordinates": [-112.250155, 34.553479], "type": "Point"}, "id": "4oJjnZW_RJz8m-u9cGDCIPn6jsk=", "properties": {"@spider": "usps_collection_boxes", "addr:city": "DEWEY", "addr:country": "US", "addr:full": "12200 S STATE RTE 69", "addr:postcode": "86327", "addr:state": "AZ", "amenity": "post_box", "brand": "United States Postal Service", "brand:wikidata": "Q668687", "collection_times": "Mo-Sa 10:30", "name": "USPS COLLECTION BOX - BLUE BOX", "nsi_id": "unitedstatespostalservice-a77078", "operator": "United States Postal Service", "operator:short": "USPS", "operator:type": "public", "operator:wikidata": "Q668687", "ref": "8632700004"}, "type": "Feature"}
{"dataset_attributes": {"@spider": "usps_collection_boxes", "spider:collection_time": "2023-11-10T08:24:40.300687"}, "geometry": {"coordinates": [-112.262021, 34.559896], "type": "Point"}, "id": "ERSIJPIg02op4nBLlR-U4h_ReUc=", "properties": {"@spider": "usps_collection_boxes", "addr:city": "DEWEY", "addr:country": "US", "addr:full": "11650 E APPALOOSA LN", "addr:postcode": "86327", "addr:state": "AZ", "amenity": "post_box", "brand": "United States Postal Service", "brand:wikidata": "Q668687", "collection_times": "Mo-Sa 10:30", "name": "USPS COLLECTION BOX - BLUE BOX", "nsi_id": "unitedstatespostalservice-a77078", "operator": "United States Postal Service", "operator:short": "USPS", "operator:type": "public", "operator:wikidata": "Q668687", "ref": "8632700005"}, "type": "Feature"}
{"dataset_attributes": {"@spider": "usps_collection_boxes", "spider:collection_time": "2023-11-10T08:24:40.300687"}, "geometry": {"coordinates": [-112.248508, 34.538904], "type": "Point"}, "id": "ClCHEzGMx6vdY8tFQJQ5OPgQSzg=", "properties": {"@spider": "usps_collection_boxes", "addr:city": "DEWEY", "addr:country": "US", "addr:full": "12420 E KACHINA PL", "addr:postcode": "86327", "addr:state": "AZ", "amenity": "post_box", "brand": "United States Postal Service", "brand:wikidata": "Q668687", "collection_times": "Mo-Fr 16:00; Sa 13:00", "name": "USPS COLLECTION BOX - PO LOBBY", "note": "ON 12/24 AND 12/31, THIS BOX MAY BE COLLECTED AS EARLY AS 12 NOON.", "nsi_id": "unitedstatespostalservice-a77078", "operator": "United States Postal Service", "operator:short": "USPS", "operator:type": "public", "operator:wikidata": "Q668687", "ref": "8632700006"}, "type": "Feature"}
{"dataset_attributes": {"@spider": "usps_collection_boxes", "spider:collection_time": "2023-11-10T08:24:40.300687"}, "geometry": {"coordinates": [-112.248508, 34.538904], "type": "Point"}, "id": "dn2WORUvRO3AEO4rZA7R7Vo5-sM=", "properties": {"@spider": "usps_collection_boxes", "addr:city": "DEWEY", "addr:country": "US", "addr:full": "12420 E KACHINA PL", "addr:postcode": "86327", "addr:state": "AZ", "amenity": "post_box", "brand": "United States Postal Service", "brand:wikidata": "Q668687", "collection_times": "Mo-Fr 16:00; Sa 13:00", "name": "USPS COLLECTION BOX - BLUE BOX", "note": "ON 12/24 AND 12/31, THIS BOX MAY BE COLLECTED AS EARLY AS 12 NOON.", "nsi_id": "unitedstatespostalservice-a77078", "operator": "United States Postal Service", "operator:short": "USPS", "operator:type": "public", "operator:wikidata": "Q668687", "ref": "8632700007"}, "type": "Feature"}
{"dataset_attributes": {"@spider": "usps_collection_boxes", "spider:collection_time": "2023-11-10T08:24:40.300687"}, "geometry": {"coordinates": [-112.2484941932, 34.5389265338], "type": "Point"}, "id": "7YkDDqHY076qbeFXdVK9Mcihg4Q=", "properties": {"@spider": "usps_collection_boxes", "addr:city": "DEWEY", "addr:country": "US", "addr:full": "12420 E KACHINA PL", "addr:postcode": "86327", "addr:state": "AZ", "amenity": "post_box", "brand": "United States Postal Service", "brand:wikidata": "Q668687", "collection_times": "Mo-Fr 16:00", "name": "USPS COLLECTION BOX - PO LOBBY", "note": "ON 12/24 AND 12/31, THIS BOX MAY BE COLLECTED AS EARLY AS 12 NOON.", "nsi_id": "unitedstatespostalservice-a77078", "operator": "United States Postal Service", "operator:short": "USPS", "operator:type": "public", "operator:wikidata": "Q668687", "ref": "8632700009"}, "type": "Feature"}
{"dataset_attributes": {"@spider": "usps_collection_boxes", "spider:collection_time": "2023-11-10T08:24:40.300687"}, "geometry": {"coordinates": [-112.241436, 34.502604], "type": "Point"}, "id": "BZUXVEhm7ikhDsr6XA2rt76MBDE=", "properties": {"@spider": "usps_collection_boxes", "addr:city": "HUMBOLDT", "addr:country": "US", "addr:full": "12814 E MAIN ST", "addr:postcode": "86329", "addr:state": "AZ", "amenity": "post_box", "brand": "United States Postal Service", "brand:wikidata": "Q668687", "collection_times": "Mo-Fr 16:00; Sa 09:15", "name": "USPS COLLECTION BOX - BLUE BOX", "note": "ON 12/24 AND 12/31, THIS BOX MAY BE COLLECTED AS EARLY AS 12 NOON.", "nsi_id": "unitedstatespostalservice-a77078", "operator": "United States Postal Service", "operator:short": "USPS", "operator:type": "public", "operator:wikidata": "Q668687", "ref": "8632900003"}, "type": "Feature"}
{"dataset_attributes": {"@spider": "usps_collection_boxes", "spider:collection_time": "2023-11-10T08:24:40.300687"}, "geometry": {"coordinates": [-112.241436, 34.502604], "type": "Point"}, "id": "UHNQtwfuU1S4iPSh3G3CCWjhKSo=", "properties": {"@spider": "usps_collection_boxes", "addr:city": "HUMBOLDT", "addr:country": "US", "addr:full": "12814 E MAIN ST", "addr:postcode": "86329", "addr:state": "AZ", "amenity": "post_box", "brand": "United States Postal Service", "brand:wikidata": "Q668687", "collection_times": "Mo-Fr 16:00; Sa 09:15", "name": "USPS COLLECTION BOX - PO LOBBY", "note": "ON 12/24 AND 12/31, THIS BOX MAY BE COLLECTED AS EARLY AS 12 NOON.", "nsi_id": "unitedstatespostalservice-a77078", "operator": "United States Postal Service", "operator:short": "USPS", "operator:type": "public", "operator:wikidata": "Q668687", "ref": "8632900004"}, "type": "Feature"}
{"dataset_attributes": {"@spider": "usps_collection_boxes", "spider:collection_time": "2023-11-10T08:24:40.300687"}, "geometry": {"coordinates": [-112.241868439, 34.502721337], "type": "Point"}, "id": "R3oeTgxFyZYbq1cVaYvH-GAt3To=", "properties": {"@spider": "usps_collection_boxes", "addr:city": "HUMBOLDT", "addr:country": "US", "addr:full": "12814 E MAIN ST", "addr:postcode": "86329", "addr:state": "AZ", "amenity": "post_box", "brand": "United States Postal Service", "brand:wikidata": "Q668687", "collection_times": "Mo-Fr 16:00", "name": "USPS COLLECTION BOX - PO LOBBY", "note": "ON 12/24 AND 12/31, THIS BOX MAY BE COLLECTED AS EARLY AS 12 NOON.", "nsi_id": "unitedstatespostalservice-a77078", "operator": "United States Postal Service", "operator:short": "USPS", "operator:type": "public", "operator:wikidata": "Q668687", "ref": "8632900005"}, "type": "Feature"}
{"dataset_attributes": {"@spider": "usps_collection_boxes", "spider:collection_time": "2023-11-10T08:24:40.300687"}, "geometry": {"coordinates": [-112.116896, 34.751573], "type": "Point"}, "id": "S70vNUxOxePZe4ZCKKD0KHsKVjY=", "properties": {"@spider": "usps_collection_boxes", "addr:city": "JEROME", "addr:country": "US", "addr:full": "120 MAIN ST", "addr:postcode": "86331", "addr:state": "AZ", "amenity": "post_box", "brand": "United States Postal Service", "brand:wikidata": "Q668687", "collection_times": "Mo-Fr 15:00; Sa 10:30", "name": "USPS COLLECTION BOX - BLUE BOX", "note": "ON 12/24 AND 12/31, THIS BOX MAY BE COLLECTED AS EARLY AS 12 NOON.", "nsi_id": "unitedstatespostalservice-a77078", "operator": "United States Postal Service", "operator:short": "USPS", "operator:type": "public", "operator:wikidata": "Q668687", "ref": "8633100001"}, "type": "Feature"}
{"dataset_attributes": {"@spider": "usps_collection_boxes", "spider:collection_time": "2023-11-10T08:24:40.300687"}, "geometry": {"coordinates": [-112.116896, 34.751573], "type": "Point"}, "id": "LJmJ6ZwgNYFtpMzJxxIHXaeQJvo=", "properties": {"@spider": "usps_collection_boxes", "addr:city": "JEROME", "addr:country": "US", "addr:full": "120 MAIN ST", "addr:postcode": "86331", "addr:state": "AZ", "amenity": "post_box", "brand": "United States Postal Service", "brand:wikidata": "Q668687", "collection_times": "Mo-Fr 15:00; Sa 10:30", "name": "USPS COLLECTION BOX - PO LOBBY", "note": "ON 12/24 AND 12/31, THIS BOX MAY BE COLLECTED AS EARLY AS 12 NOON.", "nsi_id": "unitedstatespostalservice-a77078", "operator": "United States Postal Service", "operator:short": "USPS", "operator:type": "public", "operator:wikidata": "Q668687", "ref": "8633100002"}, "type": "Feature"}
{"dataset_attributes": {"@spider": "usps_collection_boxes", "spider:collection_time": "2023-11-10T08:24:40.300687"}, "geometry": {"coordinates": [-112.1166517904, 34.7514205695], "type": "Point"}, "id": "5EyxGPAp42Tf2CYBakUvtB6tN90=", "properties": {"@spider": "usps_collection_boxes", "addr:city": "JEROME", "addr:country": "US", "addr:full": "120 MAIN ST", "addr:postcode": "86331", "addr:state": "AZ", "amenity": "post_box", "brand": "United States Postal Service", "brand:wikidata": "Q668687", "collection_times": "Mo-Fr 15:00", "name": "USPS COLLECTION BOX - PO LOBBY", "note": "ON 12/24 AND 12/31, THIS BOX MAY BE COLLECTED AS EARLY AS 12 NOON.", "nsi_id": "unitedstatespostalservice-a77078", "operator": "United States Postal Service", "operator:short": "USPS", "operator:type": "public", "operator:wikidata": "Q668687", "ref": "8633100003"}, "type": "Feature"}
{"dataset_attributes": {"@spider": "usps_collection_boxes", "spider:collection_time": "2023-11-10T08:24:40.300687"}, "geometry": {"coordinates": [-112.748886, 34.274143], "type": "Point"}, "id": "cchPlL6UVvRcSjIrcLHM_t8P0SA=", "properties": {"@spider": "usps_collection_boxes", "addr:city": "KIRKLAND", "addr:country": "US", "addr:full": "18912 W HAYS RANCH RD", "addr:postcode": "86332", "addr:state": "AZ", "amenity": "post_box", "brand": "United States Postal Service", "brand:wikidata": "Q668687", "collection_times": "Mo-Fr 11:00", "name": "USPS COLLECTION BOX - BLUE BOX", "nsi_id": "unitedstatespostalservice-a77078", "operator": "United States Postal Service", "operator:short": "USPS", "operator:type": "public", "operator:wikidata": "Q668687", "ref": "8633200001"}, "type": "Feature"}
{"dataset_attributes": {"@spider": "usps_collection_boxes", "spider:collection_time": "2023-11-10T08:24:40.300687"}, "geometry": {"coordinates": [-112.589019, 34.423631], "type": "Point"}, "id": "MIBvV86yUhCmLlIOQXXNiwyYYTM=", "properties": {"@spider": "usps_collection_boxes", "addr:city": "KIRKLAND", "addr:country": "US", "addr:full": "8585 S HIGHWAY 89", "addr:postcode": "86332", "addr:state": "AZ", "amenity": "post_box", "brand": "United States Postal Service", "brand:wikidata": "Q668687", "collection_times": "Mo-Fr 09:30", "name": "USPS COLLECTION BOX - BLUE BOX", "nsi_id": "unitedstatespostalservice-a77078", "operator": "United States Postal Service", "operator:short": "USPS", "operator:type": "public", "operator:wikidata": "Q668687", "ref": "8633200002"}, "type": "Feature"}
{"dataset_attributes": {"@spider": "usps_collection_boxes", "spider:collection_time": "2023-11-10T08:24:40.300687"}, "geometry": {"coordinates": [-112.707109, 34.418074], "type": "Point"}, "id": "BSveapt88iJiUvUuJb2yFc2xr-k=", "properties": {"@spider": "usps_collection_boxes", "addr:city": "KIRKLAND", "addr:country": "US", "addr:full": "8985 S IRON SPRINGS RD", "addr:postcode": "86332", "addr:state": "AZ", "amenity": "post_box", "brand": "United States Postal Service", "brand:wikidata": "Q668687", "collection_times": "Mo-Fr 15:00; Sa 10:00", "name": "USPS COLLECTION BOX - BLUE BOX", "note": "ON 12/24 AND 12/31, THIS BOX MAY BE COLLECTED AS EARLY AS 12 NOON.", "nsi_id": "unitedstatespostalservice-a77078", "operator": "United States Postal Service", "operator:short": "USPS", "operator:type": "public", "operator:wikidata": "Q668687", "ref": "8633200003"}, "type": "Feature"}
{"dataset_attributes": {"@spider": "usps_collection_boxes", "spider:collection_time": "2023-11-10T08:24:40.300687"}, "geometry": {"coordinates": [-112.709819, 34.417303], "type": "Point"}, "id": "ldMoTKkTIN89NyGYDLd9haI0yS0=", "properties": {"@spider": "usps_collection_boxes", "addr:city": "KIRKLAND", "addr:country": "US", "addr:full": "8985 W IRON SPRINGS RD", "addr:postcode": "86332", "addr:state": "AZ", "amenity": "post_box", "brand": "United States Postal Service", "brand:wikidata": "Q668687", "collection_times": "Mo-Fr 14:00; Sa 10:00", "name": "USPS COLLECTION BOX - PO LOBBY", "note": "ON 12/24 AND 12/31, THIS BOX MAY BE COLLECTED AS EARLY AS 12 NOON.", "nsi_id": "unitedstatespostalservice-a77078", "operator": "United States Postal Service", "operator:short": "USPS", "operator:type": "public", "operator:wikidata": "Q668687", "ref": "8633200004"}, "type": "Feature"}
{"dataset_attributes": {"@spider": "usps_collection_boxes", "spider:collection_time": "2023-11-10T08:24:40.300687"}, "geometry": {"coordinates": [-112.707542365, 34.418260763], "type": "Point"}, "id": "BhHEtMFJ4wD8wpz8JyJVMinkkDc=", "properties": {"@spider": "usps_collection_boxes", "addr:city": "KIRKLAND", "addr:country": "US", "addr:full": "8985 W IRON SPRINGS RD", "addr:postcode": "86332", "addr:state": "AZ", "amenity": "post_box", "brand": "United States Postal Service", "brand:wikidata": "Q668687", "collection_times": "Mo-Fr 14:00", "name": "USPS COLLECTION BOX - PO LOBBY", "note": "ON 12/24 AND 12/31, THIS BOX MAY BE COLLECTED AS EARLY AS 12 NOON.", "nsi_id": "unitedstatespostalservice-a77078", "operator": "United States Postal Service", "operator:short": "USPS", "operator:type": "public", "operator:wikidata": "Q668687", "ref": "8633200006"}, "type": "Feature"}
{"dataset_attributes": {"@spider": "usps_collection_boxes", "spider:collection_time": "2023-11-10T08:24:40.300687"}, "geometry": {"coordinates": [-112.118895, 34.326371], "type": "Point"}, "id": "0RZSkjHmgpRkcZNi2r_yvzbwEq8=", "properties": {"@spider": "usps_collection_boxes", "addr:city": "MAYER", "addr:country": "US", "addr:full": "19625 E CORDES LAKES RD", "addr:postcode": "86333", "addr:state": "AZ", "amenity": "post_box", "brand": "United States Postal Service", "brand:wikidata": "Q668687", "collection_times": "Mo-Fr 14:30", "name": "USPS COLLECTION BOX - BLUE BOX", "note": "ON 12/24 AND 12/31, THIS BOX MAY BE COLLECTED AS EARLY AS 12 NOON.", "nsi_id": "unitedstatespostalservice-a77078", "operator": "United States Postal Service", "operator:short": "USPS", "operator:type": "public", "operator:wikidata": "Q668687", "ref": "8633300001"}, "type": "Feature"}
{"dataset_attributes": {"@spider": "usps_collection_boxes", "spider:collection_time": "2023-11-10T08:24:40.300687"}, "geometry": {"coordinates": [-112.159719, 34.349492], "type": "Point"}, "id": "5eVsYem5O40e_OIuS1F-iZ6dF94=", "properties": {"@spider": "usps_collection_boxes", "addr:city": "MAYER", "addr:country": "US", "addr:full": "17301 E SPRING VALLEY RD", "addr:postcode": "86333", "addr:state": "AZ", "amenity": "post_box", "brand": "United States Postal Service", "brand:wikidata": "Q668687", "collection_times": "Mo-Fr 15:00", "name": "USPS COLLECTION BOX - BLUE BOX", "note": "ON 12/24 AND 12/31, THIS BOX MAY BE COLLECTED AS EARLY AS 12 NOON.", "nsi_id": "unitedstatespostalservice-a77078", "operator": "United States Postal Service", "operator:short": "USPS", "operator:type": "public", "operator:wikidata": "Q668687", "ref": "8633300002"}, "type": "Feature"}
{"dataset_attributes": {"@spider": "usps_collection_boxes", "spider:collection_time": "2023-11-10T08:24:40.300687"}, "geometry": {"coordinates": [-112.23854, 34.399963], "type": "Point"}, "id": "TD5OrRdYQmElb-eFlmgfR7n1QsQ=", "properties": {"@spider": "usps_collection_boxes", "addr:city": "MAYER", "addr:country": "US", "addr:full": "12795 E CENTRAL AVE", "addr:postcode": "86333", "addr:state": "AZ", "amenity": "post_box", "brand": "United States Postal Service", "brand:wikidata": "Q668687", "collection_times": "Mo-Fr 16:00; Sa 10:00", "name": "USPS COLLECTION BOX - BLUE BOX", "note": "ON 12/24 AND 12/31, THIS BOX MAY BE COLLECTED AS EARLY AS 12 NOON.", "nsi_id": "unitedstatespostalservice-a77078", "operator": "United States Postal Service", "operator:short": "USPS", "operator:type": "public", "operator:wikidata": "Q668687", "ref": "8633300003"}, "type": "Feature"}
{"dataset_attributes": {"@spider": "usps_collection_boxes", "spider:collection_time": "2023-11-10T08:24:40.300687"}, "geometry": {"coordinates": [-112.107851, 34.314088], "type": "Point"}, "id": "uy9DawnLPSKr75h3vEHunvLZ4lc=", "properties": {"@spider": "usps_collection_boxes", "addr:city": "MAYER", "addr:country": "US", "addr:full": "20183 E STAGECOACH TRL", "addr:postcode": "86333", "addr:state": "AZ", "amenity": "post_box", "brand": "United States Postal Service", "brand:wikidata": "Q668687", "collection_times": "Mo-Fr 14:45", "name": "USPS COLLECTION BOX - BLUE BOX", "note": "ON 12/24 AND 12/31, THIS BOX MAY BE COLLECTED AS EARLY AS 12 NOON.", "nsi_id": "unitedstatespostalservice-a77078", "operator": "United States Postal Service", "operator:short": "USPS", "operator:type": "public", "operator:wikidata": "Q668687", "ref": "8633300004"}, "type": "Feature"}
{"dataset_attributes": {"@spider": "usps_collection_boxes", "spider:collection_time": "2023-11-10T08:24:40.300687"}, "geometry": {"coordinates": [-112.238443, 34.399926], "type": "Point"}, "id": "fG0ffVEoSmYnwxa3oZlJnSwuPpo=", "properties": {"@spider": "usps_collection_boxes", "addr:city": "MAYER", "addr:country": "US", "addr:full": "12795 E CENTRAL AVE", "addr:postcode": "86333", "addr:state": "AZ", "amenity": "post_box", "brand": "United States Postal Service", "brand:wikidata": "Q668687", "collection_times": "Mo-Fr 16:00; Sa 10:00", "name": "USPS COLLECTION BOX - PO LOBBY", "note": "ON 12/24 AND 12/31, THIS BOX MAY BE COLLECTED AS EARLY AS 12 NOON.", "nsi_id": "unitedstatespostalservice-a77078", "operator": "United States Postal Service", "operator:short": "USPS", "operator:type": "public", "operator:wikidata": "Q668687", "ref": "8633300005"}, "type": "Feature"}
{"dataset_attributes": {"@spider": "usps_collection_boxes", "spider:collection_time": "2023-11-10T08:24:40.300687"}, "geometry": {"coordinates": [-112.23841958, 34.399863715], "type": "Point"}, "id": "-g3rFUJIMqrYkaV9igctsHLBm9Q=", "properties": {"@spider": "usps_collection_boxes", "addr:city": "MAYER", "addr:country": "US", "addr:full": "12795 E CENTRAL AVE", "addr:postcode": "86333", "addr:state": "AZ", "amenity": "post_box", "brand": "United States Postal Service", "brand:wikidata": "Q668687", "collection_times": "Mo-Fr 16:00", "name": "USPS COLLECTION BOX - PO LOBBY", "note": "ON 12/24 AND 12/31, THIS BOX MAY BE COLLECTED AS EARLY AS 12 NOON.", "nsi_id": "unitedstatespostalservice-a77078", "operator": "United States Postal Service", "operator:short": "USPS", "operator:type": "public", "operator:wikidata": "Q668687", "ref": "8633300007"}, "type": "Feature"}
{"dataset_attributes": {"@spider": "usps_collection_boxes", "spider:collection_time": "2023-11-10T08:24:40.300687"}, "geometry": {"coordinates": [-112.467646, 34.888061], "type": "Point"}, "id": "IQsgwWwwikLVDIZbn5Tj85yU9o0=", "properties": {"@spider": "usps_collection_boxes", "addr:city": "PAULDEN", "addr:country": "US", "addr:full": "23375 N HIGHWAY 89", "addr:postcode": "86334", "addr:state": "AZ", "amenity": "post_box", "brand": "United States Postal Service", "brand:wikidata": "Q668687", "collection_times": "Mo-Fr 15:30; Sa 10:00", "name": "USPS COLLECTION BOX - BLUE BOX", "note": "ON 12/24 AND 12/31, THIS BOX MAY BE COLLECTED AS EARLY AS 12 NOON.", "nsi_id": "unitedstatespostalservice-a77078", "operator": "United States Postal Service", "operator:short": "USPS", "operator:type": "public", "operator:wikidata": "Q668687", "ref": "8633400001"}, "type": "Feature"}
{"dataset_attributes": {"@spider": "usps_collection_boxes", "spider:collection_time": "2023-11-10T08:24:40.300687"}, "geometry": {"coordinates": [-112.467646, 34.888061], "type": "Point"}, "id": "FXlnzMNfrRvteATCJptVqxMresM=", "properties": {"@spider": "usps_collection_boxes", "addr:city": "PAULDEN", "addr:country": "US", "addr:full": "23375 N HIGHWAY 89", "addr:postcode": "86334", "addr:state": "AZ", "amenity": "post_box", "brand": "United States Postal Service", "brand:wikidata": "Q668687", "collection_times": "Mo-Fr 15:30; Sa 10:00", "name": "USPS COLLECTION BOX - PO LOBBY", "note": "ON 12/24 AND 12/31, THIS BOX MAY BE COLLECTED AS EARLY AS 12 NOON.", "nsi_id": "unitedstatespostalservice-a77078", "operator": "United States Postal Service", "operator:short": "USPS", "operator:type": "public", "operator:wikidata": "Q668687", "ref": "8633400002"}, "type": "Feature"}
{"dataset_attributes": {"@spider": "usps_collection_boxes", "spider:collection_time": "2023-11-10T08:24:40.300687"}, "geometry": {"coordinates": [-112.467617504, 34.888097028], "type": "Point"}, "id": "HCQOAy7dAasfNG4bjqW01UOTHZU=", "properties": {"@spider": "usps_collection_boxes", "addr:city": "PAULDEN", "addr:country": "US", "addr:full": "23375 N STATE ROUTE 89", "addr:postcode": "86334", "addr:state": "AZ", "amenity": "post_box", "brand": "United States Postal Service", "brand:wikidata": "Q668687", "collection_times": "Mo-Fr 15:30", "name": "USPS COLLECTION BOX - PO LOBBY", "note": "ON 12/24 AND 12/31, THIS BOX MAY BE COLLECTED AS EARLY AS 12 NOON.", "nsi_id": "unitedstatespostalservice-a77078", "operator": "United States Postal Service", "operator:short": "USPS", "operator:type": "public", "operator:wikidata": "Q668687", "ref": "8633400003"}, "type": "Feature"}
{"dataset_attributes": {"@spider": "usps_collection_boxes", "spider:collection_time": "2023-11-10T08:24:40.300687"}, "geometry": {"coordinates": [-111.785243, 34.644245], "type": "Point"}, "id": "7Upi_qPxNlsZfdiKfgv3yyxIMio=", "properties": {"@spider": "usps_collection_boxes", "addr:city": "RIMROCK", "addr:country": "US", "addr:full": "5235 N LOOKOUT POINT RD", "addr:postcode": "86335", "addr:state": "AZ", "amenity": "post_box", "brand": "United States Postal Service", "brand:wikidata": "Q668687", "collection_times": "Mo-Fr 15:45; Sa 08:00", "name": "USPS COLLECTION BOX - BLUE BOX", "note": "ON 12/24 AND 12/31, THIS BOX MAY BE COLLECTED AS EARLY AS 12 NOON.", "nsi_id": "unitedstatespostalservice-a77078", "operator": "United States Postal Service", "operator:short": "USPS", "operator:type": "public", "operator:wikidata": "Q668687", "ref": "8633500001"}, "type": "Feature"}
{"dataset_attributes": {"@spider": "usps_collection_boxes", "spider:collection_time": "2023-11-10T08:24:40.300687"}, "geometry": {"coordinates": [-111.785277, 34.64419], "type": "Point"}, "id": "YLMEoo_Jg2-gr5lzkyyjUOwgRgo=", "properties": {"@spider": "usps_collection_boxes", "addr:city": "RIMROCK", "addr:country": "US", "addr:full": "5235 N LOOKOUT POINT RD", "addr:postcode": "86335", "addr:state": "AZ", "amenity": "post_box", "brand": "United States Postal Service", "brand:wikidata": "Q668687", "collection_times": "Mo-Fr 15:45; Sa 08:00", "name": "USPS COLLECTION BOX - PO LOBBY", "note": "ON 12/24 AND 12/31, THIS BOX MAY BE COLLECTED AS EARLY AS 12 NOON.", "nsi_id": "unitedstatespostalservice-a77078", "operator": "United States Postal Service", "operator:short": "USPS", "operator:type": "public", "operator:wikidata": "Q668687", "ref": "8633500003"}, "type": "Feature"}
{"dataset_attributes": {"@spider": "usps_collection_boxes", "spider:collection_time": "2023-11-10T08:24:40.300687"}, "geometry": {"coordinates": [-111.785240125, 34.6450474643], "type": "Point"}, "id": "nADf-kx_j1h1J_f6gnQBbsT0O24=", "properties": {"@spider": "usps_collection_boxes", "addr:city": "RIMROCK", "addr:country": "US", "addr:full": "5235 N LOOKOUT POINT RD", "addr:postcode": "86335", "addr:state": "AZ", "amenity": "post_box", "brand": "United States Postal Service", "brand:wikidata": "Q668687", "collection_times": "Mo-Fr 15:45", "name": "USPS COLLECTION BOX - PO LOBBY", "note": "ON 12/24 AND 12/31, THIS BOX MAY BE COLLECTED AS EARLY AS 12 NOON.", "nsi_id": "unitedstatespostalservice-a77078", "operator": "United States Postal Service", "operator:short": "USPS", "operator:type": "public", "operator:wikidata": "Q668687", "ref": "8633500005"}, "type": "Feature"}
{"dataset_attributes": {"@spider": "usps_collection_boxes", "spider:collection_time": "2023-11-10T08:24:40.300687"}, "geometry": {"coordinates": [-111.764538, 34.866043], "type": "Point"}, "id": "y8DV6YooUIW4qjtU_MA1DFOAQd8=", "properties": {"@spider": "usps_collection_boxes", "addr:city": "SEDONA", "addr:country": "US", "addr:full": "190 W STATE ROUTE 89A", "addr:postcode": "86336", "addr:state": "AZ", "amenity": "post_box", "brand": "United States Postal Service", "brand:wikidata": "Q668687", "collection_times": "Mo-Fr 17:00; Sa 16:30", "name": "USPS COLLECTION BOX - BLUE BOX", "note": "ON 12/24 AND 12/31, THIS BOX MAY BE COLLECTED AS EARLY AS 12 NOON.", "nsi_id": "unitedstatespostalservice-a77078", "operator": "United States Postal Service", "operator:short": "USPS", "operator:type": "public", "operator:wikidata": "Q668687", "ref": "8633600001"}, "type": "Feature"}
{"dataset_attributes": {"@spider": "usps_collection_boxes", "spider:collection_time": "2023-11-10T08:24:40.300687"}, "geometry": {"coordinates": [-111.796537, 34.861629], "type": "Point"}, "id": "6lccOPFGbzRFnJYYyCa_5YrvE70=", "properties": {"@spider": "usps_collection_boxes", "addr:city": "SEDONA", "addr:country": "US", "addr:full": "205 SUNSET DR", "addr:postcode": "86336", "addr:state": "AZ", "amenity": "post_box", "brand": "United States Postal Service", "brand:wikidata": "Q668687", "collection_times": "Mo-Sa 10:00", "name": "USPS COLLECTION BOX - BLUE BOX", "nsi_id": "unitedstatespostalservice-a77078", "operator": "United States Postal Service", "operator:short": "USPS", "operator:type": "public", "operator:wikidata": "Q668687", "ref": "8633600003"}, "type": "Feature"}
{"dataset_attributes": {"@spider": "usps_collection_boxes", "spider:collection_time": "2023-11-10T08:24:40.300687"}, "geometry": {"coordinates": [-111.761049322, 34.870297822], "type": "Point"}, "id": "N4FETLUccNWQ0AxKFc_x0ZTQR_Q=", "properties": {"@spider": "usps_collection_boxes", "addr:city": "SEDONA", "addr:country": "US", "addr:full": "254 JORDAN RD", "addr:postcode": "86336", "addr:state": "AZ", "amenity": "post_box", "brand": "United States Postal Service", "brand:wikidata": "Q668687", "collection_times": "Mo-Sa 09:15", "name": "USPS COLLECTION BOX - BLUE BOX", "nsi_id": "unitedstatespostalservice-a77078", "operator": "United States Postal Service", "operator:short": "USPS", "operator:type": "public", "operator:wikidata": "Q668687", "ref": "8633600004"}, "type": "Feature"}
{"dataset_attributes": {"@spider": "usps_collection_boxes", "spider:collection_time": "2023-11-10T08:24:40.300687"}, "geometry": {"coordinates": [-111.797678, 34.863613], "type": "Point"}, "id": "eLnaEq0uB1z6vYYxljTNXHub420=", "properties": {"@spider": "usps_collection_boxes", "addr:city": "SEDONA", "addr:country": "US", "addr:full": "2081 W STATE ROUTE 89A", "addr:postcode": "86336", "addr:state": "AZ", "amenity": "post_box", "brand": "United States Postal Service", "brand:wikidata": "Q668687", "collection_times": "Mo-Fr 16:30; Sa 13:00", "name": "USPS COLLECTION BOX - BLUE BOX", "note": "ON 12/24 AND 12/31, THIS BOX MAY BE COLLECTED AS EARLY AS 12 NOON.", "nsi_id": "unitedstatespostalservice-a77078", "operator": "United States Postal Service", "operator:short": "USPS", "operator:type": "public", "operator:wikidata": "Q668687", "ref": "8633600007"}, "type": "Feature"}
{"dataset_attributes": {"@spider": "usps_collection_boxes", "spider:collection_time": "2023-11-10T08:24:40.300687"}, "geometry": {"coordinates": [-111.791462, 34.863132], "type": "Point"}, "id": "AoCxaSsRzHM-7WOdT8an3xNgtKo=", "properties": {"@spider": "usps_collection_boxes", "addr:city": "SEDONA", "addr:country": "US", "addr:full": "1785 W STATE ROUTE 89A", "addr:postcode": "86336", "addr:state": "AZ", "amenity": "post_box", "brand": "United States Postal Service", "brand:wikidata": "Q668687", "collection_times": "Mo-Sa 10:30", "name": "USPS COLLECTION BOX - BLUE BOX", "nsi_id": "unitedstatespostalservice-a77078", "operator": "United States Postal Service", "operator:short": "USPS", "operator:type": "public", "operator:wikidata": "Q668687", "ref": "8633600008"}, "type": "Feature"}
{"dataset_attributes": {"@spider": "usps_collection_boxes", "spider:collection_time": "2023-11-10T08:24:40.300687"}, "geometry": {"coordinates": [-111.801046, 34.864615], "type": "Point"}, "id": "n3I6CpM7qWQH4FQhIfYbm4z8Slg=", "properties": {"@spider": "usps_collection_boxes", "addr:city": "SEDONA", "addr:country": "US", "addr:full": "2350 W STATE ROUTE 89A", "addr:postcode": "86336", "addr:state": "AZ", "amenity": "post_box", "brand": "United States Postal Service", "brand:wikidata": "Q668687", "collection_times": "Mo-Sa 09:15", "name": "USPS COLLECTION BOX - BLUE BOX", "nsi_id": "unitedstatespostalservice-a77078", "operator": "United States Postal Service", "operator:short": "USPS", "operator:type": "public", "operator:wikidata": "Q668687", "ref": "8633600009"}, "type": "Feature"}
{"dataset_attributes": {"@spider": "usps_collection_boxes", "spider:collection_time": "2023-11-10T08:24:40.300687"}, "geometry": {"coordinates": [-111.794694, 34.865925], "type": "Point"}, "id": "UNed8Zr8eC-58ZVmm-twTM_Wc8g=", "properties": {"@spider": "usps_collection_boxes", "addr:city": "SEDONA", "addr:country": "US", "addr:full": "160 COFFEE POT DR", "addr:postcode": "86336", "addr:state": "AZ", "amenity": "post_box", "brand": "United States Postal Service", "brand:wikidata": "Q668687", "collection_times": "Mo-Sa 13:00", "name": "USPS COLLECTION BOX - BLUE BOX", "note": "ON 12/24 AND 12/31, THIS BOX MAY BE COLLECTED AS EARLY AS 12 NOON.", "nsi_id": "unitedstatespostalservice-a77078", "operator": "United States Postal Service", "operator:short": "USPS", "operator:type": "public", "operator:wikidata": "Q668687", "ref": "8633600013"}, "type": "Feature"}
{"dataset_attributes": {"@spider": "usps_collection_boxes", "spider:collection_time": "2023-11-10T08:24:40.300687"}, "geometry": {"coordinates": [-111.86859, 34.843848], "type": "Point"}, "id": "fDwjaM436a7kBilQxbpmIF5_JZM=", "properties": {"@spider": "usps_collection_boxes", "addr:city": "SEDONA", "addr:country": "US", "addr:full": "6770 W STATE ROUTE 89A", "addr:postcode": "86336", "addr:state": "AZ", "amenity": "post_box", "brand": "United States Postal Service", "brand:wikidata": "Q668687", "collection_times": "Mo-Sa 09:00", "name": "USPS COLLECTION BOX - BLUE BOX", "nsi_id": "unitedstatespostalservice-a77078", "operator": "United States Postal Service", "operator:short": "USPS", "operator:type": "public", "operator:wikidata": "Q668687", "ref": "8633600016"}, "type": "Feature"}
{"dataset_attributes": {"@spider": "usps_collection_boxes", "spider:collection_time": "2023-11-10T08:24:40.300687"}, "geometry": {"coordinates": [-111.797678, 34.863613], "type": "Point"}, "id": "V-6ssXA1lrYa3oJyaqaKrI010mI=", "properties": {"@spider": "usps_collection_boxes", "addr:city": "SEDONA", "addr:country": "US", "addr:full": "2081 W STATE ROUTE 89A", "addr:postcode": "86336", "addr:state": "AZ", "amenity": "post_box", "brand": "United States Postal Service", "brand:wikidata": "Q668687", "collection_times": "Mo-Fr 16:30; Sa 13:00", "name": "USPS COLLECTION BOX - BLUE BOX", "note": "ON 12/24 AND 12/31, THIS BOX MAY BE COLLECTED AS EARLY AS 12 NOON.", "nsi_id": "unitedstatespostalservice-a77078", "operator": "United States Postal Service", "operator:short": "USPS", "operator:type": "public", "operator:wikidata": "Q668687", "ref": "8633600017"}, "type": "Feature"}
{"dataset_attributes": {"@spider": "usps_collection_boxes", "spider:collection_time": "2023-11-10T08:24:40.300687"}, "geometry": {"coordinates": [-111.764538, 34.866043], "type": "Point"}, "id": "jpSEs_5rKUkJ42CC-UqA8PrRfb4=", "properties": {"@spider": "usps_collection_boxes", "addr:city": "SEDONA", "addr:country": "US", "addr:full": "190 W STATE ROUTE 89A", "addr:postcode": "86336", "addr:state": "AZ", "amenity": "post_box", "brand": "United States Postal Service", "brand:wikidata": "Q668687", "collection_times": "Mo-Fr 17:00; Sa 16:30", "name": "USPS COLLECTION BOX - PO LOBBY", "note": "ON 12/24 AND 12/31, THIS BOX MAY BE COLLECTED AS EARLY AS 12 NOON.", "nsi_id": "unitedstatespostalservice-a77078", "operator": "United States Postal Service", "operator:short": "USPS", "operator:type": "public", "operator:wikidata": "Q668687", "ref": "8633600020"}, "type": "Feature"}
{"dataset_attributes": {"@spider": "usps_collection_boxes", "spider:collection_time": "2023-11-10T08:24:40.300687"}, "geometry": {"coordinates": [-111.797678, 34.863613], "type": "Point"}, "id": "UTZPHlZylk3yGEBjs0qYbt6_9SY=", "properties": {"@spider": "usps_collection_boxes", "addr:city": "SEDONA", "addr:country": "US", "addr:full": "2081 W STATE ROUTE 89A", "addr:postcode": "86336", "addr:state": "AZ", "amenity": "post_box", "brand": "United States Postal Service", "brand:wikidata": "Q668687", "collection_times": "Mo-Fr 16:30; Sa 13:00", "name": "USPS COLLECTION BOX - PO LOBBY", "note": "ON 12/24 AND 12/31, THIS BOX MAY BE COLLECTED AS EARLY AS 12 NOON.", "nsi_id": "unitedstatespostalservice-a77078", "operator": "United States Postal Service", "operator:short": "USPS", "operator:type": "public", "operator:wikidata": "Q668687", "ref": "8633600021"}, "type": "Feature"}
{"dataset_attributes": {"@spider": "usps_collection_boxes", "spider:collection_time": "2023-11-10T08:24:40.300687"}, "geometry": {"coordinates": [-111.7645598247, 34.8660924363], "type": "Point"}, "id": "wRUbJRNV8mOt6RCZQ-PHQqSNeXw=", "properties": {"@spider": "usps_collection_boxes", "addr:city": "SEDONA", "addr:country": "US", "addr:full": "190 W STATE ROUTE 89A", "addr:postcode": "86336", "addr:state": "AZ", "amenity": "post_box", "brand": "United States Postal Service", "brand:wikidata": "Q668687", "collection_times": "Mo-Fr 17:00; Sa 16:30", "name": "USPS COLLECTION BOX - PO LOBBY", "note": "ON 12/24 AND 12/31, THIS BOX MAY BE COLLECTED AS EARLY AS 12 NOON.", "nsi_id": "unitedstatespostalservice-a77078", "operator": "United States Postal Service", "operator:short": "USPS", "operator:type": "public", "operator:wikidata": "Q668687", "ref": "8633600024"}, "type": "Feature"}
{"dataset_attributes": {"@spider": "usps_collection_boxes", "spider:collection_time": "2023-11-10T08:24:40.300687"}, "geometry": {"coordinates": [-111.797469902, 34.863632618], "type": "Point"}, "id": "B7sBwo8HyOMFgj3Iag_4Ncs2G3s=", "properties": {"@spider": "usps_collection_boxes", "addr:city": "SEDONA", "addr:country": "US", "addr:full": "2081 W STATE ROUTE 89A", "addr:postcode": "86336", "addr:state": "AZ", "amenity": "post_box", "brand": "United States Postal Service", "brand:wikidata": "Q668687", "collection_times": "Mo-Fr 16:30", "name": "USPS COLLECTION BOX - PO LOBBY", "note": "ON 12/24 AND 12/31, THIS BOX MAY BE COLLECTED AS EARLY AS 12 NOON.", "nsi_id": "unitedstatespostalservice-a77078", "operator": "United States Postal Service", "operator:short": "USPS", "operator:type": "public", "operator:wikidata": "Q668687", "ref": "8633600025"}, "type": "Feature"}
{"dataset_attributes": {"@spider": "usps_collection_boxes", "spider:collection_time": "2023-11-10T08:24:40.300687"}, "geometry": {"coordinates": [-112.882687134, 35.328198933], "type": "Point"}, "id": "6eUZ9n_Jhe5dc5UAW-oFn24di_0=", "properties": {"@spider": "usps_collection_boxes", "addr:city": "SELIGMAN", "addr:country": "US", "addr:full": "22801 W OLD HIGHWAY 66", "addr:postcode": "86337", "addr:state": "AZ", "amenity": "post_box", "brand": "United States Postal Service", "brand:wikidata": "Q668687", "collection_times": "Mo-Fr 14:30; Sa 09:45", "name": "USPS COLLECTION BOX - BLUE BOX", "note": "ON 12/24 AND 12/31, THIS BOX MAY BE COLLECTED AS EARLY AS 12 NOON.", "nsi_id": "unitedstatespostalservice-a77078", "operator": "United States Postal Service", "operator:short": "USPS", "operator:type": "public", "operator:wikidata": "Q668687", "ref": "8633700001"}, "type": "Feature"}
{"dataset_attributes": {"@spider": "usps_collection_boxes", "spider:collection_time": "2023-11-10T08:24:40.300687"}, "geometry": {"coordinates": [-112.882687134, 35.328198933], "type": "Point"}, "id": "WvqInvvitidb-aq7XKb_eEPyWAI=", "properties": {"@spider": "usps_collection_boxes", "addr:city": "SELIGMAN", "addr:country": "US", "addr:full": "22801 W OLD HIGHWAY 66", "addr:postcode": "86337", "addr:state": "AZ", "amenity": "post_box", "brand": "United States Postal Service", "brand:wikidata": "Q668687", "collection_times": "Mo-Fr 14:30; Sa 09:45", "name": "USPS COLLECTION BOX - PO LOBBY", "note": "ON 12/24 AND 12/31, THIS BOX MAY BE COLLECTED AS EARLY AS 12 NOON.", "nsi_id": "unitedstatespostalservice-a77078", "operator": "United States Postal Service", "operator:short": "USPS", "operator:type": "public", "operator:wikidata": "Q668687", "ref": "8633700002"}, "type": "Feature"}
{"dataset_attributes": {"@spider": "usps_collection_boxes", "spider:collection_time": "2023-11-10T08:24:40.300687"}, "geometry": {"coordinates": [-112.882687134, 35.328198933], "type": "Point"}, "id": "G3Va-YnP53__rxmD0PPdMfsWMoI=", "properties": {"@spider": "usps_collection_boxes", "addr:city": "SELIGMAN", "addr:country": "US", "addr:full": "22801 W OLD HIGHWAY 66", "addr:postcode": "86337", "addr:state": "AZ", "amenity": "post_box", "brand": "United States Postal Service", "brand:wikidata": "Q668687", "collection_times": "Mo-Fr 14:30", "name": "USPS COLLECTION BOX - PO LOBBY", "note": "ON 12/24 AND 12/31, THIS BOX MAY BE COLLECTED AS EARLY AS 12 NOON.", "nsi_id": "unitedstatespostalservice-a77078", "operator": "United States Postal Service", "operator:short": "USPS", "operator:type": "public", "operator:wikidata": "Q668687", "ref": "8633700003"}, "type": "Feature"}
{"dataset_attributes": {"@spider": "usps_collection_boxes", "spider:collection_time": "2023-11-10T08:24:40.300687"}, "geometry": {"coordinates": [-112.6839, 34.503105], "type": "Point"}, "id": "ci4czanNraVQySOQ1XwSFpC8Cb8=", "properties": {"@spider": "usps_collection_boxes", "addr:city": "SKULL VALLEY", "addr:country": "US", "addr:full": "3085 S IRON SPRINGS RD", "addr:postcode": "86338", "addr:state": "AZ", "amenity": "post_box", "brand": "United States Postal Service", "brand:wikidata": "Q668687", "collection_times": "Mo-Fr 11:00; Sa 09:00", "name": "USPS COLLECTION BOX - PO LOBBY", "nsi_id": "unitedstatespostalservice-a77078", "operator": "United States Postal Service", "operator:short": "USPS", "operator:type": "public", "operator:wikidata": "Q668687", "ref": "8633800000"}, "type": "Feature"}
{"dataset_attributes": {"@spider": "usps_collection_boxes", "spider:collection_time": "2023-11-10T08:24:40.300687"}, "geometry": {"coordinates": [-112.683633, 34.503008], "type": "Point"}, "id": "1Bt_w4uL1yQEvFyvmNXtRyhhaV4=", "properties": {"@spider": "usps_collection_boxes", "addr:city": "SKULL VALLEY", "addr:country": "US", "addr:full": "3085 S IRON SPRINGS RD", "addr:postcode": "86338", "addr:state": "AZ", "amenity": "post_box", "brand": "United States Postal Service", "brand:wikidata": "Q668687", "collection_times": "Mo-Fr 15:45; Sa 09:00", "name": "USPS COLLECTION BOX - BLUE BOX", "note": "ON 12/24 AND 12/31, THIS BOX MAY BE COLLECTED AS EARLY AS 12 NOON.", "nsi_id": "unitedstatespostalservice-a77078", "operator": "United States Postal Service", "operator:short": "USPS", "operator:type": "public", "operator:wikidata": "Q668687", "ref": "8633800001"}, "type": "Feature"}
{"dataset_attributes": {"@spider": "usps_collection_boxes", "spider:collection_time": "2023-11-10T08:24:40.300687"}, "geometry": {"coordinates": [-112.683825987, 34.502994167], "type": "Point"}, "id": "U8oZ9dcZASIyKqYupGJeE67hulM=", "properties": {"@spider": "usps_collection_boxes", "addr:city": "SKULL VALLEY", "addr:country": "US", "addr:full": "3085 S IRON SPRINGS RD", "addr:postcode": "86338", "addr:state": "AZ", "amenity": "post_box", "brand": "United States Postal Service", "brand:wikidata": "Q668687", "collection_times": "Mo-Fr 13:30", "name": "USPS COLLECTION BOX - PO LOBBY", "note": "ON 12/24 AND 12/31, THIS BOX MAY BE COLLECTED AS EARLY AS 12 NOON.", "nsi_id": "unitedstatespostalservice-a77078", "operator": "United States Postal Service", "operator:short": "USPS", "operator:type": "public", "operator:wikidata": "Q668687", "ref": "8633800002"}, "type": "Feature"}
{"dataset_attributes": {"@spider": "usps_collection_boxes", "spider:collection_time": "2023-11-10T08:24:40.300687"}, "geometry": {"coordinates": [-112.3386409205, 34.2057882173], "type": "Point"}, "id": "eyn8DtnNYeFYGr9khERh_cvKuf4=", "properties": {"@spider": "usps_collection_boxes", "addr:city": "MAYER", "addr:country": "US", "addr:full": "7251 MAIN ST", "addr:postcode": "86343", "addr:state": "AZ", "amenity": "post_box", "brand": "United States Postal Service", "brand:wikidata": "Q668687", "collection_times": "Mo-Fr 12:00", "name": "USPS COLLECTION BOX - PO LOBBY", "nsi_id": "unitedstatespostalservice-a77078", "operator": "United States Postal Service", "operator:short": "USPS", "operator:type": "public", "operator:wikidata": "Q668687", "ref": "8634300001"}, "type": "Feature"}
{"dataset_attributes": {"@spider": "usps_collection_boxes", "spider:collection_time": "2023-11-10T08:24:40.300687"}, "geometry": {"coordinates": [-111.764378, 34.779881], "type": "Point"}, "id": "qx7ilkPh9vPFIn5RNHOyBZpy4Ow=", "properties": {"@spider": "usps_collection_boxes", "addr:city": "SEDONA", "addr:country": "US", "addr:full": "45 W CORTEZ DR", "addr:postcode": "86351", "addr:state": "AZ", "amenity": "post_box", "brand": "United States Postal Service", "brand:wikidata": "Q668687", "collection_times": "Mo-Fr 17:00; Sa 12:00", "name": "USPS COLLECTION BOX - BLUE BOX", "note": "ON 12/24 AND 12/31, THIS BOX MAY BE COLLECTED AS EARLY AS 12 NOON.", "nsi_id": "unitedstatespostalservice-a77078", "operator": "United States Postal Service", "operator:short": "USPS", "operator:type": "public", "operator:wikidata": "Q668687", "ref": "8635100006"}, "type": "Feature"}
{"dataset_attributes": {"@spider": "usps_collection_boxes", "spider:collection_time": "2023-11-10T08:24:40.300687"}, "geometry": {"coordinates": [-111.764434, 34.77993], "type": "Point"}, "id": "6hrKW9kgqNanQeXSRfMO4632xik=", "properties": {"@spider": "usps_collection_boxes", "addr:city": "SEDONA", "addr:country": "US", "addr:full": "45 W CORTEZ DR", "addr:postcode": "86351", "addr:state": "AZ", "amenity": "post_box", "brand": "United States Postal Service", "brand:wikidata": "Q668687", "collection_times": "Mo-Fr 17:00; Sa 12:00", "name": "USPS COLLECTION BOX - BLUE BOX", "note": "ON 12/24 AND 12/31, THIS BOX MAY BE COLLECTED AS EARLY AS 12 NOON.", "nsi_id": "unitedstatespostalservice-a77078", "operator": "United States Postal Service", "operator:short": "USPS", "operator:type": "public", "operator:wikidata": "Q668687", "ref": "8635100007"}, "type": "Feature"}
{"dataset_attributes": {"@spider": "usps_collection_boxes", "spider:collection_time": "2023-11-10T08:24:40.300687"}, "geometry": {"coordinates": [-111.764261, 34.779801], "type": "Point"}, "id": "60e-d3i0W0SLFvSkI-aiWpjxPY4=", "properties": {"@spider": "usps_collection_boxes", "addr:city": "SEDONA", "addr:country": "US", "addr:full": "45 W CORTEZ DR", "addr:postcode": "86351", "addr:state": "AZ", "amenity": "post_box", "brand": "United States Postal Service", "brand:wikidata": "Q668687", "collection_times": "Mo-Fr 17:00; Sa 12:00", "name": "USPS COLLECTION BOX - PO LOBBY", "note": "ON 12/24 AND 12/31, THIS BOX MAY BE COLLECTED AS EARLY AS 12 NOON.", "nsi_id": "unitedstatespostalservice-a77078", "operator": "United States Postal Service", "operator:short": "USPS", "operator:type": "public", "operator:wikidata": "Q668687", "ref": "8635100010"}, "type": "Feature"}
{"dataset_attributes": {"@spider": "usps_collection_boxes", "spider:collection_time": "2023-11-10T08:24:40.300687"}, "geometry": {"coordinates": [-111.764160639, 34.780134513], "type": "Point"}, "id": "cXNZEYqj58B6jFkoxZ89Vk28YBc=", "properties": {"@spider": "usps_collection_boxes", "addr:city": "SEDONA", "addr:country": "US", "addr:full": "45 W CORTEZ DR", "addr:postcode": "86351", "addr:state": "AZ", "amenity": "post_box", "brand": "United States Postal Service", "brand:wikidata": "Q668687", "collection_times": "Mo-Fr 17:00", "name": "USPS COLLECTION BOX - PO LOBBY", "note": "ON 12/24 AND 12/31, THIS BOX MAY BE COLLECTED AS EARLY AS 12 NOON.", "nsi_id": "unitedstatespostalservice-a77078", "operator": "United States Postal Service", "operator:short": "USPS", "operator:type": "public", "operator:wikidata": "Q668687", "ref": "8635100011"}, "type": "Feature"}
