{"dataset_attributes": {"@spider": "usps_collection_boxes", "spider:collection_time": "2023-09-01T08:24:43.385582"}, "geometry": {"coordinates": [-114.0579309217, 35.1892668968], "type": "Point"}, "id": "b5vErm7S238REBzzgjmTUfFVA1I=", "properties": {"@spider": "usps_collection_boxes", "addr:city": "KINGMAN", "addr:country": "US", "addr:full": "100 W ANDY DEVINE AVE", "addr:postcode": "86401", "addr:state": "AZ", "amenity": "post_box", "brand": "United States Postal Service", "brand:wikidata": "Q668687", "collection_times": "Mo-Sa 10:00", "name": "USPS COLLECTION BOX - BLUE BOX", "nsi_id": "unitedstatespostalservice-a77078", "operator": "United States Postal Service", "operator:short": "USPS", "operator:type": "public", "operator:wikidata": "Q668687", "ref": "8640100003"}, "type": "Feature"}
{"dataset_attributes": {"@spider": "usps_collection_boxes", "spider:collection_time": "2023-09-01T08:24:43.385582"}, "geometry": {"coordinates": [-114.03401, 35.195894], "type": "Point"}, "id": "N8KSCwA7h-8CoGKoQpv3Nd8MYCE=", "properties": {"@spider": "usps_collection_boxes", "addr:city": "KINGMAN", "addr:country": "US", "addr:full": "1901 JOHNSON AVE", "addr:postcode": "86401", "addr:state": "AZ", "amenity": "post_box", "brand": "United States Postal Service", "brand:wikidata": "Q668687", "collection_times": "Mo-Sa 17:00", "name": "USPS COLLECTION BOX - BLUE BOX", "note": "ON 12/24 AND 12/31, THIS BOX MAY BE COLLECTED AS EARLY AS 12 NOON.", "nsi_id": "unitedstatespostalservice-a77078", "operator": "United States Postal Service", "operator:short": "USPS", "operator:type": "public", "operator:wikidata": "Q668687", "ref": "8640100004"}, "type": "Feature"}
{"dataset_attributes": {"@spider": "usps_collection_boxes", "spider:collection_time": "2023-09-01T08:24:43.385582"}, "geometry": {"coordinates": [-114.03401, 35.195867], "type": "Point"}, "id": "pUfAM8joKM79KiGVil1F4VUWjHI=", "properties": {"@spider": "usps_collection_boxes", "addr:city": "KINGMAN", "addr:country": "US", "addr:full": "1901 JOHNSON AVE", "addr:postcode": "86401", "addr:state": "AZ", "amenity": "post_box", "brand": "United States Postal Service", "brand:wikidata": "Q668687", "collection_times": "Mo-Sa 17:00", "name": "USPS COLLECTION BOX - BLUE BOX", "note": "ON 12/24 AND 12/31, THIS BOX MAY BE COLLECTED AS EARLY AS 12 NOON.", "nsi_id": "unitedstatespostalservice-a77078", "operator": "United States Postal Service", "operator:short": "USPS", "operator:type": "public", "operator:wikidata": "Q668687", "ref": "8640100005"}, "type": "Feature"}
{"dataset_attributes": {"@spider": "usps_collection_boxes", "spider:collection_time": "2023-09-01T08:24:43.385582"}, "geometry": {"coordinates": [-113.860314, 35.404592], "type": "Point"}, "id": "AIALBDfwbn6v9BlP3VCrWTumbNQ=", "properties": {"@spider": "usps_collection_boxes", "addr:city": "KINGMAN", "addr:country": "US", "addr:full": "9686 N CONCHO DR", "addr:postcode": "86401", "addr:state": "AZ", "amenity": "post_box", "brand": "United States Postal Service", "brand:wikidata": "Q668687", "collection_times": "Mo-Sa 10:00", "name": "USPS COLLECTION BOX - BLUE BOX", "nsi_id": "unitedstatespostalservice-a77078", "operator": "United States Postal Service", "operator:short": "USPS", "operator:type": "public", "operator:wikidata": "Q668687", "ref": "8640100011"}, "type": "Feature"}
{"dataset_attributes": {"@spider": "usps_collection_boxes", "spider:collection_time": "2023-09-01T08:24:43.385582"}, "geometry": {"coordinates": [-113.860782, 35.38631], "type": "Point"}, "id": "4GOHytGkilwv0fLXY04amLfs5Kk=", "properties": {"@spider": "usps_collection_boxes", "addr:city": "KINGMAN", "addr:country": "US", "addr:full": "9077 N CONCHO DR", "addr:postcode": "86401", "addr:state": "AZ", "amenity": "post_box", "brand": "United States Postal Service", "brand:wikidata": "Q668687", "collection_times": "Mo-Sa 10:00", "name": "USPS COLLECTION BOX - BLUE BOX", "nsi_id": "unitedstatespostalservice-a77078", "operator": "United States Postal Service", "operator:short": "USPS", "operator:type": "public", "operator:wikidata": "Q668687", "ref": "8640100012"}, "type": "Feature"}
{"dataset_attributes": {"@spider": "usps_collection_boxes", "spider:collection_time": "2023-09-01T08:24:43.385582"}, "geometry": {"coordinates": [-114.03401, 35.195867], "type": "Point"}, "id": "pOvpWhTafPEYyAoRxETvbi_lVNE=", "properties": {"@spider": "usps_collection_boxes", "addr:city": "KINGMAN", "addr:country": "US", "addr:full": "1901 JOHNSON AVE", "addr:postcode": "86401", "addr:state": "AZ", "amenity": "post_box", "brand": "United States Postal Service", "brand:wikidata": "Q668687", "collection_times": "Mo-Sa 17:00", "name": "USPS COLLECTION BOX - BLUE BOX", "note": "ON 12/24 AND 12/31, THIS BOX MAY BE COLLECTED AS EARLY AS 12 NOON.", "nsi_id": "unitedstatespostalservice-a77078", "operator": "United States Postal Service", "operator:short": "USPS", "operator:type": "public", "operator:wikidata": "Q668687", "ref": "8640100013"}, "type": "Feature"}
{"dataset_attributes": {"@spider": "usps_collection_boxes", "spider:collection_time": "2023-09-01T08:24:43.385582"}, "geometry": {"coordinates": [-114.006740178, 35.221467664], "type": "Point"}, "id": "cvJ3ho7AbD93JXLHxX0RIgJAi4U=", "properties": {"@spider": "usps_collection_boxes", "addr:city": "KINGMAN", "addr:country": "US", "addr:full": "3340 E ANDY DEVINE AVE", "addr:postcode": "86401", "addr:state": "AZ", "amenity": "post_box", "brand": "United States Postal Service", "brand:wikidata": "Q668687", "collection_times": "Mo-Sa 15:00", "name": "USPS COLLECTION BOX - BLUE BOX", "note": "ON 12/24 AND 12/31, THIS BOX MAY BE COLLECTED AS EARLY AS 12 NOON.", "nsi_id": "unitedstatespostalservice-a77078", "operator": "United States Postal Service", "operator:short": "USPS", "operator:type": "public", "operator:wikidata": "Q668687", "ref": "8640100017"}, "type": "Feature"}
{"dataset_attributes": {"@spider": "usps_collection_boxes", "spider:collection_time": "2023-09-01T08:24:43.385582"}, "geometry": {"coordinates": [-114.035501, 35.214865], "type": "Point"}, "id": "8zOn8vRRAcuw2ZGSMXqCiopK1B4=", "properties": {"@spider": "usps_collection_boxes", "addr:city": "KINGMAN", "addr:country": "US", "addr:full": "3100 N STOCKTON HILL RD", "addr:postcode": "86401", "addr:state": "AZ", "amenity": "post_box", "brand": "United States Postal Service", "brand:wikidata": "Q668687", "collection_times": "Mo-Sa 15:00", "name": "USPS COLLECTION BOX - BLUE BOX", "note": "ON 12/24 AND 12/31, THIS BOX MAY BE COLLECTED AS EARLY AS 12 NOON.", "nsi_id": "unitedstatespostalservice-a77078", "operator": "United States Postal Service", "operator:short": "USPS", "operator:type": "public", "operator:wikidata": "Q668687", "ref": "8640100019"}, "type": "Feature"}
{"dataset_attributes": {"@spider": "usps_collection_boxes", "spider:collection_time": "2023-09-01T08:24:43.385582"}, "geometry": {"coordinates": [-114.052716, 35.190482], "type": "Point"}, "id": "9BA_DKDG8LUi6C7aF1_LuWaeD1Q=", "properties": {"@spider": "usps_collection_boxes", "addr:city": "KINGMAN", "addr:country": "US", "addr:full": "220 N 4TH ST", "addr:postcode": "86401", "addr:state": "AZ", "amenity": "post_box", "brand": "United States Postal Service", "brand:wikidata": "Q668687", "collection_times": "Mo-Fr 15:00", "name": "USPS COLLECTION BOX - EXPRESS", "note": "ON 12/24 AND 12/31, THIS BOX MAY BE COLLECTED AS EARLY AS 12 NOON.", "nsi_id": "unitedstatespostalservice-a77078", "operator": "United States Postal Service", "operator:short": "USPS", "operator:type": "public", "operator:wikidata": "Q668687", "ref": "8640100025"}, "type": "Feature"}
{"dataset_attributes": {"@spider": "usps_collection_boxes", "spider:collection_time": "2023-09-01T08:24:43.385582"}, "geometry": {"coordinates": [-114.03401, 35.195867], "type": "Point"}, "id": "PsZxrgTSXv6z03USdrycKxfpivM=", "properties": {"@spider": "usps_collection_boxes", "addr:city": "KINGMAN", "addr:country": "US", "addr:full": "1901 JOHNSON AVE", "addr:postcode": "86401", "addr:state": "AZ", "amenity": "post_box", "brand": "United States Postal Service", "brand:wikidata": "Q668687", "collection_times": "Mo-Sa 17:00", "name": "USPS COLLECTION BOX - EXPRESS", "note": "ON 12/24 AND 12/31, THIS BOX MAY BE COLLECTED AS EARLY AS 12 NOON.", "nsi_id": "unitedstatespostalservice-a77078", "operator": "United States Postal Service", "operator:short": "USPS", "operator:type": "public", "operator:wikidata": "Q668687", "ref": "8640100028"}, "type": "Feature"}
{"dataset_attributes": {"@spider": "usps_collection_boxes", "spider:collection_time": "2023-09-01T08:24:43.385582"}, "geometry": {"coordinates": [-114.052714, 35.19046], "type": "Point"}, "id": "KBo_0BAxgvE58qxTmGQ0Ip1UX48=", "properties": {"@spider": "usps_collection_boxes", "addr:city": "KINGMAN", "addr:country": "US", "addr:full": "220 N 4TH ST", "addr:postcode": "86401", "addr:state": "AZ", "amenity": "post_box", "brand": "United States Postal Service", "brand:wikidata": "Q668687", "collection_times": "Mo-Fr 10:00", "name": "USPS COLLECTION BOX - BLUE BOX", "nsi_id": "unitedstatespostalservice-a77078", "operator": "United States Postal Service", "operator:short": "USPS", "operator:type": "public", "operator:wikidata": "Q668687", "ref": "8640100030"}, "type": "Feature"}
{"dataset_attributes": {"@spider": "usps_collection_boxes", "spider:collection_time": "2023-09-01T08:24:43.385582"}, "geometry": {"coordinates": [-113.788555, 35.178038], "type": "Point"}, "id": "9e41g4RaBFd7JOnKaj3GXul-kY4=", "properties": {"@spider": "usps_collection_boxes", "addr:city": "KINGMAN", "addr:country": "US", "addr:full": "970 S BLAKE RANCH RD", "addr:postcode": "86401", "addr:state": "AZ", "amenity": "post_box", "brand": "United States Postal Service", "brand:wikidata": "Q668687", "collection_times": "Mo-Sa 11:00", "name": "USPS COLLECTION BOX - BLUE BOX", "nsi_id": "unitedstatespostalservice-a77078", "operator": "United States Postal Service", "operator:short": "USPS", "operator:type": "public", "operator:wikidata": "Q668687", "ref": "8640100032"}, "type": "Feature"}
{"dataset_attributes": {"@spider": "usps_collection_boxes", "spider:collection_time": "2023-09-01T08:24:43.385582"}, "geometry": {"coordinates": [-114.03401, 35.195867], "type": "Point"}, "id": "FOJLwSaKHdL1nDI1OBPjCcNpaGc=", "properties": {"@spider": "usps_collection_boxes", "addr:city": "KINGMAN", "addr:country": "US", "addr:full": "1901 JOHNSON AVE", "addr:postcode": "86401", "addr:state": "AZ", "amenity": "post_box", "brand": "United States Postal Service", "brand:wikidata": "Q668687", "collection_times": "Mo-Sa 17:00", "name": "USPS COLLECTION BOX - BLUE BOX", "note": "ON 12/24 AND 12/31, THIS BOX MAY BE COLLECTED AS EARLY AS 12 NOON.", "nsi_id": "unitedstatespostalservice-a77078", "operator": "United States Postal Service", "operator:short": "USPS", "operator:type": "public", "operator:wikidata": "Q668687", "ref": "8640100033"}, "type": "Feature"}
{"dataset_attributes": {"@spider": "usps_collection_boxes", "spider:collection_time": "2023-09-01T08:24:43.385582"}, "geometry": {"coordinates": [-114.03401, 35.195867], "type": "Point"}, "id": "c2FxbW-N5SSnDuAt2YpsWhULM2k=", "properties": {"@spider": "usps_collection_boxes", "addr:city": "KINGMAN", "addr:country": "US", "addr:full": "1901 JOHNSON AVE", "addr:postcode": "86401", "addr:state": "AZ", "amenity": "post_box", "brand": "United States Postal Service", "brand:wikidata": "Q668687", "collection_times": "Mo-Sa 17:00", "name": "USPS COLLECTION BOX - BLUE BOX", "note": "ON 12/24 AND 12/31, THIS BOX MAY BE COLLECTED AS EARLY AS 12 NOON.", "nsi_id": "unitedstatespostalservice-a77078", "operator": "United States Postal Service", "operator:short": "USPS", "operator:type": "public", "operator:wikidata": "Q668687", "ref": "8640100034"}, "type": "Feature"}
{"dataset_attributes": {"@spider": "usps_collection_boxes", "spider:collection_time": "2023-09-01T08:24:43.385582"}, "geometry": {"coordinates": [-114.03401, 35.195867], "type": "Point"}, "id": "WOjRh7rUSe1dzJza3WP-3k061fM=", "properties": {"@spider": "usps_collection_boxes", "addr:city": "KINGMAN", "addr:country": "US", "addr:full": "1901 JOHNSON AVE", "addr:postcode": "86401", "addr:state": "AZ", "amenity": "post_box", "brand": "United States Postal Service", "brand:wikidata": "Q668687", "collection_times": "Mo-Sa 17:00", "name": "USPS COLLECTION BOX - APC", "note": "ON 12/24 AND 12/31, THIS BOX MAY BE COLLECTED AS EARLY AS 12 NOON.", "nsi_id": "unitedstatespostalservice-a77078", "operator": "United States Postal Service", "operator:short": "USPS", "operator:type": "public", "operator:wikidata": "Q668687", "ref": "8640100035"}, "type": "Feature"}
{"dataset_attributes": {"@spider": "usps_collection_boxes", "spider:collection_time": "2023-09-01T08:24:43.385582"}, "geometry": {"coordinates": [-114.03401, 35.195867], "type": "Point"}, "id": "9iBosGUEqrgnJ8O5kkvtpYphuJg=", "properties": {"@spider": "usps_collection_boxes", "addr:city": "KINGMAN", "addr:country": "US", "addr:full": "1901 JOHNSON AVE", "addr:postcode": "86401", "addr:state": "AZ", "amenity": "post_box", "brand": "United States Postal Service", "brand:wikidata": "Q668687", "collection_times": "Mo-Sa 17:00", "name": "USPS COLLECTION BOX - BLUE BOX", "note": "ON 12/24 AND 12/31, THIS BOX MAY BE COLLECTED AS EARLY AS 12 NOON.", "nsi_id": "unitedstatespostalservice-a77078", "operator": "United States Postal Service", "operator:short": "USPS", "operator:type": "public", "operator:wikidata": "Q668687", "ref": "8640100036"}, "type": "Feature"}
{"dataset_attributes": {"@spider": "usps_collection_boxes", "spider:collection_time": "2023-09-01T08:24:43.385582"}, "geometry": {"coordinates": [-114.034012252, 35.195933413], "type": "Point"}, "id": "5XWuqq-A1QuvETE_jh-VDAVH2Fg=", "properties": {"@spider": "usps_collection_boxes", "addr:city": "KINGMAN", "addr:country": "US", "addr:full": "1901 JOHNSON AVE", "addr:postcode": "86401", "addr:state": "AZ", "amenity": "post_box", "brand": "United States Postal Service", "brand:wikidata": "Q668687", "collection_times": "Mo-Sa 17:00", "name": "USPS COLLECTION BOX - PO LOBBY", "note": "ON 12/24 AND 12/31, THIS BOX MAY BE COLLECTED AS EARLY AS 12 NOON.", "nsi_id": "unitedstatespostalservice-a77078", "operator": "United States Postal Service", "operator:short": "USPS", "operator:type": "public", "operator:wikidata": "Q668687", "ref": "8640100038"}, "type": "Feature"}
{"dataset_attributes": {"@spider": "usps_collection_boxes", "spider:collection_time": "2023-09-01T08:24:43.385582"}, "geometry": {"coordinates": [-114.0549897157, 35.1887993622], "type": "Point"}, "id": "K35poPj5jhWwK7Z6xt-ytbfhDcQ=", "properties": {"@spider": "usps_collection_boxes", "addr:city": "KINGMAN", "addr:country": "US", "addr:full": "229 E ANDY DEVINE AVE", "addr:postcode": "86401", "addr:state": "AZ", "amenity": "post_box", "brand": "United States Postal Service", "brand:wikidata": "Q668687", "collection_times": "Mo-Fr 16:30", "name": "USPS COLLECTION BOX - PO LOBBY", "note": "ON 12/24 AND 12/31, THIS BOX MAY BE COLLECTED AS EARLY AS 12 NOON.", "nsi_id": "unitedstatespostalservice-a77078", "operator": "United States Postal Service", "operator:short": "USPS", "operator:type": "public", "operator:wikidata": "Q668687", "ref": "8640100039"}, "type": "Feature"}
{"dataset_attributes": {"@spider": "usps_collection_boxes", "spider:collection_time": "2023-09-01T08:24:43.385582"}, "geometry": {"coordinates": [-114.3405855, 34.475634], "type": "Point"}, "id": "Hy5WuSyaFRAhal4LfJ3W9wv8hOA=", "properties": {"@spider": "usps_collection_boxes", "addr:city": "LK HAVASU CTY", "addr:country": "US", "addr:full": "1750 MCCULLOCH BLVD N", "addr:postcode": "86403", "addr:state": "AZ", "amenity": "post_box", "brand": "United States Postal Service", "brand:wikidata": "Q668687", "collection_times": "Mo-Fr 17:00; Sa 16:00", "name": "USPS COLLECTION BOX - BLUE BOX", "note": "ON 12/24 AND 12/31, THIS BOX MAY BE COLLECTED AS EARLY AS 12 NOON.", "nsi_id": "unitedstatespostalservice-a77078", "operator": "United States Postal Service", "operator:short": "USPS", "operator:type": "public", "operator:wikidata": "Q668687", "ref": "8640300001"}, "type": "Feature"}
{"dataset_attributes": {"@spider": "usps_collection_boxes", "spider:collection_time": "2023-09-01T08:24:43.385582"}, "geometry": {"coordinates": [-114.322446, 34.477174], "type": "Point"}, "id": "F1D-TymthwpRxMN5eQjg99ptM30=", "properties": {"@spider": "usps_collection_boxes", "addr:city": "LK HAVASU CTY", "addr:country": "US", "addr:full": "80 ACOMA BLVD N", "addr:postcode": "86403", "addr:state": "AZ", "amenity": "post_box", "brand": "United States Postal Service", "brand:wikidata": "Q668687", "collection_times": "Mo-Sa 14:00", "name": "USPS COLLECTION BOX - BLUE BOX", "note": "ON 12/24 AND 12/31, THIS BOX MAY BE COLLECTED AS EARLY AS 12 NOON.", "nsi_id": "unitedstatespostalservice-a77078", "operator": "United States Postal Service", "operator:short": "USPS", "operator:type": "public", "operator:wikidata": "Q668687", "ref": "8640300005"}, "type": "Feature"}
{"dataset_attributes": {"@spider": "usps_collection_boxes", "spider:collection_time": "2023-09-01T08:24:43.385582"}, "geometry": {"coordinates": [-114.340645, 34.476553], "type": "Point"}, "id": "ha8BQZFbgxex8KFMMNraYl9H_Ig=", "properties": {"@spider": "usps_collection_boxes", "addr:city": "LK HAVASU CTY", "addr:country": "US", "addr:full": "1750 MCCULLOCH BLVD N", "addr:postcode": "86403", "addr:state": "AZ", "amenity": "post_box", "brand": "United States Postal Service", "brand:wikidata": "Q668687", "collection_times": "Mo-Fr 17:00; Sa 16:00", "name": "USPS COLLECTION BOX - BLUE BOX", "note": "ON 12/24 AND 12/31, THIS BOX MAY BE COLLECTED AS EARLY AS 12 NOON.", "nsi_id": "unitedstatespostalservice-a77078", "operator": "United States Postal Service", "operator:short": "USPS", "operator:type": "public", "operator:wikidata": "Q668687", "ref": "8640300006"}, "type": "Feature"}
{"dataset_attributes": {"@spider": "usps_collection_boxes", "spider:collection_time": "2023-09-01T08:24:43.385582"}, "geometry": {"coordinates": [-114.340645, 34.476553], "type": "Point"}, "id": "QdSFHa6-v1fvWp5U4RhpytbvEOw=", "properties": {"@spider": "usps_collection_boxes", "addr:city": "LK HAVASU CTY", "addr:country": "US", "addr:full": "1750 MCCULLOCH BLVD N", "addr:postcode": "86403", "addr:state": "AZ", "amenity": "post_box", "brand": "United States Postal Service", "brand:wikidata": "Q668687", "collection_times": "Mo-Fr 17:00; Sa 16:00", "name": "USPS COLLECTION BOX - BLUE BOX", "note": "ON 12/24 AND 12/31, THIS BOX MAY BE COLLECTED AS EARLY AS 12 NOON.", "nsi_id": "unitedstatespostalservice-a77078", "operator": "United States Postal Service", "operator:short": "USPS", "operator:type": "public", "operator:wikidata": "Q668687", "ref": "8640300007"}, "type": "Feature"}
{"dataset_attributes": {"@spider": "usps_collection_boxes", "spider:collection_time": "2023-09-01T08:24:43.385582"}, "geometry": {"coordinates": [-114.3405860264, 34.4756320186], "type": "Point"}, "id": "lFFx22X_dBHjJ9-ccy-YfFF5-1M=", "properties": {"@spider": "usps_collection_boxes", "addr:city": "LK HAVASU CTY", "addr:country": "US", "addr:full": "1750 MCCULLOCH BLVD N", "addr:postcode": "86403", "addr:state": "AZ", "amenity": "post_box", "brand": "United States Postal Service", "brand:wikidata": "Q668687", "collection_times": "Mo-Fr 17:00; Sa 16:00", "name": "USPS COLLECTION BOX - BLUE BOX", "note": "ON 12/24 AND 12/31, THIS BOX MAY BE COLLECTED AS EARLY AS 12 NOON.", "nsi_id": "unitedstatespostalservice-a77078", "operator": "United States Postal Service", "operator:short": "USPS", "operator:type": "public", "operator:wikidata": "Q668687", "ref": "8640300008"}, "type": "Feature"}
{"dataset_attributes": {"@spider": "usps_collection_boxes", "spider:collection_time": "2023-09-01T08:24:43.385582"}, "geometry": {"coordinates": [-114.340645, 34.476553], "type": "Point"}, "id": "-NYdMtk04AJMI2pk6Wk5pBeiAEQ=", "properties": {"@spider": "usps_collection_boxes", "addr:city": "LK HAVASU CTY", "addr:country": "US", "addr:full": "1750 MCCULLOCH BLVD N", "addr:postcode": "86403", "addr:state": "AZ", "amenity": "post_box", "brand": "United States Postal Service", "brand:wikidata": "Q668687", "collection_times": "Mo-Fr 17:00; Sa 16:00", "name": "USPS COLLECTION BOX - BLUE BOX", "note": "ON 12/24 AND 12/31, THIS BOX MAY BE COLLECTED AS EARLY AS 12 NOON.", "nsi_id": "unitedstatespostalservice-a77078", "operator": "United States Postal Service", "operator:short": "USPS", "operator:type": "public", "operator:wikidata": "Q668687", "ref": "8640300009"}, "type": "Feature"}
{"dataset_attributes": {"@spider": "usps_collection_boxes", "spider:collection_time": "2023-09-01T08:24:43.385582"}, "geometry": {"coordinates": [-114.340645, 34.476553], "type": "Point"}, "id": "wlz0lip0OSqRWR24VmNSjLlJANc=", "properties": {"@spider": "usps_collection_boxes", "addr:city": "LK HAVASU CTY", "addr:country": "US", "addr:full": "1750 MCCULLOCH BLVD N", "addr:postcode": "86403", "addr:state": "AZ", "amenity": "post_box", "brand": "United States Postal Service", "brand:wikidata": "Q668687", "collection_times": "Mo-Fr 17:00; Sa 16:00", "name": "USPS COLLECTION BOX - BLUE BOX", "note": "ON 12/24 AND 12/31, THIS BOX MAY BE COLLECTED AS EARLY AS 12 NOON.", "nsi_id": "unitedstatespostalservice-a77078", "operator": "United States Postal Service", "operator:short": "USPS", "operator:type": "public", "operator:wikidata": "Q668687", "ref": "8640300010"}, "type": "Feature"}
{"dataset_attributes": {"@spider": "usps_collection_boxes", "spider:collection_time": "2023-09-01T08:24:43.385582"}, "geometry": {"coordinates": [-114.351162, 34.505385], "type": "Point"}, "id": "bmxyereo08zXLedZiQdZeJb9lhw=", "properties": {"@spider": "usps_collection_boxes", "addr:city": "LK HAVASU CTY", "addr:country": "US", "addr:full": "1799 KIOWA AVE", "addr:postcode": "86403", "addr:state": "AZ", "amenity": "post_box", "brand": "United States Postal Service", "brand:wikidata": "Q668687", "collection_times": "Mo-Sa 14:00", "name": "USPS COLLECTION BOX - BLUE BOX", "note": "ON 12/24 AND 12/31, THIS BOX MAY BE COLLECTED AS EARLY AS 12 NOON.", "nsi_id": "unitedstatespostalservice-a77078", "operator": "United States Postal Service", "operator:short": "USPS", "operator:type": "public", "operator:wikidata": "Q668687", "ref": "8640300022"}, "type": "Feature"}
{"dataset_attributes": {"@spider": "usps_collection_boxes", "spider:collection_time": "2023-09-01T08:24:43.385582"}, "geometry": {"coordinates": [-114.340645, 34.476553], "type": "Point"}, "id": "e0fUTm9iDPC-02ugbFDwLCG0YpY=", "properties": {"@spider": "usps_collection_boxes", "addr:city": "LK HAVASU CTY", "addr:country": "US", "addr:full": "1750 MCCULLOCH BLVD N", "addr:postcode": "86403", "addr:state": "AZ", "amenity": "post_box", "brand": "United States Postal Service", "brand:wikidata": "Q668687", "collection_times": "Mo-Fr 15:00", "name": "USPS COLLECTION BOX - EXPRESS", "note": "ON 12/24 AND 12/31, THIS BOX MAY BE COLLECTED AS EARLY AS 12 NOON.", "nsi_id": "unitedstatespostalservice-a77078", "operator": "United States Postal Service", "operator:short": "USPS", "operator:type": "public", "operator:wikidata": "Q668687", "ref": "8640300028"}, "type": "Feature"}
{"dataset_attributes": {"@spider": "usps_collection_boxes", "spider:collection_time": "2023-09-01T08:24:43.385582"}, "geometry": {"coordinates": [-114.340645, 34.476553], "type": "Point"}, "id": "5GIWnwlH6o7My2N3LrLw5Tr54QA=", "properties": {"@spider": "usps_collection_boxes", "addr:city": "LK HAVASU CTY", "addr:country": "US", "addr:full": "1750 MCCULLOCH BLVD N", "addr:postcode": "86403", "addr:state": "AZ", "amenity": "post_box", "brand": "United States Postal Service", "brand:wikidata": "Q668687", "collection_times": "Mo-Fr 17:00; Sa 16:00", "name": "USPS COLLECTION BOX - PO LOBBY", "note": "ON 12/24 AND 12/31, THIS BOX MAY BE COLLECTED AS EARLY AS 12 NOON.", "nsi_id": "unitedstatespostalservice-a77078", "operator": "United States Postal Service", "operator:short": "USPS", "operator:type": "public", "operator:wikidata": "Q668687", "ref": "8640300029"}, "type": "Feature"}
{"dataset_attributes": {"@spider": "usps_collection_boxes", "spider:collection_time": "2023-09-01T08:24:43.385582"}, "geometry": {"coordinates": [-114.347372, 34.50784], "type": "Point"}, "id": "U3OjOqwBPqzKkUwfAl40T81R-_s=", "properties": {"@spider": "usps_collection_boxes", "addr:city": "LK HAVASU CTY", "addr:country": "US", "addr:full": "2001 COLLEGE DR", "addr:postcode": "86403", "addr:state": "AZ", "amenity": "post_box", "brand": "United States Postal Service", "brand:wikidata": "Q668687", "collection_times": "Mo-Fr 14:00; Sa 12:00", "name": "USPS COLLECTION BOX - BLUE BOX", "note": "ON 12/24 AND 12/31, THIS BOX MAY BE COLLECTED AS EARLY AS 12 NOON.", "nsi_id": "unitedstatespostalservice-a77078", "operator": "United States Postal Service", "operator:short": "USPS", "operator:type": "public", "operator:wikidata": "Q668687", "ref": "8640300033"}, "type": "Feature"}
{"dataset_attributes": {"@spider": "usps_collection_boxes", "spider:collection_time": "2023-09-01T08:24:43.385582"}, "geometry": {"coordinates": [-114.3410953449, 34.47625425], "type": "Point"}, "id": "sU8gEUg_pURvRWev77dW5k5zMqQ=", "properties": {"@spider": "usps_collection_boxes", "addr:city": "LK HAVASU CTY", "addr:country": "US", "addr:full": "1750 MCCULLOCH BLVD N", "addr:postcode": "86403", "addr:state": "AZ", "amenity": "post_box", "brand": "United States Postal Service", "brand:wikidata": "Q668687", "collection_times": "Mo-Fr 17:00; Sa 16:00", "name": "USPS COLLECTION BOX - PO LOBBY", "note": "ON 12/24 AND 12/31, THIS BOX MAY BE COLLECTED AS EARLY AS 12 NOON.", "nsi_id": "unitedstatespostalservice-a77078", "operator": "United States Postal Service", "operator:short": "USPS", "operator:type": "public", "operator:wikidata": "Q668687", "ref": "8640300037"}, "type": "Feature"}
{"dataset_attributes": {"@spider": "usps_collection_boxes", "spider:collection_time": "2023-09-01T08:24:43.385582"}, "geometry": {"coordinates": [-114.3660390165, 34.5426050176], "type": "Point"}, "id": "zdt1D7demJAroR8FQEqutPwxQxE=", "properties": {"@spider": "usps_collection_boxes", "addr:city": "LK HAVASU CTY", "addr:country": "US", "addr:full": "3726 LONDON BRIDGE RD", "addr:postcode": "86404", "addr:state": "AZ", "amenity": "post_box", "brand": "United States Postal Service", "brand:wikidata": "Q668687", "collection_times": "Mo-Fr 12:00; Sa 14:00", "name": "USPS COLLECTION BOX - BLUE BOX", "note": "ON 12/24 AND 12/31, THIS BOX MAY BE COLLECTED AS EARLY AS 12 NOON.", "nsi_id": "unitedstatespostalservice-a77078", "operator": "United States Postal Service", "operator:short": "USPS", "operator:type": "public", "operator:wikidata": "Q668687", "ref": "8640400001"}, "type": "Feature"}
{"dataset_attributes": {"@spider": "usps_collection_boxes", "spider:collection_time": "2023-09-01T08:24:43.385582"}, "geometry": {"coordinates": [-114.366287768, 34.542701299], "type": "Point"}, "id": "laB8-MGD6S7LzocGuDJZHWNf14M=", "properties": {"@spider": "usps_collection_boxes", "addr:city": "LK HAVASU CTY", "addr:country": "US", "addr:full": "3726 LONDON BRIDGE RD", "addr:postcode": "86404", "addr:state": "AZ", "amenity": "post_box", "brand": "United States Postal Service", "brand:wikidata": "Q668687", "collection_times": "Mo-Sa 13:00", "name": "USPS COLLECTION BOX - PO LOBBY", "note": "ON 12/24 AND 12/31, THIS BOX MAY BE COLLECTED AS EARLY AS 12 NOON.", "nsi_id": "unitedstatespostalservice-a77078", "operator": "United States Postal Service", "operator:short": "USPS", "operator:type": "public", "operator:wikidata": "Q668687", "ref": "8640400003"}, "type": "Feature"}
{"dataset_attributes": {"@spider": "usps_collection_boxes", "spider:collection_time": "2023-09-01T08:24:43.385582"}, "geometry": {"coordinates": [-114.278251, 34.458957], "type": "Point"}, "id": "ISoEg1UDsspiMrVGwpzEg1wsbEI=", "properties": {"@spider": "usps_collection_boxes", "addr:city": "LK HAVASU CTY", "addr:country": "US", "addr:full": "3269 MARICOPA AVE", "addr:postcode": "86406", "addr:state": "AZ", "amenity": "post_box", "brand": "United States Postal Service", "brand:wikidata": "Q668687", "collection_times": "Mo-Sa 10:30", "name": "USPS COLLECTION BOX - BLUE BOX", "nsi_id": "unitedstatespostalservice-a77078", "operator": "United States Postal Service", "operator:short": "USPS", "operator:type": "public", "operator:wikidata": "Q668687", "ref": "8640600002"}, "type": "Feature"}
{"dataset_attributes": {"@spider": "usps_collection_boxes", "spider:collection_time": "2023-09-01T08:24:43.385582"}, "geometry": {"coordinates": [-114.034727, 35.224339], "type": "Point"}, "id": "vzhyWhY6SLQyp0xPQxIdVTx5Apc=", "properties": {"@spider": "usps_collection_boxes", "addr:city": "KINGMAN", "addr:country": "US", "addr:full": "3490 N STOCKTON RD", "addr:postcode": "86409", "addr:state": "AZ", "amenity": "post_box", "brand": "United States Postal Service", "brand:wikidata": "Q668687", "collection_times": "Mo-Sa 15:00", "name": "USPS COLLECTION BOX - BLUE BOX", "note": "ON 12/24 AND 12/31, THIS BOX MAY BE COLLECTED AS EARLY AS 12 NOON.", "nsi_id": "unitedstatespostalservice-a77078", "operator": "United States Postal Service", "operator:short": "USPS", "operator:type": "public", "operator:wikidata": "Q668687", "ref": "8640900001"}, "type": "Feature"}
{"dataset_attributes": {"@spider": "usps_collection_boxes", "spider:collection_time": "2023-09-01T08:24:43.385582"}, "geometry": {"coordinates": [-114.03473, 35.224308], "type": "Point"}, "id": "EziZ4TfRE2rwstnujPKJK1QKgSM=", "properties": {"@spider": "usps_collection_boxes", "addr:city": "KINGMAN", "addr:country": "US", "addr:full": "3490 N STOCKTON RD", "addr:postcode": "86409", "addr:state": "AZ", "amenity": "post_box", "brand": "United States Postal Service", "brand:wikidata": "Q668687", "collection_times": "Mo-Sa 15:00", "name": "USPS COLLECTION BOX - BLUE BOX", "note": "ON 12/24 AND 12/31, THIS BOX MAY BE COLLECTED AS EARLY AS 12 NOON.", "nsi_id": "unitedstatespostalservice-a77078", "operator": "United States Postal Service", "operator:short": "USPS", "operator:type": "public", "operator:wikidata": "Q668687", "ref": "8640900002"}, "type": "Feature"}
{"dataset_attributes": {"@spider": "usps_collection_boxes", "spider:collection_time": "2023-09-01T08:24:43.385582"}, "geometry": {"coordinates": [-114.0068301999, 35.221377726], "type": "Point"}, "id": "U8kK-ONalotueUxiBycuU2ESplE=", "properties": {"@spider": "usps_collection_boxes", "addr:city": "KINGMAN", "addr:country": "US", "addr:full": "3340 E ANDY DEVINE AVE", "addr:postcode": "86409", "addr:state": "AZ", "amenity": "post_box", "brand": "United States Postal Service", "brand:wikidata": "Q668687", "collection_times": "Mo-Fr 15:00", "name": "USPS COLLECTION BOX - BLUE BOX", "note": "ON 12/24 AND 12/31, THIS BOX MAY BE COLLECTED AS EARLY AS 12 NOON.", "nsi_id": "unitedstatespostalservice-a77078", "operator": "United States Postal Service", "operator:short": "USPS", "operator:type": "public", "operator:wikidata": "Q668687", "ref": "8640900003"}, "type": "Feature"}
{"dataset_attributes": {"@spider": "usps_collection_boxes", "spider:collection_time": "2023-09-01T08:24:43.385582"}, "geometry": {"coordinates": [-114.037674, 35.254186], "type": "Point"}, "id": "pfhEO-0AoD6eAIqc6znhqrcTGd4=", "properties": {"@spider": "usps_collection_boxes", "addr:city": "KINGMAN", "addr:country": "US", "addr:full": "4518 STOCKTON HILL RD", "addr:postcode": "86409", "addr:state": "AZ", "amenity": "post_box", "brand": "United States Postal Service", "brand:wikidata": "Q668687", "collection_times": "Mo-Fr 15:00", "name": "USPS COLLECTION BOX - BLUE BOX", "note": "ON 12/24 AND 12/31, THIS BOX MAY BE COLLECTED AS EARLY AS 12 NOON.", "nsi_id": "unitedstatespostalservice-a77078", "operator": "United States Postal Service", "operator:short": "USPS", "operator:type": "public", "operator:wikidata": "Q668687", "ref": "8640900004"}, "type": "Feature"}
{"dataset_attributes": {"@spider": "usps_collection_boxes", "spider:collection_time": "2023-09-01T08:24:43.385582"}, "geometry": {"coordinates": [-113.980221, 35.2611144812], "type": "Point"}, "id": "9DV2tU_iGhQcgnxvBJFPoxWAnuU=", "properties": {"@spider": "usps_collection_boxes", "addr:city": "KINGMAN", "addr:country": "US", "addr:full": "3880 E THOMPSON AVE", "addr:postcode": "86409", "addr:state": "AZ", "amenity": "post_box", "brand": "United States Postal Service", "brand:wikidata": "Q668687", "collection_times": "Mo-Fr 15:00", "name": "USPS COLLECTION BOX - PO LOBBY", "note": "ON 12/24 AND 12/31, THIS BOX MAY BE COLLECTED AS EARLY AS 12 NOON.", "nsi_id": "unitedstatespostalservice-a77078", "operator": "United States Postal Service", "operator:short": "USPS", "operator:type": "public", "operator:wikidata": "Q668687", "ref": "8640900007"}, "type": "Feature"}
{"dataset_attributes": {"@spider": "usps_collection_boxes", "spider:collection_time": "2023-09-01T08:24:43.385582"}, "geometry": {"coordinates": [-114.153798, 35.219553], "type": "Point"}, "id": "rnPB6AEeGiZ4BJTX5XBKkNmEo-Q=", "properties": {"@spider": "usps_collection_boxes", "addr:city": "GOLDEN VALLEY", "addr:country": "US", "addr:full": "3685 US HIGHWAY 68", "addr:postcode": "86413", "addr:state": "AZ", "amenity": "post_box", "brand": "United States Postal Service", "brand:wikidata": "Q668687", "collection_times": "Mo-Sa 11:30", "name": "USPS COLLECTION BOX - BLUE BOX", "nsi_id": "unitedstatespostalservice-a77078", "operator": "United States Postal Service", "operator:short": "USPS", "operator:type": "public", "operator:wikidata": "Q668687", "ref": "8641300001"}, "type": "Feature"}
{"dataset_attributes": {"@spider": "usps_collection_boxes", "spider:collection_time": "2023-09-01T08:24:43.385582"}, "geometry": {"coordinates": [-114.211463981, 35.222761005], "type": "Point"}, "id": "FwvO45_U4SQikyVPbric_AINM2I=", "properties": {"@spider": "usps_collection_boxes", "addr:city": "GOLDEN VALLEY", "addr:country": "US", "addr:full": "5373 HWY 68", "addr:postcode": "86413", "addr:state": "AZ", "amenity": "post_box", "brand": "United States Postal Service", "brand:wikidata": "Q668687", "collection_times": "Mo-Sa 11:30", "name": "USPS COLLECTION BOX - BLUE BOX", "nsi_id": "unitedstatespostalservice-a77078", "operator": "United States Postal Service", "operator:short": "USPS", "operator:type": "public", "operator:wikidata": "Q668687", "ref": "8641300002"}, "type": "Feature"}
{"dataset_attributes": {"@spider": "usps_collection_boxes", "spider:collection_time": "2023-09-01T08:24:43.385582"}, "geometry": {"coordinates": [-114.1532701661, 35.219000501], "type": "Point"}, "id": "-hzZiqQh7UtEFAkloTrdnWLeHBA=", "properties": {"@spider": "usps_collection_boxes", "addr:city": "GOLDEN VALLEY", "addr:country": "US", "addr:full": "3685 US HIGHWAY 68", "addr:postcode": "86413", "addr:state": "AZ", "amenity": "post_box", "brand": "United States Postal Service", "brand:wikidata": "Q668687", "collection_times": "Mo-Fr 13:00", "name": "USPS COLLECTION BOX - PO LOBBY", "note": "ON 12/24 AND 12/31, THIS BOX MAY BE COLLECTED AS EARLY AS 12 NOON.", "nsi_id": "unitedstatespostalservice-a77078", "operator": "United States Postal Service", "operator:short": "USPS", "operator:type": "public", "operator:wikidata": "Q668687", "ref": "8641300003"}, "type": "Feature"}
{"dataset_attributes": {"@spider": "usps_collection_boxes", "spider:collection_time": "2023-09-01T08:24:43.385582"}, "geometry": {"coordinates": [-114.594484, 35.030013], "type": "Point"}, "id": "-E_scgyGBNRNm8Ng-wmlaPSaAZM=", "properties": {"@spider": "usps_collection_boxes", "addr:city": "BULLHEAD CITY", "addr:country": "US", "addr:full": "4373 S EL CORRO", "addr:postcode": "86426", "addr:state": "AZ", "amenity": "post_box", "brand": "United States Postal Service", "brand:wikidata": "Q668687", "collection_times": "Mo-Sa 10:30", "name": "USPS COLLECTION BOX - BLUE BOX", "nsi_id": "unitedstatespostalservice-a77078", "operator": "United States Postal Service", "operator:short": "USPS", "operator:type": "public", "operator:wikidata": "Q668687", "ref": "8642600005"}, "type": "Feature"}
{"dataset_attributes": {"@spider": "usps_collection_boxes", "spider:collection_time": "2023-09-01T08:24:43.385582"}, "geometry": {"coordinates": [-114.598023, 35.01623], "type": "Point"}, "id": "FisZeStptzsY7D6W4eG6XddgCR4=", "properties": {"@spider": "usps_collection_boxes", "addr:city": "BULLHEAD CITY", "addr:country": "US", "addr:full": "4821 HIGHWAY 95 STE 7", "addr:postcode": "86426", "addr:state": "AZ", "amenity": "post_box", "brand": "United States Postal Service", "brand:wikidata": "Q668687", "collection_times": "Mo-Sa 16:15", "name": "USPS COLLECTION BOX - PO LOBBY", "note": "ON 12/24 AND 12/31, THIS BOX MAY BE COLLECTED AS EARLY AS 12 NOON.", "nsi_id": "unitedstatespostalservice-a77078", "operator": "United States Postal Service", "operator:short": "USPS", "operator:type": "public", "operator:wikidata": "Q668687", "ref": "8642600007"}, "type": "Feature"}
{"dataset_attributes": {"@spider": "usps_collection_boxes", "spider:collection_time": "2023-09-01T08:24:43.385582"}, "geometry": {"coordinates": [-114.598023, 35.01623], "type": "Point"}, "id": "NhH0k6TJ4YR6qZpfv2W4JB7I8sU=", "properties": {"@spider": "usps_collection_boxes", "addr:city": "BULLHEAD CITY", "addr:country": "US", "addr:full": "4821 HIGHWAY 95 STE 7", "addr:postcode": "86426", "addr:state": "AZ", "amenity": "post_box", "brand": "United States Postal Service", "brand:wikidata": "Q668687", "collection_times": "Mo-Sa 16:15", "name": "USPS COLLECTION BOX - PO LOBBY", "note": "ON 12/24 AND 12/31, THIS BOX MAY BE COLLECTED AS EARLY AS 12 NOON.", "nsi_id": "unitedstatespostalservice-a77078", "operator": "United States Postal Service", "operator:short": "USPS", "operator:type": "public", "operator:wikidata": "Q668687", "ref": "8642600008"}, "type": "Feature"}
{"dataset_attributes": {"@spider": "usps_collection_boxes", "spider:collection_time": "2023-09-01T08:24:43.385582"}, "geometry": {"coordinates": [-114.598047427, 35.0161972486], "type": "Point"}, "id": "yKRRGhikYcJWEc6tzGnvGJXWb30=", "properties": {"@spider": "usps_collection_boxes", "addr:city": "BULLHEAD CITY", "addr:country": "US", "addr:full": "4821 HIGHWAY 95", "addr:postcode": "86426", "addr:state": "AZ", "amenity": "post_box", "brand": "United States Postal Service", "brand:wikidata": "Q668687", "collection_times": "Mo-Sa 16:00", "name": "USPS COLLECTION BOX - BLUE BOX", "note": "ON 12/24 AND 12/31, THIS BOX MAY BE COLLECTED AS EARLY AS 12 NOON.", "nsi_id": "unitedstatespostalservice-a77078", "operator": "United States Postal Service", "operator:short": "USPS", "operator:type": "public", "operator:wikidata": "Q668687", "ref": "8642600010"}, "type": "Feature"}
{"dataset_attributes": {"@spider": "usps_collection_boxes", "spider:collection_time": "2023-09-01T08:24:43.385582"}, "geometry": {"coordinates": [-114.598047427, 35.016175904], "type": "Point"}, "id": "paO-ikV3ZJ2lWh6XwKWFE3eQ8iE=", "properties": {"@spider": "usps_collection_boxes", "addr:city": "BULLHEAD CITY", "addr:country": "US", "addr:full": "4821 S HIGHWAY 95 STE 7", "addr:postcode": "86426", "addr:state": "AZ", "amenity": "post_box", "brand": "United States Postal Service", "brand:wikidata": "Q668687", "collection_times": "Mo-Sa 16:15", "name": "USPS COLLECTION BOX - PO LOBBY", "note": "ON 12/24 AND 12/31, THIS BOX MAY BE COLLECTED AS EARLY AS 12 NOON.", "nsi_id": "unitedstatespostalservice-a77078", "operator": "United States Postal Service", "operator:short": "USPS", "operator:type": "public", "operator:wikidata": "Q668687", "ref": "8642600011"}, "type": "Feature"}
{"dataset_attributes": {"@spider": "usps_collection_boxes", "spider:collection_time": "2023-09-01T08:24:43.385582"}, "geometry": {"coordinates": [-114.5673483098, 35.1537485137], "type": "Point"}, "id": "4E08-HuCNOcoqQqqBxAVWGi1mLA=", "properties": {"@spider": "usps_collection_boxes", "addr:city": "BULLHEAD CITY", "addr:country": "US", "addr:full": "990 HIGHWAY 95", "addr:postcode": "86429", "addr:state": "AZ", "amenity": "post_box", "brand": "United States Postal Service", "brand:wikidata": "Q668687", "collection_times": "Mo-Fr 14:00; Sa 11:00", "name": "USPS COLLECTION BOX - BLUE BOX", "note": "ON 12/24 AND 12/31, THIS BOX MAY BE COLLECTED AS EARLY AS 12 NOON.", "nsi_id": "unitedstatespostalservice-a77078", "operator": "United States Postal Service", "operator:short": "USPS", "operator:type": "public", "operator:wikidata": "Q668687", "ref": "8642900000"}, "type": "Feature"}
{"dataset_attributes": {"@spider": "usps_collection_boxes", "spider:collection_time": "2023-09-01T08:24:43.385582"}, "geometry": {"coordinates": [-114.567245, 35.153813], "type": "Point"}, "id": "HQ7Ldd057L0V9yM-5P2HX_SBfGE=", "properties": {"@spider": "usps_collection_boxes", "addr:city": "BULLHEAD CITY", "addr:country": "US", "addr:full": "990 HIGHWAY 95", "addr:postcode": "86429", "addr:state": "AZ", "amenity": "post_box", "brand": "United States Postal Service", "brand:wikidata": "Q668687", "collection_times": "Mo-Fr 14:00; Sa 11:00", "name": "USPS COLLECTION BOX - BLUE BOX", "note": "ON 12/24 AND 12/31, THIS BOX MAY BE COLLECTED AS EARLY AS 12 NOON.", "nsi_id": "unitedstatespostalservice-a77078", "operator": "United States Postal Service", "operator:short": "USPS", "operator:type": "public", "operator:wikidata": "Q668687", "ref": "8642900002"}, "type": "Feature"}
{"dataset_attributes": {"@spider": "usps_collection_boxes", "spider:collection_time": "2023-09-01T08:24:43.385582"}, "geometry": {"coordinates": [-114.567424, 35.153449], "type": "Point"}, "id": "QIebleJVFGaLIpjreBUk52AV1xo=", "properties": {"@spider": "usps_collection_boxes", "addr:city": "BULLHEAD CITY", "addr:country": "US", "addr:full": "990 HIGHWAY 95", "addr:postcode": "86429", "addr:state": "AZ", "amenity": "post_box", "brand": "United States Postal Service", "brand:wikidata": "Q668687", "collection_times": "Mo-Fr 14:00; Sa 11:00", "name": "USPS COLLECTION BOX - PO LOBBY", "note": "ON 12/24 AND 12/31, THIS BOX MAY BE COLLECTED AS EARLY AS 12 NOON.", "nsi_id": "unitedstatespostalservice-a77078", "operator": "United States Postal Service", "operator:short": "USPS", "operator:type": "public", "operator:wikidata": "Q668687", "ref": "8642900004"}, "type": "Feature"}
{"dataset_attributes": {"@spider": "usps_collection_boxes", "spider:collection_time": "2023-09-01T08:24:43.385582"}, "geometry": {"coordinates": [-114.56734831, 35.153748514], "type": "Point"}, "id": "kopuTFKIPONCq5HbsBuPJ_MYVjI=", "properties": {"@spider": "usps_collection_boxes", "addr:city": "BULLHEAD CITY", "addr:country": "US", "addr:full": "990 HIGHWAY 95", "addr:postcode": "86429", "addr:state": "AZ", "amenity": "post_box", "brand": "United States Postal Service", "brand:wikidata": "Q668687", "collection_times": "Mo-Fr 14:00", "name": "USPS COLLECTION BOX - PO LOBBY", "note": "ON 12/24 AND 12/31, THIS BOX MAY BE COLLECTED AS EARLY AS 12 NOON.", "nsi_id": "unitedstatespostalservice-a77078", "operator": "United States Postal Service", "operator:short": "USPS", "operator:type": "public", "operator:wikidata": "Q668687", "ref": "8642900005"}, "type": "Feature"}
{"dataset_attributes": {"@spider": "usps_collection_boxes", "spider:collection_time": "2023-09-01T08:24:43.385582"}, "geometry": {"coordinates": [-114.1993859942, 35.4145780091], "type": "Point"}, "id": "90Imp3PPrHbVDG5MwnkpocZlIhE=", "properties": {"@spider": "usps_collection_boxes", "addr:city": "CHLORIDE", "addr:country": "US", "addr:full": "4961 TENNESSEE AVE", "addr:postcode": "86431", "addr:state": "AZ", "amenity": "post_box", "brand": "United States Postal Service", "brand:wikidata": "Q668687", "collection_times": "Mo-Fr 15:00; Sa 09:30", "name": "USPS COLLECTION BOX - BLUE BOX", "note": "ON 12/24 AND 12/31, THIS BOX MAY BE COLLECTED AS EARLY AS 12 NOON.", "nsi_id": "unitedstatespostalservice-a77078", "operator": "United States Postal Service", "operator:short": "USPS", "operator:type": "public", "operator:wikidata": "Q668687", "ref": "8643100001"}, "type": "Feature"}
{"dataset_attributes": {"@spider": "usps_collection_boxes", "spider:collection_time": "2023-09-01T08:24:43.385582"}, "geometry": {"coordinates": [-114.199773, 35.414375], "type": "Point"}, "id": "3u23TZQCPMuvUsRW97OGprazyrc=", "properties": {"@spider": "usps_collection_boxes", "addr:city": "CHLORIDE", "addr:country": "US", "addr:full": "4961 TENNESSEE AVE", "addr:postcode": "86431", "addr:state": "AZ", "amenity": "post_box", "brand": "United States Postal Service", "brand:wikidata": "Q668687", "collection_times": "Mo-Fr 15:45; Sa 09:30", "name": "USPS COLLECTION BOX - PO LOBBY", "note": "ON 12/24 AND 12/31, THIS BOX MAY BE COLLECTED AS EARLY AS 12 NOON.", "nsi_id": "unitedstatespostalservice-a77078", "operator": "United States Postal Service", "operator:short": "USPS", "operator:type": "public", "operator:wikidata": "Q668687", "ref": "8643100002"}, "type": "Feature"}
{"dataset_attributes": {"@spider": "usps_collection_boxes", "spider:collection_time": "2023-09-01T08:24:43.385582"}, "geometry": {"coordinates": [-114.199827809, 35.414431353], "type": "Point"}, "id": "qTeZxqKcpBLmQrUOnB4RJTa-ng0=", "properties": {"@spider": "usps_collection_boxes", "addr:city": "CHLORIDE", "addr:country": "US", "addr:full": "4961 TENNESSEE AVE", "addr:postcode": "86431", "addr:state": "AZ", "amenity": "post_box", "brand": "United States Postal Service", "brand:wikidata": "Q668687", "collection_times": "Mo-Fr 15:45", "name": "USPS COLLECTION BOX - PO LOBBY", "note": "ON 12/24 AND 12/31, THIS BOX MAY BE COLLECTED AS EARLY AS 12 NOON.", "nsi_id": "unitedstatespostalservice-a77078", "operator": "United States Postal Service", "operator:short": "USPS", "operator:type": "public", "operator:wikidata": "Q668687", "ref": "8643100003"}, "type": "Feature"}
{"dataset_attributes": {"@spider": "usps_collection_boxes", "spider:collection_time": "2023-09-01T08:24:43.385582"}, "geometry": {"coordinates": [-113.933321, 36.907326], "type": "Point"}, "id": "3DWSdkXxYVrAuzjhw9pF_BeDf6k=", "properties": {"@spider": "usps_collection_boxes", "addr:city": "LITTLEFIELD", "addr:country": "US", "addr:full": "3288 E MCKNIGHT RD", "addr:postcode": "86432", "addr:state": "AZ", "amenity": "post_box", "brand": "United States Postal Service", "brand:wikidata": "Q668687", "collection_times": "Mo-Fr 16:30; Sa 08:30", "name": "USPS COLLECTION BOX - PO LOBBY", "note": "ON 12/24 AND 12/31, THIS BOX MAY BE COLLECTED AS EARLY AS 12 NOON.", "nsi_id": "unitedstatespostalservice-a77078", "operator": "United States Postal Service", "operator:short": "USPS", "operator:type": "public", "operator:wikidata": "Q668687", "ref": "8643200000"}, "type": "Feature"}
{"dataset_attributes": {"@spider": "usps_collection_boxes", "spider:collection_time": "2023-09-01T08:24:43.385582"}, "geometry": {"coordinates": [-113.933257, 36.907334], "type": "Point"}, "id": "hyOFHbS3_gEejB3X3j4h9L3lY3I=", "properties": {"@spider": "usps_collection_boxes", "addr:city": "LITTLEFIELD", "addr:country": "US", "addr:full": "3288 E MCKNIGHT RD", "addr:postcode": "86432", "addr:state": "AZ", "amenity": "post_box", "brand": "United States Postal Service", "brand:wikidata": "Q668687", "collection_times": "Mo-Fr 16:30; Sa 08:30", "name": "USPS COLLECTION BOX - BLUE BOX", "note": "ON 12/24 AND 12/31, THIS BOX MAY BE COLLECTED AS EARLY AS 12 NOON.", "nsi_id": "unitedstatespostalservice-a77078", "operator": "United States Postal Service", "operator:short": "USPS", "operator:type": "public", "operator:wikidata": "Q668687", "ref": "8643200001"}, "type": "Feature"}
{"dataset_attributes": {"@spider": "usps_collection_boxes", "spider:collection_time": "2023-09-01T08:24:43.385582"}, "geometry": {"coordinates": [-113.934107174, 36.907435627], "type": "Point"}, "id": "GVy9YVH_NcnQOJApQYMTO1hCUqo=", "properties": {"@spider": "usps_collection_boxes", "addr:city": "LITTLEFIELD", "addr:country": "US", "addr:full": "3288 E MCKNIGHT RD", "addr:postcode": "86432", "addr:state": "AZ", "amenity": "post_box", "brand": "United States Postal Service", "brand:wikidata": "Q668687", "collection_times": "Mo-Fr 16:30", "name": "USPS COLLECTION BOX - PO LOBBY", "note": "ON 12/24 AND 12/31, THIS BOX MAY BE COLLECTED AS EARLY AS 12 NOON.", "nsi_id": "unitedstatespostalservice-a77078", "operator": "United States Postal Service", "operator:short": "USPS", "operator:type": "public", "operator:wikidata": "Q668687", "ref": "8643200002"}, "type": "Feature"}
{"dataset_attributes": {"@spider": "usps_collection_boxes", "spider:collection_time": "2023-09-01T08:24:43.385582"}, "geometry": {"coordinates": [-114.3844512351, 35.0270120616], "type": "Point"}, "id": "xGxmjPjnHGBX5-1WnplM1RirPrI=", "properties": {"@spider": "usps_collection_boxes", "addr:city": "OATMAN", "addr:country": "US", "addr:full": "251 MAIN ST", "addr:postcode": "86433", "addr:state": "AZ", "amenity": "post_box", "brand": "United States Postal Service", "brand:wikidata": "Q668687", "collection_times": "Mo-Fr 09:00; Sa 10:30", "name": "USPS COLLECTION BOX - BLUE BOX", "nsi_id": "unitedstatespostalservice-a77078", "operator": "United States Postal Service", "operator:short": "USPS", "operator:type": "public", "operator:wikidata": "Q668687", "ref": "8643300001"}, "type": "Feature"}
{"dataset_attributes": {"@spider": "usps_collection_boxes", "spider:collection_time": "2023-09-01T08:24:43.385582"}, "geometry": {"coordinates": [-114.3844512351, 35.0270120616], "type": "Point"}, "id": "Ucrdf2VbBjowXxmH3Jd6xRaSLwU=", "properties": {"@spider": "usps_collection_boxes", "addr:city": "OATMAN", "addr:country": "US", "addr:full": "251 MAIN ST", "addr:postcode": "86433", "addr:state": "AZ", "amenity": "post_box", "brand": "United States Postal Service", "brand:wikidata": "Q668687", "collection_times": "Mo-Sa 11:00", "name": "USPS COLLECTION BOX - PO LOBBY", "nsi_id": "unitedstatespostalservice-a77078", "operator": "United States Postal Service", "operator:short": "USPS", "operator:type": "public", "operator:wikidata": "Q668687", "ref": "8643300002"}, "type": "Feature"}
{"dataset_attributes": {"@spider": "usps_collection_boxes", "spider:collection_time": "2023-09-01T08:24:43.385582"}, "geometry": {"coordinates": [-114.3844512351, 35.0270120616], "type": "Point"}, "id": "c9HO_pn5edoTCUptsvRKv2MxVW8=", "properties": {"@spider": "usps_collection_boxes", "addr:city": "OATMAN", "addr:country": "US", "addr:full": "251 MAIN ST", "addr:postcode": "86433", "addr:state": "AZ", "amenity": "post_box", "brand": "United States Postal Service", "brand:wikidata": "Q668687", "collection_times": "Mo-Fr 11:00", "name": "USPS COLLECTION BOX - PO LOBBY", "nsi_id": "unitedstatespostalservice-a77078", "operator": "United States Postal Service", "operator:short": "USPS", "operator:type": "public", "operator:wikidata": "Q668687", "ref": "8643300003"}, "type": "Feature"}
{"dataset_attributes": {"@spider": "usps_collection_boxes", "spider:collection_time": "2023-09-01T08:24:43.385582"}, "geometry": {"coordinates": [-113.426566, 35.528988], "type": "Point"}, "id": "ng1yWcBtMhPqlqQCauBVOpNR7IU=", "properties": {"@spider": "usps_collection_boxes", "addr:city": "PEACH SPRINGS", "addr:country": "US", "addr:full": "877 HIGHWAY 66", "addr:postcode": "86434", "addr:state": "AZ", "amenity": "post_box", "brand": "United States Postal Service", "brand:wikidata": "Q668687", "collection_times": "Mo-Fr 14:30; Sa 09:30", "name": "USPS COLLECTION BOX - BLUE BOX", "note": "ON 12/24 AND 12/31, THIS BOX MAY BE COLLECTED AS EARLY AS 12 NOON.", "nsi_id": "unitedstatespostalservice-a77078", "operator": "United States Postal Service", "operator:short": "USPS", "operator:type": "public", "operator:wikidata": "Q668687", "ref": "8643400001"}, "type": "Feature"}
{"dataset_attributes": {"@spider": "usps_collection_boxes", "spider:collection_time": "2023-09-01T08:24:43.385582"}, "geometry": {"coordinates": [-113.426502, 35.528974], "type": "Point"}, "id": "q4uKNX1bRv671Hp71ScT1qY7ZIg=", "properties": {"@spider": "usps_collection_boxes", "addr:city": "PEACH SPRINGS", "addr:country": "US", "addr:full": "877 HIGHWAY 66", "addr:postcode": "86434", "addr:state": "AZ", "amenity": "post_box", "brand": "United States Postal Service", "brand:wikidata": "Q668687", "collection_times": "Mo-Fr 14:30; Sa 09:30", "name": "USPS COLLECTION BOX - PO LOBBY", "note": "ON 12/24 AND 12/31, THIS BOX MAY BE COLLECTED AS EARLY AS 12 NOON.", "nsi_id": "unitedstatespostalservice-a77078", "operator": "United States Postal Service", "operator:short": "USPS", "operator:type": "public", "operator:wikidata": "Q668687", "ref": "8643400002"}, "type": "Feature"}
{"dataset_attributes": {"@spider": "usps_collection_boxes", "spider:collection_time": "2023-09-01T08:24:43.385582"}, "geometry": {"coordinates": [-113.4267454434, 35.5289835308], "type": "Point"}, "id": "DhmeNMCl1OtRmmgoVfg-mm8FviM=", "properties": {"@spider": "usps_collection_boxes", "addr:city": "PEACH SPRINGS", "addr:country": "US", "addr:full": "877 HIGHWAY 66", "addr:postcode": "86434", "addr:state": "AZ", "amenity": "post_box", "brand": "United States Postal Service", "brand:wikidata": "Q668687", "collection_times": "Mo-Fr 14:30", "name": "USPS COLLECTION BOX - PO LOBBY", "note": "ON 12/24 AND 12/31, THIS BOX MAY BE COLLECTED AS EARLY AS 12 NOON.", "nsi_id": "unitedstatespostalservice-a77078", "operator": "United States Postal Service", "operator:short": "USPS", "operator:type": "public", "operator:wikidata": "Q668687", "ref": "8643400003"}, "type": "Feature"}
{"dataset_attributes": {"@spider": "usps_collection_boxes", "spider:collection_time": "2023-09-01T08:24:43.385582"}, "geometry": {"coordinates": [-112.70919, 36.1592], "type": "Point"}, "id": "_QabjOKeRUi0SXT40qrVDkuCx2M=", "properties": {"@spider": "usps_collection_boxes", "addr:city": "SUPAI", "addr:country": "US", "addr:full": "100 MAIN ST", "addr:postcode": "86435", "addr:state": "AZ", "amenity": "post_box", "brand": "United States Postal Service", "brand:wikidata": "Q668687", "collection_times": "Mo-Fr 08:00", "name": "USPS COLLECTION BOX - PO LOBBY", "nsi_id": "unitedstatespostalservice-a77078", "operator": "United States Postal Service", "operator:short": "USPS", "operator:type": "public", "operator:wikidata": "Q668687", "ref": "8643500002"}, "type": "Feature"}
{"dataset_attributes": {"@spider": "usps_collection_boxes", "spider:collection_time": "2023-09-01T08:24:43.385582"}, "geometry": {"coordinates": [-112.70919, 36.1592], "type": "Point"}, "id": "B3bx2zYNx4s_A-3R0qVTb7XHQSE=", "properties": {"@spider": "usps_collection_boxes", "addr:city": "SUPAI", "addr:country": "US", "addr:full": "100 MAIN ST", "addr:postcode": "86435", "addr:state": "AZ", "amenity": "post_box", "brand": "United States Postal Service", "brand:wikidata": "Q668687", "collection_times": "Mo-Fr 08:00", "name": "USPS COLLECTION BOX - PO LOBBY", "nsi_id": "unitedstatespostalservice-a77078", "operator": "United States Postal Service", "operator:short": "USPS", "operator:type": "public", "operator:wikidata": "Q668687", "ref": "8643500003"}, "type": "Feature"}
{"dataset_attributes": {"@spider": "usps_collection_boxes", "spider:collection_time": "2023-09-01T08:24:43.385582"}, "geometry": {"coordinates": [-114.480982, 34.780793], "type": "Point"}, "id": "x7eM8vcc6EwzIhayy_wl7Ff2Df8=", "properties": {"@spider": "usps_collection_boxes", "addr:city": "TOPOCK", "addr:country": "US", "addr:full": "12936 S OATMAN HWY", "addr:postcode": "86436", "addr:state": "AZ", "amenity": "post_box", "brand": "United States Postal Service", "brand:wikidata": "Q668687", "collection_times": "Mo-Fr 14:00; Sa 11:00", "name": "USPS COLLECTION BOX - BLUE BOX", "note": "ON 12/24 AND 12/31, THIS BOX MAY BE COLLECTED AS EARLY AS 12 NOON.", "nsi_id": "unitedstatespostalservice-a77078", "operator": "United States Postal Service", "operator:short": "USPS", "operator:type": "public", "operator:wikidata": "Q668687", "ref": "8643600002"}, "type": "Feature"}
{"dataset_attributes": {"@spider": "usps_collection_boxes", "spider:collection_time": "2023-09-01T08:24:43.385582"}, "geometry": {"coordinates": [-114.480995, 34.780705], "type": "Point"}, "id": "kHBueaieBtDjULlQEdKoQ7d4DSA=", "properties": {"@spider": "usps_collection_boxes", "addr:city": "TOPOCK", "addr:country": "US", "addr:full": "12936 S OATMAN HWY", "addr:postcode": "86436", "addr:state": "AZ", "amenity": "post_box", "brand": "United States Postal Service", "brand:wikidata": "Q668687", "collection_times": "Mo-Fr 15:00; Sa 11:00", "name": "USPS COLLECTION BOX - PO LOBBY", "note": "ON 12/24 AND 12/31, THIS BOX MAY BE COLLECTED AS EARLY AS 12 NOON.", "nsi_id": "unitedstatespostalservice-a77078", "operator": "United States Postal Service", "operator:short": "USPS", "operator:type": "public", "operator:wikidata": "Q668687", "ref": "8643600003"}, "type": "Feature"}
{"dataset_attributes": {"@spider": "usps_collection_boxes", "spider:collection_time": "2023-09-01T08:24:43.385582"}, "geometry": {"coordinates": [-114.481011732, 34.780907336], "type": "Point"}, "id": "N8u_GQs5JxgwdC-PdKwtgXqpRbg=", "properties": {"@spider": "usps_collection_boxes", "addr:city": "TOPOCK", "addr:country": "US", "addr:full": "12936 S OATMAN HWY", "addr:postcode": "86436", "addr:state": "AZ", "amenity": "post_box", "brand": "United States Postal Service", "brand:wikidata": "Q668687", "collection_times": "Mo-Fr 15:00", "name": "USPS COLLECTION BOX - PO LOBBY", "note": "ON 12/24 AND 12/31, THIS BOX MAY BE COLLECTED AS EARLY AS 12 NOON.", "nsi_id": "unitedstatespostalservice-a77078", "operator": "United States Postal Service", "operator:short": "USPS", "operator:type": "public", "operator:wikidata": "Q668687", "ref": "8643600004"}, "type": "Feature"}
{"dataset_attributes": {"@spider": "usps_collection_boxes", "spider:collection_time": "2023-09-01T08:24:43.385582"}, "geometry": {"coordinates": [-114.148278, 34.870457], "type": "Point"}, "id": "gZ5S-LXXXNCdjafV-BDl-A5y7yI=", "properties": {"@spider": "usps_collection_boxes", "addr:city": "YUCCA", "addr:country": "US", "addr:full": "12241 S FRONTAGE RD", "addr:postcode": "86438", "addr:state": "AZ", "amenity": "post_box", "brand": "United States Postal Service", "brand:wikidata": "Q668687", "collection_times": "Mo-Fr 15:30; Sa 09:30", "name": "USPS COLLECTION BOX - BLUE BOX", "note": "ON 12/24 AND 12/31, THIS BOX MAY BE COLLECTED AS EARLY AS 12 NOON.", "nsi_id": "unitedstatespostalservice-a77078", "operator": "United States Postal Service", "operator:short": "USPS", "operator:type": "public", "operator:wikidata": "Q668687", "ref": "8643800001"}, "type": "Feature"}
{"dataset_attributes": {"@spider": "usps_collection_boxes", "spider:collection_time": "2023-09-01T08:24:43.385582"}, "geometry": {"coordinates": [-114.148249, 34.870524], "type": "Point"}, "id": "rQ2djDLDdw0QWf_PLsiv0pBFoPw=", "properties": {"@spider": "usps_collection_boxes", "addr:city": "YUCCA", "addr:country": "US", "addr:full": "12241 S FRONTAGE RD", "addr:postcode": "86438", "addr:state": "AZ", "amenity": "post_box", "brand": "United States Postal Service", "brand:wikidata": "Q668687", "collection_times": "Mo-Fr 15:30; Sa 09:30", "name": "USPS COLLECTION BOX - PO LOBBY", "note": "ON 12/24 AND 12/31, THIS BOX MAY BE COLLECTED AS EARLY AS 12 NOON.", "nsi_id": "unitedstatespostalservice-a77078", "operator": "United States Postal Service", "operator:short": "USPS", "operator:type": "public", "operator:wikidata": "Q668687", "ref": "8643800002"}, "type": "Feature"}
{"dataset_attributes": {"@spider": "usps_collection_boxes", "spider:collection_time": "2023-09-01T08:24:43.385582"}, "geometry": {"coordinates": [-114.148306901, 34.870472504], "type": "Point"}, "id": "3_fwdRhi8BKk9SFp7AMGakWUWLk=", "properties": {"@spider": "usps_collection_boxes", "addr:city": "YUCCA", "addr:country": "US", "addr:full": "12241 S FRONTAGE RD", "addr:postcode": "86438", "addr:state": "AZ", "amenity": "post_box", "brand": "United States Postal Service", "brand:wikidata": "Q668687", "collection_times": "Mo-Fr 15:30", "name": "USPS COLLECTION BOX - PO LOBBY", "note": "ON 12/24 AND 12/31, THIS BOX MAY BE COLLECTED AS EARLY AS 12 NOON.", "nsi_id": "unitedstatespostalservice-a77078", "operator": "United States Postal Service", "operator:short": "USPS", "operator:type": "public", "operator:wikidata": "Q668687", "ref": "8643800003"}, "type": "Feature"}
{"dataset_attributes": {"@spider": "usps_collection_boxes", "spider:collection_time": "2023-09-01T08:24:43.385582"}, "geometry": {"coordinates": [-114.59799, 35.00483639], "type": "Point"}, "id": "6S0mTBUYNjex3K-Gvixv7oO2Pf4=", "properties": {"@spider": "usps_collection_boxes", "addr:city": "BULLHEAD CITY", "addr:country": "US", "addr:full": "8045 S HIGHWAY 95", "addr:postcode": "86440", "addr:state": "AZ", "amenity": "post_box", "brand": "United States Postal Service", "brand:wikidata": "Q668687", "collection_times": "Mo-Fr 15:30; Sa 11:00", "name": "USPS COLLECTION BOX - BLUE BOX", "note": "ON 12/24 AND 12/31, THIS BOX MAY BE COLLECTED AS EARLY AS 12 NOON.", "nsi_id": "unitedstatespostalservice-a77078", "operator": "United States Postal Service", "operator:short": "USPS", "operator:type": "public", "operator:wikidata": "Q668687", "ref": "8644000000"}, "type": "Feature"}
{"dataset_attributes": {"@spider": "usps_collection_boxes", "spider:collection_time": "2023-09-01T08:24:43.385582"}, "geometry": {"coordinates": [-114.59784, 34.92174], "type": "Point"}, "id": "TSjxxyeEoLhL73BeVYHF8u5YhwE=", "properties": {"@spider": "usps_collection_boxes", "addr:city": "BULLHEAD CITY", "addr:country": "US", "addr:full": "8045 S HIGHWAY 95", "addr:postcode": "86440", "addr:state": "AZ", "amenity": "post_box", "brand": "United States Postal Service", "brand:wikidata": "Q668687", "collection_times": "Mo-Fr 15:30; Sa 11:00", "name": "USPS COLLECTION BOX - PO LOBBY", "note": "ON 12/24 AND 12/31, THIS BOX MAY BE COLLECTED AS EARLY AS 12 NOON.", "nsi_id": "unitedstatespostalservice-a77078", "operator": "United States Postal Service", "operator:short": "USPS", "operator:type": "public", "operator:wikidata": "Q668687", "ref": "8644000002"}, "type": "Feature"}
{"dataset_attributes": {"@spider": "usps_collection_boxes", "spider:collection_time": "2023-09-01T08:24:43.385582"}, "geometry": {"coordinates": [-114.5978665, 34.918838916], "type": "Point"}, "id": "qTBnfOUnBFFIxBPcTYm350ZfnSc=", "properties": {"@spider": "usps_collection_boxes", "addr:city": "BULLHEAD CITY", "addr:country": "US", "addr:full": "8045 S HIGHWAY 95", "addr:postcode": "86440", "addr:state": "AZ", "amenity": "post_box", "brand": "United States Postal Service", "brand:wikidata": "Q668687", "collection_times": "Mo-Fr 15:30", "name": "USPS COLLECTION BOX - PO LOBBY", "note": "ON 12/24 AND 12/31, THIS BOX MAY BE COLLECTED AS EARLY AS 12 NOON.", "nsi_id": "unitedstatespostalservice-a77078", "operator": "United States Postal Service", "operator:short": "USPS", "operator:type": "public", "operator:wikidata": "Q668687", "ref": "8644000003"}, "type": "Feature"}
{"dataset_attributes": {"@spider": "usps_collection_boxes", "spider:collection_time": "2023-09-01T08:24:43.385582"}, "geometry": {"coordinates": [-114.272179, 35.591664], "type": "Point"}, "id": "uRy7_3nXzHI-fPRoAD9sboHoG6o=", "properties": {"@spider": "usps_collection_boxes", "addr:city": "DOLAN SPRINGS", "addr:country": "US", "addr:full": "16041 N PIERCE FERRY RD", "addr:postcode": "86441", "addr:state": "AZ", "amenity": "post_box", "brand": "United States Postal Service", "brand:wikidata": "Q668687", "collection_times": "Mo-Fr 13:30; Sa 10:30", "name": "USPS COLLECTION BOX - BLUE BOX", "note": "ON 12/24 AND 12/31, THIS BOX MAY BE COLLECTED AS EARLY AS 12 NOON.", "nsi_id": "unitedstatespostalservice-a77078", "operator": "United States Postal Service", "operator:short": "USPS", "operator:type": "public", "operator:wikidata": "Q668687", "ref": "8644100001"}, "type": "Feature"}
{"dataset_attributes": {"@spider": "usps_collection_boxes", "spider:collection_time": "2023-09-01T08:24:43.385582"}, "geometry": {"coordinates": [-114.273258578, 35.590919929], "type": "Point"}, "id": "nzFtsw8oDVw7_yVApl_GLFZKOPg=", "properties": {"@spider": "usps_collection_boxes", "addr:city": "DOLAN SPRINGS", "addr:country": "US", "addr:full": "16041 N PIERCE FERRY RD", "addr:postcode": "86441", "addr:state": "AZ", "amenity": "post_box", "brand": "United States Postal Service", "brand:wikidata": "Q668687", "collection_times": "Mo-Sa 13:30", "name": "USPS COLLECTION BOX - PO LOBBY", "note": "ON 12/24 AND 12/31, THIS BOX MAY BE COLLECTED AS EARLY AS 12 NOON.", "nsi_id": "unitedstatespostalservice-a77078", "operator": "United States Postal Service", "operator:short": "USPS", "operator:type": "public", "operator:wikidata": "Q668687", "ref": "8644100002"}, "type": "Feature"}
{"dataset_attributes": {"@spider": "usps_collection_boxes", "spider:collection_time": "2023-09-01T08:24:43.385582"}, "geometry": {"coordinates": [-114.61277, 35.103753], "type": "Point"}, "id": "FR2PuDwnbJ8ldY5QSJHH8Kg8mtg=", "properties": {"@spider": "usps_collection_boxes", "addr:city": "BULLHEAD CITY", "addr:country": "US", "addr:full": "1882 LAKESIDE DR", "addr:postcode": "86442", "addr:state": "AZ", "amenity": "post_box", "brand": "United States Postal Service", "brand:wikidata": "Q668687", "collection_times": "Mo-Sa 17:00", "name": "USPS COLLECTION BOX - BLUE BOX", "note": "ON 12/24 AND 12/31, THIS BOX MAY BE COLLECTED AS EARLY AS 12 NOON.", "nsi_id": "unitedstatespostalservice-a77078", "operator": "United States Postal Service", "operator:short": "USPS", "operator:type": "public", "operator:wikidata": "Q668687", "ref": "8644200001"}, "type": "Feature"}
{"dataset_attributes": {"@spider": "usps_collection_boxes", "spider:collection_time": "2023-09-01T08:24:43.385582"}, "geometry": {"coordinates": [-114.612767, 35.103758], "type": "Point"}, "id": "oRRRo7omUfNUaKjZrvxUcg6S7E0=", "properties": {"@spider": "usps_collection_boxes", "addr:city": "BULLHEAD CITY", "addr:country": "US", "addr:full": "1882 LAKESIDE DR", "addr:postcode": "86442", "addr:state": "AZ", "amenity": "post_box", "brand": "United States Postal Service", "brand:wikidata": "Q668687", "collection_times": "Mo-Sa 17:00", "name": "USPS COLLECTION BOX - BLUE BOX", "note": "ON 12/24 AND 12/31, THIS BOX MAY BE COLLECTED AS EARLY AS 12 NOON.", "nsi_id": "unitedstatespostalservice-a77078", "operator": "United States Postal Service", "operator:short": "USPS", "operator:type": "public", "operator:wikidata": "Q668687", "ref": "8644200002"}, "type": "Feature"}
{"dataset_attributes": {"@spider": "usps_collection_boxes", "spider:collection_time": "2023-09-01T08:24:43.385582"}, "geometry": {"coordinates": [-114.604247, 35.102104], "type": "Point"}, "id": "HDIKnYzCvgji8uaRQPB26FkkmUA=", "properties": {"@spider": "usps_collection_boxes", "addr:city": "BULLHEAD CITY", "addr:country": "US", "addr:full": "2355 TRANE RD", "addr:postcode": "86442", "addr:state": "AZ", "amenity": "post_box", "brand": "United States Postal Service", "brand:wikidata": "Q668687", "collection_times": "Mo-Sa 15:45", "name": "USPS COLLECTION BOX - BLUE BOX", "note": "ON 12/24 AND 12/31, THIS BOX MAY BE COLLECTED AS EARLY AS 12 NOON.", "nsi_id": "unitedstatespostalservice-a77078", "operator": "United States Postal Service", "operator:short": "USPS", "operator:type": "public", "operator:wikidata": "Q668687", "ref": "8644200003"}, "type": "Feature"}
{"dataset_attributes": {"@spider": "usps_collection_boxes", "spider:collection_time": "2023-09-01T08:24:43.385582"}, "geometry": {"coordinates": [-114.589218, 35.120812], "type": "Point"}, "id": "PoNQv0079tyty1th0NwuuF8au8w=", "properties": {"@spider": "usps_collection_boxes", "addr:city": "BULLHEAD CITY", "addr:country": "US", "addr:full": "1751 HIGHWAY 95", "addr:postcode": "86442", "addr:state": "AZ", "amenity": "post_box", "brand": "United States Postal Service", "brand:wikidata": "Q668687", "collection_times": "Mo-Sa 15:00", "name": "USPS COLLECTION BOX - BLUE BOX", "note": "ON 12/24 AND 12/31, THIS BOX MAY BE COLLECTED AS EARLY AS 12 NOON.", "nsi_id": "unitedstatespostalservice-a77078", "operator": "United States Postal Service", "operator:short": "USPS", "operator:type": "public", "operator:wikidata": "Q668687", "ref": "8644200010"}, "type": "Feature"}
{"dataset_attributes": {"@spider": "usps_collection_boxes", "spider:collection_time": "2023-09-01T08:24:43.385582"}, "geometry": {"coordinates": [-114.604543, 35.106576], "type": "Point"}, "id": "oG54a1qy5wsS08N0RQCG6a5CgGc=", "properties": {"@spider": "usps_collection_boxes", "addr:city": "BULLHEAD CITY", "addr:country": "US", "addr:full": "2225 TRANE RD", "addr:postcode": "86442", "addr:state": "AZ", "amenity": "post_box", "brand": "United States Postal Service", "brand:wikidata": "Q668687", "collection_times": "Mo-Sa 16:15", "name": "USPS COLLECTION BOX - BLUE BOX", "note": "ON 12/24 AND 12/31, THIS BOX MAY BE COLLECTED AS EARLY AS 12 NOON.", "nsi_id": "unitedstatespostalservice-a77078", "operator": "United States Postal Service", "operator:short": "USPS", "operator:type": "public", "operator:wikidata": "Q668687", "ref": "8644200011"}, "type": "Feature"}
{"dataset_attributes": {"@spider": "usps_collection_boxes", "spider:collection_time": "2023-09-01T08:24:43.385582"}, "geometry": {"coordinates": [-114.592192, 35.047421], "type": "Point"}, "id": "xDVigM56thsSNBMuW-0uCup-4L4=", "properties": {"@spider": "usps_collection_boxes", "addr:city": "BULLHEAD CITY", "addr:country": "US", "addr:full": "3750 MAY ST", "addr:postcode": "86442", "addr:state": "AZ", "amenity": "post_box", "brand": "United States Postal Service", "brand:wikidata": "Q668687", "collection_times": "Mo-Sa 11:00", "name": "USPS COLLECTION BOX - BLUE BOX", "nsi_id": "unitedstatespostalservice-a77078", "operator": "United States Postal Service", "operator:short": "USPS", "operator:type": "public", "operator:wikidata": "Q668687", "ref": "8644200019"}, "type": "Feature"}
{"dataset_attributes": {"@spider": "usps_collection_boxes", "spider:collection_time": "2023-09-01T08:24:43.385582"}, "geometry": {"coordinates": [-114.575077, 35.04699], "type": "Point"}, "id": "eifwBTTrEfYW1gbpOrysPCiFGhQ=", "properties": {"@spider": "usps_collection_boxes", "addr:city": "BULLHEAD CITY", "addr:country": "US", "addr:full": "2198 CORWIN RD", "addr:postcode": "86442", "addr:state": "AZ", "amenity": "post_box", "brand": "United States Postal Service", "brand:wikidata": "Q668687", "collection_times": "Mo-Sa 11:00", "name": "USPS COLLECTION BOX - BLUE BOX", "nsi_id": "unitedstatespostalservice-a77078", "operator": "United States Postal Service", "operator:short": "USPS", "operator:type": "public", "operator:wikidata": "Q668687", "ref": "8644200024"}, "type": "Feature"}
{"dataset_attributes": {"@spider": "usps_collection_boxes", "spider:collection_time": "2023-09-01T08:24:43.385582"}, "geometry": {"coordinates": [-114.612348, 35.104197], "type": "Point"}, "id": "gErUqCO41YpfAfaPXE1_I9ehFnQ=", "properties": {"@spider": "usps_collection_boxes", "addr:city": "BULLHEAD CITY", "addr:country": "US", "addr:full": "1882 LAKESIDE DR", "addr:postcode": "86442", "addr:state": "AZ", "amenity": "post_box", "brand": "United States Postal Service", "brand:wikidata": "Q668687", "collection_times": "Mo-Sa 17:00", "name": "USPS COLLECTION BOX - PO LOBBY", "note": "ON 12/24 AND 12/31, THIS BOX MAY BE COLLECTED AS EARLY AS 12 NOON.", "nsi_id": "unitedstatespostalservice-a77078", "operator": "United States Postal Service", "operator:short": "USPS", "operator:type": "public", "operator:wikidata": "Q668687", "ref": "8644200032"}, "type": "Feature"}
{"dataset_attributes": {"@spider": "usps_collection_boxes", "spider:collection_time": "2023-09-01T08:24:43.385582"}, "geometry": {"coordinates": [-114.594607, 35.081712], "type": "Point"}, "id": "COvWTSH246zeXOPswz2e11jxKAM=", "properties": {"@spider": "usps_collection_boxes", "addr:city": "BULLHEAD CITY", "addr:country": "US", "addr:full": "2840 HIGHWAY 95", "addr:postcode": "86442", "addr:state": "AZ", "amenity": "post_box", "brand": "United States Postal Service", "brand:wikidata": "Q668687", "collection_times": "Mo-Sa 15:00", "name": "USPS COLLECTION BOX - BLUE BOX", "note": "ON 12/24 AND 12/31, THIS BOX MAY BE COLLECTED AS EARLY AS 12 NOON.", "nsi_id": "unitedstatespostalservice-a77078", "operator": "United States Postal Service", "operator:short": "USPS", "operator:type": "public", "operator:wikidata": "Q668687", "ref": "8644200034"}, "type": "Feature"}
{"dataset_attributes": {"@spider": "usps_collection_boxes", "spider:collection_time": "2023-09-01T08:24:43.385582"}, "geometry": {"coordinates": [-114.612839427, 35.104103832], "type": "Point"}, "id": "4Q3UxmRkdGgl9VE01lhQ643cVTA=", "properties": {"@spider": "usps_collection_boxes", "addr:city": "BULLHEAD CITY", "addr:country": "US", "addr:full": "1882 LAKESIDE DR", "addr:postcode": "86442", "addr:state": "AZ", "amenity": "post_box", "brand": "United States Postal Service", "brand:wikidata": "Q668687", "collection_times": "Mo-Fr 17:00; Sa 13:30", "name": "USPS COLLECTION BOX - PO LOBBY", "note": "ON 12/24 AND 12/31, THIS BOX MAY BE COLLECTED AS EARLY AS 12 NOON.", "nsi_id": "unitedstatespostalservice-a77078", "operator": "United States Postal Service", "operator:short": "USPS", "operator:type": "public", "operator:wikidata": "Q668687", "ref": "8644200039"}, "type": "Feature"}
{"dataset_attributes": {"@spider": "usps_collection_boxes", "spider:collection_time": "2023-09-01T08:24:43.385582"}, "geometry": {"coordinates": [-114.0654549999, 36.0006719856], "type": "Point"}, "id": "gnR6FEA6fE1nINKQlGXqYbi80P0=", "properties": {"@spider": "usps_collection_boxes", "addr:city": "KINGMAN", "addr:country": "US", "addr:full": "250 E PUEBLO DR", "addr:postcode": "86444", "addr:state": "AZ", "amenity": "post_box", "brand": "United States Postal Service", "brand:wikidata": "Q668687", "collection_times": "Mo-Sa 12:30", "name": "USPS COLLECTION BOX - PO LOBBY", "note": "ON 12/24 AND 12/31, THIS BOX MAY BE COLLECTED AS EARLY AS 12 NOON.", "nsi_id": "unitedstatespostalservice-a77078", "operator": "United States Postal Service", "operator:short": "USPS", "operator:type": "public", "operator:wikidata": "Q668687", "ref": "8644400001"}, "type": "Feature"}
{"dataset_attributes": {"@spider": "usps_collection_boxes", "spider:collection_time": "2023-09-01T08:24:43.385582"}, "geometry": {"coordinates": [-114.0654549999, 36.0006719856], "type": "Point"}, "id": "kwTGyeSQDZezrujiuv0L5VBkHjo=", "properties": {"@spider": "usps_collection_boxes", "addr:city": "KINGMAN", "addr:country": "US", "addr:full": "250 E PUEBLO DR", "addr:postcode": "86444", "addr:state": "AZ", "amenity": "post_box", "brand": "United States Postal Service", "brand:wikidata": "Q668687", "collection_times": "Mo-Sa 12:30", "name": "USPS COLLECTION BOX - BLUE BOX", "note": "ON 12/24 AND 12/31, THIS BOX MAY BE COLLECTED AS EARLY AS 12 NOON.", "nsi_id": "unitedstatespostalservice-a77078", "operator": "United States Postal Service", "operator:short": "USPS", "operator:type": "public", "operator:wikidata": "Q668687", "ref": "8644400002"}, "type": "Feature"}
