{"dataset_attributes": {"@spider": "usps_collection_boxes"}, "geometry": {"coordinates": [-109.431979, 35.19146], "type": "Point"}, "id": "_g4JHJstdeuRPCbgwMAb_hW2OPw=", "properties": {"@spider": "usps_collection_boxes", "addr:city": "CHAMBERS", "addr:country": "US", "addr:full": "800 HIGHWAY 191", "addr:postcode": "86502", "addr:state": "AZ", "amenity": "post_box", "brand": "United States Postal Service", "brand:wikidata": "Q668687", "collection_times": "Mo-Fr 13:45; Sa 11:44", "name": "USPS COLLECTION BOX - PO LOBBY", "note": "ON 12/24 AND 12/31, THIS BOX MAY BE COLLECTED AS EARLY AS 12 NOON.", "nsi_id": "unitedstatespostalservice-a77078", "operator": "United States Postal Service", "operator:short": "USPS", "operator:type": "public", "operator:wikidata": "Q668687", "ref": "8650200005"}, "type": "Feature"}
{"dataset_attributes": {"@spider": "usps_collection_boxes"}, "geometry": {"coordinates": [-109.431979, 35.19146], "type": "Point"}, "id": "0fdiOMpjwp_x4J-4O2hu8_8BZFU=", "properties": {"@spider": "usps_collection_boxes", "addr:city": "CHAMBERS", "addr:country": "US", "addr:full": "800 HIGHWAY 191", "addr:postcode": "86502", "addr:state": "AZ", "amenity": "post_box", "brand": "United States Postal Service", "brand:wikidata": "Q668687", "collection_times": "Mo-Fr 13:45; Sa 11:45", "name": "USPS COLLECTION BOX - BLUE BOX", "note": "ON 12/24 AND 12/31, THIS BOX MAY BE COLLECTED AS EARLY AS 12 NOON.", "nsi_id": "unitedstatespostalservice-a77078", "operator": "United States Postal Service", "operator:short": "USPS", "operator:type": "public", "operator:wikidata": "Q668687", "ref": "8650200008"}, "type": "Feature"}
{"dataset_attributes": {"@spider": "usps_collection_boxes"}, "geometry": {"coordinates": [-109.330877463, 35.210929937], "type": "Point"}, "id": "7CcnhoT0lb0r58TVXfp2zFFtjmQ=", "properties": {"@spider": "usps_collection_boxes", "addr:city": "CHAMBERS", "addr:country": "US", "addr:full": "800 HIGHWAY 191", "addr:postcode": "86502", "addr:state": "AZ", "amenity": "post_box", "brand": "United States Postal Service", "brand:wikidata": "Q668687", "collection_times": "Mo-Fr 13:45; Sa 11:45", "name": "USPS COLLECTION BOX - PO LOBBY", "note": "ON 12/24 AND 12/31, THIS BOX MAY BE COLLECTED AS EARLY AS 12 NOON.", "nsi_id": "unitedstatespostalservice-a77078", "operator": "United States Postal Service", "operator:short": "USPS", "operator:type": "public", "operator:wikidata": "Q668687", "ref": "8650200009"}, "type": "Feature"}
{"dataset_attributes": {"@spider": "usps_collection_boxes"}, "geometry": {"coordinates": [-109.601308, 35.877042], "type": "Point"}, "id": "N_aulrUHaJ5Y-uKZpw0-kpAgEDQ=", "properties": {"@spider": "usps_collection_boxes", "addr:city": "CHINLE", "addr:country": "US", "addr:full": "500 HIGHWAY 191", "addr:postcode": "86503", "addr:state": "AZ", "amenity": "post_box", "brand": "United States Postal Service", "brand:wikidata": "Q668687", "collection_times": "Mo-Sa 13:00", "name": "USPS COLLECTION BOX - BLUE BOX", "note": "ON 12/24 AND 12/31, THIS BOX MAY BE COLLECTED AS EARLY AS 12 NOON.", "nsi_id": "unitedstatespostalservice-a77078", "operator": "United States Postal Service", "operator:short": "USPS", "operator:type": "public", "operator:wikidata": "Q668687", "ref": "8650300003"}, "type": "Feature"}
{"dataset_attributes": {"@spider": "usps_collection_boxes"}, "geometry": {"coordinates": [-109.601308, 35.877042], "type": "Point"}, "id": "eVyrMDWhdxEj1jIfZouF2juhNuI=", "properties": {"@spider": "usps_collection_boxes", "addr:city": "CHINLE", "addr:country": "US", "addr:full": "500 HIGHWAY 191", "addr:postcode": "86503", "addr:state": "AZ", "amenity": "post_box", "brand": "United States Postal Service", "brand:wikidata": "Q668687", "collection_times": "Mo-Sa 13:00", "name": "USPS COLLECTION BOX - PO LOBBY", "note": "ON 12/24 AND 12/31, THIS BOX MAY BE COLLECTED AS EARLY AS 12 NOON.", "nsi_id": "unitedstatespostalservice-a77078", "operator": "United States Postal Service", "operator:short": "USPS", "operator:type": "public", "operator:wikidata": "Q668687", "ref": "8650300004"}, "type": "Feature"}
{"dataset_attributes": {"@spider": "usps_collection_boxes"}, "geometry": {"coordinates": [-109.604521511, 36.289432518], "type": "Point"}, "id": "hN4G9jBIOd8JSwAvfXGs4LI24M4=", "properties": {"@spider": "usps_collection_boxes", "addr:city": "CHINLE", "addr:country": "US", "addr:full": "500 HIGHWAY 191", "addr:postcode": "86503", "addr:state": "AZ", "amenity": "post_box", "brand": "United States Postal Service", "brand:wikidata": "Q668687", "collection_times": "Mo-Fr 13:00", "name": "USPS COLLECTION BOX - PO LOBBY", "note": "ON 12/24 AND 12/31, THIS BOX MAY BE COLLECTED AS EARLY AS 12 NOON.", "nsi_id": "unitedstatespostalservice-a77078", "operator": "United States Postal Service", "operator:short": "USPS", "operator:type": "public", "operator:wikidata": "Q668687", "ref": "8650300006"}, "type": "Feature"}
{"dataset_attributes": {"@spider": "usps_collection_boxes"}, "geometry": {"coordinates": [-109.08318, 35.78795], "type": "Point"}, "id": "gFqk42rssHBezRynE1b8U3uNgWI=", "properties": {"@spider": "usps_collection_boxes", "addr:city": "FORT DEFIANCE", "addr:country": "US", "addr:full": "400 STATE HIGHWAY 12", "addr:postcode": "86504", "addr:state": "AZ", "amenity": "post_box", "brand": "United States Postal Service", "brand:wikidata": "Q668687", "collection_times": "Mo-Fr 14:45; Sa 11:45", "name": "USPS COLLECTION BOX - PO LOBBY", "note": "ON 12/24 AND 12/31, THIS BOX MAY BE COLLECTED AS EARLY AS 12 NOON.", "nsi_id": "unitedstatespostalservice-a77078", "operator": "United States Postal Service", "operator:short": "USPS", "operator:type": "public", "operator:wikidata": "Q668687", "ref": "8650400001"}, "type": "Feature"}
{"dataset_attributes": {"@spider": "usps_collection_boxes"}, "geometry": {"coordinates": [-109.08318, 35.78795], "type": "Point"}, "id": "2sIMWbyrWPHsJWb74pRWe91gSm0=", "properties": {"@spider": "usps_collection_boxes", "addr:city": "FORT DEFIANCE", "addr:country": "US", "addr:full": "400 STATE HIGHWAY 12", "addr:postcode": "86504", "addr:state": "AZ", "amenity": "post_box", "brand": "United States Postal Service", "brand:wikidata": "Q668687", "collection_times": "Mo-Fr 14:45; Sa 11:45", "name": "USPS COLLECTION BOX - PO LOBBY", "note": "ON 12/24 AND 12/31, THIS BOX MAY BE COLLECTED AS EARLY AS 12 NOON.", "nsi_id": "unitedstatespostalservice-a77078", "operator": "United States Postal Service", "operator:short": "USPS", "operator:type": "public", "operator:wikidata": "Q668687", "ref": "8650400003"}, "type": "Feature"}
{"dataset_attributes": {"@spider": "usps_collection_boxes"}, "geometry": {"coordinates": [-109.08318, 35.78795], "type": "Point"}, "id": "Ccj_Sb6iiUgJ88CLe0mLX54Qjn4=", "properties": {"@spider": "usps_collection_boxes", "addr:city": "FORT DEFIANCE", "addr:country": "US", "addr:full": "400 STATE HIGHWAY 12", "addr:postcode": "86504", "addr:state": "AZ", "amenity": "post_box", "brand": "United States Postal Service", "brand:wikidata": "Q668687", "collection_times": "Mo-Fr 14:45; Sa 11:45", "name": "USPS COLLECTION BOX - BLUE BOX", "note": "ON 12/24 AND 12/31, THIS BOX MAY BE COLLECTED AS EARLY AS 12 NOON.", "nsi_id": "unitedstatespostalservice-a77078", "operator": "United States Postal Service", "operator:short": "USPS", "operator:type": "public", "operator:wikidata": "Q668687", "ref": "8650400004"}, "type": "Feature"}
{"dataset_attributes": {"@spider": "usps_collection_boxes"}, "geometry": {"coordinates": [-109.08318, 35.78795], "type": "Point"}, "id": "rerafN_LNPLHOMuPwXgMP-EoGFU=", "properties": {"@spider": "usps_collection_boxes", "addr:city": "FORT DEFIANCE", "addr:country": "US", "addr:full": "400 STATE HIGHWAY 12", "addr:postcode": "86504", "addr:state": "AZ", "amenity": "post_box", "brand": "United States Postal Service", "brand:wikidata": "Q668687", "collection_times": "Mo-Fr 14:45; Sa 11:45", "name": "USPS COLLECTION BOX - BLUE BOX", "note": "ON 12/24 AND 12/31, THIS BOX MAY BE COLLECTED AS EARLY AS 12 NOON.", "nsi_id": "unitedstatespostalservice-a77078", "operator": "United States Postal Service", "operator:short": "USPS", "operator:type": "public", "operator:wikidata": "Q668687", "ref": "8650400005"}, "type": "Feature"}
{"dataset_attributes": {"@spider": "usps_collection_boxes"}, "geometry": {"coordinates": [-109.08318, 35.78795], "type": "Point"}, "id": "cn9EfjtDqI7nDfkPjwCk5Arv-Gg=", "properties": {"@spider": "usps_collection_boxes", "addr:city": "FORT DEFIANCE", "addr:country": "US", "addr:full": "400 STATE HIGHWAY 12", "addr:postcode": "86504", "addr:state": "AZ", "amenity": "post_box", "brand": "United States Postal Service", "brand:wikidata": "Q668687", "collection_times": "Mo-Fr 14:30; Sa 11:30", "name": "USPS COLLECTION BOX - PO LOBBY", "note": "ON 12/24 AND 12/31, THIS BOX MAY BE COLLECTED AS EARLY AS 12 NOON.", "nsi_id": "unitedstatespostalservice-a77078", "operator": "United States Postal Service", "operator:short": "USPS", "operator:type": "public", "operator:wikidata": "Q668687", "ref": "8650400006"}, "type": "Feature"}
{"dataset_attributes": {"@spider": "usps_collection_boxes"}, "geometry": {"coordinates": [-109.62593, 35.753431], "type": "Point"}, "id": "awlFkWApWHszkX1p0VDM-P534_k=", "properties": {"@spider": "usps_collection_boxes", "addr:city": "GANADO", "addr:country": "US", "addr:full": "191 STATE HIGHWAY 264", "addr:postcode": "86505", "addr:state": "AZ", "amenity": "post_box", "brand": "United States Postal Service", "brand:wikidata": "Q668687", "collection_times": "Mo-Fr 14:00; Sa 13:30", "name": "USPS COLLECTION BOX - BLUE BOX", "note": "ON 12/24 AND 12/31, THIS BOX MAY BE COLLECTED AS EARLY AS 12 NOON.", "nsi_id": "unitedstatespostalservice-a77078", "operator": "United States Postal Service", "operator:short": "USPS", "operator:type": "public", "operator:wikidata": "Q668687", "ref": "8650500000"}, "type": "Feature"}
{"dataset_attributes": {"@spider": "usps_collection_boxes"}, "geometry": {"coordinates": [-109.62593, 35.753431], "type": "Point"}, "id": "rGhcExokYCgrBxsv_tbYRO6gcy4=", "properties": {"@spider": "usps_collection_boxes", "addr:city": "GANADO", "addr:country": "US", "addr:full": "191 STATE HIGHWAY 264", "addr:postcode": "86505", "addr:state": "AZ", "amenity": "post_box", "brand": "United States Postal Service", "brand:wikidata": "Q668687", "collection_times": "Mo-Fr 14:00; Sa 13:30", "name": "USPS COLLECTION BOX - PO LOBBY", "note": "ON 12/24 AND 12/31, THIS BOX MAY BE COLLECTED AS EARLY AS 12 NOON.", "nsi_id": "unitedstatespostalservice-a77078", "operator": "United States Postal Service", "operator:short": "USPS", "operator:type": "public", "operator:wikidata": "Q668687", "ref": "8650500001"}, "type": "Feature"}
{"dataset_attributes": {"@spider": "usps_collection_boxes"}, "geometry": {"coordinates": [-109.62593, 35.753431], "type": "Point"}, "id": "BUYc8VeaVHVE2n-07QwcFfAD5rE=", "properties": {"@spider": "usps_collection_boxes", "addr:city": "GANADO", "addr:country": "US", "addr:full": "191 STATE HIGHWAY 264", "addr:postcode": "86505", "addr:state": "AZ", "amenity": "post_box", "brand": "United States Postal Service", "brand:wikidata": "Q668687", "collection_times": "Mo-Fr 14:00; Sa 13:30", "name": "USPS COLLECTION BOX - PO LOBBY", "note": "ON 12/24 AND 12/31, THIS BOX MAY BE COLLECTED AS EARLY AS 12 NOON.", "nsi_id": "unitedstatespostalservice-a77078", "operator": "United States Postal Service", "operator:short": "USPS", "operator:type": "public", "operator:wikidata": "Q668687", "ref": "8650500002"}, "type": "Feature"}
{"dataset_attributes": {"@spider": "usps_collection_boxes"}, "geometry": {"coordinates": [-109.539383222, 35.709024388], "type": "Point"}, "id": "_-0z9B_6zJlhO1bDWQUx3FB-ZlM=", "properties": {"@spider": "usps_collection_boxes", "addr:city": "GANADO", "addr:country": "US", "addr:full": "191 STATE HIGHWAY 264", "addr:postcode": "86505", "addr:state": "AZ", "amenity": "post_box", "brand": "United States Postal Service", "brand:wikidata": "Q668687", "collection_times": "Mo-Fr 13:45; Sa 13:15", "name": "USPS COLLECTION BOX - PO LOBBY", "note": "ON 12/24 AND 12/31, THIS BOX MAY BE COLLECTED AS EARLY AS 12 NOON.", "nsi_id": "unitedstatespostalservice-a77078", "operator": "United States Postal Service", "operator:short": "USPS", "operator:type": "public", "operator:wikidata": "Q668687", "ref": "8650500003"}, "type": "Feature"}
{"dataset_attributes": {"@spider": "usps_collection_boxes"}, "geometry": {"coordinates": [-96.52141111, 41.0535434288], "type": "Point"}, "id": "x1Vku1n9_Qvz9lwuXWtwHZBWwio=", "properties": {"@spider": "usps_collection_boxes", "addr:city": "SANDERS", "addr:country": "US", "addr:full": "357 ROUTE 12", "addr:postcode": "86508", "addr:state": "AZ", "amenity": "post_box", "brand": "United States Postal Service", "brand:wikidata": "Q668687", "collection_times": "Mo-Sa 11:30", "name": "USPS COLLECTION BOX - PO LOBBY", "nsi_id": "unitedstatespostalservice-a77078", "operator": "United States Postal Service", "operator:short": "USPS", "operator:type": "public", "operator:wikidata": "Q668687", "ref": "8650800002"}, "type": "Feature"}
{"dataset_attributes": {"@spider": "usps_collection_boxes"}, "geometry": {"coordinates": [-110.28576, 36.037333], "type": "Point"}, "id": "dOzdLYPtImX2AuO0PdBjgPzPk9Y=", "properties": {"@spider": "usps_collection_boxes", "addr:city": "PINON", "addr:country": "US", "addr:full": "500 STATE ROAD 4", "addr:postcode": "86510", "addr:state": "AZ", "amenity": "post_box", "brand": "United States Postal Service", "brand:wikidata": "Q668687", "collection_times": "Mo-Sa 11:00", "name": "USPS COLLECTION BOX - BLUE BOX", "nsi_id": "unitedstatespostalservice-a77078", "operator": "United States Postal Service", "operator:short": "USPS", "operator:type": "public", "operator:wikidata": "Q668687", "ref": "8651000000"}, "type": "Feature"}
{"dataset_attributes": {"@spider": "usps_collection_boxes"}, "geometry": {"coordinates": [-110.28576, 36.037333], "type": "Point"}, "id": "bJhOk5VlSn2QLGL3OzFLNujMxMk=", "properties": {"@spider": "usps_collection_boxes", "addr:city": "PINON", "addr:country": "US", "addr:full": "500 STATE ROAD 4", "addr:postcode": "86510", "addr:state": "AZ", "amenity": "post_box", "brand": "United States Postal Service", "brand:wikidata": "Q668687", "collection_times": "Mo-Sa 11:00", "name": "USPS COLLECTION BOX - PO LOBBY", "nsi_id": "unitedstatespostalservice-a77078", "operator": "United States Postal Service", "operator:short": "USPS", "operator:type": "public", "operator:wikidata": "Q668687", "ref": "8651000002"}, "type": "Feature"}
{"dataset_attributes": {"@spider": "usps_collection_boxes"}, "geometry": {"coordinates": [-110.154375189, 36.073098253], "type": "Point"}, "id": "PgxdqWPF0-R_mLg2f18cK1S7dV8=", "properties": {"@spider": "usps_collection_boxes", "addr:city": "PINON", "addr:country": "US", "addr:full": "500 STATE ROAD 4", "addr:postcode": "86510", "addr:state": "AZ", "amenity": "post_box", "brand": "United States Postal Service", "brand:wikidata": "Q668687", "collection_times": "Mo-Fr 11:00", "name": "USPS COLLECTION BOX - PO LOBBY", "nsi_id": "unitedstatespostalservice-a77078", "operator": "United States Postal Service", "operator:short": "USPS", "operator:type": "public", "operator:wikidata": "Q668687", "ref": "8651000003"}, "type": "Feature"}
{"dataset_attributes": {"@spider": "usps_collection_boxes"}, "geometry": {"coordinates": [-109.114138, 35.658494], "type": "Point"}, "id": "PSaAAjI5aisS5UhYzAbKMtCGlss=", "properties": {"@spider": "usps_collection_boxes", "addr:city": "SAINT MICHAELS", "addr:country": "US", "addr:full": "343 HIGHWAY 264", "addr:postcode": "86511", "addr:state": "AZ", "amenity": "post_box", "brand": "United States Postal Service", "brand:wikidata": "Q668687", "collection_times": "Mo-Fr 14:30; Sa 12:00", "name": "USPS COLLECTION BOX - BLUE BOX", "note": "ON 12/24 AND 12/31, THIS BOX MAY BE COLLECTED AS EARLY AS 12 NOON.", "nsi_id": "unitedstatespostalservice-a77078", "operator": "United States Postal Service", "operator:short": "USPS", "operator:type": "public", "operator:wikidata": "Q668687", "ref": "8651100000"}, "type": "Feature"}
{"dataset_attributes": {"@spider": "usps_collection_boxes"}, "geometry": {"coordinates": [-109.114112, 35.658515], "type": "Point"}, "id": "VyvTX54qsP59Cg3ra_Dg04ZbX-A=", "properties": {"@spider": "usps_collection_boxes", "addr:city": "SAINT MICHAELS", "addr:country": "US", "addr:full": "343 HIGHWAY 264", "addr:postcode": "86511", "addr:state": "AZ", "amenity": "post_box", "brand": "United States Postal Service", "brand:wikidata": "Q668687", "collection_times": "Mo-Fr 14:30; Sa 12:00", "name": "USPS COLLECTION BOX - PO LOBBY", "note": "ON 12/24 AND 12/31, THIS BOX MAY BE COLLECTED AS EARLY AS 12 NOON.", "nsi_id": "unitedstatespostalservice-a77078", "operator": "United States Postal Service", "operator:short": "USPS", "operator:type": "public", "operator:wikidata": "Q668687", "ref": "8651100001"}, "type": "Feature"}
{"dataset_attributes": {"@spider": "usps_collection_boxes"}, "geometry": {"coordinates": [-109.1052211907, 35.6553196378], "type": "Point"}, "id": "918e8F046nk0iUcvjKxrpLD4wKk=", "properties": {"@spider": "usps_collection_boxes", "addr:city": "SAINT MICHAELS", "addr:country": "US", "addr:full": "343 HIGHWAY 264", "addr:postcode": "86511", "addr:state": "AZ", "amenity": "post_box", "brand": "United States Postal Service", "brand:wikidata": "Q668687", "collection_times": "Mo-Fr 14:15; Sa 11:45", "name": "USPS COLLECTION BOX - PO LOBBY", "note": "ON 12/24 AND 12/31, THIS BOX MAY BE COLLECTED AS EARLY AS 12 NOON.", "nsi_id": "unitedstatespostalservice-a77078", "operator": "United States Postal Service", "operator:short": "USPS", "operator:type": "public", "operator:wikidata": "Q668687", "ref": "8651100002"}, "type": "Feature"}
{"dataset_attributes": {"@spider": "usps_collection_boxes"}, "geometry": {"coordinates": [-109.330997249, 35.2083532963], "type": "Point"}, "id": "O2XfO2KAxseBNcH4rd9T-b-5HfE=", "properties": {"@spider": "usps_collection_boxes", "addr:city": "SANDERS", "addr:country": "US", "addr:full": "100 HIGHWAY 191 S", "addr:postcode": "86512", "addr:state": "AZ", "amenity": "post_box", "brand": "United States Postal Service", "brand:wikidata": "Q668687", "collection_times": "Mo-Fr 13:45; Sa 11:45", "name": "USPS COLLECTION BOX - BLUE BOX", "note": "ON 12/24 AND 12/31, THIS BOX MAY BE COLLECTED AS EARLY AS 12 NOON.", "nsi_id": "unitedstatespostalservice-a77078", "operator": "United States Postal Service", "operator:short": "USPS", "operator:type": "public", "operator:wikidata": "Q668687", "ref": "8651200000"}, "type": "Feature"}
{"dataset_attributes": {"@spider": "usps_collection_boxes"}, "geometry": {"coordinates": [-109.330997249, 35.2083532963], "type": "Point"}, "id": "cyhdrpvVUBC0_BNigwmftdBGveM=", "properties": {"@spider": "usps_collection_boxes", "addr:city": "SANDERS", "addr:country": "US", "addr:full": "100 HIGHWAY 191 S", "addr:postcode": "86512", "addr:state": "AZ", "amenity": "post_box", "brand": "United States Postal Service", "brand:wikidata": "Q668687", "collection_times": "Mo-Fr 13:45; Sa 11:45", "name": "USPS COLLECTION BOX - PO LOBBY", "note": "ON 12/24 AND 12/31, THIS BOX MAY BE COLLECTED AS EARLY AS 12 NOON.", "nsi_id": "unitedstatespostalservice-a77078", "operator": "United States Postal Service", "operator:short": "USPS", "operator:type": "public", "operator:wikidata": "Q668687", "ref": "8651200001"}, "type": "Feature"}
{"dataset_attributes": {"@spider": "usps_collection_boxes"}, "geometry": {"coordinates": [-109.330997249, 35.2083532963], "type": "Point"}, "id": "LfJiDdVLD03hA-UYQdbwOkmDbT4=", "properties": {"@spider": "usps_collection_boxes", "addr:city": "SANDERS", "addr:country": "US", "addr:full": "100 HIGHWAY 191 S", "addr:postcode": "86512", "addr:state": "AZ", "amenity": "post_box", "brand": "United States Postal Service", "brand:wikidata": "Q668687", "collection_times": "Mo-Fr 13:45; Sa 11:45", "name": "USPS COLLECTION BOX - PO LOBBY", "note": "ON 12/24 AND 12/31, THIS BOX MAY BE COLLECTED AS EARLY AS 12 NOON.", "nsi_id": "unitedstatespostalservice-a77078", "operator": "United States Postal Service", "operator:short": "USPS", "operator:type": "public", "operator:wikidata": "Q668687", "ref": "8651200002"}, "type": "Feature"}
{"dataset_attributes": {"@spider": "usps_collection_boxes"}, "geometry": {"coordinates": [-109.544684554, 35.699535385], "type": "Point"}, "id": "c_bkUbDzSht3XRj1uenfXk-s-_g=", "properties": {"@spider": "usps_collection_boxes", "addr:city": "SANDERS", "addr:country": "US", "addr:full": "100 HIGHWAY 191 S", "addr:postcode": "86512", "addr:state": "AZ", "amenity": "post_box", "brand": "United States Postal Service", "brand:wikidata": "Q668687", "collection_times": "Mo-Fr 13:45", "name": "USPS COLLECTION BOX - PO LOBBY", "note": "ON 12/24 AND 12/31, THIS BOX MAY BE COLLECTED AS EARLY AS 12 NOON.", "nsi_id": "unitedstatespostalservice-a77078", "operator": "United States Postal Service", "operator:short": "USPS", "operator:type": "public", "operator:wikidata": "Q668687", "ref": "8651200003"}, "type": "Feature"}
{"dataset_attributes": {"@spider": "usps_collection_boxes"}, "geometry": {"coordinates": [-109.0870615091, 36.9206603661], "type": "Point"}, "id": "9UaUmqoxWTZueYDoib9HNZTR8xg=", "properties": {"@spider": "usps_collection_boxes", "addr:city": "TEEC NOS POS", "addr:country": "US", "addr:full": "100 STATE HIGHWAY 64 N", "addr:postcode": "86514", "addr:state": "AZ", "amenity": "post_box", "brand": "United States Postal Service", "brand:wikidata": "Q668687", "collection_times": "Mo-Sa 10:00", "name": "USPS COLLECTION BOX - BLUE BOX", "nsi_id": "unitedstatespostalservice-a77078", "operator": "United States Postal Service", "operator:short": "USPS", "operator:type": "public", "operator:wikidata": "Q668687", "ref": "8651400000"}, "type": "Feature"}
{"dataset_attributes": {"@spider": "usps_collection_boxes"}, "geometry": {"coordinates": [-109.4615389759, 36.8160795176], "type": "Point"}, "id": "m8DI34yn2VMWGYgWaqJnVHAsoCo=", "properties": {"@spider": "usps_collection_boxes", "addr:city": "TEEC NOS POS", "addr:country": "US", "addr:full": "100 STATE HIGHWAY 64 N", "addr:postcode": "86514", "addr:state": "AZ", "amenity": "post_box", "brand": "United States Postal Service", "brand:wikidata": "Q668687", "collection_times": "Mo-Sa 10:00", "name": "USPS COLLECTION BOX - PO LOBBY", "nsi_id": "unitedstatespostalservice-a77078", "operator": "United States Postal Service", "operator:short": "USPS", "operator:type": "public", "operator:wikidata": "Q668687", "ref": "8651400001"}, "type": "Feature"}
{"dataset_attributes": {"@spider": "usps_collection_boxes"}, "geometry": {"coordinates": [-109.0652207809, 36.8973883017], "type": "Point"}, "id": "KG_VNGijAYNSfc1Pt3fxfshR80k=", "properties": {"@spider": "usps_collection_boxes", "addr:city": "TEEC NOS POS", "addr:country": "US", "addr:full": "100 STATE HIGHWAY 64 N", "addr:postcode": "86514", "addr:state": "AZ", "amenity": "post_box", "brand": "United States Postal Service", "brand:wikidata": "Q668687", "collection_times": "Mo-Sa 09:45", "name": "USPS COLLECTION BOX - PO LOBBY", "nsi_id": "unitedstatespostalservice-a77078", "operator": "United States Postal Service", "operator:short": "USPS", "operator:type": "public", "operator:wikidata": "Q668687", "ref": "8651400003"}, "type": "Feature"}
{"dataset_attributes": {"@spider": "usps_collection_boxes"}, "geometry": {"coordinates": [-109.05693438, 35.673923738], "type": "Point"}, "id": "xoLOLM-WtSl5BjRN5ZGk3lUc2Co=", "properties": {"@spider": "usps_collection_boxes", "addr:city": "WINDOW ROCK", "addr:country": "US", "addr:full": "264 WINDOW ROCK LOOP RD", "addr:postcode": "86515", "addr:state": "AZ", "amenity": "post_box", "brand": "United States Postal Service", "brand:wikidata": "Q668687", "collection_times": "Mo-Fr 15:00; Sa 12:15", "name": "USPS COLLECTION BOX - BLUE BOX", "note": "ON 12/24 AND 12/31, THIS BOX MAY BE COLLECTED AS EARLY AS 12 NOON.", "nsi_id": "unitedstatespostalservice-a77078", "operator": "United States Postal Service", "operator:short": "USPS", "operator:type": "public", "operator:wikidata": "Q668687", "ref": "8651500000"}, "type": "Feature"}
{"dataset_attributes": {"@spider": "usps_collection_boxes"}, "geometry": {"coordinates": [-109.06418, 35.62986], "type": "Point"}, "id": "mcZo_B0wwtZcWWW05fAVxDJUMf0=", "properties": {"@spider": "usps_collection_boxes", "addr:city": "WINDOW ROCK", "addr:country": "US", "addr:full": "264 WINDOW ROCK LOOP RD", "addr:postcode": "86515", "addr:state": "AZ", "amenity": "post_box", "brand": "United States Postal Service", "brand:wikidata": "Q668687", "collection_times": "Mo-Fr 15:00; Sa 12:15", "name": "USPS COLLECTION BOX - PO LOBBY", "note": "ON 12/24 AND 12/31, THIS BOX MAY BE COLLECTED AS EARLY AS 12 NOON.", "nsi_id": "unitedstatespostalservice-a77078", "operator": "United States Postal Service", "operator:short": "USPS", "operator:type": "public", "operator:wikidata": "Q668687", "ref": "8651500001"}, "type": "Feature"}
{"dataset_attributes": {"@spider": "usps_collection_boxes"}, "geometry": {"coordinates": [-109.05693438, 35.673923738], "type": "Point"}, "id": "_FGm4zAyK1oKRCF9W0lCCN2Mqng=", "properties": {"@spider": "usps_collection_boxes", "addr:city": "WINDOW ROCK", "addr:country": "US", "addr:full": "264 WINDOW ROCK LOOP RD", "addr:postcode": "86515", "addr:state": "AZ", "amenity": "post_box", "brand": "United States Postal Service", "brand:wikidata": "Q668687", "collection_times": "Mo-Fr 15:00; Sa 12:15", "name": "USPS COLLECTION BOX - BLUE BOX", "note": "ON 12/24 AND 12/31, THIS BOX MAY BE COLLECTED AS EARLY AS 12 NOON.", "nsi_id": "unitedstatespostalservice-a77078", "operator": "United States Postal Service", "operator:short": "USPS", "operator:type": "public", "operator:wikidata": "Q668687", "ref": "8651500002"}, "type": "Feature"}
{"dataset_attributes": {"@spider": "usps_collection_boxes"}, "geometry": {"coordinates": [-109.06418, 35.62986], "type": "Point"}, "id": "OhUgPiD0mquQpw-vEw-b8tUzJ2k=", "properties": {"@spider": "usps_collection_boxes", "addr:city": "WINDOW ROCK", "addr:country": "US", "addr:full": "264 WINDOW ROCK LOOP RD", "addr:postcode": "86515", "addr:state": "AZ", "amenity": "post_box", "brand": "United States Postal Service", "brand:wikidata": "Q668687", "collection_times": "Mo-Fr 15:00; Sa 12:15", "name": "USPS COLLECTION BOX - PO LOBBY", "note": "ON 12/24 AND 12/31, THIS BOX MAY BE COLLECTED AS EARLY AS 12 NOON.", "nsi_id": "unitedstatespostalservice-a77078", "operator": "United States Postal Service", "operator:short": "USPS", "operator:type": "public", "operator:wikidata": "Q668687", "ref": "8651500003"}, "type": "Feature"}
{"dataset_attributes": {"@spider": "usps_collection_boxes"}, "geometry": {"coordinates": [-109.05693438, 35.673923738], "type": "Point"}, "id": "hFD7oHShck-bxKUfjQWtJg_3Ess=", "properties": {"@spider": "usps_collection_boxes", "addr:city": "WINDOW ROCK", "addr:country": "US", "addr:full": "264 WINDOW ROCK LOOP RD", "addr:postcode": "86515", "addr:state": "AZ", "amenity": "post_box", "brand": "United States Postal Service", "brand:wikidata": "Q668687", "collection_times": "Mo-Fr 14:45; Sa 12:00", "name": "USPS COLLECTION BOX - PO LOBBY", "note": "ON 12/24 AND 12/31, THIS BOX MAY BE COLLECTED AS EARLY AS 12 NOON.", "nsi_id": "unitedstatespostalservice-a77078", "operator": "United States Postal Service", "operator:short": "USPS", "operator:type": "public", "operator:wikidata": "Q668687", "ref": "8651500004"}, "type": "Feature"}
{"dataset_attributes": {"@spider": "usps_collection_boxes"}, "geometry": {"coordinates": [-110.1543751895, 36.0730982526], "type": "Point"}, "id": "5wYGEHetTF0JiLqFaC4SrKYMCGw=", "properties": {"@spider": "usps_collection_boxes", "addr:city": "PINON", "addr:country": "US", "addr:full": "350 STATE ROAD 4", "addr:postcode": "86520", "addr:state": "AZ", "amenity": "post_box", "brand": "United States Postal Service", "brand:wikidata": "Q668687", "collection_times": "Mo-Fr 10:45", "name": "USPS COLLECTION BOX - PO LOBBY", "nsi_id": "unitedstatespostalservice-a77078", "operator": "United States Postal Service", "operator:short": "USPS", "operator:type": "public", "operator:wikidata": "Q668687", "ref": "8652000001"}, "type": "Feature"}
{"dataset_attributes": {"@spider": "usps_collection_boxes"}, "geometry": {"coordinates": [-109.8448, 36.84655], "type": "Point"}, "id": "ajhHol1IC6PHvraWx4Cr2hnzKpA=", "properties": {"@spider": "usps_collection_boxes", "addr:city": "DENNEHOTSO", "addr:country": "US", "addr:full": "416 STATE HIGHWAY 160", "addr:postcode": "86535", "addr:state": "AZ", "amenity": "post_box", "brand": "United States Postal Service", "brand:wikidata": "Q668687", "collection_times": "Mo-Fr 08:45", "name": "USPS COLLECTION BOX - BLUE BOX", "nsi_id": "unitedstatespostalservice-a77078", "operator": "United States Postal Service", "operator:short": "USPS", "operator:type": "public", "operator:wikidata": "Q668687", "ref": "8653500003"}, "type": "Feature"}
{"dataset_attributes": {"@spider": "usps_collection_boxes"}, "geometry": {"coordinates": [-109.51004, 35.93802], "type": "Point"}, "id": "I5Bg9BpwrYcKYHJwH8UFV803z5M=", "properties": {"@spider": "usps_collection_boxes", "addr:city": "GANADO", "addr:country": "US", "addr:full": "19 STATE HIGHWAY 27", "addr:postcode": "86540", "addr:state": "AZ", "amenity": "post_box", "brand": "United States Postal Service", "brand:wikidata": "Q668687", "collection_times": "Mo-Fr 12:00", "name": "USPS COLLECTION BOX - PO LOBBY", "nsi_id": "unitedstatespostalservice-a77078", "operator": "United States Postal Service", "operator:short": "USPS", "operator:type": "public", "operator:wikidata": "Q668687", "ref": "8654000001"}, "type": "Feature"}
