{"dataset_attributes": {"@spider": "usps_collection_boxes", "spider:collection_time": "2023-08-28T08:25:48.690851"}, "geometry": {"coordinates": [-106.7314550126, 34.6448390068], "type": "Point"}, "id": "px_URAEe1b2wDlvBPWkfDgCPYt0=", "properties": {"@spider": "usps_collection_boxes", "addr:city": "BELEN", "addr:country": "US", "addr:full": "394 RIO COMMUNITIES BLVD", "addr:postcode": "87002", "addr:state": "NM", "amenity": "post_box", "brand": "United States Postal Service", "brand:wikidata": "Q668687", "collection_times": "Mo-Sa 12:00", "name": "USPS COLLECTION BOX - BLUE BOX", "nsi_id": "unitedstatespostalservice-a77078", "operator": "United States Postal Service", "operator:short": "USPS", "operator:type": "public", "operator:wikidata": "Q668687", "ref": "8700200009"}, "type": "Feature"}
{"dataset_attributes": {"@spider": "usps_collection_boxes", "spider:collection_time": "2023-08-28T08:25:48.690851"}, "geometry": {"coordinates": [-106.768514, 34.696549], "type": "Point"}, "id": "C26cUlc8D_dHgzXch7D5Jywitm0=", "properties": {"@spider": "usps_collection_boxes", "addr:city": "BELEN", "addr:country": "US", "addr:full": "1 I 25 BYPASS", "addr:postcode": "87002", "addr:state": "NM", "amenity": "post_box", "brand": "United States Postal Service", "brand:wikidata": "Q668687", "collection_times": "Mo-Sa 12:30", "name": "USPS COLLECTION BOX - BLUE BOX", "note": "ON 12/24 AND 12/31, THIS BOX MAY BE COLLECTED AS EARLY AS 12 NOON.", "nsi_id": "unitedstatespostalservice-a77078", "operator": "United States Postal Service", "operator:short": "USPS", "operator:type": "public", "operator:wikidata": "Q668687", "ref": "8700200011"}, "type": "Feature"}
{"dataset_attributes": {"@spider": "usps_collection_boxes", "spider:collection_time": "2023-08-28T08:25:48.690851"}, "geometry": {"coordinates": [-106.775557, 34.663943], "type": "Point"}, "id": "PanklnaXKsWfyHwT8-B4_tMukk4=", "properties": {"@spider": "usps_collection_boxes", "addr:city": "BELEN", "addr:country": "US", "addr:full": "400 N MAIN ST", "addr:postcode": "87002", "addr:state": "NM", "amenity": "post_box", "brand": "United States Postal Service", "brand:wikidata": "Q668687", "collection_times": "Mo-Sa 17:00", "name": "USPS COLLECTION BOX - PO LOBBY", "note": "ON 12/24 AND 12/31, THIS BOX MAY BE COLLECTED AS EARLY AS 12 NOON.", "nsi_id": "unitedstatespostalservice-a77078", "operator": "United States Postal Service", "operator:short": "USPS", "operator:type": "public", "operator:wikidata": "Q668687", "ref": "8700200013"}, "type": "Feature"}
{"dataset_attributes": {"@spider": "usps_collection_boxes", "spider:collection_time": "2023-08-28T08:25:48.690851"}, "geometry": {"coordinates": [-106.775557, 34.663943], "type": "Point"}, "id": "XSOxcouj4ikiq0ue17J8s6EoTuQ=", "properties": {"@spider": "usps_collection_boxes", "addr:city": "BELEN", "addr:country": "US", "addr:full": "400 N MAIN ST", "addr:postcode": "87002", "addr:state": "NM", "amenity": "post_box", "brand": "United States Postal Service", "brand:wikidata": "Q668687", "collection_times": "Mo-Sa 17:00", "name": "USPS COLLECTION BOX - PO LOBBY", "note": "ON 12/24 AND 12/31, THIS BOX MAY BE COLLECTED AS EARLY AS 12 NOON.", "nsi_id": "unitedstatespostalservice-a77078", "operator": "United States Postal Service", "operator:short": "USPS", "operator:type": "public", "operator:wikidata": "Q668687", "ref": "8700200014"}, "type": "Feature"}
{"dataset_attributes": {"@spider": "usps_collection_boxes", "spider:collection_time": "2023-08-28T08:25:48.690851"}, "geometry": {"coordinates": [-106.775557, 34.663943], "type": "Point"}, "id": "1f0stcHJcCSXXDGxiTmI8F04Ivo=", "properties": {"@spider": "usps_collection_boxes", "addr:city": "BELEN", "addr:country": "US", "addr:full": "400 N MAIN ST", "addr:postcode": "87002", "addr:state": "NM", "amenity": "post_box", "brand": "United States Postal Service", "brand:wikidata": "Q668687", "collection_times": "Mo-Sa 17:00", "name": "USPS COLLECTION BOX - PO LOBBY", "note": "ON 12/24 AND 12/31, THIS BOX MAY BE COLLECTED AS EARLY AS 12 NOON.", "nsi_id": "unitedstatespostalservice-a77078", "operator": "United States Postal Service", "operator:short": "USPS", "operator:type": "public", "operator:wikidata": "Q668687", "ref": "8700200015"}, "type": "Feature"}
{"dataset_attributes": {"@spider": "usps_collection_boxes", "spider:collection_time": "2023-08-28T08:25:48.690851"}, "geometry": {"coordinates": [-106.775557, 34.663943], "type": "Point"}, "id": "qi9As40Aeydh6sc-fKDeqhAwScA=", "properties": {"@spider": "usps_collection_boxes", "addr:city": "BELEN", "addr:country": "US", "addr:full": "400 N MAIN ST", "addr:postcode": "87002", "addr:state": "NM", "amenity": "post_box", "brand": "United States Postal Service", "brand:wikidata": "Q668687", "collection_times": "Mo-Sa 17:00", "name": "USPS COLLECTION BOX - BLUE BOX", "note": "ON 12/24 AND 12/31, THIS BOX MAY BE COLLECTED AS EARLY AS 12 NOON.", "nsi_id": "unitedstatespostalservice-a77078", "operator": "United States Postal Service", "operator:short": "USPS", "operator:type": "public", "operator:wikidata": "Q668687", "ref": "8700200016"}, "type": "Feature"}
{"dataset_attributes": {"@spider": "usps_collection_boxes", "spider:collection_time": "2023-08-28T08:25:48.690851"}, "geometry": {"coordinates": [-106.7754929493, 34.6639997441], "type": "Point"}, "id": "FNL9SVXEqmaJcD_1aG8OYtggGxg=", "properties": {"@spider": "usps_collection_boxes", "addr:city": "BELEN", "addr:country": "US", "addr:full": "400 N MAIN ST", "addr:postcode": "87002", "addr:state": "NM", "amenity": "post_box", "brand": "United States Postal Service", "brand:wikidata": "Q668687", "collection_times": "Mo-Fr 16:45; Sa 11:45", "name": "USPS COLLECTION BOX - PO LOBBY", "note": "ON 12/24 AND 12/31, THIS BOX MAY BE COLLECTED AS EARLY AS 12 NOON.", "nsi_id": "unitedstatespostalservice-a77078", "operator": "United States Postal Service", "operator:short": "USPS", "operator:type": "public", "operator:wikidata": "Q668687", "ref": "8700200018"}, "type": "Feature"}
{"dataset_attributes": {"@spider": "usps_collection_boxes", "spider:collection_time": "2023-08-28T08:25:48.690851"}, "geometry": {"coordinates": [-106.5508498, 35.3031668], "type": "Point"}, "id": "Bp9Q574FF263cND4jYnaeFpw8Mo=", "properties": {"@spider": "usps_collection_boxes", "addr:city": "BERNALILLO", "addr:country": "US", "addr:full": "145 CALLE DEL PRESIDENTE", "addr:postcode": "87004", "addr:state": "NM", "amenity": "post_box", "brand": "United States Postal Service", "brand:wikidata": "Q668687", "collection_times": "Mo-Fr 17:00; Sa 11:30", "name": "USPS COLLECTION BOX - BLUE BOX", "note": "ON 12/24 AND 12/31, THIS BOX MAY BE COLLECTED AS EARLY AS 12 NOON.", "nsi_id": "unitedstatespostalservice-a77078", "operator": "United States Postal Service", "operator:short": "USPS", "operator:type": "public", "operator:wikidata": "Q668687", "ref": "8700400001"}, "type": "Feature"}
{"dataset_attributes": {"@spider": "usps_collection_boxes", "spider:collection_time": "2023-08-28T08:25:48.690851"}, "geometry": {"coordinates": [-106.546792997, 35.305280709], "type": "Point"}, "id": "nlsPqA7xRgqJj8lK3zraplqAh-I=", "properties": {"@spider": "usps_collection_boxes", "addr:city": "BERNALILLO", "addr:country": "US", "addr:full": "145 CALLE DEL PRESIDENTE", "addr:postcode": "87004", "addr:state": "NM", "amenity": "post_box", "brand": "United States Postal Service", "brand:wikidata": "Q668687", "collection_times": "Mo-Fr 16:30; Sa 11:30", "name": "USPS COLLECTION BOX - PO LOBBY", "note": "ON 12/24 AND 12/31, THIS BOX MAY BE COLLECTED AS EARLY AS 12 NOON.", "nsi_id": "unitedstatespostalservice-a77078", "operator": "United States Postal Service", "operator:short": "USPS", "operator:type": "public", "operator:wikidata": "Q668687", "ref": "8700400005"}, "type": "Feature"}
{"dataset_attributes": {"@spider": "usps_collection_boxes", "spider:collection_time": "2023-08-28T08:25:48.690851"}, "geometry": {"coordinates": [-106.546792997, 35.305280709], "type": "Point"}, "id": "5ratPUudXg2XNP5jXC-Yy7rrrqM=", "properties": {"@spider": "usps_collection_boxes", "addr:city": "BERNALILLO", "addr:country": "US", "addr:full": "145 CALLE DEL PRESIDENTE", "addr:postcode": "87004", "addr:state": "NM", "amenity": "post_box", "brand": "United States Postal Service", "brand:wikidata": "Q668687", "collection_times": "Mo-Fr 16:30; Sa 11:30", "name": "USPS COLLECTION BOX - PO LOBBY", "note": "ON 12/24 AND 12/31, THIS BOX MAY BE COLLECTED AS EARLY AS 12 NOON.", "nsi_id": "unitedstatespostalservice-a77078", "operator": "United States Postal Service", "operator:short": "USPS", "operator:type": "public", "operator:wikidata": "Q668687", "ref": "8700400006"}, "type": "Feature"}
{"dataset_attributes": {"@spider": "usps_collection_boxes", "spider:collection_time": "2023-08-28T08:25:48.690851"}, "geometry": {"coordinates": [-106.546792997, 35.305280709], "type": "Point"}, "id": "HoYM0-4FoIOHZt4RFytsNg4PvGw=", "properties": {"@spider": "usps_collection_boxes", "addr:city": "BERNALILLO", "addr:country": "US", "addr:full": "145 CALLE DEL PRESIDENTE", "addr:postcode": "87004", "addr:state": "NM", "amenity": "post_box", "brand": "United States Postal Service", "brand:wikidata": "Q668687", "collection_times": "Mo-Fr 16:30; Sa 11:30", "name": "USPS COLLECTION BOX - PO LOBBY", "note": "ON 12/24 AND 12/31, THIS BOX MAY BE COLLECTED AS EARLY AS 12 NOON.", "nsi_id": "unitedstatespostalservice-a77078", "operator": "United States Postal Service", "operator:short": "USPS", "operator:type": "public", "operator:wikidata": "Q668687", "ref": "8700400009"}, "type": "Feature"}
{"dataset_attributes": {"@spider": "usps_collection_boxes", "spider:collection_time": "2023-08-28T08:25:48.690851"}, "geometry": {"coordinates": [-107.976698194, 35.247903305], "type": "Point"}, "id": "eJlWpPkVANMOvgSSanHnkCuGBBw=", "properties": {"@spider": "usps_collection_boxes", "addr:city": "BLUEWATER", "addr:country": "US", "addr:full": "202 MAIN ST", "addr:postcode": "87005", "addr:state": "NM", "amenity": "post_box", "brand": "United States Postal Service", "brand:wikidata": "Q668687", "collection_times": "Mo-Fr 15:00; Sa 09:45", "name": "USPS COLLECTION BOX - PO LOBBY", "note": "ON 12/24 AND 12/31, THIS BOX MAY BE COLLECTED AS EARLY AS 12 NOON.", "nsi_id": "unitedstatespostalservice-a77078", "operator": "United States Postal Service", "operator:short": "USPS", "operator:type": "public", "operator:wikidata": "Q668687", "ref": "8700500002"}, "type": "Feature"}
{"dataset_attributes": {"@spider": "usps_collection_boxes", "spider:collection_time": "2023-08-28T08:25:48.690851"}, "geometry": {"coordinates": [-107.976698194, 35.247903305], "type": "Point"}, "id": "LyE_XvYBoJkmnuoSO93mMqUIAVY=", "properties": {"@spider": "usps_collection_boxes", "addr:city": "BLUEWATER", "addr:country": "US", "addr:full": "202 MAIN ST", "addr:postcode": "87005", "addr:state": "NM", "amenity": "post_box", "brand": "United States Postal Service", "brand:wikidata": "Q668687", "collection_times": "Mo-Fr 15:00; Sa 09:45", "name": "USPS COLLECTION BOX - PO LOBBY", "note": "ON 12/24 AND 12/31, THIS BOX MAY BE COLLECTED AS EARLY AS 12 NOON.", "nsi_id": "unitedstatespostalservice-a77078", "operator": "United States Postal Service", "operator:short": "USPS", "operator:type": "public", "operator:wikidata": "Q668687", "ref": "8700500003"}, "type": "Feature"}
{"dataset_attributes": {"@spider": "usps_collection_boxes", "spider:collection_time": "2023-08-28T08:25:48.690851"}, "geometry": {"coordinates": [-107.976698194, 35.247903305], "type": "Point"}, "id": "erFKQbQad519NBQJpcuIRfhMhFs=", "properties": {"@spider": "usps_collection_boxes", "addr:city": "BLUEWATER", "addr:country": "US", "addr:full": "202 MAIN ST", "addr:postcode": "87005", "addr:state": "NM", "amenity": "post_box", "brand": "United States Postal Service", "brand:wikidata": "Q668687", "collection_times": "Mo-Fr 15:00; Sa 09:45", "name": "USPS COLLECTION BOX - PO LOBBY", "note": "ON 12/24 AND 12/31, THIS BOX MAY BE COLLECTED AS EARLY AS 12 NOON.", "nsi_id": "unitedstatespostalservice-a77078", "operator": "United States Postal Service", "operator:short": "USPS", "operator:type": "public", "operator:wikidata": "Q668687", "ref": "8700500004"}, "type": "Feature"}
{"dataset_attributes": {"@spider": "usps_collection_boxes", "spider:collection_time": "2023-08-28T08:25:48.690851"}, "geometry": {"coordinates": [-106.7892987773, 34.560345005], "type": "Point"}, "id": "ORIZACxKqSjZUOlNA-ZyeAGE2VM=", "properties": {"@spider": "usps_collection_boxes", "addr:city": "BOSQUE", "addr:country": "US", "addr:full": "1002 S HIGHWAY 116", "addr:postcode": "87006", "addr:state": "NM", "amenity": "post_box", "brand": "United States Postal Service", "brand:wikidata": "Q668687", "collection_times": "Mo-Fr 14:00; Sa 11:45", "name": "USPS COLLECTION BOX - BLUE BOX", "note": "ON 12/24 AND 12/31, THIS BOX MAY BE COLLECTED AS EARLY AS 12 NOON.", "nsi_id": "unitedstatespostalservice-a77078", "operator": "United States Postal Service", "operator:short": "USPS", "operator:type": "public", "operator:wikidata": "Q668687", "ref": "8700600001"}, "type": "Feature"}
{"dataset_attributes": {"@spider": "usps_collection_boxes", "spider:collection_time": "2023-08-28T08:25:48.690851"}, "geometry": {"coordinates": [-106.789211, 34.56044], "type": "Point"}, "id": "tKDB3_q1ksZUaXhnEpbqjIK6vS8=", "properties": {"@spider": "usps_collection_boxes", "addr:city": "BOSQUE", "addr:country": "US", "addr:full": "1002 S HIGHWAY 116", "addr:postcode": "87006", "addr:state": "NM", "amenity": "post_box", "brand": "United States Postal Service", "brand:wikidata": "Q668687", "collection_times": "Mo-Fr 14:00; Sa 11:45", "name": "USPS COLLECTION BOX - PO LOBBY", "note": "ON 12/24 AND 12/31, THIS BOX MAY BE COLLECTED AS EARLY AS 12 NOON.", "nsi_id": "unitedstatespostalservice-a77078", "operator": "United States Postal Service", "operator:short": "USPS", "operator:type": "public", "operator:wikidata": "Q668687", "ref": "8700600002"}, "type": "Feature"}
{"dataset_attributes": {"@spider": "usps_collection_boxes", "spider:collection_time": "2023-08-28T08:25:48.690851"}, "geometry": {"coordinates": [-106.789303548, 34.560124134], "type": "Point"}, "id": "klQgyPXV7DCaeUd7mzXytYtNVZk=", "properties": {"@spider": "usps_collection_boxes", "addr:city": "BOSQUE", "addr:country": "US", "addr:full": "1002 S HIGHWAY 116", "addr:postcode": "87006", "addr:state": "NM", "amenity": "post_box", "brand": "United States Postal Service", "brand:wikidata": "Q668687", "collection_times": "Mo-Fr 13:45; Sa 11:30", "name": "USPS COLLECTION BOX - PO LOBBY", "note": "ON 12/24 AND 12/31, THIS BOX MAY BE COLLECTED AS EARLY AS 12 NOON.", "nsi_id": "unitedstatespostalservice-a77078", "operator": "United States Postal Service", "operator:short": "USPS", "operator:type": "public", "operator:wikidata": "Q668687", "ref": "8700600003"}, "type": "Feature"}
{"dataset_attributes": {"@spider": "usps_collection_boxes", "spider:collection_time": "2023-08-28T08:25:48.690851"}, "geometry": {"coordinates": [-107.476975142, 35.03042917], "type": "Point"}, "id": "eCudvDbX1wKFrH5EnZQNoxUJyfw=", "properties": {"@spider": "usps_collection_boxes", "addr:city": "CASA BLANCA", "addr:country": "US", "addr:full": "182 CASA BLANCA RD", "addr:postcode": "87007", "addr:state": "NM", "amenity": "post_box", "brand": "United States Postal Service", "brand:wikidata": "Q668687", "collection_times": "Mo-Fr 16:30; Sa 10:30", "name": "USPS COLLECTION BOX - BLUE BOX", "note": "ON 12/24 AND 12/31, THIS BOX MAY BE COLLECTED AS EARLY AS 12 NOON.", "nsi_id": "unitedstatespostalservice-a77078", "operator": "United States Postal Service", "operator:short": "USPS", "operator:type": "public", "operator:wikidata": "Q668687", "ref": "8700700001"}, "type": "Feature"}
{"dataset_attributes": {"@spider": "usps_collection_boxes", "spider:collection_time": "2023-08-28T08:25:48.690851"}, "geometry": {"coordinates": [-107.476975142, 35.03042917], "type": "Point"}, "id": "6-VLK6tQPYkPSx0a6bxpgM__ycc=", "properties": {"@spider": "usps_collection_boxes", "addr:city": "CASA BLANCA", "addr:country": "US", "addr:full": "182 CASA BLANCA RD", "addr:postcode": "87007", "addr:state": "NM", "amenity": "post_box", "brand": "United States Postal Service", "brand:wikidata": "Q668687", "collection_times": "Mo-Fr 16:30; Sa 10:30", "name": "USPS COLLECTION BOX - PO LOBBY", "note": "ON 12/24 AND 12/31, THIS BOX MAY BE COLLECTED AS EARLY AS 12 NOON.", "nsi_id": "unitedstatespostalservice-a77078", "operator": "United States Postal Service", "operator:short": "USPS", "operator:type": "public", "operator:wikidata": "Q668687", "ref": "8700700002"}, "type": "Feature"}
{"dataset_attributes": {"@spider": "usps_collection_boxes", "spider:collection_time": "2023-08-28T08:25:48.690851"}, "geometry": {"coordinates": [-107.476975142, 35.03042917], "type": "Point"}, "id": "HkfgybcEwHd61LW02wo-BHaxMfU=", "properties": {"@spider": "usps_collection_boxes", "addr:city": "CASA BLANCA", "addr:country": "US", "addr:full": "182 CASA BLANCA RD", "addr:postcode": "87007", "addr:state": "NM", "amenity": "post_box", "brand": "United States Postal Service", "brand:wikidata": "Q668687", "collection_times": "Mo-Fr 16:15; Sa 11:15", "name": "USPS COLLECTION BOX - PO LOBBY", "note": "ON 12/24 AND 12/31, THIS BOX MAY BE COLLECTED AS EARLY AS 12 NOON.", "nsi_id": "unitedstatespostalservice-a77078", "operator": "United States Postal Service", "operator:short": "USPS", "operator:type": "public", "operator:wikidata": "Q668687", "ref": "8700700003"}, "type": "Feature"}
{"dataset_attributes": {"@spider": "usps_collection_boxes", "spider:collection_time": "2023-08-28T08:25:48.690851"}, "geometry": {"coordinates": [-106.366341, 35.129766], "type": "Point"}, "id": "v3YP3vfxn2wjK8UlTure9hMe5lE=", "properties": {"@spider": "usps_collection_boxes", "addr:city": "CEDAR CREST", "addr:country": "US", "addr:full": "12218 STATE HIGHWAY 14 N", "addr:postcode": "87008", "addr:state": "NM", "amenity": "post_box", "brand": "United States Postal Service", "brand:wikidata": "Q668687", "collection_times": "Mo-Fr 16:45; Sa 12:15", "name": "USPS COLLECTION BOX - BLUE BOX", "note": "ON 12/24 AND 12/31, THIS BOX MAY BE COLLECTED AS EARLY AS 12 NOON.", "nsi_id": "unitedstatespostalservice-a77078", "operator": "United States Postal Service", "operator:short": "USPS", "operator:type": "public", "operator:wikidata": "Q668687", "ref": "8700800001"}, "type": "Feature"}
{"dataset_attributes": {"@spider": "usps_collection_boxes", "spider:collection_time": "2023-08-28T08:25:48.690851"}, "geometry": {"coordinates": [-106.366371, 35.129711], "type": "Point"}, "id": "gJs8ToDIOQ3BosFgi9OIhR_FX-o=", "properties": {"@spider": "usps_collection_boxes", "addr:city": "CEDAR CREST", "addr:country": "US", "addr:full": "12218 STATE HIGHWAY 14 N", "addr:postcode": "87008", "addr:state": "NM", "amenity": "post_box", "brand": "United States Postal Service", "brand:wikidata": "Q668687", "collection_times": "Mo-Fr 16:45; Sa 12:15", "name": "USPS COLLECTION BOX - BLUE BOX", "note": "ON 12/24 AND 12/31, THIS BOX MAY BE COLLECTED AS EARLY AS 12 NOON.", "nsi_id": "unitedstatespostalservice-a77078", "operator": "United States Postal Service", "operator:short": "USPS", "operator:type": "public", "operator:wikidata": "Q668687", "ref": "8700800003"}, "type": "Feature"}
{"dataset_attributes": {"@spider": "usps_collection_boxes", "spider:collection_time": "2023-08-28T08:25:48.690851"}, "geometry": {"coordinates": [-106.366371, 35.129711], "type": "Point"}, "id": "dJW9scvGtBSg4LfwNkaVd3U6LF4=", "properties": {"@spider": "usps_collection_boxes", "addr:city": "CEDAR CREST", "addr:country": "US", "addr:full": "12218 STATE HIGHWAY 14 N", "addr:postcode": "87008", "addr:state": "NM", "amenity": "post_box", "brand": "United States Postal Service", "brand:wikidata": "Q668687", "collection_times": "Mo-Fr 16:45; Sa 12:15", "name": "USPS COLLECTION BOX - BLUE BOX", "note": "ON 12/24 AND 12/31, THIS BOX MAY BE COLLECTED AS EARLY AS 12 NOON.", "nsi_id": "unitedstatespostalservice-a77078", "operator": "United States Postal Service", "operator:short": "USPS", "operator:type": "public", "operator:wikidata": "Q668687", "ref": "8700800004"}, "type": "Feature"}
{"dataset_attributes": {"@spider": "usps_collection_boxes", "spider:collection_time": "2023-08-28T08:25:48.690851"}, "geometry": {"coordinates": [-106.366371, 35.129711], "type": "Point"}, "id": "q7ys7dNScypn6m29NiAzsqG5Slw=", "properties": {"@spider": "usps_collection_boxes", "addr:city": "CEDAR CREST", "addr:country": "US", "addr:full": "12218 STATE HIGHWAY 14 N", "addr:postcode": "87008", "addr:state": "NM", "amenity": "post_box", "brand": "United States Postal Service", "brand:wikidata": "Q668687", "collection_times": "Mo-Fr 16:45; Sa 12:15", "name": "USPS COLLECTION BOX - PO LOBBY", "note": "ON 12/24 AND 12/31, THIS BOX MAY BE COLLECTED AS EARLY AS 12 NOON.", "nsi_id": "unitedstatespostalservice-a77078", "operator": "United States Postal Service", "operator:short": "USPS", "operator:type": "public", "operator:wikidata": "Q668687", "ref": "8700800005"}, "type": "Feature"}
{"dataset_attributes": {"@spider": "usps_collection_boxes", "spider:collection_time": "2023-08-28T08:25:48.690851"}, "geometry": {"coordinates": [-106.366371, 35.129711], "type": "Point"}, "id": "tJed3XPPUqm39qNA4Wwawwrcs9I=", "properties": {"@spider": "usps_collection_boxes", "addr:city": "CEDAR CREST", "addr:country": "US", "addr:full": "12218 STATE HIGHWAY 14 N", "addr:postcode": "87008", "addr:state": "NM", "amenity": "post_box", "brand": "United States Postal Service", "brand:wikidata": "Q668687", "collection_times": "Mo-Fr 16:45; Sa 12:15", "name": "USPS COLLECTION BOX - PO LOBBY", "note": "ON 12/24 AND 12/31, THIS BOX MAY BE COLLECTED AS EARLY AS 12 NOON.", "nsi_id": "unitedstatespostalservice-a77078", "operator": "United States Postal Service", "operator:short": "USPS", "operator:type": "public", "operator:wikidata": "Q668687", "ref": "8700800006"}, "type": "Feature"}
{"dataset_attributes": {"@spider": "usps_collection_boxes", "spider:collection_time": "2023-08-28T08:25:48.690851"}, "geometry": {"coordinates": [-106.366371, 35.129711], "type": "Point"}, "id": "GkDg97CSyz5UKBHz4bfNC24c4AE=", "properties": {"@spider": "usps_collection_boxes", "addr:city": "CEDAR CREST", "addr:country": "US", "addr:full": "12218 STATE HIGHWAY 14 N", "addr:postcode": "87008", "addr:state": "NM", "amenity": "post_box", "brand": "United States Postal Service", "brand:wikidata": "Q668687", "collection_times": "Mo-Fr 16:45; Sa 12:15", "name": "USPS COLLECTION BOX - PO LOBBY", "note": "ON 12/24 AND 12/31, THIS BOX MAY BE COLLECTED AS EARLY AS 12 NOON.", "nsi_id": "unitedstatespostalservice-a77078", "operator": "United States Postal Service", "operator:short": "USPS", "operator:type": "public", "operator:wikidata": "Q668687", "ref": "8700800007"}, "type": "Feature"}
{"dataset_attributes": {"@spider": "usps_collection_boxes", "spider:collection_time": "2023-08-28T08:25:48.690851"}, "geometry": {"coordinates": [-106.3663374707, 35.1297709206], "type": "Point"}, "id": "wGzGtI2DAhY2kQimXq0_4TqBlac=", "properties": {"@spider": "usps_collection_boxes", "addr:city": "CEDAR CREST", "addr:country": "US", "addr:full": "12218 STATE HIGHWAY 14 N", "addr:postcode": "87008", "addr:state": "NM", "amenity": "post_box", "brand": "United States Postal Service", "brand:wikidata": "Q668687", "collection_times": "Mo-Fr 16:45; Sa 11:45", "name": "USPS COLLECTION BOX - PO LOBBY", "note": "ON 12/24 AND 12/31, THIS BOX MAY BE COLLECTED AS EARLY AS 12 NOON.", "nsi_id": "unitedstatespostalservice-a77078", "operator": "United States Postal Service", "operator:short": "USPS", "operator:type": "public", "operator:wikidata": "Q668687", "ref": "8700800008"}, "type": "Feature"}
{"dataset_attributes": {"@spider": "usps_collection_boxes", "spider:collection_time": "2023-08-28T08:25:48.690851"}, "geometry": {"coordinates": [-106.119717, 35.434031], "type": "Point"}, "id": "FAocUFM-KAxzG0PofTZl4hdmKWk=", "properties": {"@spider": "usps_collection_boxes", "addr:city": "CERRILLOS", "addr:country": "US", "addr:full": "1 MAIN ST", "addr:postcode": "87010", "addr:state": "NM", "amenity": "post_box", "brand": "United States Postal Service", "brand:wikidata": "Q668687", "collection_times": "Mo-Sa 10:15", "name": "USPS COLLECTION BOX - BLUE BOX", "nsi_id": "unitedstatespostalservice-a77078", "operator": "United States Postal Service", "operator:short": "USPS", "operator:type": "public", "operator:wikidata": "Q668687", "ref": "8701000001"}, "type": "Feature"}
{"dataset_attributes": {"@spider": "usps_collection_boxes", "spider:collection_time": "2023-08-28T08:25:48.690851"}, "geometry": {"coordinates": [-106.119717, 35.434031], "type": "Point"}, "id": "Pm7828B7tDsuV9uGhLAnbqCUkPU=", "properties": {"@spider": "usps_collection_boxes", "addr:city": "CERRILLOS", "addr:country": "US", "addr:full": "1 MAIN ST", "addr:postcode": "87010", "addr:state": "NM", "amenity": "post_box", "brand": "United States Postal Service", "brand:wikidata": "Q668687", "collection_times": "Mo-Sa 10:15", "name": "USPS COLLECTION BOX - PO LOBBY", "nsi_id": "unitedstatespostalservice-a77078", "operator": "United States Postal Service", "operator:short": "USPS", "operator:type": "public", "operator:wikidata": "Q668687", "ref": "8701000002"}, "type": "Feature"}
{"dataset_attributes": {"@spider": "usps_collection_boxes", "spider:collection_time": "2023-08-28T08:25:48.690851"}, "geometry": {"coordinates": [-106.119712093, 35.434112973], "type": "Point"}, "id": "vIQEDGQTtiHhZeAiTQeVK21LM-E=", "properties": {"@spider": "usps_collection_boxes", "addr:city": "CERRILLOS", "addr:country": "US", "addr:full": "1 MAIN ST", "addr:postcode": "87010", "addr:state": "NM", "amenity": "post_box", "brand": "United States Postal Service", "brand:wikidata": "Q668687", "collection_times": "Mo-Sa 10:00", "name": "USPS COLLECTION BOX - PO LOBBY", "nsi_id": "unitedstatespostalservice-a77078", "operator": "United States Postal Service", "operator:short": "USPS", "operator:type": "public", "operator:wikidata": "Q668687", "ref": "8701000004"}, "type": "Feature"}
{"dataset_attributes": {"@spider": "usps_collection_boxes", "spider:collection_time": "2023-08-28T08:25:48.690851"}, "geometry": {"coordinates": [-105.9942665977, 34.1425230035], "type": "Point"}, "id": "ahjZ9Ue9JZwXxqiHDeMeEWOh_ug=", "properties": {"@spider": "usps_collection_boxes", "addr:city": "CLAUNCH", "addr:country": "US", "addr:full": "1468 S HIGHWAY 55", "addr:postcode": "87011", "addr:state": "NM", "amenity": "post_box", "brand": "United States Postal Service", "brand:wikidata": "Q668687", "collection_times": "Mo-Sa 10:30", "name": "USPS COLLECTION BOX - BLUE BOX", "nsi_id": "unitedstatespostalservice-a77078", "operator": "United States Postal Service", "operator:short": "USPS", "operator:type": "public", "operator:wikidata": "Q668687", "ref": "8701100001"}, "type": "Feature"}
{"dataset_attributes": {"@spider": "usps_collection_boxes", "spider:collection_time": "2023-08-28T08:25:48.690851"}, "geometry": {"coordinates": [-105.9942665977, 34.1425230035], "type": "Point"}, "id": "sRfwIuV6eLoqh3fw2fuqU-8Tzv4=", "properties": {"@spider": "usps_collection_boxes", "addr:city": "CLAUNCH", "addr:country": "US", "addr:full": "1468 S HIGHWAY 55", "addr:postcode": "87011", "addr:state": "NM", "amenity": "post_box", "brand": "United States Postal Service", "brand:wikidata": "Q668687", "collection_times": "Mo-Sa 10:30", "name": "USPS COLLECTION BOX - PO LOBBY", "nsi_id": "unitedstatespostalservice-a77078", "operator": "United States Postal Service", "operator:short": "USPS", "operator:type": "public", "operator:wikidata": "Q668687", "ref": "8701100002"}, "type": "Feature"}
{"dataset_attributes": {"@spider": "usps_collection_boxes", "spider:collection_time": "2023-08-28T08:25:48.690851"}, "geometry": {"coordinates": [-105.994216065, 34.142523933], "type": "Point"}, "id": "5Bno_Tg-0qOyuCCPHe5zKmJOx6U=", "properties": {"@spider": "usps_collection_boxes", "addr:city": "CLAUNCH", "addr:country": "US", "addr:full": "1468 S HIGHWAY 55", "addr:postcode": "87011", "addr:state": "NM", "amenity": "post_box", "brand": "United States Postal Service", "brand:wikidata": "Q668687", "collection_times": "Mo-Sa 10:30", "name": "USPS COLLECTION BOX - PO LOBBY", "nsi_id": "unitedstatespostalservice-a77078", "operator": "United States Postal Service", "operator:short": "USPS", "operator:type": "public", "operator:wikidata": "Q668687", "ref": "8701100003"}, "type": "Feature"}
{"dataset_attributes": {"@spider": "usps_collection_boxes", "spider:collection_time": "2023-08-28T08:25:48.690851"}, "geometry": {"coordinates": [-106.617047221, 36.165846643], "type": "Point"}, "id": "tCjFdvhEEnLJrS9YZPIpvmk92G8=", "properties": {"@spider": "usps_collection_boxes", "addr:city": "COYOTE", "addr:country": "US", "addr:full": "3390 STATE HIGHWAY 96", "addr:postcode": "87012", "addr:state": "NM", "amenity": "post_box", "brand": "United States Postal Service", "brand:wikidata": "Q668687", "collection_times": "Mo-Fr 11:30; Sa 11:00", "name": "USPS COLLECTION BOX - BLUE BOX", "nsi_id": "unitedstatespostalservice-a77078", "operator": "United States Postal Service", "operator:short": "USPS", "operator:type": "public", "operator:wikidata": "Q668687", "ref": "8701200000"}, "type": "Feature"}
{"dataset_attributes": {"@spider": "usps_collection_boxes", "spider:collection_time": "2023-08-28T08:25:48.690851"}, "geometry": {"coordinates": [-106.617047221, 36.165846643], "type": "Point"}, "id": "3OkpA0AsukhLaZdvwEclJkKsdJY=", "properties": {"@spider": "usps_collection_boxes", "addr:city": "COYOTE", "addr:country": "US", "addr:full": "3390 STATE HIGHWAY 96", "addr:postcode": "87012", "addr:state": "NM", "amenity": "post_box", "brand": "United States Postal Service", "brand:wikidata": "Q668687", "collection_times": "Mo-Fr 11:30; Sa 11:00", "name": "USPS COLLECTION BOX - PO LOBBY", "nsi_id": "unitedstatespostalservice-a77078", "operator": "United States Postal Service", "operator:short": "USPS", "operator:type": "public", "operator:wikidata": "Q668687", "ref": "8701200001"}, "type": "Feature"}
{"dataset_attributes": {"@spider": "usps_collection_boxes", "spider:collection_time": "2023-08-28T08:25:48.690851"}, "geometry": {"coordinates": [-106.617047221, 36.165846643], "type": "Point"}, "id": "avewy1kfAbkBwu8WhFvmJUV_P9M=", "properties": {"@spider": "usps_collection_boxes", "addr:city": "COYOTE", "addr:country": "US", "addr:full": "3390 STATE HIGHWAY 96", "addr:postcode": "87012", "addr:state": "NM", "amenity": "post_box", "brand": "United States Postal Service", "brand:wikidata": "Q668687", "collection_times": "Mo-Fr 11:15; Sa 11:00", "name": "USPS COLLECTION BOX - PO LOBBY", "nsi_id": "unitedstatespostalservice-a77078", "operator": "United States Postal Service", "operator:short": "USPS", "operator:type": "public", "operator:wikidata": "Q668687", "ref": "8701200002"}, "type": "Feature"}
{"dataset_attributes": {"@spider": "usps_collection_boxes", "spider:collection_time": "2023-08-28T08:25:48.690851"}, "geometry": {"coordinates": [-106.964047, 36.014821], "type": "Point"}, "id": "tQ9a76aoAhCR3Edp6ucseRDNA5M=", "properties": {"@spider": "usps_collection_boxes", "addr:city": "CUBA", "addr:country": "US", "addr:full": "6358 MAIN ST", "addr:postcode": "87013", "addr:state": "NM", "amenity": "post_box", "brand": "United States Postal Service", "brand:wikidata": "Q668687", "collection_times": "Mo-Fr 16:30; Sa 12:30", "name": "USPS COLLECTION BOX - BLUE BOX", "note": "ON 12/24 AND 12/31, THIS BOX MAY BE COLLECTED AS EARLY AS 12 NOON.", "nsi_id": "unitedstatespostalservice-a77078", "operator": "United States Postal Service", "operator:short": "USPS", "operator:type": "public", "operator:wikidata": "Q668687", "ref": "8701300001"}, "type": "Feature"}
{"dataset_attributes": {"@spider": "usps_collection_boxes", "spider:collection_time": "2023-08-28T08:25:48.690851"}, "geometry": {"coordinates": [-106.9642099864, 36.0142740123], "type": "Point"}, "id": "o8h2KpO2ajw_527ybKGm0Ob6nWg=", "properties": {"@spider": "usps_collection_boxes", "addr:city": "CUBA", "addr:country": "US", "addr:full": "6358 MAIN ST", "addr:postcode": "87013", "addr:state": "NM", "amenity": "post_box", "brand": "United States Postal Service", "brand:wikidata": "Q668687", "collection_times": "Mo-Fr 16:30; Sa 12:30", "name": "USPS COLLECTION BOX - PO LOBBY", "note": "ON 12/24 AND 12/31, THIS BOX MAY BE COLLECTED AS EARLY AS 12 NOON.", "nsi_id": "unitedstatespostalservice-a77078", "operator": "United States Postal Service", "operator:short": "USPS", "operator:type": "public", "operator:wikidata": "Q668687", "ref": "8701300004"}, "type": "Feature"}
{"dataset_attributes": {"@spider": "usps_collection_boxes", "spider:collection_time": "2023-08-28T08:25:48.690851"}, "geometry": {"coordinates": [-106.9642099864, 36.0142740123], "type": "Point"}, "id": "z4EpwIu2l3yoOqTdFs2s8HDNNMw=", "properties": {"@spider": "usps_collection_boxes", "addr:city": "CUBA", "addr:country": "US", "addr:full": "6358 MAIN ST", "addr:postcode": "87013", "addr:state": "NM", "amenity": "post_box", "brand": "United States Postal Service", "brand:wikidata": "Q668687", "collection_times": "Mo-Fr 16:30; Sa 12:30", "name": "USPS COLLECTION BOX - PO LOBBY", "note": "ON 12/24 AND 12/31, THIS BOX MAY BE COLLECTED AS EARLY AS 12 NOON.", "nsi_id": "unitedstatespostalservice-a77078", "operator": "United States Postal Service", "operator:short": "USPS", "operator:type": "public", "operator:wikidata": "Q668687", "ref": "8701300005"}, "type": "Feature"}
{"dataset_attributes": {"@spider": "usps_collection_boxes", "spider:collection_time": "2023-08-28T08:25:48.690851"}, "geometry": {"coordinates": [-106.9642099864, 36.0142740123], "type": "Point"}, "id": "kKhqHKG9Nl5W_m-z5fz3ZXghV2M=", "properties": {"@spider": "usps_collection_boxes", "addr:city": "CUBA", "addr:country": "US", "addr:full": "6358 MAIN ST", "addr:postcode": "87013", "addr:state": "NM", "amenity": "post_box", "brand": "United States Postal Service", "brand:wikidata": "Q668687", "collection_times": "Mo-Fr 16:15; Sa 12:15", "name": "USPS COLLECTION BOX - PO LOBBY", "note": "ON 12/24 AND 12/31, THIS BOX MAY BE COLLECTED AS EARLY AS 12 NOON.", "nsi_id": "unitedstatespostalservice-a77078", "operator": "United States Postal Service", "operator:short": "USPS", "operator:type": "public", "operator:wikidata": "Q668687", "ref": "8701300006"}, "type": "Feature"}
{"dataset_attributes": {"@spider": "usps_collection_boxes", "spider:collection_time": "2023-08-28T08:25:48.690851"}, "geometry": {"coordinates": [-107.5208709874, 35.0847975841], "type": "Point"}, "id": "GIxOjRfO8rmLGr0_jtbArXaRI64=", "properties": {"@spider": "usps_collection_boxes", "addr:city": "CUBERO", "addr:country": "US", "addr:full": "6 CAMINO REAL RD", "addr:postcode": "87014", "addr:state": "NM", "amenity": "post_box", "brand": "United States Postal Service", "brand:wikidata": "Q668687", "collection_times": "Mo-Fr 16:45; Sa 09:45", "name": "USPS COLLECTION BOX - PO LOBBY", "note": "ON 12/24 AND 12/31, THIS BOX MAY BE COLLECTED AS EARLY AS 12 NOON.", "nsi_id": "unitedstatespostalservice-a77078", "operator": "United States Postal Service", "operator:short": "USPS", "operator:type": "public", "operator:wikidata": "Q668687", "ref": "8701400002"}, "type": "Feature"}
{"dataset_attributes": {"@spider": "usps_collection_boxes", "spider:collection_time": "2023-08-28T08:25:48.690851"}, "geometry": {"coordinates": [-107.5208709874, 35.0847975841], "type": "Point"}, "id": "_Gw8PLFDk6Z4x6ewi132yP-kz44=", "properties": {"@spider": "usps_collection_boxes", "addr:city": "CUBERO", "addr:country": "US", "addr:full": "6 CAMINO REAL RD", "addr:postcode": "87014", "addr:state": "NM", "amenity": "post_box", "brand": "United States Postal Service", "brand:wikidata": "Q668687", "collection_times": "Mo-Fr 16:45; Sa 09:45", "name": "USPS COLLECTION BOX - PO LOBBY", "note": "ON 12/24 AND 12/31, THIS BOX MAY BE COLLECTED AS EARLY AS 12 NOON.", "nsi_id": "unitedstatespostalservice-a77078", "operator": "United States Postal Service", "operator:short": "USPS", "operator:type": "public", "operator:wikidata": "Q668687", "ref": "8701400003"}, "type": "Feature"}
{"dataset_attributes": {"@spider": "usps_collection_boxes", "spider:collection_time": "2023-08-28T08:25:48.690851"}, "geometry": {"coordinates": [-107.5208709874, 35.0847975841], "type": "Point"}, "id": "-xvtiONZV6EmNEK0K6XztPfGZe0=", "properties": {"@spider": "usps_collection_boxes", "addr:city": "CUBERO", "addr:country": "US", "addr:full": "6 CAMINO REAL RD", "addr:postcode": "87014", "addr:state": "NM", "amenity": "post_box", "brand": "United States Postal Service", "brand:wikidata": "Q668687", "collection_times": "Mo-Fr 16:45; Sa 09:45", "name": "USPS COLLECTION BOX - PO LOBBY", "note": "ON 12/24 AND 12/31, THIS BOX MAY BE COLLECTED AS EARLY AS 12 NOON.", "nsi_id": "unitedstatespostalservice-a77078", "operator": "United States Postal Service", "operator:short": "USPS", "operator:type": "public", "operator:wikidata": "Q668687", "ref": "8701400004"}, "type": "Feature"}
{"dataset_attributes": {"@spider": "usps_collection_boxes", "spider:collection_time": "2023-08-28T08:25:48.690851"}, "geometry": {"coordinates": [-106.194994, 35.063703], "type": "Point"}, "id": "b4azKAlFUpDOmgheby6j7BEnAlU=", "properties": {"@spider": "usps_collection_boxes", "addr:city": "EDGEWOOD", "addr:country": "US", "addr:full": "13 PLAZA LOOP", "addr:postcode": "87015", "addr:state": "NM", "amenity": "post_box", "brand": "United States Postal Service", "brand:wikidata": "Q668687", "collection_times": "Mo-Fr 16:45; Sa 11:45", "name": "USPS COLLECTION BOX - BLUE BOX", "note": "ON 12/24 AND 12/31, THIS BOX MAY BE COLLECTED AS EARLY AS 12 NOON.", "nsi_id": "unitedstatespostalservice-a77078", "operator": "United States Postal Service", "operator:short": "USPS", "operator:type": "public", "operator:wikidata": "Q668687", "ref": "8701500001"}, "type": "Feature"}
{"dataset_attributes": {"@spider": "usps_collection_boxes", "spider:collection_time": "2023-08-28T08:25:48.690851"}, "geometry": {"coordinates": [-106.194978, 35.063727], "type": "Point"}, "id": "M4WeRE9HoVBfL3oMvt32g9RQBvU=", "properties": {"@spider": "usps_collection_boxes", "addr:city": "EDGEWOOD", "addr:country": "US", "addr:full": "13 PLAZA LOOP", "addr:postcode": "87015", "addr:state": "NM", "amenity": "post_box", "brand": "United States Postal Service", "brand:wikidata": "Q668687", "collection_times": "Mo-Fr 17:00; Sa 12:00", "name": "USPS COLLECTION BOX - PO LOBBY", "note": "ON 12/24 AND 12/31, THIS BOX MAY BE COLLECTED AS EARLY AS 12 NOON.", "nsi_id": "unitedstatespostalservice-a77078", "operator": "United States Postal Service", "operator:short": "USPS", "operator:type": "public", "operator:wikidata": "Q668687", "ref": "8701500002"}, "type": "Feature"}
{"dataset_attributes": {"@spider": "usps_collection_boxes", "spider:collection_time": "2023-08-28T08:25:48.690851"}, "geometry": {"coordinates": [-106.194978, 35.063727], "type": "Point"}, "id": "r83Fx1OGnmzzBBQk8KkW2AvGQZo=", "properties": {"@spider": "usps_collection_boxes", "addr:city": "EDGEWOOD", "addr:country": "US", "addr:full": "13 PLAZA LOOP", "addr:postcode": "87015", "addr:state": "NM", "amenity": "post_box", "brand": "United States Postal Service", "brand:wikidata": "Q668687", "collection_times": "Mo-Fr 17:00; Sa 12:00", "name": "USPS COLLECTION BOX - PO LOBBY", "note": "ON 12/24 AND 12/31, THIS BOX MAY BE COLLECTED AS EARLY AS 12 NOON.", "nsi_id": "unitedstatespostalservice-a77078", "operator": "United States Postal Service", "operator:short": "USPS", "operator:type": "public", "operator:wikidata": "Q668687", "ref": "8701500003"}, "type": "Feature"}
{"dataset_attributes": {"@spider": "usps_collection_boxes", "spider:collection_time": "2023-08-28T08:25:48.690851"}, "geometry": {"coordinates": [-106.194978, 35.063727], "type": "Point"}, "id": "ZEsIu69iF_fGKtJO9VeIKwizNSU=", "properties": {"@spider": "usps_collection_boxes", "addr:city": "EDGEWOOD", "addr:country": "US", "addr:full": "13 PLAZA LOOP", "addr:postcode": "87015", "addr:state": "NM", "amenity": "post_box", "brand": "United States Postal Service", "brand:wikidata": "Q668687", "collection_times": "Mo-Fr 17:00; Sa 12:00", "name": "USPS COLLECTION BOX - PO LOBBY", "note": "ON 12/24 AND 12/31, THIS BOX MAY BE COLLECTED AS EARLY AS 12 NOON.", "nsi_id": "unitedstatespostalservice-a77078", "operator": "United States Postal Service", "operator:short": "USPS", "operator:type": "public", "operator:wikidata": "Q668687", "ref": "8701500004"}, "type": "Feature"}
{"dataset_attributes": {"@spider": "usps_collection_boxes", "spider:collection_time": "2023-08-28T08:25:48.690851"}, "geometry": {"coordinates": [-106.1931346988, 35.0631181489], "type": "Point"}, "id": "qPaRaSIcfNmn5NwhmCfs8-aHJtk=", "properties": {"@spider": "usps_collection_boxes", "addr:city": "EDGEWOOD", "addr:country": "US", "addr:full": "13 PLAZA LOOP", "addr:postcode": "87015", "addr:state": "NM", "amenity": "post_box", "brand": "United States Postal Service", "brand:wikidata": "Q668687", "collection_times": "Mo-Fr 16:45; Sa 11:45", "name": "USPS COLLECTION BOX - PO LOBBY", "note": "ON 12/24 AND 12/31, THIS BOX MAY BE COLLECTED AS EARLY AS 12 NOON.", "nsi_id": "unitedstatespostalservice-a77078", "operator": "United States Postal Service", "operator:short": "USPS", "operator:type": "public", "operator:wikidata": "Q668687", "ref": "8701500005"}, "type": "Feature"}
{"dataset_attributes": {"@spider": "usps_collection_boxes", "spider:collection_time": "2023-08-28T08:25:48.690851"}, "geometry": {"coordinates": [-106.054533015, 34.7576989861], "type": "Point"}, "id": "Q2x--NDqfAUo1mKn6Rz_LwgdhrM=", "properties": {"@spider": "usps_collection_boxes", "addr:city": "ESTANCIA", "addr:country": "US", "addr:full": "413 E HIGHLAND AVE", "addr:postcode": "87016", "addr:state": "NM", "amenity": "post_box", "brand": "United States Postal Service", "brand:wikidata": "Q668687", "collection_times": "Mo-Fr 16:30; Sa 11:00", "name": "USPS COLLECTION BOX - BLUE BOX", "note": "ON 12/24 AND 12/31, THIS BOX MAY BE COLLECTED AS EARLY AS 12 NOON.", "nsi_id": "unitedstatespostalservice-a77078", "operator": "United States Postal Service", "operator:short": "USPS", "operator:type": "public", "operator:wikidata": "Q668687", "ref": "8701600001"}, "type": "Feature"}
{"dataset_attributes": {"@spider": "usps_collection_boxes", "spider:collection_time": "2023-08-28T08:25:48.690851"}, "geometry": {"coordinates": [-106.054659304, 34.75723945], "type": "Point"}, "id": "glUYckvnbUKSWJ4DdrqEnZqMxYk=", "properties": {"@spider": "usps_collection_boxes", "addr:city": "ESTANCIA", "addr:country": "US", "addr:full": "413 E HIGHLAND AVE", "addr:postcode": "87016", "addr:state": "NM", "amenity": "post_box", "brand": "United States Postal Service", "brand:wikidata": "Q668687", "collection_times": "Mo-Fr 16:30; Sa 11:00", "name": "USPS COLLECTION BOX - PO LOBBY", "note": "ON 12/24 AND 12/31, THIS BOX MAY BE COLLECTED AS EARLY AS 12 NOON.", "nsi_id": "unitedstatespostalservice-a77078", "operator": "United States Postal Service", "operator:short": "USPS", "operator:type": "public", "operator:wikidata": "Q668687", "ref": "8701600002"}, "type": "Feature"}
{"dataset_attributes": {"@spider": "usps_collection_boxes", "spider:collection_time": "2023-08-28T08:25:48.690851"}, "geometry": {"coordinates": [-106.054659304, 34.75723945], "type": "Point"}, "id": "IFKz3wkQGq2U7Z3-2e0Eb4reTJ0=", "properties": {"@spider": "usps_collection_boxes", "addr:city": "ESTANCIA", "addr:country": "US", "addr:full": "413 E HIGHLAND AVE", "addr:postcode": "87016", "addr:state": "NM", "amenity": "post_box", "brand": "United States Postal Service", "brand:wikidata": "Q668687", "collection_times": "Mo-Fr 16:30; Sa 11:00", "name": "USPS COLLECTION BOX - PO LOBBY", "note": "ON 12/24 AND 12/31, THIS BOX MAY BE COLLECTED AS EARLY AS 12 NOON.", "nsi_id": "unitedstatespostalservice-a77078", "operator": "United States Postal Service", "operator:short": "USPS", "operator:type": "public", "operator:wikidata": "Q668687", "ref": "8701600003"}, "type": "Feature"}
{"dataset_attributes": {"@spider": "usps_collection_boxes", "spider:collection_time": "2023-08-28T08:25:48.690851"}, "geometry": {"coordinates": [-106.054659304, 34.75723945], "type": "Point"}, "id": "fHnH2t1iioR8eADZOt789t0MxKA=", "properties": {"@spider": "usps_collection_boxes", "addr:city": "ESTANCIA", "addr:country": "US", "addr:full": "413 E HIGHLAND AVE", "addr:postcode": "87016", "addr:state": "NM", "amenity": "post_box", "brand": "United States Postal Service", "brand:wikidata": "Q668687", "collection_times": "Mo-Fr 16:30; Sa 11:00", "name": "USPS COLLECTION BOX - PO LOBBY", "note": "ON 12/24 AND 12/31, THIS BOX MAY BE COLLECTED AS EARLY AS 12 NOON.", "nsi_id": "unitedstatespostalservice-a77078", "operator": "United States Postal Service", "operator:short": "USPS", "operator:type": "public", "operator:wikidata": "Q668687", "ref": "8701600005"}, "type": "Feature"}
{"dataset_attributes": {"@spider": "usps_collection_boxes", "spider:collection_time": "2023-08-28T08:25:48.690851"}, "geometry": {"coordinates": [-106.815943, 36.229192], "type": "Point"}, "id": "lMJuAsQ-7BCMBmFlTH8bKJ4PUuo=", "properties": {"@spider": "usps_collection_boxes", "addr:city": "GALLINA", "addr:country": "US", "addr:full": "1970 STATE RD 96", "addr:postcode": "87017", "addr:state": "NM", "amenity": "post_box", "brand": "United States Postal Service", "brand:wikidata": "Q668687", "collection_times": "Mo-Fr 12:00; Sa 11:30", "name": "USPS COLLECTION BOX - BLUE BOX", "nsi_id": "unitedstatespostalservice-a77078", "operator": "United States Postal Service", "operator:short": "USPS", "operator:type": "public", "operator:wikidata": "Q668687", "ref": "8701700001"}, "type": "Feature"}
{"dataset_attributes": {"@spider": "usps_collection_boxes", "spider:collection_time": "2023-08-28T08:25:48.690851"}, "geometry": {"coordinates": [-106.815943, 36.229191], "type": "Point"}, "id": "5vzihh35t2oHBTRv2WCM6p14CRg=", "properties": {"@spider": "usps_collection_boxes", "addr:city": "GALLINA", "addr:country": "US", "addr:full": "1970 STATE RD 96", "addr:postcode": "87017", "addr:state": "NM", "amenity": "post_box", "brand": "United States Postal Service", "brand:wikidata": "Q668687", "collection_times": "Mo-Fr 12:00; Sa 11:30", "name": "USPS COLLECTION BOX - PO LOBBY", "nsi_id": "unitedstatespostalservice-a77078", "operator": "United States Postal Service", "operator:short": "USPS", "operator:type": "public", "operator:wikidata": "Q668687", "ref": "8701700002"}, "type": "Feature"}
{"dataset_attributes": {"@spider": "usps_collection_boxes", "spider:collection_time": "2023-08-28T08:25:48.690851"}, "geometry": {"coordinates": [-106.817375295, 36.2289517982], "type": "Point"}, "id": "T1_I4Bz9nv2-RtSc3b9tjeOGtQU=", "properties": {"@spider": "usps_collection_boxes", "addr:city": "GALLINA", "addr:country": "US", "addr:full": "1970 STATE HIGHWAY 96", "addr:postcode": "87017", "addr:state": "NM", "amenity": "post_box", "brand": "United States Postal Service", "brand:wikidata": "Q668687", "collection_times": "Mo-Fr 11:45; Sa 11:30", "name": "USPS COLLECTION BOX - PO LOBBY", "nsi_id": "unitedstatespostalservice-a77078", "operator": "United States Postal Service", "operator:short": "USPS", "operator:type": "public", "operator:wikidata": "Q668687", "ref": "8701700003"}, "type": "Feature"}
{"dataset_attributes": {"@spider": "usps_collection_boxes", "spider:collection_time": "2023-08-28T08:25:48.690851"}, "geometry": {"coordinates": [-107.8306018324, 35.1612194644], "type": "Point"}, "id": "8HmYLvnqw_UyDcceQqunWnpnEkY=", "properties": {"@spider": "usps_collection_boxes", "addr:city": "GRANTS", "addr:country": "US", "addr:full": "700 E ROOSEVELT AVE", "addr:postcode": "87020", "addr:state": "NM", "amenity": "post_box", "brand": "United States Postal Service", "brand:wikidata": "Q668687", "collection_times": "Mo-Sa 14:00", "name": "USPS COLLECTION BOX - BLUE BOX", "note": "ON 12/24 AND 12/31, THIS BOX MAY BE COLLECTED AS EARLY AS 12 NOON.", "nsi_id": "unitedstatespostalservice-a77078", "operator": "United States Postal Service", "operator:short": "USPS", "operator:type": "public", "operator:wikidata": "Q668687", "ref": "8702000003"}, "type": "Feature"}
{"dataset_attributes": {"@spider": "usps_collection_boxes", "spider:collection_time": "2023-08-28T08:25:48.690851"}, "geometry": {"coordinates": [-107.857592, 35.153728], "type": "Point"}, "id": "L0zSMV67LXiQH8unys23iNCOGZ8=", "properties": {"@spider": "usps_collection_boxes", "addr:city": "GRANTS", "addr:country": "US", "addr:full": "816 W SANTA FE AVE", "addr:postcode": "87020", "addr:state": "NM", "amenity": "post_box", "brand": "United States Postal Service", "brand:wikidata": "Q668687", "collection_times": "Mo-Fr 17:00; Sa 15:30", "name": "USPS COLLECTION BOX - BLUE BOX", "note": "ON 12/24 AND 12/31, THIS BOX MAY BE COLLECTED AS EARLY AS 12 NOON.", "nsi_id": "unitedstatespostalservice-a77078", "operator": "United States Postal Service", "operator:short": "USPS", "operator:type": "public", "operator:wikidata": "Q668687", "ref": "8702000009"}, "type": "Feature"}
{"dataset_attributes": {"@spider": "usps_collection_boxes", "spider:collection_time": "2023-08-28T08:25:48.690851"}, "geometry": {"coordinates": [-107.857532, 35.153683], "type": "Point"}, "id": "B2fjGa8yDPMuYX-hBoh6PR-yt_Y=", "properties": {"@spider": "usps_collection_boxes", "addr:city": "GRANTS", "addr:country": "US", "addr:full": "816 W SANTA FE AVE", "addr:postcode": "87020", "addr:state": "NM", "amenity": "post_box", "brand": "United States Postal Service", "brand:wikidata": "Q668687", "collection_times": "Mo-Fr 17:00; Sa 15:30", "name": "USPS COLLECTION BOX - BLUE BOX", "note": "ON 12/24 AND 12/31, THIS BOX MAY BE COLLECTED AS EARLY AS 12 NOON.", "nsi_id": "unitedstatespostalservice-a77078", "operator": "United States Postal Service", "operator:short": "USPS", "operator:type": "public", "operator:wikidata": "Q668687", "ref": "8702000010"}, "type": "Feature"}
{"dataset_attributes": {"@spider": "usps_collection_boxes", "spider:collection_time": "2023-08-28T08:25:48.690851"}, "geometry": {"coordinates": [-107.857532, 35.153683], "type": "Point"}, "id": "UdlgI63CmTvkEejmPe4AN3OxXMU=", "properties": {"@spider": "usps_collection_boxes", "addr:city": "GRANTS", "addr:country": "US", "addr:full": "816 W SANTA FE AVE", "addr:postcode": "87020", "addr:state": "NM", "amenity": "post_box", "brand": "United States Postal Service", "brand:wikidata": "Q668687", "collection_times": "Mo-Fr 17:00; Sa 15:30", "name": "USPS COLLECTION BOX - BLUE BOX", "note": "ON 12/24 AND 12/31, THIS BOX MAY BE COLLECTED AS EARLY AS 12 NOON.", "nsi_id": "unitedstatespostalservice-a77078", "operator": "United States Postal Service", "operator:short": "USPS", "operator:type": "public", "operator:wikidata": "Q668687", "ref": "8702000011"}, "type": "Feature"}
{"dataset_attributes": {"@spider": "usps_collection_boxes", "spider:collection_time": "2023-08-28T08:25:48.690851"}, "geometry": {"coordinates": [-107.857532, 35.153683], "type": "Point"}, "id": "sLQWR2pyvKv4ujXFkRZenV6e254=", "properties": {"@spider": "usps_collection_boxes", "addr:city": "GRANTS", "addr:country": "US", "addr:full": "816 W SANTA FE AVE", "addr:postcode": "87020", "addr:state": "NM", "amenity": "post_box", "brand": "United States Postal Service", "brand:wikidata": "Q668687", "collection_times": "Mo-Fr 17:00; Sa 15:30", "name": "USPS COLLECTION BOX - PO LOBBY", "note": "ON 12/24 AND 12/31, THIS BOX MAY BE COLLECTED AS EARLY AS 12 NOON.", "nsi_id": "unitedstatespostalservice-a77078", "operator": "United States Postal Service", "operator:short": "USPS", "operator:type": "public", "operator:wikidata": "Q668687", "ref": "8702000012"}, "type": "Feature"}
{"dataset_attributes": {"@spider": "usps_collection_boxes", "spider:collection_time": "2023-08-28T08:25:48.690851"}, "geometry": {"coordinates": [-107.857532, 35.153683], "type": "Point"}, "id": "MO5pHdhlE5SQnKDF4O343ftQN_8=", "properties": {"@spider": "usps_collection_boxes", "addr:city": "GRANTS", "addr:country": "US", "addr:full": "816 W SANTA FE AVE", "addr:postcode": "87020", "addr:state": "NM", "amenity": "post_box", "brand": "United States Postal Service", "brand:wikidata": "Q668687", "collection_times": "Mo-Fr 17:00; Sa 15:30", "name": "USPS COLLECTION BOX - PO LOBBY", "note": "ON 12/24 AND 12/31, THIS BOX MAY BE COLLECTED AS EARLY AS 12 NOON.", "nsi_id": "unitedstatespostalservice-a77078", "operator": "United States Postal Service", "operator:short": "USPS", "operator:type": "public", "operator:wikidata": "Q668687", "ref": "8702000018"}, "type": "Feature"}
{"dataset_attributes": {"@spider": "usps_collection_boxes", "spider:collection_time": "2023-08-28T08:25:48.690851"}, "geometry": {"coordinates": [-107.857553087, 35.153708772], "type": "Point"}, "id": "yDAWz-v0nwB3VFsfhOMDq06B5nI=", "properties": {"@spider": "usps_collection_boxes", "addr:city": "GRANTS", "addr:country": "US", "addr:full": "816 W SANTA FE AVE", "addr:postcode": "87020", "addr:state": "NM", "amenity": "post_box", "brand": "United States Postal Service", "brand:wikidata": "Q668687", "collection_times": "Mo-Fr 16:45; Sa 11:45", "name": "USPS COLLECTION BOX - PO LOBBY", "note": "ON 12/24 AND 12/31, THIS BOX MAY BE COLLECTED AS EARLY AS 12 NOON.", "nsi_id": "unitedstatespostalservice-a77078", "operator": "United States Postal Service", "operator:short": "USPS", "operator:type": "public", "operator:wikidata": "Q668687", "ref": "8702000019"}, "type": "Feature"}
{"dataset_attributes": {"@spider": "usps_collection_boxes", "spider:collection_time": "2023-08-28T08:25:48.690851"}, "geometry": {"coordinates": [-107.891947, 35.172258], "type": "Point"}, "id": "4emF0QJbtPhk-nNxXZZ3uDLzDpI=", "properties": {"@spider": "usps_collection_boxes", "addr:city": "MILAN", "addr:country": "US", "addr:full": "105 AIRPORT RD", "addr:postcode": "87021", "addr:state": "NM", "amenity": "post_box", "brand": "United States Postal Service", "brand:wikidata": "Q668687", "collection_times": "Mo-Fr 16:30; Sa 12:00", "name": "USPS COLLECTION BOX - PO LOBBY", "note": "ON 12/24 AND 12/31, THIS BOX MAY BE COLLECTED AS EARLY AS 12 NOON.", "nsi_id": "unitedstatespostalservice-a77078", "operator": "United States Postal Service", "operator:short": "USPS", "operator:type": "public", "operator:wikidata": "Q668687", "ref": "8702100001"}, "type": "Feature"}
{"dataset_attributes": {"@spider": "usps_collection_boxes", "spider:collection_time": "2023-08-28T08:25:48.690851"}, "geometry": {"coordinates": [-107.891959, 35.172283], "type": "Point"}, "id": "SvN0bbboZ821DIB5xlzHQru-_QY=", "properties": {"@spider": "usps_collection_boxes", "addr:city": "MILAN", "addr:country": "US", "addr:full": "105 AIRPORT RD", "addr:postcode": "87021", "addr:state": "NM", "amenity": "post_box", "brand": "United States Postal Service", "brand:wikidata": "Q668687", "collection_times": "Mo-Fr 16:30; Sa 12:00", "name": "USPS COLLECTION BOX - PO LOBBY", "note": "ON 12/24 AND 12/31, THIS BOX MAY BE COLLECTED AS EARLY AS 12 NOON.", "nsi_id": "unitedstatespostalservice-a77078", "operator": "United States Postal Service", "operator:short": "USPS", "operator:type": "public", "operator:wikidata": "Q668687", "ref": "8702100004"}, "type": "Feature"}
{"dataset_attributes": {"@spider": "usps_collection_boxes", "spider:collection_time": "2023-08-28T08:25:48.690851"}, "geometry": {"coordinates": [-107.891915818, 35.172219146], "type": "Point"}, "id": "hmuduah1t6K3YC58nAg8HWRc5ik=", "properties": {"@spider": "usps_collection_boxes", "addr:city": "MILAN", "addr:country": "US", "addr:full": "105 AIRPORT RD", "addr:postcode": "87021", "addr:state": "NM", "amenity": "post_box", "brand": "United States Postal Service", "brand:wikidata": "Q668687", "collection_times": "Mo-Fr 16:15; Sa 11:45", "name": "USPS COLLECTION BOX - PO LOBBY", "note": "ON 12/24 AND 12/31, THIS BOX MAY BE COLLECTED AS EARLY AS 12 NOON.", "nsi_id": "unitedstatespostalservice-a77078", "operator": "United States Postal Service", "operator:short": "USPS", "operator:type": "public", "operator:wikidata": "Q668687", "ref": "8702100005"}, "type": "Feature"}
{"dataset_attributes": {"@spider": "usps_collection_boxes", "spider:collection_time": "2023-08-28T08:25:48.690851"}, "geometry": {"coordinates": [-106.694746, 34.908412], "type": "Point"}, "id": "UOx6X5i-lrFKQurYFu5pnoTcLZk=", "properties": {"@spider": "usps_collection_boxes", "addr:city": "ISLETA", "addr:country": "US", "addr:full": "119 TRIBAL ROAD 40", "addr:postcode": "87022", "addr:state": "NM", "amenity": "post_box", "brand": "United States Postal Service", "brand:wikidata": "Q668687", "collection_times": "Mo-Fr 15:00; Sa 10:00", "name": "USPS COLLECTION BOX - PO LOBBY", "note": "ON 12/24 AND 12/31, THIS BOX MAY BE COLLECTED AS EARLY AS 12 NOON.", "nsi_id": "unitedstatespostalservice-a77078", "operator": "United States Postal Service", "operator:short": "USPS", "operator:type": "public", "operator:wikidata": "Q668687", "ref": "8702200004"}, "type": "Feature"}
{"dataset_attributes": {"@spider": "usps_collection_boxes", "spider:collection_time": "2023-08-28T08:25:48.690851"}, "geometry": {"coordinates": [-106.694721, 34.90843], "type": "Point"}, "id": "Ij3B7ymxURPT9QSjX1U_53P5a4A=", "properties": {"@spider": "usps_collection_boxes", "addr:city": "ISLETA", "addr:country": "US", "addr:full": "119 TRIBAL ROAD 40", "addr:postcode": "87022", "addr:state": "NM", "amenity": "post_box", "brand": "United States Postal Service", "brand:wikidata": "Q668687", "collection_times": "Mo-Fr 15:00; Sa 10:00", "name": "USPS COLLECTION BOX - BLUE BOX", "note": "ON 12/24 AND 12/31, THIS BOX MAY BE COLLECTED AS EARLY AS 12 NOON.", "nsi_id": "unitedstatespostalservice-a77078", "operator": "United States Postal Service", "operator:short": "USPS", "operator:type": "public", "operator:wikidata": "Q668687", "ref": "8702200005"}, "type": "Feature"}
{"dataset_attributes": {"@spider": "usps_collection_boxes", "spider:collection_time": "2023-08-28T08:25:48.690851"}, "geometry": {"coordinates": [-106.6959813834, 34.9062645747], "type": "Point"}, "id": "ojC7sRXkWJJnmT-BjF1FK2xOh6g=", "properties": {"@spider": "usps_collection_boxes", "addr:city": "ISLETA", "addr:country": "US", "addr:full": "119 TRIBAL ROAD 40", "addr:postcode": "87022", "addr:state": "NM", "amenity": "post_box", "brand": "United States Postal Service", "brand:wikidata": "Q668687", "collection_times": "Mo-Fr 15:00; Sa 10:00", "name": "USPS COLLECTION BOX - PO LOBBY", "note": "ON 12/24 AND 12/31, THIS BOX MAY BE COLLECTED AS EARLY AS 12 NOON.", "nsi_id": "unitedstatespostalservice-a77078", "operator": "United States Postal Service", "operator:short": "USPS", "operator:type": "public", "operator:wikidata": "Q668687", "ref": "8702200006"}, "type": "Feature"}
{"dataset_attributes": {"@spider": "usps_collection_boxes", "spider:collection_time": "2023-08-28T08:25:48.690851"}, "geometry": {"coordinates": [-106.760944929, 34.611054742], "type": "Point"}, "id": "O-FALLOU2zrqWf_BATYx12UCz7o=", "properties": {"@spider": "usps_collection_boxes", "addr:city": "JARALES", "addr:country": "US", "addr:full": "483 HIGHWAY 109", "addr:postcode": "87023", "addr:state": "NM", "amenity": "post_box", "brand": "United States Postal Service", "brand:wikidata": "Q668687", "collection_times": "Mo-Fr 13:00; Sa 11:45", "name": "USPS COLLECTION BOX - BLUE BOX", "note": "ON 12/24 AND 12/31, THIS BOX MAY BE COLLECTED AS EARLY AS 12 NOON.", "nsi_id": "unitedstatespostalservice-a77078", "operator": "United States Postal Service", "operator:short": "USPS", "operator:type": "public", "operator:wikidata": "Q668687", "ref": "8702300001"}, "type": "Feature"}
{"dataset_attributes": {"@spider": "usps_collection_boxes", "spider:collection_time": "2023-08-28T08:25:48.690851"}, "geometry": {"coordinates": [-106.773409, 34.56789], "type": "Point"}, "id": "_U-I6-Y167xGDREZVMlmS2ifZJE=", "properties": {"@spider": "usps_collection_boxes", "addr:city": "JARALES", "addr:country": "US", "addr:full": "483 HIGHWAY 109", "addr:postcode": "87023", "addr:state": "NM", "amenity": "post_box", "brand": "United States Postal Service", "brand:wikidata": "Q668687", "collection_times": "Mo-Fr 13:00; Sa 11:45", "name": "USPS COLLECTION BOX - PO LOBBY", "note": "ON 12/24 AND 12/31, THIS BOX MAY BE COLLECTED AS EARLY AS 12 NOON.", "nsi_id": "unitedstatespostalservice-a77078", "operator": "United States Postal Service", "operator:short": "USPS", "operator:type": "public", "operator:wikidata": "Q668687", "ref": "8702300002"}, "type": "Feature"}
{"dataset_attributes": {"@spider": "usps_collection_boxes", "spider:collection_time": "2023-08-28T08:25:48.690851"}, "geometry": {"coordinates": [-106.760944929, 34.611054742], "type": "Point"}, "id": "X2-AhI_sEo-a54DrJboyJWDyT7w=", "properties": {"@spider": "usps_collection_boxes", "addr:city": "JARALES", "addr:country": "US", "addr:full": "483 HIGHWAY 109", "addr:postcode": "87023", "addr:state": "NM", "amenity": "post_box", "brand": "United States Postal Service", "brand:wikidata": "Q668687", "collection_times": "Mo-Fr 12:45; Sa 11:30", "name": "USPS COLLECTION BOX - PO LOBBY", "note": "ON 12/24 AND 12/31, THIS BOX MAY BE COLLECTED AS EARLY AS 12 NOON.", "nsi_id": "unitedstatespostalservice-a77078", "operator": "United States Postal Service", "operator:short": "USPS", "operator:type": "public", "operator:wikidata": "Q668687", "ref": "8702300003"}, "type": "Feature"}
{"dataset_attributes": {"@spider": "usps_collection_boxes", "spider:collection_time": "2023-08-28T08:25:48.690851"}, "geometry": {"coordinates": [-106.726031296, 35.608415522], "type": "Point"}, "id": "dvjTYJGW3H4SbT0dE3M10kKmzCg=", "properties": {"@spider": "usps_collection_boxes", "addr:city": "JEMEZ PUEBLO", "addr:country": "US", "addr:full": "4965 HIGHWAY 4", "addr:postcode": "87024", "addr:state": "NM", "amenity": "post_box", "brand": "United States Postal Service", "brand:wikidata": "Q668687", "collection_times": "Mo-Fr 16:30; Sa 10:30", "name": "USPS COLLECTION BOX - BLUE BOX", "note": "ON 12/24 AND 12/31, THIS BOX MAY BE COLLECTED AS EARLY AS 12 NOON.", "nsi_id": "unitedstatespostalservice-a77078", "operator": "United States Postal Service", "operator:short": "USPS", "operator:type": "public", "operator:wikidata": "Q668687", "ref": "8702400001"}, "type": "Feature"}
{"dataset_attributes": {"@spider": "usps_collection_boxes", "spider:collection_time": "2023-08-28T08:25:48.690851"}, "geometry": {"coordinates": [-106.726031296, 35.608415522], "type": "Point"}, "id": "1_8cySWPraB1t2pefVMkYLWKRss=", "properties": {"@spider": "usps_collection_boxes", "addr:city": "JEMEZ PUEBLO", "addr:country": "US", "addr:full": "4965 HIGHWAY 4", "addr:postcode": "87024", "addr:state": "NM", "amenity": "post_box", "brand": "United States Postal Service", "brand:wikidata": "Q668687", "collection_times": "Mo-Fr 16:30; Sa 10:30", "name": "USPS COLLECTION BOX - PO LOBBY", "note": "ON 12/24 AND 12/31, THIS BOX MAY BE COLLECTED AS EARLY AS 12 NOON.", "nsi_id": "unitedstatespostalservice-a77078", "operator": "United States Postal Service", "operator:short": "USPS", "operator:type": "public", "operator:wikidata": "Q668687", "ref": "8702400002"}, "type": "Feature"}
{"dataset_attributes": {"@spider": "usps_collection_boxes", "spider:collection_time": "2023-08-28T08:25:48.690851"}, "geometry": {"coordinates": [-106.726031296, 35.608415522], "type": "Point"}, "id": "XJ9RfnkF4cf0a5ry0clnGGGxMYM=", "properties": {"@spider": "usps_collection_boxes", "addr:city": "JEMEZ PUEBLO", "addr:country": "US", "addr:full": "4965 HIGHWAY 4", "addr:postcode": "87024", "addr:state": "NM", "amenity": "post_box", "brand": "United States Postal Service", "brand:wikidata": "Q668687", "collection_times": "Mo-Fr 16:30; Sa 10:30", "name": "USPS COLLECTION BOX - PO LOBBY", "note": "ON 12/24 AND 12/31, THIS BOX MAY BE COLLECTED AS EARLY AS 12 NOON.", "nsi_id": "unitedstatespostalservice-a77078", "operator": "United States Postal Service", "operator:short": "USPS", "operator:type": "public", "operator:wikidata": "Q668687", "ref": "8702400003"}, "type": "Feature"}
{"dataset_attributes": {"@spider": "usps_collection_boxes", "spider:collection_time": "2023-08-28T08:25:48.690851"}, "geometry": {"coordinates": [-106.726031296, 35.608415522], "type": "Point"}, "id": "zwLcLih8hcr5xl3fMJRZHWPb0mU=", "properties": {"@spider": "usps_collection_boxes", "addr:city": "JEMEZ PUEBLO", "addr:country": "US", "addr:full": "4965 HIGHWAY 4", "addr:postcode": "87024", "addr:state": "NM", "amenity": "post_box", "brand": "United States Postal Service", "brand:wikidata": "Q668687", "collection_times": "Mo-Fr 16:30; Sa 10:30", "name": "USPS COLLECTION BOX - PO LOBBY", "note": "ON 12/24 AND 12/31, THIS BOX MAY BE COLLECTED AS EARLY AS 12 NOON.", "nsi_id": "unitedstatespostalservice-a77078", "operator": "United States Postal Service", "operator:short": "USPS", "operator:type": "public", "operator:wikidata": "Q668687", "ref": "8702400004"}, "type": "Feature"}
{"dataset_attributes": {"@spider": "usps_collection_boxes", "spider:collection_time": "2023-08-28T08:25:48.690851"}, "geometry": {"coordinates": [-106.696850984, 35.762642505], "type": "Point"}, "id": "1EzyNM46Nv8TKmU64-OnEBHHgLY=", "properties": {"@spider": "usps_collection_boxes", "addr:city": "JEMEZ SPRINGS", "addr:country": "US", "addr:full": "16957 HIGHWAY 4", "addr:postcode": "87025", "addr:state": "NM", "amenity": "post_box", "brand": "United States Postal Service", "brand:wikidata": "Q668687", "collection_times": "Mo-Fr 16:00; Sa 12:00", "name": "USPS COLLECTION BOX - PO LOBBY", "note": "ON 12/24 AND 12/31, THIS BOX MAY BE COLLECTED AS EARLY AS 12 NOON.", "nsi_id": "unitedstatespostalservice-a77078", "operator": "United States Postal Service", "operator:short": "USPS", "operator:type": "public", "operator:wikidata": "Q668687", "ref": "8702500004"}, "type": "Feature"}
{"dataset_attributes": {"@spider": "usps_collection_boxes", "spider:collection_time": "2023-08-28T08:25:48.690851"}, "geometry": {"coordinates": [-106.696850984, 35.762642505], "type": "Point"}, "id": "m_8ky1nOpZvc5R_hf8mNAL-qM4E=", "properties": {"@spider": "usps_collection_boxes", "addr:city": "JEMEZ SPRINGS", "addr:country": "US", "addr:full": "16957 HIGHWAY 4", "addr:postcode": "87025", "addr:state": "NM", "amenity": "post_box", "brand": "United States Postal Service", "brand:wikidata": "Q668687", "collection_times": "Mo-Fr 16:00; Sa 12:00", "name": "USPS COLLECTION BOX - PO LOBBY", "note": "ON 12/24 AND 12/31, THIS BOX MAY BE COLLECTED AS EARLY AS 12 NOON.", "nsi_id": "unitedstatespostalservice-a77078", "operator": "United States Postal Service", "operator:short": "USPS", "operator:type": "public", "operator:wikidata": "Q668687", "ref": "8702500007"}, "type": "Feature"}
{"dataset_attributes": {"@spider": "usps_collection_boxes", "spider:collection_time": "2023-08-28T08:25:48.690851"}, "geometry": {"coordinates": [-107.1643985282, 34.951235983], "type": "Point"}, "id": "f05eIa-7S7Auqndf8Fvb9sPvMsE=", "properties": {"@spider": "usps_collection_boxes", "addr:city": "LAGUNA", "addr:country": "US", "addr:full": "6 RIO SAN JOSE RD.", "addr:postcode": "87026", "addr:state": "NM", "amenity": "post_box", "brand": "United States Postal Service", "brand:wikidata": "Q668687", "collection_times": "Mo-Fr 12:15; Sa 11:30", "name": "USPS COLLECTION BOX - BLUE BOX", "note": "ON 12/24 AND 12/31, THIS BOX MAY BE COLLECTED AS EARLY AS 12 NOON.", "nsi_id": "unitedstatespostalservice-a77078", "operator": "United States Postal Service", "operator:short": "USPS", "operator:type": "public", "operator:wikidata": "Q668687", "ref": "8702600001"}, "type": "Feature"}
{"dataset_attributes": {"@spider": "usps_collection_boxes", "spider:collection_time": "2023-08-28T08:25:48.690851"}, "geometry": {"coordinates": [-107.1643982573, 34.9571587804], "type": "Point"}, "id": "g8FjdThAY1RtUZQWoUuVol2xWy8=", "properties": {"@spider": "usps_collection_boxes", "addr:city": "LAGUNA", "addr:country": "US", "addr:full": "6 RIO SAN JOSE RD", "addr:postcode": "87026", "addr:state": "NM", "amenity": "post_box", "brand": "United States Postal Service", "brand:wikidata": "Q668687", "collection_times": "Mo-Fr 12:15; Sa 11:30", "name": "USPS COLLECTION BOX - PO LOBBY", "note": "ON 12/24 AND 12/31, THIS BOX MAY BE COLLECTED AS EARLY AS 12 NOON.", "nsi_id": "unitedstatespostalservice-a77078", "operator": "United States Postal Service", "operator:short": "USPS", "operator:type": "public", "operator:wikidata": "Q668687", "ref": "8702600003"}, "type": "Feature"}
{"dataset_attributes": {"@spider": "usps_collection_boxes", "spider:collection_time": "2023-08-28T08:25:48.690851"}, "geometry": {"coordinates": [-107.1643982573, 34.9571587804], "type": "Point"}, "id": "voR8Ukdxzj3SorN1r6U8yhauT38=", "properties": {"@spider": "usps_collection_boxes", "addr:city": "LAGUNA", "addr:country": "US", "addr:full": "6 RIO SAN JOSE RD", "addr:postcode": "87026", "addr:state": "NM", "amenity": "post_box", "brand": "United States Postal Service", "brand:wikidata": "Q668687", "collection_times": "Mo-Fr 12:00; Sa 11:15", "name": "USPS COLLECTION BOX - PO LOBBY", "nsi_id": "unitedstatespostalservice-a77078", "operator": "United States Postal Service", "operator:short": "USPS", "operator:type": "public", "operator:wikidata": "Q668687", "ref": "8702600005"}, "type": "Feature"}
{"dataset_attributes": {"@spider": "usps_collection_boxes", "spider:collection_time": "2023-08-28T08:25:48.690851"}, "geometry": {"coordinates": [-106.975189, 36.088139], "type": "Point"}, "id": "kFTkLZEyVV5JW8MK2MquBi1JY90=", "properties": {"@spider": "usps_collection_boxes", "addr:city": "LA JARA", "addr:country": "US", "addr:full": "167 STATE HIGHWAY 96", "addr:postcode": "87027", "addr:state": "NM", "amenity": "post_box", "brand": "United States Postal Service", "brand:wikidata": "Q668687", "collection_times": "Mo-Fr 12:30; Sa 10:30", "name": "USPS COLLECTION BOX - BLUE BOX", "note": "ON 12/24 AND 12/31, THIS BOX MAY BE COLLECTED AS EARLY AS 12 NOON.", "nsi_id": "unitedstatespostalservice-a77078", "operator": "United States Postal Service", "operator:short": "USPS", "operator:type": "public", "operator:wikidata": "Q668687", "ref": "8702700001"}, "type": "Feature"}
{"dataset_attributes": {"@spider": "usps_collection_boxes", "spider:collection_time": "2023-08-28T08:25:48.690851"}, "geometry": {"coordinates": [-106.975168, 36.08817], "type": "Point"}, "id": "T2ayfrXU20GFaom0fcXnoZCjRvo=", "properties": {"@spider": "usps_collection_boxes", "addr:city": "LA JARA", "addr:country": "US", "addr:full": "167 STATE HIGHWAY 96", "addr:postcode": "87027", "addr:state": "NM", "amenity": "post_box", "brand": "United States Postal Service", "brand:wikidata": "Q668687", "collection_times": "Mo-Fr 12:30; Sa 10:30", "name": "USPS COLLECTION BOX - PO LOBBY", "note": "ON 12/24 AND 12/31, THIS BOX MAY BE COLLECTED AS EARLY AS 12 NOON.", "nsi_id": "unitedstatespostalservice-a77078", "operator": "United States Postal Service", "operator:short": "USPS", "operator:type": "public", "operator:wikidata": "Q668687", "ref": "8702700002"}, "type": "Feature"}
{"dataset_attributes": {"@spider": "usps_collection_boxes", "spider:collection_time": "2023-08-28T08:25:48.690851"}, "geometry": {"coordinates": [-106.975179627, 36.088122186], "type": "Point"}, "id": "wyrUbTG9xtC2tvpzTajylieNniQ=", "properties": {"@spider": "usps_collection_boxes", "addr:city": "LA JARA", "addr:country": "US", "addr:full": "167 STATE HIGHWAY 96", "addr:postcode": "87027", "addr:state": "NM", "amenity": "post_box", "brand": "United States Postal Service", "brand:wikidata": "Q668687", "collection_times": "Mo-Fr 12:15; Sa 10:15", "name": "USPS COLLECTION BOX - PO LOBBY", "note": "ON 12/24 AND 12/31, THIS BOX MAY BE COLLECTED AS EARLY AS 12 NOON.", "nsi_id": "unitedstatespostalservice-a77078", "operator": "United States Postal Service", "operator:short": "USPS", "operator:type": "public", "operator:wikidata": "Q668687", "ref": "8702700003"}, "type": "Feature"}
{"dataset_attributes": {"@spider": "usps_collection_boxes", "spider:collection_time": "2023-08-28T08:25:48.690851"}, "geometry": {"coordinates": [-106.843115, 34.343905], "type": "Point"}, "id": "2T2e5QFNMEvckgxe7RvADSS_fko=", "properties": {"@spider": "usps_collection_boxes", "addr:city": "LA JOYA", "addr:country": "US", "addr:full": "8 HIGHWAY 304", "addr:postcode": "87028", "addr:state": "NM", "amenity": "post_box", "brand": "United States Postal Service", "brand:wikidata": "Q668687", "collection_times": "Mo-Fr 11:00; Sa 10:00", "name": "USPS COLLECTION BOX - PO LOBBY", "nsi_id": "unitedstatespostalservice-a77078", "operator": "United States Postal Service", "operator:short": "USPS", "operator:type": "public", "operator:wikidata": "Q668687", "ref": "8702800000"}, "type": "Feature"}
{"dataset_attributes": {"@spider": "usps_collection_boxes", "spider:collection_time": "2023-08-28T08:25:48.690851"}, "geometry": {"coordinates": [-106.846085867, 34.346011941], "type": "Point"}, "id": "bi8HFdFCowMnk3-HAE3r4fisun0=", "properties": {"@spider": "usps_collection_boxes", "addr:city": "LA JOYA", "addr:country": "US", "addr:full": "8 HIGHWAY 304", "addr:postcode": "87028", "addr:state": "NM", "amenity": "post_box", "brand": "United States Postal Service", "brand:wikidata": "Q668687", "collection_times": "Mo-Fr 10:45; Sa 09:45", "name": "USPS COLLECTION BOX - PO LOBBY", "nsi_id": "unitedstatespostalservice-a77078", "operator": "United States Postal Service", "operator:short": "USPS", "operator:type": "public", "operator:wikidata": "Q668687", "ref": "8702800001"}, "type": "Feature"}
{"dataset_attributes": {"@spider": "usps_collection_boxes", "spider:collection_time": "2023-08-28T08:25:48.690851"}, "geometry": {"coordinates": [-106.934187, 36.224283], "type": "Point"}, "id": "7tP1xjzuiI6QFy74PRIPhTRQkrs=", "properties": {"@spider": "usps_collection_boxes", "addr:city": "LINDRITH", "addr:country": "US", "addr:full": "1094 STATE HIGHWAY 595", "addr:postcode": "87029", "addr:state": "NM", "amenity": "post_box", "brand": "United States Postal Service", "brand:wikidata": "Q668687", "collection_times": "Mo-Sa 11:30", "name": "USPS COLLECTION BOX - PO LOBBY", "nsi_id": "unitedstatespostalservice-a77078", "operator": "United States Postal Service", "operator:short": "USPS", "operator:type": "public", "operator:wikidata": "Q668687", "ref": "8702900002"}, "type": "Feature"}
{"dataset_attributes": {"@spider": "usps_collection_boxes", "spider:collection_time": "2023-08-28T08:25:48.690851"}, "geometry": {"coordinates": [-107.045543532, 36.305442166], "type": "Point"}, "id": "M49H7j7079iYCBMyM8HDOu_ns8k=", "properties": {"@spider": "usps_collection_boxes", "addr:city": "LINDRITH", "addr:country": "US", "addr:full": "1094 STATE HIGHWAY 595", "addr:postcode": "87029", "addr:state": "NM", "amenity": "post_box", "brand": "United States Postal Service", "brand:wikidata": "Q668687", "collection_times": "Mo-Sa 11:15", "name": "USPS COLLECTION BOX - PO LOBBY", "nsi_id": "unitedstatespostalservice-a77078", "operator": "United States Postal Service", "operator:short": "USPS", "operator:type": "public", "operator:wikidata": "Q668687", "ref": "8702900003"}, "type": "Feature"}
{"dataset_attributes": {"@spider": "usps_collection_boxes", "spider:collection_time": "2023-08-28T08:25:48.690851"}, "geometry": {"coordinates": [-106.734256, 34.802545], "type": "Point"}, "id": "ElFuOQALPpBbeQk41bOjFiJAiJE=", "properties": {"@spider": "usps_collection_boxes", "addr:city": "LOS LUNAS", "addr:country": "US", "addr:full": "444 LUNA ST SE", "addr:postcode": "87031", "addr:state": "NM", "amenity": "post_box", "brand": "United States Postal Service", "brand:wikidata": "Q668687", "collection_times": "Mo-Fr 16:55", "name": "USPS COLLECTION BOX - BLUE BOX", "note": "ON 12/24 AND 12/31, THIS BOX MAY BE COLLECTED AS EARLY AS 12 NOON.", "nsi_id": "unitedstatespostalservice-a77078", "operator": "United States Postal Service", "operator:short": "USPS", "operator:type": "public", "operator:wikidata": "Q668687", "ref": "8703100004"}, "type": "Feature"}
{"dataset_attributes": {"@spider": "usps_collection_boxes", "spider:collection_time": "2023-08-28T08:25:48.690851"}, "geometry": {"coordinates": [-106.723230594, 34.804610057], "type": "Point"}, "id": "rwsW68U1Gx9oVfTGInR02YfRLjk=", "properties": {"@spider": "usps_collection_boxes", "addr:city": "LOS LUNAS", "addr:country": "US", "addr:full": "100 CARSON DR SE", "addr:postcode": "87031", "addr:state": "NM", "amenity": "post_box", "brand": "United States Postal Service", "brand:wikidata": "Q668687", "collection_times": "Mo-Fr 17:30; Sa 17:00", "name": "USPS COLLECTION BOX - BLUE BOX", "note": "ON 12/24 AND 12/31, THIS BOX MAY BE COLLECTED AS EARLY AS 12 NOON.", "nsi_id": "unitedstatespostalservice-a77078", "operator": "United States Postal Service", "operator:short": "USPS", "operator:type": "public", "operator:wikidata": "Q668687", "ref": "8703100008"}, "type": "Feature"}
{"dataset_attributes": {"@spider": "usps_collection_boxes", "spider:collection_time": "2023-08-28T08:25:48.690851"}, "geometry": {"coordinates": [-106.7225950056, 34.8045529867], "type": "Point"}, "id": "NjVp50hu5JisIIUMRihQF1WGsYQ=", "properties": {"@spider": "usps_collection_boxes", "addr:city": "LOS LUNAS", "addr:country": "US", "addr:full": "100 CARSON DR SE", "addr:postcode": "87031", "addr:state": "NM", "amenity": "post_box", "brand": "United States Postal Service", "brand:wikidata": "Q668687", "collection_times": "Mo-Fr 17:30; Sa 17:00", "name": "USPS COLLECTION BOX - BLUE BOX", "note": "ON 12/24 AND 12/31, THIS BOX MAY BE COLLECTED AS EARLY AS 12 NOON.", "nsi_id": "unitedstatespostalservice-a77078", "operator": "United States Postal Service", "operator:short": "USPS", "operator:type": "public", "operator:wikidata": "Q668687", "ref": "8703100009"}, "type": "Feature"}
{"dataset_attributes": {"@spider": "usps_collection_boxes", "spider:collection_time": "2023-08-28T08:25:48.690851"}, "geometry": {"coordinates": [-106.723230594, 34.804610057], "type": "Point"}, "id": "uFbySf2wCwCE2DyPlGol6zvoMis=", "properties": {"@spider": "usps_collection_boxes", "addr:city": "LOS LUNAS", "addr:country": "US", "addr:full": "100 CARSON DR SE", "addr:postcode": "87031", "addr:state": "NM", "amenity": "post_box", "brand": "United States Postal Service", "brand:wikidata": "Q668687", "collection_times": "Mo-Fr 17:30; Sa 17:00", "name": "USPS COLLECTION BOX - PO LOBBY", "note": "ON 12/24 AND 12/31, THIS BOX MAY BE COLLECTED AS EARLY AS 12 NOON.", "nsi_id": "unitedstatespostalservice-a77078", "operator": "United States Postal Service", "operator:short": "USPS", "operator:type": "public", "operator:wikidata": "Q668687", "ref": "8703100010"}, "type": "Feature"}
{"dataset_attributes": {"@spider": "usps_collection_boxes", "spider:collection_time": "2023-08-28T08:25:48.690851"}, "geometry": {"coordinates": [-106.7225950056, 34.8045529867], "type": "Point"}, "id": "aCdDZd_0QLQ5zpltiu91emDzjSY=", "properties": {"@spider": "usps_collection_boxes", "addr:city": "LOS LUNAS", "addr:country": "US", "addr:full": "100 CARSON DR SE", "addr:postcode": "87031", "addr:state": "NM", "amenity": "post_box", "brand": "United States Postal Service", "brand:wikidata": "Q668687", "collection_times": "Mo-Fr 17:30; Sa 17:00", "name": "USPS COLLECTION BOX - BLUE BOX", "note": "ON 12/24 AND 12/31, THIS BOX MAY BE COLLECTED AS EARLY AS 12 NOON.", "nsi_id": "unitedstatespostalservice-a77078", "operator": "United States Postal Service", "operator:short": "USPS", "operator:type": "public", "operator:wikidata": "Q668687", "ref": "8703100011"}, "type": "Feature"}
{"dataset_attributes": {"@spider": "usps_collection_boxes", "spider:collection_time": "2023-08-28T08:25:48.690851"}, "geometry": {"coordinates": [-106.723230594, 34.804610057], "type": "Point"}, "id": "yD3TAVSs0vzO8ttyj_D-TsdQcuo=", "properties": {"@spider": "usps_collection_boxes", "addr:city": "LOS LUNAS", "addr:country": "US", "addr:full": "100 CARSON DR SE", "addr:postcode": "87031", "addr:state": "NM", "amenity": "post_box", "brand": "United States Postal Service", "brand:wikidata": "Q668687", "collection_times": "Mo-Fr 16:45; Sa 11:45", "name": "USPS COLLECTION BOX - PO LOBBY", "note": "ON 12/24 AND 12/31, THIS BOX MAY BE COLLECTED AS EARLY AS 12 NOON.", "nsi_id": "unitedstatespostalservice-a77078", "operator": "United States Postal Service", "operator:short": "USPS", "operator:type": "public", "operator:wikidata": "Q668687", "ref": "8703100014"}, "type": "Feature"}
{"dataset_attributes": {"@spider": "usps_collection_boxes", "spider:collection_time": "2023-08-28T08:25:48.690851"}, "geometry": {"coordinates": [-106.053077, 34.865308], "type": "Point"}, "id": "yPttHe4uu1Ab7KZZOfbNYHirasU=", "properties": {"@spider": "usps_collection_boxes", "addr:city": "MCINTOSH", "addr:country": "US", "addr:full": "1820 HIGHWAY 41", "addr:postcode": "87032", "addr:state": "NM", "amenity": "post_box", "brand": "United States Postal Service", "brand:wikidata": "Q668687", "collection_times": "Mo-Fr 16:00; Sa 11:00", "name": "USPS COLLECTION BOX - PO LOBBY", "note": "ON 12/24 AND 12/31, THIS BOX MAY BE COLLECTED AS EARLY AS 12 NOON.", "nsi_id": "unitedstatespostalservice-a77078", "operator": "United States Postal Service", "operator:short": "USPS", "operator:type": "public", "operator:wikidata": "Q668687", "ref": "8703200001"}, "type": "Feature"}
{"dataset_attributes": {"@spider": "usps_collection_boxes", "spider:collection_time": "2023-08-28T08:25:48.690851"}, "geometry": {"coordinates": [-106.053045, 34.865248], "type": "Point"}, "id": "e62MRCwvt93hWZx6MGf7bvSvHbE=", "properties": {"@spider": "usps_collection_boxes", "addr:city": "MCINTOSH", "addr:country": "US", "addr:full": "1820 HIGHWAY 41", "addr:postcode": "87032", "addr:state": "NM", "amenity": "post_box", "brand": "United States Postal Service", "brand:wikidata": "Q668687", "collection_times": "Mo-Fr 16:00; Sa 11:00", "name": "USPS COLLECTION BOX - BLUE BOX", "note": "ON 12/24 AND 12/31, THIS BOX MAY BE COLLECTED AS EARLY AS 12 NOON.", "nsi_id": "unitedstatespostalservice-a77078", "operator": "United States Postal Service", "operator:short": "USPS", "operator:type": "public", "operator:wikidata": "Q668687", "ref": "8703200002"}, "type": "Feature"}
{"dataset_attributes": {"@spider": "usps_collection_boxes", "spider:collection_time": "2023-08-28T08:25:48.690851"}, "geometry": {"coordinates": [-106.0530960182, 34.8644300372], "type": "Point"}, "id": "zsnUjF-YaF_njwxHsC-13Ac3ejU=", "properties": {"@spider": "usps_collection_boxes", "addr:city": "MCINTOSH", "addr:country": "US", "addr:full": "1820 HIGHWAY 41", "addr:postcode": "87032", "addr:state": "NM", "amenity": "post_box", "brand": "United States Postal Service", "brand:wikidata": "Q668687", "collection_times": "Mo-Fr 15:45; Sa 11:00", "name": "USPS COLLECTION BOX - PO LOBBY", "note": "ON 12/24 AND 12/31, THIS BOX MAY BE COLLECTED AS EARLY AS 12 NOON.", "nsi_id": "unitedstatespostalservice-a77078", "operator": "United States Postal Service", "operator:short": "USPS", "operator:type": "public", "operator:wikidata": "Q668687", "ref": "8703200003"}, "type": "Feature"}
{"dataset_attributes": {"@spider": "usps_collection_boxes", "spider:collection_time": "2023-08-28T08:25:48.690851"}, "geometry": {"coordinates": [-107.58327, 34.89561], "type": "Point"}, "id": "9vWbZrhGLo_dHZuAJg1xUwsj_Ec=", "properties": {"@spider": "usps_collection_boxes", "addr:city": "ACOMA", "addr:country": "US", "addr:full": "32 INDIAN RD", "addr:postcode": "87034", "addr:state": "NM", "amenity": "post_box", "brand": "United States Postal Service", "brand:wikidata": "Q668687", "collection_times": "Mo-Fr 13:00; Sa 11:00", "name": "USPS COLLECTION BOX - BLUE BOX", "note": "ON 12/24 AND 12/31, THIS BOX MAY BE COLLECTED AS EARLY AS 12 NOON.", "nsi_id": "unitedstatespostalservice-a77078", "operator": "United States Postal Service", "operator:short": "USPS", "operator:type": "public", "operator:wikidata": "Q668687", "ref": "8703400000"}, "type": "Feature"}
{"dataset_attributes": {"@spider": "usps_collection_boxes", "spider:collection_time": "2023-08-28T08:25:48.690851"}, "geometry": {"coordinates": [-107.58327, 34.89561], "type": "Point"}, "id": "F8k3-DPtLQvueAjMFz7I5Ea1D4Q=", "properties": {"@spider": "usps_collection_boxes", "addr:city": "ACOMA", "addr:country": "US", "addr:full": "32 INDIAN RD", "addr:postcode": "87034", "addr:state": "NM", "amenity": "post_box", "brand": "United States Postal Service", "brand:wikidata": "Q668687", "collection_times": "Mo-Fr 13:00; Sa 11:00", "name": "USPS COLLECTION BOX - PO LOBBY", "note": "ON 12/24 AND 12/31, THIS BOX MAY BE COLLECTED AS EARLY AS 12 NOON.", "nsi_id": "unitedstatespostalservice-a77078", "operator": "United States Postal Service", "operator:short": "USPS", "operator:type": "public", "operator:wikidata": "Q668687", "ref": "8703400001"}, "type": "Feature"}
{"dataset_attributes": {"@spider": "usps_collection_boxes", "spider:collection_time": "2023-08-28T08:25:48.690851"}, "geometry": {"coordinates": [-107.58327, 34.89561], "type": "Point"}, "id": "V5rY5WYgAwEjqEFO37J9wZ_GC00=", "properties": {"@spider": "usps_collection_boxes", "addr:city": "ACOMA", "addr:country": "US", "addr:full": "32 INDIAN RD", "addr:postcode": "87034", "addr:state": "NM", "amenity": "post_box", "brand": "United States Postal Service", "brand:wikidata": "Q668687", "collection_times": "Mo-Fr 12:45; Sa 11:00", "name": "USPS COLLECTION BOX - PO LOBBY", "note": "ON 12/24 AND 12/31, THIS BOX MAY BE COLLECTED AS EARLY AS 12 NOON.", "nsi_id": "unitedstatespostalservice-a77078", "operator": "United States Postal Service", "operator:short": "USPS", "operator:type": "public", "operator:wikidata": "Q668687", "ref": "8703400002"}, "type": "Feature"}
{"dataset_attributes": {"@spider": "usps_collection_boxes", "spider:collection_time": "2023-08-28T08:25:48.690851"}, "geometry": {"coordinates": [-106.036563816, 35.0047227197], "type": "Point"}, "id": "R-WH9gOaACqf2V_IJgTzpdok--0=", "properties": {"@spider": "usps_collection_boxes", "addr:city": "MORIARTY", "addr:country": "US", "addr:full": "514 ROUTE 66", "addr:postcode": "87035", "addr:state": "NM", "amenity": "post_box", "brand": "United States Postal Service", "brand:wikidata": "Q668687", "collection_times": "Mo-Fr 16:30; Sa 12:30", "name": "USPS COLLECTION BOX - BLUE BOX", "note": "ON 12/24 AND 12/31, THIS BOX MAY BE COLLECTED AS EARLY AS 12 NOON.", "nsi_id": "unitedstatespostalservice-a77078", "operator": "United States Postal Service", "operator:short": "USPS", "operator:type": "public", "operator:wikidata": "Q668687", "ref": "8703500001"}, "type": "Feature"}
{"dataset_attributes": {"@spider": "usps_collection_boxes", "spider:collection_time": "2023-08-28T08:25:48.690851"}, "geometry": {"coordinates": [-106.036455, 35.004754], "type": "Point"}, "id": "1qgAkAw8rpLMM1uJy9WD4X3V7CA=", "properties": {"@spider": "usps_collection_boxes", "addr:city": "MORIARTY", "addr:country": "US", "addr:full": "514 OLD HWY 66", "addr:postcode": "87035", "addr:state": "NM", "amenity": "post_box", "brand": "United States Postal Service", "brand:wikidata": "Q668687", "collection_times": "Mo-Fr 16:30; Sa 12:30", "name": "USPS COLLECTION BOX - PO LOBBY", "note": "ON 12/24 AND 12/31, THIS BOX MAY BE COLLECTED AS EARLY AS 12 NOON.", "nsi_id": "unitedstatespostalservice-a77078", "operator": "United States Postal Service", "operator:short": "USPS", "operator:type": "public", "operator:wikidata": "Q668687", "ref": "8703500002"}, "type": "Feature"}
{"dataset_attributes": {"@spider": "usps_collection_boxes", "spider:collection_time": "2023-08-28T08:25:48.690851"}, "geometry": {"coordinates": [-106.036455, 35.004754], "type": "Point"}, "id": "2ynmoVe5V81X__Hk6Tne9pc4nps=", "properties": {"@spider": "usps_collection_boxes", "addr:city": "MORIARTY", "addr:country": "US", "addr:full": "514 OLD HWY 66", "addr:postcode": "87035", "addr:state": "NM", "amenity": "post_box", "brand": "United States Postal Service", "brand:wikidata": "Q668687", "collection_times": "Mo-Fr 16:30; Sa 12:30", "name": "USPS COLLECTION BOX - PO LOBBY", "note": "ON 12/24 AND 12/31, THIS BOX MAY BE COLLECTED AS EARLY AS 12 NOON.", "nsi_id": "unitedstatespostalservice-a77078", "operator": "United States Postal Service", "operator:short": "USPS", "operator:type": "public", "operator:wikidata": "Q668687", "ref": "8703500003"}, "type": "Feature"}
{"dataset_attributes": {"@spider": "usps_collection_boxes", "spider:collection_time": "2023-08-28T08:25:48.690851"}, "geometry": {"coordinates": [-106.036567279, 35.004710206], "type": "Point"}, "id": "E3pSu7oRA1Gfhc9KR5f-dC52N1A=", "properties": {"@spider": "usps_collection_boxes", "addr:city": "MORIARTY", "addr:country": "US", "addr:full": "514 ROUTE 66", "addr:postcode": "87035", "addr:state": "NM", "amenity": "post_box", "brand": "United States Postal Service", "brand:wikidata": "Q668687", "collection_times": "Mo-Fr 16:30; Sa 12:30", "name": "USPS COLLECTION BOX - PO LOBBY", "note": "ON 12/24 AND 12/31, THIS BOX MAY BE COLLECTED AS EARLY AS 12 NOON.", "nsi_id": "unitedstatespostalservice-a77078", "operator": "United States Postal Service", "operator:short": "USPS", "operator:type": "public", "operator:wikidata": "Q668687", "ref": "8703500004"}, "type": "Feature"}
{"dataset_attributes": {"@spider": "usps_collection_boxes", "spider:collection_time": "2023-08-28T08:25:48.690851"}, "geometry": {"coordinates": [-106.242214966, 34.520454114], "type": "Point"}, "id": "-2xSOWWbfKXg6MDJpp9jEFJCzg4=", "properties": {"@spider": "usps_collection_boxes", "addr:city": "MOUNTAINAIR", "addr:country": "US", "addr:full": "221 W BROADWAY", "addr:postcode": "87036", "addr:state": "NM", "amenity": "post_box", "brand": "United States Postal Service", "brand:wikidata": "Q668687", "collection_times": "Mo-Fr 16:30; Sa 12:00", "name": "USPS COLLECTION BOX - BLUE BOX", "note": "ON 12/24 AND 12/31, THIS BOX MAY BE COLLECTED AS EARLY AS 12 NOON.", "nsi_id": "unitedstatespostalservice-a77078", "operator": "United States Postal Service", "operator:short": "USPS", "operator:type": "public", "operator:wikidata": "Q668687", "ref": "8703600001"}, "type": "Feature"}
{"dataset_attributes": {"@spider": "usps_collection_boxes", "spider:collection_time": "2023-08-28T08:25:48.690851"}, "geometry": {"coordinates": [-106.242172, 34.520393], "type": "Point"}, "id": "CJ852ti0Rba6VNl9BhnoIemFsSs=", "properties": {"@spider": "usps_collection_boxes", "addr:city": "MOUNTAINAIR", "addr:country": "US", "addr:full": "221 W BROADWAY", "addr:postcode": "87036", "addr:state": "NM", "amenity": "post_box", "brand": "United States Postal Service", "brand:wikidata": "Q668687", "collection_times": "Mo-Fr 16:30; Sa 12:00", "name": "USPS COLLECTION BOX - PO LOBBY", "note": "ON 12/24 AND 12/31, THIS BOX MAY BE COLLECTED AS EARLY AS 12 NOON.", "nsi_id": "unitedstatespostalservice-a77078", "operator": "United States Postal Service", "operator:short": "USPS", "operator:type": "public", "operator:wikidata": "Q668687", "ref": "8703600002"}, "type": "Feature"}
{"dataset_attributes": {"@spider": "usps_collection_boxes", "spider:collection_time": "2023-08-28T08:25:48.690851"}, "geometry": {"coordinates": [-106.242172, 34.520393], "type": "Point"}, "id": "K7Uml3WQl2g0sAOjPJzcMOZ_qoc=", "properties": {"@spider": "usps_collection_boxes", "addr:city": "MOUNTAINAIR", "addr:country": "US", "addr:full": "221 W BROADWAY", "addr:postcode": "87036", "addr:state": "NM", "amenity": "post_box", "brand": "United States Postal Service", "brand:wikidata": "Q668687", "collection_times": "Mo-Fr 16:30; Sa 12:00", "name": "USPS COLLECTION BOX - PO LOBBY", "note": "ON 12/24 AND 12/31, THIS BOX MAY BE COLLECTED AS EARLY AS 12 NOON.", "nsi_id": "unitedstatespostalservice-a77078", "operator": "United States Postal Service", "operator:short": "USPS", "operator:type": "public", "operator:wikidata": "Q668687", "ref": "8703600003"}, "type": "Feature"}
{"dataset_attributes": {"@spider": "usps_collection_boxes", "spider:collection_time": "2023-08-28T08:25:48.690851"}, "geometry": {"coordinates": [-106.2422149656, 34.5204541144], "type": "Point"}, "id": "hotEj8xHnbnXi_dYeKo-v3wy4zU=", "properties": {"@spider": "usps_collection_boxes", "addr:city": "MOUNTAINAIR", "addr:country": "US", "addr:full": "221 W BROADWAY", "addr:postcode": "87036", "addr:state": "NM", "amenity": "post_box", "brand": "United States Postal Service", "brand:wikidata": "Q668687", "collection_times": "Mo-Fr 16:15; Sa 11:45", "name": "USPS COLLECTION BOX - PO LOBBY", "note": "ON 12/24 AND 12/31, THIS BOX MAY BE COLLECTED AS EARLY AS 12 NOON.", "nsi_id": "unitedstatespostalservice-a77078", "operator": "United States Postal Service", "operator:short": "USPS", "operator:type": "public", "operator:wikidata": "Q668687", "ref": "8703600004"}, "type": "Feature"}
{"dataset_attributes": {"@spider": "usps_collection_boxes", "spider:collection_time": "2023-08-28T08:25:48.690851"}, "geometry": {"coordinates": [-107.741191, 36.265327], "type": "Point"}, "id": "As6TsrxKORg00bRLGZiyNIXSJ-4=", "properties": {"@spider": "usps_collection_boxes", "addr:city": "NAGEEZI", "addr:country": "US", "addr:full": "11577 US 550", "addr:postcode": "87037", "addr:state": "NM", "amenity": "post_box", "brand": "United States Postal Service", "brand:wikidata": "Q668687", "collection_times": "Mo-Fr 14:45; Sa 11:45", "name": "USPS COLLECTION BOX - BLUE BOX", "note": "ON 12/24 AND 12/31, THIS BOX MAY BE COLLECTED AS EARLY AS 12 NOON.", "nsi_id": "unitedstatespostalservice-a77078", "operator": "United States Postal Service", "operator:short": "USPS", "operator:type": "public", "operator:wikidata": "Q668687", "ref": "8703700001"}, "type": "Feature"}
{"dataset_attributes": {"@spider": "usps_collection_boxes", "spider:collection_time": "2023-08-28T08:25:48.690851"}, "geometry": {"coordinates": [-107.741191, 36.265327], "type": "Point"}, "id": "7SgELiWfIV8LUk5rWaeJfpr0yzg=", "properties": {"@spider": "usps_collection_boxes", "addr:city": "NAGEEZI", "addr:country": "US", "addr:full": "11577 US 550", "addr:postcode": "87037", "addr:state": "NM", "amenity": "post_box", "brand": "United States Postal Service", "brand:wikidata": "Q668687", "collection_times": "Mo-Fr 14:45; Sa 11:45", "name": "USPS COLLECTION BOX - PO LOBBY", "note": "ON 12/24 AND 12/31, THIS BOX MAY BE COLLECTED AS EARLY AS 12 NOON.", "nsi_id": "unitedstatespostalservice-a77078", "operator": "United States Postal Service", "operator:short": "USPS", "operator:type": "public", "operator:wikidata": "Q668687", "ref": "8703700002"}, "type": "Feature"}
{"dataset_attributes": {"@spider": "usps_collection_boxes", "spider:collection_time": "2023-08-28T08:25:48.690851"}, "geometry": {"coordinates": [-107.684497586, 36.2484919276], "type": "Point"}, "id": "cDigA7g1q-VLjte1ytIVMG0ZGN0=", "properties": {"@spider": "usps_collection_boxes", "addr:city": "NAGEEZI", "addr:country": "US", "addr:full": "11577 US HIGHWAY 550", "addr:postcode": "87037", "addr:state": "NM", "amenity": "post_box", "brand": "United States Postal Service", "brand:wikidata": "Q668687", "collection_times": "Mo-Fr 14:30; Sa 11:30", "name": "USPS COLLECTION BOX - PO LOBBY", "note": "ON 12/24 AND 12/31, THIS BOX MAY BE COLLECTED AS EARLY AS 12 NOON.", "nsi_id": "unitedstatespostalservice-a77078", "operator": "United States Postal Service", "operator:short": "USPS", "operator:type": "public", "operator:wikidata": "Q668687", "ref": "8703700003"}, "type": "Feature"}
{"dataset_attributes": {"@spider": "usps_collection_boxes", "spider:collection_time": "2023-08-28T08:25:48.690851"}, "geometry": {"coordinates": [-107.40589328, 35.047250571], "type": "Point"}, "id": "HbSUPXpfNfDhNxvXkqa1JO1SoXU=", "properties": {"@spider": "usps_collection_boxes", "addr:city": "NEW LAGUNA", "addr:country": "US", "addr:full": "22 STATE ROAD 124", "addr:postcode": "87038", "addr:state": "NM", "amenity": "post_box", "brand": "United States Postal Service", "brand:wikidata": "Q668687", "collection_times": "Mo-Fr 12:30; Sa 11:30", "name": "USPS COLLECTION BOX - PO LOBBY", "note": "ON 12/24 AND 12/31, THIS BOX MAY BE COLLECTED AS EARLY AS 12 NOON.", "nsi_id": "unitedstatespostalservice-a77078", "operator": "United States Postal Service", "operator:short": "USPS", "operator:type": "public", "operator:wikidata": "Q668687", "ref": "8703800002"}, "type": "Feature"}
{"dataset_attributes": {"@spider": "usps_collection_boxes", "spider:collection_time": "2023-08-28T08:25:48.690851"}, "geometry": {"coordinates": [-107.405892066, 35.0472571814], "type": "Point"}, "id": "ws7-G9p9L0pC-8M0B-hdm60OeDU=", "properties": {"@spider": "usps_collection_boxes", "addr:city": "NEW LAGUNA", "addr:country": "US", "addr:full": "22 STATE ROAD 124", "addr:postcode": "87038", "addr:state": "NM", "amenity": "post_box", "brand": "United States Postal Service", "brand:wikidata": "Q668687", "collection_times": "Mo-Fr 12:30; Sa 11:30", "name": "USPS COLLECTION BOX - BLUE BOX", "note": "ON 12/24 AND 12/31, THIS BOX MAY BE COLLECTED AS EARLY AS 12 NOON.", "nsi_id": "unitedstatespostalservice-a77078", "operator": "United States Postal Service", "operator:short": "USPS", "operator:type": "public", "operator:wikidata": "Q668687", "ref": "8703800003"}, "type": "Feature"}
{"dataset_attributes": {"@spider": "usps_collection_boxes", "spider:collection_time": "2023-08-28T08:25:48.690851"}, "geometry": {"coordinates": [-107.40589328, 35.047250571], "type": "Point"}, "id": "zDHusa9uAoW5QTKuTzLagFLGB9s=", "properties": {"@spider": "usps_collection_boxes", "addr:city": "NEW LAGUNA", "addr:country": "US", "addr:full": "22 STATE ROAD 124", "addr:postcode": "87038", "addr:state": "NM", "amenity": "post_box", "brand": "United States Postal Service", "brand:wikidata": "Q668687", "collection_times": "Mo-Fr 12:15; Sa 11:30", "name": "USPS COLLECTION BOX - PO LOBBY", "note": "ON 12/24 AND 12/31, THIS BOX MAY BE COLLECTED AS EARLY AS 12 NOON.", "nsi_id": "unitedstatespostalservice-a77078", "operator": "United States Postal Service", "operator:short": "USPS", "operator:type": "public", "operator:wikidata": "Q668687", "ref": "8703800004"}, "type": "Feature"}
{"dataset_attributes": {"@spider": "usps_collection_boxes", "spider:collection_time": "2023-08-28T08:25:48.690851"}, "geometry": {"coordinates": [-107.3924239852, 35.1447749814], "type": "Point"}, "id": "iqCc78RZXIl34nqNushp0diGWSc=", "properties": {"@spider": "usps_collection_boxes", "addr:city": "PAGUATE", "addr:country": "US", "addr:full": "31 POSTAL RD", "addr:postcode": "87040", "addr:state": "NM", "amenity": "post_box", "brand": "United States Postal Service", "brand:wikidata": "Q668687", "collection_times": "Mo-Sa 10:45", "name": "USPS COLLECTION BOX - BLUE BOX", "nsi_id": "unitedstatespostalservice-a77078", "operator": "United States Postal Service", "operator:short": "USPS", "operator:type": "public", "operator:wikidata": "Q668687", "ref": "8704000001"}, "type": "Feature"}
{"dataset_attributes": {"@spider": "usps_collection_boxes", "spider:collection_time": "2023-08-28T08:25:48.690851"}, "geometry": {"coordinates": [-107.375398, 35.143278], "type": "Point"}, "id": "jdt8GXOW88A1YmeWxf1lM7bkdk8=", "properties": {"@spider": "usps_collection_boxes", "addr:city": "PAGUATE", "addr:country": "US", "addr:full": "31 POSTAL RD", "addr:postcode": "87040", "addr:state": "NM", "amenity": "post_box", "brand": "United States Postal Service", "brand:wikidata": "Q668687", "collection_times": "Mo-Sa 10:45", "name": "USPS COLLECTION BOX - PO LOBBY", "nsi_id": "unitedstatespostalservice-a77078", "operator": "United States Postal Service", "operator:short": "USPS", "operator:type": "public", "operator:wikidata": "Q668687", "ref": "8704000002"}, "type": "Feature"}
{"dataset_attributes": {"@spider": "usps_collection_boxes", "spider:collection_time": "2023-08-28T08:25:48.690851"}, "geometry": {"coordinates": [-107.375796625, 35.14226118], "type": "Point"}, "id": "8B5ATJsDj3_q1DBY2UxVZ_slkkg=", "properties": {"@spider": "usps_collection_boxes", "addr:city": "PAGUATE", "addr:country": "US", "addr:full": "31 POSTAL RD", "addr:postcode": "87040", "addr:state": "NM", "amenity": "post_box", "brand": "United States Postal Service", "brand:wikidata": "Q668687", "collection_times": "Mo-Sa 10:45", "name": "USPS COLLECTION BOX - PO LOBBY", "nsi_id": "unitedstatespostalservice-a77078", "operator": "United States Postal Service", "operator:short": "USPS", "operator:type": "public", "operator:wikidata": "Q668687", "ref": "8704000003"}, "type": "Feature"}
{"dataset_attributes": {"@spider": "usps_collection_boxes", "spider:collection_time": "2023-08-28T08:25:48.690851"}, "geometry": {"coordinates": [-106.336640818, 35.5732053], "type": "Point"}, "id": "t4duWqOYA4qiflFV5523UOjLU40=", "properties": {"@spider": "usps_collection_boxes", "addr:city": "PENABLANCA", "addr:country": "US", "addr:full": "823 HIGHWAY 22", "addr:postcode": "87041", "addr:state": "NM", "amenity": "post_box", "brand": "United States Postal Service", "brand:wikidata": "Q668687", "collection_times": "Mo-Fr 14:45; Sa 11:45", "name": "USPS COLLECTION BOX - BLUE BOX", "note": "ON 12/24 AND 12/31, THIS BOX MAY BE COLLECTED AS EARLY AS 12 NOON.", "nsi_id": "unitedstatespostalservice-a77078", "operator": "United States Postal Service", "operator:short": "USPS", "operator:type": "public", "operator:wikidata": "Q668687", "ref": "8704100001"}, "type": "Feature"}
{"dataset_attributes": {"@spider": "usps_collection_boxes", "spider:collection_time": "2023-08-28T08:25:48.690851"}, "geometry": {"coordinates": [-106.336642, 35.573213], "type": "Point"}, "id": "S07hWcZxbqkhKSMjlciyLZzPZjw=", "properties": {"@spider": "usps_collection_boxes", "addr:city": "PENABLANCA", "addr:country": "US", "addr:full": "823 HIGHWAY 22", "addr:postcode": "87041", "addr:state": "NM", "amenity": "post_box", "brand": "United States Postal Service", "brand:wikidata": "Q668687", "collection_times": "Mo-Fr 14:45; Sa 11:45", "name": "USPS COLLECTION BOX - PO LOBBY", "note": "ON 12/24 AND 12/31, THIS BOX MAY BE COLLECTED AS EARLY AS 12 NOON.", "nsi_id": "unitedstatespostalservice-a77078", "operator": "United States Postal Service", "operator:short": "USPS", "operator:type": "public", "operator:wikidata": "Q668687", "ref": "8704100002"}, "type": "Feature"}
{"dataset_attributes": {"@spider": "usps_collection_boxes", "spider:collection_time": "2023-08-28T08:25:48.690851"}, "geometry": {"coordinates": [-106.336640818, 35.5732053], "type": "Point"}, "id": "ST_WNeQeKfheuY3qpA_dlEuII4k=", "properties": {"@spider": "usps_collection_boxes", "addr:city": "PENABLANCA", "addr:country": "US", "addr:full": "823 STATE ROAD 22", "addr:postcode": "87041", "addr:state": "NM", "amenity": "post_box", "brand": "United States Postal Service", "brand:wikidata": "Q668687", "collection_times": "Mo-Fr 14:30; Sa 11:30", "name": "USPS COLLECTION BOX - PO LOBBY", "note": "ON 12/24 AND 12/31, THIS BOX MAY BE COLLECTED AS EARLY AS 12 NOON.", "nsi_id": "unitedstatespostalservice-a77078", "operator": "United States Postal Service", "operator:short": "USPS", "operator:type": "public", "operator:wikidata": "Q668687", "ref": "8704100004"}, "type": "Feature"}
{"dataset_attributes": {"@spider": "usps_collection_boxes", "spider:collection_time": "2023-08-28T08:25:48.690851"}, "geometry": {"coordinates": [-106.6908300233, 34.8399299825], "type": "Point"}, "id": "RJSj5KOukffDKavT9dqIjUmZITY=", "properties": {"@spider": "usps_collection_boxes", "addr:city": "PERALTA", "addr:country": "US", "addr:full": "2470 BOSQUE FARMS BLVD", "addr:postcode": "87042", "addr:state": "NM", "amenity": "post_box", "brand": "United States Postal Service", "brand:wikidata": "Q668687", "collection_times": "Mo-Fr 17:30; Sa 12:30", "name": "USPS COLLECTION BOX - BLUE BOX", "note": "ON 12/24 AND 12/31, THIS BOX MAY BE COLLECTED AS EARLY AS 12 NOON.", "nsi_id": "unitedstatespostalservice-a77078", "operator": "United States Postal Service", "operator:short": "USPS", "operator:type": "public", "operator:wikidata": "Q668687", "ref": "8704200001"}, "type": "Feature"}
{"dataset_attributes": {"@spider": "usps_collection_boxes", "spider:collection_time": "2023-08-28T08:25:48.690851"}, "geometry": {"coordinates": [-106.6908300233, 34.8399299825], "type": "Point"}, "id": "g9bS1F_2NH7Bi4xnvgufaIjhA7w=", "properties": {"@spider": "usps_collection_boxes", "addr:city": "PERALTA", "addr:country": "US", "addr:full": "2470 BOSQUE FARMS BLVD", "addr:postcode": "87042", "addr:state": "NM", "amenity": "post_box", "brand": "United States Postal Service", "brand:wikidata": "Q668687", "collection_times": "Mo-Fr 17:30; Sa 12:30", "name": "USPS COLLECTION BOX - PO LOBBY", "note": "ON 12/24 AND 12/31, THIS BOX MAY BE COLLECTED AS EARLY AS 12 NOON.", "nsi_id": "unitedstatespostalservice-a77078", "operator": "United States Postal Service", "operator:short": "USPS", "operator:type": "public", "operator:wikidata": "Q668687", "ref": "8704200003"}, "type": "Feature"}
{"dataset_attributes": {"@spider": "usps_collection_boxes", "spider:collection_time": "2023-08-28T08:25:48.690851"}, "geometry": {"coordinates": [-106.6908300233, 34.8399299825], "type": "Point"}, "id": "6owuIm6gOFbC3IEjn0nubiikgOs=", "properties": {"@spider": "usps_collection_boxes", "addr:city": "PERALTA", "addr:country": "US", "addr:full": "2470 BOSQUE FARMS BLVD", "addr:postcode": "87042", "addr:state": "NM", "amenity": "post_box", "brand": "United States Postal Service", "brand:wikidata": "Q668687", "collection_times": "Mo-Fr 17:30; Sa 12:30", "name": "USPS COLLECTION BOX - PO LOBBY", "note": "ON 12/24 AND 12/31, THIS BOX MAY BE COLLECTED AS EARLY AS 12 NOON.", "nsi_id": "unitedstatespostalservice-a77078", "operator": "United States Postal Service", "operator:short": "USPS", "operator:type": "public", "operator:wikidata": "Q668687", "ref": "8704200005"}, "type": "Feature"}
{"dataset_attributes": {"@spider": "usps_collection_boxes", "spider:collection_time": "2023-08-28T08:25:48.690851"}, "geometry": {"coordinates": [-106.6908300233, 34.8399299825], "type": "Point"}, "id": "v9YDe4Bxoggwxuy9IAYxSq76Elo=", "properties": {"@spider": "usps_collection_boxes", "addr:city": "PERALTA", "addr:country": "US", "addr:full": "2470 BOSQUE FARMS BLVD", "addr:postcode": "87042", "addr:state": "NM", "amenity": "post_box", "brand": "United States Postal Service", "brand:wikidata": "Q668687", "collection_times": "Mo-Fr 16:45; Sa 11:45", "name": "USPS COLLECTION BOX - PO LOBBY", "note": "ON 12/24 AND 12/31, THIS BOX MAY BE COLLECTED AS EARLY AS 12 NOON.", "nsi_id": "unitedstatespostalservice-a77078", "operator": "United States Postal Service", "operator:short": "USPS", "operator:type": "public", "operator:wikidata": "Q668687", "ref": "8704200006"}, "type": "Feature"}
{"dataset_attributes": {"@spider": "usps_collection_boxes", "spider:collection_time": "2023-08-28T08:25:48.690851"}, "geometry": {"coordinates": [-106.426831642, 35.309348553], "type": "Point"}, "id": "jW9Q5AXsyfY-2c0K0WXa6TtGACU=", "properties": {"@spider": "usps_collection_boxes", "addr:city": "PLACITAS", "addr:country": "US", "addr:full": "652 STATE HIGHWAY 165", "addr:postcode": "87043", "addr:state": "NM", "amenity": "post_box", "brand": "United States Postal Service", "brand:wikidata": "Q668687", "collection_times": "Mo-Fr 16:00; Sa 10:45", "name": "USPS COLLECTION BOX - BLUE BOX", "note": "ON 12/24 AND 12/31, THIS BOX MAY BE COLLECTED AS EARLY AS 12 NOON.", "nsi_id": "unitedstatespostalservice-a77078", "operator": "United States Postal Service", "operator:short": "USPS", "operator:type": "public", "operator:wikidata": "Q668687", "ref": "8704300001"}, "type": "Feature"}
{"dataset_attributes": {"@spider": "usps_collection_boxes", "spider:collection_time": "2023-08-28T08:25:48.690851"}, "geometry": {"coordinates": [-106.493579, 35.30924], "type": "Point"}, "id": "cpUQh63fFfBz7hLVaIfiOlIda_E=", "properties": {"@spider": "usps_collection_boxes", "addr:city": "PLACITAS", "addr:country": "US", "addr:full": "221 STATE HIGHWAY 165", "addr:postcode": "87043", "addr:state": "NM", "amenity": "post_box", "brand": "United States Postal Service", "brand:wikidata": "Q668687", "collection_times": "Mo-Fr 10:00", "name": "USPS COLLECTION BOX - BLUE BOX", "nsi_id": "unitedstatespostalservice-a77078", "operator": "United States Postal Service", "operator:short": "USPS", "operator:type": "public", "operator:wikidata": "Q668687", "ref": "8704300002"}, "type": "Feature"}
{"dataset_attributes": {"@spider": "usps_collection_boxes", "spider:collection_time": "2023-08-28T08:25:48.690851"}, "geometry": {"coordinates": [-106.426831642, 35.309348553], "type": "Point"}, "id": "M5shEylisQr1TinKQiuLUjfpkL4=", "properties": {"@spider": "usps_collection_boxes", "addr:city": "PLACITAS", "addr:country": "US", "addr:full": "652 STATE HIGHWAY 165", "addr:postcode": "87043", "addr:state": "NM", "amenity": "post_box", "brand": "United States Postal Service", "brand:wikidata": "Q668687", "collection_times": "Mo-Fr 16:15; Sa 10:45", "name": "USPS COLLECTION BOX - PO LOBBY", "note": "ON 12/24 AND 12/31, THIS BOX MAY BE COLLECTED AS EARLY AS 12 NOON.", "nsi_id": "unitedstatespostalservice-a77078", "operator": "United States Postal Service", "operator:short": "USPS", "operator:type": "public", "operator:wikidata": "Q668687", "ref": "8704300003"}, "type": "Feature"}
{"dataset_attributes": {"@spider": "usps_collection_boxes", "spider:collection_time": "2023-08-28T08:25:48.690851"}, "geometry": {"coordinates": [-106.426831642, 35.309348553], "type": "Point"}, "id": "nSSS3YvgtgbWVsQvm7Yiq7KGIeI=", "properties": {"@spider": "usps_collection_boxes", "addr:city": "PLACITAS", "addr:country": "US", "addr:full": "652 STATE HIGHWAY 165", "addr:postcode": "87043", "addr:state": "NM", "amenity": "post_box", "brand": "United States Postal Service", "brand:wikidata": "Q668687", "collection_times": "Mo-Fr 16:15; Sa 10:45", "name": "USPS COLLECTION BOX - PO LOBBY", "note": "ON 12/24 AND 12/31, THIS BOX MAY BE COLLECTED AS EARLY AS 12 NOON.", "nsi_id": "unitedstatespostalservice-a77078", "operator": "United States Postal Service", "operator:short": "USPS", "operator:type": "public", "operator:wikidata": "Q668687", "ref": "8704300005"}, "type": "Feature"}
{"dataset_attributes": {"@spider": "usps_collection_boxes", "spider:collection_time": "2023-08-28T08:25:48.690851"}, "geometry": {"coordinates": [-106.426831642, 35.309348553], "type": "Point"}, "id": "nBJNSLItOZTSjhzCfT_Q-ikqVXw=", "properties": {"@spider": "usps_collection_boxes", "addr:city": "PLACITAS", "addr:country": "US", "addr:full": "652 STATE HIGHWAY 165", "addr:postcode": "87043", "addr:state": "NM", "amenity": "post_box", "brand": "United States Postal Service", "brand:wikidata": "Q668687", "collection_times": "Mo-Fr 16:15; Sa 10:45", "name": "USPS COLLECTION BOX - PO LOBBY", "note": "ON 12/24 AND 12/31, THIS BOX MAY BE COLLECTED AS EARLY AS 12 NOON.", "nsi_id": "unitedstatespostalservice-a77078", "operator": "United States Postal Service", "operator:short": "USPS", "operator:type": "public", "operator:wikidata": "Q668687", "ref": "8704300006"}, "type": "Feature"}
{"dataset_attributes": {"@spider": "usps_collection_boxes", "spider:collection_time": "2023-08-28T08:25:48.690851"}, "geometry": {"coordinates": [-106.656127, 35.680562], "type": "Point"}, "id": "guTNuVkX1c6K71ZLYJj76YXUlXE=", "properties": {"@spider": "usps_collection_boxes", "addr:city": "PONDEROSA", "addr:country": "US", "addr:full": "6335B HIGHWAY 290", "addr:postcode": "87044", "addr:state": "NM", "amenity": "post_box", "brand": "United States Postal Service", "brand:wikidata": "Q668687", "collection_times": "Mo-Sa 10:00", "name": "USPS COLLECTION BOX - BLUE BOX", "nsi_id": "unitedstatespostalservice-a77078", "operator": "United States Postal Service", "operator:short": "USPS", "operator:type": "public", "operator:wikidata": "Q668687", "ref": "8704400001"}, "type": "Feature"}
{"dataset_attributes": {"@spider": "usps_collection_boxes", "spider:collection_time": "2023-08-28T08:25:48.690851"}, "geometry": {"coordinates": [-106.656128, 35.680562], "type": "Point"}, "id": "YbIDRXViNcUqjh_yXUMgHy0NUVs=", "properties": {"@spider": "usps_collection_boxes", "addr:city": "PONDEROSA", "addr:country": "US", "addr:full": "6335B HIGHWAY 290", "addr:postcode": "87044", "addr:state": "NM", "amenity": "post_box", "brand": "United States Postal Service", "brand:wikidata": "Q668687", "collection_times": "Mo-Sa 10:00", "name": "USPS COLLECTION BOX - PO LOBBY", "nsi_id": "unitedstatespostalservice-a77078", "operator": "United States Postal Service", "operator:short": "USPS", "operator:type": "public", "operator:wikidata": "Q668687", "ref": "8704400002"}, "type": "Feature"}
{"dataset_attributes": {"@spider": "usps_collection_boxes", "spider:collection_time": "2023-08-28T08:25:48.690851"}, "geometry": {"coordinates": [-106.6562848744, 35.6806816256], "type": "Point"}, "id": "lzI6iPWsU3FwNSMYo18xnbbgwW0=", "properties": {"@spider": "usps_collection_boxes", "addr:city": "PONDEROSA", "addr:country": "US", "addr:full": "6335 HIGHWAY 290", "addr:postcode": "87044", "addr:state": "NM", "amenity": "post_box", "brand": "United States Postal Service", "brand:wikidata": "Q668687", "collection_times": "Mo-Sa 10:00", "name": "USPS COLLECTION BOX - PO LOBBY", "nsi_id": "unitedstatespostalservice-a77078", "operator": "United States Postal Service", "operator:short": "USPS", "operator:type": "public", "operator:wikidata": "Q668687", "ref": "8704400003"}, "type": "Feature"}
{"dataset_attributes": {"@spider": "usps_collection_boxes", "spider:collection_time": "2023-08-28T08:25:48.690851"}, "geometry": {"coordinates": [-108.0256719925, 35.3567960185], "type": "Point"}, "id": "SXB4gxSDj0mRuCtsDpJ6KBzRbmg=", "properties": {"@spider": "usps_collection_boxes", "addr:city": "PREWITT", "addr:country": "US", "addr:full": "1692 STATE HIGHWAY 122", "addr:postcode": "87045", "addr:state": "NM", "amenity": "post_box", "brand": "United States Postal Service", "brand:wikidata": "Q668687", "collection_times": "Mo-Fr 15:45; Sa 11:15", "name": "USPS COLLECTION BOX - BLUE BOX", "note": "ON 12/24 AND 12/31, THIS BOX MAY BE COLLECTED AS EARLY AS 12 NOON.", "nsi_id": "unitedstatespostalservice-a77078", "operator": "United States Postal Service", "operator:short": "USPS", "operator:type": "public", "operator:wikidata": "Q668687", "ref": "8704500001"}, "type": "Feature"}
{"dataset_attributes": {"@spider": "usps_collection_boxes", "spider:collection_time": "2023-08-28T08:25:48.690851"}, "geometry": {"coordinates": [-108.043969, 35.364518], "type": "Point"}, "id": "CIjVqigLCqT9AnUAyeiq2RAkP_o=", "properties": {"@spider": "usps_collection_boxes", "addr:city": "PREWITT", "addr:country": "US", "addr:full": "1692 STATE HIGHWAY 122", "addr:postcode": "87045", "addr:state": "NM", "amenity": "post_box", "brand": "United States Postal Service", "brand:wikidata": "Q668687", "collection_times": "Mo-Fr 15:45; Sa 11:15", "name": "USPS COLLECTION BOX - PO LOBBY", "note": "ON 12/24 AND 12/31, THIS BOX MAY BE COLLECTED AS EARLY AS 12 NOON.", "nsi_id": "unitedstatespostalservice-a77078", "operator": "United States Postal Service", "operator:short": "USPS", "operator:type": "public", "operator:wikidata": "Q668687", "ref": "8704500002"}, "type": "Feature"}
{"dataset_attributes": {"@spider": "usps_collection_boxes", "spider:collection_time": "2023-08-28T08:25:48.690851"}, "geometry": {"coordinates": [-108.0384414931, 35.3626542613], "type": "Point"}, "id": "sIYM2JHV4IJjBkeiM1yBHfTeNo8=", "properties": {"@spider": "usps_collection_boxes", "addr:city": "PREWITT", "addr:country": "US", "addr:full": "1692 STATE HIGHWAY 122", "addr:postcode": "87045", "addr:state": "NM", "amenity": "post_box", "brand": "United States Postal Service", "brand:wikidata": "Q668687", "collection_times": "Mo-Fr 15:30; Sa 11:00", "name": "USPS COLLECTION BOX - PO LOBBY", "note": "ON 12/24 AND 12/31, THIS BOX MAY BE COLLECTED AS EARLY AS 12 NOON.", "nsi_id": "unitedstatespostalservice-a77078", "operator": "United States Postal Service", "operator:short": "USPS", "operator:type": "public", "operator:wikidata": "Q668687", "ref": "8704500003"}, "type": "Feature"}
{"dataset_attributes": {"@spider": "usps_collection_boxes", "spider:collection_time": "2023-08-28T08:25:48.690851"}, "geometry": {"coordinates": [-106.344733, 35.162536], "type": "Point"}, "id": "sfUt4K9ikCUMUe7cecs1KVEgG30=", "properties": {"@spider": "usps_collection_boxes", "addr:city": "SANDIA PARK", "addr:country": "US", "addr:full": "16 FROST RD", "addr:postcode": "87047", "addr:state": "NM", "amenity": "post_box", "brand": "United States Postal Service", "brand:wikidata": "Q668687", "collection_times": "Mo-Fr 16:45; Sa 12:00", "name": "USPS COLLECTION BOX - BLUE BOX", "note": "ON 12/24 AND 12/31, THIS BOX MAY BE COLLECTED AS EARLY AS 12 NOON.", "nsi_id": "unitedstatespostalservice-a77078", "operator": "United States Postal Service", "operator:short": "USPS", "operator:type": "public", "operator:wikidata": "Q668687", "ref": "8704700001"}, "type": "Feature"}
{"dataset_attributes": {"@spider": "usps_collection_boxes", "spider:collection_time": "2023-08-28T08:25:48.690851"}, "geometry": {"coordinates": [-106.344619, 35.162534], "type": "Point"}, "id": "-TrhTXqsACWRFG_9C_1uRYvg_dQ=", "properties": {"@spider": "usps_collection_boxes", "addr:city": "SANDIA PARK", "addr:country": "US", "addr:full": "16 FROST RD", "addr:postcode": "87047", "addr:state": "NM", "amenity": "post_box", "brand": "United States Postal Service", "brand:wikidata": "Q668687", "collection_times": "Mo-Fr 16:45; Sa 12:00", "name": "USPS COLLECTION BOX - PO LOBBY", "note": "ON 12/24 AND 12/31, THIS BOX MAY BE COLLECTED AS EARLY AS 12 NOON.", "nsi_id": "unitedstatespostalservice-a77078", "operator": "United States Postal Service", "operator:short": "USPS", "operator:type": "public", "operator:wikidata": "Q668687", "ref": "8704700002"}, "type": "Feature"}
{"dataset_attributes": {"@spider": "usps_collection_boxes", "spider:collection_time": "2023-08-28T08:25:48.690851"}, "geometry": {"coordinates": [-106.344619, 35.162534], "type": "Point"}, "id": "HsZdkeWsm_cob_E2RMRB4CF761o=", "properties": {"@spider": "usps_collection_boxes", "addr:city": "SANDIA PARK", "addr:country": "US", "addr:full": "16 FROST RD", "addr:postcode": "87047", "addr:state": "NM", "amenity": "post_box", "brand": "United States Postal Service", "brand:wikidata": "Q668687", "collection_times": "Mo-Fr 16:45; Sa 12:00", "name": "USPS COLLECTION BOX - PO LOBBY", "note": "ON 12/24 AND 12/31, THIS BOX MAY BE COLLECTED AS EARLY AS 12 NOON.", "nsi_id": "unitedstatespostalservice-a77078", "operator": "United States Postal Service", "operator:short": "USPS", "operator:type": "public", "operator:wikidata": "Q668687", "ref": "8704700003"}, "type": "Feature"}
{"dataset_attributes": {"@spider": "usps_collection_boxes", "spider:collection_time": "2023-08-28T08:25:48.690851"}, "geometry": {"coordinates": [-106.344619, 35.162534], "type": "Point"}, "id": "ooHCbbGV2FCS_kqcQesvUxfiRj8=", "properties": {"@spider": "usps_collection_boxes", "addr:city": "SANDIA PARK", "addr:country": "US", "addr:full": "16 FROST RD", "addr:postcode": "87047", "addr:state": "NM", "amenity": "post_box", "brand": "United States Postal Service", "brand:wikidata": "Q668687", "collection_times": "Mo-Fr 16:45; Sa 12:00", "name": "USPS COLLECTION BOX - BLUE BOX", "note": "ON 12/24 AND 12/31, THIS BOX MAY BE COLLECTED AS EARLY AS 12 NOON.", "nsi_id": "unitedstatespostalservice-a77078", "operator": "United States Postal Service", "operator:short": "USPS", "operator:type": "public", "operator:wikidata": "Q668687", "ref": "8704700004"}, "type": "Feature"}
{"dataset_attributes": {"@spider": "usps_collection_boxes", "spider:collection_time": "2023-08-28T08:25:48.690851"}, "geometry": {"coordinates": [-106.3446705365, 35.1625121668], "type": "Point"}, "id": "iIGCTCF3LDVhwAHpMHAfcehokTY=", "properties": {"@spider": "usps_collection_boxes", "addr:city": "SANDIA PARK", "addr:country": "US", "addr:full": "16 FROST RD", "addr:postcode": "87047", "addr:state": "NM", "amenity": "post_box", "brand": "United States Postal Service", "brand:wikidata": "Q668687", "collection_times": "Mo-Fr 16:45; Sa 11:45", "name": "USPS COLLECTION BOX - PO LOBBY", "note": "ON 12/24 AND 12/31, THIS BOX MAY BE COLLECTED AS EARLY AS 12 NOON.", "nsi_id": "unitedstatespostalservice-a77078", "operator": "United States Postal Service", "operator:short": "USPS", "operator:type": "public", "operator:wikidata": "Q668687", "ref": "8704700005"}, "type": "Feature"}
{"dataset_attributes": {"@spider": "usps_collection_boxes", "spider:collection_time": "2023-08-28T08:25:48.690851"}, "geometry": {"coordinates": [-106.6188750687, 35.2207211979], "type": "Point"}, "id": "2MEViNoX_fVoJ1NBre9vJSYaEQs=", "properties": {"@spider": "usps_collection_boxes", "addr:city": "CORRALES", "addr:country": "US", "addr:full": "4101 CORRALES RD", "addr:postcode": "87048", "addr:state": "NM", "amenity": "post_box", "brand": "United States Postal Service", "brand:wikidata": "Q668687", "collection_times": "Mo-Fr 17:00; Sa 13:00", "name": "USPS COLLECTION BOX - PO LOBBY", "note": "ON 12/24 AND 12/31, THIS BOX MAY BE COLLECTED AS EARLY AS 12 NOON.", "nsi_id": "unitedstatespostalservice-a77078", "operator": "United States Postal Service", "operator:short": "USPS", "operator:type": "public", "operator:wikidata": "Q668687", "ref": "8704800001"}, "type": "Feature"}
{"dataset_attributes": {"@spider": "usps_collection_boxes", "spider:collection_time": "2023-08-28T08:25:48.690851"}, "geometry": {"coordinates": [-106.6188750687, 35.2207211979], "type": "Point"}, "id": "P0wZHjjwNBnMG02ZbNqOUKiHBG4=", "properties": {"@spider": "usps_collection_boxes", "addr:city": "CORRALES", "addr:country": "US", "addr:full": "4101 CORRALES RD", "addr:postcode": "87048", "addr:state": "NM", "amenity": "post_box", "brand": "United States Postal Service", "brand:wikidata": "Q668687", "collection_times": "Mo-Fr 17:00; Sa 13:00", "name": "USPS COLLECTION BOX - BLUE BOX", "note": "ON 12/24 AND 12/31, THIS BOX MAY BE COLLECTED AS EARLY AS 12 NOON.", "nsi_id": "unitedstatespostalservice-a77078", "operator": "United States Postal Service", "operator:short": "USPS", "operator:type": "public", "operator:wikidata": "Q668687", "ref": "8704800002"}, "type": "Feature"}
{"dataset_attributes": {"@spider": "usps_collection_boxes", "spider:collection_time": "2023-08-28T08:25:48.690851"}, "geometry": {"coordinates": [-106.6188750687, 35.2207211979], "type": "Point"}, "id": "uh5Ad3V7tfoAyjFzPej_r-TirZc=", "properties": {"@spider": "usps_collection_boxes", "addr:city": "CORRALES", "addr:country": "US", "addr:full": "4101 CORRALES RD", "addr:postcode": "87048", "addr:state": "NM", "amenity": "post_box", "brand": "United States Postal Service", "brand:wikidata": "Q668687", "collection_times": "Mo-Fr 17:00; Sa 13:00", "name": "USPS COLLECTION BOX - BLUE BOX", "note": "ON 12/24 AND 12/31, THIS BOX MAY BE COLLECTED AS EARLY AS 12 NOON.", "nsi_id": "unitedstatespostalservice-a77078", "operator": "United States Postal Service", "operator:short": "USPS", "operator:type": "public", "operator:wikidata": "Q668687", "ref": "8704800003"}, "type": "Feature"}
{"dataset_attributes": {"@spider": "usps_collection_boxes", "spider:collection_time": "2023-08-28T08:25:48.690851"}, "geometry": {"coordinates": [-106.6188750687, 35.2207211979], "type": "Point"}, "id": "YMdiPfjIec-oflUnwOb3UF7vXUY=", "properties": {"@spider": "usps_collection_boxes", "addr:city": "CORRALES", "addr:country": "US", "addr:full": "4101 CORRALES RD", "addr:postcode": "87048", "addr:state": "NM", "amenity": "post_box", "brand": "United States Postal Service", "brand:wikidata": "Q668687", "collection_times": "Mo-Fr 17:00; Sa 13:00", "name": "USPS COLLECTION BOX - PO LOBBY", "note": "ON 12/24 AND 12/31, THIS BOX MAY BE COLLECTED AS EARLY AS 12 NOON.", "nsi_id": "unitedstatespostalservice-a77078", "operator": "United States Postal Service", "operator:short": "USPS", "operator:type": "public", "operator:wikidata": "Q668687", "ref": "8704800004"}, "type": "Feature"}
{"dataset_attributes": {"@spider": "usps_collection_boxes", "spider:collection_time": "2023-08-28T08:25:48.690851"}, "geometry": {"coordinates": [-106.6188750687, 35.2207211979], "type": "Point"}, "id": "JsftcM-_pVwtiIoXfDdMGhXq4yI=", "properties": {"@spider": "usps_collection_boxes", "addr:city": "CORRALES", "addr:country": "US", "addr:full": "4101 CORRALES RD", "addr:postcode": "87048", "addr:state": "NM", "amenity": "post_box", "brand": "United States Postal Service", "brand:wikidata": "Q668687", "collection_times": "Mo-Fr 16:45; Sa 12:45", "name": "USPS COLLECTION BOX - PO LOBBY", "note": "ON 12/24 AND 12/31, THIS BOX MAY BE COLLECTED AS EARLY AS 12 NOON.", "nsi_id": "unitedstatespostalservice-a77078", "operator": "United States Postal Service", "operator:short": "USPS", "operator:type": "public", "operator:wikidata": "Q668687", "ref": "8704800005"}, "type": "Feature"}
{"dataset_attributes": {"@spider": "usps_collection_boxes", "spider:collection_time": "2023-08-28T08:25:48.690851"}, "geometry": {"coordinates": [-107.59647127, 35.08243854], "type": "Point"}, "id": "dBTlAqFEIW8UptfA6U5jkwXPQ-U=", "properties": {"@spider": "usps_collection_boxes", "addr:city": "SAN FIDEL", "addr:country": "US", "addr:full": "1094 STATE HIGHWAY 124", "addr:postcode": "87049", "addr:state": "NM", "amenity": "post_box", "brand": "United States Postal Service", "brand:wikidata": "Q668687", "collection_times": "Mo-Fr 16:30; Sa 11:30", "name": "USPS COLLECTION BOX - BLUE BOX", "note": "ON 12/24 AND 12/31, THIS BOX MAY BE COLLECTED AS EARLY AS 12 NOON.", "nsi_id": "unitedstatespostalservice-a77078", "operator": "United States Postal Service", "operator:short": "USPS", "operator:type": "public", "operator:wikidata": "Q668687", "ref": "8704900001"}, "type": "Feature"}
{"dataset_attributes": {"@spider": "usps_collection_boxes", "spider:collection_time": "2023-08-28T08:25:48.690851"}, "geometry": {"coordinates": [-107.59647127, 35.08243854], "type": "Point"}, "id": "p0tUoIQGjgYfvejIM3NT397oHm0=", "properties": {"@spider": "usps_collection_boxes", "addr:city": "SAN FIDEL", "addr:country": "US", "addr:full": "1094 STATE HIGHWAY 124", "addr:postcode": "87049", "addr:state": "NM", "amenity": "post_box", "brand": "United States Postal Service", "brand:wikidata": "Q668687", "collection_times": "Mo-Fr 16:30; Sa 11:30", "name": "USPS COLLECTION BOX - PO LOBBY", "note": "ON 12/24 AND 12/31, THIS BOX MAY BE COLLECTED AS EARLY AS 12 NOON.", "nsi_id": "unitedstatespostalservice-a77078", "operator": "United States Postal Service", "operator:short": "USPS", "operator:type": "public", "operator:wikidata": "Q668687", "ref": "8704900002"}, "type": "Feature"}
{"dataset_attributes": {"@spider": "usps_collection_boxes", "spider:collection_time": "2023-08-28T08:25:48.690851"}, "geometry": {"coordinates": [-107.59647127, 35.08243854], "type": "Point"}, "id": "ZoIJcCzVS3CXm5kRTenPK7FB82Q=", "properties": {"@spider": "usps_collection_boxes", "addr:city": "SAN FIDEL", "addr:country": "US", "addr:full": "1094 STATE HIGHWAY 124", "addr:postcode": "87049", "addr:state": "NM", "amenity": "post_box", "brand": "United States Postal Service", "brand:wikidata": "Q668687", "collection_times": "Mo-Fr 16:30; Sa 11:30", "name": "USPS COLLECTION BOX - PO LOBBY", "note": "ON 12/24 AND 12/31, THIS BOX MAY BE COLLECTED AS EARLY AS 12 NOON.", "nsi_id": "unitedstatespostalservice-a77078", "operator": "United States Postal Service", "operator:short": "USPS", "operator:type": "public", "operator:wikidata": "Q668687", "ref": "8704900003"}, "type": "Feature"}
{"dataset_attributes": {"@spider": "usps_collection_boxes", "spider:collection_time": "2023-08-28T08:25:48.690851"}, "geometry": {"coordinates": [-107.883100653, 35.108116282], "type": "Point"}, "id": "oHk91uKOuut2WPoj7Sgzxa3kuak=", "properties": {"@spider": "usps_collection_boxes", "addr:city": "SAN RAFAEL", "addr:country": "US", "addr:full": "116 MAIN ST", "addr:postcode": "87051", "addr:state": "NM", "amenity": "post_box", "brand": "United States Postal Service", "brand:wikidata": "Q668687", "collection_times": "Mo-Fr 15:00; Sa 09:15", "name": "USPS COLLECTION BOX - PO LOBBY", "note": "ON 12/24 AND 12/31, THIS BOX MAY BE COLLECTED AS EARLY AS 12 NOON.", "nsi_id": "unitedstatespostalservice-a77078", "operator": "United States Postal Service", "operator:short": "USPS", "operator:type": "public", "operator:wikidata": "Q668687", "ref": "8705100003"}, "type": "Feature"}
{"dataset_attributes": {"@spider": "usps_collection_boxes", "spider:collection_time": "2023-08-28T08:25:48.690851"}, "geometry": {"coordinates": [-107.88301053, 35.1084051878], "type": "Point"}, "id": "CT1zYMAwOX-7dzFFw3eO08eGE8M=", "properties": {"@spider": "usps_collection_boxes", "addr:city": "SAN RAFAEL", "addr:country": "US", "addr:full": "116 MAIN ST", "addr:postcode": "87051", "addr:state": "NM", "amenity": "post_box", "brand": "United States Postal Service", "brand:wikidata": "Q668687", "collection_times": "Mo-Fr 15:00; Sa 09:15", "name": "USPS COLLECTION BOX - BLUE BOX", "note": "ON 12/24 AND 12/31, THIS BOX MAY BE COLLECTED AS EARLY AS 12 NOON.", "nsi_id": "unitedstatespostalservice-a77078", "operator": "United States Postal Service", "operator:short": "USPS", "operator:type": "public", "operator:wikidata": "Q668687", "ref": "8705100004"}, "type": "Feature"}
{"dataset_attributes": {"@spider": "usps_collection_boxes", "spider:collection_time": "2023-08-28T08:25:48.690851"}, "geometry": {"coordinates": [-107.883100653, 35.108116282], "type": "Point"}, "id": "RRhRXI7fiqy6Nxmv6_PEHOiAdlM=", "properties": {"@spider": "usps_collection_boxes", "addr:city": "SAN RAFAEL", "addr:country": "US", "addr:full": "116 MAIN ST", "addr:postcode": "87051", "addr:state": "NM", "amenity": "post_box", "brand": "United States Postal Service", "brand:wikidata": "Q668687", "collection_times": "Mo-Fr 11:45; Sa 09:00", "name": "USPS COLLECTION BOX - PO LOBBY", "nsi_id": "unitedstatespostalservice-a77078", "operator": "United States Postal Service", "operator:short": "USPS", "operator:type": "public", "operator:wikidata": "Q668687", "ref": "8705100005"}, "type": "Feature"}
{"dataset_attributes": {"@spider": "usps_collection_boxes", "spider:collection_time": "2023-08-28T08:25:48.690851"}, "geometry": {"coordinates": [-106.362071, 35.513833], "type": "Point"}, "id": "nkHN5WXbzigGEnEIpqmWQntGFD4=", "properties": {"@spider": "usps_collection_boxes", "addr:city": "KEWA", "addr:country": "US", "addr:full": "175 TANO ST", "addr:postcode": "87052", "addr:state": "NM", "amenity": "post_box", "brand": "United States Postal Service", "brand:wikidata": "Q668687", "collection_times": "Mo-Fr 15:00; Sa 11:45", "name": "USPS COLLECTION BOX - PO LOBBY", "note": "ON 12/24 AND 12/31, THIS BOX MAY BE COLLECTED AS EARLY AS 12 NOON.", "nsi_id": "unitedstatespostalservice-a77078", "operator": "United States Postal Service", "operator:short": "USPS", "operator:type": "public", "operator:wikidata": "Q668687", "ref": "8705200005"}, "type": "Feature"}
{"dataset_attributes": {"@spider": "usps_collection_boxes", "spider:collection_time": "2023-08-28T08:25:48.690851"}, "geometry": {"coordinates": [-106.362154, 35.51379], "type": "Point"}, "id": "w6YaOvWSqzQYTHhstaceG8o_SLo=", "properties": {"@spider": "usps_collection_boxes", "addr:city": "KEWA", "addr:country": "US", "addr:full": "175 TANO ST", "addr:postcode": "87052", "addr:state": "NM", "amenity": "post_box", "brand": "United States Postal Service", "brand:wikidata": "Q668687", "collection_times": "Mo-Fr 15:00; Sa 11:45", "name": "USPS COLLECTION BOX - BLUE BOX", "note": "ON 12/24 AND 12/31, THIS BOX MAY BE COLLECTED AS EARLY AS 12 NOON.", "nsi_id": "unitedstatespostalservice-a77078", "operator": "United States Postal Service", "operator:short": "USPS", "operator:type": "public", "operator:wikidata": "Q668687", "ref": "8705200006"}, "type": "Feature"}
{"dataset_attributes": {"@spider": "usps_collection_boxes", "spider:collection_time": "2023-08-28T08:25:48.690851"}, "geometry": {"coordinates": [-106.362108068, 35.5138606304], "type": "Point"}, "id": "wuINdbUo_WNOenbncw_agV4myUU=", "properties": {"@spider": "usps_collection_boxes", "addr:city": "KEWA", "addr:country": "US", "addr:full": "10 TESUQUE ST", "addr:postcode": "87052", "addr:state": "NM", "amenity": "post_box", "brand": "United States Postal Service", "brand:wikidata": "Q668687", "collection_times": "Mo-Fr 14:45; Sa 11:45", "name": "USPS COLLECTION BOX - PO LOBBY", "note": "ON 12/24 AND 12/31, THIS BOX MAY BE COLLECTED AS EARLY AS 12 NOON.", "nsi_id": "unitedstatespostalservice-a77078", "operator": "United States Postal Service", "operator:short": "USPS", "operator:type": "public", "operator:wikidata": "Q668687", "ref": "8705200007"}, "type": "Feature"}
{"dataset_attributes": {"@spider": "usps_collection_boxes", "spider:collection_time": "2023-08-28T08:25:48.690851"}, "geometry": {"coordinates": [-106.778616938, 35.555690776], "type": "Point"}, "id": "SWUfnLiosS4wM5pCdwABzel0008=", "properties": {"@spider": "usps_collection_boxes", "addr:city": "SAN YSIDRO", "addr:country": "US", "addr:full": "90 BOBBY GARCIA LN", "addr:postcode": "87053", "addr:state": "NM", "amenity": "post_box", "brand": "United States Postal Service", "brand:wikidata": "Q668687", "collection_times": "Mo-Fr 16:30; Sa 09:30", "name": "USPS COLLECTION BOX - BLUE BOX", "note": "ON 12/24 AND 12/31, THIS BOX MAY BE COLLECTED AS EARLY AS 12 NOON.", "nsi_id": "unitedstatespostalservice-a77078", "operator": "United States Postal Service", "operator:short": "USPS", "operator:type": "public", "operator:wikidata": "Q668687", "ref": "8705300001"}, "type": "Feature"}
{"dataset_attributes": {"@spider": "usps_collection_boxes", "spider:collection_time": "2023-08-28T08:25:48.690851"}, "geometry": {"coordinates": [-106.7294673251, 35.4982124361], "type": "Point"}, "id": "IPdIwdxd20ArZjM2cRfu71z7jfo=", "properties": {"@spider": "usps_collection_boxes", "addr:city": "SAN YSIDRO", "addr:country": "US", "addr:full": "135 CAPITOL SQUARE DR", "addr:postcode": "87053", "addr:state": "NM", "amenity": "post_box", "brand": "United States Postal Service", "brand:wikidata": "Q668687", "collection_times": "Mo-Fr 14:15", "name": "USPS COLLECTION BOX - BLUE BOX", "note": "ON 12/24 AND 12/31, THIS BOX MAY BE COLLECTED AS EARLY AS 12 NOON.", "nsi_id": "unitedstatespostalservice-a77078", "operator": "United States Postal Service", "operator:short": "USPS", "operator:type": "public", "operator:wikidata": "Q668687", "ref": "8705300002"}, "type": "Feature"}
{"dataset_attributes": {"@spider": "usps_collection_boxes", "spider:collection_time": "2023-08-28T08:25:48.690851"}, "geometry": {"coordinates": [-106.778616938, 35.555690776], "type": "Point"}, "id": "NGDFecD0LdOb61xEek9lTO-VjLM=", "properties": {"@spider": "usps_collection_boxes", "addr:city": "SAN YSIDRO", "addr:country": "US", "addr:full": "90 BOBBY GARCIA LN", "addr:postcode": "87053", "addr:state": "NM", "amenity": "post_box", "brand": "United States Postal Service", "brand:wikidata": "Q668687", "collection_times": "Mo-Fr 15:00; Sa 09:30", "name": "USPS COLLECTION BOX - PO LOBBY", "note": "ON 12/24 AND 12/31, THIS BOX MAY BE COLLECTED AS EARLY AS 12 NOON.", "nsi_id": "unitedstatespostalservice-a77078", "operator": "United States Postal Service", "operator:short": "USPS", "operator:type": "public", "operator:wikidata": "Q668687", "ref": "8705300003"}, "type": "Feature"}
{"dataset_attributes": {"@spider": "usps_collection_boxes", "spider:collection_time": "2023-08-28T08:25:48.690851"}, "geometry": {"coordinates": [-106.778616938, 35.555690776], "type": "Point"}, "id": "6hKgd1hxtugFkSX9dA82Z8SRbTc=", "properties": {"@spider": "usps_collection_boxes", "addr:city": "SAN YSIDRO", "addr:country": "US", "addr:full": "90 BOBBY GARCIA LN", "addr:postcode": "87053", "addr:state": "NM", "amenity": "post_box", "brand": "United States Postal Service", "brand:wikidata": "Q668687", "collection_times": "Mo-Fr 15:00; Sa 09:30", "name": "USPS COLLECTION BOX - PO LOBBY", "note": "ON 12/24 AND 12/31, THIS BOX MAY BE COLLECTED AS EARLY AS 12 NOON.", "nsi_id": "unitedstatespostalservice-a77078", "operator": "United States Postal Service", "operator:short": "USPS", "operator:type": "public", "operator:wikidata": "Q668687", "ref": "8705300004"}, "type": "Feature"}
{"dataset_attributes": {"@spider": "usps_collection_boxes", "spider:collection_time": "2023-08-28T08:25:48.690851"}, "geometry": {"coordinates": [-106.388731, 35.079337], "type": "Point"}, "id": "ZY4zMi0kphKSOT_5yOO63VQZ0dA=", "properties": {"@spider": "usps_collection_boxes", "addr:city": "TIJERAS", "addr:country": "US", "addr:full": "499 HIGHWAY 333", "addr:postcode": "87059", "addr:state": "NM", "amenity": "post_box", "brand": "United States Postal Service", "brand:wikidata": "Q668687", "collection_times": "Mo-Fr 16:30; Sa 11:00", "name": "USPS COLLECTION BOX - BLUE BOX", "note": "ON 12/24 AND 12/31, THIS BOX MAY BE COLLECTED AS EARLY AS 12 NOON.", "nsi_id": "unitedstatespostalservice-a77078", "operator": "United States Postal Service", "operator:short": "USPS", "operator:type": "public", "operator:wikidata": "Q668687", "ref": "8705900001"}, "type": "Feature"}
{"dataset_attributes": {"@spider": "usps_collection_boxes", "spider:collection_time": "2023-08-28T08:25:48.690851"}, "geometry": {"coordinates": [-106.390054, 35.079025], "type": "Point"}, "id": "azUuVBZEnwNBvzc20htve6aP8i4=", "properties": {"@spider": "usps_collection_boxes", "addr:city": "TIJERAS", "addr:country": "US", "addr:full": "499 HIGHWAY 333", "addr:postcode": "87059", "addr:state": "NM", "amenity": "post_box", "brand": "United States Postal Service", "brand:wikidata": "Q668687", "collection_times": "Mo-Fr 16:30; Sa 11:00", "name": "USPS COLLECTION BOX - PO LOBBY", "note": "ON 12/24 AND 12/31, THIS BOX MAY BE COLLECTED AS EARLY AS 12 NOON.", "nsi_id": "unitedstatespostalservice-a77078", "operator": "United States Postal Service", "operator:short": "USPS", "operator:type": "public", "operator:wikidata": "Q668687", "ref": "8705900003"}, "type": "Feature"}
{"dataset_attributes": {"@spider": "usps_collection_boxes", "spider:collection_time": "2023-08-28T08:25:48.690851"}, "geometry": {"coordinates": [-106.389059065, 35.079219626], "type": "Point"}, "id": "L2QGolRfEETtRFqv5bmuVazhz2w=", "properties": {"@spider": "usps_collection_boxes", "addr:city": "TIJERAS", "addr:country": "US", "addr:full": "499 NEW MEXICO 333", "addr:postcode": "87059", "addr:state": "NM", "amenity": "post_box", "brand": "United States Postal Service", "brand:wikidata": "Q668687", "collection_times": "Mo-Fr 16:30; Sa 11:00", "name": "USPS COLLECTION BOX - PO LOBBY", "note": "ON 12/24 AND 12/31, THIS BOX MAY BE COLLECTED AS EARLY AS 12 NOON.", "nsi_id": "unitedstatespostalservice-a77078", "operator": "United States Postal Service", "operator:short": "USPS", "operator:type": "public", "operator:wikidata": "Q668687", "ref": "8705900005"}, "type": "Feature"}
{"dataset_attributes": {"@spider": "usps_collection_boxes", "spider:collection_time": "2023-08-28T08:25:48.690851"}, "geometry": {"coordinates": [-106.728469, 34.73803], "type": "Point"}, "id": "WbLkNJheU45uYe8uwpxv0dfEaxs=", "properties": {"@spider": "usps_collection_boxes", "addr:city": "TOME", "addr:country": "US", "addr:full": "2971 STATE HIGHWAY 47", "addr:postcode": "87060", "addr:state": "NM", "amenity": "post_box", "brand": "United States Postal Service", "brand:wikidata": "Q668687", "collection_times": "Mo-Fr 16:15; Sa 11:45", "name": "USPS COLLECTION BOX - PO LOBBY", "note": "ON 12/24 AND 12/31, THIS BOX MAY BE COLLECTED AS EARLY AS 12 NOON.", "nsi_id": "unitedstatespostalservice-a77078", "operator": "United States Postal Service", "operator:short": "USPS", "operator:type": "public", "operator:wikidata": "Q668687", "ref": "8706000002"}, "type": "Feature"}
{"dataset_attributes": {"@spider": "usps_collection_boxes", "spider:collection_time": "2023-08-28T08:25:48.690851"}, "geometry": {"coordinates": [-106.728469, 34.73803], "type": "Point"}, "id": "BuuEcLm67PVHhWe5rtC-NPnIMuw=", "properties": {"@spider": "usps_collection_boxes", "addr:city": "TOME", "addr:country": "US", "addr:full": "2971 STATE HIGHWAY 47", "addr:postcode": "87060", "addr:state": "NM", "amenity": "post_box", "brand": "United States Postal Service", "brand:wikidata": "Q668687", "collection_times": "Mo-Fr 16:15; Sa 11:45", "name": "USPS COLLECTION BOX - PO LOBBY", "note": "ON 12/24 AND 12/31, THIS BOX MAY BE COLLECTED AS EARLY AS 12 NOON.", "nsi_id": "unitedstatespostalservice-a77078", "operator": "United States Postal Service", "operator:short": "USPS", "operator:type": "public", "operator:wikidata": "Q668687", "ref": "8706000003"}, "type": "Feature"}
{"dataset_attributes": {"@spider": "usps_collection_boxes", "spider:collection_time": "2023-08-28T08:25:48.690851"}, "geometry": {"coordinates": [-106.72672305, 34.74612152], "type": "Point"}, "id": "rBO9flE2gG-z6CjOIu1j-BDEpfE=", "properties": {"@spider": "usps_collection_boxes", "addr:city": "TOME", "addr:country": "US", "addr:full": "2971 STATE HIGHWAY 47", "addr:postcode": "87060", "addr:state": "NM", "amenity": "post_box", "brand": "United States Postal Service", "brand:wikidata": "Q668687", "collection_times": "Mo-Fr 16:15; Sa 11:45", "name": "USPS COLLECTION BOX - PO LOBBY", "note": "ON 12/24 AND 12/31, THIS BOX MAY BE COLLECTED AS EARLY AS 12 NOON.", "nsi_id": "unitedstatespostalservice-a77078", "operator": "United States Postal Service", "operator:short": "USPS", "operator:type": "public", "operator:wikidata": "Q668687", "ref": "8706000004"}, "type": "Feature"}
{"dataset_attributes": {"@spider": "usps_collection_boxes", "spider:collection_time": "2023-08-28T08:25:48.690851"}, "geometry": {"coordinates": [-106.2878690287, 34.7515955307], "type": "Point"}, "id": "_LYbT0idbtf8MBdTs7xgsM7ggaY=", "properties": {"@spider": "usps_collection_boxes", "addr:city": "TORREON", "addr:country": "US", "addr:full": "8563 HIGHWAY 55", "addr:postcode": "87061", "addr:state": "NM", "amenity": "post_box", "brand": "United States Postal Service", "brand:wikidata": "Q668687", "collection_times": "Mo-Sa 12:00", "name": "USPS COLLECTION BOX - BLUE BOX", "nsi_id": "unitedstatespostalservice-a77078", "operator": "United States Postal Service", "operator:short": "USPS", "operator:type": "public", "operator:wikidata": "Q668687", "ref": "8706100001"}, "type": "Feature"}
{"dataset_attributes": {"@spider": "usps_collection_boxes", "spider:collection_time": "2023-08-28T08:25:48.690851"}, "geometry": {"coordinates": [-106.2878690287, 34.7515955307], "type": "Point"}, "id": "x9fLfQBsEYlIlrhymLxUe_S7OOE=", "properties": {"@spider": "usps_collection_boxes", "addr:city": "TORREON", "addr:country": "US", "addr:full": "8563 HIGHWAY 55", "addr:postcode": "87061", "addr:state": "NM", "amenity": "post_box", "brand": "United States Postal Service", "brand:wikidata": "Q668687", "collection_times": "Mo-Sa 12:00", "name": "USPS COLLECTION BOX - PO LOBBY", "nsi_id": "unitedstatespostalservice-a77078", "operator": "United States Postal Service", "operator:short": "USPS", "operator:type": "public", "operator:wikidata": "Q668687", "ref": "8706100002"}, "type": "Feature"}
{"dataset_attributes": {"@spider": "usps_collection_boxes", "spider:collection_time": "2023-08-28T08:25:48.690851"}, "geometry": {"coordinates": [-106.2878690287, 34.7515955307], "type": "Point"}, "id": "Rxj_BDF2V1g5x0oQ0BedpNQFPrA=", "properties": {"@spider": "usps_collection_boxes", "addr:city": "TORREON", "addr:country": "US", "addr:full": "8563 HIGHWAY 55", "addr:postcode": "87061", "addr:state": "NM", "amenity": "post_box", "brand": "United States Postal Service", "brand:wikidata": "Q668687", "collection_times": "Mo-Sa 11:45", "name": "USPS COLLECTION BOX - PO LOBBY", "nsi_id": "unitedstatespostalservice-a77078", "operator": "United States Postal Service", "operator:short": "USPS", "operator:type": "public", "operator:wikidata": "Q668687", "ref": "8706100003"}, "type": "Feature"}
{"dataset_attributes": {"@spider": "usps_collection_boxes", "spider:collection_time": "2023-08-28T08:25:48.690851"}, "geometry": {"coordinates": [-106.7677219989, 34.516714995], "type": "Point"}, "id": "82JnWPGArGcVAaTGRkYlIiC9mxE=", "properties": {"@spider": "usps_collection_boxes", "addr:city": "VEGUITA", "addr:country": "US", "addr:full": "1351 HIGHWAY 304", "addr:postcode": "87062", "addr:state": "NM", "amenity": "post_box", "brand": "United States Postal Service", "brand:wikidata": "Q668687", "collection_times": "Mo-Fr 13:00; Sa 11:00", "name": "USPS COLLECTION BOX - BLUE BOX", "note": "ON 12/24 AND 12/31, THIS BOX MAY BE COLLECTED AS EARLY AS 12 NOON.", "nsi_id": "unitedstatespostalservice-a77078", "operator": "United States Postal Service", "operator:short": "USPS", "operator:type": "public", "operator:wikidata": "Q668687", "ref": "8706200001"}, "type": "Feature"}
{"dataset_attributes": {"@spider": "usps_collection_boxes", "spider:collection_time": "2023-08-28T08:25:48.690851"}, "geometry": {"coordinates": [-106.76737, 34.516477], "type": "Point"}, "id": "sWOXSx8dFSssmpoQw23Wbn2hsGQ=", "properties": {"@spider": "usps_collection_boxes", "addr:city": "VEGUITA", "addr:country": "US", "addr:full": "1351 HIGHWAY 304", "addr:postcode": "87062", "addr:state": "NM", "amenity": "post_box", "brand": "United States Postal Service", "brand:wikidata": "Q668687", "collection_times": "Mo-Fr 13:00; Sa 11:00", "name": "USPS COLLECTION BOX - PO LOBBY", "note": "ON 12/24 AND 12/31, THIS BOX MAY BE COLLECTED AS EARLY AS 12 NOON.", "nsi_id": "unitedstatespostalservice-a77078", "operator": "United States Postal Service", "operator:short": "USPS", "operator:type": "public", "operator:wikidata": "Q668687", "ref": "8706200002"}, "type": "Feature"}
{"dataset_attributes": {"@spider": "usps_collection_boxes", "spider:collection_time": "2023-08-28T08:25:48.690851"}, "geometry": {"coordinates": [-106.76737, 34.516477], "type": "Point"}, "id": "zJqSESmdYSAJGuaoT9YH8nisg9o=", "properties": {"@spider": "usps_collection_boxes", "addr:city": "VEGUITA", "addr:country": "US", "addr:full": "1351 HIGHWAY 304", "addr:postcode": "87062", "addr:state": "NM", "amenity": "post_box", "brand": "United States Postal Service", "brand:wikidata": "Q668687", "collection_times": "Mo-Fr 13:00; Sa 11:00", "name": "USPS COLLECTION BOX - PO LOBBY", "note": "ON 12/24 AND 12/31, THIS BOX MAY BE COLLECTED AS EARLY AS 12 NOON.", "nsi_id": "unitedstatespostalservice-a77078", "operator": "United States Postal Service", "operator:short": "USPS", "operator:type": "public", "operator:wikidata": "Q668687", "ref": "8706200003"}, "type": "Feature"}
{"dataset_attributes": {"@spider": "usps_collection_boxes", "spider:collection_time": "2023-08-28T08:25:48.690851"}, "geometry": {"coordinates": [-106.767344701, 34.516666707], "type": "Point"}, "id": "e2d2hLEPDlNO7lv-m1EJPKrJrLw=", "properties": {"@spider": "usps_collection_boxes", "addr:city": "VEGUITA", "addr:country": "US", "addr:full": "1351 HIGHWAY 304", "addr:postcode": "87062", "addr:state": "NM", "amenity": "post_box", "brand": "United States Postal Service", "brand:wikidata": "Q668687", "collection_times": "Mo-Fr 12:45; Sa 10:45", "name": "USPS COLLECTION BOX - PO LOBBY", "note": "ON 12/24 AND 12/31, THIS BOX MAY BE COLLECTED AS EARLY AS 12 NOON.", "nsi_id": "unitedstatespostalservice-a77078", "operator": "United States Postal Service", "operator:short": "USPS", "operator:type": "public", "operator:wikidata": "Q668687", "ref": "8706200004"}, "type": "Feature"}
{"dataset_attributes": {"@spider": "usps_collection_boxes", "spider:collection_time": "2023-08-28T08:25:48.690851"}, "geometry": {"coordinates": [-106.032531, 34.59652], "type": "Point"}, "id": "YCyVNbDFl1er3qGhnvC8ybiO96g=", "properties": {"@spider": "usps_collection_boxes", "addr:city": "WILLARD", "addr:country": "US", "addr:full": "712 N DUNLAVY AVE", "addr:postcode": "87063", "addr:state": "NM", "amenity": "post_box", "brand": "United States Postal Service", "brand:wikidata": "Q668687", "collection_times": "Mo-Fr 11:45; Sa 10:30", "name": "USPS COLLECTION BOX - BLUE BOX", "nsi_id": "unitedstatespostalservice-a77078", "operator": "United States Postal Service", "operator:short": "USPS", "operator:type": "public", "operator:wikidata": "Q668687", "ref": "8706300000"}, "type": "Feature"}
{"dataset_attributes": {"@spider": "usps_collection_boxes", "spider:collection_time": "2023-08-28T08:25:48.690851"}, "geometry": {"coordinates": [-106.0325055763, 34.5960204263], "type": "Point"}, "id": "odVLQS-kMEjDhMfNAREKFqKsrY4=", "properties": {"@spider": "usps_collection_boxes", "addr:city": "WILLARD", "addr:country": "US", "addr:full": "712 N DUNLAVY AVE", "addr:postcode": "87063", "addr:state": "NM", "amenity": "post_box", "brand": "United States Postal Service", "brand:wikidata": "Q668687", "collection_times": "Mo-Fr 11:45; Sa 10:30", "name": "USPS COLLECTION BOX - PO LOBBY", "nsi_id": "unitedstatespostalservice-a77078", "operator": "United States Postal Service", "operator:short": "USPS", "operator:type": "public", "operator:wikidata": "Q668687", "ref": "8706300002"}, "type": "Feature"}
{"dataset_attributes": {"@spider": "usps_collection_boxes", "spider:collection_time": "2023-08-28T08:25:48.690851"}, "geometry": {"coordinates": [-106.5598119282, 36.1885399531], "type": "Point"}, "id": "Eo5EMKq0zkFhY38xamP2dIUCpvg=", "properties": {"@spider": "usps_collection_boxes", "addr:city": "YOUNGSVILLE", "addr:country": "US", "addr:full": "3774 STATE HIGHWAY 96", "addr:postcode": "87064", "addr:state": "NM", "amenity": "post_box", "brand": "United States Postal Service", "brand:wikidata": "Q668687", "collection_times": "Mo-Sa 10:45", "name": "USPS COLLECTION BOX - BLUE BOX", "nsi_id": "unitedstatespostalservice-a77078", "operator": "United States Postal Service", "operator:short": "USPS", "operator:type": "public", "operator:wikidata": "Q668687", "ref": "8706400001"}, "type": "Feature"}
{"dataset_attributes": {"@spider": "usps_collection_boxes", "spider:collection_time": "2023-08-28T08:25:48.690851"}, "geometry": {"coordinates": [-106.5598119282, 36.1885399531], "type": "Point"}, "id": "zGNb0ZW684ancD7oGjt-9bNbdGk=", "properties": {"@spider": "usps_collection_boxes", "addr:city": "YOUNGSVILLE", "addr:country": "US", "addr:full": "3774 STATE HIGHWAY 96", "addr:postcode": "87064", "addr:state": "NM", "amenity": "post_box", "brand": "United States Postal Service", "brand:wikidata": "Q668687", "collection_times": "Mo-Sa 10:45", "name": "USPS COLLECTION BOX - PO LOBBY", "nsi_id": "unitedstatespostalservice-a77078", "operator": "United States Postal Service", "operator:short": "USPS", "operator:type": "public", "operator:wikidata": "Q668687", "ref": "8706400002"}, "type": "Feature"}
{"dataset_attributes": {"@spider": "usps_collection_boxes", "spider:collection_time": "2023-08-28T08:25:48.690851"}, "geometry": {"coordinates": [-106.5598119282, 36.1885399531], "type": "Point"}, "id": "Rfh6wzFZSdXktU3mHWIuq_V4JHY=", "properties": {"@spider": "usps_collection_boxes", "addr:city": "YOUNGSVILLE", "addr:country": "US", "addr:full": "3774 STATE HIGHWAY 96", "addr:postcode": "87064", "addr:state": "NM", "amenity": "post_box", "brand": "United States Postal Service", "brand:wikidata": "Q668687", "collection_times": "Mo-Sa 10:45", "name": "USPS COLLECTION BOX - PO LOBBY", "nsi_id": "unitedstatespostalservice-a77078", "operator": "United States Postal Service", "operator:short": "USPS", "operator:type": "public", "operator:wikidata": "Q668687", "ref": "8706400003"}, "type": "Feature"}
{"dataset_attributes": {"@spider": "usps_collection_boxes", "spider:collection_time": "2023-08-28T08:25:48.690851"}, "geometry": {"coordinates": [-106.7067699724, 34.8536799917], "type": "Point"}, "id": "hs5_a1BiGMzNQzDtbeTQO90g_4s=", "properties": {"@spider": "usps_collection_boxes", "addr:city": "BOSQUE FARMS", "addr:country": "US", "addr:full": "1455 W BOSQUE LOOP", "addr:postcode": "87068", "addr:state": "NM", "amenity": "post_box", "brand": "United States Postal Service", "brand:wikidata": "Q668687", "collection_times": "Mo-Fr 11:30", "name": "USPS COLLECTION BOX - BLUE BOX", "nsi_id": "unitedstatespostalservice-a77078", "operator": "United States Postal Service", "operator:short": "USPS", "operator:type": "public", "operator:wikidata": "Q668687", "ref": "8706800001"}, "type": "Feature"}
