{"geometry": {"coordinates": [-106.642834649, 35.0931584691], "type": "Point"}, "id": "Nn_MAXTUymWmH1wmL5nB7Rkdj8I=", "properties": {"@source_uri": "https://tools.usps.com/UspsToolsRestServices/rest/POLocator/findLocations", "@spider": "usps_collection_boxes", "addr:city": "ALBUQUERQUE", "addr:country": "US", "addr:postcode": "87101", "addr:state": "NM", "addr:street_address": "1135 BROADWAY BLVD NE STE 180", "amenity": "post_box", "collection_times": "Mo-Fr 17:30; Sa 12:00", "indoor": "yes", "note": "ON 12/24 AND 12/31, THIS BOX MAY BE COLLECTED AS EARLY AS 12 NOON.", "nsi_id": "unitedstatespostalservice-a77078", "operator": "United States Postal Service", "operator:short": "USPS", "operator:type": "public", "operator:wikidata": "Q668687", "ref": "8710100001"}, "type": "Feature"}
{"geometry": {"coordinates": [-106.642789, 35.093397], "type": "Point"}, "id": "YyodJQXGdFvthffw4hJbg5tbnKQ=", "properties": {"@source_uri": "https://tools.usps.com/UspsToolsRestServices/rest/POLocator/findLocations", "@spider": "usps_collection_boxes", "addr:city": "ALBUQUERQUE", "addr:country": "US", "addr:postcode": "87102", "addr:state": "NM", "addr:street_address": "1135 BROADWAY BLVD NE", "amenity": "post_box", "collection_times": "Mo-Sa 18:30", "note": "ON 12/24 AND 12/31, THIS BOX MAY BE COLLECTED AS EARLY AS 12 NOON.", "nsi_id": "unitedstatespostalservice-a77078", "operator": "United States Postal Service", "operator:short": "USPS", "operator:type": "public", "operator:wikidata": "Q668687", "ref": "8710200001"}, "type": "Feature"}
{"geometry": {"coordinates": [-106.643999995, 35.0937719807], "type": "Point"}, "id": "B9NMHWMfkbAXs2jwJRW218fB15w=", "properties": {"@source_uri": "https://tools.usps.com/UspsToolsRestServices/rest/POLocator/findLocations", "@spider": "usps_collection_boxes", "addr:city": "ALBUQUERQUE", "addr:country": "US", "addr:postcode": "87102", "addr:state": "NM", "addr:street_address": "1135 BROADWAY BLVD NE", "amenity": "post_box", "collection_times": "Mo-Sa 18:30", "note": "ON 12/24 AND 12/31, THIS BOX MAY BE COLLECTED AS EARLY AS 12 NOON.", "nsi_id": "unitedstatespostalservice-a77078", "operator": "United States Postal Service", "operator:short": "USPS", "operator:type": "public", "operator:wikidata": "Q668687", "ref": "8710200002"}, "type": "Feature"}
{"geometry": {"coordinates": [-106.6504095, 35.083638], "type": "Point"}, "id": "8LQmHiBElEt0hBYjpkY7xkwkYNs=", "properties": {"@source_uri": "https://tools.usps.com/UspsToolsRestServices/rest/POLocator/findLocations", "@spider": "usps_collection_boxes", "addr:city": "ALBUQUERQUE", "addr:country": "US", "addr:postcode": "87102", "addr:state": "NM", "addr:street_address": "225 GOLD AVE SW", "amenity": "post_box", "collection_times": "Mo-Fr 14:00", "note": "ON 12/24 AND 12/31, THIS BOX MAY BE COLLECTED AS EARLY AS 12 NOON.", "nsi_id": "unitedstatespostalservice-a77078", "operator": "United States Postal Service", "operator:short": "USPS", "operator:type": "public", "operator:wikidata": "Q668687", "ref": "8710200009"}, "type": "Feature"}
{"geometry": {"coordinates": [-106.650153, 35.084637], "type": "Point"}, "id": "zysaCy1v4suSeY2EhjOPlYVNOM0=", "properties": {"@source_uri": "https://tools.usps.com/UspsToolsRestServices/rest/POLocator/findLocations", "@spider": "usps_collection_boxes", "addr:city": "ALBUQUERQUE", "addr:country": "US", "addr:postcode": "87102", "addr:state": "NM", "addr:street_address": "219 CENTRAL AVE NW", "amenity": "post_box", "collection_times": "Mo-Fr 11:30", "nsi_id": "unitedstatespostalservice-a77078", "operator": "United States Postal Service", "operator:short": "USPS", "operator:type": "public", "operator:wikidata": "Q668687", "ref": "8710200010"}, "type": "Feature"}
{"geometry": {"coordinates": [-106.633955, 35.087698], "type": "Point"}, "id": "lylGNmrfI8zRQwkJHW71tMfEev8=", "properties": {"@source_uri": "https://tools.usps.com/UspsToolsRestServices/rest/POLocator/findLocations", "@spider": "usps_collection_boxes", "addr:city": "ALBUQUERQUE", "addr:country": "US", "addr:postcode": "87102", "addr:state": "NM", "addr:street_address": "609 ENCINO PL NE", "amenity": "post_box", "collection_times": "Mo-Sa 11:30", "nsi_id": "unitedstatespostalservice-a77078", "operator": "United States Postal Service", "operator:short": "USPS", "operator:type": "public", "operator:wikidata": "Q668687", "ref": "8710200021"}, "type": "Feature"}
{"geometry": {"coordinates": [-106.62533, 35.092039], "type": "Point"}, "id": "adWRooNxbK8p8SH3K4lUxs6Ca2E=", "properties": {"@source_uri": "https://tools.usps.com/UspsToolsRestServices/rest/POLocator/findLocations", "@spider": "usps_collection_boxes", "addr:city": "ALBUQUERQUE", "addr:country": "US", "addr:postcode": "87102", "addr:state": "NM", "addr:street_address": "1128 UNIVERSITY BLVD NE", "amenity": "post_box", "collection_times": "Mo-Fr 12:00", "nsi_id": "unitedstatespostalservice-a77078", "operator": "United States Postal Service", "operator:short": "USPS", "operator:type": "public", "operator:wikidata": "Q668687", "ref": "8710200043"}, "type": "Feature"}
{"geometry": {"coordinates": [-106.643999995, 35.0937719807], "type": "Point"}, "id": "pUIEpXLYUEsD-bBLFKDN_7obEFo=", "properties": {"@source_uri": "https://tools.usps.com/UspsToolsRestServices/rest/POLocator/findLocations", "@spider": "usps_collection_boxes", "addr:city": "ALBUQUERQUE", "addr:country": "US", "addr:postcode": "87102", "addr:state": "NM", "addr:street_address": "1135 BROADWAY BLVD NE", "amenity": "post_box", "collection_times": "Mo-Sa 18:30", "note": "ON 12/24 AND 12/31, THIS BOX MAY BE COLLECTED AS EARLY AS 12 NOON.", "nsi_id": "unitedstatespostalservice-a77078", "operator": "United States Postal Service", "operator:short": "USPS", "operator:type": "public", "operator:wikidata": "Q668687", "ref": "8710200053"}, "type": "Feature"}
{"geometry": {"coordinates": [-106.6431322546, 35.0908903065], "type": "Point"}, "id": "x-PaqMt0FYYWx1ztUbXOf7hn9ew=", "properties": {"@source_uri": "https://tools.usps.com/UspsToolsRestServices/rest/POLocator/findLocations", "@spider": "usps_collection_boxes", "addr:city": "ALBUQUERQUE", "addr:country": "US", "addr:postcode": "87102", "addr:state": "NM", "addr:street_address": "800B BROADWAY BLVD NE", "amenity": "post_box", "collection_times": "Mo-Sa 17:00", "note": "ON 12/24 AND 12/31, THIS BOX MAY BE COLLECTED AS EARLY AS 12 NOON.", "nsi_id": "unitedstatespostalservice-a77078", "operator": "United States Postal Service", "operator:short": "USPS", "operator:type": "public", "operator:wikidata": "Q668687", "ref": "8710200057"}, "type": "Feature"}
{"geometry": {"coordinates": [-106.65531, 35.086075], "type": "Point"}, "id": "0HccCCPk1ZTMsUE9D5pMO6Tx0ZA=", "properties": {"@source_uri": "https://tools.usps.com/UspsToolsRestServices/rest/POLocator/findLocations", "@spider": "usps_collection_boxes", "addr:city": "ALBUQUERQUE", "addr:country": "US", "addr:postcode": "87102", "addr:state": "NM", "addr:street_address": "201 5TH ST SW", "amenity": "post_box", "collection_times": "Mo-Sa 17:00", "note": "ON 12/24 AND 12/31, THIS BOX MAY BE COLLECTED AS EARLY AS 12 NOON.", "nsi_id": "unitedstatespostalservice-a77078", "operator": "United States Postal Service", "operator:short": "USPS", "operator:type": "public", "operator:wikidata": "Q668687", "ref": "8710200069"}, "type": "Feature"}
{"geometry": {"coordinates": [-106.6446062239, 35.0842923486], "type": "Point"}, "id": "bsllwJON8XsILHIrznmK8TJP-5M=", "properties": {"@source_uri": "https://tools.usps.com/UspsToolsRestServices/rest/POLocator/findLocations", "@spider": "usps_collection_boxes", "addr:city": "ALBUQUERQUE", "addr:country": "US", "addr:postcode": "87102", "addr:state": "NM", "addr:street_address": "101 BROADWAY BLVD NE", "amenity": "post_box", "collection_times": "Mo-Fr 11:30", "nsi_id": "unitedstatespostalservice-a77078", "operator": "United States Postal Service", "operator:short": "USPS", "operator:type": "public", "operator:wikidata": "Q668687", "ref": "8710200074"}, "type": "Feature"}
{"geometry": {"coordinates": [-106.654957, 35.082957], "type": "Point"}, "id": "atno1jfgomm8kXXShqdt7v1AwAA=", "properties": {"@source_uri": "https://tools.usps.com/UspsToolsRestServices/rest/POLocator/findLocations", "@spider": "usps_collection_boxes", "addr:city": "ALBUQUERQUE", "addr:country": "US", "addr:postcode": "87102", "addr:state": "NM", "addr:street_address": "625 SILVER AVE SW", "amenity": "post_box", "collection_times": "Mo-Fr 17:00", "note": "ON 12/24 AND 12/31, THIS BOX MAY BE COLLECTED AS EARLY AS 12 NOON.", "nsi_id": "unitedstatespostalservice-a77078", "operator": "United States Postal Service", "operator:short": "USPS", "operator:type": "public", "operator:wikidata": "Q668687", "ref": "8710200092"}, "type": "Feature"}
{"geometry": {"coordinates": [-106.645898, 35.086105], "type": "Point"}, "id": "iRA0eJ1ghe6TWQ_PEWRx71Bf4q8=", "properties": {"@source_uri": "https://tools.usps.com/UspsToolsRestServices/rest/POLocator/findLocations", "@spider": "usps_collection_boxes", "addr:city": "ALBUQUERQUE", "addr:country": "US", "addr:postcode": "87102", "addr:state": "NM", "addr:street_address": "121 TIJERAS AVE NE", "amenity": "post_box", "collection_times": "Mo-Fr 10:00", "nsi_id": "unitedstatespostalservice-a77078", "operator": "United States Postal Service", "operator:short": "USPS", "operator:type": "public", "operator:wikidata": "Q668687", "ref": "8710200095"}, "type": "Feature"}
{"geometry": {"coordinates": [-106.642789, 35.093398], "type": "Point"}, "id": "nV5gyXti-Mj7_vhJEuzgJWoYn-Y=", "properties": {"@source_uri": "https://tools.usps.com/UspsToolsRestServices/rest/POLocator/findLocations", "@spider": "usps_collection_boxes", "addr:city": "ALBUQUERQUE", "addr:country": "US", "addr:postcode": "87102", "addr:state": "NM", "addr:street_address": "1135 BROADWAY BLVD NE", "amenity": "post_box", "collection_times": "Mo-Fr 19:00; Sa 18:00", "indoor": "yes", "note": "ON 12/24 AND 12/31, THIS BOX MAY BE COLLECTED AS EARLY AS 12 NOON.", "nsi_id": "unitedstatespostalservice-a77078", "operator": "United States Postal Service", "operator:short": "USPS", "operator:type": "public", "operator:wikidata": "Q668687", "ref": "8710200096"}, "type": "Feature"}
{"geometry": {"coordinates": [-106.653028, 35.08366], "type": "Point"}, "id": "mZi0dxqcoF4-VRGUOf96a05uiu0=", "properties": {"@source_uri": "https://tools.usps.com/UspsToolsRestServices/rest/POLocator/findLocations", "@spider": "usps_collection_boxes", "addr:city": "ALBUQUERQUE", "addr:country": "US", "addr:postcode": "87102", "addr:state": "NM", "addr:street_address": "201 5TH ST SW", "amenity": "post_box", "collection_times": "Mo-Fr 16:30", "indoor": "yes", "note": "ON 12/24 AND 12/31, THIS BOX MAY BE COLLECTED AS EARLY AS 12 NOON.", "nsi_id": "unitedstatespostalservice-a77078", "operator": "United States Postal Service", "operator:short": "USPS", "operator:type": "public", "operator:wikidata": "Q668687", "ref": "8710200099"}, "type": "Feature"}
{"geometry": {"coordinates": [-106.653028, 35.08366], "type": "Point"}, "id": "H1LA0r13vJXSlXA6CqIJ-KfRCcw=", "properties": {"@source_uri": "https://tools.usps.com/UspsToolsRestServices/rest/POLocator/findLocations", "@spider": "usps_collection_boxes", "addr:city": "ALBUQUERQUE", "addr:country": "US", "addr:postcode": "87102", "addr:state": "NM", "addr:street_address": "201 5TH ST SW", "amenity": "post_box", "collection_times": "Mo-Fr 16:30", "indoor": "yes", "note": "ON 12/24 AND 12/31, THIS BOX MAY BE COLLECTED AS EARLY AS 12 NOON.", "nsi_id": "unitedstatespostalservice-a77078", "operator": "United States Postal Service", "operator:short": "USPS", "operator:type": "public", "operator:wikidata": "Q668687", "ref": "8710200100"}, "type": "Feature"}
{"geometry": {"coordinates": [-106.649225, 35.086306], "type": "Point"}, "id": "RI1iaaA2F9eM0vDf_rPbCpB8xmE=", "properties": {"@source_uri": "https://tools.usps.com/UspsToolsRestServices/rest/POLocator/findLocations", "@spider": "usps_collection_boxes", "addr:city": "ALBUQUERQUE", "addr:country": "US", "addr:postcode": "87102", "addr:state": "NM", "addr:street_address": "40 FIRST PLAZA CTR NW STE 240", "amenity": "post_box", "collection_times": "Mo-Fr 15:00", "indoor": "yes", "note": "ON 12/24 AND 12/31, THIS BOX MAY BE COLLECTED AS EARLY AS 12 NOON.", "nsi_id": "unitedstatespostalservice-a77078", "operator": "United States Postal Service", "operator:short": "USPS", "operator:type": "public", "operator:wikidata": "Q668687", "ref": "8710200102"}, "type": "Feature"}
{"geometry": {"coordinates": [-106.648968, 35.085765], "type": "Point"}, "id": "PfbHQgkcCSm_Zar0K6cPj_o9wX4=", "properties": {"@source_uri": "https://tools.usps.com/UspsToolsRestServices/rest/POLocator/findLocations", "@spider": "usps_collection_boxes", "addr:city": "ALBUQUERQUE", "addr:country": "US", "addr:postcode": "87102", "addr:state": "NM", "addr:street_address": "40 FIRST PLAZA CTR NW STE 240", "amenity": "post_box", "collection_times": "Mo-Fr 15:00", "indoor": "yes", "note": "ON 12/24 AND 12/31, THIS BOX MAY BE COLLECTED AS EARLY AS 12 NOON.", "nsi_id": "unitedstatespostalservice-a77078", "operator": "United States Postal Service", "operator:short": "USPS", "operator:type": "public", "operator:wikidata": "Q668687", "ref": "8710200103"}, "type": "Feature"}
{"geometry": {"coordinates": [-106.651881, 35.091166], "type": "Point"}, "id": "EEcPcDjym6ZODUihtgsYiM4HS54=", "properties": {"@source_uri": "https://tools.usps.com/UspsToolsRestServices/rest/POLocator/findLocations", "@spider": "usps_collection_boxes", "addr:city": "ALBUQUERQUE", "addr:country": "US", "addr:postcode": "87102", "addr:state": "NM", "addr:street_address": "520 LOMAS BLVD NW", "amenity": "post_box", "collection_times": "Mo-Fr 17:00", "note": "ON 12/24 AND 12/31, THIS BOX MAY BE COLLECTED AS EARLY AS 12 NOON.", "nsi_id": "unitedstatespostalservice-a77078", "operator": "United States Postal Service", "operator:short": "USPS", "operator:type": "public", "operator:wikidata": "Q668687", "ref": "8710200104"}, "type": "Feature"}
{"geometry": {"coordinates": [-106.6490011252, 35.0857566737], "type": "Point"}, "id": "_3S32yHlGmhrSnD36zi8qpG30iU=", "properties": {"@source_uri": "https://tools.usps.com/UspsToolsRestServices/rest/POLocator/findLocations", "@spider": "usps_collection_boxes", "addr:city": "ALBUQUERQUE", "addr:country": "US", "addr:postcode": "87102", "addr:state": "NM", "addr:street_address": "40 FIRST PLAZA CTR NW STE 38", "amenity": "post_box", "collection_times": "Mo-Sa 14:00", "note": "ON 12/24 AND 12/31, THIS BOX MAY BE COLLECTED AS EARLY AS 12 NOON.", "nsi_id": "unitedstatespostalservice-a77078", "operator": "United States Postal Service", "operator:short": "USPS", "operator:type": "public", "operator:wikidata": "Q668687", "ref": "8710200117"}, "type": "Feature"}
{"geometry": {"coordinates": [-106.6490011252, 35.0857566737], "type": "Point"}, "id": "e_wKureFFkK_T_FfPiqJby-7rzI=", "properties": {"@source_uri": "https://tools.usps.com/UspsToolsRestServices/rest/POLocator/findLocations", "@spider": "usps_collection_boxes", "addr:city": "ALBUQUERQUE", "addr:country": "US", "addr:postcode": "87102", "addr:state": "NM", "addr:street_address": "40 FIRST PLAZA CTR NW STE 240", "amenity": "post_box", "collection_times": "Mo-Fr 15:00", "indoor": "yes", "note": "ON 12/24 AND 12/31, THIS BOX MAY BE COLLECTED AS EARLY AS 12 NOON.", "nsi_id": "unitedstatespostalservice-a77078", "operator": "United States Postal Service", "operator:short": "USPS", "operator:type": "public", "operator:wikidata": "Q668687", "ref": "8710200120"}, "type": "Feature"}
{"geometry": {"coordinates": [-106.6530504071, 35.0836902567], "type": "Point"}, "id": "14E4c2fgDQ1UiTKrOBtC4sLuWjE=", "properties": {"@source_uri": "https://tools.usps.com/UspsToolsRestServices/rest/POLocator/findLocations", "@spider": "usps_collection_boxes", "addr:city": "ALBUQUERQUE", "addr:country": "US", "addr:postcode": "87102", "addr:state": "NM", "addr:street_address": "201 5TH ST SW", "amenity": "post_box", "collection_times": "Mo-Fr 16:30", "indoor": "yes", "note": "ON 12/24 AND 12/31, THIS BOX MAY BE COLLECTED AS EARLY AS 12 NOON.", "nsi_id": "unitedstatespostalservice-a77078", "operator": "United States Postal Service", "operator:short": "USPS", "operator:type": "public", "operator:wikidata": "Q668687", "ref": "8710200121"}, "type": "Feature"}
{"geometry": {"coordinates": [-106.669843, 35.093841], "type": "Point"}, "id": "uzN6hx1PL-WcYC0bcFCHu9t4oq4=", "properties": {"@source_uri": "https://tools.usps.com/UspsToolsRestServices/rest/POLocator/findLocations", "@spider": "usps_collection_boxes", "addr:city": "ALBUQUERQUE", "addr:country": "US", "addr:postcode": "87104", "addr:state": "NM", "addr:street_address": "2016 CENTRAL AVE SW", "amenity": "post_box", "collection_times": "Mo-Sa 17:00", "note": "ON 12/24 AND 12/31, THIS BOX MAY BE COLLECTED AS EARLY AS 12 NOON.", "nsi_id": "unitedstatespostalservice-a77078", "operator": "United States Postal Service", "operator:short": "USPS", "operator:type": "public", "operator:wikidata": "Q668687", "ref": "8710400002"}, "type": "Feature"}
{"geometry": {"coordinates": [-106.671336, 35.103237], "type": "Point"}, "id": "lC_xZfsMmJBVanRmioWank6ZvC0=", "properties": {"@source_uri": "https://tools.usps.com/UspsToolsRestServices/rest/POLocator/findLocations", "@spider": "usps_collection_boxes", "addr:city": "ALBUQUERQUE", "addr:country": "US", "addr:postcode": "87104", "addr:state": "NM", "addr:street_address": "901 RIO GRANDE BLVD NW", "amenity": "post_box", "collection_times": "Mo-Sa 10:00", "nsi_id": "unitedstatespostalservice-a77078", "operator": "United States Postal Service", "operator:short": "USPS", "operator:type": "public", "operator:wikidata": "Q668687", "ref": "8710400004"}, "type": "Feature"}
{"geometry": {"coordinates": [-106.669737, 35.093935], "type": "Point"}, "id": "rNYBesqCG5pzXUXDYHc5Bd9An8I=", "properties": {"@source_uri": "https://tools.usps.com/UspsToolsRestServices/rest/POLocator/findLocations", "@spider": "usps_collection_boxes", "addr:city": "ALBUQUERQUE", "addr:country": "US", "addr:postcode": "87104", "addr:state": "NM", "addr:street_address": "2016 CENTRAL AVE SW", "amenity": "post_box", "collection_times": "Mo-Fr 16:00", "indoor": "yes", "note": "ON 12/24 AND 12/31, THIS BOX MAY BE COLLECTED AS EARLY AS 12 NOON.", "nsi_id": "unitedstatespostalservice-a77078", "operator": "United States Postal Service", "operator:short": "USPS", "operator:type": "public", "operator:wikidata": "Q668687", "ref": "8710400016"}, "type": "Feature"}
{"geometry": {"coordinates": [-106.669737, 35.093935], "type": "Point"}, "id": "iwi1aXHliDzT482tQUU0XyCu1Kk=", "properties": {"@source_uri": "https://tools.usps.com/UspsToolsRestServices/rest/POLocator/findLocations", "@spider": "usps_collection_boxes", "addr:city": "ALBUQUERQUE", "addr:country": "US", "addr:postcode": "87104", "addr:state": "NM", "addr:street_address": "2016 CENTRAL AVE SW", "amenity": "post_box", "collection_times": "Mo-Fr 16:00", "indoor": "yes", "note": "ON 12/24 AND 12/31, THIS BOX MAY BE COLLECTED AS EARLY AS 12 NOON.", "nsi_id": "unitedstatespostalservice-a77078", "operator": "United States Postal Service", "operator:short": "USPS", "operator:type": "public", "operator:wikidata": "Q668687", "ref": "8710400020"}, "type": "Feature"}
{"geometry": {"coordinates": [-106.670571, 35.096479], "type": "Point"}, "id": "UUEtURwqSTg2UJVhKqEs20dUPWw=", "properties": {"@source_uri": "https://tools.usps.com/UspsToolsRestServices/rest/POLocator/findLocations", "@spider": "usps_collection_boxes", "addr:city": "ALBUQUERQUE", "addr:country": "US", "addr:postcode": "87104", "addr:state": "NM", "addr:street_address": "303 ROMERO ST NW STE 108", "amenity": "post_box", "collection_times": "Mo-Fr 16:00; Sa 15:00", "indoor": "yes", "note": "ON 12/24 AND 12/31, THIS BOX MAY BE COLLECTED AS EARLY AS 12 NOON.", "nsi_id": "unitedstatespostalservice-a77078", "operator": "United States Postal Service", "operator:short": "USPS", "operator:type": "public", "operator:wikidata": "Q668687", "ref": "8710400022"}, "type": "Feature"}
{"geometry": {"coordinates": [-106.670571, 35.096455], "type": "Point"}, "id": "oIoCSCHt3H4P99yLIGct2pB6Sfg=", "properties": {"@source_uri": "https://tools.usps.com/UspsToolsRestServices/rest/POLocator/findLocations", "@spider": "usps_collection_boxes", "addr:city": "ALBUQUERQUE", "addr:country": "US", "addr:postcode": "87104", "addr:state": "NM", "addr:street_address": "303 ROMERO ST NW STE 108", "amenity": "post_box", "collection_times": "Mo-Fr 16:00; Sa 15:00", "indoor": "yes", "note": "ON 12/24 AND 12/31, THIS BOX MAY BE COLLECTED AS EARLY AS 12 NOON.", "nsi_id": "unitedstatespostalservice-a77078", "operator": "United States Postal Service", "operator:short": "USPS", "operator:type": "public", "operator:wikidata": "Q668687", "ref": "8710400023"}, "type": "Feature"}
{"geometry": {"coordinates": [-106.6703975798, 35.096625], "type": "Point"}, "id": "1bbnwFvCmuala-hh9l7nGDTCAZQ=", "properties": {"@source_uri": "https://tools.usps.com/UspsToolsRestServices/rest/POLocator/findLocations", "@spider": "usps_collection_boxes", "addr:city": "ALBUQUERQUE", "addr:country": "US", "addr:postcode": "87104", "addr:state": "NM", "addr:street_address": "303 ROMERO ST NW STE S108", "amenity": "post_box", "collection_times": "Mo-Fr 15:15; Sa 14:45", "indoor": "yes", "note": "ON 12/24 AND 12/31, THIS BOX MAY BE COLLECTED AS EARLY AS 12 NOON.", "nsi_id": "unitedstatespostalservice-a77078", "operator": "United States Postal Service", "operator:short": "USPS", "operator:type": "public", "operator:wikidata": "Q668687", "ref": "8710400024"}, "type": "Feature"}
{"geometry": {"coordinates": [-106.6697186523, 35.0939161168], "type": "Point"}, "id": "yKfqd_aBXFH2qj8SQ0ysTCFirHE=", "properties": {"@source_uri": "https://tools.usps.com/UspsToolsRestServices/rest/POLocator/findLocations", "@spider": "usps_collection_boxes", "addr:city": "ALBUQUERQUE", "addr:country": "US", "addr:postcode": "87104", "addr:state": "NM", "addr:street_address": "2016 CENTRAL AVE SW", "amenity": "post_box", "collection_times": "Mo-Fr 16:00", "indoor": "yes", "note": "ON 12/24 AND 12/31, THIS BOX MAY BE COLLECTED AS EARLY AS 12 NOON.", "nsi_id": "unitedstatespostalservice-a77078", "operator": "United States Postal Service", "operator:short": "USPS", "operator:type": "public", "operator:wikidata": "Q668687", "ref": "8710400025"}, "type": "Feature"}
{"geometry": {"coordinates": [-106.69648, 35.08739], "type": "Point"}, "id": "soAg0MMNq5rLdFLf19Buzeq85ss=", "properties": {"@source_uri": "https://tools.usps.com/UspsToolsRestServices/rest/POLocator/findLocations", "@spider": "usps_collection_boxes", "addr:city": "ALBUQUERQUE", "addr:country": "US", "addr:postcode": "87105", "addr:state": "NM", "addr:street_address": "3733 ISLETA BLVD SW", "amenity": "post_box", "collection_times": "Mo-Sa 10:00", "nsi_id": "unitedstatespostalservice-a77078", "operator": "United States Postal Service", "operator:short": "USPS", "operator:type": "public", "operator:wikidata": "Q668687", "ref": "8710500009"}, "type": "Feature"}
{"geometry": {"coordinates": [-106.682299, 35.028229], "type": "Point"}, "id": "z5lIemmomXVHV8D0wnPJhFLQLjs=", "properties": {"@source_uri": "https://tools.usps.com/UspsToolsRestServices/rest/POLocator/findLocations", "@spider": "usps_collection_boxes", "addr:city": "ALBUQUERQUE", "addr:country": "US", "addr:postcode": "87105", "addr:state": "NM", "addr:street_address": "1625 RIO BRAVO BLVD SW", "amenity": "post_box", "collection_times": "Mo-Sa 10:00", "nsi_id": "unitedstatespostalservice-a77078", "operator": "United States Postal Service", "operator:short": "USPS", "operator:type": "public", "operator:wikidata": "Q668687", "ref": "8710500010"}, "type": "Feature"}
{"geometry": {"coordinates": [-106.6745605356, 35.0652266092], "type": "Point"}, "id": "Y8SMHP_g9FQAFjI-aML6-Ttcs-8=", "properties": {"@source_uri": "https://tools.usps.com/UspsToolsRestServices/rest/POLocator/findLocations", "@spider": "usps_collection_boxes", "addr:city": "ALBUQUERQUE", "addr:country": "US", "addr:postcode": "87105", "addr:state": "NM", "addr:street_address": "1050 SUNSET RD SW", "amenity": "post_box", "collection_times": "Mo-Fr 17:30; Sa 17:00", "note": "ON 12/24 AND 12/31, THIS BOX MAY BE COLLECTED AS EARLY AS 12 NOON.", "nsi_id": "unitedstatespostalservice-a77078", "operator": "United States Postal Service", "operator:short": "USPS", "operator:type": "public", "operator:wikidata": "Q668687", "ref": "8710500012"}, "type": "Feature"}
{"geometry": {"coordinates": [-106.6745605356, 35.0652266092], "type": "Point"}, "id": "6Bhls3HTVTYNoWXJHEnPy2Rdg1Q=", "properties": {"@source_uri": "https://tools.usps.com/UspsToolsRestServices/rest/POLocator/findLocations", "@spider": "usps_collection_boxes", "addr:city": "ALBUQUERQUE", "addr:country": "US", "addr:postcode": "87105", "addr:state": "NM", "addr:street_address": "1050 SUNSET RD SW", "amenity": "post_box", "collection_times": "Mo-Fr 17:30; Sa 16:15", "indoor": "yes", "note": "ON 12/24 AND 12/31, THIS BOX MAY BE COLLECTED AS EARLY AS 12 NOON.", "nsi_id": "unitedstatespostalservice-a77078", "operator": "United States Postal Service", "operator:short": "USPS", "operator:type": "public", "operator:wikidata": "Q668687", "ref": "8710500023"}, "type": "Feature"}
{"geometry": {"coordinates": [-106.6745605356, 35.0652266092], "type": "Point"}, "id": "Upz61Y1IVntScjpHzKNXwD6JcQ8=", "properties": {"@source_uri": "https://tools.usps.com/UspsToolsRestServices/rest/POLocator/findLocations", "@spider": "usps_collection_boxes", "addr:city": "ALBUQUERQUE", "addr:country": "US", "addr:postcode": "87105", "addr:state": "NM", "addr:street_address": "1050 SUNSET RD SW", "amenity": "post_box", "collection_times": "Mo-Fr 17:30; Sa 16:15", "indoor": "yes", "note": "ON 12/24 AND 12/31, THIS BOX MAY BE COLLECTED AS EARLY AS 12 NOON.", "nsi_id": "unitedstatespostalservice-a77078", "operator": "United States Postal Service", "operator:short": "USPS", "operator:type": "public", "operator:wikidata": "Q668687", "ref": "8710500024"}, "type": "Feature"}
{"geometry": {"coordinates": [-106.7126170205, 35.081916994], "type": "Point"}, "id": "6InBCp8paDNlX_qMPiLRI9fxcJI=", "properties": {"@source_uri": "https://tools.usps.com/UspsToolsRestServices/rest/POLocator/findLocations", "@spider": "usps_collection_boxes", "addr:city": "ALBUQUERQUE", "addr:country": "US", "addr:postcode": "87105", "addr:state": "NM", "addr:street_address": "111 COORS BLVD NW", "amenity": "post_box", "collection_times": "Mo-Sa 12:00", "nsi_id": "unitedstatespostalservice-a77078", "operator": "United States Postal Service", "operator:short": "USPS", "operator:type": "public", "operator:wikidata": "Q668687", "ref": "8710500033"}, "type": "Feature"}
{"geometry": {"coordinates": [-106.6745605356, 35.0652266092], "type": "Point"}, "id": "2LAC5n3dJO1fIKPoKD42iYb2lcw=", "properties": {"@source_uri": "https://tools.usps.com/UspsToolsRestServices/rest/POLocator/findLocations", "@spider": "usps_collection_boxes", "addr:city": "ALBUQUERQUE", "addr:country": "US", "addr:postcode": "87105", "addr:state": "NM", "addr:street_address": "1050 SUNSET RD SW", "amenity": "post_box", "collection_times": "Mo-Fr 16:45; Sa 12:45", "indoor": "yes", "note": "ON 12/24 AND 12/31, THIS BOX MAY BE COLLECTED AS EARLY AS 12 NOON.", "nsi_id": "unitedstatespostalservice-a77078", "operator": "United States Postal Service", "operator:short": "USPS", "operator:type": "public", "operator:wikidata": "Q668687", "ref": "8710500034"}, "type": "Feature"}
{"geometry": {"coordinates": [-106.6048109935, 35.07952702], "type": "Point"}, "id": "yoxqSubSNOgjurFuZj_ucIxACRE=", "properties": {"@source_uri": "https://tools.usps.com/UspsToolsRestServices/rest/POLocator/findLocations", "@spider": "usps_collection_boxes", "addr:city": "ALBUQUERQUE", "addr:country": "US", "addr:postcode": "87106", "addr:state": "NM", "addr:street_address": "3500 CENTRAL AVE SE", "amenity": "post_box", "collection_times": "Mo-Fr 12:55; Sa 12:50", "note": "ON 12/24 AND 12/31, THIS BOX MAY BE COLLECTED AS EARLY AS 12 NOON.", "nsi_id": "unitedstatespostalservice-a77078", "operator": "United States Postal Service", "operator:short": "USPS", "operator:type": "public", "operator:wikidata": "Q668687", "ref": "8710600003"}, "type": "Feature"}
{"geometry": {"coordinates": [-106.634038, 35.080945], "type": "Point"}, "id": "VCSQfkw99ZAigemha4v57Q3yVKc=", "properties": {"@source_uri": "https://tools.usps.com/UspsToolsRestServices/rest/POLocator/findLocations", "@spider": "usps_collection_boxes", "addr:city": "ALBUQUERQUE", "addr:country": "US", "addr:postcode": "87106", "addr:state": "NM", "addr:street_address": "201 CEDAR ST SE", "amenity": "post_box", "collection_times": "Mo-Sa 12:15", "note": "ON 12/24 AND 12/31, THIS BOX MAY BE COLLECTED AS EARLY AS 12 NOON.", "nsi_id": "unitedstatespostalservice-a77078", "operator": "United States Postal Service", "operator:short": "USPS", "operator:type": "public", "operator:wikidata": "Q668687", "ref": "8710600007"}, "type": "Feature"}
{"geometry": {"coordinates": [-106.6195855504, 35.0797941932], "type": "Point"}, "id": "p7ioqF13qfCHc-pksyyYmN82qWs=", "properties": {"@source_uri": "https://tools.usps.com/UspsToolsRestServices/rest/POLocator/findLocations", "@spider": "usps_collection_boxes", "addr:city": "ALBUQUERQUE", "addr:country": "US", "addr:postcode": "87106", "addr:state": "NM", "addr:street_address": "115 CORNELL DR SE", "amenity": "post_box", "collection_times": "Mo-Sa 16:00", "note": "ON 12/24 AND 12/31, THIS BOX MAY BE COLLECTED AS EARLY AS 12 NOON.", "nsi_id": "unitedstatespostalservice-a77078", "operator": "United States Postal Service", "operator:short": "USPS", "operator:type": "public", "operator:wikidata": "Q668687", "ref": "8710600011"}, "type": "Feature"}
{"geometry": {"coordinates": [-106.635571, 35.079156], "type": "Point"}, "id": "lnQ3__dmTx92YUdZDLOTMEkVb2s=", "properties": {"@source_uri": "https://tools.usps.com/UspsToolsRestServices/rest/POLocator/findLocations", "@spider": "usps_collection_boxes", "addr:city": "ALBUQUERQUE", "addr:country": "US", "addr:postcode": "87106", "addr:state": "NM", "addr:street_address": "1100 LEAD AVE SE", "amenity": "post_box", "collection_times": "Mo-Sa 12:15", "note": "ON 12/24 AND 12/31, THIS BOX MAY BE COLLECTED AS EARLY AS 12 NOON.", "nsi_id": "unitedstatespostalservice-a77078", "operator": "United States Postal Service", "operator:short": "USPS", "operator:type": "public", "operator:wikidata": "Q668687", "ref": "8710600012"}, "type": "Feature"}
{"geometry": {"coordinates": [-106.621804, 35.075812], "type": "Point"}, "id": "jSp2dZTGFBHDUZ44Y1IN8WWml1c=", "properties": {"@source_uri": "https://tools.usps.com/UspsToolsRestServices/rest/POLocator/findLocations", "@spider": "usps_collection_boxes", "addr:city": "ALBUQUERQUE", "addr:country": "US", "addr:postcode": "87106", "addr:state": "NM", "addr:street_address": "320 YALE BLVD SE", "amenity": "post_box", "collection_times": "Mo-Fr 13:15; Sa 12:45", "note": "ON 12/24 AND 12/31, THIS BOX MAY BE COLLECTED AS EARLY AS 12 NOON.", "nsi_id": "unitedstatespostalservice-a77078", "operator": "United States Postal Service", "operator:short": "USPS", "operator:type": "public", "operator:wikidata": "Q668687", "ref": "8710600031"}, "type": "Feature"}
{"geometry": {"coordinates": [-106.61954, 35.08069], "type": "Point"}, "id": "xonkXgqkSVe60q4iD4cnmaUXcOc=", "properties": {"@source_uri": "https://tools.usps.com/UspsToolsRestServices/rest/POLocator/findLocations", "@spider": "usps_collection_boxes", "addr:city": "ALBUQUERQUE", "addr:country": "US", "addr:postcode": "87106", "addr:state": "NM", "addr:street_address": "115 CORNELL DR SE", "amenity": "post_box", "collection_times": "Mo-Fr 16:00; Sa 06:00", "indoor": "yes", "note": "ON 12/24 AND 12/31, THIS BOX MAY BE COLLECTED AS EARLY AS 12 NOON.", "nsi_id": "unitedstatespostalservice-a77078", "operator": "United States Postal Service", "operator:short": "USPS", "operator:type": "public", "operator:wikidata": "Q668687", "ref": "8710600035"}, "type": "Feature"}
{"geometry": {"coordinates": [-106.604732, 35.087786], "type": "Point"}, "id": "ObtBkvPkcc7Wsx0zQjtS3hTn254=", "properties": {"@source_uri": "https://tools.usps.com/UspsToolsRestServices/rest/POLocator/findLocations", "@spider": "usps_collection_boxes", "addr:city": "ALBUQUERQUE", "addr:country": "US", "addr:postcode": "87106", "addr:state": "NM", "addr:street_address": "3501 LOMAS BLVD NE", "amenity": "post_box", "collection_times": "Mo-Sa 11:30", "nsi_id": "unitedstatespostalservice-a77078", "operator": "United States Postal Service", "operator:short": "USPS", "operator:type": "public", "operator:wikidata": "Q668687", "ref": "8710600038"}, "type": "Feature"}
{"geometry": {"coordinates": [-106.61954, 35.08069], "type": "Point"}, "id": "d_i3CSeW5uMGF58UJ8TsDU0BI5k=", "properties": {"@source_uri": "https://tools.usps.com/UspsToolsRestServices/rest/POLocator/findLocations", "@spider": "usps_collection_boxes", "addr:city": "ALBUQUERQUE", "addr:country": "US", "addr:postcode": "87106", "addr:state": "NM", "addr:street_address": "115 CORNELL DR SE", "amenity": "post_box", "collection_times": "Mo-Fr 16:00; Sa 06:00", "indoor": "yes", "note": "ON 12/24 AND 12/31, THIS BOX MAY BE COLLECTED AS EARLY AS 12 NOON.", "nsi_id": "unitedstatespostalservice-a77078", "operator": "United States Postal Service", "operator:short": "USPS", "operator:type": "public", "operator:wikidata": "Q668687", "ref": "8710600040"}, "type": "Feature"}
{"geometry": {"coordinates": [-106.6167936094, 35.0495784678], "type": "Point"}, "id": "H6xe5MpkKYgfekaQJJmRNxg-OqA=", "properties": {"@source_uri": "https://tools.usps.com/UspsToolsRestServices/rest/POLocator/findLocations", "@spider": "usps_collection_boxes", "addr:city": "ALBUQUERQUE", "addr:country": "US", "addr:postcode": "87106", "addr:state": "NM", "addr:street_address": "2200 SUNPORT BLVD SE", "amenity": "post_box", "collection_times": "Mo-Fr 14:00", "note": "ON 12/24 AND 12/31, THIS BOX MAY BE COLLECTED AS EARLY AS 12 NOON.", "nsi_id": "unitedstatespostalservice-a77078", "operator": "United States Postal Service", "operator:short": "USPS", "operator:type": "public", "operator:wikidata": "Q668687", "ref": "8710600041"}, "type": "Feature"}
{"geometry": {"coordinates": [-106.617415, 35.087441], "type": "Point"}, "id": "4OZbPFskhE-SBLQ-uiy9zNNopck=", "properties": {"@source_uri": "https://tools.usps.com/UspsToolsRestServices/rest/POLocator/findLocations", "@spider": "usps_collection_boxes", "addr:city": "ALBUQUERQUE", "addr:country": "US", "addr:postcode": "87106", "addr:state": "NM", "addr:street_address": "2211 LOMAS BLVD NE", "amenity": "post_box", "collection_times": "Mo-Sa 10:00", "nsi_id": "unitedstatespostalservice-a77078", "operator": "United States Postal Service", "operator:short": "USPS", "operator:type": "public", "operator:wikidata": "Q668687", "ref": "8710600042"}, "type": "Feature"}
{"geometry": {"coordinates": [-106.625466972, 35.048258654], "type": "Point"}, "id": "V2gnaAq8iJG6ei-LR472H2l2mS0=", "properties": {"@source_uri": "https://tools.usps.com/UspsToolsRestServices/rest/POLocator/findLocations", "@spider": "usps_collection_boxes", "addr:city": "ALBUQUERQUE", "addr:country": "US", "addr:postcode": "87106", "addr:state": "NM", "addr:street_address": "2100 GEORGE RD SE", "amenity": "post_box", "collection_times": "Mo-Sa 16:45", "indoor": "yes", "note": "ON 12/24 AND 12/31, THIS BOX MAY BE COLLECTED AS EARLY AS 12 NOON.", "nsi_id": "unitedstatespostalservice-a77078", "operator": "United States Postal Service", "operator:short": "USPS", "operator:type": "public", "operator:wikidata": "Q668687", "ref": "8710600045"}, "type": "Feature"}
{"geometry": {"coordinates": [-106.6195855504, 35.0797941932], "type": "Point"}, "id": "-TcXxEWn9PMdubpDgcQtlXu-8S0=", "properties": {"@source_uri": "https://tools.usps.com/UspsToolsRestServices/rest/POLocator/findLocations", "@spider": "usps_collection_boxes", "addr:city": "ALBUQUERQUE", "addr:country": "US", "addr:postcode": "87106", "addr:state": "NM", "addr:street_address": "115 CORNELL DR SE", "amenity": "post_box", "collection_times": "Mo-Fr 15:30", "indoor": "yes", "note": "ON 12/24 AND 12/31, THIS BOX MAY BE COLLECTED AS EARLY AS 12 NOON.", "nsi_id": "unitedstatespostalservice-a77078", "operator": "United States Postal Service", "operator:short": "USPS", "operator:type": "public", "operator:wikidata": "Q668687", "ref": "8710600047"}, "type": "Feature"}
{"geometry": {"coordinates": [-106.6297321251, 35.1117813234], "type": "Point"}, "id": "XbQ6iscJn1tklxMmfeVWynPaSHk=", "properties": {"@source_uri": "https://tools.usps.com/UspsToolsRestServices/rest/POLocator/findLocations", "@spider": "usps_collection_boxes", "addr:city": "ALBUQUERQUE", "addr:country": "US", "addr:postcode": "87107", "addr:state": "NM", "addr:street_address": "2715 BROADBENT PKWY NE", "amenity": "post_box", "collection_times": "Mo-Fr 10:45", "nsi_id": "unitedstatespostalservice-a77078", "operator": "United States Postal Service", "operator:short": "USPS", "operator:type": "public", "operator:wikidata": "Q668687", "ref": "8710700001"}, "type": "Feature"}
{"geometry": {"coordinates": [-106.640711, 35.146412], "type": "Point"}, "id": "W5WiXVUbBgzUlFX83XpR1otvDjY=", "properties": {"@source_uri": "https://tools.usps.com/UspsToolsRestServices/rest/POLocator/findLocations", "@spider": "usps_collection_boxes", "addr:city": "ALBUQUERQUE", "addr:country": "US", "addr:postcode": "87107", "addr:state": "NM", "addr:street_address": "6125 4TH ST NW", "amenity": "post_box", "collection_times": "Mo-Sa 10:15", "nsi_id": "unitedstatespostalservice-a77078", "operator": "United States Postal Service", "operator:short": "USPS", "operator:type": "public", "operator:wikidata": "Q668687", "ref": "8710700004"}, "type": "Feature"}
{"geometry": {"coordinates": [-106.6679660355, 35.1380200056], "type": "Point"}, "id": "D5XFpV0zs2GX3SypkzYxj0Y3iak=", "properties": {"@source_uri": "https://tools.usps.com/UspsToolsRestServices/rest/POLocator/findLocations", "@spider": "usps_collection_boxes", "addr:city": "ALBUQUERQUE", "addr:country": "US", "addr:postcode": "87107", "addr:state": "NM", "addr:street_address": "4022 RIO GRANDE BLVD NW", "amenity": "post_box", "collection_times": "Mo-Sa 12:00", "nsi_id": "unitedstatespostalservice-a77078", "operator": "United States Postal Service", "operator:short": "USPS", "operator:type": "public", "operator:wikidata": "Q668687", "ref": "8710700019"}, "type": "Feature"}
{"geometry": {"coordinates": [-106.625095, 35.13633], "type": "Point"}, "id": "i-zjUkQvWRFPaYXQCBdH9K-o260=", "properties": {"@source_uri": "https://tools.usps.com/UspsToolsRestServices/rest/POLocator/findLocations", "@spider": "usps_collection_boxes", "addr:city": "ALBUQUERQUE", "addr:country": "US", "addr:postcode": "87107", "addr:state": "NM", "addr:street_address": "435 MONTANO RD NE", "amenity": "post_box", "collection_times": "Mo-Fr 13:30", "note": "ON 12/24 AND 12/31, THIS BOX MAY BE COLLECTED AS EARLY AS 12 NOON.", "nsi_id": "unitedstatespostalservice-a77078", "operator": "United States Postal Service", "operator:short": "USPS", "operator:type": "public", "operator:wikidata": "Q668687", "ref": "8710700021"}, "type": "Feature"}
{"geometry": {"coordinates": [-106.637798, 35.133486], "type": "Point"}, "id": "teOKUeDtsJmJwAa3wVQjoDKKj3c=", "properties": {"@source_uri": "https://tools.usps.com/UspsToolsRestServices/rest/POLocator/findLocations", "@spider": "usps_collection_boxes", "addr:city": "ALBUQUERQUE", "addr:country": "US", "addr:postcode": "87107", "addr:state": "NM", "addr:street_address": "5100 2ND ST NW", "amenity": "post_box", "collection_times": "Mo-Fr 11:30", "nsi_id": "unitedstatespostalservice-a77078", "operator": "United States Postal Service", "operator:short": "USPS", "operator:type": "public", "operator:wikidata": "Q668687", "ref": "8710700026"}, "type": "Feature"}
{"geometry": {"coordinates": [-106.6459239771, 35.1213129867], "type": "Point"}, "id": "w0UsGmubzowMSTXd6QIkauDFBh8=", "properties": {"@source_uri": "https://tools.usps.com/UspsToolsRestServices/rest/POLocator/findLocations", "@spider": "usps_collection_boxes", "addr:city": "ALBUQUERQUE", "addr:country": "US", "addr:postcode": "87107", "addr:state": "NM", "addr:street_address": "424 VERANDA RD NW", "amenity": "post_box", "collection_times": "Mo-Sa 17:00", "note": "ON 12/24 AND 12/31, THIS BOX MAY BE COLLECTED AS EARLY AS 12 NOON.", "nsi_id": "unitedstatespostalservice-a77078", "operator": "United States Postal Service", "operator:short": "USPS", "operator:type": "public", "operator:wikidata": "Q668687", "ref": "8710700027"}, "type": "Feature"}
{"geometry": {"coordinates": [-106.645892, 35.121189], "type": "Point"}, "id": "bta--D7HnyCDtnPIbXuTsXW42ow=", "properties": {"@source_uri": "https://tools.usps.com/UspsToolsRestServices/rest/POLocator/findLocations", "@spider": "usps_collection_boxes", "addr:city": "ALBUQUERQUE", "addr:country": "US", "addr:postcode": "87107", "addr:state": "NM", "addr:street_address": "424 VERANDA RD NW", "amenity": "post_box", "collection_times": "Mo-Fr 17:00; Sa 12:00", "indoor": "yes", "note": "ON 12/24 AND 12/31, THIS BOX MAY BE COLLECTED AS EARLY AS 12 NOON.", "nsi_id": "unitedstatespostalservice-a77078", "operator": "United States Postal Service", "operator:short": "USPS", "operator:type": "public", "operator:wikidata": "Q668687", "ref": "8710700049"}, "type": "Feature"}
{"geometry": {"coordinates": [-106.645892, 35.121189], "type": "Point"}, "id": "n0PQ3-4KySIkZ1qS0x6voVpaWf4=", "properties": {"@source_uri": "https://tools.usps.com/UspsToolsRestServices/rest/POLocator/findLocations", "@spider": "usps_collection_boxes", "addr:city": "ALBUQUERQUE", "addr:country": "US", "addr:postcode": "87107", "addr:state": "NM", "addr:street_address": "424 VERANDA RD NW", "amenity": "post_box", "collection_times": "Mo-Fr 17:00; Sa 12:00", "indoor": "yes", "note": "ON 12/24 AND 12/31, THIS BOX MAY BE COLLECTED AS EARLY AS 12 NOON.", "nsi_id": "unitedstatespostalservice-a77078", "operator": "United States Postal Service", "operator:short": "USPS", "operator:type": "public", "operator:wikidata": "Q668687", "ref": "8710700050"}, "type": "Feature"}
{"geometry": {"coordinates": [-106.630905, 35.136476], "type": "Point"}, "id": "iI9NbLlKPajHw182blTAk3TB1JM=", "properties": {"@source_uri": "https://tools.usps.com/UspsToolsRestServices/rest/POLocator/findLocations", "@spider": "usps_collection_boxes", "addr:city": "ALBUQUERQUE", "addr:country": "US", "addr:postcode": "87107", "addr:state": "NM", "addr:street_address": "110 MONTANO RD NE", "amenity": "post_box", "collection_times": "Mo-Fr 17:30; Sa 17:00", "note": "ON 12/24 AND 12/31, THIS BOX MAY BE COLLECTED AS EARLY AS 12 NOON.", "nsi_id": "unitedstatespostalservice-a77078", "operator": "United States Postal Service", "operator:short": "USPS", "operator:type": "public", "operator:wikidata": "Q668687", "ref": "8710700051"}, "type": "Feature"}
{"geometry": {"coordinates": [-106.630932, 35.13644], "type": "Point"}, "id": "gDZfXXbO18nn4-kTRA3PBnrLlAE=", "properties": {"@source_uri": "https://tools.usps.com/UspsToolsRestServices/rest/POLocator/findLocations", "@spider": "usps_collection_boxes", "addr:city": "ALBUQUERQUE", "addr:country": "US", "addr:postcode": "87107", "addr:state": "NM", "addr:street_address": "110 MONTANO RD NE", "amenity": "post_box", "collection_times": "Mo-Fr 16:00; Sa 15:00", "indoor": "yes", "note": "ON 12/24 AND 12/31, THIS BOX MAY BE COLLECTED AS EARLY AS 12 NOON.", "nsi_id": "unitedstatespostalservice-a77078", "operator": "United States Postal Service", "operator:short": "USPS", "operator:type": "public", "operator:wikidata": "Q668687", "ref": "8710700052"}, "type": "Feature"}
{"geometry": {"coordinates": [-106.631075, 35.136379], "type": "Point"}, "id": "wNTVzjPSLzHUhAdgzqThL6lMcSU=", "properties": {"@source_uri": "https://tools.usps.com/UspsToolsRestServices/rest/POLocator/findLocations", "@spider": "usps_collection_boxes", "addr:city": "ALBUQUERQUE", "addr:country": "US", "addr:postcode": "87107", "addr:state": "NM", "addr:street_address": "110 MONTANO RD NE", "amenity": "post_box", "collection_times": "Mo-Fr 16:00; Sa 15:00", "indoor": "yes", "note": "ON 12/24 AND 12/31, THIS BOX MAY BE COLLECTED AS EARLY AS 12 NOON.", "nsi_id": "unitedstatespostalservice-a77078", "operator": "United States Postal Service", "operator:short": "USPS", "operator:type": "public", "operator:wikidata": "Q668687", "ref": "8710700053"}, "type": "Feature"}
{"geometry": {"coordinates": [-106.654076, 35.122198], "type": "Point"}, "id": "PsoIH-RuDZmNiIaMkgWe7f6b07w=", "properties": {"@source_uri": "https://tools.usps.com/UspsToolsRestServices/rest/POLocator/findLocations", "@spider": "usps_collection_boxes", "addr:city": "ALBUQUERQUE", "addr:country": "US", "addr:postcode": "87107", "addr:state": "NM", "addr:street_address": "1130 CANDELARIA RD NW", "amenity": "post_box", "collection_times": "Mo-Sa 10:00", "nsi_id": "unitedstatespostalservice-a77078", "operator": "United States Postal Service", "operator:short": "USPS", "operator:type": "public", "operator:wikidata": "Q668687", "ref": "8710700064"}, "type": "Feature"}
{"geometry": {"coordinates": [-106.6458315221, 35.1215312284], "type": "Point"}, "id": "eVTftIOQptDAZaNDJxHEXepYVGE=", "properties": {"@source_uri": "https://tools.usps.com/UspsToolsRestServices/rest/POLocator/findLocations", "@spider": "usps_collection_boxes", "addr:city": "ALBUQUERQUE", "addr:country": "US", "addr:postcode": "87107", "addr:state": "NM", "addr:street_address": "424 VERANDA RD NW", "amenity": "post_box", "collection_times": "Mo-Fr 16:45; Sa 11:45", "indoor": "yes", "note": "ON 12/24 AND 12/31, THIS BOX MAY BE COLLECTED AS EARLY AS 12 NOON.", "nsi_id": "unitedstatespostalservice-a77078", "operator": "United States Postal Service", "operator:short": "USPS", "operator:type": "public", "operator:wikidata": "Q668687", "ref": "8710700066"}, "type": "Feature"}
{"geometry": {"coordinates": [-106.582495, 35.05805], "type": "Point"}, "id": "Tk2d6U9TVCL5RvIBx8sugnZoyr4=", "properties": {"@source_uri": "https://tools.usps.com/UspsToolsRestServices/rest/POLocator/findLocations", "@spider": "usps_collection_boxes", "addr:city": "ALBUQUERQUE", "addr:country": "US", "addr:postcode": "87108", "addr:state": "NM", "addr:street_address": "5400 GIBSON BLVD SE", "amenity": "post_box", "collection_times": "Mo-Fr 10:00", "nsi_id": "unitedstatespostalservice-a77078", "operator": "United States Postal Service", "operator:short": "USPS", "operator:type": "public", "operator:wikidata": "Q668687", "ref": "8710800006"}, "type": "Feature"}
{"geometry": {"coordinates": [-106.6035599944, 35.0711099967], "type": "Point"}, "id": "qc0vXYLZmpmNo35fcfe7qwDM6JQ=", "properties": {"@source_uri": "https://tools.usps.com/UspsToolsRestServices/rest/POLocator/findLocations", "@spider": "usps_collection_boxes", "addr:city": "ALBUQUERQUE", "addr:country": "US", "addr:postcode": "87108", "addr:state": "NM", "addr:street_address": "609 PARKLAND CIR SE", "amenity": "post_box", "collection_times": "Mo-Sa 10:00", "nsi_id": "unitedstatespostalservice-a77078", "operator": "United States Postal Service", "operator:short": "USPS", "operator:type": "public", "operator:wikidata": "Q668687", "ref": "8710800012"}, "type": "Feature"}
{"geometry": {"coordinates": [-106.59804, 35.074185], "type": "Point"}, "id": "G_GT4aJGJwdpOLyy0zrCF98s_yM=", "properties": {"@source_uri": "https://tools.usps.com/UspsToolsRestServices/rest/POLocator/findLocations", "@spider": "usps_collection_boxes", "addr:city": "ALBUQUERQUE", "addr:country": "US", "addr:postcode": "87108", "addr:state": "NM", "addr:street_address": "3700 CENTRAL AVE SE", "amenity": "post_box", "collection_times": "Mo-Fr 10:30", "nsi_id": "unitedstatespostalservice-a77078", "operator": "United States Postal Service", "operator:short": "USPS", "operator:type": "public", "operator:wikidata": "Q668687", "ref": "8710800024"}, "type": "Feature"}
{"geometry": {"coordinates": [-106.581844566, 35.075862], "type": "Point"}, "id": "kKRmHW6MTSiUding6j5cyCLQGrM=", "properties": {"@source_uri": "https://tools.usps.com/UspsToolsRestServices/rest/POLocator/findLocations", "@spider": "usps_collection_boxes", "addr:city": "ALBUQUERQUE", "addr:country": "US", "addr:postcode": "87108", "addr:state": "NM", "addr:street_address": "111 ALVARADO DR SE", "amenity": "post_box", "collection_times": "Mo-Sa 17:00", "note": "ON 12/24 AND 12/31, THIS BOX MAY BE COLLECTED AS EARLY AS 12 NOON.", "nsi_id": "unitedstatespostalservice-a77078", "operator": "United States Postal Service", "operator:short": "USPS", "operator:type": "public", "operator:wikidata": "Q668687", "ref": "8710800026"}, "type": "Feature"}
{"geometry": {"coordinates": [-106.569351, 35.057765], "type": "Point"}, "id": "LsGSIkXSo3C988whkWJmIX4mAfY=", "properties": {"@source_uri": "https://tools.usps.com/UspsToolsRestServices/rest/POLocator/findLocations", "@spider": "usps_collection_boxes", "addr:city": "ALBUQUERQUE", "addr:country": "US", "addr:postcode": "87108", "addr:state": "NM", "addr:street_address": "6440 GIBSON BLVD SE", "amenity": "post_box", "collection_times": "Mo-Sa 10:00", "nsi_id": "unitedstatespostalservice-a77078", "operator": "United States Postal Service", "operator:short": "USPS", "operator:type": "public", "operator:wikidata": "Q668687", "ref": "8710800033"}, "type": "Feature"}
{"geometry": {"coordinates": [-106.581844566, 35.075862], "type": "Point"}, "id": "QZHwF33zh9ftiinr0ZkC5O86hco=", "properties": {"@source_uri": "https://tools.usps.com/UspsToolsRestServices/rest/POLocator/findLocations", "@spider": "usps_collection_boxes", "addr:city": "ALBUQUERQUE", "addr:country": "US", "addr:postcode": "87108", "addr:state": "NM", "addr:street_address": "111 ALVARADO DR SE", "amenity": "post_box", "collection_times": "Mo-Fr 18:00; Sa 15:30", "indoor": "yes", "note": "ON 12/24 AND 12/31, THIS BOX MAY BE COLLECTED AS EARLY AS 12 NOON.", "nsi_id": "unitedstatespostalservice-a77078", "operator": "United States Postal Service", "operator:short": "USPS", "operator:type": "public", "operator:wikidata": "Q668687", "ref": "8710800040"}, "type": "Feature"}
{"geometry": {"coordinates": [-106.581844566, 35.075862], "type": "Point"}, "id": "Ye-DpzQCQsUPPBhFjBeK25upzPo=", "properties": {"@source_uri": "https://tools.usps.com/UspsToolsRestServices/rest/POLocator/findLocations", "@spider": "usps_collection_boxes", "addr:city": "ALBUQUERQUE", "addr:country": "US", "addr:postcode": "87108", "addr:state": "NM", "addr:street_address": "111 ALVARADO DR SE", "amenity": "post_box", "collection_times": "Mo-Fr 17:15; Sa 14:45", "indoor": "yes", "note": "ON 12/24 AND 12/31, THIS BOX MAY BE COLLECTED AS EARLY AS 12 NOON.", "nsi_id": "unitedstatespostalservice-a77078", "operator": "United States Postal Service", "operator:short": "USPS", "operator:type": "public", "operator:wikidata": "Q668687", "ref": "8710800050"}, "type": "Feature"}
{"geometry": {"coordinates": [-106.587619, 35.169375], "type": "Point"}, "id": "e49t8mgZfvkiIuWUOKeEoTHNaQ8=", "properties": {"@source_uri": "https://tools.usps.com/UspsToolsRestServices/rest/POLocator/findLocations", "@spider": "usps_collection_boxes", "addr:city": "ALBUQUERQUE", "addr:country": "US", "addr:postcode": "87109", "addr:state": "NM", "addr:street_address": "7770 JEFFERSON ST NE", "amenity": "post_box", "collection_times": "Mo-Fr 14:00", "note": "ON 12/24 AND 12/31, THIS BOX MAY BE COLLECTED AS EARLY AS 12 NOON.", "nsi_id": "unitedstatespostalservice-a77078", "operator": "United States Postal Service", "operator:short": "USPS", "operator:type": "public", "operator:wikidata": "Q668687", "ref": "8710900001"}, "type": "Feature"}
{"geometry": {"coordinates": [-106.5873499334, 35.1546486916], "type": "Point"}, "id": "mD4UQVQuGAuWtLoMLSlkTBhV5Lg=", "properties": {"@source_uri": "https://tools.usps.com/UspsToolsRestServices/rest/POLocator/findLocations", "@spider": "usps_collection_boxes", "addr:city": "ALBUQUERQUE", "addr:country": "US", "addr:postcode": "87109", "addr:state": "NM", "addr:street_address": "6100 PAN AMERICAN EAST FWY NE", "amenity": "post_box", "collection_times": "Mo-Fr 10:30", "nsi_id": "unitedstatespostalservice-a77078", "operator": "United States Postal Service", "operator:short": "USPS", "operator:type": "public", "operator:wikidata": "Q668687", "ref": "8710900002"}, "type": "Feature"}
{"geometry": {"coordinates": [-106.592391, 35.164161], "type": "Point"}, "id": "fFnLqnKCGQCkItLSiE1psFf3n1Q=", "properties": {"@source_uri": "https://tools.usps.com/UspsToolsRestServices/rest/POLocator/findLocations", "@spider": "usps_collection_boxes", "addr:city": "ALBUQUERQUE", "addr:country": "US", "addr:postcode": "87109", "addr:state": "NM", "addr:street_address": "7412 JEFFERSON ST NE", "amenity": "post_box", "collection_times": "Mo-Sa 10:00", "nsi_id": "unitedstatespostalservice-a77078", "operator": "United States Postal Service", "operator:short": "USPS", "operator:type": "public", "operator:wikidata": "Q668687", "ref": "8710900003"}, "type": "Feature"}
{"geometry": {"coordinates": [-106.561455, 35.16623], "type": "Point"}, "id": "rpyRdg493e24EEbbyJF80DQsZf8=", "properties": {"@source_uri": "https://tools.usps.com/UspsToolsRestServices/rest/POLocator/findLocations", "@spider": "usps_collection_boxes", "addr:city": "ALBUQUERQUE", "addr:country": "US", "addr:postcode": "87109", "addr:state": "NM", "addr:street_address": "4700 MONTGOMERY BLVD NE", "amenity": "post_box", "collection_times": "Mo-Sa 10:30", "nsi_id": "unitedstatespostalservice-a77078", "operator": "United States Postal Service", "operator:short": "USPS", "operator:type": "public", "operator:wikidata": "Q668687", "ref": "8710900009"}, "type": "Feature"}
{"geometry": {"coordinates": [-106.583228, 35.138526], "type": "Point"}, "id": "omnidpGz7aZMvWtCHFzCHboKZfI=", "properties": {"@source_uri": "https://tools.usps.com/UspsToolsRestServices/rest/POLocator/findLocations", "@spider": "usps_collection_boxes", "addr:city": "ALBUQUERQUE", "addr:country": "US", "addr:postcode": "87109", "addr:state": "NM", "addr:street_address": "5600 MCLEOD RD NE", "amenity": "post_box", "collection_times": "Mo-Sa 10:30", "nsi_id": "unitedstatespostalservice-a77078", "operator": "United States Postal Service", "operator:short": "USPS", "operator:type": "public", "operator:wikidata": "Q668687", "ref": "8710900010"}, "type": "Feature"}
{"geometry": {"coordinates": [-106.600945, 35.133043], "type": "Point"}, "id": "n1JHxCBCBd3RfRJ5XNh3yJC8igA=", "properties": {"@source_uri": "https://tools.usps.com/UspsToolsRestServices/rest/POLocator/findLocations", "@spider": "usps_collection_boxes", "addr:city": "ALBUQUERQUE", "addr:country": "US", "addr:postcode": "87109", "addr:state": "NM", "addr:street_address": "3901 MONTGOMERY BLVD NE", "amenity": "post_box", "collection_times": "Mo-Sa 10:30", "nsi_id": "unitedstatespostalservice-a77078", "operator": "United States Postal Service", "operator:short": "USPS", "operator:type": "public", "operator:wikidata": "Q668687", "ref": "8710900011"}, "type": "Feature"}
{"geometry": {"coordinates": [-106.596843, 35.131262], "type": "Point"}, "id": "1ZysFOUee4SngrjKNUWZTH__CrQ=", "properties": {"@source_uri": "https://tools.usps.com/UspsToolsRestServices/rest/POLocator/findLocations", "@spider": "usps_collection_boxes", "addr:city": "ALBUQUERQUE", "addr:country": "US", "addr:postcode": "87109", "addr:state": "NM", "addr:street_address": "4101 MONTGOMERY BLVD NE", "amenity": "post_box", "collection_times": "Mo-Fr 10:30", "nsi_id": "unitedstatespostalservice-a77078", "operator": "United States Postal Service", "operator:short": "USPS", "operator:type": "public", "operator:wikidata": "Q668687", "ref": "8710900012"}, "type": "Feature"}
{"geometry": {"coordinates": [-106.56755, 35.130414], "type": "Point"}, "id": "dy9UhVOt30HKARYTQJbf-vsewt0=", "properties": {"@source_uri": "https://tools.usps.com/UspsToolsRestServices/rest/POLocator/findLocations", "@spider": "usps_collection_boxes", "addr:city": "ALBUQUERQUE", "addr:country": "US", "addr:postcode": "87109", "addr:state": "NM", "addr:street_address": "7200 MONTGOMERY BLVD NE", "amenity": "post_box", "collection_times": "Mo-Sa 10:30", "nsi_id": "unitedstatespostalservice-a77078", "operator": "United States Postal Service", "operator:short": "USPS", "operator:type": "public", "operator:wikidata": "Q668687", "ref": "8710900019"}, "type": "Feature"}
{"geometry": {"coordinates": [-106.5604569793, 35.1291529998], "type": "Point"}, "id": "9sip7Pi1h106UT9LFdx4oVzynEY=", "properties": {"@source_uri": "https://tools.usps.com/UspsToolsRestServices/rest/POLocator/findLocations", "@spider": "usps_collection_boxes", "addr:city": "ALBUQUERQUE", "addr:country": "US", "addr:postcode": "87109", "addr:state": "NM", "addr:street_address": "7520 MONTGOMERY BLVD NE", "amenity": "post_box", "collection_times": "Mo-Sa 10:30", "nsi_id": "unitedstatespostalservice-a77078", "operator": "United States Postal Service", "operator:short": "USPS", "operator:type": "public", "operator:wikidata": "Q668687", "ref": "8710900020"}, "type": "Feature"}
{"geometry": {"coordinates": [-106.594652, 35.156132], "type": "Point"}, "id": "nm5GJTJmP5ZcUi0860izt8qFfM4=", "properties": {"@source_uri": "https://tools.usps.com/UspsToolsRestServices/rest/POLocator/findLocations", "@spider": "usps_collection_boxes", "addr:city": "ALBUQUERQUE", "addr:country": "US", "addr:postcode": "87109", "addr:state": "NM", "addr:street_address": "4200 OSUNA RD NE", "amenity": "post_box", "collection_times": "Mo-Sa 10:30", "nsi_id": "unitedstatespostalservice-a77078", "operator": "United States Postal Service", "operator:short": "USPS", "operator:type": "public", "operator:wikidata": "Q668687", "ref": "8710900023"}, "type": "Feature"}
{"geometry": {"coordinates": [-106.586310366, 35.145377413], "type": "Point"}, "id": "wcEQP5nY4JVZDHaokriy3vXTtoc=", "properties": {"@source_uri": "https://tools.usps.com/UspsToolsRestServices/rest/POLocator/findLocations", "@spider": "usps_collection_boxes", "addr:city": "ALBUQUERQUE", "addr:country": "US", "addr:postcode": "87109", "addr:state": "NM", "addr:street_address": "6100 SAN MATEO BLVD NE", "amenity": "post_box", "collection_times": "Mo-Sa 10:30", "nsi_id": "unitedstatespostalservice-a77078", "operator": "United States Postal Service", "operator:short": "USPS", "operator:type": "public", "operator:wikidata": "Q668687", "ref": "8710900031"}, "type": "Feature"}
{"geometry": {"coordinates": [-106.552894, 35.14021], "type": "Point"}, "id": "qMDy30OySmy_El0BLXJz2_Acbmo=", "properties": {"@source_uri": "https://tools.usps.com/UspsToolsRestServices/rest/POLocator/findLocations", "@spider": "usps_collection_boxes", "addr:city": "ALBUQUERQUE", "addr:country": "US", "addr:postcode": "87109", "addr:state": "NM", "addr:street_address": "8205 SPAIN RD NE", "amenity": "post_box", "collection_times": "Mo-Fr 10:30", "nsi_id": "unitedstatespostalservice-a77078", "operator": "United States Postal Service", "operator:short": "USPS", "operator:type": "public", "operator:wikidata": "Q668687", "ref": "8710900034"}, "type": "Feature"}
{"geometry": {"coordinates": [-106.561455, 35.16623], "type": "Point"}, "id": "U_KBiXls5JAFssjd6bycHxCPdag=", "properties": {"@source_uri": "https://tools.usps.com/UspsToolsRestServices/rest/POLocator/findLocations", "@spider": "usps_collection_boxes", "addr:city": "ALBUQUERQUE", "addr:country": "US", "addr:postcode": "87109", "addr:state": "NM", "addr:street_address": "6255 SAN ANTONIO DR NE", "amenity": "post_box", "collection_times": "Mo-Sa 17:00", "note": "ON 12/24 AND 12/31, THIS BOX MAY BE COLLECTED AS EARLY AS 12 NOON.", "nsi_id": "unitedstatespostalservice-a77078", "operator": "United States Postal Service", "operator:short": "USPS", "operator:type": "public", "operator:wikidata": "Q668687", "ref": "8710900037"}, "type": "Feature"}
{"geometry": {"coordinates": [-106.560819, 35.158758], "type": "Point"}, "id": "WuyTsi0HpPfq4OAUaL5iw7POeQY=", "properties": {"@source_uri": "https://tools.usps.com/UspsToolsRestServices/rest/POLocator/findLocations", "@spider": "usps_collection_boxes", "addr:city": "ALBUQUERQUE", "addr:country": "US", "addr:postcode": "87109", "addr:state": "NM", "addr:street_address": "7007 WYOMING BLVD NE", "amenity": "post_box", "collection_times": "Mo-Fr 10:30", "nsi_id": "unitedstatespostalservice-a77078", "operator": "United States Postal Service", "operator:short": "USPS", "operator:type": "public", "operator:wikidata": "Q668687", "ref": "8710900041"}, "type": "Feature"}
{"geometry": {"coordinates": [-106.5676619795, 35.1458510082], "type": "Point"}, "id": "X1To-T2fiJfZXoNqe6OctecihZo=", "properties": {"@source_uri": "https://tools.usps.com/UspsToolsRestServices/rest/POLocator/findLocations", "@spider": "usps_collection_boxes", "addr:city": "ALBUQUERQUE", "addr:country": "US", "addr:postcode": "87109", "addr:state": "NM", "addr:street_address": "6755 ACADEMY RD NE", "amenity": "post_box", "collection_times": "Mo-Fr 10:30", "nsi_id": "unitedstatespostalservice-a77078", "operator": "United States Postal Service", "operator:short": "USPS", "operator:type": "public", "operator:wikidata": "Q668687", "ref": "8710900043"}, "type": "Feature"}
{"geometry": {"coordinates": [-106.585257, 35.15275], "type": "Point"}, "id": "bl3CCGCZ3AOwro0g0CpaymBf7bo=", "properties": {"@source_uri": "https://tools.usps.com/UspsToolsRestServices/rest/POLocator/findLocations", "@spider": "usps_collection_boxes", "addr:city": "ALBUQUERQUE", "addr:country": "US", "addr:postcode": "87109", "addr:state": "NM", "addr:street_address": "5700 HARPER DR NE", "amenity": "post_box", "collection_times": "Mo-Fr 10:30", "nsi_id": "unitedstatespostalservice-a77078", "operator": "United States Postal Service", "operator:short": "USPS", "operator:type": "public", "operator:wikidata": "Q668687", "ref": "8710900048"}, "type": "Feature"}
{"geometry": {"coordinates": [-106.58254, 35.145172], "type": "Point"}, "id": "zS7AB6DC_GRMfZCP2dnpnhklONA=", "properties": {"@source_uri": "https://tools.usps.com/UspsToolsRestServices/rest/POLocator/findLocations", "@spider": "usps_collection_boxes", "addr:city": "ALBUQUERQUE", "addr:country": "US", "addr:postcode": "87109", "addr:state": "NM", "addr:street_address": "5801 OSUNA RD NE", "amenity": "post_box", "collection_times": "Mo-Fr 10:30", "nsi_id": "unitedstatespostalservice-a77078", "operator": "United States Postal Service", "operator:short": "USPS", "operator:type": "public", "operator:wikidata": "Q668687", "ref": "8710900060"}, "type": "Feature"}
{"geometry": {"coordinates": [-106.5562569753, 35.1466720156], "type": "Point"}, "id": "rb2l6uf_987hgf7juVrydMr-89s=", "properties": {"@source_uri": "https://tools.usps.com/UspsToolsRestServices/rest/POLocator/findLocations", "@spider": "usps_collection_boxes", "addr:city": "ALBUQUERQUE", "addr:country": "US", "addr:postcode": "87109", "addr:state": "NM", "addr:street_address": "5901 WYOMING BLVD NE", "amenity": "post_box", "collection_times": "Mo-Sa 10:30", "nsi_id": "unitedstatespostalservice-a77078", "operator": "United States Postal Service", "operator:short": "USPS", "operator:type": "public", "operator:wikidata": "Q668687", "ref": "8710900069"}, "type": "Feature"}
{"geometry": {"coordinates": [-106.559762574, 35.159814232], "type": "Point"}, "id": "lhtTkDNm0zmh0BH6llvSbUnk34A=", "properties": {"@source_uri": "https://tools.usps.com/UspsToolsRestServices/rest/POLocator/findLocations", "@spider": "usps_collection_boxes", "addr:city": "ALBUQUERQUE", "addr:country": "US", "addr:postcode": "87109", "addr:state": "NM", "addr:street_address": "7120 WYOMING BLVD NE", "amenity": "post_box", "collection_times": "Mo-Sa 10:30", "nsi_id": "unitedstatespostalservice-a77078", "operator": "United States Postal Service", "operator:short": "USPS", "operator:type": "public", "operator:wikidata": "Q668687", "ref": "8710900071"}, "type": "Feature"}
{"geometry": {"coordinates": [-106.6015000536, 35.1436027249], "type": "Point"}, "id": "C9A-vtuU2P8aStLbJrpJhLhiv1s=", "properties": {"@source_uri": "https://tools.usps.com/UspsToolsRestServices/rest/POLocator/findLocations", "@spider": "usps_collection_boxes", "addr:city": "ALBUQUERQUE", "addr:country": "US", "addr:postcode": "87109", "addr:state": "NM", "addr:street_address": "3838 COMMONS AVE NE", "amenity": "post_box", "collection_times": "Mo-Fr 10:30", "nsi_id": "unitedstatespostalservice-a77078", "operator": "United States Postal Service", "operator:short": "USPS", "operator:type": "public", "operator:wikidata": "Q668687", "ref": "8710900099"}, "type": "Feature"}
{"geometry": {"coordinates": [-106.594824, 35.151266], "type": "Point"}, "id": "UFzIxy2GT2g9q130tGFFmHGg3wA=", "properties": {"@source_uri": "https://tools.usps.com/UspsToolsRestServices/rest/POLocator/findLocations", "@spider": "usps_collection_boxes", "addr:city": "ALBUQUERQUE", "addr:country": "US", "addr:postcode": "87109", "addr:state": "NM", "addr:street_address": "4101 JEFFERSON PLZ NE", "amenity": "post_box", "collection_times": "Mo-Fr 10:30", "nsi_id": "unitedstatespostalservice-a77078", "operator": "United States Postal Service", "operator:short": "USPS", "operator:type": "public", "operator:wikidata": "Q668687", "ref": "8710900101"}, "type": "Feature"}
{"geometry": {"coordinates": [-106.5758705255, 35.1599174688], "type": "Point"}, "id": "21-Sp7uDzvXCYxLzlneKmm8Zn0I=", "properties": {"@source_uri": "https://tools.usps.com/UspsToolsRestServices/rest/POLocator/findLocations", "@spider": "usps_collection_boxes", "addr:city": "ALBUQUERQUE", "addr:country": "US", "addr:postcode": "87109", "addr:state": "NM", "addr:street_address": "6255 SAN ANTONIO DR NE", "amenity": "post_box", "collection_times": "Mo-Fr 18:00; Sa 16:15", "indoor": "yes", "note": "ON 12/24 AND 12/31, THIS BOX MAY BE COLLECTED AS EARLY AS 12 NOON.", "nsi_id": "unitedstatespostalservice-a77078", "operator": "United States Postal Service", "operator:short": "USPS", "operator:type": "public", "operator:wikidata": "Q668687", "ref": "8710900104"}, "type": "Feature"}
{"geometry": {"coordinates": [-106.5758705255, 35.1599174688], "type": "Point"}, "id": "HTt7ozEmZftvnQdLw6Jb4PQ_M5k=", "properties": {"@source_uri": "https://tools.usps.com/UspsToolsRestServices/rest/POLocator/findLocations", "@spider": "usps_collection_boxes", "addr:city": "ALBUQUERQUE", "addr:country": "US", "addr:postcode": "87109", "addr:state": "NM", "addr:street_address": "6255 SAN ANTONIO DR NE", "amenity": "post_box", "collection_times": "Mo-Fr 18:00; Sa 16:15", "name": "USPS COLLECTION BOX - APC", "note": "ON 12/24 AND 12/31, THIS BOX MAY BE COLLECTED AS EARLY AS 12 NOON.", "nsi_id": "unitedstatespostalservice-a77078", "operator": "United States Postal Service", "operator:short": "USPS", "operator:type": "public", "operator:wikidata": "Q668687", "ref": "8710900120"}, "type": "Feature"}
{"geometry": {"coordinates": [-106.60357, 35.153535], "type": "Point"}, "id": "hsgxFfqUZEpVRB2cqGneJZ324uE=", "properties": {"@source_uri": "https://tools.usps.com/UspsToolsRestServices/rest/POLocator/findLocations", "@spider": "usps_collection_boxes", "addr:city": "ALBUQUERQUE", "addr:country": "US", "addr:postcode": "87109", "addr:state": "NM", "addr:street_address": "3600 OSUNA RD NE", "amenity": "post_box", "collection_times": "Mo-Fr 14:20; Sa 14:30", "note": "ON 12/24 AND 12/31, THIS BOX MAY BE COLLECTED AS EARLY AS 12 NOON.", "nsi_id": "unitedstatespostalservice-a77078", "operator": "United States Postal Service", "operator:short": "USPS", "operator:type": "public", "operator:wikidata": "Q668687", "ref": "8710900129"}, "type": "Feature"}
{"geometry": {"coordinates": [-106.5758705255, 35.1599174688], "type": "Point"}, "id": "50bcoQ0ELJWqLSZkl3-nkWvgo2w=", "properties": {"@source_uri": "https://tools.usps.com/UspsToolsRestServices/rest/POLocator/findLocations", "@spider": "usps_collection_boxes", "addr:city": "ALBUQUERQUE", "addr:country": "US", "addr:postcode": "87109", "addr:state": "NM", "addr:street_address": "6255 SAN ANTONIO DR NE", "amenity": "post_box", "collection_times": "Mo-Fr 16:45; Sa 14:45", "indoor": "yes", "note": "ON 12/24 AND 12/31, THIS BOX MAY BE COLLECTED AS EARLY AS 12 NOON.", "nsi_id": "unitedstatespostalservice-a77078", "operator": "United States Postal Service", "operator:short": "USPS", "operator:type": "public", "operator:wikidata": "Q668687", "ref": "8710900131"}, "type": "Feature"}
{"geometry": {"coordinates": [-106.553608908, 35.0923009382], "type": "Point"}, "id": "Fttl5URTyqOZOT7ahBAC2S6JRag=", "properties": {"@source_uri": "https://tools.usps.com/UspsToolsRestServices/rest/POLocator/findLocations", "@spider": "usps_collection_boxes", "addr:city": "ALBUQUERQUE", "addr:country": "US", "addr:postcode": "87110", "addr:state": "NM", "addr:street_address": "8300 CONSTITUTION AVE NE", "amenity": "post_box", "collection_times": "Mo-Fr 10:00", "nsi_id": "unitedstatespostalservice-a77078", "operator": "United States Postal Service", "operator:short": "USPS", "operator:type": "public", "operator:wikidata": "Q668687", "ref": "8711000004"}, "type": "Feature"}
{"geometry": {"coordinates": [-106.555494, 35.092961], "type": "Point"}, "id": "4NuploTd9RPJWl0N0nw4L-p9wIA=", "properties": {"@source_uri": "https://tools.usps.com/UspsToolsRestServices/rest/POLocator/findLocations", "@spider": "usps_collection_boxes", "addr:city": "ALBUQUERQUE", "addr:country": "US", "addr:postcode": "87110", "addr:state": "NM", "addr:street_address": "8100 CONSTITUTION PL NE", "amenity": "post_box", "collection_times": "Mo-Sa 10:00", "nsi_id": "unitedstatespostalservice-a77078", "operator": "United States Postal Service", "operator:short": "USPS", "operator:type": "public", "operator:wikidata": "Q668687", "ref": "8711000005"}, "type": "Feature"}
{"geometry": {"coordinates": [-106.5916560155, 35.1024459932], "type": "Point"}, "id": "JAxalqIZXoo65ZM4yMYjYXn6bag=", "properties": {"@source_uri": "https://tools.usps.com/UspsToolsRestServices/rest/POLocator/findLocations", "@spider": "usps_collection_boxes", "addr:city": "ALBUQUERQUE", "addr:country": "US", "addr:postcode": "87110", "addr:state": "NM", "addr:street_address": "4801 INDIAN SCHOOL RD NE", "amenity": "post_box", "collection_times": "Mo-Sa 11:00", "nsi_id": "unitedstatespostalservice-a77078", "operator": "United States Postal Service", "operator:short": "USPS", "operator:type": "public", "operator:wikidata": "Q668687", "ref": "8711000010"}, "type": "Feature"}
{"geometry": {"coordinates": [-106.58633, 35.111715], "type": "Point"}, "id": "y9mgZRkbaN3tooKpHiK0wZaZZJE=", "properties": {"@source_uri": "https://tools.usps.com/UspsToolsRestServices/rest/POLocator/findLocations", "@spider": "usps_collection_boxes", "addr:city": "ALBUQUERQUE", "addr:country": "US", "addr:postcode": "87110", "addr:state": "NM", "addr:street_address": "2424 LOUISIANA BLVD NE", "amenity": "post_box", "collection_times": "Mo-Fr 10:30", "nsi_id": "unitedstatespostalservice-a77078", "operator": "United States Postal Service", "operator:short": "USPS", "operator:type": "public", "operator:wikidata": "Q668687", "ref": "8711000019"}, "type": "Feature"}
{"geometry": {"coordinates": [-106.5674790026, 35.1070080116], "type": "Point"}, "id": "ufw27gqLjxxBAu3tH0k2WZG4Kso=", "properties": {"@source_uri": "https://tools.usps.com/UspsToolsRestServices/rest/POLocator/findLocations", "@spider": "usps_collection_boxes", "addr:city": "ALBUQUERQUE", "addr:country": "US", "addr:postcode": "87110", "addr:state": "NM", "addr:street_address": "2440 LOUISIANA BLVD NE STE 100", "amenity": "post_box", "collection_times": "Mo-Fr 11:00", "nsi_id": "unitedstatespostalservice-a77078", "operator": "United States Postal Service", "operator:short": "USPS", "operator:type": "public", "operator:wikidata": "Q668687", "ref": "8711000021"}, "type": "Feature"}
{"geometry": {"coordinates": [-106.568024, 35.108194], "type": "Point"}, "id": "SuB681dm-KOb4rlEsWLCXlM21Sg=", "properties": {"@source_uri": "https://tools.usps.com/UspsToolsRestServices/rest/POLocator/findLocations", "@spider": "usps_collection_boxes", "addr:city": "ALBUQUERQUE", "addr:country": "US", "addr:postcode": "87110", "addr:state": "NM", "addr:street_address": "2500 LOUISIANA BLVD NE", "amenity": "post_box", "collection_times": "Mo-Fr 11:30", "nsi_id": "unitedstatespostalservice-a77078", "operator": "United States Postal Service", "operator:short": "USPS", "operator:type": "public", "operator:wikidata": "Q668687", "ref": "8711000022"}, "type": "Feature"}
{"geometry": {"coordinates": [-106.557006988, 35.1061170153], "type": "Point"}, "id": "UH-9a9g1foVoeg009I0XpeuxWoc=", "properties": {"@source_uri": "https://tools.usps.com/UspsToolsRestServices/rest/POLocator/findLocations", "@spider": "usps_collection_boxes", "addr:city": "ALBUQUERQUE", "addr:country": "US", "addr:postcode": "87110", "addr:state": "NM", "addr:street_address": "7805 CUTLER AVE NE", "amenity": "post_box", "collection_times": "Mo-Sa 11:00", "nsi_id": "unitedstatespostalservice-a77078", "operator": "United States Postal Service", "operator:short": "USPS", "operator:type": "public", "operator:wikidata": "Q668687", "ref": "8711000023"}, "type": "Feature"}
{"geometry": {"coordinates": [-106.5592670006, 35.1086820034], "type": "Point"}, "id": "hqY5_s_4CR1FfQBCAluoq6VyPXc=", "properties": {"@source_uri": "https://tools.usps.com/UspsToolsRestServices/rest/POLocator/findLocations", "@spider": "usps_collection_boxes", "addr:city": "ALBUQUERQUE", "addr:country": "US", "addr:postcode": "87110", "addr:state": "NM", "addr:street_address": "7618 MENAUL BLVD NE", "amenity": "post_box", "collection_times": "Mo-Sa 09:30", "nsi_id": "unitedstatespostalservice-a77078", "operator": "United States Postal Service", "operator:short": "USPS", "operator:type": "public", "operator:wikidata": "Q668687", "ref": "8711000042"}, "type": "Feature"}
{"geometry": {"coordinates": [-106.577729, 35.107745], "type": "Point"}, "id": "qoxuUn89quSP88eAeTg0t1_sq2c=", "properties": {"@source_uri": "https://tools.usps.com/UspsToolsRestServices/rest/POLocator/findLocations", "@spider": "usps_collection_boxes", "addr:city": "ALBUQUERQUE", "addr:country": "US", "addr:postcode": "87110", "addr:state": "NM", "addr:street_address": "2501 SAN PEDRO DR NE", "amenity": "post_box", "collection_times": "Mo-Fr 12:30", "note": "ON 12/24 AND 12/31, THIS BOX MAY BE COLLECTED AS EARLY AS 12 NOON.", "nsi_id": "unitedstatespostalservice-a77078", "operator": "United States Postal Service", "operator:short": "USPS", "operator:type": "public", "operator:wikidata": "Q668687", "ref": "8711000047"}, "type": "Feature"}
{"geometry": {"coordinates": [-106.578876, 35.087773], "type": "Point"}, "id": "TOIRHqR19uCQjkDkcac2_GJds5M=", "properties": {"@source_uri": "https://tools.usps.com/UspsToolsRestServices/rest/POLocator/findLocations", "@spider": "usps_collection_boxes", "addr:city": "ALBUQUERQUE", "addr:country": "US", "addr:postcode": "87110", "addr:state": "NM", "addr:street_address": "6001 LOMAS BLVD NE", "amenity": "post_box", "collection_times": "Mo-Sa 10:30", "nsi_id": "unitedstatespostalservice-a77078", "operator": "United States Postal Service", "operator:short": "USPS", "operator:type": "public", "operator:wikidata": "Q668687", "ref": "8711000051"}, "type": "Feature"}
{"geometry": {"coordinates": [-106.572752, 35.10757], "type": "Point"}, "id": "scRtJlSy82bhwduxrAsxMca0yM0=", "properties": {"@source_uri": "https://tools.usps.com/UspsToolsRestServices/rest/POLocator/findLocations", "@spider": "usps_collection_boxes", "addr:city": "ALBUQUERQUE", "addr:country": "US", "addr:postcode": "87110", "addr:state": "NM", "addr:street_address": "6600 MENAUL BLVD NE", "amenity": "post_box", "collection_times": "Mo-Fr 10:45", "nsi_id": "unitedstatespostalservice-a77078", "operator": "United States Postal Service", "operator:short": "USPS", "operator:type": "public", "operator:wikidata": "Q668687", "ref": "8711000059"}, "type": "Feature"}
{"geometry": {"coordinates": [-106.575107, 35.102863], "type": "Point"}, "id": "yYDZzYfl2n_6paTDTjJh2JEd6tM=", "properties": {"@source_uri": "https://tools.usps.com/UspsToolsRestServices/rest/POLocator/findLocations", "@spider": "usps_collection_boxes", "addr:city": "ALBUQUERQUE", "addr:country": "US", "addr:postcode": "87110", "addr:state": "NM", "addr:street_address": "6301 INDIAN SCHOOL RD NE", "amenity": "post_box", "collection_times": "Mo-Sa 11:00", "nsi_id": "unitedstatespostalservice-a77078", "operator": "United States Postal Service", "operator:short": "USPS", "operator:type": "public", "operator:wikidata": "Q668687", "ref": "8711000063"}, "type": "Feature"}
{"geometry": {"coordinates": [-106.5858099733, 35.1295720111], "type": "Point"}, "id": "yOl4o8EYsTk2V19Wyhyx-8F22L0=", "properties": {"@source_uri": "https://tools.usps.com/UspsToolsRestServices/rest/POLocator/findLocations", "@spider": "usps_collection_boxes", "addr:city": "ALBUQUERQUE", "addr:country": "US", "addr:postcode": "87110", "addr:state": "NM", "addr:street_address": "4300 SAN MATEO BLVD NE", "amenity": "post_box", "collection_times": "Mo-Fr 12:00", "nsi_id": "unitedstatespostalservice-a77078", "operator": "United States Postal Service", "operator:short": "USPS", "operator:type": "public", "operator:wikidata": "Q668687", "ref": "8711000076"}, "type": "Feature"}
{"geometry": {"coordinates": [-106.578012959, 35.103148019], "type": "Point"}, "id": "K8eBQnbialGZ33ZfKqCORXXc3_4=", "properties": {"@source_uri": "https://tools.usps.com/UspsToolsRestServices/rest/POLocator/findLocations", "@spider": "usps_collection_boxes", "addr:city": "ALBUQUERQUE", "addr:country": "US", "addr:postcode": "87110", "addr:state": "NM", "addr:street_address": "2201 SAN PEDRO DR NE", "amenity": "post_box", "collection_times": "Mo-Fr 10:00", "nsi_id": "unitedstatespostalservice-a77078", "operator": "United States Postal Service", "operator:short": "USPS", "operator:type": "public", "operator:wikidata": "Q668687", "ref": "8711000079"}, "type": "Feature"}
{"geometry": {"coordinates": [-106.575946, 35.10498], "type": "Point"}, "id": "xecvNObr7yZQRbRSL6J5TyrTYIQ=", "properties": {"@source_uri": "https://tools.usps.com/UspsToolsRestServices/rest/POLocator/findLocations", "@spider": "usps_collection_boxes", "addr:city": "ALBUQUERQUE", "addr:country": "US", "addr:postcode": "87110", "addr:state": "NM", "addr:street_address": "6100 UPTOWN BLVD NE", "amenity": "post_box", "collection_times": "Mo-Fr 10:30", "nsi_id": "unitedstatespostalservice-a77078", "operator": "United States Postal Service", "operator:short": "USPS", "operator:type": "public", "operator:wikidata": "Q668687", "ref": "8711000080"}, "type": "Feature"}
{"geometry": {"coordinates": [-106.596813615, 35.107633362], "type": "Point"}, "id": "9NXiUGNUzPaSpzQa02XT6Nmp8hA=", "properties": {"@source_uri": "https://tools.usps.com/UspsToolsRestServices/rest/POLocator/findLocations", "@spider": "usps_collection_boxes", "addr:city": "ALBUQUERQUE", "addr:country": "US", "addr:postcode": "87110", "addr:state": "NM", "addr:street_address": "2505 GRACELAND DR NE", "amenity": "post_box", "collection_times": "Mo-Fr 18:15; Sa 16:10", "indoor": "yes", "note": "ON 12/24 AND 12/31, THIS BOX MAY BE COLLECTED AS EARLY AS 12 NOON.", "nsi_id": "unitedstatespostalservice-a77078", "operator": "United States Postal Service", "operator:short": "USPS", "operator:type": "public", "operator:wikidata": "Q668687", "ref": "8711000118"}, "type": "Feature"}
{"geometry": {"coordinates": [-106.596813615, 35.107633362], "type": "Point"}, "id": "Zs6cp4iFlrFBuEJyGXGpUOY5w5A=", "properties": {"@source_uri": "https://tools.usps.com/UspsToolsRestServices/rest/POLocator/findLocations", "@spider": "usps_collection_boxes", "addr:city": "ALBUQUERQUE", "addr:country": "US", "addr:postcode": "87110", "addr:state": "NM", "addr:street_address": "2505 GRACELAND DR NE", "amenity": "post_box", "collection_times": "Mo-Fr 18:15; Sa 16:10", "name": "USPS COLLECTION BOX - APC", "note": "ON 12/24 AND 12/31, THIS BOX MAY BE COLLECTED AS EARLY AS 12 NOON.", "nsi_id": "unitedstatespostalservice-a77078", "operator": "United States Postal Service", "operator:short": "USPS", "operator:type": "public", "operator:wikidata": "Q668687", "ref": "8711000131"}, "type": "Feature"}
{"geometry": {"coordinates": [-106.596813615, 35.107633362], "type": "Point"}, "id": "ZGPAFzk6yzs-oKcW4SiDGdJMOzU=", "properties": {"@source_uri": "https://tools.usps.com/UspsToolsRestServices/rest/POLocator/findLocations", "@spider": "usps_collection_boxes", "addr:city": "ALBUQUERQUE", "addr:country": "US", "addr:postcode": "87110", "addr:state": "NM", "addr:street_address": "2505 GRACELAND DR NE", "amenity": "post_box", "collection_times": "Mo-Sa 17:00", "note": "ON 12/24 AND 12/31, THIS BOX MAY BE COLLECTED AS EARLY AS 12 NOON.", "nsi_id": "unitedstatespostalservice-a77078", "operator": "United States Postal Service", "operator:short": "USPS", "operator:type": "public", "operator:wikidata": "Q668687", "ref": "8711000132"}, "type": "Feature"}
{"geometry": {"coordinates": [-106.5531177655, 35.1090644775], "type": "Point"}, "id": "fXn9uP07owwAja8YKJy20IQ9slw=", "properties": {"@source_uri": "https://tools.usps.com/UspsToolsRestServices/rest/POLocator/findLocations", "@spider": "usps_collection_boxes", "addr:city": "ALBUQUERQUE", "addr:country": "US", "addr:postcode": "87110", "addr:state": "NM", "addr:street_address": "8204 MENAUL BLVD NE STE A", "amenity": "post_box", "collection_times": "Mo-Fr 10:30", "nsi_id": "unitedstatespostalservice-a77078", "operator": "United States Postal Service", "operator:short": "USPS", "operator:type": "public", "operator:wikidata": "Q668687", "ref": "8711000139"}, "type": "Feature"}
{"geometry": {"coordinates": [-106.596813615, 35.107633362], "type": "Point"}, "id": "AOmNS4T-jULXlnfjBfDpESb0xFg=", "properties": {"@source_uri": "https://tools.usps.com/UspsToolsRestServices/rest/POLocator/findLocations", "@spider": "usps_collection_boxes", "addr:city": "ALBUQUERQUE", "addr:country": "US", "addr:postcode": "87110", "addr:state": "NM", "addr:street_address": "2505 GRACELAND DR NE", "amenity": "post_box", "collection_times": "Mo-Fr 17:15; Sa 14:45", "indoor": "yes", "note": "ON 12/24 AND 12/31, THIS BOX MAY BE COLLECTED AS EARLY AS 12 NOON.", "nsi_id": "unitedstatespostalservice-a77078", "operator": "United States Postal Service", "operator:short": "USPS", "operator:type": "public", "operator:wikidata": "Q668687", "ref": "8711000142"}, "type": "Feature"}
{"geometry": {"coordinates": [-106.5775816, 35.1048522], "type": "Point"}, "id": "s4c6yOP5EjgAur-gu4_9Yju0wvY=", "properties": {"@source_uri": "https://tools.usps.com/UspsToolsRestServices/rest/POLocator/findLocations", "@spider": "usps_collection_boxes", "addr:city": "ALBUQUERQUE", "addr:country": "US", "addr:postcode": "87110", "addr:state": "NM", "addr:street_address": "7901 MOUNTAIN RD NE", "amenity": "post_box", "collection_times": "Mo-Sa 15:00", "note": "ON 12/24 AND 12/31, THIS BOX MAY BE COLLECTED AS EARLY AS 12 NOON.", "nsi_id": "unitedstatespostalservice-a77078", "operator": "United States Postal Service", "operator:short": "USPS", "operator:type": "public", "operator:wikidata": "Q668687", "ref": "8711000150"}, "type": "Feature"}
{"geometry": {"coordinates": [-106.5332194173, 35.1379434446], "type": "Point"}, "id": "Iavzl9m_ym3nIXv8QW5I3841s5g=", "properties": {"@source_uri": "https://tools.usps.com/UspsToolsRestServices/rest/POLocator/findLocations", "@spider": "usps_collection_boxes", "addr:city": "ALBUQUERQUE", "addr:country": "US", "addr:postcode": "87111", "addr:state": "NM", "addr:street_address": "5200 EUBANK BLVD NE", "amenity": "post_box", "collection_times": "Mo-Fr 09:00", "nsi_id": "unitedstatespostalservice-a77078", "operator": "United States Postal Service", "operator:short": "USPS", "operator:type": "public", "operator:wikidata": "Q668687", "ref": "8711100002"}, "type": "Feature"}
{"geometry": {"coordinates": [-106.550679, 35.136574], "type": "Point"}, "id": "HjfU85oK46rFIkMXHSz8nvUwAAw=", "properties": {"@source_uri": "https://tools.usps.com/UspsToolsRestServices/rest/POLocator/findLocations", "@spider": "usps_collection_boxes", "addr:city": "ALBUQUERQUE", "addr:country": "US", "addr:postcode": "87111", "addr:state": "NM", "addr:street_address": "8400 OSUNA RD NE", "amenity": "post_box", "collection_times": "Mo-Fr 10:00", "nsi_id": "unitedstatespostalservice-a77078", "operator": "United States Postal Service", "operator:short": "USPS", "operator:type": "public", "operator:wikidata": "Q668687", "ref": "8711100010"}, "type": "Feature"}
{"geometry": {"coordinates": [-106.550931, 35.147215], "type": "Point"}, "id": "XuTWpJckfqsv-mK_MJvhIEp6WN0=", "properties": {"@source_uri": "https://tools.usps.com/UspsToolsRestServices/rest/POLocator/findLocations", "@spider": "usps_collection_boxes", "addr:city": "ALBUQUERQUE", "addr:country": "US", "addr:postcode": "87111", "addr:state": "NM", "addr:street_address": "8040 ACADEMY RD NE", "amenity": "post_box", "collection_times": "Mo-Sa 10:00", "nsi_id": "unitedstatespostalservice-a77078", "operator": "United States Postal Service", "operator:short": "USPS", "operator:type": "public", "operator:wikidata": "Q668687", "ref": "8711100012"}, "type": "Feature"}
{"geometry": {"coordinates": [-106.5276460194, 35.1467049984], "type": "Point"}, "id": "qJ4DgNK8q8Mu6X7NnpgRSLKMcao=", "properties": {"@source_uri": "https://tools.usps.com/UspsToolsRestServices/rest/POLocator/findLocations", "@spider": "usps_collection_boxes", "addr:city": "ALBUQUERQUE", "addr:country": "US", "addr:postcode": "87111", "addr:state": "NM", "addr:street_address": "5850 EUBANK BLVD NE", "amenity": "post_box", "collection_times": "Mo-Sa 10:00", "nsi_id": "unitedstatespostalservice-a77078", "operator": "United States Postal Service", "operator:short": "USPS", "operator:type": "public", "operator:wikidata": "Q668687", "ref": "8711100019"}, "type": "Feature"}
{"geometry": {"coordinates": [-106.5316805255, 35.1162604799], "type": "Point"}, "id": "WQIO7jju6MKYuLEle8-rdx3KWsc=", "properties": {"@source_uri": "https://tools.usps.com/UspsToolsRestServices/rest/POLocator/findLocations", "@spider": "usps_collection_boxes", "addr:city": "ALBUQUERQUE", "addr:country": "US", "addr:postcode": "87111", "addr:state": "NM", "addr:street_address": "9719 CANDELARIA RD NE", "amenity": "post_box", "collection_times": "Mo-Sa 17:00", "note": "ON 12/24 AND 12/31, THIS BOX MAY BE COLLECTED AS EARLY AS 12 NOON.", "nsi_id": "unitedstatespostalservice-a77078", "operator": "United States Postal Service", "operator:short": "USPS", "operator:type": "public", "operator:wikidata": "Q668687", "ref": "8711100037"}, "type": "Feature"}
{"geometry": {"coordinates": [-106.5316805255, 35.1162604799], "type": "Point"}, "id": "bqfRtXBMVg2Xdz0mmKHonTVowS4=", "properties": {"@source_uri": "https://tools.usps.com/UspsToolsRestServices/rest/POLocator/findLocations", "@spider": "usps_collection_boxes", "addr:city": "ALBUQUERQUE", "addr:country": "US", "addr:postcode": "87111", "addr:state": "NM", "addr:street_address": "9719 CANDELARIA RD NE", "amenity": "post_box", "collection_times": "Mo-Sa 17:00", "note": "ON 12/24 AND 12/31, THIS BOX MAY BE COLLECTED AS EARLY AS 12 NOON.", "nsi_id": "unitedstatespostalservice-a77078", "operator": "United States Postal Service", "operator:short": "USPS", "operator:type": "public", "operator:wikidata": "Q668687", "ref": "8711100038"}, "type": "Feature"}
{"geometry": {"coordinates": [-106.5234342146, 35.1541476189], "type": "Point"}, "id": "5UqpILFlCJVKg27k0lA8vwH66bU=", "properties": {"@source_uri": "https://tools.usps.com/UspsToolsRestServices/rest/POLocator/findLocations", "@spider": "usps_collection_boxes", "addr:city": "ALBUQUERQUE", "addr:country": "US", "addr:postcode": "87111", "addr:state": "NM", "addr:street_address": "10400 ACADEMY RD NE STE 100", "amenity": "post_box", "collection_times": "Mo-Sa 09:30", "nsi_id": "unitedstatespostalservice-a77078", "operator": "United States Postal Service", "operator:short": "USPS", "operator:type": "public", "operator:wikidata": "Q668687", "ref": "8711100042"}, "type": "Feature"}
{"geometry": {"coordinates": [-106.516106, 35.118595], "type": "Point"}, "id": "hvpiUy-_F3RX9VMkZ7EXqXLfgbk=", "properties": {"@source_uri": "https://tools.usps.com/UspsToolsRestServices/rest/POLocator/findLocations", "@spider": "usps_collection_boxes", "addr:city": "ALBUQUERQUE", "addr:country": "US", "addr:postcode": "87111", "addr:state": "NM", "addr:street_address": "3301 JUAN TABO BLVD NE", "amenity": "post_box", "collection_times": "Mo-Fr 10:00", "nsi_id": "unitedstatespostalservice-a77078", "operator": "United States Postal Service", "operator:short": "USPS", "operator:type": "public", "operator:wikidata": "Q668687", "ref": "8711100045"}, "type": "Feature"}
{"geometry": {"coordinates": [-106.5316805255, 35.1162604799], "type": "Point"}, "id": "DtJbw0vjyRRHW8Wkk_slaAl3gzo=", "properties": {"@source_uri": "https://tools.usps.com/UspsToolsRestServices/rest/POLocator/findLocations", "@spider": "usps_collection_boxes", "addr:city": "ALBUQUERQUE", "addr:country": "US", "addr:postcode": "87111", "addr:state": "NM", "addr:street_address": "9719 CANDELARIA RD NE", "amenity": "post_box", "collection_times": "Mo-Fr 18:00; Sa 16:00", "name": "USPS COLLECTION BOX - APC", "note": "ON 12/24 AND 12/31, THIS BOX MAY BE COLLECTED AS EARLY AS 12 NOON.", "nsi_id": "unitedstatespostalservice-a77078", "operator": "United States Postal Service", "operator:short": "USPS", "operator:type": "public", "operator:wikidata": "Q668687", "ref": "8711100053"}, "type": "Feature"}
{"geometry": {"coordinates": [-106.540353, 35.131165], "type": "Point"}, "id": "yng8W8IyHgUFfzKbi3TPL655tXI=", "properties": {"@source_uri": "https://tools.usps.com/UspsToolsRestServices/rest/POLocator/findLocations", "@spider": "usps_collection_boxes", "addr:city": "ALBUQUERQUE", "addr:country": "US", "addr:postcode": "87111", "addr:state": "NM", "addr:street_address": "9201 MONTGOMERY BLVD NE", "amenity": "post_box", "collection_times": "Mo-Fr 10:00", "nsi_id": "unitedstatespostalservice-a77078", "operator": "United States Postal Service", "operator:short": "USPS", "operator:type": "public", "operator:wikidata": "Q668687", "ref": "8711100054"}, "type": "Feature"}
{"geometry": {"coordinates": [-106.5316805255, 35.1162604799], "type": "Point"}, "id": "XBl8sFA3vg3yepHsjxLITV16xJw=", "properties": {"@source_uri": "https://tools.usps.com/UspsToolsRestServices/rest/POLocator/findLocations", "@spider": "usps_collection_boxes", "addr:city": "ALBUQUERQUE", "addr:country": "US", "addr:postcode": "87111", "addr:state": "NM", "addr:street_address": "9719 CANDELARIA RD NE", "amenity": "post_box", "collection_times": "Mo-Fr 18:00; Sa 16:00", "indoor": "yes", "note": "ON 12/24 AND 12/31, THIS BOX MAY BE COLLECTED AS EARLY AS 12 NOON.", "nsi_id": "unitedstatespostalservice-a77078", "operator": "United States Postal Service", "operator:short": "USPS", "operator:type": "public", "operator:wikidata": "Q668687", "ref": "8711100055"}, "type": "Feature"}
{"geometry": {"coordinates": [-106.5316805255, 35.1162604799], "type": "Point"}, "id": "HqW2yrI1PhdzzadMdereoxPLl9Y=", "properties": {"@source_uri": "https://tools.usps.com/UspsToolsRestServices/rest/POLocator/findLocations", "@spider": "usps_collection_boxes", "addr:city": "ALBUQUERQUE", "addr:country": "US", "addr:postcode": "87111", "addr:state": "NM", "addr:street_address": "9719 CANDELARIA RD NE", "amenity": "post_box", "collection_times": "Mo-Fr 18:00; Sa 16:00", "indoor": "yes", "note": "ON 12/24 AND 12/31, THIS BOX MAY BE COLLECTED AS EARLY AS 12 NOON.", "nsi_id": "unitedstatespostalservice-a77078", "operator": "United States Postal Service", "operator:short": "USPS", "operator:type": "public", "operator:wikidata": "Q668687", "ref": "8711100056"}, "type": "Feature"}
{"geometry": {"coordinates": [-106.5316805255, 35.1162604799], "type": "Point"}, "id": "cYIwO4EmR8RQPoH_dbocL860UOk=", "properties": {"@source_uri": "https://tools.usps.com/UspsToolsRestServices/rest/POLocator/findLocations", "@spider": "usps_collection_boxes", "addr:city": "ALBUQUERQUE", "addr:country": "US", "addr:postcode": "87111", "addr:state": "NM", "addr:street_address": "9719 CANDELARIA RD NE", "amenity": "post_box", "collection_times": "Mo-Fr 18:00; Sa 16:00", "indoor": "yes", "note": "ON 12/24 AND 12/31, THIS BOX MAY BE COLLECTED AS EARLY AS 12 NOON.", "nsi_id": "unitedstatespostalservice-a77078", "operator": "United States Postal Service", "operator:short": "USPS", "operator:type": "public", "operator:wikidata": "Q668687", "ref": "8711100057"}, "type": "Feature"}
{"geometry": {"coordinates": [-106.5316805255, 35.1162604799], "type": "Point"}, "id": "Ta2nTIUDqP0eVYMjYyBSx9eEqn0=", "properties": {"@source_uri": "https://tools.usps.com/UspsToolsRestServices/rest/POLocator/findLocations", "@spider": "usps_collection_boxes", "addr:city": "ALBUQUERQUE", "addr:country": "US", "addr:postcode": "87111", "addr:state": "NM", "addr:street_address": "9719 CANDELARIA RD NE", "amenity": "post_box", "collection_times": "Mo-Fr 16:45; Sa 14:45", "indoor": "yes", "note": "ON 12/24 AND 12/31, THIS BOX MAY BE COLLECTED AS EARLY AS 12 NOON.", "nsi_id": "unitedstatespostalservice-a77078", "operator": "United States Postal Service", "operator:short": "USPS", "operator:type": "public", "operator:wikidata": "Q668687", "ref": "8711100061"}, "type": "Feature"}
{"geometry": {"coordinates": [-106.5138319724, 35.1153669903], "type": "Point"}, "id": "FhFKbi8U3P1cUBOlZjVuf0H0wF8=", "properties": {"@source_uri": "https://tools.usps.com/UspsToolsRestServices/rest/POLocator/findLocations", "@spider": "usps_collection_boxes", "addr:city": "ALBUQUERQUE", "addr:country": "US", "addr:postcode": "87112", "addr:state": "NM", "addr:street_address": "2910 JUAN TABO BLVD NE", "amenity": "post_box", "collection_times": "Mo-Fr 11:30; Sa 11:00", "nsi_id": "unitedstatespostalservice-a77078", "operator": "United States Postal Service", "operator:short": "USPS", "operator:type": "public", "operator:wikidata": "Q668687", "ref": "8711200001"}, "type": "Feature"}
{"geometry": {"coordinates": [-106.5506179424, 35.0963906961], "type": "Point"}, "id": "ttYyeBqGfAThq3T3C9J4CRJRqcE=", "properties": {"@source_uri": "https://tools.usps.com/UspsToolsRestServices/rest/POLocator/findLocations", "@spider": "usps_collection_boxes", "addr:city": "ALBUQUERQUE", "addr:country": "US", "addr:postcode": "87112", "addr:state": "NM", "addr:street_address": "1508 WYOMING BLVD NE", "amenity": "post_box", "collection_times": "Mo-Fr 11:00", "nsi_id": "unitedstatespostalservice-a77078", "operator": "United States Postal Service", "operator:short": "USPS", "operator:type": "public", "operator:wikidata": "Q668687", "ref": "8711200004"}, "type": "Feature"}
{"geometry": {"coordinates": [-106.5326194658, 35.0949006488], "type": "Point"}, "id": "-yzt68GSaW1tOxCquQqwKSQJZzE=", "properties": {"@source_uri": "https://tools.usps.com/UspsToolsRestServices/rest/POLocator/findLocations", "@spider": "usps_collection_boxes", "addr:city": "ALBUQUERQUE", "addr:country": "US", "addr:postcode": "87112", "addr:state": "NM", "addr:street_address": "1412 EUBANK BLVD NE", "amenity": "post_box", "collection_times": "Mo-Sa 15:00", "note": "ON 12/24 AND 12/31, THIS BOX MAY BE COLLECTED AS EARLY AS 12 NOON.", "nsi_id": "unitedstatespostalservice-a77078", "operator": "United States Postal Service", "operator:short": "USPS", "operator:type": "public", "operator:wikidata": "Q668687", "ref": "8711200005"}, "type": "Feature"}
{"geometry": {"coordinates": [-106.528243, 35.087293], "type": "Point"}, "id": "kujwmTmdMUoFvKAsHsbX2ZJsje0=", "properties": {"@source_uri": "https://tools.usps.com/UspsToolsRestServices/rest/POLocator/findLocations", "@spider": "usps_collection_boxes", "addr:city": "ALBUQUERQUE", "addr:country": "US", "addr:postcode": "87112", "addr:state": "NM", "addr:street_address": "10701 LOMAS BLVD NE", "amenity": "post_box", "collection_times": "Mo-Fr 09:00", "nsi_id": "unitedstatespostalservice-a77078", "operator": "United States Postal Service", "operator:short": "USPS", "operator:type": "public", "operator:wikidata": "Q668687", "ref": "8711200007"}, "type": "Feature"}
{"geometry": {"coordinates": [-106.516706, 35.087265], "type": "Point"}, "id": "GfZ1m14hEz-9NQnegIKrdfOQyGs=", "properties": {"@source_uri": "https://tools.usps.com/UspsToolsRestServices/rest/POLocator/findLocations", "@spider": "usps_collection_boxes", "addr:city": "ALBUQUERQUE", "addr:country": "US", "addr:postcode": "87112", "addr:state": "NM", "addr:street_address": "11825 LOMAS BLVD NE", "amenity": "post_box", "collection_times": "Mo-Fr 10:00; Sa 15:00", "note": "ON 12/24 AND 12/31, THIS BOX MAY BE COLLECTED AS EARLY AS 12 NOON.", "nsi_id": "unitedstatespostalservice-a77078", "operator": "United States Postal Service", "operator:short": "USPS", "operator:type": "public", "operator:wikidata": "Q668687", "ref": "8711200008"}, "type": "Feature"}
{"geometry": {"coordinates": [-106.5480919958, 35.1082899818], "type": "Point"}, "id": "nLvSCzWDqG716ftaDYtqh4gWN1k=", "properties": {"@source_uri": "https://tools.usps.com/UspsToolsRestServices/rest/POLocator/findLocations", "@spider": "usps_collection_boxes", "addr:city": "ALBUQUERQUE", "addr:country": "US", "addr:postcode": "87112", "addr:state": "NM", "addr:street_address": "8500 MENAUL BLVD NE", "amenity": "post_box", "collection_times": "Mo-Fr 09:00", "nsi_id": "unitedstatespostalservice-a77078", "operator": "United States Postal Service", "operator:short": "USPS", "operator:type": "public", "operator:wikidata": "Q668687", "ref": "8711200009"}, "type": "Feature"}
{"geometry": {"coordinates": [-106.5433090304, 35.1075460041], "type": "Point"}, "id": "o5EYxELKgFbzkfK1jBuaOCskbAA=", "properties": {"@source_uri": "https://tools.usps.com/UspsToolsRestServices/rest/POLocator/findLocations", "@spider": "usps_collection_boxes", "addr:city": "ALBUQUERQUE", "addr:country": "US", "addr:postcode": "87112", "addr:state": "NM", "addr:street_address": "8911 NORTHEASTERN BLVD NE", "amenity": "post_box", "collection_times": "Mo-Sa 12:00", "nsi_id": "unitedstatespostalservice-a77078", "operator": "United States Postal Service", "operator:short": "USPS", "operator:type": "public", "operator:wikidata": "Q668687", "ref": "8711200011"}, "type": "Feature"}
{"geometry": {"coordinates": [-106.532765, 35.09862], "type": "Point"}, "id": "kB3FZXrPINlCUjkz6c5885a1jzs=", "properties": {"@source_uri": "https://tools.usps.com/UspsToolsRestServices/rest/POLocator/findLocations", "@spider": "usps_collection_boxes", "addr:city": "ALBUQUERQUE", "addr:country": "US", "addr:postcode": "87112", "addr:state": "NM", "addr:street_address": "1520 TRAMWAY BLVD NE", "amenity": "post_box", "collection_times": "Mo-Fr 10:00", "nsi_id": "unitedstatespostalservice-a77078", "operator": "United States Postal Service", "operator:short": "USPS", "operator:type": "public", "operator:wikidata": "Q668687", "ref": "8711200017"}, "type": "Feature"}
{"geometry": {"coordinates": [-106.551223, 35.114919], "type": "Point"}, "id": "DN89CaGc7od8G4gyvWyCSNxmIhY=", "properties": {"@source_uri": "https://tools.usps.com/UspsToolsRestServices/rest/POLocator/findLocations", "@spider": "usps_collection_boxes", "addr:city": "ALBUQUERQUE", "addr:country": "US", "addr:postcode": "87112", "addr:state": "NM", "addr:street_address": "2601 WYOMING BLVD NE", "amenity": "post_box", "collection_times": "Mo-Fr 10:00", "nsi_id": "unitedstatespostalservice-a77078", "operator": "United States Postal Service", "operator:short": "USPS", "operator:type": "public", "operator:wikidata": "Q668687", "ref": "8711200020"}, "type": "Feature"}
{"geometry": {"coordinates": [-106.50683, 35.089449], "type": "Point"}, "id": "xLiS4zK7hUKs_14TCFYKlKfkL-g=", "properties": {"@source_uri": "https://tools.usps.com/UspsToolsRestServices/rest/POLocator/findLocations", "@spider": "usps_collection_boxes", "addr:city": "ALBUQUERQUE", "addr:country": "US", "addr:postcode": "87112", "addr:state": "NM", "addr:street_address": "1025 CHELWOOD PARK BLVD NE", "amenity": "post_box", "collection_times": "Mo-Sa 14:00", "note": "ON 12/24 AND 12/31, THIS BOX MAY BE COLLECTED AS EARLY AS 12 NOON.", "nsi_id": "unitedstatespostalservice-a77078", "operator": "United States Postal Service", "operator:short": "USPS", "operator:type": "public", "operator:wikidata": "Q668687", "ref": "8711200021"}, "type": "Feature"}
{"geometry": {"coordinates": [-106.532765, 35.09862], "type": "Point"}, "id": "bxukGQTDC51KXfaSTfzM3xg6M6Y=", "properties": {"@source_uri": "https://tools.usps.com/UspsToolsRestServices/rest/POLocator/findLocations", "@spider": "usps_collection_boxes", "addr:city": "ALBUQUERQUE", "addr:country": "US", "addr:postcode": "87112", "addr:state": "NM", "addr:street_address": "2200 JUAN TABO BLVD NE", "amenity": "post_box", "collection_times": "Mo-Sa 11:30", "nsi_id": "unitedstatespostalservice-a77078", "operator": "United States Postal Service", "operator:short": "USPS", "operator:type": "public", "operator:wikidata": "Q668687", "ref": "8711200024"}, "type": "Feature"}
{"geometry": {"coordinates": [-106.517159, 35.099743], "type": "Point"}, "id": "qjnGf_5UJ8yux7WASIhiHA6DOSs=", "properties": {"@source_uri": "https://tools.usps.com/UspsToolsRestServices/rest/POLocator/findLocations", "@spider": "usps_collection_boxes", "addr:city": "ALBUQUERQUE", "addr:country": "US", "addr:postcode": "87112", "addr:state": "NM", "addr:street_address": "11600 HAINES AVE NE", "amenity": "post_box", "collection_times": "Mo-Fr 17:30; Sa 15:30", "indoor": "yes", "note": "ON 12/24 AND 12/31, THIS BOX MAY BE COLLECTED AS EARLY AS 12 NOON.", "nsi_id": "unitedstatespostalservice-a77078", "operator": "United States Postal Service", "operator:short": "USPS", "operator:type": "public", "operator:wikidata": "Q668687", "ref": "8711200049"}, "type": "Feature"}
{"geometry": {"coordinates": [-106.517159, 35.099743], "type": "Point"}, "id": "rRbecHAIXCCc-eTTSsjwVFFMxYc=", "properties": {"@source_uri": "https://tools.usps.com/UspsToolsRestServices/rest/POLocator/findLocations", "@spider": "usps_collection_boxes", "addr:city": "ALBUQUERQUE", "addr:country": "US", "addr:postcode": "87112", "addr:state": "NM", "addr:street_address": "11600 HAINES AVE NE", "amenity": "post_box", "collection_times": "Mo-Fr 17:30; Sa 15:30", "indoor": "yes", "note": "ON 12/24 AND 12/31, THIS BOX MAY BE COLLECTED AS EARLY AS 12 NOON.", "nsi_id": "unitedstatespostalservice-a77078", "operator": "United States Postal Service", "operator:short": "USPS", "operator:type": "public", "operator:wikidata": "Q668687", "ref": "8711200050"}, "type": "Feature"}
{"geometry": {"coordinates": [-106.5160150391, 35.0992480037], "type": "Point"}, "id": "cZ27XSU-OZieJ9B2RyRO-yyctS4=", "properties": {"@source_uri": "https://tools.usps.com/UspsToolsRestServices/rest/POLocator/findLocations", "@spider": "usps_collection_boxes", "addr:city": "ALBUQUERQUE", "addr:country": "US", "addr:postcode": "87112", "addr:state": "NM", "addr:street_address": "11600 HAINES AVE NE", "amenity": "post_box", "collection_times": "Mo-Sa 17:00", "note": "ON 12/24 AND 12/31, THIS BOX MAY BE COLLECTED AS EARLY AS 12 NOON.", "nsi_id": "unitedstatespostalservice-a77078", "operator": "United States Postal Service", "operator:short": "USPS", "operator:type": "public", "operator:wikidata": "Q668687", "ref": "8711200059"}, "type": "Feature"}
{"geometry": {"coordinates": [-106.550308, 35.102486], "type": "Point"}, "id": "LabRAfU62eHIGMclEcYBJR5WGbo=", "properties": {"@source_uri": "https://tools.usps.com/UspsToolsRestServices/rest/POLocator/findLocations", "@spider": "usps_collection_boxes", "addr:city": "ALBUQUERQUE", "addr:country": "US", "addr:postcode": "87112", "addr:state": "NM", "addr:street_address": "1900 WYOMING BLVD NE", "amenity": "post_box", "collection_times": "Mo-Sa 12:00", "nsi_id": "unitedstatespostalservice-a77078", "operator": "United States Postal Service", "operator:short": "USPS", "operator:type": "public", "operator:wikidata": "Q668687", "ref": "8711200061"}, "type": "Feature"}
{"geometry": {"coordinates": [-106.516042722, 35.099676506], "type": "Point"}, "id": "I-bcuo_TaMuRmShiXVkSHrRO9bw=", "properties": {"@source_uri": "https://tools.usps.com/UspsToolsRestServices/rest/POLocator/findLocations", "@spider": "usps_collection_boxes", "addr:city": "ALBUQUERQUE", "addr:country": "US", "addr:postcode": "87112", "addr:state": "NM", "addr:street_address": "11600 HAINES AVE NE", "amenity": "post_box", "collection_times": "Mo-Fr 16:45; Sa 14:45", "indoor": "yes", "note": "ON 12/24 AND 12/31, THIS BOX MAY BE COLLECTED AS EARLY AS 12 NOON.", "nsi_id": "unitedstatespostalservice-a77078", "operator": "United States Postal Service", "operator:short": "USPS", "operator:type": "public", "operator:wikidata": "Q668687", "ref": "8711200066"}, "type": "Feature"}
{"geometry": {"coordinates": [-106.6786992062, 35.1977265662], "type": "Point"}, "id": "fasKks_O5Z-AY9_o72Kb_LHRg5k=", "properties": {"@source_uri": "https://tools.usps.com/UspsToolsRestServices/rest/POLocator/findLocations", "@spider": "usps_collection_boxes", "addr:city": "ALBUQUERQUE", "addr:country": "US", "addr:postcode": "87114", "addr:state": "NM", "addr:street_address": "4611 GREENE ST NW", "amenity": "post_box", "collection_times": "Mo-Fr 10:00", "nsi_id": "unitedstatespostalservice-a77078", "operator": "United States Postal Service", "operator:short": "USPS", "operator:type": "public", "operator:wikidata": "Q668687", "ref": "8711400002"}, "type": "Feature"}
{"geometry": {"coordinates": [-106.646670569, 35.204102334], "type": "Point"}, "id": "na3KohZ5Q2kX1JigR4R3xEcMYQI=", "properties": {"@source_uri": "https://tools.usps.com/UspsToolsRestServices/rest/POLocator/findLocations", "@spider": "usps_collection_boxes", "addr:city": "ALBUQUERQUE", "addr:country": "US", "addr:postcode": "87114", "addr:state": "NM", "addr:street_address": "10701 CORRALES RD NW", "amenity": "post_box", "collection_times": "Mo-Sa 15:45", "note": "ON 12/24 AND 12/31, THIS BOX MAY BE COLLECTED AS EARLY AS 12 NOON.", "nsi_id": "unitedstatespostalservice-a77078", "operator": "United States Postal Service", "operator:short": "USPS", "operator:type": "public", "operator:wikidata": "Q668687", "ref": "8711400003"}, "type": "Feature"}
{"geometry": {"coordinates": [-106.651467, 35.19967], "type": "Point"}, "id": "k7Si6fmoHuxeOvns33j3Wc-aXX4=", "properties": {"@source_uri": "https://tools.usps.com/UspsToolsRestServices/rest/POLocator/findLocations", "@spider": "usps_collection_boxes", "addr:city": "ALBUQUERQUE", "addr:country": "US", "addr:postcode": "87114", "addr:state": "NM", "addr:street_address": "10131 COORS BLVD NW", "amenity": "post_box", "collection_times": "Mo-Sa 10:00", "nsi_id": "unitedstatespostalservice-a77078", "operator": "United States Postal Service", "operator:short": "USPS", "operator:type": "public", "operator:wikidata": "Q668687", "ref": "8711400004"}, "type": "Feature"}
{"geometry": {"coordinates": [-106.7399592, 35.1965915], "type": "Point"}, "id": "cd3F4s0uFq3hHq-XF491cHS5jbY=", "properties": {"@source_uri": "https://tools.usps.com/UspsToolsRestServices/rest/POLocator/findLocations", "@spider": "usps_collection_boxes", "addr:city": "ALBUQUERQUE", "addr:country": "US", "addr:postcode": "87114", "addr:state": "NM", "addr:street_address": "9132 4TH ST NW", "amenity": "post_box", "collection_times": "Mo-Sa 17:00", "note": "ON 12/24 AND 12/31, THIS BOX MAY BE COLLECTED AS EARLY AS 12 NOON.", "nsi_id": "unitedstatespostalservice-a77078", "operator": "United States Postal Service", "operator:short": "USPS", "operator:type": "public", "operator:wikidata": "Q668687", "ref": "8711400009"}, "type": "Feature"}
{"geometry": {"coordinates": [-106.652140966, 35.208511427], "type": "Point"}, "id": "tVf51-9I-AWBW8-1qxrYcXCmMVY=", "properties": {"@source_uri": "https://tools.usps.com/UspsToolsRestServices/rest/POLocator/findLocations", "@spider": "usps_collection_boxes", "addr:city": "ALBUQUERQUE", "addr:country": "US", "addr:postcode": "87114", "addr:state": "NM", "addr:street_address": "3613 HIGHWAY 528 NW", "amenity": "post_box", "collection_times": "Mo-Sa 10:30", "nsi_id": "unitedstatespostalservice-a77078", "operator": "United States Postal Service", "operator:short": "USPS", "operator:type": "public", "operator:wikidata": "Q668687", "ref": "8711400021"}, "type": "Feature"}
{"geometry": {"coordinates": [-106.673677, 35.18383], "type": "Point"}, "id": "8UcLwfw2vsba2Od4zmmo4uiqRZg=", "properties": {"@source_uri": "https://tools.usps.com/UspsToolsRestServices/rest/POLocator/findLocations", "@spider": "usps_collection_boxes", "addr:city": "ALBUQUERQUE", "addr:country": "US", "addr:postcode": "87114", "addr:state": "NM", "addr:street_address": "4600 PARADISE BLVD NW", "amenity": "post_box", "collection_times": "Mo-Fr 18:00; Sa 17:00", "indoor": "yes", "note": "ON 12/24 AND 12/31, THIS BOX MAY BE COLLECTED AS EARLY AS 12 NOON.", "nsi_id": "unitedstatespostalservice-a77078", "operator": "United States Postal Service", "operator:short": "USPS", "operator:type": "public", "operator:wikidata": "Q668687", "ref": "8711400029"}, "type": "Feature"}
{"geometry": {"coordinates": [-106.620741, 35.185397], "type": "Point"}, "id": "JPwU8Z2bUEySTC_vvimSzWKG5gM=", "properties": {"@source_uri": "https://tools.usps.com/UspsToolsRestServices/rest/POLocator/findLocations", "@spider": "usps_collection_boxes", "addr:city": "ALBUQUERQUE", "addr:country": "US", "addr:postcode": "87114", "addr:state": "NM", "addr:street_address": "9132 4TH ST NW", "amenity": "post_box", "collection_times": "Mo-Fr 15:00", "indoor": "yes", "note": "ON 12/24 AND 12/31, THIS BOX MAY BE COLLECTED AS EARLY AS 12 NOON.", "nsi_id": "unitedstatespostalservice-a77078", "operator": "United States Postal Service", "operator:short": "USPS", "operator:type": "public", "operator:wikidata": "Q668687", "ref": "8711400030"}, "type": "Feature"}
{"geometry": {"coordinates": [-106.673677, 35.18383], "type": "Point"}, "id": "Mqx-VO2azwlpky77McX_HWYx-pM=", "properties": {"@source_uri": "https://tools.usps.com/UspsToolsRestServices/rest/POLocator/findLocations", "@spider": "usps_collection_boxes", "addr:city": "ALBUQUERQUE", "addr:country": "US", "addr:postcode": "87114", "addr:state": "NM", "addr:street_address": "4600 PARADISE BLVD NW", "amenity": "post_box", "collection_times": "Mo-Fr 18:00; Sa 17:00", "indoor": "yes", "note": "ON 12/24 AND 12/31, THIS BOX MAY BE COLLECTED AS EARLY AS 12 NOON.", "nsi_id": "unitedstatespostalservice-a77078", "operator": "United States Postal Service", "operator:short": "USPS", "operator:type": "public", "operator:wikidata": "Q668687", "ref": "8711400035"}, "type": "Feature"}
{"geometry": {"coordinates": [-106.6634512461, 35.1855306631], "type": "Point"}, "id": "mIF8LZMfITkVKcuOOiI_hLw2ysw=", "properties": {"@source_uri": "https://tools.usps.com/UspsToolsRestServices/rest/POLocator/findLocations", "@spider": "usps_collection_boxes", "addr:city": "ALBUQUERQUE", "addr:country": "US", "addr:postcode": "87114", "addr:state": "NM", "addr:street_address": "9371 COORS BLVD NW", "amenity": "post_box", "collection_times": "Mo-Sa 10:00", "nsi_id": "unitedstatespostalservice-a77078", "operator": "United States Postal Service", "operator:short": "USPS", "operator:type": "public", "operator:wikidata": "Q668687", "ref": "8711400037"}, "type": "Feature"}
{"geometry": {"coordinates": [-106.673677, 35.18383], "type": "Point"}, "id": "a7v4D7M5tWuW6mju2_D1cg_g7kk=", "properties": {"@source_uri": "https://tools.usps.com/UspsToolsRestServices/rest/POLocator/findLocations", "@spider": "usps_collection_boxes", "addr:city": "ALBUQUERQUE", "addr:country": "US", "addr:postcode": "87114", "addr:state": "NM", "addr:street_address": "4600 PARADISE BLVD NW", "amenity": "post_box", "collection_times": "Mo-Fr 18:00; Sa 17:00", "name": "USPS COLLECTION BOX - APC", "note": "ON 12/24 AND 12/31, THIS BOX MAY BE COLLECTED AS EARLY AS 12 NOON.", "nsi_id": "unitedstatespostalservice-a77078", "operator": "United States Postal Service", "operator:short": "USPS", "operator:type": "public", "operator:wikidata": "Q668687", "ref": "8711400042"}, "type": "Feature"}
{"geometry": {"coordinates": [-106.673677, 35.18383], "type": "Point"}, "id": "FKW3DRNUpnEm-ppa6DV2L2452oA=", "properties": {"@source_uri": "https://tools.usps.com/UspsToolsRestServices/rest/POLocator/findLocations", "@spider": "usps_collection_boxes", "addr:city": "ALBUQUERQUE", "addr:country": "US", "addr:postcode": "87114", "addr:state": "NM", "addr:street_address": "4600 PARADISE BLVD NW", "amenity": "post_box", "collection_times": "Mo-Fr 18:00; Sa 17:00", "indoor": "yes", "note": "ON 12/24 AND 12/31, THIS BOX MAY BE COLLECTED AS EARLY AS 12 NOON.", "nsi_id": "unitedstatespostalservice-a77078", "operator": "United States Postal Service", "operator:short": "USPS", "operator:type": "public", "operator:wikidata": "Q668687", "ref": "8711400044"}, "type": "Feature"}
{"geometry": {"coordinates": [-106.6803268795, 35.1872467798], "type": "Point"}, "id": "aKYQXMscjOyAsA9q-TLwuGKR3ck=", "properties": {"@source_uri": "https://tools.usps.com/UspsToolsRestServices/rest/POLocator/findLocations", "@spider": "usps_collection_boxes", "addr:city": "ALBUQUERQUE", "addr:country": "US", "addr:postcode": "87114", "addr:state": "NM", "addr:street_address": "4600 PARADISE BLVD NW", "amenity": "post_box", "collection_times": "Mo-Fr 16:45; Sa 14:45", "indoor": "yes", "note": "ON 12/24 AND 12/31, THIS BOX MAY BE COLLECTED AS EARLY AS 12 NOON.", "nsi_id": "unitedstatespostalservice-a77078", "operator": "United States Postal Service", "operator:short": "USPS", "operator:type": "public", "operator:wikidata": "Q668687", "ref": "8711400053"}, "type": "Feature"}
{"geometry": {"coordinates": [-106.6466705688, 35.2041023342], "type": "Point"}, "id": "Pa-mNSLdmYxHFhNgAEbfBF6dDQo=", "properties": {"@source_uri": "https://tools.usps.com/UspsToolsRestServices/rest/POLocator/findLocations", "@spider": "usps_collection_boxes", "addr:city": "ALBUQUERQUE", "addr:country": "US", "addr:postcode": "87114", "addr:state": "NM", "addr:street_address": "10701 COORS BLVD NW STE 19A", "amenity": "post_box", "collection_times": "Mo-Fr 17:00; Sa 14:30", "indoor": "yes", "note": "ON 12/24 AND 12/31, THIS BOX MAY BE COLLECTED AS EARLY AS 12 NOON.", "nsi_id": "unitedstatespostalservice-a77078", "operator": "United States Postal Service", "operator:short": "USPS", "operator:type": "public", "operator:wikidata": "Q668687", "ref": "8711400057"}, "type": "Feature"}
{"geometry": {"coordinates": [-106.6466705688, 35.2041023342], "type": "Point"}, "id": "9V-Rr1nVK8YV0asdbuqEp_rkgLo=", "properties": {"@source_uri": "https://tools.usps.com/UspsToolsRestServices/rest/POLocator/findLocations", "@spider": "usps_collection_boxes", "addr:city": "ALBUQUERQUE", "addr:country": "US", "addr:postcode": "87114", "addr:state": "NM", "addr:street_address": "10701 COORS BLVD NW STE 19A", "amenity": "post_box", "collection_times": "Mo-Fr 17:00; Sa 14:30", "indoor": "yes", "note": "ON 12/24 AND 12/31, THIS BOX MAY BE COLLECTED AS EARLY AS 12 NOON.", "nsi_id": "unitedstatespostalservice-a77078", "operator": "United States Postal Service", "operator:short": "USPS", "operator:type": "public", "operator:wikidata": "Q668687", "ref": "8711400058"}, "type": "Feature"}
{"geometry": {"coordinates": [-106.6466705688, 35.2041023342], "type": "Point"}, "id": "ddLvqQ_Lw3_t7Jl7ybL_W_hlk9k=", "properties": {"@source_uri": "https://tools.usps.com/UspsToolsRestServices/rest/POLocator/findLocations", "@spider": "usps_collection_boxes", "addr:city": "ALBUQUERQUE", "addr:country": "US", "addr:postcode": "87114", "addr:state": "NM", "addr:street_address": "10701 COORS BLVD NW STE 19A", "amenity": "post_box", "collection_times": "Mo-Fr 17:00; Sa 14:30", "indoor": "yes", "note": "ON 12/24 AND 12/31, THIS BOX MAY BE COLLECTED AS EARLY AS 12 NOON.", "nsi_id": "unitedstatespostalservice-a77078", "operator": "United States Postal Service", "operator:short": "USPS", "operator:type": "public", "operator:wikidata": "Q668687", "ref": "8711400059"}, "type": "Feature"}
{"geometry": {"coordinates": [-106.6206835548, 35.185443141], "type": "Point"}, "id": "C8etg0WM5yjq0f83ezCbjIm29OM=", "properties": {"@source_uri": "https://tools.usps.com/UspsToolsRestServices/rest/POLocator/findLocations", "@spider": "usps_collection_boxes", "addr:city": "ALBUQUERQUE", "addr:country": "US", "addr:postcode": "87114", "addr:state": "NM", "addr:street_address": "9132 4TH ST NW", "amenity": "post_box", "collection_times": "Mo-Fr 16:00", "indoor": "yes", "note": "ON 12/24 AND 12/31, THIS BOX MAY BE COLLECTED AS EARLY AS 12 NOON.", "nsi_id": "unitedstatespostalservice-a77078", "operator": "United States Postal Service", "operator:short": "USPS", "operator:type": "public", "operator:wikidata": "Q668687", "ref": "8711400060"}, "type": "Feature"}
{"geometry": {"coordinates": [-106.5390147, 34.9989487], "type": "Point"}, "id": "Riwdu0HL3k1quNwUeZwZOoTJSQU=", "properties": {"@source_uri": "https://tools.usps.com/UspsToolsRestServices/rest/POLocator/findLocations", "@spider": "usps_collection_boxes", "addr:city": "ALBUQUERQUE", "addr:country": "US", "addr:postcode": "87115", "addr:state": "NM", "addr:street_address": "4500 BIGGS AVE SE", "amenity": "post_box", "collection_times": "Mo-Fr 15:45", "note": "ON 12/24 AND 12/31, THIS BOX MAY BE COLLECTED AS EARLY AS 12 NOON.", "nsi_id": "unitedstatespostalservice-a77078", "operator": "United States Postal Service", "operator:short": "USPS", "operator:type": "public", "operator:wikidata": "Q668687", "ref": "8711500002"}, "type": "Feature"}
{"geometry": {"coordinates": [-106.558142, 35.059103], "type": "Point"}, "id": "PrhkMA9OlKPKlSnBeywNSnG1xTQ=", "properties": {"@source_uri": "https://tools.usps.com/UspsToolsRestServices/rest/POLocator/findLocations", "@spider": "usps_collection_boxes", "addr:city": "ALBUQUERQUE", "addr:country": "US", "addr:postcode": "87115", "addr:state": "NM", "addr:street_address": "8001 GIBSON SE", "amenity": "post_box", "collection_times": "Mo-Sa 11:15", "nsi_id": "unitedstatespostalservice-a77078", "operator": "United States Postal Service", "operator:short": "USPS", "operator:type": "public", "operator:wikidata": "Q668687", "ref": "8711500007"}, "type": "Feature"}
{"geometry": {"coordinates": [-106.553638, 35.054755], "type": "Point"}, "id": "Pf0vAFIhZDzrgH6qzOVDSyJrnC4=", "properties": {"@source_uri": "https://tools.usps.com/UspsToolsRestServices/rest/POLocator/findLocations", "@spider": "usps_collection_boxes", "addr:city": "ALBUQUERQUE", "addr:country": "US", "addr:postcode": "87115", "addr:state": "NM", "addr:street_address": "1400 1ST ST SE", "amenity": "post_box", "collection_times": "Mo-Sa 16:30", "note": "ON 12/24 AND 12/31, THIS BOX MAY BE COLLECTED AS EARLY AS 12 NOON.", "nsi_id": "unitedstatespostalservice-a77078", "operator": "United States Postal Service", "operator:short": "USPS", "operator:type": "public", "operator:wikidata": "Q668687", "ref": "8711500012"}, "type": "Feature"}
{"geometry": {"coordinates": [-106.558358, 35.05265], "type": "Point"}, "id": "lM-E65udGHCbjpvXg1UuzOBYQAw=", "properties": {"@source_uri": "https://tools.usps.com/UspsToolsRestServices/rest/POLocator/findLocations", "@spider": "usps_collection_boxes", "addr:city": "ALBUQUERQUE", "addr:country": "US", "addr:postcode": "87115", "addr:state": "NM", "addr:street_address": "DEPT OF ENERGY SE", "amenity": "post_box", "collection_times": "Mo-Fr 15:00", "note": "ON 12/24 AND 12/31, THIS BOX MAY BE COLLECTED AS EARLY AS 12 NOON.", "nsi_id": "unitedstatespostalservice-a77078", "operator": "United States Postal Service", "operator:short": "USPS", "operator:type": "public", "operator:wikidata": "Q668687", "ref": "8711500019"}, "type": "Feature"}
{"geometry": {"coordinates": [-106.553586, 35.055246], "type": "Point"}, "id": "199ukUcy71u-HVdvGBs_ZOmMEbI=", "properties": {"@source_uri": "https://tools.usps.com/UspsToolsRestServices/rest/POLocator/findLocations", "@spider": "usps_collection_boxes", "addr:city": "ALBUQUERQUE", "addr:country": "US", "addr:postcode": "87115", "addr:state": "NM", "addr:street_address": "1400 1ST ST SE", "amenity": "post_box", "collection_times": "Mo-Sa 16:30", "note": "ON 12/24 AND 12/31, THIS BOX MAY BE COLLECTED AS EARLY AS 12 NOON.", "nsi_id": "unitedstatespostalservice-a77078", "operator": "United States Postal Service", "operator:short": "USPS", "operator:type": "public", "operator:wikidata": "Q668687", "ref": "8711500020"}, "type": "Feature"}
{"geometry": {"coordinates": [-106.571255, 35.050376], "type": "Point"}, "id": "hHZBc7LVP56Rv0aKo0VPBA6Yj8o=", "properties": {"@source_uri": "https://tools.usps.com/UspsToolsRestServices/rest/POLocator/findLocations", "@spider": "usps_collection_boxes", "addr:city": "ALBUQUERQUE", "addr:country": "US", "addr:postcode": "87115", "addr:state": "NM", "addr:street_address": "2251 AIR GUARD RD", "amenity": "post_box", "collection_times": "Mo-Fr 11:00", "nsi_id": "unitedstatespostalservice-a77078", "operator": "United States Postal Service", "operator:short": "USPS", "operator:type": "public", "operator:wikidata": "Q668687", "ref": "8711500022"}, "type": "Feature"}
{"geometry": {"coordinates": [-106.553529, 35.054768], "type": "Point"}, "id": "JKmSPm7G5aWgmvsJBBoPtE80-4o=", "properties": {"@source_uri": "https://tools.usps.com/UspsToolsRestServices/rest/POLocator/findLocations", "@spider": "usps_collection_boxes", "addr:city": "ALBUQUERQUE", "addr:country": "US", "addr:postcode": "87115", "addr:state": "NM", "addr:street_address": "1400 1ST ST SE", "amenity": "post_box", "collection_times": "Mo-Sa 16:30", "note": "ON 12/24 AND 12/31, THIS BOX MAY BE COLLECTED AS EARLY AS 12 NOON.", "nsi_id": "unitedstatespostalservice-a77078", "operator": "United States Postal Service", "operator:short": "USPS", "operator:type": "public", "operator:wikidata": "Q668687", "ref": "8711500023"}, "type": "Feature"}
{"geometry": {"coordinates": [-106.625466972, 35.048258654], "type": "Point"}, "id": "d4UqBrM0nCRY6elDPzDkEVOwG2E=", "properties": {"@source_uri": "https://tools.usps.com/UspsToolsRestServices/rest/POLocator/findLocations", "@spider": "usps_collection_boxes", "addr:city": "ALBUQUERQUE", "addr:country": "US", "addr:postcode": "87119", "addr:state": "NM", "addr:street_address": "2100 GEORGE RD SE", "amenity": "post_box", "collection_times": "Mo-Sa 17:00", "note": "ON 12/24 AND 12/31, THIS BOX MAY BE COLLECTED AS EARLY AS 12 NOON.", "nsi_id": "unitedstatespostalservice-a77078", "operator": "United States Postal Service", "operator:short": "USPS", "operator:type": "public", "operator:wikidata": "Q668687", "ref": "8711900002"}, "type": "Feature"}
{"geometry": {"coordinates": [-106.6286035936, 35.046665762], "type": "Point"}, "id": "dpA2ryc_6OG10mnyDwWOoHaCaEU=", "properties": {"@source_uri": "https://tools.usps.com/UspsToolsRestServices/rest/POLocator/findLocations", "@spider": "usps_collection_boxes", "addr:city": "ALBUQUERQUE", "addr:country": "US", "addr:postcode": "87119", "addr:state": "NM", "addr:street_address": "2100 GEORGE SE", "amenity": "post_box", "collection_times": "Mo-Fr 18:00; Sa 17:00", "indoor": "yes", "note": "ON 12/24 AND 12/31, THIS BOX MAY BE COLLECTED AS EARLY AS 12 NOON.", "nsi_id": "unitedstatespostalservice-a77078", "operator": "United States Postal Service", "operator:short": "USPS", "operator:type": "public", "operator:wikidata": "Q668687", "ref": "8711900006"}, "type": "Feature"}
{"geometry": {"coordinates": [-106.702452, 35.11955], "type": "Point"}, "id": "7JUsfm9RmiOg5vVN-n-ksqrNnpE=", "properties": {"@source_uri": "https://tools.usps.com/UspsToolsRestServices/rest/POLocator/findLocations", "@spider": "usps_collection_boxes", "addr:city": "ALBUQUERQUE", "addr:country": "US", "addr:postcode": "87120", "addr:state": "NM", "addr:street_address": "3301 COORS BLVD NW", "amenity": "post_box", "collection_times": "Mo-Sa 14:30", "note": "ON 12/24 AND 12/31, THIS BOX MAY BE COLLECTED AS EARLY AS 12 NOON.", "nsi_id": "unitedstatespostalservice-a77078", "operator": "United States Postal Service", "operator:short": "USPS", "operator:type": "public", "operator:wikidata": "Q668687", "ref": "8712000005"}, "type": "Feature"}
{"geometry": {"coordinates": [-106.694694, 35.1526294583], "type": "Point"}, "id": "3fLFwXL0UkCtrBHJIgsH0VEEDxA=", "properties": {"@source_uri": "https://tools.usps.com/UspsToolsRestServices/rest/POLocator/findLocations", "@spider": "usps_collection_boxes", "addr:city": "ALBUQUERQUE", "addr:country": "US", "addr:postcode": "87120", "addr:state": "NM", "addr:street_address": "4801 MONTANO RD NW", "amenity": "post_box", "collection_times": "Mo-Fr 13:45; Sa 14:00", "note": "ON 12/24 AND 12/31, THIS BOX MAY BE COLLECTED AS EARLY AS 12 NOON.", "nsi_id": "unitedstatespostalservice-a77078", "operator": "United States Postal Service", "operator:short": "USPS", "operator:type": "public", "operator:wikidata": "Q668687", "ref": "8712000010"}, "type": "Feature"}
{"geometry": {"coordinates": [-106.7039690554, 35.1213374572], "type": "Point"}, "id": "RCpH5hu-dkBI-bH_V0--3VoUhZ8=", "properties": {"@source_uri": "https://tools.usps.com/UspsToolsRestServices/rest/POLocator/findLocations", "@spider": "usps_collection_boxes", "addr:city": "ALBUQUERQUE", "addr:country": "US", "addr:postcode": "87120", "addr:state": "NM", "addr:street_address": "5300 SEQUOIA RD NW", "amenity": "post_box", "collection_times": "Mo-Sa 10:00", "nsi_id": "unitedstatespostalservice-a77078", "operator": "United States Postal Service", "operator:short": "USPS", "operator:type": "public", "operator:wikidata": "Q668687", "ref": "8712000011"}, "type": "Feature"}
{"geometry": {"coordinates": [-106.68298, 35.153125], "type": "Point"}, "id": "imbdcLHp8LvIB0XEtD9wZEA7Aok=", "properties": {"@source_uri": "https://tools.usps.com/UspsToolsRestServices/rest/POLocator/findLocations", "@spider": "usps_collection_boxes", "addr:city": "ALBUQUERQUE", "addr:country": "US", "addr:postcode": "87120", "addr:state": "NM", "addr:street_address": "6200 COORS BLVD NW", "amenity": "post_box", "collection_times": "Mo-Fr 13:45; Sa 13:00", "note": "ON 12/24 AND 12/31, THIS BOX MAY BE COLLECTED AS EARLY AS 12 NOON.", "nsi_id": "unitedstatespostalservice-a77078", "operator": "United States Postal Service", "operator:short": "USPS", "operator:type": "public", "operator:wikidata": "Q668687", "ref": "8712000014"}, "type": "Feature"}
{"geometry": {"coordinates": [-106.689505, 35.178698], "type": "Point"}, "id": "G-LV3Xa-7jXmSSYtnRwLaLQhCxE=", "properties": {"@source_uri": "https://tools.usps.com/UspsToolsRestServices/rest/POLocator/findLocations", "@spider": "usps_collection_boxes", "addr:city": "ALBUQUERQUE", "addr:country": "US", "addr:postcode": "87120", "addr:state": "NM", "addr:street_address": "8301 GOLF COURSE RD NW", "amenity": "post_box", "collection_times": "Mo-Fr 14:35; Sa 14:45", "note": "ON 12/24 AND 12/31, THIS BOX MAY BE COLLECTED AS EARLY AS 12 NOON.", "nsi_id": "unitedstatespostalservice-a77078", "operator": "United States Postal Service", "operator:short": "USPS", "operator:type": "public", "operator:wikidata": "Q668687", "ref": "8712000015"}, "type": "Feature"}
{"geometry": {"coordinates": [-106.6736109958, 35.1734109992], "type": "Point"}, "id": "qrUTDzxylwe8kSdg-2Mm8OE2SWE=", "properties": {"@source_uri": "https://tools.usps.com/UspsToolsRestServices/rest/POLocator/findLocations", "@spider": "usps_collection_boxes", "addr:city": "ALBUQUERQUE", "addr:country": "US", "addr:postcode": "87120", "addr:state": "NM", "addr:street_address": "6641 CAMINITO COORS NW", "amenity": "post_box", "collection_times": "Mo-Fr 14:00", "note": "ON 12/24 AND 12/31, THIS BOX MAY BE COLLECTED AS EARLY AS 12 NOON.", "nsi_id": "unitedstatespostalservice-a77078", "operator": "United States Postal Service", "operator:short": "USPS", "operator:type": "public", "operator:wikidata": "Q668687", "ref": "8712000021"}, "type": "Feature"}
{"geometry": {"coordinates": [-106.7087200222, 35.0938780117], "type": "Point"}, "id": "52ky4Aw1A5cVdU4hAgqP3G5wVlI=", "properties": {"@source_uri": "https://tools.usps.com/UspsToolsRestServices/rest/POLocator/findLocations", "@spider": "usps_collection_boxes", "addr:city": "ALBUQUERQUE", "addr:country": "US", "addr:postcode": "87121", "addr:state": "NM", "addr:street_address": "640 COORS BLVD NW", "amenity": "post_box", "collection_times": "Mo-Fr 10:30", "nsi_id": "unitedstatespostalservice-a77078", "operator": "United States Postal Service", "operator:short": "USPS", "operator:type": "public", "operator:wikidata": "Q668687", "ref": "8712100001"}, "type": "Feature"}
{"geometry": {"coordinates": [-106.700621, 35.070005], "type": "Point"}, "id": "Q8ToAHMuBByaMqxTI6cfXxgABqo=", "properties": {"@source_uri": "https://tools.usps.com/UspsToolsRestServices/rest/POLocator/findLocations", "@spider": "usps_collection_boxes", "addr:city": "ALBUQUERQUE", "addr:country": "US", "addr:postcode": "87121", "addr:state": "NM", "addr:street_address": "921 OLD COORS DR SW", "amenity": "post_box", "collection_times": "Mo-Fr 10:00", "nsi_id": "unitedstatespostalservice-a77078", "operator": "United States Postal Service", "operator:short": "USPS", "operator:type": "public", "operator:wikidata": "Q668687", "ref": "8712100003"}, "type": "Feature"}
{"geometry": {"coordinates": [-106.496129022, 35.188506241], "type": "Point"}, "id": "HQSbb_8vRVyEUzyBcf0qxH--S2w=", "properties": {"@source_uri": "https://tools.usps.com/UspsToolsRestServices/rest/POLocator/findLocations", "@spider": "usps_collection_boxes", "addr:city": "ALBUQUERQUE", "addr:country": "US", "addr:postcode": "87122", "addr:state": "NM", "addr:street_address": "9500 TRAMWAY BLVD NE", "amenity": "post_box", "collection_times": "Mo-Fr 10:30", "nsi_id": "unitedstatespostalservice-a77078", "operator": "United States Postal Service", "operator:short": "USPS", "operator:type": "public", "operator:wikidata": "Q668687", "ref": "8712200001"}, "type": "Feature"}
{"geometry": {"coordinates": [-106.546894, 35.072282], "type": "Point"}, "id": "IzgPwqh2YuSnQukrwxYlfgHpf6A=", "properties": {"@source_uri": "https://tools.usps.com/UspsToolsRestServices/rest/POLocator/findLocations", "@spider": "usps_collection_boxes", "addr:city": "ALBUQUERQUE", "addr:country": "US", "addr:postcode": "87123", "addr:state": "NM", "addr:street_address": "9000 ZUNI RD SE", "amenity": "post_box", "collection_times": "Mo-Sa 12:15", "note": "ON 12/24 AND 12/31, THIS BOX MAY BE COLLECTED AS EARLY AS 12 NOON.", "nsi_id": "unitedstatespostalservice-a77078", "operator": "United States Postal Service", "operator:short": "USPS", "operator:type": "public", "operator:wikidata": "Q668687", "ref": "8712300004"}, "type": "Feature"}
{"geometry": {"coordinates": [-106.497522, 35.066663], "type": "Point"}, "id": "JRGZ1hCqVLHqvwD21o3jYm_qyIc=", "properties": {"@source_uri": "https://tools.usps.com/UspsToolsRestServices/rest/POLocator/findLocations", "@spider": "usps_collection_boxes", "addr:city": "ALBUQUERQUE", "addr:country": "US", "addr:postcode": "87123", "addr:state": "NM", "addr:street_address": "200 TRAMWAY BLVD SE", "amenity": "post_box", "collection_times": "Mo-Sa 14:35", "note": "ON 12/24 AND 12/31, THIS BOX MAY BE COLLECTED AS EARLY AS 12 NOON.", "nsi_id": "unitedstatespostalservice-a77078", "operator": "United States Postal Service", "operator:short": "USPS", "operator:type": "public", "operator:wikidata": "Q668687", "ref": "8712300010"}, "type": "Feature"}
{"geometry": {"coordinates": [-106.5010769789, 35.0869939966], "type": "Point"}, "id": "ZlkcAvlTWuiJQkeCkcozwJvL4ec=", "properties": {"@source_uri": "https://tools.usps.com/UspsToolsRestServices/rest/POLocator/findLocations", "@spider": "usps_collection_boxes", "addr:city": "ALBUQUERQUE", "addr:country": "US", "addr:postcode": "87123", "addr:state": "NM", "addr:street_address": "13101 LOMAS BLVD NE", "amenity": "post_box", "collection_times": "Mo-Fr 17:30; Sa 17:00", "note": "ON 12/24 AND 12/31, THIS BOX MAY BE COLLECTED AS EARLY AS 12 NOON.", "nsi_id": "unitedstatespostalservice-a77078", "operator": "United States Postal Service", "operator:short": "USPS", "operator:type": "public", "operator:wikidata": "Q668687", "ref": "8712300017"}, "type": "Feature"}
{"geometry": {"coordinates": [-106.501975, 35.087032], "type": "Point"}, "id": "uXwXKuHkm5IQxtVjyEyNL8BdrAc=", "properties": {"@source_uri": "https://tools.usps.com/UspsToolsRestServices/rest/POLocator/findLocations", "@spider": "usps_collection_boxes", "addr:city": "ALBUQUERQUE", "addr:country": "US", "addr:postcode": "87123", "addr:state": "NM", "addr:street_address": "13101 LOMAS BLVD NE", "amenity": "post_box", "collection_times": "Mo-Fr 17:30; Sa 15:30", "indoor": "yes", "note": "ON 12/24 AND 12/31, THIS BOX MAY BE COLLECTED AS EARLY AS 12 NOON.", "nsi_id": "unitedstatespostalservice-a77078", "operator": "United States Postal Service", "operator:short": "USPS", "operator:type": "public", "operator:wikidata": "Q668687", "ref": "8712300019"}, "type": "Feature"}
{"geometry": {"coordinates": [-106.501752, 35.086998], "type": "Point"}, "id": "SPyUt5TP-fCE0b7CtG1NtpeEMIA=", "properties": {"@source_uri": "https://tools.usps.com/UspsToolsRestServices/rest/POLocator/findLocations", "@spider": "usps_collection_boxes", "addr:city": "ALBUQUERQUE", "addr:country": "US", "addr:postcode": "87123", "addr:state": "NM", "addr:street_address": "13101 LOMAS BLVD NE", "amenity": "post_box", "collection_times": "Mo-Fr 17:30; Sa 15:30", "indoor": "yes", "note": "ON 12/24 AND 12/31, THIS BOX MAY BE COLLECTED AS EARLY AS 12 NOON.", "nsi_id": "unitedstatespostalservice-a77078", "operator": "United States Postal Service", "operator:short": "USPS", "operator:type": "public", "operator:wikidata": "Q668687", "ref": "8712300020"}, "type": "Feature"}
{"geometry": {"coordinates": [-106.501339, 35.086816], "type": "Point"}, "id": "Ww97hr5WbiEXmeeN9gYLpvkUMRk=", "properties": {"@source_uri": "https://tools.usps.com/UspsToolsRestServices/rest/POLocator/findLocations", "@spider": "usps_collection_boxes", "addr:city": "ALBUQUERQUE", "addr:country": "US", "addr:postcode": "87123", "addr:state": "NM", "addr:street_address": "13101 LOMAS BLVD NE", "amenity": "post_box", "collection_times": "Mo-Fr 17:30; Sa 15:30", "indoor": "yes", "note": "ON 12/24 AND 12/31, THIS BOX MAY BE COLLECTED AS EARLY AS 12 NOON.", "nsi_id": "unitedstatespostalservice-a77078", "operator": "United States Postal Service", "operator:short": "USPS", "operator:type": "public", "operator:wikidata": "Q668687", "ref": "8712300021"}, "type": "Feature"}
{"geometry": {"coordinates": [-106.5009888337, 35.0864944538], "type": "Point"}, "id": "D5pdYK2H2ZwbpjvlTxvTQgs_Mok=", "properties": {"@source_uri": "https://tools.usps.com/UspsToolsRestServices/rest/POLocator/findLocations", "@spider": "usps_collection_boxes", "addr:city": "ALBUQUERQUE", "addr:country": "US", "addr:postcode": "87123", "addr:state": "NM", "addr:street_address": "13101 LOMAS BLVD NE", "amenity": "post_box", "collection_times": "Mo-Fr 17:00; Sa 15:00", "indoor": "yes", "note": "ON 12/24 AND 12/31, THIS BOX MAY BE COLLECTED AS EARLY AS 12 NOON.", "nsi_id": "unitedstatespostalservice-a77078", "operator": "United States Postal Service", "operator:short": "USPS", "operator:type": "public", "operator:wikidata": "Q668687", "ref": "8712300030"}, "type": "Feature"}
{"geometry": {"coordinates": [-106.654505, 35.235555], "type": "Point"}, "id": "L311348WYulArlHeqeT_YHjBSgI=", "properties": {"@source_uri": "https://tools.usps.com/UspsToolsRestServices/rest/POLocator/findLocations", "@spider": "usps_collection_boxes", "addr:city": "RIO RANCHO", "addr:country": "US", "addr:postcode": "87124", "addr:state": "NM", "addr:street_address": "4111 BARBARA LOOP SE", "amenity": "post_box", "collection_times": "Mo-Fr 09:45", "nsi_id": "unitedstatespostalservice-a77078", "operator": "United States Postal Service", "operator:short": "USPS", "operator:type": "public", "operator:wikidata": "Q668687", "ref": "8712400001"}, "type": "Feature"}
{"geometry": {"coordinates": [-106.654143, 35.241471], "type": "Point"}, "id": "sGgRYgeOKkdj52Cf2WsULSELDyY=", "properties": {"@source_uri": "https://tools.usps.com/UspsToolsRestServices/rest/POLocator/findLocations", "@spider": "usps_collection_boxes", "addr:city": "RIO RANCHO", "addr:country": "US", "addr:postcode": "87124", "addr:state": "NM", "addr:street_address": "4101 MEADOWLARK NW", "amenity": "post_box", "collection_times": "Mo-Fr 13:15; Sa 14:00", "note": "ON 12/24 AND 12/31, THIS BOX MAY BE COLLECTED AS EARLY AS 12 NOON.", "nsi_id": "unitedstatespostalservice-a77078", "operator": "United States Postal Service", "operator:short": "USPS", "operator:type": "public", "operator:wikidata": "Q668687", "ref": "8712400009"}, "type": "Feature"}
{"geometry": {"coordinates": [-106.603319, 35.287064], "type": "Point"}, "id": "CVtfZYRUSd7rd9nmgffzOonxUtM=", "properties": {"@source_uri": "https://tools.usps.com/UspsToolsRestServices/rest/POLocator/findLocations", "@spider": "usps_collection_boxes", "addr:city": "RIO RANCHO", "addr:country": "US", "addr:postcode": "87124", "addr:state": "NM", "addr:street_address": "1600 TROUT CREEK DR NE", "amenity": "post_box", "collection_times": "Mo-Sa 14:15", "note": "ON 12/24 AND 12/31, THIS BOX MAY BE COLLECTED AS EARLY AS 12 NOON.", "nsi_id": "unitedstatespostalservice-a77078", "operator": "United States Postal Service", "operator:short": "USPS", "operator:type": "public", "operator:wikidata": "Q668687", "ref": "8712400011"}, "type": "Feature"}
{"geometry": {"coordinates": [-106.695489, 35.242022], "type": "Point"}, "id": "JDLfhJ0La82VUEVQiI3Nu3Duifw=", "properties": {"@source_uri": "https://tools.usps.com/UspsToolsRestServices/rest/POLocator/findLocations", "@spider": "usps_collection_boxes", "addr:city": "RIO RANCHO", "addr:country": "US", "addr:postcode": "87124", "addr:state": "NM", "addr:street_address": "2003 SOUTHERN BLVD SE", "amenity": "post_box", "collection_times": "Mo-Sa 10:30", "nsi_id": "unitedstatespostalservice-a77078", "operator": "United States Postal Service", "operator:short": "USPS", "operator:type": "public", "operator:wikidata": "Q668687", "ref": "8712400013"}, "type": "Feature"}
{"geometry": {"coordinates": [-106.653912, 35.243436], "type": "Point"}, "id": "O_tHQ-2bVT7-OpkN8SwF4WWzd48=", "properties": {"@source_uri": "https://tools.usps.com/UspsToolsRestServices/rest/POLocator/findLocations", "@spider": "usps_collection_boxes", "addr:city": "RIO RANCHO", "addr:country": "US", "addr:postcode": "87124", "addr:state": "NM", "addr:street_address": "4110 SABANA GRANDE AVE SE", "amenity": "post_box", "collection_times": "Mo-Fr 13:15; Sa 14:00", "note": "ON 12/24 AND 12/31, THIS BOX MAY BE COLLECTED AS EARLY AS 12 NOON.", "nsi_id": "unitedstatespostalservice-a77078", "operator": "United States Postal Service", "operator:short": "USPS", "operator:type": "public", "operator:wikidata": "Q668687", "ref": "8712400025"}, "type": "Feature"}
{"geometry": {"coordinates": [-106.65341, 35.240235], "type": "Point"}, "id": "rL4v2ZSdfZiBgTtTd0zcOztp3Rk=", "properties": {"@source_uri": "https://tools.usps.com/UspsToolsRestServices/rest/POLocator/findLocations", "@spider": "usps_collection_boxes", "addr:city": "RIO RANCHO", "addr:country": "US", "addr:postcode": "87124", "addr:state": "NM", "addr:street_address": "4200 MEADOWLARK LN SE", "amenity": "post_box", "collection_times": "Mo-Sa 09:30", "nsi_id": "unitedstatespostalservice-a77078", "operator": "United States Postal Service", "operator:short": "USPS", "operator:type": "public", "operator:wikidata": "Q668687", "ref": "8712400026"}, "type": "Feature"}
{"geometry": {"coordinates": [-106.6573380337, 35.2294780105], "type": "Point"}, "id": "Xl_3EX976CU8fEUYUtd_VR-iDrw=", "properties": {"@source_uri": "https://tools.usps.com/UspsToolsRestServices/rest/POLocator/findLocations", "@spider": "usps_collection_boxes", "addr:city": "RIO RANCHO", "addr:country": "US", "addr:postcode": "87124", "addr:state": "NM", "addr:street_address": "4100 SARA RD SE", "amenity": "post_box", "collection_times": "Mo-Fr 16:00", "note": "ON 12/24 AND 12/31, THIS BOX MAY BE COLLECTED AS EARLY AS 12 NOON.", "nsi_id": "unitedstatespostalservice-a77078", "operator": "United States Postal Service", "operator:short": "USPS", "operator:type": "public", "operator:wikidata": "Q668687", "ref": "8712400029"}, "type": "Feature"}
{"geometry": {"coordinates": [-106.6608782059, 35.227845053], "type": "Point"}, "id": "Jy12MVh7wEc1ogatV-lkOXnyGw0=", "properties": {"@source_uri": "https://tools.usps.com/UspsToolsRestServices/rest/POLocator/findLocations", "@spider": "usps_collection_boxes", "addr:city": "RIO RANCHO", "addr:country": "US", "addr:postcode": "87124", "addr:state": "NM", "addr:street_address": "1741 RIO RANCHO DR SE", "amenity": "post_box", "collection_times": "Mo-Sa 09:45", "nsi_id": "unitedstatespostalservice-a77078", "operator": "United States Postal Service", "operator:short": "USPS", "operator:type": "public", "operator:wikidata": "Q668687", "ref": "8712400052"}, "type": "Feature"}
{"geometry": {"coordinates": [-106.581209, 35.325604], "type": "Point"}, "id": "EQ_HOcweemrcsKXaG5V084r0Q8s=", "properties": {"@source_uri": "https://tools.usps.com/UspsToolsRestServices/rest/POLocator/findLocations", "@spider": "usps_collection_boxes", "addr:city": "RIO RANCHO", "addr:country": "US", "addr:postcode": "87124", "addr:state": "NM", "addr:street_address": "7561 MACKENZIE DR NE", "amenity": "post_box", "collection_times": "Mo-Sa 10:30", "nsi_id": "unitedstatespostalservice-a77078", "operator": "United States Postal Service", "operator:short": "USPS", "operator:type": "public", "operator:wikidata": "Q668687", "ref": "8712400056"}, "type": "Feature"}
{"geometry": {"coordinates": [-106.6325038737, 35.2650380827], "type": "Point"}, "id": "WaRtunTKsvMP4ZI4hxWaFyQfDsA=", "properties": {"@source_uri": "https://tools.usps.com/UspsToolsRestServices/rest/POLocator/findLocations", "@spider": "usps_collection_boxes", "addr:city": "RIO RANCHO", "addr:country": "US", "addr:postcode": "87124", "addr:state": "NM", "addr:street_address": "421 QUANTUM RD NE", "amenity": "post_box", "collection_times": "Mo-Fr 14:00", "note": "ON 12/24 AND 12/31, THIS BOX MAY BE COLLECTED AS EARLY AS 12 NOON.", "nsi_id": "unitedstatespostalservice-a77078", "operator": "United States Postal Service", "operator:short": "USPS", "operator:type": "public", "operator:wikidata": "Q668687", "ref": "8712400058"}, "type": "Feature"}
{"geometry": {"coordinates": [-106.6668368291, 35.242128], "type": "Point"}, "id": "bWT6_qC0S54XP6DqHU1s6RBjSd0=", "properties": {"@source_uri": "https://tools.usps.com/UspsToolsRestServices/rest/POLocator/findLocations", "@spider": "usps_collection_boxes", "addr:city": "RIO RANCHO", "addr:country": "US", "addr:postcode": "87124", "addr:state": "NM", "addr:street_address": "900 PINETREE RD SE", "amenity": "post_box", "collection_times": "Mo-Fr 17:15; Sa 14:45", "indoor": "yes", "note": "ON 12/24 AND 12/31, THIS BOX MAY BE COLLECTED AS EARLY AS 12 NOON.", "nsi_id": "unitedstatespostalservice-a77078", "operator": "United States Postal Service", "operator:short": "USPS", "operator:type": "public", "operator:wikidata": "Q668687", "ref": "8712400071"}, "type": "Feature"}
{"geometry": {"coordinates": [-106.6668368291, 35.242128], "type": "Point"}, "id": "yLIyYqYYturTUoyBlG85Bs5-sBw=", "properties": {"@source_uri": "https://tools.usps.com/UspsToolsRestServices/rest/POLocator/findLocations", "@spider": "usps_collection_boxes", "addr:city": "RIO RANCHO", "addr:country": "US", "addr:postcode": "87124", "addr:state": "NM", "addr:street_address": "900 PINETREE RD SE", "amenity": "post_box", "collection_times": "Mo-Fr 17:15; Sa 14:45", "name": "USPS COLLECTION BOX - APC", "note": "ON 12/24 AND 12/31, THIS BOX MAY BE COLLECTED AS EARLY AS 12 NOON.", "nsi_id": "unitedstatespostalservice-a77078", "operator": "United States Postal Service", "operator:short": "USPS", "operator:type": "public", "operator:wikidata": "Q668687", "ref": "8712400081"}, "type": "Feature"}
{"geometry": {"coordinates": [-106.6668368291, 35.242128], "type": "Point"}, "id": "q9rI0XUkFENAYQEXJQnttjOdRJk=", "properties": {"@source_uri": "https://tools.usps.com/UspsToolsRestServices/rest/POLocator/findLocations", "@spider": "usps_collection_boxes", "addr:city": "RIO RANCHO", "addr:country": "US", "addr:postcode": "87124", "addr:state": "NM", "addr:street_address": "900 PINETREE RD SE", "amenity": "post_box", "collection_times": "Mo-Fr 17:30; Sa 15:00", "indoor": "yes", "note": "ON 12/24 AND 12/31, THIS BOX MAY BE COLLECTED AS EARLY AS 12 NOON.", "nsi_id": "unitedstatespostalservice-a77078", "operator": "United States Postal Service", "operator:short": "USPS", "operator:type": "public", "operator:wikidata": "Q668687", "ref": "8712400090"}, "type": "Feature"}
{"geometry": {"coordinates": [-106.686006, 35.247884], "type": "Point"}, "id": "a-07C_rJwFpbXc9WBar6idOn5jg=", "properties": {"@source_uri": "https://tools.usps.com/UspsToolsRestServices/rest/POLocator/findLocations", "@spider": "usps_collection_boxes", "addr:city": "RIO RANCHO", "addr:country": "US", "addr:postcode": "87124", "addr:state": "NM", "addr:street_address": "900 PINETREE RD SE", "amenity": "post_box", "collection_times": "Mo-Fr 17:15; Sa 14:45", "note": "ON 12/24 AND 12/31, THIS BOX MAY BE COLLECTED AS EARLY AS 12 NOON.", "nsi_id": "unitedstatespostalservice-a77078", "operator": "United States Postal Service", "operator:short": "USPS", "operator:type": "public", "operator:wikidata": "Q668687", "ref": "8712400093"}, "type": "Feature"}
{"geometry": {"coordinates": [-106.6851820245, 35.3114494984], "type": "Point"}, "id": "fPy41UBVNpPA_8sdcWcgJqaLcc0=", "properties": {"@source_uri": "https://tools.usps.com/UspsToolsRestServices/rest/POLocator/findLocations", "@spider": "usps_collection_boxes", "addr:city": "RIO RANCHO", "addr:country": "US", "addr:postcode": "87144", "addr:state": "NM", "addr:street_address": "3200 CIVIC CENTER CIR NE", "amenity": "post_box", "collection_times": "Mo-Fr 17:15", "note": "ON 12/24 AND 12/31, THIS BOX MAY BE COLLECTED AS EARLY AS 12 NOON.", "nsi_id": "unitedstatespostalservice-a77078", "operator": "United States Postal Service", "operator:short": "USPS", "operator:type": "public", "operator:wikidata": "Q668687", "ref": "8714400001"}, "type": "Feature"}
{"geometry": {"coordinates": [-106.6962820323, 35.275672984], "type": "Point"}, "id": "LYKtJ9E6yD3SoJn-AKl7vkWmlfM=", "properties": {"@source_uri": "https://tools.usps.com/UspsToolsRestServices/rest/POLocator/findLocations", "@spider": "usps_collection_boxes", "addr:city": "RIO RANCHO", "addr:country": "US", "addr:postcode": "87144", "addr:state": "NM", "addr:street_address": "2020 AUTUMN SAGE AVE NE", "amenity": "post_box", "collection_times": "Mo-Sa 15:00", "note": "ON 12/24 AND 12/31, THIS BOX MAY BE COLLECTED AS EARLY AS 12 NOON.", "nsi_id": "unitedstatespostalservice-a77078", "operator": "United States Postal Service", "operator:short": "USPS", "operator:type": "public", "operator:wikidata": "Q668687", "ref": "8714400003"}, "type": "Feature"}
{"geometry": {"coordinates": [-106.5910176396, 35.2987083297], "type": "Point"}, "id": "YZLBD1stoIUSmxqhxGccpX2UY6A=", "properties": {"@source_uri": "https://tools.usps.com/UspsToolsRestServices/rest/POLocator/findLocations", "@spider": "usps_collection_boxes", "addr:city": "RIO RANCHO", "addr:country": "US", "addr:postcode": "87144", "addr:state": "NM", "addr:street_address": "6900 REDONDO PEAK RD NE", "amenity": "post_box", "collection_times": "Mo-Sa 09:30", "nsi_id": "unitedstatespostalservice-a77078", "operator": "United States Postal Service", "operator:short": "USPS", "operator:type": "public", "operator:wikidata": "Q668687", "ref": "8714400004"}, "type": "Feature"}
{"geometry": {"coordinates": [-106.5834851477, 35.3058149531], "type": "Point"}, "id": "gC0e1qJhE8Vmau1h6pJ9vyka17M=", "properties": {"@source_uri": "https://tools.usps.com/UspsToolsRestServices/rest/POLocator/findLocations", "@spider": "usps_collection_boxes", "addr:city": "RIO RANCHO", "addr:country": "US", "addr:postcode": "87144", "addr:state": "NM", "addr:street_address": "7201 SPRUCE MOUNTAIN LOOP NE", "amenity": "post_box", "collection_times": "Mo-Sa 09:30", "nsi_id": "unitedstatespostalservice-a77078", "operator": "United States Postal Service", "operator:short": "USPS", "operator:type": "public", "operator:wikidata": "Q668687", "ref": "8714400005"}, "type": "Feature"}
