{"geometry": {"coordinates": [-108.742531, 35.52726], "type": "Point"}, "id": "2GLbmad3F63Uxs4NeGsSgc_Trvk=", "properties": {"@source_uri": "https://tools.usps.com/UspsToolsRestServices/rest/POLocator/findLocations", "@spider": "usps_collection_boxes", "addr:city": "GALLUP", "addr:country": "US", "addr:postcode": "87301", "addr:state": "NM", "addr:street_address": "200 W COAL AVE", "amenity": "post_box", "collection_times": "Mo-Sa 15:30", "note": "ON 12/24 AND 12/31, THIS BOX MAY BE COLLECTED AS EARLY AS 12 NOON.", "nsi_id": "unitedstatespostalservice-a77078", "operator": "United States Postal Service", "operator:short": "USPS", "operator:type": "public", "operator:wikidata": "Q668687", "ref": "8730100008"}, "type": "Feature"}
{"geometry": {"coordinates": [-108.7717027635, 35.5188582817], "type": "Point"}, "id": "BhAK2xbAnONyCblo0SuBn6AqgO4=", "properties": {"@source_uri": "https://tools.usps.com/UspsToolsRestServices/rest/POLocator/findLocations", "@spider": "usps_collection_boxes", "addr:city": "GALLUP", "addr:country": "US", "addr:postcode": "87301", "addr:state": "NM", "addr:street_address": "1900 E HIGHWAY 66", "amenity": "post_box", "collection_times": "Mo-Sa 15:30", "note": "ON 12/24 AND 12/31, THIS BOX MAY BE COLLECTED AS EARLY AS 12 NOON.", "nsi_id": "unitedstatespostalservice-a77078", "operator": "United States Postal Service", "operator:short": "USPS", "operator:type": "public", "operator:wikidata": "Q668687", "ref": "8730100013"}, "type": "Feature"}
{"geometry": {"coordinates": [-108.8401067601, 35.5041000049], "type": "Point"}, "id": "fuaxNmP4_6DYONWT5dNBxFTdhbQ=", "properties": {"@source_uri": "https://tools.usps.com/UspsToolsRestServices/rest/POLocator/findLocations", "@spider": "usps_collection_boxes", "addr:city": "GALLUP", "addr:country": "US", "addr:postcode": "87301", "addr:state": "NM", "addr:street_address": "1300 W I40 FRNTAGE RD", "amenity": "post_box", "collection_times": "Mo-Sa 15:30", "note": "ON 12/24 AND 12/31, THIS BOX MAY BE COLLECTED AS EARLY AS 12 NOON.", "nsi_id": "unitedstatespostalservice-a77078", "operator": "United States Postal Service", "operator:short": "USPS", "operator:type": "public", "operator:wikidata": "Q668687", "ref": "8730100017"}, "type": "Feature"}
{"geometry": {"coordinates": [-108.757454, 35.533918], "type": "Point"}, "id": "-FcEBx0xNEnG377z-6TUmUw413E=", "properties": {"@source_uri": "https://tools.usps.com/UspsToolsRestServices/rest/POLocator/findLocations", "@spider": "usps_collection_boxes", "addr:city": "GALLUP", "addr:country": "US", "addr:postcode": "87301", "addr:state": "NM", "addr:street_address": "806 US HIGHWAY 491", "amenity": "post_box", "collection_times": "Mo-Sa 15:30", "note": "ON 12/24 AND 12/31, THIS BOX MAY BE COLLECTED AS EARLY AS 12 NOON.", "nsi_id": "unitedstatespostalservice-a77078", "operator": "United States Postal Service", "operator:short": "USPS", "operator:type": "public", "operator:wikidata": "Q668687", "ref": "8730100018"}, "type": "Feature"}
{"geometry": {"coordinates": [-108.8287909807, 35.5060503901], "type": "Point"}, "id": "V8iBkbFfYTuZb2TZuf4Ra1DFuq4=", "properties": {"@source_uri": "https://tools.usps.com/UspsToolsRestServices/rest/POLocator/findLocations", "@spider": "usps_collection_boxes", "addr:city": "GALLUP", "addr:country": "US", "addr:postcode": "87301", "addr:state": "NM", "addr:street_address": "3330 E HIGHWAY 66", "amenity": "post_box", "collection_times": "Mo-Sa 08:30", "nsi_id": "unitedstatespostalservice-a77078", "operator": "United States Postal Service", "operator:short": "USPS", "operator:type": "public", "operator:wikidata": "Q668687", "ref": "8730100023"}, "type": "Feature"}
{"geometry": {"coordinates": [-108.741169, 35.524357], "type": "Point"}, "id": "3dvIIkOBha_wgrF4fFJcJ6D5gkA=", "properties": {"@source_uri": "https://tools.usps.com/UspsToolsRestServices/rest/POLocator/findLocations", "@spider": "usps_collection_boxes", "addr:city": "GALLUP", "addr:country": "US", "addr:postcode": "87301", "addr:state": "NM", "addr:street_address": "500 S SECOND ST", "amenity": "post_box", "collection_times": "Mo-Fr 17:00; Sa 16:30", "note": "ON 12/24 AND 12/31, THIS BOX MAY BE COLLECTED AS EARLY AS 12 NOON.", "nsi_id": "unitedstatespostalservice-a77078", "operator": "United States Postal Service", "operator:short": "USPS", "operator:type": "public", "operator:wikidata": "Q668687", "ref": "8730100033"}, "type": "Feature"}
{"geometry": {"coordinates": [-108.752306693, 35.52329114], "type": "Point"}, "id": "oCRAkJvii0k2UtG1tLfIk3k_yhA=", "properties": {"@source_uri": "https://tools.usps.com/UspsToolsRestServices/rest/POLocator/findLocations", "@spider": "usps_collection_boxes", "addr:city": "GALLUP", "addr:country": "US", "addr:postcode": "87301", "addr:state": "NM", "addr:street_address": "950 W AZTEC AVE", "amenity": "post_box", "collection_times": "Mo-Sa 16:00", "indoor": "yes", "note": "ON 12/24 AND 12/31, THIS BOX MAY BE COLLECTED AS EARLY AS 12 NOON.", "nsi_id": "unitedstatespostalservice-a77078", "operator": "United States Postal Service", "operator:short": "USPS", "operator:type": "public", "operator:wikidata": "Q668687", "ref": "8730100035"}, "type": "Feature"}
{"geometry": {"coordinates": [-108.752306693, 35.52329114], "type": "Point"}, "id": "dInfPWYYhW6VeygTFOLFjeHe-ns=", "properties": {"@source_uri": "https://tools.usps.com/UspsToolsRestServices/rest/POLocator/findLocations", "@spider": "usps_collection_boxes", "addr:city": "GALLUP", "addr:country": "US", "addr:postcode": "87301", "addr:state": "NM", "addr:street_address": "950 W AZTEC AVE", "amenity": "post_box", "collection_times": "Mo-Sa 16:00", "indoor": "yes", "note": "ON 12/24 AND 12/31, THIS BOX MAY BE COLLECTED AS EARLY AS 12 NOON.", "nsi_id": "unitedstatespostalservice-a77078", "operator": "United States Postal Service", "operator:short": "USPS", "operator:type": "public", "operator:wikidata": "Q668687", "ref": "8730100036"}, "type": "Feature"}
{"geometry": {"coordinates": [-108.752306693, 35.52329114], "type": "Point"}, "id": "HIz9-h_9_OUP6cwafn6VkZCZqNM=", "properties": {"@source_uri": "https://tools.usps.com/UspsToolsRestServices/rest/POLocator/findLocations", "@spider": "usps_collection_boxes", "addr:city": "GALLUP", "addr:country": "US", "addr:postcode": "87301", "addr:state": "NM", "addr:street_address": "950 W AZTEC AVE", "amenity": "post_box", "collection_times": "Mo-Sa 16:00", "indoor": "yes", "note": "ON 12/24 AND 12/31, THIS BOX MAY BE COLLECTED AS EARLY AS 12 NOON.", "nsi_id": "unitedstatespostalservice-a77078", "operator": "United States Postal Service", "operator:short": "USPS", "operator:type": "public", "operator:wikidata": "Q668687", "ref": "8730100038"}, "type": "Feature"}
{"geometry": {"coordinates": [-108.752306693, 35.52329114], "type": "Point"}, "id": "udWvah2VRGFxTZ_ccRfJYybne-Q=", "properties": {"@source_uri": "https://tools.usps.com/UspsToolsRestServices/rest/POLocator/findLocations", "@spider": "usps_collection_boxes", "addr:city": "GALLUP", "addr:country": "US", "addr:postcode": "87301", "addr:state": "NM", "addr:street_address": "950 W AZTEC AVE", "amenity": "post_box", "collection_times": "Mo-Sa 16:00", "indoor": "yes", "note": "ON 12/24 AND 12/31, THIS BOX MAY BE COLLECTED AS EARLY AS 12 NOON.", "nsi_id": "unitedstatespostalservice-a77078", "operator": "United States Postal Service", "operator:short": "USPS", "operator:type": "public", "operator:wikidata": "Q668687", "ref": "8730100042"}, "type": "Feature"}
{"geometry": {"coordinates": [-108.752306693, 35.52329114], "type": "Point"}, "id": "loh8v0Dvcj71Id0KTHHXolKh92I=", "properties": {"@source_uri": "https://tools.usps.com/UspsToolsRestServices/rest/POLocator/findLocations", "@spider": "usps_collection_boxes", "addr:city": "GALLUP", "addr:country": "US", "addr:postcode": "87301", "addr:state": "NM", "addr:street_address": "950 W AZTEC AVE", "amenity": "post_box", "collection_times": "Mo-Fr 16:45; Sa 13:15", "indoor": "yes", "note": "ON 12/24 AND 12/31, THIS BOX MAY BE COLLECTED AS EARLY AS 12 NOON.", "nsi_id": "unitedstatespostalservice-a77078", "operator": "United States Postal Service", "operator:short": "USPS", "operator:type": "public", "operator:wikidata": "Q668687", "ref": "8730100049"}, "type": "Feature"}
{"geometry": {"coordinates": [-108.6082602948, 35.5416299892], "type": "Point"}, "id": "GNlEWmdGVkEjUQur4vAMdxmQSn4=", "properties": {"@source_uri": "https://tools.usps.com/UspsToolsRestServices/rest/POLocator/findLocations", "@spider": "usps_collection_boxes", "addr:city": "CHURCH ROCK", "addr:country": "US", "addr:postcode": "87311", "addr:state": "NM", "addr:street_address": "825 OUTLAW RD", "amenity": "post_box", "collection_times": "Mo-Fr 15:15; Sa 12:45", "note": "ON 12/24 AND 12/31, THIS BOX MAY BE COLLECTED AS EARLY AS 12 NOON.", "nsi_id": "unitedstatespostalservice-a77078", "operator": "United States Postal Service", "operator:short": "USPS", "operator:type": "public", "operator:wikidata": "Q668687", "ref": "8731100000"}, "type": "Feature"}
{"geometry": {"coordinates": [-108.6082602948, 35.5416299892], "type": "Point"}, "id": "qtK0Sa2MkW5_q2gIIxbXWU3ZEtQ=", "properties": {"@source_uri": "https://tools.usps.com/UspsToolsRestServices/rest/POLocator/findLocations", "@spider": "usps_collection_boxes", "addr:city": "CHURCH ROCK", "addr:country": "US", "addr:postcode": "87311", "addr:state": "NM", "addr:street_address": "825 OUTLAW RD", "amenity": "post_box", "collection_times": "Mo-Fr 15:15; Sa 12:45", "indoor": "yes", "note": "ON 12/24 AND 12/31, THIS BOX MAY BE COLLECTED AS EARLY AS 12 NOON.", "nsi_id": "unitedstatespostalservice-a77078", "operator": "United States Postal Service", "operator:short": "USPS", "operator:type": "public", "operator:wikidata": "Q668687", "ref": "8731100001"}, "type": "Feature"}
{"geometry": {"coordinates": [-108.6082602948, 35.5416299892], "type": "Point"}, "id": "HBDz2kPt5dihricPLsBY2wruCdU=", "properties": {"@source_uri": "https://tools.usps.com/UspsToolsRestServices/rest/POLocator/findLocations", "@spider": "usps_collection_boxes", "addr:city": "CHURCH ROCK", "addr:country": "US", "addr:postcode": "87311", "addr:state": "NM", "addr:street_address": "825 OUTLAW RD", "amenity": "post_box", "collection_times": "Mo-Fr 15:15; Sa 12:30", "indoor": "yes", "note": "ON 12/24 AND 12/31, THIS BOX MAY BE COLLECTED AS EARLY AS 12 NOON.", "nsi_id": "unitedstatespostalservice-a77078", "operator": "United States Postal Service", "operator:short": "USPS", "operator:type": "public", "operator:wikidata": "Q668687", "ref": "8731100002"}, "type": "Feature"}
{"geometry": {"coordinates": [-108.311536, 35.422697], "type": "Point"}, "id": "iFxOHsAsDzWn36LEP6iUZtsKrIU=", "properties": {"@source_uri": "https://tools.usps.com/UspsToolsRestServices/rest/POLocator/findLocations", "@spider": "usps_collection_boxes", "addr:city": "CONTNENTAL DV", "addr:country": "US", "addr:postcode": "87312", "addr:state": "NM", "addr:street_address": "40 WRANGLER RD", "amenity": "post_box", "collection_times": "Mo-Fr 14:30; Sa 12:00", "note": "ON 12/24 AND 12/31, THIS BOX MAY BE COLLECTED AS EARLY AS 12 NOON.", "nsi_id": "unitedstatespostalservice-a77078", "operator": "United States Postal Service", "operator:short": "USPS", "operator:type": "public", "operator:wikidata": "Q668687", "ref": "8731200000"}, "type": "Feature"}
{"geometry": {"coordinates": [-108.31155, 35.422727], "type": "Point"}, "id": "4wNl37m-MDd2k_Pc-4Ag34cYyT0=", "properties": {"@source_uri": "https://tools.usps.com/UspsToolsRestServices/rest/POLocator/findLocations", "@spider": "usps_collection_boxes", "addr:city": "CONTNENTAL DV", "addr:country": "US", "addr:postcode": "87312", "addr:state": "NM", "addr:street_address": "40 WRANGLER RD", "amenity": "post_box", "collection_times": "Mo-Fr 14:30; Sa 12:00", "indoor": "yes", "note": "ON 12/24 AND 12/31, THIS BOX MAY BE COLLECTED AS EARLY AS 12 NOON.", "nsi_id": "unitedstatespostalservice-a77078", "operator": "United States Postal Service", "operator:short": "USPS", "operator:type": "public", "operator:wikidata": "Q668687", "ref": "8731200001"}, "type": "Feature"}
{"geometry": {"coordinates": [-108.3097545863, 35.4221420411], "type": "Point"}, "id": "GueDn1xHqS9VqkaLHTfUXyUxo5E=", "properties": {"@source_uri": "https://tools.usps.com/UspsToolsRestServices/rest/POLocator/findLocations", "@spider": "usps_collection_boxes", "addr:city": "CONTNENTAL DV", "addr:country": "US", "addr:postcode": "87312", "addr:state": "NM", "addr:street_address": "40 WRANGLER RD", "amenity": "post_box", "collection_times": "Mo-Fr 14:30; Sa 12:00", "indoor": "yes", "note": "ON 12/24 AND 12/31, THIS BOX MAY BE COLLECTED AS EARLY AS 12 NOON.", "nsi_id": "unitedstatespostalservice-a77078", "operator": "United States Postal Service", "operator:short": "USPS", "operator:type": "public", "operator:wikidata": "Q668687", "ref": "8731200002"}, "type": "Feature"}
{"geometry": {"coordinates": [-107.9262244836, 35.8008760572], "type": "Point"}, "id": "CAVX97flrXmD2toloxDSJwybXeE=", "properties": {"@source_uri": "https://tools.usps.com/UspsToolsRestServices/rest/POLocator/findLocations", "@spider": "usps_collection_boxes", "addr:city": "CROWN POINT", "addr:country": "US", "addr:postcode": "87313", "addr:state": "NM", "addr:street_address": "1 MAIN RD", "amenity": "post_box", "collection_times": "Mo-Fr 13:45; Sa 11:45", "indoor": "yes", "note": "ON 12/24 AND 12/31, THIS BOX MAY BE COLLECTED AS EARLY AS 12 NOON.", "nsi_id": "unitedstatespostalservice-a77078", "operator": "United States Postal Service", "operator:short": "USPS", "operator:type": "public", "operator:wikidata": "Q668687", "ref": "8731300001"}, "type": "Feature"}
{"geometry": {"coordinates": [-107.9262244836, 35.8008760572], "type": "Point"}, "id": "PrnHLUZrGUiyusK92M1t2CpwGGE=", "properties": {"@source_uri": "https://tools.usps.com/UspsToolsRestServices/rest/POLocator/findLocations", "@spider": "usps_collection_boxes", "addr:city": "CROWN POINT", "addr:country": "US", "addr:postcode": "87313", "addr:state": "NM", "addr:street_address": "1 MAIN RD", "amenity": "post_box", "collection_times": "Mo-Fr 13:45; Sa 11:45", "indoor": "yes", "note": "ON 12/24 AND 12/31, THIS BOX MAY BE COLLECTED AS EARLY AS 12 NOON.", "nsi_id": "unitedstatespostalservice-a77078", "operator": "United States Postal Service", "operator:short": "USPS", "operator:type": "public", "operator:wikidata": "Q668687", "ref": "8731300002"}, "type": "Feature"}
{"geometry": {"coordinates": [-107.9262244836, 35.8008760572], "type": "Point"}, "id": "vX3TbwD3lBN6n5mf-JcCn4yI80k=", "properties": {"@source_uri": "https://tools.usps.com/UspsToolsRestServices/rest/POLocator/findLocations", "@spider": "usps_collection_boxes", "addr:city": "CROWN POINT", "addr:country": "US", "addr:postcode": "87313", "addr:state": "NM", "addr:street_address": "1 MAIN RD", "amenity": "post_box", "collection_times": "Mo-Fr 13:45; Sa 11:45", "note": "ON 12/24 AND 12/31, THIS BOX MAY BE COLLECTED AS EARLY AS 12 NOON.", "nsi_id": "unitedstatespostalservice-a77078", "operator": "United States Postal Service", "operator:short": "USPS", "operator:type": "public", "operator:wikidata": "Q668687", "ref": "8731300003"}, "type": "Feature"}
{"geometry": {"coordinates": [-108.015260625, 35.737159426], "type": "Point"}, "id": "DjmtKVKiDC7NnaP0kBFbmc1cI_c=", "properties": {"@source_uri": "https://tools.usps.com/UspsToolsRestServices/rest/POLocator/findLocations", "@spider": "usps_collection_boxes", "addr:city": "CROWN POINT", "addr:country": "US", "addr:postcode": "87313", "addr:state": "NM", "addr:street_address": "1 MAIN RD", "amenity": "post_box", "collection_times": "Mo-Fr 13:45", "indoor": "yes", "note": "ON 12/24 AND 12/31, THIS BOX MAY BE COLLECTED AS EARLY AS 12 NOON.", "nsi_id": "unitedstatespostalservice-a77078", "operator": "United States Postal Service", "operator:short": "USPS", "operator:type": "public", "operator:wikidata": "Q668687", "ref": "8731300004"}, "type": "Feature"}
{"geometry": {"coordinates": [-108.6776364116, 34.6551385809], "type": "Point"}, "id": "HT_Sa5OgmjGpkkG9nqlqitY-aqw=", "properties": {"@source_uri": "https://tools.usps.com/UspsToolsRestServices/rest/POLocator/findLocations", "@spider": "usps_collection_boxes", "addr:city": "FENCE LAKE", "addr:country": "US", "addr:postcode": "87315", "addr:state": "NM", "addr:street_address": "2119 STATE HWY 36", "amenity": "post_box", "collection_times": "Mo-Sa 10:45", "indoor": "yes", "nsi_id": "unitedstatespostalservice-a77078", "operator": "United States Postal Service", "operator:short": "USPS", "operator:type": "public", "operator:wikidata": "Q668687", "ref": "8731500001"}, "type": "Feature"}
{"geometry": {"coordinates": [-108.6776364116, 34.6551385809], "type": "Point"}, "id": "xUNx39PUqlvmjEn0AXNozL-ID_o=", "properties": {"@source_uri": "https://tools.usps.com/UspsToolsRestServices/rest/POLocator/findLocations", "@spider": "usps_collection_boxes", "addr:city": "FENCE LAKE", "addr:country": "US", "addr:postcode": "87315", "addr:state": "NM", "addr:street_address": "2119 STATE HWY 36", "amenity": "post_box", "collection_times": "Mo-Sa 10:45", "indoor": "yes", "nsi_id": "unitedstatespostalservice-a77078", "operator": "United States Postal Service", "operator:short": "USPS", "operator:type": "public", "operator:wikidata": "Q668687", "ref": "8731500002"}, "type": "Feature"}
{"geometry": {"coordinates": [-108.542779, 35.470442], "type": "Point"}, "id": "DuLkMPROnSriShCCjXQ-VI-PArU=", "properties": {"@source_uri": "https://tools.usps.com/UspsToolsRestServices/rest/POLocator/findLocations", "@spider": "usps_collection_boxes", "addr:city": "FORT WINGATE", "addr:country": "US", "addr:postcode": "87316", "addr:state": "NM", "addr:street_address": "286B STATE HIGHWAY 400", "amenity": "post_box", "collection_times": "Mo-Fr 14:00; Sa 11:45", "note": "ON 12/24 AND 12/31, THIS BOX MAY BE COLLECTED AS EARLY AS 12 NOON.", "nsi_id": "unitedstatespostalservice-a77078", "operator": "United States Postal Service", "operator:short": "USPS", "operator:type": "public", "operator:wikidata": "Q668687", "ref": "8731600000"}, "type": "Feature"}
{"geometry": {"coordinates": [-108.542779, 35.470442], "type": "Point"}, "id": "aeDqU5YeMBGxuhcJ_7LBreWnVlQ=", "properties": {"@source_uri": "https://tools.usps.com/UspsToolsRestServices/rest/POLocator/findLocations", "@spider": "usps_collection_boxes", "addr:city": "FORT WINGATE", "addr:country": "US", "addr:postcode": "87316", "addr:state": "NM", "addr:street_address": "286B STATE HIGHWAY 400", "amenity": "post_box", "collection_times": "Mo-Fr 14:00; Sa 11:45", "indoor": "yes", "note": "ON 12/24 AND 12/31, THIS BOX MAY BE COLLECTED AS EARLY AS 12 NOON.", "nsi_id": "unitedstatespostalservice-a77078", "operator": "United States Postal Service", "operator:short": "USPS", "operator:type": "public", "operator:wikidata": "Q668687", "ref": "8731600001"}, "type": "Feature"}
{"geometry": {"coordinates": [-108.5424857509, 35.4727114436], "type": "Point"}, "id": "UcaY6ql4SrcivqzeZ3tPkQfCimU=", "properties": {"@source_uri": "https://tools.usps.com/UspsToolsRestServices/rest/POLocator/findLocations", "@spider": "usps_collection_boxes", "addr:city": "FORT WINGATE", "addr:country": "US", "addr:postcode": "87316", "addr:state": "NM", "addr:street_address": "286B STATE HIGHWAY 400", "amenity": "post_box", "collection_times": "Mo-Fr 14:00; Sa 11:45", "indoor": "yes", "note": "ON 12/24 AND 12/31, THIS BOX MAY BE COLLECTED AS EARLY AS 12 NOON.", "nsi_id": "unitedstatespostalservice-a77078", "operator": "United States Postal Service", "operator:short": "USPS", "operator:type": "public", "operator:wikidata": "Q668687", "ref": "8731600002"}, "type": "Feature"}
{"geometry": {"coordinates": [-108.497198, 35.133289], "type": "Point"}, "id": "WUt-po16_wDhDOcii_4R2eExTts=", "properties": {"@source_uri": "https://tools.usps.com/UspsToolsRestServices/rest/POLocator/findLocations", "@spider": "usps_collection_boxes", "addr:city": "RAMAH", "addr:country": "US", "addr:postcode": "87321", "addr:state": "NM", "addr:street_address": "3347 BOND ST", "amenity": "post_box", "collection_times": "Mo-Fr 15:15; Sa 11:00", "indoor": "yes", "note": "ON 12/24 AND 12/31, THIS BOX MAY BE COLLECTED AS EARLY AS 12 NOON.", "nsi_id": "unitedstatespostalservice-a77078", "operator": "United States Postal Service", "operator:short": "USPS", "operator:type": "public", "operator:wikidata": "Q668687", "ref": "8732100001"}, "type": "Feature"}
{"geometry": {"coordinates": [-108.497186, 35.133262], "type": "Point"}, "id": "Lm9ilCtcvs483KVAs5Pd1ubOKhI=", "properties": {"@source_uri": "https://tools.usps.com/UspsToolsRestServices/rest/POLocator/findLocations", "@spider": "usps_collection_boxes", "addr:city": "RAMAH", "addr:country": "US", "addr:postcode": "87321", "addr:state": "NM", "addr:street_address": "3347 BOND ST", "amenity": "post_box", "collection_times": "Mo-Fr 15:15; Sa 11:00", "note": "ON 12/24 AND 12/31, THIS BOX MAY BE COLLECTED AS EARLY AS 12 NOON.", "nsi_id": "unitedstatespostalservice-a77078", "operator": "United States Postal Service", "operator:short": "USPS", "operator:type": "public", "operator:wikidata": "Q668687", "ref": "8732100003"}, "type": "Feature"}
{"geometry": {"coordinates": [-108.497034669, 35.133324903], "type": "Point"}, "id": "6evPNEAra8ZiUM8yPu0bm8fGiks=", "properties": {"@source_uri": "https://tools.usps.com/UspsToolsRestServices/rest/POLocator/findLocations", "@spider": "usps_collection_boxes", "addr:city": "RAMAH", "addr:country": "US", "addr:postcode": "87321", "addr:state": "NM", "addr:street_address": "3347 BOND ST", "amenity": "post_box", "collection_times": "Mo-Fr 15:15", "indoor": "yes", "note": "ON 12/24 AND 12/31, THIS BOX MAY BE COLLECTED AS EARLY AS 12 NOON.", "nsi_id": "unitedstatespostalservice-a77078", "operator": "United States Postal Service", "operator:short": "USPS", "operator:type": "public", "operator:wikidata": "Q668687", "ref": "8732100004"}, "type": "Feature"}
{"geometry": {"coordinates": [-108.654504, 35.530606], "type": "Point"}, "id": "cus41Z7ItpUQiEMS61Rf0QadV3I=", "properties": {"@source_uri": "https://tools.usps.com/UspsToolsRestServices/rest/POLocator/findLocations", "@spider": "usps_collection_boxes", "addr:city": "REHOBOTH", "addr:country": "US", "addr:postcode": "87322", "addr:state": "NM", "addr:street_address": "21 REHOBOTH DR", "amenity": "post_box", "collection_times": "Mo-Fr 15:00; Sa 09:45", "note": "ON 12/24 AND 12/31, THIS BOX MAY BE COLLECTED AS EARLY AS 12 NOON.", "nsi_id": "unitedstatespostalservice-a77078", "operator": "United States Postal Service", "operator:short": "USPS", "operator:type": "public", "operator:wikidata": "Q668687", "ref": "8732200000"}, "type": "Feature"}
{"geometry": {"coordinates": [-108.654573, 35.530625], "type": "Point"}, "id": "2CKag6pKNZzk22kLyrHkoHay8FQ=", "properties": {"@source_uri": "https://tools.usps.com/UspsToolsRestServices/rest/POLocator/findLocations", "@spider": "usps_collection_boxes", "addr:city": "REHOBOTH", "addr:country": "US", "addr:postcode": "87322", "addr:state": "NM", "addr:street_address": "21 REHOBOTH DR", "amenity": "post_box", "collection_times": "Mo-Fr 15:30; Sa 09:45", "indoor": "yes", "note": "ON 12/24 AND 12/31, THIS BOX MAY BE COLLECTED AS EARLY AS 12 NOON.", "nsi_id": "unitedstatespostalservice-a77078", "operator": "United States Postal Service", "operator:short": "USPS", "operator:type": "public", "operator:wikidata": "Q668687", "ref": "8732200001"}, "type": "Feature"}
{"geometry": {"coordinates": [-108.654929427, 35.532527308], "type": "Point"}, "id": "dOAg7pvEyJ5_YTFYCLqQRLjd6Ck=", "properties": {"@source_uri": "https://tools.usps.com/UspsToolsRestServices/rest/POLocator/findLocations", "@spider": "usps_collection_boxes", "addr:city": "REHOBOTH", "addr:country": "US", "addr:postcode": "87322", "addr:state": "NM", "addr:street_address": "21 REHOBOTH DR", "amenity": "post_box", "collection_times": "Mo-Fr 15:30", "indoor": "yes", "note": "ON 12/24 AND 12/31, THIS BOX MAY BE COLLECTED AS EARLY AS 12 NOON.", "nsi_id": "unitedstatespostalservice-a77078", "operator": "United States Postal Service", "operator:short": "USPS", "operator:type": "public", "operator:wikidata": "Q668687", "ref": "8732200002"}, "type": "Feature"}
{"geometry": {"coordinates": [-108.2187484133, 35.4069660899], "type": "Point"}, "id": "H3b8rY3dN3Req46G-Z0JXwi38o4=", "properties": {"@source_uri": "https://tools.usps.com/UspsToolsRestServices/rest/POLocator/findLocations", "@spider": "usps_collection_boxes", "addr:city": "THOREAU", "addr:country": "US", "addr:postcode": "87323", "addr:state": "NM", "addr:street_address": "3 PREWITT ST", "amenity": "post_box", "collection_times": "Mo-Fr 14:00; Sa 11:45", "note": "ON 12/24 AND 12/31, THIS BOX MAY BE COLLECTED AS EARLY AS 12 NOON.", "nsi_id": "unitedstatespostalservice-a77078", "operator": "United States Postal Service", "operator:short": "USPS", "operator:type": "public", "operator:wikidata": "Q668687", "ref": "8732300000"}, "type": "Feature"}
{"geometry": {"coordinates": [-108.2187484133, 35.4069660899], "type": "Point"}, "id": "C84kXruLuOQ6I4r38O9uXaWGRek=", "properties": {"@source_uri": "https://tools.usps.com/UspsToolsRestServices/rest/POLocator/findLocations", "@spider": "usps_collection_boxes", "addr:city": "THOREAU", "addr:country": "US", "addr:postcode": "87323", "addr:state": "NM", "addr:street_address": "3 PREWITT ST", "amenity": "post_box", "collection_times": "Mo-Fr 14:00; Sa 11:45", "indoor": "yes", "note": "ON 12/24 AND 12/31, THIS BOX MAY BE COLLECTED AS EARLY AS 12 NOON.", "nsi_id": "unitedstatespostalservice-a77078", "operator": "United States Postal Service", "operator:short": "USPS", "operator:type": "public", "operator:wikidata": "Q668687", "ref": "8732300001"}, "type": "Feature"}
{"geometry": {"coordinates": [-108.2187484133, 35.4069660899], "type": "Point"}, "id": "H2eeMp-tn-0YhGu6JLpSQv3fDBo=", "properties": {"@source_uri": "https://tools.usps.com/UspsToolsRestServices/rest/POLocator/findLocations", "@spider": "usps_collection_boxes", "addr:city": "THOREAU", "addr:country": "US", "addr:postcode": "87323", "addr:state": "NM", "addr:street_address": "3 PREWITT ST", "amenity": "post_box", "collection_times": "Mo-Fr 14:00; Sa 11:45", "indoor": "yes", "note": "ON 12/24 AND 12/31, THIS BOX MAY BE COLLECTED AS EARLY AS 12 NOON.", "nsi_id": "unitedstatespostalservice-a77078", "operator": "United States Postal Service", "operator:short": "USPS", "operator:type": "public", "operator:wikidata": "Q668687", "ref": "8732300002"}, "type": "Feature"}
{"geometry": {"coordinates": [-108.2187484133, 35.4069660899], "type": "Point"}, "id": "B4cfDKq0G88_nB-17_yxmQJqnbI=", "properties": {"@source_uri": "https://tools.usps.com/UspsToolsRestServices/rest/POLocator/findLocations", "@spider": "usps_collection_boxes", "addr:city": "THOREAU", "addr:country": "US", "addr:postcode": "87323", "addr:state": "NM", "addr:street_address": "3 PREWITT ST", "amenity": "post_box", "collection_times": "Mo-Fr 14:00; Sa 11:45", "indoor": "yes", "note": "ON 12/24 AND 12/31, THIS BOX MAY BE COLLECTED AS EARLY AS 12 NOON.", "nsi_id": "unitedstatespostalservice-a77078", "operator": "United States Postal Service", "operator:short": "USPS", "operator:type": "public", "operator:wikidata": "Q668687", "ref": "8732300003"}, "type": "Feature"}
{"geometry": {"coordinates": [-108.75301, 35.85677], "type": "Point"}, "id": "H2dqWgRg2T3cEUeCmBdEeHmpXDg=", "properties": {"@source_uri": "https://tools.usps.com/UspsToolsRestServices/rest/POLocator/findLocations", "@spider": "usps_collection_boxes", "addr:city": "TOHATCHI", "addr:country": "US", "addr:postcode": "87325", "addr:state": "NM", "addr:street_address": "1 TOHATCHI DR", "amenity": "post_box", "collection_times": "Mo-Fr 14:30; Sa 12:00", "note": "ON 12/24 AND 12/31, THIS BOX MAY BE COLLECTED AS EARLY AS 12 NOON.", "nsi_id": "unitedstatespostalservice-a77078", "operator": "United States Postal Service", "operator:short": "USPS", "operator:type": "public", "operator:wikidata": "Q668687", "ref": "8732500002"}, "type": "Feature"}
{"geometry": {"coordinates": [-108.75301, 35.85677], "type": "Point"}, "id": "Oc-2hNkA8mxSlqQ5o8gUKf6z1Uk=", "properties": {"@source_uri": "https://tools.usps.com/UspsToolsRestServices/rest/POLocator/findLocations", "@spider": "usps_collection_boxes", "addr:city": "TOHATCHI", "addr:country": "US", "addr:postcode": "87325", "addr:state": "NM", "addr:street_address": "1 TOHATCHI DR", "amenity": "post_box", "collection_times": "Mo-Fr 14:30; Sa 12:00", "indoor": "yes", "note": "ON 12/24 AND 12/31, THIS BOX MAY BE COLLECTED AS EARLY AS 12 NOON.", "nsi_id": "unitedstatespostalservice-a77078", "operator": "United States Postal Service", "operator:short": "USPS", "operator:type": "public", "operator:wikidata": "Q668687", "ref": "8732500003"}, "type": "Feature"}
{"geometry": {"coordinates": [-108.75301, 35.85677], "type": "Point"}, "id": "7N0iTI-NQjmQv8IKel8OdDDGKN4=", "properties": {"@source_uri": "https://tools.usps.com/UspsToolsRestServices/rest/POLocator/findLocations", "@spider": "usps_collection_boxes", "addr:city": "TOHATCHI", "addr:country": "US", "addr:postcode": "87325", "addr:state": "NM", "addr:street_address": "1 TOHATCHI DR", "amenity": "post_box", "collection_times": "Mo-Fr 14:30; Sa 12:00", "indoor": "yes", "note": "ON 12/24 AND 12/31, THIS BOX MAY BE COLLECTED AS EARLY AS 12 NOON.", "nsi_id": "unitedstatespostalservice-a77078", "operator": "United States Postal Service", "operator:short": "USPS", "operator:type": "public", "operator:wikidata": "Q668687", "ref": "8732500004"}, "type": "Feature"}
{"geometry": {"coordinates": [-108.8453491753, 35.0701227427], "type": "Point"}, "id": "R72nuDsu4vWOED6g0JiM5Yqw510=", "properties": {"@source_uri": "https://tools.usps.com/UspsToolsRestServices/rest/POLocator/findLocations", "@spider": "usps_collection_boxes", "addr:city": "ZUNI", "addr:country": "US", "addr:postcode": "87327", "addr:state": "NM", "addr:street_address": "1207 HIGHWAY 53", "amenity": "post_box", "collection_times": "Mo-Fr 15:55; Sa 12:15", "note": "ON 12/24 AND 12/31, THIS BOX MAY BE COLLECTED AS EARLY AS 12 NOON.", "nsi_id": "unitedstatespostalservice-a77078", "operator": "United States Postal Service", "operator:short": "USPS", "operator:type": "public", "operator:wikidata": "Q668687", "ref": "8732700000"}, "type": "Feature"}
{"geometry": {"coordinates": [-108.846856, 35.069622], "type": "Point"}, "id": "nAmbF__-ldF1ViMeXoetwMPuvik=", "properties": {"@source_uri": "https://tools.usps.com/UspsToolsRestServices/rest/POLocator/findLocations", "@spider": "usps_collection_boxes", "addr:city": "ZUNI", "addr:country": "US", "addr:postcode": "87327", "addr:state": "NM", "addr:street_address": "1207 HIGHWAY 53", "amenity": "post_box", "collection_times": "Mo-Fr 15:55; Sa 12:15", "indoor": "yes", "note": "ON 12/24 AND 12/31, THIS BOX MAY BE COLLECTED AS EARLY AS 12 NOON.", "nsi_id": "unitedstatespostalservice-a77078", "operator": "United States Postal Service", "operator:short": "USPS", "operator:type": "public", "operator:wikidata": "Q668687", "ref": "8732700001"}, "type": "Feature"}
{"geometry": {"coordinates": [-108.84535915, 35.070122743], "type": "Point"}, "id": "V1EttjLTFV6czq_9cZ1I5uqLG1c=", "properties": {"@source_uri": "https://tools.usps.com/UspsToolsRestServices/rest/POLocator/findLocations", "@spider": "usps_collection_boxes", "addr:city": "ZUNI", "addr:country": "US", "addr:postcode": "87327", "addr:state": "NM", "addr:street_address": "1207 HIGHWAY 53", "amenity": "post_box", "collection_times": "Mo-Fr 15:55", "indoor": "yes", "note": "ON 12/24 AND 12/31, THIS BOX MAY BE COLLECTED AS EARLY AS 12 NOON.", "nsi_id": "unitedstatespostalservice-a77078", "operator": "United States Postal Service", "operator:short": "USPS", "operator:type": "public", "operator:wikidata": "Q668687", "ref": "8732700002"}, "type": "Feature"}
{"geometry": {"coordinates": [-109.027037462, 35.907867798], "type": "Point"}, "id": "vnreiQM3Rn7HxKHRG7_xXoCL1MM=", "properties": {"@source_uri": "https://tools.usps.com/UspsToolsRestServices/rest/POLocator/findLocations", "@spider": "usps_collection_boxes", "addr:city": "FORT DEFIANCE", "addr:country": "US", "addr:postcode": "87328", "addr:state": "AZ", "addr:street_address": "12 SHEPHERD SPGS", "amenity": "post_box", "collection_times": "Mo-Fr 14:45", "indoor": "yes", "note": "ON 12/24 AND 12/31, THIS BOX MAY BE COLLECTED AS EARLY AS 12 NOON.", "nsi_id": "unitedstatespostalservice-a77078", "operator": "United States Postal Service", "operator:short": "USPS", "operator:type": "public", "operator:wikidata": "Q668687", "ref": "8732800001"}, "type": "Feature"}
{"geometry": {"coordinates": [-108.41062, 35.00057], "type": "Point"}, "id": "Hls2vOpasfmgQQ5F5aC433sp_T4=", "properties": {"@source_uri": "https://tools.usps.com/UspsToolsRestServices/rest/POLocator/findLocations", "@spider": "usps_collection_boxes", "addr:city": "RAMAH", "addr:country": "US", "addr:postcode": "87357", "addr:state": "NM", "addr:street_address": "125 CAMPUS DR", "amenity": "post_box", "collection_times": "Mo-Sa 11:00", "indoor": "yes", "nsi_id": "unitedstatespostalservice-a77078", "operator": "United States Postal Service", "operator:short": "USPS", "operator:type": "public", "operator:wikidata": "Q668687", "ref": "8735700002"}, "type": "Feature"}
