{"geometry": {"coordinates": [-108.846976998, 36.5007774869], "type": "Point"}, "id": "qlUxZKu8s2_NJ9NBDETw96rOExo=", "properties": {"@spider": "usps_collection_boxes", "addr:city": "SHIPROCK", "addr:country": "US", "addr:full": "91 HIGHWAY 491 S", "addr:postcode": "87420", "addr:state": "NM", "brand": "USPS", "collection_times": "Mo-Fr 14:30; Sa 12:30", "name": "USPS COLLECTION BOX - BLUE BOX", "note": "ON 12/24 AND 12/31, THIS BOX MAY BE COLLECTED AS EARLY AS 12 NOON.", "ref": "8742000000"}, "type": "Feature"}
{"geometry": {"coordinates": [-108.846976998, 36.5007774869], "type": "Point"}, "id": "X_7ZpdqJ8Ox5WXRGNvnffEJ3l9o=", "properties": {"@spider": "usps_collection_boxes", "addr:city": "SHIPROCK", "addr:country": "US", "addr:full": "91 HIGHWAY 491 S", "addr:postcode": "87420", "addr:state": "NM", "brand": "USPS", "collection_times": "Mo-Fr 14:30; Sa 12:30", "name": "USPS COLLECTION BOX - PO LOBBY", "note": "ON 12/24 AND 12/31, THIS BOX MAY BE COLLECTED AS EARLY AS 12 NOON.", "ref": "8742000003"}, "type": "Feature"}
{"geometry": {"coordinates": [-108.846976998, 36.5007774869], "type": "Point"}, "id": "RSfuc-oU-CMBxPlYUFvJ8SEMOJY=", "properties": {"@spider": "usps_collection_boxes", "addr:city": "SHIPROCK", "addr:country": "US", "addr:full": "91 HIGHWAY 491 S", "addr:postcode": "87420", "addr:state": "NM", "brand": "USPS", "collection_times": "Mo-Fr 14:30; Sa 12:30", "name": "USPS COLLECTION BOX - BLUE BOX", "note": "ON 12/24 AND 12/31, THIS BOX MAY BE COLLECTED AS EARLY AS 12 NOON.", "ref": "8742000004"}, "type": "Feature"}
