{"geometry": {"coordinates": [-105.9382631175, 35.6906936229], "type": "Point"}, "id": "GbkgIxf49dM2NcPrtJMuvOJ80qg=", "properties": {"@spider": "usps_collection_boxes", "addr:city": "SANTA FE", "addr:country": "US", "addr:full": "120 S FEDERAL PL", "addr:postcode": "87501", "addr:state": "NM", "brand": "USPS", "collection_times": "Mo-Sa 17:15", "name": "USPS COLLECTION BOX - BLUE BOX", "note": "ON 12/24 AND 12/31, THIS BOX MAY BE COLLECTED AS EARLY AS 12 NOON.", "ref": "8750100037"}, "type": "Feature"}
{"geometry": {"coordinates": [-105.9382631175, 35.6906936229], "type": "Point"}, "id": "7c_oNsQtkEjo25QzblBC0EBcoQQ=", "properties": {"@spider": "usps_collection_boxes", "addr:city": "SANTA FE", "addr:country": "US", "addr:full": "120 S FEDERAL PL", "addr:postcode": "87501", "addr:state": "NM", "brand": "USPS", "collection_times": "Mo-Sa 17:15", "name": "USPS COLLECTION BOX - BLUE BOX", "note": "ON 12/24 AND 12/31, THIS BOX MAY BE COLLECTED AS EARLY AS 12 NOON.", "ref": "8750100040"}, "type": "Feature"}
{"geometry": {"coordinates": [-105.9382631175, 35.6906936229], "type": "Point"}, "id": "kLrSHnKHpBYaPTcqJVGlXxhwtZ4=", "properties": {"@spider": "usps_collection_boxes", "addr:city": "SANTA FE", "addr:country": "US", "addr:full": "120 S FEDERAL PL", "addr:postcode": "87501", "addr:state": "NM", "brand": "USPS", "collection_times": "Mo-Sa 17:15", "name": "USPS COLLECTION BOX - BLUE BOX", "note": "ON 12/24 AND 12/31, THIS BOX MAY BE COLLECTED AS EARLY AS 12 NOON.", "ref": "8750100041"}, "type": "Feature"}
{"geometry": {"coordinates": [-105.9382631175, 35.6906936229], "type": "Point"}, "id": "EaX6ZfpnB6fL7vLQ9FWNcT6pa38=", "properties": {"@spider": "usps_collection_boxes", "addr:city": "SANTA FE", "addr:country": "US", "addr:full": "120 S FEDERAL PL", "addr:postcode": "87501", "addr:state": "NM", "brand": "USPS", "collection_times": "Mo-Sa 17:15", "name": "USPS COLLECTION BOX - BLUE BOX", "note": "ON 12/24 AND 12/31, THIS BOX MAY BE COLLECTED AS EARLY AS 12 NOON.", "ref": "8750100067"}, "type": "Feature"}
{"geometry": {"coordinates": [-105.9367220871, 35.6872341161], "type": "Point"}, "id": "v0giEtJrGhFGM_hKBxJeGzdwOA8=", "properties": {"@spider": "usps_collection_boxes", "addr:city": "SANTA FE", "addr:country": "US", "addr:full": "100 CATHEDRAL PL", "addr:postcode": "87501", "addr:state": "NM", "brand": "USPS", "collection_times": "Mo-Fr 16:00; Sa 14:15", "name": "USPS COLLECTION BOX - BLUE BOX", "note": "ON 12/24 AND 12/31, THIS BOX MAY BE COLLECTED AS EARLY AS 12 NOON.", "ref": "8750100076"}, "type": "Feature"}
{"geometry": {"coordinates": [-105.940978, 35.690238], "type": "Point"}, "id": "jA8Azgh4CJ4jMLLVZ90F6p1KbeI=", "properties": {"@spider": "usps_collection_boxes", "addr:city": "SANTA FE", "addr:country": "US", "addr:full": "208 GRIFFIN ST", "addr:postcode": "87501", "addr:state": "NM", "brand": "USPS", "collection_times": "Mo-Fr 15:45; Sa 14:00", "name": "USPS COLLECTION BOX - BLUE BOX", "note": "ON 12/24 AND 12/31, THIS BOX MAY BE COLLECTED AS EARLY AS 12 NOON.", "ref": "8750100092"}, "type": "Feature"}
{"geometry": {"coordinates": [-105.9389141819, 35.6878111215], "type": "Point"}, "id": "LV-hmDRowY456gf5uNzxdatwUIU=", "properties": {"@spider": "usps_collection_boxes", "addr:city": "SANTA FE", "addr:country": "US", "addr:full": "98 LINCOLN AVE", "addr:postcode": "87501", "addr:state": "NM", "brand": "USPS", "collection_times": "Mo-Fr 16:00; Sa 14:30", "name": "USPS COLLECTION BOX - BLUE BOX", "note": "ON 12/24 AND 12/31, THIS BOX MAY BE COLLECTED AS EARLY AS 12 NOON.", "ref": "8750100093"}, "type": "Feature"}
{"geometry": {"coordinates": [-105.9356923483, 35.688707549], "type": "Point"}, "id": "GQm5OQaft-LWVpMnV8s6fbxFdKY=", "properties": {"@spider": "usps_collection_boxes", "addr:city": "SANTA FE", "addr:country": "US", "addr:full": "119 E MARCY ST", "addr:postcode": "87501", "addr:state": "NM", "brand": "USPS", "collection_times": "Mo-Fr 16:00; Sa 14:15", "name": "USPS COLLECTION BOX - BLUE BOX", "note": "ON 12/24 AND 12/31, THIS BOX MAY BE COLLECTED AS EARLY AS 12 NOON.", "ref": "8750100096"}, "type": "Feature"}
{"geometry": {"coordinates": [-105.9341248715, 35.6882068482], "type": "Point"}, "id": "BroFHozJzcyxjIjbI6d38Rm7vNE=", "properties": {"@spider": "usps_collection_boxes", "addr:city": "SANTA FE", "addr:country": "US", "addr:full": "225 E MARCY ST", "addr:postcode": "87501", "addr:state": "NM", "brand": "USPS", "collection_times": "Mo-Fr 16:00; Sa 14:15", "name": "USPS COLLECTION BOX - BLUE BOX", "note": "ON 12/24 AND 12/31, THIS BOX MAY BE COLLECTED AS EARLY AS 12 NOON.", "ref": "8750100097"}, "type": "Feature"}
{"geometry": {"coordinates": [-105.9359233633, 35.6871209581], "type": "Point"}, "id": "F0c4K5oxUh0k3pF_jIn3seef66s=", "properties": {"@spider": "usps_collection_boxes", "addr:city": "SANTA FE", "addr:country": "US", "addr:full": "141 E PALACE AVE", "addr:postcode": "87501", "addr:state": "NM", "brand": "USPS", "collection_times": "Mo-Fr 16:00; Sa 14:15", "name": "USPS COLLECTION BOX - BLUE BOX", "note": "ON 12/24 AND 12/31, THIS BOX MAY BE COLLECTED AS EARLY AS 12 NOON.", "ref": "8750100106"}, "type": "Feature"}
{"geometry": {"coordinates": [-105.9499072645, 35.6917424735], "type": "Point"}, "id": "QsnMz_xPPAc6cCKOr6oGANH_SGM=", "properties": {"@spider": "usps_collection_boxes", "addr:city": "SANTA FE", "addr:country": "US", "addr:full": "193 PASEO DE PERALTA", "addr:postcode": "87501", "addr:state": "NM", "brand": "USPS", "collection_times": "Mo-Fr 16:30; Sa 15:15", "name": "USPS COLLECTION BOX - BLUE BOX", "note": "ON 12/24 AND 12/31, THIS BOX MAY BE COLLECTED AS EARLY AS 12 NOON.", "ref": "8750100108"}, "type": "Feature"}
{"geometry": {"coordinates": [-105.9378961954, 35.6868619736], "type": "Point"}, "id": "CMbTrQ4Cr08Hjs-TSXRJnOeFe6w=", "properties": {"@spider": "usps_collection_boxes", "addr:city": "SANTA FE", "addr:country": "US", "addr:full": "100 E SAN FRANCISCO ST", "addr:postcode": "87501", "addr:state": "NM", "brand": "USPS", "collection_times": "Mo-Fr 15:45; Sa 14:00", "name": "USPS COLLECTION BOX - BLUE BOX", "note": "ON 12/24 AND 12/31, THIS BOX MAY BE COLLECTED AS EARLY AS 12 NOON.", "ref": "8750100112"}, "type": "Feature"}
{"geometry": {"coordinates": [-105.9494318412, 35.693851712], "type": "Point"}, "id": "DS_fP3JQrLhJkmP7WvLmYSUfvfY=", "properties": {"@spider": "usps_collection_boxes", "addr:city": "SANTA FE", "addr:country": "US", "addr:full": "534 N GUADALUPE ST", "addr:postcode": "87501", "addr:state": "NM", "brand": "USPS", "collection_times": "Mo-Fr 17:00; Sa 16:00", "name": "USPS COLLECTION BOX - PO LOBBY", "note": "ON 12/24 AND 12/31, THIS BOX MAY BE COLLECTED AS EARLY AS 12 NOON.", "ref": "8750100126"}, "type": "Feature"}
{"geometry": {"coordinates": [-105.9494318412, 35.693851712], "type": "Point"}, "id": "MBns7GpJ9fNP_GRfCiqz8ZHfVV8=", "properties": {"@spider": "usps_collection_boxes", "addr:city": "SANTA FE", "addr:country": "US", "addr:full": "534 N GUADALUPE ST", "addr:postcode": "87501", "addr:state": "NM", "brand": "USPS", "collection_times": "Mo-Fr 17:00; Sa 16:00", "name": "USPS COLLECTION BOX - PO LOBBY", "note": "ON 12/24 AND 12/31, THIS BOX MAY BE COLLECTED AS EARLY AS 12 NOON.", "ref": "8750100127"}, "type": "Feature"}
{"geometry": {"coordinates": [-105.933055, 35.683331], "type": "Point"}, "id": "qBQpbX_cZfU-FG3Wrk1usZDji4c=", "properties": {"@spider": "usps_collection_boxes", "addr:city": "SANTA FE", "addr:country": "US", "addr:full": "225 CANYON RD", "addr:postcode": "87501", "addr:state": "NM", "brand": "USPS", "collection_times": "Mo-Fr 14:00; Sa 13:15", "name": "USPS COLLECTION BOX - BLUE BOX", "note": "ON 12/24 AND 12/31, THIS BOX MAY BE COLLECTED AS EARLY AS 12 NOON.", "ref": "8750100139"}, "type": "Feature"}
{"geometry": {"coordinates": [-105.941154, 35.68061], "type": "Point"}, "id": "Kcvs4xnXQOx87QGOSdYKIVVWumU=", "properties": {"@spider": "usps_collection_boxes", "addr:city": "SANTA FE", "addr:country": "US", "addr:full": "527 DON GASPAR AVE", "addr:postcode": "87501", "addr:state": "NM", "brand": "USPS", "collection_times": "Mo-Fr 13:30; Sa 13:15", "name": "USPS COLLECTION BOX - BLUE BOX", "note": "ON 12/24 AND 12/31, THIS BOX MAY BE COLLECTED AS EARLY AS 12 NOON.", "ref": "8750100142"}, "type": "Feature"}
{"geometry": {"coordinates": [-105.933494, 35.680216], "type": "Point"}, "id": "ntxyd1rf_-lIaAXTgwAnm0M96A4=", "properties": {"@spider": "usps_collection_boxes", "addr:city": "SANTA FE", "addr:country": "US", "addr:full": "376 GARCIA ST", "addr:postcode": "87501", "addr:state": "NM", "brand": "USPS", "collection_times": "Mo-Fr 14:15; Sa 13:30", "name": "USPS COLLECTION BOX - BLUE BOX", "note": "ON 12/24 AND 12/31, THIS BOX MAY BE COLLECTED AS EARLY AS 12 NOON.", "ref": "8750100143"}, "type": "Feature"}
{"geometry": {"coordinates": [-105.944139, 35.684569], "type": "Point"}, "id": "xVxJ7dAwtYfSseMdKAz7vZH438o=", "properties": {"@spider": "usps_collection_boxes", "addr:city": "SANTA FE", "addr:country": "US", "addr:full": "236 MONTEZUMA AVE", "addr:postcode": "87501", "addr:state": "NM", "brand": "USPS", "collection_times": "Mo-Fr 15:30; Sa 13:45", "name": "USPS COLLECTION BOX - BLUE BOX", "note": "ON 12/24 AND 12/31, THIS BOX MAY BE COLLECTED AS EARLY AS 12 NOON.", "ref": "8750100144"}, "type": "Feature"}
{"geometry": {"coordinates": [-105.937639, 35.684136], "type": "Point"}, "id": "oV-B4liaiozpoFs-Yy2oMuSeTzk=", "properties": {"@spider": "usps_collection_boxes", "addr:city": "SANTA FE", "addr:country": "US", "addr:full": "311 OLD SANTA FE TRL", "addr:postcode": "87501", "addr:state": "NM", "brand": "USPS", "collection_times": "Mo-Fr 13:30; Sa 13:45", "name": "USPS COLLECTION BOX - BLUE BOX", "note": "ON 12/24 AND 12/31, THIS BOX MAY BE COLLECTED AS EARLY AS 12 NOON.", "ref": "8750100147"}, "type": "Feature"}
{"geometry": {"coordinates": [-105.938728, 35.685112], "type": "Point"}, "id": "EBoFOWEQ2GEc5GHAh30_YFGk_vI=", "properties": {"@spider": "usps_collection_boxes", "addr:city": "SANTA FE", "addr:country": "US", "addr:full": "205 SHELBY ST", "addr:postcode": "87501", "addr:state": "NM", "brand": "USPS", "collection_times": "Mo-Fr 13:30; Sa 13:45", "name": "USPS COLLECTION BOX - BLUE BOX", "note": "ON 12/24 AND 12/31, THIS BOX MAY BE COLLECTED AS EARLY AS 12 NOON.", "ref": "8750100149"}, "type": "Feature"}
{"geometry": {"coordinates": [-105.9382631175, 35.6906936229], "type": "Point"}, "id": "GjedS_Pm_C4-p4jLZ3GH3A__M9Y=", "properties": {"@spider": "usps_collection_boxes", "addr:city": "SANTA FE", "addr:country": "US", "addr:full": "120 S FEDERAL PL", "addr:postcode": "87501", "addr:state": "NM", "brand": "USPS", "collection_times": "Mo-Sa 17:30", "name": "USPS COLLECTION BOX - APC", "note": "ON 12/24 AND 12/31, THIS BOX MAY BE COLLECTED AS EARLY AS 12 NOON.", "ref": "8750100150"}, "type": "Feature"}
{"geometry": {"coordinates": [-105.9405044666, 35.687469846], "type": "Point"}, "id": "QrNpBd3TeEPsNuWB8PGOa3UYYno=", "properties": {"@spider": "usps_collection_boxes", "addr:city": "SANTA FE", "addr:country": "US", "addr:full": "122 W SAN FRANCISCO ST", "addr:postcode": "87501", "addr:state": "NM", "brand": "USPS", "collection_times": "Mo-Fr 15:45; Sa 14:00", "name": "USPS COLLECTION BOX - BLUE BOX", "note": "ON 12/24 AND 12/31, THIS BOX MAY BE COLLECTED AS EARLY AS 12 NOON.", "ref": "8750100152"}, "type": "Feature"}
{"geometry": {"coordinates": [-105.929128, 35.681963], "type": "Point"}, "id": "uqksIGQnahoNqCA7FxmKL7NncUw=", "properties": {"@spider": "usps_collection_boxes", "addr:city": "SANTA FE", "addr:country": "US", "addr:full": "555 CANYON RD", "addr:postcode": "87501", "addr:state": "NM", "brand": "USPS", "collection_times": "Mo-Fr 14:15; Sa 13:15", "name": "USPS COLLECTION BOX - BLUE BOX", "note": "ON 12/24 AND 12/31, THIS BOX MAY BE COLLECTED AS EARLY AS 12 NOON.", "ref": "8750100153"}, "type": "Feature"}
{"geometry": {"coordinates": [-105.9494318412, 35.693851712], "type": "Point"}, "id": "A0lSWjiLnDD43kqGunX0O4N-GV0=", "properties": {"@spider": "usps_collection_boxes", "addr:city": "SANTA FE", "addr:country": "US", "addr:full": "534 N GUADALUPE ST", "addr:postcode": "87501", "addr:state": "NM", "brand": "USPS", "collection_times": "Mo-Sa 16:00", "name": "USPS COLLECTION BOX - PO LOBBY", "note": "ON 12/24 AND 12/31, THIS BOX MAY BE COLLECTED AS EARLY AS 12 NOON.", "ref": "8750100157"}, "type": "Feature"}
{"geometry": {"coordinates": [-105.9382631175, 35.6906936229], "type": "Point"}, "id": "PDlZscxqZkuJ-59QPuZiTCUvErQ=", "properties": {"@spider": "usps_collection_boxes", "addr:city": "SANTA FE", "addr:country": "US", "addr:full": "120 S FEDERAL PL STE 101", "addr:postcode": "87501", "addr:state": "NM", "brand": "USPS", "collection_times": "Mo-Sa 17:15", "name": "USPS COLLECTION BOX - PO LOBBY", "note": "ON 12/24 AND 12/31, THIS BOX MAY BE COLLECTED AS EARLY AS 12 NOON.", "ref": "8750100158"}, "type": "Feature"}
{"geometry": {"coordinates": [-105.958506657, 35.6546878637], "type": "Point"}, "id": "Ci_YsXUpZq86fZa6KpjcQkJiOIA=", "properties": {"@spider": "usps_collection_boxes", "addr:city": "SANTA FE", "addr:country": "US", "addr:full": "2071 S PACHECO ST", "addr:postcode": "87505", "addr:state": "NM", "brand": "USPS", "collection_times": "Mo-Fr 17:45; Sa 17:30", "name": "USPS COLLECTION BOX - BLUE BOX", "note": "ON 12/24 AND 12/31, THIS BOX MAY BE COLLECTED AS EARLY AS 12 NOON.", "ref": "8750500026"}, "type": "Feature"}
{"geometry": {"coordinates": [-105.958506657, 35.6546878637], "type": "Point"}, "id": "H4FpwYys-mMFKfkirV2as_iGBTM=", "properties": {"@spider": "usps_collection_boxes", "addr:city": "SANTA FE", "addr:country": "US", "addr:full": "2071 S PACHECO ST", "addr:postcode": "87505", "addr:state": "NM", "brand": "USPS", "collection_times": "Mo-Fr 17:45; Sa 17:30", "name": "USPS COLLECTION BOX - BLUE BOX", "note": "ON 12/24 AND 12/31, THIS BOX MAY BE COLLECTED AS EARLY AS 12 NOON.", "ref": "8750500027"}, "type": "Feature"}
{"geometry": {"coordinates": [-105.958506657, 35.6546878637], "type": "Point"}, "id": "18MJj9secseLhR6VP2L67Buy4Uk=", "properties": {"@spider": "usps_collection_boxes", "addr:city": "SANTA FE", "addr:country": "US", "addr:full": "2071 S PACHECO ST", "addr:postcode": "87505", "addr:state": "NM", "brand": "USPS", "collection_times": "Mo-Fr 17:45; Sa 17:30", "name": "USPS COLLECTION BOX - BLUE BOX", "note": "ON 12/24 AND 12/31, THIS BOX MAY BE COLLECTED AS EARLY AS 12 NOON.", "ref": "8750500028"}, "type": "Feature"}
{"geometry": {"coordinates": [-105.958506657, 35.6546878637], "type": "Point"}, "id": "1oR7dsoQUNmUzozShPpm_GCtlXQ=", "properties": {"@spider": "usps_collection_boxes", "addr:city": "SANTA FE", "addr:country": "US", "addr:full": "2071 S PACHECO ST", "addr:postcode": "87505", "addr:state": "NM", "brand": "USPS", "collection_times": "Mo-Fr 17:45; Sa 17:30", "name": "USPS COLLECTION BOX - BLUE BOX", "note": "ON 12/24 AND 12/31, THIS BOX MAY BE COLLECTED AS EARLY AS 12 NOON.", "ref": "8750500029"}, "type": "Feature"}
{"geometry": {"coordinates": [-105.958506657, 35.6546878637], "type": "Point"}, "id": "HtHfT9sLq4xS0MHQix0lbdRo-Ok=", "properties": {"@spider": "usps_collection_boxes", "addr:city": "SANTA FE", "addr:country": "US", "addr:full": "2071 S PACHECO ST", "addr:postcode": "87505", "addr:state": "NM", "brand": "USPS", "collection_times": "Mo-Fr 17:45; Sa 17:30", "name": "USPS COLLECTION BOX - PO LOBBY", "note": "ON 12/24 AND 12/31, THIS BOX MAY BE COLLECTED AS EARLY AS 12 NOON.", "ref": "8750500037"}, "type": "Feature"}
{"geometry": {"coordinates": [-105.958506657, 35.6546878637], "type": "Point"}, "id": "xIVtuZWRlbprtzmDQWd_sYoWmOg=", "properties": {"@spider": "usps_collection_boxes", "addr:city": "SANTA FE", "addr:country": "US", "addr:full": "2071 S PACHECO ST", "addr:postcode": "87505", "addr:state": "NM", "brand": "USPS", "collection_times": "Mo-Fr 17:45; Sa 17:30", "name": "USPS COLLECTION BOX - PO LOBBY", "note": "ON 12/24 AND 12/31, THIS BOX MAY BE COLLECTED AS EARLY AS 12 NOON.", "ref": "8750500080"}, "type": "Feature"}
{"geometry": {"coordinates": [-105.954235, 35.669807], "type": "Point"}, "id": "575gLOsETI_Ap_AP_TzwrMuznxY=", "properties": {"@spider": "usps_collection_boxes", "addr:city": "SANTA FE", "addr:country": "US", "addr:full": "670 ALTA VISTA ST", "addr:postcode": "87505", "addr:state": "NM", "brand": "USPS", "collection_times": "Mo-Sa 13:15", "name": "USPS COLLECTION BOX - BLUE BOX", "note": "ON 12/24 AND 12/31, THIS BOX MAY BE COLLECTED AS EARLY AS 12 NOON.", "ref": "8750500086"}, "type": "Feature"}
{"geometry": {"coordinates": [-105.940659, 35.657193], "type": "Point"}, "id": "1hEXfQ8Mqdn_ZXMaQpwf6nSmk4E=", "properties": {"@spider": "usps_collection_boxes", "addr:city": "SANTA FE", "addr:country": "US", "addr:full": "1 CALLE MEDICO", "addr:postcode": "87505", "addr:state": "NM", "brand": "USPS", "collection_times": "Mo-Sa 13:00", "name": "USPS COLLECTION BOX - BLUE BOX", "note": "ON 12/24 AND 12/31, THIS BOX MAY BE COLLECTED AS EARLY AS 12 NOON.", "ref": "8750500087"}, "type": "Feature"}
{"geometry": {"coordinates": [-105.9771959605, 35.6606859833], "type": "Point"}, "id": "r85vmKtUU7np5AoJ677PHOThp6w=", "properties": {"@spider": "usps_collection_boxes", "addr:city": "SANTA FE", "addr:country": "US", "addr:full": "2006 CERRILLOS RD", "addr:postcode": "87505", "addr:state": "NM", "brand": "USPS", "collection_times": "Mo-Fr 13:00; Sa 13:30", "name": "USPS COLLECTION BOX - BLUE BOX", "note": "ON 12/24 AND 12/31, THIS BOX MAY BE COLLECTED AS EARLY AS 12 NOON.", "ref": "8750500091"}, "type": "Feature"}
{"geometry": {"coordinates": [-105.9951785257, 35.6530705898], "type": "Point"}, "id": "kmy7Y-cUUML5ssVf80EjlatphO0=", "properties": {"@spider": "usps_collection_boxes", "addr:city": "SANTA FE", "addr:country": "US", "addr:full": "3140 CERRILLOS RD", "addr:postcode": "87505", "addr:state": "NM", "brand": "USPS", "collection_times": "Mo-Fr 13:00; Sa 13:30", "name": "USPS COLLECTION BOX - BLUE BOX", "note": "ON 12/24 AND 12/31, THIS BOX MAY BE COLLECTED AS EARLY AS 12 NOON.", "ref": "8750500093"}, "type": "Feature"}
{"geometry": {"coordinates": [-106.0188720009, 35.636106513], "type": "Point"}, "id": "dlmA6_vkcj27HhDpG8x0MJ3XGsA=", "properties": {"@spider": "usps_collection_boxes", "addr:city": "SANTA FE", "addr:country": "US", "addr:full": "4250 CERRILLOS RD", "addr:postcode": "87505", "addr:state": "NM", "brand": "USPS", "collection_times": "Mo-Sa 16:15", "name": "USPS COLLECTION BOX - PO LOBBY", "note": "ON 12/24 AND 12/31, THIS BOX MAY BE COLLECTED AS EARLY AS 12 NOON.", "ref": "8750500094"}, "type": "Feature"}
{"geometry": {"coordinates": [-106.0188720009, 35.636106513], "type": "Point"}, "id": "v1qxJjIPynu3t-YE0tFPL0ifWDU=", "properties": {"@spider": "usps_collection_boxes", "addr:city": "SANTA FE", "addr:country": "US", "addr:full": "4250 CERRILLOS RD", "addr:postcode": "87505", "addr:state": "NM", "brand": "USPS", "collection_times": "Mo-Sa 16:30", "name": "USPS COLLECTION BOX - BLUE BOX", "note": "ON 12/24 AND 12/31, THIS BOX MAY BE COLLECTED AS EARLY AS 12 NOON.", "ref": "8750500095"}, "type": "Feature"}
{"geometry": {"coordinates": [-106.0188720009, 35.636106513], "type": "Point"}, "id": "OdiRnsH-vD_ygskXuPoQd6hxTts=", "properties": {"@spider": "usps_collection_boxes", "addr:city": "SANTA FE", "addr:country": "US", "addr:full": "4250 CERRILLOS RD", "addr:postcode": "87505", "addr:state": "NM", "brand": "USPS", "collection_times": "Mo-Sa 16:15", "name": "USPS COLLECTION BOX - PO LOBBY", "note": "ON 12/24 AND 12/31, THIS BOX MAY BE COLLECTED AS EARLY AS 12 NOON.", "ref": "8750500096"}, "type": "Feature"}
{"geometry": {"coordinates": [-105.949821, 35.673092], "type": "Point"}, "id": "i8BQLmwaSXQ4SmARbOwdpDdVBts=", "properties": {"@spider": "usps_collection_boxes", "addr:city": "SANTA FE", "addr:country": "US", "addr:full": "511 W CORDOVA RD", "addr:postcode": "87505", "addr:state": "NM", "brand": "USPS", "collection_times": "Mo-Sa 13:30", "name": "USPS COLLECTION BOX - BLUE BOX", "note": "ON 12/24 AND 12/31, THIS BOX MAY BE COLLECTED AS EARLY AS 12 NOON.", "ref": "8750500097"}, "type": "Feature"}
{"geometry": {"coordinates": [-105.950007, 35.660633], "type": "Point"}, "id": "hCPCOWj3LtKEHkC_1yIbn5VN3XE=", "properties": {"@spider": "usps_collection_boxes", "addr:city": "SANTA FE", "addr:country": "US", "addr:full": "1651 GALISTEO ST", "addr:postcode": "87505", "addr:state": "NM", "brand": "USPS", "collection_times": "Mo-Sa 13:00", "name": "USPS COLLECTION BOX - BLUE BOX", "note": "ON 12/24 AND 12/31, THIS BOX MAY BE COLLECTED AS EARLY AS 12 NOON.", "ref": "8750500100"}, "type": "Feature"}
{"geometry": {"coordinates": [-105.954337, 35.667415], "type": "Point"}, "id": "ii5l1wky9psWcLu78HDSfiH6_Ow=", "properties": {"@spider": "usps_collection_boxes", "addr:city": "SANTA FE", "addr:country": "US", "addr:full": "1500 LUISA PL", "addr:postcode": "87505", "addr:state": "NM", "brand": "USPS", "collection_times": "Mo-Sa 13:15", "name": "USPS COLLECTION BOX - BLUE BOX", "note": "ON 12/24 AND 12/31, THIS BOX MAY BE COLLECTED AS EARLY AS 12 NOON.", "ref": "8750500102"}, "type": "Feature"}
{"geometry": {"coordinates": [-105.960205, 35.657809], "type": "Point"}, "id": "q14Ci7tzMYlSov17k10PaOnz61Y=", "properties": {"@spider": "usps_collection_boxes", "addr:city": "SANTA FE", "addr:country": "US", "addr:full": "2110 S PACHECO ST", "addr:postcode": "87505", "addr:state": "NM", "brand": "USPS", "collection_times": "Mo-Sa 15:45", "name": "USPS COLLECTION BOX - BLUE BOX", "note": "ON 12/24 AND 12/31, THIS BOX MAY BE COLLECTED AS EARLY AS 12 NOON.", "ref": "8750500109"}, "type": "Feature"}
{"geometry": {"coordinates": [-105.998351, 35.655706], "type": "Point"}, "id": "4YSZ5o3aJXvmnk-aPGcXAqzmglY=", "properties": {"@spider": "usps_collection_boxes", "addr:city": "SANTA FE", "addr:country": "US", "addr:full": "1220 PARKWAY DR", "addr:postcode": "87505", "addr:state": "NM", "brand": "USPS", "collection_times": "Mo-Sa 13:00", "name": "USPS COLLECTION BOX - BLUE BOX", "note": "ON 12/24 AND 12/31, THIS BOX MAY BE COLLECTED AS EARLY AS 12 NOON.", "ref": "8750500110"}, "type": "Feature"}
{"geometry": {"coordinates": [-105.983923, 35.639308], "type": "Point"}, "id": "2K3vI52S4JmSFIpVAAuOXo_UpLA=", "properties": {"@spider": "usps_collection_boxes", "addr:city": "SANTA FE", "addr:country": "US", "addr:full": "2801 RODEO RD", "addr:postcode": "87505", "addr:state": "NM", "brand": "USPS", "collection_times": "Mo-Fr 14:15; Sa 15:00", "name": "USPS COLLECTION BOX - BLUE BOX", "note": "ON 12/24 AND 12/31, THIS BOX MAY BE COLLECTED AS EARLY AS 12 NOON.", "ref": "8750500111"}, "type": "Feature"}
{"geometry": {"coordinates": [-105.957173, 35.663076], "type": "Point"}, "id": "0atVZC8LYSF5S7YDJlDznMhlgfg=", "properties": {"@spider": "usps_collection_boxes", "addr:city": "SANTA FE", "addr:country": "US", "addr:full": "601 W SAN MATEO RD", "addr:postcode": "87505", "addr:state": "NM", "brand": "USPS", "collection_times": "Mo-Sa 14:00", "name": "USPS COLLECTION BOX - BLUE BOX", "note": "ON 12/24 AND 12/31, THIS BOX MAY BE COLLECTED AS EARLY AS 12 NOON.", "ref": "8750500112"}, "type": "Feature"}
{"geometry": {"coordinates": [-105.9546809951, 35.6735100018], "type": "Point"}, "id": "Edo8QuvIQSNzheMOfopTvqSrqME=", "properties": {"@spider": "usps_collection_boxes", "addr:city": "SANTA FE", "addr:country": "US", "addr:full": "1100 S SAINT FRANCIS DR", "addr:postcode": "87505", "addr:state": "NM", "brand": "USPS", "collection_times": "Mo-Sa 14:00", "name": "USPS COLLECTION BOX - BLUE BOX", "note": "ON 12/24 AND 12/31, THIS BOX MAY BE COLLECTED AS EARLY AS 12 NOON.", "ref": "8750500114"}, "type": "Feature"}
{"geometry": {"coordinates": [-105.957238, 35.665162], "type": "Point"}, "id": "lt3G_lgLgyaUitAK37v6Em-n6CE=", "properties": {"@spider": "usps_collection_boxes", "addr:city": "SANTA FE", "addr:country": "US", "addr:full": "1444 S SAINT FRANCIS DR", "addr:postcode": "87505", "addr:state": "NM", "brand": "USPS", "collection_times": "Mo-Sa 14:00", "name": "USPS COLLECTION BOX - BLUE BOX", "note": "ON 12/24 AND 12/31, THIS BOX MAY BE COLLECTED AS EARLY AS 12 NOON.", "ref": "8750500115"}, "type": "Feature"}
{"geometry": {"coordinates": [-105.954717, 35.645847], "type": "Point"}, "id": "9hnCNWyAmusVECGFowcehnwZ6ks=", "properties": {"@spider": "usps_collection_boxes", "addr:city": "SANTA FE", "addr:country": "US", "addr:full": "3001 S SAINT FRANCIS DR", "addr:postcode": "87505", "addr:state": "NM", "brand": "USPS", "collection_times": "Mo-Sa 13:00", "name": "USPS COLLECTION BOX - BLUE BOX", "note": "ON 12/24 AND 12/31, THIS BOX MAY BE COLLECTED AS EARLY AS 12 NOON.", "ref": "8750500116"}, "type": "Feature"}
{"geometry": {"coordinates": [-105.970641, 35.658797], "type": "Point"}, "id": "H7vEDul3ajoa-E1jXAR_hYXnEaw=", "properties": {"@spider": "usps_collection_boxes", "addr:city": "SANTA FE", "addr:country": "US", "addr:full": "1712 SAINT MICHAELS DR", "addr:postcode": "87505", "addr:state": "NM", "brand": "USPS", "collection_times": "Mo-Fr 13:00; Sa 13:30", "name": "USPS COLLECTION BOX - BLUE BOX", "note": "ON 12/24 AND 12/31, THIS BOX MAY BE COLLECTED AS EARLY AS 12 NOON.", "ref": "8750500119"}, "type": "Feature"}
{"geometry": {"coordinates": [-106.012174, 35.640201], "type": "Point"}, "id": "qH7Jl9REnoXibPSmZpPhpBtXX3Y=", "properties": {"@spider": "usps_collection_boxes", "addr:city": "SANTA FE", "addr:country": "US", "addr:full": "3530 ZAFARANO DR", "addr:postcode": "87505", "addr:state": "NM", "brand": "USPS", "collection_times": "Mo-Sa 14:45", "name": "USPS COLLECTION BOX - BLUE BOX", "note": "ON 12/24 AND 12/31, THIS BOX MAY BE COLLECTED AS EARLY AS 12 NOON.", "ref": "8750500122"}, "type": "Feature"}
{"geometry": {"coordinates": [-105.958506657, 35.6546878637], "type": "Point"}, "id": "qKyTJQIN2SPkEL1QISNNPYR6AfU=", "properties": {"@spider": "usps_collection_boxes", "addr:city": "SANTA FE", "addr:country": "US", "addr:full": "2071 S PACHECO ST", "addr:postcode": "87505", "addr:state": "NM", "brand": "USPS", "collection_times": "Mo-Fr 17:45; Sa 17:30", "name": "USPS COLLECTION BOX - APC", "note": "ON 12/24 AND 12/31, THIS BOX MAY BE COLLECTED AS EARLY AS 12 NOON.", "ref": "8750500127"}, "type": "Feature"}
{"geometry": {"coordinates": [-105.943943, 35.656818], "type": "Point"}, "id": "VgkvqhqF9r_aUZTQgn_-5moJmRs=", "properties": {"@spider": "usps_collection_boxes", "addr:city": "SANTA FE", "addr:country": "US", "addr:full": "455 SAINT MICHAELS DR", "addr:postcode": "87505", "addr:state": "NM", "brand": "USPS", "collection_times": "Mo-Sa 13:00", "name": "USPS COLLECTION BOX - BLUE BOX", "note": "ON 12/24 AND 12/31, THIS BOX MAY BE COLLECTED AS EARLY AS 12 NOON.", "ref": "8750500131"}, "type": "Feature"}
{"geometry": {"coordinates": [-105.9379782102, 35.6812653347], "type": "Point"}, "id": "re3FyWE-Z1n4MRXFuk1lX4-vtkg=", "properties": {"@spider": "usps_collection_boxes", "addr:city": "SANTA FE", "addr:country": "US", "addr:full": "501 OLD SANTA FE TRL", "addr:postcode": "87505", "addr:state": "NM", "brand": "USPS", "collection_times": "Mo-Fr 14:00; Sa 13:15", "name": "USPS COLLECTION BOX - BLUE BOX", "note": "ON 12/24 AND 12/31, THIS BOX MAY BE COLLECTED AS EARLY AS 12 NOON.", "ref": "8750500136"}, "type": "Feature"}
{"geometry": {"coordinates": [-105.958506657, 35.6546878637], "type": "Point"}, "id": "hQlao3a8iruDfROUf_GwthkhDLc=", "properties": {"@spider": "usps_collection_boxes", "addr:city": "SANTA FE", "addr:country": "US", "addr:full": "2071 S PACHECO ST", "addr:postcode": "87505", "addr:state": "NM", "brand": "USPS", "collection_times": "Mo-Fr 17:45; Sa 17:30", "name": "USPS COLLECTION BOX - PO LOBBY", "note": "ON 12/24 AND 12/31, THIS BOX MAY BE COLLECTED AS EARLY AS 12 NOON.", "ref": "8750500137"}, "type": "Feature"}
{"geometry": {"coordinates": [-106.320475964, 36.209066158], "type": "Point"}, "id": "BeFOsUwLaWvAUcNssj459MJClns=", "properties": {"@spider": "usps_collection_boxes", "addr:city": "ABIQUIU", "addr:country": "US", "addr:full": "4 COUNTY ROAD 187", "addr:postcode": "87510", "addr:state": "NM", "brand": "USPS", "collection_times": "Mo-Fr 15:30; Sa 09:30", "name": "USPS COLLECTION BOX - BLUE BOX", "note": "ON 12/24 AND 12/31, THIS BOX MAY BE COLLECTED AS EARLY AS 12 NOON.", "ref": "8751000001"}, "type": "Feature"}
{"geometry": {"coordinates": [-106.320475964, 36.209066158], "type": "Point"}, "id": "jIuB3KuXFFBi9xkVLrspIl6e_TQ=", "properties": {"@spider": "usps_collection_boxes", "addr:city": "ABIQUIU", "addr:country": "US", "addr:full": "4 COUNTY ROAD 187", "addr:postcode": "87510", "addr:state": "NM", "brand": "USPS", "collection_times": "Mo-Fr 15:45; Sa 09:45", "name": "USPS COLLECTION BOX - PO LOBBY", "note": "ON 12/24 AND 12/31, THIS BOX MAY BE COLLECTED AS EARLY AS 12 NOON.", "ref": "8751000002"}, "type": "Feature"}
{"geometry": {"coordinates": [-106.320475964, 36.209066158], "type": "Point"}, "id": "QucroiCikai51keaLfYx_g_Ewpc=", "properties": {"@spider": "usps_collection_boxes", "addr:city": "ABIQUIU", "addr:country": "US", "addr:full": "4 COUNTY ROAD 187", "addr:postcode": "87510", "addr:state": "NM", "brand": "USPS", "collection_times": "Mo-Fr 15:45; Sa 09:45", "name": "USPS COLLECTION BOX - PO LOBBY", "note": "ON 12/24 AND 12/31, THIS BOX MAY BE COLLECTED AS EARLY AS 12 NOON.", "ref": "8751000003"}, "type": "Feature"}
{"geometry": {"coordinates": [-106.320475964, 36.209066158], "type": "Point"}, "id": "TSIVxkH0pFv5xG0zZLJ8Jq8t1Hw=", "properties": {"@spider": "usps_collection_boxes", "addr:city": "ABIQUIU", "addr:country": "US", "addr:full": "4 COUNTY ROAD 187", "addr:postcode": "87510", "addr:state": "NM", "brand": "USPS", "collection_times": "Mo-Fr 15:45", "name": "USPS COLLECTION BOX - PO LOBBY", "note": "ON 12/24 AND 12/31, THIS BOX MAY BE COLLECTED AS EARLY AS 12 NOON.", "ref": "8751000004"}, "type": "Feature"}
{"geometry": {"coordinates": [-106.0469072539, 36.0942583731], "type": "Point"}, "id": "zhh-XgPJPslNZixFl1zgFW_twCQ=", "properties": {"@spider": "usps_collection_boxes", "addr:city": "ALCALDE", "addr:country": "US", "addr:full": "1 COUNTY ROAD 37", "addr:postcode": "87511", "addr:state": "NM", "brand": "USPS", "collection_times": "Mo-Fr 15:30; Sa 10:30", "name": "USPS COLLECTION BOX - PO LOBBY", "note": "ON 12/24 AND 12/31, THIS BOX MAY BE COLLECTED AS EARLY AS 12 NOON.", "ref": "8751100002"}, "type": "Feature"}
{"geometry": {"coordinates": [-106.0469072539, 36.0942583731], "type": "Point"}, "id": "duvbRL3zmLOOwaZStxLWkYs_zFY=", "properties": {"@spider": "usps_collection_boxes", "addr:city": "ALCALDE", "addr:country": "US", "addr:full": "1 COUNTY ROAD 37", "addr:postcode": "87511", "addr:state": "NM", "brand": "USPS", "collection_times": "Mo-Fr 15:30; Sa 10:30", "name": "USPS COLLECTION BOX - BLUE BOX", "note": "ON 12/24 AND 12/31, THIS BOX MAY BE COLLECTED AS EARLY AS 12 NOON.", "ref": "8751100003"}, "type": "Feature"}
{"geometry": {"coordinates": [-106.0469072539, 36.0942583731], "type": "Point"}, "id": "lgOqjR-dwgiqaAOyxJnI53GzKSE=", "properties": {"@spider": "usps_collection_boxes", "addr:city": "ALCALDE", "addr:country": "US", "addr:full": "1 COUNTY ROAD 37", "addr:postcode": "87511", "addr:state": "NM", "brand": "USPS", "collection_times": "Mo-Fr 15:30; Sa 10:30", "name": "USPS COLLECTION BOX - PO LOBBY", "note": "ON 12/24 AND 12/31, THIS BOX MAY BE COLLECTED AS EARLY AS 12 NOON.", "ref": "8751100004"}, "type": "Feature"}
{"geometry": {"coordinates": [-106.0469072539, 36.0942583731], "type": "Point"}, "id": "PCZ3Aw8-8uqQUFfJSWSvoQCDVE8=", "properties": {"@spider": "usps_collection_boxes", "addr:city": "ALCALDE", "addr:country": "US", "addr:full": "1 COUNTY ROAD 37", "addr:postcode": "87511", "addr:state": "NM", "brand": "USPS", "collection_times": "Mo-Fr 15:30", "name": "USPS COLLECTION BOX - PO LOBBY", "note": "ON 12/24 AND 12/31, THIS BOX MAY BE COLLECTED AS EARLY AS 12 NOON.", "ref": "8751100005"}, "type": "Feature"}
{"geometry": {"coordinates": [-105.457338, 36.944916], "type": "Point"}, "id": "fRYhbukBi5mGSWl_pIJMwGz6ZCc=", "properties": {"@spider": "usps_collection_boxes", "addr:city": "AMALIA", "addr:country": "US", "addr:full": "650 STATE HIGHWAY 196", "addr:postcode": "87512", "addr:state": "NM", "brand": "USPS", "collection_times": "Mo-Fr 13:45; Sa 11:30", "name": "USPS COLLECTION BOX - BLUE BOX", "note": "ON 12/24 AND 12/31, THIS BOX MAY BE COLLECTED AS EARLY AS 12 NOON.", "ref": "8751200001"}, "type": "Feature"}
{"geometry": {"coordinates": [-105.457362, 36.944897], "type": "Point"}, "id": "NsldFDATpl5kx_4Xd1XuUExXz9A=", "properties": {"@spider": "usps_collection_boxes", "addr:city": "AMALIA", "addr:country": "US", "addr:full": "650 STATE HIGHWAY 196", "addr:postcode": "87512", "addr:state": "NM", "brand": "USPS", "collection_times": "Mo-Fr 13:45; Sa 11:30", "name": "USPS COLLECTION BOX - PO LOBBY", "note": "ON 12/24 AND 12/31, THIS BOX MAY BE COLLECTED AS EARLY AS 12 NOON.", "ref": "8751200002"}, "type": "Feature"}
{"geometry": {"coordinates": [-105.457362, 36.944897], "type": "Point"}, "id": "jIIzgI-IpQccTKDsDnHAwP7yQcs=", "properties": {"@spider": "usps_collection_boxes", "addr:city": "AMALIA", "addr:country": "US", "addr:full": "650 STATE HIGHWAY 196", "addr:postcode": "87512", "addr:state": "NM", "brand": "USPS", "collection_times": "Mo-Fr 13:45; Sa 11:30", "name": "USPS COLLECTION BOX - PO LOBBY", "note": "ON 12/24 AND 12/31, THIS BOX MAY BE COLLECTED AS EARLY AS 12 NOON.", "ref": "8751200003"}, "type": "Feature"}
{"geometry": {"coordinates": [-105.4573266787, 36.9449442611], "type": "Point"}, "id": "JWpBRKqcdPwcY9iZN0lj85vdtkw=", "properties": {"@spider": "usps_collection_boxes", "addr:city": "AMALIA", "addr:country": "US", "addr:full": "650 STATE HIGHWAY 196", "addr:postcode": "87512", "addr:state": "NM", "brand": "USPS", "collection_times": "Mo-Fr 13:45; Sa 11:30", "name": "USPS COLLECTION BOX - PO LOBBY", "note": "ON 12/24 AND 12/31, THIS BOX MAY BE COLLECTED AS EARLY AS 12 NOON.", "ref": "8751200004"}, "type": "Feature"}
{"geometry": {"coordinates": [-105.6715978952, 36.5348131236], "type": "Point"}, "id": "GVHV_0aZCrbC2HcLtr6U18lSLIA=", "properties": {"@spider": "usps_collection_boxes", "addr:city": "ARROYO HONDO", "addr:country": "US", "addr:full": "12 OLD STATE ROAD 3", "addr:postcode": "87513", "addr:state": "NM", "brand": "USPS", "collection_times": "Mo-Fr 15:15; Sa 11:45", "name": "USPS COLLECTION BOX - BLUE BOX", "note": "ON 12/24 AND 12/31, THIS BOX MAY BE COLLECTED AS EARLY AS 12 NOON.", "ref": "8751300001"}, "type": "Feature"}
{"geometry": {"coordinates": [-105.6715978952, 36.5348131236], "type": "Point"}, "id": "AmKjnVoMipb_dgn3-6YyCEnIe1Y=", "properties": {"@spider": "usps_collection_boxes", "addr:city": "ARROYO HONDO", "addr:country": "US", "addr:full": "12 OLD STATE ROAD 3", "addr:postcode": "87513", "addr:state": "NM", "brand": "USPS", "collection_times": "Mo-Fr 15:15; Sa 11:45", "name": "USPS COLLECTION BOX - PO LOBBY", "note": "ON 12/24 AND 12/31, THIS BOX MAY BE COLLECTED AS EARLY AS 12 NOON.", "ref": "8751300002"}, "type": "Feature"}
{"geometry": {"coordinates": [-105.6715978952, 36.5348131236], "type": "Point"}, "id": "UGwY5-KoizM1T_NngHvVZD-qhl4=", "properties": {"@spider": "usps_collection_boxes", "addr:city": "ARROYO HONDO", "addr:country": "US", "addr:full": "12 OLD STATE ROAD 3", "addr:postcode": "87513", "addr:state": "NM", "brand": "USPS", "collection_times": "Mo-Fr 15:15; Sa 11:45", "name": "USPS COLLECTION BOX - PO LOBBY", "note": "ON 12/24 AND 12/31, THIS BOX MAY BE COLLECTED AS EARLY AS 12 NOON.", "ref": "8751300003"}, "type": "Feature"}
{"geometry": {"coordinates": [-105.5690567258, 36.517256931], "type": "Point"}, "id": "AfZ-3RUwII5-sUgOhelURwH00do=", "properties": {"@spider": "usps_collection_boxes", "addr:city": "ARROYO SECO", "addr:country": "US", "addr:full": "505 STATE ROUTE 150", "addr:postcode": "87514", "addr:state": "NM", "brand": "USPS", "collection_times": "Mo-Fr 14:15; Sa 12:30", "name": "USPS COLLECTION BOX - BLUE BOX", "note": "ON 12/24 AND 12/31, THIS BOX MAY BE COLLECTED AS EARLY AS 12 NOON.", "ref": "8751400001"}, "type": "Feature"}
{"geometry": {"coordinates": [-105.5690567258, 36.517256931], "type": "Point"}, "id": "s4Aay7ELFCg3MLOGGjFMyqnf04I=", "properties": {"@spider": "usps_collection_boxes", "addr:city": "ARROYO SECO", "addr:country": "US", "addr:full": "505 STATE ROUTE 150", "addr:postcode": "87514", "addr:state": "NM", "brand": "USPS", "collection_times": "Mo-Fr 14:15; Sa 12:30", "name": "USPS COLLECTION BOX - PO LOBBY", "note": "ON 12/24 AND 12/31, THIS BOX MAY BE COLLECTED AS EARLY AS 12 NOON.", "ref": "8751400002"}, "type": "Feature"}
{"geometry": {"coordinates": [-105.5690567258, 36.517256931], "type": "Point"}, "id": "pRhx0ZuB-dyfKagZ3ZU1rau-viE=", "properties": {"@spider": "usps_collection_boxes", "addr:city": "ARROYO SECO", "addr:country": "US", "addr:full": "505 STATE ROUTE 150", "addr:postcode": "87514", "addr:state": "NM", "brand": "USPS", "collection_times": "Mo-Fr 14:15; Sa 12:30", "name": "USPS COLLECTION BOX - PO LOBBY", "note": "ON 12/24 AND 12/31, THIS BOX MAY BE COLLECTED AS EARLY AS 12 NOON.", "ref": "8751400003"}, "type": "Feature"}
{"geometry": {"coordinates": [-106.437699, 36.480511], "type": "Point"}, "id": "SzD5OJbRqYpDxYk4X6sFcW7bPnI=", "properties": {"@spider": "usps_collection_boxes", "addr:city": "CANJILON", "addr:country": "US", "addr:full": "385 STATE ROAD 115", "addr:postcode": "87515", "addr:state": "NM", "brand": "USPS", "collection_times": "Mo-Fr 15:00; Sa 10:45", "name": "USPS COLLECTION BOX - BLUE BOX", "note": "ON 12/24 AND 12/31, THIS BOX MAY BE COLLECTED AS EARLY AS 12 NOON.", "ref": "8751500001"}, "type": "Feature"}
{"geometry": {"coordinates": [-106.437699, 36.480511], "type": "Point"}, "id": "Ivtypit_xL3u8H6TaqvsoChbqHg=", "properties": {"@spider": "usps_collection_boxes", "addr:city": "CANJILON", "addr:country": "US", "addr:full": "385 STATE ROAD 115", "addr:postcode": "87515", "addr:state": "NM", "brand": "USPS", "collection_times": "Mo-Fr 15:00; Sa 10:45", "name": "USPS COLLECTION BOX - PO LOBBY", "note": "ON 12/24 AND 12/31, THIS BOX MAY BE COLLECTED AS EARLY AS 12 NOON.", "ref": "8751500003"}, "type": "Feature"}
{"geometry": {"coordinates": [-106.437975162, 36.480727414], "type": "Point"}, "id": "87gX0TFzoiJbvQzZpzoXYfKGoNs=", "properties": {"@spider": "usps_collection_boxes", "addr:city": "CANJILON", "addr:country": "US", "addr:full": "385 STATE ROAD 115", "addr:postcode": "87515", "addr:state": "NM", "brand": "USPS", "collection_times": "Mo-Fr 14:45; Sa 10:30", "name": "USPS COLLECTION BOX - PO LOBBY", "note": "ON 12/24 AND 12/31, THIS BOX MAY BE COLLECTED AS EARLY AS 12 NOON.", "ref": "8751500004"}, "type": "Feature"}
{"geometry": {"coordinates": [-105.8071866301, 36.3642580117], "type": "Point"}, "id": "NgQuToRndkUkgjm1WAdW_TfrT-4=", "properties": {"@spider": "usps_collection_boxes", "addr:city": "CARSON", "addr:country": "US", "addr:full": "508 STATE HIGHWAY 567", "addr:postcode": "87517", "addr:state": "NM", "brand": "USPS", "collection_times": "Mo-Sa 09:30", "name": "USPS COLLECTION BOX - BLUE BOX", "ref": "8751700000"}, "type": "Feature"}
{"geometry": {"coordinates": [-105.8071866301, 36.3642580117], "type": "Point"}, "id": "sTGIW3PpL6xbKsCIGl8uZDr_Hk0=", "properties": {"@spider": "usps_collection_boxes", "addr:city": "CARSON", "addr:country": "US", "addr:full": "508 STATE HIGHWAY 567", "addr:postcode": "87517", "addr:state": "NM", "brand": "USPS", "collection_times": "Mo-Sa 10:00", "name": "USPS COLLECTION BOX - PO LOBBY", "ref": "8751700001"}, "type": "Feature"}
{"geometry": {"coordinates": [-105.8071866301, 36.3642580117], "type": "Point"}, "id": "-QrL7BxpuLU8M7Mhg0TS4WDZIHo=", "properties": {"@spider": "usps_collection_boxes", "addr:city": "CARSON", "addr:country": "US", "addr:full": "508 STATE HIGHWAY 567", "addr:postcode": "87517", "addr:state": "NM", "brand": "USPS", "collection_times": "Mo-Sa 10:00", "name": "USPS COLLECTION BOX - PO LOBBY", "ref": "8751700002"}, "type": "Feature"}
{"geometry": {"coordinates": [-105.8071866301, 36.3642580117], "type": "Point"}, "id": "hkmvujWsxTLeEW2Gx1RK6kavaZs=", "properties": {"@spider": "usps_collection_boxes", "addr:city": "CARSON", "addr:country": "US", "addr:full": "508 STATE HIGHWAY 567", "addr:postcode": "87517", "addr:state": "NM", "brand": "USPS", "collection_times": "Mo-Sa 10:00", "name": "USPS COLLECTION BOX - PO LOBBY", "ref": "8751700003"}, "type": "Feature"}
{"geometry": {"coordinates": [-105.613563428, 36.754704528], "type": "Point"}, "id": "nIic3RXgPo5kgtqpbagbnQn0G4g=", "properties": {"@spider": "usps_collection_boxes", "addr:city": "CERRO", "addr:country": "US", "addr:full": "122 HIGHWAY 378", "addr:postcode": "87519", "addr:state": "NM", "brand": "USPS", "collection_times": "Mo-Fr 14:30; Sa 11:45", "name": "USPS COLLECTION BOX - BLUE BOX", "note": "ON 12/24 AND 12/31, THIS BOX MAY BE COLLECTED AS EARLY AS 12 NOON.", "ref": "8751900001"}, "type": "Feature"}
{"geometry": {"coordinates": [-105.6132554381, 36.7545415106], "type": "Point"}, "id": "bT-TFrgXP8MyjvNte39okBxnVNE=", "properties": {"@spider": "usps_collection_boxes", "addr:city": "CERRO", "addr:country": "US", "addr:full": "122 HIGHWAY 378", "addr:postcode": "87519", "addr:state": "NM", "brand": "USPS", "collection_times": "Mo-Fr 14:30; Sa 11:45", "name": "USPS COLLECTION BOX - PO LOBBY", "note": "ON 12/24 AND 12/31, THIS BOX MAY BE COLLECTED AS EARLY AS 12 NOON.", "ref": "8751900003"}, "type": "Feature"}
{"geometry": {"coordinates": [-106.5803344522, 36.9031982195], "type": "Point"}, "id": "U0hHSch0kRn6APLssGwjyt0ZTtc=", "properties": {"@spider": "usps_collection_boxes", "addr:city": "CHAMA", "addr:country": "US", "addr:full": "199 5TH ST W", "addr:postcode": "87520", "addr:state": "NM", "brand": "USPS", "collection_times": "Mo-Fr 14:15; Sa 12:00", "name": "USPS COLLECTION BOX - BLUE BOX", "note": "ON 12/24 AND 12/31, THIS BOX MAY BE COLLECTED AS EARLY AS 12 NOON.", "ref": "8752000001"}, "type": "Feature"}
{"geometry": {"coordinates": [-106.5803344522, 36.9031982195], "type": "Point"}, "id": "Vu_RPo6a3xFWYKlXfInPBkZiyxE=", "properties": {"@spider": "usps_collection_boxes", "addr:city": "CHAMA", "addr:country": "US", "addr:full": "199 5TH ST W", "addr:postcode": "87520", "addr:state": "NM", "brand": "USPS", "collection_times": "Mo-Fr 14:15; Sa 12:00", "name": "USPS COLLECTION BOX - PO LOBBY", "note": "ON 12/24 AND 12/31, THIS BOX MAY BE COLLECTED AS EARLY AS 12 NOON.", "ref": "8752000002"}, "type": "Feature"}
{"geometry": {"coordinates": [-106.5803344522, 36.9031982195], "type": "Point"}, "id": "C4_TuvS_9vxxa7RIPr3Pa54wLOk=", "properties": {"@spider": "usps_collection_boxes", "addr:city": "CHAMA", "addr:country": "US", "addr:full": "199 5TH ST W", "addr:postcode": "87520", "addr:state": "NM", "brand": "USPS", "collection_times": "Mo-Fr 14:15; Sa 12:00", "name": "USPS COLLECTION BOX - PO LOBBY", "note": "ON 12/24 AND 12/31, THIS BOX MAY BE COLLECTED AS EARLY AS 12 NOON.", "ref": "8752000004"}, "type": "Feature"}
{"geometry": {"coordinates": [-105.733608, 36.168738], "type": "Point"}, "id": "oELbYKHSpJJank3rp38JolRNC5s=", "properties": {"@spider": "usps_collection_boxes", "addr:city": "CHAMISAL", "addr:country": "US", "addr:full": "2756 STATE ROAD 76", "addr:postcode": "87521", "addr:state": "NM", "brand": "USPS", "collection_times": "Mo-Fr 14:30; Sa 11:00", "name": "USPS COLLECTION BOX - BLUE BOX", "note": "ON 12/24 AND 12/31, THIS BOX MAY BE COLLECTED AS EARLY AS 12 NOON.", "ref": "8752100001"}, "type": "Feature"}
{"geometry": {"coordinates": [-105.733196, 36.169231], "type": "Point"}, "id": "s3POWTPkxAGXtI6VL7PC-P8gvY0=", "properties": {"@spider": "usps_collection_boxes", "addr:city": "CHAMISAL", "addr:country": "US", "addr:full": "2756 STATE ROAD 76", "addr:postcode": "87521", "addr:state": "NM", "brand": "USPS", "collection_times": "Mo-Fr 12:00; Sa 11:00", "name": "USPS COLLECTION BOX - PO LOBBY", "ref": "8752100002"}, "type": "Feature"}
{"geometry": {"coordinates": [-105.772757, 36.10945], "type": "Point"}, "id": "SNjSxlVfb-tdJV0oPCubgpr93Ys=", "properties": {"@spider": "usps_collection_boxes", "addr:city": "CHAMISAL", "addr:country": "US", "addr:full": "2756 STATE ROAD 76", "addr:postcode": "87521", "addr:state": "NM", "brand": "USPS", "collection_times": "Mo-Fr 10:45", "name": "USPS COLLECTION BOX - BLUE BOX", "ref": "8752100003"}, "type": "Feature"}
{"geometry": {"coordinates": [-105.7334669248, 36.1687198771], "type": "Point"}, "id": "kEv52ECmH2DYLO6AYiQYnjwhOsE=", "properties": {"@spider": "usps_collection_boxes", "addr:city": "CHAMISAL", "addr:country": "US", "addr:full": "2756 STATE ROAD 76", "addr:postcode": "87521", "addr:state": "NM", "brand": "USPS", "collection_times": "Mo-Fr 12:00; Sa 10:45", "name": "USPS COLLECTION BOX - PO LOBBY", "ref": "8752100004"}, "type": "Feature"}
{"geometry": {"coordinates": [-105.947670036, 36.0041200072], "type": "Point"}, "id": "VnHDFs5kRaASVTSlAAtInJy-bCw=", "properties": {"@spider": "usps_collection_boxes", "addr:city": "CHIMAYO", "addr:country": "US", "addr:full": "724 STATE HIGHWAY 76", "addr:postcode": "87522", "addr:state": "NM", "brand": "USPS", "collection_times": "Mo-Fr 15:45; Sa 11:45", "name": "USPS COLLECTION BOX - BLUE BOX", "note": "ON 12/24 AND 12/31, THIS BOX MAY BE COLLECTED AS EARLY AS 12 NOON.", "ref": "8752200001"}, "type": "Feature"}
{"geometry": {"coordinates": [-105.9476347873, 36.00397034], "type": "Point"}, "id": "fYaMS3PL5RJdYo2U8sBfZexK41Q=", "properties": {"@spider": "usps_collection_boxes", "addr:city": "CHIMAYO", "addr:country": "US", "addr:full": "724 STATE HIGHWAY 76", "addr:postcode": "87522", "addr:state": "NM", "brand": "USPS", "collection_times": "Mo-Fr 15:45; Sa 11:45", "name": "USPS COLLECTION BOX - PO LOBBY", "note": "ON 12/24 AND 12/31, THIS BOX MAY BE COLLECTED AS EARLY AS 12 NOON.", "ref": "8752200002"}, "type": "Feature"}
{"geometry": {"coordinates": [-105.9476347873, 36.00397034], "type": "Point"}, "id": "rXRJe33pXZXQ8dSZ4krnfd7hr9E=", "properties": {"@spider": "usps_collection_boxes", "addr:city": "CHIMAYO", "addr:country": "US", "addr:full": "724 STATE HIGHWAY 76", "addr:postcode": "87522", "addr:state": "NM", "brand": "USPS", "collection_times": "Mo-Fr 15:45; Sa 11:45", "name": "USPS COLLECTION BOX - PO LOBBY", "note": "ON 12/24 AND 12/31, THIS BOX MAY BE COLLECTED AS EARLY AS 12 NOON.", "ref": "8752200003"}, "type": "Feature"}
{"geometry": {"coordinates": [-105.8706530025, 36.0069209877], "type": "Point"}, "id": "IfECkvMRmO0Yvyr9OgH_MuoMDYY=", "properties": {"@spider": "usps_collection_boxes", "addr:city": "CORDOVA", "addr:country": "US", "addr:full": "74 COUNTY ROAD 80", "addr:postcode": "87523", "addr:state": "NM", "brand": "USPS", "collection_times": "Mo-Fr 15:30; Sa 10:00", "name": "USPS COLLECTION BOX - BLUE BOX", "note": "ON 12/24 AND 12/31, THIS BOX MAY BE COLLECTED AS EARLY AS 12 NOON.", "ref": "8752300001"}, "type": "Feature"}
{"geometry": {"coordinates": [-105.863617, 36.005554], "type": "Point"}, "id": "6ounHghST1FaK0nO5M-qwaBNw8g=", "properties": {"@spider": "usps_collection_boxes", "addr:city": "CORDOVA", "addr:country": "US", "addr:full": "74 COUNTY ROAD 80", "addr:postcode": "87523", "addr:state": "NM", "brand": "USPS", "collection_times": "Mo-Fr 15:30; Sa 10:00", "name": "USPS COLLECTION BOX - PO LOBBY", "note": "ON 12/24 AND 12/31, THIS BOX MAY BE COLLECTED AS EARLY AS 12 NOON.", "ref": "8752300002"}, "type": "Feature"}
{"geometry": {"coordinates": [-105.872802869, 36.008019546], "type": "Point"}, "id": "WkcHbLV7iTrt78hOjdpO5nNZXfs=", "properties": {"@spider": "usps_collection_boxes", "addr:city": "CORDOVA", "addr:country": "US", "addr:full": "74 COUNTY ROAD 80", "addr:postcode": "87523", "addr:state": "NM", "brand": "USPS", "collection_times": "Mo-Fr 15:30", "name": "USPS COLLECTION BOX - PO LOBBY", "note": "ON 12/24 AND 12/31, THIS BOX MAY BE COLLECTED AS EARLY AS 12 NOON.", "ref": "8752300003"}, "type": "Feature"}
{"geometry": {"coordinates": [-105.5328220152, 36.9796105656], "type": "Point"}, "id": "UcwfTJ1b2tAEwbnpOeNT_uXkMxY=", "properties": {"@spider": "usps_collection_boxes", "addr:city": "COSTILLA", "addr:country": "US", "addr:full": "6 GARCIA RD", "addr:postcode": "87524", "addr:state": "NM", "brand": "USPS", "collection_times": "Mo-Fr 14:00; Sa 11:45", "name": "USPS COLLECTION BOX - BLUE BOX", "note": "ON 12/24 AND 12/31, THIS BOX MAY BE COLLECTED AS EARLY AS 12 NOON.", "ref": "8752400001"}, "type": "Feature"}
{"geometry": {"coordinates": [-105.5328220152, 36.9796105656], "type": "Point"}, "id": "5xDnAsA5_CcszrmAhxRczahVThs=", "properties": {"@spider": "usps_collection_boxes", "addr:city": "COSTILLA", "addr:country": "US", "addr:full": "6 GARCIA RD", "addr:postcode": "87524", "addr:state": "NM", "brand": "USPS", "collection_times": "Mo-Fr 14:00; Sa 11:45", "name": "USPS COLLECTION BOX - PO LOBBY", "note": "ON 12/24 AND 12/31, THIS BOX MAY BE COLLECTED AS EARLY AS 12 NOON.", "ref": "8752400002"}, "type": "Feature"}
{"geometry": {"coordinates": [-105.5328220152, 36.9796105656], "type": "Point"}, "id": "v6APhSg33W_NPLewdFUz3sylp-U=", "properties": {"@spider": "usps_collection_boxes", "addr:city": "COSTILLA", "addr:country": "US", "addr:full": "6 GARCIA RD", "addr:postcode": "87524", "addr:state": "NM", "brand": "USPS", "collection_times": "Mo-Fr 14:00; Sa 11:45", "name": "USPS COLLECTION BOX - PO LOBBY", "note": "ON 12/24 AND 12/31, THIS BOX MAY BE COLLECTED AS EARLY AS 12 NOON.", "ref": "8752400003"}, "type": "Feature"}
{"geometry": {"coordinates": [-105.8858713858, 36.1967963378], "type": "Point"}, "id": "PsSjsjTAkA-Izz-NixRQ0i-x8XM=", "properties": {"@spider": "usps_collection_boxes", "addr:city": "DIXON", "addr:country": "US", "addr:full": "221 STATE ROAD 75", "addr:postcode": "87527", "addr:state": "NM", "brand": "USPS", "collection_times": "Mo-Fr 16:00; Sa 09:30", "name": "USPS COLLECTION BOX - BLUE BOX", "note": "ON 12/24 AND 12/31, THIS BOX MAY BE COLLECTED AS EARLY AS 12 NOON.", "ref": "8752700001"}, "type": "Feature"}
{"geometry": {"coordinates": [-105.8858713858, 36.1967963378], "type": "Point"}, "id": "lgBGdfuW4ckDAQVu8PVsTrnbuOg=", "properties": {"@spider": "usps_collection_boxes", "addr:city": "DIXON", "addr:country": "US", "addr:full": "221 STATE ROAD 75", "addr:postcode": "87527", "addr:state": "NM", "brand": "USPS", "collection_times": "Mo-Fr 16:00; Sa 09:30", "name": "USPS COLLECTION BOX - PO LOBBY", "note": "ON 12/24 AND 12/31, THIS BOX MAY BE COLLECTED AS EARLY AS 12 NOON.", "ref": "8752700002"}, "type": "Feature"}
{"geometry": {"coordinates": [-105.8858713858, 36.1967963378], "type": "Point"}, "id": "WHjJ37AEIT262Xuytr1yYDTbReg=", "properties": {"@spider": "usps_collection_boxes", "addr:city": "DIXON", "addr:country": "US", "addr:full": "221 STATE ROAD 75", "addr:postcode": "87527", "addr:state": "NM", "brand": "USPS", "collection_times": "Mo-Fr 16:00; Sa 09:30", "name": "USPS COLLECTION BOX - PO LOBBY", "note": "ON 12/24 AND 12/31, THIS BOX MAY BE COLLECTED AS EARLY AS 12 NOON.", "ref": "8752700003"}, "type": "Feature"}
{"geometry": {"coordinates": [-105.8858713858, 36.1967963378], "type": "Point"}, "id": "qDG7lBbr8mwzq_wcb_zJS4qQ1dA=", "properties": {"@spider": "usps_collection_boxes", "addr:city": "DIXON", "addr:country": "US", "addr:full": "221 STATE ROAD 75", "addr:postcode": "87527", "addr:state": "NM", "brand": "USPS", "collection_times": "Mo-Fr 16:00; Sa 09:15", "name": "USPS COLLECTION BOX - PO LOBBY", "note": "ON 12/24 AND 12/31, THIS BOX MAY BE COLLECTED AS EARLY AS 12 NOON.", "ref": "8752700004"}, "type": "Feature"}
{"geometry": {"coordinates": [-107.2531872569, 36.5932748536], "type": "Point"}, "id": "wfErd6RwOK3Ylu-TUDaD760P32g=", "properties": {"@spider": "usps_collection_boxes", "addr:city": "DULCE", "addr:country": "US", "addr:full": "10 FOOTHILLS ST", "addr:postcode": "87528", "addr:state": "NM", "brand": "USPS", "collection_times": "Mo-Fr 12:45; Sa 12:00", "name": "USPS COLLECTION BOX - BLUE BOX", "note": "ON 12/24 AND 12/31, THIS BOX MAY BE COLLECTED AS EARLY AS 12 NOON.", "ref": "8752800001"}, "type": "Feature"}
{"geometry": {"coordinates": [-107.2531872569, 36.5932748536], "type": "Point"}, "id": "TYXM8jK1YSFxWPuefbLxP_AyJuI=", "properties": {"@spider": "usps_collection_boxes", "addr:city": "DULCE", "addr:country": "US", "addr:full": "10 FOOTHILLS ST", "addr:postcode": "87528", "addr:state": "NM", "brand": "USPS", "collection_times": "Mo-Fr 13:00; Sa 12:15", "name": "USPS COLLECTION BOX - PO LOBBY", "note": "ON 12/24 AND 12/31, THIS BOX MAY BE COLLECTED AS EARLY AS 12 NOON.", "ref": "8752800002"}, "type": "Feature"}
{"geometry": {"coordinates": [-107.2531872569, 36.5932748536], "type": "Point"}, "id": "z6AyJKeNX0OFN3_z_rjqn93TpCk=", "properties": {"@spider": "usps_collection_boxes", "addr:city": "DULCE", "addr:country": "US", "addr:full": "10 FOOTHILLS ST", "addr:postcode": "87528", "addr:state": "NM", "brand": "USPS", "collection_times": "Mo-Fr 13:00; Sa 12:15", "name": "USPS COLLECTION BOX - PO LOBBY", "note": "ON 12/24 AND 12/31, THIS BOX MAY BE COLLECTED AS EARLY AS 12 NOON.", "ref": "8752800003"}, "type": "Feature"}
{"geometry": {"coordinates": [-107.2531872569, 36.5932748536], "type": "Point"}, "id": "UJw1fb3pDs8Hh1lazShpm9E8zN0=", "properties": {"@spider": "usps_collection_boxes", "addr:city": "DULCE", "addr:country": "US", "addr:full": "10 FOOTHILLS ST", "addr:postcode": "87528", "addr:state": "NM", "brand": "USPS", "collection_times": "Mo-Fr 12:45; Sa 12:00", "name": "USPS COLLECTION BOX - BLUE BOX", "note": "ON 12/24 AND 12/31, THIS BOX MAY BE COLLECTED AS EARLY AS 12 NOON.", "ref": "8752800004"}, "type": "Feature"}
{"geometry": {"coordinates": [-106.993795033, 36.9369830772], "type": "Point"}, "id": "v2B71H0cXbsi2MDBu7BgwUl_Ujo=", "properties": {"@spider": "usps_collection_boxes", "addr:city": "DULCE", "addr:country": "US", "addr:full": "10 FOOTHILLS ST", "addr:postcode": "87528", "addr:state": "NM", "brand": "USPS", "collection_times": "Mo-Fr 13:00; Sa 11:45", "name": "USPS COLLECTION BOX - PO LOBBY", "note": "ON 12/24 AND 12/31, THIS BOX MAY BE COLLECTED AS EARLY AS 12 NOON.", "ref": "8752800005"}, "type": "Feature"}
{"geometry": {"coordinates": [-105.586025, 36.448176], "type": "Point"}, "id": "Ln43NaBPnDXzOgWNuqmzDh9Y05g=", "properties": {"@spider": "usps_collection_boxes", "addr:city": "EL PRADO", "addr:country": "US", "addr:full": "1518 PASEO DEL PUEBLO NORTE", "addr:postcode": "87529", "addr:state": "NM", "brand": "USPS", "collection_times": "Mo-Fr 16:45; Sa 12:15", "name": "USPS COLLECTION BOX - BLUE BOX", "note": "ON 12/24 AND 12/31, THIS BOX MAY BE COLLECTED AS EARLY AS 12 NOON.", "ref": "8752900001"}, "type": "Feature"}
{"geometry": {"coordinates": [-105.586025, 36.448176], "type": "Point"}, "id": "TYN7_mp7Ta40n7AfXjyVtFLYOT0=", "properties": {"@spider": "usps_collection_boxes", "addr:city": "EL PRADO", "addr:country": "US", "addr:full": "1518 PASEO DEL PUEBLO NORTE", "addr:postcode": "87529", "addr:state": "NM", "brand": "USPS", "collection_times": "Mo-Fr 16:45; Sa 12:15", "name": "USPS COLLECTION BOX - PO LOBBY", "note": "ON 12/24 AND 12/31, THIS BOX MAY BE COLLECTED AS EARLY AS 12 NOON.", "ref": "8752900002"}, "type": "Feature"}
{"geometry": {"coordinates": [-105.5862722333, 36.4484081227], "type": "Point"}, "id": "_jgwTiOjmn5ycT1cJFEI2DXSELg=", "properties": {"@spider": "usps_collection_boxes", "addr:city": "EL PRADO", "addr:country": "US", "addr:full": "1518 PASEO DEL PUEBLO NORTE", "addr:postcode": "87529", "addr:state": "NM", "brand": "USPS", "collection_times": "Mo-Fr 16:30; Sa 12:00", "name": "USPS COLLECTION BOX - PO LOBBY", "note": "ON 12/24 AND 12/31, THIS BOX MAY BE COLLECTED AS EARLY AS 12 NOON.", "ref": "8752900003"}, "type": "Feature"}
{"geometry": {"coordinates": [-106.189723, 36.336434], "type": "Point"}, "id": "Q_Ek6KNOJGU2o-UeBDnazIID1Ws=", "properties": {"@spider": "usps_collection_boxes", "addr:city": "EL RITO", "addr:country": "US", "addr:full": "1134 STATE ROAD 554", "addr:postcode": "87530", "addr:state": "NM", "brand": "USPS", "collection_times": "Mo-Fr 13:30; Sa 12:00", "name": "USPS COLLECTION BOX - BLUE BOX", "note": "ON 12/24 AND 12/31, THIS BOX MAY BE COLLECTED AS EARLY AS 12 NOON.", "ref": "8753000000"}, "type": "Feature"}
{"geometry": {"coordinates": [-106.189757, 36.336344], "type": "Point"}, "id": "_rC4KVRAkYiciiO2Kab-3juItcQ=", "properties": {"@spider": "usps_collection_boxes", "addr:city": "EL RITO", "addr:country": "US", "addr:full": "1134 STATE ROAD 554", "addr:postcode": "87530", "addr:state": "NM", "brand": "USPS", "collection_times": "Mo-Fr 13:30; Sa 12:00", "name": "USPS COLLECTION BOX - PO LOBBY", "note": "ON 12/24 AND 12/31, THIS BOX MAY BE COLLECTED AS EARLY AS 12 NOON.", "ref": "8753000001"}, "type": "Feature"}
{"geometry": {"coordinates": [-106.189705086, 36.336396414], "type": "Point"}, "id": "Y9etk3TUI-5qTXMtNE6l82HXluE=", "properties": {"@spider": "usps_collection_boxes", "addr:city": "EL RITO", "addr:country": "US", "addr:full": "1134 STATE ROAD 554", "addr:postcode": "87530", "addr:state": "NM", "brand": "USPS", "collection_times": "Mo-Fr 13:30", "name": "USPS COLLECTION BOX - PO LOBBY", "note": "ON 12/24 AND 12/31, THIS BOX MAY BE COLLECTED AS EARLY AS 12 NOON.", "ref": "8753000002"}, "type": "Feature"}
{"geometry": {"coordinates": [-106.065551, 35.988638], "type": "Point"}, "id": "Nsg5bz9ZGSGMHpw9L27FR7LWx78=", "properties": {"@spider": "usps_collection_boxes", "addr:city": "ESPANOLA", "addr:country": "US", "addr:full": "424 S RIVERSIDE DR", "addr:postcode": "87532", "addr:state": "NM", "brand": "USPS", "collection_times": "Mo-Sa 13:20", "name": "USPS COLLECTION BOX - BLUE BOX", "note": "ON 12/24 AND 12/31, THIS BOX MAY BE COLLECTED AS EARLY AS 12 NOON.", "ref": "8753200002"}, "type": "Feature"}
{"geometry": {"coordinates": [-106.088201, 36.008169], "type": "Point"}, "id": "Mi-MIZtfFLzaFQ4HYRwlFqdW65Y=", "properties": {"@spider": "usps_collection_boxes", "addr:city": "ESPANOLA", "addr:country": "US", "addr:full": "1010 INDUSTRIAL PARK RD", "addr:postcode": "87532", "addr:state": "NM", "brand": "USPS", "collection_times": "Mo-Sa 13:15", "name": "USPS COLLECTION BOX - BLUE BOX", "note": "ON 12/24 AND 12/31, THIS BOX MAY BE COLLECTED AS EARLY AS 12 NOON.", "ref": "8753200005"}, "type": "Feature"}
{"geometry": {"coordinates": [-106.062419, 36.001758], "type": "Point"}, "id": "72yM3kq43ZsIdqQvpXP-ljeXScc=", "properties": {"@spider": "usps_collection_boxes", "addr:city": "ESPANOLA", "addr:country": "US", "addr:full": "745 N RIVERSIDE DR", "addr:postcode": "87532", "addr:state": "NM", "brand": "USPS", "collection_times": "Mo-Sa 13:50", "name": "USPS COLLECTION BOX - BLUE BOX", "note": "ON 12/24 AND 12/31, THIS BOX MAY BE COLLECTED AS EARLY AS 12 NOON.", "ref": "8753200008"}, "type": "Feature"}
{"geometry": {"coordinates": [-106.063655, 36.024991], "type": "Point"}, "id": "pgMGQKvqdEz-e6d9i39fuWLoem8=", "properties": {"@spider": "usps_collection_boxes", "addr:city": "ESPANOLA", "addr:country": "US", "addr:full": "2103 N RIVERSIDE DR", "addr:postcode": "87532", "addr:state": "NM", "brand": "USPS", "collection_times": "Mo-Fr 17:00; Sa 11:30", "name": "USPS COLLECTION BOX - BLUE BOX", "note": "ON 12/24 AND 12/31, THIS BOX MAY BE COLLECTED AS EARLY AS 12 NOON.", "ref": "8753200009"}, "type": "Feature"}
{"geometry": {"coordinates": [-106.084076, 35.996694], "type": "Point"}, "id": "stcohUvFIFl4SkeEF_g_GMTW4DQ=", "properties": {"@spider": "usps_collection_boxes", "addr:city": "ESPANOLA", "addr:country": "US", "addr:full": "525 N PASEO DE ONATE", "addr:postcode": "87532", "addr:state": "NM", "brand": "USPS", "collection_times": "Mo-Sa 13:05", "name": "USPS COLLECTION BOX - BLUE BOX", "note": "ON 12/24 AND 12/31, THIS BOX MAY BE COLLECTED AS EARLY AS 12 NOON.", "ref": "8753200011"}, "type": "Feature"}
{"geometry": {"coordinates": [-106.086325, 35.997084], "type": "Point"}, "id": "x_5ixO0zpKMyJEIx7cH-tBJeY20=", "properties": {"@spider": "usps_collection_boxes", "addr:city": "ESPANOLA", "addr:country": "US", "addr:full": "1010 SPRUCE ST", "addr:postcode": "87532", "addr:state": "NM", "brand": "USPS", "collection_times": "Mo-Sa 12:50", "name": "USPS COLLECTION BOX - BLUE BOX", "note": "ON 12/24 AND 12/31, THIS BOX MAY BE COLLECTED AS EARLY AS 12 NOON.", "ref": "8753200012"}, "type": "Feature"}
{"geometry": {"coordinates": [-106.158134, 35.97823], "type": "Point"}, "id": "C7OGAu3D2F0AeKtluV1fpDRm3ak=", "properties": {"@spider": "usps_collection_boxes", "addr:city": "ESPANOLA", "addr:country": "US", "addr:full": "400 LONE HILL RD", "addr:postcode": "87532", "addr:state": "NM", "brand": "USPS", "collection_times": "Mo-Sa 12:55", "name": "USPS COLLECTION BOX - BLUE BOX", "note": "ON 12/24 AND 12/31, THIS BOX MAY BE COLLECTED AS EARLY AS 12 NOON.", "ref": "8753200014"}, "type": "Feature"}
{"geometry": {"coordinates": [-106.065113, 36.006211], "type": "Point"}, "id": "V3wTK9OBZ4ePdrBpbzaeoj4Uegs=", "properties": {"@spider": "usps_collection_boxes", "addr:city": "ESPANOLA", "addr:country": "US", "addr:full": "1106 N RIVERSIDE DR", "addr:postcode": "87532", "addr:state": "NM", "brand": "USPS", "collection_times": "Mo-Sa 13:10", "name": "USPS COLLECTION BOX - BLUE BOX", "note": "ON 12/24 AND 12/31, THIS BOX MAY BE COLLECTED AS EARLY AS 12 NOON.", "ref": "8753200015"}, "type": "Feature"}
{"geometry": {"coordinates": [-106.0635951137, 36.0234450211], "type": "Point"}, "id": "-mZWg4t-GQWpZCbn3avZ9NkpDB8=", "properties": {"@spider": "usps_collection_boxes", "addr:city": "ESPANOLA", "addr:country": "US", "addr:full": "2103 N RIVERSIDE DR", "addr:postcode": "87532", "addr:state": "NM", "brand": "USPS", "collection_times": "Mo-Fr 16:00; Sa 11:30", "name": "USPS COLLECTION BOX - PO LOBBY", "note": "ON 12/24 AND 12/31, THIS BOX MAY BE COLLECTED AS EARLY AS 12 NOON.", "ref": "8753200016"}, "type": "Feature"}
{"geometry": {"coordinates": [-106.074243, 35.944442], "type": "Point"}, "id": "WKU4t-EPc25jk9UiF7x8PyeMZeE=", "properties": {"@spider": "usps_collection_boxes", "addr:city": "ESPANOLA", "addr:country": "US", "addr:full": "313 STATE ROAD 399", "addr:postcode": "87532", "addr:state": "NM", "brand": "USPS", "collection_times": "Mo-Sa 13:35", "name": "USPS COLLECTION BOX - BLUE BOX", "note": "ON 12/24 AND 12/31, THIS BOX MAY BE COLLECTED AS EARLY AS 12 NOON.", "ref": "8753200017"}, "type": "Feature"}
{"geometry": {"coordinates": [-106.063655, 36.024991], "type": "Point"}, "id": "o7MUonopNRfIibVcut51GOjhhBQ=", "properties": {"@spider": "usps_collection_boxes", "addr:city": "ESPANOLA", "addr:country": "US", "addr:full": "2103 N RIVERSIDE DR", "addr:postcode": "87532", "addr:state": "NM", "brand": "USPS", "collection_times": "Mo-Fr 16:00; Sa 11:30", "name": "USPS COLLECTION BOX - PO LOBBY", "note": "ON 12/24 AND 12/31, THIS BOX MAY BE COLLECTED AS EARLY AS 12 NOON.", "ref": "8753200019"}, "type": "Feature"}
{"geometry": {"coordinates": [-106.0916920035, 36.0107399924], "type": "Point"}, "id": "ge7xMp_5Nua88E4KaxZT4UhAi_8=", "properties": {"@spider": "usps_collection_boxes", "addr:city": "ESPANOLA", "addr:country": "US", "addr:full": "1121 SANTA CLARA PEAK RD", "addr:postcode": "87532", "addr:state": "NM", "brand": "USPS", "collection_times": "Mo-Fr 14:20; Sa 14:00", "name": "USPS COLLECTION BOX - BLUE BOX", "note": "ON 12/24 AND 12/31, THIS BOX MAY BE COLLECTED AS EARLY AS 12 NOON.", "ref": "8753200020"}, "type": "Feature"}
{"geometry": {"coordinates": [-106.0892180009, 36.0072500194], "type": "Point"}, "id": "Da-n1bHmVzSUUBV3bznyTDk8wTE=", "properties": {"@spider": "usps_collection_boxes", "addr:city": "ESPANOLA", "addr:country": "US", "addr:full": "1010 INDUSTRIAL PARK RD", "addr:postcode": "87532", "addr:state": "NM", "brand": "USPS", "collection_times": "Mo-Fr 17:00; Sa 16:45", "name": "USPS COLLECTION BOX - BLUE BOX", "note": "ON 12/24 AND 12/31, THIS BOX MAY BE COLLECTED AS EARLY AS 12 NOON.", "ref": "8753200021"}, "type": "Feature"}
{"geometry": {"coordinates": [-106.08793, 36.00822], "type": "Point"}, "id": "veirTRrMR8r7mab_CsqC15NDFUs=", "properties": {"@spider": "usps_collection_boxes", "addr:city": "ESPANOLA", "addr:country": "US", "addr:full": "1010 INDUSTRIAL PARK RD", "addr:postcode": "87532", "addr:state": "NM", "brand": "USPS", "collection_times": "Mo-Fr 17:30; Sa 16:45", "name": "USPS COLLECTION BOX - PO LOBBY", "note": "ON 12/24 AND 12/31, THIS BOX MAY BE COLLECTED AS EARLY AS 12 NOON.", "ref": "8753200022"}, "type": "Feature"}
{"geometry": {"coordinates": [-106.08793, 36.00822], "type": "Point"}, "id": "XPTkSb6dP5rE27fzyxCVN66BnwU=", "properties": {"@spider": "usps_collection_boxes", "addr:city": "ESPANOLA", "addr:country": "US", "addr:full": "1010 INDUSTRIAL PARK RD", "addr:postcode": "87532", "addr:state": "NM", "brand": "USPS", "collection_times": "Mo-Fr 17:30; Sa 16:45", "name": "USPS COLLECTION BOX - PO LOBBY", "note": "ON 12/24 AND 12/31, THIS BOX MAY BE COLLECTED AS EARLY AS 12 NOON.", "ref": "8753200023"}, "type": "Feature"}
{"geometry": {"coordinates": [-106.088121579, 36.0081413176], "type": "Point"}, "id": "-ftba8UPSnpPVrEdW04bYDitXbk=", "properties": {"@spider": "usps_collection_boxes", "addr:city": "ESPANOLA", "addr:country": "US", "addr:full": "1010 INDUSTRIAL PARK RD", "addr:postcode": "87532", "addr:state": "NM", "brand": "USPS", "collection_times": "Mo-Fr 17:00; Sa 12:00", "name": "USPS COLLECTION BOX - PO LOBBY", "note": "ON 12/24 AND 12/31, THIS BOX MAY BE COLLECTED AS EARLY AS 12 NOON.", "ref": "8753200025"}, "type": "Feature"}
{"geometry": {"coordinates": [-106.063599614, 36.023454576], "type": "Point"}, "id": "0XlKlgdmEr-rMk8HVEsyx7KaDI0=", "properties": {"@spider": "usps_collection_boxes", "addr:city": "ESPANOLA", "addr:country": "US", "addr:full": "2103 N RIVERSIDE DR", "addr:postcode": "87532", "addr:state": "NM", "brand": "USPS", "collection_times": "Mo-Fr 16:00", "name": "USPS COLLECTION BOX - PO LOBBY", "note": "ON 12/24 AND 12/31, THIS BOX MAY BE COLLECTED AS EARLY AS 12 NOON.", "ref": "8753200027"}, "type": "Feature"}
{"geometry": {"coordinates": [-105.770712, 35.583192], "type": "Point"}, "id": "vlwFfkzOpzLZ-EPX67DZ7kzR0KY=", "properties": {"@spider": "usps_collection_boxes", "addr:city": "GLORIETA", "addr:country": "US", "addr:full": "16 CALLE LOMITA", "addr:postcode": "87535", "addr:state": "NM", "brand": "USPS", "collection_times": "Mo-Fr 16:15; Sa 10:45", "name": "USPS COLLECTION BOX - BLUE BOX", "note": "ON 12/24 AND 12/31, THIS BOX MAY BE COLLECTED AS EARLY AS 12 NOON.", "ref": "8753500001"}, "type": "Feature"}
{"geometry": {"coordinates": [-105.770627, 35.583194], "type": "Point"}, "id": "rxJogpzpO7aD9xVhQiOsGY-1_08=", "properties": {"@spider": "usps_collection_boxes", "addr:city": "GLORIETA", "addr:country": "US", "addr:full": "16 CALLE LOMITA", "addr:postcode": "87535", "addr:state": "NM", "brand": "USPS", "collection_times": "Mo-Fr 16:15; Sa 10:45", "name": "USPS COLLECTION BOX - PO LOBBY", "note": "ON 12/24 AND 12/31, THIS BOX MAY BE COLLECTED AS EARLY AS 12 NOON.", "ref": "8753500002"}, "type": "Feature"}
{"geometry": {"coordinates": [-105.770627, 35.583194], "type": "Point"}, "id": "dYIYQ_CSDF3nA2Ek8RnPiUsM8fg=", "properties": {"@spider": "usps_collection_boxes", "addr:city": "GLORIETA", "addr:country": "US", "addr:full": "16 CALLE LOMITA", "addr:postcode": "87535", "addr:state": "NM", "brand": "USPS", "collection_times": "Mo-Fr 16:15; Sa 10:45", "name": "USPS COLLECTION BOX - PO LOBBY", "note": "ON 12/24 AND 12/31, THIS BOX MAY BE COLLECTED AS EARLY AS 12 NOON.", "ref": "8753500003"}, "type": "Feature"}
{"geometry": {"coordinates": [-105.7706978331, 35.5831364273], "type": "Point"}, "id": "eSFQa67V7XtdBsR2ZPgIxN17xlc=", "properties": {"@spider": "usps_collection_boxes", "addr:city": "GLORIETA", "addr:country": "US", "addr:full": "16 CALLE LOMITA", "addr:postcode": "87535", "addr:state": "NM", "brand": "USPS", "collection_times": "Mo-Fr 16:00; Sa 10:30", "name": "USPS COLLECTION BOX - PO LOBBY", "note": "ON 12/24 AND 12/31, THIS BOX MAY BE COLLECTED AS EARLY AS 12 NOON.", "ref": "8753500004"}, "type": "Feature"}
{"geometry": {"coordinates": [-106.04094, 36.383914], "type": "Point"}, "id": "XWTeOFpkCZ3wsz6GEy8eSaze6v4=", "properties": {"@spider": "usps_collection_boxes", "addr:city": "LA MADERA", "addr:country": "US", "addr:full": "4 STATE ROAD 519", "addr:postcode": "87539", "addr:state": "NM", "brand": "USPS", "collection_times": "Mo-Fr 13:15; Sa 12:15", "name": "USPS COLLECTION BOX - PO LOBBY", "note": "ON 12/24 AND 12/31, THIS BOX MAY BE COLLECTED AS EARLY AS 12 NOON.", "ref": "8753900000"}, "type": "Feature"}
{"geometry": {"coordinates": [-106.04094, 36.383914], "type": "Point"}, "id": "N9ARti7msbAtSQalLbpEjdtGw00=", "properties": {"@spider": "usps_collection_boxes", "addr:city": "LA MADERA", "addr:country": "US", "addr:full": "4 STATE ROAD 519", "addr:postcode": "87539", "addr:state": "NM", "brand": "USPS", "collection_times": "Mo-Fr 13:15; Sa 12:15", "name": "USPS COLLECTION BOX - BLUE BOX", "note": "ON 12/24 AND 12/31, THIS BOX MAY BE COLLECTED AS EARLY AS 12 NOON.", "ref": "8753900001"}, "type": "Feature"}
{"geometry": {"coordinates": [-106.0394346721, 36.3837715579], "type": "Point"}, "id": "XfITyPN9U7s-EyNK4NtihQKso6Y=", "properties": {"@spider": "usps_collection_boxes", "addr:city": "LA MADERA", "addr:country": "US", "addr:full": "4 STATE ROAD 519", "addr:postcode": "87539", "addr:state": "NM", "brand": "USPS", "collection_times": "Mo-Fr 13:15; Sa 12:15", "name": "USPS COLLECTION BOX - PO LOBBY", "note": "ON 12/24 AND 12/31, THIS BOX MAY BE COLLECTED AS EARLY AS 12 NOON.", "ref": "8753900002"}, "type": "Feature"}
{"geometry": {"coordinates": [-106.302123, 35.880102], "type": "Point"}, "id": "8jf0a4lHH6113dihWvK8EC7WEiw=", "properties": {"@spider": "usps_collection_boxes", "addr:city": "LOS ALAMOS", "addr:country": "US", "addr:full": "199 CENTRAL PARK SQ", "addr:postcode": "87544", "addr:state": "NM", "brand": "USPS", "collection_times": "Mo-Fr 17:00; Sa 16:00", "name": "USPS COLLECTION BOX - BLUE BOX", "note": "ON 12/24 AND 12/31, THIS BOX MAY BE COLLECTED AS EARLY AS 12 NOON.", "ref": "8754400001"}, "type": "Feature"}
{"geometry": {"coordinates": [-106.294377, 35.880267], "type": "Point"}, "id": "oLSMsf0QKHg2Kd4Z1ZB68Hlo1L4=", "properties": {"@spider": "usps_collection_boxes", "addr:city": "LOS ALAMOS", "addr:country": "US", "addr:full": "609 CENTRAL AVE", "addr:postcode": "87544", "addr:state": "NM", "brand": "USPS", "collection_times": "Mo-Sa 14:00", "name": "USPS COLLECTION BOX - BLUE BOX", "note": "ON 12/24 AND 12/31, THIS BOX MAY BE COLLECTED AS EARLY AS 12 NOON.", "ref": "8754400003"}, "type": "Feature"}
{"geometry": {"coordinates": [-106.295720307, 35.881275172], "type": "Point"}, "id": "Ms0nOKZxSNa50Qd-BLSLP6edJWE=", "properties": {"@spider": "usps_collection_boxes", "addr:city": "LOS ALAMOS", "addr:country": "US", "addr:full": "1000 CENTRAL AVE", "addr:postcode": "87544", "addr:state": "NM", "brand": "USPS", "collection_times": "Mo-Sa 14:00", "name": "USPS COLLECTION BOX - BLUE BOX", "note": "ON 12/24 AND 12/31, THIS BOX MAY BE COLLECTED AS EARLY AS 12 NOON.", "ref": "8754400006"}, "type": "Feature"}
{"geometry": {"coordinates": [-106.211245, 35.82534], "type": "Point"}, "id": "GlYrj8FelqSyedPiYwPsxJ-50gk=", "properties": {"@spider": "usps_collection_boxes", "addr:city": "LOS ALAMOS", "addr:country": "US", "addr:full": "101 LONGVIEW DR", "addr:postcode": "87544", "addr:state": "NM", "brand": "USPS", "collection_times": "Mo-Fr 17:00; Sa 16:00", "name": "USPS COLLECTION BOX - BLUE BOX", "note": "ON 12/24 AND 12/31, THIS BOX MAY BE COLLECTED AS EARLY AS 12 NOON.", "ref": "8754400016"}, "type": "Feature"}
{"geometry": {"coordinates": [-106.301045, 35.881721], "type": "Point"}, "id": "YcGJKVBIpZodo_d4wxS623YxJfg=", "properties": {"@spider": "usps_collection_boxes", "addr:city": "LOS ALAMOS", "addr:country": "US", "addr:full": "199 CENTRAL PARK SQ", "addr:postcode": "87544", "addr:state": "NM", "brand": "USPS", "collection_times": "Mo-Fr 17:00; Sa 16:00", "name": "USPS COLLECTION BOX - PO LOBBY", "note": "ON 12/24 AND 12/31, THIS BOX MAY BE COLLECTED AS EARLY AS 12 NOON.", "ref": "8754400018"}, "type": "Feature"}
{"geometry": {"coordinates": [-106.302153, 35.880085], "type": "Point"}, "id": "-4MkyP8ZpDpg4szWzzKTekL6rrE=", "properties": {"@spider": "usps_collection_boxes", "addr:city": "LOS ALAMOS", "addr:country": "US", "addr:full": "199 CENTRAL PARK SQ", "addr:postcode": "87544", "addr:state": "NM", "brand": "USPS", "collection_times": "Mo-Fr 17:00; Sa 16:00", "name": "USPS COLLECTION BOX - BLUE BOX", "note": "ON 12/24 AND 12/31, THIS BOX MAY BE COLLECTED AS EARLY AS 12 NOON.", "ref": "8754400020"}, "type": "Feature"}
{"geometry": {"coordinates": [-106.318906, 35.881481], "type": "Point"}, "id": "JN2enfu4F5RGqYr7IbdGwCuGedM=", "properties": {"@spider": "usps_collection_boxes", "addr:city": "LOS ALAMOS", "addr:country": "US", "addr:full": "3917 WEST RD", "addr:postcode": "87544", "addr:state": "NM", "brand": "USPS", "collection_times": "Mo-Sa 14:00", "name": "USPS COLLECTION BOX - BLUE BOX", "note": "ON 12/24 AND 12/31, THIS BOX MAY BE COLLECTED AS EARLY AS 12 NOON.", "ref": "8754400024"}, "type": "Feature"}
{"geometry": {"coordinates": [-106.211245, 35.82534], "type": "Point"}, "id": "DoNLH1EZ1lHvHFghE-eZTVJFpKI=", "properties": {"@spider": "usps_collection_boxes", "addr:city": "LOS ALAMOS", "addr:country": "US", "addr:full": "101 LONGVIEW DR", "addr:postcode": "87544", "addr:state": "NM", "brand": "USPS", "collection_times": "Mo-Fr 17:00; Sa 16:00", "name": "USPS COLLECTION BOX - PO LOBBY", "note": "ON 12/24 AND 12/31, THIS BOX MAY BE COLLECTED AS EARLY AS 12 NOON.", "ref": "8754400033"}, "type": "Feature"}
{"geometry": {"coordinates": [-106.302139, 35.880092], "type": "Point"}, "id": "NepGKP4O9fXWeiLxOC6oe9lcZwU=", "properties": {"@spider": "usps_collection_boxes", "addr:city": "LOS ALAMOS", "addr:country": "US", "addr:full": "199 CENTRAL PARK SQ", "addr:postcode": "87544", "addr:state": "NM", "brand": "USPS", "collection_times": "Mo-Fr 17:00; Sa 16:00", "name": "USPS COLLECTION BOX - BLUE BOX", "note": "ON 12/24 AND 12/31, THIS BOX MAY BE COLLECTED AS EARLY AS 12 NOON.", "ref": "8754400037"}, "type": "Feature"}
{"geometry": {"coordinates": [-106.302169, 35.88008], "type": "Point"}, "id": "bCP5_kWil51oV9awNS3T-b00KL0=", "properties": {"@spider": "usps_collection_boxes", "addr:city": "LOS ALAMOS", "addr:country": "US", "addr:full": "199 CENTRAL PARK SQ", "addr:postcode": "87544", "addr:state": "NM", "brand": "USPS", "collection_times": "Mo-Fr 17:00; Sa 16:00", "name": "USPS COLLECTION BOX - BLUE BOX", "note": "ON 12/24 AND 12/31, THIS BOX MAY BE COLLECTED AS EARLY AS 12 NOON.", "ref": "8754400038"}, "type": "Feature"}
{"geometry": {"coordinates": [-106.300988, 35.8817], "type": "Point"}, "id": "bbbwrtct0csHW6n2ElnydDD7p44=", "properties": {"@spider": "usps_collection_boxes", "addr:city": "LOS ALAMOS", "addr:country": "US", "addr:full": "199 CENTRAL PARK SQ", "addr:postcode": "87544", "addr:state": "NM", "brand": "USPS", "collection_times": "Mo-Fr 17:00; Sa 16:00", "name": "USPS COLLECTION BOX - PO LOBBY", "note": "ON 12/24 AND 12/31, THIS BOX MAY BE COLLECTED AS EARLY AS 12 NOON.", "ref": "8754400039"}, "type": "Feature"}
{"geometry": {"coordinates": [-106.300606371, 35.881658811], "type": "Point"}, "id": "I9dx--XzRiIxs_rpwMZVbaD3Cac=", "properties": {"@spider": "usps_collection_boxes", "addr:city": "LOS ALAMOS", "addr:country": "US", "addr:full": "199 CENTRAL PARK SQ", "addr:postcode": "87544", "addr:state": "NM", "brand": "USPS", "collection_times": "Mo-Fr 17:00; Sa 16:00", "name": "USPS COLLECTION BOX - PO LOBBY", "note": "ON 12/24 AND 12/31, THIS BOX MAY BE COLLECTED AS EARLY AS 12 NOON.", "ref": "8754400041"}, "type": "Feature"}
{"geometry": {"coordinates": [-106.178083697, 36.171257426], "type": "Point"}, "id": "h8QvcFfBRNTurrtBJQi8YjS1Hak=", "properties": {"@spider": "usps_collection_boxes", "addr:city": "MEDANALES", "addr:country": "US", "addr:full": "180 COUNTY ROAD 142", "addr:postcode": "87548", "addr:state": "NM", "brand": "USPS", "collection_times": "Mo-Fr 16:15; Sa 10:45", "name": "USPS COLLECTION BOX - PO LOBBY", "note": "ON 12/24 AND 12/31, THIS BOX MAY BE COLLECTED AS EARLY AS 12 NOON.", "ref": "8754800002"}, "type": "Feature"}
{"geometry": {"coordinates": [-106.178083697, 36.171257426], "type": "Point"}, "id": "29r1nMAKd1uRPKwtvHFJgA77tPk=", "properties": {"@spider": "usps_collection_boxes", "addr:city": "MEDANALES", "addr:country": "US", "addr:full": "180 COUNTY ROAD 142", "addr:postcode": "87548", "addr:state": "NM", "brand": "USPS", "collection_times": "Mo-Fr 16:15; Sa 10:45", "name": "USPS COLLECTION BOX - PO LOBBY", "note": "ON 12/24 AND 12/31, THIS BOX MAY BE COLLECTED AS EARLY AS 12 NOON.", "ref": "8754800003"}, "type": "Feature"}
{"geometry": {"coordinates": [-106.046916436, 36.2996207101], "type": "Point"}, "id": "OxN5Yv1q0w-aCvIiinO5D0clFtE=", "properties": {"@spider": "usps_collection_boxes", "addr:city": "OJO CALIENTE", "addr:country": "US", "addr:full": "35286 HIGHWAY 285", "addr:postcode": "87549", "addr:state": "NM", "brand": "USPS", "collection_times": "Mo-Fr 12:45; Sa 11:45", "name": "USPS COLLECTION BOX - PO LOBBY", "note": "ON 12/24 AND 12/31, THIS BOX MAY BE COLLECTED AS EARLY AS 12 NOON.", "ref": "8754900002"}, "type": "Feature"}
{"geometry": {"coordinates": [-106.046916436, 36.2996207101], "type": "Point"}, "id": "ulKL-JpckpB06pLRQ_kVwxeJdkc=", "properties": {"@spider": "usps_collection_boxes", "addr:city": "OJO CALIENTE", "addr:country": "US", "addr:full": "35286 HIGHWAY 285", "addr:postcode": "87549", "addr:state": "NM", "brand": "USPS", "collection_times": "Mo-Fr 12:45; Sa 11:45", "name": "USPS COLLECTION BOX - PO LOBBY", "note": "ON 12/24 AND 12/31, THIS BOX MAY BE COLLECTED AS EARLY AS 12 NOON.", "ref": "8754900003"}, "type": "Feature"}
{"geometry": {"coordinates": [-106.046916436, 36.2996207101], "type": "Point"}, "id": "FkqZcNxSKy2XA4HesT8ZU0x-1hU=", "properties": {"@spider": "usps_collection_boxes", "addr:city": "OJO CALIENTE", "addr:country": "US", "addr:full": "35286 HIGHWAY 285", "addr:postcode": "87549", "addr:state": "NM", "brand": "USPS", "collection_times": "Mo-Fr 12:45; Sa 11:45", "name": "USPS COLLECTION BOX - BLUE BOX", "note": "ON 12/24 AND 12/31, THIS BOX MAY BE COLLECTED AS EARLY AS 12 NOON.", "ref": "8754900004"}, "type": "Feature"}
{"geometry": {"coordinates": [-106.046916436, 36.2996207101], "type": "Point"}, "id": "QPizBZMnAbCyByAxz8xgLId7Ucc=", "properties": {"@spider": "usps_collection_boxes", "addr:city": "OJO CALIENTE", "addr:country": "US", "addr:full": "35286 HIGHWAY 285", "addr:postcode": "87549", "addr:state": "NM", "brand": "USPS", "collection_times": "Mo-Fr 12:45; Sa 10:30", "name": "USPS COLLECTION BOX - PO LOBBY", "note": "ON 12/24 AND 12/31, THIS BOX MAY BE COLLECTED AS EARLY AS 12 NOON.", "ref": "8754900005"}, "type": "Feature"}
{"geometry": {"coordinates": [-106.571973, 36.729996], "type": "Point"}, "id": "2W6_sQSphb9ptPzGQCZo2vopW3Q=", "properties": {"@spider": "usps_collection_boxes", "addr:city": "LOS OJOS", "addr:country": "US", "addr:full": "95 STATE ROAD 514", "addr:postcode": "87551", "addr:state": "NM", "brand": "USPS", "collection_times": "Mo-Fr 14:30; Sa 10:00", "name": "USPS COLLECTION BOX - BLUE BOX", "note": "ON 12/24 AND 12/31, THIS BOX MAY BE COLLECTED AS EARLY AS 12 NOON.", "ref": "8755100000"}, "type": "Feature"}
{"geometry": {"coordinates": [-106.571956, 36.729919], "type": "Point"}, "id": "sUGYPQYbcfD1akQQzdyTnPTBokE=", "properties": {"@spider": "usps_collection_boxes", "addr:city": "LOS OJOS", "addr:country": "US", "addr:full": "95 STATE ROAD 514", "addr:postcode": "87551", "addr:state": "NM", "brand": "USPS", "collection_times": "Mo-Fr 14:45; Sa 10:15", "name": "USPS COLLECTION BOX - PO LOBBY", "note": "ON 12/24 AND 12/31, THIS BOX MAY BE COLLECTED AS EARLY AS 12 NOON.", "ref": "8755100001"}, "type": "Feature"}
{"geometry": {"coordinates": [-106.571826402, 36.729499182], "type": "Point"}, "id": "lEh6Z3oZd4NG5FGpOx9b-JIgFeg=", "properties": {"@spider": "usps_collection_boxes", "addr:city": "LOS OJOS", "addr:country": "US", "addr:full": "95 STATE ROAD 514", "addr:postcode": "87551", "addr:state": "NM", "brand": "USPS", "collection_times": "Mo-Fr 14:30; Sa 10:00", "name": "USPS COLLECTION BOX - PO LOBBY", "note": "ON 12/24 AND 12/31, THIS BOX MAY BE COLLECTED AS EARLY AS 12 NOON.", "ref": "8755100004"}, "type": "Feature"}
{"geometry": {"coordinates": [-105.679147, 35.564041], "type": "Point"}, "id": "EALV7MXsdA_DR2nDQkxN5VgWkYg=", "properties": {"@spider": "usps_collection_boxes", "addr:city": "PECOS", "addr:country": "US", "addr:full": "63 S MAIN ST", "addr:postcode": "87552", "addr:state": "NM", "brand": "USPS", "collection_times": "Mo-Fr 16:30; Sa 11:45", "name": "USPS COLLECTION BOX - BLUE BOX", "note": "ON 12/24 AND 12/31, THIS BOX MAY BE COLLECTED AS EARLY AS 12 NOON.", "ref": "8755200001"}, "type": "Feature"}
{"geometry": {"coordinates": [-105.679147, 35.564041], "type": "Point"}, "id": "ueGMICzG8Nf9XrQHcrU-Jsaczsk=", "properties": {"@spider": "usps_collection_boxes", "addr:city": "PECOS", "addr:country": "US", "addr:full": "63 S MAIN ST", "addr:postcode": "87552", "addr:state": "NM", "brand": "USPS", "collection_times": "Mo-Fr 16:30; Sa 11:45", "name": "USPS COLLECTION BOX - PO LOBBY", "note": "ON 12/24 AND 12/31, THIS BOX MAY BE COLLECTED AS EARLY AS 12 NOON.", "ref": "8755200002"}, "type": "Feature"}
{"geometry": {"coordinates": [-105.679147, 35.564041], "type": "Point"}, "id": "QTgZZNM8NoICSAdLeJx9yzhqrqg=", "properties": {"@spider": "usps_collection_boxes", "addr:city": "PECOS", "addr:country": "US", "addr:full": "63 S MAIN ST", "addr:postcode": "87552", "addr:state": "NM", "brand": "USPS", "collection_times": "Mo-Fr 16:30; Sa 11:45", "name": "USPS COLLECTION BOX - PO LOBBY", "note": "ON 12/24 AND 12/31, THIS BOX MAY BE COLLECTED AS EARLY AS 12 NOON.", "ref": "8755200003"}, "type": "Feature"}
{"geometry": {"coordinates": [-105.679147, 35.564041], "type": "Point"}, "id": "Af_Cf6U_4G9uRKidB3N7ZyEdVaY=", "properties": {"@spider": "usps_collection_boxes", "addr:city": "PECOS", "addr:country": "US", "addr:full": "63 S MAIN ST", "addr:postcode": "87552", "addr:state": "NM", "brand": "USPS", "collection_times": "Mo-Fr 16:30; Sa 11:45", "name": "USPS COLLECTION BOX - PO LOBBY", "note": "ON 12/24 AND 12/31, THIS BOX MAY BE COLLECTED AS EARLY AS 12 NOON.", "ref": "8755200004"}, "type": "Feature"}
{"geometry": {"coordinates": [-105.6761848845, 35.5699733075], "type": "Point"}, "id": "nqaMcgTE8LN-4T1vL3QtdlYYM1I=", "properties": {"@spider": "usps_collection_boxes", "addr:city": "PECOS", "addr:country": "US", "addr:full": "63 S MAIN ST", "addr:postcode": "87552", "addr:state": "NM", "brand": "USPS", "collection_times": "Mo-Fr 16:30; Sa 11:45", "name": "USPS COLLECTION BOX - PO LOBBY", "note": "ON 12/24 AND 12/31, THIS BOX MAY BE COLLECTED AS EARLY AS 12 NOON.", "ref": "8755200005"}, "type": "Feature"}
{"geometry": {"coordinates": [-105.690951, 36.174831], "type": "Point"}, "id": "drJXW8lSlf5ySCrEF9CnXqKBI-0=", "properties": {"@spider": "usps_collection_boxes", "addr:city": "PENASCO", "addr:country": "US", "addr:full": "14196 STATE ROAD 75", "addr:postcode": "87553", "addr:state": "NM", "brand": "USPS", "collection_times": "Mo-Fr 13:25; Sa 11:30", "name": "USPS COLLECTION BOX - BLUE BOX", "note": "ON 12/24 AND 12/31, THIS BOX MAY BE COLLECTED AS EARLY AS 12 NOON.", "ref": "8755300001"}, "type": "Feature"}
{"geometry": {"coordinates": [-105.690972, 36.174811], "type": "Point"}, "id": "xIFWuodmlyiuiLzvh0oOaj65ypw=", "properties": {"@spider": "usps_collection_boxes", "addr:city": "PENASCO", "addr:country": "US", "addr:full": "14196 STATE ROAD 75", "addr:postcode": "87553", "addr:state": "NM", "brand": "USPS", "collection_times": "Mo-Fr 13:30; Sa 11:30", "name": "USPS COLLECTION BOX - PO LOBBY", "note": "ON 12/24 AND 12/31, THIS BOX MAY BE COLLECTED AS EARLY AS 12 NOON.", "ref": "8755300002"}, "type": "Feature"}
{"geometry": {"coordinates": [-105.690972, 36.174811], "type": "Point"}, "id": "b3hxQfZz3I3aOBqPk6_XGpT7ByE=", "properties": {"@spider": "usps_collection_boxes", "addr:city": "PENASCO", "addr:country": "US", "addr:full": "14196 STATE ROAD 75", "addr:postcode": "87553", "addr:state": "NM", "brand": "USPS", "collection_times": "Mo-Fr 13:30; Sa 11:30", "name": "USPS COLLECTION BOX - PO LOBBY", "note": "ON 12/24 AND 12/31, THIS BOX MAY BE COLLECTED AS EARLY AS 12 NOON.", "ref": "8755300003"}, "type": "Feature"}
{"geometry": {"coordinates": [-105.690938805, 36.174857858], "type": "Point"}, "id": "u7pSj_SIZ5ZGZzk-qrkoBVVC-Yc=", "properties": {"@spider": "usps_collection_boxes", "addr:city": "PENASCO", "addr:country": "US", "addr:full": "14196 STATE ROAD 75", "addr:postcode": "87553", "addr:state": "NM", "brand": "USPS", "collection_times": "Mo-Fr 13:15; Sa 11:15", "name": "USPS COLLECTION BOX - PO LOBBY", "note": "ON 12/24 AND 12/31, THIS BOX MAY BE COLLECTED AS EARLY AS 12 NOON.", "ref": "8755300004"}, "type": "Feature"}
{"geometry": {"coordinates": [-105.5897979159, 36.7063851657], "type": "Point"}, "id": "7yfkhiMYhDY_RYaLP5fGs2I6lII=", "properties": {"@spider": "usps_collection_boxes", "addr:city": "QUESTA", "addr:country": "US", "addr:full": "43 HIGHWAY 38", "addr:postcode": "87556", "addr:state": "NM", "brand": "USPS", "collection_times": "Mo-Fr 15:15; Sa 11:30", "name": "USPS COLLECTION BOX - BLUE BOX", "note": "ON 12/24 AND 12/31, THIS BOX MAY BE COLLECTED AS EARLY AS 12 NOON.", "ref": "8755600001"}, "type": "Feature"}
{"geometry": {"coordinates": [-105.5897979159, 36.7063851657], "type": "Point"}, "id": "nwWlPTJwnvxqeRs_J9i8IiAzVHQ=", "properties": {"@spider": "usps_collection_boxes", "addr:city": "QUESTA", "addr:country": "US", "addr:full": "43 HIGHWAY 38", "addr:postcode": "87556", "addr:state": "NM", "brand": "USPS", "collection_times": "Mo-Fr 15:15; Sa 12:00", "name": "USPS COLLECTION BOX - PO LOBBY", "note": "ON 12/24 AND 12/31, THIS BOX MAY BE COLLECTED AS EARLY AS 12 NOON.", "ref": "8755600002"}, "type": "Feature"}
{"geometry": {"coordinates": [-105.5897979159, 36.7063851657], "type": "Point"}, "id": "Es1OOorEJAVs0ANblT2nhlKFeR4=", "properties": {"@spider": "usps_collection_boxes", "addr:city": "QUESTA", "addr:country": "US", "addr:full": "43 HIGHWAY 38", "addr:postcode": "87556", "addr:state": "NM", "brand": "USPS", "collection_times": "Mo-Fr 15:15; Sa 12:00", "name": "USPS COLLECTION BOX - PO LOBBY", "note": "ON 12/24 AND 12/31, THIS BOX MAY BE COLLECTED AS EARLY AS 12 NOON.", "ref": "8755600003"}, "type": "Feature"}
{"geometry": {"coordinates": [-105.5897979159, 36.7063851657], "type": "Point"}, "id": "PIyYd6ytvf3GdzFQ0ugbQ1IDMm4=", "properties": {"@spider": "usps_collection_boxes", "addr:city": "QUESTA", "addr:country": "US", "addr:full": "43 HIGHWAY 38", "addr:postcode": "87556", "addr:state": "NM", "brand": "USPS", "collection_times": "Mo-Fr 15:15; Sa 12:00", "name": "USPS COLLECTION BOX - PO LOBBY", "note": "ON 12/24 AND 12/31, THIS BOX MAY BE COLLECTED AS EARLY AS 12 NOON.", "ref": "8755600004"}, "type": "Feature"}
{"geometry": {"coordinates": [-105.607869, 36.359476], "type": "Point"}, "id": "Ui5u5HlpQDCdjk9pzsaxa2lLh84=", "properties": {"@spider": "usps_collection_boxes", "addr:city": "RANCHOS DE TAOS", "addr:country": "US", "addr:full": "4 SAN FRANCISCO RD", "addr:postcode": "87557", "addr:state": "NM", "brand": "USPS", "collection_times": "Mo-Fr 16:30; Sa 12:00", "name": "USPS COLLECTION BOX - BLUE BOX", "note": "ON 12/24 AND 12/31, THIS BOX MAY BE COLLECTED AS EARLY AS 12 NOON.", "ref": "8755700005"}, "type": "Feature"}
{"geometry": {"coordinates": [-105.608008, 36.359451], "type": "Point"}, "id": "bNkxkc0xVUKkFt-xPxYBS8gdbsg=", "properties": {"@spider": "usps_collection_boxes", "addr:city": "RANCHOS DE TAOS", "addr:country": "US", "addr:full": "4 SAN FRANCISCO RD", "addr:postcode": "87557", "addr:state": "NM", "brand": "USPS", "collection_times": "Mo-Fr 16:30; Sa 12:00", "name": "USPS COLLECTION BOX - PO LOBBY", "note": "ON 12/24 AND 12/31, THIS BOX MAY BE COLLECTED AS EARLY AS 12 NOON.", "ref": "8755700007"}, "type": "Feature"}
{"geometry": {"coordinates": [-105.608045, 36.359452], "type": "Point"}, "id": "ajwQChpEgxhLCpBamWlXUhXcJAw=", "properties": {"@spider": "usps_collection_boxes", "addr:city": "RANCHOS DE TAOS", "addr:country": "US", "addr:full": "4 SAN FRANCISCO RD", "addr:postcode": "87557", "addr:state": "NM", "brand": "USPS", "collection_times": "Mo-Fr 16:30; Sa 12:00", "name": "USPS COLLECTION BOX - PO LOBBY", "note": "ON 12/24 AND 12/31, THIS BOX MAY BE COLLECTED AS EARLY AS 12 NOON.", "ref": "8755700008"}, "type": "Feature"}
{"geometry": {"coordinates": [-105.607918088, 36.3596773627], "type": "Point"}, "id": "w9nYFbbJmOpJJGZIWL3C77H_2wM=", "properties": {"@spider": "usps_collection_boxes", "addr:city": "RANCHOS DE TAOS", "addr:country": "US", "addr:full": "4 SAN FRANCISCO RD", "addr:postcode": "87557", "addr:state": "NM", "brand": "USPS", "collection_times": "Mo-Fr 16:30; Sa 12:00", "name": "USPS COLLECTION BOX - PO LOBBY", "note": "ON 12/24 AND 12/31, THIS BOX MAY BE COLLECTED AS EARLY AS 12 NOON.", "ref": "8755700009"}, "type": "Feature"}
{"geometry": {"coordinates": [-105.406765, 36.708389], "type": "Point"}, "id": "3SxFZCrBv1r9LoKCDAnuJRxZYdQ=", "properties": {"@spider": "usps_collection_boxes", "addr:city": "RED RIVER", "addr:country": "US", "addr:full": "120 W MAIN ST", "addr:postcode": "87558", "addr:state": "NM", "brand": "USPS", "collection_times": "Mo-Fr 14:15; Sa 11:15", "name": "USPS COLLECTION BOX - BLUE BOX", "note": "ON 12/24 AND 12/31, THIS BOX MAY BE COLLECTED AS EARLY AS 12 NOON.", "ref": "8755800001"}, "type": "Feature"}
{"geometry": {"coordinates": [-105.406765, 36.708389], "type": "Point"}, "id": "eZRhNcDqeRGBaDRs8VrE7z25PVk=", "properties": {"@spider": "usps_collection_boxes", "addr:city": "RED RIVER", "addr:country": "US", "addr:full": "120 W MAIN ST", "addr:postcode": "87558", "addr:state": "NM", "brand": "USPS", "collection_times": "Mo-Fr 14:15; Sa 11:15", "name": "USPS COLLECTION BOX - PO LOBBY", "note": "ON 12/24 AND 12/31, THIS BOX MAY BE COLLECTED AS EARLY AS 12 NOON.", "ref": "8755800003"}, "type": "Feature"}
{"geometry": {"coordinates": [-105.407028656, 36.708572785], "type": "Point"}, "id": "gasvvym2JZGcvo7vPSng5VJeeUc=", "properties": {"@spider": "usps_collection_boxes", "addr:city": "RED RIVER", "addr:country": "US", "addr:full": "120 W MAIN ST", "addr:postcode": "87558", "addr:state": "NM", "brand": "USPS", "collection_times": "Mo-Fr 14:00; Sa 11:00", "name": "USPS COLLECTION BOX - PO LOBBY", "note": "ON 12/24 AND 12/31, THIS BOX MAY BE COLLECTED AS EARLY AS 12 NOON.", "ref": "8755800006"}, "type": "Feature"}
{"geometry": {"coordinates": [-105.440318, 35.041922], "type": "Point"}, "id": "Gnasl_AulAbKF8TBCIgaxsqsgps=", "properties": {"@spider": "usps_collection_boxes", "addr:city": "RIBERA", "addr:country": "US", "addr:full": "169 NM HIGHWAY 3", "addr:postcode": "87560", "addr:state": "NM", "brand": "USPS", "collection_times": "Mo-Fr 15:45; Sa 10:00", "name": "USPS COLLECTION BOX - BLUE BOX", "note": "ON 12/24 AND 12/31, THIS BOX MAY BE COLLECTED AS EARLY AS 12 NOON.", "ref": "8756000001"}, "type": "Feature"}
{"geometry": {"coordinates": [-105.448676, 35.377642], "type": "Point"}, "id": "JONtEj56_hfqVKAkimP93tGGkmw=", "properties": {"@spider": "usps_collection_boxes", "addr:city": "RIBERA", "addr:country": "US", "addr:full": "169 NM HIGHWAY 3", "addr:postcode": "87560", "addr:state": "NM", "brand": "USPS", "collection_times": "Mo-Fr 15:45; Sa 10:00", "name": "USPS COLLECTION BOX - PO LOBBY", "note": "ON 12/24 AND 12/31, THIS BOX MAY BE COLLECTED AS EARLY AS 12 NOON.", "ref": "8756000002"}, "type": "Feature"}
{"geometry": {"coordinates": [-105.448473699, 35.3779432395], "type": "Point"}, "id": "YbxG6TNLa_KqJN9SxErZASx383U=", "properties": {"@spider": "usps_collection_boxes", "addr:city": "RIBERA", "addr:country": "US", "addr:full": "169 STATE HIGHWAY 3", "addr:postcode": "87560", "addr:state": "NM", "brand": "USPS", "collection_times": "Mo-Fr 15:30; Sa 09:45", "name": "USPS COLLECTION BOX - PO LOBBY", "note": "ON 12/24 AND 12/31, THIS BOX MAY BE COLLECTED AS EARLY AS 12 NOON.", "ref": "8756000003"}, "type": "Feature"}
{"geometry": {"coordinates": [-105.211186, 35.580144], "type": "Point"}, "id": "BIwnHdg_YHy7KxJ8HNsonySsZiY=", "properties": {"@spider": "usps_collection_boxes", "addr:city": "ROWE", "addr:country": "US", "addr:full": "3198 FRONTAGE RD", "addr:postcode": "87562", "addr:state": "NM", "brand": "USPS", "collection_times": "Mo-Fr 16:15; Sa 10:45", "name": "USPS COLLECTION BOX - BLUE BOX", "note": "ON 12/24 AND 12/31, THIS BOX MAY BE COLLECTED AS EARLY AS 12 NOON.", "ref": "8756200001"}, "type": "Feature"}
{"geometry": {"coordinates": [-105.211227, 35.580231], "type": "Point"}, "id": "fUT_gRgXGSG521mmaoPuHbc2jpo=", "properties": {"@spider": "usps_collection_boxes", "addr:city": "ROWE", "addr:country": "US", "addr:full": "3198 FRONTAGE RD", "addr:postcode": "87562", "addr:state": "NM", "brand": "USPS", "collection_times": "Mo-Fr 16:15; Sa 10:45", "name": "USPS COLLECTION BOX - PO LOBBY", "note": "ON 12/24 AND 12/31, THIS BOX MAY BE COLLECTED AS EARLY AS 12 NOON.", "ref": "8756200002"}, "type": "Feature"}
{"geometry": {"coordinates": [-105.674634362, 35.494300208], "type": "Point"}, "id": "2AcaDUXhAZIbwqyS22-nKVr4V2w=", "properties": {"@spider": "usps_collection_boxes", "addr:city": "ROWE", "addr:country": "US", "addr:full": "3198 FRONTAGE RD", "addr:postcode": "87562", "addr:state": "NM", "brand": "USPS", "collection_times": "Mo-Fr 16:00; Sa 10:30", "name": "USPS COLLECTION BOX - PO LOBBY", "note": "ON 12/24 AND 12/31, THIS BOX MAY BE COLLECTED AS EARLY AS 12 NOON.", "ref": "8756200003"}, "type": "Feature"}
{"geometry": {"coordinates": [-105.649924, 36.594009], "type": "Point"}, "id": "bzKnTXiSfqpTqvmRxunCdmeQAGw=", "properties": {"@spider": "usps_collection_boxes", "addr:city": "SAN CRISTOBAL", "addr:country": "US", "addr:full": "1560 OLD STATE ROAD 3", "addr:postcode": "87564", "addr:state": "NM", "brand": "USPS", "collection_times": "Mo-Fr 15:15; Sa 09:30", "name": "USPS COLLECTION BOX - BLUE BOX", "note": "ON 12/24 AND 12/31, THIS BOX MAY BE COLLECTED AS EARLY AS 12 NOON.", "ref": "8756400001"}, "type": "Feature"}
{"geometry": {"coordinates": [-105.649857, 36.593932], "type": "Point"}, "id": "hKYlkuzZafjt8WUrWLtaDWz1k78=", "properties": {"@spider": "usps_collection_boxes", "addr:city": "SAN CRISTOBAL", "addr:country": "US", "addr:full": "1560 OLD STATE ROAD 3", "addr:postcode": "87564", "addr:state": "NM", "brand": "USPS", "collection_times": "Mo-Fr 15:15; Sa 09:30", "name": "USPS COLLECTION BOX - PO LOBBY", "note": "ON 12/24 AND 12/31, THIS BOX MAY BE COLLECTED AS EARLY AS 12 NOON.", "ref": "8756400002"}, "type": "Feature"}
{"geometry": {"coordinates": [-105.649857, 36.593932], "type": "Point"}, "id": "Y02u0eI4u6tPOXJzDBPD3YVRbME=", "properties": {"@spider": "usps_collection_boxes", "addr:city": "SAN CRISTOBAL", "addr:country": "US", "addr:full": "1560 OLD STATE ROAD 3", "addr:postcode": "87564", "addr:state": "NM", "brand": "USPS", "collection_times": "Mo-Fr 15:15; Sa 09:30", "name": "USPS COLLECTION BOX - PO LOBBY", "note": "ON 12/24 AND 12/31, THIS BOX MAY BE COLLECTED AS EARLY AS 12 NOON.", "ref": "8756400003"}, "type": "Feature"}
{"geometry": {"coordinates": [-105.64995416, 36.594064719], "type": "Point"}, "id": "WGwZNf0VbcjO4-bnREJrGK_X18M=", "properties": {"@spider": "usps_collection_boxes", "addr:city": "SAN CRISTOBAL", "addr:country": "US", "addr:full": "1560 OLD STATE ROAD 3", "addr:postcode": "87564", "addr:state": "NM", "brand": "USPS", "collection_times": "Mo-Fr 15:00; Sa 09:15", "name": "USPS COLLECTION BOX - PO LOBBY", "note": "ON 12/24 AND 12/31, THIS BOX MAY BE COLLECTED AS EARLY AS 12 NOON.", "ref": "8756400004"}, "type": "Feature"}
{"geometry": {"coordinates": [-105.4754302061, 35.3973217277], "type": "Point"}, "id": "83mZ4dLG8MFY3QOCcYrgg-RyZmI=", "properties": {"@spider": "usps_collection_boxes", "addr:city": "SAN JOSE", "addr:country": "US", "addr:full": "16 CAMINO DE LOS PEIRDAS", "addr:postcode": "87565", "addr:state": "NM", "brand": "USPS", "collection_times": "Mo-Fr 16:00; Sa 11:30", "name": "USPS COLLECTION BOX - BLUE BOX", "note": "ON 12/24 AND 12/31, THIS BOX MAY BE COLLECTED AS EARLY AS 12 NOON.", "ref": "8756500001"}, "type": "Feature"}
{"geometry": {"coordinates": [-105.4754302061, 35.3973217277], "type": "Point"}, "id": "Cv4opR10pRJCGZvGvIYWi9e64xQ=", "properties": {"@spider": "usps_collection_boxes", "addr:city": "SAN JOSE", "addr:country": "US", "addr:full": "16 CAMINO DE LOS PEIRDAS", "addr:postcode": "87565", "addr:state": "NM", "brand": "USPS", "collection_times": "Mo-Fr 12:00; Sa 11:30", "name": "USPS COLLECTION BOX - PO LOBBY", "ref": "8756500002"}, "type": "Feature"}
{"geometry": {"coordinates": [-105.49, 35.407767], "type": "Point"}, "id": "qWzOeYI27k1SXz7C2Lu6uiZZH18=", "properties": {"@spider": "usps_collection_boxes", "addr:city": "SAN JOSE", "addr:country": "US", "addr:full": "2 REGALIA LN", "addr:postcode": "87565", "addr:state": "NM", "brand": "USPS", "collection_times": "Mo-Fr 11:30; Sa 11:20", "name": "USPS COLLECTION BOX - BLUE BOX", "ref": "8756500003"}, "type": "Feature"}
{"geometry": {"coordinates": [-105.4754302061, 35.3973217277], "type": "Point"}, "id": "NW2RFzO8orpIFKn2g-pIR70fH0E=", "properties": {"@spider": "usps_collection_boxes", "addr:city": "SAN JOSE", "addr:country": "US", "addr:full": "16 CAMINO DE LOS PEIRDAS", "addr:postcode": "87565", "addr:state": "NM", "brand": "USPS", "collection_times": "Mo-Fr 12:00; Sa 11:15", "name": "USPS COLLECTION BOX - PO LOBBY", "ref": "8756500004"}, "type": "Feature"}
{"geometry": {"coordinates": [-106.0744770156, 36.0558899175], "type": "Point"}, "id": "_S_GbU-MLHHIZWV2Xu3RkWvMQHM=", "properties": {"@spider": "usps_collection_boxes", "addr:city": "OHKAY OWINGEH", "addr:country": "US", "addr:full": "331 MAIN ST", "addr:postcode": "87566", "addr:state": "NM", "brand": "USPS", "collection_times": "Mo-Fr 16:15; Sa 11:30", "name": "USPS COLLECTION BOX - BLUE BOX", "note": "ON 12/24 AND 12/31, THIS BOX MAY BE COLLECTED AS EARLY AS 12 NOON.", "ref": "8756600001"}, "type": "Feature"}
{"geometry": {"coordinates": [-106.0744770156, 36.0558899175], "type": "Point"}, "id": "Bnr6SBumJ-capihFfUt9yd56X9I=", "properties": {"@spider": "usps_collection_boxes", "addr:city": "OHKAY OWINGEH", "addr:country": "US", "addr:full": "331 MAIN ST", "addr:postcode": "87566", "addr:state": "NM", "brand": "USPS", "collection_times": "Mo-Fr 16:15; Sa 11:30", "name": "USPS COLLECTION BOX - PO LOBBY", "note": "ON 12/24 AND 12/31, THIS BOX MAY BE COLLECTED AS EARLY AS 12 NOON.", "ref": "8756600002"}, "type": "Feature"}
{"geometry": {"coordinates": [-106.060930234, 36.03781536], "type": "Point"}, "id": "9bUlSQjbKo31sSROU1jcrJcf9wU=", "properties": {"@spider": "usps_collection_boxes", "addr:city": "OHKAY OWINGEH", "addr:country": "US", "addr:full": "331 MAIN ST", "addr:postcode": "87566", "addr:state": "NM", "brand": "USPS", "collection_times": "Mo-Fr 16:15", "name": "USPS COLLECTION BOX - PO LOBBY", "note": "ON 12/24 AND 12/31, THIS BOX MAY BE COLLECTED AS EARLY AS 12 NOON.", "ref": "8756600004"}, "type": "Feature"}
{"geometry": {"coordinates": [-106.042215, 35.988059], "type": "Point"}, "id": "wbdMonVytNdZvgd9EBrgjBPN-3E=", "properties": {"@spider": "usps_collection_boxes", "addr:city": "SANTA CRUZ", "addr:country": "US", "addr:full": "1701 STATE ROAD 76", "addr:postcode": "87567", "addr:state": "NM", "brand": "USPS", "collection_times": "Mo-Fr 16:15; Sa 11:00", "name": "USPS COLLECTION BOX - PO LOBBY", "note": "ON 12/24 AND 12/31, THIS BOX MAY BE COLLECTED AS EARLY AS 12 NOON.", "ref": "8756700006"}, "type": "Feature"}
{"geometry": {"coordinates": [-106.04233, 35.988071], "type": "Point"}, "id": "qa2yj-_Lf9M7m-K45MgNtIB4Fo8=", "properties": {"@spider": "usps_collection_boxes", "addr:city": "SANTA CRUZ", "addr:country": "US", "addr:full": "1701 STATE ROAD 76", "addr:postcode": "87567", "addr:state": "NM", "brand": "USPS", "collection_times": "Mo-Fr 16:15; Sa 11:00", "name": "USPS COLLECTION BOX - PO LOBBY", "note": "ON 12/24 AND 12/31, THIS BOX MAY BE COLLECTED AS EARLY AS 12 NOON.", "ref": "8756700007"}, "type": "Feature"}
{"geometry": {"coordinates": [-106.041941509, 35.987944912], "type": "Point"}, "id": "T8-7ROs-PdC0bYU5jyDfseicY-I=", "properties": {"@spider": "usps_collection_boxes", "addr:city": "SANTA CRUZ", "addr:country": "US", "addr:full": "1701 STATE RD 76", "addr:postcode": "87567", "addr:state": "NM", "brand": "USPS", "collection_times": "Mo-Fr 16:00; Sa 10:45", "name": "USPS COLLECTION BOX - PO LOBBY", "note": "ON 12/24 AND 12/31, THIS BOX MAY BE COLLECTED AS EARLY AS 12 NOON.", "ref": "8756700008"}, "type": "Feature"}
{"geometry": {"coordinates": [-105.3443577026, 35.3896856425], "type": "Point"}, "id": "_oMzTGi_aCcOL4YuO37yg7jYiGY=", "properties": {"@spider": "usps_collection_boxes", "addr:city": "SERAFINA", "addr:country": "US", "addr:full": "294 COUNTY ROAD B26A", "addr:postcode": "87569", "addr:state": "NM", "brand": "USPS", "collection_times": "Mo-Fr 15:15; Sa 10:15", "name": "USPS COLLECTION BOX - BLUE BOX", "note": "ON 12/24 AND 12/31, THIS BOX MAY BE COLLECTED AS EARLY AS 12 NOON.", "ref": "8756900001"}, "type": "Feature"}
{"geometry": {"coordinates": [-105.357654, 35.388635], "type": "Point"}, "id": "8alYL9QmByqlEq3Uymsg4pQLV9U=", "properties": {"@spider": "usps_collection_boxes", "addr:city": "SERAFINA", "addr:country": "US", "addr:full": "294 COUNTY ROAD B26A", "addr:postcode": "87569", "addr:state": "NM", "brand": "USPS", "collection_times": "Mo-Fr 15:15; Sa 10:15", "name": "USPS COLLECTION BOX - PO LOBBY", "note": "ON 12/24 AND 12/31, THIS BOX MAY BE COLLECTED AS EARLY AS 12 NOON.", "ref": "8756900002"}, "type": "Feature"}
{"geometry": {"coordinates": [-105.3443564744, 35.3896679699], "type": "Point"}, "id": "VbE2HX-FRn5zNOXwIwp9QZ_MSUQ=", "properties": {"@spider": "usps_collection_boxes", "addr:city": "SERAFINA", "addr:country": "US", "addr:full": "294 COUNTY ROAD B26A", "addr:postcode": "87569", "addr:state": "NM", "brand": "USPS", "collection_times": "Mo-Fr 15:00; Sa 10:00", "name": "USPS COLLECTION BOX - PO LOBBY", "note": "ON 12/24 AND 12/31, THIS BOX MAY BE COLLECTED AS EARLY AS 12 NOON.", "ref": "8756900003"}, "type": "Feature"}
{"geometry": {"coordinates": [-105.582448, 36.392716], "type": "Point"}, "id": "jRQsnxjjzlibIVIFEeBmgApYvG8=", "properties": {"@spider": "usps_collection_boxes", "addr:city": "TAOS", "addr:country": "US", "addr:full": "710 PASEO DEL PUEBLO SUR", "addr:postcode": "87571", "addr:state": "NM", "brand": "USPS", "collection_times": "Mo-Sa 15:15", "name": "USPS COLLECTION BOX - BLUE BOX", "note": "ON 12/24 AND 12/31, THIS BOX MAY BE COLLECTED AS EARLY AS 12 NOON.", "ref": "8757100001"}, "type": "Feature"}
{"geometry": {"coordinates": [-105.58952, 36.374521], "type": "Point"}, "id": "c_qSqA5vfbK7Zgyctr6MqFMQnq4=", "properties": {"@spider": "usps_collection_boxes", "addr:city": "TAOS", "addr:country": "US", "addr:full": "1308 GUSDORF RD", "addr:postcode": "87571", "addr:state": "NM", "brand": "USPS", "collection_times": "Mo-Sa 15:15", "name": "USPS COLLECTION BOX - BLUE BOX", "note": "ON 12/24 AND 12/31, THIS BOX MAY BE COLLECTED AS EARLY AS 12 NOON.", "ref": "8757100002"}, "type": "Feature"}
{"geometry": {"coordinates": [-105.569757, 36.412581], "type": "Point"}, "id": "PJn5A2ef_LENXspaiV9anGgOqfw=", "properties": {"@spider": "usps_collection_boxes", "addr:city": "TAOS", "addr:country": "US", "addr:full": "318 PASEO DEL PUEBLO NORTE", "addr:postcode": "87571", "addr:state": "NM", "brand": "USPS", "collection_times": "Mo-Fr 16:30; Sa 15:15", "name": "USPS COLLECTION BOX - BLUE BOX", "note": "ON 12/24 AND 12/31, THIS BOX MAY BE COLLECTED AS EARLY AS 12 NOON.", "ref": "8757100003"}, "type": "Feature"}
{"geometry": {"coordinates": [-105.576556, 36.397195], "type": "Point"}, "id": "XOD6KEBlEUe_iIFVway1KdZw8-w=", "properties": {"@spider": "usps_collection_boxes", "addr:city": "TAOS", "addr:country": "US", "addr:full": "105 ALBRIGHT ST", "addr:postcode": "87571", "addr:state": "NM", "brand": "USPS", "collection_times": "Mo-Sa 15:15", "name": "USPS COLLECTION BOX - BLUE BOX", "note": "ON 12/24 AND 12/31, THIS BOX MAY BE COLLECTED AS EARLY AS 12 NOON.", "ref": "8757100004"}, "type": "Feature"}
{"geometry": {"coordinates": [-105.5744434011, 36.4077698748], "type": "Point"}, "id": "o0M6c3Rig70u8XlVEJ2zLuFpebA=", "properties": {"@spider": "usps_collection_boxes", "addr:city": "TAOS", "addr:country": "US", "addr:full": "121 N PLAZA", "addr:postcode": "87571", "addr:state": "NM", "brand": "USPS", "collection_times": "Mo-Sa 15:15", "name": "USPS COLLECTION BOX - BLUE BOX", "note": "ON 12/24 AND 12/31, THIS BOX MAY BE COLLECTED AS EARLY AS 12 NOON.", "ref": "8757100006"}, "type": "Feature"}
{"geometry": {"coordinates": [-105.573756, 36.408438], "type": "Point"}, "id": "YkQFOT4aHTMnz9aWfCQ0ymYumn8=", "properties": {"@spider": "usps_collection_boxes", "addr:city": "TAOS", "addr:country": "US", "addr:full": "124 BENT ST", "addr:postcode": "87571", "addr:state": "NM", "brand": "USPS", "collection_times": "Mo-Sa 15:15", "name": "USPS COLLECTION BOX - BLUE BOX", "note": "ON 12/24 AND 12/31, THIS BOX MAY BE COLLECTED AS EARLY AS 12 NOON.", "ref": "8757100008"}, "type": "Feature"}
{"geometry": {"coordinates": [-105.569284, 36.412486], "type": "Point"}, "id": "iHp8MLDYitb02upx9GuVBqcccng=", "properties": {"@spider": "usps_collection_boxes", "addr:city": "TAOS", "addr:country": "US", "addr:full": "318 PASEO DEL PUEBLO NORTE", "addr:postcode": "87571", "addr:state": "NM", "brand": "USPS", "collection_times": "Mo-Fr 16:00; Sa 14:00", "name": "USPS COLLECTION BOX - PO LOBBY", "note": "ON 12/24 AND 12/31, THIS BOX MAY BE COLLECTED AS EARLY AS 12 NOON.", "ref": "8757100009"}, "type": "Feature"}
{"geometry": {"coordinates": [-105.569749, 36.412578], "type": "Point"}, "id": "oLrAVn_ST4IzSyxkgMcgmxQbLCQ=", "properties": {"@spider": "usps_collection_boxes", "addr:city": "TAOS", "addr:country": "US", "addr:full": "318 PASEO DEL PUEBLO NORTE", "addr:postcode": "87571", "addr:state": "NM", "brand": "USPS", "collection_times": "Mo-Fr 16:30; Sa 15:15", "name": "USPS COLLECTION BOX - BLUE BOX", "note": "ON 12/24 AND 12/31, THIS BOX MAY BE COLLECTED AS EARLY AS 12 NOON.", "ref": "8757100014"}, "type": "Feature"}
{"geometry": {"coordinates": [-105.569286, 36.412575], "type": "Point"}, "id": "GuFZZHiSrrSDUwxAnqnaHNslpb0=", "properties": {"@spider": "usps_collection_boxes", "addr:city": "TAOS", "addr:country": "US", "addr:full": "318 PASEO DEL PUEBLO NORTE", "addr:postcode": "87571", "addr:state": "NM", "brand": "USPS", "collection_times": "Mo-Fr 16:00; Sa 14:00", "name": "USPS COLLECTION BOX - PO LOBBY", "note": "ON 12/24 AND 12/31, THIS BOX MAY BE COLLECTED AS EARLY AS 12 NOON.", "ref": "8757100015"}, "type": "Feature"}
{"geometry": {"coordinates": [-105.575017, 36.40407], "type": "Point"}, "id": "pj45WYgJO6wIP3crB1BMRIbZsmU=", "properties": {"@spider": "usps_collection_boxes", "addr:city": "TAOS", "addr:country": "US", "addr:full": "224 PASEO DEL PUEBLO SUR", "addr:postcode": "87571", "addr:state": "NM", "brand": "USPS", "collection_times": "Mo-Sa 15:15", "name": "USPS COLLECTION BOX - BLUE BOX", "note": "ON 12/24 AND 12/31, THIS BOX MAY BE COLLECTED AS EARLY AS 12 NOON.", "ref": "8757100016"}, "type": "Feature"}
{"geometry": {"coordinates": [-105.450797, 36.596461], "type": "Point"}, "id": "DTq3hHOhFZ5GqFsntWBgS5IA-8Y=", "properties": {"@spider": "usps_collection_boxes", "addr:city": "TAOS", "addr:country": "US", "addr:full": "10 THUNDERBIRD RD", "addr:postcode": "87571", "addr:state": "NM", "brand": "USPS", "collection_times": "Mo-Fr 13:45; Sa 12:00", "name": "USPS COLLECTION BOX - BLUE BOX", "note": "ON 12/24 AND 12/31, THIS BOX MAY BE COLLECTED AS EARLY AS 12 NOON.", "ref": "8757100017"}, "type": "Feature"}
{"geometry": {"coordinates": [-105.5896753446, 36.383040212], "type": "Point"}, "id": "IkZzfKdku-sI7-4S2t3XiJbhOt4=", "properties": {"@spider": "usps_collection_boxes", "addr:city": "TAOS", "addr:country": "US", "addr:full": "110 BERTHA RD", "addr:postcode": "87571", "addr:state": "NM", "brand": "USPS", "collection_times": "Mo-Fr 17:00; Sa 16:00", "name": "USPS COLLECTION BOX - BLUE BOX", "note": "ON 12/24 AND 12/31, THIS BOX MAY BE COLLECTED AS EARLY AS 12 NOON.", "ref": "8757100018"}, "type": "Feature"}
{"geometry": {"coordinates": [-105.5688765003, 36.4122673359], "type": "Point"}, "id": "l--2d6MNd43m0gN6TUHSW1AwA3I=", "properties": {"@spider": "usps_collection_boxes", "addr:city": "TAOS", "addr:country": "US", "addr:full": "318 PASEO DEL PUEBLO NORTE", "addr:postcode": "87571", "addr:state": "NM", "brand": "USPS", "collection_times": "Mo-Fr 16:00; Sa 14:00", "name": "USPS COLLECTION BOX - PO LOBBY", "note": "ON 12/24 AND 12/31, THIS BOX MAY BE COLLECTED AS EARLY AS 12 NOON.", "ref": "8757100020"}, "type": "Feature"}
{"geometry": {"coordinates": [-105.5896753446, 36.383040212], "type": "Point"}, "id": "c1R5mrhc8h-6Km_daTjB8u9q1-8=", "properties": {"@spider": "usps_collection_boxes", "addr:city": "TAOS", "addr:country": "US", "addr:full": "110 BERTHA RD", "addr:postcode": "87571", "addr:state": "NM", "brand": "USPS", "collection_times": "Mo-Fr 16:30; Sa 14:00", "name": "USPS COLLECTION BOX - PO LOBBY", "note": "ON 12/24 AND 12/31, THIS BOX MAY BE COLLECTED AS EARLY AS 12 NOON.", "ref": "8757100021"}, "type": "Feature"}
{"geometry": {"coordinates": [-105.5896753446, 36.383040212], "type": "Point"}, "id": "3Vh6S6pIqHshQay3uESEbzvAy6A=", "properties": {"@spider": "usps_collection_boxes", "addr:city": "TAOS", "addr:country": "US", "addr:full": "110 BERTHA RD", "addr:postcode": "87571", "addr:state": "NM", "brand": "USPS", "collection_times": "Mo-Fr 16:30; Sa 14:00", "name": "USPS COLLECTION BOX - PO LOBBY", "note": "ON 12/24 AND 12/31, THIS BOX MAY BE COLLECTED AS EARLY AS 12 NOON.", "ref": "8757100023"}, "type": "Feature"}
{"geometry": {"coordinates": [-105.676304, 35.742574], "type": "Point"}, "id": "iKm0ZSkaj2RPh-YGdGQ76Sjy9D8=", "properties": {"@spider": "usps_collection_boxes", "addr:city": "TERERRO", "addr:country": "US", "addr:full": "1353 STATE ROAD 63", "addr:postcode": "87573", "addr:state": "NM", "brand": "USPS", "collection_times": "Mo-Fr 11:30; Sa 09:00", "name": "USPS COLLECTION BOX - BLUE BOX", "ref": "8757300001"}, "type": "Feature"}
{"geometry": {"coordinates": [-105.935221, 35.76709], "type": "Point"}, "id": "rEuKGgfcK-VqtlJZpRtftHvxUG4=", "properties": {"@spider": "usps_collection_boxes", "addr:city": "TESUQUE", "addr:country": "US", "addr:full": "174 TESUQUE VILLAGE RD", "addr:postcode": "87574", "addr:state": "NM", "brand": "USPS", "collection_times": "Mo-Fr 16:00; Sa 11:30", "name": "USPS COLLECTION BOX - BLUE BOX", "note": "ON 12/24 AND 12/31, THIS BOX MAY BE COLLECTED AS EARLY AS 12 NOON.", "ref": "8757400001"}, "type": "Feature"}
{"geometry": {"coordinates": [-105.9354773455, 35.7668588016], "type": "Point"}, "id": "4rrzl5wFYakN38JbKk_MGTDY44Y=", "properties": {"@spider": "usps_collection_boxes", "addr:city": "TESUQUE", "addr:country": "US", "addr:full": "174 TESUQUE VILLAGE RD", "addr:postcode": "87574", "addr:state": "NM", "brand": "USPS", "collection_times": "Mo-Fr 16:00; Sa 11:30", "name": "USPS COLLECTION BOX - BLUE BOX", "note": "ON 12/24 AND 12/31, THIS BOX MAY BE COLLECTED AS EARLY AS 12 NOON.", "ref": "8757400003"}, "type": "Feature"}
{"geometry": {"coordinates": [-105.935221, 35.76709], "type": "Point"}, "id": "yVZmNlC80WhfIoARKpwbZI8-JFI=", "properties": {"@spider": "usps_collection_boxes", "addr:city": "TESUQUE", "addr:country": "US", "addr:full": "174 TESUQUE VILLAGE RD", "addr:postcode": "87574", "addr:state": "NM", "brand": "USPS", "collection_times": "Mo-Fr 16:00; Sa 11:30", "name": "USPS COLLECTION BOX - PO LOBBY", "note": "ON 12/24 AND 12/31, THIS BOX MAY BE COLLECTED AS EARLY AS 12 NOON.", "ref": "8757400004"}, "type": "Feature"}
{"geometry": {"coordinates": [-105.935221, 35.76709], "type": "Point"}, "id": "Dx20CFZyrfE0lhA4SZv6UnGog78=", "properties": {"@spider": "usps_collection_boxes", "addr:city": "TESUQUE", "addr:country": "US", "addr:full": "174 TESUQUE VILLAGE RD", "addr:postcode": "87574", "addr:state": "NM", "brand": "USPS", "collection_times": "Mo-Fr 16:00; Sa 11:30", "name": "USPS COLLECTION BOX - PO LOBBY", "note": "ON 12/24 AND 12/31, THIS BOX MAY BE COLLECTED AS EARLY AS 12 NOON.", "ref": "8757400005"}, "type": "Feature"}
{"geometry": {"coordinates": [-105.935221, 35.76709], "type": "Point"}, "id": "5hzmN28ec8X58cFgh8QRbkdI4nA=", "properties": {"@spider": "usps_collection_boxes", "addr:city": "TESUQUE", "addr:country": "US", "addr:full": "174 TESUQUE VILLAGE RD", "addr:postcode": "87574", "addr:state": "NM", "brand": "USPS", "collection_times": "Mo-Fr 16:00; Sa 11:30", "name": "USPS COLLECTION BOX - PO LOBBY", "note": "ON 12/24 AND 12/31, THIS BOX MAY BE COLLECTED AS EARLY AS 12 NOON.", "ref": "8757400006"}, "type": "Feature"}
{"geometry": {"coordinates": [-105.935477346, 35.766858802], "type": "Point"}, "id": "l6-E1PAnyXx9eP3eAuh2KpsDN_A=", "properties": {"@spider": "usps_collection_boxes", "addr:city": "TESUQUE", "addr:country": "US", "addr:full": "174 TESUQUE VILLAGE RD", "addr:postcode": "87574", "addr:state": "NM", "brand": "USPS", "collection_times": "Mo-Fr 15:45; Sa 11:15", "name": "USPS COLLECTION BOX - PO LOBBY", "note": "ON 12/24 AND 12/31, THIS BOX MAY BE COLLECTED AS EARLY AS 12 NOON.", "ref": "8757400007"}, "type": "Feature"}
{"geometry": {"coordinates": [-106.5622954013, 36.7177252057], "type": "Point"}, "id": "f2WSyCL3GdJAr_n9O_E3BbzQGaY=", "properties": {"@spider": "usps_collection_boxes", "addr:city": "TIERRA AMARILLA", "addr:country": "US", "addr:full": "17306 STATE HIGHWAY 84/64", "addr:postcode": "87575", "addr:state": "NM", "brand": "USPS", "collection_times": "Mo-Fr 14:45; Sa 12:00", "name": "USPS COLLECTION BOX - BLUE BOX", "note": "ON 12/24 AND 12/31, THIS BOX MAY BE COLLECTED AS EARLY AS 12 NOON.", "ref": "8757500001"}, "type": "Feature"}
{"geometry": {"coordinates": [-106.5622954013, 36.7177252057], "type": "Point"}, "id": "m5vkjHeExoKK3bX2IMH27hlDaIE=", "properties": {"@spider": "usps_collection_boxes", "addr:city": "TIERRA AMARILLA", "addr:country": "US", "addr:full": "17306 STATE HIGHWAY 84/64", "addr:postcode": "87575", "addr:state": "NM", "brand": "USPS", "collection_times": "Mo-Fr 14:45; Sa 12:00", "name": "USPS COLLECTION BOX - PO LOBBY", "note": "ON 12/24 AND 12/31, THIS BOX MAY BE COLLECTED AS EARLY AS 12 NOON.", "ref": "8757500002"}, "type": "Feature"}
{"geometry": {"coordinates": [-106.5622954013, 36.7177252057], "type": "Point"}, "id": "WqHeFszmA4-6m1uNHSL-lYT41MI=", "properties": {"@spider": "usps_collection_boxes", "addr:city": "TIERRA AMARILLA", "addr:country": "US", "addr:full": "17306 STATE HIGHWAY 84/64", "addr:postcode": "87575", "addr:state": "NM", "brand": "USPS", "collection_times": "Mo-Fr 14:45; Sa 12:00", "name": "USPS COLLECTION BOX - PO LOBBY", "note": "ON 12/24 AND 12/31, THIS BOX MAY BE COLLECTED AS EARLY AS 12 NOON.", "ref": "8757500003"}, "type": "Feature"}
{"geometry": {"coordinates": [-106.5622954013, 36.7177252057], "type": "Point"}, "id": "CrXsLYmGUOVsiM2_zn653xkwQFU=", "properties": {"@spider": "usps_collection_boxes", "addr:city": "TIERRA AMARILLA", "addr:country": "US", "addr:full": "17306 STATE HIGHWAY 84/64", "addr:postcode": "87575", "addr:state": "NM", "brand": "USPS", "collection_times": "Mo-Fr 14:45; Sa 12:00", "name": "USPS COLLECTION BOX - PO LOBBY", "note": "ON 12/24 AND 12/31, THIS BOX MAY BE COLLECTED AS EARLY AS 12 NOON.", "ref": "8757500004"}, "type": "Feature"}
{"geometry": {"coordinates": [-105.7473711, 36.5059761], "type": "Point"}, "id": "QcqyW9VsvEyU0avcH9abs2NIUqs=", "properties": {"@spider": "usps_collection_boxes", "addr:city": "TRES PIEDRAS", "addr:country": "US", "addr:full": "38440 HIGHWAY 285", "addr:postcode": "87577", "addr:state": "NM", "brand": "USPS", "collection_times": "Mo-Fr 15:00; Sa 10:00", "name": "USPS COLLECTION BOX - BLUE BOX", "note": "ON 12/24 AND 12/31, THIS BOX MAY BE COLLECTED AS EARLY AS 12 NOON.", "ref": "8757700001"}, "type": "Feature"}
{"geometry": {"coordinates": [-105.7473711, 36.5059761], "type": "Point"}, "id": "l6fT-jw52wtblPj7MiSVYrXPcmY=", "properties": {"@spider": "usps_collection_boxes", "addr:city": "TRES PIEDRAS", "addr:country": "US", "addr:full": "38440 HIGHWAY 285", "addr:postcode": "87577", "addr:state": "NM", "brand": "USPS", "collection_times": "Mo-Fr 12:00; Sa 10:00", "name": "USPS COLLECTION BOX - PO LOBBY", "ref": "8757700002"}, "type": "Feature"}
{"geometry": {"coordinates": [-105.7473711, 36.5059761], "type": "Point"}, "id": "bJFWOKKO4d75cNMK0g0jj0t0OcU=", "properties": {"@spider": "usps_collection_boxes", "addr:city": "TRES PIEDRAS", "addr:country": "US", "addr:full": "38440 HIGHWAY 285", "addr:postcode": "87577", "addr:state": "NM", "brand": "USPS", "collection_times": "Mo-Fr 12:00; Sa 10:00", "name": "USPS COLLECTION BOX - PO LOBBY", "ref": "8757700003"}, "type": "Feature"}
{"geometry": {"coordinates": [-105.8109210436, 36.0434982705], "type": "Point"}, "id": "xmNf6g8kR_tr7yaJvQP-fVvv0Uw=", "properties": {"@spider": "usps_collection_boxes", "addr:city": "CHIMAYO", "addr:country": "US", "addr:full": "23B COUNTY ROAD 75", "addr:postcode": "87578", "addr:state": "NM", "brand": "USPS", "collection_times": "Mo-Fr 12:45; Sa 11:45", "name": "USPS COLLECTION BOX - PO LOBBY", "note": "ON 12/24 AND 12/31, THIS BOX MAY BE COLLECTED AS EARLY AS 12 NOON.", "ref": "8757800002"}, "type": "Feature"}
{"geometry": {"coordinates": [-105.676632, 36.189124], "type": "Point"}, "id": "j6HeX7Z6USESH_NaJaXoQHcZUOI=", "properties": {"@spider": "usps_collection_boxes", "addr:city": "VADITO", "addr:country": "US", "addr:full": "1709 STATE ROAD 75", "addr:postcode": "87579", "addr:state": "NM", "brand": "USPS", "collection_times": "Mo-Fr 13:20; Sa 10:00", "name": "USPS COLLECTION BOX - BLUE BOX", "note": "ON 12/24 AND 12/31, THIS BOX MAY BE COLLECTED AS EARLY AS 12 NOON.", "ref": "8757900001"}, "type": "Feature"}
{"geometry": {"coordinates": [-105.676625, 36.189098], "type": "Point"}, "id": "k3mV2k2Mq72ILG3xtMZHfpcWx2o=", "properties": {"@spider": "usps_collection_boxes", "addr:city": "VADITO", "addr:country": "US", "addr:full": "1709 STATE ROAD 75", "addr:postcode": "87579", "addr:state": "NM", "brand": "USPS", "collection_times": "Mo-Fr 13:45; Sa 10:00", "name": "USPS COLLECTION BOX - PO LOBBY", "note": "ON 12/24 AND 12/31, THIS BOX MAY BE COLLECTED AS EARLY AS 12 NOON.", "ref": "8757900002"}, "type": "Feature"}
{"geometry": {"coordinates": [-105.676474007, 36.189140384], "type": "Point"}, "id": "_rP3QLYpZUFEX4tAn8mr2hegh_k=", "properties": {"@spider": "usps_collection_boxes", "addr:city": "VADITO", "addr:country": "US", "addr:full": "1709 STATE ROAD 75", "addr:postcode": "87579", "addr:state": "NM", "brand": "USPS", "collection_times": "Mo-Fr 13:45", "name": "USPS COLLECTION BOX - PO LOBBY", "note": "ON 12/24 AND 12/31, THIS BOX MAY BE COLLECTED AS EARLY AS 12 NOON.", "ref": "8757900003"}, "type": "Feature"}
{"geometry": {"coordinates": [-106.1127301896, 36.5036508374], "type": "Point"}, "id": "qnKyxWCtPO38Kq1CcHXTb2VIE2Y=", "properties": {"@spider": "usps_collection_boxes", "addr:city": "VALLECITOS", "addr:country": "US", "addr:full": "1484 STATE ROAD 111", "addr:postcode": "87581", "addr:state": "NM", "brand": "USPS", "collection_times": "Mo-Sa 08:30", "name": "USPS COLLECTION BOX - BLUE BOX", "ref": "8758100001"}, "type": "Feature"}
{"geometry": {"coordinates": [-106.1127301896, 36.5036508374], "type": "Point"}, "id": "0PTf-8qqa6Vvf9oTkSqE_hQjTNs=", "properties": {"@spider": "usps_collection_boxes", "addr:city": "VALLECITOS", "addr:country": "US", "addr:full": "1484 STATE ROAD 111", "addr:postcode": "87581", "addr:state": "NM", "brand": "USPS", "collection_times": "Mo-Sa 08:30", "name": "USPS COLLECTION BOX - PO LOBBY", "ref": "8758100002"}, "type": "Feature"}
{"geometry": {"coordinates": [-106.1127301896, 36.5036508374], "type": "Point"}, "id": "vmn0ljSHwHXlbY5rIc6vtyRAW7o=", "properties": {"@spider": "usps_collection_boxes", "addr:city": "VALLECITOS", "addr:country": "US", "addr:full": "1484 STATE ROAD 111", "addr:postcode": "87581", "addr:state": "NM", "brand": "USPS", "collection_times": "Mo-Fr 13:45; Sa 13:15", "name": "USPS COLLECTION BOX - PO LOBBY", "note": "ON 12/24 AND 12/31, THIS BOX MAY BE COLLECTED AS EARLY AS 12 NOON.", "ref": "8758100003"}, "type": "Feature"}
{"geometry": {"coordinates": [-105.967277, 36.162661], "type": "Point"}, "id": "nxWSy4jVr3d38mKJHrE_b5CGO00=", "properties": {"@spider": "usps_collection_boxes", "addr:city": "VELARDE", "addr:country": "US", "addr:full": "1446 US ROUTE 68", "addr:postcode": "87582", "addr:state": "NM", "brand": "USPS", "collection_times": "Mo-Fr 16:00; Sa 10:45", "name": "USPS COLLECTION BOX - BLUE BOX", "note": "ON 12/24 AND 12/31, THIS BOX MAY BE COLLECTED AS EARLY AS 12 NOON.", "ref": "8758200001"}, "type": "Feature"}
{"geometry": {"coordinates": [-105.967277, 36.162661], "type": "Point"}, "id": "3ruXYcnWlTyNc-uxDWQzNciJwRI=", "properties": {"@spider": "usps_collection_boxes", "addr:city": "VELARDE", "addr:country": "US", "addr:full": "1446 US ROUTE 68", "addr:postcode": "87582", "addr:state": "NM", "brand": "USPS", "collection_times": "Mo-Fr 16:00; Sa 10:45", "name": "USPS COLLECTION BOX - PO LOBBY", "note": "ON 12/24 AND 12/31, THIS BOX MAY BE COLLECTED AS EARLY AS 12 NOON.", "ref": "8758200002"}, "type": "Feature"}
{"geometry": {"coordinates": [-105.9676223025, 36.1643959107], "type": "Point"}, "id": "TuvOqQIV5KV_Cfx6L6EErnXkHvQ=", "properties": {"@spider": "usps_collection_boxes", "addr:city": "VELARDE", "addr:country": "US", "addr:full": "1446 US ROUTE 68", "addr:postcode": "87582", "addr:state": "NM", "brand": "USPS", "collection_times": "Mo-Fr 16:00; Sa 10:30", "name": "USPS COLLECTION BOX - PO LOBBY", "note": "ON 12/24 AND 12/31, THIS BOX MAY BE COLLECTED AS EARLY AS 12 NOON.", "ref": "8758200003"}, "type": "Feature"}
{"geometry": {"coordinates": [-105.361479, 35.263134], "type": "Point"}, "id": "DxLJehBuFWfKxtVrFb2VlMEauB0=", "properties": {"@spider": "usps_collection_boxes", "addr:city": "VILLANUEVA", "addr:country": "US", "addr:full": "1221 NM HIGHWAY 3", "addr:postcode": "87583", "addr:state": "NM", "brand": "USPS", "collection_times": "Mo-Fr 12:45", "name": "USPS COLLECTION BOX - BLUE BOX", "note": "ON 12/24 AND 12/31, THIS BOX MAY BE COLLECTED AS EARLY AS 12 NOON.", "ref": "8758300000"}, "type": "Feature"}
{"geometry": {"coordinates": [-105.361479, 35.263134], "type": "Point"}, "id": "-CU6Vbo4MHQSRlozcvtckahPGwc=", "properties": {"@spider": "usps_collection_boxes", "addr:city": "VILLANUEVA", "addr:country": "US", "addr:full": "1221 NM HIGHWAY 3", "addr:postcode": "87583", "addr:state": "NM", "brand": "USPS", "collection_times": "Mo-Fr 12:45", "name": "USPS COLLECTION BOX - PO LOBBY", "note": "ON 12/24 AND 12/31, THIS BOX MAY BE COLLECTED AS EARLY AS 12 NOON.", "ref": "8758300001"}, "type": "Feature"}
{"geometry": {"coordinates": [-105.3612190931, 35.2665117604], "type": "Point"}, "id": "dunzDRUnxr_qkZTLHyMgJSehK7w=", "properties": {"@spider": "usps_collection_boxes", "addr:city": "VILLANUEVA", "addr:country": "US", "addr:full": "1221 NM HIGHWAY 3", "addr:postcode": "87583", "addr:state": "NM", "brand": "USPS", "collection_times": "Mo-Fr 12:45", "name": "USPS COLLECTION BOX - PO LOBBY", "note": "ON 12/24 AND 12/31, THIS BOX MAY BE COLLECTED AS EARLY AS 12 NOON.", "ref": "8758300002"}, "type": "Feature"}
