{"geometry": {"coordinates": [-105.228228, 35.593725], "type": "Point"}, "id": "kyvCjSl8eM6MQpolsZC-QF5pRdI=", "properties": {"@source_uri": "https://tools.usps.com/UspsToolsRestServices/rest/POLocator/findLocations", "@spider": "usps_collection_boxes", "addr:city": "LAS VEGAS", "addr:country": "US", "addr:postcode": "87701", "addr:state": "NM", "addr:street_address": "1900 HOT SPRINGS BLVD", "amenity": "post_box", "collection_times": "Mo-Fr 15:00; Sa 14:45", "note": "ON 12/24 AND 12/31, THIS BOX MAY BE COLLECTED AS EARLY AS 12 NOON.", "nsi_id": "unitedstatespostalservice-a77078", "operator": "United States Postal Service", "operator:short": "USPS", "operator:type": "public", "operator:wikidata": "Q668687", "ref": "8770100010"}, "type": "Feature"}
{"geometry": {"coordinates": [-105.21979, 35.592858], "type": "Point"}, "id": "DnBx_VNdixz0do50hOWkZjxl6pY=", "properties": {"@source_uri": "https://tools.usps.com/UspsToolsRestServices/rest/POLocator/findLocations", "@spider": "usps_collection_boxes", "addr:city": "LAS VEGAS", "addr:country": "US", "addr:postcode": "87701", "addr:state": "NM", "addr:street_address": "1001 DOUGLAS AVE", "amenity": "post_box", "collection_times": "Mo-Sa 17:00", "note": "ON 12/24 AND 12/31, THIS BOX MAY BE COLLECTED AS EARLY AS 12 NOON.", "nsi_id": "unitedstatespostalservice-a77078", "operator": "United States Postal Service", "operator:short": "USPS", "operator:type": "public", "operator:wikidata": "Q668687", "ref": "8770100016"}, "type": "Feature"}
{"geometry": {"coordinates": [-105.21975, 35.592855], "type": "Point"}, "id": "8Iy2A0hbAJqHIk0v565T_CQzx2U=", "properties": {"@source_uri": "https://tools.usps.com/UspsToolsRestServices/rest/POLocator/findLocations", "@spider": "usps_collection_boxes", "addr:city": "LAS VEGAS", "addr:country": "US", "addr:postcode": "87701", "addr:state": "NM", "addr:street_address": "1001 DOUGLAS AVE", "amenity": "post_box", "collection_times": "Mo-Sa 17:00", "note": "ON 12/24 AND 12/31, THIS BOX MAY BE COLLECTED AS EARLY AS 12 NOON.", "nsi_id": "unitedstatespostalservice-a77078", "operator": "United States Postal Service", "operator:short": "USPS", "operator:type": "public", "operator:wikidata": "Q668687", "ref": "8770100017"}, "type": "Feature"}
{"geometry": {"coordinates": [-105.21988, 35.593353], "type": "Point"}, "id": "pPGz3EljFSJKaZQy-xzrcHpd1_M=", "properties": {"@source_uri": "https://tools.usps.com/UspsToolsRestServices/rest/POLocator/findLocations", "@spider": "usps_collection_boxes", "addr:city": "LAS VEGAS", "addr:country": "US", "addr:postcode": "87701", "addr:state": "NM", "addr:street_address": "1001 DOUGLAS AVE", "amenity": "post_box", "collection_times": "Mo-Sa 17:00", "indoor": "yes", "note": "ON 12/24 AND 12/31, THIS BOX MAY BE COLLECTED AS EARLY AS 12 NOON.", "nsi_id": "unitedstatespostalservice-a77078", "operator": "United States Postal Service", "operator:short": "USPS", "operator:type": "public", "operator:wikidata": "Q668687", "ref": "8770100022"}, "type": "Feature"}
{"geometry": {"coordinates": [-105.228142, 35.593813], "type": "Point"}, "id": "4_0JCBOHT2UYwNCNRnypV5Qh2F8=", "properties": {"@source_uri": "https://tools.usps.com/UspsToolsRestServices/rest/POLocator/findLocations", "@spider": "usps_collection_boxes", "addr:city": "LAS VEGAS", "addr:country": "US", "addr:postcode": "87701", "addr:state": "NM", "addr:street_address": "1900 HOT SPRINGS BLVD", "amenity": "post_box", "collection_times": "Mo-Fr 15:00; Sa 14:45", "indoor": "yes", "note": "ON 12/24 AND 12/31, THIS BOX MAY BE COLLECTED AS EARLY AS 12 NOON.", "nsi_id": "unitedstatespostalservice-a77078", "operator": "United States Postal Service", "operator:short": "USPS", "operator:type": "public", "operator:wikidata": "Q668687", "ref": "8770100023"}, "type": "Feature"}
{"geometry": {"coordinates": [-105.230515, 35.591674], "type": "Point"}, "id": "G-dawS0fHS8w1zChpyoXY7BDzME=", "properties": {"@source_uri": "https://tools.usps.com/UspsToolsRestServices/rest/POLocator/findLocations", "@spider": "usps_collection_boxes", "addr:city": "LAS VEGAS", "addr:country": "US", "addr:postcode": "87701", "addr:state": "NM", "addr:street_address": "500 W NATIONAL ST", "amenity": "post_box", "collection_times": "Mo-Fr 15:00", "note": "ON 12/24 AND 12/31, THIS BOX MAY BE COLLECTED AS EARLY AS 12 NOON.", "nsi_id": "unitedstatespostalservice-a77078", "operator": "United States Postal Service", "operator:short": "USPS", "operator:type": "public", "operator:wikidata": "Q668687", "ref": "8770100024"}, "type": "Feature"}
{"geometry": {"coordinates": [-105.219795214, 35.593300607], "type": "Point"}, "id": "RSqYgHTb_fkRZFIRONEbgl5iQ1E=", "properties": {"@source_uri": "https://tools.usps.com/UspsToolsRestServices/rest/POLocator/findLocations", "@spider": "usps_collection_boxes", "addr:city": "LAS VEGAS", "addr:country": "US", "addr:postcode": "87701", "addr:state": "NM", "addr:street_address": "1001 DOUGLAS AVE", "amenity": "post_box", "collection_times": "Mo-Fr 17:00; Sa 12:00", "indoor": "yes", "note": "ON 12/24 AND 12/31, THIS BOX MAY BE COLLECTED AS EARLY AS 12 NOON.", "nsi_id": "unitedstatespostalservice-a77078", "operator": "United States Postal Service", "operator:short": "USPS", "operator:type": "public", "operator:wikidata": "Q668687", "ref": "8770100035"}, "type": "Feature"}
{"geometry": {"coordinates": [-105.290337, 36.404877], "type": "Point"}, "id": "QNhJe4BX32IZL3Mm0DxSEGH6tSc=", "properties": {"@source_uri": "https://tools.usps.com/UspsToolsRestServices/rest/POLocator/findLocations", "@spider": "usps_collection_boxes", "addr:city": "ANGEL FIRE", "addr:country": "US", "addr:postcode": "87710", "addr:state": "NM", "addr:street_address": "3469 HIGHWAY 434 STE B8", "amenity": "post_box", "collection_times": "Mo-Fr 13:15; Sa 11:45", "note": "ON 12/24 AND 12/31, THIS BOX MAY BE COLLECTED AS EARLY AS 12 NOON.", "nsi_id": "unitedstatespostalservice-a77078", "operator": "United States Postal Service", "operator:short": "USPS", "operator:type": "public", "operator:wikidata": "Q668687", "ref": "8771000000"}, "type": "Feature"}
{"geometry": {"coordinates": [-105.290341, 36.404971], "type": "Point"}, "id": "nPooSMZMVH-Wr-Pw7i859D3hB_E=", "properties": {"@source_uri": "https://tools.usps.com/UspsToolsRestServices/rest/POLocator/findLocations", "@spider": "usps_collection_boxes", "addr:city": "ANGEL FIRE", "addr:country": "US", "addr:postcode": "87710", "addr:state": "NM", "addr:street_address": "3469 HIGHWAY 434 STE B8", "amenity": "post_box", "collection_times": "Mo-Fr 13:15; Sa 11:45", "indoor": "yes", "note": "ON 12/24 AND 12/31, THIS BOX MAY BE COLLECTED AS EARLY AS 12 NOON.", "nsi_id": "unitedstatespostalservice-a77078", "operator": "United States Postal Service", "operator:short": "USPS", "operator:type": "public", "operator:wikidata": "Q668687", "ref": "8771000001"}, "type": "Feature"}
{"geometry": {"coordinates": [-105.290341, 36.404971], "type": "Point"}, "id": "Ox780qsPw3KLM7NYo3CJTtAOEkE=", "properties": {"@source_uri": "https://tools.usps.com/UspsToolsRestServices/rest/POLocator/findLocations", "@spider": "usps_collection_boxes", "addr:city": "ANGEL FIRE", "addr:country": "US", "addr:postcode": "87710", "addr:state": "NM", "addr:street_address": "3469 HIGHWAY 434 STE B8", "amenity": "post_box", "collection_times": "Mo-Fr 13:15; Sa 11:45", "indoor": "yes", "note": "ON 12/24 AND 12/31, THIS BOX MAY BE COLLECTED AS EARLY AS 12 NOON.", "nsi_id": "unitedstatespostalservice-a77078", "operator": "United States Postal Service", "operator:short": "USPS", "operator:type": "public", "operator:wikidata": "Q668687", "ref": "8771000002"}, "type": "Feature"}
{"geometry": {"coordinates": [-105.290172872, 36.404484339], "type": "Point"}, "id": "nmyDCS8305z6ni4MOpndVOtg0IE=", "properties": {"@source_uri": "https://tools.usps.com/UspsToolsRestServices/rest/POLocator/findLocations", "@spider": "usps_collection_boxes", "addr:city": "ANGEL FIRE", "addr:country": "US", "addr:postcode": "87710", "addr:state": "NM", "addr:street_address": "3469 HIGHWAY 434 STE B8", "amenity": "post_box", "collection_times": "Mo-Fr 13:15; Sa 11:45", "indoor": "yes", "note": "ON 12/24 AND 12/31, THIS BOX MAY BE COLLECTED AS EARLY AS 12 NOON.", "nsi_id": "unitedstatespostalservice-a77078", "operator": "United States Postal Service", "operator:short": "USPS", "operator:type": "public", "operator:wikidata": "Q668687", "ref": "8771000003"}, "type": "Feature"}
{"geometry": {"coordinates": [-105.142248427, 35.1996550078], "type": "Point"}, "id": "ArP2coMkSWUH1bUQIObgWl71DEw=", "properties": {"@source_uri": "https://tools.usps.com/UspsToolsRestServices/rest/POLocator/findLocations", "@spider": "usps_collection_boxes", "addr:city": "ANTON CHICO", "addr:country": "US", "addr:postcode": "87711", "addr:state": "NM", "addr:street_address": "1067 STATE HIGHWAY 386", "amenity": "post_box", "collection_times": "Mo-Sa 12:45", "note": "ON 12/24 AND 12/31, THIS BOX MAY BE COLLECTED AS EARLY AS 12 NOON.", "nsi_id": "unitedstatespostalservice-a77078", "operator": "United States Postal Service", "operator:short": "USPS", "operator:type": "public", "operator:wikidata": "Q668687", "ref": "8771100000"}, "type": "Feature"}
{"geometry": {"coordinates": [-105.142193, 35.19958], "type": "Point"}, "id": "6qIYWpiEiUOcD1KuIzkrZDOQcDo=", "properties": {"@source_uri": "https://tools.usps.com/UspsToolsRestServices/rest/POLocator/findLocations", "@spider": "usps_collection_boxes", "addr:city": "ANTON CHICO", "addr:country": "US", "addr:postcode": "87711", "addr:state": "NM", "addr:street_address": "1067 STATE HIGHWAY 386", "amenity": "post_box", "collection_times": "Mo-Sa 12:45", "indoor": "yes", "note": "ON 12/24 AND 12/31, THIS BOX MAY BE COLLECTED AS EARLY AS 12 NOON.", "nsi_id": "unitedstatespostalservice-a77078", "operator": "United States Postal Service", "operator:short": "USPS", "operator:type": "public", "operator:wikidata": "Q668687", "ref": "8771100001"}, "type": "Feature"}
{"geometry": {"coordinates": [-105.142248427, 35.199655008], "type": "Point"}, "id": "H3Wxbmq5PrnsJ0Z_Rg1hs8AdrFA=", "properties": {"@source_uri": "https://tools.usps.com/UspsToolsRestServices/rest/POLocator/findLocations", "@spider": "usps_collection_boxes", "addr:city": "ANTON CHICO", "addr:country": "US", "addr:postcode": "87711", "addr:state": "NM", "addr:street_address": "1067 STATE HIGHWAY 386", "amenity": "post_box", "collection_times": "Mo-Sa 12:45", "indoor": "yes", "note": "ON 12/24 AND 12/31, THIS BOX MAY BE COLLECTED AS EARLY AS 12 NOON.", "nsi_id": "unitedstatespostalservice-a77078", "operator": "United States Postal Service", "operator:short": "USPS", "operator:type": "public", "operator:wikidata": "Q668687", "ref": "8771100002"}, "type": "Feature"}
{"geometry": {"coordinates": [-105.2533300245, 35.9130919939], "type": "Point"}, "id": "NzixgMFBten-ZkrcJdxVCZ0n46U=", "properties": {"@source_uri": "https://tools.usps.com/UspsToolsRestServices/rest/POLocator/findLocations", "@spider": "usps_collection_boxes", "addr:city": "BUENA VISTA", "addr:country": "US", "addr:postcode": "87712", "addr:state": "NM", "addr:street_address": "2191 STATE HIGHWAY 518", "amenity": "post_box", "collection_times": "Mo-Fr 15:45; Sa 11:30", "note": "ON 12/24 AND 12/31, THIS BOX MAY BE COLLECTED AS EARLY AS 12 NOON.", "nsi_id": "unitedstatespostalservice-a77078", "operator": "United States Postal Service", "operator:short": "USPS", "operator:type": "public", "operator:wikidata": "Q668687", "ref": "8771200000"}, "type": "Feature"}
{"geometry": {"coordinates": [-105.2533300245, 35.9130919939], "type": "Point"}, "id": "2hlhf-RE5bxQM1M9_zmUCLaGPo4=", "properties": {"@source_uri": "https://tools.usps.com/UspsToolsRestServices/rest/POLocator/findLocations", "@spider": "usps_collection_boxes", "addr:city": "BUENA VISTA", "addr:country": "US", "addr:postcode": "87712", "addr:state": "NM", "addr:street_address": "2191 STATE HIGHWAY 518", "amenity": "post_box", "collection_times": "Mo-Fr 15:45; Sa 11:30", "indoor": "yes", "note": "ON 12/24 AND 12/31, THIS BOX MAY BE COLLECTED AS EARLY AS 12 NOON.", "nsi_id": "unitedstatespostalservice-a77078", "operator": "United States Postal Service", "operator:short": "USPS", "operator:type": "public", "operator:wikidata": "Q668687", "ref": "8771200001"}, "type": "Feature"}
{"geometry": {"coordinates": [-105.2533300245, 35.9130919939], "type": "Point"}, "id": "ZCoTwJGuwLe0bQVZNIs9xaf0480=", "properties": {"@source_uri": "https://tools.usps.com/UspsToolsRestServices/rest/POLocator/findLocations", "@spider": "usps_collection_boxes", "addr:city": "BUENA VISTA", "addr:country": "US", "addr:postcode": "87712", "addr:state": "NM", "addr:street_address": "2191 STATE HIGHWAY 518", "amenity": "post_box", "collection_times": "Mo-Fr 15:45; Sa 11:30", "indoor": "yes", "note": "ON 12/24 AND 12/31, THIS BOX MAY BE COLLECTED AS EARLY AS 12 NOON.", "nsi_id": "unitedstatespostalservice-a77078", "operator": "United States Postal Service", "operator:short": "USPS", "operator:type": "public", "operator:wikidata": "Q668687", "ref": "8771200002"}, "type": "Feature"}
{"geometry": {"coordinates": [-105.2533300245, 35.9130919939], "type": "Point"}, "id": "9jxPSxGmMGwR_viGlTaEm-COG3w=", "properties": {"@source_uri": "https://tools.usps.com/UspsToolsRestServices/rest/POLocator/findLocations", "@spider": "usps_collection_boxes", "addr:city": "BUENA VISTA", "addr:country": "US", "addr:postcode": "87712", "addr:state": "NM", "addr:street_address": "2191 STATE HIGHWAY 518", "amenity": "post_box", "collection_times": "Mo-Fr 15:45; Sa 11:30", "indoor": "yes", "note": "ON 12/24 AND 12/31, THIS BOX MAY BE COLLECTED AS EARLY AS 12 NOON.", "nsi_id": "unitedstatespostalservice-a77078", "operator": "United States Postal Service", "operator:short": "USPS", "operator:type": "public", "operator:wikidata": "Q668687", "ref": "8771200003"}, "type": "Feature"}
{"geometry": {"coordinates": [-105.3536657398, 36.1461604583], "type": "Point"}, "id": "Bh8aY64St3BBypSeP3s2lHwtISE=", "properties": {"@source_uri": "https://tools.usps.com/UspsToolsRestServices/rest/POLocator/findLocations", "@spider": "usps_collection_boxes", "addr:city": "CHACON", "addr:country": "US", "addr:postcode": "87713", "addr:state": "NM", "addr:street_address": "26 STATE HIGHWAY 121", "amenity": "post_box", "collection_times": "Mo-Fr 11:00; Sa 10:15", "indoor": "yes", "nsi_id": "unitedstatespostalservice-a77078", "operator": "United States Postal Service", "operator:short": "USPS", "operator:type": "public", "operator:wikidata": "Q668687", "ref": "8771300000"}, "type": "Feature"}
{"geometry": {"coordinates": [-105.3536657398, 36.1461604583], "type": "Point"}, "id": "ZbfYBvy3n9kXwsJI-X3PxuDRaj4=", "properties": {"@source_uri": "https://tools.usps.com/UspsToolsRestServices/rest/POLocator/findLocations", "@spider": "usps_collection_boxes", "addr:city": "CHACON", "addr:country": "US", "addr:postcode": "87713", "addr:state": "NM", "addr:street_address": "26 STATE HIGHWAY 121", "amenity": "post_box", "collection_times": "Mo-Fr 11:00; Sa 10:00", "nsi_id": "unitedstatespostalservice-a77078", "operator": "United States Postal Service", "operator:short": "USPS", "operator:type": "public", "operator:wikidata": "Q668687", "ref": "8771300001"}, "type": "Feature"}
{"geometry": {"coordinates": [-105.3536657398, 36.1461604583], "type": "Point"}, "id": "pvSSLwk72YaLRIc1W63_Bz1xNRo=", "properties": {"@source_uri": "https://tools.usps.com/UspsToolsRestServices/rest/POLocator/findLocations", "@spider": "usps_collection_boxes", "addr:city": "CHACON", "addr:country": "US", "addr:postcode": "87713", "addr:state": "NM", "addr:street_address": "26 STATE HIGHWAY 121", "amenity": "post_box", "collection_times": "Mo-Fr 11:00; Sa 10:15", "indoor": "yes", "nsi_id": "unitedstatespostalservice-a77078", "operator": "United States Postal Service", "operator:short": "USPS", "operator:type": "public", "operator:wikidata": "Q668687", "ref": "8771300002"}, "type": "Feature"}
{"geometry": {"coordinates": [-104.9170929961, 36.5111899872], "type": "Point"}, "id": "g5jwaCqzgeJSgpLYx03zk1KKqks=", "properties": {"@source_uri": "https://tools.usps.com/UspsToolsRestServices/rest/POLocator/findLocations", "@spider": "usps_collection_boxes", "addr:city": "CIMARRON", "addr:country": "US", "addr:postcode": "87714", "addr:state": "NM", "addr:street_address": "210 E 9TH ST", "amenity": "post_box", "collection_times": "Mo-Fr 14:30; Sa 11:00", "note": "ON 12/24 AND 12/31, THIS BOX MAY BE COLLECTED AS EARLY AS 12 NOON.", "nsi_id": "unitedstatespostalservice-a77078", "operator": "United States Postal Service", "operator:short": "USPS", "operator:type": "public", "operator:wikidata": "Q668687", "ref": "8771400000"}, "type": "Feature"}
{"geometry": {"coordinates": [-104.9170929961, 36.5111899872], "type": "Point"}, "id": "lkSo5jDmWzFwkFKga2H9hZPFSQE=", "properties": {"@source_uri": "https://tools.usps.com/UspsToolsRestServices/rest/POLocator/findLocations", "@spider": "usps_collection_boxes", "addr:city": "CIMARRON", "addr:country": "US", "addr:postcode": "87714", "addr:state": "NM", "addr:street_address": "210 E 9TH ST", "amenity": "post_box", "collection_times": "Mo-Fr 14:30; Sa 11:00", "indoor": "yes", "note": "ON 12/24 AND 12/31, THIS BOX MAY BE COLLECTED AS EARLY AS 12 NOON.", "nsi_id": "unitedstatespostalservice-a77078", "operator": "United States Postal Service", "operator:short": "USPS", "operator:type": "public", "operator:wikidata": "Q668687", "ref": "8771400001"}, "type": "Feature"}
{"geometry": {"coordinates": [-104.9477498063, 36.4593343378], "type": "Point"}, "id": "rK1t7x4cU3erUfBKFokGRAcAAnc=", "properties": {"@source_uri": "https://tools.usps.com/UspsToolsRestServices/rest/POLocator/findLocations", "@spider": "usps_collection_boxes", "addr:city": "CIMARRON", "addr:country": "US", "addr:postcode": "87714", "addr:state": "NM", "addr:street_address": "34 ORCHARD CIR", "amenity": "post_box", "collection_times": "Mo-Fr 09:00", "nsi_id": "unitedstatespostalservice-a77078", "operator": "United States Postal Service", "operator:short": "USPS", "operator:type": "public", "operator:wikidata": "Q668687", "ref": "8771400003"}, "type": "Feature"}
{"geometry": {"coordinates": [-104.9170929961, 36.5111899872], "type": "Point"}, "id": "HS8x07Ary6LTllbTW-v1cCGu1w8=", "properties": {"@source_uri": "https://tools.usps.com/UspsToolsRestServices/rest/POLocator/findLocations", "@spider": "usps_collection_boxes", "addr:city": "CIMARRON", "addr:country": "US", "addr:postcode": "87714", "addr:state": "NM", "addr:street_address": "210 E 9TH ST", "amenity": "post_box", "collection_times": "Mo-Fr 14:15; Sa 10:45", "indoor": "yes", "note": "ON 12/24 AND 12/31, THIS BOX MAY BE COLLECTED AS EARLY AS 12 NOON.", "nsi_id": "unitedstatespostalservice-a77078", "operator": "United States Postal Service", "operator:short": "USPS", "operator:type": "public", "operator:wikidata": "Q668687", "ref": "8771400004"}, "type": "Feature"}
{"geometry": {"coordinates": [-105.3693110055, 35.9904730115], "type": "Point"}, "id": "J_kIqT9zDG1ZTdsuHITuDbzMfts=", "properties": {"@source_uri": "https://tools.usps.com/UspsToolsRestServices/rest/POLocator/findLocations", "@spider": "usps_collection_boxes", "addr:city": "CLEVELAND", "addr:country": "US", "addr:postcode": "87715", "addr:state": "NM", "addr:street_address": "3177 STATE HIGHWAY 518", "amenity": "post_box", "collection_times": "Mo-Fr 11:30; Sa 10:30", "nsi_id": "unitedstatespostalservice-a77078", "operator": "United States Postal Service", "operator:short": "USPS", "operator:type": "public", "operator:wikidata": "Q668687", "ref": "8771500000"}, "type": "Feature"}
{"geometry": {"coordinates": [-105.3693110055, 35.9904730115], "type": "Point"}, "id": "9Sw7UxE9nR3FpfO2Vj2fdiFppSI=", "properties": {"@source_uri": "https://tools.usps.com/UspsToolsRestServices/rest/POLocator/findLocations", "@spider": "usps_collection_boxes", "addr:city": "CLEVELAND", "addr:country": "US", "addr:postcode": "87715", "addr:state": "NM", "addr:street_address": "3177 STATE HIGHWAY 518", "amenity": "post_box", "collection_times": "Mo-Fr 11:30; Sa 10:30", "indoor": "yes", "nsi_id": "unitedstatespostalservice-a77078", "operator": "United States Postal Service", "operator:short": "USPS", "operator:type": "public", "operator:wikidata": "Q668687", "ref": "8771500001"}, "type": "Feature"}
{"geometry": {"coordinates": [-105.3693110055, 35.9904730115], "type": "Point"}, "id": "Omy6uXLO6QsZfTkAhJdfDj_oW38=", "properties": {"@source_uri": "https://tools.usps.com/UspsToolsRestServices/rest/POLocator/findLocations", "@spider": "usps_collection_boxes", "addr:city": "CLEVELAND", "addr:country": "US", "addr:postcode": "87715", "addr:state": "NM", "addr:street_address": "3177 STATE HIGHWAY 518", "amenity": "post_box", "collection_times": "Mo-Fr 11:30; Sa 10:30", "indoor": "yes", "nsi_id": "unitedstatespostalservice-a77078", "operator": "United States Postal Service", "operator:short": "USPS", "operator:type": "public", "operator:wikidata": "Q668687", "ref": "8771500002"}, "type": "Feature"}
{"geometry": {"coordinates": [-105.3693110055, 35.9904730115], "type": "Point"}, "id": "UN0aLkS1pCCb17ekOAlaW26aw18=", "properties": {"@source_uri": "https://tools.usps.com/UspsToolsRestServices/rest/POLocator/findLocations", "@spider": "usps_collection_boxes", "addr:city": "CLEVELAND", "addr:country": "US", "addr:postcode": "87715", "addr:state": "NM", "addr:street_address": "3177 STATE HIGHWAY 518", "amenity": "post_box", "collection_times": "Mo-Fr 11:30; Sa 10:30", "indoor": "yes", "nsi_id": "unitedstatespostalservice-a77078", "operator": "United States Postal Service", "operator:short": "USPS", "operator:type": "public", "operator:wikidata": "Q668687", "ref": "8771500003"}, "type": "Feature"}
{"geometry": {"coordinates": [-105.2664600244, 36.5541000089], "type": "Point"}, "id": "7-p9a5htqy65GHCuaTzpyJai2dY=", "properties": {"@source_uri": "https://tools.usps.com/UspsToolsRestServices/rest/POLocator/findLocations", "@spider": "usps_collection_boxes", "addr:city": "EAGLE NEST", "addr:country": "US", "addr:postcode": "87718", "addr:state": "NM", "addr:street_address": "152 W THERMA DR", "amenity": "post_box", "collection_times": "Mo-Fr 13:45", "note": "ON 12/24 AND 12/31, THIS BOX MAY BE COLLECTED AS EARLY AS 12 NOON.", "nsi_id": "unitedstatespostalservice-a77078", "operator": "United States Postal Service", "operator:short": "USPS", "operator:type": "public", "operator:wikidata": "Q668687", "ref": "8771800000"}, "type": "Feature"}
{"geometry": {"coordinates": [-105.2664600244, 36.5541000089], "type": "Point"}, "id": "AWm0J2vHfyJ39oYorBUJdthTA7A=", "properties": {"@source_uri": "https://tools.usps.com/UspsToolsRestServices/rest/POLocator/findLocations", "@spider": "usps_collection_boxes", "addr:city": "EAGLE NEST", "addr:country": "US", "addr:postcode": "87718", "addr:state": "NM", "addr:street_address": "152 W THERMA DR", "amenity": "post_box", "collection_times": "Mo-Fr 13:45", "indoor": "yes", "note": "ON 12/24 AND 12/31, THIS BOX MAY BE COLLECTED AS EARLY AS 12 NOON.", "nsi_id": "unitedstatespostalservice-a77078", "operator": "United States Postal Service", "operator:short": "USPS", "operator:type": "public", "operator:wikidata": "Q668687", "ref": "8771800001"}, "type": "Feature"}
{"geometry": {"coordinates": [-105.2664600244, 36.5541000089], "type": "Point"}, "id": "XGI-w35FJz84_--1_lsh2NEapIo=", "properties": {"@source_uri": "https://tools.usps.com/UspsToolsRestServices/rest/POLocator/findLocations", "@spider": "usps_collection_boxes", "addr:city": "EAGLE NEST", "addr:country": "US", "addr:postcode": "87718", "addr:state": "NM", "addr:street_address": "152 W THERMA DR", "amenity": "post_box", "collection_times": "Mo-Fr 13:45; Sa 10:15", "indoor": "yes", "note": "ON 12/24 AND 12/31, THIS BOX MAY BE COLLECTED AS EARLY AS 12 NOON.", "nsi_id": "unitedstatespostalservice-a77078", "operator": "United States Postal Service", "operator:short": "USPS", "operator:type": "public", "operator:wikidata": "Q668687", "ref": "8771800003"}, "type": "Feature"}
{"geometry": {"coordinates": [-105.2414175548, 36.1468935298], "type": "Point"}, "id": "ItzLECaS-OTTRUhsZ6lOhJlFiDA=", "properties": {"@source_uri": "https://tools.usps.com/UspsToolsRestServices/rest/POLocator/findLocations", "@spider": "usps_collection_boxes", "addr:city": "GUADALUPITA", "addr:country": "US", "addr:postcode": "87722", "addr:state": "NM", "addr:street_address": "1447 STATE HIGHWAY 434", "amenity": "post_box", "collection_times": "Mo-Fr 11:00; Sa 10:30", "nsi_id": "unitedstatespostalservice-a77078", "operator": "United States Postal Service", "operator:short": "USPS", "operator:type": "public", "operator:wikidata": "Q668687", "ref": "8772200000"}, "type": "Feature"}
{"geometry": {"coordinates": [-105.2414175548, 36.1468935298], "type": "Point"}, "id": "n7eTF3DY3hYlN1fh5Ve09nhGSi8=", "properties": {"@source_uri": "https://tools.usps.com/UspsToolsRestServices/rest/POLocator/findLocations", "@spider": "usps_collection_boxes", "addr:city": "GUADALUPITA", "addr:country": "US", "addr:postcode": "87722", "addr:state": "NM", "addr:street_address": "1447 STATE HIGHWAY 434", "amenity": "post_box", "collection_times": "Mo-Fr 11:00; Sa 10:30", "indoor": "yes", "nsi_id": "unitedstatespostalservice-a77078", "operator": "United States Postal Service", "operator:short": "USPS", "operator:type": "public", "operator:wikidata": "Q668687", "ref": "8772200001"}, "type": "Feature"}
{"geometry": {"coordinates": [-105.2414175548, 36.1468935298], "type": "Point"}, "id": "ZPc1ytbRJ4Gnp3uZ-f1sOXnRjm0=", "properties": {"@source_uri": "https://tools.usps.com/UspsToolsRestServices/rest/POLocator/findLocations", "@spider": "usps_collection_boxes", "addr:city": "GUADALUPITA", "addr:country": "US", "addr:postcode": "87722", "addr:state": "NM", "addr:street_address": "1447 STATE HIGHWAY 434", "amenity": "post_box", "collection_times": "Mo-Fr 11:00; Sa 10:30", "indoor": "yes", "nsi_id": "unitedstatespostalservice-a77078", "operator": "United States Postal Service", "operator:short": "USPS", "operator:type": "public", "operator:wikidata": "Q668687", "ref": "8772200002"}, "type": "Feature"}
{"geometry": {"coordinates": [-105.2414175548, 36.1468935298], "type": "Point"}, "id": "4CV5wYPyrs2QsX86Pk3j_4xosFI=", "properties": {"@source_uri": "https://tools.usps.com/UspsToolsRestServices/rest/POLocator/findLocations", "@spider": "usps_collection_boxes", "addr:city": "GUADALUPITA", "addr:country": "US", "addr:postcode": "87722", "addr:state": "NM", "addr:street_address": "1447 STATE HIGHWAY 434", "amenity": "post_box", "collection_times": "Mo-Fr 10:45; Sa 10:15", "indoor": "yes", "nsi_id": "unitedstatespostalservice-a77078", "operator": "United States Postal Service", "operator:short": "USPS", "operator:type": "public", "operator:wikidata": "Q668687", "ref": "8772200003"}, "type": "Feature"}
{"geometry": {"coordinates": [-105.385241986, 36.0411409876], "type": "Point"}, "id": "-W_C6xk-tqzjjewyHUXeIEvPG-E=", "properties": {"@source_uri": "https://tools.usps.com/UspsToolsRestServices/rest/POLocator/findLocations", "@spider": "usps_collection_boxes", "addr:city": "HOLMAN", "addr:country": "US", "addr:postcode": "87723", "addr:state": "NM", "addr:street_address": "3543 STATE HIGHWAY 518", "amenity": "post_box", "collection_times": "Mo-Fr 11:30; Sa 10:45", "nsi_id": "unitedstatespostalservice-a77078", "operator": "United States Postal Service", "operator:short": "USPS", "operator:type": "public", "operator:wikidata": "Q668687", "ref": "8772300000"}, "type": "Feature"}
{"geometry": {"coordinates": [-105.385241986, 36.0411409876], "type": "Point"}, "id": "7ho9KGeAehJfM3e6Dwz9utsz2ZU=", "properties": {"@source_uri": "https://tools.usps.com/UspsToolsRestServices/rest/POLocator/findLocations", "@spider": "usps_collection_boxes", "addr:city": "HOLMAN", "addr:country": "US", "addr:postcode": "87723", "addr:state": "NM", "addr:street_address": "3543 STATE HIGHWAY 518", "amenity": "post_box", "collection_times": "Mo-Fr 11:30; Sa 10:45", "indoor": "yes", "nsi_id": "unitedstatespostalservice-a77078", "operator": "United States Postal Service", "operator:short": "USPS", "operator:type": "public", "operator:wikidata": "Q668687", "ref": "8772300001"}, "type": "Feature"}
{"geometry": {"coordinates": [-105.385241986, 36.0411409876], "type": "Point"}, "id": "f_W5wUzdE7kMan_BEFuK2GG2jl4=", "properties": {"@source_uri": "https://tools.usps.com/UspsToolsRestServices/rest/POLocator/findLocations", "@spider": "usps_collection_boxes", "addr:city": "HOLMAN", "addr:country": "US", "addr:postcode": "87723", "addr:state": "NM", "addr:street_address": "3543 STATE HIGHWAY 518", "amenity": "post_box", "collection_times": "Mo-Fr 11:30; Sa 10:45", "indoor": "yes", "nsi_id": "unitedstatespostalservice-a77078", "operator": "United States Postal Service", "operator:short": "USPS", "operator:type": "public", "operator:wikidata": "Q668687", "ref": "8772300002"}, "type": "Feature"}
{"geometry": {"coordinates": [-105.385241986, 36.0411409876], "type": "Point"}, "id": "biJzOwCXvq9YAlXYX6k5lWFu4t8=", "properties": {"@source_uri": "https://tools.usps.com/UspsToolsRestServices/rest/POLocator/findLocations", "@spider": "usps_collection_boxes", "addr:city": "HOLMAN", "addr:country": "US", "addr:postcode": "87723", "addr:state": "NM", "addr:street_address": "3543 STATE HIGHWAY 518", "amenity": "post_box", "collection_times": "Mo-Fr 11:15; Sa 10:30", "indoor": "yes", "nsi_id": "unitedstatespostalservice-a77078", "operator": "United States Postal Service", "operator:short": "USPS", "operator:type": "public", "operator:wikidata": "Q668687", "ref": "8772300003"}, "type": "Feature"}
{"geometry": {"coordinates": [-104.542099, 36.540047], "type": "Point"}, "id": "kr9lE4NjedXGnFxdGJ0XprvSP_U=", "properties": {"@source_uri": "https://tools.usps.com/UspsToolsRestServices/rest/POLocator/findLocations", "@spider": "usps_collection_boxes", "addr:city": "MAXWELL", "addr:country": "US", "addr:postcode": "87728", "addr:state": "NM", "addr:street_address": "300 MAXWELL AVE", "amenity": "post_box", "collection_times": "Mo-Fr 15:00; Sa 08:00", "note": "ON 12/24 AND 12/31, THIS BOX MAY BE COLLECTED AS EARLY AS 12 NOON.", "nsi_id": "unitedstatespostalservice-a77078", "operator": "United States Postal Service", "operator:short": "USPS", "operator:type": "public", "operator:wikidata": "Q668687", "ref": "8772800000"}, "type": "Feature"}
{"geometry": {"coordinates": [-104.541987, 36.54002], "type": "Point"}, "id": "qsgbifftafUJsIF_wAxzYnfoLbk=", "properties": {"@source_uri": "https://tools.usps.com/UspsToolsRestServices/rest/POLocator/findLocations", "@spider": "usps_collection_boxes", "addr:city": "MAXWELL", "addr:country": "US", "addr:postcode": "87728", "addr:state": "NM", "addr:street_address": "300 MAXWELL AVE", "amenity": "post_box", "collection_times": "Mo-Fr 15:00; Sa 08:00", "indoor": "yes", "note": "ON 12/24 AND 12/31, THIS BOX MAY BE COLLECTED AS EARLY AS 12 NOON.", "nsi_id": "unitedstatespostalservice-a77078", "operator": "United States Postal Service", "operator:short": "USPS", "operator:type": "public", "operator:wikidata": "Q668687", "ref": "8772800001"}, "type": "Feature"}
{"geometry": {"coordinates": [-104.5422225, 36.540039457], "type": "Point"}, "id": "q3JKdiiMnQebIfPNhxmoSDVxEqc=", "properties": {"@source_uri": "https://tools.usps.com/UspsToolsRestServices/rest/POLocator/findLocations", "@spider": "usps_collection_boxes", "addr:city": "MAXWELL", "addr:country": "US", "addr:postcode": "87728", "addr:state": "NM", "addr:street_address": "300 MAXWELL AVE", "amenity": "post_box", "collection_times": "Mo-Fr 15:00", "indoor": "yes", "note": "ON 12/24 AND 12/31, THIS BOX MAY BE COLLECTED AS EARLY AS 12 NOON.", "nsi_id": "unitedstatespostalservice-a77078", "operator": "United States Postal Service", "operator:short": "USPS", "operator:type": "public", "operator:wikidata": "Q668687", "ref": "8772800002"}, "type": "Feature"}
{"geometry": {"coordinates": [-104.255275, 36.083614], "type": "Point"}, "id": "InN9CroTZVOsljAQwkWFQeJ81W8=", "properties": {"@source_uri": "https://tools.usps.com/UspsToolsRestServices/rest/POLocator/findLocations", "@spider": "usps_collection_boxes", "addr:city": "MILLS", "addr:country": "US", "addr:postcode": "87730", "addr:state": "NM", "addr:street_address": "100 WILSON AVE", "amenity": "post_box", "collection_times": "Mo-Fr 13:30; Sa 11:00", "indoor": "yes", "note": "ON 12/24 AND 12/31, THIS BOX MAY BE COLLECTED AS EARLY AS 12 NOON.", "nsi_id": "unitedstatespostalservice-a77078", "operator": "United States Postal Service", "operator:short": "USPS", "operator:type": "public", "operator:wikidata": "Q668687", "ref": "8773000001"}, "type": "Feature"}
{"geometry": {"coordinates": [-104.255308, 36.083614], "type": "Point"}, "id": "H37xyKn7pSIMdV8MCajhwYOLLcI=", "properties": {"@source_uri": "https://tools.usps.com/UspsToolsRestServices/rest/POLocator/findLocations", "@spider": "usps_collection_boxes", "addr:city": "MILLS", "addr:country": "US", "addr:postcode": "87730", "addr:state": "NM", "addr:street_address": "100 WILSON AVE", "amenity": "post_box", "collection_times": "Mo-Fr 13:30; Sa 11:00", "note": "ON 12/24 AND 12/31, THIS BOX MAY BE COLLECTED AS EARLY AS 12 NOON.", "nsi_id": "unitedstatespostalservice-a77078", "operator": "United States Postal Service", "operator:short": "USPS", "operator:type": "public", "operator:wikidata": "Q668687", "ref": "8773000002"}, "type": "Feature"}
{"geometry": {"coordinates": [-104.255209083, 36.083603558], "type": "Point"}, "id": "mHsvVban_4TIeiPtrdHr6rOOhoM=", "properties": {"@source_uri": "https://tools.usps.com/UspsToolsRestServices/rest/POLocator/findLocations", "@spider": "usps_collection_boxes", "addr:city": "MILLS", "addr:country": "US", "addr:postcode": "87730", "addr:state": "NM", "addr:street_address": "100 WILSON AVE", "amenity": "post_box", "collection_times": "Mo-Fr 13:30; Sa 11:00", "indoor": "yes", "note": "ON 12/24 AND 12/31, THIS BOX MAY BE COLLECTED AS EARLY AS 12 NOON.", "nsi_id": "unitedstatespostalservice-a77078", "operator": "United States Postal Service", "operator:short": "USPS", "operator:type": "public", "operator:wikidata": "Q668687", "ref": "8773000003"}, "type": "Feature"}
{"geometry": {"coordinates": [-105.2761759913, 35.6524640069], "type": "Point"}, "id": "RYJdD-gL78JhSVWO-jOzsODDe3o=", "properties": {"@source_uri": "https://tools.usps.com/UspsToolsRestServices/rest/POLocator/findLocations", "@spider": "usps_collection_boxes", "addr:city": "MONTEZUMA", "addr:country": "US", "addr:postcode": "87731", "addr:state": "NM", "addr:street_address": "4 CAMPUS DR", "amenity": "post_box", "collection_times": "Mo-Fr 16:30; Sa 11:30", "note": "ON 12/24 AND 12/31, THIS BOX MAY BE COLLECTED AS EARLY AS 12 NOON.", "nsi_id": "unitedstatespostalservice-a77078", "operator": "United States Postal Service", "operator:short": "USPS", "operator:type": "public", "operator:wikidata": "Q668687", "ref": "8773100000"}, "type": "Feature"}
{"geometry": {"coordinates": [-105.2761759913, 35.6524640069], "type": "Point"}, "id": "Qaav8q_goGH0FySLVLVF8LwVjWs=", "properties": {"@source_uri": "https://tools.usps.com/UspsToolsRestServices/rest/POLocator/findLocations", "@spider": "usps_collection_boxes", "addr:city": "MONTEZUMA", "addr:country": "US", "addr:postcode": "87731", "addr:state": "NM", "addr:street_address": "4 CAMPUS DR", "amenity": "post_box", "collection_times": "Mo-Fr 16:45; Sa 11:45", "indoor": "yes", "note": "ON 12/24 AND 12/31, THIS BOX MAY BE COLLECTED AS EARLY AS 12 NOON.", "nsi_id": "unitedstatespostalservice-a77078", "operator": "United States Postal Service", "operator:short": "USPS", "operator:type": "public", "operator:wikidata": "Q668687", "ref": "8773100001"}, "type": "Feature"}
{"geometry": {"coordinates": [-105.2761759913, 35.6524640069], "type": "Point"}, "id": "_5HPLENQcPXEuVGTj631NYf-e8Q=", "properties": {"@source_uri": "https://tools.usps.com/UspsToolsRestServices/rest/POLocator/findLocations", "@spider": "usps_collection_boxes", "addr:city": "MONTEZUMA", "addr:country": "US", "addr:postcode": "87731", "addr:state": "NM", "addr:street_address": "4 CAMPUS DR", "amenity": "post_box", "collection_times": "Mo-Fr 16:45; Sa 11:45", "indoor": "yes", "note": "ON 12/24 AND 12/31, THIS BOX MAY BE COLLECTED AS EARLY AS 12 NOON.", "nsi_id": "unitedstatespostalservice-a77078", "operator": "United States Postal Service", "operator:short": "USPS", "operator:type": "public", "operator:wikidata": "Q668687", "ref": "8773100002"}, "type": "Feature"}
{"geometry": {"coordinates": [-105.3357129, 35.9737989], "type": "Point"}, "id": "tAM79dg-zu1ykGmUOcrvE8KhKu0=", "properties": {"@source_uri": "https://tools.usps.com/UspsToolsRestServices/rest/POLocator/findLocations", "@spider": "usps_collection_boxes", "addr:city": "MORA", "addr:country": "US", "addr:postcode": "87732", "addr:state": "NM", "addr:street_address": "401 MAIN ST", "amenity": "post_box", "collection_times": "Mo-Fr 15:15; Sa 10:45", "indoor": "yes", "note": "ON 12/24 AND 12/31, THIS BOX MAY BE COLLECTED AS EARLY AS 12 NOON.", "nsi_id": "unitedstatespostalservice-a77078", "operator": "United States Postal Service", "operator:short": "USPS", "operator:type": "public", "operator:wikidata": "Q668687", "ref": "8773200001"}, "type": "Feature"}
{"geometry": {"coordinates": [-105.3357129, 35.9737989], "type": "Point"}, "id": "Lp3At46nwBu7_NHr4sAmem3-grk=", "properties": {"@source_uri": "https://tools.usps.com/UspsToolsRestServices/rest/POLocator/findLocations", "@spider": "usps_collection_boxes", "addr:city": "MORA", "addr:country": "US", "addr:postcode": "87732", "addr:state": "NM", "addr:street_address": "401 MAIN ST", "amenity": "post_box", "collection_times": "Mo-Fr 15:15; Sa 10:45", "note": "ON 12/24 AND 12/31, THIS BOX MAY BE COLLECTED AS EARLY AS 12 NOON.", "nsi_id": "unitedstatespostalservice-a77078", "operator": "United States Postal Service", "operator:short": "USPS", "operator:type": "public", "operator:wikidata": "Q668687", "ref": "8773200002"}, "type": "Feature"}
{"geometry": {"coordinates": [-105.3357129, 35.9737989], "type": "Point"}, "id": "8ggjhWulysJG4zckYQl80gSDou8=", "properties": {"@source_uri": "https://tools.usps.com/UspsToolsRestServices/rest/POLocator/findLocations", "@spider": "usps_collection_boxes", "addr:city": "MORA", "addr:country": "US", "addr:postcode": "87732", "addr:state": "NM", "addr:street_address": "401 MAIN ST", "amenity": "post_box", "collection_times": "Mo-Fr 15:15; Sa 10:45", "indoor": "yes", "note": "ON 12/24 AND 12/31, THIS BOX MAY BE COLLECTED AS EARLY AS 12 NOON.", "nsi_id": "unitedstatespostalservice-a77078", "operator": "United States Postal Service", "operator:short": "USPS", "operator:type": "public", "operator:wikidata": "Q668687", "ref": "8773200003"}, "type": "Feature"}
{"geometry": {"coordinates": [-105.3357129, 35.9737989], "type": "Point"}, "id": "As2evOxLTsE57Ozj9k82P_WEZBk=", "properties": {"@source_uri": "https://tools.usps.com/UspsToolsRestServices/rest/POLocator/findLocations", "@spider": "usps_collection_boxes", "addr:city": "MORA", "addr:country": "US", "addr:postcode": "87732", "addr:state": "NM", "addr:street_address": "401 MAIN ST", "amenity": "post_box", "collection_times": "Mo-Fr 15:15; Sa 10:45", "indoor": "yes", "note": "ON 12/24 AND 12/31, THIS BOX MAY BE COLLECTED AS EARLY AS 12 NOON.", "nsi_id": "unitedstatespostalservice-a77078", "operator": "United States Postal Service", "operator:short": "USPS", "operator:type": "public", "operator:wikidata": "Q668687", "ref": "8773200004"}, "type": "Feature"}
{"geometry": {"coordinates": [-103.957269, 35.77699], "type": "Point"}, "id": "znQLvWhAF0OwPg--nkHEstDsYLk=", "properties": {"@source_uri": "https://tools.usps.com/UspsToolsRestServices/rest/POLocator/findLocations", "@spider": "usps_collection_boxes", "addr:city": "MOSQUERO", "addr:country": "US", "addr:postcode": "87733", "addr:state": "NM", "addr:street_address": "34 MAIN ST", "amenity": "post_box", "collection_times": "Mo-Fr 14:15; Sa 10:45", "note": "ON 12/24 AND 12/31, THIS BOX MAY BE COLLECTED AS EARLY AS 12 NOON.", "nsi_id": "unitedstatespostalservice-a77078", "operator": "United States Postal Service", "operator:short": "USPS", "operator:type": "public", "operator:wikidata": "Q668687", "ref": "8773300000"}, "type": "Feature"}
{"geometry": {"coordinates": [-103.957269, 35.77699], "type": "Point"}, "id": "BhWEJHGW3C3Kz_krZc1aTL02vbo=", "properties": {"@source_uri": "https://tools.usps.com/UspsToolsRestServices/rest/POLocator/findLocations", "@spider": "usps_collection_boxes", "addr:city": "MOSQUERO", "addr:country": "US", "addr:postcode": "87733", "addr:state": "NM", "addr:street_address": "34 MAIN ST", "amenity": "post_box", "collection_times": "Mo-Fr 14:15; Sa 10:45", "indoor": "yes", "note": "ON 12/24 AND 12/31, THIS BOX MAY BE COLLECTED AS EARLY AS 12 NOON.", "nsi_id": "unitedstatespostalservice-a77078", "operator": "United States Postal Service", "operator:short": "USPS", "operator:type": "public", "operator:wikidata": "Q668687", "ref": "8773300001"}, "type": "Feature"}
{"geometry": {"coordinates": [-103.9573035, 35.776957485], "type": "Point"}, "id": "ebxTEKF56qwDhfifkpEAmG15Q5U=", "properties": {"@source_uri": "https://tools.usps.com/UspsToolsRestServices/rest/POLocator/findLocations", "@spider": "usps_collection_boxes", "addr:city": "MOSQUERO", "addr:country": "US", "addr:postcode": "87733", "addr:state": "NM", "addr:street_address": "34 MAIN ST", "amenity": "post_box", "collection_times": "Mo-Fr 14:00; Sa 10:30", "indoor": "yes", "note": "ON 12/24 AND 12/31, THIS BOX MAY BE COLLECTED AS EARLY AS 12 NOON.", "nsi_id": "unitedstatespostalservice-a77078", "operator": "United States Postal Service", "operator:short": "USPS", "operator:type": "public", "operator:wikidata": "Q668687", "ref": "8773300002"}, "type": "Feature"}
{"geometry": {"coordinates": [-105.0479120412, 36.1746059899], "type": "Point"}, "id": "P0sxafUXfOb53HKSnNKNaGHZixw=", "properties": {"@source_uri": "https://tools.usps.com/UspsToolsRestServices/rest/POLocator/findLocations", "@spider": "usps_collection_boxes", "addr:city": "OCATE", "addr:country": "US", "addr:postcode": "87734", "addr:state": "NM", "addr:street_address": "1730 STATE HIGHWAY 120", "amenity": "post_box", "collection_times": "Mo-Fr 11:45; Sa 11:15", "nsi_id": "unitedstatespostalservice-a77078", "operator": "United States Postal Service", "operator:short": "USPS", "operator:type": "public", "operator:wikidata": "Q668687", "ref": "8773400000"}, "type": "Feature"}
{"geometry": {"coordinates": [-105.0479120412, 36.1746059899], "type": "Point"}, "id": "kV5s0dZnHIbfAhKGBIqg4NwqD0A=", "properties": {"@source_uri": "https://tools.usps.com/UspsToolsRestServices/rest/POLocator/findLocations", "@spider": "usps_collection_boxes", "addr:city": "OCATE", "addr:country": "US", "addr:postcode": "87734", "addr:state": "NM", "addr:street_address": "1730 STATE HIGHWAY 120", "amenity": "post_box", "collection_times": "Mo-Fr 11:45; Sa 11:15", "indoor": "yes", "nsi_id": "unitedstatespostalservice-a77078", "operator": "United States Postal Service", "operator:short": "USPS", "operator:type": "public", "operator:wikidata": "Q668687", "ref": "8773400001"}, "type": "Feature"}
{"geometry": {"coordinates": [-105.0479120412, 36.1746059899], "type": "Point"}, "id": "tAiVTBSAfMFOey7j9zyxQ48fRKs=", "properties": {"@source_uri": "https://tools.usps.com/UspsToolsRestServices/rest/POLocator/findLocations", "@spider": "usps_collection_boxes", "addr:city": "OCATE", "addr:country": "US", "addr:postcode": "87734", "addr:state": "NM", "addr:street_address": "1730 STATE HIGHWAY 120", "amenity": "post_box", "collection_times": "Mo-Fr 11:45; Sa 11:15", "indoor": "yes", "nsi_id": "unitedstatespostalservice-a77078", "operator": "United States Postal Service", "operator:short": "USPS", "operator:type": "public", "operator:wikidata": "Q668687", "ref": "8773400002"}, "type": "Feature"}
{"geometry": {"coordinates": [-105.117791349, 36.0586855426], "type": "Point"}, "id": "cV-0SdjoqdTkjvNNqF7utDO6ljo=", "properties": {"@source_uri": "https://tools.usps.com/UspsToolsRestServices/rest/POLocator/findLocations", "@spider": "usps_collection_boxes", "addr:city": "OJO FELIZ", "addr:country": "US", "addr:postcode": "87735", "addr:state": "NM", "addr:street_address": "138 SAN ISIDRO RD", "amenity": "post_box", "collection_times": "Mo-Fr 11:15", "nsi_id": "unitedstatespostalservice-a77078", "operator": "United States Postal Service", "operator:short": "USPS", "operator:type": "public", "operator:wikidata": "Q668687", "ref": "8773500000"}, "type": "Feature"}
{"geometry": {"coordinates": [-105.117791349, 36.0586855426], "type": "Point"}, "id": "FGUCAPv9mnrNNDEE4XvOTPBdttg=", "properties": {"@source_uri": "https://tools.usps.com/UspsToolsRestServices/rest/POLocator/findLocations", "@spider": "usps_collection_boxes", "addr:city": "OJO FELIZ", "addr:country": "US", "addr:postcode": "87735", "addr:state": "NM", "addr:street_address": "138 SAN ISIDRO RD", "amenity": "post_box", "collection_times": "Mo-Fr 11:15", "indoor": "yes", "nsi_id": "unitedstatespostalservice-a77078", "operator": "United States Postal Service", "operator:short": "USPS", "operator:type": "public", "operator:wikidata": "Q668687", "ref": "8773500001"}, "type": "Feature"}
{"geometry": {"coordinates": [-105.117791349, 36.0586855426], "type": "Point"}, "id": "BOjsvDr3iwCbE_9zC5lnnVN2knM=", "properties": {"@source_uri": "https://tools.usps.com/UspsToolsRestServices/rest/POLocator/findLocations", "@spider": "usps_collection_boxes", "addr:city": "OJO FELIZ", "addr:country": "US", "addr:postcode": "87735", "addr:state": "NM", "addr:street_address": "138 SAN ISIDRO RD", "amenity": "post_box", "collection_times": "Mo-Fr 11:15", "indoor": "yes", "nsi_id": "unitedstatespostalservice-a77078", "operator": "United States Postal Service", "operator:short": "USPS", "operator:type": "public", "operator:wikidata": "Q668687", "ref": "8773500002"}, "type": "Feature"}
{"geometry": {"coordinates": [-105.212833027, 35.9910809929], "type": "Point"}, "id": "hDKc0VWTY3XdtMOTSlKCZveARTc=", "properties": {"@source_uri": "https://tools.usps.com/UspsToolsRestServices/rest/POLocator/findLocations", "@spider": "usps_collection_boxes", "addr:city": "RAINSVILLE", "addr:country": "US", "addr:postcode": "87736", "addr:state": "NM", "addr:street_address": "42 COUNTY ROAD A029", "amenity": "post_box", "collection_times": "Mo-Sa 08:45", "nsi_id": "unitedstatespostalservice-a77078", "operator": "United States Postal Service", "operator:short": "USPS", "operator:type": "public", "operator:wikidata": "Q668687", "ref": "8773600000"}, "type": "Feature"}
{"geometry": {"coordinates": [-105.212833027, 35.9910809929], "type": "Point"}, "id": "RL7Ney97LYlP5E9dVLaL4ywoutw=", "properties": {"@source_uri": "https://tools.usps.com/UspsToolsRestServices/rest/POLocator/findLocations", "@spider": "usps_collection_boxes", "addr:city": "RAINSVILLE", "addr:country": "US", "addr:postcode": "87736", "addr:state": "NM", "addr:street_address": "42 COUNTY ROAD A029", "amenity": "post_box", "collection_times": "Mo-Sa 08:45", "indoor": "yes", "nsi_id": "unitedstatespostalservice-a77078", "operator": "United States Postal Service", "operator:short": "USPS", "operator:type": "public", "operator:wikidata": "Q668687", "ref": "8773600001"}, "type": "Feature"}
{"geometry": {"coordinates": [-105.212833027, 35.9910809929], "type": "Point"}, "id": "7-weRtU4ERiJF_j6wYY0CRJev5o=", "properties": {"@source_uri": "https://tools.usps.com/UspsToolsRestServices/rest/POLocator/findLocations", "@spider": "usps_collection_boxes", "addr:city": "RAINSVILLE", "addr:country": "US", "addr:postcode": "87736", "addr:state": "NM", "addr:street_address": "42 COUNTY ROAD A029", "amenity": "post_box", "collection_times": "Mo-Sa 08:45", "indoor": "yes", "nsi_id": "unitedstatespostalservice-a77078", "operator": "United States Postal Service", "operator:short": "USPS", "operator:type": "public", "operator:wikidata": "Q668687", "ref": "8773600002"}, "type": "Feature"}
{"geometry": {"coordinates": [-105.212833027, 35.9910809929], "type": "Point"}, "id": "uX5PLpFbiSmN0dFWuqAU_YCZ_-U=", "properties": {"@source_uri": "https://tools.usps.com/UspsToolsRestServices/rest/POLocator/findLocations", "@spider": "usps_collection_boxes", "addr:city": "RAINSVILLE", "addr:country": "US", "addr:postcode": "87736", "addr:state": "NM", "addr:street_address": "42 COUNTY ROAD A029", "amenity": "post_box", "collection_times": "Mo-Sa 08:45", "indoor": "yes", "nsi_id": "unitedstatespostalservice-a77078", "operator": "United States Postal Service", "operator:short": "USPS", "operator:type": "public", "operator:wikidata": "Q668687", "ref": "8773600003"}, "type": "Feature"}
{"geometry": {"coordinates": [-104.440105, 36.902282], "type": "Point"}, "id": "CP_0pDFD7fjVL3UpMKOaBWg4Hz8=", "properties": {"@source_uri": "https://tools.usps.com/UspsToolsRestServices/rest/POLocator/findLocations", "@spider": "usps_collection_boxes", "addr:city": "RATON", "addr:country": "US", "addr:postcode": "87740", "addr:state": "NM", "addr:street_address": "245 PARK AVE", "amenity": "post_box", "collection_times": "Mo-Sa 14:30", "note": "ON 12/24 AND 12/31, THIS BOX MAY BE COLLECTED AS EARLY AS 12 NOON.", "nsi_id": "unitedstatespostalservice-a77078", "operator": "United States Postal Service", "operator:short": "USPS", "operator:type": "public", "operator:wikidata": "Q668687", "ref": "8774000000"}, "type": "Feature"}
{"geometry": {"coordinates": [-104.440105, 36.902282], "type": "Point"}, "id": "3HMvaMEEHHA8a2_qDuaM9iZc-BM=", "properties": {"@source_uri": "https://tools.usps.com/UspsToolsRestServices/rest/POLocator/findLocations", "@spider": "usps_collection_boxes", "addr:city": "RATON", "addr:country": "US", "addr:postcode": "87740", "addr:state": "NM", "addr:street_address": "245 PARK AVE", "amenity": "post_box", "collection_times": "Mo-Sa 14:30", "indoor": "yes", "note": "ON 12/24 AND 12/31, THIS BOX MAY BE COLLECTED AS EARLY AS 12 NOON.", "nsi_id": "unitedstatespostalservice-a77078", "operator": "United States Postal Service", "operator:short": "USPS", "operator:type": "public", "operator:wikidata": "Q668687", "ref": "8774000002"}, "type": "Feature"}
{"geometry": {"coordinates": [-104.440534648, 36.902339656], "type": "Point"}, "id": "GtoYT7TZyhPL0r12MrYdDNIoqsI=", "properties": {"@source_uri": "https://tools.usps.com/UspsToolsRestServices/rest/POLocator/findLocations", "@spider": "usps_collection_boxes", "addr:city": "RATON", "addr:country": "US", "addr:postcode": "87740", "addr:state": "NM", "addr:street_address": "245 PARK AVE", "amenity": "post_box", "collection_times": "Mo-Sa 14:30", "note": "ON 12/24 AND 12/31, THIS BOX MAY BE COLLECTED AS EARLY AS 12 NOON.", "nsi_id": "unitedstatespostalservice-a77078", "operator": "United States Postal Service", "operator:short": "USPS", "operator:type": "public", "operator:wikidata": "Q668687", "ref": "8774000010"}, "type": "Feature"}
{"geometry": {"coordinates": [-104.440105, 36.902282], "type": "Point"}, "id": "te3H0FFIC9NtpneX_qfphasPlh4=", "properties": {"@source_uri": "https://tools.usps.com/UspsToolsRestServices/rest/POLocator/findLocations", "@spider": "usps_collection_boxes", "addr:city": "RATON", "addr:country": "US", "addr:postcode": "87740", "addr:state": "NM", "addr:street_address": "245 PARK AVE", "amenity": "post_box", "collection_times": "Mo-Sa 14:30", "note": "ON 12/24 AND 12/31, THIS BOX MAY BE COLLECTED AS EARLY AS 12 NOON.", "nsi_id": "unitedstatespostalservice-a77078", "operator": "United States Postal Service", "operator:short": "USPS", "operator:type": "public", "operator:wikidata": "Q668687", "ref": "8774000013"}, "type": "Feature"}
{"geometry": {"coordinates": [-104.440105, 36.902282], "type": "Point"}, "id": "HDvXsG5fIlDNHIYXVf18eQmJ6Ds=", "properties": {"@source_uri": "https://tools.usps.com/UspsToolsRestServices/rest/POLocator/findLocations", "@spider": "usps_collection_boxes", "addr:city": "RATON", "addr:country": "US", "addr:postcode": "87740", "addr:state": "NM", "addr:street_address": "245 PARK AVE", "amenity": "post_box", "collection_times": "Mo-Sa 14:30", "indoor": "yes", "note": "ON 12/24 AND 12/31, THIS BOX MAY BE COLLECTED AS EARLY AS 12 NOON.", "nsi_id": "unitedstatespostalservice-a77078", "operator": "United States Postal Service", "operator:short": "USPS", "operator:type": "public", "operator:wikidata": "Q668687", "ref": "8774000014"}, "type": "Feature"}
{"geometry": {"coordinates": [-104.4405346481, 36.9023396561], "type": "Point"}, "id": "OgjHEP7jG0M4K2pvTFXA-BLQrRU=", "properties": {"@source_uri": "https://tools.usps.com/UspsToolsRestServices/rest/POLocator/findLocations", "@spider": "usps_collection_boxes", "addr:city": "RATON", "addr:country": "US", "addr:postcode": "87740", "addr:state": "NM", "addr:street_address": "245 PARK AVE", "amenity": "post_box", "collection_times": "Mo-Sa 14:30", "indoor": "yes", "note": "ON 12/24 AND 12/31, THIS BOX MAY BE COLLECTED AS EARLY AS 12 NOON.", "nsi_id": "unitedstatespostalservice-a77078", "operator": "United States Postal Service", "operator:short": "USPS", "operator:type": "public", "operator:wikidata": "Q668687", "ref": "8774000015"}, "type": "Feature"}
{"geometry": {"coordinates": [-105.4009410392, 35.8432759791], "type": "Point"}, "id": "-50oyfvd8Po4R0GMH0Zp-LHNhMQ=", "properties": {"@source_uri": "https://tools.usps.com/UspsToolsRestServices/rest/POLocator/findLocations", "@spider": "usps_collection_boxes", "addr:city": "ROCIADA", "addr:country": "US", "addr:postcode": "87742", "addr:state": "NM", "addr:street_address": "302 STATE HIGHWAY 105", "amenity": "post_box", "collection_times": "Mo-Fr 10:00; Sa 09:00", "nsi_id": "unitedstatespostalservice-a77078", "operator": "United States Postal Service", "operator:short": "USPS", "operator:type": "public", "operator:wikidata": "Q668687", "ref": "8774200000"}, "type": "Feature"}
{"geometry": {"coordinates": [-105.4009410392, 35.8432759791], "type": "Point"}, "id": "9xiSrFbYpaNATwtDMG8P6w_f0z8=", "properties": {"@source_uri": "https://tools.usps.com/UspsToolsRestServices/rest/POLocator/findLocations", "@spider": "usps_collection_boxes", "addr:city": "ROCIADA", "addr:country": "US", "addr:postcode": "87742", "addr:state": "NM", "addr:street_address": "302 STATE HIGHWAY 105", "amenity": "post_box", "collection_times": "Mo-Fr 12:45; Sa 10:45", "indoor": "yes", "note": "ON 12/24 AND 12/31, THIS BOX MAY BE COLLECTED AS EARLY AS 12 NOON.", "nsi_id": "unitedstatespostalservice-a77078", "operator": "United States Postal Service", "operator:short": "USPS", "operator:type": "public", "operator:wikidata": "Q668687", "ref": "8774200001"}, "type": "Feature"}
{"geometry": {"coordinates": [-105.4009410392, 35.8432759791], "type": "Point"}, "id": "MVr1xpU3GyM_aIqI8MtMzsgaOLA=", "properties": {"@source_uri": "https://tools.usps.com/UspsToolsRestServices/rest/POLocator/findLocations", "@spider": "usps_collection_boxes", "addr:city": "ROCIADA", "addr:country": "US", "addr:postcode": "87742", "addr:state": "NM", "addr:street_address": "302 STATE HIGHWAY 105", "amenity": "post_box", "collection_times": "Mo-Fr 12:45; Sa 10:45", "indoor": "yes", "note": "ON 12/24 AND 12/31, THIS BOX MAY BE COLLECTED AS EARLY AS 12 NOON.", "nsi_id": "unitedstatespostalservice-a77078", "operator": "United States Postal Service", "operator:short": "USPS", "operator:type": "public", "operator:wikidata": "Q668687", "ref": "8774200002"}, "type": "Feature"}
{"geometry": {"coordinates": [-104.196676, 35.943925], "type": "Point"}, "id": "6CP4xo8GDrXX0XX1oC8XNZyE6Go=", "properties": {"@source_uri": "https://tools.usps.com/UspsToolsRestServices/rest/POLocator/findLocations", "@spider": "usps_collection_boxes", "addr:city": "ROY", "addr:country": "US", "addr:postcode": "87743", "addr:state": "NM", "addr:street_address": "350 RICHELIEU ST", "amenity": "post_box", "collection_times": "Mo-Fr 14:45; Sa 09:45", "note": "ON 12/24 AND 12/31, THIS BOX MAY BE COLLECTED AS EARLY AS 12 NOON.", "nsi_id": "unitedstatespostalservice-a77078", "operator": "United States Postal Service", "operator:short": "USPS", "operator:type": "public", "operator:wikidata": "Q668687", "ref": "8774300000"}, "type": "Feature"}
{"geometry": {"coordinates": [-104.196676, 35.943925], "type": "Point"}, "id": "idpX8vZY5vqNt_hVEjrs0RWFpZk=", "properties": {"@source_uri": "https://tools.usps.com/UspsToolsRestServices/rest/POLocator/findLocations", "@spider": "usps_collection_boxes", "addr:city": "ROY", "addr:country": "US", "addr:postcode": "87743", "addr:state": "NM", "addr:street_address": "350 RICHELIEU ST", "amenity": "post_box", "collection_times": "Mo-Fr 14:45; Sa 09:45", "indoor": "yes", "note": "ON 12/24 AND 12/31, THIS BOX MAY BE COLLECTED AS EARLY AS 12 NOON.", "nsi_id": "unitedstatespostalservice-a77078", "operator": "United States Postal Service", "operator:short": "USPS", "operator:type": "public", "operator:wikidata": "Q668687", "ref": "8774300001"}, "type": "Feature"}
{"geometry": {"coordinates": [-104.196840045, 35.94417936], "type": "Point"}, "id": "KBi2kpB7O3l4TQCQ98lUaScb4vM=", "properties": {"@source_uri": "https://tools.usps.com/UspsToolsRestServices/rest/POLocator/findLocations", "@spider": "usps_collection_boxes", "addr:city": "ROY", "addr:country": "US", "addr:postcode": "87743", "addr:state": "NM", "addr:street_address": "350 RICHELIEU ST", "amenity": "post_box", "collection_times": "Mo-Fr 14:45", "indoor": "yes", "note": "ON 12/24 AND 12/31, THIS BOX MAY BE COLLECTED AS EARLY AS 12 NOON.", "nsi_id": "unitedstatespostalservice-a77078", "operator": "United States Postal Service", "operator:short": "USPS", "operator:type": "public", "operator:wikidata": "Q668687", "ref": "8774300002"}, "type": "Feature"}
{"geometry": {"coordinates": [-104.066449, 35.851622], "type": "Point"}, "id": "dBtQCGS3GReEAzUEoCdQppA9BDo=", "properties": {"@source_uri": "https://tools.usps.com/UspsToolsRestServices/rest/POLocator/findLocations", "@spider": "usps_collection_boxes", "addr:city": "SOLANO", "addr:country": "US", "addr:postcode": "87746", "addr:state": "NM", "addr:street_address": "2979 HIGHWAY 39", "amenity": "post_box", "collection_times": "Mo-Fr 12:00; Sa 10:00", "nsi_id": "unitedstatespostalservice-a77078", "operator": "United States Postal Service", "operator:short": "USPS", "operator:type": "public", "operator:wikidata": "Q668687", "ref": "8774600000"}, "type": "Feature"}
{"geometry": {"coordinates": [-104.066547, 35.851671], "type": "Point"}, "id": "7ZKIPOEDBn2IItZGZEAQRaNJ_zQ=", "properties": {"@source_uri": "https://tools.usps.com/UspsToolsRestServices/rest/POLocator/findLocations", "@spider": "usps_collection_boxes", "addr:city": "SOLANO", "addr:country": "US", "addr:postcode": "87746", "addr:state": "NM", "addr:street_address": "2979 HIGHWAY 39", "amenity": "post_box", "collection_times": "Mo-Fr 12:00; Sa 10:00", "indoor": "yes", "nsi_id": "unitedstatespostalservice-a77078", "operator": "United States Postal Service", "operator:short": "USPS", "operator:type": "public", "operator:wikidata": "Q668687", "ref": "8774600001"}, "type": "Feature"}
{"geometry": {"coordinates": [-104.595626, 36.362174], "type": "Point"}, "id": "QygH9kDIlgEcnIPWXn_SdAu1f_s=", "properties": {"@source_uri": "https://tools.usps.com/UspsToolsRestServices/rest/POLocator/findLocations", "@spider": "usps_collection_boxes", "addr:city": "SPRINGER", "addr:country": "US", "addr:postcode": "87747", "addr:state": "NM", "addr:street_address": "610 5TH ST", "amenity": "post_box", "collection_times": "Mo-Fr 14:15; Sa 09:00", "note": "ON 12/24 AND 12/31, THIS BOX MAY BE COLLECTED AS EARLY AS 12 NOON.", "nsi_id": "unitedstatespostalservice-a77078", "operator": "United States Postal Service", "operator:short": "USPS", "operator:type": "public", "operator:wikidata": "Q668687", "ref": "8774700001"}, "type": "Feature"}
{"geometry": {"coordinates": [-104.59573, 36.362201], "type": "Point"}, "id": "3gC2A06PbCk-23ED0ceMpCCYY8g=", "properties": {"@source_uri": "https://tools.usps.com/UspsToolsRestServices/rest/POLocator/findLocations", "@spider": "usps_collection_boxes", "addr:city": "SPRINGER", "addr:country": "US", "addr:postcode": "87747", "addr:state": "NM", "addr:street_address": "610 5TH ST", "amenity": "post_box", "collection_times": "Mo-Fr 15:00; Sa 09:15", "indoor": "yes", "note": "ON 12/24 AND 12/31, THIS BOX MAY BE COLLECTED AS EARLY AS 12 NOON.", "nsi_id": "unitedstatespostalservice-a77078", "operator": "United States Postal Service", "operator:short": "USPS", "operator:type": "public", "operator:wikidata": "Q668687", "ref": "8774700002"}, "type": "Feature"}
{"geometry": {"coordinates": [-104.59467, 36.3621704779], "type": "Point"}, "id": "29MiRd3ei8RsN2ah-Mxy9QXvsIE=", "properties": {"@source_uri": "https://tools.usps.com/UspsToolsRestServices/rest/POLocator/findLocations", "@spider": "usps_collection_boxes", "addr:city": "SPRINGER", "addr:country": "US", "addr:postcode": "87747", "addr:state": "NM", "addr:street_address": "610 5TH ST", "amenity": "post_box", "collection_times": "Mo-Fr 15:00", "indoor": "yes", "note": "ON 12/24 AND 12/31, THIS BOX MAY BE COLLECTED AS EARLY AS 12 NOON.", "nsi_id": "unitedstatespostalservice-a77078", "operator": "United States Postal Service", "operator:short": "USPS", "operator:type": "public", "operator:wikidata": "Q668687", "ref": "8774700004"}, "type": "Feature"}
{"geometry": {"coordinates": [-105.0858194676, 36.5432239743], "type": "Point"}, "id": "glOMfEM8o2U5J0MejbWidR47QoY=", "properties": {"@source_uri": "https://tools.usps.com/UspsToolsRestServices/rest/POLocator/findLocations", "@spider": "usps_collection_boxes", "addr:city": "UTE PARK", "addr:country": "US", "addr:postcode": "87749", "addr:state": "NM", "addr:street_address": "9 HUMMINGBIRD LN", "amenity": "post_box", "collection_times": "Mo-Fr 14:15; Sa 09:45", "note": "ON 12/24 AND 12/31, THIS BOX MAY BE COLLECTED AS EARLY AS 12 NOON.", "nsi_id": "unitedstatespostalservice-a77078", "operator": "United States Postal Service", "operator:short": "USPS", "operator:type": "public", "operator:wikidata": "Q668687", "ref": "8774900000"}, "type": "Feature"}
{"geometry": {"coordinates": [-105.0858194676, 36.5432239743], "type": "Point"}, "id": "zg9gIroFgVRlPVikyXlbHATRlME=", "properties": {"@source_uri": "https://tools.usps.com/UspsToolsRestServices/rest/POLocator/findLocations", "@spider": "usps_collection_boxes", "addr:city": "UTE PARK", "addr:country": "US", "addr:postcode": "87749", "addr:state": "NM", "addr:street_address": "9 HUMMINGBIRD LN", "amenity": "post_box", "collection_times": "Mo-Fr 12:30; Sa 09:45", "indoor": "yes", "note": "ON 12/24 AND 12/31, THIS BOX MAY BE COLLECTED AS EARLY AS 12 NOON.", "nsi_id": "unitedstatespostalservice-a77078", "operator": "United States Postal Service", "operator:short": "USPS", "operator:type": "public", "operator:wikidata": "Q668687", "ref": "8774900001"}, "type": "Feature"}
{"geometry": {"coordinates": [-105.0858194676, 36.5432239743], "type": "Point"}, "id": "sc3b06m7_TckBmgOJswipvpcn4M=", "properties": {"@source_uri": "https://tools.usps.com/UspsToolsRestServices/rest/POLocator/findLocations", "@spider": "usps_collection_boxes", "addr:city": "UTE PARK", "addr:country": "US", "addr:postcode": "87749", "addr:state": "NM", "addr:street_address": "9 HUMMINGBIRD LN", "amenity": "post_box", "collection_times": "Mo-Fr 12:30; Sa 09:45", "indoor": "yes", "note": "ON 12/24 AND 12/31, THIS BOX MAY BE COLLECTED AS EARLY AS 12 NOON.", "nsi_id": "unitedstatespostalservice-a77078", "operator": "United States Postal Service", "operator:short": "USPS", "operator:type": "public", "operator:wikidata": "Q668687", "ref": "8774900002"}, "type": "Feature"}
{"geometry": {"coordinates": [-104.704164, 36.011873], "type": "Point"}, "id": "CrcI4hywa7iDpxZ4FoZtyZBthE8=", "properties": {"@source_uri": "https://tools.usps.com/UspsToolsRestServices/rest/POLocator/findLocations", "@spider": "usps_collection_boxes", "addr:city": "WAGON MOUND", "addr:country": "US", "addr:postcode": "87752", "addr:state": "NM", "addr:street_address": "504 RAILROAD AVE", "amenity": "post_box", "collection_times": "Mo-Fr 16:15; Sa 10:45", "note": "ON 12/24 AND 12/31, THIS BOX MAY BE COLLECTED AS EARLY AS 12 NOON.", "nsi_id": "unitedstatespostalservice-a77078", "operator": "United States Postal Service", "operator:short": "USPS", "operator:type": "public", "operator:wikidata": "Q668687", "ref": "8775200000"}, "type": "Feature"}
{"geometry": {"coordinates": [-104.704129, 36.011962], "type": "Point"}, "id": "8ensdmcxSwpF0WZsRd_9LHaENQ0=", "properties": {"@source_uri": "https://tools.usps.com/UspsToolsRestServices/rest/POLocator/findLocations", "@spider": "usps_collection_boxes", "addr:city": "WAGON MOUND", "addr:country": "US", "addr:postcode": "87752", "addr:state": "NM", "addr:street_address": "504 RAILROAD AVE", "amenity": "post_box", "collection_times": "Mo-Fr 12:30; Sa 10:30", "indoor": "yes", "note": "ON 12/24 AND 12/31, THIS BOX MAY BE COLLECTED AS EARLY AS 12 NOON.", "nsi_id": "unitedstatespostalservice-a77078", "operator": "United States Postal Service", "operator:short": "USPS", "operator:type": "public", "operator:wikidata": "Q668687", "ref": "8775200001"}, "type": "Feature"}
{"geometry": {"coordinates": [-104.705486728, 36.010430709], "type": "Point"}, "id": "FBWq9_LKXUFiqBRhmU4NaVvm8Co=", "properties": {"@source_uri": "https://tools.usps.com/UspsToolsRestServices/rest/POLocator/findLocations", "@spider": "usps_collection_boxes", "addr:city": "WAGON MOUND", "addr:country": "US", "addr:postcode": "87752", "addr:state": "NM", "addr:street_address": "504 RAILROAD AVE", "amenity": "post_box", "collection_times": "Mo-Fr 12:15; Sa 10:30", "indoor": "yes", "note": "ON 12/24 AND 12/31, THIS BOX MAY BE COLLECTED AS EARLY AS 12 NOON.", "nsi_id": "unitedstatespostalservice-a77078", "operator": "United States Postal Service", "operator:short": "USPS", "operator:type": "public", "operator:wikidata": "Q668687", "ref": "8775200003"}, "type": "Feature"}
{"geometry": {"coordinates": [-104.9822775055, 35.7930199644], "type": "Point"}, "id": "MLT64VZPIPl8W3eeyrsHnz2zGaw=", "properties": {"@source_uri": "https://tools.usps.com/UspsToolsRestServices/rest/POLocator/findLocations", "@spider": "usps_collection_boxes", "addr:city": "WATROUS", "addr:country": "US", "addr:postcode": "87753", "addr:state": "NM", "addr:street_address": "233 BRIDGE ST", "amenity": "post_box", "collection_times": "Mo-Fr 16:15; Sa 09:30", "note": "ON 12/24 AND 12/31, THIS BOX MAY BE COLLECTED AS EARLY AS 12 NOON.", "nsi_id": "unitedstatespostalservice-a77078", "operator": "United States Postal Service", "operator:short": "USPS", "operator:type": "public", "operator:wikidata": "Q668687", "ref": "8775300000"}, "type": "Feature"}
{"geometry": {"coordinates": [-104.9822775055, 35.7930199644], "type": "Point"}, "id": "J4xm3WZ9bEoDM4bgVlEFremcbZo=", "properties": {"@source_uri": "https://tools.usps.com/UspsToolsRestServices/rest/POLocator/findLocations", "@spider": "usps_collection_boxes", "addr:city": "WATROUS", "addr:country": "US", "addr:postcode": "87753", "addr:state": "NM", "addr:street_address": "233 BRIDGE ST", "amenity": "post_box", "collection_times": "Mo-Fr 13:00; Sa 09:30", "indoor": "yes", "note": "ON 12/24 AND 12/31, THIS BOX MAY BE COLLECTED AS EARLY AS 12 NOON.", "nsi_id": "unitedstatespostalservice-a77078", "operator": "United States Postal Service", "operator:short": "USPS", "operator:type": "public", "operator:wikidata": "Q668687", "ref": "8775300001"}, "type": "Feature"}
{"geometry": {"coordinates": [-104.9822775055, 35.7930199644], "type": "Point"}, "id": "bx4juYu7ao2Auzrvao8KmZnxJUw=", "properties": {"@source_uri": "https://tools.usps.com/UspsToolsRestServices/rest/POLocator/findLocations", "@spider": "usps_collection_boxes", "addr:city": "WATROUS", "addr:country": "US", "addr:postcode": "87753", "addr:state": "NM", "addr:street_address": "233 BRIDGE ST", "amenity": "post_box", "collection_times": "Mo-Fr 13:00; Sa 09:30", "indoor": "yes", "note": "ON 12/24 AND 12/31, THIS BOX MAY BE COLLECTED AS EARLY AS 12 NOON.", "nsi_id": "unitedstatespostalservice-a77078", "operator": "United States Postal Service", "operator:short": "USPS", "operator:type": "public", "operator:wikidata": "Q668687", "ref": "8775300003"}, "type": "Feature"}
