{"dataset_attributes": {"@spider": "usps_collection_boxes", "spider:collection_time": "2023-08-22T08:24:26.238206"}, "geometry": {"coordinates": [-106.892899, 34.057024], "type": "Point"}, "id": "FU0dAW6BfYqdZGsY2-W61z84O5s=", "properties": {"@spider": "usps_collection_boxes", "addr:city": "SOCORRO", "addr:country": "US", "addr:full": "124 PLAZA AVE", "addr:postcode": "87801", "addr:state": "NM", "amenity": "post_box", "brand": "United States Postal Service", "brand:wikidata": "Q668687", "collection_times": "Mo-Sa 17:00", "name": "USPS COLLECTION BOX - BLUE BOX", "note": "ON 12/24 AND 12/31, THIS BOX MAY BE COLLECTED AS EARLY AS 12 NOON.", "nsi_id": "unitedstatespostalservice-a77078", "operator": "United States Postal Service", "operator:short": "USPS", "operator:type": "public", "operator:wikidata": "Q668687", "ref": "8780100000"}, "type": "Feature"}
{"dataset_attributes": {"@spider": "usps_collection_boxes", "spider:collection_time": "2023-08-22T08:24:26.238206"}, "geometry": {"coordinates": [-106.892899, 34.057025], "type": "Point"}, "id": "ch2QL73M_O4QHzf3vozaB1vXZ8g=", "properties": {"@spider": "usps_collection_boxes", "addr:city": "SOCORRO", "addr:country": "US", "addr:full": "124 PLAZA AVE", "addr:postcode": "87801", "addr:state": "NM", "amenity": "post_box", "brand": "United States Postal Service", "brand:wikidata": "Q668687", "collection_times": "Mo-Sa 17:00", "name": "USPS COLLECTION BOX - BLUE BOX", "note": "ON 12/24 AND 12/31, THIS BOX MAY BE COLLECTED AS EARLY AS 12 NOON.", "nsi_id": "unitedstatespostalservice-a77078", "operator": "United States Postal Service", "operator:short": "USPS", "operator:type": "public", "operator:wikidata": "Q668687", "ref": "8780100001"}, "type": "Feature"}
{"dataset_attributes": {"@spider": "usps_collection_boxes", "spider:collection_time": "2023-08-22T08:24:26.238206"}, "geometry": {"coordinates": [-106.900075, 34.060266], "type": "Point"}, "id": "-drhRuu94ewfwGXAOPab2yXpDFE=", "properties": {"@spider": "usps_collection_boxes", "addr:city": "SOCORRO", "addr:country": "US", "addr:full": "214 NEEL AVE", "addr:postcode": "87801", "addr:state": "NM", "amenity": "post_box", "brand": "United States Postal Service", "brand:wikidata": "Q668687", "collection_times": "Mo-Fr 13:45; Sa 13:30", "name": "USPS COLLECTION BOX - BLUE BOX", "note": "ON 12/24 AND 12/31, THIS BOX MAY BE COLLECTED AS EARLY AS 12 NOON.", "nsi_id": "unitedstatespostalservice-a77078", "operator": "United States Postal Service", "operator:short": "USPS", "operator:type": "public", "operator:wikidata": "Q668687", "ref": "8780100003"}, "type": "Feature"}
{"dataset_attributes": {"@spider": "usps_collection_boxes", "spider:collection_time": "2023-08-22T08:24:26.238206"}, "geometry": {"coordinates": [-106.902325, 34.068781], "type": "Point"}, "id": "vy3Qt9Os665w9oft0hFuYLnxXd0=", "properties": {"@spider": "usps_collection_boxes", "addr:city": "SOCORRO", "addr:country": "US", "addr:full": "1000 BURSUM PL", "addr:postcode": "87801", "addr:state": "NM", "amenity": "post_box", "brand": "United States Postal Service", "brand:wikidata": "Q668687", "collection_times": "Mo-Sa 12:00", "name": "USPS COLLECTION BOX - BLUE BOX", "nsi_id": "unitedstatespostalservice-a77078", "operator": "United States Postal Service", "operator:short": "USPS", "operator:type": "public", "operator:wikidata": "Q668687", "ref": "8780100005"}, "type": "Feature"}
{"dataset_attributes": {"@spider": "usps_collection_boxes", "spider:collection_time": "2023-08-22T08:24:26.238206"}, "geometry": {"coordinates": [-106.890014, 34.065052], "type": "Point"}, "id": "J2_w8A-NxhHFnURY6OfbHQIOqE4=", "properties": {"@spider": "usps_collection_boxes", "addr:city": "SOCORRO", "addr:country": "US", "addr:full": "700 6TH ST N", "addr:postcode": "87801", "addr:state": "NM", "amenity": "post_box", "brand": "United States Postal Service", "brand:wikidata": "Q668687", "collection_times": "Mo-Sa 12:00", "name": "USPS COLLECTION BOX - BLUE BOX", "nsi_id": "unitedstatespostalservice-a77078", "operator": "United States Postal Service", "operator:short": "USPS", "operator:type": "public", "operator:wikidata": "Q668687", "ref": "8780100007"}, "type": "Feature"}
{"dataset_attributes": {"@spider": "usps_collection_boxes", "spider:collection_time": "2023-08-22T08:24:26.238206"}, "geometry": {"coordinates": [-106.892899, 34.057025], "type": "Point"}, "id": "tzNfCyx3LiT6gxQ6jV_0vAeRJ7Y=", "properties": {"@spider": "usps_collection_boxes", "addr:city": "SOCORRO", "addr:country": "US", "addr:full": "124 PLAZA AVE", "addr:postcode": "87801", "addr:state": "NM", "amenity": "post_box", "brand": "United States Postal Service", "brand:wikidata": "Q668687", "collection_times": "Mo-Sa 17:00", "name": "USPS COLLECTION BOX - PO LOBBY", "note": "ON 12/24 AND 12/31, THIS BOX MAY BE COLLECTED AS EARLY AS 12 NOON.", "nsi_id": "unitedstatespostalservice-a77078", "operator": "United States Postal Service", "operator:short": "USPS", "operator:type": "public", "operator:wikidata": "Q668687", "ref": "8780100009"}, "type": "Feature"}
{"dataset_attributes": {"@spider": "usps_collection_boxes", "spider:collection_time": "2023-08-22T08:24:26.238206"}, "geometry": {"coordinates": [-106.892899, 34.057025], "type": "Point"}, "id": "oyYZbURd__vugGNO4t68bZlW_fc=", "properties": {"@spider": "usps_collection_boxes", "addr:city": "SOCORRO", "addr:country": "US", "addr:full": "124 PLAZA AVE", "addr:postcode": "87801", "addr:state": "NM", "amenity": "post_box", "brand": "United States Postal Service", "brand:wikidata": "Q668687", "collection_times": "Mo-Sa 17:00", "name": "USPS COLLECTION BOX - PO LOBBY", "note": "ON 12/24 AND 12/31, THIS BOX MAY BE COLLECTED AS EARLY AS 12 NOON.", "nsi_id": "unitedstatespostalservice-a77078", "operator": "United States Postal Service", "operator:short": "USPS", "operator:type": "public", "operator:wikidata": "Q668687", "ref": "8780100011"}, "type": "Feature"}
{"dataset_attributes": {"@spider": "usps_collection_boxes", "spider:collection_time": "2023-08-22T08:24:26.238206"}, "geometry": {"coordinates": [-106.894000943, 34.057143132], "type": "Point"}, "id": "j_kse8jwNNXP6hlHnmYs6WJZG-A=", "properties": {"@spider": "usps_collection_boxes", "addr:city": "SOCORRO", "addr:country": "US", "addr:full": "124 PLAZA AVE", "addr:postcode": "87801", "addr:state": "NM", "amenity": "post_box", "brand": "United States Postal Service", "brand:wikidata": "Q668687", "collection_times": "Mo-Sa 17:00", "name": "USPS COLLECTION BOX - PO LOBBY", "note": "ON 12/24 AND 12/31, THIS BOX MAY BE COLLECTED AS EARLY AS 12 NOON.", "nsi_id": "unitedstatespostalservice-a77078", "operator": "United States Postal Service", "operator:short": "USPS", "operator:type": "public", "operator:wikidata": "Q668687", "ref": "8780100020"}, "type": "Feature"}
{"dataset_attributes": {"@spider": "usps_collection_boxes", "spider:collection_time": "2023-08-22T08:24:26.238206"}, "geometry": {"coordinates": [-106.9034851724, 34.06635], "type": "Point"}, "id": "nlQq7WT7nf7gwi90IwwfMqdN7rY=", "properties": {"@spider": "usps_collection_boxes", "addr:city": "SOCORRO", "addr:country": "US", "addr:full": "801 LEROY PL", "addr:postcode": "87801", "addr:state": "NM", "amenity": "post_box", "brand": "United States Postal Service", "brand:wikidata": "Q668687", "collection_times": "Mo-Fr 08:00", "name": "USPS COLLECTION BOX - PO LOBBY", "nsi_id": "unitedstatespostalservice-a77078", "operator": "United States Postal Service", "operator:short": "USPS", "operator:type": "public", "operator:wikidata": "Q668687", "ref": "8780100021"}, "type": "Feature"}
{"dataset_attributes": {"@spider": "usps_collection_boxes", "spider:collection_time": "2023-08-22T08:24:26.238206"}, "geometry": {"coordinates": [-108.0768546898, 33.8593534466], "type": "Point"}, "id": "5QrU5Fc6hgLEdoKbC4iGebUzJbE=", "properties": {"@spider": "usps_collection_boxes", "addr:city": "DATIL", "addr:country": "US", "addr:full": "101 W HIGHWAY 60", "addr:postcode": "87821", "addr:state": "NM", "amenity": "post_box", "brand": "United States Postal Service", "brand:wikidata": "Q668687", "collection_times": "Mo-Fr 15:15; Sa 08:30", "name": "USPS COLLECTION BOX - BLUE BOX", "note": "ON 12/24 AND 12/31, THIS BOX MAY BE COLLECTED AS EARLY AS 12 NOON.", "nsi_id": "unitedstatespostalservice-a77078", "operator": "United States Postal Service", "operator:short": "USPS", "operator:type": "public", "operator:wikidata": "Q668687", "ref": "8782100000"}, "type": "Feature"}
{"dataset_attributes": {"@spider": "usps_collection_boxes", "spider:collection_time": "2023-08-22T08:24:26.238206"}, "geometry": {"coordinates": [-108.0768546898, 33.8593534466], "type": "Point"}, "id": "NW8bTpH66mWceOS3qVatM0JSlZc=", "properties": {"@spider": "usps_collection_boxes", "addr:city": "DATIL", "addr:country": "US", "addr:full": "101 W HIGHWAY 60", "addr:postcode": "87821", "addr:state": "NM", "amenity": "post_box", "brand": "United States Postal Service", "brand:wikidata": "Q668687", "collection_times": "Mo-Fr 15:15; Sa 08:30", "name": "USPS COLLECTION BOX - PO LOBBY", "note": "ON 12/24 AND 12/31, THIS BOX MAY BE COLLECTED AS EARLY AS 12 NOON.", "nsi_id": "unitedstatespostalservice-a77078", "operator": "United States Postal Service", "operator:short": "USPS", "operator:type": "public", "operator:wikidata": "Q668687", "ref": "8782100001"}, "type": "Feature"}
{"dataset_attributes": {"@spider": "usps_collection_boxes", "spider:collection_time": "2023-08-22T08:24:26.238206"}, "geometry": {"coordinates": [-108.483470778, 34.3356142], "type": "Point"}, "id": "SFOJRI5royAvmWsFE-5M0-MJ5JU=", "properties": {"@spider": "usps_collection_boxes", "addr:city": "DATIL", "addr:country": "US", "addr:full": "101 W HIGHWAY 60", "addr:postcode": "87821", "addr:state": "NM", "amenity": "post_box", "brand": "United States Postal Service", "brand:wikidata": "Q668687", "collection_times": "Mo-Fr 15:15; Sa 08:15", "name": "USPS COLLECTION BOX - PO LOBBY", "note": "ON 12/24 AND 12/31, THIS BOX MAY BE COLLECTED AS EARLY AS 12 NOON.", "nsi_id": "unitedstatespostalservice-a77078", "operator": "United States Postal Service", "operator:short": "USPS", "operator:type": "public", "operator:wikidata": "Q668687", "ref": "8782100002"}, "type": "Feature"}
{"dataset_attributes": {"@spider": "usps_collection_boxes", "spider:collection_time": "2023-08-22T08:24:26.238206"}, "geometry": {"coordinates": [-106.911486, 34.159536], "type": "Point"}, "id": "dzYZ235qpo-azkNP94c6tS-hI3A=", "properties": {"@spider": "usps_collection_boxes", "addr:city": "LEMITAR", "addr:country": "US", "addr:full": "5 CHAMBON RD", "addr:postcode": "87823", "addr:state": "NM", "amenity": "post_box", "brand": "United States Postal Service", "brand:wikidata": "Q668687", "collection_times": "Mo-Sa 10:30", "name": "USPS COLLECTION BOX - PO LOBBY", "nsi_id": "unitedstatespostalservice-a77078", "operator": "United States Postal Service", "operator:short": "USPS", "operator:type": "public", "operator:wikidata": "Q668687", "ref": "8782300001"}, "type": "Feature"}
{"dataset_attributes": {"@spider": "usps_collection_boxes", "spider:collection_time": "2023-08-22T08:24:26.238206"}, "geometry": {"coordinates": [-106.911661974, 34.1597962], "type": "Point"}, "id": "xfqR92qrRym_GWEm8Yvh9e_3nhU=", "properties": {"@spider": "usps_collection_boxes", "addr:city": "LEMITAR", "addr:country": "US", "addr:full": "5 CHAMBON RD", "addr:postcode": "87823", "addr:state": "NM", "amenity": "post_box", "brand": "United States Postal Service", "brand:wikidata": "Q668687", "collection_times": "Mo-Sa 10:30", "name": "USPS COLLECTION BOX - PO LOBBY", "nsi_id": "unitedstatespostalservice-a77078", "operator": "United States Postal Service", "operator:short": "USPS", "operator:type": "public", "operator:wikidata": "Q668687", "ref": "8782300002"}, "type": "Feature"}
{"dataset_attributes": {"@spider": "usps_collection_boxes", "spider:collection_time": "2023-08-22T08:24:26.238206"}, "geometry": {"coordinates": [-108.958973, 33.818784], "type": "Point"}, "id": "cQsXeHVuJ4apYmndzqFv3Ez91fo=", "properties": {"@spider": "usps_collection_boxes", "addr:city": "LUNA", "addr:country": "US", "addr:full": "747 US HIGHWAY 180", "addr:postcode": "87824", "addr:state": "NM", "amenity": "post_box", "brand": "United States Postal Service", "brand:wikidata": "Q668687", "collection_times": "Mo-Fr 11:15; Sa 11:00", "name": "USPS COLLECTION BOX - BLUE BOX", "nsi_id": "unitedstatespostalservice-a77078", "operator": "United States Postal Service", "operator:short": "USPS", "operator:type": "public", "operator:wikidata": "Q668687", "ref": "8782400000"}, "type": "Feature"}
{"dataset_attributes": {"@spider": "usps_collection_boxes", "spider:collection_time": "2023-08-22T08:24:26.238206"}, "geometry": {"coordinates": [-108.958973, 33.818784], "type": "Point"}, "id": "hF5WIUv0ve7aL_NQ5XQk92iXVO4=", "properties": {"@spider": "usps_collection_boxes", "addr:city": "LUNA", "addr:country": "US", "addr:full": "747 US HIGHWAY 180", "addr:postcode": "87824", "addr:state": "NM", "amenity": "post_box", "brand": "United States Postal Service", "brand:wikidata": "Q668687", "collection_times": "Mo-Sa 11:30", "name": "USPS COLLECTION BOX - PO LOBBY", "nsi_id": "unitedstatespostalservice-a77078", "operator": "United States Postal Service", "operator:short": "USPS", "operator:type": "public", "operator:wikidata": "Q668687", "ref": "8782400001"}, "type": "Feature"}
{"dataset_attributes": {"@spider": "usps_collection_boxes", "spider:collection_time": "2023-08-22T08:24:26.238206"}, "geometry": {"coordinates": [-108.9572516864, 33.818738347], "type": "Point"}, "id": "Tob7RgoiS55kBBaDQfcJq7mqtiY=", "properties": {"@spider": "usps_collection_boxes", "addr:city": "LUNA", "addr:country": "US", "addr:full": "747 US HIGHWAY 180", "addr:postcode": "87824", "addr:state": "NM", "amenity": "post_box", "brand": "United States Postal Service", "brand:wikidata": "Q668687", "collection_times": "Mo-Sa 11:30", "name": "USPS COLLECTION BOX - PO LOBBY", "nsi_id": "unitedstatespostalservice-a77078", "operator": "United States Postal Service", "operator:short": "USPS", "operator:type": "public", "operator:wikidata": "Q668687", "ref": "8782400002"}, "type": "Feature"}
{"dataset_attributes": {"@spider": "usps_collection_boxes", "spider:collection_time": "2023-08-22T08:24:26.238206"}, "geometry": {"coordinates": [-107.237658, 34.119052], "type": "Point"}, "id": "Fe_KCna5YqyLURS49Ej0i5N50YM=", "properties": {"@spider": "usps_collection_boxes", "addr:city": "MAGDALENA", "addr:country": "US", "addr:full": "100 E 1ST ST", "addr:postcode": "87825", "addr:state": "NM", "amenity": "post_box", "brand": "United States Postal Service", "brand:wikidata": "Q668687", "collection_times": "Mo-Fr 16:30; Sa 12:00", "name": "USPS COLLECTION BOX - BLUE BOX", "note": "ON 12/24 AND 12/31, THIS BOX MAY BE COLLECTED AS EARLY AS 12 NOON.", "nsi_id": "unitedstatespostalservice-a77078", "operator": "United States Postal Service", "operator:short": "USPS", "operator:type": "public", "operator:wikidata": "Q668687", "ref": "8782500000"}, "type": "Feature"}
{"dataset_attributes": {"@spider": "usps_collection_boxes", "spider:collection_time": "2023-08-22T08:24:26.238206"}, "geometry": {"coordinates": [-107.237658, 34.119052], "type": "Point"}, "id": "y-5njb0-WVqUzkONDNidK3tPW2Y=", "properties": {"@spider": "usps_collection_boxes", "addr:city": "MAGDALENA", "addr:country": "US", "addr:full": "100 E 1ST ST", "addr:postcode": "87825", "addr:state": "NM", "amenity": "post_box", "brand": "United States Postal Service", "brand:wikidata": "Q668687", "collection_times": "Mo-Fr 16:30; Sa 12:00", "name": "USPS COLLECTION BOX - PO LOBBY", "note": "ON 12/24 AND 12/31, THIS BOX MAY BE COLLECTED AS EARLY AS 12 NOON.", "nsi_id": "unitedstatespostalservice-a77078", "operator": "United States Postal Service", "operator:short": "USPS", "operator:type": "public", "operator:wikidata": "Q668687", "ref": "8782500001"}, "type": "Feature"}
{"dataset_attributes": {"@spider": "usps_collection_boxes", "spider:collection_time": "2023-08-22T08:24:26.238206"}, "geometry": {"coordinates": [-107.237658, 34.119052], "type": "Point"}, "id": "ZR2wL_dn7A_SXy3-JE9bHPWcZAs=", "properties": {"@spider": "usps_collection_boxes", "addr:city": "MAGDALENA", "addr:country": "US", "addr:full": "100 E 1ST ST", "addr:postcode": "87825", "addr:state": "NM", "amenity": "post_box", "brand": "United States Postal Service", "brand:wikidata": "Q668687", "collection_times": "Mo-Fr 16:30; Sa 12:00", "name": "USPS COLLECTION BOX - PO LOBBY", "note": "ON 12/24 AND 12/31, THIS BOX MAY BE COLLECTED AS EARLY AS 12 NOON.", "nsi_id": "unitedstatespostalservice-a77078", "operator": "United States Postal Service", "operator:short": "USPS", "operator:type": "public", "operator:wikidata": "Q668687", "ref": "8782500002"}, "type": "Feature"}
{"dataset_attributes": {"@spider": "usps_collection_boxes", "spider:collection_time": "2023-08-22T08:24:26.238206"}, "geometry": {"coordinates": [-107.2372686127, 34.1192612199], "type": "Point"}, "id": "Z79fuZUm-BOxpeD2j-nD4jJDmg4=", "properties": {"@spider": "usps_collection_boxes", "addr:city": "MAGDALENA", "addr:country": "US", "addr:full": "100 E 1ST ST", "addr:postcode": "87825", "addr:state": "NM", "amenity": "post_box", "brand": "United States Postal Service", "brand:wikidata": "Q668687", "collection_times": "Mo-Fr 16:30; Sa 12:00", "name": "USPS COLLECTION BOX - PO LOBBY", "note": "ON 12/24 AND 12/31, THIS BOX MAY BE COLLECTED AS EARLY AS 12 NOON.", "nsi_id": "unitedstatespostalservice-a77078", "operator": "United States Postal Service", "operator:short": "USPS", "operator:type": "public", "operator:wikidata": "Q668687", "ref": "8782500003"}, "type": "Feature"}
{"dataset_attributes": {"@spider": "usps_collection_boxes", "spider:collection_time": "2023-08-22T08:24:26.238206"}, "geometry": {"coordinates": [-108.133536086, 34.296526214], "type": "Point"}, "id": "VkR4w3nYvxYx0gVn74BvXBnD6Lw=", "properties": {"@spider": "usps_collection_boxes", "addr:city": "PIE TOWN", "addr:country": "US", "addr:full": "29 APRICOT AVE", "addr:postcode": "87827", "addr:state": "NM", "amenity": "post_box", "brand": "United States Postal Service", "brand:wikidata": "Q668687", "collection_times": "Mo-Fr 12:00; Sa 09:15", "name": "USPS COLLECTION BOX - BLUE BOX", "nsi_id": "unitedstatespostalservice-a77078", "operator": "United States Postal Service", "operator:short": "USPS", "operator:type": "public", "operator:wikidata": "Q668687", "ref": "8782700000"}, "type": "Feature"}
{"dataset_attributes": {"@spider": "usps_collection_boxes", "spider:collection_time": "2023-08-22T08:24:26.238206"}, "geometry": {"coordinates": [-108.133536086, 34.296526214], "type": "Point"}, "id": "T4o2RSzaEU6fpvpCYk2oaoXv-E4=", "properties": {"@spider": "usps_collection_boxes", "addr:city": "PIE TOWN", "addr:country": "US", "addr:full": "29 APRICOT AVE", "addr:postcode": "87827", "addr:state": "NM", "amenity": "post_box", "brand": "United States Postal Service", "brand:wikidata": "Q668687", "collection_times": "Mo-Fr 12:00; Sa 09:15", "name": "USPS COLLECTION BOX - PO LOBBY", "nsi_id": "unitedstatespostalservice-a77078", "operator": "United States Postal Service", "operator:short": "USPS", "operator:type": "public", "operator:wikidata": "Q668687", "ref": "8782700001"}, "type": "Feature"}
{"dataset_attributes": {"@spider": "usps_collection_boxes", "spider:collection_time": "2023-08-22T08:24:26.238206"}, "geometry": {"coordinates": [-106.91276, 34.217364], "type": "Point"}, "id": "vcOAC74dBFrf9Re7MElnhYAcwhQ=", "properties": {"@spider": "usps_collection_boxes", "addr:city": "POLVADERA", "addr:country": "US", "addr:full": "15 CORREO ST", "addr:postcode": "87828", "addr:state": "NM", "amenity": "post_box", "brand": "United States Postal Service", "brand:wikidata": "Q668687", "collection_times": "Mo-Sa 10:00", "name": "USPS COLLECTION BOX - BLUE BOX", "nsi_id": "unitedstatespostalservice-a77078", "operator": "United States Postal Service", "operator:short": "USPS", "operator:type": "public", "operator:wikidata": "Q668687", "ref": "8782800000"}, "type": "Feature"}
{"dataset_attributes": {"@spider": "usps_collection_boxes", "spider:collection_time": "2023-08-22T08:24:26.238206"}, "geometry": {"coordinates": [-106.912724, 34.217422], "type": "Point"}, "id": "qFa5B_mfrVlIWbVCWCMwz6pDv70=", "properties": {"@spider": "usps_collection_boxes", "addr:city": "POLVADERA", "addr:country": "US", "addr:full": "15 CORREO ST", "addr:postcode": "87828", "addr:state": "NM", "amenity": "post_box", "brand": "United States Postal Service", "brand:wikidata": "Q668687", "collection_times": "Mo-Sa 10:15", "name": "USPS COLLECTION BOX - PO LOBBY", "nsi_id": "unitedstatespostalservice-a77078", "operator": "United States Postal Service", "operator:short": "USPS", "operator:type": "public", "operator:wikidata": "Q668687", "ref": "8782800001"}, "type": "Feature"}
{"dataset_attributes": {"@spider": "usps_collection_boxes", "spider:collection_time": "2023-08-22T08:24:26.238206"}, "geometry": {"coordinates": [-106.913393893, 34.215593749], "type": "Point"}, "id": "imzzhX4UFJDywqh1QGFCIh94eA0=", "properties": {"@spider": "usps_collection_boxes", "addr:city": "POLVADERA", "addr:country": "US", "addr:full": "15 CORREO ST", "addr:postcode": "87828", "addr:state": "NM", "amenity": "post_box", "brand": "United States Postal Service", "brand:wikidata": "Q668687", "collection_times": "Mo-Sa 09:45", "name": "USPS COLLECTION BOX - PO LOBBY", "nsi_id": "unitedstatespostalservice-a77078", "operator": "United States Postal Service", "operator:short": "USPS", "operator:type": "public", "operator:wikidata": "Q668687", "ref": "8782800002"}, "type": "Feature"}
{"dataset_attributes": {"@spider": "usps_collection_boxes", "spider:collection_time": "2023-08-22T08:24:26.238206"}, "geometry": {"coordinates": [-108.541647, 34.338479], "type": "Point"}, "id": "Pz2q5uLekjeCOIg96XG3ZbUvKJQ=", "properties": {"@spider": "usps_collection_boxes", "addr:city": "QUEMADO", "addr:country": "US", "addr:full": "3476 W HIGHWAY 60", "addr:postcode": "87829", "addr:state": "NM", "amenity": "post_box", "brand": "United States Postal Service", "brand:wikidata": "Q668687", "collection_times": "Mo-Fr 15:00; Sa 10:45", "name": "USPS COLLECTION BOX - BLUE BOX", "note": "ON 12/24 AND 12/31, THIS BOX MAY BE COLLECTED AS EARLY AS 12 NOON.", "nsi_id": "unitedstatespostalservice-a77078", "operator": "United States Postal Service", "operator:short": "USPS", "operator:type": "public", "operator:wikidata": "Q668687", "ref": "8782900000"}, "type": "Feature"}
{"dataset_attributes": {"@spider": "usps_collection_boxes", "spider:collection_time": "2023-08-22T08:24:26.238206"}, "geometry": {"coordinates": [-108.541647, 34.338479], "type": "Point"}, "id": "U1mx0WQ4bJUlFlhnbtBSq-RG3O0=", "properties": {"@spider": "usps_collection_boxes", "addr:city": "QUEMADO", "addr:country": "US", "addr:full": "3476 W HIGHWAY 60", "addr:postcode": "87829", "addr:state": "NM", "amenity": "post_box", "brand": "United States Postal Service", "brand:wikidata": "Q668687", "collection_times": "Mo-Fr 15:00; Sa 10:45", "name": "USPS COLLECTION BOX - PO LOBBY", "note": "ON 12/24 AND 12/31, THIS BOX MAY BE COLLECTED AS EARLY AS 12 NOON.", "nsi_id": "unitedstatespostalservice-a77078", "operator": "United States Postal Service", "operator:short": "USPS", "operator:type": "public", "operator:wikidata": "Q668687", "ref": "8782900001"}, "type": "Feature"}
{"dataset_attributes": {"@spider": "usps_collection_boxes", "spider:collection_time": "2023-08-22T08:24:26.238206"}, "geometry": {"coordinates": [-108.493573811, 34.342037482], "type": "Point"}, "id": "lFMkWEl3MwUuijfeR528Zz90jZA=", "properties": {"@spider": "usps_collection_boxes", "addr:city": "QUEMADO", "addr:country": "US", "addr:full": "3476 W HIGHWAY 60", "addr:postcode": "87829", "addr:state": "NM", "amenity": "post_box", "brand": "United States Postal Service", "brand:wikidata": "Q668687", "collection_times": "Mo-Fr 14:45; Sa 10:30", "name": "USPS COLLECTION BOX - PO LOBBY", "note": "ON 12/24 AND 12/31, THIS BOX MAY BE COLLECTED AS EARLY AS 12 NOON.", "nsi_id": "unitedstatespostalservice-a77078", "operator": "United States Postal Service", "operator:short": "USPS", "operator:type": "public", "operator:wikidata": "Q668687", "ref": "8782900002"}, "type": "Feature"}
{"dataset_attributes": {"@spider": "usps_collection_boxes", "spider:collection_time": "2023-08-22T08:24:26.238206"}, "geometry": {"coordinates": [-108.7590780102, 33.7123386678], "type": "Point"}, "id": "DFXitdoTr7FyuMP_Yf_y15jrBo8=", "properties": {"@spider": "usps_collection_boxes", "addr:city": "RESERVE", "addr:country": "US", "addr:full": "10 BALKE ST", "addr:postcode": "87830", "addr:state": "NM", "amenity": "post_box", "brand": "United States Postal Service", "brand:wikidata": "Q668687", "collection_times": "Mo-Fr 14:15; Sa 11:15", "name": "USPS COLLECTION BOX - BLUE BOX", "note": "ON 12/24 AND 12/31, THIS BOX MAY BE COLLECTED AS EARLY AS 12 NOON.", "nsi_id": "unitedstatespostalservice-a77078", "operator": "United States Postal Service", "operator:short": "USPS", "operator:type": "public", "operator:wikidata": "Q668687", "ref": "8783000000"}, "type": "Feature"}
{"dataset_attributes": {"@spider": "usps_collection_boxes", "spider:collection_time": "2023-08-22T08:24:26.238206"}, "geometry": {"coordinates": [-108.7590780102, 33.7123386678], "type": "Point"}, "id": "xz5koqjuwgZat4klC5spbcq-UZw=", "properties": {"@spider": "usps_collection_boxes", "addr:city": "RESERVE", "addr:country": "US", "addr:full": "10 BALKE ST", "addr:postcode": "87830", "addr:state": "NM", "amenity": "post_box", "brand": "United States Postal Service", "brand:wikidata": "Q668687", "collection_times": "Mo-Fr 14:15; Sa 11:15", "name": "USPS COLLECTION BOX - PO LOBBY", "note": "ON 12/24 AND 12/31, THIS BOX MAY BE COLLECTED AS EARLY AS 12 NOON.", "nsi_id": "unitedstatespostalservice-a77078", "operator": "United States Postal Service", "operator:short": "USPS", "operator:type": "public", "operator:wikidata": "Q668687", "ref": "8783000001"}, "type": "Feature"}
{"dataset_attributes": {"@spider": "usps_collection_boxes", "spider:collection_time": "2023-08-22T08:24:26.238206"}, "geometry": {"coordinates": [-108.7652025, 33.712461], "type": "Point"}, "id": "UvTwX3qSUiCV6fTeBu7_8I6vJRk=", "properties": {"@spider": "usps_collection_boxes", "addr:city": "RESERVE", "addr:country": "US", "addr:full": "HC 62 BOX 648-1", "addr:postcode": "87830", "addr:state": "NM", "amenity": "post_box", "brand": "United States Postal Service", "brand:wikidata": "Q668687", "collection_times": "Mo-Fr 09:00", "name": "USPS COLLECTION BOX - BLUE BOX", "nsi_id": "unitedstatespostalservice-a77078", "operator": "United States Postal Service", "operator:short": "USPS", "operator:type": "public", "operator:wikidata": "Q668687", "ref": "8783000003"}, "type": "Feature"}
{"dataset_attributes": {"@spider": "usps_collection_boxes", "spider:collection_time": "2023-08-22T08:24:26.238206"}, "geometry": {"coordinates": [-108.7590780102, 33.7123386678], "type": "Point"}, "id": "io30_pvdSgLMwtI3pYYz1QfrnYY=", "properties": {"@spider": "usps_collection_boxes", "addr:city": "RESERVE", "addr:country": "US", "addr:full": "10 BALKE ST", "addr:postcode": "87830", "addr:state": "NM", "amenity": "post_box", "brand": "United States Postal Service", "brand:wikidata": "Q668687", "collection_times": "Mo-Fr 14:15; Sa 11:15", "name": "USPS COLLECTION BOX - PO LOBBY", "note": "ON 12/24 AND 12/31, THIS BOX MAY BE COLLECTED AS EARLY AS 12 NOON.", "nsi_id": "unitedstatespostalservice-a77078", "operator": "United States Postal Service", "operator:short": "USPS", "operator:type": "public", "operator:wikidata": "Q668687", "ref": "8783000004"}, "type": "Feature"}
{"dataset_attributes": {"@spider": "usps_collection_boxes", "spider:collection_time": "2023-08-22T08:24:26.238206"}, "geometry": {"coordinates": [-106.8693830959, 33.9177661082], "type": "Point"}, "id": "rV9N_OjHxzawT-GRJkDzEjMfGiQ=", "properties": {"@spider": "usps_collection_boxes", "addr:city": "SAN ANTONIO", "addr:country": "US", "addr:full": "65A HIGHWAY 380", "addr:postcode": "87832", "addr:state": "NM", "amenity": "post_box", "brand": "United States Postal Service", "brand:wikidata": "Q668687", "collection_times": "Mo-Fr 12:00; Sa 09:30", "name": "USPS COLLECTION BOX - PO LOBBY", "nsi_id": "unitedstatespostalservice-a77078", "operator": "United States Postal Service", "operator:short": "USPS", "operator:type": "public", "operator:wikidata": "Q668687", "ref": "8783200001"}, "type": "Feature"}
{"dataset_attributes": {"@spider": "usps_collection_boxes", "spider:collection_time": "2023-08-22T08:24:26.238206"}, "geometry": {"coordinates": [-106.8693791395, 33.917768076], "type": "Point"}, "id": "_RJZiQ4xP6_Q0p1grbWXBkNkYhc=", "properties": {"@spider": "usps_collection_boxes", "addr:city": "SAN ANTONIO", "addr:country": "US", "addr:full": "65A HIGHWAY 380", "addr:postcode": "87832", "addr:state": "NM", "amenity": "post_box", "brand": "United States Postal Service", "brand:wikidata": "Q668687", "collection_times": "Mo-Fr 11:45; Sa 09:30", "name": "USPS COLLECTION BOX - PO LOBBY", "nsi_id": "unitedstatespostalservice-a77078", "operator": "United States Postal Service", "operator:short": "USPS", "operator:type": "public", "operator:wikidata": "Q668687", "ref": "8783200002"}, "type": "Feature"}
