{"geometry": {"coordinates": [-107.250658, 33.128831], "type": "Point"}, "id": "OPQUHq4sU8sg035oA53TYcF4R3o=", "properties": {"@spider": "usps_collection_boxes", "addr:city": "T  OR  C", "addr:country": "US", "addr:full": "100 N BROADWAY ST", "addr:postcode": "87901", "addr:state": "NM", "amenity": "post_box", "brand": "United States Postal Service", "brand:wikidata": "Q668687", "collection_times": "Mo-Sa 16:05", "name": "USPS COLLECTION BOX - BLUE BOX", "note": "ON 12/24 AND 12/31, THIS BOX MAY BE COLLECTED AS EARLY AS 12 NOON.", "nsi_id": "unitedstatespostalservice-a77078", "operator": "United States Postal Service", "operator:short": "USPS", "operator:type": "public", "operator:wikidata": "Q668687", "ref": "8790100002"}, "type": "Feature"}
{"geometry": {"coordinates": [-107.250287, 33.133655], "type": "Point"}, "id": "UUjjIXgj_V6VjYEzRWlSkgjNHH8=", "properties": {"@spider": "usps_collection_boxes", "addr:city": "T  OR  C", "addr:country": "US", "addr:full": "311 N DATE ST", "addr:postcode": "87901", "addr:state": "NM", "amenity": "post_box", "brand": "United States Postal Service", "brand:wikidata": "Q668687", "collection_times": "Mo-Sa 16:10", "name": "USPS COLLECTION BOX - BLUE BOX", "note": "ON 12/24 AND 12/31, THIS BOX MAY BE COLLECTED AS EARLY AS 12 NOON.", "nsi_id": "unitedstatespostalservice-a77078", "operator": "United States Postal Service", "operator:short": "USPS", "operator:type": "public", "operator:wikidata": "Q668687", "ref": "8790100003"}, "type": "Feature"}
{"geometry": {"coordinates": [-107.246712, 33.133419], "type": "Point"}, "id": "k-3eUfVy_EafbAfPLkXrTvQS7lM=", "properties": {"@spider": "usps_collection_boxes", "addr:city": "T  OR  C", "addr:country": "US", "addr:full": "424 E 3RD AVE", "addr:postcode": "87901", "addr:state": "NM", "amenity": "post_box", "brand": "United States Postal Service", "brand:wikidata": "Q668687", "collection_times": "Mo-Sa 16:10", "name": "USPS COLLECTION BOX - BLUE BOX", "note": "ON 12/24 AND 12/31, THIS BOX MAY BE COLLECTED AS EARLY AS 12 NOON.", "nsi_id": "unitedstatespostalservice-a77078", "operator": "United States Postal Service", "operator:short": "USPS", "operator:type": "public", "operator:wikidata": "Q668687", "ref": "8790100005"}, "type": "Feature"}
{"geometry": {"coordinates": [-107.263132, 33.12135], "type": "Point"}, "id": "4PDMSelpGG94GENa5TZF6z0mmxs=", "properties": {"@spider": "usps_collection_boxes", "addr:city": "T  OR  C", "addr:country": "US", "addr:full": "992 S BROADWAY ST", "addr:postcode": "87901", "addr:state": "NM", "amenity": "post_box", "brand": "United States Postal Service", "brand:wikidata": "Q668687", "collection_times": "Mo-Sa 16:05", "name": "USPS COLLECTION BOX - BLUE BOX", "note": "ON 12/24 AND 12/31, THIS BOX MAY BE COLLECTED AS EARLY AS 12 NOON.", "nsi_id": "unitedstatespostalservice-a77078", "operator": "United States Postal Service", "operator:short": "USPS", "operator:type": "public", "operator:wikidata": "Q668687", "ref": "8790100009"}, "type": "Feature"}
{"geometry": {"coordinates": [-107.24817, 33.145057], "type": "Point"}, "id": "U_0ShWnAnN6BJuz2tgZo5XGOcDQ=", "properties": {"@spider": "usps_collection_boxes", "addr:city": "T  OR  C", "addr:country": "US", "addr:full": "1507 N DATE ST", "addr:postcode": "87901", "addr:state": "NM", "amenity": "post_box", "brand": "United States Postal Service", "brand:wikidata": "Q668687", "collection_times": "Mo-Sa 17:00", "name": "USPS COLLECTION BOX - PO LOBBY", "note": "ON 12/24 AND 12/31, THIS BOX MAY BE COLLECTED AS EARLY AS 12 NOON.", "nsi_id": "unitedstatespostalservice-a77078", "operator": "United States Postal Service", "operator:short": "USPS", "operator:type": "public", "operator:wikidata": "Q668687", "ref": "8790100013"}, "type": "Feature"}
{"geometry": {"coordinates": [-107.253316, 33.129724], "type": "Point"}, "id": "sJf2xS6Hb-6lEyG4X1oetk4V25w=", "properties": {"@spider": "usps_collection_boxes", "addr:city": "T  OR  C", "addr:country": "US", "addr:full": "300 MAIN ST", "addr:postcode": "87901", "addr:state": "NM", "amenity": "post_box", "brand": "United States Postal Service", "brand:wikidata": "Q668687", "collection_times": "Mo-Sa 15:30", "name": "USPS COLLECTION BOX - PO LOBBY", "note": "ON 12/24 AND 12/31, THIS BOX MAY BE COLLECTED AS EARLY AS 12 NOON.", "nsi_id": "unitedstatespostalservice-a77078", "operator": "United States Postal Service", "operator:short": "USPS", "operator:type": "public", "operator:wikidata": "Q668687", "ref": "8790100016"}, "type": "Feature"}
{"geometry": {"coordinates": [-107.248205, 33.145055], "type": "Point"}, "id": "nReUcNQ0eLsoLzI1hC--uMRjBkE=", "properties": {"@spider": "usps_collection_boxes", "addr:city": "T  OR  C", "addr:country": "US", "addr:full": "1507 N DATE ST", "addr:postcode": "87901", "addr:state": "NM", "amenity": "post_box", "brand": "United States Postal Service", "brand:wikidata": "Q668687", "collection_times": "Mo-Sa 17:00", "name": "USPS COLLECTION BOX - PO LOBBY", "note": "ON 12/24 AND 12/31, THIS BOX MAY BE COLLECTED AS EARLY AS 12 NOON.", "nsi_id": "unitedstatespostalservice-a77078", "operator": "United States Postal Service", "operator:short": "USPS", "operator:type": "public", "operator:wikidata": "Q668687", "ref": "8790100017"}, "type": "Feature"}
{"geometry": {"coordinates": [-107.248205, 33.145055], "type": "Point"}, "id": "MkX_TejfQ5dX1dZMe2F57H-TEcs=", "properties": {"@spider": "usps_collection_boxes", "addr:city": "T  OR  C", "addr:country": "US", "addr:full": "1507 N DATE ST", "addr:postcode": "87901", "addr:state": "NM", "amenity": "post_box", "brand": "United States Postal Service", "brand:wikidata": "Q668687", "collection_times": "Mo-Sa 17:00", "name": "USPS COLLECTION BOX - BLUE BOX", "note": "ON 12/24 AND 12/31, THIS BOX MAY BE COLLECTED AS EARLY AS 12 NOON.", "nsi_id": "unitedstatespostalservice-a77078", "operator": "United States Postal Service", "operator:short": "USPS", "operator:type": "public", "operator:wikidata": "Q668687", "ref": "8790100018"}, "type": "Feature"}
{"geometry": {"coordinates": [-107.250601, 33.131153], "type": "Point"}, "id": "yPHA12liQI5nFNIOJVHvcqiNPbw=", "properties": {"@spider": "usps_collection_boxes", "addr:city": "T  OR  C", "addr:country": "US", "addr:full": "100 N DATE ST", "addr:postcode": "87901", "addr:state": "NM", "amenity": "post_box", "brand": "United States Postal Service", "brand:wikidata": "Q668687", "collection_times": "Mo-Sa 16:00", "name": "USPS COLLECTION BOX - BLUE BOX", "note": "ON 12/24 AND 12/31, THIS BOX MAY BE COLLECTED AS EARLY AS 12 NOON.", "nsi_id": "unitedstatespostalservice-a77078", "operator": "United States Postal Service", "operator:short": "USPS", "operator:type": "public", "operator:wikidata": "Q668687", "ref": "8790100019"}, "type": "Feature"}
{"geometry": {"coordinates": [-107.253132474, 33.129970943], "type": "Point"}, "id": "t3GZI92n4UGYeqvNSK0CeXAGIFE=", "properties": {"@spider": "usps_collection_boxes", "addr:city": "T  OR  C", "addr:country": "US", "addr:full": "300 MAIN ST", "addr:postcode": "87901", "addr:state": "NM", "amenity": "post_box", "brand": "United States Postal Service", "brand:wikidata": "Q668687", "collection_times": "Mo-Sa 15:30", "name": "USPS COLLECTION BOX - PO LOBBY", "note": "ON 12/24 AND 12/31, THIS BOX MAY BE COLLECTED AS EARLY AS 12 NOON.", "nsi_id": "unitedstatespostalservice-a77078", "operator": "United States Postal Service", "operator:short": "USPS", "operator:type": "public", "operator:wikidata": "Q668687", "ref": "8790100029"}, "type": "Feature"}
{"geometry": {"coordinates": [-107.248150089, 33.145030018], "type": "Point"}, "id": "FtzNg7TYCTikHRhh8y8tYAAPWCA=", "properties": {"@spider": "usps_collection_boxes", "addr:city": "T  OR  C", "addr:country": "US", "addr:full": "1507 N DATE ST", "addr:postcode": "87901", "addr:state": "NM", "amenity": "post_box", "brand": "United States Postal Service", "brand:wikidata": "Q668687", "collection_times": "Mo-Fr 17:00", "name": "USPS COLLECTION BOX - PO LOBBY", "note": "ON 12/24 AND 12/31, THIS BOX MAY BE COLLECTED AS EARLY AS 12 NOON.", "nsi_id": "unitedstatespostalservice-a77078", "operator": "United States Postal Service", "operator:short": "USPS", "operator:type": "public", "operator:wikidata": "Q668687", "ref": "8790100030"}, "type": "Feature"}
{"geometry": {"coordinates": [-107.31968, 32.849489], "type": "Point"}, "id": "i877L02hxU2CcXK17VhXUyDJTr0=", "properties": {"@spider": "usps_collection_boxes", "addr:city": "ARREY", "addr:country": "US", "addr:full": "13717 HIGHWAY 187", "addr:postcode": "87930", "addr:state": "NM", "amenity": "post_box", "brand": "United States Postal Service", "brand:wikidata": "Q668687", "collection_times": "Mo-Fr 15:45; Sa 10:15", "name": "USPS COLLECTION BOX - BLUE BOX", "note": "ON 12/24 AND 12/31, THIS BOX MAY BE COLLECTED AS EARLY AS 12 NOON.", "nsi_id": "unitedstatespostalservice-a77078", "operator": "United States Postal Service", "operator:short": "USPS", "operator:type": "public", "operator:wikidata": "Q668687", "ref": "8793000000"}, "type": "Feature"}
{"geometry": {"coordinates": [-107.319712, 32.849487], "type": "Point"}, "id": "HilBHIzUxFHb2lUsCjMZXo_xnKY=", "properties": {"@spider": "usps_collection_boxes", "addr:city": "ARREY", "addr:country": "US", "addr:full": "13717 HIGHWAY 187", "addr:postcode": "87930", "addr:state": "NM", "amenity": "post_box", "brand": "United States Postal Service", "brand:wikidata": "Q668687", "collection_times": "Mo-Fr 15:45; Sa 10:15", "name": "USPS COLLECTION BOX - PO LOBBY", "note": "ON 12/24 AND 12/31, THIS BOX MAY BE COLLECTED AS EARLY AS 12 NOON.", "nsi_id": "unitedstatespostalservice-a77078", "operator": "United States Postal Service", "operator:short": "USPS", "operator:type": "public", "operator:wikidata": "Q668687", "ref": "8793000001"}, "type": "Feature"}
{"geometry": {"coordinates": [-107.319661357, 32.84910987], "type": "Point"}, "id": "2DjD6MFmMEXUHXPjFnar_0CnzlM=", "properties": {"@spider": "usps_collection_boxes", "addr:city": "ARREY", "addr:country": "US", "addr:full": "13717 HIGHWAY 187", "addr:postcode": "87930", "addr:state": "NM", "amenity": "post_box", "brand": "United States Postal Service", "brand:wikidata": "Q668687", "collection_times": "Mo-Fr 15:30; Sa 10:00", "name": "USPS COLLECTION BOX - PO LOBBY", "note": "ON 12/24 AND 12/31, THIS BOX MAY BE COLLECTED AS EARLY AS 12 NOON.", "nsi_id": "unitedstatespostalservice-a77078", "operator": "United States Postal Service", "operator:short": "USPS", "operator:type": "public", "operator:wikidata": "Q668687", "ref": "8793000002"}, "type": "Feature"}
{"geometry": {"coordinates": [-107.308363, 32.975342], "type": "Point"}, "id": "ckjNQv8wdd6ASR7olsufe0oZJMs=", "properties": {"@spider": "usps_collection_boxes", "addr:city": "CABALLO", "addr:country": "US", "addr:full": "14730 HIGHWAY 187", "addr:postcode": "87931", "addr:state": "NM", "amenity": "post_box", "brand": "United States Postal Service", "brand:wikidata": "Q668687", "collection_times": "Mo-Fr 15:30; Sa 10:00", "name": "USPS COLLECTION BOX - BLUE BOX", "note": "ON 12/24 AND 12/31, THIS BOX MAY BE COLLECTED AS EARLY AS 12 NOON.", "nsi_id": "unitedstatespostalservice-a77078", "operator": "United States Postal Service", "operator:short": "USPS", "operator:type": "public", "operator:wikidata": "Q668687", "ref": "8793100000"}, "type": "Feature"}
{"geometry": {"coordinates": [-107.307885, 32.975327], "type": "Point"}, "id": "yDCOPjS_u_0aTj5CWdFYY38C2-s=", "properties": {"@spider": "usps_collection_boxes", "addr:city": "CABALLO", "addr:country": "US", "addr:full": "14730 HIGHWAY 187", "addr:postcode": "87931", "addr:state": "NM", "amenity": "post_box", "brand": "United States Postal Service", "brand:wikidata": "Q668687", "collection_times": "Mo-Fr 11:45; Sa 10:00", "name": "USPS COLLECTION BOX - PO LOBBY", "nsi_id": "unitedstatespostalservice-a77078", "operator": "United States Postal Service", "operator:short": "USPS", "operator:type": "public", "operator:wikidata": "Q668687", "ref": "8793100001"}, "type": "Feature"}
{"geometry": {"coordinates": [-107.3079441688, 32.9752508093], "type": "Point"}, "id": "24nd8wdw8KbbVeN9J3lHgSV8zF4=", "properties": {"@spider": "usps_collection_boxes", "addr:city": "CABALLO", "addr:country": "US", "addr:full": "14730 HIGHWAY 187", "addr:postcode": "87931", "addr:state": "NM", "amenity": "post_box", "brand": "United States Postal Service", "brand:wikidata": "Q668687", "collection_times": "Mo-Fr 11:45; Sa 09:45", "name": "USPS COLLECTION BOX - PO LOBBY", "nsi_id": "unitedstatespostalservice-a77078", "operator": "United States Postal Service", "operator:short": "USPS", "operator:type": "public", "operator:wikidata": "Q668687", "ref": "8793100003"}, "type": "Feature"}
{"geometry": {"coordinates": [-107.2855115499, 32.7912864882], "type": "Point"}, "id": "mCI8upQK3_MJToksG5Wm40Ntrks=", "properties": {"@spider": "usps_collection_boxes", "addr:city": "DERRY", "addr:country": "US", "addr:full": "13125 HIGHWAY 187", "addr:postcode": "87933", "addr:state": "NM", "amenity": "post_box", "brand": "United States Postal Service", "brand:wikidata": "Q668687", "collection_times": "Mo-Fr 15:30; Sa 11:00", "name": "USPS COLLECTION BOX - PO LOBBY", "note": "ON 12/24 AND 12/31, THIS BOX MAY BE COLLECTED AS EARLY AS 12 NOON.", "nsi_id": "unitedstatespostalservice-a77078", "operator": "United States Postal Service", "operator:short": "USPS", "operator:type": "public", "operator:wikidata": "Q668687", "ref": "8793300000"}, "type": "Feature"}
{"geometry": {"coordinates": [-107.2855115499, 32.7912864882], "type": "Point"}, "id": "yD6B8xpIgM5pKfqy1-3gSdim6xo=", "properties": {"@spider": "usps_collection_boxes", "addr:city": "DERRY", "addr:country": "US", "addr:full": "13125 HIGHWAY 187", "addr:postcode": "87933", "addr:state": "NM", "amenity": "post_box", "brand": "United States Postal Service", "brand:wikidata": "Q668687", "collection_times": "Mo-Fr 15:30; Sa 11:00", "name": "USPS COLLECTION BOX - BLUE BOX", "note": "ON 12/24 AND 12/31, THIS BOX MAY BE COLLECTED AS EARLY AS 12 NOON.", "nsi_id": "unitedstatespostalservice-a77078", "operator": "United States Postal Service", "operator:short": "USPS", "operator:type": "public", "operator:wikidata": "Q668687", "ref": "8793300001"}, "type": "Feature"}
{"geometry": {"coordinates": [-107.2855115499, 32.7912864882], "type": "Point"}, "id": "bpshi_9nsHAav0e0l0eF5DPU7XQ=", "properties": {"@spider": "usps_collection_boxes", "addr:city": "DERRY", "addr:country": "US", "addr:full": "13125 HIGHWAY 187", "addr:postcode": "87933", "addr:state": "NM", "amenity": "post_box", "brand": "United States Postal Service", "brand:wikidata": "Q668687", "collection_times": "Mo-Fr 15:30; Sa 11:00", "name": "USPS COLLECTION BOX - PO LOBBY", "note": "ON 12/24 AND 12/31, THIS BOX MAY BE COLLECTED AS EARLY AS 12 NOON.", "nsi_id": "unitedstatespostalservice-a77078", "operator": "United States Postal Service", "operator:short": "USPS", "operator:type": "public", "operator:wikidata": "Q668687", "ref": "8793300002"}, "type": "Feature"}
{"geometry": {"coordinates": [-107.221419, 33.187215], "type": "Point"}, "id": "hSh7dg6i8TwRIv5Rhtvy-gBLR2Y=", "properties": {"@spider": "usps_collection_boxes", "addr:city": "ELEPHANT BUTTE", "addr:country": "US", "addr:full": "109 ODESSA ST", "addr:postcode": "87935", "addr:state": "NM", "amenity": "post_box", "brand": "United States Postal Service", "brand:wikidata": "Q668687", "collection_times": "Mo-Fr 16:00; Sa 10:30", "name": "USPS COLLECTION BOX - BLUE BOX", "note": "ON 12/24 AND 12/31, THIS BOX MAY BE COLLECTED AS EARLY AS 12 NOON.", "nsi_id": "unitedstatespostalservice-a77078", "operator": "United States Postal Service", "operator:short": "USPS", "operator:type": "public", "operator:wikidata": "Q668687", "ref": "8793500000"}, "type": "Feature"}
{"geometry": {"coordinates": [-107.221324, 33.187251], "type": "Point"}, "id": "1lz4sEuftmsTf0b5U4jvqe-LcPU=", "properties": {"@spider": "usps_collection_boxes", "addr:city": "ELEPHANT BUTTE", "addr:country": "US", "addr:full": "109 ODESSA ST", "addr:postcode": "87935", "addr:state": "NM", "amenity": "post_box", "brand": "United States Postal Service", "brand:wikidata": "Q668687", "collection_times": "Mo-Fr 16:00; Sa 10:30", "name": "USPS COLLECTION BOX - PO LOBBY", "note": "ON 12/24 AND 12/31, THIS BOX MAY BE COLLECTED AS EARLY AS 12 NOON.", "nsi_id": "unitedstatespostalservice-a77078", "operator": "United States Postal Service", "operator:short": "USPS", "operator:type": "public", "operator:wikidata": "Q668687", "ref": "8793500001"}, "type": "Feature"}
{"geometry": {"coordinates": [-107.221324, 33.187251], "type": "Point"}, "id": "tgK1vdBfF7H1HDS1z8rBwuWF7WE=", "properties": {"@spider": "usps_collection_boxes", "addr:city": "ELEPHANT BUTTE", "addr:country": "US", "addr:full": "109 ODESSA ST", "addr:postcode": "87935", "addr:state": "NM", "amenity": "post_box", "brand": "United States Postal Service", "brand:wikidata": "Q668687", "collection_times": "Mo-Fr 16:00; Sa 10:30", "name": "USPS COLLECTION BOX - PO LOBBY", "note": "ON 12/24 AND 12/31, THIS BOX MAY BE COLLECTED AS EARLY AS 12 NOON.", "nsi_id": "unitedstatespostalservice-a77078", "operator": "United States Postal Service", "operator:short": "USPS", "operator:type": "public", "operator:wikidata": "Q668687", "ref": "8793500002"}, "type": "Feature"}
{"geometry": {"coordinates": [-107.222157114, 33.186686436], "type": "Point"}, "id": "U7d6CIxUiG71r7WTiC3EAcfw8cE=", "properties": {"@spider": "usps_collection_boxes", "addr:city": "ELEPHANT BUTTE", "addr:country": "US", "addr:full": "109 ODESSA ST", "addr:postcode": "87935", "addr:state": "NM", "amenity": "post_box", "brand": "United States Postal Service", "brand:wikidata": "Q668687", "collection_times": "Mo-Fr 16:00", "name": "USPS COLLECTION BOX - PO LOBBY", "note": "ON 12/24 AND 12/31, THIS BOX MAY BE COLLECTED AS EARLY AS 12 NOON.", "nsi_id": "unitedstatespostalservice-a77078", "operator": "United States Postal Service", "operator:short": "USPS", "operator:type": "public", "operator:wikidata": "Q668687", "ref": "8793500003"}, "type": "Feature"}
{"geometry": {"coordinates": [-107.2648135519, 32.756630936], "type": "Point"}, "id": "2-TDKVmTjCN6mIkBLWMDmUsPGYg=", "properties": {"@spider": "usps_collection_boxes", "addr:city": "GARFIELD", "addr:country": "US", "addr:full": "8960 HIGHWAY 187", "addr:postcode": "87936", "addr:state": "NM", "amenity": "post_box", "brand": "United States Postal Service", "brand:wikidata": "Q668687", "collection_times": "Mo-Fr 15:45; Sa 09:45", "name": "USPS COLLECTION BOX - BLUE BOX", "note": "ON 12/24 AND 12/31, THIS BOX MAY BE COLLECTED AS EARLY AS 12 NOON.", "nsi_id": "unitedstatespostalservice-a77078", "operator": "United States Postal Service", "operator:short": "USPS", "operator:type": "public", "operator:wikidata": "Q668687", "ref": "8793600000"}, "type": "Feature"}
{"geometry": {"coordinates": [-107.2648135519, 32.756630936], "type": "Point"}, "id": "RWM8oTG0W9FxTrjoTl4CotOpQL8=", "properties": {"@spider": "usps_collection_boxes", "addr:city": "GARFIELD", "addr:country": "US", "addr:full": "8960 HIGHWAY 187", "addr:postcode": "87936", "addr:state": "NM", "amenity": "post_box", "brand": "United States Postal Service", "brand:wikidata": "Q668687", "collection_times": "Mo-Fr 11:45; Sa 09:45", "name": "USPS COLLECTION BOX - PO LOBBY", "nsi_id": "unitedstatespostalservice-a77078", "operator": "United States Postal Service", "operator:short": "USPS", "operator:type": "public", "operator:wikidata": "Q668687", "ref": "8793600001"}, "type": "Feature"}
{"geometry": {"coordinates": [-107.2648135519, 32.756630936], "type": "Point"}, "id": "agOHj7Lu4Epj-TDjWboV_BXRPPI=", "properties": {"@spider": "usps_collection_boxes", "addr:city": "GARFIELD", "addr:country": "US", "addr:full": "8960 HIGHWAY 187", "addr:postcode": "87936", "addr:state": "NM", "amenity": "post_box", "brand": "United States Postal Service", "brand:wikidata": "Q668687", "collection_times": "Mo-Fr 11:45; Sa 09:30", "name": "USPS COLLECTION BOX - PO LOBBY", "nsi_id": "unitedstatespostalservice-a77078", "operator": "United States Postal Service", "operator:short": "USPS", "operator:type": "public", "operator:wikidata": "Q668687", "ref": "8793600002"}, "type": "Feature"}
{"geometry": {"coordinates": [-107.153547, 32.666203], "type": "Point"}, "id": "gIUxXqXG1mm_t39iY7JISxf_EeY=", "properties": {"@spider": "usps_collection_boxes", "addr:city": "HATCH", "addr:country": "US", "addr:full": "107 DAVIS ST", "addr:postcode": "87937", "addr:state": "NM", "amenity": "post_box", "brand": "United States Postal Service", "brand:wikidata": "Q668687", "collection_times": "Mo-Fr 15:00; Sa 11:45", "name": "USPS COLLECTION BOX - BLUE BOX", "note": "ON 12/24 AND 12/31, THIS BOX MAY BE COLLECTED AS EARLY AS 12 NOON.", "nsi_id": "unitedstatespostalservice-a77078", "operator": "United States Postal Service", "operator:short": "USPS", "operator:type": "public", "operator:wikidata": "Q668687", "ref": "8793700000"}, "type": "Feature"}
{"geometry": {"coordinates": [-107.153453, 32.66623], "type": "Point"}, "id": "qSxdMYkL8598tHVoEbpiMkQVkuw=", "properties": {"@spider": "usps_collection_boxes", "addr:city": "HATCH", "addr:country": "US", "addr:full": "107 DAVIS ST", "addr:postcode": "87937", "addr:state": "NM", "amenity": "post_box", "brand": "United States Postal Service", "brand:wikidata": "Q668687", "collection_times": "Mo-Fr 15:00; Sa 11:45", "name": "USPS COLLECTION BOX - PO LOBBY", "note": "ON 12/24 AND 12/31, THIS BOX MAY BE COLLECTED AS EARLY AS 12 NOON.", "nsi_id": "unitedstatespostalservice-a77078", "operator": "United States Postal Service", "operator:short": "USPS", "operator:type": "public", "operator:wikidata": "Q668687", "ref": "8793700002"}, "type": "Feature"}
{"geometry": {"coordinates": [-107.153453, 32.66623], "type": "Point"}, "id": "ENzLzGNsYl0ZCrBkFA60UPZMfYI=", "properties": {"@spider": "usps_collection_boxes", "addr:city": "HATCH", "addr:country": "US", "addr:full": "107 DAVIS ST", "addr:postcode": "87937", "addr:state": "NM", "amenity": "post_box", "brand": "United States Postal Service", "brand:wikidata": "Q668687", "collection_times": "Mo-Fr 15:00; Sa 11:45", "name": "USPS COLLECTION BOX - PO LOBBY", "note": "ON 12/24 AND 12/31, THIS BOX MAY BE COLLECTED AS EARLY AS 12 NOON.", "nsi_id": "unitedstatespostalservice-a77078", "operator": "United States Postal Service", "operator:short": "USPS", "operator:type": "public", "operator:wikidata": "Q668687", "ref": "8793700003"}, "type": "Feature"}
{"geometry": {"coordinates": [-107.1535172618, 32.6661870931], "type": "Point"}, "id": "G7mzMkT1ACeKIMf0mLfd-8rF4xY=", "properties": {"@spider": "usps_collection_boxes", "addr:city": "HATCH", "addr:country": "US", "addr:full": "107 DAVIS ST", "addr:postcode": "87937", "addr:state": "NM", "amenity": "post_box", "brand": "United States Postal Service", "brand:wikidata": "Q668687", "collection_times": "Mo-Fr 15:00", "name": "USPS COLLECTION BOX - PO LOBBY", "note": "ON 12/24 AND 12/31, THIS BOX MAY BE COLLECTED AS EARLY AS 12 NOON.", "nsi_id": "unitedstatespostalservice-a77078", "operator": "United States Postal Service", "operator:short": "USPS", "operator:type": "public", "operator:wikidata": "Q668687", "ref": "8793700004"}, "type": "Feature"}
{"geometry": {"coordinates": [-107.448185, 33.395472], "type": "Point"}, "id": "98bSPR_dn3o2FPPLT48Wh8juJoE=", "properties": {"@spider": "usps_collection_boxes", "addr:city": "MONTICELLO", "addr:country": "US", "addr:full": "355 CALLE DEL NORTE RD", "addr:postcode": "87939", "addr:state": "NM", "amenity": "post_box", "brand": "United States Postal Service", "brand:wikidata": "Q668687", "collection_times": "Mo-Sa 09:00", "name": "USPS COLLECTION BOX - BLUE BOX", "nsi_id": "unitedstatespostalservice-a77078", "operator": "United States Postal Service", "operator:short": "USPS", "operator:type": "public", "operator:wikidata": "Q668687", "ref": "8793900000"}, "type": "Feature"}
{"geometry": {"coordinates": [-107.448268, 33.395474], "type": "Point"}, "id": "F7bgF2Vgm8OCZ3i-aUxmdbtMB18=", "properties": {"@spider": "usps_collection_boxes", "addr:city": "MONTICELLO", "addr:country": "US", "addr:full": "355 CALLE DEL NORTE RD", "addr:postcode": "87939", "addr:state": "NM", "amenity": "post_box", "brand": "United States Postal Service", "brand:wikidata": "Q668687", "collection_times": "Mo-Sa 09:00", "name": "USPS COLLECTION BOX - PO LOBBY", "nsi_id": "unitedstatespostalservice-a77078", "operator": "United States Postal Service", "operator:short": "USPS", "operator:type": "public", "operator:wikidata": "Q668687", "ref": "8793900001"}, "type": "Feature"}
{"geometry": {"coordinates": [-107.4482066978, 33.3955158412], "type": "Point"}, "id": "xG1sq2rvA8jgYL56VS3OwMqSPD0=", "properties": {"@spider": "usps_collection_boxes", "addr:city": "MONTICELLO", "addr:country": "US", "addr:full": "355 CALLE DEL NORTE RD", "addr:postcode": "87939", "addr:state": "NM", "amenity": "post_box", "brand": "United States Postal Service", "brand:wikidata": "Q668687", "collection_times": "Mo-Sa 08:45", "name": "USPS COLLECTION BOX - PO LOBBY", "nsi_id": "unitedstatespostalservice-a77078", "operator": "United States Postal Service", "operator:short": "USPS", "operator:type": "public", "operator:wikidata": "Q668687", "ref": "8793900002"}, "type": "Feature"}
{"geometry": {"coordinates": [-107.065557, 32.6725], "type": "Point"}, "id": "foYmurnsaFv1G0MpGdpHJNABsWA=", "properties": {"@spider": "usps_collection_boxes", "addr:city": "RINCON", "addr:country": "US", "addr:full": "2203 RINCON RD", "addr:postcode": "87940", "addr:state": "NM", "amenity": "post_box", "brand": "United States Postal Service", "brand:wikidata": "Q668687", "collection_times": "Mo-Fr 15:00; Sa 10:00", "name": "USPS COLLECTION BOX - BLUE BOX", "note": "ON 12/24 AND 12/31, THIS BOX MAY BE COLLECTED AS EARLY AS 12 NOON.", "nsi_id": "unitedstatespostalservice-a77078", "operator": "United States Postal Service", "operator:short": "USPS", "operator:type": "public", "operator:wikidata": "Q668687", "ref": "8794000000"}, "type": "Feature"}
{"geometry": {"coordinates": [-107.065435322, 32.672230512], "type": "Point"}, "id": "e5sT6JVVxWnBfAB4Z12TqYwHdQI=", "properties": {"@spider": "usps_collection_boxes", "addr:city": "RINCON", "addr:country": "US", "addr:full": "2203 RINCON RD", "addr:postcode": "87940", "addr:state": "NM", "amenity": "post_box", "brand": "United States Postal Service", "brand:wikidata": "Q668687", "collection_times": "Mo-Fr 12:45; Sa 09:45", "name": "USPS COLLECTION BOX - PO LOBBY", "note": "ON 12/24 AND 12/31, THIS BOX MAY BE COLLECTED AS EARLY AS 12 NOON.", "nsi_id": "unitedstatespostalservice-a77078", "operator": "United States Postal Service", "operator:short": "USPS", "operator:type": "public", "operator:wikidata": "Q668687", "ref": "8794000001"}, "type": "Feature"}
{"geometry": {"coordinates": [-107.2174, 32.707849], "type": "Point"}, "id": "TggNxQIZY1wpZa7znbtri5FnIlc=", "properties": {"@spider": "usps_collection_boxes", "addr:city": "SALEM", "addr:country": "US", "addr:full": "4550 HIGHWAY 187 N", "addr:postcode": "87941", "addr:state": "NM", "amenity": "post_box", "brand": "United States Postal Service", "brand:wikidata": "Q668687", "collection_times": "Mo-Fr 15:00; Sa 10:30", "name": "USPS COLLECTION BOX - BLUE BOX", "note": "ON 12/24 AND 12/31, THIS BOX MAY BE COLLECTED AS EARLY AS 12 NOON.", "nsi_id": "unitedstatespostalservice-a77078", "operator": "United States Postal Service", "operator:short": "USPS", "operator:type": "public", "operator:wikidata": "Q668687", "ref": "8794100000"}, "type": "Feature"}
{"geometry": {"coordinates": [-107.2174, 32.707849], "type": "Point"}, "id": "jQVwxysWuiq-idMTO9hvnTT8SpU=", "properties": {"@spider": "usps_collection_boxes", "addr:city": "SALEM", "addr:country": "US", "addr:full": "4550 HIGHWAY 187 N", "addr:postcode": "87941", "addr:state": "NM", "amenity": "post_box", "brand": "United States Postal Service", "brand:wikidata": "Q668687", "collection_times": "Mo-Fr 15:00; Sa 10:30", "name": "USPS COLLECTION BOX - PO LOBBY", "note": "ON 12/24 AND 12/31, THIS BOX MAY BE COLLECTED AS EARLY AS 12 NOON.", "nsi_id": "unitedstatespostalservice-a77078", "operator": "United States Postal Service", "operator:short": "USPS", "operator:type": "public", "operator:wikidata": "Q668687", "ref": "8794100001"}, "type": "Feature"}
{"geometry": {"coordinates": [-107.217526333, 32.707283929], "type": "Point"}, "id": "ss4Ug3Yyoim1FBId53epPO2cHp0=", "properties": {"@spider": "usps_collection_boxes", "addr:city": "SALEM", "addr:country": "US", "addr:full": "4550 HIGHWAY 187 N", "addr:postcode": "87941", "addr:state": "NM", "amenity": "post_box", "brand": "United States Postal Service", "brand:wikidata": "Q668687", "collection_times": "Mo-Fr 15:00; Sa 10:30", "name": "USPS COLLECTION BOX - PO LOBBY", "note": "ON 12/24 AND 12/31, THIS BOX MAY BE COLLECTED AS EARLY AS 12 NOON.", "nsi_id": "unitedstatespostalservice-a77078", "operator": "United States Postal Service", "operator:short": "USPS", "operator:type": "public", "operator:wikidata": "Q668687", "ref": "8794100002"}, "type": "Feature"}
{"geometry": {"coordinates": [-107.293258, 33.115365], "type": "Point"}, "id": "TjJzaemOWBauFiAdDwUfxo0xaUI=", "properties": {"@spider": "usps_collection_boxes", "addr:city": "WILLIAMSBURG", "addr:country": "US", "addr:full": "105 CENTRAL ST", "addr:postcode": "87942", "addr:state": "NM", "amenity": "post_box", "brand": "United States Postal Service", "brand:wikidata": "Q668687", "collection_times": "Mo-Fr 16:00; Sa 10:30", "name": "USPS COLLECTION BOX - PO LOBBY", "note": "ON 12/24 AND 12/31, THIS BOX MAY BE COLLECTED AS EARLY AS 12 NOON.", "nsi_id": "unitedstatespostalservice-a77078", "operator": "United States Postal Service", "operator:short": "USPS", "operator:type": "public", "operator:wikidata": "Q668687", "ref": "8794200001"}, "type": "Feature"}
{"geometry": {"coordinates": [-107.293225, 33.115347], "type": "Point"}, "id": "j8EfSf9LIebRToyZ7ArSHv4OFoU=", "properties": {"@spider": "usps_collection_boxes", "addr:city": "WILLIAMSBURG", "addr:country": "US", "addr:full": "105 CENTRAL ST", "addr:postcode": "87942", "addr:state": "NM", "amenity": "post_box", "brand": "United States Postal Service", "brand:wikidata": "Q668687", "collection_times": "Mo-Fr 16:00; Sa 10:30", "name": "USPS COLLECTION BOX - BLUE BOX", "note": "ON 12/24 AND 12/31, THIS BOX MAY BE COLLECTED AS EARLY AS 12 NOON.", "nsi_id": "unitedstatespostalservice-a77078", "operator": "United States Postal Service", "operator:short": "USPS", "operator:type": "public", "operator:wikidata": "Q668687", "ref": "8794200002"}, "type": "Feature"}
{"geometry": {"coordinates": [-107.293266339, 33.115193665], "type": "Point"}, "id": "N_IGUnR45IuFXn6PTJMUh_Yr2mw=", "properties": {"@spider": "usps_collection_boxes", "addr:city": "WILLIAMSBURG", "addr:country": "US", "addr:full": "105 CENTRAL ST", "addr:postcode": "87942", "addr:state": "NM", "amenity": "post_box", "brand": "United States Postal Service", "brand:wikidata": "Q668687", "collection_times": "Mo-Fr 16:00", "name": "USPS COLLECTION BOX - PO LOBBY", "note": "ON 12/24 AND 12/31, THIS BOX MAY BE COLLECTED AS EARLY AS 12 NOON.", "nsi_id": "unitedstatespostalservice-a77078", "operator": "United States Postal Service", "operator:short": "USPS", "operator:type": "public", "operator:wikidata": "Q668687", "ref": "8794200003"}, "type": "Feature"}
{"geometry": {"coordinates": [-107.6481325869, 33.3493090203], "type": "Point"}, "id": "LeoDpDoBBRZin_hv5dyMz_248z4=", "properties": {"@spider": "usps_collection_boxes", "addr:city": "WINSTON", "addr:country": "US", "addr:full": "451 GRAFTON RD", "addr:postcode": "87943", "addr:state": "NM", "amenity": "post_box", "brand": "United States Postal Service", "brand:wikidata": "Q668687", "collection_times": "Mo-Fr 11:00; Sa 09:00", "name": "USPS COLLECTION BOX - PO LOBBY", "nsi_id": "unitedstatespostalservice-a77078", "operator": "United States Postal Service", "operator:short": "USPS", "operator:type": "public", "operator:wikidata": "Q668687", "ref": "8794300000"}, "type": "Feature"}
{"geometry": {"coordinates": [-107.6481325869, 33.3493090203], "type": "Point"}, "id": "qQP2QizPvYN8ej3a3-hHwgXx4rs=", "properties": {"@spider": "usps_collection_boxes", "addr:city": "WINSTON", "addr:country": "US", "addr:full": "451 GRAFTON RD", "addr:postcode": "87943", "addr:state": "NM", "amenity": "post_box", "brand": "United States Postal Service", "brand:wikidata": "Q668687", "collection_times": "Mo-Fr 11:00; Sa 09:00", "name": "USPS COLLECTION BOX - PO LOBBY", "nsi_id": "unitedstatespostalservice-a77078", "operator": "United States Postal Service", "operator:short": "USPS", "operator:type": "public", "operator:wikidata": "Q668687", "ref": "8794300001"}, "type": "Feature"}
