{"geometry": {"coordinates": [-106.776681, 32.307892], "type": "Point"}, "id": "1LifJSm6ChUcIrdXat5li3IBHCM=", "properties": {"@source_uri": "https://tools.usps.com/UspsToolsRestServices/rest/POLocator/findLocations", "@spider": "usps_collection_boxes", "addr:city": "LAS CRUCES", "addr:country": "US", "addr:postcode": "88001", "addr:state": "NM", "addr:street_address": "277 E AMADOR AVE", "amenity": "post_box", "collection_times": "Mo-Fr 16:40; Sa 12:30", "note": "ON 12/24 AND 12/31, THIS BOX MAY BE COLLECTED AS EARLY AS 12 NOON.", "nsi_id": "unitedstatespostalservice-a77078", "operator": "United States Postal Service", "operator:short": "USPS", "operator:type": "public", "operator:wikidata": "Q668687", "ref": "8800100001"}, "type": "Feature"}
{"geometry": {"coordinates": [-106.779629, 32.309096], "type": "Point"}, "id": "2J1eKRomNs-OUxrOAaKm79IDn1o=", "properties": {"@source_uri": "https://tools.usps.com/UspsToolsRestServices/rest/POLocator/findLocations", "@spider": "usps_collection_boxes", "addr:city": "LAS CRUCES", "addr:country": "US", "addr:postcode": "88001", "addr:state": "NM", "addr:street_address": "110 S WATER ST", "amenity": "post_box", "collection_times": "Mo-Fr 11:20; Sa 12:25", "note": "ON 12/24 AND 12/31, THIS BOX MAY BE COLLECTED AS EARLY AS 12 NOON.", "nsi_id": "unitedstatespostalservice-a77078", "operator": "United States Postal Service", "operator:short": "USPS", "operator:type": "public", "operator:wikidata": "Q668687", "ref": "8800100006"}, "type": "Feature"}
{"geometry": {"coordinates": [-106.763014, 32.298874], "type": "Point"}, "id": "91kaS3WYSJ6wG_h-CSSYrt2KVd0=", "properties": {"@source_uri": "https://tools.usps.com/UspsToolsRestServices/rest/POLocator/findLocations", "@spider": "usps_collection_boxes", "addr:city": "LAS CRUCES", "addr:country": "US", "addr:postcode": "88001", "addr:state": "NM", "addr:street_address": "1206 E IDAHO AVE", "amenity": "post_box", "collection_times": "Mo-Fr 13:15; Sa 10:00", "note": "ON 12/24 AND 12/31, THIS BOX MAY BE COLLECTED AS EARLY AS 12 NOON.", "nsi_id": "unitedstatespostalservice-a77078", "operator": "United States Postal Service", "operator:short": "USPS", "operator:type": "public", "operator:wikidata": "Q668687", "ref": "8800100007"}, "type": "Feature"}
{"geometry": {"coordinates": [-106.7709285, 32.331708], "type": "Point"}, "id": "R8VwAz9yg00180lqZbWOvkdgeIk=", "properties": {"@source_uri": "https://tools.usps.com/UspsToolsRestServices/rest/POLocator/findLocations", "@spider": "usps_collection_boxes", "addr:city": "LAS CRUCES", "addr:country": "US", "addr:postcode": "88001", "addr:state": "NM", "addr:street_address": "2100 DESERT DR", "amenity": "post_box", "collection_times": "Mo-Fr 10:05; Sa 08:30", "nsi_id": "unitedstatespostalservice-a77078", "operator": "United States Postal Service", "operator:short": "USPS", "operator:type": "public", "operator:wikidata": "Q668687", "ref": "8800100015"}, "type": "Feature"}
{"geometry": {"coordinates": [-106.777859, 32.311505], "type": "Point"}, "id": "Tm-I-avLIxieAEYUII5XM9ChPoU=", "properties": {"@source_uri": "https://tools.usps.com/UspsToolsRestServices/rest/POLocator/findLocations", "@spider": "usps_collection_boxes", "addr:city": "LAS CRUCES", "addr:country": "US", "addr:postcode": "88001", "addr:state": "NM", "addr:street_address": "201 E LAS CRUCES AVE", "amenity": "post_box", "collection_times": "Mo-Fr 17:00; Sa 14:00", "indoor": "yes", "note": "ON 12/24 AND 12/31, THIS BOX MAY BE COLLECTED AS EARLY AS 12 NOON.", "nsi_id": "unitedstatespostalservice-a77078", "operator": "United States Postal Service", "operator:short": "USPS", "operator:type": "public", "operator:wikidata": "Q668687", "ref": "8800100024"}, "type": "Feature"}
{"geometry": {"coordinates": [-106.777957, 32.311461], "type": "Point"}, "id": "Q8A18ZA-r6cCDe06zzYc2cOU5BU=", "properties": {"@source_uri": "https://tools.usps.com/UspsToolsRestServices/rest/POLocator/findLocations", "@spider": "usps_collection_boxes", "addr:city": "LAS CRUCES", "addr:country": "US", "addr:postcode": "88001", "addr:state": "NM", "addr:street_address": "201 E LAS CRUCES AVE", "amenity": "post_box", "collection_times": "Mo-Fr 17:00; Sa 14:00", "indoor": "yes", "note": "ON 12/24 AND 12/31, THIS BOX MAY BE COLLECTED AS EARLY AS 12 NOON.", "nsi_id": "unitedstatespostalservice-a77078", "operator": "United States Postal Service", "operator:short": "USPS", "operator:type": "public", "operator:wikidata": "Q668687", "ref": "8800100025"}, "type": "Feature"}
{"geometry": {"coordinates": [-106.77605, 32.305258], "type": "Point"}, "id": "Nn3foUJHGgrWLhCJRCqXR1H6D60=", "properties": {"@source_uri": "https://tools.usps.com/UspsToolsRestServices/rest/POLocator/findLocations", "@spider": "usps_collection_boxes", "addr:city": "LAS CRUCES", "addr:country": "US", "addr:postcode": "88001", "addr:state": "NM", "addr:street_address": "505 S MAIN ST", "amenity": "post_box", "collection_times": "Mo-Fr 16:40; Sa 12:35", "note": "ON 12/24 AND 12/31, THIS BOX MAY BE COLLECTED AS EARLY AS 12 NOON.", "nsi_id": "unitedstatespostalservice-a77078", "operator": "United States Postal Service", "operator:short": "USPS", "operator:type": "public", "operator:wikidata": "Q668687", "ref": "8800100034"}, "type": "Feature"}
{"geometry": {"coordinates": [-106.74558, 32.286956], "type": "Point"}, "id": "8XXpqujTfSnjJ7rLLxiB6VXj4ig=", "properties": {"@source_uri": "https://tools.usps.com/UspsToolsRestServices/rest/POLocator/findLocations", "@spider": "usps_collection_boxes", "addr:city": "LAS CRUCES", "addr:country": "US", "addr:postcode": "88001", "addr:state": "NM", "addr:street_address": "1715 E UNIVERSITY AVE", "amenity": "post_box", "collection_times": "Mo-Fr 10:10; Sa 10:55", "nsi_id": "unitedstatespostalservice-a77078", "operator": "United States Postal Service", "operator:short": "USPS", "operator:type": "public", "operator:wikidata": "Q668687", "ref": "8800100036"}, "type": "Feature"}
{"geometry": {"coordinates": [-106.770892, 32.320916], "type": "Point"}, "id": "gM_r7qa4MNizkrPOemthoBHb3VA=", "properties": {"@source_uri": "https://tools.usps.com/UspsToolsRestServices/rest/POLocator/findLocations", "@spider": "usps_collection_boxes", "addr:city": "LAS CRUCES", "addr:country": "US", "addr:postcode": "88001", "addr:state": "NM", "addr:street_address": "1170 N SOLANO DR", "amenity": "post_box", "collection_times": "Mo-Fr 12:20", "note": "ON 12/24 AND 12/31, THIS BOX MAY BE COLLECTED AS EARLY AS 12 NOON.", "nsi_id": "unitedstatespostalservice-a77078", "operator": "United States Postal Service", "operator:short": "USPS", "operator:type": "public", "operator:wikidata": "Q668687", "ref": "8800100038"}, "type": "Feature"}
{"geometry": {"coordinates": [-106.783893, 32.32732], "type": "Point"}, "id": "-7Kfxkka_S_LNZwqIS3aQYg-dzw=", "properties": {"@source_uri": "https://tools.usps.com/UspsToolsRestServices/rest/POLocator/findLocations", "@spider": "usps_collection_boxes", "addr:city": "LAS CRUCES", "addr:country": "US", "addr:postcode": "88001", "addr:state": "NM", "addr:street_address": "2125 N MAIN ST", "amenity": "post_box", "collection_times": "Mo-Fr 10:05; Sa 08:20", "nsi_id": "unitedstatespostalservice-a77078", "operator": "United States Postal Service", "operator:short": "USPS", "operator:type": "public", "operator:wikidata": "Q668687", "ref": "8800100039"}, "type": "Feature"}
{"geometry": {"coordinates": [-106.756432, 32.311901], "type": "Point"}, "id": "nekUd6ruofteUubx-yVTlGRr_MM=", "properties": {"@source_uri": "https://tools.usps.com/UspsToolsRestServices/rest/POLocator/findLocations", "@spider": "usps_collection_boxes", "addr:city": "LAS CRUCES", "addr:country": "US", "addr:postcode": "88001", "addr:state": "NM", "addr:street_address": "2001 E LOHMAN AVE", "amenity": "post_box", "collection_times": "Mo-Sa 14:00", "note": "ON 12/24 AND 12/31, THIS BOX MAY BE COLLECTED AS EARLY AS 12 NOON.", "nsi_id": "unitedstatespostalservice-a77078", "operator": "United States Postal Service", "operator:short": "USPS", "operator:type": "public", "operator:wikidata": "Q668687", "ref": "8800100040"}, "type": "Feature"}
{"geometry": {"coordinates": [-106.773087, 32.301035], "type": "Point"}, "id": "K2AOTKnWVoTJdtyeYwSQM5DMQOw=", "properties": {"@source_uri": "https://tools.usps.com/UspsToolsRestServices/rest/POLocator/findLocations", "@spider": "usps_collection_boxes", "addr:city": "LAS CRUCES", "addr:country": "US", "addr:postcode": "88001", "addr:state": "NM", "addr:street_address": "320 WYATT DR", "amenity": "post_box", "collection_times": "Mo-Fr 10:55", "nsi_id": "unitedstatespostalservice-a77078", "operator": "United States Postal Service", "operator:short": "USPS", "operator:type": "public", "operator:wikidata": "Q668687", "ref": "8800100042"}, "type": "Feature"}
{"geometry": {"coordinates": [-106.750494, 32.315145], "type": "Point"}, "id": "ODqW8ywHnoMOhd4iWUAA_-22B8s=", "properties": {"@source_uri": "https://tools.usps.com/UspsToolsRestServices/rest/POLocator/findLocations", "@spider": "usps_collection_boxes", "addr:city": "LAS CRUCES", "addr:country": "US", "addr:postcode": "88001", "addr:state": "NM", "addr:street_address": "571 WALTON BLVD", "amenity": "post_box", "collection_times": "Mo-Sa 14:00", "note": "ON 12/24 AND 12/31, THIS BOX MAY BE COLLECTED AS EARLY AS 12 NOON.", "nsi_id": "unitedstatespostalservice-a77078", "operator": "United States Postal Service", "operator:short": "USPS", "operator:type": "public", "operator:wikidata": "Q668687", "ref": "8800100043"}, "type": "Feature"}
{"geometry": {"coordinates": [-106.76245, 32.284017], "type": "Point"}, "id": "9p5MmpDerp02vrJqd8632xlSFgs=", "properties": {"@source_uri": "https://tools.usps.com/UspsToolsRestServices/rest/POLocator/findLocations", "@spider": "usps_collection_boxes", "addr:city": "LAS CRUCES", "addr:country": "US", "addr:postcode": "88001", "addr:state": "NM", "addr:street_address": "2540 EL PASEO RD", "amenity": "post_box", "collection_times": "Mo-Fr 14:55", "note": "ON 12/24 AND 12/31, THIS BOX MAY BE COLLECTED AS EARLY AS 12 NOON.", "nsi_id": "unitedstatespostalservice-a77078", "operator": "United States Postal Service", "operator:short": "USPS", "operator:type": "public", "operator:wikidata": "Q668687", "ref": "8800100045"}, "type": "Feature"}
{"geometry": {"coordinates": [-106.777957, 32.311461], "type": "Point"}, "id": "V99RybPu9iU86C8s8JivIFperuU=", "properties": {"@source_uri": "https://tools.usps.com/UspsToolsRestServices/rest/POLocator/findLocations", "@spider": "usps_collection_boxes", "addr:city": "LAS CRUCES", "addr:country": "US", "addr:postcode": "88001", "addr:state": "NM", "addr:street_address": "201 E LAS CRUCES AVE", "amenity": "post_box", "collection_times": "Mo-Fr 17:00; Sa 14:00", "name": "USPS COLLECTION BOX - APC", "note": "ON 12/24 AND 12/31, THIS BOX MAY BE COLLECTED AS EARLY AS 12 NOON.", "nsi_id": "unitedstatespostalservice-a77078", "operator": "United States Postal Service", "operator:short": "USPS", "operator:type": "public", "operator:wikidata": "Q668687", "ref": "8800100048"}, "type": "Feature"}
{"geometry": {"coordinates": [-106.777957, 32.311461], "type": "Point"}, "id": "eXCk4zIykvKHI7Q_KjSxTzszB-s=", "properties": {"@source_uri": "https://tools.usps.com/UspsToolsRestServices/rest/POLocator/findLocations", "@spider": "usps_collection_boxes", "addr:city": "LAS CRUCES", "addr:country": "US", "addr:postcode": "88001", "addr:state": "NM", "addr:street_address": "201 E LAS CRUCES AVE", "amenity": "post_box", "collection_times": "Mo-Fr 17:00; Sa 14:00", "note": "ON 12/24 AND 12/31, THIS BOX MAY BE COLLECTED AS EARLY AS 12 NOON.", "nsi_id": "unitedstatespostalservice-a77078", "operator": "United States Postal Service", "operator:short": "USPS", "operator:type": "public", "operator:wikidata": "Q668687", "ref": "8800100050"}, "type": "Feature"}
{"geometry": {"coordinates": [-106.777487928, 32.311547202], "type": "Point"}, "id": "Sm5I1_WQIMv8axv2k7tieroBZgU=", "properties": {"@source_uri": "https://tools.usps.com/UspsToolsRestServices/rest/POLocator/findLocations", "@spider": "usps_collection_boxes", "addr:city": "LAS CRUCES", "addr:country": "US", "addr:postcode": "88001", "addr:state": "NM", "addr:street_address": "201 E LAS CRUCES AVE", "amenity": "post_box", "collection_times": "Mo-Fr 17:00; Sa 14:00", "indoor": "yes", "note": "ON 12/24 AND 12/31, THIS BOX MAY BE COLLECTED AS EARLY AS 12 NOON.", "nsi_id": "unitedstatespostalservice-a77078", "operator": "United States Postal Service", "operator:short": "USPS", "operator:type": "public", "operator:wikidata": "Q668687", "ref": "8800100055"}, "type": "Feature"}
{"geometry": {"coordinates": [-106.483946561, 32.383178572], "type": "Point"}, "id": "Y4dFrkiwYiaG0n7kj8IRpLBmJ8E=", "properties": {"@source_uri": "https://tools.usps.com/UspsToolsRestServices/rest/POLocator/findLocations", "@spider": "usps_collection_boxes", "addr:city": "LAS CRUCES", "addr:country": "US", "addr:postcode": "88002", "addr:state": "NM", "addr:street_address": "153 JOLLET", "amenity": "post_box", "collection_times": "Mo-Fr 16:00", "indoor": "yes", "note": "ON 12/24 AND 12/31, THIS BOX MAY BE COLLECTED AS EARLY AS 12 NOON.", "nsi_id": "unitedstatespostalservice-a77078", "operator": "United States Postal Service", "operator:short": "USPS", "operator:type": "public", "operator:wikidata": "Q668687", "ref": "8800200006"}, "type": "Feature"}
{"geometry": {"coordinates": [-106.483946561, 32.383178572], "type": "Point"}, "id": "ljI7mwhYFXEWSgAAV73GacGAM3U=", "properties": {"@source_uri": "https://tools.usps.com/UspsToolsRestServices/rest/POLocator/findLocations", "@spider": "usps_collection_boxes", "addr:city": "LAS CRUCES", "addr:country": "US", "addr:postcode": "88002", "addr:state": "NM", "addr:street_address": "153 JOLLET", "amenity": "post_box", "collection_times": "Mo-Fr 16:00", "indoor": "yes", "note": "ON 12/24 AND 12/31, THIS BOX MAY BE COLLECTED AS EARLY AS 12 NOON.", "nsi_id": "unitedstatespostalservice-a77078", "operator": "United States Postal Service", "operator:short": "USPS", "operator:type": "public", "operator:wikidata": "Q668687", "ref": "8800200007"}, "type": "Feature"}
{"geometry": {"coordinates": [-106.747251097, 32.2834883768], "type": "Point"}, "id": "SSx5DpICVSbL7rDKQuzFtWTECHY=", "properties": {"@source_uri": "https://tools.usps.com/UspsToolsRestServices/rest/POLocator/findLocations", "@spider": "usps_collection_boxes", "addr:city": "LAS CRUCES", "addr:country": "US", "addr:postcode": "88003", "addr:state": "NM", "addr:street_address": "1600 INTERNATIONAL MALL", "amenity": "post_box", "collection_times": "Mo-Fr 16:00", "indoor": "yes", "note": "ON 12/24 AND 12/31, THIS BOX MAY BE COLLECTED AS EARLY AS 12 NOON.", "nsi_id": "unitedstatespostalservice-a77078", "operator": "United States Postal Service", "operator:short": "USPS", "operator:type": "public", "operator:wikidata": "Q668687", "ref": "8800300007"}, "type": "Feature"}
{"geometry": {"coordinates": [-106.775925, 32.29767], "type": "Point"}, "id": "VlMaY24Fe6XlzTlaYjFXr0ZRdPw=", "properties": {"@source_uri": "https://tools.usps.com/UspsToolsRestServices/rest/POLocator/findLocations", "@spider": "usps_collection_boxes", "addr:city": "LAS CRUCES", "addr:country": "US", "addr:postcode": "88005", "addr:state": "NM", "addr:street_address": "225 E IDAHO AVE", "amenity": "post_box", "collection_times": "Mo-Fr 11:50; Sa 13:20", "note": "ON 12/24 AND 12/31, THIS BOX MAY BE COLLECTED AS EARLY AS 12 NOON.", "nsi_id": "unitedstatespostalservice-a77078", "operator": "United States Postal Service", "operator:short": "USPS", "operator:type": "public", "operator:wikidata": "Q668687", "ref": "8800500004"}, "type": "Feature"}
{"geometry": {"coordinates": [-106.780239073, 32.3110611396], "type": "Point"}, "id": "ppW32m0L2RB7PibLcg2DjS32UYM=", "properties": {"@source_uri": "https://tools.usps.com/UspsToolsRestServices/rest/POLocator/findLocations", "@spider": "usps_collection_boxes", "addr:city": "LAS CRUCES", "addr:country": "US", "addr:postcode": "88005", "addr:state": "NM", "addr:street_address": "200 W LAS CRUCES AVE", "amenity": "post_box", "collection_times": "Mo-Sa 11:15", "nsi_id": "unitedstatespostalservice-a77078", "operator": "United States Postal Service", "operator:short": "USPS", "operator:type": "public", "operator:wikidata": "Q668687", "ref": "8800500005"}, "type": "Feature"}
{"geometry": {"coordinates": [-106.7897786, 32.3132057], "type": "Point"}, "id": "Z-PzQq8RLPdJv5lAiRsUmxed14Q=", "properties": {"@source_uri": "https://tools.usps.com/UspsToolsRestServices/rest/POLocator/findLocations", "@spider": "usps_collection_boxes", "addr:city": "LAS CRUCES", "addr:country": "US", "addr:postcode": "88005", "addr:state": "NM", "addr:street_address": "2200 HOLIDAY AVE", "amenity": "post_box", "collection_times": "Mo-Fr 12:15; Sa 11:45", "note": "ON 12/24 AND 12/31, THIS BOX MAY BE COLLECTED AS EARLY AS 12 NOON.", "nsi_id": "unitedstatespostalservice-a77078", "operator": "United States Postal Service", "operator:short": "USPS", "operator:type": "public", "operator:wikidata": "Q668687", "ref": "8800500009"}, "type": "Feature"}
{"geometry": {"coordinates": [-106.778017, 32.299735], "type": "Point"}, "id": "RYJCDAw-shZXYZOLOKyanxPOims=", "properties": {"@source_uri": "https://tools.usps.com/UspsToolsRestServices/rest/POLocator/findLocations", "@spider": "usps_collection_boxes", "addr:city": "LAS CRUCES", "addr:country": "US", "addr:postcode": "88005", "addr:state": "NM", "addr:street_address": "1065 S MAIN ST", "amenity": "post_box", "collection_times": "Mo-Fr 11:45; Sa 12:40", "note": "ON 12/24 AND 12/31, THIS BOX MAY BE COLLECTED AS EARLY AS 12 NOON.", "nsi_id": "unitedstatespostalservice-a77078", "operator": "United States Postal Service", "operator:short": "USPS", "operator:type": "public", "operator:wikidata": "Q668687", "ref": "8800500014"}, "type": "Feature"}
{"geometry": {"coordinates": [-106.780395, 32.298374], "type": "Point"}, "id": "P0Vf2Ip_nv8dijleBj3MRXArAkw=", "properties": {"@source_uri": "https://tools.usps.com/UspsToolsRestServices/rest/POLocator/findLocations", "@spider": "usps_collection_boxes", "addr:city": "LAS CRUCES", "addr:country": "US", "addr:postcode": "88005", "addr:state": "NM", "addr:street_address": "1100 S MAIN ST", "amenity": "post_box", "collection_times": "Mo-Fr 11:45; Sa 13:15", "note": "ON 12/24 AND 12/31, THIS BOX MAY BE COLLECTED AS EARLY AS 12 NOON.", "nsi_id": "unitedstatespostalservice-a77078", "operator": "United States Postal Service", "operator:short": "USPS", "operator:type": "public", "operator:wikidata": "Q668687", "ref": "8800500015"}, "type": "Feature"}
{"geometry": {"coordinates": [-106.785101, 32.316312], "type": "Point"}, "id": "nD93_6Hhh7IY8aFoLYYNCoQmwHs=", "properties": {"@source_uri": "https://tools.usps.com/UspsToolsRestServices/rest/POLocator/findLocations", "@spider": "usps_collection_boxes", "addr:city": "LAS CRUCES", "addr:country": "US", "addr:postcode": "88005", "addr:state": "NM", "addr:street_address": "440 W PICACHO AVE", "amenity": "post_box", "collection_times": "Mo-Fr 12:25; Sa 12:05", "note": "ON 12/24 AND 12/31, THIS BOX MAY BE COLLECTED AS EARLY AS 12 NOON.", "nsi_id": "unitedstatespostalservice-a77078", "operator": "United States Postal Service", "operator:short": "USPS", "operator:type": "public", "operator:wikidata": "Q668687", "ref": "8800500018"}, "type": "Feature"}
{"geometry": {"coordinates": [-106.782493, 32.316041], "type": "Point"}, "id": "4s73UbOlJ2Q9WbRaeIY3ypqysnE=", "properties": {"@source_uri": "https://tools.usps.com/UspsToolsRestServices/rest/POLocator/findLocations", "@spider": "usps_collection_boxes", "addr:city": "LAS CRUCES", "addr:country": "US", "addr:postcode": "88005", "addr:state": "NM", "addr:street_address": "201 W PICACHO AVE", "amenity": "post_box", "collection_times": "Mo-Fr 15:30", "note": "ON 12/24 AND 12/31, THIS BOX MAY BE COLLECTED AS EARLY AS 12 NOON.", "nsi_id": "unitedstatespostalservice-a77078", "operator": "United States Postal Service", "operator:short": "USPS", "operator:type": "public", "operator:wikidata": "Q668687", "ref": "8800500021"}, "type": "Feature"}
{"geometry": {"coordinates": [-106.778078, 32.297889], "type": "Point"}, "id": "dUZcVzCWywAv9xPryzdxsGZOm_E=", "properties": {"@source_uri": "https://tools.usps.com/UspsToolsRestServices/rest/POLocator/findLocations", "@spider": "usps_collection_boxes", "addr:city": "LAS CRUCES", "addr:country": "US", "addr:postcode": "88005", "addr:state": "NM", "addr:street_address": "1151 MED PARK DR", "amenity": "post_box", "collection_times": "Mo-Fr 11:50; Sa 13:15", "note": "ON 12/24 AND 12/31, THIS BOX MAY BE COLLECTED AS EARLY AS 12 NOON.", "nsi_id": "unitedstatespostalservice-a77078", "operator": "United States Postal Service", "operator:short": "USPS", "operator:type": "public", "operator:wikidata": "Q668687", "ref": "8800500025"}, "type": "Feature"}
{"geometry": {"coordinates": [-106.815151, 32.305946], "type": "Point"}, "id": "7hLiLTzO9Me-qQvhu-j2g-ALRas=", "properties": {"@source_uri": "https://tools.usps.com/UspsToolsRestServices/rest/POLocator/findLocations", "@spider": "usps_collection_boxes", "addr:city": "LAS CRUCES", "addr:country": "US", "addr:postcode": "88005", "addr:state": "NM", "addr:street_address": "845 N MOTEL BLVD", "amenity": "post_box", "collection_times": "Mo-Fr 15:30", "note": "ON 12/24 AND 12/31, THIS BOX MAY BE COLLECTED AS EARLY AS 12 NOON.", "nsi_id": "unitedstatespostalservice-a77078", "operator": "United States Postal Service", "operator:short": "USPS", "operator:type": "public", "operator:wikidata": "Q668687", "ref": "8800500030"}, "type": "Feature"}
{"geometry": {"coordinates": [-106.76339, 32.347343], "type": "Point"}, "id": "iZWJ0MciUrGJ9Ba1xUY9tvcLE7I=", "properties": {"@source_uri": "https://tools.usps.com/UspsToolsRestServices/rest/POLocator/findLocations", "@spider": "usps_collection_boxes", "addr:city": "LAS CRUCES", "addr:country": "US", "addr:postcode": "88011", "addr:state": "NM", "addr:street_address": "1180 COMMERCE DR", "amenity": "post_box", "collection_times": "Mo-Fr 17:30; Sa 14:00", "note": "ON 12/24 AND 12/31, THIS BOX MAY BE COLLECTED AS EARLY AS 12 NOON.", "nsi_id": "unitedstatespostalservice-a77078", "operator": "United States Postal Service", "operator:short": "USPS", "operator:type": "public", "operator:wikidata": "Q668687", "ref": "8801100029"}, "type": "Feature"}
{"geometry": {"coordinates": [-106.76342, 32.347362], "type": "Point"}, "id": "w8GwHCqsbazZXIOMq0K722mpDuU=", "properties": {"@source_uri": "https://tools.usps.com/UspsToolsRestServices/rest/POLocator/findLocations", "@spider": "usps_collection_boxes", "addr:city": "LAS CRUCES", "addr:country": "US", "addr:postcode": "88011", "addr:state": "NM", "addr:street_address": "1180 COMMERCE DR", "amenity": "post_box", "collection_times": "Mo-Fr 17:30; Sa 14:00", "note": "ON 12/24 AND 12/31, THIS BOX MAY BE COLLECTED AS EARLY AS 12 NOON.", "nsi_id": "unitedstatespostalservice-a77078", "operator": "United States Postal Service", "operator:short": "USPS", "operator:type": "public", "operator:wikidata": "Q668687", "ref": "8801100030"}, "type": "Feature"}
{"geometry": {"coordinates": [-106.76342, 32.347362], "type": "Point"}, "id": "ycyHnWx9x4yuVIpEcAK6Ujq9uWA=", "properties": {"@source_uri": "https://tools.usps.com/UspsToolsRestServices/rest/POLocator/findLocations", "@spider": "usps_collection_boxes", "addr:city": "LAS CRUCES", "addr:country": "US", "addr:postcode": "88011", "addr:state": "NM", "addr:street_address": "1180 COMMERCE DR", "amenity": "post_box", "collection_times": "Mo-Fr 17:30; Sa 14:00", "indoor": "yes", "note": "ON 12/24 AND 12/31, THIS BOX MAY BE COLLECTED AS EARLY AS 12 NOON.", "nsi_id": "unitedstatespostalservice-a77078", "operator": "United States Postal Service", "operator:short": "USPS", "operator:type": "public", "operator:wikidata": "Q668687", "ref": "8801100034"}, "type": "Feature"}
{"geometry": {"coordinates": [-106.76342, 32.347362], "type": "Point"}, "id": "OnJ0X-NTxz3cA-lIQwxWWZWfvYk=", "properties": {"@source_uri": "https://tools.usps.com/UspsToolsRestServices/rest/POLocator/findLocations", "@spider": "usps_collection_boxes", "addr:city": "LAS CRUCES", "addr:country": "US", "addr:postcode": "88011", "addr:state": "NM", "addr:street_address": "1180 COMMERCE DR", "amenity": "post_box", "collection_times": "Mo-Fr 17:30; Sa 14:00", "indoor": "yes", "note": "ON 12/24 AND 12/31, THIS BOX MAY BE COLLECTED AS EARLY AS 12 NOON.", "nsi_id": "unitedstatespostalservice-a77078", "operator": "United States Postal Service", "operator:short": "USPS", "operator:type": "public", "operator:wikidata": "Q668687", "ref": "8801100035"}, "type": "Feature"}
{"geometry": {"coordinates": [-106.733658, 32.290613], "type": "Point"}, "id": "XBh5GEZ0fLQqjRIO0wJyQHgtZik=", "properties": {"@source_uri": "https://tools.usps.com/UspsToolsRestServices/rest/POLocator/findLocations", "@spider": "usps_collection_boxes", "addr:city": "LAS CRUCES", "addr:country": "US", "addr:postcode": "88011", "addr:state": "NM", "addr:street_address": "2525 S TELSHOR BLVD", "amenity": "post_box", "collection_times": "Mo-Fr 14:15; Sa 11:00", "note": "ON 12/24 AND 12/31, THIS BOX MAY BE COLLECTED AS EARLY AS 12 NOON.", "nsi_id": "unitedstatespostalservice-a77078", "operator": "United States Postal Service", "operator:short": "USPS", "operator:type": "public", "operator:wikidata": "Q668687", "ref": "8801100036"}, "type": "Feature"}
{"geometry": {"coordinates": [-106.740038, 32.311862], "type": "Point"}, "id": "SWR2veWR_I-RXtnLXklm5CuAUbI=", "properties": {"@source_uri": "https://tools.usps.com/UspsToolsRestServices/rest/POLocator/findLocations", "@spider": "usps_collection_boxes", "addr:city": "LAS CRUCES", "addr:country": "US", "addr:postcode": "88011", "addr:state": "NM", "addr:street_address": "755 S TELSHOR BLVD", "amenity": "post_box", "collection_times": "Mo-Fr 13:40; Sa 10:00", "note": "ON 12/24 AND 12/31, THIS BOX MAY BE COLLECTED AS EARLY AS 12 NOON.", "nsi_id": "unitedstatespostalservice-a77078", "operator": "United States Postal Service", "operator:short": "USPS", "operator:type": "public", "operator:wikidata": "Q668687", "ref": "8801100037"}, "type": "Feature"}
{"geometry": {"coordinates": [-106.73441, 32.293015], "type": "Point"}, "id": "pLwN9YMYBPOqakeGon_2cLLPc0Q=", "properties": {"@source_uri": "https://tools.usps.com/UspsToolsRestServices/rest/POLocator/findLocations", "@spider": "usps_collection_boxes", "addr:city": "LAS CRUCES", "addr:country": "US", "addr:postcode": "88011", "addr:state": "NM", "addr:street_address": "2415 S TELSHOR BLVD", "amenity": "post_box", "collection_times": "Mo-Fr 14:20; Sa 11:05", "note": "ON 12/24 AND 12/31, THIS BOX MAY BE COLLECTED AS EARLY AS 12 NOON.", "nsi_id": "unitedstatespostalservice-a77078", "operator": "United States Postal Service", "operator:short": "USPS", "operator:type": "public", "operator:wikidata": "Q668687", "ref": "8801100038"}, "type": "Feature"}
{"geometry": {"coordinates": [-106.765926, 32.343918], "type": "Point"}, "id": "b39P-iBolrs1pWWPSvNKvdbSeJ4=", "properties": {"@source_uri": "https://tools.usps.com/UspsToolsRestServices/rest/POLocator/findLocations", "@spider": "usps_collection_boxes", "addr:city": "LAS CRUCES", "addr:country": "US", "addr:postcode": "88011", "addr:state": "NM", "addr:street_address": "2507 N TELSHOR BLVD", "amenity": "post_box", "collection_times": "Mo-Fr 13:55; Sa 09:00", "note": "ON 12/24 AND 12/31, THIS BOX MAY BE COLLECTED AS EARLY AS 12 NOON.", "nsi_id": "unitedstatespostalservice-a77078", "operator": "United States Postal Service", "operator:short": "USPS", "operator:type": "public", "operator:wikidata": "Q668687", "ref": "8801100039"}, "type": "Feature"}
{"geometry": {"coordinates": [-106.7376889692, 32.3003219917], "type": "Point"}, "id": "FRwGvAVoYC8tnv2PosV5_srbi8I=", "properties": {"@source_uri": "https://tools.usps.com/UspsToolsRestServices/rest/POLocator/findLocations", "@spider": "usps_collection_boxes", "addr:city": "LAS CRUCES", "addr:country": "US", "addr:postcode": "88011", "addr:state": "NM", "addr:street_address": "2801 MISSOURI AVE", "amenity": "post_box", "collection_times": "Mo-Fr 13:25; Sa 10:00", "note": "ON 12/24 AND 12/31, THIS BOX MAY BE COLLECTED AS EARLY AS 12 NOON.", "nsi_id": "unitedstatespostalservice-a77078", "operator": "United States Postal Service", "operator:short": "USPS", "operator:type": "public", "operator:wikidata": "Q668687", "ref": "8801100040"}, "type": "Feature"}
{"geometry": {"coordinates": [-106.727895, 32.324428], "type": "Point"}, "id": "jmHQ7M1xXrgrBVDdBW0HmfyNy9Q=", "properties": {"@source_uri": "https://tools.usps.com/UspsToolsRestServices/rest/POLocator/findLocations", "@spider": "usps_collection_boxes", "addr:city": "LAS CRUCES", "addr:country": "US", "addr:postcode": "88011", "addr:state": "NM", "addr:street_address": "4351 E LOHMAN AVE", "amenity": "post_box", "collection_times": "Mo-Fr 13:50; Sa 09:45", "note": "ON 12/24 AND 12/31, THIS BOX MAY BE COLLECTED AS EARLY AS 12 NOON.", "nsi_id": "unitedstatespostalservice-a77078", "operator": "United States Postal Service", "operator:short": "USPS", "operator:type": "public", "operator:wikidata": "Q668687", "ref": "8801100041"}, "type": "Feature"}
{"geometry": {"coordinates": [-106.762873184, 32.3486226237], "type": "Point"}, "id": "l_ZQ_xsFos6yFavE67nhgKFDNcQ=", "properties": {"@source_uri": "https://tools.usps.com/UspsToolsRestServices/rest/POLocator/findLocations", "@spider": "usps_collection_boxes", "addr:city": "LAS CRUCES", "addr:country": "US", "addr:postcode": "88011", "addr:state": "NM", "addr:street_address": "1180 COMMERCE DR", "amenity": "post_box", "collection_times": "Mo-Fr 17:30; Sa 14:00", "indoor": "yes", "note": "ON 12/24 AND 12/31, THIS BOX MAY BE COLLECTED AS EARLY AS 12 NOON.", "nsi_id": "unitedstatespostalservice-a77078", "operator": "United States Postal Service", "operator:short": "USPS", "operator:type": "public", "operator:wikidata": "Q668687", "ref": "8801100044"}, "type": "Feature"}
{"geometry": {"coordinates": [-108.807201329, 31.9513713111], "type": "Point"}, "id": "YERcjfMeB5BTT_9fxYxT4qpMqqY=", "properties": {"@source_uri": "https://tools.usps.com/UspsToolsRestServices/rest/POLocator/findLocations", "@spider": "usps_collection_boxes", "addr:city": "ANIMAS", "addr:country": "US", "addr:postcode": "88020", "addr:state": "NM", "addr:street_address": "2415 STATE HIGHWAY 338", "amenity": "post_box", "collection_times": "Mo-Fr 15:00; Sa 10:30", "note": "ON 12/24 AND 12/31, THIS BOX MAY BE COLLECTED AS EARLY AS 12 NOON.", "nsi_id": "unitedstatespostalservice-a77078", "operator": "United States Postal Service", "operator:short": "USPS", "operator:type": "public", "operator:wikidata": "Q668687", "ref": "8802000000"}, "type": "Feature"}
{"geometry": {"coordinates": [-108.807201329, 31.9513713111], "type": "Point"}, "id": "5sDPyLfUFkBrIOOwDD004cMB3f4=", "properties": {"@source_uri": "https://tools.usps.com/UspsToolsRestServices/rest/POLocator/findLocations", "@spider": "usps_collection_boxes", "addr:city": "ANIMAS", "addr:country": "US", "addr:postcode": "88020", "addr:state": "NM", "addr:street_address": "2415 STATE HIGHWAY 338", "amenity": "post_box", "collection_times": "Mo-Fr 15:00; Sa 10:30", "indoor": "yes", "note": "ON 12/24 AND 12/31, THIS BOX MAY BE COLLECTED AS EARLY AS 12 NOON.", "nsi_id": "unitedstatespostalservice-a77078", "operator": "United States Postal Service", "operator:short": "USPS", "operator:type": "public", "operator:wikidata": "Q668687", "ref": "8802000002"}, "type": "Feature"}
{"geometry": {"coordinates": [-108.807201329, 31.9513713111], "type": "Point"}, "id": "b0h8njlhey1oc_LMJzQkh0-PF1Y=", "properties": {"@source_uri": "https://tools.usps.com/UspsToolsRestServices/rest/POLocator/findLocations", "@spider": "usps_collection_boxes", "addr:city": "ANIMAS", "addr:country": "US", "addr:postcode": "88020", "addr:state": "NM", "addr:street_address": "2415 STATE HIGHWAY 338", "amenity": "post_box", "collection_times": "Mo-Fr 14:45; Sa 10:15", "indoor": "yes", "note": "ON 12/24 AND 12/31, THIS BOX MAY BE COLLECTED AS EARLY AS 12 NOON.", "nsi_id": "unitedstatespostalservice-a77078", "operator": "United States Postal Service", "operator:short": "USPS", "operator:type": "public", "operator:wikidata": "Q668687", "ref": "8802000003"}, "type": "Feature"}
{"geometry": {"coordinates": [-106.605104, 32.013692], "type": "Point"}, "id": "-3CNGi1Qf5pJV8q3dXtvHLQ5ZMU=", "properties": {"@source_uri": "https://tools.usps.com/UspsToolsRestServices/rest/POLocator/findLocations", "@spider": "usps_collection_boxes", "addr:city": "ANTHONY", "addr:country": "US", "addr:postcode": "88021", "addr:state": "NM", "addr:street_address": "1190 ANTHONY DR", "amenity": "post_box", "collection_times": "Mo-Fr 16:00; Sa 12:30", "note": "ON 12/24 AND 12/31, THIS BOX MAY BE COLLECTED AS EARLY AS 12 NOON.", "nsi_id": "unitedstatespostalservice-a77078", "operator": "United States Postal Service", "operator:short": "USPS", "operator:type": "public", "operator:wikidata": "Q668687", "ref": "8802100000"}, "type": "Feature"}
{"geometry": {"coordinates": [-106.605095, 32.01378], "type": "Point"}, "id": "wEqNqE_WzBfYLTzKMH1AVNHOqFo=", "properties": {"@source_uri": "https://tools.usps.com/UspsToolsRestServices/rest/POLocator/findLocations", "@spider": "usps_collection_boxes", "addr:city": "ANTHONY", "addr:country": "US", "addr:postcode": "88021", "addr:state": "NM", "addr:street_address": "1190 ANTHONY DR", "amenity": "post_box", "collection_times": "Mo-Fr 16:00; Sa 12:30", "indoor": "yes", "note": "ON 12/24 AND 12/31, THIS BOX MAY BE COLLECTED AS EARLY AS 12 NOON.", "nsi_id": "unitedstatespostalservice-a77078", "operator": "United States Postal Service", "operator:short": "USPS", "operator:type": "public", "operator:wikidata": "Q668687", "ref": "8802100002"}, "type": "Feature"}
{"geometry": {"coordinates": [-106.605095, 32.01378], "type": "Point"}, "id": "jJzUTEUmRuQykg6VQ0gm0qJcUbA=", "properties": {"@source_uri": "https://tools.usps.com/UspsToolsRestServices/rest/POLocator/findLocations", "@spider": "usps_collection_boxes", "addr:city": "ANTHONY", "addr:country": "US", "addr:postcode": "88021", "addr:state": "NM", "addr:street_address": "1190 ANTHONY DR", "amenity": "post_box", "collection_times": "Mo-Fr 16:00; Sa 12:30", "indoor": "yes", "note": "ON 12/24 AND 12/31, THIS BOX MAY BE COLLECTED AS EARLY AS 12 NOON.", "nsi_id": "unitedstatespostalservice-a77078", "operator": "United States Postal Service", "operator:short": "USPS", "operator:type": "public", "operator:wikidata": "Q668687", "ref": "8802100005"}, "type": "Feature"}
{"geometry": {"coordinates": [-106.605095, 32.01378], "type": "Point"}, "id": "2ajizMx06kKi28Bl_Oy0UUAJNNU=", "properties": {"@source_uri": "https://tools.usps.com/UspsToolsRestServices/rest/POLocator/findLocations", "@spider": "usps_collection_boxes", "addr:city": "ANTHONY", "addr:country": "US", "addr:postcode": "88021", "addr:state": "NM", "addr:street_address": "1190 ANTHONY DR", "amenity": "post_box", "collection_times": "Mo-Fr 16:00; Sa 12:30", "indoor": "yes", "note": "ON 12/24 AND 12/31, THIS BOX MAY BE COLLECTED AS EARLY AS 12 NOON.", "nsi_id": "unitedstatespostalservice-a77078", "operator": "United States Postal Service", "operator:short": "USPS", "operator:type": "public", "operator:wikidata": "Q668687", "ref": "8802100006"}, "type": "Feature"}
{"geometry": {"coordinates": [-106.605193568, 32.013489009], "type": "Point"}, "id": "RKS1HcR5sbf05djiQnvK5ECYJj0=", "properties": {"@source_uri": "https://tools.usps.com/UspsToolsRestServices/rest/POLocator/findLocations", "@spider": "usps_collection_boxes", "addr:city": "ANTHONY", "addr:country": "US", "addr:postcode": "88021", "addr:state": "NM", "addr:street_address": "1190 ANTHONY DR", "amenity": "post_box", "collection_times": "Mo-Fr 16:00; Sa 12:30", "indoor": "yes", "note": "ON 12/24 AND 12/31, THIS BOX MAY BE COLLECTED AS EARLY AS 12 NOON.", "nsi_id": "unitedstatespostalservice-a77078", "operator": "United States Postal Service", "operator:short": "USPS", "operator:type": "public", "operator:wikidata": "Q668687", "ref": "8802100008"}, "type": "Feature"}
{"geometry": {"coordinates": [-108.138652, 32.758081], "type": "Point"}, "id": "Ys8u3zLr68kJYEtlpcmk1fslzkU=", "properties": {"@source_uri": "https://tools.usps.com/UspsToolsRestServices/rest/POLocator/findLocations", "@spider": "usps_collection_boxes", "addr:city": "BAYARD", "addr:country": "US", "addr:postcode": "88023", "addr:state": "NM", "addr:street_address": "810 CENTRAL AVE", "amenity": "post_box", "collection_times": "Mo-Fr 15:15; Sa 12:30", "indoor": "yes", "note": "ON 12/24 AND 12/31, THIS BOX MAY BE COLLECTED AS EARLY AS 12 NOON.", "nsi_id": "unitedstatespostalservice-a77078", "operator": "United States Postal Service", "operator:short": "USPS", "operator:type": "public", "operator:wikidata": "Q668687", "ref": "8802300002"}, "type": "Feature"}
{"geometry": {"coordinates": [-108.1311744076, 32.7597460197], "type": "Point"}, "id": "Q5cTauJ_f5SbnPfxsRh4vMmo1F0=", "properties": {"@source_uri": "https://tools.usps.com/UspsToolsRestServices/rest/POLocator/findLocations", "@spider": "usps_collection_boxes", "addr:city": "BAYARD", "addr:country": "US", "addr:postcode": "88023", "addr:state": "NM", "addr:street_address": "810 CENTRAL AVE", "amenity": "post_box", "collection_times": "Mo-Fr 15:15; Sa 12:30", "indoor": "yes", "note": "ON 12/24 AND 12/31, THIS BOX MAY BE COLLECTED AS EARLY AS 12 NOON.", "nsi_id": "unitedstatespostalservice-a77078", "operator": "United States Postal Service", "operator:short": "USPS", "operator:type": "public", "operator:wikidata": "Q668687", "ref": "8802300005"}, "type": "Feature"}
{"geometry": {"coordinates": [-108.7107, 33.038093], "type": "Point"}, "id": "rAf41e0hCihhMo69QFJNoSrE-rk=", "properties": {"@source_uri": "https://tools.usps.com/UspsToolsRestServices/rest/POLocator/findLocations", "@spider": "usps_collection_boxes", "addr:city": "BUCKHORN", "addr:country": "US", "addr:postcode": "88025", "addr:state": "NM", "addr:street_address": "7658 HIGHWAY 180 W", "amenity": "post_box", "collection_times": "Mo-Fr 15:00; Sa 11:15", "note": "ON 12/24 AND 12/31, THIS BOX MAY BE COLLECTED AS EARLY AS 12 NOON.", "nsi_id": "unitedstatespostalservice-a77078", "operator": "United States Postal Service", "operator:short": "USPS", "operator:type": "public", "operator:wikidata": "Q668687", "ref": "8802500000"}, "type": "Feature"}
{"geometry": {"coordinates": [-108.7107, 33.038093], "type": "Point"}, "id": "0Gkxioy-h8bjr72V3uWWi1v00UY=", "properties": {"@source_uri": "https://tools.usps.com/UspsToolsRestServices/rest/POLocator/findLocations", "@spider": "usps_collection_boxes", "addr:city": "BUCKHORN", "addr:country": "US", "addr:postcode": "88025", "addr:state": "NM", "addr:street_address": "7658 HIGHWAY 180 W", "amenity": "post_box", "collection_times": "Mo-Fr 15:00; Sa 11:15", "indoor": "yes", "note": "ON 12/24 AND 12/31, THIS BOX MAY BE COLLECTED AS EARLY AS 12 NOON.", "nsi_id": "unitedstatespostalservice-a77078", "operator": "United States Postal Service", "operator:short": "USPS", "operator:type": "public", "operator:wikidata": "Q668687", "ref": "8802500001"}, "type": "Feature"}
{"geometry": {"coordinates": [-108.704969732, 33.034559082], "type": "Point"}, "id": "qVdA5DBRLyQNn97KqiLlart5ccw=", "properties": {"@source_uri": "https://tools.usps.com/UspsToolsRestServices/rest/POLocator/findLocations", "@spider": "usps_collection_boxes", "addr:city": "BUCKHORN", "addr:country": "US", "addr:postcode": "88025", "addr:state": "NM", "addr:street_address": "7658 HIGHWAY 180 W", "amenity": "post_box", "collection_times": "Mo-Fr 14:45; Sa 11:00", "indoor": "yes", "note": "ON 12/24 AND 12/31, THIS BOX MAY BE COLLECTED AS EARLY AS 12 NOON.", "nsi_id": "unitedstatespostalservice-a77078", "operator": "United States Postal Service", "operator:short": "USPS", "operator:type": "public", "operator:wikidata": "Q668687", "ref": "8802500002"}, "type": "Feature"}
{"geometry": {"coordinates": [-108.152915357, 32.771811381], "type": "Point"}, "id": "bVW2Htuvbjoq78RLyX-rxynDMYc=", "properties": {"@source_uri": "https://tools.usps.com/UspsToolsRestServices/rest/POLocator/findLocations", "@spider": "usps_collection_boxes", "addr:city": "SANTA CLARA", "addr:country": "US", "addr:postcode": "88026", "addr:state": "NM", "addr:street_address": "514 FORT BAYARD ST", "amenity": "post_box", "collection_times": "Mo-Fr 15:30; Sa 10:30", "indoor": "yes", "note": "ON 12/24 AND 12/31, THIS BOX MAY BE COLLECTED AS EARLY AS 12 NOON.", "nsi_id": "unitedstatespostalservice-a77078", "operator": "United States Postal Service", "operator:short": "USPS", "operator:type": "public", "operator:wikidata": "Q668687", "ref": "8802600000"}, "type": "Feature"}
{"geometry": {"coordinates": [-108.152915357, 32.771811381], "type": "Point"}, "id": "IZBLvh5b4K52odCqcsSJ5_kWAJA=", "properties": {"@source_uri": "https://tools.usps.com/UspsToolsRestServices/rest/POLocator/findLocations", "@spider": "usps_collection_boxes", "addr:city": "SANTA CLARA", "addr:country": "US", "addr:postcode": "88026", "addr:state": "NM", "addr:street_address": "514 FORT BAYARD ST", "amenity": "post_box", "collection_times": "Mo-Fr 15:30", "indoor": "yes", "note": "ON 12/24 AND 12/31, THIS BOX MAY BE COLLECTED AS EARLY AS 12 NOON.", "nsi_id": "unitedstatespostalservice-a77078", "operator": "United States Postal Service", "operator:short": "USPS", "operator:type": "public", "operator:wikidata": "Q668687", "ref": "8802600002"}, "type": "Feature"}
{"geometry": {"coordinates": [-106.674469, 32.045184], "type": "Point"}, "id": "x_yY157bAnQv-krsem3F_FgcSB8=", "properties": {"@source_uri": "https://tools.usps.com/UspsToolsRestServices/rest/POLocator/findLocations", "@spider": "usps_collection_boxes", "addr:city": "CHAMBERINO", "addr:country": "US", "addr:postcode": "88027", "addr:state": "NM", "addr:street_address": "9620 STATE HIGHWAY 28 S", "amenity": "post_box", "collection_times": "Mo-Fr 16:30; Sa 09:45", "indoor": "yes", "note": "ON 12/24 AND 12/31, THIS BOX MAY BE COLLECTED AS EARLY AS 12 NOON.", "nsi_id": "unitedstatespostalservice-a77078", "operator": "United States Postal Service", "operator:short": "USPS", "operator:type": "public", "operator:wikidata": "Q668687", "ref": "8802700000"}, "type": "Feature"}
{"geometry": {"coordinates": [-106.674204589, 32.044099516], "type": "Point"}, "id": "j0SMVrAkCK_cA4xxYgcSn3zwDtE=", "properties": {"@source_uri": "https://tools.usps.com/UspsToolsRestServices/rest/POLocator/findLocations", "@spider": "usps_collection_boxes", "addr:city": "CHAMBERINO", "addr:country": "US", "addr:postcode": "88027", "addr:state": "NM", "addr:street_address": "9620 STATE HIGHWAY 28 S", "amenity": "post_box", "collection_times": "Mo-Fr 16:15; Sa 09:30", "indoor": "yes", "note": "ON 12/24 AND 12/31, THIS BOX MAY BE COLLECTED AS EARLY AS 12 NOON.", "nsi_id": "unitedstatespostalservice-a77078", "operator": "United States Postal Service", "operator:short": "USPS", "operator:type": "public", "operator:wikidata": "Q668687", "ref": "8802700002"}, "type": "Feature"}
{"geometry": {"coordinates": [-108.611075, 32.954006], "type": "Point"}, "id": "EZmFOc9afb1BtuYuAb2hwbjNQUQ=", "properties": {"@source_uri": "https://tools.usps.com/UspsToolsRestServices/rest/POLocator/findLocations", "@spider": "usps_collection_boxes", "addr:city": "CLIFF", "addr:country": "US", "addr:postcode": "88028", "addr:state": "NM", "addr:street_address": "8427 FRONTAGE RD", "amenity": "post_box", "collection_times": "Mo-Fr 14:00; Sa 12:00", "indoor": "yes", "note": "ON 12/24 AND 12/31, THIS BOX MAY BE COLLECTED AS EARLY AS 12 NOON.", "nsi_id": "unitedstatespostalservice-a77078", "operator": "United States Postal Service", "operator:short": "USPS", "operator:type": "public", "operator:wikidata": "Q668687", "ref": "8802800001"}, "type": "Feature"}
{"geometry": {"coordinates": [-108.611060546, 32.953976312], "type": "Point"}, "id": "JJJnMqmf6KPHWX8HO7Z45xEUHtk=", "properties": {"@source_uri": "https://tools.usps.com/UspsToolsRestServices/rest/POLocator/findLocations", "@spider": "usps_collection_boxes", "addr:city": "CLIFF", "addr:country": "US", "addr:postcode": "88028", "addr:state": "NM", "addr:street_address": "8427 FRONTAGE RD", "amenity": "post_box", "collection_times": "Mo-Fr 14:00; Sa 12:00", "indoor": "yes", "note": "ON 12/24 AND 12/31, THIS BOX MAY BE COLLECTED AS EARLY AS 12 NOON.", "nsi_id": "unitedstatespostalservice-a77078", "operator": "United States Postal Service", "operator:short": "USPS", "operator:type": "public", "operator:wikidata": "Q668687", "ref": "8802800002"}, "type": "Feature"}
{"geometry": {"coordinates": [-107.638769, 31.833464], "type": "Point"}, "id": "tZpLxZq02CO_FHKyNwhvykSAxEM=", "properties": {"@source_uri": "https://tools.usps.com/UspsToolsRestServices/rest/POLocator/findLocations", "@spider": "usps_collection_boxes", "addr:city": "COLUMBUS", "addr:country": "US", "addr:postcode": "88029", "addr:state": "NM", "addr:street_address": "201 S MAIN ST", "amenity": "post_box", "collection_times": "Mo-Fr 16:00; Sa 11:30", "indoor": "yes", "note": "ON 12/24 AND 12/31, THIS BOX MAY BE COLLECTED AS EARLY AS 12 NOON.", "nsi_id": "unitedstatespostalservice-a77078", "operator": "United States Postal Service", "operator:short": "USPS", "operator:type": "public", "operator:wikidata": "Q668687", "ref": "8802900001"}, "type": "Feature"}
{"geometry": {"coordinates": [-107.638769, 31.833464], "type": "Point"}, "id": "b1ohXFjm_5QgrNExL_bYKzvJ7ks=", "properties": {"@source_uri": "https://tools.usps.com/UspsToolsRestServices/rest/POLocator/findLocations", "@spider": "usps_collection_boxes", "addr:city": "COLUMBUS", "addr:country": "US", "addr:postcode": "88029", "addr:state": "NM", "addr:street_address": "201 S MAIN ST", "amenity": "post_box", "collection_times": "Mo-Fr 16:00; Sa 11:30", "indoor": "yes", "note": "ON 12/24 AND 12/31, THIS BOX MAY BE COLLECTED AS EARLY AS 12 NOON.", "nsi_id": "unitedstatespostalservice-a77078", "operator": "United States Postal Service", "operator:short": "USPS", "operator:type": "public", "operator:wikidata": "Q668687", "ref": "8802900002"}, "type": "Feature"}
{"geometry": {"coordinates": [-107.6387401231, 31.8315930251], "type": "Point"}, "id": "61kOrE1q1uLTEXntN-d6eBkbONA=", "properties": {"@source_uri": "https://tools.usps.com/UspsToolsRestServices/rest/POLocator/findLocations", "@spider": "usps_collection_boxes", "addr:city": "COLUMBUS", "addr:country": "US", "addr:postcode": "88029", "addr:state": "NM", "addr:street_address": "201 S MAIN ST", "amenity": "post_box", "collection_times": "Mo-Fr 16:00; Sa 11:30", "indoor": "yes", "note": "ON 12/24 AND 12/31, THIS BOX MAY BE COLLECTED AS EARLY AS 12 NOON.", "nsi_id": "unitedstatespostalservice-a77078", "operator": "United States Postal Service", "operator:short": "USPS", "operator:type": "public", "operator:wikidata": "Q668687", "ref": "8802900003"}, "type": "Feature"}
{"geometry": {"coordinates": [-107.7598863946, 32.2674689321], "type": "Point"}, "id": "sQ9jGe-Y0TLPRvYDEBskUsmQ5mA=", "properties": {"@source_uri": "https://tools.usps.com/UspsToolsRestServices/rest/POLocator/findLocations", "@spider": "usps_collection_boxes", "addr:city": "DEMING", "addr:country": "US", "addr:postcode": "88030", "addr:state": "NM", "addr:street_address": "201 W SPRUCE ST", "amenity": "post_box", "collection_times": "Mo-Fr 17:00; Sa 16:30", "note": "ON 12/24 AND 12/31, THIS BOX MAY BE COLLECTED AS EARLY AS 12 NOON.", "nsi_id": "unitedstatespostalservice-a77078", "operator": "United States Postal Service", "operator:short": "USPS", "operator:type": "public", "operator:wikidata": "Q668687", "ref": "8803000000"}, "type": "Feature"}
{"geometry": {"coordinates": [-107.759808, 32.267451], "type": "Point"}, "id": "gDVoBwSwx1lhDxEIR-Lr924mjqI=", "properties": {"@source_uri": "https://tools.usps.com/UspsToolsRestServices/rest/POLocator/findLocations", "@spider": "usps_collection_boxes", "addr:city": "DEMING", "addr:country": "US", "addr:postcode": "88030", "addr:state": "NM", "addr:street_address": "201 W SPRUCE ST", "amenity": "post_box", "collection_times": "Mo-Fr 17:00; Sa 16:30", "indoor": "yes", "note": "ON 12/24 AND 12/31, THIS BOX MAY BE COLLECTED AS EARLY AS 12 NOON.", "nsi_id": "unitedstatespostalservice-a77078", "operator": "United States Postal Service", "operator:short": "USPS", "operator:type": "public", "operator:wikidata": "Q668687", "ref": "8803000002"}, "type": "Feature"}
{"geometry": {"coordinates": [-107.759808, 32.267451], "type": "Point"}, "id": "fhb3OYlHzY2jex1BTrV1bLs4PEE=", "properties": {"@source_uri": "https://tools.usps.com/UspsToolsRestServices/rest/POLocator/findLocations", "@spider": "usps_collection_boxes", "addr:city": "DEMING", "addr:country": "US", "addr:postcode": "88030", "addr:state": "NM", "addr:street_address": "201 W SPRUCE ST", "amenity": "post_box", "collection_times": "Mo-Fr 17:00; Sa 16:30", "indoor": "yes", "note": "ON 12/24 AND 12/31, THIS BOX MAY BE COLLECTED AS EARLY AS 12 NOON.", "nsi_id": "unitedstatespostalservice-a77078", "operator": "United States Postal Service", "operator:short": "USPS", "operator:type": "public", "operator:wikidata": "Q668687", "ref": "8803000003"}, "type": "Feature"}
{"geometry": {"coordinates": [-107.757404, 32.267842], "type": "Point"}, "id": "F1VFk-lraRdnjncPrrDTNLUOdzo=", "properties": {"@source_uri": "https://tools.usps.com/UspsToolsRestServices/rest/POLocator/findLocations", "@spider": "usps_collection_boxes", "addr:city": "DEMING", "addr:country": "US", "addr:postcode": "88030", "addr:state": "NM", "addr:street_address": "124 S SILVER AVE", "amenity": "post_box", "collection_times": "Mo-Sa 16:15", "note": "ON 12/24 AND 12/31, THIS BOX MAY BE COLLECTED AS EARLY AS 12 NOON.", "nsi_id": "unitedstatespostalservice-a77078", "operator": "United States Postal Service", "operator:short": "USPS", "operator:type": "public", "operator:wikidata": "Q668687", "ref": "8803000007"}, "type": "Feature"}
{"geometry": {"coordinates": [-107.753945, 32.2635], "type": "Point"}, "id": "CEvs1ogeh5E3HBpQ2EvKTm5AUFM=", "properties": {"@source_uri": "https://tools.usps.com/UspsToolsRestServices/rest/POLocator/findLocations", "@spider": "usps_collection_boxes", "addr:city": "DEMING", "addr:country": "US", "addr:postcode": "88030", "addr:state": "NM", "addr:street_address": "1275 E PINE ST", "amenity": "post_box", "collection_times": "Mo-Sa 16:20", "note": "ON 12/24 AND 12/31, THIS BOX MAY BE COLLECTED AS EARLY AS 12 NOON.", "nsi_id": "unitedstatespostalservice-a77078", "operator": "United States Postal Service", "operator:short": "USPS", "operator:type": "public", "operator:wikidata": "Q668687", "ref": "8803000008"}, "type": "Feature"}
{"geometry": {"coordinates": [-107.749306, 32.253606], "type": "Point"}, "id": "rT2bDIS-xEqhNtXbdfdN4VNoXYk=", "properties": {"@source_uri": "https://tools.usps.com/UspsToolsRestServices/rest/POLocator/findLocations", "@spider": "usps_collection_boxes", "addr:city": "DEMING", "addr:country": "US", "addr:postcode": "88030", "addr:state": "NM", "addr:street_address": "812 E FLORIDA ST", "amenity": "post_box", "collection_times": "Mo-Sa 16:30", "note": "ON 12/24 AND 12/31, THIS BOX MAY BE COLLECTED AS EARLY AS 12 NOON.", "nsi_id": "unitedstatespostalservice-a77078", "operator": "United States Postal Service", "operator:short": "USPS", "operator:type": "public", "operator:wikidata": "Q668687", "ref": "8803000020"}, "type": "Feature"}
{"geometry": {"coordinates": [-107.758868, 32.265751], "type": "Point"}, "id": "SgbRQ4y6EjrwrYGxbGdeOflQjxc=", "properties": {"@source_uri": "https://tools.usps.com/UspsToolsRestServices/rest/POLocator/findLocations", "@spider": "usps_collection_boxes", "addr:city": "DEMING", "addr:country": "US", "addr:postcode": "88030", "addr:state": "NM", "addr:street_address": "300 S GOLD AVE", "amenity": "post_box", "collection_times": "Mo-Sa 16:15", "note": "ON 12/24 AND 12/31, THIS BOX MAY BE COLLECTED AS EARLY AS 12 NOON.", "nsi_id": "unitedstatespostalservice-a77078", "operator": "United States Postal Service", "operator:short": "USPS", "operator:type": "public", "operator:wikidata": "Q668687", "ref": "8803000022"}, "type": "Feature"}
{"geometry": {"coordinates": [-107.755947, 32.26196], "type": "Point"}, "id": "u9Dj0gykn2XzuiPR0LcHO5tqz6c=", "properties": {"@source_uri": "https://tools.usps.com/UspsToolsRestServices/rest/POLocator/findLocations", "@spider": "usps_collection_boxes", "addr:city": "DEMING", "addr:country": "US", "addr:postcode": "88030", "addr:state": "NM", "addr:street_address": "700 S SILVER AVE", "amenity": "post_box", "collection_times": "Mo-Sa 16:20", "note": "ON 12/24 AND 12/31, THIS BOX MAY BE COLLECTED AS EARLY AS 12 NOON.", "nsi_id": "unitedstatespostalservice-a77078", "operator": "United States Postal Service", "operator:short": "USPS", "operator:type": "public", "operator:wikidata": "Q668687", "ref": "8803000023"}, "type": "Feature"}
{"geometry": {"coordinates": [-107.753351, 32.258575], "type": "Point"}, "id": "b93ZqHXY0KpFT4b1kdnasOgoKQ0=", "properties": {"@source_uri": "https://tools.usps.com/UspsToolsRestServices/rest/POLocator/findLocations", "@spider": "usps_collection_boxes", "addr:city": "DEMING", "addr:country": "US", "addr:postcode": "88030", "addr:state": "NM", "addr:street_address": "1001 S DIAMOND AVE", "amenity": "post_box", "collection_times": "Mo-Sa 16:20", "note": "ON 12/24 AND 12/31, THIS BOX MAY BE COLLECTED AS EARLY AS 12 NOON.", "nsi_id": "unitedstatespostalservice-a77078", "operator": "United States Postal Service", "operator:short": "USPS", "operator:type": "public", "operator:wikidata": "Q668687", "ref": "8803000024"}, "type": "Feature"}
{"geometry": {"coordinates": [-107.759891957, 32.267470966], "type": "Point"}, "id": "UiOaI9UwugElFep1AVLVV0ag7Fc=", "properties": {"@source_uri": "https://tools.usps.com/UspsToolsRestServices/rest/POLocator/findLocations", "@spider": "usps_collection_boxes", "addr:city": "DEMING", "addr:country": "US", "addr:postcode": "88030", "addr:state": "NM", "addr:street_address": "201 W SPRUCE ST", "amenity": "post_box", "collection_times": "Mo-Fr 17:00; Sa 12:00", "indoor": "yes", "note": "ON 12/24 AND 12/31, THIS BOX MAY BE COLLECTED AS EARLY AS 12 NOON.", "nsi_id": "unitedstatespostalservice-a77078", "operator": "United States Postal Service", "operator:short": "USPS", "operator:type": "public", "operator:wikidata": "Q668687", "ref": "8803000026"}, "type": "Feature"}
{"geometry": {"coordinates": [-106.814218, 32.389192], "type": "Point"}, "id": "jNQ2TiBrfwQ_mufC3Qnx7GAC7ow=", "properties": {"@source_uri": "https://tools.usps.com/UspsToolsRestServices/rest/POLocator/findLocations", "@spider": "usps_collection_boxes", "addr:city": "DONA ANA", "addr:country": "US", "addr:postcode": "88032", "addr:state": "NM", "addr:street_address": "5480 LEDESMA", "amenity": "post_box", "collection_times": "Mo-Fr 16:30; Sa 09:00", "indoor": "yes", "note": "ON 12/24 AND 12/31, THIS BOX MAY BE COLLECTED AS EARLY AS 12 NOON.", "nsi_id": "unitedstatespostalservice-a77078", "operator": "United States Postal Service", "operator:short": "USPS", "operator:type": "public", "operator:wikidata": "Q668687", "ref": "8803200001"}, "type": "Feature"}
{"geometry": {"coordinates": [-106.814337507, 32.389262246], "type": "Point"}, "id": "1ih6vJcEnH92WVd738PU-5AyuVw=", "properties": {"@source_uri": "https://tools.usps.com/UspsToolsRestServices/rest/POLocator/findLocations", "@spider": "usps_collection_boxes", "addr:city": "DONA ANA", "addr:country": "US", "addr:postcode": "88032", "addr:state": "NM", "addr:street_address": "5480 LEDESMA", "amenity": "post_box", "collection_times": "Mo-Fr 16:30", "indoor": "yes", "note": "ON 12/24 AND 12/31, THIS BOX MAY BE COLLECTED AS EARLY AS 12 NOON.", "nsi_id": "unitedstatespostalservice-a77078", "operator": "United States Postal Service", "operator:short": "USPS", "operator:type": "public", "operator:wikidata": "Q668687", "ref": "8803200002"}, "type": "Feature"}
{"geometry": {"coordinates": [-106.8370700645, 32.3077025351], "type": "Point"}, "id": "z0BseRKMrM0qLRvp41sNoMDCOMQ=", "properties": {"@source_uri": "https://tools.usps.com/UspsToolsRestServices/rest/POLocator/findLocations", "@spider": "usps_collection_boxes", "addr:city": "FAIRACRES", "addr:country": "US", "addr:postcode": "88033", "addr:state": "NM", "addr:street_address": "3800 W PICACHO AVE", "amenity": "post_box", "collection_times": "Mo-Fr 16:30; Sa 10:30", "note": "ON 12/24 AND 12/31, THIS BOX MAY BE COLLECTED AS EARLY AS 12 NOON.", "nsi_id": "unitedstatespostalservice-a77078", "operator": "United States Postal Service", "operator:short": "USPS", "operator:type": "public", "operator:wikidata": "Q668687", "ref": "8803300000"}, "type": "Feature"}
{"geometry": {"coordinates": [-106.8370700645, 32.3077025351], "type": "Point"}, "id": "ESrgjOxfSdjs3Zot8qWue7lpWsA=", "properties": {"@source_uri": "https://tools.usps.com/UspsToolsRestServices/rest/POLocator/findLocations", "@spider": "usps_collection_boxes", "addr:city": "FAIRACRES", "addr:country": "US", "addr:postcode": "88033", "addr:state": "NM", "addr:street_address": "3800 W PICACHO AVE", "amenity": "post_box", "collection_times": "Mo-Fr 16:30; Sa 10:30", "indoor": "yes", "note": "ON 12/24 AND 12/31, THIS BOX MAY BE COLLECTED AS EARLY AS 12 NOON.", "nsi_id": "unitedstatespostalservice-a77078", "operator": "United States Postal Service", "operator:short": "USPS", "operator:type": "public", "operator:wikidata": "Q668687", "ref": "8803300001"}, "type": "Feature"}
{"geometry": {"coordinates": [-106.8370700645, 32.3077025351], "type": "Point"}, "id": "pW_S0gld-9j7OM1ddvVeo0t0u8w=", "properties": {"@source_uri": "https://tools.usps.com/UspsToolsRestServices/rest/POLocator/findLocations", "@spider": "usps_collection_boxes", "addr:city": "FAIRACRES", "addr:country": "US", "addr:postcode": "88033", "addr:state": "NM", "addr:street_address": "3800 W PICACHO AVE", "amenity": "post_box", "collection_times": "Mo-Fr 16:30; Sa 10:30", "indoor": "yes", "note": "ON 12/24 AND 12/31, THIS BOX MAY BE COLLECTED AS EARLY AS 12 NOON.", "nsi_id": "unitedstatespostalservice-a77078", "operator": "United States Postal Service", "operator:short": "USPS", "operator:type": "public", "operator:wikidata": "Q668687", "ref": "8803300002"}, "type": "Feature"}
{"geometry": {"coordinates": [-106.8370700645, 32.3077025351], "type": "Point"}, "id": "kXvqLPO2qgSfO8aSSA61VSPRFaA=", "properties": {"@source_uri": "https://tools.usps.com/UspsToolsRestServices/rest/POLocator/findLocations", "@spider": "usps_collection_boxes", "addr:city": "FAIRACRES", "addr:country": "US", "addr:postcode": "88033", "addr:state": "NM", "addr:street_address": "3800 W PICACHO AVE", "amenity": "post_box", "collection_times": "Mo-Fr 16:15; Sa 10:15", "indoor": "yes", "note": "ON 12/24 AND 12/31, THIS BOX MAY BE COLLECTED AS EARLY AS 12 NOON.", "nsi_id": "unitedstatespostalservice-a77078", "operator": "United States Postal Service", "operator:short": "USPS", "operator:type": "public", "operator:wikidata": "Q668687", "ref": "8803300003"}, "type": "Feature"}
{"geometry": {"coordinates": [-107.866915, 32.628335], "type": "Point"}, "id": "m-MZGvNkbIXeor60JYyH46KU9ig=", "properties": {"@source_uri": "https://tools.usps.com/UspsToolsRestServices/rest/POLocator/findLocations", "@spider": "usps_collection_boxes", "addr:city": "FAYWOOD", "addr:country": "US", "addr:postcode": "88034", "addr:state": "NM", "addr:street_address": "1123 HIGHWAY 61", "amenity": "post_box", "collection_times": "Mo-Fr 12:00; Sa 11:30", "indoor": "yes", "nsi_id": "unitedstatespostalservice-a77078", "operator": "United States Postal Service", "operator:short": "USPS", "operator:type": "public", "operator:wikidata": "Q668687", "ref": "8803400001"}, "type": "Feature"}
{"geometry": {"coordinates": [-107.8701368293, 32.6260735124], "type": "Point"}, "id": "T8ePGa-_TH88Y4Eau8FXhIinjpc=", "properties": {"@source_uri": "https://tools.usps.com/UspsToolsRestServices/rest/POLocator/findLocations", "@spider": "usps_collection_boxes", "addr:city": "FAYWOOD", "addr:country": "US", "addr:postcode": "88034", "addr:state": "NM", "addr:street_address": "1123 HIGHWAY 61", "amenity": "post_box", "collection_times": "Mo-Fr 12:00; Sa 11:30", "indoor": "yes", "nsi_id": "unitedstatespostalservice-a77078", "operator": "United States Postal Service", "operator:short": "USPS", "operator:type": "public", "operator:wikidata": "Q668687", "ref": "8803400002"}, "type": "Feature"}
{"geometry": {"coordinates": [-108.577467, 32.963634], "type": "Point"}, "id": "4SPgj9cgOrPPZEm1Z_q1x21A63w=", "properties": {"@source_uri": "https://tools.usps.com/UspsToolsRestServices/rest/POLocator/findLocations", "@spider": "usps_collection_boxes", "addr:city": "GILA", "addr:country": "US", "addr:postcode": "88038", "addr:state": "NM", "addr:street_address": "407 STATE HIGHWAY 211", "amenity": "post_box", "collection_times": "Mo-Fr 13:00; Sa 12:00", "indoor": "yes", "note": "ON 12/24 AND 12/31, THIS BOX MAY BE COLLECTED AS EARLY AS 12 NOON.", "nsi_id": "unitedstatespostalservice-a77078", "operator": "United States Postal Service", "operator:short": "USPS", "operator:type": "public", "operator:wikidata": "Q668687", "ref": "8803800001"}, "type": "Feature"}
{"geometry": {"coordinates": [-108.577528197, 32.963674189], "type": "Point"}, "id": "cIEV78d6wrEsoVJ-uUE87y9m9JI=", "properties": {"@source_uri": "https://tools.usps.com/UspsToolsRestServices/rest/POLocator/findLocations", "@spider": "usps_collection_boxes", "addr:city": "GILA", "addr:country": "US", "addr:postcode": "88038", "addr:state": "NM", "addr:street_address": "407 STATE HIGHWAY 211", "amenity": "post_box", "collection_times": "Mo-Fr 13:00; Sa 12:00", "indoor": "yes", "note": "ON 12/24 AND 12/31, THIS BOX MAY BE COLLECTED AS EARLY AS 12 NOON.", "nsi_id": "unitedstatespostalservice-a77078", "operator": "United States Postal Service", "operator:short": "USPS", "operator:type": "public", "operator:wikidata": "Q668687", "ref": "8803800002"}, "type": "Feature"}
{"geometry": {"coordinates": [-108.903527, 33.379701], "type": "Point"}, "id": "eEj8MOYNkFg7JQn5611VfL-Wdno=", "properties": {"@source_uri": "https://tools.usps.com/UspsToolsRestServices/rest/POLocator/findLocations", "@spider": "usps_collection_boxes", "addr:city": "GLENWOOD", "addr:country": "US", "addr:postcode": "88039", "addr:state": "NM", "addr:street_address": "5111 HIGHWAY 180", "amenity": "post_box", "collection_times": "Mo-Fr 14:15; Sa 12:00", "note": "ON 12/24 AND 12/31, THIS BOX MAY BE COLLECTED AS EARLY AS 12 NOON.", "nsi_id": "unitedstatespostalservice-a77078", "operator": "United States Postal Service", "operator:short": "USPS", "operator:type": "public", "operator:wikidata": "Q668687", "ref": "8803900000"}, "type": "Feature"}
{"geometry": {"coordinates": [-108.903527, 33.379701], "type": "Point"}, "id": "z3GPlUP2FljGAQ_1oO9asiDuEhc=", "properties": {"@source_uri": "https://tools.usps.com/UspsToolsRestServices/rest/POLocator/findLocations", "@spider": "usps_collection_boxes", "addr:city": "GLENWOOD", "addr:country": "US", "addr:postcode": "88039", "addr:state": "NM", "addr:street_address": "5111 HIGHWAY 180", "amenity": "post_box", "collection_times": "Mo-Fr 14:15; Sa 12:00", "indoor": "yes", "note": "ON 12/24 AND 12/31, THIS BOX MAY BE COLLECTED AS EARLY AS 12 NOON.", "nsi_id": "unitedstatespostalservice-a77078", "operator": "United States Postal Service", "operator:short": "USPS", "operator:type": "public", "operator:wikidata": "Q668687", "ref": "8803900001"}, "type": "Feature"}
{"geometry": {"coordinates": [-108.8830051254, 33.3158140895], "type": "Point"}, "id": "dYcs-tz2M4j0ykL-JyDKmsxyEPo=", "properties": {"@source_uri": "https://tools.usps.com/UspsToolsRestServices/rest/POLocator/findLocations", "@spider": "usps_collection_boxes", "addr:city": "GLENWOOD", "addr:country": "US", "addr:postcode": "88039", "addr:state": "NM", "addr:street_address": "5111 HIGHWAY 180", "amenity": "post_box", "collection_times": "Mo-Fr 14:15; Sa 12:00", "indoor": "yes", "note": "ON 12/24 AND 12/31, THIS BOX MAY BE COLLECTED AS EARLY AS 12 NOON.", "nsi_id": "unitedstatespostalservice-a77078", "operator": "United States Postal Service", "operator:short": "USPS", "operator:type": "public", "operator:wikidata": "Q668687", "ref": "8803900002"}, "type": "Feature"}
{"geometry": {"coordinates": [-108.326145, 31.917048], "type": "Point"}, "id": "_fGV7s5UsTiozWSPPH8yr3CXb6M=", "properties": {"@source_uri": "https://tools.usps.com/UspsToolsRestServices/rest/POLocator/findLocations", "@spider": "usps_collection_boxes", "addr:city": "HACHITA", "addr:country": "US", "addr:postcode": "88040", "addr:state": "NM", "addr:street_address": "26 B ST", "amenity": "post_box", "collection_times": "Mo-Fr 12:00; Sa 11:30", "indoor": "yes", "nsi_id": "unitedstatespostalservice-a77078", "operator": "United States Postal Service", "operator:short": "USPS", "operator:type": "public", "operator:wikidata": "Q668687", "ref": "8804000001"}, "type": "Feature"}
{"geometry": {"coordinates": [-108.323416808, 31.916463045], "type": "Point"}, "id": "ASh3cB_i5-PLulz9gsfO-yLYJgc=", "properties": {"@source_uri": "https://tools.usps.com/UspsToolsRestServices/rest/POLocator/findLocations", "@spider": "usps_collection_boxes", "addr:city": "HACHITA", "addr:country": "US", "addr:postcode": "88040", "addr:state": "NM", "addr:street_address": "26 B ST", "amenity": "post_box", "collection_times": "Mo-Fr 12:00; Sa 11:30", "indoor": "yes", "nsi_id": "unitedstatespostalservice-a77078", "operator": "United States Postal Service", "operator:short": "USPS", "operator:type": "public", "operator:wikidata": "Q668687", "ref": "8804000002"}, "type": "Feature"}
{"geometry": {"coordinates": [-108.089699, 32.813683], "type": "Point"}, "id": "IeBEMDMmTM59iSbEymn8L-qmpk0=", "properties": {"@source_uri": "https://tools.usps.com/UspsToolsRestServices/rest/POLocator/findLocations", "@spider": "usps_collection_boxes", "addr:city": "HANOVER", "addr:country": "US", "addr:postcode": "88041", "addr:state": "NM", "addr:street_address": "70 FIERRO RD", "amenity": "post_box", "collection_times": "Mo-Fr 15:00; Sa 10:15", "note": "ON 12/24 AND 12/31, THIS BOX MAY BE COLLECTED AS EARLY AS 12 NOON.", "nsi_id": "unitedstatespostalservice-a77078", "operator": "United States Postal Service", "operator:short": "USPS", "operator:type": "public", "operator:wikidata": "Q668687", "ref": "8804100000"}, "type": "Feature"}
{"geometry": {"coordinates": [-108.089699, 32.813683], "type": "Point"}, "id": "pm-wy5Le1jl8xF0pJxp-xTE8DI4=", "properties": {"@source_uri": "https://tools.usps.com/UspsToolsRestServices/rest/POLocator/findLocations", "@spider": "usps_collection_boxes", "addr:city": "HANOVER", "addr:country": "US", "addr:postcode": "88041", "addr:state": "NM", "addr:street_address": "70 FIERRO RD", "amenity": "post_box", "collection_times": "Mo-Fr 15:00; Sa 10:15", "indoor": "yes", "note": "ON 12/24 AND 12/31, THIS BOX MAY BE COLLECTED AS EARLY AS 12 NOON.", "nsi_id": "unitedstatespostalservice-a77078", "operator": "United States Postal Service", "operator:short": "USPS", "operator:type": "public", "operator:wikidata": "Q668687", "ref": "8804100001"}, "type": "Feature"}
{"geometry": {"coordinates": [-107.9380358, 32.8103549], "type": "Point"}, "id": "VD7bGfzpDnBAAw3xXXBbz1riudY=", "properties": {"@source_uri": "https://tools.usps.com/UspsToolsRestServices/rest/POLocator/findLocations", "@spider": "usps_collection_boxes", "addr:city": "HANOVER", "addr:country": "US", "addr:postcode": "88041", "addr:state": "NM", "addr:street_address": "2674 HIGHWAY 35", "amenity": "post_box", "collection_times": "Mo-Fr 13:15", "note": "ON 12/24 AND 12/31, THIS BOX MAY BE COLLECTED AS EARLY AS 12 NOON.", "nsi_id": "unitedstatespostalservice-a77078", "operator": "United States Postal Service", "operator:short": "USPS", "operator:type": "public", "operator:wikidata": "Q668687", "ref": "8804100002"}, "type": "Feature"}
{"geometry": {"coordinates": [-108.085230697, 32.818099317], "type": "Point"}, "id": "yLPV38om5CxDFFKKnW32brjwW6M=", "properties": {"@source_uri": "https://tools.usps.com/UspsToolsRestServices/rest/POLocator/findLocations", "@spider": "usps_collection_boxes", "addr:city": "HANOVER", "addr:country": "US", "addr:postcode": "88041", "addr:state": "NM", "addr:street_address": "70 FIERRO RD", "amenity": "post_box", "collection_times": "Mo-Fr 14:45; Sa 10:00", "indoor": "yes", "note": "ON 12/24 AND 12/31, THIS BOX MAY BE COLLECTED AS EARLY AS 12 NOON.", "nsi_id": "unitedstatespostalservice-a77078", "operator": "United States Postal Service", "operator:short": "USPS", "operator:type": "public", "operator:wikidata": "Q668687", "ref": "8804100004"}, "type": "Feature"}
{"geometry": {"coordinates": [-107.716354, 32.91585], "type": "Point"}, "id": "NdzXaKL2H7V8hN-L1XZvmc8vd1A=", "properties": {"@source_uri": "https://tools.usps.com/UspsToolsRestServices/rest/POLocator/findLocations", "@spider": "usps_collection_boxes", "addr:city": "HILLSBORO", "addr:country": "US", "addr:postcode": "88042", "addr:state": "NM", "addr:street_address": "300 MAIN ST", "amenity": "post_box", "collection_times": "Mo-Sa 12:00", "indoor": "yes", "nsi_id": "unitedstatespostalservice-a77078", "operator": "United States Postal Service", "operator:short": "USPS", "operator:type": "public", "operator:wikidata": "Q668687", "ref": "8804200001"}, "type": "Feature"}
{"geometry": {"coordinates": [-107.7163233675, 32.9157739537], "type": "Point"}, "id": "O_tdnqfSi22_pl35zSjIeY3ZbVE=", "properties": {"@source_uri": "https://tools.usps.com/UspsToolsRestServices/rest/POLocator/findLocations", "@spider": "usps_collection_boxes", "addr:city": "HILLSBORO", "addr:country": "US", "addr:postcode": "88042", "addr:state": "NM", "addr:street_address": "300 MAIN ST", "amenity": "post_box", "collection_times": "Mo-Sa 12:00", "indoor": "yes", "nsi_id": "unitedstatespostalservice-a77078", "operator": "United States Postal Service", "operator:short": "USPS", "operator:type": "public", "operator:wikidata": "Q668687", "ref": "8804200002"}, "type": "Feature"}
{"geometry": {"coordinates": [-108.125506, 32.698988], "type": "Point"}, "id": "-YSXQ4gyozk9nYz1kS76x2tqRWM=", "properties": {"@source_uri": "https://tools.usps.com/UspsToolsRestServices/rest/POLocator/findLocations", "@spider": "usps_collection_boxes", "addr:city": "HURLEY", "addr:country": "US", "addr:postcode": "88043", "addr:state": "NM", "addr:street_address": "16 CORTEZ AVE", "amenity": "post_box", "collection_times": "Mo-Fr 15:30; Sa 12:00", "indoor": "yes", "note": "ON 12/24 AND 12/31, THIS BOX MAY BE COLLECTED AS EARLY AS 12 NOON.", "nsi_id": "unitedstatespostalservice-a77078", "operator": "United States Postal Service", "operator:short": "USPS", "operator:type": "public", "operator:wikidata": "Q668687", "ref": "8804300000"}, "type": "Feature"}
{"geometry": {"coordinates": [-108.1250537958, 32.6983634313], "type": "Point"}, "id": "FEmFvCOLXr04kovs6568WlWSUpk=", "properties": {"@source_uri": "https://tools.usps.com/UspsToolsRestServices/rest/POLocator/findLocations", "@spider": "usps_collection_boxes", "addr:city": "HURLEY", "addr:country": "US", "addr:postcode": "88043", "addr:state": "NM", "addr:street_address": "16 CORTEZ AVE", "amenity": "post_box", "collection_times": "Mo-Fr 15:30; Sa 12:00", "indoor": "yes", "note": "ON 12/24 AND 12/31, THIS BOX MAY BE COLLECTED AS EARLY AS 12 NOON.", "nsi_id": "unitedstatespostalservice-a77078", "operator": "United States Postal Service", "operator:short": "USPS", "operator:type": "public", "operator:wikidata": "Q668687", "ref": "8804300002"}, "type": "Feature"}
{"geometry": {"coordinates": [-106.705922, 32.119374], "type": "Point"}, "id": "xPtuOJXbpzAAhrUZXjjn6_ldBXM=", "properties": {"@source_uri": "https://tools.usps.com/UspsToolsRestServices/rest/POLocator/findLocations", "@spider": "usps_collection_boxes", "addr:city": "LA MESA", "addr:country": "US", "addr:postcode": "88044", "addr:state": "NM", "addr:street_address": "16140 S HIGHWAY 28", "amenity": "post_box", "collection_times": "Mo-Fr 16:30; Sa 09:00", "indoor": "yes", "note": "ON 12/24 AND 12/31, THIS BOX MAY BE COLLECTED AS EARLY AS 12 NOON.", "nsi_id": "unitedstatespostalservice-a77078", "operator": "United States Postal Service", "operator:short": "USPS", "operator:type": "public", "operator:wikidata": "Q668687", "ref": "8804400001"}, "type": "Feature"}
{"geometry": {"coordinates": [-106.705977094, 32.119434083], "type": "Point"}, "id": "Jdc3FyqAxne5sFwdMnuKa26YNBw=", "properties": {"@source_uri": "https://tools.usps.com/UspsToolsRestServices/rest/POLocator/findLocations", "@spider": "usps_collection_boxes", "addr:city": "LA MESA", "addr:country": "US", "addr:postcode": "88044", "addr:state": "NM", "addr:street_address": "16140 S HIGHWAY 28", "amenity": "post_box", "collection_times": "Mo-Fr 16:30", "indoor": "yes", "note": "ON 12/24 AND 12/31, THIS BOX MAY BE COLLECTED AS EARLY AS 12 NOON.", "nsi_id": "unitedstatespostalservice-a77078", "operator": "United States Postal Service", "operator:short": "USPS", "operator:type": "public", "operator:wikidata": "Q668687", "ref": "8804400002"}, "type": "Feature"}
{"geometry": {"coordinates": [-108.708339, 32.3475], "type": "Point"}, "id": "vTG80O6Dksxpd50PjKhv2VxyrtM=", "properties": {"@source_uri": "https://tools.usps.com/UspsToolsRestServices/rest/POLocator/findLocations", "@spider": "usps_collection_boxes", "addr:city": "LORDSBURG", "addr:country": "US", "addr:postcode": "88045", "addr:state": "NM", "addr:street_address": "400 SHAKESPEARE ST", "amenity": "post_box", "collection_times": "Mo-Fr 15:25; Sa 12:00", "note": "ON 12/24 AND 12/31, THIS BOX MAY BE COLLECTED AS EARLY AS 12 NOON.", "nsi_id": "unitedstatespostalservice-a77078", "operator": "United States Postal Service", "operator:short": "USPS", "operator:type": "public", "operator:wikidata": "Q668687", "ref": "8804500000"}, "type": "Feature"}
{"geometry": {"coordinates": [-108.708483, 32.347625], "type": "Point"}, "id": "XsclKlnKwlMUxxkbjiPMSUsr2g0=", "properties": {"@source_uri": "https://tools.usps.com/UspsToolsRestServices/rest/POLocator/findLocations", "@spider": "usps_collection_boxes", "addr:city": "LORDSBURG", "addr:country": "US", "addr:postcode": "88045", "addr:state": "NM", "addr:street_address": "401 SHAKESPEARE ST", "amenity": "post_box", "collection_times": "Mo-Fr 16:30; Sa 12:00", "indoor": "yes", "note": "ON 12/24 AND 12/31, THIS BOX MAY BE COLLECTED AS EARLY AS 12 NOON.", "nsi_id": "unitedstatespostalservice-a77078", "operator": "United States Postal Service", "operator:short": "USPS", "operator:type": "public", "operator:wikidata": "Q668687", "ref": "8804500001"}, "type": "Feature"}
{"geometry": {"coordinates": [-108.710619, 32.344599], "type": "Point"}, "id": "iAkROp1zalzNJ5Jm5BbU6WtRXwU=", "properties": {"@source_uri": "https://tools.usps.com/UspsToolsRestServices/rest/POLocator/findLocations", "@spider": "usps_collection_boxes", "addr:city": "LORDSBURG", "addr:country": "US", "addr:postcode": "88045", "addr:state": "NM", "addr:street_address": "810 MAIN ST", "amenity": "post_box", "collection_times": "Mo-Fr 15:00; Sa 12:00", "note": "ON 12/24 AND 12/31, THIS BOX MAY BE COLLECTED AS EARLY AS 12 NOON.", "nsi_id": "unitedstatespostalservice-a77078", "operator": "United States Postal Service", "operator:short": "USPS", "operator:type": "public", "operator:wikidata": "Q668687", "ref": "8804500006"}, "type": "Feature"}
{"geometry": {"coordinates": [-108.705956, 32.351151], "type": "Point"}, "id": "w8eERd15d17MMJIYvthGDenwE38=", "properties": {"@source_uri": "https://tools.usps.com/UspsToolsRestServices/rest/POLocator/findLocations", "@spider": "usps_collection_boxes", "addr:city": "LORDSBURG", "addr:country": "US", "addr:postcode": "88045", "addr:state": "NM", "addr:street_address": "101 NORTH ST", "amenity": "post_box", "collection_times": "Mo-Sa 10:15", "nsi_id": "unitedstatespostalservice-a77078", "operator": "United States Postal Service", "operator:short": "USPS", "operator:type": "public", "operator:wikidata": "Q668687", "ref": "8804500009"}, "type": "Feature"}
{"geometry": {"coordinates": [-108.677359, 32.341287], "type": "Point"}, "id": "q09OqL2K6Xb1CqoKhaPpSZi76AU=", "properties": {"@source_uri": "https://tools.usps.com/UspsToolsRestServices/rest/POLocator/findLocations", "@spider": "usps_collection_boxes", "addr:city": "LORDSBURG", "addr:country": "US", "addr:postcode": "88045", "addr:state": "NM", "addr:street_address": "11 OLD HIGHWAY 70", "amenity": "post_box", "collection_times": "Mo-Sa 10:00", "nsi_id": "unitedstatespostalservice-a77078", "operator": "United States Postal Service", "operator:short": "USPS", "operator:type": "public", "operator:wikidata": "Q668687", "ref": "8804500012"}, "type": "Feature"}
{"geometry": {"coordinates": [-108.735692, 32.353978], "type": "Point"}, "id": "EdQ78KfXcZDm3nVoqw7jRNyA7lk=", "properties": {"@source_uri": "https://tools.usps.com/UspsToolsRestServices/rest/POLocator/findLocations", "@spider": "usps_collection_boxes", "addr:city": "LORDSBURG", "addr:country": "US", "addr:postcode": "88045", "addr:state": "NM", "addr:street_address": "980 W MOTEL DR", "amenity": "post_box", "collection_times": "Mo-Sa 10:15", "nsi_id": "unitedstatespostalservice-a77078", "operator": "United States Postal Service", "operator:short": "USPS", "operator:type": "public", "operator:wikidata": "Q668687", "ref": "8804500013"}, "type": "Feature"}
{"geometry": {"coordinates": [-108.708513154, 32.347545359], "type": "Point"}, "id": "NZDFnXCzDk3jf9GskJEu5983Gwc=", "properties": {"@source_uri": "https://tools.usps.com/UspsToolsRestServices/rest/POLocator/findLocations", "@spider": "usps_collection_boxes", "addr:city": "LORDSBURG", "addr:country": "US", "addr:postcode": "88045", "addr:state": "NM", "addr:street_address": "401 SHAKESPEARE ST", "amenity": "post_box", "collection_times": "Mo-Fr 16:30; Sa 12:00", "indoor": "yes", "note": "ON 12/24 AND 12/31, THIS BOX MAY BE COLLECTED AS EARLY AS 12 NOON.", "nsi_id": "unitedstatespostalservice-a77078", "operator": "United States Postal Service", "operator:short": "USPS", "operator:type": "public", "operator:wikidata": "Q668687", "ref": "8804500015"}, "type": "Feature"}
{"geometry": {"coordinates": [-106.796518, 32.273003], "type": "Point"}, "id": "N-Pa6D9hnq-QvmWrtgbql18vmpI=", "properties": {"@source_uri": "https://tools.usps.com/UspsToolsRestServices/rest/POLocator/findLocations", "@spider": "usps_collection_boxes", "addr:city": "MESILLA", "addr:country": "US", "addr:postcode": "88046", "addr:state": "NM", "addr:street_address": "2253 CALLE DE PARIAN", "amenity": "post_box", "collection_times": "Mo-Fr 17:00; Sa 09:00", "indoor": "yes", "note": "ON 12/24 AND 12/31, THIS BOX MAY BE COLLECTED AS EARLY AS 12 NOON.", "nsi_id": "unitedstatespostalservice-a77078", "operator": "United States Postal Service", "operator:short": "USPS", "operator:type": "public", "operator:wikidata": "Q668687", "ref": "8804600000"}, "type": "Feature"}
{"geometry": {"coordinates": [-106.796465011, 32.273099288], "type": "Point"}, "id": "GERAjSrN_sAouARrIgpV8JHey6g=", "properties": {"@source_uri": "https://tools.usps.com/UspsToolsRestServices/rest/POLocator/findLocations", "@spider": "usps_collection_boxes", "addr:city": "MESILLA", "addr:country": "US", "addr:postcode": "88046", "addr:state": "NM", "addr:street_address": "2253 CALLE DE PARIAN", "amenity": "post_box", "collection_times": "Mo-Fr 17:00", "indoor": "yes", "note": "ON 12/24 AND 12/31, THIS BOX MAY BE COLLECTED AS EARLY AS 12 NOON.", "nsi_id": "unitedstatespostalservice-a77078", "operator": "United States Postal Service", "operator:short": "USPS", "operator:type": "public", "operator:wikidata": "Q668687", "ref": "8804600002"}, "type": "Feature"}
{"geometry": {"coordinates": [-106.763324, 32.275694], "type": "Point"}, "id": "bwcpbzgWdRTIcd3TlkLSTYa31tI=", "properties": {"@source_uri": "https://tools.usps.com/UspsToolsRestServices/rest/POLocator/findLocations", "@spider": "usps_collection_boxes", "addr:city": "MESILLA PARK", "addr:country": "US", "addr:postcode": "88047", "addr:state": "NM", "addr:street_address": "310 E UNION AVE", "amenity": "post_box", "collection_times": "Mo-Fr 17:00; Sa 12:00", "indoor": "yes", "note": "ON 12/24 AND 12/31, THIS BOX MAY BE COLLECTED AS EARLY AS 12 NOON.", "nsi_id": "unitedstatespostalservice-a77078", "operator": "United States Postal Service", "operator:short": "USPS", "operator:type": "public", "operator:wikidata": "Q668687", "ref": "8804700001"}, "type": "Feature"}
{"geometry": {"coordinates": [-106.763324, 32.275694], "type": "Point"}, "id": "it17Sw132S2F7ZGt24_iSUySbEM=", "properties": {"@source_uri": "https://tools.usps.com/UspsToolsRestServices/rest/POLocator/findLocations", "@spider": "usps_collection_boxes", "addr:city": "MESILLA PARK", "addr:country": "US", "addr:postcode": "88047", "addr:state": "NM", "addr:street_address": "310 E UNION AVE", "amenity": "post_box", "collection_times": "Mo-Fr 17:00; Sa 12:00", "indoor": "yes", "note": "ON 12/24 AND 12/31, THIS BOX MAY BE COLLECTED AS EARLY AS 12 NOON.", "nsi_id": "unitedstatespostalservice-a77078", "operator": "United States Postal Service", "operator:short": "USPS", "operator:type": "public", "operator:wikidata": "Q668687", "ref": "8804700003"}, "type": "Feature"}
{"geometry": {"coordinates": [-106.763530381, 32.276093336], "type": "Point"}, "id": "9fK7vJFSebzkpmOQIEfa8_ZFMmY=", "properties": {"@source_uri": "https://tools.usps.com/UspsToolsRestServices/rest/POLocator/findLocations", "@spider": "usps_collection_boxes", "addr:city": "MESILLA PARK", "addr:country": "US", "addr:postcode": "88047", "addr:state": "NM", "addr:street_address": "310 E UNION AVE", "amenity": "post_box", "collection_times": "Mo-Fr 17:00; Sa 12:00", "indoor": "yes", "note": "ON 12/24 AND 12/31, THIS BOX MAY BE COLLECTED AS EARLY AS 12 NOON.", "nsi_id": "unitedstatespostalservice-a77078", "operator": "United States Postal Service", "operator:short": "USPS", "operator:type": "public", "operator:wikidata": "Q668687", "ref": "8804700004"}, "type": "Feature"}
{"geometry": {"coordinates": [-106.7633439632, 32.2755219938], "type": "Point"}, "id": "kQPagubs4109GxRf2hyTPK082aM=", "properties": {"@source_uri": "https://tools.usps.com/UspsToolsRestServices/rest/POLocator/findLocations", "@spider": "usps_collection_boxes", "addr:city": "MESILLA PARK", "addr:country": "US", "addr:postcode": "88047", "addr:state": "NM", "addr:street_address": "310 E UNION AVE", "amenity": "post_box", "collection_times": "Mo-Fr 16:30; Sa 11:30", "note": "ON 12/24 AND 12/31, THIS BOX MAY BE COLLECTED AS EARLY AS 12 NOON.", "nsi_id": "unitedstatespostalservice-a77078", "operator": "United States Postal Service", "operator:short": "USPS", "operator:type": "public", "operator:wikidata": "Q668687", "ref": "8804700005"}, "type": "Feature"}
{"geometry": {"coordinates": [-106.689175, 32.165328], "type": "Point"}, "id": "UI5Dm_txMsCfKRiMiTFnoqy_8jk=", "properties": {"@source_uri": "https://tools.usps.com/UspsToolsRestServices/rest/POLocator/findLocations", "@spider": "usps_collection_boxes", "addr:city": "MESQUITE", "addr:country": "US", "addr:postcode": "88048", "addr:state": "NM", "addr:street_address": "395 HIGHWAY 228", "amenity": "post_box", "collection_times": "Mo-Fr 16:30; Sa 11:45", "note": "ON 12/24 AND 12/31, THIS BOX MAY BE COLLECTED AS EARLY AS 12 NOON.", "nsi_id": "unitedstatespostalservice-a77078", "operator": "United States Postal Service", "operator:short": "USPS", "operator:type": "public", "operator:wikidata": "Q668687", "ref": "8804800000"}, "type": "Feature"}
{"geometry": {"coordinates": [-106.689083, 32.165301], "type": "Point"}, "id": "sp_dfT4chHPIxQnnc4jjYn-44eA=", "properties": {"@source_uri": "https://tools.usps.com/UspsToolsRestServices/rest/POLocator/findLocations", "@spider": "usps_collection_boxes", "addr:city": "MESQUITE", "addr:country": "US", "addr:postcode": "88048", "addr:state": "NM", "addr:street_address": "395 HIGHWAY 228", "amenity": "post_box", "collection_times": "Mo-Fr 16:30; Sa 11:45", "indoor": "yes", "note": "ON 12/24 AND 12/31, THIS BOX MAY BE COLLECTED AS EARLY AS 12 NOON.", "nsi_id": "unitedstatespostalservice-a77078", "operator": "United States Postal Service", "operator:short": "USPS", "operator:type": "public", "operator:wikidata": "Q668687", "ref": "8804800003"}, "type": "Feature"}
{"geometry": {"coordinates": [-106.689234607, 32.165365544], "type": "Point"}, "id": "bamLLS0e3uGwalcxllkmgT8bUZw=", "properties": {"@source_uri": "https://tools.usps.com/UspsToolsRestServices/rest/POLocator/findLocations", "@spider": "usps_collection_boxes", "addr:city": "MESQUITE", "addr:country": "US", "addr:postcode": "88048", "addr:state": "NM", "addr:street_address": "395 HIGHWAY 228", "amenity": "post_box", "collection_times": "Mo-Fr 16:30; Sa 11:45", "indoor": "yes", "note": "ON 12/24 AND 12/31, THIS BOX MAY BE COLLECTED AS EARLY AS 12 NOON.", "nsi_id": "unitedstatespostalservice-a77078", "operator": "United States Postal Service", "operator:short": "USPS", "operator:type": "public", "operator:wikidata": "Q668687", "ref": "8804800004"}, "type": "Feature"}
{"geometry": {"coordinates": [-107.976357, 32.85083], "type": "Point"}, "id": "3c4Tk7kdGGLgHDvo5gXDOYZw1JE=", "properties": {"@source_uri": "https://tools.usps.com/UspsToolsRestServices/rest/POLocator/findLocations", "@spider": "usps_collection_boxes", "addr:city": "MIMBRES", "addr:country": "US", "addr:postcode": "88049", "addr:state": "NM", "addr:street_address": "3084 HIGHWAY 35 N", "amenity": "post_box", "collection_times": "Mo-Fr 14:00; Sa 12:00", "indoor": "yes", "note": "ON 12/24 AND 12/31, THIS BOX MAY BE COLLECTED AS EARLY AS 12 NOON.", "nsi_id": "unitedstatespostalservice-a77078", "operator": "United States Postal Service", "operator:short": "USPS", "operator:type": "public", "operator:wikidata": "Q668687", "ref": "8804900001"}, "type": "Feature"}
{"geometry": {"coordinates": [-107.976645451, 32.851299112], "type": "Point"}, "id": "ojoEx31hd0SMUN6PyiPTUM3PfE8=", "properties": {"@source_uri": "https://tools.usps.com/UspsToolsRestServices/rest/POLocator/findLocations", "@spider": "usps_collection_boxes", "addr:city": "MIMBRES", "addr:country": "US", "addr:postcode": "88049", "addr:state": "NM", "addr:street_address": "3084 HIGHWAY 35 N", "amenity": "post_box", "collection_times": "Mo-Fr 14:00; Sa 12:00", "indoor": "yes", "note": "ON 12/24 AND 12/31, THIS BOX MAY BE COLLECTED AS EARLY AS 12 NOON.", "nsi_id": "unitedstatespostalservice-a77078", "operator": "United States Postal Service", "operator:short": "USPS", "operator:type": "public", "operator:wikidata": "Q668687", "ref": "8804900002"}, "type": "Feature"}
{"geometry": {"coordinates": [-106.603539, 32.426042], "type": "Point"}, "id": "sPZuGw7CwJgMLSKx3OYJ9tdO1U8=", "properties": {"@source_uri": "https://tools.usps.com/UspsToolsRestServices/rest/POLocator/findLocations", "@spider": "usps_collection_boxes", "addr:city": "ORGAN", "addr:country": "US", "addr:postcode": "88052", "addr:state": "NM", "addr:street_address": "15770 PADRE LA RUE ST", "amenity": "post_box", "collection_times": "Mo-Fr 15:45; Sa 09:15", "indoor": "yes", "note": "ON 12/24 AND 12/31, THIS BOX MAY BE COLLECTED AS EARLY AS 12 NOON.", "nsi_id": "unitedstatespostalservice-a77078", "operator": "United States Postal Service", "operator:short": "USPS", "operator:type": "public", "operator:wikidata": "Q668687", "ref": "8805200001"}, "type": "Feature"}
{"geometry": {"coordinates": [-106.603622193, 32.426052518], "type": "Point"}, "id": "wSwCR4HhSeTwInXRpbuKM9XmyTg=", "properties": {"@source_uri": "https://tools.usps.com/UspsToolsRestServices/rest/POLocator/findLocations", "@spider": "usps_collection_boxes", "addr:city": "ORGAN", "addr:country": "US", "addr:postcode": "88052", "addr:state": "NM", "addr:street_address": "15770 PADRE LA RUE ST", "amenity": "post_box", "collection_times": "Mo-Fr 15:45", "indoor": "yes", "note": "ON 12/24 AND 12/31, THIS BOX MAY BE COLLECTED AS EARLY AS 12 NOON.", "nsi_id": "unitedstatespostalservice-a77078", "operator": "United States Postal Service", "operator:short": "USPS", "operator:type": "public", "operator:wikidata": "Q668687", "ref": "8805200002"}, "type": "Feature"}
{"geometry": {"coordinates": [-106.914821, 32.48599], "type": "Point"}, "id": "_sESEJXiGhgNaEwgSt_mbL_wOlM=", "properties": {"@source_uri": "https://tools.usps.com/UspsToolsRestServices/rest/POLocator/findLocations", "@spider": "usps_collection_boxes", "addr:city": "RADIUM SPRINGS", "addr:country": "US", "addr:postcode": "88054", "addr:state": "NM", "addr:street_address": "1145 FORT SELDEN RD", "amenity": "post_box", "collection_times": "Mo-Fr 15:30; Sa 12:30", "indoor": "yes", "note": "ON 12/24 AND 12/31, THIS BOX MAY BE COLLECTED AS EARLY AS 12 NOON.", "nsi_id": "unitedstatespostalservice-a77078", "operator": "United States Postal Service", "operator:short": "USPS", "operator:type": "public", "operator:wikidata": "Q668687", "ref": "8805400000"}, "type": "Feature"}
{"geometry": {"coordinates": [-106.915680944, 32.485760707], "type": "Point"}, "id": "FENnsKOSB7GDLkMkZOZ4MJ9tv78=", "properties": {"@source_uri": "https://tools.usps.com/UspsToolsRestServices/rest/POLocator/findLocations", "@spider": "usps_collection_boxes", "addr:city": "RADIUM SPRINGS", "addr:country": "US", "addr:postcode": "88054", "addr:state": "NM", "addr:street_address": "1145 FORT SELDEN RD", "amenity": "post_box", "collection_times": "Mo-Fr 15:30; Sa 12:30", "indoor": "yes", "note": "ON 12/24 AND 12/31, THIS BOX MAY BE COLLECTED AS EARLY AS 12 NOON.", "nsi_id": "unitedstatespostalservice-a77078", "operator": "United States Postal Service", "operator:short": "USPS", "operator:type": "public", "operator:wikidata": "Q668687", "ref": "8805400002"}, "type": "Feature"}
{"geometry": {"coordinates": [-106.93184, 32.49764], "type": "Point"}, "id": "wqA3mpsqenrsZ7qw6hdNtgRGkPM=", "properties": {"@source_uri": "https://tools.usps.com/UspsToolsRestServices/rest/POLocator/findLocations", "@spider": "usps_collection_boxes", "addr:city": "RADIUM SPRINGS", "addr:country": "US", "addr:postcode": "88054", "addr:state": "NM", "addr:street_address": "1145 FORT SELDEN RD", "amenity": "post_box", "collection_times": "Mo-Fr 15:30; Sa 12:30", "note": "ON 12/24 AND 12/31, THIS BOX MAY BE COLLECTED AS EARLY AS 12 NOON.", "nsi_id": "unitedstatespostalservice-a77078", "operator": "United States Postal Service", "operator:short": "USPS", "operator:type": "public", "operator:wikidata": "Q668687", "ref": "8805400003"}, "type": "Feature"}
{"geometry": {"coordinates": [-109.032477, 31.834118], "type": "Point"}, "id": "toCFxvuOofg5pbugRPjgrxx6Mwg=", "properties": {"@source_uri": "https://tools.usps.com/UspsToolsRestServices/rest/POLocator/findLocations", "@spider": "usps_collection_boxes", "addr:city": "RODEO", "addr:country": "US", "addr:postcode": "88056", "addr:state": "NM", "addr:street_address": "16 CUSTIE AVE", "amenity": "post_box", "collection_times": "Mo-Fr 14:30; Sa 11:45", "note": "ON 12/24 AND 12/31, THIS BOX MAY BE COLLECTED AS EARLY AS 12 NOON.", "nsi_id": "unitedstatespostalservice-a77078", "operator": "United States Postal Service", "operator:short": "USPS", "operator:type": "public", "operator:wikidata": "Q668687", "ref": "8805600000"}, "type": "Feature"}
{"geometry": {"coordinates": [-109.032558, 31.834125], "type": "Point"}, "id": "vEmHE9TZoXMa-Amuhypid9iZ_og=", "properties": {"@source_uri": "https://tools.usps.com/UspsToolsRestServices/rest/POLocator/findLocations", "@spider": "usps_collection_boxes", "addr:city": "RODEO", "addr:country": "US", "addr:postcode": "88056", "addr:state": "NM", "addr:street_address": "16 CUSTIE AVE", "amenity": "post_box", "collection_times": "Mo-Fr 14:30; Sa 11:45", "indoor": "yes", "note": "ON 12/24 AND 12/31, THIS BOX MAY BE COLLECTED AS EARLY AS 12 NOON.", "nsi_id": "unitedstatespostalservice-a77078", "operator": "United States Postal Service", "operator:short": "USPS", "operator:type": "public", "operator:wikidata": "Q668687", "ref": "8805600001"}, "type": "Feature"}
{"geometry": {"coordinates": [-109.0319500326, 31.8338743611], "type": "Point"}, "id": "7W_H-po-ENr8O8ZA0n4-PPtQ5UI=", "properties": {"@source_uri": "https://tools.usps.com/UspsToolsRestServices/rest/POLocator/findLocations", "@spider": "usps_collection_boxes", "addr:city": "RODEO", "addr:country": "US", "addr:postcode": "88056", "addr:state": "NM", "addr:street_address": "16 CUSTIE AVE", "amenity": "post_box", "collection_times": "Mo-Fr 14:45; Sa 11:30", "indoor": "yes", "note": "ON 12/24 AND 12/31, THIS BOX MAY BE COLLECTED AS EARLY AS 12 NOON.", "nsi_id": "unitedstatespostalservice-a77078", "operator": "United States Postal Service", "operator:short": "USPS", "operator:type": "public", "operator:wikidata": "Q668687", "ref": "8805600002"}, "type": "Feature"}
{"geometry": {"coordinates": [-106.734931, 32.155501], "type": "Point"}, "id": "5vu3nWe-j5oApKVChXtWkqlZZl8=", "properties": {"@source_uri": "https://tools.usps.com/UspsToolsRestServices/rest/POLocator/findLocations", "@spider": "usps_collection_boxes", "addr:city": "SAN MIGUEL", "addr:country": "US", "addr:postcode": "88058", "addr:state": "NM", "addr:street_address": "19003 STATE HIGHWAY 28", "amenity": "post_box", "collection_times": "Mo-Fr 16:30; Sa 09:45", "indoor": "yes", "note": "ON 12/24 AND 12/31, THIS BOX MAY BE COLLECTED AS EARLY AS 12 NOON.", "nsi_id": "unitedstatespostalservice-a77078", "operator": "United States Postal Service", "operator:short": "USPS", "operator:type": "public", "operator:wikidata": "Q668687", "ref": "8805800001"}, "type": "Feature"}
{"geometry": {"coordinates": [-106.733003172, 32.153518947], "type": "Point"}, "id": "_3iTv5fkxCedmsH9GyrrQmRfZxQ=", "properties": {"@source_uri": "https://tools.usps.com/UspsToolsRestServices/rest/POLocator/findLocations", "@spider": "usps_collection_boxes", "addr:city": "SAN MIGUEL", "addr:country": "US", "addr:postcode": "88058", "addr:state": "NM", "addr:street_address": "19003 STATE HIGHWAY 28", "amenity": "post_box", "collection_times": "Mo-Fr 16:15; Sa 09:30", "indoor": "yes", "note": "ON 12/24 AND 12/31, THIS BOX MAY BE COLLECTED AS EARLY AS 12 NOON.", "nsi_id": "unitedstatespostalservice-a77078", "operator": "United States Postal Service", "operator:short": "USPS", "operator:type": "public", "operator:wikidata": "Q668687", "ref": "8805800002"}, "type": "Feature"}
{"geometry": {"coordinates": [-108.274716, 32.771656], "type": "Point"}, "id": "-sW2i41VwDAhXO8nOV14OpdvReg=", "properties": {"@source_uri": "https://tools.usps.com/UspsToolsRestServices/rest/POLocator/findLocations", "@spider": "usps_collection_boxes", "addr:city": "SILVER CITY", "addr:country": "US", "addr:postcode": "88061", "addr:state": "NM", "addr:street_address": "500 N HUDSON ST", "amenity": "post_box", "collection_times": "Mo-Fr 17:00; Sa 15:00", "note": "ON 12/24 AND 12/31, THIS BOX MAY BE COLLECTED AS EARLY AS 12 NOON.", "nsi_id": "unitedstatespostalservice-a77078", "operator": "United States Postal Service", "operator:short": "USPS", "operator:type": "public", "operator:wikidata": "Q668687", "ref": "8806100000"}, "type": "Feature"}
{"geometry": {"coordinates": [-108.252642, 32.786827], "type": "Point"}, "id": "bhI5MTVR1Mevhp3Lzl-pFzqGnm4=", "properties": {"@source_uri": "https://tools.usps.com/UspsToolsRestServices/rest/POLocator/findLocations", "@spider": "usps_collection_boxes", "addr:city": "SILVER CITY", "addr:country": "US", "addr:postcode": "88061", "addr:state": "NM", "addr:street_address": "1940 HIGHWAY 180 E", "amenity": "post_box", "collection_times": "Mo-Fr 13:00; Sa 12:00", "note": "ON 12/24 AND 12/31, THIS BOX MAY BE COLLECTED AS EARLY AS 12 NOON.", "nsi_id": "unitedstatespostalservice-a77078", "operator": "United States Postal Service", "operator:short": "USPS", "operator:type": "public", "operator:wikidata": "Q668687", "ref": "8806100004"}, "type": "Feature"}
{"geometry": {"coordinates": [-108.269939, 32.789947], "type": "Point"}, "id": "DVfY9pLgxfc1365xExC-KAmeWd8=", "properties": {"@source_uri": "https://tools.usps.com/UspsToolsRestServices/rest/POLocator/findLocations", "@spider": "usps_collection_boxes", "addr:city": "SILVER CITY", "addr:country": "US", "addr:postcode": "88061", "addr:state": "NM", "addr:street_address": "2417 N CACTUS ST", "amenity": "post_box", "collection_times": "Mo-Sa 13:05", "note": "ON 12/24 AND 12/31, THIS BOX MAY BE COLLECTED AS EARLY AS 12 NOON.", "nsi_id": "unitedstatespostalservice-a77078", "operator": "United States Postal Service", "operator:short": "USPS", "operator:type": "public", "operator:wikidata": "Q668687", "ref": "8806100006"}, "type": "Feature"}
{"geometry": {"coordinates": [-108.27219, 32.782484], "type": "Point"}, "id": "F-iBACVynp5JWHh3UNOEv4YbaUU=", "properties": {"@source_uri": "https://tools.usps.com/UspsToolsRestServices/rest/POLocator/findLocations", "@spider": "usps_collection_boxes", "addr:city": "SILVER CITY", "addr:country": "US", "addr:postcode": "88061", "addr:state": "NM", "addr:street_address": "1617 SILVER HEIGHTS BLVD", "amenity": "post_box", "collection_times": "Mo-Fr 13:15; Sa 13:00", "note": "ON 12/24 AND 12/31, THIS BOX MAY BE COLLECTED AS EARLY AS 12 NOON.", "nsi_id": "unitedstatespostalservice-a77078", "operator": "United States Postal Service", "operator:short": "USPS", "operator:type": "public", "operator:wikidata": "Q668687", "ref": "8806100009"}, "type": "Feature"}
{"geometry": {"coordinates": [-108.279294, 32.780577], "type": "Point"}, "id": "0-x39DhfYXVwYkyEP2gyHPmosoc=", "properties": {"@source_uri": "https://tools.usps.com/UspsToolsRestServices/rest/POLocator/findLocations", "@spider": "usps_collection_boxes", "addr:city": "SILVER CITY", "addr:country": "US", "addr:postcode": "88061", "addr:state": "NM", "addr:street_address": "332 HIGHWAY 180 W", "amenity": "post_box", "collection_times": "Mo-Fr 13:00; Sa 12:00", "note": "ON 12/24 AND 12/31, THIS BOX MAY BE COLLECTED AS EARLY AS 12 NOON.", "nsi_id": "unitedstatespostalservice-a77078", "operator": "United States Postal Service", "operator:short": "USPS", "operator:type": "public", "operator:wikidata": "Q668687", "ref": "8806100011"}, "type": "Feature"}
{"geometry": {"coordinates": [-108.2763236615, 32.7712079126], "type": "Point"}, "id": "Axy61mvuzrXicMxUYXc59HtFwfY=", "properties": {"@source_uri": "https://tools.usps.com/UspsToolsRestServices/rest/POLocator/findLocations", "@spider": "usps_collection_boxes", "addr:city": "SILVER CITY", "addr:country": "US", "addr:postcode": "88061", "addr:state": "NM", "addr:street_address": "401 N BULLARD ST", "amenity": "post_box", "collection_times": "Mo-Sa 13:35", "note": "ON 12/24 AND 12/31, THIS BOX MAY BE COLLECTED AS EARLY AS 12 NOON.", "nsi_id": "unitedstatespostalservice-a77078", "operator": "United States Postal Service", "operator:short": "USPS", "operator:type": "public", "operator:wikidata": "Q668687", "ref": "8806100017"}, "type": "Feature"}
{"geometry": {"coordinates": [-108.277415, 32.773615], "type": "Point"}, "id": "0k82_fHj-dyr_iJUacEkyTAPryw=", "properties": {"@source_uri": "https://tools.usps.com/UspsToolsRestServices/rest/POLocator/findLocations", "@spider": "usps_collection_boxes", "addr:city": "SILVER CITY", "addr:country": "US", "addr:postcode": "88061", "addr:state": "NM", "addr:street_address": "101 W BROADWAY ST", "amenity": "post_box", "collection_times": "Mo-Sa 13:35", "note": "ON 12/24 AND 12/31, THIS BOX MAY BE COLLECTED AS EARLY AS 12 NOON.", "nsi_id": "unitedstatespostalservice-a77078", "operator": "United States Postal Service", "operator:short": "USPS", "operator:type": "public", "operator:wikidata": "Q668687", "ref": "8806100018"}, "type": "Feature"}
{"geometry": {"coordinates": [-108.247939, 32.789046], "type": "Point"}, "id": "89vb-w6EIUJ_kPAyU4d20cMWftM=", "properties": {"@source_uri": "https://tools.usps.com/UspsToolsRestServices/rest/POLocator/findLocations", "@spider": "usps_collection_boxes", "addr:city": "SILVER CITY", "addr:country": "US", "addr:postcode": "88061", "addr:state": "NM", "addr:street_address": "2501 HIGHWAY 180 E", "amenity": "post_box", "collection_times": "Mo-Sa 13:00", "note": "ON 12/24 AND 12/31, THIS BOX MAY BE COLLECTED AS EARLY AS 12 NOON.", "nsi_id": "unitedstatespostalservice-a77078", "operator": "United States Postal Service", "operator:short": "USPS", "operator:type": "public", "operator:wikidata": "Q668687", "ref": "8806100019"}, "type": "Feature"}
{"geometry": {"coordinates": [-108.274747, 32.77166], "type": "Point"}, "id": "78cKLBEp0cbEbJfZNm24s4k5xPw=", "properties": {"@source_uri": "https://tools.usps.com/UspsToolsRestServices/rest/POLocator/findLocations", "@spider": "usps_collection_boxes", "addr:city": "SILVER CITY", "addr:country": "US", "addr:postcode": "88061", "addr:state": "NM", "addr:street_address": "500 N HUDSON ST", "amenity": "post_box", "collection_times": "Mo-Fr 16:30; Sa 15:00", "indoor": "yes", "note": "ON 12/24 AND 12/31, THIS BOX MAY BE COLLECTED AS EARLY AS 12 NOON.", "nsi_id": "unitedstatespostalservice-a77078", "operator": "United States Postal Service", "operator:short": "USPS", "operator:type": "public", "operator:wikidata": "Q668687", "ref": "8806100020"}, "type": "Feature"}
{"geometry": {"coordinates": [-108.274747, 32.77166], "type": "Point"}, "id": "RjenRbPGeHZqpoAz4Ga-2WrfPbU=", "properties": {"@source_uri": "https://tools.usps.com/UspsToolsRestServices/rest/POLocator/findLocations", "@spider": "usps_collection_boxes", "addr:city": "SILVER CITY", "addr:country": "US", "addr:postcode": "88061", "addr:state": "NM", "addr:street_address": "500 N HUDSON ST", "amenity": "post_box", "collection_times": "Mo-Fr 16:30; Sa 15:00", "indoor": "yes", "note": "ON 12/24 AND 12/31, THIS BOX MAY BE COLLECTED AS EARLY AS 12 NOON.", "nsi_id": "unitedstatespostalservice-a77078", "operator": "United States Postal Service", "operator:short": "USPS", "operator:type": "public", "operator:wikidata": "Q668687", "ref": "8806100021"}, "type": "Feature"}
{"geometry": {"coordinates": [-108.274747, 32.77166], "type": "Point"}, "id": "1ZFdFXvM89Na7GCqSo6GLqSwTYI=", "properties": {"@source_uri": "https://tools.usps.com/UspsToolsRestServices/rest/POLocator/findLocations", "@spider": "usps_collection_boxes", "addr:city": "SILVER CITY", "addr:country": "US", "addr:postcode": "88061", "addr:state": "NM", "addr:street_address": "500 N HUDSON ST", "amenity": "post_box", "collection_times": "Mo-Fr 16:30; Sa 15:00", "indoor": "yes", "note": "ON 12/24 AND 12/31, THIS BOX MAY BE COLLECTED AS EARLY AS 12 NOON.", "nsi_id": "unitedstatespostalservice-a77078", "operator": "United States Postal Service", "operator:short": "USPS", "operator:type": "public", "operator:wikidata": "Q668687", "ref": "8806100022"}, "type": "Feature"}
{"geometry": {"coordinates": [-108.284104, 32.77537], "type": "Point"}, "id": "3iwYPJkoaOFwLQmZLny1bYv-Ugc=", "properties": {"@source_uri": "https://tools.usps.com/UspsToolsRestServices/rest/POLocator/findLocations", "@spider": "usps_collection_boxes", "addr:city": "SILVER CITY", "addr:country": "US", "addr:postcode": "88061", "addr:state": "NM", "addr:street_address": "1000 W COLLEGE AVE", "amenity": "post_box", "collection_times": "Mo-Sa 13:30", "note": "ON 12/24 AND 12/31, THIS BOX MAY BE COLLECTED AS EARLY AS 12 NOON.", "nsi_id": "unitedstatespostalservice-a77078", "operator": "United States Postal Service", "operator:short": "USPS", "operator:type": "public", "operator:wikidata": "Q668687", "ref": "8806100025"}, "type": "Feature"}
{"geometry": {"coordinates": [-108.2746978189, 32.7716438818], "type": "Point"}, "id": "dkTkyiOra5LPex5ul-4CXLWDz5Y=", "properties": {"@source_uri": "https://tools.usps.com/UspsToolsRestServices/rest/POLocator/findLocations", "@spider": "usps_collection_boxes", "addr:city": "SILVER CITY", "addr:country": "US", "addr:postcode": "88061", "addr:state": "NM", "addr:street_address": "500 N HUDSON ST", "amenity": "post_box", "collection_times": "Mo-Fr 16:30; Sa 15:00", "indoor": "yes", "note": "ON 12/24 AND 12/31, THIS BOX MAY BE COLLECTED AS EARLY AS 12 NOON.", "nsi_id": "unitedstatespostalservice-a77078", "operator": "United States Postal Service", "operator:short": "USPS", "operator:type": "public", "operator:wikidata": "Q668687", "ref": "8806100030"}, "type": "Feature"}
{"geometry": {"coordinates": [-106.5922324892, 31.8109780513], "type": "Point"}, "id": "JiFfEEOIZIpKs-IV1fknEc915pA=", "properties": {"@source_uri": "https://tools.usps.com/UspsToolsRestServices/rest/POLocator/findLocations", "@spider": "usps_collection_boxes", "addr:city": "SUNLAND PARK", "addr:country": "US", "addr:postcode": "88063", "addr:state": "NM", "addr:street_address": "3500 MCNUTT RD", "amenity": "post_box", "collection_times": "Mo-Fr 16:10; Sa 10:45", "note": "ON 12/24 AND 12/31, THIS BOX MAY BE COLLECTED AS EARLY AS 12 NOON.", "nsi_id": "unitedstatespostalservice-a77078", "operator": "United States Postal Service", "operator:short": "USPS", "operator:type": "public", "operator:wikidata": "Q668687", "ref": "8806300000"}, "type": "Feature"}
{"geometry": {"coordinates": [-106.5922324892, 31.8109780513], "type": "Point"}, "id": "lgxtIB7az6YFg_F7Tu-AOecWtuQ=", "properties": {"@source_uri": "https://tools.usps.com/UspsToolsRestServices/rest/POLocator/findLocations", "@spider": "usps_collection_boxes", "addr:city": "SUNLAND PARK", "addr:country": "US", "addr:postcode": "88063", "addr:state": "NM", "addr:street_address": "3500 MCNUTT RD", "amenity": "post_box", "collection_times": "Mo-Fr 16:15; Sa 10:45", "indoor": "yes", "note": "ON 12/24 AND 12/31, THIS BOX MAY BE COLLECTED AS EARLY AS 12 NOON.", "nsi_id": "unitedstatespostalservice-a77078", "operator": "United States Postal Service", "operator:short": "USPS", "operator:type": "public", "operator:wikidata": "Q668687", "ref": "8806300002"}, "type": "Feature"}
{"geometry": {"coordinates": [-106.5922324892, 31.8109780513], "type": "Point"}, "id": "nkgBVoEvuKriNKBKvql4yZp1_0A=", "properties": {"@source_uri": "https://tools.usps.com/UspsToolsRestServices/rest/POLocator/findLocations", "@spider": "usps_collection_boxes", "addr:city": "SUNLAND PARK", "addr:country": "US", "addr:postcode": "88063", "addr:state": "NM", "addr:street_address": "3500 MCNUTT RD", "amenity": "post_box", "collection_times": "Mo-Fr 16:15; Sa 10:45", "indoor": "yes", "note": "ON 12/24 AND 12/31, THIS BOX MAY BE COLLECTED AS EARLY AS 12 NOON.", "nsi_id": "unitedstatespostalservice-a77078", "operator": "United States Postal Service", "operator:short": "USPS", "operator:type": "public", "operator:wikidata": "Q668687", "ref": "8806300003"}, "type": "Feature"}
{"geometry": {"coordinates": [-106.5922324892, 31.8109780513], "type": "Point"}, "id": "UpCMYQxW8ImlpMlP4xqofc5MHtE=", "properties": {"@source_uri": "https://tools.usps.com/UspsToolsRestServices/rest/POLocator/findLocations", "@spider": "usps_collection_boxes", "addr:city": "SUNLAND PARK", "addr:country": "US", "addr:postcode": "88063", "addr:state": "NM", "addr:street_address": "3500 MCNUTT RD", "amenity": "post_box", "collection_times": "Mo-Fr 16:15; Sa 10:45", "indoor": "yes", "note": "ON 12/24 AND 12/31, THIS BOX MAY BE COLLECTED AS EARLY AS 12 NOON.", "nsi_id": "unitedstatespostalservice-a77078", "operator": "United States Postal Service", "operator:short": "USPS", "operator:type": "public", "operator:wikidata": "Q668687", "ref": "8806300008"}, "type": "Feature"}
{"geometry": {"coordinates": [-108.2980912472, 32.7130665239], "type": "Point"}, "id": "BkneROV-isNncvD-KVAEVGlYNAA=", "properties": {"@source_uri": "https://tools.usps.com/UspsToolsRestServices/rest/POLocator/findLocations", "@spider": "usps_collection_boxes", "addr:city": "TYRONE", "addr:country": "US", "addr:postcode": "88065", "addr:state": "NM", "addr:street_address": "210 TURQUOISE ST", "amenity": "post_box", "collection_times": "Mo-Fr 15:30; Sa 09:00", "note": "ON 12/24 AND 12/31, THIS BOX MAY BE COLLECTED AS EARLY AS 12 NOON.", "nsi_id": "unitedstatespostalservice-a77078", "operator": "United States Postal Service", "operator:short": "USPS", "operator:type": "public", "operator:wikidata": "Q668687", "ref": "8806500000"}, "type": "Feature"}
{"geometry": {"coordinates": [-108.2980912472, 32.7130665239], "type": "Point"}, "id": "ZodWm8bXSm3ORSClJCEm0_rRgFQ=", "properties": {"@source_uri": "https://tools.usps.com/UspsToolsRestServices/rest/POLocator/findLocations", "@spider": "usps_collection_boxes", "addr:city": "TYRONE", "addr:country": "US", "addr:postcode": "88065", "addr:state": "NM", "addr:street_address": "210 TURQUOISE ST", "amenity": "post_box", "collection_times": "Mo-Fr 16:00; Sa 09:30", "indoor": "yes", "note": "ON 12/24 AND 12/31, THIS BOX MAY BE COLLECTED AS EARLY AS 12 NOON.", "nsi_id": "unitedstatespostalservice-a77078", "operator": "United States Postal Service", "operator:short": "USPS", "operator:type": "public", "operator:wikidata": "Q668687", "ref": "8806500001"}, "type": "Feature"}
{"geometry": {"coordinates": [-108.2980912472, 32.7130665239], "type": "Point"}, "id": "xcbBgaaqeKsX8GcFQh59kz93cr4=", "properties": {"@source_uri": "https://tools.usps.com/UspsToolsRestServices/rest/POLocator/findLocations", "@spider": "usps_collection_boxes", "addr:city": "TYRONE", "addr:country": "US", "addr:postcode": "88065", "addr:state": "NM", "addr:street_address": "210 TURQUOISE ST", "amenity": "post_box", "collection_times": "Mo-Fr 16:00; Sa 09:30", "indoor": "yes", "note": "ON 12/24 AND 12/31, THIS BOX MAY BE COLLECTED AS EARLY AS 12 NOON.", "nsi_id": "unitedstatespostalservice-a77078", "operator": "United States Postal Service", "operator:short": "USPS", "operator:type": "public", "operator:wikidata": "Q668687", "ref": "8806500002"}, "type": "Feature"}
{"geometry": {"coordinates": [-108.2980912472, 32.7130665239], "type": "Point"}, "id": "5IMrN9Cz8jRfpxPh7JTCrv6DvVY=", "properties": {"@source_uri": "https://tools.usps.com/UspsToolsRestServices/rest/POLocator/findLocations", "@spider": "usps_collection_boxes", "addr:city": "TYRONE", "addr:country": "US", "addr:postcode": "88065", "addr:state": "NM", "addr:street_address": "210 TURQUOISE ST", "amenity": "post_box", "collection_times": "Mo-Fr 15:45; Sa 09:30", "indoor": "yes", "note": "ON 12/24 AND 12/31, THIS BOX MAY BE COLLECTED AS EARLY AS 12 NOON.", "nsi_id": "unitedstatespostalservice-a77078", "operator": "United States Postal Service", "operator:short": "USPS", "operator:type": "public", "operator:wikidata": "Q668687", "ref": "8806500003"}, "type": "Feature"}
{"geometry": {"coordinates": [-106.409135444, 32.019452832], "type": "Point"}, "id": "iES2qxdWF-O9epCg_-jveDDSJ2Q=", "properties": {"@source_uri": "https://tools.usps.com/UspsToolsRestServices/rest/POLocator/findLocations", "@spider": "usps_collection_boxes", "addr:city": "ANTHONY", "addr:country": "US", "addr:postcode": "88081", "addr:state": "NM", "addr:street_address": "324 MCCOMBS RD", "amenity": "post_box", "collection_times": "Mo-Fr 12:00", "indoor": "yes", "nsi_id": "unitedstatespostalservice-a77078", "operator": "United States Postal Service", "operator:short": "USPS", "operator:type": "public", "operator:wikidata": "Q668687", "ref": "8808100001"}, "type": "Feature"}
