{"dataset_attributes": {"@spider": "usps_collection_boxes"}, "geometry": {"coordinates": [-103.202406, 34.401911], "type": "Point"}, "id": "vLEXY8IEMHEjZmaMaf6Y0zT5BVo=", "properties": {"@spider": "usps_collection_boxes", "addr:city": "CLOVIS", "addr:country": "US", "addr:full": "417 GIDDING ST", "addr:postcode": "88101", "addr:state": "NM", "amenity": "post_box", "brand": "United States Postal Service", "brand:wikidata": "Q668687", "collection_times": "Mo-Fr 16:30; Sa 15:10", "name": "USPS COLLECTION BOX - BLUE BOX", "note": "ON 12/24 AND 12/31, THIS BOX MAY BE COLLECTED AS EARLY AS 12 NOON.", "nsi_id": "unitedstatespostalservice-a77078", "operator": "United States Postal Service", "operator:short": "USPS", "operator:type": "public", "operator:wikidata": "Q668687", "ref": "8810100000"}, "type": "Feature"}
{"dataset_attributes": {"@spider": "usps_collection_boxes"}, "geometry": {"coordinates": [-103.205498, 34.405162], "type": "Point"}, "id": "bSTRSnAag9WyFflJdT_z5zewIuQ=", "properties": {"@spider": "usps_collection_boxes", "addr:city": "CLOVIS", "addr:country": "US", "addr:full": "700 N MAIN ST", "addr:postcode": "88101", "addr:state": "NM", "amenity": "post_box", "brand": "United States Postal Service", "brand:wikidata": "Q668687", "collection_times": "Mo-Sa 10:30", "name": "USPS COLLECTION BOX - BLUE BOX", "nsi_id": "unitedstatespostalservice-a77078", "operator": "United States Postal Service", "operator:short": "USPS", "operator:type": "public", "operator:wikidata": "Q668687", "ref": "8810100009"}, "type": "Feature"}
{"dataset_attributes": {"@spider": "usps_collection_boxes"}, "geometry": {"coordinates": [-103.214272, 34.417467], "type": "Point"}, "id": "PUsA3_9io9sINisPmKVI6i2aAEs=", "properties": {"@spider": "usps_collection_boxes", "addr:city": "CLOVIS", "addr:country": "US", "addr:full": "1900 N THORNTON ST", "addr:postcode": "88101", "addr:state": "NM", "amenity": "post_box", "brand": "United States Postal Service", "brand:wikidata": "Q668687", "collection_times": "Mo-Sa 14:35", "name": "USPS COLLECTION BOX - BLUE BOX", "note": "ON 12/24 AND 12/31, THIS BOX MAY BE COLLECTED AS EARLY AS 12 NOON.", "nsi_id": "unitedstatespostalservice-a77078", "operator": "United States Postal Service", "operator:short": "USPS", "operator:type": "public", "operator:wikidata": "Q668687", "ref": "8810100010"}, "type": "Feature"}
{"dataset_attributes": {"@spider": "usps_collection_boxes"}, "geometry": {"coordinates": [-103.214557, 34.420125], "type": "Point"}, "id": "Fq9wYnsecoGcxxgSfLdLLwkYxaA=", "properties": {"@spider": "usps_collection_boxes", "addr:city": "CLOVIS", "addr:country": "US", "addr:full": "2112 N THORNTON ST", "addr:postcode": "88101", "addr:state": "NM", "amenity": "post_box", "brand": "United States Postal Service", "brand:wikidata": "Q668687", "collection_times": "Mo-Sa 14:35", "name": "USPS COLLECTION BOX - BLUE BOX", "note": "ON 12/24 AND 12/31, THIS BOX MAY BE COLLECTED AS EARLY AS 12 NOON.", "nsi_id": "unitedstatespostalservice-a77078", "operator": "United States Postal Service", "operator:short": "USPS", "operator:type": "public", "operator:wikidata": "Q668687", "ref": "8810100011"}, "type": "Feature"}
{"dataset_attributes": {"@spider": "usps_collection_boxes"}, "geometry": {"coordinates": [-103.206635, 34.421278], "type": "Point"}, "id": "qUnpNBp1ZMoELSjmLZxgck2yKms=", "properties": {"@spider": "usps_collection_boxes", "addr:city": "CLOVIS", "addr:country": "US", "addr:full": "2200 N MAIN ST", "addr:postcode": "88101", "addr:state": "NM", "amenity": "post_box", "brand": "United States Postal Service", "brand:wikidata": "Q668687", "collection_times": "Mo-Sa 14:40", "name": "USPS COLLECTION BOX - BLUE BOX", "note": "ON 12/24 AND 12/31, THIS BOX MAY BE COLLECTED AS EARLY AS 12 NOON.", "nsi_id": "unitedstatespostalservice-a77078", "operator": "United States Postal Service", "operator:short": "USPS", "operator:type": "public", "operator:wikidata": "Q668687", "ref": "8810100013"}, "type": "Feature"}
{"dataset_attributes": {"@spider": "usps_collection_boxes"}, "geometry": {"coordinates": [-103.196326, 34.418004], "type": "Point"}, "id": "nYyhIIiXiatjzo-IpQHjtnG8D8w=", "properties": {"@spider": "usps_collection_boxes", "addr:city": "CLOVIS", "addr:country": "US", "addr:full": "2001 N PRINCE ST", "addr:postcode": "88101", "addr:state": "NM", "amenity": "post_box", "brand": "United States Postal Service", "brand:wikidata": "Q668687", "collection_times": "Mo-Sa 15:00", "name": "USPS COLLECTION BOX - BLUE BOX", "note": "ON 12/24 AND 12/31, THIS BOX MAY BE COLLECTED AS EARLY AS 12 NOON.", "nsi_id": "unitedstatespostalservice-a77078", "operator": "United States Postal Service", "operator:short": "USPS", "operator:type": "public", "operator:wikidata": "Q668687", "ref": "8810100016"}, "type": "Feature"}
{"dataset_attributes": {"@spider": "usps_collection_boxes"}, "geometry": {"coordinates": [-103.193276, 34.424819], "type": "Point"}, "id": "4VB9Dy3W5PvjsTeg6oDuISftr5Y=", "properties": {"@spider": "usps_collection_boxes", "addr:city": "CLOVIS", "addr:country": "US", "addr:full": "2809 N PRINCE ST", "addr:postcode": "88101", "addr:state": "NM", "amenity": "post_box", "brand": "United States Postal Service", "brand:wikidata": "Q668687", "collection_times": "Mo-Fr 11:00; Sa 14:55", "name": "USPS COLLECTION BOX - BLUE BOX", "note": "ON 12/24 AND 12/31, THIS BOX MAY BE COLLECTED AS EARLY AS 12 NOON.", "nsi_id": "unitedstatespostalservice-a77078", "operator": "United States Postal Service", "operator:short": "USPS", "operator:type": "public", "operator:wikidata": "Q668687", "ref": "8810100019"}, "type": "Feature"}
{"dataset_attributes": {"@spider": "usps_collection_boxes"}, "geometry": {"coordinates": [-103.195981, 34.439435], "type": "Point"}, "id": "aM1YlURNxp8kP-74AB3zXBxBlEI=", "properties": {"@spider": "usps_collection_boxes", "addr:city": "CLOVIS", "addr:country": "US", "addr:full": "4301 N PRINCE ST", "addr:postcode": "88101", "addr:state": "NM", "amenity": "post_box", "brand": "United States Postal Service", "brand:wikidata": "Q668687", "collection_times": "Mo-Sa 14:50", "name": "USPS COLLECTION BOX - BLUE BOX", "note": "ON 12/24 AND 12/31, THIS BOX MAY BE COLLECTED AS EARLY AS 12 NOON.", "nsi_id": "unitedstatespostalservice-a77078", "operator": "United States Postal Service", "operator:short": "USPS", "operator:type": "public", "operator:wikidata": "Q668687", "ref": "8810100021"}, "type": "Feature"}
{"dataset_attributes": {"@spider": "usps_collection_boxes"}, "geometry": {"coordinates": [-103.2045609612, 34.4280060029], "type": "Point"}, "id": "enneP4W4yZc3cV8NREWcFx9wFqs=", "properties": {"@spider": "usps_collection_boxes", "addr:city": "CLOVIS", "addr:country": "US", "addr:full": "100 E MANANA BLVD", "addr:postcode": "88101", "addr:state": "NM", "amenity": "post_box", "brand": "United States Postal Service", "brand:wikidata": "Q668687", "collection_times": "Mo-Sa 14:45", "name": "USPS COLLECTION BOX - BLUE BOX", "note": "ON 12/24 AND 12/31, THIS BOX MAY BE COLLECTED AS EARLY AS 12 NOON.", "nsi_id": "unitedstatespostalservice-a77078", "operator": "United States Postal Service", "operator:short": "USPS", "operator:type": "public", "operator:wikidata": "Q668687", "ref": "8810100022"}, "type": "Feature"}
{"dataset_attributes": {"@spider": "usps_collection_boxes"}, "geometry": {"coordinates": [-103.230291, 34.4199], "type": "Point"}, "id": "NkxEuXdRh95cSUOOsPG7AsH-010=", "properties": {"@spider": "usps_collection_boxes", "addr:city": "CLOVIS", "addr:country": "US", "addr:full": "2101 W 21ST ST", "addr:postcode": "88101", "addr:state": "NM", "amenity": "post_box", "brand": "United States Postal Service", "brand:wikidata": "Q668687", "collection_times": "Mo-Sa 14:30", "name": "USPS COLLECTION BOX - BLUE BOX", "note": "ON 12/24 AND 12/31, THIS BOX MAY BE COLLECTED AS EARLY AS 12 NOON.", "nsi_id": "unitedstatespostalservice-a77078", "operator": "United States Postal Service", "operator:short": "USPS", "operator:type": "public", "operator:wikidata": "Q668687", "ref": "8810100029"}, "type": "Feature"}
{"dataset_attributes": {"@spider": "usps_collection_boxes"}, "geometry": {"coordinates": [-103.331773574, 34.392035259], "type": "Point"}, "id": "2mKKKcXdCfXcVQHJCYYitGUkMes=", "properties": {"@spider": "usps_collection_boxes", "addr:city": "CLOVIS", "addr:country": "US", "addr:full": "102 OCTAGON ST W", "addr:postcode": "88101", "addr:state": "NM", "amenity": "post_box", "brand": "United States Postal Service", "brand:wikidata": "Q668687", "collection_times": "Mo-Sa 14:00", "name": "USPS COLLECTION BOX - BLUE BOX", "note": "ON 12/24 AND 12/31, THIS BOX MAY BE COLLECTED AS EARLY AS 12 NOON.", "nsi_id": "unitedstatespostalservice-a77078", "operator": "United States Postal Service", "operator:short": "USPS", "operator:type": "public", "operator:wikidata": "Q668687", "ref": "8810100031"}, "type": "Feature"}
{"dataset_attributes": {"@spider": "usps_collection_boxes"}, "geometry": {"coordinates": [-103.325687, 34.394367], "type": "Point"}, "id": "UQILhL_ObjuFJHeP7hYivvCb-SE=", "properties": {"@spider": "usps_collection_boxes", "addr:city": "CLOVIS", "addr:country": "US", "addr:full": "199 W EUREKA AVE", "addr:postcode": "88101", "addr:state": "NM", "amenity": "post_box", "brand": "United States Postal Service", "brand:wikidata": "Q668687", "collection_times": "Mo-Sa 14:00", "name": "USPS COLLECTION BOX - BLUE BOX", "note": "ON 12/24 AND 12/31, THIS BOX MAY BE COLLECTED AS EARLY AS 12 NOON.", "nsi_id": "unitedstatespostalservice-a77078", "operator": "United States Postal Service", "operator:short": "USPS", "operator:type": "public", "operator:wikidata": "Q668687", "ref": "8810100032"}, "type": "Feature"}
{"dataset_attributes": {"@spider": "usps_collection_boxes"}, "geometry": {"coordinates": [-103.220201, 34.419339], "type": "Point"}, "id": "AWMUidM3wlKf4l7stdJ0zoU38Cw=", "properties": {"@spider": "usps_collection_boxes", "addr:city": "CLOVIS", "addr:country": "US", "addr:full": "1224 W 21ST ST", "addr:postcode": "88101", "addr:state": "NM", "amenity": "post_box", "brand": "United States Postal Service", "brand:wikidata": "Q668687", "collection_times": "Mo-Sa 17:00", "name": "USPS COLLECTION BOX - BLUE BOX", "note": "ON 12/24 AND 12/31, THIS BOX MAY BE COLLECTED AS EARLY AS 12 NOON.", "nsi_id": "unitedstatespostalservice-a77078", "operator": "United States Postal Service", "operator:short": "USPS", "operator:type": "public", "operator:wikidata": "Q668687", "ref": "8810100041"}, "type": "Feature"}
{"dataset_attributes": {"@spider": "usps_collection_boxes"}, "geometry": {"coordinates": [-103.202709, 34.402053], "type": "Point"}, "id": "879T_IJ_W2ow_fGV_qaLVmQeBDw=", "properties": {"@spider": "usps_collection_boxes", "addr:city": "CLOVIS", "addr:country": "US", "addr:full": "417 GIDDING ST", "addr:postcode": "88101", "addr:state": "NM", "amenity": "post_box", "brand": "United States Postal Service", "brand:wikidata": "Q668687", "collection_times": "Mo-Fr 16:15; Sa 15:15", "name": "USPS COLLECTION BOX - PO LOBBY", "note": "ON 12/24 AND 12/31, THIS BOX MAY BE COLLECTED AS EARLY AS 12 NOON.", "nsi_id": "unitedstatespostalservice-a77078", "operator": "United States Postal Service", "operator:short": "USPS", "operator:type": "public", "operator:wikidata": "Q668687", "ref": "8810100044"}, "type": "Feature"}
{"dataset_attributes": {"@spider": "usps_collection_boxes"}, "geometry": {"coordinates": [-103.220109, 34.419313], "type": "Point"}, "id": "a12tofm-2tHZcp1dkeehpeJ1rT4=", "properties": {"@spider": "usps_collection_boxes", "addr:city": "CLOVIS", "addr:country": "US", "addr:full": "1224 W 21ST ST", "addr:postcode": "88101", "addr:state": "NM", "amenity": "post_box", "brand": "United States Postal Service", "brand:wikidata": "Q668687", "collection_times": "Mo-Sa 17:00", "name": "USPS COLLECTION BOX - PO LOBBY", "note": "ON 12/24 AND 12/31, THIS BOX MAY BE COLLECTED AS EARLY AS 12 NOON.", "nsi_id": "unitedstatespostalservice-a77078", "operator": "United States Postal Service", "operator:short": "USPS", "operator:type": "public", "operator:wikidata": "Q668687", "ref": "8810100046"}, "type": "Feature"}
{"dataset_attributes": {"@spider": "usps_collection_boxes"}, "geometry": {"coordinates": [-103.220109, 34.419313], "type": "Point"}, "id": "KFqw5h7IjI3vIClgAfmuSOTwTgk=", "properties": {"@spider": "usps_collection_boxes", "addr:city": "CLOVIS", "addr:country": "US", "addr:full": "1224 W 21ST ST", "addr:postcode": "88101", "addr:state": "NM", "amenity": "post_box", "brand": "United States Postal Service", "brand:wikidata": "Q668687", "collection_times": "Mo-Sa 17:00", "name": "USPS COLLECTION BOX - PO LOBBY", "note": "ON 12/24 AND 12/31, THIS BOX MAY BE COLLECTED AS EARLY AS 12 NOON.", "nsi_id": "unitedstatespostalservice-a77078", "operator": "United States Postal Service", "operator:short": "USPS", "operator:type": "public", "operator:wikidata": "Q668687", "ref": "8810100047"}, "type": "Feature"}
{"dataset_attributes": {"@spider": "usps_collection_boxes"}, "geometry": {"coordinates": [-103.220109, 34.419313], "type": "Point"}, "id": "zBWeURl064p3-VXeIyDV_le1p9g=", "properties": {"@spider": "usps_collection_boxes", "addr:city": "CLOVIS", "addr:country": "US", "addr:full": "1224 W 21ST ST", "addr:postcode": "88101", "addr:state": "NM", "amenity": "post_box", "brand": "United States Postal Service", "brand:wikidata": "Q668687", "collection_times": "Mo-Sa 17:00", "name": "USPS COLLECTION BOX - BLUE BOX", "note": "ON 12/24 AND 12/31, THIS BOX MAY BE COLLECTED AS EARLY AS 12 NOON.", "nsi_id": "unitedstatespostalservice-a77078", "operator": "United States Postal Service", "operator:short": "USPS", "operator:type": "public", "operator:wikidata": "Q668687", "ref": "8810100053"}, "type": "Feature"}
{"dataset_attributes": {"@spider": "usps_collection_boxes"}, "geometry": {"coordinates": [-103.2427501088, 34.41926189], "type": "Point"}, "id": "dN1QWQn4gWDzKb3Y9vIrFRzqyEo=", "properties": {"@spider": "usps_collection_boxes", "addr:city": "CLOVIS", "addr:country": "US", "addr:full": "1224 W 21ST ST", "addr:postcode": "88101", "addr:state": "NM", "amenity": "post_box", "brand": "United States Postal Service", "brand:wikidata": "Q668687", "collection_times": "Mo-Fr 17:00; Sa 13:00", "name": "USPS COLLECTION BOX - PO LOBBY", "note": "ON 12/24 AND 12/31, THIS BOX MAY BE COLLECTED AS EARLY AS 12 NOON.", "nsi_id": "unitedstatespostalservice-a77078", "operator": "United States Postal Service", "operator:short": "USPS", "operator:type": "public", "operator:wikidata": "Q668687", "ref": "8810100058"}, "type": "Feature"}
{"dataset_attributes": {"@spider": "usps_collection_boxes"}, "geometry": {"coordinates": [-103.2026878715, 34.4020256223], "type": "Point"}, "id": "9Ks4xCXo67cJdooymLOb1PtAVeU=", "properties": {"@spider": "usps_collection_boxes", "addr:city": "CLOVIS", "addr:country": "US", "addr:full": "417 GIDDING ST", "addr:postcode": "88101", "addr:state": "NM", "amenity": "post_box", "brand": "United States Postal Service", "brand:wikidata": "Q668687", "collection_times": "Mo-Fr 16:15", "name": "USPS COLLECTION BOX - PO LOBBY", "note": "ON 12/24 AND 12/31, THIS BOX MAY BE COLLECTED AS EARLY AS 12 NOON.", "nsi_id": "unitedstatespostalservice-a77078", "operator": "United States Postal Service", "operator:short": "USPS", "operator:type": "public", "operator:wikidata": "Q668687", "ref": "8810100059"}, "type": "Feature"}
{"dataset_attributes": {"@spider": "usps_collection_boxes"}, "geometry": {"coordinates": [-103.126774, 33.880196], "type": "Point"}, "id": "hzo8M-Z_ePe9MeR7d8MHWjBZrV8=", "properties": {"@spider": "usps_collection_boxes", "addr:city": "CAUSEY", "addr:country": "US", "addr:full": "122 CAUSEY MAIN ST", "addr:postcode": "88113", "addr:state": "NM", "amenity": "post_box", "brand": "United States Postal Service", "brand:wikidata": "Q668687", "collection_times": "Mo-Sa 12:45", "name": "USPS COLLECTION BOX - BLUE BOX", "note": "ON 12/24 AND 12/31, THIS BOX MAY BE COLLECTED AS EARLY AS 12 NOON.", "nsi_id": "unitedstatespostalservice-a77078", "operator": "United States Postal Service", "operator:short": "USPS", "operator:type": "public", "operator:wikidata": "Q668687", "ref": "8811300000"}, "type": "Feature"}
{"dataset_attributes": {"@spider": "usps_collection_boxes"}, "geometry": {"coordinates": [-103.126774, 33.880196], "type": "Point"}, "id": "L861JorI4Ec0abVunAvVakHY5i8=", "properties": {"@spider": "usps_collection_boxes", "addr:city": "CAUSEY", "addr:country": "US", "addr:full": "122 CAUSEY MAIN ST", "addr:postcode": "88113", "addr:state": "NM", "amenity": "post_box", "brand": "United States Postal Service", "brand:wikidata": "Q668687", "collection_times": "Mo-Sa 12:45", "name": "USPS COLLECTION BOX - PO LOBBY", "note": "ON 12/24 AND 12/31, THIS BOX MAY BE COLLECTED AS EARLY AS 12 NOON.", "nsi_id": "unitedstatespostalservice-a77078", "operator": "United States Postal Service", "operator:short": "USPS", "operator:type": "public", "operator:wikidata": "Q668687", "ref": "8811300001"}, "type": "Feature"}
{"dataset_attributes": {"@spider": "usps_collection_boxes"}, "geometry": {"coordinates": [-103.1264671418, 33.879798], "type": "Point"}, "id": "mCpKzFISGNITdI7K8p1x4ZXIVQk=", "properties": {"@spider": "usps_collection_boxes", "addr:city": "CAUSEY", "addr:country": "US", "addr:full": "122 CAUSEY MAIN ST", "addr:postcode": "88113", "addr:state": "NM", "amenity": "post_box", "brand": "United States Postal Service", "brand:wikidata": "Q668687", "collection_times": "Mo-Sa 12:45", "name": "USPS COLLECTION BOX - PO LOBBY", "note": "ON 12/24 AND 12/31, THIS BOX MAY BE COLLECTED AS EARLY AS 12 NOON.", "nsi_id": "unitedstatespostalservice-a77078", "operator": "United States Postal Service", "operator:short": "USPS", "operator:type": "public", "operator:wikidata": "Q668687", "ref": "8811300002"}, "type": "Feature"}
{"dataset_attributes": {"@spider": "usps_collection_boxes"}, "geometry": {"coordinates": [-103.336511, 33.940713], "type": "Point"}, "id": "1IdLkxF4gvAWJESgqosuw96phE8=", "properties": {"@spider": "usps_collection_boxes", "addr:city": "DORA", "addr:country": "US", "addr:full": "130 DORA MAIN ST", "addr:postcode": "88115", "addr:state": "NM", "amenity": "post_box", "brand": "United States Postal Service", "brand:wikidata": "Q668687", "collection_times": "Mo-Sa 11:00", "name": "USPS COLLECTION BOX - BLUE BOX", "nsi_id": "unitedstatespostalservice-a77078", "operator": "United States Postal Service", "operator:short": "USPS", "operator:type": "public", "operator:wikidata": "Q668687", "ref": "8811500000"}, "type": "Feature"}
{"dataset_attributes": {"@spider": "usps_collection_boxes"}, "geometry": {"coordinates": [-103.336478, 33.940623], "type": "Point"}, "id": "om6_P27B1yEknXPyK2-Edp-rRkM=", "properties": {"@spider": "usps_collection_boxes", "addr:city": "DORA", "addr:country": "US", "addr:full": "130 DORA MAIN ST", "addr:postcode": "88115", "addr:state": "NM", "amenity": "post_box", "brand": "United States Postal Service", "brand:wikidata": "Q668687", "collection_times": "Mo-Sa 11:00", "name": "USPS COLLECTION BOX - PO LOBBY", "nsi_id": "unitedstatespostalservice-a77078", "operator": "United States Postal Service", "operator:short": "USPS", "operator:type": "public", "operator:wikidata": "Q668687", "ref": "8811500001"}, "type": "Feature"}
{"dataset_attributes": {"@spider": "usps_collection_boxes"}, "geometry": {"coordinates": [-103.3365166274, 33.940953], "type": "Point"}, "id": "sU6NVw6eO7SY1nALaeKJCDlePsk=", "properties": {"@spider": "usps_collection_boxes", "addr:city": "DORA", "addr:country": "US", "addr:full": "130 DORA MAIN ST", "addr:postcode": "88115", "addr:state": "NM", "amenity": "post_box", "brand": "United States Postal Service", "brand:wikidata": "Q668687", "collection_times": "Mo-Sa 11:00", "name": "USPS COLLECTION BOX - PO LOBBY", "nsi_id": "unitedstatespostalservice-a77078", "operator": "United States Postal Service", "operator:short": "USPS", "operator:type": "public", "operator:wikidata": "Q668687", "ref": "8811500002"}, "type": "Feature"}
{"dataset_attributes": {"@spider": "usps_collection_boxes"}, "geometry": {"coordinates": [-103.655574, 33.946773], "type": "Point"}, "id": "xzlfsLnTAc967WWZsPAscXBKzSc=", "properties": {"@spider": "usps_collection_boxes", "addr:city": "ELIDA", "addr:country": "US", "addr:full": "101 N CENTER ST", "addr:postcode": "88116", "addr:state": "NM", "amenity": "post_box", "brand": "United States Postal Service", "brand:wikidata": "Q668687", "collection_times": "Mo-Fr 16:15; Sa 09:15", "name": "USPS COLLECTION BOX - PO LOBBY", "note": "ON 12/24 AND 12/31, THIS BOX MAY BE COLLECTED AS EARLY AS 12 NOON.", "nsi_id": "unitedstatespostalservice-a77078", "operator": "United States Postal Service", "operator:short": "USPS", "operator:type": "public", "operator:wikidata": "Q668687", "ref": "8811600000"}, "type": "Feature"}
{"dataset_attributes": {"@spider": "usps_collection_boxes"}, "geometry": {"coordinates": [-103.6552679649, 33.9470710065], "type": "Point"}, "id": "h2WP3i4dw7p6l8LSenUWblW1MB8=", "properties": {"@spider": "usps_collection_boxes", "addr:city": "ELIDA", "addr:country": "US", "addr:full": "101 N CENTER ST", "addr:postcode": "88116", "addr:state": "NM", "amenity": "post_box", "brand": "United States Postal Service", "brand:wikidata": "Q668687", "collection_times": "Mo-Fr 16:15; Sa 09:15", "name": "USPS COLLECTION BOX - BLUE BOX", "note": "ON 12/24 AND 12/31, THIS BOX MAY BE COLLECTED AS EARLY AS 12 NOON.", "nsi_id": "unitedstatespostalservice-a77078", "operator": "United States Postal Service", "operator:short": "USPS", "operator:type": "public", "operator:wikidata": "Q668687", "ref": "8811600002"}, "type": "Feature"}
{"dataset_attributes": {"@spider": "usps_collection_boxes"}, "geometry": {"coordinates": [-103.655608, 33.946862], "type": "Point"}, "id": "fIHt42NCpSMc2IBQEb5Gc9rC_R8=", "properties": {"@spider": "usps_collection_boxes", "addr:city": "ELIDA", "addr:country": "US", "addr:full": "101 N CENTER ST", "addr:postcode": "88116", "addr:state": "NM", "amenity": "post_box", "brand": "United States Postal Service", "brand:wikidata": "Q668687", "collection_times": "Mo-Fr 16:15; Sa 09:15", "name": "USPS COLLECTION BOX - PO LOBBY", "note": "ON 12/24 AND 12/31, THIS BOX MAY BE COLLECTED AS EARLY AS 12 NOON.", "nsi_id": "unitedstatespostalservice-a77078", "operator": "United States Postal Service", "operator:short": "USPS", "operator:type": "public", "operator:wikidata": "Q668687", "ref": "8811600003"}, "type": "Feature"}
{"dataset_attributes": {"@spider": "usps_collection_boxes"}, "geometry": {"coordinates": [-103.6556193432, 33.9470994133], "type": "Point"}, "id": "irwaIY4kCw_F8lsDTOpQ2mc32jk=", "properties": {"@spider": "usps_collection_boxes", "addr:city": "ELIDA", "addr:country": "US", "addr:full": "101 N CENTER ST", "addr:postcode": "88116", "addr:state": "NM", "amenity": "post_box", "brand": "United States Postal Service", "brand:wikidata": "Q668687", "collection_times": "Mo-Fr 16:15; Sa 09:15", "name": "USPS COLLECTION BOX - PO LOBBY", "note": "ON 12/24 AND 12/31, THIS BOX MAY BE COLLECTED AS EARLY AS 12 NOON.", "nsi_id": "unitedstatespostalservice-a77078", "operator": "United States Postal Service", "operator:short": "USPS", "operator:type": "public", "operator:wikidata": "Q668687", "ref": "8811600004"}, "type": "Feature"}
{"dataset_attributes": {"@spider": "usps_collection_boxes"}, "geometry": {"coordinates": [-103.5778411012, 34.2144041538], "type": "Point"}, "id": "39HLBh7PaKyV3KLnM7Jd1wtX43U=", "properties": {"@spider": "usps_collection_boxes", "addr:city": "FLOYD", "addr:country": "US", "addr:full": "1561 NEW MEXICO 267", "addr:postcode": "88118", "addr:state": "NM", "amenity": "post_box", "brand": "United States Postal Service", "brand:wikidata": "Q668687", "collection_times": "Mo-Fr 11:30; Sa 09:00", "name": "USPS COLLECTION BOX - BLUE BOX", "nsi_id": "unitedstatespostalservice-a77078", "operator": "United States Postal Service", "operator:short": "USPS", "operator:type": "public", "operator:wikidata": "Q668687", "ref": "8811800000"}, "type": "Feature"}
{"dataset_attributes": {"@spider": "usps_collection_boxes"}, "geometry": {"coordinates": [-103.5778411012, 34.2144041538], "type": "Point"}, "id": "03diAl0JUChN8eYSgLQGjX1N1mI=", "properties": {"@spider": "usps_collection_boxes", "addr:city": "FLOYD", "addr:country": "US", "addr:full": "1561 NEW MEXICO 267", "addr:postcode": "88118", "addr:state": "NM", "amenity": "post_box", "brand": "United States Postal Service", "brand:wikidata": "Q668687", "collection_times": "Mo-Fr 11:30", "name": "USPS COLLECTION BOX - PO LOBBY", "nsi_id": "unitedstatespostalservice-a77078", "operator": "United States Postal Service", "operator:short": "USPS", "operator:type": "public", "operator:wikidata": "Q668687", "ref": "8811800001"}, "type": "Feature"}
{"dataset_attributes": {"@spider": "usps_collection_boxes"}, "geometry": {"coordinates": [-103.5778411012, 34.2144041538], "type": "Point"}, "id": "7qgFbpVO9vizj7y73OKOY5zAB4c=", "properties": {"@spider": "usps_collection_boxes", "addr:city": "FLOYD", "addr:country": "US", "addr:full": "1561 NEW MEXICO 267", "addr:postcode": "88118", "addr:state": "NM", "amenity": "post_box", "brand": "United States Postal Service", "brand:wikidata": "Q668687", "collection_times": "Mo-Fr 11:30; Sa 09:00", "name": "USPS COLLECTION BOX - PO LOBBY", "nsi_id": "unitedstatespostalservice-a77078", "operator": "United States Postal Service", "operator:short": "USPS", "operator:type": "public", "operator:wikidata": "Q668687", "ref": "8811800002"}, "type": "Feature"}
{"dataset_attributes": {"@spider": "usps_collection_boxes"}, "geometry": {"coordinates": [-104.2441232689, 34.472609078], "type": "Point"}, "id": "hhNd3tLsWPbehanQlH26SzN7TMI=", "properties": {"@spider": "usps_collection_boxes", "addr:city": "FORT SUMNER", "addr:country": "US", "addr:full": "688 N 5TH ST", "addr:postcode": "88119", "addr:state": "NM", "amenity": "post_box", "brand": "United States Postal Service", "brand:wikidata": "Q668687", "collection_times": "Mo-Fr 15:30; Sa 10:00", "name": "USPS COLLECTION BOX - PO LOBBY", "note": "ON 12/24 AND 12/31, THIS BOX MAY BE COLLECTED AS EARLY AS 12 NOON.", "nsi_id": "unitedstatespostalservice-a77078", "operator": "United States Postal Service", "operator:short": "USPS", "operator:type": "public", "operator:wikidata": "Q668687", "ref": "8811900001"}, "type": "Feature"}
{"dataset_attributes": {"@spider": "usps_collection_boxes"}, "geometry": {"coordinates": [-104.2441232689, 34.472609078], "type": "Point"}, "id": "lvsBFOGc016LVvJGDPOxJSbShSk=", "properties": {"@spider": "usps_collection_boxes", "addr:city": "FORT SUMNER", "addr:country": "US", "addr:full": "688 N 5TH ST", "addr:postcode": "88119", "addr:state": "NM", "amenity": "post_box", "brand": "United States Postal Service", "brand:wikidata": "Q668687", "collection_times": "Mo-Fr 15:30; Sa 10:00", "name": "USPS COLLECTION BOX - PO LOBBY", "note": "ON 12/24 AND 12/31, THIS BOX MAY BE COLLECTED AS EARLY AS 12 NOON.", "nsi_id": "unitedstatespostalservice-a77078", "operator": "United States Postal Service", "operator:short": "USPS", "operator:type": "public", "operator:wikidata": "Q668687", "ref": "8811900002"}, "type": "Feature"}
{"dataset_attributes": {"@spider": "usps_collection_boxes"}, "geometry": {"coordinates": [-104.2441232689, 34.472609078], "type": "Point"}, "id": "3cBpjn8e7UGfQVljOygJ2GiPyLQ=", "properties": {"@spider": "usps_collection_boxes", "addr:city": "FORT SUMNER", "addr:country": "US", "addr:full": "688 N 5TH ST", "addr:postcode": "88119", "addr:state": "NM", "amenity": "post_box", "brand": "United States Postal Service", "brand:wikidata": "Q668687", "collection_times": "Mo-Fr 15:30; Sa 10:00", "name": "USPS COLLECTION BOX - BLUE BOX", "note": "ON 12/24 AND 12/31, THIS BOX MAY BE COLLECTED AS EARLY AS 12 NOON.", "nsi_id": "unitedstatespostalservice-a77078", "operator": "United States Postal Service", "operator:short": "USPS", "operator:type": "public", "operator:wikidata": "Q668687", "ref": "8811900003"}, "type": "Feature"}
{"dataset_attributes": {"@spider": "usps_collection_boxes"}, "geometry": {"coordinates": [-104.2441232689, 34.472609078], "type": "Point"}, "id": "t3u13RQj3JALeRZkUjbipcSi4ro=", "properties": {"@spider": "usps_collection_boxes", "addr:city": "FORT SUMNER", "addr:country": "US", "addr:full": "688 N 5TH ST", "addr:postcode": "88119", "addr:state": "NM", "amenity": "post_box", "brand": "United States Postal Service", "brand:wikidata": "Q668687", "collection_times": "Mo-Fr 15:15; Sa 10:00", "name": "USPS COLLECTION BOX - PO LOBBY", "note": "ON 12/24 AND 12/31, THIS BOX MAY BE COLLECTED AS EARLY AS 12 NOON.", "nsi_id": "unitedstatespostalservice-a77078", "operator": "United States Postal Service", "operator:short": "USPS", "operator:type": "public", "operator:wikidata": "Q668687", "ref": "8811900004"}, "type": "Feature"}
{"dataset_attributes": {"@spider": "usps_collection_boxes"}, "geometry": {"coordinates": [-103.319132, 34.821705], "type": "Point"}, "id": "mt48SBz1Fj2A0kGTRYHnki1ieyk=", "properties": {"@spider": "usps_collection_boxes", "addr:city": "GRADY", "addr:country": "US", "addr:full": "406 W MAIN ST", "addr:postcode": "88120", "addr:state": "NM", "amenity": "post_box", "brand": "United States Postal Service", "brand:wikidata": "Q668687", "collection_times": "Mo-Fr 14:00; Sa 11:00", "name": "USPS COLLECTION BOX - BLUE BOX", "note": "ON 12/24 AND 12/31, THIS BOX MAY BE COLLECTED AS EARLY AS 12 NOON.", "nsi_id": "unitedstatespostalservice-a77078", "operator": "United States Postal Service", "operator:short": "USPS", "operator:type": "public", "operator:wikidata": "Q668687", "ref": "8812000000"}, "type": "Feature"}
{"dataset_attributes": {"@spider": "usps_collection_boxes"}, "geometry": {"coordinates": [-103.319091, 34.821778], "type": "Point"}, "id": "6Wc_V2dcYcawU4COwQ8dQ3HlJtk=", "properties": {"@spider": "usps_collection_boxes", "addr:city": "GRADY", "addr:country": "US", "addr:full": "406 W MAIN ST", "addr:postcode": "88120", "addr:state": "NM", "amenity": "post_box", "brand": "United States Postal Service", "brand:wikidata": "Q668687", "collection_times": "Mo-Fr 14:00; Sa 11:00", "name": "USPS COLLECTION BOX - PO LOBBY", "note": "ON 12/24 AND 12/31, THIS BOX MAY BE COLLECTED AS EARLY AS 12 NOON.", "nsi_id": "unitedstatespostalservice-a77078", "operator": "United States Postal Service", "operator:short": "USPS", "operator:type": "public", "operator:wikidata": "Q668687", "ref": "8812000001"}, "type": "Feature"}
{"dataset_attributes": {"@spider": "usps_collection_boxes"}, "geometry": {"coordinates": [-103.319082, 34.8215155226], "type": "Point"}, "id": "x3MM9HvPy7ERUk6o6XaceOlPBrk=", "properties": {"@spider": "usps_collection_boxes", "addr:city": "GRADY", "addr:country": "US", "addr:full": "406 W MAIN ST", "addr:postcode": "88120", "addr:state": "NM", "amenity": "post_box", "brand": "United States Postal Service", "brand:wikidata": "Q668687", "collection_times": "Mo-Fr 14:00; Sa 11:00", "name": "USPS COLLECTION BOX - PO LOBBY", "note": "ON 12/24 AND 12/31, THIS BOX MAY BE COLLECTED AS EARLY AS 12 NOON.", "nsi_id": "unitedstatespostalservice-a77078", "operator": "United States Postal Service", "operator:short": "USPS", "operator:type": "public", "operator:wikidata": "Q668687", "ref": "8812000002"}, "type": "Feature"}
{"dataset_attributes": {"@spider": "usps_collection_boxes"}, "geometry": {"coordinates": [-103.9058454116, 34.6458425867], "type": "Point"}, "id": "KZXvY9_oJA3s8O2D9RxB2BbSi04=", "properties": {"@spider": "usps_collection_boxes", "addr:city": "HOUSE", "addr:country": "US", "addr:full": "105 N APPLE ST", "addr:postcode": "88121", "addr:state": "NM", "amenity": "post_box", "brand": "United States Postal Service", "brand:wikidata": "Q668687", "collection_times": "Mo-Sa 08:30", "name": "USPS COLLECTION BOX - BLUE BOX", "nsi_id": "unitedstatespostalservice-a77078", "operator": "United States Postal Service", "operator:short": "USPS", "operator:type": "public", "operator:wikidata": "Q668687", "ref": "8812100000"}, "type": "Feature"}
{"dataset_attributes": {"@spider": "usps_collection_boxes"}, "geometry": {"coordinates": [-103.9058454116, 34.6458425867], "type": "Point"}, "id": "jRv1tlupAYsV9hOCW0FN2YJa3A8=", "properties": {"@spider": "usps_collection_boxes", "addr:city": "HOUSE", "addr:country": "US", "addr:full": "105 N APPLE ST", "addr:postcode": "88121", "addr:state": "NM", "amenity": "post_box", "brand": "United States Postal Service", "brand:wikidata": "Q668687", "collection_times": "Mo-Sa 09:30", "name": "USPS COLLECTION BOX - PO LOBBY", "nsi_id": "unitedstatespostalservice-a77078", "operator": "United States Postal Service", "operator:short": "USPS", "operator:type": "public", "operator:wikidata": "Q668687", "ref": "8812100001"}, "type": "Feature"}
{"dataset_attributes": {"@spider": "usps_collection_boxes"}, "geometry": {"coordinates": [-103.9058454116, 34.6458425867], "type": "Point"}, "id": "yR523zQkHsZGrBvlanO_146cyks=", "properties": {"@spider": "usps_collection_boxes", "addr:city": "HOUSE", "addr:country": "US", "addr:full": "105 N APPLE ST", "addr:postcode": "88121", "addr:state": "NM", "amenity": "post_box", "brand": "United States Postal Service", "brand:wikidata": "Q668687", "collection_times": "Mo-Sa 09:30", "name": "USPS COLLECTION BOX - PO LOBBY", "nsi_id": "unitedstatespostalservice-a77078", "operator": "United States Postal Service", "operator:short": "USPS", "operator:type": "public", "operator:wikidata": "Q668687", "ref": "8812100002"}, "type": "Feature"}
{"dataset_attributes": {"@spider": "usps_collection_boxes"}, "geometry": {"coordinates": [-103.6273941686, 34.4290648987], "type": "Point"}, "id": "NG18himDACPJd_CebSkaWrDrY64=", "properties": {"@spider": "usps_collection_boxes", "addr:city": "MELROSE", "addr:country": "US", "addr:full": "501 N 5TH ST", "addr:postcode": "88124", "addr:state": "NM", "amenity": "post_box", "brand": "United States Postal Service", "brand:wikidata": "Q668687", "collection_times": "Mo-Fr 15:00; Sa 10:00", "name": "USPS COLLECTION BOX - BLUE BOX", "note": "ON 12/24 AND 12/31, THIS BOX MAY BE COLLECTED AS EARLY AS 12 NOON.", "nsi_id": "unitedstatespostalservice-a77078", "operator": "United States Postal Service", "operator:short": "USPS", "operator:type": "public", "operator:wikidata": "Q668687", "ref": "8812400000"}, "type": "Feature"}
{"dataset_attributes": {"@spider": "usps_collection_boxes"}, "geometry": {"coordinates": [-103.6274006905, 34.4293205029], "type": "Point"}, "id": "4WpHiK7nctkWigub--jiOTi5ujE=", "properties": {"@spider": "usps_collection_boxes", "addr:city": "MELROSE", "addr:country": "US", "addr:full": "501 N 5TH ST", "addr:postcode": "88124", "addr:state": "NM", "amenity": "post_box", "brand": "United States Postal Service", "brand:wikidata": "Q668687", "collection_times": "Mo-Fr 15:30; Sa 10:00", "name": "USPS COLLECTION BOX - PO LOBBY", "note": "ON 12/24 AND 12/31, THIS BOX MAY BE COLLECTED AS EARLY AS 12 NOON.", "nsi_id": "unitedstatespostalservice-a77078", "operator": "United States Postal Service", "operator:short": "USPS", "operator:type": "public", "operator:wikidata": "Q668687", "ref": "8812400001"}, "type": "Feature"}
{"dataset_attributes": {"@spider": "usps_collection_boxes"}, "geometry": {"coordinates": [-103.6274006905, 34.4293205029], "type": "Point"}, "id": "iQu2-dQ3W8z1mvTwh7esBAAvHh0=", "properties": {"@spider": "usps_collection_boxes", "addr:city": "MELROSE", "addr:country": "US", "addr:full": "501 N 5TH ST", "addr:postcode": "88124", "addr:state": "NM", "amenity": "post_box", "brand": "United States Postal Service", "brand:wikidata": "Q668687", "collection_times": "Mo-Fr 15:30; Sa 10:00", "name": "USPS COLLECTION BOX - PO LOBBY", "note": "ON 12/24 AND 12/31, THIS BOX MAY BE COLLECTED AS EARLY AS 12 NOON.", "nsi_id": "unitedstatespostalservice-a77078", "operator": "United States Postal Service", "operator:short": "USPS", "operator:type": "public", "operator:wikidata": "Q668687", "ref": "8812400002"}, "type": "Feature"}
{"dataset_attributes": {"@spider": "usps_collection_boxes"}, "geometry": {"coordinates": [-103.6274006905, 34.4293205029], "type": "Point"}, "id": "NGUn7jZY5m_jzfJ4yr5n_MguZbE=", "properties": {"@spider": "usps_collection_boxes", "addr:city": "MELROSE", "addr:country": "US", "addr:full": "501 N 5TH ST", "addr:postcode": "88124", "addr:state": "NM", "amenity": "post_box", "brand": "United States Postal Service", "brand:wikidata": "Q668687", "collection_times": "Mo-Fr 15:15; Sa 10:00", "name": "USPS COLLECTION BOX - PO LOBBY", "note": "ON 12/24 AND 12/31, THIS BOX MAY BE COLLECTED AS EARLY AS 12 NOON.", "nsi_id": "unitedstatespostalservice-a77078", "operator": "United States Postal Service", "operator:short": "USPS", "operator:type": "public", "operator:wikidata": "Q668687", "ref": "8812400003"}, "type": "Feature"}
{"dataset_attributes": {"@spider": "usps_collection_boxes"}, "geometry": {"coordinates": [-103.336005058, 33.836426277], "type": "Point"}, "id": "ue1MctsMKYOgAbJSUqw0D7boxTM=", "properties": {"@spider": "usps_collection_boxes", "addr:city": "PEP", "addr:country": "US", "addr:full": "5950 NEW MEXICO 206", "addr:postcode": "88126", "addr:state": "NM", "amenity": "post_box", "brand": "United States Postal Service", "brand:wikidata": "Q668687", "collection_times": "Mo-Sa 10:30", "name": "USPS COLLECTION BOX - BLUE BOX", "nsi_id": "unitedstatespostalservice-a77078", "operator": "United States Postal Service", "operator:short": "USPS", "operator:type": "public", "operator:wikidata": "Q668687", "ref": "8812600000"}, "type": "Feature"}
{"dataset_attributes": {"@spider": "usps_collection_boxes"}, "geometry": {"coordinates": [-103.336005058, 33.836426277], "type": "Point"}, "id": "7hxW4F0RsEFmfRrYDW_YVol9byU=", "properties": {"@spider": "usps_collection_boxes", "addr:city": "PEP", "addr:country": "US", "addr:full": "5950 NEW MEXICO 206", "addr:postcode": "88126", "addr:state": "NM", "amenity": "post_box", "brand": "United States Postal Service", "brand:wikidata": "Q668687", "collection_times": "Mo-Sa 10:30", "name": "USPS COLLECTION BOX - PO LOBBY", "nsi_id": "unitedstatespostalservice-a77078", "operator": "United States Postal Service", "operator:short": "USPS", "operator:type": "public", "operator:wikidata": "Q668687", "ref": "8812600002"}, "type": "Feature"}
{"dataset_attributes": {"@spider": "usps_collection_boxes"}, "geometry": {"coordinates": [-103.337507, 34.186545], "type": "Point"}, "id": "-8vJata5E9rMhO4RzaV1uwZ-7oo=", "properties": {"@spider": "usps_collection_boxes", "addr:city": "PORTALES", "addr:country": "US", "addr:full": "116 W 1ST ST", "addr:postcode": "88130", "addr:state": "NM", "amenity": "post_box", "brand": "United States Postal Service", "brand:wikidata": "Q668687", "collection_times": "Mo-Fr 17:15; Sa 17:00", "name": "USPS COLLECTION BOX - PO LOBBY", "note": "ON 12/24 AND 12/31, THIS BOX MAY BE COLLECTED AS EARLY AS 12 NOON.", "nsi_id": "unitedstatespostalservice-a77078", "operator": "United States Postal Service", "operator:short": "USPS", "operator:type": "public", "operator:wikidata": "Q668687", "ref": "8813000000"}, "type": "Feature"}
{"dataset_attributes": {"@spider": "usps_collection_boxes"}, "geometry": {"coordinates": [-103.338289, 34.168572], "type": "Point"}, "id": "Gs7F4hzU7qF4lJ5bPwMXoHbSi1k=", "properties": {"@spider": "usps_collection_boxes", "addr:city": "PORTALES", "addr:country": "US", "addr:full": "700 WYLIE COX CIR", "addr:postcode": "88130", "addr:state": "NM", "amenity": "post_box", "brand": "United States Postal Service", "brand:wikidata": "Q668687", "collection_times": "Mo-Sa 12:00", "name": "USPS COLLECTION BOX - BLUE BOX", "nsi_id": "unitedstatespostalservice-a77078", "operator": "United States Postal Service", "operator:short": "USPS", "operator:type": "public", "operator:wikidata": "Q668687", "ref": "8813000008"}, "type": "Feature"}
{"dataset_attributes": {"@spider": "usps_collection_boxes"}, "geometry": {"coordinates": [-103.336354, 34.171029], "type": "Point"}, "id": "aQxEIK3PqTrxR_bjjNhNS0K_eyY=", "properties": {"@spider": "usps_collection_boxes", "addr:city": "PORTALES", "addr:country": "US", "addr:full": "505 W 18TH ST", "addr:postcode": "88130", "addr:state": "NM", "amenity": "post_box", "brand": "United States Postal Service", "brand:wikidata": "Q668687", "collection_times": "Mo-Sa 12:15", "name": "USPS COLLECTION BOX - BLUE BOX", "note": "ON 12/24 AND 12/31, THIS BOX MAY BE COLLECTED AS EARLY AS 12 NOON.", "nsi_id": "unitedstatespostalservice-a77078", "operator": "United States Postal Service", "operator:short": "USPS", "operator:type": "public", "operator:wikidata": "Q668687", "ref": "8813000009"}, "type": "Feature"}
{"dataset_attributes": {"@spider": "usps_collection_boxes"}, "geometry": {"coordinates": [-103.3192209405, 34.2006600648], "type": "Point"}, "id": "em4LH4UIThNDdwPMn4zv2kYk8gw=", "properties": {"@spider": "usps_collection_boxes", "addr:city": "PORTALES", "addr:country": "US", "addr:full": "1600 E SPRUCE", "addr:postcode": "88130", "addr:state": "NM", "amenity": "post_box", "brand": "United States Postal Service", "brand:wikidata": "Q668687", "collection_times": "Mo-Sa 08:30", "name": "USPS COLLECTION BOX - BLUE BOX", "nsi_id": "unitedstatespostalservice-a77078", "operator": "United States Postal Service", "operator:short": "USPS", "operator:type": "public", "operator:wikidata": "Q668687", "ref": "8813000014"}, "type": "Feature"}
{"dataset_attributes": {"@spider": "usps_collection_boxes"}, "geometry": {"coordinates": [-103.342728, 34.169639], "type": "Point"}, "id": "dcZJGxLxKhfxjmUaC_utC__r1Co=", "properties": {"@spider": "usps_collection_boxes", "addr:city": "PORTALES", "addr:country": "US", "addr:full": "1901 S AVENUE I", "addr:postcode": "88130", "addr:state": "NM", "amenity": "post_box", "brand": "United States Postal Service", "brand:wikidata": "Q668687", "collection_times": "Mo-Sa 13:00", "name": "USPS COLLECTION BOX - BLUE BOX", "note": "ON 12/24 AND 12/31, THIS BOX MAY BE COLLECTED AS EARLY AS 12 NOON.", "nsi_id": "unitedstatespostalservice-a77078", "operator": "United States Postal Service", "operator:short": "USPS", "operator:type": "public", "operator:wikidata": "Q668687", "ref": "8813000015"}, "type": "Feature"}
{"dataset_attributes": {"@spider": "usps_collection_boxes"}, "geometry": {"coordinates": [-103.345482849, 34.181424054], "type": "Point"}, "id": "rAxxU3vYELpcsFpk1h4ipsXhKjY=", "properties": {"@spider": "usps_collection_boxes", "addr:city": "PORTALES", "addr:country": "US", "addr:full": "1208 W 1ST ST", "addr:postcode": "88130", "addr:state": "NM", "amenity": "post_box", "brand": "United States Postal Service", "brand:wikidata": "Q668687", "collection_times": "Mo-Sa 09:00", "name": "USPS COLLECTION BOX - BLUE BOX", "nsi_id": "unitedstatespostalservice-a77078", "operator": "United States Postal Service", "operator:short": "USPS", "operator:type": "public", "operator:wikidata": "Q668687", "ref": "8813000016"}, "type": "Feature"}
{"dataset_attributes": {"@spider": "usps_collection_boxes"}, "geometry": {"coordinates": [-103.33743, 34.186565], "type": "Point"}, "id": "ZmRQpDfkLRrTSuo6-_L98R0IoOk=", "properties": {"@spider": "usps_collection_boxes", "addr:city": "PORTALES", "addr:country": "US", "addr:full": "116 W 1ST ST", "addr:postcode": "88130", "addr:state": "NM", "amenity": "post_box", "brand": "United States Postal Service", "brand:wikidata": "Q668687", "collection_times": "Mo-Fr 17:15; Sa 17:00", "name": "USPS COLLECTION BOX - PO LOBBY", "note": "ON 12/24 AND 12/31, THIS BOX MAY BE COLLECTED AS EARLY AS 12 NOON.", "nsi_id": "unitedstatespostalservice-a77078", "operator": "United States Postal Service", "operator:short": "USPS", "operator:type": "public", "operator:wikidata": "Q668687", "ref": "8813000019"}, "type": "Feature"}
{"dataset_attributes": {"@spider": "usps_collection_boxes"}, "geometry": {"coordinates": [-103.33743, 34.186565], "type": "Point"}, "id": "CKOImXoDpEG0RVt2q0-rU6SEqSA=", "properties": {"@spider": "usps_collection_boxes", "addr:city": "PORTALES", "addr:country": "US", "addr:full": "116 W 1ST ST", "addr:postcode": "88130", "addr:state": "NM", "amenity": "post_box", "brand": "United States Postal Service", "brand:wikidata": "Q668687", "collection_times": "Mo-Fr 17:00; Sa 16:30", "name": "USPS COLLECTION BOX - BLUE BOX", "note": "ON 12/24 AND 12/31, THIS BOX MAY BE COLLECTED AS EARLY AS 12 NOON.", "nsi_id": "unitedstatespostalservice-a77078", "operator": "United States Postal Service", "operator:short": "USPS", "operator:type": "public", "operator:wikidata": "Q668687", "ref": "8813000020"}, "type": "Feature"}
{"dataset_attributes": {"@spider": "usps_collection_boxes"}, "geometry": {"coordinates": [-103.33743, 34.186565], "type": "Point"}, "id": "-DCMv-lJnlOuU4S1DQIb0qc8ccY=", "properties": {"@spider": "usps_collection_boxes", "addr:city": "PORTALES", "addr:country": "US", "addr:full": "116 W 1ST ST", "addr:postcode": "88130", "addr:state": "NM", "amenity": "post_box", "brand": "United States Postal Service", "brand:wikidata": "Q668687", "collection_times": "Mo-Fr 17:00; Sa 16:30", "name": "USPS COLLECTION BOX - BLUE BOX", "note": "ON 12/24 AND 12/31, THIS BOX MAY BE COLLECTED AS EARLY AS 12 NOON.", "nsi_id": "unitedstatespostalservice-a77078", "operator": "United States Postal Service", "operator:short": "USPS", "operator:type": "public", "operator:wikidata": "Q668687", "ref": "8813000021"}, "type": "Feature"}
{"dataset_attributes": {"@spider": "usps_collection_boxes"}, "geometry": {"coordinates": [-103.346959007, 34.175805141], "type": "Point"}, "id": "k05cXMLczpupPeeKHVgAT7RW-lg=", "properties": {"@spider": "usps_collection_boxes", "addr:city": "PORTALES", "addr:country": "US", "addr:full": "1500 S AVENUE K", "addr:postcode": "88130", "addr:state": "NM", "amenity": "post_box", "brand": "United States Postal Service", "brand:wikidata": "Q668687", "collection_times": "Mo-Fr 14:00", "name": "USPS COLLECTION BOX - PO LOBBY", "note": "ON 12/24 AND 12/31, THIS BOX MAY BE COLLECTED AS EARLY AS 12 NOON.", "nsi_id": "unitedstatespostalservice-a77078", "operator": "United States Postal Service", "operator:short": "USPS", "operator:type": "public", "operator:wikidata": "Q668687", "ref": "8813000023"}, "type": "Feature"}
{"dataset_attributes": {"@spider": "usps_collection_boxes"}, "geometry": {"coordinates": [-103.337950263, 34.186223524], "type": "Point"}, "id": "UBN_DdfcQ9SuHV--rcwTbJBdtcc=", "properties": {"@spider": "usps_collection_boxes", "addr:city": "PORTALES", "addr:country": "US", "addr:full": "116 W 1ST ST", "addr:postcode": "88130", "addr:state": "NM", "amenity": "post_box", "brand": "United States Postal Service", "brand:wikidata": "Q668687", "collection_times": "Mo-Fr 17:15; Sa 17:00", "name": "USPS COLLECTION BOX - PO LOBBY", "note": "ON 12/24 AND 12/31, THIS BOX MAY BE COLLECTED AS EARLY AS 12 NOON.", "nsi_id": "unitedstatespostalservice-a77078", "operator": "United States Postal Service", "operator:short": "USPS", "operator:type": "public", "operator:wikidata": "Q668687", "ref": "8813000024"}, "type": "Feature"}
{"dataset_attributes": {"@spider": "usps_collection_boxes"}, "geometry": {"coordinates": [-103.231279, 33.981751], "type": "Point"}, "id": "8ICXRgGy1j460ubWHZXY8pLjj3c=", "properties": {"@spider": "usps_collection_boxes", "addr:city": "ROGERS", "addr:country": "US", "addr:full": "597 NM 235", "addr:postcode": "88132", "addr:state": "NM", "amenity": "post_box", "brand": "United States Postal Service", "brand:wikidata": "Q668687", "collection_times": "Mo-Sa 13:45", "name": "USPS COLLECTION BOX - PO LOBBY", "note": "ON 12/24 AND 12/31, THIS BOX MAY BE COLLECTED AS EARLY AS 12 NOON.", "nsi_id": "unitedstatespostalservice-a77078", "operator": "United States Postal Service", "operator:short": "USPS", "operator:type": "public", "operator:wikidata": "Q668687", "ref": "8813200000"}, "type": "Feature"}
{"dataset_attributes": {"@spider": "usps_collection_boxes"}, "geometry": {"coordinates": [-103.231617, 33.981721], "type": "Point"}, "id": "vJfZGTgVGvnZt47TX29GD2YcTfE=", "properties": {"@spider": "usps_collection_boxes", "addr:city": "ROGERS", "addr:country": "US", "addr:full": "597 NM 235", "addr:postcode": "88132", "addr:state": "NM", "amenity": "post_box", "brand": "United States Postal Service", "brand:wikidata": "Q668687", "collection_times": "Mo-Sa 13:45", "name": "USPS COLLECTION BOX - BLUE BOX", "note": "ON 12/24 AND 12/31, THIS BOX MAY BE COLLECTED AS EARLY AS 12 NOON.", "nsi_id": "unitedstatespostalservice-a77078", "operator": "United States Postal Service", "operator:short": "USPS", "operator:type": "public", "operator:wikidata": "Q668687", "ref": "8813200001"}, "type": "Feature"}
{"dataset_attributes": {"@spider": "usps_collection_boxes"}, "geometry": {"coordinates": [-103.2319528324, 33.9817395356], "type": "Point"}, "id": "ilOIug2bHGHns2VCNK6g__6eJB0=", "properties": {"@spider": "usps_collection_boxes", "addr:city": "ROGERS", "addr:country": "US", "addr:full": "597 NM 235", "addr:postcode": "88132", "addr:state": "NM", "amenity": "post_box", "brand": "United States Postal Service", "brand:wikidata": "Q668687", "collection_times": "Mo-Sa 13:45", "name": "USPS COLLECTION BOX - PO LOBBY", "note": "ON 12/24 AND 12/31, THIS BOX MAY BE COLLECTED AS EARLY AS 12 NOON.", "nsi_id": "unitedstatespostalservice-a77078", "operator": "United States Postal Service", "operator:short": "USPS", "operator:type": "public", "operator:wikidata": "Q668687", "ref": "8813200002"}, "type": "Feature"}
{"dataset_attributes": {"@spider": "usps_collection_boxes"}, "geometry": {"coordinates": [-104.0091082323, 34.4402054066], "type": "Point"}, "id": "CohAZT5HdFvrbPkwkQrjx3ubQQM=", "properties": {"@spider": "usps_collection_boxes", "addr:city": "TAIBAN", "addr:country": "US", "addr:full": "32610 US 60", "addr:postcode": "88134", "addr:state": "NM", "amenity": "post_box", "brand": "United States Postal Service", "brand:wikidata": "Q668687", "collection_times": "Mo-Sa 11:30", "name": "USPS COLLECTION BOX - BLUE BOX", "nsi_id": "unitedstatespostalservice-a77078", "operator": "United States Postal Service", "operator:short": "USPS", "operator:type": "public", "operator:wikidata": "Q668687", "ref": "8813400000"}, "type": "Feature"}
{"dataset_attributes": {"@spider": "usps_collection_boxes"}, "geometry": {"coordinates": [-104.009108232, 34.440205407], "type": "Point"}, "id": "27h6_Lbo-e2Y3EjXiFkRkU5kV84=", "properties": {"@spider": "usps_collection_boxes", "addr:city": "TAIBAN", "addr:country": "US", "addr:full": "32610 US 60", "addr:postcode": "88134", "addr:state": "NM", "amenity": "post_box", "brand": "United States Postal Service", "brand:wikidata": "Q668687", "collection_times": "Mo-Sa 11:30", "name": "USPS COLLECTION BOX - PO LOBBY", "nsi_id": "unitedstatespostalservice-a77078", "operator": "United States Postal Service", "operator:short": "USPS", "operator:type": "public", "operator:wikidata": "Q668687", "ref": "8813400001"}, "type": "Feature"}
{"dataset_attributes": {"@spider": "usps_collection_boxes"}, "geometry": {"coordinates": [-104.0091082323, 34.4402054066], "type": "Point"}, "id": "WA14_-jZ_rzoiKS7FSHT38T8Y7o=", "properties": {"@spider": "usps_collection_boxes", "addr:city": "TAIBAN", "addr:country": "US", "addr:full": "32610 US 60", "addr:postcode": "88134", "addr:state": "NM", "amenity": "post_box", "brand": "United States Postal Service", "brand:wikidata": "Q668687", "collection_times": "Mo-Sa 11:30", "name": "USPS COLLECTION BOX - PO LOBBY", "nsi_id": "unitedstatespostalservice-a77078", "operator": "United States Postal Service", "operator:short": "USPS", "operator:type": "public", "operator:wikidata": "Q668687", "ref": "8813400002"}, "type": "Feature"}
{"dataset_attributes": {"@spider": "usps_collection_boxes"}, "geometry": {"coordinates": [-103.0446332734, 34.3904037799], "type": "Point"}, "id": "jURUPEaTGeW-0IdXi45frs8DqyA=", "properties": {"@spider": "usps_collection_boxes", "addr:city": "TEXICO", "addr:country": "US", "addr:full": "212 N STATE ST", "addr:postcode": "88135", "addr:state": "NM", "amenity": "post_box", "brand": "United States Postal Service", "brand:wikidata": "Q668687", "collection_times": "Mo-Fr 15:00; Sa 09:45", "name": "USPS COLLECTION BOX - BLUE BOX", "note": "ON 12/24 AND 12/31, THIS BOX MAY BE COLLECTED AS EARLY AS 12 NOON.", "nsi_id": "unitedstatespostalservice-a77078", "operator": "United States Postal Service", "operator:short": "USPS", "operator:type": "public", "operator:wikidata": "Q668687", "ref": "8813500000"}, "type": "Feature"}
{"dataset_attributes": {"@spider": "usps_collection_boxes"}, "geometry": {"coordinates": [-103.0446332734, 34.3904037799], "type": "Point"}, "id": "cfDKYoyi_nsSqnBKsArhFuBXjsA=", "properties": {"@spider": "usps_collection_boxes", "addr:city": "TEXICO", "addr:country": "US", "addr:full": "212 N STATE ST", "addr:postcode": "88135", "addr:state": "NM", "amenity": "post_box", "brand": "United States Postal Service", "brand:wikidata": "Q668687", "collection_times": "Mo-Fr 15:00; Sa 09:45", "name": "USPS COLLECTION BOX - PO LOBBY", "note": "ON 12/24 AND 12/31, THIS BOX MAY BE COLLECTED AS EARLY AS 12 NOON.", "nsi_id": "unitedstatespostalservice-a77078", "operator": "United States Postal Service", "operator:short": "USPS", "operator:type": "public", "operator:wikidata": "Q668687", "ref": "8813500001"}, "type": "Feature"}
{"dataset_attributes": {"@spider": "usps_collection_boxes"}, "geometry": {"coordinates": [-103.0446332734, 34.3904037799], "type": "Point"}, "id": "gaMp_m69nn4CEtlMSb4SaAqo69s=", "properties": {"@spider": "usps_collection_boxes", "addr:city": "TEXICO", "addr:country": "US", "addr:full": "212 N STATE ST", "addr:postcode": "88135", "addr:state": "NM", "amenity": "post_box", "brand": "United States Postal Service", "brand:wikidata": "Q668687", "collection_times": "Mo-Fr 15:00; Sa 09:45", "name": "USPS COLLECTION BOX - PO LOBBY", "note": "ON 12/24 AND 12/31, THIS BOX MAY BE COLLECTED AS EARLY AS 12 NOON.", "nsi_id": "unitedstatespostalservice-a77078", "operator": "United States Postal Service", "operator:short": "USPS", "operator:type": "public", "operator:wikidata": "Q668687", "ref": "8813500002"}, "type": "Feature"}
{"dataset_attributes": {"@spider": "usps_collection_boxes"}, "geometry": {"coordinates": [-103.0446332734, 34.3904037799], "type": "Point"}, "id": "OXUDs3mdjnWjReKqyNrVFGOV6HU=", "properties": {"@spider": "usps_collection_boxes", "addr:city": "TEXICO", "addr:country": "US", "addr:full": "212 N STATE ST", "addr:postcode": "88135", "addr:state": "NM", "amenity": "post_box", "brand": "United States Postal Service", "brand:wikidata": "Q668687", "collection_times": "Mo-Fr 15:00; Sa 09:30", "name": "USPS COLLECTION BOX - PO LOBBY", "note": "ON 12/24 AND 12/31, THIS BOX MAY BE COLLECTED AS EARLY AS 12 NOON.", "nsi_id": "unitedstatespostalservice-a77078", "operator": "United States Postal Service", "operator:short": "USPS", "operator:type": "public", "operator:wikidata": "Q668687", "ref": "8813500003"}, "type": "Feature"}
{"dataset_attributes": {"@spider": "usps_collection_boxes"}, "geometry": {"coordinates": [-104.610890691, 34.43830832], "type": "Point"}, "id": "f-DfGGFC_LQsojpwGvRjfnPNZ-4=", "properties": {"@spider": "usps_collection_boxes", "addr:city": "YESO", "addr:country": "US", "addr:full": "13520 US 60", "addr:postcode": "88136", "addr:state": "NM", "amenity": "post_box", "brand": "United States Postal Service", "brand:wikidata": "Q668687", "collection_times": "Mo-Sa 11:30", "name": "USPS COLLECTION BOX - BLUE BOX", "nsi_id": "unitedstatespostalservice-a77078", "operator": "United States Postal Service", "operator:short": "USPS", "operator:type": "public", "operator:wikidata": "Q668687", "ref": "8813600000"}, "type": "Feature"}
{"dataset_attributes": {"@spider": "usps_collection_boxes"}, "geometry": {"coordinates": [-104.610890691, 34.43830832], "type": "Point"}, "id": "s3D4HbZN6dBtgZXtOLqFnZn7Ddk=", "properties": {"@spider": "usps_collection_boxes", "addr:city": "YESO", "addr:country": "US", "addr:full": "13520 US 60", "addr:postcode": "88136", "addr:state": "NM", "amenity": "post_box", "brand": "United States Postal Service", "brand:wikidata": "Q668687", "collection_times": "Mo-Sa 11:30", "name": "USPS COLLECTION BOX - PO LOBBY", "nsi_id": "unitedstatespostalservice-a77078", "operator": "United States Postal Service", "operator:short": "USPS", "operator:type": "public", "operator:wikidata": "Q668687", "ref": "8813600001"}, "type": "Feature"}
{"dataset_attributes": {"@spider": "usps_collection_boxes"}, "geometry": {"coordinates": [-104.6108906907, 34.4383083196], "type": "Point"}, "id": "XFu38TLAogAu1xNpHgW9Rq7_G3I=", "properties": {"@spider": "usps_collection_boxes", "addr:city": "YESO", "addr:country": "US", "addr:full": "13520 US 60", "addr:postcode": "88136", "addr:state": "NM", "amenity": "post_box", "brand": "United States Postal Service", "brand:wikidata": "Q668687", "collection_times": "Mo-Fr 11:15; Sa 11:30", "name": "USPS COLLECTION BOX - PO LOBBY", "nsi_id": "unitedstatespostalservice-a77078", "operator": "United States Postal Service", "operator:short": "USPS", "operator:type": "public", "operator:wikidata": "Q668687", "ref": "8813600002"}, "type": "Feature"}
