{"geometry": {"coordinates": [-104.525367, 33.397044], "type": "Point"}, "id": "dRjzwiOgUdYtmGFMmyEDhc8cXzs=", "properties": {"@source_uri": "https://tools.usps.com/UspsToolsRestServices/rest/POLocator/findLocations", "@spider": "usps_collection_boxes", "addr:city": "ROSWELL", "addr:country": "US", "addr:postcode": "88201", "addr:state": "NM", "addr:street_address": "415 N PENNSYLVANIA AVE", "amenity": "post_box", "brand": "United States Postal Service", "brand:wikidata": "Q668687", "collection_times": "Mo-Fr 17:00; Sa 13:30", "note": "ON 12/24 AND 12/31, THIS BOX MAY BE COLLECTED AS EARLY AS 12 NOON.", "nsi_id": "unitedstatespostalservice-a77078", "operator": "United States Postal Service", "operator:short": "USPS", "operator:type": "public", "operator:wikidata": "Q668687", "ref": "8820100001"}, "type": "Feature"}
{"geometry": {"coordinates": [-104.525362, 33.39705], "type": "Point"}, "id": "n2HSbRDyPtYg6pUz9Xrxfe8W3gc=", "properties": {"@source_uri": "https://tools.usps.com/UspsToolsRestServices/rest/POLocator/findLocations", "@spider": "usps_collection_boxes", "addr:city": "ROSWELL", "addr:country": "US", "addr:postcode": "88201", "addr:state": "NM", "addr:street_address": "415 N PENNSYLVANIA AVE", "amenity": "post_box", "brand": "United States Postal Service", "brand:wikidata": "Q668687", "collection_times": "Mo-Fr 17:00; Sa 13:30", "note": "ON 12/24 AND 12/31, THIS BOX MAY BE COLLECTED AS EARLY AS 12 NOON.", "nsi_id": "unitedstatespostalservice-a77078", "operator": "United States Postal Service", "operator:short": "USPS", "operator:type": "public", "operator:wikidata": "Q668687", "ref": "8820100002"}, "type": "Feature"}
{"geometry": {"coordinates": [-104.526022, 33.396627], "type": "Point"}, "id": "x5VIFsxYfpU2_6tBpdxBbSUe33M=", "properties": {"@source_uri": "https://tools.usps.com/UspsToolsRestServices/rest/POLocator/findLocations", "@spider": "usps_collection_boxes", "addr:city": "ROSWELL", "addr:country": "US", "addr:postcode": "88201", "addr:state": "NM", "addr:street_address": "415 N PENNSYLVANIA AVE", "amenity": "post_box", "brand": "United States Postal Service", "brand:wikidata": "Q668687", "collection_times": "Mo-Fr 16:30; Sa 13:30", "indoor": "yes", "note": "ON 12/24 AND 12/31, THIS BOX MAY BE COLLECTED AS EARLY AS 12 NOON.", "nsi_id": "unitedstatespostalservice-a77078", "operator": "United States Postal Service", "operator:short": "USPS", "operator:type": "public", "operator:wikidata": "Q668687", "ref": "8820100005"}, "type": "Feature"}
{"geometry": {"coordinates": [-104.526022, 33.396627], "type": "Point"}, "id": "a5ODEqDdY3tefbjs6dW6hZedlgc=", "properties": {"@source_uri": "https://tools.usps.com/UspsToolsRestServices/rest/POLocator/findLocations", "@spider": "usps_collection_boxes", "addr:city": "ROSWELL", "addr:country": "US", "addr:postcode": "88201", "addr:state": "NM", "addr:street_address": "415 N PENNSYLVANIA AVE", "amenity": "post_box", "brand": "United States Postal Service", "brand:wikidata": "Q668687", "collection_times": "Mo-Fr 16:30; Sa 13:30", "indoor": "yes", "note": "ON 12/24 AND 12/31, THIS BOX MAY BE COLLECTED AS EARLY AS 12 NOON.", "nsi_id": "unitedstatespostalservice-a77078", "operator": "United States Postal Service", "operator:short": "USPS", "operator:type": "public", "operator:wikidata": "Q668687", "ref": "8820100006"}, "type": "Feature"}
{"geometry": {"coordinates": [-104.532535, 33.40102], "type": "Point"}, "id": "Q31eSgeoBP0yFdR3DnISDdjnJNk=", "properties": {"@source_uri": "https://tools.usps.com/UspsToolsRestServices/rest/POLocator/findLocations", "@spider": "usps_collection_boxes", "addr:city": "ROSWELL", "addr:country": "US", "addr:postcode": "88201", "addr:state": "NM", "addr:street_address": "315 W COUNTRY CLUB RD", "amenity": "post_box", "brand": "United States Postal Service", "brand:wikidata": "Q668687", "collection_times": "Mo-Fr 16:00", "note": "ON 12/24 AND 12/31, THIS BOX MAY BE COLLECTED AS EARLY AS 12 NOON.", "nsi_id": "unitedstatespostalservice-a77078", "operator": "United States Postal Service", "operator:short": "USPS", "operator:type": "public", "operator:wikidata": "Q668687", "ref": "8820100027"}, "type": "Feature"}
{"geometry": {"coordinates": [-104.523127, 33.398373], "type": "Point"}, "id": "7v8yUTG5iRbYJVkyQW7FIXBN2TE=", "properties": {"@source_uri": "https://tools.usps.com/UspsToolsRestServices/rest/POLocator/findLocations", "@spider": "usps_collection_boxes", "addr:city": "ROSWELL", "addr:country": "US", "addr:postcode": "88201", "addr:state": "NM", "addr:street_address": "500 N MAIN ST", "amenity": "post_box", "brand": "United States Postal Service", "brand:wikidata": "Q668687", "collection_times": "Mo-Fr 16:00; Sa 13:30", "note": "ON 12/24 AND 12/31, THIS BOX MAY BE COLLECTED AS EARLY AS 12 NOON.", "nsi_id": "unitedstatespostalservice-a77078", "operator": "United States Postal Service", "operator:short": "USPS", "operator:type": "public", "operator:wikidata": "Q668687", "ref": "8820100033"}, "type": "Feature"}
{"geometry": {"coordinates": [-104.522918196, 33.4255164621], "type": "Point"}, "id": "azLs6h3vpezgxVJ_lfGBYQ1KS1Y=", "properties": {"@source_uri": "https://tools.usps.com/UspsToolsRestServices/rest/POLocator/findLocations", "@spider": "usps_collection_boxes", "addr:city": "ROSWELL", "addr:country": "US", "addr:postcode": "88201", "addr:state": "NM", "addr:street_address": "2601 N MAIN ST", "amenity": "post_box", "brand": "United States Postal Service", "brand:wikidata": "Q668687", "collection_times": "Mo-Fr 16:00; Sa 13:10", "note": "ON 12/24 AND 12/31, THIS BOX MAY BE COLLECTED AS EARLY AS 12 NOON.", "nsi_id": "unitedstatespostalservice-a77078", "operator": "United States Postal Service", "operator:short": "USPS", "operator:type": "public", "operator:wikidata": "Q668687", "ref": "8820100050"}, "type": "Feature"}
{"geometry": {"coordinates": [-104.522933, 33.403211], "type": "Point"}, "id": "_-qBpCxkjDBr9YdILHYVRUcSMRU=", "properties": {"@source_uri": "https://tools.usps.com/UspsToolsRestServices/rest/POLocator/findLocations", "@spider": "usps_collection_boxes", "addr:city": "ROSWELL", "addr:country": "US", "addr:postcode": "88201", "addr:state": "NM", "addr:street_address": "912 N MAIN ST", "amenity": "post_box", "brand": "United States Postal Service", "brand:wikidata": "Q668687", "collection_times": "Mo-Fr 16:00; Sa 13:30", "note": "ON 12/24 AND 12/31, THIS BOX MAY BE COLLECTED AS EARLY AS 12 NOON.", "nsi_id": "unitedstatespostalservice-a77078", "operator": "United States Postal Service", "operator:short": "USPS", "operator:type": "public", "operator:wikidata": "Q668687", "ref": "8820100062"}, "type": "Feature"}
{"geometry": {"coordinates": [-104.526022, 33.396627], "type": "Point"}, "id": "d8cMrwveBIz1BIrrs1-OhxujvdI=", "properties": {"@source_uri": "https://tools.usps.com/UspsToolsRestServices/rest/POLocator/findLocations", "@spider": "usps_collection_boxes", "addr:city": "ROSWELL", "addr:country": "US", "addr:postcode": "88201", "addr:state": "NM", "addr:street_address": "415 N PENNSYLVANIA AVE", "amenity": "post_box", "brand": "United States Postal Service", "brand:wikidata": "Q668687", "collection_times": "Mo-Fr 16:30; Sa 13:30", "indoor": "yes", "note": "ON 12/24 AND 12/31, THIS BOX MAY BE COLLECTED AS EARLY AS 12 NOON.", "nsi_id": "unitedstatespostalservice-a77078", "operator": "United States Postal Service", "operator:short": "USPS", "operator:type": "public", "operator:wikidata": "Q668687", "ref": "8820100080"}, "type": "Feature"}
{"geometry": {"coordinates": [-104.528154, 33.423922], "type": "Point"}, "id": "h3ysxtBBuWz9Rb1Cl2QmEQgCTvU=", "properties": {"@source_uri": "https://tools.usps.com/UspsToolsRestServices/rest/POLocator/findLocations", "@spider": "usps_collection_boxes", "addr:city": "ROSWELL", "addr:country": "US", "addr:postcode": "88201", "addr:state": "NM", "addr:street_address": "405 W COUNTRY CLUB RD", "amenity": "post_box", "brand": "United States Postal Service", "brand:wikidata": "Q668687", "collection_times": "Mo-Fr 16:00; Sa 13:20", "note": "ON 12/24 AND 12/31, THIS BOX MAY BE COLLECTED AS EARLY AS 12 NOON.", "nsi_id": "unitedstatespostalservice-a77078", "operator": "United States Postal Service", "operator:short": "USPS", "operator:type": "public", "operator:wikidata": "Q668687", "ref": "8820100083"}, "type": "Feature"}
{"geometry": {"coordinates": [-104.526022, 33.396627], "type": "Point"}, "id": "tCVNPBo_NUislTQlUFMTsPQLEEM=", "properties": {"@source_uri": "https://tools.usps.com/UspsToolsRestServices/rest/POLocator/findLocations", "@spider": "usps_collection_boxes", "addr:city": "ROSWELL", "addr:country": "US", "addr:postcode": "88201", "addr:state": "NM", "addr:street_address": "415 N PENNSYLVANIA AVE", "amenity": "post_box", "brand": "United States Postal Service", "brand:wikidata": "Q668687", "collection_times": "Mo-Fr 16:30; Sa 13:30", "name": "USPS COLLECTION BOX - APC", "note": "ON 12/24 AND 12/31, THIS BOX MAY BE COLLECTED AS EARLY AS 12 NOON.", "nsi_id": "unitedstatespostalservice-a77078", "operator": "United States Postal Service", "operator:short": "USPS", "operator:type": "public", "operator:wikidata": "Q668687", "ref": "8820100088"}, "type": "Feature"}
{"geometry": {"coordinates": [-104.520956, 33.397596], "type": "Point"}, "id": "IfXujV-fMT-Ykl7dS9KYThQrlZI=", "properties": {"@source_uri": "https://tools.usps.com/UspsToolsRestServices/rest/POLocator/findLocations", "@spider": "usps_collection_boxes", "addr:city": "ROSWELL", "addr:country": "US", "addr:postcode": "88201", "addr:state": "NM", "addr:street_address": "400 N VIRGINIA AVE", "amenity": "post_box", "brand": "United States Postal Service", "brand:wikidata": "Q668687", "collection_times": "Mo-Fr 16:00", "note": "ON 12/24 AND 12/31, THIS BOX MAY BE COLLECTED AS EARLY AS 12 NOON.", "nsi_id": "unitedstatespostalservice-a77078", "operator": "United States Postal Service", "operator:short": "USPS", "operator:type": "public", "operator:wikidata": "Q668687", "ref": "8820100089"}, "type": "Feature"}
{"geometry": {"coordinates": [-104.542201918, 33.394118568], "type": "Point"}, "id": "d6hhfsRZBmJZtfdb0qyDRV6PVGQ=", "properties": {"@source_uri": "https://tools.usps.com/UspsToolsRestServices/rest/POLocator/findLocations", "@spider": "usps_collection_boxes", "addr:city": "ROSWELL", "addr:country": "US", "addr:postcode": "88201", "addr:state": "NM", "addr:street_address": "1400 W 2ND ST", "amenity": "post_box", "brand": "United States Postal Service", "brand:wikidata": "Q668687", "collection_times": "Mo-Fr 16:00; Sa 13:40", "note": "ON 12/24 AND 12/31, THIS BOX MAY BE COLLECTED AS EARLY AS 12 NOON.", "nsi_id": "unitedstatespostalservice-a77078", "operator": "United States Postal Service", "operator:short": "USPS", "operator:type": "public", "operator:wikidata": "Q668687", "ref": "8820100092"}, "type": "Feature"}
{"geometry": {"coordinates": [-104.522999, 33.403095], "type": "Point"}, "id": "mkVUJ0HYBondHZwTMUdYktyznTY=", "properties": {"@source_uri": "https://tools.usps.com/UspsToolsRestServices/rest/POLocator/findLocations", "@spider": "usps_collection_boxes", "addr:city": "ROSWELL", "addr:country": "US", "addr:postcode": "88201", "addr:state": "NM", "addr:street_address": "912 N MAIN ST", "amenity": "post_box", "brand": "United States Postal Service", "brand:wikidata": "Q668687", "collection_times": "Mo-Fr 16:00; Sa 13:30", "note": "ON 12/24 AND 12/31, THIS BOX MAY BE COLLECTED AS EARLY AS 12 NOON.", "nsi_id": "unitedstatespostalservice-a77078", "operator": "United States Postal Service", "operator:short": "USPS", "operator:type": "public", "operator:wikidata": "Q668687", "ref": "8820100095"}, "type": "Feature"}
{"geometry": {"coordinates": [-104.522885, 33.42534], "type": "Point"}, "id": "MC8MsOjj9UmLpWL5cV5vBPxHbt0=", "properties": {"@source_uri": "https://tools.usps.com/UspsToolsRestServices/rest/POLocator/findLocations", "@spider": "usps_collection_boxes", "addr:city": "ROSWELL", "addr:country": "US", "addr:postcode": "88201", "addr:state": "NM", "addr:street_address": "2601 N MAIN ST", "amenity": "post_box", "brand": "United States Postal Service", "brand:wikidata": "Q668687", "collection_times": "Mo-Fr 16:00; Sa 13:10", "note": "ON 12/24 AND 12/31, THIS BOX MAY BE COLLECTED AS EARLY AS 12 NOON.", "nsi_id": "unitedstatespostalservice-a77078", "operator": "United States Postal Service", "operator:short": "USPS", "operator:type": "public", "operator:wikidata": "Q668687", "ref": "8820100096"}, "type": "Feature"}
{"geometry": {"coordinates": [-104.5260105907, 33.3972297871], "type": "Point"}, "id": "P9J-1uPhjrl5rdqNlhKGISAqenY=", "properties": {"@source_uri": "https://tools.usps.com/UspsToolsRestServices/rest/POLocator/findLocations", "@spider": "usps_collection_boxes", "addr:city": "ROSWELL", "addr:country": "US", "addr:postcode": "88201", "addr:state": "NM", "addr:street_address": "415 N PENNSYLVANIA AVE", "amenity": "post_box", "brand": "United States Postal Service", "brand:wikidata": "Q668687", "collection_times": "Mo-Fr 17:00; Sa 12:00", "indoor": "yes", "note": "ON 12/24 AND 12/31, THIS BOX MAY BE COLLECTED AS EARLY AS 12 NOON.", "nsi_id": "unitedstatespostalservice-a77078", "operator": "United States Postal Service", "operator:short": "USPS", "operator:type": "public", "operator:wikidata": "Q668687", "ref": "8820100099"}, "type": "Feature"}
{"geometry": {"coordinates": [-104.5236130173, 33.3238179997], "type": "Point"}, "id": "izNcc7DOasDidgQiOcLN4hTm8nc=", "properties": {"@source_uri": "https://tools.usps.com/UspsToolsRestServices/rest/POLocator/findLocations", "@spider": "usps_collection_boxes", "addr:city": "ROSWELL", "addr:country": "US", "addr:postcode": "88203", "addr:state": "NM", "addr:street_address": "5904 S MAIN ST", "amenity": "post_box", "brand": "United States Postal Service", "brand:wikidata": "Q668687", "collection_times": "Mo-Fr 16:30", "indoor": "yes", "note": "ON 12/24 AND 12/31, THIS BOX MAY BE COLLECTED AS EARLY AS 12 NOON.", "nsi_id": "unitedstatespostalservice-a77078", "operator": "United States Postal Service", "operator:short": "USPS", "operator:type": "public", "operator:wikidata": "Q668687", "ref": "8820300005"}, "type": "Feature"}
{"geometry": {"coordinates": [-104.529279, 33.350996], "type": "Point"}, "id": "Rgh7E9n4QicCw2qPFCvMyFvZzwY=", "properties": {"@source_uri": "https://tools.usps.com/UspsToolsRestServices/rest/POLocator/findLocations", "@spider": "usps_collection_boxes", "addr:city": "ROSWELL", "addr:country": "US", "addr:postcode": "88203", "addr:state": "NM", "addr:street_address": "497 W BRASHER RD", "amenity": "post_box", "brand": "United States Postal Service", "brand:wikidata": "Q668687", "collection_times": "Mo-Fr 17:00; Sa 14:00", "note": "ON 12/24 AND 12/31, THIS BOX MAY BE COLLECTED AS EARLY AS 12 NOON.", "nsi_id": "unitedstatespostalservice-a77078", "operator": "United States Postal Service", "operator:short": "USPS", "operator:type": "public", "operator:wikidata": "Q668687", "ref": "8820300006"}, "type": "Feature"}
{"geometry": {"coordinates": [-104.529041, 33.351194], "type": "Point"}, "id": "r09rxrVWAMMVB7Izu9jkoNIr5xk=", "properties": {"@source_uri": "https://tools.usps.com/UspsToolsRestServices/rest/POLocator/findLocations", "@spider": "usps_collection_boxes", "addr:city": "ROSWELL", "addr:country": "US", "addr:postcode": "88203", "addr:state": "NM", "addr:street_address": "497 W BRASHER RD", "amenity": "post_box", "brand": "United States Postal Service", "brand:wikidata": "Q668687", "collection_times": "Mo-Fr 17:00; Sa 14:00", "indoor": "yes", "note": "ON 12/24 AND 12/31, THIS BOX MAY BE COLLECTED AS EARLY AS 12 NOON.", "nsi_id": "unitedstatespostalservice-a77078", "operator": "United States Postal Service", "operator:short": "USPS", "operator:type": "public", "operator:wikidata": "Q668687", "ref": "8820300008"}, "type": "Feature"}
{"geometry": {"coordinates": [-104.529153, 33.351264], "type": "Point"}, "id": "0rEGBSDuCY6fcPwEHmIDtFip4YE=", "properties": {"@source_uri": "https://tools.usps.com/UspsToolsRestServices/rest/POLocator/findLocations", "@spider": "usps_collection_boxes", "addr:city": "ROSWELL", "addr:country": "US", "addr:postcode": "88203", "addr:state": "NM", "addr:street_address": "497 W BRASHER RD", "amenity": "post_box", "brand": "United States Postal Service", "brand:wikidata": "Q668687", "collection_times": "Mo-Fr 17:00; Sa 14:00", "indoor": "yes", "note": "ON 12/24 AND 12/31, THIS BOX MAY BE COLLECTED AS EARLY AS 12 NOON.", "nsi_id": "unitedstatespostalservice-a77078", "operator": "United States Postal Service", "operator:short": "USPS", "operator:type": "public", "operator:wikidata": "Q668687", "ref": "8820300009"}, "type": "Feature"}
{"geometry": {"coordinates": [-104.522628, 33.37571], "type": "Point"}, "id": "_icmO-q_cWEF4SLB4Qzw-WO023o=", "properties": {"@source_uri": "https://tools.usps.com/UspsToolsRestServices/rest/POLocator/findLocations", "@spider": "usps_collection_boxes", "addr:city": "ROSWELL", "addr:country": "US", "addr:postcode": "88203", "addr:state": "NM", "addr:street_address": "1 SAINT MARYS PL", "amenity": "post_box", "brand": "United States Postal Service", "brand:wikidata": "Q668687", "collection_times": "Mo-Fr 16:00; Sa 13:00", "note": "ON 12/24 AND 12/31, THIS BOX MAY BE COLLECTED AS EARLY AS 12 NOON.", "nsi_id": "unitedstatespostalservice-a77078", "operator": "United States Postal Service", "operator:short": "USPS", "operator:type": "public", "operator:wikidata": "Q668687", "ref": "8820300014"}, "type": "Feature"}
{"geometry": {"coordinates": [-104.5236130173, 33.3238179997], "type": "Point"}, "id": "IPc-jjKUO9uDt0B4OTcIWrJz5CU=", "properties": {"@source_uri": "https://tools.usps.com/UspsToolsRestServices/rest/POLocator/findLocations", "@spider": "usps_collection_boxes", "addr:city": "ROSWELL", "addr:country": "US", "addr:postcode": "88203", "addr:state": "NM", "addr:street_address": "5904 S MAIN ST", "amenity": "post_box", "brand": "United States Postal Service", "brand:wikidata": "Q668687", "collection_times": "Mo-Fr 16:30", "indoor": "yes", "note": "ON 12/24 AND 12/31, THIS BOX MAY BE COLLECTED AS EARLY AS 12 NOON.", "nsi_id": "unitedstatespostalservice-a77078", "operator": "United States Postal Service", "operator:short": "USPS", "operator:type": "public", "operator:wikidata": "Q668687", "ref": "8820300015"}, "type": "Feature"}
{"geometry": {"coordinates": [-104.401429, 32.843792], "type": "Point"}, "id": "VTG1UPk1sWZ7Jv-7NYCaIP7T05s=", "properties": {"@source_uri": "https://tools.usps.com/UspsToolsRestServices/rest/POLocator/findLocations", "@spider": "usps_collection_boxes", "addr:city": "ARTESIA", "addr:country": "US", "addr:postcode": "88210", "addr:state": "NM", "addr:street_address": "201 N 4TH ST", "amenity": "post_box", "brand": "United States Postal Service", "brand:wikidata": "Q668687", "collection_times": "Mo-Fr 17:00; Sa 16:15", "note": "ON 12/24 AND 12/31, THIS BOX MAY BE COLLECTED AS EARLY AS 12 NOON.", "nsi_id": "unitedstatespostalservice-a77078", "operator": "United States Postal Service", "operator:short": "USPS", "operator:type": "public", "operator:wikidata": "Q668687", "ref": "8821000000"}, "type": "Feature"}
{"geometry": {"coordinates": [-104.401084, 32.841702], "type": "Point"}, "id": "4aMSyJpCj4HtgKufYc9Kuv21bGU=", "properties": {"@source_uri": "https://tools.usps.com/UspsToolsRestServices/rest/POLocator/findLocations", "@spider": "usps_collection_boxes", "addr:city": "ARTESIA", "addr:country": "US", "addr:postcode": "88210", "addr:state": "NM", "addr:street_address": "105 S 4TH ST", "amenity": "post_box", "brand": "United States Postal Service", "brand:wikidata": "Q668687", "collection_times": "Mo-Fr 16:30", "note": "ON 12/24 AND 12/31, THIS BOX MAY BE COLLECTED AS EARLY AS 12 NOON.", "nsi_id": "unitedstatespostalservice-a77078", "operator": "United States Postal Service", "operator:short": "USPS", "operator:type": "public", "operator:wikidata": "Q668687", "ref": "8821000001"}, "type": "Feature"}
{"geometry": {"coordinates": [-104.410563, 32.841178], "type": "Point"}, "id": "wF1VQswMnNa3ZFPxOBgdB2EE2UE=", "properties": {"@source_uri": "https://tools.usps.com/UspsToolsRestServices/rest/POLocator/findLocations", "@spider": "usps_collection_boxes", "addr:city": "ARTESIA", "addr:country": "US", "addr:postcode": "88210", "addr:state": "NM", "addr:street_address": "1106 W QUAY AVE", "amenity": "post_box", "brand": "United States Postal Service", "brand:wikidata": "Q668687", "collection_times": "Mo-Fr 16:30", "note": "ON 12/24 AND 12/31, THIS BOX MAY BE COLLECTED AS EARLY AS 12 NOON.", "nsi_id": "unitedstatespostalservice-a77078", "operator": "United States Postal Service", "operator:short": "USPS", "operator:type": "public", "operator:wikidata": "Q668687", "ref": "8821000013"}, "type": "Feature"}
{"geometry": {"coordinates": [-104.427043467, 32.842586501], "type": "Point"}, "id": "5fnng5XY3XtBzNK_wKolWtR1hmE=", "properties": {"@source_uri": "https://tools.usps.com/UspsToolsRestServices/rest/POLocator/findLocations", "@spider": "usps_collection_boxes", "addr:city": "ARTESIA", "addr:country": "US", "addr:postcode": "88210", "addr:state": "NM", "addr:street_address": "2307 W MAIN ST", "amenity": "post_box", "brand": "United States Postal Service", "brand:wikidata": "Q668687", "collection_times": "Mo-Fr 16:15; Sa 16:00", "note": "ON 12/24 AND 12/31, THIS BOX MAY BE COLLECTED AS EARLY AS 12 NOON.", "nsi_id": "unitedstatespostalservice-a77078", "operator": "United States Postal Service", "operator:short": "USPS", "operator:type": "public", "operator:wikidata": "Q668687", "ref": "8821000017"}, "type": "Feature"}
{"geometry": {"coordinates": [-104.401431, 32.843802], "type": "Point"}, "id": "3nTpEW2fv4pdz5EPaU9YJ5xJ9fM=", "properties": {"@source_uri": "https://tools.usps.com/UspsToolsRestServices/rest/POLocator/findLocations", "@spider": "usps_collection_boxes", "addr:city": "ARTESIA", "addr:country": "US", "addr:postcode": "88210", "addr:state": "NM", "addr:street_address": "201 N 4TH ST", "amenity": "post_box", "brand": "United States Postal Service", "brand:wikidata": "Q668687", "collection_times": "Mo-Fr 17:00; Sa 16:15", "note": "ON 12/24 AND 12/31, THIS BOX MAY BE COLLECTED AS EARLY AS 12 NOON.", "nsi_id": "unitedstatespostalservice-a77078", "operator": "United States Postal Service", "operator:short": "USPS", "operator:type": "public", "operator:wikidata": "Q668687", "ref": "8821000022"}, "type": "Feature"}
{"geometry": {"coordinates": [-104.401427, 32.84383], "type": "Point"}, "id": "tMHK_FdURmYYUHlwiHq6Qk2479Q=", "properties": {"@source_uri": "https://tools.usps.com/UspsToolsRestServices/rest/POLocator/findLocations", "@spider": "usps_collection_boxes", "addr:city": "ARTESIA", "addr:country": "US", "addr:postcode": "88210", "addr:state": "NM", "addr:street_address": "201 N 4TH ST", "amenity": "post_box", "brand": "United States Postal Service", "brand:wikidata": "Q668687", "collection_times": "Mo-Fr 17:00; Sa 16:15", "note": "ON 12/24 AND 12/31, THIS BOX MAY BE COLLECTED AS EARLY AS 12 NOON.", "nsi_id": "unitedstatespostalservice-a77078", "operator": "United States Postal Service", "operator:short": "USPS", "operator:type": "public", "operator:wikidata": "Q668687", "ref": "8821000023"}, "type": "Feature"}
{"geometry": {"coordinates": [-104.401338, 32.843514], "type": "Point"}, "id": "_HvNJNgq6T_P9KzoyELeRua8YvA=", "properties": {"@source_uri": "https://tools.usps.com/UspsToolsRestServices/rest/POLocator/findLocations", "@spider": "usps_collection_boxes", "addr:city": "ARTESIA", "addr:country": "US", "addr:postcode": "88210", "addr:state": "NM", "addr:street_address": "201 N 4TH ST", "amenity": "post_box", "brand": "United States Postal Service", "brand:wikidata": "Q668687", "collection_times": "Mo-Fr 16:45; Sa 16:15", "indoor": "yes", "note": "ON 12/24 AND 12/31, THIS BOX MAY BE COLLECTED AS EARLY AS 12 NOON.", "nsi_id": "unitedstatespostalservice-a77078", "operator": "United States Postal Service", "operator:short": "USPS", "operator:type": "public", "operator:wikidata": "Q668687", "ref": "8821000025"}, "type": "Feature"}
{"geometry": {"coordinates": [-104.401351, 32.843521], "type": "Point"}, "id": "JVqtP4VsDAO3kO30EPT72gAMJq8=", "properties": {"@source_uri": "https://tools.usps.com/UspsToolsRestServices/rest/POLocator/findLocations", "@spider": "usps_collection_boxes", "addr:city": "ARTESIA", "addr:country": "US", "addr:postcode": "88210", "addr:state": "NM", "addr:street_address": "201 N 4TH ST", "amenity": "post_box", "brand": "United States Postal Service", "brand:wikidata": "Q668687", "collection_times": "Mo-Fr 16:45; Sa 16:15", "indoor": "yes", "note": "ON 12/24 AND 12/31, THIS BOX MAY BE COLLECTED AS EARLY AS 12 NOON.", "nsi_id": "unitedstatespostalservice-a77078", "operator": "United States Postal Service", "operator:short": "USPS", "operator:type": "public", "operator:wikidata": "Q668687", "ref": "8821000026"}, "type": "Feature"}
{"geometry": {"coordinates": [-104.401334, 32.843516], "type": "Point"}, "id": "nrXRPurmtbcwV8iFuhK_gmg0JTg=", "properties": {"@source_uri": "https://tools.usps.com/UspsToolsRestServices/rest/POLocator/findLocations", "@spider": "usps_collection_boxes", "addr:city": "ARTESIA", "addr:country": "US", "addr:postcode": "88210", "addr:state": "NM", "addr:street_address": "201 N 4TH ST", "amenity": "post_box", "brand": "United States Postal Service", "brand:wikidata": "Q668687", "collection_times": "Mo-Fr 16:45; Sa 16:15", "indoor": "yes", "note": "ON 12/24 AND 12/31, THIS BOX MAY BE COLLECTED AS EARLY AS 12 NOON.", "nsi_id": "unitedstatespostalservice-a77078", "operator": "United States Postal Service", "operator:short": "USPS", "operator:type": "public", "operator:wikidata": "Q668687", "ref": "8821000027"}, "type": "Feature"}
{"geometry": {"coordinates": [-104.401346, 32.843527], "type": "Point"}, "id": "Dt6K1Q88juBl7FPYSIdqh1OA6Dg=", "properties": {"@source_uri": "https://tools.usps.com/UspsToolsRestServices/rest/POLocator/findLocations", "@spider": "usps_collection_boxes", "addr:city": "ARTESIA", "addr:country": "US", "addr:postcode": "88210", "addr:state": "NM", "addr:street_address": "201 N 4TH ST", "amenity": "post_box", "brand": "United States Postal Service", "brand:wikidata": "Q668687", "collection_times": "Mo-Fr 16:45; Sa 16:15", "indoor": "yes", "note": "ON 12/24 AND 12/31, THIS BOX MAY BE COLLECTED AS EARLY AS 12 NOON.", "nsi_id": "unitedstatespostalservice-a77078", "operator": "United States Postal Service", "operator:short": "USPS", "operator:type": "public", "operator:wikidata": "Q668687", "ref": "8821000028"}, "type": "Feature"}
{"geometry": {"coordinates": [-104.414357, 32.83122], "type": "Point"}, "id": "nsb7FdLFLUqmCvCmdlupibNk8qY=", "properties": {"@source_uri": "https://tools.usps.com/UspsToolsRestServices/rest/POLocator/findLocations", "@spider": "usps_collection_boxes", "addr:city": "ARTESIA", "addr:country": "US", "addr:postcode": "88210", "addr:state": "NM", "addr:street_address": "1401 W CENTRE AVE", "amenity": "post_box", "brand": "United States Postal Service", "brand:wikidata": "Q668687", "collection_times": "Mo-Sa 15:45", "note": "ON 12/24 AND 12/31, THIS BOX MAY BE COLLECTED AS EARLY AS 12 NOON.", "nsi_id": "unitedstatespostalservice-a77078", "operator": "United States Postal Service", "operator:short": "USPS", "operator:type": "public", "operator:wikidata": "Q668687", "ref": "8821000029"}, "type": "Feature"}
{"geometry": {"coordinates": [-104.4183, 32.84234], "type": "Point"}, "id": "1vG-DLzJ-SawOVpKp29MBvlA3nI=", "properties": {"@source_uri": "https://tools.usps.com/UspsToolsRestServices/rest/POLocator/findLocations", "@spider": "usps_collection_boxes", "addr:city": "ARTESIA", "addr:country": "US", "addr:postcode": "88210", "addr:state": "NM", "addr:street_address": "1700 W MAIN ST", "amenity": "post_box", "brand": "United States Postal Service", "brand:wikidata": "Q668687", "collection_times": "Mo-Fr 16:15; Sa 16:00", "note": "ON 12/24 AND 12/31, THIS BOX MAY BE COLLECTED AS EARLY AS 12 NOON.", "nsi_id": "unitedstatespostalservice-a77078", "operator": "United States Postal Service", "operator:short": "USPS", "operator:type": "public", "operator:wikidata": "Q668687", "ref": "8821000030"}, "type": "Feature"}
{"geometry": {"coordinates": [-104.4011152189, 32.8435022515], "type": "Point"}, "id": "paOsBdlINExsvtfSStuXjBswGis=", "properties": {"@source_uri": "https://tools.usps.com/UspsToolsRestServices/rest/POLocator/findLocations", "@spider": "usps_collection_boxes", "addr:city": "ARTESIA", "addr:country": "US", "addr:postcode": "88210", "addr:state": "NM", "addr:street_address": "201 N 4TH ST", "amenity": "post_box", "brand": "United States Postal Service", "brand:wikidata": "Q668687", "collection_times": "Mo-Fr 16:45; Sa 16:15", "indoor": "yes", "note": "ON 12/24 AND 12/31, THIS BOX MAY BE COLLECTED AS EARLY AS 12 NOON.", "nsi_id": "unitedstatespostalservice-a77078", "operator": "United States Postal Service", "operator:short": "USPS", "operator:type": "public", "operator:wikidata": "Q668687", "ref": "8821000032"}, "type": "Feature"}
{"geometry": {"coordinates": [-104.4129200114, 32.8573199934], "type": "Point"}, "id": "-fKhvZeAy4cYz_j7tfblXQYYdVI=", "properties": {"@source_uri": "https://tools.usps.com/UspsToolsRestServices/rest/POLocator/findLocations", "@spider": "usps_collection_boxes", "addr:city": "ARTESIA", "addr:country": "US", "addr:postcode": "88210", "addr:state": "NM", "addr:street_address": "1300 W RICHEY AVE", "amenity": "post_box", "brand": "United States Postal Service", "brand:wikidata": "Q668687", "collection_times": "Mo-Fr 16:00", "indoor": "yes", "note": "ON 12/24 AND 12/31, THIS BOX MAY BE COLLECTED AS EARLY AS 12 NOON.", "nsi_id": "unitedstatespostalservice-a77078", "operator": "United States Postal Service", "operator:short": "USPS", "operator:type": "public", "operator:wikidata": "Q668687", "ref": "8821000033"}, "type": "Feature"}
{"geometry": {"coordinates": [-104.238099, 32.435867], "type": "Point"}, "id": "PM2-YiKT6DZ-rtTl2G17EUib8gs=", "properties": {"@source_uri": "https://tools.usps.com/UspsToolsRestServices/rest/POLocator/findLocations", "@spider": "usps_collection_boxes", "addr:city": "CARLSBAD", "addr:country": "US", "addr:postcode": "88220", "addr:state": "NM", "addr:street_address": "1008 W PIERCE ST", "amenity": "post_box", "brand": "United States Postal Service", "brand:wikidata": "Q668687", "collection_times": "Mo-Fr 14:05; Sa 14:00", "note": "ON 12/24 AND 12/31, THIS BOX MAY BE COLLECTED AS EARLY AS 12 NOON.", "nsi_id": "unitedstatespostalservice-a77078", "operator": "United States Postal Service", "operator:short": "USPS", "operator:type": "public", "operator:wikidata": "Q668687", "ref": "8822000003"}, "type": "Feature"}
{"geometry": {"coordinates": [-104.22764, 32.420432], "type": "Point"}, "id": "2D-axiHxiQtnzh5pojhIH_EITFI=", "properties": {"@source_uri": "https://tools.usps.com/UspsToolsRestServices/rest/POLocator/findLocations", "@spider": "usps_collection_boxes", "addr:city": "CARLSBAD", "addr:country": "US", "addr:postcode": "88220", "addr:state": "NM", "addr:street_address": "102 N CANYON ST", "amenity": "post_box", "brand": "United States Postal Service", "brand:wikidata": "Q668687", "collection_times": "Mo-Fr 14:40; Sa 14:30", "note": "ON 12/24 AND 12/31, THIS BOX MAY BE COLLECTED AS EARLY AS 12 NOON.", "nsi_id": "unitedstatespostalservice-a77078", "operator": "United States Postal Service", "operator:short": "USPS", "operator:type": "public", "operator:wikidata": "Q668687", "ref": "8822000005"}, "type": "Feature"}
{"geometry": {"coordinates": [-104.22768, 32.422694], "type": "Point"}, "id": "bDv_cT_OnoLU6ijKOK2XRtD6c6U=", "properties": {"@source_uri": "https://tools.usps.com/UspsToolsRestServices/rest/POLocator/findLocations", "@spider": "usps_collection_boxes", "addr:city": "CARLSBAD", "addr:country": "US", "addr:postcode": "88220", "addr:state": "NM", "addr:street_address": "301 N CANYON ST", "amenity": "post_box", "brand": "United States Postal Service", "brand:wikidata": "Q668687", "collection_times": "Mo-Fr 16:20; Sa 14:45", "note": "ON 12/24 AND 12/31, THIS BOX MAY BE COLLECTED AS EARLY AS 12 NOON.", "nsi_id": "unitedstatespostalservice-a77078", "operator": "United States Postal Service", "operator:short": "USPS", "operator:type": "public", "operator:wikidata": "Q668687", "ref": "8822000007"}, "type": "Feature"}
{"geometry": {"coordinates": [-104.227827, 32.419037], "type": "Point"}, "id": "2Q_Qp7Y5e33fed2p21qIDGwXti0=", "properties": {"@source_uri": "https://tools.usps.com/UspsToolsRestServices/rest/POLocator/findLocations", "@spider": "usps_collection_boxes", "addr:city": "CARLSBAD", "addr:country": "US", "addr:postcode": "88220", "addr:state": "NM", "addr:street_address": "201 S CANYON ST", "amenity": "post_box", "brand": "United States Postal Service", "brand:wikidata": "Q668687", "collection_times": "Mo-Fr 14:35; Sa 14:30", "note": "ON 12/24 AND 12/31, THIS BOX MAY BE COLLECTED AS EARLY AS 12 NOON.", "nsi_id": "unitedstatespostalservice-a77078", "operator": "United States Postal Service", "operator:short": "USPS", "operator:type": "public", "operator:wikidata": "Q668687", "ref": "8822000023"}, "type": "Feature"}
{"geometry": {"coordinates": [-104.230193, 32.419272], "type": "Point"}, "id": "sr7LvOFiwKCJo3Zk8Wa_0VRNlqA=", "properties": {"@source_uri": "https://tools.usps.com/UspsToolsRestServices/rest/POLocator/findLocations", "@spider": "usps_collection_boxes", "addr:city": "CARLSBAD", "addr:country": "US", "addr:postcode": "88220", "addr:state": "NM", "addr:street_address": "308 W FOX ST", "amenity": "post_box", "brand": "United States Postal Service", "brand:wikidata": "Q668687", "collection_times": "Mo-Fr 14:30; Sa 14:00", "note": "ON 12/24 AND 12/31, THIS BOX MAY BE COLLECTED AS EARLY AS 12 NOON.", "nsi_id": "unitedstatespostalservice-a77078", "operator": "United States Postal Service", "operator:short": "USPS", "operator:type": "public", "operator:wikidata": "Q668687", "ref": "8822000025"}, "type": "Feature"}
{"geometry": {"coordinates": [-104.254399, 32.44044], "type": "Point"}, "id": "hrBBY7PcqX0eNk2NcvVa9al8wm8=", "properties": {"@source_uri": "https://tools.usps.com/UspsToolsRestServices/rest/POLocator/findLocations", "@spider": "usps_collection_boxes", "addr:city": "CARLSBAD", "addr:country": "US", "addr:postcode": "88220", "addr:state": "NM", "addr:street_address": "2302 W PIERCE ST", "amenity": "post_box", "brand": "United States Postal Service", "brand:wikidata": "Q668687", "collection_times": "Mo-Fr 14:10; Sa 14:00", "note": "ON 12/24 AND 12/31, THIS BOX MAY BE COLLECTED AS EARLY AS 12 NOON.", "nsi_id": "unitedstatespostalservice-a77078", "operator": "United States Postal Service", "operator:short": "USPS", "operator:type": "public", "operator:wikidata": "Q668687", "ref": "8822000029"}, "type": "Feature"}
{"geometry": {"coordinates": [-104.246449, 32.434993], "type": "Point"}, "id": "QAxFqbz5hJC4z5bZcNMJEze_K5c=", "properties": {"@source_uri": "https://tools.usps.com/UspsToolsRestServices/rest/POLocator/findLocations", "@spider": "usps_collection_boxes", "addr:city": "CARLSBAD", "addr:country": "US", "addr:postcode": "88220", "addr:state": "NM", "addr:street_address": "1705 W PIERCE ST", "amenity": "post_box", "brand": "United States Postal Service", "brand:wikidata": "Q668687", "collection_times": "Mo-Fr 14:20; Sa 14:00", "note": "ON 12/24 AND 12/31, THIS BOX MAY BE COLLECTED AS EARLY AS 12 NOON.", "nsi_id": "unitedstatespostalservice-a77078", "operator": "United States Postal Service", "operator:short": "USPS", "operator:type": "public", "operator:wikidata": "Q668687", "ref": "8822000031"}, "type": "Feature"}
{"geometry": {"coordinates": [-104.22768, 32.422694], "type": "Point"}, "id": "Kf3q5qz9TH1jCiwxQoF0Sjqkf4Q=", "properties": {"@source_uri": "https://tools.usps.com/UspsToolsRestServices/rest/POLocator/findLocations", "@spider": "usps_collection_boxes", "addr:city": "CARLSBAD", "addr:country": "US", "addr:postcode": "88220", "addr:state": "NM", "addr:street_address": "301 N CANYON ST", "amenity": "post_box", "brand": "United States Postal Service", "brand:wikidata": "Q668687", "collection_times": "Mo-Fr 15:00; Sa 14:45", "indoor": "yes", "note": "ON 12/24 AND 12/31, THIS BOX MAY BE COLLECTED AS EARLY AS 12 NOON.", "nsi_id": "unitedstatespostalservice-a77078", "operator": "United States Postal Service", "operator:short": "USPS", "operator:type": "public", "operator:wikidata": "Q668687", "ref": "8822000035"}, "type": "Feature"}
{"geometry": {"coordinates": [-104.257016, 32.441034], "type": "Point"}, "id": "1yrBRVCWtkv4DPauWU2PFZNbjBo=", "properties": {"@source_uri": "https://tools.usps.com/UspsToolsRestServices/rest/POLocator/findLocations", "@spider": "usps_collection_boxes", "addr:city": "CARLSBAD", "addr:country": "US", "addr:postcode": "88220", "addr:state": "NM", "addr:street_address": "2402 W PIERCE ST", "amenity": "post_box", "brand": "United States Postal Service", "brand:wikidata": "Q668687", "collection_times": "Mo-Fr 14:15; Sa 14:00", "note": "ON 12/24 AND 12/31, THIS BOX MAY BE COLLECTED AS EARLY AS 12 NOON.", "nsi_id": "unitedstatespostalservice-a77078", "operator": "United States Postal Service", "operator:short": "USPS", "operator:type": "public", "operator:wikidata": "Q668687", "ref": "8822000037"}, "type": "Feature"}
{"geometry": {"coordinates": [-104.22768, 32.422694], "type": "Point"}, "id": "oEOzogRnoc1Qg8MSzcWv5S7d_aw=", "properties": {"@source_uri": "https://tools.usps.com/UspsToolsRestServices/rest/POLocator/findLocations", "@spider": "usps_collection_boxes", "addr:city": "CARLSBAD", "addr:country": "US", "addr:postcode": "88220", "addr:state": "NM", "addr:street_address": "301 N CANYON ST", "amenity": "post_box", "brand": "United States Postal Service", "brand:wikidata": "Q668687", "collection_times": "Mo-Fr 15:00; Sa 14:45", "indoor": "yes", "note": "ON 12/24 AND 12/31, THIS BOX MAY BE COLLECTED AS EARLY AS 12 NOON.", "nsi_id": "unitedstatespostalservice-a77078", "operator": "United States Postal Service", "operator:short": "USPS", "operator:type": "public", "operator:wikidata": "Q668687", "ref": "8822000038"}, "type": "Feature"}
{"geometry": {"coordinates": [-104.226682, 32.378733], "type": "Point"}, "id": "3hh1Kub3nSb9YF_OxIU_x3Ufz64=", "properties": {"@source_uri": "https://tools.usps.com/UspsToolsRestServices/rest/POLocator/findLocations", "@spider": "usps_collection_boxes", "addr:city": "CARLSBAD", "addr:country": "US", "addr:postcode": "88220", "addr:state": "NM", "addr:street_address": "3624 NATIONAL PARKS HWY", "amenity": "post_box", "brand": "United States Postal Service", "brand:wikidata": "Q668687", "collection_times": "Mo-Fr 14:00; Sa 14:25", "note": "ON 12/24 AND 12/31, THIS BOX MAY BE COLLECTED AS EARLY AS 12 NOON.", "nsi_id": "unitedstatespostalservice-a77078", "operator": "United States Postal Service", "operator:short": "USPS", "operator:type": "public", "operator:wikidata": "Q668687", "ref": "8822000043"}, "type": "Feature"}
{"geometry": {"coordinates": [-104.232705, 32.420575], "type": "Point"}, "id": "ePH-VtS4OnzWZR4x8H5RE7dzFvI=", "properties": {"@source_uri": "https://tools.usps.com/UspsToolsRestServices/rest/POLocator/findLocations", "@spider": "usps_collection_boxes", "addr:city": "CARLSBAD", "addr:country": "US", "addr:postcode": "88220", "addr:state": "NM", "addr:street_address": "522 W MERMOD ST", "amenity": "post_box", "brand": "United States Postal Service", "brand:wikidata": "Q668687", "collection_times": "Mo-Fr 14:25", "note": "ON 12/24 AND 12/31, THIS BOX MAY BE COLLECTED AS EARLY AS 12 NOON.", "nsi_id": "unitedstatespostalservice-a77078", "operator": "United States Postal Service", "operator:short": "USPS", "operator:type": "public", "operator:wikidata": "Q668687", "ref": "8822000044"}, "type": "Feature"}
{"geometry": {"coordinates": [-104.2276950446, 32.4232475029], "type": "Point"}, "id": "262qhtE7-0DjmhNEFRVqWq4tcZI=", "properties": {"@source_uri": "https://tools.usps.com/UspsToolsRestServices/rest/POLocator/findLocations", "@spider": "usps_collection_boxes", "addr:city": "CARLSBAD", "addr:country": "US", "addr:postcode": "88220", "addr:state": "NM", "addr:street_address": "301 N CANYON ST", "amenity": "post_box", "brand": "United States Postal Service", "brand:wikidata": "Q668687", "collection_times": "Mo-Fr 15:00; Sa 14:45", "indoor": "yes", "note": "ON 12/24 AND 12/31, THIS BOX MAY BE COLLECTED AS EARLY AS 12 NOON.", "nsi_id": "unitedstatespostalservice-a77078", "operator": "United States Postal Service", "operator:short": "USPS", "operator:type": "public", "operator:wikidata": "Q668687", "ref": "8822000049"}, "type": "Feature"}
{"geometry": {"coordinates": [-104.371068444, 33.1952798598], "type": "Point"}, "id": "4t4XH64m1Fpn9EXoAXrwTrI09zY=", "properties": {"@source_uri": "https://tools.usps.com/UspsToolsRestServices/rest/POLocator/findLocations", "@spider": "usps_collection_boxes", "addr:city": "DEXTER", "addr:country": "US", "addr:postcode": "88230", "addr:state": "NM", "addr:street_address": "302 S LINCOLN AVE", "amenity": "post_box", "brand": "United States Postal Service", "brand:wikidata": "Q668687", "collection_times": "Mo-Fr 15:45; Sa 10:00", "note": "ON 12/24 AND 12/31, THIS BOX MAY BE COLLECTED AS EARLY AS 12 NOON.", "nsi_id": "unitedstatespostalservice-a77078", "operator": "United States Postal Service", "operator:short": "USPS", "operator:type": "public", "operator:wikidata": "Q668687", "ref": "8823000000"}, "type": "Feature"}
{"geometry": {"coordinates": [-104.371068444, 33.1952798598], "type": "Point"}, "id": "b0OeDYTiv323Xt_2LDHMhCWbEeo=", "properties": {"@source_uri": "https://tools.usps.com/UspsToolsRestServices/rest/POLocator/findLocations", "@spider": "usps_collection_boxes", "addr:city": "DEXTER", "addr:country": "US", "addr:postcode": "88230", "addr:state": "NM", "addr:street_address": "302 S LINCOLN AVE", "amenity": "post_box", "brand": "United States Postal Service", "brand:wikidata": "Q668687", "collection_times": "Mo-Fr 16:00; Sa 10:00", "indoor": "yes", "note": "ON 12/24 AND 12/31, THIS BOX MAY BE COLLECTED AS EARLY AS 12 NOON.", "nsi_id": "unitedstatespostalservice-a77078", "operator": "United States Postal Service", "operator:short": "USPS", "operator:type": "public", "operator:wikidata": "Q668687", "ref": "8823000001"}, "type": "Feature"}
{"geometry": {"coordinates": [-104.371068444, 33.1952798598], "type": "Point"}, "id": "rd8inussmGa-cFILpjDlxRDfAJg=", "properties": {"@source_uri": "https://tools.usps.com/UspsToolsRestServices/rest/POLocator/findLocations", "@spider": "usps_collection_boxes", "addr:city": "DEXTER", "addr:country": "US", "addr:postcode": "88230", "addr:state": "NM", "addr:street_address": "302 S LINCOLN AVE", "amenity": "post_box", "brand": "United States Postal Service", "brand:wikidata": "Q668687", "collection_times": "Mo-Fr 16:00; Sa 10:00", "indoor": "yes", "note": "ON 12/24 AND 12/31, THIS BOX MAY BE COLLECTED AS EARLY AS 12 NOON.", "nsi_id": "unitedstatespostalservice-a77078", "operator": "United States Postal Service", "operator:short": "USPS", "operator:type": "public", "operator:wikidata": "Q668687", "ref": "8823000002"}, "type": "Feature"}
{"geometry": {"coordinates": [-104.371068444, 33.1952798598], "type": "Point"}, "id": "SGfzzpgSg1t_6gobpVUWHBXhLns=", "properties": {"@source_uri": "https://tools.usps.com/UspsToolsRestServices/rest/POLocator/findLocations", "@spider": "usps_collection_boxes", "addr:city": "DEXTER", "addr:country": "US", "addr:postcode": "88230", "addr:state": "NM", "addr:street_address": "302 S LINCOLN AVE", "amenity": "post_box", "brand": "United States Postal Service", "brand:wikidata": "Q668687", "collection_times": "Mo-Fr 16:00; Sa 10:00", "indoor": "yes", "note": "ON 12/24 AND 12/31, THIS BOX MAY BE COLLECTED AS EARLY AS 12 NOON.", "nsi_id": "unitedstatespostalservice-a77078", "operator": "United States Postal Service", "operator:short": "USPS", "operator:type": "public", "operator:wikidata": "Q668687", "ref": "8823000003"}, "type": "Feature"}
{"geometry": {"coordinates": [-103.158305, 32.438365], "type": "Point"}, "id": "qMVa5yhvTT8ljuEmoCr-YeJ-KlY=", "properties": {"@source_uri": "https://tools.usps.com/UspsToolsRestServices/rest/POLocator/findLocations", "@spider": "usps_collection_boxes", "addr:city": "EUNICE", "addr:country": "US", "addr:postcode": "88231", "addr:state": "NM", "addr:street_address": "1201 AVENUE K", "amenity": "post_box", "brand": "United States Postal Service", "brand:wikidata": "Q668687", "collection_times": "Mo-Fr 15:15", "note": "ON 12/24 AND 12/31, THIS BOX MAY BE COLLECTED AS EARLY AS 12 NOON.", "nsi_id": "unitedstatespostalservice-a77078", "operator": "United States Postal Service", "operator:short": "USPS", "operator:type": "public", "operator:wikidata": "Q668687", "ref": "8823100000"}, "type": "Feature"}
{"geometry": {"coordinates": [-103.158199, 32.438392], "type": "Point"}, "id": "8F548D-V2l7QtOJhMA84R1vWF5Y=", "properties": {"@source_uri": "https://tools.usps.com/UspsToolsRestServices/rest/POLocator/findLocations", "@spider": "usps_collection_boxes", "addr:city": "EUNICE", "addr:country": "US", "addr:postcode": "88231", "addr:state": "NM", "addr:street_address": "1201 AVENUE K", "amenity": "post_box", "brand": "United States Postal Service", "brand:wikidata": "Q668687", "collection_times": "Mo-Fr 15:15", "indoor": "yes", "note": "ON 12/24 AND 12/31, THIS BOX MAY BE COLLECTED AS EARLY AS 12 NOON.", "nsi_id": "unitedstatespostalservice-a77078", "operator": "United States Postal Service", "operator:short": "USPS", "operator:type": "public", "operator:wikidata": "Q668687", "ref": "8823100002"}, "type": "Feature"}
{"geometry": {"coordinates": [-103.158270247, 32.438317253], "type": "Point"}, "id": "3Nm_E7BYPEHu_lsKZ65Reqxn7Q0=", "properties": {"@source_uri": "https://tools.usps.com/UspsToolsRestServices/rest/POLocator/findLocations", "@spider": "usps_collection_boxes", "addr:city": "EUNICE", "addr:country": "US", "addr:postcode": "88231", "addr:state": "NM", "addr:street_address": "1201 AVENUE K", "amenity": "post_box", "brand": "United States Postal Service", "brand:wikidata": "Q668687", "collection_times": "Mo-Fr 15:15", "indoor": "yes", "note": "ON 12/24 AND 12/31, THIS BOX MAY BE COLLECTED AS EARLY AS 12 NOON.", "nsi_id": "unitedstatespostalservice-a77078", "operator": "United States Postal Service", "operator:short": "USPS", "operator:type": "public", "operator:wikidata": "Q668687", "ref": "8823100003"}, "type": "Feature"}
{"geometry": {"coordinates": [-104.327054859, 33.1139467389], "type": "Point"}, "id": "SEvoeg5xroDpLObacm57mMY0VBA=", "properties": {"@source_uri": "https://tools.usps.com/UspsToolsRestServices/rest/POLocator/findLocations", "@spider": "usps_collection_boxes", "addr:city": "HAGERMAN", "addr:country": "US", "addr:postcode": "88232", "addr:state": "NM", "addr:street_address": "108 E ARGYLE ST", "amenity": "post_box", "brand": "United States Postal Service", "brand:wikidata": "Q668687", "collection_times": "Mo-Fr 14:00; Sa 09:45", "indoor": "yes", "note": "ON 12/24 AND 12/31, THIS BOX MAY BE COLLECTED AS EARLY AS 12 NOON.", "nsi_id": "unitedstatespostalservice-a77078", "operator": "United States Postal Service", "operator:short": "USPS", "operator:type": "public", "operator:wikidata": "Q668687", "ref": "8823200001"}, "type": "Feature"}
{"geometry": {"coordinates": [-104.327054859, 33.1139467389], "type": "Point"}, "id": "In8FaQ9KZVT4mcADUu97CplDOno=", "properties": {"@source_uri": "https://tools.usps.com/UspsToolsRestServices/rest/POLocator/findLocations", "@spider": "usps_collection_boxes", "addr:city": "HAGERMAN", "addr:country": "US", "addr:postcode": "88232", "addr:state": "NM", "addr:street_address": "108 E ARGYLE ST", "amenity": "post_box", "brand": "United States Postal Service", "brand:wikidata": "Q668687", "collection_times": "Mo-Fr 14:00; Sa 09:45", "indoor": "yes", "note": "ON 12/24 AND 12/31, THIS BOX MAY BE COLLECTED AS EARLY AS 12 NOON.", "nsi_id": "unitedstatespostalservice-a77078", "operator": "United States Postal Service", "operator:short": "USPS", "operator:type": "public", "operator:wikidata": "Q668687", "ref": "8823200002"}, "type": "Feature"}
{"geometry": {"coordinates": [-104.327054859, 33.1139467389], "type": "Point"}, "id": "Tiso2qloswcbv8EBIEhFZdb9SRo=", "properties": {"@source_uri": "https://tools.usps.com/UspsToolsRestServices/rest/POLocator/findLocations", "@spider": "usps_collection_boxes", "addr:city": "HAGERMAN", "addr:country": "US", "addr:postcode": "88232", "addr:state": "NM", "addr:street_address": "108 E ARGYLE ST", "amenity": "post_box", "brand": "United States Postal Service", "brand:wikidata": "Q668687", "collection_times": "Mo-Sa 16:15", "note": "ON 12/24 AND 12/31, THIS BOX MAY BE COLLECTED AS EARLY AS 12 NOON.", "nsi_id": "unitedstatespostalservice-a77078", "operator": "United States Postal Service", "operator:short": "USPS", "operator:type": "public", "operator:wikidata": "Q668687", "ref": "8823200003"}, "type": "Feature"}
{"geometry": {"coordinates": [-104.327054859, 33.1139467389], "type": "Point"}, "id": "0VVWK6lVi4Qqp_loza3Th_A5zvU=", "properties": {"@source_uri": "https://tools.usps.com/UspsToolsRestServices/rest/POLocator/findLocations", "@spider": "usps_collection_boxes", "addr:city": "HAGERMAN", "addr:country": "US", "addr:postcode": "88232", "addr:state": "NM", "addr:street_address": "108 E ARGYLE ST", "amenity": "post_box", "brand": "United States Postal Service", "brand:wikidata": "Q668687", "collection_times": "Mo-Fr 14:00; Sa 09:45", "indoor": "yes", "note": "ON 12/24 AND 12/31, THIS BOX MAY BE COLLECTED AS EARLY AS 12 NOON.", "nsi_id": "unitedstatespostalservice-a77078", "operator": "United States Postal Service", "operator:short": "USPS", "operator:type": "public", "operator:wikidata": "Q668687", "ref": "8823200004"}, "type": "Feature"}
{"geometry": {"coordinates": [-103.13096, 32.719513], "type": "Point"}, "id": "OVUNIOsKuwEhGQZrMXa7lheojXc=", "properties": {"@source_uri": "https://tools.usps.com/UspsToolsRestServices/rest/POLocator/findLocations", "@spider": "usps_collection_boxes", "addr:city": "HOBBS", "addr:country": "US", "addr:postcode": "88240", "addr:state": "NM", "addr:street_address": "2200 N ALTO DR", "amenity": "post_box", "brand": "United States Postal Service", "brand:wikidata": "Q668687", "collection_times": "Mo-Fr 17:00; Sa 16:45", "indoor": "yes", "note": "ON 12/24 AND 12/31, THIS BOX MAY BE COLLECTED AS EARLY AS 12 NOON.", "nsi_id": "unitedstatespostalservice-a77078", "operator": "United States Postal Service", "operator:short": "USPS", "operator:type": "public", "operator:wikidata": "Q668687", "ref": "8824000000"}, "type": "Feature"}
{"geometry": {"coordinates": [-103.129307983, 32.7250769887], "type": "Point"}, "id": "CaxAZm_u1whwEV5LgNLZrow8kyE=", "properties": {"@source_uri": "https://tools.usps.com/UspsToolsRestServices/rest/POLocator/findLocations", "@spider": "usps_collection_boxes", "addr:city": "HOBBS", "addr:country": "US", "addr:postcode": "88240", "addr:state": "NM", "addr:street_address": "2200 N ALTO DR", "amenity": "post_box", "brand": "United States Postal Service", "brand:wikidata": "Q668687", "collection_times": "Mo-Fr 17:00; Sa 16:15", "note": "ON 12/24 AND 12/31, THIS BOX MAY BE COLLECTED AS EARLY AS 12 NOON.", "nsi_id": "unitedstatespostalservice-a77078", "operator": "United States Postal Service", "operator:short": "USPS", "operator:type": "public", "operator:wikidata": "Q668687", "ref": "8824000007"}, "type": "Feature"}
{"geometry": {"coordinates": [-103.129307983, 32.7250769887], "type": "Point"}, "id": "dJtbGp9tqV6vTs5TKnIRK9-MSQM=", "properties": {"@source_uri": "https://tools.usps.com/UspsToolsRestServices/rest/POLocator/findLocations", "@spider": "usps_collection_boxes", "addr:city": "HOBBS", "addr:country": "US", "addr:postcode": "88240", "addr:state": "NM", "addr:street_address": "2200 N ALTO DR", "amenity": "post_box", "brand": "United States Postal Service", "brand:wikidata": "Q668687", "collection_times": "Mo-Fr 17:00; Sa 16:15", "note": "ON 12/24 AND 12/31, THIS BOX MAY BE COLLECTED AS EARLY AS 12 NOON.", "nsi_id": "unitedstatespostalservice-a77078", "operator": "United States Postal Service", "operator:short": "USPS", "operator:type": "public", "operator:wikidata": "Q668687", "ref": "8824000008"}, "type": "Feature"}
{"geometry": {"coordinates": [-103.129307983, 32.7250769887], "type": "Point"}, "id": "Jk5jWARjMbGB5BNdpXD4ggLjDj0=", "properties": {"@source_uri": "https://tools.usps.com/UspsToolsRestServices/rest/POLocator/findLocations", "@spider": "usps_collection_boxes", "addr:city": "HOBBS", "addr:country": "US", "addr:postcode": "88240", "addr:state": "NM", "addr:street_address": "2200 N ALTO DR", "amenity": "post_box", "brand": "United States Postal Service", "brand:wikidata": "Q668687", "collection_times": "Mo-Fr 17:00; Sa 16:15", "note": "ON 12/24 AND 12/31, THIS BOX MAY BE COLLECTED AS EARLY AS 12 NOON.", "nsi_id": "unitedstatespostalservice-a77078", "operator": "United States Postal Service", "operator:short": "USPS", "operator:type": "public", "operator:wikidata": "Q668687", "ref": "8824000014"}, "type": "Feature"}
{"geometry": {"coordinates": [-103.129307983, 32.7250769887], "type": "Point"}, "id": "-745Fkmj2p6KHMpsf4NrRYxvsq8=", "properties": {"@source_uri": "https://tools.usps.com/UspsToolsRestServices/rest/POLocator/findLocations", "@spider": "usps_collection_boxes", "addr:city": "HOBBS", "addr:country": "US", "addr:postcode": "88240", "addr:state": "NM", "addr:street_address": "2200 N ALTO DR", "amenity": "post_box", "brand": "United States Postal Service", "brand:wikidata": "Q668687", "collection_times": "Mo-Fr 17:00; Sa 16:15", "note": "ON 12/24 AND 12/31, THIS BOX MAY BE COLLECTED AS EARLY AS 12 NOON.", "nsi_id": "unitedstatespostalservice-a77078", "operator": "United States Postal Service", "operator:short": "USPS", "operator:type": "public", "operator:wikidata": "Q668687", "ref": "8824000015"}, "type": "Feature"}
{"geometry": {"coordinates": [-103.13096, 32.719513], "type": "Point"}, "id": "t0xHu0eL8egNyHnFb47G_J2wIKo=", "properties": {"@source_uri": "https://tools.usps.com/UspsToolsRestServices/rest/POLocator/findLocations", "@spider": "usps_collection_boxes", "addr:city": "HOBBS", "addr:country": "US", "addr:postcode": "88240", "addr:state": "NM", "addr:street_address": "2200 N ALTO DR", "amenity": "post_box", "brand": "United States Postal Service", "brand:wikidata": "Q668687", "collection_times": "Mo-Fr 17:00; Sa 16:45", "indoor": "yes", "note": "ON 12/24 AND 12/31, THIS BOX MAY BE COLLECTED AS EARLY AS 12 NOON.", "nsi_id": "unitedstatespostalservice-a77078", "operator": "United States Postal Service", "operator:short": "USPS", "operator:type": "public", "operator:wikidata": "Q668687", "ref": "8824000029"}, "type": "Feature"}
{"geometry": {"coordinates": [-103.13096, 32.719513], "type": "Point"}, "id": "94kPb4TKLP9L7nFqR5VObQoQg0s=", "properties": {"@source_uri": "https://tools.usps.com/UspsToolsRestServices/rest/POLocator/findLocations", "@spider": "usps_collection_boxes", "addr:city": "HOBBS", "addr:country": "US", "addr:postcode": "88240", "addr:state": "NM", "addr:street_address": "2200 N ALTO DR", "amenity": "post_box", "brand": "United States Postal Service", "brand:wikidata": "Q668687", "collection_times": "Mo-Fr 17:00; Sa 16:45", "indoor": "yes", "note": "ON 12/24 AND 12/31, THIS BOX MAY BE COLLECTED AS EARLY AS 12 NOON.", "nsi_id": "unitedstatespostalservice-a77078", "operator": "United States Postal Service", "operator:short": "USPS", "operator:type": "public", "operator:wikidata": "Q668687", "ref": "8824000030"}, "type": "Feature"}
{"geometry": {"coordinates": [-103.129493701, 32.72466584], "type": "Point"}, "id": "rtjEvRgvtRG0nFe1WMVUXt-aFzU=", "properties": {"@source_uri": "https://tools.usps.com/UspsToolsRestServices/rest/POLocator/findLocations", "@spider": "usps_collection_boxes", "addr:city": "HOBBS", "addr:country": "US", "addr:postcode": "88240", "addr:state": "NM", "addr:street_address": "2200 N ALTO DR", "amenity": "post_box", "brand": "United States Postal Service", "brand:wikidata": "Q668687", "collection_times": "Mo-Fr 17:00; Sa 16:45", "indoor": "yes", "note": "ON 12/24 AND 12/31, THIS BOX MAY BE COLLECTED AS EARLY AS 12 NOON.", "nsi_id": "unitedstatespostalservice-a77078", "operator": "United States Postal Service", "operator:short": "USPS", "operator:type": "public", "operator:wikidata": "Q668687", "ref": "8824000035"}, "type": "Feature"}
{"geometry": {"coordinates": [-104.733926, 32.810491], "type": "Point"}, "id": "0xpK_B_-3hPmy-CLdWlMYdpkt2k=", "properties": {"@source_uri": "https://tools.usps.com/UspsToolsRestServices/rest/POLocator/findLocations", "@spider": "usps_collection_boxes", "addr:city": "HOPE", "addr:country": "US", "addr:postcode": "88250", "addr:state": "NM", "addr:street_address": "810 MAIN ST", "amenity": "post_box", "brand": "United States Postal Service", "brand:wikidata": "Q668687", "collection_times": "Mo-Fr 14:00; Sa 11:45", "note": "ON 12/24 AND 12/31, THIS BOX MAY BE COLLECTED AS EARLY AS 12 NOON.", "nsi_id": "unitedstatespostalservice-a77078", "operator": "United States Postal Service", "operator:short": "USPS", "operator:type": "public", "operator:wikidata": "Q668687", "ref": "8825000000"}, "type": "Feature"}
{"geometry": {"coordinates": [-104.733431026, 32.810483504], "type": "Point"}, "id": "dw0rxK4rTSUUaK1ZAP9GWdAvYI0=", "properties": {"@source_uri": "https://tools.usps.com/UspsToolsRestServices/rest/POLocator/findLocations", "@spider": "usps_collection_boxes", "addr:city": "HOPE", "addr:country": "US", "addr:postcode": "88250", "addr:state": "NM", "addr:street_address": "810 MAIN ST", "amenity": "post_box", "brand": "United States Postal Service", "brand:wikidata": "Q668687", "collection_times": "Mo-Fr 14:00; Sa 11:45", "indoor": "yes", "note": "ON 12/24 AND 12/31, THIS BOX MAY BE COLLECTED AS EARLY AS 12 NOON.", "nsi_id": "unitedstatespostalservice-a77078", "operator": "United States Postal Service", "operator:short": "USPS", "operator:type": "public", "operator:wikidata": "Q668687", "ref": "8825000002"}, "type": "Feature"}
{"geometry": {"coordinates": [-103.194632, 32.115691], "type": "Point"}, "id": "kej76mhQLgVjZ87eJK3UT4YQke8=", "properties": {"@source_uri": "https://tools.usps.com/UspsToolsRestServices/rest/POLocator/findLocations", "@spider": "usps_collection_boxes", "addr:city": "JAL", "addr:country": "US", "addr:postcode": "88252", "addr:state": "NM", "addr:street_address": "111 S 4TH ST", "amenity": "post_box", "brand": "United States Postal Service", "brand:wikidata": "Q668687", "collection_times": "Mo-Fr 15:00; Sa 12:00", "note": "ON 12/24 AND 12/31, THIS BOX MAY BE COLLECTED AS EARLY AS 12 NOON.", "nsi_id": "unitedstatespostalservice-a77078", "operator": "United States Postal Service", "operator:short": "USPS", "operator:type": "public", "operator:wikidata": "Q668687", "ref": "8825200000"}, "type": "Feature"}
{"geometry": {"coordinates": [-103.1946, 32.115745], "type": "Point"}, "id": "XgMECV6NJOSIRGxWI2BE4fOogxA=", "properties": {"@source_uri": "https://tools.usps.com/UspsToolsRestServices/rest/POLocator/findLocations", "@spider": "usps_collection_boxes", "addr:city": "JAL", "addr:country": "US", "addr:postcode": "88252", "addr:state": "NM", "addr:street_address": "111 S 4TH ST", "amenity": "post_box", "brand": "United States Postal Service", "brand:wikidata": "Q668687", "collection_times": "Mo-Fr 15:00; Sa 12:00", "indoor": "yes", "note": "ON 12/24 AND 12/31, THIS BOX MAY BE COLLECTED AS EARLY AS 12 NOON.", "nsi_id": "unitedstatespostalservice-a77078", "operator": "United States Postal Service", "operator:short": "USPS", "operator:type": "public", "operator:wikidata": "Q668687", "ref": "8825200001"}, "type": "Feature"}
{"geometry": {"coordinates": [-103.1946, 32.115745], "type": "Point"}, "id": "JBWExJFBq4BuWjW9JXZVZEuQSmY=", "properties": {"@source_uri": "https://tools.usps.com/UspsToolsRestServices/rest/POLocator/findLocations", "@spider": "usps_collection_boxes", "addr:city": "JAL", "addr:country": "US", "addr:postcode": "88252", "addr:state": "NM", "addr:street_address": "111 S 4TH ST", "amenity": "post_box", "brand": "United States Postal Service", "brand:wikidata": "Q668687", "collection_times": "Mo-Fr 15:00; Sa 12:00", "indoor": "yes", "note": "ON 12/24 AND 12/31, THIS BOX MAY BE COLLECTED AS EARLY AS 12 NOON.", "nsi_id": "unitedstatespostalservice-a77078", "operator": "United States Postal Service", "operator:short": "USPS", "operator:type": "public", "operator:wikidata": "Q668687", "ref": "8825200002"}, "type": "Feature"}
{"geometry": {"coordinates": [-103.1946439385, 32.115483], "type": "Point"}, "id": "EWRb1U1DcQEJn1QDhtinYCNpEYQ=", "properties": {"@source_uri": "https://tools.usps.com/UspsToolsRestServices/rest/POLocator/findLocations", "@spider": "usps_collection_boxes", "addr:city": "JAL", "addr:country": "US", "addr:postcode": "88252", "addr:state": "NM", "addr:street_address": "111 S 4TH ST", "amenity": "post_box", "brand": "United States Postal Service", "brand:wikidata": "Q668687", "collection_times": "Mo-Fr 15:00; Sa 12:00", "indoor": "yes", "note": "ON 12/24 AND 12/31, THIS BOX MAY BE COLLECTED AS EARLY AS 12 NOON.", "nsi_id": "unitedstatespostalservice-a77078", "operator": "United States Postal Service", "operator:short": "USPS", "operator:type": "public", "operator:wikidata": "Q668687", "ref": "8825200003"}, "type": "Feature"}
{"geometry": {"coordinates": [-104.364474, 32.998263], "type": "Point"}, "id": "3M2BZgn8yjgpN2Avo4JIWSNNVOg=", "properties": {"@source_uri": "https://tools.usps.com/UspsToolsRestServices/rest/POLocator/findLocations", "@spider": "usps_collection_boxes", "addr:city": "LAKE ARTHUR", "addr:country": "US", "addr:postcode": "88253", "addr:state": "NM", "addr:street_address": "506 N NEVADA RD", "amenity": "post_box", "brand": "United States Postal Service", "brand:wikidata": "Q668687", "collection_times": "Mo-Fr 15:30; Sa 09:15", "note": "ON 12/24 AND 12/31, THIS BOX MAY BE COLLECTED AS EARLY AS 12 NOON.", "nsi_id": "unitedstatespostalservice-a77078", "operator": "United States Postal Service", "operator:short": "USPS", "operator:type": "public", "operator:wikidata": "Q668687", "ref": "8825300000"}, "type": "Feature"}
{"geometry": {"coordinates": [-104.364508, 32.998196], "type": "Point"}, "id": "GOtedmAUt5njLMYJ22i8eqdO7eA=", "properties": {"@source_uri": "https://tools.usps.com/UspsToolsRestServices/rest/POLocator/findLocations", "@spider": "usps_collection_boxes", "addr:city": "LAKE ARTHUR", "addr:country": "US", "addr:postcode": "88253", "addr:state": "NM", "addr:street_address": "506 N NEVADA RD", "amenity": "post_box", "brand": "United States Postal Service", "brand:wikidata": "Q668687", "collection_times": "Mo-Fr 12:00; Sa 09:15", "indoor": "yes", "nsi_id": "unitedstatespostalservice-a77078", "operator": "United States Postal Service", "operator:short": "USPS", "operator:type": "public", "operator:wikidata": "Q668687", "ref": "8825300001"}, "type": "Feature"}
{"geometry": {"coordinates": [-104.3644536151, 32.9982279759], "type": "Point"}, "id": "sry-9mQW5IHZlUL1yZs_PZBtsJ8=", "properties": {"@source_uri": "https://tools.usps.com/UspsToolsRestServices/rest/POLocator/findLocations", "@spider": "usps_collection_boxes", "addr:city": "LAKE ARTHUR", "addr:country": "US", "addr:postcode": "88253", "addr:state": "NM", "addr:street_address": "506 N NEVADA RD", "amenity": "post_box", "brand": "United States Postal Service", "brand:wikidata": "Q668687", "collection_times": "Mo-Fr 12:00; Sa 09:15", "indoor": "yes", "nsi_id": "unitedstatespostalservice-a77078", "operator": "United States Postal Service", "operator:short": "USPS", "operator:type": "public", "operator:wikidata": "Q668687", "ref": "8825300002"}, "type": "Feature"}
{"geometry": {"coordinates": [-104.369931, 32.6323815022], "type": "Point"}, "id": "4CGY_ICGCYUQS7uHDi7nhtyT67E=", "properties": {"@source_uri": "https://tools.usps.com/UspsToolsRestServices/rest/POLocator/findLocations", "@spider": "usps_collection_boxes", "addr:city": "LAKEWOOD", "addr:country": "US", "addr:postcode": "88254", "addr:state": "NM", "addr:street_address": "194 LAKEWOOD RD", "amenity": "post_box", "brand": "United States Postal Service", "brand:wikidata": "Q668687", "collection_times": "Mo-Fr 12:00; Sa 09:00", "nsi_id": "unitedstatespostalservice-a77078", "operator": "United States Postal Service", "operator:short": "USPS", "operator:type": "public", "operator:wikidata": "Q668687", "ref": "8825400002"}, "type": "Feature"}
{"geometry": {"coordinates": [-104.369931, 32.6323815022], "type": "Point"}, "id": "J88QBB6yDRUiFhVWF9r2vZaN0HY=", "properties": {"@source_uri": "https://tools.usps.com/UspsToolsRestServices/rest/POLocator/findLocations", "@spider": "usps_collection_boxes", "addr:city": "LAKEWOOD", "addr:country": "US", "addr:postcode": "88254", "addr:state": "NM", "addr:street_address": "194 LAKEWOOD RD", "amenity": "post_box", "brand": "United States Postal Service", "brand:wikidata": "Q668687", "collection_times": "Mo-Fr 12:00; Sa 09:00", "indoor": "yes", "nsi_id": "unitedstatespostalservice-a77078", "operator": "United States Postal Service", "operator:short": "USPS", "operator:type": "public", "operator:wikidata": "Q668687", "ref": "8825400003"}, "type": "Feature"}
{"geometry": {"coordinates": [-104.369931, 32.6323815022], "type": "Point"}, "id": "2HYTkHuVeR3jFDNZwx8JwlhDEj0=", "properties": {"@source_uri": "https://tools.usps.com/UspsToolsRestServices/rest/POLocator/findLocations", "@spider": "usps_collection_boxes", "addr:city": "LAKEWOOD", "addr:country": "US", "addr:postcode": "88254", "addr:state": "NM", "addr:street_address": "194 LAKEWOOD RD", "amenity": "post_box", "brand": "United States Postal Service", "brand:wikidata": "Q668687", "collection_times": "Mo-Fr 12:00; Sa 09:00", "indoor": "yes", "nsi_id": "unitedstatespostalservice-a77078", "operator": "United States Postal Service", "operator:short": "USPS", "operator:type": "public", "operator:wikidata": "Q668687", "ref": "8825400004"}, "type": "Feature"}
{"geometry": {"coordinates": [-103.97862, 32.818827], "type": "Point"}, "id": "YL0Ua07ZvfQTFHwRzPvhq-3JtHQ=", "properties": {"@source_uri": "https://tools.usps.com/UspsToolsRestServices/rest/POLocator/findLocations", "@spider": "usps_collection_boxes", "addr:city": "LOCO HILLS", "addr:country": "US", "addr:postcode": "88255", "addr:state": "NM", "addr:street_address": "3 GOAT ROPER RD", "amenity": "post_box", "brand": "United States Postal Service", "brand:wikidata": "Q668687", "collection_times": "Mo-Fr 12:00; Sa 10:00", "indoor": "yes", "nsi_id": "unitedstatespostalservice-a77078", "operator": "United States Postal Service", "operator:short": "USPS", "operator:type": "public", "operator:wikidata": "Q668687", "ref": "8825500001"}, "type": "Feature"}
{"geometry": {"coordinates": [-103.97866241, 32.819119093], "type": "Point"}, "id": "vT2R1jGNDM17Ux3emb6gG4PlgR8=", "properties": {"@source_uri": "https://tools.usps.com/UspsToolsRestServices/rest/POLocator/findLocations", "@spider": "usps_collection_boxes", "addr:city": "LOCO HILLS", "addr:country": "US", "addr:postcode": "88255", "addr:state": "NM", "addr:street_address": "3 GOAT ROPER RD", "amenity": "post_box", "brand": "United States Postal Service", "brand:wikidata": "Q668687", "collection_times": "Mo-Fr 11:45; Sa 09:45", "indoor": "yes", "nsi_id": "unitedstatespostalservice-a77078", "operator": "United States Postal Service", "operator:short": "USPS", "operator:type": "public", "operator:wikidata": "Q668687", "ref": "8825500003"}, "type": "Feature"}
{"geometry": {"coordinates": [-104.100987, 32.284753], "type": "Point"}, "id": "YNI_5eDr-sWzDHx6E_yWc1oV6LA=", "properties": {"@source_uri": "https://tools.usps.com/UspsToolsRestServices/rest/POLocator/findLocations", "@spider": "usps_collection_boxes", "addr:city": "LOVING", "addr:country": "US", "addr:postcode": "88256", "addr:state": "NM", "addr:street_address": "402 W BEECH ST", "amenity": "post_box", "brand": "United States Postal Service", "brand:wikidata": "Q668687", "collection_times": "Mo-Fr 15:45; Sa 13:00", "note": "ON 12/24 AND 12/31, THIS BOX MAY BE COLLECTED AS EARLY AS 12 NOON.", "nsi_id": "unitedstatespostalservice-a77078", "operator": "United States Postal Service", "operator:short": "USPS", "operator:type": "public", "operator:wikidata": "Q668687", "ref": "8825600000"}, "type": "Feature"}
{"geometry": {"coordinates": [-104.100987, 32.284753], "type": "Point"}, "id": "h7xFSO1uD0T0-B3WnslyBvbU7iE=", "properties": {"@source_uri": "https://tools.usps.com/UspsToolsRestServices/rest/POLocator/findLocations", "@spider": "usps_collection_boxes", "addr:city": "LOVING", "addr:country": "US", "addr:postcode": "88256", "addr:state": "NM", "addr:street_address": "402 W BEECH ST", "amenity": "post_box", "brand": "United States Postal Service", "brand:wikidata": "Q668687", "collection_times": "Mo-Fr 15:45; Sa 13:00", "indoor": "yes", "note": "ON 12/24 AND 12/31, THIS BOX MAY BE COLLECTED AS EARLY AS 12 NOON.", "nsi_id": "unitedstatespostalservice-a77078", "operator": "United States Postal Service", "operator:short": "USPS", "operator:type": "public", "operator:wikidata": "Q668687", "ref": "8825600001"}, "type": "Feature"}
{"geometry": {"coordinates": [-104.096001945, 32.284787468], "type": "Point"}, "id": "L3M3zKJu2UHurTb186-5vBXxD8s=", "properties": {"@source_uri": "https://tools.usps.com/UspsToolsRestServices/rest/POLocator/findLocations", "@spider": "usps_collection_boxes", "addr:city": "LOVING", "addr:country": "US", "addr:postcode": "88256", "addr:state": "NM", "addr:street_address": "402 W BEECH ST", "amenity": "post_box", "brand": "United States Postal Service", "brand:wikidata": "Q668687", "collection_times": "Mo-Fr 15:45; Sa 13:00", "indoor": "yes", "note": "ON 12/24 AND 12/31, THIS BOX MAY BE COLLECTED AS EARLY AS 12 NOON.", "nsi_id": "unitedstatespostalservice-a77078", "operator": "United States Postal Service", "operator:short": "USPS", "operator:type": "public", "operator:wikidata": "Q668687", "ref": "8825600002"}, "type": "Feature"}
{"geometry": {"coordinates": [-103.347241, 32.943971], "type": "Point"}, "id": "OUU68uEhmsgzgNbx05k8XvCbmVQ=", "properties": {"@source_uri": "https://tools.usps.com/UspsToolsRestServices/rest/POLocator/findLocations", "@spider": "usps_collection_boxes", "addr:city": "LOVINGTON", "addr:country": "US", "addr:postcode": "88260", "addr:state": "NM", "addr:street_address": "203 E AVENUE D", "amenity": "post_box", "brand": "United States Postal Service", "brand:wikidata": "Q668687", "collection_times": "Mo-Fr 17:00; Sa 12:00", "indoor": "yes", "note": "ON 12/24 AND 12/31, THIS BOX MAY BE COLLECTED AS EARLY AS 12 NOON.", "nsi_id": "unitedstatespostalservice-a77078", "operator": "United States Postal Service", "operator:short": "USPS", "operator:type": "public", "operator:wikidata": "Q668687", "ref": "8826000000"}, "type": "Feature"}
{"geometry": {"coordinates": [-103.347342, 32.943941], "type": "Point"}, "id": "23BD3CW-IdaMsvIefN1dAwGFmbM=", "properties": {"@source_uri": "https://tools.usps.com/UspsToolsRestServices/rest/POLocator/findLocations", "@spider": "usps_collection_boxes", "addr:city": "LOVINGTON", "addr:country": "US", "addr:postcode": "88260", "addr:state": "NM", "addr:street_address": "203 E AVENUE D", "amenity": "post_box", "brand": "United States Postal Service", "brand:wikidata": "Q668687", "collection_times": "Mo-Fr 17:00; Sa 12:00", "note": "ON 12/24 AND 12/31, THIS BOX MAY BE COLLECTED AS EARLY AS 12 NOON.", "nsi_id": "unitedstatespostalservice-a77078", "operator": "United States Postal Service", "operator:short": "USPS", "operator:type": "public", "operator:wikidata": "Q668687", "ref": "8826000001"}, "type": "Feature"}
{"geometry": {"coordinates": [-103.347342, 32.943941], "type": "Point"}, "id": "enG96M9LzbCQuK5rJ-mxLyuTsUE=", "properties": {"@source_uri": "https://tools.usps.com/UspsToolsRestServices/rest/POLocator/findLocations", "@spider": "usps_collection_boxes", "addr:city": "LOVINGTON", "addr:country": "US", "addr:postcode": "88260", "addr:state": "NM", "addr:street_address": "203 E AVENUE D", "amenity": "post_box", "brand": "United States Postal Service", "brand:wikidata": "Q668687", "collection_times": "Mo-Fr 17:00; Sa 12:00", "note": "ON 12/24 AND 12/31, THIS BOX MAY BE COLLECTED AS EARLY AS 12 NOON.", "nsi_id": "unitedstatespostalservice-a77078", "operator": "United States Postal Service", "operator:short": "USPS", "operator:type": "public", "operator:wikidata": "Q668687", "ref": "8826000002"}, "type": "Feature"}
{"geometry": {"coordinates": [-103.347342, 32.943941], "type": "Point"}, "id": "PLtIdC9oIEbT3POhY5EOSHJikEw=", "properties": {"@source_uri": "https://tools.usps.com/UspsToolsRestServices/rest/POLocator/findLocations", "@spider": "usps_collection_boxes", "addr:city": "LOVINGTON", "addr:country": "US", "addr:postcode": "88260", "addr:state": "NM", "addr:street_address": "203 E AVENUE D", "amenity": "post_box", "brand": "United States Postal Service", "brand:wikidata": "Q668687", "collection_times": "Mo-Fr 17:00; Sa 12:00", "indoor": "yes", "note": "ON 12/24 AND 12/31, THIS BOX MAY BE COLLECTED AS EARLY AS 12 NOON.", "nsi_id": "unitedstatespostalservice-a77078", "operator": "United States Postal Service", "operator:short": "USPS", "operator:type": "public", "operator:wikidata": "Q668687", "ref": "8826000004"}, "type": "Feature"}
{"geometry": {"coordinates": [-103.360347, 32.944556], "type": "Point"}, "id": "Is8EM4eGKcyk2n-zhdI02-meGes=", "properties": {"@source_uri": "https://tools.usps.com/UspsToolsRestServices/rest/POLocator/findLocations", "@spider": "usps_collection_boxes", "addr:city": "LOVINGTON", "addr:country": "US", "addr:postcode": "88260", "addr:state": "NM", "addr:street_address": "900 W AVENUE D", "amenity": "post_box", "brand": "United States Postal Service", "brand:wikidata": "Q668687", "collection_times": "Mo-Fr 14:30; Sa 12:00", "note": "ON 12/24 AND 12/31, THIS BOX MAY BE COLLECTED AS EARLY AS 12 NOON.", "nsi_id": "unitedstatespostalservice-a77078", "operator": "United States Postal Service", "operator:short": "USPS", "operator:type": "public", "operator:wikidata": "Q668687", "ref": "8826000005"}, "type": "Feature"}
{"geometry": {"coordinates": [-103.347090587, 32.943969449], "type": "Point"}, "id": "-Z7AqzVmEx_lmmq0asVR0CaQGGY=", "properties": {"@source_uri": "https://tools.usps.com/UspsToolsRestServices/rest/POLocator/findLocations", "@spider": "usps_collection_boxes", "addr:city": "LOVINGTON", "addr:country": "US", "addr:postcode": "88260", "addr:state": "NM", "addr:street_address": "203 E AVENUE D", "amenity": "post_box", "brand": "United States Postal Service", "brand:wikidata": "Q668687", "collection_times": "Mo-Fr 17:00; Sa 12:00", "indoor": "yes", "note": "ON 12/24 AND 12/31, THIS BOX MAY BE COLLECTED AS EARLY AS 12 NOON.", "nsi_id": "unitedstatespostalservice-a77078", "operator": "United States Postal Service", "operator:short": "USPS", "operator:type": "public", "operator:wikidata": "Q668687", "ref": "8826000009"}, "type": "Feature"}
{"geometry": {"coordinates": [-104.072158, 32.225301], "type": "Point"}, "id": "XZM-i_XZX4FHKNtb6q8IM51WRio=", "properties": {"@source_uri": "https://tools.usps.com/UspsToolsRestServices/rest/POLocator/findLocations", "@spider": "usps_collection_boxes", "addr:city": "MALAGA", "addr:country": "US", "addr:postcode": "88263", "addr:state": "NM", "addr:street_address": "1623 PECOS HWY", "amenity": "post_box", "brand": "United States Postal Service", "brand:wikidata": "Q668687", "collection_times": "Mo-Fr 14:30; Sa 10:15", "note": "ON 12/24 AND 12/31, THIS BOX MAY BE COLLECTED AS EARLY AS 12 NOON.", "nsi_id": "unitedstatespostalservice-a77078", "operator": "United States Postal Service", "operator:short": "USPS", "operator:type": "public", "operator:wikidata": "Q668687", "ref": "8826300000"}, "type": "Feature"}
{"geometry": {"coordinates": [-104.072158, 32.225301], "type": "Point"}, "id": "Wv4eFCC6R3WOojswwcn3dPp6SEA=", "properties": {"@source_uri": "https://tools.usps.com/UspsToolsRestServices/rest/POLocator/findLocations", "@spider": "usps_collection_boxes", "addr:city": "MALAGA", "addr:country": "US", "addr:postcode": "88263", "addr:state": "NM", "addr:street_address": "1623 PECOS HWY", "amenity": "post_box", "brand": "United States Postal Service", "brand:wikidata": "Q668687", "collection_times": "Mo-Fr 14:30; Sa 10:15", "indoor": "yes", "note": "ON 12/24 AND 12/31, THIS BOX MAY BE COLLECTED AS EARLY AS 12 NOON.", "nsi_id": "unitedstatespostalservice-a77078", "operator": "United States Postal Service", "operator:short": "USPS", "operator:type": "public", "operator:wikidata": "Q668687", "ref": "8826300001"}, "type": "Feature"}
{"geometry": {"coordinates": [-104.072158, 32.225301], "type": "Point"}, "id": "-ZYpdke4mMhcVTnO4PbmHBQmn1A=", "properties": {"@source_uri": "https://tools.usps.com/UspsToolsRestServices/rest/POLocator/findLocations", "@spider": "usps_collection_boxes", "addr:city": "MALAGA", "addr:country": "US", "addr:postcode": "88263", "addr:state": "NM", "addr:street_address": "1623 PECOS HWY", "amenity": "post_box", "brand": "United States Postal Service", "brand:wikidata": "Q668687", "collection_times": "Mo-Fr 14:30; Sa 10:15", "indoor": "yes", "note": "ON 12/24 AND 12/31, THIS BOX MAY BE COLLECTED AS EARLY AS 12 NOON.", "nsi_id": "unitedstatespostalservice-a77078", "operator": "United States Postal Service", "operator:short": "USPS", "operator:type": "public", "operator:wikidata": "Q668687", "ref": "8826300002"}, "type": "Feature"}
{"geometry": {"coordinates": [-104.0721829674, 32.2247974716], "type": "Point"}, "id": "YMqLEpJ-N2ksM-iwRRsq6ykdHPI=", "properties": {"@source_uri": "https://tools.usps.com/UspsToolsRestServices/rest/POLocator/findLocations", "@spider": "usps_collection_boxes", "addr:city": "MALAGA", "addr:country": "US", "addr:postcode": "88263", "addr:state": "NM", "addr:street_address": "1623 PECOS HWY", "amenity": "post_box", "brand": "United States Postal Service", "brand:wikidata": "Q668687", "collection_times": "Mo-Fr 14:30; Sa 10:15", "indoor": "yes", "note": "ON 12/24 AND 12/31, THIS BOX MAY BE COLLECTED AS EARLY AS 12 NOON.", "nsi_id": "unitedstatespostalservice-a77078", "operator": "United States Postal Service", "operator:short": "USPS", "operator:type": "public", "operator:wikidata": "Q668687", "ref": "8826300003"}, "type": "Feature"}
{"geometry": {"coordinates": [-103.7672524222, 32.856500164], "type": "Point"}, "id": "0iuFUiHP1ILKHUQ3aHGdpSz9Tho=", "properties": {"@source_uri": "https://tools.usps.com/UspsToolsRestServices/rest/POLocator/findLocations", "@spider": "usps_collection_boxes", "addr:city": "MALJAMAR", "addr:country": "US", "addr:postcode": "88264", "addr:state": "NM", "addr:street_address": "11060 HIGHWAY 82", "amenity": "post_box", "brand": "United States Postal Service", "brand:wikidata": "Q668687", "collection_times": "Mo-Fr 11:30; Sa 11:00", "nsi_id": "unitedstatespostalservice-a77078", "operator": "United States Postal Service", "operator:short": "USPS", "operator:type": "public", "operator:wikidata": "Q668687", "ref": "8826400000"}, "type": "Feature"}
{"geometry": {"coordinates": [-103.7672524222, 32.856500164], "type": "Point"}, "id": "6fji3OUnjhpL87k7BjgoQBqwZdY=", "properties": {"@source_uri": "https://tools.usps.com/UspsToolsRestServices/rest/POLocator/findLocations", "@spider": "usps_collection_boxes", "addr:city": "MALJAMAR", "addr:country": "US", "addr:postcode": "88264", "addr:state": "NM", "addr:street_address": "11060 HIGHWAY 82", "amenity": "post_box", "brand": "United States Postal Service", "brand:wikidata": "Q668687", "collection_times": "Mo-Fr 11:30; Sa 11:00", "indoor": "yes", "nsi_id": "unitedstatespostalservice-a77078", "operator": "United States Postal Service", "operator:short": "USPS", "operator:type": "public", "operator:wikidata": "Q668687", "ref": "8826400002"}, "type": "Feature"}
{"geometry": {"coordinates": [-103.2765464022, 32.6203109905], "type": "Point"}, "id": "Mj_gnoI2ykj9OJhGNhS1GTW4VBg=", "properties": {"@source_uri": "https://tools.usps.com/UspsToolsRestServices/rest/POLocator/findLocations", "@spider": "usps_collection_boxes", "addr:city": "MONUMENT", "addr:country": "US", "addr:postcode": "88265", "addr:state": "NM", "addr:street_address": "9921 W NM HIGHWAY 322", "amenity": "post_box", "brand": "United States Postal Service", "brand:wikidata": "Q668687", "collection_times": "Mo-Sa 11:15", "nsi_id": "unitedstatespostalservice-a77078", "operator": "United States Postal Service", "operator:short": "USPS", "operator:type": "public", "operator:wikidata": "Q668687", "ref": "8826500000"}, "type": "Feature"}
{"geometry": {"coordinates": [-103.2765464022, 32.6203109905], "type": "Point"}, "id": "zdphFCNMU_zzQr3nfnRRIpG1b90=", "properties": {"@source_uri": "https://tools.usps.com/UspsToolsRestServices/rest/POLocator/findLocations", "@spider": "usps_collection_boxes", "addr:city": "MONUMENT", "addr:country": "US", "addr:postcode": "88265", "addr:state": "NM", "addr:street_address": "9921 W NM HIGHWAY 322", "amenity": "post_box", "brand": "United States Postal Service", "brand:wikidata": "Q668687", "collection_times": "Mo-Sa 11:15", "indoor": "yes", "nsi_id": "unitedstatespostalservice-a77078", "operator": "United States Postal Service", "operator:short": "USPS", "operator:type": "public", "operator:wikidata": "Q668687", "ref": "8826500001"}, "type": "Feature"}
{"geometry": {"coordinates": [-103.265901, 32.624028525], "type": "Point"}, "id": "wb7kbULvZQt-p-h9YbWGX06IBSE=", "properties": {"@source_uri": "https://tools.usps.com/UspsToolsRestServices/rest/POLocator/findLocations", "@spider": "usps_collection_boxes", "addr:city": "MONUMENT", "addr:country": "US", "addr:postcode": "88265", "addr:state": "NM", "addr:street_address": "9921 W NM HIGHWAY 322", "amenity": "post_box", "brand": "United States Postal Service", "brand:wikidata": "Q668687", "collection_times": "Mo-Sa 11:15", "indoor": "yes", "nsi_id": "unitedstatespostalservice-a77078", "operator": "United States Postal Service", "operator:short": "USPS", "operator:type": "public", "operator:wikidata": "Q668687", "ref": "8826500002"}, "type": "Feature"}
{"geometry": {"coordinates": [-103.318919, 33.255708], "type": "Point"}, "id": "fPdZIFUFcwbLSWU9LQi2JdhDPAI=", "properties": {"@source_uri": "https://tools.usps.com/UspsToolsRestServices/rest/POLocator/findLocations", "@spider": "usps_collection_boxes", "addr:city": "TATUM", "addr:country": "US", "addr:postcode": "88267", "addr:state": "NM", "addr:street_address": "114 S AVENUE A", "amenity": "post_box", "brand": "United States Postal Service", "brand:wikidata": "Q668687", "collection_times": "Mo-Fr 16:15", "note": "ON 12/24 AND 12/31, THIS BOX MAY BE COLLECTED AS EARLY AS 12 NOON.", "nsi_id": "unitedstatespostalservice-a77078", "operator": "United States Postal Service", "operator:short": "USPS", "operator:type": "public", "operator:wikidata": "Q668687", "ref": "8826700000"}, "type": "Feature"}
{"geometry": {"coordinates": [-103.318887, 33.255773], "type": "Point"}, "id": "mm3i08SqM6_X0TgX03zvZN9f0iM=", "properties": {"@source_uri": "https://tools.usps.com/UspsToolsRestServices/rest/POLocator/findLocations", "@spider": "usps_collection_boxes", "addr:city": "TATUM", "addr:country": "US", "addr:postcode": "88267", "addr:state": "NM", "addr:street_address": "114 S AVENUE A", "amenity": "post_box", "brand": "United States Postal Service", "brand:wikidata": "Q668687", "collection_times": "Mo-Fr 16:15", "indoor": "yes", "note": "ON 12/24 AND 12/31, THIS BOX MAY BE COLLECTED AS EARLY AS 12 NOON.", "nsi_id": "unitedstatespostalservice-a77078", "operator": "United States Postal Service", "operator:short": "USPS", "operator:type": "public", "operator:wikidata": "Q668687", "ref": "8826700001"}, "type": "Feature"}
{"geometry": {"coordinates": [-103.318887, 33.255773], "type": "Point"}, "id": "YK0xL719nZtqFYCr9PgyRwt71ko=", "properties": {"@source_uri": "https://tools.usps.com/UspsToolsRestServices/rest/POLocator/findLocations", "@spider": "usps_collection_boxes", "addr:city": "TATUM", "addr:country": "US", "addr:postcode": "88267", "addr:state": "NM", "addr:street_address": "114 S AVENUE A", "amenity": "post_box", "brand": "United States Postal Service", "brand:wikidata": "Q668687", "collection_times": "Mo-Fr 16:15", "note": "ON 12/24 AND 12/31, THIS BOX MAY BE COLLECTED AS EARLY AS 12 NOON.", "nsi_id": "unitedstatespostalservice-a77078", "operator": "United States Postal Service", "operator:short": "USPS", "operator:type": "public", "operator:wikidata": "Q668687", "ref": "8826700002"}, "type": "Feature"}
{"geometry": {"coordinates": [-103.318857179, 33.256395], "type": "Point"}, "id": "93rUBA43uWzYeZVOeO7EjhAJVHs=", "properties": {"@source_uri": "https://tools.usps.com/UspsToolsRestServices/rest/POLocator/findLocations", "@spider": "usps_collection_boxes", "addr:city": "TATUM", "addr:country": "US", "addr:postcode": "88267", "addr:state": "NM", "addr:street_address": "114 S AVENUE A", "amenity": "post_box", "brand": "United States Postal Service", "brand:wikidata": "Q668687", "collection_times": "Mo-Fr 16:15", "indoor": "yes", "note": "ON 12/24 AND 12/31, THIS BOX MAY BE COLLECTED AS EARLY AS 12 NOON.", "nsi_id": "unitedstatespostalservice-a77078", "operator": "United States Postal Service", "operator:short": "USPS", "operator:type": "public", "operator:wikidata": "Q668687", "ref": "8826700003"}, "type": "Feature"}
{"geometry": {"coordinates": [-104.375788, 32.17526], "type": "Point"}, "id": "-q_8CQQytIaMcktuE7uu2My1usQ=", "properties": {"@source_uri": "https://tools.usps.com/UspsToolsRestServices/rest/POLocator/findLocations", "@spider": "usps_collection_boxes", "addr:city": "WHITES CITY", "addr:country": "US", "addr:postcode": "88268", "addr:state": "NM", "addr:street_address": "23 CARLSBAD CAVERNS HWY", "amenity": "post_box", "brand": "United States Postal Service", "brand:wikidata": "Q668687", "collection_times": "Mo-Fr 14:30; Sa 12:30", "note": "ON 12/24 AND 12/31, THIS BOX MAY BE COLLECTED AS EARLY AS 12 NOON.", "nsi_id": "unitedstatespostalservice-a77078", "operator": "United States Postal Service", "operator:short": "USPS", "operator:type": "public", "operator:wikidata": "Q668687", "ref": "8826800000"}, "type": "Feature"}
{"geometry": {"coordinates": [-104.375788, 32.17526], "type": "Point"}, "id": "AjWPz4nPPf04_aiByDblnVN-e98=", "properties": {"@source_uri": "https://tools.usps.com/UspsToolsRestServices/rest/POLocator/findLocations", "@spider": "usps_collection_boxes", "addr:city": "WHITES CITY", "addr:country": "US", "addr:postcode": "88268", "addr:state": "NM", "addr:street_address": "23 CARLSBAD CAVERNS HWY", "amenity": "post_box", "brand": "United States Postal Service", "brand:wikidata": "Q668687", "collection_times": "Mo-Fr 14:30; Sa 12:30", "indoor": "yes", "note": "ON 12/24 AND 12/31, THIS BOX MAY BE COLLECTED AS EARLY AS 12 NOON.", "nsi_id": "unitedstatespostalservice-a77078", "operator": "United States Postal Service", "operator:short": "USPS", "operator:type": "public", "operator:wikidata": "Q668687", "ref": "8826800001"}, "type": "Feature"}
{"geometry": {"coordinates": [-104.377217523, 32.175861932], "type": "Point"}, "id": "ix0LvXswiegF5MM8kKGf5L1kXdQ=", "properties": {"@source_uri": "https://tools.usps.com/UspsToolsRestServices/rest/POLocator/findLocations", "@spider": "usps_collection_boxes", "addr:city": "WHITES CITY", "addr:country": "US", "addr:postcode": "88268", "addr:state": "NM", "addr:street_address": "23 CARLSBAD CAVERNS HWY", "amenity": "post_box", "brand": "United States Postal Service", "brand:wikidata": "Q668687", "collection_times": "Mo-Fr 14:30; Sa 12:30", "indoor": "yes", "note": "ON 12/24 AND 12/31, THIS BOX MAY BE COLLECTED AS EARLY AS 12 NOON.", "nsi_id": "unitedstatespostalservice-a77078", "operator": "United States Postal Service", "operator:short": "USPS", "operator:type": "public", "operator:wikidata": "Q668687", "ref": "8826800002"}, "type": "Feature"}
