{"geometry": {"coordinates": [-105.876599, 33.641831], "type": "Point"}, "id": "A-cOt1bb2bl8nK96yJ1LKkaOhX0=", "properties": {"@spider": "usps_collection_boxes", "addr:city": "CARRIZOZO", "addr:country": "US", "addr:full": "509 12TH ST", "addr:postcode": "88301", "addr:state": "NM", "brand": "USPS", "collection_times": "Mo-Fr 14:30; Sa 11:30", "name": "USPS COLLECTION BOX - PO LOBBY", "note": "ON 12/24 AND 12/31, THIS BOX MAY BE COLLECTED AS EARLY AS 12 NOON.", "ref": "8830100000"}, "type": "Feature"}
{"geometry": {"coordinates": [-105.876549, 33.6419], "type": "Point"}, "id": "S35JIm-Zd75pYHV20fTzrHU9p4g=", "properties": {"@spider": "usps_collection_boxes", "addr:city": "CARRIZOZO", "addr:country": "US", "addr:full": "509 12TH ST", "addr:postcode": "88301", "addr:state": "NM", "brand": "USPS", "collection_times": "Mo-Fr 14:30; Sa 11:30", "name": "USPS COLLECTION BOX - BLUE BOX", "note": "ON 12/24 AND 12/31, THIS BOX MAY BE COLLECTED AS EARLY AS 12 NOON.", "ref": "8830100001"}, "type": "Feature"}
{"geometry": {"coordinates": [-105.876552052, 33.6417841051], "type": "Point"}, "id": "3Xn206Wv3K4Oyxd5bERClZ9cu5s=", "properties": {"@spider": "usps_collection_boxes", "addr:city": "CARRIZOZO", "addr:country": "US", "addr:full": "509 12TH ST", "addr:postcode": "88301", "addr:state": "NM", "brand": "USPS", "collection_times": "Mo-Fr 14:30; Sa 11:30", "name": "USPS COLLECTION BOX - PO LOBBY", "note": "ON 12/24 AND 12/31, THIS BOX MAY BE COLLECTED AS EARLY AS 12 NOON.", "ref": "8830100002"}, "type": "Feature"}
{"geometry": {"coordinates": [-105.950973, 32.901729], "type": "Point"}, "id": "BCiBq23J7N34oSW7mkr_MAz5ols=", "properties": {"@spider": "usps_collection_boxes", "addr:city": "ALAMOGORDO", "addr:country": "US", "addr:full": "930 12TH ST", "addr:postcode": "88310", "addr:state": "NM", "brand": "USPS", "collection_times": "Mo-Sa 17:00", "name": "USPS COLLECTION BOX - BLUE BOX", "note": "ON 12/24 AND 12/31, THIS BOX MAY BE COLLECTED AS EARLY AS 12 NOON.", "ref": "8831000000"}, "type": "Feature"}
{"geometry": {"coordinates": [-105.95098, 32.901704], "type": "Point"}, "id": "WVB_SfrzgfReBO9kDAFTF0QyEqM=", "properties": {"@spider": "usps_collection_boxes", "addr:city": "ALAMOGORDO", "addr:country": "US", "addr:full": "930 12TH ST", "addr:postcode": "88310", "addr:state": "NM", "brand": "USPS", "collection_times": "Mo-Sa 17:00", "name": "USPS COLLECTION BOX - BLUE BOX", "note": "ON 12/24 AND 12/31, THIS BOX MAY BE COLLECTED AS EARLY AS 12 NOON.", "ref": "8831000002"}, "type": "Feature"}
{"geometry": {"coordinates": [-105.95098, 32.901687], "type": "Point"}, "id": "ePJRGXcb3rv21l4hIb4LjVmy30Q=", "properties": {"@spider": "usps_collection_boxes", "addr:city": "ALAMOGORDO", "addr:country": "US", "addr:full": "930 12TH ST", "addr:postcode": "88310", "addr:state": "NM", "brand": "USPS", "collection_times": "Mo-Sa 17:00", "name": "USPS COLLECTION BOX - BLUE BOX", "note": "ON 12/24 AND 12/31, THIS BOX MAY BE COLLECTED AS EARLY AS 12 NOON.", "ref": "8831000003"}, "type": "Feature"}
{"geometry": {"coordinates": [-105.960674, 32.903521], "type": "Point"}, "id": "MbRa_iHGX_6302NjwMhEQkirQDU=", "properties": {"@spider": "usps_collection_boxes", "addr:city": "ALAMOGORDO", "addr:country": "US", "addr:full": "1301 N WHITE SANDS BLVD", "addr:postcode": "88310", "addr:state": "NM", "brand": "USPS", "collection_times": "Mo-Fr 15:30; Sa 14:45", "name": "USPS COLLECTION BOX - BLUE BOX", "note": "ON 12/24 AND 12/31, THIS BOX MAY BE COLLECTED AS EARLY AS 12 NOON.", "ref": "8831000008"}, "type": "Feature"}
{"geometry": {"coordinates": [-105.959156, 32.900862], "type": "Point"}, "id": "GbpU5I0zo9d5OnQ1LRtkndC5h6Q=", "properties": {"@spider": "usps_collection_boxes", "addr:city": "ALAMOGORDO", "addr:country": "US", "addr:full": "1101 NEW YORK AVE", "addr:postcode": "88310", "addr:state": "NM", "brand": "USPS", "collection_times": "Mo-Fr 15:45", "name": "USPS COLLECTION BOX - BLUE BOX", "note": "ON 12/24 AND 12/31, THIS BOX MAY BE COLLECTED AS EARLY AS 12 NOON.", "ref": "8831000010"}, "type": "Feature"}
{"geometry": {"coordinates": [-105.942994, 32.90041], "type": "Point"}, "id": "OrjOpFx6pRKsb-1NlfwVsa_OiCs=", "properties": {"@spider": "usps_collection_boxes", "addr:city": "ALAMOGORDO", "addr:country": "US", "addr:full": "1401 10TH ST", "addr:postcode": "88310", "addr:state": "NM", "brand": "USPS", "collection_times": "Mo-Fr 15:15", "name": "USPS COLLECTION BOX - BLUE BOX", "note": "ON 12/24 AND 12/31, THIS BOX MAY BE COLLECTED AS EARLY AS 12 NOON.", "ref": "8831000015"}, "type": "Feature"}
{"geometry": {"coordinates": [-105.980871, 32.865861], "type": "Point"}, "id": "B4e_afTsv693qfg0XM7jr1NuJYA=", "properties": {"@spider": "usps_collection_boxes", "addr:city": "ALAMOGORDO", "addr:country": "US", "addr:full": "901 HIGHWAY 70 W", "addr:postcode": "88310", "addr:state": "NM", "brand": "USPS", "collection_times": "Mo-Fr 14:45", "name": "USPS COLLECTION BOX - BLUE BOX", "note": "ON 12/24 AND 12/31, THIS BOX MAY BE COLLECTED AS EARLY AS 12 NOON.", "ref": "8831000026"}, "type": "Feature"}
{"geometry": {"coordinates": [-105.963362, 32.929643], "type": "Point"}, "id": "8z4WNkcuHrH2EnGMB2Ksb0Q58mE=", "properties": {"@spider": "usps_collection_boxes", "addr:city": "ALAMOGORDO", "addr:country": "US", "addr:full": "3197 N WHITE SANDS BLVD", "addr:postcode": "88310", "addr:state": "NM", "brand": "USPS", "collection_times": "Mo-Fr 15:30", "name": "USPS COLLECTION BOX - BLUE BOX", "note": "ON 12/24 AND 12/31, THIS BOX MAY BE COLLECTED AS EARLY AS 12 NOON.", "ref": "8831000035"}, "type": "Feature"}
{"geometry": {"coordinates": [-105.929934, 32.898347], "type": "Point"}, "id": "ZqNkwogoTHIK29vijiXvTcUc6sc=", "properties": {"@spider": "usps_collection_boxes", "addr:city": "ALAMOGORDO", "addr:country": "US", "addr:full": "822 SCENIC DR", "addr:postcode": "88310", "addr:state": "NM", "brand": "USPS", "collection_times": "Mo-Fr 15:15; Sa 14:50", "name": "USPS COLLECTION BOX - BLUE BOX", "note": "ON 12/24 AND 12/31, THIS BOX MAY BE COLLECTED AS EARLY AS 12 NOON.", "ref": "8831000047"}, "type": "Feature"}
{"geometry": {"coordinates": [-105.954748, 32.900354], "type": "Point"}, "id": "8piwOQotBkRKXCy8XSo5woFFe70=", "properties": {"@spider": "usps_collection_boxes", "addr:city": "ALAMOGORDO", "addr:country": "US", "addr:full": "675 10TH ST", "addr:postcode": "88310", "addr:state": "NM", "brand": "USPS", "collection_times": "Mo-Fr 15:45; Sa 14:45", "name": "USPS COLLECTION BOX - BLUE BOX", "note": "ON 12/24 AND 12/31, THIS BOX MAY BE COLLECTED AS EARLY AS 12 NOON.", "ref": "8831000049"}, "type": "Feature"}
{"geometry": {"coordinates": [-105.943909, 32.897963], "type": "Point"}, "id": "DkBAiUl0XSP1jCbwCU_w2JEekqs=", "properties": {"@spider": "usps_collection_boxes", "addr:city": "ALAMOGORDO", "addr:country": "US", "addr:full": "1376 9TH ST", "addr:postcode": "88310", "addr:state": "NM", "brand": "USPS", "collection_times": "Mo-Fr 15:00", "name": "USPS COLLECTION BOX - BLUE BOX", "note": "ON 12/24 AND 12/31, THIS BOX MAY BE COLLECTED AS EARLY AS 12 NOON.", "ref": "8831000051"}, "type": "Feature"}
{"geometry": {"coordinates": [-105.962859824, 32.854420341], "type": "Point"}, "id": "8ftI1NyBVb_Lux3bqqDnrFuxpTU=", "properties": {"@spider": "usps_collection_boxes", "addr:city": "ALAMOGORDO", "addr:country": "US", "addr:full": "2641 HAMILTON RD", "addr:postcode": "88310", "addr:state": "NM", "brand": "USPS", "collection_times": "Mo-Fr 14:45; Sa 14:30", "name": "USPS COLLECTION BOX - BLUE BOX", "note": "ON 12/24 AND 12/31, THIS BOX MAY BE COLLECTED AS EARLY AS 12 NOON.", "ref": "8831000054"}, "type": "Feature"}
{"geometry": {"coordinates": [-105.948337, 32.916525], "type": "Point"}, "id": "TGIpRkloTai5tffqA0Tig2ZspgA=", "properties": {"@spider": "usps_collection_boxes", "addr:city": "ALAMOGORDO", "addr:country": "US", "addr:full": "2201 PUERTO RICO AVE", "addr:postcode": "88310", "addr:state": "NM", "brand": "USPS", "collection_times": "Mo-Fr 15:30", "name": "USPS COLLECTION BOX - BLUE BOX", "note": "ON 12/24 AND 12/31, THIS BOX MAY BE COLLECTED AS EARLY AS 12 NOON.", "ref": "8831000058"}, "type": "Feature"}
{"geometry": {"coordinates": [-105.957258, 32.876107], "type": "Point"}, "id": "i7qBvreW1VM5YQXOma8XiFGKEMI=", "properties": {"@spider": "usps_collection_boxes", "addr:city": "ALAMOGORDO", "addr:country": "US", "addr:full": "301 PANORAMA BLVD", "addr:postcode": "88310", "addr:state": "NM", "brand": "USPS", "collection_times": "Mo-Fr 14:45", "name": "USPS COLLECTION BOX - BLUE BOX", "note": "ON 12/24 AND 12/31, THIS BOX MAY BE COLLECTED AS EARLY AS 12 NOON.", "ref": "8831000059"}, "type": "Feature"}
{"geometry": {"coordinates": [-105.950866, 32.900784], "type": "Point"}, "id": "RRCiSI0WcHzBVvXFDZ79E137b6s=", "properties": {"@spider": "usps_collection_boxes", "addr:city": "ALAMOGORDO", "addr:country": "US", "addr:full": "930 12TH ST", "addr:postcode": "88310", "addr:state": "NM", "brand": "USPS", "collection_times": "Mo-Sa 17:00", "name": "USPS COLLECTION BOX - PO LOBBY", "note": "ON 12/24 AND 12/31, THIS BOX MAY BE COLLECTED AS EARLY AS 12 NOON.", "ref": "8831000060"}, "type": "Feature"}
{"geometry": {"coordinates": [-105.950681, 32.9008], "type": "Point"}, "id": "5hHiuOMP59OCcCvGX3RkbYhDJY4=", "properties": {"@spider": "usps_collection_boxes", "addr:city": "ALAMOGORDO", "addr:country": "US", "addr:full": "930 12TH ST", "addr:postcode": "88310", "addr:state": "NM", "brand": "USPS", "collection_times": "Mo-Sa 17:00", "name": "USPS COLLECTION BOX - PO LOBBY", "note": "ON 12/24 AND 12/31, THIS BOX MAY BE COLLECTED AS EARLY AS 12 NOON.", "ref": "8831000061"}, "type": "Feature"}
{"geometry": {"coordinates": [-105.950866, 32.900784], "type": "Point"}, "id": "YwpuHGMnd4NM4zWgXqHlnxo_LV4=", "properties": {"@spider": "usps_collection_boxes", "addr:city": "ALAMOGORDO", "addr:country": "US", "addr:full": "930 12TH ST", "addr:postcode": "88310", "addr:state": "NM", "brand": "USPS", "collection_times": "Mo-Sa 17:00", "name": "USPS COLLECTION BOX - PO LOBBY", "note": "ON 12/24 AND 12/31, THIS BOX MAY BE COLLECTED AS EARLY AS 12 NOON.", "ref": "8831000062"}, "type": "Feature"}
{"geometry": {"coordinates": [-105.956844, 32.898882], "type": "Point"}, "id": "g4zri1t86RfunVf2809FQxJxA7E=", "properties": {"@spider": "usps_collection_boxes", "addr:city": "ALAMOGORDO", "addr:country": "US", "addr:full": "500 9TH ST", "addr:postcode": "88310", "addr:state": "NM", "brand": "USPS", "collection_times": "Mo-Fr 15:00", "name": "USPS COLLECTION BOX - BLUE BOX", "note": "ON 12/24 AND 12/31, THIS BOX MAY BE COLLECTED AS EARLY AS 12 NOON.", "ref": "8831000067"}, "type": "Feature"}
{"geometry": {"coordinates": [-105.959147, 32.90086], "type": "Point"}, "id": "ipjE6DKdhIOILlnJYRDjjrIQIX0=", "properties": {"@spider": "usps_collection_boxes", "addr:city": "ALAMOGORDO", "addr:country": "US", "addr:full": "1101 NEW YORK AVE", "addr:postcode": "88310", "addr:state": "NM", "brand": "USPS", "collection_times": "Mo-Fr 15:45", "name": "USPS COLLECTION BOX - BLUE BOX", "note": "ON 12/24 AND 12/31, THIS BOX MAY BE COLLECTED AS EARLY AS 12 NOON.", "ref": "8831000072"}, "type": "Feature"}
{"geometry": {"coordinates": [-105.959826, 32.898647], "type": "Point"}, "id": "WqcTojo1uXwMIF5GSBKE-3QgO2k=", "properties": {"@spider": "usps_collection_boxes", "addr:city": "ALAMOGORDO", "addr:country": "US", "addr:full": "818 N WHITE SANDS BLVD", "addr:postcode": "88310", "addr:state": "NM", "brand": "USPS", "collection_times": "Mo-Fr 15:00; Sa 14:30", "name": "USPS COLLECTION BOX - BLUE BOX", "note": "ON 12/24 AND 12/31, THIS BOX MAY BE COLLECTED AS EARLY AS 12 NOON.", "ref": "8831000073"}, "type": "Feature"}
{"geometry": {"coordinates": [-105.934055, 32.92425], "type": "Point"}, "id": "ncyzH_70XmE1NnhmvHnTG5RthFk=", "properties": {"@spider": "usps_collection_boxes", "addr:city": "ALAMOGORDO", "addr:country": "US", "addr:full": "2669 SCENIC DR", "addr:postcode": "88310", "addr:state": "NM", "brand": "USPS", "collection_times": "Mo-Fr 15:15", "name": "USPS COLLECTION BOX - BLUE BOX", "note": "ON 12/24 AND 12/31, THIS BOX MAY BE COLLECTED AS EARLY AS 12 NOON.", "ref": "8831000074"}, "type": "Feature"}
{"geometry": {"coordinates": [-105.952738, 32.91891], "type": "Point"}, "id": "X-BWv43_5x8URSyY6sAcjtz7AD8=", "properties": {"@spider": "usps_collection_boxes", "addr:city": "ALAMOGORDO", "addr:country": "US", "addr:full": "2395 N FLORIDA AVE", "addr:postcode": "88310", "addr:state": "NM", "brand": "USPS", "collection_times": "Mo-Fr 15:30", "name": "USPS COLLECTION BOX - BLUE BOX", "note": "ON 12/24 AND 12/31, THIS BOX MAY BE COLLECTED AS EARLY AS 12 NOON.", "ref": "8831000075"}, "type": "Feature"}
{"geometry": {"coordinates": [-105.950741223, 32.901826469], "type": "Point"}, "id": "CVkeSoiuQkhRDmSyswJIc37PBKM=", "properties": {"@spider": "usps_collection_boxes", "addr:city": "ALAMOGORDO", "addr:country": "US", "addr:full": "930 12TH ST", "addr:postcode": "88310", "addr:state": "NM", "brand": "USPS", "collection_times": "Mo-Sa 17:00", "name": "USPS COLLECTION BOX - PO LOBBY", "note": "ON 12/24 AND 12/31, THIS BOX MAY BE COLLECTED AS EARLY AS 12 NOON.", "ref": "8831000077"}, "type": "Feature"}
{"geometry": {"coordinates": [-105.6753333041, 33.4051951418], "type": "Point"}, "id": "Am8wtViQJWPhb4IFhlXBjS6CK_Q=", "properties": {"@spider": "usps_collection_boxes", "addr:city": "ALTO", "addr:country": "US", "addr:full": "100 SUN VALLEY RD", "addr:postcode": "88312", "addr:state": "NM", "brand": "USPS", "collection_times": "Mo-Fr 15:00; Sa 10:00", "name": "USPS COLLECTION BOX - BLUE BOX", "note": "ON 12/24 AND 12/31, THIS BOX MAY BE COLLECTED AS EARLY AS 12 NOON.", "ref": "8831200000"}, "type": "Feature"}
{"geometry": {"coordinates": [-105.6753333041, 33.4051951418], "type": "Point"}, "id": "RHyFF6pGWHS_hL52qp1O8WmCLq4=", "properties": {"@spider": "usps_collection_boxes", "addr:city": "ALTO", "addr:country": "US", "addr:full": "100 SUN VALLEY RD", "addr:postcode": "88312", "addr:state": "NM", "brand": "USPS", "collection_times": "Mo-Fr 15:00; Sa 10:00", "name": "USPS COLLECTION BOX - PO LOBBY", "note": "ON 12/24 AND 12/31, THIS BOX MAY BE COLLECTED AS EARLY AS 12 NOON.", "ref": "8831200001"}, "type": "Feature"}
{"geometry": {"coordinates": [-105.6753333041, 33.4051951418], "type": "Point"}, "id": "hemfQfujBAw0KOPsBxbi1Cy5tRE=", "properties": {"@spider": "usps_collection_boxes", "addr:city": "ALTO", "addr:country": "US", "addr:full": "100 SUN VALLEY RD", "addr:postcode": "88312", "addr:state": "NM", "brand": "USPS", "collection_times": "Mo-Fr 15:00; Sa 10:00", "name": "USPS COLLECTION BOX - PO LOBBY", "note": "ON 12/24 AND 12/31, THIS BOX MAY BE COLLECTED AS EARLY AS 12 NOON.", "ref": "8831200002"}, "type": "Feature"}
{"geometry": {"coordinates": [-105.6753333041, 33.4051951418], "type": "Point"}, "id": "-3UWjm4MD9TNGZyoXM8MeemYwpQ=", "properties": {"@spider": "usps_collection_boxes", "addr:city": "ALTO", "addr:country": "US", "addr:full": "100 SUN VALLEY RD", "addr:postcode": "88312", "addr:state": "NM", "brand": "USPS", "collection_times": "Mo-Fr 15:00; Sa 09:45", "name": "USPS COLLECTION BOX - PO LOBBY", "note": "ON 12/24 AND 12/31, THIS BOX MAY BE COLLECTED AS EARLY AS 12 NOON.", "ref": "8831200003"}, "type": "Feature"}
{"geometry": {"coordinates": [-105.855844, 33.158633], "type": "Point"}, "id": "M_J6GaU4OuDm2xcKEScfa9aAxoM=", "properties": {"@spider": "usps_collection_boxes", "addr:city": "BENT", "addr:country": "US", "addr:full": "21 BENT RD", "addr:postcode": "88314", "addr:state": "NM", "brand": "USPS", "collection_times": "Mo-Fr 14:15; Sa 09:45", "name": "USPS COLLECTION BOX - BLUE BOX", "note": "ON 12/24 AND 12/31, THIS BOX MAY BE COLLECTED AS EARLY AS 12 NOON.", "ref": "8831400000"}, "type": "Feature"}
{"geometry": {"coordinates": [-105.855937, 33.158677], "type": "Point"}, "id": "cHprhXZBrI_NImvg6G4X3iIlSc8=", "properties": {"@spider": "usps_collection_boxes", "addr:city": "BENT", "addr:country": "US", "addr:full": "21 BENT RD", "addr:postcode": "88314", "addr:state": "NM", "brand": "USPS", "collection_times": "Mo-Fr 14:15; Sa 09:45", "name": "USPS COLLECTION BOX - PO LOBBY", "note": "ON 12/24 AND 12/31, THIS BOX MAY BE COLLECTED AS EARLY AS 12 NOON.", "ref": "8831400001"}, "type": "Feature"}
{"geometry": {"coordinates": [-105.8556251643, 33.1584350908], "type": "Point"}, "id": "gRagBp8GOACSH_8z7C2fjoEwSMY=", "properties": {"@spider": "usps_collection_boxes", "addr:city": "BENT", "addr:country": "US", "addr:full": "21 BENT RD", "addr:postcode": "88314", "addr:state": "NM", "brand": "USPS", "collection_times": "Mo-Fr 14:00; Sa 09:45", "name": "USPS COLLECTION BOX - PO LOBBY", "note": "ON 12/24 AND 12/31, THIS BOX MAY BE COLLECTED AS EARLY AS 12 NOON.", "ref": "8831400002"}, "type": "Feature"}
{"geometry": {"coordinates": [-105.575663, 33.545914], "type": "Point"}, "id": "Wt5yMQLUh-sUyRoKtWvKAmBxU_U=", "properties": {"@spider": "usps_collection_boxes", "addr:city": "CAPITAN", "addr:country": "US", "addr:full": "226 E SMOKEY BEAR BLVD", "addr:postcode": "88316", "addr:state": "NM", "brand": "USPS", "collection_times": "Mo-Fr 14:30; Sa 11:30", "name": "USPS COLLECTION BOX - BLUE BOX", "note": "ON 12/24 AND 12/31, THIS BOX MAY BE COLLECTED AS EARLY AS 12 NOON.", "ref": "8831600000"}, "type": "Feature"}
{"geometry": {"coordinates": [-105.575648, 33.545909], "type": "Point"}, "id": "CFJ2d_2IplXoaCT-C91tUukTD9M=", "properties": {"@spider": "usps_collection_boxes", "addr:city": "CAPITAN", "addr:country": "US", "addr:full": "226 E SMOKEY BEAR BLVD", "addr:postcode": "88316", "addr:state": "NM", "brand": "USPS", "collection_times": "Mo-Fr 14:30; Sa 11:30", "name": "USPS COLLECTION BOX - PO LOBBY", "note": "ON 12/24 AND 12/31, THIS BOX MAY BE COLLECTED AS EARLY AS 12 NOON.", "ref": "8831600001"}, "type": "Feature"}
{"geometry": {"coordinates": [-105.575601, 33.545904], "type": "Point"}, "id": "3AGu2RJMyQ-tq9tsqpsBTSO5mK8=", "properties": {"@spider": "usps_collection_boxes", "addr:city": "CAPITAN", "addr:country": "US", "addr:full": "226 E SMOKEY BEAR BLVD", "addr:postcode": "88316", "addr:state": "NM", "brand": "USPS", "collection_times": "Mo-Fr 14:30; Sa 11:30", "name": "USPS COLLECTION BOX - PO LOBBY", "note": "ON 12/24 AND 12/31, THIS BOX MAY BE COLLECTED AS EARLY AS 12 NOON.", "ref": "8831600002"}, "type": "Feature"}
{"geometry": {"coordinates": [-105.569982, 33.5455485212], "type": "Point"}, "id": "upgZ7_nuup2RQo-F51Zrjlknh8o=", "properties": {"@spider": "usps_collection_boxes", "addr:city": "CAPITAN", "addr:country": "US", "addr:full": "226 E SMOKEY BEAR BLVD", "addr:postcode": "88316", "addr:state": "NM", "brand": "USPS", "collection_times": "Mo-Fr 14:15; Sa 11:15", "name": "USPS COLLECTION BOX - PO LOBBY", "note": "ON 12/24 AND 12/31, THIS BOX MAY BE COLLECTED AS EARLY AS 12 NOON.", "ref": "8831600003"}, "type": "Feature"}
{"geometry": {"coordinates": [-105.744416, 32.95813], "type": "Point"}, "id": "KEOKi03KhQ_YdrwKBMZK5fbB3vY=", "properties": {"@spider": "usps_collection_boxes", "addr:city": "CLOUDCROFT", "addr:country": "US", "addr:full": "20 CURLEW PL", "addr:postcode": "88317", "addr:state": "NM", "brand": "USPS", "collection_times": "Mo-Fr 15:15; Sa 11:30", "name": "USPS COLLECTION BOX - BLUE BOX", "note": "ON 12/24 AND 12/31, THIS BOX MAY BE COLLECTED AS EARLY AS 12 NOON.", "ref": "8831700000"}, "type": "Feature"}
{"geometry": {"coordinates": [-105.744451, 32.958146], "type": "Point"}, "id": "HblqhUr50pnAR_SPla2bErgGO7E=", "properties": {"@spider": "usps_collection_boxes", "addr:city": "CLOUDCROFT", "addr:country": "US", "addr:full": "20 CURLEW PL", "addr:postcode": "88317", "addr:state": "NM", "brand": "USPS", "collection_times": "Mo-Fr 15:15; Sa 11:30", "name": "USPS COLLECTION BOX - PO LOBBY", "note": "ON 12/24 AND 12/31, THIS BOX MAY BE COLLECTED AS EARLY AS 12 NOON.", "ref": "8831700001"}, "type": "Feature"}
{"geometry": {"coordinates": [-105.744451, 32.958146], "type": "Point"}, "id": "uH5OQrhEAh8h85paxDC72vNPxy8=", "properties": {"@spider": "usps_collection_boxes", "addr:city": "CLOUDCROFT", "addr:country": "US", "addr:full": "20 CURLEW PL", "addr:postcode": "88317", "addr:state": "NM", "brand": "USPS", "collection_times": "Mo-Fr 15:15; Sa 11:30", "name": "USPS COLLECTION BOX - PO LOBBY", "note": "ON 12/24 AND 12/31, THIS BOX MAY BE COLLECTED AS EARLY AS 12 NOON.", "ref": "8831700002"}, "type": "Feature"}
{"geometry": {"coordinates": [-105.7444518529, 32.9583173572], "type": "Point"}, "id": "f3zXr-MKB1Mr5KHzIvgA7dZo0uM=", "properties": {"@spider": "usps_collection_boxes", "addr:city": "CLOUDCROFT", "addr:country": "US", "addr:full": "20 CURLEW PL", "addr:postcode": "88317", "addr:state": "NM", "brand": "USPS", "collection_times": "Mo-Fr 15:15; Sa 11:15", "name": "USPS COLLECTION BOX - PO LOBBY", "note": "ON 12/24 AND 12/31, THIS BOX MAY BE COLLECTED AS EARLY AS 12 NOON.", "ref": "8831700003"}, "type": "Feature"}
{"geometry": {"coordinates": [-105.594808, 34.249824], "type": "Point"}, "id": "yYP_HIsVYnwwabvPXQHsmNRKUPI=", "properties": {"@spider": "usps_collection_boxes", "addr:city": "CORONA", "addr:country": "US", "addr:full": "601 MAIN ST", "addr:postcode": "88318", "addr:state": "NM", "brand": "USPS", "collection_times": "Mo-Fr 14:15; Sa 10:45", "name": "USPS COLLECTION BOX - PO LOBBY", "note": "ON 12/24 AND 12/31, THIS BOX MAY BE COLLECTED AS EARLY AS 12 NOON.", "ref": "8831800001"}, "type": "Feature"}
{"geometry": {"coordinates": [-105.594808, 34.249824], "type": "Point"}, "id": "giiqcsnSllK6Pwv2-o1oOa41BJ0=", "properties": {"@spider": "usps_collection_boxes", "addr:city": "CORONA", "addr:country": "US", "addr:full": "601 MAIN ST", "addr:postcode": "88318", "addr:state": "NM", "brand": "USPS", "collection_times": "Mo-Fr 14:15; Sa 10:45", "name": "USPS COLLECTION BOX - PO LOBBY", "note": "ON 12/24 AND 12/31, THIS BOX MAY BE COLLECTED AS EARLY AS 12 NOON.", "ref": "8831800002"}, "type": "Feature"}
{"geometry": {"coordinates": [-105.594753077, 34.250075926], "type": "Point"}, "id": "8UyjOGljJLCHdXOCgN7-ACPZOZk=", "properties": {"@spider": "usps_collection_boxes", "addr:city": "CORONA", "addr:country": "US", "addr:full": "601 MAIN ST", "addr:postcode": "88318", "addr:state": "NM", "brand": "USPS", "collection_times": "Mo-Fr 14:00; Sa 10:30", "name": "USPS COLLECTION BOX - PO LOBBY", "note": "ON 12/24 AND 12/31, THIS BOX MAY BE COLLECTED AS EARLY AS 12 NOON.", "ref": "8831800003"}, "type": "Feature"}
{"geometry": {"coordinates": [-105.476782, 34.656797], "type": "Point"}, "id": "Cttjp1e7NkAyM9hLCMuPGx8GONI=", "properties": {"@spider": "usps_collection_boxes", "addr:city": "ENCINO", "addr:country": "US", "addr:full": "122 US HIGHWAY 285", "addr:postcode": "88321", "addr:state": "NM", "brand": "USPS", "collection_times": "Mo-Fr 13:30; Sa 09:45", "name": "USPS COLLECTION BOX - BLUE BOX", "note": "ON 12/24 AND 12/31, THIS BOX MAY BE COLLECTED AS EARLY AS 12 NOON.", "ref": "8832100000"}, "type": "Feature"}
{"geometry": {"coordinates": [-105.476724, 34.656766], "type": "Point"}, "id": "_dK_EA5NubzZ-DSrQg9R8D1d_d8=", "properties": {"@spider": "usps_collection_boxes", "addr:city": "ENCINO", "addr:country": "US", "addr:full": "122 US HIGHWAY 285", "addr:postcode": "88321", "addr:state": "NM", "brand": "USPS", "collection_times": "Mo-Fr 13:30; Sa 09:45", "name": "USPS COLLECTION BOX - PO LOBBY", "note": "ON 12/24 AND 12/31, THIS BOX MAY BE COLLECTED AS EARLY AS 12 NOON.", "ref": "8832100001"}, "type": "Feature"}
{"geometry": {"coordinates": [-105.461006622, 34.651021074], "type": "Point"}, "id": "4OKND23KEAv-SeO9twyUXW489dg=", "properties": {"@spider": "usps_collection_boxes", "addr:city": "ENCINO", "addr:country": "US", "addr:full": "122 US HIGHWAY 285", "addr:postcode": "88321", "addr:state": "NM", "brand": "USPS", "collection_times": "Mo-Fr 13:30; Sa 09:45", "name": "USPS COLLECTION BOX - PO LOBBY", "note": "ON 12/24 AND 12/31, THIS BOX MAY BE COLLECTED AS EARLY AS 12 NOON.", "ref": "8832100002"}, "type": "Feature"}
{"geometry": {"coordinates": [-105.4336711901, 33.4183609371], "type": "Point"}, "id": "8hXuPGKbkXvkFmWxTW30IJh0K0s=", "properties": {"@spider": "usps_collection_boxes", "addr:city": "GLENCOE", "addr:country": "US", "addr:full": "27489 US HIGHWAY 70", "addr:postcode": "88324", "addr:state": "NM", "brand": "USPS", "collection_times": "Mo-Fr 14:15; Sa 10:00", "name": "USPS COLLECTION BOX - BLUE BOX", "note": "ON 12/24 AND 12/31, THIS BOX MAY BE COLLECTED AS EARLY AS 12 NOON.", "ref": "8832400000"}, "type": "Feature"}
{"geometry": {"coordinates": [-105.4336711901, 33.4183609371], "type": "Point"}, "id": "zCUJUbfOGY2f9M5QOn6YCbTV8io=", "properties": {"@spider": "usps_collection_boxes", "addr:city": "GLENCOE", "addr:country": "US", "addr:full": "27489 US HIGHWAY 70", "addr:postcode": "88324", "addr:state": "NM", "brand": "USPS", "collection_times": "Mo-Fr 14:15; Sa 10:00", "name": "USPS COLLECTION BOX - PO LOBBY", "note": "ON 12/24 AND 12/31, THIS BOX MAY BE COLLECTED AS EARLY AS 12 NOON.", "ref": "8832400001"}, "type": "Feature"}
{"geometry": {"coordinates": [-105.4336711901, 33.4183609371], "type": "Point"}, "id": "VSpFTPtrD1hOwkZxgCI92VT7zqE=", "properties": {"@spider": "usps_collection_boxes", "addr:city": "GLENCOE", "addr:country": "US", "addr:full": "27489 US HIGHWAY 70", "addr:postcode": "88324", "addr:state": "NM", "brand": "USPS", "collection_times": "Mo-Fr 14:15; Sa 10:00", "name": "USPS COLLECTION BOX - PO LOBBY", "note": "ON 12/24 AND 12/31, THIS BOX MAY BE COLLECTED AS EARLY AS 12 NOON.", "ref": "8832400002"}, "type": "Feature"}
{"geometry": {"coordinates": [-105.838691, 32.948145], "type": "Point"}, "id": "4zI7ACDeVdpbaRYhWqZfk1YTq1g=", "properties": {"@spider": "usps_collection_boxes", "addr:city": "HI RLS MTN PK", "addr:country": "US", "addr:full": "4 CHERRY BLOSSOM", "addr:postcode": "88325", "addr:state": "NM", "brand": "USPS", "collection_times": "Mo-Fr 15:30; Sa 10:30", "name": "USPS COLLECTION BOX - PO LOBBY", "note": "ON 12/24 AND 12/31, THIS BOX MAY BE COLLECTED AS EARLY AS 12 NOON.", "ref": "8832500001"}, "type": "Feature"}
{"geometry": {"coordinates": [-105.838706758, 32.948451775], "type": "Point"}, "id": "sR9Hm32AFxy3YI55vd80FbTGyQE=", "properties": {"@spider": "usps_collection_boxes", "addr:city": "HI RLS MTN PK", "addr:country": "US", "addr:full": "4 CHERRY BLOSSOM", "addr:postcode": "88325", "addr:state": "NM", "brand": "USPS", "collection_times": "Mo-Fr 15:15; Sa 10:15", "name": "USPS COLLECTION BOX - PO LOBBY", "note": "ON 12/24 AND 12/31, THIS BOX MAY BE COLLECTED AS EARLY AS 12 NOON.", "ref": "8832500003"}, "type": "Feature"}
{"geometry": {"coordinates": [-106.0872308686, 32.8343567157], "type": "Point"}, "id": "awVqfoc7ulkJrJgVgqdKT1wW9ns=", "properties": {"@spider": "usps_collection_boxes", "addr:city": "HOLLOMAN AFB", "addr:country": "US", "addr:full": "721 NEW MEXICO AVE", "addr:postcode": "88330", "addr:state": "NM", "brand": "USPS", "collection_times": "Mo-Fr 16:45; Sa 12:00", "name": "USPS COLLECTION BOX - BLUE BOX", "note": "ON 12/24 AND 12/31, THIS BOX MAY BE COLLECTED AS EARLY AS 12 NOON.", "ref": "8833000000"}, "type": "Feature"}
{"geometry": {"coordinates": [-106.0872308686, 32.8343567157], "type": "Point"}, "id": "Wwh3R5P30SVdBwcZajLtqCImpAc=", "properties": {"@spider": "usps_collection_boxes", "addr:city": "HOLLOMAN AFB", "addr:country": "US", "addr:full": "721 NEW MEXICO AVE", "addr:postcode": "88330", "addr:state": "NM", "brand": "USPS", "collection_times": "Mo-Fr 16:45; Sa 12:00", "name": "USPS COLLECTION BOX - PO LOBBY", "note": "ON 12/24 AND 12/31, THIS BOX MAY BE COLLECTED AS EARLY AS 12 NOON.", "ref": "8833000002"}, "type": "Feature"}
{"geometry": {"coordinates": [-106.0872308686, 32.8343567157], "type": "Point"}, "id": "biym72fD-PPdPGAElXz06dS8vt4=", "properties": {"@spider": "usps_collection_boxes", "addr:city": "HOLLOMAN AFB", "addr:country": "US", "addr:full": "721 NEW MEXICO AVE", "addr:postcode": "88330", "addr:state": "NM", "brand": "USPS", "collection_times": "Mo-Fr 16:45; Sa 12:00", "name": "USPS COLLECTION BOX - PO LOBBY", "note": "ON 12/24 AND 12/31, THIS BOX MAY BE COLLECTED AS EARLY AS 12 NOON.", "ref": "8833000015"}, "type": "Feature"}
{"geometry": {"coordinates": [-106.0872308686, 32.8343567157], "type": "Point"}, "id": "s6O__7FXINZIEkHtE8Z88pDrQeM=", "properties": {"@spider": "usps_collection_boxes", "addr:city": "HOLLOMAN AFB", "addr:country": "US", "addr:full": "721 NEW MEXICO AVE", "addr:postcode": "88330", "addr:state": "NM", "brand": "USPS", "collection_times": "Mo-Fr 16:30; Sa 11:45", "name": "USPS COLLECTION BOX - PO LOBBY", "note": "ON 12/24 AND 12/31, THIS BOX MAY BE COLLECTED AS EARLY AS 12 NOON.", "ref": "8833000017"}, "type": "Feature"}
{"geometry": {"coordinates": [-105.24935, 33.373219], "type": "Point"}, "id": "a1FGR07sDUw20T6zVaDPl_zlbqQ=", "properties": {"@spider": "usps_collection_boxes", "addr:city": "HONDO", "addr:country": "US", "addr:full": "28633 US HIGHWAY 70", "addr:postcode": "88336", "addr:state": "NM", "brand": "USPS", "collection_times": "Mo-Fr 14:00; Sa 11:00", "name": "USPS COLLECTION BOX - BLUE BOX", "note": "ON 12/24 AND 12/31, THIS BOX MAY BE COLLECTED AS EARLY AS 12 NOON.", "ref": "8833600000"}, "type": "Feature"}
{"geometry": {"coordinates": [-105.249324, 33.373147], "type": "Point"}, "id": "seDHAB40XgH6kAmBRrgJ6s01T_s=", "properties": {"@spider": "usps_collection_boxes", "addr:city": "HONDO", "addr:country": "US", "addr:full": "28633 US HIGHWAY 70", "addr:postcode": "88336", "addr:state": "NM", "brand": "USPS", "collection_times": "Mo-Fr 14:00; Sa 11:00", "name": "USPS COLLECTION BOX - PO LOBBY", "note": "ON 12/24 AND 12/31, THIS BOX MAY BE COLLECTED AS EARLY AS 12 NOON.", "ref": "8833600001"}, "type": "Feature"}
{"geometry": {"coordinates": [-105.252491801, 33.376738868], "type": "Point"}, "id": "rJ87GrpG_zTUuya-F9KOahUR00A=", "properties": {"@spider": "usps_collection_boxes", "addr:city": "HONDO", "addr:country": "US", "addr:full": "28633 US HIGHWAY 70", "addr:postcode": "88336", "addr:state": "NM", "brand": "USPS", "collection_times": "Mo-Fr 14:00; Sa 11:00", "name": "USPS COLLECTION BOX - PO LOBBY", "note": "ON 12/24 AND 12/31, THIS BOX MAY BE COLLECTED AS EARLY AS 12 NOON.", "ref": "8833600002"}, "type": "Feature"}
{"geometry": {"coordinates": [-105.943549, 32.97911], "type": "Point"}, "id": "-T0HOEekfJshoHzpK9DTJMEeJlY=", "properties": {"@spider": "usps_collection_boxes", "addr:city": "LA LUZ", "addr:country": "US", "addr:full": "12 MAIN ST", "addr:postcode": "88337", "addr:state": "NM", "brand": "USPS", "collection_times": "Mo-Fr 16:00; Sa 11:30", "name": "USPS COLLECTION BOX - PO LOBBY", "note": "ON 12/24 AND 12/31, THIS BOX MAY BE COLLECTED AS EARLY AS 12 NOON.", "ref": "8833700001"}, "type": "Feature"}
{"geometry": {"coordinates": [-105.947039, 32.976984], "type": "Point"}, "id": "GA2Roh3XYl8ClHl4-tEVuOY08aA=", "properties": {"@spider": "usps_collection_boxes", "addr:city": "LA LUZ", "addr:country": "US", "addr:full": "27 ALAMO ST", "addr:postcode": "88337", "addr:state": "NM", "brand": "USPS", "collection_times": "Mo-Fr 11:00", "name": "USPS COLLECTION BOX - BLUE BOX", "ref": "8833700002"}, "type": "Feature"}
{"geometry": {"coordinates": [-105.943140767, 32.979061384], "type": "Point"}, "id": "FhWWURqPOD13J2m13EO73aH9DaU=", "properties": {"@spider": "usps_collection_boxes", "addr:city": "LA LUZ", "addr:country": "US", "addr:full": "12 MAIN ST", "addr:postcode": "88337", "addr:state": "NM", "brand": "USPS", "collection_times": "Mo-Fr 16:00; Sa 11:30", "name": "USPS COLLECTION BOX - PO LOBBY", "note": "ON 12/24 AND 12/31, THIS BOX MAY BE COLLECTED AS EARLY AS 12 NOON.", "ref": "8833700004"}, "type": "Feature"}
{"geometry": {"coordinates": [-105.386406, 33.492483], "type": "Point"}, "id": "MX9eMziSXM1msMK5hdb3CwL4S5s=", "properties": {"@spider": "usps_collection_boxes", "addr:city": "LINCOLN", "addr:country": "US", "addr:full": "859 CALLE LA PLACITA", "addr:postcode": "88338", "addr:state": "NM", "brand": "USPS", "collection_times": "Mo-Fr 14:00; Sa 10:00", "name": "USPS COLLECTION BOX - PO LOBBY", "note": "ON 12/24 AND 12/31, THIS BOX MAY BE COLLECTED AS EARLY AS 12 NOON.", "ref": "8833800001"}, "type": "Feature"}
{"geometry": {"coordinates": [-105.387017649, 33.492734452], "type": "Point"}, "id": "6VRx3dFK-pk6mbSejZEOmpY3aK8=", "properties": {"@spider": "usps_collection_boxes", "addr:city": "LINCOLN", "addr:country": "US", "addr:full": "859 CALLE LA PLACITA", "addr:postcode": "88338", "addr:state": "NM", "brand": "USPS", "collection_times": "Mo-Fr 13:45; Sa 09:45", "name": "USPS COLLECTION BOX - PO LOBBY", "note": "ON 12/24 AND 12/31, THIS BOX MAY BE COLLECTED AS EARLY AS 12 NOON.", "ref": "8833800002"}, "type": "Feature"}
{"geometry": {"coordinates": [-105.477921, 32.89094], "type": "Point"}, "id": "pSk1oci04ptLRz3LK0kZ-VhsaLg=", "properties": {"@spider": "usps_collection_boxes", "addr:city": "MAYHILL", "addr:country": "US", "addr:full": "3495 US HIGHWAY 82", "addr:postcode": "88339", "addr:state": "NM", "brand": "USPS", "collection_times": "Mo-Fr 12:00; Sa 11:00", "name": "USPS COLLECTION BOX - PO LOBBY", "ref": "8833900000"}, "type": "Feature"}
{"geometry": {"coordinates": [-105.477878, 32.890979], "type": "Point"}, "id": "Lp0pOKtLmgPeCO9DcNFb8mxJv0o=", "properties": {"@spider": "usps_collection_boxes", "addr:city": "MAYHILL", "addr:country": "US", "addr:full": "3495 US HIGHWAY 82", "addr:postcode": "88339", "addr:state": "NM", "brand": "USPS", "collection_times": "Mo-Fr 12:00; Sa 11:00", "name": "USPS COLLECTION BOX - BLUE BOX", "ref": "8833900001"}, "type": "Feature"}
{"geometry": {"coordinates": [-105.477878, 32.890979], "type": "Point"}, "id": "dt5lA5WLCrbMGB0U_8P0yFBw4PM=", "properties": {"@spider": "usps_collection_boxes", "addr:city": "MAYHILL", "addr:country": "US", "addr:full": "3495 US HIGHWAY 82", "addr:postcode": "88339", "addr:state": "NM", "brand": "USPS", "collection_times": "Mo-Fr 12:00; Sa 11:00", "name": "USPS COLLECTION BOX - PO LOBBY", "ref": "8833900002"}, "type": "Feature"}
{"geometry": {"coordinates": [-105.478076009, 32.890228649], "type": "Point"}, "id": "pzqq8-NF7AABwx1nOBjprD3QA7A=", "properties": {"@spider": "usps_collection_boxes", "addr:city": "MAYHILL", "addr:country": "US", "addr:full": "3495 US HIGHWAY 82", "addr:postcode": "88339", "addr:state": "NM", "brand": "USPS", "collection_times": "Mo-Fr 12:00; Sa 11:00", "name": "USPS COLLECTION BOX - PO LOBBY", "ref": "8833900003"}, "type": "Feature"}
{"geometry": {"coordinates": [-105.778391, 33.156972], "type": "Point"}, "id": "NCLnMb0AnWPKsQKHQKxsJNtMZX0=", "properties": {"@spider": "usps_collection_boxes", "addr:city": "MESCALERO", "addr:country": "US", "addr:full": "124 CHIRICAHUA PLZ", "addr:postcode": "88340", "addr:state": "NM", "brand": "USPS", "collection_times": "Mo-Fr 14:45; Sa 11:30", "name": "USPS COLLECTION BOX - BLUE BOX", "note": "ON 12/24 AND 12/31, THIS BOX MAY BE COLLECTED AS EARLY AS 12 NOON.", "ref": "8834000000"}, "type": "Feature"}
{"geometry": {"coordinates": [-105.7781253399, 33.1569178454], "type": "Point"}, "id": "1nEiEU3J8nRwkSpsISRsZ3vFOIo=", "properties": {"@spider": "usps_collection_boxes", "addr:city": "MESCALERO", "addr:country": "US", "addr:full": "124 CHIRICAHUA PLZ", "addr:postcode": "88340", "addr:state": "NM", "brand": "USPS", "collection_times": "Mo-Fr 14:45; Sa 11:30", "name": "USPS COLLECTION BOX - PO LOBBY", "note": "ON 12/24 AND 12/31, THIS BOX MAY BE COLLECTED AS EARLY AS 12 NOON.", "ref": "8834000001"}, "type": "Feature"}
{"geometry": {"coordinates": [-105.77812534, 33.156917845], "type": "Point"}, "id": "tQ8blQMjI711173h6L3lGhMkipI=", "properties": {"@spider": "usps_collection_boxes", "addr:city": "MESCALERO", "addr:country": "US", "addr:full": "124 CHIRICAHUA PLZ", "addr:postcode": "88340", "addr:state": "NM", "brand": "USPS", "collection_times": "Mo-Fr 14:45; Sa 11:30", "name": "USPS COLLECTION BOX - PO LOBBY", "note": "ON 12/24 AND 12/31, THIS BOX MAY BE COLLECTED AS EARLY AS 12 NOON.", "ref": "8834000002"}, "type": "Feature"}
{"geometry": {"coordinates": [-105.7781253399, 33.1569178454], "type": "Point"}, "id": "rYPF8pkKWy3t6UAdMo1XO5DwA5s=", "properties": {"@spider": "usps_collection_boxes", "addr:city": "MESCALERO", "addr:country": "US", "addr:full": "124 CHIRICAHUA PLZ", "addr:postcode": "88340", "addr:state": "NM", "brand": "USPS", "collection_times": "Mo-Fr 14:45; Sa 11:30", "name": "USPS COLLECTION BOX - PO LOBBY", "note": "ON 12/24 AND 12/31, THIS BOX MAY BE COLLECTED AS EARLY AS 12 NOON.", "ref": "8834000003"}, "type": "Feature"}
{"geometry": {"coordinates": [-105.707875, 33.554097], "type": "Point"}, "id": "1GVGxyWapfMrfOFEAif6Bww_mCU=", "properties": {"@spider": "usps_collection_boxes", "addr:city": "NOGAL", "addr:country": "US", "addr:full": "1108 STATE HIGHWAY 37", "addr:postcode": "88341", "addr:state": "NM", "brand": "USPS", "collection_times": "Mo-Fr 12:00; Sa 11:30", "name": "USPS COLLECTION BOX - BLUE BOX", "ref": "8834100000"}, "type": "Feature"}
{"geometry": {"coordinates": [-105.707887, 33.554004], "type": "Point"}, "id": "0gZ2x7iobJDiBgx5mI_jvnfA_VY=", "properties": {"@spider": "usps_collection_boxes", "addr:city": "NOGAL", "addr:country": "US", "addr:full": "1108 STATE HIGHWAY 37", "addr:postcode": "88341", "addr:state": "NM", "brand": "USPS", "collection_times": "Mo-Fr 12:00; Sa 11:30", "name": "USPS COLLECTION BOX - PO LOBBY", "ref": "8834100001"}, "type": "Feature"}
{"geometry": {"coordinates": [-105.7079100402, 33.5550363636], "type": "Point"}, "id": "SpE7iKFPhFlTl2Of_tJWrdg-2QQ=", "properties": {"@spider": "usps_collection_boxes", "addr:city": "NOGAL", "addr:country": "US", "addr:full": "1108 STATE HIGHWAY 37", "addr:postcode": "88341", "addr:state": "NM", "brand": "USPS", "collection_times": "Mo-Fr 12:00; Sa 11:30", "name": "USPS COLLECTION BOX - PO LOBBY", "ref": "8834100002"}, "type": "Feature"}
{"geometry": {"coordinates": [-106.091835, 32.37972], "type": "Point"}, "id": "QB-lXPzMm2pahaH8ym8stHzrPjU=", "properties": {"@spider": "usps_collection_boxes", "addr:city": "OROGRANDE", "addr:country": "US", "addr:full": "1271 MAIN ST", "addr:postcode": "88342", "addr:state": "NM", "brand": "USPS", "collection_times": "Mo-Fr 13:30; Sa 11:30", "name": "USPS COLLECTION BOX - BLUE BOX", "note": "ON 12/24 AND 12/31, THIS BOX MAY BE COLLECTED AS EARLY AS 12 NOON.", "ref": "8834200000"}, "type": "Feature"}
{"geometry": {"coordinates": [-106.091835, 32.37972], "type": "Point"}, "id": "md1CzPKwAL5TtPEaAYJoCLlfR7Q=", "properties": {"@spider": "usps_collection_boxes", "addr:city": "OROGRANDE", "addr:country": "US", "addr:full": "1271 MAIN ST", "addr:postcode": "88342", "addr:state": "NM", "brand": "USPS", "collection_times": "Mo-Fr 13:30; Sa 11:30", "name": "USPS COLLECTION BOX - PO LOBBY", "note": "ON 12/24 AND 12/31, THIS BOX MAY BE COLLECTED AS EARLY AS 12 NOON.", "ref": "8834200001"}, "type": "Feature"}
{"geometry": {"coordinates": [-106.091827981, 32.3797682828], "type": "Point"}, "id": "pYSg5StCC9GtDG_IzlN4Uz4x-cE=", "properties": {"@spider": "usps_collection_boxes", "addr:city": "OROGRANDE", "addr:country": "US", "addr:full": "1271 MAIN ST", "addr:postcode": "88342", "addr:state": "NM", "brand": "USPS", "collection_times": "Mo-Fr 13:30; Sa 11:30", "name": "USPS COLLECTION BOX - PO LOBBY", "note": "ON 12/24 AND 12/31, THIS BOX MAY BE COLLECTED AS EARLY AS 12 NOON.", "ref": "8834200002"}, "type": "Feature"}
{"geometry": {"coordinates": [-105.137737, 33.34988], "type": "Point"}, "id": "-Aw-uih9puBVx8epq4JPtNdtk0M=", "properties": {"@spider": "usps_collection_boxes", "addr:city": "PICACHO", "addr:country": "US", "addr:full": "29340 US HIGHWAY 70", "addr:postcode": "88343", "addr:state": "NM", "brand": "USPS", "collection_times": "Mo-Fr 13:30; Sa 11:45", "name": "USPS COLLECTION BOX - BLUE BOX", "note": "ON 12/24 AND 12/31, THIS BOX MAY BE COLLECTED AS EARLY AS 12 NOON.", "ref": "8834300000"}, "type": "Feature"}
{"geometry": {"coordinates": [-105.137737, 33.34988], "type": "Point"}, "id": "Sp7JHbnd3m1d5Ui6-I3g8VukLUw=", "properties": {"@spider": "usps_collection_boxes", "addr:city": "PICACHO", "addr:country": "US", "addr:full": "29340 US HIGHWAY 70", "addr:postcode": "88343", "addr:state": "NM", "brand": "USPS", "collection_times": "Mo-Fr 13:30; Sa 11:45", "name": "USPS COLLECTION BOX - PO LOBBY", "note": "ON 12/24 AND 12/31, THIS BOX MAY BE COLLECTED AS EARLY AS 12 NOON.", "ref": "8834300001"}, "type": "Feature"}
{"geometry": {"coordinates": [-105.140209742, 33.350755453], "type": "Point"}, "id": "wGe2_U2aFsMF9rimulx-QmDF8g0=", "properties": {"@spider": "usps_collection_boxes", "addr:city": "PICACHO", "addr:country": "US", "addr:full": "29340 US HIGHWAY 70", "addr:postcode": "88343", "addr:state": "NM", "brand": "USPS", "collection_times": "Mo-Fr 13:30; Sa 11:45", "name": "USPS COLLECTION BOX - PO LOBBY", "note": "ON 12/24 AND 12/31, THIS BOX MAY BE COLLECTED AS EARLY AS 12 NOON.", "ref": "8834300002"}, "type": "Feature"}
{"geometry": {"coordinates": [-105.394888, 32.618809], "type": "Point"}, "id": "eLxK7hoybKfSH_DS0rQu14d0EMs=", "properties": {"@spider": "usps_collection_boxes", "addr:city": "PINON", "addr:country": "US", "addr:full": "2332 HIGHWAY 24", "addr:postcode": "88344", "addr:state": "NM", "brand": "USPS", "collection_times": "Mo-Fr 12:30; Sa 11:30", "name": "USPS COLLECTION BOX - PO LOBBY", "note": "ON 12/24 AND 12/31, THIS BOX MAY BE COLLECTED AS EARLY AS 12 NOON.", "ref": "8834400000"}, "type": "Feature"}
{"geometry": {"coordinates": [-105.3949808848, 32.6188894202], "type": "Point"}, "id": "v1w9HoKZiGk1yiEpmU9orlrVqdM=", "properties": {"@spider": "usps_collection_boxes", "addr:city": "PINON", "addr:country": "US", "addr:full": "2332 HIGHWAY 24", "addr:postcode": "88344", "addr:state": "NM", "brand": "USPS", "collection_times": "Mo-Fr 12:30; Sa 11:30", "name": "USPS COLLECTION BOX - PO LOBBY", "note": "ON 12/24 AND 12/31, THIS BOX MAY BE COLLECTED AS EARLY AS 12 NOON.", "ref": "8834400001"}, "type": "Feature"}
{"geometry": {"coordinates": [-105.665116, 33.357845], "type": "Point"}, "id": "Bo7WqCVihGj0C4JpeHK5xdHyvWQ=", "properties": {"@spider": "usps_collection_boxes", "addr:city": "RUIDOSO", "addr:country": "US", "addr:full": "1090 MECHEM DR", "addr:postcode": "88345", "addr:state": "NM", "brand": "USPS", "collection_times": "Mo-Fr 16:00; Sa 13:00", "name": "USPS COLLECTION BOX - BLUE BOX", "note": "ON 12/24 AND 12/31, THIS BOX MAY BE COLLECTED AS EARLY AS 12 NOON.", "ref": "8834500001"}, "type": "Feature"}
{"geometry": {"coordinates": [-105.665099, 33.357872], "type": "Point"}, "id": "Xo1Ws9KU2xOftVBNlXYU-b-RFlc=", "properties": {"@spider": "usps_collection_boxes", "addr:city": "RUIDOSO", "addr:country": "US", "addr:full": "1090 MECHEM DR", "addr:postcode": "88345", "addr:state": "NM", "brand": "USPS", "collection_times": "Mo-Fr 16:00; Sa 13:00", "name": "USPS COLLECTION BOX - BLUE BOX", "note": "ON 12/24 AND 12/31, THIS BOX MAY BE COLLECTED AS EARLY AS 12 NOON.", "ref": "8834500002"}, "type": "Feature"}
{"geometry": {"coordinates": [-105.628036, 33.323725], "type": "Point"}, "id": "BdAyp90V-WODFTCtX-7buiKw2rg=", "properties": {"@spider": "usps_collection_boxes", "addr:city": "RUIDOSO", "addr:country": "US", "addr:full": "138 SUDDERTH DR", "addr:postcode": "88345", "addr:state": "NM", "brand": "USPS", "collection_times": "Mo-Fr 14:25; Sa 12:05", "name": "USPS COLLECTION BOX - BLUE BOX", "note": "ON 12/24 AND 12/31, THIS BOX MAY BE COLLECTED AS EARLY AS 12 NOON.", "ref": "8834500003"}, "type": "Feature"}
{"geometry": {"coordinates": [-105.633702, 33.316384], "type": "Point"}, "id": "7MxzJQBgiffIuzwsJec03kbKUEw=", "properties": {"@spider": "usps_collection_boxes", "addr:city": "RUIDOSO", "addr:country": "US", "addr:full": "410 HIGHWAY 70", "addr:postcode": "88345", "addr:state": "NM", "brand": "USPS", "collection_times": "Mo-Fr 14:15; Sa 12:00", "name": "USPS COLLECTION BOX - BLUE BOX", "note": "ON 12/24 AND 12/31, THIS BOX MAY BE COLLECTED AS EARLY AS 12 NOON.", "ref": "8834500004"}, "type": "Feature"}
{"geometry": {"coordinates": [-105.662909, 33.328782], "type": "Point"}, "id": "Xs09zF8VI2ZrKy413hhGuvcaC8g=", "properties": {"@spider": "usps_collection_boxes", "addr:city": "RUIDOSO", "addr:country": "US", "addr:full": "1800 SUDDERTH DR", "addr:postcode": "88345", "addr:state": "NM", "brand": "USPS", "collection_times": "Mo-Fr 14:30; Sa 12:10", "name": "USPS COLLECTION BOX - BLUE BOX", "note": "ON 12/24 AND 12/31, THIS BOX MAY BE COLLECTED AS EARLY AS 12 NOON.", "ref": "8834500006"}, "type": "Feature"}
{"geometry": {"coordinates": [-105.663919, 33.359159], "type": "Point"}, "id": "W_LiJV2L7wwZBxSAV7wKWHcSmHg=", "properties": {"@spider": "usps_collection_boxes", "addr:city": "RUIDOSO", "addr:country": "US", "addr:full": "1096 MECHEM DR", "addr:postcode": "88345", "addr:state": "NM", "brand": "USPS", "collection_times": "Mo-Fr 14:50", "name": "USPS COLLECTION BOX - BLUE BOX", "note": "ON 12/24 AND 12/31, THIS BOX MAY BE COLLECTED AS EARLY AS 12 NOON.", "ref": "8834500008"}, "type": "Feature"}
{"geometry": {"coordinates": [-105.668901, 33.369196], "type": "Point"}, "id": "QOLQKz-qwc10tiCzT8A9pJ9LmPA=", "properties": {"@spider": "usps_collection_boxes", "addr:city": "RUIDOSO", "addr:country": "US", "addr:full": "1221 MECHEM DR", "addr:postcode": "88345", "addr:state": "NM", "brand": "USPS", "collection_times": "Mo-Fr 14:00", "name": "USPS COLLECTION BOX - BLUE BOX", "note": "ON 12/24 AND 12/31, THIS BOX MAY BE COLLECTED AS EARLY AS 12 NOON.", "ref": "8834500009"}, "type": "Feature"}
{"geometry": {"coordinates": [-105.673123, 33.35269], "type": "Point"}, "id": "1YBC4DY04MF9sE88Zj6xu8_WfnU=", "properties": {"@spider": "usps_collection_boxes", "addr:city": "RUIDOSO", "addr:country": "US", "addr:full": "1009 MECHEM DR", "addr:postcode": "88345", "addr:state": "NM", "brand": "USPS", "collection_times": "Mo-Fr 14:15", "name": "USPS COLLECTION BOX - BLUE BOX", "note": "ON 12/24 AND 12/31, THIS BOX MAY BE COLLECTED AS EARLY AS 12 NOON.", "ref": "8834500011"}, "type": "Feature"}
{"geometry": {"coordinates": [-105.677024, 33.347076], "type": "Point"}, "id": "kcQUNmLmiME-D8xFjcey6SqFw5c=", "properties": {"@spider": "usps_collection_boxes", "addr:city": "RUIDOSO", "addr:country": "US", "addr:full": "707 MECHEM DR", "addr:postcode": "88345", "addr:state": "NM", "brand": "USPS", "collection_times": "Mo-Fr 09:00", "name": "USPS COLLECTION BOX - BLUE BOX", "ref": "8834500012"}, "type": "Feature"}
{"geometry": {"coordinates": [-105.665337, 33.358619], "type": "Point"}, "id": "AWrzgTMJ2pm_g5k1Ksh5wLiDtfs=", "properties": {"@spider": "usps_collection_boxes", "addr:city": "RUIDOSO", "addr:country": "US", "addr:full": "1090 MECHEM DR", "addr:postcode": "88345", "addr:state": "NM", "brand": "USPS", "collection_times": "Mo-Fr 15:00; Sa 13:00", "name": "USPS COLLECTION BOX - PO LOBBY", "note": "ON 12/24 AND 12/31, THIS BOX MAY BE COLLECTED AS EARLY AS 12 NOON.", "ref": "8834500014"}, "type": "Feature"}
{"geometry": {"coordinates": [-105.63352, 33.316642], "type": "Point"}, "id": "Qzts4Pkymm4wpCzG_pVWE0PQjlw=", "properties": {"@spider": "usps_collection_boxes", "addr:city": "RUIDOSO", "addr:country": "US", "addr:full": "410 HIGHWAY 70", "addr:postcode": "88345", "addr:state": "NM", "brand": "USPS", "collection_times": "Mo-Fr 14:15; Sa 12:00", "name": "USPS COLLECTION BOX - PO LOBBY", "note": "ON 12/24 AND 12/31, THIS BOX MAY BE COLLECTED AS EARLY AS 12 NOON.", "ref": "8834500015"}, "type": "Feature"}
{"geometry": {"coordinates": [-105.673927, 33.341052], "type": "Point"}, "id": "9F9gaBITCsIEQ0LJGAc9Zc77ca0=", "properties": {"@spider": "usps_collection_boxes", "addr:city": "RUIDOSO", "addr:country": "US", "addr:full": "508 MECHEM DR", "addr:postcode": "88345", "addr:state": "NM", "brand": "USPS", "collection_times": "Mo-Fr 14:45", "name": "USPS COLLECTION BOX - BLUE BOX", "note": "ON 12/24 AND 12/31, THIS BOX MAY BE COLLECTED AS EARLY AS 12 NOON.", "ref": "8834500016"}, "type": "Feature"}
{"geometry": {"coordinates": [-105.663803, 33.359121], "type": "Point"}, "id": "fw9QjQ25_XUs0SJJfuC5-1XZhrs=", "properties": {"@spider": "usps_collection_boxes", "addr:city": "RUIDOSO", "addr:country": "US", "addr:full": "1096 MECHEM DR", "addr:postcode": "88345", "addr:state": "NM", "brand": "USPS", "collection_times": "Mo-Fr 14:50", "name": "USPS COLLECTION BOX - BLUE BOX", "note": "ON 12/24 AND 12/31, THIS BOX MAY BE COLLECTED AS EARLY AS 12 NOON.", "ref": "8834500017"}, "type": "Feature"}
{"geometry": {"coordinates": [-105.685207, 33.333531], "type": "Point"}, "id": "mzuu5BJ5aKK2iG3KEURbh41c8to=", "properties": {"@spider": "usps_collection_boxes", "addr:city": "RUIDOSO", "addr:country": "US", "addr:full": "101 VISION DR", "addr:postcode": "88345", "addr:state": "NM", "brand": "USPS", "collection_times": "Mo-Sa 11:30", "name": "USPS COLLECTION BOX - BLUE BOX", "ref": "8834500018"}, "type": "Feature"}
{"geometry": {"coordinates": [-105.633552, 33.316682], "type": "Point"}, "id": "MY-5NOk0YkJ0ekDZLlZmglbIt6g=", "properties": {"@spider": "usps_collection_boxes", "addr:city": "RUIDOSO", "addr:country": "US", "addr:full": "410 HIGHWAY 70", "addr:postcode": "88345", "addr:state": "NM", "brand": "USPS", "collection_times": "Mo-Fr 14:15; Sa 12:00", "name": "USPS COLLECTION BOX - PO LOBBY", "note": "ON 12/24 AND 12/31, THIS BOX MAY BE COLLECTED AS EARLY AS 12 NOON.", "ref": "8834500019"}, "type": "Feature"}
{"geometry": {"coordinates": [-105.665337, 33.358619], "type": "Point"}, "id": "vLFSMjoiOfDkfv0jo16OzCmzALM=", "properties": {"@spider": "usps_collection_boxes", "addr:city": "RUIDOSO", "addr:country": "US", "addr:full": "1090 MECHEM DR", "addr:postcode": "88345", "addr:state": "NM", "brand": "USPS", "collection_times": "Mo-Fr 15:00; Sa 13:00", "name": "USPS COLLECTION BOX - PO LOBBY", "note": "ON 12/24 AND 12/31, THIS BOX MAY BE COLLECTED AS EARLY AS 12 NOON.", "ref": "8834500020"}, "type": "Feature"}
{"geometry": {"coordinates": [-105.665337, 33.358619], "type": "Point"}, "id": "6ZaC7Yj5yAEwqYixFTIST-jR1FY=", "properties": {"@spider": "usps_collection_boxes", "addr:city": "RUIDOSO", "addr:country": "US", "addr:full": "1090 MECHEM DR", "addr:postcode": "88345", "addr:state": "NM", "brand": "USPS", "collection_times": "Mo-Fr 15:00; Sa 13:00", "name": "USPS COLLECTION BOX - PO LOBBY", "note": "ON 12/24 AND 12/31, THIS BOX MAY BE COLLECTED AS EARLY AS 12 NOON.", "ref": "8834500021"}, "type": "Feature"}
{"geometry": {"coordinates": [-105.6653145536, 33.3585942126], "type": "Point"}, "id": "vX3FeKGNXPggal3JERF67YtUbcQ=", "properties": {"@spider": "usps_collection_boxes", "addr:city": "RUIDOSO", "addr:country": "US", "addr:full": "1090 MECHEM DR", "addr:postcode": "88345", "addr:state": "NM", "brand": "USPS", "collection_times": "Mo-Fr 15:00; Sa 13:00", "name": "USPS COLLECTION BOX - PO LOBBY", "note": "ON 12/24 AND 12/31, THIS BOX MAY BE COLLECTED AS EARLY AS 12 NOON.", "ref": "8834500023"}, "type": "Feature"}
{"geometry": {"coordinates": [-105.638695813, 33.3119471658], "type": "Point"}, "id": "hOyDuFHS65JJ-JTfznofaWbKPpU=", "properties": {"@spider": "usps_collection_boxes", "addr:city": "RUIDOSO", "addr:country": "US", "addr:full": "26053 US HIGHWAY 70", "addr:postcode": "88345", "addr:state": "NM", "brand": "USPS", "collection_times": "Mo-Fr 14:15; Sa 12:00", "name": "USPS COLLECTION BOX - PO LOBBY", "note": "ON 12/24 AND 12/31, THIS BOX MAY BE COLLECTED AS EARLY AS 12 NOON.", "ref": "8834500024"}, "type": "Feature"}
{"geometry": {"coordinates": [-105.58999, 33.331454], "type": "Point"}, "id": "B7K2HunboLJIoOlmzQUQ7tQAsss=", "properties": {"@spider": "usps_collection_boxes", "addr:city": "RUIDOSO DOWNS", "addr:country": "US", "addr:full": "26336 US HIGHWAY 70 E", "addr:postcode": "88346", "addr:state": "NM", "brand": "USPS", "collection_times": "Mo-Fr 15:00; Sa 11:30", "name": "USPS COLLECTION BOX - BLUE BOX", "note": "ON 12/24 AND 12/31, THIS BOX MAY BE COLLECTED AS EARLY AS 12 NOON.", "ref": "8834600000"}, "type": "Feature"}
{"geometry": {"coordinates": [-105.590521, 33.331203], "type": "Point"}, "id": "O3kToulcI9H5LzHqjCcueJ_vg5I=", "properties": {"@spider": "usps_collection_boxes", "addr:city": "RUIDOSO DOWNS", "addr:country": "US", "addr:full": "26336 US HIGHWAY 70 E", "addr:postcode": "88346", "addr:state": "NM", "brand": "USPS", "collection_times": "Mo-Fr 15:00; Sa 11:45", "name": "USPS COLLECTION BOX - PO LOBBY", "note": "ON 12/24 AND 12/31, THIS BOX MAY BE COLLECTED AS EARLY AS 12 NOON.", "ref": "8834600001"}, "type": "Feature"}
{"geometry": {"coordinates": [-105.590521, 33.331203], "type": "Point"}, "id": "wWkl3taxdn94axXbkp8Cn2oafGc=", "properties": {"@spider": "usps_collection_boxes", "addr:city": "RUIDOSO DOWNS", "addr:country": "US", "addr:full": "26336 US HIGHWAY 70 E", "addr:postcode": "88346", "addr:state": "NM", "brand": "USPS", "collection_times": "Mo-Fr 15:00; Sa 11:45", "name": "USPS COLLECTION BOX - PO LOBBY", "note": "ON 12/24 AND 12/31, THIS BOX MAY BE COLLECTED AS EARLY AS 12 NOON.", "ref": "8834600002"}, "type": "Feature"}
{"geometry": {"coordinates": [-105.590679675, 33.331126895], "type": "Point"}, "id": "0m5e2dS5JTPg9XSGAxP_7whsGPE=", "properties": {"@spider": "usps_collection_boxes", "addr:city": "RUIDOSO DOWNS", "addr:country": "US", "addr:full": "26336 US HIGHWAY 70 E", "addr:postcode": "88346", "addr:state": "NM", "brand": "USPS", "collection_times": "Mo-Fr 15:00; Sa 11:45", "name": "USPS COLLECTION BOX - PO LOBBY", "note": "ON 12/24 AND 12/31, THIS BOX MAY BE COLLECTED AS EARLY AS 12 NOON.", "ref": "8834600003"}, "type": "Feature"}
{"geometry": {"coordinates": [-105.563223, 32.793853], "type": "Point"}, "id": "SPA6W9N08Dt1u3bu9MW3O0ESb0M=", "properties": {"@spider": "usps_collection_boxes", "addr:city": "SACRAMENTO", "addr:country": "US", "addr:full": "16 ASSEMBLY RD", "addr:postcode": "88347", "addr:state": "NM", "brand": "USPS", "collection_times": "Mo-Fr 11:30; Sa 10:30", "name": "USPS COLLECTION BOX - PO LOBBY", "ref": "8834700000"}, "type": "Feature"}
{"geometry": {"coordinates": [-105.563205172, 32.7941135], "type": "Point"}, "id": "MP0wc7D7R4UBHIzUO7fDQiu0yJk=", "properties": {"@spider": "usps_collection_boxes", "addr:city": "SACRAMENTO", "addr:country": "US", "addr:full": "16 ASSEMBLY RD", "addr:postcode": "88347", "addr:state": "NM", "brand": "USPS", "collection_times": "Mo-Fr 11:30; Sa 10:30", "name": "USPS COLLECTION BOX - PO LOBBY", "ref": "8834700001"}, "type": "Feature"}
{"geometry": {"coordinates": [-105.32606, 33.408433], "type": "Point"}, "id": "_Kg60YNWXqnkj__LyOdflCl4XwU=", "properties": {"@spider": "usps_collection_boxes", "addr:city": "SAN PATRICIO", "addr:country": "US", "addr:full": "28100 PETER HURD LOOP", "addr:postcode": "88348", "addr:state": "NM", "brand": "USPS", "collection_times": "Mo-Fr 12:00; Sa 11:30", "name": "USPS COLLECTION BOX - BLUE BOX", "ref": "8834800000"}, "type": "Feature"}
{"geometry": {"coordinates": [-105.32606, 33.408433], "type": "Point"}, "id": "BV7a3bMVHuGfnUWEIBqjzN0dEYo=", "properties": {"@spider": "usps_collection_boxes", "addr:city": "SAN PATRICIO", "addr:country": "US", "addr:full": "28100 PETER HURD LOOP", "addr:postcode": "88348", "addr:state": "NM", "brand": "USPS", "collection_times": "Mo-Fr 12:00; Sa 11:30", "name": "USPS COLLECTION BOX - PO LOBBY", "ref": "8834800001"}, "type": "Feature"}
{"geometry": {"coordinates": [-105.3319597436, 33.4109869114], "type": "Point"}, "id": "AM6QHesE6QELN7n9UTUoSKjbom8=", "properties": {"@spider": "usps_collection_boxes", "addr:city": "SAN PATRICIO", "addr:country": "US", "addr:full": "28100 PETER HURD LOOP", "addr:postcode": "88348", "addr:state": "NM", "brand": "USPS", "collection_times": "Mo-Fr 12:00; Sa 11:30", "name": "USPS COLLECTION BOX - PO LOBBY", "ref": "8834800002"}, "type": "Feature"}
{"geometry": {"coordinates": [-105.8064388191, 32.7880375028], "type": "Point"}, "id": "OID44tbFKQtFDXUNrbyEmg-3QVA=", "properties": {"@spider": "usps_collection_boxes", "addr:city": "SUNSPOT", "addr:country": "US", "addr:full": "1 MAIN ST", "addr:postcode": "88349", "addr:state": "NM", "brand": "USPS", "collection_times": "Mo-Sa 11:30", "name": "USPS COLLECTION BOX - PO LOBBY", "ref": "8834900000"}, "type": "Feature"}
{"geometry": {"coordinates": [-105.8182481, 32.792733], "type": "Point"}, "id": "Kz28GxnOPco7jVnMv94pmlzFE3Y=", "properties": {"@spider": "usps_collection_boxes", "addr:city": "SUNSPOT", "addr:country": "US", "addr:full": "1 MAIN ST", "addr:postcode": "88349", "addr:state": "NM", "brand": "USPS", "collection_times": "Mo-Sa 11:30", "name": "USPS COLLECTION BOX - PO LOBBY", "ref": "8834900001"}, "type": "Feature"}
{"geometry": {"coordinates": [-105.225761, 33.370155], "type": "Point"}, "id": "8pusha1wQhStARdCHHu1K2Hi4qk=", "properties": {"@spider": "usps_collection_boxes", "addr:city": "TINNIE", "addr:country": "US", "addr:full": "28801 US HIGHWAY 70", "addr:postcode": "88351", "addr:state": "NM", "brand": "USPS", "collection_times": "Mo-Fr 13:45; Sa 11:15", "name": "USPS COLLECTION BOX - BLUE BOX", "note": "ON 12/24 AND 12/31, THIS BOX MAY BE COLLECTED AS EARLY AS 12 NOON.", "ref": "8835100000"}, "type": "Feature"}
{"geometry": {"coordinates": [-105.225867, 33.370123], "type": "Point"}, "id": "u7aXJjmJZbcw8QCuqnqCSH1bzCE=", "properties": {"@spider": "usps_collection_boxes", "addr:city": "TINNIE", "addr:country": "US", "addr:full": "28801 US HIGHWAY 70", "addr:postcode": "88351", "addr:state": "NM", "brand": "USPS", "collection_times": "Mo-Fr 13:45; Sa 11:15", "name": "USPS COLLECTION BOX - PO LOBBY", "note": "ON 12/24 AND 12/31, THIS BOX MAY BE COLLECTED AS EARLY AS 12 NOON.", "ref": "8835100001"}, "type": "Feature"}
{"geometry": {"coordinates": [-105.2282642099, 33.3701033222], "type": "Point"}, "id": "XqsT0M-Bp2pmly0H44u2Dv2Mlec=", "properties": {"@spider": "usps_collection_boxes", "addr:city": "TINNIE", "addr:country": "US", "addr:full": "28801 US HIGHWAY 70", "addr:postcode": "88351", "addr:state": "NM", "brand": "USPS", "collection_times": "Mo-Fr 13:45; Sa 11:15", "name": "USPS COLLECTION BOX - PO LOBBY", "note": "ON 12/24 AND 12/31, THIS BOX MAY BE COLLECTED AS EARLY AS 12 NOON.", "ref": "8835100002"}, "type": "Feature"}
{"geometry": {"coordinates": [-106.0146902412, 33.0792295723], "type": "Point"}, "id": "xUjbq478HK7pHAIC54VlPrVjuB0=", "properties": {"@spider": "usps_collection_boxes", "addr:city": "TULAROSA", "addr:country": "US", "addr:full": "360 CENTRAL AVE", "addr:postcode": "88352", "addr:state": "NM", "brand": "USPS", "collection_times": "Mo-Fr 17:00; Sa 15:00", "name": "USPS COLLECTION BOX - PO LOBBY", "note": "ON 12/24 AND 12/31, THIS BOX MAY BE COLLECTED AS EARLY AS 12 NOON.", "ref": "8835200000"}, "type": "Feature"}
{"geometry": {"coordinates": [-106.0146902412, 33.0792295723], "type": "Point"}, "id": "A7RmRs6VMb1A9IUovNh_FiBg_3c=", "properties": {"@spider": "usps_collection_boxes", "addr:city": "TULAROSA", "addr:country": "US", "addr:full": "360 CENTRAL AVE", "addr:postcode": "88352", "addr:state": "NM", "brand": "USPS", "collection_times": "Mo-Fr 17:00; Sa 15:00", "name": "USPS COLLECTION BOX - BLUE BOX", "note": "ON 12/24 AND 12/31, THIS BOX MAY BE COLLECTED AS EARLY AS 12 NOON.", "ref": "8835200007"}, "type": "Feature"}
{"geometry": {"coordinates": [-106.0146902412, 33.0792295723], "type": "Point"}, "id": "z_DODmrAwyCSXfyvpk43pBdQzME=", "properties": {"@spider": "usps_collection_boxes", "addr:city": "TULAROSA", "addr:country": "US", "addr:full": "360 CENTRAL AVE", "addr:postcode": "88352", "addr:state": "NM", "brand": "USPS", "collection_times": "Mo-Fr 17:00; Sa 15:00", "name": "USPS COLLECTION BOX - BLUE BOX", "note": "ON 12/24 AND 12/31, THIS BOX MAY BE COLLECTED AS EARLY AS 12 NOON.", "ref": "8835200008"}, "type": "Feature"}
{"geometry": {"coordinates": [-106.0146902412, 33.0792295723], "type": "Point"}, "id": "xsXWBJaITmNzWGkSn-gU7R-bJpA=", "properties": {"@spider": "usps_collection_boxes", "addr:city": "TULAROSA", "addr:country": "US", "addr:full": "360 CENTRAL AVE", "addr:postcode": "88352", "addr:state": "NM", "brand": "USPS", "collection_times": "Mo-Fr 17:00; Sa 15:00", "name": "USPS COLLECTION BOX - PO LOBBY", "note": "ON 12/24 AND 12/31, THIS BOX MAY BE COLLECTED AS EARLY AS 12 NOON.", "ref": "8835200009"}, "type": "Feature"}
{"geometry": {"coordinates": [-106.0146902412, 33.0792295723], "type": "Point"}, "id": "UGNNIjOmNi-ELampcSIgs_c236w=", "properties": {"@spider": "usps_collection_boxes", "addr:city": "TULAROSA", "addr:country": "US", "addr:full": "360 CENTRAL AVE", "addr:postcode": "88352", "addr:state": "NM", "brand": "USPS", "collection_times": "Mo-Fr 17:00; Sa 15:00", "name": "USPS COLLECTION BOX - PO LOBBY", "note": "ON 12/24 AND 12/31, THIS BOX MAY BE COLLECTED AS EARLY AS 12 NOON.", "ref": "8835200010"}, "type": "Feature"}
{"geometry": {"coordinates": [-105.213168, 34.601724], "type": "Point"}, "id": "b4gP3cOM0ew5GBP5qJps99yc6fQ=", "properties": {"@spider": "usps_collection_boxes", "addr:city": "VAUGHN", "addr:country": "US", "addr:full": "800 W 8TH ST", "addr:postcode": "88353", "addr:state": "NM", "brand": "USPS", "collection_times": "Mo-Fr 13:15; Sa 11:30", "name": "USPS COLLECTION BOX - BLUE BOX", "note": "ON 12/24 AND 12/31, THIS BOX MAY BE COLLECTED AS EARLY AS 12 NOON.", "ref": "8835300000"}, "type": "Feature"}
{"geometry": {"coordinates": [-105.213277, 34.601741], "type": "Point"}, "id": "hdsBy5QGEjQFJr42NuKu1Bn8NDA=", "properties": {"@spider": "usps_collection_boxes", "addr:city": "VAUGHN", "addr:country": "US", "addr:full": "800 W 8TH ST", "addr:postcode": "88353", "addr:state": "NM", "brand": "USPS", "collection_times": "Mo-Fr 13:15; Sa 11:30", "name": "USPS COLLECTION BOX - PO LOBBY", "note": "ON 12/24 AND 12/31, THIS BOX MAY BE COLLECTED AS EARLY AS 12 NOON.", "ref": "8835300001"}, "type": "Feature"}
{"geometry": {"coordinates": [-105.2131633324, 34.6017194851], "type": "Point"}, "id": "yp_pS_UYNdoby3_fDJLYTdVXshw=", "properties": {"@spider": "usps_collection_boxes", "addr:city": "VAUGHN", "addr:country": "US", "addr:full": "800 W 8TH ST", "addr:postcode": "88353", "addr:state": "NM", "brand": "USPS", "collection_times": "Mo-Fr 13:15; Sa 11:30", "name": "USPS COLLECTION BOX - PO LOBBY", "note": "ON 12/24 AND 12/31, THIS BOX MAY BE COLLECTED AS EARLY AS 12 NOON.", "ref": "8835300002"}, "type": "Feature"}
{"geometry": {"coordinates": [-105.517021, 32.802256], "type": "Point"}, "id": "fpMSVMRoRa4H3vRuWwcTfiaU2mQ=", "properties": {"@spider": "usps_collection_boxes", "addr:city": "WEED", "addr:country": "US", "addr:full": "21 WEED RD", "addr:postcode": "88354", "addr:state": "NM", "brand": "USPS", "collection_times": "Mo-Fr 12:00; Sa 11:00", "name": "USPS COLLECTION BOX - PO LOBBY", "ref": "8835400000"}, "type": "Feature"}
{"geometry": {"coordinates": [-105.517053, 32.802286], "type": "Point"}, "id": "wSaRJLJoOMMZYrN3DhSoczi5ZfI=", "properties": {"@spider": "usps_collection_boxes", "addr:city": "WEED", "addr:country": "US", "addr:full": "21 WEED RD", "addr:postcode": "88354", "addr:state": "NM", "brand": "USPS", "collection_times": "Mo-Fr 12:00; Sa 11:00", "name": "USPS COLLECTION BOX - BLUE BOX", "ref": "8835400001"}, "type": "Feature"}
{"geometry": {"coordinates": [-105.5170277989, 32.8023095029], "type": "Point"}, "id": "REjTrKuHvy7UqPGmMMKS4ltMao0=", "properties": {"@spider": "usps_collection_boxes", "addr:city": "WEED", "addr:country": "US", "addr:full": "21 WEED RD", "addr:postcode": "88354", "addr:state": "NM", "brand": "USPS", "collection_times": "Mo-Fr 12:00; Sa 11:00", "name": "USPS COLLECTION BOX - PO LOBBY", "ref": "8835400002"}, "type": "Feature"}
