{"dataset_attributes": {"@spider": "usps_collection_boxes", "spider:collection_time": "2023-10-22T08:22:45.367372"}, "geometry": {"coordinates": [-103.7260920894, 35.1779633113], "type": "Point"}, "id": "vEaVLBPLYiWM0Bz9pfcWm6fV0zw=", "properties": {"@spider": "usps_collection_boxes", "addr:city": "TUCUMCARI", "addr:country": "US", "addr:full": "200 S 2ND ST", "addr:postcode": "88401", "addr:state": "NM", "amenity": "post_box", "brand": "United States Postal Service", "brand:wikidata": "Q668687", "collection_times": "Mo-Fr 16:25; Sa 15:25", "name": "USPS COLLECTION BOX - BLUE BOX", "note": "ON 12/24 AND 12/31, THIS BOX MAY BE COLLECTED AS EARLY AS 12 NOON.", "nsi_id": "unitedstatespostalservice-a77078", "operator": "United States Postal Service", "operator:short": "USPS", "operator:type": "public", "operator:wikidata": "Q668687", "ref": "8840100003"}, "type": "Feature"}
{"dataset_attributes": {"@spider": "usps_collection_boxes", "spider:collection_time": "2023-10-22T08:22:45.367372"}, "geometry": {"coordinates": [-103.7238433324, 35.1780524716], "type": "Point"}, "id": "gkO5lS6LtLMS5Hxlxg0PFKoaiUk=", "properties": {"@spider": "usps_collection_boxes", "addr:city": "TUCUMCARI", "addr:country": "US", "addr:full": "215 E CENTER ST", "addr:postcode": "88401", "addr:state": "NM", "amenity": "post_box", "brand": "United States Postal Service", "brand:wikidata": "Q668687", "collection_times": "Mo-Fr 16:25; Sa 15:25", "name": "USPS COLLECTION BOX - BLUE BOX", "note": "ON 12/24 AND 12/31, THIS BOX MAY BE COLLECTED AS EARLY AS 12 NOON.", "nsi_id": "unitedstatespostalservice-a77078", "operator": "United States Postal Service", "operator:short": "USPS", "operator:type": "public", "operator:wikidata": "Q668687", "ref": "8840100009"}, "type": "Feature"}
{"dataset_attributes": {"@spider": "usps_collection_boxes", "spider:collection_time": "2023-10-22T08:22:45.367372"}, "geometry": {"coordinates": [-103.700963, 35.158906], "type": "Point"}, "id": "kYrhAL4Wp0aiPOrhjRlo49bh64M=", "properties": {"@spider": "usps_collection_boxes", "addr:city": "TUCUMCARI", "addr:country": "US", "addr:full": "1900 MOUNTAIN RD", "addr:postcode": "88401", "addr:state": "NM", "amenity": "post_box", "brand": "United States Postal Service", "brand:wikidata": "Q668687", "collection_times": "Mo-Sa 08:35", "name": "USPS COLLECTION BOX - BLUE BOX", "nsi_id": "unitedstatespostalservice-a77078", "operator": "United States Postal Service", "operator:short": "USPS", "operator:type": "public", "operator:wikidata": "Q668687", "ref": "8840100010"}, "type": "Feature"}
{"dataset_attributes": {"@spider": "usps_collection_boxes", "spider:collection_time": "2023-10-22T08:22:45.367372"}, "geometry": {"coordinates": [-103.734457, 35.174528], "type": "Point"}, "id": "2jDXKRmrYb2jntekZI35W24znjE=", "properties": {"@spider": "usps_collection_boxes", "addr:city": "TUCUMCARI", "addr:country": "US", "addr:full": "714 W HANCOCK AVE", "addr:postcode": "88401", "addr:state": "NM", "amenity": "post_box", "brand": "United States Postal Service", "brand:wikidata": "Q668687", "collection_times": "Mo-Sa 11:00", "name": "USPS COLLECTION BOX - BLUE BOX", "nsi_id": "unitedstatespostalservice-a77078", "operator": "United States Postal Service", "operator:short": "USPS", "operator:type": "public", "operator:wikidata": "Q668687", "ref": "8840100012"}, "type": "Feature"}
{"dataset_attributes": {"@spider": "usps_collection_boxes", "spider:collection_time": "2023-10-22T08:22:45.367372"}, "geometry": {"coordinates": [-103.7248165745, 35.1777792788], "type": "Point"}, "id": "X3f9LYl4aebiVVpN01a_WN_SNgk=", "properties": {"@spider": "usps_collection_boxes", "addr:city": "TUCUMCARI", "addr:country": "US", "addr:full": "220 S 1ST ST", "addr:postcode": "88401", "addr:state": "NM", "amenity": "post_box", "brand": "United States Postal Service", "brand:wikidata": "Q668687", "collection_times": "Mo-Fr 16:30; Sa 15:30", "name": "USPS COLLECTION BOX - PO LOBBY", "note": "ON 12/24 AND 12/31, THIS BOX MAY BE COLLECTED AS EARLY AS 12 NOON.", "nsi_id": "unitedstatespostalservice-a77078", "operator": "United States Postal Service", "operator:short": "USPS", "operator:type": "public", "operator:wikidata": "Q668687", "ref": "8840100013"}, "type": "Feature"}
{"dataset_attributes": {"@spider": "usps_collection_boxes", "spider:collection_time": "2023-10-22T08:22:45.367372"}, "geometry": {"coordinates": [-103.727519, 35.176611], "type": "Point"}, "id": "N_AbNp8tMMiU6njZjse9jAgvS-E=", "properties": {"@spider": "usps_collection_boxes", "addr:city": "TUCUMCARI", "addr:country": "US", "addr:full": "301 S 3RD ST", "addr:postcode": "88401", "addr:state": "NM", "amenity": "post_box", "brand": "United States Postal Service", "brand:wikidata": "Q668687", "collection_times": "Mo-Fr 16:25; Sa 15:25", "name": "USPS COLLECTION BOX - BLUE BOX", "note": "ON 12/24 AND 12/31, THIS BOX MAY BE COLLECTED AS EARLY AS 12 NOON.", "nsi_id": "unitedstatespostalservice-a77078", "operator": "United States Postal Service", "operator:short": "USPS", "operator:type": "public", "operator:wikidata": "Q668687", "ref": "8840100014"}, "type": "Feature"}
{"dataset_attributes": {"@spider": "usps_collection_boxes", "spider:collection_time": "2023-10-22T08:22:45.367372"}, "geometry": {"coordinates": [-103.7248165745, 35.1777792788], "type": "Point"}, "id": "5AyuvVuX7EO2Gq2lM1eTZQZxFZs=", "properties": {"@spider": "usps_collection_boxes", "addr:city": "TUCUMCARI", "addr:country": "US", "addr:full": "220 S 1ST ST", "addr:postcode": "88401", "addr:state": "NM", "amenity": "post_box", "brand": "United States Postal Service", "brand:wikidata": "Q668687", "collection_times": "Mo-Fr 16:30; Sa 15:30", "name": "USPS COLLECTION BOX - PO LOBBY", "note": "ON 12/24 AND 12/31, THIS BOX MAY BE COLLECTED AS EARLY AS 12 NOON.", "nsi_id": "unitedstatespostalservice-a77078", "operator": "United States Postal Service", "operator:short": "USPS", "operator:type": "public", "operator:wikidata": "Q668687", "ref": "8840100015"}, "type": "Feature"}
{"dataset_attributes": {"@spider": "usps_collection_boxes", "spider:collection_time": "2023-10-22T08:22:45.367372"}, "geometry": {"coordinates": [-103.703307, 35.159417], "type": "Point"}, "id": "NUnlLyzkTxOKiH31xJnMQRcRVKo=", "properties": {"@spider": "usps_collection_boxes", "addr:city": "TUCUMCARI", "addr:country": "US", "addr:full": "2021 MOUNTAIN RD", "addr:postcode": "88401", "addr:state": "NM", "amenity": "post_box", "brand": "United States Postal Service", "brand:wikidata": "Q668687", "collection_times": "Mo-Sa 08:30", "name": "USPS COLLECTION BOX - BLUE BOX", "nsi_id": "unitedstatespostalservice-a77078", "operator": "United States Postal Service", "operator:short": "USPS", "operator:type": "public", "operator:wikidata": "Q668687", "ref": "8840100020"}, "type": "Feature"}
{"dataset_attributes": {"@spider": "usps_collection_boxes", "spider:collection_time": "2023-10-22T08:22:45.367372"}, "geometry": {"coordinates": [-103.7236036841, 35.1777767911], "type": "Point"}, "id": "oKGD9q1V6seqeTkV_lubk9NCj70=", "properties": {"@spider": "usps_collection_boxes", "addr:city": "TUCUMCARI", "addr:country": "US", "addr:full": "221 S ADAMS ST", "addr:postcode": "88401", "addr:state": "NM", "amenity": "post_box", "brand": "United States Postal Service", "brand:wikidata": "Q668687", "collection_times": "Mo-Fr 16:30; Sa 15:30", "name": "USPS COLLECTION BOX - BLUE BOX", "note": "ON 12/24 AND 12/31, THIS BOX MAY BE COLLECTED AS EARLY AS 12 NOON.", "nsi_id": "unitedstatespostalservice-a77078", "operator": "United States Postal Service", "operator:short": "USPS", "operator:type": "public", "operator:wikidata": "Q668687", "ref": "8840100021"}, "type": "Feature"}
{"dataset_attributes": {"@spider": "usps_collection_boxes", "spider:collection_time": "2023-10-22T08:22:45.367372"}, "geometry": {"coordinates": [-103.723661, 35.177364], "type": "Point"}, "id": "7H78VxJBr2MQGbeiKIu6R5V9EmE=", "properties": {"@spider": "usps_collection_boxes", "addr:city": "TUCUMCARI", "addr:country": "US", "addr:full": "221 S ADAMS ST", "addr:postcode": "88401", "addr:state": "NM", "amenity": "post_box", "brand": "United States Postal Service", "brand:wikidata": "Q668687", "collection_times": "Mo-Fr 16:30; Sa 15:30", "name": "USPS COLLECTION BOX - BLUE BOX", "note": "ON 12/24 AND 12/31, THIS BOX MAY BE COLLECTED AS EARLY AS 12 NOON.", "nsi_id": "unitedstatespostalservice-a77078", "operator": "United States Postal Service", "operator:short": "USPS", "operator:type": "public", "operator:wikidata": "Q668687", "ref": "8840100022"}, "type": "Feature"}
{"dataset_attributes": {"@spider": "usps_collection_boxes", "spider:collection_time": "2023-10-22T08:22:45.367372"}, "geometry": {"coordinates": [-103.7248165745, 35.1777792788], "type": "Point"}, "id": "Ew3EzHZbDYUGqydL6MlDC2OCv78=", "properties": {"@spider": "usps_collection_boxes", "addr:city": "TUCUMCARI", "addr:country": "US", "addr:full": "220 S 1ST ST", "addr:postcode": "88401", "addr:state": "NM", "amenity": "post_box", "brand": "United States Postal Service", "brand:wikidata": "Q668687", "collection_times": "Mo-Fr 16:15; Sa 15:00", "name": "USPS COLLECTION BOX - PO LOBBY", "note": "ON 12/24 AND 12/31, THIS BOX MAY BE COLLECTED AS EARLY AS 12 NOON.", "nsi_id": "unitedstatespostalservice-a77078", "operator": "United States Postal Service", "operator:short": "USPS", "operator:type": "public", "operator:wikidata": "Q668687", "ref": "8840100024"}, "type": "Feature"}
{"dataset_attributes": {"@spider": "usps_collection_boxes", "spider:collection_time": "2023-10-22T08:22:45.367372"}, "geometry": {"coordinates": [-103.159205, 35.918869], "type": "Point"}, "id": "m9AyVIRYyN7pctyfkUX3anc9zBw=", "properties": {"@spider": "usps_collection_boxes", "addr:city": "AMISTAD", "addr:country": "US", "addr:full": "21 AMISTAD RD", "addr:postcode": "88410", "addr:state": "NM", "amenity": "post_box", "brand": "United States Postal Service", "brand:wikidata": "Q668687", "collection_times": "Mo-Sa 13:30", "name": "USPS COLLECTION BOX - BLUE BOX", "note": "ON 12/24 AND 12/31, THIS BOX MAY BE COLLECTED AS EARLY AS 12 NOON.", "nsi_id": "unitedstatespostalservice-a77078", "operator": "United States Postal Service", "operator:short": "USPS", "operator:type": "public", "operator:wikidata": "Q668687", "ref": "8841000000"}, "type": "Feature"}
{"dataset_attributes": {"@spider": "usps_collection_boxes", "spider:collection_time": "2023-10-22T08:22:45.367372"}, "geometry": {"coordinates": [-103.159205, 35.918869], "type": "Point"}, "id": "W28OWx_cxnEHQ1DbtiC4WsdGNW8=", "properties": {"@spider": "usps_collection_boxes", "addr:city": "AMISTAD", "addr:country": "US", "addr:full": "21 AMISTAD RD", "addr:postcode": "88410", "addr:state": "NM", "amenity": "post_box", "brand": "United States Postal Service", "brand:wikidata": "Q668687", "collection_times": "Mo-Sa 13:30", "name": "USPS COLLECTION BOX - PO LOBBY", "note": "ON 12/24 AND 12/31, THIS BOX MAY BE COLLECTED AS EARLY AS 12 NOON.", "nsi_id": "unitedstatespostalservice-a77078", "operator": "United States Postal Service", "operator:short": "USPS", "operator:type": "public", "operator:wikidata": "Q668687", "ref": "8841000001"}, "type": "Feature"}
{"dataset_attributes": {"@spider": "usps_collection_boxes", "spider:collection_time": "2023-10-22T08:22:45.367372"}, "geometry": {"coordinates": [-103.1528431976, 35.9188954425], "type": "Point"}, "id": "m44d0P2lGx7xt-Jg-7_rQaujXvU=", "properties": {"@spider": "usps_collection_boxes", "addr:city": "AMISTAD", "addr:country": "US", "addr:full": "21 AMISTAD RD", "addr:postcode": "88410", "addr:state": "NM", "amenity": "post_box", "brand": "United States Postal Service", "brand:wikidata": "Q668687", "collection_times": "Mo-Sa 13:30", "name": "USPS COLLECTION BOX - PO LOBBY", "note": "ON 12/24 AND 12/31, THIS BOX MAY BE COLLECTED AS EARLY AS 12 NOON.", "nsi_id": "unitedstatespostalservice-a77078", "operator": "United States Postal Service", "operator:short": "USPS", "operator:type": "public", "operator:wikidata": "Q668687", "ref": "8841000002"}, "type": "Feature"}
{"dataset_attributes": {"@spider": "usps_collection_boxes", "spider:collection_time": "2023-10-22T08:22:45.367372"}, "geometry": {"coordinates": [-103.184898, 36.450513], "type": "Point"}, "id": "6SeiE0bPCS5K8Mw1PhiN003KmVc=", "properties": {"@spider": "usps_collection_boxes", "addr:city": "CLAYTON", "addr:country": "US", "addr:full": "1 WALNUT ST", "addr:postcode": "88415", "addr:state": "NM", "amenity": "post_box", "brand": "United States Postal Service", "brand:wikidata": "Q668687", "collection_times": "Mo-Fr 13:00; Sa 07:00", "name": "USPS COLLECTION BOX - BLUE BOX", "note": "ON 12/24 AND 12/31, THIS BOX MAY BE COLLECTED AS EARLY AS 12 NOON.", "nsi_id": "unitedstatespostalservice-a77078", "operator": "United States Postal Service", "operator:short": "USPS", "operator:type": "public", "operator:wikidata": "Q668687", "ref": "8841500000"}, "type": "Feature"}
{"dataset_attributes": {"@spider": "usps_collection_boxes", "spider:collection_time": "2023-10-22T08:22:45.367372"}, "geometry": {"coordinates": [-103.184898, 36.450513], "type": "Point"}, "id": "9xOA-7J3eYcAcaNHGb7iJhS_zHA=", "properties": {"@spider": "usps_collection_boxes", "addr:city": "CLAYTON", "addr:country": "US", "addr:full": "1 WALNUT ST", "addr:postcode": "88415", "addr:state": "NM", "amenity": "post_box", "brand": "United States Postal Service", "brand:wikidata": "Q668687", "collection_times": "Mo-Sa 13:00", "name": "USPS COLLECTION BOX - PO LOBBY", "note": "ON 12/24 AND 12/31, THIS BOX MAY BE COLLECTED AS EARLY AS 12 NOON.", "nsi_id": "unitedstatespostalservice-a77078", "operator": "United States Postal Service", "operator:short": "USPS", "operator:type": "public", "operator:wikidata": "Q668687", "ref": "8841500008"}, "type": "Feature"}
{"dataset_attributes": {"@spider": "usps_collection_boxes", "spider:collection_time": "2023-10-22T08:22:45.367372"}, "geometry": {"coordinates": [-103.184898, 36.450513], "type": "Point"}, "id": "X8E1onbXoJeDRShmuKfKss8yVW4=", "properties": {"@spider": "usps_collection_boxes", "addr:city": "CLAYTON", "addr:country": "US", "addr:full": "1 WALNUT ST", "addr:postcode": "88415", "addr:state": "NM", "amenity": "post_box", "brand": "United States Postal Service", "brand:wikidata": "Q668687", "collection_times": "Mo-Sa 13:00", "name": "USPS COLLECTION BOX - PO LOBBY", "note": "ON 12/24 AND 12/31, THIS BOX MAY BE COLLECTED AS EARLY AS 12 NOON.", "nsi_id": "unitedstatespostalservice-a77078", "operator": "United States Postal Service", "operator:short": "USPS", "operator:type": "public", "operator:wikidata": "Q668687", "ref": "8841500009"}, "type": "Feature"}
{"dataset_attributes": {"@spider": "usps_collection_boxes", "spider:collection_time": "2023-10-22T08:22:45.367372"}, "geometry": {"coordinates": [-103.184671274, 36.450605261], "type": "Point"}, "id": "_u00c5oAEDDrfWAFjxszHye2Hzs=", "properties": {"@spider": "usps_collection_boxes", "addr:city": "CLAYTON", "addr:country": "US", "addr:full": "1 WALNUT ST", "addr:postcode": "88415", "addr:state": "NM", "amenity": "post_box", "brand": "United States Postal Service", "brand:wikidata": "Q668687", "collection_times": "Mo-Fr 13:00; Sa 07:00", "name": "USPS COLLECTION BOX - BLUE BOX", "note": "ON 12/24 AND 12/31, THIS BOX MAY BE COLLECTED AS EARLY AS 12 NOON.", "nsi_id": "unitedstatespostalservice-a77078", "operator": "United States Postal Service", "operator:short": "USPS", "operator:type": "public", "operator:wikidata": "Q668687", "ref": "8841500010"}, "type": "Feature"}
{"dataset_attributes": {"@spider": "usps_collection_boxes", "spider:collection_time": "2023-10-22T08:22:45.367372"}, "geometry": {"coordinates": [-103.184671274, 36.450605261], "type": "Point"}, "id": "02DMz0OGkw_UCfj7-lesVsDmbMo=", "properties": {"@spider": "usps_collection_boxes", "addr:city": "CLAYTON", "addr:country": "US", "addr:full": "1 WALNUT ST", "addr:postcode": "88415", "addr:state": "NM", "amenity": "post_box", "brand": "United States Postal Service", "brand:wikidata": "Q668687", "collection_times": "Mo-Sa 13:00", "name": "USPS COLLECTION BOX - PO LOBBY", "note": "ON 12/24 AND 12/31, THIS BOX MAY BE COLLECTED AS EARLY AS 12 NOON.", "nsi_id": "unitedstatespostalservice-a77078", "operator": "United States Postal Service", "operator:short": "USPS", "operator:type": "public", "operator:wikidata": "Q668687", "ref": "8841500012"}, "type": "Feature"}
{"dataset_attributes": {"@spider": "usps_collection_boxes", "spider:collection_time": "2023-10-22T08:22:45.367372"}, "geometry": {"coordinates": [-104.176058876, 35.368546104], "type": "Point"}, "id": "y6gSW0TJC4HRhO7QcmzKLzEqxNU=", "properties": {"@spider": "usps_collection_boxes", "addr:city": "TUCUMCARI", "addr:country": "US", "addr:full": "101 NICKLE LN", "addr:postcode": "88416", "addr:state": "NM", "amenity": "post_box", "brand": "United States Postal Service", "brand:wikidata": "Q668687", "collection_times": "Mo-Sa 12:45", "name": "USPS COLLECTION BOX - PO LOBBY", "note": "ON 12/24 AND 12/31, THIS BOX MAY BE COLLECTED AS EARLY AS 12 NOON.", "nsi_id": "unitedstatespostalservice-a77078", "operator": "United States Postal Service", "operator:short": "USPS", "operator:type": "public", "operator:wikidata": "Q668687", "ref": "8841600001"}, "type": "Feature"}
{"dataset_attributes": {"@spider": "usps_collection_boxes", "spider:collection_time": "2023-10-22T08:22:45.367372"}, "geometry": {"coordinates": [-103.827001, 36.757752], "type": "Point"}, "id": "KN1eYhDonAKBptEX5OETAg1GDtY=", "properties": {"@spider": "usps_collection_boxes", "addr:city": "DES MOINES", "addr:country": "US", "addr:full": "720 BROADWAY AVE", "addr:postcode": "88418", "addr:state": "NM", "amenity": "post_box", "brand": "United States Postal Service", "brand:wikidata": "Q668687", "collection_times": "Mo-Fr 12:00; Sa 11:30", "name": "USPS COLLECTION BOX - BLUE BOX", "nsi_id": "unitedstatespostalservice-a77078", "operator": "United States Postal Service", "operator:short": "USPS", "operator:type": "public", "operator:wikidata": "Q668687", "ref": "8841800000"}, "type": "Feature"}
{"dataset_attributes": {"@spider": "usps_collection_boxes", "spider:collection_time": "2023-10-22T08:22:45.367372"}, "geometry": {"coordinates": [-103.827001, 36.757752], "type": "Point"}, "id": "hS2TroNQft-W1Wp-z2bELoDstNU=", "properties": {"@spider": "usps_collection_boxes", "addr:city": "DES MOINES", "addr:country": "US", "addr:full": "720 BROADWAY AVE", "addr:postcode": "88418", "addr:state": "NM", "amenity": "post_box", "brand": "United States Postal Service", "brand:wikidata": "Q668687", "collection_times": "Mo-Fr 12:00; Sa 11:30", "name": "USPS COLLECTION BOX - PO LOBBY", "nsi_id": "unitedstatespostalservice-a77078", "operator": "United States Postal Service", "operator:short": "USPS", "operator:type": "public", "operator:wikidata": "Q668687", "ref": "8841800001"}, "type": "Feature"}
{"dataset_attributes": {"@spider": "usps_collection_boxes", "spider:collection_time": "2023-10-22T08:22:45.367372"}, "geometry": {"coordinates": [-103.827001, 36.757752], "type": "Point"}, "id": "hCFs7Y2ecelywQtkzMeXYLqOFIE=", "properties": {"@spider": "usps_collection_boxes", "addr:city": "DES MOINES", "addr:country": "US", "addr:full": "720 BROADWAY AVE", "addr:postcode": "88418", "addr:state": "NM", "amenity": "post_box", "brand": "United States Postal Service", "brand:wikidata": "Q668687", "collection_times": "Mo-Fr 12:00; Sa 11:30", "name": "USPS COLLECTION BOX - PO LOBBY", "nsi_id": "unitedstatespostalservice-a77078", "operator": "United States Postal Service", "operator:short": "USPS", "operator:type": "public", "operator:wikidata": "Q668687", "ref": "8841800002"}, "type": "Feature"}
{"dataset_attributes": {"@spider": "usps_collection_boxes", "spider:collection_time": "2023-10-22T08:22:45.367372"}, "geometry": {"coordinates": [-103.835758975, 36.761835119], "type": "Point"}, "id": "GxLz8-nQ8Ct4JO-Nzaxad8ec1kY=", "properties": {"@spider": "usps_collection_boxes", "addr:city": "DES MOINES", "addr:country": "US", "addr:full": "720 BROADWAY AVE", "addr:postcode": "88418", "addr:state": "NM", "amenity": "post_box", "brand": "United States Postal Service", "brand:wikidata": "Q668687", "collection_times": "Mo-Fr 12:00; Sa 11:30", "name": "USPS COLLECTION BOX - PO LOBBY", "nsi_id": "unitedstatespostalservice-a77078", "operator": "United States Postal Service", "operator:short": "USPS", "operator:type": "public", "operator:wikidata": "Q668687", "ref": "8841800003"}, "type": "Feature"}
{"dataset_attributes": {"@spider": "usps_collection_boxes", "spider:collection_time": "2023-10-22T08:22:45.367372"}, "geometry": {"coordinates": [-103.9184429166, 36.8449014959], "type": "Point"}, "id": "dzggehWZQhFIjQY86lBRXFkC3tY=", "properties": {"@spider": "usps_collection_boxes", "addr:city": "FOLSOM", "addr:country": "US", "addr:full": "53 GRAND AVE", "addr:postcode": "88419", "addr:state": "NM", "amenity": "post_box", "brand": "United States Postal Service", "brand:wikidata": "Q668687", "collection_times": "Mo-Sa 11:15", "name": "USPS COLLECTION BOX - BLUE BOX", "nsi_id": "unitedstatespostalservice-a77078", "operator": "United States Postal Service", "operator:short": "USPS", "operator:type": "public", "operator:wikidata": "Q668687", "ref": "8841900000"}, "type": "Feature"}
{"dataset_attributes": {"@spider": "usps_collection_boxes", "spider:collection_time": "2023-10-22T08:22:45.367372"}, "geometry": {"coordinates": [-103.917788, 36.844824], "type": "Point"}, "id": "bclO8DygR9WRgDame4u2tUubHTo=", "properties": {"@spider": "usps_collection_boxes", "addr:city": "FOLSOM", "addr:country": "US", "addr:full": "53 GRAND AVE", "addr:postcode": "88419", "addr:state": "NM", "amenity": "post_box", "brand": "United States Postal Service", "brand:wikidata": "Q668687", "collection_times": "Mo-Sa 11:15", "name": "USPS COLLECTION BOX - PO LOBBY", "nsi_id": "unitedstatespostalservice-a77078", "operator": "United States Postal Service", "operator:short": "USPS", "operator:type": "public", "operator:wikidata": "Q668687", "ref": "8841900001"}, "type": "Feature"}
{"dataset_attributes": {"@spider": "usps_collection_boxes", "spider:collection_time": "2023-10-22T08:22:45.367372"}, "geometry": {"coordinates": [-103.9184450376, 36.8448923582], "type": "Point"}, "id": "iD1M2vx2rkKFaS_yNCT-mTWxQ-U=", "properties": {"@spider": "usps_collection_boxes", "addr:city": "FOLSOM", "addr:country": "US", "addr:full": "53 GRAND AVE", "addr:postcode": "88419", "addr:state": "NM", "amenity": "post_box", "brand": "United States Postal Service", "brand:wikidata": "Q668687", "collection_times": "Mo-Sa 11:00", "name": "USPS COLLECTION BOX - PO LOBBY", "nsi_id": "unitedstatespostalservice-a77078", "operator": "United States Postal Service", "operator:short": "USPS", "operator:type": "public", "operator:wikidata": "Q668687", "ref": "8841900002"}, "type": "Feature"}
{"dataset_attributes": {"@spider": "usps_collection_boxes", "spider:collection_time": "2023-10-22T08:22:45.367372"}, "geometry": {"coordinates": [-104.29814, 35.300262], "type": "Point"}, "id": "uq8i8_OTCVtxp9FVnZXpe75aPrQ=", "properties": {"@spider": "usps_collection_boxes", "addr:city": "GARITA", "addr:country": "US", "addr:full": "5120 NM HWY 104", "addr:postcode": "88421", "addr:state": "NM", "amenity": "post_box", "brand": "United States Postal Service", "brand:wikidata": "Q668687", "collection_times": "Mo-Sa 11:15", "name": "USPS COLLECTION BOX - BLUE BOX", "nsi_id": "unitedstatespostalservice-a77078", "operator": "United States Postal Service", "operator:short": "USPS", "operator:type": "public", "operator:wikidata": "Q668687", "ref": "8842100000"}, "type": "Feature"}
{"dataset_attributes": {"@spider": "usps_collection_boxes", "spider:collection_time": "2023-10-22T08:22:45.367372"}, "geometry": {"coordinates": [-104.29814, 35.300262], "type": "Point"}, "id": "QInJAp87lJVmYzU0m2coTnc-kG0=", "properties": {"@spider": "usps_collection_boxes", "addr:city": "GARITA", "addr:country": "US", "addr:full": "5120 NM HWY 104", "addr:postcode": "88421", "addr:state": "NM", "amenity": "post_box", "brand": "United States Postal Service", "brand:wikidata": "Q668687", "collection_times": "Mo-Sa 11:15", "name": "USPS COLLECTION BOX - PO LOBBY", "nsi_id": "unitedstatespostalservice-a77078", "operator": "United States Postal Service", "operator:short": "USPS", "operator:type": "public", "operator:wikidata": "Q668687", "ref": "8842100001"}, "type": "Feature"}
{"dataset_attributes": {"@spider": "usps_collection_boxes", "spider:collection_time": "2023-10-22T08:22:45.367372"}, "geometry": {"coordinates": [-104.4604145871, 35.3970713397], "type": "Point"}, "id": "xpxo9PYYxh-DQxz_FejZDrgTtbs=", "properties": {"@spider": "usps_collection_boxes", "addr:city": "GARITA", "addr:country": "US", "addr:full": "5120 NM HWY 104", "addr:postcode": "88421", "addr:state": "NM", "amenity": "post_box", "brand": "United States Postal Service", "brand:wikidata": "Q668687", "collection_times": "Mo-Sa 11:15", "name": "USPS COLLECTION BOX - PO LOBBY", "nsi_id": "unitedstatespostalservice-a77078", "operator": "United States Postal Service", "operator:short": "USPS", "operator:type": "public", "operator:wikidata": "Q668687", "ref": "8842100002"}, "type": "Feature"}
{"dataset_attributes": {"@spider": "usps_collection_boxes", "spider:collection_time": "2023-10-22T08:22:45.367372"}, "geometry": {"coordinates": [-103.6189599911, 36.5955400125], "type": "Point"}, "id": "_BpF_wHAyIf8paioKYFBbBtCG0o=", "properties": {"@spider": "usps_collection_boxes", "addr:city": "GRENVILLE", "addr:country": "US", "addr:full": "16 5TH AVE", "addr:postcode": "88424", "addr:state": "NM", "amenity": "post_box", "brand": "United States Postal Service", "brand:wikidata": "Q668687", "collection_times": "Mo-Sa 12:30", "name": "USPS COLLECTION BOX - BLUE BOX", "note": "ON 12/24 AND 12/31, THIS BOX MAY BE COLLECTED AS EARLY AS 12 NOON.", "nsi_id": "unitedstatespostalservice-a77078", "operator": "United States Postal Service", "operator:short": "USPS", "operator:type": "public", "operator:wikidata": "Q668687", "ref": "8842400000"}, "type": "Feature"}
{"dataset_attributes": {"@spider": "usps_collection_boxes", "spider:collection_time": "2023-10-22T08:22:45.367372"}, "geometry": {"coordinates": [-103.6189599911, 36.5955400125], "type": "Point"}, "id": "wHw8xJEFocx4UQmAiUzU5dEv8sM=", "properties": {"@spider": "usps_collection_boxes", "addr:city": "GRENVILLE", "addr:country": "US", "addr:full": "16 5TH AVE", "addr:postcode": "88424", "addr:state": "NM", "amenity": "post_box", "brand": "United States Postal Service", "brand:wikidata": "Q668687", "collection_times": "Mo-Sa 12:30", "name": "USPS COLLECTION BOX - PO LOBBY", "note": "ON 12/24 AND 12/31, THIS BOX MAY BE COLLECTED AS EARLY AS 12 NOON.", "nsi_id": "unitedstatespostalservice-a77078", "operator": "United States Postal Service", "operator:short": "USPS", "operator:type": "public", "operator:wikidata": "Q668687", "ref": "8842400001"}, "type": "Feature"}
{"dataset_attributes": {"@spider": "usps_collection_boxes", "spider:collection_time": "2023-10-22T08:22:45.367372"}, "geometry": {"coordinates": [-103.6189599911, 36.5955400125], "type": "Point"}, "id": "Kh1At_hg9ekwQ2Vx6fbSopDW2tQ=", "properties": {"@spider": "usps_collection_boxes", "addr:city": "GRENVILLE", "addr:country": "US", "addr:full": "16 5TH AVE", "addr:postcode": "88424", "addr:state": "NM", "amenity": "post_box", "brand": "United States Postal Service", "brand:wikidata": "Q668687", "collection_times": "Mo-Sa 12:30", "name": "USPS COLLECTION BOX - PO LOBBY", "note": "ON 12/24 AND 12/31, THIS BOX MAY BE COLLECTED AS EARLY AS 12 NOON.", "nsi_id": "unitedstatespostalservice-a77078", "operator": "United States Postal Service", "operator:short": "USPS", "operator:type": "public", "operator:wikidata": "Q668687", "ref": "8842400002"}, "type": "Feature"}
{"dataset_attributes": {"@spider": "usps_collection_boxes", "spider:collection_time": "2023-10-22T08:22:45.367372"}, "geometry": {"coordinates": [-103.411916, 35.365674], "type": "Point"}, "id": "wOpdQpaYMfR8cT3ZoaWSw7eMrnw=", "properties": {"@spider": "usps_collection_boxes", "addr:city": "LOGAN", "addr:country": "US", "addr:full": "1003 MARTINEZ ST", "addr:postcode": "88426", "addr:state": "NM", "amenity": "post_box", "brand": "United States Postal Service", "brand:wikidata": "Q668687", "collection_times": "Mo-Fr 15:30; Sa 10:15", "name": "USPS COLLECTION BOX - BLUE BOX", "note": "ON 12/24 AND 12/31, THIS BOX MAY BE COLLECTED AS EARLY AS 12 NOON.", "nsi_id": "unitedstatespostalservice-a77078", "operator": "United States Postal Service", "operator:short": "USPS", "operator:type": "public", "operator:wikidata": "Q668687", "ref": "8842600000"}, "type": "Feature"}
{"dataset_attributes": {"@spider": "usps_collection_boxes", "spider:collection_time": "2023-10-22T08:22:45.367372"}, "geometry": {"coordinates": [-103.412018, 35.365644], "type": "Point"}, "id": "vojZk_i5_j2C8NFfkL7vvHPO4zw=", "properties": {"@spider": "usps_collection_boxes", "addr:city": "LOGAN", "addr:country": "US", "addr:full": "1003 MARTINEZ ST", "addr:postcode": "88426", "addr:state": "NM", "amenity": "post_box", "brand": "United States Postal Service", "brand:wikidata": "Q668687", "collection_times": "Mo-Fr 15:30; Sa 10:15", "name": "USPS COLLECTION BOX - PO LOBBY", "note": "ON 12/24 AND 12/31, THIS BOX MAY BE COLLECTED AS EARLY AS 12 NOON.", "nsi_id": "unitedstatespostalservice-a77078", "operator": "United States Postal Service", "operator:short": "USPS", "operator:type": "public", "operator:wikidata": "Q668687", "ref": "8842600001"}, "type": "Feature"}
{"dataset_attributes": {"@spider": "usps_collection_boxes", "spider:collection_time": "2023-10-22T08:22:45.367372"}, "geometry": {"coordinates": [-103.411804028, 35.365670475], "type": "Point"}, "id": "l3G_uqu05XyyHAUnQZ2r1h2RPhE=", "properties": {"@spider": "usps_collection_boxes", "addr:city": "LOGAN", "addr:country": "US", "addr:full": "1003 MARTINEZ ST", "addr:postcode": "88426", "addr:state": "NM", "amenity": "post_box", "brand": "United States Postal Service", "brand:wikidata": "Q668687", "collection_times": "Mo-Fr 15:30; Sa 10:15", "name": "USPS COLLECTION BOX - PO LOBBY", "note": "ON 12/24 AND 12/31, THIS BOX MAY BE COLLECTED AS EARLY AS 12 NOON.", "nsi_id": "unitedstatespostalservice-a77078", "operator": "United States Postal Service", "operator:short": "USPS", "operator:type": "public", "operator:wikidata": "Q668687", "ref": "8842600002"}, "type": "Feature"}
{"dataset_attributes": {"@spider": "usps_collection_boxes", "spider:collection_time": "2023-10-22T08:22:45.367372"}, "geometry": {"coordinates": [-103.776568, 34.692529], "type": "Point"}, "id": "I2_Cql9qXxsZx1qZ1jUZ7pjXRuk=", "properties": {"@spider": "usps_collection_boxes", "addr:city": "MCALISTER", "addr:country": "US", "addr:full": "3209 STATE HIGHWAY 252", "addr:postcode": "88427", "addr:state": "NM", "amenity": "post_box", "brand": "United States Postal Service", "brand:wikidata": "Q668687", "collection_times": "Mo-Sa 09:00", "name": "USPS COLLECTION BOX - BLUE BOX", "nsi_id": "unitedstatespostalservice-a77078", "operator": "United States Postal Service", "operator:short": "USPS", "operator:type": "public", "operator:wikidata": "Q668687", "ref": "8842700000"}, "type": "Feature"}
{"dataset_attributes": {"@spider": "usps_collection_boxes", "spider:collection_time": "2023-10-22T08:22:45.367372"}, "geometry": {"coordinates": [-103.776459, 34.692502], "type": "Point"}, "id": "XrGDz9CbrDCyPljtqCfWZWG2H6Y=", "properties": {"@spider": "usps_collection_boxes", "addr:city": "MCALISTER", "addr:country": "US", "addr:full": "3209 STATE HIGHWAY 252", "addr:postcode": "88427", "addr:state": "NM", "amenity": "post_box", "brand": "United States Postal Service", "brand:wikidata": "Q668687", "collection_times": "Mo-Sa 09:00", "name": "USPS COLLECTION BOX - PO LOBBY", "nsi_id": "unitedstatespostalservice-a77078", "operator": "United States Postal Service", "operator:short": "USPS", "operator:type": "public", "operator:wikidata": "Q668687", "ref": "8842700001"}, "type": "Feature"}
{"dataset_attributes": {"@spider": "usps_collection_boxes", "spider:collection_time": "2023-10-22T08:22:45.367372"}, "geometry": {"coordinates": [-103.777182, 34.6925205149], "type": "Point"}, "id": "vRlghOR8a_Kpl6d3DUSuLCxw9Z0=", "properties": {"@spider": "usps_collection_boxes", "addr:city": "MCALISTER", "addr:country": "US", "addr:full": "3209 STATE HIGHWAY 252", "addr:postcode": "88427", "addr:state": "NM", "amenity": "post_box", "brand": "United States Postal Service", "brand:wikidata": "Q668687", "collection_times": "Mo-Sa 08:45", "name": "USPS COLLECTION BOX - PO LOBBY", "nsi_id": "unitedstatespostalservice-a77078", "operator": "United States Postal Service", "operator:short": "USPS", "operator:type": "public", "operator:wikidata": "Q668687", "ref": "8842700002"}, "type": "Feature"}
{"dataset_attributes": {"@spider": "usps_collection_boxes", "spider:collection_time": "2023-10-22T08:22:45.367372"}, "geometry": {"coordinates": [-103.1003657448, 35.6074605484], "type": "Point"}, "id": "U1gwnwkyVBCOIjFsBUKRpPDzyz4=", "properties": {"@spider": "usps_collection_boxes", "addr:city": "NARA VISA", "addr:country": "US", "addr:full": "460 BELL ST", "addr:postcode": "88430", "addr:state": "NM", "amenity": "post_box", "brand": "United States Postal Service", "brand:wikidata": "Q668687", "collection_times": "Mo-Fr 16:00; Sa 09:30", "name": "USPS COLLECTION BOX - BLUE BOX", "note": "ON 12/24 AND 12/31, THIS BOX MAY BE COLLECTED AS EARLY AS 12 NOON.", "nsi_id": "unitedstatespostalservice-a77078", "operator": "United States Postal Service", "operator:short": "USPS", "operator:type": "public", "operator:wikidata": "Q668687", "ref": "8843000000"}, "type": "Feature"}
{"dataset_attributes": {"@spider": "usps_collection_boxes", "spider:collection_time": "2023-10-22T08:22:45.367372"}, "geometry": {"coordinates": [-103.1003657448, 35.6074605484], "type": "Point"}, "id": "0O_NRCCfUhiAU_ftPfOR_kbu8NQ=", "properties": {"@spider": "usps_collection_boxes", "addr:city": "NARA VISA", "addr:country": "US", "addr:full": "460 BELL ST", "addr:postcode": "88430", "addr:state": "NM", "amenity": "post_box", "brand": "United States Postal Service", "brand:wikidata": "Q668687", "collection_times": "Mo-Fr 12:00; Sa 09:30", "name": "USPS COLLECTION BOX - PO LOBBY", "nsi_id": "unitedstatespostalservice-a77078", "operator": "United States Postal Service", "operator:short": "USPS", "operator:type": "public", "operator:wikidata": "Q668687", "ref": "8843000001"}, "type": "Feature"}
{"dataset_attributes": {"@spider": "usps_collection_boxes", "spider:collection_time": "2023-10-22T08:22:45.367372"}, "geometry": {"coordinates": [-103.1003657448, 35.6074605484], "type": "Point"}, "id": "U3iKwX0r47GJmM55Oq5bjujob2E=", "properties": {"@spider": "usps_collection_boxes", "addr:city": "NARA VISA", "addr:country": "US", "addr:full": "460 BELL ST", "addr:postcode": "88430", "addr:state": "NM", "amenity": "post_box", "brand": "United States Postal Service", "brand:wikidata": "Q668687", "collection_times": "Mo-Fr 12:00; Sa 09:30", "name": "USPS COLLECTION BOX - PO LOBBY", "nsi_id": "unitedstatespostalservice-a77078", "operator": "United States Postal Service", "operator:short": "USPS", "operator:type": "public", "operator:wikidata": "Q668687", "ref": "8843000002"}, "type": "Feature"}
{"dataset_attributes": {"@spider": "usps_collection_boxes", "spider:collection_time": "2023-10-22T08:22:45.367372"}, "geometry": {"coordinates": [-104.266743, 35.068283], "type": "Point"}, "id": "w6XBQkHEbPFncTeJVH4U9woA1yQ=", "properties": {"@spider": "usps_collection_boxes", "addr:city": "NEWKIRK", "addr:country": "US", "addr:full": "1006 EMERALD RD", "addr:postcode": "88431", "addr:state": "NM", "amenity": "post_box", "brand": "United States Postal Service", "brand:wikidata": "Q668687", "collection_times": "Mo-Sa 12:30", "name": "USPS COLLECTION BOX - BLUE BOX", "note": "ON 12/24 AND 12/31, THIS BOX MAY BE COLLECTED AS EARLY AS 12 NOON.", "nsi_id": "unitedstatespostalservice-a77078", "operator": "United States Postal Service", "operator:short": "USPS", "operator:type": "public", "operator:wikidata": "Q668687", "ref": "8843100000"}, "type": "Feature"}
{"dataset_attributes": {"@spider": "usps_collection_boxes", "spider:collection_time": "2023-10-22T08:22:45.367372"}, "geometry": {"coordinates": [-104.266785, 35.068303], "type": "Point"}, "id": "yhMspl9zYjyG1aJv8thz7TuTn88=", "properties": {"@spider": "usps_collection_boxes", "addr:city": "NEWKIRK", "addr:country": "US", "addr:full": "1006 EMERALD RD", "addr:postcode": "88431", "addr:state": "NM", "amenity": "post_box", "brand": "United States Postal Service", "brand:wikidata": "Q668687", "collection_times": "Mo-Sa 12:30", "name": "USPS COLLECTION BOX - PO LOBBY", "note": "ON 12/24 AND 12/31, THIS BOX MAY BE COLLECTED AS EARLY AS 12 NOON.", "nsi_id": "unitedstatespostalservice-a77078", "operator": "United States Postal Service", "operator:short": "USPS", "operator:type": "public", "operator:wikidata": "Q668687", "ref": "8843100001"}, "type": "Feature"}
{"dataset_attributes": {"@spider": "usps_collection_boxes", "spider:collection_time": "2023-10-22T08:22:45.367372"}, "geometry": {"coordinates": [-104.2669764853, 35.0682348421], "type": "Point"}, "id": "yeKaqKJfIeh7SDY_oj2LAt-MzrI=", "properties": {"@spider": "usps_collection_boxes", "addr:city": "NEWKIRK", "addr:country": "US", "addr:full": "1006 EMERALD RD", "addr:postcode": "88431", "addr:state": "NM", "amenity": "post_box", "brand": "United States Postal Service", "brand:wikidata": "Q668687", "collection_times": "Mo-Sa 12:30", "name": "USPS COLLECTION BOX - PO LOBBY", "note": "ON 12/24 AND 12/31, THIS BOX MAY BE COLLECTED AS EARLY AS 12 NOON.", "nsi_id": "unitedstatespostalservice-a77078", "operator": "United States Postal Service", "operator:short": "USPS", "operator:type": "public", "operator:wikidata": "Q668687", "ref": "8843100003"}, "type": "Feature"}
{"dataset_attributes": {"@spider": "usps_collection_boxes", "spider:collection_time": "2023-10-22T08:22:45.367372"}, "geometry": {"coordinates": [-103.096108, 35.146692], "type": "Point"}, "id": "YMsIF62afu1V7DumsQynB4IAzqw=", "properties": {"@spider": "usps_collection_boxes", "addr:city": "SAN JON", "addr:country": "US", "addr:full": "402 ROUTE 66", "addr:postcode": "88434", "addr:state": "NM", "amenity": "post_box", "brand": "United States Postal Service", "brand:wikidata": "Q668687", "collection_times": "Mo-Fr 16:00; Sa 11:00", "name": "USPS COLLECTION BOX - BLUE BOX", "note": "ON 12/24 AND 12/31, THIS BOX MAY BE COLLECTED AS EARLY AS 12 NOON.", "nsi_id": "unitedstatespostalservice-a77078", "operator": "United States Postal Service", "operator:short": "USPS", "operator:type": "public", "operator:wikidata": "Q668687", "ref": "8843400000"}, "type": "Feature"}
{"dataset_attributes": {"@spider": "usps_collection_boxes", "spider:collection_time": "2023-10-22T08:22:45.367372"}, "geometry": {"coordinates": [-103.096055, 35.146772], "type": "Point"}, "id": "Dx6_YRYM4NFeC0y4aPhD2mjfAhU=", "properties": {"@spider": "usps_collection_boxes", "addr:city": "SAN JON", "addr:country": "US", "addr:full": "402 ROUTE 66", "addr:postcode": "88434", "addr:state": "NM", "amenity": "post_box", "brand": "United States Postal Service", "brand:wikidata": "Q668687", "collection_times": "Mo-Fr 14:30; Sa 11:00", "name": "USPS COLLECTION BOX - PO LOBBY", "note": "ON 12/24 AND 12/31, THIS BOX MAY BE COLLECTED AS EARLY AS 12 NOON.", "nsi_id": "unitedstatespostalservice-a77078", "operator": "United States Postal Service", "operator:short": "USPS", "operator:type": "public", "operator:wikidata": "Q668687", "ref": "8843400005"}, "type": "Feature"}
{"dataset_attributes": {"@spider": "usps_collection_boxes", "spider:collection_time": "2023-10-22T08:22:45.367372"}, "geometry": {"coordinates": [-103.103578, 35.175181], "type": "Point"}, "id": "06i0C_Q4OupQGmlAk0nP7JSK0-U=", "properties": {"@spider": "usps_collection_boxes", "addr:city": "SAN JON", "addr:country": "US", "addr:full": "1383 FRONTAGE RD 4132", "addr:postcode": "88434", "addr:state": "NM", "amenity": "post_box", "brand": "United States Postal Service", "brand:wikidata": "Q668687", "collection_times": "Mo-Fr 11:00", "name": "USPS COLLECTION BOX - BLUE BOX", "nsi_id": "unitedstatespostalservice-a77078", "operator": "United States Postal Service", "operator:short": "USPS", "operator:type": "public", "operator:wikidata": "Q668687", "ref": "8843400007"}, "type": "Feature"}
{"dataset_attributes": {"@spider": "usps_collection_boxes", "spider:collection_time": "2023-10-22T08:22:45.367372"}, "geometry": {"coordinates": [-103.0959548975, 35.1467524513], "type": "Point"}, "id": "6tPQdYzx2M_taJZXmsMJ4WVMNe8=", "properties": {"@spider": "usps_collection_boxes", "addr:city": "SAN JON", "addr:country": "US", "addr:full": "402 ROUTE 66", "addr:postcode": "88434", "addr:state": "NM", "amenity": "post_box", "brand": "United States Postal Service", "brand:wikidata": "Q668687", "collection_times": "Mo-Fr 14:30", "name": "USPS COLLECTION BOX - PO LOBBY", "note": "ON 12/24 AND 12/31, THIS BOX MAY BE COLLECTED AS EARLY AS 12 NOON.", "nsi_id": "unitedstatespostalservice-a77078", "operator": "United States Postal Service", "operator:short": "USPS", "operator:type": "public", "operator:wikidata": "Q668687", "ref": "8843400008"}, "type": "Feature"}
{"dataset_attributes": {"@spider": "usps_collection_boxes", "spider:collection_time": "2023-10-22T08:22:45.367372"}, "geometry": {"coordinates": [-104.686152, 34.942274], "type": "Point"}, "id": "deRmeFBrCoStOeRIaRGl-5LZeIw=", "properties": {"@spider": "usps_collection_boxes", "addr:city": "SANTA ROSA", "addr:country": "US", "addr:full": "120 S 5TH ST", "addr:postcode": "88435", "addr:state": "NM", "amenity": "post_box", "brand": "United States Postal Service", "brand:wikidata": "Q668687", "collection_times": "Mo-Fr 17:00; Sa 11:45", "name": "USPS COLLECTION BOX - BLUE BOX", "note": "ON 12/24 AND 12/31, THIS BOX MAY BE COLLECTED AS EARLY AS 12 NOON.", "nsi_id": "unitedstatespostalservice-a77078", "operator": "United States Postal Service", "operator:short": "USPS", "operator:type": "public", "operator:wikidata": "Q668687", "ref": "8843500000"}, "type": "Feature"}
{"dataset_attributes": {"@spider": "usps_collection_boxes", "spider:collection_time": "2023-10-22T08:22:45.367372"}, "geometry": {"coordinates": [-104.686218, 34.942298], "type": "Point"}, "id": "p5hzzVCO40ZpLRSnOsmxMa9FVAc=", "properties": {"@spider": "usps_collection_boxes", "addr:city": "SANTA ROSA", "addr:country": "US", "addr:full": "120 S 5TH ST", "addr:postcode": "88435", "addr:state": "NM", "amenity": "post_box", "brand": "United States Postal Service", "brand:wikidata": "Q668687", "collection_times": "Mo-Fr 16:30; Sa 11:45", "name": "USPS COLLECTION BOX - PO LOBBY", "note": "ON 12/24 AND 12/31, THIS BOX MAY BE COLLECTED AS EARLY AS 12 NOON.", "nsi_id": "unitedstatespostalservice-a77078", "operator": "United States Postal Service", "operator:short": "USPS", "operator:type": "public", "operator:wikidata": "Q668687", "ref": "8843500003"}, "type": "Feature"}
{"dataset_attributes": {"@spider": "usps_collection_boxes", "spider:collection_time": "2023-10-22T08:22:45.367372"}, "geometry": {"coordinates": [-104.686218, 34.942298], "type": "Point"}, "id": "3JrMDAprCkqpGRxw3P-SlM_-xNQ=", "properties": {"@spider": "usps_collection_boxes", "addr:city": "SANTA ROSA", "addr:country": "US", "addr:full": "120 S 5TH ST", "addr:postcode": "88435", "addr:state": "NM", "amenity": "post_box", "brand": "United States Postal Service", "brand:wikidata": "Q668687", "collection_times": "Mo-Fr 16:30; Sa 11:45", "name": "USPS COLLECTION BOX - PO LOBBY", "note": "ON 12/24 AND 12/31, THIS BOX MAY BE COLLECTED AS EARLY AS 12 NOON.", "nsi_id": "unitedstatespostalservice-a77078", "operator": "United States Postal Service", "operator:short": "USPS", "operator:type": "public", "operator:wikidata": "Q668687", "ref": "8843500004"}, "type": "Feature"}
{"dataset_attributes": {"@spider": "usps_collection_boxes", "spider:collection_time": "2023-10-22T08:22:45.367372"}, "geometry": {"coordinates": [-104.6500179845, 34.9480540189], "type": "Point"}, "id": "-o-6afjKOrtVNTR-CwiFwZfg8oo=", "properties": {"@spider": "usps_collection_boxes", "addr:city": "SANTA ROSA", "addr:country": "US", "addr:full": "2491 HISTORIC ROUTE 66", "addr:postcode": "88435", "addr:state": "NM", "amenity": "post_box", "brand": "United States Postal Service", "brand:wikidata": "Q668687", "collection_times": "Mo-Sa 09:00", "name": "USPS COLLECTION BOX - BLUE BOX", "nsi_id": "unitedstatespostalservice-a77078", "operator": "United States Postal Service", "operator:short": "USPS", "operator:type": "public", "operator:wikidata": "Q668687", "ref": "8843500008"}, "type": "Feature"}
{"dataset_attributes": {"@spider": "usps_collection_boxes", "spider:collection_time": "2023-10-22T08:22:45.367372"}, "geometry": {"coordinates": [-104.685999392, 34.942104094], "type": "Point"}, "id": "Kjuop6SP2ByLgxs3SRupPqcU58M=", "properties": {"@spider": "usps_collection_boxes", "addr:city": "SANTA ROSA", "addr:country": "US", "addr:full": "120 S 5TH ST", "addr:postcode": "88435", "addr:state": "NM", "amenity": "post_box", "brand": "United States Postal Service", "brand:wikidata": "Q668687", "collection_times": "Mo-Fr 16:30; Sa 11:30", "name": "USPS COLLECTION BOX - PO LOBBY", "note": "ON 12/24 AND 12/31, THIS BOX MAY BE COLLECTED AS EARLY AS 12 NOON.", "nsi_id": "unitedstatespostalservice-a77078", "operator": "United States Postal Service", "operator:short": "USPS", "operator:type": "public", "operator:wikidata": "Q668687", "ref": "8843500009"}, "type": "Feature"}
{"dataset_attributes": {"@spider": "usps_collection_boxes", "spider:collection_time": "2023-10-22T08:22:45.367372"}, "geometry": {"coordinates": [-103.132089, 36.141636], "type": "Point"}, "id": "gyqrTq4ZCUM8KC7NEX9ihgAPgn0=", "properties": {"@spider": "usps_collection_boxes", "addr:city": "SEDAN", "addr:country": "US", "addr:full": "508 CALLIS RD", "addr:postcode": "88436", "addr:state": "NM", "amenity": "post_box", "brand": "United States Postal Service", "brand:wikidata": "Q668687", "collection_times": "Mo-Fr 13:45; Sa 12:15", "name": "USPS COLLECTION BOX - BLUE BOX", "note": "ON 12/24 AND 12/31, THIS BOX MAY BE COLLECTED AS EARLY AS 12 NOON.", "nsi_id": "unitedstatespostalservice-a77078", "operator": "United States Postal Service", "operator:short": "USPS", "operator:type": "public", "operator:wikidata": "Q668687", "ref": "8843600000"}, "type": "Feature"}
{"dataset_attributes": {"@spider": "usps_collection_boxes", "spider:collection_time": "2023-10-22T08:22:45.367372"}, "geometry": {"coordinates": [-103.132055, 36.141725], "type": "Point"}, "id": "DexF9DM-c5ly2IfKEDW6ts2_psU=", "properties": {"@spider": "usps_collection_boxes", "addr:city": "SEDAN", "addr:country": "US", "addr:full": "508 CALLIS RD", "addr:postcode": "88436", "addr:state": "NM", "amenity": "post_box", "brand": "United States Postal Service", "brand:wikidata": "Q668687", "collection_times": "Mo-Fr 13:45; Sa 12:15", "name": "USPS COLLECTION BOX - PO LOBBY", "note": "ON 12/24 AND 12/31, THIS BOX MAY BE COLLECTED AS EARLY AS 12 NOON.", "nsi_id": "unitedstatespostalservice-a77078", "operator": "United States Postal Service", "operator:short": "USPS", "operator:type": "public", "operator:wikidata": "Q668687", "ref": "8843600001"}, "type": "Feature"}
{"dataset_attributes": {"@spider": "usps_collection_boxes", "spider:collection_time": "2023-10-22T08:22:45.367372"}, "geometry": {"coordinates": [-103.1320789162, 36.1437371788], "type": "Point"}, "id": "vFoxfe0gseLmvzBUq7dURyE6xTY=", "properties": {"@spider": "usps_collection_boxes", "addr:city": "SEDAN", "addr:country": "US", "addr:full": "508 CALLIS RD", "addr:postcode": "88436", "addr:state": "NM", "amenity": "post_box", "brand": "United States Postal Service", "brand:wikidata": "Q668687", "collection_times": "Mo-Fr 13:45; Sa 12:15", "name": "USPS COLLECTION BOX - PO LOBBY", "note": "ON 12/24 AND 12/31, THIS BOX MAY BE COLLECTED AS EARLY AS 12 NOON.", "nsi_id": "unitedstatespostalservice-a77078", "operator": "United States Postal Service", "operator:short": "USPS", "operator:type": "public", "operator:wikidata": "Q668687", "ref": "8843600002"}, "type": "Feature"}
{"dataset_attributes": {"@spider": "usps_collection_boxes", "spider:collection_time": "2023-10-22T08:22:45.367372"}, "geometry": {"coordinates": [-104.52936, 35.466496], "type": "Point"}, "id": "cLGBrHLJTTft2rZuTaAwDxY2uRU=", "properties": {"@spider": "usps_collection_boxes", "addr:city": "TREMENTINA", "addr:country": "US", "addr:full": "26 POST OFFICE LN", "addr:postcode": "88439", "addr:state": "NM", "amenity": "post_box", "brand": "United States Postal Service", "brand:wikidata": "Q668687", "collection_times": "Mo-Sa 10:00", "name": "USPS COLLECTION BOX - BLUE BOX", "nsi_id": "unitedstatespostalservice-a77078", "operator": "United States Postal Service", "operator:short": "USPS", "operator:type": "public", "operator:wikidata": "Q668687", "ref": "8843900000"}, "type": "Feature"}
{"dataset_attributes": {"@spider": "usps_collection_boxes", "spider:collection_time": "2023-10-22T08:22:45.367372"}, "geometry": {"coordinates": [-104.5286594833, 35.468783319], "type": "Point"}, "id": "UHzoKHXR_26xsw1xddE7N4ssoYs=", "properties": {"@spider": "usps_collection_boxes", "addr:city": "TREMENTINA", "addr:country": "US", "addr:full": "26 POST OFFICE LN", "addr:postcode": "88439", "addr:state": "NM", "amenity": "post_box", "brand": "United States Postal Service", "brand:wikidata": "Q668687", "collection_times": "Mo-Sa 11:00", "name": "USPS COLLECTION BOX - PO LOBBY", "nsi_id": "unitedstatespostalservice-a77078", "operator": "United States Postal Service", "operator:short": "USPS", "operator:type": "public", "operator:wikidata": "Q668687", "ref": "8843900001"}, "type": "Feature"}
