{"geometry": {"coordinates": [-115.1634650376, 37.364812981], "type": "Point"}, "id": "6qFbacufwRFzDXtkwQQ-P8t2P7s=", "properties": {"@spider": "usps_collection_boxes", "addr:city": "ALAMO", "addr:country": "US", "addr:full": "40 N PURPLE SAGE AVE", "addr:postcode": "89001", "addr:state": "NV", "brand": "USPS", "collection_times": "Mo-Fr 16:00; Sa 09:30", "name": "USPS COLLECTION BOX - PO LOBBY", "note": "ON 12/24 AND 12/31, THIS BOX MAY BE COLLECTED AS EARLY AS 12 NOON.", "ref": "8900100000"}, "type": "Feature"}
{"geometry": {"coordinates": [-115.1634650376, 37.364812981], "type": "Point"}, "id": "35brBsKQoanU6vYbDrL7EzMDTA0=", "properties": {"@spider": "usps_collection_boxes", "addr:city": "ALAMO", "addr:country": "US", "addr:full": "40 N PURPLE SAGE AVE", "addr:postcode": "89001", "addr:state": "NV", "brand": "USPS", "collection_times": "Mo-Fr 16:00; Sa 09:30", "name": "USPS COLLECTION BOX - BLUE BOX", "note": "ON 12/24 AND 12/31, THIS BOX MAY BE COLLECTED AS EARLY AS 12 NOON.", "ref": "8900100001"}, "type": "Feature"}
{"geometry": {"coordinates": [-115.7476713654, 37.6478544485], "type": "Point"}, "id": "wMALoTVflUHXyoGApDmSiMwbTFM=", "properties": {"@spider": "usps_collection_boxes", "addr:city": "ALAMO", "addr:country": "US", "addr:full": "9800 DAY DR", "addr:postcode": "89001", "addr:state": "NV", "brand": "USPS", "collection_times": "Mo-Fr 11:15", "name": "USPS COLLECTION BOX - BLUE BOX", "ref": "8900100002"}, "type": "Feature"}
{"geometry": {"coordinates": [-115.160278, 37.364805], "type": "Point"}, "id": "dIM8EwETeDKkmO7FZZZ3FIb-AbE=", "properties": {"@spider": "usps_collection_boxes", "addr:city": "ALAMO", "addr:country": "US", "addr:full": "1 BROADWAY ST", "addr:postcode": "89001", "addr:state": "NV", "brand": "USPS", "collection_times": "Mo-Fr 12:30", "name": "USPS COLLECTION BOX - BLUE BOX", "note": "ON 12/24 AND 12/31, THIS BOX MAY BE COLLECTED AS EARLY AS 12 NOON.", "ref": "8900100003"}, "type": "Feature"}
{"geometry": {"coordinates": [-115.1634650376, 37.364812981], "type": "Point"}, "id": "DYFX04047t9e8DEBWtUH0WzumkU=", "properties": {"@spider": "usps_collection_boxes", "addr:city": "ALAMO", "addr:country": "US", "addr:full": "40 N PURPLE SAGE AVE", "addr:postcode": "89001", "addr:state": "NV", "brand": "USPS", "collection_times": "Mo-Fr 16:00", "name": "USPS COLLECTION BOX - PO LOBBY", "note": "ON 12/24 AND 12/31, THIS BOX MAY BE COLLECTED AS EARLY AS 12 NOON.", "ref": "8900100008"}, "type": "Feature"}
{"geometry": {"coordinates": [-116.730324, 37.014297], "type": "Point"}, "id": "FixXah1FjQ_TBvQBnfgtvLG3dDM=", "properties": {"@spider": "usps_collection_boxes", "addr:city": "BEATTY", "addr:country": "US", "addr:full": "0 N HIGHWAY 95", "addr:postcode": "89003", "addr:state": "NV", "brand": "USPS", "collection_times": "Mo-Fr 14:30; Sa 10:15", "name": "USPS COLLECTION BOX - BLUE BOX", "note": "ON 12/24 AND 12/31, THIS BOX MAY BE COLLECTED AS EARLY AS 12 NOON.", "ref": "8900300001"}, "type": "Feature"}
{"geometry": {"coordinates": [-116.7159102179, 36.9481581576], "type": "Point"}, "id": "kyIJ5FTlHrpJqpbXIwaO6aJbOVE=", "properties": {"@spider": "usps_collection_boxes", "addr:city": "BEATTY", "addr:country": "US", "addr:full": "HIGHWAY 95 NORTH", "addr:postcode": "89003", "addr:state": "NV", "brand": "USPS", "collection_times": "Mo-Fr 16:30", "name": "USPS COLLECTION BOX - PO LOBBY", "note": "ON 12/24 AND 12/31, THIS BOX MAY BE COLLECTED AS EARLY AS 12 NOON.", "ref": "8900300002"}, "type": "Feature"}
{"geometry": {"coordinates": [-118.066833, 37.667698], "type": "Point"}, "id": "FjErtuGv9I6qxzi0Ouu5MFRxiWM=", "properties": {"@spider": "usps_collection_boxes", "addr:city": "DYER", "addr:country": "US", "addr:full": "1 VALLEY CENTER RD", "addr:postcode": "89010", "addr:state": "NV", "brand": "USPS", "collection_times": "Mo-Sa 12:30", "name": "USPS COLLECTION BOX - PO LOBBY", "note": "ON 12/24 AND 12/31, THIS BOX MAY BE COLLECTED AS EARLY AS 12 NOON.", "ref": "8901000001"}, "type": "Feature"}
{"geometry": {"coordinates": [-118.066828, 37.667792], "type": "Point"}, "id": "G6DrWbMIBn6Cr1XFePD2a2Is3BI=", "properties": {"@spider": "usps_collection_boxes", "addr:city": "DYER", "addr:country": "US", "addr:full": "1 VALLEY CENTER RD", "addr:postcode": "89010", "addr:state": "NV", "brand": "USPS", "collection_times": "Mo-Fr 12:30; Sa 11:30", "name": "USPS COLLECTION BOX - BLUE BOX", "note": "ON 12/24 AND 12/31, THIS BOX MAY BE COLLECTED AS EARLY AS 12 NOON.", "ref": "8901000002"}, "type": "Feature"}
{"geometry": {"coordinates": [-117.3641, 37.354132], "type": "Point"}, "id": "U4TCSH0UmFQb5OUonJF6YCZuMlI=", "properties": {"@spider": "usps_collection_boxes", "addr:city": "GOLDFIELD", "addr:country": "US", "addr:full": "0 4TH ST", "addr:postcode": "89013", "addr:state": "NV", "brand": "USPS", "collection_times": "Mo-Fr 16:30; Sa 11:50", "name": "USPS COLLECTION BOX - BLUE BOX", "note": "ON 12/24 AND 12/31, THIS BOX MAY BE COLLECTED AS EARLY AS 12 NOON.", "ref": "8901300000"}, "type": "Feature"}
{"geometry": {"coordinates": [-117.365434835, 37.354869024], "type": "Point"}, "id": "7OXB75rjYi7hXma3oUsmyA0lhLk=", "properties": {"@spider": "usps_collection_boxes", "addr:city": "GOLDFIELD", "addr:country": "US", "addr:full": "4TH ST", "addr:postcode": "89013", "addr:state": "NV", "brand": "USPS", "collection_times": "Mo-Fr 16:45; Sa 11:50", "name": "USPS COLLECTION BOX - PO LOBBY", "note": "ON 12/24 AND 12/31, THIS BOX MAY BE COLLECTED AS EARLY AS 12 NOON.", "ref": "8901300001"}, "type": "Feature"}
{"geometry": {"coordinates": [-117.3654323797, 37.3548524076], "type": "Point"}, "id": "sFgPkENL9-W56l8dHVpl3dwqxjo=", "properties": {"@spider": "usps_collection_boxes", "addr:city": "GOLDFIELD", "addr:country": "US", "addr:full": "FOURTH STREET", "addr:postcode": "89013", "addr:state": "NV", "brand": "USPS", "collection_times": "Mo-Fr 16:30", "name": "USPS COLLECTION BOX - PO LOBBY", "note": "ON 12/24 AND 12/31, THIS BOX MAY BE COLLECTED AS EARLY AS 12 NOON.", "ref": "8901300003"}, "type": "Feature"}
{"geometry": {"coordinates": [-115.669168, 36.5782], "type": "Point"}, "id": "BJsUCgqfEybc6hwUZgBfPQZoerQ=", "properties": {"@spider": "usps_collection_boxes", "addr:city": "INDIAN SPRINGS", "addr:country": "US", "addr:full": "185 N HWY 95", "addr:postcode": "89018", "addr:state": "NV", "brand": "USPS", "collection_times": "Mo-Fr 16:00; Sa 10:00", "name": "USPS COLLECTION BOX - BLUE BOX", "note": "ON 12/24 AND 12/31, THIS BOX MAY BE COLLECTED AS EARLY AS 12 NOON.", "ref": "8901800000"}, "type": "Feature"}
{"geometry": {"coordinates": [-115.669225, 36.57823], "type": "Point"}, "id": "iMBHxqbmemQlehEVgQ1-Z_AsmBU=", "properties": {"@spider": "usps_collection_boxes", "addr:city": "INDIAN SPRINGS", "addr:country": "US", "addr:full": "185 N HWY 95", "addr:postcode": "89018", "addr:state": "NV", "brand": "USPS", "collection_times": "Mo-Fr 16:00; Sa 10:00", "name": "USPS COLLECTION BOX - PO LOBBY", "note": "ON 12/24 AND 12/31, THIS BOX MAY BE COLLECTED AS EARLY AS 12 NOON.", "ref": "8901800001"}, "type": "Feature"}
{"geometry": {"coordinates": [-115.6723012263, 36.5778669484], "type": "Point"}, "id": "XZ-7CPgG7LVW6j_CPylTcmEqiHk=", "properties": {"@spider": "usps_collection_boxes", "addr:city": "INDIAN SPRINGS", "addr:country": "US", "addr:full": "HIGHWAY 95", "addr:postcode": "89018", "addr:state": "NV", "brand": "USPS", "collection_times": "Mo-Fr 16:30", "name": "USPS COLLECTION BOX - PO LOBBY", "note": "ON 12/24 AND 12/31, THIS BOX MAY BE COLLECTED AS EARLY AS 12 NOON.", "ref": "8901800003"}, "type": "Feature"}
{"geometry": {"coordinates": [-116.40091, 36.640452], "type": "Point"}, "id": "i2EAI_2LSiytD7gv6_ABEwlc_L4=", "properties": {"@spider": "usps_collection_boxes", "addr:city": "AMARGOSA VALLEY", "addr:country": "US", "addr:full": "0 N HIGHWAY 373", "addr:postcode": "89020", "addr:state": "NV", "brand": "USPS", "collection_times": "Mo-Fr 15:30; Sa 09:30", "name": "USPS COLLECTION BOX - BLUE BOX", "note": "ON 12/24 AND 12/31, THIS BOX MAY BE COLLECTED AS EARLY AS 12 NOON.", "ref": "8902000000"}, "type": "Feature"}
{"geometry": {"coordinates": [-116.418341, 36.525427], "type": "Point"}, "id": "9ut-fimP2MsZAmDpJeg6iJnNmHM=", "properties": {"@spider": "usps_collection_boxes", "addr:city": "AMARGOSA VALLEY", "addr:country": "US", "addr:full": "1921 E SAGE ST", "addr:postcode": "89020", "addr:state": "NV", "brand": "USPS", "collection_times": "Mo-Fr 15:30; Sa 09:30", "name": "USPS COLLECTION BOX - PO LOBBY", "note": "ON 12/24 AND 12/31, THIS BOX MAY BE COLLECTED AS EARLY AS 12 NOON.", "ref": "8902000002"}, "type": "Feature"}
{"geometry": {"coordinates": [-116.3946295943, 36.6423948319], "type": "Point"}, "id": "1VMm-5r_WoJXwIQSmUBn8LCGONg=", "properties": {"@spider": "usps_collection_boxes", "addr:city": "AMARGOSA VALLEY", "addr:country": "US", "addr:full": "5388 E HWY 95", "addr:postcode": "89020", "addr:state": "NV", "brand": "USPS", "collection_times": "Mo-Fr 10:15", "name": "USPS COLLECTION BOX - BLUE BOX", "ref": "8902000003"}, "type": "Feature"}
{"geometry": {"coordinates": [-116.423334, 36.41289], "type": "Point"}, "id": "E8Ho2--WkMGnDCLWtks6H32mgCA=", "properties": {"@spider": "usps_collection_boxes", "addr:city": "AMARGOSA VALLEY", "addr:country": "US", "addr:full": "1 N HIGHWAY 373", "addr:postcode": "89020", "addr:state": "NV", "brand": "USPS", "collection_times": "Mo-Fr 10:45", "name": "USPS COLLECTION BOX - BLUE BOX", "ref": "8902000004"}, "type": "Feature"}
{"geometry": {"coordinates": [-117.065163, 38.536874], "type": "Point"}, "id": "89jjnQUgC13lZxck7pZDhddzVrM=", "properties": {"@spider": "usps_collection_boxes", "addr:city": "MANHATTAN", "addr:country": "US", "addr:full": "17 MAIN ST", "addr:postcode": "89022", "addr:state": "NV", "brand": "USPS", "collection_times": "Mo-Sa 13:30", "name": "USPS COLLECTION BOX - PO LOBBY", "note": "ON 12/24 AND 12/31, THIS BOX MAY BE COLLECTED AS EARLY AS 12 NOON.", "ref": "8902200000"}, "type": "Feature"}
{"geometry": {"coordinates": [-115.99955, 36.65993], "type": "Point"}, "id": "LRDM2j4Fkf8K_1-PujIWK9S2L3w=", "properties": {"@spider": "usps_collection_boxes", "addr:city": "MERCURY", "addr:country": "US", "addr:full": "525 BUSTER ST", "addr:postcode": "89023", "addr:state": "NV", "brand": "USPS", "collection_times": "Mo-Fr 11:30", "name": "USPS COLLECTION BOX - BLUE BOX", "ref": "8902300000"}, "type": "Feature"}
{"geometry": {"coordinates": [-115.99955, 36.65993], "type": "Point"}, "id": "BZmuI2W3n3X1sH24A8bVlkXfJpE=", "properties": {"@spider": "usps_collection_boxes", "addr:city": "MERCURY", "addr:country": "US", "addr:full": "525 BUSTER ST", "addr:postcode": "89023", "addr:state": "NV", "brand": "USPS", "collection_times": "Mo-Fr 11:30", "name": "USPS COLLECTION BOX - PO LOBBY", "ref": "8902300001"}, "type": "Feature"}
{"geometry": {"coordinates": [-115.99955, 36.65993], "type": "Point"}, "id": "TFVrAuhJZQ4Ur_qOyY9D5N5oKV8=", "properties": {"@spider": "usps_collection_boxes", "addr:city": "MERCURY", "addr:country": "US", "addr:full": "525 BUSTER ST", "addr:postcode": "89023", "addr:state": "NV", "brand": "USPS", "collection_times": "Mo-Fr 14:00", "name": "USPS COLLECTION BOX - PO LOBBY", "note": "ON 12/24 AND 12/31, THIS BOX MAY BE COLLECTED AS EARLY AS 12 NOON.", "ref": "8902300003"}, "type": "Feature"}
{"geometry": {"coordinates": [-117.161218, 38.694139], "type": "Point"}, "id": "mdQKWbEmHNF9Uc4K62ItSLdUa9Y=", "properties": {"@spider": "usps_collection_boxes", "addr:city": "ROUND MOUNTAIN", "addr:country": "US", "addr:full": "83 HADLEY LN", "addr:postcode": "89045", "addr:state": "NV", "brand": "USPS", "collection_times": "Mo-Sa 13:45", "name": "USPS COLLECTION BOX - PO LOBBY", "note": "ON 12/24 AND 12/31, THIS BOX MAY BE COLLECTED AS EARLY AS 12 NOON.", "ref": "8904500000"}, "type": "Feature"}
{"geometry": {"coordinates": [-117.634506, 37.754736], "type": "Point"}, "id": "QqblGdu7beB2WMsgw-AHcLP1_io=", "properties": {"@spider": "usps_collection_boxes", "addr:city": "SILVERPEAK", "addr:country": "US", "addr:full": "350 MAIN ST", "addr:postcode": "89047", "addr:state": "NV", "brand": "USPS", "collection_times": "Mo-Sa 13:00", "name": "USPS COLLECTION BOX - BLUE BOX", "note": "ON 12/24 AND 12/31, THIS BOX MAY BE COLLECTED AS EARLY AS 12 NOON.", "ref": "8904700001"}, "type": "Feature"}
{"geometry": {"coordinates": [-115.994784, 36.217319], "type": "Point"}, "id": "PjizmnAGUPizbC7G4FLeIzo3y0g=", "properties": {"@spider": "usps_collection_boxes", "addr:city": "PAHRUMP", "addr:country": "US", "addr:full": "200 S HIGHWAY 160", "addr:postcode": "89048", "addr:state": "NV", "brand": "USPS", "collection_times": "Mo-Sa 10:00", "name": "USPS COLLECTION BOX - BLUE BOX", "ref": "8904800008"}, "type": "Feature"}
{"geometry": {"coordinates": [-117.230444, 38.067563], "type": "Point"}, "id": "y37gL0CXjGuXIfdGJP5vPxClb1Y=", "properties": {"@spider": "usps_collection_boxes", "addr:city": "TONOPAH", "addr:country": "US", "addr:full": "201 ERIE MAIN", "addr:postcode": "89049", "addr:state": "NV", "brand": "USPS", "collection_times": "Mo-Fr 14:00; Sa 12:00", "name": "USPS COLLECTION BOX - BLUE BOX", "note": "ON 12/24 AND 12/31, THIS BOX MAY BE COLLECTED AS EARLY AS 12 NOON.", "ref": "8904900000"}, "type": "Feature"}
{"geometry": {"coordinates": [-117.219574, 38.061074], "type": "Point"}, "id": "0PZGPq0Tj3LCTYBAqTU6onINcLQ=", "properties": {"@spider": "usps_collection_boxes", "addr:city": "TONOPAH", "addr:country": "US", "addr:full": "1100 ERIE MAIN", "addr:postcode": "89049", "addr:state": "NV", "brand": "USPS", "collection_times": "Mo-Fr 14:00; Sa 12:00", "name": "USPS COLLECTION BOX - BLUE BOX", "note": "ON 12/24 AND 12/31, THIS BOX MAY BE COLLECTED AS EARLY AS 12 NOON.", "ref": "8904900001"}, "type": "Feature"}
{"geometry": {"coordinates": [-117.230508, 38.067643], "type": "Point"}, "id": "nV5HC0SMNGO1LoeMRzpTdbBjatQ=", "properties": {"@spider": "usps_collection_boxes", "addr:city": "TONOPAH", "addr:country": "US", "addr:full": "201 ERIE MAIN", "addr:postcode": "89049", "addr:state": "NV", "brand": "USPS", "collection_times": "Mo-Fr 16:30; Sa 12:15", "name": "USPS COLLECTION BOX - PO LOBBY", "note": "ON 12/24 AND 12/31, THIS BOX MAY BE COLLECTED AS EARLY AS 12 NOON.", "ref": "8904900002"}, "type": "Feature"}
{"geometry": {"coordinates": [-116.038638, 36.220733], "type": "Point"}, "id": "4w8t_jRYdiPVbSCoG_av0Bfbg-E=", "properties": {"@spider": "usps_collection_boxes", "addr:city": "PAHRUMP", "addr:country": "US", "addr:full": "1370 W BASIN AVE", "addr:postcode": "89060", "addr:state": "NV", "brand": "USPS", "collection_times": "Mo-Sa 10:00", "name": "USPS COLLECTION BOX - BLUE BOX", "ref": "8906000001"}, "type": "Feature"}
{"geometry": {"coordinates": [-115.986004, 36.220144], "type": "Point"}, "id": "tMQXnDIor-syy2B6wACTsjatBfQ=", "properties": {"@spider": "usps_collection_boxes", "addr:city": "PAHRUMP", "addr:country": "US", "addr:full": "1520 E BASIN AVE", "addr:postcode": "89060", "addr:state": "NV", "brand": "USPS", "collection_times": "Mo-Fr 10:00", "name": "USPS COLLECTION BOX - BLUE BOX", "ref": "8906000002"}, "type": "Feature"}
{"geometry": {"coordinates": [-116.014794, 36.27809], "type": "Point"}, "id": "JxLsZFNtuXOzC2zc0oiwdW3Kz4M=", "properties": {"@spider": "usps_collection_boxes", "addr:city": "PAHRUMP", "addr:country": "US", "addr:full": "3950 N BLAGG RD", "addr:postcode": "89060", "addr:state": "NV", "brand": "USPS", "collection_times": "Mo-Fr 14:00; Sa 12:00", "name": "USPS COLLECTION BOX - BLUE BOX", "note": "ON 12/24 AND 12/31, THIS BOX MAY BE COLLECTED AS EARLY AS 12 NOON.", "ref": "8906000003"}, "type": "Feature"}
{"geometry": {"coordinates": [-116.015038, 36.278148], "type": "Point"}, "id": "5WoT5EGEfAtyd3riWnXbFTVVgsE=", "properties": {"@spider": "usps_collection_boxes", "addr:city": "PAHRUMP", "addr:country": "US", "addr:full": "3950 N BLAGG RD", "addr:postcode": "89060", "addr:state": "NV", "brand": "USPS", "collection_times": "Mo-Fr 14:00; Sa 12:00", "name": "USPS COLLECTION BOX - PO LOBBY", "note": "ON 12/24 AND 12/31, THIS BOX MAY BE COLLECTED AS EARLY AS 12 NOON.", "ref": "8906000004"}, "type": "Feature"}
