{"geometry": {"coordinates": [-117.014332, 39.266586], "type": "Point"}, "id": "F2O_bMC0V_3AfkT0vgtQG8KMlQU=", "properties": {"@spider": "usps_collection_boxes", "addr:city": "AUSTIN", "addr:country": "US", "addr:full": "0 E HIGHWAY 376", "addr:postcode": "89310", "addr:state": "NV", "brand": "USPS", "collection_times": "Mo-Sa 12:30", "name": "USPS COLLECTION BOX - BLUE BOX", "note": "ON 12/24 AND 12/31, THIS BOX MAY BE COLLECTED AS EARLY AS 12 NOON.", "ref": "8931000000"}, "type": "Feature"}
{"geometry": {"coordinates": [-117.089388, 39.204383], "type": "Point"}, "id": "dgp1aPsYgnbcjFtTo2A2Qt8bVNg=", "properties": {"@spider": "usps_collection_boxes", "addr:city": "AUSTIN", "addr:country": "US", "addr:full": "0 W KINGSTON VLG", "addr:postcode": "89310", "addr:state": "NV", "brand": "USPS", "collection_times": "Mo-Sa 13:00", "name": "USPS COLLECTION BOX - BLUE BOX", "note": "ON 12/24 AND 12/31, THIS BOX MAY BE COLLECTED AS EARLY AS 12 NOON.", "ref": "8931000001"}, "type": "Feature"}
{"geometry": {"coordinates": [-117.059177, 39.488253], "type": "Point"}, "id": "jcPBedHMoRbMBOU0-VmNHXbDXrM=", "properties": {"@spider": "usps_collection_boxes", "addr:city": "AUSTIN", "addr:country": "US", "addr:full": "166 MAIN ST", "addr:postcode": "89310", "addr:state": "NV", "brand": "USPS", "collection_times": "Mo-Sa 10:45", "name": "USPS COLLECTION BOX - PO LOBBY", "ref": "8931000002"}, "type": "Feature"}
{"geometry": {"coordinates": [-117.069064, 39.490765], "type": "Point"}, "id": "vI4wAmZhBeGHtIoJbtfO4cM61EE=", "properties": {"@spider": "usps_collection_boxes", "addr:city": "AUSTIN", "addr:country": "US", "addr:full": "166 MAIN ST", "addr:postcode": "89310", "addr:state": "NV", "brand": "USPS", "collection_times": "Mo-Sa 10:45", "name": "USPS COLLECTION BOX - PO LOBBY", "ref": "8931000003"}, "type": "Feature"}
{"geometry": {"coordinates": [-117.069064, 39.490765], "type": "Point"}, "id": "2hFcMLbJh2SDwHK11GKjfJFrVgE=", "properties": {"@spider": "usps_collection_boxes", "addr:city": "AUSTIN", "addr:country": "US", "addr:full": "166 MAIN ST", "addr:postcode": "89310", "addr:state": "NV", "brand": "USPS", "collection_times": "Mo-Sa 10:45", "name": "USPS COLLECTION BOX - BLUE BOX", "ref": "8931000006"}, "type": "Feature"}
{"geometry": {"coordinates": [-117.0690674136, 39.4907568065], "type": "Point"}, "id": "5HMlMKJ4EbpUr3EpEuqfZ8ZGSYA=", "properties": {"@spider": "usps_collection_boxes", "addr:city": "AUSTIN", "addr:country": "US", "addr:full": "166 MAIN ST", "addr:postcode": "89310", "addr:state": "NV", "brand": "USPS", "collection_times": "Mo-Fr 11:45", "name": "USPS COLLECTION BOX - PO LOBBY", "ref": "8931000008"}, "type": "Feature"}
{"geometry": {"coordinates": [-115.96076, 39.512087], "type": "Point"}, "id": "rsSMCyueQ9Ls3gglzrDI1IqBrwM=", "properties": {"@spider": "usps_collection_boxes", "addr:city": "EUREKA", "addr:country": "US", "addr:full": "51 S MAIN ST", "addr:postcode": "89316", "addr:state": "NV", "brand": "USPS", "collection_times": "Mo-Fr 13:45; Sa 12:00", "name": "USPS COLLECTION BOX - BLUE BOX", "note": "ON 12/24 AND 12/31, THIS BOX MAY BE COLLECTED AS EARLY AS 12 NOON.", "ref": "8931600000"}, "type": "Feature"}
{"geometry": {"coordinates": [-115.960794, 39.512081], "type": "Point"}, "id": "XjTuxM3A8s3l4MdZrXP5ibXWiVI=", "properties": {"@spider": "usps_collection_boxes", "addr:city": "EUREKA", "addr:country": "US", "addr:full": "51 S MAIN ST", "addr:postcode": "89316", "addr:state": "NV", "brand": "USPS", "collection_times": "Mo-Fr 13:45; Sa 12:00", "name": "USPS COLLECTION BOX - PO LOBBY", "note": "ON 12/24 AND 12/31, THIS BOX MAY BE COLLECTED AS EARLY AS 12 NOON.", "ref": "8931600002"}, "type": "Feature"}
