{"dataset_attributes": {"@spider": "usps_collection_boxes", "spider:collection_time": "2023-09-10T08:22:19.197986"}, "geometry": {"coordinates": [-120.003556, 39.228925], "type": "Point"}, "id": "Zqn-mcicrw4TF4CJfRv_DvatOqM=", "properties": {"@spider": "usps_collection_boxes", "addr:city": "CRYSTAL BAY", "addr:country": "US", "addr:full": "26 STATE ROUTE 28", "addr:postcode": "89402", "addr:state": "NV", "amenity": "post_box", "brand": "United States Postal Service", "brand:wikidata": "Q668687", "collection_times": "Mo-Fr 16:30; Sa 11:15", "name": "USPS COLLECTION BOX - PO LOBBY", "note": "ON 12/24 AND 12/31, THIS BOX MAY BE COLLECTED AS EARLY AS 12 NOON.", "nsi_id": "unitedstatespostalservice-a77078", "operator": "United States Postal Service", "operator:short": "USPS", "operator:type": "public", "operator:wikidata": "Q668687", "ref": "8940200000"}, "type": "Feature"}
{"dataset_attributes": {"@spider": "usps_collection_boxes", "spider:collection_time": "2023-09-10T08:22:19.197986"}, "geometry": {"coordinates": [-120.0035482463, 39.2289628571], "type": "Point"}, "id": "Tq7DrrutJGeeQrIwpM5BhCOfEk0=", "properties": {"@spider": "usps_collection_boxes", "addr:city": "CRYSTAL BAY", "addr:country": "US", "addr:full": "26 HIGHWAY 28", "addr:postcode": "89402", "addr:state": "NV", "amenity": "post_box", "brand": "United States Postal Service", "brand:wikidata": "Q668687", "collection_times": "Mo-Fr 16:15; Sa 11:00", "name": "USPS COLLECTION BOX - BLUE BOX", "note": "ON 12/24 AND 12/31, THIS BOX MAY BE COLLECTED AS EARLY AS 12 NOON.", "nsi_id": "unitedstatespostalservice-a77078", "operator": "United States Postal Service", "operator:short": "USPS", "operator:type": "public", "operator:wikidata": "Q668687", "ref": "8940200001"}, "type": "Feature"}
{"dataset_attributes": {"@spider": "usps_collection_boxes", "spider:collection_time": "2023-09-10T08:22:19.197986"}, "geometry": {"coordinates": [-120.003548246, 39.228962857], "type": "Point"}, "id": "tPBA-p7RSZV48fDoYZ5SLhkEpwU=", "properties": {"@spider": "usps_collection_boxes", "addr:city": "CRYSTAL BAY", "addr:country": "US", "addr:full": "26 HIGHWAY 28", "addr:postcode": "89402", "addr:state": "NV", "amenity": "post_box", "brand": "United States Postal Service", "brand:wikidata": "Q668687", "collection_times": "Mo-Fr 16:30", "name": "USPS COLLECTION BOX - PO LOBBY", "note": "ON 12/24 AND 12/31, THIS BOX MAY BE COLLECTED AS EARLY AS 12 NOON.", "nsi_id": "unitedstatespostalservice-a77078", "operator": "United States Postal Service", "operator:short": "USPS", "operator:type": "public", "operator:wikidata": "Q668687", "ref": "8940200002"}, "type": "Feature"}
{"dataset_attributes": {"@spider": "usps_collection_boxes", "spider:collection_time": "2023-09-10T08:22:19.197986"}, "geometry": {"coordinates": [-119.589651, 39.240284], "type": "Point"}, "id": "YYeKY1rpFS8rvx-2jAlUQzIoRUM=", "properties": {"@spider": "usps_collection_boxes", "addr:city": "DAYTON", "addr:country": "US", "addr:full": "50 4TH AVE", "addr:postcode": "89403", "addr:state": "NV", "amenity": "post_box", "brand": "United States Postal Service", "brand:wikidata": "Q668687", "collection_times": "Mo-Fr 16:00; Sa 13:00", "name": "USPS COLLECTION BOX - BLUE BOX", "note": "ON 12/24 AND 12/31, THIS BOX MAY BE COLLECTED AS EARLY AS 12 NOON.", "nsi_id": "unitedstatespostalservice-a77078", "operator": "United States Postal Service", "operator:short": "USPS", "operator:type": "public", "operator:wikidata": "Q668687", "ref": "8940300000"}, "type": "Feature"}
{"dataset_attributes": {"@spider": "usps_collection_boxes", "spider:collection_time": "2023-09-10T08:22:19.197986"}, "geometry": {"coordinates": [-119.507341, 39.308472], "type": "Point"}, "id": "EiDRjlijpQYLF2a2BVKRXM-45S8=", "properties": {"@spider": "usps_collection_boxes", "addr:city": "DAYTON", "addr:country": "US", "addr:full": "6950 US HIGHWAY 50 E", "addr:postcode": "89403", "addr:state": "NV", "amenity": "post_box", "brand": "United States Postal Service", "brand:wikidata": "Q668687", "collection_times": "Mo-Fr 10:30; Sa 10:00", "name": "USPS COLLECTION BOX - BLUE BOX", "nsi_id": "unitedstatespostalservice-a77078", "operator": "United States Postal Service", "operator:short": "USPS", "operator:type": "public", "operator:wikidata": "Q668687", "ref": "8940300001"}, "type": "Feature"}
{"dataset_attributes": {"@spider": "usps_collection_boxes", "spider:collection_time": "2023-09-10T08:22:19.197986"}, "geometry": {"coordinates": [-119.591231, 39.233968], "type": "Point"}, "id": "j50im46phLLSutcZTeH9oR-nMnE=", "properties": {"@spider": "usps_collection_boxes", "addr:city": "DAYTON", "addr:country": "US", "addr:full": "100 DOUGLAS ST", "addr:postcode": "89403", "addr:state": "NV", "amenity": "post_box", "brand": "United States Postal Service", "brand:wikidata": "Q668687", "collection_times": "Mo-Fr 16:30; Sa 12:00", "name": "USPS COLLECTION BOX - BLUE BOX", "note": "ON 12/24 AND 12/31, THIS BOX MAY BE COLLECTED AS EARLY AS 12 NOON.", "nsi_id": "unitedstatespostalservice-a77078", "operator": "United States Postal Service", "operator:short": "USPS", "operator:type": "public", "operator:wikidata": "Q668687", "ref": "8940300003"}, "type": "Feature"}
{"dataset_attributes": {"@spider": "usps_collection_boxes", "spider:collection_time": "2023-09-10T08:22:19.197986"}, "geometry": {"coordinates": [-119.58965, 39.240257], "type": "Point"}, "id": "5jDSvN3WgYE7cfCxOAcqR1rOIiA=", "properties": {"@spider": "usps_collection_boxes", "addr:city": "DAYTON", "addr:country": "US", "addr:full": "50 4TH AVE", "addr:postcode": "89403", "addr:state": "NV", "amenity": "post_box", "brand": "United States Postal Service", "brand:wikidata": "Q668687", "collection_times": "Mo-Fr 16:30; Sa 12:00", "name": "USPS COLLECTION BOX - PO LOBBY", "note": "ON 12/24 AND 12/31, THIS BOX MAY BE COLLECTED AS EARLY AS 12 NOON.", "nsi_id": "unitedstatespostalservice-a77078", "operator": "United States Postal Service", "operator:short": "USPS", "operator:type": "public", "operator:wikidata": "Q668687", "ref": "8940300005"}, "type": "Feature"}
{"dataset_attributes": {"@spider": "usps_collection_boxes", "spider:collection_time": "2023-09-10T08:22:19.197986"}, "geometry": {"coordinates": [-119.58965, 39.240257], "type": "Point"}, "id": "9eHNf262hZniZgwtmXrX6l4L638=", "properties": {"@spider": "usps_collection_boxes", "addr:city": "DAYTON", "addr:country": "US", "addr:full": "50 4TH AVE", "addr:postcode": "89403", "addr:state": "NV", "amenity": "post_box", "brand": "United States Postal Service", "brand:wikidata": "Q668687", "collection_times": "Mo-Fr 16:30; Sa 12:00", "name": "USPS COLLECTION BOX - PO LOBBY", "note": "ON 12/24 AND 12/31, THIS BOX MAY BE COLLECTED AS EARLY AS 12 NOON.", "nsi_id": "unitedstatespostalservice-a77078", "operator": "United States Postal Service", "operator:short": "USPS", "operator:type": "public", "operator:wikidata": "Q668687", "ref": "8940300006"}, "type": "Feature"}
{"dataset_attributes": {"@spider": "usps_collection_boxes", "spider:collection_time": "2023-09-10T08:22:19.197986"}, "geometry": {"coordinates": [-119.58965, 39.240257], "type": "Point"}, "id": "TpRI9h5Uhsx3k1fkEptTO-cPMTk=", "properties": {"@spider": "usps_collection_boxes", "addr:city": "DAYTON", "addr:country": "US", "addr:full": "50 4TH AVE", "addr:postcode": "89403", "addr:state": "NV", "amenity": "post_box", "brand": "United States Postal Service", "brand:wikidata": "Q668687", "collection_times": "Mo-Fr 16:00; Sa 13:00", "name": "USPS COLLECTION BOX - BLUE BOX", "note": "ON 12/24 AND 12/31, THIS BOX MAY BE COLLECTED AS EARLY AS 12 NOON.", "nsi_id": "unitedstatespostalservice-a77078", "operator": "United States Postal Service", "operator:short": "USPS", "operator:type": "public", "operator:wikidata": "Q668687", "ref": "8940300007"}, "type": "Feature"}
{"dataset_attributes": {"@spider": "usps_collection_boxes", "spider:collection_time": "2023-09-10T08:22:19.197986"}, "geometry": {"coordinates": [-119.589653754, 39.240321293], "type": "Point"}, "id": "Z-h54b1LU0PmUaszVjvF3kyMnFI=", "properties": {"@spider": "usps_collection_boxes", "addr:city": "DAYTON", "addr:country": "US", "addr:full": "50 FOURTH AVE", "addr:postcode": "89403", "addr:state": "NV", "amenity": "post_box", "brand": "United States Postal Service", "brand:wikidata": "Q668687", "collection_times": "Mo-Fr 16:30", "name": "USPS COLLECTION BOX - PO LOBBY", "note": "ON 12/24 AND 12/31, THIS BOX MAY BE COLLECTED AS EARLY AS 12 NOON.", "nsi_id": "unitedstatespostalservice-a77078", "operator": "United States Postal Service", "operator:short": "USPS", "operator:type": "public", "operator:wikidata": "Q668687", "ref": "8940300008"}, "type": "Feature"}
{"dataset_attributes": {"@spider": "usps_collection_boxes", "spider:collection_time": "2023-09-10T08:22:19.197986"}, "geometry": {"coordinates": [-118.473155, 40.179364], "type": "Point"}, "id": "tOCh4d_9a0UJnQFTYbA040Oc5cE=", "properties": {"@spider": "usps_collection_boxes", "addr:city": "DENIO", "addr:country": "US", "addr:full": "1 MAIN ST", "addr:postcode": "89404", "addr:state": "NV", "amenity": "post_box", "brand": "United States Postal Service", "brand:wikidata": "Q668687", "collection_times": "Mo-Sa 13:00", "name": "USPS COLLECTION BOX - BLUE BOX", "note": "ON 12/24 AND 12/31, THIS BOX MAY BE COLLECTED AS EARLY AS 12 NOON.", "nsi_id": "unitedstatespostalservice-a77078", "operator": "United States Postal Service", "operator:short": "USPS", "operator:type": "public", "operator:wikidata": "Q668687", "ref": "8940400000"}, "type": "Feature"}
{"dataset_attributes": {"@spider": "usps_collection_boxes", "spider:collection_time": "2023-09-10T08:22:19.197986"}, "geometry": {"coordinates": [-118.473155, 40.179364], "type": "Point"}, "id": "u9t1ml8r13Lv-7Q9vpSOxv4H0eM=", "properties": {"@spider": "usps_collection_boxes", "addr:city": "DENIO", "addr:country": "US", "addr:full": "1 MAIN ST", "addr:postcode": "89404", "addr:state": "NV", "amenity": "post_box", "brand": "United States Postal Service", "brand:wikidata": "Q668687", "collection_times": "Mo-Sa 13:00", "name": "USPS COLLECTION BOX - BLUE BOX", "note": "ON 12/24 AND 12/31, THIS BOX MAY BE COLLECTED AS EARLY AS 12 NOON.", "nsi_id": "unitedstatespostalservice-a77078", "operator": "United States Postal Service", "operator:short": "USPS", "operator:type": "public", "operator:wikidata": "Q668687", "ref": "8940400001"}, "type": "Feature"}
{"dataset_attributes": {"@spider": "usps_collection_boxes", "spider:collection_time": "2023-09-10T08:22:19.197986"}, "geometry": {"coordinates": [-118.635761081, 41.987592032], "type": "Point"}, "id": "0SRF70XTGdnaMLPyPSNWKqKoDIg=", "properties": {"@spider": "usps_collection_boxes", "addr:city": "DENIO", "addr:country": "US", "addr:full": "1 MAIN ST", "addr:postcode": "89404", "addr:state": "NV", "amenity": "post_box", "brand": "United States Postal Service", "brand:wikidata": "Q668687", "collection_times": "Mo-Fr 15:30; Sa 13:30", "name": "USPS COLLECTION BOX - PO LOBBY", "note": "ON 12/24 AND 12/31, THIS BOX MAY BE COLLECTED AS EARLY AS 12 NOON.", "nsi_id": "unitedstatespostalservice-a77078", "operator": "United States Postal Service", "operator:short": "USPS", "operator:type": "public", "operator:wikidata": "Q668687", "ref": "8940400002"}, "type": "Feature"}
{"dataset_attributes": {"@spider": "usps_collection_boxes", "spider:collection_time": "2023-09-10T08:22:19.197986"}, "geometry": {"coordinates": [-118.776822, 39.476805], "type": "Point"}, "id": "qPCHN5-JDqd5PHiy5Ma8Exy0aJ8=", "properties": {"@spider": "usps_collection_boxes", "addr:city": "FALLON", "addr:country": "US", "addr:full": "120 N MAINE ST", "addr:postcode": "89406", "addr:state": "NV", "amenity": "post_box", "brand": "United States Postal Service", "brand:wikidata": "Q668687", "collection_times": "Mo-Fr 15:00; Sa 14:30", "name": "USPS COLLECTION BOX - BLUE BOX", "note": "ON 12/24 AND 12/31, THIS BOX MAY BE COLLECTED AS EARLY AS 12 NOON.", "nsi_id": "unitedstatespostalservice-a77078", "operator": "United States Postal Service", "operator:short": "USPS", "operator:type": "public", "operator:wikidata": "Q668687", "ref": "8940600004"}, "type": "Feature"}
{"dataset_attributes": {"@spider": "usps_collection_boxes", "spider:collection_time": "2023-09-10T08:22:19.197986"}, "geometry": {"coordinates": [-118.777027, 39.470138], "type": "Point"}, "id": "ROkxuHzZ8mVE30YRa2IYiHZ4w7Q=", "properties": {"@spider": "usps_collection_boxes", "addr:city": "FALLON", "addr:country": "US", "addr:full": "507 S MAINE ST", "addr:postcode": "89406", "addr:state": "NV", "amenity": "post_box", "brand": "United States Postal Service", "brand:wikidata": "Q668687", "collection_times": "Mo-Fr 16:15; Sa 14:15", "name": "USPS COLLECTION BOX - BLUE BOX", "note": "ON 12/24 AND 12/31, THIS BOX MAY BE COLLECTED AS EARLY AS 12 NOON.", "nsi_id": "unitedstatespostalservice-a77078", "operator": "United States Postal Service", "operator:short": "USPS", "operator:type": "public", "operator:wikidata": "Q668687", "ref": "8940600008"}, "type": "Feature"}
{"dataset_attributes": {"@spider": "usps_collection_boxes", "spider:collection_time": "2023-09-10T08:22:19.197986"}, "geometry": {"coordinates": [-118.799563, 39.47542], "type": "Point"}, "id": "KEQTDYEaMtLOG8zo-e0aD2JC9mk=", "properties": {"@spider": "usps_collection_boxes", "addr:city": "FALLON", "addr:country": "US", "addr:full": "1911 W WILLIAMS AVE", "addr:postcode": "89406", "addr:state": "NV", "amenity": "post_box", "brand": "United States Postal Service", "brand:wikidata": "Q668687", "collection_times": "Mo-Fr 16:15; Sa 14:15", "name": "USPS COLLECTION BOX - BLUE BOX", "note": "ON 12/24 AND 12/31, THIS BOX MAY BE COLLECTED AS EARLY AS 12 NOON.", "nsi_id": "unitedstatespostalservice-a77078", "operator": "United States Postal Service", "operator:short": "USPS", "operator:type": "public", "operator:wikidata": "Q668687", "ref": "8940600014"}, "type": "Feature"}
{"dataset_attributes": {"@spider": "usps_collection_boxes", "spider:collection_time": "2023-09-10T08:22:19.197986"}, "geometry": {"coordinates": [-118.804476, 39.475976], "type": "Point"}, "id": "3jHqW4Rz1rKGdHtq7VeDAaNYvKE=", "properties": {"@spider": "usps_collection_boxes", "addr:city": "FALLON", "addr:country": "US", "addr:full": "2161 W WILLIAMS AVE", "addr:postcode": "89406", "addr:state": "NV", "amenity": "post_box", "brand": "United States Postal Service", "brand:wikidata": "Q668687", "collection_times": "Mo-Fr 16:00; Sa 14:00", "name": "USPS COLLECTION BOX - BLUE BOX", "note": "ON 12/24 AND 12/31, THIS BOX MAY BE COLLECTED AS EARLY AS 12 NOON.", "nsi_id": "unitedstatespostalservice-a77078", "operator": "United States Postal Service", "operator:short": "USPS", "operator:type": "public", "operator:wikidata": "Q668687", "ref": "8940600016"}, "type": "Feature"}
{"dataset_attributes": {"@spider": "usps_collection_boxes", "spider:collection_time": "2023-09-10T08:22:19.197986"}, "geometry": {"coordinates": [-118.7230102933, 39.4207705896], "type": "Point"}, "id": "VP_xsjxoPzw0kGi52QCHhMcyaK4=", "properties": {"@spider": "usps_collection_boxes", "addr:city": "FALLON", "addr:country": "US", "addr:full": "1239 COYOTE CIR", "addr:postcode": "89406", "addr:state": "NV", "amenity": "post_box", "brand": "United States Postal Service", "brand:wikidata": "Q668687", "collection_times": "Mo-Sa 12:00", "name": "USPS COLLECTION BOX - BLUE BOX", "nsi_id": "unitedstatespostalservice-a77078", "operator": "United States Postal Service", "operator:short": "USPS", "operator:type": "public", "operator:wikidata": "Q668687", "ref": "8940600022"}, "type": "Feature"}
{"dataset_attributes": {"@spider": "usps_collection_boxes", "spider:collection_time": "2023-09-10T08:22:19.197986"}, "geometry": {"coordinates": [-118.723481, 39.421828], "type": "Point"}, "id": "OosHVFOngj0lqr3UcsV5ShDlfCM=", "properties": {"@spider": "usps_collection_boxes", "addr:city": "FALLON", "addr:country": "US", "addr:full": "4755 PASTURE RD", "addr:postcode": "89406", "addr:state": "NV", "amenity": "post_box", "brand": "United States Postal Service", "brand:wikidata": "Q668687", "collection_times": "Mo-Sa 12:00", "name": "USPS COLLECTION BOX - BLUE BOX", "nsi_id": "unitedstatespostalservice-a77078", "operator": "United States Postal Service", "operator:short": "USPS", "operator:type": "public", "operator:wikidata": "Q668687", "ref": "8940600024"}, "type": "Feature"}
{"dataset_attributes": {"@spider": "usps_collection_boxes", "spider:collection_time": "2023-09-10T08:22:19.197986"}, "geometry": {"coordinates": [-118.800442, 39.474298], "type": "Point"}, "id": "i9wp861yV86mbeTDR55d_FlKhdc=", "properties": {"@spider": "usps_collection_boxes", "addr:city": "FALLON", "addr:country": "US", "addr:full": "120 S ALLEN RD", "addr:postcode": "89406", "addr:state": "NV", "amenity": "post_box", "brand": "United States Postal Service", "brand:wikidata": "Q668687", "collection_times": "Mo-Fr 16:15; Sa 12:00", "name": "USPS COLLECTION BOX - BLUE BOX", "note": "ON 12/24 AND 12/31, THIS BOX MAY BE COLLECTED AS EARLY AS 12 NOON.", "nsi_id": "unitedstatespostalservice-a77078", "operator": "United States Postal Service", "operator:short": "USPS", "operator:type": "public", "operator:wikidata": "Q668687", "ref": "8940600030"}, "type": "Feature"}
{"dataset_attributes": {"@spider": "usps_collection_boxes", "spider:collection_time": "2023-09-10T08:22:19.197986"}, "geometry": {"coordinates": [-118.800739, 39.474521], "type": "Point"}, "id": "mbyozTDqatruq4EP1X5D0pjVqjU=", "properties": {"@spider": "usps_collection_boxes", "addr:city": "FALLON", "addr:country": "US", "addr:full": "120 S ALLEN RD", "addr:postcode": "89406", "addr:state": "NV", "amenity": "post_box", "brand": "United States Postal Service", "brand:wikidata": "Q668687", "collection_times": "Mo-Fr 16:15; Sa 12:00", "name": "USPS COLLECTION BOX - PO LOBBY", "note": "ON 12/24 AND 12/31, THIS BOX MAY BE COLLECTED AS EARLY AS 12 NOON.", "nsi_id": "unitedstatespostalservice-a77078", "operator": "United States Postal Service", "operator:short": "USPS", "operator:type": "public", "operator:wikidata": "Q668687", "ref": "8940600031"}, "type": "Feature"}
{"dataset_attributes": {"@spider": "usps_collection_boxes", "spider:collection_time": "2023-09-10T08:22:19.197986"}, "geometry": {"coordinates": [-118.782079, 39.474453], "type": "Point"}, "id": "5WDU27y3oYDkeI1_uU4JJYjgjIY=", "properties": {"@spider": "usps_collection_boxes", "addr:city": "FALLON", "addr:country": "US", "addr:full": "461 W WILLIAMS AVE", "addr:postcode": "89406", "addr:state": "NV", "amenity": "post_box", "brand": "United States Postal Service", "brand:wikidata": "Q668687", "collection_times": "Mo-Fr 09:30; Sa 11:30", "name": "USPS COLLECTION BOX - BLUE BOX", "nsi_id": "unitedstatespostalservice-a77078", "operator": "United States Postal Service", "operator:short": "USPS", "operator:type": "public", "operator:wikidata": "Q668687", "ref": "8940600033"}, "type": "Feature"}
{"dataset_attributes": {"@spider": "usps_collection_boxes", "spider:collection_time": "2023-09-10T08:22:19.197986"}, "geometry": {"coordinates": [-118.787577, 39.476894], "type": "Point"}, "id": "18nPUVBSdwCGlkyDaiSYzeM8ico=", "properties": {"@spider": "usps_collection_boxes", "addr:city": "FALLON", "addr:country": "US", "addr:full": "890 W WILLIAMS AVE", "addr:postcode": "89406", "addr:state": "NV", "amenity": "post_box", "brand": "United States Postal Service", "brand:wikidata": "Q668687", "collection_times": "Mo-Fr 16:00; Sa 14:00", "name": "USPS COLLECTION BOX - BLUE BOX", "note": "ON 12/24 AND 12/31, THIS BOX MAY BE COLLECTED AS EARLY AS 12 NOON.", "nsi_id": "unitedstatespostalservice-a77078", "operator": "United States Postal Service", "operator:short": "USPS", "operator:type": "public", "operator:wikidata": "Q668687", "ref": "8940600035"}, "type": "Feature"}
{"dataset_attributes": {"@spider": "usps_collection_boxes", "spider:collection_time": "2023-09-10T08:22:19.197986"}, "geometry": {"coordinates": [-118.776605, 39.476569], "type": "Point"}, "id": "jHHRHUCmYMLGOQLZEc99ndI_g3M=", "properties": {"@spider": "usps_collection_boxes", "addr:city": "FALLON", "addr:country": "US", "addr:full": "120 N MAINE ST", "addr:postcode": "89406", "addr:state": "NV", "amenity": "post_box", "brand": "United States Postal Service", "brand:wikidata": "Q668687", "collection_times": "Mo-Fr 17:00; Sa 15:00", "name": "USPS COLLECTION BOX - PO LOBBY", "note": "ON 12/24 AND 12/31, THIS BOX MAY BE COLLECTED AS EARLY AS 12 NOON.", "nsi_id": "unitedstatespostalservice-a77078", "operator": "United States Postal Service", "operator:short": "USPS", "operator:type": "public", "operator:wikidata": "Q668687", "ref": "8940600038"}, "type": "Feature"}
{"dataset_attributes": {"@spider": "usps_collection_boxes", "spider:collection_time": "2023-09-10T08:22:19.197986"}, "geometry": {"coordinates": [-118.805226, 39.477802], "type": "Point"}, "id": "UnTj0arvDD61DUWaWixzIrpG7vA=", "properties": {"@spider": "usps_collection_boxes", "addr:city": "FALLON", "addr:country": "US", "addr:full": "2258 RENO HWY", "addr:postcode": "89406", "addr:state": "NV", "amenity": "post_box", "brand": "United States Postal Service", "brand:wikidata": "Q668687", "collection_times": "Mo-Fr 16:00", "name": "USPS COLLECTION BOX - BLUE BOX", "note": "ON 12/24 AND 12/31, THIS BOX MAY BE COLLECTED AS EARLY AS 12 NOON.", "nsi_id": "unitedstatespostalservice-a77078", "operator": "United States Postal Service", "operator:short": "USPS", "operator:type": "public", "operator:wikidata": "Q668687", "ref": "8940600039"}, "type": "Feature"}
{"dataset_attributes": {"@spider": "usps_collection_boxes", "spider:collection_time": "2023-09-10T08:22:19.197986"}, "geometry": {"coordinates": [-118.776995883, 39.476511304], "type": "Point"}, "id": "XdEu3DR6soqtAAJZo_R_gGG3f-U=", "properties": {"@spider": "usps_collection_boxes", "addr:city": "FALLON", "addr:country": "US", "addr:full": "120 N MAINE ST", "addr:postcode": "89406", "addr:state": "NV", "amenity": "post_box", "brand": "United States Postal Service", "brand:wikidata": "Q668687", "collection_times": "Mo-Fr 17:00; Sa 15:00", "name": "USPS COLLECTION BOX - PO LOBBY", "note": "ON 12/24 AND 12/31, THIS BOX MAY BE COLLECTED AS EARLY AS 12 NOON.", "nsi_id": "unitedstatespostalservice-a77078", "operator": "United States Postal Service", "operator:short": "USPS", "operator:type": "public", "operator:wikidata": "Q668687", "ref": "8940600041"}, "type": "Feature"}
{"dataset_attributes": {"@spider": "usps_collection_boxes", "spider:collection_time": "2023-09-10T08:22:19.197986"}, "geometry": {"coordinates": [-118.8002975893, 39.4745023458], "type": "Point"}, "id": "EPwcEr1VcqWz7CBbWUiQ2Hb5dDU=", "properties": {"@spider": "usps_collection_boxes", "addr:city": "FALLON", "addr:country": "US", "addr:full": "120 S ALLEN RD", "addr:postcode": "89406", "addr:state": "NV", "amenity": "post_box", "brand": "United States Postal Service", "brand:wikidata": "Q668687", "collection_times": "Mo-Fr 16:00", "name": "USPS COLLECTION BOX - PO LOBBY", "note": "ON 12/24 AND 12/31, THIS BOX MAY BE COLLECTED AS EARLY AS 12 NOON.", "nsi_id": "unitedstatespostalservice-a77078", "operator": "United States Postal Service", "operator:short": "USPS", "operator:type": "public", "operator:wikidata": "Q668687", "ref": "8940600042"}, "type": "Feature"}
{"dataset_attributes": {"@spider": "usps_collection_boxes", "spider:collection_time": "2023-09-10T08:22:19.197986"}, "geometry": {"coordinates": [-119.223242, 39.609083], "type": "Point"}, "id": "PjAJXecl64XXhj_xyqr9cgloTDs=", "properties": {"@spider": "usps_collection_boxes", "addr:city": "FERNLEY", "addr:country": "US", "addr:full": "1400 US HIGHWAY 95A N", "addr:postcode": "89408", "addr:state": "NV", "amenity": "post_box", "brand": "United States Postal Service", "brand:wikidata": "Q668687", "collection_times": "Mo-Sa 12:00", "name": "USPS COLLECTION BOX - BLUE BOX", "nsi_id": "unitedstatespostalservice-a77078", "operator": "United States Postal Service", "operator:short": "USPS", "operator:type": "public", "operator:wikidata": "Q668687", "ref": "8940800000"}, "type": "Feature"}
{"dataset_attributes": {"@spider": "usps_collection_boxes", "spider:collection_time": "2023-09-10T08:22:19.197986"}, "geometry": {"coordinates": [-119.217429, 39.61094], "type": "Point"}, "id": "ml_YexVwX0oE-Vx3lSnpZ5FJENg=", "properties": {"@spider": "usps_collection_boxes", "addr:city": "FERNLEY", "addr:country": "US", "addr:full": "1550 NEWLANDS DR E", "addr:postcode": "89408", "addr:state": "NV", "amenity": "post_box", "brand": "United States Postal Service", "brand:wikidata": "Q668687", "collection_times": "Mo-Sa 10:30", "name": "USPS COLLECTION BOX - BLUE BOX", "nsi_id": "unitedstatespostalservice-a77078", "operator": "United States Postal Service", "operator:short": "USPS", "operator:type": "public", "operator:wikidata": "Q668687", "ref": "8940800001"}, "type": "Feature"}
{"dataset_attributes": {"@spider": "usps_collection_boxes", "spider:collection_time": "2023-09-10T08:22:19.197986"}, "geometry": {"coordinates": [-119.245874, 39.607621], "type": "Point"}, "id": "1XYEKbj9CNdsEkKTf9f7_1R5Dm8=", "properties": {"@spider": "usps_collection_boxes", "addr:city": "FERNLEY", "addr:country": "US", "addr:full": "315 E MAIN ST", "addr:postcode": "89408", "addr:state": "NV", "amenity": "post_box", "brand": "United States Postal Service", "brand:wikidata": "Q668687", "collection_times": "Mo-Fr 17:00; Sa 15:00", "name": "USPS COLLECTION BOX - PO LOBBY", "note": "ON 12/24 AND 12/31, THIS BOX MAY BE COLLECTED AS EARLY AS 12 NOON.", "nsi_id": "unitedstatespostalservice-a77078", "operator": "United States Postal Service", "operator:short": "USPS", "operator:type": "public", "operator:wikidata": "Q668687", "ref": "8940800003"}, "type": "Feature"}
{"dataset_attributes": {"@spider": "usps_collection_boxes", "spider:collection_time": "2023-09-10T08:22:19.197986"}, "geometry": {"coordinates": [-119.245888, 39.607648], "type": "Point"}, "id": "F0SuOm6zofRRbhk1Gw9SlqCKHOY=", "properties": {"@spider": "usps_collection_boxes", "addr:city": "FERNLEY", "addr:country": "US", "addr:full": "315 E MAIN ST", "addr:postcode": "89408", "addr:state": "NV", "amenity": "post_box", "brand": "United States Postal Service", "brand:wikidata": "Q668687", "collection_times": "Mo-Fr 17:00; Sa 15:00", "name": "USPS COLLECTION BOX - BLUE BOX", "note": "ON 12/24 AND 12/31, THIS BOX MAY BE COLLECTED AS EARLY AS 12 NOON.", "nsi_id": "unitedstatespostalservice-a77078", "operator": "United States Postal Service", "operator:short": "USPS", "operator:type": "public", "operator:wikidata": "Q668687", "ref": "8940800005"}, "type": "Feature"}
{"dataset_attributes": {"@spider": "usps_collection_boxes", "spider:collection_time": "2023-09-10T08:22:19.197986"}, "geometry": {"coordinates": [-119.266328, 39.614086], "type": "Point"}, "id": "qaBdLSrCSxNRErzUYP8Xh2RqkD4=", "properties": {"@spider": "usps_collection_boxes", "addr:city": "FERNLEY", "addr:country": "US", "addr:full": "865 W MAIN ST", "addr:postcode": "89408", "addr:state": "NV", "amenity": "post_box", "brand": "United States Postal Service", "brand:wikidata": "Q668687", "collection_times": "Mo-Sa 12:00", "name": "USPS COLLECTION BOX - BLUE BOX", "nsi_id": "unitedstatespostalservice-a77078", "operator": "United States Postal Service", "operator:short": "USPS", "operator:type": "public", "operator:wikidata": "Q668687", "ref": "8940800006"}, "type": "Feature"}
{"dataset_attributes": {"@spider": "usps_collection_boxes", "spider:collection_time": "2023-09-10T08:22:19.197986"}, "geometry": {"coordinates": [-119.260204, 39.609083], "type": "Point"}, "id": "fu2SoP4agkaOhKy4VMR2-ADia2o=", "properties": {"@spider": "usps_collection_boxes", "addr:city": "FERNLEY", "addr:country": "US", "addr:full": "570 W MAIN ST", "addr:postcode": "89408", "addr:state": "NV", "amenity": "post_box", "brand": "United States Postal Service", "brand:wikidata": "Q668687", "collection_times": "Mo-Sa 12:00", "name": "USPS COLLECTION BOX - BLUE BOX", "nsi_id": "unitedstatespostalservice-a77078", "operator": "United States Postal Service", "operator:short": "USPS", "operator:type": "public", "operator:wikidata": "Q668687", "ref": "8940800007"}, "type": "Feature"}
{"dataset_attributes": {"@spider": "usps_collection_boxes", "spider:collection_time": "2023-09-10T08:22:19.197986"}, "geometry": {"coordinates": [-119.2457503863, 39.6076085351], "type": "Point"}, "id": "WrzYG6lLz8L1-TDPWWKYky__soA=", "properties": {"@spider": "usps_collection_boxes", "addr:city": "FERNLEY", "addr:country": "US", "addr:full": "315 E MAIN ST", "addr:postcode": "89408", "addr:state": "NV", "amenity": "post_box", "brand": "United States Postal Service", "brand:wikidata": "Q668687", "collection_times": "Mo-Fr 17:00; Sa 14:00", "name": "USPS COLLECTION BOX - PO LOBBY", "note": "ON 12/24 AND 12/31, THIS BOX MAY BE COLLECTED AS EARLY AS 12 NOON.", "nsi_id": "unitedstatespostalservice-a77078", "operator": "United States Postal Service", "operator:short": "USPS", "operator:type": "public", "operator:wikidata": "Q668687", "ref": "8940800011"}, "type": "Feature"}
{"dataset_attributes": {"@spider": "usps_collection_boxes", "spider:collection_time": "2023-09-10T08:22:19.197986"}, "geometry": {"coordinates": [-117.931119, 38.861291], "type": "Point"}, "id": "uxQegeiAIBJOA3sAUT-5qC8cn1s=", "properties": {"@spider": "usps_collection_boxes", "addr:city": "GABBS", "addr:country": "US", "addr:full": "101 4TH ST", "addr:postcode": "89409", "addr:state": "NV", "amenity": "post_box", "brand": "United States Postal Service", "brand:wikidata": "Q668687", "collection_times": "Mo-Fr 11:30; Sa 10:15", "name": "USPS COLLECTION BOX - BLUE BOX", "nsi_id": "unitedstatespostalservice-a77078", "operator": "United States Postal Service", "operator:short": "USPS", "operator:type": "public", "operator:wikidata": "Q668687", "ref": "8940900000"}, "type": "Feature"}
{"dataset_attributes": {"@spider": "usps_collection_boxes", "spider:collection_time": "2023-09-10T08:22:19.197986"}, "geometry": {"coordinates": [-117.931119, 38.861291], "type": "Point"}, "id": "519c8_6Z9wzBLAAgbRvDzb1yo20=", "properties": {"@spider": "usps_collection_boxes", "addr:city": "GABBS", "addr:country": "US", "addr:full": "101 4TH ST", "addr:postcode": "89409", "addr:state": "NV", "amenity": "post_box", "brand": "United States Postal Service", "brand:wikidata": "Q668687", "collection_times": "Mo-Fr 11:30; Sa 10:15", "name": "USPS COLLECTION BOX - PO LOBBY", "nsi_id": "unitedstatespostalservice-a77078", "operator": "United States Postal Service", "operator:short": "USPS", "operator:type": "public", "operator:wikidata": "Q668687", "ref": "8940900001"}, "type": "Feature"}
{"dataset_attributes": {"@spider": "usps_collection_boxes", "spider:collection_time": "2023-09-10T08:22:19.197986"}, "geometry": {"coordinates": [-117.931175572, 38.861375906], "type": "Point"}, "id": "pG4cF3iM7GmItni3d0vFrjNtKlk=", "properties": {"@spider": "usps_collection_boxes", "addr:city": "GABBS", "addr:country": "US", "addr:full": "101 4TH ST", "addr:postcode": "89409", "addr:state": "NV", "amenity": "post_box", "brand": "United States Postal Service", "brand:wikidata": "Q668687", "collection_times": "Mo-Fr 16:00", "name": "USPS COLLECTION BOX - PO LOBBY", "note": "ON 12/24 AND 12/31, THIS BOX MAY BE COLLECTED AS EARLY AS 12 NOON.", "nsi_id": "unitedstatespostalservice-a77078", "operator": "United States Postal Service", "operator:short": "USPS", "operator:type": "public", "operator:wikidata": "Q668687", "ref": "8940900003"}, "type": "Feature"}
{"dataset_attributes": {"@spider": "usps_collection_boxes", "spider:collection_time": "2023-09-10T08:22:19.197986"}, "geometry": {"coordinates": [-119.730127, 38.928201], "type": "Point"}, "id": "fafuqQQYWuYVPXQ3zzwpEXGKiJc=", "properties": {"@spider": "usps_collection_boxes", "addr:city": "GARDNERVILLE", "addr:country": "US", "addr:full": "1267 US HIGHWAY 395 N", "addr:postcode": "89410", "addr:state": "NV", "amenity": "post_box", "brand": "United States Postal Service", "brand:wikidata": "Q668687", "collection_times": "Mo-Fr 16:45; Sa 14:45", "name": "USPS COLLECTION BOX - PO LOBBY", "note": "ON 12/24 AND 12/31, THIS BOX MAY BE COLLECTED AS EARLY AS 12 NOON.", "nsi_id": "unitedstatespostalservice-a77078", "operator": "United States Postal Service", "operator:short": "USPS", "operator:type": "public", "operator:wikidata": "Q668687", "ref": "8941000000"}, "type": "Feature"}
{"dataset_attributes": {"@spider": "usps_collection_boxes", "spider:collection_time": "2023-09-10T08:22:19.197986"}, "geometry": {"coordinates": [-119.730127, 38.928201], "type": "Point"}, "id": "-Ev79ntMqESGFZ5KzZ5eznhp-hc=", "properties": {"@spider": "usps_collection_boxes", "addr:city": "GARDNERVILLE", "addr:country": "US", "addr:full": "1267 US HIGHWAY 395 N", "addr:postcode": "89410", "addr:state": "NV", "amenity": "post_box", "brand": "United States Postal Service", "brand:wikidata": "Q668687", "collection_times": "Mo-Fr 16:45; Sa 14:45", "name": "USPS COLLECTION BOX - BLUE BOX", "note": "ON 12/24 AND 12/31, THIS BOX MAY BE COLLECTED AS EARLY AS 12 NOON.", "nsi_id": "unitedstatespostalservice-a77078", "operator": "United States Postal Service", "operator:short": "USPS", "operator:type": "public", "operator:wikidata": "Q668687", "ref": "8941000001"}, "type": "Feature"}
{"dataset_attributes": {"@spider": "usps_collection_boxes", "spider:collection_time": "2023-09-10T08:22:19.197986"}, "geometry": {"coordinates": [-119.737623, 38.936055], "type": "Point"}, "id": "SXGgunmW29RuDlhwqVMwKRvRFlQ=", "properties": {"@spider": "usps_collection_boxes", "addr:city": "GARDNERVILLE", "addr:country": "US", "addr:full": "1335 US HIGHWAY 395 N", "addr:postcode": "89410", "addr:state": "NV", "amenity": "post_box", "brand": "United States Postal Service", "brand:wikidata": "Q668687", "collection_times": "Mo-Sa 12:00", "name": "USPS COLLECTION BOX - BLUE BOX", "nsi_id": "unitedstatespostalservice-a77078", "operator": "United States Postal Service", "operator:short": "USPS", "operator:type": "public", "operator:wikidata": "Q668687", "ref": "8941000002"}, "type": "Feature"}
{"dataset_attributes": {"@spider": "usps_collection_boxes", "spider:collection_time": "2023-09-10T08:22:19.197986"}, "geometry": {"coordinates": [-119.741292, 38.937973], "type": "Point"}, "id": "JPmgpWbZbOVPvsmM18k4nmy1RHk=", "properties": {"@spider": "usps_collection_boxes", "addr:city": "GARDNERVILLE", "addr:country": "US", "addr:full": "1363 US HIGHWAY 395 N", "addr:postcode": "89410", "addr:state": "NV", "amenity": "post_box", "brand": "United States Postal Service", "brand:wikidata": "Q668687", "collection_times": "Mo-Sa 12:00", "name": "USPS COLLECTION BOX - BLUE BOX", "nsi_id": "unitedstatespostalservice-a77078", "operator": "United States Postal Service", "operator:short": "USPS", "operator:type": "public", "operator:wikidata": "Q668687", "ref": "8941000003"}, "type": "Feature"}
{"dataset_attributes": {"@spider": "usps_collection_boxes", "spider:collection_time": "2023-09-10T08:22:19.197986"}, "geometry": {"coordinates": [-119.757519, 38.947237], "type": "Point"}, "id": "fXYgR68C0A8ugMWQktIlHHyRVIY=", "properties": {"@spider": "usps_collection_boxes", "addr:city": "GARDNERVILLE", "addr:country": "US", "addr:full": "1540 US HIGHWAY 395 N", "addr:postcode": "89410", "addr:state": "NV", "amenity": "post_box", "brand": "United States Postal Service", "brand:wikidata": "Q668687", "collection_times": "Mo-Sa 12:00", "name": "USPS COLLECTION BOX - BLUE BOX", "nsi_id": "unitedstatespostalservice-a77078", "operator": "United States Postal Service", "operator:short": "USPS", "operator:type": "public", "operator:wikidata": "Q668687", "ref": "8941000004"}, "type": "Feature"}
{"dataset_attributes": {"@spider": "usps_collection_boxes", "spider:collection_time": "2023-09-10T08:22:19.197986"}, "geometry": {"coordinates": [-119.691332, 38.885042], "type": "Point"}, "id": "szhkLqIfquEYCr9qL4oWMoskMHg=", "properties": {"@spider": "usps_collection_boxes", "addr:city": "GARDNERVILLE", "addr:country": "US", "addr:full": "1901 PALOMINO LN", "addr:postcode": "89410", "addr:state": "NV", "amenity": "post_box", "brand": "United States Postal Service", "brand:wikidata": "Q668687", "collection_times": "Mo-Sa 11:00", "name": "USPS COLLECTION BOX - BLUE BOX", "nsi_id": "unitedstatespostalservice-a77078", "operator": "United States Postal Service", "operator:short": "USPS", "operator:type": "public", "operator:wikidata": "Q668687", "ref": "8941000008"}, "type": "Feature"}
{"dataset_attributes": {"@spider": "usps_collection_boxes", "spider:collection_time": "2023-09-10T08:22:19.197986"}, "geometry": {"coordinates": [-119.5657489633, 38.7321460148], "type": "Point"}, "id": "eGWRW8wVEiluvDHgyLxQdzkfZF0=", "properties": {"@spider": "usps_collection_boxes", "addr:city": "GARDNERVILLE", "addr:country": "US", "addr:full": "3244 REESE LN", "addr:postcode": "89410", "addr:state": "NV", "amenity": "post_box", "brand": "United States Postal Service", "brand:wikidata": "Q668687", "collection_times": "Mo-Sa 10:00", "name": "USPS COLLECTION BOX - BLUE BOX", "nsi_id": "unitedstatespostalservice-a77078", "operator": "United States Postal Service", "operator:short": "USPS", "operator:type": "public", "operator:wikidata": "Q668687", "ref": "8941000009"}, "type": "Feature"}
{"dataset_attributes": {"@spider": "usps_collection_boxes", "spider:collection_time": "2023-09-10T08:22:19.197986"}, "geometry": {"coordinates": [-119.655394, 38.936201], "type": "Point"}, "id": "BBEMpM-QAJ4WtR2yHNjoVNynj7k=", "properties": {"@spider": "usps_collection_boxes", "addr:city": "GARDNERVILLE", "addr:country": "US", "addr:full": "2020 FISH SPRINGS RD", "addr:postcode": "89410", "addr:state": "NV", "amenity": "post_box", "brand": "United States Postal Service", "brand:wikidata": "Q668687", "collection_times": "Mo-Sa 10:00", "name": "USPS COLLECTION BOX - BLUE BOX", "nsi_id": "unitedstatespostalservice-a77078", "operator": "United States Postal Service", "operator:short": "USPS", "operator:type": "public", "operator:wikidata": "Q668687", "ref": "8941000010"}, "type": "Feature"}
{"dataset_attributes": {"@spider": "usps_collection_boxes", "spider:collection_time": "2023-09-10T08:22:19.197986"}, "geometry": {"coordinates": [-119.7299551171, 38.9280063325], "type": "Point"}, "id": "ZDxcPgPE0GlWlGb4i--U4BLlPXs=", "properties": {"@spider": "usps_collection_boxes", "addr:city": "GARDNERVILLE", "addr:country": "US", "addr:full": "1267 US HIGHWAY 395 N", "addr:postcode": "89410", "addr:state": "NV", "amenity": "post_box", "brand": "United States Postal Service", "brand:wikidata": "Q668687", "collection_times": "Mo-Fr 17:00; Sa 14:00", "name": "USPS COLLECTION BOX - PO LOBBY", "note": "ON 12/24 AND 12/31, THIS BOX MAY BE COLLECTED AS EARLY AS 12 NOON.", "nsi_id": "unitedstatespostalservice-a77078", "operator": "United States Postal Service", "operator:short": "USPS", "operator:type": "public", "operator:wikidata": "Q668687", "ref": "8941000012"}, "type": "Feature"}
{"dataset_attributes": {"@spider": "usps_collection_boxes", "spider:collection_time": "2023-09-10T08:22:19.197986"}, "geometry": {"coordinates": [-119.844821, 39.000633], "type": "Point"}, "id": "p_sOmnZeY_vWEqxe3akjPK2jeUY=", "properties": {"@spider": "usps_collection_boxes", "addr:city": "GENOA", "addr:country": "US", "addr:full": "2244 E MAIN ST", "addr:postcode": "89411", "addr:state": "NV", "amenity": "post_box", "brand": "United States Postal Service", "brand:wikidata": "Q668687", "collection_times": "Mo-Fr 16:30; Sa 12:30", "name": "USPS COLLECTION BOX - BLUE BOX", "note": "ON 12/24 AND 12/31, THIS BOX MAY BE COLLECTED AS EARLY AS 12 NOON.", "nsi_id": "unitedstatespostalservice-a77078", "operator": "United States Postal Service", "operator:short": "USPS", "operator:type": "public", "operator:wikidata": "Q668687", "ref": "8941100000"}, "type": "Feature"}
{"dataset_attributes": {"@spider": "usps_collection_boxes", "spider:collection_time": "2023-09-10T08:22:19.197986"}, "geometry": {"coordinates": [-119.843143, 38.998234], "type": "Point"}, "id": "j8RAJ5zBVE2AK7hm1mV5joDSaP0=", "properties": {"@spider": "usps_collection_boxes", "addr:city": "GENOA", "addr:country": "US", "addr:full": "2244 FOOTHILL RD", "addr:postcode": "89411", "addr:state": "NV", "amenity": "post_box", "brand": "United States Postal Service", "brand:wikidata": "Q668687", "collection_times": "Mo-Fr 17:00; Sa 12:30", "name": "USPS COLLECTION BOX - PO LOBBY", "note": "ON 12/24 AND 12/31, THIS BOX MAY BE COLLECTED AS EARLY AS 12 NOON.", "nsi_id": "unitedstatespostalservice-a77078", "operator": "United States Postal Service", "operator:short": "USPS", "operator:type": "public", "operator:wikidata": "Q668687", "ref": "8941100001"}, "type": "Feature"}
{"dataset_attributes": {"@spider": "usps_collection_boxes", "spider:collection_time": "2023-09-10T08:22:19.197986"}, "geometry": {"coordinates": [-119.843165024, 38.998202158], "type": "Point"}, "id": "ZcNm9_SdyCXbnBUbWaKT1e9i16s=", "properties": {"@spider": "usps_collection_boxes", "addr:city": "GENOA", "addr:country": "US", "addr:full": "2244 FOOTHILL RD", "addr:postcode": "89411", "addr:state": "NV", "amenity": "post_box", "brand": "United States Postal Service", "brand:wikidata": "Q668687", "collection_times": "Mo-Fr 17:00; Sa 13:00", "name": "USPS COLLECTION BOX - PO LOBBY", "note": "ON 12/24 AND 12/31, THIS BOX MAY BE COLLECTED AS EARLY AS 12 NOON.", "nsi_id": "unitedstatespostalservice-a77078", "operator": "United States Postal Service", "operator:short": "USPS", "operator:type": "public", "operator:wikidata": "Q668687", "ref": "8941100002"}, "type": "Feature"}
{"dataset_attributes": {"@spider": "usps_collection_boxes", "spider:collection_time": "2023-09-10T08:22:19.197986"}, "geometry": {"coordinates": [-119.3563861593, 40.6519906578], "type": "Point"}, "id": "eAWoaOohuj8jc5sUgNsrFgpHr2o=", "properties": {"@spider": "usps_collection_boxes", "addr:city": "GERLACH", "addr:country": "US", "addr:full": "345 E SUNSET BLVD", "addr:postcode": "89412", "addr:state": "NV", "amenity": "post_box", "brand": "United States Postal Service", "brand:wikidata": "Q668687", "collection_times": "Mo-Fr 14:30", "name": "USPS COLLECTION BOX - PO LOBBY", "note": "ON 12/24 AND 12/31, THIS BOX MAY BE COLLECTED AS EARLY AS 12 NOON.", "nsi_id": "unitedstatespostalservice-a77078", "operator": "United States Postal Service", "operator:short": "USPS", "operator:type": "public", "operator:wikidata": "Q668687", "ref": "8941200002"}, "type": "Feature"}
{"dataset_attributes": {"@spider": "usps_collection_boxes", "spider:collection_time": "2023-09-10T08:22:19.197986"}, "geometry": {"coordinates": [-119.9399079848, 39.0756139853], "type": "Point"}, "id": "e6I4iPKVU1aR9VMUy2CjsI_hi2U=", "properties": {"@spider": "usps_collection_boxes", "addr:city": "GLENBROOK", "addr:country": "US", "addr:full": "1785 US HIGHWAY 50", "addr:postcode": "89413", "addr:state": "NV", "amenity": "post_box", "brand": "United States Postal Service", "brand:wikidata": "Q668687", "collection_times": "Mo-Fr 15:00; Sa 10:00", "name": "USPS COLLECTION BOX - PO LOBBY", "note": "ON 12/24 AND 12/31, THIS BOX MAY BE COLLECTED AS EARLY AS 12 NOON.", "nsi_id": "unitedstatespostalservice-a77078", "operator": "United States Postal Service", "operator:short": "USPS", "operator:type": "public", "operator:wikidata": "Q668687", "ref": "8941300001"}, "type": "Feature"}
{"dataset_attributes": {"@spider": "usps_collection_boxes", "spider:collection_time": "2023-09-10T08:22:19.197986"}, "geometry": {"coordinates": [-119.940697571, 39.072872601], "type": "Point"}, "id": "W-7-Nv8Q57JP8K3IYog1-GCHzXg=", "properties": {"@spider": "usps_collection_boxes", "addr:city": "GLENBROOK", "addr:country": "US", "addr:full": "1785 US HIGHWAY 50", "addr:postcode": "89413", "addr:state": "NV", "amenity": "post_box", "brand": "United States Postal Service", "brand:wikidata": "Q668687", "collection_times": "Mo-Fr 15:30", "name": "USPS COLLECTION BOX - PO LOBBY", "note": "ON 12/24 AND 12/31, THIS BOX MAY BE COLLECTED AS EARLY AS 12 NOON.", "nsi_id": "unitedstatespostalservice-a77078", "operator": "United States Postal Service", "operator:short": "USPS", "operator:type": "public", "operator:wikidata": "Q668687", "ref": "8941300002"}, "type": "Feature"}
{"dataset_attributes": {"@spider": "usps_collection_boxes", "spider:collection_time": "2023-09-10T08:22:19.197986"}, "geometry": {"coordinates": [-117.484564, 40.948113], "type": "Point"}, "id": "gKQzWIh_a4T2oYSrItM4BkxKJuQ=", "properties": {"@spider": "usps_collection_boxes", "addr:city": "GOLCONDA", "addr:country": "US", "addr:full": "295 OLD HIGHWAY 40 E", "addr:postcode": "89414", "addr:state": "NV", "amenity": "post_box", "brand": "United States Postal Service", "brand:wikidata": "Q668687", "collection_times": "Mo-Fr 14:00; Sa 10:00", "name": "USPS COLLECTION BOX - BLUE BOX", "note": "ON 12/24 AND 12/31, THIS BOX MAY BE COLLECTED AS EARLY AS 12 NOON.", "nsi_id": "unitedstatespostalservice-a77078", "operator": "United States Postal Service", "operator:short": "USPS", "operator:type": "public", "operator:wikidata": "Q668687", "ref": "8941400000"}, "type": "Feature"}
{"dataset_attributes": {"@spider": "usps_collection_boxes", "spider:collection_time": "2023-09-10T08:22:19.197986"}, "geometry": {"coordinates": [-117.485761, 40.948176], "type": "Point"}, "id": "VzMW19KWAEf3w_xseCFn6J-n9dU=", "properties": {"@spider": "usps_collection_boxes", "addr:city": "GOLCONDA", "addr:country": "US", "addr:full": "295 OLD HIGHWAY 40 E", "addr:postcode": "89414", "addr:state": "NV", "amenity": "post_box", "brand": "United States Postal Service", "brand:wikidata": "Q668687", "collection_times": "Mo-Fr 12:30; Sa 10:00", "name": "USPS COLLECTION BOX - PO LOBBY", "note": "ON 12/24 AND 12/31, THIS BOX MAY BE COLLECTED AS EARLY AS 12 NOON.", "nsi_id": "unitedstatespostalservice-a77078", "operator": "United States Postal Service", "operator:short": "USPS", "operator:type": "public", "operator:wikidata": "Q668687", "ref": "8941400002"}, "type": "Feature"}
{"dataset_attributes": {"@spider": "usps_collection_boxes", "spider:collection_time": "2023-09-10T08:22:19.197986"}, "geometry": {"coordinates": [-117.4857155549, 40.9482316626], "type": "Point"}, "id": "1Dp-9faO1nh3eKeoGq-kSZh10Bc=", "properties": {"@spider": "usps_collection_boxes", "addr:city": "GOLCONDA", "addr:country": "US", "addr:full": "295 OLD HIGHWAY 40 E", "addr:postcode": "89414", "addr:state": "NV", "amenity": "post_box", "brand": "United States Postal Service", "brand:wikidata": "Q668687", "collection_times": "Mo-Fr 12:30", "name": "USPS COLLECTION BOX - PO LOBBY", "note": "ON 12/24 AND 12/31, THIS BOX MAY BE COLLECTED AS EARLY AS 12 NOON.", "nsi_id": "unitedstatespostalservice-a77078", "operator": "United States Postal Service", "operator:short": "USPS", "operator:type": "public", "operator:wikidata": "Q668687", "ref": "8941400003"}, "type": "Feature"}
{"dataset_attributes": {"@spider": "usps_collection_boxes", "spider:collection_time": "2023-09-10T08:22:19.197986"}, "geometry": {"coordinates": [-118.622573, 38.526071], "type": "Point"}, "id": "IqqRMDQGKGoyn27dHK3srFplU58=", "properties": {"@spider": "usps_collection_boxes", "addr:city": "WALKER LAKE", "addr:country": "US", "addr:full": "701 6TH ST", "addr:postcode": "89415", "addr:state": "NV", "amenity": "post_box", "brand": "United States Postal Service", "brand:wikidata": "Q668687", "collection_times": "Mo-Fr 15:00; Sa 14:30", "name": "USPS COLLECTION BOX - BLUE BOX", "note": "ON 12/24 AND 12/31, THIS BOX MAY BE COLLECTED AS EARLY AS 12 NOON.", "nsi_id": "unitedstatespostalservice-a77078", "operator": "United States Postal Service", "operator:short": "USPS", "operator:type": "public", "operator:wikidata": "Q668687", "ref": "8941500001"}, "type": "Feature"}
{"dataset_attributes": {"@spider": "usps_collection_boxes", "spider:collection_time": "2023-09-10T08:22:19.197986"}, "geometry": {"coordinates": [-118.657589, 38.544569], "type": "Point"}, "id": "Ovwvw8c4sLu1W_H8hUXmhcI-dOM=", "properties": {"@spider": "usps_collection_boxes", "addr:city": "WALKER LAKE", "addr:country": "US", "addr:full": "0 MAINE ST", "addr:postcode": "89415", "addr:state": "NV", "amenity": "post_box", "brand": "United States Postal Service", "brand:wikidata": "Q668687", "collection_times": "Mo-Sa 12:00", "name": "USPS COLLECTION BOX - BLUE BOX", "nsi_id": "unitedstatespostalservice-a77078", "operator": "United States Postal Service", "operator:short": "USPS", "operator:type": "public", "operator:wikidata": "Q668687", "ref": "8941500003"}, "type": "Feature"}
{"dataset_attributes": {"@spider": "usps_collection_boxes", "spider:collection_time": "2023-09-10T08:22:19.197986"}, "geometry": {"coordinates": [-118.757259, 38.64623], "type": "Point"}, "id": "jQzBDGrB4Xd_eqJ-zB5Mq0wXLq0=", "properties": {"@spider": "usps_collection_boxes", "addr:city": "WALKER LAKE", "addr:country": "US", "addr:full": "130 GOLDEN WILLOW DR", "addr:postcode": "89415", "addr:state": "NV", "amenity": "post_box", "brand": "United States Postal Service", "brand:wikidata": "Q668687", "collection_times": "Mo-Sa 11:00", "name": "USPS COLLECTION BOX - BLUE BOX", "nsi_id": "unitedstatespostalservice-a77078", "operator": "United States Postal Service", "operator:short": "USPS", "operator:type": "public", "operator:wikidata": "Q668687", "ref": "8941500004"}, "type": "Feature"}
{"dataset_attributes": {"@spider": "usps_collection_boxes", "spider:collection_time": "2023-09-10T08:22:19.197986"}, "geometry": {"coordinates": [-118.622688, 38.526042], "type": "Point"}, "id": "eK-WS6l2_1vBYKyKIu_CKHQtNnA=", "properties": {"@spider": "usps_collection_boxes", "addr:city": "WALKER LAKE", "addr:country": "US", "addr:full": "701 6TH ST", "addr:postcode": "89415", "addr:state": "NV", "amenity": "post_box", "brand": "United States Postal Service", "brand:wikidata": "Q668687", "collection_times": "Mo-Fr 15:45; Sa 14:45", "name": "USPS COLLECTION BOX - PO LOBBY", "note": "ON 12/24 AND 12/31, THIS BOX MAY BE COLLECTED AS EARLY AS 12 NOON.", "nsi_id": "unitedstatespostalservice-a77078", "operator": "United States Postal Service", "operator:short": "USPS", "operator:type": "public", "operator:wikidata": "Q668687", "ref": "8941500005"}, "type": "Feature"}
{"dataset_attributes": {"@spider": "usps_collection_boxes", "spider:collection_time": "2023-09-10T08:22:19.197986"}, "geometry": {"coordinates": [-118.149333, 40.660772], "type": "Point"}, "id": "X1WO3PGb7DNlFHx5mXPEVNPLwNI=", "properties": {"@spider": "usps_collection_boxes", "addr:city": "IMLAY", "addr:country": "US", "addr:full": "410 MAIN ST", "addr:postcode": "89418", "addr:state": "NV", "amenity": "post_box", "brand": "United States Postal Service", "brand:wikidata": "Q668687", "collection_times": "Mo-Fr 15:00; Sa 09:45", "name": "USPS COLLECTION BOX - BLUE BOX", "note": "ON 12/24 AND 12/31, THIS BOX MAY BE COLLECTED AS EARLY AS 12 NOON.", "nsi_id": "unitedstatespostalservice-a77078", "operator": "United States Postal Service", "operator:short": "USPS", "operator:type": "public", "operator:wikidata": "Q668687", "ref": "8941800000"}, "type": "Feature"}
{"dataset_attributes": {"@spider": "usps_collection_boxes", "spider:collection_time": "2023-09-10T08:22:19.197986"}, "geometry": {"coordinates": [-118.149333, 40.660772], "type": "Point"}, "id": "0yOh4W7NqCs_6TVsUyVXAqxmjak=", "properties": {"@spider": "usps_collection_boxes", "addr:city": "IMLAY", "addr:country": "US", "addr:full": "410 MAIN ST", "addr:postcode": "89418", "addr:state": "NV", "amenity": "post_box", "brand": "United States Postal Service", "brand:wikidata": "Q668687", "collection_times": "Mo-Fr 15:00; Sa 09:45", "name": "USPS COLLECTION BOX - PO LOBBY", "note": "ON 12/24 AND 12/31, THIS BOX MAY BE COLLECTED AS EARLY AS 12 NOON.", "nsi_id": "unitedstatespostalservice-a77078", "operator": "United States Postal Service", "operator:short": "USPS", "operator:type": "public", "operator:wikidata": "Q668687", "ref": "8941800001"}, "type": "Feature"}
{"dataset_attributes": {"@spider": "usps_collection_boxes", "spider:collection_time": "2023-09-10T08:22:19.197986"}, "geometry": {"coordinates": [-118.056186, 40.69301], "type": "Point"}, "id": "YEtrc2QQ8rJebsB5GeS5RL82NEg=", "properties": {"@spider": "usps_collection_boxes", "addr:city": "IMLAY", "addr:country": "US", "addr:full": "6000 FRONTAGE RD", "addr:postcode": "89418", "addr:state": "NV", "amenity": "post_box", "brand": "United States Postal Service", "brand:wikidata": "Q668687", "collection_times": "Mo-Fr 10:45", "name": "USPS COLLECTION BOX - BLUE BOX", "nsi_id": "unitedstatespostalservice-a77078", "operator": "United States Postal Service", "operator:short": "USPS", "operator:type": "public", "operator:wikidata": "Q668687", "ref": "8941800002"}, "type": "Feature"}
{"dataset_attributes": {"@spider": "usps_collection_boxes", "spider:collection_time": "2023-09-10T08:22:19.197986"}, "geometry": {"coordinates": [-118.067421, 40.678079], "type": "Point"}, "id": "vIaPaGoMVtlODyiVYVHH6k2BVug=", "properties": {"@spider": "usps_collection_boxes", "addr:city": "IMLAY", "addr:country": "US", "addr:full": "150 HIGHWAY 400", "addr:postcode": "89418", "addr:state": "NV", "amenity": "post_box", "brand": "United States Postal Service", "brand:wikidata": "Q668687", "collection_times": "Mo-Fr 11:00", "name": "USPS COLLECTION BOX - BLUE BOX", "nsi_id": "unitedstatespostalservice-a77078", "operator": "United States Postal Service", "operator:short": "USPS", "operator:type": "public", "operator:wikidata": "Q668687", "ref": "8941800003"}, "type": "Feature"}
{"dataset_attributes": {"@spider": "usps_collection_boxes", "spider:collection_time": "2023-09-10T08:22:19.197986"}, "geometry": {"coordinates": [-118.148083064, 40.658588549], "type": "Point"}, "id": "duWfcj11Kb0xuQrnKPNTThViSGg=", "properties": {"@spider": "usps_collection_boxes", "addr:city": "IMLAY", "addr:country": "US", "addr:full": "410 MAIN ST", "addr:postcode": "89418", "addr:state": "NV", "amenity": "post_box", "brand": "United States Postal Service", "brand:wikidata": "Q668687", "collection_times": "Mo-Fr 16:00; Sa 09:45", "name": "USPS COLLECTION BOX - PO LOBBY", "note": "ON 12/24 AND 12/31, THIS BOX MAY BE COLLECTED AS EARLY AS 12 NOON.", "nsi_id": "unitedstatespostalservice-a77078", "operator": "United States Postal Service", "operator:short": "USPS", "operator:type": "public", "operator:wikidata": "Q668687", "ref": "8941800004"}, "type": "Feature"}
{"dataset_attributes": {"@spider": "usps_collection_boxes", "spider:collection_time": "2023-09-10T08:22:19.197986"}, "geometry": {"coordinates": [-118.475321, 40.180477], "type": "Point"}, "id": "yEwAacTlJtw-vsU12mGKmWJcrgc=", "properties": {"@spider": "usps_collection_boxes", "addr:city": "LOVELOCK", "addr:country": "US", "addr:full": "390 MAIN ST", "addr:postcode": "89419", "addr:state": "NV", "amenity": "post_box", "brand": "United States Postal Service", "brand:wikidata": "Q668687", "collection_times": "Mo-Fr 16:30; Sa 11:00", "name": "USPS COLLECTION BOX - BLUE BOX", "note": "ON 12/24 AND 12/31, THIS BOX MAY BE COLLECTED AS EARLY AS 12 NOON.", "nsi_id": "unitedstatespostalservice-a77078", "operator": "United States Postal Service", "operator:short": "USPS", "operator:type": "public", "operator:wikidata": "Q668687", "ref": "8941900000"}, "type": "Feature"}
{"dataset_attributes": {"@spider": "usps_collection_boxes", "spider:collection_time": "2023-09-10T08:22:19.197986"}, "geometry": {"coordinates": [-118.475339, 40.18062], "type": "Point"}, "id": "IHXTMZg0QEA8m3COPo4QOROi3Jw=", "properties": {"@spider": "usps_collection_boxes", "addr:city": "LOVELOCK", "addr:country": "US", "addr:full": "390 MAIN ST", "addr:postcode": "89419", "addr:state": "NV", "amenity": "post_box", "brand": "United States Postal Service", "brand:wikidata": "Q668687", "collection_times": "Mo-Fr 17:00; Sa 11:00", "name": "USPS COLLECTION BOX - PO LOBBY", "note": "ON 12/24 AND 12/31, THIS BOX MAY BE COLLECTED AS EARLY AS 12 NOON.", "nsi_id": "unitedstatespostalservice-a77078", "operator": "United States Postal Service", "operator:short": "USPS", "operator:type": "public", "operator:wikidata": "Q668687", "ref": "8941900001"}, "type": "Feature"}
{"dataset_attributes": {"@spider": "usps_collection_boxes", "spider:collection_time": "2023-09-10T08:22:19.197986"}, "geometry": {"coordinates": [-118.283487, 40.467215], "type": "Point"}, "id": "-DoLSadAjvshgN6ASCUqnPv5Psg=", "properties": {"@spider": "usps_collection_boxes", "addr:city": "LOVELOCK", "addr:country": "US", "addr:full": "1305 RYE PATCH RESERVOIR RD", "addr:postcode": "89419", "addr:state": "NV", "amenity": "post_box", "brand": "United States Postal Service", "brand:wikidata": "Q668687", "collection_times": "Mo-Fr 10:30; Sa 10:00", "name": "USPS COLLECTION BOX - BLUE BOX", "nsi_id": "unitedstatespostalservice-a77078", "operator": "United States Postal Service", "operator:short": "USPS", "operator:type": "public", "operator:wikidata": "Q668687", "ref": "8941900003"}, "type": "Feature"}
{"dataset_attributes": {"@spider": "usps_collection_boxes", "spider:collection_time": "2023-09-10T08:22:19.197986"}, "geometry": {"coordinates": [-118.1909273399, 38.4163935035], "type": "Point"}, "id": "U5KmIaT0bjfxbEbU_h7UwVH5pnE=", "properties": {"@spider": "usps_collection_boxes", "addr:city": "LUNING", "addr:country": "US", "addr:full": "0 N HIGHWAY 95", "addr:postcode": "89420", "addr:state": "NV", "amenity": "post_box", "brand": "United States Postal Service", "brand:wikidata": "Q668687", "collection_times": "Mo-Fr 11:30; Sa 10:30", "name": "USPS COLLECTION BOX - BLUE BOX", "nsi_id": "unitedstatespostalservice-a77078", "operator": "United States Postal Service", "operator:short": "USPS", "operator:type": "public", "operator:wikidata": "Q668687", "ref": "8942000000"}, "type": "Feature"}
{"dataset_attributes": {"@spider": "usps_collection_boxes", "spider:collection_time": "2023-09-10T08:22:19.197986"}, "geometry": {"coordinates": [-118.178471, 38.505358], "type": "Point"}, "id": "IlkixAtVnlX-7VcEr0S2SuwXIo8=", "properties": {"@spider": "usps_collection_boxes", "addr:city": "LUNING", "addr:country": "US", "addr:full": "202 PLYMIRE ST", "addr:postcode": "89420", "addr:state": "NV", "amenity": "post_box", "brand": "United States Postal Service", "brand:wikidata": "Q668687", "collection_times": "Mo-Fr 11:30; Sa 10:30", "name": "USPS COLLECTION BOX - PO LOBBY", "nsi_id": "unitedstatespostalservice-a77078", "operator": "United States Postal Service", "operator:short": "USPS", "operator:type": "public", "operator:wikidata": "Q668687", "ref": "8942000001"}, "type": "Feature"}
{"dataset_attributes": {"@spider": "usps_collection_boxes", "spider:collection_time": "2023-09-10T08:22:19.197986"}, "geometry": {"coordinates": [-117.718515, 41.99819], "type": "Point"}, "id": "z4MxxFesgfzpdga2bsohy8IDNbc=", "properties": {"@spider": "usps_collection_boxes", "addr:city": "MCDERMITT", "addr:country": "US", "addr:full": "5 US HIGHWAY 95 S", "addr:postcode": "89421", "addr:state": "NV", "amenity": "post_box", "brand": "United States Postal Service", "brand:wikidata": "Q668687", "collection_times": "Mo-Sa 13:00", "name": "USPS COLLECTION BOX - BLUE BOX", "note": "ON 12/24 AND 12/31, THIS BOX MAY BE COLLECTED AS EARLY AS 12 NOON.", "nsi_id": "unitedstatespostalservice-a77078", "operator": "United States Postal Service", "operator:short": "USPS", "operator:type": "public", "operator:wikidata": "Q668687", "ref": "8942100000"}, "type": "Feature"}
{"dataset_attributes": {"@spider": "usps_collection_boxes", "spider:collection_time": "2023-09-10T08:22:19.197986"}, "geometry": {"coordinates": [-117.718515, 41.99819], "type": "Point"}, "id": "blAXxyRStwJD7SLz7kkiGBr2Tlk=", "properties": {"@spider": "usps_collection_boxes", "addr:city": "MCDERMITT", "addr:country": "US", "addr:full": "5 US HIGHWAY 95 S", "addr:postcode": "89421", "addr:state": "NV", "amenity": "post_box", "brand": "United States Postal Service", "brand:wikidata": "Q668687", "collection_times": "Mo-Sa 13:00", "name": "USPS COLLECTION BOX - PO LOBBY", "note": "ON 12/24 AND 12/31, THIS BOX MAY BE COLLECTED AS EARLY AS 12 NOON.", "nsi_id": "unitedstatespostalservice-a77078", "operator": "United States Postal Service", "operator:short": "USPS", "operator:type": "public", "operator:wikidata": "Q668687", "ref": "8942100001"}, "type": "Feature"}
{"dataset_attributes": {"@spider": "usps_collection_boxes", "spider:collection_time": "2023-09-10T08:22:19.197986"}, "geometry": {"coordinates": [-118.111738, 38.391791], "type": "Point"}, "id": "VUvwwRoVX5TzwkMnItKkNuu5rOY=", "properties": {"@spider": "usps_collection_boxes", "addr:city": "MINA", "addr:country": "US", "addr:full": "215 8TH ST", "addr:postcode": "89422", "addr:state": "NV", "amenity": "post_box", "brand": "United States Postal Service", "brand:wikidata": "Q668687", "collection_times": "Mo-Fr 12:30; Sa 09:00", "name": "USPS COLLECTION BOX - BLUE BOX", "note": "ON 12/24 AND 12/31, THIS BOX MAY BE COLLECTED AS EARLY AS 12 NOON.", "nsi_id": "unitedstatespostalservice-a77078", "operator": "United States Postal Service", "operator:short": "USPS", "operator:type": "public", "operator:wikidata": "Q668687", "ref": "8942200000"}, "type": "Feature"}
{"dataset_attributes": {"@spider": "usps_collection_boxes", "spider:collection_time": "2023-09-10T08:22:19.197986"}, "geometry": {"coordinates": [-118.111703787, 38.3917499646], "type": "Point"}, "id": "uxo-375Hq31LTW9w3KxDW4gijLU=", "properties": {"@spider": "usps_collection_boxes", "addr:city": "MINA", "addr:country": "US", "addr:full": "215 8TH ST", "addr:postcode": "89422", "addr:state": "NV", "amenity": "post_box", "brand": "United States Postal Service", "brand:wikidata": "Q668687", "collection_times": "Mo-Fr 12:30", "name": "USPS COLLECTION BOX - PO LOBBY", "note": "ON 12/24 AND 12/31, THIS BOX MAY BE COLLECTED AS EARLY AS 12 NOON.", "nsi_id": "unitedstatespostalservice-a77078", "operator": "United States Postal Service", "operator:short": "USPS", "operator:type": "public", "operator:wikidata": "Q668687", "ref": "8942200001"}, "type": "Feature"}
{"dataset_attributes": {"@spider": "usps_collection_boxes", "spider:collection_time": "2023-09-10T08:22:19.197986"}, "geometry": {"coordinates": [-119.769395, 38.956382], "type": "Point"}, "id": "XawLqAEhJ3NkrqpB3UY_F3fS91A=", "properties": {"@spider": "usps_collection_boxes", "addr:city": "MINDEN", "addr:country": "US", "addr:full": "1640 US HIGHWAY 395 N", "addr:postcode": "89423", "addr:state": "NV", "amenity": "post_box", "brand": "United States Postal Service", "brand:wikidata": "Q668687", "collection_times": "Mo-Fr 17:15; Sa 14:15", "name": "USPS COLLECTION BOX - BLUE BOX", "note": "ON 12/24 AND 12/31, THIS BOX MAY BE COLLECTED AS EARLY AS 12 NOON.", "nsi_id": "unitedstatespostalservice-a77078", "operator": "United States Postal Service", "operator:short": "USPS", "operator:type": "public", "operator:wikidata": "Q668687", "ref": "8942300003"}, "type": "Feature"}
{"dataset_attributes": {"@spider": "usps_collection_boxes", "spider:collection_time": "2023-09-10T08:22:19.197986"}, "geometry": {"coordinates": [-119.769431, 38.956426], "type": "Point"}, "id": "R9nBNt79ju1FhGeSrc5hxufuiSE=", "properties": {"@spider": "usps_collection_boxes", "addr:city": "MINDEN", "addr:country": "US", "addr:full": "1640 US HIGHWAY 395 N", "addr:postcode": "89423", "addr:state": "NV", "amenity": "post_box", "brand": "United States Postal Service", "brand:wikidata": "Q668687", "collection_times": "Mo-Fr 17:15; Sa 14:15", "name": "USPS COLLECTION BOX - BLUE BOX", "note": "ON 12/24 AND 12/31, THIS BOX MAY BE COLLECTED AS EARLY AS 12 NOON.", "nsi_id": "unitedstatespostalservice-a77078", "operator": "United States Postal Service", "operator:short": "USPS", "operator:type": "public", "operator:wikidata": "Q668687", "ref": "8942300004"}, "type": "Feature"}
{"dataset_attributes": {"@spider": "usps_collection_boxes", "spider:collection_time": "2023-09-10T08:22:19.197986"}, "geometry": {"coordinates": [-119.769431, 38.956426], "type": "Point"}, "id": "LNTQzOmLDmyMmggjvAwiknFc9S0=", "properties": {"@spider": "usps_collection_boxes", "addr:city": "MINDEN", "addr:country": "US", "addr:full": "1640 US HIGHWAY 395 N", "addr:postcode": "89423", "addr:state": "NV", "amenity": "post_box", "brand": "United States Postal Service", "brand:wikidata": "Q668687", "collection_times": "Mo-Fr 16:45; Sa 14:15", "name": "USPS COLLECTION BOX - EXPRESS", "note": "ON 12/24 AND 12/31, THIS BOX MAY BE COLLECTED AS EARLY AS 12 NOON.", "nsi_id": "unitedstatespostalservice-a77078", "operator": "United States Postal Service", "operator:short": "USPS", "operator:type": "public", "operator:wikidata": "Q668687", "ref": "8942300005"}, "type": "Feature"}
{"dataset_attributes": {"@spider": "usps_collection_boxes", "spider:collection_time": "2023-09-10T08:22:19.197986"}, "geometry": {"coordinates": [-119.769431, 38.956426], "type": "Point"}, "id": "38enKW7tWTyRkpPG52ncJKUbsZ8=", "properties": {"@spider": "usps_collection_boxes", "addr:city": "MINDEN", "addr:country": "US", "addr:full": "1640 US HIGHWAY 395 N", "addr:postcode": "89423", "addr:state": "NV", "amenity": "post_box", "brand": "United States Postal Service", "brand:wikidata": "Q668687", "collection_times": "Mo-Fr 17:15; Sa 14:15", "name": "USPS COLLECTION BOX - PO LOBBY", "note": "ON 12/24 AND 12/31, THIS BOX MAY BE COLLECTED AS EARLY AS 12 NOON.", "nsi_id": "unitedstatespostalservice-a77078", "operator": "United States Postal Service", "operator:short": "USPS", "operator:type": "public", "operator:wikidata": "Q668687", "ref": "8942300006"}, "type": "Feature"}
{"dataset_attributes": {"@spider": "usps_collection_boxes", "spider:collection_time": "2023-09-10T08:22:19.197986"}, "geometry": {"coordinates": [-119.365008, 39.824431], "type": "Point"}, "id": "y0eEfRvW4HVN2pYZb1aykUODMeg=", "properties": {"@spider": "usps_collection_boxes", "addr:city": "NIXON", "addr:country": "US", "addr:full": "199 STATE ROUTE 447", "addr:postcode": "89424", "addr:state": "NV", "amenity": "post_box", "brand": "United States Postal Service", "brand:wikidata": "Q668687", "collection_times": "Mo-Fr 15:15; Sa 09:15", "name": "USPS COLLECTION BOX - PO LOBBY", "note": "ON 12/24 AND 12/31, THIS BOX MAY BE COLLECTED AS EARLY AS 12 NOON.", "nsi_id": "unitedstatespostalservice-a77078", "operator": "United States Postal Service", "operator:short": "USPS", "operator:type": "public", "operator:wikidata": "Q668687", "ref": "8942400001"}, "type": "Feature"}
{"dataset_attributes": {"@spider": "usps_collection_boxes", "spider:collection_time": "2023-09-10T08:22:19.197986"}, "geometry": {"coordinates": [-119.3583132593, 39.8318743439], "type": "Point"}, "id": "TFcrFML54yR9DC_5FCkpGIfnLfU=", "properties": {"@spider": "usps_collection_boxes", "addr:city": "NIXON", "addr:country": "US", "addr:full": "199 STATE ROUTE 447", "addr:postcode": "89424", "addr:state": "NV", "amenity": "post_box", "brand": "United States Postal Service", "brand:wikidata": "Q668687", "collection_times": "Mo-Fr 15:30", "name": "USPS COLLECTION BOX - PO LOBBY", "note": "ON 12/24 AND 12/31, THIS BOX MAY BE COLLECTED AS EARLY AS 12 NOON.", "nsi_id": "unitedstatespostalservice-a77078", "operator": "United States Postal Service", "operator:short": "USPS", "operator:type": "public", "operator:wikidata": "Q668687", "ref": "8942400002"}, "type": "Feature"}
{"dataset_attributes": {"@spider": "usps_collection_boxes", "spider:collection_time": "2023-09-10T08:22:19.197986"}, "geometry": {"coordinates": [-117.809559, 41.569592], "type": "Point"}, "id": "FkExvg_VDFon-k3zr2U4dw-KYPI=", "properties": {"@spider": "usps_collection_boxes", "addr:city": "OROVADA", "addr:country": "US", "addr:full": "0 KINGS RIVER RD", "addr:postcode": "89425", "addr:state": "NV", "amenity": "post_box", "brand": "United States Postal Service", "brand:wikidata": "Q668687", "collection_times": "Mo-Sa 14:00", "name": "USPS COLLECTION BOX - BLUE BOX", "note": "ON 12/24 AND 12/31, THIS BOX MAY BE COLLECTED AS EARLY AS 12 NOON.", "nsi_id": "unitedstatespostalservice-a77078", "operator": "United States Postal Service", "operator:short": "USPS", "operator:type": "public", "operator:wikidata": "Q668687", "ref": "8942500000"}, "type": "Feature"}
{"dataset_attributes": {"@spider": "usps_collection_boxes", "spider:collection_time": "2023-09-10T08:22:19.197986"}, "geometry": {"coordinates": [-117.718987043, 41.995906081], "type": "Point"}, "id": "nRRO5_PbsJzhkxd3MkZd1si6FVk=", "properties": {"@spider": "usps_collection_boxes", "addr:city": "OROVADA", "addr:country": "US", "addr:full": "0 US HIGHWAY 95 RD", "addr:postcode": "89425", "addr:state": "NV", "amenity": "post_box", "brand": "United States Postal Service", "brand:wikidata": "Q668687", "collection_times": "Mo-Sa 14:00", "name": "USPS COLLECTION BOX - PO LOBBY", "note": "ON 12/24 AND 12/31, THIS BOX MAY BE COLLECTED AS EARLY AS 12 NOON.", "nsi_id": "unitedstatespostalservice-a77078", "operator": "United States Postal Service", "operator:short": "USPS", "operator:type": "public", "operator:wikidata": "Q668687", "ref": "8942500001"}, "type": "Feature"}
{"dataset_attributes": {"@spider": "usps_collection_boxes", "spider:collection_time": "2023-09-10T08:22:19.197986"}, "geometry": {"coordinates": [-117.534674, 41.491595], "type": "Point"}, "id": "gGRUkH0fMym0osjj9rjGgsoW9fs=", "properties": {"@spider": "usps_collection_boxes", "addr:city": "PARADISE VALLEY", "addr:country": "US", "addr:full": "130 S MAIN ST", "addr:postcode": "89426", "addr:state": "NV", "amenity": "post_box", "brand": "United States Postal Service", "brand:wikidata": "Q668687", "collection_times": "Mo-Sa 11:00", "name": "USPS COLLECTION BOX - PO LOBBY", "nsi_id": "unitedstatespostalservice-a77078", "operator": "United States Postal Service", "operator:short": "USPS", "operator:type": "public", "operator:wikidata": "Q668687", "ref": "8942600000"}, "type": "Feature"}
{"dataset_attributes": {"@spider": "usps_collection_boxes", "spider:collection_time": "2023-09-10T08:22:19.197986"}, "geometry": {"coordinates": [-118.810107, 38.939412], "type": "Point"}, "id": "ywTwWlPOkfAourZ0GNtUDXbtfr8=", "properties": {"@spider": "usps_collection_boxes", "addr:city": "SCHURZ", "addr:country": "US", "addr:full": "4000A US HIGHWAY 95 N", "addr:postcode": "89427", "addr:state": "NV", "amenity": "post_box", "brand": "United States Postal Service", "brand:wikidata": "Q668687", "collection_times": "Mo-Fr 16:00; Sa 10:30", "name": "USPS COLLECTION BOX - BLUE BOX", "note": "ON 12/24 AND 12/31, THIS BOX MAY BE COLLECTED AS EARLY AS 12 NOON.", "nsi_id": "unitedstatespostalservice-a77078", "operator": "United States Postal Service", "operator:short": "USPS", "operator:type": "public", "operator:wikidata": "Q668687", "ref": "8942700000"}, "type": "Feature"}
{"dataset_attributes": {"@spider": "usps_collection_boxes", "spider:collection_time": "2023-09-10T08:22:19.197986"}, "geometry": {"coordinates": [-119.641303, 39.264217], "type": "Point"}, "id": "qTlyjvsbZIAEBjeiWMF6Z7cIhqs=", "properties": {"@spider": "usps_collection_boxes", "addr:city": "SILVER CITY", "addr:country": "US", "addr:full": "270 MAIN ST", "addr:postcode": "89428", "addr:state": "NV", "amenity": "post_box", "brand": "United States Postal Service", "brand:wikidata": "Q668687", "collection_times": "Mo-Fr 16:00; Sa 09:00", "name": "USPS COLLECTION BOX - PO LOBBY", "note": "ON 12/24 AND 12/31, THIS BOX MAY BE COLLECTED AS EARLY AS 12 NOON.", "nsi_id": "unitedstatespostalservice-a77078", "operator": "United States Postal Service", "operator:short": "USPS", "operator:type": "public", "operator:wikidata": "Q668687", "ref": "8942800000"}, "type": "Feature"}
{"dataset_attributes": {"@spider": "usps_collection_boxes", "spider:collection_time": "2023-09-10T08:22:19.197986"}, "geometry": {"coordinates": [-119.2240173802, 39.4145244239], "type": "Point"}, "id": "7_JpNDi-8EI8oQFQv8I-ugA9ZFI=", "properties": {"@spider": "usps_collection_boxes", "addr:city": "SILVER SPRINGS", "addr:country": "US", "addr:full": "1250 DONNER TRL", "addr:postcode": "89429", "addr:state": "NV", "amenity": "post_box", "brand": "United States Postal Service", "brand:wikidata": "Q668687", "collection_times": "Mo-Fr 17:00; Sa 10:00", "name": "USPS COLLECTION BOX - BLUE BOX", "note": "ON 12/24 AND 12/31, THIS BOX MAY BE COLLECTED AS EARLY AS 12 NOON.", "nsi_id": "unitedstatespostalservice-a77078", "operator": "United States Postal Service", "operator:short": "USPS", "operator:type": "public", "operator:wikidata": "Q668687", "ref": "8942900001"}, "type": "Feature"}
{"dataset_attributes": {"@spider": "usps_collection_boxes", "spider:collection_time": "2023-09-10T08:22:19.197986"}, "geometry": {"coordinates": [-119.223957, 39.414496], "type": "Point"}, "id": "_3tqYE7fVLZrD0sustHfqtHgRgA=", "properties": {"@spider": "usps_collection_boxes", "addr:city": "SILVER SPRINGS", "addr:country": "US", "addr:full": "1250 DONNER TRL", "addr:postcode": "89429", "addr:state": "NV", "amenity": "post_box", "brand": "United States Postal Service", "brand:wikidata": "Q668687", "collection_times": "Mo-Fr 17:00; Sa 10:00", "name": "USPS COLLECTION BOX - PO LOBBY", "note": "ON 12/24 AND 12/31, THIS BOX MAY BE COLLECTED AS EARLY AS 12 NOON.", "nsi_id": "unitedstatespostalservice-a77078", "operator": "United States Postal Service", "operator:short": "USPS", "operator:type": "public", "operator:wikidata": "Q668687", "ref": "8942900004"}, "type": "Feature"}
{"dataset_attributes": {"@spider": "usps_collection_boxes", "spider:collection_time": "2023-09-10T08:22:19.197986"}, "geometry": {"coordinates": [-119.326204, 39.379165], "type": "Point"}, "id": "3ofQ1BXQRrvwCYR068E5So_hSUQ=", "properties": {"@spider": "usps_collection_boxes", "addr:city": "SILVER SPRINGS", "addr:country": "US", "addr:full": "8230 US HIGHWAY 50", "addr:postcode": "89429", "addr:state": "NV", "amenity": "post_box", "brand": "United States Postal Service", "brand:wikidata": "Q668687", "collection_times": "Mo-Sa 09:30", "name": "USPS COLLECTION BOX - BLUE BOX", "nsi_id": "unitedstatespostalservice-a77078", "operator": "United States Postal Service", "operator:short": "USPS", "operator:type": "public", "operator:wikidata": "Q668687", "ref": "8942900005"}, "type": "Feature"}
{"dataset_attributes": {"@spider": "usps_collection_boxes", "spider:collection_time": "2023-09-10T08:22:19.197986"}, "geometry": {"coordinates": [-119.328935, 38.79936], "type": "Point"}, "id": "jSAT0mXJWnPFTJU0QfAUjXpnlHc=", "properties": {"@spider": "usps_collection_boxes", "addr:city": "SMITH", "addr:country": "US", "addr:full": "2306 HIGHWAY 208", "addr:postcode": "89430", "addr:state": "NV", "amenity": "post_box", "brand": "United States Postal Service", "brand:wikidata": "Q668687", "collection_times": "Mo-Fr 16:00; Sa 10:00", "name": "USPS COLLECTION BOX - PO LOBBY", "note": "ON 12/24 AND 12/31, THIS BOX MAY BE COLLECTED AS EARLY AS 12 NOON.", "nsi_id": "unitedstatespostalservice-a77078", "operator": "United States Postal Service", "operator:short": "USPS", "operator:type": "public", "operator:wikidata": "Q668687", "ref": "8943000000"}, "type": "Feature"}
{"dataset_attributes": {"@spider": "usps_collection_boxes", "spider:collection_time": "2023-09-10T08:22:19.197986"}, "geometry": {"coordinates": [-119.328935, 38.79936], "type": "Point"}, "id": "U9CI0Q_BmVo4NWyvGW1GtfAmR_k=", "properties": {"@spider": "usps_collection_boxes", "addr:city": "SMITH", "addr:country": "US", "addr:full": "2306 HIGHWAY 208", "addr:postcode": "89430", "addr:state": "NV", "amenity": "post_box", "brand": "United States Postal Service", "brand:wikidata": "Q668687", "collection_times": "Mo-Fr 15:45; Sa 10:00", "name": "USPS COLLECTION BOX - BLUE BOX", "note": "ON 12/24 AND 12/31, THIS BOX MAY BE COLLECTED AS EARLY AS 12 NOON.", "nsi_id": "unitedstatespostalservice-a77078", "operator": "United States Postal Service", "operator:short": "USPS", "operator:type": "public", "operator:wikidata": "Q668687", "ref": "8943000001"}, "type": "Feature"}
{"dataset_attributes": {"@spider": "usps_collection_boxes", "spider:collection_time": "2023-09-10T08:22:19.197986"}, "geometry": {"coordinates": [-119.755825, 39.535978], "type": "Point"}, "id": "cKnOwHJLKz6U3Bnn8P8Ek9DXx4M=", "properties": {"@spider": "usps_collection_boxes", "addr:city": "SPARKS", "addr:country": "US", "addr:full": "1002 C ST", "addr:postcode": "89431", "addr:state": "NV", "amenity": "post_box", "brand": "United States Postal Service", "brand:wikidata": "Q668687", "collection_times": "Sa 14:00", "name": "USPS COLLECTION BOX - BLUE BOX", "note": "ON 12/24 AND 12/31, THIS BOX MAY BE COLLECTED AS EARLY AS 12 NOON.", "nsi_id": "unitedstatespostalservice-a77078", "operator": "United States Postal Service", "operator:short": "USPS", "operator:type": "public", "operator:wikidata": "Q668687", "ref": "8943100001"}, "type": "Feature"}
{"dataset_attributes": {"@spider": "usps_collection_boxes", "spider:collection_time": "2023-09-10T08:22:19.197986"}, "geometry": {"coordinates": [-119.758568, 39.544368], "type": "Point"}, "id": "bKWZ_igEwkNIPNuRMuagUOejq9Q=", "properties": {"@spider": "usps_collection_boxes", "addr:city": "SPARKS", "addr:country": "US", "addr:full": "1125 12TH ST", "addr:postcode": "89431", "addr:state": "NV", "amenity": "post_box", "brand": "United States Postal Service", "brand:wikidata": "Q668687", "collection_times": "Mo-Sa 12:00", "name": "USPS COLLECTION BOX - BLUE BOX", "nsi_id": "unitedstatespostalservice-a77078", "operator": "United States Postal Service", "operator:short": "USPS", "operator:type": "public", "operator:wikidata": "Q668687", "ref": "8943100004"}, "type": "Feature"}
{"dataset_attributes": {"@spider": "usps_collection_boxes", "spider:collection_time": "2023-09-10T08:22:19.197986"}, "geometry": {"coordinates": [-119.751904, 39.548527], "type": "Point"}, "id": "8_TsWqBC-n3U6q5YDVEO-lOCjpk=", "properties": {"@spider": "usps_collection_boxes", "addr:city": "SPARKS", "addr:country": "US", "addr:full": "690 GREENBRAE DR", "addr:postcode": "89431", "addr:state": "NV", "amenity": "post_box", "brand": "United States Postal Service", "brand:wikidata": "Q668687", "collection_times": "Mo-Fr 15:30; Sa 13:30", "name": "USPS COLLECTION BOX - BLUE BOX", "note": "ON 12/24 AND 12/31, THIS BOX MAY BE COLLECTED AS EARLY AS 12 NOON.", "nsi_id": "unitedstatespostalservice-a77078", "operator": "United States Postal Service", "operator:short": "USPS", "operator:type": "public", "operator:wikidata": "Q668687", "ref": "8943100009"}, "type": "Feature"}
{"dataset_attributes": {"@spider": "usps_collection_boxes", "spider:collection_time": "2023-09-10T08:22:19.197986"}, "geometry": {"coordinates": [-119.777266, 39.549267], "type": "Point"}, "id": "m7jv9CedpUTuGYZsRcCiqc7_3gc=", "properties": {"@spider": "usps_collection_boxes", "addr:city": "SPARKS", "addr:country": "US", "addr:full": "1855 EL RANCHO DR", "addr:postcode": "89431", "addr:state": "NV", "amenity": "post_box", "brand": "United States Postal Service", "brand:wikidata": "Q668687", "collection_times": "Mo-Sa 15:00", "name": "USPS COLLECTION BOX - BLUE BOX", "note": "ON 12/24 AND 12/31, THIS BOX MAY BE COLLECTED AS EARLY AS 12 NOON.", "nsi_id": "unitedstatespostalservice-a77078", "operator": "United States Postal Service", "operator:short": "USPS", "operator:type": "public", "operator:wikidata": "Q668687", "ref": "8943100014"}, "type": "Feature"}
{"dataset_attributes": {"@spider": "usps_collection_boxes", "spider:collection_time": "2023-09-10T08:22:19.197986"}, "geometry": {"coordinates": [-119.753524, 39.549217], "type": "Point"}, "id": "E8VSVqxp7VEB932HV-nWNhMWk50=", "properties": {"@spider": "usps_collection_boxes", "addr:city": "SPARKS", "addr:country": "US", "addr:full": "950 HOLMAN WAY", "addr:postcode": "89431", "addr:state": "NV", "amenity": "post_box", "brand": "United States Postal Service", "brand:wikidata": "Q668687", "collection_times": "Mo-Fr 15:30; Sa 13:30", "name": "USPS COLLECTION BOX - BLUE BOX", "note": "ON 12/24 AND 12/31, THIS BOX MAY BE COLLECTED AS EARLY AS 12 NOON.", "nsi_id": "unitedstatespostalservice-a77078", "operator": "United States Postal Service", "operator:short": "USPS", "operator:type": "public", "operator:wikidata": "Q668687", "ref": "8943100017"}, "type": "Feature"}
{"dataset_attributes": {"@spider": "usps_collection_boxes", "spider:collection_time": "2023-09-10T08:22:19.197986"}, "geometry": {"coordinates": [-119.735466, 39.542739], "type": "Point"}, "id": "eLrAurunPc6FFH8ySNXmgTxLWyw=", "properties": {"@spider": "usps_collection_boxes", "addr:city": "SPARKS", "addr:country": "US", "addr:full": "650 E PRATER WAY", "addr:postcode": "89431", "addr:state": "NV", "amenity": "post_box", "brand": "United States Postal Service", "brand:wikidata": "Q668687", "collection_times": "Mo-Fr 15:30; Sa 13:30", "name": "USPS COLLECTION BOX - BLUE BOX", "note": "ON 12/24 AND 12/31, THIS BOX MAY BE COLLECTED AS EARLY AS 12 NOON.", "nsi_id": "unitedstatespostalservice-a77078", "operator": "United States Postal Service", "operator:short": "USPS", "operator:type": "public", "operator:wikidata": "Q668687", "ref": "8943100024"}, "type": "Feature"}
{"dataset_attributes": {"@spider": "usps_collection_boxes", "spider:collection_time": "2023-09-10T08:22:19.197986"}, "geometry": {"coordinates": [-119.773703, 39.544493], "type": "Point"}, "id": "yk1kPvvPnedg9InbyCsuOXP1nFE=", "properties": {"@spider": "usps_collection_boxes", "addr:city": "SPARKS", "addr:country": "US", "addr:full": "2225 ODDIE BLVD", "addr:postcode": "89431", "addr:state": "NV", "amenity": "post_box", "brand": "United States Postal Service", "brand:wikidata": "Q668687", "collection_times": "Mo-Fr 15:30; Sa 11:30", "name": "USPS COLLECTION BOX - BLUE BOX", "note": "ON 12/24 AND 12/31, THIS BOX MAY BE COLLECTED AS EARLY AS 12 NOON.", "nsi_id": "unitedstatespostalservice-a77078", "operator": "United States Postal Service", "operator:short": "USPS", "operator:type": "public", "operator:wikidata": "Q668687", "ref": "8943100027"}, "type": "Feature"}
{"dataset_attributes": {"@spider": "usps_collection_boxes", "spider:collection_time": "2023-09-10T08:22:19.197986"}, "geometry": {"coordinates": [-119.776674, 39.546248], "type": "Point"}, "id": "7jR7zsWCH9tnZM2q0rc7gRLiMY0=", "properties": {"@spider": "usps_collection_boxes", "addr:city": "SPARKS", "addr:country": "US", "addr:full": "2300 ODDIE BLVD", "addr:postcode": "89431", "addr:state": "NV", "amenity": "post_box", "brand": "United States Postal Service", "brand:wikidata": "Q668687", "collection_times": "Mo-Fr 15:30; Sa 11:00", "name": "USPS COLLECTION BOX - BLUE BOX", "note": "ON 12/24 AND 12/31, THIS BOX MAY BE COLLECTED AS EARLY AS 12 NOON.", "nsi_id": "unitedstatespostalservice-a77078", "operator": "United States Postal Service", "operator:short": "USPS", "operator:type": "public", "operator:wikidata": "Q668687", "ref": "8943100029"}, "type": "Feature"}
{"dataset_attributes": {"@spider": "usps_collection_boxes", "spider:collection_time": "2023-09-10T08:22:19.197986"}, "geometry": {"coordinates": [-119.7360920346, 39.5350330135], "type": "Point"}, "id": "ei1vhmQGFSz5BymWR7J8IZ6GR30=", "properties": {"@spider": "usps_collection_boxes", "addr:city": "SPARKS", "addr:country": "US", "addr:full": "200 N MCCARRAN BLVD", "addr:postcode": "89431", "addr:state": "NV", "amenity": "post_box", "brand": "United States Postal Service", "brand:wikidata": "Q668687", "collection_times": "Mo-Fr 15:30; Sa 14:00", "name": "USPS COLLECTION BOX - BLUE BOX", "note": "ON 12/24 AND 12/31, THIS BOX MAY BE COLLECTED AS EARLY AS 12 NOON.", "nsi_id": "unitedstatespostalservice-a77078", "operator": "United States Postal Service", "operator:short": "USPS", "operator:type": "public", "operator:wikidata": "Q668687", "ref": "8943100034"}, "type": "Feature"}
{"dataset_attributes": {"@spider": "usps_collection_boxes", "spider:collection_time": "2023-09-10T08:22:19.197986"}, "geometry": {"coordinates": [-119.732596, 39.540368], "type": "Point"}, "id": "SiCrwolkfMJwQVoQmjZQ0cGYZ9c=", "properties": {"@spider": "usps_collection_boxes", "addr:city": "SPARKS", "addr:country": "US", "addr:full": "620 N MCCARRAN BLVD", "addr:postcode": "89431", "addr:state": "NV", "amenity": "post_box", "brand": "United States Postal Service", "brand:wikidata": "Q668687", "collection_times": "Mo-Fr 15:30; Sa 14:15", "name": "USPS COLLECTION BOX - BLUE BOX", "note": "ON 12/24 AND 12/31, THIS BOX MAY BE COLLECTED AS EARLY AS 12 NOON.", "nsi_id": "unitedstatespostalservice-a77078", "operator": "United States Postal Service", "operator:short": "USPS", "operator:type": "public", "operator:wikidata": "Q668687", "ref": "8943100035"}, "type": "Feature"}
{"dataset_attributes": {"@spider": "usps_collection_boxes", "spider:collection_time": "2023-09-10T08:22:19.197986"}, "geometry": {"coordinates": [-119.708303, 39.523304], "type": "Point"}, "id": "X0pab06Un8bdn4CJcuZkYifyMxE=", "properties": {"@spider": "usps_collection_boxes", "addr:city": "SPARKS", "addr:country": "US", "addr:full": "1950 E GREG ST", "addr:postcode": "89431", "addr:state": "NV", "amenity": "post_box", "brand": "United States Postal Service", "brand:wikidata": "Q668687", "collection_times": "Mo-Fr 14:30; Sa 13:15", "name": "USPS COLLECTION BOX - BLUE BOX", "note": "ON 12/24 AND 12/31, THIS BOX MAY BE COLLECTED AS EARLY AS 12 NOON.", "nsi_id": "unitedstatespostalservice-a77078", "operator": "United States Postal Service", "operator:short": "USPS", "operator:type": "public", "operator:wikidata": "Q668687", "ref": "8943100045"}, "type": "Feature"}
{"dataset_attributes": {"@spider": "usps_collection_boxes", "spider:collection_time": "2023-09-10T08:22:19.197986"}, "geometry": {"coordinates": [-119.755104, 39.545027], "type": "Point"}, "id": "z26p5h4RWP-XXRZjnBN7sSNT5UU=", "properties": {"@spider": "usps_collection_boxes", "addr:city": "SPARKS", "addr:country": "US", "addr:full": "1305 PYRAMID WAY", "addr:postcode": "89431", "addr:state": "NV", "amenity": "post_box", "brand": "United States Postal Service", "brand:wikidata": "Q668687", "collection_times": "Mo-Fr 15:30; Sa 13:30", "name": "USPS COLLECTION BOX - BLUE BOX", "note": "ON 12/24 AND 12/31, THIS BOX MAY BE COLLECTED AS EARLY AS 12 NOON.", "nsi_id": "unitedstatespostalservice-a77078", "operator": "United States Postal Service", "operator:short": "USPS", "operator:type": "public", "operator:wikidata": "Q668687", "ref": "8943100046"}, "type": "Feature"}
{"dataset_attributes": {"@spider": "usps_collection_boxes", "spider:collection_time": "2023-09-10T08:22:19.197986"}, "geometry": {"coordinates": [-119.738457, 39.52718], "type": "Point"}, "id": "QqBrESJIM-Jt3N45kdoa9wJaj-U=", "properties": {"@spider": "usps_collection_boxes", "addr:city": "SPARKS", "addr:country": "US", "addr:full": "835 BERGIN WAY", "addr:postcode": "89431", "addr:state": "NV", "amenity": "post_box", "brand": "United States Postal Service", "brand:wikidata": "Q668687", "collection_times": "Mo-Fr 14:30; Sa 10:00", "name": "USPS COLLECTION BOX - BLUE BOX", "note": "ON 12/24 AND 12/31, THIS BOX MAY BE COLLECTED AS EARLY AS 12 NOON.", "nsi_id": "unitedstatespostalservice-a77078", "operator": "United States Postal Service", "operator:short": "USPS", "operator:type": "public", "operator:wikidata": "Q668687", "ref": "8943100049"}, "type": "Feature"}
{"dataset_attributes": {"@spider": "usps_collection_boxes", "spider:collection_time": "2023-09-10T08:22:19.197986"}, "geometry": {"coordinates": [-119.747663, 39.540349], "type": "Point"}, "id": "nfQzJi0F2xcwmvJGtJCmN0CbbmQ=", "properties": {"@spider": "usps_collection_boxes", "addr:city": "SPARKS", "addr:country": "US", "addr:full": "750 4TH ST", "addr:postcode": "89431", "addr:state": "NV", "amenity": "post_box", "brand": "United States Postal Service", "brand:wikidata": "Q668687", "collection_times": "Mo-Fr 17:45; Sa 16:00", "name": "USPS COLLECTION BOX - BLUE BOX", "note": "ON 12/24 AND 12/31, THIS BOX MAY BE COLLECTED AS EARLY AS 12 NOON.", "nsi_id": "unitedstatespostalservice-a77078", "operator": "United States Postal Service", "operator:short": "USPS", "operator:type": "public", "operator:wikidata": "Q668687", "ref": "8943100052"}, "type": "Feature"}
{"dataset_attributes": {"@spider": "usps_collection_boxes", "spider:collection_time": "2023-09-10T08:22:19.197986"}, "geometry": {"coordinates": [-119.747961, 39.540471], "type": "Point"}, "id": "UERo9kHW-V7c_HP-m4gnWJDxR3M=", "properties": {"@spider": "usps_collection_boxes", "addr:city": "SPARKS", "addr:country": "US", "addr:full": "750 4TH ST", "addr:postcode": "89431", "addr:state": "NV", "amenity": "post_box", "brand": "United States Postal Service", "brand:wikidata": "Q668687", "collection_times": "Mo-Fr 17:45; Sa 16:00", "name": "USPS COLLECTION BOX - BLUE BOX", "note": "ON 12/24 AND 12/31, THIS BOX MAY BE COLLECTED AS EARLY AS 12 NOON.", "nsi_id": "unitedstatespostalservice-a77078", "operator": "United States Postal Service", "operator:short": "USPS", "operator:type": "public", "operator:wikidata": "Q668687", "ref": "8943100053"}, "type": "Feature"}
{"dataset_attributes": {"@spider": "usps_collection_boxes", "spider:collection_time": "2023-09-10T08:22:19.197986"}, "geometry": {"coordinates": [-119.74773, 39.540346], "type": "Point"}, "id": "hMeBf88UeCnd5W_UlE6i7SN19PQ=", "properties": {"@spider": "usps_collection_boxes", "addr:city": "SPARKS", "addr:country": "US", "addr:full": "750 4TH ST", "addr:postcode": "89431", "addr:state": "NV", "amenity": "post_box", "brand": "United States Postal Service", "brand:wikidata": "Q668687", "collection_times": "Mo-Fr 17:45; Sa 16:00", "name": "USPS COLLECTION BOX - BLUE BOX", "note": "ON 12/24 AND 12/31, THIS BOX MAY BE COLLECTED AS EARLY AS 12 NOON.", "nsi_id": "unitedstatespostalservice-a77078", "operator": "United States Postal Service", "operator:short": "USPS", "operator:type": "public", "operator:wikidata": "Q668687", "ref": "8943100054"}, "type": "Feature"}
{"dataset_attributes": {"@spider": "usps_collection_boxes", "spider:collection_time": "2023-09-10T08:22:19.197986"}, "geometry": {"coordinates": [-119.747803, 39.540455], "type": "Point"}, "id": "S_4JYlVNXy0ddeZvzoAQMUaY3ao=", "properties": {"@spider": "usps_collection_boxes", "addr:city": "SPARKS", "addr:country": "US", "addr:full": "750 4TH ST", "addr:postcode": "89431", "addr:state": "NV", "amenity": "post_box", "brand": "United States Postal Service", "brand:wikidata": "Q668687", "collection_times": "Mo-Fr 17:45; Sa 16:00", "name": "USPS COLLECTION BOX - BLUE BOX", "note": "ON 12/24 AND 12/31, THIS BOX MAY BE COLLECTED AS EARLY AS 12 NOON.", "nsi_id": "unitedstatespostalservice-a77078", "operator": "United States Postal Service", "operator:short": "USPS", "operator:type": "public", "operator:wikidata": "Q668687", "ref": "8943100055"}, "type": "Feature"}
{"dataset_attributes": {"@spider": "usps_collection_boxes", "spider:collection_time": "2023-09-10T08:22:19.197986"}, "geometry": {"coordinates": [-119.747445, 39.540833], "type": "Point"}, "id": "dAIhrkh6JT9ECVZITOs5zQXk3yI=", "properties": {"@spider": "usps_collection_boxes", "addr:city": "SPARKS", "addr:country": "US", "addr:full": "750 4TH ST", "addr:postcode": "89431", "addr:state": "NV", "amenity": "post_box", "brand": "United States Postal Service", "brand:wikidata": "Q668687", "collection_times": "Mo-Fr 17:45; Sa 16:00", "name": "USPS COLLECTION BOX - PO LOBBY", "note": "ON 12/24 AND 12/31, THIS BOX MAY BE COLLECTED AS EARLY AS 12 NOON.", "nsi_id": "unitedstatespostalservice-a77078", "operator": "United States Postal Service", "operator:short": "USPS", "operator:type": "public", "operator:wikidata": "Q668687", "ref": "8943100058"}, "type": "Feature"}
{"dataset_attributes": {"@spider": "usps_collection_boxes", "spider:collection_time": "2023-09-10T08:22:19.197986"}, "geometry": {"coordinates": [-119.7730529587, 39.5592800153], "type": "Point"}, "id": "myHerEnrfzZIl13CsrftBIQRtH4=", "properties": {"@spider": "usps_collection_boxes", "addr:city": "SPARKS", "addr:country": "US", "addr:full": "2215 GREEN VISTA DR", "addr:postcode": "89431", "addr:state": "NV", "amenity": "post_box", "brand": "United States Postal Service", "brand:wikidata": "Q668687", "collection_times": "Mo-Fr 15:30; Sa 12:30", "name": "USPS COLLECTION BOX - BLUE BOX", "note": "ON 12/24 AND 12/31, THIS BOX MAY BE COLLECTED AS EARLY AS 12 NOON.", "nsi_id": "unitedstatespostalservice-a77078", "operator": "United States Postal Service", "operator:short": "USPS", "operator:type": "public", "operator:wikidata": "Q668687", "ref": "8943100084"}, "type": "Feature"}
{"dataset_attributes": {"@spider": "usps_collection_boxes", "spider:collection_time": "2023-09-10T08:22:19.197986"}, "geometry": {"coordinates": [-119.772872, 39.559421], "type": "Point"}, "id": "bkpA0wGxFLl9mEqN3Ff2dOLVLYg=", "properties": {"@spider": "usps_collection_boxes", "addr:city": "SPARKS", "addr:country": "US", "addr:full": "2215 GREEN VISTA DR", "addr:postcode": "89431", "addr:state": "NV", "amenity": "post_box", "brand": "United States Postal Service", "brand:wikidata": "Q668687", "collection_times": "Mo-Fr 15:30; Sa 12:30", "name": "USPS COLLECTION BOX - EXPRESS", "note": "ON 12/24 AND 12/31, THIS BOX MAY BE COLLECTED AS EARLY AS 12 NOON.", "nsi_id": "unitedstatespostalservice-a77078", "operator": "United States Postal Service", "operator:short": "USPS", "operator:type": "public", "operator:wikidata": "Q668687", "ref": "8943100085"}, "type": "Feature"}
{"dataset_attributes": {"@spider": "usps_collection_boxes", "spider:collection_time": "2023-09-10T08:22:19.197986"}, "geometry": {"coordinates": [-119.772864, 39.559414], "type": "Point"}, "id": "-adMvNxd0EUgdPP9LDpqVEZhwMw=", "properties": {"@spider": "usps_collection_boxes", "addr:city": "SPARKS", "addr:country": "US", "addr:full": "2215 GREEN VISTA DR", "addr:postcode": "89431", "addr:state": "NV", "amenity": "post_box", "brand": "United States Postal Service", "brand:wikidata": "Q668687", "collection_times": "Mo-Fr 15:30; Sa 12:30", "name": "USPS COLLECTION BOX - BLUE BOX", "note": "ON 12/24 AND 12/31, THIS BOX MAY BE COLLECTED AS EARLY AS 12 NOON.", "nsi_id": "unitedstatespostalservice-a77078", "operator": "United States Postal Service", "operator:short": "USPS", "operator:type": "public", "operator:wikidata": "Q668687", "ref": "8943100086"}, "type": "Feature"}
{"dataset_attributes": {"@spider": "usps_collection_boxes", "spider:collection_time": "2023-09-10T08:22:19.197986"}, "geometry": {"coordinates": [-119.75386, 39.527332], "type": "Point"}, "id": "iexVdPP3ZYvGHZsaGQsURbSm3xE=", "properties": {"@spider": "usps_collection_boxes", "addr:city": "SPARKS", "addr:country": "US", "addr:full": "800 MARIETTA WAY", "addr:postcode": "89431", "addr:state": "NV", "amenity": "post_box", "brand": "United States Postal Service", "brand:wikidata": "Q668687", "collection_times": "Mo-Fr 14:30; Sa 10:15", "name": "USPS COLLECTION BOX - BLUE BOX", "note": "ON 12/24 AND 12/31, THIS BOX MAY BE COLLECTED AS EARLY AS 12 NOON.", "nsi_id": "unitedstatespostalservice-a77078", "operator": "United States Postal Service", "operator:short": "USPS", "operator:type": "public", "operator:wikidata": "Q668687", "ref": "8943100087"}, "type": "Feature"}
{"dataset_attributes": {"@spider": "usps_collection_boxes", "spider:collection_time": "2023-09-10T08:22:19.197986"}, "geometry": {"coordinates": [-119.772885, 39.559419], "type": "Point"}, "id": "6ciQRSzrVFXJZbW6VwO9XgYvN5U=", "properties": {"@spider": "usps_collection_boxes", "addr:city": "SPARKS", "addr:country": "US", "addr:full": "2215 GREEN VISTA DR", "addr:postcode": "89431", "addr:state": "NV", "amenity": "post_box", "brand": "United States Postal Service", "brand:wikidata": "Q668687", "collection_times": "Mo-Fr 15:30; Sa 12:30", "name": "USPS COLLECTION BOX - BLUE BOX", "note": "ON 12/24 AND 12/31, THIS BOX MAY BE COLLECTED AS EARLY AS 12 NOON.", "nsi_id": "unitedstatespostalservice-a77078", "operator": "United States Postal Service", "operator:short": "USPS", "operator:type": "public", "operator:wikidata": "Q668687", "ref": "8943100088"}, "type": "Feature"}
{"dataset_attributes": {"@spider": "usps_collection_boxes", "spider:collection_time": "2023-09-10T08:22:19.197986"}, "geometry": {"coordinates": [-119.747451, 39.540833], "type": "Point"}, "id": "9ea1wNEJ7IlIR9XLT-zIOWbJwg4=", "properties": {"@spider": "usps_collection_boxes", "addr:city": "SPARKS", "addr:country": "US", "addr:full": "740 4TH ST", "addr:postcode": "89431", "addr:state": "NV", "amenity": "post_box", "brand": "United States Postal Service", "brand:wikidata": "Q668687", "collection_times": "Mo-Fr 17:45; Sa 16:00", "name": "USPS COLLECTION BOX - PO LOBBY", "note": "ON 12/24 AND 12/31, THIS BOX MAY BE COLLECTED AS EARLY AS 12 NOON.", "nsi_id": "unitedstatespostalservice-a77078", "operator": "United States Postal Service", "operator:short": "USPS", "operator:type": "public", "operator:wikidata": "Q668687", "ref": "8943100089"}, "type": "Feature"}
{"dataset_attributes": {"@spider": "usps_collection_boxes", "spider:collection_time": "2023-09-10T08:22:19.197986"}, "geometry": {"coordinates": [-119.7093520033, 39.6388070097], "type": "Point"}, "id": "L4D1hh8F1aT1bmZRqKuAu4a8lnE=", "properties": {"@spider": "usps_collection_boxes", "addr:city": "SPARKS", "addr:country": "US", "addr:full": "9732 PYRAMID WAY", "addr:postcode": "89431", "addr:state": "NV", "amenity": "post_box", "brand": "United States Postal Service", "brand:wikidata": "Q668687", "collection_times": "Mo-Sa 13:00", "name": "USPS COLLECTION BOX - BLUE BOX", "note": "ON 12/24 AND 12/31, THIS BOX MAY BE COLLECTED AS EARLY AS 12 NOON.", "nsi_id": "unitedstatespostalservice-a77078", "operator": "United States Postal Service", "operator:short": "USPS", "operator:type": "public", "operator:wikidata": "Q668687", "ref": "8943100091"}, "type": "Feature"}
{"dataset_attributes": {"@spider": "usps_collection_boxes", "spider:collection_time": "2023-09-10T08:22:19.197986"}, "geometry": {"coordinates": [-119.747975857, 39.540825136], "type": "Point"}, "id": "FBkJKCT2aOdwpu-CwALZK5UmZSM=", "properties": {"@spider": "usps_collection_boxes", "addr:city": "SPARKS", "addr:country": "US", "addr:full": "750 4TH ST", "addr:postcode": "89431", "addr:state": "NV", "amenity": "post_box", "brand": "United States Postal Service", "brand:wikidata": "Q668687", "collection_times": "Mo-Fr 17:30", "name": "USPS COLLECTION BOX - PO LOBBY", "note": "ON 12/24 AND 12/31, THIS BOX MAY BE COLLECTED AS EARLY AS 12 NOON.", "nsi_id": "unitedstatespostalservice-a77078", "operator": "United States Postal Service", "operator:short": "USPS", "operator:type": "public", "operator:wikidata": "Q668687", "ref": "8943100095"}, "type": "Feature"}
{"dataset_attributes": {"@spider": "usps_collection_boxes", "spider:collection_time": "2023-09-10T08:22:19.197986"}, "geometry": {"coordinates": [-119.782479, 39.596372], "type": "Point"}, "id": "EypeIt3GL7ACCvz5jwNpjwzH0Ws=", "properties": {"@spider": "usps_collection_boxes", "addr:city": "SUN VALLEY", "addr:country": "US", "addr:full": "125 W 6TH AVE", "addr:postcode": "89433", "addr:state": "NV", "amenity": "post_box", "brand": "United States Postal Service", "brand:wikidata": "Q668687", "collection_times": "Mo-Fr 17:00; Sa 10:00", "name": "USPS COLLECTION BOX - BLUE BOX", "note": "ON 12/24 AND 12/31, THIS BOX MAY BE COLLECTED AS EARLY AS 12 NOON.", "nsi_id": "unitedstatespostalservice-a77078", "operator": "United States Postal Service", "operator:short": "USPS", "operator:type": "public", "operator:wikidata": "Q668687", "ref": "8943300001"}, "type": "Feature"}
{"dataset_attributes": {"@spider": "usps_collection_boxes", "spider:collection_time": "2023-09-10T08:22:19.197986"}, "geometry": {"coordinates": [-119.782524, 39.596344], "type": "Point"}, "id": "NUxDNjmEFFslleJNb-8kpLURLFM=", "properties": {"@spider": "usps_collection_boxes", "addr:city": "SUN VALLEY", "addr:country": "US", "addr:full": "125 W 6TH AVE", "addr:postcode": "89433", "addr:state": "NV", "amenity": "post_box", "brand": "United States Postal Service", "brand:wikidata": "Q668687", "collection_times": "Mo-Fr 17:00; Sa 10:00", "name": "USPS COLLECTION BOX - PO LOBBY", "note": "ON 12/24 AND 12/31, THIS BOX MAY BE COLLECTED AS EARLY AS 12 NOON.", "nsi_id": "unitedstatespostalservice-a77078", "operator": "United States Postal Service", "operator:short": "USPS", "operator:type": "public", "operator:wikidata": "Q668687", "ref": "8943300003"}, "type": "Feature"}
{"dataset_attributes": {"@spider": "usps_collection_boxes", "spider:collection_time": "2023-09-10T08:22:19.197986"}, "geometry": {"coordinates": [-119.733138, 39.535576], "type": "Point"}, "id": "Zh73Fho8QZ93N2EkS75nkOwx4uA=", "properties": {"@spider": "usps_collection_boxes", "addr:city": "SPARKS", "addr:country": "US", "addr:full": "800 NICHOLS BLVD", "addr:postcode": "89434", "addr:state": "NV", "amenity": "post_box", "brand": "United States Postal Service", "brand:wikidata": "Q668687", "collection_times": "Mo-Fr 15:00; Sa 14:00", "name": "USPS COLLECTION BOX - BLUE BOX", "note": "ON 12/24 AND 12/31, THIS BOX MAY BE COLLECTED AS EARLY AS 12 NOON.", "nsi_id": "unitedstatespostalservice-a77078", "operator": "United States Postal Service", "operator:short": "USPS", "operator:type": "public", "operator:wikidata": "Q668687", "ref": "8943400011"}, "type": "Feature"}
{"dataset_attributes": {"@spider": "usps_collection_boxes", "spider:collection_time": "2023-09-10T08:22:19.197986"}, "geometry": {"coordinates": [-119.733087, 39.556687], "type": "Point"}, "id": "yTvgBDtfoxahwFj6Ed94kUigBPI=", "properties": {"@spider": "usps_collection_boxes", "addr:city": "SPARKS", "addr:country": "US", "addr:full": "710 BARING BLVD", "addr:postcode": "89434", "addr:state": "NV", "amenity": "post_box", "brand": "United States Postal Service", "brand:wikidata": "Q668687", "collection_times": "Mo-Fr 15:15; Sa 12:45", "name": "USPS COLLECTION BOX - BLUE BOX", "note": "ON 12/24 AND 12/31, THIS BOX MAY BE COLLECTED AS EARLY AS 12 NOON.", "nsi_id": "unitedstatespostalservice-a77078", "operator": "United States Postal Service", "operator:short": "USPS", "operator:type": "public", "operator:wikidata": "Q668687", "ref": "8943400017"}, "type": "Feature"}
{"dataset_attributes": {"@spider": "usps_collection_boxes", "spider:collection_time": "2023-09-10T08:22:19.197986"}, "geometry": {"coordinates": [-119.6972949708, 39.541129004], "type": "Point"}, "id": "ObHTccjxgTq18ZHXyho9rgCQvYY=", "properties": {"@spider": "usps_collection_boxes", "addr:city": "SPARKS", "addr:country": "US", "addr:full": "2375 E PRATER WAY", "addr:postcode": "89434", "addr:state": "NV", "amenity": "post_box", "brand": "United States Postal Service", "brand:wikidata": "Q668687", "collection_times": "Mo-Fr 14:45; Sa 13:00", "name": "USPS COLLECTION BOX - BLUE BOX", "note": "ON 12/24 AND 12/31, THIS BOX MAY BE COLLECTED AS EARLY AS 12 NOON.", "nsi_id": "unitedstatespostalservice-a77078", "operator": "United States Postal Service", "operator:short": "USPS", "operator:type": "public", "operator:wikidata": "Q668687", "ref": "8943400018"}, "type": "Feature"}
{"dataset_attributes": {"@spider": "usps_collection_boxes", "spider:collection_time": "2023-09-10T08:22:19.197986"}, "geometry": {"coordinates": [-119.70599, 39.557248], "type": "Point"}, "id": "aSD1xrQXXxyhM8DUPvNo5p2GCOU=", "properties": {"@spider": "usps_collection_boxes", "addr:city": "SPARKS", "addr:country": "US", "addr:full": "2929 VISTA BLVD", "addr:postcode": "89434", "addr:state": "NV", "amenity": "post_box", "brand": "United States Postal Service", "brand:wikidata": "Q668687", "collection_times": "Mo-Fr 17:45; Sa 17:00", "name": "USPS COLLECTION BOX - BLUE BOX", "note": "ON 12/24 AND 12/31, THIS BOX MAY BE COLLECTED AS EARLY AS 12 NOON.", "nsi_id": "unitedstatespostalservice-a77078", "operator": "United States Postal Service", "operator:short": "USPS", "operator:type": "public", "operator:wikidata": "Q668687", "ref": "8943400019"}, "type": "Feature"}
{"dataset_attributes": {"@spider": "usps_collection_boxes", "spider:collection_time": "2023-09-10T08:22:19.197986"}, "geometry": {"coordinates": [-119.706035, 39.557277], "type": "Point"}, "id": "7a_zSfaEfiHgBCQobSzJcGa82l8=", "properties": {"@spider": "usps_collection_boxes", "addr:city": "SPARKS", "addr:country": "US", "addr:full": "2929 VISTA BLVD", "addr:postcode": "89434", "addr:state": "NV", "amenity": "post_box", "brand": "United States Postal Service", "brand:wikidata": "Q668687", "collection_times": "Mo-Fr 17:45; Sa 17:00", "name": "USPS COLLECTION BOX - EXPRESS", "note": "ON 12/24 AND 12/31, THIS BOX MAY BE COLLECTED AS EARLY AS 12 NOON.", "nsi_id": "unitedstatespostalservice-a77078", "operator": "United States Postal Service", "operator:short": "USPS", "operator:type": "public", "operator:wikidata": "Q668687", "ref": "8943400020"}, "type": "Feature"}
{"dataset_attributes": {"@spider": "usps_collection_boxes", "spider:collection_time": "2023-09-10T08:22:19.197986"}, "geometry": {"coordinates": [-119.706082, 39.557149], "type": "Point"}, "id": "HJgBeOBiagYq8kIox2VLP-f_27c=", "properties": {"@spider": "usps_collection_boxes", "addr:city": "SPARKS", "addr:country": "US", "addr:full": "2929 VISTA BLVD", "addr:postcode": "89434", "addr:state": "NV", "amenity": "post_box", "brand": "United States Postal Service", "brand:wikidata": "Q668687", "collection_times": "Mo-Fr 17:45; Sa 17:00", "name": "USPS COLLECTION BOX - BLUE BOX", "note": "ON 12/24 AND 12/31, THIS BOX MAY BE COLLECTED AS EARLY AS 12 NOON.", "nsi_id": "unitedstatespostalservice-a77078", "operator": "United States Postal Service", "operator:short": "USPS", "operator:type": "public", "operator:wikidata": "Q668687", "ref": "8943400021"}, "type": "Feature"}
{"dataset_attributes": {"@spider": "usps_collection_boxes", "spider:collection_time": "2023-09-10T08:22:19.197986"}, "geometry": {"coordinates": [-119.706051, 39.557264], "type": "Point"}, "id": "cFyl3R0udBf50Z-OhC3Mr8SAOdc=", "properties": {"@spider": "usps_collection_boxes", "addr:city": "SPARKS", "addr:country": "US", "addr:full": "2929 VISTA BLVD", "addr:postcode": "89434", "addr:state": "NV", "amenity": "post_box", "brand": "United States Postal Service", "brand:wikidata": "Q668687", "collection_times": "Mo-Fr 17:45; Sa 17:00", "name": "USPS COLLECTION BOX - BLUE BOX", "note": "ON 12/24 AND 12/31, THIS BOX MAY BE COLLECTED AS EARLY AS 12 NOON.", "nsi_id": "unitedstatespostalservice-a77078", "operator": "United States Postal Service", "operator:short": "USPS", "operator:type": "public", "operator:wikidata": "Q668687", "ref": "8943400022"}, "type": "Feature"}
{"dataset_attributes": {"@spider": "usps_collection_boxes", "spider:collection_time": "2023-09-10T08:22:19.197986"}, "geometry": {"coordinates": [-119.706826, 39.557075], "type": "Point"}, "id": "SHqnPOjWZqOZ3O7UahcgyDm1hN8=", "properties": {"@spider": "usps_collection_boxes", "addr:city": "SPARKS", "addr:country": "US", "addr:full": "2929 VISTA BLVD", "addr:postcode": "89434", "addr:state": "NV", "amenity": "post_box", "brand": "United States Postal Service", "brand:wikidata": "Q668687", "collection_times": "Mo-Fr 17:45; Sa 17:00", "name": "USPS COLLECTION BOX - APC", "note": "ON 12/24 AND 12/31, THIS BOX MAY BE COLLECTED AS EARLY AS 12 NOON.", "nsi_id": "unitedstatespostalservice-a77078", "operator": "United States Postal Service", "operator:short": "USPS", "operator:type": "public", "operator:wikidata": "Q668687", "ref": "8943400024"}, "type": "Feature"}
{"dataset_attributes": {"@spider": "usps_collection_boxes", "spider:collection_time": "2023-09-10T08:22:19.197986"}, "geometry": {"coordinates": [-119.706543, 39.557141], "type": "Point"}, "id": "iPgV4M4BLca9USuGkDq3o7-LWc4=", "properties": {"@spider": "usps_collection_boxes", "addr:city": "SPARKS", "addr:country": "US", "addr:full": "2929 VISTA BLVD", "addr:postcode": "89434", "addr:state": "NV", "amenity": "post_box", "brand": "United States Postal Service", "brand:wikidata": "Q668687", "collection_times": "Mo-Fr 17:45; Sa 17:00", "name": "USPS COLLECTION BOX - PO LOBBY", "note": "ON 12/24 AND 12/31, THIS BOX MAY BE COLLECTED AS EARLY AS 12 NOON.", "nsi_id": "unitedstatespostalservice-a77078", "operator": "United States Postal Service", "operator:short": "USPS", "operator:type": "public", "operator:wikidata": "Q668687", "ref": "8943400025"}, "type": "Feature"}
{"dataset_attributes": {"@spider": "usps_collection_boxes", "spider:collection_time": "2023-09-10T08:22:19.197986"}, "geometry": {"coordinates": [-119.705696615, 39.556908649], "type": "Point"}, "id": "LtwzeEm8V9_8OTl5PCWmyCgZ2bA=", "properties": {"@spider": "usps_collection_boxes", "addr:city": "SPARKS", "addr:country": "US", "addr:full": "2929 VISTA BLVD", "addr:postcode": "89434", "addr:state": "NV", "amenity": "post_box", "brand": "United States Postal Service", "brand:wikidata": "Q668687", "collection_times": "Mo-Fr 17:30", "name": "USPS COLLECTION BOX - PO LOBBY", "note": "ON 12/24 AND 12/31, THIS BOX MAY BE COLLECTED AS EARLY AS 12 NOON.", "nsi_id": "unitedstatespostalservice-a77078", "operator": "United States Postal Service", "operator:short": "USPS", "operator:type": "public", "operator:wikidata": "Q668687", "ref": "8943400032"}, "type": "Feature"}
{"dataset_attributes": {"@spider": "usps_collection_boxes", "spider:collection_time": "2023-09-10T08:22:19.197986"}, "geometry": {"coordinates": [-117.1266911678, 40.7944594131], "type": "Point"}, "id": "Ba5QNpOBZB8Ie45N1ueuuoYrefE=", "properties": {"@spider": "usps_collection_boxes", "addr:city": "VALMY", "addr:country": "US", "addr:full": "0 I-80 EXIT 216", "addr:postcode": "89438", "addr:state": "NV", "amenity": "post_box", "brand": "United States Postal Service", "brand:wikidata": "Q668687", "collection_times": "Mo-Fr 14:00; Sa 11:00", "name": "USPS COLLECTION BOX - BLUE BOX", "note": "ON 12/24 AND 12/31, THIS BOX MAY BE COLLECTED AS EARLY AS 12 NOON.", "nsi_id": "unitedstatespostalservice-a77078", "operator": "United States Postal Service", "operator:short": "USPS", "operator:type": "public", "operator:wikidata": "Q668687", "ref": "8943800000"}, "type": "Feature"}
{"dataset_attributes": {"@spider": "usps_collection_boxes", "spider:collection_time": "2023-09-10T08:22:19.197986"}, "geometry": {"coordinates": [-117.125798713, 40.792699349], "type": "Point"}, "id": "Pbn5GoT4Q97X36iheRtVmJsU3Tc=", "properties": {"@spider": "usps_collection_boxes", "addr:city": "VALMY", "addr:country": "US", "addr:full": "1 I 80 W EXIT 216", "addr:postcode": "89438", "addr:state": "NV", "amenity": "post_box", "brand": "United States Postal Service", "brand:wikidata": "Q668687", "collection_times": "Mo-Fr 14:00; Sa 11:00", "name": "USPS COLLECTION BOX - PO LOBBY", "note": "ON 12/24 AND 12/31, THIS BOX MAY BE COLLECTED AS EARLY AS 12 NOON.", "nsi_id": "unitedstatespostalservice-a77078", "operator": "United States Postal Service", "operator:short": "USPS", "operator:type": "public", "operator:wikidata": "Q668687", "ref": "8943800001"}, "type": "Feature"}
{"dataset_attributes": {"@spider": "usps_collection_boxes", "spider:collection_time": "2023-09-10T08:22:19.197986"}, "geometry": {"coordinates": [-117.119123453, 40.786567235], "type": "Point"}, "id": "l3TLQNIKlXUlrwDqLJAEaUzg1Aw=", "properties": {"@spider": "usps_collection_boxes", "addr:city": "VALMY", "addr:country": "US", "addr:full": "1 I 80 W EXIT 216", "addr:postcode": "89438", "addr:state": "NV", "amenity": "post_box", "brand": "United States Postal Service", "brand:wikidata": "Q668687", "collection_times": "Mo-Fr 14:00; Sa 11:00", "name": "USPS COLLECTION BOX - PO LOBBY", "note": "ON 12/24 AND 12/31, THIS BOX MAY BE COLLECTED AS EARLY AS 12 NOON.", "nsi_id": "unitedstatespostalservice-a77078", "operator": "United States Postal Service", "operator:short": "USPS", "operator:type": "public", "operator:wikidata": "Q668687", "ref": "8943800003"}, "type": "Feature"}
{"dataset_attributes": {"@spider": "usps_collection_boxes", "spider:collection_time": "2023-09-10T08:22:19.197986"}, "geometry": {"coordinates": [-119.9755328, 39.5155636], "type": "Point"}, "id": "dXwweVNlWkT1DyIJUNuxIbX3PEw=", "properties": {"@spider": "usps_collection_boxes", "addr:city": "VERDI", "addr:country": "US", "addr:full": "1675 HIGHWAY 40 W", "addr:postcode": "89439", "addr:state": "NV", "amenity": "post_box", "brand": "United States Postal Service", "brand:wikidata": "Q668687", "collection_times": "Mo-Fr 16:30; Sa 09:30", "name": "USPS COLLECTION BOX - BLUE BOX", "note": "ON 12/24 AND 12/31, THIS BOX MAY BE COLLECTED AS EARLY AS 12 NOON.", "nsi_id": "unitedstatespostalservice-a77078", "operator": "United States Postal Service", "operator:short": "USPS", "operator:type": "public", "operator:wikidata": "Q668687", "ref": "8943900000"}, "type": "Feature"}
{"dataset_attributes": {"@spider": "usps_collection_boxes", "spider:collection_time": "2023-09-10T08:22:19.197986"}, "geometry": {"coordinates": [-119.994089, 39.515864], "type": "Point"}, "id": "Tv2KkTny-GVlCepGCXQOOHT7rss=", "properties": {"@spider": "usps_collection_boxes", "addr:city": "VERDI", "addr:country": "US", "addr:full": "1675 HIGHWAY 40 W", "addr:postcode": "89439", "addr:state": "NV", "amenity": "post_box", "brand": "United States Postal Service", "brand:wikidata": "Q668687", "collection_times": "Mo-Fr 16:30; Sa 09:30", "name": "USPS COLLECTION BOX - PO LOBBY", "note": "ON 12/24 AND 12/31, THIS BOX MAY BE COLLECTED AS EARLY AS 12 NOON.", "nsi_id": "unitedstatespostalservice-a77078", "operator": "United States Postal Service", "operator:short": "USPS", "operator:type": "public", "operator:wikidata": "Q668687", "ref": "8943900001"}, "type": "Feature"}
{"dataset_attributes": {"@spider": "usps_collection_boxes", "spider:collection_time": "2023-09-10T08:22:19.197986"}, "geometry": {"coordinates": [-119.979864, 39.520575], "type": "Point"}, "id": "OvR_mGjdRrzUGIXOEwyknE1L7l8=", "properties": {"@spider": "usps_collection_boxes", "addr:city": "VERDI", "addr:country": "US", "addr:full": "1675 HIGHWAY 40 W", "addr:postcode": "89439", "addr:state": "NV", "amenity": "post_box", "brand": "United States Postal Service", "brand:wikidata": "Q668687", "collection_times": "Mo-Fr 16:00", "name": "USPS COLLECTION BOX - PO LOBBY", "note": "ON 12/24 AND 12/31, THIS BOX MAY BE COLLECTED AS EARLY AS 12 NOON.", "nsi_id": "unitedstatespostalservice-a77078", "operator": "United States Postal Service", "operator:short": "USPS", "operator:type": "public", "operator:wikidata": "Q668687", "ref": "8943900002"}, "type": "Feature"}
{"dataset_attributes": {"@spider": "usps_collection_boxes", "spider:collection_time": "2023-09-10T08:22:19.197986"}, "geometry": {"coordinates": [-119.650192, 39.309119], "type": "Point"}, "id": "KDKowvba6rwAO64wVdvkWKS_WeE=", "properties": {"@spider": "usps_collection_boxes", "addr:city": "VIRGINIA CITY", "addr:country": "US", "addr:full": "132 S C ST", "addr:postcode": "89440", "addr:state": "NV", "amenity": "post_box", "brand": "United States Postal Service", "brand:wikidata": "Q668687", "collection_times": "Mo-Fr 16:30; Sa 09:30", "name": "USPS COLLECTION BOX - BLUE BOX", "note": "ON 12/24 AND 12/31, THIS BOX MAY BE COLLECTED AS EARLY AS 12 NOON.", "nsi_id": "unitedstatespostalservice-a77078", "operator": "United States Postal Service", "operator:short": "USPS", "operator:type": "public", "operator:wikidata": "Q668687", "ref": "8944000000"}, "type": "Feature"}
{"dataset_attributes": {"@spider": "usps_collection_boxes", "spider:collection_time": "2023-09-10T08:22:19.197986"}, "geometry": {"coordinates": [-119.650137, 39.30917], "type": "Point"}, "id": "pxA1lKakH9Ed_3rJbhXxQ5h0uFA=", "properties": {"@spider": "usps_collection_boxes", "addr:city": "VIRGINIA CITY", "addr:country": "US", "addr:full": "132 S C ST", "addr:postcode": "89440", "addr:state": "NV", "amenity": "post_box", "brand": "United States Postal Service", "brand:wikidata": "Q668687", "collection_times": "Mo-Fr 16:30; Sa 09:30", "name": "USPS COLLECTION BOX - PO LOBBY", "note": "ON 12/24 AND 12/31, THIS BOX MAY BE COLLECTED AS EARLY AS 12 NOON.", "nsi_id": "unitedstatespostalservice-a77078", "operator": "United States Postal Service", "operator:short": "USPS", "operator:type": "public", "operator:wikidata": "Q668687", "ref": "8944000001"}, "type": "Feature"}
{"dataset_attributes": {"@spider": "usps_collection_boxes", "spider:collection_time": "2023-09-10T08:22:19.197986"}, "geometry": {"coordinates": [-119.285927, 39.632526], "type": "Point"}, "id": "gBObCIcj1rPw8AXi6_ad03_oeo0=", "properties": {"@spider": "usps_collection_boxes", "addr:city": "WADSWORTH", "addr:country": "US", "addr:full": "150 US HIGHWAY 40", "addr:postcode": "89442", "addr:state": "NV", "amenity": "post_box", "brand": "United States Postal Service", "brand:wikidata": "Q668687", "collection_times": "Mo-Fr 16:15; Sa 10:30", "name": "USPS COLLECTION BOX - BLUE BOX", "note": "ON 12/24 AND 12/31, THIS BOX MAY BE COLLECTED AS EARLY AS 12 NOON.", "nsi_id": "unitedstatespostalservice-a77078", "operator": "United States Postal Service", "operator:short": "USPS", "operator:type": "public", "operator:wikidata": "Q668687", "ref": "8944200000"}, "type": "Feature"}
{"dataset_attributes": {"@spider": "usps_collection_boxes", "spider:collection_time": "2023-09-10T08:22:19.197986"}, "geometry": {"coordinates": [-119.285989, 39.632545], "type": "Point"}, "id": "AkETHJ1ScwN9bFbDAsnMUPWRGps=", "properties": {"@spider": "usps_collection_boxes", "addr:city": "WADSWORTH", "addr:country": "US", "addr:full": "150 US HIGHWAY 40", "addr:postcode": "89442", "addr:state": "NV", "amenity": "post_box", "brand": "United States Postal Service", "brand:wikidata": "Q668687", "collection_times": "Mo-Fr 16:15; Sa 10:30", "name": "USPS COLLECTION BOX - PO LOBBY", "note": "ON 12/24 AND 12/31, THIS BOX MAY BE COLLECTED AS EARLY AS 12 NOON.", "nsi_id": "unitedstatespostalservice-a77078", "operator": "United States Postal Service", "operator:short": "USPS", "operator:type": "public", "operator:wikidata": "Q668687", "ref": "8944200001"}, "type": "Feature"}
{"dataset_attributes": {"@spider": "usps_collection_boxes", "spider:collection_time": "2023-09-10T08:22:19.197986"}, "geometry": {"coordinates": [-119.5065380258, 38.7318930071], "type": "Point"}, "id": "V2fR1-l51QjOh1d-nwoSQHg3Nq8=", "properties": {"@spider": "usps_collection_boxes", "addr:city": "WELLINGTON", "addr:country": "US", "addr:full": "3900 CARTER WAY", "addr:postcode": "89444", "addr:state": "NV", "amenity": "post_box", "brand": "United States Postal Service", "brand:wikidata": "Q668687", "collection_times": "Mo-Sa 11:30", "name": "USPS COLLECTION BOX - BLUE BOX", "nsi_id": "unitedstatespostalservice-a77078", "operator": "United States Postal Service", "operator:short": "USPS", "operator:type": "public", "operator:wikidata": "Q668687", "ref": "8944400000"}, "type": "Feature"}
{"dataset_attributes": {"@spider": "usps_collection_boxes", "spider:collection_time": "2023-09-10T08:22:19.197986"}, "geometry": {"coordinates": [-119.376811, 38.756132], "type": "Point"}, "id": "i1Q0tKbdQkW1jxWgcBlyKuU0NxQ=", "properties": {"@spider": "usps_collection_boxes", "addr:city": "WELLINGTON", "addr:country": "US", "addr:full": "2818 STATE ROUTE 208", "addr:postcode": "89444", "addr:state": "NV", "amenity": "post_box", "brand": "United States Postal Service", "brand:wikidata": "Q668687", "collection_times": "Mo-Fr 15:45; Sa 10:30", "name": "USPS COLLECTION BOX - PO LOBBY", "note": "ON 12/24 AND 12/31, THIS BOX MAY BE COLLECTED AS EARLY AS 12 NOON.", "nsi_id": "unitedstatespostalservice-a77078", "operator": "United States Postal Service", "operator:short": "USPS", "operator:type": "public", "operator:wikidata": "Q668687", "ref": "8944400001"}, "type": "Feature"}
{"dataset_attributes": {"@spider": "usps_collection_boxes", "spider:collection_time": "2023-09-10T08:22:19.197986"}, "geometry": {"coordinates": [-117.733296, 40.963045], "type": "Point"}, "id": "uh99eZo0wpbJ7efPIjetBluXPrQ=", "properties": {"@spider": "usps_collection_boxes", "addr:city": "WINNEMUCCA", "addr:country": "US", "addr:full": "850 HANSON ST", "addr:postcode": "89445", "addr:state": "NV", "amenity": "post_box", "brand": "United States Postal Service", "brand:wikidata": "Q668687", "collection_times": "Mo-Fr 17:00; Sa 15:45", "name": "USPS COLLECTION BOX - BLUE BOX", "note": "ON 12/24 AND 12/31, THIS BOX MAY BE COLLECTED AS EARLY AS 12 NOON.", "nsi_id": "unitedstatespostalservice-a77078", "operator": "United States Postal Service", "operator:short": "USPS", "operator:type": "public", "operator:wikidata": "Q668687", "ref": "8944500000"}, "type": "Feature"}
{"dataset_attributes": {"@spider": "usps_collection_boxes", "spider:collection_time": "2023-09-10T08:22:19.197986"}, "geometry": {"coordinates": [-117.728697, 40.970919], "type": "Point"}, "id": "CH6bS5OcYdjiiRE1NjLx2CgzbWA=", "properties": {"@spider": "usps_collection_boxes", "addr:city": "WINNEMUCCA", "addr:country": "US", "addr:full": "26 E HASKELL ST", "addr:postcode": "89445", "addr:state": "NV", "amenity": "post_box", "brand": "United States Postal Service", "brand:wikidata": "Q668687", "collection_times": "Mo-Fr 13:30; Sa 12:00", "name": "USPS COLLECTION BOX - BLUE BOX", "note": "ON 12/24 AND 12/31, THIS BOX MAY BE COLLECTED AS EARLY AS 12 NOON.", "nsi_id": "unitedstatespostalservice-a77078", "operator": "United States Postal Service", "operator:short": "USPS", "operator:type": "public", "operator:wikidata": "Q668687", "ref": "8944500001"}, "type": "Feature"}
{"dataset_attributes": {"@spider": "usps_collection_boxes", "spider:collection_time": "2023-09-10T08:22:19.197986"}, "geometry": {"coordinates": [-117.731223, 40.965865], "type": "Point"}, "id": "xfY6M0bT0KhKvZOj6-lV8V6WhF8=", "properties": {"@spider": "usps_collection_boxes", "addr:city": "WINNEMUCCA", "addr:country": "US", "addr:full": "475 W HASKELL ST", "addr:postcode": "89445", "addr:state": "NV", "amenity": "post_box", "brand": "United States Postal Service", "brand:wikidata": "Q668687", "collection_times": "Mo-Sa 09:00", "name": "USPS COLLECTION BOX - BLUE BOX", "nsi_id": "unitedstatespostalservice-a77078", "operator": "United States Postal Service", "operator:short": "USPS", "operator:type": "public", "operator:wikidata": "Q668687", "ref": "8944500005"}, "type": "Feature"}
{"dataset_attributes": {"@spider": "usps_collection_boxes", "spider:collection_time": "2023-09-10T08:22:19.197986"}, "geometry": {"coordinates": [-117.733296, 40.963045], "type": "Point"}, "id": "LE8IG9ZkXE2bYHkG3MmDx_jI8v8=", "properties": {"@spider": "usps_collection_boxes", "addr:city": "WINNEMUCCA", "addr:country": "US", "addr:full": "850 HANSON ST", "addr:postcode": "89445", "addr:state": "NV", "amenity": "post_box", "brand": "United States Postal Service", "brand:wikidata": "Q668687", "collection_times": "Mo-Fr 17:00; Sa 15:45", "name": "USPS COLLECTION BOX - BLUE BOX", "note": "ON 12/24 AND 12/31, THIS BOX MAY BE COLLECTED AS EARLY AS 12 NOON.", "nsi_id": "unitedstatespostalservice-a77078", "operator": "United States Postal Service", "operator:short": "USPS", "operator:type": "public", "operator:wikidata": "Q668687", "ref": "8944500014"}, "type": "Feature"}
{"dataset_attributes": {"@spider": "usps_collection_boxes", "spider:collection_time": "2023-09-10T08:22:19.197986"}, "geometry": {"coordinates": [-117.733296, 40.963045], "type": "Point"}, "id": "s6lIwR9k-XXF9_TBF9F85T_pyQk=", "properties": {"@spider": "usps_collection_boxes", "addr:city": "WINNEMUCCA", "addr:country": "US", "addr:full": "850 HANSON ST", "addr:postcode": "89445", "addr:state": "NV", "amenity": "post_box", "brand": "United States Postal Service", "brand:wikidata": "Q668687", "collection_times": "Mo-Fr 17:00; Sa 15:45", "name": "USPS COLLECTION BOX - EXPRESS", "note": "ON 12/24 AND 12/31, THIS BOX MAY BE COLLECTED AS EARLY AS 12 NOON.", "nsi_id": "unitedstatespostalservice-a77078", "operator": "United States Postal Service", "operator:short": "USPS", "operator:type": "public", "operator:wikidata": "Q668687", "ref": "8944500020"}, "type": "Feature"}
{"dataset_attributes": {"@spider": "usps_collection_boxes", "spider:collection_time": "2023-09-10T08:22:19.197986"}, "geometry": {"coordinates": [-117.733296, 40.963045], "type": "Point"}, "id": "Zm-AxDksvdw3B_b5IqvLHkomko0=", "properties": {"@spider": "usps_collection_boxes", "addr:city": "WINNEMUCCA", "addr:country": "US", "addr:full": "850 HANSON ST", "addr:postcode": "89445", "addr:state": "NV", "amenity": "post_box", "brand": "United States Postal Service", "brand:wikidata": "Q668687", "collection_times": "Mo-Fr 17:00; Sa 15:45", "name": "USPS COLLECTION BOX - PO LOBBY", "note": "ON 12/24 AND 12/31, THIS BOX MAY BE COLLECTED AS EARLY AS 12 NOON.", "nsi_id": "unitedstatespostalservice-a77078", "operator": "United States Postal Service", "operator:short": "USPS", "operator:type": "public", "operator:wikidata": "Q668687", "ref": "8944500022"}, "type": "Feature"}
{"dataset_attributes": {"@spider": "usps_collection_boxes", "spider:collection_time": "2023-09-10T08:22:19.197986"}, "geometry": {"coordinates": [-119.207222, 38.987018], "type": "Point"}, "id": "UNL_LrCnL09bDCLBO3d3c_2VnNI=", "properties": {"@spider": "usps_collection_boxes", "addr:city": "YERINGTON", "addr:country": "US", "addr:full": "25 AUSTIN AVE", "addr:postcode": "89447", "addr:state": "NV", "amenity": "post_box", "brand": "United States Postal Service", "brand:wikidata": "Q668687", "collection_times": "Mo-Sa 10:30", "name": "USPS COLLECTION BOX - BLUE BOX", "nsi_id": "unitedstatespostalservice-a77078", "operator": "United States Postal Service", "operator:short": "USPS", "operator:type": "public", "operator:wikidata": "Q668687", "ref": "8944700000"}, "type": "Feature"}
{"dataset_attributes": {"@spider": "usps_collection_boxes", "spider:collection_time": "2023-09-10T08:22:19.197986"}, "geometry": {"coordinates": [-119.1646365859, 38.9939261743], "type": "Point"}, "id": "fJa1G5-XTmQcO-6hkTbSUscE0VY=", "properties": {"@spider": "usps_collection_boxes", "addr:city": "YERINGTON", "addr:country": "US", "addr:full": "176 W GOLDFIELD AVE", "addr:postcode": "89447", "addr:state": "NV", "amenity": "post_box", "brand": "United States Postal Service", "brand:wikidata": "Q668687", "collection_times": "Mo-Sa 09:00", "name": "USPS COLLECTION BOX - BLUE BOX", "nsi_id": "unitedstatespostalservice-a77078", "operator": "United States Postal Service", "operator:short": "USPS", "operator:type": "public", "operator:wikidata": "Q668687", "ref": "8944700001"}, "type": "Feature"}
{"dataset_attributes": {"@spider": "usps_collection_boxes", "spider:collection_time": "2023-09-10T08:22:19.197986"}, "geometry": {"coordinates": [-119.168318, 38.98533], "type": "Point"}, "id": "xOL767B3tMpXrp2bx8ODOc3KWC8=", "properties": {"@spider": "usps_collection_boxes", "addr:city": "YERINGTON", "addr:country": "US", "addr:full": "101 S MOUNTAIN VIEW ST", "addr:postcode": "89447", "addr:state": "NV", "amenity": "post_box", "brand": "United States Postal Service", "brand:wikidata": "Q668687", "collection_times": "Mo-Fr 11:30; Sa 10:30", "name": "USPS COLLECTION BOX - BLUE BOX", "nsi_id": "unitedstatespostalservice-a77078", "operator": "United States Postal Service", "operator:short": "USPS", "operator:type": "public", "operator:wikidata": "Q668687", "ref": "8944700002"}, "type": "Feature"}
{"dataset_attributes": {"@spider": "usps_collection_boxes", "spider:collection_time": "2023-09-10T08:22:19.197986"}, "geometry": {"coordinates": [-119.163347, 38.985824], "type": "Point"}, "id": "xDRfcW-kpGxus1VfvE969MdCuvA=", "properties": {"@spider": "usps_collection_boxes", "addr:city": "YERINGTON", "addr:country": "US", "addr:full": "31 S MAIN ST", "addr:postcode": "89447", "addr:state": "NV", "amenity": "post_box", "brand": "United States Postal Service", "brand:wikidata": "Q668687", "collection_times": "Mo-Fr 14:45; Sa 12:45", "name": "USPS COLLECTION BOX - BLUE BOX", "note": "ON 12/24 AND 12/31, THIS BOX MAY BE COLLECTED AS EARLY AS 12 NOON.", "nsi_id": "unitedstatespostalservice-a77078", "operator": "United States Postal Service", "operator:short": "USPS", "operator:type": "public", "operator:wikidata": "Q668687", "ref": "8944700004"}, "type": "Feature"}
{"dataset_attributes": {"@spider": "usps_collection_boxes", "spider:collection_time": "2023-09-10T08:22:19.197986"}, "geometry": {"coordinates": [-119.163195, 38.988059], "type": "Point"}, "id": "HgYrBk-tzBxKUD2dc7hLEJ4QK6w=", "properties": {"@spider": "usps_collection_boxes", "addr:city": "YERINGTON", "addr:country": "US", "addr:full": "26 N MAIN ST", "addr:postcode": "89447", "addr:state": "NV", "amenity": "post_box", "brand": "United States Postal Service", "brand:wikidata": "Q668687", "collection_times": "Mo-Fr 16:45; Sa 09:00", "name": "USPS COLLECTION BOX - PO LOBBY", "note": "ON 12/24 AND 12/31, THIS BOX MAY BE COLLECTED AS EARLY AS 12 NOON.", "nsi_id": "unitedstatespostalservice-a77078", "operator": "United States Postal Service", "operator:short": "USPS", "operator:type": "public", "operator:wikidata": "Q668687", "ref": "8944700005"}, "type": "Feature"}
{"dataset_attributes": {"@spider": "usps_collection_boxes", "spider:collection_time": "2023-09-10T08:22:19.197986"}, "geometry": {"coordinates": [-119.165224, 38.982741], "type": "Point"}, "id": "7WDUde8yECxBw4BNWETxrlGKh9c=", "properties": {"@spider": "usps_collection_boxes", "addr:city": "YERINGTON", "addr:country": "US", "addr:full": "119 W BRIDGE ST", "addr:postcode": "89447", "addr:state": "NV", "amenity": "post_box", "brand": "United States Postal Service", "brand:wikidata": "Q668687", "collection_times": "Mo-Sa 10:30", "name": "USPS COLLECTION BOX - BLUE BOX", "nsi_id": "unitedstatespostalservice-a77078", "operator": "United States Postal Service", "operator:short": "USPS", "operator:type": "public", "operator:wikidata": "Q668687", "ref": "8944700007"}, "type": "Feature"}
{"dataset_attributes": {"@spider": "usps_collection_boxes", "spider:collection_time": "2023-09-10T08:22:19.197986"}, "geometry": {"coordinates": [-119.163091, 38.988023], "type": "Point"}, "id": "IGs2Qd7D39ySvKEOidPi0k6oYd0=", "properties": {"@spider": "usps_collection_boxes", "addr:city": "YERINGTON", "addr:country": "US", "addr:full": "26 N MAIN ST", "addr:postcode": "89447", "addr:state": "NV", "amenity": "post_box", "brand": "United States Postal Service", "brand:wikidata": "Q668687", "collection_times": "Mo-Fr 16:45; Sa 12:45", "name": "USPS COLLECTION BOX - BLUE BOX", "note": "ON 12/24 AND 12/31, THIS BOX MAY BE COLLECTED AS EARLY AS 12 NOON.", "nsi_id": "unitedstatespostalservice-a77078", "operator": "United States Postal Service", "operator:short": "USPS", "operator:type": "public", "operator:wikidata": "Q668687", "ref": "8944700010"}, "type": "Feature"}
{"dataset_attributes": {"@spider": "usps_collection_boxes", "spider:collection_time": "2023-09-10T08:22:19.197986"}, "geometry": {"coordinates": [-119.163111, 38.988136], "type": "Point"}, "id": "dTaKHkBHAz2yR-ZhLXPUwNxvoSI=", "properties": {"@spider": "usps_collection_boxes", "addr:city": "YERINGTON", "addr:country": "US", "addr:full": "26 N MAIN ST", "addr:postcode": "89447", "addr:state": "NV", "amenity": "post_box", "brand": "United States Postal Service", "brand:wikidata": "Q668687", "collection_times": "Mo-Fr 16:45; Sa 12:45", "name": "USPS COLLECTION BOX - BLUE BOX", "note": "ON 12/24 AND 12/31, THIS BOX MAY BE COLLECTED AS EARLY AS 12 NOON.", "nsi_id": "unitedstatespostalservice-a77078", "operator": "United States Postal Service", "operator:short": "USPS", "operator:type": "public", "operator:wikidata": "Q668687", "ref": "8944700011"}, "type": "Feature"}
{"dataset_attributes": {"@spider": "usps_collection_boxes", "spider:collection_time": "2023-09-10T08:22:19.197986"}, "geometry": {"coordinates": [-119.163325, 38.97675], "type": "Point"}, "id": "y7AYLU3_f1AK7tLHnnvxA-XU2p0=", "properties": {"@spider": "usps_collection_boxes", "addr:city": "YERINGTON", "addr:country": "US", "addr:full": "811 S MAIN ST", "addr:postcode": "89447", "addr:state": "NV", "amenity": "post_box", "brand": "United States Postal Service", "brand:wikidata": "Q668687", "collection_times": "Mo-Fr 16:30; Sa 15:00", "name": "USPS COLLECTION BOX - PO LOBBY", "note": "ON 12/24 AND 12/31, THIS BOX MAY BE COLLECTED AS EARLY AS 12 NOON.", "nsi_id": "unitedstatespostalservice-a77078", "operator": "United States Postal Service", "operator:short": "USPS", "operator:type": "public", "operator:wikidata": "Q668687", "ref": "8944700012"}, "type": "Feature"}
{"dataset_attributes": {"@spider": "usps_collection_boxes", "spider:collection_time": "2023-09-10T08:22:19.197986"}, "geometry": {"coordinates": [-119.163325, 38.97675], "type": "Point"}, "id": "u0mgwk2r0zylJjjG-Nl77-HIXyk=", "properties": {"@spider": "usps_collection_boxes", "addr:city": "YERINGTON", "addr:country": "US", "addr:full": "811 S MAIN ST", "addr:postcode": "89447", "addr:state": "NV", "amenity": "post_box", "brand": "United States Postal Service", "brand:wikidata": "Q668687", "collection_times": "Mo-Fr 16:30; Sa 15:00", "name": "USPS COLLECTION BOX - BLUE BOX", "note": "ON 12/24 AND 12/31, THIS BOX MAY BE COLLECTED AS EARLY AS 12 NOON.", "nsi_id": "unitedstatespostalservice-a77078", "operator": "United States Postal Service", "operator:short": "USPS", "operator:type": "public", "operator:wikidata": "Q668687", "ref": "8944700013"}, "type": "Feature"}
{"dataset_attributes": {"@spider": "usps_collection_boxes", "spider:collection_time": "2023-09-10T08:22:19.197986"}, "geometry": {"coordinates": [-119.9432009831, 38.9859090135], "type": "Point"}, "id": "mmZ7qGq-lETD2A8dYdpHJ2Jhc1k=", "properties": {"@spider": "usps_collection_boxes", "addr:city": "ZEPHYR COVE", "addr:country": "US", "addr:full": "212 ELKS POINT RD", "addr:postcode": "89448", "addr:state": "NV", "amenity": "post_box", "brand": "United States Postal Service", "brand:wikidata": "Q668687", "collection_times": "Mo-Fr 16:45; Sa 13:00", "name": "USPS COLLECTION BOX - BLUE BOX", "note": "ON 12/24 AND 12/31, THIS BOX MAY BE COLLECTED AS EARLY AS 12 NOON.", "nsi_id": "unitedstatespostalservice-a77078", "operator": "United States Postal Service", "operator:short": "USPS", "operator:type": "public", "operator:wikidata": "Q668687", "ref": "8944800003"}, "type": "Feature"}
{"dataset_attributes": {"@spider": "usps_collection_boxes", "spider:collection_time": "2023-09-10T08:22:19.197986"}, "geometry": {"coordinates": [-119.9432009831, 38.9859090135], "type": "Point"}, "id": "uMq4I-Dr3jMxrUucys4Db6o9_uY=", "properties": {"@spider": "usps_collection_boxes", "addr:city": "ZEPHYR COVE", "addr:country": "US", "addr:full": "212 ELKS POINT RD", "addr:postcode": "89448", "addr:state": "NV", "amenity": "post_box", "brand": "United States Postal Service", "brand:wikidata": "Q668687", "collection_times": "Mo-Fr 16:45; Sa 13:00", "name": "USPS COLLECTION BOX - PO LOBBY", "note": "ON 12/24 AND 12/31, THIS BOX MAY BE COLLECTED AS EARLY AS 12 NOON.", "nsi_id": "unitedstatespostalservice-a77078", "operator": "United States Postal Service", "operator:short": "USPS", "operator:type": "public", "operator:wikidata": "Q668687", "ref": "8944800004"}, "type": "Feature"}
{"dataset_attributes": {"@spider": "usps_collection_boxes", "spider:collection_time": "2023-09-10T08:22:19.197986"}, "geometry": {"coordinates": [-119.9335919693, 38.9676010092], "type": "Point"}, "id": "OHiUlliWD5pYAgndNH2_JGzkMF0=", "properties": {"@spider": "usps_collection_boxes", "addr:city": "STATELINE", "addr:country": "US", "addr:full": "223 KINGSBURY GRADE", "addr:postcode": "89449", "addr:state": "NV", "amenity": "post_box", "brand": "United States Postal Service", "brand:wikidata": "Q668687", "collection_times": "Mo-Fr 16:45; Sa 13:30", "name": "USPS COLLECTION BOX - PO LOBBY", "note": "ON 12/24 AND 12/31, THIS BOX MAY BE COLLECTED AS EARLY AS 12 NOON.", "nsi_id": "unitedstatespostalservice-a77078", "operator": "United States Postal Service", "operator:short": "USPS", "operator:type": "public", "operator:wikidata": "Q668687", "ref": "8944900000"}, "type": "Feature"}
{"dataset_attributes": {"@spider": "usps_collection_boxes", "spider:collection_time": "2023-09-10T08:22:19.197986"}, "geometry": {"coordinates": [-119.9335919693, 38.9676010092], "type": "Point"}, "id": "7XSaZQNVOKudKFHYCxX_USf4rmU=", "properties": {"@spider": "usps_collection_boxes", "addr:city": "STATELINE", "addr:country": "US", "addr:full": "223 KINGSBURY GRADE", "addr:postcode": "89449", "addr:state": "NV", "amenity": "post_box", "brand": "United States Postal Service", "brand:wikidata": "Q668687", "collection_times": "Mo-Fr 16:45; Sa 13:30", "name": "USPS COLLECTION BOX - BLUE BOX", "note": "ON 12/24 AND 12/31, THIS BOX MAY BE COLLECTED AS EARLY AS 12 NOON.", "nsi_id": "unitedstatespostalservice-a77078", "operator": "United States Postal Service", "operator:short": "USPS", "operator:type": "public", "operator:wikidata": "Q668687", "ref": "8944900001"}, "type": "Feature"}
{"dataset_attributes": {"@spider": "usps_collection_boxes", "spider:collection_time": "2023-09-10T08:22:19.197986"}, "geometry": {"coordinates": [-119.950158, 39.250495], "type": "Point"}, "id": "MDVkjBPsN_SovsNYIgoFwPUQ4c8=", "properties": {"@spider": "usps_collection_boxes", "addr:city": "INCLINE VILLAGE", "addr:country": "US", "addr:full": "930 TAHOE BLVD", "addr:postcode": "89451", "addr:state": "NV", "amenity": "post_box", "brand": "United States Postal Service", "brand:wikidata": "Q668687", "collection_times": "Mo-Fr 11:00", "name": "USPS COLLECTION BOX - BLUE BOX", "nsi_id": "unitedstatespostalservice-a77078", "operator": "United States Postal Service", "operator:short": "USPS", "operator:type": "public", "operator:wikidata": "Q668687", "ref": "8945100000"}, "type": "Feature"}
{"dataset_attributes": {"@spider": "usps_collection_boxes", "spider:collection_time": "2023-09-10T08:22:19.197986"}, "geometry": {"coordinates": [-119.963269, 39.247068], "type": "Point"}, "id": "uthMIsWfwNlMtOUykK2x6gvUq6U=", "properties": {"@spider": "usps_collection_boxes", "addr:city": "INCLINE VILLAGE", "addr:country": "US", "addr:full": "770 MAYS BLVD", "addr:postcode": "89451", "addr:state": "NV", "amenity": "post_box", "brand": "United States Postal Service", "brand:wikidata": "Q668687", "collection_times": "Mo-Fr 16:00; Sa 11:15", "name": "USPS COLLECTION BOX - BLUE BOX", "note": "ON 12/24 AND 12/31, THIS BOX MAY BE COLLECTED AS EARLY AS 12 NOON.", "nsi_id": "unitedstatespostalservice-a77078", "operator": "United States Postal Service", "operator:short": "USPS", "operator:type": "public", "operator:wikidata": "Q668687", "ref": "8945100004"}, "type": "Feature"}
{"dataset_attributes": {"@spider": "usps_collection_boxes", "spider:collection_time": "2023-09-10T08:22:19.197986"}, "geometry": {"coordinates": [-119.963276, 39.247042], "type": "Point"}, "id": "b_WsdFwWuxGesdBQ_tXUm4Md-_A=", "properties": {"@spider": "usps_collection_boxes", "addr:city": "INCLINE VILLAGE", "addr:country": "US", "addr:full": "770 MAYS BLVD", "addr:postcode": "89451", "addr:state": "NV", "amenity": "post_box", "brand": "United States Postal Service", "brand:wikidata": "Q668687", "collection_times": "Mo-Fr 16:15; Sa 11:15", "name": "USPS COLLECTION BOX - PO LOBBY", "note": "ON 12/24 AND 12/31, THIS BOX MAY BE COLLECTED AS EARLY AS 12 NOON.", "nsi_id": "unitedstatespostalservice-a77078", "operator": "United States Postal Service", "operator:short": "USPS", "operator:type": "public", "operator:wikidata": "Q668687", "ref": "8945100005"}, "type": "Feature"}
{"dataset_attributes": {"@spider": "usps_collection_boxes", "spider:collection_time": "2023-09-10T08:22:19.197986"}, "geometry": {"coordinates": [-119.962824, 39.246948], "type": "Point"}, "id": "j4YuCBMeylO3Ut7zHB32uvI8qxo=", "properties": {"@spider": "usps_collection_boxes", "addr:city": "INCLINE VILLAGE", "addr:country": "US", "addr:full": "774 MAYS BLVD", "addr:postcode": "89452", "addr:state": "NV", "amenity": "post_box", "brand": "United States Postal Service", "brand:wikidata": "Q668687", "collection_times": "Mo-Fr 14:30; Sa 10:45", "name": "USPS COLLECTION BOX - BLUE BOX", "note": "ON 12/24 AND 12/31, THIS BOX MAY BE COLLECTED AS EARLY AS 12 NOON.", "nsi_id": "unitedstatespostalservice-a77078", "operator": "United States Postal Service", "operator:short": "USPS", "operator:type": "public", "operator:wikidata": "Q668687", "ref": "8945200003"}, "type": "Feature"}
{"dataset_attributes": {"@spider": "usps_collection_boxes", "spider:collection_time": "2023-09-10T08:22:19.197986"}, "geometry": {"coordinates": [-119.962824, 39.246948], "type": "Point"}, "id": "9R-VCkDiEVHYUcnzevL7Iex3Uzc=", "properties": {"@spider": "usps_collection_boxes", "addr:city": "INCLINE VILLAGE", "addr:country": "US", "addr:full": "774 MAYS BLVD", "addr:postcode": "89452", "addr:state": "NV", "amenity": "post_box", "brand": "United States Postal Service", "brand:wikidata": "Q668687", "collection_times": "Mo-Fr 14:30; Sa 10:45", "name": "USPS COLLECTION BOX - BLUE BOX", "note": "ON 12/24 AND 12/31, THIS BOX MAY BE COLLECTED AS EARLY AS 12 NOON.", "nsi_id": "unitedstatespostalservice-a77078", "operator": "United States Postal Service", "operator:short": "USPS", "operator:type": "public", "operator:wikidata": "Q668687", "ref": "8945200004"}, "type": "Feature"}
{"dataset_attributes": {"@spider": "usps_collection_boxes", "spider:collection_time": "2023-09-10T08:22:19.197986"}, "geometry": {"coordinates": [-119.744541, 38.895595], "type": "Point"}, "id": "1VqK_ZZDEXrkPB3jVtyOUEN2VsA=", "properties": {"@spider": "usps_collection_boxes", "addr:city": "GARDNERVILLE", "addr:country": "US", "addr:full": "1271 KIMMERLING RD", "addr:postcode": "89460", "addr:state": "NV", "amenity": "post_box", "brand": "United States Postal Service", "brand:wikidata": "Q668687", "collection_times": "Mo-Fr 16:00; Sa 15:00", "name": "USPS COLLECTION BOX - BLUE BOX", "note": "ON 12/24 AND 12/31, THIS BOX MAY BE COLLECTED AS EARLY AS 12 NOON.", "nsi_id": "unitedstatespostalservice-a77078", "operator": "United States Postal Service", "operator:short": "USPS", "operator:type": "public", "operator:wikidata": "Q668687", "ref": "8946000000"}, "type": "Feature"}
{"dataset_attributes": {"@spider": "usps_collection_boxes", "spider:collection_time": "2023-09-10T08:22:19.197986"}, "geometry": {"coordinates": [-119.744591, 38.895617], "type": "Point"}, "id": "zVOe0Cb1T2Qrj163aEFRg7sIuYU=", "properties": {"@spider": "usps_collection_boxes", "addr:city": "GARDNERVILLE", "addr:country": "US", "addr:full": "1271 KIMMERLING RD", "addr:postcode": "89460", "addr:state": "NV", "amenity": "post_box", "brand": "United States Postal Service", "brand:wikidata": "Q668687", "collection_times": "Mo-Fr 16:00; Sa 15:00", "name": "USPS COLLECTION BOX - BLUE BOX", "note": "ON 12/24 AND 12/31, THIS BOX MAY BE COLLECTED AS EARLY AS 12 NOON.", "nsi_id": "unitedstatespostalservice-a77078", "operator": "United States Postal Service", "operator:short": "USPS", "operator:type": "public", "operator:wikidata": "Q668687", "ref": "8946000001"}, "type": "Feature"}
{"dataset_attributes": {"@spider": "usps_collection_boxes", "spider:collection_time": "2023-09-10T08:22:19.197986"}, "geometry": {"coordinates": [-119.744591, 38.895617], "type": "Point"}, "id": "cajS-3y63OP_P324_YhO-aNyleU=", "properties": {"@spider": "usps_collection_boxes", "addr:city": "GARDNERVILLE", "addr:country": "US", "addr:full": "1271 KIMMERLING RD", "addr:postcode": "89460", "addr:state": "NV", "amenity": "post_box", "brand": "United States Postal Service", "brand:wikidata": "Q668687", "collection_times": "Mo-Fr 16:00; Sa 15:00", "name": "USPS COLLECTION BOX - EXPRESS", "note": "ON 12/24 AND 12/31, THIS BOX MAY BE COLLECTED AS EARLY AS 12 NOON.", "nsi_id": "unitedstatespostalservice-a77078", "operator": "United States Postal Service", "operator:short": "USPS", "operator:type": "public", "operator:wikidata": "Q668687", "ref": "8946000002"}, "type": "Feature"}
{"dataset_attributes": {"@spider": "usps_collection_boxes", "spider:collection_time": "2023-09-10T08:22:19.197986"}, "geometry": {"coordinates": [-119.744591, 38.895617], "type": "Point"}, "id": "VoG9GsfNQefkYTL1r7jCuaK8cMY=", "properties": {"@spider": "usps_collection_boxes", "addr:city": "GARDNERVILLE", "addr:country": "US", "addr:full": "1271 KIMMERLING RD", "addr:postcode": "89460", "addr:state": "NV", "amenity": "post_box", "brand": "United States Postal Service", "brand:wikidata": "Q668687", "collection_times": "Mo-Fr 16:00; Sa 15:00", "name": "USPS COLLECTION BOX - PO LOBBY", "note": "ON 12/24 AND 12/31, THIS BOX MAY BE COLLECTED AS EARLY AS 12 NOON.", "nsi_id": "unitedstatespostalservice-a77078", "operator": "United States Postal Service", "operator:short": "USPS", "operator:type": "public", "operator:wikidata": "Q668687", "ref": "8946000003"}, "type": "Feature"}
