{"dataset_attributes": {"@spider": "usps_collection_boxes", "spider:collection_time": "2023-09-10T08:22:19.197986"}, "geometry": {"coordinates": [-119.811416, 39.523326], "type": "Point"}, "id": "vPNy8WegVWmvk0sK7y-ur8-I5HY=", "properties": {"@spider": "usps_collection_boxes", "addr:city": "RENO", "addr:country": "US", "addr:full": "200 S VIRGINIA ST", "addr:postcode": "89501", "addr:state": "NV", "amenity": "post_box", "brand": "United States Postal Service", "brand:wikidata": "Q668687", "collection_times": "Mo-Fr 16:30", "name": "USPS COLLECTION BOX - BLUE BOX", "note": "ON 12/24 AND 12/31, THIS BOX MAY BE COLLECTED AS EARLY AS 12 NOON.", "nsi_id": "unitedstatespostalservice-a77078", "operator": "United States Postal Service", "operator:short": "USPS", "operator:type": "public", "operator:wikidata": "Q668687", "ref": "8950100008"}, "type": "Feature"}
{"dataset_attributes": {"@spider": "usps_collection_boxes", "spider:collection_time": "2023-09-10T08:22:19.197986"}, "geometry": {"coordinates": [-119.8131, 39.526909], "type": "Point"}, "id": "Rf7WRzwXgXsEe7IIQ3YaPlYeHRM=", "properties": {"@spider": "usps_collection_boxes", "addr:city": "RENO", "addr:country": "US", "addr:full": "210 N VIRGINIA ST", "addr:postcode": "89501", "addr:state": "NV", "amenity": "post_box", "brand": "United States Postal Service", "brand:wikidata": "Q668687", "collection_times": "Mo-Fr 14:45", "name": "USPS COLLECTION BOX - BLUE BOX", "note": "ON 12/24 AND 12/31, THIS BOX MAY BE COLLECTED AS EARLY AS 12 NOON.", "nsi_id": "unitedstatespostalservice-a77078", "operator": "United States Postal Service", "operator:short": "USPS", "operator:type": "public", "operator:wikidata": "Q668687", "ref": "8950100009"}, "type": "Feature"}
{"dataset_attributes": {"@spider": "usps_collection_boxes", "spider:collection_time": "2023-09-10T08:22:19.197986"}, "geometry": {"coordinates": [-119.808092, 39.522895], "type": "Point"}, "id": "B1NTKDv3WDWAMIWzokh3VMJNpZU=", "properties": {"@spider": "usps_collection_boxes", "addr:city": "RENO", "addr:country": "US", "addr:full": "245 E LIBERTY ST", "addr:postcode": "89501", "addr:state": "NV", "amenity": "post_box", "brand": "United States Postal Service", "brand:wikidata": "Q668687", "collection_times": "Mo-Fr 15:00", "name": "USPS COLLECTION BOX - BLUE BOX", "note": "ON 12/24 AND 12/31, THIS BOX MAY BE COLLECTED AS EARLY AS 12 NOON.", "nsi_id": "unitedstatespostalservice-a77078", "operator": "United States Postal Service", "operator:short": "USPS", "operator:type": "public", "operator:wikidata": "Q668687", "ref": "8950100011"}, "type": "Feature"}
{"dataset_attributes": {"@spider": "usps_collection_boxes", "spider:collection_time": "2023-09-10T08:22:19.197986"}, "geometry": {"coordinates": [-119.816551, 39.521742], "type": "Point"}, "id": "GN7_HzEPQkKTvHVtyof9Nnc6npU=", "properties": {"@spider": "usps_collection_boxes", "addr:city": "RENO", "addr:country": "US", "addr:full": "299 S ARLINGTON AVE", "addr:postcode": "89501", "addr:state": "NV", "amenity": "post_box", "brand": "United States Postal Service", "brand:wikidata": "Q668687", "collection_times": "Mo-Fr 16:00; Sa 15:00", "name": "USPS COLLECTION BOX - BLUE BOX", "note": "ON 12/24 AND 12/31, THIS BOX MAY BE COLLECTED AS EARLY AS 12 NOON.", "nsi_id": "unitedstatespostalservice-a77078", "operator": "United States Postal Service", "operator:short": "USPS", "operator:type": "public", "operator:wikidata": "Q668687", "ref": "8950100012"}, "type": "Feature"}
{"dataset_attributes": {"@spider": "usps_collection_boxes", "spider:collection_time": "2023-09-10T08:22:19.197986"}, "geometry": {"coordinates": [-119.815101, 39.521157], "type": "Point"}, "id": "We9VZkrVQsOeyNvnGVA8K1PX04I=", "properties": {"@spider": "usps_collection_boxes", "addr:city": "RENO", "addr:country": "US", "addr:full": "390 FLINT ST", "addr:postcode": "89501", "addr:state": "NV", "amenity": "post_box", "brand": "United States Postal Service", "brand:wikidata": "Q668687", "collection_times": "Mo-Fr 16:00; Sa 14:30", "name": "USPS COLLECTION BOX - BLUE BOX", "note": "ON 12/24 AND 12/31, THIS BOX MAY BE COLLECTED AS EARLY AS 12 NOON.", "nsi_id": "unitedstatespostalservice-a77078", "operator": "United States Postal Service", "operator:short": "USPS", "operator:type": "public", "operator:wikidata": "Q668687", "ref": "8950100016"}, "type": "Feature"}
{"dataset_attributes": {"@spider": "usps_collection_boxes", "spider:collection_time": "2023-09-10T08:22:19.197986"}, "geometry": {"coordinates": [-119.8128319624, 39.5273880053], "type": "Point"}, "id": "iPQDfZnJ_9rfnsgQtp6ULGwiKfY=", "properties": {"@spider": "usps_collection_boxes", "addr:city": "RENO", "addr:country": "US", "addr:full": "210 N VIRGINIA ST", "addr:postcode": "89501", "addr:state": "NV", "amenity": "post_box", "brand": "United States Postal Service", "brand:wikidata": "Q668687", "collection_times": "Mo-Fr 14:45", "name": "USPS COLLECTION BOX - BLUE BOX", "note": "ON 12/24 AND 12/31, THIS BOX MAY BE COLLECTED AS EARLY AS 12 NOON.", "nsi_id": "unitedstatespostalservice-a77078", "operator": "United States Postal Service", "operator:short": "USPS", "operator:type": "public", "operator:wikidata": "Q668687", "ref": "8950100032"}, "type": "Feature"}
{"dataset_attributes": {"@spider": "usps_collection_boxes", "spider:collection_time": "2023-09-10T08:22:19.197986"}, "geometry": {"coordinates": [-119.816561, 39.521753], "type": "Point"}, "id": "4WcAih1wvpNGd0tX6fUNEz75A8g=", "properties": {"@spider": "usps_collection_boxes", "addr:city": "RENO", "addr:country": "US", "addr:full": "299 S ARLINGTON AVE", "addr:postcode": "89501", "addr:state": "NV", "amenity": "post_box", "brand": "United States Postal Service", "brand:wikidata": "Q668687", "collection_times": "Mo-Fr 16:00; Sa 15:00", "name": "USPS COLLECTION BOX - BLUE BOX", "note": "ON 12/24 AND 12/31, THIS BOX MAY BE COLLECTED AS EARLY AS 12 NOON.", "nsi_id": "unitedstatespostalservice-a77078", "operator": "United States Postal Service", "operator:short": "USPS", "operator:type": "public", "operator:wikidata": "Q668687", "ref": "8950100034"}, "type": "Feature"}
{"dataset_attributes": {"@spider": "usps_collection_boxes", "spider:collection_time": "2023-09-10T08:22:19.197986"}, "geometry": {"coordinates": [-119.809974, 39.522668], "type": "Point"}, "id": "tZu7Kmd_Pxboi2ASzOzjdkCbq6w=", "properties": {"@spider": "usps_collection_boxes", "addr:city": "RENO", "addr:country": "US", "addr:full": "350 S CENTER ST", "addr:postcode": "89501", "addr:state": "NV", "amenity": "post_box", "brand": "United States Postal Service", "brand:wikidata": "Q668687", "collection_times": "Mo-Fr 15:30", "name": "USPS COLLECTION BOX - BLUE BOX", "note": "ON 12/24 AND 12/31, THIS BOX MAY BE COLLECTED AS EARLY AS 12 NOON.", "nsi_id": "unitedstatespostalservice-a77078", "operator": "United States Postal Service", "operator:short": "USPS", "operator:type": "public", "operator:wikidata": "Q668687", "ref": "8950100038"}, "type": "Feature"}
{"dataset_attributes": {"@spider": "usps_collection_boxes", "spider:collection_time": "2023-09-10T08:22:19.197986"}, "geometry": {"coordinates": [-119.815104, 39.521179], "type": "Point"}, "id": "rnhMJR981BYQzFoOFGl3xGejUcA=", "properties": {"@spider": "usps_collection_boxes", "addr:city": "RENO", "addr:country": "US", "addr:full": "390 FLINT ST", "addr:postcode": "89501", "addr:state": "NV", "amenity": "post_box", "brand": "United States Postal Service", "brand:wikidata": "Q668687", "collection_times": "Mo-Fr 16:00; Sa 14:30", "name": "USPS COLLECTION BOX - BLUE BOX", "note": "ON 12/24 AND 12/31, THIS BOX MAY BE COLLECTED AS EARLY AS 12 NOON.", "nsi_id": "unitedstatespostalservice-a77078", "operator": "United States Postal Service", "operator:short": "USPS", "operator:type": "public", "operator:wikidata": "Q668687", "ref": "8950100040"}, "type": "Feature"}
{"dataset_attributes": {"@spider": "usps_collection_boxes", "spider:collection_time": "2023-09-10T08:22:19.197986"}, "geometry": {"coordinates": [-119.815102, 39.521173], "type": "Point"}, "id": "lagolLMLE44oC7gZUBjcgq-_aY0=", "properties": {"@spider": "usps_collection_boxes", "addr:city": "RENO", "addr:country": "US", "addr:full": "390 FLINT ST", "addr:postcode": "89501", "addr:state": "NV", "amenity": "post_box", "brand": "United States Postal Service", "brand:wikidata": "Q668687", "collection_times": "Mo-Fr 16:00; Sa 14:30", "name": "USPS COLLECTION BOX - BLUE BOX", "note": "ON 12/24 AND 12/31, THIS BOX MAY BE COLLECTED AS EARLY AS 12 NOON.", "nsi_id": "unitedstatespostalservice-a77078", "operator": "United States Postal Service", "operator:short": "USPS", "operator:type": "public", "operator:wikidata": "Q668687", "ref": "8950100041"}, "type": "Feature"}
{"dataset_attributes": {"@spider": "usps_collection_boxes", "spider:collection_time": "2023-09-10T08:22:19.197986"}, "geometry": {"coordinates": [-119.8143750986, 39.525845763], "type": "Point"}, "id": "CMmW8Kd7cK0jbIyAWCEs6p-rNN0=", "properties": {"@spider": "usps_collection_boxes", "addr:city": "RENO", "addr:country": "US", "addr:full": "135 N SIERRA ST STE A1", "addr:postcode": "89501", "addr:state": "NV", "amenity": "post_box", "brand": "United States Postal Service", "brand:wikidata": "Q668687", "collection_times": "Mo-Fr 17:00; Sa 12:00", "name": "USPS COLLECTION BOX - PO LOBBY", "note": "ON 12/24 AND 12/31, THIS BOX MAY BE COLLECTED AS EARLY AS 12 NOON.", "nsi_id": "unitedstatespostalservice-a77078", "operator": "United States Postal Service", "operator:short": "USPS", "operator:type": "public", "operator:wikidata": "Q668687", "ref": "8950100047"}, "type": "Feature"}
{"dataset_attributes": {"@spider": "usps_collection_boxes", "spider:collection_time": "2023-09-10T08:22:19.197986"}, "geometry": {"coordinates": [-119.808269, 39.519346], "type": "Point"}, "id": "Agv4zb0mlRSxVmT1PhPdGWZqAto=", "properties": {"@spider": "usps_collection_boxes", "addr:city": "RENO", "addr:country": "US", "addr:full": "646 S CENTER ST", "addr:postcode": "89501", "addr:state": "NV", "amenity": "post_box", "brand": "United States Postal Service", "brand:wikidata": "Q668687", "collection_times": "Mo-Fr 15:30", "name": "USPS COLLECTION BOX - BLUE BOX", "note": "ON 12/24 AND 12/31, THIS BOX MAY BE COLLECTED AS EARLY AS 12 NOON.", "nsi_id": "unitedstatespostalservice-a77078", "operator": "United States Postal Service", "operator:short": "USPS", "operator:type": "public", "operator:wikidata": "Q668687", "ref": "8950100050"}, "type": "Feature"}
{"dataset_attributes": {"@spider": "usps_collection_boxes", "spider:collection_time": "2023-09-10T08:22:19.197986"}, "geometry": {"coordinates": [-119.81071, 39.523883], "type": "Point"}, "id": "4-PR_1oGH3EX7fs3vjlb2jBmgCk=", "properties": {"@spider": "usps_collection_boxes", "addr:city": "RENO", "addr:country": "US", "addr:full": "131 S CENTER ST", "addr:postcode": "89501", "addr:state": "NV", "amenity": "post_box", "brand": "United States Postal Service", "brand:wikidata": "Q668687", "collection_times": "Mo-Fr 16:30; Sa 14:30", "name": "USPS COLLECTION BOX - BLUE BOX", "note": "ON 12/24 AND 12/31, THIS BOX MAY BE COLLECTED AS EARLY AS 12 NOON.", "nsi_id": "unitedstatespostalservice-a77078", "operator": "United States Postal Service", "operator:short": "USPS", "operator:type": "public", "operator:wikidata": "Q668687", "ref": "8950100051"}, "type": "Feature"}
{"dataset_attributes": {"@spider": "usps_collection_boxes", "spider:collection_time": "2023-09-10T08:22:19.197986"}, "geometry": {"coordinates": [-119.810636, 39.52388], "type": "Point"}, "id": "ZkAWxA7PQgU_ujONCaWmZPiFsvM=", "properties": {"@spider": "usps_collection_boxes", "addr:city": "RENO", "addr:country": "US", "addr:full": "131 S CENTER ST", "addr:postcode": "89501", "addr:state": "NV", "amenity": "post_box", "brand": "United States Postal Service", "brand:wikidata": "Q668687", "collection_times": "Mo-Fr 16:30; Sa 14:30", "name": "USPS COLLECTION BOX - BLUE BOX", "note": "ON 12/24 AND 12/31, THIS BOX MAY BE COLLECTED AS EARLY AS 12 NOON.", "nsi_id": "unitedstatespostalservice-a77078", "operator": "United States Postal Service", "operator:short": "USPS", "operator:type": "public", "operator:wikidata": "Q668687", "ref": "8950100053"}, "type": "Feature"}
{"dataset_attributes": {"@spider": "usps_collection_boxes", "spider:collection_time": "2023-09-10T08:22:19.197986"}, "geometry": {"coordinates": [-119.808589, 39.522], "type": "Point"}, "id": "m0fOyDiH86ZrwN2JKbSw9AGduVg=", "properties": {"@spider": "usps_collection_boxes", "addr:city": "RENO", "addr:country": "US", "addr:full": "451 S SINCLAIR ST", "addr:postcode": "89501", "addr:state": "NV", "amenity": "post_box", "brand": "United States Postal Service", "brand:wikidata": "Q668687", "collection_times": "Mo-Fr 15:30", "name": "USPS COLLECTION BOX - BLUE BOX", "note": "ON 12/24 AND 12/31, THIS BOX MAY BE COLLECTED AS EARLY AS 12 NOON.", "nsi_id": "unitedstatespostalservice-a77078", "operator": "United States Postal Service", "operator:short": "USPS", "operator:type": "public", "operator:wikidata": "Q668687", "ref": "8950100096"}, "type": "Feature"}
{"dataset_attributes": {"@spider": "usps_collection_boxes", "spider:collection_time": "2023-09-10T08:22:19.197986"}, "geometry": {"coordinates": [-119.815099, 39.521171], "type": "Point"}, "id": "v7VNmK7cg_FMPgT_fxjoMk26m0o=", "properties": {"@spider": "usps_collection_boxes", "addr:city": "RENO", "addr:country": "US", "addr:full": "390 FLINT ST", "addr:postcode": "89501", "addr:state": "NV", "amenity": "post_box", "brand": "United States Postal Service", "brand:wikidata": "Q668687", "collection_times": "Mo-Fr 16:00; Sa 14:30", "name": "USPS COLLECTION BOX - BLUE BOX", "note": "ON 12/24 AND 12/31, THIS BOX MAY BE COLLECTED AS EARLY AS 12 NOON.", "nsi_id": "unitedstatespostalservice-a77078", "operator": "United States Postal Service", "operator:short": "USPS", "operator:type": "public", "operator:wikidata": "Q668687", "ref": "8950100101"}, "type": "Feature"}
{"dataset_attributes": {"@spider": "usps_collection_boxes", "spider:collection_time": "2023-09-10T08:22:19.197986"}, "geometry": {"coordinates": [-119.817021, 39.52532], "type": "Point"}, "id": "M3e6dlrbikN-ZNKZuW0y1AneTuk=", "properties": {"@spider": "usps_collection_boxes", "addr:city": "RENO", "addr:country": "US", "addr:full": "100 N ARLINGTON AVE", "addr:postcode": "89501", "addr:state": "NV", "amenity": "post_box", "brand": "United States Postal Service", "brand:wikidata": "Q668687", "collection_times": "Mo-Sa 14:45", "name": "USPS COLLECTION BOX - BLUE BOX", "note": "ON 12/24 AND 12/31, THIS BOX MAY BE COLLECTED AS EARLY AS 12 NOON.", "nsi_id": "unitedstatespostalservice-a77078", "operator": "United States Postal Service", "operator:short": "USPS", "operator:type": "public", "operator:wikidata": "Q668687", "ref": "8950100102"}, "type": "Feature"}
{"dataset_attributes": {"@spider": "usps_collection_boxes", "spider:collection_time": "2023-09-10T08:22:19.197986"}, "geometry": {"coordinates": [-119.817001, 39.525328], "type": "Point"}, "id": "2Pun8Q5KrHzGd7hQohlNiwjDd7I=", "properties": {"@spider": "usps_collection_boxes", "addr:city": "RENO", "addr:country": "US", "addr:full": "100 N ARLINGTON AVE", "addr:postcode": "89501", "addr:state": "NV", "amenity": "post_box", "brand": "United States Postal Service", "brand:wikidata": "Q668687", "collection_times": "Mo-Sa 14:45", "name": "USPS COLLECTION BOX - EXPRESS", "note": "ON 12/24 AND 12/31, THIS BOX MAY BE COLLECTED AS EARLY AS 12 NOON.", "nsi_id": "unitedstatespostalservice-a77078", "operator": "United States Postal Service", "operator:short": "USPS", "operator:type": "public", "operator:wikidata": "Q668687", "ref": "8950100103"}, "type": "Feature"}
{"dataset_attributes": {"@spider": "usps_collection_boxes", "spider:collection_time": "2023-09-10T08:22:19.197986"}, "geometry": {"coordinates": [-119.814375015, 39.525845679], "type": "Point"}, "id": "T1cFFaPIEesuGNVXA97ypNJwRPA=", "properties": {"@spider": "usps_collection_boxes", "addr:city": "RENO", "addr:country": "US", "addr:full": "135 N SIERRA ST STE A1", "addr:postcode": "89501", "addr:state": "NV", "amenity": "post_box", "brand": "United States Postal Service", "brand:wikidata": "Q668687", "collection_times": "Mo-Fr 17:00", "name": "USPS COLLECTION BOX - PO LOBBY", "note": "ON 12/24 AND 12/31, THIS BOX MAY BE COLLECTED AS EARLY AS 12 NOON.", "nsi_id": "unitedstatespostalservice-a77078", "operator": "United States Postal Service", "operator:short": "USPS", "operator:type": "public", "operator:wikidata": "Q668687", "ref": "8950100114"}, "type": "Feature"}
{"dataset_attributes": {"@spider": "usps_collection_boxes", "spider:collection_time": "2023-09-10T08:22:19.197986"}, "geometry": {"coordinates": [-119.777865, 39.515812], "type": "Point"}, "id": "dC2AWX-8PRLvxa9e0WClGxrx-Pc=", "properties": {"@spider": "usps_collection_boxes", "addr:city": "RENO", "addr:country": "US", "addr:full": "1005 TERMINAL WAY", "addr:postcode": "89502", "addr:state": "NV", "amenity": "post_box", "brand": "United States Postal Service", "brand:wikidata": "Q668687", "collection_times": "Mo-Fr 14:15", "name": "USPS COLLECTION BOX - BLUE BOX", "note": "ON 12/24 AND 12/31, THIS BOX MAY BE COLLECTED AS EARLY AS 12 NOON.", "nsi_id": "unitedstatespostalservice-a77078", "operator": "United States Postal Service", "operator:short": "USPS", "operator:type": "public", "operator:wikidata": "Q668687", "ref": "8950200002"}, "type": "Feature"}
{"dataset_attributes": {"@spider": "usps_collection_boxes", "spider:collection_time": "2023-09-10T08:22:19.197986"}, "geometry": {"coordinates": [-119.7791849914, 39.5115180032], "type": "Point"}, "id": "EulsLuY-XB3ttexi-5eBKwBwyhg=", "properties": {"@spider": "usps_collection_boxes", "addr:city": "RENO", "addr:country": "US", "addr:full": "1325 AIRMOTIVE WAY", "addr:postcode": "89502", "addr:state": "NV", "amenity": "post_box", "brand": "United States Postal Service", "brand:wikidata": "Q668687", "collection_times": "Mo-Fr 14:30", "name": "USPS COLLECTION BOX - BLUE BOX", "note": "ON 12/24 AND 12/31, THIS BOX MAY BE COLLECTED AS EARLY AS 12 NOON.", "nsi_id": "unitedstatespostalservice-a77078", "operator": "United States Postal Service", "operator:short": "USPS", "operator:type": "public", "operator:wikidata": "Q668687", "ref": "8950200004"}, "type": "Feature"}
{"dataset_attributes": {"@spider": "usps_collection_boxes", "spider:collection_time": "2023-09-10T08:22:19.197986"}, "geometry": {"coordinates": [-119.776275, 39.469609453], "type": "Point"}, "id": "ef3S5TIkt2-jnNkRxV1zAEAowFI=", "properties": {"@spider": "usps_collection_boxes", "addr:city": "RENO", "addr:country": "US", "addr:full": "1575 DELUCCHI LN", "addr:postcode": "89502", "addr:state": "NV", "amenity": "post_box", "brand": "United States Postal Service", "brand:wikidata": "Q668687", "collection_times": "Mo-Fr 16:15; Sa 13:15", "name": "USPS COLLECTION BOX - BLUE BOX", "note": "ON 12/24 AND 12/31, THIS BOX MAY BE COLLECTED AS EARLY AS 12 NOON.", "nsi_id": "unitedstatespostalservice-a77078", "operator": "United States Postal Service", "operator:short": "USPS", "operator:type": "public", "operator:wikidata": "Q668687", "ref": "8950200006"}, "type": "Feature"}
{"dataset_attributes": {"@spider": "usps_collection_boxes", "spider:collection_time": "2023-09-10T08:22:19.197986"}, "geometry": {"coordinates": [-119.793605, 39.492468], "type": "Point"}, "id": "nBGN8uZIFJaN2UPu8qvAuuMC6og=", "properties": {"@spider": "usps_collection_boxes", "addr:city": "RENO", "addr:country": "US", "addr:full": "199 E MOANA LN", "addr:postcode": "89502", "addr:state": "NV", "amenity": "post_box", "brand": "United States Postal Service", "brand:wikidata": "Q668687", "collection_times": "Mo-Fr 14:45; Sa 12:15", "name": "USPS COLLECTION BOX - BLUE BOX", "note": "ON 12/24 AND 12/31, THIS BOX MAY BE COLLECTED AS EARLY AS 12 NOON.", "nsi_id": "unitedstatespostalservice-a77078", "operator": "United States Postal Service", "operator:short": "USPS", "operator:type": "public", "operator:wikidata": "Q668687", "ref": "8950200009"}, "type": "Feature"}
{"dataset_attributes": {"@spider": "usps_collection_boxes", "spider:collection_time": "2023-09-10T08:22:19.197986"}, "geometry": {"coordinates": [-119.788246, 39.482656], "type": "Point"}, "id": "Ec6yIAw-U2wPEYh-K2zBd4zVLLE=", "properties": {"@spider": "usps_collection_boxes", "addr:city": "RENO", "addr:country": "US", "addr:full": "4600 KIETZKE LN", "addr:postcode": "89502", "addr:state": "NV", "amenity": "post_box", "brand": "United States Postal Service", "brand:wikidata": "Q668687", "collection_times": "Mo-Fr 17:15", "name": "USPS COLLECTION BOX - BLUE BOX", "note": "ON 12/24 AND 12/31, THIS BOX MAY BE COLLECTED AS EARLY AS 12 NOON.", "nsi_id": "unitedstatespostalservice-a77078", "operator": "United States Postal Service", "operator:short": "USPS", "operator:type": "public", "operator:wikidata": "Q668687", "ref": "8950200017"}, "type": "Feature"}
{"dataset_attributes": {"@spider": "usps_collection_boxes", "spider:collection_time": "2023-09-10T08:22:19.197986"}, "geometry": {"coordinates": [-119.783344, 39.474918], "type": "Point"}, "id": "zBNJ0pZn8LwwfHbHGhVElld50hM=", "properties": {"@spider": "usps_collection_boxes", "addr:city": "RENO", "addr:country": "US", "addr:full": "5100 MEADOWOOD MALL CIR", "addr:postcode": "89502", "addr:state": "NV", "amenity": "post_box", "brand": "United States Postal Service", "brand:wikidata": "Q668687", "collection_times": "Mo-Fr 16:15; Sa 13:30", "name": "USPS COLLECTION BOX - BLUE BOX", "note": "ON 12/24 AND 12/31, THIS BOX MAY BE COLLECTED AS EARLY AS 12 NOON.", "nsi_id": "unitedstatespostalservice-a77078", "operator": "United States Postal Service", "operator:short": "USPS", "operator:type": "public", "operator:wikidata": "Q668687", "ref": "8950200019"}, "type": "Feature"}
{"dataset_attributes": {"@spider": "usps_collection_boxes", "spider:collection_time": "2023-09-10T08:22:19.197986"}, "geometry": {"coordinates": [-119.77939277, 39.475606186], "type": "Point"}, "id": "hJTB2OkWq-6b7Z4jy3ASDm1Ht9U=", "properties": {"@spider": "usps_collection_boxes", "addr:city": "RENO", "addr:country": "US", "addr:full": "5190 NEIL RD", "addr:postcode": "89502", "addr:state": "NV", "amenity": "post_box", "brand": "United States Postal Service", "brand:wikidata": "Q668687", "collection_times": "Mo-Fr 16:45; Sa 13:45", "name": "USPS COLLECTION BOX - BLUE BOX", "note": "ON 12/24 AND 12/31, THIS BOX MAY BE COLLECTED AS EARLY AS 12 NOON.", "nsi_id": "unitedstatespostalservice-a77078", "operator": "United States Postal Service", "operator:short": "USPS", "operator:type": "public", "operator:wikidata": "Q668687", "ref": "8950200020"}, "type": "Feature"}
{"dataset_attributes": {"@spider": "usps_collection_boxes", "spider:collection_time": "2023-09-10T08:22:19.197986"}, "geometry": {"coordinates": [-119.783063, 39.472645], "type": "Point"}, "id": "dESIQol3-qzD3zEx7bFoXikZ6Vk=", "properties": {"@spider": "usps_collection_boxes", "addr:city": "RENO", "addr:country": "US", "addr:full": "5200 MEADOWOOD MALL CIR", "addr:postcode": "89502", "addr:state": "NV", "amenity": "post_box", "brand": "United States Postal Service", "brand:wikidata": "Q668687", "collection_times": "Mo-Fr 16:15; Sa 13:30", "name": "USPS COLLECTION BOX - BLUE BOX", "note": "ON 12/24 AND 12/31, THIS BOX MAY BE COLLECTED AS EARLY AS 12 NOON.", "nsi_id": "unitedstatespostalservice-a77078", "operator": "United States Postal Service", "operator:short": "USPS", "operator:type": "public", "operator:wikidata": "Q668687", "ref": "8950200021"}, "type": "Feature"}
{"dataset_attributes": {"@spider": "usps_collection_boxes", "spider:collection_time": "2023-09-10T08:22:19.197986"}, "geometry": {"coordinates": [-119.778351, 39.474056], "type": "Point"}, "id": "HUMZFT6dXYZTv2F8KcNtqDZ-RKM=", "properties": {"@spider": "usps_collection_boxes", "addr:city": "RENO", "addr:country": "US", "addr:full": "5250 NEIL RD", "addr:postcode": "89502", "addr:state": "NV", "amenity": "post_box", "brand": "United States Postal Service", "brand:wikidata": "Q668687", "collection_times": "Mo-Fr 16:30; Sa 13:45", "name": "USPS COLLECTION BOX - BLUE BOX", "note": "ON 12/24 AND 12/31, THIS BOX MAY BE COLLECTED AS EARLY AS 12 NOON.", "nsi_id": "unitedstatespostalservice-a77078", "operator": "United States Postal Service", "operator:short": "USPS", "operator:type": "public", "operator:wikidata": "Q668687", "ref": "8950200022"}, "type": "Feature"}
{"dataset_attributes": {"@spider": "usps_collection_boxes", "spider:collection_time": "2023-09-10T08:22:19.197986"}, "geometry": {"coordinates": [-119.7988548893, 39.5255404774], "type": "Point"}, "id": "R10QY8MjombTsWGPW6UuJpBDdzE=", "properties": {"@spider": "usps_collection_boxes", "addr:city": "RENO", "addr:country": "US", "addr:full": "890 MILL ST", "addr:postcode": "89502", "addr:state": "NV", "amenity": "post_box", "brand": "United States Postal Service", "brand:wikidata": "Q668687", "collection_times": "Mo-Fr 14:00; Sa 14:45", "name": "USPS COLLECTION BOX - BLUE BOX", "note": "ON 12/24 AND 12/31, THIS BOX MAY BE COLLECTED AS EARLY AS 12 NOON.", "nsi_id": "unitedstatespostalservice-a77078", "operator": "United States Postal Service", "operator:short": "USPS", "operator:type": "public", "operator:wikidata": "Q668687", "ref": "8950200028"}, "type": "Feature"}
{"dataset_attributes": {"@spider": "usps_collection_boxes", "spider:collection_time": "2023-09-10T08:22:19.197986"}, "geometry": {"coordinates": [-119.787623, 39.469941], "type": "Point"}, "id": "ZlqkoeAMcpLpaUeq4y15ANnw8cg=", "properties": {"@spider": "usps_collection_boxes", "addr:city": "RENO", "addr:country": "US", "addr:full": "6015 S VIRGINIA ST", "addr:postcode": "89502", "addr:state": "NV", "amenity": "post_box", "brand": "United States Postal Service", "brand:wikidata": "Q668687", "collection_times": "Mo-Fr 14:45; Sa 12:45", "name": "USPS COLLECTION BOX - BLUE BOX", "note": "ON 12/24 AND 12/31, THIS BOX MAY BE COLLECTED AS EARLY AS 12 NOON.", "nsi_id": "unitedstatespostalservice-a77078", "operator": "United States Postal Service", "operator:short": "USPS", "operator:type": "public", "operator:wikidata": "Q668687", "ref": "8950200040"}, "type": "Feature"}
{"dataset_attributes": {"@spider": "usps_collection_boxes", "spider:collection_time": "2023-09-10T08:22:19.197986"}, "geometry": {"coordinates": [-119.781044, 39.477642], "type": "Point"}, "id": "r2x_lWZvlRZDtsH8NDTPcbbwts4=", "properties": {"@spider": "usps_collection_boxes", "addr:city": "RENO", "addr:country": "US", "addr:full": "5090 NEIL RD", "addr:postcode": "89502", "addr:state": "NV", "amenity": "post_box", "brand": "United States Postal Service", "brand:wikidata": "Q668687", "collection_times": "Mo-Sa 09:30", "name": "USPS COLLECTION BOX - BLUE BOX", "nsi_id": "unitedstatespostalservice-a77078", "operator": "United States Postal Service", "operator:short": "USPS", "operator:type": "public", "operator:wikidata": "Q668687", "ref": "8950200043"}, "type": "Feature"}
{"dataset_attributes": {"@spider": "usps_collection_boxes", "spider:collection_time": "2023-09-10T08:22:19.197986"}, "geometry": {"coordinates": [-119.7544015918, 39.4781086409], "type": "Point"}, "id": "a8LLJ3yAd1VKBM7UM8-A6BZLQKg=", "properties": {"@spider": "usps_collection_boxes", "addr:city": "RENO", "addr:country": "US", "addr:full": "4300 RIO POCO RD", "addr:postcode": "89502", "addr:state": "NV", "amenity": "post_box", "brand": "United States Postal Service", "brand:wikidata": "Q668687", "collection_times": "Mo-Sa 10:30", "name": "USPS COLLECTION BOX - BLUE BOX", "nsi_id": "unitedstatespostalservice-a77078", "operator": "United States Postal Service", "operator:short": "USPS", "operator:type": "public", "operator:wikidata": "Q668687", "ref": "8950200045"}, "type": "Feature"}
{"dataset_attributes": {"@spider": "usps_collection_boxes", "spider:collection_time": "2023-09-10T08:22:19.197986"}, "geometry": {"coordinates": [-119.7477323737, 39.4860604846], "type": "Point"}, "id": "PxoqCQvXq7NWcL4U9kYPL83Ynqg=", "properties": {"@spider": "usps_collection_boxes", "addr:city": "RENO", "addr:country": "US", "addr:full": "4500 MIRA LOMA DR", "addr:postcode": "89502", "addr:state": "NV", "amenity": "post_box", "brand": "United States Postal Service", "brand:wikidata": "Q668687", "collection_times": "Mo-Fr 16:00; Sa 13:30", "name": "USPS COLLECTION BOX - BLUE BOX", "note": "ON 12/24 AND 12/31, THIS BOX MAY BE COLLECTED AS EARLY AS 12 NOON.", "nsi_id": "unitedstatespostalservice-a77078", "operator": "United States Postal Service", "operator:short": "USPS", "operator:type": "public", "operator:wikidata": "Q668687", "ref": "8950200046"}, "type": "Feature"}
{"dataset_attributes": {"@spider": "usps_collection_boxes", "spider:collection_time": "2023-09-10T08:22:19.197986"}, "geometry": {"coordinates": [-119.752851861, 39.486063519], "type": "Point"}, "id": "66Uxz98kT6K1yxA33oUi_GSi_cY=", "properties": {"@spider": "usps_collection_boxes", "addr:city": "RENO", "addr:country": "US", "addr:full": "4245 MIRA LOMA DR", "addr:postcode": "89502", "addr:state": "NV", "amenity": "post_box", "brand": "United States Postal Service", "brand:wikidata": "Q668687", "collection_times": "Mo-Fr 16:00; Sa 13:30", "name": "USPS COLLECTION BOX - BLUE BOX", "note": "ON 12/24 AND 12/31, THIS BOX MAY BE COLLECTED AS EARLY AS 12 NOON.", "nsi_id": "unitedstatespostalservice-a77078", "operator": "United States Postal Service", "operator:short": "USPS", "operator:type": "public", "operator:wikidata": "Q668687", "ref": "8950200047"}, "type": "Feature"}
{"dataset_attributes": {"@spider": "usps_collection_boxes", "spider:collection_time": "2023-09-10T08:22:19.197986"}, "geometry": {"coordinates": [-119.800267, 39.515561], "type": "Point"}, "id": "wwM9FrBnBgDwht5N1wmQ62nMCkM=", "properties": {"@spider": "usps_collection_boxes", "addr:city": "RENO", "addr:country": "US", "addr:full": "615 BURNS ST", "addr:postcode": "89502", "addr:state": "NV", "amenity": "post_box", "brand": "United States Postal Service", "brand:wikidata": "Q668687", "collection_times": "Mo-Sa 11:00", "name": "USPS COLLECTION BOX - BLUE BOX", "nsi_id": "unitedstatespostalservice-a77078", "operator": "United States Postal Service", "operator:short": "USPS", "operator:type": "public", "operator:wikidata": "Q668687", "ref": "8950200048"}, "type": "Feature"}
{"dataset_attributes": {"@spider": "usps_collection_boxes", "spider:collection_time": "2023-09-10T08:22:19.197986"}, "geometry": {"coordinates": [-119.778898, 39.51126], "type": "Point"}, "id": "sdNTMn-EPZwmHoPE1_sfi7X7emw=", "properties": {"@spider": "usps_collection_boxes", "addr:city": "RENO", "addr:country": "US", "addr:full": "1325 AIRMOTIVE WAY", "addr:postcode": "89502", "addr:state": "NV", "amenity": "post_box", "brand": "United States Postal Service", "brand:wikidata": "Q668687", "collection_times": "Mo-Fr 14:30", "name": "USPS COLLECTION BOX - BLUE BOX", "note": "ON 12/24 AND 12/31, THIS BOX MAY BE COLLECTED AS EARLY AS 12 NOON.", "nsi_id": "unitedstatespostalservice-a77078", "operator": "United States Postal Service", "operator:short": "USPS", "operator:type": "public", "operator:wikidata": "Q668687", "ref": "8950200051"}, "type": "Feature"}
{"dataset_attributes": {"@spider": "usps_collection_boxes", "spider:collection_time": "2023-09-10T08:22:19.197986"}, "geometry": {"coordinates": [-119.778899, 39.511272], "type": "Point"}, "id": "ZqOCvFD8QHBv2T-yMYLVRn-Rroo=", "properties": {"@spider": "usps_collection_boxes", "addr:city": "RENO", "addr:country": "US", "addr:full": "1325 AIRMOTIVE WAY", "addr:postcode": "89502", "addr:state": "NV", "amenity": "post_box", "brand": "United States Postal Service", "brand:wikidata": "Q668687", "collection_times": "Mo-Fr 14:30", "name": "USPS COLLECTION BOX - BLUE BOX", "note": "ON 12/24 AND 12/31, THIS BOX MAY BE COLLECTED AS EARLY AS 12 NOON.", "nsi_id": "unitedstatespostalservice-a77078", "operator": "United States Postal Service", "operator:short": "USPS", "operator:type": "public", "operator:wikidata": "Q668687", "ref": "8950200052"}, "type": "Feature"}
{"dataset_attributes": {"@spider": "usps_collection_boxes", "spider:collection_time": "2023-09-10T08:22:19.197986"}, "geometry": {"coordinates": [-119.775681, 39.50605], "type": "Point"}, "id": "cWw5CJwFOOPMTzEkHM-lmvXP8nI=", "properties": {"@spider": "usps_collection_boxes", "addr:city": "RENO", "addr:country": "US", "addr:full": "2001 E PLUMB LN", "addr:postcode": "89502", "addr:state": "NV", "amenity": "post_box", "brand": "United States Postal Service", "brand:wikidata": "Q668687", "collection_times": "Mo-Fr 14:00; Sa 15:15", "name": "USPS COLLECTION BOX - BLUE BOX", "note": "ON 12/24 AND 12/31, THIS BOX MAY BE COLLECTED AS EARLY AS 12 NOON.", "nsi_id": "unitedstatespostalservice-a77078", "operator": "United States Postal Service", "operator:short": "USPS", "operator:type": "public", "operator:wikidata": "Q668687", "ref": "8950200053"}, "type": "Feature"}
{"dataset_attributes": {"@spider": "usps_collection_boxes", "spider:collection_time": "2023-09-10T08:22:19.197986"}, "geometry": {"coordinates": [-119.779432, 39.506759], "type": "Point"}, "id": "oLkkrrheZX6V2EFhLsHWdsWBK-8=", "properties": {"@spider": "usps_collection_boxes", "addr:city": "RENO", "addr:country": "US", "addr:full": "1755 E PLUMB LN", "addr:postcode": "89502", "addr:state": "NV", "amenity": "post_box", "brand": "United States Postal Service", "brand:wikidata": "Q668687", "collection_times": "Mo-Fr 14:15; Sa 15:15", "name": "USPS COLLECTION BOX - BLUE BOX", "note": "ON 12/24 AND 12/31, THIS BOX MAY BE COLLECTED AS EARLY AS 12 NOON.", "nsi_id": "unitedstatespostalservice-a77078", "operator": "United States Postal Service", "operator:short": "USPS", "operator:type": "public", "operator:wikidata": "Q668687", "ref": "8950200056"}, "type": "Feature"}
{"dataset_attributes": {"@spider": "usps_collection_boxes", "spider:collection_time": "2023-09-10T08:22:19.197986"}, "geometry": {"coordinates": [-119.779421, 39.506757], "type": "Point"}, "id": "dqWZ7HsbeKOLc9E68kLEVHaTY7U=", "properties": {"@spider": "usps_collection_boxes", "addr:city": "RENO", "addr:country": "US", "addr:full": "1755 E PLUMB LN", "addr:postcode": "89502", "addr:state": "NV", "amenity": "post_box", "brand": "United States Postal Service", "brand:wikidata": "Q668687", "collection_times": "Mo-Fr 14:15; Sa 15:15", "name": "USPS COLLECTION BOX - BLUE BOX", "note": "ON 12/24 AND 12/31, THIS BOX MAY BE COLLECTED AS EARLY AS 12 NOON.", "nsi_id": "unitedstatespostalservice-a77078", "operator": "United States Postal Service", "operator:short": "USPS", "operator:type": "public", "operator:wikidata": "Q668687", "ref": "8950200057"}, "type": "Feature"}
{"dataset_attributes": {"@spider": "usps_collection_boxes", "spider:collection_time": "2023-09-10T08:22:19.197986"}, "geometry": {"coordinates": [-119.779396, 39.506764], "type": "Point"}, "id": "aHly856vvY3Iyp7nEgysbJ546u4=", "properties": {"@spider": "usps_collection_boxes", "addr:city": "RENO", "addr:country": "US", "addr:full": "1755 E PLUMB LN", "addr:postcode": "89502", "addr:state": "NV", "amenity": "post_box", "brand": "United States Postal Service", "brand:wikidata": "Q668687", "collection_times": "Mo-Fr 14:15; Sa 15:15", "name": "USPS COLLECTION BOX - EXPRESS", "note": "ON 12/24 AND 12/31, THIS BOX MAY BE COLLECTED AS EARLY AS 12 NOON.", "nsi_id": "unitedstatespostalservice-a77078", "operator": "United States Postal Service", "operator:short": "USPS", "operator:type": "public", "operator:wikidata": "Q668687", "ref": "8950200058"}, "type": "Feature"}
{"dataset_attributes": {"@spider": "usps_collection_boxes", "spider:collection_time": "2023-09-10T08:22:19.197986"}, "geometry": {"coordinates": [-119.788994, 39.487973], "type": "Point"}, "id": "nrBb9etiN_QibCt9MhjFuKyb_9o=", "properties": {"@spider": "usps_collection_boxes", "addr:city": "RENO", "addr:country": "US", "addr:full": "3650 KIETZKE LN", "addr:postcode": "89502", "addr:state": "NV", "amenity": "post_box", "brand": "United States Postal Service", "brand:wikidata": "Q668687", "collection_times": "Mo-Fr 17:30", "name": "USPS COLLECTION BOX - BLUE BOX", "note": "ON 12/24 AND 12/31, THIS BOX MAY BE COLLECTED AS EARLY AS 12 NOON.", "nsi_id": "unitedstatespostalservice-a77078", "operator": "United States Postal Service", "operator:short": "USPS", "operator:type": "public", "operator:wikidata": "Q668687", "ref": "8950200064"}, "type": "Feature"}
{"dataset_attributes": {"@spider": "usps_collection_boxes", "spider:collection_time": "2023-09-10T08:22:19.197986"}, "geometry": {"coordinates": [-119.788906, 39.4837], "type": "Point"}, "id": "GarelVV1hERqocXAd0nPQECI794=", "properties": {"@spider": "usps_collection_boxes", "addr:city": "RENO", "addr:country": "US", "addr:full": "4600 KIETZKE LN", "addr:postcode": "89502", "addr:state": "NV", "amenity": "post_box", "brand": "United States Postal Service", "brand:wikidata": "Q668687", "collection_times": "Mo-Fr 17:15", "name": "USPS COLLECTION BOX - BLUE BOX", "note": "ON 12/24 AND 12/31, THIS BOX MAY BE COLLECTED AS EARLY AS 12 NOON.", "nsi_id": "unitedstatespostalservice-a77078", "operator": "United States Postal Service", "operator:short": "USPS", "operator:type": "public", "operator:wikidata": "Q668687", "ref": "8950200066"}, "type": "Feature"}
{"dataset_attributes": {"@spider": "usps_collection_boxes", "spider:collection_time": "2023-09-10T08:22:19.197986"}, "geometry": {"coordinates": [-119.788919, 39.483714], "type": "Point"}, "id": "DfXu-MN4_rxmsvANHHiDPQKXFJs=", "properties": {"@spider": "usps_collection_boxes", "addr:city": "RENO", "addr:country": "US", "addr:full": "4600 KIETZKE LN", "addr:postcode": "89502", "addr:state": "NV", "amenity": "post_box", "brand": "United States Postal Service", "brand:wikidata": "Q668687", "collection_times": "Mo-Fr 17:15", "name": "USPS COLLECTION BOX - BLUE BOX", "note": "ON 12/24 AND 12/31, THIS BOX MAY BE COLLECTED AS EARLY AS 12 NOON.", "nsi_id": "unitedstatespostalservice-a77078", "operator": "United States Postal Service", "operator:short": "USPS", "operator:type": "public", "operator:wikidata": "Q668687", "ref": "8950200068"}, "type": "Feature"}
{"dataset_attributes": {"@spider": "usps_collection_boxes", "spider:collection_time": "2023-09-10T08:22:19.197986"}, "geometry": {"coordinates": [-119.786776, 39.475703], "type": "Point"}, "id": "GPE0Bv4IWPEmvfQi867Gu7FvbKM=", "properties": {"@spider": "usps_collection_boxes", "addr:city": "RENO", "addr:country": "US", "addr:full": "5250 S VIRGINIA ST", "addr:postcode": "89502", "addr:state": "NV", "amenity": "post_box", "brand": "United States Postal Service", "brand:wikidata": "Q668687", "collection_times": "Mo-Fr 16:30", "name": "USPS COLLECTION BOX - BLUE BOX", "note": "ON 12/24 AND 12/31, THIS BOX MAY BE COLLECTED AS EARLY AS 12 NOON.", "nsi_id": "unitedstatespostalservice-a77078", "operator": "United States Postal Service", "operator:short": "USPS", "operator:type": "public", "operator:wikidata": "Q668687", "ref": "8950200072"}, "type": "Feature"}
{"dataset_attributes": {"@spider": "usps_collection_boxes", "spider:collection_time": "2023-09-10T08:22:19.197986"}, "geometry": {"coordinates": [-119.800327001, 39.5068440025], "type": "Point"}, "id": "T-9aPDJ-9-fhutlvbonpyfKkU8E=", "properties": {"@spider": "usps_collection_boxes", "addr:city": "RENO", "addr:country": "US", "addr:full": "299 E PLUMB LN", "addr:postcode": "89502", "addr:state": "NV", "amenity": "post_box", "brand": "United States Postal Service", "brand:wikidata": "Q668687", "collection_times": "Mo-Fr 17:00; Sa 15:00", "name": "USPS COLLECTION BOX - BLUE BOX", "note": "ON 12/24 AND 12/31, THIS BOX MAY BE COLLECTED AS EARLY AS 12 NOON.", "nsi_id": "unitedstatespostalservice-a77078", "operator": "United States Postal Service", "operator:short": "USPS", "operator:type": "public", "operator:wikidata": "Q668687", "ref": "8950200078"}, "type": "Feature"}
{"dataset_attributes": {"@spider": "usps_collection_boxes", "spider:collection_time": "2023-09-10T08:22:19.197986"}, "geometry": {"coordinates": [-119.778349, 39.474059], "type": "Point"}, "id": "16FWcI_lPEeMvEGlnhYvmraC_ho=", "properties": {"@spider": "usps_collection_boxes", "addr:city": "RENO", "addr:country": "US", "addr:full": "5250 NEIL RD", "addr:postcode": "89502", "addr:state": "NV", "amenity": "post_box", "brand": "United States Postal Service", "brand:wikidata": "Q668687", "collection_times": "Mo-Fr 16:30; Sa 13:45", "name": "USPS COLLECTION BOX - BLUE BOX", "note": "ON 12/24 AND 12/31, THIS BOX MAY BE COLLECTED AS EARLY AS 12 NOON.", "nsi_id": "unitedstatespostalservice-a77078", "operator": "United States Postal Service", "operator:short": "USPS", "operator:type": "public", "operator:wikidata": "Q668687", "ref": "8950200086"}, "type": "Feature"}
{"dataset_attributes": {"@spider": "usps_collection_boxes", "spider:collection_time": "2023-09-10T08:22:19.197986"}, "geometry": {"coordinates": [-119.747438, 39.509725], "type": "Point"}, "id": "WRrbhvtKHnmMhFHPakAb9PJkrto=", "properties": {"@spider": "usps_collection_boxes", "addr:city": "RENO", "addr:country": "US", "addr:full": "1100 FINANCIAL BLVD", "addr:postcode": "89502", "addr:state": "NV", "amenity": "post_box", "brand": "United States Postal Service", "brand:wikidata": "Q668687", "collection_times": "Mo-Fr 14:15", "name": "USPS COLLECTION BOX - BLUE BOX", "note": "ON 12/24 AND 12/31, THIS BOX MAY BE COLLECTED AS EARLY AS 12 NOON.", "nsi_id": "unitedstatespostalservice-a77078", "operator": "United States Postal Service", "operator:short": "USPS", "operator:type": "public", "operator:wikidata": "Q668687", "ref": "8950200105"}, "type": "Feature"}
{"dataset_attributes": {"@spider": "usps_collection_boxes", "spider:collection_time": "2023-09-10T08:22:19.197986"}, "geometry": {"coordinates": [-119.8011289815, 39.5068209942], "type": "Point"}, "id": "fDU_HcY0jcH4CDfnJ3mxY8Wfh0o=", "properties": {"@spider": "usps_collection_boxes", "addr:city": "RENO", "addr:country": "US", "addr:full": "229 E PLUMB LN ST 110", "addr:postcode": "89502", "addr:state": "NV", "amenity": "post_box", "brand": "United States Postal Service", "brand:wikidata": "Q668687", "collection_times": "Mo-Fr 17:30", "name": "USPS COLLECTION BOX - PO LOBBY", "note": "ON 12/24 AND 12/31, THIS BOX MAY BE COLLECTED AS EARLY AS 12 NOON.", "nsi_id": "unitedstatespostalservice-a77078", "operator": "United States Postal Service", "operator:short": "USPS", "operator:type": "public", "operator:wikidata": "Q668687", "ref": "8950200108"}, "type": "Feature"}
{"dataset_attributes": {"@spider": "usps_collection_boxes", "spider:collection_time": "2023-09-10T08:22:19.197986"}, "geometry": {"coordinates": [-119.784744, 39.478752], "type": "Point"}, "id": "XY_NQbug0AxfmkQDPunsCzWgCkw=", "properties": {"@spider": "usps_collection_boxes", "addr:city": "RENO", "addr:country": "US", "addr:full": "5053 S MCCARRAN BLVD", "addr:postcode": "89502", "addr:state": "NV", "amenity": "post_box", "brand": "United States Postal Service", "brand:wikidata": "Q668687", "collection_times": "Mo-Fr 17:00; Sa 14:00", "name": "USPS COLLECTION BOX - BLUE BOX", "note": "ON 12/24 AND 12/31, THIS BOX MAY BE COLLECTED AS EARLY AS 12 NOON.", "nsi_id": "unitedstatespostalservice-a77078", "operator": "United States Postal Service", "operator:short": "USPS", "operator:type": "public", "operator:wikidata": "Q668687", "ref": "8950200113"}, "type": "Feature"}
{"dataset_attributes": {"@spider": "usps_collection_boxes", "spider:collection_time": "2023-09-10T08:22:19.197986"}, "geometry": {"coordinates": [-119.784732, 39.47875], "type": "Point"}, "id": "fSYTAEMK-GRnD1hJlo3NOLEByks=", "properties": {"@spider": "usps_collection_boxes", "addr:city": "RENO", "addr:country": "US", "addr:full": "5053 S MCCARRAN BLVD", "addr:postcode": "89502", "addr:state": "NV", "amenity": "post_box", "brand": "United States Postal Service", "brand:wikidata": "Q668687", "collection_times": "Mo-Fr 17:00; Sa 14:00", "name": "USPS COLLECTION BOX - BLUE BOX", "note": "ON 12/24 AND 12/31, THIS BOX MAY BE COLLECTED AS EARLY AS 12 NOON.", "nsi_id": "unitedstatespostalservice-a77078", "operator": "United States Postal Service", "operator:short": "USPS", "operator:type": "public", "operator:wikidata": "Q668687", "ref": "8950200114"}, "type": "Feature"}
{"dataset_attributes": {"@spider": "usps_collection_boxes", "spider:collection_time": "2023-09-10T08:22:19.197986"}, "geometry": {"coordinates": [-119.802042, 39.50581546], "type": "Point"}, "id": "Obn3_pJiQPTX9mPeN4kOLc3wHZc=", "properties": {"@spider": "usps_collection_boxes", "addr:city": "RENO", "addr:country": "US", "addr:full": "279 E PLUMB LN", "addr:postcode": "89502", "addr:state": "NV", "amenity": "post_box", "brand": "United States Postal Service", "brand:wikidata": "Q668687", "collection_times": "Mo-Fr 17:00", "name": "USPS COLLECTION BOX - PO LOBBY", "note": "ON 12/24 AND 12/31, THIS BOX MAY BE COLLECTED AS EARLY AS 12 NOON.", "nsi_id": "unitedstatespostalservice-a77078", "operator": "United States Postal Service", "operator:short": "USPS", "operator:type": "public", "operator:wikidata": "Q668687", "ref": "8950200121"}, "type": "Feature"}
{"dataset_attributes": {"@spider": "usps_collection_boxes", "spider:collection_time": "2023-09-10T08:22:19.197986"}, "geometry": {"coordinates": [-119.818509, 39.531586], "type": "Point"}, "id": "JQTfuHf8wI8DkmVmtepIFypQRJk=", "properties": {"@spider": "usps_collection_boxes", "addr:city": "RENO", "addr:country": "US", "addr:full": "236 W 6TH ST", "addr:postcode": "89503", "addr:state": "NV", "amenity": "post_box", "brand": "United States Postal Service", "brand:wikidata": "Q668687", "collection_times": "Mo-Fr 15:15; Sa 14:45", "name": "USPS COLLECTION BOX - BLUE BOX", "note": "ON 12/24 AND 12/31, THIS BOX MAY BE COLLECTED AS EARLY AS 12 NOON.", "nsi_id": "unitedstatespostalservice-a77078", "operator": "United States Postal Service", "operator:short": "USPS", "operator:type": "public", "operator:wikidata": "Q668687", "ref": "8950300002"}, "type": "Feature"}
{"dataset_attributes": {"@spider": "usps_collection_boxes", "spider:collection_time": "2023-09-10T08:22:19.197986"}, "geometry": {"coordinates": [-119.8210319783, 39.5242810014], "type": "Point"}, "id": "9zP0BA44zzKV9ayOsSa9GpzzOJ8=", "properties": {"@spider": "usps_collection_boxes", "addr:city": "RENO", "addr:country": "US", "addr:full": "601 W 1ST ST", "addr:postcode": "89503", "addr:state": "NV", "amenity": "post_box", "brand": "United States Postal Service", "brand:wikidata": "Q668687", "collection_times": "Mo-Fr 15:00", "name": "USPS COLLECTION BOX - BLUE BOX", "note": "ON 12/24 AND 12/31, THIS BOX MAY BE COLLECTED AS EARLY AS 12 NOON.", "nsi_id": "unitedstatespostalservice-a77078", "operator": "United States Postal Service", "operator:short": "USPS", "operator:type": "public", "operator:wikidata": "Q668687", "ref": "8950300008"}, "type": "Feature"}
{"dataset_attributes": {"@spider": "usps_collection_boxes", "spider:collection_time": "2023-09-10T08:22:19.197986"}, "geometry": {"coordinates": [-119.824002, 39.52938], "type": "Point"}, "id": "OescMJF9CCEbTvXb_Y6TjpA1Sa8=", "properties": {"@spider": "usps_collection_boxes", "addr:city": "RENO", "addr:country": "US", "addr:full": "700 W 5TH ST", "addr:postcode": "89503", "addr:state": "NV", "amenity": "post_box", "brand": "United States Postal Service", "brand:wikidata": "Q668687", "collection_times": "Mo-Fr 15:15", "name": "USPS COLLECTION BOX - BLUE BOX", "note": "ON 12/24 AND 12/31, THIS BOX MAY BE COLLECTED AS EARLY AS 12 NOON.", "nsi_id": "unitedstatespostalservice-a77078", "operator": "United States Postal Service", "operator:short": "USPS", "operator:type": "public", "operator:wikidata": "Q668687", "ref": "8950300009"}, "type": "Feature"}
{"dataset_attributes": {"@spider": "usps_collection_boxes", "spider:collection_time": "2023-09-10T08:22:19.197986"}, "geometry": {"coordinates": [-119.827575, 39.531717], "type": "Point"}, "id": "miq6A8iu_aWYwJ5dhmAHVPQ_jEs=", "properties": {"@spider": "usps_collection_boxes", "addr:city": "RENO", "addr:country": "US", "addr:full": "855 W 7TH ST", "addr:postcode": "89503", "addr:state": "NV", "amenity": "post_box", "brand": "United States Postal Service", "brand:wikidata": "Q668687", "collection_times": "Mo-Fr 15:15", "name": "USPS COLLECTION BOX - BLUE BOX", "note": "ON 12/24 AND 12/31, THIS BOX MAY BE COLLECTED AS EARLY AS 12 NOON.", "nsi_id": "unitedstatespostalservice-a77078", "operator": "United States Postal Service", "operator:short": "USPS", "operator:type": "public", "operator:wikidata": "Q668687", "ref": "8950300010"}, "type": "Feature"}
{"dataset_attributes": {"@spider": "usps_collection_boxes", "spider:collection_time": "2023-09-10T08:22:19.197986"}, "geometry": {"coordinates": [-119.8243685436, 39.5234367399], "type": "Point"}, "id": "xEHNwFRHSiOFEJSbDd9gv1aSzRA=", "properties": {"@spider": "usps_collection_boxes", "addr:city": "RENO", "addr:country": "US", "addr:full": "900 W 1ST ST", "addr:postcode": "89503", "addr:state": "NV", "amenity": "post_box", "brand": "United States Postal Service", "brand:wikidata": "Q668687", "collection_times": "Mo-Fr 15:45", "name": "USPS COLLECTION BOX - BLUE BOX", "note": "ON 12/24 AND 12/31, THIS BOX MAY BE COLLECTED AS EARLY AS 12 NOON.", "nsi_id": "unitedstatespostalservice-a77078", "operator": "United States Postal Service", "operator:short": "USPS", "operator:type": "public", "operator:wikidata": "Q668687", "ref": "8950300011"}, "type": "Feature"}
{"dataset_attributes": {"@spider": "usps_collection_boxes", "spider:collection_time": "2023-09-10T08:22:19.197986"}, "geometry": {"coordinates": [-119.836845, 39.528419], "type": "Point"}, "id": "rDhzpawVy63C8SthpFOzf44OCeU=", "properties": {"@spider": "usps_collection_boxes", "addr:city": "RENO", "addr:country": "US", "addr:full": "1490 STARDUST ST", "addr:postcode": "89503", "addr:state": "NV", "amenity": "post_box", "brand": "United States Postal Service", "brand:wikidata": "Q668687", "collection_times": "Mo-Fr 17:30; Sa 16:15", "name": "USPS COLLECTION BOX - BLUE BOX", "note": "ON 12/24 AND 12/31, THIS BOX MAY BE COLLECTED AS EARLY AS 12 NOON.", "nsi_id": "unitedstatespostalservice-a77078", "operator": "United States Postal Service", "operator:short": "USPS", "operator:type": "public", "operator:wikidata": "Q668687", "ref": "8950300024"}, "type": "Feature"}
{"dataset_attributes": {"@spider": "usps_collection_boxes", "spider:collection_time": "2023-09-10T08:22:19.197986"}, "geometry": {"coordinates": [-119.836858, 39.528416], "type": "Point"}, "id": "FE4i_CRqVXnShcBPukW14MxpguU=", "properties": {"@spider": "usps_collection_boxes", "addr:city": "RENO", "addr:country": "US", "addr:full": "1490 STARDUST ST", "addr:postcode": "89503", "addr:state": "NV", "amenity": "post_box", "brand": "United States Postal Service", "brand:wikidata": "Q668687", "collection_times": "Mo-Fr 17:30; Sa 16:15", "name": "USPS COLLECTION BOX - BLUE BOX", "note": "ON 12/24 AND 12/31, THIS BOX MAY BE COLLECTED AS EARLY AS 12 NOON.", "nsi_id": "unitedstatespostalservice-a77078", "operator": "United States Postal Service", "operator:short": "USPS", "operator:type": "public", "operator:wikidata": "Q668687", "ref": "8950300025"}, "type": "Feature"}
{"dataset_attributes": {"@spider": "usps_collection_boxes", "spider:collection_time": "2023-09-10T08:22:19.197986"}, "geometry": {"coordinates": [-119.836942224, 39.528480513], "type": "Point"}, "id": "G8FHkXs5_yvL26_WK8wx_M9n3fc=", "properties": {"@spider": "usps_collection_boxes", "addr:city": "RENO", "addr:country": "US", "addr:full": "1490 STARDUST ST", "addr:postcode": "89503", "addr:state": "NV", "amenity": "post_box", "brand": "United States Postal Service", "brand:wikidata": "Q668687", "collection_times": "Mo-Fr 17:30; Sa 16:15", "name": "USPS COLLECTION BOX - BLUE BOX", "note": "ON 12/24 AND 12/31, THIS BOX MAY BE COLLECTED AS EARLY AS 12 NOON.", "nsi_id": "unitedstatespostalservice-a77078", "operator": "United States Postal Service", "operator:short": "USPS", "operator:type": "public", "operator:wikidata": "Q668687", "ref": "8950300026"}, "type": "Feature"}
{"dataset_attributes": {"@spider": "usps_collection_boxes", "spider:collection_time": "2023-09-10T08:22:19.197986"}, "geometry": {"coordinates": [-119.83683, 39.528403], "type": "Point"}, "id": "1Y6Lap-B_6bir2OCM2_ayq9iuUk=", "properties": {"@spider": "usps_collection_boxes", "addr:city": "RENO", "addr:country": "US", "addr:full": "1490 STARDUST ST", "addr:postcode": "89503", "addr:state": "NV", "amenity": "post_box", "brand": "United States Postal Service", "brand:wikidata": "Q668687", "collection_times": "Mo-Fr 17:30; Sa 16:15", "name": "USPS COLLECTION BOX - EXPRESS", "note": "ON 12/24 AND 12/31, THIS BOX MAY BE COLLECTED AS EARLY AS 12 NOON.", "nsi_id": "unitedstatespostalservice-a77078", "operator": "United States Postal Service", "operator:short": "USPS", "operator:type": "public", "operator:wikidata": "Q668687", "ref": "8950300028"}, "type": "Feature"}
{"dataset_attributes": {"@spider": "usps_collection_boxes", "spider:collection_time": "2023-09-10T08:22:19.197986"}, "geometry": {"coordinates": [-119.829427041, 39.5265190115], "type": "Point"}, "id": "wtZMzFwZFCICL6PH18q0nm6_8I4=", "properties": {"@spider": "usps_collection_boxes", "addr:city": "RENO", "addr:country": "US", "addr:full": "1155 W 4TH ST", "addr:postcode": "89503", "addr:state": "NV", "amenity": "post_box", "brand": "United States Postal Service", "brand:wikidata": "Q668687", "collection_times": "Mo-Fr 15:30; Sa 13:00", "name": "USPS COLLECTION BOX - BLUE BOX", "note": "ON 12/24 AND 12/31, THIS BOX MAY BE COLLECTED AS EARLY AS 12 NOON.", "nsi_id": "unitedstatespostalservice-a77078", "operator": "United States Postal Service", "operator:short": "USPS", "operator:type": "public", "operator:wikidata": "Q668687", "ref": "8950300033"}, "type": "Feature"}
{"dataset_attributes": {"@spider": "usps_collection_boxes", "spider:collection_time": "2023-09-10T08:22:19.197986"}, "geometry": {"coordinates": [-119.837104, 39.528041], "type": "Point"}, "id": "3y3sR-Yiq34bSYseKpEM2GMPI7s=", "properties": {"@spider": "usps_collection_boxes", "addr:city": "RENO", "addr:country": "US", "addr:full": "1490 STARDUST ST", "addr:postcode": "89503", "addr:state": "NV", "amenity": "post_box", "brand": "United States Postal Service", "brand:wikidata": "Q668687", "collection_times": "Mo-Fr 17:00; Sa 16:15", "name": "USPS COLLECTION BOX - PO LOBBY", "note": "ON 12/24 AND 12/31, THIS BOX MAY BE COLLECTED AS EARLY AS 12 NOON.", "nsi_id": "unitedstatespostalservice-a77078", "operator": "United States Postal Service", "operator:short": "USPS", "operator:type": "public", "operator:wikidata": "Q668687", "ref": "8950300034"}, "type": "Feature"}
{"dataset_attributes": {"@spider": "usps_collection_boxes", "spider:collection_time": "2023-09-10T08:22:19.197986"}, "geometry": {"coordinates": [-119.831448, 39.531048], "type": "Point"}, "id": "7GQSyBFO2KxcK_8D66LaXdalmd8=", "properties": {"@spider": "usps_collection_boxes", "addr:city": "RENO", "addr:country": "US", "addr:full": "701 KEYSTONE AVE", "addr:postcode": "89503", "addr:state": "NV", "amenity": "post_box", "brand": "United States Postal Service", "brand:wikidata": "Q668687", "collection_times": "Mo-Fr 15:30; Sa 13:00", "name": "USPS COLLECTION BOX - BLUE BOX", "note": "ON 12/24 AND 12/31, THIS BOX MAY BE COLLECTED AS EARLY AS 12 NOON.", "nsi_id": "unitedstatespostalservice-a77078", "operator": "United States Postal Service", "operator:short": "USPS", "operator:type": "public", "operator:wikidata": "Q668687", "ref": "8950300036"}, "type": "Feature"}
{"dataset_attributes": {"@spider": "usps_collection_boxes", "spider:collection_time": "2023-09-10T08:22:19.197986"}, "geometry": {"coordinates": [-119.8212955931, 39.5484624471], "type": "Point"}, "id": "FjNuv0VnmpFxwI1POhbP9zlRU0I=", "properties": {"@spider": "usps_collection_boxes", "addr:city": "RENO", "addr:country": "US", "addr:full": "1674 N VIRGINIA ST", "addr:postcode": "89503", "addr:state": "NV", "amenity": "post_box", "brand": "United States Postal Service", "brand:wikidata": "Q668687", "collection_times": "Mo-Fr 17:00", "name": "USPS COLLECTION BOX - PO LOBBY", "note": "ON 12/24 AND 12/31, THIS BOX MAY BE COLLECTED AS EARLY AS 12 NOON.", "nsi_id": "unitedstatespostalservice-a77078", "operator": "United States Postal Service", "operator:short": "USPS", "operator:type": "public", "operator:wikidata": "Q668687", "ref": "8950300043"}, "type": "Feature"}
{"dataset_attributes": {"@spider": "usps_collection_boxes", "spider:collection_time": "2023-09-10T08:22:19.197986"}, "geometry": {"coordinates": [-119.836942224, 39.528480513], "type": "Point"}, "id": "L26Q8lkVAPLUy1-UxfqhGSmqIp0=", "properties": {"@spider": "usps_collection_boxes", "addr:city": "RENO", "addr:country": "US", "addr:full": "1490 STARDUST ST", "addr:postcode": "89503", "addr:state": "NV", "amenity": "post_box", "brand": "United States Postal Service", "brand:wikidata": "Q668687", "collection_times": "Mo-Fr 17:00", "name": "USPS COLLECTION BOX - PO LOBBY", "note": "ON 12/24 AND 12/31, THIS BOX MAY BE COLLECTED AS EARLY AS 12 NOON.", "nsi_id": "unitedstatespostalservice-a77078", "operator": "United States Postal Service", "operator:short": "USPS", "operator:type": "public", "operator:wikidata": "Q668687", "ref": "8950300044"}, "type": "Feature"}
{"dataset_attributes": {"@spider": "usps_collection_boxes", "spider:collection_time": "2023-09-10T08:22:19.197986"}, "geometry": {"coordinates": [-119.840454, 39.605156], "type": "Point"}, "id": "iIaWLXJW49bcYSZIoFOiYDmGD0c=", "properties": {"@spider": "usps_collection_boxes", "addr:city": "RENO", "addr:country": "US", "addr:full": "1075 N HILLS BLVD", "addr:postcode": "89506", "addr:state": "NV", "amenity": "post_box", "brand": "United States Postal Service", "brand:wikidata": "Q668687", "collection_times": "Mo-Fr 16:45", "name": "USPS COLLECTION BOX - BLUE BOX", "note": "ON 12/24 AND 12/31, THIS BOX MAY BE COLLECTED AS EARLY AS 12 NOON.", "nsi_id": "unitedstatespostalservice-a77078", "operator": "United States Postal Service", "operator:short": "USPS", "operator:type": "public", "operator:wikidata": "Q668687", "ref": "8950600001"}, "type": "Feature"}
{"dataset_attributes": {"@spider": "usps_collection_boxes", "spider:collection_time": "2023-09-10T08:22:19.197986"}, "geometry": {"coordinates": [-119.848127, 39.612506], "type": "Point"}, "id": "BxGUGaR4HoGIB6MQNokc8hBYL6Y=", "properties": {"@spider": "usps_collection_boxes", "addr:city": "RENO", "addr:country": "US", "addr:full": "200 LEMMON DR", "addr:postcode": "89506", "addr:state": "NV", "amenity": "post_box", "brand": "United States Postal Service", "brand:wikidata": "Q668687", "collection_times": "Mo-Fr 16:30; Sa 12:30", "name": "USPS COLLECTION BOX - BLUE BOX", "note": "ON 12/24 AND 12/31, THIS BOX MAY BE COLLECTED AS EARLY AS 12 NOON.", "nsi_id": "unitedstatespostalservice-a77078", "operator": "United States Postal Service", "operator:short": "USPS", "operator:type": "public", "operator:wikidata": "Q668687", "ref": "8950600002"}, "type": "Feature"}
{"dataset_attributes": {"@spider": "usps_collection_boxes", "spider:collection_time": "2023-09-10T08:22:19.197986"}, "geometry": {"coordinates": [-119.882293, 39.625021], "type": "Point"}, "id": "E2wrdVodEx9mYcAJihJgLgGj_90=", "properties": {"@spider": "usps_collection_boxes", "addr:city": "RENO", "addr:country": "US", "addr:full": "10595 STEAD BLVD", "addr:postcode": "89506", "addr:state": "NV", "amenity": "post_box", "brand": "United States Postal Service", "brand:wikidata": "Q668687", "collection_times": "Mo-Fr 16:45", "name": "USPS COLLECTION BOX - BLUE BOX", "note": "ON 12/24 AND 12/31, THIS BOX MAY BE COLLECTED AS EARLY AS 12 NOON.", "nsi_id": "unitedstatespostalservice-a77078", "operator": "United States Postal Service", "operator:short": "USPS", "operator:type": "public", "operator:wikidata": "Q668687", "ref": "8950600005"}, "type": "Feature"}
{"dataset_attributes": {"@spider": "usps_collection_boxes", "spider:collection_time": "2023-09-10T08:22:19.197986"}, "geometry": {"coordinates": [-119.8355891572, 39.5917589018], "type": "Point"}, "id": "iINQ5LUjBr33bRtbsHC0G_-eYPw=", "properties": {"@spider": "usps_collection_boxes", "addr:city": "RENO", "addr:country": "US", "addr:full": "7500 N VIRGINIA ST", "addr:postcode": "89506", "addr:state": "NV", "amenity": "post_box", "brand": "United States Postal Service", "brand:wikidata": "Q668687", "collection_times": "Mo-Fr 16:30; Sa 13:00", "name": "USPS COLLECTION BOX - BLUE BOX", "note": "ON 12/24 AND 12/31, THIS BOX MAY BE COLLECTED AS EARLY AS 12 NOON.", "nsi_id": "unitedstatespostalservice-a77078", "operator": "United States Postal Service", "operator:short": "USPS", "operator:type": "public", "operator:wikidata": "Q668687", "ref": "8950600008"}, "type": "Feature"}
{"dataset_attributes": {"@spider": "usps_collection_boxes", "spider:collection_time": "2023-09-10T08:22:19.197986"}, "geometry": {"coordinates": [-119.825949, 39.571149], "type": "Point"}, "id": "k-verEqNrbSm6OjF2JSvkk-Bzp4=", "properties": {"@spider": "usps_collection_boxes", "addr:city": "RENO", "addr:country": "US", "addr:full": "4720 N VIRGINIA ST", "addr:postcode": "89506", "addr:state": "NV", "amenity": "post_box", "brand": "United States Postal Service", "brand:wikidata": "Q668687", "collection_times": "Mo-Fr 16:15", "name": "USPS COLLECTION BOX - BLUE BOX", "note": "ON 12/24 AND 12/31, THIS BOX MAY BE COLLECTED AS EARLY AS 12 NOON.", "nsi_id": "unitedstatespostalservice-a77078", "operator": "United States Postal Service", "operator:short": "USPS", "operator:type": "public", "operator:wikidata": "Q668687", "ref": "8950600010"}, "type": "Feature"}
{"dataset_attributes": {"@spider": "usps_collection_boxes", "spider:collection_time": "2023-09-10T08:22:19.197986"}, "geometry": {"coordinates": [-119.972752, 39.675163], "type": "Point"}, "id": "pVnZd5Rcu3GfQTPQf_1lDBFq5hQ=", "properties": {"@spider": "usps_collection_boxes", "addr:city": "RENO", "addr:country": "US", "addr:full": "3431 WHITE LAKE PKWY", "addr:postcode": "89506", "addr:state": "NV", "amenity": "post_box", "brand": "United States Postal Service", "brand:wikidata": "Q668687", "collection_times": "Mo-Sa 11:00", "name": "USPS COLLECTION BOX - BLUE BOX", "nsi_id": "unitedstatespostalservice-a77078", "operator": "United States Postal Service", "operator:short": "USPS", "operator:type": "public", "operator:wikidata": "Q668687", "ref": "8950600012"}, "type": "Feature"}
{"dataset_attributes": {"@spider": "usps_collection_boxes", "spider:collection_time": "2023-09-10T08:22:19.197986"}, "geometry": {"coordinates": [-119.838367, 39.604357], "type": "Point"}, "id": "-Twyjv6a0BBg_ODtorXiTD2vte8=", "properties": {"@spider": "usps_collection_boxes", "addr:city": "RENO", "addr:country": "US", "addr:full": "1050 N HILLS BLVD", "addr:postcode": "89506", "addr:state": "NV", "amenity": "post_box", "brand": "United States Postal Service", "brand:wikidata": "Q668687", "collection_times": "Mo-Fr 17:30; Sa 15:15", "name": "USPS COLLECTION BOX - PO LOBBY", "note": "ON 12/24 AND 12/31, THIS BOX MAY BE COLLECTED AS EARLY AS 12 NOON.", "nsi_id": "unitedstatespostalservice-a77078", "operator": "United States Postal Service", "operator:short": "USPS", "operator:type": "public", "operator:wikidata": "Q668687", "ref": "8950600013"}, "type": "Feature"}
{"dataset_attributes": {"@spider": "usps_collection_boxes", "spider:collection_time": "2023-09-10T08:22:19.197986"}, "geometry": {"coordinates": [-119.838247, 39.604335], "type": "Point"}, "id": "sA3mv1O9Y8OWruP8bShlBbh8Gbw=", "properties": {"@spider": "usps_collection_boxes", "addr:city": "RENO", "addr:country": "US", "addr:full": "1050 N HILLS BLVD", "addr:postcode": "89506", "addr:state": "NV", "amenity": "post_box", "brand": "United States Postal Service", "brand:wikidata": "Q668687", "collection_times": "Mo-Fr 17:00; Sa 15:15", "name": "USPS COLLECTION BOX - BLUE BOX", "note": "ON 12/24 AND 12/31, THIS BOX MAY BE COLLECTED AS EARLY AS 12 NOON.", "nsi_id": "unitedstatespostalservice-a77078", "operator": "United States Postal Service", "operator:short": "USPS", "operator:type": "public", "operator:wikidata": "Q668687", "ref": "8950600016"}, "type": "Feature"}
{"dataset_attributes": {"@spider": "usps_collection_boxes", "spider:collection_time": "2023-09-10T08:22:19.197986"}, "geometry": {"coordinates": [-119.838261, 39.604333], "type": "Point"}, "id": "sSHofMJNHsNHLqiqppfvZv-XYT4=", "properties": {"@spider": "usps_collection_boxes", "addr:city": "RENO", "addr:country": "US", "addr:full": "1050 N HILLS BLVD", "addr:postcode": "89506", "addr:state": "NV", "amenity": "post_box", "brand": "United States Postal Service", "brand:wikidata": "Q668687", "collection_times": "Mo-Fr 17:00; Sa 15:15", "name": "USPS COLLECTION BOX - EXPRESS", "note": "ON 12/24 AND 12/31, THIS BOX MAY BE COLLECTED AS EARLY AS 12 NOON.", "nsi_id": "unitedstatespostalservice-a77078", "operator": "United States Postal Service", "operator:short": "USPS", "operator:type": "public", "operator:wikidata": "Q668687", "ref": "8950600017"}, "type": "Feature"}
{"dataset_attributes": {"@spider": "usps_collection_boxes", "spider:collection_time": "2023-09-10T08:22:19.197986"}, "geometry": {"coordinates": [-119.838293, 39.604328], "type": "Point"}, "id": "yUF074CQs4DSyO_GtWcRMiQxXg4=", "properties": {"@spider": "usps_collection_boxes", "addr:city": "RENO", "addr:country": "US", "addr:full": "1050 N HILLS BLVD", "addr:postcode": "89506", "addr:state": "NV", "amenity": "post_box", "brand": "United States Postal Service", "brand:wikidata": "Q668687", "collection_times": "Mo-Fr 17:00; Sa 15:15", "name": "USPS COLLECTION BOX - BLUE BOX", "note": "ON 12/24 AND 12/31, THIS BOX MAY BE COLLECTED AS EARLY AS 12 NOON.", "nsi_id": "unitedstatespostalservice-a77078", "operator": "United States Postal Service", "operator:short": "USPS", "operator:type": "public", "operator:wikidata": "Q668687", "ref": "8950600018"}, "type": "Feature"}
{"dataset_attributes": {"@spider": "usps_collection_boxes", "spider:collection_time": "2023-09-10T08:22:19.197986"}, "geometry": {"coordinates": [-119.881127, 39.642086], "type": "Point"}, "id": "y9m2i_eBT76NWrRkvaYtXmSQ1Q4=", "properties": {"@spider": "usps_collection_boxes", "addr:city": "RENO", "addr:country": "US", "addr:full": "13900 STEAD BLVD", "addr:postcode": "89506", "addr:state": "NV", "amenity": "post_box", "brand": "United States Postal Service", "brand:wikidata": "Q668687", "collection_times": "Mo-Fr 16:45", "name": "USPS COLLECTION BOX - BLUE BOX", "note": "ON 12/24 AND 12/31, THIS BOX MAY BE COLLECTED AS EARLY AS 12 NOON.", "nsi_id": "unitedstatespostalservice-a77078", "operator": "United States Postal Service", "operator:short": "USPS", "operator:type": "public", "operator:wikidata": "Q668687", "ref": "8950600019"}, "type": "Feature"}
{"dataset_attributes": {"@spider": "usps_collection_boxes", "spider:collection_time": "2023-09-10T08:22:19.197986"}, "geometry": {"coordinates": [-119.821261, 39.548363], "type": "Point"}, "id": "WMOSkOtsydnzdm7xDBwXtCaSfV0=", "properties": {"@spider": "usps_collection_boxes", "addr:city": "RENO", "addr:country": "US", "addr:full": "1674 N VIRGINIA ST", "addr:postcode": "89507", "addr:state": "NV", "amenity": "post_box", "brand": "United States Postal Service", "brand:wikidata": "Q668687", "collection_times": "Mo-Fr 17:00; Sa 10:30", "name": "USPS COLLECTION BOX - PO LOBBY", "note": "ON 12/24 AND 12/31, THIS BOX MAY BE COLLECTED AS EARLY AS 12 NOON.", "nsi_id": "unitedstatespostalservice-a77078", "operator": "United States Postal Service", "operator:short": "USPS", "operator:type": "public", "operator:wikidata": "Q668687", "ref": "8950700001"}, "type": "Feature"}
{"dataset_attributes": {"@spider": "usps_collection_boxes", "spider:collection_time": "2023-09-10T08:22:19.197986"}, "geometry": {"coordinates": [-119.820317, 39.548441], "type": "Point"}, "id": "enzE3bhWIr1oNLnQS2ZtHlKu9ek=", "properties": {"@spider": "usps_collection_boxes", "addr:city": "RENO", "addr:country": "US", "addr:full": "1674 N VIRGINIA ST", "addr:postcode": "89507", "addr:state": "NV", "amenity": "post_box", "brand": "United States Postal Service", "brand:wikidata": "Q668687", "collection_times": "Mo-Fr 17:15; Sa 13:00", "name": "USPS COLLECTION BOX - BLUE BOX", "note": "ON 12/24 AND 12/31, THIS BOX MAY BE COLLECTED AS EARLY AS 12 NOON.", "nsi_id": "unitedstatespostalservice-a77078", "operator": "United States Postal Service", "operator:short": "USPS", "operator:type": "public", "operator:wikidata": "Q668687", "ref": "8950700004"}, "type": "Feature"}
{"dataset_attributes": {"@spider": "usps_collection_boxes", "spider:collection_time": "2023-09-10T08:22:19.197986"}, "geometry": {"coordinates": [-119.820305, 39.548451], "type": "Point"}, "id": "OfKsMPzloUUAcylEBpwfsccZJfc=", "properties": {"@spider": "usps_collection_boxes", "addr:city": "RENO", "addr:country": "US", "addr:full": "1674 N VIRGINIA ST", "addr:postcode": "89507", "addr:state": "NV", "amenity": "post_box", "brand": "United States Postal Service", "brand:wikidata": "Q668687", "collection_times": "Mo-Fr 17:15; Sa 13:00", "name": "USPS COLLECTION BOX - BLUE BOX", "note": "ON 12/24 AND 12/31, THIS BOX MAY BE COLLECTED AS EARLY AS 12 NOON.", "nsi_id": "unitedstatespostalservice-a77078", "operator": "United States Postal Service", "operator:short": "USPS", "operator:type": "public", "operator:wikidata": "Q668687", "ref": "8950700005"}, "type": "Feature"}
{"dataset_attributes": {"@spider": "usps_collection_boxes", "spider:collection_time": "2023-09-10T08:22:19.197986"}, "geometry": {"coordinates": [-119.806198, 39.506698], "type": "Point"}, "id": "VQ_EPZdSGFXu4UibPULNVgZucYc=", "properties": {"@spider": "usps_collection_boxes", "addr:city": "RENO", "addr:country": "US", "addr:full": "195 W PLUMB LN", "addr:postcode": "89509", "addr:state": "NV", "amenity": "post_box", "brand": "United States Postal Service", "brand:wikidata": "Q668687", "collection_times": "Mo-Fr 14:30; Sa 14:00", "name": "USPS COLLECTION BOX - BLUE BOX", "note": "ON 12/24 AND 12/31, THIS BOX MAY BE COLLECTED AS EARLY AS 12 NOON.", "nsi_id": "unitedstatespostalservice-a77078", "operator": "United States Postal Service", "operator:short": "USPS", "operator:type": "public", "operator:wikidata": "Q668687", "ref": "8950900004"}, "type": "Feature"}
{"dataset_attributes": {"@spider": "usps_collection_boxes", "spider:collection_time": "2023-09-10T08:22:19.197986"}, "geometry": {"coordinates": [-119.816373, 39.519993], "type": "Point"}, "id": "ZwcrqZjlo5l2t8_vwclmcz37JfQ=", "properties": {"@spider": "usps_collection_boxes", "addr:city": "RENO", "addr:country": "US", "addr:full": "460 CALIFORNIA AVE", "addr:postcode": "89509", "addr:state": "NV", "amenity": "post_box", "brand": "United States Postal Service", "brand:wikidata": "Q668687", "collection_times": "Mo-Fr 16:00; Sa 14:30", "name": "USPS COLLECTION BOX - EXPRESS", "note": "ON 12/24 AND 12/31, THIS BOX MAY BE COLLECTED AS EARLY AS 12 NOON.", "nsi_id": "unitedstatespostalservice-a77078", "operator": "United States Postal Service", "operator:short": "USPS", "operator:type": "public", "operator:wikidata": "Q668687", "ref": "8950900006"}, "type": "Feature"}
{"dataset_attributes": {"@spider": "usps_collection_boxes", "spider:collection_time": "2023-09-10T08:22:19.197986"}, "geometry": {"coordinates": [-119.807484, 39.491069], "type": "Point"}, "id": "o3NLVmvFsj99t-bWAoSiybbtcWE=", "properties": {"@spider": "usps_collection_boxes", "addr:city": "RENO", "addr:country": "US", "addr:full": "960 W MOANA LN", "addr:postcode": "89509", "addr:state": "NV", "amenity": "post_box", "brand": "United States Postal Service", "brand:wikidata": "Q668687", "collection_times": "Mo-Fr 14:45; Sa 12:15", "name": "USPS COLLECTION BOX - BLUE BOX", "note": "ON 12/24 AND 12/31, THIS BOX MAY BE COLLECTED AS EARLY AS 12 NOON.", "nsi_id": "unitedstatespostalservice-a77078", "operator": "United States Postal Service", "operator:short": "USPS", "operator:type": "public", "operator:wikidata": "Q668687", "ref": "8950900009"}, "type": "Feature"}
{"dataset_attributes": {"@spider": "usps_collection_boxes", "spider:collection_time": "2023-09-10T08:22:19.197986"}, "geometry": {"coordinates": [-119.836892, 39.510157], "type": "Point"}, "id": "kXM4XHuYcUaU1kFpl2WzYE7DE-U=", "properties": {"@spider": "usps_collection_boxes", "addr:city": "RENO", "addr:country": "US", "addr:full": "1441 MAYBERRY DR", "addr:postcode": "89509", "addr:state": "NV", "amenity": "post_box", "brand": "United States Postal Service", "brand:wikidata": "Q668687", "collection_times": "Mo-Fr 15:45; Sa 13:00", "name": "USPS COLLECTION BOX - BLUE BOX", "note": "ON 12/24 AND 12/31, THIS BOX MAY BE COLLECTED AS EARLY AS 12 NOON.", "nsi_id": "unitedstatespostalservice-a77078", "operator": "United States Postal Service", "operator:short": "USPS", "operator:type": "public", "operator:wikidata": "Q668687", "ref": "8950900011"}, "type": "Feature"}
{"dataset_attributes": {"@spider": "usps_collection_boxes", "spider:collection_time": "2023-09-10T08:22:19.197986"}, "geometry": {"coordinates": [-119.812706, 39.514759], "type": "Point"}, "id": "ZLWlzPY4-7bgMC2cEJ2QcvgdRy4=", "properties": {"@spider": "usps_collection_boxes", "addr:city": "RENO", "addr:country": "US", "addr:full": "1015 PLUMAS ST", "addr:postcode": "89509", "addr:state": "NV", "amenity": "post_box", "brand": "United States Postal Service", "brand:wikidata": "Q668687", "collection_times": "Mo-Sa 09:30", "name": "USPS COLLECTION BOX - BLUE BOX", "nsi_id": "unitedstatespostalservice-a77078", "operator": "United States Postal Service", "operator:short": "USPS", "operator:type": "public", "operator:wikidata": "Q668687", "ref": "8950900012"}, "type": "Feature"}
{"dataset_attributes": {"@spider": "usps_collection_boxes", "spider:collection_time": "2023-09-10T08:22:19.197986"}, "geometry": {"coordinates": [-119.802824, 39.495391], "type": "Point"}, "id": "C8OhqNzCDHVxquXINSGIGQ_-Lf8=", "properties": {"@spider": "usps_collection_boxes", "addr:city": "RENO", "addr:country": "US", "addr:full": "580 BRINKBY AVE", "addr:postcode": "89509", "addr:state": "NV", "amenity": "post_box", "brand": "United States Postal Service", "brand:wikidata": "Q668687", "collection_times": "Mo-Fr 15:00", "name": "USPS COLLECTION BOX - BLUE BOX", "note": "ON 12/24 AND 12/31, THIS BOX MAY BE COLLECTED AS EARLY AS 12 NOON.", "nsi_id": "unitedstatespostalservice-a77078", "operator": "United States Postal Service", "operator:short": "USPS", "operator:type": "public", "operator:wikidata": "Q668687", "ref": "8950900014"}, "type": "Feature"}
{"dataset_attributes": {"@spider": "usps_collection_boxes", "spider:collection_time": "2023-09-10T08:22:19.197986"}, "geometry": {"coordinates": [-119.817068, 39.512694], "type": "Point"}, "id": "WlspLYXXoZIHN6w9bs9-9dEJXwo=", "properties": {"@spider": "usps_collection_boxes", "addr:city": "RENO", "addr:country": "US", "addr:full": "1200 S ARLINGTON AVE", "addr:postcode": "89509", "addr:state": "NV", "amenity": "post_box", "brand": "United States Postal Service", "brand:wikidata": "Q668687", "collection_times": "Mo-Fr 14:45; Sa 14:00", "name": "USPS COLLECTION BOX - BLUE BOX", "note": "ON 12/24 AND 12/31, THIS BOX MAY BE COLLECTED AS EARLY AS 12 NOON.", "nsi_id": "unitedstatespostalservice-a77078", "operator": "United States Postal Service", "operator:short": "USPS", "operator:type": "public", "operator:wikidata": "Q668687", "ref": "8950900018"}, "type": "Feature"}
{"dataset_attributes": {"@spider": "usps_collection_boxes", "spider:collection_time": "2023-09-10T08:22:19.197986"}, "geometry": {"coordinates": [-119.816365, 39.519996], "type": "Point"}, "id": "lI9FYT3TOebsOR3yDcTdCkOfsnE=", "properties": {"@spider": "usps_collection_boxes", "addr:city": "RENO", "addr:country": "US", "addr:full": "460 CALIFORNIA AVE", "addr:postcode": "89509", "addr:state": "NV", "amenity": "post_box", "brand": "United States Postal Service", "brand:wikidata": "Q668687", "collection_times": "Mo-Fr 16:00; Sa 14:30", "name": "USPS COLLECTION BOX - BLUE BOX", "note": "ON 12/24 AND 12/31, THIS BOX MAY BE COLLECTED AS EARLY AS 12 NOON.", "nsi_id": "unitedstatespostalservice-a77078", "operator": "United States Postal Service", "operator:short": "USPS", "operator:type": "public", "operator:wikidata": "Q668687", "ref": "8950900020"}, "type": "Feature"}
{"dataset_attributes": {"@spider": "usps_collection_boxes", "spider:collection_time": "2023-09-10T08:22:19.197986"}, "geometry": {"coordinates": [-119.796511, 39.486711], "type": "Point"}, "id": "oxdCe61hv1eQSUqM0QUtq3PVR3I=", "properties": {"@spider": "usps_collection_boxes", "addr:city": "RENO", "addr:country": "US", "addr:full": "100 W PECKHAM LN", "addr:postcode": "89509", "addr:state": "NV", "amenity": "post_box", "brand": "United States Postal Service", "brand:wikidata": "Q668687", "collection_times": "Mo-Fr 14:45; Sa 12:15", "name": "USPS COLLECTION BOX - BLUE BOX", "note": "ON 12/24 AND 12/31, THIS BOX MAY BE COLLECTED AS EARLY AS 12 NOON.", "nsi_id": "unitedstatespostalservice-a77078", "operator": "United States Postal Service", "operator:short": "USPS", "operator:type": "public", "operator:wikidata": "Q668687", "ref": "8950900022"}, "type": "Feature"}
{"dataset_attributes": {"@spider": "usps_collection_boxes", "spider:collection_time": "2023-09-10T08:22:19.197986"}, "geometry": {"coordinates": [-119.807497, 39.491075], "type": "Point"}, "id": "11uTYcK2lv8kjJ3WXQGGU0pZAHo=", "properties": {"@spider": "usps_collection_boxes", "addr:city": "RENO", "addr:country": "US", "addr:full": "960 W MOANA LN", "addr:postcode": "89509", "addr:state": "NV", "amenity": "post_box", "brand": "United States Postal Service", "brand:wikidata": "Q668687", "collection_times": "Mo-Fr 14:45; Sa 12:15", "name": "USPS COLLECTION BOX - BLUE BOX", "note": "ON 12/24 AND 12/31, THIS BOX MAY BE COLLECTED AS EARLY AS 12 NOON.", "nsi_id": "unitedstatespostalservice-a77078", "operator": "United States Postal Service", "operator:short": "USPS", "operator:type": "public", "operator:wikidata": "Q668687", "ref": "8950900028"}, "type": "Feature"}
{"dataset_attributes": {"@spider": "usps_collection_boxes", "spider:collection_time": "2023-09-10T08:22:19.197986"}, "geometry": {"coordinates": [-119.807492, 39.49108], "type": "Point"}, "id": "TMq5QMPbTTDv2XojhRZiPNChrLQ=", "properties": {"@spider": "usps_collection_boxes", "addr:city": "RENO", "addr:country": "US", "addr:full": "960 W MOANA LN", "addr:postcode": "89509", "addr:state": "NV", "amenity": "post_box", "brand": "United States Postal Service", "brand:wikidata": "Q668687", "collection_times": "Mo-Fr 14:45; Sa 12:15", "name": "USPS COLLECTION BOX - EXPRESS", "note": "ON 12/24 AND 12/31, THIS BOX MAY BE COLLECTED AS EARLY AS 12 NOON.", "nsi_id": "unitedstatespostalservice-a77078", "operator": "United States Postal Service", "operator:short": "USPS", "operator:type": "public", "operator:wikidata": "Q668687", "ref": "8950900029"}, "type": "Feature"}
{"dataset_attributes": {"@spider": "usps_collection_boxes", "spider:collection_time": "2023-09-10T08:22:19.197986"}, "geometry": {"coordinates": [-119.82806, 39.514858], "type": "Point"}, "id": "NKZ6ehxRzu_TRiH44x45CGo0W0E=", "properties": {"@spider": "usps_collection_boxes", "addr:city": "RENO", "addr:country": "US", "addr:full": "1119 CALIFORNIA AVE", "addr:postcode": "89509", "addr:state": "NV", "amenity": "post_box", "brand": "United States Postal Service", "brand:wikidata": "Q668687", "collection_times": "Mo-Fr 15:45; Sa 14:30", "name": "USPS COLLECTION BOX - BLUE BOX", "note": "ON 12/24 AND 12/31, THIS BOX MAY BE COLLECTED AS EARLY AS 12 NOON.", "nsi_id": "unitedstatespostalservice-a77078", "operator": "United States Postal Service", "operator:short": "USPS", "operator:type": "public", "operator:wikidata": "Q668687", "ref": "8950900031"}, "type": "Feature"}
{"dataset_attributes": {"@spider": "usps_collection_boxes", "spider:collection_time": "2023-09-10T08:22:19.197986"}, "geometry": {"coordinates": [-119.806208, 39.506708], "type": "Point"}, "id": "ST38_iZpFUY1TMVa-RyvkvFuzM0=", "properties": {"@spider": "usps_collection_boxes", "addr:city": "RENO", "addr:country": "US", "addr:full": "195 W PLUMB LN", "addr:postcode": "89509", "addr:state": "NV", "amenity": "post_box", "brand": "United States Postal Service", "brand:wikidata": "Q668687", "collection_times": "Mo-Fr 14:30; Sa 14:00", "name": "USPS COLLECTION BOX - BLUE BOX", "note": "ON 12/24 AND 12/31, THIS BOX MAY BE COLLECTED AS EARLY AS 12 NOON.", "nsi_id": "unitedstatespostalservice-a77078", "operator": "United States Postal Service", "operator:short": "USPS", "operator:type": "public", "operator:wikidata": "Q668687", "ref": "8950900032"}, "type": "Feature"}
{"dataset_attributes": {"@spider": "usps_collection_boxes", "spider:collection_time": "2023-09-10T08:22:19.197986"}, "geometry": {"coordinates": [-119.807483, 39.491085], "type": "Point"}, "id": "nU2YqpMCtKuqXFxJWuwpS9z3gK0=", "properties": {"@spider": "usps_collection_boxes", "addr:city": "RENO", "addr:country": "US", "addr:full": "960 W MOANA LN", "addr:postcode": "89509", "addr:state": "NV", "amenity": "post_box", "brand": "United States Postal Service", "brand:wikidata": "Q668687", "collection_times": "Mo-Fr 14:45; Sa 12:15", "name": "USPS COLLECTION BOX - BLUE BOX", "note": "ON 12/24 AND 12/31, THIS BOX MAY BE COLLECTED AS EARLY AS 12 NOON.", "nsi_id": "unitedstatespostalservice-a77078", "operator": "United States Postal Service", "operator:short": "USPS", "operator:type": "public", "operator:wikidata": "Q668687", "ref": "8950900036"}, "type": "Feature"}
{"dataset_attributes": {"@spider": "usps_collection_boxes", "spider:collection_time": "2023-09-10T08:22:19.197986"}, "geometry": {"coordinates": [-119.795912, 39.477179], "type": "Point"}, "id": "oHMixjoHC_mugaF6jKplS5YnGZk=", "properties": {"@spider": "usps_collection_boxes", "addr:city": "RENO", "addr:country": "US", "addr:full": "4995 KIETZKE LN", "addr:postcode": "89509", "addr:state": "NV", "amenity": "post_box", "brand": "United States Postal Service", "brand:wikidata": "Q668687", "collection_times": "Mo-Fr 14:15", "name": "USPS COLLECTION BOX - BLUE BOX", "note": "ON 12/24 AND 12/31, THIS BOX MAY BE COLLECTED AS EARLY AS 12 NOON.", "nsi_id": "unitedstatespostalservice-a77078", "operator": "United States Postal Service", "operator:short": "USPS", "operator:type": "public", "operator:wikidata": "Q668687", "ref": "8950900037"}, "type": "Feature"}
{"dataset_attributes": {"@spider": "usps_collection_boxes", "spider:collection_time": "2023-09-10T08:22:19.197986"}, "geometry": {"coordinates": [-119.806195, 39.506704], "type": "Point"}, "id": "M4NHfsYAAM-eNAaNN22ydDrF_LI=", "properties": {"@spider": "usps_collection_boxes", "addr:city": "RENO", "addr:country": "US", "addr:full": "195 W PLUMB LN", "addr:postcode": "89509", "addr:state": "NV", "amenity": "post_box", "brand": "United States Postal Service", "brand:wikidata": "Q668687", "collection_times": "Mo-Fr 14:30; Sa 14:00", "name": "USPS COLLECTION BOX - BLUE BOX", "note": "ON 12/24 AND 12/31, THIS BOX MAY BE COLLECTED AS EARLY AS 12 NOON.", "nsi_id": "unitedstatespostalservice-a77078", "operator": "United States Postal Service", "operator:short": "USPS", "operator:type": "public", "operator:wikidata": "Q668687", "ref": "8950900038"}, "type": "Feature"}
{"dataset_attributes": {"@spider": "usps_collection_boxes", "spider:collection_time": "2023-09-10T08:22:19.197986"}, "geometry": {"coordinates": [-119.811627, 39.520046], "type": "Point"}, "id": "8KSA3kaPTgQ7Eb0hPZhX5UuARJ8=", "properties": {"@spider": "usps_collection_boxes", "addr:city": "RENO", "addr:country": "US", "addr:full": "100 CALIFORNIA AVE", "addr:postcode": "89509", "addr:state": "NV", "amenity": "post_box", "brand": "United States Postal Service", "brand:wikidata": "Q668687", "collection_times": "Mo-Fr 16:00", "name": "USPS COLLECTION BOX - BLUE BOX", "note": "ON 12/24 AND 12/31, THIS BOX MAY BE COLLECTED AS EARLY AS 12 NOON.", "nsi_id": "unitedstatespostalservice-a77078", "operator": "United States Postal Service", "operator:short": "USPS", "operator:type": "public", "operator:wikidata": "Q668687", "ref": "8950900039"}, "type": "Feature"}
{"dataset_attributes": {"@spider": "usps_collection_boxes", "spider:collection_time": "2023-09-10T08:22:19.197986"}, "geometry": {"coordinates": [-119.8263953863, 39.518037], "type": "Point"}, "id": "ncTzspzd4w9mHpHPxKIwGDI4D3g=", "properties": {"@spider": "usps_collection_boxes", "addr:city": "RENO", "addr:country": "US", "addr:full": "300 BOOTH ST", "addr:postcode": "89509", "addr:state": "NV", "amenity": "post_box", "brand": "United States Postal Service", "brand:wikidata": "Q668687", "collection_times": "Mo-Fr 15:45", "name": "USPS COLLECTION BOX - BLUE BOX", "note": "ON 12/24 AND 12/31, THIS BOX MAY BE COLLECTED AS EARLY AS 12 NOON.", "nsi_id": "unitedstatespostalservice-a77078", "operator": "United States Postal Service", "operator:short": "USPS", "operator:type": "public", "operator:wikidata": "Q668687", "ref": "8950900044"}, "type": "Feature"}
{"dataset_attributes": {"@spider": "usps_collection_boxes", "spider:collection_time": "2023-09-10T08:22:19.197986"}, "geometry": {"coordinates": [-119.795353, 39.480545], "type": "Point"}, "id": "7CRyq8gCWGMQwRncfapcvtaImUQ=", "properties": {"@spider": "usps_collection_boxes", "addr:city": "RENO", "addr:country": "US", "addr:full": "4819 KIETZKE LN", "addr:postcode": "89509", "addr:state": "NV", "amenity": "post_box", "brand": "United States Postal Service", "brand:wikidata": "Q668687", "collection_times": "Mo-Fr 14:15", "name": "USPS COLLECTION BOX - BLUE BOX", "note": "ON 12/24 AND 12/31, THIS BOX MAY BE COLLECTED AS EARLY AS 12 NOON.", "nsi_id": "unitedstatespostalservice-a77078", "operator": "United States Postal Service", "operator:short": "USPS", "operator:type": "public", "operator:wikidata": "Q668687", "ref": "8950900047"}, "type": "Feature"}
{"dataset_attributes": {"@spider": "usps_collection_boxes", "spider:collection_time": "2023-09-10T08:22:19.197986"}, "geometry": {"coordinates": [-119.781661, 39.513007], "type": "Point"}, "id": "2dhVCvSpzxER2QRP8goyVF-EpaQ=", "properties": {"@spider": "usps_collection_boxes", "addr:city": "RENO", "addr:country": "US", "addr:full": "2000 VASSAR ST", "addr:postcode": "89510", "addr:state": "NV", "amenity": "post_box", "brand": "United States Postal Service", "brand:wikidata": "Q668687", "collection_times": "Mo-Sa 21:00", "name": "USPS COLLECTION BOX - PO LOBBY", "note": "ON 12/24 AND 12/31, THIS BOX MAY BE COLLECTED AS EARLY AS 12 NOON.", "nsi_id": "unitedstatespostalservice-a77078", "operator": "United States Postal Service", "operator:short": "USPS", "operator:type": "public", "operator:wikidata": "Q668687", "ref": "8951000000"}, "type": "Feature"}
{"dataset_attributes": {"@spider": "usps_collection_boxes", "spider:collection_time": "2023-09-10T08:22:19.197986"}, "geometry": {"coordinates": [-119.781777, 39.513034], "type": "Point"}, "id": "m45koXBFvokt0JyFaowht6IZ8P4=", "properties": {"@spider": "usps_collection_boxes", "addr:city": "RENO", "addr:country": "US", "addr:full": "2000 VASSAR ST", "addr:postcode": "89510", "addr:state": "NV", "amenity": "post_box", "brand": "United States Postal Service", "brand:wikidata": "Q668687", "collection_times": "Mo-Sa 21:00", "name": "USPS COLLECTION BOX - PO LOBBY", "note": "ON 12/24 AND 12/31, THIS BOX MAY BE COLLECTED AS EARLY AS 12 NOON.", "nsi_id": "unitedstatespostalservice-a77078", "operator": "United States Postal Service", "operator:short": "USPS", "operator:type": "public", "operator:wikidata": "Q668687", "ref": "8951000001"}, "type": "Feature"}
{"dataset_attributes": {"@spider": "usps_collection_boxes", "spider:collection_time": "2023-09-10T08:22:19.197986"}, "geometry": {"coordinates": [-119.781777, 39.513034], "type": "Point"}, "id": "v0EzlC8XaVbuHS5CZshLkAtrnV4=", "properties": {"@spider": "usps_collection_boxes", "addr:city": "RENO", "addr:country": "US", "addr:full": "2000 VASSAR ST", "addr:postcode": "89510", "addr:state": "NV", "amenity": "post_box", "brand": "United States Postal Service", "brand:wikidata": "Q668687", "collection_times": "Mo-Sa 21:00", "name": "USPS COLLECTION BOX - EXPRESS", "note": "ON 12/24 AND 12/31, THIS BOX MAY BE COLLECTED AS EARLY AS 12 NOON.", "nsi_id": "unitedstatespostalservice-a77078", "operator": "United States Postal Service", "operator:short": "USPS", "operator:type": "public", "operator:wikidata": "Q668687", "ref": "8951000002"}, "type": "Feature"}
{"dataset_attributes": {"@spider": "usps_collection_boxes", "spider:collection_time": "2023-09-10T08:22:19.197986"}, "geometry": {"coordinates": [-119.781777, 39.513034], "type": "Point"}, "id": "3nYs0i8kuBc1xUPOfr2zi2L05Y0=", "properties": {"@spider": "usps_collection_boxes", "addr:city": "RENO", "addr:country": "US", "addr:full": "2000 VASSAR ST", "addr:postcode": "89510", "addr:state": "NV", "amenity": "post_box", "brand": "United States Postal Service", "brand:wikidata": "Q668687", "collection_times": "Mo-Sa 21:00", "name": "USPS COLLECTION BOX - BLUE BOX", "note": "ON 12/24 AND 12/31, THIS BOX MAY BE COLLECTED AS EARLY AS 12 NOON.", "nsi_id": "unitedstatespostalservice-a77078", "operator": "United States Postal Service", "operator:short": "USPS", "operator:type": "public", "operator:wikidata": "Q668687", "ref": "8951000003"}, "type": "Feature"}
{"dataset_attributes": {"@spider": "usps_collection_boxes", "spider:collection_time": "2023-09-10T08:22:19.197986"}, "geometry": {"coordinates": [-119.781777, 39.513034], "type": "Point"}, "id": "hGmkhE-IJmR54a8bYmV87VSTX9Q=", "properties": {"@spider": "usps_collection_boxes", "addr:city": "RENO", "addr:country": "US", "addr:full": "2000 VASSAR ST", "addr:postcode": "89510", "addr:state": "NV", "amenity": "post_box", "brand": "United States Postal Service", "brand:wikidata": "Q668687", "collection_times": "Mo-Sa 21:00", "name": "USPS COLLECTION BOX - EXPRESS", "note": "ON 12/24 AND 12/31, THIS BOX MAY BE COLLECTED AS EARLY AS 12 NOON.", "nsi_id": "unitedstatespostalservice-a77078", "operator": "United States Postal Service", "operator:short": "USPS", "operator:type": "public", "operator:wikidata": "Q668687", "ref": "8951000004"}, "type": "Feature"}
{"dataset_attributes": {"@spider": "usps_collection_boxes", "spider:collection_time": "2023-09-10T08:22:19.197986"}, "geometry": {"coordinates": [-119.781777, 39.513034], "type": "Point"}, "id": "s7creUCTrA_XknWCEZqm44L7PfE=", "properties": {"@spider": "usps_collection_boxes", "addr:city": "RENO", "addr:country": "US", "addr:full": "2000 VASSAR ST", "addr:postcode": "89510", "addr:state": "NV", "amenity": "post_box", "brand": "United States Postal Service", "brand:wikidata": "Q668687", "collection_times": "Mo-Sa 21:00", "name": "USPS COLLECTION BOX - BLUE BOX", "note": "ON 12/24 AND 12/31, THIS BOX MAY BE COLLECTED AS EARLY AS 12 NOON.", "nsi_id": "unitedstatespostalservice-a77078", "operator": "United States Postal Service", "operator:short": "USPS", "operator:type": "public", "operator:wikidata": "Q668687", "ref": "8951000005"}, "type": "Feature"}
{"dataset_attributes": {"@spider": "usps_collection_boxes", "spider:collection_time": "2023-09-10T08:22:19.197986"}, "geometry": {"coordinates": [-119.781777, 39.513034], "type": "Point"}, "id": "z7Hd_m1eEYdeV3NHBmMbCBoGMUI=", "properties": {"@spider": "usps_collection_boxes", "addr:city": "RENO", "addr:country": "US", "addr:full": "2000 VASSAR ST", "addr:postcode": "89510", "addr:state": "NV", "amenity": "post_box", "brand": "United States Postal Service", "brand:wikidata": "Q668687", "collection_times": "Mo-Sa 21:00", "name": "USPS COLLECTION BOX - BLUE BOX", "note": "ON 12/24 AND 12/31, THIS BOX MAY BE COLLECTED AS EARLY AS 12 NOON.", "nsi_id": "unitedstatespostalservice-a77078", "operator": "United States Postal Service", "operator:short": "USPS", "operator:type": "public", "operator:wikidata": "Q668687", "ref": "8951000006"}, "type": "Feature"}
{"dataset_attributes": {"@spider": "usps_collection_boxes", "spider:collection_time": "2023-09-10T08:22:19.197986"}, "geometry": {"coordinates": [-119.781783073, 39.512999501], "type": "Point"}, "id": "7X-LXZZoLVVl3tnu_dSHSJj-ZE0=", "properties": {"@spider": "usps_collection_boxes", "addr:city": "RENO", "addr:country": "US", "addr:full": "2000 VASSAR ST", "addr:postcode": "89510", "addr:state": "NV", "amenity": "post_box", "brand": "United States Postal Service", "brand:wikidata": "Q668687", "collection_times": "Mo-Fr 17:30; Sa 15:00", "name": "USPS COLLECTION BOX - PO LOBBY", "note": "ON 12/24 AND 12/31, THIS BOX MAY BE COLLECTED AS EARLY AS 12 NOON.", "nsi_id": "unitedstatespostalservice-a77078", "operator": "United States Postal Service", "operator:short": "USPS", "operator:type": "public", "operator:wikidata": "Q668687", "ref": "8951000008"}, "type": "Feature"}
{"dataset_attributes": {"@spider": "usps_collection_boxes", "spider:collection_time": "2023-09-10T08:22:19.197986"}, "geometry": {"coordinates": [-119.765587, 39.474471], "type": "Point"}, "id": "kk4jyl5t95C1IGdokb7rxkavf8A=", "properties": {"@spider": "usps_collection_boxes", "addr:city": "RENO", "addr:country": "US", "addr:full": "5301 LOUIE LN", "addr:postcode": "89511", "addr:state": "NV", "amenity": "post_box", "brand": "United States Postal Service", "brand:wikidata": "Q668687", "collection_times": "Mo-Fr 15:45; Sa 13:15", "name": "USPS COLLECTION BOX - BLUE BOX", "note": "ON 12/24 AND 12/31, THIS BOX MAY BE COLLECTED AS EARLY AS 12 NOON.", "nsi_id": "unitedstatespostalservice-a77078", "operator": "United States Postal Service", "operator:short": "USPS", "operator:type": "public", "operator:wikidata": "Q668687", "ref": "8951100001"}, "type": "Feature"}
{"dataset_attributes": {"@spider": "usps_collection_boxes", "spider:collection_time": "2023-09-10T08:22:19.197986"}, "geometry": {"coordinates": [-119.775224, 39.456637], "type": "Point"}, "id": "Y9mDj9Tfqz3cCKKk-HSQW_1fd0g=", "properties": {"@spider": "usps_collection_boxes", "addr:city": "RENO", "addr:country": "US", "addr:full": "695 E PATRIOT BLVD", "addr:postcode": "89511", "addr:state": "NV", "amenity": "post_box", "brand": "United States Postal Service", "brand:wikidata": "Q668687", "collection_times": "Mo-Fr 15:45; Sa 13:00", "name": "USPS COLLECTION BOX - BLUE BOX", "note": "ON 12/24 AND 12/31, THIS BOX MAY BE COLLECTED AS EARLY AS 12 NOON.", "nsi_id": "unitedstatespostalservice-a77078", "operator": "United States Postal Service", "operator:short": "USPS", "operator:type": "public", "operator:wikidata": "Q668687", "ref": "8951100004"}, "type": "Feature"}
{"dataset_attributes": {"@spider": "usps_collection_boxes", "spider:collection_time": "2023-09-10T08:22:19.197986"}, "geometry": {"coordinates": [-119.779074, 39.452616], "type": "Point"}, "id": "7KMEp96Ubkoa4Cr7bJMx_V1SROk=", "properties": {"@spider": "usps_collection_boxes", "addr:city": "RENO", "addr:country": "US", "addr:full": "8175 S VIRGINIA ST", "addr:postcode": "89511", "addr:state": "NV", "amenity": "post_box", "brand": "United States Postal Service", "brand:wikidata": "Q668687", "collection_times": "Mo-Fr 15:00; Sa 12:45", "name": "USPS COLLECTION BOX - BLUE BOX", "note": "ON 12/24 AND 12/31, THIS BOX MAY BE COLLECTED AS EARLY AS 12 NOON.", "nsi_id": "unitedstatespostalservice-a77078", "operator": "United States Postal Service", "operator:short": "USPS", "operator:type": "public", "operator:wikidata": "Q668687", "ref": "8951100006"}, "type": "Feature"}
{"dataset_attributes": {"@spider": "usps_collection_boxes", "spider:collection_time": "2023-09-10T08:22:19.197986"}, "geometry": {"coordinates": [-119.765579, 39.474465], "type": "Point"}, "id": "7YJCrMDPql9PHnE6Pfnq_FcW6bw=", "properties": {"@spider": "usps_collection_boxes", "addr:city": "RENO", "addr:country": "US", "addr:full": "5301 LOUIE LN", "addr:postcode": "89511", "addr:state": "NV", "amenity": "post_box", "brand": "United States Postal Service", "brand:wikidata": "Q668687", "collection_times": "Mo-Fr 15:45; Sa 13:15", "name": "USPS COLLECTION BOX - EXPRESS", "note": "ON 12/24 AND 12/31, THIS BOX MAY BE COLLECTED AS EARLY AS 12 NOON.", "nsi_id": "unitedstatespostalservice-a77078", "operator": "United States Postal Service", "operator:short": "USPS", "operator:type": "public", "operator:wikidata": "Q668687", "ref": "8951100009"}, "type": "Feature"}
{"dataset_attributes": {"@spider": "usps_collection_boxes", "spider:collection_time": "2023-09-10T08:22:19.197986"}, "geometry": {"coordinates": [-119.765611, 39.47446], "type": "Point"}, "id": "11LO2li_hFnUFPa31Sqf7FYbEQo=", "properties": {"@spider": "usps_collection_boxes", "addr:city": "RENO", "addr:country": "US", "addr:full": "5301 LOUIE LN", "addr:postcode": "89511", "addr:state": "NV", "amenity": "post_box", "brand": "United States Postal Service", "brand:wikidata": "Q668687", "collection_times": "Mo-Fr 15:45; Sa 13:15", "name": "USPS COLLECTION BOX - BLUE BOX", "note": "ON 12/24 AND 12/31, THIS BOX MAY BE COLLECTED AS EARLY AS 12 NOON.", "nsi_id": "unitedstatespostalservice-a77078", "operator": "United States Postal Service", "operator:short": "USPS", "operator:type": "public", "operator:wikidata": "Q668687", "ref": "8951100010"}, "type": "Feature"}
{"dataset_attributes": {"@spider": "usps_collection_boxes", "spider:collection_time": "2023-09-10T08:22:19.197986"}, "geometry": {"coordinates": [-119.771032, 39.453498], "type": "Point"}, "id": "McgTtE0RFN9weF8IQ94cA1xcTT4=", "properties": {"@spider": "usps_collection_boxes", "addr:city": "RENO", "addr:country": "US", "addr:full": "8000 OFFENHAUSER DR", "addr:postcode": "89511", "addr:state": "NV", "amenity": "post_box", "brand": "United States Postal Service", "brand:wikidata": "Q668687", "collection_times": "Mo-Fr 15:45; Sa 13:30", "name": "USPS COLLECTION BOX - BLUE BOX", "note": "ON 12/24 AND 12/31, THIS BOX MAY BE COLLECTED AS EARLY AS 12 NOON.", "nsi_id": "unitedstatespostalservice-a77078", "operator": "United States Postal Service", "operator:short": "USPS", "operator:type": "public", "operator:wikidata": "Q668687", "ref": "8951100016"}, "type": "Feature"}
{"dataset_attributes": {"@spider": "usps_collection_boxes", "spider:collection_time": "2023-09-10T08:22:19.197986"}, "geometry": {"coordinates": [-119.763401, 39.42643], "type": "Point"}, "id": "p6VLnOVC55ATZvqpWPbSfUli4Ps=", "properties": {"@spider": "usps_collection_boxes", "addr:city": "RENO", "addr:country": "US", "addr:full": "75 MCCABE DR", "addr:postcode": "89511", "addr:state": "NV", "amenity": "post_box", "brand": "United States Postal Service", "brand:wikidata": "Q668687", "collection_times": "Mo-Fr 17:00; Sa 14:45", "name": "USPS COLLECTION BOX - BLUE BOX", "note": "ON 12/24 AND 12/31, THIS BOX MAY BE COLLECTED AS EARLY AS 12 NOON.", "nsi_id": "unitedstatespostalservice-a77078", "operator": "United States Postal Service", "operator:short": "USPS", "operator:type": "public", "operator:wikidata": "Q668687", "ref": "8951100017"}, "type": "Feature"}
{"dataset_attributes": {"@spider": "usps_collection_boxes", "spider:collection_time": "2023-09-10T08:22:19.197986"}, "geometry": {"coordinates": [-119.763412, 39.426407], "type": "Point"}, "id": "uRmE5FBZWk26vuXVLjejd4KCeoQ=", "properties": {"@spider": "usps_collection_boxes", "addr:city": "RENO", "addr:country": "US", "addr:full": "75 MCCABE DR", "addr:postcode": "89511", "addr:state": "NV", "amenity": "post_box", "brand": "United States Postal Service", "brand:wikidata": "Q668687", "collection_times": "Mo-Fr 17:00; Sa 14:45", "name": "USPS COLLECTION BOX - BLUE BOX", "note": "ON 12/24 AND 12/31, THIS BOX MAY BE COLLECTED AS EARLY AS 12 NOON.", "nsi_id": "unitedstatespostalservice-a77078", "operator": "United States Postal Service", "operator:short": "USPS", "operator:type": "public", "operator:wikidata": "Q668687", "ref": "8951100018"}, "type": "Feature"}
{"dataset_attributes": {"@spider": "usps_collection_boxes", "spider:collection_time": "2023-09-10T08:22:19.197986"}, "geometry": {"coordinates": [-119.762432, 39.426604], "type": "Point"}, "id": "bMHwZbREQM8PtHgDvo4okPEwNZA=", "properties": {"@spider": "usps_collection_boxes", "addr:city": "RENO", "addr:country": "US", "addr:full": "75 MCCABE DR", "addr:postcode": "89511", "addr:state": "NV", "amenity": "post_box", "brand": "United States Postal Service", "brand:wikidata": "Q668687", "collection_times": "Mo-Fr 17:30; Sa 14:45", "name": "USPS COLLECTION BOX - PO LOBBY", "note": "ON 12/24 AND 12/31, THIS BOX MAY BE COLLECTED AS EARLY AS 12 NOON.", "nsi_id": "unitedstatespostalservice-a77078", "operator": "United States Postal Service", "operator:short": "USPS", "operator:type": "public", "operator:wikidata": "Q668687", "ref": "8951100021"}, "type": "Feature"}
{"dataset_attributes": {"@spider": "usps_collection_boxes", "spider:collection_time": "2023-09-10T08:22:19.197986"}, "geometry": {"coordinates": [-119.791406, 39.469925], "type": "Point"}, "id": "PygMzORXG4SHaspBIIVWj_BoC0c=", "properties": {"@spider": "usps_collection_boxes", "addr:city": "RENO", "addr:country": "US", "addr:full": "5340 KIETZKE LN", "addr:postcode": "89511", "addr:state": "NV", "amenity": "post_box", "brand": "United States Postal Service", "brand:wikidata": "Q668687", "collection_times": "Mo-Fr 14:45", "name": "USPS COLLECTION BOX - BLUE BOX", "note": "ON 12/24 AND 12/31, THIS BOX MAY BE COLLECTED AS EARLY AS 12 NOON.", "nsi_id": "unitedstatespostalservice-a77078", "operator": "United States Postal Service", "operator:short": "USPS", "operator:type": "public", "operator:wikidata": "Q668687", "ref": "8951100022"}, "type": "Feature"}
{"dataset_attributes": {"@spider": "usps_collection_boxes", "spider:collection_time": "2023-09-10T08:22:19.197986"}, "geometry": {"coordinates": [-119.763412, 39.42642], "type": "Point"}, "id": "6RKX_VsdoNMEQ5n5n86-r-jKqjY=", "properties": {"@spider": "usps_collection_boxes", "addr:city": "RENO", "addr:country": "US", "addr:full": "75 MCCABE DR", "addr:postcode": "89511", "addr:state": "NV", "amenity": "post_box", "brand": "United States Postal Service", "brand:wikidata": "Q668687", "collection_times": "Mo-Fr 17:00; Sa 14:45", "name": "USPS COLLECTION BOX - BLUE BOX", "note": "ON 12/24 AND 12/31, THIS BOX MAY BE COLLECTED AS EARLY AS 12 NOON.", "nsi_id": "unitedstatespostalservice-a77078", "operator": "United States Postal Service", "operator:short": "USPS", "operator:type": "public", "operator:wikidata": "Q668687", "ref": "8951100023"}, "type": "Feature"}
{"dataset_attributes": {"@spider": "usps_collection_boxes", "spider:collection_time": "2023-09-10T08:22:19.197986"}, "geometry": {"coordinates": [-119.763418, 39.426429], "type": "Point"}, "id": "2kuX04bq_lhvh9fSgvG3FQiictw=", "properties": {"@spider": "usps_collection_boxes", "addr:city": "RENO", "addr:country": "US", "addr:full": "75 MCCABE DR", "addr:postcode": "89511", "addr:state": "NV", "amenity": "post_box", "brand": "United States Postal Service", "brand:wikidata": "Q668687", "collection_times": "Mo-Fr 17:00; Sa 14:45", "name": "USPS COLLECTION BOX - BLUE BOX", "note": "ON 12/24 AND 12/31, THIS BOX MAY BE COLLECTED AS EARLY AS 12 NOON.", "nsi_id": "unitedstatespostalservice-a77078", "operator": "United States Postal Service", "operator:short": "USPS", "operator:type": "public", "operator:wikidata": "Q668687", "ref": "8951100024"}, "type": "Feature"}
{"dataset_attributes": {"@spider": "usps_collection_boxes", "spider:collection_time": "2023-09-10T08:22:19.197986"}, "geometry": {"coordinates": [-119.762432, 39.426604], "type": "Point"}, "id": "n-gE_o-EQQ3nL7bNJ1dJnKZbQco=", "properties": {"@spider": "usps_collection_boxes", "addr:city": "RENO", "addr:country": "US", "addr:full": "75 MCCABE DR", "addr:postcode": "89511", "addr:state": "NV", "amenity": "post_box", "brand": "United States Postal Service", "brand:wikidata": "Q668687", "collection_times": "Mo-Fr 17:30; Sa 14:45", "name": "USPS COLLECTION BOX - APC", "note": "ON 12/24 AND 12/31, THIS BOX MAY BE COLLECTED AS EARLY AS 12 NOON.", "nsi_id": "unitedstatespostalservice-a77078", "operator": "United States Postal Service", "operator:short": "USPS", "operator:type": "public", "operator:wikidata": "Q668687", "ref": "8951100025"}, "type": "Feature"}
{"dataset_attributes": {"@spider": "usps_collection_boxes", "spider:collection_time": "2023-09-10T08:22:19.197986"}, "geometry": {"coordinates": [-119.762249, 39.441748], "type": "Point"}, "id": "1Ywyi-cGGB0J7bUtL7Lnwsr5KMY=", "properties": {"@spider": "usps_collection_boxes", "addr:city": "RENO", "addr:country": "US", "addr:full": "590 DOUBLE EAGLE BLVD", "addr:postcode": "89511", "addr:state": "NV", "amenity": "post_box", "brand": "United States Postal Service", "brand:wikidata": "Q668687", "collection_times": "Mo-Fr 15:15", "name": "USPS COLLECTION BOX - BLUE BOX", "note": "ON 12/24 AND 12/31, THIS BOX MAY BE COLLECTED AS EARLY AS 12 NOON.", "nsi_id": "unitedstatespostalservice-a77078", "operator": "United States Postal Service", "operator:short": "USPS", "operator:type": "public", "operator:wikidata": "Q668687", "ref": "8951100027"}, "type": "Feature"}
{"dataset_attributes": {"@spider": "usps_collection_boxes", "spider:collection_time": "2023-09-10T08:22:19.197986"}, "geometry": {"coordinates": [-119.7578869945, 39.4326470184], "type": "Point"}, "id": "mEaMhcAVwdwSXgNptmyVQnOciLY=", "properties": {"@spider": "usps_collection_boxes", "addr:city": "RENO", "addr:country": "US", "addr:full": "10315 PROFESSIONAL CIR", "addr:postcode": "89511", "addr:state": "NV", "amenity": "post_box", "brand": "United States Postal Service", "brand:wikidata": "Q668687", "collection_times": "Mo-Fr 15:15", "name": "USPS COLLECTION BOX - BLUE BOX", "note": "ON 12/24 AND 12/31, THIS BOX MAY BE COLLECTED AS EARLY AS 12 NOON.", "nsi_id": "unitedstatespostalservice-a77078", "operator": "United States Postal Service", "operator:short": "USPS", "operator:type": "public", "operator:wikidata": "Q668687", "ref": "8951100028"}, "type": "Feature"}
{"dataset_attributes": {"@spider": "usps_collection_boxes", "spider:collection_time": "2023-09-10T08:22:19.197986"}, "geometry": {"coordinates": [-119.763770809, 39.42628496], "type": "Point"}, "id": "bto4p5RN8EA_StQNR3my76OUhrI=", "properties": {"@spider": "usps_collection_boxes", "addr:city": "RENO", "addr:country": "US", "addr:full": "75 MCCABE DR", "addr:postcode": "89511", "addr:state": "NV", "amenity": "post_box", "brand": "United States Postal Service", "brand:wikidata": "Q668687", "collection_times": "Mo-Fr 17:30; Sa 15:00", "name": "USPS COLLECTION BOX - PO LOBBY", "note": "ON 12/24 AND 12/31, THIS BOX MAY BE COLLECTED AS EARLY AS 12 NOON.", "nsi_id": "unitedstatespostalservice-a77078", "operator": "United States Postal Service", "operator:short": "USPS", "operator:type": "public", "operator:wikidata": "Q668687", "ref": "8951100036"}, "type": "Feature"}
{"dataset_attributes": {"@spider": "usps_collection_boxes", "spider:collection_time": "2023-09-10T08:22:19.197986"}, "geometry": {"coordinates": [-119.800496, 39.534815], "type": "Point"}, "id": "PnuK3KnagiZB_ivJFxMB3hsd_yo=", "properties": {"@spider": "usps_collection_boxes", "addr:city": "RENO", "addr:country": "US", "addr:full": "1001 E 6TH ST", "addr:postcode": "89512", "addr:state": "NV", "amenity": "post_box", "brand": "United States Postal Service", "brand:wikidata": "Q668687", "collection_times": "Mo-Fr 14:30; Sa 12:00", "name": "USPS COLLECTION BOX - BLUE BOX", "note": "ON 12/24 AND 12/31, THIS BOX MAY BE COLLECTED AS EARLY AS 12 NOON.", "nsi_id": "unitedstatespostalservice-a77078", "operator": "United States Postal Service", "operator:short": "USPS", "operator:type": "public", "operator:wikidata": "Q668687", "ref": "8951200001"}, "type": "Feature"}
{"dataset_attributes": {"@spider": "usps_collection_boxes", "spider:collection_time": "2023-09-10T08:22:19.197986"}, "geometry": {"coordinates": [-119.783682, 39.542965], "type": "Point"}, "id": "DB2g-2QzUARugCZytVPuNXkHqxA=", "properties": {"@spider": "usps_collection_boxes", "addr:city": "RENO", "addr:country": "US", "addr:full": "1400 SILVERADA BLVD", "addr:postcode": "89512", "addr:state": "NV", "amenity": "post_box", "brand": "United States Postal Service", "brand:wikidata": "Q668687", "collection_times": "Mo-Fr 14:30; Sa 12:00", "name": "USPS COLLECTION BOX - BLUE BOX", "note": "ON 12/24 AND 12/31, THIS BOX MAY BE COLLECTED AS EARLY AS 12 NOON.", "nsi_id": "unitedstatespostalservice-a77078", "operator": "United States Postal Service", "operator:short": "USPS", "operator:type": "public", "operator:wikidata": "Q668687", "ref": "8951200007"}, "type": "Feature"}
{"dataset_attributes": {"@spider": "usps_collection_boxes", "spider:collection_time": "2023-09-10T08:22:19.197986"}, "geometry": {"coordinates": [-119.801794, 39.538671], "type": "Point"}, "id": "cBT8rZ_v06rXrAkgYbpewpgqxM0=", "properties": {"@spider": "usps_collection_boxes", "addr:city": "RENO", "addr:country": "US", "addr:full": "1001 E 9TH ST", "addr:postcode": "89512", "addr:state": "NV", "amenity": "post_box", "brand": "United States Postal Service", "brand:wikidata": "Q668687", "collection_times": "Mo-Fr 14:30", "name": "USPS COLLECTION BOX - BLUE BOX", "note": "ON 12/24 AND 12/31, THIS BOX MAY BE COLLECTED AS EARLY AS 12 NOON.", "nsi_id": "unitedstatespostalservice-a77078", "operator": "United States Postal Service", "operator:short": "USPS", "operator:type": "public", "operator:wikidata": "Q668687", "ref": "8951200008"}, "type": "Feature"}
{"dataset_attributes": {"@spider": "usps_collection_boxes", "spider:collection_time": "2023-09-10T08:22:19.197986"}, "geometry": {"coordinates": [-119.810999008, 39.573839004], "type": "Point"}, "id": "R0n_j8Uz672ZNF-mSO7-5adyp10=", "properties": {"@spider": "usps_collection_boxes", "addr:city": "RENO", "addr:country": "US", "addr:full": "911 E PARR BLVD", "addr:postcode": "89512", "addr:state": "NV", "amenity": "post_box", "brand": "United States Postal Service", "brand:wikidata": "Q668687", "collection_times": "Mo-Fr 16:15; Sa 12:15", "name": "USPS COLLECTION BOX - BLUE BOX", "note": "ON 12/24 AND 12/31, THIS BOX MAY BE COLLECTED AS EARLY AS 12 NOON.", "nsi_id": "unitedstatespostalservice-a77078", "operator": "United States Postal Service", "operator:short": "USPS", "operator:type": "public", "operator:wikidata": "Q668687", "ref": "8951200012"}, "type": "Feature"}
{"dataset_attributes": {"@spider": "usps_collection_boxes", "spider:collection_time": "2023-09-10T08:22:19.197986"}, "geometry": {"coordinates": [-119.859202, 39.500758], "type": "Point"}, "id": "ZU3T7s6hxTCId78J7j76Do_zwIU=", "properties": {"@spider": "usps_collection_boxes", "addr:city": "RENO", "addr:country": "US", "addr:full": "1000 CAUGHLIN XING", "addr:postcode": "89519", "addr:state": "NV", "amenity": "post_box", "brand": "United States Postal Service", "brand:wikidata": "Q668687", "collection_times": "Mo-Fr 15:30; Sa 14:30", "name": "USPS COLLECTION BOX - BLUE BOX", "note": "ON 12/24 AND 12/31, THIS BOX MAY BE COLLECTED AS EARLY AS 12 NOON.", "nsi_id": "unitedstatespostalservice-a77078", "operator": "United States Postal Service", "operator:short": "USPS", "operator:type": "public", "operator:wikidata": "Q668687", "ref": "8951900001"}, "type": "Feature"}
{"dataset_attributes": {"@spider": "usps_collection_boxes", "spider:collection_time": "2023-09-10T08:22:19.197986"}, "geometry": {"coordinates": [-119.853951, 39.483268], "type": "Point"}, "id": "M6sMzMSYtDZ1o8VlPA3SdxnCs7Y=", "properties": {"@spider": "usps_collection_boxes", "addr:city": "RENO", "addr:country": "US", "addr:full": "4788 CAUGHLIN PKWY", "addr:postcode": "89519", "addr:state": "NV", "amenity": "post_box", "brand": "United States Postal Service", "brand:wikidata": "Q668687", "collection_times": "Mo-Fr 15:30; Sa 14:30", "name": "USPS COLLECTION BOX - BLUE BOX", "note": "ON 12/24 AND 12/31, THIS BOX MAY BE COLLECTED AS EARLY AS 12 NOON.", "nsi_id": "unitedstatespostalservice-a77078", "operator": "United States Postal Service", "operator:short": "USPS", "operator:type": "public", "operator:wikidata": "Q668687", "ref": "8951900002"}, "type": "Feature"}
{"dataset_attributes": {"@spider": "usps_collection_boxes", "spider:collection_time": "2023-09-10T08:22:19.197986"}, "geometry": {"coordinates": [-119.8112588637, 39.4721634024], "type": "Point"}, "id": "eOlc5ck211aUznXD0h6UOjG2hDs=", "properties": {"@spider": "usps_collection_boxes", "addr:city": "RENO", "addr:country": "US", "addr:full": "6110 PLUMAS ST", "addr:postcode": "89519", "addr:state": "NV", "amenity": "post_box", "brand": "United States Postal Service", "brand:wikidata": "Q668687", "collection_times": "Mo-Fr 14:30; Sa 12:30", "name": "USPS COLLECTION BOX - BLUE BOX", "note": "ON 12/24 AND 12/31, THIS BOX MAY BE COLLECTED AS EARLY AS 12 NOON.", "nsi_id": "unitedstatespostalservice-a77078", "operator": "United States Postal Service", "operator:short": "USPS", "operator:type": "public", "operator:wikidata": "Q668687", "ref": "8951900003"}, "type": "Feature"}
{"dataset_attributes": {"@spider": "usps_collection_boxes", "spider:collection_time": "2023-09-10T08:22:19.197986"}, "geometry": {"coordinates": [-119.808777, 39.472238], "type": "Point"}, "id": "-JKEbsUZDTcIYy29tR3Ue308jxw=", "properties": {"@spider": "usps_collection_boxes", "addr:city": "RENO", "addr:country": "US", "addr:full": "1025 RIDGEVIEW DR", "addr:postcode": "89519", "addr:state": "NV", "amenity": "post_box", "brand": "United States Postal Service", "brand:wikidata": "Q668687", "collection_times": "Mo-Fr 14:15; Sa 12:30", "name": "USPS COLLECTION BOX - BLUE BOX", "note": "ON 12/24 AND 12/31, THIS BOX MAY BE COLLECTED AS EARLY AS 12 NOON.", "nsi_id": "unitedstatespostalservice-a77078", "operator": "United States Postal Service", "operator:short": "USPS", "operator:type": "public", "operator:wikidata": "Q668687", "ref": "8951900005"}, "type": "Feature"}
{"dataset_attributes": {"@spider": "usps_collection_boxes", "spider:collection_time": "2023-09-10T08:22:19.197986"}, "geometry": {"coordinates": [-119.8091709985, 39.4724890122], "type": "Point"}, "id": "T2DxnUsqCaYE_FRB1FqkYAFTIJs=", "properties": {"@spider": "usps_collection_boxes", "addr:city": "RENO", "addr:country": "US", "addr:full": "1025 RIDGEVIEW DR", "addr:postcode": "89519", "addr:state": "NV", "amenity": "post_box", "brand": "United States Postal Service", "brand:wikidata": "Q668687", "collection_times": "Mo-Fr 14:15; Sa 12:30", "name": "USPS COLLECTION BOX - EXPRESS", "note": "ON 12/24 AND 12/31, THIS BOX MAY BE COLLECTED AS EARLY AS 12 NOON.", "nsi_id": "unitedstatespostalservice-a77078", "operator": "United States Postal Service", "operator:short": "USPS", "operator:type": "public", "operator:wikidata": "Q668687", "ref": "8951900006"}, "type": "Feature"}
{"dataset_attributes": {"@spider": "usps_collection_boxes", "spider:collection_time": "2023-09-10T08:22:19.197986"}, "geometry": {"coordinates": [-119.759766, 39.445363], "type": "Point"}, "id": "tSqbh6z7UnH1CSpKqEOwozcZMMg=", "properties": {"@spider": "usps_collection_boxes", "addr:city": "RENO", "addr:country": "US", "addr:full": "912 SANDHILL RD", "addr:postcode": "89521", "addr:state": "NV", "amenity": "post_box", "brand": "United States Postal Service", "brand:wikidata": "Q668687", "collection_times": "Mo-Fr 15:30", "name": "USPS COLLECTION BOX - BLUE BOX", "note": "ON 12/24 AND 12/31, THIS BOX MAY BE COLLECTED AS EARLY AS 12 NOON.", "nsi_id": "unitedstatespostalservice-a77078", "operator": "United States Postal Service", "operator:short": "USPS", "operator:type": "public", "operator:wikidata": "Q668687", "ref": "8952100001"}, "type": "Feature"}
{"dataset_attributes": {"@spider": "usps_collection_boxes", "spider:collection_time": "2023-09-10T08:22:19.197986"}, "geometry": {"coordinates": [-119.867117, 39.531364], "type": "Point"}, "id": "b0eDj71BzGtDdlPckSuiLC3QsPA=", "properties": {"@spider": "usps_collection_boxes", "addr:city": "RENO", "addr:country": "US", "addr:full": "5150 MAE ANNE AVE", "addr:postcode": "89523", "addr:state": "NV", "amenity": "post_box", "brand": "United States Postal Service", "brand:wikidata": "Q668687", "collection_times": "Mo-Fr 17:15; Sa 13:30", "name": "USPS COLLECTION BOX - BLUE BOX", "note": "ON 12/24 AND 12/31, THIS BOX MAY BE COLLECTED AS EARLY AS 12 NOON.", "nsi_id": "unitedstatespostalservice-a77078", "operator": "United States Postal Service", "operator:short": "USPS", "operator:type": "public", "operator:wikidata": "Q668687", "ref": "8952300001"}, "type": "Feature"}
{"dataset_attributes": {"@spider": "usps_collection_boxes", "spider:collection_time": "2023-09-10T08:22:19.197986"}, "geometry": {"coordinates": [-119.869379, 39.534171], "type": "Point"}, "id": "5rE0xeQ4jnFCXyn-VI84Yk_agVo=", "properties": {"@spider": "usps_collection_boxes", "addr:city": "RENO", "addr:country": "US", "addr:full": "2005 SIERRA HIGHLANDS DR", "addr:postcode": "89523", "addr:state": "NV", "amenity": "post_box", "brand": "United States Postal Service", "brand:wikidata": "Q668687", "collection_times": "Mo-Fr 17:15", "name": "USPS COLLECTION BOX - BLUE BOX", "note": "ON 12/24 AND 12/31, THIS BOX MAY BE COLLECTED AS EARLY AS 12 NOON.", "nsi_id": "unitedstatespostalservice-a77078", "operator": "United States Postal Service", "operator:short": "USPS", "operator:type": "public", "operator:wikidata": "Q668687", "ref": "8952300002"}, "type": "Feature"}
{"dataset_attributes": {"@spider": "usps_collection_boxes", "spider:collection_time": "2023-09-10T08:22:19.197986"}, "geometry": {"coordinates": [-119.878999, 39.527915], "type": "Point"}, "id": "kwBtcnW56-mF4IeK_VHbtKM8Tu8=", "properties": {"@spider": "usps_collection_boxes", "addr:city": "RENO", "addr:country": "US", "addr:full": "1580 GRAND POINT WAY", "addr:postcode": "89523", "addr:state": "NV", "amenity": "post_box", "brand": "United States Postal Service", "brand:wikidata": "Q668687", "collection_times": "Mo-Fr 17:15; Sa 15:45", "name": "USPS COLLECTION BOX - BLUE BOX", "note": "ON 12/24 AND 12/31, THIS BOX MAY BE COLLECTED AS EARLY AS 12 NOON.", "nsi_id": "unitedstatespostalservice-a77078", "operator": "United States Postal Service", "operator:short": "USPS", "operator:type": "public", "operator:wikidata": "Q668687", "ref": "8952300007"}, "type": "Feature"}
{"dataset_attributes": {"@spider": "usps_collection_boxes", "spider:collection_time": "2023-09-10T08:22:19.197986"}, "geometry": {"coordinates": [-119.879899, 39.526447], "type": "Point"}, "id": "OUV8mKJTQu4SU-0I9Z77i0uYda4=", "properties": {"@spider": "usps_collection_boxes", "addr:city": "RENO", "addr:country": "US", "addr:full": "1580 GRAND POINT WAY", "addr:postcode": "89523", "addr:state": "NV", "amenity": "post_box", "brand": "United States Postal Service", "brand:wikidata": "Q668687", "collection_times": "Mo-Fr 17:30; Sa 15:45", "name": "USPS COLLECTION BOX - PO LOBBY", "note": "ON 12/24 AND 12/31, THIS BOX MAY BE COLLECTED AS EARLY AS 12 NOON.", "nsi_id": "unitedstatespostalservice-a77078", "operator": "United States Postal Service", "operator:short": "USPS", "operator:type": "public", "operator:wikidata": "Q668687", "ref": "8952300009"}, "type": "Feature"}
{"dataset_attributes": {"@spider": "usps_collection_boxes", "spider:collection_time": "2023-09-10T08:22:19.197986"}, "geometry": {"coordinates": [-119.879003, 39.527912], "type": "Point"}, "id": "4gnG_aJ47Nuig5hYrAm2T5rvTmY=", "properties": {"@spider": "usps_collection_boxes", "addr:city": "RENO", "addr:country": "US", "addr:full": "1580 GRAND POINT WAY", "addr:postcode": "89523", "addr:state": "NV", "amenity": "post_box", "brand": "United States Postal Service", "brand:wikidata": "Q668687", "collection_times": "Mo-Fr 17:15; Sa 15:45", "name": "USPS COLLECTION BOX - BLUE BOX", "note": "ON 12/24 AND 12/31, THIS BOX MAY BE COLLECTED AS EARLY AS 12 NOON.", "nsi_id": "unitedstatespostalservice-a77078", "operator": "United States Postal Service", "operator:short": "USPS", "operator:type": "public", "operator:wikidata": "Q668687", "ref": "8952300010"}, "type": "Feature"}
{"dataset_attributes": {"@spider": "usps_collection_boxes", "spider:collection_time": "2023-09-10T08:22:19.197986"}, "geometry": {"coordinates": [-119.879002, 39.527932], "type": "Point"}, "id": "d2FFujK5_S5-1LBvo18cxiil3tQ=", "properties": {"@spider": "usps_collection_boxes", "addr:city": "RENO", "addr:country": "US", "addr:full": "1580 GRAND POINT WAY", "addr:postcode": "89523", "addr:state": "NV", "amenity": "post_box", "brand": "United States Postal Service", "brand:wikidata": "Q668687", "collection_times": "Mo-Fr 17:15; Sa 15:45", "name": "USPS COLLECTION BOX - EXPRESS", "note": "ON 12/24 AND 12/31, THIS BOX MAY BE COLLECTED AS EARLY AS 12 NOON.", "nsi_id": "unitedstatespostalservice-a77078", "operator": "United States Postal Service", "operator:short": "USPS", "operator:type": "public", "operator:wikidata": "Q668687", "ref": "8952300011"}, "type": "Feature"}
{"dataset_attributes": {"@spider": "usps_collection_boxes", "spider:collection_time": "2023-09-10T08:22:19.197986"}, "geometry": {"coordinates": [-119.96252, 39.51152], "type": "Point"}, "id": "B24CPqOSg48Vmj0-1wj_VRVLKa4=", "properties": {"@spider": "usps_collection_boxes", "addr:city": "RENO", "addr:country": "US", "addr:full": "0 GARSON RD", "addr:postcode": "89523", "addr:state": "NV", "amenity": "post_box", "brand": "United States Postal Service", "brand:wikidata": "Q668687", "collection_times": "Mo-Fr 15:00; Sa 14:15", "name": "USPS COLLECTION BOX - BLUE BOX", "note": "ON 12/24 AND 12/31, THIS BOX MAY BE COLLECTED AS EARLY AS 12 NOON.", "nsi_id": "unitedstatespostalservice-a77078", "operator": "United States Postal Service", "operator:short": "USPS", "operator:type": "public", "operator:wikidata": "Q668687", "ref": "8952300012"}, "type": "Feature"}
{"dataset_attributes": {"@spider": "usps_collection_boxes", "spider:collection_time": "2023-09-10T08:22:19.197986"}, "geometry": {"coordinates": [-119.896672, 39.504845], "type": "Point"}, "id": "MkhkFfVhvUmDr0weq2bXm5dlzic=", "properties": {"@spider": "usps_collection_boxes", "addr:city": "RENO", "addr:country": "US", "addr:full": "120 WOODLAND AVE", "addr:postcode": "89523", "addr:state": "NV", "amenity": "post_box", "brand": "United States Postal Service", "brand:wikidata": "Q668687", "collection_times": "Mo-Fr 15:15", "name": "USPS COLLECTION BOX - BLUE BOX", "note": "ON 12/24 AND 12/31, THIS BOX MAY BE COLLECTED AS EARLY AS 12 NOON.", "nsi_id": "unitedstatespostalservice-a77078", "operator": "United States Postal Service", "operator:short": "USPS", "operator:type": "public", "operator:wikidata": "Q668687", "ref": "8952300015"}, "type": "Feature"}
{"dataset_attributes": {"@spider": "usps_collection_boxes", "spider:collection_time": "2023-09-10T08:22:19.197986"}, "geometry": {"coordinates": [-119.879870673, 39.526381291], "type": "Point"}, "id": "P6_iMaiHs-wGL9UtNzqvA4pE70U=", "properties": {"@spider": "usps_collection_boxes", "addr:city": "RENO", "addr:country": "US", "addr:full": "1580 GRAND POINT WAY", "addr:postcode": "89523", "addr:state": "NV", "amenity": "post_box", "brand": "United States Postal Service", "brand:wikidata": "Q668687", "collection_times": "Mo-Fr 17:15; Sa 15:45", "name": "USPS COLLECTION BOX - BLUE BOX", "note": "ON 12/24 AND 12/31, THIS BOX MAY BE COLLECTED AS EARLY AS 12 NOON.", "nsi_id": "unitedstatespostalservice-a77078", "operator": "United States Postal Service", "operator:short": "USPS", "operator:type": "public", "operator:wikidata": "Q668687", "ref": "8952300016"}, "type": "Feature"}
{"dataset_attributes": {"@spider": "usps_collection_boxes", "spider:collection_time": "2023-09-10T08:22:19.197986"}, "geometry": {"coordinates": [-119.879870673, 39.526381291], "type": "Point"}, "id": "8BZTK9fSrYARTK1_A4D2mv3cHkk=", "properties": {"@spider": "usps_collection_boxes", "addr:city": "RENO", "addr:country": "US", "addr:full": "1580 GRAND POINT WAY", "addr:postcode": "89523", "addr:state": "NV", "amenity": "post_box", "brand": "United States Postal Service", "brand:wikidata": "Q668687", "collection_times": "Mo-Fr 17:30; Sa 15:00", "name": "USPS COLLECTION BOX - PO LOBBY", "note": "ON 12/24 AND 12/31, THIS BOX MAY BE COLLECTED AS EARLY AS 12 NOON.", "nsi_id": "unitedstatespostalservice-a77078", "operator": "United States Postal Service", "operator:short": "USPS", "operator:type": "public", "operator:wikidata": "Q668687", "ref": "8952300020"}, "type": "Feature"}
