{"geometry": {"coordinates": [-119.731482, 39.175671], "type": "Point"}, "id": "SFX6ZKk6I9zS9kDczwJdfrcHfDc=", "properties": {"@source_uri": "https://tools.usps.com/UspsToolsRestServices/rest/POLocator/findLocations", "@spider": "usps_collection_boxes", "addr:city": "CARSON CITY", "addr:country": "US", "addr:postcode": "89701", "addr:state": "NV", "addr:street_address": "3325 US HIGHWAY 50 E", "amenity": "post_box", "collection_times": "Mo-Fr 14:00; Sa 13:40", "note": "ON 12/24 AND 12/31, THIS BOX MAY BE COLLECTED AS EARLY AS 12 NOON.", "nsi_id": "unitedstatespostalservice-a77078", "operator": "United States Postal Service", "operator:short": "USPS", "operator:type": "public", "operator:wikidata": "Q668687", "ref": "8970100005"}, "type": "Feature"}
{"geometry": {"coordinates": [-119.759254, 39.16449], "type": "Point"}, "id": "zvcAFLhCyj8go02KUoFQpnjS_No=", "properties": {"@source_uri": "https://tools.usps.com/UspsToolsRestServices/rest/POLocator/findLocations", "@spider": "usps_collection_boxes", "addr:city": "CARSON CITY", "addr:country": "US", "addr:postcode": "89701", "addr:state": "NV", "addr:street_address": "901 E MUSSER ST", "amenity": "post_box", "collection_times": "Mo-Fr 12:00", "nsi_id": "unitedstatespostalservice-a77078", "operator": "United States Postal Service", "operator:short": "USPS", "operator:type": "public", "operator:wikidata": "Q668687", "ref": "8970100006"}, "type": "Feature"}
{"geometry": {"coordinates": [-119.7585415373, 39.1713291589], "type": "Point"}, "id": "z8G1J-5XLwn2SjP0pIu6k4mPqRM=", "properties": {"@source_uri": "https://tools.usps.com/UspsToolsRestServices/rest/POLocator/findLocations", "@spider": "usps_collection_boxes", "addr:city": "CARSON CITY", "addr:country": "US", "addr:postcode": "89701", "addr:state": "NV", "addr:street_address": "1050 E WILLIAM ST", "amenity": "post_box", "collection_times": "Mo-Sa 13:00", "note": "ON 12/24 AND 12/31, THIS BOX MAY BE COLLECTED AS EARLY AS 12 NOON.", "nsi_id": "unitedstatespostalservice-a77078", "operator": "United States Postal Service", "operator:short": "USPS", "operator:type": "public", "operator:wikidata": "Q668687", "ref": "8970100008"}, "type": "Feature"}
{"geometry": {"coordinates": [-119.763378, 39.154636], "type": "Point"}, "id": "L1xvQiRNbOjGjIOS5D_Yk81iKqc=", "properties": {"@source_uri": "https://tools.usps.com/UspsToolsRestServices/rest/POLocator/findLocations", "@spider": "usps_collection_boxes", "addr:city": "CARSON CITY", "addr:country": "US", "addr:postcode": "89701", "addr:state": "NV", "addr:street_address": "555 WRIGHT WAY", "amenity": "post_box", "collection_times": "Mo-Fr 13:30", "note": "ON 12/24 AND 12/31, THIS BOX MAY BE COLLECTED AS EARLY AS 12 NOON.", "nsi_id": "unitedstatespostalservice-a77078", "operator": "United States Postal Service", "operator:short": "USPS", "operator:type": "public", "operator:wikidata": "Q668687", "ref": "8970100013"}, "type": "Feature"}
{"geometry": {"coordinates": [-119.758181, 39.1707], "type": "Point"}, "id": "sYzPx_X_DyWP2U6Wg7PRiJ9v-k8=", "properties": {"@source_uri": "https://tools.usps.com/UspsToolsRestServices/rest/POLocator/findLocations", "@spider": "usps_collection_boxes", "addr:city": "CARSON CITY", "addr:country": "US", "addr:postcode": "89701", "addr:state": "NV", "addr:street_address": "1050 HIGHWAY 50 E", "amenity": "post_box", "collection_times": "Mo-Sa 13:00", "name": "USPS COLLECTION BOX - EXPRESS", "note": "ON 12/24 AND 12/31, THIS BOX MAY BE COLLECTED AS EARLY AS 12 NOON.", "nsi_id": "unitedstatespostalservice-a77078", "operator": "United States Postal Service", "operator:short": "USPS", "operator:type": "public", "operator:wikidata": "Q668687", "ref": "8970100014"}, "type": "Feature"}
{"geometry": {"coordinates": [-119.770029323, 39.131951817], "type": "Point"}, "id": "TWI7PSEvAcVGPvQG-0NhoBCB3FA=", "properties": {"@source_uri": "https://tools.usps.com/UspsToolsRestServices/rest/POLocator/findLocations", "@spider": "usps_collection_boxes", "addr:city": "CARSON CITY", "addr:country": "US", "addr:postcode": "89701", "addr:state": "NV", "addr:street_address": "3871 S CARSON ST", "amenity": "post_box", "collection_times": "Mo-Fr 13:30; Sa 13:15", "note": "ON 12/24 AND 12/31, THIS BOX MAY BE COLLECTED AS EARLY AS 12 NOON.", "nsi_id": "unitedstatespostalservice-a77078", "operator": "United States Postal Service", "operator:short": "USPS", "operator:type": "public", "operator:wikidata": "Q668687", "ref": "8970100019"}, "type": "Feature"}
{"geometry": {"coordinates": [-119.7604195866, 39.15652391], "type": "Point"}, "id": "4mEhOLrECHIGw1vY1rXItwqBSUE=", "properties": {"@source_uri": "https://tools.usps.com/UspsToolsRestServices/rest/POLocator/findLocations", "@spider": "usps_collection_boxes", "addr:city": "CARSON CITY", "addr:country": "US", "addr:postcode": "89701", "addr:state": "NV", "addr:street_address": "1111 S ROOP ST", "amenity": "post_box", "collection_times": "Mo-Fr 17:00; Sa 16:00", "note": "ON 12/24 AND 12/31, THIS BOX MAY BE COLLECTED AS EARLY AS 12 NOON.", "nsi_id": "unitedstatespostalservice-a77078", "operator": "United States Postal Service", "operator:short": "USPS", "operator:type": "public", "operator:wikidata": "Q668687", "ref": "8970100027"}, "type": "Feature"}
{"geometry": {"coordinates": [-119.761207, 39.157292], "type": "Point"}, "id": "ftS6S1qoKKEUxCYz4IzmGfliJB8=", "properties": {"@source_uri": "https://tools.usps.com/UspsToolsRestServices/rest/POLocator/findLocations", "@spider": "usps_collection_boxes", "addr:city": "CARSON CITY", "addr:country": "US", "addr:postcode": "89701", "addr:state": "NV", "addr:street_address": "1111 S ROOP ST", "amenity": "post_box", "collection_times": "Mo-Fr 17:00; Sa 16:00", "indoor": "yes", "note": "ON 12/24 AND 12/31, THIS BOX MAY BE COLLECTED AS EARLY AS 12 NOON.", "nsi_id": "unitedstatespostalservice-a77078", "operator": "United States Postal Service", "operator:short": "USPS", "operator:type": "public", "operator:wikidata": "Q668687", "ref": "8970100031"}, "type": "Feature"}
{"geometry": {"coordinates": [-119.77212, 39.127442], "type": "Point"}, "id": "F6cYX4pYZn_QqUTUlWHI92MHuiQ=", "properties": {"@source_uri": "https://tools.usps.com/UspsToolsRestServices/rest/POLocator/findLocations", "@spider": "usps_collection_boxes", "addr:city": "CARSON CITY", "addr:country": "US", "addr:postcode": "89701", "addr:state": "NV", "addr:street_address": "4348 S CARSON ST", "amenity": "post_box", "collection_times": "Mo-Fr 14:00; Sa 13:00", "note": "ON 12/24 AND 12/31, THIS BOX MAY BE COLLECTED AS EARLY AS 12 NOON.", "nsi_id": "unitedstatespostalservice-a77078", "operator": "United States Postal Service", "operator:short": "USPS", "operator:type": "public", "operator:wikidata": "Q668687", "ref": "8970100039"}, "type": "Feature"}
{"geometry": {"coordinates": [-119.763202, 39.156148], "type": "Point"}, "id": "e62M8DNQk_ekuCQ7FFQfFoTTYZs=", "properties": {"@source_uri": "https://tools.usps.com/UspsToolsRestServices/rest/POLocator/findLocations", "@spider": "usps_collection_boxes", "addr:city": "CARSON CITY", "addr:country": "US", "addr:postcode": "89701", "addr:state": "NV", "addr:street_address": "1263 S STEWART ST", "amenity": "post_box", "collection_times": "Mo-Fr 13:30", "note": "ON 12/24 AND 12/31, THIS BOX MAY BE COLLECTED AS EARLY AS 12 NOON.", "nsi_id": "unitedstatespostalservice-a77078", "operator": "United States Postal Service", "operator:short": "USPS", "operator:type": "public", "operator:wikidata": "Q668687", "ref": "8970100040"}, "type": "Feature"}
{"geometry": {"coordinates": [-119.766269, 39.165166], "type": "Point"}, "id": "JAA_VY8KvUi2BcAB3MCinAX1mjA=", "properties": {"@source_uri": "https://tools.usps.com/UspsToolsRestServices/rest/POLocator/findLocations", "@spider": "usps_collection_boxes", "addr:city": "CARSON CITY", "addr:country": "US", "addr:postcode": "89701", "addr:state": "NV", "addr:street_address": "201 N CARSON ST", "amenity": "post_box", "collection_times": "Mo-Fr 14:00", "note": "ON 12/24 AND 12/31, THIS BOX MAY BE COLLECTED AS EARLY AS 12 NOON.", "nsi_id": "unitedstatespostalservice-a77078", "operator": "United States Postal Service", "operator:short": "USPS", "operator:type": "public", "operator:wikidata": "Q668687", "ref": "8970100041"}, "type": "Feature"}
{"geometry": {"coordinates": [-119.766732, 39.178468], "type": "Point"}, "id": "eB0ACSH1qFHTxLrVA_bvS-Z4LQo=", "properties": {"@source_uri": "https://tools.usps.com/UspsToolsRestServices/rest/POLocator/findLocations", "@spider": "usps_collection_boxes", "addr:city": "CARSON CITY", "addr:country": "US", "addr:postcode": "89701", "addr:state": "NV", "addr:street_address": "1987 N CARSON ST", "amenity": "post_box", "collection_times": "Mo-Sa 12:30", "note": "ON 12/24 AND 12/31, THIS BOX MAY BE COLLECTED AS EARLY AS 12 NOON.", "nsi_id": "unitedstatespostalservice-a77078", "operator": "United States Postal Service", "operator:short": "USPS", "operator:type": "public", "operator:wikidata": "Q668687", "ref": "8970100043"}, "type": "Feature"}
{"geometry": {"coordinates": [-119.762467, 39.169373], "type": "Point"}, "id": "crB6148y2c7C-zvCzegmrwyD6zM=", "properties": {"@source_uri": "https://tools.usps.com/UspsToolsRestServices/rest/POLocator/findLocations", "@spider": "usps_collection_boxes", "addr:city": "CARSON CITY", "addr:country": "US", "addr:postcode": "89701", "addr:state": "NV", "addr:street_address": "599 E WILLIAM ST", "amenity": "post_box", "collection_times": "Mo-Sa 11:30", "nsi_id": "unitedstatespostalservice-a77078", "operator": "United States Postal Service", "operator:short": "USPS", "operator:type": "public", "operator:wikidata": "Q668687", "ref": "8970100048"}, "type": "Feature"}
{"geometry": {"coordinates": [-119.764943, 39.168385], "type": "Point"}, "id": "EHuJ0uVS-JRx9msBQgzGwcf36N4=", "properties": {"@source_uri": "https://tools.usps.com/UspsToolsRestServices/rest/POLocator/findLocations", "@spider": "usps_collection_boxes", "addr:city": "CARSON CITY", "addr:country": "US", "addr:postcode": "89701", "addr:state": "NV", "addr:street_address": "311 E WASHINGTON ST", "amenity": "post_box", "collection_times": "Mo-Fr 13:00", "note": "ON 12/24 AND 12/31, THIS BOX MAY BE COLLECTED AS EARLY AS 12 NOON.", "nsi_id": "unitedstatespostalservice-a77078", "operator": "United States Postal Service", "operator:short": "USPS", "operator:type": "public", "operator:wikidata": "Q668687", "ref": "8970100050"}, "type": "Feature"}
{"geometry": {"coordinates": [-119.761207, 39.157292], "type": "Point"}, "id": "SsUIycVpbYuGqOYClKwG3GBQJAI=", "properties": {"@source_uri": "https://tools.usps.com/UspsToolsRestServices/rest/POLocator/findLocations", "@spider": "usps_collection_boxes", "addr:city": "CARSON CITY", "addr:country": "US", "addr:postcode": "89701", "addr:state": "NV", "addr:street_address": "1111 S ROOP ST", "amenity": "post_box", "collection_times": "Mo-Fr 17:00; Sa 16:00", "note": "ON 12/24 AND 12/31, THIS BOX MAY BE COLLECTED AS EARLY AS 12 NOON.", "nsi_id": "unitedstatespostalservice-a77078", "operator": "United States Postal Service", "operator:short": "USPS", "operator:type": "public", "operator:wikidata": "Q668687", "ref": "8970100051"}, "type": "Feature"}
{"geometry": {"coordinates": [-119.761207, 39.157292], "type": "Point"}, "id": "Dt8PQ8p7zWEbuiOt7iz_7-Bjt2c=", "properties": {"@source_uri": "https://tools.usps.com/UspsToolsRestServices/rest/POLocator/findLocations", "@spider": "usps_collection_boxes", "addr:city": "CARSON CITY", "addr:country": "US", "addr:postcode": "89701", "addr:state": "NV", "addr:street_address": "1111 S ROOP ST", "amenity": "post_box", "collection_times": "Mo-Fr 17:00; Sa 16:00", "name": "USPS COLLECTION BOX - APC", "note": "ON 12/24 AND 12/31, THIS BOX MAY BE COLLECTED AS EARLY AS 12 NOON.", "nsi_id": "unitedstatespostalservice-a77078", "operator": "United States Postal Service", "operator:short": "USPS", "operator:type": "public", "operator:wikidata": "Q668687", "ref": "8970100053"}, "type": "Feature"}
{"geometry": {"coordinates": [-119.777641, 39.112196], "type": "Point"}, "id": "nRm9MpEVQTvYdwaIk16mvVcRfJA=", "properties": {"@source_uri": "https://tools.usps.com/UspsToolsRestServices/rest/POLocator/findLocations", "@spider": "usps_collection_boxes", "addr:city": "CARSON CITY", "addr:country": "US", "addr:postcode": "89701", "addr:state": "NV", "addr:street_address": "3770 US HIGHWAY 395 S", "amenity": "post_box", "collection_times": "Mo-Fr 13:30; Sa 13:00", "note": "ON 12/24 AND 12/31, THIS BOX MAY BE COLLECTED AS EARLY AS 12 NOON.", "nsi_id": "unitedstatespostalservice-a77078", "operator": "United States Postal Service", "operator:short": "USPS", "operator:type": "public", "operator:wikidata": "Q668687", "ref": "8970100054"}, "type": "Feature"}
{"geometry": {"coordinates": [-119.760385, 39.1613], "type": "Point"}, "id": "f5Er8T_2GeFdWZKRZwe_grkDWGk=", "properties": {"@source_uri": "https://tools.usps.com/UspsToolsRestServices/rest/POLocator/findLocations", "@spider": "usps_collection_boxes", "addr:city": "CARSON CITY", "addr:country": "US", "addr:postcode": "89701", "addr:state": "NV", "addr:street_address": "1201 MOUNTAIN ST", "amenity": "post_box", "collection_times": "Mo-Fr 14:00; Sa 13:30", "note": "ON 12/24 AND 12/31, THIS BOX MAY BE COLLECTED AS EARLY AS 12 NOON.", "nsi_id": "unitedstatespostalservice-a77078", "operator": "United States Postal Service", "operator:short": "USPS", "operator:type": "public", "operator:wikidata": "Q668687", "ref": "8970100055"}, "type": "Feature"}
{"geometry": {"coordinates": [-119.75825, 39.187797], "type": "Point"}, "id": "Hq5viUOcoHC5OvX6pvW0MChQH-I=", "properties": {"@source_uri": "https://tools.usps.com/UspsToolsRestServices/rest/POLocator/findLocations", "@spider": "usps_collection_boxes", "addr:city": "CARSON CITY", "addr:country": "US", "addr:postcode": "89701", "addr:state": "NV", "addr:street_address": "3200 MARKET ST", "amenity": "post_box", "collection_times": "Mo-Sa 14:00", "note": "ON 12/24 AND 12/31, THIS BOX MAY BE COLLECTED AS EARLY AS 12 NOON.", "nsi_id": "unitedstatespostalservice-a77078", "operator": "United States Postal Service", "operator:short": "USPS", "operator:type": "public", "operator:wikidata": "Q668687", "ref": "8970100056"}, "type": "Feature"}
{"geometry": {"coordinates": [-119.76117859, 39.156345168], "type": "Point"}, "id": "OPtmp_m2n4TGAFbsPmd-wtXWF0Y=", "properties": {"@source_uri": "https://tools.usps.com/UspsToolsRestServices/rest/POLocator/findLocations", "@spider": "usps_collection_boxes", "addr:city": "CARSON CITY", "addr:country": "US", "addr:postcode": "89701", "addr:state": "NV", "addr:street_address": "1111 S ROOP ST", "amenity": "post_box", "collection_times": "Mo-Fr 17:00; Sa 13:00", "indoor": "yes", "note": "ON 12/24 AND 12/31, THIS BOX MAY BE COLLECTED AS EARLY AS 12 NOON.", "nsi_id": "unitedstatespostalservice-a77078", "operator": "United States Postal Service", "operator:short": "USPS", "operator:type": "public", "operator:wikidata": "Q668687", "ref": "8970100061"}, "type": "Feature"}
{"geometry": {"coordinates": [-119.760385, 39.1613], "type": "Point"}, "id": "Ken7L9ztdl48fZDKopizgNFnyu4=", "properties": {"@source_uri": "https://tools.usps.com/UspsToolsRestServices/rest/POLocator/findLocations", "@spider": "usps_collection_boxes", "addr:city": "CARSON CITY", "addr:country": "US", "addr:postcode": "89701", "addr:state": "NV", "addr:street_address": "510 STAFFORD WAY", "amenity": "post_box", "collection_times": "Mo-Fr 11:30", "nsi_id": "unitedstatespostalservice-a77078", "operator": "United States Postal Service", "operator:short": "USPS", "operator:type": "public", "operator:wikidata": "Q668687", "ref": "8970100062"}, "type": "Feature"}
{"geometry": {"coordinates": [-119.760385, 39.1613], "type": "Point"}, "id": "AmzDeRcuAFMEljwyut5E-qZAkpo=", "properties": {"@source_uri": "https://tools.usps.com/UspsToolsRestServices/rest/POLocator/findLocations", "@spider": "usps_collection_boxes", "addr:city": "CARSON CITY", "addr:country": "US", "addr:postcode": "89701", "addr:state": "NV", "addr:street_address": "103 N CURRY ST", "amenity": "post_box", "collection_times": "Mo-Fr 14:00", "note": "ON 12/24 AND 12/31, THIS BOX MAY BE COLLECTED AS EARLY AS 12 NOON.", "nsi_id": "unitedstatespostalservice-a77078", "operator": "United States Postal Service", "operator:short": "USPS", "operator:type": "public", "operator:wikidata": "Q668687", "ref": "8970100063"}, "type": "Feature"}
{"geometry": {"coordinates": [-119.7677926685, 39.1652774687], "type": "Point"}, "id": "cmlB5BXHU8gvijlRtinCPpKtFX0=", "properties": {"@source_uri": "https://tools.usps.com/UspsToolsRestServices/rest/POLocator/findLocations", "@spider": "usps_collection_boxes", "addr:city": "CARSON CITY", "addr:country": "US", "addr:postcode": "89703", "addr:state": "NV", "addr:street_address": "303 N CURRY ST", "amenity": "post_box", "collection_times": "Mo-Fr 14:00; Sa 13:30", "note": "ON 12/24 AND 12/31, THIS BOX MAY BE COLLECTED AS EARLY AS 12 NOON.", "nsi_id": "unitedstatespostalservice-a77078", "operator": "United States Postal Service", "operator:short": "USPS", "operator:type": "public", "operator:wikidata": "Q668687", "ref": "8970300001"}, "type": "Feature"}
{"geometry": {"coordinates": [-119.769487, 39.175472], "type": "Point"}, "id": "iEKTDubzgFZM_DboWygCYeFr17U=", "properties": {"@source_uri": "https://tools.usps.com/UspsToolsRestServices/rest/POLocator/findLocations", "@spider": "usps_collection_boxes", "addr:city": "CARSON CITY", "addr:country": "US", "addr:postcode": "89703", "addr:state": "NV", "addr:street_address": "1718 N DIVISION ST", "amenity": "post_box", "collection_times": "Mo-Fr 14:00", "note": "ON 12/24 AND 12/31, THIS BOX MAY BE COLLECTED AS EARLY AS 12 NOON.", "nsi_id": "unitedstatespostalservice-a77078", "operator": "United States Postal Service", "operator:short": "USPS", "operator:type": "public", "operator:wikidata": "Q668687", "ref": "8970300004"}, "type": "Feature"}
{"geometry": {"coordinates": [-119.76956, 39.169955], "type": "Point"}, "id": "fpHmm6ycstFuYMbnEzng1uVUjI8=", "properties": {"@source_uri": "https://tools.usps.com/UspsToolsRestServices/rest/POLocator/findLocations", "@spider": "usps_collection_boxes", "addr:city": "CARSON CITY", "addr:country": "US", "addr:postcode": "89703", "addr:state": "NV", "addr:street_address": "1000 N DIVISION ST", "amenity": "post_box", "collection_times": "Mo-Fr 14:00", "note": "ON 12/24 AND 12/31, THIS BOX MAY BE COLLECTED AS EARLY AS 12 NOON.", "nsi_id": "unitedstatespostalservice-a77078", "operator": "United States Postal Service", "operator:short": "USPS", "operator:type": "public", "operator:wikidata": "Q668687", "ref": "8970300007"}, "type": "Feature"}
{"geometry": {"coordinates": [-119.767978, 39.155998], "type": "Point"}, "id": "nrXMtfVnL1_Gpb32RRfjB0sGHls=", "properties": {"@source_uri": "https://tools.usps.com/UspsToolsRestServices/rest/POLocator/findLocations", "@spider": "usps_collection_boxes", "addr:city": "CARSON CITY", "addr:country": "US", "addr:postcode": "89703", "addr:state": "NV", "addr:street_address": "1300 S CURRY ST", "amenity": "post_box", "collection_times": "Mo-Fr 13:30", "note": "ON 12/24 AND 12/31, THIS BOX MAY BE COLLECTED AS EARLY AS 12 NOON.", "nsi_id": "unitedstatespostalservice-a77078", "operator": "United States Postal Service", "operator:short": "USPS", "operator:type": "public", "operator:wikidata": "Q668687", "ref": "8970300009"}, "type": "Feature"}
{"geometry": {"coordinates": [-119.783203, 39.201622], "type": "Point"}, "id": "gGFmrjCMlgeU2vyhuYALVc5wPfo=", "properties": {"@source_uri": "https://tools.usps.com/UspsToolsRestServices/rest/POLocator/findLocations", "@spider": "usps_collection_boxes", "addr:city": "CARSON CITY", "addr:country": "US", "addr:postcode": "89703", "addr:state": "NV", "addr:street_address": "1600 MEDICAL PKWY", "amenity": "post_box", "collection_times": "Mo-Fr 14:00", "note": "ON 12/24 AND 12/31, THIS BOX MAY BE COLLECTED AS EARLY AS 12 NOON.", "nsi_id": "unitedstatespostalservice-a77078", "operator": "United States Postal Service", "operator:short": "USPS", "operator:type": "public", "operator:wikidata": "Q668687", "ref": "8970300015"}, "type": "Feature"}
{"geometry": {"coordinates": [-119.772082, 39.186471], "type": "Point"}, "id": "K2kMhdNH0PHGl2vMlWQ-wZ_ZQUE=", "properties": {"@source_uri": "https://tools.usps.com/UspsToolsRestServices/rest/POLocator/findLocations", "@spider": "usps_collection_boxes", "addr:city": "CARSON CITY", "addr:country": "US", "addr:postcode": "89703", "addr:state": "NV", "addr:street_address": "600 W NYE LN", "amenity": "post_box", "collection_times": "Mo-Fr 14:00", "note": "ON 12/24 AND 12/31, THIS BOX MAY BE COLLECTED AS EARLY AS 12 NOON.", "nsi_id": "unitedstatespostalservice-a77078", "operator": "United States Postal Service", "operator:short": "USPS", "operator:type": "public", "operator:wikidata": "Q668687", "ref": "8970300016"}, "type": "Feature"}
{"geometry": {"coordinates": [-119.77341, 39.163925], "type": "Point"}, "id": "xm7VOpelfRPefC4IwsNGZrDIMqg=", "properties": {"@source_uri": "https://tools.usps.com/UspsToolsRestServices/rest/POLocator/findLocations", "@spider": "usps_collection_boxes", "addr:city": "CARSON CITY", "addr:country": "US", "addr:postcode": "89703", "addr:state": "NV", "addr:street_address": "310 W WASHINGTON ST", "amenity": "post_box", "collection_times": "Mo-Fr 14:00", "note": "ON 12/24 AND 12/31, THIS BOX MAY BE COLLECTED AS EARLY AS 12 NOON.", "nsi_id": "unitedstatespostalservice-a77078", "operator": "United States Postal Service", "operator:short": "USPS", "operator:type": "public", "operator:wikidata": "Q668687", "ref": "8970300017"}, "type": "Feature"}
{"geometry": {"coordinates": [-119.769503977, 39.2907339797], "type": "Point"}, "id": "ysAou36FsMxTySzArkOfwwzg-TY=", "properties": {"@source_uri": "https://tools.usps.com/UspsToolsRestServices/rest/POLocator/findLocations", "@spider": "usps_collection_boxes", "addr:city": "CARSON CITY", "addr:country": "US", "addr:postcode": "89704", "addr:state": "NV", "addr:street_address": "3225 EASTLAKE BLVD", "amenity": "post_box", "collection_times": "Mo-Sa 11:00", "nsi_id": "unitedstatespostalservice-a77078", "operator": "United States Postal Service", "operator:short": "USPS", "operator:type": "public", "operator:wikidata": "Q668687", "ref": "8970400000"}, "type": "Feature"}
{"geometry": {"coordinates": [-119.775215, 39.091155], "type": "Point"}, "id": "9LUamGsjUlMbTGNFYPiF4bnqe0Y=", "properties": {"@source_uri": "https://tools.usps.com/UspsToolsRestServices/rest/POLocator/findLocations", "@spider": "usps_collection_boxes", "addr:city": "CARSON CITY", "addr:country": "US", "addr:postcode": "89705", "addr:state": "NV", "addr:street_address": "915 MICA DR", "amenity": "post_box", "collection_times": "Mo-Fr 14:00", "note": "ON 12/24 AND 12/31, THIS BOX MAY BE COLLECTED AS EARLY AS 12 NOON.", "nsi_id": "unitedstatespostalservice-a77078", "operator": "United States Postal Service", "operator:short": "USPS", "operator:type": "public", "operator:wikidata": "Q668687", "ref": "8970500002"}, "type": "Feature"}
{"geometry": {"coordinates": [-119.67539, 39.211592], "type": "Point"}, "id": "z7LXj2EL6ebz_yAoTo78zeXqgmQ=", "properties": {"@source_uri": "https://tools.usps.com/UspsToolsRestServices/rest/POLocator/findLocations", "@spider": "usps_collection_boxes", "addr:city": "CARSON CITY", "addr:country": "US", "addr:postcode": "89706", "addr:state": "NV", "addr:street_address": "103 HIGHLAND DR", "amenity": "post_box", "collection_times": "Mo-Fr 11:00", "nsi_id": "unitedstatespostalservice-a77078", "operator": "United States Postal Service", "operator:short": "USPS", "operator:type": "public", "operator:wikidata": "Q668687", "ref": "8970600000"}, "type": "Feature"}
{"geometry": {"coordinates": [-119.65264, 39.219941], "type": "Point"}, "id": "LVl5oqre8SVbwXXQwwHmsnB7tXs=", "properties": {"@source_uri": "https://tools.usps.com/UspsToolsRestServices/rest/POLocator/findLocations", "@spider": "usps_collection_boxes", "addr:city": "CARSON CITY", "addr:country": "US", "addr:postcode": "89706", "addr:state": "NV", "addr:street_address": "103 AFFONSO DR", "amenity": "post_box", "collection_times": "Mo-Fr 12:30", "note": "ON 12/24 AND 12/31, THIS BOX MAY BE COLLECTED AS EARLY AS 12 NOON.", "nsi_id": "unitedstatespostalservice-a77078", "operator": "United States Postal Service", "operator:short": "USPS", "operator:type": "public", "operator:wikidata": "Q668687", "ref": "8970600001"}, "type": "Feature"}
{"geometry": {"coordinates": [-119.772436, 39.190994], "type": "Point"}, "id": "I21Y458e9jWSxvu7jdyQkVVuOuY=", "properties": {"@source_uri": "https://tools.usps.com/UspsToolsRestServices/rest/POLocator/findLocations", "@spider": "usps_collection_boxes", "addr:city": "CARSON CITY", "addr:country": "US", "addr:postcode": "89706", "addr:state": "NV", "addr:street_address": "3701 N CARSON ST", "amenity": "post_box", "collection_times": "Mo-Sa 13:30", "note": "ON 12/24 AND 12/31, THIS BOX MAY BE COLLECTED AS EARLY AS 12 NOON.", "nsi_id": "unitedstatespostalservice-a77078", "operator": "United States Postal Service", "operator:short": "USPS", "operator:type": "public", "operator:wikidata": "Q668687", "ref": "8970600002"}, "type": "Feature"}
{"geometry": {"coordinates": [-119.766279, 39.179821], "type": "Point"}, "id": "Aj86rByv-EhDX1lmz4o31R6B9KM=", "properties": {"@source_uri": "https://tools.usps.com/UspsToolsRestServices/rest/POLocator/findLocations", "@spider": "usps_collection_boxes", "addr:city": "CARSON CITY", "addr:country": "US", "addr:postcode": "89706", "addr:state": "NV", "addr:street_address": "2209 N CARSON ST", "amenity": "post_box", "collection_times": "Mo-Sa 13:30", "note": "ON 12/24 AND 12/31, THIS BOX MAY BE COLLECTED AS EARLY AS 12 NOON.", "nsi_id": "unitedstatespostalservice-a77078", "operator": "United States Postal Service", "operator:short": "USPS", "operator:type": "public", "operator:wikidata": "Q668687", "ref": "8970600011"}, "type": "Feature"}
{"geometry": {"coordinates": [-119.765950981, 39.183813], "type": "Point"}, "id": "Xwv-zI3k3PkE00d2Ap2iF9azYuI=", "properties": {"@source_uri": "https://tools.usps.com/UspsToolsRestServices/rest/POLocator/findLocations", "@spider": "usps_collection_boxes", "addr:city": "CARSON CITY", "addr:country": "US", "addr:postcode": "89706", "addr:state": "NV", "addr:street_address": "2621 NORTHGATE LN", "amenity": "post_box", "collection_times": "Mo-Fr 12:30", "note": "ON 12/24 AND 12/31, THIS BOX MAY BE COLLECTED AS EARLY AS 12 NOON.", "nsi_id": "unitedstatespostalservice-a77078", "operator": "United States Postal Service", "operator:short": "USPS", "operator:type": "public", "operator:wikidata": "Q668687", "ref": "8970600012"}, "type": "Feature"}
{"geometry": {"coordinates": [-119.716798, 39.183935], "type": "Point"}, "id": "RP3XTv0TQAi_M4tb1Cnav6CbjEk=", "properties": {"@source_uri": "https://tools.usps.com/UspsToolsRestServices/rest/POLocator/findLocations", "@spider": "usps_collection_boxes", "addr:city": "CARSON CITY", "addr:country": "US", "addr:postcode": "89706", "addr:state": "NV", "addr:street_address": "2613 EMPIRE RANCH RD", "amenity": "post_box", "collection_times": "Mo-Fr 17:00; Sa 13:30", "indoor": "yes", "note": "ON 12/24 AND 12/31, THIS BOX MAY BE COLLECTED AS EARLY AS 12 NOON.", "nsi_id": "unitedstatespostalservice-a77078", "operator": "United States Postal Service", "operator:short": "USPS", "operator:type": "public", "operator:wikidata": "Q668687", "ref": "8970600013"}, "type": "Feature"}
{"geometry": {"coordinates": [-119.747939, 39.188116], "type": "Point"}, "id": "DC9BWUUEucFQH2lJ7Buw4N_FqYo=", "properties": {"@source_uri": "https://tools.usps.com/UspsToolsRestServices/rest/POLocator/findLocations", "@spider": "usps_collection_boxes", "addr:city": "CARSON CITY", "addr:country": "US", "addr:postcode": "89706", "addr:state": "NV", "addr:street_address": "3251 GONI RD", "amenity": "post_box", "collection_times": "Mo-Fr 13:30", "note": "ON 12/24 AND 12/31, THIS BOX MAY BE COLLECTED AS EARLY AS 12 NOON.", "nsi_id": "unitedstatespostalservice-a77078", "operator": "United States Postal Service", "operator:short": "USPS", "operator:type": "public", "operator:wikidata": "Q668687", "ref": "8970600018"}, "type": "Feature"}
{"geometry": {"coordinates": [-119.774206, 39.18745], "type": "Point"}, "id": "w4ITkyGfO9-xLA3m_FM45j0nQH0=", "properties": {"@source_uri": "https://tools.usps.com/UspsToolsRestServices/rest/POLocator/findLocations", "@spider": "usps_collection_boxes", "addr:city": "CARSON CITY", "addr:country": "US", "addr:postcode": "89706", "addr:state": "NV", "addr:street_address": "3246 N CARSON ST", "amenity": "post_box", "collection_times": "Mo-Sa 14:00", "note": "ON 12/24 AND 12/31, THIS BOX MAY BE COLLECTED AS EARLY AS 12 NOON.", "nsi_id": "unitedstatespostalservice-a77078", "operator": "United States Postal Service", "operator:short": "USPS", "operator:type": "public", "operator:wikidata": "Q668687", "ref": "8970600019"}, "type": "Feature"}
{"geometry": {"coordinates": [-119.717067, 39.183983], "type": "Point"}, "id": "K-S5hZ9R9ugbT0Cz-Ot868iNn2U=", "properties": {"@source_uri": "https://tools.usps.com/UspsToolsRestServices/rest/POLocator/findLocations", "@spider": "usps_collection_boxes", "addr:city": "CARSON CITY", "addr:country": "US", "addr:postcode": "89706", "addr:state": "NV", "addr:street_address": "2613 EMPIRE RANCH RD", "amenity": "post_box", "collection_times": "Mo-Fr 17:00; Sa 13:30", "note": "ON 12/24 AND 12/31, THIS BOX MAY BE COLLECTED AS EARLY AS 12 NOON.", "nsi_id": "unitedstatespostalservice-a77078", "operator": "United States Postal Service", "operator:short": "USPS", "operator:type": "public", "operator:wikidata": "Q668687", "ref": "8970600021"}, "type": "Feature"}
{"geometry": {"coordinates": [-119.717059, 39.183958], "type": "Point"}, "id": "rqzWgIHpLKrBZcddwhzhFVX8-MI=", "properties": {"@source_uri": "https://tools.usps.com/UspsToolsRestServices/rest/POLocator/findLocations", "@spider": "usps_collection_boxes", "addr:city": "CARSON CITY", "addr:country": "US", "addr:postcode": "89706", "addr:state": "NV", "addr:street_address": "2613 EMPIRE RANCH RD", "amenity": "post_box", "collection_times": "Mo-Fr 17:00; Sa 13:30", "note": "ON 12/24 AND 12/31, THIS BOX MAY BE COLLECTED AS EARLY AS 12 NOON.", "nsi_id": "unitedstatespostalservice-a77078", "operator": "United States Postal Service", "operator:short": "USPS", "operator:type": "public", "operator:wikidata": "Q668687", "ref": "8970600022"}, "type": "Feature"}
