{"geometry": {"coordinates": [-114.671817, 41.979597], "type": "Point"}, "id": "FPIeLS8C_iwf7Fkex2rMpylXPwY=", "properties": {"@spider": "usps_collection_boxes", "addr:city": "JACKPOT", "addr:country": "US", "addr:full": "1925 GURLEY DR", "addr:postcode": "89825", "addr:state": "NV", "brand": "USPS", "collection_times": "Mo-Fr 12:30; Sa 11:45", "name": "USPS COLLECTION BOX - BLUE BOX", "note": "ON 12/24 AND 12/31, THIS BOX MAY BE COLLECTED AS EARLY AS 12 NOON.", "ref": "8982500001"}, "type": "Feature"}
{"geometry": {"coordinates": [-114.671879, 41.97957], "type": "Point"}, "id": "LrZ7BSVhYsJW7OQSmLqEA7uNZtQ=", "properties": {"@spider": "usps_collection_boxes", "addr:city": "JACKPOT", "addr:country": "US", "addr:full": "1925 GURLEY DR", "addr:postcode": "89825", "addr:state": "NV", "brand": "USPS", "collection_times": "Mo-Fr 12:30; Sa 11:45", "name": "USPS COLLECTION BOX - PO LOBBY", "note": "ON 12/24 AND 12/31, THIS BOX MAY BE COLLECTED AS EARLY AS 12 NOON.", "ref": "8982500002"}, "type": "Feature"}
{"geometry": {"coordinates": [-115.96429, 41.836464], "type": "Point"}, "id": "-dVCfDJ3KBxw-tHz2LIqoBc2v4I=", "properties": {"@spider": "usps_collection_boxes", "addr:city": "MOUNTAIN CITY", "addr:country": "US", "addr:full": "519 DAVIDSON ST", "addr:postcode": "89831", "addr:state": "NV", "brand": "USPS", "collection_times": "Mo-Fr 13:15; Sa 12:45", "name": "USPS COLLECTION BOX - PO LOBBY", "note": "ON 12/24 AND 12/31, THIS BOX MAY BE COLLECTED AS EARLY AS 12 NOON.", "ref": "8983100000"}, "type": "Feature"}
{"geometry": {"coordinates": [-115.9642638882, 41.8364546929], "type": "Point"}, "id": "eiSzkFALAXCZRxx8UoNxQZOr5c8=", "properties": {"@spider": "usps_collection_boxes", "addr:city": "MOUNTAIN CITY", "addr:country": "US", "addr:full": "519 DAVIDSON ST", "addr:postcode": "89831", "addr:state": "NV", "brand": "USPS", "collection_times": "Mo-Fr 13:15; Sa 12:45", "name": "USPS COLLECTION BOX - BLUE BOX", "note": "ON 12/24 AND 12/31, THIS BOX MAY BE COLLECTED AS EARLY AS 12 NOON.", "ref": "8983100001"}, "type": "Feature"}
{"geometry": {"coordinates": [-116.0962335027, 41.941486504], "type": "Point"}, "id": "I3s6dBP--k8iRYYksiUsj9LftjI=", "properties": {"@spider": "usps_collection_boxes", "addr:city": "OWYHEE", "addr:country": "US", "addr:full": "23830 NV STATE HWY 225", "addr:postcode": "89832", "addr:state": "NV", "brand": "USPS", "collection_times": "Mo-Sa 12:00", "name": "USPS COLLECTION BOX - BLUE BOX", "ref": "8983200000"}, "type": "Feature"}
{"geometry": {"coordinates": [-116.102024134, 41.953743776], "type": "Point"}, "id": "R8Ebqt0b7oMw4gn0GcM0p20JzX8=", "properties": {"@spider": "usps_collection_boxes", "addr:city": "OWYHEE", "addr:country": "US", "addr:full": "23830 NV STATE HWY 225", "addr:postcode": "89832", "addr:state": "NV", "brand": "USPS", "collection_times": "Mo-Sa 12:00", "name": "USPS COLLECTION BOX - PO LOBBY", "ref": "8983200001"}, "type": "Feature"}
{"geometry": {"coordinates": [-116.0962335027, 41.941486504], "type": "Point"}, "id": "f-5MR0hM8jIPGDdWzgS4cqd6Q2k=", "properties": {"@spider": "usps_collection_boxes", "addr:city": "OWYHEE", "addr:country": "US", "addr:full": "23830 NV STATE HWY 225", "addr:postcode": "89832", "addr:state": "NV", "brand": "USPS", "collection_times": "Mo-Fr 13:00; Sa 12:00", "name": "USPS COLLECTION BOX - PO LOBBY", "note": "ON 12/24 AND 12/31, THIS BOX MAY BE COLLECTED AS EARLY AS 12 NOON.", "ref": "8983200002"}, "type": "Feature"}
