{"geometry": {"coordinates": [-118.352934, 33.963005], "type": "Point"}, "id": "oxYeTvPivh-eBVJ5cFwWqUOaC7Y=", "properties": {"@source_uri": "https://tools.usps.com/UspsToolsRestServices/rest/POLocator/findLocations", "@spider": "usps_collection_boxes", "addr:city": "INGLEWOOD", "addr:country": "US", "addr:postcode": "90301", "addr:state": "CA", "addr:street_address": "110 S LA BREA AVE", "amenity": "post_box", "brand": "United States Postal Service", "brand:wikidata": "Q668687", "collection_times": "Mo-Fr 15:00", "note": "ON 12/24 AND 12/31, THIS BOX MAY BE COLLECTED AS EARLY AS 12 NOON.", "nsi_id": "unitedstatespostalservice-a77078", "operator": "United States Postal Service", "operator:short": "USPS", "operator:type": "public", "operator:wikidata": "Q668687", "ref": "9030100001"}, "type": "Feature"}
{"geometry": {"coordinates": [-118.35433, 33.962974], "type": "Point"}, "id": "RmcQfQ6z7l1B2zhO9KBSZnaGpds=", "properties": {"@source_uri": "https://tools.usps.com/UspsToolsRestServices/rest/POLocator/findLocations", "@spider": "usps_collection_boxes", "addr:city": "INGLEWOOD", "addr:country": "US", "addr:postcode": "90301", "addr:state": "CA", "addr:street_address": "1 W MANCHESTER BLVD", "amenity": "post_box", "brand": "United States Postal Service", "brand:wikidata": "Q668687", "collection_times": "Mo-Fr 15:00", "note": "ON 12/24 AND 12/31, THIS BOX MAY BE COLLECTED AS EARLY AS 12 NOON.", "nsi_id": "unitedstatespostalservice-a77078", "operator": "United States Postal Service", "operator:short": "USPS", "operator:type": "public", "operator:wikidata": "Q668687", "ref": "9030100004"}, "type": "Feature"}
{"geometry": {"coordinates": [-118.3515218337, 33.9592525387], "type": "Point"}, "id": "-m-5HDg3rrq2VC7VJpKjMFOoTmM=", "properties": {"@source_uri": "https://tools.usps.com/UspsToolsRestServices/rest/POLocator/findLocations", "@spider": "usps_collection_boxes", "addr:city": "INGLEWOOD", "addr:country": "US", "addr:postcode": "90301", "addr:state": "CA", "addr:street_address": "300 E HILLCREST BLVD LOBBY", "amenity": "post_box", "brand": "United States Postal Service", "brand:wikidata": "Q668687", "collection_times": "Mo-Fr 17:00; Sa 15:00", "indoor": "yes", "note": "ON 12/24 AND 12/31, THIS BOX MAY BE COLLECTED AS EARLY AS 12 NOON.", "nsi_id": "unitedstatespostalservice-a77078", "operator": "United States Postal Service", "operator:short": "USPS", "operator:type": "public", "operator:wikidata": "Q668687", "ref": "9030100005"}, "type": "Feature"}
{"geometry": {"coordinates": [-118.346962, 33.962759], "type": "Point"}, "id": "5fgPEoHJJBlsMaJKTxRPIdQM3EQ=", "properties": {"@source_uri": "https://tools.usps.com/UspsToolsRestServices/rest/POLocator/findLocations", "@spider": "usps_collection_boxes", "addr:city": "INGLEWOOD", "addr:country": "US", "addr:postcode": "90301", "addr:state": "CA", "addr:street_address": "600 E QUEEN ST", "amenity": "post_box", "brand": "United States Postal Service", "brand:wikidata": "Q668687", "collection_times": "Mo-Sa 12:00", "nsi_id": "unitedstatespostalservice-a77078", "operator": "United States Postal Service", "operator:short": "USPS", "operator:type": "public", "operator:wikidata": "Q668687", "ref": "9030100016"}, "type": "Feature"}
{"geometry": {"coordinates": [-118.355018, 33.956663], "type": "Point"}, "id": "XDKda3LOT0pVZ-0-5ZnbCFHzj_o=", "properties": {"@source_uri": "https://tools.usps.com/UspsToolsRestServices/rest/POLocator/findLocations", "@spider": "usps_collection_boxes", "addr:city": "INGLEWOOD", "addr:country": "US", "addr:postcode": "90301", "addr:state": "CA", "addr:street_address": "601 S GREVILLEA AVE", "amenity": "post_box", "brand": "United States Postal Service", "brand:wikidata": "Q668687", "collection_times": "Mo-Sa 12:00", "nsi_id": "unitedstatespostalservice-a77078", "operator": "United States Postal Service", "operator:short": "USPS", "operator:type": "public", "operator:wikidata": "Q668687", "ref": "9030100028"}, "type": "Feature"}
{"geometry": {"coordinates": [-118.36149, 33.950037], "type": "Point"}, "id": "UPFbn4H6oiTwm3W9_Pf0xqzRoFM=", "properties": {"@source_uri": "https://tools.usps.com/UspsToolsRestServices/rest/POLocator/findLocations", "@spider": "usps_collection_boxes", "addr:city": "INGLEWOOD", "addr:country": "US", "addr:postcode": "90301", "addr:state": "CA", "addr:street_address": "4802 W 95TH ST", "amenity": "post_box", "brand": "United States Postal Service", "brand:wikidata": "Q668687", "collection_times": "Mo-Sa 12:00", "nsi_id": "unitedstatespostalservice-a77078", "operator": "United States Postal Service", "operator:short": "USPS", "operator:type": "public", "operator:wikidata": "Q668687", "ref": "9030100031"}, "type": "Feature"}
{"geometry": {"coordinates": [-118.344004, 33.96573], "type": "Point"}, "id": "WatESSt7oGwJlWnPejnZclbKcAo=", "properties": {"@source_uri": "https://tools.usps.com/UspsToolsRestServices/rest/POLocator/findLocations", "@spider": "usps_collection_boxes", "addr:city": "INGLEWOOD", "addr:country": "US", "addr:postcode": "90301", "addr:state": "CA", "addr:street_address": "301 N PRAIRIE AVE", "amenity": "post_box", "brand": "United States Postal Service", "brand:wikidata": "Q668687", "collection_times": "Mo-Fr 13:00", "note": "ON 12/24 AND 12/31, THIS BOX MAY BE COLLECTED AS EARLY AS 12 NOON.", "nsi_id": "unitedstatespostalservice-a77078", "operator": "United States Postal Service", "operator:short": "USPS", "operator:type": "public", "operator:wikidata": "Q668687", "ref": "9030100032"}, "type": "Feature"}
{"geometry": {"coordinates": [-118.350609, 33.961708], "type": "Point"}, "id": "7YI9A_W21u9SbLBclawAAokNHMs=", "properties": {"@source_uri": "https://tools.usps.com/UspsToolsRestServices/rest/POLocator/findLocations", "@spider": "usps_collection_boxes", "addr:city": "INGLEWOOD", "addr:country": "US", "addr:postcode": "90301", "addr:state": "CA", "addr:street_address": "330 E MANCHESTER BLVD", "amenity": "post_box", "brand": "United States Postal Service", "brand:wikidata": "Q668687", "collection_times": "Mo-Fr 15:00; Sa 13:00", "note": "ON 12/24 AND 12/31, THIS BOX MAY BE COLLECTED AS EARLY AS 12 NOON.", "nsi_id": "unitedstatespostalservice-a77078", "operator": "United States Postal Service", "operator:short": "USPS", "operator:type": "public", "operator:wikidata": "Q668687", "ref": "9030100036"}, "type": "Feature"}
{"geometry": {"coordinates": [-118.348408, 33.952794], "type": "Point"}, "id": "wg2f4189WY8lfbp5Y4_pLWVAxeY=", "properties": {"@source_uri": "https://tools.usps.com/UspsToolsRestServices/rest/POLocator/findLocations", "@spider": "usps_collection_boxes", "addr:city": "INGLEWOOD", "addr:country": "US", "addr:postcode": "90301", "addr:state": "CA", "addr:street_address": "832 MYRTLE AVE", "amenity": "post_box", "brand": "United States Postal Service", "brand:wikidata": "Q668687", "collection_times": "Mo-Fr 12:00; Sa 13:00", "note": "ON 12/24 AND 12/31, THIS BOX MAY BE COLLECTED AS EARLY AS 12 NOON.", "nsi_id": "unitedstatespostalservice-a77078", "operator": "United States Postal Service", "operator:short": "USPS", "operator:type": "public", "operator:wikidata": "Q668687", "ref": "9030100048"}, "type": "Feature"}
{"geometry": {"coordinates": [-118.348056, 33.95005], "type": "Point"}, "id": "yNVgr0eFRVKUpBFgQFz3C2L2iI4=", "properties": {"@source_uri": "https://tools.usps.com/UspsToolsRestServices/rest/POLocator/findLocations", "@spider": "usps_collection_boxes", "addr:city": "INGLEWOOD", "addr:country": "US", "addr:postcode": "90301", "addr:state": "CA", "addr:street_address": "555 E HARDY ST", "amenity": "post_box", "brand": "United States Postal Service", "brand:wikidata": "Q668687", "collection_times": "Mo-Fr 15:30", "note": "ON 12/24 AND 12/31, THIS BOX MAY BE COLLECTED AS EARLY AS 12 NOON.", "nsi_id": "unitedstatespostalservice-a77078", "operator": "United States Postal Service", "operator:short": "USPS", "operator:type": "public", "operator:wikidata": "Q668687", "ref": "9030100054"}, "type": "Feature"}
{"geometry": {"coordinates": [-118.359008, 33.952616], "type": "Point"}, "id": "tfPFiQEaW81sNrVwHGdgYBP9L68=", "properties": {"@source_uri": "https://tools.usps.com/UspsToolsRestServices/rest/POLocator/findLocations", "@spider": "usps_collection_boxes", "addr:city": "INGLEWOOD", "addr:country": "US", "addr:postcode": "90301", "addr:state": "CA", "addr:street_address": "250 W ARBOR VITAE ST", "amenity": "post_box", "brand": "United States Postal Service", "brand:wikidata": "Q668687", "collection_times": "Mo-Fr 12:00; Sa 13:00", "note": "ON 12/24 AND 12/31, THIS BOX MAY BE COLLECTED AS EARLY AS 12 NOON.", "nsi_id": "unitedstatespostalservice-a77078", "operator": "United States Postal Service", "operator:short": "USPS", "operator:type": "public", "operator:wikidata": "Q668687", "ref": "9030100061"}, "type": "Feature"}
{"geometry": {"coordinates": [-118.363823, 33.964237], "type": "Point"}, "id": "5TivqJShgLhn2aYE-cDRDJhqzmw=", "properties": {"@source_uri": "https://tools.usps.com/UspsToolsRestServices/rest/POLocator/findLocations", "@spider": "usps_collection_boxes", "addr:city": "INGLEWOOD", "addr:country": "US", "addr:postcode": "90301", "addr:state": "CA", "addr:street_address": "440 W REGENT ST", "amenity": "post_box", "brand": "United States Postal Service", "brand:wikidata": "Q668687", "collection_times": "Mo-Fr 12:00; Sa 13:00", "note": "ON 12/24 AND 12/31, THIS BOX MAY BE COLLECTED AS EARLY AS 12 NOON.", "nsi_id": "unitedstatespostalservice-a77078", "operator": "United States Postal Service", "operator:short": "USPS", "operator:type": "public", "operator:wikidata": "Q668687", "ref": "9030100063"}, "type": "Feature"}
{"geometry": {"coordinates": [-118.350294, 33.962898], "type": "Point"}, "id": "ZXtKbXt8mtJb_gf_pxpVIbmMbw0=", "properties": {"@source_uri": "https://tools.usps.com/UspsToolsRestServices/rest/POLocator/findLocations", "@spider": "usps_collection_boxes", "addr:city": "INGLEWOOD", "addr:country": "US", "addr:postcode": "90301", "addr:state": "CA", "addr:street_address": "100 N LOCUST ST", "amenity": "post_box", "brand": "United States Postal Service", "brand:wikidata": "Q668687", "collection_times": "Mo-Sa 12:00", "nsi_id": "unitedstatespostalservice-a77078", "operator": "United States Postal Service", "operator:short": "USPS", "operator:type": "public", "operator:wikidata": "Q668687", "ref": "9030100068"}, "type": "Feature"}
{"geometry": {"coordinates": [-118.351521834, 33.959252539], "type": "Point"}, "id": "1pAFFh8H2SNlWO4PE4KW1MBPVZY=", "properties": {"@source_uri": "https://tools.usps.com/UspsToolsRestServices/rest/POLocator/findLocations", "@spider": "usps_collection_boxes", "addr:city": "INGLEWOOD", "addr:country": "US", "addr:postcode": "90301", "addr:state": "CA", "addr:street_address": "300 E HILLCREST BLVD LOBBY", "amenity": "post_box", "brand": "United States Postal Service", "brand:wikidata": "Q668687", "collection_times": "Mo-Fr 17:00; Sa 15:00", "indoor": "yes", "note": "ON 12/24 AND 12/31, THIS BOX MAY BE COLLECTED AS EARLY AS 12 NOON.", "nsi_id": "unitedstatespostalservice-a77078", "operator": "United States Postal Service", "operator:short": "USPS", "operator:type": "public", "operator:wikidata": "Q668687", "ref": "9030100086"}, "type": "Feature"}
{"geometry": {"coordinates": [-118.358229, 33.968684], "type": "Point"}, "id": "opV3Hn3Wkzk-eS_ay2sNcMY132M=", "properties": {"@source_uri": "https://tools.usps.com/UspsToolsRestServices/rest/POLocator/findLocations", "@spider": "usps_collection_boxes", "addr:city": "INGLEWOOD", "addr:country": "US", "addr:postcode": "90302", "addr:state": "CA", "addr:street_address": "279 W BEACH AVE", "amenity": "post_box", "brand": "United States Postal Service", "brand:wikidata": "Q668687", "collection_times": "Mo-Fr 12:00", "nsi_id": "unitedstatespostalservice-a77078", "operator": "United States Postal Service", "operator:short": "USPS", "operator:type": "public", "operator:wikidata": "Q668687", "ref": "9030200007"}, "type": "Feature"}
{"geometry": {"coordinates": [-118.33532, 33.976761], "type": "Point"}, "id": "gPKtwBQABg_T2tb45yMy8GXPzfU=", "properties": {"@source_uri": "https://tools.usps.com/UspsToolsRestServices/rest/POLocator/findLocations", "@spider": "usps_collection_boxes", "addr:city": "INGLEWOOD", "addr:country": "US", "addr:postcode": "90302", "addr:state": "CA", "addr:street_address": "6803 WEST BLVD SW", "amenity": "post_box", "brand": "United States Postal Service", "brand:wikidata": "Q668687", "collection_times": "Mo-Fr 12:00; Sa 13:00", "note": "ON 12/24 AND 12/31, THIS BOX MAY BE COLLECTED AS EARLY AS 12 NOON.", "nsi_id": "unitedstatespostalservice-a77078", "operator": "United States Postal Service", "operator:short": "USPS", "operator:type": "public", "operator:wikidata": "Q668687", "ref": "9030200010"}, "type": "Feature"}
{"geometry": {"coordinates": [-118.363937, 33.9793], "type": "Point"}, "id": "Zse43fTLfOs2o12ujeu_hRif3E0=", "properties": {"@source_uri": "https://tools.usps.com/UspsToolsRestServices/rest/POLocator/findLocations", "@spider": "usps_collection_boxes", "addr:city": "INGLEWOOD", "addr:country": "US", "addr:postcode": "90302", "addr:state": "CA", "addr:street_address": "400 W FAIRVIEW BLVD", "amenity": "post_box", "brand": "United States Postal Service", "brand:wikidata": "Q668687", "collection_times": "Mo-Fr 12:00; Sa 13:00", "note": "ON 12/24 AND 12/31, THIS BOX MAY BE COLLECTED AS EARLY AS 12 NOON.", "nsi_id": "unitedstatespostalservice-a77078", "operator": "United States Postal Service", "operator:short": "USPS", "operator:type": "public", "operator:wikidata": "Q668687", "ref": "9030200016"}, "type": "Feature"}
{"geometry": {"coordinates": [-118.3688831307, 33.9671950511], "type": "Point"}, "id": "yThUG0x2lUL72H7qxLp3k91tELY=", "properties": {"@source_uri": "https://tools.usps.com/UspsToolsRestServices/rest/POLocator/findLocations", "@spider": "usps_collection_boxes", "addr:city": "INGLEWOOD", "addr:country": "US", "addr:postcode": "90302", "addr:state": "CA", "addr:street_address": "821 W HYDE PARK BLVD", "amenity": "post_box", "brand": "United States Postal Service", "brand:wikidata": "Q668687", "collection_times": "Mo-Fr 12:00", "nsi_id": "unitedstatespostalservice-a77078", "operator": "United States Postal Service", "operator:short": "USPS", "operator:type": "public", "operator:wikidata": "Q668687", "ref": "9030200017"}, "type": "Feature"}
{"geometry": {"coordinates": [-118.366525, 33.965901], "type": "Point"}, "id": "UXCX2UQlW4_Qm02tGG5na0TzRM4=", "properties": {"@source_uri": "https://tools.usps.com/UspsToolsRestServices/rest/POLocator/findLocations", "@spider": "usps_collection_boxes", "addr:city": "INGLEWOOD", "addr:country": "US", "addr:postcode": "90302", "addr:state": "CA", "addr:street_address": "300 N OAK ST", "amenity": "post_box", "brand": "United States Postal Service", "brand:wikidata": "Q668687", "collection_times": "Mo-Fr 15:00", "name": "USPS COLLECTION BOX - EXPRESS", "note": "ON 12/24 AND 12/31, THIS BOX MAY BE COLLECTED AS EARLY AS 12 NOON.", "nsi_id": "unitedstatespostalservice-a77078", "operator": "United States Postal Service", "operator:short": "USPS", "operator:type": "public", "operator:wikidata": "Q668687", "ref": "9030200018"}, "type": "Feature"}
{"geometry": {"coordinates": [-118.335357, 33.980682], "type": "Point"}, "id": "pAzDQA2lWBm3gozAx5AsTQiQECQ=", "properties": {"@source_uri": "https://tools.usps.com/UspsToolsRestServices/rest/POLocator/findLocations", "@spider": "usps_collection_boxes", "addr:city": "INGLEWOOD", "addr:country": "US", "addr:postcode": "90302", "addr:state": "CA", "addr:street_address": "6501 WEST BLVD", "amenity": "post_box", "brand": "United States Postal Service", "brand:wikidata": "Q668687", "collection_times": "Mo-Fr 12:00; Sa 13:00", "note": "ON 12/24 AND 12/31, THIS BOX MAY BE COLLECTED AS EARLY AS 12 NOON.", "nsi_id": "unitedstatespostalservice-a77078", "operator": "United States Postal Service", "operator:short": "USPS", "operator:type": "public", "operator:wikidata": "Q668687", "ref": "9030200021"}, "type": "Feature"}
{"geometry": {"coordinates": [-118.350099, 33.980327], "type": "Point"}, "id": "aM99_xOWgdc_J8XQ1aEAIj2ZdwI=", "properties": {"@source_uri": "https://tools.usps.com/UspsToolsRestServices/rest/POLocator/findLocations", "@spider": "usps_collection_boxes", "addr:city": "INGLEWOOD", "addr:country": "US", "addr:postcode": "90302", "addr:state": "CA", "addr:street_address": "562 E FAIRVIEW BLVD", "amenity": "post_box", "brand": "United States Postal Service", "brand:wikidata": "Q668687", "collection_times": "Mo-Fr 12:00; Sa 13:00", "note": "ON 12/24 AND 12/31, THIS BOX MAY BE COLLECTED AS EARLY AS 12 NOON.", "nsi_id": "unitedstatespostalservice-a77078", "operator": "United States Postal Service", "operator:short": "USPS", "operator:type": "public", "operator:wikidata": "Q668687", "ref": "9030200023"}, "type": "Feature"}
{"geometry": {"coordinates": [-118.367485, 33.970955], "type": "Point"}, "id": "ivn66q21vtDeZcgzabeXZyT26dk=", "properties": {"@source_uri": "https://tools.usps.com/UspsToolsRestServices/rest/POLocator/findLocations", "@spider": "usps_collection_boxes", "addr:city": "INGLEWOOD", "addr:country": "US", "addr:postcode": "90302", "addr:state": "CA", "addr:street_address": "841 GLENWAY DR", "amenity": "post_box", "brand": "United States Postal Service", "brand:wikidata": "Q668687", "collection_times": "Mo-Fr 12:00; Sa 13:00", "note": "ON 12/24 AND 12/31, THIS BOX MAY BE COLLECTED AS EARLY AS 12 NOON.", "nsi_id": "unitedstatespostalservice-a77078", "operator": "United States Postal Service", "operator:short": "USPS", "operator:type": "public", "operator:wikidata": "Q668687", "ref": "9030200026"}, "type": "Feature"}
{"geometry": {"coordinates": [-118.366407, 33.974423], "type": "Point"}, "id": "BtGfa1S1IOMj04Ef90xnxRTqw74=", "properties": {"@source_uri": "https://tools.usps.com/UspsToolsRestServices/rest/POLocator/findLocations", "@spider": "usps_collection_boxes", "addr:city": "INGLEWOOD", "addr:country": "US", "addr:postcode": "90302", "addr:state": "CA", "addr:street_address": "524 W PLYMOUTH ST", "amenity": "post_box", "brand": "United States Postal Service", "brand:wikidata": "Q668687", "collection_times": "Mo-Fr 12:00; Sa 13:00", "note": "ON 12/24 AND 12/31, THIS BOX MAY BE COLLECTED AS EARLY AS 12 NOON.", "nsi_id": "unitedstatespostalservice-a77078", "operator": "United States Postal Service", "operator:short": "USPS", "operator:type": "public", "operator:wikidata": "Q668687", "ref": "9030200027"}, "type": "Feature"}
{"geometry": {"coordinates": [-118.32246, 33.929793], "type": "Point"}, "id": "dyjyCzz8_1VdL2JDMmVzK6mmidA=", "properties": {"@source_uri": "https://tools.usps.com/UspsToolsRestServices/rest/POLocator/findLocations", "@spider": "usps_collection_boxes", "addr:city": "INGLEWOOD", "addr:country": "US", "addr:postcode": "90303", "addr:state": "CA", "addr:street_address": "2672 W IMPERIAL HWY LOBBY", "amenity": "post_box", "brand": "United States Postal Service", "brand:wikidata": "Q668687", "collection_times": "Mo-Fr 17:00", "indoor": "yes", "note": "ON 12/24 AND 12/31, THIS BOX MAY BE COLLECTED AS EARLY AS 12 NOON.", "nsi_id": "unitedstatespostalservice-a77078", "operator": "United States Postal Service", "operator:short": "USPS", "operator:type": "public", "operator:wikidata": "Q668687", "ref": "9030300021"}, "type": "Feature"}
{"geometry": {"coordinates": [-118.344081, 33.937264], "type": "Point"}, "id": "PoEa5YtpdEeciYQKJlme4Mdfyn4=", "properties": {"@source_uri": "https://tools.usps.com/UspsToolsRestServices/rest/POLocator/findLocations", "@spider": "usps_collection_boxes", "addr:city": "INGLEWOOD", "addr:country": "US", "addr:postcode": "90303", "addr:state": "CA", "addr:street_address": "10833 S PRAIRIE AVE", "amenity": "post_box", "brand": "United States Postal Service", "brand:wikidata": "Q668687", "collection_times": "Mo-Fr 12:00; Sa 13:00", "note": "ON 12/24 AND 12/31, THIS BOX MAY BE COLLECTED AS EARLY AS 12 NOON.", "nsi_id": "unitedstatespostalservice-a77078", "operator": "United States Postal Service", "operator:short": "USPS", "operator:type": "public", "operator:wikidata": "Q668687", "ref": "9030300026"}, "type": "Feature"}
{"geometry": {"coordinates": [-118.32246, 33.929793], "type": "Point"}, "id": "FH3bBX9jEXTGK2_FpQq8Z1PEu7c=", "properties": {"@source_uri": "https://tools.usps.com/UspsToolsRestServices/rest/POLocator/findLocations", "@spider": "usps_collection_boxes", "addr:city": "INGLEWOOD", "addr:country": "US", "addr:postcode": "90303", "addr:state": "CA", "addr:street_address": "2672 W IMPERIAL HWY LOBBY", "amenity": "post_box", "brand": "United States Postal Service", "brand:wikidata": "Q668687", "collection_times": "Mo-Fr 17:00", "indoor": "yes", "note": "ON 12/24 AND 12/31, THIS BOX MAY BE COLLECTED AS EARLY AS 12 NOON.", "nsi_id": "unitedstatespostalservice-a77078", "operator": "United States Postal Service", "operator:short": "USPS", "operator:type": "public", "operator:wikidata": "Q668687", "ref": "9030300030"}, "type": "Feature"}
{"geometry": {"coordinates": [-118.366228, 33.938124], "type": "Point"}, "id": "q2BeGYlvpuvqO2kAVHNZS3D0Amw=", "properties": {"@source_uri": "https://tools.usps.com/UspsToolsRestServices/rest/POLocator/findLocations", "@spider": "usps_collection_boxes", "addr:city": "INGLEWOOD", "addr:country": "US", "addr:postcode": "90304", "addr:state": "CA", "addr:street_address": "5012 LENNOX BLVD", "amenity": "post_box", "brand": "United States Postal Service", "brand:wikidata": "Q668687", "collection_times": "Mo-Fr 12:00; Sa 13:00", "note": "ON 12/24 AND 12/31, THIS BOX MAY BE COLLECTED AS EARLY AS 12 NOON.", "nsi_id": "unitedstatespostalservice-a77078", "operator": "United States Postal Service", "operator:short": "USPS", "operator:type": "public", "operator:wikidata": "Q668687", "ref": "9030400007"}, "type": "Feature"}
{"geometry": {"coordinates": [-118.3741999876, 33.9239059826], "type": "Point"}, "id": "eiJv_ci3qoH2iNiWcxfFFD8EoQ4=", "properties": {"@source_uri": "https://tools.usps.com/UspsToolsRestServices/rest/POLocator/findLocations", "@spider": "usps_collection_boxes", "addr:city": "INGLEWOOD", "addr:country": "US", "addr:postcode": "90304", "addr:state": "CA", "addr:street_address": "5359 W 120TH ST", "amenity": "post_box", "brand": "United States Postal Service", "brand:wikidata": "Q668687", "collection_times": "Mo-Fr 12:00; Sa 13:00", "note": "ON 12/24 AND 12/31, THIS BOX MAY BE COLLECTED AS EARLY AS 12 NOON.", "nsi_id": "unitedstatespostalservice-a77078", "operator": "United States Postal Service", "operator:short": "USPS", "operator:type": "public", "operator:wikidata": "Q668687", "ref": "9030400008"}, "type": "Feature"}
{"geometry": {"coordinates": [-118.338133, 33.95874], "type": "Point"}, "id": "DcmtKJ8F1xV-Dde4sX51p782XGA=", "properties": {"@source_uri": "https://tools.usps.com/UspsToolsRestServices/rest/POLocator/findLocations", "@spider": "usps_collection_boxes", "addr:city": "INGLEWOOD", "addr:country": "US", "addr:postcode": "90305", "addr:state": "CA", "addr:street_address": "8700 CARLTON DR", "amenity": "post_box", "brand": "United States Postal Service", "brand:wikidata": "Q668687", "collection_times": "Mo-Fr 13:00", "note": "ON 12/24 AND 12/31, THIS BOX MAY BE COLLECTED AS EARLY AS 12 NOON.", "nsi_id": "unitedstatespostalservice-a77078", "operator": "United States Postal Service", "operator:short": "USPS", "operator:type": "public", "operator:wikidata": "Q668687", "ref": "9030500003"}, "type": "Feature"}
{"geometry": {"coordinates": [-118.3325435255, 33.9599375323], "type": "Point"}, "id": "vP2-GhoGMcFrXe2kF-JXO1zT4Ng=", "properties": {"@source_uri": "https://tools.usps.com/UspsToolsRestServices/rest/POLocator/findLocations", "@spider": "usps_collection_boxes", "addr:city": "INGLEWOOD", "addr:country": "US", "addr:postcode": "90305", "addr:state": "CA", "addr:street_address": "3500 W MANCHESTER BLVD", "amenity": "post_box", "brand": "United States Postal Service", "brand:wikidata": "Q668687", "collection_times": "Mo-Fr 13:00", "note": "ON 12/24 AND 12/31, THIS BOX MAY BE COLLECTED AS EARLY AS 12 NOON.", "nsi_id": "unitedstatespostalservice-a77078", "operator": "United States Postal Service", "operator:short": "USPS", "operator:type": "public", "operator:wikidata": "Q668687", "ref": "9030500007"}, "type": "Feature"}
{"geometry": {"coordinates": [-118.3325435255, 33.9599375323], "type": "Point"}, "id": "O4YP0Cn9BrjIvd3MiSd8hjKOLcc=", "properties": {"@source_uri": "https://tools.usps.com/UspsToolsRestServices/rest/POLocator/findLocations", "@spider": "usps_collection_boxes", "addr:city": "INGLEWOOD", "addr:country": "US", "addr:postcode": "90305", "addr:state": "CA", "addr:street_address": "3500 W MANCHESTER BLVD", "amenity": "post_box", "brand": "United States Postal Service", "brand:wikidata": "Q668687", "collection_times": "Mo-Fr 13:00", "note": "ON 12/24 AND 12/31, THIS BOX MAY BE COLLECTED AS EARLY AS 12 NOON.", "nsi_id": "unitedstatespostalservice-a77078", "operator": "United States Postal Service", "operator:short": "USPS", "operator:type": "public", "operator:wikidata": "Q668687", "ref": "9030500008"}, "type": "Feature"}
{"geometry": {"coordinates": [-118.326751, 33.954013], "type": "Point"}, "id": "X4R5AU32SmuWPBHSYH1SXq79qTA=", "properties": {"@source_uri": "https://tools.usps.com/UspsToolsRestServices/rest/POLocator/findLocations", "@spider": "usps_collection_boxes", "addr:city": "INGLEWOOD", "addr:country": "US", "addr:postcode": "90305", "addr:state": "CA", "addr:street_address": "9201 CRENSHAW BLVD", "amenity": "post_box", "brand": "United States Postal Service", "brand:wikidata": "Q668687", "collection_times": "Mo-Fr 13:00", "note": "ON 12/24 AND 12/31, THIS BOX MAY BE COLLECTED AS EARLY AS 12 NOON.", "nsi_id": "unitedstatespostalservice-a77078", "operator": "United States Postal Service", "operator:short": "USPS", "operator:type": "public", "operator:wikidata": "Q668687", "ref": "9030500012"}, "type": "Feature"}
{"geometry": {"coordinates": [-118.322265, 33.949043], "type": "Point"}, "id": "hoZKr99o71321R09rSvgnfWRCCQ=", "properties": {"@source_uri": "https://tools.usps.com/UspsToolsRestServices/rest/POLocator/findLocations", "@spider": "usps_collection_boxes", "addr:city": "INGLEWOOD", "addr:country": "US", "addr:postcode": "90305", "addr:state": "CA", "addr:street_address": "9601 S 5TH AVE", "amenity": "post_box", "brand": "United States Postal Service", "brand:wikidata": "Q668687", "collection_times": "Mo-Fr 12:30; Sa 13:30", "note": "ON 12/24 AND 12/31, THIS BOX MAY BE COLLECTED AS EARLY AS 12 NOON.", "nsi_id": "unitedstatespostalservice-a77078", "operator": "United States Postal Service", "operator:short": "USPS", "operator:type": "public", "operator:wikidata": "Q668687", "ref": "9030500015"}, "type": "Feature"}
{"geometry": {"coordinates": [-118.322212, 33.956303], "type": "Point"}, "id": "uaxtH5cdi9YSbVifooz-mNW4CsU=", "properties": {"@source_uri": "https://tools.usps.com/UspsToolsRestServices/rest/POLocator/findLocations", "@spider": "usps_collection_boxes", "addr:city": "INGLEWOOD", "addr:country": "US", "addr:postcode": "90305", "addr:state": "CA", "addr:street_address": "9001 S 5TH AVE", "amenity": "post_box", "brand": "United States Postal Service", "brand:wikidata": "Q668687", "collection_times": "Mo-Fr 12:30; Sa 13:30", "note": "ON 12/24 AND 12/31, THIS BOX MAY BE COLLECTED AS EARLY AS 12 NOON.", "nsi_id": "unitedstatespostalservice-a77078", "operator": "United States Postal Service", "operator:short": "USPS", "operator:type": "public", "operator:wikidata": "Q668687", "ref": "9030500016"}, "type": "Feature"}
{"geometry": {"coordinates": [-118.328401483, 33.960855082], "type": "Point"}, "id": "VZhXnVE88H36sqI5DF1Hsdw_Qas=", "properties": {"@source_uri": "https://tools.usps.com/UspsToolsRestServices/rest/POLocator/findLocations", "@spider": "usps_collection_boxes", "addr:city": "INGLEWOOD", "addr:country": "US", "addr:postcode": "90305", "addr:state": "CA", "addr:street_address": "3212 W 85TH ST LOBBY", "amenity": "post_box", "brand": "United States Postal Service", "brand:wikidata": "Q668687", "collection_times": "Mo-Fr 17:00", "indoor": "yes", "note": "ON 12/24 AND 12/31, THIS BOX MAY BE COLLECTED AS EARLY AS 12 NOON.", "nsi_id": "unitedstatespostalservice-a77078", "operator": "United States Postal Service", "operator:short": "USPS", "operator:type": "public", "operator:wikidata": "Q668687", "ref": "9030500018"}, "type": "Feature"}
{"geometry": {"coordinates": [-118.3283804702, 33.9608475068], "type": "Point"}, "id": "eVnkx_JIVVsPYYevAoiZSi8z7i0=", "properties": {"@source_uri": "https://tools.usps.com/UspsToolsRestServices/rest/POLocator/findLocations", "@spider": "usps_collection_boxes", "addr:city": "INGLEWOOD", "addr:country": "US", "addr:postcode": "90305", "addr:state": "CA", "addr:street_address": "3212 W 85TH ST LBBY", "amenity": "post_box", "brand": "United States Postal Service", "brand:wikidata": "Q668687", "collection_times": "Mo-Fr 17:00", "indoor": "yes", "note": "ON 12/24 AND 12/31, THIS BOX MAY BE COLLECTED AS EARLY AS 12 NOON.", "nsi_id": "unitedstatespostalservice-a77078", "operator": "United States Postal Service", "operator:short": "USPS", "operator:type": "public", "operator:wikidata": "Q668687", "ref": "9030500020"}, "type": "Feature"}
{"geometry": {"coordinates": [-118.328401483, 33.960855082], "type": "Point"}, "id": "5shzhbYZcQuvw3xBPU2HkJs1AaA=", "properties": {"@source_uri": "https://tools.usps.com/UspsToolsRestServices/rest/POLocator/findLocations", "@spider": "usps_collection_boxes", "addr:city": "INGLEWOOD", "addr:country": "US", "addr:postcode": "90305", "addr:state": "CA", "addr:street_address": "3212 W 85TH ST LOBBY", "amenity": "post_box", "brand": "United States Postal Service", "brand:wikidata": "Q668687", "collection_times": "Mo-Fr 17:00", "indoor": "yes", "note": "ON 12/24 AND 12/31, THIS BOX MAY BE COLLECTED AS EARLY AS 12 NOON.", "nsi_id": "unitedstatespostalservice-a77078", "operator": "United States Postal Service", "operator:short": "USPS", "operator:type": "public", "operator:wikidata": "Q668687", "ref": "9030500021"}, "type": "Feature"}
{"geometry": {"coordinates": [-118.3284014825, 33.9608550819], "type": "Point"}, "id": "SvJecO0UYXznPYW5LFnXUSPeKZY=", "properties": {"@source_uri": "https://tools.usps.com/UspsToolsRestServices/rest/POLocator/findLocations", "@spider": "usps_collection_boxes", "addr:city": "INGLEWOOD", "addr:country": "US", "addr:postcode": "90305", "addr:state": "CA", "addr:street_address": "3212 W 85TH ST LOBBY", "amenity": "post_box", "brand": "United States Postal Service", "brand:wikidata": "Q668687", "collection_times": "Mo-Fr 17:00", "indoor": "yes", "note": "ON 12/24 AND 12/31, THIS BOX MAY BE COLLECTED AS EARLY AS 12 NOON.", "nsi_id": "unitedstatespostalservice-a77078", "operator": "United States Postal Service", "operator:short": "USPS", "operator:type": "public", "operator:wikidata": "Q668687", "ref": "9030500022"}, "type": "Feature"}
