{"geometry": {"coordinates": [-118.487717918, 34.014802063], "type": "Point"}, "id": "Qg_jZzFxIXVq7O45GuAIZPflKzw=", "properties": {"@source_uri": "https://tools.usps.com/UspsToolsRestServices/rest/POLocator/findLocations", "@spider": "usps_collection_boxes", "addr:city": "SANTA MONICA", "addr:country": "US", "addr:postcode": "90401", "addr:state": "CA", "addr:street_address": "1653 7TH ST", "amenity": "post_box", "collection_times": "Mo-Sa 17:30", "note": "ON 12/24 AND 12/31, THIS BOX MAY BE COLLECTED AS EARLY AS 12 NOON.", "nsi_id": "unitedstatespostalservice-a77078", "operator": "United States Postal Service", "operator:short": "USPS", "operator:type": "public", "operator:wikidata": "Q668687", "ref": "9040100013"}, "type": "Feature"}
{"geometry": {"coordinates": [-118.4877179178, 34.0148020633], "type": "Point"}, "id": "GdN3kW1Nc71XNX6N8rMTFtTPyPw=", "properties": {"@source_uri": "https://tools.usps.com/UspsToolsRestServices/rest/POLocator/findLocations", "@spider": "usps_collection_boxes", "addr:city": "SANTA MONICA", "addr:country": "US", "addr:postcode": "90401", "addr:state": "CA", "addr:street_address": "1653 7TH ST LOBBY", "amenity": "post_box", "collection_times": "Mo-Fr 17:30; Sa 15:00", "indoor": "yes", "note": "ON 12/24 AND 12/31, THIS BOX MAY BE COLLECTED AS EARLY AS 12 NOON.", "nsi_id": "unitedstatespostalservice-a77078", "operator": "United States Postal Service", "operator:short": "USPS", "operator:type": "public", "operator:wikidata": "Q668687", "ref": "9040100029"}, "type": "Feature"}
{"geometry": {"coordinates": [-118.499981656, 34.017784877], "type": "Point"}, "id": "aZFjAdtbjfNQstei9fwu529cn-U=", "properties": {"@source_uri": "https://tools.usps.com/UspsToolsRestServices/rest/POLocator/findLocations", "@spider": "usps_collection_boxes", "addr:city": "SANTA MONICA", "addr:country": "US", "addr:postcode": "90401", "addr:state": "CA", "addr:street_address": "201 WILSHIRE BLVD", "amenity": "post_box", "collection_times": "Mo-Fr 14:30", "note": "ON 12/24 AND 12/31, THIS BOX MAY BE COLLECTED AS EARLY AS 12 NOON.", "nsi_id": "unitedstatespostalservice-a77078", "operator": "United States Postal Service", "operator:short": "USPS", "operator:type": "public", "operator:wikidata": "Q668687", "ref": "9040100033"}, "type": "Feature"}
{"geometry": {"coordinates": [-118.491708553, 34.016723527], "type": "Point"}, "id": "-pf0yAIaIbSAyD970uUTginzFek=", "properties": {"@source_uri": "https://tools.usps.com/UspsToolsRestServices/rest/POLocator/findLocations", "@spider": "usps_collection_boxes", "addr:city": "SANTA MONICA", "addr:country": "US", "addr:postcode": "90401", "addr:state": "CA", "addr:street_address": "601 BROADWAY", "amenity": "post_box", "collection_times": "Mo-Fr 14:30; Sa 14:00", "note": "ON 12/24 AND 12/31, THIS BOX MAY BE COLLECTED AS EARLY AS 12 NOON.", "nsi_id": "unitedstatespostalservice-a77078", "operator": "United States Postal Service", "operator:short": "USPS", "operator:type": "public", "operator:wikidata": "Q668687", "ref": "9040100043"}, "type": "Feature"}
{"geometry": {"coordinates": [-118.490356323, 34.018549443], "type": "Point"}, "id": "CVGVln070viXWeWT7BA1OKtTaZs=", "properties": {"@source_uri": "https://tools.usps.com/UspsToolsRestServices/rest/POLocator/findLocations", "@spider": "usps_collection_boxes", "addr:city": "SANTA MONICA", "addr:country": "US", "addr:postcode": "90401", "addr:state": "CA", "addr:street_address": "1460 LINCOLN BLVD", "amenity": "post_box", "collection_times": "Mo-Fr 14:30; Sa 14:00", "note": "ON 12/24 AND 12/31, THIS BOX MAY BE COLLECTED AS EARLY AS 12 NOON.", "nsi_id": "unitedstatespostalservice-a77078", "operator": "United States Postal Service", "operator:short": "USPS", "operator:type": "public", "operator:wikidata": "Q668687", "ref": "9040100058"}, "type": "Feature"}
{"geometry": {"coordinates": [-118.4930145, 34.022916], "type": "Point"}, "id": "WZ9x0e5s9uVjL2fz48YRsCkcy5k=", "properties": {"@source_uri": "https://tools.usps.com/UspsToolsRestServices/rest/POLocator/findLocations", "@spider": "usps_collection_boxes", "addr:city": "SANTA MONICA", "addr:country": "US", "addr:postcode": "90401", "addr:state": "CA", "addr:street_address": "900 WILSHIRE BLVD", "amenity": "post_box", "collection_times": "Mo-Fr 14:30; Sa 15:00", "note": "ON 12/24 AND 12/31, THIS BOX MAY BE COLLECTED AS EARLY AS 12 NOON.", "nsi_id": "unitedstatespostalservice-a77078", "operator": "United States Postal Service", "operator:short": "USPS", "operator:type": "public", "operator:wikidata": "Q668687", "ref": "9040100068"}, "type": "Feature"}
{"geometry": {"coordinates": [-118.499291384, 34.018415502], "type": "Point"}, "id": "DFs2_rMKcx7Rj91hJc4weZBW5H4=", "properties": {"@source_uri": "https://tools.usps.com/UspsToolsRestServices/rest/POLocator/findLocations", "@spider": "usps_collection_boxes", "addr:city": "SANTA MONICA", "addr:country": "US", "addr:postcode": "90401", "addr:state": "CA", "addr:street_address": "301 WILSHIRE BLVD", "amenity": "post_box", "collection_times": "Mo-Fr 14:30; Sa 15:00", "note": "ON 12/24 AND 12/31, THIS BOX MAY BE COLLECTED AS EARLY AS 12 NOON.", "nsi_id": "unitedstatespostalservice-a77078", "operator": "United States Postal Service", "operator:short": "USPS", "operator:type": "public", "operator:wikidata": "Q668687", "ref": "9040100070"}, "type": "Feature"}
{"geometry": {"coordinates": [-118.487717918, 34.014802063], "type": "Point"}, "id": "u5vLqEMamv3SwNwPXcHT1AR7ETA=", "properties": {"@source_uri": "https://tools.usps.com/UspsToolsRestServices/rest/POLocator/findLocations", "@spider": "usps_collection_boxes", "addr:city": "SANTA MONICA", "addr:country": "US", "addr:postcode": "90401", "addr:state": "CA", "addr:street_address": "1653 7TH ST LOBBY", "amenity": "post_box", "collection_times": "Mo-Fr 17:30; Sa 15:00", "name": "USPS COLLECTION BOX - APC", "note": "ON 12/24 AND 12/31, THIS BOX MAY BE COLLECTED AS EARLY AS 12 NOON.", "nsi_id": "unitedstatespostalservice-a77078", "operator": "United States Postal Service", "operator:short": "USPS", "operator:type": "public", "operator:wikidata": "Q668687", "ref": "9040100075"}, "type": "Feature"}
{"geometry": {"coordinates": [-118.487717918, 34.014802063], "type": "Point"}, "id": "9hl34dU1p3gmj5utUsKU1NJ5_RA=", "properties": {"@source_uri": "https://tools.usps.com/UspsToolsRestServices/rest/POLocator/findLocations", "@spider": "usps_collection_boxes", "addr:city": "SANTA MONICA", "addr:country": "US", "addr:postcode": "90401", "addr:state": "CA", "addr:street_address": "1653 7TH ST LOBBY", "amenity": "post_box", "collection_times": "Mo-Fr 17:30; Sa 15:00", "indoor": "yes", "note": "ON 12/24 AND 12/31, THIS BOX MAY BE COLLECTED AS EARLY AS 12 NOON.", "nsi_id": "unitedstatespostalservice-a77078", "operator": "United States Postal Service", "operator:short": "USPS", "operator:type": "public", "operator:wikidata": "Q668687", "ref": "9040100102"}, "type": "Feature"}
{"geometry": {"coordinates": [-118.5077565, 34.031457], "type": "Point"}, "id": "DkBxF5B0Q6VRrupl5DbaONppmPA=", "properties": {"@source_uri": "https://tools.usps.com/UspsToolsRestServices/rest/POLocator/findLocations", "@spider": "usps_collection_boxes", "addr:city": "SANTA MONICA", "addr:country": "US", "addr:postcode": "90402", "addr:state": "CA", "addr:street_address": "630 SAN VICENTE BLVD", "amenity": "post_box", "collection_times": "Mo-Fr 12:00; Sa 13:00", "note": "ON 12/24 AND 12/31, THIS BOX MAY BE COLLECTED AS EARLY AS 12 NOON.", "nsi_id": "unitedstatespostalservice-a77078", "operator": "United States Postal Service", "operator:short": "USPS", "operator:type": "public", "operator:wikidata": "Q668687", "ref": "9040200003"}, "type": "Feature"}
{"geometry": {"coordinates": [-118.511173064, 34.024859356], "type": "Point"}, "id": "Qj9VMUl-TKPLwVZI1RhCwdvINRc=", "properties": {"@source_uri": "https://tools.usps.com/UspsToolsRestServices/rest/POLocator/findLocations", "@spider": "usps_collection_boxes", "addr:city": "SANTA MONICA", "addr:country": "US", "addr:postcode": "90402", "addr:state": "CA", "addr:street_address": "101 MARGUERITA AVE", "amenity": "post_box", "collection_times": "Mo-Fr 12:00; Sa 13:00", "note": "ON 12/24 AND 12/31, THIS BOX MAY BE COLLECTED AS EARLY AS 12 NOON.", "nsi_id": "unitedstatespostalservice-a77078", "operator": "United States Postal Service", "operator:short": "USPS", "operator:type": "public", "operator:wikidata": "Q668687", "ref": "9040200006"}, "type": "Feature"}
{"geometry": {"coordinates": [-118.4999299623, 34.0366908085], "type": "Point"}, "id": "eyD_-yK9ZavmCKeEuHhEB9zsa38=", "properties": {"@source_uri": "https://tools.usps.com/UspsToolsRestServices/rest/POLocator/findLocations", "@spider": "usps_collection_boxes", "addr:city": "SANTA MONICA", "addr:country": "US", "addr:postcode": "90402", "addr:state": "CA", "addr:street_address": "1407 CARLYLE AVE", "amenity": "post_box", "collection_times": "Mo-Fr 12:00; Sa 13:00", "note": "ON 12/24 AND 12/31, THIS BOX MAY BE COLLECTED AS EARLY AS 12 NOON.", "nsi_id": "unitedstatespostalservice-a77078", "operator": "United States Postal Service", "operator:short": "USPS", "operator:type": "public", "operator:wikidata": "Q668687", "ref": "9040200008"}, "type": "Feature"}
{"geometry": {"coordinates": [-118.501535593, 34.041468618], "type": "Point"}, "id": "VidlYcctaKM7Ri77FPN95AHNEH4=", "properties": {"@source_uri": "https://tools.usps.com/UspsToolsRestServices/rest/POLocator/findLocations", "@spider": "usps_collection_boxes", "addr:city": "SANTA MONICA", "addr:country": "US", "addr:postcode": "90402", "addr:state": "CA", "addr:street_address": "1632 SAN VICENTE BLVD", "amenity": "post_box", "collection_times": "Mo-Fr 12:00; Sa 13:00", "note": "ON 12/24 AND 12/31, THIS BOX MAY BE COLLECTED AS EARLY AS 12 NOON.", "nsi_id": "unitedstatespostalservice-a77078", "operator": "United States Postal Service", "operator:short": "USPS", "operator:type": "public", "operator:wikidata": "Q668687", "ref": "9040200009"}, "type": "Feature"}
{"geometry": {"coordinates": [-118.5054525, 34.03656], "type": "Point"}, "id": "FKwNMzXmGRiTe_mlDqDsgGfBgaQ=", "properties": {"@source_uri": "https://tools.usps.com/UspsToolsRestServices/rest/POLocator/findLocations", "@spider": "usps_collection_boxes", "addr:city": "SANTA MONICA", "addr:country": "US", "addr:postcode": "90402", "addr:state": "CA", "addr:street_address": "1102 SAN VICENTE BLVD", "amenity": "post_box", "collection_times": "Mo-Fr 12:00; Sa 13:00", "note": "ON 12/24 AND 12/31, THIS BOX MAY BE COLLECTED AS EARLY AS 12 NOON.", "nsi_id": "unitedstatespostalservice-a77078", "operator": "United States Postal Service", "operator:short": "USPS", "operator:type": "public", "operator:wikidata": "Q668687", "ref": "9040200010"}, "type": "Feature"}
{"geometry": {"coordinates": [-118.5091245, 34.036551], "type": "Point"}, "id": "_8dpmxAq0tk9r9e2LSsIphCTiEk=", "properties": {"@source_uri": "https://tools.usps.com/UspsToolsRestServices/rest/POLocator/findLocations", "@spider": "usps_collection_boxes", "addr:city": "SANTA MONICA", "addr:country": "US", "addr:postcode": "90402", "addr:state": "CA", "addr:street_address": "656 SAN LORENZO ST", "amenity": "post_box", "collection_times": "Mo-Fr 12:00; Sa 13:00", "note": "ON 12/24 AND 12/31, THIS BOX MAY BE COLLECTED AS EARLY AS 12 NOON.", "nsi_id": "unitedstatespostalservice-a77078", "operator": "United States Postal Service", "operator:short": "USPS", "operator:type": "public", "operator:wikidata": "Q668687", "ref": "9040200011"}, "type": "Feature"}
{"geometry": {"coordinates": [-118.490897081, 34.047534823], "type": "Point"}, "id": "LjlXHOxNzErXS8pWTeak_wvpu8c=", "properties": {"@source_uri": "https://tools.usps.com/UspsToolsRestServices/rest/POLocator/findLocations", "@spider": "usps_collection_boxes", "addr:city": "SANTA MONICA", "addr:country": "US", "addr:postcode": "90402", "addr:state": "CA", "addr:street_address": "225 26TH ST", "amenity": "post_box", "collection_times": "Mo-Fr 14:00; Sa 13:00", "note": "ON 12/24 AND 12/31, THIS BOX MAY BE COLLECTED AS EARLY AS 12 NOON.", "nsi_id": "unitedstatespostalservice-a77078", "operator": "United States Postal Service", "operator:short": "USPS", "operator:type": "public", "operator:wikidata": "Q668687", "ref": "9040200012"}, "type": "Feature"}
{"geometry": {"coordinates": [-118.496907576, 34.022916125], "type": "Point"}, "id": "fgBtQzHYXr3Vk4zeXdoRvPTFWYQ=", "properties": {"@source_uri": "https://tools.usps.com/UspsToolsRestServices/rest/POLocator/findLocations", "@spider": "usps_collection_boxes", "addr:city": "SANTA MONICA", "addr:country": "US", "addr:postcode": "90403", "addr:state": "CA", "addr:street_address": "720 CALIFORNIA AVE", "amenity": "post_box", "collection_times": "Mo-Fr 12:00; Sa 13:00", "note": "ON 12/24 AND 12/31, THIS BOX MAY BE COLLECTED AS EARLY AS 12 NOON.", "nsi_id": "unitedstatespostalservice-a77078", "operator": "United States Postal Service", "operator:short": "USPS", "operator:type": "public", "operator:wikidata": "Q668687", "ref": "9040300007"}, "type": "Feature"}
{"geometry": {"coordinates": [-118.495347263, 34.031985381], "type": "Point"}, "id": "hHcZSPCRlzfqwyLrlrKUAtctsj8=", "properties": {"@source_uri": "https://tools.usps.com/UspsToolsRestServices/rest/POLocator/findLocations", "@spider": "usps_collection_boxes", "addr:city": "SANTA MONICA", "addr:country": "US", "addr:postcode": "90403", "addr:state": "CA", "addr:street_address": "1340 MONTANA AVE", "amenity": "post_box", "collection_times": "Mo-Sa 14:00", "note": "ON 12/24 AND 12/31, THIS BOX MAY BE COLLECTED AS EARLY AS 12 NOON.", "nsi_id": "unitedstatespostalservice-a77078", "operator": "United States Postal Service", "operator:short": "USPS", "operator:type": "public", "operator:wikidata": "Q668687", "ref": "9040300018"}, "type": "Feature"}
{"geometry": {"coordinates": [-118.504326144, 34.024757984], "type": "Point"}, "id": "rBen45cAEVWyoHk6NAU-YmpJsI8=", "properties": {"@source_uri": "https://tools.usps.com/UspsToolsRestServices/rest/POLocator/findLocations", "@spider": "usps_collection_boxes", "addr:city": "SANTA MONICA", "addr:country": "US", "addr:postcode": "90403", "addr:state": "CA", "addr:street_address": "402 MONTANA AVE", "amenity": "post_box", "collection_times": "Mo-Fr 12:00; Sa 13:00", "note": "ON 12/24 AND 12/31, THIS BOX MAY BE COLLECTED AS EARLY AS 12 NOON.", "nsi_id": "unitedstatespostalservice-a77078", "operator": "United States Postal Service", "operator:short": "USPS", "operator:type": "public", "operator:wikidata": "Q668687", "ref": "9040300019"}, "type": "Feature"}
{"geometry": {"coordinates": [-118.5070130036, 34.0222239886], "type": "Point"}, "id": "UG2PZWPwQg_n5CL1hCoCGC9b8cg=", "properties": {"@source_uri": "https://tools.usps.com/UspsToolsRestServices/rest/POLocator/findLocations", "@spider": "usps_collection_boxes", "addr:city": "SANTA MONICA", "addr:country": "US", "addr:postcode": "90403", "addr:state": "CA", "addr:street_address": "801 OCEAN AVE", "amenity": "post_box", "collection_times": "Mo-Fr 12:00; Sa 13:00", "note": "ON 12/24 AND 12/31, THIS BOX MAY BE COLLECTED AS EARLY AS 12 NOON.", "nsi_id": "unitedstatespostalservice-a77078", "operator": "United States Postal Service", "operator:short": "USPS", "operator:type": "public", "operator:wikidata": "Q668687", "ref": "9040300021"}, "type": "Feature"}
{"geometry": {"coordinates": [-118.498215113, 34.029684401], "type": "Point"}, "id": "6hvvqIDe-dmxXMU5iNxqoRdC5bU=", "properties": {"@source_uri": "https://tools.usps.com/UspsToolsRestServices/rest/POLocator/findLocations", "@spider": "usps_collection_boxes", "addr:city": "SANTA MONICA", "addr:country": "US", "addr:postcode": "90403", "addr:state": "CA", "addr:street_address": "1034 MONTANA AVE", "amenity": "post_box", "collection_times": "Mo-Sa 14:00", "note": "ON 12/24 AND 12/31, THIS BOX MAY BE COLLECTED AS EARLY AS 12 NOON.", "nsi_id": "unitedstatespostalservice-a77078", "operator": "United States Postal Service", "operator:short": "USPS", "operator:type": "public", "operator:wikidata": "Q668687", "ref": "9040300025"}, "type": "Feature"}
{"geometry": {"coordinates": [-118.502054169, 34.026553511], "type": "Point"}, "id": "IRBMoDR8CvcbQ_ZRhPfgX8RUvv8=", "properties": {"@source_uri": "https://tools.usps.com/UspsToolsRestServices/rest/POLocator/findLocations", "@spider": "usps_collection_boxes", "addr:city": "SANTA MONICA", "addr:country": "US", "addr:postcode": "90403", "addr:state": "CA", "addr:street_address": "666 MONTANA AVE", "amenity": "post_box", "collection_times": "Mo-Sa 14:00", "note": "ON 12/24 AND 12/31, THIS BOX MAY BE COLLECTED AS EARLY AS 12 NOON.", "nsi_id": "unitedstatespostalservice-a77078", "operator": "United States Postal Service", "operator:short": "USPS", "operator:type": "public", "operator:wikidata": "Q668687", "ref": "9040300029"}, "type": "Feature"}
{"geometry": {"coordinates": [-118.475577852, 34.0376110661], "type": "Point"}, "id": "pbxaRYOJaOKILaVUT_ijl9WexhM=", "properties": {"@source_uri": "https://tools.usps.com/UspsToolsRestServices/rest/POLocator/findLocations", "@spider": "usps_collection_boxes", "addr:city": "SANTA MONICA", "addr:country": "US", "addr:postcode": "90403", "addr:state": "CA", "addr:street_address": "2801 WILSHIRE BLVD", "amenity": "post_box", "collection_times": "Mo-Fr 13:30", "note": "ON 12/24 AND 12/31, THIS BOX MAY BE COLLECTED AS EARLY AS 12 NOON.", "nsi_id": "unitedstatespostalservice-a77078", "operator": "United States Postal Service", "operator:short": "USPS", "operator:type": "public", "operator:wikidata": "Q668687", "ref": "9040300034"}, "type": "Feature"}
{"geometry": {"coordinates": [-118.481967, 34.032834], "type": "Point"}, "id": "yZKPlMghROdBRvpoaflC9a-q4dM=", "properties": {"@source_uri": "https://tools.usps.com/UspsToolsRestServices/rest/POLocator/findLocations", "@spider": "usps_collection_boxes", "addr:city": "SANTA MONICA", "addr:country": "US", "addr:postcode": "90403", "addr:state": "CA", "addr:street_address": "2121 WILSHIRE BLVD", "amenity": "post_box", "collection_times": "Mo-Fr 13:30", "note": "ON 12/24 AND 12/31, THIS BOX MAY BE COLLECTED AS EARLY AS 12 NOON.", "nsi_id": "unitedstatespostalservice-a77078", "operator": "United States Postal Service", "operator:short": "USPS", "operator:type": "public", "operator:wikidata": "Q668687", "ref": "9040300036"}, "type": "Feature"}
{"geometry": {"coordinates": [-118.47308417, 34.039611775], "type": "Point"}, "id": "UwT3qJgFkDXgVix2w2nM2qGJRaY=", "properties": {"@source_uri": "https://tools.usps.com/UspsToolsRestServices/rest/POLocator/findLocations", "@spider": "usps_collection_boxes", "addr:city": "SANTA MONICA", "addr:country": "US", "addr:postcode": "90403", "addr:state": "CA", "addr:street_address": "3027 WILSHIRE BLVD", "amenity": "post_box", "collection_times": "Mo-Fr 13:30; Sa 15:30", "note": "ON 12/24 AND 12/31, THIS BOX MAY BE COLLECTED AS EARLY AS 12 NOON.", "nsi_id": "unitedstatespostalservice-a77078", "operator": "United States Postal Service", "operator:short": "USPS", "operator:type": "public", "operator:wikidata": "Q668687", "ref": "9040300039"}, "type": "Feature"}
{"geometry": {"coordinates": [-118.4901906885, 34.0257582068], "type": "Point"}, "id": "ocF9c02XPPk9vXZozFSlxf3M7MU=", "properties": {"@source_uri": "https://tools.usps.com/UspsToolsRestServices/rest/POLocator/findLocations", "@spider": "usps_collection_boxes", "addr:city": "SANTA MONICA", "addr:country": "US", "addr:postcode": "90403", "addr:state": "CA", "addr:street_address": "1217 WILSHIRE BLVD LOBBY", "amenity": "post_box", "collection_times": "Mo-Fr 17:00; Sa 15:45", "indoor": "yes", "note": "ON 12/24 AND 12/31, THIS BOX MAY BE COLLECTED AS EARLY AS 12 NOON.", "nsi_id": "unitedstatespostalservice-a77078", "operator": "United States Postal Service", "operator:short": "USPS", "operator:type": "public", "operator:wikidata": "Q668687", "ref": "9040300042"}, "type": "Feature"}
{"geometry": {"coordinates": [-118.4901906885, 34.0257582068], "type": "Point"}, "id": "bx1mODR2lo-ZfMdtFLOMwMWchVk=", "properties": {"@source_uri": "https://tools.usps.com/UspsToolsRestServices/rest/POLocator/findLocations", "@spider": "usps_collection_boxes", "addr:city": "SANTA MONICA", "addr:country": "US", "addr:postcode": "90403", "addr:state": "CA", "addr:street_address": "1217 WILSHIRE BLVD LOBBY", "amenity": "post_box", "collection_times": "Mo-Fr 17:00; Sa 15:45", "indoor": "yes", "note": "ON 12/24 AND 12/31, THIS BOX MAY BE COLLECTED AS EARLY AS 12 NOON.", "nsi_id": "unitedstatespostalservice-a77078", "operator": "United States Postal Service", "operator:short": "USPS", "operator:type": "public", "operator:wikidata": "Q668687", "ref": "9040300043"}, "type": "Feature"}
{"geometry": {"coordinates": [-118.49477, 34.02867], "type": "Point"}, "id": "AnbEsm7cdm170K1e38ygsnoePpU=", "properties": {"@source_uri": "https://tools.usps.com/UspsToolsRestServices/rest/POLocator/findLocations", "@spider": "usps_collection_boxes", "addr:city": "SANTA MONICA", "addr:country": "US", "addr:postcode": "90403", "addr:state": "CA", "addr:street_address": "1217 WILSHIRE BLVD LOBBY", "amenity": "post_box", "collection_times": "Mo-Fr 17:00; Sa 15:45", "name": "USPS COLLECTION BOX - APC", "note": "ON 12/24 AND 12/31, THIS BOX MAY BE COLLECTED AS EARLY AS 12 NOON.", "nsi_id": "unitedstatespostalservice-a77078", "operator": "United States Postal Service", "operator:short": "USPS", "operator:type": "public", "operator:wikidata": "Q668687", "ref": "9040300045"}, "type": "Feature"}
{"geometry": {"coordinates": [-118.490190688, 34.025758207], "type": "Point"}, "id": "i-zWL_ZjDlsA6lol9ZSuay0U-Vs=", "properties": {"@source_uri": "https://tools.usps.com/UspsToolsRestServices/rest/POLocator/findLocations", "@spider": "usps_collection_boxes", "addr:city": "SANTA MONICA", "addr:country": "US", "addr:postcode": "90403", "addr:state": "CA", "addr:street_address": "1217 WILSHIRE BLVD LOBBY", "amenity": "post_box", "collection_times": "Mo-Fr 17:00; Sa 15:45", "indoor": "yes", "note": "ON 12/24 AND 12/31, THIS BOX MAY BE COLLECTED AS EARLY AS 12 NOON.", "nsi_id": "unitedstatespostalservice-a77078", "operator": "United States Postal Service", "operator:short": "USPS", "operator:type": "public", "operator:wikidata": "Q668687", "ref": "9040300060"}, "type": "Feature"}
{"geometry": {"coordinates": [-118.4704349649, 34.0358390073], "type": "Point"}, "id": "qH8fk3NvaNiGxJUeeiy-h8VmJuo=", "properties": {"@source_uri": "https://tools.usps.com/UspsToolsRestServices/rest/POLocator/findLocations", "@spider": "usps_collection_boxes", "addr:city": "SANTA MONICA", "addr:country": "US", "addr:postcode": "90404", "addr:state": "CA", "addr:street_address": "2926 SANTA MONICA BLVD", "amenity": "post_box", "collection_times": "Mo-Fr 13:30", "note": "ON 12/24 AND 12/31, THIS BOX MAY BE COLLECTED AS EARLY AS 12 NOON.", "nsi_id": "unitedstatespostalservice-a77078", "operator": "United States Postal Service", "operator:short": "USPS", "operator:type": "public", "operator:wikidata": "Q668687", "ref": "9040400004"}, "type": "Feature"}
{"geometry": {"coordinates": [-118.4718112557, 34.0353955298], "type": "Point"}, "id": "xAjxzl-xwYEMBV5YagJGCUpiAHc=", "properties": {"@source_uri": "https://tools.usps.com/UspsToolsRestServices/rest/POLocator/findLocations", "@spider": "usps_collection_boxes", "addr:city": "SANTA MONICA", "addr:country": "US", "addr:postcode": "90404", "addr:state": "CA", "addr:street_address": "2825 SANTA MONICA BLVD", "amenity": "post_box", "collection_times": "Mo-Fr 13:30", "note": "ON 12/24 AND 12/31, THIS BOX MAY BE COLLECTED AS EARLY AS 12 NOON.", "nsi_id": "unitedstatespostalservice-a77078", "operator": "United States Postal Service", "operator:short": "USPS", "operator:type": "public", "operator:wikidata": "Q668687", "ref": "9040400010"}, "type": "Feature"}
{"geometry": {"coordinates": [-118.4875335, 34.02225], "type": "Point"}, "id": "MRknQHwH5OwIvP-lrM7WnvCH3lg=", "properties": {"@source_uri": "https://tools.usps.com/UspsToolsRestServices/rest/POLocator/findLocations", "@spider": "usps_collection_boxes", "addr:city": "SANTA MONICA", "addr:country": "US", "addr:postcode": "90404", "addr:state": "CA", "addr:street_address": "1130 SANTA MONICA BLVD", "amenity": "post_box", "collection_times": "Mo-Fr 14:30; Sa 13:15", "note": "ON 12/24 AND 12/31, THIS BOX MAY BE COLLECTED AS EARLY AS 12 NOON.", "nsi_id": "unitedstatespostalservice-a77078", "operator": "United States Postal Service", "operator:short": "USPS", "operator:type": "public", "operator:wikidata": "Q668687", "ref": "9040400016"}, "type": "Feature"}
{"geometry": {"coordinates": [-118.465848962, 34.030399147], "type": "Point"}, "id": "5dT6FWqVKuxL18VJr7M8_KUylls=", "properties": {"@source_uri": "https://tools.usps.com/UspsToolsRestServices/rest/POLocator/findLocations", "@spider": "usps_collection_boxes", "addr:city": "SANTA MONICA", "addr:country": "US", "addr:postcode": "90404", "addr:state": "CA", "addr:street_address": "1735 STEWART ST", "amenity": "post_box", "collection_times": "Mo-Fr 13:30", "note": "ON 12/24 AND 12/31, THIS BOX MAY BE COLLECTED AS EARLY AS 12 NOON.", "nsi_id": "unitedstatespostalservice-a77078", "operator": "United States Postal Service", "operator:short": "USPS", "operator:type": "public", "operator:wikidata": "Q668687", "ref": "9040400019"}, "type": "Feature"}
{"geometry": {"coordinates": [-118.4631668316, 34.0320010356], "type": "Point"}, "id": "QGYvqmuxiIv7AkVW286hF3w3cXw=", "properties": {"@source_uri": "https://tools.usps.com/UspsToolsRestServices/rest/POLocator/findLocations", "@spider": "usps_collection_boxes", "addr:city": "SANTA MONICA", "addr:country": "US", "addr:postcode": "90404", "addr:state": "CA", "addr:street_address": "3101 NEBRASKA AVE", "amenity": "post_box", "collection_times": "Mo-Fr 13:30", "note": "ON 12/24 AND 12/31, THIS BOX MAY BE COLLECTED AS EARLY AS 12 NOON.", "nsi_id": "unitedstatespostalservice-a77078", "operator": "United States Postal Service", "operator:short": "USPS", "operator:type": "public", "operator:wikidata": "Q668687", "ref": "9040400020"}, "type": "Feature"}
{"geometry": {"coordinates": [-118.4798308171, 34.0314092094], "type": "Point"}, "id": "Q7W9Bh9fekGDgWDT009aL3hs-aE=", "properties": {"@source_uri": "https://tools.usps.com/UspsToolsRestServices/rest/POLocator/findLocations", "@spider": "usps_collection_boxes", "addr:city": "SANTA MONICA", "addr:country": "US", "addr:postcode": "90404", "addr:state": "CA", "addr:street_address": "2202 ARIZONA AVE", "amenity": "post_box", "collection_times": "Mo-Fr 13:30; Sa 15:30", "note": "ON 12/24 AND 12/31, THIS BOX MAY BE COLLECTED AS EARLY AS 12 NOON.", "nsi_id": "unitedstatespostalservice-a77078", "operator": "United States Postal Service", "operator:short": "USPS", "operator:type": "public", "operator:wikidata": "Q668687", "ref": "9040400025"}, "type": "Feature"}
{"geometry": {"coordinates": [-118.461365197, 34.033037294], "type": "Point"}, "id": "y2euaVD0nIUReOiYjHToAtpDMB0=", "properties": {"@source_uri": "https://tools.usps.com/UspsToolsRestServices/rest/POLocator/findLocations", "@spider": "usps_collection_boxes", "addr:city": "SANTA MONICA", "addr:country": "US", "addr:postcode": "90404", "addr:state": "CA", "addr:street_address": "1815 CENTINELA AVE", "amenity": "post_box", "collection_times": "Mo-Fr 13:30; Sa 13:00", "note": "ON 12/24 AND 12/31, THIS BOX MAY BE COLLECTED AS EARLY AS 12 NOON.", "nsi_id": "unitedstatespostalservice-a77078", "operator": "United States Postal Service", "operator:short": "USPS", "operator:type": "public", "operator:wikidata": "Q668687", "ref": "9040400034"}, "type": "Feature"}
{"geometry": {"coordinates": [-118.472849461, 34.029387047], "type": "Point"}, "id": "yQw5aQxIxh8ddJsE0jp6x9a-sqs=", "properties": {"@source_uri": "https://tools.usps.com/UspsToolsRestServices/rest/POLocator/findLocations", "@spider": "usps_collection_boxes", "addr:city": "SANTA MONICA", "addr:country": "US", "addr:postcode": "90404", "addr:state": "CA", "addr:street_address": "2425 COLORADO AVE", "amenity": "post_box", "collection_times": "Mo-Fr 14:30", "note": "ON 12/24 AND 12/31, THIS BOX MAY BE COLLECTED AS EARLY AS 12 NOON.", "nsi_id": "unitedstatespostalservice-a77078", "operator": "United States Postal Service", "operator:short": "USPS", "operator:type": "public", "operator:wikidata": "Q668687", "ref": "9040400037"}, "type": "Feature"}
{"geometry": {"coordinates": [-118.476347359, 34.031606943], "type": "Point"}, "id": "Xbp-WohQUJ0NxN16atmusELuqOc=", "properties": {"@source_uri": "https://tools.usps.com/UspsToolsRestServices/rest/POLocator/findLocations", "@spider": "usps_collection_boxes", "addr:city": "SANTA MONICA", "addr:country": "US", "addr:postcode": "90404", "addr:state": "CA", "addr:street_address": "1401 24TH ST", "amenity": "post_box", "collection_times": "Mo-Fr 14:30; Sa 13:30", "note": "ON 12/24 AND 12/31, THIS BOX MAY BE COLLECTED AS EARLY AS 12 NOON.", "nsi_id": "unitedstatespostalservice-a77078", "operator": "United States Postal Service", "operator:short": "USPS", "operator:type": "public", "operator:wikidata": "Q668687", "ref": "9040400045"}, "type": "Feature"}
{"geometry": {"coordinates": [-118.468338601, 34.02720713], "type": "Point"}, "id": "Em8ppjT98rH4BNaCnCs7zy5ickE=", "properties": {"@source_uri": "https://tools.usps.com/UspsToolsRestServices/rest/POLocator/findLocations", "@spider": "usps_collection_boxes", "addr:city": "SANTA MONICA", "addr:country": "US", "addr:postcode": "90404", "addr:state": "CA", "addr:street_address": "2525 MICHIGAN AVE", "amenity": "post_box", "collection_times": "Mo-Fr 12:30", "note": "ON 12/24 AND 12/31, THIS BOX MAY BE COLLECTED AS EARLY AS 12 NOON.", "nsi_id": "unitedstatespostalservice-a77078", "operator": "United States Postal Service", "operator:short": "USPS", "operator:type": "public", "operator:wikidata": "Q668687", "ref": "9040400046"}, "type": "Feature"}
{"geometry": {"coordinates": [-118.4768, 34.025915], "type": "Point"}, "id": "6qYFBAiEkPQ1X6k0-Guxp7iadX8=", "properties": {"@source_uri": "https://tools.usps.com/UspsToolsRestServices/rest/POLocator/findLocations", "@spider": "usps_collection_boxes", "addr:city": "SANTA MONICA", "addr:country": "US", "addr:postcode": "90404", "addr:state": "CA", "addr:street_address": "2001 SANTA MONICA BLVD", "amenity": "post_box", "collection_times": "Mo-Fr 14:30; Sa 13:00", "note": "ON 12/24 AND 12/31, THIS BOX MAY BE COLLECTED AS EARLY AS 12 NOON.", "nsi_id": "unitedstatespostalservice-a77078", "operator": "United States Postal Service", "operator:short": "USPS", "operator:type": "public", "operator:wikidata": "Q668687", "ref": "9040400047"}, "type": "Feature"}
{"geometry": {"coordinates": [-118.48446956, 34.0029394448], "type": "Point"}, "id": "DcSg9h7kKOxFeakqc4hNfZ0f3TQ=", "properties": {"@source_uri": "https://tools.usps.com/UspsToolsRestServices/rest/POLocator/findLocations", "@spider": "usps_collection_boxes", "addr:city": "SANTA MONICA", "addr:country": "US", "addr:postcode": "90405", "addr:state": "CA", "addr:street_address": "2501 MAIN ST", "amenity": "post_box", "collection_times": "Mo-Sa 13:00", "note": "ON 12/24 AND 12/31, THIS BOX MAY BE COLLECTED AS EARLY AS 12 NOON.", "nsi_id": "unitedstatespostalservice-a77078", "operator": "United States Postal Service", "operator:short": "USPS", "operator:type": "public", "operator:wikidata": "Q668687", "ref": "9040500001"}, "type": "Feature"}
{"geometry": {"coordinates": [-118.4515590767, 34.021458804], "type": "Point"}, "id": "VqXoasVhpegS8oE6stBGM9oUZcU=", "properties": {"@source_uri": "https://tools.usps.com/UspsToolsRestServices/rest/POLocator/findLocations", "@spider": "usps_collection_boxes", "addr:city": "SANTA MONICA", "addr:country": "US", "addr:postcode": "90405", "addr:state": "CA", "addr:street_address": "3231 OCEAN PARK BLVD", "amenity": "post_box", "collection_times": "Mo-Fr 14:30; Sa 14:00", "note": "ON 12/24 AND 12/31, THIS BOX MAY BE COLLECTED AS EARLY AS 12 NOON.", "nsi_id": "unitedstatespostalservice-a77078", "operator": "United States Postal Service", "operator:short": "USPS", "operator:type": "public", "operator:wikidata": "Q668687", "ref": "9040500007"}, "type": "Feature"}
{"geometry": {"coordinates": [-118.450494193, 34.021817698], "type": "Point"}, "id": "Wk_hxSrXbGrIPnmT6Hx1SljfXk4=", "properties": {"@source_uri": "https://tools.usps.com/UspsToolsRestServices/rest/POLocator/findLocations", "@spider": "usps_collection_boxes", "addr:city": "SANTA MONICA", "addr:country": "US", "addr:postcode": "90405", "addr:state": "CA", "addr:street_address": "3350 OCEAN PARK BLVD", "amenity": "post_box", "collection_times": "Mo-Fr 14:30", "note": "ON 12/24 AND 12/31, THIS BOX MAY BE COLLECTED AS EARLY AS 12 NOON.", "nsi_id": "unitedstatespostalservice-a77078", "operator": "United States Postal Service", "operator:short": "USPS", "operator:type": "public", "operator:wikidata": "Q668687", "ref": "9040500011"}, "type": "Feature"}
{"geometry": {"coordinates": [-118.468744121, 34.019780292], "type": "Point"}, "id": "hOMT43ry_GF1JL0pomHtlu3D3gY=", "properties": {"@source_uri": "https://tools.usps.com/UspsToolsRestServices/rest/POLocator/findLocations", "@spider": "usps_collection_boxes", "addr:city": "SANTA MONICA", "addr:country": "US", "addr:postcode": "90405", "addr:state": "CA", "addr:street_address": "2050 PICO BLVD", "amenity": "post_box", "collection_times": "Mo-Sa 14:00", "note": "ON 12/24 AND 12/31, THIS BOX MAY BE COLLECTED AS EARLY AS 12 NOON.", "nsi_id": "unitedstatespostalservice-a77078", "operator": "United States Postal Service", "operator:short": "USPS", "operator:type": "public", "operator:wikidata": "Q668687", "ref": "9040500023"}, "type": "Feature"}
{"geometry": {"coordinates": [-118.4787146216, 34.0013067736], "type": "Point"}, "id": "r6YnNRjxeaWek_iWrWIpwoIDJH0=", "properties": {"@source_uri": "https://tools.usps.com/UspsToolsRestServices/rest/POLocator/findLocations", "@spider": "usps_collection_boxes", "addr:city": "SANTA MONICA", "addr:country": "US", "addr:postcode": "90405", "addr:state": "CA", "addr:street_address": "401 ASHLAND AVE", "amenity": "post_box", "collection_times": "Mo-Sa 13:00", "note": "ON 12/24 AND 12/31, THIS BOX MAY BE COLLECTED AS EARLY AS 12 NOON.", "nsi_id": "unitedstatespostalservice-a77078", "operator": "United States Postal Service", "operator:short": "USPS", "operator:type": "public", "operator:wikidata": "Q668687", "ref": "9040500031"}, "type": "Feature"}
{"geometry": {"coordinates": [-118.463487752, 34.014462086], "type": "Point"}, "id": "Kouszig-dHs3Hlv_So423IQGyIM=", "properties": {"@source_uri": "https://tools.usps.com/UspsToolsRestServices/rest/POLocator/findLocations", "@spider": "usps_collection_boxes", "addr:city": "SANTA MONICA", "addr:country": "US", "addr:postcode": "90405", "addr:state": "CA", "addr:street_address": "2101 OCEAN PARK BLVD", "amenity": "post_box", "collection_times": "Mo-Sa 14:00", "note": "ON 12/24 AND 12/31, THIS BOX MAY BE COLLECTED AS EARLY AS 12 NOON.", "nsi_id": "unitedstatespostalservice-a77078", "operator": "United States Postal Service", "operator:short": "USPS", "operator:type": "public", "operator:wikidata": "Q668687", "ref": "9040500032"}, "type": "Feature"}
{"geometry": {"coordinates": [-118.4557589019, 34.0187651977], "type": "Point"}, "id": "G_vT6MkUIuCJ7JswzLUsJPhdXbI=", "properties": {"@source_uri": "https://tools.usps.com/UspsToolsRestServices/rest/POLocator/findLocations", "@spider": "usps_collection_boxes", "addr:city": "SANTA MONICA", "addr:country": "US", "addr:postcode": "90405", "addr:state": "CA", "addr:street_address": "2802 OCEAN PARK BLVD", "amenity": "post_box", "collection_times": "Mo-Fr 14:30; Sa 14:00", "note": "ON 12/24 AND 12/31, THIS BOX MAY BE COLLECTED AS EARLY AS 12 NOON.", "nsi_id": "unitedstatespostalservice-a77078", "operator": "United States Postal Service", "operator:short": "USPS", "operator:type": "public", "operator:wikidata": "Q668687", "ref": "9040500034"}, "type": "Feature"}
{"geometry": {"coordinates": [-118.457977026, 34.0180210089], "type": "Point"}, "id": "MbrelfS100CiaeJbd97avw-k_tc=", "properties": {"@source_uri": "https://tools.usps.com/UspsToolsRestServices/rest/POLocator/findLocations", "@spider": "usps_collection_boxes", "addr:city": "SANTA MONICA", "addr:country": "US", "addr:postcode": "90405", "addr:state": "CA", "addr:street_address": "2601 OCEAN PARK BLVD", "amenity": "post_box", "collection_times": "Mo-Fr 14:00", "note": "ON 12/24 AND 12/31, THIS BOX MAY BE COLLECTED AS EARLY AS 12 NOON.", "nsi_id": "unitedstatespostalservice-a77078", "operator": "United States Postal Service", "operator:short": "USPS", "operator:type": "public", "operator:wikidata": "Q668687", "ref": "9040500037"}, "type": "Feature"}
{"geometry": {"coordinates": [-118.479483, 34.013817], "type": "Point"}, "id": "SuqpO0U6xq2Y9GmvoWggmQxWbOA=", "properties": {"@source_uri": "https://tools.usps.com/UspsToolsRestServices/rest/POLocator/findLocations", "@spider": "usps_collection_boxes", "addr:city": "SANTA MONICA", "addr:country": "US", "addr:postcode": "90405", "addr:state": "CA", "addr:street_address": "1048 PICO BLVD", "amenity": "post_box", "collection_times": "Mo-Fr 14:00", "note": "ON 12/24 AND 12/31, THIS BOX MAY BE COLLECTED AS EARLY AS 12 NOON.", "nsi_id": "unitedstatespostalservice-a77078", "operator": "United States Postal Service", "operator:short": "USPS", "operator:type": "public", "operator:wikidata": "Q668687", "ref": "9040500038"}, "type": "Feature"}
{"geometry": {"coordinates": [-118.447497574, 34.016686264], "type": "Point"}, "id": "NmZLTloRedXzUVmWQgHoBs4C3cw=", "properties": {"@source_uri": "https://tools.usps.com/UspsToolsRestServices/rest/POLocator/findLocations", "@spider": "usps_collection_boxes", "addr:city": "SANTA MONICA", "addr:country": "US", "addr:postcode": "90405", "addr:state": "CA", "addr:street_address": "3223 DONALD DOUGLAS LOOP S", "amenity": "post_box", "collection_times": "Mo-Sa 13:00", "note": "ON 12/24 AND 12/31, THIS BOX MAY BE COLLECTED AS EARLY AS 12 NOON.", "nsi_id": "unitedstatespostalservice-a77078", "operator": "United States Postal Service", "operator:short": "USPS", "operator:type": "public", "operator:wikidata": "Q668687", "ref": "9040500050"}, "type": "Feature"}
{"geometry": {"coordinates": [-118.4830811, 34.000400788], "type": "Point"}, "id": "oWQFZeZ1MLjLNiNCW0h-haQXb5w=", "properties": {"@source_uri": "https://tools.usps.com/UspsToolsRestServices/rest/POLocator/findLocations", "@spider": "usps_collection_boxes", "addr:city": "SANTA MONICA", "addr:country": "US", "addr:postcode": "90405", "addr:state": "CA", "addr:street_address": "2720 NEILSON WAY LOBBY", "amenity": "post_box", "collection_times": "Mo-Fr 17:00; Sa 14:00", "indoor": "yes", "note": "ON 12/24 AND 12/31, THIS BOX MAY BE COLLECTED AS EARLY AS 12 NOON.", "nsi_id": "unitedstatespostalservice-a77078", "operator": "United States Postal Service", "operator:short": "USPS", "operator:type": "public", "operator:wikidata": "Q668687", "ref": "9040500052"}, "type": "Feature"}
{"geometry": {"coordinates": [-118.4830811, 34.000400788], "type": "Point"}, "id": "zsi1A93vTJQOD8ab5YS0n5dfLkI=", "properties": {"@source_uri": "https://tools.usps.com/UspsToolsRestServices/rest/POLocator/findLocations", "@spider": "usps_collection_boxes", "addr:city": "SANTA MONICA", "addr:country": "US", "addr:postcode": "90405", "addr:state": "CA", "addr:street_address": "2720 NEILSON WAY LOBBY", "amenity": "post_box", "collection_times": "Mo-Fr 17:00; Sa 14:00", "indoor": "yes", "note": "ON 12/24 AND 12/31, THIS BOX MAY BE COLLECTED AS EARLY AS 12 NOON.", "nsi_id": "unitedstatespostalservice-a77078", "operator": "United States Postal Service", "operator:short": "USPS", "operator:type": "public", "operator:wikidata": "Q668687", "ref": "9040500053"}, "type": "Feature"}
{"geometry": {"coordinates": [-118.485148774, 34.007656371], "type": "Point"}, "id": "aGDS6ye-xqcISos7zh4dag1L1gw=", "properties": {"@source_uri": "https://tools.usps.com/UspsToolsRestServices/rest/POLocator/findLocations", "@spider": "usps_collection_boxes", "addr:city": "SANTA MONICA", "addr:country": "US", "addr:postcode": "90405", "addr:state": "CA", "addr:street_address": "400 PACIFIC ST", "amenity": "post_box", "collection_times": "Mo-Sa 13:00", "note": "ON 12/24 AND 12/31, THIS BOX MAY BE COLLECTED AS EARLY AS 12 NOON.", "nsi_id": "unitedstatespostalservice-a77078", "operator": "United States Postal Service", "operator:short": "USPS", "operator:type": "public", "operator:wikidata": "Q668687", "ref": "9040500055"}, "type": "Feature"}
{"geometry": {"coordinates": [-118.4830811, 34.000400788], "type": "Point"}, "id": "WS5rWdMycTRvWPjlJ9_3z7zaGag=", "properties": {"@source_uri": "https://tools.usps.com/UspsToolsRestServices/rest/POLocator/findLocations", "@spider": "usps_collection_boxes", "addr:city": "SANTA MONICA", "addr:country": "US", "addr:postcode": "90405", "addr:state": "CA", "addr:street_address": "2720 NEILSON WAY LOBBY", "amenity": "post_box", "collection_times": "Mo-Fr 17:00; Sa 14:00", "indoor": "yes", "note": "ON 12/24 AND 12/31, THIS BOX MAY BE COLLECTED AS EARLY AS 12 NOON.", "nsi_id": "unitedstatespostalservice-a77078", "operator": "United States Postal Service", "operator:short": "USPS", "operator:type": "public", "operator:wikidata": "Q668687", "ref": "9040500060"}, "type": "Feature"}
{"geometry": {"coordinates": [-118.4830893847, 34.0004097279], "type": "Point"}, "id": "Xcr4Xt4WiZZAMJmZ-5KK5MYpxbo=", "properties": {"@source_uri": "https://tools.usps.com/UspsToolsRestServices/rest/POLocator/findLocations", "@spider": "usps_collection_boxes", "addr:city": "SANTA MONICA", "addr:country": "US", "addr:postcode": "90405", "addr:state": "CA", "addr:street_address": "2720 NEILSON WAY", "amenity": "post_box", "collection_times": "Mo-Fr 17:00; Sa 14:00", "note": "ON 12/24 AND 12/31, THIS BOX MAY BE COLLECTED AS EARLY AS 12 NOON.", "nsi_id": "unitedstatespostalservice-a77078", "operator": "United States Postal Service", "operator:short": "USPS", "operator:type": "public", "operator:wikidata": "Q668687", "ref": "9040500062"}, "type": "Feature"}
