{"geometry": {"coordinates": [-118.310173, 33.839382], "type": "Point"}, "id": "lpIY6pvLIf2wqQHC21xbJVH5xBo=", "properties": {"@source_uri": "https://tools.usps.com/UspsToolsRestServices/rest/POLocator/findLocations", "@spider": "usps_collection_boxes", "addr:city": "TORRANCE", "addr:country": "US", "addr:postcode": "90501", "addr:state": "CA", "addr:street_address": "21041 S WESTERN AVE", "amenity": "post_box", "collection_times": "Mo-Fr 15:00; Sa 13:00", "note": "ON 12/24 AND 12/31, THIS BOX MAY BE COLLECTED AS EARLY AS 12 NOON.", "nsi_id": "unitedstatespostalservice-a77078", "operator": "United States Postal Service", "operator:short": "USPS", "operator:type": "public", "operator:wikidata": "Q668687", "ref": "9050100008"}, "type": "Feature"}
{"geometry": {"coordinates": [-118.318971, 33.845745], "type": "Point"}, "id": "rphJhD4m7Rob0wQljxZt9cpPvi4=", "properties": {"@source_uri": "https://tools.usps.com/UspsToolsRestServices/rest/POLocator/findLocations", "@spider": "usps_collection_boxes", "addr:city": "TORRANCE", "addr:country": "US", "addr:postcode": "90501", "addr:state": "CA", "addr:street_address": "357 VAN NESS WAY", "amenity": "post_box", "collection_times": "Mo-Fr 15:00; Sa 13:00", "note": "ON 12/24 AND 12/31, THIS BOX MAY BE COLLECTED AS EARLY AS 12 NOON.", "nsi_id": "unitedstatespostalservice-a77078", "operator": "United States Postal Service", "operator:short": "USPS", "operator:type": "public", "operator:wikidata": "Q668687", "ref": "9050100019"}, "type": "Feature"}
{"geometry": {"coordinates": [-118.320059, 33.809962], "type": "Point"}, "id": "Cn7XpnxRZgl1sL6LezdoCkakvos=", "properties": {"@source_uri": "https://tools.usps.com/UspsToolsRestServices/rest/POLocator/findLocations", "@spider": "usps_collection_boxes", "addr:city": "TORRANCE", "addr:country": "US", "addr:postcode": "90501", "addr:state": "CA", "addr:street_address": "23649 ARLINGTON AVE", "amenity": "post_box", "collection_times": "Mo-Sa 13:00", "note": "ON 12/24 AND 12/31, THIS BOX MAY BE COLLECTED AS EARLY AS 12 NOON.", "nsi_id": "unitedstatespostalservice-a77078", "operator": "United States Postal Service", "operator:short": "USPS", "operator:type": "public", "operator:wikidata": "Q668687", "ref": "9050100022"}, "type": "Feature"}
{"geometry": {"coordinates": [-118.3157839478, 33.8335922293], "type": "Point"}, "id": "1-3TFF73IMaISF-WM_wQFg3DnmU=", "properties": {"@source_uri": "https://tools.usps.com/UspsToolsRestServices/rest/POLocator/findLocations", "@spider": "usps_collection_boxes", "addr:city": "TORRANCE", "addr:country": "US", "addr:postcode": "90501", "addr:state": "CA", "addr:street_address": "1433 MARCELINA AVE LOBBY", "amenity": "post_box", "collection_times": "Mo-Fr 17:00", "indoor": "yes", "note": "ON 12/24 AND 12/31, THIS BOX MAY BE COLLECTED AS EARLY AS 12 NOON.", "nsi_id": "unitedstatespostalservice-a77078", "operator": "United States Postal Service", "operator:short": "USPS", "operator:type": "public", "operator:wikidata": "Q668687", "ref": "9050100048"}, "type": "Feature"}
{"geometry": {"coordinates": [-118.298874, 33.856388], "type": "Point"}, "id": "XbrqgFBuc0xDi0YXUJwjIpGjP3Y=", "properties": {"@source_uri": "https://tools.usps.com/UspsToolsRestServices/rest/POLocator/findLocations", "@spider": "usps_collection_boxes", "addr:city": "TORRANCE", "addr:country": "US", "addr:postcode": "90501", "addr:state": "CA", "addr:street_address": "19106 NORMANDIE AVE", "amenity": "post_box", "collection_times": "Mo-Fr 15:30", "note": "ON 12/24 AND 12/31, THIS BOX MAY BE COLLECTED AS EARLY AS 12 NOON.", "nsi_id": "unitedstatespostalservice-a77078", "operator": "United States Postal Service", "operator:short": "USPS", "operator:type": "public", "operator:wikidata": "Q668687", "ref": "9050100053"}, "type": "Feature"}
{"geometry": {"coordinates": [-118.3157839478, 33.8335922293], "type": "Point"}, "id": "NbuF9lqvyDA1LUNcGP90QnCG-Fo=", "properties": {"@source_uri": "https://tools.usps.com/UspsToolsRestServices/rest/POLocator/findLocations", "@spider": "usps_collection_boxes", "addr:city": "TORRANCE", "addr:country": "US", "addr:postcode": "90501", "addr:state": "CA", "addr:street_address": "1433 MARCELINA AVE LOBBY", "amenity": "post_box", "collection_times": "Mo-Fr 17:00", "indoor": "yes", "note": "ON 12/24 AND 12/31, THIS BOX MAY BE COLLECTED AS EARLY AS 12 NOON.", "nsi_id": "unitedstatespostalservice-a77078", "operator": "United States Postal Service", "operator:short": "USPS", "operator:type": "public", "operator:wikidata": "Q668687", "ref": "9050100057"}, "type": "Feature"}
{"geometry": {"coordinates": [-118.289284, 33.85142], "type": "Point"}, "id": "M-KvQgwD6zTsBf2wIoNCexAC2Yc=", "properties": {"@source_uri": "https://tools.usps.com/UspsToolsRestServices/rest/POLocator/findLocations", "@spider": "usps_collection_boxes", "addr:city": "TORRANCE", "addr:country": "US", "addr:postcode": "90502", "addr:state": "CA", "addr:street_address": "19750 S VERMONT AVE", "amenity": "post_box", "collection_times": "Mo-Fr 15:00; Sa 13:00", "note": "ON 12/24 AND 12/31, THIS BOX MAY BE COLLECTED AS EARLY AS 12 NOON.", "nsi_id": "unitedstatespostalservice-a77078", "operator": "United States Postal Service", "operator:short": "USPS", "operator:type": "public", "operator:wikidata": "Q668687", "ref": "9050200016"}, "type": "Feature"}
{"geometry": {"coordinates": [-118.289296, 33.851366], "type": "Point"}, "id": "YR8ES4uhqh8h-CslmkflFKofEDc=", "properties": {"@source_uri": "https://tools.usps.com/UspsToolsRestServices/rest/POLocator/findLocations", "@spider": "usps_collection_boxes", "addr:city": "TORRANCE", "addr:country": "US", "addr:postcode": "90502", "addr:state": "CA", "addr:street_address": "19700 S VERMONT AVE", "amenity": "post_box", "collection_times": "Mo-Fr 15:00; Sa 13:00", "note": "ON 12/24 AND 12/31, THIS BOX MAY BE COLLECTED AS EARLY AS 12 NOON.", "nsi_id": "unitedstatespostalservice-a77078", "operator": "United States Postal Service", "operator:short": "USPS", "operator:type": "public", "operator:wikidata": "Q668687", "ref": "9050200017"}, "type": "Feature"}
{"geometry": {"coordinates": [-118.290108, 33.812484], "type": "Point"}, "id": "tbTVoKmfyi0eedrSTtrShzQAI_U=", "properties": {"@source_uri": "https://tools.usps.com/UspsToolsRestServices/rest/POLocator/findLocations", "@spider": "usps_collection_boxes", "addr:city": "TORRANCE", "addr:country": "US", "addr:postcode": "90502", "addr:state": "CA", "addr:street_address": "838 CORIANDER DR", "amenity": "post_box", "collection_times": "Mo-Sa 13:00", "note": "ON 12/24 AND 12/31, THIS BOX MAY BE COLLECTED AS EARLY AS 12 NOON.", "nsi_id": "unitedstatespostalservice-a77078", "operator": "United States Postal Service", "operator:short": "USPS", "operator:type": "public", "operator:wikidata": "Q668687", "ref": "9050200021"}, "type": "Feature"}
{"geometry": {"coordinates": [-118.290708, 33.855108], "type": "Point"}, "id": "LgfZf6nm5XOe0dW091IBBkoBfJo=", "properties": {"@source_uri": "https://tools.usps.com/UspsToolsRestServices/rest/POLocator/findLocations", "@spider": "usps_collection_boxes", "addr:city": "TORRANCE", "addr:country": "US", "addr:postcode": "90502", "addr:state": "CA", "addr:street_address": "19401 S VERMONT AVE", "amenity": "post_box", "collection_times": "Mo-Sa 13:00", "note": "ON 12/24 AND 12/31, THIS BOX MAY BE COLLECTED AS EARLY AS 12 NOON.", "nsi_id": "unitedstatespostalservice-a77078", "operator": "United States Postal Service", "operator:short": "USPS", "operator:type": "public", "operator:wikidata": "Q668687", "ref": "9050200025"}, "type": "Feature"}
{"geometry": {"coordinates": [-118.350179, 33.830189], "type": "Point"}, "id": "CJwoQe4AI744Rc5oFWm58tC2YeE=", "properties": {"@source_uri": "https://tools.usps.com/UspsToolsRestServices/rest/POLocator/findLocations", "@spider": "usps_collection_boxes", "addr:city": "TORRANCE", "addr:country": "US", "addr:postcode": "90503", "addr:state": "CA", "addr:street_address": "291 DEL AMO FASHION SQ", "amenity": "post_box", "collection_times": "Mo-Sa 17:00", "note": "ON 12/24 AND 12/31, THIS BOX MAY BE COLLECTED AS EARLY AS 12 NOON.", "nsi_id": "unitedstatespostalservice-a77078", "operator": "United States Postal Service", "operator:short": "USPS", "operator:type": "public", "operator:wikidata": "Q668687", "ref": "9050300001"}, "type": "Feature"}
{"geometry": {"coordinates": [-118.367985, 33.83757], "type": "Point"}, "id": "fCihmSzXoNWZuupzYX7WXknDGyo=", "properties": {"@source_uri": "https://tools.usps.com/UspsToolsRestServices/rest/POLocator/findLocations", "@spider": "usps_collection_boxes", "addr:city": "TORRANCE", "addr:country": "US", "addr:postcode": "90503", "addr:state": "CA", "addr:street_address": "21213 HAWTHORNE BLVD STE B", "amenity": "post_box", "collection_times": "Mo-Sa 13:00", "note": "ON 12/24 AND 12/31, THIS BOX MAY BE COLLECTED AS EARLY AS 12 NOON.", "nsi_id": "unitedstatespostalservice-a77078", "operator": "United States Postal Service", "operator:short": "USPS", "operator:type": "public", "operator:wikidata": "Q668687", "ref": "9050300009"}, "type": "Feature"}
{"geometry": {"coordinates": [-118.358414, 33.838389], "type": "Point"}, "id": "5ayYLX9KP8D2XgWqdAIiWxV_69I=", "properties": {"@source_uri": "https://tools.usps.com/UspsToolsRestServices/rest/POLocator/findLocations", "@spider": "usps_collection_boxes", "addr:city": "TORRANCE", "addr:country": "US", "addr:postcode": "90503", "addr:state": "CA", "addr:street_address": "4201 TORRANCE BLVD", "amenity": "post_box", "collection_times": "Mo-Fr 15:00; Sa 13:00", "note": "ON 12/24 AND 12/31, THIS BOX MAY BE COLLECTED AS EARLY AS 12 NOON.", "nsi_id": "unitedstatespostalservice-a77078", "operator": "United States Postal Service", "operator:short": "USPS", "operator:type": "public", "operator:wikidata": "Q668687", "ref": "9050300010"}, "type": "Feature"}
{"geometry": {"coordinates": [-118.349913, 33.848708], "type": "Point"}, "id": "heDFYmajYLKwyWmqmSxRljjbqp4=", "properties": {"@source_uri": "https://tools.usps.com/UspsToolsRestServices/rest/POLocator/findLocations", "@spider": "usps_collection_boxes", "addr:city": "TORRANCE", "addr:country": "US", "addr:postcode": "90503", "addr:state": "CA", "addr:street_address": "3625 DEL AMO BLVD", "amenity": "post_box", "collection_times": "Mo-Fr 15:00; Sa 13:00", "note": "ON 12/24 AND 12/31, THIS BOX MAY BE COLLECTED AS EARLY AS 12 NOON.", "nsi_id": "unitedstatespostalservice-a77078", "operator": "United States Postal Service", "operator:short": "USPS", "operator:type": "public", "operator:wikidata": "Q668687", "ref": "9050300021"}, "type": "Feature"}
{"geometry": {"coordinates": [-118.35401, 33.829932], "type": "Point"}, "id": "Bd2VzRPRSeDFy6Xu59jXhgyZn3A=", "properties": {"@source_uri": "https://tools.usps.com/UspsToolsRestServices/rest/POLocator/findLocations", "@spider": "usps_collection_boxes", "addr:city": "TORRANCE", "addr:country": "US", "addr:postcode": "90503", "addr:state": "CA", "addr:street_address": "3838 W CARSON ST", "amenity": "post_box", "collection_times": "Mo-Fr 15:00; Sa 13:00", "note": "ON 12/24 AND 12/31, THIS BOX MAY BE COLLECTED AS EARLY AS 12 NOON.", "nsi_id": "unitedstatespostalservice-a77078", "operator": "United States Postal Service", "operator:short": "USPS", "operator:type": "public", "operator:wikidata": "Q668687", "ref": "9050300022"}, "type": "Feature"}
{"geometry": {"coordinates": [-118.345832, 33.837725], "type": "Point"}, "id": "nqFHknSJBfPgSFAfzo0cg5_ElyA=", "properties": {"@source_uri": "https://tools.usps.com/UspsToolsRestServices/rest/POLocator/findLocations", "@spider": "usps_collection_boxes", "addr:city": "TORRANCE", "addr:country": "US", "addr:postcode": "90503", "addr:state": "CA", "addr:street_address": "3455 TORRANCE BLVD", "amenity": "post_box", "collection_times": "Mo-Fr 15:00; Sa 13:00", "note": "ON 12/24 AND 12/31, THIS BOX MAY BE COLLECTED AS EARLY AS 12 NOON.", "nsi_id": "unitedstatespostalservice-a77078", "operator": "United States Postal Service", "operator:short": "USPS", "operator:type": "public", "operator:wikidata": "Q668687", "ref": "9050300025"}, "type": "Feature"}
{"geometry": {"coordinates": [-118.345405, 33.836621], "type": "Point"}, "id": "f5uPCpNNueupp1bhv3N4HQIckQU=", "properties": {"@source_uri": "https://tools.usps.com/UspsToolsRestServices/rest/POLocator/findLocations", "@spider": "usps_collection_boxes", "addr:city": "TORRANCE", "addr:country": "US", "addr:postcode": "90503", "addr:state": "CA", "addr:street_address": "3400 TORRANCE BLVD", "amenity": "post_box", "collection_times": "Mo-Fr 15:00; Sa 13:00", "note": "ON 12/24 AND 12/31, THIS BOX MAY BE COLLECTED AS EARLY AS 12 NOON.", "nsi_id": "unitedstatespostalservice-a77078", "operator": "United States Postal Service", "operator:short": "USPS", "operator:type": "public", "operator:wikidata": "Q668687", "ref": "9050300037"}, "type": "Feature"}
{"geometry": {"coordinates": [-118.345562, 33.830647], "type": "Point"}, "id": "q57rxsg3mdPqu7t4HTQp2PvWRKY=", "properties": {"@source_uri": "https://tools.usps.com/UspsToolsRestServices/rest/POLocator/findLocations", "@spider": "usps_collection_boxes", "addr:city": "TORRANCE", "addr:country": "US", "addr:postcode": "90503", "addr:state": "CA", "addr:street_address": "3422 W CARSON ST", "amenity": "post_box", "collection_times": "Mo-Fr 15:00; Sa 13:00", "note": "ON 12/24 AND 12/31, THIS BOX MAY BE COLLECTED AS EARLY AS 12 NOON.", "nsi_id": "unitedstatespostalservice-a77078", "operator": "United States Postal Service", "operator:short": "USPS", "operator:type": "public", "operator:wikidata": "Q668687", "ref": "9050300042"}, "type": "Feature"}
{"geometry": {"coordinates": [-118.3538552, 33.839011], "type": "Point"}, "id": "g6EV1J92J_UDHnYiXurAw2lkuH0=", "properties": {"@source_uri": "https://tools.usps.com/UspsToolsRestServices/rest/POLocator/findLocations", "@spider": "usps_collection_boxes", "addr:city": "TORRANCE", "addr:country": "US", "addr:postcode": "90503", "addr:state": "CA", "addr:street_address": "1122 HICKORY AVE", "amenity": "post_box", "collection_times": "Mo-Sa 13:30", "note": "ON 12/24 AND 12/31, THIS BOX MAY BE COLLECTED AS EARLY AS 12 NOON.", "nsi_id": "unitedstatespostalservice-a77078", "operator": "United States Postal Service", "operator:short": "USPS", "operator:type": "public", "operator:wikidata": "Q668687", "ref": "9050300043"}, "type": "Feature"}
{"geometry": {"coordinates": [-118.364206231, 33.8376388308], "type": "Point"}, "id": "IzTFVmk0z-VPTneHQs1w87OP5_U=", "properties": {"@source_uri": "https://tools.usps.com/UspsToolsRestServices/rest/POLocator/findLocations", "@spider": "usps_collection_boxes", "addr:city": "TORRANCE", "addr:country": "US", "addr:postcode": "90503", "addr:state": "CA", "addr:street_address": "4733 TORRANCE BLVD", "amenity": "post_box", "collection_times": "Mo-Fr 15:00; Sa 13:00", "note": "ON 12/24 AND 12/31, THIS BOX MAY BE COLLECTED AS EARLY AS 12 NOON.", "nsi_id": "unitedstatespostalservice-a77078", "operator": "United States Postal Service", "operator:short": "USPS", "operator:type": "public", "operator:wikidata": "Q668687", "ref": "9050300057"}, "type": "Feature"}
{"geometry": {"coordinates": [-118.349231, 33.8431], "type": "Point"}, "id": "gpgLEaawvx_l0gmM-OvOZrS2I2U=", "properties": {"@source_uri": "https://tools.usps.com/UspsToolsRestServices/rest/POLocator/findLocations", "@spider": "usps_collection_boxes", "addr:city": "TORRANCE", "addr:country": "US", "addr:postcode": "90503", "addr:state": "CA", "addr:street_address": "3556 GARNET ST", "amenity": "post_box", "collection_times": "Mo-Sa 15:00", "note": "ON 12/24 AND 12/31, THIS BOX MAY BE COLLECTED AS EARLY AS 12 NOON.", "nsi_id": "unitedstatespostalservice-a77078", "operator": "United States Postal Service", "operator:short": "USPS", "operator:type": "public", "operator:wikidata": "Q668687", "ref": "9050300060"}, "type": "Feature"}
{"geometry": {"coordinates": [-118.358384, 33.840272], "type": "Point"}, "id": "SdSljpql7rKcgamMviQd57q6xDo=", "properties": {"@source_uri": "https://tools.usps.com/UspsToolsRestServices/rest/POLocator/findLocations", "@spider": "usps_collection_boxes", "addr:city": "TORRANCE", "addr:country": "US", "addr:postcode": "90503", "addr:state": "CA", "addr:street_address": "20911 EARL ST", "amenity": "post_box", "collection_times": "Mo-Fr 15:00; Sa 13:00", "note": "ON 12/24 AND 12/31, THIS BOX MAY BE COLLECTED AS EARLY AS 12 NOON.", "nsi_id": "unitedstatespostalservice-a77078", "operator": "United States Postal Service", "operator:short": "USPS", "operator:type": "public", "operator:wikidata": "Q668687", "ref": "9050300064"}, "type": "Feature"}
{"geometry": {"coordinates": [-118.35786, 33.844921], "type": "Point"}, "id": "esiKQzlyPAuIobf1KAJv5t4HCK4=", "properties": {"@source_uri": "https://tools.usps.com/UspsToolsRestServices/rest/POLocator/findLocations", "@spider": "usps_collection_boxes", "addr:city": "TORRANCE", "addr:country": "US", "addr:postcode": "90503", "addr:state": "CA", "addr:street_address": "4050 SPENCER ST", "amenity": "post_box", "collection_times": "Mo-Fr 15:00; Sa 13:00", "note": "ON 12/24 AND 12/31, THIS BOX MAY BE COLLECTED AS EARLY AS 12 NOON.", "nsi_id": "unitedstatespostalservice-a77078", "operator": "United States Postal Service", "operator:short": "USPS", "operator:type": "public", "operator:wikidata": "Q668687", "ref": "9050300081"}, "type": "Feature"}
{"geometry": {"coordinates": [-118.370995, 33.842939], "type": "Point"}, "id": "hD-kf_qbJexjb64QKS7OGvH_n_M=", "properties": {"@source_uri": "https://tools.usps.com/UspsToolsRestServices/rest/POLocator/findLocations", "@spider": "usps_collection_boxes", "addr:city": "TORRANCE", "addr:country": "US", "addr:postcode": "90503", "addr:state": "CA", "addr:street_address": "5326 EDGEMERE DR", "amenity": "post_box", "collection_times": "Mo-Sa 15:30", "note": "ON 12/24 AND 12/31, THIS BOX MAY BE COLLECTED AS EARLY AS 12 NOON.", "nsi_id": "unitedstatespostalservice-a77078", "operator": "United States Postal Service", "operator:short": "USPS", "operator:type": "public", "operator:wikidata": "Q668687", "ref": "9050300087"}, "type": "Feature"}
{"geometry": {"coordinates": [-118.349617, 33.830895], "type": "Point"}, "id": "wkO9kOKKsrtdMukNyCb4tkSfkbk=", "properties": {"@source_uri": "https://tools.usps.com/UspsToolsRestServices/rest/POLocator/findLocations", "@spider": "usps_collection_boxes", "addr:city": "TORRANCE", "addr:country": "US", "addr:postcode": "90503", "addr:state": "CA", "addr:street_address": "291 DEL AMO FASHION SQ", "amenity": "post_box", "collection_times": "Mo-Fr 17:00", "indoor": "yes", "note": "ON 12/24 AND 12/31, THIS BOX MAY BE COLLECTED AS EARLY AS 12 NOON.", "nsi_id": "unitedstatespostalservice-a77078", "operator": "United States Postal Service", "operator:short": "USPS", "operator:type": "public", "operator:wikidata": "Q668687", "ref": "9050300139"}, "type": "Feature"}
{"geometry": {"coordinates": [-118.313187, 33.865516], "type": "Point"}, "id": "iPpQAzco1wNPQg6R-yUu1L5k2tg=", "properties": {"@source_uri": "https://tools.usps.com/UspsToolsRestServices/rest/POLocator/findLocations", "@spider": "usps_collection_boxes", "addr:city": "TORRANCE", "addr:country": "US", "addr:postcode": "90504", "addr:state": "CA", "addr:street_address": "18205 DORMAN AVE", "amenity": "post_box", "collection_times": "Mo-Sa 14:00", "note": "ON 12/24 AND 12/31, THIS BOX MAY BE COLLECTED AS EARLY AS 12 NOON.", "nsi_id": "unitedstatespostalservice-a77078", "operator": "United States Postal Service", "operator:short": "USPS", "operator:type": "public", "operator:wikidata": "Q668687", "ref": "9050400007"}, "type": "Feature"}
{"geometry": {"coordinates": [-118.32323, 33.875845], "type": "Point"}, "id": "8Tx-CBtPZqrh-1rp_M9y16h2tlo=", "properties": {"@source_uri": "https://tools.usps.com/UspsToolsRestServices/rest/POLocator/findLocations", "@spider": "usps_collection_boxes", "addr:city": "TORRANCE", "addr:country": "US", "addr:postcode": "90504", "addr:state": "CA", "addr:street_address": "16741 CRENSHAW BLVD", "amenity": "post_box", "collection_times": "Mo-Sa 13:00", "note": "ON 12/24 AND 12/31, THIS BOX MAY BE COLLECTED AS EARLY AS 12 NOON.", "nsi_id": "unitedstatespostalservice-a77078", "operator": "United States Postal Service", "operator:short": "USPS", "operator:type": "public", "operator:wikidata": "Q668687", "ref": "9050400009"}, "type": "Feature"}
{"geometry": {"coordinates": [-118.335849, 33.872963], "type": "Point"}, "id": "8RyEPd7-SdKZLZb5BiGfRPTdUg0=", "properties": {"@source_uri": "https://tools.usps.com/UspsToolsRestServices/rest/POLocator/findLocations", "@spider": "usps_collection_boxes", "addr:city": "TORRANCE", "addr:country": "US", "addr:postcode": "90504", "addr:state": "CA", "addr:street_address": "3615 ARTESIA BLVD", "amenity": "post_box", "collection_times": "Mo-Fr 12:00; Sa 13:00", "note": "ON 12/24 AND 12/31, THIS BOX MAY BE COLLECTED AS EARLY AS 12 NOON.", "nsi_id": "unitedstatespostalservice-a77078", "operator": "United States Postal Service", "operator:short": "USPS", "operator:type": "public", "operator:wikidata": "Q668687", "ref": "9050400011"}, "type": "Feature"}
{"geometry": {"coordinates": [-118.326463474, 33.866514], "type": "Point"}, "id": "p5YIowvwon_f9YncmuoXsqjY_Go=", "properties": {"@source_uri": "https://tools.usps.com/UspsToolsRestServices/rest/POLocator/findLocations", "@spider": "usps_collection_boxes", "addr:city": "TORRANCE", "addr:country": "US", "addr:postcode": "90504", "addr:state": "CA", "addr:street_address": "18080 CRENSHAW BLVD", "amenity": "post_box", "collection_times": "Mo-Fr 17:00; Sa 16:00", "note": "ON 12/24 AND 12/31, THIS BOX MAY BE COLLECTED AS EARLY AS 12 NOON.", "nsi_id": "unitedstatespostalservice-a77078", "operator": "United States Postal Service", "operator:short": "USPS", "operator:type": "public", "operator:wikidata": "Q668687", "ref": "9050400013"}, "type": "Feature"}
{"geometry": {"coordinates": [-118.326463474, 33.866514], "type": "Point"}, "id": "0iXdb5JZRSEhLglcQpC_eOxQlk4=", "properties": {"@source_uri": "https://tools.usps.com/UspsToolsRestServices/rest/POLocator/findLocations", "@spider": "usps_collection_boxes", "addr:city": "TORRANCE", "addr:country": "US", "addr:postcode": "90504", "addr:state": "CA", "addr:street_address": "18080 CRENSHAW BLVD LOBBY", "amenity": "post_box", "collection_times": "Mo-Fr 17:00; Sa 16:00", "indoor": "yes", "note": "ON 12/24 AND 12/31, THIS BOX MAY BE COLLECTED AS EARLY AS 12 NOON.", "nsi_id": "unitedstatespostalservice-a77078", "operator": "United States Postal Service", "operator:short": "USPS", "operator:type": "public", "operator:wikidata": "Q668687", "ref": "9050400023"}, "type": "Feature"}
{"geometry": {"coordinates": [-118.326463474, 33.866514], "type": "Point"}, "id": "ZJ0t6Tk2Cxq8zCCuv-oBwP3vCjE=", "properties": {"@source_uri": "https://tools.usps.com/UspsToolsRestServices/rest/POLocator/findLocations", "@spider": "usps_collection_boxes", "addr:city": "TORRANCE", "addr:country": "US", "addr:postcode": "90504", "addr:state": "CA", "addr:street_address": "18080 CRENSHAW BLVD LOBBY", "amenity": "post_box", "collection_times": "Mo-Fr 17:00; Sa 16:00", "name": "USPS COLLECTION BOX - APC", "note": "ON 12/24 AND 12/31, THIS BOX MAY BE COLLECTED AS EARLY AS 12 NOON.", "nsi_id": "unitedstatespostalservice-a77078", "operator": "United States Postal Service", "operator:short": "USPS", "operator:type": "public", "operator:wikidata": "Q668687", "ref": "9050400024"}, "type": "Feature"}
{"geometry": {"coordinates": [-118.343073, 33.815608], "type": "Point"}, "id": "9rYQwF9aNiv4bgFHJHtKS7LhFig=", "properties": {"@source_uri": "https://tools.usps.com/UspsToolsRestServices/rest/POLocator/findLocations", "@spider": "usps_collection_boxes", "addr:city": "TORRANCE", "addr:country": "US", "addr:postcode": "90505", "addr:state": "CA", "addr:street_address": "3401 FUJITA ST", "amenity": "post_box", "collection_times": "Mo-Fr 15:00; Sa 13:00", "note": "ON 12/24 AND 12/31, THIS BOX MAY BE COLLECTED AS EARLY AS 12 NOON.", "nsi_id": "unitedstatespostalservice-a77078", "operator": "United States Postal Service", "operator:short": "USPS", "operator:type": "public", "operator:wikidata": "Q668687", "ref": "9050500003"}, "type": "Feature"}
{"geometry": {"coordinates": [-118.337533, 33.813726], "type": "Point"}, "id": "fXaHPemrGtye_MLUDvuJ_6mFBOo=", "properties": {"@source_uri": "https://tools.usps.com/UspsToolsRestServices/rest/POLocator/findLocations", "@spider": "usps_collection_boxes", "addr:city": "TORRANCE", "addr:country": "US", "addr:postcode": "90505", "addr:state": "CA", "addr:street_address": "23535 TELO AVE", "amenity": "post_box", "collection_times": "Mo-Fr 15:00; Sa 13:00", "note": "ON 12/24 AND 12/31, THIS BOX MAY BE COLLECTED AS EARLY AS 12 NOON.", "nsi_id": "unitedstatespostalservice-a77078", "operator": "United States Postal Service", "operator:short": "USPS", "operator:type": "public", "operator:wikidata": "Q668687", "ref": "9050500006"}, "type": "Feature"}
{"geometry": {"coordinates": [-118.348992, 33.806725], "type": "Point"}, "id": "3VTnv-SwKDb2eKOQotAEGhsDY2E=", "properties": {"@source_uri": "https://tools.usps.com/UspsToolsRestServices/rest/POLocator/findLocations", "@spider": "usps_collection_boxes", "addr:city": "TORRANCE", "addr:country": "US", "addr:postcode": "90505", "addr:state": "CA", "addr:street_address": "24000 MADISON ST", "amenity": "post_box", "collection_times": "Mo-Fr 15:00; Sa 13:00", "note": "ON 12/24 AND 12/31, THIS BOX MAY BE COLLECTED AS EARLY AS 12 NOON.", "nsi_id": "unitedstatespostalservice-a77078", "operator": "United States Postal Service", "operator:short": "USPS", "operator:type": "public", "operator:wikidata": "Q668687", "ref": "9050500011"}, "type": "Feature"}
{"geometry": {"coordinates": [-118.356045, 33.81988], "type": "Point"}, "id": "sjRHvM-rRyYZLoTYSWSiqXLoiLw=", "properties": {"@source_uri": "https://tools.usps.com/UspsToolsRestServices/rest/POLocator/findLocations", "@spider": "usps_collection_boxes", "addr:city": "TORRANCE", "addr:country": "US", "addr:postcode": "90505", "addr:state": "CA", "addr:street_address": "4216 S. PACIFIC COAST HWY", "amenity": "post_box", "collection_times": "Mo-Fr 17:00; Sa 16:15", "note": "ON 12/24 AND 12/31, THIS BOX MAY BE COLLECTED AS EARLY AS 12 NOON.", "nsi_id": "unitedstatespostalservice-a77078", "operator": "United States Postal Service", "operator:short": "USPS", "operator:type": "public", "operator:wikidata": "Q668687", "ref": "9050500014"}, "type": "Feature"}
{"geometry": {"coordinates": [-118.348763, 33.815179], "type": "Point"}, "id": "tyxScmqstVJJgdr1j2x7PbmF7VE=", "properties": {"@source_uri": "https://tools.usps.com/UspsToolsRestServices/rest/POLocator/findLocations", "@spider": "usps_collection_boxes", "addr:city": "TORRANCE", "addr:country": "US", "addr:postcode": "90505", "addr:state": "CA", "addr:street_address": "3655 LOMITA BLVD", "amenity": "post_box", "collection_times": "Mo-Fr 15:00; Sa 13:00", "note": "ON 12/24 AND 12/31, THIS BOX MAY BE COLLECTED AS EARLY AS 12 NOON.", "nsi_id": "unitedstatespostalservice-a77078", "operator": "United States Postal Service", "operator:short": "USPS", "operator:type": "public", "operator:wikidata": "Q668687", "ref": "9050500017"}, "type": "Feature"}
{"geometry": {"coordinates": [-118.329586, 33.793311], "type": "Point"}, "id": "fszvsHTRdHrq74RUQ-syfTNn7GY=", "properties": {"@source_uri": "https://tools.usps.com/UspsToolsRestServices/rest/POLocator/findLocations", "@spider": "usps_collection_boxes", "addr:city": "TORRANCE", "addr:country": "US", "addr:postcode": "90505", "addr:state": "CA", "addr:street_address": "2601 AIRPORT DR", "amenity": "post_box", "collection_times": "Mo-Fr 15:00; Sa 13:00", "note": "ON 12/24 AND 12/31, THIS BOX MAY BE COLLECTED AS EARLY AS 12 NOON.", "nsi_id": "unitedstatespostalservice-a77078", "operator": "United States Postal Service", "operator:short": "USPS", "operator:type": "public", "operator:wikidata": "Q668687", "ref": "9050500022"}, "type": "Feature"}
{"geometry": {"coordinates": [-118.350462, 33.814371], "type": "Point"}, "id": "dc6C4H7R6-Aa3kZwvEt4uXLK8kQ=", "properties": {"@source_uri": "https://tools.usps.com/UspsToolsRestServices/rest/POLocator/findLocations", "@spider": "usps_collection_boxes", "addr:city": "TORRANCE", "addr:country": "US", "addr:postcode": "90505", "addr:state": "CA", "addr:street_address": "23326 HAWTHORNE BLVD", "amenity": "post_box", "collection_times": "Mo-Fr 15:00; Sa 13:00", "note": "ON 12/24 AND 12/31, THIS BOX MAY BE COLLECTED AS EARLY AS 12 NOON.", "nsi_id": "unitedstatespostalservice-a77078", "operator": "United States Postal Service", "operator:short": "USPS", "operator:type": "public", "operator:wikidata": "Q668687", "ref": "9050500026"}, "type": "Feature"}
{"geometry": {"coordinates": [-118.340424, 33.789035], "type": "Point"}, "id": "smUcgMEtsaIp7p47DjcCg1dVpgY=", "properties": {"@source_uri": "https://tools.usps.com/UspsToolsRestServices/rest/POLocator/findLocations", "@spider": "usps_collection_boxes", "addr:city": "TORRANCE", "addr:country": "US", "addr:postcode": "90505", "addr:state": "CA", "addr:street_address": "2905 ROLLING HILLS RD", "amenity": "post_box", "collection_times": "Mo-Sa 13:00", "note": "ON 12/24 AND 12/31, THIS BOX MAY BE COLLECTED AS EARLY AS 12 NOON.", "nsi_id": "unitedstatespostalservice-a77078", "operator": "United States Postal Service", "operator:short": "USPS", "operator:type": "public", "operator:wikidata": "Q668687", "ref": "9050500027"}, "type": "Feature"}
{"geometry": {"coordinates": [-118.341055, 33.797489], "type": "Point"}, "id": "Asv8J_S_kaYsBCEqnCMRtEIOSUo=", "properties": {"@source_uri": "https://tools.usps.com/UspsToolsRestServices/rest/POLocator/findLocations", "@spider": "usps_collection_boxes", "addr:city": "TORRANCE", "addr:country": "US", "addr:postcode": "90505", "addr:state": "CA", "addr:street_address": "3142 PACIFIC COAST HWY", "amenity": "post_box", "collection_times": "Mo-Fr 15:00; Sa 13:00", "note": "ON 12/24 AND 12/31, THIS BOX MAY BE COLLECTED AS EARLY AS 12 NOON.", "nsi_id": "unitedstatespostalservice-a77078", "operator": "United States Postal Service", "operator:short": "USPS", "operator:type": "public", "operator:wikidata": "Q668687", "ref": "9050500032"}, "type": "Feature"}
{"geometry": {"coordinates": [-118.334589, 33.79415], "type": "Point"}, "id": "VvuEDbyt7m1rhwXl6BgfAnMw6kw=", "properties": {"@source_uri": "https://tools.usps.com/UspsToolsRestServices/rest/POLocator/findLocations", "@spider": "usps_collection_boxes", "addr:city": "TORRANCE", "addr:country": "US", "addr:postcode": "90505", "addr:state": "CA", "addr:street_address": "2785 PACIFIC COAST HWY", "amenity": "post_box", "collection_times": "Mo-Fr 12:00; Sa 13:00", "note": "ON 12/24 AND 12/31, THIS BOX MAY BE COLLECTED AS EARLY AS 12 NOON.", "nsi_id": "unitedstatespostalservice-a77078", "operator": "United States Postal Service", "operator:short": "USPS", "operator:type": "public", "operator:wikidata": "Q668687", "ref": "9050500033"}, "type": "Feature"}
{"geometry": {"coordinates": [-118.369549, 33.826007], "type": "Point"}, "id": "nEd7vgPye5GRehGBAlB6ZGWjTzc=", "properties": {"@source_uri": "https://tools.usps.com/UspsToolsRestServices/rest/POLocator/findLocations", "@spider": "usps_collection_boxes", "addr:city": "TORRANCE", "addr:country": "US", "addr:postcode": "90505", "addr:state": "CA", "addr:street_address": "22217 PALOS VERDES BLVD", "amenity": "post_box", "collection_times": "Mo-Sa 13:00", "note": "ON 12/24 AND 12/31, THIS BOX MAY BE COLLECTED AS EARLY AS 12 NOON.", "nsi_id": "unitedstatespostalservice-a77078", "operator": "United States Postal Service", "operator:short": "USPS", "operator:type": "public", "operator:wikidata": "Q668687", "ref": "9050500036"}, "type": "Feature"}
{"geometry": {"coordinates": [-118.349479, 33.81838], "type": "Point"}, "id": "Ham4SVMv4k9Z5OqSJ-S9BTLUMpA=", "properties": {"@source_uri": "https://tools.usps.com/UspsToolsRestServices/rest/POLocator/findLocations", "@spider": "usps_collection_boxes", "addr:city": "TORRANCE", "addr:country": "US", "addr:postcode": "90505", "addr:state": "CA", "addr:street_address": "22938 SAMUEL ST", "amenity": "post_box", "collection_times": "Mo-Sa 13:00", "note": "ON 12/24 AND 12/31, THIS BOX MAY BE COLLECTED AS EARLY AS 12 NOON.", "nsi_id": "unitedstatespostalservice-a77078", "operator": "United States Postal Service", "operator:short": "USPS", "operator:type": "public", "operator:wikidata": "Q668687", "ref": "9050500041"}, "type": "Feature"}
{"geometry": {"coordinates": [-118.343271, 33.818605], "type": "Point"}, "id": "BPqeKjAj-p8wbB3cPdRlgtPa304=", "properties": {"@source_uri": "https://tools.usps.com/UspsToolsRestServices/rest/POLocator/findLocations", "@spider": "usps_collection_boxes", "addr:city": "TORRANCE", "addr:country": "US", "addr:postcode": "90505", "addr:state": "CA", "addr:street_address": "22925 NADINE CIR", "amenity": "post_box", "collection_times": "Mo-Sa 13:00", "note": "ON 12/24 AND 12/31, THIS BOX MAY BE COLLECTED AS EARLY AS 12 NOON.", "nsi_id": "unitedstatespostalservice-a77078", "operator": "United States Postal Service", "operator:short": "USPS", "operator:type": "public", "operator:wikidata": "Q668687", "ref": "9050500043"}, "type": "Feature"}
{"geometry": {"coordinates": [-118.340912, 33.820042], "type": "Point"}, "id": "iVZhmZbwagBLZavx1QcfNRhLrXU=", "properties": {"@source_uri": "https://tools.usps.com/UspsToolsRestServices/rest/POLocator/findLocations", "@spider": "usps_collection_boxes", "addr:city": "TORRANCE", "addr:country": "US", "addr:postcode": "90505", "addr:state": "CA", "addr:street_address": "22727 MAPLE AVE", "amenity": "post_box", "collection_times": "Mo-Sa 14:00", "note": "ON 12/24 AND 12/31, THIS BOX MAY BE COLLECTED AS EARLY AS 12 NOON.", "nsi_id": "unitedstatespostalservice-a77078", "operator": "United States Postal Service", "operator:short": "USPS", "operator:type": "public", "operator:wikidata": "Q668687", "ref": "9050500044"}, "type": "Feature"}
{"geometry": {"coordinates": [-118.345507, 33.812509], "type": "Point"}, "id": "BDhDH5HyAzJj4-wC8MIlfZ4HZjg=", "properties": {"@source_uri": "https://tools.usps.com/UspsToolsRestServices/rest/POLocator/findLocations", "@spider": "usps_collection_boxes", "addr:city": "TORRANCE", "addr:country": "US", "addr:postcode": "90505", "addr:state": "CA", "addr:street_address": "3440 LOMITA BLVD", "amenity": "post_box", "collection_times": "Mo-Fr 15:00; Sa 13:00", "note": "ON 12/24 AND 12/31, THIS BOX MAY BE COLLECTED AS EARLY AS 12 NOON.", "nsi_id": "unitedstatespostalservice-a77078", "operator": "United States Postal Service", "operator:short": "USPS", "operator:type": "public", "operator:wikidata": "Q668687", "ref": "9050500050"}, "type": "Feature"}
{"geometry": {"coordinates": [-118.344705, 33.810655], "type": "Point"}, "id": "Bi3n0_h6w2vM8PeoB3Ltuhoipfk=", "properties": {"@source_uri": "https://tools.usps.com/UspsToolsRestServices/rest/POLocator/findLocations", "@spider": "usps_collection_boxes", "addr:city": "TORRANCE", "addr:country": "US", "addr:postcode": "90505", "addr:state": "CA", "addr:street_address": "3330 LOMITA BLVD", "amenity": "post_box", "collection_times": "Mo-Fr 15:00; Sa 13:00", "note": "ON 12/24 AND 12/31, THIS BOX MAY BE COLLECTED AS EARLY AS 12 NOON.", "nsi_id": "unitedstatespostalservice-a77078", "operator": "United States Postal Service", "operator:short": "USPS", "operator:type": "public", "operator:wikidata": "Q668687", "ref": "9050500051"}, "type": "Feature"}
{"geometry": {"coordinates": [-118.328538, 33.820724], "type": "Point"}, "id": "nJ9IkhZ2jbFbrfbiOpDHQZMP2ZM=", "properties": {"@source_uri": "https://tools.usps.com/UspsToolsRestServices/rest/POLocator/findLocations", "@spider": "usps_collection_boxes", "addr:city": "TORRANCE", "addr:country": "US", "addr:postcode": "90505", "addr:state": "CA", "addr:street_address": "22535 CRENSHAW BLVD", "amenity": "post_box", "collection_times": "Mo-Sa 15:00", "note": "ON 12/24 AND 12/31, THIS BOX MAY BE COLLECTED AS EARLY AS 12 NOON.", "nsi_id": "unitedstatespostalservice-a77078", "operator": "United States Postal Service", "operator:short": "USPS", "operator:type": "public", "operator:wikidata": "Q668687", "ref": "9050500061"}, "type": "Feature"}
{"geometry": {"coordinates": [-118.330383, 33.810751], "type": "Point"}, "id": "j43kINmaSRSDviZ09ylL7JMlCPY=", "properties": {"@source_uri": "https://tools.usps.com/UspsToolsRestServices/rest/POLocator/findLocations", "@spider": "usps_collection_boxes", "addr:city": "TORRANCE", "addr:country": "US", "addr:postcode": "90505", "addr:state": "CA", "addr:street_address": "2530 W 237TH ST", "amenity": "post_box", "collection_times": "Mo-Fr 15:00; Sa 13:00", "note": "ON 12/24 AND 12/31, THIS BOX MAY BE COLLECTED AS EARLY AS 12 NOON.", "nsi_id": "unitedstatespostalservice-a77078", "operator": "United States Postal Service", "operator:short": "USPS", "operator:type": "public", "operator:wikidata": "Q668687", "ref": "9050500063"}, "type": "Feature"}
{"geometry": {"coordinates": [-118.353415, 33.825114], "type": "Point"}, "id": "3DrsX9mN9Mwf--ml5sSX05JqNwM=", "properties": {"@source_uri": "https://tools.usps.com/UspsToolsRestServices/rest/POLocator/findLocations", "@spider": "usps_collection_boxes", "addr:city": "TORRANCE", "addr:country": "US", "addr:postcode": "90505", "addr:state": "CA", "addr:street_address": "3856 SEPULVEDA BLVD", "amenity": "post_box", "collection_times": "Mo-Fr 16:30; Sa 16:00", "note": "ON 12/24 AND 12/31, THIS BOX MAY BE COLLECTED AS EARLY AS 12 NOON.", "nsi_id": "unitedstatespostalservice-a77078", "operator": "United States Postal Service", "operator:short": "USPS", "operator:type": "public", "operator:wikidata": "Q668687", "ref": "9050500064"}, "type": "Feature"}
{"geometry": {"coordinates": [-118.350551, 33.808558], "type": "Point"}, "id": "gp20w2rCKJjxl2ppVHokIDEbFqQ=", "properties": {"@source_uri": "https://tools.usps.com/UspsToolsRestServices/rest/POLocator/findLocations", "@spider": "usps_collection_boxes", "addr:city": "TORRANCE", "addr:country": "US", "addr:postcode": "90505", "addr:state": "CA", "addr:street_address": "23800 HAWTHORNE BLVD", "amenity": "post_box", "collection_times": "Mo-Fr 15:00; Sa 13:00", "note": "ON 12/24 AND 12/31, THIS BOX MAY BE COLLECTED AS EARLY AS 12 NOON.", "nsi_id": "unitedstatespostalservice-a77078", "operator": "United States Postal Service", "operator:short": "USPS", "operator:type": "public", "operator:wikidata": "Q668687", "ref": "9050500067"}, "type": "Feature"}
{"geometry": {"coordinates": [-118.348289, 33.812192], "type": "Point"}, "id": "AL0lSS50L_9eNf7N-Jvho9Pb_yA=", "properties": {"@source_uri": "https://tools.usps.com/UspsToolsRestServices/rest/POLocator/findLocations", "@spider": "usps_collection_boxes", "addr:city": "TORRANCE", "addr:country": "US", "addr:postcode": "90505", "addr:state": "CA", "addr:street_address": "23451 MADISON ST", "amenity": "post_box", "collection_times": "Mo-Fr 15:00; Sa 13:00", "note": "ON 12/24 AND 12/31, THIS BOX MAY BE COLLECTED AS EARLY AS 12 NOON.", "nsi_id": "unitedstatespostalservice-a77078", "operator": "United States Postal Service", "operator:short": "USPS", "operator:type": "public", "operator:wikidata": "Q668687", "ref": "9050500073"}, "type": "Feature"}
{"geometry": {"coordinates": [-118.353601, 33.806264], "type": "Point"}, "id": "IOs_Iv-qs6KVC15a3er15DN6HEg=", "properties": {"@source_uri": "https://tools.usps.com/UspsToolsRestServices/rest/POLocator/findLocations", "@spider": "usps_collection_boxes", "addr:city": "TORRANCE", "addr:country": "US", "addr:postcode": "90505", "addr:state": "CA", "addr:street_address": "3855 PACIFIC COAST HWY", "amenity": "post_box", "collection_times": "Mo-Fr 13:00; Sa 11:00", "note": "ON 12/24 AND 12/31, THIS BOX MAY BE COLLECTED AS EARLY AS 12 NOON.", "nsi_id": "unitedstatespostalservice-a77078", "operator": "United States Postal Service", "operator:short": "USPS", "operator:type": "public", "operator:wikidata": "Q668687", "ref": "9050500074"}, "type": "Feature"}
{"geometry": {"coordinates": [-118.348451, 33.794301], "type": "Point"}, "id": "uJcq_mfoXoqtSUGDzsiuFag6wb0=", "properties": {"@source_uri": "https://tools.usps.com/UspsToolsRestServices/rest/POLocator/findLocations", "@spider": "usps_collection_boxes", "addr:city": "TORRANCE", "addr:country": "US", "addr:postcode": "90505", "addr:state": "CA", "addr:street_address": "25550 HAWTHORNE BLVD", "amenity": "post_box", "collection_times": "Mo-Fr 15:00; Sa 13:00", "note": "ON 12/24 AND 12/31, THIS BOX MAY BE COLLECTED AS EARLY AS 12 NOON.", "nsi_id": "unitedstatespostalservice-a77078", "operator": "United States Postal Service", "operator:short": "USPS", "operator:type": "public", "operator:wikidata": "Q668687", "ref": "9050500084"}, "type": "Feature"}
{"geometry": {"coordinates": [-118.3581964276, 33.8077466167], "type": "Point"}, "id": "y4vP7tpf7_9HNFYjuPdGg77wqE8=", "properties": {"@source_uri": "https://tools.usps.com/UspsToolsRestServices/rest/POLocator/findLocations", "@spider": "usps_collection_boxes", "addr:city": "TORRANCE", "addr:country": "US", "addr:postcode": "90505", "addr:state": "CA", "addr:street_address": "4216 S. PACIFIC COAST HWY LOBBY", "amenity": "post_box", "collection_times": "Mo-Fr 17:00", "indoor": "yes", "note": "ON 12/24 AND 12/31, THIS BOX MAY BE COLLECTED AS EARLY AS 12 NOON.", "nsi_id": "unitedstatespostalservice-a77078", "operator": "United States Postal Service", "operator:short": "USPS", "operator:type": "public", "operator:wikidata": "Q668687", "ref": "9050500085"}, "type": "Feature"}
{"geometry": {"coordinates": [-118.3581964276, 33.8077466167], "type": "Point"}, "id": "bOrbVCZ_IUq6ZacX8TA_4u1zM4s=", "properties": {"@source_uri": "https://tools.usps.com/UspsToolsRestServices/rest/POLocator/findLocations", "@spider": "usps_collection_boxes", "addr:city": "TORRANCE", "addr:country": "US", "addr:postcode": "90505", "addr:state": "CA", "addr:street_address": "4216 PACIFIC COAST HWY LOBBY", "amenity": "post_box", "collection_times": "Mo-Fr 17:00", "indoor": "yes", "note": "ON 12/24 AND 12/31, THIS BOX MAY BE COLLECTED AS EARLY AS 12 NOON.", "nsi_id": "unitedstatespostalservice-a77078", "operator": "United States Postal Service", "operator:short": "USPS", "operator:type": "public", "operator:wikidata": "Q668687", "ref": "9050500103"}, "type": "Feature"}
