{"geometry": {"coordinates": [-118.035157, 33.980772], "type": "Point"}, "id": "EG-zLvHYaIuotu1l2NYWcvge9xY=", "properties": {"@source_uri": "https://tools.usps.com/UspsToolsRestServices/rest/POLocator/findLocations", "@spider": "usps_collection_boxes", "addr:city": "WHITTIER", "addr:country": "US", "addr:postcode": "90601", "addr:state": "CA", "addr:street_address": "6709 WASHINGTON AVE", "amenity": "post_box", "collection_times": "Mo-Fr 17:00; Sa 16:45", "note": "ON 12/24 AND 12/31, THIS BOX MAY BE COLLECTED AS EARLY AS 12 NOON.", "nsi_id": "unitedstatespostalservice-a77078", "operator": "United States Postal Service", "operator:short": "USPS", "operator:type": "public", "operator:wikidata": "Q668687", "ref": "9060100008"}, "type": "Feature"}
{"geometry": {"coordinates": [-118.0459466, 33.98588], "type": "Point"}, "id": "IEwt6u_2Eu_31jVf7GVhz2MM4Rc=", "properties": {"@source_uri": "https://tools.usps.com/UspsToolsRestServices/rest/POLocator/findLocations", "@spider": "usps_collection_boxes", "addr:city": "WHITTIER", "addr:country": "US", "addr:postcode": "90601", "addr:state": "CA", "addr:street_address": "4411 LUCAYAN DR", "amenity": "post_box", "collection_times": "Mo-Sa 10:00", "nsi_id": "unitedstatespostalservice-a77078", "operator": "United States Postal Service", "operator:short": "USPS", "operator:type": "public", "operator:wikidata": "Q668687", "ref": "9060100019"}, "type": "Feature"}
{"geometry": {"coordinates": [-118.051068, 33.980055], "type": "Point"}, "id": "nju3ynTJ4IVPc29oDdmYrcbDzzQ=", "properties": {"@source_uri": "https://tools.usps.com/UspsToolsRestServices/rest/POLocator/findLocations", "@spider": "usps_collection_boxes", "addr:city": "WHITTIER", "addr:country": "US", "addr:postcode": "90601", "addr:state": "CA", "addr:street_address": "11750 WHITTIER BLVD", "amenity": "post_box", "collection_times": "Mo-Sa 10:00", "nsi_id": "unitedstatespostalservice-a77078", "operator": "United States Postal Service", "operator:short": "USPS", "operator:type": "public", "operator:wikidata": "Q668687", "ref": "9060100037"}, "type": "Feature"}
{"geometry": {"coordinates": [-118.054828, 33.99505], "type": "Point"}, "id": "iY28gTAw9R4seHshM3nV0SvIi50=", "properties": {"@source_uri": "https://tools.usps.com/UspsToolsRestServices/rest/POLocator/findLocations", "@spider": "usps_collection_boxes", "addr:city": "WHITTIER", "addr:country": "US", "addr:postcode": "90601", "addr:state": "CA", "addr:street_address": "11347 MONTE VISTA DR", "amenity": "post_box", "collection_times": "Mo-Sa 10:00", "nsi_id": "unitedstatespostalservice-a77078", "operator": "United States Postal Service", "operator:short": "USPS", "operator:type": "public", "operator:wikidata": "Q668687", "ref": "9060100040"}, "type": "Feature"}
{"geometry": {"coordinates": [-118.035358, 33.980605], "type": "Point"}, "id": "1vYUklJos254MNuU-1rXqZjuQR4=", "properties": {"@source_uri": "https://tools.usps.com/UspsToolsRestServices/rest/POLocator/findLocations", "@spider": "usps_collection_boxes", "addr:city": "WHITTIER", "addr:country": "US", "addr:postcode": "90601", "addr:state": "CA", "addr:street_address": "6709 WASHINGTON AVE LBBY", "amenity": "post_box", "collection_times": "Mo-Fr 17:00; Sa 16:45", "indoor": "yes", "note": "ON 12/24 AND 12/31, THIS BOX MAY BE COLLECTED AS EARLY AS 12 NOON.", "nsi_id": "unitedstatespostalservice-a77078", "operator": "United States Postal Service", "operator:short": "USPS", "operator:type": "public", "operator:wikidata": "Q668687", "ref": "9060100047"}, "type": "Feature"}
{"geometry": {"coordinates": [-118.0354949916, 33.982927992], "type": "Point"}, "id": "p6hUrtXoSP2Do3NXHu1mqK4JM88=", "properties": {"@source_uri": "https://tools.usps.com/UspsToolsRestServices/rest/POLocator/findLocations", "@spider": "usps_collection_boxes", "addr:city": "WHITTIER", "addr:country": "US", "addr:postcode": "90601", "addr:state": "CA", "addr:street_address": "13117 HADLEY ST", "amenity": "post_box", "collection_times": "Mo-Fr 10:00", "nsi_id": "unitedstatespostalservice-a77078", "operator": "United States Postal Service", "operator:short": "USPS", "operator:type": "public", "operator:wikidata": "Q668687", "ref": "9060100048"}, "type": "Feature"}
{"geometry": {"coordinates": [-118.0459466, 33.98588], "type": "Point"}, "id": "pPEyFxNcM2NyvMXGZPSF2ZJKiJM=", "properties": {"@source_uri": "https://tools.usps.com/UspsToolsRestServices/rest/POLocator/findLocations", "@spider": "usps_collection_boxes", "addr:city": "WHITTIER", "addr:country": "US", "addr:postcode": "90601", "addr:state": "CA", "addr:street_address": "1501 WORKMAN MILL RD", "amenity": "post_box", "collection_times": "Mo-Sa 10:00", "nsi_id": "unitedstatespostalservice-a77078", "operator": "United States Postal Service", "operator:short": "USPS", "operator:type": "public", "operator:wikidata": "Q668687", "ref": "9060100050"}, "type": "Feature"}
{"geometry": {"coordinates": [-118.035182, 33.980643], "type": "Point"}, "id": "caDQqIGlOmC7SDa_7Zgy1jmsqxI=", "properties": {"@source_uri": "https://tools.usps.com/UspsToolsRestServices/rest/POLocator/findLocations", "@spider": "usps_collection_boxes", "addr:city": "WHITTIER", "addr:country": "US", "addr:postcode": "90601", "addr:state": "CA", "addr:street_address": "6709 WASHINGTON AVE", "amenity": "post_box", "collection_times": "Mo-Fr 17:00; Sa 16:00", "name": "USPS COLLECTION BOX - APC", "note": "ON 12/24 AND 12/31, THIS BOX MAY BE COLLECTED AS EARLY AS 12 NOON.", "nsi_id": "unitedstatespostalservice-a77078", "operator": "United States Postal Service", "operator:short": "USPS", "operator:type": "public", "operator:wikidata": "Q668687", "ref": "9060100051"}, "type": "Feature"}
{"geometry": {"coordinates": [-118.0350574367, 33.9805631456], "type": "Point"}, "id": "WerKojg65PLdUGCoaC8VuJDD5C0=", "properties": {"@source_uri": "https://tools.usps.com/UspsToolsRestServices/rest/POLocator/findLocations", "@spider": "usps_collection_boxes", "addr:city": "WHITTIER", "addr:country": "US", "addr:postcode": "90601", "addr:state": "CA", "addr:street_address": "6709 WASHINGTON AVE", "amenity": "post_box", "collection_times": "Mo-Fr 17:00", "indoor": "yes", "note": "ON 12/24 AND 12/31, THIS BOX MAY BE COLLECTED AS EARLY AS 12 NOON.", "nsi_id": "unitedstatespostalservice-a77078", "operator": "United States Postal Service", "operator:short": "USPS", "operator:type": "public", "operator:wikidata": "Q668687", "ref": "9060100054"}, "type": "Feature"}
{"geometry": {"coordinates": [-118.047933, 33.969061], "type": "Point"}, "id": "qQrlyMvqIVSjkizPLS_oKqiZZNg=", "properties": {"@source_uri": "https://tools.usps.com/UspsToolsRestServices/rest/POLocator/findLocations", "@spider": "usps_collection_boxes", "addr:city": "WHITTIER", "addr:country": "US", "addr:postcode": "90602", "addr:state": "CA", "addr:street_address": "12401 WASHINGTON BLVD", "amenity": "post_box", "collection_times": "Mo-Sa 10:00", "nsi_id": "unitedstatespostalservice-a77078", "operator": "United States Postal Service", "operator:short": "USPS", "operator:type": "public", "operator:wikidata": "Q668687", "ref": "9060200008"}, "type": "Feature"}
{"geometry": {"coordinates": [-118.03417, 33.975448], "type": "Point"}, "id": "k8pfst-Mqmpg2EmjBqcq7tHJVdg=", "properties": {"@source_uri": "https://tools.usps.com/UspsToolsRestServices/rest/POLocator/findLocations", "@spider": "usps_collection_boxes", "addr:city": "WHITTIER", "addr:country": "US", "addr:postcode": "90602", "addr:state": "CA", "addr:street_address": "13215 PENN ST", "amenity": "post_box", "collection_times": "Mo-Fr 10:00", "nsi_id": "unitedstatespostalservice-a77078", "operator": "United States Postal Service", "operator:short": "USPS", "operator:type": "public", "operator:wikidata": "Q668687", "ref": "9060200013"}, "type": "Feature"}
{"geometry": {"coordinates": [-118.037497, 33.975635], "type": "Point"}, "id": "KRTIpAq-_QIDpr64Vb3wXmq1VSQ=", "properties": {"@source_uri": "https://tools.usps.com/UspsToolsRestServices/rest/POLocator/findLocations", "@spider": "usps_collection_boxes", "addr:city": "WHITTIER", "addr:country": "US", "addr:postcode": "90602", "addr:state": "CA", "addr:street_address": "7255 GREENLEAF AVE", "amenity": "post_box", "collection_times": "Mo-Sa 10:00", "nsi_id": "unitedstatespostalservice-a77078", "operator": "United States Postal Service", "operator:short": "USPS", "operator:type": "public", "operator:wikidata": "Q668687", "ref": "9060200026"}, "type": "Feature"}
{"geometry": {"coordinates": [-118.037324, 33.976877], "type": "Point"}, "id": "zCAOYVVC_tNsCBMqWg5YKYtxMCM=", "properties": {"@source_uri": "https://tools.usps.com/UspsToolsRestServices/rest/POLocator/findLocations", "@spider": "usps_collection_boxes", "addr:city": "WHITTIER", "addr:country": "US", "addr:postcode": "90602", "addr:state": "CA", "addr:street_address": "7202 GREENLEAF AVE", "amenity": "post_box", "collection_times": "Mo-Sa 10:00", "nsi_id": "unitedstatespostalservice-a77078", "operator": "United States Postal Service", "operator:short": "USPS", "operator:type": "public", "operator:wikidata": "Q668687", "ref": "9060200036"}, "type": "Feature"}
{"geometry": {"coordinates": [-117.979838, 33.9441], "type": "Point"}, "id": "GJzpJGss1xBt9WuspbsmlhU4F14=", "properties": {"@source_uri": "https://tools.usps.com/UspsToolsRestServices/rest/POLocator/findLocations", "@spider": "usps_collection_boxes", "addr:city": "WHITTIER", "addr:country": "US", "addr:postcode": "90603", "addr:state": "CA", "addr:street_address": "10166 POUNDS AVE", "amenity": "post_box", "collection_times": "Mo-Sa 10:00", "nsi_id": "unitedstatespostalservice-a77078", "operator": "United States Postal Service", "operator:short": "USPS", "operator:type": "public", "operator:wikidata": "Q668687", "ref": "9060300006"}, "type": "Feature"}
{"geometry": {"coordinates": [-117.983479, 33.940276], "type": "Point"}, "id": "rSliyZQU-jZv9jxoLVHIWCxVLJw=", "properties": {"@source_uri": "https://tools.usps.com/UspsToolsRestServices/rest/POLocator/findLocations", "@spider": "usps_collection_boxes", "addr:city": "WHITTIER", "addr:country": "US", "addr:postcode": "90603", "addr:state": "CA", "addr:street_address": "16262 WHITTIER BLVD", "amenity": "post_box", "collection_times": "Mo-Fr 10:00", "nsi_id": "unitedstatespostalservice-a77078", "operator": "United States Postal Service", "operator:short": "USPS", "operator:type": "public", "operator:wikidata": "Q668687", "ref": "9060300013"}, "type": "Feature"}
{"geometry": {"coordinates": [-117.984994, 33.941312], "type": "Point"}, "id": "71dSuTe8fHvOVEk3CYljixYLXxU=", "properties": {"@source_uri": "https://tools.usps.com/UspsToolsRestServices/rest/POLocator/findLocations", "@spider": "usps_collection_boxes", "addr:city": "WHITTIER", "addr:country": "US", "addr:postcode": "90603", "addr:state": "CA", "addr:street_address": "16201 WHITTIER BLVD", "amenity": "post_box", "collection_times": "Mo-Fr 10:00", "nsi_id": "unitedstatespostalservice-a77078", "operator": "United States Postal Service", "operator:short": "USPS", "operator:type": "public", "operator:wikidata": "Q668687", "ref": "9060300014"}, "type": "Feature"}
{"geometry": {"coordinates": [-117.999315, 33.945331], "type": "Point"}, "id": "AHehuObAw1kBfTRIq6FTlBfcUlU=", "properties": {"@source_uri": "https://tools.usps.com/UspsToolsRestServices/rest/POLocator/findLocations", "@spider": "usps_collection_boxes", "addr:city": "WHITTIER", "addr:country": "US", "addr:postcode": "90603", "addr:state": "CA", "addr:street_address": "10053 WHITTWOOD DR LBBY", "amenity": "post_box", "collection_times": "Mo-Fr 17:00; Sa 15:00", "indoor": "yes", "note": "ON 12/24 AND 12/31, THIS BOX MAY BE COLLECTED AS EARLY AS 12 NOON.", "nsi_id": "unitedstatespostalservice-a77078", "operator": "United States Postal Service", "operator:short": "USPS", "operator:type": "public", "operator:wikidata": "Q668687", "ref": "9060300027"}, "type": "Feature"}
{"geometry": {"coordinates": [-117.99935, 33.945351], "type": "Point"}, "id": "9a0srNwI6Qd8zO5630jWMBtzVi8=", "properties": {"@source_uri": "https://tools.usps.com/UspsToolsRestServices/rest/POLocator/findLocations", "@spider": "usps_collection_boxes", "addr:city": "WHITTIER", "addr:country": "US", "addr:postcode": "90603", "addr:state": "CA", "addr:street_address": "10053 WHITTWOOD DR", "amenity": "post_box", "collection_times": "Mo-Fr 17:00; Sa 15:00", "name": "USPS COLLECTION BOX - APC", "note": "ON 12/24 AND 12/31, THIS BOX MAY BE COLLECTED AS EARLY AS 12 NOON.", "nsi_id": "unitedstatespostalservice-a77078", "operator": "United States Postal Service", "operator:short": "USPS", "operator:type": "public", "operator:wikidata": "Q668687", "ref": "9060300028"}, "type": "Feature"}
{"geometry": {"coordinates": [-117.99920443, 33.9450486011], "type": "Point"}, "id": "JXm1oyyTnerfaX_24c4gGXtkUFI=", "properties": {"@source_uri": "https://tools.usps.com/UspsToolsRestServices/rest/POLocator/findLocations", "@spider": "usps_collection_boxes", "addr:city": "WHITTIER", "addr:country": "US", "addr:postcode": "90603", "addr:state": "CA", "addr:street_address": "10053 WHITTWOOD DR STE A", "amenity": "post_box", "collection_times": "Mo-Fr 17:30; Sa 15:00", "indoor": "yes", "note": "ON 12/24 AND 12/31, THIS BOX MAY BE COLLECTED AS EARLY AS 12 NOON.", "nsi_id": "unitedstatespostalservice-a77078", "operator": "United States Postal Service", "operator:short": "USPS", "operator:type": "public", "operator:wikidata": "Q668687", "ref": "9060300034"}, "type": "Feature"}
{"geometry": {"coordinates": [-118.0104363, 33.9334], "type": "Point"}, "id": "gDo7_nai04s-SG34zOkhVX6J0E4=", "properties": {"@source_uri": "https://tools.usps.com/UspsToolsRestServices/rest/POLocator/findLocations", "@spider": "usps_collection_boxes", "addr:city": "WHITTIER", "addr:country": "US", "addr:postcode": "90604", "addr:state": "CA", "addr:street_address": "10660 LA MIRADA BLVD", "amenity": "post_box", "collection_times": "Mo-Sa 10:00", "nsi_id": "unitedstatespostalservice-a77078", "operator": "United States Postal Service", "operator:short": "USPS", "operator:type": "public", "operator:wikidata": "Q668687", "ref": "9060400007"}, "type": "Feature"}
{"geometry": {"coordinates": [-118.048145, 33.92321], "type": "Point"}, "id": "JXBexZcXSVhyIFxlaSEM7b60mj0=", "properties": {"@source_uri": "https://tools.usps.com/UspsToolsRestServices/rest/POLocator/findLocations", "@spider": "usps_collection_boxes", "addr:city": "WHITTIER", "addr:country": "US", "addr:postcode": "90605", "addr:state": "CA", "addr:street_address": "14831 WHITTIER BLVD", "amenity": "post_box", "collection_times": "Mo-Sa 10:00", "nsi_id": "unitedstatespostalservice-a77078", "operator": "United States Postal Service", "operator:short": "USPS", "operator:type": "public", "operator:wikidata": "Q668687", "ref": "9060500013"}, "type": "Feature"}
{"geometry": {"coordinates": [-118.01858, 33.954989], "type": "Point"}, "id": "7P06vflGTjqYFE4oHR2Z9AAkLWY=", "properties": {"@source_uri": "https://tools.usps.com/UspsToolsRestServices/rest/POLocator/findLocations", "@spider": "usps_collection_boxes", "addr:city": "WHITTIER", "addr:country": "US", "addr:postcode": "90605", "addr:state": "CA", "addr:street_address": "14350 WHITTIER BLVD", "amenity": "post_box", "collection_times": "Mo-Fr 10:00", "nsi_id": "unitedstatespostalservice-a77078", "operator": "United States Postal Service", "operator:short": "USPS", "operator:type": "public", "operator:wikidata": "Q668687", "ref": "9060500014"}, "type": "Feature"}
{"geometry": {"coordinates": [-118.048501, 33.947873], "type": "Point"}, "id": "3OqnXWxPTVKAeOF7H7SojgQ78xc=", "properties": {"@source_uri": "https://tools.usps.com/UspsToolsRestServices/rest/POLocator/findLocations", "@spider": "usps_collection_boxes", "addr:city": "WHITTIER", "addr:country": "US", "addr:postcode": "90605", "addr:state": "CA", "addr:street_address": "9845 PAINTER AVE", "amenity": "post_box", "collection_times": "Mo-Sa 10:00", "nsi_id": "unitedstatespostalservice-a77078", "operator": "United States Postal Service", "operator:short": "USPS", "operator:type": "public", "operator:wikidata": "Q668687", "ref": "9060500015"}, "type": "Feature"}
{"geometry": {"coordinates": [-118.048145, 33.92321], "type": "Point"}, "id": "dfitGwnbcVM9CtcV1tZ3azUgHLM=", "properties": {"@source_uri": "https://tools.usps.com/UspsToolsRestServices/rest/POLocator/findLocations", "@spider": "usps_collection_boxes", "addr:city": "WHITTIER", "addr:country": "US", "addr:postcode": "90605", "addr:state": "CA", "addr:street_address": "13445 TELEGRAPH RD", "amenity": "post_box", "collection_times": "Mo-Fr 17:00; Sa 16:15", "note": "ON 12/24 AND 12/31, THIS BOX MAY BE COLLECTED AS EARLY AS 12 NOON.", "nsi_id": "unitedstatespostalservice-a77078", "operator": "United States Postal Service", "operator:short": "USPS", "operator:type": "public", "operator:wikidata": "Q668687", "ref": "9060500018"}, "type": "Feature"}
{"geometry": {"coordinates": [-118.025413, 33.961063], "type": "Point"}, "id": "oafr0GSArCxcTbSwM_Gb9Z3-r8w=", "properties": {"@source_uri": "https://tools.usps.com/UspsToolsRestServices/rest/POLocator/findLocations", "@spider": "usps_collection_boxes", "addr:city": "WHITTIER", "addr:country": "US", "addr:postcode": "90605", "addr:state": "CA", "addr:street_address": "8520 MICHIGAN AVE LBBY", "amenity": "post_box", "collection_times": "Mo-Fr 17:30; Sa 17:00", "indoor": "yes", "note": "ON 12/24 AND 12/31, THIS BOX MAY BE COLLECTED AS EARLY AS 12 NOON.", "nsi_id": "unitedstatespostalservice-a77078", "operator": "United States Postal Service", "operator:short": "USPS", "operator:type": "public", "operator:wikidata": "Q668687", "ref": "9060500030"}, "type": "Feature"}
{"geometry": {"coordinates": [-118.044095, 33.940355], "type": "Point"}, "id": "5gtZtmm-iukys-obHq6zMWmy1qk=", "properties": {"@source_uri": "https://tools.usps.com/UspsToolsRestServices/rest/POLocator/findLocations", "@spider": "usps_collection_boxes", "addr:city": "WHITTIER", "addr:country": "US", "addr:postcode": "90605", "addr:state": "CA", "addr:street_address": "13445 TELEGRAPH RD (SF PLAZA LOBBY)", "amenity": "post_box", "collection_times": "Mo-Fr 17:00", "indoor": "yes", "note": "ON 12/24 AND 12/31, THIS BOX MAY BE COLLECTED AS EARLY AS 12 NOON.", "nsi_id": "unitedstatespostalservice-a77078", "operator": "United States Postal Service", "operator:short": "USPS", "operator:type": "public", "operator:wikidata": "Q668687", "ref": "9060500033"}, "type": "Feature"}
{"geometry": {"coordinates": [-118.025411, 33.960278], "type": "Point"}, "id": "xzxOJWD-TsbKIJpunbjUKMlIkA8=", "properties": {"@source_uri": "https://tools.usps.com/UspsToolsRestServices/rest/POLocator/findLocations", "@spider": "usps_collection_boxes", "addr:city": "WHITTIER", "addr:country": "US", "addr:postcode": "90605", "addr:state": "CA", "addr:street_address": "8520 MICHIGAN AVE LBBY", "amenity": "post_box", "collection_times": "Mo-Fr 17:30; Sa 17:00", "indoor": "yes", "note": "ON 12/24 AND 12/31, THIS BOX MAY BE COLLECTED AS EARLY AS 12 NOON.", "nsi_id": "unitedstatespostalservice-a77078", "operator": "United States Postal Service", "operator:short": "USPS", "operator:type": "public", "operator:wikidata": "Q668687", "ref": "9060500034"}, "type": "Feature"}
{"geometry": {"coordinates": [-118.0257268512, 33.960655114], "type": "Point"}, "id": "xBjEaeGTqkewpNnyC8bpKLREJy4=", "properties": {"@source_uri": "https://tools.usps.com/UspsToolsRestServices/rest/POLocator/findLocations", "@spider": "usps_collection_boxes", "addr:city": "WHITTIER", "addr:country": "US", "addr:postcode": "90605", "addr:state": "CA", "addr:street_address": "8520 MICHIGAN AVE", "amenity": "post_box", "collection_times": "Mo-Fr 17:30; Sa 17:00", "name": "USPS COLLECTION BOX - APC", "note": "ON 12/24 AND 12/31, THIS BOX MAY BE COLLECTED AS EARLY AS 12 NOON.", "nsi_id": "unitedstatespostalservice-a77078", "operator": "United States Postal Service", "operator:short": "USPS", "operator:type": "public", "operator:wikidata": "Q668687", "ref": "9060500035"}, "type": "Feature"}
{"geometry": {"coordinates": [-118.044841837, 33.9391900194], "type": "Point"}, "id": "OdEyNf0Y8zc5vfeS1QzS5_AA6AI=", "properties": {"@source_uri": "https://tools.usps.com/UspsToolsRestServices/rest/POLocator/findLocations", "@spider": "usps_collection_boxes", "addr:city": "WHITTIER", "addr:country": "US", "addr:postcode": "90605", "addr:state": "CA", "addr:street_address": "13445 TELEGRAPH RD", "amenity": "post_box", "collection_times": "Mo-Fr 17:00", "indoor": "yes", "note": "ON 12/24 AND 12/31, THIS BOX MAY BE COLLECTED AS EARLY AS 12 NOON.", "nsi_id": "unitedstatespostalservice-a77078", "operator": "United States Postal Service", "operator:short": "USPS", "operator:type": "public", "operator:wikidata": "Q668687", "ref": "9060500045"}, "type": "Feature"}
{"geometry": {"coordinates": [-118.0257268512, 33.960655114], "type": "Point"}, "id": "9fCxAvP1gg8SXcsX2Ujs24zH1u4=", "properties": {"@source_uri": "https://tools.usps.com/UspsToolsRestServices/rest/POLocator/findLocations", "@spider": "usps_collection_boxes", "addr:city": "WHITTIER", "addr:country": "US", "addr:postcode": "90605", "addr:state": "CA", "addr:street_address": "8520 MICHIGAN AVE", "amenity": "post_box", "collection_times": "Mo-Fr 17:00", "indoor": "yes", "note": "ON 12/24 AND 12/31, THIS BOX MAY BE COLLECTED AS EARLY AS 12 NOON.", "nsi_id": "unitedstatespostalservice-a77078", "operator": "United States Postal Service", "operator:short": "USPS", "operator:type": "public", "operator:wikidata": "Q668687", "ref": "9060500046"}, "type": "Feature"}
{"geometry": {"coordinates": [-118.0715044323, 33.9688751353], "type": "Point"}, "id": "BSOmvVziF2ISBUjJXL1OC4bKEDc=", "properties": {"@source_uri": "https://tools.usps.com/UspsToolsRestServices/rest/POLocator/findLocations", "@spider": "usps_collection_boxes", "addr:city": "WHITTIER", "addr:country": "US", "addr:postcode": "90606", "addr:state": "CA", "addr:street_address": "8232 NORWALK BLVD", "amenity": "post_box", "collection_times": "Mo-Fr 17:00; Sa 16:30", "note": "ON 12/24 AND 12/31, THIS BOX MAY BE COLLECTED AS EARLY AS 12 NOON.", "nsi_id": "unitedstatespostalservice-a77078", "operator": "United States Postal Service", "operator:short": "USPS", "operator:type": "public", "operator:wikidata": "Q668687", "ref": "9060600003"}, "type": "Feature"}
{"geometry": {"coordinates": [-118.071785, 33.972168], "type": "Point"}, "id": "ldFudHFwhtCjUce_Vkty81XXKbE=", "properties": {"@source_uri": "https://tools.usps.com/UspsToolsRestServices/rest/POLocator/findLocations", "@spider": "usps_collection_boxes", "addr:city": "WHITTIER", "addr:country": "US", "addr:postcode": "90606", "addr:state": "CA", "addr:street_address": "11221 WASHINGTON BLVD", "amenity": "post_box", "collection_times": "Mo-Sa 10:00", "nsi_id": "unitedstatespostalservice-a77078", "operator": "United States Postal Service", "operator:short": "USPS", "operator:type": "public", "operator:wikidata": "Q668687", "ref": "9060600026"}, "type": "Feature"}
{"geometry": {"coordinates": [-118.0715044323, 33.9688751353], "type": "Point"}, "id": "f1bV6hNWltckkAQJiiGe4gNf3xI=", "properties": {"@source_uri": "https://tools.usps.com/UspsToolsRestServices/rest/POLocator/findLocations", "@spider": "usps_collection_boxes", "addr:city": "WHITTIER", "addr:country": "US", "addr:postcode": "90606", "addr:state": "CA", "addr:street_address": "8232 NORWALK BLVD", "amenity": "post_box", "collection_times": "Mo-Fr 17:00", "indoor": "yes", "note": "ON 12/24 AND 12/31, THIS BOX MAY BE COLLECTED AS EARLY AS 12 NOON.", "nsi_id": "unitedstatespostalservice-a77078", "operator": "United States Postal Service", "operator:short": "USPS", "operator:type": "public", "operator:wikidata": "Q668687", "ref": "9060600027"}, "type": "Feature"}
{"geometry": {"coordinates": [-118.0715044323, 33.9688751353], "type": "Point"}, "id": "c2nckDpU_fAj2scIfXiFWDrX64I=", "properties": {"@source_uri": "https://tools.usps.com/UspsToolsRestServices/rest/POLocator/findLocations", "@spider": "usps_collection_boxes", "addr:city": "WHITTIER", "addr:country": "US", "addr:postcode": "90606", "addr:state": "CA", "addr:street_address": "8232 NORWALK BLVD", "amenity": "post_box", "collection_times": "Mo-Fr 17:00", "indoor": "yes", "note": "ON 12/24 AND 12/31, THIS BOX MAY BE COLLECTED AS EARLY AS 12 NOON.", "nsi_id": "unitedstatespostalservice-a77078", "operator": "United States Postal Service", "operator:short": "USPS", "operator:type": "public", "operator:wikidata": "Q668687", "ref": "9060600030"}, "type": "Feature"}
{"geometry": {"coordinates": [-117.999891, 33.868637], "type": "Point"}, "id": "v9ogUnTcCjLGqLc97ROYy4Vcrwk=", "properties": {"@source_uri": "https://tools.usps.com/UspsToolsRestServices/rest/POLocator/findLocations", "@spider": "usps_collection_boxes", "addr:city": "BUENA PARK", "addr:country": "US", "addr:postcode": "90621", "addr:state": "CA", "addr:street_address": "6280 AUTO CENTER DR", "amenity": "post_box", "collection_times": "Mo-Sa 10:00", "nsi_id": "unitedstatespostalservice-a77078", "operator": "United States Postal Service", "operator:short": "USPS", "operator:type": "public", "operator:wikidata": "Q668687", "ref": "9062100001"}, "type": "Feature"}
{"geometry": {"coordinates": [-118.010528, 33.870546], "type": "Point"}, "id": "PUysuUpVv8sAe287uHGgvIP3ttQ=", "properties": {"@source_uri": "https://tools.usps.com/UspsToolsRestServices/rest/POLocator/findLocations", "@spider": "usps_collection_boxes", "addr:city": "BUENA PARK", "addr:country": "US", "addr:postcode": "90621", "addr:state": "CA", "addr:street_address": "7001 VILLAGE DR NE", "amenity": "post_box", "collection_times": "Mo-Sa 10:00", "name": "USPS COLLECTION BOX - EXPRESS", "nsi_id": "unitedstatespostalservice-a77078", "operator": "United States Postal Service", "operator:short": "USPS", "operator:type": "public", "operator:wikidata": "Q668687", "ref": "9062100006"}, "type": "Feature"}
{"geometry": {"coordinates": [-118.010538, 33.870536], "type": "Point"}, "id": "qJSPVSY_mknPpW9g84mM0bnRCEo=", "properties": {"@source_uri": "https://tools.usps.com/UspsToolsRestServices/rest/POLocator/findLocations", "@spider": "usps_collection_boxes", "addr:city": "BUENA PARK", "addr:country": "US", "addr:postcode": "90621", "addr:state": "CA", "addr:street_address": "7001 VILLAGE(AT KNOTT AVE) NE", "amenity": "post_box", "collection_times": "Mo-Sa 10:00", "nsi_id": "unitedstatespostalservice-a77078", "operator": "United States Postal Service", "operator:short": "USPS", "operator:type": "public", "operator:wikidata": "Q668687", "ref": "9062100014"}, "type": "Feature"}
{"geometry": {"coordinates": [-117.991877, 33.869605], "type": "Point"}, "id": "t8YA4VZma2IDUB6sXhbG-b4t-rA=", "properties": {"@source_uri": "https://tools.usps.com/UspsToolsRestServices/rest/POLocator/findLocations", "@spider": "usps_collection_boxes", "addr:city": "BUENA PARK", "addr:country": "US", "addr:postcode": "90621", "addr:state": "CA", "addr:street_address": "8082 COMMONWEALTH AVE", "amenity": "post_box", "collection_times": "Mo-Fr 16:00; Sa 10:00", "indoor": "yes", "note": "ON 12/24 AND 12/31, THIS BOX MAY BE COLLECTED AS EARLY AS 12 NOON.", "nsi_id": "unitedstatespostalservice-a77078", "operator": "United States Postal Service", "operator:short": "USPS", "operator:type": "public", "operator:wikidata": "Q668687", "ref": "9062100027"}, "type": "Feature"}
{"geometry": {"coordinates": [-117.997721, 33.882606], "type": "Point"}, "id": "FZScV3sTSE3Dy08UFT7pdSXojuU=", "properties": {"@source_uri": "https://tools.usps.com/UspsToolsRestServices/rest/POLocator/findLocations", "@spider": "usps_collection_boxes", "addr:city": "BUENA PARK", "addr:country": "US", "addr:postcode": "90621", "addr:state": "CA", "addr:street_address": "5423 BEACH BLVD", "amenity": "post_box", "collection_times": "Mo-Sa 10:00", "nsi_id": "unitedstatespostalservice-a77078", "operator": "United States Postal Service", "operator:short": "USPS", "operator:type": "public", "operator:wikidata": "Q668687", "ref": "9062100029"}, "type": "Feature"}
{"geometry": {"coordinates": [-117.9920514817, 33.8698705101], "type": "Point"}, "id": "QE7H4qHa4PKFLSNs4Bgq2-juqcg=", "properties": {"@source_uri": "https://tools.usps.com/UspsToolsRestServices/rest/POLocator/findLocations", "@spider": "usps_collection_boxes", "addr:city": "BUENA PARK", "addr:country": "US", "addr:postcode": "90621", "addr:state": "CA", "addr:street_address": "8082 COMMONWEALTH AVE STE 100", "amenity": "post_box", "collection_times": "Mo-Fr 16:00", "indoor": "yes", "note": "ON 12/24 AND 12/31, THIS BOX MAY BE COLLECTED AS EARLY AS 12 NOON.", "nsi_id": "unitedstatespostalservice-a77078", "operator": "United States Postal Service", "operator:short": "USPS", "operator:type": "public", "operator:wikidata": "Q668687", "ref": "9062100031"}, "type": "Feature"}
{"geometry": {"coordinates": [-118.004252, 33.846838], "type": "Point"}, "id": "vHhS820RAu_hkTUJ74GVj6fVSEI=", "properties": {"@source_uri": "https://tools.usps.com/UspsToolsRestServices/rest/POLocator/findLocations", "@spider": "usps_collection_boxes", "addr:city": "BUENA PARK", "addr:country": "US", "addr:postcode": "90622", "addr:state": "CA", "addr:street_address": "7377 LA PALMA AVE", "amenity": "post_box", "collection_times": "Mo-Fr 17:30; Sa 16:30", "note": "ON 12/24 AND 12/31, THIS BOX MAY BE COLLECTED AS EARLY AS 12 NOON.", "nsi_id": "unitedstatespostalservice-a77078", "operator": "United States Postal Service", "operator:short": "USPS", "operator:type": "public", "operator:wikidata": "Q668687", "ref": "9062200001"}, "type": "Feature"}
{"geometry": {"coordinates": [-118.0041839732, 33.8470629993], "type": "Point"}, "id": "gUA1Jre7p-yHkhkGRFszFNP5af4=", "properties": {"@source_uri": "https://tools.usps.com/UspsToolsRestServices/rest/POLocator/findLocations", "@spider": "usps_collection_boxes", "addr:city": "BUENA PARK", "addr:country": "US", "addr:postcode": "90622", "addr:state": "CA", "addr:street_address": "7377 LA PALMA AVE LOBBY", "amenity": "post_box", "collection_times": "Mo-Fr 17:30; Sa 17:00", "indoor": "yes", "note": "ON 12/24 AND 12/31, THIS BOX MAY BE COLLECTED AS EARLY AS 12 NOON.", "nsi_id": "unitedstatespostalservice-a77078", "operator": "United States Postal Service", "operator:short": "USPS", "operator:type": "public", "operator:wikidata": "Q668687", "ref": "9062200005"}, "type": "Feature"}
{"geometry": {"coordinates": [-118.0041839732, 33.8470629993], "type": "Point"}, "id": "WVklsauBQTuFL0OmUItaokraDC8=", "properties": {"@source_uri": "https://tools.usps.com/UspsToolsRestServices/rest/POLocator/findLocations", "@spider": "usps_collection_boxes", "addr:city": "BUENA PARK", "addr:country": "US", "addr:postcode": "90622", "addr:state": "CA", "addr:street_address": "7377 LA PALMA AVE LOBBY", "amenity": "post_box", "collection_times": "Mo-Fr 17:30; Sa 17:00", "name": "USPS COLLECTION BOX - APC", "note": "ON 12/24 AND 12/31, THIS BOX MAY BE COLLECTED AS EARLY AS 12 NOON.", "nsi_id": "unitedstatespostalservice-a77078", "operator": "United States Postal Service", "operator:short": "USPS", "operator:type": "public", "operator:wikidata": "Q668687", "ref": "9062200006"}, "type": "Feature"}
{"geometry": {"coordinates": [-118.0041839732, 33.8470629993], "type": "Point"}, "id": "l8ygfq_p6PisQLUfIrue2azDUJk=", "properties": {"@source_uri": "https://tools.usps.com/UspsToolsRestServices/rest/POLocator/findLocations", "@spider": "usps_collection_boxes", "addr:city": "BUENA PARK", "addr:country": "US", "addr:postcode": "90622", "addr:state": "CA", "addr:street_address": "7377 LA PALMA AVE LOBBY", "amenity": "post_box", "collection_times": "Mo-Fr 18:00; Sa 17:00", "indoor": "yes", "note": "ON 12/24 AND 12/31, THIS BOX MAY BE COLLECTED AS EARLY AS 12 NOON.", "nsi_id": "unitedstatespostalservice-a77078", "operator": "United States Postal Service", "operator:short": "USPS", "operator:type": "public", "operator:wikidata": "Q668687", "ref": "9062200010"}, "type": "Feature"}
{"geometry": {"coordinates": [-118.038455, 33.845954], "type": "Point"}, "id": "a4mCnvJcXLDiLch_MXvmj61rIvc=", "properties": {"@source_uri": "https://tools.usps.com/UspsToolsRestServices/rest/POLocator/findLocations", "@spider": "usps_collection_boxes", "addr:city": "BUENA PARK", "addr:country": "US", "addr:postcode": "90623", "addr:state": "CA", "addr:street_address": "5420 LA PALMA AVE", "amenity": "post_box", "collection_times": "Mo-Sa 10:00", "nsi_id": "unitedstatespostalservice-a77078", "operator": "United States Postal Service", "operator:short": "USPS", "operator:type": "public", "operator:wikidata": "Q668687", "ref": "9062300007"}, "type": "Feature"}
{"geometry": {"coordinates": [-118.044822646, 33.854002492], "type": "Point"}, "id": "XGujmBEs1eQyarN9PZI9E5VdQ8s=", "properties": {"@source_uri": "https://tools.usps.com/UspsToolsRestServices/rest/POLocator/findLocations", "@spider": "usps_collection_boxes", "addr:city": "BUENA PARK", "addr:country": "US", "addr:postcode": "90623", "addr:state": "CA", "addr:street_address": "5072 TOULOUSE DR", "amenity": "post_box", "collection_times": "Mo-Sa 10:00", "nsi_id": "unitedstatespostalservice-a77078", "operator": "United States Postal Service", "operator:short": "USPS", "operator:type": "public", "operator:wikidata": "Q668687", "ref": "9062300012"}, "type": "Feature"}
{"geometry": {"coordinates": [-118.031249, 33.859386], "type": "Point"}, "id": "Q3We3YMICy3c6qsA2pbc4ZI0N68=", "properties": {"@source_uri": "https://tools.usps.com/UspsToolsRestServices/rest/POLocator/findLocations", "@spider": "usps_collection_boxes", "addr:city": "BUENA PARK", "addr:country": "US", "addr:postcode": "90623", "addr:state": "CA", "addr:street_address": "50 CENTERPOINTE DR", "amenity": "post_box", "collection_times": "Mo-Sa 10:00", "nsi_id": "unitedstatespostalservice-a77078", "operator": "United States Postal Service", "operator:short": "USPS", "operator:type": "public", "operator:wikidata": "Q668687", "ref": "9062300021"}, "type": "Feature"}
{"geometry": {"coordinates": [-118.0359031659, 33.8586555006], "type": "Point"}, "id": "tItMuLLaoU0jFrf9KJTzKEkGRnc=", "properties": {"@source_uri": "https://tools.usps.com/UspsToolsRestServices/rest/POLocator/findLocations", "@spider": "usps_collection_boxes", "addr:city": "BUENA PARK", "addr:country": "US", "addr:postcode": "90623", "addr:state": "CA", "addr:street_address": "5600 ORANGETHORPE AVE", "amenity": "post_box", "collection_times": "Mo-Sa 10:00", "nsi_id": "unitedstatespostalservice-a77078", "operator": "United States Postal Service", "operator:short": "USPS", "operator:type": "public", "operator:wikidata": "Q668687", "ref": "9062300022"}, "type": "Feature"}
{"geometry": {"coordinates": [-118.038444, 33.845958], "type": "Point"}, "id": "wluGdtIZMHtCza2pmeD8CzFxlhI=", "properties": {"@source_uri": "https://tools.usps.com/UspsToolsRestServices/rest/POLocator/findLocations", "@spider": "usps_collection_boxes", "addr:city": "BUENA PARK", "addr:country": "US", "addr:postcode": "90623", "addr:state": "CA", "addr:street_address": "5418 LA PALMA AVE", "amenity": "post_box", "collection_times": "Mo-Sa 10:00", "nsi_id": "unitedstatespostalservice-a77078", "operator": "United States Postal Service", "operator:short": "USPS", "operator:type": "public", "operator:wikidata": "Q668687", "ref": "9062300023"}, "type": "Feature"}
{"geometry": {"coordinates": [-118.061411, 33.818148], "type": "Point"}, "id": "l9qKQSNZ24-sFbaF8OgiSLZt3YA=", "properties": {"@source_uri": "https://tools.usps.com/UspsToolsRestServices/rest/POLocator/findLocations", "@spider": "usps_collection_boxes", "addr:city": "CYPRESS", "addr:country": "US", "addr:postcode": "90630", "addr:state": "CA", "addr:street_address": "4037 BALL RD", "amenity": "post_box", "collection_times": "Mo-Sa 10:00", "nsi_id": "unitedstatespostalservice-a77078", "operator": "United States Postal Service", "operator:short": "USPS", "operator:type": "public", "operator:wikidata": "Q668687", "ref": "9063000006"}, "type": "Feature"}
{"geometry": {"coordinates": [-118.031499, 33.807933], "type": "Point"}, "id": "kpQMPL1iWOaB7MJfsaywh9F3Urc=", "properties": {"@source_uri": "https://tools.usps.com/UspsToolsRestServices/rest/POLocator/findLocations", "@spider": "usps_collection_boxes", "addr:city": "CYPRESS", "addr:country": "US", "addr:postcode": "90630", "addr:state": "CA", "addr:street_address": "5796 CORPORATE AVE", "amenity": "post_box", "collection_times": "Mo-Sa 10:00", "nsi_id": "unitedstatespostalservice-a77078", "operator": "United States Postal Service", "operator:short": "USPS", "operator:type": "public", "operator:wikidata": "Q668687", "ref": "9063000008"}, "type": "Feature"}
{"geometry": {"coordinates": [-118.029128, 33.8162], "type": "Point"}, "id": "vAz7CMbvJWPJzMY7xscXpbPkLuY=", "properties": {"@source_uri": "https://tools.usps.com/UspsToolsRestServices/rest/POLocator/findLocations", "@spider": "usps_collection_boxes", "addr:city": "CYPRESS", "addr:country": "US", "addr:postcode": "90630", "addr:state": "CA", "addr:street_address": "10051 VALLEY VIEW ST", "amenity": "post_box", "collection_times": "Mo-Sa 10:00", "nsi_id": "unitedstatespostalservice-a77078", "operator": "United States Postal Service", "operator:short": "USPS", "operator:type": "public", "operator:wikidata": "Q668687", "ref": "9063000034"}, "type": "Feature"}
{"geometry": {"coordinates": [-118.0323520881, 33.8316474723], "type": "Point"}, "id": "e735TQDIolFekyF8vJ-qzxFYzZ0=", "properties": {"@source_uri": "https://tools.usps.com/UspsToolsRestServices/rest/POLocator/findLocations", "@spider": "usps_collection_boxes", "addr:city": "CYPRESS", "addr:country": "US", "addr:postcode": "90630", "addr:state": "CA", "addr:street_address": "5762 LINCOLN AVE", "amenity": "post_box", "collection_times": "Mo-Fr 17:30; Sa 17:00", "note": "ON 12/24 AND 12/31, THIS BOX MAY BE COLLECTED AS EARLY AS 12 NOON.", "nsi_id": "unitedstatespostalservice-a77078", "operator": "United States Postal Service", "operator:short": "USPS", "operator:type": "public", "operator:wikidata": "Q668687", "ref": "9063000059"}, "type": "Feature"}
{"geometry": {"coordinates": [-118.026158, 33.817243], "type": "Point"}, "id": "9Sd7AcHwfdunjjhDy2AlugfNI0g=", "properties": {"@source_uri": "https://tools.usps.com/UspsToolsRestServices/rest/POLocator/findLocations", "@spider": "usps_collection_boxes", "addr:city": "CYPRESS", "addr:country": "US", "addr:postcode": "90630", "addr:state": "CA", "addr:street_address": "6101 BALL RD", "amenity": "post_box", "collection_times": "Mo-Sa 10:00", "nsi_id": "unitedstatespostalservice-a77078", "operator": "United States Postal Service", "operator:short": "USPS", "operator:type": "public", "operator:wikidata": "Q668687", "ref": "9063000064"}, "type": "Feature"}
{"geometry": {"coordinates": [-118.032495, 33.831307], "type": "Point"}, "id": "_-Pysu2XaeVjvhvteN1FpO9yLGM=", "properties": {"@source_uri": "https://tools.usps.com/UspsToolsRestServices/rest/POLocator/findLocations", "@spider": "usps_collection_boxes", "addr:city": "CYPRESS", "addr:country": "US", "addr:postcode": "90630", "addr:state": "CA", "addr:street_address": "5762 LINCOLN AVE LBBY", "amenity": "post_box", "collection_times": "Mo-Fr 17:30; Sa 17:00", "indoor": "yes", "note": "ON 12/24 AND 12/31, THIS BOX MAY BE COLLECTED AS EARLY AS 12 NOON.", "nsi_id": "unitedstatespostalservice-a77078", "operator": "United States Postal Service", "operator:short": "USPS", "operator:type": "public", "operator:wikidata": "Q668687", "ref": "9063000069"}, "type": "Feature"}
{"geometry": {"coordinates": [-118.030143, 33.81039], "type": "Point"}, "id": "6IblYfWj32aFq5jE-ZDwdO_eZsA=", "properties": {"@source_uri": "https://tools.usps.com/UspsToolsRestServices/rest/POLocator/findLocations", "@spider": "usps_collection_boxes", "addr:city": "CYPRESS", "addr:country": "US", "addr:postcode": "90630", "addr:state": "CA", "addr:street_address": "5907 CERRITOS AVE LBBY", "amenity": "post_box", "collection_times": "Mo-Fr 17:00; Sa 15:00", "indoor": "yes", "note": "ON 12/24 AND 12/31, THIS BOX MAY BE COLLECTED AS EARLY AS 12 NOON.", "nsi_id": "unitedstatespostalservice-a77078", "operator": "United States Postal Service", "operator:short": "USPS", "operator:type": "public", "operator:wikidata": "Q668687", "ref": "9063000070"}, "type": "Feature"}
{"geometry": {"coordinates": [-118.032475, 33.831296], "type": "Point"}, "id": "q8AwiXgQTgP8b-_bJ3zKXvz_NZs=", "properties": {"@source_uri": "https://tools.usps.com/UspsToolsRestServices/rest/POLocator/findLocations", "@spider": "usps_collection_boxes", "addr:city": "CYPRESS", "addr:country": "US", "addr:postcode": "90630", "addr:state": "CA", "addr:street_address": "5762 LINCOLN AVE LBBY", "amenity": "post_box", "collection_times": "Mo-Fr 17:30; Sa 17:00", "name": "USPS COLLECTION BOX - APC", "note": "ON 12/24 AND 12/31, THIS BOX MAY BE COLLECTED AS EARLY AS 12 NOON.", "nsi_id": "unitedstatespostalservice-a77078", "operator": "United States Postal Service", "operator:short": "USPS", "operator:type": "public", "operator:wikidata": "Q668687", "ref": "9063000071"}, "type": "Feature"}
{"geometry": {"coordinates": [-118.0299565417, 33.8099236922], "type": "Point"}, "id": "j3iqFjYKShWyPjC31jN_NU6JWGU=", "properties": {"@source_uri": "https://tools.usps.com/UspsToolsRestServices/rest/POLocator/findLocations", "@spider": "usps_collection_boxes", "addr:city": "CYPRESS", "addr:country": "US", "addr:postcode": "90630", "addr:state": "CA", "addr:street_address": "5907 CERRITOS AVE", "amenity": "post_box", "collection_times": "Mo-Fr 16:00", "indoor": "yes", "note": "ON 12/24 AND 12/31, THIS BOX MAY BE COLLECTED AS EARLY AS 12 NOON.", "nsi_id": "unitedstatespostalservice-a77078", "operator": "United States Postal Service", "operator:short": "USPS", "operator:type": "public", "operator:wikidata": "Q668687", "ref": "9063000079"}, "type": "Feature"}
{"geometry": {"coordinates": [-118.0323520881, 33.8316474723], "type": "Point"}, "id": "k0282Wtw0TC0fDa-teLQU_lff5I=", "properties": {"@source_uri": "https://tools.usps.com/UspsToolsRestServices/rest/POLocator/findLocations", "@spider": "usps_collection_boxes", "addr:city": "CYPRESS", "addr:country": "US", "addr:postcode": "90630", "addr:state": "CA", "addr:street_address": "5762 LINCOLN AVE", "amenity": "post_box", "collection_times": "Mo-Fr 17:00; Sa 13:00", "indoor": "yes", "note": "ON 12/24 AND 12/31, THIS BOX MAY BE COLLECTED AS EARLY AS 12 NOON.", "nsi_id": "unitedstatespostalservice-a77078", "operator": "United States Postal Service", "operator:short": "USPS", "operator:type": "public", "operator:wikidata": "Q668687", "ref": "9063000080"}, "type": "Feature"}
{"geometry": {"coordinates": [-117.924478, 33.925078], "type": "Point"}, "id": "Wwgqrpm_X3yRS305LcAobGLiP3g=", "properties": {"@source_uri": "https://tools.usps.com/UspsToolsRestServices/rest/POLocator/findLocations", "@spider": "usps_collection_boxes", "addr:city": "LA HABRA", "addr:country": "US", "addr:postcode": "90631", "addr:state": "CA", "addr:street_address": "601 S PALM ST", "amenity": "post_box", "collection_times": "Mo-Sa 10:00", "nsi_id": "unitedstatespostalservice-a77078", "operator": "United States Postal Service", "operator:short": "USPS", "operator:type": "public", "operator:wikidata": "Q668687", "ref": "9063100007"}, "type": "Feature"}
{"geometry": {"coordinates": [-117.946016, 33.932916], "type": "Point"}, "id": "YAcTjlhAGE5bF3E-Va5UEsKIWaM=", "properties": {"@source_uri": "https://tools.usps.com/UspsToolsRestServices/rest/POLocator/findLocations", "@spider": "usps_collection_boxes", "addr:city": "LA HABRA", "addr:country": "US", "addr:postcode": "90631", "addr:state": "CA", "addr:street_address": "120 W LA HABRA BLVD", "amenity": "post_box", "collection_times": "Mo-Fr 17:00; Sa 15:15", "note": "ON 12/24 AND 12/31, THIS BOX MAY BE COLLECTED AS EARLY AS 12 NOON.", "nsi_id": "unitedstatespostalservice-a77078", "operator": "United States Postal Service", "operator:short": "USPS", "operator:type": "public", "operator:wikidata": "Q668687", "ref": "9063100011"}, "type": "Feature"}
{"geometry": {"coordinates": [-117.933991, 33.940046], "type": "Point"}, "id": "wOA_MvevjPTBj-IpvIWcexuk1mY=", "properties": {"@source_uri": "https://tools.usps.com/UspsToolsRestServices/rest/POLocator/findLocations", "@spider": "usps_collection_boxes", "addr:city": "LA HABRA", "addr:country": "US", "addr:postcode": "90631", "addr:state": "CA", "addr:street_address": "851 N HARBOR BLVD", "amenity": "post_box", "collection_times": "Mo-Sa 10:00", "nsi_id": "unitedstatespostalservice-a77078", "operator": "United States Postal Service", "operator:short": "USPS", "operator:type": "public", "operator:wikidata": "Q668687", "ref": "9063100017"}, "type": "Feature"}
{"geometry": {"coordinates": [-117.969084, 33.931314], "type": "Point"}, "id": "M2UPkXKhXBRV7Ujvi2CeW1PZ-jk=", "properties": {"@source_uri": "https://tools.usps.com/UspsToolsRestServices/rest/POLocator/findLocations", "@spider": "usps_collection_boxes", "addr:city": "LA HABRA", "addr:country": "US", "addr:postcode": "90631", "addr:state": "CA", "addr:street_address": "2080 W LA HABRA BLVD", "amenity": "post_box", "collection_times": "Mo-Sa 10:00", "nsi_id": "unitedstatespostalservice-a77078", "operator": "United States Postal Service", "operator:short": "USPS", "operator:type": "public", "operator:wikidata": "Q668687", "ref": "9063100030"}, "type": "Feature"}
{"geometry": {"coordinates": [-117.956753, 33.91734], "type": "Point"}, "id": "xZPfq4t0nDnlKGnKNDD0L6FNKc8=", "properties": {"@source_uri": "https://tools.usps.com/UspsToolsRestServices/rest/POLocator/findLocations", "@spider": "usps_collection_boxes", "addr:city": "LA HABRA", "addr:country": "US", "addr:postcode": "90631", "addr:state": "CA", "addr:street_address": "1001 W IMPERIAL HWY", "amenity": "post_box", "collection_times": "Mo-Sa 17:00", "note": "ON 12/24 AND 12/31, THIS BOX MAY BE COLLECTED AS EARLY AS 12 NOON.", "nsi_id": "unitedstatespostalservice-a77078", "operator": "United States Postal Service", "operator:short": "USPS", "operator:type": "public", "operator:wikidata": "Q668687", "ref": "9063100041"}, "type": "Feature"}
{"geometry": {"coordinates": [-117.966391, 33.938824], "type": "Point"}, "id": "UHPcjA1U-Bpg6hEziLDf-6Ko3Uc=", "properties": {"@source_uri": "https://tools.usps.com/UspsToolsRestServices/rest/POLocator/findLocations", "@spider": "usps_collection_boxes", "addr:city": "LA HABRA", "addr:country": "US", "addr:postcode": "90631", "addr:state": "CA", "addr:street_address": "1800 W WHITTIER BLVD", "amenity": "post_box", "collection_times": "Mo-Sa 10:00", "nsi_id": "unitedstatespostalservice-a77078", "operator": "United States Postal Service", "operator:short": "USPS", "operator:type": "public", "operator:wikidata": "Q668687", "ref": "9063100045"}, "type": "Feature"}
{"geometry": {"coordinates": [-117.933616, 33.929004], "type": "Point"}, "id": "9wqY6ypyqc7Z3x6L01hPFWNdqmY=", "properties": {"@source_uri": "https://tools.usps.com/UspsToolsRestServices/rest/POLocator/findLocations", "@spider": "usps_collection_boxes", "addr:city": "LA HABRA", "addr:country": "US", "addr:postcode": "90631", "addr:state": "CA", "addr:street_address": "401 S HARBOR BLVD", "amenity": "post_box", "collection_times": "Mo-Sa 10:00", "nsi_id": "unitedstatespostalservice-a77078", "operator": "United States Postal Service", "operator:short": "USPS", "operator:type": "public", "operator:wikidata": "Q668687", "ref": "9063100056"}, "type": "Feature"}
{"geometry": {"coordinates": [-117.94339, 33.93594], "type": "Point"}, "id": "ah4JwwURzs09OO6oHNAx9a6poPE=", "properties": {"@source_uri": "https://tools.usps.com/UspsToolsRestServices/rest/POLocator/findLocations", "@spider": "usps_collection_boxes", "addr:city": "LA HABRA", "addr:country": "US", "addr:postcode": "90631", "addr:state": "CA", "addr:street_address": "1001 W IMPERIAL HWY LOBBY", "amenity": "post_box", "collection_times": "Mo-Sa 17:00", "name": "USPS COLLECTION BOX - APC", "note": "ON 12/24 AND 12/31, THIS BOX MAY BE COLLECTED AS EARLY AS 12 NOON.", "nsi_id": "unitedstatespostalservice-a77078", "operator": "United States Postal Service", "operator:short": "USPS", "operator:type": "public", "operator:wikidata": "Q668687", "ref": "9063100060"}, "type": "Feature"}
{"geometry": {"coordinates": [-117.94339, 33.93594], "type": "Point"}, "id": "KAUN6UdpjXJElyt4dEdh7uzoa9Y=", "properties": {"@source_uri": "https://tools.usps.com/UspsToolsRestServices/rest/POLocator/findLocations", "@spider": "usps_collection_boxes", "addr:city": "LA HABRA", "addr:country": "US", "addr:postcode": "90631", "addr:state": "CA", "addr:street_address": "1001 W IMPERIAL HWY LOBBY", "amenity": "post_box", "collection_times": "Mo-Sa 17:00", "indoor": "yes", "note": "ON 12/24 AND 12/31, THIS BOX MAY BE COLLECTED AS EARLY AS 12 NOON.", "nsi_id": "unitedstatespostalservice-a77078", "operator": "United States Postal Service", "operator:short": "USPS", "operator:type": "public", "operator:wikidata": "Q668687", "ref": "9063100066"}, "type": "Feature"}
{"geometry": {"coordinates": [-117.957771, 33.917343461], "type": "Point"}, "id": "bWT_X8sBs8jHWYqbHKqca1FsBdM=", "properties": {"@source_uri": "https://tools.usps.com/UspsToolsRestServices/rest/POLocator/findLocations", "@spider": "usps_collection_boxes", "addr:city": "LA HABRA", "addr:country": "US", "addr:postcode": "90631", "addr:state": "CA", "addr:street_address": "1001 W IMPERIAL HWY", "amenity": "post_box", "collection_times": "Mo-Fr 17:00; Sa 14:30", "indoor": "yes", "note": "ON 12/24 AND 12/31, THIS BOX MAY BE COLLECTED AS EARLY AS 12 NOON.", "nsi_id": "unitedstatespostalservice-a77078", "operator": "United States Postal Service", "operator:short": "USPS", "operator:type": "public", "operator:wikidata": "Q668687", "ref": "9063100071"}, "type": "Feature"}
{"geometry": {"coordinates": [-117.9454685545, 33.9317871733], "type": "Point"}, "id": "I526OwHyFJMHW7OW8bFbIRpV6Tw=", "properties": {"@source_uri": "https://tools.usps.com/UspsToolsRestServices/rest/POLocator/findLocations", "@spider": "usps_collection_boxes", "addr:city": "LA HABRA", "addr:country": "US", "addr:postcode": "90631", "addr:state": "CA", "addr:street_address": "120 E LA HABRA BLVD", "amenity": "post_box", "collection_times": "Mo-Fr 17:00", "indoor": "yes", "note": "ON 12/24 AND 12/31, THIS BOX MAY BE COLLECTED AS EARLY AS 12 NOON.", "nsi_id": "unitedstatespostalservice-a77078", "operator": "United States Postal Service", "operator:short": "USPS", "operator:type": "public", "operator:wikidata": "Q668687", "ref": "9063100072"}, "type": "Feature"}
{"geometry": {"coordinates": [-118.027965, 33.884598], "type": "Point"}, "id": "u5pq2CVgwxMzZwzXcKO1z-NTcVI=", "properties": {"@source_uri": "https://tools.usps.com/UspsToolsRestServices/rest/POLocator/findLocations", "@spider": "usps_collection_boxes", "addr:city": "LA MIRADA", "addr:country": "US", "addr:postcode": "90638", "addr:state": "CA", "addr:street_address": "14251 FIRESTONE BLVD", "amenity": "post_box", "collection_times": "Mo-Sa 10:00", "nsi_id": "unitedstatespostalservice-a77078", "operator": "United States Postal Service", "operator:short": "USPS", "operator:type": "public", "operator:wikidata": "Q668687", "ref": "9063800004"}, "type": "Feature"}
{"geometry": {"coordinates": [-118.01198796, 33.916188908], "type": "Point"}, "id": "-tpF91eVDokAWPslB2SbES_5Ceg=", "properties": {"@source_uri": "https://tools.usps.com/UspsToolsRestServices/rest/POLocator/findLocations", "@spider": "usps_collection_boxes", "addr:city": "LA MIRADA", "addr:country": "US", "addr:postcode": "90638", "addr:state": "CA", "addr:street_address": "12675 LA MIRADA BLVD", "amenity": "post_box", "collection_times": "Mo-Sa 10:00", "nsi_id": "unitedstatespostalservice-a77078", "operator": "United States Postal Service", "operator:short": "USPS", "operator:type": "public", "operator:wikidata": "Q668687", "ref": "9063800015"}, "type": "Feature"}
{"geometry": {"coordinates": [-117.991037, 33.90674], "type": "Point"}, "id": "VgmbZTedzvB3xU3Kh8uHdsXSoII=", "properties": {"@source_uri": "https://tools.usps.com/UspsToolsRestServices/rest/POLocator/findLocations", "@spider": "usps_collection_boxes", "addr:city": "LA MIRADA", "addr:country": "US", "addr:postcode": "90638", "addr:state": "CA", "addr:street_address": "13710 AVENIDA SANTA TECLA", "amenity": "post_box", "collection_times": "Mo-Sa 10:00", "nsi_id": "unitedstatespostalservice-a77078", "operator": "United States Postal Service", "operator:short": "USPS", "operator:type": "public", "operator:wikidata": "Q668687", "ref": "9063800016"}, "type": "Feature"}
{"geometry": {"coordinates": [-118.010309, 33.905979], "type": "Point"}, "id": "W_yk2SlNxIfnl_zoO_6tUfcot60=", "properties": {"@source_uri": "https://tools.usps.com/UspsToolsRestServices/rest/POLocator/findLocations", "@spider": "usps_collection_boxes", "addr:city": "LA MIRADA", "addr:country": "US", "addr:postcode": "90638", "addr:state": "CA", "addr:street_address": "13710 LA MIRADA BLVD", "amenity": "post_box", "collection_times": "Mo-Sa 10:00", "nsi_id": "unitedstatespostalservice-a77078", "operator": "United States Postal Service", "operator:short": "USPS", "operator:type": "public", "operator:wikidata": "Q668687", "ref": "9063800020"}, "type": "Feature"}
{"geometry": {"coordinates": [-118.010992, 33.915981], "type": "Point"}, "id": "6718z_ks_eYxisVnfsvJljLEecY=", "properties": {"@source_uri": "https://tools.usps.com/UspsToolsRestServices/rest/POLocator/findLocations", "@spider": "usps_collection_boxes", "addr:city": "LA MIRADA", "addr:country": "US", "addr:postcode": "90638", "addr:state": "CA", "addr:street_address": "12764 LA MIRADA BLVD", "amenity": "post_box", "collection_times": "Mo-Sa 10:00", "nsi_id": "unitedstatespostalservice-a77078", "operator": "United States Postal Service", "operator:short": "USPS", "operator:type": "public", "operator:wikidata": "Q668687", "ref": "9063800021"}, "type": "Feature"}
{"geometry": {"coordinates": [-118.029445, 33.916187], "type": "Point"}, "id": "W7kCU1U2A5jtC3Gy8G2Vcy5kD4w=", "properties": {"@source_uri": "https://tools.usps.com/UspsToolsRestServices/rest/POLocator/findLocations", "@spider": "usps_collection_boxes", "addr:city": "LA MIRADA", "addr:country": "US", "addr:postcode": "90638", "addr:state": "CA", "addr:street_address": "12721 VALLEY VIEW AVE", "amenity": "post_box", "collection_times": "Mo-Sa 10:00", "nsi_id": "unitedstatespostalservice-a77078", "operator": "United States Postal Service", "operator:short": "USPS", "operator:type": "public", "operator:wikidata": "Q668687", "ref": "9063800034"}, "type": "Feature"}
{"geometry": {"coordinates": [-118.009386, 33.897863], "type": "Point"}, "id": "1EQlOtyZiq7uK1V0Lsf5OEzBZGI=", "properties": {"@source_uri": "https://tools.usps.com/UspsToolsRestServices/rest/POLocator/findLocations", "@spider": "usps_collection_boxes", "addr:city": "LA MIRADA", "addr:country": "US", "addr:postcode": "90638", "addr:state": "CA", "addr:street_address": "15056 ROSECRANS AVE", "amenity": "post_box", "collection_times": "Mo-Sa 10:00", "nsi_id": "unitedstatespostalservice-a77078", "operator": "United States Postal Service", "operator:short": "USPS", "operator:type": "public", "operator:wikidata": "Q668687", "ref": "9063800037"}, "type": "Feature"}
{"geometry": {"coordinates": [-117.986143, 33.897681], "type": "Point"}, "id": "BffKkrq66VjAp9BZHYu0AFKDyLA=", "properties": {"@source_uri": "https://tools.usps.com/UspsToolsRestServices/rest/POLocator/findLocations", "@spider": "usps_collection_boxes", "addr:city": "LA MIRADA", "addr:country": "US", "addr:postcode": "90638", "addr:state": "CA", "addr:street_address": "14742 BEACH BLVD", "amenity": "post_box", "collection_times": "Mo-Sa 10:00", "nsi_id": "unitedstatespostalservice-a77078", "operator": "United States Postal Service", "operator:short": "USPS", "operator:type": "public", "operator:wikidata": "Q668687", "ref": "9063800039"}, "type": "Feature"}
{"geometry": {"coordinates": [-118.0032260789, 33.8954440791], "type": "Point"}, "id": "fZ20sgu3nsLpf2R-IKXJ9KqozMI=", "properties": {"@source_uri": "https://tools.usps.com/UspsToolsRestServices/rest/POLocator/findLocations", "@spider": "usps_collection_boxes", "addr:city": "LA MIRADA", "addr:country": "US", "addr:postcode": "90638", "addr:state": "CA", "addr:street_address": "14901 ADELFA DR", "amenity": "post_box", "collection_times": "Mo-Fr 17:30; Sa 17:00", "note": "ON 12/24 AND 12/31, THIS BOX MAY BE COLLECTED AS EARLY AS 12 NOON.", "nsi_id": "unitedstatespostalservice-a77078", "operator": "United States Postal Service", "operator:short": "USPS", "operator:type": "public", "operator:wikidata": "Q668687", "ref": "9063800053"}, "type": "Feature"}
{"geometry": {"coordinates": [-118.028018, 33.87942], "type": "Point"}, "id": "WIqkVbXWDChJu2tnJmW08v7Ee8A=", "properties": {"@source_uri": "https://tools.usps.com/UspsToolsRestServices/rest/POLocator/findLocations", "@spider": "usps_collection_boxes", "addr:city": "LA MIRADA", "addr:country": "US", "addr:postcode": "90638", "addr:state": "CA", "addr:street_address": "16700 VALLEY VIEW AVE", "amenity": "post_box", "collection_times": "Mo-Sa 10:00", "nsi_id": "unitedstatespostalservice-a77078", "operator": "United States Postal Service", "operator:short": "USPS", "operator:type": "public", "operator:wikidata": "Q668687", "ref": "9063800054"}, "type": "Feature"}
{"geometry": {"coordinates": [-118.009885, 33.92018], "type": "Point"}, "id": "-GSQiae4Kt0ZW_1K7-vdTi6R4yE=", "properties": {"@source_uri": "https://tools.usps.com/UspsToolsRestServices/rest/POLocator/findLocations", "@spider": "usps_collection_boxes", "addr:city": "LA MIRADA", "addr:country": "US", "addr:postcode": "90638", "addr:state": "CA", "addr:street_address": "14901 ADELFA DR LOBBY", "amenity": "post_box", "collection_times": "Mo-Fr 17:30; Sa 17:00", "indoor": "yes", "note": "ON 12/24 AND 12/31, THIS BOX MAY BE COLLECTED AS EARLY AS 12 NOON.", "nsi_id": "unitedstatespostalservice-a77078", "operator": "United States Postal Service", "operator:short": "USPS", "operator:type": "public", "operator:wikidata": "Q668687", "ref": "9063800056"}, "type": "Feature"}
{"geometry": {"coordinates": [-118.009885, 33.92018], "type": "Point"}, "id": "0ldVrvdZ9BYDtHvzsIhCMgYtU6E=", "properties": {"@source_uri": "https://tools.usps.com/UspsToolsRestServices/rest/POLocator/findLocations", "@spider": "usps_collection_boxes", "addr:city": "LA MIRADA", "addr:country": "US", "addr:postcode": "90638", "addr:state": "CA", "addr:street_address": "14901 ADELFA DR LOBBY", "amenity": "post_box", "collection_times": "Mo-Fr 17:30; Sa 17:00", "name": "USPS COLLECTION BOX - APC", "note": "ON 12/24 AND 12/31, THIS BOX MAY BE COLLECTED AS EARLY AS 12 NOON.", "nsi_id": "unitedstatespostalservice-a77078", "operator": "United States Postal Service", "operator:short": "USPS", "operator:type": "public", "operator:wikidata": "Q668687", "ref": "9063800061"}, "type": "Feature"}
{"geometry": {"coordinates": [-118.0032260789, 33.8954440791], "type": "Point"}, "id": "D9h35rtuRIFwM7fPtl40-aZHv-0=", "properties": {"@source_uri": "https://tools.usps.com/UspsToolsRestServices/rest/POLocator/findLocations", "@spider": "usps_collection_boxes", "addr:city": "LA MIRADA", "addr:country": "US", "addr:postcode": "90638", "addr:state": "CA", "addr:street_address": "14901 ADELFA DR", "amenity": "post_box", "collection_times": "Mo-Fr 17:30; Sa 12:00", "indoor": "yes", "note": "ON 12/24 AND 12/31, THIS BOX MAY BE COLLECTED AS EARLY AS 12 NOON.", "nsi_id": "unitedstatespostalservice-a77078", "operator": "United States Postal Service", "operator:short": "USPS", "operator:type": "public", "operator:wikidata": "Q668687", "ref": "9063800071"}, "type": "Feature"}
{"geometry": {"coordinates": [-118.101811, 34.015913], "type": "Point"}, "id": "OIHsybEq_VA09geaCQLXAT6quK4=", "properties": {"@source_uri": "https://tools.usps.com/UspsToolsRestServices/rest/POLocator/findLocations", "@spider": "usps_collection_boxes", "addr:city": "MONTEBELLO", "addr:country": "US", "addr:postcode": "90640", "addr:state": "CA", "addr:street_address": "433 N 4TH ST", "amenity": "post_box", "collection_times": "Mo-Sa 10:00", "nsi_id": "unitedstatespostalservice-a77078", "operator": "United States Postal Service", "operator:short": "USPS", "operator:type": "public", "operator:wikidata": "Q668687", "ref": "9064000004"}, "type": "Feature"}
{"geometry": {"coordinates": [-118.104913, 34.016813], "type": "Point"}, "id": "AdBqVlbmq3rQwBfhKyyW1-CHf3k=", "properties": {"@source_uri": "https://tools.usps.com/UspsToolsRestServices/rest/POLocator/findLocations", "@spider": "usps_collection_boxes", "addr:city": "MONTEBELLO", "addr:country": "US", "addr:postcode": "90640", "addr:state": "CA", "addr:street_address": "621 W BEVERLY BLVD", "amenity": "post_box", "collection_times": "Mo-Sa 10:00", "nsi_id": "unitedstatespostalservice-a77078", "operator": "United States Postal Service", "operator:short": "USPS", "operator:type": "public", "operator:wikidata": "Q668687", "ref": "9064000005"}, "type": "Feature"}
{"geometry": {"coordinates": [-118.092799, 34.039976], "type": "Point"}, "id": "w1c8LqxTe6Ll1UvyBNQr_PuF7mo=", "properties": {"@source_uri": "https://tools.usps.com/UspsToolsRestServices/rest/POLocator/findLocations", "@spider": "usps_collection_boxes", "addr:city": "MONTEBELLO", "addr:country": "US", "addr:postcode": "90640", "addr:state": "CA", "addr:street_address": "1709 PARAMOUNT BLVD", "amenity": "post_box", "collection_times": "Mo-Sa 10:00", "nsi_id": "unitedstatespostalservice-a77078", "operator": "United States Postal Service", "operator:short": "USPS", "operator:type": "public", "operator:wikidata": "Q668687", "ref": "9064000006"}, "type": "Feature"}
{"geometry": {"coordinates": [-118.1098549618, 34.0144970054], "type": "Point"}, "id": "bxoHpPHjcLJozWyduBoVpyiZjTU=", "properties": {"@source_uri": "https://tools.usps.com/UspsToolsRestServices/rest/POLocator/findLocations", "@spider": "usps_collection_boxes", "addr:city": "MONTEBELLO", "addr:country": "US", "addr:postcode": "90640", "addr:state": "CA", "addr:street_address": "1000 W MADISON AVE", "amenity": "post_box", "collection_times": "Mo-Sa 15:00", "note": "ON 12/24 AND 12/31, THIS BOX MAY BE COLLECTED AS EARLY AS 12 NOON.", "nsi_id": "unitedstatespostalservice-a77078", "operator": "United States Postal Service", "operator:short": "USPS", "operator:type": "public", "operator:wikidata": "Q668687", "ref": "9064000020"}, "type": "Feature"}
{"geometry": {"coordinates": [-118.107298, 34.00998], "type": "Point"}, "id": "G62Z6A8gj7Yk8f4fjHGO8iCbscw=", "properties": {"@source_uri": "https://tools.usps.com/UspsToolsRestServices/rest/POLocator/findLocations", "@spider": "usps_collection_boxes", "addr:city": "MONTEBELLO", "addr:country": "US", "addr:postcode": "90640", "addr:state": "CA", "addr:street_address": "700 W WHITTIER BLVD", "amenity": "post_box", "collection_times": "Mo-Sa 10:00", "nsi_id": "unitedstatespostalservice-a77078", "operator": "United States Postal Service", "operator:short": "USPS", "operator:type": "public", "operator:wikidata": "Q668687", "ref": "9064000042"}, "type": "Feature"}
{"geometry": {"coordinates": [-118.089746, 34.024477], "type": "Point"}, "id": "NmTF2xLKl_O9WubJ0hoEo1EZnUk=", "properties": {"@source_uri": "https://tools.usps.com/UspsToolsRestServices/rest/POLocator/findLocations", "@spider": "usps_collection_boxes", "addr:city": "MONTEBELLO", "addr:country": "US", "addr:postcode": "90640", "addr:state": "CA", "addr:street_address": "500 E AZALEA DR", "amenity": "post_box", "collection_times": "Mo-Sa 10:00", "nsi_id": "unitedstatespostalservice-a77078", "operator": "United States Postal Service", "operator:short": "USPS", "operator:type": "public", "operator:wikidata": "Q668687", "ref": "9064000046"}, "type": "Feature"}
{"geometry": {"coordinates": [-118.0981497685, 34.0154640195], "type": "Point"}, "id": "C9fObdPuogAHIrExX1aT6ID6GmU=", "properties": {"@source_uri": "https://tools.usps.com/UspsToolsRestServices/rest/POLocator/findLocations", "@spider": "usps_collection_boxes", "addr:city": "MONTEBELLO", "addr:country": "US", "addr:postcode": "90640", "addr:state": "CA", "addr:street_address": "105 E BEVERLY BLVD", "amenity": "post_box", "collection_times": "Mo-Sa 10:00", "nsi_id": "unitedstatespostalservice-a77078", "operator": "United States Postal Service", "operator:short": "USPS", "operator:type": "public", "operator:wikidata": "Q668687", "ref": "9064000050"}, "type": "Feature"}
{"geometry": {"coordinates": [-118.117635, 34.024297], "type": "Point"}, "id": "Cth1XRQA_Wj2rqA_Oh7FLUH-Uzo=", "properties": {"@source_uri": "https://tools.usps.com/UspsToolsRestServices/rest/POLocator/findLocations", "@spider": "usps_collection_boxes", "addr:city": "MONTEBELLO", "addr:country": "US", "addr:postcode": "90640", "addr:state": "CA", "addr:street_address": "1818 GERMAIN DR", "amenity": "post_box", "collection_times": "Mo-Sa 10:00", "nsi_id": "unitedstatespostalservice-a77078", "operator": "United States Postal Service", "operator:short": "USPS", "operator:type": "public", "operator:wikidata": "Q668687", "ref": "9064000051"}, "type": "Feature"}
{"geometry": {"coordinates": [-118.114194, 34.018811], "type": "Point"}, "id": "GXvGD9jWH-CKyeW_8AUlQfz2GWE=", "properties": {"@source_uri": "https://tools.usps.com/UspsToolsRestServices/rest/POLocator/findLocations", "@spider": "usps_collection_boxes", "addr:city": "MONTEBELLO", "addr:country": "US", "addr:postcode": "90640", "addr:state": "CA", "addr:street_address": "1457 W BEVERLY BLVD", "amenity": "post_box", "collection_times": "Mo-Sa 10:00", "nsi_id": "unitedstatespostalservice-a77078", "operator": "United States Postal Service", "operator:short": "USPS", "operator:type": "public", "operator:wikidata": "Q668687", "ref": "9064000058"}, "type": "Feature"}
{"geometry": {"coordinates": [-118.085053, 34.035535], "type": "Point"}, "id": "xZ-_DEb173FcrYigsjSZr59040g=", "properties": {"@source_uri": "https://tools.usps.com/UspsToolsRestServices/rest/POLocator/findLocations", "@spider": "usps_collection_boxes", "addr:city": "MONTEBELLO", "addr:country": "US", "addr:postcode": "90640", "addr:state": "CA", "addr:street_address": "1600 MONTEBELLO TOWN CTR", "amenity": "post_box", "collection_times": "Mo-Sa 10:00", "nsi_id": "unitedstatespostalservice-a77078", "operator": "United States Postal Service", "operator:short": "USPS", "operator:type": "public", "operator:wikidata": "Q668687", "ref": "9064000060"}, "type": "Feature"}
{"geometry": {"coordinates": [-118.1236273271, 34.032740945], "type": "Point"}, "id": "5kNkzhju2GsNUBFGSaM5Ztdl0YE=", "properties": {"@source_uri": "https://tools.usps.com/UspsToolsRestServices/rest/POLocator/findLocations", "@spider": "usps_collection_boxes", "addr:city": "MONTEBELLO", "addr:country": "US", "addr:postcode": "90640", "addr:state": "CA", "addr:street_address": "2547 VIA CAMPO", "amenity": "post_box", "collection_times": "Mo-Fr 15:45", "note": "ON 12/24 AND 12/31, THIS BOX MAY BE COLLECTED AS EARLY AS 12 NOON.", "nsi_id": "unitedstatespostalservice-a77078", "operator": "United States Postal Service", "operator:short": "USPS", "operator:type": "public", "operator:wikidata": "Q668687", "ref": "9064000061"}, "type": "Feature"}
{"geometry": {"coordinates": [-118.1049229661, 34.0109509993], "type": "Point"}, "id": "-KyykBYCWgypaCwuozkCQA2pMn0=", "properties": {"@source_uri": "https://tools.usps.com/UspsToolsRestServices/rest/POLocator/findLocations", "@spider": "usps_collection_boxes", "addr:city": "MONTEBELLO", "addr:country": "US", "addr:postcode": "90640", "addr:state": "CA", "addr:street_address": "145 N 5TH ST LOBBY", "amenity": "post_box", "collection_times": "Mo-Fr 17:45; Sa 15:30", "indoor": "yes", "note": "ON 12/24 AND 12/31, THIS BOX MAY BE COLLECTED AS EARLY AS 12 NOON.", "nsi_id": "unitedstatespostalservice-a77078", "operator": "United States Postal Service", "operator:short": "USPS", "operator:type": "public", "operator:wikidata": "Q668687", "ref": "9064000064"}, "type": "Feature"}
{"geometry": {"coordinates": [-118.1046153113, 34.010764287], "type": "Point"}, "id": "KGNkcWnOkoSHqZ-QwLOV_fHqidQ=", "properties": {"@source_uri": "https://tools.usps.com/UspsToolsRestServices/rest/POLocator/findLocations", "@spider": "usps_collection_boxes", "addr:city": "MONTEBELLO", "addr:country": "US", "addr:postcode": "90640", "addr:state": "CA", "addr:street_address": "145 N 5TH ST", "amenity": "post_box", "collection_times": "Mo-Fr 17:00; Sa 15:30", "note": "ON 12/24 AND 12/31, THIS BOX MAY BE COLLECTED AS EARLY AS 12 NOON.", "nsi_id": "unitedstatespostalservice-a77078", "operator": "United States Postal Service", "operator:short": "USPS", "operator:type": "public", "operator:wikidata": "Q668687", "ref": "9064000072"}, "type": "Feature"}
{"geometry": {"coordinates": [-118.106048, 34.015925], "type": "Point"}, "id": "ADtdB0ir9xrOCPOYRtDcChgxezE=", "properties": {"@source_uri": "https://tools.usps.com/UspsToolsRestServices/rest/POLocator/findLocations", "@spider": "usps_collection_boxes", "addr:city": "MONTEBELLO", "addr:country": "US", "addr:postcode": "90640", "addr:state": "CA", "addr:street_address": "400 N MONTEBELLO BLVD", "amenity": "post_box", "collection_times": "Mo-Sa 10:00", "nsi_id": "unitedstatespostalservice-a77078", "operator": "United States Postal Service", "operator:short": "USPS", "operator:type": "public", "operator:wikidata": "Q668687", "ref": "9064000076"}, "type": "Feature"}
{"geometry": {"coordinates": [-118.127862, 34.014144], "type": "Point"}, "id": "6pdU2PLF8shdL162n425lDhNAp8=", "properties": {"@source_uri": "https://tools.usps.com/UspsToolsRestServices/rest/POLocator/findLocations", "@spider": "usps_collection_boxes", "addr:city": "MONTEBELLO", "addr:country": "US", "addr:postcode": "90640", "addr:state": "CA", "addr:street_address": "2417 W WHITTIER BLVD", "amenity": "post_box", "collection_times": "Mo-Sa 10:00", "nsi_id": "unitedstatespostalservice-a77078", "operator": "United States Postal Service", "operator:short": "USPS", "operator:type": "public", "operator:wikidata": "Q668687", "ref": "9064000080"}, "type": "Feature"}
{"geometry": {"coordinates": [-118.120875, 34.008198], "type": "Point"}, "id": "nKNtlSsOSJ80vumOe40ILJXguF8=", "properties": {"@source_uri": "https://tools.usps.com/UspsToolsRestServices/rest/POLocator/findLocations", "@spider": "usps_collection_boxes", "addr:city": "MONTEBELLO", "addr:country": "US", "addr:postcode": "90640", "addr:state": "CA", "addr:street_address": "480 S VAIL AVE", "amenity": "post_box", "collection_times": "Mo-Sa 10:00", "nsi_id": "unitedstatespostalservice-a77078", "operator": "United States Postal Service", "operator:short": "USPS", "operator:type": "public", "operator:wikidata": "Q668687", "ref": "9064000082"}, "type": "Feature"}
{"geometry": {"coordinates": [-118.121607, 34.020377], "type": "Point"}, "id": "LC4jMiGUSfMyyCfy7gIYg7adPQ0=", "properties": {"@source_uri": "https://tools.usps.com/UspsToolsRestServices/rest/POLocator/findLocations", "@spider": "usps_collection_boxes", "addr:city": "MONTEBELLO", "addr:country": "US", "addr:postcode": "90640", "addr:state": "CA", "addr:street_address": "2101 W BEVERLY BLVD", "amenity": "post_box", "collection_times": "Mo-Sa 10:00", "nsi_id": "unitedstatespostalservice-a77078", "operator": "United States Postal Service", "operator:short": "USPS", "operator:type": "public", "operator:wikidata": "Q668687", "ref": "9064000083"}, "type": "Feature"}
{"geometry": {"coordinates": [-118.11552, 34.0203], "type": "Point"}, "id": "8xYE92fBuTvBEAilYdOdDjITW0Q=", "properties": {"@source_uri": "https://tools.usps.com/UspsToolsRestServices/rest/POLocator/findLocations", "@spider": "usps_collection_boxes", "addr:city": "MONTEBELLO", "addr:country": "US", "addr:postcode": "90640", "addr:state": "CA", "addr:street_address": "1550 W BEVERLY BLVD", "amenity": "post_box", "collection_times": "Mo-Sa 10:00", "nsi_id": "unitedstatespostalservice-a77078", "operator": "United States Postal Service", "operator:short": "USPS", "operator:type": "public", "operator:wikidata": "Q668687", "ref": "9064000084"}, "type": "Feature"}
{"geometry": {"coordinates": [-118.105883, 34.01995], "type": "Point"}, "id": "Z4WQJ3N6UUkj3Tenh-CjXCGkADE=", "properties": {"@source_uri": "https://tools.usps.com/UspsToolsRestServices/rest/POLocator/findLocations", "@spider": "usps_collection_boxes", "addr:city": "MONTEBELLO", "addr:country": "US", "addr:postcode": "90640", "addr:state": "CA", "addr:street_address": "802 W BEVERLY BLVD", "amenity": "post_box", "collection_times": "Mo-Sa 10:00", "nsi_id": "unitedstatespostalservice-a77078", "operator": "United States Postal Service", "operator:short": "USPS", "operator:type": "public", "operator:wikidata": "Q668687", "ref": "9064000085"}, "type": "Feature"}
{"geometry": {"coordinates": [-118.124444, 33.976904], "type": "Point"}, "id": "L18lrb5Is1q0vMKtbLJdjLub8IY=", "properties": {"@source_uri": "https://tools.usps.com/UspsToolsRestServices/rest/POLocator/findLocations", "@spider": "usps_collection_boxes", "addr:city": "MONTEBELLO", "addr:country": "US", "addr:postcode": "90640", "addr:state": "CA", "addr:street_address": "7709 TELEGRAPH RD", "amenity": "post_box", "collection_times": "Mo-Sa 10:00", "nsi_id": "unitedstatespostalservice-a77078", "operator": "United States Postal Service", "operator:short": "USPS", "operator:type": "public", "operator:wikidata": "Q668687", "ref": "9064000087"}, "type": "Feature"}
{"geometry": {"coordinates": [-118.1049229661, 34.0109509993], "type": "Point"}, "id": "aOEuWCfk7BXgnsaL22fwzfUnhF4=", "properties": {"@source_uri": "https://tools.usps.com/UspsToolsRestServices/rest/POLocator/findLocations", "@spider": "usps_collection_boxes", "addr:city": "MONTEBELLO", "addr:country": "US", "addr:postcode": "90640", "addr:state": "CA", "addr:street_address": "145 N 5TH ST LOBBY", "amenity": "post_box", "collection_times": "Mo-Fr 17:45; Sa 15:30", "indoor": "yes", "note": "ON 12/24 AND 12/31, THIS BOX MAY BE COLLECTED AS EARLY AS 12 NOON.", "nsi_id": "unitedstatespostalservice-a77078", "operator": "United States Postal Service", "operator:short": "USPS", "operator:type": "public", "operator:wikidata": "Q668687", "ref": "9064000089"}, "type": "Feature"}
{"geometry": {"coordinates": [-118.123178, 34.013103], "type": "Point"}, "id": "bmOvfVwTvGs1rF__-Z4svGPF_Ew=", "properties": {"@source_uri": "https://tools.usps.com/UspsToolsRestServices/rest/POLocator/findLocations", "@spider": "usps_collection_boxes", "addr:city": "MONTEBELLO", "addr:country": "US", "addr:postcode": "90640", "addr:state": "CA", "addr:street_address": "2051 W WHITTIER BLVD", "amenity": "post_box", "collection_times": "Mo-Sa 10:00", "nsi_id": "unitedstatespostalservice-a77078", "operator": "United States Postal Service", "operator:short": "USPS", "operator:type": "public", "operator:wikidata": "Q668687", "ref": "9064000091"}, "type": "Feature"}
{"geometry": {"coordinates": [-118.1046153113, 34.010764287], "type": "Point"}, "id": "91DUaBZURZwMJfdmUvPx358HyBc=", "properties": {"@source_uri": "https://tools.usps.com/UspsToolsRestServices/rest/POLocator/findLocations", "@spider": "usps_collection_boxes", "addr:city": "MONTEBELLO", "addr:country": "US", "addr:postcode": "90640", "addr:state": "CA", "addr:street_address": "145 N 5TH ST", "amenity": "post_box", "collection_times": "Mo-Fr 18:00; Sa 15:00", "indoor": "yes", "note": "ON 12/24 AND 12/31, THIS BOX MAY BE COLLECTED AS EARLY AS 12 NOON.", "nsi_id": "unitedstatespostalservice-a77078", "operator": "United States Postal Service", "operator:short": "USPS", "operator:type": "public", "operator:wikidata": "Q668687", "ref": "9064000103"}, "type": "Feature"}
{"geometry": {"coordinates": [-118.1236273271, 34.032740945], "type": "Point"}, "id": "EXQ7PVIiirKt8FHqKP68jrQSsAc=", "properties": {"@source_uri": "https://tools.usps.com/UspsToolsRestServices/rest/POLocator/findLocations", "@spider": "usps_collection_boxes", "addr:city": "MONTEBELLO", "addr:country": "US", "addr:postcode": "90640", "addr:state": "CA", "addr:street_address": "2547 VIA CAMPO", "amenity": "post_box", "collection_times": "Mo-Fr 16:30", "indoor": "yes", "note": "ON 12/24 AND 12/31, THIS BOX MAY BE COLLECTED AS EARLY AS 12 NOON.", "nsi_id": "unitedstatespostalservice-a77078", "operator": "United States Postal Service", "operator:short": "USPS", "operator:type": "public", "operator:wikidata": "Q668687", "ref": "9064000104"}, "type": "Feature"}
{"geometry": {"coordinates": [-118.071387, 33.915316], "type": "Point"}, "id": "5RTXxNwtyPj8PnCy0JEAZeYELbE=", "properties": {"@source_uri": "https://tools.usps.com/UspsToolsRestServices/rest/POLocator/findLocations", "@spider": "usps_collection_boxes", "addr:city": "NORWALK", "addr:country": "US", "addr:postcode": "90650", "addr:state": "CA", "addr:street_address": "12700 NORWALK BLVD", "amenity": "post_box", "collection_times": "Mo-Fr 10:00", "nsi_id": "unitedstatespostalservice-a77078", "operator": "United States Postal Service", "operator:short": "USPS", "operator:type": "public", "operator:wikidata": "Q668687", "ref": "9065000002"}, "type": "Feature"}
{"geometry": {"coordinates": [-118.0788454, 33.9056604], "type": "Point"}, "id": "HfsWDpv4hYgZOs4GS9O47TK2oTM=", "properties": {"@source_uri": "https://tools.usps.com/UspsToolsRestServices/rest/POLocator/findLocations", "@spider": "usps_collection_boxes", "addr:city": "NORWALK", "addr:country": "US", "addr:postcode": "90650", "addr:state": "CA", "addr:street_address": "14011 CLARKDALE AVE LOBBY", "amenity": "post_box", "collection_times": "Mo-Fr 17:20; Sa 16:45", "note": "ON 12/24 AND 12/31, THIS BOX MAY BE COLLECTED AS EARLY AS 12 NOON.", "nsi_id": "unitedstatespostalservice-a77078", "operator": "United States Postal Service", "operator:short": "USPS", "operator:type": "public", "operator:wikidata": "Q668687", "ref": "9065000004"}, "type": "Feature"}
{"geometry": {"coordinates": [-118.081632, 33.887777], "type": "Point"}, "id": "KX_hxtqSYB3tMS53qch8XKIdZwM=", "properties": {"@source_uri": "https://tools.usps.com/UspsToolsRestServices/rest/POLocator/findLocations", "@spider": "usps_collection_boxes", "addr:city": "NORWALK", "addr:country": "US", "addr:postcode": "90650", "addr:state": "CA", "addr:street_address": "11829 ALONDRA BLVD", "amenity": "post_box", "collection_times": "Mo-Sa 10:00", "nsi_id": "unitedstatespostalservice-a77078", "operator": "United States Postal Service", "operator:short": "USPS", "operator:type": "public", "operator:wikidata": "Q668687", "ref": "9065000014"}, "type": "Feature"}
{"geometry": {"coordinates": [-118.058774, 33.88797], "type": "Point"}, "id": "T-LM4lFUCeBiAEJ5Y1E2Y4gA3Ls=", "properties": {"@source_uri": "https://tools.usps.com/UspsToolsRestServices/rest/POLocator/findLocations", "@spider": "usps_collection_boxes", "addr:city": "NORWALK", "addr:country": "US", "addr:postcode": "90650", "addr:state": "CA", "addr:street_address": "12825 ALONDRA BLVD", "amenity": "post_box", "collection_times": "Mo-Sa 10:00", "nsi_id": "unitedstatespostalservice-a77078", "operator": "United States Postal Service", "operator:short": "USPS", "operator:type": "public", "operator:wikidata": "Q668687", "ref": "9065000016"}, "type": "Feature"}
{"geometry": {"coordinates": [-118.067754, 33.916481], "type": "Point"}, "id": "cax4JdGxD4lrv5_-tmFeE6PSvlU=", "properties": {"@source_uri": "https://tools.usps.com/UspsToolsRestServices/rest/POLocator/findLocations", "@spider": "usps_collection_boxes", "addr:city": "NORWALK", "addr:country": "US", "addr:postcode": "90650", "addr:state": "CA", "addr:street_address": "12400 IMPERIAL HWY", "amenity": "post_box", "collection_times": "Mo-Fr 10:00", "nsi_id": "unitedstatespostalservice-a77078", "operator": "United States Postal Service", "operator:short": "USPS", "operator:type": "public", "operator:wikidata": "Q668687", "ref": "9065000031"}, "type": "Feature"}
{"geometry": {"coordinates": [-118.0788454, 33.9056604], "type": "Point"}, "id": "2vcMDWUgT5adisJC6tKKhcGJ6Pw=", "properties": {"@source_uri": "https://tools.usps.com/UspsToolsRestServices/rest/POLocator/findLocations", "@spider": "usps_collection_boxes", "addr:city": "NORWALK", "addr:country": "US", "addr:postcode": "90650", "addr:state": "CA", "addr:street_address": "12845 REXTON ST", "amenity": "post_box", "collection_times": "Mo-Sa 10:00", "nsi_id": "unitedstatespostalservice-a77078", "operator": "United States Postal Service", "operator:short": "USPS", "operator:type": "public", "operator:wikidata": "Q668687", "ref": "9065000033"}, "type": "Feature"}
{"geometry": {"coordinates": [-118.0727523324, 33.918373934], "type": "Point"}, "id": "6lGixRavGg92N4V5m38axJOuVFo=", "properties": {"@source_uri": "https://tools.usps.com/UspsToolsRestServices/rest/POLocator/findLocations", "@spider": "usps_collection_boxes", "addr:city": "NORWALK", "addr:country": "US", "addr:postcode": "90650", "addr:state": "CA", "addr:street_address": "12415 NORWALK BLVD", "amenity": "post_box", "collection_times": "Mo-Fr 10:00", "name": "USPS COLLECTION BOX - EXPRESS", "nsi_id": "unitedstatespostalservice-a77078", "operator": "United States Postal Service", "operator:short": "USPS", "operator:type": "public", "operator:wikidata": "Q668687", "ref": "9065000043"}, "type": "Feature"}
{"geometry": {"coordinates": [-118.072693562, 33.914915162], "type": "Point"}, "id": "CqWG1ZGqREtgqS_O7d4eGSFrBG8=", "properties": {"@source_uri": "https://tools.usps.com/UspsToolsRestServices/rest/POLocator/findLocations", "@spider": "usps_collection_boxes", "addr:city": "NORWALK", "addr:country": "US", "addr:postcode": "90650", "addr:state": "CA", "addr:street_address": "12727 NORWALK BLVD", "amenity": "post_box", "collection_times": "Mo-Fr 10:00", "nsi_id": "unitedstatespostalservice-a77078", "operator": "United States Postal Service", "operator:short": "USPS", "operator:type": "public", "operator:wikidata": "Q668687", "ref": "9065000044"}, "type": "Feature"}
{"geometry": {"coordinates": [-118.0875118371, 33.8837059262], "type": "Point"}, "id": "09KDixHJL1WysaZvAt1O9lq65rY=", "properties": {"@source_uri": "https://tools.usps.com/UspsToolsRestServices/rest/POLocator/findLocations", "@spider": "usps_collection_boxes", "addr:city": "NORWALK", "addr:country": "US", "addr:postcode": "90650", "addr:state": "CA", "addr:street_address": "11559 ELMHURST DR", "amenity": "post_box", "collection_times": "Mo-Sa 10:00", "nsi_id": "unitedstatespostalservice-a77078", "operator": "United States Postal Service", "operator:short": "USPS", "operator:type": "public", "operator:wikidata": "Q668687", "ref": "9065000060"}, "type": "Feature"}
{"geometry": {"coordinates": [-118.092751, 33.918145], "type": "Point"}, "id": "stzbdE7mBuEqww6hicr-ry4fCOw=", "properties": {"@source_uri": "https://tools.usps.com/UspsToolsRestServices/rest/POLocator/findLocations", "@spider": "usps_collection_boxes", "addr:city": "NORWALK", "addr:country": "US", "addr:postcode": "90650", "addr:state": "CA", "addr:street_address": "11300 FIRESTONE BLVD", "amenity": "post_box", "collection_times": "Mo-Sa 10:00", "nsi_id": "unitedstatespostalservice-a77078", "operator": "United States Postal Service", "operator:short": "USPS", "operator:type": "public", "operator:wikidata": "Q668687", "ref": "9065000065"}, "type": "Feature"}
{"geometry": {"coordinates": [-118.094842, 33.931922], "type": "Point"}, "id": "y4enGrJOFeZti8b-HP_0eoP45Vk=", "properties": {"@source_uri": "https://tools.usps.com/UspsToolsRestServices/rest/POLocator/findLocations", "@spider": "usps_collection_boxes", "addr:city": "NORWALK", "addr:country": "US", "addr:postcode": "90650", "addr:state": "CA", "addr:street_address": "11202 CECILIA ST", "amenity": "post_box", "collection_times": "Mo-Sa 10:00", "nsi_id": "unitedstatespostalservice-a77078", "operator": "United States Postal Service", "operator:short": "USPS", "operator:type": "public", "operator:wikidata": "Q668687", "ref": "9065000084"}, "type": "Feature"}
{"geometry": {"coordinates": [-118.105496, 33.891247], "type": "Point"}, "id": "ivJG2lTPyBz5zkiyF969JcrvYAM=", "properties": {"@source_uri": "https://tools.usps.com/UspsToolsRestServices/rest/POLocator/findLocations", "@spider": "usps_collection_boxes", "addr:city": "NORWALK", "addr:country": "US", "addr:postcode": "90650", "addr:state": "CA", "addr:street_address": "15330 PIUMA AVE", "amenity": "post_box", "collection_times": "Mo-Sa 10:00", "nsi_id": "unitedstatespostalservice-a77078", "operator": "United States Postal Service", "operator:short": "USPS", "operator:type": "public", "operator:wikidata": "Q668687", "ref": "9065000086"}, "type": "Feature"}
{"geometry": {"coordinates": [-118.099419, 33.923422], "type": "Point"}, "id": "fWhp4UVqCIeLyOot0WqmY3KiQ2Q=", "properties": {"@source_uri": "https://tools.usps.com/UspsToolsRestServices/rest/POLocator/findLocations", "@spider": "usps_collection_boxes", "addr:city": "NORWALK", "addr:country": "US", "addr:postcode": "90650", "addr:state": "CA", "addr:street_address": "10929 FIRESTONE BLVD", "amenity": "post_box", "collection_times": "Mo-Sa 10:00", "nsi_id": "unitedstatespostalservice-a77078", "operator": "United States Postal Service", "operator:short": "USPS", "operator:type": "public", "operator:wikidata": "Q668687", "ref": "9065000096"}, "type": "Feature"}
{"geometry": {"coordinates": [-118.0788454, 33.9056604], "type": "Point"}, "id": "d0f1q2gY0NU4oOMmiOBt3zd5N08=", "properties": {"@source_uri": "https://tools.usps.com/UspsToolsRestServices/rest/POLocator/findLocations", "@spider": "usps_collection_boxes", "addr:city": "NORWALK", "addr:country": "US", "addr:postcode": "90650", "addr:state": "CA", "addr:street_address": "11018 ROSECRANS AVE", "amenity": "post_box", "collection_times": "Mo-Sa 10:00", "nsi_id": "unitedstatespostalservice-a77078", "operator": "United States Postal Service", "operator:short": "USPS", "operator:type": "public", "operator:wikidata": "Q668687", "ref": "9065000102"}, "type": "Feature"}
{"geometry": {"coordinates": [-118.091453, 33.902027], "type": "Point"}, "id": "kC1OX__E2FzadqaWKtpZpv43gUs=", "properties": {"@source_uri": "https://tools.usps.com/UspsToolsRestServices/rest/POLocator/findLocations", "@spider": "usps_collection_boxes", "addr:city": "NORWALK", "addr:country": "US", "addr:postcode": "90650", "addr:state": "CA", "addr:street_address": "11360 ROSECRANS AVE", "amenity": "post_box", "collection_times": "Mo-Sa 10:00", "nsi_id": "unitedstatespostalservice-a77078", "operator": "United States Postal Service", "operator:short": "USPS", "operator:type": "public", "operator:wikidata": "Q668687", "ref": "9065000103"}, "type": "Feature"}
{"geometry": {"coordinates": [-118.046663296, 33.8982182652], "type": "Point"}, "id": "Uv-zF4y-LJapzCJaCzQdWlU9r5w=", "properties": {"@source_uri": "https://tools.usps.com/UspsToolsRestServices/rest/POLocator/findLocations", "@spider": "usps_collection_boxes", "addr:city": "NORWALK", "addr:country": "US", "addr:postcode": "90650", "addr:state": "CA", "addr:street_address": "14635 CARMENITA RD", "amenity": "post_box", "collection_times": "Mo-Sa 10:00", "nsi_id": "unitedstatespostalservice-a77078", "operator": "United States Postal Service", "operator:short": "USPS", "operator:type": "public", "operator:wikidata": "Q668687", "ref": "9065000104"}, "type": "Feature"}
{"geometry": {"coordinates": [-118.0786499745, 33.9041140042], "type": "Point"}, "id": "zklhNyqEtigsCImx5a4MiF_YjzQ=", "properties": {"@source_uri": "https://tools.usps.com/UspsToolsRestServices/rest/POLocator/findLocations", "@spider": "usps_collection_boxes", "addr:city": "NORWALK", "addr:country": "US", "addr:postcode": "90650", "addr:state": "CA", "addr:street_address": "14011 CLARKDALE AVE LOBBY", "amenity": "post_box", "collection_times": "Mo-Fr 17:30; Sa 16:45", "indoor": "yes", "note": "ON 12/24 AND 12/31, THIS BOX MAY BE COLLECTED AS EARLY AS 12 NOON.", "nsi_id": "unitedstatespostalservice-a77078", "operator": "United States Postal Service", "operator:short": "USPS", "operator:type": "public", "operator:wikidata": "Q668687", "ref": "9065000113"}, "type": "Feature"}
{"geometry": {"coordinates": [-118.0727523324, 33.918373934], "type": "Point"}, "id": "rI_wOc3apjDpQszmLcaggCZJWek=", "properties": {"@source_uri": "https://tools.usps.com/UspsToolsRestServices/rest/POLocator/findLocations", "@spider": "usps_collection_boxes", "addr:city": "NORWALK", "addr:country": "US", "addr:postcode": "90650", "addr:state": "CA", "addr:street_address": "12415 NORWALK BLVD LOBBY", "amenity": "post_box", "collection_times": "Mo-Fr 17:00; Sa 15:30", "indoor": "yes", "note": "ON 12/24 AND 12/31, THIS BOX MAY BE COLLECTED AS EARLY AS 12 NOON.", "nsi_id": "unitedstatespostalservice-a77078", "operator": "United States Postal Service", "operator:short": "USPS", "operator:type": "public", "operator:wikidata": "Q668687", "ref": "9065000115"}, "type": "Feature"}
{"geometry": {"coordinates": [-118.0727523324, 33.918373934], "type": "Point"}, "id": "5ly9yTx5wHwhhjo9hy8qVwp2OO0=", "properties": {"@source_uri": "https://tools.usps.com/UspsToolsRestServices/rest/POLocator/findLocations", "@spider": "usps_collection_boxes", "addr:city": "NORWALK", "addr:country": "US", "addr:postcode": "90650", "addr:state": "CA", "addr:street_address": "12415 NORWALK BLVD LOBBY", "amenity": "post_box", "collection_times": "Mo-Fr 17:00", "indoor": "yes", "note": "ON 12/24 AND 12/31, THIS BOX MAY BE COLLECTED AS EARLY AS 12 NOON.", "nsi_id": "unitedstatespostalservice-a77078", "operator": "United States Postal Service", "operator:short": "USPS", "operator:type": "public", "operator:wikidata": "Q668687", "ref": "9065000129"}, "type": "Feature"}
{"geometry": {"coordinates": [-118.0786499745, 33.9041140042], "type": "Point"}, "id": "FljUOuUjKYxstEqK5_d7SGvFYXs=", "properties": {"@source_uri": "https://tools.usps.com/UspsToolsRestServices/rest/POLocator/findLocations", "@spider": "usps_collection_boxes", "addr:city": "NORWALK", "addr:country": "US", "addr:postcode": "90650", "addr:state": "CA", "addr:street_address": "14011 CLARKDALE AVE LOBBY", "amenity": "post_box", "collection_times": "Mo-Fr 17:00; Sa 15:00", "indoor": "yes", "note": "ON 12/24 AND 12/31, THIS BOX MAY BE COLLECTED AS EARLY AS 12 NOON.", "nsi_id": "unitedstatespostalservice-a77078", "operator": "United States Postal Service", "operator:short": "USPS", "operator:type": "public", "operator:wikidata": "Q668687", "ref": "9065000130"}, "type": "Feature"}
{"geometry": {"coordinates": [-118.0788454, 33.9056604], "type": "Point"}, "id": "wJ6ALfGAZpvxKYt9B-UW3W-jw1E=", "properties": {"@source_uri": "https://tools.usps.com/UspsToolsRestServices/rest/POLocator/findLocations", "@spider": "usps_collection_boxes", "addr:city": "NORWALK", "addr:country": "US", "addr:postcode": "90650", "addr:state": "CA", "addr:street_address": "14011 CLARKDALE AVE LOBBY", "amenity": "post_box", "collection_times": "Mo-Fr 17:30; Sa 16:45", "name": "USPS COLLECTION BOX - APC", "note": "ON 12/24 AND 12/31, THIS BOX MAY BE COLLECTED AS EARLY AS 12 NOON.", "nsi_id": "unitedstatespostalservice-a77078", "operator": "United States Postal Service", "operator:short": "USPS", "operator:type": "public", "operator:wikidata": "Q668687", "ref": "9065000136"}, "type": "Feature"}
{"geometry": {"coordinates": [-118.081365, 34.000305], "type": "Point"}, "id": "AM-TMelkEVNUD8SL9JGA_Zh5OT4=", "properties": {"@source_uri": "https://tools.usps.com/UspsToolsRestServices/rest/POLocator/findLocations", "@spider": "usps_collection_boxes", "addr:city": "PICO RIVERA", "addr:country": "US", "addr:postcode": "90660", "addr:state": "CA", "addr:street_address": "9160 WHITTIER BLVD", "amenity": "post_box", "collection_times": "Mo-Fr 17:00", "note": "ON 12/24 AND 12/31, THIS BOX MAY BE COLLECTED AS EARLY AS 12 NOON.", "nsi_id": "unitedstatespostalservice-a77078", "operator": "United States Postal Service", "operator:short": "USPS", "operator:type": "public", "operator:wikidata": "Q668687", "ref": "9066000030"}, "type": "Feature"}
{"geometry": {"coordinates": [-118.08826, 33.982149], "type": "Point"}, "id": "jeiFTx7OzkEBVc7zrfzJEarH4Dk=", "properties": {"@source_uri": "https://tools.usps.com/UspsToolsRestServices/rest/POLocator/findLocations", "@spider": "usps_collection_boxes", "addr:city": "PICO RIVERA", "addr:country": "US", "addr:postcode": "90660", "addr:state": "CA", "addr:street_address": "6615 PASSONS BLVD", "amenity": "post_box", "collection_times": "Mo-Sa 10:00", "nsi_id": "unitedstatespostalservice-a77078", "operator": "United States Postal Service", "operator:short": "USPS", "operator:type": "public", "operator:wikidata": "Q668687", "ref": "9066000031"}, "type": "Feature"}
{"geometry": {"coordinates": [-118.081365, 34.000305], "type": "Point"}, "id": "9EV8mO1tiYMz9MotKtt15pzrJGI=", "properties": {"@source_uri": "https://tools.usps.com/UspsToolsRestServices/rest/POLocator/findLocations", "@spider": "usps_collection_boxes", "addr:city": "PICO RIVERA", "addr:country": "US", "addr:postcode": "90660", "addr:state": "CA", "addr:street_address": "9160 WHITTIER BLVD", "amenity": "post_box", "collection_times": "Mo-Fr 17:00", "name": "USPS COLLECTION BOX - EXPRESS", "note": "ON 12/24 AND 12/31, THIS BOX MAY BE COLLECTED AS EARLY AS 12 NOON.", "nsi_id": "unitedstatespostalservice-a77078", "operator": "United States Postal Service", "operator:short": "USPS", "operator:type": "public", "operator:wikidata": "Q668687", "ref": "9066000064"}, "type": "Feature"}
{"geometry": {"coordinates": [-118.085374021, 33.9852719912], "type": "Point"}, "id": "4OOnLqYw85bw06mzI7MGli_5wxo=", "properties": {"@source_uri": "https://tools.usps.com/UspsToolsRestServices/rest/POLocator/findLocations", "@spider": "usps_collection_boxes", "addr:city": "PICO RIVERA", "addr:country": "US", "addr:postcode": "90660", "addr:state": "CA", "addr:street_address": "6320 PASSONS BLVD LOBBY", "amenity": "post_box", "collection_times": "Mo-Sa 17:00", "indoor": "yes", "note": "ON 12/24 AND 12/31, THIS BOX MAY BE COLLECTED AS EARLY AS 12 NOON.", "nsi_id": "unitedstatespostalservice-a77078", "operator": "United States Postal Service", "operator:short": "USPS", "operator:type": "public", "operator:wikidata": "Q668687", "ref": "9066000065"}, "type": "Feature"}
{"geometry": {"coordinates": [-118.0814440586, 34.0001117725], "type": "Point"}, "id": "HtYLT4bVH5XrpjX8g_pP_6aMEB0=", "properties": {"@source_uri": "https://tools.usps.com/UspsToolsRestServices/rest/POLocator/findLocations", "@spider": "usps_collection_boxes", "addr:city": "PICO RIVERA", "addr:country": "US", "addr:postcode": "90660", "addr:state": "CA", "addr:street_address": "9160 WHITTIER BLVD LOBBY", "amenity": "post_box", "collection_times": "Mo-Fr 17:00", "indoor": "yes", "note": "ON 12/24 AND 12/31, THIS BOX MAY BE COLLECTED AS EARLY AS 12 NOON.", "nsi_id": "unitedstatespostalservice-a77078", "operator": "United States Postal Service", "operator:short": "USPS", "operator:type": "public", "operator:wikidata": "Q668687", "ref": "9066000068"}, "type": "Feature"}
{"geometry": {"coordinates": [-118.0814440586, 34.0001117725], "type": "Point"}, "id": "AAxNDkfJksgwA4zLlPvoxjYRd_Y=", "properties": {"@source_uri": "https://tools.usps.com/UspsToolsRestServices/rest/POLocator/findLocations", "@spider": "usps_collection_boxes", "addr:city": "PICO RIVERA", "addr:country": "US", "addr:postcode": "90660", "addr:state": "CA", "addr:street_address": "9160 WHITTIER BLVD LOBBY", "amenity": "post_box", "collection_times": "Mo-Fr 17:00", "indoor": "yes", "note": "ON 12/24 AND 12/31, THIS BOX MAY BE COLLECTED AS EARLY AS 12 NOON.", "nsi_id": "unitedstatespostalservice-a77078", "operator": "United States Postal Service", "operator:short": "USPS", "operator:type": "public", "operator:wikidata": "Q668687", "ref": "9066000069"}, "type": "Feature"}
{"geometry": {"coordinates": [-118.0994289639, 33.9689450078], "type": "Point"}, "id": "3sCuucWyvVh-EMoNsproRy1J_U0=", "properties": {"@source_uri": "https://tools.usps.com/UspsToolsRestServices/rest/POLocator/findLocations", "@spider": "usps_collection_boxes", "addr:city": "PICO RIVERA", "addr:country": "US", "addr:postcode": "90660", "addr:state": "CA", "addr:street_address": "9240 SLAUSON AVE LOBBY", "amenity": "post_box", "collection_times": "Mo-Fr 17:00", "indoor": "yes", "note": "ON 12/24 AND 12/31, THIS BOX MAY BE COLLECTED AS EARLY AS 12 NOON.", "nsi_id": "unitedstatespostalservice-a77078", "operator": "United States Postal Service", "operator:short": "USPS", "operator:type": "public", "operator:wikidata": "Q668687", "ref": "9066000070"}, "type": "Feature"}
{"geometry": {"coordinates": [-118.0994289639, 33.9689450078], "type": "Point"}, "id": "8NHiieWyBCcrw4-0BtN4s0eg1Ao=", "properties": {"@source_uri": "https://tools.usps.com/UspsToolsRestServices/rest/POLocator/findLocations", "@spider": "usps_collection_boxes", "addr:city": "PICO RIVERA", "addr:country": "US", "addr:postcode": "90660", "addr:state": "CA", "addr:street_address": "9240 SLAUSON AVE LOBBY", "amenity": "post_box", "collection_times": "Mo-Fr 17:00", "indoor": "yes", "note": "ON 12/24 AND 12/31, THIS BOX MAY BE COLLECTED AS EARLY AS 12 NOON.", "nsi_id": "unitedstatespostalservice-a77078", "operator": "United States Postal Service", "operator:short": "USPS", "operator:type": "public", "operator:wikidata": "Q668687", "ref": "9066000080"}, "type": "Feature"}
{"geometry": {"coordinates": [-118.0854630368, 33.9853340173], "type": "Point"}, "id": "ndwqc-OJedPuWeOFCEDhC7JsnVs=", "properties": {"@source_uri": "https://tools.usps.com/UspsToolsRestServices/rest/POLocator/findLocations", "@spider": "usps_collection_boxes", "addr:city": "PICO RIVERA", "addr:country": "US", "addr:postcode": "90660", "addr:state": "CA", "addr:street_address": "6320 PASSONS BLVD LOBBY", "amenity": "post_box", "collection_times": "Mo-Fr 17:00; Sa 12:00", "indoor": "yes", "note": "ON 12/24 AND 12/31, THIS BOX MAY BE COLLECTED AS EARLY AS 12 NOON.", "nsi_id": "unitedstatespostalservice-a77078", "operator": "United States Postal Service", "operator:short": "USPS", "operator:type": "public", "operator:wikidata": "Q668687", "ref": "9066000081"}, "type": "Feature"}
{"geometry": {"coordinates": [-118.0814440586, 34.0001117725], "type": "Point"}, "id": "k43bA-eqtIMgNzwku18tJbPBN4w=", "properties": {"@source_uri": "https://tools.usps.com/UspsToolsRestServices/rest/POLocator/findLocations", "@spider": "usps_collection_boxes", "addr:city": "PICO RIVERA", "addr:country": "US", "addr:postcode": "90660", "addr:state": "CA", "addr:street_address": "9160 WHITTIER BLVD LOBBY", "amenity": "post_box", "collection_times": "Mo-Fr 17:00", "indoor": "yes", "note": "ON 12/24 AND 12/31, THIS BOX MAY BE COLLECTED AS EARLY AS 12 NOON.", "nsi_id": "unitedstatespostalservice-a77078", "operator": "United States Postal Service", "operator:short": "USPS", "operator:type": "public", "operator:wikidata": "Q668687", "ref": "9066000082"}, "type": "Feature"}
{"geometry": {"coordinates": [-118.081365, 34.000305], "type": "Point"}, "id": "Bm969hTG_sBwo5-NPRMpK4cE4mE=", "properties": {"@source_uri": "https://tools.usps.com/UspsToolsRestServices/rest/POLocator/findLocations", "@spider": "usps_collection_boxes", "addr:city": "PICO RIVERA", "addr:country": "US", "addr:postcode": "90660", "addr:state": "CA", "addr:street_address": "8729 WASHINGTON BLVD", "amenity": "post_box", "collection_times": "Mo-Fr 12:00", "nsi_id": "unitedstatespostalservice-a77078", "operator": "United States Postal Service", "operator:short": "USPS", "operator:type": "public", "operator:wikidata": "Q668687", "ref": "9066000086"}, "type": "Feature"}
{"geometry": {"coordinates": [-118.060234, 33.964889], "type": "Point"}, "id": "PQyQi63ir0oScp4XX2QHCzVB3O0=", "properties": {"@source_uri": "https://tools.usps.com/UspsToolsRestServices/rest/POLocator/findLocations", "@spider": "usps_collection_boxes", "addr:city": "SANTA FE SPGS", "addr:country": "US", "addr:postcode": "90670", "addr:state": "CA", "addr:street_address": "8500 SORENSEN AVE", "amenity": "post_box", "collection_times": "Mo-Sa 10:00", "nsi_id": "unitedstatespostalservice-a77078", "operator": "United States Postal Service", "operator:short": "USPS", "operator:type": "public", "operator:wikidata": "Q668687", "ref": "9067000020"}, "type": "Feature"}
{"geometry": {"coordinates": [-118.046726, 33.889555], "type": "Point"}, "id": "nGKzRJP40Igyq8Tnc7HpLpKZb-I=", "properties": {"@source_uri": "https://tools.usps.com/UspsToolsRestServices/rest/POLocator/findLocations", "@spider": "usps_collection_boxes", "addr:city": "SANTA FE SPGS", "addr:country": "US", "addr:postcode": "90670", "addr:state": "CA", "addr:street_address": "15511 CARMENITA RD", "amenity": "post_box", "collection_times": "Mo-Sa 10:00", "nsi_id": "unitedstatespostalservice-a77078", "operator": "United States Postal Service", "operator:short": "USPS", "operator:type": "public", "operator:wikidata": "Q668687", "ref": "9067000022"}, "type": "Feature"}
{"geometry": {"coordinates": [-118.084955, 33.94873], "type": "Point"}, "id": "uiVVu-xJLYoRAfOzvJ1HYXAWzTk=", "properties": {"@source_uri": "https://tools.usps.com/UspsToolsRestServices/rest/POLocator/findLocations", "@spider": "usps_collection_boxes", "addr:city": "SANTA FE SPGS", "addr:country": "US", "addr:postcode": "90670", "addr:state": "CA", "addr:street_address": "8623 DICE RD", "amenity": "post_box", "collection_times": "Mo-Sa 10:00", "nsi_id": "unitedstatespostalservice-a77078", "operator": "United States Postal Service", "operator:short": "USPS", "operator:type": "public", "operator:wikidata": "Q668687", "ref": "9067000023"}, "type": "Feature"}
{"geometry": {"coordinates": [-118.030716527, 33.89418103], "type": "Point"}, "id": "xrpUhc0micHEfh8bCxEwjQcFYjc=", "properties": {"@source_uri": "https://tools.usps.com/UspsToolsRestServices/rest/POLocator/findLocations", "@spider": "usps_collection_boxes", "addr:city": "SANTA FE SPGS", "addr:country": "US", "addr:postcode": "90670", "addr:state": "CA", "addr:street_address": "14110 GANNET ST", "amenity": "post_box", "collection_times": "Mo-Sa 10:00", "nsi_id": "unitedstatespostalservice-a77078", "operator": "United States Postal Service", "operator:short": "USPS", "operator:type": "public", "operator:wikidata": "Q668687", "ref": "9067000028"}, "type": "Feature"}
{"geometry": {"coordinates": [-118.0365449926, 33.9030109876], "type": "Point"}, "id": "oSy30m3TP0G4knU43pcsHbn0SuA=", "properties": {"@source_uri": "https://tools.usps.com/UspsToolsRestServices/rest/POLocator/findLocations", "@spider": "usps_collection_boxes", "addr:city": "SANTA FE SPGS", "addr:country": "US", "addr:postcode": "90670", "addr:state": "CA", "addr:street_address": "13861 ROSECRANS AVE", "amenity": "post_box", "collection_times": "Mo-Sa 10:00", "nsi_id": "unitedstatespostalservice-a77078", "operator": "United States Postal Service", "operator:short": "USPS", "operator:type": "public", "operator:wikidata": "Q668687", "ref": "9067000032"}, "type": "Feature"}
{"geometry": {"coordinates": [-118.082550917, 33.945753488], "type": "Point"}, "id": "-naQWR5Xhfssi96RluMBjixM_T4=", "properties": {"@source_uri": "https://tools.usps.com/UspsToolsRestServices/rest/POLocator/findLocations", "@spider": "usps_collection_boxes", "addr:city": "SANTA FE SPGS", "addr:country": "US", "addr:postcode": "90670", "addr:state": "CA", "addr:street_address": "11760 TELEGRAPH RD", "amenity": "post_box", "collection_times": "Mo-Fr 15:45; Sa 15:00", "note": "ON 12/24 AND 12/31, THIS BOX MAY BE COLLECTED AS EARLY AS 12 NOON.", "nsi_id": "unitedstatespostalservice-a77078", "operator": "United States Postal Service", "operator:short": "USPS", "operator:type": "public", "operator:wikidata": "Q668687", "ref": "9067000035"}, "type": "Feature"}
{"geometry": {"coordinates": [-118.0544841313, 33.9458339379], "type": "Point"}, "id": "Sn7uAyCU0q8SVzUobHUpSkKinwY=", "properties": {"@source_uri": "https://tools.usps.com/UspsToolsRestServices/rest/POLocator/findLocations", "@spider": "usps_collection_boxes", "addr:city": "SANTA FE SPGS", "addr:country": "US", "addr:postcode": "90670", "addr:state": "CA", "addr:street_address": "13001 LOS NIETOS RD", "amenity": "post_box", "collection_times": "Mo-Sa 10:00", "nsi_id": "unitedstatespostalservice-a77078", "operator": "United States Postal Service", "operator:short": "USPS", "operator:type": "public", "operator:wikidata": "Q668687", "ref": "9067000039"}, "type": "Feature"}
{"geometry": {"coordinates": [-118.063033, 33.917302], "type": "Point"}, "id": "mafctqJLQ8ALsFCjybql8VvZYW8=", "properties": {"@source_uri": "https://tools.usps.com/UspsToolsRestServices/rest/POLocator/findLocations", "@spider": "usps_collection_boxes", "addr:city": "SANTA FE SPGS", "addr:country": "US", "addr:postcode": "90670", "addr:state": "CA", "addr:street_address": "12623 IMPERIAL HWY", "amenity": "post_box", "collection_times": "Mo-Sa 10:00", "nsi_id": "unitedstatespostalservice-a77078", "operator": "United States Postal Service", "operator:short": "USPS", "operator:type": "public", "operator:wikidata": "Q668687", "ref": "9067000040"}, "type": "Feature"}
{"geometry": {"coordinates": [-118.072576, 33.941016], "type": "Point"}, "id": "kph-G6mER1DoG2gtcd3-MZFOtGQ=", "properties": {"@source_uri": "https://tools.usps.com/UspsToolsRestServices/rest/POLocator/findLocations", "@spider": "usps_collection_boxes", "addr:city": "SANTA FE SPGS", "addr:country": "US", "addr:postcode": "90670", "addr:state": "CA", "addr:street_address": "10400 NORWALK BLVD", "amenity": "post_box", "collection_times": "Mo-Sa 10:00", "nsi_id": "unitedstatespostalservice-a77078", "operator": "United States Postal Service", "operator:short": "USPS", "operator:type": "public", "operator:wikidata": "Q668687", "ref": "9067000042"}, "type": "Feature"}
{"geometry": {"coordinates": [-118.063804, 33.92078], "type": "Point"}, "id": "YWJNq85HfHItZPTpNmczGY81gY4=", "properties": {"@source_uri": "https://tools.usps.com/UspsToolsRestServices/rest/POLocator/findLocations", "@spider": "usps_collection_boxes", "addr:city": "SANTA FE SPGS", "addr:country": "US", "addr:postcode": "90670", "addr:state": "CA", "addr:street_address": "12150 BLOOMFIELD AVE", "amenity": "post_box", "collection_times": "Mo-Sa 10:00", "nsi_id": "unitedstatespostalservice-a77078", "operator": "United States Postal Service", "operator:short": "USPS", "operator:type": "public", "operator:wikidata": "Q668687", "ref": "9067000046"}, "type": "Feature"}
{"geometry": {"coordinates": [-118.077759, 33.935548], "type": "Point"}, "id": "9Tvc83ZQSZIeUcHosOw13yvvCHU=", "properties": {"@source_uri": "https://tools.usps.com/UspsToolsRestServices/rest/POLocator/findLocations", "@spider": "usps_collection_boxes", "addr:city": "SANTA FE SPGS", "addr:country": "US", "addr:postcode": "90670", "addr:state": "CA", "addr:street_address": "11947 FLORENCE AVE", "amenity": "post_box", "collection_times": "Mo-Sa 10:00", "nsi_id": "unitedstatespostalservice-a77078", "operator": "United States Postal Service", "operator:short": "USPS", "operator:type": "public", "operator:wikidata": "Q668687", "ref": "9067000052"}, "type": "Feature"}
{"geometry": {"coordinates": [-118.051257, 33.939364], "type": "Point"}, "id": "F69SgUyfktYA-Bf-YWhQNBHSB0A=", "properties": {"@source_uri": "https://tools.usps.com/UspsToolsRestServices/rest/POLocator/findLocations", "@spider": "usps_collection_boxes", "addr:city": "SANTA FE SPGS", "addr:country": "US", "addr:postcode": "90670", "addr:state": "CA", "addr:street_address": "10518 PAINTER AVE", "amenity": "post_box", "collection_times": "Mo-Sa 10:00", "nsi_id": "unitedstatespostalservice-a77078", "operator": "United States Postal Service", "operator:short": "USPS", "operator:type": "public", "operator:wikidata": "Q668687", "ref": "9067000056"}, "type": "Feature"}
{"geometry": {"coordinates": [-118.041789, 33.916916], "type": "Point"}, "id": "rjLBy_83aESad0t-51G0NHVArKE=", "properties": {"@source_uri": "https://tools.usps.com/UspsToolsRestServices/rest/POLocator/findLocations", "@spider": "usps_collection_boxes", "addr:city": "SANTA FE SPGS", "addr:country": "US", "addr:postcode": "90670", "addr:state": "CA", "addr:street_address": "13640 IMPERIAL HWY", "amenity": "post_box", "collection_times": "Mo-Sa 10:00", "nsi_id": "unitedstatespostalservice-a77078", "operator": "United States Postal Service", "operator:short": "USPS", "operator:type": "public", "operator:wikidata": "Q668687", "ref": "9067000057"}, "type": "Feature"}
{"geometry": {"coordinates": [-118.081709, 33.942153], "type": "Point"}, "id": "GkeK0XoLdto-hodv1QESr038nvA=", "properties": {"@source_uri": "https://tools.usps.com/UspsToolsRestServices/rest/POLocator/findLocations", "@spider": "usps_collection_boxes", "addr:city": "SANTA FE SPGS", "addr:country": "US", "addr:postcode": "90670", "addr:state": "CA", "addr:street_address": "10330 PIONEER BLVD", "amenity": "post_box", "collection_times": "Mo-Sa 10:00", "nsi_id": "unitedstatespostalservice-a77078", "operator": "United States Postal Service", "operator:short": "USPS", "operator:type": "public", "operator:wikidata": "Q668687", "ref": "9067000058"}, "type": "Feature"}
{"geometry": {"coordinates": [-118.084955, 33.94873], "type": "Point"}, "id": "xx1S3qt8hgljTAmgmRwvq3-eJX0=", "properties": {"@source_uri": "https://tools.usps.com/UspsToolsRestServices/rest/POLocator/findLocations", "@spider": "usps_collection_boxes", "addr:city": "SANTA FE SPGS", "addr:country": "US", "addr:postcode": "90670", "addr:state": "CA", "addr:street_address": "8940 SORENSEN AVE", "amenity": "post_box", "collection_times": "Mo-Sa 10:00", "nsi_id": "unitedstatespostalservice-a77078", "operator": "United States Postal Service", "operator:short": "USPS", "operator:type": "public", "operator:wikidata": "Q668687", "ref": "9067000061"}, "type": "Feature"}
{"geometry": {"coordinates": [-118.0824879641, 33.9450699948], "type": "Point"}, "id": "9ydeHNWbVI2kkdqak8Att-ez9Ec=", "properties": {"@source_uri": "https://tools.usps.com/UspsToolsRestServices/rest/POLocator/findLocations", "@spider": "usps_collection_boxes", "addr:city": "SANTA FE SPGS", "addr:country": "US", "addr:postcode": "90670", "addr:state": "CA", "addr:street_address": "11760 TELEGRAPH RD LOBBY", "amenity": "post_box", "collection_times": "Mo-Fr 17:45; Sa 15:00", "indoor": "yes", "note": "ON 12/24 AND 12/31, THIS BOX MAY BE COLLECTED AS EARLY AS 12 NOON.", "nsi_id": "unitedstatespostalservice-a77078", "operator": "United States Postal Service", "operator:short": "USPS", "operator:type": "public", "operator:wikidata": "Q668687", "ref": "9067000067"}, "type": "Feature"}
{"geometry": {"coordinates": [-118.082382977, 33.9457240838], "type": "Point"}, "id": "U5mrrNBtJ7FqRhKNP4ZWaQjeo_c=", "properties": {"@source_uri": "https://tools.usps.com/UspsToolsRestServices/rest/POLocator/findLocations", "@spider": "usps_collection_boxes", "addr:city": "SANTA FE SPGS", "addr:country": "US", "addr:postcode": "90670", "addr:state": "CA", "addr:street_address": "11760 TELEGRAPH RD", "amenity": "post_box", "collection_times": "Mo-Fr 17:00", "indoor": "yes", "note": "ON 12/24 AND 12/31, THIS BOX MAY BE COLLECTED AS EARLY AS 12 NOON.", "nsi_id": "unitedstatespostalservice-a77078", "operator": "United States Postal Service", "operator:short": "USPS", "operator:type": "public", "operator:wikidata": "Q668687", "ref": "9067000081"}, "type": "Feature"}
{"geometry": {"coordinates": [-117.9930771867, 33.8113978637], "type": "Point"}, "id": "PP4oYy61Ki-Szi0LK8H37gT0g9s=", "properties": {"@source_uri": "https://tools.usps.com/UspsToolsRestServices/rest/POLocator/findLocations", "@spider": "usps_collection_boxes", "addr:city": "STANTON", "addr:country": "US", "addr:postcode": "90680", "addr:state": "CA", "addr:street_address": "10440 BEACH BLVD", "amenity": "post_box", "collection_times": "Mo-Fr 17:00; Sa 15:45", "indoor": "yes", "note": "ON 12/24 AND 12/31, THIS BOX MAY BE COLLECTED AS EARLY AS 12 NOON.", "nsi_id": "unitedstatespostalservice-a77078", "operator": "United States Postal Service", "operator:short": "USPS", "operator:type": "public", "operator:wikidata": "Q668687", "ref": "9068000009"}, "type": "Feature"}
{"geometry": {"coordinates": [-117.9930779519, 33.8114885029], "type": "Point"}, "id": "_57m-NstFkt3Bt_EZaH8N8mJ2u4=", "properties": {"@source_uri": "https://tools.usps.com/UspsToolsRestServices/rest/POLocator/findLocations", "@spider": "usps_collection_boxes", "addr:city": "STANTON", "addr:country": "US", "addr:postcode": "90680", "addr:state": "CA", "addr:street_address": "10440 BEACH BLVD", "amenity": "post_box", "collection_times": "Mo-Fr 17:00; Sa 15:45", "note": "ON 12/24 AND 12/31, THIS BOX MAY BE COLLECTED AS EARLY AS 12 NOON.", "nsi_id": "unitedstatespostalservice-a77078", "operator": "United States Postal Service", "operator:short": "USPS", "operator:type": "public", "operator:wikidata": "Q668687", "ref": "9068000022"}, "type": "Feature"}
{"geometry": {"coordinates": [-117.9930771867, 33.8113978637], "type": "Point"}, "id": "AB-qgj1Ng6xsCli5FPLsYtWioTs=", "properties": {"@source_uri": "https://tools.usps.com/UspsToolsRestServices/rest/POLocator/findLocations", "@spider": "usps_collection_boxes", "addr:city": "STANTON", "addr:country": "US", "addr:postcode": "90680", "addr:state": "CA", "addr:street_address": "10440 BEACH BLVD", "amenity": "post_box", "collection_times": "Mo-Fr 17:00; Sa 15:45", "indoor": "yes", "note": "ON 12/24 AND 12/31, THIS BOX MAY BE COLLECTED AS EARLY AS 12 NOON.", "nsi_id": "unitedstatespostalservice-a77078", "operator": "United States Postal Service", "operator:short": "USPS", "operator:type": "public", "operator:wikidata": "Q668687", "ref": "9068000025"}, "type": "Feature"}
{"geometry": {"coordinates": [-117.9930779519, 33.8114885029], "type": "Point"}, "id": "Q4p4iVWZ7QFnhAY3ttcVAZC7HH0=", "properties": {"@source_uri": "https://tools.usps.com/UspsToolsRestServices/rest/POLocator/findLocations", "@spider": "usps_collection_boxes", "addr:city": "STANTON", "addr:country": "US", "addr:postcode": "90680", "addr:state": "CA", "addr:street_address": "10440 BEACH BLVD", "amenity": "post_box", "collection_times": "Mo-Fr 17:00", "indoor": "yes", "note": "ON 12/24 AND 12/31, THIS BOX MAY BE COLLECTED AS EARLY AS 12 NOON.", "nsi_id": "unitedstatespostalservice-a77078", "operator": "United States Postal Service", "operator:short": "USPS", "operator:type": "public", "operator:wikidata": "Q668687", "ref": "9068000032"}, "type": "Feature"}
