{"dataset_attributes": {"@spider": "usps_collection_boxes", "spider:collection_time": "2023-10-19T08:25:27.646942"}, "geometry": {"coordinates": [-118.084353, 33.866525], "type": "Point"}, "id": "LsHQ_mHH3cREgNI4svCOAReddRQ=", "properties": {"@spider": "usps_collection_boxes", "addr:city": "ARTESIA", "addr:country": "US", "addr:full": "11721 183RD ST", "addr:postcode": "90701", "addr:state": "CA", "amenity": "post_box", "brand": "United States Postal Service", "brand:wikidata": "Q668687", "collection_times": "Mo-Sa 17:00", "name": "USPS COLLECTION BOX - BLUE BOX", "note": "ON 12/24 AND 12/31, THIS BOX MAY BE COLLECTED AS EARLY AS 12 NOON.", "nsi_id": "unitedstatespostalservice-a77078", "operator": "United States Postal Service", "operator:short": "USPS", "operator:type": "public", "operator:wikidata": "Q668687", "ref": "9070100003"}, "type": "Feature"}
{"dataset_attributes": {"@spider": "usps_collection_boxes", "spider:collection_time": "2023-10-19T08:25:27.646942"}, "geometry": {"coordinates": [-118.0807829507, 33.8731814237], "type": "Point"}, "id": "3H53Cq9-bUNAAvVgPH5AI1SRYmk=", "properties": {"@spider": "usps_collection_boxes", "addr:city": "ARTESIA", "addr:country": "US", "addr:full": "11851 ARTESIA BLVD", "addr:postcode": "90701", "addr:state": "CA", "amenity": "post_box", "brand": "United States Postal Service", "brand:wikidata": "Q668687", "collection_times": "Mo-Fr 13:00", "name": "USPS COLLECTION BOX - BLUE BOX", "note": "ON 12/24 AND 12/31, THIS BOX MAY BE COLLECTED AS EARLY AS 12 NOON.", "nsi_id": "unitedstatespostalservice-a77078", "operator": "United States Postal Service", "operator:short": "USPS", "operator:type": "public", "operator:wikidata": "Q668687", "ref": "9070100037"}, "type": "Feature"}
{"dataset_attributes": {"@spider": "usps_collection_boxes", "spider:collection_time": "2023-10-19T08:25:27.646942"}, "geometry": {"coordinates": [-118.081899, 33.862899], "type": "Point"}, "id": "PvHm_7xWWPmgedqioFDizP7RNg4=", "properties": {"@spider": "usps_collection_boxes", "addr:city": "ARTESIA", "addr:country": "US", "addr:full": "18550 PIONEER BLVD", "addr:postcode": "90701", "addr:state": "CA", "amenity": "post_box", "brand": "United States Postal Service", "brand:wikidata": "Q668687", "collection_times": "Mo-Fr 12:30; Sa 13:00", "name": "USPS COLLECTION BOX - BLUE BOX", "note": "ON 12/24 AND 12/31, THIS BOX MAY BE COLLECTED AS EARLY AS 12 NOON.", "nsi_id": "unitedstatespostalservice-a77078", "operator": "United States Postal Service", "operator:short": "USPS", "operator:type": "public", "operator:wikidata": "Q668687", "ref": "9070100061"}, "type": "Feature"}
{"dataset_attributes": {"@spider": "usps_collection_boxes", "spider:collection_time": "2023-10-19T08:25:27.646942"}, "geometry": {"coordinates": [-118.076561, 33.86282], "type": "Point"}, "id": "ShuZp0AlhkmupDVXExL3SEj7Y-s=", "properties": {"@spider": "usps_collection_boxes", "addr:city": "ARTESIA", "addr:country": "US", "addr:full": "12000 186TH ST", "addr:postcode": "90701", "addr:state": "CA", "amenity": "post_box", "brand": "United States Postal Service", "brand:wikidata": "Q668687", "collection_times": "Mo-Fr 12:30; Sa 13:00", "name": "USPS COLLECTION BOX - BLUE BOX", "note": "ON 12/24 AND 12/31, THIS BOX MAY BE COLLECTED AS EARLY AS 12 NOON.", "nsi_id": "unitedstatespostalservice-a77078", "operator": "United States Postal Service", "operator:short": "USPS", "operator:type": "public", "operator:wikidata": "Q668687", "ref": "9070100087"}, "type": "Feature"}
{"dataset_attributes": {"@spider": "usps_collection_boxes", "spider:collection_time": "2023-10-19T08:25:27.646942"}, "geometry": {"coordinates": [-118.083996, 33.866298], "type": "Point"}, "id": "76lQWE8Zmqp3SyNhjLLDqR1vs3w=", "properties": {"@spider": "usps_collection_boxes", "addr:city": "ARTESIA", "addr:country": "US", "addr:full": "11721 183RD ST LOBBY", "addr:postcode": "90701", "addr:state": "CA", "amenity": "post_box", "brand": "United States Postal Service", "brand:wikidata": "Q668687", "collection_times": "Mo-Sa 17:00", "name": "USPS COLLECTION BOX - PO LOBBY", "note": "ON 12/24 AND 12/31, THIS BOX MAY BE COLLECTED AS EARLY AS 12 NOON.", "nsi_id": "unitedstatespostalservice-a77078", "operator": "United States Postal Service", "operator:short": "USPS", "operator:type": "public", "operator:wikidata": "Q668687", "ref": "9070100114"}, "type": "Feature"}
{"dataset_attributes": {"@spider": "usps_collection_boxes", "spider:collection_time": "2023-10-19T08:25:27.646942"}, "geometry": {"coordinates": [-118.084388, 33.866519], "type": "Point"}, "id": "xCVcBIMo63_vXpeBDuRT7xHJx1E=", "properties": {"@spider": "usps_collection_boxes", "addr:city": "ARTESIA", "addr:country": "US", "addr:full": "11721 183RD ST", "addr:postcode": "90701", "addr:state": "CA", "amenity": "post_box", "brand": "United States Postal Service", "brand:wikidata": "Q668687", "collection_times": "Mo-Sa 17:00", "name": "USPS COLLECTION BOX - BLUE BOX", "note": "ON 12/24 AND 12/31, THIS BOX MAY BE COLLECTED AS EARLY AS 12 NOON.", "nsi_id": "unitedstatespostalservice-a77078", "operator": "United States Postal Service", "operator:short": "USPS", "operator:type": "public", "operator:wikidata": "Q668687", "ref": "9070100117"}, "type": "Feature"}
{"dataset_attributes": {"@spider": "usps_collection_boxes", "spider:collection_time": "2023-10-19T08:25:27.646942"}, "geometry": {"coordinates": [-118.079762, 33.859914], "type": "Point"}, "id": "b2bp7GJqGhB8XXPr7NOfVjF-RyY=", "properties": {"@spider": "usps_collection_boxes", "addr:city": "ARTESIA", "addr:country": "US", "addr:full": "18747 CLARKDALE AVE", "addr:postcode": "90701", "addr:state": "CA", "amenity": "post_box", "brand": "United States Postal Service", "brand:wikidata": "Q668687", "collection_times": "Mo-Fr 12:30; Sa 13:00", "name": "USPS COLLECTION BOX - BLUE BOX", "note": "ON 12/24 AND 12/31, THIS BOX MAY BE COLLECTED AS EARLY AS 12 NOON.", "nsi_id": "unitedstatespostalservice-a77078", "operator": "United States Postal Service", "operator:short": "USPS", "operator:type": "public", "operator:wikidata": "Q668687", "ref": "9070100122"}, "type": "Feature"}
{"dataset_attributes": {"@spider": "usps_collection_boxes", "spider:collection_time": "2023-10-19T08:25:27.646942"}, "geometry": {"coordinates": [-118.083996, 33.866298], "type": "Point"}, "id": "fcegglbckQ5XnJzPR9qnUYPpZeQ=", "properties": {"@spider": "usps_collection_boxes", "addr:city": "ARTESIA", "addr:country": "US", "addr:full": "11721 183RD ST LOBBY", "addr:postcode": "90701", "addr:state": "CA", "amenity": "post_box", "brand": "United States Postal Service", "brand:wikidata": "Q668687", "collection_times": "Mo-Sa 17:00", "name": "USPS COLLECTION BOX - APC", "note": "ON 12/24 AND 12/31, THIS BOX MAY BE COLLECTED AS EARLY AS 12 NOON.", "nsi_id": "unitedstatespostalservice-a77078", "operator": "United States Postal Service", "operator:short": "USPS", "operator:type": "public", "operator:wikidata": "Q668687", "ref": "9070100125"}, "type": "Feature"}
{"dataset_attributes": {"@spider": "usps_collection_boxes", "spider:collection_time": "2023-10-19T08:25:27.646942"}, "geometry": {"coordinates": [-118.083996, 33.866298], "type": "Point"}, "id": "gAdfRm4rF0NOe_HZ7EbGwZTHmXs=", "properties": {"@spider": "usps_collection_boxes", "addr:city": "ARTESIA", "addr:country": "US", "addr:full": "11721 183RD ST LOBBY", "addr:postcode": "90701", "addr:state": "CA", "amenity": "post_box", "brand": "United States Postal Service", "brand:wikidata": "Q668687", "collection_times": "Mo-Sa 17:00", "name": "USPS COLLECTION BOX - PO LOBBY", "note": "ON 12/24 AND 12/31, THIS BOX MAY BE COLLECTED AS EARLY AS 12 NOON.", "nsi_id": "unitedstatespostalservice-a77078", "operator": "United States Postal Service", "operator:short": "USPS", "operator:type": "public", "operator:wikidata": "Q668687", "ref": "9070100133"}, "type": "Feature"}
{"dataset_attributes": {"@spider": "usps_collection_boxes", "spider:collection_time": "2023-10-19T08:25:27.646942"}, "geometry": {"coordinates": [-118.083996, 33.866298], "type": "Point"}, "id": "sPRfZ4cs64ksdgcgXtA16aWF1aU=", "properties": {"@spider": "usps_collection_boxes", "addr:city": "ARTESIA", "addr:country": "US", "addr:full": "11721 183RD ST LOBBY", "addr:postcode": "90701", "addr:state": "CA", "amenity": "post_box", "brand": "United States Postal Service", "brand:wikidata": "Q668687", "collection_times": "Mo-Sa 17:00", "name": "USPS COLLECTION BOX - PO LOBBY", "note": "ON 12/24 AND 12/31, THIS BOX MAY BE COLLECTED AS EARLY AS 12 NOON.", "nsi_id": "unitedstatespostalservice-a77078", "operator": "United States Postal Service", "operator:short": "USPS", "operator:type": "public", "operator:wikidata": "Q668687", "ref": "9070100139"}, "type": "Feature"}
{"dataset_attributes": {"@spider": "usps_collection_boxes", "spider:collection_time": "2023-10-19T08:25:27.646942"}, "geometry": {"coordinates": [-118.098899, 33.855886], "type": "Point"}, "id": "CtH4SiN2rRXnXzu1QWJRoenX8Fc=", "properties": {"@spider": "usps_collection_boxes", "addr:city": "ARTESIA", "addr:country": "US", "addr:full": "19202 ALLINGHAM AVE", "addr:postcode": "90703", "addr:state": "CA", "amenity": "post_box", "brand": "United States Postal Service", "brand:wikidata": "Q668687", "collection_times": "Mo-Sa 13:00", "name": "USPS COLLECTION BOX - BLUE BOX", "note": "ON 12/24 AND 12/31, THIS BOX MAY BE COLLECTED AS EARLY AS 12 NOON.", "nsi_id": "unitedstatespostalservice-a77078", "operator": "United States Postal Service", "operator:short": "USPS", "operator:type": "public", "operator:wikidata": "Q668687", "ref": "9070300001"}, "type": "Feature"}
{"dataset_attributes": {"@spider": "usps_collection_boxes", "spider:collection_time": "2023-10-19T08:25:27.646942"}, "geometry": {"coordinates": [-118.047316, 33.873396], "type": "Point"}, "id": "OXDEncY7bce6ojInPv-f6-Zf3rc=", "properties": {"@spider": "usps_collection_boxes", "addr:city": "ARTESIA", "addr:country": "US", "addr:full": "13363 ARTESIA BLVD", "addr:postcode": "90703", "addr:state": "CA", "amenity": "post_box", "brand": "United States Postal Service", "brand:wikidata": "Q668687", "collection_times": "Mo-Fr 13:00", "name": "USPS COLLECTION BOX - BLUE BOX", "note": "ON 12/24 AND 12/31, THIS BOX MAY BE COLLECTED AS EARLY AS 12 NOON.", "nsi_id": "unitedstatespostalservice-a77078", "operator": "United States Postal Service", "operator:short": "USPS", "operator:type": "public", "operator:wikidata": "Q668687", "ref": "9070300008"}, "type": "Feature"}
{"dataset_attributes": {"@spider": "usps_collection_boxes", "spider:collection_time": "2023-10-19T08:25:27.646942"}, "geometry": {"coordinates": [-118.098112, 33.872855], "type": "Point"}, "id": "lgwxAFET1qP8-KhTGY84oGfVim4=", "properties": {"@spider": "usps_collection_boxes", "addr:city": "ARTESIA", "addr:country": "US", "addr:full": "11050 ARTESIA BLVD", "addr:postcode": "90703", "addr:state": "CA", "amenity": "post_box", "brand": "United States Postal Service", "brand:wikidata": "Q668687", "collection_times": "Mo-Fr 13:00", "name": "USPS COLLECTION BOX - BLUE BOX", "note": "ON 12/24 AND 12/31, THIS BOX MAY BE COLLECTED AS EARLY AS 12 NOON.", "nsi_id": "unitedstatespostalservice-a77078", "operator": "United States Postal Service", "operator:short": "USPS", "operator:type": "public", "operator:wikidata": "Q668687", "ref": "9070300009"}, "type": "Feature"}
{"dataset_attributes": {"@spider": "usps_collection_boxes", "spider:collection_time": "2023-10-19T08:25:27.646942"}, "geometry": {"coordinates": [-118.031056, 33.873115], "type": "Point"}, "id": "yHBLnN4EvRtnWNMdpeaRaa1qUks=", "properties": {"@spider": "usps_collection_boxes", "addr:city": "ARTESIA", "addr:country": "US", "addr:full": "14108 ARTESIA BLVD", "addr:postcode": "90703", "addr:state": "CA", "amenity": "post_box", "brand": "United States Postal Service", "brand:wikidata": "Q668687", "collection_times": "Mo-Sa 13:00", "name": "USPS COLLECTION BOX - BLUE BOX", "note": "ON 12/24 AND 12/31, THIS BOX MAY BE COLLECTED AS EARLY AS 12 NOON.", "nsi_id": "unitedstatespostalservice-a77078", "operator": "United States Postal Service", "operator:short": "USPS", "operator:type": "public", "operator:wikidata": "Q668687", "ref": "9070300010"}, "type": "Feature"}
{"dataset_attributes": {"@spider": "usps_collection_boxes", "spider:collection_time": "2023-10-19T08:25:27.646942"}, "geometry": {"coordinates": [-118.08896, 33.853847], "type": "Point"}, "id": "oZs3We3fMQIqizusNHJlg4g0vR8=", "properties": {"@spider": "usps_collection_boxes", "addr:city": "ARTESIA", "addr:country": "US", "addr:full": "11503 BINGHAM ST", "addr:postcode": "90703", "addr:state": "CA", "amenity": "post_box", "brand": "United States Postal Service", "brand:wikidata": "Q668687", "collection_times": "Mo-Sa 13:00", "name": "USPS COLLECTION BOX - BLUE BOX", "note": "ON 12/24 AND 12/31, THIS BOX MAY BE COLLECTED AS EARLY AS 12 NOON.", "nsi_id": "unitedstatespostalservice-a77078", "operator": "United States Postal Service", "operator:short": "USPS", "operator:type": "public", "operator:wikidata": "Q668687", "ref": "9070300012"}, "type": "Feature"}
{"dataset_attributes": {"@spider": "usps_collection_boxes", "spider:collection_time": "2023-10-19T08:25:27.646942"}, "geometry": {"coordinates": [-118.066905, 33.86672], "type": "Point"}, "id": "A7vduv21IJkN9-1fonYXcikJgw4=", "properties": {"@spider": "usps_collection_boxes", "addr:city": "ARTESIA", "addr:country": "US", "addr:full": "18125 BLOOMFIELD AVE", "addr:postcode": "90703", "addr:state": "CA", "amenity": "post_box", "brand": "United States Postal Service", "brand:wikidata": "Q668687", "collection_times": "Mo-Sa 13:00", "name": "USPS COLLECTION BOX - BLUE BOX", "note": "ON 12/24 AND 12/31, THIS BOX MAY BE COLLECTED AS EARLY AS 12 NOON.", "nsi_id": "unitedstatespostalservice-a77078", "operator": "United States Postal Service", "operator:short": "USPS", "operator:type": "public", "operator:wikidata": "Q668687", "ref": "9070300013"}, "type": "Feature"}
{"dataset_attributes": {"@spider": "usps_collection_boxes", "spider:collection_time": "2023-10-19T08:25:27.646942"}, "geometry": {"coordinates": [-118.0457055, 33.866469], "type": "Point"}, "id": "8z5Vhy27GCyl-d21u-VC7rkHZ5I=", "properties": {"@spider": "usps_collection_boxes", "addr:city": "ARTESIA", "addr:country": "US", "addr:full": "18122 CARMENITA RD LOBBY", "addr:postcode": "90703", "addr:state": "CA", "amenity": "post_box", "brand": "United States Postal Service", "brand:wikidata": "Q668687", "collection_times": "Mo-Fr 16:30; Sa 13:00", "name": "USPS COLLECTION BOX - PO LOBBY", "note": "ON 12/24 AND 12/31, THIS BOX MAY BE COLLECTED AS EARLY AS 12 NOON.", "nsi_id": "unitedstatespostalservice-a77078", "operator": "United States Postal Service", "operator:short": "USPS", "operator:type": "public", "operator:wikidata": "Q668687", "ref": "9070300014"}, "type": "Feature"}
{"dataset_attributes": {"@spider": "usps_collection_boxes", "spider:collection_time": "2023-10-19T08:25:27.646942"}, "geometry": {"coordinates": [-118.0457055, 33.866469], "type": "Point"}, "id": "GZeQS36eXUzixT5GpmGy57Htdy4=", "properties": {"@spider": "usps_collection_boxes", "addr:city": "ARTESIA", "addr:country": "US", "addr:full": "18122 CARMENITA RD LOBBY", "addr:postcode": "90703", "addr:state": "CA", "amenity": "post_box", "brand": "United States Postal Service", "brand:wikidata": "Q668687", "collection_times": "Mo-Fr 16:30; Sa 13:00", "name": "USPS COLLECTION BOX - PO LOBBY", "note": "ON 12/24 AND 12/31, THIS BOX MAY BE COLLECTED AS EARLY AS 12 NOON.", "nsi_id": "unitedstatespostalservice-a77078", "operator": "United States Postal Service", "operator:short": "USPS", "operator:type": "public", "operator:wikidata": "Q668687", "ref": "9070300015"}, "type": "Feature"}
{"dataset_attributes": {"@spider": "usps_collection_boxes", "spider:collection_time": "2023-10-19T08:25:27.646942"}, "geometry": {"coordinates": [-118.0457055, 33.866469], "type": "Point"}, "id": "0OufppsiDhHoECSGOIbpyXgSaBg=", "properties": {"@spider": "usps_collection_boxes", "addr:city": "ARTESIA", "addr:country": "US", "addr:full": "18122 CARMENITA RD LOBBY", "addr:postcode": "90703", "addr:state": "CA", "amenity": "post_box", "brand": "United States Postal Service", "brand:wikidata": "Q668687", "collection_times": "Mo-Fr 16:30; Sa 13:00", "name": "USPS COLLECTION BOX - APC", "note": "ON 12/24 AND 12/31, THIS BOX MAY BE COLLECTED AS EARLY AS 12 NOON.", "nsi_id": "unitedstatespostalservice-a77078", "operator": "United States Postal Service", "operator:short": "USPS", "operator:type": "public", "operator:wikidata": "Q668687", "ref": "9070300016"}, "type": "Feature"}
{"dataset_attributes": {"@spider": "usps_collection_boxes", "spider:collection_time": "2023-10-19T08:25:27.646942"}, "geometry": {"coordinates": [-118.066307, 33.876995], "type": "Point"}, "id": "I3_bUGci7iriUfuhYNNcg7L9S1Y=", "properties": {"@spider": "usps_collection_boxes", "addr:city": "ARTESIA", "addr:country": "US", "addr:full": "16922 CHAPARRAL AVE", "addr:postcode": "90703", "addr:state": "CA", "amenity": "post_box", "brand": "United States Postal Service", "brand:wikidata": "Q668687", "collection_times": "Mo-Sa 13:00", "name": "USPS COLLECTION BOX - BLUE BOX", "note": "ON 12/24 AND 12/31, THIS BOX MAY BE COLLECTED AS EARLY AS 12 NOON.", "nsi_id": "unitedstatespostalservice-a77078", "operator": "United States Postal Service", "operator:short": "USPS", "operator:type": "public", "operator:wikidata": "Q668687", "ref": "9070300021"}, "type": "Feature"}
{"dataset_attributes": {"@spider": "usps_collection_boxes", "spider:collection_time": "2023-10-19T08:25:27.646942"}, "geometry": {"coordinates": [-118.079824, 33.846681], "type": "Point"}, "id": "V2xK71PxQ7nLhF8Oj61n4Xmv_Ho=", "properties": {"@spider": "usps_collection_boxes", "addr:city": "ARTESIA", "addr:country": "US", "addr:full": "11871 DEL AMO BLVD", "addr:postcode": "90703", "addr:state": "CA", "amenity": "post_box", "brand": "United States Postal Service", "brand:wikidata": "Q668687", "collection_times": "Mo-Fr 12:30; Sa 13:00", "name": "USPS COLLECTION BOX - BLUE BOX", "note": "ON 12/24 AND 12/31, THIS BOX MAY BE COLLECTED AS EARLY AS 12 NOON.", "nsi_id": "unitedstatespostalservice-a77078", "operator": "United States Postal Service", "operator:short": "USPS", "operator:type": "public", "operator:wikidata": "Q668687", "ref": "9070300022"}, "type": "Feature"}
{"dataset_attributes": {"@spider": "usps_collection_boxes", "spider:collection_time": "2023-10-19T08:25:27.646942"}, "geometry": {"coordinates": [-118.057257, 33.865312], "type": "Point"}, "id": "JkjOn3uhCKmZtZ15_-XvQzX3_a4=", "properties": {"@spider": "usps_collection_boxes", "addr:city": "ARTESIA", "addr:country": "US", "addr:full": "18401 KAMSTRA AVE", "addr:postcode": "90703", "addr:state": "CA", "amenity": "post_box", "brand": "United States Postal Service", "brand:wikidata": "Q668687", "collection_times": "Mo-Sa 13:00", "name": "USPS COLLECTION BOX - BLUE BOX", "note": "ON 12/24 AND 12/31, THIS BOX MAY BE COLLECTED AS EARLY AS 12 NOON.", "nsi_id": "unitedstatespostalservice-a77078", "operator": "United States Postal Service", "operator:short": "USPS", "operator:type": "public", "operator:wikidata": "Q668687", "ref": "9070300026"}, "type": "Feature"}
{"dataset_attributes": {"@spider": "usps_collection_boxes", "spider:collection_time": "2023-10-19T08:25:27.646942"}, "geometry": {"coordinates": [-118.107026, 33.86542], "type": "Point"}, "id": "NPFcwc82KM3O2Nzeg3bZrSxz9S4=", "properties": {"@spider": "usps_collection_boxes", "addr:city": "ARTESIA", "addr:country": "US", "addr:full": "10735 LA JARA ST", "addr:postcode": "90703", "addr:state": "CA", "amenity": "post_box", "brand": "United States Postal Service", "brand:wikidata": "Q668687", "collection_times": "Mo-Fr 13:30; Sa 13:00", "name": "USPS COLLECTION BOX - BLUE BOX", "note": "ON 12/24 AND 12/31, THIS BOX MAY BE COLLECTED AS EARLY AS 12 NOON.", "nsi_id": "unitedstatespostalservice-a77078", "operator": "United States Postal Service", "operator:short": "USPS", "operator:type": "public", "operator:wikidata": "Q668687", "ref": "9070300027"}, "type": "Feature"}
{"dataset_attributes": {"@spider": "usps_collection_boxes", "spider:collection_time": "2023-10-19T08:25:27.646942"}, "geometry": {"coordinates": [-118.063434, 33.877254], "type": "Point"}, "id": "t7FJp_TuUNckYPjLJ7SO_5U_2Ho=", "properties": {"@spider": "usps_collection_boxes", "addr:city": "ARTESIA", "addr:country": "US", "addr:full": "12614 LUCAS ST", "addr:postcode": "90703", "addr:state": "CA", "amenity": "post_box", "brand": "United States Postal Service", "brand:wikidata": "Q668687", "collection_times": "Mo-Sa 13:00", "name": "USPS COLLECTION BOX - BLUE BOX", "note": "ON 12/24 AND 12/31, THIS BOX MAY BE COLLECTED AS EARLY AS 12 NOON.", "nsi_id": "unitedstatespostalservice-a77078", "operator": "United States Postal Service", "operator:short": "USPS", "operator:type": "public", "operator:wikidata": "Q668687", "ref": "9070300029"}, "type": "Feature"}
{"dataset_attributes": {"@spider": "usps_collection_boxes", "spider:collection_time": "2023-10-19T08:25:27.646942"}, "geometry": {"coordinates": [-118.072062, 33.875321], "type": "Point"}, "id": "CDsBWLA1oHivPRX1L_UkYk2sEzo=", "properties": {"@spider": "usps_collection_boxes", "addr:city": "ARTESIA", "addr:country": "US", "addr:full": "17100 NORWALK BLVD", "addr:postcode": "90703", "addr:state": "CA", "amenity": "post_box", "brand": "United States Postal Service", "brand:wikidata": "Q668687", "collection_times": "Mo-Fr 13:00", "name": "USPS COLLECTION BOX - BLUE BOX", "note": "ON 12/24 AND 12/31, THIS BOX MAY BE COLLECTED AS EARLY AS 12 NOON.", "nsi_id": "unitedstatespostalservice-a77078", "operator": "United States Postal Service", "operator:short": "USPS", "operator:type": "public", "operator:wikidata": "Q668687", "ref": "9070300031"}, "type": "Feature"}
{"dataset_attributes": {"@spider": "usps_collection_boxes", "spider:collection_time": "2023-10-19T08:25:27.646942"}, "geometry": {"coordinates": [-118.067166, 33.880799], "type": "Point"}, "id": "JZIcJMkYed92fKu-8jRvnS9D6h0=", "properties": {"@spider": "usps_collection_boxes", "addr:city": "ARTESIA", "addr:country": "US", "addr:full": "12517 PINEGROVE LN", "addr:postcode": "90703", "addr:state": "CA", "amenity": "post_box", "brand": "United States Postal Service", "brand:wikidata": "Q668687", "collection_times": "Mo-Sa 13:00", "name": "USPS COLLECTION BOX - BLUE BOX", "note": "ON 12/24 AND 12/31, THIS BOX MAY BE COLLECTED AS EARLY AS 12 NOON.", "nsi_id": "unitedstatespostalservice-a77078", "operator": "United States Postal Service", "operator:short": "USPS", "operator:type": "public", "operator:wikidata": "Q668687", "ref": "9070300032"}, "type": "Feature"}
{"dataset_attributes": {"@spider": "usps_collection_boxes", "spider:collection_time": "2023-10-19T08:25:27.646942"}, "geometry": {"coordinates": [-118.049711, 33.857521], "type": "Point"}, "id": "vBJupAMA38HNs6eiepwCHUu9BJY=", "properties": {"@spider": "usps_collection_boxes", "addr:city": "ARTESIA", "addr:country": "US", "addr:full": "19034 PIRES AVE", "addr:postcode": "90703", "addr:state": "CA", "amenity": "post_box", "brand": "United States Postal Service", "brand:wikidata": "Q668687", "collection_times": "Mo-Sa 13:00", "name": "USPS COLLECTION BOX - BLUE BOX", "note": "ON 12/24 AND 12/31, THIS BOX MAY BE COLLECTED AS EARLY AS 12 NOON.", "nsi_id": "unitedstatespostalservice-a77078", "operator": "United States Postal Service", "operator:short": "USPS", "operator:type": "public", "operator:wikidata": "Q668687", "ref": "9070300034"}, "type": "Feature"}
{"dataset_attributes": {"@spider": "usps_collection_boxes", "spider:collection_time": "2023-10-19T08:25:27.646942"}, "geometry": {"coordinates": [-118.064899, 33.884949], "type": "Point"}, "id": "WDq8s3cU5IW48H3YWVo3jFVrha4=", "properties": {"@spider": "usps_collection_boxes", "addr:city": "ARTESIA", "addr:country": "US", "addr:full": "12538 SANDYCREEK LN", "addr:postcode": "90703", "addr:state": "CA", "amenity": "post_box", "brand": "United States Postal Service", "brand:wikidata": "Q668687", "collection_times": "Mo-Sa 13:00", "name": "USPS COLLECTION BOX - BLUE BOX", "note": "ON 12/24 AND 12/31, THIS BOX MAY BE COLLECTED AS EARLY AS 12 NOON.", "nsi_id": "unitedstatespostalservice-a77078", "operator": "United States Postal Service", "operator:short": "USPS", "operator:type": "public", "operator:wikidata": "Q668687", "ref": "9070300035"}, "type": "Feature"}
{"dataset_attributes": {"@spider": "usps_collection_boxes", "spider:collection_time": "2023-10-19T08:25:27.646942"}, "geometry": {"coordinates": [-118.064799, 33.858461], "type": "Point"}, "id": "b9DeqrdpWTdsbwHfWwVTI_4sASc=", "properties": {"@spider": "usps_collection_boxes", "addr:city": "ARTESIA", "addr:country": "US", "addr:full": "12506 SOUTH ST", "addr:postcode": "90703", "addr:state": "CA", "amenity": "post_box", "brand": "United States Postal Service", "brand:wikidata": "Q668687", "collection_times": "Mo-Fr 12:30; Sa 13:00", "name": "USPS COLLECTION BOX - BLUE BOX", "note": "ON 12/24 AND 12/31, THIS BOX MAY BE COLLECTED AS EARLY AS 12 NOON.", "nsi_id": "unitedstatespostalservice-a77078", "operator": "United States Postal Service", "operator:short": "USPS", "operator:type": "public", "operator:wikidata": "Q668687", "ref": "9070300040"}, "type": "Feature"}
{"dataset_attributes": {"@spider": "usps_collection_boxes", "spider:collection_time": "2023-10-19T08:25:27.646942"}, "geometry": {"coordinates": [-118.090796, 33.861761], "type": "Point"}, "id": "o1gxGvDscIVIScQQLczsO1vHqM4=", "properties": {"@spider": "usps_collection_boxes", "addr:city": "ARTESIA", "addr:country": "US", "addr:full": "18642 GRIDLEY RD", "addr:postcode": "90703", "addr:state": "CA", "amenity": "post_box", "brand": "United States Postal Service", "brand:wikidata": "Q668687", "collection_times": "Mo-Fr 13:00", "name": "USPS COLLECTION BOX - BLUE BOX", "note": "ON 12/24 AND 12/31, THIS BOX MAY BE COLLECTED AS EARLY AS 12 NOON.", "nsi_id": "unitedstatespostalservice-a77078", "operator": "United States Postal Service", "operator:short": "USPS", "operator:type": "public", "operator:wikidata": "Q668687", "ref": "9070300041"}, "type": "Feature"}
{"dataset_attributes": {"@spider": "usps_collection_boxes", "spider:collection_time": "2023-10-19T08:25:27.646942"}, "geometry": {"coordinates": [-118.09661, 33.868294], "type": "Point"}, "id": "u_fAv1mk9ija-pFDt0jQmR8tjaY=", "properties": {"@spider": "usps_collection_boxes", "addr:city": "ARTESIA", "addr:country": "US", "addr:full": "18000 STUDEBAKER RD", "addr:postcode": "90703", "addr:state": "CA", "amenity": "post_box", "brand": "United States Postal Service", "brand:wikidata": "Q668687", "collection_times": "Mo-Fr 13:00", "name": "USPS COLLECTION BOX - BLUE BOX", "note": "ON 12/24 AND 12/31, THIS BOX MAY BE COLLECTED AS EARLY AS 12 NOON.", "nsi_id": "unitedstatespostalservice-a77078", "operator": "United States Postal Service", "operator:short": "USPS", "operator:type": "public", "operator:wikidata": "Q668687", "ref": "9070300044"}, "type": "Feature"}
{"dataset_attributes": {"@spider": "usps_collection_boxes", "spider:collection_time": "2023-10-19T08:25:27.646942"}, "geometry": {"coordinates": [-118.096589, 33.868295], "type": "Point"}, "id": "mQHK3OV0pD3HyO_Js96H6rxQgfA=", "properties": {"@spider": "usps_collection_boxes", "addr:city": "ARTESIA", "addr:country": "US", "addr:full": "18000 STUDEBAKER RD", "addr:postcode": "90703", "addr:state": "CA", "amenity": "post_box", "brand": "United States Postal Service", "brand:wikidata": "Q668687", "collection_times": "Mo-Fr 13:00", "name": "USPS COLLECTION BOX - BLUE BOX", "note": "ON 12/24 AND 12/31, THIS BOX MAY BE COLLECTED AS EARLY AS 12 NOON.", "nsi_id": "unitedstatespostalservice-a77078", "operator": "United States Postal Service", "operator:short": "USPS", "operator:type": "public", "operator:wikidata": "Q668687", "ref": "9070300045"}, "type": "Feature"}
{"dataset_attributes": {"@spider": "usps_collection_boxes", "spider:collection_time": "2023-10-19T08:25:27.646942"}, "geometry": {"coordinates": [-118.052858, 33.859382], "type": "Point"}, "id": "7CRw6dumY3M6TBzhEyR4LCXO9EA=", "properties": {"@spider": "usps_collection_boxes", "addr:city": "ARTESIA", "addr:country": "US", "addr:full": "18943 VICKIE AVE", "addr:postcode": "90703", "addr:state": "CA", "amenity": "post_box", "brand": "United States Postal Service", "brand:wikidata": "Q668687", "collection_times": "Mo-Sa 13:00", "name": "USPS COLLECTION BOX - BLUE BOX", "note": "ON 12/24 AND 12/31, THIS BOX MAY BE COLLECTED AS EARLY AS 12 NOON.", "nsi_id": "unitedstatespostalservice-a77078", "operator": "United States Postal Service", "operator:short": "USPS", "operator:type": "public", "operator:wikidata": "Q668687", "ref": "9070300050"}, "type": "Feature"}
{"dataset_attributes": {"@spider": "usps_collection_boxes", "spider:collection_time": "2023-10-19T08:25:27.646942"}, "geometry": {"coordinates": [-118.102299, 33.865164], "type": "Point"}, "id": "yC2jOwIz2y6_AGptOf3xwHEup-o=", "properties": {"@spider": "usps_collection_boxes", "addr:city": "ARTESIA", "addr:country": "US", "addr:full": "10900 183RD ST", "addr:postcode": "90703", "addr:state": "CA", "amenity": "post_box", "brand": "United States Postal Service", "brand:wikidata": "Q668687", "collection_times": "Mo-Fr 13:30", "name": "USPS COLLECTION BOX - BLUE BOX", "note": "ON 12/24 AND 12/31, THIS BOX MAY BE COLLECTED AS EARLY AS 12 NOON.", "nsi_id": "unitedstatespostalservice-a77078", "operator": "United States Postal Service", "operator:short": "USPS", "operator:type": "public", "operator:wikidata": "Q668687", "ref": "9070300051"}, "type": "Feature"}
{"dataset_attributes": {"@spider": "usps_collection_boxes", "spider:collection_time": "2023-10-19T08:25:27.646942"}, "geometry": {"coordinates": [-118.0457055, 33.866469], "type": "Point"}, "id": "UHKF2N9axMpsRjNOKQ8XskSIRL8=", "properties": {"@spider": "usps_collection_boxes", "addr:city": "ARTESIA", "addr:country": "US", "addr:full": "18122 CARMENITA RD LOBBY", "addr:postcode": "90703", "addr:state": "CA", "amenity": "post_box", "brand": "United States Postal Service", "brand:wikidata": "Q668687", "collection_times": "Mo-Fr 16:30; Sa 13:00", "name": "USPS COLLECTION BOX - PO LOBBY", "note": "ON 12/24 AND 12/31, THIS BOX MAY BE COLLECTED AS EARLY AS 12 NOON.", "nsi_id": "unitedstatespostalservice-a77078", "operator": "United States Postal Service", "operator:short": "USPS", "operator:type": "public", "operator:wikidata": "Q668687", "ref": "9070300069"}, "type": "Feature"}
{"dataset_attributes": {"@spider": "usps_collection_boxes", "spider:collection_time": "2023-10-19T08:25:27.646942"}, "geometry": {"coordinates": [-118.326641, 33.344177], "type": "Point"}, "id": "SQ_rKOVNvyK9Kz3BJOmwfgoEtaA=", "properties": {"@spider": "usps_collection_boxes", "addr:city": "AVALON", "addr:country": "US", "addr:full": "118 METROPOLE ST", "addr:postcode": "90704", "addr:state": "CA", "amenity": "post_box", "brand": "United States Postal Service", "brand:wikidata": "Q668687", "collection_times": "Mo-Fr 15:00; Sa 12:15", "name": "USPS COLLECTION BOX - BLUE BOX", "note": "ON 12/24 AND 12/31, THIS BOX MAY BE COLLECTED AS EARLY AS 12 NOON.", "nsi_id": "unitedstatespostalservice-a77078", "operator": "United States Postal Service", "operator:short": "USPS", "operator:type": "public", "operator:wikidata": "Q668687", "ref": "9070400003"}, "type": "Feature"}
{"dataset_attributes": {"@spider": "usps_collection_boxes", "spider:collection_time": "2023-10-19T08:25:27.646942"}, "geometry": {"coordinates": [-118.3243873561, 33.3429134692], "type": "Point"}, "id": "mNG1ng8NSuRLqEt9IWzDRMy1FbY=", "properties": {"@spider": "usps_collection_boxes", "addr:city": "AVALON", "addr:country": "US", "addr:full": "604 CRESCENT ST", "addr:postcode": "90704", "addr:state": "CA", "amenity": "post_box", "brand": "United States Postal Service", "brand:wikidata": "Q668687", "collection_times": "Mo-Fr 15:00; Sa 12:15", "name": "USPS COLLECTION BOX - BLUE BOX", "note": "ON 12/24 AND 12/31, THIS BOX MAY BE COLLECTED AS EARLY AS 12 NOON.", "nsi_id": "unitedstatespostalservice-a77078", "operator": "United States Postal Service", "operator:short": "USPS", "operator:type": "public", "operator:wikidata": "Q668687", "ref": "9070400005"}, "type": "Feature"}
{"dataset_attributes": {"@spider": "usps_collection_boxes", "spider:collection_time": "2023-10-19T08:25:27.646942"}, "geometry": {"coordinates": [-118.3266072961, 33.3441526388], "type": "Point"}, "id": "4mYrNMCd5l7mzRfJWZE1iFNtwqo=", "properties": {"@spider": "usps_collection_boxes", "addr:city": "AVALON", "addr:country": "US", "addr:full": "118 METROPOLE ST LBBY", "addr:postcode": "90704", "addr:state": "CA", "amenity": "post_box", "brand": "United States Postal Service", "brand:wikidata": "Q668687", "collection_times": "Mo-Fr 15:15; Sa 12:15", "name": "USPS COLLECTION BOX - PO LOBBY", "note": "ON 12/24 AND 12/31, THIS BOX MAY BE COLLECTED AS EARLY AS 12 NOON.", "nsi_id": "unitedstatespostalservice-a77078", "operator": "United States Postal Service", "operator:short": "USPS", "operator:type": "public", "operator:wikidata": "Q668687", "ref": "9070400006"}, "type": "Feature"}
{"dataset_attributes": {"@spider": "usps_collection_boxes", "spider:collection_time": "2023-10-19T08:25:27.646942"}, "geometry": {"coordinates": [-118.3320776759, 33.3422707461], "type": "Point"}, "id": "XYSFM4Cs8R9JqjBQVDwnaU86ZYk=", "properties": {"@spider": "usps_collection_boxes", "addr:city": "AVALON", "addr:country": "US", "addr:full": "1 BANNING HOUSE RD", "addr:postcode": "90704", "addr:state": "CA", "amenity": "post_box", "brand": "United States Postal Service", "brand:wikidata": "Q668687", "collection_times": "Mo-Fr 10:00", "name": "USPS COLLECTION BOX - BLUE BOX", "nsi_id": "unitedstatespostalservice-a77078", "operator": "United States Postal Service", "operator:short": "USPS", "operator:type": "public", "operator:wikidata": "Q668687", "ref": "9070400008"}, "type": "Feature"}
{"dataset_attributes": {"@spider": "usps_collection_boxes", "spider:collection_time": "2023-10-19T08:25:27.646942"}, "geometry": {"coordinates": [-118.326618336, 33.3441561833], "type": "Point"}, "id": "Q7suP3n6pXV671wUEr1SXLr4PJI=", "properties": {"@spider": "usps_collection_boxes", "addr:city": "AVALON", "addr:country": "US", "addr:full": "118 METROPOLE ST LOBBY", "addr:postcode": "90704", "addr:state": "CA", "amenity": "post_box", "brand": "United States Postal Service", "brand:wikidata": "Q668687", "collection_times": "Mo-Fr 15:15; Sa 12:15", "name": "USPS COLLECTION BOX - PO LOBBY", "note": "ON 12/24 AND 12/31, THIS BOX MAY BE COLLECTED AS EARLY AS 12 NOON.", "nsi_id": "unitedstatespostalservice-a77078", "operator": "United States Postal Service", "operator:short": "USPS", "operator:type": "public", "operator:wikidata": "Q668687", "ref": "9070400009"}, "type": "Feature"}
{"dataset_attributes": {"@spider": "usps_collection_boxes", "spider:collection_time": "2023-10-19T08:25:27.646942"}, "geometry": {"coordinates": [-118.123954999, 33.882583996], "type": "Point"}, "id": "QDBzYAiLwZbvF5FmHy7hk9OxpqQ=", "properties": {"@spider": "usps_collection_boxes", "addr:city": "BELLFLOWER", "addr:country": "US", "addr:full": "9835 FLOWER ST", "addr:postcode": "90706", "addr:state": "CA", "amenity": "post_box", "brand": "United States Postal Service", "brand:wikidata": "Q668687", "collection_times": "Mo-Fr 17:00; Sa 16:30", "name": "USPS COLLECTION BOX - BLUE BOX", "note": "ON 12/24 AND 12/31, THIS BOX MAY BE COLLECTED AS EARLY AS 12 NOON.", "nsi_id": "unitedstatespostalservice-a77078", "operator": "United States Postal Service", "operator:short": "USPS", "operator:type": "public", "operator:wikidata": "Q668687", "ref": "9070600017"}, "type": "Feature"}
{"dataset_attributes": {"@spider": "usps_collection_boxes", "spider:collection_time": "2023-10-19T08:25:27.646942"}, "geometry": {"coordinates": [-118.134044, 33.880124], "type": "Point"}, "id": "yZPFqhmwXq-emGkYnBf8gw0YlC8=", "properties": {"@spider": "usps_collection_boxes", "addr:city": "BELLFLOWER", "addr:country": "US", "addr:full": "17011 CLARK AVE", "addr:postcode": "90706", "addr:state": "CA", "amenity": "post_box", "brand": "United States Postal Service", "brand:wikidata": "Q668687", "collection_times": "Mo-Sa 13:00", "name": "USPS COLLECTION BOX - BLUE BOX", "note": "ON 12/24 AND 12/31, THIS BOX MAY BE COLLECTED AS EARLY AS 12 NOON.", "nsi_id": "unitedstatespostalservice-a77078", "operator": "United States Postal Service", "operator:short": "USPS", "operator:type": "public", "operator:wikidata": "Q668687", "ref": "9070600027"}, "type": "Feature"}
{"dataset_attributes": {"@spider": "usps_collection_boxes", "spider:collection_time": "2023-10-19T08:25:27.646942"}, "geometry": {"coordinates": [-118.139553, 33.896644], "type": "Point"}, "id": "8WK2O9rUxrNy81xuYmnh9SP6_AQ=", "properties": {"@spider": "usps_collection_boxes", "addr:city": "BELLFLOWER", "addr:country": "US", "addr:full": "9135 SOMERSET BLVD", "addr:postcode": "90706", "addr:state": "CA", "amenity": "post_box", "brand": "United States Postal Service", "brand:wikidata": "Q668687", "collection_times": "Mo-Sa 13:00", "name": "USPS COLLECTION BOX - BLUE BOX", "note": "ON 12/24 AND 12/31, THIS BOX MAY BE COLLECTED AS EARLY AS 12 NOON.", "nsi_id": "unitedstatespostalservice-a77078", "operator": "United States Postal Service", "operator:short": "USPS", "operator:type": "public", "operator:wikidata": "Q668687", "ref": "9070600028"}, "type": "Feature"}
{"dataset_attributes": {"@spider": "usps_collection_boxes", "spider:collection_time": "2023-10-19T08:25:27.646942"}, "geometry": {"coordinates": [-118.12096, 33.882188], "type": "Point"}, "id": "5llCkJRIimrzloapG0zsridWJzM=", "properties": {"@spider": "usps_collection_boxes", "addr:city": "BELLFLOWER", "addr:country": "US", "addr:full": "10005 FLOWER ST", "addr:postcode": "90706", "addr:state": "CA", "amenity": "post_box", "brand": "United States Postal Service", "brand:wikidata": "Q668687", "collection_times": "Mo-Sa 15:00", "name": "USPS COLLECTION BOX - BLUE BOX", "note": "ON 12/24 AND 12/31, THIS BOX MAY BE COLLECTED AS EARLY AS 12 NOON.", "nsi_id": "unitedstatespostalservice-a77078", "operator": "United States Postal Service", "operator:short": "USPS", "operator:type": "public", "operator:wikidata": "Q668687", "ref": "9070600031"}, "type": "Feature"}
{"dataset_attributes": {"@spider": "usps_collection_boxes", "spider:collection_time": "2023-10-19T08:25:27.646942"}, "geometry": {"coordinates": [-118.113352, 33.901924], "type": "Point"}, "id": "-QATncx9kxp7k8P2AOcEhIDy-Ro=", "properties": {"@spider": "usps_collection_boxes", "addr:city": "BELLFLOWER", "addr:country": "US", "addr:full": "10318 ROSECRANS AVE", "addr:postcode": "90706", "addr:state": "CA", "amenity": "post_box", "brand": "United States Postal Service", "brand:wikidata": "Q668687", "collection_times": "Mo-Sa 13:00", "name": "USPS COLLECTION BOX - BLUE BOX", "note": "ON 12/24 AND 12/31, THIS BOX MAY BE COLLECTED AS EARLY AS 12 NOON.", "nsi_id": "unitedstatespostalservice-a77078", "operator": "United States Postal Service", "operator:short": "USPS", "operator:type": "public", "operator:wikidata": "Q668687", "ref": "9070600042"}, "type": "Feature"}
{"dataset_attributes": {"@spider": "usps_collection_boxes", "spider:collection_time": "2023-10-19T08:25:27.646942"}, "geometry": {"coordinates": [-118.1305661, 33.876614], "type": "Point"}, "id": "LtCj0gz9dS1AERVTdNBEXbWZL2U=", "properties": {"@spider": "usps_collection_boxes", "addr:city": "BELLFLOWER", "addr:country": "US", "addr:full": "16606 WOODRUFF AVE", "addr:postcode": "90706", "addr:state": "CA", "amenity": "post_box", "brand": "United States Postal Service", "brand:wikidata": "Q668687", "collection_times": "Mo-Sa 13:00", "name": "USPS COLLECTION BOX - BLUE BOX", "note": "ON 12/24 AND 12/31, THIS BOX MAY BE COLLECTED AS EARLY AS 12 NOON.", "nsi_id": "unitedstatespostalservice-a77078", "operator": "United States Postal Service", "operator:short": "USPS", "operator:type": "public", "operator:wikidata": "Q668687", "ref": "9070600047"}, "type": "Feature"}
{"dataset_attributes": {"@spider": "usps_collection_boxes", "spider:collection_time": "2023-10-19T08:25:27.646942"}, "geometry": {"coordinates": [-118.12395, 33.882194], "type": "Point"}, "id": "t_zM28L0OdfSHTY5bZKwhBguHuY=", "properties": {"@spider": "usps_collection_boxes", "addr:city": "BELLFLOWER", "addr:country": "US", "addr:full": "9835 FLOWER ST", "addr:postcode": "90706", "addr:state": "CA", "amenity": "post_box", "brand": "United States Postal Service", "brand:wikidata": "Q668687", "collection_times": "Mo-Fr 17:00; Sa 16:30", "name": "USPS COLLECTION BOX - BLUE BOX", "note": "ON 12/24 AND 12/31, THIS BOX MAY BE COLLECTED AS EARLY AS 12 NOON.", "nsi_id": "unitedstatespostalservice-a77078", "operator": "United States Postal Service", "operator:short": "USPS", "operator:type": "public", "operator:wikidata": "Q668687", "ref": "9070600055"}, "type": "Feature"}
{"dataset_attributes": {"@spider": "usps_collection_boxes", "spider:collection_time": "2023-10-19T08:25:27.646942"}, "geometry": {"coordinates": [-118.1226591104, 33.8820342985], "type": "Point"}, "id": "VomOrkc8OIU2MWV5IUHnOcVheaM=", "properties": {"@spider": "usps_collection_boxes", "addr:city": "BELLFLOWER", "addr:country": "US", "addr:full": "9910 FLOWER ST", "addr:postcode": "90706", "addr:state": "CA", "amenity": "post_box", "brand": "United States Postal Service", "brand:wikidata": "Q668687", "collection_times": "Mo-Sa 15:00", "name": "USPS COLLECTION BOX - BLUE BOX", "note": "ON 12/24 AND 12/31, THIS BOX MAY BE COLLECTED AS EARLY AS 12 NOON.", "nsi_id": "unitedstatespostalservice-a77078", "operator": "United States Postal Service", "operator:short": "USPS", "operator:type": "public", "operator:wikidata": "Q668687", "ref": "9070600057"}, "type": "Feature"}
{"dataset_attributes": {"@spider": "usps_collection_boxes", "spider:collection_time": "2023-10-19T08:25:27.646942"}, "geometry": {"coordinates": [-118.123954999, 33.882583996], "type": "Point"}, "id": "xD5OKXIVJLIGVzqO-vsuRNySU0Q=", "properties": {"@spider": "usps_collection_boxes", "addr:city": "BELLFLOWER", "addr:country": "US", "addr:full": "9835 FLOWER ST LOBBY", "addr:postcode": "90706", "addr:state": "CA", "amenity": "post_box", "brand": "United States Postal Service", "brand:wikidata": "Q668687", "collection_times": "Mo-Fr 17:00; Sa 16:30", "name": "USPS COLLECTION BOX - PO LOBBY", "note": "ON 12/24 AND 12/31, THIS BOX MAY BE COLLECTED AS EARLY AS 12 NOON.", "nsi_id": "unitedstatespostalservice-a77078", "operator": "United States Postal Service", "operator:short": "USPS", "operator:type": "public", "operator:wikidata": "Q668687", "ref": "9070600061"}, "type": "Feature"}
{"dataset_attributes": {"@spider": "usps_collection_boxes", "spider:collection_time": "2023-10-19T08:25:27.646942"}, "geometry": {"coordinates": [-118.123954999, 33.882583996], "type": "Point"}, "id": "reYd7E2vESMo16ZoqsJ7YbJavU0=", "properties": {"@spider": "usps_collection_boxes", "addr:city": "BELLFLOWER", "addr:country": "US", "addr:full": "9835 FLOWER ST LOBBY", "addr:postcode": "90706", "addr:state": "CA", "amenity": "post_box", "brand": "United States Postal Service", "brand:wikidata": "Q668687", "collection_times": "Mo-Fr 17:00; Sa 16:30", "name": "USPS COLLECTION BOX - APC", "note": "ON 12/24 AND 12/31, THIS BOX MAY BE COLLECTED AS EARLY AS 12 NOON.", "nsi_id": "unitedstatespostalservice-a77078", "operator": "United States Postal Service", "operator:short": "USPS", "operator:type": "public", "operator:wikidata": "Q668687", "ref": "9070600062"}, "type": "Feature"}
{"dataset_attributes": {"@spider": "usps_collection_boxes", "spider:collection_time": "2023-10-19T08:25:27.646942"}, "geometry": {"coordinates": [-118.123954999, 33.882583996], "type": "Point"}, "id": "Z_zy02zB5uteaxv-wea3vll6BjE=", "properties": {"@spider": "usps_collection_boxes", "addr:city": "BELLFLOWER", "addr:country": "US", "addr:full": "9835 FLOWER ST LOBBY", "addr:postcode": "90706", "addr:state": "CA", "amenity": "post_box", "brand": "United States Postal Service", "brand:wikidata": "Q668687", "collection_times": "Mo-Fr 17:00; Sa 16:30", "name": "USPS COLLECTION BOX - PO LOBBY", "note": "ON 12/24 AND 12/31, THIS BOX MAY BE COLLECTED AS EARLY AS 12 NOON.", "nsi_id": "unitedstatespostalservice-a77078", "operator": "United States Postal Service", "operator:short": "USPS", "operator:type": "public", "operator:wikidata": "Q668687", "ref": "9070600067"}, "type": "Feature"}
{"dataset_attributes": {"@spider": "usps_collection_boxes", "spider:collection_time": "2023-10-19T08:25:27.646942"}, "geometry": {"coordinates": [-118.29818, 33.809803], "type": "Point"}, "id": "SMay_cYC8x4W9FO__rhxx7mm3bk=", "properties": {"@spider": "usps_collection_boxes", "addr:city": "HARBOR CITY", "addr:country": "US", "addr:full": "1232 OAKHEATH DR", "addr:postcode": "90710", "addr:state": "CA", "amenity": "post_box", "brand": "United States Postal Service", "brand:wikidata": "Q668687", "collection_times": "Mo-Sa 13:00", "name": "USPS COLLECTION BOX - BLUE BOX", "note": "ON 12/24 AND 12/31, THIS BOX MAY BE COLLECTED AS EARLY AS 12 NOON.", "nsi_id": "unitedstatespostalservice-a77078", "operator": "United States Postal Service", "operator:short": "USPS", "operator:type": "public", "operator:wikidata": "Q668687", "ref": "9071000008"}, "type": "Feature"}
{"dataset_attributes": {"@spider": "usps_collection_boxes", "spider:collection_time": "2023-10-19T08:25:27.646942"}, "geometry": {"coordinates": [-118.304163, 33.789363], "type": "Point"}, "id": "hvQswQW7JvwjqcLtqAAmywjo9xU=", "properties": {"@spider": "usps_collection_boxes", "addr:city": "HARBOR CITY", "addr:country": "US", "addr:full": "1544 PACIFIC COAST HWY", "addr:postcode": "90710", "addr:state": "CA", "amenity": "post_box", "brand": "United States Postal Service", "brand:wikidata": "Q668687", "collection_times": "Mo-Sa 13:00", "name": "USPS COLLECTION BOX - BLUE BOX", "note": "ON 12/24 AND 12/31, THIS BOX MAY BE COLLECTED AS EARLY AS 12 NOON.", "nsi_id": "unitedstatespostalservice-a77078", "operator": "United States Postal Service", "operator:short": "USPS", "operator:type": "public", "operator:wikidata": "Q668687", "ref": "9071000022"}, "type": "Feature"}
{"dataset_attributes": {"@spider": "usps_collection_boxes", "spider:collection_time": "2023-10-19T08:25:27.646942"}, "geometry": {"coordinates": [-118.299732, 33.791007], "type": "Point"}, "id": "FcTjN9upkLKQ-yzxdeyWHecwk9g=", "properties": {"@spider": "usps_collection_boxes", "addr:city": "HARBOR CITY", "addr:country": "US", "addr:full": "25690 FRAMPTON AVE", "addr:postcode": "90710", "addr:state": "CA", "amenity": "post_box", "brand": "United States Postal Service", "brand:wikidata": "Q668687", "collection_times": "Mo-Fr 17:00; Sa 16:30", "name": "USPS COLLECTION BOX - BLUE BOX", "note": "ON 12/24 AND 12/31, THIS BOX MAY BE COLLECTED AS EARLY AS 12 NOON.", "nsi_id": "unitedstatespostalservice-a77078", "operator": "United States Postal Service", "operator:short": "USPS", "operator:type": "public", "operator:wikidata": "Q668687", "ref": "9071000024"}, "type": "Feature"}
{"dataset_attributes": {"@spider": "usps_collection_boxes", "spider:collection_time": "2023-10-19T08:25:27.646942"}, "geometry": {"coordinates": [-118.295049, 33.798949], "type": "Point"}, "id": "pWrAFkdv1veEYU__gf8ki66JbzU=", "properties": {"@spider": "usps_collection_boxes", "addr:city": "HARBOR CITY", "addr:country": "US", "addr:full": "1065 LOMITA BLVD", "addr:postcode": "90710", "addr:state": "CA", "amenity": "post_box", "brand": "United States Postal Service", "brand:wikidata": "Q668687", "collection_times": "Mo-Sa 13:00", "name": "USPS COLLECTION BOX - BLUE BOX", "note": "ON 12/24 AND 12/31, THIS BOX MAY BE COLLECTED AS EARLY AS 12 NOON.", "nsi_id": "unitedstatespostalservice-a77078", "operator": "United States Postal Service", "operator:short": "USPS", "operator:type": "public", "operator:wikidata": "Q668687", "ref": "9071000029"}, "type": "Feature"}
{"dataset_attributes": {"@spider": "usps_collection_boxes", "spider:collection_time": "2023-10-19T08:25:27.646942"}, "geometry": {"coordinates": [-118.2999013673, 33.7910645425], "type": "Point"}, "id": "QtIKkTvZIjldweudUM6xXnkoH-I=", "properties": {"@spider": "usps_collection_boxes", "addr:city": "HARBOR CITY", "addr:country": "US", "addr:full": "25690 FRAMPTON AVE LOBBY", "addr:postcode": "90710", "addr:state": "CA", "amenity": "post_box", "brand": "United States Postal Service", "brand:wikidata": "Q668687", "collection_times": "Mo-Fr 17:00; Sa 15:30", "name": "USPS COLLECTION BOX - PO LOBBY", "note": "ON 12/24 AND 12/31, THIS BOX MAY BE COLLECTED AS EARLY AS 12 NOON.", "nsi_id": "unitedstatespostalservice-a77078", "operator": "United States Postal Service", "operator:short": "USPS", "operator:type": "public", "operator:wikidata": "Q668687", "ref": "9071000031"}, "type": "Feature"}
{"dataset_attributes": {"@spider": "usps_collection_boxes", "spider:collection_time": "2023-10-19T08:25:27.646942"}, "geometry": {"coordinates": [-118.28728, 33.797225], "type": "Point"}, "id": "33L6hHOSHaSGj5XnbT2Ee2j2VzM=", "properties": {"@spider": "usps_collection_boxes", "addr:city": "HARBOR CITY", "addr:country": "US", "addr:full": "760 LOMITA BLVD", "addr:postcode": "90710", "addr:state": "CA", "amenity": "post_box", "brand": "United States Postal Service", "brand:wikidata": "Q668687", "collection_times": "Mo-Sa 13:00", "name": "USPS COLLECTION BOX - BLUE BOX", "note": "ON 12/24 AND 12/31, THIS BOX MAY BE COLLECTED AS EARLY AS 12 NOON.", "nsi_id": "unitedstatespostalservice-a77078", "operator": "United States Postal Service", "operator:short": "USPS", "operator:type": "public", "operator:wikidata": "Q668687", "ref": "9071000032"}, "type": "Feature"}
{"dataset_attributes": {"@spider": "usps_collection_boxes", "spider:collection_time": "2023-10-19T08:25:27.646942"}, "geometry": {"coordinates": [-118.299901367, 33.791064543], "type": "Point"}, "id": "Nd6LbuVfCAsRybKGmGfG2SUCPw8=", "properties": {"@spider": "usps_collection_boxes", "addr:city": "HARBOR CITY", "addr:country": "US", "addr:full": "25690 FRAMPTON AVE LOBBY", "addr:postcode": "90710", "addr:state": "CA", "amenity": "post_box", "brand": "United States Postal Service", "brand:wikidata": "Q668687", "collection_times": "Mo-Fr 17:00; Sa 15:30", "name": "USPS COLLECTION BOX - PO LOBBY", "note": "ON 12/24 AND 12/31, THIS BOX MAY BE COLLECTED AS EARLY AS 12 NOON.", "nsi_id": "unitedstatespostalservice-a77078", "operator": "United States Postal Service", "operator:short": "USPS", "operator:type": "public", "operator:wikidata": "Q668687", "ref": "9071000038"}, "type": "Feature"}
{"dataset_attributes": {"@spider": "usps_collection_boxes", "spider:collection_time": "2023-10-19T08:25:27.646942"}, "geometry": {"coordinates": [-118.133459, 33.852119], "type": "Point"}, "id": "RqIyccDgiqxq13ujDND1ygFeOL8=", "properties": {"@spider": "usps_collection_boxes", "addr:city": "LAKEWOOD", "addr:country": "US", "addr:full": "5200 CLARK AVE", "addr:postcode": "90712", "addr:state": "CA", "amenity": "post_box", "brand": "United States Postal Service", "brand:wikidata": "Q668687", "collection_times": "Mo-Sa 17:00", "name": "USPS COLLECTION BOX - BLUE BOX", "note": "ON 12/24 AND 12/31, THIS BOX MAY BE COLLECTED AS EARLY AS 12 NOON.", "nsi_id": "unitedstatespostalservice-a77078", "operator": "United States Postal Service", "operator:short": "USPS", "operator:type": "public", "operator:wikidata": "Q668687", "ref": "9071200012"}, "type": "Feature"}
{"dataset_attributes": {"@spider": "usps_collection_boxes", "spider:collection_time": "2023-10-19T08:25:27.646942"}, "geometry": {"coordinates": [-118.132322, 33.852086], "type": "Point"}, "id": "Rgn0FEzsD_RC4xYToXs9kMjAzj8=", "properties": {"@spider": "usps_collection_boxes", "addr:city": "LAKEWOOD", "addr:country": "US", "addr:full": "5201 CIVIC CENTER WAY", "addr:postcode": "90712", "addr:state": "CA", "amenity": "post_box", "brand": "United States Postal Service", "brand:wikidata": "Q668687", "collection_times": "Mo-Sa 17:00", "name": "USPS COLLECTION BOX - BLUE BOX", "note": "ON 12/24 AND 12/31, THIS BOX MAY BE COLLECTED AS EARLY AS 12 NOON.", "nsi_id": "unitedstatespostalservice-a77078", "operator": "United States Postal Service", "operator:short": "USPS", "operator:type": "public", "operator:wikidata": "Q668687", "ref": "9071200051"}, "type": "Feature"}
{"dataset_attributes": {"@spider": "usps_collection_boxes", "spider:collection_time": "2023-10-19T08:25:27.646942"}, "geometry": {"coordinates": [-118.154977, 33.831739], "type": "Point"}, "id": "FMhlAj3LPOrvb-7E4zYLdIyvn3M=", "properties": {"@spider": "usps_collection_boxes", "addr:city": "LAKEWOOD", "addr:country": "US", "addr:full": "4010 WATSON PLAZA DR", "addr:postcode": "90712", "addr:state": "CA", "amenity": "post_box", "brand": "United States Postal Service", "brand:wikidata": "Q668687", "collection_times": "Mo-Fr 13:00", "name": "USPS COLLECTION BOX - BLUE BOX", "note": "ON 12/24 AND 12/31, THIS BOX MAY BE COLLECTED AS EARLY AS 12 NOON.", "nsi_id": "unitedstatespostalservice-a77078", "operator": "United States Postal Service", "operator:short": "USPS", "operator:type": "public", "operator:wikidata": "Q668687", "ref": "9071200056"}, "type": "Feature"}
{"dataset_attributes": {"@spider": "usps_collection_boxes", "spider:collection_time": "2023-10-19T08:25:27.646942"}, "geometry": {"coordinates": [-118.115631, 33.856875], "type": "Point"}, "id": "Sk8oeZ-XrUcf-EY7qYERv50M0cU=", "properties": {"@spider": "usps_collection_boxes", "addr:city": "LAKEWOOD", "addr:country": "US", "addr:full": "5500 WOODRUFF AVE", "addr:postcode": "90713", "addr:state": "CA", "amenity": "post_box", "brand": "United States Postal Service", "brand:wikidata": "Q668687", "collection_times": "Mo-Fr 13:00", "name": "USPS COLLECTION BOX - BLUE BOX", "note": "ON 12/24 AND 12/31, THIS BOX MAY BE COLLECTED AS EARLY AS 12 NOON.", "nsi_id": "unitedstatespostalservice-a77078", "operator": "United States Postal Service", "operator:short": "USPS", "operator:type": "public", "operator:wikidata": "Q668687", "ref": "9071300008"}, "type": "Feature"}
{"dataset_attributes": {"@spider": "usps_collection_boxes", "spider:collection_time": "2023-10-19T08:25:27.646942"}, "geometry": {"coordinates": [-118.133753484, 33.852195], "type": "Point"}, "id": "EWUNRYH_6KIzIoIF6TXhLoIfthE=", "properties": {"@spider": "usps_collection_boxes", "addr:city": "LAKEWOOD", "addr:country": "US", "addr:full": "5200 CLARK AVE LOBBY", "addr:postcode": "90714", "addr:state": "CA", "amenity": "post_box", "brand": "United States Postal Service", "brand:wikidata": "Q668687", "collection_times": "Mo-Sa 17:00", "name": "USPS COLLECTION BOX - PO LOBBY", "note": "ON 12/24 AND 12/31, THIS BOX MAY BE COLLECTED AS EARLY AS 12 NOON.", "nsi_id": "unitedstatespostalservice-a77078", "operator": "United States Postal Service", "operator:short": "USPS", "operator:type": "public", "operator:wikidata": "Q668687", "ref": "9071400000"}, "type": "Feature"}
{"dataset_attributes": {"@spider": "usps_collection_boxes", "spider:collection_time": "2023-10-19T08:25:27.646942"}, "geometry": {"coordinates": [-118.133649, 33.852387], "type": "Point"}, "id": "3IzFceR3be6vaeMG6DQr6ExjPYs=", "properties": {"@spider": "usps_collection_boxes", "addr:city": "LAKEWOOD", "addr:country": "US", "addr:full": "5200 CLARK AVE", "addr:postcode": "90714", "addr:state": "CA", "amenity": "post_box", "brand": "United States Postal Service", "brand:wikidata": "Q668687", "collection_times": "Mo-Sa 17:00", "name": "USPS COLLECTION BOX - BLUE BOX", "note": "ON 12/24 AND 12/31, THIS BOX MAY BE COLLECTED AS EARLY AS 12 NOON.", "nsi_id": "unitedstatespostalservice-a77078", "operator": "United States Postal Service", "operator:short": "USPS", "operator:type": "public", "operator:wikidata": "Q668687", "ref": "9071400003"}, "type": "Feature"}
{"dataset_attributes": {"@spider": "usps_collection_boxes", "spider:collection_time": "2023-10-19T08:25:27.646942"}, "geometry": {"coordinates": [-118.133753484, 33.852195], "type": "Point"}, "id": "ojFXqvbHfdf-5Emt1rGSPAd7DIw=", "properties": {"@spider": "usps_collection_boxes", "addr:city": "LAKEWOOD", "addr:country": "US", "addr:full": "5200 CLARK AVE LOBBY", "addr:postcode": "90714", "addr:state": "CA", "amenity": "post_box", "brand": "United States Postal Service", "brand:wikidata": "Q668687", "collection_times": "Mo-Sa 17:00", "name": "USPS COLLECTION BOX - APC", "note": "ON 12/24 AND 12/31, THIS BOX MAY BE COLLECTED AS EARLY AS 12 NOON.", "nsi_id": "unitedstatespostalservice-a77078", "operator": "United States Postal Service", "operator:short": "USPS", "operator:type": "public", "operator:wikidata": "Q668687", "ref": "9071400007"}, "type": "Feature"}
{"dataset_attributes": {"@spider": "usps_collection_boxes", "spider:collection_time": "2023-10-19T08:25:27.646942"}, "geometry": {"coordinates": [-118.133753484, 33.852195], "type": "Point"}, "id": "JtNXYC0IrklWN-WpUkM7YfgfQ1M=", "properties": {"@spider": "usps_collection_boxes", "addr:city": "LAKEWOOD", "addr:country": "US", "addr:full": "5200 CLARK AVE LOBBY", "addr:postcode": "90714", "addr:state": "CA", "amenity": "post_box", "brand": "United States Postal Service", "brand:wikidata": "Q668687", "collection_times": "Mo-Sa 17:00", "name": "USPS COLLECTION BOX - PO LOBBY", "note": "ON 12/24 AND 12/31, THIS BOX MAY BE COLLECTED AS EARLY AS 12 NOON.", "nsi_id": "unitedstatespostalservice-a77078", "operator": "United States Postal Service", "operator:short": "USPS", "operator:type": "public", "operator:wikidata": "Q668687", "ref": "9071400011"}, "type": "Feature"}
{"dataset_attributes": {"@spider": "usps_collection_boxes", "spider:collection_time": "2023-10-19T08:25:27.646942"}, "geometry": {"coordinates": [-118.071442, 33.831613], "type": "Point"}, "id": "JN3NiohziSvknqAM0vpdsVE28Z4=", "properties": {"@spider": "usps_collection_boxes", "addr:city": "HAWAIIAN GDNS", "addr:country": "US", "addr:full": "12221 CARSON ST", "addr:postcode": "90716", "addr:state": "CA", "amenity": "post_box", "brand": "United States Postal Service", "brand:wikidata": "Q668687", "collection_times": "Mo-Fr 15:00; Sa 13:00", "name": "USPS COLLECTION BOX - BLUE BOX", "note": "ON 12/24 AND 12/31, THIS BOX MAY BE COLLECTED AS EARLY AS 12 NOON.", "nsi_id": "unitedstatespostalservice-a77078", "operator": "United States Postal Service", "operator:short": "USPS", "operator:type": "public", "operator:wikidata": "Q668687", "ref": "9071600020"}, "type": "Feature"}
{"dataset_attributes": {"@spider": "usps_collection_boxes", "spider:collection_time": "2023-10-19T08:25:27.646942"}, "geometry": {"coordinates": [-118.082089, 33.829347], "type": "Point"}, "id": "jvPfRnkF8e-JwHbdVLjOAfTne6Y=", "properties": {"@spider": "usps_collection_boxes", "addr:city": "HAWAIIAN GDNS", "addr:country": "US", "addr:full": "21815 PIONEER BLVD", "addr:postcode": "90716", "addr:state": "CA", "amenity": "post_box", "brand": "United States Postal Service", "brand:wikidata": "Q668687", "collection_times": "Mo-Fr 15:00; Sa 13:00", "name": "USPS COLLECTION BOX - BLUE BOX", "note": "ON 12/24 AND 12/31, THIS BOX MAY BE COLLECTED AS EARLY AS 12 NOON.", "nsi_id": "unitedstatespostalservice-a77078", "operator": "United States Postal Service", "operator:short": "USPS", "operator:type": "public", "operator:wikidata": "Q668687", "ref": "9071600021"}, "type": "Feature"}
{"dataset_attributes": {"@spider": "usps_collection_boxes", "spider:collection_time": "2023-10-19T08:25:27.646942"}, "geometry": {"coordinates": [-118.0817560619, 33.8340655619], "type": "Point"}, "id": "Rje38hE2QWMfGMDeO_s04Ko4_2A=", "properties": {"@spider": "usps_collection_boxes", "addr:city": "HAWAIIAN GDNS", "addr:country": "US", "addr:full": "21500 PIONEER BLVD", "addr:postcode": "90716", "addr:state": "CA", "amenity": "post_box", "brand": "United States Postal Service", "brand:wikidata": "Q668687", "collection_times": "Mo-Fr 15:00; Sa 13:00", "name": "USPS COLLECTION BOX - BLUE BOX", "note": "ON 12/24 AND 12/31, THIS BOX MAY BE COLLECTED AS EARLY AS 12 NOON.", "nsi_id": "unitedstatespostalservice-a77078", "operator": "United States Postal Service", "operator:short": "USPS", "operator:type": "public", "operator:wikidata": "Q668687", "ref": "9071600023"}, "type": "Feature"}
{"dataset_attributes": {"@spider": "usps_collection_boxes", "spider:collection_time": "2023-10-19T08:25:27.646942"}, "geometry": {"coordinates": [-118.319989, 33.796684], "type": "Point"}, "id": "YyVG9ZuqIvVRTDftf2rL33qLRYA=", "properties": {"@spider": "usps_collection_boxes", "addr:city": "LOMITA", "addr:country": "US", "addr:full": "25131 NARBONNE AVE", "addr:postcode": "90717", "addr:state": "CA", "amenity": "post_box", "brand": "United States Postal Service", "brand:wikidata": "Q668687", "collection_times": "Mo-Fr 17:00; Sa 16:45", "name": "USPS COLLECTION BOX - BLUE BOX", "note": "ON 12/24 AND 12/31, THIS BOX MAY BE COLLECTED AS EARLY AS 12 NOON.", "nsi_id": "unitedstatespostalservice-a77078", "operator": "United States Postal Service", "operator:short": "USPS", "operator:type": "public", "operator:wikidata": "Q668687", "ref": "9071700001"}, "type": "Feature"}
{"dataset_attributes": {"@spider": "usps_collection_boxes", "spider:collection_time": "2023-10-19T08:25:27.646942"}, "geometry": {"coordinates": [-118.315202, 33.776831], "type": "Point"}, "id": "wBGZgva1yA0mds3niDyt6P0N9e8=", "properties": {"@spider": "usps_collection_boxes", "addr:city": "LOMITA", "addr:country": "US", "addr:full": "2031 PALOS VERDES DR N", "addr:postcode": "90717", "addr:state": "CA", "amenity": "post_box", "brand": "United States Postal Service", "brand:wikidata": "Q668687", "collection_times": "Mo-Sa 13:00", "name": "USPS COLLECTION BOX - EXPRESS", "note": "ON 12/24 AND 12/31, THIS BOX MAY BE COLLECTED AS EARLY AS 12 NOON.", "nsi_id": "unitedstatespostalservice-a77078", "operator": "United States Postal Service", "operator:short": "USPS", "operator:type": "public", "operator:wikidata": "Q668687", "ref": "9071700006"}, "type": "Feature"}
{"dataset_attributes": {"@spider": "usps_collection_boxes", "spider:collection_time": "2023-10-19T08:25:27.646942"}, "geometry": {"coordinates": [-118.319956, 33.796704], "type": "Point"}, "id": "w4v0wYWpi4pthh5EwEMLngbQff8=", "properties": {"@spider": "usps_collection_boxes", "addr:city": "LOMITA", "addr:country": "US", "addr:full": "25131 NARBONNE AVE", "addr:postcode": "90717", "addr:state": "CA", "amenity": "post_box", "brand": "United States Postal Service", "brand:wikidata": "Q668687", "collection_times": "Mo-Fr 17:00; Sa 16:45", "name": "USPS COLLECTION BOX - BLUE BOX", "note": "ON 12/24 AND 12/31, THIS BOX MAY BE COLLECTED AS EARLY AS 12 NOON.", "nsi_id": "unitedstatespostalservice-a77078", "operator": "United States Postal Service", "operator:short": "USPS", "operator:type": "public", "operator:wikidata": "Q668687", "ref": "9071700007"}, "type": "Feature"}
{"dataset_attributes": {"@spider": "usps_collection_boxes", "spider:collection_time": "2023-10-19T08:25:27.646942"}, "geometry": {"coordinates": [-118.319987479, 33.796077485], "type": "Point"}, "id": "tQV2SmhwgEPolSzo20z-e4_jXPY=", "properties": {"@spider": "usps_collection_boxes", "addr:city": "LOMITA", "addr:country": "US", "addr:full": "25131 NARBONNE AVE LOBBY", "addr:postcode": "90717", "addr:state": "CA", "amenity": "post_box", "brand": "United States Postal Service", "brand:wikidata": "Q668687", "collection_times": "Mo-Fr 17:00; Sa 16:45", "name": "USPS COLLECTION BOX - PO LOBBY", "note": "ON 12/24 AND 12/31, THIS BOX MAY BE COLLECTED AS EARLY AS 12 NOON.", "nsi_id": "unitedstatespostalservice-a77078", "operator": "United States Postal Service", "operator:short": "USPS", "operator:type": "public", "operator:wikidata": "Q668687", "ref": "9071700008"}, "type": "Feature"}
{"dataset_attributes": {"@spider": "usps_collection_boxes", "spider:collection_time": "2023-10-19T08:25:27.646942"}, "geometry": {"coordinates": [-118.318479, 33.805076], "type": "Point"}, "id": "J3x0tUZN2y2uz5It-yti0MmK6dM=", "properties": {"@spider": "usps_collection_boxes", "addr:city": "LOMITA", "addr:country": "US", "addr:full": "24300 NARBONNE AVE", "addr:postcode": "90717", "addr:state": "CA", "amenity": "post_box", "brand": "United States Postal Service", "brand:wikidata": "Q668687", "collection_times": "Mo-Sa 13:00", "name": "USPS COLLECTION BOX - BLUE BOX", "note": "ON 12/24 AND 12/31, THIS BOX MAY BE COLLECTED AS EARLY AS 12 NOON.", "nsi_id": "unitedstatespostalservice-a77078", "operator": "United States Postal Service", "operator:short": "USPS", "operator:type": "public", "operator:wikidata": "Q668687", "ref": "9071700012"}, "type": "Feature"}
{"dataset_attributes": {"@spider": "usps_collection_boxes", "spider:collection_time": "2023-10-19T08:25:27.646942"}, "geometry": {"coordinates": [-118.319858, 33.806403], "type": "Point"}, "id": "GgC2XiDHve5SYkKMKkGXLYiw4fg=", "properties": {"@spider": "usps_collection_boxes", "addr:city": "LOMITA", "addr:country": "US", "addr:full": "24020 NARBONNE AVE", "addr:postcode": "90717", "addr:state": "CA", "amenity": "post_box", "brand": "United States Postal Service", "brand:wikidata": "Q668687", "collection_times": "Mo-Sa 13:00", "name": "USPS COLLECTION BOX - BLUE BOX", "note": "ON 12/24 AND 12/31, THIS BOX MAY BE COLLECTED AS EARLY AS 12 NOON.", "nsi_id": "unitedstatespostalservice-a77078", "operator": "United States Postal Service", "operator:short": "USPS", "operator:type": "public", "operator:wikidata": "Q668687", "ref": "9071700013"}, "type": "Feature"}
{"dataset_attributes": {"@spider": "usps_collection_boxes", "spider:collection_time": "2023-10-19T08:25:27.646942"}, "geometry": {"coordinates": [-118.325034, 33.804491], "type": "Point"}, "id": "Lj0ehqmI5l20jNI63bAOkcXNAyA=", "properties": {"@spider": "usps_collection_boxes", "addr:city": "LOMITA", "addr:country": "US", "addr:full": "2380 LOMITA BLVD", "addr:postcode": "90717", "addr:state": "CA", "amenity": "post_box", "brand": "United States Postal Service", "brand:wikidata": "Q668687", "collection_times": "Mo-Sa 13:00", "name": "USPS COLLECTION BOX - BLUE BOX", "note": "ON 12/24 AND 12/31, THIS BOX MAY BE COLLECTED AS EARLY AS 12 NOON.", "nsi_id": "unitedstatespostalservice-a77078", "operator": "United States Postal Service", "operator:short": "USPS", "operator:type": "public", "operator:wikidata": "Q668687", "ref": "9071700015"}, "type": "Feature"}
{"dataset_attributes": {"@spider": "usps_collection_boxes", "spider:collection_time": "2023-10-19T08:25:27.646942"}, "geometry": {"coordinates": [-118.315198, 33.776828], "type": "Point"}, "id": "chFm3xlK29Lf2eQ7ZlSspdvRVCc=", "properties": {"@spider": "usps_collection_boxes", "addr:city": "LOMITA", "addr:country": "US", "addr:full": "2031 PALOS VERDES DR N", "addr:postcode": "90717", "addr:state": "CA", "amenity": "post_box", "brand": "United States Postal Service", "brand:wikidata": "Q668687", "collection_times": "Mo-Sa 13:00", "name": "USPS COLLECTION BOX - BLUE BOX", "note": "ON 12/24 AND 12/31, THIS BOX MAY BE COLLECTED AS EARLY AS 12 NOON.", "nsi_id": "unitedstatespostalservice-a77078", "operator": "United States Postal Service", "operator:short": "USPS", "operator:type": "public", "operator:wikidata": "Q668687", "ref": "9071700016"}, "type": "Feature"}
{"dataset_attributes": {"@spider": "usps_collection_boxes", "spider:collection_time": "2023-10-19T08:25:27.646942"}, "geometry": {"coordinates": [-118.319899, 33.794464], "type": "Point"}, "id": "TtFRLVt5a_BsXCCTyHbolOyhSQU=", "properties": {"@spider": "usps_collection_boxes", "addr:city": "LOMITA", "addr:country": "US", "addr:full": "25332 NARBONNE AVE", "addr:postcode": "90717", "addr:state": "CA", "amenity": "post_box", "brand": "United States Postal Service", "brand:wikidata": "Q668687", "collection_times": "Mo-Sa 13:00", "name": "USPS COLLECTION BOX - BLUE BOX", "note": "ON 12/24 AND 12/31, THIS BOX MAY BE COLLECTED AS EARLY AS 12 NOON.", "nsi_id": "unitedstatespostalservice-a77078", "operator": "United States Postal Service", "operator:short": "USPS", "operator:type": "public", "operator:wikidata": "Q668687", "ref": "9071700017"}, "type": "Feature"}
{"dataset_attributes": {"@spider": "usps_collection_boxes", "spider:collection_time": "2023-10-19T08:25:27.646942"}, "geometry": {"coordinates": [-118.312637, 33.78509], "type": "Point"}, "id": "Z2DXUkzkGvroYd9G20neaGC-wTE=", "properties": {"@spider": "usps_collection_boxes", "addr:city": "LOMITA", "addr:country": "US", "addr:full": "1892 262ND ST", "addr:postcode": "90717", "addr:state": "CA", "amenity": "post_box", "brand": "United States Postal Service", "brand:wikidata": "Q668687", "collection_times": "Mo-Sa 13:00", "name": "USPS COLLECTION BOX - BLUE BOX", "note": "ON 12/24 AND 12/31, THIS BOX MAY BE COLLECTED AS EARLY AS 12 NOON.", "nsi_id": "unitedstatespostalservice-a77078", "operator": "United States Postal Service", "operator:short": "USPS", "operator:type": "public", "operator:wikidata": "Q668687", "ref": "9071700021"}, "type": "Feature"}
{"dataset_attributes": {"@spider": "usps_collection_boxes", "spider:collection_time": "2023-10-19T08:25:27.646942"}, "geometry": {"coordinates": [-118.309082, 33.797964], "type": "Point"}, "id": "KM56Fi39Sqwxw3JMyAxhSjWVaSA=", "properties": {"@spider": "usps_collection_boxes", "addr:city": "LOMITA", "addr:country": "US", "addr:full": "1801 LOMITA BLVD", "addr:postcode": "90717", "addr:state": "CA", "amenity": "post_box", "brand": "United States Postal Service", "brand:wikidata": "Q668687", "collection_times": "Mo-Sa 13:00", "name": "USPS COLLECTION BOX - BLUE BOX", "note": "ON 12/24 AND 12/31, THIS BOX MAY BE COLLECTED AS EARLY AS 12 NOON.", "nsi_id": "unitedstatespostalservice-a77078", "operator": "United States Postal Service", "operator:short": "USPS", "operator:type": "public", "operator:wikidata": "Q668687", "ref": "9071700022"}, "type": "Feature"}
{"dataset_attributes": {"@spider": "usps_collection_boxes", "spider:collection_time": "2023-10-19T08:25:27.646942"}, "geometry": {"coordinates": [-118.314903, 33.800394], "type": "Point"}, "id": "c5HW5W6xat-52nup8RTpMAyl0WQ=", "properties": {"@spider": "usps_collection_boxes", "addr:city": "LOMITA", "addr:country": "US", "addr:full": "2005 LOMITA BLVD", "addr:postcode": "90717", "addr:state": "CA", "amenity": "post_box", "brand": "United States Postal Service", "brand:wikidata": "Q668687", "collection_times": "Mo-Sa 13:00", "name": "USPS COLLECTION BOX - BLUE BOX", "note": "ON 12/24 AND 12/31, THIS BOX MAY BE COLLECTED AS EARLY AS 12 NOON.", "nsi_id": "unitedstatespostalservice-a77078", "operator": "United States Postal Service", "operator:short": "USPS", "operator:type": "public", "operator:wikidata": "Q668687", "ref": "9071700024"}, "type": "Feature"}
{"dataset_attributes": {"@spider": "usps_collection_boxes", "spider:collection_time": "2023-10-19T08:25:27.646942"}, "geometry": {"coordinates": [-118.319987479, 33.796077485], "type": "Point"}, "id": "ZJXm4RW7hcvif2-ni3dK_GTPb8Q=", "properties": {"@spider": "usps_collection_boxes", "addr:city": "LOMITA", "addr:country": "US", "addr:full": "25131 NARBONNE AVE LOBBY", "addr:postcode": "90717", "addr:state": "CA", "amenity": "post_box", "brand": "United States Postal Service", "brand:wikidata": "Q668687", "collection_times": "Mo-Fr 17:00; Sa 16:45", "name": "USPS COLLECTION BOX - APC", "note": "ON 12/24 AND 12/31, THIS BOX MAY BE COLLECTED AS EARLY AS 12 NOON.", "nsi_id": "unitedstatespostalservice-a77078", "operator": "United States Postal Service", "operator:short": "USPS", "operator:type": "public", "operator:wikidata": "Q668687", "ref": "9071700029"}, "type": "Feature"}
{"dataset_attributes": {"@spider": "usps_collection_boxes", "spider:collection_time": "2023-10-19T08:25:27.646942"}, "geometry": {"coordinates": [-118.3199874794, 33.7960774854], "type": "Point"}, "id": "Al8Nj_KumoYTeMEP6le1A6rV80A=", "properties": {"@spider": "usps_collection_boxes", "addr:city": "LOMITA", "addr:country": "US", "addr:full": "25131 NARBONNE AVE LOBBY", "addr:postcode": "90717", "addr:state": "CA", "amenity": "post_box", "brand": "United States Postal Service", "brand:wikidata": "Q668687", "collection_times": "Mo-Fr 17:00; Sa 16:45", "name": "USPS COLLECTION BOX - PO LOBBY", "note": "ON 12/24 AND 12/31, THIS BOX MAY BE COLLECTED AS EARLY AS 12 NOON.", "nsi_id": "unitedstatespostalservice-a77078", "operator": "United States Postal Service", "operator:short": "USPS", "operator:type": "public", "operator:wikidata": "Q668687", "ref": "9071700038"}, "type": "Feature"}
{"dataset_attributes": {"@spider": "usps_collection_boxes", "spider:collection_time": "2023-10-19T08:25:27.646942"}, "geometry": {"coordinates": [-118.0692194664, 33.808077], "type": "Point"}, "id": "0-qelBJpQe8oOUNHgl2LSNX4ShM=", "properties": {"@spider": "usps_collection_boxes", "addr:city": "LOS ALAMITOS", "addr:country": "US", "addr:full": "10650 REAGAN ST", "addr:postcode": "90720", "addr:state": "CA", "amenity": "post_box", "brand": "United States Postal Service", "brand:wikidata": "Q668687", "collection_times": "Mo-Fr 17:00; Sa 16:30", "name": "USPS COLLECTION BOX - BLUE BOX", "note": "ON 12/24 AND 12/31, THIS BOX MAY BE COLLECTED AS EARLY AS 12 NOON.", "nsi_id": "unitedstatespostalservice-a77078", "operator": "United States Postal Service", "operator:short": "USPS", "operator:type": "public", "operator:wikidata": "Q668687", "ref": "9072000002"}, "type": "Feature"}
{"dataset_attributes": {"@spider": "usps_collection_boxes", "spider:collection_time": "2023-10-19T08:25:27.646942"}, "geometry": {"coordinates": [-118.061995, 33.802942], "type": "Point"}, "id": "0S84_lAgH1Dh3TuXwFP2Lnzt7qg=", "properties": {"@spider": "usps_collection_boxes", "addr:city": "LOS ALAMITOS", "addr:country": "US", "addr:full": "4050 KATELLA AVE", "addr:postcode": "90720", "addr:state": "CA", "amenity": "post_box", "brand": "United States Postal Service", "brand:wikidata": "Q668687", "collection_times": "Mo-Fr 15:00; Sa 13:00", "name": "USPS COLLECTION BOX - BLUE BOX", "note": "ON 12/24 AND 12/31, THIS BOX MAY BE COLLECTED AS EARLY AS 12 NOON.", "nsi_id": "unitedstatespostalservice-a77078", "operator": "United States Postal Service", "operator:short": "USPS", "operator:type": "public", "operator:wikidata": "Q668687", "ref": "9072000004"}, "type": "Feature"}
{"dataset_attributes": {"@spider": "usps_collection_boxes", "spider:collection_time": "2023-10-19T08:25:27.646942"}, "geometry": {"coordinates": [-118.05435, 33.799902], "type": "Point"}, "id": "MQZkJBPN46v8IvU4i1LDx2r9740=", "properties": {"@spider": "usps_collection_boxes", "addr:city": "LOS ALAMITOS", "addr:country": "US", "addr:full": "4501 HOWARD AVE", "addr:postcode": "90720", "addr:state": "CA", "amenity": "post_box", "brand": "United States Postal Service", "brand:wikidata": "Q668687", "collection_times": "Mo-Sa 13:00", "name": "USPS COLLECTION BOX - BLUE BOX", "note": "ON 12/24 AND 12/31, THIS BOX MAY BE COLLECTED AS EARLY AS 12 NOON.", "nsi_id": "unitedstatespostalservice-a77078", "operator": "United States Postal Service", "operator:short": "USPS", "operator:type": "public", "operator:wikidata": "Q668687", "ref": "9072000006"}, "type": "Feature"}
{"dataset_attributes": {"@spider": "usps_collection_boxes", "spider:collection_time": "2023-10-19T08:25:27.646942"}, "geometry": {"coordinates": [-118.042362, 33.802709], "type": "Point"}, "id": "GBkcTU0WSKZOy_CbyMVllhPYfxY=", "properties": {"@spider": "usps_collection_boxes", "addr:city": "LOS ALAMITOS", "addr:country": "US", "addr:full": "5182 KATELLA AVE", "addr:postcode": "90720", "addr:state": "CA", "amenity": "post_box", "brand": "United States Postal Service", "brand:wikidata": "Q668687", "collection_times": "Mo-Fr 15:00; Sa 13:00", "name": "USPS COLLECTION BOX - BLUE BOX", "note": "ON 12/24 AND 12/31, THIS BOX MAY BE COLLECTED AS EARLY AS 12 NOON.", "nsi_id": "unitedstatespostalservice-a77078", "operator": "United States Postal Service", "operator:short": "USPS", "operator:type": "public", "operator:wikidata": "Q668687", "ref": "9072000007"}, "type": "Feature"}
{"dataset_attributes": {"@spider": "usps_collection_boxes", "spider:collection_time": "2023-10-19T08:25:27.646942"}, "geometry": {"coordinates": [-118.044994, 33.802878], "type": "Point"}, "id": "oPVGQK-Cd3zqHvVVHCz-_1gTK5E=", "properties": {"@spider": "usps_collection_boxes", "addr:city": "LOS ALAMITOS", "addr:country": "US", "addr:full": "5046 KATELLA AVE", "addr:postcode": "90720", "addr:state": "CA", "amenity": "post_box", "brand": "United States Postal Service", "brand:wikidata": "Q668687", "collection_times": "Mo-Sa 13:00", "name": "USPS COLLECTION BOX - BLUE BOX", "note": "ON 12/24 AND 12/31, THIS BOX MAY BE COLLECTED AS EARLY AS 12 NOON.", "nsi_id": "unitedstatespostalservice-a77078", "operator": "United States Postal Service", "operator:short": "USPS", "operator:type": "public", "operator:wikidata": "Q668687", "ref": "9072000008"}, "type": "Feature"}
{"dataset_attributes": {"@spider": "usps_collection_boxes", "spider:collection_time": "2023-10-19T08:25:27.646942"}, "geometry": {"coordinates": [-118.066398, 33.80333], "type": "Point"}, "id": "OW3cMocpzvWl43BcDMitbmH5u7o=", "properties": {"@spider": "usps_collection_boxes", "addr:city": "LOS ALAMITOS", "addr:country": "US", "addr:full": "3791 KATELLA AVE", "addr:postcode": "90720", "addr:state": "CA", "amenity": "post_box", "brand": "United States Postal Service", "brand:wikidata": "Q668687", "collection_times": "Mo-Sa 13:00", "name": "USPS COLLECTION BOX - BLUE BOX", "note": "ON 12/24 AND 12/31, THIS BOX MAY BE COLLECTED AS EARLY AS 12 NOON.", "nsi_id": "unitedstatespostalservice-a77078", "operator": "United States Postal Service", "operator:short": "USPS", "operator:type": "public", "operator:wikidata": "Q668687", "ref": "9072000013"}, "type": "Feature"}
{"dataset_attributes": {"@spider": "usps_collection_boxes", "spider:collection_time": "2023-10-19T08:25:27.646942"}, "geometry": {"coordinates": [-118.075937, 33.804112], "type": "Point"}, "id": "RrXsi3YkaVgXT7-Dlv3tTZkhjFc=", "properties": {"@spider": "usps_collection_boxes", "addr:city": "LOS ALAMITOS", "addr:country": "US", "addr:full": "10911 OAK ST", "addr:postcode": "90720", "addr:state": "CA", "amenity": "post_box", "brand": "United States Postal Service", "brand:wikidata": "Q668687", "collection_times": "Mo-Sa 13:00", "name": "USPS COLLECTION BOX - BLUE BOX", "note": "ON 12/24 AND 12/31, THIS BOX MAY BE COLLECTED AS EARLY AS 12 NOON.", "nsi_id": "unitedstatespostalservice-a77078", "operator": "United States Postal Service", "operator:short": "USPS", "operator:type": "public", "operator:wikidata": "Q668687", "ref": "9072000014"}, "type": "Feature"}
{"dataset_attributes": {"@spider": "usps_collection_boxes", "spider:collection_time": "2023-10-19T08:25:27.646942"}, "geometry": {"coordinates": [-118.05729, 33.802905], "type": "Point"}, "id": "wrwwAVBliY-FxauyKYYTXz3yykM=", "properties": {"@spider": "usps_collection_boxes", "addr:city": "LOS ALAMITOS", "addr:country": "US", "addr:full": "4320 KATELLA AVE", "addr:postcode": "90720", "addr:state": "CA", "amenity": "post_box", "brand": "United States Postal Service", "brand:wikidata": "Q668687", "collection_times": "Mo-Fr 15:00; Sa 13:00", "name": "USPS COLLECTION BOX - BLUE BOX", "note": "ON 12/24 AND 12/31, THIS BOX MAY BE COLLECTED AS EARLY AS 12 NOON.", "nsi_id": "unitedstatespostalservice-a77078", "operator": "United States Postal Service", "operator:short": "USPS", "operator:type": "public", "operator:wikidata": "Q668687", "ref": "9072000015"}, "type": "Feature"}
{"dataset_attributes": {"@spider": "usps_collection_boxes", "spider:collection_time": "2023-10-19T08:25:27.646942"}, "geometry": {"coordinates": [-118.074332, 33.801437], "type": "Point"}, "id": "zBFVxBIIpmmt3kKYBLAn1VVBVXc=", "properties": {"@spider": "usps_collection_boxes", "addr:city": "LOS ALAMITOS", "addr:country": "US", "addr:full": "11152 WALLINGSFORD RD", "addr:postcode": "90720", "addr:state": "CA", "amenity": "post_box", "brand": "United States Postal Service", "brand:wikidata": "Q668687", "collection_times": "Mo-Fr 13:00; Sa 15:00", "name": "USPS COLLECTION BOX - BLUE BOX", "note": "ON 12/24 AND 12/31, THIS BOX MAY BE COLLECTED AS EARLY AS 12 NOON.", "nsi_id": "unitedstatespostalservice-a77078", "operator": "United States Postal Service", "operator:short": "USPS", "operator:type": "public", "operator:wikidata": "Q668687", "ref": "9072000016"}, "type": "Feature"}
{"dataset_attributes": {"@spider": "usps_collection_boxes", "spider:collection_time": "2023-10-19T08:25:27.646942"}, "geometry": {"coordinates": [-118.0633, 33.809233], "type": "Point"}, "id": "3q0z67AU16WYAmdHMwiSoCbNlOg=", "properties": {"@spider": "usps_collection_boxes", "addr:city": "LOS ALAMITOS", "addr:country": "US", "addr:full": "10599 BLOOMFIELD ST", "addr:postcode": "90720", "addr:state": "CA", "amenity": "post_box", "brand": "United States Postal Service", "brand:wikidata": "Q668687", "collection_times": "Mo-Sa 13:00", "name": "USPS COLLECTION BOX - BLUE BOX", "note": "ON 12/24 AND 12/31, THIS BOX MAY BE COLLECTED AS EARLY AS 12 NOON.", "nsi_id": "unitedstatespostalservice-a77078", "operator": "United States Postal Service", "operator:short": "USPS", "operator:type": "public", "operator:wikidata": "Q668687", "ref": "9072000024"}, "type": "Feature"}
{"dataset_attributes": {"@spider": "usps_collection_boxes", "spider:collection_time": "2023-10-19T08:25:27.646942"}, "geometry": {"coordinates": [-118.072055, 33.806881], "type": "Point"}, "id": "C-RC9-yHCvyODiIru8KY8HbKmeM=", "properties": {"@spider": "usps_collection_boxes", "addr:city": "LOS ALAMITOS", "addr:country": "US", "addr:full": "10701 LOS ALAMITOS BLVD", "addr:postcode": "90720", "addr:state": "CA", "amenity": "post_box", "brand": "United States Postal Service", "brand:wikidata": "Q668687", "collection_times": "Mo-Fr 15:00; Sa 13:00", "name": "USPS COLLECTION BOX - BLUE BOX", "note": "ON 12/24 AND 12/31, THIS BOX MAY BE COLLECTED AS EARLY AS 12 NOON.", "nsi_id": "unitedstatespostalservice-a77078", "operator": "United States Postal Service", "operator:short": "USPS", "operator:type": "public", "operator:wikidata": "Q668687", "ref": "9072000027"}, "type": "Feature"}
{"dataset_attributes": {"@spider": "usps_collection_boxes", "spider:collection_time": "2023-10-19T08:25:27.646942"}, "geometry": {"coordinates": [-118.078128, 33.799395], "type": "Point"}, "id": "xXOtdHsaLvqv1CUJQ77Qi7qjWMM=", "properties": {"@spider": "usps_collection_boxes", "addr:city": "LOS ALAMITOS", "addr:country": "US", "addr:full": "11251 FOSTER RD", "addr:postcode": "90720", "addr:state": "CA", "amenity": "post_box", "brand": "United States Postal Service", "brand:wikidata": "Q668687", "collection_times": "Mo-Sa 15:00", "name": "USPS COLLECTION BOX - BLUE BOX", "note": "ON 12/24 AND 12/31, THIS BOX MAY BE COLLECTED AS EARLY AS 12 NOON.", "nsi_id": "unitedstatespostalservice-a77078", "operator": "United States Postal Service", "operator:short": "USPS", "operator:type": "public", "operator:wikidata": "Q668687", "ref": "9072000030"}, "type": "Feature"}
{"dataset_attributes": {"@spider": "usps_collection_boxes", "spider:collection_time": "2023-10-19T08:25:27.646942"}, "geometry": {"coordinates": [-118.075944147, 33.780458074], "type": "Point"}, "id": "gLHyiC6y2I0uoN3n7IsjQfTbD94=", "properties": {"@spider": "usps_collection_boxes", "addr:city": "LOS ALAMITOS", "addr:country": "US", "addr:full": "3298 TIGERTAIL DR", "addr:postcode": "90720", "addr:state": "CA", "amenity": "post_box", "brand": "United States Postal Service", "brand:wikidata": "Q668687", "collection_times": "Mo-Sa 15:00", "name": "USPS COLLECTION BOX - BLUE BOX", "note": "ON 12/24 AND 12/31, THIS BOX MAY BE COLLECTED AS EARLY AS 12 NOON.", "nsi_id": "unitedstatespostalservice-a77078", "operator": "United States Postal Service", "operator:short": "USPS", "operator:type": "public", "operator:wikidata": "Q668687", "ref": "9072000032"}, "type": "Feature"}
{"dataset_attributes": {"@spider": "usps_collection_boxes", "spider:collection_time": "2023-10-19T08:25:27.646942"}, "geometry": {"coordinates": [-118.071171, 33.792298], "type": "Point"}, "id": "qaRDmYohwJh0GMo0Vwu5s9f3mkU=", "properties": {"@spider": "usps_collection_boxes", "addr:city": "LOS ALAMITOS", "addr:country": "US", "addr:full": "11752 PASEO BONITA", "addr:postcode": "90720", "addr:state": "CA", "amenity": "post_box", "brand": "United States Postal Service", "brand:wikidata": "Q668687", "collection_times": "Mo-Sa 15:00", "name": "USPS COLLECTION BOX - BLUE BOX", "note": "ON 12/24 AND 12/31, THIS BOX MAY BE COLLECTED AS EARLY AS 12 NOON.", "nsi_id": "unitedstatespostalservice-a77078", "operator": "United States Postal Service", "operator:short": "USPS", "operator:type": "public", "operator:wikidata": "Q668687", "ref": "9072000034"}, "type": "Feature"}
{"dataset_attributes": {"@spider": "usps_collection_boxes", "spider:collection_time": "2023-10-19T08:25:27.646942"}, "geometry": {"coordinates": [-118.072691, 33.795765], "type": "Point"}, "id": "kTvSQ_VdHFX78YSq5wdMoM8QqUA=", "properties": {"@spider": "usps_collection_boxes", "addr:city": "LOS ALAMITOS", "addr:country": "US", "addr:full": "11511 DAVENPORT RD", "addr:postcode": "90720", "addr:state": "CA", "amenity": "post_box", "brand": "United States Postal Service", "brand:wikidata": "Q668687", "collection_times": "Mo-Sa 13:00", "name": "USPS COLLECTION BOX - BLUE BOX", "note": "ON 12/24 AND 12/31, THIS BOX MAY BE COLLECTED AS EARLY AS 12 NOON.", "nsi_id": "unitedstatespostalservice-a77078", "operator": "United States Postal Service", "operator:short": "USPS", "operator:type": "public", "operator:wikidata": "Q668687", "ref": "9072000035"}, "type": "Feature"}
{"dataset_attributes": {"@spider": "usps_collection_boxes", "spider:collection_time": "2023-10-19T08:25:27.646942"}, "geometry": {"coordinates": [-118.069223704, 33.808090659], "type": "Point"}, "id": "e6C0eT-MFcxuGmNf7HJMqZUQb-E=", "properties": {"@spider": "usps_collection_boxes", "addr:city": "LOS ALAMITOS", "addr:country": "US", "addr:full": "10650 REAGAN ST LOBBY", "addr:postcode": "90720", "addr:state": "CA", "amenity": "post_box", "brand": "United States Postal Service", "brand:wikidata": "Q668687", "collection_times": "Mo-Fr 17:00; Sa 15:00", "name": "USPS COLLECTION BOX - PO LOBBY", "note": "ON 12/24 AND 12/31, THIS BOX MAY BE COLLECTED AS EARLY AS 12 NOON.", "nsi_id": "unitedstatespostalservice-a77078", "operator": "United States Postal Service", "operator:short": "USPS", "operator:type": "public", "operator:wikidata": "Q668687", "ref": "9072000053"}, "type": "Feature"}
{"dataset_attributes": {"@spider": "usps_collection_boxes", "spider:collection_time": "2023-10-19T08:25:27.646942"}, "geometry": {"coordinates": [-118.0692237043, 33.8080906591], "type": "Point"}, "id": "rT4Wn-eZaKcb1io5MrnUG1TuWGY=", "properties": {"@spider": "usps_collection_boxes", "addr:city": "LOS ALAMITOS", "addr:country": "US", "addr:full": "10650 REAGAN ST LOBBY", "addr:postcode": "90720", "addr:state": "CA", "amenity": "post_box", "brand": "United States Postal Service", "brand:wikidata": "Q668687", "collection_times": "Mo-Fr 17:00; Sa 15:00", "name": "USPS COLLECTION BOX - PO LOBBY", "note": "ON 12/24 AND 12/31, THIS BOX MAY BE COLLECTED AS EARLY AS 12 NOON.", "nsi_id": "unitedstatespostalservice-a77078", "operator": "United States Postal Service", "operator:short": "USPS", "operator:type": "public", "operator:wikidata": "Q668687", "ref": "9072000054"}, "type": "Feature"}
{"dataset_attributes": {"@spider": "usps_collection_boxes", "spider:collection_time": "2023-10-19T08:25:27.646942"}, "geometry": {"coordinates": [-118.069223704, 33.808090659], "type": "Point"}, "id": "d3x6amZqKerL4o9dBLKy8dHTd7c=", "properties": {"@spider": "usps_collection_boxes", "addr:city": "LOS ALAMITOS", "addr:country": "US", "addr:full": "10650 REAGAN ST LOBBY", "addr:postcode": "90720", "addr:state": "CA", "amenity": "post_box", "brand": "United States Postal Service", "brand:wikidata": "Q668687", "collection_times": "Mo-Fr 17:00; Sa 15:00", "name": "USPS COLLECTION BOX - APC", "note": "ON 12/24 AND 12/31, THIS BOX MAY BE COLLECTED AS EARLY AS 12 NOON.", "nsi_id": "unitedstatespostalservice-a77078", "operator": "United States Postal Service", "operator:short": "USPS", "operator:type": "public", "operator:wikidata": "Q668687", "ref": "9072000056"}, "type": "Feature"}
{"dataset_attributes": {"@spider": "usps_collection_boxes", "spider:collection_time": "2023-10-19T08:25:27.646942"}, "geometry": {"coordinates": [-118.0692237043, 33.8080906591], "type": "Point"}, "id": "i-cML5rbun32BJH59jpDFiWI1Jo=", "properties": {"@spider": "usps_collection_boxes", "addr:city": "LOS ALAMITOS", "addr:country": "US", "addr:full": "10650 REAGAN ST LOBBY", "addr:postcode": "90720", "addr:state": "CA", "amenity": "post_box", "brand": "United States Postal Service", "brand:wikidata": "Q668687", "collection_times": "Mo-Fr 17:00; Sa 15:00", "name": "USPS COLLECTION BOX - PO LOBBY", "note": "ON 12/24 AND 12/31, THIS BOX MAY BE COLLECTED AS EARLY AS 12 NOON.", "nsi_id": "unitedstatespostalservice-a77078", "operator": "United States Postal Service", "operator:short": "USPS", "operator:type": "public", "operator:wikidata": "Q668687", "ref": "9072000067"}, "type": "Feature"}
{"dataset_attributes": {"@spider": "usps_collection_boxes", "spider:collection_time": "2023-10-19T08:25:27.646942"}, "geometry": {"coordinates": [-118.15172, 33.914319], "type": "Point"}, "id": "UW-Mp5Y6pRrs12Xl3eFsHE5Bnb8=", "properties": {"@spider": "usps_collection_boxes", "addr:city": "PARAMOUNT", "addr:country": "US", "addr:full": "13120 DOWNEY AVE", "addr:postcode": "90723", "addr:state": "CA", "amenity": "post_box", "brand": "United States Postal Service", "brand:wikidata": "Q668687", "collection_times": "Mo-Sa 15:00", "name": "USPS COLLECTION BOX - BLUE BOX", "note": "ON 12/24 AND 12/31, THIS BOX MAY BE COLLECTED AS EARLY AS 12 NOON.", "nsi_id": "unitedstatespostalservice-a77078", "operator": "United States Postal Service", "operator:short": "USPS", "operator:type": "public", "operator:wikidata": "Q668687", "ref": "9072300001"}, "type": "Feature"}
{"dataset_attributes": {"@spider": "usps_collection_boxes", "spider:collection_time": "2023-10-19T08:25:27.646942"}, "geometry": {"coordinates": [-118.172926, 33.896081], "type": "Point"}, "id": "dwSO2-N5wJozMj88hFhOw_fgH1k=", "properties": {"@spider": "usps_collection_boxes", "addr:city": "PARAMOUNT", "addr:country": "US", "addr:full": "7200 SOMERSET BLVD", "addr:postcode": "90723", "addr:state": "CA", "amenity": "post_box", "brand": "United States Postal Service", "brand:wikidata": "Q668687", "collection_times": "Mo-Fr 17:00; Sa 16:30", "name": "USPS COLLECTION BOX - BLUE BOX", "note": "ON 12/24 AND 12/31, THIS BOX MAY BE COLLECTED AS EARLY AS 12 NOON.", "nsi_id": "unitedstatespostalservice-a77078", "operator": "United States Postal Service", "operator:short": "USPS", "operator:type": "public", "operator:wikidata": "Q668687", "ref": "9072300009"}, "type": "Feature"}
{"dataset_attributes": {"@spider": "usps_collection_boxes", "spider:collection_time": "2023-10-19T08:25:27.646942"}, "geometry": {"coordinates": [-118.152857, 33.889358], "type": "Point"}, "id": "i1nDu5DLjtnHN6mJY5g9L82YM9w=", "properties": {"@spider": "usps_collection_boxes", "addr:city": "PARAMOUNT", "addr:country": "US", "addr:full": "8425 ALONDRA BLVD", "addr:postcode": "90723", "addr:state": "CA", "amenity": "post_box", "brand": "United States Postal Service", "brand:wikidata": "Q668687", "collection_times": "Mo-Sa 15:00", "name": "USPS COLLECTION BOX - BLUE BOX", "note": "ON 12/24 AND 12/31, THIS BOX MAY BE COLLECTED AS EARLY AS 12 NOON.", "nsi_id": "unitedstatespostalservice-a77078", "operator": "United States Postal Service", "operator:short": "USPS", "operator:type": "public", "operator:wikidata": "Q668687", "ref": "9072300021"}, "type": "Feature"}
{"dataset_attributes": {"@spider": "usps_collection_boxes", "spider:collection_time": "2023-10-19T08:25:27.646942"}, "geometry": {"coordinates": [-118.158682, 33.896044], "type": "Point"}, "id": "0y7s1Q62Zavc3tpN5i1rwgoXN28=", "properties": {"@spider": "usps_collection_boxes", "addr:city": "PARAMOUNT", "addr:country": "US", "addr:full": "15110 CALIFORNIA AVE", "addr:postcode": "90723", "addr:state": "CA", "amenity": "post_box", "brand": "United States Postal Service", "brand:wikidata": "Q668687", "collection_times": "Mo-Sa 15:00", "name": "USPS COLLECTION BOX - BLUE BOX", "note": "ON 12/24 AND 12/31, THIS BOX MAY BE COLLECTED AS EARLY AS 12 NOON.", "nsi_id": "unitedstatespostalservice-a77078", "operator": "United States Postal Service", "operator:short": "USPS", "operator:type": "public", "operator:wikidata": "Q668687", "ref": "9072300022"}, "type": "Feature"}
{"dataset_attributes": {"@spider": "usps_collection_boxes", "spider:collection_time": "2023-10-19T08:25:27.646942"}, "geometry": {"coordinates": [-118.1728760291, 33.8962935692], "type": "Point"}, "id": "753FdY9oYzDgr-sStOcdM7DVnrI=", "properties": {"@spider": "usps_collection_boxes", "addr:city": "PARAMOUNT", "addr:country": "US", "addr:full": "7200 SOMERSET BLVD LOBBY", "addr:postcode": "90723", "addr:state": "CA", "amenity": "post_box", "brand": "United States Postal Service", "brand:wikidata": "Q668687", "collection_times": "Mo-Fr 17:00; Sa 16:30", "name": "USPS COLLECTION BOX - PO LOBBY", "note": "ON 12/24 AND 12/31, THIS BOX MAY BE COLLECTED AS EARLY AS 12 NOON.", "nsi_id": "unitedstatespostalservice-a77078", "operator": "United States Postal Service", "operator:short": "USPS", "operator:type": "public", "operator:wikidata": "Q668687", "ref": "9072300033"}, "type": "Feature"}
{"dataset_attributes": {"@spider": "usps_collection_boxes", "spider:collection_time": "2023-10-19T08:25:27.646942"}, "geometry": {"coordinates": [-118.159932, 33.898303], "type": "Point"}, "id": "qpgicZVSRSl2bDAvDzMPFeth3rw=", "properties": {"@spider": "usps_collection_boxes", "addr:city": "PARAMOUNT", "addr:country": "US", "addr:full": "14900 PARAMOUNT BLVD", "addr:postcode": "90723", "addr:state": "CA", "amenity": "post_box", "brand": "United States Postal Service", "brand:wikidata": "Q668687", "collection_times": "Mo-Fr 15:00; Sa 13:00", "name": "USPS COLLECTION BOX - BLUE BOX", "note": "ON 12/24 AND 12/31, THIS BOX MAY BE COLLECTED AS EARLY AS 12 NOON.", "nsi_id": "unitedstatespostalservice-a77078", "operator": "United States Postal Service", "operator:short": "USPS", "operator:type": "public", "operator:wikidata": "Q668687", "ref": "9072300045"}, "type": "Feature"}
{"dataset_attributes": {"@spider": "usps_collection_boxes", "spider:collection_time": "2023-10-19T08:25:27.646942"}, "geometry": {"coordinates": [-118.144755, 33.901618], "type": "Point"}, "id": "nAO8UF0tAdfS6l1G-2hvIEHHLfM=", "properties": {"@spider": "usps_collection_boxes", "addr:city": "PARAMOUNT", "addr:country": "US", "addr:full": "14525 LAKEWOOD BLVD", "addr:postcode": "90723", "addr:state": "CA", "amenity": "post_box", "brand": "United States Postal Service", "brand:wikidata": "Q668687", "collection_times": "Mo-Sa 15:00", "name": "USPS COLLECTION BOX - BLUE BOX", "note": "ON 12/24 AND 12/31, THIS BOX MAY BE COLLECTED AS EARLY AS 12 NOON.", "nsi_id": "unitedstatespostalservice-a77078", "operator": "United States Postal Service", "operator:short": "USPS", "operator:type": "public", "operator:wikidata": "Q668687", "ref": "9072300047"}, "type": "Feature"}
{"dataset_attributes": {"@spider": "usps_collection_boxes", "spider:collection_time": "2023-10-19T08:25:27.646942"}, "geometry": {"coordinates": [-118.184885, 33.89045], "type": "Point"}, "id": "sKVu2nvlJXM62ujXtlLsQnfoohU=", "properties": {"@spider": "usps_collection_boxes", "addr:city": "PARAMOUNT", "addr:country": "US", "addr:full": "6431 ALONDRA BLVD", "addr:postcode": "90723", "addr:state": "CA", "amenity": "post_box", "brand": "United States Postal Service", "brand:wikidata": "Q668687", "collection_times": "Mo-Sa 15:00", "name": "USPS COLLECTION BOX - BLUE BOX", "note": "ON 12/24 AND 12/31, THIS BOX MAY BE COLLECTED AS EARLY AS 12 NOON.", "nsi_id": "unitedstatespostalservice-a77078", "operator": "United States Postal Service", "operator:short": "USPS", "operator:type": "public", "operator:wikidata": "Q668687", "ref": "9072300050"}, "type": "Feature"}
{"dataset_attributes": {"@spider": "usps_collection_boxes", "spider:collection_time": "2023-10-19T08:25:27.646942"}, "geometry": {"coordinates": [-118.1728760291, 33.8962935692], "type": "Point"}, "id": "dB2Q1BZGjeJz_iHQwPG5_7u-FJA=", "properties": {"@spider": "usps_collection_boxes", "addr:city": "PARAMOUNT", "addr:country": "US", "addr:full": "7200 SOMERSET BLVD LOBBY", "addr:postcode": "90723", "addr:state": "CA", "amenity": "post_box", "brand": "United States Postal Service", "brand:wikidata": "Q668687", "collection_times": "Mo-Fr 17:00; Sa 16:30", "name": "USPS COLLECTION BOX - PO LOBBY", "note": "ON 12/24 AND 12/31, THIS BOX MAY BE COLLECTED AS EARLY AS 12 NOON.", "nsi_id": "unitedstatespostalservice-a77078", "operator": "United States Postal Service", "operator:short": "USPS", "operator:type": "public", "operator:wikidata": "Q668687", "ref": "9072300061"}, "type": "Feature"}
{"dataset_attributes": {"@spider": "usps_collection_boxes", "spider:collection_time": "2023-10-19T08:25:27.646942"}, "geometry": {"coordinates": [-118.156125, 33.892035], "type": "Point"}, "id": "oy4hzBaR6xP5EUm1uJY67iKaL54=", "properties": {"@spider": "usps_collection_boxes", "addr:city": "PARAMOUNT", "addr:country": "US", "addr:full": "7200 SOMERSET BLVD LOBBY", "addr:postcode": "90723", "addr:state": "CA", "amenity": "post_box", "brand": "United States Postal Service", "brand:wikidata": "Q668687", "collection_times": "Mo-Fr 17:00; Sa 16:30", "name": "USPS COLLECTION BOX - PO LOBBY", "note": "ON 12/24 AND 12/31, THIS BOX MAY BE COLLECTED AS EARLY AS 12 NOON.", "nsi_id": "unitedstatespostalservice-a77078", "operator": "United States Postal Service", "operator:short": "USPS", "operator:type": "public", "operator:wikidata": "Q668687", "ref": "9072300063"}, "type": "Feature"}
{"dataset_attributes": {"@spider": "usps_collection_boxes", "spider:collection_time": "2023-10-19T08:25:27.646942"}, "geometry": {"coordinates": [-118.294724, 33.736152], "type": "Point"}, "id": "65uTal7NvVidNM2TpIlI4bdd-LU=", "properties": {"@spider": "usps_collection_boxes", "addr:city": "SAN PEDRO", "addr:country": "US", "addr:full": "800 W 9TH ST", "addr:postcode": "90731", "addr:state": "CA", "amenity": "post_box", "brand": "United States Postal Service", "brand:wikidata": "Q668687", "collection_times": "Mo-Sa 13:00", "name": "USPS COLLECTION BOX - BLUE BOX", "note": "ON 12/24 AND 12/31, THIS BOX MAY BE COLLECTED AS EARLY AS 12 NOON.", "nsi_id": "unitedstatespostalservice-a77078", "operator": "United States Postal Service", "operator:short": "USPS", "operator:type": "public", "operator:wikidata": "Q668687", "ref": "9073100016"}, "type": "Feature"}
{"dataset_attributes": {"@spider": "usps_collection_boxes", "spider:collection_time": "2023-10-19T08:25:27.646942"}, "geometry": {"coordinates": [-118.2804833181, 33.7361829045], "type": "Point"}, "id": "4lheUetQi3n-v9NxcilryMuVHKU=", "properties": {"@spider": "usps_collection_boxes", "addr:city": "SAN PEDRO", "addr:country": "US", "addr:full": "839 S BEACON ST LOBBY", "addr:postcode": "90731", "addr:state": "CA", "amenity": "post_box", "brand": "United States Postal Service", "brand:wikidata": "Q668687", "collection_times": "Mo-Fr 17:00; Sa 15:30", "name": "USPS COLLECTION BOX - PO LOBBY", "note": "ON 12/24 AND 12/31, THIS BOX MAY BE COLLECTED AS EARLY AS 12 NOON.", "nsi_id": "unitedstatespostalservice-a77078", "operator": "United States Postal Service", "operator:short": "USPS", "operator:type": "public", "operator:wikidata": "Q668687", "ref": "9073100043"}, "type": "Feature"}
{"dataset_attributes": {"@spider": "usps_collection_boxes", "spider:collection_time": "2023-10-19T08:25:27.646942"}, "geometry": {"coordinates": [-118.282801, 33.720079], "type": "Point"}, "id": "jxp-lD_tpQGeAHMOg6DZWqaSObU=", "properties": {"@spider": "usps_collection_boxes", "addr:city": "SAN PEDRO", "addr:country": "US", "addr:full": "2500 VIA CABRILLO MARINA", "addr:postcode": "90731", "addr:state": "CA", "amenity": "post_box", "brand": "United States Postal Service", "brand:wikidata": "Q668687", "collection_times": "Mo-Fr 12:00; Sa 13:30", "name": "USPS COLLECTION BOX - BLUE BOX", "note": "ON 12/24 AND 12/31, THIS BOX MAY BE COLLECTED AS EARLY AS 12 NOON.", "nsi_id": "unitedstatespostalservice-a77078", "operator": "United States Postal Service", "operator:short": "USPS", "operator:type": "public", "operator:wikidata": "Q668687", "ref": "9073100044"}, "type": "Feature"}
{"dataset_attributes": {"@spider": "usps_collection_boxes", "spider:collection_time": "2023-10-19T08:25:27.646942"}, "geometry": {"coordinates": [-118.287829, 33.7179], "type": "Point"}, "id": "JGVbpLrGzzM0CVXsDaWRtRmHUbE=", "properties": {"@spider": "usps_collection_boxes", "addr:city": "SAN PEDRO", "addr:country": "US", "addr:full": "2900 S PACIFIC AVE", "addr:postcode": "90731", "addr:state": "CA", "amenity": "post_box", "brand": "United States Postal Service", "brand:wikidata": "Q668687", "collection_times": "Mo-Fr 12:00; Sa 13:00", "name": "USPS COLLECTION BOX - BLUE BOX", "note": "ON 12/24 AND 12/31, THIS BOX MAY BE COLLECTED AS EARLY AS 12 NOON.", "nsi_id": "unitedstatespostalservice-a77078", "operator": "United States Postal Service", "operator:short": "USPS", "operator:type": "public", "operator:wikidata": "Q668687", "ref": "9073100045"}, "type": "Feature"}
{"dataset_attributes": {"@spider": "usps_collection_boxes", "spider:collection_time": "2023-10-19T08:25:27.646942"}, "geometry": {"coordinates": [-118.2801879748, 33.7380819971], "type": "Point"}, "id": "pR6g3P5A5lNo2kpVFdnGcnGhS6Y=", "properties": {"@spider": "usps_collection_boxes", "addr:city": "SAN PEDRO", "addr:country": "US", "addr:full": "638 S BEACON ST", "addr:postcode": "90731", "addr:state": "CA", "amenity": "post_box", "brand": "United States Postal Service", "brand:wikidata": "Q668687", "collection_times": "Mo-Fr 15:00", "name": "USPS COLLECTION BOX - BLUE BOX", "note": "ON 12/24 AND 12/31, THIS BOX MAY BE COLLECTED AS EARLY AS 12 NOON.", "nsi_id": "unitedstatespostalservice-a77078", "operator": "United States Postal Service", "operator:short": "USPS", "operator:type": "public", "operator:wikidata": "Q668687", "ref": "9073100078"}, "type": "Feature"}
{"dataset_attributes": {"@spider": "usps_collection_boxes", "spider:collection_time": "2023-10-19T08:25:27.646942"}, "geometry": {"coordinates": [-118.304485, 33.713869], "type": "Point"}, "id": "kZnkOee0MsBjcHrwCDe6k0NDroc=", "properties": {"@spider": "usps_collection_boxes", "addr:city": "SAN PEDRO", "addr:country": "US", "addr:full": "1182 W 37TH ST", "addr:postcode": "90731", "addr:state": "CA", "amenity": "post_box", "brand": "United States Postal Service", "brand:wikidata": "Q668687", "collection_times": "Mo-Fr 12:00; Sa 13:00", "name": "USPS COLLECTION BOX - BLUE BOX", "note": "ON 12/24 AND 12/31, THIS BOX MAY BE COLLECTED AS EARLY AS 12 NOON.", "nsi_id": "unitedstatespostalservice-a77078", "operator": "United States Postal Service", "operator:short": "USPS", "operator:type": "public", "operator:wikidata": "Q668687", "ref": "9073100079"}, "type": "Feature"}
{"dataset_attributes": {"@spider": "usps_collection_boxes", "spider:collection_time": "2023-10-19T08:25:27.646942"}, "geometry": {"coordinates": [-118.2804833181, 33.7361829045], "type": "Point"}, "id": "Is2YP8yXCDs5O3EvtSteeXRD39Y=", "properties": {"@spider": "usps_collection_boxes", "addr:city": "SAN PEDRO", "addr:country": "US", "addr:full": "839 S BEACON ST LOBBY", "addr:postcode": "90731", "addr:state": "CA", "amenity": "post_box", "brand": "United States Postal Service", "brand:wikidata": "Q668687", "collection_times": "Mo-Fr 17:00; Sa 15:30", "name": "USPS COLLECTION BOX - PO LOBBY", "note": "ON 12/24 AND 12/31, THIS BOX MAY BE COLLECTED AS EARLY AS 12 NOON.", "nsi_id": "unitedstatespostalservice-a77078", "operator": "United States Postal Service", "operator:short": "USPS", "operator:type": "public", "operator:wikidata": "Q668687", "ref": "9073100088"}, "type": "Feature"}
{"dataset_attributes": {"@spider": "usps_collection_boxes", "spider:collection_time": "2023-10-19T08:25:27.646942"}, "geometry": {"coordinates": [-118.308996, 33.750538], "type": "Point"}, "id": "aXyt7I11kVBzQRJx9KcRX87uaiw=", "properties": {"@spider": "usps_collection_boxes", "addr:city": "SAN PEDRO", "addr:country": "US", "addr:full": "900 N WESTERN AVE", "addr:postcode": "90732", "addr:state": "CA", "amenity": "post_box", "brand": "United States Postal Service", "brand:wikidata": "Q668687", "collection_times": "Mo-Fr 12:00; Sa 13:00", "name": "USPS COLLECTION BOX - BLUE BOX", "note": "ON 12/24 AND 12/31, THIS BOX MAY BE COLLECTED AS EARLY AS 12 NOON.", "nsi_id": "unitedstatespostalservice-a77078", "operator": "United States Postal Service", "operator:short": "USPS", "operator:type": "public", "operator:wikidata": "Q668687", "ref": "9073200006"}, "type": "Feature"}
{"dataset_attributes": {"@spider": "usps_collection_boxes", "spider:collection_time": "2023-10-19T08:25:27.646942"}, "geometry": {"coordinates": [-118.309269, 33.736991], "type": "Point"}, "id": "9kzILG6dHLLnzlugLm8wL8LrXTQ=", "properties": {"@spider": "usps_collection_boxes", "addr:city": "SAN PEDRO", "addr:country": "US", "addr:full": "1441 W 8TH ST", "addr:postcode": "90732", "addr:state": "CA", "amenity": "post_box", "brand": "United States Postal Service", "brand:wikidata": "Q668687", "collection_times": "Mo-Fr 16:00; Sa 13:00", "name": "USPS COLLECTION BOX - BLUE BOX", "note": "ON 12/24 AND 12/31, THIS BOX MAY BE COLLECTED AS EARLY AS 12 NOON.", "nsi_id": "unitedstatespostalservice-a77078", "operator": "United States Postal Service", "operator:short": "USPS", "operator:type": "public", "operator:wikidata": "Q668687", "ref": "9073200021"}, "type": "Feature"}
{"dataset_attributes": {"@spider": "usps_collection_boxes", "spider:collection_time": "2023-10-19T08:25:27.646942"}, "geometry": {"coordinates": [-118.308766, 33.752583], "type": "Point"}, "id": "iQsZAzq-KUX9maf-0x543lZaB5c=", "properties": {"@spider": "usps_collection_boxes", "addr:city": "SAN PEDRO", "addr:country": "US", "addr:full": "1000 N WESTERN AVE", "addr:postcode": "90732", "addr:state": "CA", "amenity": "post_box", "brand": "United States Postal Service", "brand:wikidata": "Q668687", "collection_times": "Mo-Fr 12:00; Sa 13:00", "name": "USPS COLLECTION BOX - BLUE BOX", "note": "ON 12/24 AND 12/31, THIS BOX MAY BE COLLECTED AS EARLY AS 12 NOON.", "nsi_id": "unitedstatespostalservice-a77078", "operator": "United States Postal Service", "operator:short": "USPS", "operator:type": "public", "operator:wikidata": "Q668687", "ref": "9073200028"}, "type": "Feature"}
{"dataset_attributes": {"@spider": "usps_collection_boxes", "spider:collection_time": "2023-10-19T08:25:27.646942"}, "geometry": {"coordinates": [-118.312056, 33.723459], "type": "Point"}, "id": "BHyp_O_ntTI0gbWl-GKkl79pd6Q=", "properties": {"@spider": "usps_collection_boxes", "addr:city": "SAN PEDRO", "addr:country": "US", "addr:full": "2470 S WESTERN AVE", "addr:postcode": "90732", "addr:state": "CA", "amenity": "post_box", "brand": "United States Postal Service", "brand:wikidata": "Q668687", "collection_times": "Mo-Fr 12:00; Sa 13:00", "name": "USPS COLLECTION BOX - BLUE BOX", "note": "ON 12/24 AND 12/31, THIS BOX MAY BE COLLECTED AS EARLY AS 12 NOON.", "nsi_id": "unitedstatespostalservice-a77078", "operator": "United States Postal Service", "operator:short": "USPS", "operator:type": "public", "operator:wikidata": "Q668687", "ref": "9073200031"}, "type": "Feature"}
{"dataset_attributes": {"@spider": "usps_collection_boxes", "spider:collection_time": "2023-10-19T08:25:27.646942"}, "geometry": {"coordinates": [-118.31245, 33.723388], "type": "Point"}, "id": "bfxGwgIODxTv9IdlJVTeDQ2rbjc=", "properties": {"@spider": "usps_collection_boxes", "addr:city": "SAN PEDRO", "addr:country": "US", "addr:full": "1602 W 25TH ST", "addr:postcode": "90732", "addr:state": "CA", "amenity": "post_box", "brand": "United States Postal Service", "brand:wikidata": "Q668687", "collection_times": "Mo-Fr 12:00; Sa 13:00", "name": "USPS COLLECTION BOX - BLUE BOX", "note": "ON 12/24 AND 12/31, THIS BOX MAY BE COLLECTED AS EARLY AS 12 NOON.", "nsi_id": "unitedstatespostalservice-a77078", "operator": "United States Postal Service", "operator:short": "USPS", "operator:type": "public", "operator:wikidata": "Q668687", "ref": "9073200033"}, "type": "Feature"}
{"dataset_attributes": {"@spider": "usps_collection_boxes", "spider:collection_time": "2023-10-19T08:25:27.646942"}, "geometry": {"coordinates": [-118.307457, 33.738919], "type": "Point"}, "id": "MMvZ75E0lrgdk4YksVX8ujQFe3A=", "properties": {"@spider": "usps_collection_boxes", "addr:city": "SAN PEDRO", "addr:country": "US", "addr:full": "1360 W 6TH ST", "addr:postcode": "90732", "addr:state": "CA", "amenity": "post_box", "brand": "United States Postal Service", "brand:wikidata": "Q668687", "collection_times": "Mo-Fr 12:00; Sa 13:00", "name": "USPS COLLECTION BOX - BLUE BOX", "note": "ON 12/24 AND 12/31, THIS BOX MAY BE COLLECTED AS EARLY AS 12 NOON.", "nsi_id": "unitedstatespostalservice-a77078", "operator": "United States Postal Service", "operator:short": "USPS", "operator:type": "public", "operator:wikidata": "Q668687", "ref": "9073200035"}, "type": "Feature"}
{"dataset_attributes": {"@spider": "usps_collection_boxes", "spider:collection_time": "2023-10-19T08:25:27.646942"}, "geometry": {"coordinates": [-118.3126972119, 33.7595555602], "type": "Point"}, "id": "sgLekrg7vh3_2_V9DoGMB51gljw=", "properties": {"@spider": "usps_collection_boxes", "addr:city": "SAN PEDRO", "addr:country": "US", "addr:full": "28649 S WESTERN AVE LOBBY", "addr:postcode": "90732", "addr:state": "CA", "amenity": "post_box", "brand": "United States Postal Service", "brand:wikidata": "Q668687", "collection_times": "Mo-Fr 17:00; Sa 13:00", "name": "USPS COLLECTION BOX - PO LOBBY", "note": "ON 12/24 AND 12/31, THIS BOX MAY BE COLLECTED AS EARLY AS 12 NOON.", "nsi_id": "unitedstatespostalservice-a77078", "operator": "United States Postal Service", "operator:short": "USPS", "operator:type": "public", "operator:wikidata": "Q668687", "ref": "9073200039"}, "type": "Feature"}
{"dataset_attributes": {"@spider": "usps_collection_boxes", "spider:collection_time": "2023-10-19T08:25:27.646942"}, "geometry": {"coordinates": [-118.3126972119, 33.7595555602], "type": "Point"}, "id": "V2qdpjN66atI4w_BSJ6meADaCsg=", "properties": {"@spider": "usps_collection_boxes", "addr:city": "SAN PEDRO", "addr:country": "US", "addr:full": "28649 S WESTERN AVE LOBBY", "addr:postcode": "90732", "addr:state": "CA", "amenity": "post_box", "brand": "United States Postal Service", "brand:wikidata": "Q668687", "collection_times": "Mo-Fr 17:00; Sa 13:00", "name": "USPS COLLECTION BOX - PO LOBBY", "note": "ON 12/24 AND 12/31, THIS BOX MAY BE COLLECTED AS EARLY AS 12 NOON.", "nsi_id": "unitedstatespostalservice-a77078", "operator": "United States Postal Service", "operator:short": "USPS", "operator:type": "public", "operator:wikidata": "Q668687", "ref": "9073200047"}, "type": "Feature"}
{"dataset_attributes": {"@spider": "usps_collection_boxes", "spider:collection_time": "2023-10-19T08:25:27.646942"}, "geometry": {"coordinates": [-118.083521, 33.757916], "type": "Point"}, "id": "LX8fAaBsDVrsS1eQsOHopH02Gnk=", "properties": {"@spider": "usps_collection_boxes", "addr:city": "SEAL BEACH", "addr:country": "US", "addr:full": "2800 WESTMINSTER AVE", "addr:postcode": "90740", "addr:state": "CA", "amenity": "post_box", "brand": "United States Postal Service", "brand:wikidata": "Q668687", "collection_times": "Mo-Fr 15:30", "name": "USPS COLLECTION BOX - BLUE BOX", "note": "ON 12/24 AND 12/31, THIS BOX MAY BE COLLECTED AS EARLY AS 12 NOON.", "nsi_id": "unitedstatespostalservice-a77078", "operator": "United States Postal Service", "operator:short": "USPS", "operator:type": "public", "operator:wikidata": "Q668687", "ref": "9074000001"}, "type": "Feature"}
{"dataset_attributes": {"@spider": "usps_collection_boxes", "spider:collection_time": "2023-10-19T08:25:27.646942"}, "geometry": {"coordinates": [-118.077687, 33.772435], "type": "Point"}, "id": "JNTPXljRbVyctEhcyBeteoi_QtM=", "properties": {"@spider": "usps_collection_boxes", "addr:city": "SEAL BEACH", "addr:country": "US", "addr:full": "13001 SEAL BEACH BLVD", "addr:postcode": "90740", "addr:state": "CA", "amenity": "post_box", "brand": "United States Postal Service", "brand:wikidata": "Q668687", "collection_times": "Mo-Fr 14:15; Sa 13:30", "name": "USPS COLLECTION BOX - BLUE BOX", "note": "ON 12/24 AND 12/31, THIS BOX MAY BE COLLECTED AS EARLY AS 12 NOON.", "nsi_id": "unitedstatespostalservice-a77078", "operator": "United States Postal Service", "operator:short": "USPS", "operator:type": "public", "operator:wikidata": "Q668687", "ref": "9074000007"}, "type": "Feature"}
{"dataset_attributes": {"@spider": "usps_collection_boxes", "spider:collection_time": "2023-10-19T08:25:27.646942"}, "geometry": {"coordinates": [-118.088528, 33.766594], "type": "Point"}, "id": "N5PNcGMz7cWy7dBK6ZQ-VaB1G58=", "properties": {"@spider": "usps_collection_boxes", "addr:city": "SEAL BEACH", "addr:country": "US", "addr:full": "1360 PELHAM RD", "addr:postcode": "90740", "addr:state": "CA", "amenity": "post_box", "brand": "United States Postal Service", "brand:wikidata": "Q668687", "collection_times": "Mo-Fr 14:15; Sa 13:00", "name": "USPS COLLECTION BOX - BLUE BOX", "note": "ON 12/24 AND 12/31, THIS BOX MAY BE COLLECTED AS EARLY AS 12 NOON.", "nsi_id": "unitedstatespostalservice-a77078", "operator": "United States Postal Service", "operator:short": "USPS", "operator:type": "public", "operator:wikidata": "Q668687", "ref": "9074000013"}, "type": "Feature"}
{"dataset_attributes": {"@spider": "usps_collection_boxes", "spider:collection_time": "2023-10-19T08:25:27.646942"}, "geometry": {"coordinates": [-118.089451, 33.768912], "type": "Point"}, "id": "ia8pN8JsBSXoD3f8Q-22-2WD63A=", "properties": {"@spider": "usps_collection_boxes", "addr:city": "SEAL BEACH", "addr:country": "US", "addr:full": "1330 OAKMONT RD", "addr:postcode": "90740", "addr:state": "CA", "amenity": "post_box", "brand": "United States Postal Service", "brand:wikidata": "Q668687", "collection_times": "Mo-Fr 14:00; Sa 13:00", "name": "USPS COLLECTION BOX - BLUE BOX", "note": "ON 12/24 AND 12/31, THIS BOX MAY BE COLLECTED AS EARLY AS 12 NOON.", "nsi_id": "unitedstatespostalservice-a77078", "operator": "United States Postal Service", "operator:short": "USPS", "operator:type": "public", "operator:wikidata": "Q668687", "ref": "9074000014"}, "type": "Feature"}
{"dataset_attributes": {"@spider": "usps_collection_boxes", "spider:collection_time": "2023-10-19T08:25:27.646942"}, "geometry": {"coordinates": [-118.089301, 33.772623], "type": "Point"}, "id": "82aEjvfOc3h3_88dIb2DETQt6yU=", "properties": {"@spider": "usps_collection_boxes", "addr:city": "SEAL BEACH", "addr:country": "US", "addr:full": "13141 SAINT ANDREWS DR", "addr:postcode": "90740", "addr:state": "CA", "amenity": "post_box", "brand": "United States Postal Service", "brand:wikidata": "Q668687", "collection_times": "Mo-Fr 14:15; Sa 13:00", "name": "USPS COLLECTION BOX - BLUE BOX", "note": "ON 12/24 AND 12/31, THIS BOX MAY BE COLLECTED AS EARLY AS 12 NOON.", "nsi_id": "unitedstatespostalservice-a77078", "operator": "United States Postal Service", "operator:short": "USPS", "operator:type": "public", "operator:wikidata": "Q668687", "ref": "9074000015"}, "type": "Feature"}
{"dataset_attributes": {"@spider": "usps_collection_boxes", "spider:collection_time": "2023-10-19T08:25:27.646942"}, "geometry": {"coordinates": [-118.0848055967, 33.7733808349], "type": "Point"}, "id": "XWNNlDWpdZkoY4fYkQyTxft0TXI=", "properties": {"@spider": "usps_collection_boxes", "addr:city": "SEAL BEACH", "addr:country": "US", "addr:full": "1581 NORTHWOOD RD", "addr:postcode": "90740", "addr:state": "CA", "amenity": "post_box", "brand": "United States Postal Service", "brand:wikidata": "Q668687", "collection_times": "Mo-Fr 14:30; Sa 13:00", "name": "USPS COLLECTION BOX - BLUE BOX", "note": "ON 12/24 AND 12/31, THIS BOX MAY BE COLLECTED AS EARLY AS 12 NOON.", "nsi_id": "unitedstatespostalservice-a77078", "operator": "United States Postal Service", "operator:short": "USPS", "operator:type": "public", "operator:wikidata": "Q668687", "ref": "9074000016"}, "type": "Feature"}
{"dataset_attributes": {"@spider": "usps_collection_boxes", "spider:collection_time": "2023-10-19T08:25:27.646942"}, "geometry": {"coordinates": [-118.093139, 33.770435], "type": "Point"}, "id": "mKfuSF-d3wGiRtJtbBU4lccapgM=", "properties": {"@spider": "usps_collection_boxes", "addr:city": "SEAL BEACH", "addr:country": "US", "addr:full": "13240 EL DORADO DR", "addr:postcode": "90740", "addr:state": "CA", "amenity": "post_box", "brand": "United States Postal Service", "brand:wikidata": "Q668687", "collection_times": "Mo-Fr 14:15; Sa 13:15", "name": "USPS COLLECTION BOX - BLUE BOX", "note": "ON 12/24 AND 12/31, THIS BOX MAY BE COLLECTED AS EARLY AS 12 NOON.", "nsi_id": "unitedstatespostalservice-a77078", "operator": "United States Postal Service", "operator:short": "USPS", "operator:type": "public", "operator:wikidata": "Q668687", "ref": "9074000017"}, "type": "Feature"}
{"dataset_attributes": {"@spider": "usps_collection_boxes", "spider:collection_time": "2023-10-19T08:25:27.646942"}, "geometry": {"coordinates": [-118.078539, 33.771149], "type": "Point"}, "id": "s0YgIj2nhTZqgiXbEvKaf3WbnKs=", "properties": {"@spider": "usps_collection_boxes", "addr:city": "SEAL BEACH", "addr:country": "US", "addr:full": "1920 MCKINNEY WAY", "addr:postcode": "90740", "addr:state": "CA", "amenity": "post_box", "brand": "United States Postal Service", "brand:wikidata": "Q668687", "collection_times": "Mo-Fr 14:30; Sa 13:00", "name": "USPS COLLECTION BOX - BLUE BOX", "note": "ON 12/24 AND 12/31, THIS BOX MAY BE COLLECTED AS EARLY AS 12 NOON.", "nsi_id": "unitedstatespostalservice-a77078", "operator": "United States Postal Service", "operator:short": "USPS", "operator:type": "public", "operator:wikidata": "Q668687", "ref": "9074000019"}, "type": "Feature"}
{"dataset_attributes": {"@spider": "usps_collection_boxes", "spider:collection_time": "2023-10-19T08:25:27.646942"}, "geometry": {"coordinates": [-118.084456, 33.770403], "type": "Point"}, "id": "EAZyQWIugYYkA7dv5meGyH5PPLQ=", "properties": {"@spider": "usps_collection_boxes", "addr:city": "SEAL BEACH", "addr:country": "US", "addr:full": "1581 INTERLACHEN RD", "addr:postcode": "90740", "addr:state": "CA", "amenity": "post_box", "brand": "United States Postal Service", "brand:wikidata": "Q668687", "collection_times": "Mo-Fr 14:30; Sa 13:15", "name": "USPS COLLECTION BOX - BLUE BOX", "note": "ON 12/24 AND 12/31, THIS BOX MAY BE COLLECTED AS EARLY AS 12 NOON.", "nsi_id": "unitedstatespostalservice-a77078", "operator": "United States Postal Service", "operator:short": "USPS", "operator:type": "public", "operator:wikidata": "Q668687", "ref": "9074000020"}, "type": "Feature"}
{"dataset_attributes": {"@spider": "usps_collection_boxes", "spider:collection_time": "2023-10-19T08:25:27.646942"}, "geometry": {"coordinates": [-118.063053, 33.776149], "type": "Point"}, "id": "FTIfItE8mENVX4m9i85g7yxxiCE=", "properties": {"@spider": "usps_collection_boxes", "addr:city": "SEAL BEACH", "addr:country": "US", "addr:full": "4000 LAMPSON AVE", "addr:postcode": "90740", "addr:state": "CA", "amenity": "post_box", "brand": "United States Postal Service", "brand:wikidata": "Q668687", "collection_times": "Mo-Fr 15:15; Sa 13:45", "name": "USPS COLLECTION BOX - BLUE BOX", "note": "ON 12/24 AND 12/31, THIS BOX MAY BE COLLECTED AS EARLY AS 12 NOON.", "nsi_id": "unitedstatespostalservice-a77078", "operator": "United States Postal Service", "operator:short": "USPS", "operator:type": "public", "operator:wikidata": "Q668687", "ref": "9074000021"}, "type": "Feature"}
{"dataset_attributes": {"@spider": "usps_collection_boxes", "spider:collection_time": "2023-10-19T08:25:27.646942"}, "geometry": {"coordinates": [-118.052654, 33.780574], "type": "Point"}, "id": "mQ0qV4Huu7tjgRWz4GG_2E1YLUU=", "properties": {"@spider": "usps_collection_boxes", "addr:city": "SEAL BEACH", "addr:country": "US", "addr:full": "3940 HEATHER ST", "addr:postcode": "90740", "addr:state": "CA", "amenity": "post_box", "brand": "United States Postal Service", "brand:wikidata": "Q668687", "collection_times": "Mo-Fr 15:00; Sa 13:45", "name": "USPS COLLECTION BOX - BLUE BOX", "note": "ON 12/24 AND 12/31, THIS BOX MAY BE COLLECTED AS EARLY AS 12 NOON.", "nsi_id": "unitedstatespostalservice-a77078", "operator": "United States Postal Service", "operator:short": "USPS", "operator:type": "public", "operator:wikidata": "Q668687", "ref": "9074000022"}, "type": "Feature"}
{"dataset_attributes": {"@spider": "usps_collection_boxes", "spider:collection_time": "2023-10-19T08:25:27.646942"}, "geometry": {"coordinates": [-118.082069, 33.761558], "type": "Point"}, "id": "xEBdI0DFIfk_ejldwL04QUJdy3g=", "properties": {"@spider": "usps_collection_boxes", "addr:city": "SEAL BEACH", "addr:country": "US", "addr:full": "13901 THUNDERBIRD DR", "addr:postcode": "90740", "addr:state": "CA", "amenity": "post_box", "brand": "United States Postal Service", "brand:wikidata": "Q668687", "collection_times": "Mo-Fr 14:00; Sa 13:00", "name": "USPS COLLECTION BOX - BLUE BOX", "note": "ON 12/24 AND 12/31, THIS BOX MAY BE COLLECTED AS EARLY AS 12 NOON.", "nsi_id": "unitedstatespostalservice-a77078", "operator": "United States Postal Service", "operator:short": "USPS", "operator:type": "public", "operator:wikidata": "Q668687", "ref": "9074000023"}, "type": "Feature"}
{"dataset_attributes": {"@spider": "usps_collection_boxes", "spider:collection_time": "2023-10-19T08:25:27.646942"}, "geometry": {"coordinates": [-118.082066, 33.768388], "type": "Point"}, "id": "74gZhiaSPCyHLPMcQ60VKz5Jhd0=", "properties": {"@spider": "usps_collection_boxes", "addr:city": "SEAL BEACH", "addr:country": "US", "addr:full": "1701 SUNNINGDALE RD", "addr:postcode": "90740", "addr:state": "CA", "amenity": "post_box", "brand": "United States Postal Service", "brand:wikidata": "Q668687", "collection_times": "Mo-Fr 14:30; Sa 13:00", "name": "USPS COLLECTION BOX - BLUE BOX", "note": "ON 12/24 AND 12/31, THIS BOX MAY BE COLLECTED AS EARLY AS 12 NOON.", "nsi_id": "unitedstatespostalservice-a77078", "operator": "United States Postal Service", "operator:short": "USPS", "operator:type": "public", "operator:wikidata": "Q668687", "ref": "9074000024"}, "type": "Feature"}
{"dataset_attributes": {"@spider": "usps_collection_boxes", "spider:collection_time": "2023-10-19T08:25:27.646942"}, "geometry": {"coordinates": [-118.079953, 33.773102], "type": "Point"}, "id": "AaVWZPCQWvUxp_tJlL-RoNpsRVU=", "properties": {"@spider": "usps_collection_boxes", "addr:city": "SEAL BEACH", "addr:country": "US", "addr:full": "1880 SAINT JOHN RD", "addr:postcode": "90740", "addr:state": "CA", "amenity": "post_box", "brand": "United States Postal Service", "brand:wikidata": "Q668687", "collection_times": "Mo-Sa 12:30", "name": "USPS COLLECTION BOX - BLUE BOX", "note": "ON 12/24 AND 12/31, THIS BOX MAY BE COLLECTED AS EARLY AS 12 NOON.", "nsi_id": "unitedstatespostalservice-a77078", "operator": "United States Postal Service", "operator:short": "USPS", "operator:type": "public", "operator:wikidata": "Q668687", "ref": "9074000025"}, "type": "Feature"}
{"dataset_attributes": {"@spider": "usps_collection_boxes", "spider:collection_time": "2023-10-19T08:25:27.646942"}, "geometry": {"coordinates": [-118.085463, 33.768154], "type": "Point"}, "id": "UpBzZalIfcUXmq8Vp5pJyi5Q_hI=", "properties": {"@spider": "usps_collection_boxes", "addr:city": "SEAL BEACH", "addr:country": "US", "addr:full": "13451 SAINT ANDREWS DR", "addr:postcode": "90740", "addr:state": "CA", "amenity": "post_box", "brand": "United States Postal Service", "brand:wikidata": "Q668687", "collection_times": "Mo-Fr 14:15; Sa 13:15", "name": "USPS COLLECTION BOX - BLUE BOX", "note": "ON 12/24 AND 12/31, THIS BOX MAY BE COLLECTED AS EARLY AS 12 NOON.", "nsi_id": "unitedstatespostalservice-a77078", "operator": "United States Postal Service", "operator:short": "USPS", "operator:type": "public", "operator:wikidata": "Q668687", "ref": "9074000026"}, "type": "Feature"}
{"dataset_attributes": {"@spider": "usps_collection_boxes", "spider:collection_time": "2023-10-19T08:25:27.646942"}, "geometry": {"coordinates": [-118.082085, 33.764004], "type": "Point"}, "id": "rfB9ifgMixjInsPapAP7qIqY1yo=", "properties": {"@spider": "usps_collection_boxes", "addr:city": "SEAL BEACH", "addr:country": "US", "addr:full": "13790 SAINT ANDREWS DR", "addr:postcode": "90740", "addr:state": "CA", "amenity": "post_box", "brand": "United States Postal Service", "brand:wikidata": "Q668687", "collection_times": "Mo-Sa 12:30", "name": "USPS COLLECTION BOX - BLUE BOX", "note": "ON 12/24 AND 12/31, THIS BOX MAY BE COLLECTED AS EARLY AS 12 NOON.", "nsi_id": "unitedstatespostalservice-a77078", "operator": "United States Postal Service", "operator:short": "USPS", "operator:type": "public", "operator:wikidata": "Q668687", "ref": "9074000028"}, "type": "Feature"}
{"dataset_attributes": {"@spider": "usps_collection_boxes", "spider:collection_time": "2023-10-19T08:25:27.646942"}, "geometry": {"coordinates": [-118.104956, 33.746838], "type": "Point"}, "id": "Vcts4xYkwqkc0L0XQQ3D6UskXp4=", "properties": {"@spider": "usps_collection_boxes", "addr:city": "SEAL BEACH", "addr:country": "US", "addr:full": "430 COASTLINE DR", "addr:postcode": "90740", "addr:state": "CA", "amenity": "post_box", "brand": "United States Postal Service", "brand:wikidata": "Q668687", "collection_times": "Mo-Sa 13:15", "name": "USPS COLLECTION BOX - BLUE BOX", "note": "ON 12/24 AND 12/31, THIS BOX MAY BE COLLECTED AS EARLY AS 12 NOON.", "nsi_id": "unitedstatespostalservice-a77078", "operator": "United States Postal Service", "operator:short": "USPS", "operator:type": "public", "operator:wikidata": "Q668687", "ref": "9074000030"}, "type": "Feature"}
{"dataset_attributes": {"@spider": "usps_collection_boxes", "spider:collection_time": "2023-10-19T08:25:27.646942"}, "geometry": {"coordinates": [-118.096816, 33.745145], "type": "Point"}, "id": "eml-LcYiRu4SxzKvD287CpwCT5s=", "properties": {"@spider": "usps_collection_boxes", "addr:city": "SEAL BEACH", "addr:country": "US", "addr:full": "600 SANDPIPER DR", "addr:postcode": "90740", "addr:state": "CA", "amenity": "post_box", "brand": "United States Postal Service", "brand:wikidata": "Q668687", "collection_times": "Mo-Sa 12:30", "name": "USPS COLLECTION BOX - BLUE BOX", "note": "ON 12/24 AND 12/31, THIS BOX MAY BE COLLECTED AS EARLY AS 12 NOON.", "nsi_id": "unitedstatespostalservice-a77078", "operator": "United States Postal Service", "operator:short": "USPS", "operator:type": "public", "operator:wikidata": "Q668687", "ref": "9074000033"}, "type": "Feature"}
{"dataset_attributes": {"@spider": "usps_collection_boxes", "spider:collection_time": "2023-10-19T08:25:27.646942"}, "geometry": {"coordinates": [-118.105892, 33.746248], "type": "Point"}, "id": "SLcMUIfvS6giZpmCDLzRlwXcwT4=", "properties": {"@spider": "usps_collection_boxes", "addr:city": "SEAL BEACH", "addr:country": "US", "addr:full": "600 PACIFIC COAST HWY", "addr:postcode": "90740", "addr:state": "CA", "amenity": "post_box", "brand": "United States Postal Service", "brand:wikidata": "Q668687", "collection_times": "Mo-Fr 16:15; Sa 13:00", "name": "USPS COLLECTION BOX - BLUE BOX", "note": "ON 12/24 AND 12/31, THIS BOX MAY BE COLLECTED AS EARLY AS 12 NOON.", "nsi_id": "unitedstatespostalservice-a77078", "operator": "United States Postal Service", "operator:short": "USPS", "operator:type": "public", "operator:wikidata": "Q668687", "ref": "9074000037"}, "type": "Feature"}
{"dataset_attributes": {"@spider": "usps_collection_boxes", "spider:collection_time": "2023-10-19T08:25:27.646942"}, "geometry": {"coordinates": [-118.107202, 33.74499], "type": "Point"}, "id": "LvzJVUvUu0kfFZzlhX-cK7yjF6Q=", "properties": {"@spider": "usps_collection_boxes", "addr:city": "SEAL BEACH", "addr:country": "US", "addr:full": "412 MARINA DR", "addr:postcode": "90740", "addr:state": "CA", "amenity": "post_box", "brand": "United States Postal Service", "brand:wikidata": "Q668687", "collection_times": "Mo-Fr 16:00; Sa 13:30", "name": "USPS COLLECTION BOX - BLUE BOX", "note": "ON 12/24 AND 12/31, THIS BOX MAY BE COLLECTED AS EARLY AS 12 NOON.", "nsi_id": "unitedstatespostalservice-a77078", "operator": "United States Postal Service", "operator:short": "USPS", "operator:type": "public", "operator:wikidata": "Q668687", "ref": "9074000038"}, "type": "Feature"}
{"dataset_attributes": {"@spider": "usps_collection_boxes", "spider:collection_time": "2023-10-19T08:25:27.646942"}, "geometry": {"coordinates": [-118.108593, 33.748108], "type": "Point"}, "id": "OuGSxchHv_f9STYht7kVIq2vUB0=", "properties": {"@spider": "usps_collection_boxes", "addr:city": "SEAL BEACH", "addr:country": "US", "addr:full": "333 1ST ST BLDG H", "addr:postcode": "90740", "addr:state": "CA", "amenity": "post_box", "brand": "United States Postal Service", "brand:wikidata": "Q668687", "collection_times": "Mo-Sa 13:00", "name": "USPS COLLECTION BOX - BLUE BOX", "note": "ON 12/24 AND 12/31, THIS BOX MAY BE COLLECTED AS EARLY AS 12 NOON.", "nsi_id": "unitedstatespostalservice-a77078", "operator": "United States Postal Service", "operator:short": "USPS", "operator:type": "public", "operator:wikidata": "Q668687", "ref": "9074000040"}, "type": "Feature"}
{"dataset_attributes": {"@spider": "usps_collection_boxes", "spider:collection_time": "2023-10-19T08:25:27.646942"}, "geometry": {"coordinates": [-118.104856, 33.743524], "type": "Point"}, "id": "qu_xumHt1DWCrPyWnjZ84x2eVuM=", "properties": {"@spider": "usps_collection_boxes", "addr:city": "SEAL BEACH", "addr:country": "US", "addr:full": "707 ELECTRIC AVE", "addr:postcode": "90740", "addr:state": "CA", "amenity": "post_box", "brand": "United States Postal Service", "brand:wikidata": "Q668687", "collection_times": "Mo-Fr 16:00; Sa 14:30", "name": "USPS COLLECTION BOX - BLUE BOX", "note": "ON 12/24 AND 12/31, THIS BOX MAY BE COLLECTED AS EARLY AS 12 NOON.", "nsi_id": "unitedstatespostalservice-a77078", "operator": "United States Postal Service", "operator:short": "USPS", "operator:type": "public", "operator:wikidata": "Q668687", "ref": "9074000041"}, "type": "Feature"}
{"dataset_attributes": {"@spider": "usps_collection_boxes", "spider:collection_time": "2023-10-19T08:25:27.646942"}, "geometry": {"coordinates": [-118.1043181717, 33.742120431], "type": "Point"}, "id": "PujBwFRG8QNgJPJYl1Dd2VGTZP0=", "properties": {"@spider": "usps_collection_boxes", "addr:city": "SEAL BEACH", "addr:country": "US", "addr:full": "221 MAIN ST LOBBY", "addr:postcode": "90740", "addr:state": "CA", "amenity": "post_box", "brand": "United States Postal Service", "brand:wikidata": "Q668687", "collection_times": "Mo-Fr 17:00", "name": "USPS COLLECTION BOX - PO LOBBY", "note": "ON 12/24 AND 12/31, THIS BOX MAY BE COLLECTED AS EARLY AS 12 NOON.", "nsi_id": "unitedstatespostalservice-a77078", "operator": "United States Postal Service", "operator:short": "USPS", "operator:type": "public", "operator:wikidata": "Q668687", "ref": "9074000042"}, "type": "Feature"}
{"dataset_attributes": {"@spider": "usps_collection_boxes", "spider:collection_time": "2023-10-19T08:25:27.646942"}, "geometry": {"coordinates": [-118.104361, 33.742182], "type": "Point"}, "id": "BHtFazdyRZsRbpE-hn3oGm7tOVg=", "properties": {"@spider": "usps_collection_boxes", "addr:city": "SEAL BEACH", "addr:country": "US", "addr:full": "221 MAIN ST", "addr:postcode": "90740", "addr:state": "CA", "amenity": "post_box", "brand": "United States Postal Service", "brand:wikidata": "Q668687", "collection_times": "Mo-Fr 17:00; Sa 14:30", "name": "USPS COLLECTION BOX - BLUE BOX", "note": "ON 12/24 AND 12/31, THIS BOX MAY BE COLLECTED AS EARLY AS 12 NOON.", "nsi_id": "unitedstatespostalservice-a77078", "operator": "United States Postal Service", "operator:short": "USPS", "operator:type": "public", "operator:wikidata": "Q668687", "ref": "9074000043"}, "type": "Feature"}
{"dataset_attributes": {"@spider": "usps_collection_boxes", "spider:collection_time": "2023-10-19T08:25:27.646942"}, "geometry": {"coordinates": [-118.081849, 33.771909], "type": "Point"}, "id": "veFTRjohvoyvFT092l4uUHM_Gxw=", "properties": {"@spider": "usps_collection_boxes", "addr:city": "SEAL BEACH", "addr:country": "US", "addr:full": "13141 DEL MONTE DR", "addr:postcode": "90740", "addr:state": "CA", "amenity": "post_box", "brand": "United States Postal Service", "brand:wikidata": "Q668687", "collection_times": "Mo-Fr 14:30; Sa 13:15", "name": "USPS COLLECTION BOX - BLUE BOX", "note": "ON 12/24 AND 12/31, THIS BOX MAY BE COLLECTED AS EARLY AS 12 NOON.", "nsi_id": "unitedstatespostalservice-a77078", "operator": "United States Postal Service", "operator:short": "USPS", "operator:type": "public", "operator:wikidata": "Q668687", "ref": "9074000045"}, "type": "Feature"}
{"dataset_attributes": {"@spider": "usps_collection_boxes", "spider:collection_time": "2023-10-19T08:25:27.646942"}, "geometry": {"coordinates": [-118.088982, 33.76187], "type": "Point"}, "id": "xxzvhl4Wh3QiL4TU8GZwoQr2bt8=", "properties": {"@spider": "usps_collection_boxes", "addr:city": "SEAL BEACH", "addr:country": "US", "addr:full": "13800 EL DORADO DR", "addr:postcode": "90740", "addr:state": "CA", "amenity": "post_box", "brand": "United States Postal Service", "brand:wikidata": "Q668687", "collection_times": "Mo-Fr 13:45; Sa 13:15", "name": "USPS COLLECTION BOX - BLUE BOX", "note": "ON 12/24 AND 12/31, THIS BOX MAY BE COLLECTED AS EARLY AS 12 NOON.", "nsi_id": "unitedstatespostalservice-a77078", "operator": "United States Postal Service", "operator:short": "USPS", "operator:type": "public", "operator:wikidata": "Q668687", "ref": "9074000047"}, "type": "Feature"}
{"dataset_attributes": {"@spider": "usps_collection_boxes", "spider:collection_time": "2023-10-19T08:25:27.646942"}, "geometry": {"coordinates": [-118.090739, 33.763977], "type": "Point"}, "id": "bElPfMb4bKpL6rYVjRYvSeMuUXE=", "properties": {"@spider": "usps_collection_boxes", "addr:city": "SEAL BEACH", "addr:country": "US", "addr:full": "13700 EL DORADO DR", "addr:postcode": "90740", "addr:state": "CA", "amenity": "post_box", "brand": "United States Postal Service", "brand:wikidata": "Q668687", "collection_times": "Mo-Fr 13:45; Sa 13:15", "name": "USPS COLLECTION BOX - BLUE BOX", "note": "ON 12/24 AND 12/31, THIS BOX MAY BE COLLECTED AS EARLY AS 12 NOON.", "nsi_id": "unitedstatespostalservice-a77078", "operator": "United States Postal Service", "operator:short": "USPS", "operator:type": "public", "operator:wikidata": "Q668687", "ref": "9074000048"}, "type": "Feature"}
{"dataset_attributes": {"@spider": "usps_collection_boxes", "spider:collection_time": "2023-10-19T08:25:27.646942"}, "geometry": {"coordinates": [-118.079041, 33.768364], "type": "Point"}, "id": "Di_NyoplWKbNv4cPM5NmIx0Q1ys=", "properties": {"@spider": "usps_collection_boxes", "addr:city": "SEAL BEACH", "addr:country": "US", "addr:full": "13421 DEL MONTE DR", "addr:postcode": "90740", "addr:state": "CA", "amenity": "post_box", "brand": "United States Postal Service", "brand:wikidata": "Q668687", "collection_times": "Mo-Fr 14:30; Sa 13:15", "name": "USPS COLLECTION BOX - BLUE BOX", "note": "ON 12/24 AND 12/31, THIS BOX MAY BE COLLECTED AS EARLY AS 12 NOON.", "nsi_id": "unitedstatespostalservice-a77078", "operator": "United States Postal Service", "operator:short": "USPS", "operator:type": "public", "operator:wikidata": "Q668687", "ref": "9074000049"}, "type": "Feature"}
{"dataset_attributes": {"@spider": "usps_collection_boxes", "spider:collection_time": "2023-10-19T08:25:27.646942"}, "geometry": {"coordinates": [-118.079963, 33.766758], "type": "Point"}, "id": "MJYPHoo1cHs_5ab87ja02XtRhDE=", "properties": {"@spider": "usps_collection_boxes", "addr:city": "SEAL BEACH", "addr:country": "US", "addr:full": "13610 BURNING TREE LN", "addr:postcode": "90740", "addr:state": "CA", "amenity": "post_box", "brand": "United States Postal Service", "brand:wikidata": "Q668687", "collection_times": "Mo-Sa 12:30", "name": "USPS COLLECTION BOX - BLUE BOX", "note": "ON 12/24 AND 12/31, THIS BOX MAY BE COLLECTED AS EARLY AS 12 NOON.", "nsi_id": "unitedstatespostalservice-a77078", "operator": "United States Postal Service", "operator:short": "USPS", "operator:type": "public", "operator:wikidata": "Q668687", "ref": "9074000050"}, "type": "Feature"}
{"dataset_attributes": {"@spider": "usps_collection_boxes", "spider:collection_time": "2023-10-19T08:25:27.646942"}, "geometry": {"coordinates": [-118.084308, 33.766593], "type": "Point"}, "id": "zd6Vo_msg6PfssCjcwYK_tZSz4s=", "properties": {"@spider": "usps_collection_boxes", "addr:city": "SEAL BEACH", "addr:country": "US", "addr:full": "13531 SAINT ANDREWS DR", "addr:postcode": "90740", "addr:state": "CA", "amenity": "post_box", "brand": "United States Postal Service", "brand:wikidata": "Q668687", "collection_times": "Mo-Fr 14:00; Sa 13:15", "name": "USPS COLLECTION BOX - BLUE BOX", "note": "ON 12/24 AND 12/31, THIS BOX MAY BE COLLECTED AS EARLY AS 12 NOON.", "nsi_id": "unitedstatespostalservice-a77078", "operator": "United States Postal Service", "operator:short": "USPS", "operator:type": "public", "operator:wikidata": "Q668687", "ref": "9074000051"}, "type": "Feature"}
{"dataset_attributes": {"@spider": "usps_collection_boxes", "spider:collection_time": "2023-10-19T08:25:27.646942"}, "geometry": {"coordinates": [-118.084319, 33.76586], "type": "Point"}, "id": "940NokxcdsT82bN9QPcHzYHHvbw=", "properties": {"@spider": "usps_collection_boxes", "addr:city": "SEAL BEACH", "addr:country": "US", "addr:full": "1661 GOLDEN RAIN RD", "addr:postcode": "90740", "addr:state": "CA", "amenity": "post_box", "brand": "United States Postal Service", "brand:wikidata": "Q668687", "collection_times": "Mo-Fr 14:00; Sa 13:30", "name": "USPS COLLECTION BOX - BLUE BOX", "note": "ON 12/24 AND 12/31, THIS BOX MAY BE COLLECTED AS EARLY AS 12 NOON.", "nsi_id": "unitedstatespostalservice-a77078", "operator": "United States Postal Service", "operator:short": "USPS", "operator:type": "public", "operator:wikidata": "Q668687", "ref": "9074000052"}, "type": "Feature"}
{"dataset_attributes": {"@spider": "usps_collection_boxes", "spider:collection_time": "2023-10-19T08:25:27.646942"}, "geometry": {"coordinates": [-118.079541, 33.760152], "type": "Point"}, "id": "b66YdaQeBDFYfR8ZUimJwBcmdUU=", "properties": {"@spider": "usps_collection_boxes", "addr:city": "SEAL BEACH", "addr:country": "US", "addr:full": "2929 WESTMINSTER AVE LOBBY", "addr:postcode": "90740", "addr:state": "CA", "amenity": "post_box", "brand": "United States Postal Service", "brand:wikidata": "Q668687", "collection_times": "Mo-Fr 17:00; Sa 15:15", "name": "USPS COLLECTION BOX - PO LOBBY", "note": "ON 12/24 AND 12/31, THIS BOX MAY BE COLLECTED AS EARLY AS 12 NOON.", "nsi_id": "unitedstatespostalservice-a77078", "operator": "United States Postal Service", "operator:short": "USPS", "operator:type": "public", "operator:wikidata": "Q668687", "ref": "9074000055"}, "type": "Feature"}
{"dataset_attributes": {"@spider": "usps_collection_boxes", "spider:collection_time": "2023-10-19T08:25:27.646942"}, "geometry": {"coordinates": [-118.087381, 33.758264], "type": "Point"}, "id": "je0EP-n--vmVCLDRnj7XLCPpw-0=", "properties": {"@spider": "usps_collection_boxes", "addr:city": "SEAL BEACH", "addr:country": "US", "addr:full": "2800 WESTMINSTER AVE", "addr:postcode": "90740", "addr:state": "CA", "amenity": "post_box", "brand": "United States Postal Service", "brand:wikidata": "Q668687", "collection_times": "Mo-Fr 15:30", "name": "USPS COLLECTION BOX - BLUE BOX", "note": "ON 12/24 AND 12/31, THIS BOX MAY BE COLLECTED AS EARLY AS 12 NOON.", "nsi_id": "unitedstatespostalservice-a77078", "operator": "United States Postal Service", "operator:short": "USPS", "operator:type": "public", "operator:wikidata": "Q668687", "ref": "9074000058"}, "type": "Feature"}
{"dataset_attributes": {"@spider": "usps_collection_boxes", "spider:collection_time": "2023-10-19T08:25:27.646942"}, "geometry": {"coordinates": [-118.100105, 33.74448], "type": "Point"}, "id": "ocqi8dG_UgbklLNyhl5q98poq5k=", "properties": {"@spider": "usps_collection_boxes", "addr:city": "SEAL BEACH", "addr:country": "US", "addr:full": "1077 PACIFIC COAST HWY", "addr:postcode": "90740", "addr:state": "CA", "amenity": "post_box", "brand": "United States Postal Service", "brand:wikidata": "Q668687", "collection_times": "Mo-Fr 16:00; Sa 14:15", "name": "USPS COLLECTION BOX - BLUE BOX", "note": "ON 12/24 AND 12/31, THIS BOX MAY BE COLLECTED AS EARLY AS 12 NOON.", "nsi_id": "unitedstatespostalservice-a77078", "operator": "United States Postal Service", "operator:short": "USPS", "operator:type": "public", "operator:wikidata": "Q668687", "ref": "9074000059"}, "type": "Feature"}
{"dataset_attributes": {"@spider": "usps_collection_boxes", "spider:collection_time": "2023-10-19T08:25:27.646942"}, "geometry": {"coordinates": [-118.079598, 33.759838], "type": "Point"}, "id": "pTZ2UVmmb6V_UTuq8Pe6sMk7y5w=", "properties": {"@spider": "usps_collection_boxes", "addr:city": "SEAL BEACH", "addr:country": "US", "addr:full": "2929 WESTMINSTER AVE", "addr:postcode": "90740", "addr:state": "CA", "amenity": "post_box", "brand": "United States Postal Service", "brand:wikidata": "Q668687", "collection_times": "Mo-Fr 17:00; Sa 15:15", "name": "USPS COLLECTION BOX - BLUE BOX", "note": "ON 12/24 AND 12/31, THIS BOX MAY BE COLLECTED AS EARLY AS 12 NOON.", "nsi_id": "unitedstatespostalservice-a77078", "operator": "United States Postal Service", "operator:short": "USPS", "operator:type": "public", "operator:wikidata": "Q668687", "ref": "9074000067"}, "type": "Feature"}
{"dataset_attributes": {"@spider": "usps_collection_boxes", "spider:collection_time": "2023-10-19T08:25:27.646942"}, "geometry": {"coordinates": [-118.073803, 33.78111], "type": "Point"}, "id": "f8isEtDhN-RoS8ziHSY4jSNpA54=", "properties": {"@spider": "usps_collection_boxes", "addr:city": "SEAL BEACH", "addr:country": "US", "addr:full": "12535 SEAL BEACH BLVD", "addr:postcode": "90740", "addr:state": "CA", "amenity": "post_box", "brand": "United States Postal Service", "brand:wikidata": "Q668687", "collection_times": "Mo-Fr 14:15; Sa 13:30", "name": "USPS COLLECTION BOX - BLUE BOX", "note": "ON 12/24 AND 12/31, THIS BOX MAY BE COLLECTED AS EARLY AS 12 NOON.", "nsi_id": "unitedstatespostalservice-a77078", "operator": "United States Postal Service", "operator:short": "USPS", "operator:type": "public", "operator:wikidata": "Q668687", "ref": "9074000069"}, "type": "Feature"}
{"dataset_attributes": {"@spider": "usps_collection_boxes", "spider:collection_time": "2023-10-19T08:25:27.646942"}, "geometry": {"coordinates": [-118.099324, 33.746754], "type": "Point"}, "id": "qjibIrtct9XPjujLajxxmrrq-io=", "properties": {"@spider": "usps_collection_boxes", "addr:city": "SEAL BEACH", "addr:country": "US", "addr:full": "640 BALBOA DR", "addr:postcode": "90740", "addr:state": "CA", "amenity": "post_box", "brand": "United States Postal Service", "brand:wikidata": "Q668687", "collection_times": "Mo-Sa 13:00", "name": "USPS COLLECTION BOX - BLUE BOX", "note": "ON 12/24 AND 12/31, THIS BOX MAY BE COLLECTED AS EARLY AS 12 NOON.", "nsi_id": "unitedstatespostalservice-a77078", "operator": "United States Postal Service", "operator:short": "USPS", "operator:type": "public", "operator:wikidata": "Q668687", "ref": "9074000074"}, "type": "Feature"}
{"dataset_attributes": {"@spider": "usps_collection_boxes", "spider:collection_time": "2023-10-19T08:25:27.646942"}, "geometry": {"coordinates": [-118.08555, 33.766563], "type": "Point"}, "id": "47jokrR_-FFegPyEtga9-8HzjuA=", "properties": {"@spider": "usps_collection_boxes", "addr:city": "SEAL BEACH", "addr:country": "US", "addr:full": "13580 SAINT ANDREWS DR", "addr:postcode": "90740", "addr:state": "CA", "amenity": "post_box", "brand": "United States Postal Service", "brand:wikidata": "Q668687", "collection_times": "Mo-Fr 15:00; Sa 13:15", "name": "USPS COLLECTION BOX - BLUE BOX", "note": "ON 12/24 AND 12/31, THIS BOX MAY BE COLLECTED AS EARLY AS 12 NOON.", "nsi_id": "unitedstatespostalservice-a77078", "operator": "United States Postal Service", "operator:short": "USPS", "operator:type": "public", "operator:wikidata": "Q668687", "ref": "9074000075"}, "type": "Feature"}
{"dataset_attributes": {"@spider": "usps_collection_boxes", "spider:collection_time": "2023-10-19T08:25:27.646942"}, "geometry": {"coordinates": [-118.094333, 33.775649], "type": "Point"}, "id": "5-cm5lSh54z0lGRgOUwsHg_Jeyg=", "properties": {"@spider": "usps_collection_boxes", "addr:city": "SEAL BEACH", "addr:country": "US", "addr:full": "100 HARVARD LN", "addr:postcode": "90740", "addr:state": "CA", "amenity": "post_box", "brand": "United States Postal Service", "brand:wikidata": "Q668687", "collection_times": "Mo-Sa 13:00", "name": "USPS COLLECTION BOX - BLUE BOX", "note": "ON 12/24 AND 12/31, THIS BOX MAY BE COLLECTED AS EARLY AS 12 NOON.", "nsi_id": "unitedstatespostalservice-a77078", "operator": "United States Postal Service", "operator:short": "USPS", "operator:type": "public", "operator:wikidata": "Q668687", "ref": "9074000076"}, "type": "Feature"}
{"dataset_attributes": {"@spider": "usps_collection_boxes", "spider:collection_time": "2023-10-19T08:25:27.646942"}, "geometry": {"coordinates": [-118.101766, 33.741185], "type": "Point"}, "id": "7N0_W_cglDueQc8H_LWD-RlEj60=", "properties": {"@spider": "usps_collection_boxes", "addr:city": "SEAL BEACH", "addr:country": "US", "addr:full": "1115 ELECTRIC AVE", "addr:postcode": "90740", "addr:state": "CA", "amenity": "post_box", "brand": "United States Postal Service", "brand:wikidata": "Q668687", "collection_times": "Mo-Sa 13:00", "name": "USPS COLLECTION BOX - BLUE BOX", "note": "ON 12/24 AND 12/31, THIS BOX MAY BE COLLECTED AS EARLY AS 12 NOON.", "nsi_id": "unitedstatespostalservice-a77078", "operator": "United States Postal Service", "operator:short": "USPS", "operator:type": "public", "operator:wikidata": "Q668687", "ref": "9074000077"}, "type": "Feature"}
{"dataset_attributes": {"@spider": "usps_collection_boxes", "spider:collection_time": "2023-10-19T08:25:27.646942"}, "geometry": {"coordinates": [-118.079541, 33.760152], "type": "Point"}, "id": "SquqOURhklRlo1sYgNFFHzGoZdg=", "properties": {"@spider": "usps_collection_boxes", "addr:city": "SEAL BEACH", "addr:country": "US", "addr:full": "2929 WESTMINSTER AVE LOBBY", "addr:postcode": "90740", "addr:state": "CA", "amenity": "post_box", "brand": "United States Postal Service", "brand:wikidata": "Q668687", "collection_times": "Mo-Fr 17:00; Sa 15:00", "name": "USPS COLLECTION BOX - APC", "note": "ON 12/24 AND 12/31, THIS BOX MAY BE COLLECTED AS EARLY AS 12 NOON.", "nsi_id": "unitedstatespostalservice-a77078", "operator": "United States Postal Service", "operator:short": "USPS", "operator:type": "public", "operator:wikidata": "Q668687", "ref": "9074000078"}, "type": "Feature"}
{"dataset_attributes": {"@spider": "usps_collection_boxes", "spider:collection_time": "2023-10-19T08:25:27.646942"}, "geometry": {"coordinates": [-118.104318172, 33.742120431], "type": "Point"}, "id": "IXu3lCzJDO9vpdyb51yC_TWD5eI=", "properties": {"@spider": "usps_collection_boxes", "addr:city": "SEAL BEACH", "addr:country": "US", "addr:full": "221 MAIN ST LOBBY", "addr:postcode": "90740", "addr:state": "CA", "amenity": "post_box", "brand": "United States Postal Service", "brand:wikidata": "Q668687", "collection_times": "Mo-Fr 17:00", "name": "USPS COLLECTION BOX - PO LOBBY", "note": "ON 12/24 AND 12/31, THIS BOX MAY BE COLLECTED AS EARLY AS 12 NOON.", "nsi_id": "unitedstatespostalservice-a77078", "operator": "United States Postal Service", "operator:short": "USPS", "operator:type": "public", "operator:wikidata": "Q668687", "ref": "9074000088"}, "type": "Feature"}
{"dataset_attributes": {"@spider": "usps_collection_boxes", "spider:collection_time": "2023-10-19T08:25:27.646942"}, "geometry": {"coordinates": [-118.079541, 33.760152], "type": "Point"}, "id": "ThvTgh6fiVxJF5LWhCQS3Q5I88E=", "properties": {"@spider": "usps_collection_boxes", "addr:city": "SEAL BEACH", "addr:country": "US", "addr:full": "2929 WESTMINSTER AVE LOBBY", "addr:postcode": "90740", "addr:state": "CA", "amenity": "post_box", "brand": "United States Postal Service", "brand:wikidata": "Q668687", "collection_times": "Mo-Fr 17:00; Sa 15:15", "name": "USPS COLLECTION BOX - PO LOBBY", "note": "ON 12/24 AND 12/31, THIS BOX MAY BE COLLECTED AS EARLY AS 12 NOON.", "nsi_id": "unitedstatespostalservice-a77078", "operator": "United States Postal Service", "operator:short": "USPS", "operator:type": "public", "operator:wikidata": "Q668687", "ref": "9074000089"}, "type": "Feature"}
{"dataset_attributes": {"@spider": "usps_collection_boxes", "spider:collection_time": "2023-10-19T08:25:27.646942"}, "geometry": {"coordinates": [-118.069110293, 33.716803202], "type": "Point"}, "id": "fc4NPXQjxlz37ti_X6UXwDuCh9Y=", "properties": {"@spider": "usps_collection_boxes", "addr:city": "SUNSET BEACH", "addr:country": "US", "addr:full": "16885 PACIFIC COAST HWY LOBBY", "addr:postcode": "90742", "addr:state": "CA", "amenity": "post_box", "brand": "United States Postal Service", "brand:wikidata": "Q668687", "collection_times": "Mo-Fr 17:00", "name": "USPS COLLECTION BOX - PO LOBBY", "note": "ON 12/24 AND 12/31, THIS BOX MAY BE COLLECTED AS EARLY AS 12 NOON.", "nsi_id": "unitedstatespostalservice-a77078", "operator": "United States Postal Service", "operator:short": "USPS", "operator:type": "public", "operator:wikidata": "Q668687", "ref": "9074200002"}, "type": "Feature"}
{"dataset_attributes": {"@spider": "usps_collection_boxes", "spider:collection_time": "2023-10-19T08:25:27.646942"}, "geometry": {"coordinates": [-118.069222, 33.716837], "type": "Point"}, "id": "lMFbyUutDAbFbHTmnGj4HR7LveM=", "properties": {"@spider": "usps_collection_boxes", "addr:city": "SUNSET BEACH", "addr:country": "US", "addr:full": "16885 PACIFIC COAST HWY", "addr:postcode": "90742", "addr:state": "CA", "amenity": "post_box", "brand": "United States Postal Service", "brand:wikidata": "Q668687", "collection_times": "Mo-Fr 17:00; Sa 13:00", "name": "USPS COLLECTION BOX - BLUE BOX", "note": "ON 12/24 AND 12/31, THIS BOX MAY BE COLLECTED AS EARLY AS 12 NOON.", "nsi_id": "unitedstatespostalservice-a77078", "operator": "United States Postal Service", "operator:short": "USPS", "operator:type": "public", "operator:wikidata": "Q668687", "ref": "9074200003"}, "type": "Feature"}
{"dataset_attributes": {"@spider": "usps_collection_boxes", "spider:collection_time": "2023-10-19T08:25:27.646942"}, "geometry": {"coordinates": [-118.069110293, 33.716803202], "type": "Point"}, "id": "poPSSsPWvpG_K96jHjHJ1CgjHMU=", "properties": {"@spider": "usps_collection_boxes", "addr:city": "SUNSET BEACH", "addr:country": "US", "addr:full": "16885 PACIFIC COAST HWY LOBBY", "addr:postcode": "90742", "addr:state": "CA", "amenity": "post_box", "brand": "United States Postal Service", "brand:wikidata": "Q668687", "collection_times": "Mo-Fr 17:00", "name": "USPS COLLECTION BOX - PO LOBBY", "note": "ON 12/24 AND 12/31, THIS BOX MAY BE COLLECTED AS EARLY AS 12 NOON.", "nsi_id": "unitedstatespostalservice-a77078", "operator": "United States Postal Service", "operator:short": "USPS", "operator:type": "public", "operator:wikidata": "Q668687", "ref": "9074200004"}, "type": "Feature"}
{"dataset_attributes": {"@spider": "usps_collection_boxes", "spider:collection_time": "2023-10-19T08:25:27.646942"}, "geometry": {"coordinates": [-118.084226, 33.728468], "type": "Point"}, "id": "CQPsIv8gTavGGY50jvw-EYrv9s0=", "properties": {"@spider": "usps_collection_boxes", "addr:city": "SURFSIDE", "addr:country": "US", "addr:full": "B89 SURFSIDE AVE", "addr:postcode": "90743", "addr:state": "CA", "amenity": "post_box", "brand": "United States Postal Service", "brand:wikidata": "Q668687", "collection_times": "Mo-Fr 16:30; Sa 14:15", "name": "USPS COLLECTION BOX - BLUE BOX", "note": "ON 12/24 AND 12/31, THIS BOX MAY BE COLLECTED AS EARLY AS 12 NOON.", "nsi_id": "unitedstatespostalservice-a77078", "operator": "United States Postal Service", "operator:short": "USPS", "operator:type": "public", "operator:wikidata": "Q668687", "ref": "9074300001"}, "type": "Feature"}
{"dataset_attributes": {"@spider": "usps_collection_boxes", "spider:collection_time": "2023-10-19T08:25:27.646942"}, "geometry": {"coordinates": [-118.0823639436, 33.727130076], "type": "Point"}, "id": "YAVGkX71IKuC7_q0YmMg0iuq1zw=", "properties": {"@spider": "usps_collection_boxes", "addr:city": "SURFSIDE", "addr:country": "US", "addr:full": "B89 SURFSIDE AVE LOBBY", "addr:postcode": "90743", "addr:state": "CA", "amenity": "post_box", "brand": "United States Postal Service", "brand:wikidata": "Q668687", "collection_times": "Mo-Fr 16:30", "name": "USPS COLLECTION BOX - PO LOBBY", "note": "ON 12/24 AND 12/31, THIS BOX MAY BE COLLECTED AS EARLY AS 12 NOON.", "nsi_id": "unitedstatespostalservice-a77078", "operator": "United States Postal Service", "operator:short": "USPS", "operator:type": "public", "operator:wikidata": "Q668687", "ref": "9074300002"}, "type": "Feature"}
{"dataset_attributes": {"@spider": "usps_collection_boxes", "spider:collection_time": "2023-10-19T08:25:27.646942"}, "geometry": {"coordinates": [-118.0823639436, 33.727130076], "type": "Point"}, "id": "PG-vdrPMKUn2gNlbJhZrhF6kwnQ=", "properties": {"@spider": "usps_collection_boxes", "addr:city": "SURFSIDE", "addr:country": "US", "addr:full": "B89 SURFSIDE AVE LOBBY", "addr:postcode": "90743", "addr:state": "CA", "amenity": "post_box", "brand": "United States Postal Service", "brand:wikidata": "Q668687", "collection_times": "Mo-Fr 16:30", "name": "USPS COLLECTION BOX - PO LOBBY", "note": "ON 12/24 AND 12/31, THIS BOX MAY BE COLLECTED AS EARLY AS 12 NOON.", "nsi_id": "unitedstatespostalservice-a77078", "operator": "United States Postal Service", "operator:short": "USPS", "operator:type": "public", "operator:wikidata": "Q668687", "ref": "9074300003"}, "type": "Feature"}
{"dataset_attributes": {"@spider": "usps_collection_boxes", "spider:collection_time": "2023-10-19T08:25:27.646942"}, "geometry": {"coordinates": [-118.2629400882, 33.7864179225], "type": "Point"}, "id": "PQ_9iaWg4pNAbp0yjWBMr2pKZqs=", "properties": {"@spider": "usps_collection_boxes", "addr:city": "WILMINGTON", "addr:country": "US", "addr:full": "1161 N AVALON BLVD", "addr:postcode": "90744", "addr:state": "CA", "amenity": "post_box", "brand": "United States Postal Service", "brand:wikidata": "Q668687", "collection_times": "Mo-Sa 14:30", "name": "USPS COLLECTION BOX - BLUE BOX", "note": "ON 12/24 AND 12/31, THIS BOX MAY BE COLLECTED AS EARLY AS 12 NOON.", "nsi_id": "unitedstatespostalservice-a77078", "operator": "United States Postal Service", "operator:short": "USPS", "operator:type": "public", "operator:wikidata": "Q668687", "ref": "9074400004"}, "type": "Feature"}
{"dataset_attributes": {"@spider": "usps_collection_boxes", "spider:collection_time": "2023-10-19T08:25:27.646942"}, "geometry": {"coordinates": [-118.2626698108, 33.7831536006], "type": "Point"}, "id": "JsGHW3xF6Avl79EL6LA0SG-pfV4=", "properties": {"@spider": "usps_collection_boxes", "addr:city": "WILMINGTON", "addr:country": "US", "addr:full": "1008 N AVALON BLVD LOBBY", "addr:postcode": "90744", "addr:state": "CA", "amenity": "post_box", "brand": "United States Postal Service", "brand:wikidata": "Q668687", "collection_times": "Mo-Fr 17:00; Sa 16:15", "name": "USPS COLLECTION BOX - PO LOBBY", "note": "ON 12/24 AND 12/31, THIS BOX MAY BE COLLECTED AS EARLY AS 12 NOON.", "nsi_id": "unitedstatespostalservice-a77078", "operator": "United States Postal Service", "operator:short": "USPS", "operator:type": "public", "operator:wikidata": "Q668687", "ref": "9074400011"}, "type": "Feature"}
{"dataset_attributes": {"@spider": "usps_collection_boxes", "spider:collection_time": "2023-10-19T08:25:27.646942"}, "geometry": {"coordinates": [-118.282755, 33.785861], "type": "Point"}, "id": "0Uc26zuPponTkea9_57Wa0mKBpE=", "properties": {"@spider": "usps_collection_boxes", "addr:city": "WILMINGTON", "addr:country": "US", "addr:full": "1111 FIGUEROA PL", "addr:postcode": "90744", "addr:state": "CA", "amenity": "post_box", "brand": "United States Postal Service", "brand:wikidata": "Q668687", "collection_times": "Mo-Sa 14:30", "name": "USPS COLLECTION BOX - BLUE BOX", "note": "ON 12/24 AND 12/31, THIS BOX MAY BE COLLECTED AS EARLY AS 12 NOON.", "nsi_id": "unitedstatespostalservice-a77078", "operator": "United States Postal Service", "operator:short": "USPS", "operator:type": "public", "operator:wikidata": "Q668687", "ref": "9074400024"}, "type": "Feature"}
{"dataset_attributes": {"@spider": "usps_collection_boxes", "spider:collection_time": "2023-10-19T08:25:27.646942"}, "geometry": {"coordinates": [-118.2626698108, 33.7831536006], "type": "Point"}, "id": "m3VBvpPfszckXAl8mzrEd95f3xM=", "properties": {"@spider": "usps_collection_boxes", "addr:city": "WILMINGTON", "addr:country": "US", "addr:full": "1008 N AVALON BLVD LOBBY", "addr:postcode": "90744", "addr:state": "CA", "amenity": "post_box", "brand": "United States Postal Service", "brand:wikidata": "Q668687", "collection_times": "Mo-Fr 17:00; Sa 16:15", "name": "USPS COLLECTION BOX - PO LOBBY", "note": "ON 12/24 AND 12/31, THIS BOX MAY BE COLLECTED AS EARLY AS 12 NOON.", "nsi_id": "unitedstatespostalservice-a77078", "operator": "United States Postal Service", "operator:short": "USPS", "operator:type": "public", "operator:wikidata": "Q668687", "ref": "9074400062"}, "type": "Feature"}
{"dataset_attributes": {"@spider": "usps_collection_boxes", "spider:collection_time": "2023-10-19T08:25:27.646942"}, "geometry": {"coordinates": [-118.275251, 33.814085], "type": "Point"}, "id": "4oKrFrDxhV1zmImPyTMTkshb4jI=", "properties": {"@spider": "usps_collection_boxes", "addr:city": "CARSON", "addr:country": "US", "addr:full": "103 E 233RD ST", "addr:postcode": "90745", "addr:state": "CA", "amenity": "post_box", "brand": "United States Postal Service", "brand:wikidata": "Q668687", "collection_times": "Mo-Sa 13:00", "name": "USPS COLLECTION BOX - BLUE BOX", "note": "ON 12/24 AND 12/31, THIS BOX MAY BE COLLECTED AS EARLY AS 12 NOON.", "nsi_id": "unitedstatespostalservice-a77078", "operator": "United States Postal Service", "operator:short": "USPS", "operator:type": "public", "operator:wikidata": "Q668687", "ref": "9074500001"}, "type": "Feature"}
{"dataset_attributes": {"@spider": "usps_collection_boxes", "spider:collection_time": "2023-10-19T08:25:27.646942"}, "geometry": {"coordinates": [-118.263602, 33.834646], "type": "Point"}, "id": "IaAOfgVkXHE2bMm9oB7d6-_yHo4=", "properties": {"@spider": "usps_collection_boxes", "addr:city": "CARSON", "addr:country": "US", "addr:full": "21350 AVALON BLVD", "addr:postcode": "90745", "addr:state": "CA", "amenity": "post_box", "brand": "United States Postal Service", "brand:wikidata": "Q668687", "collection_times": "Mo-Sa 17:00", "name": "USPS COLLECTION BOX - BLUE BOX", "note": "ON 12/24 AND 12/31, THIS BOX MAY BE COLLECTED AS EARLY AS 12 NOON.", "nsi_id": "unitedstatespostalservice-a77078", "operator": "United States Postal Service", "operator:short": "USPS", "operator:type": "public", "operator:wikidata": "Q668687", "ref": "9074500003"}, "type": "Feature"}
{"dataset_attributes": {"@spider": "usps_collection_boxes", "spider:collection_time": "2023-10-19T08:25:27.646942"}, "geometry": {"coordinates": [-118.249545, 33.820155], "type": "Point"}, "id": "-9l1R1kJSguf5-9PR37CtN_sGFA=", "properties": {"@spider": "usps_collection_boxes", "addr:city": "CARSON", "addr:country": "US", "addr:full": "1430 E WATSON CENTER RD", "addr:postcode": "90745", "addr:state": "CA", "amenity": "post_box", "brand": "United States Postal Service", "brand:wikidata": "Q668687", "collection_times": "Mo-Fr 13:30; Sa 13:00", "name": "USPS COLLECTION BOX - BLUE BOX", "note": "ON 12/24 AND 12/31, THIS BOX MAY BE COLLECTED AS EARLY AS 12 NOON.", "nsi_id": "unitedstatespostalservice-a77078", "operator": "United States Postal Service", "operator:short": "USPS", "operator:type": "public", "operator:wikidata": "Q668687", "ref": "9074500005"}, "type": "Feature"}
{"dataset_attributes": {"@spider": "usps_collection_boxes", "spider:collection_time": "2023-10-19T08:25:27.646942"}, "geometry": {"coordinates": [-118.263004, 33.812656], "type": "Point"}, "id": "I7Oc7cv6ruyQU0Uwbab9Ml4r8Sc=", "properties": {"@spider": "usps_collection_boxes", "addr:city": "CARSON", "addr:country": "US", "addr:full": "23400 AVALON BLVD", "addr:postcode": "90745", "addr:state": "CA", "amenity": "post_box", "brand": "United States Postal Service", "brand:wikidata": "Q668687", "collection_times": "Mo-Fr 13:30; Sa 13:00", "name": "USPS COLLECTION BOX - BLUE BOX", "note": "ON 12/24 AND 12/31, THIS BOX MAY BE COLLECTED AS EARLY AS 12 NOON.", "nsi_id": "unitedstatespostalservice-a77078", "operator": "United States Postal Service", "operator:short": "USPS", "operator:type": "public", "operator:wikidata": "Q668687", "ref": "9074500014"}, "type": "Feature"}
{"dataset_attributes": {"@spider": "usps_collection_boxes", "spider:collection_time": "2023-10-19T08:25:27.646942"}, "geometry": {"coordinates": [-118.263452, 33.808451], "type": "Point"}, "id": "H9-2FPs4LaLhwzuyXOj_aFjGeS8=", "properties": {"@spider": "usps_collection_boxes", "addr:city": "CARSON", "addr:country": "US", "addr:full": "23820 AVALON BLVD", "addr:postcode": "90745", "addr:state": "CA", "amenity": "post_box", "brand": "United States Postal Service", "brand:wikidata": "Q668687", "collection_times": "Mo-Sa 13:00", "name": "USPS COLLECTION BOX - BLUE BOX", "note": "ON 12/24 AND 12/31, THIS BOX MAY BE COLLECTED AS EARLY AS 12 NOON.", "nsi_id": "unitedstatespostalservice-a77078", "operator": "United States Postal Service", "operator:short": "USPS", "operator:type": "public", "operator:wikidata": "Q668687", "ref": "9074500016"}, "type": "Feature"}
{"dataset_attributes": {"@spider": "usps_collection_boxes", "spider:collection_time": "2023-10-19T08:25:27.646942"}, "geometry": {"coordinates": [-118.283752, 33.817], "type": "Point"}, "id": "ye1sMJnYaD7IAIHX9z7dFVe94Bs=", "properties": {"@spider": "usps_collection_boxes", "addr:city": "CARSON", "addr:country": "US", "addr:full": "23015 CAROLDALE AVE", "addr:postcode": "90745", "addr:state": "CA", "amenity": "post_box", "brand": "United States Postal Service", "brand:wikidata": "Q668687", "collection_times": "Mo-Fr 13:30; Sa 13:00", "name": "USPS COLLECTION BOX - BLUE BOX", "note": "ON 12/24 AND 12/31, THIS BOX MAY BE COLLECTED AS EARLY AS 12 NOON.", "nsi_id": "unitedstatespostalservice-a77078", "operator": "United States Postal Service", "operator:short": "USPS", "operator:type": "public", "operator:wikidata": "Q668687", "ref": "9074500017"}, "type": "Feature"}
{"dataset_attributes": {"@spider": "usps_collection_boxes", "spider:collection_time": "2023-10-19T08:25:27.646942"}, "geometry": {"coordinates": [-118.280583, 33.81331], "type": "Point"}, "id": "4LZRKORxYpyjo6Rz1yGCymzQ5ao=", "properties": {"@spider": "usps_collection_boxes", "addr:city": "CARSON", "addr:country": "US", "addr:full": "254 W 234TH ST", "addr:postcode": "90745", "addr:state": "CA", "amenity": "post_box", "brand": "United States Postal Service", "brand:wikidata": "Q668687", "collection_times": "Mo-Sa 13:00", "name": "USPS COLLECTION BOX - BLUE BOX", "note": "ON 12/24 AND 12/31, THIS BOX MAY BE COLLECTED AS EARLY AS 12 NOON.", "nsi_id": "unitedstatespostalservice-a77078", "operator": "United States Postal Service", "operator:short": "USPS", "operator:type": "public", "operator:wikidata": "Q668687", "ref": "9074500024"}, "type": "Feature"}
{"dataset_attributes": {"@spider": "usps_collection_boxes", "spider:collection_time": "2023-10-19T08:25:27.646942"}, "geometry": {"coordinates": [-118.277284, 33.828227], "type": "Point"}, "id": "5AvE_TUKeNuA7NtPcgXxBwoV_0s=", "properties": {"@spider": "usps_collection_boxes", "addr:city": "CARSON", "addr:country": "US", "addr:full": "21923 MAIN ST", "addr:postcode": "90745", "addr:state": "CA", "amenity": "post_box", "brand": "United States Postal Service", "brand:wikidata": "Q668687", "collection_times": "Mo-Fr 13:30; Sa 13:00", "name": "USPS COLLECTION BOX - BLUE BOX", "note": "ON 12/24 AND 12/31, THIS BOX MAY BE COLLECTED AS EARLY AS 12 NOON.", "nsi_id": "unitedstatespostalservice-a77078", "operator": "United States Postal Service", "operator:short": "USPS", "operator:type": "public", "operator:wikidata": "Q668687", "ref": "9074500025"}, "type": "Feature"}
{"dataset_attributes": {"@spider": "usps_collection_boxes", "spider:collection_time": "2023-10-19T08:25:27.646942"}, "geometry": {"coordinates": [-118.275251, 33.807835], "type": "Point"}, "id": "osNQ7YRoq-BfWyIsGvN-LgnWIsE=", "properties": {"@spider": "usps_collection_boxes", "addr:city": "CARSON", "addr:country": "US", "addr:full": "110 E SEPULVEDA BLVD", "addr:postcode": "90745", "addr:state": "CA", "amenity": "post_box", "brand": "United States Postal Service", "brand:wikidata": "Q668687", "collection_times": "Mo-Sa 13:00", "name": "USPS COLLECTION BOX - BLUE BOX", "note": "ON 12/24 AND 12/31, THIS BOX MAY BE COLLECTED AS EARLY AS 12 NOON.", "nsi_id": "unitedstatespostalservice-a77078", "operator": "United States Postal Service", "operator:short": "USPS", "operator:type": "public", "operator:wikidata": "Q668687", "ref": "9074500026"}, "type": "Feature"}
{"dataset_attributes": {"@spider": "usps_collection_boxes", "spider:collection_time": "2023-10-19T08:25:27.646942"}, "geometry": {"coordinates": [-118.24035, 33.831625], "type": "Point"}, "id": "vDas6p8a7KufyGuSK2avHG36aME=", "properties": {"@spider": "usps_collection_boxes", "addr:city": "CARSON", "addr:country": "US", "addr:full": "1820 E CARSON ST", "addr:postcode": "90745", "addr:state": "CA", "amenity": "post_box", "brand": "United States Postal Service", "brand:wikidata": "Q668687", "collection_times": "Mo-Fr 14:00; Sa 13:00", "name": "USPS COLLECTION BOX - BLUE BOX", "note": "ON 12/24 AND 12/31, THIS BOX MAY BE COLLECTED AS EARLY AS 12 NOON.", "nsi_id": "unitedstatespostalservice-a77078", "operator": "United States Postal Service", "operator:short": "USPS", "operator:type": "public", "operator:wikidata": "Q668687", "ref": "9074500030"}, "type": "Feature"}
{"dataset_attributes": {"@spider": "usps_collection_boxes", "spider:collection_time": "2023-10-19T08:25:27.646942"}, "geometry": {"coordinates": [-118.272338, 33.811032], "type": "Point"}, "id": "1E-ORqHeak9W7KqTH6qYPA4XW3I=", "properties": {"@spider": "usps_collection_boxes", "addr:city": "CARSON", "addr:country": "US", "addr:full": "267 E 236TH ST", "addr:postcode": "90745", "addr:state": "CA", "amenity": "post_box", "brand": "United States Postal Service", "brand:wikidata": "Q668687", "collection_times": "Mo-Sa 13:00", "name": "USPS COLLECTION BOX - BLUE BOX", "note": "ON 12/24 AND 12/31, THIS BOX MAY BE COLLECTED AS EARLY AS 12 NOON.", "nsi_id": "unitedstatespostalservice-a77078", "operator": "United States Postal Service", "operator:short": "USPS", "operator:type": "public", "operator:wikidata": "Q668687", "ref": "9074500033"}, "type": "Feature"}
{"dataset_attributes": {"@spider": "usps_collection_boxes", "spider:collection_time": "2023-10-19T08:25:27.646942"}, "geometry": {"coordinates": [-118.284428, 33.8101], "type": "Point"}, "id": "FSnynuzAtRPz3XS4xWqg3plZVfA=", "properties": {"@spider": "usps_collection_boxes", "addr:city": "CARSON", "addr:country": "US", "addr:full": "23617 CAROLDALE AVE", "addr:postcode": "90745", "addr:state": "CA", "amenity": "post_box", "brand": "United States Postal Service", "brand:wikidata": "Q668687", "collection_times": "Mo-Sa 13:00", "name": "USPS COLLECTION BOX - BLUE BOX", "note": "ON 12/24 AND 12/31, THIS BOX MAY BE COLLECTED AS EARLY AS 12 NOON.", "nsi_id": "unitedstatespostalservice-a77078", "operator": "United States Postal Service", "operator:short": "USPS", "operator:type": "public", "operator:wikidata": "Q668687", "ref": "9074500034"}, "type": "Feature"}
{"dataset_attributes": {"@spider": "usps_collection_boxes", "spider:collection_time": "2023-10-19T08:25:27.646942"}, "geometry": {"coordinates": [-118.2625605, 33.83505], "type": "Point"}, "id": "i8mAV6vkkHyUX4-Qyfc6D_FkBf4=", "properties": {"@spider": "usps_collection_boxes", "addr:city": "CARSON", "addr:country": "US", "addr:full": "21350 AVALON BLVD LOBBY", "addr:postcode": "90745", "addr:state": "CA", "amenity": "post_box", "brand": "United States Postal Service", "brand:wikidata": "Q668687", "collection_times": "Mo-Fr 17:00; Sa 16:00", "name": "USPS COLLECTION BOX - PO LOBBY", "note": "ON 12/24 AND 12/31, THIS BOX MAY BE COLLECTED AS EARLY AS 12 NOON.", "nsi_id": "unitedstatespostalservice-a77078", "operator": "United States Postal Service", "operator:short": "USPS", "operator:type": "public", "operator:wikidata": "Q668687", "ref": "9074500037"}, "type": "Feature"}
{"dataset_attributes": {"@spider": "usps_collection_boxes", "spider:collection_time": "2023-10-19T08:25:27.646942"}, "geometry": {"coordinates": [-118.2625605, 33.83505], "type": "Point"}, "id": "nogMmQtuUXADI6jKULHNUnZl2xI=", "properties": {"@spider": "usps_collection_boxes", "addr:city": "CARSON", "addr:country": "US", "addr:full": "21350 AVALON BLVD LOBBY", "addr:postcode": "90745", "addr:state": "CA", "amenity": "post_box", "brand": "United States Postal Service", "brand:wikidata": "Q668687", "collection_times": "Mo-Fr 17:00; Sa 16:00", "name": "USPS COLLECTION BOX - PO LOBBY", "note": "ON 12/24 AND 12/31, THIS BOX MAY BE COLLECTED AS EARLY AS 12 NOON.", "nsi_id": "unitedstatespostalservice-a77078", "operator": "United States Postal Service", "operator:short": "USPS", "operator:type": "public", "operator:wikidata": "Q668687", "ref": "9074500038"}, "type": "Feature"}
{"dataset_attributes": {"@spider": "usps_collection_boxes", "spider:collection_time": "2023-10-19T08:25:27.646942"}, "geometry": {"coordinates": [-118.2625605, 33.83505], "type": "Point"}, "id": "I5gsrGdxqm8-zaSy35Ek_WuuNOs=", "properties": {"@spider": "usps_collection_boxes", "addr:city": "CARSON", "addr:country": "US", "addr:full": "21350 AVALON BLVD LOBBY", "addr:postcode": "90745", "addr:state": "CA", "amenity": "post_box", "brand": "United States Postal Service", "brand:wikidata": "Q668687", "collection_times": "Mo-Fr 17:00; Sa 16:00", "name": "USPS COLLECTION BOX - PO LOBBY", "note": "ON 12/24 AND 12/31, THIS BOX MAY BE COLLECTED AS EARLY AS 12 NOON.", "nsi_id": "unitedstatespostalservice-a77078", "operator": "United States Postal Service", "operator:short": "USPS", "operator:type": "public", "operator:wikidata": "Q668687", "ref": "9074500046"}, "type": "Feature"}
{"dataset_attributes": {"@spider": "usps_collection_boxes", "spider:collection_time": "2023-10-19T08:25:27.646942"}, "geometry": {"coordinates": [-118.264697, 33.844991], "type": "Point"}, "id": "YEZMStts7TQJs0jsYQOfB19F-J4=", "properties": {"@spider": "usps_collection_boxes", "addr:city": "CARSON", "addr:country": "US", "addr:full": "610 E CARSON PLAZA DR", "addr:postcode": "90746", "addr:state": "CA", "amenity": "post_box", "brand": "United States Postal Service", "brand:wikidata": "Q668687", "collection_times": "Mo-Fr 15:00; Sa 13:00", "name": "USPS COLLECTION BOX - BLUE BOX", "note": "ON 12/24 AND 12/31, THIS BOX MAY BE COLLECTED AS EARLY AS 12 NOON.", "nsi_id": "unitedstatespostalservice-a77078", "operator": "United States Postal Service", "operator:short": "USPS", "operator:type": "public", "operator:wikidata": "Q668687", "ref": "9074600001"}, "type": "Feature"}
{"dataset_attributes": {"@spider": "usps_collection_boxes", "spider:collection_time": "2023-10-19T08:25:27.646942"}, "geometry": {"coordinates": [-118.265913, 33.867716], "type": "Point"}, "id": "_O0qI295JBrXCv9AKNWjLjU-1fM=", "properties": {"@spider": "usps_collection_boxes", "addr:city": "CARSON", "addr:country": "US", "addr:full": "17906 AVALON BLVD", "addr:postcode": "90746", "addr:state": "CA", "amenity": "post_box", "brand": "United States Postal Service", "brand:wikidata": "Q668687", "collection_times": "Mo-Fr 15:30; Sa 13:00", "name": "USPS COLLECTION BOX - BLUE BOX", "note": "ON 12/24 AND 12/31, THIS BOX MAY BE COLLECTED AS EARLY AS 12 NOON.", "nsi_id": "unitedstatespostalservice-a77078", "operator": "United States Postal Service", "operator:short": "USPS", "operator:type": "public", "operator:wikidata": "Q668687", "ref": "9074600002"}, "type": "Feature"}
{"dataset_attributes": {"@spider": "usps_collection_boxes", "spider:collection_time": "2023-10-19T08:25:27.646942"}, "geometry": {"coordinates": [-118.263842, 33.858693], "type": "Point"}, "id": "NSkzGEd4UWTFNineLEt04eavDjY=", "properties": {"@spider": "usps_collection_boxes", "addr:city": "CARSON", "addr:country": "US", "addr:full": "657 E UNIVERSITY DR", "addr:postcode": "90746", "addr:state": "CA", "amenity": "post_box", "brand": "United States Postal Service", "brand:wikidata": "Q668687", "collection_times": "Mo-Fr 15:00; Sa 13:00", "name": "USPS COLLECTION BOX - BLUE BOX", "note": "ON 12/24 AND 12/31, THIS BOX MAY BE COLLECTED AS EARLY AS 12 NOON.", "nsi_id": "unitedstatespostalservice-a77078", "operator": "United States Postal Service", "operator:short": "USPS", "operator:type": "public", "operator:wikidata": "Q668687", "ref": "9074600008"}, "type": "Feature"}
{"dataset_attributes": {"@spider": "usps_collection_boxes", "spider:collection_time": "2023-10-19T08:25:27.646942"}, "geometry": {"coordinates": [-118.244396, 33.853507], "type": "Point"}, "id": "-zIbRPo37K2GDe9vVboxPfaDrMU=", "properties": {"@spider": "usps_collection_boxes", "addr:city": "CARSON", "addr:country": "US", "addr:full": "19442 NESTOR AVE", "addr:postcode": "90746", "addr:state": "CA", "amenity": "post_box", "brand": "United States Postal Service", "brand:wikidata": "Q668687", "collection_times": "Mo-Fr 14:15; Sa 13:00", "name": "USPS COLLECTION BOX - BLUE BOX", "note": "ON 12/24 AND 12/31, THIS BOX MAY BE COLLECTED AS EARLY AS 12 NOON.", "nsi_id": "unitedstatespostalservice-a77078", "operator": "United States Postal Service", "operator:short": "USPS", "operator:type": "public", "operator:wikidata": "Q668687", "ref": "9074600009"}, "type": "Feature"}
{"dataset_attributes": {"@spider": "usps_collection_boxes", "spider:collection_time": "2023-10-19T08:25:27.646942"}, "geometry": {"coordinates": [-118.274753, 33.86193], "type": "Point"}, "id": "pvjYtDUfB3q9Yff_HSJvG8jx-Ow=", "properties": {"@spider": "usps_collection_boxes", "addr:city": "CARSON", "addr:country": "US", "addr:full": "18600 MILMORE AVE", "addr:postcode": "90746", "addr:state": "CA", "amenity": "post_box", "brand": "United States Postal Service", "brand:wikidata": "Q668687", "collection_times": "Mo-Fr 15:15; Sa 13:00", "name": "USPS COLLECTION BOX - BLUE BOX", "note": "ON 12/24 AND 12/31, THIS BOX MAY BE COLLECTED AS EARLY AS 12 NOON.", "nsi_id": "unitedstatespostalservice-a77078", "operator": "United States Postal Service", "operator:short": "USPS", "operator:type": "public", "operator:wikidata": "Q668687", "ref": "9074600011"}, "type": "Feature"}
{"dataset_attributes": {"@spider": "usps_collection_boxes", "spider:collection_time": "2023-10-19T08:25:27.646942"}, "geometry": {"coordinates": [-118.2618873794, 33.8506693175], "type": "Point"}, "id": "AWqquiF7yImF7_Jy8-xJ2f70rj4=", "properties": {"@spider": "usps_collection_boxes", "addr:city": "CARSON", "addr:country": "US", "addr:full": "19915 GALWAY AVE", "addr:postcode": "90746", "addr:state": "CA", "amenity": "post_box", "brand": "United States Postal Service", "brand:wikidata": "Q668687", "collection_times": "Mo-Fr 14:30; Sa 13:00", "name": "USPS COLLECTION BOX - BLUE BOX", "note": "ON 12/24 AND 12/31, THIS BOX MAY BE COLLECTED AS EARLY AS 12 NOON.", "nsi_id": "unitedstatespostalservice-a77078", "operator": "United States Postal Service", "operator:short": "USPS", "operator:type": "public", "operator:wikidata": "Q668687", "ref": "9074600012"}, "type": "Feature"}
{"dataset_attributes": {"@spider": "usps_collection_boxes", "spider:collection_time": "2023-10-19T08:25:27.646942"}, "geometry": {"coordinates": [-118.25668, 33.840568], "type": "Point"}, "id": "uNv3ib3WYi6E8W1eUwWriyLDBy8=", "properties": {"@spider": "usps_collection_boxes", "addr:city": "CARSON", "addr:country": "US", "addr:full": "1007 E DOMINGUEZ ST", "addr:postcode": "90746", "addr:state": "CA", "amenity": "post_box", "brand": "United States Postal Service", "brand:wikidata": "Q668687", "collection_times": "Mo-Fr 16:30; Sa 13:00", "name": "USPS COLLECTION BOX - BLUE BOX", "note": "ON 12/24 AND 12/31, THIS BOX MAY BE COLLECTED AS EARLY AS 12 NOON.", "nsi_id": "unitedstatespostalservice-a77078", "operator": "United States Postal Service", "operator:short": "USPS", "operator:type": "public", "operator:wikidata": "Q668687", "ref": "9074600017"}, "type": "Feature"}
{"dataset_attributes": {"@spider": "usps_collection_boxes", "spider:collection_time": "2023-10-19T08:25:27.646942"}, "geometry": {"coordinates": [-118.25229, 33.875616], "type": "Point"}, "id": "ShmKsOTvEsR1JPW5OW94DCH2ff0=", "properties": {"@spider": "usps_collection_boxes", "addr:city": "CARSON", "addr:country": "US", "addr:full": "1161 E WALNUT ST", "addr:postcode": "90746", "addr:state": "CA", "amenity": "post_box", "brand": "United States Postal Service", "brand:wikidata": "Q668687", "collection_times": "Mo-Fr 15:30; Sa 13:00", "name": "USPS COLLECTION BOX - BLUE BOX", "note": "ON 12/24 AND 12/31, THIS BOX MAY BE COLLECTED AS EARLY AS 12 NOON.", "nsi_id": "unitedstatespostalservice-a77078", "operator": "United States Postal Service", "operator:short": "USPS", "operator:type": "public", "operator:wikidata": "Q668687", "ref": "9074600023"}, "type": "Feature"}
{"dataset_attributes": {"@spider": "usps_collection_boxes", "spider:collection_time": "2023-10-19T08:25:27.646942"}, "geometry": {"coordinates": [-118.25982, 33.843087], "type": "Point"}, "id": "SxSY6LbvVakuF_GZWHy9M48sovw=", "properties": {"@spider": "usps_collection_boxes", "addr:city": "CARSON", "addr:country": "US", "addr:full": "20700 AVALON BLVD LOBBY", "addr:postcode": "90746", "addr:state": "CA", "amenity": "post_box", "brand": "United States Postal Service", "brand:wikidata": "Q668687", "collection_times": "Mo-Fr 17:00; Sa 14:15", "name": "USPS COLLECTION BOX - PO LOBBY", "note": "ON 12/24 AND 12/31, THIS BOX MAY BE COLLECTED AS EARLY AS 12 NOON.", "nsi_id": "unitedstatespostalservice-a77078", "operator": "United States Postal Service", "operator:short": "USPS", "operator:type": "public", "operator:wikidata": "Q668687", "ref": "9074600035"}, "type": "Feature"}
{"dataset_attributes": {"@spider": "usps_collection_boxes", "spider:collection_time": "2023-10-19T08:25:27.646942"}, "geometry": {"coordinates": [-118.25982, 33.843087], "type": "Point"}, "id": "vtOK358DLhPTyhQtqDVjIJbJwUg=", "properties": {"@spider": "usps_collection_boxes", "addr:city": "CARSON", "addr:country": "US", "addr:full": "20700 AVALON BLVD LOBBY", "addr:postcode": "90746", "addr:state": "CA", "amenity": "post_box", "brand": "United States Postal Service", "brand:wikidata": "Q668687", "collection_times": "Mo-Fr 17:00; Sa 14:15", "name": "USPS COLLECTION BOX - PO LOBBY", "note": "ON 12/24 AND 12/31, THIS BOX MAY BE COLLECTED AS EARLY AS 12 NOON.", "nsi_id": "unitedstatespostalservice-a77078", "operator": "United States Postal Service", "operator:short": "USPS", "operator:type": "public", "operator:wikidata": "Q668687", "ref": "9074600041"}, "type": "Feature"}
{"dataset_attributes": {"@spider": "usps_collection_boxes", "spider:collection_time": "2023-10-19T08:25:27.646942"}, "geometry": {"coordinates": [-118.168369, 33.796487], "type": "Point"}, "id": "foDcfvKg6ey6TYqaeTQix7ykDxY=", "properties": {"@spider": "usps_collection_boxes", "addr:city": "LONG BEACH", "addr:country": "US", "addr:full": "2175 CHERRY AVE", "addr:postcode": "90755", "addr:state": "CA", "amenity": "post_box", "brand": "United States Postal Service", "brand:wikidata": "Q668687", "collection_times": "Mo-Fr 15:15; Sa 13:00", "name": "USPS COLLECTION BOX - BLUE BOX", "note": "ON 12/24 AND 12/31, THIS BOX MAY BE COLLECTED AS EARLY AS 12 NOON.", "nsi_id": "unitedstatespostalservice-a77078", "operator": "United States Postal Service", "operator:short": "USPS", "operator:type": "public", "operator:wikidata": "Q668687", "ref": "9075500005"}, "type": "Feature"}
{"dataset_attributes": {"@spider": "usps_collection_boxes", "spider:collection_time": "2023-10-19T08:25:27.646942"}, "geometry": {"coordinates": [-118.168804, 33.802657], "type": "Point"}, "id": "q3Q8y_RIeeO6ECQXsQNxx0r5GLg=", "properties": {"@spider": "usps_collection_boxes", "addr:city": "LONG BEACH", "addr:country": "US", "addr:full": "2501 CHERRY AVE", "addr:postcode": "90755", "addr:state": "CA", "amenity": "post_box", "brand": "United States Postal Service", "brand:wikidata": "Q668687", "collection_times": "Mo-Fr 17:00; Sa 13:00", "name": "USPS COLLECTION BOX - BLUE BOX", "note": "ON 12/24 AND 12/31, THIS BOX MAY BE COLLECTED AS EARLY AS 12 NOON.", "nsi_id": "unitedstatespostalservice-a77078", "operator": "United States Postal Service", "operator:short": "USPS", "operator:type": "public", "operator:wikidata": "Q668687", "ref": "9075500007"}, "type": "Feature"}
{"dataset_attributes": {"@spider": "usps_collection_boxes", "spider:collection_time": "2023-10-19T08:25:27.646942"}, "geometry": {"coordinates": [-118.151543, 33.799044], "type": "Point"}, "id": "GTIwdY17qGYcKLFnH2-bQLFu2wE=", "properties": {"@spider": "usps_collection_boxes", "addr:city": "LONG BEACH", "addr:country": "US", "addr:full": "2325 REDONDO AVE", "addr:postcode": "90755", "addr:state": "CA", "amenity": "post_box", "brand": "United States Postal Service", "brand:wikidata": "Q668687", "collection_times": "Mo-Fr 17:00; Sa 13:00", "name": "USPS COLLECTION BOX - BLUE BOX", "note": "ON 12/24 AND 12/31, THIS BOX MAY BE COLLECTED AS EARLY AS 12 NOON.", "nsi_id": "unitedstatespostalservice-a77078", "operator": "United States Postal Service", "operator:short": "USPS", "operator:type": "public", "operator:wikidata": "Q668687", "ref": "9075500019"}, "type": "Feature"}
{"dataset_attributes": {"@spider": "usps_collection_boxes", "spider:collection_time": "2023-10-19T08:25:27.646942"}, "geometry": {"coordinates": [-118.1654130472, 33.8045549528], "type": "Point"}, "id": "FsJBPCXPY8daUfzvLtVy-TjXWr8=", "properties": {"@spider": "usps_collection_boxes", "addr:city": "LONG BEACH", "addr:country": "US", "addr:full": "2201 E WILLOW ST", "addr:postcode": "90755", "addr:state": "CA", "amenity": "post_box", "brand": "United States Postal Service", "brand:wikidata": "Q668687", "collection_times": "Mo-Fr 17:00; Sa 13:00", "name": "USPS COLLECTION BOX - BLUE BOX", "note": "ON 12/24 AND 12/31, THIS BOX MAY BE COLLECTED AS EARLY AS 12 NOON.", "nsi_id": "unitedstatespostalservice-a77078", "operator": "United States Postal Service", "operator:short": "USPS", "operator:type": "public", "operator:wikidata": "Q668687", "ref": "9075500020"}, "type": "Feature"}
