{"dataset_attributes": {"@spider": "usps_collection_boxes", "spider:collection_time": "2023-08-25T08:24:09.950024"}, "geometry": {"coordinates": [-118.192005, 33.768297], "type": "Point"}, "id": "XSKI9Cf_EiK6OXVuDmnvsAQni5c=", "properties": {"@spider": "usps_collection_boxes", "addr:city": "LONG BEACH", "addr:country": "US", "addr:full": "110 PINE AVE", "addr:postcode": "90802", "addr:state": "CA", "amenity": "post_box", "brand": "United States Postal Service", "brand:wikidata": "Q668687", "collection_times": "Mo-Fr 15:00; Sa 13:00", "name": "USPS COLLECTION BOX - BLUE BOX", "note": "ON 12/24 AND 12/31, THIS BOX MAY BE COLLECTED AS EARLY AS 12 NOON.", "nsi_id": "unitedstatespostalservice-a77078", "operator": "United States Postal Service", "operator:short": "USPS", "operator:type": "public", "operator:wikidata": "Q668687", "ref": "9080200011"}, "type": "Feature"}
{"dataset_attributes": {"@spider": "usps_collection_boxes", "spider:collection_time": "2023-08-25T08:24:09.950024"}, "geometry": {"coordinates": [-118.1857095, 33.766875], "type": "Point"}, "id": "GaianBhe45FyY7m_ak5OnFUEI8c=", "properties": {"@spider": "usps_collection_boxes", "addr:city": "LONG BEACH", "addr:country": "US", "addr:full": "555 E OCEAN BLVD", "addr:postcode": "90802", "addr:state": "CA", "amenity": "post_box", "brand": "United States Postal Service", "brand:wikidata": "Q668687", "collection_times": "Mo-Fr 15:00; Sa 13:00", "name": "USPS COLLECTION BOX - BLUE BOX", "note": "ON 12/24 AND 12/31, THIS BOX MAY BE COLLECTED AS EARLY AS 12 NOON.", "nsi_id": "unitedstatespostalservice-a77078", "operator": "United States Postal Service", "operator:short": "USPS", "operator:type": "public", "operator:wikidata": "Q668687", "ref": "9080200013"}, "type": "Feature"}
{"dataset_attributes": {"@spider": "usps_collection_boxes", "spider:collection_time": "2023-08-25T08:24:09.950024"}, "geometry": {"coordinates": [-118.188792, 33.770826], "type": "Point"}, "id": "V7hrLBnoT1j38DCbOsR5NQ7X4D8=", "properties": {"@spider": "usps_collection_boxes", "addr:city": "LONG BEACH", "addr:country": "US", "addr:full": "300 LONG BEACH BLVD", "addr:postcode": "90802", "addr:state": "CA", "amenity": "post_box", "brand": "United States Postal Service", "brand:wikidata": "Q668687", "collection_times": "Mo-Fr 17:00; Sa 14:00", "name": "USPS COLLECTION BOX - BLUE BOX", "note": "ON 12/24 AND 12/31, THIS BOX MAY BE COLLECTED AS EARLY AS 12 NOON.", "nsi_id": "unitedstatespostalservice-a77078", "operator": "United States Postal Service", "operator:short": "USPS", "operator:type": "public", "operator:wikidata": "Q668687", "ref": "9080200015"}, "type": "Feature"}
{"dataset_attributes": {"@spider": "usps_collection_boxes", "spider:collection_time": "2023-08-25T08:24:09.950024"}, "geometry": {"coordinates": [-118.184171401, 33.76617359], "type": "Point"}, "id": "OrNbgzhNTKCSAAT4pH7JZn6iF1Y=", "properties": {"@spider": "usps_collection_boxes", "addr:city": "LONG BEACH", "addr:country": "US", "addr:full": "700 E OCEAN BLVD", "addr:postcode": "90802", "addr:state": "CA", "amenity": "post_box", "brand": "United States Postal Service", "brand:wikidata": "Q668687", "collection_times": "Mo-Sa 13:00", "name": "USPS COLLECTION BOX - BLUE BOX", "note": "ON 12/24 AND 12/31, THIS BOX MAY BE COLLECTED AS EARLY AS 12 NOON.", "nsi_id": "unitedstatespostalservice-a77078", "operator": "United States Postal Service", "operator:short": "USPS", "operator:type": "public", "operator:wikidata": "Q668687", "ref": "9080200030"}, "type": "Feature"}
{"dataset_attributes": {"@spider": "usps_collection_boxes", "spider:collection_time": "2023-08-25T08:24:09.950024"}, "geometry": {"coordinates": [-118.1967435, 33.766767], "type": "Point"}, "id": "uolrTBXX8m9nmjbjRfm91ij-JTE=", "properties": {"@spider": "usps_collection_boxes", "addr:city": "LONG BEACH", "addr:country": "US", "addr:full": "440 W OCEAN BLVD", "addr:postcode": "90802", "addr:state": "CA", "amenity": "post_box", "brand": "United States Postal Service", "brand:wikidata": "Q668687", "collection_times": "Mo-Fr 15:00; Sa 13:00", "name": "USPS COLLECTION BOX - BLUE BOX", "note": "ON 12/24 AND 12/31, THIS BOX MAY BE COLLECTED AS EARLY AS 12 NOON.", "nsi_id": "unitedstatespostalservice-a77078", "operator": "United States Postal Service", "operator:short": "USPS", "operator:type": "public", "operator:wikidata": "Q668687", "ref": "9080200034"}, "type": "Feature"}
{"dataset_attributes": {"@spider": "usps_collection_boxes", "spider:collection_time": "2023-08-25T08:24:09.950024"}, "geometry": {"coordinates": [-118.1872845, 33.767172], "type": "Point"}, "id": "haCaMvPKespQLbOgbyovaACj6pA=", "properties": {"@spider": "usps_collection_boxes", "addr:city": "LONG BEACH", "addr:country": "US", "addr:full": "401 E OCEAN BLVD", "addr:postcode": "90802", "addr:state": "CA", "amenity": "post_box", "brand": "United States Postal Service", "brand:wikidata": "Q668687", "collection_times": "Mo-Fr 15:45; Sa 13:00", "name": "USPS COLLECTION BOX - BLUE BOX", "note": "ON 12/24 AND 12/31, THIS BOX MAY BE COLLECTED AS EARLY AS 12 NOON.", "nsi_id": "unitedstatespostalservice-a77078", "operator": "United States Postal Service", "operator:short": "USPS", "operator:type": "public", "operator:wikidata": "Q668687", "ref": "9080200035"}, "type": "Feature"}
{"dataset_attributes": {"@spider": "usps_collection_boxes", "spider:collection_time": "2023-08-25T08:24:09.950024"}, "geometry": {"coordinates": [-118.201437, 33.766326], "type": "Point"}, "id": "8moO_gcR3yna-2XPSnqA_1QW_9g=", "properties": {"@spider": "usps_collection_boxes", "addr:city": "LONG BEACH", "addr:country": "US", "addr:full": "330 GOLDEN SHORE", "addr:postcode": "90802", "addr:state": "CA", "amenity": "post_box", "brand": "United States Postal Service", "brand:wikidata": "Q668687", "collection_times": "Mo-Fr 15:00; Sa 13:00", "name": "USPS COLLECTION BOX - BLUE BOX", "note": "ON 12/24 AND 12/31, THIS BOX MAY BE COLLECTED AS EARLY AS 12 NOON.", "nsi_id": "unitedstatespostalservice-a77078", "operator": "United States Postal Service", "operator:short": "USPS", "operator:type": "public", "operator:wikidata": "Q668687", "ref": "9080200036"}, "type": "Feature"}
{"dataset_attributes": {"@spider": "usps_collection_boxes", "spider:collection_time": "2023-08-25T08:24:09.950024"}, "geometry": {"coordinates": [-118.192005, 33.768297], "type": "Point"}, "id": "gwj5VG9-bIS-1FIQM0jqmUEygk8=", "properties": {"@spider": "usps_collection_boxes", "addr:city": "LONG BEACH", "addr:country": "US", "addr:full": "110 PINE AVE", "addr:postcode": "90802", "addr:state": "CA", "amenity": "post_box", "brand": "United States Postal Service", "brand:wikidata": "Q668687", "collection_times": "Mo-Fr 15:00; Sa 13:00", "name": "USPS COLLECTION BOX - BLUE BOX", "note": "ON 12/24 AND 12/31, THIS BOX MAY BE COLLECTED AS EARLY AS 12 NOON.", "nsi_id": "unitedstatespostalservice-a77078", "operator": "United States Postal Service", "operator:short": "USPS", "operator:type": "public", "operator:wikidata": "Q668687", "ref": "9080200042"}, "type": "Feature"}
{"dataset_attributes": {"@spider": "usps_collection_boxes", "spider:collection_time": "2023-08-25T08:24:09.950024"}, "geometry": {"coordinates": [-118.170333, 33.765093], "type": "Point"}, "id": "DYIIPHNXPEcmSZam7QZRGOAYH3s=", "properties": {"@spider": "usps_collection_boxes", "addr:city": "LONG BEACH", "addr:country": "US", "addr:full": "1771 E OCEAN BLVD", "addr:postcode": "90802", "addr:state": "CA", "amenity": "post_box", "brand": "United States Postal Service", "brand:wikidata": "Q668687", "collection_times": "Mo-Sa 13:00", "name": "USPS COLLECTION BOX - BLUE BOX", "note": "ON 12/24 AND 12/31, THIS BOX MAY BE COLLECTED AS EARLY AS 12 NOON.", "nsi_id": "unitedstatespostalservice-a77078", "operator": "United States Postal Service", "operator:short": "USPS", "operator:type": "public", "operator:wikidata": "Q668687", "ref": "9080200067"}, "type": "Feature"}
{"dataset_attributes": {"@spider": "usps_collection_boxes", "spider:collection_time": "2023-08-25T08:24:09.950024"}, "geometry": {"coordinates": [-118.1793735, 33.765498], "type": "Point"}, "id": "_grs2UVLB9rJycRXGW6kr2btBYk=", "properties": {"@spider": "usps_collection_boxes", "addr:city": "LONG BEACH", "addr:country": "US", "addr:full": "1078 E OCEAN BLVD", "addr:postcode": "90802", "addr:state": "CA", "amenity": "post_box", "brand": "United States Postal Service", "brand:wikidata": "Q668687", "collection_times": "Mo-Fr 13:30; Sa 13:00", "name": "USPS COLLECTION BOX - BLUE BOX", "note": "ON 12/24 AND 12/31, THIS BOX MAY BE COLLECTED AS EARLY AS 12 NOON.", "nsi_id": "unitedstatespostalservice-a77078", "operator": "United States Postal Service", "operator:short": "USPS", "operator:type": "public", "operator:wikidata": "Q668687", "ref": "9080200072"}, "type": "Feature"}
{"dataset_attributes": {"@spider": "usps_collection_boxes", "spider:collection_time": "2023-08-25T08:24:09.950024"}, "geometry": {"coordinates": [-118.19067279, 33.759943497], "type": "Point"}, "id": "JuX_wpyial-oLtF5kri2JZPuUgY=", "properties": {"@spider": "usps_collection_boxes", "addr:city": "LONG BEACH", "addr:country": "US", "addr:full": "419 SHORELINE VILLAGE DR", "addr:postcode": "90802", "addr:state": "CA", "amenity": "post_box", "brand": "United States Postal Service", "brand:wikidata": "Q668687", "collection_times": "Mo-Fr 13:45; Sa 13:00", "name": "USPS COLLECTION BOX - BLUE BOX", "note": "ON 12/24 AND 12/31, THIS BOX MAY BE COLLECTED AS EARLY AS 12 NOON.", "nsi_id": "unitedstatespostalservice-a77078", "operator": "United States Postal Service", "operator:short": "USPS", "operator:type": "public", "operator:wikidata": "Q668687", "ref": "9080200086"}, "type": "Feature"}
{"dataset_attributes": {"@spider": "usps_collection_boxes", "spider:collection_time": "2023-08-25T08:24:09.950024"}, "geometry": {"coordinates": [-118.1941245, 33.772023], "type": "Point"}, "id": "dG9Sw0jFbJDcTMYCo6fAAXwheB0=", "properties": {"@spider": "usps_collection_boxes", "addr:city": "LONG BEACH", "addr:country": "US", "addr:full": "421 PACIFIC AVE", "addr:postcode": "90802", "addr:state": "CA", "amenity": "post_box", "brand": "United States Postal Service", "brand:wikidata": "Q668687", "collection_times": "Mo-Fr 15:30; Sa 13:00", "name": "USPS COLLECTION BOX - BLUE BOX", "note": "ON 12/24 AND 12/31, THIS BOX MAY BE COLLECTED AS EARLY AS 12 NOON.", "nsi_id": "unitedstatespostalservice-a77078", "operator": "United States Postal Service", "operator:short": "USPS", "operator:type": "public", "operator:wikidata": "Q668687", "ref": "9080200088"}, "type": "Feature"}
{"dataset_attributes": {"@spider": "usps_collection_boxes", "spider:collection_time": "2023-08-25T08:24:09.950024"}, "geometry": {"coordinates": [-118.176156, 33.771768495], "type": "Point"}, "id": "O5N11j6y0vDx_Mztnz-pu3bYIqM=", "properties": {"@spider": "usps_collection_boxes", "addr:city": "LONG BEACH", "addr:country": "US", "addr:full": "1203 E 4TH ST", "addr:postcode": "90802", "addr:state": "CA", "amenity": "post_box", "brand": "United States Postal Service", "brand:wikidata": "Q668687", "collection_times": "Mo-Sa 13:00", "name": "USPS COLLECTION BOX - BLUE BOX", "note": "ON 12/24 AND 12/31, THIS BOX MAY BE COLLECTED AS EARLY AS 12 NOON.", "nsi_id": "unitedstatespostalservice-a77078", "operator": "United States Postal Service", "operator:short": "USPS", "operator:type": "public", "operator:wikidata": "Q668687", "ref": "9080200089"}, "type": "Feature"}
{"dataset_attributes": {"@spider": "usps_collection_boxes", "spider:collection_time": "2023-08-25T08:24:09.950024"}, "geometry": {"coordinates": [-118.198953, 33.76683], "type": "Point"}, "id": "dYRwZtwWr1X6ocdMbA2k5VJRQNQ=", "properties": {"@spider": "usps_collection_boxes", "addr:city": "LONG BEACH", "addr:country": "US", "addr:full": "100 OCEANGATE", "addr:postcode": "90802", "addr:state": "CA", "amenity": "post_box", "brand": "United States Postal Service", "brand:wikidata": "Q668687", "collection_times": "Mo-Fr 15:00; Sa 13:00", "name": "USPS COLLECTION BOX - BLUE BOX", "note": "ON 12/24 AND 12/31, THIS BOX MAY BE COLLECTED AS EARLY AS 12 NOON.", "nsi_id": "unitedstatespostalservice-a77078", "operator": "United States Postal Service", "operator:short": "USPS", "operator:type": "public", "operator:wikidata": "Q668687", "ref": "9080200095"}, "type": "Feature"}
{"dataset_attributes": {"@spider": "usps_collection_boxes", "spider:collection_time": "2023-08-25T08:24:09.950024"}, "geometry": {"coordinates": [-118.1984909895, 33.757110007], "type": "Point"}, "id": "BwH35ClXc2gNBrCdDwjUJm8ngFU=", "properties": {"@spider": "usps_collection_boxes", "addr:city": "LONG BEACH", "addr:country": "US", "addr:full": "700 QUEENSWAY DR", "addr:postcode": "90802", "addr:state": "CA", "amenity": "post_box", "brand": "United States Postal Service", "brand:wikidata": "Q668687", "collection_times": "Mo-Fr 14:00; Sa 13:00", "name": "USPS COLLECTION BOX - BLUE BOX", "note": "ON 12/24 AND 12/31, THIS BOX MAY BE COLLECTED AS EARLY AS 12 NOON.", "nsi_id": "unitedstatespostalservice-a77078", "operator": "United States Postal Service", "operator:short": "USPS", "operator:type": "public", "operator:wikidata": "Q668687", "ref": "9080200101"}, "type": "Feature"}
{"dataset_attributes": {"@spider": "usps_collection_boxes", "spider:collection_time": "2023-08-25T08:24:09.950024"}, "geometry": {"coordinates": [-118.198953, 33.76683], "type": "Point"}, "id": "kdMiD_BlnVbLjQLW7fWPdA5LERo=", "properties": {"@spider": "usps_collection_boxes", "addr:city": "LONG BEACH", "addr:country": "US", "addr:full": "100 OCEANGATE", "addr:postcode": "90802", "addr:state": "CA", "amenity": "post_box", "brand": "United States Postal Service", "brand:wikidata": "Q668687", "collection_times": "Mo-Fr 15:00; Sa 13:00", "name": "USPS COLLECTION BOX - BLUE BOX", "note": "ON 12/24 AND 12/31, THIS BOX MAY BE COLLECTED AS EARLY AS 12 NOON.", "nsi_id": "unitedstatespostalservice-a77078", "operator": "United States Postal Service", "operator:short": "USPS", "operator:type": "public", "operator:wikidata": "Q668687", "ref": "9080200104"}, "type": "Feature"}
{"dataset_attributes": {"@spider": "usps_collection_boxes", "spider:collection_time": "2023-08-25T08:24:09.950024"}, "geometry": {"coordinates": [-118.186758, 33.769264486], "type": "Point"}, "id": "0L2JsjzBeQEbHch7JhC1eKUh6mo=", "properties": {"@spider": "usps_collection_boxes", "addr:city": "LONG BEACH", "addr:country": "US", "addr:full": "448 E BROADWAY", "addr:postcode": "90802", "addr:state": "CA", "amenity": "post_box", "brand": "United States Postal Service", "brand:wikidata": "Q668687", "collection_times": "Mo-Sa 13:00", "name": "USPS COLLECTION BOX - BLUE BOX", "note": "ON 12/24 AND 12/31, THIS BOX MAY BE COLLECTED AS EARLY AS 12 NOON.", "nsi_id": "unitedstatespostalservice-a77078", "operator": "United States Postal Service", "operator:short": "USPS", "operator:type": "public", "operator:wikidata": "Q668687", "ref": "9080200105"}, "type": "Feature"}
{"dataset_attributes": {"@spider": "usps_collection_boxes", "spider:collection_time": "2023-08-25T08:24:09.950024"}, "geometry": {"coordinates": [-118.188756, 33.770817], "type": "Point"}, "id": "EKsCKrO2mVLS8ze0u7A-jldjx9Q=", "properties": {"@spider": "usps_collection_boxes", "addr:city": "LONG BEACH", "addr:country": "US", "addr:full": "300 LONG BEACH BLVD LOBBY", "addr:postcode": "90802", "addr:state": "CA", "amenity": "post_box", "brand": "United States Postal Service", "brand:wikidata": "Q668687", "collection_times": "Mo-Fr 18:00; Sa 16:00", "name": "USPS COLLECTION BOX - PO LOBBY", "note": "ON 12/24 AND 12/31, THIS BOX MAY BE COLLECTED AS EARLY AS 12 NOON.", "nsi_id": "unitedstatespostalservice-a77078", "operator": "United States Postal Service", "operator:short": "USPS", "operator:type": "public", "operator:wikidata": "Q668687", "ref": "9080200127"}, "type": "Feature"}
{"dataset_attributes": {"@spider": "usps_collection_boxes", "spider:collection_time": "2023-08-25T08:24:09.950024"}, "geometry": {"coordinates": [-118.1920095, 33.76962], "type": "Point"}, "id": "Qcwi9F7FVqAhCvCxFj0hH4GRljk=", "properties": {"@spider": "usps_collection_boxes", "addr:city": "LONG BEACH", "addr:country": "US", "addr:full": "200 PINE AVE", "addr:postcode": "90802", "addr:state": "CA", "amenity": "post_box", "brand": "United States Postal Service", "brand:wikidata": "Q668687", "collection_times": "Mo-Fr 16:45; Sa 13:00", "name": "USPS COLLECTION BOX - BLUE BOX", "note": "ON 12/24 AND 12/31, THIS BOX MAY BE COLLECTED AS EARLY AS 12 NOON.", "nsi_id": "unitedstatespostalservice-a77078", "operator": "United States Postal Service", "operator:short": "USPS", "operator:type": "public", "operator:wikidata": "Q668687", "ref": "9080200148"}, "type": "Feature"}
{"dataset_attributes": {"@spider": "usps_collection_boxes", "spider:collection_time": "2023-08-25T08:24:09.950024"}, "geometry": {"coordinates": [-118.188792, 33.770826], "type": "Point"}, "id": "1izNZW4EWU5KOCWnkonAkf-Ota4=", "properties": {"@spider": "usps_collection_boxes", "addr:city": "LONG BEACH", "addr:country": "US", "addr:full": "300 LONG BEACH BLVD", "addr:postcode": "90802", "addr:state": "CA", "amenity": "post_box", "brand": "United States Postal Service", "brand:wikidata": "Q668687", "collection_times": "Mo-Fr 18:00; Sa 16:00", "name": "USPS COLLECTION BOX - APC", "note": "ON 12/24 AND 12/31, THIS BOX MAY BE COLLECTED AS EARLY AS 12 NOON.", "nsi_id": "unitedstatespostalservice-a77078", "operator": "United States Postal Service", "operator:short": "USPS", "operator:type": "public", "operator:wikidata": "Q668687", "ref": "9080200149"}, "type": "Feature"}
{"dataset_attributes": {"@spider": "usps_collection_boxes", "spider:collection_time": "2023-08-25T08:24:09.950024"}, "geometry": {"coordinates": [-118.188756, 33.770817], "type": "Point"}, "id": "dFJLiSYJh6Fi-QxkL4BlYRPC18M=", "properties": {"@spider": "usps_collection_boxes", "addr:city": "LONG BEACH", "addr:country": "US", "addr:full": "300 LONG BEACH BLVD LOBBY", "addr:postcode": "90802", "addr:state": "CA", "amenity": "post_box", "brand": "United States Postal Service", "brand:wikidata": "Q668687", "collection_times": "Mo-Fr 18:00; Sa 16:00", "name": "USPS COLLECTION BOX - PO LOBBY", "note": "ON 12/24 AND 12/31, THIS BOX MAY BE COLLECTED AS EARLY AS 12 NOON.", "nsi_id": "unitedstatespostalservice-a77078", "operator": "United States Postal Service", "operator:short": "USPS", "operator:type": "public", "operator:wikidata": "Q668687", "ref": "9080200167"}, "type": "Feature"}
{"dataset_attributes": {"@spider": "usps_collection_boxes", "spider:collection_time": "2023-08-25T08:24:09.950024"}, "geometry": {"coordinates": [-118.113841, 33.757915], "type": "Point"}, "id": "bkpP9jZWiK6fg6GWTL47Gs-KLBM=", "properties": {"@spider": "usps_collection_boxes", "addr:city": "LONG BEACH", "addr:country": "US", "addr:full": "6201 E 2ND ST", "addr:postcode": "90803", "addr:state": "CA", "amenity": "post_box", "brand": "United States Postal Service", "brand:wikidata": "Q668687", "collection_times": "Mo-Fr 15:00; Sa 13:00", "name": "USPS COLLECTION BOX - BLUE BOX", "note": "ON 12/24 AND 12/31, THIS BOX MAY BE COLLECTED AS EARLY AS 12 NOON.", "nsi_id": "unitedstatespostalservice-a77078", "operator": "United States Postal Service", "operator:short": "USPS", "operator:type": "public", "operator:wikidata": "Q668687", "ref": "9080300008"}, "type": "Feature"}
{"dataset_attributes": {"@spider": "usps_collection_boxes", "spider:collection_time": "2023-08-25T08:24:09.950024"}, "geometry": {"coordinates": [-118.11998, 33.755944], "type": "Point"}, "id": "ZVL4YTBTTQkTHYbvx9zzxf-8phM=", "properties": {"@spider": "usps_collection_boxes", "addr:city": "LONG BEACH", "addr:country": "US", "addr:full": "5846 E NAPLES PLZ", "addr:postcode": "90803", "addr:state": "CA", "amenity": "post_box", "brand": "United States Postal Service", "brand:wikidata": "Q668687", "collection_times": "Mo-Fr 15:00; Sa 13:00", "name": "USPS COLLECTION BOX - BLUE BOX", "note": "ON 12/24 AND 12/31, THIS BOX MAY BE COLLECTED AS EARLY AS 12 NOON.", "nsi_id": "unitedstatespostalservice-a77078", "operator": "United States Postal Service", "operator:short": "USPS", "operator:type": "public", "operator:wikidata": "Q668687", "ref": "9080300009"}, "type": "Feature"}
{"dataset_attributes": {"@spider": "usps_collection_boxes", "spider:collection_time": "2023-08-25T08:24:09.950024"}, "geometry": {"coordinates": [-118.1271, 33.763488], "type": "Point"}, "id": "N3gWtPex9IkzRamwdM3QN0blHWY=", "properties": {"@spider": "usps_collection_boxes", "addr:city": "LONG BEACH", "addr:country": "US", "addr:full": "5296 E APPIAN WAY", "addr:postcode": "90803", "addr:state": "CA", "amenity": "post_box", "brand": "United States Postal Service", "brand:wikidata": "Q668687", "collection_times": "Mo-Sa 13:00", "name": "USPS COLLECTION BOX - BLUE BOX", "note": "ON 12/24 AND 12/31, THIS BOX MAY BE COLLECTED AS EARLY AS 12 NOON.", "nsi_id": "unitedstatespostalservice-a77078", "operator": "United States Postal Service", "operator:short": "USPS", "operator:type": "public", "operator:wikidata": "Q668687", "ref": "9080300011"}, "type": "Feature"}
{"dataset_attributes": {"@spider": "usps_collection_boxes", "spider:collection_time": "2023-08-25T08:24:09.950024"}, "geometry": {"coordinates": [-118.1516805212, 33.7643762277], "type": "Point"}, "id": "XMYdmiSCHNRDuc5OiO_sZrb_Tzs=", "properties": {"@spider": "usps_collection_boxes", "addr:city": "LONG BEACH", "addr:country": "US", "addr:full": "3440 E BROADWAY", "addr:postcode": "90803", "addr:state": "CA", "amenity": "post_box", "brand": "United States Postal Service", "brand:wikidata": "Q668687", "collection_times": "Mo-Sa 13:00", "name": "USPS COLLECTION BOX - BLUE BOX", "note": "ON 12/24 AND 12/31, THIS BOX MAY BE COLLECTED AS EARLY AS 12 NOON.", "nsi_id": "unitedstatespostalservice-a77078", "operator": "United States Postal Service", "operator:short": "USPS", "operator:type": "public", "operator:wikidata": "Q668687", "ref": "9080300013"}, "type": "Feature"}
{"dataset_attributes": {"@spider": "usps_collection_boxes", "spider:collection_time": "2023-08-25T08:24:09.950024"}, "geometry": {"coordinates": [-118.115976, 33.761299], "type": "Point"}, "id": "i95vPHi3LoFVJ_rtI--AyzDoiQY=", "properties": {"@spider": "usps_collection_boxes", "addr:city": "LONG BEACH", "addr:country": "US", "addr:full": "6290 E PACIFIC COAST HWY", "addr:postcode": "90803", "addr:state": "CA", "amenity": "post_box", "brand": "United States Postal Service", "brand:wikidata": "Q668687", "collection_times": "Mo-Fr 15:00; Sa 13:00", "name": "USPS COLLECTION BOX - BLUE BOX", "note": "ON 12/24 AND 12/31, THIS BOX MAY BE COLLECTED AS EARLY AS 12 NOON.", "nsi_id": "unitedstatespostalservice-a77078", "operator": "United States Postal Service", "operator:short": "USPS", "operator:type": "public", "operator:wikidata": "Q668687", "ref": "9080300015"}, "type": "Feature"}
{"dataset_attributes": {"@spider": "usps_collection_boxes", "spider:collection_time": "2023-08-25T08:24:09.950024"}, "geometry": {"coordinates": [-118.112865, 33.766267], "type": "Point"}, "id": "IIfI8n5tjAs_k8I8EiLpb1QfLBY=", "properties": {"@spider": "usps_collection_boxes", "addr:city": "LONG BEACH", "addr:country": "US", "addr:full": "6230 E MARINA VIEW DR", "addr:postcode": "90803", "addr:state": "CA", "amenity": "post_box", "brand": "United States Postal Service", "brand:wikidata": "Q668687", "collection_times": "Mo-Sa 13:00", "name": "USPS COLLECTION BOX - BLUE BOX", "note": "ON 12/24 AND 12/31, THIS BOX MAY BE COLLECTED AS EARLY AS 12 NOON.", "nsi_id": "unitedstatespostalservice-a77078", "operator": "United States Postal Service", "operator:short": "USPS", "operator:type": "public", "operator:wikidata": "Q668687", "ref": "9080300018"}, "type": "Feature"}
{"dataset_attributes": {"@spider": "usps_collection_boxes", "spider:collection_time": "2023-08-25T08:24:09.950024"}, "geometry": {"coordinates": [-118.150662, 33.762073], "type": "Point"}, "id": "urbCQYlfpSaAK_aNgVAdongeH64=", "properties": {"@spider": "usps_collection_boxes", "addr:city": "LONG BEACH", "addr:country": "US", "addr:full": "3535 E 1ST ST", "addr:postcode": "90803", "addr:state": "CA", "amenity": "post_box", "brand": "United States Postal Service", "brand:wikidata": "Q668687", "collection_times": "Mo-Sa 13:00", "name": "USPS COLLECTION BOX - BLUE BOX", "note": "ON 12/24 AND 12/31, THIS BOX MAY BE COLLECTED AS EARLY AS 12 NOON.", "nsi_id": "unitedstatespostalservice-a77078", "operator": "United States Postal Service", "operator:short": "USPS", "operator:type": "public", "operator:wikidata": "Q668687", "ref": "9080300019"}, "type": "Feature"}
{"dataset_attributes": {"@spider": "usps_collection_boxes", "spider:collection_time": "2023-08-25T08:24:09.950024"}, "geometry": {"coordinates": [-118.135136, 33.764528], "type": "Point"}, "id": "Gfe3tlIBEF-4W4uikUbHHBGvDf8=", "properties": {"@spider": "usps_collection_boxes", "addr:city": "LONG BEACH", "addr:country": "US", "addr:full": "4939 E BROADWAY", "addr:postcode": "90803", "addr:state": "CA", "amenity": "post_box", "brand": "United States Postal Service", "brand:wikidata": "Q668687", "collection_times": "Mo-Sa 13:00", "name": "USPS COLLECTION BOX - BLUE BOX", "note": "ON 12/24 AND 12/31, THIS BOX MAY BE COLLECTED AS EARLY AS 12 NOON.", "nsi_id": "unitedstatespostalservice-a77078", "operator": "United States Postal Service", "operator:short": "USPS", "operator:type": "public", "operator:wikidata": "Q668687", "ref": "9080300020"}, "type": "Feature"}
{"dataset_attributes": {"@spider": "usps_collection_boxes", "spider:collection_time": "2023-08-25T08:24:09.950024"}, "geometry": {"coordinates": [-118.1068474698, 33.7531909711], "type": "Point"}, "id": "yoywVwT-huU4dKRsKqqRHEjpw14=", "properties": {"@spider": "usps_collection_boxes", "addr:city": "LONG BEACH", "addr:country": "US", "addr:full": "6700 E PACIFIC COAST HWY", "addr:postcode": "90803", "addr:state": "CA", "amenity": "post_box", "brand": "United States Postal Service", "brand:wikidata": "Q668687", "collection_times": "Mo-Fr 15:00; Sa 13:00", "name": "USPS COLLECTION BOX - BLUE BOX", "note": "ON 12/24 AND 12/31, THIS BOX MAY BE COLLECTED AS EARLY AS 12 NOON.", "nsi_id": "unitedstatespostalservice-a77078", "operator": "United States Postal Service", "operator:short": "USPS", "operator:type": "public", "operator:wikidata": "Q668687", "ref": "9080300023"}, "type": "Feature"}
{"dataset_attributes": {"@spider": "usps_collection_boxes", "spider:collection_time": "2023-08-25T08:24:09.950024"}, "geometry": {"coordinates": [-118.123617, 33.754205], "type": "Point"}, "id": "iybUqcqhB2rLpaVMkp8EbnwdXjg=", "properties": {"@spider": "usps_collection_boxes", "addr:city": "LONG BEACH", "addr:country": "US", "addr:full": "60 THE COLONNADE", "addr:postcode": "90803", "addr:state": "CA", "amenity": "post_box", "brand": "United States Postal Service", "brand:wikidata": "Q668687", "collection_times": "Mo-Sa 13:00", "name": "USPS COLLECTION BOX - BLUE BOX", "note": "ON 12/24 AND 12/31, THIS BOX MAY BE COLLECTED AS EARLY AS 12 NOON.", "nsi_id": "unitedstatespostalservice-a77078", "operator": "United States Postal Service", "operator:short": "USPS", "operator:type": "public", "operator:wikidata": "Q668687", "ref": "9080300026"}, "type": "Feature"}
{"dataset_attributes": {"@spider": "usps_collection_boxes", "spider:collection_time": "2023-08-25T08:24:09.950024"}, "geometry": {"coordinates": [-118.137337, 33.764393], "type": "Point"}, "id": "dqSi-ijWNG2q2ax_4rvFbNqSDp4=", "properties": {"@spider": "usps_collection_boxes", "addr:city": "LONG BEACH", "addr:country": "US", "addr:full": "245 PARK AVE", "addr:postcode": "90803", "addr:state": "CA", "amenity": "post_box", "brand": "United States Postal Service", "brand:wikidata": "Q668687", "collection_times": "Mo-Sa 13:00", "name": "USPS COLLECTION BOX - BLUE BOX", "note": "ON 12/24 AND 12/31, THIS BOX MAY BE COLLECTED AS EARLY AS 12 NOON.", "nsi_id": "unitedstatespostalservice-a77078", "operator": "United States Postal Service", "operator:short": "USPS", "operator:type": "public", "operator:wikidata": "Q668687", "ref": "9080300030"}, "type": "Feature"}
{"dataset_attributes": {"@spider": "usps_collection_boxes", "spider:collection_time": "2023-08-25T08:24:09.950024"}, "geometry": {"coordinates": [-118.149302, 33.764501], "type": "Point"}, "id": "0NEi-rllHrHyvSEvlhOIro9uiVo=", "properties": {"@spider": "usps_collection_boxes", "addr:city": "LONG BEACH", "addr:country": "US", "addr:full": "3633 E BROADWAY", "addr:postcode": "90803", "addr:state": "CA", "amenity": "post_box", "brand": "United States Postal Service", "brand:wikidata": "Q668687", "collection_times": "Mo-Sa 13:00", "name": "USPS COLLECTION BOX - BLUE BOX", "note": "ON 12/24 AND 12/31, THIS BOX MAY BE COLLECTED AS EARLY AS 12 NOON.", "nsi_id": "unitedstatespostalservice-a77078", "operator": "United States Postal Service", "operator:short": "USPS", "operator:type": "public", "operator:wikidata": "Q668687", "ref": "9080300035"}, "type": "Feature"}
{"dataset_attributes": {"@spider": "usps_collection_boxes", "spider:collection_time": "2023-08-25T08:24:09.950024"}, "geometry": {"coordinates": [-118.108905, 33.771622], "type": "Point"}, "id": "yVaDrDV-I2UnAHTyN0sHGvIWkv4=", "properties": {"@spider": "usps_collection_boxes", "addr:city": "LONG BEACH", "addr:country": "US", "addr:full": "470 LAURINDA AVE", "addr:postcode": "90803", "addr:state": "CA", "amenity": "post_box", "brand": "United States Postal Service", "brand:wikidata": "Q668687", "collection_times": "Mo-Sa 13:00", "name": "USPS COLLECTION BOX - BLUE BOX", "note": "ON 12/24 AND 12/31, THIS BOX MAY BE COLLECTED AS EARLY AS 12 NOON.", "nsi_id": "unitedstatespostalservice-a77078", "operator": "United States Postal Service", "operator:short": "USPS", "operator:type": "public", "operator:wikidata": "Q668687", "ref": "9080300036"}, "type": "Feature"}
{"dataset_attributes": {"@spider": "usps_collection_boxes", "spider:collection_time": "2023-08-25T08:24:09.950024"}, "geometry": {"coordinates": [-118.155914, 33.762925], "type": "Point"}, "id": "Ki7bcWAs_Z7yyGN7xQlJoku3KIk=", "properties": {"@spider": "usps_collection_boxes", "addr:city": "LONG BEACH", "addr:country": "US", "addr:full": "3070 E 1ST ST", "addr:postcode": "90803", "addr:state": "CA", "amenity": "post_box", "brand": "United States Postal Service", "brand:wikidata": "Q668687", "collection_times": "Mo-Sa 13:00", "name": "USPS COLLECTION BOX - BLUE BOX", "note": "ON 12/24 AND 12/31, THIS BOX MAY BE COLLECTED AS EARLY AS 12 NOON.", "nsi_id": "unitedstatespostalservice-a77078", "operator": "United States Postal Service", "operator:short": "USPS", "operator:type": "public", "operator:wikidata": "Q668687", "ref": "9080300042"}, "type": "Feature"}
{"dataset_attributes": {"@spider": "usps_collection_boxes", "spider:collection_time": "2023-08-25T08:24:09.950024"}, "geometry": {"coordinates": [-118.136316, 33.760839], "type": "Point"}, "id": "KWy2uSAhiEPxG5bjvy0esApDIb4=", "properties": {"@spider": "usps_collection_boxes", "addr:city": "LONG BEACH", "addr:country": "US", "addr:full": "5050 E 2ND ST", "addr:postcode": "90803", "addr:state": "CA", "amenity": "post_box", "brand": "United States Postal Service", "brand:wikidata": "Q668687", "collection_times": "Mo-Fr 17:00; Sa 14:00", "name": "USPS COLLECTION BOX - BLUE BOX", "note": "ON 12/24 AND 12/31, THIS BOX MAY BE COLLECTED AS EARLY AS 12 NOON.", "nsi_id": "unitedstatespostalservice-a77078", "operator": "United States Postal Service", "operator:short": "USPS", "operator:type": "public", "operator:wikidata": "Q668687", "ref": "9080300051"}, "type": "Feature"}
{"dataset_attributes": {"@spider": "usps_collection_boxes", "spider:collection_time": "2023-08-25T08:24:09.950024"}, "geometry": {"coordinates": [-118.134369, 33.760164], "type": "Point"}, "id": "wqwe6ShJuhuMKaRqTMLcujD4zeY=", "properties": {"@spider": "usps_collection_boxes", "addr:city": "LONG BEACH", "addr:country": "US", "addr:full": "5227 E 2ND ST", "addr:postcode": "90803", "addr:state": "CA", "amenity": "post_box", "brand": "United States Postal Service", "brand:wikidata": "Q668687", "collection_times": "Mo-Fr 17:00; Sa 13:00", "name": "USPS COLLECTION BOX - BLUE BOX", "note": "ON 12/24 AND 12/31, THIS BOX MAY BE COLLECTED AS EARLY AS 12 NOON.", "nsi_id": "unitedstatespostalservice-a77078", "operator": "United States Postal Service", "operator:short": "USPS", "operator:type": "public", "operator:wikidata": "Q668687", "ref": "9080300057"}, "type": "Feature"}
{"dataset_attributes": {"@spider": "usps_collection_boxes", "spider:collection_time": "2023-08-25T08:24:09.950024"}, "geometry": {"coordinates": [-118.150419, 33.771666], "type": "Point"}, "id": "lmrlYFNB5MjV7r6SsOuqpznvdq8=", "properties": {"@spider": "usps_collection_boxes", "addr:city": "LONG BEACH", "addr:country": "US", "addr:full": "3540 E 4TH ST", "addr:postcode": "90803", "addr:state": "CA", "amenity": "post_box", "brand": "United States Postal Service", "brand:wikidata": "Q668687", "collection_times": "Mo-Fr 17:00; Sa 16:00", "name": "USPS COLLECTION BOX - BLUE BOX", "note": "ON 12/24 AND 12/31, THIS BOX MAY BE COLLECTED AS EARLY AS 12 NOON.", "nsi_id": "unitedstatespostalservice-a77078", "operator": "United States Postal Service", "operator:short": "USPS", "operator:type": "public", "operator:wikidata": "Q668687", "ref": "9080300061"}, "type": "Feature"}
{"dataset_attributes": {"@spider": "usps_collection_boxes", "spider:collection_time": "2023-08-25T08:24:09.950024"}, "geometry": {"coordinates": [-118.13625, 33.760548], "type": "Point"}, "id": "qTl2ZgVakeVyIVokbMYkUxmWDgA=", "properties": {"@spider": "usps_collection_boxes", "addr:city": "LONG BEACH", "addr:country": "US", "addr:full": "5050 E 2ND ST LOBBY", "addr:postcode": "90803", "addr:state": "CA", "amenity": "post_box", "brand": "United States Postal Service", "brand:wikidata": "Q668687", "collection_times": "Mo-Fr 17:00; Sa 14:00", "name": "USPS COLLECTION BOX - APC", "note": "ON 12/24 AND 12/31, THIS BOX MAY BE COLLECTED AS EARLY AS 12 NOON.", "nsi_id": "unitedstatespostalservice-a77078", "operator": "United States Postal Service", "operator:short": "USPS", "operator:type": "public", "operator:wikidata": "Q668687", "ref": "9080300071"}, "type": "Feature"}
{"dataset_attributes": {"@spider": "usps_collection_boxes", "spider:collection_time": "2023-08-25T08:24:09.950024"}, "geometry": {"coordinates": [-118.13625, 33.760548], "type": "Point"}, "id": "rFoJ4IJOXwL0Xcm3cmleqeHv8jA=", "properties": {"@spider": "usps_collection_boxes", "addr:city": "LONG BEACH", "addr:country": "US", "addr:full": "5050 E 2ND ST LOBBY", "addr:postcode": "90803", "addr:state": "CA", "amenity": "post_box", "brand": "United States Postal Service", "brand:wikidata": "Q668687", "collection_times": "Mo-Fr 17:00; Sa 14:00", "name": "USPS COLLECTION BOX - PO LOBBY", "note": "ON 12/24 AND 12/31, THIS BOX MAY BE COLLECTED AS EARLY AS 12 NOON.", "nsi_id": "unitedstatespostalservice-a77078", "operator": "United States Postal Service", "operator:short": "USPS", "operator:type": "public", "operator:wikidata": "Q668687", "ref": "9080300073"}, "type": "Feature"}
{"dataset_attributes": {"@spider": "usps_collection_boxes", "spider:collection_time": "2023-08-25T08:24:09.950024"}, "geometry": {"coordinates": [-118.13625, 33.760548], "type": "Point"}, "id": "4-WEA7N5EhLI-qExyNuoqP-An4M=", "properties": {"@spider": "usps_collection_boxes", "addr:city": "LONG BEACH", "addr:country": "US", "addr:full": "5050 E 2ND ST LOBBY", "addr:postcode": "90803", "addr:state": "CA", "amenity": "post_box", "brand": "United States Postal Service", "brand:wikidata": "Q668687", "collection_times": "Mo-Fr 17:00; Sa 14:00", "name": "USPS COLLECTION BOX - PO LOBBY", "note": "ON 12/24 AND 12/31, THIS BOX MAY BE COLLECTED AS EARLY AS 12 NOON.", "nsi_id": "unitedstatespostalservice-a77078", "operator": "United States Postal Service", "operator:short": "USPS", "operator:type": "public", "operator:wikidata": "Q668687", "ref": "9080300081"}, "type": "Feature"}
{"dataset_attributes": {"@spider": "usps_collection_boxes", "spider:collection_time": "2023-08-25T08:24:09.950024"}, "geometry": {"coordinates": [-118.1472860268, 33.7661079801], "type": "Point"}, "id": "QAXaFLxO78J2zzkLH1hzQyAT-3s=", "properties": {"@spider": "usps_collection_boxes", "addr:city": "LONG BEACH", "addr:country": "US", "addr:full": "251 MIRA MAR AVE", "addr:postcode": "90803", "addr:state": "CA", "amenity": "post_box", "brand": "United States Postal Service", "brand:wikidata": "Q668687", "collection_times": "Mo-Fr 13:00", "name": "USPS COLLECTION BOX - BLUE BOX", "note": "ON 12/24 AND 12/31, THIS BOX MAY BE COLLECTED AS EARLY AS 12 NOON.", "nsi_id": "unitedstatespostalservice-a77078", "operator": "United States Postal Service", "operator:short": "USPS", "operator:type": "public", "operator:wikidata": "Q668687", "ref": "9080300083"}, "type": "Feature"}
{"dataset_attributes": {"@spider": "usps_collection_boxes", "spider:collection_time": "2023-08-25T08:24:09.950024"}, "geometry": {"coordinates": [-118.140354, 33.787419], "type": "Point"}, "id": "ZeXbZypKCYpBZojn828foOUSgW8=", "properties": {"@spider": "usps_collection_boxes", "addr:city": "LONG BEACH", "addr:country": "US", "addr:full": "4500 E PACIFIC COAST HWY", "addr:postcode": "90804", "addr:state": "CA", "amenity": "post_box", "brand": "United States Postal Service", "brand:wikidata": "Q668687", "collection_times": "Mo-Fr 15:00; Sa 13:00", "name": "USPS COLLECTION BOX - BLUE BOX", "note": "ON 12/24 AND 12/31, THIS BOX MAY BE COLLECTED AS EARLY AS 12 NOON.", "nsi_id": "unitedstatespostalservice-a77078", "operator": "United States Postal Service", "operator:short": "USPS", "operator:type": "public", "operator:wikidata": "Q668687", "ref": "9080400008"}, "type": "Feature"}
{"dataset_attributes": {"@spider": "usps_collection_boxes", "spider:collection_time": "2023-08-25T08:24:09.950024"}, "geometry": {"coordinates": [-118.124295, 33.775257], "type": "Point"}, "id": "FA0ObKr0UDAD6B39tmjUKo9konA=", "properties": {"@spider": "usps_collection_boxes", "addr:city": "LONG BEACH", "addr:country": "US", "addr:full": "5540 E 7TH ST", "addr:postcode": "90804", "addr:state": "CA", "amenity": "post_box", "brand": "United States Postal Service", "brand:wikidata": "Q668687", "collection_times": "Mo-Sa 13:00", "name": "USPS COLLECTION BOX - BLUE BOX", "note": "ON 12/24 AND 12/31, THIS BOX MAY BE COLLECTED AS EARLY AS 12 NOON.", "nsi_id": "unitedstatespostalservice-a77078", "operator": "United States Postal Service", "operator:short": "USPS", "operator:type": "public", "operator:wikidata": "Q668687", "ref": "9080400021"}, "type": "Feature"}
{"dataset_attributes": {"@spider": "usps_collection_boxes", "spider:collection_time": "2023-08-25T08:24:09.950024"}, "geometry": {"coordinates": [-118.127335, 33.77722], "type": "Point"}, "id": "kgWxnOCrTvDvMpWfpi9b5yU_zVo=", "properties": {"@spider": "usps_collection_boxes", "addr:city": "LONG BEACH", "addr:country": "US", "addr:full": "800 TERRAINE AVE", "addr:postcode": "90804", "addr:state": "CA", "amenity": "post_box", "brand": "United States Postal Service", "brand:wikidata": "Q668687", "collection_times": "Mo-Sa 13:00", "name": "USPS COLLECTION BOX - BLUE BOX", "note": "ON 12/24 AND 12/31, THIS BOX MAY BE COLLECTED AS EARLY AS 12 NOON.", "nsi_id": "unitedstatespostalservice-a77078", "operator": "United States Postal Service", "operator:short": "USPS", "operator:type": "public", "operator:wikidata": "Q668687", "ref": "9080400030"}, "type": "Feature"}
{"dataset_attributes": {"@spider": "usps_collection_boxes", "spider:collection_time": "2023-08-25T08:24:09.950024"}, "geometry": {"coordinates": [-118.152104, 33.775449], "type": "Point"}, "id": "3rl7d5oflY1eGgnI0WimLMn9kKI=", "properties": {"@spider": "usps_collection_boxes", "addr:city": "LONG BEACH", "addr:country": "US", "addr:full": "700 REDONDO AVE", "addr:postcode": "90804", "addr:state": "CA", "amenity": "post_box", "brand": "United States Postal Service", "brand:wikidata": "Q668687", "collection_times": "Mo-Sa 13:00", "name": "USPS COLLECTION BOX - BLUE BOX", "note": "ON 12/24 AND 12/31, THIS BOX MAY BE COLLECTED AS EARLY AS 12 NOON.", "nsi_id": "unitedstatespostalservice-a77078", "operator": "United States Postal Service", "operator:short": "USPS", "operator:type": "public", "operator:wikidata": "Q668687", "ref": "9080400035"}, "type": "Feature"}
{"dataset_attributes": {"@spider": "usps_collection_boxes", "spider:collection_time": "2023-08-25T08:24:09.950024"}, "geometry": {"coordinates": [-118.159236, 33.783246], "type": "Point"}, "id": "3ugsq75doGJDIluu93u1FAradvE=", "properties": {"@spider": "usps_collection_boxes", "addr:city": "LONG BEACH", "addr:country": "US", "addr:full": "2727 E ANAHEIM ST LOBBY", "addr:postcode": "90804", "addr:state": "CA", "amenity": "post_box", "brand": "United States Postal Service", "brand:wikidata": "Q668687", "collection_times": "Mo-Fr 17:30; Sa 16:00", "name": "USPS COLLECTION BOX - PO LOBBY", "note": "ON 12/24 AND 12/31, THIS BOX MAY BE COLLECTED AS EARLY AS 12 NOON.", "nsi_id": "unitedstatespostalservice-a77078", "operator": "United States Postal Service", "operator:short": "USPS", "operator:type": "public", "operator:wikidata": "Q668687", "ref": "9080400047"}, "type": "Feature"}
{"dataset_attributes": {"@spider": "usps_collection_boxes", "spider:collection_time": "2023-08-25T08:24:09.950024"}, "geometry": {"coordinates": [-118.159236, 33.783246], "type": "Point"}, "id": "CWgzfhlrK-kgjl8CMKnzGZ9CmDk=", "properties": {"@spider": "usps_collection_boxes", "addr:city": "LONG BEACH", "addr:country": "US", "addr:full": "2727 E ANAHEIM ST LOBBY", "addr:postcode": "90804", "addr:state": "CA", "amenity": "post_box", "brand": "United States Postal Service", "brand:wikidata": "Q668687", "collection_times": "Mo-Fr 17:30; Sa 16:00", "name": "USPS COLLECTION BOX - PO LOBBY", "note": "ON 12/24 AND 12/31, THIS BOX MAY BE COLLECTED AS EARLY AS 12 NOON.", "nsi_id": "unitedstatespostalservice-a77078", "operator": "United States Postal Service", "operator:short": "USPS", "operator:type": "public", "operator:wikidata": "Q668687", "ref": "9080400051"}, "type": "Feature"}
{"dataset_attributes": {"@spider": "usps_collection_boxes", "spider:collection_time": "2023-08-25T08:24:09.950024"}, "geometry": {"coordinates": [-118.185379, 33.866994], "type": "Point"}, "id": "Qxn7i3M8kjOmCBbDzdSNXofhQi4=", "properties": {"@spider": "usps_collection_boxes", "addr:city": "LONG BEACH", "addr:country": "US", "addr:full": "6191 ATLANTIC AVE", "addr:postcode": "90805", "addr:state": "CA", "amenity": "post_box", "brand": "United States Postal Service", "brand:wikidata": "Q668687", "collection_times": "Mo-Sa 13:00", "name": "USPS COLLECTION BOX - BLUE BOX", "note": "ON 12/24 AND 12/31, THIS BOX MAY BE COLLECTED AS EARLY AS 12 NOON.", "nsi_id": "unitedstatespostalservice-a77078", "operator": "United States Postal Service", "operator:short": "USPS", "operator:type": "public", "operator:wikidata": "Q668687", "ref": "9080500002"}, "type": "Feature"}
{"dataset_attributes": {"@spider": "usps_collection_boxes", "spider:collection_time": "2023-08-25T08:24:09.950024"}, "geometry": {"coordinates": [-118.160089, 33.857881], "type": "Point"}, "id": "xNt2cqz_LuUxM-mdPBIT45BGoHs=", "properties": {"@spider": "usps_collection_boxes", "addr:city": "LONG BEACH", "addr:country": "US", "addr:full": "5601 N PARAMOUNT BLVD", "addr:postcode": "90805", "addr:state": "CA", "amenity": "post_box", "brand": "United States Postal Service", "brand:wikidata": "Q668687", "collection_times": "Mo-Sa 13:00", "name": "USPS COLLECTION BOX - BLUE BOX", "note": "ON 12/24 AND 12/31, THIS BOX MAY BE COLLECTED AS EARLY AS 12 NOON.", "nsi_id": "unitedstatespostalservice-a77078", "operator": "United States Postal Service", "operator:short": "USPS", "operator:type": "public", "operator:wikidata": "Q668687", "ref": "9080500008"}, "type": "Feature"}
{"dataset_attributes": {"@spider": "usps_collection_boxes", "spider:collection_time": "2023-08-25T08:24:09.950024"}, "geometry": {"coordinates": [-118.157887, 33.874507], "type": "Point"}, "id": "FSWdgdESqEXL7Yep0GHuiDJsu4g=", "properties": {"@spider": "usps_collection_boxes", "addr:city": "LONG BEACH", "addr:country": "US", "addr:full": "2990 E ARTESIA BLVD", "addr:postcode": "90805", "addr:state": "CA", "amenity": "post_box", "brand": "United States Postal Service", "brand:wikidata": "Q668687", "collection_times": "Mo-Sa 13:00", "name": "USPS COLLECTION BOX - BLUE BOX", "note": "ON 12/24 AND 12/31, THIS BOX MAY BE COLLECTED AS EARLY AS 12 NOON.", "nsi_id": "unitedstatespostalservice-a77078", "operator": "United States Postal Service", "operator:short": "USPS", "operator:type": "public", "operator:wikidata": "Q668687", "ref": "9080500013"}, "type": "Feature"}
{"dataset_attributes": {"@spider": "usps_collection_boxes", "spider:collection_time": "2023-08-25T08:24:09.950024"}, "geometry": {"coordinates": [-118.179741, 33.84995], "type": "Point"}, "id": "tBEgnQ3ybbaU_MDqtMcSMEHs3RA=", "properties": {"@spider": "usps_collection_boxes", "addr:city": "LONG BEACH", "addr:country": "US", "addr:full": "1000 E VIA WANDA", "addr:postcode": "90805", "addr:state": "CA", "amenity": "post_box", "brand": "United States Postal Service", "brand:wikidata": "Q668687", "collection_times": "Mo-Sa 13:00", "name": "USPS COLLECTION BOX - BLUE BOX", "note": "ON 12/24 AND 12/31, THIS BOX MAY BE COLLECTED AS EARLY AS 12 NOON.", "nsi_id": "unitedstatespostalservice-a77078", "operator": "United States Postal Service", "operator:short": "USPS", "operator:type": "public", "operator:wikidata": "Q668687", "ref": "9080500016"}, "type": "Feature"}
{"dataset_attributes": {"@spider": "usps_collection_boxes", "spider:collection_time": "2023-08-25T08:24:09.950024"}, "geometry": {"coordinates": [-118.148161, 33.861004], "type": "Point"}, "id": "5sA8ETKR_3MKuGaUsMGaA246FfI=", "properties": {"@spider": "usps_collection_boxes", "addr:city": "LONG BEACH", "addr:country": "US", "addr:full": "3719 E SOUTH ST", "addr:postcode": "90805", "addr:state": "CA", "amenity": "post_box", "brand": "United States Postal Service", "brand:wikidata": "Q668687", "collection_times": "Mo-Sa 13:00", "name": "USPS COLLECTION BOX - BLUE BOX", "note": "ON 12/24 AND 12/31, THIS BOX MAY BE COLLECTED AS EARLY AS 12 NOON.", "nsi_id": "unitedstatespostalservice-a77078", "operator": "United States Postal Service", "operator:short": "USPS", "operator:type": "public", "operator:wikidata": "Q668687", "ref": "9080500017"}, "type": "Feature"}
{"dataset_attributes": {"@spider": "usps_collection_boxes", "spider:collection_time": "2023-08-25T08:24:09.950024"}, "geometry": {"coordinates": [-118.155463, 33.87486], "type": "Point"}, "id": "YWI5c0GABm92IU72dq6heQlWwWs=", "properties": {"@spider": "usps_collection_boxes", "addr:city": "LONG BEACH", "addr:country": "US", "addr:full": "3251 E ARTESIA BLVD", "addr:postcode": "90805", "addr:state": "CA", "amenity": "post_box", "brand": "United States Postal Service", "brand:wikidata": "Q668687", "collection_times": "Mo-Sa 13:00", "name": "USPS COLLECTION BOX - BLUE BOX", "note": "ON 12/24 AND 12/31, THIS BOX MAY BE COLLECTED AS EARLY AS 12 NOON.", "nsi_id": "unitedstatespostalservice-a77078", "operator": "United States Postal Service", "operator:short": "USPS", "operator:type": "public", "operator:wikidata": "Q668687", "ref": "9080500026"}, "type": "Feature"}
{"dataset_attributes": {"@spider": "usps_collection_boxes", "spider:collection_time": "2023-08-25T08:24:09.950024"}, "geometry": {"coordinates": [-118.150954, 33.867864], "type": "Point"}, "id": "58ANNTrQ4jPfe4ltnCY8_MI1-0g=", "properties": {"@spider": "usps_collection_boxes", "addr:city": "LONG BEACH", "addr:country": "US", "addr:full": "6170 DOWNEY AVE", "addr:postcode": "90805", "addr:state": "CA", "amenity": "post_box", "brand": "United States Postal Service", "brand:wikidata": "Q668687", "collection_times": "Mo-Sa 13:00", "name": "USPS COLLECTION BOX - BLUE BOX", "note": "ON 12/24 AND 12/31, THIS BOX MAY BE COLLECTED AS EARLY AS 12 NOON.", "nsi_id": "unitedstatespostalservice-a77078", "operator": "United States Postal Service", "operator:short": "USPS", "operator:type": "public", "operator:wikidata": "Q668687", "ref": "9080500030"}, "type": "Feature"}
{"dataset_attributes": {"@spider": "usps_collection_boxes", "spider:collection_time": "2023-08-25T08:24:09.950024"}, "geometry": {"coordinates": [-118.152232, 33.874857], "type": "Point"}, "id": "g9lfuooQk6LAp6UDjmOvNExoNeQ=", "properties": {"@spider": "usps_collection_boxes", "addr:city": "LONG BEACH", "addr:country": "US", "addr:full": "3463 E ARTESIA BLVD", "addr:postcode": "90805", "addr:state": "CA", "amenity": "post_box", "brand": "United States Postal Service", "brand:wikidata": "Q668687", "collection_times": "Mo-Sa 13:00", "name": "USPS COLLECTION BOX - BLUE BOX", "note": "ON 12/24 AND 12/31, THIS BOX MAY BE COLLECTED AS EARLY AS 12 NOON.", "nsi_id": "unitedstatespostalservice-a77078", "operator": "United States Postal Service", "operator:short": "USPS", "operator:type": "public", "operator:wikidata": "Q668687", "ref": "9080500031"}, "type": "Feature"}
{"dataset_attributes": {"@spider": "usps_collection_boxes", "spider:collection_time": "2023-08-25T08:24:09.950024"}, "geometry": {"coordinates": [-118.191849, 33.861793], "type": "Point"}, "id": "jboMONsosdo10dvgRWpCbBTTaLQ=", "properties": {"@spider": "usps_collection_boxes", "addr:city": "LONG BEACH", "addr:country": "US", "addr:full": "186 E 59TH ST", "addr:postcode": "90805", "addr:state": "CA", "amenity": "post_box", "brand": "United States Postal Service", "brand:wikidata": "Q668687", "collection_times": "Mo-Sa 13:00", "name": "USPS COLLECTION BOX - BLUE BOX", "note": "ON 12/24 AND 12/31, THIS BOX MAY BE COLLECTED AS EARLY AS 12 NOON.", "nsi_id": "unitedstatespostalservice-a77078", "operator": "United States Postal Service", "operator:short": "USPS", "operator:type": "public", "operator:wikidata": "Q668687", "ref": "9080500040"}, "type": "Feature"}
{"dataset_attributes": {"@spider": "usps_collection_boxes", "spider:collection_time": "2023-08-25T08:24:09.950024"}, "geometry": {"coordinates": [-118.196814, 33.854502], "type": "Point"}, "id": "sqXnPULi8T6hpRlL7u3GKWQekWY=", "properties": {"@spider": "usps_collection_boxes", "addr:city": "LONG BEACH", "addr:country": "US", "addr:full": "5401 LONG BEACH BLVD", "addr:postcode": "90805", "addr:state": "CA", "amenity": "post_box", "brand": "United States Postal Service", "brand:wikidata": "Q668687", "collection_times": "Mo-Sa 13:00", "name": "USPS COLLECTION BOX - BLUE BOX", "note": "ON 12/24 AND 12/31, THIS BOX MAY BE COLLECTED AS EARLY AS 12 NOON.", "nsi_id": "unitedstatespostalservice-a77078", "operator": "United States Postal Service", "operator:short": "USPS", "operator:type": "public", "operator:wikidata": "Q668687", "ref": "9080500050"}, "type": "Feature"}
{"dataset_attributes": {"@spider": "usps_collection_boxes", "spider:collection_time": "2023-08-25T08:24:09.950024"}, "geometry": {"coordinates": [-118.200599, 33.867535], "type": "Point"}, "id": "9ff-Y6ZP3DDvSwjm49JmNSU6biM=", "properties": {"@spider": "usps_collection_boxes", "addr:city": "LONG BEACH", "addr:country": "US", "addr:full": "6230 LONG BEACH BLVD", "addr:postcode": "90805", "addr:state": "CA", "amenity": "post_box", "brand": "United States Postal Service", "brand:wikidata": "Q668687", "collection_times": "Mo-Sa 13:00", "name": "USPS COLLECTION BOX - BLUE BOX", "note": "ON 12/24 AND 12/31, THIS BOX MAY BE COLLECTED AS EARLY AS 12 NOON.", "nsi_id": "unitedstatespostalservice-a77078", "operator": "United States Postal Service", "operator:short": "USPS", "operator:type": "public", "operator:wikidata": "Q668687", "ref": "9080500053"}, "type": "Feature"}
{"dataset_attributes": {"@spider": "usps_collection_boxes", "spider:collection_time": "2023-08-25T08:24:09.950024"}, "geometry": {"coordinates": [-118.168753, 33.866402], "type": "Point"}, "id": "WJ9Ju6dNre0m0X22pWekC2dAyl0=", "properties": {"@spider": "usps_collection_boxes", "addr:city": "LONG BEACH", "addr:country": "US", "addr:full": "6145 CHERRY AVE", "addr:postcode": "90805", "addr:state": "CA", "amenity": "post_box", "brand": "United States Postal Service", "brand:wikidata": "Q668687", "collection_times": "Mo-Sa 13:00", "name": "USPS COLLECTION BOX - BLUE BOX", "note": "ON 12/24 AND 12/31, THIS BOX MAY BE COLLECTED AS EARLY AS 12 NOON.", "nsi_id": "unitedstatespostalservice-a77078", "operator": "United States Postal Service", "operator:short": "USPS", "operator:type": "public", "operator:wikidata": "Q668687", "ref": "9080500062"}, "type": "Feature"}
{"dataset_attributes": {"@spider": "usps_collection_boxes", "spider:collection_time": "2023-08-25T08:24:09.950024"}, "geometry": {"coordinates": [-118.168816, 33.860283], "type": "Point"}, "id": "EIPWYeBnd_459sxTs2nuqSXRAvg=", "properties": {"@spider": "usps_collection_boxes", "addr:city": "LONG BEACH", "addr:country": "US", "addr:full": "5801 CHERRY AVE", "addr:postcode": "90805", "addr:state": "CA", "amenity": "post_box", "brand": "United States Postal Service", "brand:wikidata": "Q668687", "collection_times": "Mo-Sa 13:00", "name": "USPS COLLECTION BOX - BLUE BOX", "note": "ON 12/24 AND 12/31, THIS BOX MAY BE COLLECTED AS EARLY AS 12 NOON.", "nsi_id": "unitedstatespostalservice-a77078", "operator": "United States Postal Service", "operator:short": "USPS", "operator:type": "public", "operator:wikidata": "Q668687", "ref": "9080500063"}, "type": "Feature"}
{"dataset_attributes": {"@spider": "usps_collection_boxes", "spider:collection_time": "2023-08-25T08:24:09.950024"}, "geometry": {"coordinates": [-118.185068, 33.853934], "type": "Point"}, "id": "n6xCERRdno-b0gpLqpoCX-Yxvrk=", "properties": {"@spider": "usps_collection_boxes", "addr:city": "LONG BEACH", "addr:country": "US", "addr:full": "5395 ATLANTIC AVE", "addr:postcode": "90805", "addr:state": "CA", "amenity": "post_box", "brand": "United States Postal Service", "brand:wikidata": "Q668687", "collection_times": "Mo-Sa 13:00", "name": "USPS COLLECTION BOX - BLUE BOX", "note": "ON 12/24 AND 12/31, THIS BOX MAY BE COLLECTED AS EARLY AS 12 NOON.", "nsi_id": "unitedstatespostalservice-a77078", "operator": "United States Postal Service", "operator:short": "USPS", "operator:type": "public", "operator:wikidata": "Q668687", "ref": "9080500068"}, "type": "Feature"}
{"dataset_attributes": {"@spider": "usps_collection_boxes", "spider:collection_time": "2023-08-25T08:24:09.950024"}, "geometry": {"coordinates": [-118.184406, 33.85046], "type": "Point"}, "id": "MBwtgYGSHH-DUYRr1xV63RX0ESM=", "properties": {"@spider": "usps_collection_boxes", "addr:city": "LONG BEACH", "addr:country": "US", "addr:full": "5180 N VIA VERANADA", "addr:postcode": "90805", "addr:state": "CA", "amenity": "post_box", "brand": "United States Postal Service", "brand:wikidata": "Q668687", "collection_times": "Mo-Sa 13:00", "name": "USPS COLLECTION BOX - BLUE BOX", "note": "ON 12/24 AND 12/31, THIS BOX MAY BE COLLECTED AS EARLY AS 12 NOON.", "nsi_id": "unitedstatespostalservice-a77078", "operator": "United States Postal Service", "operator:short": "USPS", "operator:type": "public", "operator:wikidata": "Q668687", "ref": "9080500069"}, "type": "Feature"}
{"dataset_attributes": {"@spider": "usps_collection_boxes", "spider:collection_time": "2023-08-25T08:24:09.950024"}, "geometry": {"coordinates": [-118.155696, 33.871035], "type": "Point"}, "id": "KoVTB7karooKC9DckFMcnmLX8dA=", "properties": {"@spider": "usps_collection_boxes", "addr:city": "LONG BEACH", "addr:country": "US", "addr:full": "3137 E 64TH ST", "addr:postcode": "90805", "addr:state": "CA", "amenity": "post_box", "brand": "United States Postal Service", "brand:wikidata": "Q668687", "collection_times": "Mo-Sa 13:00", "name": "USPS COLLECTION BOX - BLUE BOX", "note": "ON 12/24 AND 12/31, THIS BOX MAY BE COLLECTED AS EARLY AS 12 NOON.", "nsi_id": "unitedstatespostalservice-a77078", "operator": "United States Postal Service", "operator:short": "USPS", "operator:type": "public", "operator:wikidata": "Q668687", "ref": "9080500079"}, "type": "Feature"}
{"dataset_attributes": {"@spider": "usps_collection_boxes", "spider:collection_time": "2023-08-25T08:24:09.950024"}, "geometry": {"coordinates": [-118.188899, 33.871217], "type": "Point"}, "id": "tH2spymfwuQ8KkbZPxnvEEgcv9Q=", "properties": {"@spider": "usps_collection_boxes", "addr:city": "LONG BEACH", "addr:country": "US", "addr:full": "6475 ATLANTIC AVE SPC 407", "addr:postcode": "90805", "addr:state": "CA", "amenity": "post_box", "brand": "United States Postal Service", "brand:wikidata": "Q668687", "collection_times": "Mo-Sa 13:00", "name": "USPS COLLECTION BOX - BLUE BOX", "note": "ON 12/24 AND 12/31, THIS BOX MAY BE COLLECTED AS EARLY AS 12 NOON.", "nsi_id": "unitedstatespostalservice-a77078", "operator": "United States Postal Service", "operator:short": "USPS", "operator:type": "public", "operator:wikidata": "Q668687", "ref": "9080500080"}, "type": "Feature"}
{"dataset_attributes": {"@spider": "usps_collection_boxes", "spider:collection_time": "2023-08-25T08:24:09.950024"}, "geometry": {"coordinates": [-118.202675, 33.865184], "type": "Point"}, "id": "-Elcg7MOYAqOrUyv3tcQfBSGV-w=", "properties": {"@spider": "usps_collection_boxes", "addr:city": "LONG BEACH", "addr:country": "US", "addr:full": "151 W VICTORIA ST", "addr:postcode": "90805", "addr:state": "CA", "amenity": "post_box", "brand": "United States Postal Service", "brand:wikidata": "Q668687", "collection_times": "Mo-Sa 13:00", "name": "USPS COLLECTION BOX - BLUE BOX", "note": "ON 12/24 AND 12/31, THIS BOX MAY BE COLLECTED AS EARLY AS 12 NOON.", "nsi_id": "unitedstatespostalservice-a77078", "operator": "United States Postal Service", "operator:short": "USPS", "operator:type": "public", "operator:wikidata": "Q668687", "ref": "9080500082"}, "type": "Feature"}
{"dataset_attributes": {"@spider": "usps_collection_boxes", "spider:collection_time": "2023-08-25T08:24:09.950024"}, "geometry": {"coordinates": [-118.198792173, 33.854289285], "type": "Point"}, "id": "M-5D2kohDxAGJoQNmw2HdNi1dhU=", "properties": {"@spider": "usps_collection_boxes", "addr:city": "LONG BEACH", "addr:country": "US", "addr:full": "101 E MARKET ST LOBBY", "addr:postcode": "90805", "addr:state": "CA", "amenity": "post_box", "brand": "United States Postal Service", "brand:wikidata": "Q668687", "collection_times": "Mo-Fr 17:00; Sa 15:00", "name": "USPS COLLECTION BOX - PO LOBBY", "note": "ON 12/24 AND 12/31, THIS BOX MAY BE COLLECTED AS EARLY AS 12 NOON.", "nsi_id": "unitedstatespostalservice-a77078", "operator": "United States Postal Service", "operator:short": "USPS", "operator:type": "public", "operator:wikidata": "Q668687", "ref": "9080500084"}, "type": "Feature"}
{"dataset_attributes": {"@spider": "usps_collection_boxes", "spider:collection_time": "2023-08-25T08:24:09.950024"}, "geometry": {"coordinates": [-118.1987921735, 33.8542892848], "type": "Point"}, "id": "0sOyLpUxZNv6x37F-q2PXRz-H_o=", "properties": {"@spider": "usps_collection_boxes", "addr:city": "LONG BEACH", "addr:country": "US", "addr:full": "101 E MARKET ST LOBBY", "addr:postcode": "90805", "addr:state": "CA", "amenity": "post_box", "brand": "United States Postal Service", "brand:wikidata": "Q668687", "collection_times": "Mo-Fr 17:00; Sa 15:00", "name": "USPS COLLECTION BOX - PO LOBBY", "note": "ON 12/24 AND 12/31, THIS BOX MAY BE COLLECTED AS EARLY AS 12 NOON.", "nsi_id": "unitedstatespostalservice-a77078", "operator": "United States Postal Service", "operator:short": "USPS", "operator:type": "public", "operator:wikidata": "Q668687", "ref": "9080500095"}, "type": "Feature"}
{"dataset_attributes": {"@spider": "usps_collection_boxes", "spider:collection_time": "2023-08-25T08:24:09.950024"}, "geometry": {"coordinates": [-118.188246, 33.805753], "type": "Point"}, "id": "5tBBvrHA7IobEU-TjEyEPdf-MG0=", "properties": {"@spider": "usps_collection_boxes", "addr:city": "LONG BEACH", "addr:country": "US", "addr:full": "2650 ELM AVE", "addr:postcode": "90806", "addr:state": "CA", "amenity": "post_box", "brand": "United States Postal Service", "brand:wikidata": "Q668687", "collection_times": "Mo-Fr 16:30; Sa 13:00", "name": "USPS COLLECTION BOX - BLUE BOX", "note": "ON 12/24 AND 12/31, THIS BOX MAY BE COLLECTED AS EARLY AS 12 NOON.", "nsi_id": "unitedstatespostalservice-a77078", "operator": "United States Postal Service", "operator:short": "USPS", "operator:type": "public", "operator:wikidata": "Q668687", "ref": "9080600003"}, "type": "Feature"}
{"dataset_attributes": {"@spider": "usps_collection_boxes", "spider:collection_time": "2023-08-25T08:24:09.950024"}, "geometry": {"coordinates": [-118.202339, 33.81148], "type": "Point"}, "id": "OgKDNbwCd0vGv1PE7Ru6PyV_BG0=", "properties": {"@spider": "usps_collection_boxes", "addr:city": "LONG BEACH", "addr:country": "US", "addr:full": "2989 GOLDEN AVE", "addr:postcode": "90806", "addr:state": "CA", "amenity": "post_box", "brand": "United States Postal Service", "brand:wikidata": "Q668687", "collection_times": "Mo-Sa 13:00", "name": "USPS COLLECTION BOX - BLUE BOX", "note": "ON 12/24 AND 12/31, THIS BOX MAY BE COLLECTED AS EARLY AS 12 NOON.", "nsi_id": "unitedstatespostalservice-a77078", "operator": "United States Postal Service", "operator:short": "USPS", "operator:type": "public", "operator:wikidata": "Q668687", "ref": "9080600030"}, "type": "Feature"}
{"dataset_attributes": {"@spider": "usps_collection_boxes", "spider:collection_time": "2023-08-25T08:24:09.950024"}, "geometry": {"coordinates": [-118.184322, 33.808301], "type": "Point"}, "id": "Ss4aCGEo5Xnw7Wx_59xrdRxkrtQ=", "properties": {"@spider": "usps_collection_boxes", "addr:city": "LONG BEACH", "addr:country": "US", "addr:full": "701 E 28TH ST", "addr:postcode": "90806", "addr:state": "CA", "amenity": "post_box", "brand": "United States Postal Service", "brand:wikidata": "Q668687", "collection_times": "Mo-Sa 13:00", "name": "USPS COLLECTION BOX - BLUE BOX", "note": "ON 12/24 AND 12/31, THIS BOX MAY BE COLLECTED AS EARLY AS 12 NOON.", "nsi_id": "unitedstatespostalservice-a77078", "operator": "United States Postal Service", "operator:short": "USPS", "operator:type": "public", "operator:wikidata": "Q668687", "ref": "9080600046"}, "type": "Feature"}
{"dataset_attributes": {"@spider": "usps_collection_boxes", "spider:collection_time": "2023-08-25T08:24:09.950024"}, "geometry": {"coordinates": [-118.198994, 33.804512], "type": "Point"}, "id": "Ba0cc1LYkoIYu8Hg_uzFhVxg7NA=", "properties": {"@spider": "usps_collection_boxes", "addr:city": "LONG BEACH", "addr:country": "US", "addr:full": "541 W WILLOW ST", "addr:postcode": "90806", "addr:state": "CA", "amenity": "post_box", "brand": "United States Postal Service", "brand:wikidata": "Q668687", "collection_times": "Mo-Fr 14:00; Sa 13:00", "name": "USPS COLLECTION BOX - BLUE BOX", "note": "ON 12/24 AND 12/31, THIS BOX MAY BE COLLECTED AS EARLY AS 12 NOON.", "nsi_id": "unitedstatespostalservice-a77078", "operator": "United States Postal Service", "operator:short": "USPS", "operator:type": "public", "operator:wikidata": "Q668687", "ref": "9080600052"}, "type": "Feature"}
{"dataset_attributes": {"@spider": "usps_collection_boxes", "spider:collection_time": "2023-08-25T08:24:09.950024"}, "geometry": {"coordinates": [-118.193879, 33.812082], "type": "Point"}, "id": "WXcWBENJwDVWlwP98Km3Nnq4D0U=", "properties": {"@spider": "usps_collection_boxes", "addr:city": "LONG BEACH", "addr:country": "US", "addr:full": "3001 PACIFIC AVE", "addr:postcode": "90806", "addr:state": "CA", "amenity": "post_box", "brand": "United States Postal Service", "brand:wikidata": "Q668687", "collection_times": "Mo-Sa 13:00", "name": "USPS COLLECTION BOX - BLUE BOX", "note": "ON 12/24 AND 12/31, THIS BOX MAY BE COLLECTED AS EARLY AS 12 NOON.", "nsi_id": "unitedstatespostalservice-a77078", "operator": "United States Postal Service", "operator:short": "USPS", "operator:type": "public", "operator:wikidata": "Q668687", "ref": "9080600077"}, "type": "Feature"}
{"dataset_attributes": {"@spider": "usps_collection_boxes", "spider:collection_time": "2023-08-25T08:24:09.950024"}, "geometry": {"coordinates": [-118.188234, 33.80748], "type": "Point"}, "id": "r7KcDkHyQQ8jeYcRZKYJxk2_60w=", "properties": {"@spider": "usps_collection_boxes", "addr:city": "LONG BEACH", "addr:country": "US", "addr:full": "2801 ATLANTIC AVE", "addr:postcode": "90806", "addr:state": "CA", "amenity": "post_box", "brand": "United States Postal Service", "brand:wikidata": "Q668687", "collection_times": "Mo-Fr 16:30; Sa 13:00", "name": "USPS COLLECTION BOX - BLUE BOX", "note": "ON 12/24 AND 12/31, THIS BOX MAY BE COLLECTED AS EARLY AS 12 NOON.", "nsi_id": "unitedstatespostalservice-a77078", "operator": "United States Postal Service", "operator:short": "USPS", "operator:type": "public", "operator:wikidata": "Q668687", "ref": "9080600086"}, "type": "Feature"}
{"dataset_attributes": {"@spider": "usps_collection_boxes", "spider:collection_time": "2023-08-25T08:24:09.950024"}, "geometry": {"coordinates": [-118.1936484031, 33.792193844], "type": "Point"}, "id": "4QliDtl0h3ShlSFyNwZzJg8O9uc=", "properties": {"@spider": "usps_collection_boxes", "addr:city": "LONG BEACH", "addr:country": "US", "addr:full": "1920 PACIFIC AVE LOBBY", "addr:postcode": "90806", "addr:state": "CA", "amenity": "post_box", "brand": "United States Postal Service", "brand:wikidata": "Q668687", "collection_times": "Mo-Sa 17:00", "name": "USPS COLLECTION BOX - PO LOBBY", "note": "ON 12/24 AND 12/31, THIS BOX MAY BE COLLECTED AS EARLY AS 12 NOON.", "nsi_id": "unitedstatespostalservice-a77078", "operator": "United States Postal Service", "operator:short": "USPS", "operator:type": "public", "operator:wikidata": "Q668687", "ref": "9080600092"}, "type": "Feature"}
{"dataset_attributes": {"@spider": "usps_collection_boxes", "spider:collection_time": "2023-08-25T08:24:09.950024"}, "geometry": {"coordinates": [-118.1936484031, 33.792193844], "type": "Point"}, "id": "LlglbJuN0rvCSlFVNIET8ZjwYXI=", "properties": {"@spider": "usps_collection_boxes", "addr:city": "LONG BEACH", "addr:country": "US", "addr:full": "1920 PACIFIC AVE LOBBY", "addr:postcode": "90806", "addr:state": "CA", "amenity": "post_box", "brand": "United States Postal Service", "brand:wikidata": "Q668687", "collection_times": "Mo-Sa 17:00", "name": "USPS COLLECTION BOX - PO LOBBY", "note": "ON 12/24 AND 12/31, THIS BOX MAY BE COLLECTED AS EARLY AS 12 NOON.", "nsi_id": "unitedstatespostalservice-a77078", "operator": "United States Postal Service", "operator:short": "USPS", "operator:type": "public", "operator:wikidata": "Q668687", "ref": "9080600097"}, "type": "Feature"}
{"dataset_attributes": {"@spider": "usps_collection_boxes", "spider:collection_time": "2023-08-25T08:24:09.950024"}, "geometry": {"coordinates": [-118.1936484031, 33.792193844], "type": "Point"}, "id": "ibotLviEZOMg_oYwjn9xdoc1Mko=", "properties": {"@spider": "usps_collection_boxes", "addr:city": "LONG BEACH", "addr:country": "US", "addr:full": "1920 PACIFIC AVE LOBBY", "addr:postcode": "90806", "addr:state": "CA", "amenity": "post_box", "brand": "United States Postal Service", "brand:wikidata": "Q668687", "collection_times": "Mo-Sa 17:00", "name": "USPS COLLECTION BOX - PO LOBBY", "note": "ON 12/24 AND 12/31, THIS BOX MAY BE COLLECTED AS EARLY AS 12 NOON.", "nsi_id": "unitedstatespostalservice-a77078", "operator": "United States Postal Service", "operator:short": "USPS", "operator:type": "public", "operator:wikidata": "Q668687", "ref": "9080600098"}, "type": "Feature"}
{"dataset_attributes": {"@spider": "usps_collection_boxes", "spider:collection_time": "2023-08-25T08:24:09.950024"}, "geometry": {"coordinates": [-118.176223, 33.819266], "type": "Point"}, "id": "VVPB3FUO6IC5kXRSM8XQTUn1pOc=", "properties": {"@spider": "usps_collection_boxes", "addr:city": "LONG BEACH", "addr:country": "US", "addr:full": "3414 ORANGE AVE", "addr:postcode": "90807", "addr:state": "CA", "amenity": "post_box", "brand": "United States Postal Service", "brand:wikidata": "Q668687", "collection_times": "Mo-Fr 16:00; Sa 13:00", "name": "USPS COLLECTION BOX - BLUE BOX", "note": "ON 12/24 AND 12/31, THIS BOX MAY BE COLLECTED AS EARLY AS 12 NOON.", "nsi_id": "unitedstatespostalservice-a77078", "operator": "United States Postal Service", "operator:short": "USPS", "operator:type": "public", "operator:wikidata": "Q668687", "ref": "9080700003"}, "type": "Feature"}
{"dataset_attributes": {"@spider": "usps_collection_boxes", "spider:collection_time": "2023-08-25T08:24:09.950024"}, "geometry": {"coordinates": [-118.175343, 33.822236], "type": "Point"}, "id": "ZA4PN2QFRO-pW5qCu9CJLkt8RFQ=", "properties": {"@spider": "usps_collection_boxes", "addr:city": "LONG BEACH", "addr:country": "US", "addr:full": "3601 BRAYTON AVE", "addr:postcode": "90807", "addr:state": "CA", "amenity": "post_box", "brand": "United States Postal Service", "brand:wikidata": "Q668687", "collection_times": "Mo-Sa 13:00", "name": "USPS COLLECTION BOX - BLUE BOX", "note": "ON 12/24 AND 12/31, THIS BOX MAY BE COLLECTED AS EARLY AS 12 NOON.", "nsi_id": "unitedstatespostalservice-a77078", "operator": "United States Postal Service", "operator:short": "USPS", "operator:type": "public", "operator:wikidata": "Q668687", "ref": "9080700005"}, "type": "Feature"}
{"dataset_attributes": {"@spider": "usps_collection_boxes", "spider:collection_time": "2023-08-25T08:24:09.950024"}, "geometry": {"coordinates": [-118.172085, 33.833143], "type": "Point"}, "id": "KnxYNxT4qOi4ACFfecJe9DeYD88=", "properties": {"@spider": "usps_collection_boxes", "addr:city": "LONG BEACH", "addr:country": "US", "addr:full": "4123 WALNUT AVE", "addr:postcode": "90807", "addr:state": "CA", "amenity": "post_box", "brand": "United States Postal Service", "brand:wikidata": "Q668687", "collection_times": "Mo-Fr 14:00; Sa 13:00", "name": "USPS COLLECTION BOX - BLUE BOX", "note": "ON 12/24 AND 12/31, THIS BOX MAY BE COLLECTED AS EARLY AS 12 NOON.", "nsi_id": "unitedstatespostalservice-a77078", "operator": "United States Postal Service", "operator:short": "USPS", "operator:type": "public", "operator:wikidata": "Q668687", "ref": "9080700012"}, "type": "Feature"}
{"dataset_attributes": {"@spider": "usps_collection_boxes", "spider:collection_time": "2023-08-25T08:24:09.950024"}, "geometry": {"coordinates": [-118.185176, 33.826902], "type": "Point"}, "id": "VYJZYBe5l2PStF1eNGxeO4JWhOc=", "properties": {"@spider": "usps_collection_boxes", "addr:city": "LONG BEACH", "addr:country": "US", "addr:full": "3801 ATLANTIC AVE", "addr:postcode": "90807", "addr:state": "CA", "amenity": "post_box", "brand": "United States Postal Service", "brand:wikidata": "Q668687", "collection_times": "Mo-Fr 16:30; Sa 13:00", "name": "USPS COLLECTION BOX - BLUE BOX", "note": "ON 12/24 AND 12/31, THIS BOX MAY BE COLLECTED AS EARLY AS 12 NOON.", "nsi_id": "unitedstatespostalservice-a77078", "operator": "United States Postal Service", "operator:short": "USPS", "operator:type": "public", "operator:wikidata": "Q668687", "ref": "9080700016"}, "type": "Feature"}
{"dataset_attributes": {"@spider": "usps_collection_boxes", "spider:collection_time": "2023-08-25T08:24:09.950024"}, "geometry": {"coordinates": [-118.184872, 33.827762], "type": "Point"}, "id": "McXZCCquEgAPm98qlx7UXAVgmF0=", "properties": {"@spider": "usps_collection_boxes", "addr:city": "LONG BEACH", "addr:country": "US", "addr:full": "3826 ATLANTIC AVE", "addr:postcode": "90807", "addr:state": "CA", "amenity": "post_box", "brand": "United States Postal Service", "brand:wikidata": "Q668687", "collection_times": "Mo-Sa 13:00", "name": "USPS COLLECTION BOX - BLUE BOX", "note": "ON 12/24 AND 12/31, THIS BOX MAY BE COLLECTED AS EARLY AS 12 NOON.", "nsi_id": "unitedstatespostalservice-a77078", "operator": "United States Postal Service", "operator:short": "USPS", "operator:type": "public", "operator:wikidata": "Q668687", "ref": "9080700017"}, "type": "Feature"}
{"dataset_attributes": {"@spider": "usps_collection_boxes", "spider:collection_time": "2023-08-25T08:24:09.950024"}, "geometry": {"coordinates": [-118.189583, 33.826627], "type": "Point"}, "id": "UIOwu04VJ9PMbrynI2aX7mFy_Tw=", "properties": {"@spider": "usps_collection_boxes", "addr:city": "LONG BEACH", "addr:country": "US", "addr:full": "3777 LONG BEACH BLVD", "addr:postcode": "90807", "addr:state": "CA", "amenity": "post_box", "brand": "United States Postal Service", "brand:wikidata": "Q668687", "collection_times": "Mo-Fr 14:30; Sa 13:00", "name": "USPS COLLECTION BOX - BLUE BOX", "note": "ON 12/24 AND 12/31, THIS BOX MAY BE COLLECTED AS EARLY AS 12 NOON.", "nsi_id": "unitedstatespostalservice-a77078", "operator": "United States Postal Service", "operator:short": "USPS", "operator:type": "public", "operator:wikidata": "Q668687", "ref": "9080700023"}, "type": "Feature"}
{"dataset_attributes": {"@spider": "usps_collection_boxes", "spider:collection_time": "2023-08-25T08:24:09.950024"}, "geometry": {"coordinates": [-118.1839965163, 33.839253], "type": "Point"}, "id": "EX0AaVxUE59kfRa2ewTg_sw2OtQ=", "properties": {"@spider": "usps_collection_boxes", "addr:city": "LONG BEACH", "addr:country": "US", "addr:full": "4470 ATLANTIC AVE LOBBY", "addr:postcode": "90807", "addr:state": "CA", "amenity": "post_box", "brand": "United States Postal Service", "brand:wikidata": "Q668687", "collection_times": "Mo-Fr 17:00; Sa 15:00", "name": "USPS COLLECTION BOX - PO LOBBY", "note": "ON 12/24 AND 12/31, THIS BOX MAY BE COLLECTED AS EARLY AS 12 NOON.", "nsi_id": "unitedstatespostalservice-a77078", "operator": "United States Postal Service", "operator:short": "USPS", "operator:type": "public", "operator:wikidata": "Q668687", "ref": "9080700030"}, "type": "Feature"}
{"dataset_attributes": {"@spider": "usps_collection_boxes", "spider:collection_time": "2023-08-25T08:24:09.950024"}, "geometry": {"coordinates": [-118.176152, 33.832566], "type": "Point"}, "id": "_7LHk5cP8aiHaqytuuPtJotP6Gw=", "properties": {"@spider": "usps_collection_boxes", "addr:city": "LONG BEACH", "addr:country": "US", "addr:full": "4100 ORANGE AVE", "addr:postcode": "90807", "addr:state": "CA", "amenity": "post_box", "brand": "United States Postal Service", "brand:wikidata": "Q668687", "collection_times": "Mo-Fr 16:00; Sa 13:00", "name": "USPS COLLECTION BOX - BLUE BOX", "note": "ON 12/24 AND 12/31, THIS BOX MAY BE COLLECTED AS EARLY AS 12 NOON.", "nsi_id": "unitedstatespostalservice-a77078", "operator": "United States Postal Service", "operator:short": "USPS", "operator:type": "public", "operator:wikidata": "Q668687", "ref": "9080700033"}, "type": "Feature"}
{"dataset_attributes": {"@spider": "usps_collection_boxes", "spider:collection_time": "2023-08-25T08:24:09.950024"}, "geometry": {"coordinates": [-118.174145, 33.829457], "type": "Point"}, "id": "mHzjixmz8k0z9ietDaaQApN30Wo=", "properties": {"@spider": "usps_collection_boxes", "addr:city": "LONG BEACH", "addr:country": "US", "addr:full": "1400 E ROOSEVELT RD", "addr:postcode": "90807", "addr:state": "CA", "amenity": "post_box", "brand": "United States Postal Service", "brand:wikidata": "Q668687", "collection_times": "Mo-Fr 14:15; Sa 13:00", "name": "USPS COLLECTION BOX - BLUE BOX", "note": "ON 12/24 AND 12/31, THIS BOX MAY BE COLLECTED AS EARLY AS 12 NOON.", "nsi_id": "unitedstatespostalservice-a77078", "operator": "United States Postal Service", "operator:short": "USPS", "operator:type": "public", "operator:wikidata": "Q668687", "ref": "9080700034"}, "type": "Feature"}
{"dataset_attributes": {"@spider": "usps_collection_boxes", "spider:collection_time": "2023-08-25T08:24:09.950024"}, "geometry": {"coordinates": [-118.168807, 33.832278], "type": "Point"}, "id": "SW7HsYxh6TSMaGAQTJbFNsvpMwM=", "properties": {"@spider": "usps_collection_boxes", "addr:city": "LONG BEACH", "addr:country": "US", "addr:full": "1898 E CARSON ST", "addr:postcode": "90807", "addr:state": "CA", "amenity": "post_box", "brand": "United States Postal Service", "brand:wikidata": "Q668687", "collection_times": "Mo-Fr 14:00; Sa 13:00", "name": "USPS COLLECTION BOX - BLUE BOX", "note": "ON 12/24 AND 12/31, THIS BOX MAY BE COLLECTED AS EARLY AS 12 NOON.", "nsi_id": "unitedstatespostalservice-a77078", "operator": "United States Postal Service", "operator:short": "USPS", "operator:type": "public", "operator:wikidata": "Q668687", "ref": "9080700035"}, "type": "Feature"}
{"dataset_attributes": {"@spider": "usps_collection_boxes", "spider:collection_time": "2023-08-25T08:24:09.950024"}, "geometry": {"coordinates": [-118.171869, 33.819037], "type": "Point"}, "id": "Pmf2cPpcVehOoP6mzUgwgbfxBao=", "properties": {"@spider": "usps_collection_boxes", "addr:city": "LONG BEACH", "addr:country": "US", "addr:full": "3400 WALNUT AVE", "addr:postcode": "90807", "addr:state": "CA", "amenity": "post_box", "brand": "United States Postal Service", "brand:wikidata": "Q668687", "collection_times": "Mo-Sa 13:00", "name": "USPS COLLECTION BOX - BLUE BOX", "note": "ON 12/24 AND 12/31, THIS BOX MAY BE COLLECTED AS EARLY AS 12 NOON.", "nsi_id": "unitedstatespostalservice-a77078", "operator": "United States Postal Service", "operator:short": "USPS", "operator:type": "public", "operator:wikidata": "Q668687", "ref": "9080700048"}, "type": "Feature"}
{"dataset_attributes": {"@spider": "usps_collection_boxes", "spider:collection_time": "2023-08-25T08:24:09.950024"}, "geometry": {"coordinates": [-118.1787319939, 33.8187169953], "type": "Point"}, "id": "PORjbgwDzakZ3vvZ_XgWUcnTIB8=", "properties": {"@spider": "usps_collection_boxes", "addr:city": "LONG BEACH", "addr:country": "US", "addr:full": "1098 E WARDLOW RD", "addr:postcode": "90807", "addr:state": "CA", "amenity": "post_box", "brand": "United States Postal Service", "brand:wikidata": "Q668687", "collection_times": "Mo-Sa 13:00", "name": "USPS COLLECTION BOX - BLUE BOX", "note": "ON 12/24 AND 12/31, THIS BOX MAY BE COLLECTED AS EARLY AS 12 NOON.", "nsi_id": "unitedstatespostalservice-a77078", "operator": "United States Postal Service", "operator:short": "USPS", "operator:type": "public", "operator:wikidata": "Q668687", "ref": "9080700064"}, "type": "Feature"}
{"dataset_attributes": {"@spider": "usps_collection_boxes", "spider:collection_time": "2023-08-25T08:24:09.950024"}, "geometry": {"coordinates": [-118.1839965163, 33.839253], "type": "Point"}, "id": "FCRyRLjcSvfRGZFFi_4Y8V1UmrQ=", "properties": {"@spider": "usps_collection_boxes", "addr:city": "LONG BEACH", "addr:country": "US", "addr:full": "4470 ATLANTIC AVE LOBBY", "addr:postcode": "90807", "addr:state": "CA", "amenity": "post_box", "brand": "United States Postal Service", "brand:wikidata": "Q668687", "collection_times": "Mo-Fr 17:00; Sa 15:00", "name": "USPS COLLECTION BOX - APC", "note": "ON 12/24 AND 12/31, THIS BOX MAY BE COLLECTED AS EARLY AS 12 NOON.", "nsi_id": "unitedstatespostalservice-a77078", "operator": "United States Postal Service", "operator:short": "USPS", "operator:type": "public", "operator:wikidata": "Q668687", "ref": "9080700073"}, "type": "Feature"}
{"dataset_attributes": {"@spider": "usps_collection_boxes", "spider:collection_time": "2023-08-25T08:24:09.950024"}, "geometry": {"coordinates": [-118.189384, 33.822857], "type": "Point"}, "id": "pMYlamUZJ8c5HDshlrIxPkruz5U=", "properties": {"@spider": "usps_collection_boxes", "addr:city": "LONG BEACH", "addr:country": "US", "addr:full": "3605 LONG BEACH BLVD", "addr:postcode": "90807", "addr:state": "CA", "amenity": "post_box", "brand": "United States Postal Service", "brand:wikidata": "Q668687", "collection_times": "Mo-Fr 15:00; Sa 13:00", "name": "USPS COLLECTION BOX - BLUE BOX", "note": "ON 12/24 AND 12/31, THIS BOX MAY BE COLLECTED AS EARLY AS 12 NOON.", "nsi_id": "unitedstatespostalservice-a77078", "operator": "United States Postal Service", "operator:short": "USPS", "operator:type": "public", "operator:wikidata": "Q668687", "ref": "9080700079"}, "type": "Feature"}
{"dataset_attributes": {"@spider": "usps_collection_boxes", "spider:collection_time": "2023-08-25T08:24:09.950024"}, "geometry": {"coordinates": [-118.183996516, 33.839253], "type": "Point"}, "id": "q0Df1U8yav5YLI8nPe7CqA-e1MQ=", "properties": {"@spider": "usps_collection_boxes", "addr:city": "LONG BEACH", "addr:country": "US", "addr:full": "4470 ATLANTIC AVE LOBBY", "addr:postcode": "90807", "addr:state": "CA", "amenity": "post_box", "brand": "United States Postal Service", "brand:wikidata": "Q668687", "collection_times": "Mo-Fr 17:00; Sa 15:00", "name": "USPS COLLECTION BOX - PO LOBBY", "note": "ON 12/24 AND 12/31, THIS BOX MAY BE COLLECTED AS EARLY AS 12 NOON.", "nsi_id": "unitedstatespostalservice-a77078", "operator": "United States Postal Service", "operator:short": "USPS", "operator:type": "public", "operator:wikidata": "Q668687", "ref": "9080700104"}, "type": "Feature"}
{"dataset_attributes": {"@spider": "usps_collection_boxes", "spider:collection_time": "2023-08-25T08:24:09.950024"}, "geometry": {"coordinates": [-118.12661372, 33.833604173], "type": "Point"}, "id": "yhQs-mCZdxm8tOrv_4Opi0oEFCg=", "properties": {"@spider": "usps_collection_boxes", "addr:city": "LONG BEACH", "addr:country": "US", "addr:full": "5405 E VILLAGE RD", "addr:postcode": "90808", "addr:state": "CA", "amenity": "post_box", "brand": "United States Postal Service", "brand:wikidata": "Q668687", "collection_times": "Mo-Fr 17:00; Sa 13:00", "name": "USPS COLLECTION BOX - BLUE BOX", "note": "ON 12/24 AND 12/31, THIS BOX MAY BE COLLECTED AS EARLY AS 12 NOON.", "nsi_id": "unitedstatespostalservice-a77078", "operator": "United States Postal Service", "operator:short": "USPS", "operator:type": "public", "operator:wikidata": "Q668687", "ref": "9080800003"}, "type": "Feature"}
{"dataset_attributes": {"@spider": "usps_collection_boxes", "spider:collection_time": "2023-08-25T08:24:09.950024"}, "geometry": {"coordinates": [-118.125458, 33.811333], "type": "Point"}, "id": "_PhBQJmh9LdOZI9i_yNUywCiiEo=", "properties": {"@spider": "usps_collection_boxes", "addr:city": "LONG BEACH", "addr:country": "US", "addr:full": "3019 N BELLFLOWER BLVD", "addr:postcode": "90808", "addr:state": "CA", "amenity": "post_box", "brand": "United States Postal Service", "brand:wikidata": "Q668687", "collection_times": "Mo-Sa 17:00", "name": "USPS COLLECTION BOX - BLUE BOX", "note": "ON 12/24 AND 12/31, THIS BOX MAY BE COLLECTED AS EARLY AS 12 NOON.", "nsi_id": "unitedstatespostalservice-a77078", "operator": "United States Postal Service", "operator:short": "USPS", "operator:type": "public", "operator:wikidata": "Q668687", "ref": "9080800008"}, "type": "Feature"}
{"dataset_attributes": {"@spider": "usps_collection_boxes", "spider:collection_time": "2023-08-25T08:24:09.950024"}, "geometry": {"coordinates": [-118.107676, 33.81523], "type": "Point"}, "id": "jezwNpo6KqQP6uxpmu4xNTd8N1E=", "properties": {"@spider": "usps_collection_boxes", "addr:city": "LONG BEACH", "addr:country": "US", "addr:full": "3160 PALO VERDE AVE", "addr:postcode": "90808", "addr:state": "CA", "amenity": "post_box", "brand": "United States Postal Service", "brand:wikidata": "Q668687", "collection_times": "Mo-Fr 13:30; Sa 13:00", "name": "USPS COLLECTION BOX - BLUE BOX", "note": "ON 12/24 AND 12/31, THIS BOX MAY BE COLLECTED AS EARLY AS 12 NOON.", "nsi_id": "unitedstatespostalservice-a77078", "operator": "United States Postal Service", "operator:short": "USPS", "operator:type": "public", "operator:wikidata": "Q668687", "ref": "9080800014"}, "type": "Feature"}
{"dataset_attributes": {"@spider": "usps_collection_boxes", "spider:collection_time": "2023-08-25T08:24:09.950024"}, "geometry": {"coordinates": [-118.099443, 33.826316], "type": "Point"}, "id": "2tTL3cGgxCdTC_wPiugXUr85b1s=", "properties": {"@spider": "usps_collection_boxes", "addr:city": "LONG BEACH", "addr:country": "US", "addr:full": "3759 N STUDEBAKER RD", "addr:postcode": "90808", "addr:state": "CA", "amenity": "post_box", "brand": "United States Postal Service", "brand:wikidata": "Q668687", "collection_times": "Mo-Fr 13:45; Sa 13:00", "name": "USPS COLLECTION BOX - BLUE BOX", "note": "ON 12/24 AND 12/31, THIS BOX MAY BE COLLECTED AS EARLY AS 12 NOON.", "nsi_id": "unitedstatespostalservice-a77078", "operator": "United States Postal Service", "operator:short": "USPS", "operator:type": "public", "operator:wikidata": "Q668687", "ref": "9080800015"}, "type": "Feature"}
{"dataset_attributes": {"@spider": "usps_collection_boxes", "spider:collection_time": "2023-08-25T08:24:09.950024"}, "geometry": {"coordinates": [-118.100308, 33.813862], "type": "Point"}, "id": "WaO4DYN9cX0rCKV_sI2zPeZuUUQ=", "properties": {"@spider": "usps_collection_boxes", "addr:city": "LONG BEACH", "addr:country": "US", "addr:full": "6816 E ROSEBAY ST", "addr:postcode": "90808", "addr:state": "CA", "amenity": "post_box", "brand": "United States Postal Service", "brand:wikidata": "Q668687", "collection_times": "Mo-Fr 13:30; Sa 13:00", "name": "USPS COLLECTION BOX - BLUE BOX", "note": "ON 12/24 AND 12/31, THIS BOX MAY BE COLLECTED AS EARLY AS 12 NOON.", "nsi_id": "unitedstatespostalservice-a77078", "operator": "United States Postal Service", "operator:short": "USPS", "operator:type": "public", "operator:wikidata": "Q668687", "ref": "9080800016"}, "type": "Feature"}
{"dataset_attributes": {"@spider": "usps_collection_boxes", "spider:collection_time": "2023-08-25T08:24:09.950024"}, "geometry": {"coordinates": [-118.120817, 33.827809], "type": "Point"}, "id": "3zAmqqnojBco-tkbVKj7jsNFWig=", "properties": {"@spider": "usps_collection_boxes", "addr:city": "LONG BEACH", "addr:country": "US", "addr:full": "3806 SAN ANSELINE AVE", "addr:postcode": "90808", "addr:state": "CA", "amenity": "post_box", "brand": "United States Postal Service", "brand:wikidata": "Q668687", "collection_times": "Mo-Fr 14:00; Sa 13:00", "name": "USPS COLLECTION BOX - BLUE BOX", "note": "ON 12/24 AND 12/31, THIS BOX MAY BE COLLECTED AS EARLY AS 12 NOON.", "nsi_id": "unitedstatespostalservice-a77078", "operator": "United States Postal Service", "operator:short": "USPS", "operator:type": "public", "operator:wikidata": "Q668687", "ref": "9080800020"}, "type": "Feature"}
{"dataset_attributes": {"@spider": "usps_collection_boxes", "spider:collection_time": "2023-08-25T08:24:09.950024"}, "geometry": {"coordinates": [-118.130515, 33.822366], "type": "Point"}, "id": "VB7K2sPoIbilckynI4fjJOKZzX8=", "properties": {"@spider": "usps_collection_boxes", "addr:city": "LONG BEACH", "addr:country": "US", "addr:full": "5243 E MONLACO RD", "addr:postcode": "90808", "addr:state": "CA", "amenity": "post_box", "brand": "United States Postal Service", "brand:wikidata": "Q668687", "collection_times": "Mo-Fr 14:45; Sa 13:00", "name": "USPS COLLECTION BOX - BLUE BOX", "note": "ON 12/24 AND 12/31, THIS BOX MAY BE COLLECTED AS EARLY AS 12 NOON.", "nsi_id": "unitedstatespostalservice-a77078", "operator": "United States Postal Service", "operator:short": "USPS", "operator:type": "public", "operator:wikidata": "Q668687", "ref": "9080800024"}, "type": "Feature"}
{"dataset_attributes": {"@spider": "usps_collection_boxes", "spider:collection_time": "2023-08-25T08:24:09.950024"}, "geometry": {"coordinates": [-118.13368, 33.818661], "type": "Point"}, "id": "V-eGPkXP1jrUC8o3TBsX6Pex97k=", "properties": {"@spider": "usps_collection_boxes", "addr:city": "LONG BEACH", "addr:country": "US", "addr:full": "5102 E WARDLOW RD", "addr:postcode": "90808", "addr:state": "CA", "amenity": "post_box", "brand": "United States Postal Service", "brand:wikidata": "Q668687", "collection_times": "Mo-Sa 13:00", "name": "USPS COLLECTION BOX - BLUE BOX", "note": "ON 12/24 AND 12/31, THIS BOX MAY BE COLLECTED AS EARLY AS 12 NOON.", "nsi_id": "unitedstatespostalservice-a77078", "operator": "United States Postal Service", "operator:short": "USPS", "operator:type": "public", "operator:wikidata": "Q668687", "ref": "9080800025"}, "type": "Feature"}
{"dataset_attributes": {"@spider": "usps_collection_boxes", "spider:collection_time": "2023-08-25T08:24:09.950024"}, "geometry": {"coordinates": [-118.133661, 33.815382], "type": "Point"}, "id": "prNgLweptDM7L1FB8DdIDofyxus=", "properties": {"@spider": "usps_collection_boxes", "addr:city": "LONG BEACH", "addr:country": "US", "addr:full": "3202 CLARK AVE", "addr:postcode": "90808", "addr:state": "CA", "amenity": "post_box", "brand": "United States Postal Service", "brand:wikidata": "Q668687", "collection_times": "Mo-Sa 13:00", "name": "USPS COLLECTION BOX - BLUE BOX", "note": "ON 12/24 AND 12/31, THIS BOX MAY BE COLLECTED AS EARLY AS 12 NOON.", "nsi_id": "unitedstatespostalservice-a77078", "operator": "United States Postal Service", "operator:short": "USPS", "operator:type": "public", "operator:wikidata": "Q668687", "ref": "9080800026"}, "type": "Feature"}
{"dataset_attributes": {"@spider": "usps_collection_boxes", "spider:collection_time": "2023-08-25T08:24:09.950024"}, "geometry": {"coordinates": [-118.095706, 33.814634], "type": "Point"}, "id": "0f8h-BWb2z_zGfD5mCaEjoBXEFI=", "properties": {"@spider": "usps_collection_boxes", "addr:city": "LONG BEACH", "addr:country": "US", "addr:full": "7040 E MEZZANINE WAY", "addr:postcode": "90808", "addr:state": "CA", "amenity": "post_box", "brand": "United States Postal Service", "brand:wikidata": "Q668687", "collection_times": "Mo-Fr 13:30; Sa 13:00", "name": "USPS COLLECTION BOX - BLUE BOX", "note": "ON 12/24 AND 12/31, THIS BOX MAY BE COLLECTED AS EARLY AS 12 NOON.", "nsi_id": "unitedstatespostalservice-a77078", "operator": "United States Postal Service", "operator:short": "USPS", "operator:type": "public", "operator:wikidata": "Q668687", "ref": "9080800030"}, "type": "Feature"}
{"dataset_attributes": {"@spider": "usps_collection_boxes", "spider:collection_time": "2023-08-25T08:24:09.950024"}, "geometry": {"coordinates": [-118.121005, 33.822181], "type": "Point"}, "id": "KmCDldDPAKXW6zKZ75fpSY4CNko=", "properties": {"@spider": "usps_collection_boxes", "addr:city": "LONG BEACH", "addr:country": "US", "addr:full": "5640 E MONLACO RD", "addr:postcode": "90808", "addr:state": "CA", "amenity": "post_box", "brand": "United States Postal Service", "brand:wikidata": "Q668687", "collection_times": "Mo-Fr 14:45; Sa 13:00", "name": "USPS COLLECTION BOX - BLUE BOX", "note": "ON 12/24 AND 12/31, THIS BOX MAY BE COLLECTED AS EARLY AS 12 NOON.", "nsi_id": "unitedstatespostalservice-a77078", "operator": "United States Postal Service", "operator:short": "USPS", "operator:type": "public", "operator:wikidata": "Q668687", "ref": "9080800032"}, "type": "Feature"}
{"dataset_attributes": {"@spider": "usps_collection_boxes", "spider:collection_time": "2023-08-25T08:24:09.950024"}, "geometry": {"coordinates": [-118.096282, 33.822744], "type": "Point"}, "id": "4a06KelDrHW2grTYd9Spbe6BOrk=", "properties": {"@spider": "usps_collection_boxes", "addr:city": "LONG BEACH", "addr:country": "US", "addr:full": "3568 ROXANNE AVE", "addr:postcode": "90808", "addr:state": "CA", "amenity": "post_box", "brand": "United States Postal Service", "brand:wikidata": "Q668687", "collection_times": "Mo-Fr 13:30; Sa 13:00", "name": "USPS COLLECTION BOX - BLUE BOX", "note": "ON 12/24 AND 12/31, THIS BOX MAY BE COLLECTED AS EARLY AS 12 NOON.", "nsi_id": "unitedstatespostalservice-a77078", "operator": "United States Postal Service", "operator:short": "USPS", "operator:type": "public", "operator:wikidata": "Q668687", "ref": "9080800033"}, "type": "Feature"}
{"dataset_attributes": {"@spider": "usps_collection_boxes", "spider:collection_time": "2023-08-25T08:24:09.950024"}, "geometry": {"coordinates": [-118.1198094164, 33.813555632], "type": "Point"}, "id": "PoOMGSmVXMDfUJ6snIvTAdHqW6I=", "properties": {"@spider": "usps_collection_boxes", "addr:city": "LONG BEACH", "addr:country": "US", "addr:full": "3150 LOMINA AVE", "addr:postcode": "90808", "addr:state": "CA", "amenity": "post_box", "brand": "United States Postal Service", "brand:wikidata": "Q668687", "collection_times": "Mo-Sa 13:00", "name": "USPS COLLECTION BOX - BLUE BOX", "note": "ON 12/24 AND 12/31, THIS BOX MAY BE COLLECTED AS EARLY AS 12 NOON.", "nsi_id": "unitedstatespostalservice-a77078", "operator": "United States Postal Service", "operator:short": "USPS", "operator:type": "public", "operator:wikidata": "Q668687", "ref": "9080800039"}, "type": "Feature"}
{"dataset_attributes": {"@spider": "usps_collection_boxes", "spider:collection_time": "2023-08-25T08:24:09.950024"}, "geometry": {"coordinates": [-118.071664, 33.82117], "type": "Point"}, "id": "0XjvszMU0KGCfXwyGRoQkRITLJk=", "properties": {"@spider": "usps_collection_boxes", "addr:city": "LONG BEACH", "addr:country": "US", "addr:full": "3501 THORNLAKE AVE", "addr:postcode": "90808", "addr:state": "CA", "amenity": "post_box", "brand": "United States Postal Service", "brand:wikidata": "Q668687", "collection_times": "Mo-Sa 13:00", "name": "USPS COLLECTION BOX - BLUE BOX", "note": "ON 12/24 AND 12/31, THIS BOX MAY BE COLLECTED AS EARLY AS 12 NOON.", "nsi_id": "unitedstatespostalservice-a77078", "operator": "United States Postal Service", "operator:short": "USPS", "operator:type": "public", "operator:wikidata": "Q668687", "ref": "9080800046"}, "type": "Feature"}
{"dataset_attributes": {"@spider": "usps_collection_boxes", "spider:collection_time": "2023-08-25T08:24:09.950024"}, "geometry": {"coordinates": [-118.07833, 33.810802], "type": "Point"}, "id": "xOsJQvk8ecJbbrCtcWrvwZ7kZDA=", "properties": {"@spider": "usps_collection_boxes", "addr:city": "LONG BEACH", "addr:country": "US", "addr:full": "7896 E BERNER ST", "addr:postcode": "90808", "addr:state": "CA", "amenity": "post_box", "brand": "United States Postal Service", "brand:wikidata": "Q668687", "collection_times": "Mo-Fr 13:15; Sa 13:00", "name": "USPS COLLECTION BOX - BLUE BOX", "note": "ON 12/24 AND 12/31, THIS BOX MAY BE COLLECTED AS EARLY AS 12 NOON.", "nsi_id": "unitedstatespostalservice-a77078", "operator": "United States Postal Service", "operator:short": "USPS", "operator:type": "public", "operator:wikidata": "Q668687", "ref": "9080800047"}, "type": "Feature"}
{"dataset_attributes": {"@spider": "usps_collection_boxes", "spider:collection_time": "2023-08-25T08:24:09.950024"}, "geometry": {"coordinates": [-118.137207, 33.836079], "type": "Point"}, "id": "hEI4gsFp2jTulFBAAbzq3skZe0o=", "properties": {"@spider": "usps_collection_boxes", "addr:city": "LONG BEACH", "addr:country": "US", "addr:full": "4251 FACULTY AVE", "addr:postcode": "90808", "addr:state": "CA", "amenity": "post_box", "brand": "United States Postal Service", "brand:wikidata": "Q668687", "collection_times": "Mo-Sa 13:00", "name": "USPS COLLECTION BOX - BLUE BOX", "note": "ON 12/24 AND 12/31, THIS BOX MAY BE COLLECTED AS EARLY AS 12 NOON.", "nsi_id": "unitedstatespostalservice-a77078", "operator": "United States Postal Service", "operator:short": "USPS", "operator:type": "public", "operator:wikidata": "Q668687", "ref": "9080800048"}, "type": "Feature"}
{"dataset_attributes": {"@spider": "usps_collection_boxes", "spider:collection_time": "2023-08-25T08:24:09.950024"}, "geometry": {"coordinates": [-118.114563, 33.81899], "type": "Point"}, "id": "QFsmp7qZZB5Rz0_uRrZRwY8NpJI=", "properties": {"@spider": "usps_collection_boxes", "addr:city": "LONG BEACH", "addr:country": "US", "addr:full": "6003 E WARDLOW RD", "addr:postcode": "90808", "addr:state": "CA", "amenity": "post_box", "brand": "United States Postal Service", "brand:wikidata": "Q668687", "collection_times": "Mo-Fr 14:00; Sa 13:00", "name": "USPS COLLECTION BOX - BLUE BOX", "note": "ON 12/24 AND 12/31, THIS BOX MAY BE COLLECTED AS EARLY AS 12 NOON.", "nsi_id": "unitedstatespostalservice-a77078", "operator": "United States Postal Service", "operator:short": "USPS", "operator:type": "public", "operator:wikidata": "Q668687", "ref": "9080800052"}, "type": "Feature"}
{"dataset_attributes": {"@spider": "usps_collection_boxes", "spider:collection_time": "2023-08-25T08:24:09.950024"}, "geometry": {"coordinates": [-118.09713, 33.818711], "type": "Point"}, "id": "zSpLiNUM9wz-c1tS1yWc95InAJQ=", "properties": {"@spider": "usps_collection_boxes", "addr:city": "LONG BEACH", "addr:country": "US", "addr:full": "3390 KALLIN AVE", "addr:postcode": "90808", "addr:state": "CA", "amenity": "post_box", "brand": "United States Postal Service", "brand:wikidata": "Q668687", "collection_times": "Mo-Fr 13:30; Sa 13:00", "name": "USPS COLLECTION BOX - BLUE BOX", "note": "ON 12/24 AND 12/31, THIS BOX MAY BE COLLECTED AS EARLY AS 12 NOON.", "nsi_id": "unitedstatespostalservice-a77078", "operator": "United States Postal Service", "operator:short": "USPS", "operator:type": "public", "operator:wikidata": "Q668687", "ref": "9080800060"}, "type": "Feature"}
{"dataset_attributes": {"@spider": "usps_collection_boxes", "spider:collection_time": "2023-08-25T08:24:09.950024"}, "geometry": {"coordinates": [-118.1264175, 33.833736], "type": "Point"}, "id": "4HujkteKEBEdDrBJLt__oyHvqHQ=", "properties": {"@spider": "usps_collection_boxes", "addr:city": "LONG BEACH", "addr:country": "US", "addr:full": "5405 E VILLAGE RD LOBBY", "addr:postcode": "90808", "addr:state": "CA", "amenity": "post_box", "brand": "United States Postal Service", "brand:wikidata": "Q668687", "collection_times": "Mo-Fr 17:00", "name": "USPS COLLECTION BOX - PO LOBBY", "note": "ON 12/24 AND 12/31, THIS BOX MAY BE COLLECTED AS EARLY AS 12 NOON.", "nsi_id": "unitedstatespostalservice-a77078", "operator": "United States Postal Service", "operator:short": "USPS", "operator:type": "public", "operator:wikidata": "Q668687", "ref": "9080800065"}, "type": "Feature"}
{"dataset_attributes": {"@spider": "usps_collection_boxes", "spider:collection_time": "2023-08-25T08:24:09.950024"}, "geometry": {"coordinates": [-118.1422543146, 33.8172061854], "type": "Point"}, "id": "sAAH9i8LC4W_sfBBnWW07f9KTn8=", "properties": {"@spider": "usps_collection_boxes", "addr:city": "LONG BEACH", "addr:country": "US", "addr:full": "4330 E DONALD DOUGLAS DR", "addr:postcode": "90808", "addr:state": "CA", "amenity": "post_box", "brand": "United States Postal Service", "brand:wikidata": "Q668687", "collection_times": "Mo-Fr 15:00; Sa 13:00", "name": "USPS COLLECTION BOX - BLUE BOX", "note": "ON 12/24 AND 12/31, THIS BOX MAY BE COLLECTED AS EARLY AS 12 NOON.", "nsi_id": "unitedstatespostalservice-a77078", "operator": "United States Postal Service", "operator:short": "USPS", "operator:type": "public", "operator:wikidata": "Q668687", "ref": "9080800066"}, "type": "Feature"}
{"dataset_attributes": {"@spider": "usps_collection_boxes", "spider:collection_time": "2023-08-25T08:24:09.950024"}, "geometry": {"coordinates": [-118.1264175, 33.833736], "type": "Point"}, "id": "ReG3NHf_ZhNPO95YUZLAFoBXqOA=", "properties": {"@spider": "usps_collection_boxes", "addr:city": "LONG BEACH", "addr:country": "US", "addr:full": "5405 E VILLAGE RD LOBBY", "addr:postcode": "90808", "addr:state": "CA", "amenity": "post_box", "brand": "United States Postal Service", "brand:wikidata": "Q668687", "collection_times": "Mo-Fr 17:00", "name": "USPS COLLECTION BOX - PO LOBBY", "note": "ON 12/24 AND 12/31, THIS BOX MAY BE COLLECTED AS EARLY AS 12 NOON.", "nsi_id": "unitedstatespostalservice-a77078", "operator": "United States Postal Service", "operator:short": "USPS", "operator:type": "public", "operator:wikidata": "Q668687", "ref": "9080800071"}, "type": "Feature"}
{"dataset_attributes": {"@spider": "usps_collection_boxes", "spider:collection_time": "2023-08-25T08:24:09.950024"}, "geometry": {"coordinates": [-118.215752, 33.835548], "type": "Point"}, "id": "r-jL3jQx24ubeFlL_Y9Mke9t5LE=", "properties": {"@spider": "usps_collection_boxes", "addr:city": "LONG BEACH", "addr:country": "US", "addr:full": "21241 S SANTA FE AVE", "addr:postcode": "90810", "addr:state": "CA", "amenity": "post_box", "brand": "United States Postal Service", "brand:wikidata": "Q668687", "collection_times": "Mo-Sa 13:00", "name": "USPS COLLECTION BOX - BLUE BOX", "note": "ON 12/24 AND 12/31, THIS BOX MAY BE COLLECTED AS EARLY AS 12 NOON.", "nsi_id": "unitedstatespostalservice-a77078", "operator": "United States Postal Service", "operator:short": "USPS", "operator:type": "public", "operator:wikidata": "Q668687", "ref": "9081000003"}, "type": "Feature"}
{"dataset_attributes": {"@spider": "usps_collection_boxes", "spider:collection_time": "2023-08-25T08:24:09.950024"}, "geometry": {"coordinates": [-118.219836, 33.811536], "type": "Point"}, "id": "_WzFsJPQg9EKpa1g0v_gNBKoA50=", "properties": {"@spider": "usps_collection_boxes", "addr:city": "LONG BEACH", "addr:country": "US", "addr:full": "2100 W SPRING ST", "addr:postcode": "90810", "addr:state": "CA", "amenity": "post_box", "brand": "United States Postal Service", "brand:wikidata": "Q668687", "collection_times": "Mo-Sa 13:00", "name": "USPS COLLECTION BOX - BLUE BOX", "note": "ON 12/24 AND 12/31, THIS BOX MAY BE COLLECTED AS EARLY AS 12 NOON.", "nsi_id": "unitedstatespostalservice-a77078", "operator": "United States Postal Service", "operator:short": "USPS", "operator:type": "public", "operator:wikidata": "Q668687", "ref": "9081000008"}, "type": "Feature"}
{"dataset_attributes": {"@spider": "usps_collection_boxes", "spider:collection_time": "2023-08-25T08:24:09.950024"}, "geometry": {"coordinates": [-118.217463, 33.811796], "type": "Point"}, "id": "EbQquVF1mGeAJe2_gAkRDeKRdFQ=", "properties": {"@spider": "usps_collection_boxes", "addr:city": "LONG BEACH", "addr:country": "US", "addr:full": "3021 N GOLD STAR DR", "addr:postcode": "90810", "addr:state": "CA", "amenity": "post_box", "brand": "United States Postal Service", "brand:wikidata": "Q668687", "collection_times": "Mo-Sa 13:00", "name": "USPS COLLECTION BOX - BLUE BOX", "note": "ON 12/24 AND 12/31, THIS BOX MAY BE COLLECTED AS EARLY AS 12 NOON.", "nsi_id": "unitedstatespostalservice-a77078", "operator": "United States Postal Service", "operator:short": "USPS", "operator:type": "public", "operator:wikidata": "Q668687", "ref": "9081000009"}, "type": "Feature"}
{"dataset_attributes": {"@spider": "usps_collection_boxes", "spider:collection_time": "2023-08-25T08:24:09.950024"}, "geometry": {"coordinates": [-118.217724, 33.820144], "type": "Point"}, "id": "NnYcr1sBI4UirINpVD8LUM0_LEA=", "properties": {"@spider": "usps_collection_boxes", "addr:city": "LONG BEACH", "addr:country": "US", "addr:full": "3595 SANTA FE AVE", "addr:postcode": "90810", "addr:state": "CA", "amenity": "post_box", "brand": "United States Postal Service", "brand:wikidata": "Q668687", "collection_times": "Mo-Sa 13:00", "name": "USPS COLLECTION BOX - BLUE BOX", "note": "ON 12/24 AND 12/31, THIS BOX MAY BE COLLECTED AS EARLY AS 12 NOON.", "nsi_id": "unitedstatespostalservice-a77078", "operator": "United States Postal Service", "operator:short": "USPS", "operator:type": "public", "operator:wikidata": "Q668687", "ref": "9081000010"}, "type": "Feature"}
{"dataset_attributes": {"@spider": "usps_collection_boxes", "spider:collection_time": "2023-08-25T08:24:09.950024"}, "geometry": {"coordinates": [-118.2220329895, 33.8282330119], "type": "Point"}, "id": "9U7s4q8BKAWvk7yS-zH2bvxd4N0=", "properties": {"@spider": "usps_collection_boxes", "addr:city": "LONG BEACH", "addr:country": "US", "addr:full": "21940 S MCHELEN AVE", "addr:postcode": "90810", "addr:state": "CA", "amenity": "post_box", "brand": "United States Postal Service", "brand:wikidata": "Q668687", "collection_times": "Mo-Sa 13:00", "name": "USPS COLLECTION BOX - BLUE BOX", "note": "ON 12/24 AND 12/31, THIS BOX MAY BE COLLECTED AS EARLY AS 12 NOON.", "nsi_id": "unitedstatespostalservice-a77078", "operator": "United States Postal Service", "operator:short": "USPS", "operator:type": "public", "operator:wikidata": "Q668687", "ref": "9081000012"}, "type": "Feature"}
{"dataset_attributes": {"@spider": "usps_collection_boxes", "spider:collection_time": "2023-08-25T08:24:09.950024"}, "geometry": {"coordinates": [-118.217907, 33.830255], "type": "Point"}, "id": "XoGa-LarWeuupa-QWAeo4Gn-RHM=", "properties": {"@spider": "usps_collection_boxes", "addr:city": "LONG BEACH", "addr:country": "US", "addr:full": "2762 E 218TH PL", "addr:postcode": "90810", "addr:state": "CA", "amenity": "post_box", "brand": "United States Postal Service", "brand:wikidata": "Q668687", "collection_times": "Mo-Sa 13:00", "name": "USPS COLLECTION BOX - BLUE BOX", "note": "ON 12/24 AND 12/31, THIS BOX MAY BE COLLECTED AS EARLY AS 12 NOON.", "nsi_id": "unitedstatespostalservice-a77078", "operator": "United States Postal Service", "operator:short": "USPS", "operator:type": "public", "operator:wikidata": "Q668687", "ref": "9081000013"}, "type": "Feature"}
{"dataset_attributes": {"@spider": "usps_collection_boxes", "spider:collection_time": "2023-08-25T08:24:09.950024"}, "geometry": {"coordinates": [-118.217705, 33.802658], "type": "Point"}, "id": "_lNsR2dLnyOt0tV8eqFLu8gJL-4=", "properties": {"@spider": "usps_collection_boxes", "addr:city": "LONG BEACH", "addr:country": "US", "addr:full": "2501A SEABRIGHT AVE", "addr:postcode": "90810", "addr:state": "CA", "amenity": "post_box", "brand": "United States Postal Service", "brand:wikidata": "Q668687", "collection_times": "Mo-Sa 13:00", "name": "USPS COLLECTION BOX - BLUE BOX", "note": "ON 12/24 AND 12/31, THIS BOX MAY BE COLLECTED AS EARLY AS 12 NOON.", "nsi_id": "unitedstatespostalservice-a77078", "operator": "United States Postal Service", "operator:short": "USPS", "operator:type": "public", "operator:wikidata": "Q668687", "ref": "9081000022"}, "type": "Feature"}
{"dataset_attributes": {"@spider": "usps_collection_boxes", "spider:collection_time": "2023-08-25T08:24:09.950024"}, "geometry": {"coordinates": [-118.215385, 33.824912], "type": "Point"}, "id": "__S9z-0xgjsG3JNFFG2vy_5VTrY=", "properties": {"@spider": "usps_collection_boxes", "addr:city": "LONG BEACH", "addr:country": "US", "addr:full": "3700 SANTA FE AVE", "addr:postcode": "90810", "addr:state": "CA", "amenity": "post_box", "brand": "United States Postal Service", "brand:wikidata": "Q668687", "collection_times": "Mo-Sa 13:00", "name": "USPS COLLECTION BOX - BLUE BOX", "note": "ON 12/24 AND 12/31, THIS BOX MAY BE COLLECTED AS EARLY AS 12 NOON.", "nsi_id": "unitedstatespostalservice-a77078", "operator": "United States Postal Service", "operator:short": "USPS", "operator:type": "public", "operator:wikidata": "Q668687", "ref": "9081000028"}, "type": "Feature"}
{"dataset_attributes": {"@spider": "usps_collection_boxes", "spider:collection_time": "2023-08-25T08:24:09.950024"}, "geometry": {"coordinates": [-118.2150585, 33.798636], "type": "Point"}, "id": "zyk4qmPvhZae3JZUyscTR3cttyo=", "properties": {"@spider": "usps_collection_boxes", "addr:city": "LONG BEACH", "addr:country": "US", "addr:full": "1690 W 23RD ST LOBBY", "addr:postcode": "90810", "addr:state": "CA", "amenity": "post_box", "brand": "United States Postal Service", "brand:wikidata": "Q668687", "collection_times": "Mo-Fr 17:00", "name": "USPS COLLECTION BOX - PO LOBBY", "note": "ON 12/24 AND 12/31, THIS BOX MAY BE COLLECTED AS EARLY AS 12 NOON.", "nsi_id": "unitedstatespostalservice-a77078", "operator": "United States Postal Service", "operator:short": "USPS", "operator:type": "public", "operator:wikidata": "Q668687", "ref": "9081000030"}, "type": "Feature"}
{"dataset_attributes": {"@spider": "usps_collection_boxes", "spider:collection_time": "2023-08-25T08:24:09.950024"}, "geometry": {"coordinates": [-118.2150585, 33.798636], "type": "Point"}, "id": "nE_5MO7iwNaMyhPn2eeCRsdOSKY=", "properties": {"@spider": "usps_collection_boxes", "addr:city": "LONG BEACH", "addr:country": "US", "addr:full": "1690 W 23RD ST LOBBY", "addr:postcode": "90810", "addr:state": "CA", "amenity": "post_box", "brand": "United States Postal Service", "brand:wikidata": "Q668687", "collection_times": "Mo-Fr 17:00", "name": "USPS COLLECTION BOX - PO LOBBY", "note": "ON 12/24 AND 12/31, THIS BOX MAY BE COLLECTED AS EARLY AS 12 NOON.", "nsi_id": "unitedstatespostalservice-a77078", "operator": "United States Postal Service", "operator:short": "USPS", "operator:type": "public", "operator:wikidata": "Q668687", "ref": "9081000034"}, "type": "Feature"}
{"dataset_attributes": {"@spider": "usps_collection_boxes", "spider:collection_time": "2023-08-25T08:24:09.950024"}, "geometry": {"coordinates": [-118.1734245, 33.7790254705], "type": "Point"}, "id": "F8gSlHHNHTtGSsKgCHo9UqxfFtg=", "properties": {"@spider": "usps_collection_boxes", "addr:city": "LONG BEACH", "addr:country": "US", "addr:full": "1433 E 10TH ST", "addr:postcode": "90813", "addr:state": "CA", "amenity": "post_box", "brand": "United States Postal Service", "brand:wikidata": "Q668687", "collection_times": "Mo-Sa 13:00", "name": "USPS COLLECTION BOX - BLUE BOX", "note": "ON 12/24 AND 12/31, THIS BOX MAY BE COLLECTED AS EARLY AS 12 NOON.", "nsi_id": "unitedstatespostalservice-a77078", "operator": "United States Postal Service", "operator:short": "USPS", "operator:type": "public", "operator:wikidata": "Q668687", "ref": "9081300013"}, "type": "Feature"}
{"dataset_attributes": {"@spider": "usps_collection_boxes", "spider:collection_time": "2023-08-25T08:24:09.950024"}, "geometry": {"coordinates": [-118.184607, 33.777504], "type": "Point"}, "id": "NSXId9C9V0MZVUlYtLnhad7a7gM=", "properties": {"@spider": "usps_collection_boxes", "addr:city": "LONG BEACH", "addr:country": "US", "addr:full": "850 ATLANTIC AVE", "addr:postcode": "90813", "addr:state": "CA", "amenity": "post_box", "brand": "United States Postal Service", "brand:wikidata": "Q668687", "collection_times": "Mo-Sa 13:00", "name": "USPS COLLECTION BOX - BLUE BOX", "note": "ON 12/24 AND 12/31, THIS BOX MAY BE COLLECTED AS EARLY AS 12 NOON.", "nsi_id": "unitedstatespostalservice-a77078", "operator": "United States Postal Service", "operator:short": "USPS", "operator:type": "public", "operator:wikidata": "Q668687", "ref": "9081300030"}, "type": "Feature"}
{"dataset_attributes": {"@spider": "usps_collection_boxes", "spider:collection_time": "2023-08-25T08:24:09.950024"}, "geometry": {"coordinates": [-118.185408, 33.781662], "type": "Point"}, "id": "fKczFOKQbF9jNDP8HAvRVp5P-8w=", "properties": {"@spider": "usps_collection_boxes", "addr:city": "LONG BEACH", "addr:country": "US", "addr:full": "1133 ATLANTIC AVE", "addr:postcode": "90813", "addr:state": "CA", "amenity": "post_box", "brand": "United States Postal Service", "brand:wikidata": "Q668687", "collection_times": "Mo-Sa 13:00", "name": "USPS COLLECTION BOX - BLUE BOX", "note": "ON 12/24 AND 12/31, THIS BOX MAY BE COLLECTED AS EARLY AS 12 NOON.", "nsi_id": "unitedstatespostalservice-a77078", "operator": "United States Postal Service", "operator:short": "USPS", "operator:type": "public", "operator:wikidata": "Q668687", "ref": "9081300033"}, "type": "Feature"}
{"dataset_attributes": {"@spider": "usps_collection_boxes", "spider:collection_time": "2023-08-25T08:24:09.950024"}, "geometry": {"coordinates": [-118.193697967, 33.77565], "type": "Point"}, "id": "MIMkwxP5xIpR-j6p1Yf44NQBvOU=", "properties": {"@spider": "usps_collection_boxes", "addr:city": "LONG BEACH", "addr:country": "US", "addr:full": "714 PACIFIC AVE", "addr:postcode": "90813", "addr:state": "CA", "amenity": "post_box", "brand": "United States Postal Service", "brand:wikidata": "Q668687", "collection_times": "Mo-Sa 13:00", "name": "USPS COLLECTION BOX - BLUE BOX", "note": "ON 12/24 AND 12/31, THIS BOX MAY BE COLLECTED AS EARLY AS 12 NOON.", "nsi_id": "unitedstatespostalservice-a77078", "operator": "United States Postal Service", "operator:short": "USPS", "operator:type": "public", "operator:wikidata": "Q668687", "ref": "9081300043"}, "type": "Feature"}
{"dataset_attributes": {"@spider": "usps_collection_boxes", "spider:collection_time": "2023-08-25T08:24:09.950024"}, "geometry": {"coordinates": [-118.198413, 33.7825725418], "type": "Point"}, "id": "pFI24oqtOg_OoqccCv2vXPSaqG8=", "properties": {"@spider": "usps_collection_boxes", "addr:city": "LONG BEACH", "addr:country": "US", "addr:full": "500 W ANAHEIM ST", "addr:postcode": "90813", "addr:state": "CA", "amenity": "post_box", "brand": "United States Postal Service", "brand:wikidata": "Q668687", "collection_times": "Mo-Sa 13:00", "name": "USPS COLLECTION BOX - BLUE BOX", "note": "ON 12/24 AND 12/31, THIS BOX MAY BE COLLECTED AS EARLY AS 12 NOON.", "nsi_id": "unitedstatespostalservice-a77078", "operator": "United States Postal Service", "operator:short": "USPS", "operator:type": "public", "operator:wikidata": "Q668687", "ref": "9081300045"}, "type": "Feature"}
{"dataset_attributes": {"@spider": "usps_collection_boxes", "spider:collection_time": "2023-08-25T08:24:09.950024"}, "geometry": {"coordinates": [-118.1858535, 33.77997], "type": "Point"}, "id": "6BZ8SDq6LVCkXFZEYZvLHpG3ttk=", "properties": {"@spider": "usps_collection_boxes", "addr:city": "LONG BEACH", "addr:country": "US", "addr:full": "1050 LINDEN AVE", "addr:postcode": "90813", "addr:state": "CA", "amenity": "post_box", "brand": "United States Postal Service", "brand:wikidata": "Q668687", "collection_times": "Mo-Fr 16:00; Sa 13:00", "name": "USPS COLLECTION BOX - BLUE BOX", "note": "ON 12/24 AND 12/31, THIS BOX MAY BE COLLECTED AS EARLY AS 12 NOON.", "nsi_id": "unitedstatespostalservice-a77078", "operator": "United States Postal Service", "operator:short": "USPS", "operator:type": "public", "operator:wikidata": "Q668687", "ref": "9081300049"}, "type": "Feature"}
{"dataset_attributes": {"@spider": "usps_collection_boxes", "spider:collection_time": "2023-08-25T08:24:09.950024"}, "geometry": {"coordinates": [-118.15234, 33.771486], "type": "Point"}, "id": "Va2FfzW7He4NgFA13ReB-6Jx_NA=", "properties": {"@spider": "usps_collection_boxes", "addr:city": "LONG BEACH", "addr:country": "US", "addr:full": "3400 E 4TH ST", "addr:postcode": "90814", "addr:state": "CA", "amenity": "post_box", "brand": "United States Postal Service", "brand:wikidata": "Q668687", "collection_times": "Mo-Sa 13:00", "name": "USPS COLLECTION BOX - BLUE BOX", "note": "ON 12/24 AND 12/31, THIS BOX MAY BE COLLECTED AS EARLY AS 12 NOON.", "nsi_id": "unitedstatespostalservice-a77078", "operator": "United States Postal Service", "operator:short": "USPS", "operator:type": "public", "operator:wikidata": "Q668687", "ref": "9081400002"}, "type": "Feature"}
{"dataset_attributes": {"@spider": "usps_collection_boxes", "spider:collection_time": "2023-08-25T08:24:09.950024"}, "geometry": {"coordinates": [-118.129522, 33.771797], "type": "Point"}, "id": "fNyi9Rbudo3t9HUK_hJ87om0ZIQ=", "properties": {"@spider": "usps_collection_boxes", "addr:city": "LONG BEACH", "addr:country": "US", "addr:full": "402 PANAMA AVE", "addr:postcode": "90814", "addr:state": "CA", "amenity": "post_box", "brand": "United States Postal Service", "brand:wikidata": "Q668687", "collection_times": "Mo-Sa 13:00", "name": "USPS COLLECTION BOX - BLUE BOX", "note": "ON 12/24 AND 12/31, THIS BOX MAY BE COLLECTED AS EARLY AS 12 NOON.", "nsi_id": "unitedstatespostalservice-a77078", "operator": "United States Postal Service", "operator:short": "USPS", "operator:type": "public", "operator:wikidata": "Q668687", "ref": "9081400004"}, "type": "Feature"}
{"dataset_attributes": {"@spider": "usps_collection_boxes", "spider:collection_time": "2023-08-25T08:24:09.950024"}, "geometry": {"coordinates": [-118.163573, 33.771652], "type": "Point"}, "id": "UPZVBU8CY9STilahQpUGsrfV5D4=", "properties": {"@spider": "usps_collection_boxes", "addr:city": "LONG BEACH", "addr:country": "US", "addr:full": "2340 E 4TH ST", "addr:postcode": "90814", "addr:state": "CA", "amenity": "post_box", "brand": "United States Postal Service", "brand:wikidata": "Q668687", "collection_times": "Mo-Sa 13:00", "name": "USPS COLLECTION BOX - BLUE BOX", "note": "ON 12/24 AND 12/31, THIS BOX MAY BE COLLECTED AS EARLY AS 12 NOON.", "nsi_id": "unitedstatespostalservice-a77078", "operator": "United States Postal Service", "operator:short": "USPS", "operator:type": "public", "operator:wikidata": "Q668687", "ref": "9081400011"}, "type": "Feature"}
{"dataset_attributes": {"@spider": "usps_collection_boxes", "spider:collection_time": "2023-08-25T08:24:09.950024"}, "geometry": {"coordinates": [-118.159034, 33.771621], "type": "Point"}, "id": "6PCfTUZ7RyKkrWvlBT3qmtfL5Ds=", "properties": {"@spider": "usps_collection_boxes", "addr:city": "LONG BEACH", "addr:country": "US", "addr:full": "2746 E 4TH ST", "addr:postcode": "90814", "addr:state": "CA", "amenity": "post_box", "brand": "United States Postal Service", "brand:wikidata": "Q668687", "collection_times": "Mo-Sa 13:00", "name": "USPS COLLECTION BOX - BLUE BOX", "note": "ON 12/24 AND 12/31, THIS BOX MAY BE COLLECTED AS EARLY AS 12 NOON.", "nsi_id": "unitedstatespostalservice-a77078", "operator": "United States Postal Service", "operator:short": "USPS", "operator:type": "public", "operator:wikidata": "Q668687", "ref": "9081400015"}, "type": "Feature"}
{"dataset_attributes": {"@spider": "usps_collection_boxes", "spider:collection_time": "2023-08-25T08:24:09.950024"}, "geometry": {"coordinates": [-118.136032, 33.768151], "type": "Point"}, "id": "X12RQdeNX_34w9VFTVi_Wy21jv0=", "properties": {"@spider": "usps_collection_boxes", "addr:city": "LONG BEACH", "addr:country": "US", "addr:full": "300 SAINT JOSEPH AVE", "addr:postcode": "90814", "addr:state": "CA", "amenity": "post_box", "brand": "United States Postal Service", "brand:wikidata": "Q668687", "collection_times": "Mo-Sa 13:00", "name": "USPS COLLECTION BOX - BLUE BOX", "note": "ON 12/24 AND 12/31, THIS BOX MAY BE COLLECTED AS EARLY AS 12 NOON.", "nsi_id": "unitedstatespostalservice-a77078", "operator": "United States Postal Service", "operator:short": "USPS", "operator:type": "public", "operator:wikidata": "Q668687", "ref": "9081400016"}, "type": "Feature"}
{"dataset_attributes": {"@spider": "usps_collection_boxes", "spider:collection_time": "2023-08-25T08:24:09.950024"}, "geometry": {"coordinates": [-118.165089, 33.768862], "type": "Point"}, "id": "BNQBYAvjgExQ4UrChkdhHj8oJoY=", "properties": {"@spider": "usps_collection_boxes", "addr:city": "LONG BEACH", "addr:country": "US", "addr:full": "320 JUNIPERO AVE", "addr:postcode": "90814", "addr:state": "CA", "amenity": "post_box", "brand": "United States Postal Service", "brand:wikidata": "Q668687", "collection_times": "Mo-Sa 13:00", "name": "USPS COLLECTION BOX - BLUE BOX", "note": "ON 12/24 AND 12/31, THIS BOX MAY BE COLLECTED AS EARLY AS 12 NOON.", "nsi_id": "unitedstatespostalservice-a77078", "operator": "United States Postal Service", "operator:short": "USPS", "operator:type": "public", "operator:wikidata": "Q668687", "ref": "9081400020"}, "type": "Feature"}
{"dataset_attributes": {"@spider": "usps_collection_boxes", "spider:collection_time": "2023-08-25T08:24:09.950024"}, "geometry": {"coordinates": [-118.159032, 33.77523], "type": "Point"}, "id": "mIyhD_3SB-bC9Xcg6qiQ94lY9DE=", "properties": {"@spider": "usps_collection_boxes", "addr:city": "LONG BEACH", "addr:country": "US", "addr:full": "689 TEMPLE AVE", "addr:postcode": "90814", "addr:state": "CA", "amenity": "post_box", "brand": "United States Postal Service", "brand:wikidata": "Q668687", "collection_times": "Mo-Sa 13:00", "name": "USPS COLLECTION BOX - BLUE BOX", "note": "ON 12/24 AND 12/31, THIS BOX MAY BE COLLECTED AS EARLY AS 12 NOON.", "nsi_id": "unitedstatespostalservice-a77078", "operator": "United States Postal Service", "operator:short": "USPS", "operator:type": "public", "operator:wikidata": "Q668687", "ref": "9081400023"}, "type": "Feature"}
{"dataset_attributes": {"@spider": "usps_collection_boxes", "spider:collection_time": "2023-08-25T08:24:09.950024"}, "geometry": {"coordinates": [-118.108016, 33.780903], "type": "Point"}, "id": "ByX4mb2tByHjCAiHw4qUTt2fdZM=", "properties": {"@spider": "usps_collection_boxes", "addr:city": "LONG BEACH", "addr:country": "US", "addr:full": "1198 PALO VERDE AVE", "addr:postcode": "90815", "addr:state": "CA", "amenity": "post_box", "brand": "United States Postal Service", "brand:wikidata": "Q668687", "collection_times": "Mo-Sa 13:00", "name": "USPS COLLECTION BOX - BLUE BOX", "note": "ON 12/24 AND 12/31, THIS BOX MAY BE COLLECTED AS EARLY AS 12 NOON.", "nsi_id": "unitedstatespostalservice-a77078", "operator": "United States Postal Service", "operator:short": "USPS", "operator:type": "public", "operator:wikidata": "Q668687", "ref": "9081500002"}, "type": "Feature"}
{"dataset_attributes": {"@spider": "usps_collection_boxes", "spider:collection_time": "2023-08-25T08:24:09.950024"}, "geometry": {"coordinates": [-118.120832, 33.805688], "type": "Point"}, "id": "CGDQfYoCDgCIubG1J4E1Lu-2eY4=", "properties": {"@spider": "usps_collection_boxes", "addr:city": "LONG BEACH", "addr:country": "US", "addr:full": "5668 E DEBORAH ST", "addr:postcode": "90815", "addr:state": "CA", "amenity": "post_box", "brand": "United States Postal Service", "brand:wikidata": "Q668687", "collection_times": "Mo-Sa 13:00", "name": "USPS COLLECTION BOX - BLUE BOX", "note": "ON 12/24 AND 12/31, THIS BOX MAY BE COLLECTED AS EARLY AS 12 NOON.", "nsi_id": "unitedstatespostalservice-a77078", "operator": "United States Postal Service", "operator:short": "USPS", "operator:type": "public", "operator:wikidata": "Q668687", "ref": "9081500010"}, "type": "Feature"}
{"dataset_attributes": {"@spider": "usps_collection_boxes", "spider:collection_time": "2023-08-25T08:24:09.950024"}, "geometry": {"coordinates": [-118.12502, 33.80615], "type": "Point"}, "id": "jP_1K-XaTU6vpOcNzoANfqV19uE=", "properties": {"@spider": "usps_collection_boxes", "addr:city": "LONG BEACH", "addr:country": "US", "addr:full": "2750 N BELLFLOWER BLVD", "addr:postcode": "90815", "addr:state": "CA", "amenity": "post_box", "brand": "United States Postal Service", "brand:wikidata": "Q668687", "collection_times": "Mo-Fr 15:00; Sa 13:00", "name": "USPS COLLECTION BOX - BLUE BOX", "note": "ON 12/24 AND 12/31, THIS BOX MAY BE COLLECTED AS EARLY AS 12 NOON.", "nsi_id": "unitedstatespostalservice-a77078", "operator": "United States Postal Service", "operator:short": "USPS", "operator:type": "public", "operator:wikidata": "Q668687", "ref": "9081500012"}, "type": "Feature"}
{"dataset_attributes": {"@spider": "usps_collection_boxes", "spider:collection_time": "2023-08-25T08:24:09.950024"}, "geometry": {"coordinates": [-118.110062, 33.810364], "type": "Point"}, "id": "uB8Q6WBoxzytJFUW-7SrQSnhQ0A=", "properties": {"@spider": "usps_collection_boxes", "addr:city": "LONG BEACH", "addr:country": "US", "addr:full": "6226 E SPRING ST", "addr:postcode": "90815", "addr:state": "CA", "amenity": "post_box", "brand": "United States Postal Service", "brand:wikidata": "Q668687", "collection_times": "Mo-Fr 15:00; Sa 13:00", "name": "USPS COLLECTION BOX - BLUE BOX", "note": "ON 12/24 AND 12/31, THIS BOX MAY BE COLLECTED AS EARLY AS 12 NOON.", "nsi_id": "unitedstatespostalservice-a77078", "operator": "United States Postal Service", "operator:short": "USPS", "operator:type": "public", "operator:wikidata": "Q668687", "ref": "9081500014"}, "type": "Feature"}
{"dataset_attributes": {"@spider": "usps_collection_boxes", "spider:collection_time": "2023-08-25T08:24:09.950024"}, "geometry": {"coordinates": [-118.101168, 33.806965], "type": "Point"}, "id": "3knx4dcDwTOYm8t6Vi9vwp_J2GA=", "properties": {"@spider": "usps_collection_boxes", "addr:city": "LONG BEACH", "addr:country": "US", "addr:full": "2803 OSTROM AVE", "addr:postcode": "90815", "addr:state": "CA", "amenity": "post_box", "brand": "United States Postal Service", "brand:wikidata": "Q668687", "collection_times": "Mo-Sa 13:00", "name": "USPS COLLECTION BOX - BLUE BOX", "note": "ON 12/24 AND 12/31, THIS BOX MAY BE COLLECTED AS EARLY AS 12 NOON.", "nsi_id": "unitedstatespostalservice-a77078", "operator": "United States Postal Service", "operator:short": "USPS", "operator:type": "public", "operator:wikidata": "Q668687", "ref": "9081500015"}, "type": "Feature"}
{"dataset_attributes": {"@spider": "usps_collection_boxes", "spider:collection_time": "2023-08-25T08:24:09.950024"}, "geometry": {"coordinates": [-118.108118, 33.79143], "type": "Point"}, "id": "E4qg-yLa66ivfPdJQ47fQAkrJZ0=", "properties": {"@spider": "usps_collection_boxes", "addr:city": "LONG BEACH", "addr:country": "US", "addr:full": "1945 PALO VERDE AVE", "addr:postcode": "90815", "addr:state": "CA", "amenity": "post_box", "brand": "United States Postal Service", "brand:wikidata": "Q668687", "collection_times": "Mo-Sa 13:00", "name": "USPS COLLECTION BOX - BLUE BOX", "note": "ON 12/24 AND 12/31, THIS BOX MAY BE COLLECTED AS EARLY AS 12 NOON.", "nsi_id": "unitedstatespostalservice-a77078", "operator": "United States Postal Service", "operator:short": "USPS", "operator:type": "public", "operator:wikidata": "Q668687", "ref": "9081500017"}, "type": "Feature"}
{"dataset_attributes": {"@spider": "usps_collection_boxes", "spider:collection_time": "2023-08-25T08:24:09.950024"}, "geometry": {"coordinates": [-118.098929, 33.792255], "type": "Point"}, "id": "vRb0cAYuwLzE93EH3_JxcxaFE9o=", "properties": {"@spider": "usps_collection_boxes", "addr:city": "LONG BEACH", "addr:country": "US", "addr:full": "2002 N STUDEBAKER RD", "addr:postcode": "90815", "addr:state": "CA", "amenity": "post_box", "brand": "United States Postal Service", "brand:wikidata": "Q668687", "collection_times": "Mo-Sa 13:00", "name": "USPS COLLECTION BOX - BLUE BOX", "note": "ON 12/24 AND 12/31, THIS BOX MAY BE COLLECTED AS EARLY AS 12 NOON.", "nsi_id": "unitedstatespostalservice-a77078", "operator": "United States Postal Service", "operator:short": "USPS", "operator:type": "public", "operator:wikidata": "Q668687", "ref": "9081500020"}, "type": "Feature"}
{"dataset_attributes": {"@spider": "usps_collection_boxes", "spider:collection_time": "2023-08-25T08:24:09.950024"}, "geometry": {"coordinates": [-118.1135051019, 33.7956466378], "type": "Point"}, "id": "BD1pRRl78K_K-AyWYIz4kWmKfaI=", "properties": {"@spider": "usps_collection_boxes", "addr:city": "LONG BEACH", "addr:country": "US", "addr:full": "2191 GONDAR AVE", "addr:postcode": "90815", "addr:state": "CA", "amenity": "post_box", "brand": "United States Postal Service", "brand:wikidata": "Q668687", "collection_times": "Mo-Sa 13:00", "name": "USPS COLLECTION BOX - BLUE BOX", "note": "ON 12/24 AND 12/31, THIS BOX MAY BE COLLECTED AS EARLY AS 12 NOON.", "nsi_id": "unitedstatespostalservice-a77078", "operator": "United States Postal Service", "operator:short": "USPS", "operator:type": "public", "operator:wikidata": "Q668687", "ref": "9081500021"}, "type": "Feature"}
{"dataset_attributes": {"@spider": "usps_collection_boxes", "spider:collection_time": "2023-08-25T08:24:09.950024"}, "geometry": {"coordinates": [-118.109705, 33.774521], "type": "Point"}, "id": "jVExg0RoqwKQqpAP-x9J83LoFKQ=", "properties": {"@spider": "usps_collection_boxes", "addr:city": "LONG BEACH", "addr:country": "US", "addr:full": "6376 RIVIERA CIR", "addr:postcode": "90815", "addr:state": "CA", "amenity": "post_box", "brand": "United States Postal Service", "brand:wikidata": "Q668687", "collection_times": "Mo-Sa 13:00", "name": "USPS COLLECTION BOX - BLUE BOX", "note": "ON 12/24 AND 12/31, THIS BOX MAY BE COLLECTED AS EARLY AS 12 NOON.", "nsi_id": "unitedstatespostalservice-a77078", "operator": "United States Postal Service", "operator:short": "USPS", "operator:type": "public", "operator:wikidata": "Q668687", "ref": "9081500023"}, "type": "Feature"}
{"dataset_attributes": {"@spider": "usps_collection_boxes", "spider:collection_time": "2023-08-25T08:24:09.950024"}, "geometry": {"coordinates": [-118.133154, 33.792095], "type": "Point"}, "id": "Ldw5ScnWRDooxWNOViW61tCGzl0=", "properties": {"@spider": "usps_collection_boxes", "addr:city": "LONG BEACH", "addr:country": "US", "addr:full": "2003 N GREENBRIER RD", "addr:postcode": "90815", "addr:state": "CA", "amenity": "post_box", "brand": "United States Postal Service", "brand:wikidata": "Q668687", "collection_times": "Mo-Sa 13:00", "name": "USPS COLLECTION BOX - BLUE BOX", "note": "ON 12/24 AND 12/31, THIS BOX MAY BE COLLECTED AS EARLY AS 12 NOON.", "nsi_id": "unitedstatespostalservice-a77078", "operator": "United States Postal Service", "operator:short": "USPS", "operator:type": "public", "operator:wikidata": "Q668687", "ref": "9081500025"}, "type": "Feature"}
{"dataset_attributes": {"@spider": "usps_collection_boxes", "spider:collection_time": "2023-08-25T08:24:09.950024"}, "geometry": {"coordinates": [-118.107247, 33.809841], "type": "Point"}, "id": "QNGbJmB_Rq9gR7SZeidscAVwdA8=", "properties": {"@spider": "usps_collection_boxes", "addr:city": "LONG BEACH", "addr:country": "US", "addr:full": "6414 E SPRING ST", "addr:postcode": "90815", "addr:state": "CA", "amenity": "post_box", "brand": "United States Postal Service", "brand:wikidata": "Q668687", "collection_times": "Mo-Fr 15:00; Sa 13:00", "name": "USPS COLLECTION BOX - BLUE BOX", "note": "ON 12/24 AND 12/31, THIS BOX MAY BE COLLECTED AS EARLY AS 12 NOON.", "nsi_id": "unitedstatespostalservice-a77078", "operator": "United States Postal Service", "operator:short": "USPS", "operator:type": "public", "operator:wikidata": "Q668687", "ref": "9081500028"}, "type": "Feature"}
{"dataset_attributes": {"@spider": "usps_collection_boxes", "spider:collection_time": "2023-08-25T08:24:09.950024"}, "geometry": {"coordinates": [-118.1008370836, 33.7793581363], "type": "Point"}, "id": "arQT417qRTtwUE4vaKguTEzRa8Q=", "properties": {"@spider": "usps_collection_boxes", "addr:city": "LONG BEACH", "addr:country": "US", "addr:full": "881 ROXANNE AVE", "addr:postcode": "90815", "addr:state": "CA", "amenity": "post_box", "brand": "United States Postal Service", "brand:wikidata": "Q668687", "collection_times": "Mo-Sa 13:00", "name": "USPS COLLECTION BOX - BLUE BOX", "note": "ON 12/24 AND 12/31, THIS BOX MAY BE COLLECTED AS EARLY AS 12 NOON.", "nsi_id": "unitedstatespostalservice-a77078", "operator": "United States Postal Service", "operator:short": "USPS", "operator:type": "public", "operator:wikidata": "Q668687", "ref": "9081500029"}, "type": "Feature"}
{"dataset_attributes": {"@spider": "usps_collection_boxes", "spider:collection_time": "2023-08-25T08:24:09.950024"}, "geometry": {"coordinates": [-118.138775, 33.790259], "type": "Point"}, "id": "3zDExiXqr2WZA_kiBJ9ZvfpBiLg=", "properties": {"@spider": "usps_collection_boxes", "addr:city": "LONG BEACH", "addr:country": "US", "addr:full": "1800 XIMENO AVE", "addr:postcode": "90815", "addr:state": "CA", "amenity": "post_box", "brand": "United States Postal Service", "brand:wikidata": "Q668687", "collection_times": "Mo-Fr 15:00; Sa 13:00", "name": "USPS COLLECTION BOX - BLUE BOX", "note": "ON 12/24 AND 12/31, THIS BOX MAY BE COLLECTED AS EARLY AS 12 NOON.", "nsi_id": "unitedstatespostalservice-a77078", "operator": "United States Postal Service", "operator:short": "USPS", "operator:type": "public", "operator:wikidata": "Q668687", "ref": "9081500033"}, "type": "Feature"}
{"dataset_attributes": {"@spider": "usps_collection_boxes", "spider:collection_time": "2023-08-25T08:24:09.950024"}, "geometry": {"coordinates": [-118.1306911765, 33.7833757814], "type": "Point"}, "id": "c1xEwGIW-jKulqgawMPw7db2B10=", "properties": {"@spider": "usps_collection_boxes", "addr:city": "LONG BEACH", "addr:country": "US", "addr:full": "5265 E ANAHEIM RD", "addr:postcode": "90815", "addr:state": "CA", "amenity": "post_box", "brand": "United States Postal Service", "brand:wikidata": "Q668687", "collection_times": "Mo-Sa 13:00", "name": "USPS COLLECTION BOX - BLUE BOX", "note": "ON 12/24 AND 12/31, THIS BOX MAY BE COLLECTED AS EARLY AS 12 NOON.", "nsi_id": "unitedstatespostalservice-a77078", "operator": "United States Postal Service", "operator:short": "USPS", "operator:type": "public", "operator:wikidata": "Q668687", "ref": "9081500037"}, "type": "Feature"}
{"dataset_attributes": {"@spider": "usps_collection_boxes", "spider:collection_time": "2023-08-25T08:24:09.950024"}, "geometry": {"coordinates": [-118.107826, 33.79519], "type": "Point"}, "id": "hMnE-zO7_LN8r2PcyF24_RrikOo=", "properties": {"@spider": "usps_collection_boxes", "addr:city": "LONG BEACH", "addr:country": "US", "addr:full": "6400A E STEARNS ST", "addr:postcode": "90815", "addr:state": "CA", "amenity": "post_box", "brand": "United States Postal Service", "brand:wikidata": "Q668687", "collection_times": "Mo-Sa 13:00", "name": "USPS COLLECTION BOX - BLUE BOX", "note": "ON 12/24 AND 12/31, THIS BOX MAY BE COLLECTED AS EARLY AS 12 NOON.", "nsi_id": "unitedstatespostalservice-a77078", "operator": "United States Postal Service", "operator:short": "USPS", "operator:type": "public", "operator:wikidata": "Q668687", "ref": "9081500038"}, "type": "Feature"}
{"dataset_attributes": {"@spider": "usps_collection_boxes", "spider:collection_time": "2023-08-25T08:24:09.950024"}, "geometry": {"coordinates": [-118.133288, 33.784418], "type": "Point"}, "id": "whjePlLRfNep0ARXb8TOsC9FD5U=", "properties": {"@spider": "usps_collection_boxes", "addr:city": "LONG BEACH", "addr:country": "US", "addr:full": "5116 E ANAHEIM RD", "addr:postcode": "90815", "addr:state": "CA", "amenity": "post_box", "brand": "United States Postal Service", "brand:wikidata": "Q668687", "collection_times": "Mo-Sa 13:00", "name": "USPS COLLECTION BOX - BLUE BOX", "note": "ON 12/24 AND 12/31, THIS BOX MAY BE COLLECTED AS EARLY AS 12 NOON.", "nsi_id": "unitedstatespostalservice-a77078", "operator": "United States Postal Service", "operator:short": "USPS", "operator:type": "public", "operator:wikidata": "Q668687", "ref": "9081500043"}, "type": "Feature"}
{"dataset_attributes": {"@spider": "usps_collection_boxes", "spider:collection_time": "2023-08-25T08:24:09.950024"}, "geometry": {"coordinates": [-118.133681, 33.789227], "type": "Point"}, "id": "TZmfi96k4HGPFNprPCG3JKa9jd0=", "properties": {"@spider": "usps_collection_boxes", "addr:city": "LONG BEACH", "addr:country": "US", "addr:full": "1772 CLARK AVE", "addr:postcode": "90815", "addr:state": "CA", "amenity": "post_box", "brand": "United States Postal Service", "brand:wikidata": "Q668687", "collection_times": "Mo-Sa 13:00", "name": "USPS COLLECTION BOX - BLUE BOX", "note": "ON 12/24 AND 12/31, THIS BOX MAY BE COLLECTED AS EARLY AS 12 NOON.", "nsi_id": "unitedstatespostalservice-a77078", "operator": "United States Postal Service", "operator:short": "USPS", "operator:type": "public", "operator:wikidata": "Q668687", "ref": "9081500044"}, "type": "Feature"}
{"dataset_attributes": {"@spider": "usps_collection_boxes", "spider:collection_time": "2023-08-25T08:24:09.950024"}, "geometry": {"coordinates": [-118.102711, 33.795432], "type": "Point"}, "id": "H6ViXs10yx6sOq3QwBzrBHFoRIE=", "properties": {"@spider": "usps_collection_boxes", "addr:city": "LONG BEACH", "addr:country": "US", "addr:full": "6702 E EL PROGRESO ST", "addr:postcode": "90815", "addr:state": "CA", "amenity": "post_box", "brand": "United States Postal Service", "brand:wikidata": "Q668687", "collection_times": "Mo-Sa 13:00", "name": "USPS COLLECTION BOX - BLUE BOX", "note": "ON 12/24 AND 12/31, THIS BOX MAY BE COLLECTED AS EARLY AS 12 NOON.", "nsi_id": "unitedstatespostalservice-a77078", "operator": "United States Postal Service", "operator:short": "USPS", "operator:type": "public", "operator:wikidata": "Q668687", "ref": "9081500045"}, "type": "Feature"}
{"dataset_attributes": {"@spider": "usps_collection_boxes", "spider:collection_time": "2023-08-25T08:24:09.950024"}, "geometry": {"coordinates": [-118.1296412773, 33.8039978418], "type": "Point"}, "id": "9VygiSeHVL32RR-3S20jO9-9hPw=", "properties": {"@spider": "usps_collection_boxes", "addr:city": "LONG BEACH", "addr:country": "US", "addr:full": "2620 STANBRIDGE AVE", "addr:postcode": "90815", "addr:state": "CA", "amenity": "post_box", "brand": "United States Postal Service", "brand:wikidata": "Q668687", "collection_times": "Mo-Fr 15:00; Sa 13:00", "name": "USPS COLLECTION BOX - BLUE BOX", "note": "ON 12/24 AND 12/31, THIS BOX MAY BE COLLECTED AS EARLY AS 12 NOON.", "nsi_id": "unitedstatespostalservice-a77078", "operator": "United States Postal Service", "operator:short": "USPS", "operator:type": "public", "operator:wikidata": "Q668687", "ref": "9081500047"}, "type": "Feature"}
{"dataset_attributes": {"@spider": "usps_collection_boxes", "spider:collection_time": "2023-08-25T08:24:09.950024"}, "geometry": {"coordinates": [-118.124273588, 33.7884169409], "type": "Point"}, "id": "M6K8iBEvz3n20gAypbgFIpcC-lI=", "properties": {"@spider": "usps_collection_boxes", "addr:city": "LONG BEACH", "addr:country": "US", "addr:full": "1790 N BELLFLOWER BLVD", "addr:postcode": "90815", "addr:state": "CA", "amenity": "post_box", "brand": "United States Postal Service", "brand:wikidata": "Q668687", "collection_times": "Mo-Sa 13:00", "name": "USPS COLLECTION BOX - BLUE BOX", "note": "ON 12/24 AND 12/31, THIS BOX MAY BE COLLECTED AS EARLY AS 12 NOON.", "nsi_id": "unitedstatespostalservice-a77078", "operator": "United States Postal Service", "operator:short": "USPS", "operator:type": "public", "operator:wikidata": "Q668687", "ref": "9081500048"}, "type": "Feature"}
{"dataset_attributes": {"@spider": "usps_collection_boxes", "spider:collection_time": "2023-08-25T08:24:09.950024"}, "geometry": {"coordinates": [-118.106403, 33.783893], "type": "Point"}, "id": "bk72SwkpxBODX6-_eEQQYbweRzU=", "properties": {"@spider": "usps_collection_boxes", "addr:city": "LONG BEACH", "addr:country": "US", "addr:full": "6461 E DE LEON ST", "addr:postcode": "90815", "addr:state": "CA", "amenity": "post_box", "brand": "United States Postal Service", "brand:wikidata": "Q668687", "collection_times": "Mo-Sa 13:00", "name": "USPS COLLECTION BOX - BLUE BOX", "note": "ON 12/24 AND 12/31, THIS BOX MAY BE COLLECTED AS EARLY AS 12 NOON.", "nsi_id": "unitedstatespostalservice-a77078", "operator": "United States Postal Service", "operator:short": "USPS", "operator:type": "public", "operator:wikidata": "Q668687", "ref": "9081500052"}, "type": "Feature"}
{"dataset_attributes": {"@spider": "usps_collection_boxes", "spider:collection_time": "2023-08-25T08:24:09.950024"}, "geometry": {"coordinates": [-118.125148, 33.794211], "type": "Point"}, "id": "DP1MABkOxUwdx4C8cPTvt5O-9Rs=", "properties": {"@spider": "usps_collection_boxes", "addr:city": "LONG BEACH", "addr:country": "US", "addr:full": "2100 N BELLFLOWER BLVD", "addr:postcode": "90815", "addr:state": "CA", "amenity": "post_box", "brand": "United States Postal Service", "brand:wikidata": "Q668687", "collection_times": "Mo-Sa 13:00", "name": "USPS COLLECTION BOX - BLUE BOX", "note": "ON 12/24 AND 12/31, THIS BOX MAY BE COLLECTED AS EARLY AS 12 NOON.", "nsi_id": "unitedstatespostalservice-a77078", "operator": "United States Postal Service", "operator:short": "USPS", "operator:type": "public", "operator:wikidata": "Q668687", "ref": "9081500057"}, "type": "Feature"}
{"dataset_attributes": {"@spider": "usps_collection_boxes", "spider:collection_time": "2023-08-25T08:24:09.950024"}, "geometry": {"coordinates": [-118.107819, 33.788946], "type": "Point"}, "id": "gfilgqE0qFmKRjmSlCa8iDZMtYo=", "properties": {"@spider": "usps_collection_boxes", "addr:city": "LONG BEACH", "addr:country": "US", "addr:full": "1800 PALO VERDE AVE", "addr:postcode": "90815", "addr:state": "CA", "amenity": "post_box", "brand": "United States Postal Service", "brand:wikidata": "Q668687", "collection_times": "Mo-Sa 13:00", "name": "USPS COLLECTION BOX - BLUE BOX", "note": "ON 12/24 AND 12/31, THIS BOX MAY BE COLLECTED AS EARLY AS 12 NOON.", "nsi_id": "unitedstatespostalservice-a77078", "operator": "United States Postal Service", "operator:short": "USPS", "operator:type": "public", "operator:wikidata": "Q668687", "ref": "9081500065"}, "type": "Feature"}
{"dataset_attributes": {"@spider": "usps_collection_boxes", "spider:collection_time": "2023-08-25T08:24:09.950024"}, "geometry": {"coordinates": [-118.125464, 33.795055], "type": "Point"}, "id": "nDncfsvp_yTYBN6IjUZJgvqHtjE=", "properties": {"@spider": "usps_collection_boxes", "addr:city": "LONG BEACH", "addr:country": "US", "addr:full": "2141 N BELLFLOWER BLVD", "addr:postcode": "90815", "addr:state": "CA", "amenity": "post_box", "brand": "United States Postal Service", "brand:wikidata": "Q668687", "collection_times": "Mo-Sa 13:00", "name": "USPS COLLECTION BOX - BLUE BOX", "note": "ON 12/24 AND 12/31, THIS BOX MAY BE COLLECTED AS EARLY AS 12 NOON.", "nsi_id": "unitedstatespostalservice-a77078", "operator": "United States Postal Service", "operator:short": "USPS", "operator:type": "public", "operator:wikidata": "Q668687", "ref": "9081500069"}, "type": "Feature"}
{"dataset_attributes": {"@spider": "usps_collection_boxes", "spider:collection_time": "2023-08-25T08:24:09.950024"}, "geometry": {"coordinates": [-118.137403, 33.811032], "type": "Point"}, "id": "q364_GdHagvX9dwUkZymcOD_v-4=", "properties": {"@spider": "usps_collection_boxes", "addr:city": "LONG BEACH", "addr:country": "US", "addr:full": "4700 AIRPORT PLAZA DR", "addr:postcode": "90815", "addr:state": "CA", "amenity": "post_box", "brand": "United States Postal Service", "brand:wikidata": "Q668687", "collection_times": "Mo-Fr 15:00; Sa 13:00", "name": "USPS COLLECTION BOX - BLUE BOX", "note": "ON 12/24 AND 12/31, THIS BOX MAY BE COLLECTED AS EARLY AS 12 NOON.", "nsi_id": "unitedstatespostalservice-a77078", "operator": "United States Postal Service", "operator:short": "USPS", "operator:type": "public", "operator:wikidata": "Q668687", "ref": "9081500073"}, "type": "Feature"}
{"dataset_attributes": {"@spider": "usps_collection_boxes", "spider:collection_time": "2023-08-25T08:24:09.950024"}, "geometry": {"coordinates": [-118.122912, 33.796971], "type": "Point"}, "id": "JOB2kHVgxa1egcN9xZkgF2z66V8=", "properties": {"@spider": "usps_collection_boxes", "addr:city": "LONG BEACH", "addr:country": "US", "addr:full": "2234 N BELLFLOWER BLVD LOBBY", "addr:postcode": "90815", "addr:state": "CA", "amenity": "post_box", "brand": "United States Postal Service", "brand:wikidata": "Q668687", "collection_times": "Mo-Fr 17:30; Sa 15:00", "name": "USPS COLLECTION BOX - PO LOBBY", "note": "ON 12/24 AND 12/31, THIS BOX MAY BE COLLECTED AS EARLY AS 12 NOON.", "nsi_id": "unitedstatespostalservice-a77078", "operator": "United States Postal Service", "operator:short": "USPS", "operator:type": "public", "operator:wikidata": "Q668687", "ref": "9081500080"}, "type": "Feature"}
{"dataset_attributes": {"@spider": "usps_collection_boxes", "spider:collection_time": "2023-08-25T08:24:09.950024"}, "geometry": {"coordinates": [-118.1426280124, 33.7918545679], "type": "Point"}, "id": "SVKs5_CelAo7QyG_-N0QP2FmR-c=", "properties": {"@spider": "usps_collection_boxes", "addr:city": "LONG BEACH", "addr:country": "US", "addr:full": "1930 N LAKEWOOD BLVD", "addr:postcode": "90815", "addr:state": "CA", "amenity": "post_box", "brand": "United States Postal Service", "brand:wikidata": "Q668687", "collection_times": "Mo-Sa 13:00", "name": "USPS COLLECTION BOX - BLUE BOX", "note": "ON 12/24 AND 12/31, THIS BOX MAY BE COLLECTED AS EARLY AS 12 NOON.", "nsi_id": "unitedstatespostalservice-a77078", "operator": "United States Postal Service", "operator:short": "USPS", "operator:type": "public", "operator:wikidata": "Q668687", "ref": "9081500081"}, "type": "Feature"}
{"dataset_attributes": {"@spider": "usps_collection_boxes", "spider:collection_time": "2023-08-25T08:24:09.950024"}, "geometry": {"coordinates": [-118.122912, 33.796971], "type": "Point"}, "id": "6G1T0DqSpBSjMIEWyadaRJvjPdc=", "properties": {"@spider": "usps_collection_boxes", "addr:city": "LONG BEACH", "addr:country": "US", "addr:full": "2234 N BELLFLOWER BLVD LOBBY", "addr:postcode": "90815", "addr:state": "CA", "amenity": "post_box", "brand": "United States Postal Service", "brand:wikidata": "Q668687", "collection_times": "Mo-Fr 17:30; Sa 15:00", "name": "USPS COLLECTION BOX - APC", "note": "ON 12/24 AND 12/31, THIS BOX MAY BE COLLECTED AS EARLY AS 12 NOON.", "nsi_id": "unitedstatespostalservice-a77078", "operator": "United States Postal Service", "operator:short": "USPS", "operator:type": "public", "operator:wikidata": "Q668687", "ref": "9081500082"}, "type": "Feature"}
{"dataset_attributes": {"@spider": "usps_collection_boxes", "spider:collection_time": "2023-08-25T08:24:09.950024"}, "geometry": {"coordinates": [-118.14814139, 33.8010481662], "type": "Point"}, "id": "8nTDTMiE47I_nGoWLZS6RdtOAuU=", "properties": {"@spider": "usps_collection_boxes", "addr:city": "LONG BEACH", "addr:country": "US", "addr:full": "2371 GRAND AVE LBBY", "addr:postcode": "90815", "addr:state": "CA", "amenity": "post_box", "brand": "United States Postal Service", "brand:wikidata": "Q668687", "collection_times": "Mo-Sa 17:00", "name": "USPS COLLECTION BOX - PO LOBBY", "note": "ON 12/24 AND 12/31, THIS BOX MAY BE COLLECTED AS EARLY AS 12 NOON.", "nsi_id": "unitedstatespostalservice-a77078", "operator": "United States Postal Service", "operator:short": "USPS", "operator:type": "public", "operator:wikidata": "Q668687", "ref": "9081500085"}, "type": "Feature"}
{"dataset_attributes": {"@spider": "usps_collection_boxes", "spider:collection_time": "2023-08-25T08:24:09.950024"}, "geometry": {"coordinates": [-118.14814139, 33.8010481662], "type": "Point"}, "id": "qN7RJO0ti9qauKihQy3RBst0aAk=", "properties": {"@spider": "usps_collection_boxes", "addr:city": "LONG BEACH", "addr:country": "US", "addr:full": "2371 GRAND AVE LBBY", "addr:postcode": "90815", "addr:state": "CA", "amenity": "post_box", "brand": "United States Postal Service", "brand:wikidata": "Q668687", "collection_times": "Mo-Sa 17:00", "name": "USPS COLLECTION BOX - APC", "note": "ON 12/24 AND 12/31, THIS BOX MAY BE COLLECTED AS EARLY AS 12 NOON.", "nsi_id": "unitedstatespostalservice-a77078", "operator": "United States Postal Service", "operator:short": "USPS", "operator:type": "public", "operator:wikidata": "Q668687", "ref": "9081500086"}, "type": "Feature"}
{"dataset_attributes": {"@spider": "usps_collection_boxes", "spider:collection_time": "2023-08-25T08:24:09.950024"}, "geometry": {"coordinates": [-118.14814139, 33.801048166], "type": "Point"}, "id": "k7G9sb7aJ0SAFjYelwJIYqQUJBE=", "properties": {"@spider": "usps_collection_boxes", "addr:city": "LONG BEACH", "addr:country": "US", "addr:full": "2371 GRAND AVE", "addr:postcode": "90815", "addr:state": "CA", "amenity": "post_box", "brand": "United States Postal Service", "brand:wikidata": "Q668687", "collection_times": "Mo-Sa 17:00", "name": "USPS COLLECTION BOX - BLUE BOX", "note": "ON 12/24 AND 12/31, THIS BOX MAY BE COLLECTED AS EARLY AS 12 NOON.", "nsi_id": "unitedstatespostalservice-a77078", "operator": "United States Postal Service", "operator:short": "USPS", "operator:type": "public", "operator:wikidata": "Q668687", "ref": "9081500087"}, "type": "Feature"}
{"dataset_attributes": {"@spider": "usps_collection_boxes", "spider:collection_time": "2023-08-25T08:24:09.950024"}, "geometry": {"coordinates": [-118.14814139, 33.8010481662], "type": "Point"}, "id": "-lJDMXpZADRQJB8i6pysMZWHdlY=", "properties": {"@spider": "usps_collection_boxes", "addr:city": "LONG BEACH", "addr:country": "US", "addr:full": "2371 GRAND AVE", "addr:postcode": "90815", "addr:state": "CA", "amenity": "post_box", "brand": "United States Postal Service", "brand:wikidata": "Q668687", "collection_times": "Mo-Sa 17:00", "name": "USPS COLLECTION BOX - BLUE BOX", "note": "ON 12/24 AND 12/31, THIS BOX MAY BE COLLECTED AS EARLY AS 12 NOON.", "nsi_id": "unitedstatespostalservice-a77078", "operator": "United States Postal Service", "operator:short": "USPS", "operator:type": "public", "operator:wikidata": "Q668687", "ref": "9081500089"}, "type": "Feature"}
{"dataset_attributes": {"@spider": "usps_collection_boxes", "spider:collection_time": "2023-08-25T08:24:09.950024"}, "geometry": {"coordinates": [-118.149705, 33.800535], "type": "Point"}, "id": "UAgJE4Gak4aoR5DvPPwFpqR8OQw=", "properties": {"@spider": "usps_collection_boxes", "addr:city": "LONG BEACH", "addr:country": "US", "addr:full": "2371 GRAND AVE LOBBY", "addr:postcode": "90815", "addr:state": "CA", "amenity": "post_box", "brand": "United States Postal Service", "brand:wikidata": "Q668687", "collection_times": "Mo-Sa 17:00", "name": "USPS COLLECTION BOX - PO LOBBY", "note": "ON 12/24 AND 12/31, THIS BOX MAY BE COLLECTED AS EARLY AS 12 NOON.", "nsi_id": "unitedstatespostalservice-a77078", "operator": "United States Postal Service", "operator:short": "USPS", "operator:type": "public", "operator:wikidata": "Q668687", "ref": "9081500094"}, "type": "Feature"}
{"dataset_attributes": {"@spider": "usps_collection_boxes", "spider:collection_time": "2023-08-25T08:24:09.950024"}, "geometry": {"coordinates": [-118.122912, 33.796971], "type": "Point"}, "id": "wGje5eoOLiPbWemcTgr7KNDY4Sg=", "properties": {"@spider": "usps_collection_boxes", "addr:city": "LONG BEACH", "addr:country": "US", "addr:full": "2234 N BELLFLOWER BLVD LOBBY", "addr:postcode": "90815", "addr:state": "CA", "amenity": "post_box", "brand": "United States Postal Service", "brand:wikidata": "Q668687", "collection_times": "Mo-Fr 17:30; Sa 15:00", "name": "USPS COLLECTION BOX - PO LOBBY", "note": "ON 12/24 AND 12/31, THIS BOX MAY BE COLLECTED AS EARLY AS 12 NOON.", "nsi_id": "unitedstatespostalservice-a77078", "operator": "United States Postal Service", "operator:short": "USPS", "operator:type": "public", "operator:wikidata": "Q668687", "ref": "9081500095"}, "type": "Feature"}
{"dataset_attributes": {"@spider": "usps_collection_boxes", "spider:collection_time": "2023-08-25T08:24:09.950024"}, "geometry": {"coordinates": [-118.134569003, 33.807258012], "type": "Point"}, "id": "VLYKX5BipwTBcR7UeWh8CGXHOYg=", "properties": {"@spider": "usps_collection_boxes", "addr:city": "LONG BEACH", "addr:country": "US", "addr:full": "5000 AIRPORT PLAZA DR", "addr:postcode": "90815", "addr:state": "CA", "amenity": "post_box", "brand": "United States Postal Service", "brand:wikidata": "Q668687", "collection_times": "Mo-Fr 15:00", "name": "USPS COLLECTION BOX - BLUE BOX", "note": "ON 12/24 AND 12/31, THIS BOX MAY BE COLLECTED AS EARLY AS 12 NOON.", "nsi_id": "unitedstatespostalservice-a77078", "operator": "United States Postal Service", "operator:short": "USPS", "operator:type": "public", "operator:wikidata": "Q668687", "ref": "9081500101"}, "type": "Feature"}
{"dataset_attributes": {"@spider": "usps_collection_boxes", "spider:collection_time": "2023-08-25T08:24:09.950024"}, "geometry": {"coordinates": [-118.199898982, 33.767920986], "type": "Point"}, "id": "EWp_fhdyFASkcnj_Ct1j4l0Ivps=", "properties": {"@spider": "usps_collection_boxes", "addr:city": "LONG BEACH", "addr:country": "US", "addr:full": "1 WORLD TRADE CTR LOBBY", "addr:postcode": "90831", "addr:state": "CA", "amenity": "post_box", "brand": "United States Postal Service", "brand:wikidata": "Q668687", "collection_times": "Mo-Fr 17:00", "name": "USPS COLLECTION BOX - PO LOBBY", "note": "ON 12/24 AND 12/31, THIS BOX MAY BE COLLECTED AS EARLY AS 12 NOON.", "nsi_id": "unitedstatespostalservice-a77078", "operator": "United States Postal Service", "operator:short": "USPS", "operator:type": "public", "operator:wikidata": "Q668687", "ref": "9083100005"}, "type": "Feature"}
{"dataset_attributes": {"@spider": "usps_collection_boxes", "spider:collection_time": "2023-08-25T08:24:09.950024"}, "geometry": {"coordinates": [-118.199898982, 33.767920986], "type": "Point"}, "id": "yM5iW030ojkUzoGgYAcI93ZLDLM=", "properties": {"@spider": "usps_collection_boxes", "addr:city": "LONG BEACH", "addr:country": "US", "addr:full": "1 WORLD TRADE CTR LOBBY", "addr:postcode": "90831", "addr:state": "CA", "amenity": "post_box", "brand": "United States Postal Service", "brand:wikidata": "Q668687", "collection_times": "Mo-Fr 17:00", "name": "USPS COLLECTION BOX - PO LOBBY", "note": "ON 12/24 AND 12/31, THIS BOX MAY BE COLLECTED AS EARLY AS 12 NOON.", "nsi_id": "unitedstatespostalservice-a77078", "operator": "United States Postal Service", "operator:short": "USPS", "operator:type": "public", "operator:wikidata": "Q668687", "ref": "9083100006"}, "type": "Feature"}
{"dataset_attributes": {"@spider": "usps_collection_boxes", "spider:collection_time": "2023-08-25T08:24:09.950024"}, "geometry": {"coordinates": [-118.199898982, 33.767920986], "type": "Point"}, "id": "h7JVAA2Mkc3gPILUwHZpj1JlRIQ=", "properties": {"@spider": "usps_collection_boxes", "addr:city": "LONG BEACH", "addr:country": "US", "addr:full": "1 WORLD TRADE CTR LOBBY", "addr:postcode": "90831", "addr:state": "CA", "amenity": "post_box", "brand": "United States Postal Service", "brand:wikidata": "Q668687", "collection_times": "Mo-Fr 17:00", "name": "USPS COLLECTION BOX - PO LOBBY", "note": "ON 12/24 AND 12/31, THIS BOX MAY BE COLLECTED AS EARLY AS 12 NOON.", "nsi_id": "unitedstatespostalservice-a77078", "operator": "United States Postal Service", "operator:short": "USPS", "operator:type": "public", "operator:wikidata": "Q668687", "ref": "9083100007"}, "type": "Feature"}
{"dataset_attributes": {"@spider": "usps_collection_boxes", "spider:collection_time": "2023-08-25T08:24:09.950024"}, "geometry": {"coordinates": [-118.113469, 33.776412], "type": "Point"}, "id": "E-ZbA1tILJInJIP9hWlHej-o1Tk=", "properties": {"@spider": "usps_collection_boxes", "addr:city": "LONG BEACH", "addr:country": "US", "addr:full": "1250 BELLFLOWER BL/ADMIN BLDG", "addr:postcode": "90840", "addr:state": "CA", "amenity": "post_box", "brand": "United States Postal Service", "brand:wikidata": "Q668687", "collection_times": "Mo-Fr 15:00; Sa 13:00", "name": "USPS COLLECTION BOX - BLUE BOX", "note": "ON 12/24 AND 12/31, THIS BOX MAY BE COLLECTED AS EARLY AS 12 NOON.", "nsi_id": "unitedstatespostalservice-a77078", "operator": "United States Postal Service", "operator:short": "USPS", "operator:type": "public", "operator:wikidata": "Q668687", "ref": "9084000000"}, "type": "Feature"}
