{"geometry": {"coordinates": [-118.0296036932, 34.1411995299], "type": "Point"}, "id": "93JieF5gluXFIV7mBcvBknNQgt0=", "properties": {"@source_uri": "https://tools.usps.com/UspsToolsRestServices/rest/POLocator/findLocations", "@spider": "usps_collection_boxes", "addr:city": "ARCADIA", "addr:country": "US", "addr:postcode": "91006", "addr:state": "CA", "addr:street_address": "41 WHEELER AVE", "amenity": "post_box", "collection_times": "Mo-Sa 17:00", "note": "ON 12/24 AND 12/31, THIS BOX MAY BE COLLECTED AS EARLY AS 12 NOON.", "nsi_id": "unitedstatespostalservice-a77078", "operator": "United States Postal Service", "operator:short": "USPS", "operator:type": "public", "operator:wikidata": "Q668687", "ref": "9100600000"}, "type": "Feature"}
{"geometry": {"coordinates": [-118.0296036932, 34.1411995299], "type": "Point"}, "id": "f5FxGduIFNVQENQH_4p-c0vLCYk=", "properties": {"@source_uri": "https://tools.usps.com/UspsToolsRestServices/rest/POLocator/findLocations", "@spider": "usps_collection_boxes", "addr:city": "ARCADIA", "addr:country": "US", "addr:postcode": "91006", "addr:state": "CA", "addr:street_address": "41 WHEELER AVE", "amenity": "post_box", "collection_times": "Mo-Sa 17:00", "note": "ON 12/24 AND 12/31, THIS BOX MAY BE COLLECTED AS EARLY AS 12 NOON.", "nsi_id": "unitedstatespostalservice-a77078", "operator": "United States Postal Service", "operator:short": "USPS", "operator:type": "public", "operator:wikidata": "Q668687", "ref": "9100600003"}, "type": "Feature"}
{"geometry": {"coordinates": [-118.0296036932, 34.1411995299], "type": "Point"}, "id": "NAddOKsh6aCc4nDOR_EJwF9ureo=", "properties": {"@source_uri": "https://tools.usps.com/UspsToolsRestServices/rest/POLocator/findLocations", "@spider": "usps_collection_boxes", "addr:city": "ARCADIA", "addr:country": "US", "addr:postcode": "91006", "addr:state": "CA", "addr:street_address": "41 WHEELER AVE", "amenity": "post_box", "collection_times": "Mo-Sa 17:00", "note": "ON 12/24 AND 12/31, THIS BOX MAY BE COLLECTED AS EARLY AS 12 NOON.", "nsi_id": "unitedstatespostalservice-a77078", "operator": "United States Postal Service", "operator:short": "USPS", "operator:type": "public", "operator:wikidata": "Q668687", "ref": "9100600004"}, "type": "Feature"}
{"geometry": {"coordinates": [-118.0296139969, 34.1419790053], "type": "Point"}, "id": "cb9NfhfqlPJAiHrhcez8EF7CAsY=", "properties": {"@source_uri": "https://tools.usps.com/UspsToolsRestServices/rest/POLocator/findLocations", "@spider": "usps_collection_boxes", "addr:city": "ARCADIA", "addr:country": "US", "addr:postcode": "91006", "addr:state": "CA", "addr:street_address": "41 WHEELER AVE", "amenity": "post_box", "collection_times": "Mo-Sa 17:00", "note": "ON 12/24 AND 12/31, THIS BOX MAY BE COLLECTED AS EARLY AS 12 NOON.", "nsi_id": "unitedstatespostalservice-a77078", "operator": "United States Postal Service", "operator:short": "USPS", "operator:type": "public", "operator:wikidata": "Q668687", "ref": "9100600005"}, "type": "Feature"}
{"geometry": {"coordinates": [-118.028085, 34.131295], "type": "Point"}, "id": "YtlP2c3g-XhtTc5qb8MWiD4pQ_s=", "properties": {"@source_uri": "https://tools.usps.com/UspsToolsRestServices/rest/POLocator/findLocations", "@spider": "usps_collection_boxes", "addr:city": "ARCADIA", "addr:country": "US", "addr:postcode": "91006", "addr:state": "CA", "addr:street_address": "802 S 1ST AVE", "amenity": "post_box", "collection_times": "Mo-Fr 10:00; Sa 13:00", "note": "ON 12/24 AND 12/31, THIS BOX MAY BE COLLECTED AS EARLY AS 12 NOON.", "nsi_id": "unitedstatespostalservice-a77078", "operator": "United States Postal Service", "operator:short": "USPS", "operator:type": "public", "operator:wikidata": "Q668687", "ref": "9100600010"}, "type": "Feature"}
{"geometry": {"coordinates": [-118.025284, 34.151159], "type": "Point"}, "id": "_tlhF6UbUpMyfzDUQOyABPW6giE=", "properties": {"@source_uri": "https://tools.usps.com/UspsToolsRestServices/rest/POLocator/findLocations", "@spider": "usps_collection_boxes", "addr:city": "ARCADIA", "addr:country": "US", "addr:postcode": "91006", "addr:state": "CA", "addr:street_address": "201 E FOOTHILL BLVD", "amenity": "post_box", "collection_times": "Mo-Sa 10:00", "nsi_id": "unitedstatespostalservice-a77078", "operator": "United States Postal Service", "operator:short": "USPS", "operator:type": "public", "operator:wikidata": "Q668687", "ref": "9100600017"}, "type": "Feature"}
{"geometry": {"coordinates": [-118.021972, 34.14092], "type": "Point"}, "id": "E88O5tOzFYBZZpU17YZTLoTvHmI=", "properties": {"@source_uri": "https://tools.usps.com/UspsToolsRestServices/rest/POLocator/findLocations", "@spider": "usps_collection_boxes", "addr:city": "ARCADIA", "addr:country": "US", "addr:postcode": "91006", "addr:state": "CA", "addr:street_address": "411 E HUNTINGTON DR", "amenity": "post_box", "collection_times": "Mo-Sa 10:00", "nsi_id": "unitedstatespostalservice-a77078", "operator": "United States Postal Service", "operator:short": "USPS", "operator:type": "public", "operator:wikidata": "Q668687", "ref": "9100600026"}, "type": "Feature"}
{"geometry": {"coordinates": [-118.008608, 34.102739], "type": "Point"}, "id": "Z_8LqIKFVT2BpmSzXomau2h7Ru0=", "properties": {"@source_uri": "https://tools.usps.com/UspsToolsRestServices/rest/POLocator/findLocations", "@spider": "usps_collection_boxes", "addr:city": "ARCADIA", "addr:country": "US", "addr:postcode": "91006", "addr:state": "CA", "addr:street_address": "5600 PECK RD", "amenity": "post_box", "collection_times": "Mo-Sa 13:00", "note": "ON 12/24 AND 12/31, THIS BOX MAY BE COLLECTED AS EARLY AS 12 NOON.", "nsi_id": "unitedstatespostalservice-a77078", "operator": "United States Postal Service", "operator:short": "USPS", "operator:type": "public", "operator:wikidata": "Q668687", "ref": "9100600030"}, "type": "Feature"}
{"geometry": {"coordinates": [-118.0375390569, 34.1076595902], "type": "Point"}, "id": "jG8gfbh9YqIyLXHUvB-pI7h2xiY=", "properties": {"@source_uri": "https://tools.usps.com/UspsToolsRestServices/rest/POLocator/findLocations", "@spider": "usps_collection_boxes", "addr:city": "ARCADIA", "addr:country": "US", "addr:postcode": "91006", "addr:state": "CA", "addr:street_address": "180 LAS TUNAS DR", "amenity": "post_box", "collection_times": "Mo-Fr 13:00; Sa 10:00", "note": "ON 12/24 AND 12/31, THIS BOX MAY BE COLLECTED AS EARLY AS 12 NOON.", "nsi_id": "unitedstatespostalservice-a77078", "operator": "United States Postal Service", "operator:short": "USPS", "operator:type": "public", "operator:wikidata": "Q668687", "ref": "9100600045"}, "type": "Feature"}
{"geometry": {"coordinates": [-118.028755, 34.151133], "type": "Point"}, "id": "_jRl4p5BD0Wt4XT7fCgq2__1vHw=", "properties": {"@source_uri": "https://tools.usps.com/UspsToolsRestServices/rest/POLocator/findLocations", "@spider": "usps_collection_boxes", "addr:city": "ARCADIA", "addr:country": "US", "addr:postcode": "91006", "addr:state": "CA", "addr:street_address": "77 E FOOTHILL BLVD", "amenity": "post_box", "collection_times": "Mo-Fr 11:00; Sa 10:00", "nsi_id": "unitedstatespostalservice-a77078", "operator": "United States Postal Service", "operator:short": "USPS", "operator:type": "public", "operator:wikidata": "Q668687", "ref": "9100600047"}, "type": "Feature"}
{"geometry": {"coordinates": [-118.030097, 34.107318], "type": "Point"}, "id": "NJzaWkDAHJ25nhx158auesg8gYw=", "properties": {"@source_uri": "https://tools.usps.com/UspsToolsRestServices/rest/POLocator/findLocations", "@spider": "usps_collection_boxes", "addr:city": "ARCADIA", "addr:country": "US", "addr:postcode": "91006", "addr:state": "CA", "addr:street_address": "2 E LIVE OAK AVE", "amenity": "post_box", "collection_times": "Mo-Sa 10:00", "nsi_id": "unitedstatespostalservice-a77078", "operator": "United States Postal Service", "operator:short": "USPS", "operator:type": "public", "operator:wikidata": "Q668687", "ref": "9100600072"}, "type": "Feature"}
{"geometry": {"coordinates": [-118.0296036932, 34.1411995299], "type": "Point"}, "id": "jeHFwyDSya5ETHN_Ob7T-WSf-9I=", "properties": {"@source_uri": "https://tools.usps.com/UspsToolsRestServices/rest/POLocator/findLocations", "@spider": "usps_collection_boxes", "addr:city": "ARCADIA", "addr:country": "US", "addr:postcode": "91006", "addr:state": "CA", "addr:street_address": "41 WHEELER AVE", "amenity": "post_box", "collection_times": "Mo-Sa 17:00", "indoor": "yes", "note": "ON 12/24 AND 12/31, THIS BOX MAY BE COLLECTED AS EARLY AS 12 NOON.", "nsi_id": "unitedstatespostalservice-a77078", "operator": "United States Postal Service", "operator:short": "USPS", "operator:type": "public", "operator:wikidata": "Q668687", "ref": "9100600078"}, "type": "Feature"}
{"geometry": {"coordinates": [-118.0296036932, 34.1411995299], "type": "Point"}, "id": "yHkAM6B5uivyQp4ALi-4oWLuRBo=", "properties": {"@source_uri": "https://tools.usps.com/UspsToolsRestServices/rest/POLocator/findLocations", "@spider": "usps_collection_boxes", "addr:city": "ARCADIA", "addr:country": "US", "addr:postcode": "91006", "addr:state": "CA", "addr:street_address": "41 WHEELER AVE", "amenity": "post_box", "collection_times": "Mo-Sa 17:00", "name": "USPS COLLECTION BOX - APC", "note": "ON 12/24 AND 12/31, THIS BOX MAY BE COLLECTED AS EARLY AS 12 NOON.", "nsi_id": "unitedstatespostalservice-a77078", "operator": "United States Postal Service", "operator:short": "USPS", "operator:type": "public", "operator:wikidata": "Q668687", "ref": "9100600079"}, "type": "Feature"}
{"geometry": {"coordinates": [-118.0296036932, 34.1411995299], "type": "Point"}, "id": "M_yvB1L1Zne8rFhyCskFEHjrM2Q=", "properties": {"@source_uri": "https://tools.usps.com/UspsToolsRestServices/rest/POLocator/findLocations", "@spider": "usps_collection_boxes", "addr:city": "ARCADIA", "addr:country": "US", "addr:postcode": "91006", "addr:state": "CA", "addr:street_address": "41 WHEELER AVE", "amenity": "post_box", "collection_times": "Mo-Fr 17:00", "indoor": "yes", "note": "ON 12/24 AND 12/31, THIS BOX MAY BE COLLECTED AS EARLY AS 12 NOON.", "nsi_id": "unitedstatespostalservice-a77078", "operator": "United States Postal Service", "operator:short": "USPS", "operator:type": "public", "operator:wikidata": "Q668687", "ref": "9100600086"}, "type": "Feature"}
{"geometry": {"coordinates": [-118.043066, 34.134653], "type": "Point"}, "id": "U4Z8ZojdM07msYSU5v8amo0xA6w=", "properties": {"@source_uri": "https://tools.usps.com/UspsToolsRestServices/rest/POLocator/findLocations", "@spider": "usps_collection_boxes", "addr:city": "ARCADIA", "addr:country": "US", "addr:postcode": "91007", "addr:state": "CA", "addr:street_address": "301 W HUNTINGTON DR", "amenity": "post_box", "collection_times": "Mo-Sa 10:00", "nsi_id": "unitedstatespostalservice-a77078", "operator": "United States Postal Service", "operator:short": "USPS", "operator:type": "public", "operator:wikidata": "Q668687", "ref": "9100700002"}, "type": "Feature"}
{"geometry": {"coordinates": [-118.05187, 34.125138], "type": "Point"}, "id": "tX2Io3z9jC2nNjEz3-ROxr9zhA8=", "properties": {"@source_uri": "https://tools.usps.com/UspsToolsRestServices/rest/POLocator/findLocations", "@spider": "usps_collection_boxes", "addr:city": "ARCADIA", "addr:country": "US", "addr:postcode": "91007", "addr:state": "CA", "addr:street_address": "622 W DUARTE RD", "amenity": "post_box", "collection_times": "Mo-Sa 10:00", "nsi_id": "unitedstatespostalservice-a77078", "operator": "United States Postal Service", "operator:short": "USPS", "operator:type": "public", "operator:wikidata": "Q668687", "ref": "9100700003"}, "type": "Feature"}
{"geometry": {"coordinates": [-118.0560872931, 34.1259092312], "type": "Point"}, "id": "msvO80k_-EvJ604LgGLtBJJnytA=", "properties": {"@source_uri": "https://tools.usps.com/UspsToolsRestServices/rest/POLocator/findLocations", "@spider": "usps_collection_boxes", "addr:city": "ARCADIA", "addr:country": "US", "addr:postcode": "91007", "addr:state": "CA", "addr:street_address": "725 W DUARTE RD", "amenity": "post_box", "collection_times": "Mo-Fr 17:00; Sa 16:45", "note": "ON 12/24 AND 12/31, THIS BOX MAY BE COLLECTED AS EARLY AS 12 NOON.", "nsi_id": "unitedstatespostalservice-a77078", "operator": "United States Postal Service", "operator:short": "USPS", "operator:type": "public", "operator:wikidata": "Q668687", "ref": "9100700006"}, "type": "Feature"}
{"geometry": {"coordinates": [-118.040283992, 34.136435005], "type": "Point"}, "id": "LL5rf9wvwdGTC4gQsqpq970XNW4=", "properties": {"@source_uri": "https://tools.usps.com/UspsToolsRestServices/rest/POLocator/findLocations", "@spider": "usps_collection_boxes", "addr:city": "ARCADIA", "addr:country": "US", "addr:postcode": "91007", "addr:state": "CA", "addr:street_address": "250 W HUNTINGTON DR", "amenity": "post_box", "collection_times": "Mo-Sa 10:00", "nsi_id": "unitedstatespostalservice-a77078", "operator": "United States Postal Service", "operator:short": "USPS", "operator:type": "public", "operator:wikidata": "Q668687", "ref": "9100700015"}, "type": "Feature"}
{"geometry": {"coordinates": [-118.060071, 34.134045], "type": "Point"}, "id": "dWDXxaQk8fNErA4EU6fA7gQ-3TA=", "properties": {"@source_uri": "https://tools.usps.com/UspsToolsRestServices/rest/POLocator/findLocations", "@spider": "usps_collection_boxes", "addr:city": "ARCADIA", "addr:country": "US", "addr:postcode": "91007", "addr:state": "CA", "addr:street_address": "864 BALBOA DR", "amenity": "post_box", "collection_times": "Mo-Sa 10:00", "nsi_id": "unitedstatespostalservice-a77078", "operator": "United States Postal Service", "operator:short": "USPS", "operator:type": "public", "operator:wikidata": "Q668687", "ref": "9100700024"}, "type": "Feature"}
{"geometry": {"coordinates": [-118.043957, 34.131491], "type": "Point"}, "id": "Roz4kjuucaGiEvIwMvlqDpu2y0M=", "properties": {"@source_uri": "https://tools.usps.com/UspsToolsRestServices/rest/POLocator/findLocations", "@spider": "usps_collection_boxes", "addr:city": "ARCADIA", "addr:country": "US", "addr:postcode": "91007", "addr:state": "CA", "addr:street_address": "365 CAMPUS DR", "amenity": "post_box", "collection_times": "Mo-Sa 10:00", "nsi_id": "unitedstatespostalservice-a77078", "operator": "United States Postal Service", "operator:short": "USPS", "operator:type": "public", "operator:wikidata": "Q668687", "ref": "9100700025"}, "type": "Feature"}
{"geometry": {"coordinates": [-118.0560872931, 34.1259092312], "type": "Point"}, "id": "WOTU0dbVHSuyI0eZCo3n8OGZDHc=", "properties": {"@source_uri": "https://tools.usps.com/UspsToolsRestServices/rest/POLocator/findLocations", "@spider": "usps_collection_boxes", "addr:city": "ARCADIA", "addr:country": "US", "addr:postcode": "91007", "addr:state": "CA", "addr:street_address": "725 W DUARTE RD", "amenity": "post_box", "collection_times": "Mo-Fr 17:00; Sa 16:45", "indoor": "yes", "note": "ON 12/24 AND 12/31, THIS BOX MAY BE COLLECTED AS EARLY AS 12 NOON.", "nsi_id": "unitedstatespostalservice-a77078", "operator": "United States Postal Service", "operator:short": "USPS", "operator:type": "public", "operator:wikidata": "Q668687", "ref": "9100700026"}, "type": "Feature"}
{"geometry": {"coordinates": [-118.0560872931, 34.1259092312], "type": "Point"}, "id": "NwAFI-0LcrJVIAs-EgyGtOgfhBM=", "properties": {"@source_uri": "https://tools.usps.com/UspsToolsRestServices/rest/POLocator/findLocations", "@spider": "usps_collection_boxes", "addr:city": "ARCADIA", "addr:country": "US", "addr:postcode": "91007", "addr:state": "CA", "addr:street_address": "725 W DUARTE RD", "amenity": "post_box", "collection_times": "Mo-Fr 17:00", "indoor": "yes", "note": "ON 12/24 AND 12/31, THIS BOX MAY BE COLLECTED AS EARLY AS 12 NOON.", "nsi_id": "unitedstatespostalservice-a77078", "operator": "United States Postal Service", "operator:short": "USPS", "operator:type": "public", "operator:wikidata": "Q668687", "ref": "9100700042"}, "type": "Feature"}
{"geometry": {"coordinates": [-118.0369339967, 34.1404180015], "type": "Point"}, "id": "75nEBaPB5L4p5myIZqyr5CzZxRE=", "properties": {"@source_uri": "https://tools.usps.com/UspsToolsRestServices/rest/POLocator/findLocations", "@spider": "usps_collection_boxes", "addr:city": "ARCADIA", "addr:country": "US", "addr:postcode": "91007", "addr:state": "CA", "addr:street_address": "125 W HUNTINGTON DR", "amenity": "post_box", "collection_times": "Mo-Sa 10:00", "nsi_id": "unitedstatespostalservice-a77078", "operator": "United States Postal Service", "operator:short": "USPS", "operator:type": "public", "operator:wikidata": "Q668687", "ref": "9100700044"}, "type": "Feature"}
{"geometry": {"coordinates": [-117.966596, 34.138891], "type": "Point"}, "id": "8byRk6cWoCHfMaNhVLT314vlTD4=", "properties": {"@source_uri": "https://tools.usps.com/UspsToolsRestServices/rest/POLocator/findLocations", "@spider": "usps_collection_boxes", "addr:city": "DUARTE", "addr:country": "US", "addr:postcode": "91010", "addr:state": "CA", "addr:street_address": "1220 HIGHLAND AVE", "amenity": "post_box", "collection_times": "Mo-Fr 17:00; Sa 14:00", "note": "ON 12/24 AND 12/31, THIS BOX MAY BE COLLECTED AS EARLY AS 12 NOON.", "nsi_id": "unitedstatespostalservice-a77078", "operator": "United States Postal Service", "operator:short": "USPS", "operator:type": "public", "operator:wikidata": "Q668687", "ref": "9101000000"}, "type": "Feature"}
{"geometry": {"coordinates": [-117.966596, 34.138891], "type": "Point"}, "id": "JdzIxTstPAMuki3PV97t47GN_RA=", "properties": {"@source_uri": "https://tools.usps.com/UspsToolsRestServices/rest/POLocator/findLocations", "@spider": "usps_collection_boxes", "addr:city": "DUARTE", "addr:country": "US", "addr:postcode": "91010", "addr:state": "CA", "addr:street_address": "1220 HIGHLAND AVE", "amenity": "post_box", "collection_times": "Mo-Fr 17:00; Sa 14:00", "note": "ON 12/24 AND 12/31, THIS BOX MAY BE COLLECTED AS EARLY AS 12 NOON.", "nsi_id": "unitedstatespostalservice-a77078", "operator": "United States Postal Service", "operator:short": "USPS", "operator:type": "public", "operator:wikidata": "Q668687", "ref": "9101000001"}, "type": "Feature"}
{"geometry": {"coordinates": [-117.966596, 34.138891], "type": "Point"}, "id": "qG1y4GTEzBCzArmS0yjuE-nF_Ak=", "properties": {"@source_uri": "https://tools.usps.com/UspsToolsRestServices/rest/POLocator/findLocations", "@spider": "usps_collection_boxes", "addr:city": "DUARTE", "addr:country": "US", "addr:postcode": "91010", "addr:state": "CA", "addr:street_address": "1220 HIGHLAND AVE", "amenity": "post_box", "collection_times": "Mo-Fr 17:00; Sa 14:00", "name": "USPS COLLECTION BOX - EXPRESS", "note": "ON 12/24 AND 12/31, THIS BOX MAY BE COLLECTED AS EARLY AS 12 NOON.", "nsi_id": "unitedstatespostalservice-a77078", "operator": "United States Postal Service", "operator:short": "USPS", "operator:type": "public", "operator:wikidata": "Q668687", "ref": "9101000002"}, "type": "Feature"}
{"geometry": {"coordinates": [-117.978236, 34.141577], "type": "Point"}, "id": "cW4ue9V1myhq47lnBy7sRzXx79M=", "properties": {"@source_uri": "https://tools.usps.com/UspsToolsRestServices/rest/POLocator/findLocations", "@spider": "usps_collection_boxes", "addr:city": "DUARTE", "addr:country": "US", "addr:postcode": "91010", "addr:state": "CA", "addr:street_address": "931 BUENA VISTA ST", "amenity": "post_box", "collection_times": "Mo-Sa 10:00", "nsi_id": "unitedstatespostalservice-a77078", "operator": "United States Postal Service", "operator:short": "USPS", "operator:type": "public", "operator:wikidata": "Q668687", "ref": "9101000018"}, "type": "Feature"}
{"geometry": {"coordinates": [-117.966596, 34.138891], "type": "Point"}, "id": "2Ztc_sPr-dT6gBUyg6tT6flu0S4=", "properties": {"@source_uri": "https://tools.usps.com/UspsToolsRestServices/rest/POLocator/findLocations", "@spider": "usps_collection_boxes", "addr:city": "DUARTE", "addr:country": "US", "addr:postcode": "91010", "addr:state": "CA", "addr:street_address": "1220 HIGHLAND AVE", "amenity": "post_box", "collection_times": "Mo-Fr 17:00; Sa 14:00", "indoor": "yes", "note": "ON 12/24 AND 12/31, THIS BOX MAY BE COLLECTED AS EARLY AS 12 NOON.", "nsi_id": "unitedstatespostalservice-a77078", "operator": "United States Postal Service", "operator:short": "USPS", "operator:type": "public", "operator:wikidata": "Q668687", "ref": "9101000023"}, "type": "Feature"}
{"geometry": {"coordinates": [-117.97248, 34.13603], "type": "Point"}, "id": "jxAAoVBpmubKj7k1oko_d93jNOk=", "properties": {"@source_uri": "https://tools.usps.com/UspsToolsRestServices/rest/POLocator/findLocations", "@spider": "usps_collection_boxes", "addr:city": "DUARTE", "addr:country": "US", "addr:postcode": "91010", "addr:state": "CA", "addr:street_address": "1220 HIGHLAND AVE", "amenity": "post_box", "collection_times": "Mo-Fr 17:00; Sa 14:00", "note": "ON 12/24 AND 12/31, THIS BOX MAY BE COLLECTED AS EARLY AS 12 NOON.", "nsi_id": "unitedstatespostalservice-a77078", "operator": "United States Postal Service", "operator:short": "USPS", "operator:type": "public", "operator:wikidata": "Q668687", "ref": "9101000024"}, "type": "Feature"}
{"geometry": {"coordinates": [-117.971561, 34.139551], "type": "Point"}, "id": "m9S5km7Zqwn3o-IfV1wjrbKY9SM=", "properties": {"@source_uri": "https://tools.usps.com/UspsToolsRestServices/rest/POLocator/findLocations", "@spider": "usps_collection_boxes", "addr:city": "DUARTE", "addr:country": "US", "addr:postcode": "91010", "addr:state": "CA", "addr:street_address": "1600 HUNTINGTON DR", "amenity": "post_box", "collection_times": "Mo-Sa 10:00", "nsi_id": "unitedstatespostalservice-a77078", "operator": "United States Postal Service", "operator:short": "USPS", "operator:type": "public", "operator:wikidata": "Q668687", "ref": "9101000025"}, "type": "Feature"}
{"geometry": {"coordinates": [-117.966599266, 34.1388901676], "type": "Point"}, "id": "yDtCKTrcPV92QfHThRzE3gsJS9E=", "properties": {"@source_uri": "https://tools.usps.com/UspsToolsRestServices/rest/POLocator/findLocations", "@spider": "usps_collection_boxes", "addr:city": "DUARTE", "addr:country": "US", "addr:postcode": "91010", "addr:state": "CA", "addr:street_address": "1220 HIGHLAND AVE", "amenity": "post_box", "collection_times": "Mo-Fr 17:00", "indoor": "yes", "note": "ON 12/24 AND 12/31, THIS BOX MAY BE COLLECTED AS EARLY AS 12 NOON.", "nsi_id": "unitedstatespostalservice-a77078", "operator": "United States Postal Service", "operator:short": "USPS", "operator:type": "public", "operator:wikidata": "Q668687", "ref": "9101000035"}, "type": "Feature"}
{"geometry": {"coordinates": [-118.1918487065, 34.2007217369], "type": "Point"}, "id": "26ITz7salpnp-P5xY8ekiku3iDY=", "properties": {"@source_uri": "https://tools.usps.com/UspsToolsRestServices/rest/POLocator/findLocations", "@spider": "usps_collection_boxes", "addr:city": "LA CANADA", "addr:country": "US", "addr:postcode": "91011", "addr:state": "CA", "addr:street_address": "607 FOOTHILL BLVD", "amenity": "post_box", "collection_times": "Mo-Sa 17:00", "note": "ON 12/24 AND 12/31, THIS BOX MAY BE COLLECTED AS EARLY AS 12 NOON.", "nsi_id": "unitedstatespostalservice-a77078", "operator": "United States Postal Service", "operator:short": "USPS", "operator:type": "public", "operator:wikidata": "Q668687", "ref": "9101100000"}, "type": "Feature"}
{"geometry": {"coordinates": [-118.200661, 34.20542], "type": "Point"}, "id": "aaw6Z9wzEFJo2Bj5sNU3uEMDPyo=", "properties": {"@source_uri": "https://tools.usps.com/UspsToolsRestServices/rest/POLocator/findLocations", "@spider": "usps_collection_boxes", "addr:city": "LA CANADA", "addr:country": "US", "addr:postcode": "91011", "addr:state": "CA", "addr:street_address": "4529 ANGELES CREST HWY", "amenity": "post_box", "collection_times": "Mo-Sa 10:00", "nsi_id": "unitedstatespostalservice-a77078", "operator": "United States Postal Service", "operator:short": "USPS", "operator:type": "public", "operator:wikidata": "Q668687", "ref": "9101100011"}, "type": "Feature"}
{"geometry": {"coordinates": [-118.208652, 34.20818], "type": "Point"}, "id": "gxC1PX_N0PmsfL3ER0ijsPUGHIQ=", "properties": {"@source_uri": "https://tools.usps.com/UspsToolsRestServices/rest/POLocator/findLocations", "@spider": "usps_collection_boxes", "addr:city": "LA CANADA", "addr:country": "US", "addr:postcode": "91011", "addr:state": "CA", "addr:street_address": "1400 FOOTHILL BLVD", "amenity": "post_box", "collection_times": "Mo-Sa 10:00", "nsi_id": "unitedstatespostalservice-a77078", "operator": "United States Postal Service", "operator:short": "USPS", "operator:type": "public", "operator:wikidata": "Q668687", "ref": "9101100020"}, "type": "Feature"}
{"geometry": {"coordinates": [-118.188423, 34.199197], "type": "Point"}, "id": "AU7jTU7ISuli3jxwjIzl58nL_PE=", "properties": {"@source_uri": "https://tools.usps.com/UspsToolsRestServices/rest/POLocator/findLocations", "@spider": "usps_collection_boxes", "addr:city": "LA CANADA", "addr:country": "US", "addr:postcode": "91011", "addr:state": "CA", "addr:street_address": "459 FOOTHILL BLVD", "amenity": "post_box", "collection_times": "Mo-Sa 10:00", "nsi_id": "unitedstatespostalservice-a77078", "operator": "United States Postal Service", "operator:short": "USPS", "operator:type": "public", "operator:wikidata": "Q668687", "ref": "9101100024"}, "type": "Feature"}
{"geometry": {"coordinates": [-118.200674, 34.205416], "type": "Point"}, "id": "2bJlTPTRejDkLHZTreC-YSs5B-E=", "properties": {"@source_uri": "https://tools.usps.com/UspsToolsRestServices/rest/POLocator/findLocations", "@spider": "usps_collection_boxes", "addr:city": "LA CANADA", "addr:country": "US", "addr:postcode": "91011", "addr:state": "CA", "addr:street_address": "4529 ANGELES CREST HWY", "amenity": "post_box", "collection_times": "Mo-Sa 10:00", "nsi_id": "unitedstatespostalservice-a77078", "operator": "United States Postal Service", "operator:short": "USPS", "operator:type": "public", "operator:wikidata": "Q668687", "ref": "9101100027"}, "type": "Feature"}
{"geometry": {"coordinates": [-118.207062, 34.207726], "type": "Point"}, "id": "tBM2Dxm3WXubgM_011EHn97_euU=", "properties": {"@source_uri": "https://tools.usps.com/UspsToolsRestServices/rest/POLocator/findLocations", "@spider": "usps_collection_boxes", "addr:city": "LA CANADA", "addr:country": "US", "addr:postcode": "91011", "addr:state": "CA", "addr:street_address": "1327 FOOTHILL BLVD", "amenity": "post_box", "collection_times": "Mo-Sa 10:00", "nsi_id": "unitedstatespostalservice-a77078", "operator": "United States Postal Service", "operator:short": "USPS", "operator:type": "public", "operator:wikidata": "Q668687", "ref": "9101100029"}, "type": "Feature"}
{"geometry": {"coordinates": [-118.1918487065, 34.2007217369], "type": "Point"}, "id": "BRsozfZNUnV7dOPR_H_NzQoQA98=", "properties": {"@source_uri": "https://tools.usps.com/UspsToolsRestServices/rest/POLocator/findLocations", "@spider": "usps_collection_boxes", "addr:city": "LA CANADA", "addr:country": "US", "addr:postcode": "91011", "addr:state": "CA", "addr:street_address": "607 FOOTHILL BLVD", "amenity": "post_box", "collection_times": "Mo-Sa 17:00", "indoor": "yes", "note": "ON 12/24 AND 12/31, THIS BOX MAY BE COLLECTED AS EARLY AS 12 NOON.", "nsi_id": "unitedstatespostalservice-a77078", "operator": "United States Postal Service", "operator:short": "USPS", "operator:type": "public", "operator:wikidata": "Q668687", "ref": "9101100030"}, "type": "Feature"}
{"geometry": {"coordinates": [-118.1918487065, 34.2007217369], "type": "Point"}, "id": "-DxF3NjXLdJvCiA97SnmehpBLLI=", "properties": {"@source_uri": "https://tools.usps.com/UspsToolsRestServices/rest/POLocator/findLocations", "@spider": "usps_collection_boxes", "addr:city": "LA CANADA", "addr:country": "US", "addr:postcode": "91011", "addr:state": "CA", "addr:street_address": "607 FOOTHILL BLVD", "amenity": "post_box", "collection_times": "Mo-Sa 17:00", "name": "USPS COLLECTION BOX - APC", "note": "ON 12/24 AND 12/31, THIS BOX MAY BE COLLECTED AS EARLY AS 12 NOON.", "nsi_id": "unitedstatespostalservice-a77078", "operator": "United States Postal Service", "operator:short": "USPS", "operator:type": "public", "operator:wikidata": "Q668687", "ref": "9101100031"}, "type": "Feature"}
{"geometry": {"coordinates": [-118.200919, 34.204494], "type": "Point"}, "id": "E3TDbf0FuoWVrD2lQmBxDrjG3mA=", "properties": {"@source_uri": "https://tools.usps.com/UspsToolsRestServices/rest/POLocator/findLocations", "@spider": "usps_collection_boxes", "addr:city": "LA CANADA", "addr:country": "US", "addr:postcode": "91011", "addr:state": "CA", "addr:street_address": "1010 FOOTHILL BLVD", "amenity": "post_box", "collection_times": "Mo-Sa 10:00", "nsi_id": "unitedstatespostalservice-a77078", "operator": "United States Postal Service", "operator:short": "USPS", "operator:type": "public", "operator:wikidata": "Q668687", "ref": "9101100033"}, "type": "Feature"}
{"geometry": {"coordinates": [-118.1918487065, 34.2007217369], "type": "Point"}, "id": "59fdZtM_-6ghfjkpbQcMSrPGX9A=", "properties": {"@source_uri": "https://tools.usps.com/UspsToolsRestServices/rest/POLocator/findLocations", "@spider": "usps_collection_boxes", "addr:city": "LA CANADA", "addr:country": "US", "addr:postcode": "91011", "addr:state": "CA", "addr:street_address": "607 FOOTHILL BLVD", "amenity": "post_box", "collection_times": "Mo-Fr 17:00", "indoor": "yes", "note": "ON 12/24 AND 12/31, THIS BOX MAY BE COLLECTED AS EARLY AS 12 NOON.", "nsi_id": "unitedstatespostalservice-a77078", "operator": "United States Postal Service", "operator:short": "USPS", "operator:type": "public", "operator:wikidata": "Q668687", "ref": "9101100035"}, "type": "Feature"}
{"geometry": {"coordinates": [-117.998842, 34.14945], "type": "Point"}, "id": "GMO1r-_rOsnEBbpdB9IHJuQBRPE=", "properties": {"@source_uri": "https://tools.usps.com/UspsToolsRestServices/rest/POLocator/findLocations", "@spider": "usps_collection_boxes", "addr:city": "MONROVIA", "addr:country": "US", "addr:postcode": "91016", "addr:state": "CA", "addr:street_address": "225 S IVY AVE", "amenity": "post_box", "collection_times": "Mo-Fr 17:00; Sa 16:30", "note": "ON 12/24 AND 12/31, THIS BOX MAY BE COLLECTED AS EARLY AS 12 NOON.", "nsi_id": "unitedstatespostalservice-a77078", "operator": "United States Postal Service", "operator:short": "USPS", "operator:type": "public", "operator:wikidata": "Q668687", "ref": "9101600000"}, "type": "Feature"}
{"geometry": {"coordinates": [-117.998842, 34.14945], "type": "Point"}, "id": "tdz5VB684-1XQ-cW4kWWmJg6gUU=", "properties": {"@source_uri": "https://tools.usps.com/UspsToolsRestServices/rest/POLocator/findLocations", "@spider": "usps_collection_boxes", "addr:city": "MONROVIA", "addr:country": "US", "addr:postcode": "91016", "addr:state": "CA", "addr:street_address": "225 S IVY AVE", "amenity": "post_box", "collection_times": "Mo-Fr 17:00; Sa 16:30", "note": "ON 12/24 AND 12/31, THIS BOX MAY BE COLLECTED AS EARLY AS 12 NOON.", "nsi_id": "unitedstatespostalservice-a77078", "operator": "United States Postal Service", "operator:short": "USPS", "operator:type": "public", "operator:wikidata": "Q668687", "ref": "9101600001"}, "type": "Feature"}
{"geometry": {"coordinates": [-117.998842, 34.14945], "type": "Point"}, "id": "1qka5Rihjw3sFN1PAen2Dxmo8fU=", "properties": {"@source_uri": "https://tools.usps.com/UspsToolsRestServices/rest/POLocator/findLocations", "@spider": "usps_collection_boxes", "addr:city": "MONROVIA", "addr:country": "US", "addr:postcode": "91016", "addr:state": "CA", "addr:street_address": "225 S IVY AVE", "amenity": "post_box", "collection_times": "Mo-Fr 17:00; Sa 16:30", "note": "ON 12/24 AND 12/31, THIS BOX MAY BE COLLECTED AS EARLY AS 12 NOON.", "nsi_id": "unitedstatespostalservice-a77078", "operator": "United States Postal Service", "operator:short": "USPS", "operator:type": "public", "operator:wikidata": "Q668687", "ref": "9101600002"}, "type": "Feature"}
{"geometry": {"coordinates": [-118.007825, 34.15707], "type": "Point"}, "id": "O1EjLAcRZz8fpZQsHzDEO2wpOYs=", "properties": {"@source_uri": "https://tools.usps.com/UspsToolsRestServices/rest/POLocator/findLocations", "@spider": "usps_collection_boxes", "addr:city": "MONROVIA", "addr:country": "US", "addr:postcode": "91016", "addr:state": "CA", "addr:street_address": "402 W HILLCREST BLVD", "amenity": "post_box", "collection_times": "Mo-Sa 10:00", "nsi_id": "unitedstatespostalservice-a77078", "operator": "United States Postal Service", "operator:short": "USPS", "operator:type": "public", "operator:wikidata": "Q668687", "ref": "9101600011"}, "type": "Feature"}
{"geometry": {"coordinates": [-118.019819, 34.151233], "type": "Point"}, "id": "HIJJcF-gqyKwKYFXkb0GzVNFiW4=", "properties": {"@source_uri": "https://tools.usps.com/UspsToolsRestServices/rest/POLocator/findLocations", "@spider": "usps_collection_boxes", "addr:city": "MONROVIA", "addr:country": "US", "addr:postcode": "91016", "addr:state": "CA", "addr:street_address": "931 W FOOTHILL BLVD", "amenity": "post_box", "collection_times": "Mo-Sa 10:00", "nsi_id": "unitedstatespostalservice-a77078", "operator": "United States Postal Service", "operator:short": "USPS", "operator:type": "public", "operator:wikidata": "Q668687", "ref": "9101600021"}, "type": "Feature"}
{"geometry": {"coordinates": [-118.009651, 34.151356], "type": "Point"}, "id": "am8l2lpFZ60m2fmtXb5o_ZUfZz8=", "properties": {"@source_uri": "https://tools.usps.com/UspsToolsRestServices/rest/POLocator/findLocations", "@spider": "usps_collection_boxes", "addr:city": "MONROVIA", "addr:country": "US", "addr:postcode": "91016", "addr:state": "CA", "addr:street_address": "457 W FOOTHILL BLVD", "amenity": "post_box", "collection_times": "Mo-Sa 10:00", "nsi_id": "unitedstatespostalservice-a77078", "operator": "United States Postal Service", "operator:short": "USPS", "operator:type": "public", "operator:wikidata": "Q668687", "ref": "9101600022"}, "type": "Feature"}
{"geometry": {"coordinates": [-118.000989, 34.146154], "type": "Point"}, "id": "QFOOjnI4huu8PJLfn1LTl_HiomM=", "properties": {"@source_uri": "https://tools.usps.com/UspsToolsRestServices/rest/POLocator/findLocations", "@spider": "usps_collection_boxes", "addr:city": "MONROVIA", "addr:country": "US", "addr:postcode": "91016", "addr:state": "CA", "addr:street_address": "525 S MYRTLE AVE", "amenity": "post_box", "collection_times": "Mo-Sa 10:00", "nsi_id": "unitedstatespostalservice-a77078", "operator": "United States Postal Service", "operator:short": "USPS", "operator:type": "public", "operator:wikidata": "Q668687", "ref": "9101600040"}, "type": "Feature"}
{"geometry": {"coordinates": [-117.994417, 34.140414], "type": "Point"}, "id": "VYLebp0rRQs8yI2ul58tASQB8ng=", "properties": {"@source_uri": "https://tools.usps.com/UspsToolsRestServices/rest/POLocator/findLocations", "@spider": "usps_collection_boxes", "addr:city": "MONROVIA", "addr:country": "US", "addr:postcode": "91016", "addr:state": "CA", "addr:street_address": "404 E HUNTINGTON DR", "amenity": "post_box", "collection_times": "Mo-Sa 10:00", "nsi_id": "unitedstatespostalservice-a77078", "operator": "United States Postal Service", "operator:short": "USPS", "operator:type": "public", "operator:wikidata": "Q668687", "ref": "9101600068"}, "type": "Feature"}
{"geometry": {"coordinates": [-117.998842, 34.14945], "type": "Point"}, "id": "59j4WdkZAyiWhQfjJSQQyil3cO0=", "properties": {"@source_uri": "https://tools.usps.com/UspsToolsRestServices/rest/POLocator/findLocations", "@spider": "usps_collection_boxes", "addr:city": "MONROVIA", "addr:country": "US", "addr:postcode": "91016", "addr:state": "CA", "addr:street_address": "225 S IVY AVE", "amenity": "post_box", "collection_times": "Mo-Fr 17:00; Sa 16:30", "note": "ON 12/24 AND 12/31, THIS BOX MAY BE COLLECTED AS EARLY AS 12 NOON.", "nsi_id": "unitedstatespostalservice-a77078", "operator": "United States Postal Service", "operator:short": "USPS", "operator:type": "public", "operator:wikidata": "Q668687", "ref": "9101600074"}, "type": "Feature"}
{"geometry": {"coordinates": [-117.998842, 34.14945], "type": "Point"}, "id": "SgPr0_VPlFOGAH-tHpEZIafPl40=", "properties": {"@source_uri": "https://tools.usps.com/UspsToolsRestServices/rest/POLocator/findLocations", "@spider": "usps_collection_boxes", "addr:city": "MONROVIA", "addr:country": "US", "addr:postcode": "91016", "addr:state": "CA", "addr:street_address": "225 S IVY AVE", "amenity": "post_box", "collection_times": "Mo-Fr 17:00; Sa 16:30", "indoor": "yes", "note": "ON 12/24 AND 12/31, THIS BOX MAY BE COLLECTED AS EARLY AS 12 NOON.", "nsi_id": "unitedstatespostalservice-a77078", "operator": "United States Postal Service", "operator:short": "USPS", "operator:type": "public", "operator:wikidata": "Q668687", "ref": "9101600075"}, "type": "Feature"}
{"geometry": {"coordinates": [-117.9988452046, 34.1494476392], "type": "Point"}, "id": "EF-Xj1SIIHIep5yWJ7xpRCFSnfQ=", "properties": {"@source_uri": "https://tools.usps.com/UspsToolsRestServices/rest/POLocator/findLocations", "@spider": "usps_collection_boxes", "addr:city": "MONROVIA", "addr:country": "US", "addr:postcode": "91016", "addr:state": "CA", "addr:street_address": "225 S IVY AVE", "amenity": "post_box", "collection_times": "Mo-Fr 17:00", "indoor": "yes", "note": "ON 12/24 AND 12/31, THIS BOX MAY BE COLLECTED AS EARLY AS 12 NOON.", "nsi_id": "unitedstatespostalservice-a77078", "operator": "United States Postal Service", "operator:short": "USPS", "operator:type": "public", "operator:wikidata": "Q668687", "ref": "9101600086"}, "type": "Feature"}
{"geometry": {"coordinates": [-118.225398, 34.206515], "type": "Point"}, "id": "BUR4k7N4qFHgjLR0aRKCgCto2Qw=", "properties": {"@source_uri": "https://tools.usps.com/UspsToolsRestServices/rest/POLocator/findLocations", "@spider": "usps_collection_boxes", "addr:city": "MONTROSE", "addr:country": "US", "addr:postcode": "91020", "addr:state": "CA", "addr:street_address": "2100 MONTROSE AVE", "amenity": "post_box", "collection_times": "Mo-Fr 17:00; Sa 15:00", "note": "ON 12/24 AND 12/31, THIS BOX MAY BE COLLECTED AS EARLY AS 12 NOON.", "nsi_id": "unitedstatespostalservice-a77078", "operator": "United States Postal Service", "operator:short": "USPS", "operator:type": "public", "operator:wikidata": "Q668687", "ref": "9102000000"}, "type": "Feature"}
{"geometry": {"coordinates": [-118.225441, 34.206676], "type": "Point"}, "id": "o21DUtx-iLTWzUC7P16LvokahPo=", "properties": {"@source_uri": "https://tools.usps.com/UspsToolsRestServices/rest/POLocator/findLocations", "@spider": "usps_collection_boxes", "addr:city": "MONTROSE", "addr:country": "US", "addr:postcode": "91020", "addr:state": "CA", "addr:street_address": "2100 MONTROSE AVE", "amenity": "post_box", "collection_times": "Mo-Fr 17:00; Sa 15:00", "note": "ON 12/24 AND 12/31, THIS BOX MAY BE COLLECTED AS EARLY AS 12 NOON.", "nsi_id": "unitedstatespostalservice-a77078", "operator": "United States Postal Service", "operator:short": "USPS", "operator:type": "public", "operator:wikidata": "Q668687", "ref": "9102000001"}, "type": "Feature"}
{"geometry": {"coordinates": [-118.224951, 34.206631], "type": "Point"}, "id": "xETLQ4xmEpMjc0zlneJh1UO8Zzg=", "properties": {"@source_uri": "https://tools.usps.com/UspsToolsRestServices/rest/POLocator/findLocations", "@spider": "usps_collection_boxes", "addr:city": "MONTROSE", "addr:country": "US", "addr:postcode": "91020", "addr:state": "CA", "addr:street_address": "2100 MONTROSE AVE", "amenity": "post_box", "collection_times": "Mo-Fr 17:00; Sa 15:00", "name": "USPS COLLECTION BOX - EXPRESS", "note": "ON 12/24 AND 12/31, THIS BOX MAY BE COLLECTED AS EARLY AS 12 NOON.", "nsi_id": "unitedstatespostalservice-a77078", "operator": "United States Postal Service", "operator:short": "USPS", "operator:type": "public", "operator:wikidata": "Q668687", "ref": "9102000002"}, "type": "Feature"}
{"geometry": {"coordinates": [-118.225471, 34.206686], "type": "Point"}, "id": "ZCrl3kmN0DsT_JW19SECeUZW8j4=", "properties": {"@source_uri": "https://tools.usps.com/UspsToolsRestServices/rest/POLocator/findLocations", "@spider": "usps_collection_boxes", "addr:city": "MONTROSE", "addr:country": "US", "addr:postcode": "91020", "addr:state": "CA", "addr:street_address": "2100 MONTROSE AVE", "amenity": "post_box", "collection_times": "Mo-Fr 17:00; Sa 15:00", "note": "ON 12/24 AND 12/31, THIS BOX MAY BE COLLECTED AS EARLY AS 12 NOON.", "nsi_id": "unitedstatespostalservice-a77078", "operator": "United States Postal Service", "operator:short": "USPS", "operator:type": "public", "operator:wikidata": "Q668687", "ref": "9102000016"}, "type": "Feature"}
{"geometry": {"coordinates": [-118.224754, 34.206677], "type": "Point"}, "id": "Ia5n-1N5Z-MtiPubyt3TvA-oRfs=", "properties": {"@source_uri": "https://tools.usps.com/UspsToolsRestServices/rest/POLocator/findLocations", "@spider": "usps_collection_boxes", "addr:city": "MONTROSE", "addr:country": "US", "addr:postcode": "91020", "addr:state": "CA", "addr:street_address": "2100 MONTROSE AVE", "amenity": "post_box", "collection_times": "Mo-Fr 17:00", "name": "USPS COLLECTION BOX - APC", "note": "ON 12/24 AND 12/31, THIS BOX MAY BE COLLECTED AS EARLY AS 12 NOON.", "nsi_id": "unitedstatespostalservice-a77078", "operator": "United States Postal Service", "operator:short": "USPS", "operator:type": "public", "operator:wikidata": "Q668687", "ref": "9102000019"}, "type": "Feature"}
{"geometry": {"coordinates": [-118.23053, 34.206487], "type": "Point"}, "id": "brgzleJxjiFvArrji_GrC9FsOzA=", "properties": {"@source_uri": "https://tools.usps.com/UspsToolsRestServices/rest/POLocator/findLocations", "@spider": "usps_collection_boxes", "addr:city": "MONTROSE", "addr:country": "US", "addr:postcode": "91020", "addr:state": "CA", "addr:street_address": "2401 HONOLULU AVE", "amenity": "post_box", "collection_times": "Mo-Sa 10:00", "nsi_id": "unitedstatespostalservice-a77078", "operator": "United States Postal Service", "operator:short": "USPS", "operator:type": "public", "operator:wikidata": "Q668687", "ref": "9102000023"}, "type": "Feature"}
{"geometry": {"coordinates": [-118.229739, 34.206001], "type": "Point"}, "id": "OLVXsa1IIThZEVRDFNNGbI8SysQ=", "properties": {"@source_uri": "https://tools.usps.com/UspsToolsRestServices/rest/POLocator/findLocations", "@spider": "usps_collection_boxes", "addr:city": "MONTROSE", "addr:country": "US", "addr:postcode": "91020", "addr:state": "CA", "addr:street_address": "2340 HONOLULU AVE", "amenity": "post_box", "collection_times": "Mo-Sa 10:00", "nsi_id": "unitedstatespostalservice-a77078", "operator": "United States Postal Service", "operator:short": "USPS", "operator:type": "public", "operator:wikidata": "Q668687", "ref": "9102000027"}, "type": "Feature"}
{"geometry": {"coordinates": [-118.2276645539, 34.2053602887], "type": "Point"}, "id": "bc8XIQ9X0HjuK-wq-KA4GkFPmnA=", "properties": {"@source_uri": "https://tools.usps.com/UspsToolsRestServices/rest/POLocator/findLocations", "@spider": "usps_collection_boxes", "addr:city": "MONTROSE", "addr:country": "US", "addr:postcode": "91020", "addr:state": "CA", "addr:street_address": "2284 HONOLULU AVE", "amenity": "post_box", "collection_times": "Mo-Sa 10:00", "nsi_id": "unitedstatespostalservice-a77078", "operator": "United States Postal Service", "operator:short": "USPS", "operator:type": "public", "operator:wikidata": "Q668687", "ref": "9102000029"}, "type": "Feature"}
{"geometry": {"coordinates": [-118.224754, 34.206677], "type": "Point"}, "id": "F4kZZdQUk0xk2tVVGSCFRdRDbTk=", "properties": {"@source_uri": "https://tools.usps.com/UspsToolsRestServices/rest/POLocator/findLocations", "@spider": "usps_collection_boxes", "addr:city": "MONTROSE", "addr:country": "US", "addr:postcode": "91020", "addr:state": "CA", "addr:street_address": "2100 MONTROSE AVE", "amenity": "post_box", "collection_times": "Mo-Fr 17:00", "indoor": "yes", "note": "ON 12/24 AND 12/31, THIS BOX MAY BE COLLECTED AS EARLY AS 12 NOON.", "nsi_id": "unitedstatespostalservice-a77078", "operator": "United States Postal Service", "operator:short": "USPS", "operator:type": "public", "operator:wikidata": "Q668687", "ref": "9102000032"}, "type": "Feature"}
{"geometry": {"coordinates": [-118.22558, 34.205176], "type": "Point"}, "id": "EUz2ZXBYB3xGZ5XcJ2SqluMxCwo=", "properties": {"@source_uri": "https://tools.usps.com/UspsToolsRestServices/rest/POLocator/findLocations", "@spider": "usps_collection_boxes", "addr:city": "MONTROSE", "addr:country": "US", "addr:postcode": "91020", "addr:state": "CA", "addr:street_address": "2207 HONOLULU AVE", "amenity": "post_box", "collection_times": "Mo-Sa 10:00", "nsi_id": "unitedstatespostalservice-a77078", "operator": "United States Postal Service", "operator:short": "USPS", "operator:type": "public", "operator:wikidata": "Q668687", "ref": "9102000033"}, "type": "Feature"}
{"geometry": {"coordinates": [-118.2247536241, 34.2066771304], "type": "Point"}, "id": "KG29ahT_juSuQY1V-3a53Y6ifzQ=", "properties": {"@source_uri": "https://tools.usps.com/UspsToolsRestServices/rest/POLocator/findLocations", "@spider": "usps_collection_boxes", "addr:city": "MONTROSE", "addr:country": "US", "addr:postcode": "91020", "addr:state": "CA", "addr:street_address": "2100 MONTROSE AVE", "amenity": "post_box", "collection_times": "Mo-Fr 17:00", "indoor": "yes", "note": "ON 12/24 AND 12/31, THIS BOX MAY BE COLLECTED AS EARLY AS 12 NOON.", "nsi_id": "unitedstatespostalservice-a77078", "operator": "United States Postal Service", "operator:short": "USPS", "operator:type": "public", "operator:wikidata": "Q668687", "ref": "9102000036"}, "type": "Feature"}
{"geometry": {"coordinates": [-118.052717, 34.160868], "type": "Point"}, "id": "JKeDyNCtJSm-qt_b0fTkM6soflg=", "properties": {"@source_uri": "https://tools.usps.com/UspsToolsRestServices/rest/POLocator/findLocations", "@spider": "usps_collection_boxes", "addr:city": "SIERRA MADRE", "addr:country": "US", "addr:postcode": "91024", "addr:state": "CA", "addr:street_address": "50 S BALDWIN AVE", "amenity": "post_box", "collection_times": "Mo-Fr 17:00; Sa 15:00", "note": "ON 12/24 AND 12/31, THIS BOX MAY BE COLLECTED AS EARLY AS 12 NOON.", "nsi_id": "unitedstatespostalservice-a77078", "operator": "United States Postal Service", "operator:short": "USPS", "operator:type": "public", "operator:wikidata": "Q668687", "ref": "9102400001"}, "type": "Feature"}
{"geometry": {"coordinates": [-118.0600518353, 34.1618655004], "type": "Point"}, "id": "_lVi3B6PA15Lp1kNTvfCQgPsZBI=", "properties": {"@source_uri": "https://tools.usps.com/UspsToolsRestServices/rest/POLocator/findLocations", "@spider": "usps_collection_boxes", "addr:city": "SIERRA MADRE", "addr:country": "US", "addr:postcode": "91024", "addr:state": "CA", "addr:street_address": "345 W SIERRA MADRE BLVD", "amenity": "post_box", "collection_times": "Mo-Sa 15:30", "note": "ON 12/24 AND 12/31, THIS BOX MAY BE COLLECTED AS EARLY AS 12 NOON.", "nsi_id": "unitedstatespostalservice-a77078", "operator": "United States Postal Service", "operator:short": "USPS", "operator:type": "public", "operator:wikidata": "Q668687", "ref": "9102400009"}, "type": "Feature"}
{"geometry": {"coordinates": [-118.06459, 34.161948], "type": "Point"}, "id": "5WxGCD8bRh6ySHYqPl94ebuSld0=", "properties": {"@source_uri": "https://tools.usps.com/UspsToolsRestServices/rest/POLocator/findLocations", "@spider": "usps_collection_boxes", "addr:city": "SIERRA MADRE", "addr:country": "US", "addr:postcode": "91024", "addr:state": "CA", "addr:street_address": "555 W SIERRA MADRE BLVD", "amenity": "post_box", "collection_times": "Mo-Sa 15:30", "note": "ON 12/24 AND 12/31, THIS BOX MAY BE COLLECTED AS EARLY AS 12 NOON.", "nsi_id": "unitedstatespostalservice-a77078", "operator": "United States Postal Service", "operator:short": "USPS", "operator:type": "public", "operator:wikidata": "Q668687", "ref": "9102400016"}, "type": "Feature"}
{"geometry": {"coordinates": [-118.0528240239, 34.1607041702], "type": "Point"}, "id": "NzmOthR1BRdUtr54UZW8GgzVCnI=", "properties": {"@source_uri": "https://tools.usps.com/UspsToolsRestServices/rest/POLocator/findLocations", "@spider": "usps_collection_boxes", "addr:city": "SIERRA MADRE", "addr:country": "US", "addr:postcode": "91024", "addr:state": "CA", "addr:street_address": "61 S BALDWIN AVE", "amenity": "post_box", "collection_times": "Mo-Fr 17:00; Sa 15:00", "name": "USPS COLLECTION BOX - APC", "note": "ON 12/24 AND 12/31, THIS BOX MAY BE COLLECTED AS EARLY AS 12 NOON.", "nsi_id": "unitedstatespostalservice-a77078", "operator": "United States Postal Service", "operator:short": "USPS", "operator:type": "public", "operator:wikidata": "Q668687", "ref": "9102400018"}, "type": "Feature"}
{"geometry": {"coordinates": [-118.053054, 34.162236], "type": "Point"}, "id": "wUgXCWI8SuPBBpiHCsctp6wP09M=", "properties": {"@source_uri": "https://tools.usps.com/UspsToolsRestServices/rest/POLocator/findLocations", "@spider": "usps_collection_boxes", "addr:city": "SIERRA MADRE", "addr:country": "US", "addr:postcode": "91024", "addr:state": "CA", "addr:street_address": "9 KERSTING CT", "amenity": "post_box", "collection_times": "Mo-Sa 15:30", "note": "ON 12/24 AND 12/31, THIS BOX MAY BE COLLECTED AS EARLY AS 12 NOON.", "nsi_id": "unitedstatespostalservice-a77078", "operator": "United States Postal Service", "operator:short": "USPS", "operator:type": "public", "operator:wikidata": "Q668687", "ref": "9102400019"}, "type": "Feature"}
{"geometry": {"coordinates": [-118.0528240239, 34.1607041702], "type": "Point"}, "id": "yIuArrHzkOPuDW4xot6Fb68JSFo=", "properties": {"@source_uri": "https://tools.usps.com/UspsToolsRestServices/rest/POLocator/findLocations", "@spider": "usps_collection_boxes", "addr:city": "SIERRA MADRE", "addr:country": "US", "addr:postcode": "91024", "addr:state": "CA", "addr:street_address": "61 S BALDWIN AVE", "amenity": "post_box", "collection_times": "Mo-Fr 17:00", "indoor": "yes", "note": "ON 12/24 AND 12/31, THIS BOX MAY BE COLLECTED AS EARLY AS 12 NOON.", "nsi_id": "unitedstatespostalservice-a77078", "operator": "United States Postal Service", "operator:short": "USPS", "operator:type": "public", "operator:wikidata": "Q668687", "ref": "9102400020"}, "type": "Feature"}
{"geometry": {"coordinates": [-118.153831, 34.114692], "type": "Point"}, "id": "cD_iQ4jMrKiFmQIErGje99jV2Xs=", "properties": {"@source_uri": "https://tools.usps.com/UspsToolsRestServices/rest/POLocator/findLocations", "@spider": "usps_collection_boxes", "addr:city": "SOUTH PASADENA", "addr:country": "US", "addr:postcode": "91030", "addr:state": "CA", "addr:street_address": "1100 EL CENTRO ST", "amenity": "post_box", "collection_times": "Mo-Sa 17:00", "note": "ON 12/24 AND 12/31, THIS BOX MAY BE COLLECTED AS EARLY AS 12 NOON.", "nsi_id": "unitedstatespostalservice-a77078", "operator": "United States Postal Service", "operator:short": "USPS", "operator:type": "public", "operator:wikidata": "Q668687", "ref": "9103000000"}, "type": "Feature"}
{"geometry": {"coordinates": [-118.164966, 34.115598], "type": "Point"}, "id": "oQsaSc4UEc1hk6hD0VM1DPXkXFw=", "properties": {"@source_uri": "https://tools.usps.com/UspsToolsRestServices/rest/POLocator/findLocations", "@spider": "usps_collection_boxes", "addr:city": "SOUTH PASADENA", "addr:country": "US", "addr:postcode": "91030", "addr:state": "CA", "addr:street_address": "505 MISSION ST", "amenity": "post_box", "collection_times": "Mo-Sa 15:00", "note": "ON 12/24 AND 12/31, THIS BOX MAY BE COLLECTED AS EARLY AS 12 NOON.", "nsi_id": "unitedstatespostalservice-a77078", "operator": "United States Postal Service", "operator:short": "USPS", "operator:type": "public", "operator:wikidata": "Q668687", "ref": "9103000002"}, "type": "Feature"}
{"geometry": {"coordinates": [-118.15324, 34.114461], "type": "Point"}, "id": "6er9QAtyvbxpBSCy-uhxfJhDyGA=", "properties": {"@source_uri": "https://tools.usps.com/UspsToolsRestServices/rest/POLocator/findLocations", "@spider": "usps_collection_boxes", "addr:city": "SOUTH PASADENA", "addr:country": "US", "addr:postcode": "91030", "addr:state": "CA", "addr:street_address": "1001 FREMONT AVE", "amenity": "post_box", "collection_times": "Mo-Sa 17:00", "note": "ON 12/24 AND 12/31, THIS BOX MAY BE COLLECTED AS EARLY AS 12 NOON.", "nsi_id": "unitedstatespostalservice-a77078", "operator": "United States Postal Service", "operator:short": "USPS", "operator:type": "public", "operator:wikidata": "Q668687", "ref": "9103000008"}, "type": "Feature"}
{"geometry": {"coordinates": [-118.153249, 34.114454], "type": "Point"}, "id": "vONpOF3EEhiqPT_0HknX8zNJp2c=", "properties": {"@source_uri": "https://tools.usps.com/UspsToolsRestServices/rest/POLocator/findLocations", "@spider": "usps_collection_boxes", "addr:city": "SOUTH PASADENA", "addr:country": "US", "addr:postcode": "91030", "addr:state": "CA", "addr:street_address": "1001 FREMONT AVE", "amenity": "post_box", "collection_times": "Mo-Sa 17:00", "note": "ON 12/24 AND 12/31, THIS BOX MAY BE COLLECTED AS EARLY AS 12 NOON.", "nsi_id": "unitedstatespostalservice-a77078", "operator": "United States Postal Service", "operator:short": "USPS", "operator:type": "public", "operator:wikidata": "Q668687", "ref": "9103000009"}, "type": "Feature"}
{"geometry": {"coordinates": [-118.15114, 34.11487], "type": "Point"}, "id": "GFmXWEehr0HqPFhQ9by0eDMy4iI=", "properties": {"@source_uri": "https://tools.usps.com/UspsToolsRestServices/rest/POLocator/findLocations", "@spider": "usps_collection_boxes", "addr:city": "SOUTH PASADENA", "addr:country": "US", "addr:postcode": "91030", "addr:state": "CA", "addr:street_address": "1836 MISSION ST", "amenity": "post_box", "collection_times": "Mo-Sa 13:00", "note": "ON 12/24 AND 12/31, THIS BOX MAY BE COLLECTED AS EARLY AS 12 NOON.", "nsi_id": "unitedstatespostalservice-a77078", "operator": "United States Postal Service", "operator:short": "USPS", "operator:type": "public", "operator:wikidata": "Q668687", "ref": "9103000011"}, "type": "Feature"}
{"geometry": {"coordinates": [-118.15114, 34.11487], "type": "Point"}, "id": "ss6SpPFLCx6BivqVMjej3ODWRUM=", "properties": {"@source_uri": "https://tools.usps.com/UspsToolsRestServices/rest/POLocator/findLocations", "@spider": "usps_collection_boxes", "addr:city": "SOUTH PASADENA", "addr:country": "US", "addr:postcode": "91030", "addr:state": "CA", "addr:street_address": "500 GRAND AVE", "amenity": "post_box", "collection_times": "Mo-Sa 13:00", "note": "ON 12/24 AND 12/31, THIS BOX MAY BE COLLECTED AS EARLY AS 12 NOON.", "nsi_id": "unitedstatespostalservice-a77078", "operator": "United States Postal Service", "operator:short": "USPS", "operator:type": "public", "operator:wikidata": "Q668687", "ref": "9103000021"}, "type": "Feature"}
{"geometry": {"coordinates": [-118.158428, 34.11728], "type": "Point"}, "id": "28w88i5v_es7ViXU6-GWT_D1C1c=", "properties": {"@source_uri": "https://tools.usps.com/UspsToolsRestServices/rest/POLocator/findLocations", "@spider": "usps_collection_boxes", "addr:city": "SOUTH PASADENA", "addr:country": "US", "addr:postcode": "91030", "addr:state": "CA", "addr:street_address": "900 MAGNOLIA ST", "amenity": "post_box", "collection_times": "Mo-Sa 13:00", "note": "ON 12/24 AND 12/31, THIS BOX MAY BE COLLECTED AS EARLY AS 12 NOON.", "nsi_id": "unitedstatespostalservice-a77078", "operator": "United States Postal Service", "operator:short": "USPS", "operator:type": "public", "operator:wikidata": "Q668687", "ref": "9103000023"}, "type": "Feature"}
{"geometry": {"coordinates": [-118.176366, 34.10963], "type": "Point"}, "id": "bXuTKBXGBaKyMgKh_kgttfjcPtI=", "properties": {"@source_uri": "https://tools.usps.com/UspsToolsRestServices/rest/POLocator/findLocations", "@spider": "usps_collection_boxes", "addr:city": "SOUTH PASADENA", "addr:country": "US", "addr:postcode": "91030", "addr:state": "CA", "addr:street_address": "111 MONTEREY RD", "amenity": "post_box", "collection_times": "Mo-Sa 13:00", "note": "ON 12/24 AND 12/31, THIS BOX MAY BE COLLECTED AS EARLY AS 12 NOON.", "nsi_id": "unitedstatespostalservice-a77078", "operator": "United States Postal Service", "operator:short": "USPS", "operator:type": "public", "operator:wikidata": "Q668687", "ref": "9103000026"}, "type": "Feature"}
{"geometry": {"coordinates": [-118.1504650312, 34.1036849814], "type": "Point"}, "id": "ztHTRhqz-g-zNTByZn5cHsAgNLo=", "properties": {"@source_uri": "https://tools.usps.com/UspsToolsRestServices/rest/POLocator/findLocations", "@spider": "usps_collection_boxes", "addr:city": "SOUTH PASADENA", "addr:country": "US", "addr:postcode": "91030", "addr:state": "CA", "addr:street_address": "1499 HUNTINGTON DR", "amenity": "post_box", "collection_times": "Mo-Sa 15:00", "note": "ON 12/24 AND 12/31, THIS BOX MAY BE COLLECTED AS EARLY AS 12 NOON.", "nsi_id": "unitedstatespostalservice-a77078", "operator": "United States Postal Service", "operator:short": "USPS", "operator:type": "public", "operator:wikidata": "Q668687", "ref": "9103000033"}, "type": "Feature"}
{"geometry": {"coordinates": [-118.1514599631, 34.1044999958], "type": "Point"}, "id": "hbmJ33icA-p6EM4cXw-iD9pI5W4=", "properties": {"@source_uri": "https://tools.usps.com/UspsToolsRestServices/rest/POLocator/findLocations", "@spider": "usps_collection_boxes", "addr:city": "SOUTH PASADENA", "addr:country": "US", "addr:postcode": "91030", "addr:state": "CA", "addr:street_address": "1502 HUNTINGTON DR", "amenity": "post_box", "collection_times": "Mo-Sa 15:00", "note": "ON 12/24 AND 12/31, THIS BOX MAY BE COLLECTED AS EARLY AS 12 NOON.", "nsi_id": "unitedstatespostalservice-a77078", "operator": "United States Postal Service", "operator:short": "USPS", "operator:type": "public", "operator:wikidata": "Q668687", "ref": "9103000037"}, "type": "Feature"}
{"geometry": {"coordinates": [-118.142638, 34.104374], "type": "Point"}, "id": "A2aSQFMOyTXOsW_h_tLFU166idI=", "properties": {"@source_uri": "https://tools.usps.com/UspsToolsRestServices/rest/POLocator/findLocations", "@spider": "usps_collection_boxes", "addr:city": "SOUTH PASADENA", "addr:country": "US", "addr:postcode": "91030", "addr:state": "CA", "addr:street_address": "1900 HUNTINGTON DR", "amenity": "post_box", "collection_times": "Mo-Sa 15:00", "note": "ON 12/24 AND 12/31, THIS BOX MAY BE COLLECTED AS EARLY AS 12 NOON.", "nsi_id": "unitedstatespostalservice-a77078", "operator": "United States Postal Service", "operator:short": "USPS", "operator:type": "public", "operator:wikidata": "Q668687", "ref": "9103000038"}, "type": "Feature"}
{"geometry": {"coordinates": [-118.152001, 34.11592], "type": "Point"}, "id": "f2-t2shGC8rsYSmt8kgFVj-g8iM=", "properties": {"@source_uri": "https://tools.usps.com/UspsToolsRestServices/rest/POLocator/findLocations", "@spider": "usps_collection_boxes", "addr:city": "SOUTH PASADENA", "addr:country": "US", "addr:postcode": "91030", "addr:state": "CA", "addr:street_address": "1400 MISSION ST", "amenity": "post_box", "collection_times": "Mo-Sa 15:00", "note": "ON 12/24 AND 12/31, THIS BOX MAY BE COLLECTED AS EARLY AS 12 NOON.", "nsi_id": "unitedstatespostalservice-a77078", "operator": "United States Postal Service", "operator:short": "USPS", "operator:type": "public", "operator:wikidata": "Q668687", "ref": "9103000040"}, "type": "Feature"}
{"geometry": {"coordinates": [-118.150219, 34.109843], "type": "Point"}, "id": "AnMW-H9XnP18HbpW0txskuKhnpE=", "properties": {"@source_uri": "https://tools.usps.com/UspsToolsRestServices/rest/POLocator/findLocations", "@spider": "usps_collection_boxes", "addr:city": "SOUTH PASADENA", "addr:country": "US", "addr:postcode": "91030", "addr:state": "CA", "addr:street_address": "1414 FAIR OAKS AVE", "amenity": "post_box", "collection_times": "Mo-Sa 15:00", "note": "ON 12/24 AND 12/31, THIS BOX MAY BE COLLECTED AS EARLY AS 12 NOON.", "nsi_id": "unitedstatespostalservice-a77078", "operator": "United States Postal Service", "operator:short": "USPS", "operator:type": "public", "operator:wikidata": "Q668687", "ref": "9103000043"}, "type": "Feature"}
{"geometry": {"coordinates": [-118.150976, 34.11481], "type": "Point"}, "id": "5jTxWy2tynBzqYcBqK64dyxhJkw=", "properties": {"@source_uri": "https://tools.usps.com/UspsToolsRestServices/rest/POLocator/findLocations", "@spider": "usps_collection_boxes", "addr:city": "SOUTH PASADENA", "addr:country": "US", "addr:postcode": "91030", "addr:state": "CA", "addr:street_address": "1001 FAIR OAKS AVE", "amenity": "post_box", "collection_times": "Mo-Sa 15:00", "note": "ON 12/24 AND 12/31, THIS BOX MAY BE COLLECTED AS EARLY AS 12 NOON.", "nsi_id": "unitedstatespostalservice-a77078", "operator": "United States Postal Service", "operator:short": "USPS", "operator:type": "public", "operator:wikidata": "Q668687", "ref": "9103000047"}, "type": "Feature"}
{"geometry": {"coordinates": [-118.151141032, 34.118091], "type": "Point"}, "id": "1EglVsYahb3m2TRkQsqbbKdFRBk=", "properties": {"@source_uri": "https://tools.usps.com/UspsToolsRestServices/rest/POLocator/findLocations", "@spider": "usps_collection_boxes", "addr:city": "SOUTH PASADENA", "addr:country": "US", "addr:postcode": "91030", "addr:state": "CA", "addr:street_address": "625 FAIR OAKS AVE", "amenity": "post_box", "collection_times": "Mo-Sa 15:00", "note": "ON 12/24 AND 12/31, THIS BOX MAY BE COLLECTED AS EARLY AS 12 NOON.", "nsi_id": "unitedstatespostalservice-a77078", "operator": "United States Postal Service", "operator:short": "USPS", "operator:type": "public", "operator:wikidata": "Q668687", "ref": "9103000053"}, "type": "Feature"}
{"geometry": {"coordinates": [-118.153862, 34.114687], "type": "Point"}, "id": "Lb1RL4GoDeWA5IFcsvFUS98JM90=", "properties": {"@source_uri": "https://tools.usps.com/UspsToolsRestServices/rest/POLocator/findLocations", "@spider": "usps_collection_boxes", "addr:city": "SOUTH PASADENA", "addr:country": "US", "addr:postcode": "91030", "addr:state": "CA", "addr:street_address": "1100 EL CENTRO ST", "amenity": "post_box", "collection_times": "Mo-Sa 17:00", "note": "ON 12/24 AND 12/31, THIS BOX MAY BE COLLECTED AS EARLY AS 12 NOON.", "nsi_id": "unitedstatespostalservice-a77078", "operator": "United States Postal Service", "operator:short": "USPS", "operator:type": "public", "operator:wikidata": "Q668687", "ref": "9103000056"}, "type": "Feature"}
{"geometry": {"coordinates": [-118.153469, 34.114444], "type": "Point"}, "id": "Kxkz-n4lz-DvSf2My2z3jzv5Nxw=", "properties": {"@source_uri": "https://tools.usps.com/UspsToolsRestServices/rest/POLocator/findLocations", "@spider": "usps_collection_boxes", "addr:city": "SOUTH PASADENA", "addr:country": "US", "addr:postcode": "91030", "addr:state": "CA", "addr:street_address": "1001 FREMONT AVE", "amenity": "post_box", "collection_times": "Mo-Sa 17:00", "indoor": "yes", "note": "ON 12/24 AND 12/31, THIS BOX MAY BE COLLECTED AS EARLY AS 12 NOON.", "nsi_id": "unitedstatespostalservice-a77078", "operator": "United States Postal Service", "operator:short": "USPS", "operator:type": "public", "operator:wikidata": "Q668687", "ref": "9103000059"}, "type": "Feature"}
{"geometry": {"coordinates": [-118.153342, 34.114489], "type": "Point"}, "id": "d_5-2hMnBcXfVyp_OSVfy4aTvTw=", "properties": {"@source_uri": "https://tools.usps.com/UspsToolsRestServices/rest/POLocator/findLocations", "@spider": "usps_collection_boxes", "addr:city": "SOUTH PASADENA", "addr:country": "US", "addr:postcode": "91030", "addr:state": "CA", "addr:street_address": "1001 FREMONT AVE", "amenity": "post_box", "collection_times": "Mo-Fr 17:00; Sa 16:30", "name": "USPS COLLECTION BOX - APC", "note": "ON 12/24 AND 12/31, THIS BOX MAY BE COLLECTED AS EARLY AS 12 NOON.", "nsi_id": "unitedstatespostalservice-a77078", "operator": "United States Postal Service", "operator:short": "USPS", "operator:type": "public", "operator:wikidata": "Q668687", "ref": "9103000061"}, "type": "Feature"}
{"geometry": {"coordinates": [-118.1531705598, 34.1146872213], "type": "Point"}, "id": "eQt9sZG0Bg-x_Fz3cDA1BJoy6R0=", "properties": {"@source_uri": "https://tools.usps.com/UspsToolsRestServices/rest/POLocator/findLocations", "@spider": "usps_collection_boxes", "addr:city": "SOUTH PASADENA", "addr:country": "US", "addr:postcode": "91030", "addr:state": "CA", "addr:street_address": "1001 FREMONT AVE", "amenity": "post_box", "collection_times": "Mo-Fr 17:00", "indoor": "yes", "note": "ON 12/24 AND 12/31, THIS BOX MAY BE COLLECTED AS EARLY AS 12 NOON.", "nsi_id": "unitedstatespostalservice-a77078", "operator": "United States Postal Service", "operator:short": "USPS", "operator:type": "public", "operator:wikidata": "Q668687", "ref": "9103000063"}, "type": "Feature"}
{"geometry": {"coordinates": [-118.1641011386, 34.1046534327], "type": "Point"}, "id": "YQgM52g4kuRHwunYhVTgjJvBAGM=", "properties": {"@source_uri": "https://tools.usps.com/UspsToolsRestServices/rest/POLocator/findLocations", "@spider": "usps_collection_boxes", "addr:city": "SOUTH PASADENA", "addr:country": "US", "addr:postcode": "91030", "addr:state": "CA", "addr:street_address": "1601 VIA DEL REY", "amenity": "post_box", "collection_times": "Mo-Sa 10:00", "nsi_id": "unitedstatespostalservice-a77078", "operator": "United States Postal Service", "operator:short": "USPS", "operator:type": "public", "operator:wikidata": "Q668687", "ref": "9103000064"}, "type": "Feature"}
{"geometry": {"coordinates": [-118.319386409, 34.261502289], "type": "Point"}, "id": "g51HmBrxV_T25VS4iGUnAAJByq0=", "properties": {"@source_uri": "https://tools.usps.com/UspsToolsRestServices/rest/POLocator/findLocations", "@spider": "usps_collection_boxes", "addr:city": "SUNLAND", "addr:country": "US", "addr:postcode": "91040", "addr:state": "CA", "addr:street_address": "8587 FENWICK ST", "amenity": "post_box", "collection_times": "Mo-Sa 17:00", "note": "ON 12/24 AND 12/31, THIS BOX MAY BE COLLECTED AS EARLY AS 12 NOON.", "nsi_id": "unitedstatespostalservice-a77078", "operator": "United States Postal Service", "operator:short": "USPS", "operator:type": "public", "operator:wikidata": "Q668687", "ref": "9104000001"}, "type": "Feature"}
{"geometry": {"coordinates": [-118.319386409, 34.261502289], "type": "Point"}, "id": "EEm5pNM98s4vdizdpsyeJCXAiuE=", "properties": {"@source_uri": "https://tools.usps.com/UspsToolsRestServices/rest/POLocator/findLocations", "@spider": "usps_collection_boxes", "addr:city": "SUNLAND", "addr:country": "US", "addr:postcode": "91040", "addr:state": "CA", "addr:street_address": "8587 FENWICK ST", "amenity": "post_box", "collection_times": "Mo-Sa 17:00", "name": "USPS COLLECTION BOX - EXPRESS", "note": "ON 12/24 AND 12/31, THIS BOX MAY BE COLLECTED AS EARLY AS 12 NOON.", "nsi_id": "unitedstatespostalservice-a77078", "operator": "United States Postal Service", "operator:short": "USPS", "operator:type": "public", "operator:wikidata": "Q668687", "ref": "9104000002"}, "type": "Feature"}
{"geometry": {"coordinates": [-118.313831, 34.25981], "type": "Point"}, "id": "1PX48HqVl3jkjLMgb_kypgeLlpI=", "properties": {"@source_uri": "https://tools.usps.com/UspsToolsRestServices/rest/POLocator/findLocations", "@spider": "usps_collection_boxes", "addr:city": "SUNLAND", "addr:country": "US", "addr:postcode": "91040", "addr:state": "CA", "addr:street_address": "8307 FOOTHILL BLVD", "amenity": "post_box", "collection_times": "Mo-Sa 13:00", "note": "ON 12/24 AND 12/31, THIS BOX MAY BE COLLECTED AS EARLY AS 12 NOON.", "nsi_id": "unitedstatespostalservice-a77078", "operator": "United States Postal Service", "operator:short": "USPS", "operator:type": "public", "operator:wikidata": "Q668687", "ref": "9104000006"}, "type": "Feature"}
{"geometry": {"coordinates": [-118.318646, 34.259628], "type": "Point"}, "id": "yQknbJTHP4jixXeQYV4h_TREE6I=", "properties": {"@source_uri": "https://tools.usps.com/UspsToolsRestServices/rest/POLocator/findLocations", "@spider": "usps_collection_boxes", "addr:city": "SUNLAND", "addr:country": "US", "addr:postcode": "91040", "addr:state": "CA", "addr:street_address": "8522 FOOTHILL BLVD", "amenity": "post_box", "collection_times": "Mo-Sa 13:00", "note": "ON 12/24 AND 12/31, THIS BOX MAY BE COLLECTED AS EARLY AS 12 NOON.", "nsi_id": "unitedstatespostalservice-a77078", "operator": "United States Postal Service", "operator:short": "USPS", "operator:type": "public", "operator:wikidata": "Q668687", "ref": "9104000015"}, "type": "Feature"}
{"geometry": {"coordinates": [-118.3129, 34.259675], "type": "Point"}, "id": "KwW0vlw-v1jZeBQ0j8cy5C8G5lo=", "properties": {"@source_uri": "https://tools.usps.com/UspsToolsRestServices/rest/POLocator/findLocations", "@spider": "usps_collection_boxes", "addr:city": "SUNLAND", "addr:country": "US", "addr:postcode": "91040", "addr:state": "CA", "addr:street_address": "8587 FENWICK ST", "amenity": "post_box", "collection_times": "Mo-Sa 17:00", "note": "ON 12/24 AND 12/31, THIS BOX MAY BE COLLECTED AS EARLY AS 12 NOON.", "nsi_id": "unitedstatespostalservice-a77078", "operator": "United States Postal Service", "operator:short": "USPS", "operator:type": "public", "operator:wikidata": "Q668687", "ref": "9104000020"}, "type": "Feature"}
{"geometry": {"coordinates": [-118.319386409, 34.261502289], "type": "Point"}, "id": "dELEJ0Lsg82L9LP2voEINk4BkFg=", "properties": {"@source_uri": "https://tools.usps.com/UspsToolsRestServices/rest/POLocator/findLocations", "@spider": "usps_collection_boxes", "addr:city": "SUNLAND", "addr:country": "US", "addr:postcode": "91040", "addr:state": "CA", "addr:street_address": "8587 FENWICK ST", "amenity": "post_box", "collection_times": "Mo-Fr 17:00", "indoor": "yes", "note": "ON 12/24 AND 12/31, THIS BOX MAY BE COLLECTED AS EARLY AS 12 NOON.", "nsi_id": "unitedstatespostalservice-a77078", "operator": "United States Postal Service", "operator:short": "USPS", "operator:type": "public", "operator:wikidata": "Q668687", "ref": "9104000025"}, "type": "Feature"}
{"geometry": {"coordinates": [-118.285514, 34.248105], "type": "Point"}, "id": "ia-u2yjS0wiN9tFjWbWT2UlZ8YU=", "properties": {"@source_uri": "https://tools.usps.com/UspsToolsRestServices/rest/POLocator/findLocations", "@spider": "usps_collection_boxes", "addr:city": "TUJUNGA", "addr:country": "US", "addr:postcode": "91042", "addr:state": "CA", "addr:street_address": "7061 FOOTHILL BLVD", "amenity": "post_box", "collection_times": "Mo-Sa 10:00", "nsi_id": "unitedstatespostalservice-a77078", "operator": "United States Postal Service", "operator:short": "USPS", "operator:type": "public", "operator:wikidata": "Q668687", "ref": "9104200011"}, "type": "Feature"}
{"geometry": {"coordinates": [-118.2820050038, 34.24759899], "type": "Point"}, "id": "5qGKMAm5nKZ81O5LQ4lBI7ZOAB0=", "properties": {"@source_uri": "https://tools.usps.com/UspsToolsRestServices/rest/POLocator/findLocations", "@spider": "usps_collection_boxes", "addr:city": "TUJUNGA", "addr:country": "US", "addr:postcode": "91042", "addr:state": "CA", "addr:street_address": "6900 FOOTHILL BLVD", "amenity": "post_box", "collection_times": "Mo-Fr 10:00; Sa 15:00", "note": "ON 12/24 AND 12/31, THIS BOX MAY BE COLLECTED AS EARLY AS 12 NOON.", "nsi_id": "unitedstatespostalservice-a77078", "operator": "United States Postal Service", "operator:short": "USPS", "operator:type": "public", "operator:wikidata": "Q668687", "ref": "9104200012"}, "type": "Feature"}
{"geometry": {"coordinates": [-118.274566, 34.245992], "type": "Point"}, "id": "V2PAdYvvaZYodCWg09PlvnEqxpI=", "properties": {"@source_uri": "https://tools.usps.com/UspsToolsRestServices/rest/POLocator/findLocations", "@spider": "usps_collection_boxes", "addr:city": "TUJUNGA", "addr:country": "US", "addr:postcode": "91042", "addr:state": "CA", "addr:street_address": "6545 FOOTHILL BLVD", "amenity": "post_box", "collection_times": "Mo-Fr 10:00; Sa 15:00", "note": "ON 12/24 AND 12/31, THIS BOX MAY BE COLLECTED AS EARLY AS 12 NOON.", "nsi_id": "unitedstatespostalservice-a77078", "operator": "United States Postal Service", "operator:short": "USPS", "operator:type": "public", "operator:wikidata": "Q668687", "ref": "9104200013"}, "type": "Feature"}
{"geometry": {"coordinates": [-118.267497, 34.24111], "type": "Point"}, "id": "o_9_uYgSHZf68BKzYeKDYc8zDnM=", "properties": {"@source_uri": "https://tools.usps.com/UspsToolsRestServices/rest/POLocator/findLocations", "@spider": "usps_collection_boxes", "addr:city": "TUJUNGA", "addr:country": "US", "addr:postcode": "91042", "addr:state": "CA", "addr:street_address": "6240 FOOTHILL BLVD", "amenity": "post_box", "collection_times": "Mo-Fr 10:00; Sa 15:00", "note": "ON 12/24 AND 12/31, THIS BOX MAY BE COLLECTED AS EARLY AS 12 NOON.", "nsi_id": "unitedstatespostalservice-a77078", "operator": "United States Postal Service", "operator:short": "USPS", "operator:type": "public", "operator:wikidata": "Q668687", "ref": "9104200016"}, "type": "Feature"}
{"geometry": {"coordinates": [-118.2908711918, 34.2515327854], "type": "Point"}, "id": "-sJyW6DKmRPp_-WR3RCEtwCI-XU=", "properties": {"@source_uri": "https://tools.usps.com/UspsToolsRestServices/rest/POLocator/findLocations", "@spider": "usps_collection_boxes", "addr:city": "TUJUNGA", "addr:country": "US", "addr:postcode": "91042", "addr:state": "CA", "addr:street_address": "10209 TUJUNGA CANYON BLVD", "amenity": "post_box", "collection_times": "Mo-Sa 17:00", "note": "ON 12/24 AND 12/31, THIS BOX MAY BE COLLECTED AS EARLY AS 12 NOON.", "nsi_id": "unitedstatespostalservice-a77078", "operator": "United States Postal Service", "operator:short": "USPS", "operator:type": "public", "operator:wikidata": "Q668687", "ref": "9104200019"}, "type": "Feature"}
{"geometry": {"coordinates": [-118.2908711918, 34.2515327854], "type": "Point"}, "id": "BQKae1zkz-EtRIRm7onGIseFKG0=", "properties": {"@source_uri": "https://tools.usps.com/UspsToolsRestServices/rest/POLocator/findLocations", "@spider": "usps_collection_boxes", "addr:city": "TUJUNGA", "addr:country": "US", "addr:postcode": "91042", "addr:state": "CA", "addr:street_address": "10209 TUJUNGA CANYON BLVD", "amenity": "post_box", "collection_times": "Mo-Sa 17:00", "note": "ON 12/24 AND 12/31, THIS BOX MAY BE COLLECTED AS EARLY AS 12 NOON.", "nsi_id": "unitedstatespostalservice-a77078", "operator": "United States Postal Service", "operator:short": "USPS", "operator:type": "public", "operator:wikidata": "Q668687", "ref": "9104200020"}, "type": "Feature"}
{"geometry": {"coordinates": [-118.2908711918, 34.2515327854], "type": "Point"}, "id": "4ICYZfGFgKJ4ATa1iC5RIz8-9aA=", "properties": {"@source_uri": "https://tools.usps.com/UspsToolsRestServices/rest/POLocator/findLocations", "@spider": "usps_collection_boxes", "addr:city": "TUJUNGA", "addr:country": "US", "addr:postcode": "91042", "addr:state": "CA", "addr:street_address": "10209 TUJUNGA CANYON BLVD", "amenity": "post_box", "collection_times": "Mo-Sa 17:00", "indoor": "yes", "note": "ON 12/24 AND 12/31, THIS BOX MAY BE COLLECTED AS EARLY AS 12 NOON.", "nsi_id": "unitedstatespostalservice-a77078", "operator": "United States Postal Service", "operator:short": "USPS", "operator:type": "public", "operator:wikidata": "Q668687", "ref": "9104200022"}, "type": "Feature"}
{"geometry": {"coordinates": [-118.2913049768, 34.2515360118], "type": "Point"}, "id": "SgDJMoGgt6GXOMa06yO6eo2RRFY=", "properties": {"@source_uri": "https://tools.usps.com/UspsToolsRestServices/rest/POLocator/findLocations", "@spider": "usps_collection_boxes", "addr:city": "TUJUNGA", "addr:country": "US", "addr:postcode": "91042", "addr:state": "CA", "addr:street_address": "10209 TUJUNGA CANYON BLVD", "amenity": "post_box", "collection_times": "Mo-Fr 17:00", "indoor": "yes", "note": "ON 12/24 AND 12/31, THIS BOX MAY BE COLLECTED AS EARLY AS 12 NOON.", "nsi_id": "unitedstatespostalservice-a77078", "operator": "United States Postal Service", "operator:short": "USPS", "operator:type": "public", "operator:wikidata": "Q668687", "ref": "9104200028"}, "type": "Feature"}
{"geometry": {"coordinates": [-118.2403848525, 34.211618612], "type": "Point"}, "id": "BsMKuOvzk0q6u2RU1DplYvCkjXs=", "properties": {"@source_uri": "https://tools.usps.com/UspsToolsRestServices/rest/POLocator/findLocations", "@spider": "usps_collection_boxes", "addr:city": "VERDUGO CITY", "addr:country": "US", "addr:postcode": "91046", "addr:state": "CA", "addr:street_address": "2816 HONOLULU AVE", "amenity": "post_box", "collection_times": "Mo-Fr 17:00", "indoor": "yes", "note": "ON 12/24 AND 12/31, THIS BOX MAY BE COLLECTED AS EARLY AS 12 NOON.", "nsi_id": "unitedstatespostalservice-a77078", "operator": "United States Postal Service", "operator:short": "USPS", "operator:type": "public", "operator:wikidata": "Q668687", "ref": "9104600000"}, "type": "Feature"}
{"geometry": {"coordinates": [-118.2403848525, 34.211618612], "type": "Point"}, "id": "YONX5xZdad3qDcwuXlutLDW9ARs=", "properties": {"@source_uri": "https://tools.usps.com/UspsToolsRestServices/rest/POLocator/findLocations", "@spider": "usps_collection_boxes", "addr:city": "VERDUGO CITY", "addr:country": "US", "addr:postcode": "91046", "addr:state": "CA", "addr:street_address": "2816 HONOLULU AVE", "amenity": "post_box", "collection_times": "Mo-Fr 17:00; Sa 15:00", "note": "ON 12/24 AND 12/31, THIS BOX MAY BE COLLECTED AS EARLY AS 12 NOON.", "nsi_id": "unitedstatespostalservice-a77078", "operator": "United States Postal Service", "operator:short": "USPS", "operator:type": "public", "operator:wikidata": "Q668687", "ref": "9104600001"}, "type": "Feature"}
{"geometry": {"coordinates": [-118.2403848525, 34.211618612], "type": "Point"}, "id": "yEuktXvDA1F5D0bLd5lpAlFjil4=", "properties": {"@source_uri": "https://tools.usps.com/UspsToolsRestServices/rest/POLocator/findLocations", "@spider": "usps_collection_boxes", "addr:city": "VERDUGO CITY", "addr:country": "US", "addr:postcode": "91046", "addr:state": "CA", "addr:street_address": "2816 HONOLULU AVE", "amenity": "post_box", "collection_times": "Mo-Fr 17:00; Sa 15:00", "note": "ON 12/24 AND 12/31, THIS BOX MAY BE COLLECTED AS EARLY AS 12 NOON.", "nsi_id": "unitedstatespostalservice-a77078", "operator": "United States Postal Service", "operator:short": "USPS", "operator:type": "public", "operator:wikidata": "Q668687", "ref": "9104600002"}, "type": "Feature"}
{"geometry": {"coordinates": [-118.2403848525, 34.211618612], "type": "Point"}, "id": "0EmMC2KMlWSAJet8xiZIqT5Arlg=", "properties": {"@source_uri": "https://tools.usps.com/UspsToolsRestServices/rest/POLocator/findLocations", "@spider": "usps_collection_boxes", "addr:city": "VERDUGO CITY", "addr:country": "US", "addr:postcode": "91046", "addr:state": "CA", "addr:street_address": "2816 HONOLULU AVE", "amenity": "post_box", "collection_times": "Mo-Fr 17:00; Sa 15:00", "note": "ON 12/24 AND 12/31, THIS BOX MAY BE COLLECTED AS EARLY AS 12 NOON.", "nsi_id": "unitedstatespostalservice-a77078", "operator": "United States Postal Service", "operator:short": "USPS", "operator:type": "public", "operator:wikidata": "Q668687", "ref": "9104600003"}, "type": "Feature"}
{"geometry": {"coordinates": [-118.2403848525, 34.211618612], "type": "Point"}, "id": "mbgiG6OWglL7BrOq7XSWitb_Z6c=", "properties": {"@source_uri": "https://tools.usps.com/UspsToolsRestServices/rest/POLocator/findLocations", "@spider": "usps_collection_boxes", "addr:city": "VERDUGO CITY", "addr:country": "US", "addr:postcode": "91046", "addr:state": "CA", "addr:street_address": "2816 HONOLULU AVE", "amenity": "post_box", "collection_times": "Mo-Fr 17:00", "indoor": "yes", "note": "ON 12/24 AND 12/31, THIS BOX MAY BE COLLECTED AS EARLY AS 12 NOON.", "nsi_id": "unitedstatespostalservice-a77078", "operator": "United States Postal Service", "operator:short": "USPS", "operator:type": "public", "operator:wikidata": "Q668687", "ref": "9104600005"}, "type": "Feature"}
