{"dataset_attributes": {"@spider": "usps_collection_boxes", "spider:collection_time": "2023-09-16T08:22:24.198600"}, "geometry": {"coordinates": [-118.1445850552, 34.1495790828], "type": "Point"}, "id": "d6fQ6-HQLBvVGsCLA2bp1boKnMs=", "properties": {"@spider": "usps_collection_boxes", "addr:city": "PASADENA", "addr:country": "US", "addr:full": "285 E WALNUT ST", "addr:postcode": "91101", "addr:state": "CA", "amenity": "post_box", "brand": "United States Postal Service", "brand:wikidata": "Q668687", "collection_times": "Mo-Sa 10:00", "name": "USPS COLLECTION BOX - BLUE BOX", "nsi_id": "unitedstatespostalservice-a77078", "operator": "United States Postal Service", "operator:short": "USPS", "operator:type": "public", "operator:wikidata": "Q668687", "ref": "9110100002"}, "type": "Feature"}
{"dataset_attributes": {"@spider": "usps_collection_boxes", "spider:collection_time": "2023-09-16T08:22:24.198600"}, "geometry": {"coordinates": [-118.133359, 34.142478], "type": "Point"}, "id": "W6eW983brz86C7z-Mw8Zf8t-rSM=", "properties": {"@spider": "usps_collection_boxes", "addr:city": "PASADENA", "addr:country": "US", "addr:full": "860 CORDOVA ST", "addr:postcode": "91101", "addr:state": "CA", "amenity": "post_box", "brand": "United States Postal Service", "brand:wikidata": "Q668687", "collection_times": "Mo-Sa 10:00", "name": "USPS COLLECTION BOX - BLUE BOX", "nsi_id": "unitedstatespostalservice-a77078", "operator": "United States Postal Service", "operator:short": "USPS", "operator:type": "public", "operator:wikidata": "Q668687", "ref": "9110100003"}, "type": "Feature"}
{"dataset_attributes": {"@spider": "usps_collection_boxes", "spider:collection_time": "2023-09-16T08:22:24.198600"}, "geometry": {"coordinates": [-118.142864, 34.142308], "type": "Point"}, "id": "f3Ro4oug5DG80VlIlfjG3_x3gp4=", "properties": {"@spider": "usps_collection_boxes", "addr:city": "PASADENA", "addr:country": "US", "addr:full": "200 S EUCLID AVE", "addr:postcode": "91101", "addr:state": "CA", "amenity": "post_box", "brand": "United States Postal Service", "brand:wikidata": "Q668687", "collection_times": "Mo-Sa 10:00", "name": "USPS COLLECTION BOX - BLUE BOX", "nsi_id": "unitedstatespostalservice-a77078", "operator": "United States Postal Service", "operator:short": "USPS", "operator:type": "public", "operator:wikidata": "Q668687", "ref": "9110100009"}, "type": "Feature"}
{"dataset_attributes": {"@spider": "usps_collection_boxes", "spider:collection_time": "2023-09-16T08:22:24.198600"}, "geometry": {"coordinates": [-118.144332, 34.146483], "type": "Point"}, "id": "VdZ7ID_eV_gzhJUhU6liXzIu1KI=", "properties": {"@spider": "usps_collection_boxes", "addr:city": "PASADENA", "addr:country": "US", "addr:full": "301 E COLORADO BLVD", "addr:postcode": "91101", "addr:state": "CA", "amenity": "post_box", "brand": "United States Postal Service", "brand:wikidata": "Q668687", "collection_times": "Mo-Sa 10:00", "name": "USPS COLLECTION BOX - BLUE BOX", "nsi_id": "unitedstatespostalservice-a77078", "operator": "United States Postal Service", "operator:short": "USPS", "operator:type": "public", "operator:wikidata": "Q668687", "ref": "9110100012"}, "type": "Feature"}
{"dataset_attributes": {"@spider": "usps_collection_boxes", "spider:collection_time": "2023-09-16T08:22:24.198600"}, "geometry": {"coordinates": [-118.132429, 34.136917], "type": "Point"}, "id": "2VEgemUXEJL-VgQWpVJp0LyPJLA=", "properties": {"@spider": "usps_collection_boxes", "addr:city": "PASADENA", "addr:country": "US", "addr:full": "519 S LAKE AVE", "addr:postcode": "91101", "addr:state": "CA", "amenity": "post_box", "brand": "United States Postal Service", "brand:wikidata": "Q668687", "collection_times": "Mo-Sa 10:00", "name": "USPS COLLECTION BOX - BLUE BOX", "nsi_id": "unitedstatespostalservice-a77078", "operator": "United States Postal Service", "operator:short": "USPS", "operator:type": "public", "operator:wikidata": "Q668687", "ref": "9110100037"}, "type": "Feature"}
{"dataset_attributes": {"@spider": "usps_collection_boxes", "spider:collection_time": "2023-09-16T08:22:24.198600"}, "geometry": {"coordinates": [-118.132417, 34.142335], "type": "Point"}, "id": "qH3j7cu4XAHFJN8f5thLsB4-GbU=", "properties": {"@spider": "usps_collection_boxes", "addr:city": "PASADENA", "addr:country": "US", "addr:full": "200 S LAKE AVE", "addr:postcode": "91101", "addr:state": "CA", "amenity": "post_box", "brand": "United States Postal Service", "brand:wikidata": "Q668687", "collection_times": "Mo-Sa 10:00", "name": "USPS COLLECTION BOX - BLUE BOX", "nsi_id": "unitedstatespostalservice-a77078", "operator": "United States Postal Service", "operator:short": "USPS", "operator:type": "public", "operator:wikidata": "Q668687", "ref": "9110100039"}, "type": "Feature"}
{"dataset_attributes": {"@spider": "usps_collection_boxes", "spider:collection_time": "2023-09-16T08:22:24.198600"}, "geometry": {"coordinates": [-118.13246, 34.140808], "type": "Point"}, "id": "Eo1yuILiW26dRtokSx0l0wYy-z4=", "properties": {"@spider": "usps_collection_boxes", "addr:city": "PASADENA", "addr:country": "US", "addr:full": "285 S LAKE AVE", "addr:postcode": "91101", "addr:state": "CA", "amenity": "post_box", "brand": "United States Postal Service", "brand:wikidata": "Q668687", "collection_times": "Mo-Sa 10:00", "name": "USPS COLLECTION BOX - BLUE BOX", "nsi_id": "unitedstatespostalservice-a77078", "operator": "United States Postal Service", "operator:short": "USPS", "operator:type": "public", "operator:wikidata": "Q668687", "ref": "9110100040"}, "type": "Feature"}
{"dataset_attributes": {"@spider": "usps_collection_boxes", "spider:collection_time": "2023-09-16T08:22:24.198600"}, "geometry": {"coordinates": [-118.1403139597, 34.143131014], "type": "Point"}, "id": "Bev_bpY3ECVW4ZCHr2Ct-J6aShs=", "properties": {"@spider": "usps_collection_boxes", "addr:city": "PASADENA", "addr:country": "US", "addr:full": "150 S LOS ROBLES AVE", "addr:postcode": "91101", "addr:state": "CA", "amenity": "post_box", "brand": "United States Postal Service", "brand:wikidata": "Q668687", "collection_times": "Mo-Sa 10:00", "name": "USPS COLLECTION BOX - BLUE BOX", "nsi_id": "unitedstatespostalservice-a77078", "operator": "United States Postal Service", "operator:short": "USPS", "operator:type": "public", "operator:wikidata": "Q668687", "ref": "9110100056"}, "type": "Feature"}
{"dataset_attributes": {"@spider": "usps_collection_boxes", "spider:collection_time": "2023-09-16T08:22:24.198600"}, "geometry": {"coordinates": [-118.146614, 34.149595], "type": "Point"}, "id": "jwJwKausULCIq0lV0hNGEQ4fWTY=", "properties": {"@spider": "usps_collection_boxes", "addr:city": "PASADENA", "addr:country": "US", "addr:full": "215 N MARENGO AVE", "addr:postcode": "91101", "addr:state": "CA", "amenity": "post_box", "brand": "United States Postal Service", "brand:wikidata": "Q668687", "collection_times": "Mo-Sa 10:00", "name": "USPS COLLECTION BOX - BLUE BOX", "nsi_id": "unitedstatespostalservice-a77078", "operator": "United States Postal Service", "operator:short": "USPS", "operator:type": "public", "operator:wikidata": "Q668687", "ref": "9110100072"}, "type": "Feature"}
{"dataset_attributes": {"@spider": "usps_collection_boxes", "spider:collection_time": "2023-09-16T08:22:24.198600"}, "geometry": {"coordinates": [-118.143917, 34.146804], "type": "Point"}, "id": "pFzMevUeQj0Y-k_Cwv-EcLH6pvc=", "properties": {"@spider": "usps_collection_boxes", "addr:city": "PASADENA", "addr:country": "US", "addr:full": "300 E UNION ST", "addr:postcode": "91101", "addr:state": "CA", "amenity": "post_box", "brand": "United States Postal Service", "brand:wikidata": "Q668687", "collection_times": "Mo-Sa 10:00", "name": "USPS COLLECTION BOX - BLUE BOX", "nsi_id": "unitedstatespostalservice-a77078", "operator": "United States Postal Service", "operator:short": "USPS", "operator:type": "public", "operator:wikidata": "Q668687", "ref": "9110100083"}, "type": "Feature"}
{"dataset_attributes": {"@spider": "usps_collection_boxes", "spider:collection_time": "2023-09-16T08:22:24.198600"}, "geometry": {"coordinates": [-118.13335, 34.14246], "type": "Point"}, "id": "zVfeGRn7pzTLZQMkqcLsX9WNeps=", "properties": {"@spider": "usps_collection_boxes", "addr:city": "PASADENA", "addr:country": "US", "addr:full": "860 CORDOVA ST", "addr:postcode": "91101", "addr:state": "CA", "amenity": "post_box", "brand": "United States Postal Service", "brand:wikidata": "Q668687", "collection_times": "Mo-Sa 10:00", "name": "USPS COLLECTION BOX - BLUE BOX", "nsi_id": "unitedstatespostalservice-a77078", "operator": "United States Postal Service", "operator:short": "USPS", "operator:type": "public", "operator:wikidata": "Q668687", "ref": "9110100090"}, "type": "Feature"}
{"dataset_attributes": {"@spider": "usps_collection_boxes", "spider:collection_time": "2023-09-16T08:22:24.198600"}, "geometry": {"coordinates": [-118.144897, 34.145932], "type": "Point"}, "id": "zXvznFGHP8bEYTZIWbnVCa6abVA=", "properties": {"@spider": "usps_collection_boxes", "addr:city": "PASADENA", "addr:country": "US", "addr:full": "263 E COLORADO BLVD", "addr:postcode": "91101", "addr:state": "CA", "amenity": "post_box", "brand": "United States Postal Service", "brand:wikidata": "Q668687", "collection_times": "Mo-Fr 17:00; Sa 15:00", "name": "USPS COLLECTION BOX - BLUE BOX", "note": "ON 12/24 AND 12/31, THIS BOX MAY BE COLLECTED AS EARLY AS 12 NOON.", "nsi_id": "unitedstatespostalservice-a77078", "operator": "United States Postal Service", "operator:short": "USPS", "operator:type": "public", "operator:wikidata": "Q668687", "ref": "9110100097"}, "type": "Feature"}
{"dataset_attributes": {"@spider": "usps_collection_boxes", "spider:collection_time": "2023-09-16T08:22:24.198600"}, "geometry": {"coordinates": [-118.131497, 34.151187], "type": "Point"}, "id": "4mjqjedYXiWG5lDBy0uaVs1Aw0Q=", "properties": {"@spider": "usps_collection_boxes", "addr:city": "PASADENA", "addr:country": "US", "addr:full": "300 N LAKE AVE", "addr:postcode": "91101", "addr:state": "CA", "amenity": "post_box", "brand": "United States Postal Service", "brand:wikidata": "Q668687", "collection_times": "Mo-Sa 10:00", "name": "USPS COLLECTION BOX - BLUE BOX", "nsi_id": "unitedstatespostalservice-a77078", "operator": "United States Postal Service", "operator:short": "USPS", "operator:type": "public", "operator:wikidata": "Q668687", "ref": "9110100117"}, "type": "Feature"}
{"dataset_attributes": {"@spider": "usps_collection_boxes", "spider:collection_time": "2023-09-16T08:22:24.198600"}, "geometry": {"coordinates": [-118.132795, 34.145988], "type": "Point"}, "id": "-iIUiRGvanjFXpOhVtpNJJsEAHk=", "properties": {"@spider": "usps_collection_boxes", "addr:city": "PASADENA", "addr:country": "US", "addr:full": "855 E COLORADO BLVD", "addr:postcode": "91101", "addr:state": "CA", "amenity": "post_box", "brand": "United States Postal Service", "brand:wikidata": "Q668687", "collection_times": "Mo-Sa 10:00", "name": "USPS COLLECTION BOX - BLUE BOX", "nsi_id": "unitedstatespostalservice-a77078", "operator": "United States Postal Service", "operator:short": "USPS", "operator:type": "public", "operator:wikidata": "Q668687", "ref": "9110100128"}, "type": "Feature"}
{"dataset_attributes": {"@spider": "usps_collection_boxes", "spider:collection_time": "2023-09-16T08:22:24.198600"}, "geometry": {"coordinates": [-118.140084, 34.145943], "type": "Point"}, "id": "_JKvnubEKKPQNe-BtcQ9O1ZB6bg=", "properties": {"@spider": "usps_collection_boxes", "addr:city": "PASADENA", "addr:country": "US", "addr:full": "497 E COLORADO BLVD", "addr:postcode": "91101", "addr:state": "CA", "amenity": "post_box", "brand": "United States Postal Service", "brand:wikidata": "Q668687", "collection_times": "Mo-Sa 10:00", "name": "USPS COLLECTION BOX - BLUE BOX", "nsi_id": "unitedstatespostalservice-a77078", "operator": "United States Postal Service", "operator:short": "USPS", "operator:type": "public", "operator:wikidata": "Q668687", "ref": "9110100129"}, "type": "Feature"}
{"dataset_attributes": {"@spider": "usps_collection_boxes", "spider:collection_time": "2023-09-16T08:22:24.198600"}, "geometry": {"coordinates": [-118.1349, 34.144602], "type": "Point"}, "id": "uPb7McjEI_nPiGWzzlDNcAmWRF8=", "properties": {"@spider": "usps_collection_boxes", "addr:city": "PASADENA", "addr:country": "US", "addr:full": "747 E GREEN ST", "addr:postcode": "91101", "addr:state": "CA", "amenity": "post_box", "brand": "United States Postal Service", "brand:wikidata": "Q668687", "collection_times": "Mo-Sa 10:00", "name": "USPS COLLECTION BOX - BLUE BOX", "nsi_id": "unitedstatespostalservice-a77078", "operator": "United States Postal Service", "operator:short": "USPS", "operator:type": "public", "operator:wikidata": "Q668687", "ref": "9110100135"}, "type": "Feature"}
{"dataset_attributes": {"@spider": "usps_collection_boxes", "spider:collection_time": "2023-09-16T08:22:24.198600"}, "geometry": {"coordinates": [-118.13973, 34.144672], "type": "Point"}, "id": "YnTMhYptEpf7Pt8KxlyU-wuMLq4=", "properties": {"@spider": "usps_collection_boxes", "addr:city": "PASADENA", "addr:country": "US", "addr:full": "500 E GREEN ST", "addr:postcode": "91101", "addr:state": "CA", "amenity": "post_box", "brand": "United States Postal Service", "brand:wikidata": "Q668687", "collection_times": "Mo-Sa 10:00", "name": "USPS COLLECTION BOX - BLUE BOX", "nsi_id": "unitedstatespostalservice-a77078", "operator": "United States Postal Service", "operator:short": "USPS", "operator:type": "public", "operator:wikidata": "Q668687", "ref": "9110100137"}, "type": "Feature"}
{"dataset_attributes": {"@spider": "usps_collection_boxes", "spider:collection_time": "2023-09-16T08:22:24.198600"}, "geometry": {"coordinates": [-118.132243, 34.14466], "type": "Point"}, "id": "2tWRSf1nIwrUEpaMzmdL0hWMUOo=", "properties": {"@spider": "usps_collection_boxes", "addr:city": "PASADENA", "addr:country": "US", "addr:full": "55 S LAKE AVE", "addr:postcode": "91101", "addr:state": "CA", "amenity": "post_box", "brand": "United States Postal Service", "brand:wikidata": "Q668687", "collection_times": "Mo-Sa 10:00", "name": "USPS COLLECTION BOX - BLUE BOX", "nsi_id": "unitedstatespostalservice-a77078", "operator": "United States Postal Service", "operator:short": "USPS", "operator:type": "public", "operator:wikidata": "Q668687", "ref": "9110100143"}, "type": "Feature"}
{"dataset_attributes": {"@spider": "usps_collection_boxes", "spider:collection_time": "2023-09-16T08:22:24.198600"}, "geometry": {"coordinates": [-118.138469, 34.147095], "type": "Point"}, "id": "7-L0kcUfETcOB0KCWdXAeX9wEzw=", "properties": {"@spider": "usps_collection_boxes", "addr:city": "PASADENA", "addr:country": "US", "addr:full": "65 N MADISON AVE", "addr:postcode": "91101", "addr:state": "CA", "amenity": "post_box", "brand": "United States Postal Service", "brand:wikidata": "Q668687", "collection_times": "Mo-Sa 10:00", "name": "USPS COLLECTION BOX - BLUE BOX", "nsi_id": "unitedstatespostalservice-a77078", "operator": "United States Postal Service", "operator:short": "USPS", "operator:type": "public", "operator:wikidata": "Q668687", "ref": "9110100144"}, "type": "Feature"}
{"dataset_attributes": {"@spider": "usps_collection_boxes", "spider:collection_time": "2023-09-16T08:22:24.198600"}, "geometry": {"coordinates": [-118.131462, 34.143387], "type": "Point"}, "id": "OqAo94XF4LlKKbAYlctJePXdyKQ=", "properties": {"@spider": "usps_collection_boxes", "addr:city": "PASADENA", "addr:country": "US", "addr:full": "140 SHOPPERS LN", "addr:postcode": "91101", "addr:state": "CA", "amenity": "post_box", "brand": "United States Postal Service", "brand:wikidata": "Q668687", "collection_times": "Mo-Sa 10:00", "name": "USPS COLLECTION BOX - BLUE BOX", "nsi_id": "unitedstatespostalservice-a77078", "operator": "United States Postal Service", "operator:short": "USPS", "operator:type": "public", "operator:wikidata": "Q668687", "ref": "9110100155"}, "type": "Feature"}
{"dataset_attributes": {"@spider": "usps_collection_boxes", "spider:collection_time": "2023-09-16T08:22:24.198600"}, "geometry": {"coordinates": [-118.133519, 34.145927], "type": "Point"}, "id": "wupvXJOWeWaD6gAUZcz-8vay_bQ=", "properties": {"@spider": "usps_collection_boxes", "addr:city": "PASADENA", "addr:country": "US", "addr:full": "800 E COLORADO BLVD", "addr:postcode": "91101", "addr:state": "CA", "amenity": "post_box", "brand": "United States Postal Service", "brand:wikidata": "Q668687", "collection_times": "Mo-Sa 10:00", "name": "USPS COLLECTION BOX - BLUE BOX", "nsi_id": "unitedstatespostalservice-a77078", "operator": "United States Postal Service", "operator:short": "USPS", "operator:type": "public", "operator:wikidata": "Q668687", "ref": "9110100166"}, "type": "Feature"}
{"dataset_attributes": {"@spider": "usps_collection_boxes", "spider:collection_time": "2023-09-16T08:22:24.198600"}, "geometry": {"coordinates": [-118.1446325255, 34.1458404794], "type": "Point"}, "id": "DrTz3lG3NiniO7h6ntG81j1xK6o=", "properties": {"@spider": "usps_collection_boxes", "addr:city": "PASADENA", "addr:country": "US", "addr:full": "281 E COLORADO BLVD", "addr:postcode": "91101", "addr:state": "CA", "amenity": "post_box", "brand": "United States Postal Service", "brand:wikidata": "Q668687", "collection_times": "Mo-Fr 17:00; Sa 14:00", "name": "USPS COLLECTION BOX - PO LOBBY", "note": "ON 12/24 AND 12/31, THIS BOX MAY BE COLLECTED AS EARLY AS 12 NOON.", "nsi_id": "unitedstatespostalservice-a77078", "operator": "United States Postal Service", "operator:short": "USPS", "operator:type": "public", "operator:wikidata": "Q668687", "ref": "9110100167"}, "type": "Feature"}
{"dataset_attributes": {"@spider": "usps_collection_boxes", "spider:collection_time": "2023-09-16T08:22:24.198600"}, "geometry": {"coordinates": [-118.133016, 34.141373], "type": "Point"}, "id": "QDDJzHTwz0Q1hEnxhw2JOQXVoh4=", "properties": {"@spider": "usps_collection_boxes", "addr:city": "PASADENA", "addr:country": "US", "addr:full": "251 S LAKE AVE", "addr:postcode": "91101", "addr:state": "CA", "amenity": "post_box", "brand": "United States Postal Service", "brand:wikidata": "Q668687", "collection_times": "Mo-Sa 10:00", "name": "USPS COLLECTION BOX - BLUE BOX", "nsi_id": "unitedstatespostalservice-a77078", "operator": "United States Postal Service", "operator:short": "USPS", "operator:type": "public", "operator:wikidata": "Q668687", "ref": "9110100168"}, "type": "Feature"}
{"dataset_attributes": {"@spider": "usps_collection_boxes", "spider:collection_time": "2023-09-16T08:22:24.198600"}, "geometry": {"coordinates": [-118.141347, 34.141751], "type": "Point"}, "id": "obyMozqvF_Em3UmnXEwoEKgXQ5s=", "properties": {"@spider": "usps_collection_boxes", "addr:city": "PASADENA", "addr:country": "US", "addr:full": "245 S LOS ROBLES AVE", "addr:postcode": "91101", "addr:state": "CA", "amenity": "post_box", "brand": "United States Postal Service", "brand:wikidata": "Q668687", "collection_times": "Mo-Sa 10:00", "name": "USPS COLLECTION BOX - BLUE BOX", "nsi_id": "unitedstatespostalservice-a77078", "operator": "United States Postal Service", "operator:short": "USPS", "operator:type": "public", "operator:wikidata": "Q668687", "ref": "9110100187"}, "type": "Feature"}
{"dataset_attributes": {"@spider": "usps_collection_boxes", "spider:collection_time": "2023-09-16T08:22:24.198600"}, "geometry": {"coordinates": [-118.133844, 34.14525], "type": "Point"}, "id": "QBqACS-OpIDsrrVtbZF34s7Rj7Q=", "properties": {"@spider": "usps_collection_boxes", "addr:city": "PASADENA", "addr:country": "US", "addr:full": "45 S HUDSON AVE", "addr:postcode": "91101", "addr:state": "CA", "amenity": "post_box", "brand": "United States Postal Service", "brand:wikidata": "Q668687", "collection_times": "Mo-Sa 10:00", "name": "USPS COLLECTION BOX - BLUE BOX", "nsi_id": "unitedstatespostalservice-a77078", "operator": "United States Postal Service", "operator:short": "USPS", "operator:type": "public", "operator:wikidata": "Q668687", "ref": "9110100188"}, "type": "Feature"}
{"dataset_attributes": {"@spider": "usps_collection_boxes", "spider:collection_time": "2023-09-16T08:22:24.198600"}, "geometry": {"coordinates": [-118.132384, 34.14434], "type": "Point"}, "id": "5qEtFuXETRt7H0g5QHL420NPjik=", "properties": {"@spider": "usps_collection_boxes", "addr:city": "PASADENA", "addr:country": "US", "addr:full": "80 S LAKE AVE", "addr:postcode": "91101", "addr:state": "CA", "amenity": "post_box", "brand": "United States Postal Service", "brand:wikidata": "Q668687", "collection_times": "Mo-Sa 10:00", "name": "USPS COLLECTION BOX - BLUE BOX", "nsi_id": "unitedstatespostalservice-a77078", "operator": "United States Postal Service", "operator:short": "USPS", "operator:type": "public", "operator:wikidata": "Q668687", "ref": "9110100189"}, "type": "Feature"}
{"dataset_attributes": {"@spider": "usps_collection_boxes", "spider:collection_time": "2023-09-16T08:22:24.198600"}, "geometry": {"coordinates": [-118.137036, 34.14837], "type": "Point"}, "id": "BOhcigr29PvJULXg6y0Iv2lJH9E=", "properties": {"@spider": "usps_collection_boxes", "addr:city": "PASADENA", "addr:country": "US", "addr:full": "131 N EL MOLINO AVE", "addr:postcode": "91101", "addr:state": "CA", "amenity": "post_box", "brand": "United States Postal Service", "brand:wikidata": "Q668687", "collection_times": "Mo-Sa 10:00", "name": "USPS COLLECTION BOX - BLUE BOX", "nsi_id": "unitedstatespostalservice-a77078", "operator": "United States Postal Service", "operator:short": "USPS", "operator:type": "public", "operator:wikidata": "Q668687", "ref": "9110100190"}, "type": "Feature"}
{"dataset_attributes": {"@spider": "usps_collection_boxes", "spider:collection_time": "2023-09-16T08:22:24.198600"}, "geometry": {"coordinates": [-118.1446325255, 34.1458404794], "type": "Point"}, "id": "4hgx8VLcdcdk1jWKNmOFSIEvGqk=", "properties": {"@spider": "usps_collection_boxes", "addr:city": "PASADENA", "addr:country": "US", "addr:full": "281 E COLORADO BLVD", "addr:postcode": "91101", "addr:state": "CA", "amenity": "post_box", "brand": "United States Postal Service", "brand:wikidata": "Q668687", "collection_times": "Mo-Fr 17:00", "name": "USPS COLLECTION BOX - PO LOBBY", "note": "ON 12/24 AND 12/31, THIS BOX MAY BE COLLECTED AS EARLY AS 12 NOON.", "nsi_id": "unitedstatespostalservice-a77078", "operator": "United States Postal Service", "operator:short": "USPS", "operator:type": "public", "operator:wikidata": "Q668687", "ref": "9110100196"}, "type": "Feature"}
{"dataset_attributes": {"@spider": "usps_collection_boxes", "spider:collection_time": "2023-09-16T08:22:24.198600"}, "geometry": {"coordinates": [-118.159457, 34.168938], "type": "Point"}, "id": "6K82y1mn-KKoosZFPBQcJW0hNkk=", "properties": {"@spider": "usps_collection_boxes", "addr:city": "PASADENA", "addr:country": "US", "addr:full": "1270 LINCOLN AVE", "addr:postcode": "91103", "addr:state": "CA", "amenity": "post_box", "brand": "United States Postal Service", "brand:wikidata": "Q668687", "collection_times": "Mo-Sa 10:00", "name": "USPS COLLECTION BOX - BLUE BOX", "nsi_id": "unitedstatespostalservice-a77078", "operator": "United States Postal Service", "operator:short": "USPS", "operator:type": "public", "operator:wikidata": "Q668687", "ref": "9110300007"}, "type": "Feature"}
{"dataset_attributes": {"@spider": "usps_collection_boxes", "spider:collection_time": "2023-09-16T08:22:24.198600"}, "geometry": {"coordinates": [-118.153109, 34.146782], "type": "Point"}, "id": "CKK45GH4UvEkc-s_p1DW_KKW0xs=", "properties": {"@spider": "usps_collection_boxes", "addr:city": "PASADENA", "addr:country": "US", "addr:full": "74 N PASADENA AVE", "addr:postcode": "91103", "addr:state": "CA", "amenity": "post_box", "brand": "United States Postal Service", "brand:wikidata": "Q668687", "collection_times": "Mo-Sa 10:00", "name": "USPS COLLECTION BOX - BLUE BOX", "nsi_id": "unitedstatespostalservice-a77078", "operator": "United States Postal Service", "operator:short": "USPS", "operator:type": "public", "operator:wikidata": "Q668687", "ref": "9110300014"}, "type": "Feature"}
{"dataset_attributes": {"@spider": "usps_collection_boxes", "spider:collection_time": "2023-09-16T08:22:24.198600"}, "geometry": {"coordinates": [-118.148985, 34.147529], "type": "Point"}, "id": "2p9xkIhRI7pdRMcxiKblDRCb0nU=", "properties": {"@spider": "usps_collection_boxes", "addr:city": "PASADENA", "addr:country": "US", "addr:full": "91 N RAYMOND AVE", "addr:postcode": "91103", "addr:state": "CA", "amenity": "post_box", "brand": "United States Postal Service", "brand:wikidata": "Q668687", "collection_times": "Mo-Sa 10:00", "name": "USPS COLLECTION BOX - BLUE BOX", "nsi_id": "unitedstatespostalservice-a77078", "operator": "United States Postal Service", "operator:short": "USPS", "operator:type": "public", "operator:wikidata": "Q668687", "ref": "9110300020"}, "type": "Feature"}
{"dataset_attributes": {"@spider": "usps_collection_boxes", "spider:collection_time": "2023-09-16T08:22:24.198600"}, "geometry": {"coordinates": [-118.153024, 34.148523], "type": "Point"}, "id": "AIkAqJAnXjJb1_mC4mPjRy8oKTI=", "properties": {"@spider": "usps_collection_boxes", "addr:city": "PASADENA", "addr:country": "US", "addr:full": "100 W WALNUT ST", "addr:postcode": "91103", "addr:state": "CA", "amenity": "post_box", "brand": "United States Postal Service", "brand:wikidata": "Q668687", "collection_times": "Mo-Fr 10:00", "name": "USPS COLLECTION BOX - BLUE BOX", "nsi_id": "unitedstatespostalservice-a77078", "operator": "United States Postal Service", "operator:short": "USPS", "operator:type": "public", "operator:wikidata": "Q668687", "ref": "9110300033"}, "type": "Feature"}
{"dataset_attributes": {"@spider": "usps_collection_boxes", "spider:collection_time": "2023-09-16T08:22:24.198600"}, "geometry": {"coordinates": [-118.176673, 34.172535], "type": "Point"}, "id": "SMeGEdTsWakiHVPlxotEnUqe1QI=", "properties": {"@spider": "usps_collection_boxes", "addr:city": "PASADENA", "addr:country": "US", "addr:full": "1446 LINDA VISTA AVE", "addr:postcode": "91103", "addr:state": "CA", "amenity": "post_box", "brand": "United States Postal Service", "brand:wikidata": "Q668687", "collection_times": "Mo-Sa 10:00", "name": "USPS COLLECTION BOX - BLUE BOX", "nsi_id": "unitedstatespostalservice-a77078", "operator": "United States Postal Service", "operator:short": "USPS", "operator:type": "public", "operator:wikidata": "Q668687", "ref": "9110300034"}, "type": "Feature"}
{"dataset_attributes": {"@spider": "usps_collection_boxes", "spider:collection_time": "2023-09-16T08:22:24.198600"}, "geometry": {"coordinates": [-118.150379, 34.165114], "type": "Point"}, "id": "LIGFnZho-mAF2THq9JJanjKqZfI=", "properties": {"@spider": "usps_collection_boxes", "addr:city": "PASADENA", "addr:country": "US", "addr:full": "1100 N FAIR OAKS AVE", "addr:postcode": "91103", "addr:state": "CA", "amenity": "post_box", "brand": "United States Postal Service", "brand:wikidata": "Q668687", "collection_times": "Mo-Sa 10:00", "name": "USPS COLLECTION BOX - BLUE BOX", "nsi_id": "unitedstatespostalservice-a77078", "operator": "United States Postal Service", "operator:short": "USPS", "operator:type": "public", "operator:wikidata": "Q668687", "ref": "9110300036"}, "type": "Feature"}
{"dataset_attributes": {"@spider": "usps_collection_boxes", "spider:collection_time": "2023-09-16T08:22:24.198600"}, "geometry": {"coordinates": [-118.150606, 34.164731], "type": "Point"}, "id": "tLlCabCaIrei32QTue3RzcAfOyM=", "properties": {"@spider": "usps_collection_boxes", "addr:city": "PASADENA", "addr:country": "US", "addr:full": "1100 N FAIR OAKS AVE", "addr:postcode": "91103", "addr:state": "CA", "amenity": "post_box", "brand": "United States Postal Service", "brand:wikidata": "Q668687", "collection_times": "Mo-Sa 10:00", "name": "USPS COLLECTION BOX - BLUE BOX", "nsi_id": "unitedstatespostalservice-a77078", "operator": "United States Postal Service", "operator:short": "USPS", "operator:type": "public", "operator:wikidata": "Q668687", "ref": "9110300037"}, "type": "Feature"}
{"dataset_attributes": {"@spider": "usps_collection_boxes", "spider:collection_time": "2023-09-16T08:22:24.198600"}, "geometry": {"coordinates": [-118.131015204, 34.1692659745], "type": "Point"}, "id": "lW70zlO0RD2d15JSwW25jFGJ-Rk=", "properties": {"@spider": "usps_collection_boxes", "addr:city": "PASADENA", "addr:country": "US", "addr:full": "1355 N MENTOR AVE", "addr:postcode": "91104", "addr:state": "CA", "amenity": "post_box", "brand": "United States Postal Service", "brand:wikidata": "Q668687", "collection_times": "Mo-Fr 15:30; Sa 15:00", "name": "USPS COLLECTION BOX - BLUE BOX", "note": "ON 12/24 AND 12/31, THIS BOX MAY BE COLLECTED AS EARLY AS 12 NOON.", "nsi_id": "unitedstatespostalservice-a77078", "operator": "United States Postal Service", "operator:short": "USPS", "operator:type": "public", "operator:wikidata": "Q668687", "ref": "9110400002"}, "type": "Feature"}
{"dataset_attributes": {"@spider": "usps_collection_boxes", "spider:collection_time": "2023-09-16T08:22:24.198600"}, "geometry": {"coordinates": [-118.113223, 34.16409], "type": "Point"}, "id": "E9wFNX-myy7f1rWEUfD8OaqPK90=", "properties": {"@spider": "usps_collection_boxes", "addr:city": "PASADENA", "addr:country": "US", "addr:full": "1047 N ALLEN AVE", "addr:postcode": "91104", "addr:state": "CA", "amenity": "post_box", "brand": "United States Postal Service", "brand:wikidata": "Q668687", "collection_times": "Mo-Sa 10:00", "name": "USPS COLLECTION BOX - BLUE BOX", "nsi_id": "unitedstatespostalservice-a77078", "operator": "United States Postal Service", "operator:short": "USPS", "operator:type": "public", "operator:wikidata": "Q668687", "ref": "9110400003"}, "type": "Feature"}
{"dataset_attributes": {"@spider": "usps_collection_boxes", "spider:collection_time": "2023-09-16T08:22:24.198600"}, "geometry": {"coordinates": [-118.13267, 34.161831], "type": "Point"}, "id": "a1XXStnUdcm0hemXw4yCsBBKam8=", "properties": {"@spider": "usps_collection_boxes", "addr:city": "PASADENA", "addr:country": "US", "addr:full": "919 N LAKE AVE", "addr:postcode": "91104", "addr:state": "CA", "amenity": "post_box", "brand": "United States Postal Service", "brand:wikidata": "Q668687", "collection_times": "Mo-Sa 10:00", "name": "USPS COLLECTION BOX - BLUE BOX", "nsi_id": "unitedstatespostalservice-a77078", "operator": "United States Postal Service", "operator:short": "USPS", "operator:type": "public", "operator:wikidata": "Q668687", "ref": "9110400022"}, "type": "Feature"}
{"dataset_attributes": {"@spider": "usps_collection_boxes", "spider:collection_time": "2023-09-16T08:22:24.198600"}, "geometry": {"coordinates": [-118.103075, 34.162413], "type": "Point"}, "id": "40OUbJldyOKpXdtH63DBLxFc7OU=", "properties": {"@spider": "usps_collection_boxes", "addr:city": "PASADENA", "addr:country": "US", "addr:full": "2304 E DUDLEY ST", "addr:postcode": "91104", "addr:state": "CA", "amenity": "post_box", "brand": "United States Postal Service", "brand:wikidata": "Q668687", "collection_times": "Mo-Sa 10:00", "name": "USPS COLLECTION BOX - BLUE BOX", "nsi_id": "unitedstatespostalservice-a77078", "operator": "United States Postal Service", "operator:short": "USPS", "operator:type": "public", "operator:wikidata": "Q668687", "ref": "9110400027"}, "type": "Feature"}
{"dataset_attributes": {"@spider": "usps_collection_boxes", "spider:collection_time": "2023-09-16T08:22:24.198600"}, "geometry": {"coordinates": [-118.126883, 34.157592], "type": "Point"}, "id": "cvX1WQOJTm1eJTE63tAAO9vy1uA=", "properties": {"@spider": "usps_collection_boxes", "addr:city": "PASADENA", "addr:country": "US", "addr:full": "1140 E ORANGE GROVE BLVD", "addr:postcode": "91104", "addr:state": "CA", "amenity": "post_box", "brand": "United States Postal Service", "brand:wikidata": "Q668687", "collection_times": "Mo-Sa 10:00", "name": "USPS COLLECTION BOX - BLUE BOX", "nsi_id": "unitedstatespostalservice-a77078", "operator": "United States Postal Service", "operator:short": "USPS", "operator:type": "public", "operator:wikidata": "Q668687", "ref": "9110400028"}, "type": "Feature"}
{"dataset_attributes": {"@spider": "usps_collection_boxes", "spider:collection_time": "2023-09-16T08:22:24.198600"}, "geometry": {"coordinates": [-118.098847, 34.16923], "type": "Point"}, "id": "VyO29WRkCJU50BwJYkPo35k6cN0=", "properties": {"@spider": "usps_collection_boxes", "addr:city": "PASADENA", "addr:country": "US", "addr:full": "2505 E WASHINGTON BLVD", "addr:postcode": "91104", "addr:state": "CA", "amenity": "post_box", "brand": "United States Postal Service", "brand:wikidata": "Q668687", "collection_times": "Mo-Sa 10:00", "name": "USPS COLLECTION BOX - BLUE BOX", "nsi_id": "unitedstatespostalservice-a77078", "operator": "United States Postal Service", "operator:short": "USPS", "operator:type": "public", "operator:wikidata": "Q668687", "ref": "9110400036"}, "type": "Feature"}
{"dataset_attributes": {"@spider": "usps_collection_boxes", "spider:collection_time": "2023-09-16T08:22:24.198600"}, "geometry": {"coordinates": [-118.124352, 34.161771], "type": "Point"}, "id": "QR89uvB-KBe52FSCPrMTFu2j3R8=", "properties": {"@spider": "usps_collection_boxes", "addr:city": "PASADENA", "addr:country": "US", "addr:full": "916 N CHESTER AVE", "addr:postcode": "91104", "addr:state": "CA", "amenity": "post_box", "brand": "United States Postal Service", "brand:wikidata": "Q668687", "collection_times": "Mo-Sa 10:00", "name": "USPS COLLECTION BOX - BLUE BOX", "nsi_id": "unitedstatespostalservice-a77078", "operator": "United States Postal Service", "operator:short": "USPS", "operator:type": "public", "operator:wikidata": "Q668687", "ref": "9110400037"}, "type": "Feature"}
{"dataset_attributes": {"@spider": "usps_collection_boxes", "spider:collection_time": "2023-09-16T08:22:24.198600"}, "geometry": {"coordinates": [-118.142267, 34.168857], "type": "Point"}, "id": "wdtleEpUXU_0TzlOmPai5Qvuiqo=", "properties": {"@spider": "usps_collection_boxes", "addr:city": "PASADENA", "addr:country": "US", "addr:full": "404 E WASHINGTON BLVD", "addr:postcode": "91104", "addr:state": "CA", "amenity": "post_box", "brand": "United States Postal Service", "brand:wikidata": "Q668687", "collection_times": "Mo-Sa 10:00", "name": "USPS COLLECTION BOX - BLUE BOX", "nsi_id": "unitedstatespostalservice-a77078", "operator": "United States Postal Service", "operator:short": "USPS", "operator:type": "public", "operator:wikidata": "Q668687", "ref": "9110400038"}, "type": "Feature"}
{"dataset_attributes": {"@spider": "usps_collection_boxes", "spider:collection_time": "2023-09-16T08:22:24.198600"}, "geometry": {"coordinates": [-118.121324, 34.157988], "type": "Point"}, "id": "AIQNu_zCFMp3tw3stGLtQgdzWbk=", "properties": {"@spider": "usps_collection_boxes", "addr:city": "PASADENA", "addr:country": "US", "addr:full": "1425 E ORANGE GROVE BLVD", "addr:postcode": "91104", "addr:state": "CA", "amenity": "post_box", "brand": "United States Postal Service", "brand:wikidata": "Q668687", "collection_times": "Mo-Sa 10:00", "name": "USPS COLLECTION BOX - BLUE BOX", "nsi_id": "unitedstatespostalservice-a77078", "operator": "United States Postal Service", "operator:short": "USPS", "operator:type": "public", "operator:wikidata": "Q668687", "ref": "9110400040"}, "type": "Feature"}
{"dataset_attributes": {"@spider": "usps_collection_boxes", "spider:collection_time": "2023-09-16T08:22:24.198600"}, "geometry": {"coordinates": [-118.112597, 34.169257], "type": "Point"}, "id": "NYyQ5gEcGh_-J9krTEeQg82Ao1w=", "properties": {"@spider": "usps_collection_boxes", "addr:city": "PASADENA", "addr:country": "US", "addr:full": "1845 E WASHINGTON BLVD", "addr:postcode": "91104", "addr:state": "CA", "amenity": "post_box", "brand": "United States Postal Service", "brand:wikidata": "Q668687", "collection_times": "Mo-Sa 10:00", "name": "USPS COLLECTION BOX - BLUE BOX", "nsi_id": "unitedstatespostalservice-a77078", "operator": "United States Postal Service", "operator:short": "USPS", "operator:type": "public", "operator:wikidata": "Q668687", "ref": "9110400041"}, "type": "Feature"}
{"dataset_attributes": {"@spider": "usps_collection_boxes", "spider:collection_time": "2023-09-16T08:22:24.198600"}, "geometry": {"coordinates": [-118.108413, 34.162008], "type": "Point"}, "id": "Ic5WJQUNcwvg2cArkIwmDPyab2c=", "properties": {"@spider": "usps_collection_boxes", "addr:city": "PASADENA", "addr:country": "US", "addr:full": "2037 E MOUNTAIN ST", "addr:postcode": "91104", "addr:state": "CA", "amenity": "post_box", "brand": "United States Postal Service", "brand:wikidata": "Q668687", "collection_times": "Mo-Sa 10:00", "name": "USPS COLLECTION BOX - BLUE BOX", "nsi_id": "unitedstatespostalservice-a77078", "operator": "United States Postal Service", "operator:short": "USPS", "operator:type": "public", "operator:wikidata": "Q668687", "ref": "9110400044"}, "type": "Feature"}
{"dataset_attributes": {"@spider": "usps_collection_boxes", "spider:collection_time": "2023-09-16T08:22:24.198600"}, "geometry": {"coordinates": [-118.112898, 34.173218], "type": "Point"}, "id": "cnKUrCPZcw8RI5ejqsFw4iL7spY=", "properties": {"@spider": "usps_collection_boxes", "addr:city": "PASADENA", "addr:country": "US", "addr:full": "1575 N ALLEN AVE", "addr:postcode": "91104", "addr:state": "CA", "amenity": "post_box", "brand": "United States Postal Service", "brand:wikidata": "Q668687", "collection_times": "Mo-Sa 10:00", "name": "USPS COLLECTION BOX - BLUE BOX", "nsi_id": "unitedstatespostalservice-a77078", "operator": "United States Postal Service", "operator:short": "USPS", "operator:type": "public", "operator:wikidata": "Q668687", "ref": "9110400045"}, "type": "Feature"}
{"dataset_attributes": {"@spider": "usps_collection_boxes", "spider:collection_time": "2023-09-16T08:22:24.198600"}, "geometry": {"coordinates": [-118.150311, 34.165212], "type": "Point"}, "id": "i1u9hu6_ehbDtjdSuWWIMMNMlTQ=", "properties": {"@spider": "usps_collection_boxes", "addr:city": "PASADENA", "addr:country": "US", "addr:full": "1355 N MENTOR AVE", "addr:postcode": "91104", "addr:state": "CA", "amenity": "post_box", "brand": "United States Postal Service", "brand:wikidata": "Q668687", "collection_times": "Mo-Fr 17:00; Sa 10:00", "name": "USPS COLLECTION BOX - PO LOBBY", "note": "ON 12/24 AND 12/31, THIS BOX MAY BE COLLECTED AS EARLY AS 12 NOON.", "nsi_id": "unitedstatespostalservice-a77078", "operator": "United States Postal Service", "operator:short": "USPS", "operator:type": "public", "operator:wikidata": "Q668687", "ref": "9110400046"}, "type": "Feature"}
{"dataset_attributes": {"@spider": "usps_collection_boxes", "spider:collection_time": "2023-09-16T08:22:24.198600"}, "geometry": {"coordinates": [-118.113482, 34.158026], "type": "Point"}, "id": "CbBzORp3bqLLXGlPK9bqx1tIXkQ=", "properties": {"@spider": "usps_collection_boxes", "addr:city": "PASADENA", "addr:country": "US", "addr:full": "1775 E ORANGE GROVE BLVD", "addr:postcode": "91104", "addr:state": "CA", "amenity": "post_box", "brand": "United States Postal Service", "brand:wikidata": "Q668687", "collection_times": "Mo-Sa 10:00", "name": "USPS COLLECTION BOX - BLUE BOX", "nsi_id": "unitedstatespostalservice-a77078", "operator": "United States Postal Service", "operator:short": "USPS", "operator:type": "public", "operator:wikidata": "Q668687", "ref": "9110400048"}, "type": "Feature"}
{"dataset_attributes": {"@spider": "usps_collection_boxes", "spider:collection_time": "2023-09-16T08:22:24.198600"}, "geometry": {"coordinates": [-118.131015204, 34.1692659745], "type": "Point"}, "id": "lyQCv159Q9p9O6H966Z29g1VMYA=", "properties": {"@spider": "usps_collection_boxes", "addr:city": "PASADENA", "addr:country": "US", "addr:full": "1355 N MENTOR AVE", "addr:postcode": "91104", "addr:state": "CA", "amenity": "post_box", "brand": "United States Postal Service", "brand:wikidata": "Q668687", "collection_times": "Mo-Fr 17:00", "name": "USPS COLLECTION BOX - PO LOBBY", "note": "ON 12/24 AND 12/31, THIS BOX MAY BE COLLECTED AS EARLY AS 12 NOON.", "nsi_id": "unitedstatespostalservice-a77078", "operator": "United States Postal Service", "operator:short": "USPS", "operator:type": "public", "operator:wikidata": "Q668687", "ref": "9110400053"}, "type": "Feature"}
{"dataset_attributes": {"@spider": "usps_collection_boxes", "spider:collection_time": "2023-09-16T08:22:24.198600"}, "geometry": {"coordinates": [-118.15176, 34.131162], "type": "Point"}, "id": "oDZvj7fynlpvdFztyqwwX8lKGe8=", "properties": {"@spider": "usps_collection_boxes", "addr:city": "PASADENA", "addr:country": "US", "addr:full": "51 ALESSANDRO PL", "addr:postcode": "91105", "addr:state": "CA", "amenity": "post_box", "brand": "United States Postal Service", "brand:wikidata": "Q668687", "collection_times": "Mo-Sa 10:00", "name": "USPS COLLECTION BOX - BLUE BOX", "nsi_id": "unitedstatespostalservice-a77078", "operator": "United States Postal Service", "operator:short": "USPS", "operator:type": "public", "operator:wikidata": "Q668687", "ref": "9110500002"}, "type": "Feature"}
{"dataset_attributes": {"@spider": "usps_collection_boxes", "spider:collection_time": "2023-09-16T08:22:24.198600"}, "geometry": {"coordinates": [-118.1587093049, 34.1315469439], "type": "Point"}, "id": "YmAWTLLx4zyx40hxxdVLAtpoyj0=", "properties": {"@spider": "usps_collection_boxes", "addr:city": "PASADENA", "addr:country": "US", "addr:full": "400 BELLEFONTAINE ST", "addr:postcode": "91105", "addr:state": "CA", "amenity": "post_box", "brand": "United States Postal Service", "brand:wikidata": "Q668687", "collection_times": "Mo-Sa 10:00", "name": "USPS COLLECTION BOX - BLUE BOX", "nsi_id": "unitedstatespostalservice-a77078", "operator": "United States Postal Service", "operator:short": "USPS", "operator:type": "public", "operator:wikidata": "Q668687", "ref": "9110500005"}, "type": "Feature"}
{"dataset_attributes": {"@spider": "usps_collection_boxes", "spider:collection_time": "2023-09-16T08:22:24.198600"}, "geometry": {"coordinates": [-118.175764129, 34.135904523], "type": "Point"}, "id": "9LP9MA3aRFMOhTXidw49-GJurh8=", "properties": {"@spider": "usps_collection_boxes", "addr:city": "PASADENA", "addr:country": "US", "addr:full": "1240 NITHSDALE RD", "addr:postcode": "91105", "addr:state": "CA", "amenity": "post_box", "brand": "United States Postal Service", "brand:wikidata": "Q668687", "collection_times": "Mo-Sa 10:00", "name": "USPS COLLECTION BOX - BLUE BOX", "nsi_id": "unitedstatespostalservice-a77078", "operator": "United States Postal Service", "operator:short": "USPS", "operator:type": "public", "operator:wikidata": "Q668687", "ref": "9110500017"}, "type": "Feature"}
{"dataset_attributes": {"@spider": "usps_collection_boxes", "spider:collection_time": "2023-09-16T08:22:24.198600"}, "geometry": {"coordinates": [-118.146693, 34.145787], "type": "Point"}, "id": "h4Wq1-x_gzuDv0vMrjc-Dhe2hds=", "properties": {"@spider": "usps_collection_boxes", "addr:city": "PASADENA", "addr:country": "US", "addr:full": "150 E COLORADO BLVD", "addr:postcode": "91105", "addr:state": "CA", "amenity": "post_box", "brand": "United States Postal Service", "brand:wikidata": "Q668687", "collection_times": "Mo-Sa 10:00", "name": "USPS COLLECTION BOX - BLUE BOX", "nsi_id": "unitedstatespostalservice-a77078", "operator": "United States Postal Service", "operator:short": "USPS", "operator:type": "public", "operator:wikidata": "Q668687", "ref": "9110500020"}, "type": "Feature"}
{"dataset_attributes": {"@spider": "usps_collection_boxes", "spider:collection_time": "2023-09-16T08:22:24.198600"}, "geometry": {"coordinates": [-118.149216, 34.145857], "type": "Point"}, "id": "2CQAQfxKPoGCVqED44NN-1QonEg=", "properties": {"@spider": "usps_collection_boxes", "addr:city": "PASADENA", "addr:country": "US", "addr:full": "59 E COLORADO BLVD", "addr:postcode": "91105", "addr:state": "CA", "amenity": "post_box", "brand": "United States Postal Service", "brand:wikidata": "Q668687", "collection_times": "Mo-Sa 10:00", "name": "USPS COLLECTION BOX - BLUE BOX", "nsi_id": "unitedstatespostalservice-a77078", "operator": "United States Postal Service", "operator:short": "USPS", "operator:type": "public", "operator:wikidata": "Q668687", "ref": "9110500022"}, "type": "Feature"}
{"dataset_attributes": {"@spider": "usps_collection_boxes", "spider:collection_time": "2023-09-16T08:22:24.198600"}, "geometry": {"coordinates": [-118.157121, 34.145199], "type": "Point"}, "id": "TfdNv4Zt9VeDG0Tv-TnUBA-sqbg=", "properties": {"@spider": "usps_collection_boxes", "addr:city": "PASADENA", "addr:country": "US", "addr:full": "320 W COLORADO BLVD", "addr:postcode": "91105", "addr:state": "CA", "amenity": "post_box", "brand": "United States Postal Service", "brand:wikidata": "Q668687", "collection_times": "Mo-Sa 10:00", "name": "USPS COLLECTION BOX - BLUE BOX", "nsi_id": "unitedstatespostalservice-a77078", "operator": "United States Postal Service", "operator:short": "USPS", "operator:type": "public", "operator:wikidata": "Q668687", "ref": "9110500023"}, "type": "Feature"}
{"dataset_attributes": {"@spider": "usps_collection_boxes", "spider:collection_time": "2023-09-16T08:22:24.198600"}, "geometry": {"coordinates": [-118.161941, 34.143976], "type": "Point"}, "id": "p9GLotMPEi18Qoe-1pz347xdPVg=", "properties": {"@spider": "usps_collection_boxes", "addr:city": "PASADENA", "addr:country": "US", "addr:full": "125 S GRAND AVE", "addr:postcode": "91105", "addr:state": "CA", "amenity": "post_box", "brand": "United States Postal Service", "brand:wikidata": "Q668687", "collection_times": "Mo-Sa 10:00", "name": "USPS COLLECTION BOX - BLUE BOX", "nsi_id": "unitedstatespostalservice-a77078", "operator": "United States Postal Service", "operator:short": "USPS", "operator:type": "public", "operator:wikidata": "Q668687", "ref": "9110500031"}, "type": "Feature"}
{"dataset_attributes": {"@spider": "usps_collection_boxes", "spider:collection_time": "2023-09-16T08:22:24.198600"}, "geometry": {"coordinates": [-118.150706, 34.14455], "type": "Point"}, "id": "WjuT7rzYOL_OYrBM77KQtBYFIHc=", "properties": {"@spider": "usps_collection_boxes", "addr:city": "PASADENA", "addr:country": "US", "addr:full": "33 W GREEN ST", "addr:postcode": "91105", "addr:state": "CA", "amenity": "post_box", "brand": "United States Postal Service", "brand:wikidata": "Q668687", "collection_times": "Mo-Sa 10:00", "name": "USPS COLLECTION BOX - BLUE BOX", "nsi_id": "unitedstatespostalservice-a77078", "operator": "United States Postal Service", "operator:short": "USPS", "operator:type": "public", "operator:wikidata": "Q668687", "ref": "9110500035"}, "type": "Feature"}
{"dataset_attributes": {"@spider": "usps_collection_boxes", "spider:collection_time": "2023-09-16T08:22:24.198600"}, "geometry": {"coordinates": [-118.160666, 34.139336], "type": "Point"}, "id": "53LrtToocF2vXHUco3jXTJJ8_zA=", "properties": {"@spider": "usps_collection_boxes", "addr:city": "PASADENA", "addr:country": "US", "addr:full": "391 S ORANGE GROVE BLVD", "addr:postcode": "91105", "addr:state": "CA", "amenity": "post_box", "brand": "United States Postal Service", "brand:wikidata": "Q668687", "collection_times": "Mo-Sa 10:00", "name": "USPS COLLECTION BOX - BLUE BOX", "nsi_id": "unitedstatespostalservice-a77078", "operator": "United States Postal Service", "operator:short": "USPS", "operator:type": "public", "operator:wikidata": "Q668687", "ref": "9110500036"}, "type": "Feature"}
{"dataset_attributes": {"@spider": "usps_collection_boxes", "spider:collection_time": "2023-09-16T08:22:24.198600"}, "geometry": {"coordinates": [-118.15249, 34.13831], "type": "Point"}, "id": "4pvxdgSrnQw8tt10UnzxmN5E3o8=", "properties": {"@spider": "usps_collection_boxes", "addr:city": "PASADENA", "addr:country": "US", "addr:full": "422 S PASADENA AVE", "addr:postcode": "91105", "addr:state": "CA", "amenity": "post_box", "brand": "United States Postal Service", "brand:wikidata": "Q668687", "collection_times": "Mo-Sa 10:00", "name": "USPS COLLECTION BOX - BLUE BOX", "nsi_id": "unitedstatespostalservice-a77078", "operator": "United States Postal Service", "operator:short": "USPS", "operator:type": "public", "operator:wikidata": "Q668687", "ref": "9110500039"}, "type": "Feature"}
{"dataset_attributes": {"@spider": "usps_collection_boxes", "spider:collection_time": "2023-09-16T08:22:24.198600"}, "geometry": {"coordinates": [-118.148882, 34.144977], "type": "Point"}, "id": "CvqRGgg-aHUwcBrDWlVN4NeZ_sk=", "properties": {"@spider": "usps_collection_boxes", "addr:city": "PASADENA", "addr:country": "US", "addr:full": "35 S RAYMOND AVE", "addr:postcode": "91105", "addr:state": "CA", "amenity": "post_box", "brand": "United States Postal Service", "brand:wikidata": "Q668687", "collection_times": "Mo-Sa 10:00", "name": "USPS COLLECTION BOX - BLUE BOX", "nsi_id": "unitedstatespostalservice-a77078", "operator": "United States Postal Service", "operator:short": "USPS", "operator:type": "public", "operator:wikidata": "Q668687", "ref": "9110500043"}, "type": "Feature"}
{"dataset_attributes": {"@spider": "usps_collection_boxes", "spider:collection_time": "2023-09-16T08:22:24.198600"}, "geometry": {"coordinates": [-118.158131, 34.145671], "type": "Point"}, "id": "sWhq4JXi6Xo_Z_fzlxwGmOVv0SM=", "properties": {"@spider": "usps_collection_boxes", "addr:city": "PASADENA", "addr:country": "US", "addr:full": "350 W COLORADO BLVD", "addr:postcode": "91105", "addr:state": "CA", "amenity": "post_box", "brand": "United States Postal Service", "brand:wikidata": "Q668687", "collection_times": "Mo-Fr 10:00", "name": "USPS COLLECTION BOX - BLUE BOX", "nsi_id": "unitedstatespostalservice-a77078", "operator": "United States Postal Service", "operator:short": "USPS", "operator:type": "public", "operator:wikidata": "Q668687", "ref": "9110500052"}, "type": "Feature"}
{"dataset_attributes": {"@spider": "usps_collection_boxes", "spider:collection_time": "2023-09-16T08:22:24.198600"}, "geometry": {"coordinates": [-118.1520750272, 34.1361659878], "type": "Point"}, "id": "6E8CrTnDLufsA5qUxtmUVlrSeVk=", "properties": {"@spider": "usps_collection_boxes", "addr:city": "PASADENA", "addr:country": "US", "addr:full": "99 W CALIFORNIA BLVD", "addr:postcode": "91105", "addr:state": "CA", "amenity": "post_box", "brand": "United States Postal Service", "brand:wikidata": "Q668687", "collection_times": "Mo-Fr 17:00; Sa 15:00", "name": "USPS COLLECTION BOX - BLUE BOX", "note": "ON 12/24 AND 12/31, THIS BOX MAY BE COLLECTED AS EARLY AS 12 NOON.", "nsi_id": "unitedstatespostalservice-a77078", "operator": "United States Postal Service", "operator:short": "USPS", "operator:type": "public", "operator:wikidata": "Q668687", "ref": "9110500056"}, "type": "Feature"}
{"dataset_attributes": {"@spider": "usps_collection_boxes", "spider:collection_time": "2023-09-16T08:22:24.198600"}, "geometry": {"coordinates": [-118.150319, 34.139023], "type": "Point"}, "id": "awaCM8Yix5iyiTvHnlWkKoE2lvk=", "properties": {"@spider": "usps_collection_boxes", "addr:city": "PASADENA", "addr:country": "US", "addr:full": "390 S FAIR OAKS AVE", "addr:postcode": "91105", "addr:state": "CA", "amenity": "post_box", "brand": "United States Postal Service", "brand:wikidata": "Q668687", "collection_times": "Mo-Sa 10:00", "name": "USPS COLLECTION BOX - BLUE BOX", "nsi_id": "unitedstatespostalservice-a77078", "operator": "United States Postal Service", "operator:short": "USPS", "operator:type": "public", "operator:wikidata": "Q668687", "ref": "9110500060"}, "type": "Feature"}
{"dataset_attributes": {"@spider": "usps_collection_boxes", "spider:collection_time": "2023-09-16T08:22:24.198600"}, "geometry": {"coordinates": [-118.152106, 34.135951], "type": "Point"}, "id": "tT0KyIy87MWi-YH2ayw_iNbvvmQ=", "properties": {"@spider": "usps_collection_boxes", "addr:city": "PASADENA", "addr:country": "US", "addr:full": "99 W CALIFORNIA BLVD", "addr:postcode": "91105", "addr:state": "CA", "amenity": "post_box", "brand": "United States Postal Service", "brand:wikidata": "Q668687", "collection_times": "Mo-Fr 17:00", "name": "USPS COLLECTION BOX - PO LOBBY", "note": "ON 12/24 AND 12/31, THIS BOX MAY BE COLLECTED AS EARLY AS 12 NOON.", "nsi_id": "unitedstatespostalservice-a77078", "operator": "United States Postal Service", "operator:short": "USPS", "operator:type": "public", "operator:wikidata": "Q668687", "ref": "9110500069"}, "type": "Feature"}
{"dataset_attributes": {"@spider": "usps_collection_boxes", "spider:collection_time": "2023-09-16T08:22:24.198600"}, "geometry": {"coordinates": [-118.150706, 34.133546], "type": "Point"}, "id": "BqpUmUCsMvYfUGFPv_u-DvVbK7w=", "properties": {"@spider": "usps_collection_boxes", "addr:city": "PASADENA", "addr:country": "US", "addr:full": "10 CONGRESS ST", "addr:postcode": "91105", "addr:state": "CA", "amenity": "post_box", "brand": "United States Postal Service", "brand:wikidata": "Q668687", "collection_times": "Mo-Sa 10:00", "name": "USPS COLLECTION BOX - BLUE BOX", "nsi_id": "unitedstatespostalservice-a77078", "operator": "United States Postal Service", "operator:short": "USPS", "operator:type": "public", "operator:wikidata": "Q668687", "ref": "9110500075"}, "type": "Feature"}
{"dataset_attributes": {"@spider": "usps_collection_boxes", "spider:collection_time": "2023-09-16T08:22:24.198600"}, "geometry": {"coordinates": [-118.14864, 34.130738], "type": "Point"}, "id": "U4c0hw8sXBXkQgLlAW4IsyMrUFQ=", "properties": {"@spider": "usps_collection_boxes", "addr:city": "PASADENA", "addr:country": "US", "addr:full": "870 S RAYMOND AVE", "addr:postcode": "91105", "addr:state": "CA", "amenity": "post_box", "brand": "United States Postal Service", "brand:wikidata": "Q668687", "collection_times": "Mo-Sa 10:00", "name": "USPS COLLECTION BOX - BLUE BOX", "nsi_id": "unitedstatespostalservice-a77078", "operator": "United States Postal Service", "operator:short": "USPS", "operator:type": "public", "operator:wikidata": "Q668687", "ref": "9110500076"}, "type": "Feature"}
{"dataset_attributes": {"@spider": "usps_collection_boxes", "spider:collection_time": "2023-09-16T08:22:24.198600"}, "geometry": {"coordinates": [-118.147138, 34.129078], "type": "Point"}, "id": "jXrX16SBrebC8_CerNYKIvuaeUQ=", "properties": {"@spider": "usps_collection_boxes", "addr:city": "PASADENA", "addr:country": "US", "addr:full": "980 S ARROYO PKWY", "addr:postcode": "91105", "addr:state": "CA", "amenity": "post_box", "brand": "United States Postal Service", "brand:wikidata": "Q668687", "collection_times": "Mo-Sa 10:00", "name": "USPS COLLECTION BOX - BLUE BOX", "nsi_id": "unitedstatespostalservice-a77078", "operator": "United States Postal Service", "operator:short": "USPS", "operator:type": "public", "operator:wikidata": "Q668687", "ref": "9110500079"}, "type": "Feature"}
{"dataset_attributes": {"@spider": "usps_collection_boxes", "spider:collection_time": "2023-09-16T08:22:24.198600"}, "geometry": {"coordinates": [-118.15249, 34.13831], "type": "Point"}, "id": "ce2-48WH1ccT_uiMaDdq9wy4850=", "properties": {"@spider": "usps_collection_boxes", "addr:city": "PASADENA", "addr:country": "US", "addr:full": "13 W COLORADO BLVD", "addr:postcode": "91105", "addr:state": "CA", "amenity": "post_box", "brand": "United States Postal Service", "brand:wikidata": "Q668687", "collection_times": "Mo-Sa 10:00", "name": "USPS COLLECTION BOX - BLUE BOX", "nsi_id": "unitedstatespostalservice-a77078", "operator": "United States Postal Service", "operator:short": "USPS", "operator:type": "public", "operator:wikidata": "Q668687", "ref": "9110500080"}, "type": "Feature"}
{"dataset_attributes": {"@spider": "usps_collection_boxes", "spider:collection_time": "2023-09-16T08:22:24.198600"}, "geometry": {"coordinates": [-118.146003, 34.140332], "type": "Point"}, "id": "seIT0tEdw_sIFYGhrMv6r6Qr-7M=", "properties": {"@spider": "usps_collection_boxes", "addr:city": "PASADENA", "addr:country": "US", "addr:full": "200 E DEL MAR BLVD", "addr:postcode": "91105", "addr:state": "CA", "amenity": "post_box", "brand": "United States Postal Service", "brand:wikidata": "Q668687", "collection_times": "Mo-Sa 10:00", "name": "USPS COLLECTION BOX - BLUE BOX", "nsi_id": "unitedstatespostalservice-a77078", "operator": "United States Postal Service", "operator:short": "USPS", "operator:type": "public", "operator:wikidata": "Q668687", "ref": "9110500081"}, "type": "Feature"}
{"dataset_attributes": {"@spider": "usps_collection_boxes", "spider:collection_time": "2023-09-16T08:22:24.198600"}, "geometry": {"coordinates": [-118.152111442, 34.1358450717], "type": "Point"}, "id": "qFzBzll1Or3UzKKSVMGImi80WJ0=", "properties": {"@spider": "usps_collection_boxes", "addr:city": "PASADENA", "addr:country": "US", "addr:full": "99 W CALIFORNIA BLVD", "addr:postcode": "91105", "addr:state": "CA", "amenity": "post_box", "brand": "United States Postal Service", "brand:wikidata": "Q668687", "collection_times": "Mo-Fr 17:00", "name": "USPS COLLECTION BOX - PO LOBBY", "note": "ON 12/24 AND 12/31, THIS BOX MAY BE COLLECTED AS EARLY AS 12 NOON.", "nsi_id": "unitedstatespostalservice-a77078", "operator": "United States Postal Service", "operator:short": "USPS", "operator:type": "public", "operator:wikidata": "Q668687", "ref": "9110500088"}, "type": "Feature"}
{"dataset_attributes": {"@spider": "usps_collection_boxes", "spider:collection_time": "2023-09-16T08:22:24.198600"}, "geometry": {"coordinates": [-118.1303315255, 34.1459395226], "type": "Point"}, "id": "4pEhoN2eHni3-o4B2XAwSIZvgMM=", "properties": {"@spider": "usps_collection_boxes", "addr:city": "PASADENA", "addr:country": "US", "addr:full": "967 E COLORADO BLVD", "addr:postcode": "91106", "addr:state": "CA", "amenity": "post_box", "brand": "United States Postal Service", "brand:wikidata": "Q668687", "collection_times": "Mo-Fr 17:00; Sa 15:00", "name": "USPS COLLECTION BOX - BLUE BOX", "note": "ON 12/24 AND 12/31, THIS BOX MAY BE COLLECTED AS EARLY AS 12 NOON.", "nsi_id": "unitedstatespostalservice-a77078", "operator": "United States Postal Service", "operator:short": "USPS", "operator:type": "public", "operator:wikidata": "Q668687", "ref": "9110600001"}, "type": "Feature"}
{"dataset_attributes": {"@spider": "usps_collection_boxes", "spider:collection_time": "2023-09-16T08:22:24.198600"}, "geometry": {"coordinates": [-118.113349, 34.146147], "type": "Point"}, "id": "eS7ppRZA1ESOn9xawZgS2wRR3eQ=", "properties": {"@spider": "usps_collection_boxes", "addr:city": "PASADENA", "addr:country": "US", "addr:full": "1795 E COLORADO BLVD", "addr:postcode": "91106", "addr:state": "CA", "amenity": "post_box", "brand": "United States Postal Service", "brand:wikidata": "Q668687", "collection_times": "Mo-Sa 10:00", "name": "USPS COLLECTION BOX - BLUE BOX", "nsi_id": "unitedstatespostalservice-a77078", "operator": "United States Postal Service", "operator:short": "USPS", "operator:type": "public", "operator:wikidata": "Q668687", "ref": "9110600004"}, "type": "Feature"}
{"dataset_attributes": {"@spider": "usps_collection_boxes", "spider:collection_time": "2023-09-16T08:22:24.198600"}, "geometry": {"coordinates": [-118.129472, 34.149416], "type": "Point"}, "id": "ySruWSctRaV8eHIlC6mbFlJCpZ0=", "properties": {"@spider": "usps_collection_boxes", "addr:city": "PASADENA", "addr:country": "US", "addr:full": "1000 E WALNUT ST", "addr:postcode": "91106", "addr:state": "CA", "amenity": "post_box", "brand": "United States Postal Service", "brand:wikidata": "Q668687", "collection_times": "Mo-Sa 10:00", "name": "USPS COLLECTION BOX - BLUE BOX", "nsi_id": "unitedstatespostalservice-a77078", "operator": "United States Postal Service", "operator:short": "USPS", "operator:type": "public", "operator:wikidata": "Q668687", "ref": "9110600011"}, "type": "Feature"}
{"dataset_attributes": {"@spider": "usps_collection_boxes", "spider:collection_time": "2023-09-16T08:22:24.198600"}, "geometry": {"coordinates": [-118.130095, 34.144346], "type": "Point"}, "id": "DEQvG20Ap2f-J7kcUgIzGvvXlzs=", "properties": {"@spider": "usps_collection_boxes", "addr:city": "PASADENA", "addr:country": "US", "addr:full": "960 E GREEN ST", "addr:postcode": "91106", "addr:state": "CA", "amenity": "post_box", "brand": "United States Postal Service", "brand:wikidata": "Q668687", "collection_times": "Mo-Sa 10:00", "name": "USPS COLLECTION BOX - BLUE BOX", "nsi_id": "unitedstatespostalservice-a77078", "operator": "United States Postal Service", "operator:short": "USPS", "operator:type": "public", "operator:wikidata": "Q668687", "ref": "9110600017"}, "type": "Feature"}
{"dataset_attributes": {"@spider": "usps_collection_boxes", "spider:collection_time": "2023-09-16T08:22:24.198600"}, "geometry": {"coordinates": [-118.121264, 34.146998], "type": "Point"}, "id": "RG-ClmNK9dr5PIFf4wNlwDyoeug=", "properties": {"@spider": "usps_collection_boxes", "addr:city": "PASADENA", "addr:country": "US", "addr:full": "50 N HILL ST", "addr:postcode": "91106", "addr:state": "CA", "amenity": "post_box", "brand": "United States Postal Service", "brand:wikidata": "Q668687", "collection_times": "Mo-Sa 10:00", "name": "USPS COLLECTION BOX - BLUE BOX", "nsi_id": "unitedstatespostalservice-a77078", "operator": "United States Postal Service", "operator:short": "USPS", "operator:type": "public", "operator:wikidata": "Q668687", "ref": "9110600018"}, "type": "Feature"}
{"dataset_attributes": {"@spider": "usps_collection_boxes", "spider:collection_time": "2023-09-16T08:22:24.198600"}, "geometry": {"coordinates": [-118.121228, 34.140837], "type": "Point"}, "id": "jU0COesiKP0ODU8IsrmVkzd4AiU=", "properties": {"@spider": "usps_collection_boxes", "addr:city": "PASADENA", "addr:country": "US", "addr:full": "1400 ROSE VILLA ST", "addr:postcode": "91106", "addr:state": "CA", "amenity": "post_box", "brand": "United States Postal Service", "brand:wikidata": "Q668687", "collection_times": "Mo-Sa 10:00", "name": "USPS COLLECTION BOX - BLUE BOX", "nsi_id": "unitedstatespostalservice-a77078", "operator": "United States Postal Service", "operator:short": "USPS", "operator:type": "public", "operator:wikidata": "Q668687", "ref": "9110600020"}, "type": "Feature"}
{"dataset_attributes": {"@spider": "usps_collection_boxes", "spider:collection_time": "2023-09-16T08:22:24.198600"}, "geometry": {"coordinates": [-118.132031, 34.13581], "type": "Point"}, "id": "BdsLqil4Lc3EwSJjs4M-oPUEH8c=", "properties": {"@spider": "usps_collection_boxes", "addr:city": "PASADENA", "addr:country": "US", "addr:full": "600 S LAKE AVE", "addr:postcode": "91106", "addr:state": "CA", "amenity": "post_box", "brand": "United States Postal Service", "brand:wikidata": "Q668687", "collection_times": "Mo-Sa 10:00", "name": "USPS COLLECTION BOX - BLUE BOX", "nsi_id": "unitedstatespostalservice-a77078", "operator": "United States Postal Service", "operator:short": "USPS", "operator:type": "public", "operator:wikidata": "Q668687", "ref": "9110600025"}, "type": "Feature"}
{"dataset_attributes": {"@spider": "usps_collection_boxes", "spider:collection_time": "2023-09-16T08:22:24.198600"}, "geometry": {"coordinates": [-118.125704, 34.144668], "type": "Point"}, "id": "ZywjsYrERDdytIxCymgF7kfo38I=", "properties": {"@spider": "usps_collection_boxes", "addr:city": "PASADENA", "addr:country": "US", "addr:full": "1207 E GREEN ST", "addr:postcode": "91106", "addr:state": "CA", "amenity": "post_box", "brand": "United States Postal Service", "brand:wikidata": "Q668687", "collection_times": "Mo-Sa 10:00", "name": "USPS COLLECTION BOX - BLUE BOX", "nsi_id": "unitedstatespostalservice-a77078", "operator": "United States Postal Service", "operator:short": "USPS", "operator:type": "public", "operator:wikidata": "Q668687", "ref": "9110600041"}, "type": "Feature"}
{"dataset_attributes": {"@spider": "usps_collection_boxes", "spider:collection_time": "2023-09-16T08:22:24.198600"}, "geometry": {"coordinates": [-118.125693, 34.144673], "type": "Point"}, "id": "4pSocLPq9djHEWK87XUwWPZK6Ww=", "properties": {"@spider": "usps_collection_boxes", "addr:city": "PASADENA", "addr:country": "US", "addr:full": "1207 E GREEN ST", "addr:postcode": "91106", "addr:state": "CA", "amenity": "post_box", "brand": "United States Postal Service", "brand:wikidata": "Q668687", "collection_times": "Mo-Sa 10:00", "name": "USPS COLLECTION BOX - BLUE BOX", "nsi_id": "unitedstatespostalservice-a77078", "operator": "United States Postal Service", "operator:short": "USPS", "operator:type": "public", "operator:wikidata": "Q668687", "ref": "9110600042"}, "type": "Feature"}
{"dataset_attributes": {"@spider": "usps_collection_boxes", "spider:collection_time": "2023-09-16T08:22:24.198600"}, "geometry": {"coordinates": [-118.1303315255, 34.1459395226], "type": "Point"}, "id": "Ix_O_uWnFJ7HlSN9GmbQCkQjg3U=", "properties": {"@spider": "usps_collection_boxes", "addr:city": "PASADENA", "addr:country": "US", "addr:full": "967 E COLORADO BLVD", "addr:postcode": "91106", "addr:state": "CA", "amenity": "post_box", "brand": "United States Postal Service", "brand:wikidata": "Q668687", "collection_times": "Mo-Fr 17:00", "name": "USPS COLLECTION BOX - PO LOBBY", "note": "ON 12/24 AND 12/31, THIS BOX MAY BE COLLECTED AS EARLY AS 12 NOON.", "nsi_id": "unitedstatespostalservice-a77078", "operator": "United States Postal Service", "operator:short": "USPS", "operator:type": "public", "operator:wikidata": "Q668687", "ref": "9110600049"}, "type": "Feature"}
{"dataset_attributes": {"@spider": "usps_collection_boxes", "spider:collection_time": "2023-09-16T08:22:24.198600"}, "geometry": {"coordinates": [-118.1303315255, 34.1459395226], "type": "Point"}, "id": "XwpaUtUUmChRGiRBA8hC-U0U9lQ=", "properties": {"@spider": "usps_collection_boxes", "addr:city": "PASADENA", "addr:country": "US", "addr:full": "967 E COLORADO BLVD", "addr:postcode": "91106", "addr:state": "CA", "amenity": "post_box", "brand": "United States Postal Service", "brand:wikidata": "Q668687", "collection_times": "Mo-Fr 17:00", "name": "USPS COLLECTION BOX - PO LOBBY", "note": "ON 12/24 AND 12/31, THIS BOX MAY BE COLLECTED AS EARLY AS 12 NOON.", "nsi_id": "unitedstatespostalservice-a77078", "operator": "United States Postal Service", "operator:short": "USPS", "operator:type": "public", "operator:wikidata": "Q668687", "ref": "9110600052"}, "type": "Feature"}
{"dataset_attributes": {"@spider": "usps_collection_boxes", "spider:collection_time": "2023-09-16T08:22:24.198600"}, "geometry": {"coordinates": [-118.096605, 34.146212], "type": "Point"}, "id": "DEIeHN3d1O4vCiM4VMu64qguwdw=", "properties": {"@spider": "usps_collection_boxes", "addr:city": "PASADENA", "addr:country": "US", "addr:full": "2609 E COLORADO BLVD", "addr:postcode": "91107", "addr:state": "CA", "amenity": "post_box", "brand": "United States Postal Service", "brand:wikidata": "Q668687", "collection_times": "Mo-Sa 10:00", "name": "USPS COLLECTION BOX - BLUE BOX", "nsi_id": "unitedstatespostalservice-a77078", "operator": "United States Postal Service", "operator:short": "USPS", "operator:type": "public", "operator:wikidata": "Q668687", "ref": "9110700000"}, "type": "Feature"}
{"dataset_attributes": {"@spider": "usps_collection_boxes", "spider:collection_time": "2023-09-16T08:22:24.198600"}, "geometry": {"coordinates": [-118.098125, 34.149762], "type": "Point"}, "id": "kR_Fe8fZY4SxzrCmlDgISttGVxk=", "properties": {"@spider": "usps_collection_boxes", "addr:city": "PASADENA", "addr:country": "US", "addr:full": "2500 E FOOTHILL BLVD", "addr:postcode": "91107", "addr:state": "CA", "amenity": "post_box", "brand": "United States Postal Service", "brand:wikidata": "Q668687", "collection_times": "Mo-Sa 10:00", "name": "USPS COLLECTION BOX - BLUE BOX", "nsi_id": "unitedstatespostalservice-a77078", "operator": "United States Postal Service", "operator:short": "USPS", "operator:type": "public", "operator:wikidata": "Q668687", "ref": "9110700010"}, "type": "Feature"}
{"dataset_attributes": {"@spider": "usps_collection_boxes", "spider:collection_time": "2023-09-16T08:22:24.198600"}, "geometry": {"coordinates": [-118.079706505, 34.153694693], "type": "Point"}, "id": "dNgVNYlCBXa1Cq1MkUiip-0ua9A=", "properties": {"@spider": "usps_collection_boxes", "addr:city": "PASADENA", "addr:country": "US", "addr:full": "429 N HALSTEAD ST", "addr:postcode": "91107", "addr:state": "CA", "amenity": "post_box", "brand": "United States Postal Service", "brand:wikidata": "Q668687", "collection_times": "Mo-Sa 10:00", "name": "USPS COLLECTION BOX - BLUE BOX", "nsi_id": "unitedstatespostalservice-a77078", "operator": "United States Postal Service", "operator:short": "USPS", "operator:type": "public", "operator:wikidata": "Q668687", "ref": "9110700017"}, "type": "Feature"}
{"dataset_attributes": {"@spider": "usps_collection_boxes", "spider:collection_time": "2023-09-16T08:22:24.198600"}, "geometry": {"coordinates": [-118.078916, 34.150016], "type": "Point"}, "id": "wH9xryH24aYKaxU7zCl8oZ9wpl8=", "properties": {"@spider": "usps_collection_boxes", "addr:city": "PASADENA", "addr:country": "US", "addr:full": "3452 E FOOTHILL BLVD", "addr:postcode": "91107", "addr:state": "CA", "amenity": "post_box", "brand": "United States Postal Service", "brand:wikidata": "Q668687", "collection_times": "Mo-Fr 10:00; Sa 13:00", "name": "USPS COLLECTION BOX - BLUE BOX", "note": "ON 12/24 AND 12/31, THIS BOX MAY BE COLLECTED AS EARLY AS 12 NOON.", "nsi_id": "unitedstatespostalservice-a77078", "operator": "United States Postal Service", "operator:short": "USPS", "operator:type": "public", "operator:wikidata": "Q668687", "ref": "9110700018"}, "type": "Feature"}
{"dataset_attributes": {"@spider": "usps_collection_boxes", "spider:collection_time": "2023-09-16T08:22:24.198600"}, "geometry": {"coordinates": [-118.078936, 34.155783], "type": "Point"}, "id": "CsGsSIUhBjeSjHV64c8nokQC4gI=", "properties": {"@spider": "usps_collection_boxes", "addr:city": "PASADENA", "addr:country": "US", "addr:full": "550 N ROSEMEAD BLVD", "addr:postcode": "91107", "addr:state": "CA", "amenity": "post_box", "brand": "United States Postal Service", "brand:wikidata": "Q668687", "collection_times": "Mo-Sa 10:00", "name": "USPS COLLECTION BOX - BLUE BOX", "nsi_id": "unitedstatespostalservice-a77078", "operator": "United States Postal Service", "operator:short": "USPS", "operator:type": "public", "operator:wikidata": "Q668687", "ref": "9110700033"}, "type": "Feature"}
{"dataset_attributes": {"@spider": "usps_collection_boxes", "spider:collection_time": "2023-09-16T08:22:24.198600"}, "geometry": {"coordinates": [-118.068863, 34.162033], "type": "Point"}, "id": "am_xxQTsAsuneBCmHp_F08ZBWEk=", "properties": {"@spider": "usps_collection_boxes", "addr:city": "PASADENA", "addr:country": "US", "addr:full": "3837 E SIERRA MADRE BLVD", "addr:postcode": "91107", "addr:state": "CA", "amenity": "post_box", "brand": "United States Postal Service", "brand:wikidata": "Q668687", "collection_times": "Mo-Sa 10:00", "name": "USPS COLLECTION BOX - BLUE BOX", "nsi_id": "unitedstatespostalservice-a77078", "operator": "United States Postal Service", "operator:short": "USPS", "operator:type": "public", "operator:wikidata": "Q668687", "ref": "9110700054"}, "type": "Feature"}
{"dataset_attributes": {"@spider": "usps_collection_boxes", "spider:collection_time": "2023-09-16T08:22:24.198600"}, "geometry": {"coordinates": [-118.09455, 34.14976], "type": "Point"}, "id": "fuzTJr1QOiunnOmYHibibA30pZY=", "properties": {"@spider": "usps_collection_boxes", "addr:city": "PASADENA", "addr:country": "US", "addr:full": "2700 E FOOTHILL BLVD", "addr:postcode": "91107", "addr:state": "CA", "amenity": "post_box", "brand": "United States Postal Service", "brand:wikidata": "Q668687", "collection_times": "Mo-Sa 10:00", "name": "USPS COLLECTION BOX - BLUE BOX", "nsi_id": "unitedstatespostalservice-a77078", "operator": "United States Postal Service", "operator:short": "USPS", "operator:type": "public", "operator:wikidata": "Q668687", "ref": "9110700057"}, "type": "Feature"}
{"dataset_attributes": {"@spider": "usps_collection_boxes", "spider:collection_time": "2023-09-16T08:22:24.198600"}, "geometry": {"coordinates": [-118.078932, 34.15], "type": "Point"}, "id": "AzjauwQ9D7vDutCW5diL9pXW218=", "properties": {"@spider": "usps_collection_boxes", "addr:city": "PASADENA", "addr:country": "US", "addr:full": "3452 E FOOTHILL BLVD", "addr:postcode": "91107", "addr:state": "CA", "amenity": "post_box", "brand": "United States Postal Service", "brand:wikidata": "Q668687", "collection_times": "Mo-Sa 10:00", "name": "USPS COLLECTION BOX - BLUE BOX", "nsi_id": "unitedstatespostalservice-a77078", "operator": "United States Postal Service", "operator:short": "USPS", "operator:type": "public", "operator:wikidata": "Q668687", "ref": "9110700061"}, "type": "Feature"}
{"dataset_attributes": {"@spider": "usps_collection_boxes", "spider:collection_time": "2023-09-16T08:22:24.198600"}, "geometry": {"coordinates": [-118.087933249, 34.146168521], "type": "Point"}, "id": "GXXAS9fOiAqlqfqWEVTG2G31WYo=", "properties": {"@spider": "usps_collection_boxes", "addr:city": "PASADENA", "addr:country": "US", "addr:full": "3016 E COLORADO BLVD", "addr:postcode": "91107", "addr:state": "CA", "amenity": "post_box", "brand": "United States Postal Service", "brand:wikidata": "Q668687", "collection_times": "Mo-Fr 17:00; Sa 15:00", "name": "USPS COLLECTION BOX - PO LOBBY", "note": "ON 12/24 AND 12/31, THIS BOX MAY BE COLLECTED AS EARLY AS 12 NOON.", "nsi_id": "unitedstatespostalservice-a77078", "operator": "United States Postal Service", "operator:short": "USPS", "operator:type": "public", "operator:wikidata": "Q668687", "ref": "9110700074"}, "type": "Feature"}
{"dataset_attributes": {"@spider": "usps_collection_boxes", "spider:collection_time": "2023-09-16T08:22:24.198600"}, "geometry": {"coordinates": [-118.087933249, 34.146168521], "type": "Point"}, "id": "-fzRu-E9T_roZZsWe6KI7Ycly6g=", "properties": {"@spider": "usps_collection_boxes", "addr:city": "PASADENA", "addr:country": "US", "addr:full": "3016 E COLORADO BLVD", "addr:postcode": "91107", "addr:state": "CA", "amenity": "post_box", "brand": "United States Postal Service", "brand:wikidata": "Q668687", "collection_times": "Mo-Fr 17:00", "name": "USPS COLLECTION BOX - PO LOBBY", "note": "ON 12/24 AND 12/31, THIS BOX MAY BE COLLECTED AS EARLY AS 12 NOON.", "nsi_id": "unitedstatespostalservice-a77078", "operator": "United States Postal Service", "operator:short": "USPS", "operator:type": "public", "operator:wikidata": "Q668687", "ref": "9110700085"}, "type": "Feature"}
{"dataset_attributes": {"@spider": "usps_collection_boxes", "spider:collection_time": "2023-09-16T08:22:24.198600"}, "geometry": {"coordinates": [-118.1070340323, 34.1226909888], "type": "Point"}, "id": "QKwOhrsGi10i-M_nr8u2_2cSg_A=", "properties": {"@spider": "usps_collection_boxes", "addr:city": "PASADENA", "addr:country": "US", "addr:full": "1405 SAN MARINO AVE", "addr:postcode": "91108", "addr:state": "CA", "amenity": "post_box", "brand": "United States Postal Service", "brand:wikidata": "Q668687", "collection_times": "Mo-Sa 10:00", "name": "USPS COLLECTION BOX - BLUE BOX", "nsi_id": "unitedstatespostalservice-a77078", "operator": "United States Postal Service", "operator:short": "USPS", "operator:type": "public", "operator:wikidata": "Q668687", "ref": "9110800004"}, "type": "Feature"}
{"dataset_attributes": {"@spider": "usps_collection_boxes", "spider:collection_time": "2023-09-16T08:22:24.198600"}, "geometry": {"coordinates": [-118.108749, 34.12065], "type": "Point"}, "id": "o_unQQl630LUSCh-9ZOEX87q5Vw=", "properties": {"@spider": "usps_collection_boxes", "addr:city": "PASADENA", "addr:country": "US", "addr:full": "2060 HUNTINGTON DR", "addr:postcode": "91108", "addr:state": "CA", "amenity": "post_box", "brand": "United States Postal Service", "brand:wikidata": "Q668687", "collection_times": "Mo-Sa 10:00", "name": "USPS COLLECTION BOX - BLUE BOX", "nsi_id": "unitedstatespostalservice-a77078", "operator": "United States Postal Service", "operator:short": "USPS", "operator:type": "public", "operator:wikidata": "Q668687", "ref": "9110800005"}, "type": "Feature"}
{"dataset_attributes": {"@spider": "usps_collection_boxes", "spider:collection_time": "2023-09-16T08:22:24.198600"}, "geometry": {"coordinates": [-118.138903, 34.11636], "type": "Point"}, "id": "l6rXsaHFSeVWOYZ1skOlQU5Be_8=", "properties": {"@spider": "usps_collection_boxes", "addr:city": "PASADENA", "addr:country": "US", "addr:full": "2529 MISSION ST", "addr:postcode": "91108", "addr:state": "CA", "amenity": "post_box", "brand": "United States Postal Service", "brand:wikidata": "Q668687", "collection_times": "Mo-Sa 10:00", "name": "USPS COLLECTION BOX - BLUE BOX", "nsi_id": "unitedstatespostalservice-a77078", "operator": "United States Postal Service", "operator:short": "USPS", "operator:type": "public", "operator:wikidata": "Q668687", "ref": "9110800007"}, "type": "Feature"}
{"dataset_attributes": {"@spider": "usps_collection_boxes", "spider:collection_time": "2023-09-16T08:22:24.198600"}, "geometry": {"coordinates": [-118.103551, 34.123102], "type": "Point"}, "id": "iGtBmOedL-TCzNiOV5PqqJ6xzLM=", "properties": {"@spider": "usps_collection_boxes", "addr:city": "PASADENA", "addr:country": "US", "addr:full": "2395 HUNTINGTON DR", "addr:postcode": "91108", "addr:state": "CA", "amenity": "post_box", "brand": "United States Postal Service", "brand:wikidata": "Q668687", "collection_times": "Mo-Sa 10:00", "name": "USPS COLLECTION BOX - BLUE BOX", "nsi_id": "unitedstatespostalservice-a77078", "operator": "United States Postal Service", "operator:short": "USPS", "operator:type": "public", "operator:wikidata": "Q668687", "ref": "9110800017"}, "type": "Feature"}
{"dataset_attributes": {"@spider": "usps_collection_boxes", "spider:collection_time": "2023-09-16T08:22:24.198600"}, "geometry": {"coordinates": [-118.104652, 34.122142], "type": "Point"}, "id": "rLd9EcIDHLnJ1ovR1tRpD6XTztE=", "properties": {"@spider": "usps_collection_boxes", "addr:city": "PASADENA", "addr:country": "US", "addr:full": "2300 HUNTINGTON DR", "addr:postcode": "91108", "addr:state": "CA", "amenity": "post_box", "brand": "United States Postal Service", "brand:wikidata": "Q668687", "collection_times": "Mo-Sa 10:00", "name": "USPS COLLECTION BOX - BLUE BOX", "nsi_id": "unitedstatespostalservice-a77078", "operator": "United States Postal Service", "operator:short": "USPS", "operator:type": "public", "operator:wikidata": "Q668687", "ref": "9110800021"}, "type": "Feature"}
{"dataset_attributes": {"@spider": "usps_collection_boxes", "spider:collection_time": "2023-09-16T08:22:24.198600"}, "geometry": {"coordinates": [-118.105967016, 34.1213239842], "type": "Point"}, "id": "gBFrKgidKGohnQTOmC_aVnXeI1g=", "properties": {"@spider": "usps_collection_boxes", "addr:city": "PASADENA", "addr:country": "US", "addr:full": "2200 HUNTINGTON DR", "addr:postcode": "91108", "addr:state": "CA", "amenity": "post_box", "brand": "United States Postal Service", "brand:wikidata": "Q668687", "collection_times": "Mo-Sa 10:00", "name": "USPS COLLECTION BOX - BLUE BOX", "nsi_id": "unitedstatespostalservice-a77078", "operator": "United States Postal Service", "operator:short": "USPS", "operator:type": "public", "operator:wikidata": "Q668687", "ref": "9110800023"}, "type": "Feature"}
{"dataset_attributes": {"@spider": "usps_collection_boxes", "spider:collection_time": "2023-09-16T08:22:24.198600"}, "geometry": {"coordinates": [-118.0917238913, 34.1265595593], "type": "Point"}, "id": "oyHSBDCwdiQ1CGRr1Egz7uEHJq8=", "properties": {"@spider": "usps_collection_boxes", "addr:city": "PASADENA", "addr:country": "US", "addr:full": "2960 HUNTINGTON DR", "addr:postcode": "91108", "addr:state": "CA", "amenity": "post_box", "brand": "United States Postal Service", "brand:wikidata": "Q668687", "collection_times": "Mo-Fr 17:00; Sa 15:00", "name": "USPS COLLECTION BOX - BLUE BOX", "note": "ON 12/24 AND 12/31, THIS BOX MAY BE COLLECTED AS EARLY AS 12 NOON.", "nsi_id": "unitedstatespostalservice-a77078", "operator": "United States Postal Service", "operator:short": "USPS", "operator:type": "public", "operator:wikidata": "Q668687", "ref": "9110800029"}, "type": "Feature"}
{"dataset_attributes": {"@spider": "usps_collection_boxes", "spider:collection_time": "2023-09-16T08:22:24.198600"}, "geometry": {"coordinates": [-118.091852, 34.126373], "type": "Point"}, "id": "LnFopOkxBSK3TjolymjWF1nd0XE=", "properties": {"@spider": "usps_collection_boxes", "addr:city": "PASADENA", "addr:country": "US", "addr:full": "2960 HUNTINGTON DR", "addr:postcode": "91108", "addr:state": "CA", "amenity": "post_box", "brand": "United States Postal Service", "brand:wikidata": "Q668687", "collection_times": "Mo-Fr 17:00; Sa 15:00", "name": "USPS COLLECTION BOX - PO LOBBY", "note": "ON 12/24 AND 12/31, THIS BOX MAY BE COLLECTED AS EARLY AS 12 NOON.", "nsi_id": "unitedstatespostalservice-a77078", "operator": "United States Postal Service", "operator:short": "USPS", "operator:type": "public", "operator:wikidata": "Q668687", "ref": "9110800030"}, "type": "Feature"}
{"dataset_attributes": {"@spider": "usps_collection_boxes", "spider:collection_time": "2023-09-16T08:22:24.198600"}, "geometry": {"coordinates": [-118.1251035, 34.112502], "type": "Point"}, "id": "fzN_LSW46WuVIzDRvUIzSw2hmP8=", "properties": {"@spider": "usps_collection_boxes", "addr:city": "PASADENA", "addr:country": "US", "addr:full": "980 HUNTINGTON DR", "addr:postcode": "91108", "addr:state": "CA", "amenity": "post_box", "brand": "United States Postal Service", "brand:wikidata": "Q668687", "collection_times": "Mo-Sa 10:00", "name": "USPS COLLECTION BOX - BLUE BOX", "nsi_id": "unitedstatespostalservice-a77078", "operator": "United States Postal Service", "operator:short": "USPS", "operator:type": "public", "operator:wikidata": "Q668687", "ref": "9110800034"}, "type": "Feature"}
{"dataset_attributes": {"@spider": "usps_collection_boxes", "spider:collection_time": "2023-09-16T08:22:24.198600"}, "geometry": {"coordinates": [-118.0917306625, 34.1265546506], "type": "Point"}, "id": "Cc2F5ihEg9NUR6JtB9dxsg_qAGI=", "properties": {"@spider": "usps_collection_boxes", "addr:city": "PASADENA", "addr:country": "US", "addr:full": "2960 HUNTINGTON DR", "addr:postcode": "91108", "addr:state": "CA", "amenity": "post_box", "brand": "United States Postal Service", "brand:wikidata": "Q668687", "collection_times": "Mo-Fr 17:30", "name": "USPS COLLECTION BOX - PO LOBBY", "note": "ON 12/24 AND 12/31, THIS BOX MAY BE COLLECTED AS EARLY AS 12 NOON.", "nsi_id": "unitedstatespostalservice-a77078", "operator": "United States Postal Service", "operator:short": "USPS", "operator:type": "public", "operator:wikidata": "Q668687", "ref": "9110800037"}, "type": "Feature"}
{"dataset_attributes": {"@spider": "usps_collection_boxes", "spider:collection_time": "2023-09-16T08:22:24.198600"}, "geometry": {"coordinates": [-118.1543435607, 34.1552320537], "type": "Point"}, "id": "R3Bck66AwBrQzRhXIIOdjUFy-M4=", "properties": {"@spider": "usps_collection_boxes", "addr:city": "PASADENA", "addr:country": "US", "addr:full": "600 LINCOLN AVE", "addr:postcode": "91109", "addr:state": "CA", "amenity": "post_box", "brand": "United States Postal Service", "brand:wikidata": "Q668687", "collection_times": "Mo-Fr 18:30; Sa 17:00", "name": "USPS COLLECTION BOX - BLUE BOX", "note": "ON 12/24 AND 12/31, THIS BOX MAY BE COLLECTED AS EARLY AS 12 NOON.", "nsi_id": "unitedstatespostalservice-a77078", "operator": "United States Postal Service", "operator:short": "USPS", "operator:type": "public", "operator:wikidata": "Q668687", "ref": "9110900001"}, "type": "Feature"}
{"dataset_attributes": {"@spider": "usps_collection_boxes", "spider:collection_time": "2023-09-16T08:22:24.198600"}, "geometry": {"coordinates": [-118.1543435607, 34.1552320537], "type": "Point"}, "id": "yPEA4zUi0SJv21oJxJc-L-QUlaY=", "properties": {"@spider": "usps_collection_boxes", "addr:city": "PASADENA", "addr:country": "US", "addr:full": "600 LINCOLN AVE", "addr:postcode": "91109", "addr:state": "CA", "amenity": "post_box", "brand": "United States Postal Service", "brand:wikidata": "Q668687", "collection_times": "Mo-Fr 18:30; Sa 17:00", "name": "USPS COLLECTION BOX - BLUE BOX", "note": "ON 12/24 AND 12/31, THIS BOX MAY BE COLLECTED AS EARLY AS 12 NOON.", "nsi_id": "unitedstatespostalservice-a77078", "operator": "United States Postal Service", "operator:short": "USPS", "operator:type": "public", "operator:wikidata": "Q668687", "ref": "9110900004"}, "type": "Feature"}
{"dataset_attributes": {"@spider": "usps_collection_boxes", "spider:collection_time": "2023-09-16T08:22:24.198600"}, "geometry": {"coordinates": [-118.1543435607, 34.1552320537], "type": "Point"}, "id": "Tty4ymMSq2lrLIjsM9H3UkcuilY=", "properties": {"@spider": "usps_collection_boxes", "addr:city": "PASADENA", "addr:country": "US", "addr:full": "600 LINCOLN AVE", "addr:postcode": "91109", "addr:state": "CA", "amenity": "post_box", "brand": "United States Postal Service", "brand:wikidata": "Q668687", "collection_times": "Mo-Fr 18:30; Sa 17:00", "name": "USPS COLLECTION BOX - BLUE BOX", "note": "ON 12/24 AND 12/31, THIS BOX MAY BE COLLECTED AS EARLY AS 12 NOON.", "nsi_id": "unitedstatespostalservice-a77078", "operator": "United States Postal Service", "operator:short": "USPS", "operator:type": "public", "operator:wikidata": "Q668687", "ref": "9110900005"}, "type": "Feature"}
{"dataset_attributes": {"@spider": "usps_collection_boxes", "spider:collection_time": "2023-09-16T08:22:24.198600"}, "geometry": {"coordinates": [-118.1543435607, 34.1552320537], "type": "Point"}, "id": "0pWMafokpow06m9g7GcweEp2Mbo=", "properties": {"@spider": "usps_collection_boxes", "addr:city": "PASADENA", "addr:country": "US", "addr:full": "600 LINCOLN AVE", "addr:postcode": "91109", "addr:state": "CA", "amenity": "post_box", "brand": "United States Postal Service", "brand:wikidata": "Q668687", "collection_times": "Mo-Fr 18:30; Sa 17:00", "name": "USPS COLLECTION BOX - BLUE BOX", "note": "ON 12/24 AND 12/31, THIS BOX MAY BE COLLECTED AS EARLY AS 12 NOON.", "nsi_id": "unitedstatespostalservice-a77078", "operator": "United States Postal Service", "operator:short": "USPS", "operator:type": "public", "operator:wikidata": "Q668687", "ref": "9110900006"}, "type": "Feature"}
{"dataset_attributes": {"@spider": "usps_collection_boxes", "spider:collection_time": "2023-09-16T08:22:24.198600"}, "geometry": {"coordinates": [-118.1543435607, 34.1552320537], "type": "Point"}, "id": "S0w_xaC8AgbX6xnN_7_PZrHFQm0=", "properties": {"@spider": "usps_collection_boxes", "addr:city": "PASADENA", "addr:country": "US", "addr:full": "600 LINCOLN AVE", "addr:postcode": "91109", "addr:state": "CA", "amenity": "post_box", "brand": "United States Postal Service", "brand:wikidata": "Q668687", "collection_times": "Mo-Fr 18:30; Sa 17:00", "name": "USPS COLLECTION BOX - APC", "note": "ON 12/24 AND 12/31, THIS BOX MAY BE COLLECTED AS EARLY AS 12 NOON.", "nsi_id": "unitedstatespostalservice-a77078", "operator": "United States Postal Service", "operator:short": "USPS", "operator:type": "public", "operator:wikidata": "Q668687", "ref": "9110900009"}, "type": "Feature"}
{"dataset_attributes": {"@spider": "usps_collection_boxes", "spider:collection_time": "2023-09-16T08:22:24.198600"}, "geometry": {"coordinates": [-118.1543435607, 34.1552320537], "type": "Point"}, "id": "mjrx8HcCKN-zfzwjvlvEnhXZnJk=", "properties": {"@spider": "usps_collection_boxes", "addr:city": "PASADENA", "addr:country": "US", "addr:full": "600 LINCOLN AVE", "addr:postcode": "91109", "addr:state": "CA", "amenity": "post_box", "brand": "United States Postal Service", "brand:wikidata": "Q668687", "collection_times": "Mo-Fr 18:00", "name": "USPS COLLECTION BOX - PO LOBBY", "note": "ON 12/24 AND 12/31, THIS BOX MAY BE COLLECTED AS EARLY AS 12 NOON.", "nsi_id": "unitedstatespostalservice-a77078", "operator": "United States Postal Service", "operator:short": "USPS", "operator:type": "public", "operator:wikidata": "Q668687", "ref": "9110900011"}, "type": "Feature"}
