{"dataset_attributes": {"@spider": "usps_collection_boxes", "spider:collection_time": "2023-12-10T08:24:07.887270"}, "geometry": {"coordinates": [-118.293207, 34.177672], "type": "Point"}, "id": "q0jc0pTqBq60fgcqRgZA26JJGPk=", "properties": {"@spider": "usps_collection_boxes", "addr:city": "GLENDALE", "addr:country": "US", "addr:full": "2000 GLENWOOD RD", "addr:postcode": "91201", "addr:state": "CA", "amenity": "post_box", "brand": "United States Postal Service", "brand:wikidata": "Q668687", "collection_times": "Mo-Sa 13:00", "name": "USPS COLLECTION BOX - BLUE BOX", "note": "ON 12/24 AND 12/31, THIS BOX MAY BE COLLECTED AS EARLY AS 12 NOON.", "nsi_id": "unitedstatespostalservice-a77078", "operator": "United States Postal Service", "operator:short": "USPS", "operator:type": "public", "operator:wikidata": "Q668687", "ref": "9120100009"}, "type": "Feature"}
{"dataset_attributes": {"@spider": "usps_collection_boxes", "spider:collection_time": "2023-12-10T08:24:07.887270"}, "geometry": {"coordinates": [-118.297155, 34.167161], "type": "Point"}, "id": "fihmlO_OdfzuCdErxY0jMXqnhms=", "properties": {"@spider": "usps_collection_boxes", "addr:city": "GLENDALE", "addr:country": "US", "addr:full": "1763 FLOWER ST", "addr:postcode": "91201", "addr:state": "CA", "amenity": "post_box", "brand": "United States Postal Service", "brand:wikidata": "Q668687", "collection_times": "Mo-Sa 10:00", "name": "USPS COLLECTION BOX - BLUE BOX", "nsi_id": "unitedstatespostalservice-a77078", "operator": "United States Postal Service", "operator:short": "USPS", "operator:type": "public", "operator:wikidata": "Q668687", "ref": "9120100012"}, "type": "Feature"}
{"dataset_attributes": {"@spider": "usps_collection_boxes", "spider:collection_time": "2023-12-10T08:24:07.887270"}, "geometry": {"coordinates": [-118.279429, 34.172517], "type": "Point"}, "id": "05THFfXvZmIhnQWRSluRZwnEjss=", "properties": {"@spider": "usps_collection_boxes", "addr:city": "GLENDALE", "addr:country": "US", "addr:full": "1400 W KENNETH RD", "addr:postcode": "91201", "addr:state": "CA", "amenity": "post_box", "brand": "United States Postal Service", "brand:wikidata": "Q668687", "collection_times": "Mo-Sa 13:00", "name": "USPS COLLECTION BOX - BLUE BOX", "note": "ON 12/24 AND 12/31, THIS BOX MAY BE COLLECTED AS EARLY AS 12 NOON.", "nsi_id": "unitedstatespostalservice-a77078", "operator": "United States Postal Service", "operator:short": "USPS", "operator:type": "public", "operator:wikidata": "Q668687", "ref": "9120100015"}, "type": "Feature"}
{"dataset_attributes": {"@spider": "usps_collection_boxes", "spider:collection_time": "2023-12-10T08:24:07.887270"}, "geometry": {"coordinates": [-118.292321, 34.17354], "type": "Point"}, "id": "snxI5xczE6fgn6b_77shZvmmMyI=", "properties": {"@spider": "usps_collection_boxes", "addr:city": "GLENDALE", "addr:country": "US", "addr:full": "1107 IRVING AVE", "addr:postcode": "91201", "addr:state": "CA", "amenity": "post_box", "brand": "United States Postal Service", "brand:wikidata": "Q668687", "collection_times": "Mo-Sa 10:00", "name": "USPS COLLECTION BOX - BLUE BOX", "nsi_id": "unitedstatespostalservice-a77078", "operator": "United States Postal Service", "operator:short": "USPS", "operator:type": "public", "operator:wikidata": "Q668687", "ref": "9120100019"}, "type": "Feature"}
{"dataset_attributes": {"@spider": "usps_collection_boxes", "spider:collection_time": "2023-12-10T08:24:07.887270"}, "geometry": {"coordinates": [-118.287661, 34.177738], "type": "Point"}, "id": "zpWXrEwrLDC2Cs_mIeywmxfGRXU=", "properties": {"@spider": "usps_collection_boxes", "addr:city": "GLENDALE", "addr:country": "US", "addr:full": "1824 W KENNETH RD", "addr:postcode": "91201", "addr:state": "CA", "amenity": "post_box", "brand": "United States Postal Service", "brand:wikidata": "Q668687", "collection_times": "Mo-Sa 13:00", "name": "USPS COLLECTION BOX - BLUE BOX", "note": "ON 12/24 AND 12/31, THIS BOX MAY BE COLLECTED AS EARLY AS 12 NOON.", "nsi_id": "unitedstatespostalservice-a77078", "operator": "United States Postal Service", "operator:short": "USPS", "operator:type": "public", "operator:wikidata": "Q668687", "ref": "9120100024"}, "type": "Feature"}
{"dataset_attributes": {"@spider": "usps_collection_boxes", "spider:collection_time": "2023-12-10T08:24:07.887270"}, "geometry": {"coordinates": [-118.298308, 34.159917], "type": "Point"}, "id": "vSevrnezmZfZOwwk3QWbOZv7bHo=", "properties": {"@spider": "usps_collection_boxes", "addr:city": "GLENDALE", "addr:country": "US", "addr:full": "1605 VICTORY BLVD", "addr:postcode": "91201", "addr:state": "CA", "amenity": "post_box", "brand": "United States Postal Service", "brand:wikidata": "Q668687", "collection_times": "Mo-Sa 13:00", "name": "USPS COLLECTION BOX - BLUE BOX", "note": "ON 12/24 AND 12/31, THIS BOX MAY BE COLLECTED AS EARLY AS 12 NOON.", "nsi_id": "unitedstatespostalservice-a77078", "operator": "United States Postal Service", "operator:short": "USPS", "operator:type": "public", "operator:wikidata": "Q668687", "ref": "9120100025"}, "type": "Feature"}
{"dataset_attributes": {"@spider": "usps_collection_boxes", "spider:collection_time": "2023-12-10T08:24:07.887270"}, "geometry": {"coordinates": [-118.2897437655, 34.1670594954], "type": "Point"}, "id": "Y1KmgOiYUCfXm7vNhrfvNr3CmFA=", "properties": {"@spider": "usps_collection_boxes", "addr:city": "GLENDALE", "addr:country": "US", "addr:full": "6444 SAN FERNANDO RD", "addr:postcode": "91201", "addr:state": "CA", "amenity": "post_box", "brand": "United States Postal Service", "brand:wikidata": "Q668687", "collection_times": "Mo-Sa 17:00", "name": "USPS COLLECTION BOX - PO LOBBY", "note": "ON 12/24 AND 12/31, THIS BOX MAY BE COLLECTED AS EARLY AS 12 NOON.", "nsi_id": "unitedstatespostalservice-a77078", "operator": "United States Postal Service", "operator:short": "USPS", "operator:type": "public", "operator:wikidata": "Q668687", "ref": "9120100035"}, "type": "Feature"}
{"dataset_attributes": {"@spider": "usps_collection_boxes", "spider:collection_time": "2023-12-10T08:24:07.887270"}, "geometry": {"coordinates": [-118.2897437655, 34.1670594954], "type": "Point"}, "id": "681zkfHg0BsOIPTaoSgcYVZ9lMc=", "properties": {"@spider": "usps_collection_boxes", "addr:city": "GLENDALE", "addr:country": "US", "addr:full": "6444 SAN FERNANDO RD", "addr:postcode": "91201", "addr:state": "CA", "amenity": "post_box", "brand": "United States Postal Service", "brand:wikidata": "Q668687", "collection_times": "Mo-Sa 17:00", "name": "USPS COLLECTION BOX - PO LOBBY", "note": "ON 12/24 AND 12/31, THIS BOX MAY BE COLLECTED AS EARLY AS 12 NOON.", "nsi_id": "unitedstatespostalservice-a77078", "operator": "United States Postal Service", "operator:short": "USPS", "operator:type": "public", "operator:wikidata": "Q668687", "ref": "9120100037"}, "type": "Feature"}
{"dataset_attributes": {"@spider": "usps_collection_boxes", "spider:collection_time": "2023-12-10T08:24:07.887270"}, "geometry": {"coordinates": [-118.2897437655, 34.1670594954], "type": "Point"}, "id": "9Oubqe37QGIOehGS9Ce2c4spNIo=", "properties": {"@spider": "usps_collection_boxes", "addr:city": "GLENDALE", "addr:country": "US", "addr:full": "6444 SAN FERNANDO RD", "addr:postcode": "91201", "addr:state": "CA", "amenity": "post_box", "brand": "United States Postal Service", "brand:wikidata": "Q668687", "collection_times": "Mo-Sa 17:00", "name": "USPS COLLECTION BOX - BLUE BOX", "note": "ON 12/24 AND 12/31, THIS BOX MAY BE COLLECTED AS EARLY AS 12 NOON.", "nsi_id": "unitedstatespostalservice-a77078", "operator": "United States Postal Service", "operator:short": "USPS", "operator:type": "public", "operator:wikidata": "Q668687", "ref": "9120100038"}, "type": "Feature"}
{"dataset_attributes": {"@spider": "usps_collection_boxes", "spider:collection_time": "2023-12-10T08:24:07.887270"}, "geometry": {"coordinates": [-118.2897437655, 34.1670594954], "type": "Point"}, "id": "2z2epAr_nXQH3cG-C16ZTl0RUi8=", "properties": {"@spider": "usps_collection_boxes", "addr:city": "GLENDALE", "addr:country": "US", "addr:full": "6444 SAN FERNANDO RD", "addr:postcode": "91201", "addr:state": "CA", "amenity": "post_box", "brand": "United States Postal Service", "brand:wikidata": "Q668687", "collection_times": "Mo-Sa 17:00", "name": "USPS COLLECTION BOX - APC", "note": "ON 12/24 AND 12/31, THIS BOX MAY BE COLLECTED AS EARLY AS 12 NOON.", "nsi_id": "unitedstatespostalservice-a77078", "operator": "United States Postal Service", "operator:short": "USPS", "operator:type": "public", "operator:wikidata": "Q668687", "ref": "9120100039"}, "type": "Feature"}
{"dataset_attributes": {"@spider": "usps_collection_boxes", "spider:collection_time": "2023-12-10T08:24:07.887270"}, "geometry": {"coordinates": [-118.287189, 34.181483], "type": "Point"}, "id": "7y6a0isCxJBpPwxKDrKti_L_ms0=", "properties": {"@spider": "usps_collection_boxes", "addr:city": "GLENDALE", "addr:country": "US", "addr:full": "1920 BEL AIRE DR", "addr:postcode": "91201", "addr:state": "CA", "amenity": "post_box", "brand": "United States Postal Service", "brand:wikidata": "Q668687", "collection_times": "Mo-Sa 13:00", "name": "USPS COLLECTION BOX - BLUE BOX", "note": "ON 12/24 AND 12/31, THIS BOX MAY BE COLLECTED AS EARLY AS 12 NOON.", "nsi_id": "unitedstatespostalservice-a77078", "operator": "United States Postal Service", "operator:short": "USPS", "operator:type": "public", "operator:wikidata": "Q668687", "ref": "9120100041"}, "type": "Feature"}
{"dataset_attributes": {"@spider": "usps_collection_boxes", "spider:collection_time": "2023-12-10T08:24:07.887270"}, "geometry": {"coordinates": [-118.285998, 34.168692], "type": "Point"}, "id": "S-SGnHM3Uea3h6xAXS5cNPJZxgs=", "properties": {"@spider": "usps_collection_boxes", "addr:city": "GLENDALE", "addr:country": "US", "addr:full": "1501 W GLENOAKS BLVD", "addr:postcode": "91201", "addr:state": "CA", "amenity": "post_box", "brand": "United States Postal Service", "brand:wikidata": "Q668687", "collection_times": "Mo-Sa 13:00", "name": "USPS COLLECTION BOX - BLUE BOX", "note": "ON 12/24 AND 12/31, THIS BOX MAY BE COLLECTED AS EARLY AS 12 NOON.", "nsi_id": "unitedstatespostalservice-a77078", "operator": "United States Postal Service", "operator:short": "USPS", "operator:type": "public", "operator:wikidata": "Q668687", "ref": "9120100047"}, "type": "Feature"}
{"dataset_attributes": {"@spider": "usps_collection_boxes", "spider:collection_time": "2023-12-10T08:24:07.887270"}, "geometry": {"coordinates": [-118.2934779852, 34.1744080019], "type": "Point"}, "id": "I_fTC0eBwiYtAnJc9o36sdzzxS0=", "properties": {"@spider": "usps_collection_boxes", "addr:city": "GLENDALE", "addr:country": "US", "addr:full": "1901 W GLENOAKS BLVD", "addr:postcode": "91201", "addr:state": "CA", "amenity": "post_box", "brand": "United States Postal Service", "brand:wikidata": "Q668687", "collection_times": "Mo-Sa 13:00", "name": "USPS COLLECTION BOX - BLUE BOX", "note": "ON 12/24 AND 12/31, THIS BOX MAY BE COLLECTED AS EARLY AS 12 NOON.", "nsi_id": "unitedstatespostalservice-a77078", "operator": "United States Postal Service", "operator:short": "USPS", "operator:type": "public", "operator:wikidata": "Q668687", "ref": "9120100049"}, "type": "Feature"}
{"dataset_attributes": {"@spider": "usps_collection_boxes", "spider:collection_time": "2023-12-10T08:24:07.887270"}, "geometry": {"coordinates": [-118.2895219803, 34.1669010802], "type": "Point"}, "id": "ME9W3QYrsNB1dqYHeuUvKmqGqXo=", "properties": {"@spider": "usps_collection_boxes", "addr:city": "GLENDALE", "addr:country": "US", "addr:full": "6444 SAN FERNANDO RD", "addr:postcode": "91201", "addr:state": "CA", "amenity": "post_box", "brand": "United States Postal Service", "brand:wikidata": "Q668687", "collection_times": "Mo-Sa 17:00", "name": "USPS COLLECTION BOX - BLUE BOX", "note": "ON 12/24 AND 12/31, THIS BOX MAY BE COLLECTED AS EARLY AS 12 NOON.", "nsi_id": "unitedstatespostalservice-a77078", "operator": "United States Postal Service", "operator:short": "USPS", "operator:type": "public", "operator:wikidata": "Q668687", "ref": "9120100053"}, "type": "Feature"}
{"dataset_attributes": {"@spider": "usps_collection_boxes", "spider:collection_time": "2023-12-10T08:24:07.887270"}, "geometry": {"coordinates": [-118.2895199667, 34.1672869884], "type": "Point"}, "id": "Ki_MeqF3qHkHetWvws7VxzbSyeQ=", "properties": {"@spider": "usps_collection_boxes", "addr:city": "GLENDALE", "addr:country": "US", "addr:full": "6444 SAN FERNANDO RD", "addr:postcode": "91201", "addr:state": "CA", "amenity": "post_box", "brand": "United States Postal Service", "brand:wikidata": "Q668687", "collection_times": "Mo-Sa 17:00", "name": "USPS COLLECTION BOX - BLUE BOX", "note": "ON 12/24 AND 12/31, THIS BOX MAY BE COLLECTED AS EARLY AS 12 NOON.", "nsi_id": "unitedstatespostalservice-a77078", "operator": "United States Postal Service", "operator:short": "USPS", "operator:type": "public", "operator:wikidata": "Q668687", "ref": "9120100054"}, "type": "Feature"}
{"dataset_attributes": {"@spider": "usps_collection_boxes", "spider:collection_time": "2023-12-10T08:24:07.887270"}, "geometry": {"coordinates": [-118.2897437655, 34.1670594954], "type": "Point"}, "id": "nftnVxLLGROM4hYpvptHiaBsiB0=", "properties": {"@spider": "usps_collection_boxes", "addr:city": "GLENDALE", "addr:country": "US", "addr:full": "6444 SAN FERNANDO RD", "addr:postcode": "91201", "addr:state": "CA", "amenity": "post_box", "brand": "United States Postal Service", "brand:wikidata": "Q668687", "collection_times": "Mo-Fr 17:30", "name": "USPS COLLECTION BOX - PO LOBBY", "note": "ON 12/24 AND 12/31, THIS BOX MAY BE COLLECTED AS EARLY AS 12 NOON.", "nsi_id": "unitedstatespostalservice-a77078", "operator": "United States Postal Service", "operator:short": "USPS", "operator:type": "public", "operator:wikidata": "Q668687", "ref": "9120100057"}, "type": "Feature"}
{"dataset_attributes": {"@spider": "usps_collection_boxes", "spider:collection_time": "2023-12-10T08:24:07.887270"}, "geometry": {"coordinates": [-118.2643446144, 34.1603248571], "type": "Point"}, "id": "cYDcozwBuWQQ2cjoPZvDRoQ40g0=", "properties": {"@spider": "usps_collection_boxes", "addr:city": "GLENDALE", "addr:country": "US", "addr:full": "1009 N PACIFIC AVE", "addr:postcode": "91202", "addr:state": "CA", "amenity": "post_box", "brand": "United States Postal Service", "brand:wikidata": "Q668687", "collection_times": "Mo-Fr 17:00; Sa 14:30", "name": "USPS COLLECTION BOX - BLUE BOX", "note": "ON 12/24 AND 12/31, THIS BOX MAY BE COLLECTED AS EARLY AS 12 NOON.", "nsi_id": "unitedstatespostalservice-a77078", "operator": "United States Postal Service", "operator:short": "USPS", "operator:type": "public", "operator:wikidata": "Q668687", "ref": "9120200000"}, "type": "Feature"}
{"dataset_attributes": {"@spider": "usps_collection_boxes", "spider:collection_time": "2023-12-10T08:24:07.887270"}, "geometry": {"coordinates": [-118.264709, 34.159702], "type": "Point"}, "id": "pDNMa-R5ahsAMqEGH6PMZFGv1vs=", "properties": {"@spider": "usps_collection_boxes", "addr:city": "GLENDALE", "addr:country": "US", "addr:full": "513 W GLENOAKS BLVD", "addr:postcode": "91202", "addr:state": "CA", "amenity": "post_box", "brand": "United States Postal Service", "brand:wikidata": "Q668687", "collection_times": "Mo-Sa 13:00", "name": "USPS COLLECTION BOX - BLUE BOX", "note": "ON 12/24 AND 12/31, THIS BOX MAY BE COLLECTED AS EARLY AS 12 NOON.", "nsi_id": "unitedstatespostalservice-a77078", "operator": "United States Postal Service", "operator:short": "USPS", "operator:type": "public", "operator:wikidata": "Q668687", "ref": "9120200001"}, "type": "Feature"}
{"dataset_attributes": {"@spider": "usps_collection_boxes", "spider:collection_time": "2023-12-10T08:24:07.887270"}, "geometry": {"coordinates": [-118.260749, 34.159853], "type": "Point"}, "id": "bWtBjxG5q6domKt8VNAoOGqcYI0=", "properties": {"@spider": "usps_collection_boxes", "addr:city": "GLENDALE", "addr:country": "US", "addr:full": "1000 SAN RAFAEL AVE", "addr:postcode": "91202", "addr:state": "CA", "amenity": "post_box", "brand": "United States Postal Service", "brand:wikidata": "Q668687", "collection_times": "Mo-Sa 13:00", "name": "USPS COLLECTION BOX - BLUE BOX", "note": "ON 12/24 AND 12/31, THIS BOX MAY BE COLLECTED AS EARLY AS 12 NOON.", "nsi_id": "unitedstatespostalservice-a77078", "operator": "United States Postal Service", "operator:short": "USPS", "operator:type": "public", "operator:wikidata": "Q668687", "ref": "9120200003"}, "type": "Feature"}
{"dataset_attributes": {"@spider": "usps_collection_boxes", "spider:collection_time": "2023-12-10T08:24:07.887270"}, "geometry": {"coordinates": [-118.259514, 34.161592], "type": "Point"}, "id": "OFrvhq6vnMTT8HzfC1MYC5JsYfs=", "properties": {"@spider": "usps_collection_boxes", "addr:city": "GLENDALE", "addr:country": "US", "addr:full": "1101 MELROSE AVE", "addr:postcode": "91202", "addr:state": "CA", "amenity": "post_box", "brand": "United States Postal Service", "brand:wikidata": "Q668687", "collection_times": "Mo-Sa 13:00", "name": "USPS COLLECTION BOX - BLUE BOX", "note": "ON 12/24 AND 12/31, THIS BOX MAY BE COLLECTED AS EARLY AS 12 NOON.", "nsi_id": "unitedstatespostalservice-a77078", "operator": "United States Postal Service", "operator:short": "USPS", "operator:type": "public", "operator:wikidata": "Q668687", "ref": "9120200004"}, "type": "Feature"}
{"dataset_attributes": {"@spider": "usps_collection_boxes", "spider:collection_time": "2023-12-10T08:24:07.887270"}, "geometry": {"coordinates": [-118.254879, 34.16215], "type": "Point"}, "id": "uBasgrUoT_53VF8j0Z6fYGryFtk=", "properties": {"@spider": "usps_collection_boxes", "addr:city": "GLENDALE", "addr:country": "US", "addr:full": "1122 N BRAND BLVD", "addr:postcode": "91202", "addr:state": "CA", "amenity": "post_box", "brand": "United States Postal Service", "brand:wikidata": "Q668687", "collection_times": "Mo-Sa 13:00", "name": "USPS COLLECTION BOX - BLUE BOX", "note": "ON 12/24 AND 12/31, THIS BOX MAY BE COLLECTED AS EARLY AS 12 NOON.", "nsi_id": "unitedstatespostalservice-a77078", "operator": "United States Postal Service", "operator:short": "USPS", "operator:type": "public", "operator:wikidata": "Q668687", "ref": "9120200006"}, "type": "Feature"}
{"dataset_attributes": {"@spider": "usps_collection_boxes", "spider:collection_time": "2023-12-10T08:24:07.887270"}, "geometry": {"coordinates": [-118.254909, 34.166681], "type": "Point"}, "id": "NE7MSX285FZZxk2sngNOf0qyPrE=", "properties": {"@spider": "usps_collection_boxes", "addr:city": "GLENDALE", "addr:country": "US", "addr:full": "1336 N BRAND BLVD", "addr:postcode": "91202", "addr:state": "CA", "amenity": "post_box", "brand": "United States Postal Service", "brand:wikidata": "Q668687", "collection_times": "Mo-Sa 13:00", "name": "USPS COLLECTION BOX - BLUE BOX", "note": "ON 12/24 AND 12/31, THIS BOX MAY BE COLLECTED AS EARLY AS 12 NOON.", "nsi_id": "unitedstatespostalservice-a77078", "operator": "United States Postal Service", "operator:short": "USPS", "operator:type": "public", "operator:wikidata": "Q668687", "ref": "9120200008"}, "type": "Feature"}
{"dataset_attributes": {"@spider": "usps_collection_boxes", "spider:collection_time": "2023-12-10T08:24:07.887270"}, "geometry": {"coordinates": [-118.256763, 34.164661], "type": "Point"}, "id": "ZHy1GXAQvrHoPAzAmukCpf1_ijI=", "properties": {"@spider": "usps_collection_boxes", "addr:city": "GLENDALE", "addr:country": "US", "addr:full": "1200 N CENTRAL AVE", "addr:postcode": "91202", "addr:state": "CA", "amenity": "post_box", "brand": "United States Postal Service", "brand:wikidata": "Q668687", "collection_times": "Mo-Sa 13:00", "name": "USPS COLLECTION BOX - BLUE BOX", "note": "ON 12/24 AND 12/31, THIS BOX MAY BE COLLECTED AS EARLY AS 12 NOON.", "nsi_id": "unitedstatespostalservice-a77078", "operator": "United States Postal Service", "operator:short": "USPS", "operator:type": "public", "operator:wikidata": "Q668687", "ref": "9120200009"}, "type": "Feature"}
{"dataset_attributes": {"@spider": "usps_collection_boxes", "spider:collection_time": "2023-12-10T08:24:07.887270"}, "geometry": {"coordinates": [-118.266012, 34.16931], "type": "Point"}, "id": "it05IMIbqHLtEpHOd_j-lKTKkmE=", "properties": {"@spider": "usps_collection_boxes", "addr:city": "GLENDALE", "addr:country": "US", "addr:full": "450 W KENNETH RD", "addr:postcode": "91202", "addr:state": "CA", "amenity": "post_box", "brand": "United States Postal Service", "brand:wikidata": "Q668687", "collection_times": "Mo-Sa 10:00", "name": "USPS COLLECTION BOX - BLUE BOX", "nsi_id": "unitedstatespostalservice-a77078", "operator": "United States Postal Service", "operator:short": "USPS", "operator:type": "public", "operator:wikidata": "Q668687", "ref": "9120200010"}, "type": "Feature"}
{"dataset_attributes": {"@spider": "usps_collection_boxes", "spider:collection_time": "2023-12-10T08:24:07.887270"}, "geometry": {"coordinates": [-118.265229, 34.163196], "type": "Point"}, "id": "VHaLWnLEbjFqlrojVV5ZX5vxyAE=", "properties": {"@spider": "usps_collection_boxes", "addr:city": "GLENDALE", "addr:country": "US", "addr:full": "1163 N PACIFIC AVE", "addr:postcode": "91202", "addr:state": "CA", "amenity": "post_box", "brand": "United States Postal Service", "brand:wikidata": "Q668687", "collection_times": "Mo-Sa 13:00", "name": "USPS COLLECTION BOX - BLUE BOX", "note": "ON 12/24 AND 12/31, THIS BOX MAY BE COLLECTED AS EARLY AS 12 NOON.", "nsi_id": "unitedstatespostalservice-a77078", "operator": "United States Postal Service", "operator:short": "USPS", "operator:type": "public", "operator:wikidata": "Q668687", "ref": "9120200011"}, "type": "Feature"}
{"dataset_attributes": {"@spider": "usps_collection_boxes", "spider:collection_time": "2023-12-10T08:24:07.887270"}, "geometry": {"coordinates": [-118.261974, 34.164722], "type": "Point"}, "id": "_c5gYkWVcLQde7uEOIxxuYcxiRY=", "properties": {"@spider": "usps_collection_boxes", "addr:city": "GLENDALE", "addr:country": "US", "addr:full": "1236 N COLUMBUS AVE", "addr:postcode": "91202", "addr:state": "CA", "amenity": "post_box", "brand": "United States Postal Service", "brand:wikidata": "Q668687", "collection_times": "Mo-Sa 10:00", "name": "USPS COLLECTION BOX - BLUE BOX", "nsi_id": "unitedstatespostalservice-a77078", "operator": "United States Postal Service", "operator:short": "USPS", "operator:type": "public", "operator:wikidata": "Q668687", "ref": "9120200014"}, "type": "Feature"}
{"dataset_attributes": {"@spider": "usps_collection_boxes", "spider:collection_time": "2023-12-10T08:24:07.887270"}, "geometry": {"coordinates": [-118.270862, 34.159077], "type": "Point"}, "id": "PI7ZTa3nH4Z434kzEr657AbiZ5c=", "properties": {"@spider": "usps_collection_boxes", "addr:city": "GLENDALE", "addr:country": "US", "addr:full": "691 ARDEN AVE", "addr:postcode": "91202", "addr:state": "CA", "amenity": "post_box", "brand": "United States Postal Service", "brand:wikidata": "Q668687", "collection_times": "Mo-Sa 13:00", "name": "USPS COLLECTION BOX - BLUE BOX", "note": "ON 12/24 AND 12/31, THIS BOX MAY BE COLLECTED AS EARLY AS 12 NOON.", "nsi_id": "unitedstatespostalservice-a77078", "operator": "United States Postal Service", "operator:short": "USPS", "operator:type": "public", "operator:wikidata": "Q668687", "ref": "9120200015"}, "type": "Feature"}
{"dataset_attributes": {"@spider": "usps_collection_boxes", "spider:collection_time": "2023-12-10T08:24:07.887270"}, "geometry": {"coordinates": [-118.255026807, 34.163478], "type": "Point"}, "id": "nH80Bzn3vMbiQniINVlb80vUWgI=", "properties": {"@spider": "usps_collection_boxes", "addr:city": "GLENDALE", "addr:country": "US", "addr:full": "1156 N BRAND BLVD", "addr:postcode": "91202", "addr:state": "CA", "amenity": "post_box", "brand": "United States Postal Service", "brand:wikidata": "Q668687", "collection_times": "Mo-Sa 13:00", "name": "USPS COLLECTION BOX - BLUE BOX", "note": "ON 12/24 AND 12/31, THIS BOX MAY BE COLLECTED AS EARLY AS 12 NOON.", "nsi_id": "unitedstatespostalservice-a77078", "operator": "United States Postal Service", "operator:short": "USPS", "operator:type": "public", "operator:wikidata": "Q668687", "ref": "9120200020"}, "type": "Feature"}
{"dataset_attributes": {"@spider": "usps_collection_boxes", "spider:collection_time": "2023-12-10T08:24:07.887270"}, "geometry": {"coordinates": [-118.274726, 34.16125], "type": "Point"}, "id": "fkEfGw8vrbLQ0kAgK0JI3Vij3-U=", "properties": {"@spider": "usps_collection_boxes", "addr:city": "GLENDALE", "addr:country": "US", "addr:full": "1001 HIGHLAND AVE", "addr:postcode": "91202", "addr:state": "CA", "amenity": "post_box", "brand": "United States Postal Service", "brand:wikidata": "Q668687", "collection_times": "Mo-Sa 13:00", "name": "USPS COLLECTION BOX - BLUE BOX", "note": "ON 12/24 AND 12/31, THIS BOX MAY BE COLLECTED AS EARLY AS 12 NOON.", "nsi_id": "unitedstatespostalservice-a77078", "operator": "United States Postal Service", "operator:short": "USPS", "operator:type": "public", "operator:wikidata": "Q668687", "ref": "9120200021"}, "type": "Feature"}
{"dataset_attributes": {"@spider": "usps_collection_boxes", "spider:collection_time": "2023-12-10T08:24:07.887270"}, "geometry": {"coordinates": [-118.254937, 34.160434], "type": "Point"}, "id": "o8JuLlFDNmpcgglbyLIGbdwm448=", "properties": {"@spider": "usps_collection_boxes", "addr:city": "GLENDALE", "addr:country": "US", "addr:full": "1000 N BRAND BLVD", "addr:postcode": "91202", "addr:state": "CA", "amenity": "post_box", "brand": "United States Postal Service", "brand:wikidata": "Q668687", "collection_times": "Mo-Sa 13:00", "name": "USPS COLLECTION BOX - BLUE BOX", "note": "ON 12/24 AND 12/31, THIS BOX MAY BE COLLECTED AS EARLY AS 12 NOON.", "nsi_id": "unitedstatespostalservice-a77078", "operator": "United States Postal Service", "operator:short": "USPS", "operator:type": "public", "operator:wikidata": "Q668687", "ref": "9120200028"}, "type": "Feature"}
{"dataset_attributes": {"@spider": "usps_collection_boxes", "spider:collection_time": "2023-12-10T08:24:07.887270"}, "geometry": {"coordinates": [-118.2643446144, 34.1603248571], "type": "Point"}, "id": "4pFY7UVyutSCsFhcU-a90O5GCZs=", "properties": {"@spider": "usps_collection_boxes", "addr:city": "GLENDALE", "addr:country": "US", "addr:full": "1009 N PACIFIC AVE", "addr:postcode": "91202", "addr:state": "CA", "amenity": "post_box", "brand": "United States Postal Service", "brand:wikidata": "Q668687", "collection_times": "Mo-Fr 17:00", "name": "USPS COLLECTION BOX - PO LOBBY", "note": "ON 12/24 AND 12/31, THIS BOX MAY BE COLLECTED AS EARLY AS 12 NOON.", "nsi_id": "unitedstatespostalservice-a77078", "operator": "United States Postal Service", "operator:short": "USPS", "operator:type": "public", "operator:wikidata": "Q668687", "ref": "9120200030"}, "type": "Feature"}
{"dataset_attributes": {"@spider": "usps_collection_boxes", "spider:collection_time": "2023-12-10T08:24:07.887270"}, "geometry": {"coordinates": [-118.255775, 34.158], "type": "Point"}, "id": "xs0SfMkxUkIlQbMJZfH9e-qUG7M=", "properties": {"@spider": "usps_collection_boxes", "addr:city": "GLENDALE", "addr:country": "US", "addr:full": "801 N BRAND BLVD", "addr:postcode": "91203", "addr:state": "CA", "amenity": "post_box", "brand": "United States Postal Service", "brand:wikidata": "Q668687", "collection_times": "Mo-Sa 13:00", "name": "USPS COLLECTION BOX - BLUE BOX", "note": "ON 12/24 AND 12/31, THIS BOX MAY BE COLLECTED AS EARLY AS 12 NOON.", "nsi_id": "unitedstatespostalservice-a77078", "operator": "United States Postal Service", "operator:short": "USPS", "operator:type": "public", "operator:wikidata": "Q668687", "ref": "9120300004"}, "type": "Feature"}
{"dataset_attributes": {"@spider": "usps_collection_boxes", "spider:collection_time": "2023-12-10T08:24:07.887270"}, "geometry": {"coordinates": [-118.254179, 34.157182], "type": "Point"}, "id": "uA6sxcM7QGX5VqRjJVOV_0OuK3A=", "properties": {"@spider": "usps_collection_boxes", "addr:city": "GLENDALE", "addr:country": "US", "addr:full": "700 N BRAND BLVD", "addr:postcode": "91203", "addr:state": "CA", "amenity": "post_box", "brand": "United States Postal Service", "brand:wikidata": "Q668687", "collection_times": "Mo-Sa 13:00", "name": "USPS COLLECTION BOX - BLUE BOX", "note": "ON 12/24 AND 12/31, THIS BOX MAY BE COLLECTED AS EARLY AS 12 NOON.", "nsi_id": "unitedstatespostalservice-a77078", "operator": "United States Postal Service", "operator:short": "USPS", "operator:type": "public", "operator:wikidata": "Q668687", "ref": "9120300015"}, "type": "Feature"}
{"dataset_attributes": {"@spider": "usps_collection_boxes", "spider:collection_time": "2023-12-10T08:24:07.887270"}, "geometry": {"coordinates": [-118.25596, 34.157638], "type": "Point"}, "id": "4BbcfM7KvXkZIVYI_msthEFwXSw=", "properties": {"@spider": "usps_collection_boxes", "addr:city": "GLENDALE", "addr:country": "US", "addr:full": "701 N BRAND BLVD", "addr:postcode": "91203", "addr:state": "CA", "amenity": "post_box", "brand": "United States Postal Service", "brand:wikidata": "Q668687", "collection_times": "Mo-Sa 13:00", "name": "USPS COLLECTION BOX - BLUE BOX", "note": "ON 12/24 AND 12/31, THIS BOX MAY BE COLLECTED AS EARLY AS 12 NOON.", "nsi_id": "unitedstatespostalservice-a77078", "operator": "United States Postal Service", "operator:short": "USPS", "operator:type": "public", "operator:wikidata": "Q668687", "ref": "9120300021"}, "type": "Feature"}
{"dataset_attributes": {"@spider": "usps_collection_boxes", "spider:collection_time": "2023-12-10T08:24:07.887270"}, "geometry": {"coordinates": [-118.2589296392, 34.1584605284], "type": "Point"}, "id": "LZ2AdcjzfPGcomCSa88YQyHyYNM=", "properties": {"@spider": "usps_collection_boxes", "addr:city": "GLENDALE", "addr:country": "US", "addr:full": "320 ARDEN AVE", "addr:postcode": "91203", "addr:state": "CA", "amenity": "post_box", "brand": "United States Postal Service", "brand:wikidata": "Q668687", "collection_times": "Mo-Sa 10:00", "name": "USPS COLLECTION BOX - BLUE BOX", "nsi_id": "unitedstatespostalservice-a77078", "operator": "United States Postal Service", "operator:short": "USPS", "operator:type": "public", "operator:wikidata": "Q668687", "ref": "9120300025"}, "type": "Feature"}
{"dataset_attributes": {"@spider": "usps_collection_boxes", "spider:collection_time": "2023-12-10T08:24:07.887270"}, "geometry": {"coordinates": [-118.2587528608, 34.1585114644], "type": "Point"}, "id": "CDAKTq3N1ioZcbX0UEr61_CIfhE=", "properties": {"@spider": "usps_collection_boxes", "addr:city": "GLENDALE", "addr:country": "US", "addr:full": "315 ARDEN AVE", "addr:postcode": "91203", "addr:state": "CA", "amenity": "post_box", "brand": "United States Postal Service", "brand:wikidata": "Q668687", "collection_times": "Mo-Sa 10:00", "name": "USPS COLLECTION BOX - BLUE BOX", "nsi_id": "unitedstatespostalservice-a77078", "operator": "United States Postal Service", "operator:short": "USPS", "operator:type": "public", "operator:wikidata": "Q668687", "ref": "9120300026"}, "type": "Feature"}
{"dataset_attributes": {"@spider": "usps_collection_boxes", "spider:collection_time": "2023-12-10T08:24:07.887270"}, "geometry": {"coordinates": [-118.262734, 34.158497], "type": "Point"}, "id": "twral1kbrTf9ggAbA34ByMkS0G4=", "properties": {"@spider": "usps_collection_boxes", "addr:city": "GLENDALE", "addr:country": "US", "addr:full": "435 ARDEN AVE", "addr:postcode": "91203", "addr:state": "CA", "amenity": "post_box", "brand": "United States Postal Service", "brand:wikidata": "Q668687", "collection_times": "Mo-Sa 10:00", "name": "USPS COLLECTION BOX - BLUE BOX", "nsi_id": "unitedstatespostalservice-a77078", "operator": "United States Postal Service", "operator:short": "USPS", "operator:type": "public", "operator:wikidata": "Q668687", "ref": "9120300028"}, "type": "Feature"}
{"dataset_attributes": {"@spider": "usps_collection_boxes", "spider:collection_time": "2023-12-10T08:24:07.887270"}, "geometry": {"coordinates": [-118.258041, 34.152614], "type": "Point"}, "id": "FZdl5nF5GtIfToambL9y_fnDzqc=", "properties": {"@spider": "usps_collection_boxes", "addr:city": "GLENDALE", "addr:country": "US", "addr:full": "411 N CENTRAL AVE", "addr:postcode": "91203", "addr:state": "CA", "amenity": "post_box", "brand": "United States Postal Service", "brand:wikidata": "Q668687", "collection_times": "Mo-Sa 13:00", "name": "USPS COLLECTION BOX - BLUE BOX", "note": "ON 12/24 AND 12/31, THIS BOX MAY BE COLLECTED AS EARLY AS 12 NOON.", "nsi_id": "unitedstatespostalservice-a77078", "operator": "United States Postal Service", "operator:short": "USPS", "operator:type": "public", "operator:wikidata": "Q668687", "ref": "9120300054"}, "type": "Feature"}
{"dataset_attributes": {"@spider": "usps_collection_boxes", "spider:collection_time": "2023-12-10T08:24:07.887270"}, "geometry": {"coordinates": [-118.258052, 34.149721], "type": "Point"}, "id": "-04vHAOmL034jOSLVyA21SJ4ICo=", "properties": {"@spider": "usps_collection_boxes", "addr:city": "GLENDALE", "addr:country": "US", "addr:full": "229 N CENTRAL AVE", "addr:postcode": "91203", "addr:state": "CA", "amenity": "post_box", "brand": "United States Postal Service", "brand:wikidata": "Q668687", "collection_times": "Mo-Sa 13:00", "name": "USPS COLLECTION BOX - BLUE BOX", "note": "ON 12/24 AND 12/31, THIS BOX MAY BE COLLECTED AS EARLY AS 12 NOON.", "nsi_id": "unitedstatespostalservice-a77078", "operator": "United States Postal Service", "operator:short": "USPS", "operator:type": "public", "operator:wikidata": "Q668687", "ref": "9120300058"}, "type": "Feature"}
{"dataset_attributes": {"@spider": "usps_collection_boxes", "spider:collection_time": "2023-12-10T08:24:07.887270"}, "geometry": {"coordinates": [-118.261451, 34.15415], "type": "Point"}, "id": "YrowwK3ywNwjRZogGwNRuuEfMv0=", "properties": {"@spider": "usps_collection_boxes", "addr:city": "GLENDALE", "addr:country": "US", "addr:full": "607 N COLUMBUS AVE", "addr:postcode": "91203", "addr:state": "CA", "amenity": "post_box", "brand": "United States Postal Service", "brand:wikidata": "Q668687", "collection_times": "Mo-Sa 13:00", "name": "USPS COLLECTION BOX - BLUE BOX", "note": "ON 12/24 AND 12/31, THIS BOX MAY BE COLLECTED AS EARLY AS 12 NOON.", "nsi_id": "unitedstatespostalservice-a77078", "operator": "United States Postal Service", "operator:short": "USPS", "operator:type": "public", "operator:wikidata": "Q668687", "ref": "9120300063"}, "type": "Feature"}
{"dataset_attributes": {"@spider": "usps_collection_boxes", "spider:collection_time": "2023-12-10T08:24:07.887270"}, "geometry": {"coordinates": [-118.272349, 34.155505], "type": "Point"}, "id": "2r2TO4xWlmhH6w2Sb9bVvEyCYaQ=", "properties": {"@spider": "usps_collection_boxes", "addr:city": "GLENDALE", "addr:country": "US", "addr:full": "750 FAIRMONT AVE", "addr:postcode": "91203", "addr:state": "CA", "amenity": "post_box", "brand": "United States Postal Service", "brand:wikidata": "Q668687", "collection_times": "Mo-Sa 13:00", "name": "USPS COLLECTION BOX - BLUE BOX", "note": "ON 12/24 AND 12/31, THIS BOX MAY BE COLLECTED AS EARLY AS 12 NOON.", "nsi_id": "unitedstatespostalservice-a77078", "operator": "United States Postal Service", "operator:short": "USPS", "operator:type": "public", "operator:wikidata": "Q668687", "ref": "9120300065"}, "type": "Feature"}
{"dataset_attributes": {"@spider": "usps_collection_boxes", "spider:collection_time": "2023-12-10T08:24:07.887270"}, "geometry": {"coordinates": [-118.255258, 34.154259], "type": "Point"}, "id": "C5AuEl1K3cQGWTG-MGUzU7GFPD0=", "properties": {"@spider": "usps_collection_boxes", "addr:city": "GLENDALE", "addr:country": "US", "addr:full": "550 N BRAND BLVD", "addr:postcode": "91203", "addr:state": "CA", "amenity": "post_box", "brand": "United States Postal Service", "brand:wikidata": "Q668687", "collection_times": "Mo-Sa 13:00", "name": "USPS COLLECTION BOX - BLUE BOX", "note": "ON 12/24 AND 12/31, THIS BOX MAY BE COLLECTED AS EARLY AS 12 NOON.", "nsi_id": "unitedstatespostalservice-a77078", "operator": "United States Postal Service", "operator:short": "USPS", "operator:type": "public", "operator:wikidata": "Q668687", "ref": "9120300066"}, "type": "Feature"}
{"dataset_attributes": {"@spider": "usps_collection_boxes", "spider:collection_time": "2023-12-10T08:24:07.887270"}, "geometry": {"coordinates": [-118.2543, 34.157197], "type": "Point"}, "id": "X2x3Iv7kytlbBz_kfCYteoXq-GY=", "properties": {"@spider": "usps_collection_boxes", "addr:city": "GLENDALE", "addr:country": "US", "addr:full": "700 N BRAND BLVD", "addr:postcode": "91203", "addr:state": "CA", "amenity": "post_box", "brand": "United States Postal Service", "brand:wikidata": "Q668687", "collection_times": "Mo-Sa 13:00", "name": "USPS COLLECTION BOX - BLUE BOX", "note": "ON 12/24 AND 12/31, THIS BOX MAY BE COLLECTED AS EARLY AS 12 NOON.", "nsi_id": "unitedstatespostalservice-a77078", "operator": "United States Postal Service", "operator:short": "USPS", "operator:type": "public", "operator:wikidata": "Q668687", "ref": "9120300075"}, "type": "Feature"}
{"dataset_attributes": {"@spider": "usps_collection_boxes", "spider:collection_time": "2023-12-10T08:24:07.887270"}, "geometry": {"coordinates": [-118.255482, 34.146239], "type": "Point"}, "id": "RrJVC6yRMinYCbgnANPvyRiysEg=", "properties": {"@spider": "usps_collection_boxes", "addr:city": "GLENDALE", "addr:country": "US", "addr:full": "100 W BROADWAY", "addr:postcode": "91203", "addr:state": "CA", "amenity": "post_box", "brand": "United States Postal Service", "brand:wikidata": "Q668687", "collection_times": "Mo-Sa 13:00", "name": "USPS COLLECTION BOX - BLUE BOX", "note": "ON 12/24 AND 12/31, THIS BOX MAY BE COLLECTED AS EARLY AS 12 NOON.", "nsi_id": "unitedstatespostalservice-a77078", "operator": "United States Postal Service", "operator:short": "USPS", "operator:type": "public", "operator:wikidata": "Q668687", "ref": "9120300076"}, "type": "Feature"}
{"dataset_attributes": {"@spider": "usps_collection_boxes", "spider:collection_time": "2023-12-10T08:24:07.887270"}, "geometry": {"coordinates": [-118.255482, 34.146239], "type": "Point"}, "id": "IP41zi8P7jCgbxTk9dTvzW1lEvs=", "properties": {"@spider": "usps_collection_boxes", "addr:city": "GLENDALE", "addr:country": "US", "addr:full": "100 W BROADWAY", "addr:postcode": "91203", "addr:state": "CA", "amenity": "post_box", "brand": "United States Postal Service", "brand:wikidata": "Q668687", "collection_times": "Mo-Sa 13:00", "name": "USPS COLLECTION BOX - BLUE BOX", "note": "ON 12/24 AND 12/31, THIS BOX MAY BE COLLECTED AS EARLY AS 12 NOON.", "nsi_id": "unitedstatespostalservice-a77078", "operator": "United States Postal Service", "operator:short": "USPS", "operator:type": "public", "operator:wikidata": "Q668687", "ref": "9120300078"}, "type": "Feature"}
{"dataset_attributes": {"@spider": "usps_collection_boxes", "spider:collection_time": "2023-12-10T08:24:07.887270"}, "geometry": {"coordinates": [-118.258049, 34.155574], "type": "Point"}, "id": "3qxLCzN0Ro60TSicATfVtOPnsow=", "properties": {"@spider": "usps_collection_boxes", "addr:city": "GLENDALE", "addr:country": "US", "addr:full": "655 N CENTRAL AVE", "addr:postcode": "91203", "addr:state": "CA", "amenity": "post_box", "brand": "United States Postal Service", "brand:wikidata": "Q668687", "collection_times": "Mo-Sa 13:00", "name": "USPS COLLECTION BOX - BLUE BOX", "note": "ON 12/24 AND 12/31, THIS BOX MAY BE COLLECTED AS EARLY AS 12 NOON.", "nsi_id": "unitedstatespostalservice-a77078", "operator": "United States Postal Service", "operator:short": "USPS", "operator:type": "public", "operator:wikidata": "Q668687", "ref": "9120300081"}, "type": "Feature"}
{"dataset_attributes": {"@spider": "usps_collection_boxes", "spider:collection_time": "2023-12-10T08:24:07.887270"}, "geometry": {"coordinates": [-118.254948, 34.151422], "type": "Point"}, "id": "PdlM6BpbTdtficdDcUNhjngixrg=", "properties": {"@spider": "usps_collection_boxes", "addr:city": "GLENDALE", "addr:country": "US", "addr:full": "330 N BRAND BLVD", "addr:postcode": "91203", "addr:state": "CA", "amenity": "post_box", "brand": "United States Postal Service", "brand:wikidata": "Q668687", "collection_times": "Mo-Fr 13:00", "name": "USPS COLLECTION BOX - BLUE BOX", "note": "ON 12/24 AND 12/31, THIS BOX MAY BE COLLECTED AS EARLY AS 12 NOON.", "nsi_id": "unitedstatespostalservice-a77078", "operator": "United States Postal Service", "operator:short": "USPS", "operator:type": "public", "operator:wikidata": "Q668687", "ref": "9120300084"}, "type": "Feature"}
{"dataset_attributes": {"@spider": "usps_collection_boxes", "spider:collection_time": "2023-12-10T08:24:07.887270"}, "geometry": {"coordinates": [-118.2549582915, 34.1558310408], "type": "Point"}, "id": "DfLW1qYcwIfApGqXAigNuVetRBs=", "properties": {"@spider": "usps_collection_boxes", "addr:city": "GLENDALE", "addr:country": "US", "addr:full": "620 N BRAND BLVD", "addr:postcode": "91203", "addr:state": "CA", "amenity": "post_box", "brand": "United States Postal Service", "brand:wikidata": "Q668687", "collection_times": "Mo-Sa 13:00", "name": "USPS COLLECTION BOX - BLUE BOX", "note": "ON 12/24 AND 12/31, THIS BOX MAY BE COLLECTED AS EARLY AS 12 NOON.", "nsi_id": "unitedstatespostalservice-a77078", "operator": "United States Postal Service", "operator:short": "USPS", "operator:type": "public", "operator:wikidata": "Q668687", "ref": "9120300092"}, "type": "Feature"}
{"dataset_attributes": {"@spider": "usps_collection_boxes", "spider:collection_time": "2023-12-10T08:24:07.887270"}, "geometry": {"coordinates": [-118.258034, 34.155578], "type": "Point"}, "id": "6o9WDx3BoYT6ZdkrCkmDtFoWuOI=", "properties": {"@spider": "usps_collection_boxes", "addr:city": "GLENDALE", "addr:country": "US", "addr:full": "655 N CENTRAL AVE", "addr:postcode": "91203", "addr:state": "CA", "amenity": "post_box", "brand": "United States Postal Service", "brand:wikidata": "Q668687", "collection_times": "Mo-Fr 13:00", "name": "USPS COLLECTION BOX - BLUE BOX", "note": "ON 12/24 AND 12/31, THIS BOX MAY BE COLLECTED AS EARLY AS 12 NOON.", "nsi_id": "unitedstatespostalservice-a77078", "operator": "United States Postal Service", "operator:short": "USPS", "operator:type": "public", "operator:wikidata": "Q668687", "ref": "9120300102"}, "type": "Feature"}
{"dataset_attributes": {"@spider": "usps_collection_boxes", "spider:collection_time": "2023-12-10T08:24:07.887270"}, "geometry": {"coordinates": [-118.254421, 34.154848], "type": "Point"}, "id": "OlyLtwyMT0EQvsNHTQp2-_ppo2Y=", "properties": {"@spider": "usps_collection_boxes", "addr:city": "GLENDALE", "addr:country": "US", "addr:full": "550 N BRAND BLVD", "addr:postcode": "91203", "addr:state": "CA", "amenity": "post_box", "brand": "United States Postal Service", "brand:wikidata": "Q668687", "collection_times": "Mo-Sa 13:00", "name": "USPS COLLECTION BOX - BLUE BOX", "note": "ON 12/24 AND 12/31, THIS BOX MAY BE COLLECTED AS EARLY AS 12 NOON.", "nsi_id": "unitedstatespostalservice-a77078", "operator": "United States Postal Service", "operator:short": "USPS", "operator:type": "public", "operator:wikidata": "Q668687", "ref": "9120300103"}, "type": "Feature"}
{"dataset_attributes": {"@spider": "usps_collection_boxes", "spider:collection_time": "2023-12-10T08:24:07.887270"}, "geometry": {"coordinates": [-118.255083, 34.154517], "type": "Point"}, "id": "H6-_kJBuvKnk2IQqPh-IEA5qpV8=", "properties": {"@spider": "usps_collection_boxes", "addr:city": "GLENDALE", "addr:country": "US", "addr:full": "535 N BRAND BLVD", "addr:postcode": "91203", "addr:state": "CA", "amenity": "post_box", "brand": "United States Postal Service", "brand:wikidata": "Q668687", "collection_times": "Mo-Sa 13:00", "name": "USPS COLLECTION BOX - BLUE BOX", "note": "ON 12/24 AND 12/31, THIS BOX MAY BE COLLECTED AS EARLY AS 12 NOON.", "nsi_id": "unitedstatespostalservice-a77078", "operator": "United States Postal Service", "operator:short": "USPS", "operator:type": "public", "operator:wikidata": "Q668687", "ref": "9120300104"}, "type": "Feature"}
{"dataset_attributes": {"@spider": "usps_collection_boxes", "spider:collection_time": "2023-12-10T08:24:07.887270"}, "geometry": {"coordinates": [-118.255482, 34.146239], "type": "Point"}, "id": "ZJAYBB7cvSHEXvrgQbcP63L0iJs=", "properties": {"@spider": "usps_collection_boxes", "addr:city": "GLENDALE", "addr:country": "US", "addr:full": "100 W BROADWAY", "addr:postcode": "91203", "addr:state": "CA", "amenity": "post_box", "brand": "United States Postal Service", "brand:wikidata": "Q668687", "collection_times": "Mo-Sa 13:00", "name": "USPS COLLECTION BOX - BLUE BOX", "note": "ON 12/24 AND 12/31, THIS BOX MAY BE COLLECTED AS EARLY AS 12 NOON.", "nsi_id": "unitedstatespostalservice-a77078", "operator": "United States Postal Service", "operator:short": "USPS", "operator:type": "public", "operator:wikidata": "Q668687", "ref": "9120300111"}, "type": "Feature"}
{"dataset_attributes": {"@spider": "usps_collection_boxes", "spider:collection_time": "2023-12-10T08:24:07.887270"}, "geometry": {"coordinates": [-118.257186, 34.157421], "type": "Point"}, "id": "kJauxyijgZONyyd-0PuDcFSUiiY=", "properties": {"@spider": "usps_collection_boxes", "addr:city": "GLENDALE", "addr:country": "US", "addr:full": "700 N CENTRAL AVE", "addr:postcode": "91203", "addr:state": "CA", "amenity": "post_box", "brand": "United States Postal Service", "brand:wikidata": "Q668687", "collection_times": "Mo-Fr 10:00; Sa 13:00", "name": "USPS COLLECTION BOX - BLUE BOX", "note": "ON 12/24 AND 12/31, THIS BOX MAY BE COLLECTED AS EARLY AS 12 NOON.", "nsi_id": "unitedstatespostalservice-a77078", "operator": "United States Postal Service", "operator:short": "USPS", "operator:type": "public", "operator:wikidata": "Q668687", "ref": "9120300113"}, "type": "Feature"}
{"dataset_attributes": {"@spider": "usps_collection_boxes", "spider:collection_time": "2023-12-10T08:24:07.887270"}, "geometry": {"coordinates": [-118.257227, 34.157424], "type": "Point"}, "id": "_ZalD43Xzlrk1Grq0fjymCjYWlA=", "properties": {"@spider": "usps_collection_boxes", "addr:city": "GLENDALE", "addr:country": "US", "addr:full": "700 N CENTRAL AVE", "addr:postcode": "91203", "addr:state": "CA", "amenity": "post_box", "brand": "United States Postal Service", "brand:wikidata": "Q668687", "collection_times": "Mo-Sa 10:00", "name": "USPS COLLECTION BOX - BLUE BOX", "nsi_id": "unitedstatespostalservice-a77078", "operator": "United States Postal Service", "operator:short": "USPS", "operator:type": "public", "operator:wikidata": "Q668687", "ref": "9120300114"}, "type": "Feature"}
{"dataset_attributes": {"@spider": "usps_collection_boxes", "spider:collection_time": "2023-12-10T08:24:07.887270"}, "geometry": {"coordinates": [-118.255288, 34.151783], "type": "Point"}, "id": "dajkMn7IsuJzy2sg1ZdZgqhjmaw=", "properties": {"@spider": "usps_collection_boxes", "addr:city": "GLENDALE", "addr:country": "US", "addr:full": "401 N BRAND BLVD", "addr:postcode": "91203", "addr:state": "CA", "amenity": "post_box", "brand": "United States Postal Service", "brand:wikidata": "Q668687", "collection_times": "Mo-Sa 13:00", "name": "USPS COLLECTION BOX - BLUE BOX", "note": "ON 12/24 AND 12/31, THIS BOX MAY BE COLLECTED AS EARLY AS 12 NOON.", "nsi_id": "unitedstatespostalservice-a77078", "operator": "United States Postal Service", "operator:short": "USPS", "operator:type": "public", "operator:wikidata": "Q668687", "ref": "9120300116"}, "type": "Feature"}
{"dataset_attributes": {"@spider": "usps_collection_boxes", "spider:collection_time": "2023-12-10T08:24:07.887270"}, "geometry": {"coordinates": [-118.259641, 34.145044], "type": "Point"}, "id": "6NW6Hfjg1o8ooBWWAuJu8tk1D4c=", "properties": {"@spider": "usps_collection_boxes", "addr:city": "GLENDALE", "addr:country": "US", "addr:full": "100 N CENTRAL AVE", "addr:postcode": "91203", "addr:state": "CA", "amenity": "post_box", "brand": "United States Postal Service", "brand:wikidata": "Q668687", "collection_times": "Mo-Sa 13:00", "name": "USPS COLLECTION BOX - BLUE BOX", "note": "ON 12/24 AND 12/31, THIS BOX MAY BE COLLECTED AS EARLY AS 12 NOON.", "nsi_id": "unitedstatespostalservice-a77078", "operator": "United States Postal Service", "operator:short": "USPS", "operator:type": "public", "operator:wikidata": "Q668687", "ref": "9120300118"}, "type": "Feature"}
{"dataset_attributes": {"@spider": "usps_collection_boxes", "spider:collection_time": "2023-12-10T08:24:07.887270"}, "geometry": {"coordinates": [-118.254198, 34.15332], "type": "Point"}, "id": "_QV2YwGQzfKLCZQVYNIGO1eOsH0=", "properties": {"@spider": "usps_collection_boxes", "addr:city": "GLENDALE", "addr:country": "US", "addr:full": "500 N BRAND BLVD", "addr:postcode": "91203", "addr:state": "CA", "amenity": "post_box", "brand": "United States Postal Service", "brand:wikidata": "Q668687", "collection_times": "Mo-Sa 13:00", "name": "USPS COLLECTION BOX - BLUE BOX", "note": "ON 12/24 AND 12/31, THIS BOX MAY BE COLLECTED AS EARLY AS 12 NOON.", "nsi_id": "unitedstatespostalservice-a77078", "operator": "United States Postal Service", "operator:short": "USPS", "operator:type": "public", "operator:wikidata": "Q668687", "ref": "9120300120"}, "type": "Feature"}
{"dataset_attributes": {"@spider": "usps_collection_boxes", "spider:collection_time": "2023-12-10T08:24:07.887270"}, "geometry": {"coordinates": [-118.255795, 34.153547], "type": "Point"}, "id": "cZYRABCrQJOy7DNcEfZqAU4zMkk=", "properties": {"@spider": "usps_collection_boxes", "addr:city": "GLENDALE", "addr:country": "US", "addr:full": "505 N BRAND BLVD", "addr:postcode": "91203", "addr:state": "CA", "amenity": "post_box", "brand": "United States Postal Service", "brand:wikidata": "Q668687", "collection_times": "Mo-Sa 13:00", "name": "USPS COLLECTION BOX - BLUE BOX", "note": "ON 12/24 AND 12/31, THIS BOX MAY BE COLLECTED AS EARLY AS 12 NOON.", "nsi_id": "unitedstatespostalservice-a77078", "operator": "United States Postal Service", "operator:short": "USPS", "operator:type": "public", "operator:wikidata": "Q668687", "ref": "9120300121"}, "type": "Feature"}
{"dataset_attributes": {"@spider": "usps_collection_boxes", "spider:collection_time": "2023-12-10T08:24:07.887270"}, "geometry": {"coordinates": [-118.255767, 34.15354], "type": "Point"}, "id": "zdIJ546I8DVhEZtUqlfRZlMRm6A=", "properties": {"@spider": "usps_collection_boxes", "addr:city": "GLENDALE", "addr:country": "US", "addr:full": "505 N BRAND BLVD", "addr:postcode": "91203", "addr:state": "CA", "amenity": "post_box", "brand": "United States Postal Service", "brand:wikidata": "Q668687", "collection_times": "Mo-Sa 13:00", "name": "USPS COLLECTION BOX - BLUE BOX", "note": "ON 12/24 AND 12/31, THIS BOX MAY BE COLLECTED AS EARLY AS 12 NOON.", "nsi_id": "unitedstatespostalservice-a77078", "operator": "United States Postal Service", "operator:short": "USPS", "operator:type": "public", "operator:wikidata": "Q668687", "ref": "9120300122"}, "type": "Feature"}
{"dataset_attributes": {"@spider": "usps_collection_boxes", "spider:collection_time": "2023-12-10T08:24:07.887270"}, "geometry": {"coordinates": [-118.25502, 34.14788], "type": "Point"}, "id": "VfXDIswourTXuxvzjHHasyB_QiY=", "properties": {"@spider": "usps_collection_boxes", "addr:city": "GLENDALE", "addr:country": "US", "addr:full": "142 N BRAND BLVD", "addr:postcode": "91203", "addr:state": "CA", "amenity": "post_box", "brand": "United States Postal Service", "brand:wikidata": "Q668687", "collection_times": "Mo-Sa 13:00", "name": "USPS COLLECTION BOX - BLUE BOX", "note": "ON 12/24 AND 12/31, THIS BOX MAY BE COLLECTED AS EARLY AS 12 NOON.", "nsi_id": "unitedstatespostalservice-a77078", "operator": "United States Postal Service", "operator:short": "USPS", "operator:type": "public", "operator:wikidata": "Q668687", "ref": "9120300123"}, "type": "Feature"}
{"dataset_attributes": {"@spider": "usps_collection_boxes", "spider:collection_time": "2023-12-10T08:24:07.887270"}, "geometry": {"coordinates": [-118.263904, 34.142434], "type": "Point"}, "id": "0LgiK9Gh20lwojUIMTii45IRzbk=", "properties": {"@spider": "usps_collection_boxes", "addr:city": "GLENDALE", "addr:country": "US", "addr:full": "500 W COLORADO ST", "addr:postcode": "91204", "addr:state": "CA", "amenity": "post_box", "brand": "United States Postal Service", "brand:wikidata": "Q668687", "collection_times": "Mo-Fr 10:00; Sa 13:00", "name": "USPS COLLECTION BOX - BLUE BOX", "note": "ON 12/24 AND 12/31, THIS BOX MAY BE COLLECTED AS EARLY AS 12 NOON.", "nsi_id": "unitedstatespostalservice-a77078", "operator": "United States Postal Service", "operator:short": "USPS", "operator:type": "public", "operator:wikidata": "Q668687", "ref": "9120400000"}, "type": "Feature"}
{"dataset_attributes": {"@spider": "usps_collection_boxes", "spider:collection_time": "2023-12-10T08:24:07.887270"}, "geometry": {"coordinates": [-118.255093, 34.133651], "type": "Point"}, "id": "-Ld8QqbZ5SJZtUrgydRXRLTUdPc=", "properties": {"@spider": "usps_collection_boxes", "addr:city": "GLENDALE", "addr:country": "US", "addr:full": "1023 S BRAND BLVD", "addr:postcode": "91204", "addr:state": "CA", "amenity": "post_box", "brand": "United States Postal Service", "brand:wikidata": "Q668687", "collection_times": "Mo-Fr 10:00; Sa 13:00", "name": "USPS COLLECTION BOX - BLUE BOX", "note": "ON 12/24 AND 12/31, THIS BOX MAY BE COLLECTED AS EARLY AS 12 NOON.", "nsi_id": "unitedstatespostalservice-a77078", "operator": "United States Postal Service", "operator:short": "USPS", "operator:type": "public", "operator:wikidata": "Q668687", "ref": "9120400002"}, "type": "Feature"}
{"dataset_attributes": {"@spider": "usps_collection_boxes", "spider:collection_time": "2023-12-10T08:24:07.887270"}, "geometry": {"coordinates": [-118.254787, 34.135749], "type": "Point"}, "id": "hM9VKxRYgGuv8viA7TDIAsL867Y=", "properties": {"@spider": "usps_collection_boxes", "addr:city": "GLENDALE", "addr:country": "US", "addr:full": "900 S BRAND BLVD", "addr:postcode": "91204", "addr:state": "CA", "amenity": "post_box", "brand": "United States Postal Service", "brand:wikidata": "Q668687", "collection_times": "Mo-Fr 10:00; Sa 13:00", "name": "USPS COLLECTION BOX - BLUE BOX", "note": "ON 12/24 AND 12/31, THIS BOX MAY BE COLLECTED AS EARLY AS 12 NOON.", "nsi_id": "unitedstatespostalservice-a77078", "operator": "United States Postal Service", "operator:short": "USPS", "operator:type": "public", "operator:wikidata": "Q668687", "ref": "9120400003"}, "type": "Feature"}
{"dataset_attributes": {"@spider": "usps_collection_boxes", "spider:collection_time": "2023-12-10T08:24:07.887270"}, "geometry": {"coordinates": [-118.2578631935, 34.1329857485], "type": "Point"}, "id": "ynpZ3NSzYiE9tP5cjR49LUn4-qU=", "properties": {"@spider": "usps_collection_boxes", "addr:city": "GLENDALE", "addr:country": "US", "addr:full": "1101 S CENTRAL AVE", "addr:postcode": "91204", "addr:state": "CA", "amenity": "post_box", "brand": "United States Postal Service", "brand:wikidata": "Q668687", "collection_times": "Mo-Sa 10:00", "name": "USPS COLLECTION BOX - BLUE BOX", "nsi_id": "unitedstatespostalservice-a77078", "operator": "United States Postal Service", "operator:short": "USPS", "operator:type": "public", "operator:wikidata": "Q668687", "ref": "9120400010"}, "type": "Feature"}
{"dataset_attributes": {"@spider": "usps_collection_boxes", "spider:collection_time": "2023-12-10T08:24:07.887270"}, "geometry": {"coordinates": [-118.255148, 34.138495], "type": "Point"}, "id": "gmMBFXaRoAcprLTk-50y-FqiEJs=", "properties": {"@spider": "usps_collection_boxes", "addr:city": "GLENDALE", "addr:country": "US", "addr:full": "625 S BRAND BLVD", "addr:postcode": "91204", "addr:state": "CA", "amenity": "post_box", "brand": "United States Postal Service", "brand:wikidata": "Q668687", "collection_times": "Mo-Fr 10:00; Sa 13:00", "name": "USPS COLLECTION BOX - BLUE BOX", "note": "ON 12/24 AND 12/31, THIS BOX MAY BE COLLECTED AS EARLY AS 12 NOON.", "nsi_id": "unitedstatespostalservice-a77078", "operator": "United States Postal Service", "operator:short": "USPS", "operator:type": "public", "operator:wikidata": "Q668687", "ref": "9120400011"}, "type": "Feature"}
{"dataset_attributes": {"@spider": "usps_collection_boxes", "spider:collection_time": "2023-12-10T08:24:07.887270"}, "geometry": {"coordinates": [-118.259599, 34.128597], "type": "Point"}, "id": "3GJRx-l0DK_Q86wVyje_Nm2PsCU=", "properties": {"@spider": "usps_collection_boxes", "addr:city": "GLENDALE", "addr:country": "US", "addr:full": "4001 SAN FERNANDO RD", "addr:postcode": "91204", "addr:state": "CA", "amenity": "post_box", "brand": "United States Postal Service", "brand:wikidata": "Q668687", "collection_times": "Mo-Sa 10:00", "name": "USPS COLLECTION BOX - BLUE BOX", "nsi_id": "unitedstatespostalservice-a77078", "operator": "United States Postal Service", "operator:short": "USPS", "operator:type": "public", "operator:wikidata": "Q668687", "ref": "9120400013"}, "type": "Feature"}
{"dataset_attributes": {"@spider": "usps_collection_boxes", "spider:collection_time": "2023-12-10T08:24:07.887270"}, "geometry": {"coordinates": [-118.257718, 34.132378], "type": "Point"}, "id": "Fv7HGgp34Ea2fz_8w3SO_MYMaxc=", "properties": {"@spider": "usps_collection_boxes", "addr:city": "GLENDALE", "addr:country": "US", "addr:full": "1130 S CENTRAL AVE", "addr:postcode": "91204", "addr:state": "CA", "amenity": "post_box", "brand": "United States Postal Service", "brand:wikidata": "Q668687", "collection_times": "Mo-Fr 10:00; Sa 13:00", "name": "USPS COLLECTION BOX - BLUE BOX", "note": "ON 12/24 AND 12/31, THIS BOX MAY BE COLLECTED AS EARLY AS 12 NOON.", "nsi_id": "unitedstatespostalservice-a77078", "operator": "United States Postal Service", "operator:short": "USPS", "operator:type": "public", "operator:wikidata": "Q668687", "ref": "9120400015"}, "type": "Feature"}
{"dataset_attributes": {"@spider": "usps_collection_boxes", "spider:collection_time": "2023-12-10T08:24:07.887270"}, "geometry": {"coordinates": [-118.257752048, 34.128593311], "type": "Point"}, "id": "NobCJBmsB6Q6SSbA3AVHQYIfuys=", "properties": {"@spider": "usps_collection_boxes", "addr:city": "GLENDALE", "addr:country": "US", "addr:full": "1400 S CENTRAL AVE", "addr:postcode": "91204", "addr:state": "CA", "amenity": "post_box", "brand": "United States Postal Service", "brand:wikidata": "Q668687", "collection_times": "Mo-Sa 11:00", "name": "USPS COLLECTION BOX - BLUE BOX", "nsi_id": "unitedstatespostalservice-a77078", "operator": "United States Postal Service", "operator:short": "USPS", "operator:type": "public", "operator:wikidata": "Q668687", "ref": "9120400017"}, "type": "Feature"}
{"dataset_attributes": {"@spider": "usps_collection_boxes", "spider:collection_time": "2023-12-10T08:24:07.887270"}, "geometry": {"coordinates": [-118.258215, 34.124293], "type": "Point"}, "id": "LatjWOuDNSNGwf_z0N791rmpGKk=", "properties": {"@spider": "usps_collection_boxes", "addr:city": "GLENDALE", "addr:country": "US", "addr:full": "345 W CERRITOS AVE", "addr:postcode": "91204", "addr:state": "CA", "amenity": "post_box", "brand": "United States Postal Service", "brand:wikidata": "Q668687", "collection_times": "Mo-Sa 11:00", "name": "USPS COLLECTION BOX - BLUE BOX", "nsi_id": "unitedstatespostalservice-a77078", "operator": "United States Postal Service", "operator:short": "USPS", "operator:type": "public", "operator:wikidata": "Q668687", "ref": "9120400019"}, "type": "Feature"}
{"dataset_attributes": {"@spider": "usps_collection_boxes", "spider:collection_time": "2023-12-10T08:24:07.887270"}, "geometry": {"coordinates": [-118.257815, 34.137342], "type": "Point"}, "id": "mZ8cWjdVQuj3HWljQ4VamnNiLeQ=", "properties": {"@spider": "usps_collection_boxes", "addr:city": "GLENDALE", "addr:country": "US", "addr:full": "710 S CENTRAL AVE", "addr:postcode": "91204", "addr:state": "CA", "amenity": "post_box", "brand": "United States Postal Service", "brand:wikidata": "Q668687", "collection_times": "Mo-Sa 10:00", "name": "USPS COLLECTION BOX - BLUE BOX", "nsi_id": "unitedstatespostalservice-a77078", "operator": "United States Postal Service", "operator:short": "USPS", "operator:type": "public", "operator:wikidata": "Q668687", "ref": "9120400024"}, "type": "Feature"}
{"dataset_attributes": {"@spider": "usps_collection_boxes", "spider:collection_time": "2023-12-10T08:24:07.887270"}, "geometry": {"coordinates": [-118.257752048, 34.128593311], "type": "Point"}, "id": "MgaEhFir2lOPJnbmsxwczWk-QBU=", "properties": {"@spider": "usps_collection_boxes", "addr:city": "GLENDALE", "addr:country": "US", "addr:full": "1400 S CENTRAL AVE", "addr:postcode": "91204", "addr:state": "CA", "amenity": "post_box", "brand": "United States Postal Service", "brand:wikidata": "Q668687", "collection_times": "Mo-Sa 11:00", "name": "USPS COLLECTION BOX - BLUE BOX", "nsi_id": "unitedstatespostalservice-a77078", "operator": "United States Postal Service", "operator:short": "USPS", "operator:type": "public", "operator:wikidata": "Q668687", "ref": "9120400029"}, "type": "Feature"}
{"dataset_attributes": {"@spider": "usps_collection_boxes", "spider:collection_time": "2023-12-10T08:24:07.887270"}, "geometry": {"coordinates": [-118.271411, 34.146686], "type": "Point"}, "id": "4f-BlK_Jo5y9eXMiSRT8CAxmhnY=", "properties": {"@spider": "usps_collection_boxes", "addr:city": "GLENDALE", "addr:country": "US", "addr:full": "700 W BROADWAY", "addr:postcode": "91204", "addr:state": "CA", "amenity": "post_box", "brand": "United States Postal Service", "brand:wikidata": "Q668687", "collection_times": "Mo-Fr 10:00; Sa 13:00", "name": "USPS COLLECTION BOX - BLUE BOX", "note": "ON 12/24 AND 12/31, THIS BOX MAY BE COLLECTED AS EARLY AS 12 NOON.", "nsi_id": "unitedstatespostalservice-a77078", "operator": "United States Postal Service", "operator:short": "USPS", "operator:type": "public", "operator:wikidata": "Q668687", "ref": "9120400032"}, "type": "Feature"}
{"dataset_attributes": {"@spider": "usps_collection_boxes", "spider:collection_time": "2023-12-10T08:24:07.887270"}, "geometry": {"coordinates": [-118.2579191775, 34.1409291318], "type": "Point"}, "id": "jS7EgY_KKAtH-vyKnLkOcTWJum8=", "properties": {"@spider": "usps_collection_boxes", "addr:city": "GLENDALE", "addr:country": "US", "addr:full": "421 S CENTRAL AVE", "addr:postcode": "91204", "addr:state": "CA", "amenity": "post_box", "brand": "United States Postal Service", "brand:wikidata": "Q668687", "collection_times": "Mo-Fr 10:00; Sa 13:00", "name": "USPS COLLECTION BOX - BLUE BOX", "note": "ON 12/24 AND 12/31, THIS BOX MAY BE COLLECTED AS EARLY AS 12 NOON.", "nsi_id": "unitedstatespostalservice-a77078", "operator": "United States Postal Service", "operator:short": "USPS", "operator:type": "public", "operator:wikidata": "Q668687", "ref": "9120400034"}, "type": "Feature"}
{"dataset_attributes": {"@spider": "usps_collection_boxes", "spider:collection_time": "2023-12-10T08:24:07.887270"}, "geometry": {"coordinates": [-118.258061, 34.130769], "type": "Point"}, "id": "iqZImyiGg5btf-iT4UppB1bHbLU=", "properties": {"@spider": "usps_collection_boxes", "addr:city": "GLENDALE", "addr:country": "US", "addr:full": "300 MAGNOLIA AVE", "addr:postcode": "91204", "addr:state": "CA", "amenity": "post_box", "brand": "United States Postal Service", "brand:wikidata": "Q668687", "collection_times": "Mo-Sa 10:00", "name": "USPS COLLECTION BOX - BLUE BOX", "nsi_id": "unitedstatespostalservice-a77078", "operator": "United States Postal Service", "operator:short": "USPS", "operator:type": "public", "operator:wikidata": "Q668687", "ref": "9120400036"}, "type": "Feature"}
{"dataset_attributes": {"@spider": "usps_collection_boxes", "spider:collection_time": "2023-12-10T08:24:07.887270"}, "geometry": {"coordinates": [-118.2580259472, 34.126800026], "type": "Point"}, "id": "dMc2jYXFL7l3xQWG6EiSmHUWTuM=", "properties": {"@spider": "usps_collection_boxes", "addr:city": "GLENDALE", "addr:country": "US", "addr:full": "3901 SAN FERNANDO RD", "addr:postcode": "91204", "addr:state": "CA", "amenity": "post_box", "brand": "United States Postal Service", "brand:wikidata": "Q668687", "collection_times": "Mo-Sa 10:00", "name": "USPS COLLECTION BOX - BLUE BOX", "nsi_id": "unitedstatespostalservice-a77078", "operator": "United States Postal Service", "operator:short": "USPS", "operator:type": "public", "operator:wikidata": "Q668687", "ref": "9120400038"}, "type": "Feature"}
{"dataset_attributes": {"@spider": "usps_collection_boxes", "spider:collection_time": "2023-12-10T08:24:07.887270"}, "geometry": {"coordinates": [-118.258079, 34.138682], "type": "Point"}, "id": "SuEnVfT8HUC6QeDfD7Rvs4tRDcw=", "properties": {"@spider": "usps_collection_boxes", "addr:city": "GLENDALE", "addr:country": "US", "addr:full": "601 S CENTRAL AVE", "addr:postcode": "91204", "addr:state": "CA", "amenity": "post_box", "brand": "United States Postal Service", "brand:wikidata": "Q668687", "collection_times": "Mo-Sa 13:00", "name": "USPS COLLECTION BOX - BLUE BOX", "note": "ON 12/24 AND 12/31, THIS BOX MAY BE COLLECTED AS EARLY AS 12 NOON.", "nsi_id": "unitedstatespostalservice-a77078", "operator": "United States Postal Service", "operator:short": "USPS", "operator:type": "public", "operator:wikidata": "Q668687", "ref": "9120400039"}, "type": "Feature"}
{"dataset_attributes": {"@spider": "usps_collection_boxes", "spider:collection_time": "2023-12-10T08:24:07.887270"}, "geometry": {"coordinates": [-118.253862, 34.13348951], "type": "Point"}, "id": "T5zX-yKEkOkHndyxkI4Y9lNqlM8=", "properties": {"@spider": "usps_collection_boxes", "addr:city": "GLENDALE", "addr:country": "US", "addr:full": "120 E CHEVY CHASE DR", "addr:postcode": "91205", "addr:state": "CA", "amenity": "post_box", "brand": "United States Postal Service", "brand:wikidata": "Q668687", "collection_times": "Mo-Fr 17:00; Sa 15:00", "name": "USPS COLLECTION BOX - PO LOBBY", "note": "ON 12/24 AND 12/31, THIS BOX MAY BE COLLECTED AS EARLY AS 12 NOON.", "nsi_id": "unitedstatespostalservice-a77078", "operator": "United States Postal Service", "operator:short": "USPS", "operator:type": "public", "operator:wikidata": "Q668687", "ref": "9120500000"}, "type": "Feature"}
{"dataset_attributes": {"@spider": "usps_collection_boxes", "spider:collection_time": "2023-12-10T08:24:07.887270"}, "geometry": {"coordinates": [-118.253862, 34.13348951], "type": "Point"}, "id": "QLAHyR04-lKCSRogw5CpI8aln30=", "properties": {"@spider": "usps_collection_boxes", "addr:city": "GLENDALE", "addr:country": "US", "addr:full": "120 E CHEVY CHASE DR", "addr:postcode": "91205", "addr:state": "CA", "amenity": "post_box", "brand": "United States Postal Service", "brand:wikidata": "Q668687", "collection_times": "Mo-Fr 17:00; Sa 15:00", "name": "USPS COLLECTION BOX - BLUE BOX", "note": "ON 12/24 AND 12/31, THIS BOX MAY BE COLLECTED AS EARLY AS 12 NOON.", "nsi_id": "unitedstatespostalservice-a77078", "operator": "United States Postal Service", "operator:short": "USPS", "operator:type": "public", "operator:wikidata": "Q668687", "ref": "9120500001"}, "type": "Feature"}
{"dataset_attributes": {"@spider": "usps_collection_boxes", "spider:collection_time": "2023-12-10T08:24:07.887270"}, "geometry": {"coordinates": [-118.252223, 34.131214], "type": "Point"}, "id": "KMMk4IhuGRGyv8eGP2VHy-JVDWU=", "properties": {"@spider": "usps_collection_boxes", "addr:city": "GLENDALE", "addr:country": "US", "addr:full": "1240 S GLENDALE AVE", "addr:postcode": "91205", "addr:state": "CA", "amenity": "post_box", "brand": "United States Postal Service", "brand:wikidata": "Q668687", "collection_times": "Mo-Sa 10:00", "name": "USPS COLLECTION BOX - BLUE BOX", "nsi_id": "unitedstatespostalservice-a77078", "operator": "United States Postal Service", "operator:short": "USPS", "operator:type": "public", "operator:wikidata": "Q668687", "ref": "9120500012"}, "type": "Feature"}
{"dataset_attributes": {"@spider": "usps_collection_boxes", "spider:collection_time": "2023-12-10T08:24:07.887270"}, "geometry": {"coordinates": [-118.245713, 34.142778], "type": "Point"}, "id": "VMgyHVVrReN-N8mVAhP95PnmSBA=", "properties": {"@spider": "usps_collection_boxes", "addr:city": "GLENDALE", "addr:country": "US", "addr:full": "725 E COLORADO ST", "addr:postcode": "91205", "addr:state": "CA", "amenity": "post_box", "brand": "United States Postal Service", "brand:wikidata": "Q668687", "collection_times": "Mo-Sa 10:00", "name": "USPS COLLECTION BOX - BLUE BOX", "nsi_id": "unitedstatespostalservice-a77078", "operator": "United States Postal Service", "operator:short": "USPS", "operator:type": "public", "operator:wikidata": "Q668687", "ref": "9120500016"}, "type": "Feature"}
{"dataset_attributes": {"@spider": "usps_collection_boxes", "spider:collection_time": "2023-12-10T08:24:07.887270"}, "geometry": {"coordinates": [-118.241863, 34.137237], "type": "Point"}, "id": "tINJ-w_Ecyg9bTCO4OIrf2kiWP4=", "properties": {"@spider": "usps_collection_boxes", "addr:city": "GLENDALE", "addr:country": "US", "addr:full": "800 S ADAMS ST", "addr:postcode": "91205", "addr:state": "CA", "amenity": "post_box", "brand": "United States Postal Service", "brand:wikidata": "Q668687", "collection_times": "Mo-Sa 10:00", "name": "USPS COLLECTION BOX - BLUE BOX", "nsi_id": "unitedstatespostalservice-a77078", "operator": "United States Postal Service", "operator:short": "USPS", "operator:type": "public", "operator:wikidata": "Q668687", "ref": "9120500018"}, "type": "Feature"}
{"dataset_attributes": {"@spider": "usps_collection_boxes", "spider:collection_time": "2023-12-10T08:24:07.887270"}, "geometry": {"coordinates": [-118.249488, 34.142067], "type": "Point"}, "id": "gmJhGJ7q3gIbb2bOlJ_PbT6I_9I=", "properties": {"@spider": "usps_collection_boxes", "addr:city": "GLENDALE", "addr:country": "US", "addr:full": "300 S GLENDALE AVE", "addr:postcode": "91205", "addr:state": "CA", "amenity": "post_box", "brand": "United States Postal Service", "brand:wikidata": "Q668687", "collection_times": "Mo-Sa 10:00", "name": "USPS COLLECTION BOX - BLUE BOX", "nsi_id": "unitedstatespostalservice-a77078", "operator": "United States Postal Service", "operator:short": "USPS", "operator:type": "public", "operator:wikidata": "Q668687", "ref": "9120500026"}, "type": "Feature"}
{"dataset_attributes": {"@spider": "usps_collection_boxes", "spider:collection_time": "2023-12-10T08:24:07.887270"}, "geometry": {"coordinates": [-118.246085, 34.13899], "type": "Point"}, "id": "iGCzBcw__2d_tzArlv2yEW9lBTs=", "properties": {"@spider": "usps_collection_boxes", "addr:city": "GLENDALE", "addr:country": "US", "addr:full": "112 ARTSAKH AVE", "addr:postcode": "91205", "addr:state": "CA", "amenity": "post_box", "brand": "United States Postal Service", "brand:wikidata": "Q668687", "collection_times": "Mo-Sa 12:00", "name": "USPS COLLECTION BOX - BLUE BOX", "nsi_id": "unitedstatespostalservice-a77078", "operator": "United States Postal Service", "operator:short": "USPS", "operator:type": "public", "operator:wikidata": "Q668687", "ref": "9120500029"}, "type": "Feature"}
{"dataset_attributes": {"@spider": "usps_collection_boxes", "spider:collection_time": "2023-12-10T08:24:07.887270"}, "geometry": {"coordinates": [-118.239937, 34.136602], "type": "Point"}, "id": "E2OPTm7L3sL8T0X2iD8g5MVaNyE=", "properties": {"@spider": "usps_collection_boxes", "addr:city": "GLENDALE", "addr:country": "US", "addr:full": "801 S CHEVY CHASE DR", "addr:postcode": "91205", "addr:state": "CA", "amenity": "post_box", "brand": "United States Postal Service", "brand:wikidata": "Q668687", "collection_times": "Mo-Sa 10:00", "name": "USPS COLLECTION BOX - BLUE BOX", "nsi_id": "unitedstatespostalservice-a77078", "operator": "United States Postal Service", "operator:short": "USPS", "operator:type": "public", "operator:wikidata": "Q668687", "ref": "9120500036"}, "type": "Feature"}
{"dataset_attributes": {"@spider": "usps_collection_boxes", "spider:collection_time": "2023-12-10T08:24:07.887270"}, "geometry": {"coordinates": [-118.233387, 34.143218], "type": "Point"}, "id": "zksU6kTZGMsRmjBhaT8dqApG48Q=", "properties": {"@spider": "usps_collection_boxes", "addr:city": "GLENDALE", "addr:country": "US", "addr:full": "1415 E COLORADO ST", "addr:postcode": "91205", "addr:state": "CA", "amenity": "post_box", "brand": "United States Postal Service", "brand:wikidata": "Q668687", "collection_times": "Mo-Fr 10:00; Sa 13:00", "name": "USPS COLLECTION BOX - BLUE BOX", "note": "ON 12/24 AND 12/31, THIS BOX MAY BE COLLECTED AS EARLY AS 12 NOON.", "nsi_id": "unitedstatespostalservice-a77078", "operator": "United States Postal Service", "operator:short": "USPS", "operator:type": "public", "operator:wikidata": "Q668687", "ref": "9120500037"}, "type": "Feature"}
{"dataset_attributes": {"@spider": "usps_collection_boxes", "spider:collection_time": "2023-12-10T08:24:07.887270"}, "geometry": {"coordinates": [-118.246264, 34.140793], "type": "Point"}, "id": "bd-62Gaz3z6SmfBugR0xUk8BtIo=", "properties": {"@spider": "usps_collection_boxes", "addr:city": "GLENDALE", "addr:country": "US", "addr:full": "708 E LOMITA AVE", "addr:postcode": "91205", "addr:state": "CA", "amenity": "post_box", "brand": "United States Postal Service", "brand:wikidata": "Q668687", "collection_times": "Mo-Fr 10:00; Sa 13:00", "name": "USPS COLLECTION BOX - BLUE BOX", "note": "ON 12/24 AND 12/31, THIS BOX MAY BE COLLECTED AS EARLY AS 12 NOON.", "nsi_id": "unitedstatespostalservice-a77078", "operator": "United States Postal Service", "operator:short": "USPS", "operator:type": "public", "operator:wikidata": "Q668687", "ref": "9120500039"}, "type": "Feature"}
{"dataset_attributes": {"@spider": "usps_collection_boxes", "spider:collection_time": "2023-12-10T08:24:07.887270"}, "geometry": {"coordinates": [-118.247902, 34.144933], "type": "Point"}, "id": "jp_B3ty7oirdAzQTG-a5hQJ033o=", "properties": {"@spider": "usps_collection_boxes", "addr:city": "GLENDALE", "addr:country": "US", "addr:full": "143 S GLENDALE AVE", "addr:postcode": "91205", "addr:state": "CA", "amenity": "post_box", "brand": "United States Postal Service", "brand:wikidata": "Q668687", "collection_times": "Mo-Sa 10:00", "name": "USPS COLLECTION BOX - BLUE BOX", "nsi_id": "unitedstatespostalservice-a77078", "operator": "United States Postal Service", "operator:short": "USPS", "operator:type": "public", "operator:wikidata": "Q668687", "ref": "9120500047"}, "type": "Feature"}
{"dataset_attributes": {"@spider": "usps_collection_boxes", "spider:collection_time": "2023-12-10T08:24:07.887270"}, "geometry": {"coordinates": [-118.2524219406, 34.1463465338], "type": "Point"}, "id": "yVpNJ0CrUw0grK83s21Fid9cY7s=", "properties": {"@spider": "usps_collection_boxes", "addr:city": "GLENDALE", "addr:country": "US", "addr:full": "313 E BROADWAY", "addr:postcode": "91205", "addr:state": "CA", "amenity": "post_box", "brand": "United States Postal Service", "brand:wikidata": "Q668687", "collection_times": "Mo-Fr 17:30", "name": "USPS COLLECTION BOX - PO LOBBY", "note": "ON 12/24 AND 12/31, THIS BOX MAY BE COLLECTED AS EARLY AS 12 NOON.", "nsi_id": "unitedstatespostalservice-a77078", "operator": "United States Postal Service", "operator:short": "USPS", "operator:type": "public", "operator:wikidata": "Q668687", "ref": "9120500051"}, "type": "Feature"}
{"dataset_attributes": {"@spider": "usps_collection_boxes", "spider:collection_time": "2023-12-10T08:24:07.887270"}, "geometry": {"coordinates": [-118.253862, 34.13348951], "type": "Point"}, "id": "pdWKMEsoxw-ORiAtwqzZDMSwqOA=", "properties": {"@spider": "usps_collection_boxes", "addr:city": "GLENDALE", "addr:country": "US", "addr:full": "120 E CHEVY CHASE DR", "addr:postcode": "91205", "addr:state": "CA", "amenity": "post_box", "brand": "United States Postal Service", "brand:wikidata": "Q668687", "collection_times": "Mo-Fr 17:30", "name": "USPS COLLECTION BOX - PO LOBBY", "note": "ON 12/24 AND 12/31, THIS BOX MAY BE COLLECTED AS EARLY AS 12 NOON.", "nsi_id": "unitedstatespostalservice-a77078", "operator": "United States Postal Service", "operator:short": "USPS", "operator:type": "public", "operator:wikidata": "Q668687", "ref": "9120500052"}, "type": "Feature"}
{"dataset_attributes": {"@spider": "usps_collection_boxes", "spider:collection_time": "2023-12-10T08:24:07.887270"}, "geometry": {"coordinates": [-118.248737, 34.15188], "type": "Point"}, "id": "GLmVpVCPNf3TQAdcVKvHGWnxIX4=", "properties": {"@spider": "usps_collection_boxes", "addr:city": "GLENDALE", "addr:country": "US", "addr:full": "600 E LEXINGTON DR", "addr:postcode": "91206", "addr:state": "CA", "amenity": "post_box", "brand": "United States Postal Service", "brand:wikidata": "Q668687", "collection_times": "Mo-Sa 12:00", "name": "USPS COLLECTION BOX - BLUE BOX", "nsi_id": "unitedstatespostalservice-a77078", "operator": "United States Postal Service", "operator:short": "USPS", "operator:type": "public", "operator:wikidata": "Q668687", "ref": "9120600001"}, "type": "Feature"}
{"dataset_attributes": {"@spider": "usps_collection_boxes", "spider:collection_time": "2023-12-10T08:24:07.887270"}, "geometry": {"coordinates": [-118.230189, 34.150165], "type": "Point"}, "id": "rKI5DzLR7SGUjpK-SRwCGp3eXiI=", "properties": {"@spider": "usps_collection_boxes", "addr:city": "GLENDALE", "addr:country": "US", "addr:full": "1509 WILSON TER", "addr:postcode": "91206", "addr:state": "CA", "amenity": "post_box", "brand": "United States Postal Service", "brand:wikidata": "Q668687", "collection_times": "Mo-Sa 12:00", "name": "USPS COLLECTION BOX - BLUE BOX", "nsi_id": "unitedstatespostalservice-a77078", "operator": "United States Postal Service", "operator:short": "USPS", "operator:type": "public", "operator:wikidata": "Q668687", "ref": "9120600011"}, "type": "Feature"}
{"dataset_attributes": {"@spider": "usps_collection_boxes", "spider:collection_time": "2023-12-10T08:24:07.887270"}, "geometry": {"coordinates": [-118.244419, 34.149873], "type": "Point"}, "id": "7-UKY7mZQRcN1Bx9sqWL00RLdJM=", "properties": {"@spider": "usps_collection_boxes", "addr:city": "GLENDALE", "addr:country": "US", "addr:full": "825 E CALIFORNIA AVE", "addr:postcode": "91206", "addr:state": "CA", "amenity": "post_box", "brand": "United States Postal Service", "brand:wikidata": "Q668687", "collection_times": "Mo-Sa 12:00", "name": "USPS COLLECTION BOX - BLUE BOX", "nsi_id": "unitedstatespostalservice-a77078", "operator": "United States Postal Service", "operator:short": "USPS", "operator:type": "public", "operator:wikidata": "Q668687", "ref": "9120600014"}, "type": "Feature"}
{"dataset_attributes": {"@spider": "usps_collection_boxes", "spider:collection_time": "2023-12-10T08:24:07.887270"}, "geometry": {"coordinates": [-118.246501, 34.148312], "type": "Point"}, "id": "LEt5ycdzt0I_6ZRKWvY3rKFR1TQ=", "properties": {"@spider": "usps_collection_boxes", "addr:city": "GLENDALE", "addr:country": "US", "addr:full": "203 N GLENDALE AVE", "addr:postcode": "91206", "addr:state": "CA", "amenity": "post_box", "brand": "United States Postal Service", "brand:wikidata": "Q668687", "collection_times": "Mo-Sa 12:00", "name": "USPS COLLECTION BOX - BLUE BOX", "nsi_id": "unitedstatespostalservice-a77078", "operator": "United States Postal Service", "operator:short": "USPS", "operator:type": "public", "operator:wikidata": "Q668687", "ref": "9120600023"}, "type": "Feature"}
{"dataset_attributes": {"@spider": "usps_collection_boxes", "spider:collection_time": "2023-12-10T08:24:07.887270"}, "geometry": {"coordinates": [-118.243456, 34.153399], "type": "Point"}, "id": "niMl7ScaWJjr8oRK1pov89T59i0=", "properties": {"@spider": "usps_collection_boxes", "addr:city": "GLENDALE", "addr:country": "US", "addr:full": "500 N GLENDALE AVE", "addr:postcode": "91206", "addr:state": "CA", "amenity": "post_box", "brand": "United States Postal Service", "brand:wikidata": "Q668687", "collection_times": "Mo-Sa 12:00", "name": "USPS COLLECTION BOX - BLUE BOX", "nsi_id": "unitedstatespostalservice-a77078", "operator": "United States Postal Service", "operator:short": "USPS", "operator:type": "public", "operator:wikidata": "Q668687", "ref": "9120600026"}, "type": "Feature"}
{"dataset_attributes": {"@spider": "usps_collection_boxes", "spider:collection_time": "2023-12-10T08:24:07.887270"}, "geometry": {"coordinates": [-118.2442730285, 34.1519680126], "type": "Point"}, "id": "13gBBz-YAd8euay5r9oKAXKDyRE=", "properties": {"@spider": "usps_collection_boxes", "addr:city": "GLENDALE", "addr:country": "US", "addr:full": "400 N GLENDALE AVE", "addr:postcode": "91206", "addr:state": "CA", "amenity": "post_box", "brand": "United States Postal Service", "brand:wikidata": "Q668687", "collection_times": "Mo-Sa 12:00", "name": "USPS COLLECTION BOX - BLUE BOX", "nsi_id": "unitedstatespostalservice-a77078", "operator": "United States Postal Service", "operator:short": "USPS", "operator:type": "public", "operator:wikidata": "Q668687", "ref": "9120600031"}, "type": "Feature"}
{"dataset_attributes": {"@spider": "usps_collection_boxes", "spider:collection_time": "2023-12-10T08:24:07.887270"}, "geometry": {"coordinates": [-118.249011, 34.154784], "type": "Point"}, "id": "jt5apfJVN9XSQ4IqUV4w3s3gSuE=", "properties": {"@spider": "usps_collection_boxes", "addr:city": "GLENDALE", "addr:country": "US", "addr:full": "600 E DORAN ST", "addr:postcode": "91206", "addr:state": "CA", "amenity": "post_box", "brand": "United States Postal Service", "brand:wikidata": "Q668687", "collection_times": "Mo-Sa 12:00", "name": "USPS COLLECTION BOX - BLUE BOX", "nsi_id": "unitedstatespostalservice-a77078", "operator": "United States Postal Service", "operator:short": "USPS", "operator:type": "public", "operator:wikidata": "Q668687", "ref": "9120600033"}, "type": "Feature"}
{"dataset_attributes": {"@spider": "usps_collection_boxes", "spider:collection_time": "2023-12-10T08:24:07.887270"}, "geometry": {"coordinates": [-118.235113, 34.146245], "type": "Point"}, "id": "GcMyZupBnV8PLf24ELjSSIN5tIY=", "properties": {"@spider": "usps_collection_boxes", "addr:city": "GLENDALE", "addr:country": "US", "addr:full": "101 N VERDUGO RD", "addr:postcode": "91206", "addr:state": "CA", "amenity": "post_box", "brand": "United States Postal Service", "brand:wikidata": "Q668687", "collection_times": "Mo-Fr 17:00; Sa 15:00", "name": "USPS COLLECTION BOX - BLUE BOX", "note": "ON 12/24 AND 12/31, THIS BOX MAY BE COLLECTED AS EARLY AS 12 NOON.", "nsi_id": "unitedstatespostalservice-a77078", "operator": "United States Postal Service", "operator:short": "USPS", "operator:type": "public", "operator:wikidata": "Q668687", "ref": "9120600034"}, "type": "Feature"}
{"dataset_attributes": {"@spider": "usps_collection_boxes", "spider:collection_time": "2023-12-10T08:24:07.887270"}, "geometry": {"coordinates": [-118.253716, 34.149831], "type": "Point"}, "id": "lo9lI75mvUAkIEHeypQVwjQQvS8=", "properties": {"@spider": "usps_collection_boxes", "addr:city": "GLENDALE", "addr:country": "US", "addr:full": "200 E CALIFORNIA AVE", "addr:postcode": "91206", "addr:state": "CA", "amenity": "post_box", "brand": "United States Postal Service", "brand:wikidata": "Q668687", "collection_times": "Mo-Sa 12:00", "name": "USPS COLLECTION BOX - BLUE BOX", "nsi_id": "unitedstatespostalservice-a77078", "operator": "United States Postal Service", "operator:short": "USPS", "operator:type": "public", "operator:wikidata": "Q668687", "ref": "9120600038"}, "type": "Feature"}
{"dataset_attributes": {"@spider": "usps_collection_boxes", "spider:collection_time": "2023-12-10T08:24:07.887270"}, "geometry": {"coordinates": [-118.248096, 34.146466], "type": "Point"}, "id": "SV8maPDyaeuwcuaoLT-a8-BscqM=", "properties": {"@spider": "usps_collection_boxes", "addr:city": "GLENDALE", "addr:country": "US", "addr:full": "613 E BROADWAY", "addr:postcode": "91206", "addr:state": "CA", "amenity": "post_box", "brand": "United States Postal Service", "brand:wikidata": "Q668687", "collection_times": "Mo-Sa 10:00", "name": "USPS COLLECTION BOX - BLUE BOX", "nsi_id": "unitedstatespostalservice-a77078", "operator": "United States Postal Service", "operator:short": "USPS", "operator:type": "public", "operator:wikidata": "Q668687", "ref": "9120600041"}, "type": "Feature"}
{"dataset_attributes": {"@spider": "usps_collection_boxes", "spider:collection_time": "2023-12-10T08:24:07.887270"}, "geometry": {"coordinates": [-118.248754, 34.145923], "type": "Point"}, "id": "D_spJmlbxrwXX6wOXMhyztD8Cjw=", "properties": {"@spider": "usps_collection_boxes", "addr:city": "GLENDALE", "addr:country": "US", "addr:full": "600 E BROADWAY", "addr:postcode": "91206", "addr:state": "CA", "amenity": "post_box", "brand": "United States Postal Service", "brand:wikidata": "Q668687", "collection_times": "Mo-Sa 12:00", "name": "USPS COLLECTION BOX - BLUE BOX", "nsi_id": "unitedstatespostalservice-a77078", "operator": "United States Postal Service", "operator:short": "USPS", "operator:type": "public", "operator:wikidata": "Q668687", "ref": "9120600044"}, "type": "Feature"}
{"dataset_attributes": {"@spider": "usps_collection_boxes", "spider:collection_time": "2023-12-10T08:24:07.887270"}, "geometry": {"coordinates": [-118.235113, 34.146245], "type": "Point"}, "id": "cAjvME0R6XLEvjq-yWxfrDkNdAg=", "properties": {"@spider": "usps_collection_boxes", "addr:city": "GLENDALE", "addr:country": "US", "addr:full": "101 N VERDUGO RD", "addr:postcode": "91206", "addr:state": "CA", "amenity": "post_box", "brand": "United States Postal Service", "brand:wikidata": "Q668687", "collection_times": "Mo-Fr 17:00; Sa 15:00", "name": "USPS COLLECTION BOX - PO LOBBY", "note": "ON 12/24 AND 12/31, THIS BOX MAY BE COLLECTED AS EARLY AS 12 NOON.", "nsi_id": "unitedstatespostalservice-a77078", "operator": "United States Postal Service", "operator:short": "USPS", "operator:type": "public", "operator:wikidata": "Q668687", "ref": "9120600045"}, "type": "Feature"}
{"dataset_attributes": {"@spider": "usps_collection_boxes", "spider:collection_time": "2023-12-10T08:24:07.887270"}, "geometry": {"coordinates": [-118.235113, 34.146245], "type": "Point"}, "id": "EskHNvSEg3HzapyQs1oR1TCw--c=", "properties": {"@spider": "usps_collection_boxes", "addr:city": "GLENDALE", "addr:country": "US", "addr:full": "101 N VERDUGO RD", "addr:postcode": "91206", "addr:state": "CA", "amenity": "post_box", "brand": "United States Postal Service", "brand:wikidata": "Q668687", "collection_times": "Mo-Fr 17:00; Sa 15:00", "name": "USPS COLLECTION BOX - PO LOBBY", "note": "ON 12/24 AND 12/31, THIS BOX MAY BE COLLECTED AS EARLY AS 12 NOON.", "nsi_id": "unitedstatespostalservice-a77078", "operator": "United States Postal Service", "operator:short": "USPS", "operator:type": "public", "operator:wikidata": "Q668687", "ref": "9120600046"}, "type": "Feature"}
{"dataset_attributes": {"@spider": "usps_collection_boxes", "spider:collection_time": "2023-12-10T08:24:07.887270"}, "geometry": {"coordinates": [-118.250299, 34.148211], "type": "Point"}, "id": "mMkmx-JzGMOmU7uTBQbe3UszgxY=", "properties": {"@spider": "usps_collection_boxes", "addr:city": "GLENDALE", "addr:country": "US", "addr:full": "400 E WILSON AVE", "addr:postcode": "91206", "addr:state": "CA", "amenity": "post_box", "brand": "United States Postal Service", "brand:wikidata": "Q668687", "collection_times": "Mo-Sa 12:00", "name": "USPS COLLECTION BOX - BLUE BOX", "nsi_id": "unitedstatespostalservice-a77078", "operator": "United States Postal Service", "operator:short": "USPS", "operator:type": "public", "operator:wikidata": "Q668687", "ref": "9120600047"}, "type": "Feature"}
{"dataset_attributes": {"@spider": "usps_collection_boxes", "spider:collection_time": "2023-12-10T08:24:07.887270"}, "geometry": {"coordinates": [-118.218232, 34.159111], "type": "Point"}, "id": "g5c1IWKXn_mbaEEaMhU7gWujjCg=", "properties": {"@spider": "usps_collection_boxes", "addr:city": "GLENDALE", "addr:country": "US", "addr:full": "2243 E CHEVY CHASE DR", "addr:postcode": "91206", "addr:state": "CA", "amenity": "post_box", "brand": "United States Postal Service", "brand:wikidata": "Q668687", "collection_times": "Mo-Sa 12:00", "name": "USPS COLLECTION BOX - BLUE BOX", "nsi_id": "unitedstatespostalservice-a77078", "operator": "United States Postal Service", "operator:short": "USPS", "operator:type": "public", "operator:wikidata": "Q668687", "ref": "9120600048"}, "type": "Feature"}
{"dataset_attributes": {"@spider": "usps_collection_boxes", "spider:collection_time": "2023-12-10T08:24:07.887270"}, "geometry": {"coordinates": [-118.2351310806, 34.1461954731], "type": "Point"}, "id": "oYzqKjbQzAaivpWTAKiujzh0a6Q=", "properties": {"@spider": "usps_collection_boxes", "addr:city": "GLENDALE", "addr:country": "US", "addr:full": "101 N VERDUGO RD", "addr:postcode": "91206", "addr:state": "CA", "amenity": "post_box", "brand": "United States Postal Service", "brand:wikidata": "Q668687", "collection_times": "Mo-Fr 17:30", "name": "USPS COLLECTION BOX - PO LOBBY", "note": "ON 12/24 AND 12/31, THIS BOX MAY BE COLLECTED AS EARLY AS 12 NOON.", "nsi_id": "unitedstatespostalservice-a77078", "operator": "United States Postal Service", "operator:short": "USPS", "operator:type": "public", "operator:wikidata": "Q668687", "ref": "9120600055"}, "type": "Feature"}
{"dataset_attributes": {"@spider": "usps_collection_boxes", "spider:collection_time": "2023-12-10T08:24:07.887270"}, "geometry": {"coordinates": [-118.252794, 34.161387], "type": "Point"}, "id": "7oGvMeC7dB3-W0J2MBnnJC_lvNI=", "properties": {"@spider": "usps_collection_boxes", "addr:city": "GLENDALE", "addr:country": "US", "addr:full": "200 E DRYDEN ST", "addr:postcode": "91207", "addr:state": "CA", "amenity": "post_box", "brand": "United States Postal Service", "brand:wikidata": "Q668687", "collection_times": "Mo-Sa 10:00", "name": "USPS COLLECTION BOX - BLUE BOX", "nsi_id": "unitedstatespostalservice-a77078", "operator": "United States Postal Service", "operator:short": "USPS", "operator:type": "public", "operator:wikidata": "Q668687", "ref": "9120700000"}, "type": "Feature"}
{"dataset_attributes": {"@spider": "usps_collection_boxes", "spider:collection_time": "2023-12-10T08:24:07.887270"}, "geometry": {"coordinates": [-118.248152, 34.158352], "type": "Point"}, "id": "EMP01waPL0UFfH-uck-XlRiCD5g=", "properties": {"@spider": "usps_collection_boxes", "addr:city": "GLENDALE", "addr:country": "US", "addr:full": "621 E GLENOAKS BLVD", "addr:postcode": "91207", "addr:state": "CA", "amenity": "post_box", "brand": "United States Postal Service", "brand:wikidata": "Q668687", "collection_times": "Mo-Sa 10:00", "name": "USPS COLLECTION BOX - BLUE BOX", "nsi_id": "unitedstatespostalservice-a77078", "operator": "United States Postal Service", "operator:short": "USPS", "operator:type": "public", "operator:wikidata": "Q668687", "ref": "9120700003"}, "type": "Feature"}
{"dataset_attributes": {"@spider": "usps_collection_boxes", "spider:collection_time": "2023-12-10T08:24:07.887270"}, "geometry": {"coordinates": [-118.250569, 34.158382], "type": "Point"}, "id": "ipE0QZX29fYReMt1XLEK4tHlXCo=", "properties": {"@spider": "usps_collection_boxes", "addr:city": "GLENDALE", "addr:country": "US", "addr:full": "419 E GLENOAKS BLVD", "addr:postcode": "91207", "addr:state": "CA", "amenity": "post_box", "brand": "United States Postal Service", "brand:wikidata": "Q668687", "collection_times": "Mo-Sa 10:00", "name": "USPS COLLECTION BOX - BLUE BOX", "nsi_id": "unitedstatespostalservice-a77078", "operator": "United States Postal Service", "operator:short": "USPS", "operator:type": "public", "operator:wikidata": "Q668687", "ref": "9120700004"}, "type": "Feature"}
{"dataset_attributes": {"@spider": "usps_collection_boxes", "spider:collection_time": "2023-12-10T08:24:07.887270"}, "geometry": {"coordinates": [-118.235164, 34.206933], "type": "Point"}, "id": "_TSxNo_5b2LkvWUPdwkNqVY_PJ4=", "properties": {"@spider": "usps_collection_boxes", "addr:city": "GLENDALE", "addr:country": "US", "addr:full": "1444 BROADVIEW DR", "addr:postcode": "91208", "addr:state": "CA", "amenity": "post_box", "brand": "United States Postal Service", "brand:wikidata": "Q668687", "collection_times": "Mo-Sa 10:00", "name": "USPS COLLECTION BOX - BLUE BOX", "nsi_id": "unitedstatespostalservice-a77078", "operator": "United States Postal Service", "operator:short": "USPS", "operator:type": "public", "operator:wikidata": "Q668687", "ref": "9120800000"}, "type": "Feature"}
{"dataset_attributes": {"@spider": "usps_collection_boxes", "spider:collection_time": "2023-12-10T08:24:07.887270"}, "geometry": {"coordinates": [-118.229174, 34.183891], "type": "Point"}, "id": "W3xXKIQnQXk-Jq89uhJOkGz4awo=", "properties": {"@spider": "usps_collection_boxes", "addr:city": "GLENDALE", "addr:country": "US", "addr:full": "2523 CANADA BLVD", "addr:postcode": "91208", "addr:state": "CA", "amenity": "post_box", "brand": "United States Postal Service", "brand:wikidata": "Q668687", "collection_times": "Mo-Sa 12:00", "name": "USPS COLLECTION BOX - BLUE BOX", "nsi_id": "unitedstatespostalservice-a77078", "operator": "United States Postal Service", "operator:short": "USPS", "operator:type": "public", "operator:wikidata": "Q668687", "ref": "9120800001"}, "type": "Feature"}
{"dataset_attributes": {"@spider": "usps_collection_boxes", "spider:collection_time": "2023-12-10T08:24:07.887270"}, "geometry": {"coordinates": [-118.225583, 34.177105], "type": "Point"}, "id": "yD5-PFVBJkFMDFSzqHJrDdhaQGQ=", "properties": {"@spider": "usps_collection_boxes", "addr:city": "GLENDALE", "addr:country": "US", "addr:full": "1930 N VERDUGO RD", "addr:postcode": "91208", "addr:state": "CA", "amenity": "post_box", "brand": "United States Postal Service", "brand:wikidata": "Q668687", "collection_times": "Mo-Sa 10:00", "name": "USPS COLLECTION BOX - BLUE BOX", "nsi_id": "unitedstatespostalservice-a77078", "operator": "United States Postal Service", "operator:short": "USPS", "operator:type": "public", "operator:wikidata": "Q668687", "ref": "9120800003"}, "type": "Feature"}
{"dataset_attributes": {"@spider": "usps_collection_boxes", "spider:collection_time": "2023-12-10T08:24:07.887270"}, "geometry": {"coordinates": [-118.227976, 34.169362], "type": "Point"}, "id": "ddYESs1JFU4lM6xQPajFIridPBE=", "properties": {"@spider": "usps_collection_boxes", "addr:city": "GLENDALE", "addr:country": "US", "addr:full": "1545 N VERDUGO RD", "addr:postcode": "91208", "addr:state": "CA", "amenity": "post_box", "brand": "United States Postal Service", "brand:wikidata": "Q668687", "collection_times": "Mo-Fr 10:00", "name": "USPS COLLECTION BOX - BLUE BOX", "nsi_id": "unitedstatespostalservice-a77078", "operator": "United States Postal Service", "operator:short": "USPS", "operator:type": "public", "operator:wikidata": "Q668687", "ref": "9120800005"}, "type": "Feature"}
{"dataset_attributes": {"@spider": "usps_collection_boxes", "spider:collection_time": "2023-12-10T08:24:07.887270"}, "geometry": {"coordinates": [-118.21581, 34.205737], "type": "Point"}, "id": "xNY8NLOqJlNul83JdfqM8XtOSC4=", "properties": {"@spider": "usps_collection_boxes", "addr:city": "GLENDALE", "addr:country": "US", "addr:full": "1809 VERDUGO BLVD", "addr:postcode": "91208", "addr:state": "CA", "amenity": "post_box", "brand": "United States Postal Service", "brand:wikidata": "Q668687", "collection_times": "Mo-Sa 12:00", "name": "USPS COLLECTION BOX - BLUE BOX", "nsi_id": "unitedstatespostalservice-a77078", "operator": "United States Postal Service", "operator:short": "USPS", "operator:type": "public", "operator:wikidata": "Q668687", "ref": "9120800006"}, "type": "Feature"}
{"dataset_attributes": {"@spider": "usps_collection_boxes", "spider:collection_time": "2023-12-10T08:24:07.887270"}, "geometry": {"coordinates": [-118.216588, 34.203742], "type": "Point"}, "id": "KPbZJWaffVIcV1jRkdFcj3szSno=", "properties": {"@spider": "usps_collection_boxes", "addr:city": "GLENDALE", "addr:country": "US", "addr:full": "1818 VERDUGO BLVD", "addr:postcode": "91208", "addr:state": "CA", "amenity": "post_box", "brand": "United States Postal Service", "brand:wikidata": "Q668687", "collection_times": "Mo-Sa 12:00", "name": "USPS COLLECTION BOX - BLUE BOX", "nsi_id": "unitedstatespostalservice-a77078", "operator": "United States Postal Service", "operator:short": "USPS", "operator:type": "public", "operator:wikidata": "Q668687", "ref": "9120800007"}, "type": "Feature"}
{"dataset_attributes": {"@spider": "usps_collection_boxes", "spider:collection_time": "2023-12-10T08:24:07.887270"}, "geometry": {"coordinates": [-118.215812, 34.20419], "type": "Point"}, "id": "Mh9UQVNPkhXdJaUDscB6mlRLHAc=", "properties": {"@spider": "usps_collection_boxes", "addr:city": "GLENDALE", "addr:country": "US", "addr:full": "1812 VERDUGO BLVD", "addr:postcode": "91208", "addr:state": "CA", "amenity": "post_box", "brand": "United States Postal Service", "brand:wikidata": "Q668687", "collection_times": "Mo-Sa 12:00", "name": "USPS COLLECTION BOX - BLUE BOX", "nsi_id": "unitedstatespostalservice-a77078", "operator": "United States Postal Service", "operator:short": "USPS", "operator:type": "public", "operator:wikidata": "Q668687", "ref": "9120800009"}, "type": "Feature"}
{"dataset_attributes": {"@spider": "usps_collection_boxes", "spider:collection_time": "2023-12-10T08:24:07.887270"}, "geometry": {"coordinates": [-118.215443, 34.20524], "type": "Point"}, "id": "9JnU-hgI3S9d0SY6oYqGKxdVXDA=", "properties": {"@spider": "usps_collection_boxes", "addr:city": "GLENDALE", "addr:country": "US", "addr:full": "1808 N VERDUGO BLVD", "addr:postcode": "91208", "addr:state": "CA", "amenity": "post_box", "brand": "United States Postal Service", "brand:wikidata": "Q668687", "collection_times": "Mo-Sa 12:00", "name": "USPS COLLECTION BOX - BLUE BOX", "nsi_id": "unitedstatespostalservice-a77078", "operator": "United States Postal Service", "operator:short": "USPS", "operator:type": "public", "operator:wikidata": "Q668687", "ref": "9120800010"}, "type": "Feature"}
{"dataset_attributes": {"@spider": "usps_collection_boxes", "spider:collection_time": "2023-12-10T08:24:07.887270"}, "geometry": {"coordinates": [-118.22601, 34.188521], "type": "Point"}, "id": "G-l7Xxfw9428xClVbhvIEPvlCDw=", "properties": {"@spider": "usps_collection_boxes", "addr:city": "GLENDALE", "addr:country": "US", "addr:full": "2840 N VERDUGO RD", "addr:postcode": "91208", "addr:state": "CA", "amenity": "post_box", "brand": "United States Postal Service", "brand:wikidata": "Q668687", "collection_times": "Mo-Sa 10:00", "name": "USPS COLLECTION BOX - BLUE BOX", "nsi_id": "unitedstatespostalservice-a77078", "operator": "United States Postal Service", "operator:short": "USPS", "operator:type": "public", "operator:wikidata": "Q668687", "ref": "9120800011"}, "type": "Feature"}
{"dataset_attributes": {"@spider": "usps_collection_boxes", "spider:collection_time": "2023-12-10T08:24:07.887270"}, "geometry": {"coordinates": [-118.252431, 34.14635], "type": "Point"}, "id": "Ax9OtvbOuNVOVeHE7g1u6x3HbaI=", "properties": {"@spider": "usps_collection_boxes", "addr:city": "GLENDALE", "addr:country": "US", "addr:full": "313 E BROADWAY", "addr:postcode": "91209", "addr:state": "CA", "amenity": "post_box", "brand": "United States Postal Service", "brand:wikidata": "Q668687", "collection_times": "Mo-Fr 17:00; Sa 15:00", "name": "USPS COLLECTION BOX - BLUE BOX", "note": "ON 12/24 AND 12/31, THIS BOX MAY BE COLLECTED AS EARLY AS 12 NOON.", "nsi_id": "unitedstatespostalservice-a77078", "operator": "United States Postal Service", "operator:short": "USPS", "operator:type": "public", "operator:wikidata": "Q668687", "ref": "9120900001"}, "type": "Feature"}
{"dataset_attributes": {"@spider": "usps_collection_boxes", "spider:collection_time": "2023-12-10T08:24:07.887270"}, "geometry": {"coordinates": [-118.252431, 34.14635], "type": "Point"}, "id": "9u7tqxK29kf5ThW7hiJ3luE7G38=", "properties": {"@spider": "usps_collection_boxes", "addr:city": "GLENDALE", "addr:country": "US", "addr:full": "313 E BROADWAY", "addr:postcode": "91209", "addr:state": "CA", "amenity": "post_box", "brand": "United States Postal Service", "brand:wikidata": "Q668687", "collection_times": "Mo-Fr 17:00; Sa 15:00", "name": "USPS COLLECTION BOX - BLUE BOX", "note": "ON 12/24 AND 12/31, THIS BOX MAY BE COLLECTED AS EARLY AS 12 NOON.", "nsi_id": "unitedstatespostalservice-a77078", "operator": "United States Postal Service", "operator:short": "USPS", "operator:type": "public", "operator:wikidata": "Q668687", "ref": "9120900004"}, "type": "Feature"}
{"dataset_attributes": {"@spider": "usps_collection_boxes", "spider:collection_time": "2023-12-10T08:24:07.887270"}, "geometry": {"coordinates": [-118.252431, 34.14635], "type": "Point"}, "id": "wKaLfDGswIwPHiZOmF_QUsgFWyA=", "properties": {"@spider": "usps_collection_boxes", "addr:city": "GLENDALE", "addr:country": "US", "addr:full": "313 E BROADWAY", "addr:postcode": "91209", "addr:state": "CA", "amenity": "post_box", "brand": "United States Postal Service", "brand:wikidata": "Q668687", "collection_times": "Mo-Fr 17:00; Sa 15:00", "name": "USPS COLLECTION BOX - PO LOBBY", "note": "ON 12/24 AND 12/31, THIS BOX MAY BE COLLECTED AS EARLY AS 12 NOON.", "nsi_id": "unitedstatespostalservice-a77078", "operator": "United States Postal Service", "operator:short": "USPS", "operator:type": "public", "operator:wikidata": "Q668687", "ref": "9120900005"}, "type": "Feature"}
{"dataset_attributes": {"@spider": "usps_collection_boxes", "spider:collection_time": "2023-12-10T08:24:07.887270"}, "geometry": {"coordinates": [-118.252431, 34.14635], "type": "Point"}, "id": "wkkHtv4b1k6bZfIcp6G0Sp1rOP8=", "properties": {"@spider": "usps_collection_boxes", "addr:city": "GLENDALE", "addr:country": "US", "addr:full": "313 E BROADWAY", "addr:postcode": "91209", "addr:state": "CA", "amenity": "post_box", "brand": "United States Postal Service", "brand:wikidata": "Q668687", "collection_times": "Mo-Fr 17:00; Sa 15:00", "name": "USPS COLLECTION BOX - APC", "note": "ON 12/24 AND 12/31, THIS BOX MAY BE COLLECTED AS EARLY AS 12 NOON.", "nsi_id": "unitedstatespostalservice-a77078", "operator": "United States Postal Service", "operator:short": "USPS", "operator:type": "public", "operator:wikidata": "Q668687", "ref": "9120900007"}, "type": "Feature"}
{"dataset_attributes": {"@spider": "usps_collection_boxes", "spider:collection_time": "2023-12-10T08:24:07.887270"}, "geometry": {"coordinates": [-118.2509556319, 34.2309655132], "type": "Point"}, "id": "rH0TZtIvzjkEw3Y5bh5qAdPm2g0=", "properties": {"@spider": "usps_collection_boxes", "addr:city": "LA CRESCENTA", "addr:country": "US", "addr:full": "3300 FOOTHILL BLVD", "addr:postcode": "91214", "addr:state": "CA", "amenity": "post_box", "brand": "United States Postal Service", "brand:wikidata": "Q668687", "collection_times": "Mo-Fr 17:00; Sa 15:00", "name": "USPS COLLECTION BOX - BLUE BOX", "note": "ON 12/24 AND 12/31, THIS BOX MAY BE COLLECTED AS EARLY AS 12 NOON.", "nsi_id": "unitedstatespostalservice-a77078", "operator": "United States Postal Service", "operator:short": "USPS", "operator:type": "public", "operator:wikidata": "Q668687", "ref": "9121400001"}, "type": "Feature"}
{"dataset_attributes": {"@spider": "usps_collection_boxes", "spider:collection_time": "2023-12-10T08:24:07.887270"}, "geometry": {"coordinates": [-118.244065, 34.22687], "type": "Point"}, "id": "Wt0ASixF_GCp2ssU0mmYFDiwUqY=", "properties": {"@spider": "usps_collection_boxes", "addr:city": "LA CRESCENTA", "addr:country": "US", "addr:full": "2963 FOOTHILL BLVD", "addr:postcode": "91214", "addr:state": "CA", "amenity": "post_box", "brand": "United States Postal Service", "brand:wikidata": "Q668687", "collection_times": "Mo-Sa 10:00", "name": "USPS COLLECTION BOX - BLUE BOX", "nsi_id": "unitedstatespostalservice-a77078", "operator": "United States Postal Service", "operator:short": "USPS", "operator:type": "public", "operator:wikidata": "Q668687", "ref": "9121400008"}, "type": "Feature"}
{"dataset_attributes": {"@spider": "usps_collection_boxes", "spider:collection_time": "2023-12-10T08:24:07.887270"}, "geometry": {"coordinates": [-118.247923, 34.229264], "type": "Point"}, "id": "j5aowESRLjWssX8aOLfAEs72abg=", "properties": {"@spider": "usps_collection_boxes", "addr:city": "LA CRESCENTA", "addr:country": "US", "addr:full": "3141 FOOTHILL BLVD", "addr:postcode": "91214", "addr:state": "CA", "amenity": "post_box", "brand": "United States Postal Service", "brand:wikidata": "Q668687", "collection_times": "Mo-Sa 10:00", "name": "USPS COLLECTION BOX - BLUE BOX", "nsi_id": "unitedstatespostalservice-a77078", "operator": "United States Postal Service", "operator:short": "USPS", "operator:type": "public", "operator:wikidata": "Q668687", "ref": "9121400011"}, "type": "Feature"}
{"dataset_attributes": {"@spider": "usps_collection_boxes", "spider:collection_time": "2023-12-10T08:24:07.887270"}, "geometry": {"coordinates": [-118.23488, 34.220844], "type": "Point"}, "id": "CMPPHqRoF9da8PnJlIMPw7eSBYA=", "properties": {"@spider": "usps_collection_boxes", "addr:city": "LA CRESCENTA", "addr:country": "US", "addr:full": "2550 FOOTHILL BLVD", "addr:postcode": "91214", "addr:state": "CA", "amenity": "post_box", "brand": "United States Postal Service", "brand:wikidata": "Q668687", "collection_times": "Mo-Sa 10:00", "name": "USPS COLLECTION BOX - BLUE BOX", "nsi_id": "unitedstatespostalservice-a77078", "operator": "United States Postal Service", "operator:short": "USPS", "operator:type": "public", "operator:wikidata": "Q668687", "ref": "9121400014"}, "type": "Feature"}
{"dataset_attributes": {"@spider": "usps_collection_boxes", "spider:collection_time": "2023-12-10T08:24:07.887270"}, "geometry": {"coordinates": [-118.242566, 34.217443], "type": "Point"}, "id": "lgw4ddXs54zelPkEhM5Di7-uyf8=", "properties": {"@spider": "usps_collection_boxes", "addr:city": "LA CRESCENTA", "addr:country": "US", "addr:full": "2902 MONTROSE AVE", "addr:postcode": "91214", "addr:state": "CA", "amenity": "post_box", "brand": "United States Postal Service", "brand:wikidata": "Q668687", "collection_times": "Mo-Sa 10:00", "name": "USPS COLLECTION BOX - BLUE BOX", "nsi_id": "unitedstatespostalservice-a77078", "operator": "United States Postal Service", "operator:short": "USPS", "operator:type": "public", "operator:wikidata": "Q668687", "ref": "9121400016"}, "type": "Feature"}
{"dataset_attributes": {"@spider": "usps_collection_boxes", "spider:collection_time": "2023-12-10T08:24:07.887270"}, "geometry": {"coordinates": [-118.261943, 34.229093], "type": "Point"}, "id": "vD_HkVCAcLTumyg3p8E20x2n5lU=", "properties": {"@spider": "usps_collection_boxes", "addr:city": "LA CRESCENTA", "addr:country": "US", "addr:full": "4001 BOSTON AVE", "addr:postcode": "91214", "addr:state": "CA", "amenity": "post_box", "brand": "United States Postal Service", "brand:wikidata": "Q668687", "collection_times": "Mo-Sa 10:00", "name": "USPS COLLECTION BOX - BLUE BOX", "nsi_id": "unitedstatespostalservice-a77078", "operator": "United States Postal Service", "operator:short": "USPS", "operator:type": "public", "operator:wikidata": "Q668687", "ref": "9121400022"}, "type": "Feature"}
{"dataset_attributes": {"@spider": "usps_collection_boxes", "spider:collection_time": "2023-12-10T08:24:07.887270"}, "geometry": {"coordinates": [-118.2509556319, 34.2309655132], "type": "Point"}, "id": "Dl0LdeHAM1h4yTMxEoujrEpHwlA=", "properties": {"@spider": "usps_collection_boxes", "addr:city": "LA CRESCENTA", "addr:country": "US", "addr:full": "3300 FOOTHILL BLVD", "addr:postcode": "91214", "addr:state": "CA", "amenity": "post_box", "brand": "United States Postal Service", "brand:wikidata": "Q668687", "collection_times": "Mo-Fr 17:00; Sa 15:00", "name": "USPS COLLECTION BOX - PO LOBBY", "note": "ON 12/24 AND 12/31, THIS BOX MAY BE COLLECTED AS EARLY AS 12 NOON.", "nsi_id": "unitedstatespostalservice-a77078", "operator": "United States Postal Service", "operator:short": "USPS", "operator:type": "public", "operator:wikidata": "Q668687", "ref": "9121400023"}, "type": "Feature"}
{"dataset_attributes": {"@spider": "usps_collection_boxes", "spider:collection_time": "2023-12-10T08:24:07.887270"}, "geometry": {"coordinates": [-118.2509556319, 34.2309655132], "type": "Point"}, "id": "MA5-3lP9hEUuPTaKMSXrzaId-38=", "properties": {"@spider": "usps_collection_boxes", "addr:city": "LA CRESCENTA", "addr:country": "US", "addr:full": "3300 FOOTHILL BLVD", "addr:postcode": "91214", "addr:state": "CA", "amenity": "post_box", "brand": "United States Postal Service", "brand:wikidata": "Q668687", "collection_times": "Mo-Fr 17:00; Sa 15:00", "name": "USPS COLLECTION BOX - PO LOBBY", "note": "ON 12/24 AND 12/31, THIS BOX MAY BE COLLECTED AS EARLY AS 12 NOON.", "nsi_id": "unitedstatespostalservice-a77078", "operator": "United States Postal Service", "operator:short": "USPS", "operator:type": "public", "operator:wikidata": "Q668687", "ref": "9121400024"}, "type": "Feature"}
{"dataset_attributes": {"@spider": "usps_collection_boxes", "spider:collection_time": "2023-12-10T08:24:07.887270"}, "geometry": {"coordinates": [-118.2509556319, 34.2309655132], "type": "Point"}, "id": "AEwCOHrJWtt7ugaBsF5V_Jf6y3M=", "properties": {"@spider": "usps_collection_boxes", "addr:city": "LA CRESCENTA", "addr:country": "US", "addr:full": "3300 FOOTHILL BLVD", "addr:postcode": "91214", "addr:state": "CA", "amenity": "post_box", "brand": "United States Postal Service", "brand:wikidata": "Q668687", "collection_times": "Mo-Fr 17:00; Sa 15:00", "name": "USPS COLLECTION BOX - APC", "note": "ON 12/24 AND 12/31, THIS BOX MAY BE COLLECTED AS EARLY AS 12 NOON.", "nsi_id": "unitedstatespostalservice-a77078", "operator": "United States Postal Service", "operator:short": "USPS", "operator:type": "public", "operator:wikidata": "Q668687", "ref": "9121400025"}, "type": "Feature"}
{"dataset_attributes": {"@spider": "usps_collection_boxes", "spider:collection_time": "2023-12-10T08:24:07.887270"}, "geometry": {"coordinates": [-118.2509556319, 34.2309655132], "type": "Point"}, "id": "DqMjhesB4M8ADA26WBAGZav64ys=", "properties": {"@spider": "usps_collection_boxes", "addr:city": "LA CRESCENTA", "addr:country": "US", "addr:full": "3300 FOOTHILL BLVD", "addr:postcode": "91214", "addr:state": "CA", "amenity": "post_box", "brand": "United States Postal Service", "brand:wikidata": "Q668687", "collection_times": "Mo-Fr 17:30", "name": "USPS COLLECTION BOX - PO LOBBY", "note": "ON 12/24 AND 12/31, THIS BOX MAY BE COLLECTED AS EARLY AS 12 NOON.", "nsi_id": "unitedstatespostalservice-a77078", "operator": "United States Postal Service", "operator:short": "USPS", "operator:type": "public", "operator:wikidata": "Q668687", "ref": "9121400030"}, "type": "Feature"}
