{"geometry": {"coordinates": [-118.429055, 34.17483], "type": "Point"}, "id": "Pq5Ff_t1Qhy1tezWKvm9M-pICao=", "properties": {"@source_uri": "https://tools.usps.com/UspsToolsRestServices/rest/POLocator/findLocations", "@spider": "usps_collection_boxes", "addr:city": "VAN NUYS", "addr:country": "US", "addr:postcode": "91401", "addr:state": "CA", "addr:street_address": "13700 VICTORY BLVD", "amenity": "post_box", "collection_times": "Mo-Sa 10:00", "nsi_id": "unitedstatespostalservice-a77078", "operator": "United States Postal Service", "operator:short": "USPS", "operator:type": "public", "operator:wikidata": "Q668687", "ref": "9140100001"}, "type": "Feature"}
{"geometry": {"coordinates": [-118.4487087554, 34.1827466123], "type": "Point"}, "id": "U_y1UTl1BFKTmv07KnzJSsBEG20=", "properties": {"@source_uri": "https://tools.usps.com/UspsToolsRestServices/rest/POLocator/findLocations", "@spider": "usps_collection_boxes", "addr:city": "VAN NUYS", "addr:country": "US", "addr:postcode": "91401", "addr:state": "CA", "addr:street_address": "6200 VAN NUYS BLVD", "amenity": "post_box", "collection_times": "Mo-Sa 15:00", "note": "ON 12/24 AND 12/31, THIS BOX MAY BE COLLECTED AS EARLY AS 12 NOON.", "nsi_id": "unitedstatespostalservice-a77078", "operator": "United States Postal Service", "operator:short": "USPS", "operator:type": "public", "operator:wikidata": "Q668687", "ref": "9140100004"}, "type": "Feature"}
{"geometry": {"coordinates": [-118.430759, 34.172237], "type": "Point"}, "id": "0jMNb13DZWLPKu91eobA1za20pg=", "properties": {"@source_uri": "https://tools.usps.com/UspsToolsRestServices/rest/POLocator/findLocations", "@spider": "usps_collection_boxes", "addr:city": "VAN NUYS", "addr:country": "US", "addr:postcode": "91401", "addr:state": "CA", "addr:street_address": "13700 BURBANK BLVD", "amenity": "post_box", "collection_times": "Mo-Sa 10:00", "nsi_id": "unitedstatespostalservice-a77078", "operator": "United States Postal Service", "operator:short": "USPS", "operator:type": "public", "operator:wikidata": "Q668687", "ref": "9140100021"}, "type": "Feature"}
{"geometry": {"coordinates": [-118.429055, 34.17483], "type": "Point"}, "id": "mIDgwow7Y-m4i20634ExZdeNFfI=", "properties": {"@source_uri": "https://tools.usps.com/UspsToolsRestServices/rest/POLocator/findLocations", "@spider": "usps_collection_boxes", "addr:city": "VAN NUYS", "addr:country": "US", "addr:postcode": "91401", "addr:state": "CA", "addr:street_address": "14400 CHANDLER BLVD", "amenity": "post_box", "collection_times": "Mo-Sa 10:00", "nsi_id": "unitedstatespostalservice-a77078", "operator": "United States Postal Service", "operator:short": "USPS", "operator:type": "public", "operator:wikidata": "Q668687", "ref": "9140100023"}, "type": "Feature"}
{"geometry": {"coordinates": [-118.422026, 34.174757], "type": "Point"}, "id": "LwaaIu_JuxmcdTHGN4s34KCADPA=", "properties": {"@source_uri": "https://tools.usps.com/UspsToolsRestServices/rest/POLocator/findLocations", "@spider": "usps_collection_boxes", "addr:city": "VAN NUYS", "addr:country": "US", "addr:postcode": "91401", "addr:state": "CA", "addr:street_address": "5800 FULTON AVE", "amenity": "post_box", "collection_times": "Mo-Fr 10:00", "nsi_id": "unitedstatespostalservice-a77078", "operator": "United States Postal Service", "operator:short": "USPS", "operator:type": "public", "operator:wikidata": "Q668687", "ref": "9140100036"}, "type": "Feature"}
{"geometry": {"coordinates": [-118.446483, 34.18257], "type": "Point"}, "id": "-eKCrSahp-X9BnT4YdQ_Ni1GiMk=", "properties": {"@source_uri": "https://tools.usps.com/UspsToolsRestServices/rest/POLocator/findLocations", "@spider": "usps_collection_boxes", "addr:city": "VAN NUYS", "addr:country": "US", "addr:postcode": "91401", "addr:state": "CA", "addr:street_address": "14399 DELANO ST", "amenity": "post_box", "collection_times": "Mo-Sa 10:00", "nsi_id": "unitedstatespostalservice-a77078", "operator": "United States Postal Service", "operator:short": "USPS", "operator:type": "public", "operator:wikidata": "Q668687", "ref": "9140100040"}, "type": "Feature"}
{"geometry": {"coordinates": [-118.448774, 34.17718], "type": "Point"}, "id": "3dAyEvezgrx6f5Uh3iK9lrRzQpw=", "properties": {"@source_uri": "https://tools.usps.com/UspsToolsRestServices/rest/POLocator/findLocations", "@spider": "usps_collection_boxes", "addr:city": "VAN NUYS", "addr:country": "US", "addr:postcode": "91401", "addr:state": "CA", "addr:street_address": "5855 VAN NUYS BLVD", "amenity": "post_box", "collection_times": "Mo-Fr 10:00", "nsi_id": "unitedstatespostalservice-a77078", "operator": "United States Postal Service", "operator:short": "USPS", "operator:type": "public", "operator:wikidata": "Q668687", "ref": "9140100043"}, "type": "Feature"}
{"geometry": {"coordinates": [-118.449189, 34.189902], "type": "Point"}, "id": "DQC8MQBdsuseHBNaawI2sq8DiVw=", "properties": {"@source_uri": "https://tools.usps.com/UspsToolsRestServices/rest/POLocator/findLocations", "@spider": "usps_collection_boxes", "addr:city": "VAN NUYS", "addr:country": "US", "addr:postcode": "91401", "addr:state": "CA", "addr:street_address": "6551 VAN NUYS BLVD", "amenity": "post_box", "collection_times": "Mo-Sa 15:00", "note": "ON 12/24 AND 12/31, THIS BOX MAY BE COLLECTED AS EARLY AS 12 NOON.", "nsi_id": "unitedstatespostalservice-a77078", "operator": "United States Postal Service", "operator:short": "USPS", "operator:type": "public", "operator:wikidata": "Q668687", "ref": "9140100045"}, "type": "Feature"}
{"geometry": {"coordinates": [-118.4487642046, 34.189524], "type": "Point"}, "id": "b8GZWBJopOyzhIqx9qVtZ5P241Q=", "properties": {"@source_uri": "https://tools.usps.com/UspsToolsRestServices/rest/POLocator/findLocations", "@spider": "usps_collection_boxes", "addr:city": "VAN NUYS", "addr:country": "US", "addr:postcode": "91401", "addr:state": "CA", "addr:street_address": "6531 VAN NUYS BLVD", "amenity": "post_box", "collection_times": "Mo-Sa 15:00", "indoor": "yes", "note": "ON 12/24 AND 12/31, THIS BOX MAY BE COLLECTED AS EARLY AS 12 NOON.", "nsi_id": "unitedstatespostalservice-a77078", "operator": "United States Postal Service", "operator:short": "USPS", "operator:type": "public", "operator:wikidata": "Q668687", "ref": "9140100092"}, "type": "Feature"}
{"geometry": {"coordinates": [-118.418089, 34.183163], "type": "Point"}, "id": "FOviPO-MQC_ToWrgmfkhe0yjTEE=", "properties": {"@source_uri": "https://tools.usps.com/UspsToolsRestServices/rest/POLocator/findLocations", "@spider": "usps_collection_boxes", "addr:city": "VAN NUYS", "addr:country": "US", "addr:postcode": "91401", "addr:state": "CA", "addr:street_address": "6200 ETHEL AVE", "amenity": "post_box", "collection_times": "Mo-Sa 10:00", "nsi_id": "unitedstatespostalservice-a77078", "operator": "United States Postal Service", "operator:short": "USPS", "operator:type": "public", "operator:wikidata": "Q668687", "ref": "9140100098"}, "type": "Feature"}
{"geometry": {"coordinates": [-118.4487087554, 34.1827466123], "type": "Point"}, "id": "tSENhEZ09fiapA4H0t0og-j0-5w=", "properties": {"@source_uri": "https://tools.usps.com/UspsToolsRestServices/rest/POLocator/findLocations", "@spider": "usps_collection_boxes", "addr:city": "VAN NUYS", "addr:country": "US", "addr:postcode": "91401", "addr:state": "CA", "addr:street_address": "6200 VAN NUYS BLVD", "amenity": "post_box", "collection_times": "Mo-Fr 10:00", "nsi_id": "unitedstatespostalservice-a77078", "operator": "United States Postal Service", "operator:short": "USPS", "operator:type": "public", "operator:wikidata": "Q668687", "ref": "9140100099"}, "type": "Feature"}
{"geometry": {"coordinates": [-118.4487642046, 34.189524], "type": "Point"}, "id": "GFxrbZCr4ThctPpNVHSa8b3UXKw=", "properties": {"@source_uri": "https://tools.usps.com/UspsToolsRestServices/rest/POLocator/findLocations", "@spider": "usps_collection_boxes", "addr:city": "VAN NUYS", "addr:country": "US", "addr:postcode": "91401", "addr:state": "CA", "addr:street_address": "6531 VAN NUYS BLVD", "amenity": "post_box", "collection_times": "Mo-Fr 15:00", "indoor": "yes", "note": "ON 12/24 AND 12/31, THIS BOX MAY BE COLLECTED AS EARLY AS 12 NOON.", "nsi_id": "unitedstatespostalservice-a77078", "operator": "United States Postal Service", "operator:short": "USPS", "operator:type": "public", "operator:wikidata": "Q668687", "ref": "9140100101"}, "type": "Feature"}
{"geometry": {"coordinates": [-118.4470603324, 34.2247245212], "type": "Point"}, "id": "aNluLb6Pul8dIbNV3gHUT_KG6NE=", "properties": {"@source_uri": "https://tools.usps.com/UspsToolsRestServices/rest/POLocator/findLocations", "@spider": "usps_collection_boxes", "addr:city": "PANORAMA CITY", "addr:country": "US", "addr:postcode": "91402", "addr:state": "CA", "addr:street_address": "14416 CHASE ST", "amenity": "post_box", "collection_times": "Mo-Sa 17:00", "indoor": "yes", "note": "ON 12/24 AND 12/31, THIS BOX MAY BE COLLECTED AS EARLY AS 12 NOON.", "nsi_id": "unitedstatespostalservice-a77078", "operator": "United States Postal Service", "operator:short": "USPS", "operator:type": "public", "operator:wikidata": "Q668687", "ref": "9140200060"}, "type": "Feature"}
{"geometry": {"coordinates": [-118.432738, 34.220603], "type": "Point"}, "id": "IdmV5wyg7eC392RsrBG6ZHkLpPg=", "properties": {"@source_uri": "https://tools.usps.com/UspsToolsRestServices/rest/POLocator/findLocations", "@spider": "usps_collection_boxes", "addr:city": "PANORAMA CITY", "addr:country": "US", "addr:postcode": "91402", "addr:state": "CA", "addr:street_address": "8231 WOODMAN AVE", "amenity": "post_box", "collection_times": "Mo-Sa 10:00", "nsi_id": "unitedstatespostalservice-a77078", "operator": "United States Postal Service", "operator:short": "USPS", "operator:type": "public", "operator:wikidata": "Q668687", "ref": "9140200065"}, "type": "Feature"}
{"geometry": {"coordinates": [-118.449225, 34.221012], "type": "Point"}, "id": "YbEhvLxtE6PkJCtdHyPT59W4EgA=", "properties": {"@source_uri": "https://tools.usps.com/UspsToolsRestServices/rest/POLocator/findLocations", "@spider": "usps_collection_boxes", "addr:city": "PANORAMA CITY", "addr:country": "US", "addr:postcode": "91402", "addr:state": "CA", "addr:street_address": "14500 ROSCOE BLVD", "amenity": "post_box", "collection_times": "Mo-Sa 10:00", "nsi_id": "unitedstatespostalservice-a77078", "operator": "United States Postal Service", "operator:short": "USPS", "operator:type": "public", "operator:wikidata": "Q668687", "ref": "9140200066"}, "type": "Feature"}
{"geometry": {"coordinates": [-118.45168, 34.223805], "type": "Point"}, "id": "gMr9yJeCowAPC0-4zij1icFG9PE=", "properties": {"@source_uri": "https://tools.usps.com/UspsToolsRestServices/rest/POLocator/findLocations", "@spider": "usps_collection_boxes", "addr:city": "PANORAMA CITY", "addr:country": "US", "addr:postcode": "91402", "addr:state": "CA", "addr:street_address": "14416 CHASE ST", "amenity": "post_box", "collection_times": "Mo-Fr 17:00; Sa 16:00", "note": "ON 12/24 AND 12/31, THIS BOX MAY BE COLLECTED AS EARLY AS 12 NOON.", "nsi_id": "unitedstatespostalservice-a77078", "operator": "United States Postal Service", "operator:short": "USPS", "operator:type": "public", "operator:wikidata": "Q668687", "ref": "9140200071"}, "type": "Feature"}
{"geometry": {"coordinates": [-118.4470603324, 34.2247245212], "type": "Point"}, "id": "CHPoDK39d_O5QDmUW30DQXmlf-g=", "properties": {"@source_uri": "https://tools.usps.com/UspsToolsRestServices/rest/POLocator/findLocations", "@spider": "usps_collection_boxes", "addr:city": "PANORAMA CITY", "addr:country": "US", "addr:postcode": "91402", "addr:state": "CA", "addr:street_address": "14416 CHASE ST", "amenity": "post_box", "collection_times": "Mo-Fr 17:00", "indoor": "yes", "note": "ON 12/24 AND 12/31, THIS BOX MAY BE COLLECTED AS EARLY AS 12 NOON.", "nsi_id": "unitedstatespostalservice-a77078", "operator": "United States Postal Service", "operator:short": "USPS", "operator:type": "public", "operator:wikidata": "Q668687", "ref": "9140200075"}, "type": "Feature"}
{"geometry": {"coordinates": [-118.4486377046, 34.150976643], "type": "Point"}, "id": "OcW4TYWNkZNDDrL4OpRSRpkUzqU=", "properties": {"@source_uri": "https://tools.usps.com/UspsToolsRestServices/rest/POLocator/findLocations", "@spider": "usps_collection_boxes", "addr:city": "SHERMAN OAKS", "addr:country": "US", "addr:postcode": "91403", "addr:state": "CA", "addr:street_address": "4400 VAN NUYS BLVD", "amenity": "post_box", "collection_times": "Mo-Sa 10:00", "nsi_id": "unitedstatespostalservice-a77078", "operator": "United States Postal Service", "operator:short": "USPS", "operator:type": "public", "operator:wikidata": "Q668687", "ref": "9140300017"}, "type": "Feature"}
{"geometry": {"coordinates": [-118.448562, 34.154179], "type": "Point"}, "id": "ifXJuTcbm9QdpD6c9gZiiCe57Lc=", "properties": {"@source_uri": "https://tools.usps.com/UspsToolsRestServices/rest/POLocator/findLocations", "@spider": "usps_collection_boxes", "addr:city": "SHERMAN OAKS", "addr:country": "US", "addr:postcode": "91403", "addr:state": "CA", "addr:street_address": "4520 VAN NUYS BLVD", "amenity": "post_box", "collection_times": "Mo-Sa 10:00", "nsi_id": "unitedstatespostalservice-a77078", "operator": "United States Postal Service", "operator:short": "USPS", "operator:type": "public", "operator:wikidata": "Q668687", "ref": "9140300018"}, "type": "Feature"}
{"geometry": {"coordinates": [-118.470117, 34.154553], "type": "Point"}, "id": "EsSN84skg4begIoLVzVKPHl6LE0=", "properties": {"@source_uri": "https://tools.usps.com/UspsToolsRestServices/rest/POLocator/findLocations", "@spider": "usps_collection_boxes", "addr:city": "SHERMAN OAKS", "addr:country": "US", "addr:postcode": "91403", "addr:state": "CA", "addr:street_address": "15445 VENTURA BLVD", "amenity": "post_box", "collection_times": "Mo-Fr 10:00", "nsi_id": "unitedstatespostalservice-a77078", "operator": "United States Postal Service", "operator:short": "USPS", "operator:type": "public", "operator:wikidata": "Q668687", "ref": "9140300020"}, "type": "Feature"}
{"geometry": {"coordinates": [-118.448834, 34.159282], "type": "Point"}, "id": "RvElzGM3g5B8Fg79ok_bwGcHcNg=", "properties": {"@source_uri": "https://tools.usps.com/UspsToolsRestServices/rest/POLocator/findLocations", "@spider": "usps_collection_boxes", "addr:city": "SHERMAN OAKS", "addr:country": "US", "addr:postcode": "91403", "addr:state": "CA", "addr:street_address": "4849 VAN NUYS BLVD", "amenity": "post_box", "collection_times": "Mo-Sa 10:00", "nsi_id": "unitedstatespostalservice-a77078", "operator": "United States Postal Service", "operator:short": "USPS", "operator:type": "public", "operator:wikidata": "Q668687", "ref": "9140300023"}, "type": "Feature"}
{"geometry": {"coordinates": [-118.44902004, 34.152183008], "type": "Point"}, "id": "BDAIpzyVvz2mrUVZkaGlT8CoFXY=", "properties": {"@source_uri": "https://tools.usps.com/UspsToolsRestServices/rest/POLocator/findLocations", "@spider": "usps_collection_boxes", "addr:city": "SHERMAN OAKS", "addr:country": "US", "addr:postcode": "91403", "addr:state": "CA", "addr:street_address": "4441 VAN NUYS BLVD", "amenity": "post_box", "collection_times": "Mo-Sa 10:00", "nsi_id": "unitedstatespostalservice-a77078", "operator": "United States Postal Service", "operator:short": "USPS", "operator:type": "public", "operator:wikidata": "Q668687", "ref": "9140300024"}, "type": "Feature"}
{"geometry": {"coordinates": [-118.453591, 34.151863], "type": "Point"}, "id": "IVLUKsGS8LfIq8dDoy86A7uTsWE=", "properties": {"@source_uri": "https://tools.usps.com/UspsToolsRestServices/rest/POLocator/findLocations", "@spider": "usps_collection_boxes", "addr:city": "SHERMAN OAKS", "addr:country": "US", "addr:postcode": "91403", "addr:state": "CA", "addr:street_address": "14701 VENTURA BLVD", "amenity": "post_box", "collection_times": "Mo-Sa 10:00", "nsi_id": "unitedstatespostalservice-a77078", "operator": "United States Postal Service", "operator:short": "USPS", "operator:type": "public", "operator:wikidata": "Q668687", "ref": "9140300027"}, "type": "Feature"}
{"geometry": {"coordinates": [-118.464385, 34.154505], "type": "Point"}, "id": "CMuUEI9syszbiQ11V59VVaVrg00=", "properties": {"@source_uri": "https://tools.usps.com/UspsToolsRestServices/rest/POLocator/findLocations", "@spider": "usps_collection_boxes", "addr:city": "SHERMAN OAKS", "addr:country": "US", "addr:postcode": "91403", "addr:state": "CA", "addr:street_address": "14500 DICKENS ST", "amenity": "post_box", "collection_times": "Mo-Sa 10:00", "nsi_id": "unitedstatespostalservice-a77078", "operator": "United States Postal Service", "operator:short": "USPS", "operator:type": "public", "operator:wikidata": "Q668687", "ref": "9140300033"}, "type": "Feature"}
{"geometry": {"coordinates": [-118.467315, 34.15], "type": "Point"}, "id": "-oZD051BfNYjB95m2RPqjK6EOeU=", "properties": {"@source_uri": "https://tools.usps.com/UspsToolsRestServices/rest/POLocator/findLocations", "@spider": "usps_collection_boxes", "addr:city": "SHERMAN OAKS", "addr:country": "US", "addr:postcode": "91403", "addr:state": "CA", "addr:street_address": "15299 SUTTON ST", "amenity": "post_box", "collection_times": "Mo-Sa 10:00", "nsi_id": "unitedstatespostalservice-a77078", "operator": "United States Postal Service", "operator:short": "USPS", "operator:type": "public", "operator:wikidata": "Q668687", "ref": "9140300047"}, "type": "Feature"}
{"geometry": {"coordinates": [-118.448733, 34.16147], "type": "Point"}, "id": "xqffRQkX1Vz_TbekCq9n54nU-3c=", "properties": {"@source_uri": "https://tools.usps.com/UspsToolsRestServices/rest/POLocator/findLocations", "@spider": "usps_collection_boxes", "addr:city": "SHERMAN OAKS", "addr:country": "US", "addr:postcode": "91403", "addr:state": "CA", "addr:street_address": "5005 VAN NUYS BLVD", "amenity": "post_box", "collection_times": "Mo-Fr 10:00", "nsi_id": "unitedstatespostalservice-a77078", "operator": "United States Postal Service", "operator:short": "USPS", "operator:type": "public", "operator:wikidata": "Q668687", "ref": "9140300056"}, "type": "Feature"}
{"geometry": {"coordinates": [-118.462712, 34.15326], "type": "Point"}, "id": "I3aIMLZOamL9fjWVYLrdzXIslpk=", "properties": {"@source_uri": "https://tools.usps.com/UspsToolsRestServices/rest/POLocator/findLocations", "@spider": "usps_collection_boxes", "addr:city": "SHERMAN OAKS", "addr:country": "US", "addr:postcode": "91403", "addr:state": "CA", "addr:street_address": "15130 VENTURA BLVD", "amenity": "post_box", "collection_times": "Mo-Sa 10:00", "nsi_id": "unitedstatespostalservice-a77078", "operator": "United States Postal Service", "operator:short": "USPS", "operator:type": "public", "operator:wikidata": "Q668687", "ref": "9140300063"}, "type": "Feature"}
{"geometry": {"coordinates": [-118.448594, 34.165108], "type": "Point"}, "id": "9NZF1Lj3PMx2XbidzQu2xj2ZQkk=", "properties": {"@source_uri": "https://tools.usps.com/UspsToolsRestServices/rest/POLocator/findLocations", "@spider": "usps_collection_boxes", "addr:city": "SHERMAN OAKS", "addr:country": "US", "addr:postcode": "91403", "addr:state": "CA", "addr:street_address": "5200 VAN NUYS BLVD", "amenity": "post_box", "collection_times": "Mo-Fr 10:00", "name": "USPS COLLECTION BOX - EXPRESS", "nsi_id": "unitedstatespostalservice-a77078", "operator": "United States Postal Service", "operator:short": "USPS", "operator:type": "public", "operator:wikidata": "Q668687", "ref": "9140300068"}, "type": "Feature"}
{"geometry": {"coordinates": [-118.463625004, 34.153572979], "type": "Point"}, "id": "8CY9pwiGcMV_Q-j_L8a_F5IityQ=", "properties": {"@source_uri": "https://tools.usps.com/UspsToolsRestServices/rest/POLocator/findLocations", "@spider": "usps_collection_boxes", "addr:city": "SHERMAN OAKS", "addr:country": "US", "addr:postcode": "91403", "addr:state": "CA", "addr:street_address": "15165 VENTURA BLVD", "amenity": "post_box", "collection_times": "Mo-Sa 10:00", "nsi_id": "unitedstatespostalservice-a77078", "operator": "United States Postal Service", "operator:short": "USPS", "operator:type": "public", "operator:wikidata": "Q668687", "ref": "9140300123"}, "type": "Feature"}
{"geometry": {"coordinates": [-118.466226, 34.1539], "type": "Point"}, "id": "L1kH9GlTFtidN7cVZILy_FqGCxs=", "properties": {"@source_uri": "https://tools.usps.com/UspsToolsRestServices/rest/POLocator/findLocations", "@spider": "usps_collection_boxes", "addr:city": "SHERMAN OAKS", "addr:country": "US", "addr:postcode": "91403", "addr:state": "CA", "addr:street_address": "4601 SEPULVEDA BLVD", "amenity": "post_box", "collection_times": "Mo-Fr 10:00", "nsi_id": "unitedstatespostalservice-a77078", "operator": "United States Postal Service", "operator:short": "USPS", "operator:type": "public", "operator:wikidata": "Q668687", "ref": "9140300125"}, "type": "Feature"}
{"geometry": {"coordinates": [-118.458283, 34.164492], "type": "Point"}, "id": "GOX3Sms9GWFC-tf71gdxCh-3GpU=", "properties": {"@source_uri": "https://tools.usps.com/UspsToolsRestServices/rest/POLocator/findLocations", "@spider": "usps_collection_boxes", "addr:city": "SHERMAN OAKS", "addr:country": "US", "addr:postcode": "91403", "addr:state": "CA", "addr:street_address": "14900 MAGNOLIA BLVD", "amenity": "post_box", "collection_times": "Mo-Fr 17:00; Sa 16:00", "name": "USPS COLLECTION BOX - APC", "note": "ON 12/24 AND 12/31, THIS BOX MAY BE COLLECTED AS EARLY AS 12 NOON.", "nsi_id": "unitedstatespostalservice-a77078", "operator": "United States Postal Service", "operator:short": "USPS", "operator:type": "public", "operator:wikidata": "Q668687", "ref": "9140300130"}, "type": "Feature"}
{"geometry": {"coordinates": [-118.465106, 34.153668], "type": "Point"}, "id": "PjpqcOM7G0SYlIlGdIF7T851CZM=", "properties": {"@source_uri": "https://tools.usps.com/UspsToolsRestServices/rest/POLocator/findLocations", "@spider": "usps_collection_boxes", "addr:city": "SHERMAN OAKS", "addr:country": "US", "addr:postcode": "91403", "addr:state": "CA", "addr:street_address": "15233 VENTURA BLVD", "amenity": "post_box", "collection_times": "Mo-Fr 10:00", "nsi_id": "unitedstatespostalservice-a77078", "operator": "United States Postal Service", "operator:short": "USPS", "operator:type": "public", "operator:wikidata": "Q668687", "ref": "9140300133"}, "type": "Feature"}
{"geometry": {"coordinates": [-118.469009, 34.153349], "type": "Point"}, "id": "JQM0yngBiz6novAQZYimdkgzkQE=", "properties": {"@source_uri": "https://tools.usps.com/UspsToolsRestServices/rest/POLocator/findLocations", "@spider": "usps_collection_boxes", "addr:city": "SHERMAN OAKS", "addr:country": "US", "addr:postcode": "91403", "addr:state": "CA", "addr:street_address": "4554 SHERMAN OAKS AVE", "amenity": "post_box", "collection_times": "Mo-Sa 10:00", "nsi_id": "unitedstatespostalservice-a77078", "operator": "United States Postal Service", "operator:short": "USPS", "operator:type": "public", "operator:wikidata": "Q668687", "ref": "9140300135"}, "type": "Feature"}
{"geometry": {"coordinates": [-118.458283, 34.164492], "type": "Point"}, "id": "p9hrzZ7cXE222k-b6xKszd89GOM=", "properties": {"@source_uri": "https://tools.usps.com/UspsToolsRestServices/rest/POLocator/findLocations", "@spider": "usps_collection_boxes", "addr:city": "SHERMAN OAKS", "addr:country": "US", "addr:postcode": "91403", "addr:state": "CA", "addr:street_address": "14900 MAGNOLIA BLVD", "amenity": "post_box", "collection_times": "Mo-Fr 17:00; Sa 16:00", "indoor": "yes", "note": "ON 12/24 AND 12/31, THIS BOX MAY BE COLLECTED AS EARLY AS 12 NOON.", "nsi_id": "unitedstatespostalservice-a77078", "operator": "United States Postal Service", "operator:short": "USPS", "operator:type": "public", "operator:wikidata": "Q668687", "ref": "9140300139"}, "type": "Feature"}
{"geometry": {"coordinates": [-118.458283, 34.164492], "type": "Point"}, "id": "hmjrxFefjuaNivgMQh6w3Rqm3yA=", "properties": {"@source_uri": "https://tools.usps.com/UspsToolsRestServices/rest/POLocator/findLocations", "@spider": "usps_collection_boxes", "addr:city": "SHERMAN OAKS", "addr:country": "US", "addr:postcode": "91403", "addr:state": "CA", "addr:street_address": "14900 MAGNOLIA BLVD", "amenity": "post_box", "collection_times": "Mo-Fr 17:00; Sa 16:00", "note": "ON 12/24 AND 12/31, THIS BOX MAY BE COLLECTED AS EARLY AS 12 NOON.", "nsi_id": "unitedstatespostalservice-a77078", "operator": "United States Postal Service", "operator:short": "USPS", "operator:type": "public", "operator:wikidata": "Q668687", "ref": "9140300140"}, "type": "Feature"}
{"geometry": {"coordinates": [-118.4580305255, 34.1648174951], "type": "Point"}, "id": "9ppPh7oUnDbqWtulYz68jACt6Bo=", "properties": {"@source_uri": "https://tools.usps.com/UspsToolsRestServices/rest/POLocator/findLocations", "@spider": "usps_collection_boxes", "addr:city": "SHERMAN OAKS", "addr:country": "US", "addr:postcode": "91403", "addr:state": "CA", "addr:street_address": "14900 MAGNOLIA BLVD", "amenity": "post_box", "collection_times": "Mo-Fr 17:30", "indoor": "yes", "note": "ON 12/24 AND 12/31, THIS BOX MAY BE COLLECTED AS EARLY AS 12 NOON.", "nsi_id": "unitedstatespostalservice-a77078", "operator": "United States Postal Service", "operator:short": "USPS", "operator:type": "public", "operator:wikidata": "Q668687", "ref": "9140300152"}, "type": "Feature"}
{"geometry": {"coordinates": [-118.471672972, 34.154536018], "type": "Point"}, "id": "6HzRb5Ff6_lm1h14KmazVSP9mi8=", "properties": {"@source_uri": "https://tools.usps.com/UspsToolsRestServices/rest/POLocator/findLocations", "@spider": "usps_collection_boxes", "addr:city": "SHERMAN OAKS", "addr:country": "US", "addr:postcode": "91403", "addr:state": "CA", "addr:street_address": "15490 VENTURA BLVD", "amenity": "post_box", "collection_times": "Mo-Fr 10:00", "nsi_id": "unitedstatespostalservice-a77078", "operator": "United States Postal Service", "operator:short": "USPS", "operator:type": "public", "operator:wikidata": "Q668687", "ref": "9140300153"}, "type": "Feature"}
{"geometry": {"coordinates": [-118.450805, 34.192915], "type": "Point"}, "id": "GY6SFEBpzGbna2Bv_YD5_yUWx1U=", "properties": {"@source_uri": "https://tools.usps.com/UspsToolsRestServices/rest/POLocator/findLocations", "@spider": "usps_collection_boxes", "addr:city": "VAN NUYS", "addr:country": "US", "addr:postcode": "91405", "addr:state": "CA", "addr:street_address": "14549 ARCHWOOD ST", "amenity": "post_box", "collection_times": "Mo-Sa 10:00", "nsi_id": "unitedstatespostalservice-a77078", "operator": "United States Postal Service", "operator:short": "USPS", "operator:type": "public", "operator:wikidata": "Q668687", "ref": "9140500013"}, "type": "Feature"}
{"geometry": {"coordinates": [-118.49489998, 34.200731997], "type": "Point"}, "id": "VhjXDaaiqdm-tyc9XNe5vw6MvD8=", "properties": {"@source_uri": "https://tools.usps.com/UspsToolsRestServices/rest/POLocator/findLocations", "@spider": "usps_collection_boxes", "addr:city": "VAN NUYS", "addr:country": "US", "addr:postcode": "91406", "addr:state": "CA", "addr:street_address": "16600 SHERMAN WAY", "amenity": "post_box", "collection_times": "Mo-Sa 10:00", "nsi_id": "unitedstatespostalservice-a77078", "operator": "United States Postal Service", "operator:short": "USPS", "operator:type": "public", "operator:wikidata": "Q668687", "ref": "9140600018"}, "type": "Feature"}
{"geometry": {"coordinates": [-118.49869, 34.20122], "type": "Point"}, "id": "MdB_PML3X_VNOPGdNTyo-ZcW7qg=", "properties": {"@source_uri": "https://tools.usps.com/UspsToolsRestServices/rest/POLocator/findLocations", "@spider": "usps_collection_boxes", "addr:city": "VAN NUYS", "addr:country": "US", "addr:postcode": "91406", "addr:state": "CA", "addr:street_address": "16380 ROSCOE BLVD", "amenity": "post_box", "collection_times": "Mo-Sa 10:00", "nsi_id": "unitedstatespostalservice-a77078", "operator": "United States Postal Service", "operator:short": "USPS", "operator:type": "public", "operator:wikidata": "Q668687", "ref": "9140600051"}, "type": "Feature"}
{"geometry": {"coordinates": [-118.4845555, 34.202992], "type": "Point"}, "id": "78QbBOkWgkDZwR0dyOMbbX-74_0=", "properties": {"@source_uri": "https://tools.usps.com/UspsToolsRestServices/rest/POLocator/findLocations", "@spider": "usps_collection_boxes", "addr:city": "VAN NUYS", "addr:country": "US", "addr:postcode": "91406", "addr:state": "CA", "addr:street_address": "15400 SHERMAN WAY", "amenity": "post_box", "collection_times": "Mo-Sa 10:00", "nsi_id": "unitedstatespostalservice-a77078", "operator": "United States Postal Service", "operator:short": "USPS", "operator:type": "public", "operator:wikidata": "Q668687", "ref": "9140600052"}, "type": "Feature"}
{"geometry": {"coordinates": [-118.492845, 34.20132], "type": "Point"}, "id": "4mRQidGwMuWOaYUCGhQdD9ZhB2c=", "properties": {"@source_uri": "https://tools.usps.com/UspsToolsRestServices/rest/POLocator/findLocations", "@spider": "usps_collection_boxes", "addr:city": "VAN NUYS", "addr:country": "US", "addr:postcode": "91406", "addr:state": "CA", "addr:street_address": "16501 SHERMAN WAY", "amenity": "post_box", "collection_times": "Mo-Sa 10:00", "nsi_id": "unitedstatespostalservice-a77078", "operator": "United States Postal Service", "operator:short": "USPS", "operator:type": "public", "operator:wikidata": "Q668687", "ref": "9140600060"}, "type": "Feature"}
{"geometry": {"coordinates": [-118.492349, 34.199022], "type": "Point"}, "id": "vI_enMDhGZ_JwXD8UM-D2lgp9i0=", "properties": {"@source_uri": "https://tools.usps.com/UspsToolsRestServices/rest/POLocator/findLocations", "@spider": "usps_collection_boxes", "addr:city": "VAN NUYS", "addr:country": "US", "addr:postcode": "91406", "addr:state": "CA", "addr:street_address": "7100 HAYVENHURST AVE", "amenity": "post_box", "collection_times": "Mo-Sa 10:00", "nsi_id": "unitedstatespostalservice-a77078", "operator": "United States Postal Service", "operator:short": "USPS", "operator:type": "public", "operator:wikidata": "Q668687", "ref": "9140600061"}, "type": "Feature"}
{"geometry": {"coordinates": [-118.474962125, 34.201329125], "type": "Point"}, "id": "HB8poDyQ3IkAjgV3-kj0ufHmbmU=", "properties": {"@source_uri": "https://tools.usps.com/UspsToolsRestServices/rest/POLocator/findLocations", "@spider": "usps_collection_boxes", "addr:city": "VAN NUYS", "addr:country": "US", "addr:postcode": "91406", "addr:state": "CA", "addr:street_address": "15701 SHERMAN WAY", "amenity": "post_box", "collection_times": "Mo-Fr 18:00", "indoor": "yes", "note": "ON 12/24 AND 12/31, THIS BOX MAY BE COLLECTED AS EARLY AS 12 NOON.", "nsi_id": "unitedstatespostalservice-a77078", "operator": "United States Postal Service", "operator:short": "USPS", "operator:type": "public", "operator:wikidata": "Q668687", "ref": "9140600066"}, "type": "Feature"}
{"geometry": {"coordinates": [-118.508575627, 34.211983264], "type": "Point"}, "id": "5ePT3GLe-qJ1VNCtgEf963GiLCM=", "properties": {"@source_uri": "https://tools.usps.com/UspsToolsRestServices/rest/POLocator/findLocations", "@spider": "usps_collection_boxes", "addr:city": "VAN NUYS", "addr:country": "US", "addr:postcode": "91406", "addr:state": "CA", "addr:street_address": "17200 STAGG ST", "amenity": "post_box", "collection_times": "Mo-Sa 10:00", "nsi_id": "unitedstatespostalservice-a77078", "operator": "United States Postal Service", "operator:short": "USPS", "operator:type": "public", "operator:wikidata": "Q668687", "ref": "9140600067"}, "type": "Feature"}
{"geometry": {"coordinates": [-118.49869, 34.20122], "type": "Point"}, "id": "6JlsR9KjlCoIINRd_TWQP0B8bEc=", "properties": {"@source_uri": "https://tools.usps.com/UspsToolsRestServices/rest/POLocator/findLocations", "@spider": "usps_collection_boxes", "addr:city": "VAN NUYS", "addr:country": "US", "addr:postcode": "91406", "addr:state": "CA", "addr:street_address": "8002 ALDEA AVE", "amenity": "post_box", "collection_times": "Mo-Sa 10:00", "nsi_id": "unitedstatespostalservice-a77078", "operator": "United States Postal Service", "operator:short": "USPS", "operator:type": "public", "operator:wikidata": "Q668687", "ref": "9140600068"}, "type": "Feature"}
{"geometry": {"coordinates": [-118.4920679864, 34.200017985], "type": "Point"}, "id": "AWsEt5_he2-IsFkNA09oADCaTmk=", "properties": {"@source_uri": "https://tools.usps.com/UspsToolsRestServices/rest/POLocator/findLocations", "@spider": "usps_collection_boxes", "addr:city": "VAN NUYS", "addr:country": "US", "addr:postcode": "91406", "addr:state": "CA", "addr:street_address": "7120 HAYVENHURST AVE", "amenity": "post_box", "collection_times": "Mo-Sa 10:00", "nsi_id": "unitedstatespostalservice-a77078", "operator": "United States Postal Service", "operator:short": "USPS", "operator:type": "public", "operator:wikidata": "Q668687", "ref": "9140600069"}, "type": "Feature"}
{"geometry": {"coordinates": [-118.477905, 34.201414], "type": "Point"}, "id": "j5fQduyiMDoQSQIzPPmh32HH98s=", "properties": {"@source_uri": "https://tools.usps.com/UspsToolsRestServices/rest/POLocator/findLocations", "@spider": "usps_collection_boxes", "addr:city": "VAN NUYS", "addr:country": "US", "addr:postcode": "91409", "addr:state": "CA", "addr:street_address": "15701 SHERMAN WAY", "amenity": "post_box", "collection_times": "Mo-Sa 18:30", "note": "ON 12/24 AND 12/31, THIS BOX MAY BE COLLECTED AS EARLY AS 12 NOON.", "nsi_id": "unitedstatespostalservice-a77078", "operator": "United States Postal Service", "operator:short": "USPS", "operator:type": "public", "operator:wikidata": "Q668687", "ref": "9140900002"}, "type": "Feature"}
{"geometry": {"coordinates": [-118.476081, 34.201641], "type": "Point"}, "id": "lu8ZerlO4uO48aMbxkWIdr2njL8=", "properties": {"@source_uri": "https://tools.usps.com/UspsToolsRestServices/rest/POLocator/findLocations", "@spider": "usps_collection_boxes", "addr:city": "VAN NUYS", "addr:country": "US", "addr:postcode": "91409", "addr:state": "CA", "addr:street_address": "15701 SHERMAN WAY", "amenity": "post_box", "collection_times": "Mo-Sa 18:00", "indoor": "yes", "note": "ON 12/24 AND 12/31, THIS BOX MAY BE COLLECTED AS EARLY AS 12 NOON.", "nsi_id": "unitedstatespostalservice-a77078", "operator": "United States Postal Service", "operator:short": "USPS", "operator:type": "public", "operator:wikidata": "Q668687", "ref": "9140900008"}, "type": "Feature"}
{"geometry": {"coordinates": [-118.47619, 34.20131], "type": "Point"}, "id": "0cnRt6AZUjjNMWBBqDoKPATt_B8=", "properties": {"@source_uri": "https://tools.usps.com/UspsToolsRestServices/rest/POLocator/findLocations", "@spider": "usps_collection_boxes", "addr:city": "VAN NUYS", "addr:country": "US", "addr:postcode": "91409", "addr:state": "CA", "addr:street_address": "15701 SHERMAN WAY", "amenity": "post_box", "collection_times": "Mo-Sa 18:00", "name": "USPS COLLECTION BOX - APC", "note": "ON 12/24 AND 12/31, THIS BOX MAY BE COLLECTED AS EARLY AS 12 NOON.", "nsi_id": "unitedstatespostalservice-a77078", "operator": "United States Postal Service", "operator:short": "USPS", "operator:type": "public", "operator:wikidata": "Q668687", "ref": "9140900010"}, "type": "Feature"}
{"geometry": {"coordinates": [-118.474962125, 34.201329125], "type": "Point"}, "id": "CmEPvms-2Wgpf6CZgZ-b-RUJa4k=", "properties": {"@source_uri": "https://tools.usps.com/UspsToolsRestServices/rest/POLocator/findLocations", "@spider": "usps_collection_boxes", "addr:city": "VAN NUYS", "addr:country": "US", "addr:postcode": "91409", "addr:state": "CA", "addr:street_address": "15701 SHERMAN WAY", "amenity": "post_box", "collection_times": "Mo-Sa 18:00", "indoor": "yes", "note": "ON 12/24 AND 12/31, THIS BOX MAY BE COLLECTED AS EARLY AS 12 NOON.", "nsi_id": "unitedstatespostalservice-a77078", "operator": "United States Postal Service", "operator:short": "USPS", "operator:type": "public", "operator:wikidata": "Q668687", "ref": "9140900011"}, "type": "Feature"}
{"geometry": {"coordinates": [-118.4418199856, 34.1493720115], "type": "Point"}, "id": "9_ox5ZurCARKSVCqaSrnihAollA=", "properties": {"@source_uri": "https://tools.usps.com/UspsToolsRestServices/rest/POLocator/findLocations", "@spider": "usps_collection_boxes", "addr:city": "SHERMAN OAKS", "addr:country": "US", "addr:postcode": "91423", "addr:state": "CA", "addr:street_address": "14144 VENTURA BLVD", "amenity": "post_box", "collection_times": "Mo-Sa 10:00", "nsi_id": "unitedstatespostalservice-a77078", "operator": "United States Postal Service", "operator:short": "USPS", "operator:type": "public", "operator:wikidata": "Q668687", "ref": "9142300002"}, "type": "Feature"}
{"geometry": {"coordinates": [-118.422679, 34.146499], "type": "Point"}, "id": "iBdvG_m3iXXkz7wobclGs_h7qvY=", "properties": {"@source_uri": "https://tools.usps.com/UspsToolsRestServices/rest/POLocator/findLocations", "@spider": "usps_collection_boxes", "addr:city": "SHERMAN OAKS", "addr:country": "US", "addr:postcode": "91423", "addr:state": "CA", "addr:street_address": "13300 VENTURA BLVD", "amenity": "post_box", "collection_times": "Mo-Fr 10:00", "nsi_id": "unitedstatespostalservice-a77078", "operator": "United States Postal Service", "operator:short": "USPS", "operator:type": "public", "operator:wikidata": "Q668687", "ref": "9142300006"}, "type": "Feature"}
{"geometry": {"coordinates": [-118.42463, 34.157148], "type": "Point"}, "id": "BWsTHxTFnu2D6ZpT2Dxld42_eFU=", "properties": {"@source_uri": "https://tools.usps.com/UspsToolsRestServices/rest/POLocator/findLocations", "@spider": "usps_collection_boxes", "addr:city": "SHERMAN OAKS", "addr:country": "US", "addr:postcode": "91423", "addr:state": "CA", "addr:street_address": "13400 RIVERSIDE DR", "amenity": "post_box", "collection_times": "Mo-Fr 10:00", "nsi_id": "unitedstatespostalservice-a77078", "operator": "United States Postal Service", "operator:short": "USPS", "operator:type": "public", "operator:wikidata": "Q668687", "ref": "9142300014"}, "type": "Feature"}
{"geometry": {"coordinates": [-118.440104, 34.164606], "type": "Point"}, "id": "ifEZKxfhNmkWI6kbOw8O7iZvRpc=", "properties": {"@source_uri": "https://tools.usps.com/UspsToolsRestServices/rest/POLocator/findLocations", "@spider": "usps_collection_boxes", "addr:city": "SHERMAN OAKS", "addr:country": "US", "addr:postcode": "91423", "addr:state": "CA", "addr:street_address": "5200 HAZELTINE AVE", "amenity": "post_box", "collection_times": "Mo-Sa 10:00", "nsi_id": "unitedstatespostalservice-a77078", "operator": "United States Postal Service", "operator:short": "USPS", "operator:type": "public", "operator:wikidata": "Q668687", "ref": "9142300016"}, "type": "Feature"}
{"geometry": {"coordinates": [-118.438236, 34.149316], "type": "Point"}, "id": "exkiNMTmdf0miCd8lhw9wEPiJgI=", "properties": {"@source_uri": "https://tools.usps.com/UspsToolsRestServices/rest/POLocator/findLocations", "@spider": "usps_collection_boxes", "addr:city": "SHERMAN OAKS", "addr:country": "US", "addr:postcode": "91423", "addr:state": "CA", "addr:street_address": "14025 VENTURA BLVD", "amenity": "post_box", "collection_times": "Mo-Sa 10:00", "nsi_id": "unitedstatespostalservice-a77078", "operator": "United States Postal Service", "operator:short": "USPS", "operator:type": "public", "operator:wikidata": "Q668687", "ref": "9142300017"}, "type": "Feature"}
{"geometry": {"coordinates": [-118.4137307081, 34.1652927606], "type": "Point"}, "id": "vI7_Cq3MQ5OlzTmFcgyTD9mgqFY=", "properties": {"@source_uri": "https://tools.usps.com/UspsToolsRestServices/rest/POLocator/findLocations", "@spider": "usps_collection_boxes", "addr:city": "SHERMAN OAKS", "addr:country": "US", "addr:postcode": "91423", "addr:state": "CA", "addr:street_address": "5200 COLDWATER CANYON AVE", "amenity": "post_box", "collection_times": "Mo-Sa 10:00", "nsi_id": "unitedstatespostalservice-a77078", "operator": "United States Postal Service", "operator:short": "USPS", "operator:type": "public", "operator:wikidata": "Q668687", "ref": "9142300018"}, "type": "Feature"}
{"geometry": {"coordinates": [-118.443129, 34.157732], "type": "Point"}, "id": "rkKx1uhHdCT270Qnh8OG7Q9-q2A=", "properties": {"@source_uri": "https://tools.usps.com/UspsToolsRestServices/rest/POLocator/findLocations", "@spider": "usps_collection_boxes", "addr:city": "SHERMAN OAKS", "addr:country": "US", "addr:postcode": "91423", "addr:state": "CA", "addr:street_address": "4800 KATHERINE AVE", "amenity": "post_box", "collection_times": "Mo-Sa 10:00", "nsi_id": "unitedstatespostalservice-a77078", "operator": "United States Postal Service", "operator:short": "USPS", "operator:type": "public", "operator:wikidata": "Q668687", "ref": "9142300024"}, "type": "Feature"}
{"geometry": {"coordinates": [-118.431512, 34.150472], "type": "Point"}, "id": "tiMMhN1tV67YK7qGpMsdAXt95BI=", "properties": {"@source_uri": "https://tools.usps.com/UspsToolsRestServices/rest/POLocator/findLocations", "@spider": "usps_collection_boxes", "addr:city": "SHERMAN OAKS", "addr:country": "US", "addr:postcode": "91423", "addr:state": "CA", "addr:street_address": "13700 MOORPARK ST", "amenity": "post_box", "collection_times": "Mo-Sa 10:00", "nsi_id": "unitedstatespostalservice-a77078", "operator": "United States Postal Service", "operator:short": "USPS", "operator:type": "public", "operator:wikidata": "Q668687", "ref": "9142300028"}, "type": "Feature"}
{"geometry": {"coordinates": [-118.438412, 34.149131], "type": "Point"}, "id": "LBtsUx6fHCMgIHzfO7q1ifCeXck=", "properties": {"@source_uri": "https://tools.usps.com/UspsToolsRestServices/rest/POLocator/findLocations", "@spider": "usps_collection_boxes", "addr:city": "SHERMAN OAKS", "addr:country": "US", "addr:postcode": "91423", "addr:state": "CA", "addr:street_address": "14050 VENTURA BLVD", "amenity": "post_box", "collection_times": "Mo-Fr 12:00", "nsi_id": "unitedstatespostalservice-a77078", "operator": "United States Postal Service", "operator:short": "USPS", "operator:type": "public", "operator:wikidata": "Q668687", "ref": "9142300031"}, "type": "Feature"}
{"geometry": {"coordinates": [-118.427188, 34.147481], "type": "Point"}, "id": "bRuINCz5eYZokJ5eENiet9XImtk=", "properties": {"@source_uri": "https://tools.usps.com/UspsToolsRestServices/rest/POLocator/findLocations", "@spider": "usps_collection_boxes", "addr:city": "SHERMAN OAKS", "addr:country": "US", "addr:postcode": "91423", "addr:state": "CA", "addr:street_address": "13501 VENTURA BLVD", "amenity": "post_box", "collection_times": "Mo-Sa 10:00", "nsi_id": "unitedstatespostalservice-a77078", "operator": "United States Postal Service", "operator:short": "USPS", "operator:type": "public", "operator:wikidata": "Q668687", "ref": "9142300035"}, "type": "Feature"}
{"geometry": {"coordinates": [-118.438178, 34.152974], "type": "Point"}, "id": "FNolOnEztrFHdtmyovawg1lLu7E=", "properties": {"@source_uri": "https://tools.usps.com/UspsToolsRestServices/rest/POLocator/findLocations", "@spider": "usps_collection_boxes", "addr:city": "SHERMAN OAKS", "addr:country": "US", "addr:postcode": "91423", "addr:state": "CA", "addr:street_address": "4488 MURIETTA AVE", "amenity": "post_box", "collection_times": "Mo-Sa 10:00", "nsi_id": "unitedstatespostalservice-a77078", "operator": "United States Postal Service", "operator:short": "USPS", "operator:type": "public", "operator:wikidata": "Q668687", "ref": "9142300036"}, "type": "Feature"}
{"geometry": {"coordinates": [-118.41414, 34.15755], "type": "Point"}, "id": "2xAPHMQm78Cz0ZDg5_ycLEYX2tM=", "properties": {"@source_uri": "https://tools.usps.com/UspsToolsRestServices/rest/POLocator/findLocations", "@spider": "usps_collection_boxes", "addr:city": "SHERMAN OAKS", "addr:country": "US", "addr:postcode": "91423", "addr:state": "CA", "addr:street_address": "12900 RIVERSIDE DR", "amenity": "post_box", "collection_times": "Mo-Fr 10:00", "nsi_id": "unitedstatespostalservice-a77078", "operator": "United States Postal Service", "operator:short": "USPS", "operator:type": "public", "operator:wikidata": "Q668687", "ref": "9142300038"}, "type": "Feature"}
{"geometry": {"coordinates": [-118.439949, 34.156806], "type": "Point"}, "id": "NRs09p0EZIeQutmGDgmzsMW2gfk=", "properties": {"@source_uri": "https://tools.usps.com/UspsToolsRestServices/rest/POLocator/findLocations", "@spider": "usps_collection_boxes", "addr:city": "SHERMAN OAKS", "addr:country": "US", "addr:postcode": "91423", "addr:state": "CA", "addr:street_address": "4800 HAZELTINE AVE", "amenity": "post_box", "collection_times": "Mo-Sa 10:00", "nsi_id": "unitedstatespostalservice-a77078", "operator": "United States Postal Service", "operator:short": "USPS", "operator:type": "public", "operator:wikidata": "Q668687", "ref": "9142300040"}, "type": "Feature"}
{"geometry": {"coordinates": [-118.441227, 34.14678], "type": "Point"}, "id": "NnqMoZCX-FNBsXAP-RaEsyuNJ4g=", "properties": {"@source_uri": "https://tools.usps.com/UspsToolsRestServices/rest/POLocator/findLocations", "@spider": "usps_collection_boxes", "addr:city": "SHERMAN OAKS", "addr:country": "US", "addr:postcode": "91423", "addr:state": "CA", "addr:street_address": "4175 STANSBURY AVE", "amenity": "post_box", "collection_times": "Mo-Sa 10:00", "nsi_id": "unitedstatespostalservice-a77078", "operator": "United States Postal Service", "operator:short": "USPS", "operator:type": "public", "operator:wikidata": "Q668687", "ref": "9142300042"}, "type": "Feature"}
{"geometry": {"coordinates": [-118.429374722, 34.14453949], "type": "Point"}, "id": "PUg88nxj-F-ivoPOzoeuqEhSZI4=", "properties": {"@source_uri": "https://tools.usps.com/UspsToolsRestServices/rest/POLocator/findLocations", "@spider": "usps_collection_boxes", "addr:city": "SHERMAN OAKS", "addr:country": "US", "addr:postcode": "91423", "addr:state": "CA", "addr:street_address": "13599 VALLEY VISTA BLVD", "amenity": "post_box", "collection_times": "Mo-Sa 10:00", "nsi_id": "unitedstatespostalservice-a77078", "operator": "United States Postal Service", "operator:short": "USPS", "operator:type": "public", "operator:wikidata": "Q668687", "ref": "9142300043"}, "type": "Feature"}
{"geometry": {"coordinates": [-118.418088, 34.157828], "type": "Point"}, "id": "op2ELUtHnoyWSzvSVlOHQwVMNWQ=", "properties": {"@source_uri": "https://tools.usps.com/UspsToolsRestServices/rest/POLocator/findLocations", "@spider": "usps_collection_boxes", "addr:city": "SHERMAN OAKS", "addr:country": "US", "addr:postcode": "91423", "addr:state": "CA", "addr:street_address": "4800 ETHEL AVE", "amenity": "post_box", "collection_times": "Mo-Sa 10:00", "nsi_id": "unitedstatespostalservice-a77078", "operator": "United States Postal Service", "operator:short": "USPS", "operator:type": "public", "operator:wikidata": "Q668687", "ref": "9142300050"}, "type": "Feature"}
{"geometry": {"coordinates": [-118.4934069954, 34.1575260107], "type": "Point"}, "id": "4uKvESiMqa569147lMII1tznrtU=", "properties": {"@source_uri": "https://tools.usps.com/UspsToolsRestServices/rest/POLocator/findLocations", "@spider": "usps_collection_boxes", "addr:city": "ENCINO", "addr:country": "US", "addr:postcode": "91436", "addr:state": "CA", "addr:street_address": "16530 VENTURA BLVD", "amenity": "post_box", "collection_times": "Mo-Sa 10:00", "nsi_id": "unitedstatespostalservice-a77078", "operator": "United States Postal Service", "operator:short": "USPS", "operator:type": "public", "operator:wikidata": "Q668687", "ref": "9143600006"}, "type": "Feature"}
{"geometry": {"coordinates": [-118.490296, 34.157181], "type": "Point"}, "id": "LdfnxNyh_13tx0QGcW3GSGjNCQA=", "properties": {"@source_uri": "https://tools.usps.com/UspsToolsRestServices/rest/POLocator/findLocations", "@spider": "usps_collection_boxes", "addr:city": "ENCINO", "addr:country": "US", "addr:postcode": "91436", "addr:state": "CA", "addr:street_address": "16400 VENTURA BLVD", "amenity": "post_box", "collection_times": "Mo-Sa 15:00", "note": "ON 12/24 AND 12/31, THIS BOX MAY BE COLLECTED AS EARLY AS 12 NOON.", "nsi_id": "unitedstatespostalservice-a77078", "operator": "United States Postal Service", "operator:short": "USPS", "operator:type": "public", "operator:wikidata": "Q668687", "ref": "9143600009"}, "type": "Feature"}
{"geometry": {"coordinates": [-118.481691, 34.15613], "type": "Point"}, "id": "pz1iUecqk2OdbZ5LHgPKaBCg39I=", "properties": {"@source_uri": "https://tools.usps.com/UspsToolsRestServices/rest/POLocator/findLocations", "@spider": "usps_collection_boxes", "addr:city": "ENCINO", "addr:country": "US", "addr:postcode": "91436", "addr:state": "CA", "addr:street_address": "16000 VENTURA BLVD", "amenity": "post_box", "collection_times": "Mo-Sa 12:00", "nsi_id": "unitedstatespostalservice-a77078", "operator": "United States Postal Service", "operator:short": "USPS", "operator:type": "public", "operator:wikidata": "Q668687", "ref": "9143600014"}, "type": "Feature"}
{"geometry": {"coordinates": [-118.47888, 34.15788], "type": "Point"}, "id": "RvFuJhc00aoUIB9fGD8j7K04wY0=", "properties": {"@source_uri": "https://tools.usps.com/UspsToolsRestServices/rest/POLocator/findLocations", "@spider": "usps_collection_boxes", "addr:city": "ENCINO", "addr:country": "US", "addr:postcode": "91436", "addr:state": "CA", "addr:street_address": "16501 VENTURA BLVD", "amenity": "post_box", "collection_times": "Mo-Sa 10:00", "nsi_id": "unitedstatespostalservice-a77078", "operator": "United States Postal Service", "operator:short": "USPS", "operator:type": "public", "operator:wikidata": "Q668687", "ref": "9143600025"}, "type": "Feature"}
{"geometry": {"coordinates": [-118.495949, 34.157983], "type": "Point"}, "id": "k7zVwGc4DCnu699-13lz73JuI8s=", "properties": {"@source_uri": "https://tools.usps.com/UspsToolsRestServices/rest/POLocator/findLocations", "@spider": "usps_collection_boxes", "addr:city": "ENCINO", "addr:country": "US", "addr:postcode": "91436", "addr:state": "CA", "addr:street_address": "16640 VENTURA BLVD", "amenity": "post_box", "collection_times": "Mo-Fr 15:00", "note": "ON 12/24 AND 12/31, THIS BOX MAY BE COLLECTED AS EARLY AS 12 NOON.", "nsi_id": "unitedstatespostalservice-a77078", "operator": "United States Postal Service", "operator:short": "USPS", "operator:type": "public", "operator:wikidata": "Q668687", "ref": "9143600032"}, "type": "Feature"}
{"geometry": {"coordinates": [-118.487521, 34.156935], "type": "Point"}, "id": "3KcKEdqRZ9Ev_wnYqegAtj0ce_U=", "properties": {"@source_uri": "https://tools.usps.com/UspsToolsRestServices/rest/POLocator/findLocations", "@spider": "usps_collection_boxes", "addr:city": "ENCINO", "addr:country": "US", "addr:postcode": "91436", "addr:state": "CA", "addr:street_address": "16255 VENTURA BLVD", "amenity": "post_box", "collection_times": "Mo-Sa 12:00", "nsi_id": "unitedstatespostalservice-a77078", "operator": "United States Postal Service", "operator:short": "USPS", "operator:type": "public", "operator:wikidata": "Q668687", "ref": "9143600034"}, "type": "Feature"}
{"geometry": {"coordinates": [-118.483509, 34.156199], "type": "Point"}, "id": "kCxNg37WpqsKaqDqO1oj8oNitaM=", "properties": {"@source_uri": "https://tools.usps.com/UspsToolsRestServices/rest/POLocator/findLocations", "@spider": "usps_collection_boxes", "addr:city": "ENCINO", "addr:country": "US", "addr:postcode": "91436", "addr:state": "CA", "addr:street_address": "16055 VENTURA BLVD", "amenity": "post_box", "collection_times": "Mo-Sa 12:00", "nsi_id": "unitedstatespostalservice-a77078", "operator": "United States Postal Service", "operator:short": "USPS", "operator:type": "public", "operator:wikidata": "Q668687", "ref": "9143600038"}, "type": "Feature"}
{"geometry": {"coordinates": [-118.47888, 34.15788], "type": "Point"}, "id": "W4LljK9G1huNz_hINez_OTdZMGk=", "properties": {"@source_uri": "https://tools.usps.com/UspsToolsRestServices/rest/POLocator/findLocations", "@spider": "usps_collection_boxes", "addr:city": "ENCINO", "addr:country": "US", "addr:postcode": "91436", "addr:state": "CA", "addr:street_address": "16311 VENTURA BLVD", "amenity": "post_box", "collection_times": "Mo-Sa 12:00", "nsi_id": "unitedstatespostalservice-a77078", "operator": "United States Postal Service", "operator:short": "USPS", "operator:type": "public", "operator:wikidata": "Q668687", "ref": "9143600052"}, "type": "Feature"}
{"geometry": {"coordinates": [-118.479597, 34.155977], "type": "Point"}, "id": "cGTUCcKqV0AU6NXRMNP0sDPYRxM=", "properties": {"@source_uri": "https://tools.usps.com/UspsToolsRestServices/rest/POLocator/findLocations", "@spider": "usps_collection_boxes", "addr:city": "ENCINO", "addr:country": "US", "addr:postcode": "91436", "addr:state": "CA", "addr:street_address": "15910 VENTURA BLVD", "amenity": "post_box", "collection_times": "Mo-Sa 12:00", "nsi_id": "unitedstatespostalservice-a77078", "operator": "United States Postal Service", "operator:short": "USPS", "operator:type": "public", "operator:wikidata": "Q668687", "ref": "9143600074"}, "type": "Feature"}
{"geometry": {"coordinates": [-118.495618, 34.158029], "type": "Point"}, "id": "WbGvh7kCg4cRt1CHnppl9Zcmyd8=", "properties": {"@source_uri": "https://tools.usps.com/UspsToolsRestServices/rest/POLocator/findLocations", "@spider": "usps_collection_boxes", "addr:city": "ENCINO", "addr:country": "US", "addr:postcode": "91436", "addr:state": "CA", "addr:street_address": "16633 VENTURA BLVD", "amenity": "post_box", "collection_times": "Mo-Sa 12:00", "nsi_id": "unitedstatespostalservice-a77078", "operator": "United States Postal Service", "operator:short": "USPS", "operator:type": "public", "operator:wikidata": "Q668687", "ref": "9143600078"}, "type": "Feature"}
{"geometry": {"coordinates": [-118.493132, 34.146571], "type": "Point"}, "id": "kkiepuw17UMCrnUSgHYzQ5NL6lE=", "properties": {"@source_uri": "https://tools.usps.com/UspsToolsRestServices/rest/POLocator/findLocations", "@spider": "usps_collection_boxes", "addr:city": "ENCINO", "addr:country": "US", "addr:postcode": "91436", "addr:state": "CA", "addr:street_address": "4194 HAYVENHURST DR", "amenity": "post_box", "collection_times": "Mo-Sa 10:00", "nsi_id": "unitedstatespostalservice-a77078", "operator": "United States Postal Service", "operator:short": "USPS", "operator:type": "public", "operator:wikidata": "Q668687", "ref": "9143600101"}, "type": "Feature"}
{"geometry": {"coordinates": [-118.487683, 34.156966], "type": "Point"}, "id": "qda9yysjFrC0xMQ2czxx0YUcs3o=", "properties": {"@source_uri": "https://tools.usps.com/UspsToolsRestServices/rest/POLocator/findLocations", "@spider": "usps_collection_boxes", "addr:city": "ENCINO", "addr:country": "US", "addr:postcode": "91436", "addr:state": "CA", "addr:street_address": "16260 VENTURA BLVD", "amenity": "post_box", "collection_times": "Mo-Sa 15:00", "note": "ON 12/24 AND 12/31, THIS BOX MAY BE COLLECTED AS EARLY AS 12 NOON.", "nsi_id": "unitedstatespostalservice-a77078", "operator": "United States Postal Service", "operator:short": "USPS", "operator:type": "public", "operator:wikidata": "Q668687", "ref": "9143600104"}, "type": "Feature"}
{"geometry": {"coordinates": [-118.500529, 34.15993], "type": "Point"}, "id": "VA82Hom8aMozGXixQ2ypjJWEw1I=", "properties": {"@source_uri": "https://tools.usps.com/UspsToolsRestServices/rest/POLocator/findLocations", "@spider": "usps_collection_boxes", "addr:city": "ENCINO", "addr:country": "US", "addr:postcode": "91436", "addr:state": "CA", "addr:street_address": "4920 BALBOA BLVD", "amenity": "post_box", "collection_times": "Mo-Fr 17:00; Sa 15:00", "indoor": "yes", "note": "ON 12/24 AND 12/31, THIS BOX MAY BE COLLECTED AS EARLY AS 12 NOON.", "nsi_id": "unitedstatespostalservice-a77078", "operator": "United States Postal Service", "operator:short": "USPS", "operator:type": "public", "operator:wikidata": "Q668687", "ref": "9143600105"}, "type": "Feature"}
{"geometry": {"coordinates": [-118.500542, 34.159971], "type": "Point"}, "id": "unvQ3wcUkcHaceDOY8sXQw3PAk4=", "properties": {"@source_uri": "https://tools.usps.com/UspsToolsRestServices/rest/POLocator/findLocations", "@spider": "usps_collection_boxes", "addr:city": "ENCINO", "addr:country": "US", "addr:postcode": "91436", "addr:state": "CA", "addr:street_address": "4920 BALBOA BLVD", "amenity": "post_box", "collection_times": "Mo-Fr 17:00; Sa 15:00", "name": "USPS COLLECTION BOX - APC", "note": "ON 12/24 AND 12/31, THIS BOX MAY BE COLLECTED AS EARLY AS 12 NOON.", "nsi_id": "unitedstatespostalservice-a77078", "operator": "United States Postal Service", "operator:short": "USPS", "operator:type": "public", "operator:wikidata": "Q668687", "ref": "9143600107"}, "type": "Feature"}
{"geometry": {"coordinates": [-118.5002079878, 34.1599340058], "type": "Point"}, "id": "Ydloo7H4EFEyqjAojvGRLjgY0rw=", "properties": {"@source_uri": "https://tools.usps.com/UspsToolsRestServices/rest/POLocator/findLocations", "@spider": "usps_collection_boxes", "addr:city": "ENCINO", "addr:country": "US", "addr:postcode": "91436", "addr:state": "CA", "addr:street_address": "4930 BALBOA BLVD", "amenity": "post_box", "collection_times": "Mo-Fr 17:00; Sa 15:00", "note": "ON 12/24 AND 12/31, THIS BOX MAY BE COLLECTED AS EARLY AS 12 NOON.", "nsi_id": "unitedstatespostalservice-a77078", "operator": "United States Postal Service", "operator:short": "USPS", "operator:type": "public", "operator:wikidata": "Q668687", "ref": "9143600108"}, "type": "Feature"}
