{"geometry": {"coordinates": [-118.306955, 34.195899], "type": "Point"}, "id": "tBKm_q2dRCQ0WqyfrvV27J_m-BI=", "properties": {"@source_uri": "https://tools.usps.com/UspsToolsRestServices/rest/POLocator/findLocations", "@spider": "usps_collection_boxes", "addr:city": "BURBANK", "addr:country": "US", "addr:postcode": "91501", "addr:state": "CA", "addr:street_address": "900 N BELAIRE DR", "amenity": "post_box", "brand": "United States Postal Service", "brand:wikidata": "Q668687", "collection_times": "Mo-Sa 10:00", "nsi_id": "unitedstatespostalservice-a77078", "operator": "United States Postal Service", "operator:short": "USPS", "operator:type": "public", "operator:wikidata": "Q668687", "ref": "9150100002"}, "type": "Feature"}
{"geometry": {"coordinates": [-118.29689, 34.180634], "type": "Point"}, "id": "JSKUzZ_nIgOu3dUty2rW7S8pfLI=", "properties": {"@source_uri": "https://tools.usps.com/UspsToolsRestServices/rest/POLocator/findLocations", "@spider": "usps_collection_boxes", "addr:city": "BURBANK", "addr:country": "US", "addr:postcode": "91501", "addr:state": "CA", "addr:street_address": "600 E ELMWOOD AVE", "amenity": "post_box", "brand": "United States Postal Service", "brand:wikidata": "Q668687", "collection_times": "Mo-Sa 10:00", "nsi_id": "unitedstatespostalservice-a77078", "operator": "United States Postal Service", "operator:short": "USPS", "operator:type": "public", "operator:wikidata": "Q668687", "ref": "9150100004"}, "type": "Feature"}
{"geometry": {"coordinates": [-118.296508, 34.184377], "type": "Point"}, "id": "OciRMnATGEqpLosOBNVnvvUmOVg=", "properties": {"@source_uri": "https://tools.usps.com/UspsToolsRestServices/rest/POLocator/findLocations", "@spider": "usps_collection_boxes", "addr:city": "BURBANK", "addr:country": "US", "addr:postcode": "91501", "addr:state": "CA", "addr:street_address": "500 S KENNETH RD", "amenity": "post_box", "brand": "United States Postal Service", "brand:wikidata": "Q668687", "collection_times": "Mo-Sa 10:00", "nsi_id": "unitedstatespostalservice-a77078", "operator": "United States Postal Service", "operator:short": "USPS", "operator:type": "public", "operator:wikidata": "Q668687", "ref": "9150100006"}, "type": "Feature"}
{"geometry": {"coordinates": [-118.305018, 34.186309], "type": "Point"}, "id": "x9tq4uQM5HSg0aprXy1B4eiK5eA=", "properties": {"@source_uri": "https://tools.usps.com/UspsToolsRestServices/rest/POLocator/findLocations", "@spider": "usps_collection_boxes", "addr:city": "BURBANK", "addr:country": "US", "addr:postcode": "91501", "addr:state": "CA", "addr:street_address": "600 E ORANGE GROVE AVE", "amenity": "post_box", "brand": "United States Postal Service", "brand:wikidata": "Q668687", "collection_times": "Mo-Sa 10:00", "nsi_id": "unitedstatespostalservice-a77078", "operator": "United States Postal Service", "operator:short": "USPS", "operator:type": "public", "operator:wikidata": "Q668687", "ref": "9150100008"}, "type": "Feature"}
{"geometry": {"coordinates": [-118.300789, 34.183241], "type": "Point"}, "id": "UDK3-scMTgZwCCR8Me83QoozCeg=", "properties": {"@source_uri": "https://tools.usps.com/UspsToolsRestServices/rest/POLocator/findLocations", "@spider": "usps_collection_boxes", "addr:city": "BURBANK", "addr:country": "US", "addr:postcode": "91501", "addr:state": "CA", "addr:street_address": "400 S 6TH ST", "amenity": "post_box", "brand": "United States Postal Service", "brand:wikidata": "Q668687", "collection_times": "Mo-Sa 10:00", "nsi_id": "unitedstatespostalservice-a77078", "operator": "United States Postal Service", "operator:short": "USPS", "operator:type": "public", "operator:wikidata": "Q668687", "ref": "9150100010"}, "type": "Feature"}
{"geometry": {"coordinates": [-118.3096208801, 34.180144175], "type": "Point"}, "id": "XQCwE0Jenr4xDxS1HgUPYbbT-Os=", "properties": {"@source_uri": "https://tools.usps.com/UspsToolsRestServices/rest/POLocator/findLocations", "@spider": "usps_collection_boxes", "addr:city": "BURBANK", "addr:country": "US", "addr:postcode": "91501", "addr:state": "CA", "addr:street_address": "135 E OLIVE ST", "amenity": "post_box", "brand": "United States Postal Service", "brand:wikidata": "Q668687", "collection_times": "Mo-Fr 17:00; Sa 15:00", "note": "ON 12/24 AND 12/31, THIS BOX MAY BE COLLECTED AS EARLY AS 12 NOON.", "nsi_id": "unitedstatespostalservice-a77078", "operator": "United States Postal Service", "operator:short": "USPS", "operator:type": "public", "operator:wikidata": "Q668687", "ref": "9150100012"}, "type": "Feature"}
{"geometry": {"coordinates": [-118.3096208801, 34.180144175], "type": "Point"}, "id": "d6EXyscwlfSJ4mekZ76GTlSsl8s=", "properties": {"@source_uri": "https://tools.usps.com/UspsToolsRestServices/rest/POLocator/findLocations", "@spider": "usps_collection_boxes", "addr:city": "BURBANK", "addr:country": "US", "addr:postcode": "91501", "addr:state": "CA", "addr:street_address": "135 E OLIVE ST", "amenity": "post_box", "brand": "United States Postal Service", "brand:wikidata": "Q668687", "collection_times": "Mo-Fr 17:00; Sa 15:00", "note": "ON 12/24 AND 12/31, THIS BOX MAY BE COLLECTED AS EARLY AS 12 NOON.", "nsi_id": "unitedstatespostalservice-a77078", "operator": "United States Postal Service", "operator:short": "USPS", "operator:type": "public", "operator:wikidata": "Q668687", "ref": "9150100013"}, "type": "Feature"}
{"geometry": {"coordinates": [-118.30962088, 34.180144175], "type": "Point"}, "id": "atMsBHCzL-mXXkR2Lwc26ryPDQQ=", "properties": {"@source_uri": "https://tools.usps.com/UspsToolsRestServices/rest/POLocator/findLocations", "@spider": "usps_collection_boxes", "addr:city": "BURBANK", "addr:country": "US", "addr:postcode": "91501", "addr:state": "CA", "addr:street_address": "135 E OLIVE ST", "amenity": "post_box", "brand": "United States Postal Service", "brand:wikidata": "Q668687", "collection_times": "Mo-Fr 17:00; Sa 15:00", "note": "ON 12/24 AND 12/31, THIS BOX MAY BE COLLECTED AS EARLY AS 12 NOON.", "nsi_id": "unitedstatespostalservice-a77078", "operator": "United States Postal Service", "operator:short": "USPS", "operator:type": "public", "operator:wikidata": "Q668687", "ref": "9150100014"}, "type": "Feature"}
{"geometry": {"coordinates": [-118.30962088, 34.180144175], "type": "Point"}, "id": "V00nKdfziG2n6F2-5MhJYvY49Vk=", "properties": {"@source_uri": "https://tools.usps.com/UspsToolsRestServices/rest/POLocator/findLocations", "@spider": "usps_collection_boxes", "addr:city": "BURBANK", "addr:country": "US", "addr:postcode": "91501", "addr:state": "CA", "addr:street_address": "135 E OLIVE ST", "amenity": "post_box", "brand": "United States Postal Service", "brand:wikidata": "Q668687", "collection_times": "Mo-Fr 17:00; Sa 15:00", "indoor": "yes", "note": "ON 12/24 AND 12/31, THIS BOX MAY BE COLLECTED AS EARLY AS 12 NOON.", "nsi_id": "unitedstatespostalservice-a77078", "operator": "United States Postal Service", "operator:short": "USPS", "operator:type": "public", "operator:wikidata": "Q668687", "ref": "9150100015"}, "type": "Feature"}
{"geometry": {"coordinates": [-118.3096208801, 34.180144175], "type": "Point"}, "id": "3R20OIjoe5WHPOs1-J7m1H9hJO8=", "properties": {"@source_uri": "https://tools.usps.com/UspsToolsRestServices/rest/POLocator/findLocations", "@spider": "usps_collection_boxes", "addr:city": "BURBANK", "addr:country": "US", "addr:postcode": "91501", "addr:state": "CA", "addr:street_address": "135 E OLIVE ST", "amenity": "post_box", "brand": "United States Postal Service", "brand:wikidata": "Q668687", "collection_times": "Mo-Fr 17:00; Sa 15:00", "indoor": "yes", "note": "ON 12/24 AND 12/31, THIS BOX MAY BE COLLECTED AS EARLY AS 12 NOON.", "nsi_id": "unitedstatespostalservice-a77078", "operator": "United States Postal Service", "operator:short": "USPS", "operator:type": "public", "operator:wikidata": "Q668687", "ref": "9150100016"}, "type": "Feature"}
{"geometry": {"coordinates": [-118.30962088, 34.180144175], "type": "Point"}, "id": "QW7pozd79S-ddlADoK73Ggl7Nu8=", "properties": {"@source_uri": "https://tools.usps.com/UspsToolsRestServices/rest/POLocator/findLocations", "@spider": "usps_collection_boxes", "addr:city": "BURBANK", "addr:country": "US", "addr:postcode": "91501", "addr:state": "CA", "addr:street_address": "135 E OLIVE ST", "amenity": "post_box", "brand": "United States Postal Service", "brand:wikidata": "Q668687", "collection_times": "Mo-Fr 17:00; Sa 15:00", "name": "USPS COLLECTION BOX - APC", "note": "ON 12/24 AND 12/31, THIS BOX MAY BE COLLECTED AS EARLY AS 12 NOON.", "nsi_id": "unitedstatespostalservice-a77078", "operator": "United States Postal Service", "operator:short": "USPS", "operator:type": "public", "operator:wikidata": "Q668687", "ref": "9150100017"}, "type": "Feature"}
{"geometry": {"coordinates": [-118.306102, 34.168756], "type": "Point"}, "id": "N6SQYwJH2WFIMdxCPWMD0OuGVaU=", "properties": {"@source_uri": "https://tools.usps.com/UspsToolsRestServices/rest/POLocator/findLocations", "@spider": "usps_collection_boxes", "addr:city": "BURBANK", "addr:country": "US", "addr:postcode": "91502", "addr:state": "CA", "addr:street_address": "207 W ALAMEDA AVE", "amenity": "post_box", "brand": "United States Postal Service", "brand:wikidata": "Q668687", "collection_times": "Mo-Sa 10:00", "nsi_id": "unitedstatespostalservice-a77078", "operator": "United States Postal Service", "operator:short": "USPS", "operator:type": "public", "operator:wikidata": "Q668687", "ref": "9150200002"}, "type": "Feature"}
{"geometry": {"coordinates": [-118.311382, 34.186766], "type": "Point"}, "id": "HRC-n0HkuDIN4WijEp8QYhyYBYE=", "properties": {"@source_uri": "https://tools.usps.com/UspsToolsRestServices/rest/POLocator/findLocations", "@spider": "usps_collection_boxes", "addr:city": "BURBANK", "addr:country": "US", "addr:postcode": "91502", "addr:state": "CA", "addr:street_address": "300 E CYPRESS AVE", "amenity": "post_box", "brand": "United States Postal Service", "brand:wikidata": "Q668687", "collection_times": "Mo-Sa 10:00", "nsi_id": "unitedstatespostalservice-a77078", "operator": "United States Postal Service", "operator:short": "USPS", "operator:type": "public", "operator:wikidata": "Q668687", "ref": "9150200005"}, "type": "Feature"}
{"geometry": {"coordinates": [-118.309857, 34.168328], "type": "Point"}, "id": "1SxaqLOGwVJP7Hb87nBzVIt1Xro=", "properties": {"@source_uri": "https://tools.usps.com/UspsToolsRestServices/rest/POLocator/findLocations", "@spider": "usps_collection_boxes", "addr:city": "BURBANK", "addr:country": "US", "addr:postcode": "91502", "addr:state": "CA", "addr:street_address": "300 W ELMWOOD AVE", "amenity": "post_box", "brand": "United States Postal Service", "brand:wikidata": "Q668687", "collection_times": "Mo-Sa 10:00", "nsi_id": "unitedstatespostalservice-a77078", "operator": "United States Postal Service", "operator:short": "USPS", "operator:type": "public", "operator:wikidata": "Q668687", "ref": "9150200006"}, "type": "Feature"}
{"geometry": {"coordinates": [-118.301495, 34.179451], "type": "Point"}, "id": "OQayvyPl0GobU87tvOh4nCjTyLo=", "properties": {"@source_uri": "https://tools.usps.com/UspsToolsRestServices/rest/POLocator/findLocations", "@spider": "usps_collection_boxes", "addr:city": "BURBANK", "addr:country": "US", "addr:postcode": "91502", "addr:state": "CA", "addr:street_address": "600 S GLENOAKS BLVD", "amenity": "post_box", "brand": "United States Postal Service", "brand:wikidata": "Q668687", "collection_times": "Mo-Fr 12:00; Sa 10:00", "nsi_id": "unitedstatespostalservice-a77078", "operator": "United States Postal Service", "operator:short": "USPS", "operator:type": "public", "operator:wikidata": "Q668687", "ref": "9150200010"}, "type": "Feature"}
{"geometry": {"coordinates": [-118.317521, 34.17762], "type": "Point"}, "id": "eJG-ZOrklT43eT4Zynt9JDIWZ_s=", "properties": {"@source_uri": "https://tools.usps.com/UspsToolsRestServices/rest/POLocator/findLocations", "@spider": "usps_collection_boxes", "addr:city": "BURBANK", "addr:country": "US", "addr:postcode": "91502", "addr:state": "CA", "addr:street_address": "200 W MAGNOLIA BLVD", "amenity": "post_box", "brand": "United States Postal Service", "brand:wikidata": "Q668687", "collection_times": "Mo-Sa 10:00", "nsi_id": "unitedstatespostalservice-a77078", "operator": "United States Postal Service", "operator:short": "USPS", "operator:type": "public", "operator:wikidata": "Q668687", "ref": "9150200013"}, "type": "Feature"}
{"geometry": {"coordinates": [-118.30752, 34.181962], "type": "Point"}, "id": "ERkE7jzydbP6wD91k0jqmt9ccyg=", "properties": {"@source_uri": "https://tools.usps.com/UspsToolsRestServices/rest/POLocator/findLocations", "@spider": "usps_collection_boxes", "addr:city": "BURBANK", "addr:country": "US", "addr:postcode": "91502", "addr:state": "CA", "addr:street_address": "300 E OLIVE AVE", "amenity": "post_box", "brand": "United States Postal Service", "brand:wikidata": "Q668687", "collection_times": "Mo-Fr 12:00; Sa 10:00", "nsi_id": "unitedstatespostalservice-a77078", "operator": "United States Postal Service", "operator:short": "USPS", "operator:type": "public", "operator:wikidata": "Q668687", "ref": "9150200015"}, "type": "Feature"}
{"geometry": {"coordinates": [-118.309324, 34.183679], "type": "Point"}, "id": "YTdbERzYq1GsSkcYbmHeyDabFUQ=", "properties": {"@source_uri": "https://tools.usps.com/UspsToolsRestServices/rest/POLocator/findLocations", "@spider": "usps_collection_boxes", "addr:city": "BURBANK", "addr:country": "US", "addr:postcode": "91502", "addr:state": "CA", "addr:street_address": "300 N 3RD ST", "amenity": "post_box", "brand": "United States Postal Service", "brand:wikidata": "Q668687", "collection_times": "Mo-Sa 10:00", "nsi_id": "unitedstatespostalservice-a77078", "operator": "United States Postal Service", "operator:short": "USPS", "operator:type": "public", "operator:wikidata": "Q668687", "ref": "9150200016"}, "type": "Feature"}
{"geometry": {"coordinates": [-118.305737, 34.17886], "type": "Point"}, "id": "L2nMUxSidxLJ5AafebFdsuG64Tg=", "properties": {"@source_uri": "https://tools.usps.com/UspsToolsRestServices/rest/POLocator/findLocations", "@spider": "usps_collection_boxes", "addr:city": "BURBANK", "addr:country": "US", "addr:postcode": "91502", "addr:state": "CA", "addr:street_address": "400 S SAN FERNANDO BLVD", "amenity": "post_box", "brand": "United States Postal Service", "brand:wikidata": "Q668687", "collection_times": "Mo-Sa 10:00", "nsi_id": "unitedstatespostalservice-a77078", "operator": "United States Postal Service", "operator:short": "USPS", "operator:type": "public", "operator:wikidata": "Q668687", "ref": "9150200019"}, "type": "Feature"}
{"geometry": {"coordinates": [-118.309922, 34.174632], "type": "Point"}, "id": "CSpfa_es20tyw5cAz600a8M_gMY=", "properties": {"@source_uri": "https://tools.usps.com/UspsToolsRestServices/rest/POLocator/findLocations", "@spider": "usps_collection_boxes", "addr:city": "BURBANK", "addr:country": "US", "addr:postcode": "91502", "addr:state": "CA", "addr:street_address": "100 W VERDUGO AVE", "amenity": "post_box", "brand": "United States Postal Service", "brand:wikidata": "Q668687", "collection_times": "Mo-Sa 10:00", "nsi_id": "unitedstatespostalservice-a77078", "operator": "United States Postal Service", "operator:short": "USPS", "operator:type": "public", "operator:wikidata": "Q668687", "ref": "9150200020"}, "type": "Feature"}
{"geometry": {"coordinates": [-118.30611, 34.168755], "type": "Point"}, "id": "JsmMEzw5YPHUeDlbkdkThWf7nQs=", "properties": {"@source_uri": "https://tools.usps.com/UspsToolsRestServices/rest/POLocator/findLocations", "@spider": "usps_collection_boxes", "addr:city": "BURBANK", "addr:country": "US", "addr:postcode": "91502", "addr:state": "CA", "addr:street_address": "207 W ALAMEDA AVE", "amenity": "post_box", "brand": "United States Postal Service", "brand:wikidata": "Q668687", "collection_times": "Mo-Sa 10:00", "nsi_id": "unitedstatespostalservice-a77078", "operator": "United States Postal Service", "operator:short": "USPS", "operator:type": "public", "operator:wikidata": "Q668687", "ref": "9150200024"}, "type": "Feature"}
{"geometry": {"coordinates": [-118.308976, 34.185039], "type": "Point"}, "id": "BU0ISRi8bwuCFNqEmjyoDM-g5LA=", "properties": {"@source_uri": "https://tools.usps.com/UspsToolsRestServices/rest/POLocator/findLocations", "@spider": "usps_collection_boxes", "addr:city": "BURBANK", "addr:country": "US", "addr:postcode": "91502", "addr:state": "CA", "addr:street_address": "333 N GLENOAKS BLVD", "amenity": "post_box", "brand": "United States Postal Service", "brand:wikidata": "Q668687", "collection_times": "Mo-Fr 12:00; Sa 10:00", "nsi_id": "unitedstatespostalservice-a77078", "operator": "United States Postal Service", "operator:short": "USPS", "operator:type": "public", "operator:wikidata": "Q668687", "ref": "9150200025"}, "type": "Feature"}
{"geometry": {"coordinates": [-118.308988, 34.18502], "type": "Point"}, "id": "0q5dwLWumNb6PJ5KiR8pMy1qy8M=", "properties": {"@source_uri": "https://tools.usps.com/UspsToolsRestServices/rest/POLocator/findLocations", "@spider": "usps_collection_boxes", "addr:city": "BURBANK", "addr:country": "US", "addr:postcode": "91502", "addr:state": "CA", "addr:street_address": "333 N GLENOAKS BLVD", "amenity": "post_box", "brand": "United States Postal Service", "brand:wikidata": "Q668687", "collection_times": "Mo-Fr 12:00; Sa 10:00", "nsi_id": "unitedstatespostalservice-a77078", "operator": "United States Postal Service", "operator:short": "USPS", "operator:type": "public", "operator:wikidata": "Q668687", "ref": "9150200034"}, "type": "Feature"}
{"geometry": {"coordinates": [-118.308949, 34.185022], "type": "Point"}, "id": "6H8QpfZqvIveX-tSKrPmDzre5BY=", "properties": {"@source_uri": "https://tools.usps.com/UspsToolsRestServices/rest/POLocator/findLocations", "@spider": "usps_collection_boxes", "addr:city": "BURBANK", "addr:country": "US", "addr:postcode": "91502", "addr:state": "CA", "addr:street_address": "333 N GLENOAKS BLVD", "amenity": "post_box", "brand": "United States Postal Service", "brand:wikidata": "Q668687", "collection_times": "Mo-Sa 10:00", "nsi_id": "unitedstatespostalservice-a77078", "operator": "United States Postal Service", "operator:short": "USPS", "operator:type": "public", "operator:wikidata": "Q668687", "ref": "9150200035"}, "type": "Feature"}
{"geometry": {"coordinates": [-118.305894, 34.165103], "type": "Point"}, "id": "dCSWMV0BSw7VQIyQxMah_oUJuPo=", "properties": {"@source_uri": "https://tools.usps.com/UspsToolsRestServices/rest/POLocator/findLocations", "@spider": "usps_collection_boxes", "addr:city": "BURBANK", "addr:country": "US", "addr:postcode": "91502", "addr:state": "CA", "addr:street_address": "300 LUTGE AVE", "amenity": "post_box", "brand": "United States Postal Service", "brand:wikidata": "Q668687", "collection_times": "Mo-Sa 10:00", "nsi_id": "unitedstatespostalservice-a77078", "operator": "United States Postal Service", "operator:short": "USPS", "operator:type": "public", "operator:wikidata": "Q668687", "ref": "9150200041"}, "type": "Feature"}
{"geometry": {"coordinates": [-118.30962088, 34.180144175], "type": "Point"}, "id": "8WC1p7tG1gW2kQfMiD_NC_K4xOw=", "properties": {"@source_uri": "https://tools.usps.com/UspsToolsRestServices/rest/POLocator/findLocations", "@spider": "usps_collection_boxes", "addr:city": "BURBANK", "addr:country": "US", "addr:postcode": "91502", "addr:state": "CA", "addr:street_address": "135 E OLIVE AVE", "amenity": "post_box", "brand": "United States Postal Service", "brand:wikidata": "Q668687", "collection_times": "Mo-Fr 17:00", "indoor": "yes", "note": "ON 12/24 AND 12/31, THIS BOX MAY BE COLLECTED AS EARLY AS 12 NOON.", "nsi_id": "unitedstatespostalservice-a77078", "operator": "United States Postal Service", "operator:short": "USPS", "operator:type": "public", "operator:wikidata": "Q668687", "ref": "9150200047"}, "type": "Feature"}
{"geometry": {"coordinates": [-118.321056, 34.194223], "type": "Point"}, "id": "z3iIcizaiGpbjvOynM-uHmPAWss=", "properties": {"@source_uri": "https://tools.usps.com/UspsToolsRestServices/rest/POLocator/findLocations", "@spider": "usps_collection_boxes", "addr:city": "BURBANK", "addr:country": "US", "addr:postcode": "91504", "addr:state": "CA", "addr:street_address": "1600 N GLENOAKS BLVD", "amenity": "post_box", "brand": "United States Postal Service", "brand:wikidata": "Q668687", "collection_times": "Mo-Sa 10:00", "nsi_id": "unitedstatespostalservice-a77078", "operator": "United States Postal Service", "operator:short": "USPS", "operator:type": "public", "operator:wikidata": "Q668687", "ref": "9150400003"}, "type": "Feature"}
{"geometry": {"coordinates": [-118.337315, 34.206394], "type": "Point"}, "id": "vkj9kYCFd2NTQZiKbwvU9fjqGwI=", "properties": {"@source_uri": "https://tools.usps.com/UspsToolsRestServices/rest/POLocator/findLocations", "@spider": "usps_collection_boxes", "addr:city": "BURBANK", "addr:country": "US", "addr:postcode": "91504", "addr:state": "CA", "addr:street_address": "2800 N BUENA VISTA ST", "amenity": "post_box", "brand": "United States Postal Service", "brand:wikidata": "Q668687", "collection_times": "Mo-Sa 10:00", "nsi_id": "unitedstatespostalservice-a77078", "operator": "United States Postal Service", "operator:short": "USPS", "operator:type": "public", "operator:wikidata": "Q668687", "ref": "9150400006"}, "type": "Feature"}
{"geometry": {"coordinates": [-118.342213, 34.211877], "type": "Point"}, "id": "p6dcivEkgQdzQH-_uX2ncZkMZV4=", "properties": {"@source_uri": "https://tools.usps.com/UspsToolsRestServices/rest/POLocator/findLocations", "@spider": "usps_collection_boxes", "addr:city": "BURBANK", "addr:country": "US", "addr:postcode": "91504", "addr:state": "CA", "addr:street_address": "9700 CABRINI DR", "amenity": "post_box", "brand": "United States Postal Service", "brand:wikidata": "Q668687", "collection_times": "Mo-Sa 10:00", "nsi_id": "unitedstatespostalservice-a77078", "operator": "United States Postal Service", "operator:short": "USPS", "operator:type": "public", "operator:wikidata": "Q668687", "ref": "9150400007"}, "type": "Feature"}
{"geometry": {"coordinates": [-118.343329, 34.195502], "type": "Point"}, "id": "MZjPP-kHnx5LOkT-Qc6uDgidLSU=", "properties": {"@source_uri": "https://tools.usps.com/UspsToolsRestServices/rest/POLocator/findLocations", "@spider": "usps_collection_boxes", "addr:city": "BURBANK", "addr:country": "US", "addr:postcode": "91504", "addr:state": "CA", "addr:street_address": "2344 N FAIRVIEW ST", "amenity": "post_box", "brand": "United States Postal Service", "brand:wikidata": "Q668687", "collection_times": "Mo-Sa 10:00", "nsi_id": "unitedstatespostalservice-a77078", "operator": "United States Postal Service", "operator:short": "USPS", "operator:type": "public", "operator:wikidata": "Q668687", "ref": "9150400013"}, "type": "Feature"}
{"geometry": {"coordinates": [-118.3334542368, 34.2061993025], "type": "Point"}, "id": "YoS3P16s5aaLfdKNTNLKAxkcJLo=", "properties": {"@source_uri": "https://tools.usps.com/UspsToolsRestServices/rest/POLocator/findLocations", "@spider": "usps_collection_boxes", "addr:city": "BURBANK", "addr:country": "US", "addr:postcode": "91504", "addr:state": "CA", "addr:street_address": "2645 N KEYSTONE ST", "amenity": "post_box", "brand": "United States Postal Service", "brand:wikidata": "Q668687", "collection_times": "Mo-Sa 10:00", "nsi_id": "unitedstatespostalservice-a77078", "operator": "United States Postal Service", "operator:short": "USPS", "operator:type": "public", "operator:wikidata": "Q668687", "ref": "9150400022"}, "type": "Feature"}
{"geometry": {"coordinates": [-118.3247, 34.19176], "type": "Point"}, "id": "35UOBaIWZz4ky9HhiTfrnjqPAwQ=", "properties": {"@source_uri": "https://tools.usps.com/UspsToolsRestServices/rest/POLocator/findLocations", "@spider": "usps_collection_boxes", "addr:city": "BURBANK", "addr:country": "US", "addr:postcode": "91504", "addr:state": "CA", "addr:street_address": "1634 N SAN FERNANDO BLVD", "amenity": "post_box", "brand": "United States Postal Service", "brand:wikidata": "Q668687", "collection_times": "Mo-Sa 12:00", "nsi_id": "unitedstatespostalservice-a77078", "operator": "United States Postal Service", "operator:short": "USPS", "operator:type": "public", "operator:wikidata": "Q668687", "ref": "9150400029"}, "type": "Feature"}
{"geometry": {"coordinates": [-118.343322, 34.208282], "type": "Point"}, "id": "1f30Zd0NGSVCfL_7w22mI6z3U0k=", "properties": {"@source_uri": "https://tools.usps.com/UspsToolsRestServices/rest/POLocator/findLocations", "@spider": "usps_collection_boxes", "addr:city": "BURBANK", "addr:country": "US", "addr:postcode": "91504", "addr:state": "CA", "addr:street_address": "7530 N GLENOAKS BLVD", "amenity": "post_box", "brand": "United States Postal Service", "brand:wikidata": "Q668687", "collection_times": "Mo-Fr 12:00; Sa 10:00", "nsi_id": "unitedstatespostalservice-a77078", "operator": "United States Postal Service", "operator:short": "USPS", "operator:type": "public", "operator:wikidata": "Q668687", "ref": "9150400036"}, "type": "Feature"}
{"geometry": {"coordinates": [-118.335603, 34.195082], "type": "Point"}, "id": "RntGFq1svMW1JnY9QOxj7qJPg2U=", "properties": {"@source_uri": "https://tools.usps.com/UspsToolsRestServices/rest/POLocator/findLocations", "@spider": "usps_collection_boxes", "addr:city": "BURBANK", "addr:country": "US", "addr:postcode": "91504", "addr:state": "CA", "addr:street_address": "2100 N LINCOLN ST", "amenity": "post_box", "brand": "United States Postal Service", "brand:wikidata": "Q668687", "collection_times": "Mo-Sa 10:00", "nsi_id": "unitedstatespostalservice-a77078", "operator": "United States Postal Service", "operator:short": "USPS", "operator:type": "public", "operator:wikidata": "Q668687", "ref": "9150400039"}, "type": "Feature"}
{"geometry": {"coordinates": [-118.353688, 34.196437], "type": "Point"}, "id": "bd3PnM1_iQaPmD1TA_pP2Gfz3UI=", "properties": {"@source_uri": "https://tools.usps.com/UspsToolsRestServices/rest/POLocator/findLocations", "@spider": "usps_collection_boxes", "addr:city": "BURBANK", "addr:country": "US", "addr:postcode": "91505", "addr:state": "CA", "addr:street_address": "2627 N HOLLYWOOD WAY", "amenity": "post_box", "brand": "United States Postal Service", "brand:wikidata": "Q668687", "collection_times": "Mo-Sa 10:00", "nsi_id": "unitedstatespostalservice-a77078", "operator": "United States Postal Service", "operator:short": "USPS", "operator:type": "public", "operator:wikidata": "Q668687", "ref": "9150500002"}, "type": "Feature"}
{"geometry": {"coordinates": [-118.345266, 34.15262], "type": "Point"}, "id": "shxPXaRUrvwe3OlCEDNOIrHUOwU=", "properties": {"@source_uri": "https://tools.usps.com/UspsToolsRestServices/rest/POLocator/findLocations", "@spider": "usps_collection_boxes", "addr:city": "BURBANK", "addr:country": "US", "addr:postcode": "91505", "addr:state": "CA", "addr:street_address": "4111 W ALAMEDA AVE", "amenity": "post_box", "brand": "United States Postal Service", "brand:wikidata": "Q668687", "collection_times": "Mo-Fr 12:00; Sa 10:00", "nsi_id": "unitedstatespostalservice-a77078", "operator": "United States Postal Service", "operator:short": "USPS", "operator:type": "public", "operator:wikidata": "Q668687", "ref": "9150500010"}, "type": "Feature"}
{"geometry": {"coordinates": [-118.352314, 34.1739], "type": "Point"}, "id": "EATzOqoytAfWQENoZF10iCtrbPI=", "properties": {"@source_uri": "https://tools.usps.com/UspsToolsRestServices/rest/POLocator/findLocations", "@spider": "usps_collection_boxes", "addr:city": "BURBANK", "addr:country": "US", "addr:postcode": "91505", "addr:state": "CA", "addr:street_address": "3800 W BURBANK BLVD", "amenity": "post_box", "brand": "United States Postal Service", "brand:wikidata": "Q668687", "collection_times": "Mo-Sa 10:00", "nsi_id": "unitedstatespostalservice-a77078", "operator": "United States Postal Service", "operator:short": "USPS", "operator:type": "public", "operator:wikidata": "Q668687", "ref": "9150500015"}, "type": "Feature"}
{"geometry": {"coordinates": [-118.342863, 34.169385], "type": "Point"}, "id": "CpFgjOj5rDyeLFzqBwm-elPsHnQ=", "properties": {"@source_uri": "https://tools.usps.com/UspsToolsRestServices/rest/POLocator/findLocations", "@spider": "usps_collection_boxes", "addr:city": "BURBANK", "addr:country": "US", "addr:postcode": "91505", "addr:state": "CA", "addr:street_address": "1000 N CALIFORNIA ST", "amenity": "post_box", "brand": "United States Postal Service", "brand:wikidata": "Q668687", "collection_times": "Mo-Sa 10:00", "nsi_id": "unitedstatespostalservice-a77078", "operator": "United States Postal Service", "operator:short": "USPS", "operator:type": "public", "operator:wikidata": "Q668687", "ref": "9150500017"}, "type": "Feature"}
{"geometry": {"coordinates": [-118.338275, 34.166705], "type": "Point"}, "id": "rLAdD4viRSYiHBYT8vJzJ35vQTQ=", "properties": {"@source_uri": "https://tools.usps.com/UspsToolsRestServices/rest/POLocator/findLocations", "@spider": "usps_collection_boxes", "addr:city": "BURBANK", "addr:country": "US", "addr:postcode": "91505", "addr:state": "CA", "addr:street_address": "700 N NIAGARA ST", "amenity": "post_box", "brand": "United States Postal Service", "brand:wikidata": "Q668687", "collection_times": "Mo-Sa 10:00", "nsi_id": "unitedstatespostalservice-a77078", "operator": "United States Postal Service", "operator:short": "USPS", "operator:type": "public", "operator:wikidata": "Q668687", "ref": "9150500022"}, "type": "Feature"}
{"geometry": {"coordinates": [-118.346517, 34.155387], "type": "Point"}, "id": "zNxP__ez9j1D1X_4TMY05bmtA_Y=", "properties": {"@source_uri": "https://tools.usps.com/UspsToolsRestServices/rest/POLocator/findLocations", "@spider": "usps_collection_boxes", "addr:city": "BURBANK", "addr:country": "US", "addr:postcode": "91505", "addr:state": "CA", "addr:street_address": "317 N PASS AVE", "amenity": "post_box", "brand": "United States Postal Service", "brand:wikidata": "Q668687", "collection_times": "Mo-Sa 12:00", "nsi_id": "unitedstatespostalservice-a77078", "operator": "United States Postal Service", "operator:short": "USPS", "operator:type": "public", "operator:wikidata": "Q668687", "ref": "9150500025"}, "type": "Feature"}
{"geometry": {"coordinates": [-118.3323439254, 34.1520114798], "type": "Point"}, "id": "3SDUTjlTLhcHUErK51LRlrqhFXo=", "properties": {"@source_uri": "https://tools.usps.com/UspsToolsRestServices/rest/POLocator/findLocations", "@spider": "usps_collection_boxes", "addr:city": "BURBANK", "addr:country": "US", "addr:postcode": "91505", "addr:state": "CA", "addr:street_address": "300 FAIRVIEW ST", "amenity": "post_box", "brand": "United States Postal Service", "brand:wikidata": "Q668687", "collection_times": "Mo-Sa 10:00", "nsi_id": "unitedstatespostalservice-a77078", "operator": "United States Postal Service", "operator:short": "USPS", "operator:type": "public", "operator:wikidata": "Q668687", "ref": "9150500027"}, "type": "Feature"}
{"geometry": {"coordinates": [-118.334737, 34.164114], "type": "Point"}, "id": "Zh9txp31F2bPZvB0B7GKOjjODN8=", "properties": {"@source_uri": "https://tools.usps.com/UspsToolsRestServices/rest/POLocator/findLocations", "@spider": "usps_collection_boxes", "addr:city": "BURBANK", "addr:country": "US", "addr:postcode": "91505", "addr:state": "CA", "addr:street_address": "400 N FLORENCE ST", "amenity": "post_box", "brand": "United States Postal Service", "brand:wikidata": "Q668687", "collection_times": "Mo-Sa 10:00", "nsi_id": "unitedstatespostalservice-a77078", "operator": "United States Postal Service", "operator:short": "USPS", "operator:type": "public", "operator:wikidata": "Q668687", "ref": "9150500030"}, "type": "Feature"}
{"geometry": {"coordinates": [-118.337061, 34.171328], "type": "Point"}, "id": "wstTLlynvaG0Y3CfAFIZry8FrN0=", "properties": {"@source_uri": "https://tools.usps.com/UspsToolsRestServices/rest/POLocator/findLocations", "@spider": "usps_collection_boxes", "addr:city": "BURBANK", "addr:country": "US", "addr:postcode": "91505", "addr:state": "CA", "addr:street_address": "2721 W MAGNOLIA BLVD", "amenity": "post_box", "brand": "United States Postal Service", "brand:wikidata": "Q668687", "collection_times": "Mo-Fr 12:00; Sa 10:00", "nsi_id": "unitedstatespostalservice-a77078", "operator": "United States Postal Service", "operator:short": "USPS", "operator:type": "public", "operator:wikidata": "Q668687", "ref": "9150500039"}, "type": "Feature"}
{"geometry": {"coordinates": [-118.35858, 34.184677], "type": "Point"}, "id": "wypx7fWwlt-1EHNXwRWRatnZUgI=", "properties": {"@source_uri": "https://tools.usps.com/UspsToolsRestServices/rest/POLocator/findLocations", "@spider": "usps_collection_boxes", "addr:city": "BURBANK", "addr:country": "US", "addr:postcode": "91505", "addr:state": "CA", "addr:street_address": "4400 W VICTORY BLVD", "amenity": "post_box", "brand": "United States Postal Service", "brand:wikidata": "Q668687", "collection_times": "Mo-Sa 10:00", "nsi_id": "unitedstatespostalservice-a77078", "operator": "United States Postal Service", "operator:short": "USPS", "operator:type": "public", "operator:wikidata": "Q668687", "ref": "9150500044"}, "type": "Feature"}
{"geometry": {"coordinates": [-118.3456409702, 34.1502610879], "type": "Point"}, "id": "hiifx9l3UjRF9ssWap5tSX-Vkck=", "properties": {"@source_uri": "https://tools.usps.com/UspsToolsRestServices/rest/POLocator/findLocations", "@spider": "usps_collection_boxes", "addr:city": "BURBANK", "addr:country": "US", "addr:postcode": "91505", "addr:state": "CA", "addr:street_address": "4200 W NATIONAL AVE", "amenity": "post_box", "brand": "United States Postal Service", "brand:wikidata": "Q668687", "collection_times": "Mo-Sa 10:00", "nsi_id": "unitedstatespostalservice-a77078", "operator": "United States Postal Service", "operator:short": "USPS", "operator:type": "public", "operator:wikidata": "Q668687", "ref": "9150500045"}, "type": "Feature"}
{"geometry": {"coordinates": [-118.330474, 34.160122], "type": "Point"}, "id": "R1uf851qSQQHfF1vNzLFLLhiVk0=", "properties": {"@source_uri": "https://tools.usps.com/UspsToolsRestServices/rest/POLocator/findLocations", "@spider": "usps_collection_boxes", "addr:city": "BURBANK", "addr:country": "US", "addr:postcode": "91505", "addr:state": "CA", "addr:street_address": "2600 W OLIVE AVE", "amenity": "post_box", "brand": "United States Postal Service", "brand:wikidata": "Q668687", "collection_times": "Mo-Fr 12:00; Sa 10:00", "nsi_id": "unitedstatespostalservice-a77078", "operator": "United States Postal Service", "operator:short": "USPS", "operator:type": "public", "operator:wikidata": "Q668687", "ref": "9150500047"}, "type": "Feature"}
{"geometry": {"coordinates": [-118.3409637253, 34.152565293], "type": "Point"}, "id": "Mm9bxZaEx1PwhsgkZ24sfkYAie8=", "properties": {"@source_uri": "https://tools.usps.com/UspsToolsRestServices/rest/POLocator/findLocations", "@spider": "usps_collection_boxes", "addr:city": "BURBANK", "addr:country": "US", "addr:postcode": "91505", "addr:state": "CA", "addr:street_address": "3802 RIVERSIDE DR", "amenity": "post_box", "brand": "United States Postal Service", "brand:wikidata": "Q668687", "collection_times": "Mo-Fr 12:00; Sa 10:00", "nsi_id": "unitedstatespostalservice-a77078", "operator": "United States Postal Service", "operator:short": "USPS", "operator:type": "public", "operator:wikidata": "Q668687", "ref": "9150500052"}, "type": "Feature"}
{"geometry": {"coordinates": [-118.354643, 34.165194], "type": "Point"}, "id": "7e10qAlURJDUiaXWergsWBtYFR8=", "properties": {"@source_uri": "https://tools.usps.com/UspsToolsRestServices/rest/POLocator/findLocations", "@spider": "usps_collection_boxes", "addr:city": "BURBANK", "addr:country": "US", "addr:postcode": "91505", "addr:state": "CA", "addr:street_address": "4420 W MAGNOLIA BLVD", "amenity": "post_box", "brand": "United States Postal Service", "brand:wikidata": "Q668687", "collection_times": "Mo-Sa 10:00", "nsi_id": "unitedstatespostalservice-a77078", "operator": "United States Postal Service", "operator:short": "USPS", "operator:type": "public", "operator:wikidata": "Q668687", "ref": "9150500060"}, "type": "Feature"}
{"geometry": {"coordinates": [-118.346608, 34.155343], "type": "Point"}, "id": "G7bHFqMN2QNpE4xIf3d0V7E2tYo=", "properties": {"@source_uri": "https://tools.usps.com/UspsToolsRestServices/rest/POLocator/findLocations", "@spider": "usps_collection_boxes", "addr:city": "BURBANK", "addr:country": "US", "addr:postcode": "91505", "addr:state": "CA", "addr:street_address": "317 N PASS AVE", "amenity": "post_box", "brand": "United States Postal Service", "brand:wikidata": "Q668687", "collection_times": "Mo-Sa 12:00", "nsi_id": "unitedstatespostalservice-a77078", "operator": "United States Postal Service", "operator:short": "USPS", "operator:type": "public", "operator:wikidata": "Q668687", "ref": "9150500061"}, "type": "Feature"}
{"geometry": {"coordinates": [-118.3490682898, 34.1878932712], "type": "Point"}, "id": "OGezHEpqI9TRUQkSLeH-lm_WZV8=", "properties": {"@source_uri": "https://tools.usps.com/UspsToolsRestServices/rest/POLocator/findLocations", "@spider": "usps_collection_boxes", "addr:city": "BURBANK", "addr:country": "US", "addr:postcode": "91505", "addr:state": "CA", "addr:street_address": "2140 N HOLLYWOOD WAY", "amenity": "post_box", "brand": "United States Postal Service", "brand:wikidata": "Q668687", "collection_times": "Mo-Fr 18:30; Sa 17:00", "note": "ON 12/24 AND 12/31, THIS BOX MAY BE COLLECTED AS EARLY AS 12 NOON.", "nsi_id": "unitedstatespostalservice-a77078", "operator": "United States Postal Service", "operator:short": "USPS", "operator:type": "public", "operator:wikidata": "Q668687", "ref": "9150500065"}, "type": "Feature"}
{"geometry": {"coordinates": [-118.348181973, 34.187946997], "type": "Point"}, "id": "6ZoXfqkXSKQP5ifqtuzKG4FNhjI=", "properties": {"@source_uri": "https://tools.usps.com/UspsToolsRestServices/rest/POLocator/findLocations", "@spider": "usps_collection_boxes", "addr:city": "BURBANK", "addr:country": "US", "addr:postcode": "91505", "addr:state": "CA", "addr:street_address": "2140 N HOLLYWOOD WAY", "amenity": "post_box", "brand": "United States Postal Service", "brand:wikidata": "Q668687", "collection_times": "Mo-Fr 18:30; Sa 17:00", "note": "ON 12/24 AND 12/31, THIS BOX MAY BE COLLECTED AS EARLY AS 12 NOON.", "nsi_id": "unitedstatespostalservice-a77078", "operator": "United States Postal Service", "operator:short": "USPS", "operator:type": "public", "operator:wikidata": "Q668687", "ref": "9150500068"}, "type": "Feature"}
{"geometry": {"coordinates": [-118.345394899, 34.164679002], "type": "Point"}, "id": "uwXgXcNDmx7wAf5BGMADVEaU6mo=", "properties": {"@source_uri": "https://tools.usps.com/UspsToolsRestServices/rest/POLocator/findLocations", "@spider": "usps_collection_boxes", "addr:city": "BURBANK", "addr:country": "US", "addr:postcode": "91505", "addr:state": "CA", "addr:street_address": "800 N HOLLYWOOD WAY", "amenity": "post_box", "brand": "United States Postal Service", "brand:wikidata": "Q668687", "collection_times": "Mo-Fr 12:00; Sa 10:00", "nsi_id": "unitedstatespostalservice-a77078", "operator": "United States Postal Service", "operator:short": "USPS", "operator:type": "public", "operator:wikidata": "Q668687", "ref": "9150500074"}, "type": "Feature"}
{"geometry": {"coordinates": [-118.345205, 34.152635], "type": "Point"}, "id": "uQsL6Pj2vXde7REqqSdJmonWS_Q=", "properties": {"@source_uri": "https://tools.usps.com/UspsToolsRestServices/rest/POLocator/findLocations", "@spider": "usps_collection_boxes", "addr:city": "BURBANK", "addr:country": "US", "addr:postcode": "91505", "addr:state": "CA", "addr:street_address": "4111 W ALAMEDA AVE", "amenity": "post_box", "brand": "United States Postal Service", "brand:wikidata": "Q668687", "collection_times": "Mo-Fr 12:00; Sa 10:00", "nsi_id": "unitedstatespostalservice-a77078", "operator": "United States Postal Service", "operator:short": "USPS", "operator:type": "public", "operator:wikidata": "Q668687", "ref": "9150500078"}, "type": "Feature"}
{"geometry": {"coordinates": [-118.338548, 34.15249], "type": "Point"}, "id": "MdvZpzsEbFa7uhiDe29frZT4x3k=", "properties": {"@source_uri": "https://tools.usps.com/UspsToolsRestServices/rest/POLocator/findLocations", "@spider": "usps_collection_boxes", "addr:city": "BURBANK", "addr:country": "US", "addr:postcode": "91505", "addr:state": "CA", "addr:street_address": "3500 W OLIVE AVE", "amenity": "post_box", "brand": "United States Postal Service", "brand:wikidata": "Q668687", "collection_times": "Mo-Fr 12:00; Sa 10:00", "nsi_id": "unitedstatespostalservice-a77078", "operator": "United States Postal Service", "operator:short": "USPS", "operator:type": "public", "operator:wikidata": "Q668687", "ref": "9150500082"}, "type": "Feature"}
{"geometry": {"coordinates": [-118.3490682898, 34.1878932712], "type": "Point"}, "id": "0jNQ2CGeSLRBjtjbBxM4pX2ZodU=", "properties": {"@source_uri": "https://tools.usps.com/UspsToolsRestServices/rest/POLocator/findLocations", "@spider": "usps_collection_boxes", "addr:city": "BURBANK", "addr:country": "US", "addr:postcode": "91505", "addr:state": "CA", "addr:street_address": "2140 N HOLLYWOOD WAY", "amenity": "post_box", "brand": "United States Postal Service", "brand:wikidata": "Q668687", "collection_times": "Mo-Fr 18:30; Sa 17:00", "indoor": "yes", "note": "ON 12/24 AND 12/31, THIS BOX MAY BE COLLECTED AS EARLY AS 12 NOON.", "nsi_id": "unitedstatespostalservice-a77078", "operator": "United States Postal Service", "operator:short": "USPS", "operator:type": "public", "operator:wikidata": "Q668687", "ref": "9150500084"}, "type": "Feature"}
{"geometry": {"coordinates": [-118.3490682898, 34.1878932712], "type": "Point"}, "id": "7OjQI13Zuho6VgK1uj15--F4AnM=", "properties": {"@source_uri": "https://tools.usps.com/UspsToolsRestServices/rest/POLocator/findLocations", "@spider": "usps_collection_boxes", "addr:city": "BURBANK", "addr:country": "US", "addr:postcode": "91505", "addr:state": "CA", "addr:street_address": "2140 N HOLLYWOOD WAY", "amenity": "post_box", "brand": "United States Postal Service", "brand:wikidata": "Q668687", "collection_times": "Mo-Fr 18:30; Sa 17:00", "note": "ON 12/24 AND 12/31, THIS BOX MAY BE COLLECTED AS EARLY AS 12 NOON.", "nsi_id": "unitedstatespostalservice-a77078", "operator": "United States Postal Service", "operator:short": "USPS", "operator:type": "public", "operator:wikidata": "Q668687", "ref": "9150500091"}, "type": "Feature"}
{"geometry": {"coordinates": [-118.3490682898, 34.1878932712], "type": "Point"}, "id": "xCDMC3nIJPfC0weIPZqNiScbzTw=", "properties": {"@source_uri": "https://tools.usps.com/UspsToolsRestServices/rest/POLocator/findLocations", "@spider": "usps_collection_boxes", "addr:city": "BURBANK", "addr:country": "US", "addr:postcode": "91505", "addr:state": "CA", "addr:street_address": "2140 N HOLLYWOOD WAY", "amenity": "post_box", "brand": "United States Postal Service", "brand:wikidata": "Q668687", "collection_times": "Mo-Fr 18:30; Sa 17:00", "name": "USPS COLLECTION BOX - APC", "note": "ON 12/24 AND 12/31, THIS BOX MAY BE COLLECTED AS EARLY AS 12 NOON.", "nsi_id": "unitedstatespostalservice-a77078", "operator": "United States Postal Service", "operator:short": "USPS", "operator:type": "public", "operator:wikidata": "Q668687", "ref": "9150500093"}, "type": "Feature"}
{"geometry": {"coordinates": [-118.341441, 34.14968], "type": "Point"}, "id": "xGT0T1pn_7OdxW5yzD2baiw2IUk=", "properties": {"@source_uri": "https://tools.usps.com/UspsToolsRestServices/rest/POLocator/findLocations", "@spider": "usps_collection_boxes", "addr:city": "BURBANK", "addr:country": "US", "addr:postcode": "91505", "addr:state": "CA", "addr:street_address": "3900 W OLIVE AVE", "amenity": "post_box", "brand": "United States Postal Service", "brand:wikidata": "Q668687", "collection_times": "Mo-Sa 10:00", "nsi_id": "unitedstatespostalservice-a77078", "operator": "United States Postal Service", "operator:short": "USPS", "operator:type": "public", "operator:wikidata": "Q668687", "ref": "9150500099"}, "type": "Feature"}
{"geometry": {"coordinates": [-118.343283, 34.176905], "type": "Point"}, "id": "HjVApFboLkMHWCL2D02GePFqafk=", "properties": {"@source_uri": "https://tools.usps.com/UspsToolsRestServices/rest/POLocator/findLocations", "@spider": "usps_collection_boxes", "addr:city": "BURBANK", "addr:country": "US", "addr:postcode": "91505", "addr:state": "CA", "addr:street_address": "3000 W BURBANK BLVD", "amenity": "post_box", "brand": "United States Postal Service", "brand:wikidata": "Q668687", "collection_times": "Mo-Sa 10:00", "nsi_id": "unitedstatespostalservice-a77078", "operator": "United States Postal Service", "operator:short": "USPS", "operator:type": "public", "operator:wikidata": "Q668687", "ref": "9150500100"}, "type": "Feature"}
{"geometry": {"coordinates": [-118.326299, 34.15649], "type": "Point"}, "id": "U8CpWIYKJ53A0i3X6vegUrWk7aw=", "properties": {"@source_uri": "https://tools.usps.com/UspsToolsRestServices/rest/POLocator/findLocations", "@spider": "usps_collection_boxes", "addr:city": "BURBANK", "addr:country": "US", "addr:postcode": "91505", "addr:state": "CA", "addr:street_address": "500 S BUENAVISTA ST", "amenity": "post_box", "brand": "United States Postal Service", "brand:wikidata": "Q668687", "collection_times": "Mo-Fr 14:00", "note": "ON 12/24 AND 12/31, THIS BOX MAY BE COLLECTED AS EARLY AS 12 NOON.", "nsi_id": "unitedstatespostalservice-a77078", "operator": "United States Postal Service", "operator:short": "USPS", "operator:type": "public", "operator:wikidata": "Q668687", "ref": "9150500101"}, "type": "Feature"}
{"geometry": {"coordinates": [-118.3490682898, 34.1878932712], "type": "Point"}, "id": "q-RxIegsEQzx7KldDINsFl4r_IQ=", "properties": {"@source_uri": "https://tools.usps.com/UspsToolsRestServices/rest/POLocator/findLocations", "@spider": "usps_collection_boxes", "addr:city": "BURBANK", "addr:country": "US", "addr:postcode": "91505", "addr:state": "CA", "addr:street_address": "2140 N HOLLYWOOD WAY", "amenity": "post_box", "brand": "United States Postal Service", "brand:wikidata": "Q668687", "collection_times": "Mo-Fr 18:30", "indoor": "yes", "note": "ON 12/24 AND 12/31, THIS BOX MAY BE COLLECTED AS EARLY AS 12 NOON.", "nsi_id": "unitedstatespostalservice-a77078", "operator": "United States Postal Service", "operator:short": "USPS", "operator:type": "public", "operator:wikidata": "Q668687", "ref": "9150500108"}, "type": "Feature"}
{"geometry": {"coordinates": [-118.329904982, 34.157972012], "type": "Point"}, "id": "aPBF-d5X_odqF2K2760bPivojFo=", "properties": {"@source_uri": "https://tools.usps.com/UspsToolsRestServices/rest/POLocator/findLocations", "@spider": "usps_collection_boxes", "addr:city": "BURBANK", "addr:country": "US", "addr:postcode": "91505", "addr:state": "CA", "addr:street_address": "2625 W ALAMEDA AVE", "amenity": "post_box", "brand": "United States Postal Service", "brand:wikidata": "Q668687", "collection_times": "Mo-Fr 12:00; Sa 10:00", "nsi_id": "unitedstatespostalservice-a77078", "operator": "United States Postal Service", "operator:short": "USPS", "operator:type": "public", "operator:wikidata": "Q668687", "ref": "9150500112"}, "type": "Feature"}
{"geometry": {"coordinates": [-118.316994, 34.161823], "type": "Point"}, "id": "USlRmVgdF_8PiSyTdHDeXOTyMZA=", "properties": {"@source_uri": "https://tools.usps.com/UspsToolsRestServices/rest/POLocator/findLocations", "@spider": "usps_collection_boxes", "addr:city": "BURBANK", "addr:country": "US", "addr:postcode": "91506", "addr:state": "CA", "addr:street_address": "600 S GRIFFITH PARK DR", "amenity": "post_box", "brand": "United States Postal Service", "brand:wikidata": "Q668687", "collection_times": "Mo-Sa 10:00", "nsi_id": "unitedstatespostalservice-a77078", "operator": "United States Postal Service", "operator:short": "USPS", "operator:type": "public", "operator:wikidata": "Q668687", "ref": "9150600002"}, "type": "Feature"}
{"geometry": {"coordinates": [-118.323713, 34.159783], "type": "Point"}, "id": "1RWah_us2jPYBiVUb3tSsIVu6q0=", "properties": {"@source_uri": "https://tools.usps.com/UspsToolsRestServices/rest/POLocator/findLocations", "@spider": "usps_collection_boxes", "addr:city": "BURBANK", "addr:country": "US", "addr:postcode": "91506", "addr:state": "CA", "addr:street_address": "2031 W ALAMEDA AVE", "amenity": "post_box", "brand": "United States Postal Service", "brand:wikidata": "Q668687", "collection_times": "Mo-Sa 10:00", "nsi_id": "unitedstatespostalservice-a77078", "operator": "United States Postal Service", "operator:short": "USPS", "operator:type": "public", "operator:wikidata": "Q668687", "ref": "9150600003"}, "type": "Feature"}
{"geometry": {"coordinates": [-118.31462, 34.162913], "type": "Point"}, "id": "XvBV2Xu0RLgsxXhcyv8SC0fUaqw=", "properties": {"@source_uri": "https://tools.usps.com/UspsToolsRestServices/rest/POLocator/findLocations", "@spider": "usps_collection_boxes", "addr:city": "BURBANK", "addr:country": "US", "addr:postcode": "91506", "addr:state": "CA", "addr:street_address": "1111 W ALAMEDA AVE", "amenity": "post_box", "brand": "United States Postal Service", "brand:wikidata": "Q668687", "collection_times": "Mo-Fr 12:00; Sa 10:00", "nsi_id": "unitedstatespostalservice-a77078", "operator": "United States Postal Service", "operator:short": "USPS", "operator:type": "public", "operator:wikidata": "Q668687", "ref": "9150600004"}, "type": "Feature"}
{"geometry": {"coordinates": [-118.333705, 34.180118], "type": "Point"}, "id": "tEMtuNljyBvWaGCdeX1T8Gezf2M=", "properties": {"@source_uri": "https://tools.usps.com/UspsToolsRestServices/rest/POLocator/findLocations", "@spider": "usps_collection_boxes", "addr:city": "BURBANK", "addr:country": "US", "addr:postcode": "91506", "addr:state": "CA", "addr:street_address": "2018 W BURBANK BLVD", "amenity": "post_box", "brand": "United States Postal Service", "brand:wikidata": "Q668687", "collection_times": "Mo-Sa 12:00", "nsi_id": "unitedstatespostalservice-a77078", "operator": "United States Postal Service", "operator:short": "USPS", "operator:type": "public", "operator:wikidata": "Q668687", "ref": "9150600007"}, "type": "Feature"}
{"geometry": {"coordinates": [-118.323896, 34.167144], "type": "Point"}, "id": "FAAaW4lkTEpgBEwUKH2kNn5KXhk=", "properties": {"@source_uri": "https://tools.usps.com/UspsToolsRestServices/rest/POLocator/findLocations", "@spider": "usps_collection_boxes", "addr:city": "BURBANK", "addr:country": "US", "addr:postcode": "91506", "addr:state": "CA", "addr:street_address": "1730 W VERDUGO AVE", "amenity": "post_box", "brand": "United States Postal Service", "brand:wikidata": "Q668687", "collection_times": "Mo-Sa 12:00", "nsi_id": "unitedstatespostalservice-a77078", "operator": "United States Postal Service", "operator:short": "USPS", "operator:type": "public", "operator:wikidata": "Q668687", "ref": "9150600012"}, "type": "Feature"}
{"geometry": {"coordinates": [-118.336209, 34.18469], "type": "Point"}, "id": "wS_K-DTBIk3MOxM9iRTXzDbHXHs=", "properties": {"@source_uri": "https://tools.usps.com/UspsToolsRestServices/rest/POLocator/findLocations", "@spider": "usps_collection_boxes", "addr:city": "BURBANK", "addr:country": "US", "addr:postcode": "91506", "addr:state": "CA", "addr:street_address": "2301 W VICTORY BLVD", "amenity": "post_box", "brand": "United States Postal Service", "brand:wikidata": "Q668687", "collection_times": "Mo-Sa 10:00", "nsi_id": "unitedstatespostalservice-a77078", "operator": "United States Postal Service", "operator:short": "USPS", "operator:type": "public", "operator:wikidata": "Q668687", "ref": "9150600017"}, "type": "Feature"}
{"geometry": {"coordinates": [-118.325513, 34.175192], "type": "Point"}, "id": "om4q61Q3jXLjyyyoadCMJu-5VCs=", "properties": {"@source_uri": "https://tools.usps.com/UspsToolsRestServices/rest/POLocator/findLocations", "@spider": "usps_collection_boxes", "addr:city": "BURBANK", "addr:country": "US", "addr:postcode": "91506", "addr:state": "CA", "addr:street_address": "1539 W MAGNOLIA BLVD", "amenity": "post_box", "brand": "United States Postal Service", "brand:wikidata": "Q668687", "collection_times": "Mo-Fr 12:00; Sa 10:00", "nsi_id": "unitedstatespostalservice-a77078", "operator": "United States Postal Service", "operator:short": "USPS", "operator:type": "public", "operator:wikidata": "Q668687", "ref": "9150600019"}, "type": "Feature"}
{"geometry": {"coordinates": [-118.320058, 34.156637], "type": "Point"}, "id": "U4Pbr8FolNRpZhiI0XStIFD1-YM=", "properties": {"@source_uri": "https://tools.usps.com/UspsToolsRestServices/rest/POLocator/findLocations", "@spider": "usps_collection_boxes", "addr:city": "BURBANK", "addr:country": "US", "addr:postcode": "91506", "addr:state": "CA", "addr:street_address": "1800 W RIVERSIDE DR", "amenity": "post_box", "brand": "United States Postal Service", "brand:wikidata": "Q668687", "collection_times": "Mo-Sa 10:00", "nsi_id": "unitedstatespostalservice-a77078", "operator": "United States Postal Service", "operator:short": "USPS", "operator:type": "public", "operator:wikidata": "Q668687", "ref": "9150600022"}, "type": "Feature"}
{"geometry": {"coordinates": [-118.320511, 34.169921], "type": "Point"}, "id": "30dhxXuzfy11TsYU4xRxdMfcisM=", "properties": {"@source_uri": "https://tools.usps.com/UspsToolsRestServices/rest/POLocator/findLocations", "@spider": "usps_collection_boxes", "addr:city": "BURBANK", "addr:country": "US", "addr:postcode": "91506", "addr:state": "CA", "addr:street_address": "100 S GRIFFITH PARK", "amenity": "post_box", "brand": "United States Postal Service", "brand:wikidata": "Q668687", "collection_times": "Mo-Sa 10:00", "nsi_id": "unitedstatespostalservice-a77078", "operator": "United States Postal Service", "operator:short": "USPS", "operator:type": "public", "operator:wikidata": "Q668687", "ref": "9150600023"}, "type": "Feature"}
{"geometry": {"coordinates": [-118.323925, 34.167158], "type": "Point"}, "id": "kM_10DEsrLk-kEYb78NhDBTDjno=", "properties": {"@source_uri": "https://tools.usps.com/UspsToolsRestServices/rest/POLocator/findLocations", "@spider": "usps_collection_boxes", "addr:city": "BURBANK", "addr:country": "US", "addr:postcode": "91506", "addr:state": "CA", "addr:street_address": "1730 W VERDUGO AVE", "amenity": "post_box", "brand": "United States Postal Service", "brand:wikidata": "Q668687", "collection_times": "Mo-Sa 12:00", "nsi_id": "unitedstatespostalservice-a77078", "operator": "United States Postal Service", "operator:short": "USPS", "operator:type": "public", "operator:wikidata": "Q668687", "ref": "9150600027"}, "type": "Feature"}
{"geometry": {"coordinates": [-118.324725552, 34.155073983], "type": "Point"}, "id": "EsaNolf73eVq92vqDDvNwQfprNE=", "properties": {"@source_uri": "https://tools.usps.com/UspsToolsRestServices/rest/POLocator/findLocations", "@spider": "usps_collection_boxes", "addr:city": "BURBANK", "addr:country": "US", "addr:postcode": "91506", "addr:state": "CA", "addr:street_address": "2300 RIVERSIDE DR", "amenity": "post_box", "brand": "United States Postal Service", "brand:wikidata": "Q668687", "collection_times": "Mo-Fr 10:00", "nsi_id": "unitedstatespostalservice-a77078", "operator": "United States Postal Service", "operator:short": "USPS", "operator:type": "public", "operator:wikidata": "Q668687", "ref": "9150600032"}, "type": "Feature"}
{"geometry": {"coordinates": [-118.332569, 34.172851], "type": "Point"}, "id": "8Fw0NY8miqpAVzZh8viFy_MQBpA=", "properties": {"@source_uri": "https://tools.usps.com/UspsToolsRestServices/rest/POLocator/findLocations", "@spider": "usps_collection_boxes", "addr:city": "BURBANK", "addr:country": "US", "addr:postcode": "91506", "addr:state": "CA", "addr:street_address": "2211 W MAGNOLIA BLVD", "amenity": "post_box", "brand": "United States Postal Service", "brand:wikidata": "Q668687", "collection_times": "Mo-Fr 12:00; Sa 10:00", "nsi_id": "unitedstatespostalservice-a77078", "operator": "United States Postal Service", "operator:short": "USPS", "operator:type": "public", "operator:wikidata": "Q668687", "ref": "9150600036"}, "type": "Feature"}
