{"dataset_attributes": {"@spider": "usps_collection_boxes", "spider:collection_time": "2023-09-13T08:25:17.985642"}, "geometry": {"coordinates": [-118.364412, 34.164998], "type": "Point"}, "id": "bFW4MP4-JAmFeA_Ht3eKE-BORm0=", "properties": {"@spider": "usps_collection_boxes", "addr:city": "NORTH HOLLYWOOD", "addr:country": "US", "addr:full": "10729 MAGNOLIA BLVD", "addr:postcode": "91601", "addr:state": "CA", "amenity": "post_box", "brand": "United States Postal Service", "brand:wikidata": "Q668687", "collection_times": "Mo-Sa 10:00", "name": "USPS COLLECTION BOX - BLUE BOX", "nsi_id": "unitedstatespostalservice-a77078", "operator": "United States Postal Service", "operator:short": "USPS", "operator:type": "public", "operator:wikidata": "Q668687", "ref": "9160100004"}, "type": "Feature"}
{"dataset_attributes": {"@spider": "usps_collection_boxes", "spider:collection_time": "2023-09-13T08:25:17.985642"}, "geometry": {"coordinates": [-118.3777838068, 34.1680665356], "type": "Point"}, "id": "f3aeKSJba1YpWMxs3Mr6qTo8h8U=", "properties": {"@spider": "usps_collection_boxes", "addr:city": "NORTH HOLLYWOOD", "addr:country": "US", "addr:full": "11304 CHANDLER BLVD", "addr:postcode": "91601", "addr:state": "CA", "amenity": "post_box", "brand": "United States Postal Service", "brand:wikidata": "Q668687", "collection_times": "Mo-Fr 17:30", "name": "USPS COLLECTION BOX - PO LOBBY", "note": "ON 12/24 AND 12/31, THIS BOX MAY BE COLLECTED AS EARLY AS 12 NOON.", "nsi_id": "unitedstatespostalservice-a77078", "operator": "United States Postal Service", "operator:short": "USPS", "operator:type": "public", "operator:wikidata": "Q668687", "ref": "9160100025"}, "type": "Feature"}
{"dataset_attributes": {"@spider": "usps_collection_boxes", "spider:collection_time": "2023-09-13T08:25:17.985642"}, "geometry": {"coordinates": [-118.353123, 34.152338], "type": "Point"}, "id": "rIjx4pKISAa6KF9sSK4RIOpRplw=", "properties": {"@spider": "usps_collection_boxes", "addr:city": "NORTH HOLLYWOOD", "addr:country": "US", "addr:full": "10205 RIVERSIDE DR", "addr:postcode": "91602", "addr:state": "CA", "amenity": "post_box", "brand": "United States Postal Service", "brand:wikidata": "Q668687", "collection_times": "Mo-Sa 10:00", "name": "USPS COLLECTION BOX - BLUE BOX", "nsi_id": "unitedstatespostalservice-a77078", "operator": "United States Postal Service", "operator:short": "USPS", "operator:type": "public", "operator:wikidata": "Q668687", "ref": "9160200010"}, "type": "Feature"}
{"dataset_attributes": {"@spider": "usps_collection_boxes", "spider:collection_time": "2023-09-13T08:25:17.985642"}, "geometry": {"coordinates": [-118.350394, 34.152333], "type": "Point"}, "id": "XX1GRcabCGafeEiwJtWT3La1dpU=", "properties": {"@spider": "usps_collection_boxes", "addr:city": "NORTH HOLLYWOOD", "addr:country": "US", "addr:full": "10063 RIVERSIDE DR", "addr:postcode": "91602", "addr:state": "CA", "amenity": "post_box", "brand": "United States Postal Service", "brand:wikidata": "Q668687", "collection_times": "Mo-Fr 17:00; Sa 15:00", "name": "USPS COLLECTION BOX - BLUE BOX", "note": "ON 12/24 AND 12/31, THIS BOX MAY BE COLLECTED AS EARLY AS 12 NOON.", "nsi_id": "unitedstatespostalservice-a77078", "operator": "United States Postal Service", "operator:short": "USPS", "operator:type": "public", "operator:wikidata": "Q668687", "ref": "9160200023"}, "type": "Feature"}
{"dataset_attributes": {"@spider": "usps_collection_boxes", "spider:collection_time": "2023-09-13T08:25:17.985642"}, "geometry": {"coordinates": [-118.367921, 34.153593], "type": "Point"}, "id": "QpenUwYTNt7CWyfPTTFQu40XzcM=", "properties": {"@spider": "usps_collection_boxes", "addr:city": "NORTH HOLLYWOOD", "addr:country": "US", "addr:full": "4605 LANKERSHIM BLVD", "addr:postcode": "91602", "addr:state": "CA", "amenity": "post_box", "brand": "United States Postal Service", "brand:wikidata": "Q668687", "collection_times": "Mo-Sa 10:00", "name": "USPS COLLECTION BOX - BLUE BOX", "nsi_id": "unitedstatespostalservice-a77078", "operator": "United States Postal Service", "operator:short": "USPS", "operator:type": "public", "operator:wikidata": "Q668687", "ref": "9160200031"}, "type": "Feature"}
{"dataset_attributes": {"@spider": "usps_collection_boxes", "spider:collection_time": "2023-09-13T08:25:17.985642"}, "geometry": {"coordinates": [-118.350397, 34.152332], "type": "Point"}, "id": "go5FXtpfufpu6p8a0m_CDNWreX0=", "properties": {"@spider": "usps_collection_boxes", "addr:city": "NORTH HOLLYWOOD", "addr:country": "US", "addr:full": "10063 RIVERSIDE DR", "addr:postcode": "91602", "addr:state": "CA", "amenity": "post_box", "brand": "United States Postal Service", "brand:wikidata": "Q668687", "collection_times": "Mo-Fr 17:00; Sa 15:00", "name": "USPS COLLECTION BOX - BLUE BOX", "note": "ON 12/24 AND 12/31, THIS BOX MAY BE COLLECTED AS EARLY AS 12 NOON.", "nsi_id": "unitedstatespostalservice-a77078", "operator": "United States Postal Service", "operator:short": "USPS", "operator:type": "public", "operator:wikidata": "Q668687", "ref": "9160200038"}, "type": "Feature"}
{"dataset_attributes": {"@spider": "usps_collection_boxes", "spider:collection_time": "2023-09-13T08:25:17.985642"}, "geometry": {"coordinates": [-118.35041, 34.152342], "type": "Point"}, "id": "HJZO5pNKQhZf-ZAvS13pzfxdrII=", "properties": {"@spider": "usps_collection_boxes", "addr:city": "NORTH HOLLYWOOD", "addr:country": "US", "addr:full": "10063 RIVERSIDE DR", "addr:postcode": "91602", "addr:state": "CA", "amenity": "post_box", "brand": "United States Postal Service", "brand:wikidata": "Q668687", "collection_times": "Mo-Fr 17:00; Sa 15:00", "name": "USPS COLLECTION BOX - BLUE BOX", "note": "ON 12/24 AND 12/31, THIS BOX MAY BE COLLECTED AS EARLY AS 12 NOON.", "nsi_id": "unitedstatespostalservice-a77078", "operator": "United States Postal Service", "operator:short": "USPS", "operator:type": "public", "operator:wikidata": "Q668687", "ref": "9160200039"}, "type": "Feature"}
{"dataset_attributes": {"@spider": "usps_collection_boxes", "spider:collection_time": "2023-09-13T08:25:17.985642"}, "geometry": {"coordinates": [-118.350409, 34.152462], "type": "Point"}, "id": "zIhlIJfSZMyDJZuu9CS3I1fTKhM=", "properties": {"@spider": "usps_collection_boxes", "addr:city": "NORTH HOLLYWOOD", "addr:country": "US", "addr:full": "10063 RIVERSIDE DR", "addr:postcode": "91602", "addr:state": "CA", "amenity": "post_box", "brand": "United States Postal Service", "brand:wikidata": "Q668687", "collection_times": "Mo-Fr 17:00; Sa 14:30", "name": "USPS COLLECTION BOX - PO LOBBY", "note": "ON 12/24 AND 12/31, THIS BOX MAY BE COLLECTED AS EARLY AS 12 NOON.", "nsi_id": "unitedstatespostalservice-a77078", "operator": "United States Postal Service", "operator:short": "USPS", "operator:type": "public", "operator:wikidata": "Q668687", "ref": "9160200051"}, "type": "Feature"}
{"dataset_attributes": {"@spider": "usps_collection_boxes", "spider:collection_time": "2023-09-13T08:25:17.985642"}, "geometry": {"coordinates": [-118.350408, 34.15242], "type": "Point"}, "id": "yZKryW3rsQwMiYcTTCx5kG8aguQ=", "properties": {"@spider": "usps_collection_boxes", "addr:city": "NORTH HOLLYWOOD", "addr:country": "US", "addr:full": "10063 RIVERSIDE DR", "addr:postcode": "91602", "addr:state": "CA", "amenity": "post_box", "brand": "United States Postal Service", "brand:wikidata": "Q668687", "collection_times": "Mo-Fr 17:00; Sa 15:00", "name": "USPS COLLECTION BOX - APC", "note": "ON 12/24 AND 12/31, THIS BOX MAY BE COLLECTED AS EARLY AS 12 NOON.", "nsi_id": "unitedstatespostalservice-a77078", "operator": "United States Postal Service", "operator:short": "USPS", "operator:type": "public", "operator:wikidata": "Q668687", "ref": "9160200053"}, "type": "Feature"}
{"dataset_attributes": {"@spider": "usps_collection_boxes", "spider:collection_time": "2023-09-13T08:25:17.985642"}, "geometry": {"coordinates": [-118.3504135809, 34.1522345043], "type": "Point"}, "id": "5f3FEw9AxIAkuSZKbfpfFjrWxhY=", "properties": {"@spider": "usps_collection_boxes", "addr:city": "NORTH HOLLYWOOD", "addr:country": "US", "addr:full": "10063 RIVERSIDE DR", "addr:postcode": "91602", "addr:state": "CA", "amenity": "post_box", "brand": "United States Postal Service", "brand:wikidata": "Q668687", "collection_times": "Mo-Fr 17:30", "name": "USPS COLLECTION BOX - PO LOBBY", "note": "ON 12/24 AND 12/31, THIS BOX MAY BE COLLECTED AS EARLY AS 12 NOON.", "nsi_id": "unitedstatespostalservice-a77078", "operator": "United States Postal Service", "operator:short": "USPS", "operator:type": "public", "operator:wikidata": "Q668687", "ref": "9160200057"}, "type": "Feature"}
{"dataset_attributes": {"@spider": "usps_collection_boxes", "spider:collection_time": "2023-09-13T08:25:17.985642"}, "geometry": {"coordinates": [-118.378258, 34.167975], "type": "Point"}, "id": "amdzzePNL18pSQir1VGc15X8Y9U=", "properties": {"@spider": "usps_collection_boxes", "addr:city": "NORTH HOLLYWOOD", "addr:country": "US", "addr:full": "11304 CHANDLER BLVD", "addr:postcode": "91603", "addr:state": "CA", "amenity": "post_box", "brand": "United States Postal Service", "brand:wikidata": "Q668687", "collection_times": "Mo-Sa 17:00", "name": "USPS COLLECTION BOX - BLUE BOX", "note": "ON 12/24 AND 12/31, THIS BOX MAY BE COLLECTED AS EARLY AS 12 NOON.", "nsi_id": "unitedstatespostalservice-a77078", "operator": "United States Postal Service", "operator:short": "USPS", "operator:type": "public", "operator:wikidata": "Q668687", "ref": "9160300000"}, "type": "Feature"}
{"dataset_attributes": {"@spider": "usps_collection_boxes", "spider:collection_time": "2023-09-13T08:25:17.985642"}, "geometry": {"coordinates": [-118.377578, 34.168074], "type": "Point"}, "id": "I_NUiKcVV9Qz8EgbC9V5sKpcxHc=", "properties": {"@spider": "usps_collection_boxes", "addr:city": "NORTH HOLLYWOOD", "addr:country": "US", "addr:full": "11304 CHANDLER BLVD", "addr:postcode": "91603", "addr:state": "CA", "amenity": "post_box", "brand": "United States Postal Service", "brand:wikidata": "Q668687", "collection_times": "Mo-Sa 16:00", "name": "USPS COLLECTION BOX - EXPRESS", "note": "ON 12/24 AND 12/31, THIS BOX MAY BE COLLECTED AS EARLY AS 12 NOON.", "nsi_id": "unitedstatespostalservice-a77078", "operator": "United States Postal Service", "operator:short": "USPS", "operator:type": "public", "operator:wikidata": "Q668687", "ref": "9160300001"}, "type": "Feature"}
{"dataset_attributes": {"@spider": "usps_collection_boxes", "spider:collection_time": "2023-09-13T08:25:17.985642"}, "geometry": {"coordinates": [-118.377578, 34.168074], "type": "Point"}, "id": "A13qkIuGsMiatf3Q81A4DZ2mm7I=", "properties": {"@spider": "usps_collection_boxes", "addr:city": "NORTH HOLLYWOOD", "addr:country": "US", "addr:full": "11304 CHANDLER BLVD", "addr:postcode": "91603", "addr:state": "CA", "amenity": "post_box", "brand": "United States Postal Service", "brand:wikidata": "Q668687", "collection_times": "Mo-Sa 17:00", "name": "USPS COLLECTION BOX - PO LOBBY", "note": "ON 12/24 AND 12/31, THIS BOX MAY BE COLLECTED AS EARLY AS 12 NOON.", "nsi_id": "unitedstatespostalservice-a77078", "operator": "United States Postal Service", "operator:short": "USPS", "operator:type": "public", "operator:wikidata": "Q668687", "ref": "9160300002"}, "type": "Feature"}
{"dataset_attributes": {"@spider": "usps_collection_boxes", "spider:collection_time": "2023-09-13T08:25:17.985642"}, "geometry": {"coordinates": [-118.377578, 34.168074], "type": "Point"}, "id": "1CZ4Ig-nqyJNNpbzti8SAmxoQ1s=", "properties": {"@spider": "usps_collection_boxes", "addr:city": "NORTH HOLLYWOOD", "addr:country": "US", "addr:full": "11304 CHANDLER BLVD", "addr:postcode": "91603", "addr:state": "CA", "amenity": "post_box", "brand": "United States Postal Service", "brand:wikidata": "Q668687", "collection_times": "Mo-Sa 17:00", "name": "USPS COLLECTION BOX - BLUE BOX", "note": "ON 12/24 AND 12/31, THIS BOX MAY BE COLLECTED AS EARLY AS 12 NOON.", "nsi_id": "unitedstatespostalservice-a77078", "operator": "United States Postal Service", "operator:short": "USPS", "operator:type": "public", "operator:wikidata": "Q668687", "ref": "9160300004"}, "type": "Feature"}
{"dataset_attributes": {"@spider": "usps_collection_boxes", "spider:collection_time": "2023-09-13T08:25:17.985642"}, "geometry": {"coordinates": [-118.3776639767, 34.1679170142], "type": "Point"}, "id": "3J4UfIICaxyAXG0mDIfrsyvUM4A=", "properties": {"@spider": "usps_collection_boxes", "addr:city": "NORTH HOLLYWOOD", "addr:country": "US", "addr:full": "11304 CHANDLER BLVD", "addr:postcode": "91603", "addr:state": "CA", "amenity": "post_box", "brand": "United States Postal Service", "brand:wikidata": "Q668687", "collection_times": "Mo-Sa 12:00", "name": "USPS COLLECTION BOX - BLUE BOX", "nsi_id": "unitedstatespostalservice-a77078", "operator": "United States Postal Service", "operator:short": "USPS", "operator:type": "public", "operator:wikidata": "Q668687", "ref": "9160300005"}, "type": "Feature"}
{"dataset_attributes": {"@spider": "usps_collection_boxes", "spider:collection_time": "2023-09-13T08:25:17.985642"}, "geometry": {"coordinates": [-118.3946625614, 34.142020992], "type": "Point"}, "id": "DXKPYbeMRzfJALyvXuAa9kuds0c=", "properties": {"@spider": "usps_collection_boxes", "addr:city": "STUDIO CITY", "addr:country": "US", "addr:full": "3950 LAUREL CANYON BLVD", "addr:postcode": "91604", "addr:state": "CA", "amenity": "post_box", "brand": "United States Postal Service", "brand:wikidata": "Q668687", "collection_times": "Mo-Sa 17:00", "name": "USPS COLLECTION BOX - BLUE BOX", "note": "ON 12/24 AND 12/31, THIS BOX MAY BE COLLECTED AS EARLY AS 12 NOON.", "nsi_id": "unitedstatespostalservice-a77078", "operator": "United States Postal Service", "operator:short": "USPS", "operator:type": "public", "operator:wikidata": "Q668687", "ref": "9160400002"}, "type": "Feature"}
{"dataset_attributes": {"@spider": "usps_collection_boxes", "spider:collection_time": "2023-09-13T08:25:17.985642"}, "geometry": {"coordinates": [-118.370381, 34.140776], "type": "Point"}, "id": "XDa_HLjjcMCB-5vWIjG7x_sdNjo=", "properties": {"@spider": "usps_collection_boxes", "addr:city": "STUDIO CITY", "addr:country": "US", "addr:full": "11001 VENTURA BLVD", "addr:postcode": "91604", "addr:state": "CA", "amenity": "post_box", "brand": "United States Postal Service", "brand:wikidata": "Q668687", "collection_times": "Mo-Sa 10:00", "name": "USPS COLLECTION BOX - BLUE BOX", "nsi_id": "unitedstatespostalservice-a77078", "operator": "United States Postal Service", "operator:short": "USPS", "operator:type": "public", "operator:wikidata": "Q668687", "ref": "9160400003"}, "type": "Feature"}
{"dataset_attributes": {"@spider": "usps_collection_boxes", "spider:collection_time": "2023-09-13T08:25:17.985642"}, "geometry": {"coordinates": [-118.402926, 34.142996], "type": "Point"}, "id": "LC7hsSZkQiBBIsb4T9paBUINhJk=", "properties": {"@spider": "usps_collection_boxes", "addr:city": "STUDIO CITY", "addr:country": "US", "addr:full": "12345 VENTURA BLVD", "addr:postcode": "91604", "addr:state": "CA", "amenity": "post_box", "brand": "United States Postal Service", "brand:wikidata": "Q668687", "collection_times": "Mo-Sa 10:00", "name": "USPS COLLECTION BOX - BLUE BOX", "nsi_id": "unitedstatespostalservice-a77078", "operator": "United States Postal Service", "operator:short": "USPS", "operator:type": "public", "operator:wikidata": "Q668687", "ref": "9160400004"}, "type": "Feature"}
{"dataset_attributes": {"@spider": "usps_collection_boxes", "spider:collection_time": "2023-09-13T08:25:17.985642"}, "geometry": {"coordinates": [-118.410412, 34.14486], "type": "Point"}, "id": "2oU8PwkNWUx6b6jPUkVVdxTkcfk=", "properties": {"@spider": "usps_collection_boxes", "addr:city": "STUDIO CITY", "addr:country": "US", "addr:full": "12711 VENTURA BLVD", "addr:postcode": "91604", "addr:state": "CA", "amenity": "post_box", "brand": "United States Postal Service", "brand:wikidata": "Q668687", "collection_times": "Mo-Sa 10:00", "name": "USPS COLLECTION BOX - BLUE BOX", "nsi_id": "unitedstatespostalservice-a77078", "operator": "United States Postal Service", "operator:short": "USPS", "operator:type": "public", "operator:wikidata": "Q668687", "ref": "9160400009"}, "type": "Feature"}
{"dataset_attributes": {"@spider": "usps_collection_boxes", "spider:collection_time": "2023-09-13T08:25:17.985642"}, "geometry": {"coordinates": [-118.404905, 34.150307], "type": "Point"}, "id": "V609mGeZ8zQGtWD8kYtdBJ8PaGg=", "properties": {"@spider": "usps_collection_boxes", "addr:city": "STUDIO CITY", "addr:country": "US", "addr:full": "12452 MOORPARK ST", "addr:postcode": "91604", "addr:state": "CA", "amenity": "post_box", "brand": "United States Postal Service", "brand:wikidata": "Q668687", "collection_times": "Mo-Sa 10:00", "name": "USPS COLLECTION BOX - BLUE BOX", "nsi_id": "unitedstatespostalservice-a77078", "operator": "United States Postal Service", "operator:short": "USPS", "operator:type": "public", "operator:wikidata": "Q668687", "ref": "9160400018"}, "type": "Feature"}
{"dataset_attributes": {"@spider": "usps_collection_boxes", "spider:collection_time": "2023-09-13T08:25:17.985642"}, "geometry": {"coordinates": [-118.392564, 34.14464], "type": "Point"}, "id": "T6xT7QoHznY06tPN0nAx6jja8j8=", "properties": {"@spider": "usps_collection_boxes", "addr:city": "STUDIO CITY", "addr:country": "US", "addr:full": "4024 RADFORD AVE", "addr:postcode": "91604", "addr:state": "CA", "amenity": "post_box", "brand": "United States Postal Service", "brand:wikidata": "Q668687", "collection_times": "Mo-Sa 10:00", "name": "USPS COLLECTION BOX - BLUE BOX", "nsi_id": "unitedstatespostalservice-a77078", "operator": "United States Postal Service", "operator:short": "USPS", "operator:type": "public", "operator:wikidata": "Q668687", "ref": "9160400026"}, "type": "Feature"}
{"dataset_attributes": {"@spider": "usps_collection_boxes", "spider:collection_time": "2023-09-13T08:25:17.985642"}, "geometry": {"coordinates": [-118.403091, 34.142721], "type": "Point"}, "id": "MrRT5mvNoZWx6lyzE_wcb9iQ0Hg=", "properties": {"@spider": "usps_collection_boxes", "addr:city": "STUDIO CITY", "addr:country": "US", "addr:full": "12400 VENTURA BLVD", "addr:postcode": "91604", "addr:state": "CA", "amenity": "post_box", "brand": "United States Postal Service", "brand:wikidata": "Q668687", "collection_times": "Mo-Sa 10:00", "name": "USPS COLLECTION BOX - BLUE BOX", "nsi_id": "unitedstatespostalservice-a77078", "operator": "United States Postal Service", "operator:short": "USPS", "operator:type": "public", "operator:wikidata": "Q668687", "ref": "9160400028"}, "type": "Feature"}
{"dataset_attributes": {"@spider": "usps_collection_boxes", "spider:collection_time": "2023-09-13T08:25:17.985642"}, "geometry": {"coordinates": [-118.399207, 34.143341], "type": "Point"}, "id": "vdT6xqA_Ysmpxw1AP3x6KR4tOnc=", "properties": {"@spider": "usps_collection_boxes", "addr:city": "STUDIO CITY", "addr:country": "US", "addr:full": "12223 VENTURA BLVD", "addr:postcode": "91604", "addr:state": "CA", "amenity": "post_box", "brand": "United States Postal Service", "brand:wikidata": "Q668687", "collection_times": "Mo-Sa 10:00", "name": "USPS COLLECTION BOX - BLUE BOX", "nsi_id": "unitedstatespostalservice-a77078", "operator": "United States Postal Service", "operator:short": "USPS", "operator:type": "public", "operator:wikidata": "Q668687", "ref": "9160400036"}, "type": "Feature"}
{"dataset_attributes": {"@spider": "usps_collection_boxes", "spider:collection_time": "2023-09-13T08:25:17.985642"}, "geometry": {"coordinates": [-118.397521, 34.143467], "type": "Point"}, "id": "p20F9QYNyZ4bju1OjIv6aptpq4k=", "properties": {"@spider": "usps_collection_boxes", "addr:city": "STUDIO CITY", "addr:country": "US", "addr:full": "12169 VENTURA BLVD", "addr:postcode": "91604", "addr:state": "CA", "amenity": "post_box", "brand": "United States Postal Service", "brand:wikidata": "Q668687", "collection_times": "Mo-Sa 10:00", "name": "USPS COLLECTION BOX - BLUE BOX", "nsi_id": "unitedstatespostalservice-a77078", "operator": "United States Postal Service", "operator:short": "USPS", "operator:type": "public", "operator:wikidata": "Q668687", "ref": "9160400040"}, "type": "Feature"}
{"dataset_attributes": {"@spider": "usps_collection_boxes", "spider:collection_time": "2023-09-13T08:25:17.985642"}, "geometry": {"coordinates": [-118.3946625614, 34.142020992], "type": "Point"}, "id": "wQgTb8QhJYMEA3kzCukNR0XrLDM=", "properties": {"@spider": "usps_collection_boxes", "addr:city": "STUDIO CITY", "addr:country": "US", "addr:full": "3950 LAUREL CANYON BLVD", "addr:postcode": "91604", "addr:state": "CA", "amenity": "post_box", "brand": "United States Postal Service", "brand:wikidata": "Q668687", "collection_times": "Mo-Fr 17:30; Sa 17:00", "name": "USPS COLLECTION BOX - PO LOBBY", "note": "ON 12/24 AND 12/31, THIS BOX MAY BE COLLECTED AS EARLY AS 12 NOON.", "nsi_id": "unitedstatespostalservice-a77078", "operator": "United States Postal Service", "operator:short": "USPS", "operator:type": "public", "operator:wikidata": "Q668687", "ref": "9160400042"}, "type": "Feature"}
{"dataset_attributes": {"@spider": "usps_collection_boxes", "spider:collection_time": "2023-09-13T08:25:17.985642"}, "geometry": {"coordinates": [-118.3946625614, 34.142020992], "type": "Point"}, "id": "KUYf_xZUWuUx6NnUIHTRUkV-thk=", "properties": {"@spider": "usps_collection_boxes", "addr:city": "STUDIO CITY", "addr:country": "US", "addr:full": "3950 LAUREL CANYON BLVD", "addr:postcode": "91604", "addr:state": "CA", "amenity": "post_box", "brand": "United States Postal Service", "brand:wikidata": "Q668687", "collection_times": "Mo-Sa 17:00", "name": "USPS COLLECTION BOX - APC", "note": "ON 12/24 AND 12/31, THIS BOX MAY BE COLLECTED AS EARLY AS 12 NOON.", "nsi_id": "unitedstatespostalservice-a77078", "operator": "United States Postal Service", "operator:short": "USPS", "operator:type": "public", "operator:wikidata": "Q668687", "ref": "9160400043"}, "type": "Feature"}
{"dataset_attributes": {"@spider": "usps_collection_boxes", "spider:collection_time": "2023-09-13T08:25:17.985642"}, "geometry": {"coordinates": [-118.3946625614, 34.142020992], "type": "Point"}, "id": "NkCxBhQOhPqoQVGpjPB8f1WSSwk=", "properties": {"@spider": "usps_collection_boxes", "addr:city": "STUDIO CITY", "addr:country": "US", "addr:full": "3950 LAUREL CANYON BLVD", "addr:postcode": "91604", "addr:state": "CA", "amenity": "post_box", "brand": "United States Postal Service", "brand:wikidata": "Q668687", "collection_times": "Mo-Fr 17:30", "name": "USPS COLLECTION BOX - PO LOBBY", "note": "ON 12/24 AND 12/31, THIS BOX MAY BE COLLECTED AS EARLY AS 12 NOON.", "nsi_id": "unitedstatespostalservice-a77078", "operator": "United States Postal Service", "operator:short": "USPS", "operator:type": "public", "operator:wikidata": "Q668687", "ref": "9160400055"}, "type": "Feature"}
{"dataset_attributes": {"@spider": "usps_collection_boxes", "spider:collection_time": "2023-09-13T08:25:17.985642"}, "geometry": {"coordinates": [-118.3946625614, 34.142020992], "type": "Point"}, "id": "TMnwgu4lZ_ZbuxqtrF-AgyuN_yg=", "properties": {"@spider": "usps_collection_boxes", "addr:city": "STUDIO CITY", "addr:country": "US", "addr:full": "3950 LAUREL CANYON BLVD", "addr:postcode": "91604", "addr:state": "CA", "amenity": "post_box", "brand": "United States Postal Service", "brand:wikidata": "Q668687", "collection_times": "Mo-Sa 17:00", "name": "USPS COLLECTION BOX - BLUE BOX", "note": "ON 12/24 AND 12/31, THIS BOX MAY BE COLLECTED AS EARLY AS 12 NOON.", "nsi_id": "unitedstatespostalservice-a77078", "operator": "United States Postal Service", "operator:short": "USPS", "operator:type": "public", "operator:wikidata": "Q668687", "ref": "9160400056"}, "type": "Feature"}
{"dataset_attributes": {"@spider": "usps_collection_boxes", "spider:collection_time": "2023-09-13T08:25:17.985642"}, "geometry": {"coordinates": [-118.401025, 34.219306], "type": "Point"}, "id": "GWcUWs14sf5Ld7YzjZEUtwonlL4=", "properties": {"@spider": "usps_collection_boxes", "addr:city": "NORTH HOLLYWOOD", "addr:country": "US", "addr:full": "12300 CANTARA ST", "addr:postcode": "91605", "addr:state": "CA", "amenity": "post_box", "brand": "United States Postal Service", "brand:wikidata": "Q668687", "collection_times": "Mo-Sa 10:00", "name": "USPS COLLECTION BOX - BLUE BOX", "nsi_id": "unitedstatespostalservice-a77078", "operator": "United States Postal Service", "operator:short": "USPS", "operator:type": "public", "operator:wikidata": "Q668687", "ref": "9160500016"}, "type": "Feature"}
{"dataset_attributes": {"@spider": "usps_collection_boxes", "spider:collection_time": "2023-09-13T08:25:17.985642"}, "geometry": {"coordinates": [-118.387671, 34.208315], "type": "Point"}, "id": "W9vz9yHD-y9I6JDvCbfjvqUZs_I=", "properties": {"@spider": "usps_collection_boxes", "addr:city": "NORTH HOLLYWOOD", "addr:country": "US", "addr:full": "7568 LANKERSHIM BLVD", "addr:postcode": "91605", "addr:state": "CA", "amenity": "post_box", "brand": "United States Postal Service", "brand:wikidata": "Q668687", "collection_times": "Mo-Sa 10:00", "name": "USPS COLLECTION BOX - BLUE BOX", "nsi_id": "unitedstatespostalservice-a77078", "operator": "United States Postal Service", "operator:short": "USPS", "operator:type": "public", "operator:wikidata": "Q668687", "ref": "9160500026"}, "type": "Feature"}
{"dataset_attributes": {"@spider": "usps_collection_boxes", "spider:collection_time": "2023-09-13T08:25:17.985642"}, "geometry": {"coordinates": [-118.419856, 34.20109], "type": "Point"}, "id": "_i129SgW6F5Oe_I9zqIuzZMb6Dw=", "properties": {"@spider": "usps_collection_boxes", "addr:city": "NORTH HOLLYWOOD", "addr:country": "US", "addr:full": "13136 SHERMAN WAY", "addr:postcode": "91605", "addr:state": "CA", "amenity": "post_box", "brand": "United States Postal Service", "brand:wikidata": "Q668687", "collection_times": "Mo-Sa 10:00", "name": "USPS COLLECTION BOX - BLUE BOX", "nsi_id": "unitedstatespostalservice-a77078", "operator": "United States Postal Service", "operator:short": "USPS", "operator:type": "public", "operator:wikidata": "Q668687", "ref": "9160500031"}, "type": "Feature"}
{"dataset_attributes": {"@spider": "usps_collection_boxes", "spider:collection_time": "2023-09-13T08:25:17.985642"}, "geometry": {"coordinates": [-118.396667, 34.215962], "type": "Point"}, "id": "xaFur_J6eNHM5LDLzYnaZNfF_YY=", "properties": {"@spider": "usps_collection_boxes", "addr:city": "NORTH HOLLYWOOD", "addr:country": "US", "addr:full": "8001 LAUREL CANYON BLVD", "addr:postcode": "91605", "addr:state": "CA", "amenity": "post_box", "brand": "United States Postal Service", "brand:wikidata": "Q668687", "collection_times": "Mo-Sa 10:00", "name": "USPS COLLECTION BOX - BLUE BOX", "nsi_id": "unitedstatespostalservice-a77078", "operator": "United States Postal Service", "operator:short": "USPS", "operator:type": "public", "operator:wikidata": "Q668687", "ref": "9160500034"}, "type": "Feature"}
{"dataset_attributes": {"@spider": "usps_collection_boxes", "spider:collection_time": "2023-09-13T08:25:17.985642"}, "geometry": {"coordinates": [-118.3965347346, 34.198524], "type": "Point"}, "id": "qNvjn3_lSZVKc6rKzTeOBVspO-g=", "properties": {"@spider": "usps_collection_boxes", "addr:city": "NORTH HOLLYWOOD", "addr:country": "US", "addr:full": "7035 LAUREL CANYON BLVD", "addr:postcode": "91605", "addr:state": "CA", "amenity": "post_box", "brand": "United States Postal Service", "brand:wikidata": "Q668687", "collection_times": "Mo-Fr 17:00; Sa 15:00", "name": "USPS COLLECTION BOX - BLUE BOX", "note": "ON 12/24 AND 12/31, THIS BOX MAY BE COLLECTED AS EARLY AS 12 NOON.", "nsi_id": "unitedstatespostalservice-a77078", "operator": "United States Postal Service", "operator:short": "USPS", "operator:type": "public", "operator:wikidata": "Q668687", "ref": "9160500038"}, "type": "Feature"}
{"dataset_attributes": {"@spider": "usps_collection_boxes", "spider:collection_time": "2023-09-13T08:25:17.985642"}, "geometry": {"coordinates": [-118.3965347346, 34.198524], "type": "Point"}, "id": "audOB8LVFBzUfABwiW8gpv6Oy3Q=", "properties": {"@spider": "usps_collection_boxes", "addr:city": "NORTH HOLLYWOOD", "addr:country": "US", "addr:full": "7035 LAUREL CANYON BLVD", "addr:postcode": "91605", "addr:state": "CA", "amenity": "post_box", "brand": "United States Postal Service", "brand:wikidata": "Q668687", "collection_times": "Mo-Sa 15:30", "name": "USPS COLLECTION BOX - PO LOBBY", "note": "ON 12/24 AND 12/31, THIS BOX MAY BE COLLECTED AS EARLY AS 12 NOON.", "nsi_id": "unitedstatespostalservice-a77078", "operator": "United States Postal Service", "operator:short": "USPS", "operator:type": "public", "operator:wikidata": "Q668687", "ref": "9160500042"}, "type": "Feature"}
{"dataset_attributes": {"@spider": "usps_collection_boxes", "spider:collection_time": "2023-09-13T08:25:17.985642"}, "geometry": {"coordinates": [-118.3965347346, 34.198524], "type": "Point"}, "id": "gwNIxUKqPk-_BdX772p-05AwMgs=", "properties": {"@spider": "usps_collection_boxes", "addr:city": "NORTH HOLLYWOOD", "addr:country": "US", "addr:full": "7035 LAUREL CANYON BLVD", "addr:postcode": "91605", "addr:state": "CA", "amenity": "post_box", "brand": "United States Postal Service", "brand:wikidata": "Q668687", "collection_times": "Mo-Fr 17:00; Sa 15:00", "name": "USPS COLLECTION BOX - BLUE BOX", "note": "ON 12/24 AND 12/31, THIS BOX MAY BE COLLECTED AS EARLY AS 12 NOON.", "nsi_id": "unitedstatespostalservice-a77078", "operator": "United States Postal Service", "operator:short": "USPS", "operator:type": "public", "operator:wikidata": "Q668687", "ref": "9160500045"}, "type": "Feature"}
{"dataset_attributes": {"@spider": "usps_collection_boxes", "spider:collection_time": "2023-09-13T08:25:17.985642"}, "geometry": {"coordinates": [-118.3965347346, 34.198524], "type": "Point"}, "id": "_ipmLYpLLn7YV4UaTZypMrpYEUA=", "properties": {"@spider": "usps_collection_boxes", "addr:city": "NORTH HOLLYWOOD", "addr:country": "US", "addr:full": "7035 LAUREL CANYON BLVD", "addr:postcode": "91605", "addr:state": "CA", "amenity": "post_box", "brand": "United States Postal Service", "brand:wikidata": "Q668687", "collection_times": "Mo-Fr 17:00; Sa 15:00", "name": "USPS COLLECTION BOX - BLUE BOX", "note": "ON 12/24 AND 12/31, THIS BOX MAY BE COLLECTED AS EARLY AS 12 NOON.", "nsi_id": "unitedstatespostalservice-a77078", "operator": "United States Postal Service", "operator:short": "USPS", "operator:type": "public", "operator:wikidata": "Q668687", "ref": "9160500046"}, "type": "Feature"}
{"dataset_attributes": {"@spider": "usps_collection_boxes", "spider:collection_time": "2023-09-13T08:25:17.985642"}, "geometry": {"coordinates": [-118.3965347346, 34.198524], "type": "Point"}, "id": "5uwMpRl-Dd_5Nyy4VQ82rJb7Qho=", "properties": {"@spider": "usps_collection_boxes", "addr:city": "NORTH HOLLYWOOD", "addr:country": "US", "addr:full": "7035 LAUREL CANYON BLVD", "addr:postcode": "91605", "addr:state": "CA", "amenity": "post_box", "brand": "United States Postal Service", "brand:wikidata": "Q668687", "collection_times": "Mo-Fr 15:00", "name": "USPS COLLECTION BOX - PO LOBBY", "note": "ON 12/24 AND 12/31, THIS BOX MAY BE COLLECTED AS EARLY AS 12 NOON.", "nsi_id": "unitedstatespostalservice-a77078", "operator": "United States Postal Service", "operator:short": "USPS", "operator:type": "public", "operator:wikidata": "Q668687", "ref": "9160500053"}, "type": "Feature"}
{"dataset_attributes": {"@spider": "usps_collection_boxes", "spider:collection_time": "2023-09-13T08:25:17.985642"}, "geometry": {"coordinates": [-118.416502903, 34.186749264], "type": "Point"}, "id": "aWPEFfw2y-gmrjie4BbodHFamiw=", "properties": {"@spider": "usps_collection_boxes", "addr:city": "NORTH HOLLYWOOD", "addr:country": "US", "addr:full": "13031 VICTORY BLVD", "addr:postcode": "91606", "addr:state": "CA", "amenity": "post_box", "brand": "United States Postal Service", "brand:wikidata": "Q668687", "collection_times": "Mo-Sa 10:00", "name": "USPS COLLECTION BOX - BLUE BOX", "nsi_id": "unitedstatespostalservice-a77078", "operator": "United States Postal Service", "operator:short": "USPS", "operator:type": "public", "operator:wikidata": "Q668687", "ref": "9160600029"}, "type": "Feature"}
{"dataset_attributes": {"@spider": "usps_collection_boxes", "spider:collection_time": "2023-09-13T08:25:17.985642"}, "geometry": {"coordinates": [-118.387925, 34.18949], "type": "Point"}, "id": "zZeiMKPwxZYHHP6Xq_VoM1BQoCY=", "properties": {"@spider": "usps_collection_boxes", "addr:city": "NORTH HOLLYWOOD", "addr:country": "US", "addr:full": "6535 LANKERSHIM BLVD", "addr:postcode": "91606", "addr:state": "CA", "amenity": "post_box", "brand": "United States Postal Service", "brand:wikidata": "Q668687", "collection_times": "Mo-Fr 17:00; Sa 10:00", "name": "USPS COLLECTION BOX - BLUE BOX", "note": "ON 12/24 AND 12/31, THIS BOX MAY BE COLLECTED AS EARLY AS 12 NOON.", "nsi_id": "unitedstatespostalservice-a77078", "operator": "United States Postal Service", "operator:short": "USPS", "operator:type": "public", "operator:wikidata": "Q668687", "ref": "9160600037"}, "type": "Feature"}
{"dataset_attributes": {"@spider": "usps_collection_boxes", "spider:collection_time": "2023-09-13T08:25:17.985642"}, "geometry": {"coordinates": [-118.387937, 34.189511], "type": "Point"}, "id": "9NZgsKzHeJAbxqtSuf4SJVhsdFA=", "properties": {"@spider": "usps_collection_boxes", "addr:city": "NORTH HOLLYWOOD", "addr:country": "US", "addr:full": "6535 LANKERSHIM BLVD", "addr:postcode": "91606", "addr:state": "CA", "amenity": "post_box", "brand": "United States Postal Service", "brand:wikidata": "Q668687", "collection_times": "Mo-Fr 17:00; Sa 10:00", "name": "USPS COLLECTION BOX - BLUE BOX", "note": "ON 12/24 AND 12/31, THIS BOX MAY BE COLLECTED AS EARLY AS 12 NOON.", "nsi_id": "unitedstatespostalservice-a77078", "operator": "United States Postal Service", "operator:short": "USPS", "operator:type": "public", "operator:wikidata": "Q668687", "ref": "9160600038"}, "type": "Feature"}
{"dataset_attributes": {"@spider": "usps_collection_boxes", "spider:collection_time": "2023-09-13T08:25:17.985642"}, "geometry": {"coordinates": [-118.388062, 34.189572], "type": "Point"}, "id": "ZrgKODhh4FAUSN_hmL_zFR2_G2s=", "properties": {"@spider": "usps_collection_boxes", "addr:city": "NORTH HOLLYWOOD", "addr:country": "US", "addr:full": "6535 LANKERSHIM BLVD", "addr:postcode": "91606", "addr:state": "CA", "amenity": "post_box", "brand": "United States Postal Service", "brand:wikidata": "Q668687", "collection_times": "Mo-Fr 17:00", "name": "USPS COLLECTION BOX - PO LOBBY", "note": "ON 12/24 AND 12/31, THIS BOX MAY BE COLLECTED AS EARLY AS 12 NOON.", "nsi_id": "unitedstatespostalservice-a77078", "operator": "United States Postal Service", "operator:short": "USPS", "operator:type": "public", "operator:wikidata": "Q668687", "ref": "9160600044"}, "type": "Feature"}
{"dataset_attributes": {"@spider": "usps_collection_boxes", "spider:collection_time": "2023-09-13T08:25:17.985642"}, "geometry": {"coordinates": [-118.398287, 34.187294], "type": "Point"}, "id": "whLG5gG2aafAFh_JL6zQQBOT9xw=", "properties": {"@spider": "usps_collection_boxes", "addr:city": "NORTH HOLLYWOOD", "addr:country": "US", "addr:full": "6418 BELLINGHAM AVE", "addr:postcode": "91606", "addr:state": "CA", "amenity": "post_box", "brand": "United States Postal Service", "brand:wikidata": "Q668687", "collection_times": "Mo-Fr 16:00", "name": "USPS COLLECTION BOX - PO LOBBY", "note": "ON 12/24 AND 12/31, THIS BOX MAY BE COLLECTED AS EARLY AS 12 NOON.", "nsi_id": "unitedstatespostalservice-a77078", "operator": "United States Postal Service", "operator:short": "USPS", "operator:type": "public", "operator:wikidata": "Q668687", "ref": "9160600051"}, "type": "Feature"}
{"dataset_attributes": {"@spider": "usps_collection_boxes", "spider:collection_time": "2023-09-13T08:25:17.985642"}, "geometry": {"coordinates": [-118.3878272157, 34.1894696647], "type": "Point"}, "id": "QzA52BxkCvwikZU3Vp5lTVUfIRE=", "properties": {"@spider": "usps_collection_boxes", "addr:city": "NORTH HOLLYWOOD", "addr:country": "US", "addr:full": "6535 LANKERSHIM BLVD", "addr:postcode": "91606", "addr:state": "CA", "amenity": "post_box", "brand": "United States Postal Service", "brand:wikidata": "Q668687", "collection_times": "Mo-Fr 16:00", "name": "USPS COLLECTION BOX - PO LOBBY", "note": "ON 12/24 AND 12/31, THIS BOX MAY BE COLLECTED AS EARLY AS 12 NOON.", "nsi_id": "unitedstatespostalservice-a77078", "operator": "United States Postal Service", "operator:short": "USPS", "operator:type": "public", "operator:wikidata": "Q668687", "ref": "9160600056"}, "type": "Feature"}
{"dataset_attributes": {"@spider": "usps_collection_boxes", "spider:collection_time": "2023-09-13T08:25:17.985642"}, "geometry": {"coordinates": [-118.3987082377, 34.187373], "type": "Point"}, "id": "Tp030ne013DjEYZu02Uzy1PmUDQ=", "properties": {"@spider": "usps_collection_boxes", "addr:city": "NORTH HOLLYWOOD", "addr:country": "US", "addr:full": "6418 BELLINGHAM AVE", "addr:postcode": "91606", "addr:state": "CA", "amenity": "post_box", "brand": "United States Postal Service", "brand:wikidata": "Q668687", "collection_times": "Mo-Fr 15:00", "name": "USPS COLLECTION BOX - PO LOBBY", "note": "ON 12/24 AND 12/31, THIS BOX MAY BE COLLECTED AS EARLY AS 12 NOON.", "nsi_id": "unitedstatespostalservice-a77078", "operator": "United States Postal Service", "operator:short": "USPS", "operator:type": "public", "operator:wikidata": "Q668687", "ref": "9160600057"}, "type": "Feature"}
{"dataset_attributes": {"@spider": "usps_collection_boxes", "spider:collection_time": "2023-09-13T08:25:17.985642"}, "geometry": {"coordinates": [-118.4042266507, 34.1638255682], "type": "Point"}, "id": "wqRthE6VBYOh2AhMs0eTDDzVnVE=", "properties": {"@spider": "usps_collection_boxes", "addr:city": "NORTH HOLLYWOOD", "addr:country": "US", "addr:full": "5135 WILKINSON AVE", "addr:postcode": "91607", "addr:state": "CA", "amenity": "post_box", "brand": "United States Postal Service", "brand:wikidata": "Q668687", "collection_times": "Mo-Fr 16:50; Sa 14:50", "name": "USPS COLLECTION BOX - BLUE BOX", "note": "ON 12/24 AND 12/31, THIS BOX MAY BE COLLECTED AS EARLY AS 12 NOON.", "nsi_id": "unitedstatespostalservice-a77078", "operator": "United States Postal Service", "operator:short": "USPS", "operator:type": "public", "operator:wikidata": "Q668687", "ref": "9160700001"}, "type": "Feature"}
{"dataset_attributes": {"@spider": "usps_collection_boxes", "spider:collection_time": "2023-09-13T08:25:17.985642"}, "geometry": {"coordinates": [-118.4042266507, 34.1638255682], "type": "Point"}, "id": "dDQfTEmNkwTR8WobzoblXdPj-_k=", "properties": {"@spider": "usps_collection_boxes", "addr:city": "NORTH HOLLYWOOD", "addr:country": "US", "addr:full": "5135 WILKINSON AVE", "addr:postcode": "91607", "addr:state": "CA", "amenity": "post_box", "brand": "United States Postal Service", "brand:wikidata": "Q668687", "collection_times": "Mo-Fr 16:50; Sa 14:50", "name": "USPS COLLECTION BOX - BLUE BOX", "note": "ON 12/24 AND 12/31, THIS BOX MAY BE COLLECTED AS EARLY AS 12 NOON.", "nsi_id": "unitedstatespostalservice-a77078", "operator": "United States Postal Service", "operator:short": "USPS", "operator:type": "public", "operator:wikidata": "Q668687", "ref": "9160700021"}, "type": "Feature"}
{"dataset_attributes": {"@spider": "usps_collection_boxes", "spider:collection_time": "2023-09-13T08:25:17.985642"}, "geometry": {"coordinates": [-118.4042266507, 34.1638255682], "type": "Point"}, "id": "ZugadHafBma7ACLmU5kXKHYYInE=", "properties": {"@spider": "usps_collection_boxes", "addr:city": "NORTH HOLLYWOOD", "addr:country": "US", "addr:full": "5135 WILKINSON AVE", "addr:postcode": "91607", "addr:state": "CA", "amenity": "post_box", "brand": "United States Postal Service", "brand:wikidata": "Q668687", "collection_times": "Mo-Fr 16:50; Sa 14:50", "name": "USPS COLLECTION BOX - BLUE BOX", "note": "ON 12/24 AND 12/31, THIS BOX MAY BE COLLECTED AS EARLY AS 12 NOON.", "nsi_id": "unitedstatespostalservice-a77078", "operator": "United States Postal Service", "operator:short": "USPS", "operator:type": "public", "operator:wikidata": "Q668687", "ref": "9160700024"}, "type": "Feature"}
{"dataset_attributes": {"@spider": "usps_collection_boxes", "spider:collection_time": "2023-09-13T08:25:17.985642"}, "geometry": {"coordinates": [-118.39625, 34.15751], "type": "Point"}, "id": "9jSOKdmy4gD9f20mjTWckHnGrfw=", "properties": {"@spider": "usps_collection_boxes", "addr:city": "NORTH HOLLYWOOD", "addr:country": "US", "addr:full": "4758 LAUREL CANYON BLVD", "addr:postcode": "91607", "addr:state": "CA", "amenity": "post_box", "brand": "United States Postal Service", "brand:wikidata": "Q668687", "collection_times": "Mo-Sa 10:00", "name": "USPS COLLECTION BOX - BLUE BOX", "nsi_id": "unitedstatespostalservice-a77078", "operator": "United States Postal Service", "operator:short": "USPS", "operator:type": "public", "operator:wikidata": "Q668687", "ref": "9160700026"}, "type": "Feature"}
{"dataset_attributes": {"@spider": "usps_collection_boxes", "spider:collection_time": "2023-09-13T08:25:17.985642"}, "geometry": {"coordinates": [-118.4045740511, 34.1648455101], "type": "Point"}, "id": "x8wUgt5JBQO8uKpEZvOmqMZl4LM=", "properties": {"@spider": "usps_collection_boxes", "addr:city": "NORTH HOLLYWOOD", "addr:country": "US", "addr:full": "12450 MAGNOLIA BLVD", "addr:postcode": "91607", "addr:state": "CA", "amenity": "post_box", "brand": "United States Postal Service", "brand:wikidata": "Q668687", "collection_times": "Mo-Fr 16:50; Sa 14:50", "name": "USPS COLLECTION BOX - APC", "note": "ON 12/24 AND 12/31, THIS BOX MAY BE COLLECTED AS EARLY AS 12 NOON.", "nsi_id": "unitedstatespostalservice-a77078", "operator": "United States Postal Service", "operator:short": "USPS", "operator:type": "public", "operator:wikidata": "Q668687", "ref": "9160700030"}, "type": "Feature"}
{"dataset_attributes": {"@spider": "usps_collection_boxes", "spider:collection_time": "2023-09-13T08:25:17.985642"}, "geometry": {"coordinates": [-118.409563, 34.177628], "type": "Point"}, "id": "8u3KM3rgu_8mhmwok1zGussuZWg=", "properties": {"@spider": "usps_collection_boxes", "addr:city": "NORTH HOLLYWOOD", "addr:country": "US", "addr:full": "12701 CALIFA ST", "addr:postcode": "91607", "addr:state": "CA", "amenity": "post_box", "brand": "United States Postal Service", "brand:wikidata": "Q668687", "collection_times": "Mo-Sa 10:00", "name": "USPS COLLECTION BOX - BLUE BOX", "nsi_id": "unitedstatespostalservice-a77078", "operator": "United States Postal Service", "operator:short": "USPS", "operator:type": "public", "operator:wikidata": "Q668687", "ref": "9160700032"}, "type": "Feature"}
{"dataset_attributes": {"@spider": "usps_collection_boxes", "spider:collection_time": "2023-09-13T08:25:17.985642"}, "geometry": {"coordinates": [-118.4045740511, 34.1648455101], "type": "Point"}, "id": "BAYHAMGdMGwXAPsvjtSsdsT8tXA=", "properties": {"@spider": "usps_collection_boxes", "addr:city": "NORTH HOLLYWOOD", "addr:country": "US", "addr:full": "12450 MAGNOLIA BLVD", "addr:postcode": "91607", "addr:state": "CA", "amenity": "post_box", "brand": "United States Postal Service", "brand:wikidata": "Q668687", "collection_times": "Mo-Fr 17:00; Sa 16:00", "name": "USPS COLLECTION BOX - PO LOBBY", "note": "ON 12/24 AND 12/31, THIS BOX MAY BE COLLECTED AS EARLY AS 12 NOON.", "nsi_id": "unitedstatespostalservice-a77078", "operator": "United States Postal Service", "operator:short": "USPS", "operator:type": "public", "operator:wikidata": "Q668687", "ref": "9160700033"}, "type": "Feature"}
{"dataset_attributes": {"@spider": "usps_collection_boxes", "spider:collection_time": "2023-09-13T08:25:17.985642"}, "geometry": {"coordinates": [-118.4045740511, 34.1648455101], "type": "Point"}, "id": "XHhO2T5R0QwX6WquaeUKMmfEGDI=", "properties": {"@spider": "usps_collection_boxes", "addr:city": "NORTH HOLLYWOOD", "addr:country": "US", "addr:full": "12450 MAGNOLIA BLVD", "addr:postcode": "91607", "addr:state": "CA", "amenity": "post_box", "brand": "United States Postal Service", "brand:wikidata": "Q668687", "collection_times": "Mo-Fr 17:00", "name": "USPS COLLECTION BOX - PO LOBBY", "note": "ON 12/24 AND 12/31, THIS BOX MAY BE COLLECTED AS EARLY AS 12 NOON.", "nsi_id": "unitedstatespostalservice-a77078", "operator": "United States Postal Service", "operator:short": "USPS", "operator:type": "public", "operator:wikidata": "Q668687", "ref": "9160700036"}, "type": "Feature"}
