{"geometry": {"coordinates": [-118.125913, 34.093236], "type": "Point"}, "id": "NI7MLzqUiMjRo8P8U5bxs39-HzU=", "properties": {"@source_uri": "https://tools.usps.com/UspsToolsRestServices/rest/POLocator/findLocations", "@spider": "usps_collection_boxes", "addr:city": "ALHAMBRA", "addr:country": "US", "addr:postcode": "91801", "addr:state": "CA", "addr:street_address": "10 W BAY STATE ST", "amenity": "post_box", "collection_times": "Mo-Sa 17:00", "name": "USPS COLLECTION BOX - EXPRESS", "note": "ON 12/24 AND 12/31, THIS BOX MAY BE COLLECTED AS EARLY AS 12 NOON.", "nsi_id": "unitedstatespostalservice-a77078", "operator": "United States Postal Service", "operator:short": "USPS", "operator:type": "public", "operator:wikidata": "Q668687", "ref": "9180100002"}, "type": "Feature"}
{"geometry": {"coordinates": [-118.126037, 34.09304], "type": "Point"}, "id": "CiAwUnK7YUIgSPgF723w5J9sHN4=", "properties": {"@source_uri": "https://tools.usps.com/UspsToolsRestServices/rest/POLocator/findLocations", "@spider": "usps_collection_boxes", "addr:city": "ALHAMBRA", "addr:country": "US", "addr:postcode": "91801", "addr:state": "CA", "addr:street_address": "10 W BAY STATE ST", "amenity": "post_box", "collection_times": "Mo-Sa 17:00", "note": "ON 12/24 AND 12/31, THIS BOX MAY BE COLLECTED AS EARLY AS 12 NOON.", "nsi_id": "unitedstatespostalservice-a77078", "operator": "United States Postal Service", "operator:short": "USPS", "operator:type": "public", "operator:wikidata": "Q668687", "ref": "9180100008"}, "type": "Feature"}
{"geometry": {"coordinates": [-118.12986, 34.09375], "type": "Point"}, "id": "smC3oPg8wbnsiSNIjOqNchsCmn4=", "properties": {"@source_uri": "https://tools.usps.com/UspsToolsRestServices/rest/POLocator/findLocations", "@spider": "usps_collection_boxes", "addr:city": "ALHAMBRA", "addr:country": "US", "addr:postcode": "91801", "addr:state": "CA", "addr:street_address": "560 W MAIN ST", "amenity": "post_box", "collection_times": "Mo-Sa 10:00", "nsi_id": "unitedstatespostalservice-a77078", "operator": "United States Postal Service", "operator:short": "USPS", "operator:type": "public", "operator:wikidata": "Q668687", "ref": "9180100014"}, "type": "Feature"}
{"geometry": {"coordinates": [-118.114249, 34.079156], "type": "Point"}, "id": "1c9fi5LKAMsCrb2qoANQnJZlMrc=", "properties": {"@source_uri": "https://tools.usps.com/UspsToolsRestServices/rest/POLocator/findLocations", "@spider": "usps_collection_boxes", "addr:city": "ALHAMBRA", "addr:country": "US", "addr:postcode": "91801", "addr:state": "CA", "addr:street_address": "777 E VALLEY BLVD", "amenity": "post_box", "collection_times": "Mo-Sa 10:00", "nsi_id": "unitedstatespostalservice-a77078", "operator": "United States Postal Service", "operator:short": "USPS", "operator:type": "public", "operator:wikidata": "Q668687", "ref": "9180100016"}, "type": "Feature"}
{"geometry": {"coordinates": [-118.12986, 34.09375], "type": "Point"}, "id": "yaTmcs82l3zHqeZCRBMUEt2Fhew=", "properties": {"@source_uri": "https://tools.usps.com/UspsToolsRestServices/rest/POLocator/findLocations", "@spider": "usps_collection_boxes", "addr:city": "ALHAMBRA", "addr:country": "US", "addr:postcode": "91801", "addr:state": "CA", "addr:street_address": "28 E VALLEY BLVD", "amenity": "post_box", "collection_times": "Mo-Sa 10:00", "nsi_id": "unitedstatespostalservice-a77078", "operator": "United States Postal Service", "operator:short": "USPS", "operator:type": "public", "operator:wikidata": "Q668687", "ref": "9180100017"}, "type": "Feature"}
{"geometry": {"coordinates": [-118.120012, 34.078638], "type": "Point"}, "id": "eXkl34YEq8XPdDFX04pVVSO4H10=", "properties": {"@source_uri": "https://tools.usps.com/UspsToolsRestServices/rest/POLocator/findLocations", "@spider": "usps_collection_boxes", "addr:city": "ALHAMBRA", "addr:country": "US", "addr:postcode": "91801", "addr:state": "CA", "addr:street_address": "230 E VALLEY BLVD", "amenity": "post_box", "collection_times": "Mo-Sa 10:00", "nsi_id": "unitedstatespostalservice-a77078", "operator": "United States Postal Service", "operator:short": "USPS", "operator:type": "public", "operator:wikidata": "Q668687", "ref": "9180100018"}, "type": "Feature"}
{"geometry": {"coordinates": [-118.126599, 34.097468], "type": "Point"}, "id": "GF9YJvckmsLq0hXGp8BBMqs9LyY=", "properties": {"@source_uri": "https://tools.usps.com/UspsToolsRestServices/rest/POLocator/findLocations", "@spider": "usps_collection_boxes", "addr:city": "ALHAMBRA", "addr:country": "US", "addr:postcode": "91801", "addr:state": "CA", "addr:street_address": "118 N STONEMAN AVE", "amenity": "post_box", "collection_times": "Mo-Sa 10:00", "nsi_id": "unitedstatespostalservice-a77078", "operator": "United States Postal Service", "operator:short": "USPS", "operator:type": "public", "operator:wikidata": "Q668687", "ref": "9180100019"}, "type": "Feature"}
{"geometry": {"coordinates": [-118.127473, 34.094989], "type": "Point"}, "id": "oJ43GM1wL9puGFwm-FK5dEC5PB8=", "properties": {"@source_uri": "https://tools.usps.com/UspsToolsRestServices/rest/POLocator/findLocations", "@spider": "usps_collection_boxes", "addr:city": "ALHAMBRA", "addr:country": "US", "addr:postcode": "91801", "addr:state": "CA", "addr:street_address": "21 W MAIN ST", "amenity": "post_box", "collection_times": "Mo-Sa 10:00", "nsi_id": "unitedstatespostalservice-a77078", "operator": "United States Postal Service", "operator:short": "USPS", "operator:type": "public", "operator:wikidata": "Q668687", "ref": "9180100021"}, "type": "Feature"}
{"geometry": {"coordinates": [-118.117626, 34.099443], "type": "Point"}, "id": "-SQDu4w4kC4YV4DTwKkPsxEkKu8=", "properties": {"@source_uri": "https://tools.usps.com/UspsToolsRestServices/rest/POLocator/findLocations", "@spider": "usps_collection_boxes", "addr:city": "ALHAMBRA", "addr:country": "US", "addr:postcode": "91801", "addr:state": "CA", "addr:street_address": "900 E MAIN ST", "amenity": "post_box", "collection_times": "Mo-Sa 10:00", "nsi_id": "unitedstatespostalservice-a77078", "operator": "United States Postal Service", "operator:short": "USPS", "operator:type": "public", "operator:wikidata": "Q668687", "ref": "9180100027"}, "type": "Feature"}
{"geometry": {"coordinates": [-118.1413900285, 34.0920219822], "type": "Point"}, "id": "wvitJQ3YlNp9CF40qmYU0ljfrNI=", "properties": {"@source_uri": "https://tools.usps.com/UspsToolsRestServices/rest/POLocator/findLocations", "@spider": "usps_collection_boxes", "addr:city": "ALHAMBRA", "addr:country": "US", "addr:postcode": "91801", "addr:state": "CA", "addr:street_address": "1641 W MAIN ST", "amenity": "post_box", "collection_times": "Mo-Sa 10:00", "nsi_id": "unitedstatespostalservice-a77078", "operator": "United States Postal Service", "operator:short": "USPS", "operator:type": "public", "operator:wikidata": "Q668687", "ref": "9180100035"}, "type": "Feature"}
{"geometry": {"coordinates": [-118.122935, 34.082864], "type": "Point"}, "id": "-_j140nw8PtzN7eygTRJyMPl8MM=", "properties": {"@source_uri": "https://tools.usps.com/UspsToolsRestServices/rest/POLocator/findLocations", "@spider": "usps_collection_boxes", "addr:city": "ALHAMBRA", "addr:country": "US", "addr:postcode": "91801", "addr:state": "CA", "addr:street_address": "1048 S GARFIELD AVE", "amenity": "post_box", "collection_times": "Mo-Sa 10:00", "nsi_id": "unitedstatespostalservice-a77078", "operator": "United States Postal Service", "operator:short": "USPS", "operator:type": "public", "operator:wikidata": "Q668687", "ref": "9180100037"}, "type": "Feature"}
{"geometry": {"coordinates": [-118.132501, 34.090201], "type": "Point"}, "id": "VtLQtlJ4hGoEfSrpMcxQW_F8zOg=", "properties": {"@source_uri": "https://tools.usps.com/UspsToolsRestServices/rest/POLocator/findLocations", "@spider": "usps_collection_boxes", "addr:city": "ALHAMBRA", "addr:country": "US", "addr:postcode": "91801", "addr:state": "CA", "addr:street_address": "600 IRVING ST", "amenity": "post_box", "collection_times": "Mo-Sa 10:00", "nsi_id": "unitedstatespostalservice-a77078", "operator": "United States Postal Service", "operator:short": "USPS", "operator:type": "public", "operator:wikidata": "Q668687", "ref": "9180100038"}, "type": "Feature"}
{"geometry": {"coordinates": [-118.1333553708, 34.0881478415], "type": "Point"}, "id": "K1JYr5XzrQynwfvYD01epUEh-eU=", "properties": {"@source_uri": "https://tools.usps.com/UspsToolsRestServices/rest/POLocator/findLocations", "@spider": "usps_collection_boxes", "addr:city": "ALHAMBRA", "addr:country": "US", "addr:postcode": "91801", "addr:state": "CA", "addr:street_address": "801 W COMMONWEALTH AVE", "amenity": "post_box", "collection_times": "Mo-Sa 09:15", "nsi_id": "unitedstatespostalservice-a77078", "operator": "United States Postal Service", "operator:short": "USPS", "operator:type": "public", "operator:wikidata": "Q668687", "ref": "9180100039"}, "type": "Feature"}
{"geometry": {"coordinates": [-118.144911, 34.090301], "type": "Point"}, "id": "XpMyDifba2qC9ZwcxbniD1XQpEc=", "properties": {"@source_uri": "https://tools.usps.com/UspsToolsRestServices/rest/POLocator/findLocations", "@spider": "usps_collection_boxes", "addr:city": "ALHAMBRA", "addr:country": "US", "addr:postcode": "91801", "addr:state": "CA", "addr:street_address": "100 S RAYMOND AVE", "amenity": "post_box", "collection_times": "Mo-Sa 10:00", "nsi_id": "unitedstatespostalservice-a77078", "operator": "United States Postal Service", "operator:short": "USPS", "operator:type": "public", "operator:wikidata": "Q668687", "ref": "9180100040"}, "type": "Feature"}
{"geometry": {"coordinates": [-118.111555985, 34.076022019], "type": "Point"}, "id": "tfUW9Dv8KIP4asWckTnb7wjlNwM=", "properties": {"@source_uri": "https://tools.usps.com/UspsToolsRestServices/rest/POLocator/findLocations", "@spider": "usps_collection_boxes", "addr:city": "ALHAMBRA", "addr:country": "US", "addr:postcode": "91801", "addr:state": "CA", "addr:street_address": "1601 S VEGA ST", "amenity": "post_box", "collection_times": "Mo-Sa 10:00", "nsi_id": "unitedstatespostalservice-a77078", "operator": "United States Postal Service", "operator:short": "USPS", "operator:type": "public", "operator:wikidata": "Q668687", "ref": "9180100044"}, "type": "Feature"}
{"geometry": {"coordinates": [-118.1230957223, 34.08705], "type": "Point"}, "id": "M9c7aKMeJqbixyN0xgPsTMqKiFo=", "properties": {"@source_uri": "https://tools.usps.com/UspsToolsRestServices/rest/POLocator/findLocations", "@spider": "usps_collection_boxes", "addr:city": "ALHAMBRA", "addr:country": "US", "addr:postcode": "91801", "addr:state": "CA", "addr:street_address": "801 S GARFIELD AVE", "amenity": "post_box", "collection_times": "Mo-Sa 10:00", "nsi_id": "unitedstatespostalservice-a77078", "operator": "United States Postal Service", "operator:short": "USPS", "operator:type": "public", "operator:wikidata": "Q668687", "ref": "9180100047"}, "type": "Feature"}
{"geometry": {"coordinates": [-118.131285, 34.101549], "type": "Point"}, "id": "inp2fCwSWK4BV6N229PYpFzlsmE=", "properties": {"@source_uri": "https://tools.usps.com/UspsToolsRestServices/rest/POLocator/findLocations", "@spider": "usps_collection_boxes", "addr:city": "ALHAMBRA", "addr:country": "US", "addr:postcode": "91801", "addr:state": "CA", "addr:street_address": "626 N GARFIELD AVE", "amenity": "post_box", "collection_times": "Mo-Sa 10:00", "nsi_id": "unitedstatespostalservice-a77078", "operator": "United States Postal Service", "operator:short": "USPS", "operator:type": "public", "operator:wikidata": "Q668687", "ref": "9180100048"}, "type": "Feature"}
{"geometry": {"coordinates": [-118.12986, 34.09375], "type": "Point"}, "id": "K_Exo_ZpHifvElMA7Gbb7-FfReo=", "properties": {"@source_uri": "https://tools.usps.com/UspsToolsRestServices/rest/POLocator/findLocations", "@spider": "usps_collection_boxes", "addr:city": "ALHAMBRA", "addr:country": "US", "addr:postcode": "91801", "addr:state": "CA", "addr:street_address": "320 W ALHAMBRA RD", "amenity": "post_box", "collection_times": "Mo-Sa 10:00", "nsi_id": "unitedstatespostalservice-a77078", "operator": "United States Postal Service", "operator:short": "USPS", "operator:type": "public", "operator:wikidata": "Q668687", "ref": "9180100049"}, "type": "Feature"}
{"geometry": {"coordinates": [-118.109439, 34.080351], "type": "Point"}, "id": "HUI1Tjr2aKJ0_i384OUOgV4B27I=", "properties": {"@source_uri": "https://tools.usps.com/UspsToolsRestServices/rest/POLocator/findLocations", "@spider": "usps_collection_boxes", "addr:city": "ALHAMBRA", "addr:country": "US", "addr:postcode": "91801", "addr:state": "CA", "addr:street_address": "1429 E VALLEY BLVD", "amenity": "post_box", "collection_times": "Mo-Sa 10:00", "nsi_id": "unitedstatespostalservice-a77078", "operator": "United States Postal Service", "operator:short": "USPS", "operator:type": "public", "operator:wikidata": "Q668687", "ref": "9180100051"}, "type": "Feature"}
{"geometry": {"coordinates": [-118.111217, 34.084501], "type": "Point"}, "id": "Sb9WbThbedy39qFLSVavIoegL1w=", "properties": {"@source_uri": "https://tools.usps.com/UspsToolsRestServices/rest/POLocator/findLocations", "@spider": "usps_collection_boxes", "addr:city": "ALHAMBRA", "addr:country": "US", "addr:postcode": "91801", "addr:state": "CA", "addr:street_address": "1000 S VEGA ST", "amenity": "post_box", "collection_times": "Mo-Sa 10:00", "nsi_id": "unitedstatespostalservice-a77078", "operator": "United States Postal Service", "operator:short": "USPS", "operator:type": "public", "operator:wikidata": "Q668687", "ref": "9180100053"}, "type": "Feature"}
{"geometry": {"coordinates": [-118.132647, 34.105142], "type": "Point"}, "id": "koIBxiZbGNTag35aAYEi5mCh0mg=", "properties": {"@source_uri": "https://tools.usps.com/UspsToolsRestServices/rest/POLocator/findLocations", "@spider": "usps_collection_boxes", "addr:city": "ALHAMBRA", "addr:country": "US", "addr:postcode": "91801", "addr:state": "CA", "addr:street_address": "1100 N STONEMAN AVE", "amenity": "post_box", "collection_times": "Mo-Sa 10:00", "nsi_id": "unitedstatespostalservice-a77078", "operator": "United States Postal Service", "operator:short": "USPS", "operator:type": "public", "operator:wikidata": "Q668687", "ref": "9180100057"}, "type": "Feature"}
{"geometry": {"coordinates": [-118.124081, 34.096498], "type": "Point"}, "id": "BY4g80gsMGNnBREufwu40McyenM=", "properties": {"@source_uri": "https://tools.usps.com/UspsToolsRestServices/rest/POLocator/findLocations", "@spider": "usps_collection_boxes", "addr:city": "ALHAMBRA", "addr:country": "US", "addr:postcode": "91801", "addr:state": "CA", "addr:street_address": "245 E MAIN ST", "amenity": "post_box", "collection_times": "Mo-Sa 10:00", "nsi_id": "unitedstatespostalservice-a77078", "operator": "United States Postal Service", "operator:short": "USPS", "operator:type": "public", "operator:wikidata": "Q668687", "ref": "9180100060"}, "type": "Feature"}
{"geometry": {"coordinates": [-118.154357, 34.095006], "type": "Point"}, "id": "g-4L6j3faa-MEQL90KRkcGzsT10=", "properties": {"@source_uri": "https://tools.usps.com/UspsToolsRestServices/rest/POLocator/findLocations", "@spider": "usps_collection_boxes", "addr:city": "ALHAMBRA", "addr:country": "US", "addr:postcode": "91801", "addr:state": "CA", "addr:street_address": "2800 W MAIN ST", "amenity": "post_box", "collection_times": "Mo-Sa 10:00", "nsi_id": "unitedstatespostalservice-a77078", "operator": "United States Postal Service", "operator:short": "USPS", "operator:type": "public", "operator:wikidata": "Q668687", "ref": "9180100061"}, "type": "Feature"}
{"geometry": {"coordinates": [-118.122781, 34.098669], "type": "Point"}, "id": "FKQCqVUd1xrMq8zACZci2yisGJ4=", "properties": {"@source_uri": "https://tools.usps.com/UspsToolsRestServices/rest/POLocator/findLocations", "@spider": "usps_collection_boxes", "addr:city": "ALHAMBRA", "addr:country": "US", "addr:postcode": "91801", "addr:state": "CA", "addr:street_address": "401 E MAIN ST", "amenity": "post_box", "collection_times": "Mo-Sa 10:00", "nsi_id": "unitedstatespostalservice-a77078", "operator": "United States Postal Service", "operator:short": "USPS", "operator:type": "public", "operator:wikidata": "Q668687", "ref": "9180100062"}, "type": "Feature"}
{"geometry": {"coordinates": [-118.1233289461, 34.0901502629], "type": "Point"}, "id": "Kz9SvCqRILMrGEAfuF0bGC9fEgU=", "properties": {"@source_uri": "https://tools.usps.com/UspsToolsRestServices/rest/POLocator/findLocations", "@spider": "usps_collection_boxes", "addr:city": "ALHAMBRA", "addr:country": "US", "addr:postcode": "91801", "addr:state": "CA", "addr:street_address": "430 S GARFIELD AVE", "amenity": "post_box", "collection_times": "Mo-Sa 10:00", "nsi_id": "unitedstatespostalservice-a77078", "operator": "United States Postal Service", "operator:short": "USPS", "operator:type": "public", "operator:wikidata": "Q668687", "ref": "9180100063"}, "type": "Feature"}
{"geometry": {"coordinates": [-118.125911, 34.09303], "type": "Point"}, "id": "Hoc9wUbsTHt9d1bXZixuOPAODf8=", "properties": {"@source_uri": "https://tools.usps.com/UspsToolsRestServices/rest/POLocator/findLocations", "@spider": "usps_collection_boxes", "addr:city": "ALHAMBRA", "addr:country": "US", "addr:postcode": "91801", "addr:state": "CA", "addr:street_address": "10 W BAY STATE ST", "amenity": "post_box", "collection_times": "Mo-Sa 17:00", "name": "USPS COLLECTION BOX - APC", "note": "ON 12/24 AND 12/31, THIS BOX MAY BE COLLECTED AS EARLY AS 12 NOON.", "nsi_id": "unitedstatespostalservice-a77078", "operator": "United States Postal Service", "operator:short": "USPS", "operator:type": "public", "operator:wikidata": "Q668687", "ref": "9180100065"}, "type": "Feature"}
{"geometry": {"coordinates": [-118.125941, 34.093239], "type": "Point"}, "id": "m3IAXMOfEez8RyuTZh530W9iI_8=", "properties": {"@source_uri": "https://tools.usps.com/UspsToolsRestServices/rest/POLocator/findLocations", "@spider": "usps_collection_boxes", "addr:city": "ALHAMBRA", "addr:country": "US", "addr:postcode": "91801", "addr:state": "CA", "addr:street_address": "10 E BAY STATE ST", "amenity": "post_box", "collection_times": "Mo-Sa 17:00", "note": "ON 12/24 AND 12/31, THIS BOX MAY BE COLLECTED AS EARLY AS 12 NOON.", "nsi_id": "unitedstatespostalservice-a77078", "operator": "United States Postal Service", "operator:short": "USPS", "operator:type": "public", "operator:wikidata": "Q668687", "ref": "9180100066"}, "type": "Feature"}
{"geometry": {"coordinates": [-118.125899692, 34.0930522997], "type": "Point"}, "id": "xr6Fijt3yAkFdfokMaCcAYZlgRU=", "properties": {"@source_uri": "https://tools.usps.com/UspsToolsRestServices/rest/POLocator/findLocations", "@spider": "usps_collection_boxes", "addr:city": "ALHAMBRA", "addr:country": "US", "addr:postcode": "91802", "addr:state": "CA", "addr:street_address": "10 W BAY STATE ST", "amenity": "post_box", "collection_times": "Mo-Fr 17:00; Sa 14:00", "indoor": "yes", "note": "ON 12/24 AND 12/31, THIS BOX MAY BE COLLECTED AS EARLY AS 12 NOON.", "nsi_id": "unitedstatespostalservice-a77078", "operator": "United States Postal Service", "operator:short": "USPS", "operator:type": "public", "operator:wikidata": "Q668687", "ref": "9180200001"}, "type": "Feature"}
{"geometry": {"coordinates": [-118.1401759319, 34.0776898639], "type": "Point"}, "id": "3xINeZULt0vwALdSj6aDgs46yRA=", "properties": {"@source_uri": "https://tools.usps.com/UspsToolsRestServices/rest/POLocator/findLocations", "@spider": "usps_collection_boxes", "addr:city": "ALHAMBRA", "addr:country": "US", "addr:postcode": "91803", "addr:state": "CA", "addr:street_address": "1603 W VALLEY BLVD", "amenity": "post_box", "collection_times": "Mo-Sa 17:00", "note": "ON 12/24 AND 12/31, THIS BOX MAY BE COLLECTED AS EARLY AS 12 NOON.", "nsi_id": "unitedstatespostalservice-a77078", "operator": "United States Postal Service", "operator:short": "USPS", "operator:type": "public", "operator:wikidata": "Q668687", "ref": "9180300000"}, "type": "Feature"}
{"geometry": {"coordinates": [-118.1401759319, 34.0776898639], "type": "Point"}, "id": "8Jutrp7ezENYULM8NaqbhrdXLtE=", "properties": {"@source_uri": "https://tools.usps.com/UspsToolsRestServices/rest/POLocator/findLocations", "@spider": "usps_collection_boxes", "addr:city": "ALHAMBRA", "addr:country": "US", "addr:postcode": "91803", "addr:state": "CA", "addr:street_address": "1603 W VALLEY BLVD", "amenity": "post_box", "collection_times": "Mo-Sa 17:00", "note": "ON 12/24 AND 12/31, THIS BOX MAY BE COLLECTED AS EARLY AS 12 NOON.", "nsi_id": "unitedstatespostalservice-a77078", "operator": "United States Postal Service", "operator:short": "USPS", "operator:type": "public", "operator:wikidata": "Q668687", "ref": "9180300001"}, "type": "Feature"}
{"geometry": {"coordinates": [-118.125629, 34.075959], "type": "Point"}, "id": "c-Nfg4RlfQyOLTnX3zrBq8CWWaQ=", "properties": {"@source_uri": "https://tools.usps.com/UspsToolsRestServices/rest/POLocator/findLocations", "@spider": "usps_collection_boxes", "addr:city": "ALHAMBRA", "addr:country": "US", "addr:postcode": "91803", "addr:state": "CA", "addr:street_address": "1525 S 3RD ST", "amenity": "post_box", "collection_times": "Mo-Sa 10:00", "nsi_id": "unitedstatespostalservice-a77078", "operator": "United States Postal Service", "operator:short": "USPS", "operator:type": "public", "operator:wikidata": "Q668687", "ref": "9180300004"}, "type": "Feature"}
{"geometry": {"coordinates": [-118.132972, 34.078115], "type": "Point"}, "id": "i11zjtyBxc-vUm0_Lwzaf2OLfh8=", "properties": {"@source_uri": "https://tools.usps.com/UspsToolsRestServices/rest/POLocator/findLocations", "@spider": "usps_collection_boxes", "addr:city": "ALHAMBRA", "addr:country": "US", "addr:postcode": "91803", "addr:state": "CA", "addr:street_address": "855 W VALLEY BLVD", "amenity": "post_box", "collection_times": "Mo-Sa 10:00", "nsi_id": "unitedstatespostalservice-a77078", "operator": "United States Postal Service", "operator:short": "USPS", "operator:type": "public", "operator:wikidata": "Q668687", "ref": "9180300005"}, "type": "Feature"}
{"geometry": {"coordinates": [-118.146345, 34.084041], "type": "Point"}, "id": "5-ttHg-ufx7L1VdnVP5d9aiUIvc=", "properties": {"@source_uri": "https://tools.usps.com/UspsToolsRestServices/rest/POLocator/findLocations", "@spider": "usps_collection_boxes", "addr:city": "ALHAMBRA", "addr:country": "US", "addr:postcode": "91803", "addr:state": "CA", "addr:street_address": "608 S PALM AVE", "amenity": "post_box", "collection_times": "Mo-Sa 10:00", "nsi_id": "unitedstatespostalservice-a77078", "operator": "United States Postal Service", "operator:short": "USPS", "operator:type": "public", "operator:wikidata": "Q668687", "ref": "9180300006"}, "type": "Feature"}
{"geometry": {"coordinates": [-118.150315, 34.081924], "type": "Point"}, "id": "PFluTHIVDLm7ReaBx-lWfqbCIz8=", "properties": {"@source_uri": "https://tools.usps.com/UspsToolsRestServices/rest/POLocator/findLocations", "@spider": "usps_collection_boxes", "addr:city": "ALHAMBRA", "addr:country": "US", "addr:postcode": "91803", "addr:state": "CA", "addr:street_address": "1000 S FREMONT AVE", "amenity": "post_box", "collection_times": "Mo-Sa 10:00", "nsi_id": "unitedstatespostalservice-a77078", "operator": "United States Postal Service", "operator:short": "USPS", "operator:type": "public", "operator:wikidata": "Q668687", "ref": "9180300009"}, "type": "Feature"}
{"geometry": {"coordinates": [-118.150307, 34.081929], "type": "Point"}, "id": "EPeIkTC76o4zD4knySKyWs17asU=", "properties": {"@source_uri": "https://tools.usps.com/UspsToolsRestServices/rest/POLocator/findLocations", "@spider": "usps_collection_boxes", "addr:city": "ALHAMBRA", "addr:country": "US", "addr:postcode": "91803", "addr:state": "CA", "addr:street_address": "1000 S FREMONT AVE", "amenity": "post_box", "collection_times": "Mo-Sa 10:00", "nsi_id": "unitedstatespostalservice-a77078", "operator": "United States Postal Service", "operator:short": "USPS", "operator:type": "public", "operator:wikidata": "Q668687", "ref": "9180300010"}, "type": "Feature"}
{"geometry": {"coordinates": [-118.155064, 34.064912], "type": "Point"}, "id": "jyfx-hjpghne7wCM1CFguSi5RaY=", "properties": {"@source_uri": "https://tools.usps.com/UspsToolsRestServices/rest/POLocator/findLocations", "@spider": "usps_collection_boxes", "addr:city": "ALHAMBRA", "addr:country": "US", "addr:postcode": "91803", "addr:state": "CA", "addr:street_address": "2901 MONTEZUMA AVE", "amenity": "post_box", "collection_times": "Mo-Sa 10:00", "nsi_id": "unitedstatespostalservice-a77078", "operator": "United States Postal Service", "operator:short": "USPS", "operator:type": "public", "operator:wikidata": "Q668687", "ref": "9180300012"}, "type": "Feature"}
{"geometry": {"coordinates": [-118.129228, 34.076077], "type": "Point"}, "id": "TqfuB4amnNCRDxbDIRKC2AI3hV4=", "properties": {"@source_uri": "https://tools.usps.com/UspsToolsRestServices/rest/POLocator/findLocations", "@spider": "usps_collection_boxes", "addr:city": "ALHAMBRA", "addr:country": "US", "addr:postcode": "91803", "addr:state": "CA", "addr:street_address": "501 W NORWOOD PL", "amenity": "post_box", "collection_times": "Mo-Sa 10:00", "nsi_id": "unitedstatespostalservice-a77078", "operator": "United States Postal Service", "operator:short": "USPS", "operator:type": "public", "operator:wikidata": "Q668687", "ref": "9180300014"}, "type": "Feature"}
{"geometry": {"coordinates": [-118.155229, 34.087706], "type": "Point"}, "id": "sSLz638bSSsm4Rnok5l212rhZcU=", "properties": {"@source_uri": "https://tools.usps.com/UspsToolsRestServices/rest/POLocator/findLocations", "@spider": "usps_collection_boxes", "addr:city": "ALHAMBRA", "addr:country": "US", "addr:postcode": "91803", "addr:state": "CA", "addr:street_address": "2900 W COMMONWEALTH AVE", "amenity": "post_box", "collection_times": "Mo-Sa 10:00", "nsi_id": "unitedstatespostalservice-a77078", "operator": "United States Postal Service", "operator:short": "USPS", "operator:type": "public", "operator:wikidata": "Q668687", "ref": "9180300017"}, "type": "Feature"}
{"geometry": {"coordinates": [-118.137236, 34.077901], "type": "Point"}, "id": "agwSaoCTcjMBzdKzaqk_jOiQaX4=", "properties": {"@source_uri": "https://tools.usps.com/UspsToolsRestServices/rest/POLocator/findLocations", "@spider": "usps_collection_boxes", "addr:city": "ALHAMBRA", "addr:country": "US", "addr:postcode": "91803", "addr:state": "CA", "addr:street_address": "1227 W VALLEY BLVD", "amenity": "post_box", "collection_times": "Mo-Sa 10:00", "nsi_id": "unitedstatespostalservice-a77078", "operator": "United States Postal Service", "operator:short": "USPS", "operator:type": "public", "operator:wikidata": "Q668687", "ref": "9180300020"}, "type": "Feature"}
{"geometry": {"coordinates": [-118.1556700511, 34.0696445115], "type": "Point"}, "id": "3UZ6MImqcMjSPqqTyRGlFBmYuvQ=", "properties": {"@source_uri": "https://tools.usps.com/UspsToolsRestServices/rest/POLocator/findLocations", "@spider": "usps_collection_boxes", "addr:city": "ALHAMBRA", "addr:country": "US", "addr:postcode": "91803", "addr:state": "CA", "addr:street_address": "2821 W HELLMAN AVE", "amenity": "post_box", "collection_times": "Mo-Sa 10:00", "nsi_id": "unitedstatespostalservice-a77078", "operator": "United States Postal Service", "operator:short": "USPS", "operator:type": "public", "operator:wikidata": "Q668687", "ref": "9180300030"}, "type": "Feature"}
{"geometry": {"coordinates": [-118.149593, 34.076932], "type": "Point"}, "id": "3h7sU98mc1BTXqa7dK9d4PK9nVc=", "properties": {"@source_uri": "https://tools.usps.com/UspsToolsRestServices/rest/POLocator/findLocations", "@spider": "usps_collection_boxes", "addr:city": "ALHAMBRA", "addr:country": "US", "addr:postcode": "91803", "addr:state": "CA", "addr:street_address": "2300 W VALLEY BLVD", "amenity": "post_box", "collection_times": "Mo-Sa 10:00", "nsi_id": "unitedstatespostalservice-a77078", "operator": "United States Postal Service", "operator:short": "USPS", "operator:type": "public", "operator:wikidata": "Q668687", "ref": "9180300031"}, "type": "Feature"}
{"geometry": {"coordinates": [-118.1401759319, 34.0776898639], "type": "Point"}, "id": "qND0TvGONxTtCpju1_7Jt9Q07ZY=", "properties": {"@source_uri": "https://tools.usps.com/UspsToolsRestServices/rest/POLocator/findLocations", "@spider": "usps_collection_boxes", "addr:city": "ALHAMBRA", "addr:country": "US", "addr:postcode": "91803", "addr:state": "CA", "addr:street_address": "1603 W VALLEY BLVD", "amenity": "post_box", "collection_times": "Mo-Sa 16:45", "name": "USPS COLLECTION BOX - EXPRESS", "note": "ON 12/24 AND 12/31, THIS BOX MAY BE COLLECTED AS EARLY AS 12 NOON.", "nsi_id": "unitedstatespostalservice-a77078", "operator": "United States Postal Service", "operator:short": "USPS", "operator:type": "public", "operator:wikidata": "Q668687", "ref": "9180300037"}, "type": "Feature"}
{"geometry": {"coordinates": [-118.147169, 34.088877], "type": "Point"}, "id": "JJoJrhCZNe39gajl7UH528kzpqM=", "properties": {"@source_uri": "https://tools.usps.com/UspsToolsRestServices/rest/POLocator/findLocations", "@spider": "usps_collection_boxes", "addr:city": "ALHAMBRA", "addr:country": "US", "addr:postcode": "91803", "addr:state": "CA", "addr:street_address": "2107 W COMMONWEALTH #D", "amenity": "post_box", "collection_times": "Mo-Sa 10:00", "nsi_id": "unitedstatespostalservice-a77078", "operator": "United States Postal Service", "operator:short": "USPS", "operator:type": "public", "operator:wikidata": "Q668687", "ref": "9180300038"}, "type": "Feature"}
{"geometry": {"coordinates": [-118.149313, 34.08416], "type": "Point"}, "id": "RSZATeNNhRdaUy3waDPIznkwWUs=", "properties": {"@source_uri": "https://tools.usps.com/UspsToolsRestServices/rest/POLocator/findLocations", "@spider": "usps_collection_boxes", "addr:city": "ALHAMBRA", "addr:country": "US", "addr:postcode": "91803", "addr:state": "CA", "addr:street_address": "2301 W ORANGE ST", "amenity": "post_box", "collection_times": "Mo-Sa 10:00", "nsi_id": "unitedstatespostalservice-a77078", "operator": "United States Postal Service", "operator:short": "USPS", "operator:type": "public", "operator:wikidata": "Q668687", "ref": "9180300039"}, "type": "Feature"}
{"geometry": {"coordinates": [-118.1401759319, 34.0776898639], "type": "Point"}, "id": "dpETjM9TC2n4RSsmcCac3dQVC2M=", "properties": {"@source_uri": "https://tools.usps.com/UspsToolsRestServices/rest/POLocator/findLocations", "@spider": "usps_collection_boxes", "addr:city": "ALHAMBRA", "addr:country": "US", "addr:postcode": "91803", "addr:state": "CA", "addr:street_address": "1603 W VALLEY BLVD", "amenity": "post_box", "collection_times": "Mo-Fr 17:00", "indoor": "yes", "note": "ON 12/24 AND 12/31, THIS BOX MAY BE COLLECTED AS EARLY AS 12 NOON.", "nsi_id": "unitedstatespostalservice-a77078", "operator": "United States Postal Service", "operator:short": "USPS", "operator:type": "public", "operator:wikidata": "Q668687", "ref": "9180300043"}, "type": "Feature"}
