{"geometry": {"coordinates": [-116.768286, 32.834817], "type": "Point"}, "id": "iKcDihhbqlVdqMpHvfRxNaOBW80=", "properties": {"@source_uri": "https://tools.usps.com/UspsToolsRestServices/rest/POLocator/findLocations", "@spider": "usps_collection_boxes", "addr:city": "ALPINE", "addr:country": "US", "addr:postcode": "91901", "addr:state": "CA", "addr:street_address": "2127 ARNOLD WAY", "amenity": "post_box", "collection_times": "Mo-Fr 16:45; Sa 17:00", "note": "ON 12/24 AND 12/31, THIS BOX MAY BE COLLECTED AS EARLY AS 12 NOON.", "nsi_id": "unitedstatespostalservice-a77078", "operator": "United States Postal Service", "operator:short": "USPS", "operator:type": "public", "operator:wikidata": "Q668687", "ref": "9190100003"}, "type": "Feature"}
{"geometry": {"coordinates": [-116.780875, 32.841468], "type": "Point"}, "id": "eZVVspw-2VMmCM77sW0VQzG6mq0=", "properties": {"@source_uri": "https://tools.usps.com/UspsToolsRestServices/rest/POLocator/findLocations", "@spider": "usps_collection_boxes", "addr:city": "ALPINE", "addr:country": "US", "addr:postcode": "91901", "addr:state": "CA", "addr:street_address": "1140 TAVERN RD", "amenity": "post_box", "collection_times": "Mo-Sa 17:00", "note": "ON 12/24 AND 12/31, THIS BOX MAY BE COLLECTED AS EARLY AS 12 NOON.", "nsi_id": "unitedstatespostalservice-a77078", "operator": "United States Postal Service", "operator:short": "USPS", "operator:type": "public", "operator:wikidata": "Q668687", "ref": "9190100007"}, "type": "Feature"}
{"geometry": {"coordinates": [-116.768286, 32.834817], "type": "Point"}, "id": "LOLtxKXdSVkAkdBgsPAGm3h_B8k=", "properties": {"@source_uri": "https://tools.usps.com/UspsToolsRestServices/rest/POLocator/findLocations", "@spider": "usps_collection_boxes", "addr:city": "ALPINE", "addr:country": "US", "addr:postcode": "91901", "addr:state": "CA", "addr:street_address": "2127 ARNOLD WAY", "amenity": "post_box", "collection_times": "Mo-Fr 16:45; Sa 17:00", "note": "ON 12/24 AND 12/31, THIS BOX MAY BE COLLECTED AS EARLY AS 12 NOON.", "nsi_id": "unitedstatespostalservice-a77078", "operator": "United States Postal Service", "operator:short": "USPS", "operator:type": "public", "operator:wikidata": "Q668687", "ref": "9190100008"}, "type": "Feature"}
{"geometry": {"coordinates": [-116.7690130404, 32.8351911078], "type": "Point"}, "id": "zxub2GxbqO9bsYBhqFCaHo_d91w=", "properties": {"@source_uri": "https://tools.usps.com/UspsToolsRestServices/rest/POLocator/findLocations", "@spider": "usps_collection_boxes", "addr:city": "ALPINE", "addr:country": "US", "addr:postcode": "91901", "addr:state": "CA", "addr:street_address": "2127 ARNOLD WAY", "amenity": "post_box", "collection_times": "Mo-Fr 16:45; Sa 12:00", "indoor": "yes", "note": "ON 12/24 AND 12/31, THIS BOX MAY BE COLLECTED AS EARLY AS 12 NOON.", "nsi_id": "unitedstatespostalservice-a77078", "operator": "United States Postal Service", "operator:short": "USPS", "operator:type": "public", "operator:wikidata": "Q668687", "ref": "9190100010"}, "type": "Feature"}
{"geometry": {"coordinates": [-116.7690130404, 32.8351911078], "type": "Point"}, "id": "fNkxl54Ay60Qi_kBdPKdbgnLowc=", "properties": {"@source_uri": "https://tools.usps.com/UspsToolsRestServices/rest/POLocator/findLocations", "@spider": "usps_collection_boxes", "addr:city": "ALPINE", "addr:country": "US", "addr:postcode": "91901", "addr:state": "CA", "addr:street_address": "2127 ARNOLD WAY", "amenity": "post_box", "collection_times": "Mo-Fr 17:00", "indoor": "yes", "note": "ON 12/24 AND 12/31, THIS BOX MAY BE COLLECTED AS EARLY AS 12 NOON.", "nsi_id": "unitedstatespostalservice-a77078", "operator": "United States Postal Service", "operator:short": "USPS", "operator:type": "public", "operator:wikidata": "Q668687", "ref": "9190100013"}, "type": "Feature"}
{"geometry": {"coordinates": [-117.020897931, 32.6693228082], "type": "Point"}, "id": "cdiuhAplblDSr3LjSyv5Pev7iX8=", "properties": {"@source_uri": "https://tools.usps.com/UspsToolsRestServices/rest/POLocator/findLocations", "@spider": "usps_collection_boxes", "addr:city": "BONITA", "addr:country": "US", "addr:postcode": "91902", "addr:state": "CA", "addr:street_address": "5073 CENTRAL AVE", "amenity": "post_box", "collection_times": "Mo-Fr 17:00; Sa 14:00", "note": "ON 12/24 AND 12/31, THIS BOX MAY BE COLLECTED AS EARLY AS 12 NOON.", "nsi_id": "unitedstatespostalservice-a77078", "operator": "United States Postal Service", "operator:short": "USPS", "operator:type": "public", "operator:wikidata": "Q668687", "ref": "9190200004"}, "type": "Feature"}
{"geometry": {"coordinates": [-117.020897931, 32.6693228082], "type": "Point"}, "id": "JTtgzmAaKZmuyV0sO6oedL8-UAQ=", "properties": {"@source_uri": "https://tools.usps.com/UspsToolsRestServices/rest/POLocator/findLocations", "@spider": "usps_collection_boxes", "addr:city": "BONITA", "addr:country": "US", "addr:postcode": "91902", "addr:state": "CA", "addr:street_address": "5073 CENTRAL AVE", "amenity": "post_box", "collection_times": "Mo-Fr 17:00; Sa 14:00", "note": "ON 12/24 AND 12/31, THIS BOX MAY BE COLLECTED AS EARLY AS 12 NOON.", "nsi_id": "unitedstatespostalservice-a77078", "operator": "United States Postal Service", "operator:short": "USPS", "operator:type": "public", "operator:wikidata": "Q668687", "ref": "9190200005"}, "type": "Feature"}
{"geometry": {"coordinates": [-117.020897931, 32.6693228082], "type": "Point"}, "id": "kHskK3GiTOpUFBtXmKkHr64dFIc=", "properties": {"@source_uri": "https://tools.usps.com/UspsToolsRestServices/rest/POLocator/findLocations", "@spider": "usps_collection_boxes", "addr:city": "BONITA", "addr:country": "US", "addr:postcode": "91902", "addr:state": "CA", "addr:street_address": "5073 CENTRAL AVE", "amenity": "post_box", "collection_times": "Mo-Fr 17:00; Sa 14:00", "note": "ON 12/24 AND 12/31, THIS BOX MAY BE COLLECTED AS EARLY AS 12 NOON.", "nsi_id": "unitedstatespostalservice-a77078", "operator": "United States Postal Service", "operator:short": "USPS", "operator:type": "public", "operator:wikidata": "Q668687", "ref": "9190200008"}, "type": "Feature"}
{"geometry": {"coordinates": [-117.020897931, 32.6693228082], "type": "Point"}, "id": "22lBckYvOE4y6fVNOxjMLqvsQyI=", "properties": {"@source_uri": "https://tools.usps.com/UspsToolsRestServices/rest/POLocator/findLocations", "@spider": "usps_collection_boxes", "addr:city": "BONITA", "addr:country": "US", "addr:postcode": "91902", "addr:state": "CA", "addr:street_address": "5073 CENTRAL AVE", "amenity": "post_box", "collection_times": "Mo-Fr 17:00; Sa 14:00", "note": "ON 12/24 AND 12/31, THIS BOX MAY BE COLLECTED AS EARLY AS 12 NOON.", "nsi_id": "unitedstatespostalservice-a77078", "operator": "United States Postal Service", "operator:short": "USPS", "operator:type": "public", "operator:wikidata": "Q668687", "ref": "9190200010"}, "type": "Feature"}
{"geometry": {"coordinates": [-117.020897931, 32.6693228082], "type": "Point"}, "id": "2DykXeWD_yr1ZH1QJVCoSls3grk=", "properties": {"@source_uri": "https://tools.usps.com/UspsToolsRestServices/rest/POLocator/findLocations", "@spider": "usps_collection_boxes", "addr:city": "BONITA", "addr:country": "US", "addr:postcode": "91902", "addr:state": "CA", "addr:street_address": "5073 CENTRAL AVE", "amenity": "post_box", "collection_times": "Mo-Fr 17:00; Sa 14:00", "note": "ON 12/24 AND 12/31, THIS BOX MAY BE COLLECTED AS EARLY AS 12 NOON.", "nsi_id": "unitedstatespostalservice-a77078", "operator": "United States Postal Service", "operator:short": "USPS", "operator:type": "public", "operator:wikidata": "Q668687", "ref": "9190200011"}, "type": "Feature"}
{"geometry": {"coordinates": [-117.020897931, 32.6693228082], "type": "Point"}, "id": "ArOVEcpIiOqo3arvYPLA2ypOc7I=", "properties": {"@source_uri": "https://tools.usps.com/UspsToolsRestServices/rest/POLocator/findLocations", "@spider": "usps_collection_boxes", "addr:city": "BONITA", "addr:country": "US", "addr:postcode": "91902", "addr:state": "CA", "addr:street_address": "5073 CENTRAL AVE", "amenity": "post_box", "collection_times": "Mo-Fr 17:00; Sa 14:00", "name": "USPS COLLECTION BOX - APC", "note": "ON 12/24 AND 12/31, THIS BOX MAY BE COLLECTED AS EARLY AS 12 NOON.", "nsi_id": "unitedstatespostalservice-a77078", "operator": "United States Postal Service", "operator:short": "USPS", "operator:type": "public", "operator:wikidata": "Q668687", "ref": "9190200016"}, "type": "Feature"}
{"geometry": {"coordinates": [-117.039648, 32.658886], "type": "Point"}, "id": "klO4DCn8zXKx0z0_cljZDc1wTgk=", "properties": {"@source_uri": "https://tools.usps.com/UspsToolsRestServices/rest/POLocator/findLocations", "@spider": "usps_collection_boxes", "addr:city": "BONITA", "addr:country": "US", "addr:postcode": "91902", "addr:state": "CA", "addr:street_address": "4055 BONITA RD", "amenity": "post_box", "collection_times": "Mo-Sa 10:00", "nsi_id": "unitedstatespostalservice-a77078", "operator": "United States Postal Service", "operator:short": "USPS", "operator:type": "public", "operator:wikidata": "Q668687", "ref": "9190200017"}, "type": "Feature"}
{"geometry": {"coordinates": [-117.020897931, 32.6693228082], "type": "Point"}, "id": "pV0eLhFEN8WjBnsEnwWokuLz49M=", "properties": {"@source_uri": "https://tools.usps.com/UspsToolsRestServices/rest/POLocator/findLocations", "@spider": "usps_collection_boxes", "addr:city": "BONITA", "addr:country": "US", "addr:postcode": "91902", "addr:state": "CA", "addr:street_address": "5073 CENTRAL AVE", "amenity": "post_box", "collection_times": "Mo-Fr 17:00", "indoor": "yes", "note": "ON 12/24 AND 12/31, THIS BOX MAY BE COLLECTED AS EARLY AS 12 NOON.", "nsi_id": "unitedstatespostalservice-a77078", "operator": "United States Postal Service", "operator:short": "USPS", "operator:type": "public", "operator:wikidata": "Q668687", "ref": "9190200019"}, "type": "Feature"}
{"geometry": {"coordinates": [-116.296964, 32.668247], "type": "Point"}, "id": "MKSL6DqG0UQWO9Ss6U11Ad88tus=", "properties": {"@source_uri": "https://tools.usps.com/UspsToolsRestServices/rest/POLocator/findLocations", "@spider": "usps_collection_boxes", "addr:city": "BOULEVARD", "addr:country": "US", "addr:postcode": "91905", "addr:state": "CA", "addr:street_address": "39550 OLD HIGHWAY 80", "amenity": "post_box", "collection_times": "Mo-Sa 16:00", "note": "ON 12/24 AND 12/31, THIS BOX MAY BE COLLECTED AS EARLY AS 12 NOON.", "nsi_id": "unitedstatespostalservice-a77078", "operator": "United States Postal Service", "operator:short": "USPS", "operator:type": "public", "operator:wikidata": "Q668687", "ref": "9190500001"}, "type": "Feature"}
{"geometry": {"coordinates": [-116.29703, 32.668697], "type": "Point"}, "id": "hnx4t48R00rmUD_IWDdeHzIiHqI=", "properties": {"@source_uri": "https://tools.usps.com/UspsToolsRestServices/rest/POLocator/findLocations", "@spider": "usps_collection_boxes", "addr:city": "BOULEVARD", "addr:country": "US", "addr:postcode": "91905", "addr:state": "CA", "addr:street_address": "39550 OLD HIGHWAY 80", "amenity": "post_box", "collection_times": "Mo-Sa 08:00", "indoor": "yes", "nsi_id": "unitedstatespostalservice-a77078", "operator": "United States Postal Service", "operator:short": "USPS", "operator:type": "public", "operator:wikidata": "Q668687", "ref": "9190500003"}, "type": "Feature"}
{"geometry": {"coordinates": [-116.2969183225, 32.6682442829], "type": "Point"}, "id": "hfX7G6hHZnlVO9_yLmN3AJnAIu0=", "properties": {"@source_uri": "https://tools.usps.com/UspsToolsRestServices/rest/POLocator/findLocations", "@spider": "usps_collection_boxes", "addr:city": "BOULEVARD", "addr:country": "US", "addr:postcode": "91905", "addr:state": "CA", "addr:street_address": "39550 OLD HIGHWAY 80 STE A", "amenity": "post_box", "collection_times": "Mo-Fr 16:30", "indoor": "yes", "note": "ON 12/24 AND 12/31, THIS BOX MAY BE COLLECTED AS EARLY AS 12 NOON.", "nsi_id": "unitedstatespostalservice-a77078", "operator": "United States Postal Service", "operator:short": "USPS", "operator:type": "public", "operator:wikidata": "Q668687", "ref": "9190500004"}, "type": "Feature"}
{"geometry": {"coordinates": [-116.4699257387, 32.6076618743], "type": "Point"}, "id": "MH2dKxesxcrbKqUTb8Y2BKKmYcY=", "properties": {"@source_uri": "https://tools.usps.com/UspsToolsRestServices/rest/POLocator/findLocations", "@spider": "usps_collection_boxes", "addr:city": "CAMPO", "addr:country": "US", "addr:postcode": "91906", "addr:state": "CA", "addr:street_address": "951 JEB STUART RD", "amenity": "post_box", "collection_times": "Mo-Fr 16:00; Sa 12:00", "note": "ON 12/24 AND 12/31, THIS BOX MAY BE COLLECTED AS EARLY AS 12 NOON.", "nsi_id": "unitedstatespostalservice-a77078", "operator": "United States Postal Service", "operator:short": "USPS", "operator:type": "public", "operator:wikidata": "Q668687", "ref": "9190600001"}, "type": "Feature"}
{"geometry": {"coordinates": [-116.4699257387, 32.6076618743], "type": "Point"}, "id": "fU-86ISch9yx8GUAAXqjiOaYH1s=", "properties": {"@source_uri": "https://tools.usps.com/UspsToolsRestServices/rest/POLocator/findLocations", "@spider": "usps_collection_boxes", "addr:city": "CAMPO", "addr:country": "US", "addr:postcode": "91906", "addr:state": "CA", "addr:street_address": "951 JEB STUART RD", "amenity": "post_box", "collection_times": "Mo-Sa 08:00", "indoor": "yes", "nsi_id": "unitedstatespostalservice-a77078", "operator": "United States Postal Service", "operator:short": "USPS", "operator:type": "public", "operator:wikidata": "Q668687", "ref": "9190600003"}, "type": "Feature"}
{"geometry": {"coordinates": [-116.4699257387, 32.6076618743], "type": "Point"}, "id": "Th-OsokWAN5Khlhe_tADcT7Kim0=", "properties": {"@source_uri": "https://tools.usps.com/UspsToolsRestServices/rest/POLocator/findLocations", "@spider": "usps_collection_boxes", "addr:city": "CAMPO", "addr:country": "US", "addr:postcode": "91906", "addr:state": "CA", "addr:street_address": "951 JEB STUART RD", "amenity": "post_box", "collection_times": "Mo-Fr 16:00", "indoor": "yes", "note": "ON 12/24 AND 12/31, THIS BOX MAY BE COLLECTED AS EARLY AS 12 NOON.", "nsi_id": "unitedstatespostalservice-a77078", "operator": "United States Postal Service", "operator:short": "USPS", "operator:type": "public", "operator:wikidata": "Q668687", "ref": "9190600004"}, "type": "Feature"}
{"geometry": {"coordinates": [-116.9983590287, 32.6405280189], "type": "Point"}, "id": "vg6HaWLFc_R8Mf1OSK-3_0Y0WfQ=", "properties": {"@source_uri": "https://tools.usps.com/UspsToolsRestServices/rest/POLocator/findLocations", "@spider": "usps_collection_boxes", "addr:city": "CHULA VISTA", "addr:country": "US", "addr:postcode": "91910", "addr:state": "CA", "addr:street_address": "900 OTAY LAKES RD", "amenity": "post_box", "collection_times": "Mo-Sa 09:00", "nsi_id": "unitedstatespostalservice-a77078", "operator": "United States Postal Service", "operator:short": "USPS", "operator:type": "public", "operator:wikidata": "Q668687", "ref": "9191000002"}, "type": "Feature"}
{"geometry": {"coordinates": [-117.071686, 32.643695], "type": "Point"}, "id": "wHWZ9MHK9BuLQYAns3DnAINnsiQ=", "properties": {"@source_uri": "https://tools.usps.com/UspsToolsRestServices/rest/POLocator/findLocations", "@spider": "usps_collection_boxes", "addr:city": "CHULA VISTA", "addr:country": "US", "addr:postcode": "91910", "addr:state": "CA", "addr:street_address": "99 F ST", "amenity": "post_box", "collection_times": "Mo-Sa 10:30", "nsi_id": "unitedstatespostalservice-a77078", "operator": "United States Postal Service", "operator:short": "USPS", "operator:type": "public", "operator:wikidata": "Q668687", "ref": "9191000004"}, "type": "Feature"}
{"geometry": {"coordinates": [-117.080233, 32.644883], "type": "Point"}, "id": "jOte8WyHkdO7jklLhzEBqicI36Y=", "properties": {"@source_uri": "https://tools.usps.com/UspsToolsRestServices/rest/POLocator/findLocations", "@spider": "usps_collection_boxes", "addr:city": "CHULA VISTA", "addr:country": "US", "addr:postcode": "91910", "addr:state": "CA", "addr:street_address": "200 CHURCH AVE", "amenity": "post_box", "collection_times": "Mo-Sa 14:00", "note": "ON 12/24 AND 12/31, THIS BOX MAY BE COLLECTED AS EARLY AS 12 NOON.", "nsi_id": "unitedstatespostalservice-a77078", "operator": "United States Postal Service", "operator:short": "USPS", "operator:type": "public", "operator:wikidata": "Q668687", "ref": "9191000014"}, "type": "Feature"}
{"geometry": {"coordinates": [-117.08465, 32.637515], "type": "Point"}, "id": "kp3UYYHZf8FxiYYj6uT90qYGEn4=", "properties": {"@source_uri": "https://tools.usps.com/UspsToolsRestServices/rest/POLocator/findLocations", "@spider": "usps_collection_boxes", "addr:city": "CHULA VISTA", "addr:country": "US", "addr:postcode": "91910", "addr:state": "CA", "addr:street_address": "320 E H ST", "amenity": "post_box", "collection_times": "Mo-Sa 10:30", "nsi_id": "unitedstatespostalservice-a77078", "operator": "United States Postal Service", "operator:short": "USPS", "operator:type": "public", "operator:wikidata": "Q668687", "ref": "9191000022"}, "type": "Feature"}
{"geometry": {"coordinates": [-117.092639, 32.630278], "type": "Point"}, "id": "CC2Omrvi6BFg8SJd06NjS6FdgGI=", "properties": {"@source_uri": "https://tools.usps.com/UspsToolsRestServices/rest/POLocator/findLocations", "@spider": "usps_collection_boxes", "addr:city": "CHULA VISTA", "addr:country": "US", "addr:postcode": "91910", "addr:state": "CA", "addr:street_address": "491 OAKLAWN AVE", "amenity": "post_box", "collection_times": "Mo-Sa 10:30", "nsi_id": "unitedstatespostalservice-a77078", "operator": "United States Postal Service", "operator:short": "USPS", "operator:type": "public", "operator:wikidata": "Q668687", "ref": "9191000028"}, "type": "Feature"}
{"geometry": {"coordinates": [-117.040126, 32.629119], "type": "Point"}, "id": "Ug2lMqHx6qPKaDVOKFduUQqL2kg=", "properties": {"@source_uri": "https://tools.usps.com/UspsToolsRestServices/rest/POLocator/findLocations", "@spider": "usps_collection_boxes", "addr:city": "CHULA VISTA", "addr:country": "US", "addr:postcode": "91910", "addr:state": "CA", "addr:street_address": "513 TELEGRAPH CANYON RD", "amenity": "post_box", "collection_times": "Mo-Sa 13:30", "note": "ON 12/24 AND 12/31, THIS BOX MAY BE COLLECTED AS EARLY AS 12 NOON.", "nsi_id": "unitedstatespostalservice-a77078", "operator": "United States Postal Service", "operator:short": "USPS", "operator:type": "public", "operator:wikidata": "Q668687", "ref": "9191000039"}, "type": "Feature"}
{"geometry": {"coordinates": [-117.088673, 32.629038], "type": "Point"}, "id": "NlaL8tjnQLX3iVsxxyHCI8Y6dhk=", "properties": {"@source_uri": "https://tools.usps.com/UspsToolsRestServices/rest/POLocator/findLocations", "@spider": "usps_collection_boxes", "addr:city": "CHULA VISTA", "addr:country": "US", "addr:postcode": "91910", "addr:state": "CA", "addr:street_address": "555 BROADWAY", "amenity": "post_box", "collection_times": "Mo-Sa 09:00", "nsi_id": "unitedstatespostalservice-a77078", "operator": "United States Postal Service", "operator:short": "USPS", "operator:type": "public", "operator:wikidata": "Q668687", "ref": "9191000043"}, "type": "Feature"}
{"geometry": {"coordinates": [-117.073849, 32.625748], "type": "Point"}, "id": "ZiZfFPe8K_qCW-znB0lXsKzBZeg=", "properties": {"@source_uri": "https://tools.usps.com/UspsToolsRestServices/rest/POLocator/findLocations", "@spider": "usps_collection_boxes", "addr:city": "CHULA VISTA", "addr:country": "US", "addr:postcode": "91910", "addr:state": "CA", "addr:street_address": "750 3RD AVE", "amenity": "post_box", "collection_times": "Mo-Sa 17:00", "note": "ON 12/24 AND 12/31, THIS BOX MAY BE COLLECTED AS EARLY AS 12 NOON.", "nsi_id": "unitedstatespostalservice-a77078", "operator": "United States Postal Service", "operator:short": "USPS", "operator:type": "public", "operator:wikidata": "Q668687", "ref": "9191000047"}, "type": "Feature"}
{"geometry": {"coordinates": [-117.001109, 32.644504], "type": "Point"}, "id": "vLgLmNNwX63jHlNkUGGTUyOby-c=", "properties": {"@source_uri": "https://tools.usps.com/UspsToolsRestServices/rest/POLocator/findLocations", "@spider": "usps_collection_boxes", "addr:city": "CHULA VISTA", "addr:country": "US", "addr:postcode": "91910", "addr:state": "CA", "addr:street_address": "1479 E H ST", "amenity": "post_box", "collection_times": "Mo-Sa 14:00", "note": "ON 12/24 AND 12/31, THIS BOX MAY BE COLLECTED AS EARLY AS 12 NOON.", "nsi_id": "unitedstatespostalservice-a77078", "operator": "United States Postal Service", "operator:short": "USPS", "operator:type": "public", "operator:wikidata": "Q668687", "ref": "9191000049"}, "type": "Feature"}
{"geometry": {"coordinates": [-117.079794, 32.64142], "type": "Point"}, "id": "Ed3REODyd3RBww44KJeL8hPKegU=", "properties": {"@source_uri": "https://tools.usps.com/UspsToolsRestServices/rest/POLocator/findLocations", "@spider": "usps_collection_boxes", "addr:city": "CHULA VISTA", "addr:country": "US", "addr:postcode": "91910", "addr:state": "CA", "addr:street_address": "299 3RD AVE", "amenity": "post_box", "collection_times": "Mo-Sa 14:00", "note": "ON 12/24 AND 12/31, THIS BOX MAY BE COLLECTED AS EARLY AS 12 NOON.", "nsi_id": "unitedstatespostalservice-a77078", "operator": "United States Postal Service", "operator:short": "USPS", "operator:type": "public", "operator:wikidata": "Q668687", "ref": "9191000053"}, "type": "Feature"}
{"geometry": {"coordinates": [-117.073849, 32.625748], "type": "Point"}, "id": "mhfIcbXlIWVEiqF6vdxm-SHyfs8=", "properties": {"@source_uri": "https://tools.usps.com/UspsToolsRestServices/rest/POLocator/findLocations", "@spider": "usps_collection_boxes", "addr:city": "CHULA VISTA", "addr:country": "US", "addr:postcode": "91910", "addr:state": "CA", "addr:street_address": "750 3RD AVE", "amenity": "post_box", "collection_times": "Mo-Sa 17:00", "note": "ON 12/24 AND 12/31, THIS BOX MAY BE COLLECTED AS EARLY AS 12 NOON.", "nsi_id": "unitedstatespostalservice-a77078", "operator": "United States Postal Service", "operator:short": "USPS", "operator:type": "public", "operator:wikidata": "Q668687", "ref": "9191000058"}, "type": "Feature"}
{"geometry": {"coordinates": [-117.011849, 32.639114], "type": "Point"}, "id": "KATrasvDulivIxuhItord3u7qaA=", "properties": {"@source_uri": "https://tools.usps.com/UspsToolsRestServices/rest/POLocator/findLocations", "@spider": "usps_collection_boxes", "addr:city": "CHULA VISTA", "addr:country": "US", "addr:postcode": "91910", "addr:state": "CA", "addr:street_address": "896 PASEO RANCHERO", "amenity": "post_box", "collection_times": "Mo-Sa 10:30", "nsi_id": "unitedstatespostalservice-a77078", "operator": "United States Postal Service", "operator:short": "USPS", "operator:type": "public", "operator:wikidata": "Q668687", "ref": "9191000064"}, "type": "Feature"}
{"geometry": {"coordinates": [-117.073849, 32.625748], "type": "Point"}, "id": "bSGwu4aDLzQXKwzzU1Uds8oDDYI=", "properties": {"@source_uri": "https://tools.usps.com/UspsToolsRestServices/rest/POLocator/findLocations", "@spider": "usps_collection_boxes", "addr:city": "CHULA VISTA", "addr:country": "US", "addr:postcode": "91910", "addr:state": "CA", "addr:street_address": "750 3RD AVE", "amenity": "post_box", "collection_times": "Mo-Sa 17:00", "name": "USPS COLLECTION BOX - APC", "note": "ON 12/24 AND 12/31, THIS BOX MAY BE COLLECTED AS EARLY AS 12 NOON.", "nsi_id": "unitedstatespostalservice-a77078", "operator": "United States Postal Service", "operator:short": "USPS", "operator:type": "public", "operator:wikidata": "Q668687", "ref": "9191000066"}, "type": "Feature"}
{"geometry": {"coordinates": [-117.0738520799, 32.6257473375], "type": "Point"}, "id": "Fl7NUPSdlOJFaamDisybwzoFCeE=", "properties": {"@source_uri": "https://tools.usps.com/UspsToolsRestServices/rest/POLocator/findLocations", "@spider": "usps_collection_boxes", "addr:city": "CHULA VISTA", "addr:country": "US", "addr:postcode": "91910", "addr:state": "CA", "addr:street_address": "750 THIRD AVE", "amenity": "post_box", "collection_times": "Mo-Fr 17:00", "indoor": "yes", "note": "ON 12/24 AND 12/31, THIS BOX MAY BE COLLECTED AS EARLY AS 12 NOON.", "nsi_id": "unitedstatespostalservice-a77078", "operator": "United States Postal Service", "operator:short": "USPS", "operator:type": "public", "operator:wikidata": "Q668687", "ref": "9191000076"}, "type": "Feature"}
{"geometry": {"coordinates": [-117.072301, 32.623555], "type": "Point"}, "id": "KuTQNDGZsQ3Lrh53U9WyzABEgT8=", "properties": {"@source_uri": "https://tools.usps.com/UspsToolsRestServices/rest/POLocator/findLocations", "@spider": "usps_collection_boxes", "addr:city": "CHULA VISTA", "addr:country": "US", "addr:postcode": "91911", "addr:state": "CA", "addr:street_address": "815 3RD AVE", "amenity": "post_box", "collection_times": "Mo-Sa 10:00", "nsi_id": "unitedstatespostalservice-a77078", "operator": "United States Postal Service", "operator:short": "USPS", "operator:type": "public", "operator:wikidata": "Q668687", "ref": "9191100001"}, "type": "Feature"}
{"geometry": {"coordinates": [-117.065139, 32.60591], "type": "Point"}, "id": "a6LIB4AEfLNNOKmyB-pCcg4-dlQ=", "properties": {"@source_uri": "https://tools.usps.com/UspsToolsRestServices/rest/POLocator/findLocations", "@spider": "usps_collection_boxes", "addr:city": "CHULA VISTA", "addr:country": "US", "addr:postcode": "91911", "addr:state": "CA", "addr:street_address": "1321 3RD AVE", "amenity": "post_box", "collection_times": "Mo-Sa 10:30", "nsi_id": "unitedstatespostalservice-a77078", "operator": "United States Postal Service", "operator:short": "USPS", "operator:type": "public", "operator:wikidata": "Q668687", "ref": "9191100002"}, "type": "Feature"}
{"geometry": {"coordinates": [-117.084174, 32.617765], "type": "Point"}, "id": "YLF0EOnPl14NSHwivE3alQlmrZg=", "properties": {"@source_uri": "https://tools.usps.com/UspsToolsRestServices/rest/POLocator/findLocations", "@spider": "usps_collection_boxes", "addr:city": "CHULA VISTA", "addr:country": "US", "addr:postcode": "91911", "addr:state": "CA", "addr:street_address": "897 BROADWAY", "amenity": "post_box", "collection_times": "Mo-Sa 10:00", "nsi_id": "unitedstatespostalservice-a77078", "operator": "United States Postal Service", "operator:short": "USPS", "operator:type": "public", "operator:wikidata": "Q668687", "ref": "9191100006"}, "type": "Feature"}
{"geometry": {"coordinates": [-117.051619, 32.601998], "type": "Point"}, "id": "KR-saIQ6GeV_LikdCm3RlRGYLo8=", "properties": {"@source_uri": "https://tools.usps.com/UspsToolsRestServices/rest/POLocator/findLocations", "@spider": "usps_collection_boxes", "addr:city": "CHULA VISTA", "addr:country": "US", "addr:postcode": "91911", "addr:state": "CA", "addr:street_address": "1440 HILLTOP DR", "amenity": "post_box", "collection_times": "Mo-Sa 10:30", "nsi_id": "unitedstatespostalservice-a77078", "operator": "United States Postal Service", "operator:short": "USPS", "operator:type": "public", "operator:wikidata": "Q668687", "ref": "9191100007"}, "type": "Feature"}
{"geometry": {"coordinates": [-117.0882230052, 32.6074000134], "type": "Point"}, "id": "S2McHKDFUp_MoUytGKf80koZvlY=", "properties": {"@source_uri": "https://tools.usps.com/UspsToolsRestServices/rest/POLocator/findLocations", "@spider": "usps_collection_boxes", "addr:city": "CHULA VISTA", "addr:country": "US", "addr:postcode": "91911", "addr:state": "CA", "addr:street_address": "1100 INDUSTRIAL BLVD", "amenity": "post_box", "collection_times": "Mo-Sa 10:30", "nsi_id": "unitedstatespostalservice-a77078", "operator": "United States Postal Service", "operator:short": "USPS", "operator:type": "public", "operator:wikidata": "Q668687", "ref": "9191100008"}, "type": "Feature"}
{"geometry": {"coordinates": [-117.039362, 32.605199], "type": "Point"}, "id": "S3cSSefZ0eosJvmTHuoI14U5I3w=", "properties": {"@source_uri": "https://tools.usps.com/UspsToolsRestServices/rest/POLocator/findLocations", "@spider": "usps_collection_boxes", "addr:city": "CHULA VISTA", "addr:country": "US", "addr:postcode": "91911", "addr:state": "CA", "addr:street_address": "1480 MELROSE AVE", "amenity": "post_box", "collection_times": "Mo-Sa 10:30", "nsi_id": "unitedstatespostalservice-a77078", "operator": "United States Postal Service", "operator:short": "USPS", "operator:type": "public", "operator:wikidata": "Q668687", "ref": "9191100012"}, "type": "Feature"}
{"geometry": {"coordinates": [-117.034893, 32.610195], "type": "Point"}, "id": "atlNOsYcZ2IJuHvfGgiD0mCmR1M=", "properties": {"@source_uri": "https://tools.usps.com/UspsToolsRestServices/rest/POLocator/findLocations", "@spider": "usps_collection_boxes", "addr:city": "CHULA VISTA", "addr:country": "US", "addr:postcode": "91911", "addr:state": "CA", "addr:street_address": "1418 OLEANDER AVE", "amenity": "post_box", "collection_times": "Mo-Sa 10:30", "nsi_id": "unitedstatespostalservice-a77078", "operator": "United States Postal Service", "operator:short": "USPS", "operator:type": "public", "operator:wikidata": "Q668687", "ref": "9191100013"}, "type": "Feature"}
{"geometry": {"coordinates": [-117.079938, 32.60621], "type": "Point"}, "id": "NnK8GefkvPqd9GP9uTx40POm-l8=", "properties": {"@source_uri": "https://tools.usps.com/UspsToolsRestServices/rest/POLocator/findLocations", "@spider": "usps_collection_boxes", "addr:city": "CHULA VISTA", "addr:country": "US", "addr:postcode": "91911", "addr:state": "CA", "addr:street_address": "1208 BROADWAY", "amenity": "post_box", "collection_times": "Mo-Sa 10:30", "nsi_id": "unitedstatespostalservice-a77078", "operator": "United States Postal Service", "operator:short": "USPS", "operator:type": "public", "operator:wikidata": "Q668687", "ref": "9191100019"}, "type": "Feature"}
{"geometry": {"coordinates": [-117.023736, 32.617923], "type": "Point"}, "id": "EUaknqEovVYvAEKhiIZ-zowj-DQ=", "properties": {"@source_uri": "https://tools.usps.com/UspsToolsRestServices/rest/POLocator/findLocations", "@spider": "usps_collection_boxes", "addr:city": "CHULA VISTA", "addr:country": "US", "addr:postcode": "91911", "addr:state": "CA", "addr:street_address": "750 MEDICAL CENTER CT", "amenity": "post_box", "collection_times": "Mo-Sa 13:00", "note": "ON 12/24 AND 12/31, THIS BOX MAY BE COLLECTED AS EARLY AS 12 NOON.", "nsi_id": "unitedstatespostalservice-a77078", "operator": "United States Postal Service", "operator:short": "USPS", "operator:type": "public", "operator:wikidata": "Q668687", "ref": "9191100021"}, "type": "Feature"}
{"geometry": {"coordinates": [-117.0695940588, 32.6097826092], "type": "Point"}, "id": "xgleadjU9lJNXVCYKGwe3oBGUkM=", "properties": {"@source_uri": "https://tools.usps.com/UspsToolsRestServices/rest/POLocator/findLocations", "@spider": "usps_collection_boxes", "addr:city": "CHULA VISTA", "addr:country": "US", "addr:postcode": "91911", "addr:state": "CA", "addr:street_address": "340 OXFORD ST", "amenity": "post_box", "collection_times": "Mo-Fr 17:00; Sa 13:00", "note": "ON 12/24 AND 12/31, THIS BOX MAY BE COLLECTED AS EARLY AS 12 NOON.", "nsi_id": "unitedstatespostalservice-a77078", "operator": "United States Postal Service", "operator:short": "USPS", "operator:type": "public", "operator:wikidata": "Q668687", "ref": "9191100024"}, "type": "Feature"}
{"geometry": {"coordinates": [-117.029218, 32.601767], "type": "Point"}, "id": "4Zcp5Y_2ZlSKNPtSKoGv5mIglgc=", "properties": {"@source_uri": "https://tools.usps.com/UspsToolsRestServices/rest/POLocator/findLocations", "@spider": "usps_collection_boxes", "addr:city": "CHULA VISTA", "addr:country": "US", "addr:postcode": "91911", "addr:state": "CA", "addr:street_address": "1655 BRANDYWINE AVE", "amenity": "post_box", "collection_times": "Mo-Sa 10:30", "nsi_id": "unitedstatespostalservice-a77078", "operator": "United States Postal Service", "operator:short": "USPS", "operator:type": "public", "operator:wikidata": "Q668687", "ref": "9191100027"}, "type": "Feature"}
{"geometry": {"coordinates": [-117.069598457, 32.6097824605], "type": "Point"}, "id": "_iwb21gveWkugilym4c7KjngZyo=", "properties": {"@source_uri": "https://tools.usps.com/UspsToolsRestServices/rest/POLocator/findLocations", "@spider": "usps_collection_boxes", "addr:city": "CHULA VISTA", "addr:country": "US", "addr:postcode": "91911", "addr:state": "CA", "addr:street_address": "340 OXFORD ST", "amenity": "post_box", "collection_times": "Mo-Fr 17:00", "indoor": "yes", "note": "ON 12/24 AND 12/31, THIS BOX MAY BE COLLECTED AS EARLY AS 12 NOON.", "nsi_id": "unitedstatespostalservice-a77078", "operator": "United States Postal Service", "operator:short": "USPS", "operator:type": "public", "operator:wikidata": "Q668687", "ref": "9191100034"}, "type": "Feature"}
{"geometry": {"coordinates": [-117.081385, 32.61406], "type": "Point"}, "id": "ri0jS1KY9ertkLwuYQC0REi52m4=", "properties": {"@source_uri": "https://tools.usps.com/UspsToolsRestServices/rest/POLocator/findLocations", "@spider": "usps_collection_boxes", "addr:city": "CHULA VISTA", "addr:country": "US", "addr:postcode": "91911", "addr:state": "CA", "addr:street_address": "1700 MELROSE AVE", "amenity": "post_box", "collection_times": "Mo-Sa 12:00", "nsi_id": "unitedstatespostalservice-a77078", "operator": "United States Postal Service", "operator:short": "USPS", "operator:type": "public", "operator:wikidata": "Q668687", "ref": "9191100038"}, "type": "Feature"}
{"geometry": {"coordinates": [-116.9668894703, 32.6529956974], "type": "Point"}, "id": "FnSJoKatOi24RD1nSxJeAEcZnUA=", "properties": {"@source_uri": "https://tools.usps.com/UspsToolsRestServices/rest/POLocator/findLocations", "@spider": "usps_collection_boxes", "addr:city": "CHULA VISTA", "addr:country": "US", "addr:postcode": "91914", "addr:state": "CA", "addr:street_address": "830 KUHN DR", "amenity": "post_box", "collection_times": "Mo-Fr 17:00; Sa 14:00", "name": "USPS COLLECTION BOX - EXPRESS", "note": "ON 12/24 AND 12/31, THIS BOX MAY BE COLLECTED AS EARLY AS 12 NOON.", "nsi_id": "unitedstatespostalservice-a77078", "operator": "United States Postal Service", "operator:short": "USPS", "operator:type": "public", "operator:wikidata": "Q668687", "ref": "9191400006"}, "type": "Feature"}
{"geometry": {"coordinates": [-116.9668894703, 32.6529956974], "type": "Point"}, "id": "Tezr-U6O9dbxJKxeGfrzu3huVeU=", "properties": {"@source_uri": "https://tools.usps.com/UspsToolsRestServices/rest/POLocator/findLocations", "@spider": "usps_collection_boxes", "addr:city": "CHULA VISTA", "addr:country": "US", "addr:postcode": "91914", "addr:state": "CA", "addr:street_address": "830 KUHN DR", "amenity": "post_box", "collection_times": "Mo-Fr 17:00; Sa 14:00", "note": "ON 12/24 AND 12/31, THIS BOX MAY BE COLLECTED AS EARLY AS 12 NOON.", "nsi_id": "unitedstatespostalservice-a77078", "operator": "United States Postal Service", "operator:short": "USPS", "operator:type": "public", "operator:wikidata": "Q668687", "ref": "9191400007"}, "type": "Feature"}
{"geometry": {"coordinates": [-116.9668894703, 32.6529956974], "type": "Point"}, "id": "g4Wxgd3Q4OJCGSB5ijgOhS456SQ=", "properties": {"@source_uri": "https://tools.usps.com/UspsToolsRestServices/rest/POLocator/findLocations", "@spider": "usps_collection_boxes", "addr:city": "CHULA VISTA", "addr:country": "US", "addr:postcode": "91914", "addr:state": "CA", "addr:street_address": "830 KUHN DR", "amenity": "post_box", "collection_times": "Mo-Fr 17:00; Sa 14:00", "note": "ON 12/24 AND 12/31, THIS BOX MAY BE COLLECTED AS EARLY AS 12 NOON.", "nsi_id": "unitedstatespostalservice-a77078", "operator": "United States Postal Service", "operator:short": "USPS", "operator:type": "public", "operator:wikidata": "Q668687", "ref": "9191400008"}, "type": "Feature"}
{"geometry": {"coordinates": [-116.9675145, 32.652855], "type": "Point"}, "id": "675gAMpIH3yAT9FnIcSvne7Cm5c=", "properties": {"@source_uri": "https://tools.usps.com/UspsToolsRestServices/rest/POLocator/findLocations", "@spider": "usps_collection_boxes", "addr:city": "CHULA VISTA", "addr:country": "US", "addr:postcode": "91914", "addr:state": "CA", "addr:street_address": "830 KUHN DR", "amenity": "post_box", "collection_times": "Mo-Fr 17:00; Sa 14:00", "name": "USPS COLLECTION BOX - APC", "note": "ON 12/24 AND 12/31, THIS BOX MAY BE COLLECTED AS EARLY AS 12 NOON.", "nsi_id": "unitedstatespostalservice-a77078", "operator": "United States Postal Service", "operator:short": "USPS", "operator:type": "public", "operator:wikidata": "Q668687", "ref": "9191400012"}, "type": "Feature"}
{"geometry": {"coordinates": [-116.9668894703, 32.6529956974], "type": "Point"}, "id": "CYjdcApgwhCgKJxqQ7OFNlx9z9Q=", "properties": {"@source_uri": "https://tools.usps.com/UspsToolsRestServices/rest/POLocator/findLocations", "@spider": "usps_collection_boxes", "addr:city": "CHULA VISTA", "addr:country": "US", "addr:postcode": "91914", "addr:state": "CA", "addr:street_address": "830 KUHN DR", "amenity": "post_box", "collection_times": "Mo-Fr 17:00", "indoor": "yes", "note": "ON 12/24 AND 12/31, THIS BOX MAY BE COLLECTED AS EARLY AS 12 NOON.", "nsi_id": "unitedstatespostalservice-a77078", "operator": "United States Postal Service", "operator:short": "USPS", "operator:type": "public", "operator:wikidata": "Q668687", "ref": "9191400021"}, "type": "Feature"}
{"geometry": {"coordinates": [-116.616204, 32.853097], "type": "Point"}, "id": "H8S_QpysOFJ-Wm7HoYM9Xr2V_wA=", "properties": {"@source_uri": "https://tools.usps.com/UspsToolsRestServices/rest/POLocator/findLocations", "@spider": "usps_collection_boxes", "addr:city": "DESCANSO", "addr:country": "US", "addr:postcode": "91916", "addr:state": "CA", "addr:street_address": "24680 VIEJAS GRADE RD", "amenity": "post_box", "collection_times": "Mo-Sa 16:45", "note": "ON 12/24 AND 12/31, THIS BOX MAY BE COLLECTED AS EARLY AS 12 NOON.", "nsi_id": "unitedstatespostalservice-a77078", "operator": "United States Postal Service", "operator:short": "USPS", "operator:type": "public", "operator:wikidata": "Q668687", "ref": "9191600001"}, "type": "Feature"}
{"geometry": {"coordinates": [-116.616204, 32.853097], "type": "Point"}, "id": "23-b7Uz2DnSF7EOfx0PQAvGJvhk=", "properties": {"@source_uri": "https://tools.usps.com/UspsToolsRestServices/rest/POLocator/findLocations", "@spider": "usps_collection_boxes", "addr:city": "DESCANSO", "addr:country": "US", "addr:postcode": "91916", "addr:state": "CA", "addr:street_address": "24680 VIEJAS GRADE RD", "amenity": "post_box", "collection_times": "Mo-Sa 12:00", "indoor": "yes", "nsi_id": "unitedstatespostalservice-a77078", "operator": "United States Postal Service", "operator:short": "USPS", "operator:type": "public", "operator:wikidata": "Q668687", "ref": "9191600003"}, "type": "Feature"}
{"geometry": {"coordinates": [-116.6161752972, 32.8531280606], "type": "Point"}, "id": "O8Bp8QfgdZzWbuq3ATOpIbLNz6s=", "properties": {"@source_uri": "https://tools.usps.com/UspsToolsRestServices/rest/POLocator/findLocations", "@spider": "usps_collection_boxes", "addr:city": "DESCANSO", "addr:country": "US", "addr:postcode": "91916", "addr:state": "CA", "addr:street_address": "24680 VIEJAS GRADE RD STE A", "amenity": "post_box", "collection_times": "Mo-Fr 17:00", "indoor": "yes", "note": "ON 12/24 AND 12/31, THIS BOX MAY BE COLLECTED AS EARLY AS 12 NOON.", "nsi_id": "unitedstatespostalservice-a77078", "operator": "United States Postal Service", "operator:short": "USPS", "operator:type": "public", "operator:wikidata": "Q668687", "ref": "9191600004"}, "type": "Feature"}
{"geometry": {"coordinates": [-116.7818249654, 32.6434600086], "type": "Point"}, "id": "rHTcyM5fg--hwJSQtAJRvA6PnaU=", "properties": {"@source_uri": "https://tools.usps.com/UspsToolsRestServices/rest/POLocator/findLocations", "@spider": "usps_collection_boxes", "addr:city": "DULZURA", "addr:country": "US", "addr:postcode": "91917", "addr:state": "CA", "addr:street_address": "16985 HIGHWAY 94", "amenity": "post_box", "collection_times": "Mo-Fr 15:45; Sa 11:00", "note": "ON 12/24 AND 12/31, THIS BOX MAY BE COLLECTED AS EARLY AS 12 NOON.", "nsi_id": "unitedstatespostalservice-a77078", "operator": "United States Postal Service", "operator:short": "USPS", "operator:type": "public", "operator:wikidata": "Q668687", "ref": "9191700001"}, "type": "Feature"}
{"geometry": {"coordinates": [-116.7818249654, 32.6434600086], "type": "Point"}, "id": "hABopMGvOvESzLHfEOgvlnMrdDQ=", "properties": {"@source_uri": "https://tools.usps.com/UspsToolsRestServices/rest/POLocator/findLocations", "@spider": "usps_collection_boxes", "addr:city": "DULZURA", "addr:country": "US", "addr:postcode": "91917", "addr:state": "CA", "addr:street_address": "16985 HIGHWAY 94", "amenity": "post_box", "collection_times": "Mo-Sa 12:00", "indoor": "yes", "nsi_id": "unitedstatespostalservice-a77078", "operator": "United States Postal Service", "operator:short": "USPS", "operator:type": "public", "operator:wikidata": "Q668687", "ref": "9191700004"}, "type": "Feature"}
{"geometry": {"coordinates": [-116.7812320296, 32.6439000166], "type": "Point"}, "id": "vzpGL3lv4ZoxZQipVNmfaQmKcmY=", "properties": {"@source_uri": "https://tools.usps.com/UspsToolsRestServices/rest/POLocator/findLocations", "@spider": "usps_collection_boxes", "addr:city": "DULZURA", "addr:country": "US", "addr:postcode": "91917", "addr:state": "CA", "addr:street_address": "17015 HIGHWAY 94", "amenity": "post_box", "collection_times": "Mo-Fr 15:45", "indoor": "yes", "note": "ON 12/24 AND 12/31, THIS BOX MAY BE COLLECTED AS EARLY AS 12 NOON.", "nsi_id": "unitedstatespostalservice-a77078", "operator": "United States Postal Service", "operator:short": "USPS", "operator:type": "public", "operator:wikidata": "Q668687", "ref": "9191700005"}, "type": "Feature"}
{"geometry": {"coordinates": [-116.5584891, 32.8487555], "type": "Point"}, "id": "782PXSbR2XfTyULhU-DivGpRtm0=", "properties": {"@source_uri": "https://tools.usps.com/UspsToolsRestServices/rest/POLocator/findLocations", "@spider": "usps_collection_boxes", "addr:city": "GUATAY", "addr:country": "US", "addr:postcode": "91931", "addr:state": "CA", "addr:street_address": "27560 OLD HIGHWAY 80", "amenity": "post_box", "collection_times": "Mo-Sa 17:00", "note": "ON 12/24 AND 12/31, THIS BOX MAY BE COLLECTED AS EARLY AS 12 NOON.", "nsi_id": "unitedstatespostalservice-a77078", "operator": "United States Postal Service", "operator:short": "USPS", "operator:type": "public", "operator:wikidata": "Q668687", "ref": "9193100002"}, "type": "Feature"}
{"geometry": {"coordinates": [-117.113430777, 32.5823145049], "type": "Point"}, "id": "UNU5-RqYD6v1VDDQhISLPwPyDpU=", "properties": {"@source_uri": "https://tools.usps.com/UspsToolsRestServices/rest/POLocator/findLocations", "@spider": "usps_collection_boxes", "addr:city": "IMPERIAL BEACH", "addr:country": "US", "addr:postcode": "91932", "addr:state": "CA", "addr:street_address": "946 DONAX AVE", "amenity": "post_box", "collection_times": "Mo-Fr 17:00; Sa 16:00", "note": "ON 12/24 AND 12/31, THIS BOX MAY BE COLLECTED AS EARLY AS 12 NOON.", "nsi_id": "unitedstatespostalservice-a77078", "operator": "United States Postal Service", "operator:short": "USPS", "operator:type": "public", "operator:wikidata": "Q668687", "ref": "9193200002"}, "type": "Feature"}
{"geometry": {"coordinates": [-117.131596, 32.576734], "type": "Point"}, "id": "oTAn27ozs-4NpG7PQfCchAvolro=", "properties": {"@source_uri": "https://tools.usps.com/UspsToolsRestServices/rest/POLocator/findLocations", "@spider": "usps_collection_boxes", "addr:city": "IMPERIAL BEACH", "addr:country": "US", "addr:postcode": "91932", "addr:state": "CA", "addr:street_address": "104 IMPERIAL BEACH BLVD", "amenity": "post_box", "collection_times": "Mo-Sa 13:00", "note": "ON 12/24 AND 12/31, THIS BOX MAY BE COLLECTED AS EARLY AS 12 NOON.", "nsi_id": "unitedstatespostalservice-a77078", "operator": "United States Postal Service", "operator:short": "USPS", "operator:type": "public", "operator:wikidata": "Q668687", "ref": "9193200005"}, "type": "Feature"}
{"geometry": {"coordinates": [-117.111225, 32.5807], "type": "Point"}, "id": "sICuliGJ2pbcv-giuJna-c4G0BY=", "properties": {"@source_uri": "https://tools.usps.com/UspsToolsRestServices/rest/POLocator/findLocations", "@spider": "usps_collection_boxes", "addr:city": "IMPERIAL BEACH", "addr:country": "US", "addr:postcode": "91932", "addr:state": "CA", "addr:street_address": "1008 PALM AVE", "amenity": "post_box", "collection_times": "Mo-Sa 13:00", "note": "ON 12/24 AND 12/31, THIS BOX MAY BE COLLECTED AS EARLY AS 12 NOON.", "nsi_id": "unitedstatespostalservice-a77078", "operator": "United States Postal Service", "operator:short": "USPS", "operator:type": "public", "operator:wikidata": "Q668687", "ref": "9193200011"}, "type": "Feature"}
{"geometry": {"coordinates": [-117.1056453742, 32.5759558646], "type": "Point"}, "id": "2vXskgjMa3Fwy1rvYDgHEMpIAQM=", "properties": {"@source_uri": "https://tools.usps.com/UspsToolsRestServices/rest/POLocator/findLocations", "@spider": "usps_collection_boxes", "addr:city": "IMPERIAL BEACH", "addr:country": "US", "addr:postcode": "91932", "addr:state": "CA", "addr:street_address": "1129 13TH ST", "amenity": "post_box", "collection_times": "Mo-Sa 13:00", "note": "ON 12/24 AND 12/31, THIS BOX MAY BE COLLECTED AS EARLY AS 12 NOON.", "nsi_id": "unitedstatespostalservice-a77078", "operator": "United States Postal Service", "operator:short": "USPS", "operator:type": "public", "operator:wikidata": "Q668687", "ref": "9193200017"}, "type": "Feature"}
{"geometry": {"coordinates": [-117.130513, 32.58404], "type": "Point"}, "id": "i0bon8r2yqhU-i9Z6VIu_HdHsaM=", "properties": {"@source_uri": "https://tools.usps.com/UspsToolsRestServices/rest/POLocator/findLocations", "@spider": "usps_collection_boxes", "addr:city": "IMPERIAL BEACH", "addr:country": "US", "addr:postcode": "91932", "addr:state": "CA", "addr:street_address": "150 PALM AVE", "amenity": "post_box", "collection_times": "Mo-Sa 13:00", "note": "ON 12/24 AND 12/31, THIS BOX MAY BE COLLECTED AS EARLY AS 12 NOON.", "nsi_id": "unitedstatespostalservice-a77078", "operator": "United States Postal Service", "operator:short": "USPS", "operator:type": "public", "operator:wikidata": "Q668687", "ref": "9193200021"}, "type": "Feature"}
{"geometry": {"coordinates": [-117.113430777, 32.5823145049], "type": "Point"}, "id": "dhrYYusn26kQGIpnHe0FKlX1ajU=", "properties": {"@source_uri": "https://tools.usps.com/UspsToolsRestServices/rest/POLocator/findLocations", "@spider": "usps_collection_boxes", "addr:city": "IMPERIAL BEACH", "addr:country": "US", "addr:postcode": "91932", "addr:state": "CA", "addr:street_address": "946 DONAX AVE", "amenity": "post_box", "collection_times": "Mo-Fr 17:00", "indoor": "yes", "note": "ON 12/24 AND 12/31, THIS BOX MAY BE COLLECTED AS EARLY AS 12 NOON.", "nsi_id": "unitedstatespostalservice-a77078", "operator": "United States Postal Service", "operator:short": "USPS", "operator:type": "public", "operator:wikidata": "Q668687", "ref": "9193200027"}, "type": "Feature"}
{"geometry": {"coordinates": [-116.1899286408, 32.6178853786], "type": "Point"}, "id": "xEwYBRjJRunHYEU95zvfCdxCOHE=", "properties": {"@source_uri": "https://tools.usps.com/UspsToolsRestServices/rest/POLocator/findLocations", "@spider": "usps_collection_boxes", "addr:city": "JACUMBA", "addr:country": "US", "addr:postcode": "91934", "addr:state": "CA", "addr:street_address": "1209 N RAILROAD ST", "amenity": "post_box", "collection_times": "Mo-Sa 08:00", "nsi_id": "unitedstatespostalservice-a77078", "operator": "United States Postal Service", "operator:short": "USPS", "operator:type": "public", "operator:wikidata": "Q668687", "ref": "9193400001"}, "type": "Feature"}
{"geometry": {"coordinates": [-116.1899286408, 32.6178853786], "type": "Point"}, "id": "fH0v1fJW65tOYdrx5lkUV53BTyM=", "properties": {"@source_uri": "https://tools.usps.com/UspsToolsRestServices/rest/POLocator/findLocations", "@spider": "usps_collection_boxes", "addr:city": "JACUMBA", "addr:country": "US", "addr:postcode": "91934", "addr:state": "CA", "addr:street_address": "1209 N RAILROAD ST", "amenity": "post_box", "collection_times": "Mo-Sa 08:00", "indoor": "yes", "nsi_id": "unitedstatespostalservice-a77078", "operator": "United States Postal Service", "operator:short": "USPS", "operator:type": "public", "operator:wikidata": "Q668687", "ref": "9193400003"}, "type": "Feature"}
{"geometry": {"coordinates": [-116.1899286408, 32.6178853786], "type": "Point"}, "id": "UqFQzLxofithDRRuu0YS46RgAac=", "properties": {"@source_uri": "https://tools.usps.com/UspsToolsRestServices/rest/POLocator/findLocations", "@spider": "usps_collection_boxes", "addr:city": "JACUMBA", "addr:country": "US", "addr:postcode": "91934", "addr:state": "CA", "addr:street_address": "1209 N RAILROAD ST", "amenity": "post_box", "collection_times": "Mo-Fr 13:00", "indoor": "yes", "note": "ON 12/24 AND 12/31, THIS BOX MAY BE COLLECTED AS EARLY AS 12 NOON.", "nsi_id": "unitedstatespostalservice-a77078", "operator": "United States Postal Service", "operator:short": "USPS", "operator:type": "public", "operator:wikidata": "Q668687", "ref": "9193400004"}, "type": "Feature"}
{"geometry": {"coordinates": [-116.8710941867, 32.71401], "type": "Point"}, "id": "W9uKgTAnix7De62TZlTmbgeIypk=", "properties": {"@source_uri": "https://tools.usps.com/UspsToolsRestServices/rest/POLocator/findLocations", "@spider": "usps_collection_boxes", "addr:city": "JAMUL", "addr:country": "US", "addr:postcode": "91935", "addr:state": "CA", "addr:street_address": "13961 CAMPO RD", "amenity": "post_box", "collection_times": "Mo-Fr 16:30; Sa 12:00", "note": "ON 12/24 AND 12/31, THIS BOX MAY BE COLLECTED AS EARLY AS 12 NOON.", "nsi_id": "unitedstatespostalservice-a77078", "operator": "United States Postal Service", "operator:short": "USPS", "operator:type": "public", "operator:wikidata": "Q668687", "ref": "9193500001"}, "type": "Feature"}
{"geometry": {"coordinates": [-116.8710941867, 32.71401], "type": "Point"}, "id": "ShDJDzH9d9ArPpuPuhHQMyDIgtA=", "properties": {"@source_uri": "https://tools.usps.com/UspsToolsRestServices/rest/POLocator/findLocations", "@spider": "usps_collection_boxes", "addr:city": "JAMUL", "addr:country": "US", "addr:postcode": "91935", "addr:state": "CA", "addr:street_address": "13961 CAMPO RD", "amenity": "post_box", "collection_times": "Mo-Sa 12:00", "indoor": "yes", "nsi_id": "unitedstatespostalservice-a77078", "operator": "United States Postal Service", "operator:short": "USPS", "operator:type": "public", "operator:wikidata": "Q668687", "ref": "9193500003"}, "type": "Feature"}
{"geometry": {"coordinates": [-116.8710941867, 32.71401], "type": "Point"}, "id": "zicXcn_B4vySRAIABIeQ09vR_Jc=", "properties": {"@source_uri": "https://tools.usps.com/UspsToolsRestServices/rest/POLocator/findLocations", "@spider": "usps_collection_boxes", "addr:city": "JAMUL", "addr:country": "US", "addr:postcode": "91935", "addr:state": "CA", "addr:street_address": "13961 CAMPO RD", "amenity": "post_box", "collection_times": "Mo-Fr 17:00", "indoor": "yes", "note": "ON 12/24 AND 12/31, THIS BOX MAY BE COLLECTED AS EARLY AS 12 NOON.", "nsi_id": "unitedstatespostalservice-a77078", "operator": "United States Postal Service", "operator:short": "USPS", "operator:type": "public", "operator:wikidata": "Q668687", "ref": "9193500004"}, "type": "Feature"}
{"geometry": {"coordinates": [-117.022354, 32.763541], "type": "Point"}, "id": "VNfIsvWYTKdTjy83W5w4C4cC-Dw=", "properties": {"@source_uri": "https://tools.usps.com/UspsToolsRestServices/rest/POLocator/findLocations", "@spider": "usps_collection_boxes", "addr:city": "LA MESA", "addr:country": "US", "addr:postcode": "91941", "addr:state": "CA", "addr:street_address": "8101 LA MESA BLVD", "amenity": "post_box", "collection_times": "Mo-Sa 14:00", "note": "ON 12/24 AND 12/31, THIS BOX MAY BE COLLECTED AS EARLY AS 12 NOON.", "nsi_id": "unitedstatespostalservice-a77078", "operator": "United States Postal Service", "operator:short": "USPS", "operator:type": "public", "operator:wikidata": "Q668687", "ref": "9194100002"}, "type": "Feature"}
{"geometry": {"coordinates": [-117.0420083461, 32.7658139686], "type": "Point"}, "id": "Vv4vN1wWBl9pxm8EAcUOeKmRwKc=", "properties": {"@source_uri": "https://tools.usps.com/UspsToolsRestServices/rest/POLocator/findLocations", "@spider": "usps_collection_boxes", "addr:city": "LA MESA", "addr:country": "US", "addr:postcode": "91941", "addr:state": "CA", "addr:street_address": "4799 HARBINSON AVE", "amenity": "post_box", "collection_times": "Mo-Sa 10:45", "nsi_id": "unitedstatespostalservice-a77078", "operator": "United States Postal Service", "operator:short": "USPS", "operator:type": "public", "operator:wikidata": "Q668687", "ref": "9194100017"}, "type": "Feature"}
{"geometry": {"coordinates": [-117.010143, 32.769625], "type": "Point"}, "id": "4RTkFKIf8P3aO_ZvWT9r5lGbUrc=", "properties": {"@source_uri": "https://tools.usps.com/UspsToolsRestServices/rest/POLocator/findLocations", "@spider": "usps_collection_boxes", "addr:city": "LA MESA", "addr:country": "US", "addr:postcode": "91941", "addr:state": "CA", "addr:street_address": "8695 LA MESA BLVD", "amenity": "post_box", "collection_times": "Mo-Sa 14:00", "note": "ON 12/24 AND 12/31, THIS BOX MAY BE COLLECTED AS EARLY AS 12 NOON.", "nsi_id": "unitedstatespostalservice-a77078", "operator": "United States Postal Service", "operator:short": "USPS", "operator:type": "public", "operator:wikidata": "Q668687", "ref": "9194100024"}, "type": "Feature"}
{"geometry": {"coordinates": [-117.018758, 32.765031], "type": "Point"}, "id": "aR3zaSPQdd_xAZ6dNGNGF-nkjew=", "properties": {"@source_uri": "https://tools.usps.com/UspsToolsRestServices/rest/POLocator/findLocations", "@spider": "usps_collection_boxes", "addr:city": "LA MESA", "addr:country": "US", "addr:postcode": "91941", "addr:state": "CA", "addr:street_address": "8301 LA MESA BLVD", "amenity": "post_box", "collection_times": "Mo-Sa 14:00", "note": "ON 12/24 AND 12/31, THIS BOX MAY BE COLLECTED AS EARLY AS 12 NOON.", "nsi_id": "unitedstatespostalservice-a77078", "operator": "United States Postal Service", "operator:short": "USPS", "operator:type": "public", "operator:wikidata": "Q668687", "ref": "9194100029"}, "type": "Feature"}
{"geometry": {"coordinates": [-117.0171445, 32.7594703], "type": "Point"}, "id": "K8ikW0xLtoeDzUx3P0eFnujMw8c=", "properties": {"@source_uri": "https://tools.usps.com/UspsToolsRestServices/rest/POLocator/findLocations", "@spider": "usps_collection_boxes", "addr:city": "LA MESA", "addr:country": "US", "addr:postcode": "91941", "addr:state": "CA", "addr:street_address": "4323 PALM AVE", "amenity": "post_box", "collection_times": "Mo-Sa 14:00", "note": "ON 12/24 AND 12/31, THIS BOX MAY BE COLLECTED AS EARLY AS 12 NOON.", "nsi_id": "unitedstatespostalservice-a77078", "operator": "United States Postal Service", "operator:short": "USPS", "operator:type": "public", "operator:wikidata": "Q668687", "ref": "9194100030"}, "type": "Feature"}
{"geometry": {"coordinates": [-117.023964818, 32.766107137], "type": "Point"}, "id": "9cq8tds3sK1rXb5Wg3NPXjYSd9c=", "properties": {"@source_uri": "https://tools.usps.com/UspsToolsRestServices/rest/POLocator/findLocations", "@spider": "usps_collection_boxes", "addr:city": "LA MESA", "addr:country": "US", "addr:postcode": "91941", "addr:state": "CA", "addr:street_address": "8064 ALLISON AVE", "amenity": "post_box", "collection_times": "Mo-Sa 17:00", "note": "ON 12/24 AND 12/31, THIS BOX MAY BE COLLECTED AS EARLY AS 12 NOON.", "nsi_id": "unitedstatespostalservice-a77078", "operator": "United States Postal Service", "operator:short": "USPS", "operator:type": "public", "operator:wikidata": "Q668687", "ref": "9194100042"}, "type": "Feature"}
{"geometry": {"coordinates": [-117.0284469598, 32.762909002], "type": "Point"}, "id": "EKJKfZDR7uaBcTpHP93-OSitM9Q=", "properties": {"@source_uri": "https://tools.usps.com/UspsToolsRestServices/rest/POLocator/findLocations", "@spider": "usps_collection_boxes", "addr:city": "LA MESA", "addr:country": "US", "addr:postcode": "91941", "addr:state": "CA", "addr:street_address": "7851 UNIVERSITY AVE", "amenity": "post_box", "collection_times": "Mo-Sa 11:00", "nsi_id": "unitedstatespostalservice-a77078", "operator": "United States Postal Service", "operator:short": "USPS", "operator:type": "public", "operator:wikidata": "Q668687", "ref": "9194100044"}, "type": "Feature"}
{"geometry": {"coordinates": [-117.005802, 32.772593], "type": "Point"}, "id": "KqW7x2tcGqNleYlHoXowIgMFQY0=", "properties": {"@source_uri": "https://tools.usps.com/UspsToolsRestServices/rest/POLocator/findLocations", "@spider": "usps_collection_boxes", "addr:city": "LA MESA", "addr:country": "US", "addr:postcode": "91941", "addr:state": "CA", "addr:street_address": "8875 LA MESA BLVD", "amenity": "post_box", "collection_times": "Mo-Sa 14:00", "note": "ON 12/24 AND 12/31, THIS BOX MAY BE COLLECTED AS EARLY AS 12 NOON.", "nsi_id": "unitedstatespostalservice-a77078", "operator": "United States Postal Service", "operator:short": "USPS", "operator:type": "public", "operator:wikidata": "Q668687", "ref": "9194100053"}, "type": "Feature"}
{"geometry": {"coordinates": [-117.038938, 32.756435], "type": "Point"}, "id": "eHRdjbi3o7_o3d3jBpbeg986bgU=", "properties": {"@source_uri": "https://tools.usps.com/UspsToolsRestServices/rest/POLocator/findLocations", "@spider": "usps_collection_boxes", "addr:city": "LA MESA", "addr:country": "US", "addr:postcode": "91941", "addr:state": "CA", "addr:street_address": "7373 UNIVERSITY AVE", "amenity": "post_box", "collection_times": "Mo-Sa 14:00", "note": "ON 12/24 AND 12/31, THIS BOX MAY BE COLLECTED AS EARLY AS 12 NOON.", "nsi_id": "unitedstatespostalservice-a77078", "operator": "United States Postal Service", "operator:short": "USPS", "operator:type": "public", "operator:wikidata": "Q668687", "ref": "9194100055"}, "type": "Feature"}
{"geometry": {"coordinates": [-117.023964818, 32.766107137], "type": "Point"}, "id": "W5XBMpvvhEfg7EK5RBRWkB0VjHc=", "properties": {"@source_uri": "https://tools.usps.com/UspsToolsRestServices/rest/POLocator/findLocations", "@spider": "usps_collection_boxes", "addr:city": "LA MESA", "addr:country": "US", "addr:postcode": "91941", "addr:state": "CA", "addr:street_address": "8064 ALLISON AVE", "amenity": "post_box", "collection_times": "Mo-Sa 17:00", "note": "ON 12/24 AND 12/31, THIS BOX MAY BE COLLECTED AS EARLY AS 12 NOON.", "nsi_id": "unitedstatespostalservice-a77078", "operator": "United States Postal Service", "operator:short": "USPS", "operator:type": "public", "operator:wikidata": "Q668687", "ref": "9194100059"}, "type": "Feature"}
{"geometry": {"coordinates": [-116.961347, 32.763695], "type": "Point"}, "id": "hFpsDgpaO6qvzL6kJqViQ663b3w=", "properties": {"@source_uri": "https://tools.usps.com/UspsToolsRestServices/rest/POLocator/findLocations", "@spider": "usps_collection_boxes", "addr:city": "LA MESA", "addr:country": "US", "addr:postcode": "91941", "addr:state": "CA", "addr:street_address": "4620 AVOCADO BLVD", "amenity": "post_box", "collection_times": "Mo-Sa 14:00", "note": "ON 12/24 AND 12/31, THIS BOX MAY BE COLLECTED AS EARLY AS 12 NOON.", "nsi_id": "unitedstatespostalservice-a77078", "operator": "United States Postal Service", "operator:short": "USPS", "operator:type": "public", "operator:wikidata": "Q668687", "ref": "9194100063"}, "type": "Feature"}
{"geometry": {"coordinates": [-117.023964818, 32.766107137], "type": "Point"}, "id": "2yhl2TmkOG1k6XNjUNN5Yx_yk0A=", "properties": {"@source_uri": "https://tools.usps.com/UspsToolsRestServices/rest/POLocator/findLocations", "@spider": "usps_collection_boxes", "addr:city": "LA MESA", "addr:country": "US", "addr:postcode": "91941", "addr:state": "CA", "addr:street_address": "8064 ALLISON AVE", "amenity": "post_box", "collection_times": "Mo-Sa 17:00", "name": "USPS COLLECTION BOX - APC", "note": "ON 12/24 AND 12/31, THIS BOX MAY BE COLLECTED AS EARLY AS 12 NOON.", "nsi_id": "unitedstatespostalservice-a77078", "operator": "United States Postal Service", "operator:short": "USPS", "operator:type": "public", "operator:wikidata": "Q668687", "ref": "9194100075"}, "type": "Feature"}
{"geometry": {"coordinates": [-117.034427, 32.785174], "type": "Point"}, "id": "p7-0irMefYrUWed7DVBVSY9eMI8=", "properties": {"@source_uri": "https://tools.usps.com/UspsToolsRestServices/rest/POLocator/findLocations", "@spider": "usps_collection_boxes", "addr:city": "LA MESA", "addr:country": "US", "addr:postcode": "91942", "addr:state": "CA", "addr:street_address": "5700 BALTIMORE DR", "amenity": "post_box", "collection_times": "Mo-Sa 12:30", "note": "ON 12/24 AND 12/31, THIS BOX MAY BE COLLECTED AS EARLY AS 12 NOON.", "nsi_id": "unitedstatespostalservice-a77078", "operator": "United States Postal Service", "operator:short": "USPS", "operator:type": "public", "operator:wikidata": "Q668687", "ref": "9194200003"}, "type": "Feature"}
{"geometry": {"coordinates": [-117.009141, 32.780296], "type": "Point"}, "id": "aMy-xGjTe978eWdaBkKyF9zaCYY=", "properties": {"@source_uri": "https://tools.usps.com/UspsToolsRestServices/rest/POLocator/findLocations", "@spider": "usps_collection_boxes", "addr:city": "LA MESA", "addr:country": "US", "addr:postcode": "91942", "addr:state": "CA", "addr:street_address": "5565 GROSSMONT CENTER DR", "amenity": "post_box", "collection_times": "Mo-Sa 14:00", "note": "ON 12/24 AND 12/31, THIS BOX MAY BE COLLECTED AS EARLY AS 12 NOON.", "nsi_id": "unitedstatespostalservice-a77078", "operator": "United States Postal Service", "operator:short": "USPS", "operator:type": "public", "operator:wikidata": "Q668687", "ref": "9194200013"}, "type": "Feature"}
{"geometry": {"coordinates": [-117.009551, 32.77978], "type": "Point"}, "id": "CkpKAy08E5fUcx1RnAgZsEtocBk=", "properties": {"@source_uri": "https://tools.usps.com/UspsToolsRestServices/rest/POLocator/findLocations", "@spider": "usps_collection_boxes", "addr:city": "LA MESA", "addr:country": "US", "addr:postcode": "91942", "addr:state": "CA", "addr:street_address": "5500 GROSSMONT CENTER DR", "amenity": "post_box", "collection_times": "Mo-Fr 17:00; Sa 10:15", "note": "ON 12/24 AND 12/31, THIS BOX MAY BE COLLECTED AS EARLY AS 12 NOON.", "nsi_id": "unitedstatespostalservice-a77078", "operator": "United States Postal Service", "operator:short": "USPS", "operator:type": "public", "operator:wikidata": "Q668687", "ref": "9194200016"}, "type": "Feature"}
{"geometry": {"coordinates": [-117.011435, 32.774152], "type": "Point"}, "id": "kU-kaBznfHQGNx4WxTnSUeV2_d0=", "properties": {"@source_uri": "https://tools.usps.com/UspsToolsRestServices/rest/POLocator/findLocations", "@spider": "usps_collection_boxes", "addr:city": "LA MESA", "addr:country": "US", "addr:postcode": "91942", "addr:state": "CA", "addr:street_address": "5232 JACKSON DR", "amenity": "post_box", "collection_times": "Mo-Sa 14:00", "note": "ON 12/24 AND 12/31, THIS BOX MAY BE COLLECTED AS EARLY AS 12 NOON.", "nsi_id": "unitedstatespostalservice-a77078", "operator": "United States Postal Service", "operator:short": "USPS", "operator:type": "public", "operator:wikidata": "Q668687", "ref": "9194200020"}, "type": "Feature"}
{"geometry": {"coordinates": [-117.0275240306, 32.7838245476], "type": "Point"}, "id": "eyJJ2iWjAI66m4PGp7QstOkGaZ0=", "properties": {"@source_uri": "https://tools.usps.com/UspsToolsRestServices/rest/POLocator/findLocations", "@spider": "usps_collection_boxes", "addr:city": "LA MESA", "addr:country": "US", "addr:postcode": "91942", "addr:state": "CA", "addr:street_address": "5740 LAKE MURRAY BLVD", "amenity": "post_box", "collection_times": "Mo-Sa 12:30", "note": "ON 12/24 AND 12/31, THIS BOX MAY BE COLLECTED AS EARLY AS 12 NOON.", "nsi_id": "unitedstatespostalservice-a77078", "operator": "United States Postal Service", "operator:short": "USPS", "operator:type": "public", "operator:wikidata": "Q668687", "ref": "9194200024"}, "type": "Feature"}
{"geometry": {"coordinates": [-117.0221182217, 32.7889852725], "type": "Point"}, "id": "TNSvS6bIGKRBlWWRJDBbIesEjK0=", "properties": {"@source_uri": "https://tools.usps.com/UspsToolsRestServices/rest/POLocator/findLocations", "@spider": "usps_collection_boxes", "addr:city": "LA MESA", "addr:country": "US", "addr:postcode": "91942", "addr:state": "CA", "addr:street_address": "6055 LAKE MURRAY BLVD", "amenity": "post_box", "collection_times": "Mo-Fr 17:00; Sa 13:30", "note": "ON 12/24 AND 12/31, THIS BOX MAY BE COLLECTED AS EARLY AS 12 NOON.", "nsi_id": "unitedstatespostalservice-a77078", "operator": "United States Postal Service", "operator:short": "USPS", "operator:type": "public", "operator:wikidata": "Q668687", "ref": "9194200025"}, "type": "Feature"}
{"geometry": {"coordinates": [-117.041132, 32.774188], "type": "Point"}, "id": "YlN2-YfxJuna2RbCHFGF8tfIHKw=", "properties": {"@source_uri": "https://tools.usps.com/UspsToolsRestServices/rest/POLocator/findLocations", "@spider": "usps_collection_boxes", "addr:city": "LA MESA", "addr:country": "US", "addr:postcode": "91942", "addr:state": "CA", "addr:street_address": "5264 MARYLAND AVE", "amenity": "post_box", "collection_times": "Mo-Sa 12:45", "note": "ON 12/24 AND 12/31, THIS BOX MAY BE COLLECTED AS EARLY AS 12 NOON.", "nsi_id": "unitedstatespostalservice-a77078", "operator": "United States Postal Service", "operator:short": "USPS", "operator:type": "public", "operator:wikidata": "Q668687", "ref": "9194200027"}, "type": "Feature"}
{"geometry": {"coordinates": [-117.016985, 32.77566], "type": "Point"}, "id": "2vx6D3Hq1eL6jfpizjoI2_KEtys=", "properties": {"@source_uri": "https://tools.usps.com/UspsToolsRestServices/rest/POLocator/findLocations", "@spider": "usps_collection_boxes", "addr:city": "LA MESA", "addr:country": "US", "addr:postcode": "91942", "addr:state": "CA", "addr:street_address": "8380 CENTER DR", "amenity": "post_box", "collection_times": "Mo-Sa 14:00", "note": "ON 12/24 AND 12/31, THIS BOX MAY BE COLLECTED AS EARLY AS 12 NOON.", "nsi_id": "unitedstatespostalservice-a77078", "operator": "United States Postal Service", "operator:short": "USPS", "operator:type": "public", "operator:wikidata": "Q668687", "ref": "9194200044"}, "type": "Feature"}
{"geometry": {"coordinates": [-117.011655, 32.77935], "type": "Point"}, "id": "QSAomtCR94uOsm8uWBvhJ7W8bos=", "properties": {"@source_uri": "https://tools.usps.com/UspsToolsRestServices/rest/POLocator/findLocations", "@spider": "usps_collection_boxes", "addr:city": "LA MESA", "addr:country": "US", "addr:postcode": "91942", "addr:state": "CA", "addr:street_address": "5500 GROSSMONT CENTER DR", "amenity": "post_box", "collection_times": "Mo-Sa 14:00", "note": "ON 12/24 AND 12/31, THIS BOX MAY BE COLLECTED AS EARLY AS 12 NOON.", "nsi_id": "unitedstatespostalservice-a77078", "operator": "United States Postal Service", "operator:short": "USPS", "operator:type": "public", "operator:wikidata": "Q668687", "ref": "9194200051"}, "type": "Feature"}
{"geometry": {"coordinates": [-117.010098, 32.77747], "type": "Point"}, "id": "DtXghJ1gG-SoSsKWuiDWUhcwLBo=", "properties": {"@source_uri": "https://tools.usps.com/UspsToolsRestServices/rest/POLocator/findLocations", "@spider": "usps_collection_boxes", "addr:city": "LA MESA", "addr:country": "US", "addr:postcode": "91942", "addr:state": "CA", "addr:street_address": "5500 GROSSMONT CENTER DR", "amenity": "post_box", "collection_times": "Mo-Sa 14:00", "note": "ON 12/24 AND 12/31, THIS BOX MAY BE COLLECTED AS EARLY AS 12 NOON.", "nsi_id": "unitedstatespostalservice-a77078", "operator": "United States Postal Service", "operator:short": "USPS", "operator:type": "public", "operator:wikidata": "Q668687", "ref": "9194200053"}, "type": "Feature"}
{"geometry": {"coordinates": [-117.0097545025, 32.7799625889], "type": "Point"}, "id": "Ekoe96AHitGJg01HnUOkRv1b66M=", "properties": {"@source_uri": "https://tools.usps.com/UspsToolsRestServices/rest/POLocator/findLocations", "@spider": "usps_collection_boxes", "addr:city": "LA MESA", "addr:country": "US", "addr:postcode": "91942", "addr:state": "CA", "addr:street_address": "5500 GROSSMONT CENTER DR STE 440", "amenity": "post_box", "collection_times": "Mo-Fr 17:00", "indoor": "yes", "note": "ON 12/24 AND 12/31, THIS BOX MAY BE COLLECTED AS EARLY AS 12 NOON.", "nsi_id": "unitedstatespostalservice-a77078", "operator": "United States Postal Service", "operator:short": "USPS", "operator:type": "public", "operator:wikidata": "Q668687", "ref": "9194200060"}, "type": "Feature"}
{"geometry": {"coordinates": [-117.0222001962, 32.7888952725], "type": "Point"}, "id": "m7ST72ElCy-9PfLrvUnMXr0c1Xg=", "properties": {"@source_uri": "https://tools.usps.com/UspsToolsRestServices/rest/POLocator/findLocations", "@spider": "usps_collection_boxes", "addr:city": "LA MESA", "addr:country": "US", "addr:postcode": "91942", "addr:state": "CA", "addr:street_address": "6055 LAKE MURRAY BLVD", "amenity": "post_box", "collection_times": "Mo-Fr 16:00", "indoor": "yes", "note": "ON 12/24 AND 12/31, THIS BOX MAY BE COLLECTED AS EARLY AS 12 NOON.", "nsi_id": "unitedstatespostalservice-a77078", "operator": "United States Postal Service", "operator:short": "USPS", "operator:type": "public", "operator:wikidata": "Q668687", "ref": "9194200061"}, "type": "Feature"}
{"geometry": {"coordinates": [-117.023964818, 32.766107137], "type": "Point"}, "id": "UHRGqrU4AkWhJws53BkO2t566h4=", "properties": {"@source_uri": "https://tools.usps.com/UspsToolsRestServices/rest/POLocator/findLocations", "@spider": "usps_collection_boxes", "addr:city": "LA MESA", "addr:country": "US", "addr:postcode": "91942", "addr:state": "CA", "addr:street_address": "8064 ALLISON AVE", "amenity": "post_box", "collection_times": "Mo-Fr 17:00", "indoor": "yes", "note": "ON 12/24 AND 12/31, THIS BOX MAY BE COLLECTED AS EARLY AS 12 NOON.", "nsi_id": "unitedstatespostalservice-a77078", "operator": "United States Postal Service", "operator:short": "USPS", "operator:type": "public", "operator:wikidata": "Q668687", "ref": "9194200062"}, "type": "Feature"}
{"geometry": {"coordinates": [-117.0282226378, 32.7428194683], "type": "Point"}, "id": "-VdI7i2eeIUjAy2huFjlEwJZjGE=", "properties": {"@source_uri": "https://tools.usps.com/UspsToolsRestServices/rest/POLocator/findLocations", "@spider": "usps_collection_boxes", "addr:city": "LEMON GROVE", "addr:country": "US", "addr:postcode": "91945", "addr:state": "CA", "addr:street_address": "7938 BROADWAY", "amenity": "post_box", "collection_times": "Mo-Fr 17:00; Sa 15:30", "note": "ON 12/24 AND 12/31, THIS BOX MAY BE COLLECTED AS EARLY AS 12 NOON.", "nsi_id": "unitedstatespostalservice-a77078", "operator": "United States Postal Service", "operator:short": "USPS", "operator:type": "public", "operator:wikidata": "Q668687", "ref": "9194500002"}, "type": "Feature"}
{"geometry": {"coordinates": [-117.0282374738, 32.7428254724], "type": "Point"}, "id": "1VUbSX5tMFn0Cir2Z2OtAyGxfPI=", "properties": {"@source_uri": "https://tools.usps.com/UspsToolsRestServices/rest/POLocator/findLocations", "@spider": "usps_collection_boxes", "addr:city": "LEMON GROVE", "addr:country": "US", "addr:postcode": "91945", "addr:state": "CA", "addr:street_address": "7938 BROADWAY", "amenity": "post_box", "collection_times": "Mo-Fr 17:00; Sa 15:30", "note": "ON 12/24 AND 12/31, THIS BOX MAY BE COLLECTED AS EARLY AS 12 NOON.", "nsi_id": "unitedstatespostalservice-a77078", "operator": "United States Postal Service", "operator:short": "USPS", "operator:type": "public", "operator:wikidata": "Q668687", "ref": "9194500004"}, "type": "Feature"}
{"geometry": {"coordinates": [-117.0282226378, 32.7428194683], "type": "Point"}, "id": "ThLZn9q_QU8fnUhh0MjhW4_hIrE=", "properties": {"@source_uri": "https://tools.usps.com/UspsToolsRestServices/rest/POLocator/findLocations", "@spider": "usps_collection_boxes", "addr:city": "LEMON GROVE", "addr:country": "US", "addr:postcode": "91945", "addr:state": "CA", "addr:street_address": "7938 BROADWAY", "amenity": "post_box", "collection_times": "Mo-Fr 17:00; Sa 15:30", "note": "ON 12/24 AND 12/31, THIS BOX MAY BE COLLECTED AS EARLY AS 12 NOON.", "nsi_id": "unitedstatespostalservice-a77078", "operator": "United States Postal Service", "operator:short": "USPS", "operator:type": "public", "operator:wikidata": "Q668687", "ref": "9194500032"}, "type": "Feature"}
{"geometry": {"coordinates": [-117.028237474, 32.742825472], "type": "Point"}, "id": "K19wFFk5KnKzwM5d15n0adIXt1I=", "properties": {"@source_uri": "https://tools.usps.com/UspsToolsRestServices/rest/POLocator/findLocations", "@spider": "usps_collection_boxes", "addr:city": "LEMON GROVE", "addr:country": "US", "addr:postcode": "91945", "addr:state": "CA", "addr:street_address": "7938 BROADWAY", "amenity": "post_box", "collection_times": "Mo-Fr 17:00; Sa 15:30", "note": "ON 12/24 AND 12/31, THIS BOX MAY BE COLLECTED AS EARLY AS 12 NOON.", "nsi_id": "unitedstatespostalservice-a77078", "operator": "United States Postal Service", "operator:short": "USPS", "operator:type": "public", "operator:wikidata": "Q668687", "ref": "9194500033"}, "type": "Feature"}
{"geometry": {"coordinates": [-117.0282226378, 32.7428194683], "type": "Point"}, "id": "K-eB6jaN7L1PUri5feQG5kK5VpA=", "properties": {"@source_uri": "https://tools.usps.com/UspsToolsRestServices/rest/POLocator/findLocations", "@spider": "usps_collection_boxes", "addr:city": "LEMON GROVE", "addr:country": "US", "addr:postcode": "91945", "addr:state": "CA", "addr:street_address": "7938 BROADWAY", "amenity": "post_box", "collection_times": "Mo-Fr 17:00", "indoor": "yes", "note": "ON 12/24 AND 12/31, THIS BOX MAY BE COLLECTED AS EARLY AS 12 NOON.", "nsi_id": "unitedstatespostalservice-a77078", "operator": "United States Postal Service", "operator:short": "USPS", "operator:type": "public", "operator:wikidata": "Q668687", "ref": "9194500040"}, "type": "Feature"}
{"geometry": {"coordinates": [-116.4198076346, 32.8762927822], "type": "Point"}, "id": "9HO0tRrhHjIQz-FZ1T6sVVoKpA0=", "properties": {"@source_uri": "https://tools.usps.com/UspsToolsRestServices/rest/POLocator/findLocations", "@spider": "usps_collection_boxes", "addr:city": "MOUNT LAGUNA", "addr:country": "US", "addr:postcode": "91948", "addr:state": "CA", "addr:street_address": "810 SUNRISE HWY", "amenity": "post_box", "collection_times": "Mo-Sa 16:00", "note": "ON 12/24 AND 12/31, THIS BOX MAY BE COLLECTED AS EARLY AS 12 NOON.", "nsi_id": "unitedstatespostalservice-a77078", "operator": "United States Postal Service", "operator:short": "USPS", "operator:type": "public", "operator:wikidata": "Q668687", "ref": "9194800001"}, "type": "Feature"}
{"geometry": {"coordinates": [-116.4198076346, 32.8762927822], "type": "Point"}, "id": "74uh_xYO9eazXqQenBiSkqFUd7U=", "properties": {"@source_uri": "https://tools.usps.com/UspsToolsRestServices/rest/POLocator/findLocations", "@spider": "usps_collection_boxes", "addr:city": "MOUNT LAGUNA", "addr:country": "US", "addr:postcode": "91948", "addr:state": "CA", "addr:street_address": "810 SUNRISE HWY", "amenity": "post_box", "collection_times": "Mo-Sa 16:00", "indoor": "yes", "note": "ON 12/24 AND 12/31, THIS BOX MAY BE COLLECTED AS EARLY AS 12 NOON.", "nsi_id": "unitedstatespostalservice-a77078", "operator": "United States Postal Service", "operator:short": "USPS", "operator:type": "public", "operator:wikidata": "Q668687", "ref": "9194800003"}, "type": "Feature"}
{"geometry": {"coordinates": [-116.4198076346, 32.8762927822], "type": "Point"}, "id": "uC3yRcYsJ_NJHv1Y_jVM_0KQfks=", "properties": {"@source_uri": "https://tools.usps.com/UspsToolsRestServices/rest/POLocator/findLocations", "@spider": "usps_collection_boxes", "addr:city": "MOUNT LAGUNA", "addr:country": "US", "addr:postcode": "91948", "addr:state": "CA", "addr:street_address": "810 SUNRISE HWY", "amenity": "post_box", "collection_times": "Mo-Fr 16:00", "indoor": "yes", "note": "ON 12/24 AND 12/31, THIS BOX MAY BE COLLECTED AS EARLY AS 12 NOON.", "nsi_id": "unitedstatespostalservice-a77078", "operator": "United States Postal Service", "operator:short": "USPS", "operator:type": "public", "operator:wikidata": "Q668687", "ref": "9194800004"}, "type": "Feature"}
{"geometry": {"coordinates": [-117.10297, 32.673035], "type": "Point"}, "id": "_PEzffrTG5J55X5rM_pHx9Zror8=", "properties": {"@source_uri": "https://tools.usps.com/UspsToolsRestServices/rest/POLocator/findLocations", "@spider": "usps_collection_boxes", "addr:city": "NATIONAL CITY", "addr:country": "US", "addr:postcode": "91950", "addr:state": "CA", "addr:street_address": "2400 E 4TH ST", "amenity": "post_box", "collection_times": "Mo-Fr 14:00; Sa 10:30", "note": "ON 12/24 AND 12/31, THIS BOX MAY BE COLLECTED AS EARLY AS 12 NOON.", "nsi_id": "unitedstatespostalservice-a77078", "operator": "United States Postal Service", "operator:short": "USPS", "operator:type": "public", "operator:wikidata": "Q668687", "ref": "9195000006"}, "type": "Feature"}
{"geometry": {"coordinates": [-117.097487, 32.676456], "type": "Point"}, "id": "91DVA-Tzt57kHPDzw3epEYJKgMg=", "properties": {"@source_uri": "https://tools.usps.com/UspsToolsRestServices/rest/POLocator/findLocations", "@spider": "usps_collection_boxes", "addr:city": "NATIONAL CITY", "addr:country": "US", "addr:postcode": "91950", "addr:state": "CA", "addr:street_address": "1021 E PLAZA BLVD", "amenity": "post_box", "collection_times": "Mo-Fr 14:00; Sa 10:15", "note": "ON 12/24 AND 12/31, THIS BOX MAY BE COLLECTED AS EARLY AS 12 NOON.", "nsi_id": "unitedstatespostalservice-a77078", "operator": "United States Postal Service", "operator:short": "USPS", "operator:type": "public", "operator:wikidata": "Q668687", "ref": "9195000009"}, "type": "Feature"}
{"geometry": {"coordinates": [-117.087179, 32.671956], "type": "Point"}, "id": "Hcyt_bms-9Qi0JSJ3VIWyQjm-HA=", "properties": {"@source_uri": "https://tools.usps.com/UspsToolsRestServices/rest/POLocator/findLocations", "@spider": "usps_collection_boxes", "addr:city": "NATIONAL CITY", "addr:country": "US", "addr:postcode": "91950", "addr:state": "CA", "addr:street_address": "1701 PALM AVE", "amenity": "post_box", "collection_times": "Mo-Fr 14:30; Sa 10:30", "note": "ON 12/24 AND 12/31, THIS BOX MAY BE COLLECTED AS EARLY AS 12 NOON.", "nsi_id": "unitedstatespostalservice-a77078", "operator": "United States Postal Service", "operator:short": "USPS", "operator:type": "public", "operator:wikidata": "Q668687", "ref": "9195000015"}, "type": "Feature"}
{"geometry": {"coordinates": [-117.078952, 32.680377], "type": "Point"}, "id": "6UiVNdYSHQwDR5lo1ANxTr3bH2U=", "properties": {"@source_uri": "https://tools.usps.com/UspsToolsRestServices/rest/POLocator/findLocations", "@spider": "usps_collection_boxes", "addr:city": "NATIONAL CITY", "addr:country": "US", "addr:postcode": "91950", "addr:state": "CA", "addr:street_address": "2617 E PLAZA BLVD", "amenity": "post_box", "collection_times": "Mo-Fr 14:00; Sa 10:15", "note": "ON 12/24 AND 12/31, THIS BOX MAY BE COLLECTED AS EARLY AS 12 NOON.", "nsi_id": "unitedstatespostalservice-a77078", "operator": "United States Postal Service", "operator:short": "USPS", "operator:type": "public", "operator:wikidata": "Q668687", "ref": "9195000016"}, "type": "Feature"}
{"geometry": {"coordinates": [-117.080945, 32.660865], "type": "Point"}, "id": "Igu6dt2BWuQofvBWdw_i8XnFwFs=", "properties": {"@source_uri": "https://tools.usps.com/UspsToolsRestServices/rest/POLocator/findLocations", "@spider": "usps_collection_boxes", "addr:city": "NATIONAL CITY", "addr:country": "US", "addr:postcode": "91950", "addr:state": "CA", "addr:street_address": "1730 SWEETWATER RD", "amenity": "post_box", "collection_times": "Mo-Fr 14:30; Sa 11:00", "note": "ON 12/24 AND 12/31, THIS BOX MAY BE COLLECTED AS EARLY AS 12 NOON.", "nsi_id": "unitedstatespostalservice-a77078", "operator": "United States Postal Service", "operator:short": "USPS", "operator:type": "public", "operator:wikidata": "Q668687", "ref": "9195000018"}, "type": "Feature"}
{"geometry": {"coordinates": [-117.10297, 32.673035], "type": "Point"}, "id": "pU9qJa9Gjlp8BhlDrBt9rmwUxco=", "properties": {"@source_uri": "https://tools.usps.com/UspsToolsRestServices/rest/POLocator/findLocations", "@spider": "usps_collection_boxes", "addr:city": "NATIONAL CITY", "addr:country": "US", "addr:postcode": "91950", "addr:state": "CA", "addr:street_address": "1000 BAY MARINA DR", "amenity": "post_box", "collection_times": "Mo-Fr 14:30; Sa 10:45", "note": "ON 12/24 AND 12/31, THIS BOX MAY BE COLLECTED AS EARLY AS 12 NOON.", "nsi_id": "unitedstatespostalservice-a77078", "operator": "United States Postal Service", "operator:short": "USPS", "operator:type": "public", "operator:wikidata": "Q668687", "ref": "9195000019"}, "type": "Feature"}
{"geometry": {"coordinates": [-117.1038234046, 32.6603552744], "type": "Point"}, "id": "zowTWcWXER8OXVsSRY8nC2a4Edc=", "properties": {"@source_uri": "https://tools.usps.com/UspsToolsRestServices/rest/POLocator/findLocations", "@spider": "usps_collection_boxes", "addr:city": "NATIONAL CITY", "addr:country": "US", "addr:postcode": "91950", "addr:state": "CA", "addr:street_address": "220 W 25TH ST", "amenity": "post_box", "collection_times": "Mo-Fr 14:30; Sa 10:45", "note": "ON 12/24 AND 12/31, THIS BOX MAY BE COLLECTED AS EARLY AS 12 NOON.", "nsi_id": "unitedstatespostalservice-a77078", "operator": "United States Postal Service", "operator:short": "USPS", "operator:type": "public", "operator:wikidata": "Q668687", "ref": "9195000020"}, "type": "Feature"}
{"geometry": {"coordinates": [-117.067552782, 32.655073108], "type": "Point"}, "id": "mTWZOt-pQTBe1wN3XikZM-rB2yQ=", "properties": {"@source_uri": "https://tools.usps.com/UspsToolsRestServices/rest/POLocator/findLocations", "@spider": "usps_collection_boxes", "addr:city": "NATIONAL CITY", "addr:country": "US", "addr:postcode": "91950", "addr:state": "CA", "addr:street_address": "3030 PLAZA BONITA RD", "amenity": "post_box", "collection_times": "Mo-Fr 14:30; Sa 11:00", "note": "ON 12/24 AND 12/31, THIS BOX MAY BE COLLECTED AS EARLY AS 12 NOON.", "nsi_id": "unitedstatespostalservice-a77078", "operator": "United States Postal Service", "operator:short": "USPS", "operator:type": "public", "operator:wikidata": "Q668687", "ref": "9195000024"}, "type": "Feature"}
{"geometry": {"coordinates": [-117.0967148604, 32.6709932095], "type": "Point"}, "id": "IGm5baRTvd0s7MHV2jysr3cLjWs=", "properties": {"@source_uri": "https://tools.usps.com/UspsToolsRestServices/rest/POLocator/findLocations", "@spider": "usps_collection_boxes", "addr:city": "NATIONAL CITY", "addr:country": "US", "addr:postcode": "91950", "addr:state": "CA", "addr:street_address": "710 E 16TH ST", "amenity": "post_box", "collection_times": "Mo-Sa 17:00", "note": "ON 12/24 AND 12/31, THIS BOX MAY BE COLLECTED AS EARLY AS 12 NOON.", "nsi_id": "unitedstatespostalservice-a77078", "operator": "United States Postal Service", "operator:short": "USPS", "operator:type": "public", "operator:wikidata": "Q668687", "ref": "9195000035"}, "type": "Feature"}
{"geometry": {"coordinates": [-117.0967148604, 32.6709932095], "type": "Point"}, "id": "VKQ8U_xAt6fezv-VgxBKm5CLT5g=", "properties": {"@source_uri": "https://tools.usps.com/UspsToolsRestServices/rest/POLocator/findLocations", "@spider": "usps_collection_boxes", "addr:city": "NATIONAL CITY", "addr:country": "US", "addr:postcode": "91950", "addr:state": "CA", "addr:street_address": "710 E 16TH ST", "amenity": "post_box", "collection_times": "Mo-Sa 17:00", "note": "ON 12/24 AND 12/31, THIS BOX MAY BE COLLECTED AS EARLY AS 12 NOON.", "nsi_id": "unitedstatespostalservice-a77078", "operator": "United States Postal Service", "operator:short": "USPS", "operator:type": "public", "operator:wikidata": "Q668687", "ref": "9195000037"}, "type": "Feature"}
{"geometry": {"coordinates": [-117.0967148604, 32.6709932095], "type": "Point"}, "id": "zTFE5kxmPnf5CfUWXS7KX-U0AvI=", "properties": {"@source_uri": "https://tools.usps.com/UspsToolsRestServices/rest/POLocator/findLocations", "@spider": "usps_collection_boxes", "addr:city": "NATIONAL CITY", "addr:country": "US", "addr:postcode": "91950", "addr:state": "CA", "addr:street_address": "710 E 16TH ST", "amenity": "post_box", "collection_times": "Mo-Sa 17:00", "note": "ON 12/24 AND 12/31, THIS BOX MAY BE COLLECTED AS EARLY AS 12 NOON.", "nsi_id": "unitedstatespostalservice-a77078", "operator": "United States Postal Service", "operator:short": "USPS", "operator:type": "public", "operator:wikidata": "Q668687", "ref": "9195000038"}, "type": "Feature"}
{"geometry": {"coordinates": [-117.10297, 32.673035], "type": "Point"}, "id": "soz4plsu4V2m88THTubk2r3RRYc=", "properties": {"@source_uri": "https://tools.usps.com/UspsToolsRestServices/rest/POLocator/findLocations", "@spider": "usps_collection_boxes", "addr:city": "NATIONAL CITY", "addr:country": "US", "addr:postcode": "91950", "addr:state": "CA", "addr:street_address": "710 E 16TH ST", "amenity": "post_box", "collection_times": "Mo-Sa 17:00", "note": "ON 12/24 AND 12/31, THIS BOX MAY BE COLLECTED AS EARLY AS 12 NOON.", "nsi_id": "unitedstatespostalservice-a77078", "operator": "United States Postal Service", "operator:short": "USPS", "operator:type": "public", "operator:wikidata": "Q668687", "ref": "9195000039"}, "type": "Feature"}
{"geometry": {"coordinates": [-117.0967148604, 32.6709932095], "type": "Point"}, "id": "-swqEHG10vUINyl-K02w_uEPn9s=", "properties": {"@source_uri": "https://tools.usps.com/UspsToolsRestServices/rest/POLocator/findLocations", "@spider": "usps_collection_boxes", "addr:city": "NATIONAL CITY", "addr:country": "US", "addr:postcode": "91950", "addr:state": "CA", "addr:street_address": "710 E 16TH ST", "amenity": "post_box", "collection_times": "Mo-Fr 17:00", "indoor": "yes", "note": "ON 12/24 AND 12/31, THIS BOX MAY BE COLLECTED AS EARLY AS 12 NOON.", "nsi_id": "unitedstatespostalservice-a77078", "operator": "United States Postal Service", "operator:short": "USPS", "operator:type": "public", "operator:wikidata": "Q668687", "ref": "9195000061"}, "type": "Feature"}
{"geometry": {"coordinates": [-116.529468897, 32.821771418], "type": "Point"}, "id": "tTDRi-HX8rg4gVLjU6dANXs_QOM=", "properties": {"@source_uri": "https://tools.usps.com/UspsToolsRestServices/rest/POLocator/findLocations", "@spider": "usps_collection_boxes", "addr:city": "PINE VALLEY", "addr:country": "US", "addr:postcode": "91962", "addr:state": "CA", "addr:street_address": "28858 OLD HIGHWAY 80", "amenity": "post_box", "collection_times": "Mo-Sa 16:45", "note": "ON 12/24 AND 12/31, THIS BOX MAY BE COLLECTED AS EARLY AS 12 NOON.", "nsi_id": "unitedstatespostalservice-a77078", "operator": "United States Postal Service", "operator:short": "USPS", "operator:type": "public", "operator:wikidata": "Q668687", "ref": "9196200001"}, "type": "Feature"}
{"geometry": {"coordinates": [-116.529468897, 32.821771418], "type": "Point"}, "id": "qm7VKztMezrZV5RpJ8MJqDBihzk=", "properties": {"@source_uri": "https://tools.usps.com/UspsToolsRestServices/rest/POLocator/findLocations", "@spider": "usps_collection_boxes", "addr:city": "PINE VALLEY", "addr:country": "US", "addr:postcode": "91962", "addr:state": "CA", "addr:street_address": "28858 OLD HIGHWAY 80", "amenity": "post_box", "collection_times": "Mo-Sa 09:30", "indoor": "yes", "nsi_id": "unitedstatespostalservice-a77078", "operator": "United States Postal Service", "operator:short": "USPS", "operator:type": "public", "operator:wikidata": "Q668687", "ref": "9196200003"}, "type": "Feature"}
{"geometry": {"coordinates": [-116.529468897, 32.821771418], "type": "Point"}, "id": "mp5ePgBowdv9Nfh8q70yG-66POs=", "properties": {"@source_uri": "https://tools.usps.com/UspsToolsRestServices/rest/POLocator/findLocations", "@spider": "usps_collection_boxes", "addr:city": "PINE VALLEY", "addr:country": "US", "addr:postcode": "91962", "addr:state": "CA", "addr:street_address": "28858 OLD HIGHWAY 80", "amenity": "post_box", "collection_times": "Mo-Fr 17:00", "indoor": "yes", "note": "ON 12/24 AND 12/31, THIS BOX MAY BE COLLECTED AS EARLY AS 12 NOON.", "nsi_id": "unitedstatespostalservice-a77078", "operator": "United States Postal Service", "operator:short": "USPS", "operator:type": "public", "operator:wikidata": "Q668687", "ref": "9196200004"}, "type": "Feature"}
{"geometry": {"coordinates": [-116.6099650211, 32.6053249895], "type": "Point"}, "id": "1wSwmwF3t-Pnc7QuQ6QwoFuU61M=", "properties": {"@source_uri": "https://tools.usps.com/UspsToolsRestServices/rest/POLocator/findLocations", "@spider": "usps_collection_boxes", "addr:city": "POTRERO", "addr:country": "US", "addr:postcode": "91963", "addr:state": "CA", "addr:street_address": "25050 HIGHWAY 94", "amenity": "post_box", "collection_times": "Mo-Sa 09:00", "indoor": "yes", "nsi_id": "unitedstatespostalservice-a77078", "operator": "United States Postal Service", "operator:short": "USPS", "operator:type": "public", "operator:wikidata": "Q668687", "ref": "9196300003"}, "type": "Feature"}
{"geometry": {"coordinates": [-116.6099650211, 32.6053249895], "type": "Point"}, "id": "zEhvc-9o7-3CJfxf_P-JpIyRoWY=", "properties": {"@source_uri": "https://tools.usps.com/UspsToolsRestServices/rest/POLocator/findLocations", "@spider": "usps_collection_boxes", "addr:city": "POTRERO", "addr:country": "US", "addr:postcode": "91963", "addr:state": "CA", "addr:street_address": "25050 HIGHWAY 94", "amenity": "post_box", "collection_times": "Mo-Fr 16:30", "indoor": "yes", "note": "ON 12/24 AND 12/31, THIS BOX MAY BE COLLECTED AS EARLY AS 12 NOON.", "nsi_id": "unitedstatespostalservice-a77078", "operator": "United States Postal Service", "operator:short": "USPS", "operator:type": "public", "operator:wikidata": "Q668687", "ref": "9196300005"}, "type": "Feature"}
{"geometry": {"coordinates": [-116.97257523, 32.731189414], "type": "Point"}, "id": "EfCi5OlNgKMnpMhjTOyL3U8vpX0=", "properties": {"@source_uri": "https://tools.usps.com/UspsToolsRestServices/rest/POLocator/findLocations", "@spider": "usps_collection_boxes", "addr:city": "SPRING VALLEY", "addr:country": "US", "addr:postcode": "91977", "addr:state": "CA", "addr:street_address": "10174 AUSTIN DR", "amenity": "post_box", "collection_times": "Mo-Fr 17:00; Sa 15:30", "note": "ON 12/24 AND 12/31, THIS BOX MAY BE COLLECTED AS EARLY AS 12 NOON.", "nsi_id": "unitedstatespostalservice-a77078", "operator": "United States Postal Service", "operator:short": "USPS", "operator:type": "public", "operator:wikidata": "Q668687", "ref": "9197700001"}, "type": "Feature"}
{"geometry": {"coordinates": [-116.9978, 32.70973], "type": "Point"}, "id": "-tm2Ad4sl6s1Y8m5WAci91Ir0yk=", "properties": {"@source_uri": "https://tools.usps.com/UspsToolsRestServices/rest/POLocator/findLocations", "@spider": "usps_collection_boxes", "addr:city": "SPRING VALLEY", "addr:country": "US", "addr:postcode": "91977", "addr:state": "CA", "addr:street_address": "2840 BANCROFT DR", "amenity": "post_box", "collection_times": "Mo-Fr 14:30; Sa 15:30", "note": "ON 12/24 AND 12/31, THIS BOX MAY BE COLLECTED AS EARLY AS 12 NOON.", "nsi_id": "unitedstatespostalservice-a77078", "operator": "United States Postal Service", "operator:short": "USPS", "operator:type": "public", "operator:wikidata": "Q668687", "ref": "9197700003"}, "type": "Feature"}
{"geometry": {"coordinates": [-116.9974, 32.708048], "type": "Point"}, "id": "3jzTT6QX5_Wj7BIuDq46XLLMv3I=", "properties": {"@source_uri": "https://tools.usps.com/UspsToolsRestServices/rest/POLocator/findLocations", "@spider": "usps_collection_boxes", "addr:city": "SPRING VALLEY", "addr:country": "US", "addr:postcode": "91977", "addr:state": "CA", "addr:street_address": "9410 JAMACHA BLVD", "amenity": "post_box", "collection_times": "Mo-Fr 14:30; Sa 15:30", "note": "ON 12/24 AND 12/31, THIS BOX MAY BE COLLECTED AS EARLY AS 12 NOON.", "nsi_id": "unitedstatespostalservice-a77078", "operator": "United States Postal Service", "operator:short": "USPS", "operator:type": "public", "operator:wikidata": "Q668687", "ref": "9197700007"}, "type": "Feature"}
{"geometry": {"coordinates": [-117.017404169, 32.71426114], "type": "Point"}, "id": "Ar7MtYVwYrGYfZiSpNrJg-nQGUY=", "properties": {"@source_uri": "https://tools.usps.com/UspsToolsRestServices/rest/POLocator/findLocations", "@spider": "usps_collection_boxes", "addr:city": "SPRING VALLEY", "addr:country": "US", "addr:postcode": "91977", "addr:state": "CA", "addr:street_address": "1075 ELKELTON BLVD", "amenity": "post_box", "collection_times": "Mo-Fr 14:30; Sa 15:30", "note": "ON 12/24 AND 12/31, THIS BOX MAY BE COLLECTED AS EARLY AS 12 NOON.", "nsi_id": "unitedstatespostalservice-a77078", "operator": "United States Postal Service", "operator:short": "USPS", "operator:type": "public", "operator:wikidata": "Q668687", "ref": "9197700010"}, "type": "Feature"}
{"geometry": {"coordinates": [-116.9978, 32.70973], "type": "Point"}, "id": "F32ENz4tyVhQM6lf0GlpSHheo6k=", "properties": {"@source_uri": "https://tools.usps.com/UspsToolsRestServices/rest/POLocator/findLocations", "@spider": "usps_collection_boxes", "addr:city": "SPRING VALLEY", "addr:country": "US", "addr:postcode": "91977", "addr:state": "CA", "addr:street_address": "631 SWEETWATER RD", "amenity": "post_box", "collection_times": "Mo-Fr 14:30; Sa 15:30", "note": "ON 12/24 AND 12/31, THIS BOX MAY BE COLLECTED AS EARLY AS 12 NOON.", "nsi_id": "unitedstatespostalservice-a77078", "operator": "United States Postal Service", "operator:short": "USPS", "operator:type": "public", "operator:wikidata": "Q668687", "ref": "9197700016"}, "type": "Feature"}
{"geometry": {"coordinates": [-117.018653723, 32.6977128013], "type": "Point"}, "id": "IPLen-hP2J_by86BCq_2XBwWBpU=", "properties": {"@source_uri": "https://tools.usps.com/UspsToolsRestServices/rest/POLocator/findLocations", "@spider": "usps_collection_boxes", "addr:city": "SPRING VALLEY", "addr:country": "US", "addr:postcode": "91977", "addr:state": "CA", "addr:street_address": "103 WORTHINGTON ST", "amenity": "post_box", "collection_times": "Mo-Fr 14:30; Sa 15:30", "note": "ON 12/24 AND 12/31, THIS BOX MAY BE COLLECTED AS EARLY AS 12 NOON.", "nsi_id": "unitedstatespostalservice-a77078", "operator": "United States Postal Service", "operator:short": "USPS", "operator:type": "public", "operator:wikidata": "Q668687", "ref": "9197700019"}, "type": "Feature"}
{"geometry": {"coordinates": [-116.972602974, 32.731186177], "type": "Point"}, "id": "JfWXD3_drlQTqSlhsloMUEX5fv4=", "properties": {"@source_uri": "https://tools.usps.com/UspsToolsRestServices/rest/POLocator/findLocations", "@spider": "usps_collection_boxes", "addr:city": "SPRING VALLEY", "addr:country": "US", "addr:postcode": "91977", "addr:state": "CA", "addr:street_address": "10174 AUSTIN DR", "amenity": "post_box", "collection_times": "Mo-Fr 17:00; Sa 15:30", "note": "ON 12/24 AND 12/31, THIS BOX MAY BE COLLECTED AS EARLY AS 12 NOON.", "nsi_id": "unitedstatespostalservice-a77078", "operator": "United States Postal Service", "operator:short": "USPS", "operator:type": "public", "operator:wikidata": "Q668687", "ref": "9197700022"}, "type": "Feature"}
{"geometry": {"coordinates": [-116.9863569816, 32.7470710188], "type": "Point"}, "id": "ML1BTZXFFLLUHJC47IOG4hoC5h8=", "properties": {"@source_uri": "https://tools.usps.com/UspsToolsRestServices/rest/POLocator/findLocations", "@spider": "usps_collection_boxes", "addr:city": "SPRING VALLEY", "addr:country": "US", "addr:postcode": "91977", "addr:state": "CA", "addr:street_address": "9805 CAMPO RD STE 165", "amenity": "post_box", "collection_times": "Mo-Fr 17:00; Sa 15:30", "note": "ON 12/24 AND 12/31, THIS BOX MAY BE COLLECTED AS EARLY AS 12 NOON.", "nsi_id": "unitedstatespostalservice-a77078", "operator": "United States Postal Service", "operator:short": "USPS", "operator:type": "public", "operator:wikidata": "Q668687", "ref": "9197700027"}, "type": "Feature"}
{"geometry": {"coordinates": [-116.9726074742, 32.7311861768], "type": "Point"}, "id": "a5G_C2LiJbJj6T7V9VRCADVFd7c=", "properties": {"@source_uri": "https://tools.usps.com/UspsToolsRestServices/rest/POLocator/findLocations", "@spider": "usps_collection_boxes", "addr:city": "SPRING VALLEY", "addr:country": "US", "addr:postcode": "91977", "addr:state": "CA", "addr:street_address": "10174 AUSTIN DR", "amenity": "post_box", "collection_times": "Mo-Fr 17:00; Sa 15:30", "name": "USPS COLLECTION BOX - APC", "note": "ON 12/24 AND 12/31, THIS BOX MAY BE COLLECTED AS EARLY AS 12 NOON.", "nsi_id": "unitedstatespostalservice-a77078", "operator": "United States Postal Service", "operator:short": "USPS", "operator:type": "public", "operator:wikidata": "Q668687", "ref": "9197700044"}, "type": "Feature"}
{"geometry": {"coordinates": [-116.9726074742, 32.7311861768], "type": "Point"}, "id": "cWjEZrONrW6jZbN6FqlTso4rw_A=", "properties": {"@source_uri": "https://tools.usps.com/UspsToolsRestServices/rest/POLocator/findLocations", "@spider": "usps_collection_boxes", "addr:city": "SPRING VALLEY", "addr:country": "US", "addr:postcode": "91977", "addr:state": "CA", "addr:street_address": "10174 AUSTIN DR", "amenity": "post_box", "collection_times": "Mo-Fr 17:00", "indoor": "yes", "note": "ON 12/24 AND 12/31, THIS BOX MAY BE COLLECTED AS EARLY AS 12 NOON.", "nsi_id": "unitedstatespostalservice-a77078", "operator": "United States Postal Service", "operator:short": "USPS", "operator:type": "public", "operator:wikidata": "Q668687", "ref": "9197700050"}, "type": "Feature"}
{"geometry": {"coordinates": [-116.6280799902, 32.5787909853], "type": "Point"}, "id": "QVAwr8iNvFynj7bw34gWaAgnj8Y=", "properties": {"@source_uri": "https://tools.usps.com/UspsToolsRestServices/rest/POLocator/findLocations", "@spider": "usps_collection_boxes", "addr:city": "TECATE", "addr:country": "US", "addr:postcode": "91980", "addr:state": "CA", "addr:street_address": "441 TECATE RD", "amenity": "post_box", "collection_times": "Mo-Fr 16:30; Sa 10:45", "note": "ON 12/24 AND 12/31, THIS BOX MAY BE COLLECTED AS EARLY AS 12 NOON.", "nsi_id": "unitedstatespostalservice-a77078", "operator": "United States Postal Service", "operator:short": "USPS", "operator:type": "public", "operator:wikidata": "Q668687", "ref": "9198000001"}, "type": "Feature"}
{"geometry": {"coordinates": [-116.6280799902, 32.5787909853], "type": "Point"}, "id": "kje8czQtBbpBlhDyuNcmeInMIB4=", "properties": {"@source_uri": "https://tools.usps.com/UspsToolsRestServices/rest/POLocator/findLocations", "@spider": "usps_collection_boxes", "addr:city": "TECATE", "addr:country": "US", "addr:postcode": "91980", "addr:state": "CA", "addr:street_address": "441 TECATE RD", "amenity": "post_box", "collection_times": "Mo-Sa 09:00", "indoor": "yes", "nsi_id": "unitedstatespostalservice-a77078", "operator": "United States Postal Service", "operator:short": "USPS", "operator:type": "public", "operator:wikidata": "Q668687", "ref": "9198000003"}, "type": "Feature"}
{"geometry": {"coordinates": [-116.6280799902, 32.5787909853], "type": "Point"}, "id": "9tuj0vxTOi6JHlu4__-fFSKXI4k=", "properties": {"@source_uri": "https://tools.usps.com/UspsToolsRestServices/rest/POLocator/findLocations", "@spider": "usps_collection_boxes", "addr:city": "TECATE", "addr:country": "US", "addr:postcode": "91980", "addr:state": "CA", "addr:street_address": "441 TECATE RD", "amenity": "post_box", "collection_times": "Mo-Fr 16:30", "indoor": "yes", "note": "ON 12/24 AND 12/31, THIS BOX MAY BE COLLECTED AS EARLY AS 12 NOON.", "nsi_id": "unitedstatespostalservice-a77078", "operator": "United States Postal Service", "operator:short": "USPS", "operator:type": "public", "operator:wikidata": "Q668687", "ref": "9198000004"}, "type": "Feature"}
