{"geometry": {"coordinates": [-116.236045, 33.70721], "type": "Point"}, "id": "UK6ZQ713jTv0dBDCX9e57gHmcus=", "properties": {"@source_uri": "https://tools.usps.com/UspsToolsRestServices/rest/POLocator/findLocations", "@spider": "usps_collection_boxes", "addr:city": "BERMUDA DUNES", "addr:country": "US", "addr:postcode": "92201", "addr:state": "CA", "addr:street_address": "81893 DOCTOR CARREON BLVD", "amenity": "post_box", "brand": "United States Postal Service", "brand:wikidata": "Q668687", "collection_times": "Mo-Fr 13:00", "note": "ON 12/24 AND 12/31, THIS BOX MAY BE COLLECTED AS EARLY AS 12 NOON.", "nsi_id": "unitedstatespostalservice-a77078", "operator": "United States Postal Service", "operator:short": "USPS", "operator:type": "public", "operator:wikidata": "Q668687", "ref": "9220100003"}, "type": "Feature"}
{"geometry": {"coordinates": [-116.226012, 33.717648], "type": "Point"}, "id": "-zCnSFHrmedKvUMNOyzvB1PQwO8=", "properties": {"@source_uri": "https://tools.usps.com/UspsToolsRestServices/rest/POLocator/findLocations", "@spider": "usps_collection_boxes", "addr:city": "BERMUDA DUNES", "addr:country": "US", "addr:postcode": "92201", "addr:state": "CA", "addr:street_address": "82490 REQUA AVE", "amenity": "post_box", "brand": "United States Postal Service", "brand:wikidata": "Q668687", "collection_times": "Mo-Sa 14:00", "note": "ON 12/24 AND 12/31, THIS BOX MAY BE COLLECTED AS EARLY AS 12 NOON.", "nsi_id": "unitedstatespostalservice-a77078", "operator": "United States Postal Service", "operator:short": "USPS", "operator:type": "public", "operator:wikidata": "Q668687", "ref": "9220100013"}, "type": "Feature"}
{"geometry": {"coordinates": [-116.242799, 33.72159], "type": "Point"}, "id": "UJGtNd4RIDo-LhyVCdZjs8s_wxo=", "properties": {"@source_uri": "https://tools.usps.com/UspsToolsRestServices/rest/POLocator/findLocations", "@spider": "usps_collection_boxes", "addr:city": "BERMUDA DUNES", "addr:country": "US", "addr:postcode": "92201", "addr:state": "CA", "addr:street_address": "81491 MILES AVE", "amenity": "post_box", "brand": "United States Postal Service", "brand:wikidata": "Q668687", "collection_times": "Mo-Sa 13:00", "note": "ON 12/24 AND 12/31, THIS BOX MAY BE COLLECTED AS EARLY AS 12 NOON.", "nsi_id": "unitedstatespostalservice-a77078", "operator": "United States Postal Service", "operator:short": "USPS", "operator:type": "public", "operator:wikidata": "Q668687", "ref": "9220100017"}, "type": "Feature"}
{"geometry": {"coordinates": [-116.2338199391, 33.7278363251], "type": "Point"}, "id": "h4cXeX7LdTDB5tx6oLsiTFcKr-M=", "properties": {"@source_uri": "https://tools.usps.com/UspsToolsRestServices/rest/POLocator/findLocations", "@spider": "usps_collection_boxes", "addr:city": "BERMUDA DUNES", "addr:country": "US", "addr:postcode": "92201", "addr:state": "CA", "addr:street_address": "44251 MONROE ST", "amenity": "post_box", "brand": "United States Postal Service", "brand:wikidata": "Q668687", "collection_times": "Mo-Sa 13:00", "note": "ON 12/24 AND 12/31, THIS BOX MAY BE COLLECTED AS EARLY AS 12 NOON.", "nsi_id": "unitedstatespostalservice-a77078", "operator": "United States Postal Service", "operator:short": "USPS", "operator:type": "public", "operator:wikidata": "Q668687", "ref": "9220100029"}, "type": "Feature"}
{"geometry": {"coordinates": [-116.234187, 33.715687], "type": "Point"}, "id": "FnYuU00wkoPCzsE0bmp6VT5b7WI=", "properties": {"@source_uri": "https://tools.usps.com/UspsToolsRestServices/rest/POLocator/findLocations", "@spider": "usps_collection_boxes", "addr:city": "BERMUDA DUNES", "addr:country": "US", "addr:postcode": "92201", "addr:state": "CA", "addr:street_address": "82001 AVENIDA DEL MAR", "amenity": "post_box", "brand": "United States Postal Service", "brand:wikidata": "Q668687", "collection_times": "Mo-Sa 14:00", "note": "ON 12/24 AND 12/31, THIS BOX MAY BE COLLECTED AS EARLY AS 12 NOON.", "nsi_id": "unitedstatespostalservice-a77078", "operator": "United States Postal Service", "operator:short": "USPS", "operator:type": "public", "operator:wikidata": "Q668687", "ref": "9220100039"}, "type": "Feature"}
{"geometry": {"coordinates": [-116.253475, 33.714617], "type": "Point"}, "id": "U1Q0K0rQjDvaC5Rpr1Ztc-QeBtw=", "properties": {"@source_uri": "https://tools.usps.com/UspsToolsRestServices/rest/POLocator/findLocations", "@spider": "usps_collection_boxes", "addr:city": "BERMUDA DUNES", "addr:country": "US", "addr:postcode": "92201", "addr:state": "CA", "addr:street_address": "80845 AVENUE 46", "amenity": "post_box", "brand": "United States Postal Service", "brand:wikidata": "Q668687", "collection_times": "Mo-Sa 13:30", "note": "ON 12/24 AND 12/31, THIS BOX MAY BE COLLECTED AS EARLY AS 12 NOON.", "nsi_id": "unitedstatespostalservice-a77078", "operator": "United States Postal Service", "operator:short": "USPS", "operator:type": "public", "operator:wikidata": "Q668687", "ref": "9220100044"}, "type": "Feature"}
{"geometry": {"coordinates": [-116.249756, 33.709737], "type": "Point"}, "id": "FiHBVNdKbqSRp6Lkgv9XzDYDzso=", "properties": {"@source_uri": "https://tools.usps.com/UspsToolsRestServices/rest/POLocator/findLocations", "@spider": "usps_collection_boxes", "addr:city": "BERMUDA DUNES", "addr:country": "US", "addr:postcode": "92201", "addr:state": "CA", "addr:street_address": "46618 MADISON ST", "amenity": "post_box", "brand": "United States Postal Service", "brand:wikidata": "Q668687", "collection_times": "Mo-Sa 13:30", "note": "ON 12/24 AND 12/31, THIS BOX MAY BE COLLECTED AS EARLY AS 12 NOON.", "nsi_id": "unitedstatespostalservice-a77078", "operator": "United States Postal Service", "operator:short": "USPS", "operator:type": "public", "operator:wikidata": "Q668687", "ref": "9220100048"}, "type": "Feature"}
{"geometry": {"coordinates": [-116.240314, 33.707244], "type": "Point"}, "id": "210gqKPETioH9mYyYOngw4oN-PY=", "properties": {"@source_uri": "https://tools.usps.com/UspsToolsRestServices/rest/POLocator/findLocations", "@spider": "usps_collection_boxes", "addr:city": "BERMUDA DUNES", "addr:country": "US", "addr:postcode": "92201", "addr:state": "CA", "addr:street_address": "81709 DR CARREON BLVD", "amenity": "post_box", "brand": "United States Postal Service", "brand:wikidata": "Q668687", "collection_times": "Mo-Sa 14:00", "note": "ON 12/24 AND 12/31, THIS BOX MAY BE COLLECTED AS EARLY AS 12 NOON.", "nsi_id": "unitedstatespostalservice-a77078", "operator": "United States Postal Service", "operator:short": "USPS", "operator:type": "public", "operator:wikidata": "Q668687", "ref": "9220100051"}, "type": "Feature"}
{"geometry": {"coordinates": [-116.2516662444, 33.7385116317], "type": "Point"}, "id": "dSU6zjviDOdPwoNIBvEGMrRpNoQ=", "properties": {"@source_uri": "https://tools.usps.com/UspsToolsRestServices/rest/POLocator/findLocations", "@spider": "usps_collection_boxes", "addr:city": "BERMUDA DUNES", "addr:country": "US", "addr:postcode": "92201", "addr:state": "CA", "addr:street_address": "80975 INDIO BLVD", "amenity": "post_box", "brand": "United States Postal Service", "brand:wikidata": "Q668687", "collection_times": "Mo-Sa 13:00", "note": "ON 12/24 AND 12/31, THIS BOX MAY BE COLLECTED AS EARLY AS 12 NOON.", "nsi_id": "unitedstatespostalservice-a77078", "operator": "United States Postal Service", "operator:short": "USPS", "operator:type": "public", "operator:wikidata": "Q668687", "ref": "9220100056"}, "type": "Feature"}
{"geometry": {"coordinates": [-116.220294, 33.714045], "type": "Point"}, "id": "4FgU5zayJ4uQ-HtZZHKGkZYHC9c=", "properties": {"@source_uri": "https://tools.usps.com/UspsToolsRestServices/rest/POLocator/findLocations", "@spider": "usps_collection_boxes", "addr:city": "BERMUDA DUNES", "addr:country": "US", "addr:postcode": "92201", "addr:state": "CA", "addr:street_address": "46200 OASIS ST", "amenity": "post_box", "brand": "United States Postal Service", "brand:wikidata": "Q668687", "collection_times": "Mo-Sa 14:00", "note": "ON 12/24 AND 12/31, THIS BOX MAY BE COLLECTED AS EARLY AS 12 NOON.", "nsi_id": "unitedstatespostalservice-a77078", "operator": "United States Postal Service", "operator:short": "USPS", "operator:type": "public", "operator:wikidata": "Q668687", "ref": "9220100058"}, "type": "Feature"}
{"geometry": {"coordinates": [-116.216924047, 33.715764], "type": "Point"}, "id": "Ez_H9cdV-04XMi55YZPMvlXVZ3k=", "properties": {"@source_uri": "https://tools.usps.com/UspsToolsRestServices/rest/POLocator/findLocations", "@spider": "usps_collection_boxes", "addr:city": "BERMUDA DUNES", "addr:country": "US", "addr:postcode": "92201", "addr:state": "CA", "addr:street_address": "45805 FARGO ST", "amenity": "post_box", "brand": "United States Postal Service", "brand:wikidata": "Q668687", "collection_times": "Mo-Sa 17:00", "note": "ON 12/24 AND 12/31, THIS BOX MAY BE COLLECTED AS EARLY AS 12 NOON.", "nsi_id": "unitedstatespostalservice-a77078", "operator": "United States Postal Service", "operator:short": "USPS", "operator:type": "public", "operator:wikidata": "Q668687", "ref": "9220100062"}, "type": "Feature"}
{"geometry": {"coordinates": [-116.216949296, 33.716097201], "type": "Point"}, "id": "ap75VJbgoLz_IHgkKFa6eG0sQGM=", "properties": {"@source_uri": "https://tools.usps.com/UspsToolsRestServices/rest/POLocator/findLocations", "@spider": "usps_collection_boxes", "addr:city": "BERMUDA DUNES", "addr:country": "US", "addr:postcode": "92201", "addr:state": "CA", "addr:street_address": "45805 FARGO ST", "amenity": "post_box", "brand": "United States Postal Service", "brand:wikidata": "Q668687", "collection_times": "Mo-Sa 17:00", "note": "ON 12/24 AND 12/31, THIS BOX MAY BE COLLECTED AS EARLY AS 12 NOON.", "nsi_id": "unitedstatespostalservice-a77078", "operator": "United States Postal Service", "operator:short": "USPS", "operator:type": "public", "operator:wikidata": "Q668687", "ref": "9220100063"}, "type": "Feature"}
{"geometry": {"coordinates": [-115.720643, 33.661123], "type": "Point"}, "id": "46KzZu6St79EmErksNDouZ8QfYE=", "properties": {"@source_uri": "https://tools.usps.com/UspsToolsRestServices/rest/POLocator/findLocations", "@spider": "usps_collection_boxes", "addr:city": "BERMUDA DUNES", "addr:country": "US", "addr:postcode": "92201", "addr:state": "CA", "addr:street_address": "62450 CHIRIACO RD", "amenity": "post_box", "brand": "United States Postal Service", "brand:wikidata": "Q668687", "collection_times": "Mo-Sa 10:00", "nsi_id": "unitedstatespostalservice-a77078", "operator": "United States Postal Service", "operator:short": "USPS", "operator:type": "public", "operator:wikidata": "Q668687", "ref": "9220100064"}, "type": "Feature"}
{"geometry": {"coordinates": [-116.216949296, 33.716097201], "type": "Point"}, "id": "-tAzKG2zwzL_8THRDHrfI-ifeMg=", "properties": {"@source_uri": "https://tools.usps.com/UspsToolsRestServices/rest/POLocator/findLocations", "@spider": "usps_collection_boxes", "addr:city": "BERMUDA DUNES", "addr:country": "US", "addr:postcode": "92201", "addr:state": "CA", "addr:street_address": "45805 FARGO ST", "amenity": "post_box", "brand": "United States Postal Service", "brand:wikidata": "Q668687", "collection_times": "Mo-Sa 17:00", "note": "ON 12/24 AND 12/31, THIS BOX MAY BE COLLECTED AS EARLY AS 12 NOON.", "nsi_id": "unitedstatespostalservice-a77078", "operator": "United States Postal Service", "operator:short": "USPS", "operator:type": "public", "operator:wikidata": "Q668687", "ref": "9220100069"}, "type": "Feature"}
{"geometry": {"coordinates": [-116.2169240475, 33.715764], "type": "Point"}, "id": "Jy3wwQVsnW4MDUwr0S51lmqDu-4=", "properties": {"@source_uri": "https://tools.usps.com/UspsToolsRestServices/rest/POLocator/findLocations", "@spider": "usps_collection_boxes", "addr:city": "BERMUDA DUNES", "addr:country": "US", "addr:postcode": "92201", "addr:state": "CA", "addr:street_address": "45805 FARGO ST", "amenity": "post_box", "brand": "United States Postal Service", "brand:wikidata": "Q668687", "collection_times": "Mo-Fr 17:00", "indoor": "yes", "note": "ON 12/24 AND 12/31, THIS BOX MAY BE COLLECTED AS EARLY AS 12 NOON.", "nsi_id": "unitedstatespostalservice-a77078", "operator": "United States Postal Service", "operator:short": "USPS", "operator:type": "public", "operator:wikidata": "Q668687", "ref": "9220100073"}, "type": "Feature"}
{"geometry": {"coordinates": [-116.285608402, 33.743636911], "type": "Point"}, "id": "90Kp0P3mBgWvWbrbbvTO80qCQa8=", "properties": {"@source_uri": "https://tools.usps.com/UspsToolsRestServices/rest/POLocator/findLocations", "@spider": "usps_collection_boxes", "addr:city": "LA QUINTA", "addr:country": "US", "addr:postcode": "92203", "addr:state": "CA", "addr:street_address": "79041 AVENUE 42", "amenity": "post_box", "brand": "United States Postal Service", "brand:wikidata": "Q668687", "collection_times": "Mo-Sa 13:00", "note": "ON 12/24 AND 12/31, THIS BOX MAY BE COLLECTED AS EARLY AS 12 NOON.", "nsi_id": "unitedstatespostalservice-a77078", "operator": "United States Postal Service", "operator:short": "USPS", "operator:type": "public", "operator:wikidata": "Q668687", "ref": "9220300001"}, "type": "Feature"}
{"geometry": {"coordinates": [-116.337946, 33.722343], "type": "Point"}, "id": "4LwalMnayJ11cWa1lfLJlGl-RUc=", "properties": {"@source_uri": "https://tools.usps.com/UspsToolsRestServices/rest/POLocator/findLocations", "@spider": "usps_collection_boxes", "addr:city": "PALM DESERT", "addr:country": "US", "addr:postcode": "92210", "addr:state": "CA", "addr:street_address": "44950 ELDORADO DR", "amenity": "post_box", "brand": "United States Postal Service", "brand:wikidata": "Q668687", "collection_times": "Mo-Sa 11:00", "nsi_id": "unitedstatespostalservice-a77078", "operator": "United States Postal Service", "operator:short": "USPS", "operator:type": "public", "operator:wikidata": "Q668687", "ref": "9221000004"}, "type": "Feature"}
{"geometry": {"coordinates": [-116.357585, 33.722169], "type": "Point"}, "id": "qQXPXeHlFT9kW8Y5uQlKULmohEE=", "properties": {"@source_uri": "https://tools.usps.com/UspsToolsRestServices/rest/POLocator/findLocations", "@spider": "usps_collection_boxes", "addr:city": "PALM DESERT", "addr:country": "US", "addr:postcode": "92210", "addr:state": "CA", "addr:street_address": "74916 US HIGHWAY 111", "amenity": "post_box", "brand": "United States Postal Service", "brand:wikidata": "Q668687", "collection_times": "Mo-Sa 12:00", "nsi_id": "unitedstatespostalservice-a77078", "operator": "United States Postal Service", "operator:short": "USPS", "operator:type": "public", "operator:wikidata": "Q668687", "ref": "9221000008"}, "type": "Feature"}
{"geometry": {"coordinates": [-116.357724, 33.720579], "type": "Point"}, "id": "gzRJFYZCOJLaMdhUri8vDpukE5M=", "properties": {"@source_uri": "https://tools.usps.com/UspsToolsRestServices/rest/POLocator/findLocations", "@spider": "usps_collection_boxes", "addr:city": "PALM DESERT", "addr:country": "US", "addr:postcode": "92210", "addr:state": "CA", "addr:street_address": "74955 US HIGHWAY 111", "amenity": "post_box", "brand": "United States Postal Service", "brand:wikidata": "Q668687", "collection_times": "Mo-Sa 12:00", "nsi_id": "unitedstatespostalservice-a77078", "operator": "United States Postal Service", "operator:short": "USPS", "operator:type": "public", "operator:wikidata": "Q668687", "ref": "9221000010"}, "type": "Feature"}
{"geometry": {"coordinates": [-116.360466, 33.722916], "type": "Point"}, "id": "h23NRS_muZuHtnnl6hmQ8YK_AhM=", "properties": {"@source_uri": "https://tools.usps.com/UspsToolsRestServices/rest/POLocator/findLocations", "@spider": "usps_collection_boxes", "addr:city": "PALM DESERT", "addr:country": "US", "addr:postcode": "92210", "addr:state": "CA", "addr:street_address": "74800 VILLAGE CENTER DR", "amenity": "post_box", "brand": "United States Postal Service", "brand:wikidata": "Q668687", "collection_times": "Mo-Sa 12:00", "nsi_id": "unitedstatespostalservice-a77078", "operator": "United States Postal Service", "operator:short": "USPS", "operator:type": "public", "operator:wikidata": "Q668687", "ref": "9221000011"}, "type": "Feature"}
{"geometry": {"coordinates": [-116.354931167, 33.74627712], "type": "Point"}, "id": "zp1lhB3veK515YHE-xBmlES4riw=", "properties": {"@source_uri": "https://tools.usps.com/UspsToolsRestServices/rest/POLocator/findLocations", "@spider": "usps_collection_boxes", "addr:city": "PALM DESERT", "addr:country": "US", "addr:postcode": "92211", "addr:state": "CA", "addr:street_address": "41865 BOARDWALK", "amenity": "post_box", "brand": "United States Postal Service", "brand:wikidata": "Q668687", "collection_times": "Mo-Sa 10:00", "nsi_id": "unitedstatespostalservice-a77078", "operator": "United States Postal Service", "operator:short": "USPS", "operator:type": "public", "operator:wikidata": "Q668687", "ref": "9221100001"}, "type": "Feature"}
{"geometry": {"coordinates": [-116.3039550869, 33.741441], "type": "Point"}, "id": "mNDGptiV_0Sja0jFJLjFNyntF1M=", "properties": {"@source_uri": "https://tools.usps.com/UspsToolsRestServices/rest/POLocator/findLocations", "@spider": "usps_collection_boxes", "addr:city": "PALM DESERT", "addr:country": "US", "addr:postcode": "92211", "addr:state": "CA", "addr:street_address": "42335 WASHINGTON ST", "amenity": "post_box", "brand": "United States Postal Service", "brand:wikidata": "Q668687", "collection_times": "Mo-Sa 10:00", "nsi_id": "unitedstatespostalservice-a77078", "operator": "United States Postal Service", "operator:short": "USPS", "operator:type": "public", "operator:wikidata": "Q668687", "ref": "9221100008"}, "type": "Feature"}
{"geometry": {"coordinates": [-116.305816, 33.747172], "type": "Point"}, "id": "swlwgxFY0OsJjHDG9XJ7S0XsvyI=", "properties": {"@source_uri": "https://tools.usps.com/UspsToolsRestServices/rest/POLocator/findLocations", "@spider": "usps_collection_boxes", "addr:city": "PALM DESERT", "addr:country": "US", "addr:postcode": "92211", "addr:state": "CA", "addr:street_address": "41555 WOODHAVEN DR E", "amenity": "post_box", "brand": "United States Postal Service", "brand:wikidata": "Q668687", "collection_times": "Mo-Sa 12:00", "nsi_id": "unitedstatespostalservice-a77078", "operator": "United States Postal Service", "operator:short": "USPS", "operator:type": "public", "operator:wikidata": "Q668687", "ref": "9221100009"}, "type": "Feature"}
{"geometry": {"coordinates": [-116.30668, 33.761885], "type": "Point"}, "id": "tLrx-U8iGaN0qmin5fQ0UYVJ4Ck=", "properties": {"@source_uri": "https://tools.usps.com/UspsToolsRestServices/rest/POLocator/findLocations", "@spider": "usps_collection_boxes", "addr:city": "PALM DESERT", "addr:country": "US", "addr:postcode": "92211", "addr:state": "CA", "addr:street_address": "77777 COUNTRY CLUB DR", "amenity": "post_box", "brand": "United States Postal Service", "brand:wikidata": "Q668687", "collection_times": "Mo-Sa 11:00", "nsi_id": "unitedstatespostalservice-a77078", "operator": "United States Postal Service", "operator:short": "USPS", "operator:type": "public", "operator:wikidata": "Q668687", "ref": "9221100010"}, "type": "Feature"}
{"geometry": {"coordinates": [-116.3114319725, 33.7587959849], "type": "Point"}, "id": "Xfumm_m9V38mVjYtvXlpGZAwwQQ=", "properties": {"@source_uri": "https://tools.usps.com/UspsToolsRestServices/rest/POLocator/findLocations", "@spider": "usps_collection_boxes", "addr:city": "PALM DESERT", "addr:country": "US", "addr:postcode": "92211", "addr:state": "CA", "addr:street_address": "77564 COUNTRY CLUB DR", "amenity": "post_box", "brand": "United States Postal Service", "brand:wikidata": "Q668687", "collection_times": "Mo-Sa 10:00", "nsi_id": "unitedstatespostalservice-a77078", "operator": "United States Postal Service", "operator:short": "USPS", "operator:type": "public", "operator:wikidata": "Q668687", "ref": "9221100013"}, "type": "Feature"}
{"geometry": {"coordinates": [-116.329992, 33.763783], "type": "Point"}, "id": "dIbKJqKk8V1oDYgCGbfJyza3xdE=", "properties": {"@source_uri": "https://tools.usps.com/UspsToolsRestServices/rest/POLocator/findLocations", "@spider": "usps_collection_boxes", "addr:city": "PALM DESERT", "addr:country": "US", "addr:postcode": "92211", "addr:state": "CA", "addr:street_address": "76501 BEGONIA LN", "amenity": "post_box", "brand": "United States Postal Service", "brand:wikidata": "Q668687", "collection_times": "Mo-Sa 11:00", "nsi_id": "unitedstatespostalservice-a77078", "operator": "United States Postal Service", "operator:short": "USPS", "operator:type": "public", "operator:wikidata": "Q668687", "ref": "9221100015"}, "type": "Feature"}
{"geometry": {"coordinates": [-116.292295, 33.771616], "type": "Point"}, "id": "G33GV7wzDoe7hhmKzQy9pgUh4XY=", "properties": {"@source_uri": "https://tools.usps.com/UspsToolsRestServices/rest/POLocator/findLocations", "@spider": "usps_collection_boxes", "addr:city": "PALM DESERT", "addr:country": "US", "addr:postcode": "92211", "addr:state": "CA", "addr:street_address": "38180 DEL WEBB BLVD", "amenity": "post_box", "brand": "United States Postal Service", "brand:wikidata": "Q668687", "collection_times": "Mo-Sa 10:00", "nsi_id": "unitedstatespostalservice-a77078", "operator": "United States Postal Service", "operator:short": "USPS", "operator:type": "public", "operator:wikidata": "Q668687", "ref": "9221100016"}, "type": "Feature"}
{"geometry": {"coordinates": [-116.292615, 33.783149], "type": "Point"}, "id": "3XU-jSXZ_m1Qqqun81Gg3Gc55ng=", "properties": {"@source_uri": "https://tools.usps.com/UspsToolsRestServices/rest/POLocator/findLocations", "@spider": "usps_collection_boxes", "addr:city": "PALM DESERT", "addr:country": "US", "addr:postcode": "92211", "addr:state": "CA", "addr:street_address": "36890 DEL WEBB BLVD", "amenity": "post_box", "brand": "United States Postal Service", "brand:wikidata": "Q668687", "collection_times": "Mo-Sa 10:00", "nsi_id": "unitedstatespostalservice-a77078", "operator": "United States Postal Service", "operator:short": "USPS", "operator:type": "public", "operator:wikidata": "Q668687", "ref": "9221100020"}, "type": "Feature"}
{"geometry": {"coordinates": [-116.357609, 33.780034], "type": "Point"}, "id": "RuXOrphiFxv1rOJJKc2FJt8xLsU=", "properties": {"@source_uri": "https://tools.usps.com/UspsToolsRestServices/rest/POLocator/findLocations", "@spider": "usps_collection_boxes", "addr:city": "PALM DESERT", "addr:country": "US", "addr:postcode": "92211", "addr:state": "CA", "addr:street_address": "36953 COOK ST STE 104", "amenity": "post_box", "brand": "United States Postal Service", "brand:wikidata": "Q668687", "collection_times": "Mo-Fr 10:00", "nsi_id": "unitedstatespostalservice-a77078", "operator": "United States Postal Service", "operator:short": "USPS", "operator:type": "public", "operator:wikidata": "Q668687", "ref": "9221100021"}, "type": "Feature"}
{"geometry": {"coordinates": [-116.940764, 33.917642], "type": "Point"}, "id": "oEdDcP23YghzYMpdyYe9HQE8Iwc=", "properties": {"@source_uri": "https://tools.usps.com/UspsToolsRestServices/rest/POLocator/findLocations", "@spider": "usps_collection_boxes", "addr:city": "BANNING", "addr:country": "US", "addr:postcode": "92220", "addr:state": "CA", "addr:street_address": "850 COUNTRY CLUB DR", "amenity": "post_box", "brand": "United States Postal Service", "brand:wikidata": "Q668687", "collection_times": "Mo-Sa 14:00", "note": "ON 12/24 AND 12/31, THIS BOX MAY BE COLLECTED AS EARLY AS 12 NOON.", "nsi_id": "unitedstatespostalservice-a77078", "operator": "United States Postal Service", "operator:short": "USPS", "operator:type": "public", "operator:wikidata": "Q668687", "ref": "9222000003"}, "type": "Feature"}
{"geometry": {"coordinates": [-116.9117406755, 33.9269971509], "type": "Point"}, "id": "KuVBnmeIGBTSPpo15TWVRzskLZQ=", "properties": {"@source_uri": "https://tools.usps.com/UspsToolsRestServices/rest/POLocator/findLocations", "@spider": "usps_collection_boxes", "addr:city": "BANNING", "addr:country": "US", "addr:postcode": "92220", "addr:state": "CA", "addr:street_address": "158 N SUNSET AVE", "amenity": "post_box", "brand": "United States Postal Service", "brand:wikidata": "Q668687", "collection_times": "Mo-Sa 14:00", "note": "ON 12/24 AND 12/31, THIS BOX MAY BE COLLECTED AS EARLY AS 12 NOON.", "nsi_id": "unitedstatespostalservice-a77078", "operator": "United States Postal Service", "operator:short": "USPS", "operator:type": "public", "operator:wikidata": "Q668687", "ref": "9222000004"}, "type": "Feature"}
{"geometry": {"coordinates": [-116.8792, 33.928885], "type": "Point"}, "id": "ndOnvD1oGQBJu5aD-jmdeAeaA7I=", "properties": {"@source_uri": "https://tools.usps.com/UspsToolsRestServices/rest/POLocator/findLocations", "@spider": "usps_collection_boxes", "addr:city": "BANNING", "addr:country": "US", "addr:postcode": "92220", "addr:state": "CA", "addr:street_address": "600 N HIGHLAND SPRINGS AVE", "amenity": "post_box", "brand": "United States Postal Service", "brand:wikidata": "Q668687", "collection_times": "Mo-Sa 14:00", "note": "ON 12/24 AND 12/31, THIS BOX MAY BE COLLECTED AS EARLY AS 12 NOON.", "nsi_id": "unitedstatespostalservice-a77078", "operator": "United States Postal Service", "operator:short": "USPS", "operator:type": "public", "operator:wikidata": "Q668687", "ref": "9222000008"}, "type": "Feature"}
{"geometry": {"coordinates": [-116.8741070371, 33.926990984], "type": "Point"}, "id": "C0jQqVmVBnjjNaQijpASXOHDcJw=", "properties": {"@source_uri": "https://tools.usps.com/UspsToolsRestServices/rest/POLocator/findLocations", "@spider": "usps_collection_boxes", "addr:city": "BANNING", "addr:country": "US", "addr:postcode": "92220", "addr:state": "CA", "addr:street_address": "176 N ALESSANDRO ST", "amenity": "post_box", "brand": "United States Postal Service", "brand:wikidata": "Q668687", "collection_times": "Mo-Fr 17:00; Sa 16:00", "note": "ON 12/24 AND 12/31, THIS BOX MAY BE COLLECTED AS EARLY AS 12 NOON.", "nsi_id": "unitedstatespostalservice-a77078", "operator": "United States Postal Service", "operator:short": "USPS", "operator:type": "public", "operator:wikidata": "Q668687", "ref": "9222000011"}, "type": "Feature"}
{"geometry": {"coordinates": [-116.917861165, 33.932500514], "type": "Point"}, "id": "Pvjku5sD8mpT9kLeCkWPfNO2Dw4=", "properties": {"@source_uri": "https://tools.usps.com/UspsToolsRestServices/rest/POLocator/findLocations", "@spider": "usps_collection_boxes", "addr:city": "BANNING", "addr:country": "US", "addr:postcode": "92220", "addr:state": "CA", "addr:street_address": "3800 W WILSON ST", "amenity": "post_box", "brand": "United States Postal Service", "brand:wikidata": "Q668687", "collection_times": "Mo-Sa 14:00", "note": "ON 12/24 AND 12/31, THIS BOX MAY BE COLLECTED AS EARLY AS 12 NOON.", "nsi_id": "unitedstatespostalservice-a77078", "operator": "United States Postal Service", "operator:short": "USPS", "operator:type": "public", "operator:wikidata": "Q668687", "ref": "9222000013"}, "type": "Feature"}
{"geometry": {"coordinates": [-116.8982921524, 33.9254297732], "type": "Point"}, "id": "Idmwd-CObGGkfrWXQl7wYTrRBVI=", "properties": {"@source_uri": "https://tools.usps.com/UspsToolsRestServices/rest/POLocator/findLocations", "@spider": "usps_collection_boxes", "addr:city": "BANNING", "addr:country": "US", "addr:postcode": "92220", "addr:state": "CA", "addr:street_address": "1964 W RAMSEY ST", "amenity": "post_box", "brand": "United States Postal Service", "brand:wikidata": "Q668687", "collection_times": "Mo-Sa 12:00", "nsi_id": "unitedstatespostalservice-a77078", "operator": "United States Postal Service", "operator:short": "USPS", "operator:type": "public", "operator:wikidata": "Q668687", "ref": "9222000015"}, "type": "Feature"}
{"geometry": {"coordinates": [-116.945802, 33.930621], "type": "Point"}, "id": "2W5SHyavCdnMosYgeFWXk-FUxis=", "properties": {"@source_uri": "https://tools.usps.com/UspsToolsRestServices/rest/POLocator/findLocations", "@spider": "usps_collection_boxes", "addr:city": "BANNING", "addr:country": "US", "addr:postcode": "92220", "addr:state": "CA", "addr:street_address": "264 N HIGHLAND SPRINGS AVE", "amenity": "post_box", "brand": "United States Postal Service", "brand:wikidata": "Q668687", "collection_times": "Mo-Sa 14:00", "note": "ON 12/24 AND 12/31, THIS BOX MAY BE COLLECTED AS EARLY AS 12 NOON.", "nsi_id": "unitedstatespostalservice-a77078", "operator": "United States Postal Service", "operator:short": "USPS", "operator:type": "public", "operator:wikidata": "Q668687", "ref": "9222000019"}, "type": "Feature"}
{"geometry": {"coordinates": [-116.8745674486, 33.9269777602], "type": "Point"}, "id": "ClJQ0Ybi6lvGITfUy4224J2K0YU=", "properties": {"@source_uri": "https://tools.usps.com/UspsToolsRestServices/rest/POLocator/findLocations", "@spider": "usps_collection_boxes", "addr:city": "BANNING", "addr:country": "US", "addr:postcode": "92220", "addr:state": "CA", "addr:street_address": "176 N ALESSANDRO ST", "amenity": "post_box", "brand": "United States Postal Service", "brand:wikidata": "Q668687", "collection_times": "Mo-Fr 16:30", "indoor": "yes", "note": "ON 12/24 AND 12/31, THIS BOX MAY BE COLLECTED AS EARLY AS 12 NOON.", "nsi_id": "unitedstatespostalservice-a77078", "operator": "United States Postal Service", "operator:short": "USPS", "operator:type": "public", "operator:wikidata": "Q668687", "ref": "9222000031"}, "type": "Feature"}
{"geometry": {"coordinates": [-114.5560974443, 32.795649471], "type": "Point"}, "id": "QKMTdksqUZCo7vE5DQUu6KMbfSw=", "properties": {"@source_uri": "https://tools.usps.com/UspsToolsRestServices/rest/POLocator/findLocations", "@spider": "usps_collection_boxes", "addr:city": "BARD", "addr:country": "US", "addr:postcode": "92222", "addr:state": "CA", "addr:street_address": "1280 BARD RD", "amenity": "post_box", "brand": "United States Postal Service", "brand:wikidata": "Q668687", "collection_times": "Mo-Fr 12:30", "indoor": "yes", "note": "ON 12/24 AND 12/31, THIS BOX MAY BE COLLECTED AS EARLY AS 12 NOON.", "nsi_id": "unitedstatespostalservice-a77078", "operator": "United States Postal Service", "operator:short": "USPS", "operator:type": "public", "operator:wikidata": "Q668687", "ref": "9222200003"}, "type": "Feature"}
{"geometry": {"coordinates": [-116.9498920147, 33.9284280194], "type": "Point"}, "id": "-il89M5LNJPcYX2hPK9R9LQkG7Y=", "properties": {"@source_uri": "https://tools.usps.com/UspsToolsRestServices/rest/POLocator/findLocations", "@spider": "usps_collection_boxes", "addr:city": "CHERRY VALLEY", "addr:country": "US", "addr:postcode": "92223", "addr:state": "CA", "addr:street_address": "1661 E 6TH ST", "amenity": "post_box", "brand": "United States Postal Service", "brand:wikidata": "Q668687", "collection_times": "Mo-Sa 13:30", "note": "ON 12/24 AND 12/31, THIS BOX MAY BE COLLECTED AS EARLY AS 12 NOON.", "nsi_id": "unitedstatespostalservice-a77078", "operator": "United States Postal Service", "operator:short": "USPS", "operator:type": "public", "operator:wikidata": "Q668687", "ref": "9222300003"}, "type": "Feature"}
{"geometry": {"coordinates": [-116.9771553422, 33.9348362165], "type": "Point"}, "id": "JLfFmAy4_AwtlRcdnDkOnNJDZDM=", "properties": {"@source_uri": "https://tools.usps.com/UspsToolsRestServices/rest/POLocator/findLocations", "@spider": "usps_collection_boxes", "addr:city": "CHERRY VALLEY", "addr:country": "US", "addr:postcode": "92223", "addr:state": "CA", "addr:street_address": "950 BEAUMONT AVE", "amenity": "post_box", "brand": "United States Postal Service", "brand:wikidata": "Q668687", "collection_times": "Mo-Fr 17:00; Sa 15:00", "note": "ON 12/24 AND 12/31, THIS BOX MAY BE COLLECTED AS EARLY AS 12 NOON.", "nsi_id": "unitedstatespostalservice-a77078", "operator": "United States Postal Service", "operator:short": "USPS", "operator:type": "public", "operator:wikidata": "Q668687", "ref": "9222300005"}, "type": "Feature"}
{"geometry": {"coordinates": [-116.948493, 33.962408], "type": "Point"}, "id": "AGYRhn34y44Visy6uFPW_Tviw58=", "properties": {"@source_uri": "https://tools.usps.com/UspsToolsRestServices/rest/POLocator/findLocations", "@spider": "usps_collection_boxes", "addr:city": "CHERRY VALLEY", "addr:country": "US", "addr:postcode": "92223", "addr:state": "CA", "addr:street_address": "10941 DEERFIELD DR", "amenity": "post_box", "brand": "United States Postal Service", "brand:wikidata": "Q668687", "collection_times": "Mo-Sa 13:30", "note": "ON 12/24 AND 12/31, THIS BOX MAY BE COLLECTED AS EARLY AS 12 NOON.", "nsi_id": "unitedstatespostalservice-a77078", "operator": "United States Postal Service", "operator:short": "USPS", "operator:type": "public", "operator:wikidata": "Q668687", "ref": "9222300008"}, "type": "Feature"}
{"geometry": {"coordinates": [-116.9743150628, 33.9294285], "type": "Point"}, "id": "UujrKutMroNE4T3TISC_uqdcQo0=", "properties": {"@source_uri": "https://tools.usps.com/UspsToolsRestServices/rest/POLocator/findLocations", "@spider": "usps_collection_boxes", "addr:city": "CHERRY VALLEY", "addr:country": "US", "addr:postcode": "92223", "addr:state": "CA", "addr:street_address": "600 ORANGE AVE", "amenity": "post_box", "brand": "United States Postal Service", "brand:wikidata": "Q668687", "collection_times": "Mo-Sa 13:30", "note": "ON 12/24 AND 12/31, THIS BOX MAY BE COLLECTED AS EARLY AS 12 NOON.", "nsi_id": "unitedstatespostalservice-a77078", "operator": "United States Postal Service", "operator:short": "USPS", "operator:type": "public", "operator:wikidata": "Q668687", "ref": "9222300012"}, "type": "Feature"}
{"geometry": {"coordinates": [-116.974746, 33.957878], "type": "Point"}, "id": "kOk9XgzpQZT_vMyeKCOTJL1uoI0=", "properties": {"@source_uri": "https://tools.usps.com/UspsToolsRestServices/rest/POLocator/findLocations", "@spider": "usps_collection_boxes", "addr:city": "CHERRY VALLEY", "addr:country": "US", "addr:postcode": "92223", "addr:state": "CA", "addr:street_address": "1740 VASILI LN", "amenity": "post_box", "brand": "United States Postal Service", "brand:wikidata": "Q668687", "collection_times": "Mo-Sa 13:30", "note": "ON 12/24 AND 12/31, THIS BOX MAY BE COLLECTED AS EARLY AS 12 NOON.", "nsi_id": "unitedstatespostalservice-a77078", "operator": "United States Postal Service", "operator:short": "USPS", "operator:type": "public", "operator:wikidata": "Q668687", "ref": "9222300020"}, "type": "Feature"}
{"geometry": {"coordinates": [-116.9771498831, 33.9347704191], "type": "Point"}, "id": "H_zGgi-P6z28Pq6nfswssfXWqC8=", "properties": {"@source_uri": "https://tools.usps.com/UspsToolsRestServices/rest/POLocator/findLocations", "@spider": "usps_collection_boxes", "addr:city": "CHERRY VALLEY", "addr:country": "US", "addr:postcode": "92223", "addr:state": "CA", "addr:street_address": "950 BEAUMONT AVE", "amenity": "post_box", "brand": "United States Postal Service", "brand:wikidata": "Q668687", "collection_times": "Mo-Fr 16:30", "indoor": "yes", "note": "ON 12/24 AND 12/31, THIS BOX MAY BE COLLECTED AS EARLY AS 12 NOON.", "nsi_id": "unitedstatespostalservice-a77078", "operator": "United States Postal Service", "operator:short": "USPS", "operator:type": "public", "operator:wikidata": "Q668687", "ref": "9222300031"}, "type": "Feature"}
{"geometry": {"coordinates": [-114.5954541898, 33.6121515364], "type": "Point"}, "id": "FYB1iOSt9nWVjakxMTjj4J5VwBE=", "properties": {"@source_uri": "https://tools.usps.com/UspsToolsRestServices/rest/POLocator/findLocations", "@spider": "usps_collection_boxes", "addr:city": "BLYTHE", "addr:country": "US", "addr:postcode": "92225", "addr:state": "CA", "addr:street_address": "200 E MURPHY ST", "amenity": "post_box", "brand": "United States Postal Service", "brand:wikidata": "Q668687", "collection_times": "Mo-Sa 15:15", "note": "ON 12/24 AND 12/31, THIS BOX MAY BE COLLECTED AS EARLY AS 12 NOON.", "nsi_id": "unitedstatespostalservice-a77078", "operator": "United States Postal Service", "operator:short": "USPS", "operator:type": "public", "operator:wikidata": "Q668687", "ref": "9222500015"}, "type": "Feature"}
{"geometry": {"coordinates": [-114.5954541898, 33.6121515364], "type": "Point"}, "id": "GRz_CfTQRRgsNk8fqVANWACE5Uc=", "properties": {"@source_uri": "https://tools.usps.com/UspsToolsRestServices/rest/POLocator/findLocations", "@spider": "usps_collection_boxes", "addr:city": "BLYTHE", "addr:country": "US", "addr:postcode": "92225", "addr:state": "CA", "addr:street_address": "200 E MURPHY ST", "amenity": "post_box", "brand": "United States Postal Service", "brand:wikidata": "Q668687", "collection_times": "Mo-Sa 15:15", "note": "ON 12/24 AND 12/31, THIS BOX MAY BE COLLECTED AS EARLY AS 12 NOON.", "nsi_id": "unitedstatespostalservice-a77078", "operator": "United States Postal Service", "operator:short": "USPS", "operator:type": "public", "operator:wikidata": "Q668687", "ref": "9222500024"}, "type": "Feature"}
{"geometry": {"coordinates": [-114.474857, 34.012542], "type": "Point"}, "id": "YkDhktX9QHZRi6WzwLHcbScHMcg=", "properties": {"@source_uri": "https://tools.usps.com/UspsToolsRestServices/rest/POLocator/findLocations", "@spider": "usps_collection_boxes", "addr:city": "BLYTHE", "addr:country": "US", "addr:postcode": "92225", "addr:state": "CA", "addr:street_address": "42500 HIGHWAY 95", "amenity": "post_box", "brand": "United States Postal Service", "brand:wikidata": "Q668687", "collection_times": "Mo-Sa 10:00", "nsi_id": "unitedstatespostalservice-a77078", "operator": "United States Postal Service", "operator:short": "USPS", "operator:type": "public", "operator:wikidata": "Q668687", "ref": "9222500027"}, "type": "Feature"}
{"geometry": {"coordinates": [-114.5954541898, 33.6121515364], "type": "Point"}, "id": "gGeWmPn0oeJwXpMFGbdGWAr-4WI=", "properties": {"@source_uri": "https://tools.usps.com/UspsToolsRestServices/rest/POLocator/findLocations", "@spider": "usps_collection_boxes", "addr:city": "BLYTHE", "addr:country": "US", "addr:postcode": "92225", "addr:state": "CA", "addr:street_address": "200 E MURPHY ST", "amenity": "post_box", "brand": "United States Postal Service", "brand:wikidata": "Q668687", "collection_times": "Mo-Fr 15:15", "indoor": "yes", "note": "ON 12/24 AND 12/31, THIS BOX MAY BE COLLECTED AS EARLY AS 12 NOON.", "nsi_id": "unitedstatespostalservice-a77078", "operator": "United States Postal Service", "operator:short": "USPS", "operator:type": "public", "operator:wikidata": "Q668687", "ref": "9222500029"}, "type": "Feature"}
{"geometry": {"coordinates": [-115.534971, 32.9786494538], "type": "Point"}, "id": "GIBk-ZqVJAHuvuMCAlzGfqanuGA=", "properties": {"@source_uri": "https://tools.usps.com/UspsToolsRestServices/rest/POLocator/findLocations", "@spider": "usps_collection_boxes", "addr:city": "BRAWLEY", "addr:country": "US", "addr:postcode": "92227", "addr:state": "CA", "addr:street_address": "401 MAIN ST", "amenity": "post_box", "brand": "United States Postal Service", "brand:wikidata": "Q668687", "collection_times": "Mo-Sa 14:45", "note": "ON 12/24 AND 12/31, THIS BOX MAY BE COLLECTED AS EARLY AS 12 NOON.", "nsi_id": "unitedstatespostalservice-a77078", "operator": "United States Postal Service", "operator:short": "USPS", "operator:type": "public", "operator:wikidata": "Q668687", "ref": "9222700002"}, "type": "Feature"}
{"geometry": {"coordinates": [-115.534971, 32.9786494538], "type": "Point"}, "id": "_jpWVQanVK7Kg98FSY4FB2gWBmc=", "properties": {"@source_uri": "https://tools.usps.com/UspsToolsRestServices/rest/POLocator/findLocations", "@spider": "usps_collection_boxes", "addr:city": "BRAWLEY", "addr:country": "US", "addr:postcode": "92227", "addr:state": "CA", "addr:street_address": "401 MAIN ST", "amenity": "post_box", "brand": "United States Postal Service", "brand:wikidata": "Q668687", "collection_times": "Mo-Sa 14:45", "note": "ON 12/24 AND 12/31, THIS BOX MAY BE COLLECTED AS EARLY AS 12 NOON.", "nsi_id": "unitedstatespostalservice-a77078", "operator": "United States Postal Service", "operator:short": "USPS", "operator:type": "public", "operator:wikidata": "Q668687", "ref": "9222700009"}, "type": "Feature"}
{"geometry": {"coordinates": [-115.53721, 32.97696], "type": "Point"}, "id": "wPhZsEu5WcoJEGcQBV43WcEoYGg=", "properties": {"@source_uri": "https://tools.usps.com/UspsToolsRestServices/rest/POLocator/findLocations", "@spider": "usps_collection_boxes", "addr:city": "BRAWLEY", "addr:country": "US", "addr:postcode": "92227", "addr:state": "CA", "addr:street_address": "400 MAIN ST", "amenity": "post_box", "brand": "United States Postal Service", "brand:wikidata": "Q668687", "collection_times": "Mo-Sa 14:45", "note": "ON 12/24 AND 12/31, THIS BOX MAY BE COLLECTED AS EARLY AS 12 NOON.", "nsi_id": "unitedstatespostalservice-a77078", "operator": "United States Postal Service", "operator:short": "USPS", "operator:type": "public", "operator:wikidata": "Q668687", "ref": "9222700010"}, "type": "Feature"}
{"geometry": {"coordinates": [-115.534971, 32.9786494538], "type": "Point"}, "id": "md-bcwLqhf6515o9egM6KsZ3BrU=", "properties": {"@source_uri": "https://tools.usps.com/UspsToolsRestServices/rest/POLocator/findLocations", "@spider": "usps_collection_boxes", "addr:city": "BRAWLEY", "addr:country": "US", "addr:postcode": "92227", "addr:state": "CA", "addr:street_address": "401 MAIN ST", "amenity": "post_box", "brand": "United States Postal Service", "brand:wikidata": "Q668687", "collection_times": "Mo-Sa 14:45", "name": "USPS COLLECTION BOX - EXPRESS", "note": "ON 12/24 AND 12/31, THIS BOX MAY BE COLLECTED AS EARLY AS 12 NOON.", "nsi_id": "unitedstatespostalservice-a77078", "operator": "United States Postal Service", "operator:short": "USPS", "operator:type": "public", "operator:wikidata": "Q668687", "ref": "9222700011"}, "type": "Feature"}
{"geometry": {"coordinates": [-115.534971, 32.9786494538], "type": "Point"}, "id": "PBFjQNBVcIaY9Y9eSnjufdHBPtQ=", "properties": {"@source_uri": "https://tools.usps.com/UspsToolsRestServices/rest/POLocator/findLocations", "@spider": "usps_collection_boxes", "addr:city": "BRAWLEY", "addr:country": "US", "addr:postcode": "92227", "addr:state": "CA", "addr:street_address": "401 MAIN ST", "amenity": "post_box", "brand": "United States Postal Service", "brand:wikidata": "Q668687", "collection_times": "Mo-Sa 14:45", "note": "ON 12/24 AND 12/31, THIS BOX MAY BE COLLECTED AS EARLY AS 12 NOON.", "nsi_id": "unitedstatespostalservice-a77078", "operator": "United States Postal Service", "operator:short": "USPS", "operator:type": "public", "operator:wikidata": "Q668687", "ref": "9222700012"}, "type": "Feature"}
{"geometry": {"coordinates": [-115.549923, 32.979361], "type": "Point"}, "id": "OAU7TUjOcnthfDmZ8wwACrT2qbs=", "properties": {"@source_uri": "https://tools.usps.com/UspsToolsRestServices/rest/POLocator/findLocations", "@spider": "usps_collection_boxes", "addr:city": "BRAWLEY", "addr:country": "US", "addr:postcode": "92227", "addr:state": "CA", "addr:street_address": "475 W MAIN ST", "amenity": "post_box", "brand": "United States Postal Service", "brand:wikidata": "Q668687", "collection_times": "Mo-Sa 14:45", "note": "ON 12/24 AND 12/31, THIS BOX MAY BE COLLECTED AS EARLY AS 12 NOON.", "nsi_id": "unitedstatespostalservice-a77078", "operator": "United States Postal Service", "operator:short": "USPS", "operator:type": "public", "operator:wikidata": "Q668687", "ref": "9222700014"}, "type": "Feature"}
{"geometry": {"coordinates": [-115.534971, 32.9786494538], "type": "Point"}, "id": "1W3IK-PC1nAUZu-xXq4PiBNyRNc=", "properties": {"@source_uri": "https://tools.usps.com/UspsToolsRestServices/rest/POLocator/findLocations", "@spider": "usps_collection_boxes", "addr:city": "BRAWLEY", "addr:country": "US", "addr:postcode": "92227", "addr:state": "CA", "addr:street_address": "401 MAIN ST", "amenity": "post_box", "brand": "United States Postal Service", "brand:wikidata": "Q668687", "collection_times": "Mo-Fr 16:30", "indoor": "yes", "note": "ON 12/24 AND 12/31, THIS BOX MAY BE COLLECTED AS EARLY AS 12 NOON.", "nsi_id": "unitedstatespostalservice-a77078", "operator": "United States Postal Service", "operator:short": "USPS", "operator:type": "public", "operator:wikidata": "Q668687", "ref": "9222700016"}, "type": "Feature"}
{"geometry": {"coordinates": [-115.53721, 32.97696], "type": "Point"}, "id": "3YtLU3QZyF3q8IqCvA7rfQdq1hQ=", "properties": {"@source_uri": "https://tools.usps.com/UspsToolsRestServices/rest/POLocator/findLocations", "@spider": "usps_collection_boxes", "addr:city": "BRAWLEY", "addr:country": "US", "addr:postcode": "92227", "addr:state": "CA", "addr:street_address": "400 MAIN ST", "amenity": "post_box", "brand": "United States Postal Service", "brand:wikidata": "Q668687", "collection_times": "Mo-Sa 12:00", "nsi_id": "unitedstatespostalservice-a77078", "operator": "United States Postal Service", "operator:short": "USPS", "operator:type": "public", "operator:wikidata": "Q668687", "ref": "9222700017"}, "type": "Feature"}
{"geometry": {"coordinates": [-116.782599422, 33.917367014], "type": "Point"}, "id": "mYAMkLEVnKofNwHyuSBdrViIRKQ=", "properties": {"@source_uri": "https://tools.usps.com/UspsToolsRestServices/rest/POLocator/findLocations", "@spider": "usps_collection_boxes", "addr:city": "CABAZON", "addr:country": "US", "addr:postcode": "92230", "addr:state": "CA", "addr:street_address": "50360 RAMONA RD", "amenity": "post_box", "brand": "United States Postal Service", "brand:wikidata": "Q668687", "collection_times": "Mo-Fr 16:00; Sa 13:45", "note": "ON 12/24 AND 12/31, THIS BOX MAY BE COLLECTED AS EARLY AS 12 NOON.", "nsi_id": "unitedstatespostalservice-a77078", "operator": "United States Postal Service", "operator:short": "USPS", "operator:type": "public", "operator:wikidata": "Q668687", "ref": "9223000001"}, "type": "Feature"}
{"geometry": {"coordinates": [-116.7826000621, 33.9173696388], "type": "Point"}, "id": "0tXE9oE8F85Me-gu-G26hFJpKRQ=", "properties": {"@source_uri": "https://tools.usps.com/UspsToolsRestServices/rest/POLocator/findLocations", "@spider": "usps_collection_boxes", "addr:city": "CABAZON", "addr:country": "US", "addr:postcode": "92230", "addr:state": "CA", "addr:street_address": "50360 RAMONA RD", "amenity": "post_box", "brand": "United States Postal Service", "brand:wikidata": "Q668687", "collection_times": "Mo-Fr 16:00; Sa 14:30", "indoor": "yes", "note": "ON 12/24 AND 12/31, THIS BOX MAY BE COLLECTED AS EARLY AS 12 NOON.", "nsi_id": "unitedstatespostalservice-a77078", "operator": "United States Postal Service", "operator:short": "USPS", "operator:type": "public", "operator:wikidata": "Q668687", "ref": "9223000013"}, "type": "Feature"}
{"geometry": {"coordinates": [-116.7826000621, 33.9173696388], "type": "Point"}, "id": "b-wO6Qlkp5uXZg4dUZObSPhs8L8=", "properties": {"@source_uri": "https://tools.usps.com/UspsToolsRestServices/rest/POLocator/findLocations", "@spider": "usps_collection_boxes", "addr:city": "CABAZON", "addr:country": "US", "addr:postcode": "92230", "addr:state": "CA", "addr:street_address": "50360 RAMONA RD", "amenity": "post_box", "brand": "United States Postal Service", "brand:wikidata": "Q668687", "collection_times": "Mo-Fr 16:00", "indoor": "yes", "note": "ON 12/24 AND 12/31, THIS BOX MAY BE COLLECTED AS EARLY AS 12 NOON.", "nsi_id": "unitedstatespostalservice-a77078", "operator": "United States Postal Service", "operator:short": "USPS", "operator:type": "public", "operator:wikidata": "Q668687", "ref": "9223000014"}, "type": "Feature"}
{"geometry": {"coordinates": [-115.4951330067, 32.6684970049], "type": "Point"}, "id": "clKHrB9ynnYa72NWossroBHZPhk=", "properties": {"@source_uri": "https://tools.usps.com/UspsToolsRestServices/rest/POLocator/findLocations", "@spider": "usps_collection_boxes", "addr:city": "CALEXICO", "addr:country": "US", "addr:postcode": "92231", "addr:state": "CA", "addr:street_address": "250 E 4TH ST", "amenity": "post_box", "brand": "United States Postal Service", "brand:wikidata": "Q668687", "collection_times": "Mo-Sa 13:00", "note": "ON 12/24 AND 12/31, THIS BOX MAY BE COLLECTED AS EARLY AS 12 NOON.", "nsi_id": "unitedstatespostalservice-a77078", "operator": "United States Postal Service", "operator:short": "USPS", "operator:type": "public", "operator:wikidata": "Q668687", "ref": "9223100012"}, "type": "Feature"}
{"geometry": {"coordinates": [-115.497609, 32.667406], "type": "Point"}, "id": "4JadRsh1bIDsIG1x4_8cCC9-H-A=", "properties": {"@source_uri": "https://tools.usps.com/UspsToolsRestServices/rest/POLocator/findLocations", "@spider": "usps_collection_boxes", "addr:city": "CALEXICO", "addr:country": "US", "addr:postcode": "92231", "addr:state": "CA", "addr:street_address": "233 PAULIN AVE", "amenity": "post_box", "brand": "United States Postal Service", "brand:wikidata": "Q668687", "collection_times": "Mo-Sa 13:00", "note": "ON 12/24 AND 12/31, THIS BOX MAY BE COLLECTED AS EARLY AS 12 NOON.", "nsi_id": "unitedstatespostalservice-a77078", "operator": "United States Postal Service", "operator:short": "USPS", "operator:type": "public", "operator:wikidata": "Q668687", "ref": "9223100015"}, "type": "Feature"}
{"geometry": {"coordinates": [-115.498823, 32.67101], "type": "Point"}, "id": "ZxxV9sDqUguDPkH7tjvb1xADCFQ=", "properties": {"@source_uri": "https://tools.usps.com/UspsToolsRestServices/rest/POLocator/findLocations", "@spider": "usps_collection_boxes", "addr:city": "CALEXICO", "addr:country": "US", "addr:postcode": "92231", "addr:state": "CA", "addr:street_address": "601 S IMPERIAL AVE", "amenity": "post_box", "brand": "United States Postal Service", "brand:wikidata": "Q668687", "collection_times": "Mo-Sa 13:00", "note": "ON 12/24 AND 12/31, THIS BOX MAY BE COLLECTED AS EARLY AS 12 NOON.", "nsi_id": "unitedstatespostalservice-a77078", "operator": "United States Postal Service", "operator:short": "USPS", "operator:type": "public", "operator:wikidata": "Q668687", "ref": "9223100016"}, "type": "Feature"}
{"geometry": {"coordinates": [-115.502414665, 32.6796031676], "type": "Point"}, "id": "xH8dCeLeuIc27aJBap-2aP-cFDo=", "properties": {"@source_uri": "https://tools.usps.com/UspsToolsRestServices/rest/POLocator/findLocations", "@spider": "usps_collection_boxes", "addr:city": "CALEXICO", "addr:country": "US", "addr:postcode": "92231", "addr:state": "CA", "addr:street_address": "1101 OLLIE AVE", "amenity": "post_box", "brand": "United States Postal Service", "brand:wikidata": "Q668687", "collection_times": "Mo-Sa 13:30", "note": "ON 12/24 AND 12/31, THIS BOX MAY BE COLLECTED AS EARLY AS 12 NOON.", "nsi_id": "unitedstatespostalservice-a77078", "operator": "United States Postal Service", "operator:short": "USPS", "operator:type": "public", "operator:wikidata": "Q668687", "ref": "9223100018"}, "type": "Feature"}
{"geometry": {"coordinates": [-115.502414665, 32.6796031676], "type": "Point"}, "id": "LMlqeijn2S2II7OasyzNqJ01pj8=", "properties": {"@source_uri": "https://tools.usps.com/UspsToolsRestServices/rest/POLocator/findLocations", "@spider": "usps_collection_boxes", "addr:city": "CALEXICO", "addr:country": "US", "addr:postcode": "92231", "addr:state": "CA", "addr:street_address": "1101 OLLIE AVE", "amenity": "post_box", "brand": "United States Postal Service", "brand:wikidata": "Q668687", "collection_times": "Mo-Sa 13:30", "note": "ON 12/24 AND 12/31, THIS BOX MAY BE COLLECTED AS EARLY AS 12 NOON.", "nsi_id": "unitedstatespostalservice-a77078", "operator": "United States Postal Service", "operator:short": "USPS", "operator:type": "public", "operator:wikidata": "Q668687", "ref": "9223100021"}, "type": "Feature"}
{"geometry": {"coordinates": [-115.493399, 32.67065], "type": "Point"}, "id": "dj2Nvrak1Ovci-bFR91FDwmuClw=", "properties": {"@source_uri": "https://tools.usps.com/UspsToolsRestServices/rest/POLocator/findLocations", "@spider": "usps_collection_boxes", "addr:city": "CALEXICO", "addr:country": "US", "addr:postcode": "92231", "addr:state": "CA", "addr:street_address": "608 HEBER AVE", "amenity": "post_box", "brand": "United States Postal Service", "brand:wikidata": "Q668687", "collection_times": "Mo-Sa 13:00", "note": "ON 12/24 AND 12/31, THIS BOX MAY BE COLLECTED AS EARLY AS 12 NOON.", "nsi_id": "unitedstatespostalservice-a77078", "operator": "United States Postal Service", "operator:short": "USPS", "operator:type": "public", "operator:wikidata": "Q668687", "ref": "9223100024"}, "type": "Feature"}
{"geometry": {"coordinates": [-115.502414665, 32.6796031676], "type": "Point"}, "id": "IF_TCG8j6GW9krGdH4mg6eKMf5g=", "properties": {"@source_uri": "https://tools.usps.com/UspsToolsRestServices/rest/POLocator/findLocations", "@spider": "usps_collection_boxes", "addr:city": "CALEXICO", "addr:country": "US", "addr:postcode": "92231", "addr:state": "CA", "addr:street_address": "1101 OLLIE AVE", "amenity": "post_box", "brand": "United States Postal Service", "brand:wikidata": "Q668687", "collection_times": "Mo-Fr 15:15", "indoor": "yes", "note": "ON 12/24 AND 12/31, THIS BOX MAY BE COLLECTED AS EARLY AS 12 NOON.", "nsi_id": "unitedstatespostalservice-a77078", "operator": "United States Postal Service", "operator:short": "USPS", "operator:type": "public", "operator:wikidata": "Q668687", "ref": "9223100030"}, "type": "Feature"}
{"geometry": {"coordinates": [-115.5160310192, 33.1260949807], "type": "Point"}, "id": "GLCDy6dxuQAaRMxM4rUSjgav0Tw=", "properties": {"@source_uri": "https://tools.usps.com/UspsToolsRestServices/rest/POLocator/findLocations", "@spider": "usps_collection_boxes", "addr:city": "CALIPATRIA", "addr:country": "US", "addr:postcode": "92233", "addr:state": "CA", "addr:street_address": "190 W MAIN ST", "amenity": "post_box", "brand": "United States Postal Service", "brand:wikidata": "Q668687", "collection_times": "Mo-Fr 14:30; Sa 09:30", "note": "ON 12/24 AND 12/31, THIS BOX MAY BE COLLECTED AS EARLY AS 12 NOON.", "nsi_id": "unitedstatespostalservice-a77078", "operator": "United States Postal Service", "operator:short": "USPS", "operator:type": "public", "operator:wikidata": "Q668687", "ref": "9223300001"}, "type": "Feature"}
{"geometry": {"coordinates": [-115.5160310192, 33.1260949807], "type": "Point"}, "id": "_qrHxNKNxMJhlTjWikLQ0S707s0=", "properties": {"@source_uri": "https://tools.usps.com/UspsToolsRestServices/rest/POLocator/findLocations", "@spider": "usps_collection_boxes", "addr:city": "CALIPATRIA", "addr:country": "US", "addr:postcode": "92233", "addr:state": "CA", "addr:street_address": "190 W MAIN ST", "amenity": "post_box", "brand": "United States Postal Service", "brand:wikidata": "Q668687", "collection_times": "Mo-Fr 16:00", "indoor": "yes", "note": "ON 12/24 AND 12/31, THIS BOX MAY BE COLLECTED AS EARLY AS 12 NOON.", "nsi_id": "unitedstatespostalservice-a77078", "operator": "United States Postal Service", "operator:short": "USPS", "operator:type": "public", "operator:wikidata": "Q668687", "ref": "9223300005"}, "type": "Feature"}
{"geometry": {"coordinates": [-116.456685, 33.778685], "type": "Point"}, "id": "RTHtp00akvZxTDqhm_NJQDJ-0Ls=", "properties": {"@source_uri": "https://tools.usps.com/UspsToolsRestServices/rest/POLocator/findLocations", "@spider": "usps_collection_boxes", "addr:city": "CATHEDRAL CITY", "addr:country": "US", "addr:postcode": "92234", "addr:state": "CA", "addr:street_address": "69044 E US HIGHWAY 111", "amenity": "post_box", "brand": "United States Postal Service", "brand:wikidata": "Q668687", "collection_times": "Mo-Sa 11:00", "nsi_id": "unitedstatespostalservice-a77078", "operator": "United States Postal Service", "operator:short": "USPS", "operator:type": "public", "operator:wikidata": "Q668687", "ref": "9223400001"}, "type": "Feature"}
{"geometry": {"coordinates": [-116.468009, 33.780656], "type": "Point"}, "id": "Em-5bxgOUBqNzDmWp16cikMocF0=", "properties": {"@source_uri": "https://tools.usps.com/UspsToolsRestServices/rest/POLocator/findLocations", "@spider": "usps_collection_boxes", "addr:city": "CATHEDRAL CITY", "addr:country": "US", "addr:postcode": "92234", "addr:state": "CA", "addr:street_address": "68435 E PALM CANYON DR", "amenity": "post_box", "brand": "United States Postal Service", "brand:wikidata": "Q668687", "collection_times": "Mo-Sa 12:30", "note": "ON 12/24 AND 12/31, THIS BOX MAY BE COLLECTED AS EARLY AS 12 NOON.", "nsi_id": "unitedstatespostalservice-a77078", "operator": "United States Postal Service", "operator:short": "USPS", "operator:type": "public", "operator:wikidata": "Q668687", "ref": "9223400010"}, "type": "Feature"}
{"geometry": {"coordinates": [-116.4578950616, 33.8051295507], "type": "Point"}, "id": "baOa8y5WixBB3i6daXNTRsz4XhI=", "properties": {"@source_uri": "https://tools.usps.com/UspsToolsRestServices/rest/POLocator/findLocations", "@spider": "usps_collection_boxes", "addr:city": "CATHEDRAL CITY", "addr:country": "US", "addr:postcode": "92234", "addr:state": "CA", "addr:street_address": "33490 DATE PALM DR", "amenity": "post_box", "brand": "United States Postal Service", "brand:wikidata": "Q668687", "collection_times": "Mo-Fr 17:00; Sa 15:00", "note": "ON 12/24 AND 12/31, THIS BOX MAY BE COLLECTED AS EARLY AS 12 NOON.", "nsi_id": "unitedstatespostalservice-a77078", "operator": "United States Postal Service", "operator:short": "USPS", "operator:type": "public", "operator:wikidata": "Q668687", "ref": "9223400019"}, "type": "Feature"}
{"geometry": {"coordinates": [-116.4578950616, 33.8051295507], "type": "Point"}, "id": "RoJZ7XtKCBsM3JR_8UOyXOI2xe4=", "properties": {"@source_uri": "https://tools.usps.com/UspsToolsRestServices/rest/POLocator/findLocations", "@spider": "usps_collection_boxes", "addr:city": "CATHEDRAL CITY", "addr:country": "US", "addr:postcode": "92234", "addr:state": "CA", "addr:street_address": "33490 DATE PALM DR", "amenity": "post_box", "brand": "United States Postal Service", "brand:wikidata": "Q668687", "collection_times": "Mo-Fr 17:00; Sa 15:00", "name": "USPS COLLECTION BOX - EXPRESS", "note": "ON 12/24 AND 12/31, THIS BOX MAY BE COLLECTED AS EARLY AS 12 NOON.", "nsi_id": "unitedstatespostalservice-a77078", "operator": "United States Postal Service", "operator:short": "USPS", "operator:type": "public", "operator:wikidata": "Q668687", "ref": "9223400021"}, "type": "Feature"}
{"geometry": {"coordinates": [-116.464066, 33.802968], "type": "Point"}, "id": "yr-76xLUsfwgjicNL9u6_1lAWic=", "properties": {"@source_uri": "https://tools.usps.com/UspsToolsRestServices/rest/POLocator/findLocations", "@spider": "usps_collection_boxes", "addr:city": "CATHEDRAL CITY", "addr:country": "US", "addr:postcode": "92234", "addr:state": "CA", "addr:street_address": "68680 DINAH SHORE DR", "amenity": "post_box", "brand": "United States Postal Service", "brand:wikidata": "Q668687", "collection_times": "Mo-Sa 12:00", "nsi_id": "unitedstatespostalservice-a77078", "operator": "United States Postal Service", "operator:short": "USPS", "operator:type": "public", "operator:wikidata": "Q668687", "ref": "9223400032"}, "type": "Feature"}
{"geometry": {"coordinates": [-116.457129, 33.813796], "type": "Point"}, "id": "PhYIsIopK7bjz1Uutz8PXazqR8o=", "properties": {"@source_uri": "https://tools.usps.com/UspsToolsRestServices/rest/POLocator/findLocations", "@spider": "usps_collection_boxes", "addr:city": "CATHEDRAL CITY", "addr:country": "US", "addr:postcode": "92234", "addr:state": "CA", "addr:street_address": "69115 RAMON RD STE #F-1", "amenity": "post_box", "brand": "United States Postal Service", "brand:wikidata": "Q668687", "collection_times": "Mo-Sa 13:15", "note": "ON 12/24 AND 12/31, THIS BOX MAY BE COLLECTED AS EARLY AS 12 NOON.", "nsi_id": "unitedstatespostalservice-a77078", "operator": "United States Postal Service", "operator:short": "USPS", "operator:type": "public", "operator:wikidata": "Q668687", "ref": "9223400036"}, "type": "Feature"}
{"geometry": {"coordinates": [-116.473851, 33.816895], "type": "Point"}, "id": "rOr9X8wyUYqOola78plIoq8oB1o=", "properties": {"@source_uri": "https://tools.usps.com/UspsToolsRestServices/rest/POLocator/findLocations", "@spider": "usps_collection_boxes", "addr:city": "CATHEDRAL CITY", "addr:country": "US", "addr:postcode": "92234", "addr:state": "CA", "addr:street_address": "68100 RAMON RD", "amenity": "post_box", "brand": "United States Postal Service", "brand:wikidata": "Q668687", "collection_times": "Mo-Sa 11:00", "nsi_id": "unitedstatespostalservice-a77078", "operator": "United States Postal Service", "operator:short": "USPS", "operator:type": "public", "operator:wikidata": "Q668687", "ref": "9223400039"}, "type": "Feature"}
{"geometry": {"coordinates": [-116.458294586, 33.816771388], "type": "Point"}, "id": "P2LY_XhrGBKdhflNGBtrjkbUg8U=", "properties": {"@source_uri": "https://tools.usps.com/UspsToolsRestServices/rest/POLocator/findLocations", "@spider": "usps_collection_boxes", "addr:city": "CATHEDRAL CITY", "addr:country": "US", "addr:postcode": "92234", "addr:state": "CA", "addr:street_address": "31855 DATE PALM DR", "amenity": "post_box", "brand": "United States Postal Service", "brand:wikidata": "Q668687", "collection_times": "Mo-Sa 13:15", "note": "ON 12/24 AND 12/31, THIS BOX MAY BE COLLECTED AS EARLY AS 12 NOON.", "nsi_id": "unitedstatespostalservice-a77078", "operator": "United States Postal Service", "operator:short": "USPS", "operator:type": "public", "operator:wikidata": "Q668687", "ref": "9223400043"}, "type": "Feature"}
{"geometry": {"coordinates": [-116.4578950616, 33.8051295507], "type": "Point"}, "id": "pXFctgoYHqqSL_1gUm6fVtv9CVk=", "properties": {"@source_uri": "https://tools.usps.com/UspsToolsRestServices/rest/POLocator/findLocations", "@spider": "usps_collection_boxes", "addr:city": "CATHEDRAL CITY", "addr:country": "US", "addr:postcode": "92234", "addr:state": "CA", "addr:street_address": "33490 DATE PALM DR", "amenity": "post_box", "brand": "United States Postal Service", "brand:wikidata": "Q668687", "collection_times": "Mo-Fr 17:00; Sa 15:00", "note": "ON 12/24 AND 12/31, THIS BOX MAY BE COLLECTED AS EARLY AS 12 NOON.", "nsi_id": "unitedstatespostalservice-a77078", "operator": "United States Postal Service", "operator:short": "USPS", "operator:type": "public", "operator:wikidata": "Q668687", "ref": "9223400045"}, "type": "Feature"}
{"geometry": {"coordinates": [-116.477225, 33.845022], "type": "Point"}, "id": "7kOMCLHXbfbrtYOfvtIpSH79stc=", "properties": {"@source_uri": "https://tools.usps.com/UspsToolsRestServices/rest/POLocator/findLocations", "@spider": "usps_collection_boxes", "addr:city": "CATHEDRAL CITY", "addr:country": "US", "addr:postcode": "92234", "addr:state": "CA", "addr:street_address": "67800 VISTA CHINO", "amenity": "post_box", "brand": "United States Postal Service", "brand:wikidata": "Q668687", "collection_times": "Mo-Sa 13:15", "note": "ON 12/24 AND 12/31, THIS BOX MAY BE COLLECTED AS EARLY AS 12 NOON.", "nsi_id": "unitedstatespostalservice-a77078", "operator": "United States Postal Service", "operator:short": "USPS", "operator:type": "public", "operator:wikidata": "Q668687", "ref": "9223400049"}, "type": "Feature"}
{"geometry": {"coordinates": [-116.4578950616, 33.8051295507], "type": "Point"}, "id": "bbUZJvIndVlPhWHUbccuOZZF6cU=", "properties": {"@source_uri": "https://tools.usps.com/UspsToolsRestServices/rest/POLocator/findLocations", "@spider": "usps_collection_boxes", "addr:city": "CATHEDRAL CITY", "addr:country": "US", "addr:postcode": "92234", "addr:state": "CA", "addr:street_address": "33490 DATE PALM DR", "amenity": "post_box", "brand": "United States Postal Service", "brand:wikidata": "Q668687", "collection_times": "Mo-Fr 17:00; Sa 15:00", "name": "USPS COLLECTION BOX - APC", "note": "ON 12/24 AND 12/31, THIS BOX MAY BE COLLECTED AS EARLY AS 12 NOON.", "nsi_id": "unitedstatespostalservice-a77078", "operator": "United States Postal Service", "operator:short": "USPS", "operator:type": "public", "operator:wikidata": "Q668687", "ref": "9223400051"}, "type": "Feature"}
{"geometry": {"coordinates": [-116.4578950616, 33.8051295507], "type": "Point"}, "id": "nsy4CBm9ad9S0cuoQ19ClyxCbCk=", "properties": {"@source_uri": "https://tools.usps.com/UspsToolsRestServices/rest/POLocator/findLocations", "@spider": "usps_collection_boxes", "addr:city": "CATHEDRAL CITY", "addr:country": "US", "addr:postcode": "92234", "addr:state": "CA", "addr:street_address": "33490 DATE PALM DR", "amenity": "post_box", "brand": "United States Postal Service", "brand:wikidata": "Q668687", "collection_times": "Mo-Fr 17:00", "indoor": "yes", "note": "ON 12/24 AND 12/31, THIS BOX MAY BE COLLECTED AS EARLY AS 12 NOON.", "nsi_id": "unitedstatespostalservice-a77078", "operator": "United States Postal Service", "operator:short": "USPS", "operator:type": "public", "operator:wikidata": "Q668687", "ref": "9223400061"}, "type": "Feature"}
{"geometry": {"coordinates": [-116.175689, 33.713587], "type": "Point"}, "id": "3uHF_ZO1cXLV9GZg2X3l-NilXdM=", "properties": {"@source_uri": "https://tools.usps.com/UspsToolsRestServices/rest/POLocator/findLocations", "@spider": "usps_collection_boxes", "addr:city": "COACHELLA", "addr:country": "US", "addr:postcode": "92236", "addr:state": "CA", "addr:street_address": "46155 DILLON RD", "amenity": "post_box", "brand": "United States Postal Service", "brand:wikidata": "Q668687", "collection_times": "Mo-Sa 13:00", "note": "ON 12/24 AND 12/31, THIS BOX MAY BE COLLECTED AS EARLY AS 12 NOON.", "nsi_id": "unitedstatespostalservice-a77078", "operator": "United States Postal Service", "operator:short": "USPS", "operator:type": "public", "operator:wikidata": "Q668687", "ref": "9223600001"}, "type": "Feature"}
{"geometry": {"coordinates": [-116.177345, 33.674325], "type": "Point"}, "id": "jNtHidf3nFLytFhr62BdUoXF5ek=", "properties": {"@source_uri": "https://tools.usps.com/UspsToolsRestServices/rest/POLocator/findLocations", "@spider": "usps_collection_boxes", "addr:city": "COACHELLA", "addr:country": "US", "addr:postcode": "92236", "addr:state": "CA", "addr:street_address": "1412 6TH ST", "amenity": "post_box", "brand": "United States Postal Service", "brand:wikidata": "Q668687", "collection_times": "Mo-Fr 17:00; Sa 15:00", "name": "USPS COLLECTION BOX - EXPRESS", "note": "ON 12/24 AND 12/31, THIS BOX MAY BE COLLECTED AS EARLY AS 12 NOON.", "nsi_id": "unitedstatespostalservice-a77078", "operator": "United States Postal Service", "operator:short": "USPS", "operator:type": "public", "operator:wikidata": "Q668687", "ref": "9223600010"}, "type": "Feature"}
{"geometry": {"coordinates": [-116.177417095, 33.6781606919], "type": "Point"}, "id": "KbLDYdIC5bClLOQ9sBRboJm1dcA=", "properties": {"@source_uri": "https://tools.usps.com/UspsToolsRestServices/rest/POLocator/findLocations", "@spider": "usps_collection_boxes", "addr:city": "COACHELLA", "addr:country": "US", "addr:postcode": "92236", "addr:state": "CA", "addr:street_address": "1412 6TH ST", "amenity": "post_box", "brand": "United States Postal Service", "brand:wikidata": "Q668687", "collection_times": "Mo-Fr 16:30", "indoor": "yes", "note": "ON 12/24 AND 12/31, THIS BOX MAY BE COLLECTED AS EARLY AS 12 NOON.", "nsi_id": "unitedstatespostalservice-a77078", "operator": "United States Postal Service", "operator:short": "USPS", "operator:type": "public", "operator:wikidata": "Q668687", "ref": "9223600016"}, "type": "Feature"}
{"geometry": {"coordinates": [-115.4003926335, 33.7132379085], "type": "Point"}, "id": "YTfCMEwJJzBTAUh7cU0G98sVtaw=", "properties": {"@source_uri": "https://tools.usps.com/UspsToolsRestServices/rest/POLocator/findLocations", "@spider": "usps_collection_boxes", "addr:city": "DESERT CENTER", "addr:country": "US", "addr:postcode": "92239", "addr:state": "CA", "addr:street_address": "44300 RAGSDALE RD", "amenity": "post_box", "brand": "United States Postal Service", "brand:wikidata": "Q668687", "collection_times": "Mo-Fr 16:45; Sa 09:00", "note": "ON 12/24 AND 12/31, THIS BOX MAY BE COLLECTED AS EARLY AS 12 NOON.", "nsi_id": "unitedstatespostalservice-a77078", "operator": "United States Postal Service", "operator:short": "USPS", "operator:type": "public", "operator:wikidata": "Q668687", "ref": "9223900001"}, "type": "Feature"}
{"geometry": {"coordinates": [-115.4003893774, 33.7132342356], "type": "Point"}, "id": "7jycgBpRQqyvTxVJ85QyTM9ADaM=", "properties": {"@source_uri": "https://tools.usps.com/UspsToolsRestServices/rest/POLocator/findLocations", "@spider": "usps_collection_boxes", "addr:city": "DESERT CENTER", "addr:country": "US", "addr:postcode": "92239", "addr:state": "CA", "addr:street_address": "44300 RAGSDALE RD", "amenity": "post_box", "brand": "United States Postal Service", "brand:wikidata": "Q668687", "collection_times": "Mo-Sa 16:30", "indoor": "yes", "note": "ON 12/24 AND 12/31, THIS BOX MAY BE COLLECTED AS EARLY AS 12 NOON.", "nsi_id": "unitedstatespostalservice-a77078", "operator": "United States Postal Service", "operator:short": "USPS", "operator:type": "public", "operator:wikidata": "Q668687", "ref": "9223900004"}, "type": "Feature"}
{"geometry": {"coordinates": [-115.4003926335, 33.7132379085], "type": "Point"}, "id": "2SdONTQzgd3M6TkQIU88Msd1P9E=", "properties": {"@source_uri": "https://tools.usps.com/UspsToolsRestServices/rest/POLocator/findLocations", "@spider": "usps_collection_boxes", "addr:city": "DESERT CENTER", "addr:country": "US", "addr:postcode": "92239", "addr:state": "CA", "addr:street_address": "44300 RAGSDALE RD", "amenity": "post_box", "brand": "United States Postal Service", "brand:wikidata": "Q668687", "collection_times": "Mo-Fr 16:30", "indoor": "yes", "note": "ON 12/24 AND 12/31, THIS BOX MAY BE COLLECTED AS EARLY AS 12 NOON.", "nsi_id": "unitedstatespostalservice-a77078", "operator": "United States Postal Service", "operator:short": "USPS", "operator:type": "public", "operator:wikidata": "Q668687", "ref": "9223900005"}, "type": "Feature"}
{"geometry": {"coordinates": [-116.500803, 33.953508], "type": "Point"}, "id": "qp1u6ESwZaaJIxbXKnS4cvCcaKM=", "properties": {"@source_uri": "https://tools.usps.com/UspsToolsRestServices/rest/POLocator/findLocations", "@spider": "usps_collection_boxes", "addr:city": "DSRT HOT SPGS", "addr:country": "US", "addr:postcode": "92240", "addr:state": "CA", "addr:street_address": "66605 HACIENDA AVE", "amenity": "post_box", "brand": "United States Postal Service", "brand:wikidata": "Q668687", "collection_times": "Mo-Sa 13:00", "note": "ON 12/24 AND 12/31, THIS BOX MAY BE COLLECTED AS EARLY AS 12 NOON.", "nsi_id": "unitedstatespostalservice-a77078", "operator": "United States Postal Service", "operator:short": "USPS", "operator:type": "public", "operator:wikidata": "Q668687", "ref": "9224000007"}, "type": "Feature"}
{"geometry": {"coordinates": [-116.504383911, 33.946684746], "type": "Point"}, "id": "fgxrF-gfjRo_A3XvTHu-72s7R0A=", "properties": {"@source_uri": "https://tools.usps.com/UspsToolsRestServices/rest/POLocator/findLocations", "@spider": "usps_collection_boxes", "addr:city": "DSRT HOT SPGS", "addr:country": "US", "addr:postcode": "92240", "addr:state": "CA", "addr:street_address": "66311 TWO BUNCH PALMS TRL", "amenity": "post_box", "brand": "United States Postal Service", "brand:wikidata": "Q668687", "collection_times": "Mo-Fr 17:00; Sa 15:00", "note": "ON 12/24 AND 12/31, THIS BOX MAY BE COLLECTED AS EARLY AS 12 NOON.", "nsi_id": "unitedstatespostalservice-a77078", "operator": "United States Postal Service", "operator:short": "USPS", "operator:type": "public", "operator:wikidata": "Q668687", "ref": "9224000011"}, "type": "Feature"}
{"geometry": {"coordinates": [-116.539945, 33.977331], "type": "Point"}, "id": "D9gM544PYwpQCwdAeRlZXAffRew=", "properties": {"@source_uri": "https://tools.usps.com/UspsToolsRestServices/rest/POLocator/findLocations", "@spider": "usps_collection_boxes", "addr:city": "DSRT HOT SPGS", "addr:country": "US", "addr:postcode": "92240", "addr:state": "CA", "addr:street_address": "64316 SPYGLASS AVE", "amenity": "post_box", "brand": "United States Postal Service", "brand:wikidata": "Q668687", "collection_times": "Mo-Sa 13:00", "note": "ON 12/24 AND 12/31, THIS BOX MAY BE COLLECTED AS EARLY AS 12 NOON.", "nsi_id": "unitedstatespostalservice-a77078", "operator": "United States Postal Service", "operator:short": "USPS", "operator:type": "public", "operator:wikidata": "Q668687", "ref": "9224000018"}, "type": "Feature"}
{"geometry": {"coordinates": [-116.5015479092, 33.9367489104], "type": "Point"}, "id": "vNC2HHXX2snqXnfPak_6Df6daOM=", "properties": {"@source_uri": "https://tools.usps.com/UspsToolsRestServices/rest/POLocator/findLocations", "@spider": "usps_collection_boxes", "addr:city": "DSRT HOT SPGS", "addr:country": "US", "addr:postcode": "92240", "addr:state": "CA", "addr:street_address": "15300 PALM DR", "amenity": "post_box", "brand": "United States Postal Service", "brand:wikidata": "Q668687", "collection_times": "Mo-Sa 13:00", "note": "ON 12/24 AND 12/31, THIS BOX MAY BE COLLECTED AS EARLY AS 12 NOON.", "nsi_id": "unitedstatespostalservice-a77078", "operator": "United States Postal Service", "operator:short": "USPS", "operator:type": "public", "operator:wikidata": "Q668687", "ref": "9224000026"}, "type": "Feature"}
{"geometry": {"coordinates": [-116.5043839114, 33.9466847461], "type": "Point"}, "id": "51o9K9SrYu5METDxV3IrgWPw3WY=", "properties": {"@source_uri": "https://tools.usps.com/UspsToolsRestServices/rest/POLocator/findLocations", "@spider": "usps_collection_boxes", "addr:city": "DSRT HOT SPGS", "addr:country": "US", "addr:postcode": "92240", "addr:state": "CA", "addr:street_address": "66311 TWO BUNCH PALMS TRL", "amenity": "post_box", "brand": "United States Postal Service", "brand:wikidata": "Q668687", "collection_times": "Mo-Fr 17:00; Sa 15:00", "note": "ON 12/24 AND 12/31, THIS BOX MAY BE COLLECTED AS EARLY AS 12 NOON.", "nsi_id": "unitedstatespostalservice-a77078", "operator": "United States Postal Service", "operator:short": "USPS", "operator:type": "public", "operator:wikidata": "Q668687", "ref": "9224000028"}, "type": "Feature"}
{"geometry": {"coordinates": [-116.504395, 33.96049], "type": "Point"}, "id": "v19vknmdS18AScBzB8UAi8H3EMQ=", "properties": {"@source_uri": "https://tools.usps.com/UspsToolsRestServices/rest/POLocator/findLocations", "@spider": "usps_collection_boxes", "addr:city": "DSRT HOT SPGS", "addr:country": "US", "addr:postcode": "92240", "addr:state": "CA", "addr:street_address": "66311 TWO BUNCH PALMS TRL", "amenity": "post_box", "brand": "United States Postal Service", "brand:wikidata": "Q668687", "collection_times": "Mo-Fr 17:00; Sa 15:00", "note": "ON 12/24 AND 12/31, THIS BOX MAY BE COLLECTED AS EARLY AS 12 NOON.", "nsi_id": "unitedstatespostalservice-a77078", "operator": "United States Postal Service", "operator:short": "USPS", "operator:type": "public", "operator:wikidata": "Q668687", "ref": "9224000035"}, "type": "Feature"}
{"geometry": {"coordinates": [-116.5043839114, 33.9466847461], "type": "Point"}, "id": "iXWdG517RZi_-BwFXux7OuSMPUw=", "properties": {"@source_uri": "https://tools.usps.com/UspsToolsRestServices/rest/POLocator/findLocations", "@spider": "usps_collection_boxes", "addr:city": "DSRT HOT SPGS", "addr:country": "US", "addr:postcode": "92240", "addr:state": "CA", "addr:street_address": "66311 TWO BUNCH PALMS TRL", "amenity": "post_box", "brand": "United States Postal Service", "brand:wikidata": "Q668687", "collection_times": "Mo-Fr 17:00", "indoor": "yes", "note": "ON 12/24 AND 12/31, THIS BOX MAY BE COLLECTED AS EARLY AS 12 NOON.", "nsi_id": "unitedstatespostalservice-a77078", "operator": "United States Postal Service", "operator:short": "USPS", "operator:type": "public", "operator:wikidata": "Q668687", "ref": "9224000039"}, "type": "Feature"}
{"geometry": {"coordinates": [-116.361789, 33.901807], "type": "Point"}, "id": "3ZxvPSq5hMQ_ZCOaXFtGtW10U7E=", "properties": {"@source_uri": "https://tools.usps.com/UspsToolsRestServices/rest/POLocator/findLocations", "@spider": "usps_collection_boxes", "addr:city": "DSRT HOT SPGS", "addr:country": "US", "addr:postcode": "92241", "addr:state": "CA", "addr:street_address": "74711 DILLON RD", "amenity": "post_box", "brand": "United States Postal Service", "brand:wikidata": "Q668687", "collection_times": "Mo-Sa 12:00", "nsi_id": "unitedstatespostalservice-a77078", "operator": "United States Postal Service", "operator:short": "USPS", "operator:type": "public", "operator:wikidata": "Q668687", "ref": "9224100004"}, "type": "Feature"}
{"geometry": {"coordinates": [-116.431992, 33.917381], "type": "Point"}, "id": "yPF5QH-p3hue5kng1u4ZksXQJIc=", "properties": {"@source_uri": "https://tools.usps.com/UspsToolsRestServices/rest/POLocator/findLocations", "@spider": "usps_collection_boxes", "addr:city": "DSRT HOT SPGS", "addr:country": "US", "addr:postcode": "92241", "addr:state": "CA", "addr:street_address": "18025 LANGLOIS RD", "amenity": "post_box", "brand": "United States Postal Service", "brand:wikidata": "Q668687", "collection_times": "Mo-Sa 13:00", "note": "ON 12/24 AND 12/31, THIS BOX MAY BE COLLECTED AS EARLY AS 12 NOON.", "nsi_id": "unitedstatespostalservice-a77078", "operator": "United States Postal Service", "operator:short": "USPS", "operator:type": "public", "operator:wikidata": "Q668687", "ref": "9224100006"}, "type": "Feature"}
{"geometry": {"coordinates": [-116.451589966, 33.930062993], "type": "Point"}, "id": "8TwN_B7ToLmzK8Nbaz6FxUkumwo=", "properties": {"@source_uri": "https://tools.usps.com/UspsToolsRestServices/rest/POLocator/findLocations", "@spider": "usps_collection_boxes", "addr:city": "DSRT HOT SPGS", "addr:country": "US", "addr:postcode": "92241", "addr:state": "CA", "addr:street_address": "69400 COUNTRY CLUB DR", "amenity": "post_box", "brand": "United States Postal Service", "brand:wikidata": "Q668687", "collection_times": "Mo-Sa 13:00", "note": "ON 12/24 AND 12/31, THIS BOX MAY BE COLLECTED AS EARLY AS 12 NOON.", "nsi_id": "unitedstatespostalservice-a77078", "operator": "United States Postal Service", "operator:short": "USPS", "operator:type": "public", "operator:wikidata": "Q668687", "ref": "9224100009"}, "type": "Feature"}
{"geometry": {"coordinates": [-114.48029484, 34.1930618015], "type": "Point"}, "id": "klodIn7SKiZy79hFzPMGy4cZSIc=", "properties": {"@source_uri": "https://tools.usps.com/UspsToolsRestServices/rest/POLocator/findLocations", "@spider": "usps_collection_boxes", "addr:city": "EARP", "addr:country": "US", "addr:postcode": "92242", "addr:state": "CA", "addr:street_address": "144977 AQUEDUCT RD", "amenity": "post_box", "brand": "United States Postal Service", "brand:wikidata": "Q668687", "collection_times": "Mo-Fr 14:15", "indoor": "yes", "note": "ON 12/24 AND 12/31, THIS BOX MAY BE COLLECTED AS EARLY AS 12 NOON.", "nsi_id": "unitedstatespostalservice-a77078", "operator": "United States Postal Service", "operator:short": "USPS", "operator:type": "public", "operator:wikidata": "Q668687", "ref": "9224200004"}, "type": "Feature"}
{"geometry": {"coordinates": [-114.3696474055, 34.1275487827], "type": "Point"}, "id": "WQMir3dXR03KOxUYfNbUWruY2Dg=", "properties": {"@source_uri": "https://tools.usps.com/UspsToolsRestServices/rest/POLocator/findLocations", "@spider": "usps_collection_boxes", "addr:city": "EARP", "addr:country": "US", "addr:postcode": "92242", "addr:state": "CA", "addr:street_address": "150400 TURQUOISE RD", "amenity": "post_box", "brand": "United States Postal Service", "brand:wikidata": "Q668687", "collection_times": "Mo-Fr 13:30", "indoor": "yes", "note": "ON 12/24 AND 12/31, THIS BOX MAY BE COLLECTED AS EARLY AS 12 NOON.", "nsi_id": "unitedstatespostalservice-a77078", "operator": "United States Postal Service", "operator:short": "USPS", "operator:type": "public", "operator:wikidata": "Q668687", "ref": "9224200005"}, "type": "Feature"}
{"geometry": {"coordinates": [-115.567012, 32.792727], "type": "Point"}, "id": "IgPxVSPe8kR4p44hTRx4CN4qJoE=", "properties": {"@source_uri": "https://tools.usps.com/UspsToolsRestServices/rest/POLocator/findLocations", "@spider": "usps_collection_boxes", "addr:city": "EL CENTRO", "addr:country": "US", "addr:postcode": "92243", "addr:state": "CA", "addr:street_address": "1249 W MAIN ST", "amenity": "post_box", "brand": "United States Postal Service", "brand:wikidata": "Q668687", "collection_times": "Mo-Sa 13:45", "note": "ON 12/24 AND 12/31, THIS BOX MAY BE COLLECTED AS EARLY AS 12 NOON.", "nsi_id": "unitedstatespostalservice-a77078", "operator": "United States Postal Service", "operator:short": "USPS", "operator:type": "public", "operator:wikidata": "Q668687", "ref": "9224300003"}, "type": "Feature"}
{"geometry": {"coordinates": [-115.563484, 32.792755], "type": "Point"}, "id": "g1NLvNdlIHtekq5c1E6yaWcUVRo=", "properties": {"@source_uri": "https://tools.usps.com/UspsToolsRestServices/rest/POLocator/findLocations", "@spider": "usps_collection_boxes", "addr:city": "EL CENTRO", "addr:country": "US", "addr:postcode": "92243", "addr:state": "CA", "addr:street_address": "939 W MAIN ST", "amenity": "post_box", "brand": "United States Postal Service", "brand:wikidata": "Q668687", "collection_times": "Mo-Sa 13:45", "note": "ON 12/24 AND 12/31, THIS BOX MAY BE COLLECTED AS EARLY AS 12 NOON.", "nsi_id": "unitedstatespostalservice-a77078", "operator": "United States Postal Service", "operator:short": "USPS", "operator:type": "public", "operator:wikidata": "Q668687", "ref": "9224300004"}, "type": "Feature"}
{"geometry": {"coordinates": [-115.569754, 32.778461], "type": "Point"}, "id": "Fet3s1Xwjoh6IxDn1Vhkg_lkgeM=", "properties": {"@source_uri": "https://tools.usps.com/UspsToolsRestServices/rest/POLocator/findLocations", "@spider": "usps_collection_boxes", "addr:city": "EL CENTRO", "addr:country": "US", "addr:postcode": "92243", "addr:state": "CA", "addr:street_address": "1950 S IMPERIAL AVE", "amenity": "post_box", "brand": "United States Postal Service", "brand:wikidata": "Q668687", "collection_times": "Mo-Sa 13:45", "note": "ON 12/24 AND 12/31, THIS BOX MAY BE COLLECTED AS EARLY AS 12 NOON.", "nsi_id": "unitedstatespostalservice-a77078", "operator": "United States Postal Service", "operator:short": "USPS", "operator:type": "public", "operator:wikidata": "Q668687", "ref": "9224300010"}, "type": "Feature"}
{"geometry": {"coordinates": [-115.55803, 32.78977], "type": "Point"}, "id": "cXwppk4l7IpmRSNRNVRprP93CWg=", "properties": {"@source_uri": "https://tools.usps.com/UspsToolsRestServices/rest/POLocator/findLocations", "@spider": "usps_collection_boxes", "addr:city": "EL CENTRO", "addr:country": "US", "addr:postcode": "92243", "addr:state": "CA", "addr:street_address": "1415 ROSS AVE", "amenity": "post_box", "brand": "United States Postal Service", "brand:wikidata": "Q668687", "collection_times": "Mo-Sa 13:45", "note": "ON 12/24 AND 12/31, THIS BOX MAY BE COLLECTED AS EARLY AS 12 NOON.", "nsi_id": "unitedstatespostalservice-a77078", "operator": "United States Postal Service", "operator:short": "USPS", "operator:type": "public", "operator:wikidata": "Q668687", "ref": "9224300011"}, "type": "Feature"}
{"geometry": {"coordinates": [-115.5615006611, 32.795604], "type": "Point"}, "id": "RwUOHDNQ1EQjCBiN0LSrqQG51tw=", "properties": {"@source_uri": "https://tools.usps.com/UspsToolsRestServices/rest/POLocator/findLocations", "@spider": "usps_collection_boxes", "addr:city": "EL CENTRO", "addr:country": "US", "addr:postcode": "92243", "addr:state": "CA", "addr:street_address": "380 N 8TH ST", "amenity": "post_box", "brand": "United States Postal Service", "brand:wikidata": "Q668687", "collection_times": "Mo-Sa 13:45", "note": "ON 12/24 AND 12/31, THIS BOX MAY BE COLLECTED AS EARLY AS 12 NOON.", "nsi_id": "unitedstatespostalservice-a77078", "operator": "United States Postal Service", "operator:short": "USPS", "operator:type": "public", "operator:wikidata": "Q668687", "ref": "9224300022"}, "type": "Feature"}
{"geometry": {"coordinates": [-115.5716900255, 32.7928235304], "type": "Point"}, "id": "q30IfVPUa4D11sFfTZi-tz9TutQ=", "properties": {"@source_uri": "https://tools.usps.com/UspsToolsRestServices/rest/POLocator/findLocations", "@spider": "usps_collection_boxes", "addr:city": "EL CENTRO", "addr:country": "US", "addr:postcode": "92243", "addr:state": "CA", "addr:street_address": "1598 W MAIN ST", "amenity": "post_box", "brand": "United States Postal Service", "brand:wikidata": "Q668687", "collection_times": "Mo-Sa 14:30", "note": "ON 12/24 AND 12/31, THIS BOX MAY BE COLLECTED AS EARLY AS 12 NOON.", "nsi_id": "unitedstatespostalservice-a77078", "operator": "United States Postal Service", "operator:short": "USPS", "operator:type": "public", "operator:wikidata": "Q668687", "ref": "9224300027"}, "type": "Feature"}
{"geometry": {"coordinates": [-115.5716900255, 32.7928235304], "type": "Point"}, "id": "I0dawImzvd4TElV7ZXih0MGMLjU=", "properties": {"@source_uri": "https://tools.usps.com/UspsToolsRestServices/rest/POLocator/findLocations", "@spider": "usps_collection_boxes", "addr:city": "EL CENTRO", "addr:country": "US", "addr:postcode": "92243", "addr:state": "CA", "addr:street_address": "1598 W MAIN ST", "amenity": "post_box", "brand": "United States Postal Service", "brand:wikidata": "Q668687", "collection_times": "Mo-Sa 14:30", "note": "ON 12/24 AND 12/31, THIS BOX MAY BE COLLECTED AS EARLY AS 12 NOON.", "nsi_id": "unitedstatespostalservice-a77078", "operator": "United States Postal Service", "operator:short": "USPS", "operator:type": "public", "operator:wikidata": "Q668687", "ref": "9224300028"}, "type": "Feature"}
{"geometry": {"coordinates": [-115.5716900255, 32.7928235304], "type": "Point"}, "id": "TEy7UayU97I0gqz4Pnr415kKD7w=", "properties": {"@source_uri": "https://tools.usps.com/UspsToolsRestServices/rest/POLocator/findLocations", "@spider": "usps_collection_boxes", "addr:city": "EL CENTRO", "addr:country": "US", "addr:postcode": "92243", "addr:state": "CA", "addr:street_address": "1598 W MAIN ST", "amenity": "post_box", "brand": "United States Postal Service", "brand:wikidata": "Q668687", "collection_times": "Mo-Sa 14:30", "note": "ON 12/24 AND 12/31, THIS BOX MAY BE COLLECTED AS EARLY AS 12 NOON.", "nsi_id": "unitedstatespostalservice-a77078", "operator": "United States Postal Service", "operator:short": "USPS", "operator:type": "public", "operator:wikidata": "Q668687", "ref": "9224300029"}, "type": "Feature"}
{"geometry": {"coordinates": [-115.5716900255, 32.7928235304], "type": "Point"}, "id": "x6HlY0DwwVfLHuzCODYPJNVyyXA=", "properties": {"@source_uri": "https://tools.usps.com/UspsToolsRestServices/rest/POLocator/findLocations", "@spider": "usps_collection_boxes", "addr:city": "EL CENTRO", "addr:country": "US", "addr:postcode": "92243", "addr:state": "CA", "addr:street_address": "1598 W MAIN ST", "amenity": "post_box", "brand": "United States Postal Service", "brand:wikidata": "Q668687", "collection_times": "Mo-Fr 14:30", "indoor": "yes", "note": "ON 12/24 AND 12/31, THIS BOX MAY BE COLLECTED AS EARLY AS 12 NOON.", "nsi_id": "unitedstatespostalservice-a77078", "operator": "United States Postal Service", "operator:short": "USPS", "operator:type": "public", "operator:wikidata": "Q668687", "ref": "9224300047"}, "type": "Feature"}
{"geometry": {"coordinates": [-115.5280535255, 32.7306385029], "type": "Point"}, "id": "NtgMFuGzcxzwEZlnR10J7P5erc0=", "properties": {"@source_uri": "https://tools.usps.com/UspsToolsRestServices/rest/POLocator/findLocations", "@spider": "usps_collection_boxes", "addr:city": "HEBER", "addr:country": "US", "addr:postcode": "92249", "addr:state": "CA", "addr:street_address": "71 E MAIN ST", "amenity": "post_box", "brand": "United States Postal Service", "brand:wikidata": "Q668687", "collection_times": "Mo-Fr 13:45; Sa 09:00", "note": "ON 12/24 AND 12/31, THIS BOX MAY BE COLLECTED AS EARLY AS 12 NOON.", "nsi_id": "unitedstatespostalservice-a77078", "operator": "United States Postal Service", "operator:short": "USPS", "operator:type": "public", "operator:wikidata": "Q668687", "ref": "9224900001"}, "type": "Feature"}
{"geometry": {"coordinates": [-115.5280535255, 32.7306385029], "type": "Point"}, "id": "5StcHJaw1DbsEQU_mQ7YUBt35vQ=", "properties": {"@source_uri": "https://tools.usps.com/UspsToolsRestServices/rest/POLocator/findLocations", "@spider": "usps_collection_boxes", "addr:city": "HEBER", "addr:country": "US", "addr:postcode": "92249", "addr:state": "CA", "addr:street_address": "71 E MAIN ST", "amenity": "post_box", "brand": "United States Postal Service", "brand:wikidata": "Q668687", "collection_times": "Mo-Fr 13:45", "indoor": "yes", "note": "ON 12/24 AND 12/31, THIS BOX MAY BE COLLECTED AS EARLY AS 12 NOON.", "nsi_id": "unitedstatespostalservice-a77078", "operator": "United States Postal Service", "operator:short": "USPS", "operator:type": "public", "operator:wikidata": "Q668687", "ref": "9224900005"}, "type": "Feature"}
{"geometry": {"coordinates": [-115.372322, 32.810715], "type": "Point"}, "id": "DduhDbUou5wBt-mPRaVnhLQfj9k=", "properties": {"@source_uri": "https://tools.usps.com/UspsToolsRestServices/rest/POLocator/findLocations", "@spider": "usps_collection_boxes", "addr:city": "HOLTVILLE", "addr:country": "US", "addr:postcode": "92250", "addr:state": "CA", "addr:street_address": "708 E 5TH ST", "amenity": "post_box", "brand": "United States Postal Service", "brand:wikidata": "Q668687", "collection_times": "Mo-Sa 10:00", "nsi_id": "unitedstatespostalservice-a77078", "operator": "United States Postal Service", "operator:short": "USPS", "operator:type": "public", "operator:wikidata": "Q668687", "ref": "9225000001"}, "type": "Feature"}
{"geometry": {"coordinates": [-115.380306, 32.810873], "type": "Point"}, "id": "NxG992il3sWEwtcn7bqZfimfotA=", "properties": {"@source_uri": "https://tools.usps.com/UspsToolsRestServices/rest/POLocator/findLocations", "@spider": "usps_collection_boxes", "addr:city": "HOLTVILLE", "addr:country": "US", "addr:postcode": "92250", "addr:state": "CA", "addr:street_address": "102 W 5TH ST", "amenity": "post_box", "brand": "United States Postal Service", "brand:wikidata": "Q668687", "collection_times": "Mo-Sa 12:30", "note": "ON 12/24 AND 12/31, THIS BOX MAY BE COLLECTED AS EARLY AS 12 NOON.", "nsi_id": "unitedstatespostalservice-a77078", "operator": "United States Postal Service", "operator:short": "USPS", "operator:type": "public", "operator:wikidata": "Q668687", "ref": "9225000008"}, "type": "Feature"}
{"geometry": {"coordinates": [-115.3788897806, 32.8114895029], "type": "Point"}, "id": "mOQ3ZoR4hHx3uNO5L4HIURZRhhs=", "properties": {"@source_uri": "https://tools.usps.com/UspsToolsRestServices/rest/POLocator/findLocations", "@spider": "usps_collection_boxes", "addr:city": "HOLTVILLE", "addr:country": "US", "addr:postcode": "92250", "addr:state": "CA", "addr:street_address": "520 FERN AVE", "amenity": "post_box", "brand": "United States Postal Service", "brand:wikidata": "Q668687", "collection_times": "Mo-Sa 13:00", "note": "ON 12/24 AND 12/31, THIS BOX MAY BE COLLECTED AS EARLY AS 12 NOON.", "nsi_id": "unitedstatespostalservice-a77078", "operator": "United States Postal Service", "operator:short": "USPS", "operator:type": "public", "operator:wikidata": "Q668687", "ref": "9225000011"}, "type": "Feature"}
{"geometry": {"coordinates": [-115.3788897806, 32.8114895029], "type": "Point"}, "id": "N2dZmoHXOucjGpgl7Xs9nOT8eic=", "properties": {"@source_uri": "https://tools.usps.com/UspsToolsRestServices/rest/POLocator/findLocations", "@spider": "usps_collection_boxes", "addr:city": "HOLTVILLE", "addr:country": "US", "addr:postcode": "92250", "addr:state": "CA", "addr:street_address": "520 FERN AVE", "amenity": "post_box", "brand": "United States Postal Service", "brand:wikidata": "Q668687", "collection_times": "Mo-Fr 13:30", "indoor": "yes", "note": "ON 12/24 AND 12/31, THIS BOX MAY BE COLLECTED AS EARLY AS 12 NOON.", "nsi_id": "unitedstatespostalservice-a77078", "operator": "United States Postal Service", "operator:short": "USPS", "operator:type": "public", "operator:wikidata": "Q668687", "ref": "9225000012"}, "type": "Feature"}
{"geometry": {"coordinates": [-115.569920872, 32.855063345], "type": "Point"}, "id": "fgND86G0nRVCu9MYHMyXC4NdwtQ=", "properties": {"@source_uri": "https://tools.usps.com/UspsToolsRestServices/rest/POLocator/findLocations", "@spider": "usps_collection_boxes", "addr:city": "IMPERIAL", "addr:country": "US", "addr:postcode": "92251", "addr:state": "CA", "addr:street_address": "820 N IMPERIAL AVE", "amenity": "post_box", "brand": "United States Postal Service", "brand:wikidata": "Q668687", "collection_times": "Mo-Sa 13:30", "note": "ON 12/24 AND 12/31, THIS BOX MAY BE COLLECTED AS EARLY AS 12 NOON.", "nsi_id": "unitedstatespostalservice-a77078", "operator": "United States Postal Service", "operator:short": "USPS", "operator:type": "public", "operator:wikidata": "Q668687", "ref": "9225100001"}, "type": "Feature"}
{"geometry": {"coordinates": [-115.581489, 32.82569], "type": "Point"}, "id": "Cj10OFwag7FoSXoHta86Eq4sBug=", "properties": {"@source_uri": "https://tools.usps.com/UspsToolsRestServices/rest/POLocator/findLocations", "@spider": "usps_collection_boxes", "addr:city": "IMPERIAL", "addr:country": "US", "addr:postcode": "92251", "addr:state": "CA", "addr:street_address": "516 W ATEN RD", "amenity": "post_box", "brand": "United States Postal Service", "brand:wikidata": "Q668687", "collection_times": "Mo-Sa 11:00", "nsi_id": "unitedstatespostalservice-a77078", "operator": "United States Postal Service", "operator:short": "USPS", "operator:type": "public", "operator:wikidata": "Q668687", "ref": "9225100006"}, "type": "Feature"}
{"geometry": {"coordinates": [-115.569920872, 32.855063345], "type": "Point"}, "id": "pbctCh-hbsdl3rsvNTYGYpATihM=", "properties": {"@source_uri": "https://tools.usps.com/UspsToolsRestServices/rest/POLocator/findLocations", "@spider": "usps_collection_boxes", "addr:city": "IMPERIAL", "addr:country": "US", "addr:postcode": "92251", "addr:state": "CA", "addr:street_address": "820 N IMPERIAL AVE", "amenity": "post_box", "brand": "United States Postal Service", "brand:wikidata": "Q668687", "collection_times": "Mo-Fr 16:00", "indoor": "yes", "note": "ON 12/24 AND 12/31, THIS BOX MAY BE COLLECTED AS EARLY AS 12 NOON.", "nsi_id": "unitedstatespostalservice-a77078", "operator": "United States Postal Service", "operator:short": "USPS", "operator:type": "public", "operator:wikidata": "Q668687", "ref": "9225100007"}, "type": "Feature"}
{"geometry": {"coordinates": [-116.3237694287, 34.1350345654], "type": "Point"}, "id": "2WZWvK6v0mgfyKzYwZBG4Xnq5tc=", "properties": {"@source_uri": "https://tools.usps.com/UspsToolsRestServices/rest/POLocator/findLocations", "@spider": "usps_collection_boxes", "addr:city": "JOSHUA TREE", "addr:country": "US", "addr:postcode": "92252", "addr:state": "CA", "addr:street_address": "61416 29 PALMS HWY", "amenity": "post_box", "brand": "United States Postal Service", "brand:wikidata": "Q668687", "collection_times": "Mo-Fr 17:00; Sa 14:45", "note": "ON 12/24 AND 12/31, THIS BOX MAY BE COLLECTED AS EARLY AS 12 NOON.", "nsi_id": "unitedstatespostalservice-a77078", "operator": "United States Postal Service", "operator:short": "USPS", "operator:type": "public", "operator:wikidata": "Q668687", "ref": "9225200003"}, "type": "Feature"}
{"geometry": {"coordinates": [-116.315093, 34.13555], "type": "Point"}, "id": "l2meZrQP4uHR4bCZDSHQ2PA_oiM=", "properties": {"@source_uri": "https://tools.usps.com/UspsToolsRestServices/rest/POLocator/findLocations", "@spider": "usps_collection_boxes", "addr:city": "JOSHUA TREE", "addr:country": "US", "addr:postcode": "92252", "addr:state": "CA", "addr:street_address": "6465 PARK BLVD", "amenity": "post_box", "brand": "United States Postal Service", "brand:wikidata": "Q668687", "collection_times": "Mo-Sa 13:00", "note": "ON 12/24 AND 12/31, THIS BOX MAY BE COLLECTED AS EARLY AS 12 NOON.", "nsi_id": "unitedstatespostalservice-a77078", "operator": "United States Postal Service", "operator:short": "USPS", "operator:type": "public", "operator:wikidata": "Q668687", "ref": "9225200005"}, "type": "Feature"}
{"geometry": {"coordinates": [-116.3237694287, 34.1350345654], "type": "Point"}, "id": "VCtf3hwSJ_X5t_ygnk-kGLUMuXk=", "properties": {"@source_uri": "https://tools.usps.com/UspsToolsRestServices/rest/POLocator/findLocations", "@spider": "usps_collection_boxes", "addr:city": "JOSHUA TREE", "addr:country": "US", "addr:postcode": "92252", "addr:state": "CA", "addr:street_address": "61416 29 PALMS HWY", "amenity": "post_box", "brand": "United States Postal Service", "brand:wikidata": "Q668687", "collection_times": "Mo-Fr 17:00", "indoor": "yes", "note": "ON 12/24 AND 12/31, THIS BOX MAY BE COLLECTED AS EARLY AS 12 NOON.", "nsi_id": "unitedstatespostalservice-a77078", "operator": "United States Postal Service", "operator:short": "USPS", "operator:type": "public", "operator:wikidata": "Q668687", "ref": "9225200008"}, "type": "Feature"}
{"geometry": {"coordinates": [-116.304438, 33.675537], "type": "Point"}, "id": "DfRx_BIdN1gyOsfhseKNNwSbZac=", "properties": {"@source_uri": "https://tools.usps.com/UspsToolsRestServices/rest/POLocator/findLocations", "@spider": "usps_collection_boxes", "addr:city": "LA QUINTA", "addr:country": "US", "addr:postcode": "92253", "addr:state": "CA", "addr:street_address": "51321 AVE BERMUDAS", "amenity": "post_box", "brand": "United States Postal Service", "brand:wikidata": "Q668687", "collection_times": "Mo-Fr 17:00; Sa 14:00", "note": "ON 12/24 AND 12/31, THIS BOX MAY BE COLLECTED AS EARLY AS 12 NOON.", "nsi_id": "unitedstatespostalservice-a77078", "operator": "United States Postal Service", "operator:short": "USPS", "operator:type": "public", "operator:wikidata": "Q668687", "ref": "9225300001"}, "type": "Feature"}
{"geometry": {"coordinates": [-116.30795, 33.6713101], "type": "Point"}, "id": "hDL_qBEGRDg2XlLaiZuQCufOTrY=", "properties": {"@source_uri": "https://tools.usps.com/UspsToolsRestServices/rest/POLocator/findLocations", "@spider": "usps_collection_boxes", "addr:city": "LA QUINTA", "addr:country": "US", "addr:postcode": "92253", "addr:state": "CA", "addr:street_address": "51321 AVENIDA BERMUDAS", "amenity": "post_box", "brand": "United States Postal Service", "brand:wikidata": "Q668687", "collection_times": "Mo-Fr 17:00; Sa 14:00", "name": "USPS COLLECTION BOX - EXPRESS", "note": "ON 12/24 AND 12/31, THIS BOX MAY BE COLLECTED AS EARLY AS 12 NOON.", "nsi_id": "unitedstatespostalservice-a77078", "operator": "United States Postal Service", "operator:short": "USPS", "operator:type": "public", "operator:wikidata": "Q668687", "ref": "9225300005"}, "type": "Feature"}
{"geometry": {"coordinates": [-116.297059, 33.715285], "type": "Point"}, "id": "SQWuDfgjjZ0BRXeLgJj3uwjoXWw=", "properties": {"@source_uri": "https://tools.usps.com/UspsToolsRestServices/rest/POLocator/findLocations", "@spider": "usps_collection_boxes", "addr:city": "LA QUINTA", "addr:country": "US", "addr:postcode": "92253", "addr:state": "CA", "addr:street_address": "78435 HIGHWAY 111", "amenity": "post_box", "brand": "United States Postal Service", "brand:wikidata": "Q668687", "collection_times": "Mo-Fr 14:00; Sa 13:45", "note": "ON 12/24 AND 12/31, THIS BOX MAY BE COLLECTED AS EARLY AS 12 NOON.", "nsi_id": "unitedstatespostalservice-a77078", "operator": "United States Postal Service", "operator:short": "USPS", "operator:type": "public", "operator:wikidata": "Q668687", "ref": "9225300009"}, "type": "Feature"}
{"geometry": {"coordinates": [-116.2854119374, 33.7103155778], "type": "Point"}, "id": "XmDzSXXtGs1JIngxK-4xI7rSWFk=", "properties": {"@source_uri": "https://tools.usps.com/UspsToolsRestServices/rest/POLocator/findLocations", "@spider": "usps_collection_boxes", "addr:city": "LA QUINTA", "addr:country": "US", "addr:postcode": "92253", "addr:state": "CA", "addr:street_address": "79125 CORPORATE CENTER DR", "amenity": "post_box", "brand": "United States Postal Service", "brand:wikidata": "Q668687", "collection_times": "Mo-Sa 17:00", "note": "ON 12/24 AND 12/31, THIS BOX MAY BE COLLECTED AS EARLY AS 12 NOON.", "nsi_id": "unitedstatespostalservice-a77078", "operator": "United States Postal Service", "operator:short": "USPS", "operator:type": "public", "operator:wikidata": "Q668687", "ref": "9225300011"}, "type": "Feature"}
{"geometry": {"coordinates": [-116.30795, 33.6713101], "type": "Point"}, "id": "1fxKe13C56AvpbG6DSbcjj2fmB4=", "properties": {"@source_uri": "https://tools.usps.com/UspsToolsRestServices/rest/POLocator/findLocations", "@spider": "usps_collection_boxes", "addr:city": "LA QUINTA", "addr:country": "US", "addr:postcode": "92253", "addr:state": "CA", "addr:street_address": "51321 AVENIDA BERMUDAS", "amenity": "post_box", "brand": "United States Postal Service", "brand:wikidata": "Q668687", "collection_times": "Mo-Fr 17:00; Sa 14:00", "note": "ON 12/24 AND 12/31, THIS BOX MAY BE COLLECTED AS EARLY AS 12 NOON.", "nsi_id": "unitedstatespostalservice-a77078", "operator": "United States Postal Service", "operator:short": "USPS", "operator:type": "public", "operator:wikidata": "Q668687", "ref": "9225300013"}, "type": "Feature"}
{"geometry": {"coordinates": [-116.2854119374, 33.7103155778], "type": "Point"}, "id": "kvBgtT2r-uLJhw0f5dKU7vYtcZM=", "properties": {"@source_uri": "https://tools.usps.com/UspsToolsRestServices/rest/POLocator/findLocations", "@spider": "usps_collection_boxes", "addr:city": "LA QUINTA", "addr:country": "US", "addr:postcode": "92253", "addr:state": "CA", "addr:street_address": "79125 CORPORATE CENTER DR", "amenity": "post_box", "brand": "United States Postal Service", "brand:wikidata": "Q668687", "collection_times": "Mo-Sa 17:00", "note": "ON 12/24 AND 12/31, THIS BOX MAY BE COLLECTED AS EARLY AS 12 NOON.", "nsi_id": "unitedstatespostalservice-a77078", "operator": "United States Postal Service", "operator:short": "USPS", "operator:type": "public", "operator:wikidata": "Q668687", "ref": "9225300020"}, "type": "Feature"}
{"geometry": {"coordinates": [-116.243984, 33.607187], "type": "Point"}, "id": "XG4KYdPC2vzxk-UpwLVOqti3Sw4=", "properties": {"@source_uri": "https://tools.usps.com/UspsToolsRestServices/rest/POLocator/findLocations", "@spider": "usps_collection_boxes", "addr:city": "LA QUINTA", "addr:country": "US", "addr:postcode": "92253", "addr:state": "CA", "addr:street_address": "60800 TRILOGY PKWY", "amenity": "post_box", "brand": "United States Postal Service", "brand:wikidata": "Q668687", "collection_times": "Mo-Sa 12:00", "nsi_id": "unitedstatespostalservice-a77078", "operator": "United States Postal Service", "operator:short": "USPS", "operator:type": "public", "operator:wikidata": "Q668687", "ref": "9225300022"}, "type": "Feature"}
{"geometry": {"coordinates": [-116.2854119374, 33.7103155778], "type": "Point"}, "id": "OEkGcDjVPaDvgadp9d8eX1feDwo=", "properties": {"@source_uri": "https://tools.usps.com/UspsToolsRestServices/rest/POLocator/findLocations", "@spider": "usps_collection_boxes", "addr:city": "LA QUINTA", "addr:country": "US", "addr:postcode": "92253", "addr:state": "CA", "addr:street_address": "79125 CORPORATE CENTER DR", "amenity": "post_box", "brand": "United States Postal Service", "brand:wikidata": "Q668687", "collection_times": "Mo-Sa 17:00", "name": "USPS COLLECTION BOX - APC", "note": "ON 12/24 AND 12/31, THIS BOX MAY BE COLLECTED AS EARLY AS 12 NOON.", "nsi_id": "unitedstatespostalservice-a77078", "operator": "United States Postal Service", "operator:short": "USPS", "operator:type": "public", "operator:wikidata": "Q668687", "ref": "9225300026"}, "type": "Feature"}
{"geometry": {"coordinates": [-116.2854119374, 33.7103155778], "type": "Point"}, "id": "6HrhLH81ENhc3305G10loeDE8Qo=", "properties": {"@source_uri": "https://tools.usps.com/UspsToolsRestServices/rest/POLocator/findLocations", "@spider": "usps_collection_boxes", "addr:city": "LA QUINTA", "addr:country": "US", "addr:postcode": "92253", "addr:state": "CA", "addr:street_address": "79125 CORPORATE CENTER DR", "amenity": "post_box", "brand": "United States Postal Service", "brand:wikidata": "Q668687", "collection_times": "Mo-Fr 17:00", "indoor": "yes", "note": "ON 12/24 AND 12/31, THIS BOX MAY BE COLLECTED AS EARLY AS 12 NOON.", "nsi_id": "unitedstatespostalservice-a77078", "operator": "United States Postal Service", "operator:short": "USPS", "operator:type": "public", "operator:wikidata": "Q668687", "ref": "9225300032"}, "type": "Feature"}
{"geometry": {"coordinates": [-116.3037030003, 33.67566], "type": "Point"}, "id": "x3Gtt-pbvwRleMV--W-43m9uJ6A=", "properties": {"@source_uri": "https://tools.usps.com/UspsToolsRestServices/rest/POLocator/findLocations", "@spider": "usps_collection_boxes", "addr:city": "LA QUINTA", "addr:country": "US", "addr:postcode": "92253", "addr:state": "CA", "addr:street_address": "51321 AVENIDA BERMUDAS", "amenity": "post_box", "brand": "United States Postal Service", "brand:wikidata": "Q668687", "collection_times": "Mo-Fr 16:30", "indoor": "yes", "note": "ON 12/24 AND 12/31, THIS BOX MAY BE COLLECTED AS EARLY AS 12 NOON.", "nsi_id": "unitedstatespostalservice-a77078", "operator": "United States Postal Service", "operator:short": "USPS", "operator:type": "public", "operator:wikidata": "Q668687", "ref": "9225300033"}, "type": "Feature"}
{"geometry": {"coordinates": [-116.0737419817, 33.5700984885], "type": "Point"}, "id": "GLbEo_PHlZttAcK7GrYHE83JN1w=", "properties": {"@source_uri": "https://tools.usps.com/UspsToolsRestServices/rest/POLocator/findLocations", "@spider": "usps_collection_boxes", "addr:city": "MECCA", "addr:country": "US", "addr:postcode": "92254", "addr:state": "CA", "addr:street_address": "91307 2ND ST", "amenity": "post_box", "brand": "United States Postal Service", "brand:wikidata": "Q668687", "collection_times": "Mo-Fr 16:30; Sa 10:30", "note": "ON 12/24 AND 12/31, THIS BOX MAY BE COLLECTED AS EARLY AS 12 NOON.", "nsi_id": "unitedstatespostalservice-a77078", "operator": "United States Postal Service", "operator:short": "USPS", "operator:type": "public", "operator:wikidata": "Q668687", "ref": "9225400003"}, "type": "Feature"}
{"geometry": {"coordinates": [-116.0736885, 33.5701005309], "type": "Point"}, "id": "ire2mD3jMpkw3Q6xS0UEegmuD5Q=", "properties": {"@source_uri": "https://tools.usps.com/UspsToolsRestServices/rest/POLocator/findLocations", "@spider": "usps_collection_boxes", "addr:city": "MECCA", "addr:country": "US", "addr:postcode": "92254", "addr:state": "CA", "addr:street_address": "91307 2ND ST", "amenity": "post_box", "brand": "United States Postal Service", "brand:wikidata": "Q668687", "collection_times": "Mo-Sa 16:00", "indoor": "yes", "note": "ON 12/24 AND 12/31, THIS BOX MAY BE COLLECTED AS EARLY AS 12 NOON.", "nsi_id": "unitedstatespostalservice-a77078", "operator": "United States Postal Service", "operator:short": "USPS", "operator:type": "public", "operator:wikidata": "Q668687", "ref": "9225400004"}, "type": "Feature"}
{"geometry": {"coordinates": [-116.0737419817, 33.5700984885], "type": "Point"}, "id": "iet_Ur9it6XMJB3Q18_Z-99DGyw=", "properties": {"@source_uri": "https://tools.usps.com/UspsToolsRestServices/rest/POLocator/findLocations", "@spider": "usps_collection_boxes", "addr:city": "MECCA", "addr:country": "US", "addr:postcode": "92254", "addr:state": "CA", "addr:street_address": "91307 2ND ST", "amenity": "post_box", "brand": "United States Postal Service", "brand:wikidata": "Q668687", "collection_times": "Mo-Fr 16:30", "indoor": "yes", "note": "ON 12/24 AND 12/31, THIS BOX MAY BE COLLECTED AS EARLY AS 12 NOON.", "nsi_id": "unitedstatespostalservice-a77078", "operator": "United States Postal Service", "operator:short": "USPS", "operator:type": "public", "operator:wikidata": "Q668687", "ref": "9225400005"}, "type": "Feature"}
{"geometry": {"coordinates": [-116.5820630065, 34.0451189894], "type": "Point"}, "id": "rs5wpBU3gMDscwzLsnxecSwAcNo=", "properties": {"@source_uri": "https://tools.usps.com/UspsToolsRestServices/rest/POLocator/findLocations", "@spider": "usps_collection_boxes", "addr:city": "MORONGO VALLEY", "addr:country": "US", "addr:postcode": "92256", "addr:state": "CA", "addr:street_address": "49649 29 PALMS HWY", "amenity": "post_box", "brand": "United States Postal Service", "brand:wikidata": "Q668687", "collection_times": "Mo-Fr 16:00; Sa 12:00", "note": "ON 12/24 AND 12/31, THIS BOX MAY BE COLLECTED AS EARLY AS 12 NOON.", "nsi_id": "unitedstatespostalservice-a77078", "operator": "United States Postal Service", "operator:short": "USPS", "operator:type": "public", "operator:wikidata": "Q668687", "ref": "9225600001"}, "type": "Feature"}
{"geometry": {"coordinates": [-116.5820630065, 34.0451189894], "type": "Point"}, "id": "K5QXUernuW3z-t7ZnsJmNXaBfvw=", "properties": {"@source_uri": "https://tools.usps.com/UspsToolsRestServices/rest/POLocator/findLocations", "@spider": "usps_collection_boxes", "addr:city": "MORONGO VALLEY", "addr:country": "US", "addr:postcode": "92256", "addr:state": "CA", "addr:street_address": "49649 29 PALMS HWY", "amenity": "post_box", "brand": "United States Postal Service", "brand:wikidata": "Q668687", "collection_times": "Mo-Fr 16:00", "indoor": "yes", "note": "ON 12/24 AND 12/31, THIS BOX MAY BE COLLECTED AS EARLY AS 12 NOON.", "nsi_id": "unitedstatespostalservice-a77078", "operator": "United States Postal Service", "operator:short": "USPS", "operator:type": "public", "operator:wikidata": "Q668687", "ref": "9225600005"}, "type": "Feature"}
{"geometry": {"coordinates": [-115.7337229586, 33.3526439934], "type": "Point"}, "id": "LMlxmrI_ngpAmjgycdk_ebE5gmc=", "properties": {"@source_uri": "https://tools.usps.com/UspsToolsRestServices/rest/POLocator/findLocations", "@spider": "usps_collection_boxes", "addr:city": "NILAND", "addr:country": "US", "addr:postcode": "92257", "addr:state": "CA", "addr:street_address": "9592 AVENUE A", "amenity": "post_box", "brand": "United States Postal Service", "brand:wikidata": "Q668687", "collection_times": "Mo-Fr 09:00", "nsi_id": "unitedstatespostalservice-a77078", "operator": "United States Postal Service", "operator:short": "USPS", "operator:type": "public", "operator:wikidata": "Q668687", "ref": "9225700002"}, "type": "Feature"}
{"geometry": {"coordinates": [-116.542565, 33.92485], "type": "Point"}, "id": "IwqxsV8QaJB5NG8HRwdH1CFDMSk=", "properties": {"@source_uri": "https://tools.usps.com/UspsToolsRestServices/rest/POLocator/findLocations", "@spider": "usps_collection_boxes", "addr:city": "NORTH PALM SPRNG", "addr:country": "US", "addr:postcode": "92258", "addr:state": "CA", "addr:street_address": "64117 DILLION RD", "amenity": "post_box", "brand": "United States Postal Service", "brand:wikidata": "Q668687", "collection_times": "Mo-Fr 16:30; Sa 10:45", "note": "ON 12/24 AND 12/31, THIS BOX MAY BE COLLECTED AS EARLY AS 12 NOON.", "nsi_id": "unitedstatespostalservice-a77078", "operator": "United States Postal Service", "operator:short": "USPS", "operator:type": "public", "operator:wikidata": "Q668687", "ref": "9225800002"}, "type": "Feature"}
{"geometry": {"coordinates": [-116.5433527302, 33.9248165467], "type": "Point"}, "id": "npmaRumcFe2ayr4pOnRfxl3OGTs=", "properties": {"@source_uri": "https://tools.usps.com/UspsToolsRestServices/rest/POLocator/findLocations", "@spider": "usps_collection_boxes", "addr:city": "NORTH PALM SPRNG", "addr:country": "US", "addr:postcode": "92258", "addr:state": "CA", "addr:street_address": "64117 DILLION RD", "amenity": "post_box", "brand": "United States Postal Service", "brand:wikidata": "Q668687", "collection_times": "Mo-Fr 16:30", "indoor": "yes", "note": "ON 12/24 AND 12/31, THIS BOX MAY BE COLLECTED AS EARLY AS 12 NOON.", "nsi_id": "unitedstatespostalservice-a77078", "operator": "United States Postal Service", "operator:short": "USPS", "operator:type": "public", "operator:wikidata": "Q668687", "ref": "9225800004"}, "type": "Feature"}
{"geometry": {"coordinates": [-115.9942341611, 32.7370593353], "type": "Point"}, "id": "H1diPmyUt20h4OWaawpjVKrLEv8=", "properties": {"@source_uri": "https://tools.usps.com/UspsToolsRestServices/rest/POLocator/findLocations", "@spider": "usps_collection_boxes", "addr:city": "OCOTILLO", "addr:country": "US", "addr:postcode": "92259", "addr:state": "CA", "addr:street_address": "1153 N IMPERIAL HWY", "amenity": "post_box", "brand": "United States Postal Service", "brand:wikidata": "Q668687", "collection_times": "Mo-Fr 12:15; Sa 09:00", "note": "ON 12/24 AND 12/31, THIS BOX MAY BE COLLECTED AS EARLY AS 12 NOON.", "nsi_id": "unitedstatespostalservice-a77078", "operator": "United States Postal Service", "operator:short": "USPS", "operator:type": "public", "operator:wikidata": "Q668687", "ref": "9225900001"}, "type": "Feature"}
{"geometry": {"coordinates": [-115.9942341611, 32.7370593353], "type": "Point"}, "id": "50cWd54Xsv4hnKDyvcYHWBdiGR8=", "properties": {"@source_uri": "https://tools.usps.com/UspsToolsRestServices/rest/POLocator/findLocations", "@spider": "usps_collection_boxes", "addr:city": "OCOTILLO", "addr:country": "US", "addr:postcode": "92259", "addr:state": "CA", "addr:street_address": "1153 N IMPERIAL HWY", "amenity": "post_box", "brand": "United States Postal Service", "brand:wikidata": "Q668687", "collection_times": "Mo-Fr 12:15; Sa 09:00", "note": "ON 12/24 AND 12/31, THIS BOX MAY BE COLLECTED AS EARLY AS 12 NOON.", "nsi_id": "unitedstatespostalservice-a77078", "operator": "United States Postal Service", "operator:short": "USPS", "operator:type": "public", "operator:wikidata": "Q668687", "ref": "9225900003"}, "type": "Feature"}
{"geometry": {"coordinates": [-115.9942341611, 32.7370593353], "type": "Point"}, "id": "W4NKz9roFkTh-Nrjov7TJoYXWDE=", "properties": {"@source_uri": "https://tools.usps.com/UspsToolsRestServices/rest/POLocator/findLocations", "@spider": "usps_collection_boxes", "addr:city": "OCOTILLO", "addr:country": "US", "addr:postcode": "92259", "addr:state": "CA", "addr:street_address": "1153 N IMPERIAL HWY", "amenity": "post_box", "brand": "United States Postal Service", "brand:wikidata": "Q668687", "collection_times": "Mo-Fr 12:30", "indoor": "yes", "note": "ON 12/24 AND 12/31, THIS BOX MAY BE COLLECTED AS EARLY AS 12 NOON.", "nsi_id": "unitedstatespostalservice-a77078", "operator": "United States Postal Service", "operator:short": "USPS", "operator:type": "public", "operator:wikidata": "Q668687", "ref": "9225900004"}, "type": "Feature"}
{"geometry": {"coordinates": [-116.391761277, 33.7197915066], "type": "Point"}, "id": "nGGcqEZZyG245lER6Kz5v-cpFDU=", "properties": {"@source_uri": "https://tools.usps.com/UspsToolsRestServices/rest/POLocator/findLocations", "@spider": "usps_collection_boxes", "addr:city": "PALM DESERT", "addr:country": "US", "addr:postcode": "92260", "addr:state": "CA", "addr:street_address": "72996 EL PASEO", "amenity": "post_box", "brand": "United States Postal Service", "brand:wikidata": "Q668687", "collection_times": "Mo-Sa 10:00", "nsi_id": "unitedstatespostalservice-a77078", "operator": "United States Postal Service", "operator:short": "USPS", "operator:type": "public", "operator:wikidata": "Q668687", "ref": "9226000003"}, "type": "Feature"}
{"geometry": {"coordinates": [-116.3897669764, 33.7297520199], "type": "Point"}, "id": "PlzWODq_6LOOh4zMSsnWbZUJ_wE=", "properties": {"@source_uri": "https://tools.usps.com/UspsToolsRestServices/rest/POLocator/findLocations", "@spider": "usps_collection_boxes", "addr:city": "PALM DESERT", "addr:country": "US", "addr:postcode": "92260", "addr:state": "CA", "addr:street_address": "43500 MONTEREY AVE", "amenity": "post_box", "brand": "United States Postal Service", "brand:wikidata": "Q668687", "collection_times": "Mo-Sa 10:00", "nsi_id": "unitedstatespostalservice-a77078", "operator": "United States Postal Service", "operator:short": "USPS", "operator:type": "public", "operator:wikidata": "Q668687", "ref": "9226000007"}, "type": "Feature"}
{"geometry": {"coordinates": [-116.381736, 33.765583], "type": "Point"}, "id": "NerRZ8cnHBWIctevoPNDvMfEMmE=", "properties": {"@source_uri": "https://tools.usps.com/UspsToolsRestServices/rest/POLocator/findLocations", "@spider": "usps_collection_boxes", "addr:city": "PALM DESERT", "addr:country": "US", "addr:postcode": "92260", "addr:state": "CA", "addr:street_address": "73750 COUNTRY CLUB DR", "amenity": "post_box", "brand": "United States Postal Service", "brand:wikidata": "Q668687", "collection_times": "Mo-Sa 11:00", "nsi_id": "unitedstatespostalservice-a77078", "operator": "United States Postal Service", "operator:short": "USPS", "operator:type": "public", "operator:wikidata": "Q668687", "ref": "9226000008"}, "type": "Feature"}
{"geometry": {"coordinates": [-116.392783444, 33.7216373225], "type": "Point"}, "id": "EgwQmN_KKBQuEdTU8DNndqjM06Q=", "properties": {"@source_uri": "https://tools.usps.com/UspsToolsRestServices/rest/POLocator/findLocations", "@spider": "usps_collection_boxes", "addr:city": "PALM DESERT", "addr:country": "US", "addr:postcode": "92260", "addr:state": "CA", "addr:street_address": "72900 HIGHWAY 111", "amenity": "post_box", "brand": "United States Postal Service", "brand:wikidata": "Q668687", "collection_times": "Mo-Sa 12:00", "nsi_id": "unitedstatespostalservice-a77078", "operator": "United States Postal Service", "operator:short": "USPS", "operator:type": "public", "operator:wikidata": "Q668687", "ref": "9226000012"}, "type": "Feature"}
{"geometry": {"coordinates": [-116.397414, 33.723693], "type": "Point"}, "id": "141ZbIGoV6cvxuC4F5oqh8c8s5g=", "properties": {"@source_uri": "https://tools.usps.com/UspsToolsRestServices/rest/POLocator/findLocations", "@spider": "usps_collection_boxes", "addr:city": "PALM DESERT", "addr:country": "US", "addr:postcode": "92260", "addr:state": "CA", "addr:street_address": "72780 HIGHWAY 111", "amenity": "post_box", "brand": "United States Postal Service", "brand:wikidata": "Q668687", "collection_times": "Mo-Sa 12:00", "nsi_id": "unitedstatespostalservice-a77078", "operator": "United States Postal Service", "operator:short": "USPS", "operator:type": "public", "operator:wikidata": "Q668687", "ref": "9226000013"}, "type": "Feature"}
{"geometry": {"coordinates": [-116.403121, 33.727718], "type": "Point"}, "id": "wTwsNzSSc7Uv30OvH291br_UKTk=", "properties": {"@source_uri": "https://tools.usps.com/UspsToolsRestServices/rest/POLocator/findLocations", "@spider": "usps_collection_boxes", "addr:city": "PALM DESERT", "addr:country": "US", "addr:postcode": "92260", "addr:state": "CA", "addr:street_address": "72333 HIGHWAY 111", "amenity": "post_box", "brand": "United States Postal Service", "brand:wikidata": "Q668687", "collection_times": "Mo-Sa 12:00", "nsi_id": "unitedstatespostalservice-a77078", "operator": "United States Postal Service", "operator:short": "USPS", "operator:type": "public", "operator:wikidata": "Q668687", "ref": "9226000014"}, "type": "Feature"}
{"geometry": {"coordinates": [-116.390234, 33.719844], "type": "Point"}, "id": "WOHEBpoAXkRhAZsvjdEP_QsXUN8=", "properties": {"@source_uri": "https://tools.usps.com/UspsToolsRestServices/rest/POLocator/findLocations", "@spider": "usps_collection_boxes", "addr:city": "PALM DESERT", "addr:country": "US", "addr:postcode": "92260", "addr:state": "CA", "addr:street_address": "73040 EL PASEO", "amenity": "post_box", "brand": "United States Postal Service", "brand:wikidata": "Q668687", "collection_times": "Mo-Sa 12:00", "nsi_id": "unitedstatespostalservice-a77078", "operator": "United States Postal Service", "operator:short": "USPS", "operator:type": "public", "operator:wikidata": "Q668687", "ref": "9226000015"}, "type": "Feature"}
{"geometry": {"coordinates": [-116.383969, 33.757658], "type": "Point"}, "id": "kLK-8ZXt1k_9GzZ_oDMZn2gs3aQ=", "properties": {"@source_uri": "https://tools.usps.com/UspsToolsRestServices/rest/POLocator/findLocations", "@spider": "usps_collection_boxes", "addr:city": "PALM DESERT", "addr:country": "US", "addr:postcode": "92260", "addr:state": "CA", "addr:street_address": "73373 COUNTRY CLUB DR", "amenity": "post_box", "brand": "United States Postal Service", "brand:wikidata": "Q668687", "collection_times": "Mo-Sa 11:00", "nsi_id": "unitedstatespostalservice-a77078", "operator": "United States Postal Service", "operator:short": "USPS", "operator:type": "public", "operator:wikidata": "Q668687", "ref": "9226000021"}, "type": "Feature"}
{"geometry": {"coordinates": [-116.360636, 33.746994], "type": "Point"}, "id": "yrE1OtbdjTYVZuQ43I41opMJ0nw=", "properties": {"@source_uri": "https://tools.usps.com/UspsToolsRestServices/rest/POLocator/findLocations", "@spider": "usps_collection_boxes", "addr:city": "PALM DESERT", "addr:country": "US", "addr:postcode": "92260", "addr:state": "CA", "addr:street_address": "74801 HOVLEY LN E", "amenity": "post_box", "brand": "United States Postal Service", "brand:wikidata": "Q668687", "collection_times": "Mo-Fr 17:00; Sa 16:30", "note": "ON 12/24 AND 12/31, THIS BOX MAY BE COLLECTED AS EARLY AS 12 NOON.", "nsi_id": "unitedstatespostalservice-a77078", "operator": "United States Postal Service", "operator:short": "USPS", "operator:type": "public", "operator:wikidata": "Q668687", "ref": "9226000022"}, "type": "Feature"}
{"geometry": {"coordinates": [-116.381819, 33.729778], "type": "Point"}, "id": "8uYeXmHu5eMDvawVVdO9ewJDzLI=", "properties": {"@source_uri": "https://tools.usps.com/UspsToolsRestServices/rest/POLocator/findLocations", "@spider": "usps_collection_boxes", "addr:city": "PALM DESERT", "addr:country": "US", "addr:postcode": "92260", "addr:state": "CA", "addr:street_address": "73510 FRED WARING DR", "amenity": "post_box", "brand": "United States Postal Service", "brand:wikidata": "Q668687", "collection_times": "Mo-Sa 10:00", "nsi_id": "unitedstatespostalservice-a77078", "operator": "United States Postal Service", "operator:short": "USPS", "operator:type": "public", "operator:wikidata": "Q668687", "ref": "9226000030"}, "type": "Feature"}
{"geometry": {"coordinates": [-116.38487, 33.719873], "type": "Point"}, "id": "HMjbRGV6E3zUIKx0NUyLrQv6KsU=", "properties": {"@source_uri": "https://tools.usps.com/UspsToolsRestServices/rest/POLocator/findLocations", "@spider": "usps_collection_boxes", "addr:city": "PALM DESERT", "addr:country": "US", "addr:postcode": "92260", "addr:state": "CA", "addr:street_address": "73350 EL PASEO", "amenity": "post_box", "brand": "United States Postal Service", "brand:wikidata": "Q668687", "collection_times": "Mo-Sa 12:00", "nsi_id": "unitedstatespostalservice-a77078", "operator": "United States Postal Service", "operator:short": "USPS", "operator:type": "public", "operator:wikidata": "Q668687", "ref": "9226000031"}, "type": "Feature"}
{"geometry": {"coordinates": [-116.377207, 33.719907], "type": "Point"}, "id": "j-cn3KPmvoGtKA-MOmm7g98hc6o=", "properties": {"@source_uri": "https://tools.usps.com/UspsToolsRestServices/rest/POLocator/findLocations", "@spider": "usps_collection_boxes", "addr:city": "PALM DESERT", "addr:country": "US", "addr:postcode": "92260", "addr:state": "CA", "addr:street_address": "73820 EL PASEO", "amenity": "post_box", "brand": "United States Postal Service", "brand:wikidata": "Q668687", "collection_times": "Mo-Sa 12:00", "nsi_id": "unitedstatespostalservice-a77078", "operator": "United States Postal Service", "operator:short": "USPS", "operator:type": "public", "operator:wikidata": "Q668687", "ref": "9226000035"}, "type": "Feature"}
{"geometry": {"coordinates": [-116.3768442, 33.7231131], "type": "Point"}, "id": "a640bcoNBVJHtQnXjxoPvtto31c=", "properties": {"@source_uri": "https://tools.usps.com/UspsToolsRestServices/rest/POLocator/findLocations", "@spider": "usps_collection_boxes", "addr:city": "PALM DESERT", "addr:country": "US", "addr:postcode": "92260", "addr:state": "CA", "addr:street_address": "45300 PORTOLA AVE", "amenity": "post_box", "brand": "United States Postal Service", "brand:wikidata": "Q668687", "collection_times": "Mo-Fr 17:00; Sa 12:00", "note": "ON 12/24 AND 12/31, THIS BOX MAY BE COLLECTED AS EARLY AS 12 NOON.", "nsi_id": "unitedstatespostalservice-a77078", "operator": "United States Postal Service", "operator:short": "USPS", "operator:type": "public", "operator:wikidata": "Q668687", "ref": "9226000038"}, "type": "Feature"}
{"geometry": {"coordinates": [-116.3737335254, 33.719319], "type": "Point"}, "id": "cJh6hK4BV8gl7bS-zfh4sTcBkpE=", "properties": {"@source_uri": "https://tools.usps.com/UspsToolsRestServices/rest/POLocator/findLocations", "@spider": "usps_collection_boxes", "addr:city": "PALM DESERT", "addr:country": "US", "addr:postcode": "92260", "addr:state": "CA", "addr:street_address": "45300 PORTOLA AVE", "amenity": "post_box", "brand": "United States Postal Service", "brand:wikidata": "Q668687", "collection_times": "Mo-Fr 17:00; Sa 12:00", "note": "ON 12/24 AND 12/31, THIS BOX MAY BE COLLECTED AS EARLY AS 12 NOON.", "nsi_id": "unitedstatespostalservice-a77078", "operator": "United States Postal Service", "operator:short": "USPS", "operator:type": "public", "operator:wikidata": "Q668687", "ref": "9226000040"}, "type": "Feature"}
{"geometry": {"coordinates": [-116.3737309703, 33.7192939489], "type": "Point"}, "id": "OrU1OlBOsQ1xXuINtZqaWDp__AY=", "properties": {"@source_uri": "https://tools.usps.com/UspsToolsRestServices/rest/POLocator/findLocations", "@spider": "usps_collection_boxes", "addr:city": "PALM DESERT", "addr:country": "US", "addr:postcode": "92260", "addr:state": "CA", "addr:street_address": "45300 PORTOLA AVE", "amenity": "post_box", "brand": "United States Postal Service", "brand:wikidata": "Q668687", "collection_times": "Mo-Fr 17:00; Sa 12:00", "name": "USPS COLLECTION BOX - EXPRESS", "note": "ON 12/24 AND 12/31, THIS BOX MAY BE COLLECTED AS EARLY AS 12 NOON.", "nsi_id": "unitedstatespostalservice-a77078", "operator": "United States Postal Service", "operator:short": "USPS", "operator:type": "public", "operator:wikidata": "Q668687", "ref": "9226000041"}, "type": "Feature"}
{"geometry": {"coordinates": [-116.3768442, 33.7231131], "type": "Point"}, "id": "IDsR7TMYXixL0P2UmjOvlfJF1-M=", "properties": {"@source_uri": "https://tools.usps.com/UspsToolsRestServices/rest/POLocator/findLocations", "@spider": "usps_collection_boxes", "addr:city": "PALM DESERT", "addr:country": "US", "addr:postcode": "92260", "addr:state": "CA", "addr:street_address": "74801 HOVLEY LN E", "amenity": "post_box", "brand": "United States Postal Service", "brand:wikidata": "Q668687", "collection_times": "Mo-Fr 17:00; Sa 16:30", "name": "USPS COLLECTION BOX - EXPRESS", "note": "ON 12/24 AND 12/31, THIS BOX MAY BE COLLECTED AS EARLY AS 12 NOON.", "nsi_id": "unitedstatespostalservice-a77078", "operator": "United States Postal Service", "operator:short": "USPS", "operator:type": "public", "operator:wikidata": "Q668687", "ref": "9226000045"}, "type": "Feature"}
{"geometry": {"coordinates": [-116.381828, 33.729772], "type": "Point"}, "id": "o_113wAI09EvlhinPe28hicgftE=", "properties": {"@source_uri": "https://tools.usps.com/UspsToolsRestServices/rest/POLocator/findLocations", "@spider": "usps_collection_boxes", "addr:city": "PALM DESERT", "addr:country": "US", "addr:postcode": "92260", "addr:state": "CA", "addr:street_address": "73510 FRED WARING DR", "amenity": "post_box", "brand": "United States Postal Service", "brand:wikidata": "Q668687", "collection_times": "Mo-Sa 10:00", "nsi_id": "unitedstatespostalservice-a77078", "operator": "United States Postal Service", "operator:short": "USPS", "operator:type": "public", "operator:wikidata": "Q668687", "ref": "9226000046"}, "type": "Feature"}
{"geometry": {"coordinates": [-116.399141, 33.72648], "type": "Point"}, "id": "4ievC-MQoVRsW61XkHBsT7gr-T8=", "properties": {"@source_uri": "https://tools.usps.com/UspsToolsRestServices/rest/POLocator/findLocations", "@spider": "usps_collection_boxes", "addr:city": "PALM DESERT", "addr:country": "US", "addr:postcode": "92260", "addr:state": "CA", "addr:street_address": "44411 TOWN CENTER WAY", "amenity": "post_box", "brand": "United States Postal Service", "brand:wikidata": "Q668687", "collection_times": "Mo-Sa 10:00", "nsi_id": "unitedstatespostalservice-a77078", "operator": "United States Postal Service", "operator:short": "USPS", "operator:type": "public", "operator:wikidata": "Q668687", "ref": "9226000053"}, "type": "Feature"}
{"geometry": {"coordinates": [-116.385657, 33.749035], "type": "Point"}, "id": "o320R5bPtx5qaEAA6QU0lzY_qiw=", "properties": {"@source_uri": "https://tools.usps.com/UspsToolsRestServices/rest/POLocator/findLocations", "@spider": "usps_collection_boxes", "addr:city": "PALM DESERT", "addr:country": "US", "addr:postcode": "92260", "addr:state": "CA", "addr:street_address": "41500 MONTEREY AVE", "amenity": "post_box", "brand": "United States Postal Service", "brand:wikidata": "Q668687", "collection_times": "Mo-Sa 10:00", "nsi_id": "unitedstatespostalservice-a77078", "operator": "United States Postal Service", "operator:short": "USPS", "operator:type": "public", "operator:wikidata": "Q668687", "ref": "9226000054"}, "type": "Feature"}
{"geometry": {"coordinates": [-116.37333, 33.722217], "type": "Point"}, "id": "dJNNaDpTkkY-LeY6uSbHU0BR_hk=", "properties": {"@source_uri": "https://tools.usps.com/UspsToolsRestServices/rest/POLocator/findLocations", "@spider": "usps_collection_boxes", "addr:city": "PALM DESERT", "addr:country": "US", "addr:postcode": "92260", "addr:state": "CA", "addr:street_address": "74020 ALESSANDRO DR", "amenity": "post_box", "brand": "United States Postal Service", "brand:wikidata": "Q668687", "collection_times": "Mo-Sa 12:00", "nsi_id": "unitedstatespostalservice-a77078", "operator": "United States Postal Service", "operator:short": "USPS", "operator:type": "public", "operator:wikidata": "Q668687", "ref": "9226000056"}, "type": "Feature"}
{"geometry": {"coordinates": [-116.395569, 33.706211], "type": "Point"}, "id": "KAzrKKHt9ByU-cLXs-KAgIruSZs=", "properties": {"@source_uri": "https://tools.usps.com/UspsToolsRestServices/rest/POLocator/findLocations", "@spider": "usps_collection_boxes", "addr:city": "PALM DESERT", "addr:country": "US", "addr:postcode": "92260", "addr:state": "CA", "addr:street_address": "47100 HWY 74", "amenity": "post_box", "brand": "United States Postal Service", "brand:wikidata": "Q668687", "collection_times": "Mo-Sa 12:00", "nsi_id": "unitedstatespostalservice-a77078", "operator": "United States Postal Service", "operator:short": "USPS", "operator:type": "public", "operator:wikidata": "Q668687", "ref": "9226000057"}, "type": "Feature"}
{"geometry": {"coordinates": [-116.386746, 33.72096], "type": "Point"}, "id": "BIe71bACbP1J5gAhMzrkeZImitM=", "properties": {"@source_uri": "https://tools.usps.com/UspsToolsRestServices/rest/POLocator/findLocations", "@spider": "usps_collection_boxes", "addr:city": "PALM DESERT", "addr:country": "US", "addr:postcode": "92260", "addr:state": "CA", "addr:street_address": "45000 SAGE LN", "amenity": "post_box", "brand": "United States Postal Service", "brand:wikidata": "Q668687", "collection_times": "Mo-Sa 12:00", "nsi_id": "unitedstatespostalservice-a77078", "operator": "United States Postal Service", "operator:short": "USPS", "operator:type": "public", "operator:wikidata": "Q668687", "ref": "9226000058"}, "type": "Feature"}
{"geometry": {"coordinates": [-116.379154, 33.729724], "type": "Point"}, "id": "Tio4ZxZdyEHoErR0-f54o2rRFs0=", "properties": {"@source_uri": "https://tools.usps.com/UspsToolsRestServices/rest/POLocator/findLocations", "@spider": "usps_collection_boxes", "addr:city": "PALM DESERT", "addr:country": "US", "addr:postcode": "92260", "addr:state": "CA", "addr:street_address": "73710 FRED WARING DR", "amenity": "post_box", "brand": "United States Postal Service", "brand:wikidata": "Q668687", "collection_times": "Mo-Sa 10:00", "nsi_id": "unitedstatespostalservice-a77078", "operator": "United States Postal Service", "operator:short": "USPS", "operator:type": "public", "operator:wikidata": "Q668687", "ref": "9226000060"}, "type": "Feature"}
{"geometry": {"coordinates": [-116.381449, 33.722417], "type": "Point"}, "id": "zXYDo5CXXzpPnG4ReCiVlAFAv8I=", "properties": {"@source_uri": "https://tools.usps.com/UspsToolsRestServices/rest/POLocator/findLocations", "@spider": "usps_collection_boxes", "addr:city": "PALM DESERT", "addr:country": "US", "addr:postcode": "92260", "addr:state": "CA", "addr:street_address": "73550 ALESSANDRO DR", "amenity": "post_box", "brand": "United States Postal Service", "brand:wikidata": "Q668687", "collection_times": "Mo-Sa 13:00", "note": "ON 12/24 AND 12/31, THIS BOX MAY BE COLLECTED AS EARLY AS 12 NOON.", "nsi_id": "unitedstatespostalservice-a77078", "operator": "United States Postal Service", "operator:short": "USPS", "operator:type": "public", "operator:wikidata": "Q668687", "ref": "9226000061"}, "type": "Feature"}
{"geometry": {"coordinates": [-116.384752, 33.720747], "type": "Point"}, "id": "uFoSLbsmVcJCorIXBN1dr8iTzHs=", "properties": {"@source_uri": "https://tools.usps.com/UspsToolsRestServices/rest/POLocator/findLocations", "@spider": "usps_collection_boxes", "addr:city": "PALM DESERT", "addr:country": "US", "addr:postcode": "92260", "addr:state": "CA", "addr:street_address": "73345 HIGHWAY 111", "amenity": "post_box", "brand": "United States Postal Service", "brand:wikidata": "Q668687", "collection_times": "Mo-Sa 13:00", "note": "ON 12/24 AND 12/31, THIS BOX MAY BE COLLECTED AS EARLY AS 12 NOON.", "nsi_id": "unitedstatespostalservice-a77078", "operator": "United States Postal Service", "operator:short": "USPS", "operator:type": "public", "operator:wikidata": "Q668687", "ref": "9226000062"}, "type": "Feature"}
{"geometry": {"coordinates": [-116.370518, 33.720446], "type": "Point"}, "id": "JBaOoWD4flvsMjVcb0JyaJPgbR0=", "properties": {"@source_uri": "https://tools.usps.com/UspsToolsRestServices/rest/POLocator/findLocations", "@spider": "usps_collection_boxes", "addr:city": "PALM DESERT", "addr:country": "US", "addr:postcode": "92260", "addr:state": "CA", "addr:street_address": "74199 EL PASEO", "amenity": "post_box", "brand": "United States Postal Service", "brand:wikidata": "Q668687", "collection_times": "Mo-Sa 10:00", "nsi_id": "unitedstatespostalservice-a77078", "operator": "United States Postal Service", "operator:short": "USPS", "operator:type": "public", "operator:wikidata": "Q668687", "ref": "9226000063"}, "type": "Feature"}
{"geometry": {"coordinates": [-116.360636, 33.746994], "type": "Point"}, "id": "A1T3FcBaddr_eDvVEKga530DVNA=", "properties": {"@source_uri": "https://tools.usps.com/UspsToolsRestServices/rest/POLocator/findLocations", "@spider": "usps_collection_boxes", "addr:city": "PALM DESERT", "addr:country": "US", "addr:postcode": "92260", "addr:state": "CA", "addr:street_address": "74801 HOVLEY LN E", "amenity": "post_box", "brand": "United States Postal Service", "brand:wikidata": "Q668687", "collection_times": "Mo-Fr 17:00; Sa 16:30", "name": "USPS COLLECTION BOX - APC", "note": "ON 12/24 AND 12/31, THIS BOX MAY BE COLLECTED AS EARLY AS 12 NOON.", "nsi_id": "unitedstatespostalservice-a77078", "operator": "United States Postal Service", "operator:short": "USPS", "operator:type": "public", "operator:wikidata": "Q668687", "ref": "9226000064"}, "type": "Feature"}
{"geometry": {"coordinates": [-116.3737309703, 33.7192939489], "type": "Point"}, "id": "0CK209IHuniM55auBjxkzHwJ5Q4=", "properties": {"@source_uri": "https://tools.usps.com/UspsToolsRestServices/rest/POLocator/findLocations", "@spider": "usps_collection_boxes", "addr:city": "PALM DESERT", "addr:country": "US", "addr:postcode": "92260", "addr:state": "CA", "addr:street_address": "45300 PORTOLA AVE", "amenity": "post_box", "brand": "United States Postal Service", "brand:wikidata": "Q668687", "collection_times": "Mo-Fr 17:00; Sa 12:00", "name": "USPS COLLECTION BOX - APC", "note": "ON 12/24 AND 12/31, THIS BOX MAY BE COLLECTED AS EARLY AS 12 NOON.", "nsi_id": "unitedstatespostalservice-a77078", "operator": "United States Postal Service", "operator:short": "USPS", "operator:type": "public", "operator:wikidata": "Q668687", "ref": "9226000065"}, "type": "Feature"}
{"geometry": {"coordinates": [-116.3606778968, 33.7469437937], "type": "Point"}, "id": "cgI1DhxbScf8QahXptoJmoqhyVg=", "properties": {"@source_uri": "https://tools.usps.com/UspsToolsRestServices/rest/POLocator/findLocations", "@spider": "usps_collection_boxes", "addr:city": "PALM DESERT", "addr:country": "US", "addr:postcode": "92260", "addr:state": "CA", "addr:street_address": "74801 HOVLEY LANE EAST", "amenity": "post_box", "brand": "United States Postal Service", "brand:wikidata": "Q668687", "collection_times": "Mo-Fr 17:00", "indoor": "yes", "note": "ON 12/24 AND 12/31, THIS BOX MAY BE COLLECTED AS EARLY AS 12 NOON.", "nsi_id": "unitedstatespostalservice-a77078", "operator": "United States Postal Service", "operator:short": "USPS", "operator:type": "public", "operator:wikidata": "Q668687", "ref": "9226000075"}, "type": "Feature"}
{"geometry": {"coordinates": [-116.3737309703, 33.7192939489], "type": "Point"}, "id": "a9J5pDmSGYxOv6zwNUOYZJ-cWPg=", "properties": {"@source_uri": "https://tools.usps.com/UspsToolsRestServices/rest/POLocator/findLocations", "@spider": "usps_collection_boxes", "addr:city": "PALM DESERT", "addr:country": "US", "addr:postcode": "92260", "addr:state": "CA", "addr:street_address": "45300 PORTOLA AVE", "amenity": "post_box", "brand": "United States Postal Service", "brand:wikidata": "Q668687", "collection_times": "Mo-Fr 17:00", "indoor": "yes", "note": "ON 12/24 AND 12/31, THIS BOX MAY BE COLLECTED AS EARLY AS 12 NOON.", "nsi_id": "unitedstatespostalservice-a77078", "operator": "United States Postal Service", "operator:short": "USPS", "operator:type": "public", "operator:wikidata": "Q668687", "ref": "9226000076"}, "type": "Feature"}
{"geometry": {"coordinates": [-116.546935, 33.816267], "type": "Point"}, "id": "HAeZf5zHVH1zeDU-WoBj2rIAPiw=", "properties": {"@source_uri": "https://tools.usps.com/UspsToolsRestServices/rest/POLocator/findLocations", "@spider": "usps_collection_boxes", "addr:city": "PALM SPRINGS", "addr:country": "US", "addr:postcode": "92262", "addr:state": "CA", "addr:street_address": "499 S PALM CANYON DR", "amenity": "post_box", "brand": "United States Postal Service", "brand:wikidata": "Q668687", "collection_times": "Mo-Sa 13:00", "note": "ON 12/24 AND 12/31, THIS BOX MAY BE COLLECTED AS EARLY AS 12 NOON.", "nsi_id": "unitedstatespostalservice-a77078", "operator": "United States Postal Service", "operator:short": "USPS", "operator:type": "public", "operator:wikidata": "Q668687", "ref": "9226200002"}, "type": "Feature"}
{"geometry": {"coordinates": [-116.51761, 33.8179], "type": "Point"}, "id": "N63DUHHgWsiNSA4OC7s2XV6Z1Mg=", "properties": {"@source_uri": "https://tools.usps.com/UspsToolsRestServices/rest/POLocator/findLocations", "@spider": "usps_collection_boxes", "addr:city": "PALM SPRINGS", "addr:country": "US", "addr:postcode": "92262", "addr:state": "CA", "addr:street_address": "400 S FARRELL DR", "amenity": "post_box", "brand": "United States Postal Service", "brand:wikidata": "Q668687", "collection_times": "Mo-Sa 13:00", "note": "ON 12/24 AND 12/31, THIS BOX MAY BE COLLECTED AS EARLY AS 12 NOON.", "nsi_id": "unitedstatespostalservice-a77078", "operator": "United States Postal Service", "operator:short": "USPS", "operator:type": "public", "operator:wikidata": "Q668687", "ref": "9226200008"}, "type": "Feature"}
{"geometry": {"coordinates": [-116.527694, 33.822044], "type": "Point"}, "id": "3M2G_8G6N726ot04E3l-3rkx-sY=", "properties": {"@source_uri": "https://tools.usps.com/UspsToolsRestServices/rest/POLocator/findLocations", "@spider": "usps_collection_boxes", "addr:city": "PALM SPRINGS", "addr:country": "US", "addr:postcode": "92262", "addr:state": "CA", "addr:street_address": "102 S SUNRISE WAY", "amenity": "post_box", "brand": "United States Postal Service", "brand:wikidata": "Q668687", "collection_times": "Mo-Sa 13:00", "note": "ON 12/24 AND 12/31, THIS BOX MAY BE COLLECTED AS EARLY AS 12 NOON.", "nsi_id": "unitedstatespostalservice-a77078", "operator": "United States Postal Service", "operator:short": "USPS", "operator:type": "public", "operator:wikidata": "Q668687", "ref": "9226200010"}, "type": "Feature"}
{"geometry": {"coordinates": [-116.508365, 33.823247], "type": "Point"}, "id": "bwx2Y1zCBOmHYL-g9jcYiM2sTZA=", "properties": {"@source_uri": "https://tools.usps.com/UspsToolsRestServices/rest/POLocator/findLocations", "@spider": "usps_collection_boxes", "addr:city": "PALM SPRINGS", "addr:country": "US", "addr:postcode": "92262", "addr:state": "CA", "addr:street_address": "3400 E TAHQUITZ WAY", "amenity": "post_box", "brand": "United States Postal Service", "brand:wikidata": "Q668687", "collection_times": "Mo-Sa 13:00", "note": "ON 12/24 AND 12/31, THIS BOX MAY BE COLLECTED AS EARLY AS 12 NOON.", "nsi_id": "unitedstatespostalservice-a77078", "operator": "United States Postal Service", "operator:short": "USPS", "operator:type": "public", "operator:wikidata": "Q668687", "ref": "9226200021"}, "type": "Feature"}
{"geometry": {"coordinates": [-116.527060442, 33.824097], "type": "Point"}, "id": "1jS7SfN-FbkmQpRv5_Y7GuTVnUE=", "properties": {"@source_uri": "https://tools.usps.com/UspsToolsRestServices/rest/POLocator/findLocations", "@spider": "usps_collection_boxes", "addr:city": "PALM SPRINGS", "addr:country": "US", "addr:postcode": "92262", "addr:state": "CA", "addr:street_address": "160 N LURING DR", "amenity": "post_box", "brand": "United States Postal Service", "brand:wikidata": "Q668687", "collection_times": "Mo-Sa 13:00", "note": "ON 12/24 AND 12/31, THIS BOX MAY BE COLLECTED AS EARLY AS 12 NOON.", "nsi_id": "unitedstatespostalservice-a77078", "operator": "United States Postal Service", "operator:short": "USPS", "operator:type": "public", "operator:wikidata": "Q668687", "ref": "9226200022"}, "type": "Feature"}
{"geometry": {"coordinates": [-116.5188310186, 33.8348439866], "type": "Point"}, "id": "ZLy8tOIPiTCKbdFGm4z3VRcRAJE=", "properties": {"@source_uri": "https://tools.usps.com/UspsToolsRestServices/rest/POLocator/findLocations", "@spider": "usps_collection_boxes", "addr:city": "PALM SPRINGS", "addr:country": "US", "addr:postcode": "92262", "addr:state": "CA", "addr:street_address": "835 N FARRELL DRIVE", "amenity": "post_box", "brand": "United States Postal Service", "brand:wikidata": "Q668687", "collection_times": "Mo-Sa 13:00", "note": "ON 12/24 AND 12/31, THIS BOX MAY BE COLLECTED AS EARLY AS 12 NOON.", "nsi_id": "unitedstatespostalservice-a77078", "operator": "United States Postal Service", "operator:short": "USPS", "operator:type": "public", "operator:wikidata": "Q668687", "ref": "9226200023"}, "type": "Feature"}
{"geometry": {"coordinates": [-116.517688, 33.819433], "type": "Point"}, "id": "v-PdAEVvufe9YoBisHo-Bvj-0qc=", "properties": {"@source_uri": "https://tools.usps.com/UspsToolsRestServices/rest/POLocator/findLocations", "@spider": "usps_collection_boxes", "addr:city": "PALM SPRINGS", "addr:country": "US", "addr:postcode": "92262", "addr:state": "CA", "addr:street_address": "300 S FARRELL DR", "amenity": "post_box", "brand": "United States Postal Service", "brand:wikidata": "Q668687", "collection_times": "Mo-Sa 13:00", "note": "ON 12/24 AND 12/31, THIS BOX MAY BE COLLECTED AS EARLY AS 12 NOON.", "nsi_id": "unitedstatespostalservice-a77078", "operator": "United States Postal Service", "operator:short": "USPS", "operator:type": "public", "operator:wikidata": "Q668687", "ref": "9226200041"}, "type": "Feature"}
{"geometry": {"coordinates": [-116.5282978696, 33.8187219188], "type": "Point"}, "id": "rP2k_H4Ol0NvgF2OkGIqHNL2Q44=", "properties": {"@source_uri": "https://tools.usps.com/UspsToolsRestServices/rest/POLocator/findLocations", "@spider": "usps_collection_boxes", "addr:city": "PALM SPRINGS", "addr:country": "US", "addr:postcode": "92262", "addr:state": "CA", "addr:street_address": "333 SUNRISE WAY", "amenity": "post_box", "brand": "United States Postal Service", "brand:wikidata": "Q668687", "collection_times": "Mo-Sa 17:00", "name": "USPS COLLECTION BOX - EXPRESS", "note": "ON 12/24 AND 12/31, THIS BOX MAY BE COLLECTED AS EARLY AS 12 NOON.", "nsi_id": "unitedstatespostalservice-a77078", "operator": "United States Postal Service", "operator:short": "USPS", "operator:type": "public", "operator:wikidata": "Q668687", "ref": "9226200047"}, "type": "Feature"}
{"geometry": {"coordinates": [-116.5282978696, 33.8187219188], "type": "Point"}, "id": "C1duG2b7XzINCKM7rjX0jhSsz1Q=", "properties": {"@source_uri": "https://tools.usps.com/UspsToolsRestServices/rest/POLocator/findLocations", "@spider": "usps_collection_boxes", "addr:city": "PALM SPRINGS", "addr:country": "US", "addr:postcode": "92262", "addr:state": "CA", "addr:street_address": "333 SUNRISE WAY", "amenity": "post_box", "brand": "United States Postal Service", "brand:wikidata": "Q668687", "collection_times": "Mo-Sa 17:00", "name": "USPS COLLECTION BOX - APC", "note": "ON 12/24 AND 12/31, THIS BOX MAY BE COLLECTED AS EARLY AS 12 NOON.", "nsi_id": "unitedstatespostalservice-a77078", "operator": "United States Postal Service", "operator:short": "USPS", "operator:type": "public", "operator:wikidata": "Q668687", "ref": "9226200050"}, "type": "Feature"}
{"geometry": {"coordinates": [-116.511676, 33.825429], "type": "Point"}, "id": "vE_fvwkA0i2MNy1TYqhDx0YN5hA=", "properties": {"@source_uri": "https://tools.usps.com/UspsToolsRestServices/rest/POLocator/findLocations", "@spider": "usps_collection_boxes", "addr:city": "PALM SPRINGS", "addr:country": "US", "addr:postcode": "92262", "addr:state": "CA", "addr:street_address": "255 N EL CIELO RD STE #140", "amenity": "post_box", "brand": "United States Postal Service", "brand:wikidata": "Q668687", "collection_times": "Mo-Fr 13:00; Sa 12:00", "note": "ON 12/24 AND 12/31, THIS BOX MAY BE COLLECTED AS EARLY AS 12 NOON.", "nsi_id": "unitedstatespostalservice-a77078", "operator": "United States Postal Service", "operator:short": "USPS", "operator:type": "public", "operator:wikidata": "Q668687", "ref": "9226200052"}, "type": "Feature"}
{"geometry": {"coordinates": [-116.546932, 33.822763], "type": "Point"}, "id": "r1uyyqkM9GRkEs3wKMgVteGeWmg=", "properties": {"@source_uri": "https://tools.usps.com/UspsToolsRestServices/rest/POLocator/findLocations", "@spider": "usps_collection_boxes", "addr:city": "PALM SPRINGS", "addr:country": "US", "addr:postcode": "92262", "addr:state": "CA", "addr:street_address": "111 S PALM CANYON DR", "amenity": "post_box", "brand": "United States Postal Service", "brand:wikidata": "Q668687", "collection_times": "Mo-Sa 13:00", "note": "ON 12/24 AND 12/31, THIS BOX MAY BE COLLECTED AS EARLY AS 12 NOON.", "nsi_id": "unitedstatespostalservice-a77078", "operator": "United States Postal Service", "operator:short": "USPS", "operator:type": "public", "operator:wikidata": "Q668687", "ref": "9226200053"}, "type": "Feature"}
{"geometry": {"coordinates": [-116.546912, 33.84524], "type": "Point"}, "id": "dNBo_jCMHU4myVjgtgnPOk2tuhE=", "properties": {"@source_uri": "https://tools.usps.com/UspsToolsRestServices/rest/POLocator/findLocations", "@spider": "usps_collection_boxes", "addr:city": "PALM SPRINGS", "addr:country": "US", "addr:postcode": "92262", "addr:state": "CA", "addr:street_address": "1701 N PALM CANYON DR", "amenity": "post_box", "brand": "United States Postal Service", "brand:wikidata": "Q668687", "collection_times": "Mo-Sa 13:00", "note": "ON 12/24 AND 12/31, THIS BOX MAY BE COLLECTED AS EARLY AS 12 NOON.", "nsi_id": "unitedstatespostalservice-a77078", "operator": "United States Postal Service", "operator:short": "USPS", "operator:type": "public", "operator:wikidata": "Q668687", "ref": "9226200057"}, "type": "Feature"}
{"geometry": {"coordinates": [-116.525142005, 33.8444929821], "type": "Point"}, "id": "xq9c6PupJtRpB5gKNoM6AOk87j0=", "properties": {"@source_uri": "https://tools.usps.com/UspsToolsRestServices/rest/POLocator/findLocations", "@spider": "usps_collection_boxes", "addr:city": "PALM SPRINGS", "addr:country": "US", "addr:postcode": "92262", "addr:state": "CA", "addr:street_address": "1717 E VISTA CHINO", "amenity": "post_box", "brand": "United States Postal Service", "brand:wikidata": "Q668687", "collection_times": "Mo-Sa 13:00", "note": "ON 12/24 AND 12/31, THIS BOX MAY BE COLLECTED AS EARLY AS 12 NOON.", "nsi_id": "unitedstatespostalservice-a77078", "operator": "United States Postal Service", "operator:short": "USPS", "operator:type": "public", "operator:wikidata": "Q668687", "ref": "9226200058"}, "type": "Feature"}
{"geometry": {"coordinates": [-116.5282978696, 33.8187219188], "type": "Point"}, "id": "osn543ivOAEDoQY2lAI1TWiXbwA=", "properties": {"@source_uri": "https://tools.usps.com/UspsToolsRestServices/rest/POLocator/findLocations", "@spider": "usps_collection_boxes", "addr:city": "PALM SPRINGS", "addr:country": "US", "addr:postcode": "92262", "addr:state": "CA", "addr:street_address": "333 SUNRISE WAY", "amenity": "post_box", "brand": "United States Postal Service", "brand:wikidata": "Q668687", "collection_times": "Mo-Sa 17:00", "note": "ON 12/24 AND 12/31, THIS BOX MAY BE COLLECTED AS EARLY AS 12 NOON.", "nsi_id": "unitedstatespostalservice-a77078", "operator": "United States Postal Service", "operator:short": "USPS", "operator:type": "public", "operator:wikidata": "Q668687", "ref": "9226200062"}, "type": "Feature"}
{"geometry": {"coordinates": [-116.52933, 33.846809], "type": "Point"}, "id": "9jCOsqz_-e0F9mwieH2pbnJZeGg=", "properties": {"@source_uri": "https://tools.usps.com/UspsToolsRestServices/rest/POLocator/findLocations", "@spider": "usps_collection_boxes", "addr:city": "PALM SPRINGS", "addr:country": "US", "addr:postcode": "92262", "addr:state": "CA", "addr:street_address": "1751 N SUNRISE WAY", "amenity": "post_box", "brand": "United States Postal Service", "brand:wikidata": "Q668687", "collection_times": "Mo-Sa 13:00", "note": "ON 12/24 AND 12/31, THIS BOX MAY BE COLLECTED AS EARLY AS 12 NOON.", "nsi_id": "unitedstatespostalservice-a77078", "operator": "United States Postal Service", "operator:short": "USPS", "operator:type": "public", "operator:wikidata": "Q668687", "ref": "9226200063"}, "type": "Feature"}
{"geometry": {"coordinates": [-116.5384239823, 33.8230072543], "type": "Point"}, "id": "X04JF83wzzkINK9UQONtlWSX5Uw=", "properties": {"@source_uri": "https://tools.usps.com/UspsToolsRestServices/rest/POLocator/findLocations", "@spider": "usps_collection_boxes", "addr:city": "PALM SPRINGS", "addr:country": "US", "addr:postcode": "92262", "addr:state": "CA", "addr:street_address": "901 E TAHQUITZ CANYON WAY", "amenity": "post_box", "brand": "United States Postal Service", "brand:wikidata": "Q668687", "collection_times": "Mo-Sa 13:00", "note": "ON 12/24 AND 12/31, THIS BOX MAY BE COLLECTED AS EARLY AS 12 NOON.", "nsi_id": "unitedstatespostalservice-a77078", "operator": "United States Postal Service", "operator:short": "USPS", "operator:type": "public", "operator:wikidata": "Q668687", "ref": "9226200075"}, "type": "Feature"}
{"geometry": {"coordinates": [-116.5053779802, 33.8381900004], "type": "Point"}, "id": "1oSgYUhGyuoN4WU2Ygri0I6UopY=", "properties": {"@source_uri": "https://tools.usps.com/UspsToolsRestServices/rest/POLocator/findLocations", "@spider": "usps_collection_boxes", "addr:city": "PALM SPRINGS", "addr:country": "US", "addr:postcode": "92262", "addr:state": "CA", "addr:street_address": "3700 TACHEVAH DR", "amenity": "post_box", "brand": "United States Postal Service", "brand:wikidata": "Q668687", "collection_times": "Mo-Sa 13:00", "note": "ON 12/24 AND 12/31, THIS BOX MAY BE COLLECTED AS EARLY AS 12 NOON.", "nsi_id": "unitedstatespostalservice-a77078", "operator": "United States Postal Service", "operator:short": "USPS", "operator:type": "public", "operator:wikidata": "Q668687", "ref": "9226200076"}, "type": "Feature"}
{"geometry": {"coordinates": [-116.5282978696, 33.8187219188], "type": "Point"}, "id": "249_CJuqQaLQRC8ZGImHqwEKtXM=", "properties": {"@source_uri": "https://tools.usps.com/UspsToolsRestServices/rest/POLocator/findLocations", "@spider": "usps_collection_boxes", "addr:city": "PALM SPRINGS", "addr:country": "US", "addr:postcode": "92262", "addr:state": "CA", "addr:street_address": "333 SUNRISE WAY", "amenity": "post_box", "brand": "United States Postal Service", "brand:wikidata": "Q668687", "collection_times": "Mo-Fr 17:00", "indoor": "yes", "note": "ON 12/24 AND 12/31, THIS BOX MAY BE COLLECTED AS EARLY AS 12 NOON.", "nsi_id": "unitedstatespostalservice-a77078", "operator": "United States Postal Service", "operator:short": "USPS", "operator:type": "public", "operator:wikidata": "Q668687", "ref": "9226200080"}, "type": "Feature"}
{"geometry": {"coordinates": [-116.5271619598, 33.7999610201], "type": "Point"}, "id": "K_w4ZfAKsgcrxgf2MUPbaaWlvj4=", "properties": {"@source_uri": "https://tools.usps.com/UspsToolsRestServices/rest/POLocator/findLocations", "@spider": "usps_collection_boxes", "addr:city": "PALM SPRINGS", "addr:country": "US", "addr:postcode": "92264", "addr:state": "CA", "addr:street_address": "1775 E PALM CANYON DR", "amenity": "post_box", "brand": "United States Postal Service", "brand:wikidata": "Q668687", "collection_times": "Mo-Fr 17:00; Sa 16:30", "note": "ON 12/24 AND 12/31, THIS BOX MAY BE COLLECTED AS EARLY AS 12 NOON.", "nsi_id": "unitedstatespostalservice-a77078", "operator": "United States Postal Service", "operator:short": "USPS", "operator:type": "public", "operator:wikidata": "Q668687", "ref": "9226400017"}, "type": "Feature"}
{"geometry": {"coordinates": [-116.494117, 33.793024], "type": "Point"}, "id": "gVgZJdEPnLmH5ceimcmNJF8xctU=", "properties": {"@source_uri": "https://tools.usps.com/UspsToolsRestServices/rest/POLocator/findLocations", "@spider": "usps_collection_boxes", "addr:city": "PALM SPRINGS", "addr:country": "US", "addr:postcode": "92264", "addr:state": "CA", "addr:street_address": "4733 E PALM CANYON DR", "amenity": "post_box", "brand": "United States Postal Service", "brand:wikidata": "Q668687", "collection_times": "Mo-Sa 13:00", "note": "ON 12/24 AND 12/31, THIS BOX MAY BE COLLECTED AS EARLY AS 12 NOON.", "nsi_id": "unitedstatespostalservice-a77078", "operator": "United States Postal Service", "operator:short": "USPS", "operator:type": "public", "operator:wikidata": "Q668687", "ref": "9226400022"}, "type": "Feature"}
{"geometry": {"coordinates": [-116.52703, 33.800497], "type": "Point"}, "id": "l3f8PXg8b5SXvsiVJCl3Lv05ZSI=", "properties": {"@source_uri": "https://tools.usps.com/UspsToolsRestServices/rest/POLocator/findLocations", "@spider": "usps_collection_boxes", "addr:city": "PALM SPRINGS", "addr:country": "US", "addr:postcode": "92264", "addr:state": "CA", "addr:street_address": "1775 E PALM CANYON DR", "amenity": "post_box", "brand": "United States Postal Service", "brand:wikidata": "Q668687", "collection_times": "Mo-Fr 17:00; Sa 16:30", "note": "ON 12/24 AND 12/31, THIS BOX MAY BE COLLECTED AS EARLY AS 12 NOON.", "nsi_id": "unitedstatespostalservice-a77078", "operator": "United States Postal Service", "operator:short": "USPS", "operator:type": "public", "operator:wikidata": "Q668687", "ref": "9226400031"}, "type": "Feature"}
{"geometry": {"coordinates": [-116.497276, 33.812066], "type": "Point"}, "id": "4xW8pyOPizGIij7_l8kCU5BL1PU=", "properties": {"@source_uri": "https://tools.usps.com/UspsToolsRestServices/rest/POLocator/findLocations", "@spider": "usps_collection_boxes", "addr:city": "PALM SPRINGS", "addr:country": "US", "addr:postcode": "92264", "addr:state": "CA", "addr:street_address": "700 S VELLA RD", "amenity": "post_box", "brand": "United States Postal Service", "brand:wikidata": "Q668687", "collection_times": "Mo-Sa 13:00", "note": "ON 12/24 AND 12/31, THIS BOX MAY BE COLLECTED AS EARLY AS 12 NOON.", "nsi_id": "unitedstatespostalservice-a77078", "operator": "United States Postal Service", "operator:short": "USPS", "operator:type": "public", "operator:wikidata": "Q668687", "ref": "9226400042"}, "type": "Feature"}
{"geometry": {"coordinates": [-116.5269005012, 33.8013644862], "type": "Point"}, "id": "P8q_OOcRqgalOpmmxo_H1hthRBc=", "properties": {"@source_uri": "https://tools.usps.com/UspsToolsRestServices/rest/POLocator/findLocations", "@spider": "usps_collection_boxes", "addr:city": "PALM SPRINGS", "addr:country": "US", "addr:postcode": "92264", "addr:state": "CA", "addr:street_address": "1775 E PALM CANYON DR STE 605", "amenity": "post_box", "brand": "United States Postal Service", "brand:wikidata": "Q668687", "collection_times": "Mo-Fr 17:00", "indoor": "yes", "note": "ON 12/24 AND 12/31, THIS BOX MAY BE COLLECTED AS EARLY AS 12 NOON.", "nsi_id": "unitedstatespostalservice-a77078", "operator": "United States Postal Service", "operator:short": "USPS", "operator:type": "public", "operator:wikidata": "Q668687", "ref": "9226400061"}, "type": "Feature"}
{"geometry": {"coordinates": [-114.7324758871, 33.4327042981], "type": "Point"}, "id": "J8pJVsiQgV7S3ADiEqHbxGAyIRw=", "properties": {"@source_uri": "https://tools.usps.com/UspsToolsRestServices/rest/POLocator/findLocations", "@spider": "usps_collection_boxes", "addr:city": "PALO VERDE", "addr:country": "US", "addr:postcode": "92266", "addr:state": "CA", "addr:street_address": "15 BEN HULSE HWY", "amenity": "post_box", "brand": "United States Postal Service", "brand:wikidata": "Q668687", "collection_times": "Mo-Fr 13:45; Sa 11:30", "note": "ON 12/24 AND 12/31, THIS BOX MAY BE COLLECTED AS EARLY AS 12 NOON.", "nsi_id": "unitedstatespostalservice-a77078", "operator": "United States Postal Service", "operator:short": "USPS", "operator:type": "public", "operator:wikidata": "Q668687", "ref": "9226600002"}, "type": "Feature"}
{"geometry": {"coordinates": [-114.7324758871, 33.4327042981], "type": "Point"}, "id": "fZTFS1cNdl4m59v0sPeFfiIAGII=", "properties": {"@source_uri": "https://tools.usps.com/UspsToolsRestServices/rest/POLocator/findLocations", "@spider": "usps_collection_boxes", "addr:city": "PALO VERDE", "addr:country": "US", "addr:postcode": "92266", "addr:state": "CA", "addr:street_address": "15 BEN HULSE HWY", "amenity": "post_box", "brand": "United States Postal Service", "brand:wikidata": "Q668687", "collection_times": "Mo-Fr 12:30", "indoor": "yes", "note": "ON 12/24 AND 12/31, THIS BOX MAY BE COLLECTED AS EARLY AS 12 NOON.", "nsi_id": "unitedstatespostalservice-a77078", "operator": "United States Postal Service", "operator:short": "USPS", "operator:type": "public", "operator:wikidata": "Q668687", "ref": "9226600004"}, "type": "Feature"}
{"geometry": {"coordinates": [-114.1395856798, 34.282536145], "type": "Point"}, "id": "jjYw6ETWuxwRVKobirM7iA-cT0w=", "properties": {"@source_uri": "https://tools.usps.com/UspsToolsRestServices/rest/POLocator/findLocations", "@spider": "usps_collection_boxes", "addr:city": "PARKER DAM", "addr:country": "US", "addr:postcode": "92267", "addr:state": "CA", "addr:street_address": "102 CALIFORNIA ST", "amenity": "post_box", "brand": "United States Postal Service", "brand:wikidata": "Q668687", "collection_times": "Mo-Sa 12:45", "note": "ON 12/24 AND 12/31, THIS BOX MAY BE COLLECTED AS EARLY AS 12 NOON.", "nsi_id": "unitedstatespostalservice-a77078", "operator": "United States Postal Service", "operator:short": "USPS", "operator:type": "public", "operator:wikidata": "Q668687", "ref": "9226700001"}, "type": "Feature"}
{"geometry": {"coordinates": [-114.1395856798, 34.282536145], "type": "Point"}, "id": "-6rcoRuQhzVeD0gd7jYcAiLR038=", "properties": {"@source_uri": "https://tools.usps.com/UspsToolsRestServices/rest/POLocator/findLocations", "@spider": "usps_collection_boxes", "addr:city": "PARKER DAM", "addr:country": "US", "addr:postcode": "92267", "addr:state": "CA", "addr:street_address": "102 CALIFORNIA ST", "amenity": "post_box", "brand": "United States Postal Service", "brand:wikidata": "Q668687", "collection_times": "Mo-Fr 13:00", "indoor": "yes", "note": "ON 12/24 AND 12/31, THIS BOX MAY BE COLLECTED AS EARLY AS 12 NOON.", "nsi_id": "unitedstatespostalservice-a77078", "operator": "United States Postal Service", "operator:short": "USPS", "operator:type": "public", "operator:wikidata": "Q668687", "ref": "9226700004"}, "type": "Feature"}
{"geometry": {"coordinates": [-116.4978181154, 34.1570104321], "type": "Point"}, "id": "-gLkpAsP_rWc8itFRmnVDWWIrug=", "properties": {"@source_uri": "https://tools.usps.com/UspsToolsRestServices/rest/POLocator/findLocations", "@spider": "usps_collection_boxes", "addr:city": "PIONEERTOWN", "addr:country": "US", "addr:postcode": "92268", "addr:state": "CA", "addr:street_address": "53441 MANE ST", "amenity": "post_box", "brand": "United States Postal Service", "brand:wikidata": "Q668687", "collection_times": "Mo-Fr 15:30", "indoor": "yes", "note": "ON 12/24 AND 12/31, THIS BOX MAY BE COLLECTED AS EARLY AS 12 NOON.", "nsi_id": "unitedstatespostalservice-a77078", "operator": "United States Postal Service", "operator:short": "USPS", "operator:type": "public", "operator:wikidata": "Q668687", "ref": "9226800007"}, "type": "Feature"}
{"geometry": {"coordinates": [-116.423642, 33.788009], "type": "Point"}, "id": "vYD2J8h5tq9TvYwlImNEBMSS964=", "properties": {"@source_uri": "https://tools.usps.com/UspsToolsRestServices/rest/POLocator/findLocations", "@spider": "usps_collection_boxes", "addr:city": "RANCHO MIRAGE", "addr:country": "US", "addr:postcode": "92270", "addr:state": "CA", "addr:street_address": "840 INVERNESS DR", "amenity": "post_box", "brand": "United States Postal Service", "brand:wikidata": "Q668687", "collection_times": "Mo-Sa 13:00", "note": "ON 12/24 AND 12/31, THIS BOX MAY BE COLLECTED AS EARLY AS 12 NOON.", "nsi_id": "unitedstatespostalservice-a77078", "operator": "United States Postal Service", "operator:short": "USPS", "operator:type": "public", "operator:wikidata": "Q668687", "ref": "9227000002"}, "type": "Feature"}
{"geometry": {"coordinates": [-116.436749, 33.787876], "type": "Point"}, "id": "s6mGuPc-NhYvGpNMMacA8ck_0wM=", "properties": {"@source_uri": "https://tools.usps.com/UspsToolsRestServices/rest/POLocator/findLocations", "@spider": "usps_collection_boxes", "addr:city": "RANCHO MIRAGE", "addr:country": "US", "addr:postcode": "92270", "addr:state": "CA", "addr:street_address": "70600 MISSION HILLS DR", "amenity": "post_box", "brand": "United States Postal Service", "brand:wikidata": "Q668687", "collection_times": "Mo-Sa 13:00", "note": "ON 12/24 AND 12/31, THIS BOX MAY BE COLLECTED AS EARLY AS 12 NOON.", "nsi_id": "unitedstatespostalservice-a77078", "operator": "United States Postal Service", "operator:short": "USPS", "operator:type": "public", "operator:wikidata": "Q668687", "ref": "9227000003"}, "type": "Feature"}
{"geometry": {"coordinates": [-116.413325, 33.74081], "type": "Point"}, "id": "c59_SF78z_PfInxx83pQV0dsvmg=", "properties": {"@source_uri": "https://tools.usps.com/UspsToolsRestServices/rest/POLocator/findLocations", "@spider": "usps_collection_boxes", "addr:city": "RANCHO MIRAGE", "addr:country": "US", "addr:postcode": "92270", "addr:state": "CA", "addr:street_address": "22 SUNRISE DR", "amenity": "post_box", "brand": "United States Postal Service", "brand:wikidata": "Q668687", "collection_times": "Mo-Sa 13:00", "note": "ON 12/24 AND 12/31, THIS BOX MAY BE COLLECTED AS EARLY AS 12 NOON.", "nsi_id": "unitedstatespostalservice-a77078", "operator": "United States Postal Service", "operator:short": "USPS", "operator:type": "public", "operator:wikidata": "Q668687", "ref": "9227000006"}, "type": "Feature"}
{"geometry": {"coordinates": [-116.412662717, 33.7411237493], "type": "Point"}, "id": "jjuUTIHC8mmVXR6tjoNfoxY4o6s=", "properties": {"@source_uri": "https://tools.usps.com/UspsToolsRestServices/rest/POLocator/findLocations", "@spider": "usps_collection_boxes", "addr:city": "RANCHO MIRAGE", "addr:country": "US", "addr:postcode": "92270", "addr:state": "CA", "addr:street_address": "42222 RANCHO LAS PALMAS DR", "amenity": "post_box", "brand": "United States Postal Service", "brand:wikidata": "Q668687", "collection_times": "Mo-Fr 17:00; Sa 15:00", "note": "ON 12/24 AND 12/31, THIS BOX MAY BE COLLECTED AS EARLY AS 12 NOON.", "nsi_id": "unitedstatespostalservice-a77078", "operator": "United States Postal Service", "operator:short": "USPS", "operator:type": "public", "operator:wikidata": "Q668687", "ref": "9227000009"}, "type": "Feature"}
{"geometry": {"coordinates": [-116.4474252009, 33.7728931907], "type": "Point"}, "id": "0oJhZZl2baUyg3H_92DgSC-jN-s=", "properties": {"@source_uri": "https://tools.usps.com/UspsToolsRestServices/rest/POLocator/findLocations", "@spider": "usps_collection_boxes", "addr:city": "RANCHO MIRAGE", "addr:country": "US", "addr:postcode": "92270", "addr:state": "CA", "addr:street_address": "69730 HIGHWAY 111", "amenity": "post_box", "brand": "United States Postal Service", "brand:wikidata": "Q668687", "collection_times": "Mo-Sa 13:00", "note": "ON 12/24 AND 12/31, THIS BOX MAY BE COLLECTED AS EARLY AS 12 NOON.", "nsi_id": "unitedstatespostalservice-a77078", "operator": "United States Postal Service", "operator:short": "USPS", "operator:type": "public", "operator:wikidata": "Q668687", "ref": "9227000015"}, "type": "Feature"}
{"geometry": {"coordinates": [-116.406371, 33.760233], "type": "Point"}, "id": "7dAlaUSIj5GyAYLdn7Q20F0iLIU=", "properties": {"@source_uri": "https://tools.usps.com/UspsToolsRestServices/rest/POLocator/findLocations", "@spider": "usps_collection_boxes", "addr:city": "RANCHO MIRAGE", "addr:country": "US", "addr:postcode": "92270", "addr:state": "CA", "addr:street_address": "39700 BOB HOPE DR", "amenity": "post_box", "brand": "United States Postal Service", "brand:wikidata": "Q668687", "collection_times": "Mo-Sa 13:00", "note": "ON 12/24 AND 12/31, THIS BOX MAY BE COLLECTED AS EARLY AS 12 NOON.", "nsi_id": "unitedstatespostalservice-a77078", "operator": "United States Postal Service", "operator:short": "USPS", "operator:type": "public", "operator:wikidata": "Q668687", "ref": "9227000018"}, "type": "Feature"}
{"geometry": {"coordinates": [-116.412662717, 33.7411237493], "type": "Point"}, "id": "bjJNLsH5LuDJ-kS2u5Qu8O_uMDs=", "properties": {"@source_uri": "https://tools.usps.com/UspsToolsRestServices/rest/POLocator/findLocations", "@spider": "usps_collection_boxes", "addr:city": "RANCHO MIRAGE", "addr:country": "US", "addr:postcode": "92270", "addr:state": "CA", "addr:street_address": "42222 RANCHO LAS PALMAS DR", "amenity": "post_box", "brand": "United States Postal Service", "brand:wikidata": "Q668687", "collection_times": "Mo-Fr 17:00; Sa 15:00", "note": "ON 12/24 AND 12/31, THIS BOX MAY BE COLLECTED AS EARLY AS 12 NOON.", "nsi_id": "unitedstatespostalservice-a77078", "operator": "United States Postal Service", "operator:short": "USPS", "operator:type": "public", "operator:wikidata": "Q668687", "ref": "9227000019"}, "type": "Feature"}
{"geometry": {"coordinates": [-116.446137, 33.772349], "type": "Point"}, "id": "dBHQj2dsFkFLJcu7KOLpujKQKF4=", "properties": {"@source_uri": "https://tools.usps.com/UspsToolsRestServices/rest/POLocator/findLocations", "@spider": "usps_collection_boxes", "addr:city": "RANCHO MIRAGE", "addr:country": "US", "addr:postcode": "92270", "addr:state": "CA", "addr:street_address": "69900 FRANK SINATRA DR", "amenity": "post_box", "brand": "United States Postal Service", "brand:wikidata": "Q668687", "collection_times": "Mo-Sa 13:00", "note": "ON 12/24 AND 12/31, THIS BOX MAY BE COLLECTED AS EARLY AS 12 NOON.", "nsi_id": "unitedstatespostalservice-a77078", "operator": "United States Postal Service", "operator:short": "USPS", "operator:type": "public", "operator:wikidata": "Q668687", "ref": "9227000026"}, "type": "Feature"}
{"geometry": {"coordinates": [-116.4078889864, 33.7868049945], "type": "Point"}, "id": "Zzn13BxQhnXQ8bHVDitem_T8l50=", "properties": {"@source_uri": "https://tools.usps.com/UspsToolsRestServices/rest/POLocator/findLocations", "@spider": "usps_collection_boxes", "addr:city": "RANCHO MIRAGE", "addr:country": "US", "addr:postcode": "92270", "addr:state": "CA", "addr:street_address": "36101 BOB HOPE DR", "amenity": "post_box", "brand": "United States Postal Service", "brand:wikidata": "Q668687", "collection_times": "Mo-Sa 13:00", "note": "ON 12/24 AND 12/31, THIS BOX MAY BE COLLECTED AS EARLY AS 12 NOON.", "nsi_id": "unitedstatespostalservice-a77078", "operator": "United States Postal Service", "operator:short": "USPS", "operator:type": "public", "operator:wikidata": "Q668687", "ref": "9227000028"}, "type": "Feature"}
{"geometry": {"coordinates": [-116.407449, 33.768834], "type": "Point"}, "id": "n-L5ns9hj_mPiiaKrTcGIGdWAU8=", "properties": {"@source_uri": "https://tools.usps.com/UspsToolsRestServices/rest/POLocator/findLocations", "@spider": "usps_collection_boxes", "addr:city": "RANCHO MIRAGE", "addr:country": "US", "addr:postcode": "92270", "addr:state": "CA", "addr:street_address": "38000 BOB HOPE DR", "amenity": "post_box", "brand": "United States Postal Service", "brand:wikidata": "Q668687", "collection_times": "Mo-Sa 13:00", "note": "ON 12/24 AND 12/31, THIS BOX MAY BE COLLECTED AS EARLY AS 12 NOON.", "nsi_id": "unitedstatespostalservice-a77078", "operator": "United States Postal Service", "operator:short": "USPS", "operator:type": "public", "operator:wikidata": "Q668687", "ref": "9227000030"}, "type": "Feature"}
{"geometry": {"coordinates": [-116.412662717, 33.7411237493], "type": "Point"}, "id": "vD3SZSeva6s3CoELD0ikKPNksCo=", "properties": {"@source_uri": "https://tools.usps.com/UspsToolsRestServices/rest/POLocator/findLocations", "@spider": "usps_collection_boxes", "addr:city": "RANCHO MIRAGE", "addr:country": "US", "addr:postcode": "92270", "addr:state": "CA", "addr:street_address": "42222 RANCHO LAS PALMAS DR", "amenity": "post_box", "brand": "United States Postal Service", "brand:wikidata": "Q668687", "collection_times": "Mo-Fr 17:00; Sa 15:00", "name": "USPS COLLECTION BOX - APC", "note": "ON 12/24 AND 12/31, THIS BOX MAY BE COLLECTED AS EARLY AS 12 NOON.", "nsi_id": "unitedstatespostalservice-a77078", "operator": "United States Postal Service", "operator:short": "USPS", "operator:type": "public", "operator:wikidata": "Q668687", "ref": "9227000031"}, "type": "Feature"}
{"geometry": {"coordinates": [-116.412662717, 33.7411237493], "type": "Point"}, "id": "-NxPvqy-UaJDluXP1JZURGQhMoY=", "properties": {"@source_uri": "https://tools.usps.com/UspsToolsRestServices/rest/POLocator/findLocations", "@spider": "usps_collection_boxes", "addr:city": "RANCHO MIRAGE", "addr:country": "US", "addr:postcode": "92270", "addr:state": "CA", "addr:street_address": "42222 RANCHO LAS PALMAS DR", "amenity": "post_box", "brand": "United States Postal Service", "brand:wikidata": "Q668687", "collection_times": "Mo-Fr 17:00", "indoor": "yes", "note": "ON 12/24 AND 12/31, THIS BOX MAY BE COLLECTED AS EARLY AS 12 NOON.", "nsi_id": "unitedstatespostalservice-a77078", "operator": "United States Postal Service", "operator:short": "USPS", "operator:type": "public", "operator:wikidata": "Q668687", "ref": "9227000036"}, "type": "Feature"}
{"geometry": {"coordinates": [-115.70868, 32.7470799], "type": "Point"}, "id": "4o2nQQdMimRmaxWdnZycPhYxZwU=", "properties": {"@source_uri": "https://tools.usps.com/UspsToolsRestServices/rest/POLocator/findLocations", "@spider": "usps_collection_boxes", "addr:city": "SEELEY", "addr:country": "US", "addr:postcode": "92273", "addr:state": "CA", "addr:street_address": "1801 W PARK ST", "amenity": "post_box", "brand": "United States Postal Service", "brand:wikidata": "Q668687", "collection_times": "Mo-Fr 12:45; Sa 10:00", "note": "ON 12/24 AND 12/31, THIS BOX MAY BE COLLECTED AS EARLY AS 12 NOON.", "nsi_id": "unitedstatespostalservice-a77078", "operator": "United States Postal Service", "operator:short": "USPS", "operator:type": "public", "operator:wikidata": "Q668687", "ref": "9227300001"}, "type": "Feature"}
{"geometry": {"coordinates": [-115.70868, 32.7470799], "type": "Point"}, "id": "UnbGny2I8QI6EgqtCqCYm5ct1ss=", "properties": {"@source_uri": "https://tools.usps.com/UspsToolsRestServices/rest/POLocator/findLocations", "@spider": "usps_collection_boxes", "addr:city": "SEELEY", "addr:country": "US", "addr:postcode": "92273", "addr:state": "CA", "addr:street_address": "1801 W PARK ST", "amenity": "post_box", "brand": "United States Postal Service", "brand:wikidata": "Q668687", "collection_times": "Mo-Fr 13:00", "indoor": "yes", "note": "ON 12/24 AND 12/31, THIS BOX MAY BE COLLECTED AS EARLY AS 12 NOON.", "nsi_id": "unitedstatespostalservice-a77078", "operator": "United States Postal Service", "operator:short": "USPS", "operator:type": "public", "operator:wikidata": "Q668687", "ref": "9227300003"}, "type": "Feature"}
{"geometry": {"coordinates": [-116.142541554, 33.6422444833], "type": "Point"}, "id": "HO7QP4wCGDdI5uawUDt-8CD4TqQ=", "properties": {"@source_uri": "https://tools.usps.com/UspsToolsRestServices/rest/POLocator/findLocations", "@spider": "usps_collection_boxes", "addr:city": "THERMAL", "addr:country": "US", "addr:postcode": "92274", "addr:state": "CA", "addr:street_address": "87200 AIRPORT BLVD", "amenity": "post_box", "brand": "United States Postal Service", "brand:wikidata": "Q668687", "collection_times": "Mo-Fr 16:45; Sa 09:30", "note": "ON 12/24 AND 12/31, THIS BOX MAY BE COLLECTED AS EARLY AS 12 NOON.", "nsi_id": "unitedstatespostalservice-a77078", "operator": "United States Postal Service", "operator:short": "USPS", "operator:type": "public", "operator:wikidata": "Q668687", "ref": "9227400001"}, "type": "Feature"}
{"geometry": {"coordinates": [-116.03711, 33.407341], "type": "Point"}, "id": "oI4drofmwrtYevYQeR_z2RGuELw=", "properties": {"@source_uri": "https://tools.usps.com/UspsToolsRestServices/rest/POLocator/findLocations", "@spider": "usps_collection_boxes", "addr:city": "THERMAL", "addr:country": "US", "addr:postcode": "92274", "addr:state": "CA", "addr:street_address": "230 DESERT SHORES DR", "amenity": "post_box", "brand": "United States Postal Service", "brand:wikidata": "Q668687", "collection_times": "Mo-Sa 11:15", "nsi_id": "unitedstatespostalservice-a77078", "operator": "United States Postal Service", "operator:short": "USPS", "operator:type": "public", "operator:wikidata": "Q668687", "ref": "9227400002"}, "type": "Feature"}
{"geometry": {"coordinates": [-115.9616480088, 33.2809921135], "type": "Point"}, "id": "om8morzOcsPuPriaFLqBapj1K_g=", "properties": {"@source_uri": "https://tools.usps.com/UspsToolsRestServices/rest/POLocator/findLocations", "@spider": "usps_collection_boxes", "addr:city": "THERMAL", "addr:country": "US", "addr:postcode": "92274", "addr:state": "CA", "addr:street_address": "2113 S MARINA DR", "amenity": "post_box", "brand": "United States Postal Service", "brand:wikidata": "Q668687", "collection_times": "Mo-Sa 10:00", "nsi_id": "unitedstatespostalservice-a77078", "operator": "United States Postal Service", "operator:short": "USPS", "operator:type": "public", "operator:wikidata": "Q668687", "ref": "9227400004"}, "type": "Feature"}
{"geometry": {"coordinates": [-116.181303, 33.569251], "type": "Point"}, "id": "G3lPvG6aWc2nxmk43H_6g8HvTc8=", "properties": {"@source_uri": "https://tools.usps.com/UspsToolsRestServices/rest/POLocator/findLocations", "@spider": "usps_collection_boxes", "addr:city": "THERMAL", "addr:country": "US", "addr:postcode": "92274", "addr:state": "CA", "addr:street_address": "65959 HIGHWAY 86", "amenity": "post_box", "brand": "United States Postal Service", "brand:wikidata": "Q668687", "collection_times": "Mo-Sa 10:00", "nsi_id": "unitedstatespostalservice-a77078", "operator": "United States Postal Service", "operator:short": "USPS", "operator:type": "public", "operator:wikidata": "Q668687", "ref": "9227400008"}, "type": "Feature"}
{"geometry": {"coordinates": [-116.142541554, 33.6422444833], "type": "Point"}, "id": "8RVumFS3IF_MMFpvEpL_zzItqHw=", "properties": {"@source_uri": "https://tools.usps.com/UspsToolsRestServices/rest/POLocator/findLocations", "@spider": "usps_collection_boxes", "addr:city": "THERMAL", "addr:country": "US", "addr:postcode": "92274", "addr:state": "CA", "addr:street_address": "87200 AIRPORT BLVD", "amenity": "post_box", "brand": "United States Postal Service", "brand:wikidata": "Q668687", "collection_times": "Mo-Fr 16:45", "indoor": "yes", "note": "ON 12/24 AND 12/31, THIS BOX MAY BE COLLECTED AS EARLY AS 12 NOON.", "nsi_id": "unitedstatespostalservice-a77078", "operator": "United States Postal Service", "operator:short": "USPS", "operator:type": "public", "operator:wikidata": "Q668687", "ref": "9227400011"}, "type": "Feature"}
{"geometry": {"coordinates": [-116.142541554, 33.6422444833], "type": "Point"}, "id": "PeIuhpZHxu9wqISEW12tr9qCZlY=", "properties": {"@source_uri": "https://tools.usps.com/UspsToolsRestServices/rest/POLocator/findLocations", "@spider": "usps_collection_boxes", "addr:city": "THERMAL", "addr:country": "US", "addr:postcode": "92274", "addr:state": "CA", "addr:street_address": "87200 AIRPORT BLVD", "amenity": "post_box", "brand": "United States Postal Service", "brand:wikidata": "Q668687", "collection_times": "Mo-Fr 16:30", "indoor": "yes", "note": "ON 12/24 AND 12/31, THIS BOX MAY BE COLLECTED AS EARLY AS 12 NOON.", "nsi_id": "unitedstatespostalservice-a77078", "operator": "United States Postal Service", "operator:short": "USPS", "operator:type": "public", "operator:wikidata": "Q668687", "ref": "9227400012"}, "type": "Feature"}
{"geometry": {"coordinates": [-116.39954, 33.821515], "type": "Point"}, "id": "PCtS9kyfjbs5L47rup8MKp48mhs=", "properties": {"@source_uri": "https://tools.usps.com/UspsToolsRestServices/rest/POLocator/findLocations", "@spider": "usps_collection_boxes", "addr:city": "THOUSAND PALMS", "addr:country": "US", "addr:postcode": "92276", "addr:state": "CA", "addr:street_address": "74518 STAGE LINE DR", "amenity": "post_box", "brand": "United States Postal Service", "brand:wikidata": "Q668687", "collection_times": "Mo-Sa 12:00", "nsi_id": "unitedstatespostalservice-a77078", "operator": "United States Postal Service", "operator:short": "USPS", "operator:type": "public", "operator:wikidata": "Q668687", "ref": "9227600001"}, "type": "Feature"}
{"geometry": {"coordinates": [-116.379508511, 33.810965455], "type": "Point"}, "id": "bg1f1jiUnqeFOs5fpvXUzn2PwzI=", "properties": {"@source_uri": "https://tools.usps.com/UspsToolsRestServices/rest/POLocator/findLocations", "@spider": "usps_collection_boxes", "addr:city": "THOUSAND PALMS", "addr:country": "US", "addr:postcode": "92276", "addr:state": "CA", "addr:street_address": "32700 DESERT MOON DR", "amenity": "post_box", "brand": "United States Postal Service", "brand:wikidata": "Q668687", "collection_times": "Mo-Sa 12:00", "nsi_id": "unitedstatespostalservice-a77078", "operator": "United States Postal Service", "operator:short": "USPS", "operator:type": "public", "operator:wikidata": "Q668687", "ref": "9227600002"}, "type": "Feature"}
{"geometry": {"coordinates": [-116.394579, 33.8164775079], "type": "Point"}, "id": "JM5wbCjxxaKNFvt_nx6eYr0cLes=", "properties": {"@source_uri": "https://tools.usps.com/UspsToolsRestServices/rest/POLocator/findLocations", "@spider": "usps_collection_boxes", "addr:city": "THOUSAND PALMS", "addr:country": "US", "addr:postcode": "92276", "addr:state": "CA", "addr:street_address": "72630 RAMON RD", "amenity": "post_box", "brand": "United States Postal Service", "brand:wikidata": "Q668687", "collection_times": "Mo-Sa 16:00", "note": "ON 12/24 AND 12/31, THIS BOX MAY BE COLLECTED AS EARLY AS 12 NOON.", "nsi_id": "unitedstatespostalservice-a77078", "operator": "United States Postal Service", "operator:short": "USPS", "operator:type": "public", "operator:wikidata": "Q668687", "ref": "9227600003"}, "type": "Feature"}
{"geometry": {"coordinates": [-116.3945809489, 33.8164745115], "type": "Point"}, "id": "qado3yL6KnIxBiFXD6GSL84kipg=", "properties": {"@source_uri": "https://tools.usps.com/UspsToolsRestServices/rest/POLocator/findLocations", "@spider": "usps_collection_boxes", "addr:city": "THOUSAND PALMS", "addr:country": "US", "addr:postcode": "92276", "addr:state": "CA", "addr:street_address": "72630 RAMON RD", "amenity": "post_box", "brand": "United States Postal Service", "brand:wikidata": "Q668687", "collection_times": "Mo-Sa 16:00", "note": "ON 12/24 AND 12/31, THIS BOX MAY BE COLLECTED AS EARLY AS 12 NOON.", "nsi_id": "unitedstatespostalservice-a77078", "operator": "United States Postal Service", "operator:short": "USPS", "operator:type": "public", "operator:wikidata": "Q668687", "ref": "9227600008"}, "type": "Feature"}
{"geometry": {"coordinates": [-116.3945809489, 33.8164745115], "type": "Point"}, "id": "xbYptVpWnh_OpNP6MCd7qCg5Yq4=", "properties": {"@source_uri": "https://tools.usps.com/UspsToolsRestServices/rest/POLocator/findLocations", "@spider": "usps_collection_boxes", "addr:city": "THOUSAND PALMS", "addr:country": "US", "addr:postcode": "92276", "addr:state": "CA", "addr:street_address": "72630 RAMON RD", "amenity": "post_box", "brand": "United States Postal Service", "brand:wikidata": "Q668687", "collection_times": "Mo-Fr 16:00", "indoor": "yes", "note": "ON 12/24 AND 12/31, THIS BOX MAY BE COLLECTED AS EARLY AS 12 NOON.", "nsi_id": "unitedstatespostalservice-a77078", "operator": "United States Postal Service", "operator:short": "USPS", "operator:type": "public", "operator:wikidata": "Q668687", "ref": "9227600010"}, "type": "Feature"}
{"geometry": {"coordinates": [-116.0507671892, 34.1392204941], "type": "Point"}, "id": "mAC43cLnhega8tb8J3n7dKxKC84=", "properties": {"@source_uri": "https://tools.usps.com/UspsToolsRestServices/rest/POLocator/findLocations", "@spider": "usps_collection_boxes", "addr:city": "TWENTYNIN PLM", "addr:country": "US", "addr:postcode": "92277", "addr:state": "CA", "addr:street_address": "73839 GORGONIO DR", "amenity": "post_box", "brand": "United States Postal Service", "brand:wikidata": "Q668687", "collection_times": "Mo-Sa 17:00", "note": "ON 12/24 AND 12/31, THIS BOX MAY BE COLLECTED AS EARLY AS 12 NOON.", "nsi_id": "unitedstatespostalservice-a77078", "operator": "United States Postal Service", "operator:short": "USPS", "operator:type": "public", "operator:wikidata": "Q668687", "ref": "9227700001"}, "type": "Feature"}
{"geometry": {"coordinates": [-116.096793, 34.134383], "type": "Point"}, "id": "O4DEVlZgCGMF5srC9TzQQqIdHbk=", "properties": {"@source_uri": "https://tools.usps.com/UspsToolsRestServices/rest/POLocator/findLocations", "@spider": "usps_collection_boxes", "addr:city": "TWENTYNIN PLM", "addr:country": "US", "addr:postcode": "92277", "addr:state": "CA", "addr:street_address": "71727 29 PALMS HWY", "amenity": "post_box", "brand": "United States Postal Service", "brand:wikidata": "Q668687", "collection_times": "Mo-Sa 15:00", "note": "ON 12/24 AND 12/31, THIS BOX MAY BE COLLECTED AS EARLY AS 12 NOON.", "nsi_id": "unitedstatespostalservice-a77078", "operator": "United States Postal Service", "operator:short": "USPS", "operator:type": "public", "operator:wikidata": "Q668687", "ref": "9227700007"}, "type": "Feature"}
{"geometry": {"coordinates": [-116.054476, 34.14224], "type": "Point"}, "id": "p5btNQ9ERTKgtyQFo13BYCN_JCE=", "properties": {"@source_uri": "https://tools.usps.com/UspsToolsRestServices/rest/POLocator/findLocations", "@spider": "usps_collection_boxes", "addr:city": "TWENTYNIN PLM", "addr:country": "US", "addr:postcode": "92277", "addr:state": "CA", "addr:street_address": "6136 ADOBE RD", "amenity": "post_box", "brand": "United States Postal Service", "brand:wikidata": "Q668687", "collection_times": "Mo-Sa 15:00", "note": "ON 12/24 AND 12/31, THIS BOX MAY BE COLLECTED AS EARLY AS 12 NOON.", "nsi_id": "unitedstatespostalservice-a77078", "operator": "United States Postal Service", "operator:short": "USPS", "operator:type": "public", "operator:wikidata": "Q668687", "ref": "9227700008"}, "type": "Feature"}
{"geometry": {"coordinates": [-116.0507671892, 34.1392204941], "type": "Point"}, "id": "Q4ngM4YNoc7qWXrnXQcnIekbsik=", "properties": {"@source_uri": "https://tools.usps.com/UspsToolsRestServices/rest/POLocator/findLocations", "@spider": "usps_collection_boxes", "addr:city": "TWENTYNIN PLM", "addr:country": "US", "addr:postcode": "92277", "addr:state": "CA", "addr:street_address": "73839 GORGONIO DR", "amenity": "post_box", "brand": "United States Postal Service", "brand:wikidata": "Q668687", "collection_times": "Mo-Fr 17:00", "indoor": "yes", "note": "ON 12/24 AND 12/31, THIS BOX MAY BE COLLECTED AS EARLY AS 12 NOON.", "nsi_id": "unitedstatespostalservice-a77078", "operator": "United States Postal Service", "operator:short": "USPS", "operator:type": "public", "operator:wikidata": "Q668687", "ref": "9227700013"}, "type": "Feature"}
{"geometry": {"coordinates": [-116.055141, 34.232004], "type": "Point"}, "id": "4BKSkzGvHylhpVnjTVxYX0v0u2w=", "properties": {"@source_uri": "https://tools.usps.com/UspsToolsRestServices/rest/POLocator/findLocations", "@spider": "usps_collection_boxes", "addr:city": "TWENTY-NINE PAL", "addr:country": "US", "addr:postcode": "92278", "addr:state": "CA", "addr:street_address": "1435 STURGIS RD", "amenity": "post_box", "brand": "United States Postal Service", "brand:wikidata": "Q668687", "collection_times": "Mo-Fr 16:00; Sa 11:00", "note": "ON 12/24 AND 12/31, THIS BOX MAY BE COLLECTED AS EARLY AS 12 NOON.", "nsi_id": "unitedstatespostalservice-a77078", "operator": "United States Postal Service", "operator:short": "USPS", "operator:type": "public", "operator:wikidata": "Q668687", "ref": "9227800007"}, "type": "Feature"}
{"geometry": {"coordinates": [-116.0548151023, 34.2316973206], "type": "Point"}, "id": "6pvAPHYWnu1NrCw2mnSH1uAv8JM=", "properties": {"@source_uri": "https://tools.usps.com/UspsToolsRestServices/rest/POLocator/findLocations", "@spider": "usps_collection_boxes", "addr:city": "TWENTY-NINE PAL", "addr:country": "US", "addr:postcode": "92278", "addr:state": "CA", "addr:street_address": "1435 STURGIS ST BLDG 1435", "amenity": "post_box", "brand": "United States Postal Service", "brand:wikidata": "Q668687", "collection_times": "Mo-Fr 16:30", "indoor": "yes", "note": "ON 12/24 AND 12/31, THIS BOX MAY BE COLLECTED AS EARLY AS 12 NOON.", "nsi_id": "unitedstatespostalservice-a77078", "operator": "United States Postal Service", "operator:short": "USPS", "operator:type": "public", "operator:wikidata": "Q668687", "ref": "9227800021"}, "type": "Feature"}
{"geometry": {"coordinates": [-115.6216257633, 33.036389078], "type": "Point"}, "id": "QNqFC1DpmuvVtV5o352A__JgMls=", "properties": {"@source_uri": "https://tools.usps.com/UspsToolsRestServices/rest/POLocator/findLocations", "@spider": "usps_collection_boxes", "addr:city": "WESTMORLAND", "addr:country": "US", "addr:postcode": "92281", "addr:state": "CA", "addr:street_address": "199 S CENTER ST", "amenity": "post_box", "brand": "United States Postal Service", "brand:wikidata": "Q668687", "collection_times": "Mo-Fr 15:00; Sa 10:00", "note": "ON 12/24 AND 12/31, THIS BOX MAY BE COLLECTED AS EARLY AS 12 NOON.", "nsi_id": "unitedstatespostalservice-a77078", "operator": "United States Postal Service", "operator:short": "USPS", "operator:type": "public", "operator:wikidata": "Q668687", "ref": "9228100002"}, "type": "Feature"}
{"geometry": {"coordinates": [-115.6216257633, 33.036389078], "type": "Point"}, "id": "gbPAF5mXXLpgt5LkrVPJH59JgBo=", "properties": {"@source_uri": "https://tools.usps.com/UspsToolsRestServices/rest/POLocator/findLocations", "@spider": "usps_collection_boxes", "addr:city": "WESTMORLAND", "addr:country": "US", "addr:postcode": "92281", "addr:state": "CA", "addr:street_address": "199 S CENTER ST", "amenity": "post_box", "brand": "United States Postal Service", "brand:wikidata": "Q668687", "collection_times": "Mo-Fr 16:00", "indoor": "yes", "note": "ON 12/24 AND 12/31, THIS BOX MAY BE COLLECTED AS EARLY AS 12 NOON.", "nsi_id": "unitedstatespostalservice-a77078", "operator": "United States Postal Service", "operator:short": "USPS", "operator:type": "public", "operator:wikidata": "Q668687", "ref": "9228100004"}, "type": "Feature"}
{"geometry": {"coordinates": [-114.6378555319, 32.7390370939], "type": "Point"}, "id": "3d2vT2PeSGX0aDC1ZlbHn_KJ7Z4=", "properties": {"@source_uri": "https://tools.usps.com/UspsToolsRestServices/rest/POLocator/findLocations", "@spider": "usps_collection_boxes", "addr:city": "WINTERHAVEN", "addr:country": "US", "addr:postcode": "92283", "addr:state": "CA", "addr:street_address": "2209 WINTERHAVEN DR", "amenity": "post_box", "brand": "United States Postal Service", "brand:wikidata": "Q668687", "collection_times": "Mo-Sa 10:00", "nsi_id": "unitedstatespostalservice-a77078", "operator": "United States Postal Service", "operator:short": "USPS", "operator:type": "public", "operator:wikidata": "Q668687", "ref": "9228300001"}, "type": "Feature"}
{"geometry": {"coordinates": [-114.639781, 32.733325], "type": "Point"}, "id": "gqNhm9JZo_rdkTxr4yWRvygnU1U=", "properties": {"@source_uri": "https://tools.usps.com/UspsToolsRestServices/rest/POLocator/findLocations", "@spider": "usps_collection_boxes", "addr:city": "WINTERHAVEN", "addr:country": "US", "addr:postcode": "92283", "addr:state": "CA", "addr:street_address": "2299 WINTERHAVEN DR", "amenity": "post_box", "brand": "United States Postal Service", "brand:wikidata": "Q668687", "collection_times": "Mo-Sa 10:00", "nsi_id": "unitedstatespostalservice-a77078", "operator": "United States Postal Service", "operator:short": "USPS", "operator:type": "public", "operator:wikidata": "Q668687", "ref": "9228300002"}, "type": "Feature"}
{"geometry": {"coordinates": [-114.6353691866, 32.7384820162], "type": "Point"}, "id": "G8dK-0eAx_PWS_J87Ifqpq3Fstk=", "properties": {"@source_uri": "https://tools.usps.com/UspsToolsRestServices/rest/POLocator/findLocations", "@spider": "usps_collection_boxes", "addr:city": "WINTERHAVEN", "addr:country": "US", "addr:postcode": "92283", "addr:state": "CA", "addr:street_address": "2127 WINTERHAVEN DR", "amenity": "post_box", "brand": "United States Postal Service", "brand:wikidata": "Q668687", "collection_times": "Mo-Fr 12:45; Sa 11:00", "note": "ON 12/24 AND 12/31, THIS BOX MAY BE COLLECTED AS EARLY AS 12 NOON.", "nsi_id": "unitedstatespostalservice-a77078", "operator": "United States Postal Service", "operator:short": "USPS", "operator:type": "public", "operator:wikidata": "Q668687", "ref": "9228300004"}, "type": "Feature"}
{"geometry": {"coordinates": [-114.6353691866, 32.7384820162], "type": "Point"}, "id": "8dgD4G2FESB4BrWIR_3gUCBvhHM=", "properties": {"@source_uri": "https://tools.usps.com/UspsToolsRestServices/rest/POLocator/findLocations", "@spider": "usps_collection_boxes", "addr:city": "WINTERHAVEN", "addr:country": "US", "addr:postcode": "92283", "addr:state": "CA", "addr:street_address": "2127 WINTERHAVEN DR", "amenity": "post_box", "brand": "United States Postal Service", "brand:wikidata": "Q668687", "collection_times": "Mo-Fr 12:45", "indoor": "yes", "note": "ON 12/24 AND 12/31, THIS BOX MAY BE COLLECTED AS EARLY AS 12 NOON.", "nsi_id": "unitedstatespostalservice-a77078", "operator": "United States Postal Service", "operator:short": "USPS", "operator:type": "public", "operator:wikidata": "Q668687", "ref": "9228300006"}, "type": "Feature"}
{"geometry": {"coordinates": [-116.408905, 34.12542], "type": "Point"}, "id": "XlZlX0v9kkWwyGXLE-lTISZhS7w=", "properties": {"@source_uri": "https://tools.usps.com/UspsToolsRestServices/rest/POLocator/findLocations", "@spider": "usps_collection_boxes", "addr:city": "YUCCA VALLEY", "addr:country": "US", "addr:postcode": "92284", "addr:state": "CA", "addr:street_address": "57550 29 PALMS HWY", "amenity": "post_box", "brand": "United States Postal Service", "brand:wikidata": "Q668687", "collection_times": "Mo-Sa 14:00", "note": "ON 12/24 AND 12/31, THIS BOX MAY BE COLLECTED AS EARLY AS 12 NOON.", "nsi_id": "unitedstatespostalservice-a77078", "operator": "United States Postal Service", "operator:short": "USPS", "operator:type": "public", "operator:wikidata": "Q668687", "ref": "9228400001"}, "type": "Feature"}
{"geometry": {"coordinates": [-116.448349, 34.118708], "type": "Point"}, "id": "bcuH9OoEwaWHRqneVq6YAegGS_g=", "properties": {"@source_uri": "https://tools.usps.com/UspsToolsRestServices/rest/POLocator/findLocations", "@spider": "usps_collection_boxes", "addr:city": "YUCCA VALLEY", "addr:country": "US", "addr:postcode": "92284", "addr:state": "CA", "addr:street_address": "55727 29 PALMS HWY", "amenity": "post_box", "brand": "United States Postal Service", "brand:wikidata": "Q668687", "collection_times": "Mo-Sa 14:00", "note": "ON 12/24 AND 12/31, THIS BOX MAY BE COLLECTED AS EARLY AS 12 NOON.", "nsi_id": "unitedstatespostalservice-a77078", "operator": "United States Postal Service", "operator:short": "USPS", "operator:type": "public", "operator:wikidata": "Q668687", "ref": "9228400002"}, "type": "Feature"}
{"geometry": {"coordinates": [-116.414657, 34.120559], "type": "Point"}, "id": "ifkg4Ummik4c3wHY2PB3sb4KN5g=", "properties": {"@source_uri": "https://tools.usps.com/UspsToolsRestServices/rest/POLocator/findLocations", "@spider": "usps_collection_boxes", "addr:city": "YUCCA VALLEY", "addr:country": "US", "addr:postcode": "92284", "addr:state": "CA", "addr:street_address": "57280 YUCCA TRL", "amenity": "post_box", "brand": "United States Postal Service", "brand:wikidata": "Q668687", "collection_times": "Mo-Sa 17:30", "note": "ON 12/24 AND 12/31, THIS BOX MAY BE COLLECTED AS EARLY AS 12 NOON.", "nsi_id": "unitedstatespostalservice-a77078", "operator": "United States Postal Service", "operator:short": "USPS", "operator:type": "public", "operator:wikidata": "Q668687", "ref": "9228400004"}, "type": "Feature"}
{"geometry": {"coordinates": [-116.414657, 34.120559], "type": "Point"}, "id": "HsAZzNYy1h6ThPUk6QzM44yyBC0=", "properties": {"@source_uri": "https://tools.usps.com/UspsToolsRestServices/rest/POLocator/findLocations", "@spider": "usps_collection_boxes", "addr:city": "YUCCA VALLEY", "addr:country": "US", "addr:postcode": "92284", "addr:state": "CA", "addr:street_address": "57280 YUCCA TRL", "amenity": "post_box", "brand": "United States Postal Service", "brand:wikidata": "Q668687", "collection_times": "Mo-Sa 17:30", "note": "ON 12/24 AND 12/31, THIS BOX MAY BE COLLECTED AS EARLY AS 12 NOON.", "nsi_id": "unitedstatespostalservice-a77078", "operator": "United States Postal Service", "operator:short": "USPS", "operator:type": "public", "operator:wikidata": "Q668687", "ref": "9228400019"}, "type": "Feature"}
{"geometry": {"coordinates": [-116.393194, 34.265793], "type": "Point"}, "id": "ca7IFAlu4FjNMIK245s0hnP78aM=", "properties": {"@source_uri": "https://tools.usps.com/UspsToolsRestServices/rest/POLocator/findLocations", "@spider": "usps_collection_boxes", "addr:city": "YUCCA VALLEY", "addr:country": "US", "addr:postcode": "92285", "addr:state": "CA", "addr:street_address": "890 LANDERS LN", "amenity": "post_box", "brand": "United States Postal Service", "brand:wikidata": "Q668687", "collection_times": "Mo-Fr 15:00; Sa 12:30", "note": "ON 12/24 AND 12/31, THIS BOX MAY BE COLLECTED AS EARLY AS 12 NOON.", "nsi_id": "unitedstatespostalservice-a77078", "operator": "United States Postal Service", "operator:short": "USPS", "operator:type": "public", "operator:wikidata": "Q668687", "ref": "9228500000"}, "type": "Feature"}
{"geometry": {"coordinates": [-116.393219428, 34.2658150763], "type": "Point"}, "id": "5_nTg6lxvJoiFkpa5KOJh3mktqU=", "properties": {"@source_uri": "https://tools.usps.com/UspsToolsRestServices/rest/POLocator/findLocations", "@spider": "usps_collection_boxes", "addr:city": "YUCCA VALLEY", "addr:country": "US", "addr:postcode": "92285", "addr:state": "CA", "addr:street_address": "890 LANDERS LN", "amenity": "post_box", "brand": "United States Postal Service", "brand:wikidata": "Q668687", "collection_times": "Mo-Fr 15:00", "indoor": "yes", "note": "ON 12/24 AND 12/31, THIS BOX MAY BE COLLECTED AS EARLY AS 12 NOON.", "nsi_id": "unitedstatespostalservice-a77078", "operator": "United States Postal Service", "operator:short": "USPS", "operator:type": "public", "operator:wikidata": "Q668687", "ref": "9228500001"}, "type": "Feature"}
