{"geometry": {"coordinates": [-116.8660560602, 36.4571390772], "type": "Point"}, "id": "3SZirmYk-cpzD3Yw7sQolzrXuwI=", "properties": {"@spider": "usps_collection_boxes", "addr:city": "DEATH VALLEY", "addr:country": "US", "addr:full": "328 GREENLAND BLVD", "addr:postcode": "92328", "addr:state": "CA", "brand": "USPS", "collection_times": "Mo-Sa 11:00", "name": "USPS COLLECTION BOX - BLUE BOX", "ref": "9232800001"}, "type": "Feature"}
{"geometry": {"coordinates": [-116.8660560602, 36.4571390772], "type": "Point"}, "id": "nLCkWo9yK7vwVPc2iQL82ZqarwE=", "properties": {"@spider": "usps_collection_boxes", "addr:city": "DEATH VALLEY", "addr:country": "US", "addr:full": "328 GREENLAND BLVD", "addr:postcode": "92328", "addr:state": "CA", "brand": "USPS", "collection_times": "Mo-Fr 12:00", "name": "USPS COLLECTION BOX - PO LOBBY", "ref": "9232800003"}, "type": "Feature"}
{"geometry": {"coordinates": [-117.574828796, 34.427814563], "type": "Point"}, "id": "7IvzJSqw6dp_HATEddxuzpcvR5Q=", "properties": {"@spider": "usps_collection_boxes", "addr:city": "PHELAN", "addr:country": "US", "addr:full": "9782 CLOVIS RD", "addr:postcode": "92371", "addr:state": "CA", "brand": "USPS", "collection_times": "Mo-Sa 15:00", "name": "USPS COLLECTION BOX - BLUE BOX", "note": "ON 12/24 AND 12/31, THIS BOX MAY BE COLLECTED AS EARLY AS 12 NOON.", "ref": "9237100002"}, "type": "Feature"}
{"geometry": {"coordinates": [-117.574828796, 34.427814563], "type": "Point"}, "id": "icqm6i87yRixLiVC5FaB_LAJRqk=", "properties": {"@spider": "usps_collection_boxes", "addr:city": "PHELAN", "addr:country": "US", "addr:full": "9782 CLOVIS RD", "addr:postcode": "92371", "addr:state": "CA", "brand": "USPS", "collection_times": "Mo-Sa 15:00", "name": "USPS COLLECTION BOX - BLUE BOX", "note": "ON 12/24 AND 12/31, THIS BOX MAY BE COLLECTED AS EARLY AS 12 NOON.", "ref": "9237100003"}, "type": "Feature"}
{"geometry": {"coordinates": [-117.5748177736, 34.4277803002], "type": "Point"}, "id": "M3mXnunuHeA8L2fLD-T2k0RpVfo=", "properties": {"@spider": "usps_collection_boxes", "addr:city": "PHELAN", "addr:country": "US", "addr:full": "9782 CLOVIS RD", "addr:postcode": "92371", "addr:state": "CA", "brand": "USPS", "collection_times": "Mo-Fr 17:00", "name": "USPS COLLECTION BOX - PO LOBBY", "note": "ON 12/24 AND 12/31, THIS BOX MAY BE COLLECTED AS EARLY AS 12 NOON.", "ref": "9237100007"}, "type": "Feature"}
{"geometry": {"coordinates": [-117.6426672627, 34.4385252814], "type": "Point"}, "id": "vRr87a5Cafsuj7nUKPjB-4Va18c=", "properties": {"@spider": "usps_collection_boxes", "addr:city": "PINON HILLS", "addr:country": "US", "addr:full": "10353 OASIS RD", "addr:postcode": "92372", "addr:state": "CA", "brand": "USPS", "collection_times": "Mo-Fr 16:30", "name": "USPS COLLECTION BOX - PO LOBBY", "note": "ON 12/24 AND 12/31, THIS BOX MAY BE COLLECTED AS EARLY AS 12 NOON.", "ref": "9237200004"}, "type": "Feature"}
{"geometry": {"coordinates": [-117.630457, 34.359796], "type": "Point"}, "id": "0R9uD9xYhLoEFMcfHjFEpMEnxMY=", "properties": {"@spider": "usps_collection_boxes", "addr:city": "WRIGHTWOOD", "addr:country": "US", "addr:full": "1440 STATE HIGHWAY 2", "addr:postcode": "92397", "addr:state": "CA", "brand": "USPS", "collection_times": "Mo-Fr 15:30; Sa 11:00", "name": "USPS COLLECTION BOX - BLUE BOX", "note": "ON 12/24 AND 12/31, THIS BOX MAY BE COLLECTED AS EARLY AS 12 NOON.", "ref": "9239700002"}, "type": "Feature"}
{"geometry": {"coordinates": [-117.6304602373, 34.3597933944], "type": "Point"}, "id": "Fd93CWt7lHLTssUbnPUTnzBMgJA=", "properties": {"@spider": "usps_collection_boxes", "addr:city": "WRIGHTWOOD", "addr:country": "US", "addr:full": "1440 STATE HIGHWAY 2", "addr:postcode": "92397", "addr:state": "CA", "brand": "USPS", "collection_times": "Mo-Fr 17:00", "name": "USPS COLLECTION BOX - PO LOBBY", "note": "ON 12/24 AND 12/31, THIS BOX MAY BE COLLECTED AS EARLY AS 12 NOON.", "ref": "9239700006"}, "type": "Feature"}
