{"dataset_attributes": {"@spider": "usps_collection_boxes", "spider:collection_time": "2023-10-31T08:25:14.480804"}, "geometry": {"coordinates": [-117.292135, 34.11216], "type": "Point"}, "id": "kwOAMSj6lMrWcQwLf1cA3QUwMcs=", "properties": {"@spider": "usps_collection_boxes", "addr:city": "SAN BERNARDINO", "addr:country": "US", "addr:full": "710 N D ST", "addr:postcode": "92401", "addr:state": "CA", "amenity": "post_box", "brand": "United States Postal Service", "brand:wikidata": "Q668687", "collection_times": "Mo-Sa 13:00", "name": "USPS COLLECTION BOX - BLUE BOX", "note": "ON 12/24 AND 12/31, THIS BOX MAY BE COLLECTED AS EARLY AS 12 NOON.", "nsi_id": "unitedstatespostalservice-a77078", "operator": "United States Postal Service", "operator:short": "USPS", "operator:type": "public", "operator:wikidata": "Q668687", "ref": "9240100060"}, "type": "Feature"}
{"dataset_attributes": {"@spider": "usps_collection_boxes", "spider:collection_time": "2023-10-31T08:25:14.480804"}, "geometry": {"coordinates": [-117.293793, 34.106611], "type": "Point"}, "id": "mjHuaxoi84cclegCJKk8qnytzsM=", "properties": {"@spider": "usps_collection_boxes", "addr:city": "SAN BERNARDINO", "addr:country": "US", "addr:full": "464 W 4TH ST", "addr:postcode": "92401", "addr:state": "CA", "amenity": "post_box", "brand": "United States Postal Service", "brand:wikidata": "Q668687", "collection_times": "Mo-Fr 13:00", "name": "USPS COLLECTION BOX - BLUE BOX", "note": "ON 12/24 AND 12/31, THIS BOX MAY BE COLLECTED AS EARLY AS 12 NOON.", "nsi_id": "unitedstatespostalservice-a77078", "operator": "United States Postal Service", "operator:short": "USPS", "operator:type": "public", "operator:wikidata": "Q668687", "ref": "9240100075"}, "type": "Feature"}
{"dataset_attributes": {"@spider": "usps_collection_boxes", "spider:collection_time": "2023-10-31T08:25:14.480804"}, "geometry": {"coordinates": [-117.293357, 34.106462], "type": "Point"}, "id": "Ijg3OIZ9GqkKqUfItv-jCUId2PE=", "properties": {"@spider": "usps_collection_boxes", "addr:city": "SAN BERNARDINO", "addr:country": "US", "addr:full": "464 W 4TH ST", "addr:postcode": "92401", "addr:state": "CA", "amenity": "post_box", "brand": "United States Postal Service", "brand:wikidata": "Q668687", "collection_times": "Mo-Fr 13:00", "name": "USPS COLLECTION BOX - BLUE BOX", "note": "ON 12/24 AND 12/31, THIS BOX MAY BE COLLECTED AS EARLY AS 12 NOON.", "nsi_id": "unitedstatespostalservice-a77078", "operator": "United States Postal Service", "operator:short": "USPS", "operator:type": "public", "operator:wikidata": "Q668687", "ref": "9240100076"}, "type": "Feature"}
{"dataset_attributes": {"@spider": "usps_collection_boxes", "spider:collection_time": "2023-10-31T08:25:14.480804"}, "geometry": {"coordinates": [-117.2916418384, 34.1083732269], "type": "Point"}, "id": "stuRkNjCiCvm0q5xCO1nRPtWtv0=", "properties": {"@spider": "usps_collection_boxes", "addr:city": "SAN BERNARDINO", "addr:country": "US", "addr:full": "390 W 5TH ST", "addr:postcode": "92401", "addr:state": "CA", "amenity": "post_box", "brand": "United States Postal Service", "brand:wikidata": "Q668687", "collection_times": "Mo-Fr 17:00", "name": "USPS COLLECTION BOX - PO LOBBY", "note": "ON 12/24 AND 12/31, THIS BOX MAY BE COLLECTED AS EARLY AS 12 NOON.", "nsi_id": "unitedstatespostalservice-a77078", "operator": "United States Postal Service", "operator:short": "USPS", "operator:type": "public", "operator:wikidata": "Q668687", "ref": "9240100080"}, "type": "Feature"}
{"dataset_attributes": {"@spider": "usps_collection_boxes", "spider:collection_time": "2023-10-31T08:25:14.480804"}, "geometry": {"coordinates": [-117.2856082017, 34.0630515348], "type": "Point"}, "id": "G4DKvRgjUy0u1rUd3k8n_DxJhuo=", "properties": {"@spider": "usps_collection_boxes", "addr:city": "SAN BERNARDINO", "addr:country": "US", "addr:full": "1900 W REDLANDS BLVD", "addr:postcode": "92403", "addr:state": "CA", "amenity": "post_box", "brand": "United States Postal Service", "brand:wikidata": "Q668687", "collection_times": "Mo-Fr 20:00; Sa 18:00", "name": "USPS COLLECTION BOX - EXPRESS", "note": "ON 12/24 AND 12/31, THIS BOX MAY BE COLLECTED AS EARLY AS 12 NOON.", "nsi_id": "unitedstatespostalservice-a77078", "operator": "United States Postal Service", "operator:short": "USPS", "operator:type": "public", "operator:wikidata": "Q668687", "ref": "9240300001"}, "type": "Feature"}
{"dataset_attributes": {"@spider": "usps_collection_boxes", "spider:collection_time": "2023-10-31T08:25:14.480804"}, "geometry": {"coordinates": [-117.2856082017, 34.0630515348], "type": "Point"}, "id": "BJTteFqGd8rPf-OJ5m3dSTaKdWc=", "properties": {"@spider": "usps_collection_boxes", "addr:city": "SAN BERNARDINO", "addr:country": "US", "addr:full": "1900 W REDLANDS BLVD", "addr:postcode": "92403", "addr:state": "CA", "amenity": "post_box", "brand": "United States Postal Service", "brand:wikidata": "Q668687", "collection_times": "Mo-Fr 20:00; Sa 18:00", "name": "USPS COLLECTION BOX - BLUE BOX", "note": "ON 12/24 AND 12/31, THIS BOX MAY BE COLLECTED AS EARLY AS 12 NOON.", "nsi_id": "unitedstatespostalservice-a77078", "operator": "United States Postal Service", "operator:short": "USPS", "operator:type": "public", "operator:wikidata": "Q668687", "ref": "9240300002"}, "type": "Feature"}
{"dataset_attributes": {"@spider": "usps_collection_boxes", "spider:collection_time": "2023-10-31T08:25:14.480804"}, "geometry": {"coordinates": [-117.2856082017, 34.0630515348], "type": "Point"}, "id": "U9bek8LY1GoOYGA8xaaVcqie-Ww=", "properties": {"@spider": "usps_collection_boxes", "addr:city": "SAN BERNARDINO", "addr:country": "US", "addr:full": "1900 W REDLANDS BLVD", "addr:postcode": "92403", "addr:state": "CA", "amenity": "post_box", "brand": "United States Postal Service", "brand:wikidata": "Q668687", "collection_times": "Mo-Fr 20:00; Sa 18:00", "name": "USPS COLLECTION BOX - BLUE BOX", "note": "ON 12/24 AND 12/31, THIS BOX MAY BE COLLECTED AS EARLY AS 12 NOON.", "nsi_id": "unitedstatespostalservice-a77078", "operator": "United States Postal Service", "operator:short": "USPS", "operator:type": "public", "operator:wikidata": "Q668687", "ref": "9240300004"}, "type": "Feature"}
{"dataset_attributes": {"@spider": "usps_collection_boxes", "spider:collection_time": "2023-10-31T08:25:14.480804"}, "geometry": {"coordinates": [-117.2856082017, 34.0630515348], "type": "Point"}, "id": "dXAn51Bxn-NPmcH0CDry4ij4gG8=", "properties": {"@spider": "usps_collection_boxes", "addr:city": "SAN BERNARDINO", "addr:country": "US", "addr:full": "1900 W REDLANDS BLVD", "addr:postcode": "92403", "addr:state": "CA", "amenity": "post_box", "brand": "United States Postal Service", "brand:wikidata": "Q668687", "collection_times": "Mo-Fr 20:00; Sa 18:00", "name": "USPS COLLECTION BOX - EXPRESS", "note": "ON 12/24 AND 12/31, THIS BOX MAY BE COLLECTED AS EARLY AS 12 NOON.", "nsi_id": "unitedstatespostalservice-a77078", "operator": "United States Postal Service", "operator:short": "USPS", "operator:type": "public", "operator:wikidata": "Q668687", "ref": "9240300005"}, "type": "Feature"}
{"dataset_attributes": {"@spider": "usps_collection_boxes", "spider:collection_time": "2023-10-31T08:25:14.480804"}, "geometry": {"coordinates": [-117.2856082017, 34.0630515348], "type": "Point"}, "id": "8wmW4-3NYCHCCR4_9kbX-BDmFAk=", "properties": {"@spider": "usps_collection_boxes", "addr:city": "SAN BERNARDINO", "addr:country": "US", "addr:full": "1900 W REDLANDS BLVD", "addr:postcode": "92403", "addr:state": "CA", "amenity": "post_box", "brand": "United States Postal Service", "brand:wikidata": "Q668687", "collection_times": "Mo-Fr 20:00; Sa 18:00", "name": "USPS COLLECTION BOX - BLUE BOX", "note": "ON 12/24 AND 12/31, THIS BOX MAY BE COLLECTED AS EARLY AS 12 NOON.", "nsi_id": "unitedstatespostalservice-a77078", "operator": "United States Postal Service", "operator:short": "USPS", "operator:type": "public", "operator:wikidata": "Q668687", "ref": "9240300006"}, "type": "Feature"}
{"dataset_attributes": {"@spider": "usps_collection_boxes", "spider:collection_time": "2023-10-31T08:25:14.480804"}, "geometry": {"coordinates": [-117.2856082017, 34.0630515348], "type": "Point"}, "id": "QgwU2IiN21KgE6ExVoklpKwpyWM=", "properties": {"@spider": "usps_collection_boxes", "addr:city": "SAN BERNARDINO", "addr:country": "US", "addr:full": "1900 W REDLANDS BLVD", "addr:postcode": "92403", "addr:state": "CA", "amenity": "post_box", "brand": "United States Postal Service", "brand:wikidata": "Q668687", "collection_times": "Mo-Fr 20:00; Sa 18:00", "name": "USPS COLLECTION BOX - APC", "note": "ON 12/24 AND 12/31, THIS BOX MAY BE COLLECTED AS EARLY AS 12 NOON.", "nsi_id": "unitedstatespostalservice-a77078", "operator": "United States Postal Service", "operator:short": "USPS", "operator:type": "public", "operator:wikidata": "Q668687", "ref": "9240300011"}, "type": "Feature"}
{"dataset_attributes": {"@spider": "usps_collection_boxes", "spider:collection_time": "2023-10-31T08:25:14.480804"}, "geometry": {"coordinates": [-117.2856082017, 34.0630515348], "type": "Point"}, "id": "pJbLf0rHmUPxHNBpL9EDNFF90mI=", "properties": {"@spider": "usps_collection_boxes", "addr:city": "SAN BERNARDINO", "addr:country": "US", "addr:full": "1900 W REDLANDS BLVD", "addr:postcode": "92403", "addr:state": "CA", "amenity": "post_box", "brand": "United States Postal Service", "brand:wikidata": "Q668687", "collection_times": "Mo-Fr 20:00; Sa 18:00", "name": "USPS COLLECTION BOX - BLUE BOX", "note": "ON 12/24 AND 12/31, THIS BOX MAY BE COLLECTED AS EARLY AS 12 NOON.", "nsi_id": "unitedstatespostalservice-a77078", "operator": "United States Postal Service", "operator:short": "USPS", "operator:type": "public", "operator:wikidata": "Q668687", "ref": "9240300013"}, "type": "Feature"}
{"dataset_attributes": {"@spider": "usps_collection_boxes", "spider:collection_time": "2023-10-31T08:25:14.480804"}, "geometry": {"coordinates": [-117.2856082017, 34.0630515348], "type": "Point"}, "id": "3RDqXM_DbLYYflmdHT1tHCpSRYw=", "properties": {"@spider": "usps_collection_boxes", "addr:city": "SAN BERNARDINO", "addr:country": "US", "addr:full": "1900 W REDLANDS BLVD", "addr:postcode": "92403", "addr:state": "CA", "amenity": "post_box", "brand": "United States Postal Service", "brand:wikidata": "Q668687", "collection_times": "Mo-Fr 20:00; Sa 18:00", "name": "USPS COLLECTION BOX - BLUE BOX", "note": "ON 12/24 AND 12/31, THIS BOX MAY BE COLLECTED AS EARLY AS 12 NOON.", "nsi_id": "unitedstatespostalservice-a77078", "operator": "United States Postal Service", "operator:short": "USPS", "operator:type": "public", "operator:wikidata": "Q668687", "ref": "9240300014"}, "type": "Feature"}
{"dataset_attributes": {"@spider": "usps_collection_boxes", "spider:collection_time": "2023-10-31T08:25:14.480804"}, "geometry": {"coordinates": [-117.2856082017, 34.0630515348], "type": "Point"}, "id": "o98Bqd63Qp89m3C33h2Ce48fr7M=", "properties": {"@spider": "usps_collection_boxes", "addr:city": "SAN BERNARDINO", "addr:country": "US", "addr:full": "1900 W REDLANDS BLVD", "addr:postcode": "92403", "addr:state": "CA", "amenity": "post_box", "brand": "United States Postal Service", "brand:wikidata": "Q668687", "collection_times": "Mo-Fr 18:00", "name": "USPS COLLECTION BOX - PO LOBBY", "note": "ON 12/24 AND 12/31, THIS BOX MAY BE COLLECTED AS EARLY AS 12 NOON.", "nsi_id": "unitedstatespostalservice-a77078", "operator": "United States Postal Service", "operator:short": "USPS", "operator:type": "public", "operator:wikidata": "Q668687", "ref": "9240300015"}, "type": "Feature"}
{"dataset_attributes": {"@spider": "usps_collection_boxes", "spider:collection_time": "2023-10-31T08:25:14.480804"}, "geometry": {"coordinates": [-117.27632, 34.134495], "type": "Point"}, "id": "moFJ6xGcCB2Pv0JuFQSYTRIrilI=", "properties": {"@spider": "usps_collection_boxes", "addr:city": "SAN BERNARDINO", "addr:country": "US", "addr:full": "488 E 21ST ST", "addr:postcode": "92404", "addr:state": "CA", "amenity": "post_box", "brand": "United States Postal Service", "brand:wikidata": "Q668687", "collection_times": "Mo-Fr 14:00; Sa 13:00", "name": "USPS COLLECTION BOX - EXPRESS", "note": "ON 12/24 AND 12/31, THIS BOX MAY BE COLLECTED AS EARLY AS 12 NOON.", "nsi_id": "unitedstatespostalservice-a77078", "operator": "United States Postal Service", "operator:short": "USPS", "operator:type": "public", "operator:wikidata": "Q668687", "ref": "9240400058"}, "type": "Feature"}
{"dataset_attributes": {"@spider": "usps_collection_boxes", "spider:collection_time": "2023-10-31T08:25:14.480804"}, "geometry": {"coordinates": [-117.2508936981, 34.1411827648], "type": "Point"}, "id": "7rS-O09zprGWoWfCMqU5T7a2iCc=", "properties": {"@spider": "usps_collection_boxes", "addr:city": "SAN BERNARDINO", "addr:country": "US", "addr:full": "1663 E DATE PL", "addr:postcode": "92404", "addr:state": "CA", "amenity": "post_box", "brand": "United States Postal Service", "brand:wikidata": "Q668687", "collection_times": "Mo-Fr 17:00; Sa 15:30", "name": "USPS COLLECTION BOX - BLUE BOX", "note": "ON 12/24 AND 12/31, THIS BOX MAY BE COLLECTED AS EARLY AS 12 NOON.", "nsi_id": "unitedstatespostalservice-a77078", "operator": "United States Postal Service", "operator:short": "USPS", "operator:type": "public", "operator:wikidata": "Q668687", "ref": "9240400059"}, "type": "Feature"}
{"dataset_attributes": {"@spider": "usps_collection_boxes", "spider:collection_time": "2023-10-31T08:25:14.480804"}, "geometry": {"coordinates": [-117.2757787668, 34.135862767], "type": "Point"}, "id": "jFO36uKioDMb0wwTDqOEqkEZXL4=", "properties": {"@spider": "usps_collection_boxes", "addr:city": "SAN BERNARDINO", "addr:country": "US", "addr:full": "401 E HIGHLAND AVE", "addr:postcode": "92404", "addr:state": "CA", "amenity": "post_box", "brand": "United States Postal Service", "brand:wikidata": "Q668687", "collection_times": "Mo-Fr 14:00", "name": "USPS COLLECTION BOX - BLUE BOX", "note": "ON 12/24 AND 12/31, THIS BOX MAY BE COLLECTED AS EARLY AS 12 NOON.", "nsi_id": "unitedstatespostalservice-a77078", "operator": "United States Postal Service", "operator:short": "USPS", "operator:type": "public", "operator:wikidata": "Q668687", "ref": "9240400064"}, "type": "Feature"}
{"dataset_attributes": {"@spider": "usps_collection_boxes", "spider:collection_time": "2023-10-31T08:25:14.480804"}, "geometry": {"coordinates": [-117.27878, 34.13042], "type": "Point"}, "id": "fKGHOc4QEQ_TQKnE5rWZQG92v8Y=", "properties": {"@spider": "usps_collection_boxes", "addr:city": "SAN BERNARDINO", "addr:country": "US", "addr:full": "401 E HIGHLAND AVE", "addr:postcode": "92404", "addr:state": "CA", "amenity": "post_box", "brand": "United States Postal Service", "brand:wikidata": "Q668687", "collection_times": "Mo-Fr 14:00", "name": "USPS COLLECTION BOX - BLUE BOX", "note": "ON 12/24 AND 12/31, THIS BOX MAY BE COLLECTED AS EARLY AS 12 NOON.", "nsi_id": "unitedstatespostalservice-a77078", "operator": "United States Postal Service", "operator:short": "USPS", "operator:type": "public", "operator:wikidata": "Q668687", "ref": "9240400066"}, "type": "Feature"}
{"dataset_attributes": {"@spider": "usps_collection_boxes", "spider:collection_time": "2023-10-31T08:25:14.480804"}, "geometry": {"coordinates": [-117.2508936981, 34.1411827648], "type": "Point"}, "id": "ZlwTD7gz7x2DToU_lKEIclknr74=", "properties": {"@spider": "usps_collection_boxes", "addr:city": "SAN BERNARDINO", "addr:country": "US", "addr:full": "1663 E DATE PL", "addr:postcode": "92404", "addr:state": "CA", "amenity": "post_box", "brand": "United States Postal Service", "brand:wikidata": "Q668687", "collection_times": "Mo-Fr 17:00", "name": "USPS COLLECTION BOX - PO LOBBY", "note": "ON 12/24 AND 12/31, THIS BOX MAY BE COLLECTED AS EARLY AS 12 NOON.", "nsi_id": "unitedstatespostalservice-a77078", "operator": "United States Postal Service", "operator:short": "USPS", "operator:type": "public", "operator:wikidata": "Q668687", "ref": "9240400070"}, "type": "Feature"}
{"dataset_attributes": {"@spider": "usps_collection_boxes", "spider:collection_time": "2023-10-31T08:25:14.480804"}, "geometry": {"coordinates": [-117.2896847085, 34.1350281932], "type": "Point"}, "id": "rn6vCmS1AoqvQGeNJXvdSt652dE=", "properties": {"@spider": "usps_collection_boxes", "addr:city": "SAN BERNARDINO", "addr:country": "US", "addr:full": "2160 N ARROWHEAD AVE", "addr:postcode": "92405", "addr:state": "CA", "amenity": "post_box", "brand": "United States Postal Service", "brand:wikidata": "Q668687", "collection_times": "Mo-Fr 17:00", "name": "USPS COLLECTION BOX - PO LOBBY", "note": "ON 12/24 AND 12/31, THIS BOX MAY BE COLLECTED AS EARLY AS 12 NOON.", "nsi_id": "unitedstatespostalservice-a77078", "operator": "United States Postal Service", "operator:short": "USPS", "operator:type": "public", "operator:wikidata": "Q668687", "ref": "9240500044"}, "type": "Feature"}
{"dataset_attributes": {"@spider": "usps_collection_boxes", "spider:collection_time": "2023-10-31T08:25:14.480804"}, "geometry": {"coordinates": [-117.3266003001, 34.1791724261], "type": "Point"}, "id": "z7c20IBlHAIgN8i-g2vZV_69Mus=", "properties": {"@spider": "usps_collection_boxes", "addr:city": "SAN BERNARDINO", "addr:country": "US", "addr:full": "5500 UNIVERSITY PKWY", "addr:postcode": "92407", "addr:state": "CA", "amenity": "post_box", "brand": "United States Postal Service", "brand:wikidata": "Q668687", "collection_times": "Mo-Sa 10:00", "name": "USPS COLLECTION BOX - BLUE BOX", "nsi_id": "unitedstatespostalservice-a77078", "operator": "United States Postal Service", "operator:short": "USPS", "operator:type": "public", "operator:wikidata": "Q668687", "ref": "9240700005"}, "type": "Feature"}
{"dataset_attributes": {"@spider": "usps_collection_boxes", "spider:collection_time": "2023-10-31T08:25:14.480804"}, "geometry": {"coordinates": [-117.3411239894, 34.1700562259], "type": "Point"}, "id": "Rm8WKeQ2hj3Sbw-VuZLzVkPIlco=", "properties": {"@spider": "usps_collection_boxes", "addr:city": "SAN BERNARDINO", "addr:country": "US", "addr:full": "4560 HALLMARK PKWY", "addr:postcode": "92407", "addr:state": "CA", "amenity": "post_box", "brand": "United States Postal Service", "brand:wikidata": "Q668687", "collection_times": "Mo-Fr 17:00", "name": "USPS COLLECTION BOX - PO LOBBY", "note": "ON 12/24 AND 12/31, THIS BOX MAY BE COLLECTED AS EARLY AS 12 NOON.", "nsi_id": "unitedstatespostalservice-a77078", "operator": "United States Postal Service", "operator:short": "USPS", "operator:type": "public", "operator:wikidata": "Q668687", "ref": "9240700020"}, "type": "Feature"}
{"dataset_attributes": {"@spider": "usps_collection_boxes", "spider:collection_time": "2023-10-31T08:25:14.480804"}, "geometry": {"coordinates": [-117.268773, 34.104205], "type": "Point"}, "id": "Aib-MvGoUIDQDeJdgLLu1EWdwDQ=", "properties": {"@spider": "usps_collection_boxes", "addr:city": "SAN BERNARDINO", "addr:country": "US", "addr:full": "825 E 3RD ST", "addr:postcode": "92410", "addr:state": "CA", "amenity": "post_box", "brand": "United States Postal Service", "brand:wikidata": "Q668687", "collection_times": "Mo-Sa 10:00", "name": "USPS COLLECTION BOX - BLUE BOX", "nsi_id": "unitedstatespostalservice-a77078", "operator": "United States Postal Service", "operator:short": "USPS", "operator:type": "public", "operator:wikidata": "Q668687", "ref": "9241000023"}, "type": "Feature"}
{"dataset_attributes": {"@spider": "usps_collection_boxes", "spider:collection_time": "2023-10-31T08:25:14.480804"}, "geometry": {"coordinates": [-117.322135, 34.131511], "type": "Point"}, "id": "CKc09VkBYLXHuv9BMQc62AzreAw=", "properties": {"@spider": "usps_collection_boxes", "addr:city": "SAN BERNARDINO", "addr:country": "US", "addr:full": "1805 MEDICAL CENTER DR", "addr:postcode": "92411", "addr:state": "CA", "amenity": "post_box", "brand": "United States Postal Service", "brand:wikidata": "Q668687", "collection_times": "Mo-Sa 15:00", "name": "USPS COLLECTION BOX - BLUE BOX", "note": "ON 12/24 AND 12/31, THIS BOX MAY BE COLLECTED AS EARLY AS 12 NOON.", "nsi_id": "unitedstatespostalservice-a77078", "operator": "United States Postal Service", "operator:short": "USPS", "operator:type": "public", "operator:wikidata": "Q668687", "ref": "9241100015"}, "type": "Feature"}
{"dataset_attributes": {"@spider": "usps_collection_boxes", "spider:collection_time": "2023-10-31T08:25:14.480804"}, "geometry": {"coordinates": [-117.3209325599, 34.1213820599], "type": "Point"}, "id": "46ghAYTIMYN2sww_Ys7vMSgAPLw=", "properties": {"@spider": "usps_collection_boxes", "addr:city": "SAN BERNARDINO", "addr:country": "US", "addr:full": "1560 W BASE LINE ST", "addr:postcode": "92411", "addr:state": "CA", "amenity": "post_box", "brand": "United States Postal Service", "brand:wikidata": "Q668687", "collection_times": "Mo-Fr 17:00", "name": "USPS COLLECTION BOX - PO LOBBY", "note": "ON 12/24 AND 12/31, THIS BOX MAY BE COLLECTED AS EARLY AS 12 NOON.", "nsi_id": "unitedstatespostalservice-a77078", "operator": "United States Postal Service", "operator:short": "USPS", "operator:type": "public", "operator:wikidata": "Q668687", "ref": "9241100023"}, "type": "Feature"}
