{"dataset_attributes": {"@spider": "usps_collection_boxes", "spider:collection_time": "2023-12-28T08:25:01.581378"}, "geometry": {"coordinates": [-117.3645570024, 34.001540008], "type": "Point"}, "id": "qHu2gKjALss-v6nsFM5Cjbact5A=", "properties": {"@spider": "usps_collection_boxes", "addr:city": "RIVERSIDE", "addr:country": "US", "addr:full": "1675 MAIN ST", "addr:postcode": "92501", "addr:state": "CA", "amenity": "post_box", "brand": "United States Postal Service", "brand:wikidata": "Q668687", "collection_times": "Mo-Fr 10:00", "name": "USPS COLLECTION BOX - BLUE BOX", "nsi_id": "unitedstatespostalservice-a77078", "operator": "United States Postal Service", "operator:short": "USPS", "operator:type": "public", "operator:wikidata": "Q668687", "ref": "9250100009"}, "type": "Feature"}
{"dataset_attributes": {"@spider": "usps_collection_boxes", "spider:collection_time": "2023-12-28T08:25:01.581378"}, "geometry": {"coordinates": [-117.37384, 33.980502], "type": "Point"}, "id": "sWthFn7CFFU4yKQiCWGOGxdLoEw=", "properties": {"@spider": "usps_collection_boxes", "addr:city": "RIVERSIDE", "addr:country": "US", "addr:full": "3890 ORANGE ST", "addr:postcode": "92501", "addr:state": "CA", "amenity": "post_box", "brand": "United States Postal Service", "brand:wikidata": "Q668687", "collection_times": "Mo-Fr 17:00; Sa 16:00", "name": "USPS COLLECTION BOX - BLUE BOX", "note": "ON 12/24 AND 12/31, THIS BOX MAY BE COLLECTED AS EARLY AS 12 NOON.", "nsi_id": "unitedstatespostalservice-a77078", "operator": "United States Postal Service", "operator:short": "USPS", "operator:type": "public", "operator:wikidata": "Q668687", "ref": "9250100014"}, "type": "Feature"}
{"dataset_attributes": {"@spider": "usps_collection_boxes", "spider:collection_time": "2023-12-28T08:25:01.581378"}, "geometry": {"coordinates": [-117.3766660905, 33.9763319464], "type": "Point"}, "id": "gGLTRVh4w0RZRd5YwHdKAOqFk_I=", "properties": {"@spider": "usps_collection_boxes", "addr:city": "RIVERSIDE", "addr:country": "US", "addr:full": "4333 ORANGE ST", "addr:postcode": "92501", "addr:state": "CA", "amenity": "post_box", "brand": "United States Postal Service", "brand:wikidata": "Q668687", "collection_times": "Mo-Sa 09:00", "name": "USPS COLLECTION BOX - BLUE BOX", "nsi_id": "unitedstatespostalservice-a77078", "operator": "United States Postal Service", "operator:short": "USPS", "operator:type": "public", "operator:wikidata": "Q668687", "ref": "9250100016"}, "type": "Feature"}
{"dataset_attributes": {"@spider": "usps_collection_boxes", "spider:collection_time": "2023-12-28T08:25:01.581378"}, "geometry": {"coordinates": [-117.374658, 33.973925], "type": "Point"}, "id": "EVD5WAcx9Hk4Zfzml6gB0l1uhtI=", "properties": {"@spider": "usps_collection_boxes", "addr:city": "RIVERSIDE", "addr:country": "US", "addr:full": "3380 14TH ST", "addr:postcode": "92501", "addr:state": "CA", "amenity": "post_box", "brand": "United States Postal Service", "brand:wikidata": "Q668687", "collection_times": "Mo-Sa 09:30", "name": "USPS COLLECTION BOX - BLUE BOX", "nsi_id": "unitedstatespostalservice-a77078", "operator": "United States Postal Service", "operator:short": "USPS", "operator:type": "public", "operator:wikidata": "Q668687", "ref": "9250100022"}, "type": "Feature"}
{"dataset_attributes": {"@spider": "usps_collection_boxes", "spider:collection_time": "2023-12-28T08:25:01.581378"}, "geometry": {"coordinates": [-117.377205, 33.98136], "type": "Point"}, "id": "dwbqLyvzBUTm0HckcyLKzZyWAAc=", "properties": {"@spider": "usps_collection_boxes", "addr:city": "RIVERSIDE", "addr:country": "US", "addr:full": "3890 ORANGE ST", "addr:postcode": "92501", "addr:state": "CA", "amenity": "post_box", "brand": "United States Postal Service", "brand:wikidata": "Q668687", "collection_times": "Mo-Fr 17:00; Sa 16:00", "name": "USPS COLLECTION BOX - BLUE BOX", "note": "ON 12/24 AND 12/31, THIS BOX MAY BE COLLECTED AS EARLY AS 12 NOON.", "nsi_id": "unitedstatespostalservice-a77078", "operator": "United States Postal Service", "operator:short": "USPS", "operator:type": "public", "operator:wikidata": "Q668687", "ref": "9250100047"}, "type": "Feature"}
{"dataset_attributes": {"@spider": "usps_collection_boxes", "spider:collection_time": "2023-12-28T08:25:01.581378"}, "geometry": {"coordinates": [-117.373643, 33.98065], "type": "Point"}, "id": "vtscXOyx9b-ker9uquJTmywJ3SQ=", "properties": {"@spider": "usps_collection_boxes", "addr:city": "RIVERSIDE", "addr:country": "US", "addr:full": "3890 ORANGE ST", "addr:postcode": "92501", "addr:state": "CA", "amenity": "post_box", "brand": "United States Postal Service", "brand:wikidata": "Q668687", "collection_times": "Mo-Fr 17:00; Sa 16:00", "name": "USPS COLLECTION BOX - BLUE BOX", "note": "ON 12/24 AND 12/31, THIS BOX MAY BE COLLECTED AS EARLY AS 12 NOON.", "nsi_id": "unitedstatespostalservice-a77078", "operator": "United States Postal Service", "operator:short": "USPS", "operator:type": "public", "operator:wikidata": "Q668687", "ref": "9250100051"}, "type": "Feature"}
{"dataset_attributes": {"@spider": "usps_collection_boxes", "spider:collection_time": "2023-12-28T08:25:01.581378"}, "geometry": {"coordinates": [-117.375005, 33.982485], "type": "Point"}, "id": "LcDIB9zLrtPxpC-eWbBr0aDkTR4=", "properties": {"@spider": "usps_collection_boxes", "addr:city": "RIVERSIDE", "addr:country": "US", "addr:full": "3750 UNIVERSITY AVE", "addr:postcode": "92501", "addr:state": "CA", "amenity": "post_box", "brand": "United States Postal Service", "brand:wikidata": "Q668687", "collection_times": "Mo-Fr 14:30; Sa 12:00", "name": "USPS COLLECTION BOX - BLUE BOX", "note": "ON 12/24 AND 12/31, THIS BOX MAY BE COLLECTED AS EARLY AS 12 NOON.", "nsi_id": "unitedstatespostalservice-a77078", "operator": "United States Postal Service", "operator:short": "USPS", "operator:type": "public", "operator:wikidata": "Q668687", "ref": "9250100059"}, "type": "Feature"}
{"dataset_attributes": {"@spider": "usps_collection_boxes", "spider:collection_time": "2023-12-28T08:25:01.581378"}, "geometry": {"coordinates": [-117.377205, 33.98136], "type": "Point"}, "id": "C4SbbryPYjY9S2HsmKapvPZpOB8=", "properties": {"@spider": "usps_collection_boxes", "addr:city": "RIVERSIDE", "addr:country": "US", "addr:full": "3701 MAIN ST", "addr:postcode": "92501", "addr:state": "CA", "amenity": "post_box", "brand": "United States Postal Service", "brand:wikidata": "Q668687", "collection_times": "Mo-Sa 10:30", "name": "USPS COLLECTION BOX - BLUE BOX", "nsi_id": "unitedstatespostalservice-a77078", "operator": "United States Postal Service", "operator:short": "USPS", "operator:type": "public", "operator:wikidata": "Q668687", "ref": "9250100067"}, "type": "Feature"}
{"dataset_attributes": {"@spider": "usps_collection_boxes", "spider:collection_time": "2023-12-28T08:25:01.581378"}, "geometry": {"coordinates": [-117.374632, 33.982086], "type": "Point"}, "id": "BgRLF3qkkWPXp53Ttrnhdeeo56Y=", "properties": {"@spider": "usps_collection_boxes", "addr:city": "RIVERSIDE", "addr:country": "US", "addr:full": "3737 MAIN ST", "addr:postcode": "92501", "addr:state": "CA", "amenity": "post_box", "brand": "United States Postal Service", "brand:wikidata": "Q668687", "collection_times": "Mo-Sa 10:00", "name": "USPS COLLECTION BOX - BLUE BOX", "nsi_id": "unitedstatespostalservice-a77078", "operator": "United States Postal Service", "operator:short": "USPS", "operator:type": "public", "operator:wikidata": "Q668687", "ref": "9250100068"}, "type": "Feature"}
{"dataset_attributes": {"@spider": "usps_collection_boxes", "spider:collection_time": "2023-12-28T08:25:01.581378"}, "geometry": {"coordinates": [-117.373941, 33.978123], "type": "Point"}, "id": "Lf3sa0r5Pl0d-RnKA-woQ8tVPPM=", "properties": {"@spider": "usps_collection_boxes", "addr:city": "RIVERSIDE", "addr:country": "US", "addr:full": "4095 LEMON ST", "addr:postcode": "92501", "addr:state": "CA", "amenity": "post_box", "brand": "United States Postal Service", "brand:wikidata": "Q668687", "collection_times": "Mo-Sa 12:00", "name": "USPS COLLECTION BOX - BLUE BOX", "nsi_id": "unitedstatespostalservice-a77078", "operator": "United States Postal Service", "operator:short": "USPS", "operator:type": "public", "operator:wikidata": "Q668687", "ref": "9250100072"}, "type": "Feature"}
{"dataset_attributes": {"@spider": "usps_collection_boxes", "spider:collection_time": "2023-12-28T08:25:01.581378"}, "geometry": {"coordinates": [-117.373046, 33.983906], "type": "Point"}, "id": "j3Zb5nZeZOyvm25aEsPvwsn-k1w=", "properties": {"@spider": "usps_collection_boxes", "addr:city": "RIVERSIDE", "addr:country": "US", "addr:full": "3600 MAIN ST", "addr:postcode": "92501", "addr:state": "CA", "amenity": "post_box", "brand": "United States Postal Service", "brand:wikidata": "Q668687", "collection_times": "Mo-Sa 11:30", "name": "USPS COLLECTION BOX - BLUE BOX", "nsi_id": "unitedstatespostalservice-a77078", "operator": "United States Postal Service", "operator:short": "USPS", "operator:type": "public", "operator:wikidata": "Q668687", "ref": "9250100078"}, "type": "Feature"}
{"dataset_attributes": {"@spider": "usps_collection_boxes", "spider:collection_time": "2023-12-28T08:25:01.581378"}, "geometry": {"coordinates": [-117.373768, 33.982846], "type": "Point"}, "id": "aFKft9pXcqqwmFBHi6rVgjCGqKw=", "properties": {"@spider": "usps_collection_boxes", "addr:city": "RIVERSIDE", "addr:country": "US", "addr:full": "3701 MAIN ST", "addr:postcode": "92501", "addr:state": "CA", "amenity": "post_box", "brand": "United States Postal Service", "brand:wikidata": "Q668687", "collection_times": "Mo-Sa 10:30", "name": "USPS COLLECTION BOX - BLUE BOX", "nsi_id": "unitedstatespostalservice-a77078", "operator": "United States Postal Service", "operator:short": "USPS", "operator:type": "public", "operator:wikidata": "Q668687", "ref": "9250100081"}, "type": "Feature"}
{"dataset_attributes": {"@spider": "usps_collection_boxes", "spider:collection_time": "2023-12-28T08:25:01.581378"}, "geometry": {"coordinates": [-117.373943, 33.976495], "type": "Point"}, "id": "jchc9vG0zMtR-P6bUIxK6Vn43a8=", "properties": {"@spider": "usps_collection_boxes", "addr:city": "RIVERSIDE", "addr:country": "US", "addr:full": "3420 12TH ST", "addr:postcode": "92501", "addr:state": "CA", "amenity": "post_box", "brand": "United States Postal Service", "brand:wikidata": "Q668687", "collection_times": "Mo-Fr 09:30", "name": "USPS COLLECTION BOX - BLUE BOX", "nsi_id": "unitedstatespostalservice-a77078", "operator": "United States Postal Service", "operator:short": "USPS", "operator:type": "public", "operator:wikidata": "Q668687", "ref": "9250100085"}, "type": "Feature"}
{"dataset_attributes": {"@spider": "usps_collection_boxes", "spider:collection_time": "2023-12-28T08:25:01.581378"}, "geometry": {"coordinates": [-117.3734030115, 33.9804459847], "type": "Point"}, "id": "Lu5LMsIsAgtCLHDrUIUsHHqW0YY=", "properties": {"@spider": "usps_collection_boxes", "addr:city": "RIVERSIDE", "addr:country": "US", "addr:full": "3890 ORANGE ST", "addr:postcode": "92501", "addr:state": "CA", "amenity": "post_box", "brand": "United States Postal Service", "brand:wikidata": "Q668687", "collection_times": "Mo-Fr 17:00; Sa 16:00", "name": "USPS COLLECTION BOX - BLUE BOX", "note": "ON 12/24 AND 12/31, THIS BOX MAY BE COLLECTED AS EARLY AS 12 NOON.", "nsi_id": "unitedstatespostalservice-a77078", "operator": "United States Postal Service", "operator:short": "USPS", "operator:type": "public", "operator:wikidata": "Q668687", "ref": "9250100088"}, "type": "Feature"}
{"dataset_attributes": {"@spider": "usps_collection_boxes", "spider:collection_time": "2023-12-28T08:25:01.581378"}, "geometry": {"coordinates": [-117.3765735, 33.97941], "type": "Point"}, "id": "vCHCFtIPuBpnwlCAK5RLqjqRG0Q=", "properties": {"@spider": "usps_collection_boxes", "addr:city": "RIVERSIDE", "addr:country": "US", "addr:full": "4075 MAIN ST", "addr:postcode": "92501", "addr:state": "CA", "amenity": "post_box", "brand": "United States Postal Service", "brand:wikidata": "Q668687", "collection_times": "Mo-Sa 12:00", "name": "USPS COLLECTION BOX - BLUE BOX", "nsi_id": "unitedstatespostalservice-a77078", "operator": "United States Postal Service", "operator:short": "USPS", "operator:type": "public", "operator:wikidata": "Q668687", "ref": "9250100092"}, "type": "Feature"}
{"dataset_attributes": {"@spider": "usps_collection_boxes", "spider:collection_time": "2023-12-28T08:25:01.581378"}, "geometry": {"coordinates": [-117.3801659151, 33.9759215998], "type": "Point"}, "id": "s86uUd9HG06AyaQuRZy5XhgIpgE=", "properties": {"@spider": "usps_collection_boxes", "addr:city": "RIVERSIDE", "addr:country": "US", "addr:full": "4445 MAGNOLIA AVE", "addr:postcode": "92501", "addr:state": "CA", "amenity": "post_box", "brand": "United States Postal Service", "brand:wikidata": "Q668687", "collection_times": "Mo-Fr 11:00", "name": "USPS COLLECTION BOX - BLUE BOX", "nsi_id": "unitedstatespostalservice-a77078", "operator": "United States Postal Service", "operator:short": "USPS", "operator:type": "public", "operator:wikidata": "Q668687", "ref": "9250100095"}, "type": "Feature"}
{"dataset_attributes": {"@spider": "usps_collection_boxes", "spider:collection_time": "2023-12-28T08:25:01.581378"}, "geometry": {"coordinates": [-117.3738374282, 33.9804486218], "type": "Point"}, "id": "x87QD2Hb1vSqYsCTUgdPM7SAvYE=", "properties": {"@spider": "usps_collection_boxes", "addr:city": "RIVERSIDE", "addr:country": "US", "addr:full": "3890 ORANGE ST", "addr:postcode": "92501", "addr:state": "CA", "amenity": "post_box", "brand": "United States Postal Service", "brand:wikidata": "Q668687", "collection_times": "Mo-Fr 17:00", "name": "USPS COLLECTION BOX - PO LOBBY", "note": "ON 12/24 AND 12/31, THIS BOX MAY BE COLLECTED AS EARLY AS 12 NOON.", "nsi_id": "unitedstatespostalservice-a77078", "operator": "United States Postal Service", "operator:short": "USPS", "operator:type": "public", "operator:wikidata": "Q668687", "ref": "9250100097"}, "type": "Feature"}
{"dataset_attributes": {"@spider": "usps_collection_boxes", "spider:collection_time": "2023-12-28T08:25:01.581378"}, "geometry": {"coordinates": [-117.4485, 33.922865], "type": "Point"}, "id": "Av6d6EAL9Zmuy3ElRohardJRKcA=", "properties": {"@spider": "usps_collection_boxes", "addr:city": "RIVERSIDE", "addr:country": "US", "addr:full": "3700 PIERCE ST", "addr:postcode": "92503", "addr:state": "CA", "amenity": "post_box", "brand": "United States Postal Service", "brand:wikidata": "Q668687", "collection_times": "Mo-Sa 14:00", "name": "USPS COLLECTION BOX - BLUE BOX", "note": "ON 12/24 AND 12/31, THIS BOX MAY BE COLLECTED AS EARLY AS 12 NOON.", "nsi_id": "unitedstatespostalservice-a77078", "operator": "United States Postal Service", "operator:short": "USPS", "operator:type": "public", "operator:wikidata": "Q668687", "ref": "9250300014"}, "type": "Feature"}
{"dataset_attributes": {"@spider": "usps_collection_boxes", "spider:collection_time": "2023-12-28T08:25:01.581378"}, "geometry": {"coordinates": [-117.4485, 33.922865], "type": "Point"}, "id": "zHXTh3udz3JOOHumzsT7sYlet0Q=", "properties": {"@spider": "usps_collection_boxes", "addr:city": "RIVERSIDE", "addr:country": "US", "addr:full": "3420 LA SIERRA AVE", "addr:postcode": "92503", "addr:state": "CA", "amenity": "post_box", "brand": "United States Postal Service", "brand:wikidata": "Q668687", "collection_times": "Mo-Sa 09:00", "name": "USPS COLLECTION BOX - BLUE BOX", "nsi_id": "unitedstatespostalservice-a77078", "operator": "United States Postal Service", "operator:short": "USPS", "operator:type": "public", "operator:wikidata": "Q668687", "ref": "9250300019"}, "type": "Feature"}
{"dataset_attributes": {"@spider": "usps_collection_boxes", "spider:collection_time": "2023-12-28T08:25:01.581378"}, "geometry": {"coordinates": [-117.4408169824, 33.9276080178], "type": "Point"}, "id": "hb9rvKseT20X1TU587Z9gPdFdiA=", "properties": {"@spider": "usps_collection_boxes", "addr:city": "RIVERSIDE", "addr:country": "US", "addr:full": "3975 JACKSON ST", "addr:postcode": "92503", "addr:state": "CA", "amenity": "post_box", "brand": "United States Postal Service", "brand:wikidata": "Q668687", "collection_times": "Mo-Sa 11:00", "name": "USPS COLLECTION BOX - BLUE BOX", "nsi_id": "unitedstatespostalservice-a77078", "operator": "United States Postal Service", "operator:short": "USPS", "operator:type": "public", "operator:wikidata": "Q668687", "ref": "9250300024"}, "type": "Feature"}
{"dataset_attributes": {"@spider": "usps_collection_boxes", "spider:collection_time": "2023-12-28T08:25:01.581378"}, "geometry": {"coordinates": [-117.439696, 33.927104], "type": "Point"}, "id": "cGSTQS7YG6pbKvksgoxsTn7mkTo=", "properties": {"@spider": "usps_collection_boxes", "addr:city": "RIVERSIDE", "addr:country": "US", "addr:full": "3865 JACKSON ST", "addr:postcode": "92503", "addr:state": "CA", "amenity": "post_box", "brand": "United States Postal Service", "brand:wikidata": "Q668687", "collection_times": "Mo-Sa 11:00", "name": "USPS COLLECTION BOX - BLUE BOX", "nsi_id": "unitedstatespostalservice-a77078", "operator": "United States Postal Service", "operator:short": "USPS", "operator:type": "public", "operator:wikidata": "Q668687", "ref": "9250300031"}, "type": "Feature"}
{"dataset_attributes": {"@spider": "usps_collection_boxes", "spider:collection_time": "2023-12-28T08:25:01.581378"}, "geometry": {"coordinates": [-117.438524, 33.925755], "type": "Point"}, "id": "kRGB29HF1ElAXauFOmvUyazlJVA=", "properties": {"@spider": "usps_collection_boxes", "addr:city": "RIVERSIDE", "addr:country": "US", "addr:full": "9041 MAGNOLIA AVE", "addr:postcode": "92503", "addr:state": "CA", "amenity": "post_box", "brand": "United States Postal Service", "brand:wikidata": "Q668687", "collection_times": "Mo-Sa 10:45", "name": "USPS COLLECTION BOX - BLUE BOX", "nsi_id": "unitedstatespostalservice-a77078", "operator": "United States Postal Service", "operator:short": "USPS", "operator:type": "public", "operator:wikidata": "Q668687", "ref": "9250300045"}, "type": "Feature"}
{"dataset_attributes": {"@spider": "usps_collection_boxes", "spider:collection_time": "2023-12-28T08:25:01.581378"}, "geometry": {"coordinates": [-117.4634000278, 33.9151634021], "type": "Point"}, "id": "Rav99j-3mueFXNbPCkLV4KboqIg=", "properties": {"@spider": "usps_collection_boxes", "addr:city": "RIVERSIDE", "addr:country": "US", "addr:full": "10275 HOLE AVE", "addr:postcode": "92503", "addr:state": "CA", "amenity": "post_box", "brand": "United States Postal Service", "brand:wikidata": "Q668687", "collection_times": "Mo-Fr 17:00; Sa 16:30", "name": "USPS COLLECTION BOX - APC", "note": "ON 12/24 AND 12/31, THIS BOX MAY BE COLLECTED AS EARLY AS 12 NOON.", "nsi_id": "unitedstatespostalservice-a77078", "operator": "United States Postal Service", "operator:short": "USPS", "operator:type": "public", "operator:wikidata": "Q668687", "ref": "9250300046"}, "type": "Feature"}
{"dataset_attributes": {"@spider": "usps_collection_boxes", "spider:collection_time": "2023-12-28T08:25:01.581378"}, "geometry": {"coordinates": [-117.4634000278, 33.9151634021], "type": "Point"}, "id": "9jsWlklG-WQn0V3v8WpWeXd8P-E=", "properties": {"@spider": "usps_collection_boxes", "addr:city": "RIVERSIDE", "addr:country": "US", "addr:full": "10275 HOLE AVE", "addr:postcode": "92503", "addr:state": "CA", "amenity": "post_box", "brand": "United States Postal Service", "brand:wikidata": "Q668687", "collection_times": "Mo-Fr 17:00", "name": "USPS COLLECTION BOX - PO LOBBY", "note": "ON 12/24 AND 12/31, THIS BOX MAY BE COLLECTED AS EARLY AS 12 NOON.", "nsi_id": "unitedstatespostalservice-a77078", "operator": "United States Postal Service", "operator:short": "USPS", "operator:type": "public", "operator:wikidata": "Q668687", "ref": "9250300057"}, "type": "Feature"}
{"dataset_attributes": {"@spider": "usps_collection_boxes", "spider:collection_time": "2023-12-28T08:25:01.581378"}, "geometry": {"coordinates": [-117.4158675, 33.920847], "type": "Point"}, "id": "l6epZdtnYwyOKK2xJatFLs_FqGM=", "properties": {"@spider": "usps_collection_boxes", "addr:city": "RIVERSIDE", "addr:country": "US", "addr:full": "2900 ADAMS ST", "addr:postcode": "92504", "addr:state": "CA", "amenity": "post_box", "brand": "United States Postal Service", "brand:wikidata": "Q668687", "collection_times": "Mo-Sa 12:15", "name": "USPS COLLECTION BOX - BLUE BOX", "note": "ON 12/24 AND 12/31, THIS BOX MAY BE COLLECTED AS EARLY AS 12 NOON.", "nsi_id": "unitedstatespostalservice-a77078", "operator": "United States Postal Service", "operator:short": "USPS", "operator:type": "public", "operator:wikidata": "Q668687", "ref": "9250400030"}, "type": "Feature"}
{"dataset_attributes": {"@spider": "usps_collection_boxes", "spider:collection_time": "2023-12-28T08:25:01.581378"}, "geometry": {"coordinates": [-117.3635325, 33.882456516], "type": "Point"}, "id": "rVejTMj07mduT_9hN396rq3_3KE=", "properties": {"@spider": "usps_collection_boxes", "addr:city": "RIVERSIDE", "addr:country": "US", "addr:full": "17130 VAN BUREN BLVD", "addr:postcode": "92504", "addr:state": "CA", "amenity": "post_box", "brand": "United States Postal Service", "brand:wikidata": "Q668687", "collection_times": "Mo-Sa 13:00", "name": "USPS COLLECTION BOX - BLUE BOX", "note": "ON 12/24 AND 12/31, THIS BOX MAY BE COLLECTED AS EARLY AS 12 NOON.", "nsi_id": "unitedstatespostalservice-a77078", "operator": "United States Postal Service", "operator:short": "USPS", "operator:type": "public", "operator:wikidata": "Q668687", "ref": "9250400032"}, "type": "Feature"}
{"dataset_attributes": {"@spider": "usps_collection_boxes", "spider:collection_time": "2023-12-28T08:25:01.581378"}, "geometry": {"coordinates": [-117.4163740116, 33.9454779839], "type": "Point"}, "id": "jj-wg8VezsLUdJa1MyK0T4aWF3g=", "properties": {"@spider": "usps_collection_boxes", "addr:city": "RIVERSIDE", "addr:country": "US", "addr:full": "5172 ARLINGTON AVE", "addr:postcode": "92504", "addr:state": "CA", "amenity": "post_box", "brand": "United States Postal Service", "brand:wikidata": "Q668687", "collection_times": "Mo-Fr 17:00; Sa 14:00", "name": "USPS COLLECTION BOX - EXPRESS", "note": "ON 12/24 AND 12/31, THIS BOX MAY BE COLLECTED AS EARLY AS 12 NOON.", "nsi_id": "unitedstatespostalservice-a77078", "operator": "United States Postal Service", "operator:short": "USPS", "operator:type": "public", "operator:wikidata": "Q668687", "ref": "9250400036"}, "type": "Feature"}
{"dataset_attributes": {"@spider": "usps_collection_boxes", "spider:collection_time": "2023-12-28T08:25:01.581378"}, "geometry": {"coordinates": [-117.415786379, 33.946013933], "type": "Point"}, "id": "mmajyL0Ww4x7_bbQ-jejdzDfmeM=", "properties": {"@spider": "usps_collection_boxes", "addr:city": "RIVERSIDE", "addr:country": "US", "addr:full": "5172 ARLINGTON AVE", "addr:postcode": "92504", "addr:state": "CA", "amenity": "post_box", "brand": "United States Postal Service", "brand:wikidata": "Q668687", "collection_times": "Mo-Fr 17:00; Sa 14:00", "name": "USPS COLLECTION BOX - BLUE BOX", "note": "ON 12/24 AND 12/31, THIS BOX MAY BE COLLECTED AS EARLY AS 12 NOON.", "nsi_id": "unitedstatespostalservice-a77078", "operator": "United States Postal Service", "operator:short": "USPS", "operator:type": "public", "operator:wikidata": "Q668687", "ref": "9250400039"}, "type": "Feature"}
{"dataset_attributes": {"@spider": "usps_collection_boxes", "spider:collection_time": "2023-12-28T08:25:01.581378"}, "geometry": {"coordinates": [-117.4157771192, 33.946006852], "type": "Point"}, "id": "DwWV4XQ2ddHk1tMoHiYE_5Hm6a0=", "properties": {"@spider": "usps_collection_boxes", "addr:city": "RIVERSIDE", "addr:country": "US", "addr:full": "5172 ARLINGTON AVE", "addr:postcode": "92504", "addr:state": "CA", "amenity": "post_box", "brand": "United States Postal Service", "brand:wikidata": "Q668687", "collection_times": "Mo-Fr 17:00; Sa 14:00", "name": "USPS COLLECTION BOX - BLUE BOX", "note": "ON 12/24 AND 12/31, THIS BOX MAY BE COLLECTED AS EARLY AS 12 NOON.", "nsi_id": "unitedstatespostalservice-a77078", "operator": "United States Postal Service", "operator:short": "USPS", "operator:type": "public", "operator:wikidata": "Q668687", "ref": "9250400045"}, "type": "Feature"}
{"dataset_attributes": {"@spider": "usps_collection_boxes", "spider:collection_time": "2023-12-28T08:25:01.581378"}, "geometry": {"coordinates": [-117.4157771192, 33.946006852], "type": "Point"}, "id": "56BcjMLtjWaXzXjlxa5xyOrnI5Q=", "properties": {"@spider": "usps_collection_boxes", "addr:city": "RIVERSIDE", "addr:country": "US", "addr:full": "5172 ARLINGTON AVE", "addr:postcode": "92504", "addr:state": "CA", "amenity": "post_box", "brand": "United States Postal Service", "brand:wikidata": "Q668687", "collection_times": "Mo-Fr 17:00", "name": "USPS COLLECTION BOX - PO LOBBY", "note": "ON 12/24 AND 12/31, THIS BOX MAY BE COLLECTED AS EARLY AS 12 NOON.", "nsi_id": "unitedstatespostalservice-a77078", "operator": "United States Postal Service", "operator:short": "USPS", "operator:type": "public", "operator:wikidata": "Q668687", "ref": "9250400048"}, "type": "Feature"}
{"dataset_attributes": {"@spider": "usps_collection_boxes", "spider:collection_time": "2023-12-28T08:25:01.581378"}, "geometry": {"coordinates": [-117.488795, 33.914765], "type": "Point"}, "id": "r8PRwWP87aLDt2PGtpIwKTxrTgE=", "properties": {"@spider": "usps_collection_boxes", "addr:city": "RIVERSIDE", "addr:country": "US", "addr:full": "3860 LA SIERRA AVE", "addr:postcode": "92505", "addr:state": "CA", "amenity": "post_box", "brand": "United States Postal Service", "brand:wikidata": "Q668687", "collection_times": "Mo-Sa 11:00", "name": "USPS COLLECTION BOX - BLUE BOX", "nsi_id": "unitedstatespostalservice-a77078", "operator": "United States Postal Service", "operator:short": "USPS", "operator:type": "public", "operator:wikidata": "Q668687", "ref": "9250500009"}, "type": "Feature"}
{"dataset_attributes": {"@spider": "usps_collection_boxes", "spider:collection_time": "2023-12-28T08:25:01.581378"}, "geometry": {"coordinates": [-117.4795169837, 33.9461530205], "type": "Point"}, "id": "234Y7X4aMzteZPPrFyVVzT9mdEo=", "properties": {"@spider": "usps_collection_boxes", "addr:city": "RIVERSIDE", "addr:country": "US", "addr:full": "10370 ARLINGTON AVE", "addr:postcode": "92505", "addr:state": "CA", "amenity": "post_box", "brand": "United States Postal Service", "brand:wikidata": "Q668687", "collection_times": "Mo-Sa 12:00", "name": "USPS COLLECTION BOX - BLUE BOX", "nsi_id": "unitedstatespostalservice-a77078", "operator": "United States Postal Service", "operator:short": "USPS", "operator:type": "public", "operator:wikidata": "Q668687", "ref": "9250500015"}, "type": "Feature"}
{"dataset_attributes": {"@spider": "usps_collection_boxes", "spider:collection_time": "2023-12-28T08:25:01.581378"}, "geometry": {"coordinates": [-117.470024, 33.904115], "type": "Point"}, "id": "xgoudI5g9LTzAa05cxMWxNwgoY4=", "properties": {"@spider": "usps_collection_boxes", "addr:city": "RIVERSIDE", "addr:country": "US", "addr:full": "10800 MAGNOLIA AVE", "addr:postcode": "92505", "addr:state": "CA", "amenity": "post_box", "brand": "United States Postal Service", "brand:wikidata": "Q668687", "collection_times": "Mo-Sa 10:30", "name": "USPS COLLECTION BOX - BLUE BOX", "nsi_id": "unitedstatespostalservice-a77078", "operator": "United States Postal Service", "operator:short": "USPS", "operator:type": "public", "operator:wikidata": "Q668687", "ref": "9250500021"}, "type": "Feature"}
{"dataset_attributes": {"@spider": "usps_collection_boxes", "spider:collection_time": "2023-12-28T08:25:01.581378"}, "geometry": {"coordinates": [-117.3940344, 33.9496205], "type": "Point"}, "id": "aRfZrt7ZMP0sf1ySwtPLYUqm8tg=", "properties": {"@spider": "usps_collection_boxes", "addr:city": "RIVERSIDE", "addr:country": "US", "addr:full": "7177 BROCKTON AVE", "addr:postcode": "92506", "addr:state": "CA", "amenity": "post_box", "brand": "United States Postal Service", "brand:wikidata": "Q668687", "collection_times": "Mo-Sa 12:45", "name": "USPS COLLECTION BOX - BLUE BOX", "note": "ON 12/24 AND 12/31, THIS BOX MAY BE COLLECTED AS EARLY AS 12 NOON.", "nsi_id": "unitedstatespostalservice-a77078", "operator": "United States Postal Service", "operator:short": "USPS", "operator:type": "public", "operator:wikidata": "Q668687", "ref": "9250600009"}, "type": "Feature"}
{"dataset_attributes": {"@spider": "usps_collection_boxes", "spider:collection_time": "2023-12-28T08:25:01.581378"}, "geometry": {"coordinates": [-117.3940344, 33.9496205], "type": "Point"}, "id": "xdo3ZEQ3gBV9_vxlsCgWXZZuwts=", "properties": {"@spider": "usps_collection_boxes", "addr:city": "RIVERSIDE", "addr:country": "US", "addr:full": "6926 BROCKTON AVE", "addr:postcode": "92506", "addr:state": "CA", "amenity": "post_box", "brand": "United States Postal Service", "brand:wikidata": "Q668687", "collection_times": "Mo-Sa 12:30", "name": "USPS COLLECTION BOX - BLUE BOX", "note": "ON 12/24 AND 12/31, THIS BOX MAY BE COLLECTED AS EARLY AS 12 NOON.", "nsi_id": "unitedstatespostalservice-a77078", "operator": "United States Postal Service", "operator:short": "USPS", "operator:type": "public", "operator:wikidata": "Q668687", "ref": "9250600013"}, "type": "Feature"}
{"dataset_attributes": {"@spider": "usps_collection_boxes", "spider:collection_time": "2023-12-28T08:25:01.581378"}, "geometry": {"coordinates": [-117.3940344, 33.9496205], "type": "Point"}, "id": "57zoEHpzkNhcPuQsM-wXUFO2R7c=", "properties": {"@spider": "usps_collection_boxes", "addr:city": "RIVERSIDE", "addr:country": "US", "addr:full": "3681 SUNNYSIDE DR", "addr:postcode": "92506", "addr:state": "CA", "amenity": "post_box", "brand": "United States Postal Service", "brand:wikidata": "Q668687", "collection_times": "Mo-Sa 13:30", "name": "USPS COLLECTION BOX - BLUE BOX", "note": "ON 12/24 AND 12/31, THIS BOX MAY BE COLLECTED AS EARLY AS 12 NOON.", "nsi_id": "unitedstatespostalservice-a77078", "operator": "United States Postal Service", "operator:short": "USPS", "operator:type": "public", "operator:wikidata": "Q668687", "ref": "9250600021"}, "type": "Feature"}
{"dataset_attributes": {"@spider": "usps_collection_boxes", "spider:collection_time": "2023-12-28T08:25:01.581378"}, "geometry": {"coordinates": [-117.3930061738, 33.9590438587], "type": "Point"}, "id": "OU5Z5SMgnvei6hPEG_pr2kxwMRc=", "properties": {"@spider": "usps_collection_boxes", "addr:city": "RIVERSIDE", "addr:country": "US", "addr:full": "6155 MAGNOLIA AVE", "addr:postcode": "92506", "addr:state": "CA", "amenity": "post_box", "brand": "United States Postal Service", "brand:wikidata": "Q668687", "collection_times": "Mo-Sa 12:30", "name": "USPS COLLECTION BOX - BLUE BOX", "note": "ON 12/24 AND 12/31, THIS BOX MAY BE COLLECTED AS EARLY AS 12 NOON.", "nsi_id": "unitedstatespostalservice-a77078", "operator": "United States Postal Service", "operator:short": "USPS", "operator:type": "public", "operator:wikidata": "Q668687", "ref": "9250600038"}, "type": "Feature"}
{"dataset_attributes": {"@spider": "usps_collection_boxes", "spider:collection_time": "2023-12-28T08:25:01.581378"}, "geometry": {"coordinates": [-117.3940344, 33.9496205], "type": "Point"}, "id": "eYLyE69ezcBI2rIYZN3kDXQB8uI=", "properties": {"@spider": "usps_collection_boxes", "addr:city": "RIVERSIDE", "addr:country": "US", "addr:full": "6820 INDIANA AVE", "addr:postcode": "92506", "addr:state": "CA", "amenity": "post_box", "brand": "United States Postal Service", "brand:wikidata": "Q668687", "collection_times": "Mo-Sa 12:45", "name": "USPS COLLECTION BOX - BLUE BOX", "note": "ON 12/24 AND 12/31, THIS BOX MAY BE COLLECTED AS EARLY AS 12 NOON.", "nsi_id": "unitedstatespostalservice-a77078", "operator": "United States Postal Service", "operator:short": "USPS", "operator:type": "public", "operator:wikidata": "Q668687", "ref": "9250600042"}, "type": "Feature"}
{"dataset_attributes": {"@spider": "usps_collection_boxes", "spider:collection_time": "2023-12-28T08:25:01.581378"}, "geometry": {"coordinates": [-117.391773964, 33.953211002], "type": "Point"}, "id": "QIrWYbbbnTbcf_GR5C_0lxMxALA=", "properties": {"@spider": "usps_collection_boxes", "addr:city": "RIVERSIDE", "addr:country": "US", "addr:full": "3610 CENTRAL AVE", "addr:postcode": "92506", "addr:state": "CA", "amenity": "post_box", "brand": "United States Postal Service", "brand:wikidata": "Q668687", "collection_times": "Mo-Sa 12:30", "name": "USPS COLLECTION BOX - BLUE BOX", "note": "ON 12/24 AND 12/31, THIS BOX MAY BE COLLECTED AS EARLY AS 12 NOON.", "nsi_id": "unitedstatespostalservice-a77078", "operator": "United States Postal Service", "operator:short": "USPS", "operator:type": "public", "operator:wikidata": "Q668687", "ref": "9250600056"}, "type": "Feature"}
{"dataset_attributes": {"@spider": "usps_collection_boxes", "spider:collection_time": "2023-12-28T08:25:01.581378"}, "geometry": {"coordinates": [-117.3940344, 33.9496205], "type": "Point"}, "id": "iRcYo-XGhTxGcNvbNPOksrlF-r0=", "properties": {"@spider": "usps_collection_boxes", "addr:city": "RIVERSIDE", "addr:country": "US", "addr:full": "3681 SUNNYSIDE DR", "addr:postcode": "92506", "addr:state": "CA", "amenity": "post_box", "brand": "United States Postal Service", "brand:wikidata": "Q668687", "collection_times": "Mo-Sa 13:30", "name": "USPS COLLECTION BOX - BLUE BOX", "note": "ON 12/24 AND 12/31, THIS BOX MAY BE COLLECTED AS EARLY AS 12 NOON.", "nsi_id": "unitedstatespostalservice-a77078", "operator": "United States Postal Service", "operator:short": "USPS", "operator:type": "public", "operator:wikidata": "Q668687", "ref": "9250600059"}, "type": "Feature"}
{"dataset_attributes": {"@spider": "usps_collection_boxes", "spider:collection_time": "2023-12-28T08:25:01.581378"}, "geometry": {"coordinates": [-117.3940344, 33.9496205], "type": "Point"}, "id": "FqVqAtSWP3S-h6oI9_KPKmHuUQA=", "properties": {"@spider": "usps_collection_boxes", "addr:city": "RIVERSIDE", "addr:country": "US", "addr:full": "3681 SUNNYSIDE DR", "addr:postcode": "92506", "addr:state": "CA", "amenity": "post_box", "brand": "United States Postal Service", "brand:wikidata": "Q668687", "collection_times": "Mo-Sa 13:30", "name": "USPS COLLECTION BOX - BLUE BOX", "note": "ON 12/24 AND 12/31, THIS BOX MAY BE COLLECTED AS EARLY AS 12 NOON.", "nsi_id": "unitedstatespostalservice-a77078", "operator": "United States Postal Service", "operator:short": "USPS", "operator:type": "public", "operator:wikidata": "Q668687", "ref": "9250600060"}, "type": "Feature"}
{"dataset_attributes": {"@spider": "usps_collection_boxes", "spider:collection_time": "2023-12-28T08:25:01.581378"}, "geometry": {"coordinates": [-117.3940344, 33.9496205], "type": "Point"}, "id": "dygouhNHjayAbxZIf3URth534p4=", "properties": {"@spider": "usps_collection_boxes", "addr:city": "RIVERSIDE", "addr:country": "US", "addr:full": "3681 SUNNYSIDE DR", "addr:postcode": "92506", "addr:state": "CA", "amenity": "post_box", "brand": "United States Postal Service", "brand:wikidata": "Q668687", "collection_times": "Mo-Sa 13:30", "name": "USPS COLLECTION BOX - BLUE BOX", "note": "ON 12/24 AND 12/31, THIS BOX MAY BE COLLECTED AS EARLY AS 12 NOON.", "nsi_id": "unitedstatespostalservice-a77078", "operator": "United States Postal Service", "operator:short": "USPS", "operator:type": "public", "operator:wikidata": "Q668687", "ref": "9250600061"}, "type": "Feature"}
{"dataset_attributes": {"@spider": "usps_collection_boxes", "spider:collection_time": "2023-12-28T08:25:01.581378"}, "geometry": {"coordinates": [-117.3940344, 33.9496205], "type": "Point"}, "id": "HmryUXg3pktYp7NT3Y2MJFb9URw=", "properties": {"@spider": "usps_collection_boxes", "addr:city": "RIVERSIDE", "addr:country": "US", "addr:full": "3333 ARLINGTON AVE", "addr:postcode": "92506", "addr:state": "CA", "amenity": "post_box", "brand": "United States Postal Service", "brand:wikidata": "Q668687", "collection_times": "Mo-Sa 12:15", "name": "USPS COLLECTION BOX - BLUE BOX", "note": "ON 12/24 AND 12/31, THIS BOX MAY BE COLLECTED AS EARLY AS 12 NOON.", "nsi_id": "unitedstatespostalservice-a77078", "operator": "United States Postal Service", "operator:short": "USPS", "operator:type": "public", "operator:wikidata": "Q668687", "ref": "9250600064"}, "type": "Feature"}
{"dataset_attributes": {"@spider": "usps_collection_boxes", "spider:collection_time": "2023-12-28T08:25:01.581378"}, "geometry": {"coordinates": [-117.332032, 33.973431], "type": "Point"}, "id": "pUMJikOj9jNtpHgc35HB4xqN37A=", "properties": {"@spider": "usps_collection_boxes", "addr:city": "RIVERSIDE", "addr:country": "US", "addr:full": "900 UNIVERSITY AVE", "addr:postcode": "92507", "addr:state": "CA", "amenity": "post_box", "brand": "United States Postal Service", "brand:wikidata": "Q668687", "collection_times": "Mo-Fr 12:00", "name": "USPS COLLECTION BOX - BLUE BOX", "nsi_id": "unitedstatespostalservice-a77078", "operator": "United States Postal Service", "operator:short": "USPS", "operator:type": "public", "operator:wikidata": "Q668687", "ref": "9250700029"}, "type": "Feature"}
{"dataset_attributes": {"@spider": "usps_collection_boxes", "spider:collection_time": "2023-12-28T08:25:01.581378"}, "geometry": {"coordinates": [-117.3534, 33.97958], "type": "Point"}, "id": "uOC4Dvf2IDWoz5oy9O8321rU02w=", "properties": {"@spider": "usps_collection_boxes", "addr:city": "RIVERSIDE", "addr:country": "US", "addr:full": "6200 BOX SPRINGS BLVD", "addr:postcode": "92507", "addr:state": "CA", "amenity": "post_box", "brand": "United States Postal Service", "brand:wikidata": "Q668687", "collection_times": "Mo-Sa 13:30", "name": "USPS COLLECTION BOX - BLUE BOX", "note": "ON 12/24 AND 12/31, THIS BOX MAY BE COLLECTED AS EARLY AS 12 NOON.", "nsi_id": "unitedstatespostalservice-a77078", "operator": "United States Postal Service", "operator:short": "USPS", "operator:type": "public", "operator:wikidata": "Q668687", "ref": "9250700036"}, "type": "Feature"}
{"dataset_attributes": {"@spider": "usps_collection_boxes", "spider:collection_time": "2023-12-28T08:25:01.581378"}, "geometry": {"coordinates": [-117.3484540632, 33.9727105632], "type": "Point"}, "id": "wPDKk5hpMNgbu5iWc3obqY2OXPs=", "properties": {"@spider": "usps_collection_boxes", "addr:city": "RIVERSIDE", "addr:country": "US", "addr:full": "4150 CHICAGO AVE", "addr:postcode": "92507", "addr:state": "CA", "amenity": "post_box", "brand": "United States Postal Service", "brand:wikidata": "Q668687", "collection_times": "Mo-Sa 17:00", "name": "USPS COLLECTION BOX - BLUE BOX", "note": "ON 12/24 AND 12/31, THIS BOX MAY BE COLLECTED AS EARLY AS 12 NOON.", "nsi_id": "unitedstatespostalservice-a77078", "operator": "United States Postal Service", "operator:short": "USPS", "operator:type": "public", "operator:wikidata": "Q668687", "ref": "9250700038"}, "type": "Feature"}
{"dataset_attributes": {"@spider": "usps_collection_boxes", "spider:collection_time": "2023-12-28T08:25:01.581378"}, "geometry": {"coordinates": [-117.2846467656, 33.9347653634], "type": "Point"}, "id": "FWxKA7xdZ4vaFSnefQmBCev7zkw=", "properties": {"@spider": "usps_collection_boxes", "addr:city": "RIVERSIDE", "addr:country": "US", "addr:full": "2724 GATEWAY DR", "addr:postcode": "92507", "addr:state": "CA", "amenity": "post_box", "brand": "United States Postal Service", "brand:wikidata": "Q668687", "collection_times": "Mo-Fr 13:15", "name": "USPS COLLECTION BOX - BLUE BOX", "note": "ON 12/24 AND 12/31, THIS BOX MAY BE COLLECTED AS EARLY AS 12 NOON.", "nsi_id": "unitedstatespostalservice-a77078", "operator": "United States Postal Service", "operator:short": "USPS", "operator:type": "public", "operator:wikidata": "Q668687", "ref": "9250700057"}, "type": "Feature"}
{"dataset_attributes": {"@spider": "usps_collection_boxes", "spider:collection_time": "2023-12-28T08:25:01.581378"}, "geometry": {"coordinates": [-117.3534, 33.97958], "type": "Point"}, "id": "wLnMVdyFvHEtZsdqaGRQGjcb2kg=", "properties": {"@spider": "usps_collection_boxes", "addr:city": "RIVERSIDE", "addr:country": "US", "addr:full": "1180 PALMYRITA AVE", "addr:postcode": "92507", "addr:state": "CA", "amenity": "post_box", "brand": "United States Postal Service", "brand:wikidata": "Q668687", "collection_times": "Mo-Fr 12:00", "name": "USPS COLLECTION BOX - BLUE BOX", "nsi_id": "unitedstatespostalservice-a77078", "operator": "United States Postal Service", "operator:short": "USPS", "operator:type": "public", "operator:wikidata": "Q668687", "ref": "9250700065"}, "type": "Feature"}
{"dataset_attributes": {"@spider": "usps_collection_boxes", "spider:collection_time": "2023-12-28T08:25:01.581378"}, "geometry": {"coordinates": [-117.3534, 33.97958], "type": "Point"}, "id": "avRipYke8SJtbYKkQ9oFzQOnHjQ=", "properties": {"@spider": "usps_collection_boxes", "addr:city": "RIVERSIDE", "addr:country": "US", "addr:full": "6200 BOX SPRINGS BLVD", "addr:postcode": "92507", "addr:state": "CA", "amenity": "post_box", "brand": "United States Postal Service", "brand:wikidata": "Q668687", "collection_times": "Mo-Sa 13:30", "name": "USPS COLLECTION BOX - BLUE BOX", "note": "ON 12/24 AND 12/31, THIS BOX MAY BE COLLECTED AS EARLY AS 12 NOON.", "nsi_id": "unitedstatespostalservice-a77078", "operator": "United States Postal Service", "operator:short": "USPS", "operator:type": "public", "operator:wikidata": "Q668687", "ref": "9250700069"}, "type": "Feature"}
{"dataset_attributes": {"@spider": "usps_collection_boxes", "spider:collection_time": "2023-12-28T08:25:01.581378"}, "geometry": {"coordinates": [-117.284642266, 33.934765363], "type": "Point"}, "id": "fBMekOdgKP0hawcnhM7Nte7dqSo=", "properties": {"@spider": "usps_collection_boxes", "addr:city": "RIVERSIDE", "addr:country": "US", "addr:full": "2724 GATEWAY DR", "addr:postcode": "92507", "addr:state": "CA", "amenity": "post_box", "brand": "United States Postal Service", "brand:wikidata": "Q668687", "collection_times": "Mo-Fr 13:15", "name": "USPS COLLECTION BOX - BLUE BOX", "note": "ON 12/24 AND 12/31, THIS BOX MAY BE COLLECTED AS EARLY AS 12 NOON.", "nsi_id": "unitedstatespostalservice-a77078", "operator": "United States Postal Service", "operator:short": "USPS", "operator:type": "public", "operator:wikidata": "Q668687", "ref": "9250700070"}, "type": "Feature"}
{"dataset_attributes": {"@spider": "usps_collection_boxes", "spider:collection_time": "2023-12-28T08:25:01.581378"}, "geometry": {"coordinates": [-117.348454063, 33.972710563], "type": "Point"}, "id": "C1e1NTzmP1-m7_IQy4MfHXqm2do=", "properties": {"@spider": "usps_collection_boxes", "addr:city": "RIVERSIDE", "addr:country": "US", "addr:full": "4150 CHICAGO AVE", "addr:postcode": "92507", "addr:state": "CA", "amenity": "post_box", "brand": "United States Postal Service", "brand:wikidata": "Q668687", "collection_times": "Mo-Sa 17:00", "name": "USPS COLLECTION BOX - APC", "note": "ON 12/24 AND 12/31, THIS BOX MAY BE COLLECTED AS EARLY AS 12 NOON.", "nsi_id": "unitedstatespostalservice-a77078", "operator": "United States Postal Service", "operator:short": "USPS", "operator:type": "public", "operator:wikidata": "Q668687", "ref": "9250700072"}, "type": "Feature"}
{"dataset_attributes": {"@spider": "usps_collection_boxes", "spider:collection_time": "2023-12-28T08:25:01.581378"}, "geometry": {"coordinates": [-117.348454063, 33.972710563], "type": "Point"}, "id": "pbrehdb7tBsOjzMmx_ugXIuDouQ=", "properties": {"@spider": "usps_collection_boxes", "addr:city": "RIVERSIDE", "addr:country": "US", "addr:full": "4150 CHICAGO AVE", "addr:postcode": "92507", "addr:state": "CA", "amenity": "post_box", "brand": "United States Postal Service", "brand:wikidata": "Q668687", "collection_times": "Mo-Sa 17:00", "name": "USPS COLLECTION BOX - BLUE BOX", "note": "ON 12/24 AND 12/31, THIS BOX MAY BE COLLECTED AS EARLY AS 12 NOON.", "nsi_id": "unitedstatespostalservice-a77078", "operator": "United States Postal Service", "operator:short": "USPS", "operator:type": "public", "operator:wikidata": "Q668687", "ref": "9250700075"}, "type": "Feature"}
{"dataset_attributes": {"@spider": "usps_collection_boxes", "spider:collection_time": "2023-12-28T08:25:01.581378"}, "geometry": {"coordinates": [-117.348454063, 33.972710563], "type": "Point"}, "id": "czQFPEXrpW1BQrpl3WGbSyq4MkY=", "properties": {"@spider": "usps_collection_boxes", "addr:city": "RIVERSIDE", "addr:country": "US", "addr:full": "4150 CHICAGO AVE", "addr:postcode": "92507", "addr:state": "CA", "amenity": "post_box", "brand": "United States Postal Service", "brand:wikidata": "Q668687", "collection_times": "Mo-Fr 17:00", "name": "USPS COLLECTION BOX - PO LOBBY", "note": "ON 12/24 AND 12/31, THIS BOX MAY BE COLLECTED AS EARLY AS 12 NOON.", "nsi_id": "unitedstatespostalservice-a77078", "operator": "United States Postal Service", "operator:short": "USPS", "operator:type": "public", "operator:wikidata": "Q668687", "ref": "9250700081"}, "type": "Feature"}
{"dataset_attributes": {"@spider": "usps_collection_boxes", "spider:collection_time": "2023-12-28T08:25:01.581378"}, "geometry": {"coordinates": [-117.326243, 33.915104], "type": "Point"}, "id": "-j-y-SJQC_D-KveZMFt7IE9rNv4=", "properties": {"@spider": "usps_collection_boxes", "addr:city": "RIVERSIDE", "addr:country": "US", "addr:full": "361 E ALESSANDRO BLVD", "addr:postcode": "92508", "addr:state": "CA", "amenity": "post_box", "brand": "United States Postal Service", "brand:wikidata": "Q668687", "collection_times": "Mo-Fr 13:00", "name": "USPS COLLECTION BOX - BLUE BOX", "note": "ON 12/24 AND 12/31, THIS BOX MAY BE COLLECTED AS EARLY AS 12 NOON.", "nsi_id": "unitedstatespostalservice-a77078", "operator": "United States Postal Service", "operator:short": "USPS", "operator:type": "public", "operator:wikidata": "Q668687", "ref": "9250800001"}, "type": "Feature"}
{"dataset_attributes": {"@spider": "usps_collection_boxes", "spider:collection_time": "2023-12-28T08:25:01.581378"}, "geometry": {"coordinates": [-117.4803779728, 34.0115389898], "type": "Point"}, "id": "v_T_4BEAo2yRODFAkmHtDDcQHn8=", "properties": {"@spider": "usps_collection_boxes", "addr:city": "RIVERSIDE", "addr:country": "US", "addr:full": "9036 MISSION BLVD", "addr:postcode": "92509", "addr:state": "CA", "amenity": "post_box", "brand": "United States Postal Service", "brand:wikidata": "Q668687", "collection_times": "Mo-Sa 14:30", "name": "USPS COLLECTION BOX - BLUE BOX", "note": "ON 12/24 AND 12/31, THIS BOX MAY BE COLLECTED AS EARLY AS 12 NOON.", "nsi_id": "unitedstatespostalservice-a77078", "operator": "United States Postal Service", "operator:short": "USPS", "operator:type": "public", "operator:wikidata": "Q668687", "ref": "9250900006"}, "type": "Feature"}
{"dataset_attributes": {"@spider": "usps_collection_boxes", "spider:collection_time": "2023-12-28T08:25:01.581378"}, "geometry": {"coordinates": [-117.482983, 33.998361], "type": "Point"}, "id": "5-idfndbmoSJFARFhY2p9aDocgU=", "properties": {"@spider": "usps_collection_boxes", "addr:city": "RIVERSIDE", "addr:country": "US", "addr:full": "9155 JURUPA RD", "addr:postcode": "92509", "addr:state": "CA", "amenity": "post_box", "brand": "United States Postal Service", "brand:wikidata": "Q668687", "collection_times": "Mo-Sa 10:45", "name": "USPS COLLECTION BOX - BLUE BOX", "nsi_id": "unitedstatespostalservice-a77078", "operator": "United States Postal Service", "operator:short": "USPS", "operator:type": "public", "operator:wikidata": "Q668687", "ref": "9250900007"}, "type": "Feature"}
{"dataset_attributes": {"@spider": "usps_collection_boxes", "spider:collection_time": "2023-12-28T08:25:01.581378"}, "geometry": {"coordinates": [-117.41044, 33.998575], "type": "Point"}, "id": "Mxay5jcjIePltoXC8UItk9M6HE4=", "properties": {"@spider": "usps_collection_boxes", "addr:city": "RIVERSIDE", "addr:country": "US", "addr:full": "8930 LIMONITE AVE", "addr:postcode": "92509", "addr:state": "CA", "amenity": "post_box", "brand": "United States Postal Service", "brand:wikidata": "Q668687", "collection_times": "Mo-Sa 12:45", "name": "USPS COLLECTION BOX - BLUE BOX", "note": "ON 12/24 AND 12/31, THIS BOX MAY BE COLLECTED AS EARLY AS 12 NOON.", "nsi_id": "unitedstatespostalservice-a77078", "operator": "United States Postal Service", "operator:short": "USPS", "operator:type": "public", "operator:wikidata": "Q668687", "ref": "9250900008"}, "type": "Feature"}
{"dataset_attributes": {"@spider": "usps_collection_boxes", "spider:collection_time": "2023-12-28T08:25:01.581378"}, "geometry": {"coordinates": [-117.4566769681, 33.9779299889], "type": "Point"}, "id": "60C3khE66cH_K33oCkBKnaQD8uk=", "properties": {"@spider": "usps_collection_boxes", "addr:city": "RIVERSIDE", "addr:country": "US", "addr:full": "7900 LIMONITE AVE STE G", "addr:postcode": "92509", "addr:state": "CA", "amenity": "post_box", "brand": "United States Postal Service", "brand:wikidata": "Q668687", "collection_times": "Mo-Sa 09:00", "name": "USPS COLLECTION BOX - BLUE BOX", "nsi_id": "unitedstatespostalservice-a77078", "operator": "United States Postal Service", "operator:short": "USPS", "operator:type": "public", "operator:wikidata": "Q668687", "ref": "9250900019"}, "type": "Feature"}
{"dataset_attributes": {"@spider": "usps_collection_boxes", "spider:collection_time": "2023-12-28T08:25:01.581378"}, "geometry": {"coordinates": [-117.41044, 33.998575], "type": "Point"}, "id": "w94nHy8L2hIhbXGK178Lob6KrWA=", "properties": {"@spider": "usps_collection_boxes", "addr:city": "RIVERSIDE", "addr:country": "US", "addr:full": "5600 MISSION BLVD", "addr:postcode": "92509", "addr:state": "CA", "amenity": "post_box", "brand": "United States Postal Service", "brand:wikidata": "Q668687", "collection_times": "Mo-Sa 15:00", "name": "USPS COLLECTION BOX - BLUE BOX", "note": "ON 12/24 AND 12/31, THIS BOX MAY BE COLLECTED AS EARLY AS 12 NOON.", "nsi_id": "unitedstatespostalservice-a77078", "operator": "United States Postal Service", "operator:short": "USPS", "operator:type": "public", "operator:wikidata": "Q668687", "ref": "9250900025"}, "type": "Feature"}
{"dataset_attributes": {"@spider": "usps_collection_boxes", "spider:collection_time": "2023-12-28T08:25:01.581378"}, "geometry": {"coordinates": [-117.4613120937, 33.9775222649], "type": "Point"}, "id": "CP1_vde4mI1ndD42YfOG0a-AWTE=", "properties": {"@spider": "usps_collection_boxes", "addr:city": "RIVERSIDE", "addr:country": "US", "addr:full": "8082 LIMONITE AVE STE 1", "addr:postcode": "92509", "addr:state": "CA", "amenity": "post_box", "brand": "United States Postal Service", "brand:wikidata": "Q668687", "collection_times": "Mo-Fr 17:00", "name": "USPS COLLECTION BOX - PO LOBBY", "note": "ON 12/24 AND 12/31, THIS BOX MAY BE COLLECTED AS EARLY AS 12 NOON.", "nsi_id": "unitedstatespostalservice-a77078", "operator": "United States Postal Service", "operator:short": "USPS", "operator:type": "public", "operator:wikidata": "Q668687", "ref": "9250900029"}, "type": "Feature"}
{"dataset_attributes": {"@spider": "usps_collection_boxes", "spider:collection_time": "2023-12-28T08:25:01.581378"}, "geometry": {"coordinates": [-117.25336, 33.900065], "type": "Point"}, "id": "UzV-PwIeW9Dh5i93qGKnu9KkAVc=", "properties": {"@spider": "usps_collection_boxes", "addr:city": "RIVERSIDE", "addr:country": "US", "addr:full": "1486 GRAEBER ST", "addr:postcode": "92518", "addr:state": "CA", "amenity": "post_box", "brand": "United States Postal Service", "brand:wikidata": "Q668687", "collection_times": "Mo-Fr 15:15", "name": "USPS COLLECTION BOX - BLUE BOX", "note": "ON 12/24 AND 12/31, THIS BOX MAY BE COLLECTED AS EARLY AS 12 NOON.", "nsi_id": "unitedstatespostalservice-a77078", "operator": "United States Postal Service", "operator:short": "USPS", "operator:type": "public", "operator:wikidata": "Q668687", "ref": "9251800001"}, "type": "Feature"}
{"dataset_attributes": {"@spider": "usps_collection_boxes", "spider:collection_time": "2023-12-28T08:25:01.581378"}, "geometry": {"coordinates": [-117.265524, 33.904281], "type": "Point"}, "id": "XdY5eypsfSZpBoRJOTpoNrOjzUY=", "properties": {"@spider": "usps_collection_boxes", "addr:city": "RIVERSIDE", "addr:country": "US", "addr:full": "1486 GRAEBER ST", "addr:postcode": "92518", "addr:state": "CA", "amenity": "post_box", "brand": "United States Postal Service", "brand:wikidata": "Q668687", "collection_times": "Mo-Fr 15:15", "name": "USPS COLLECTION BOX - BLUE BOX", "note": "ON 12/24 AND 12/31, THIS BOX MAY BE COLLECTED AS EARLY AS 12 NOON.", "nsi_id": "unitedstatespostalservice-a77078", "operator": "United States Postal Service", "operator:short": "USPS", "operator:type": "public", "operator:wikidata": "Q668687", "ref": "9251800009"}, "type": "Feature"}
{"dataset_attributes": {"@spider": "usps_collection_boxes", "spider:collection_time": "2023-12-28T08:25:01.581378"}, "geometry": {"coordinates": [-117.297463, 33.652702], "type": "Point"}, "id": "2O0cBh9wbrhiig9TPeVtSUyLAEA=", "properties": {"@spider": "usps_collection_boxes", "addr:city": "LAKE ELSINORE", "addr:country": "US", "addr:full": "32295 MISSION TRAIL STE #8", "addr:postcode": "92530", "addr:state": "CA", "amenity": "post_box", "brand": "United States Postal Service", "brand:wikidata": "Q668687", "collection_times": "Mo-Sa 13:45", "name": "USPS COLLECTION BOX - BLUE BOX", "note": "ON 12/24 AND 12/31, THIS BOX MAY BE COLLECTED AS EARLY AS 12 NOON.", "nsi_id": "unitedstatespostalservice-a77078", "operator": "United States Postal Service", "operator:short": "USPS", "operator:type": "public", "operator:wikidata": "Q668687", "ref": "9253000003"}, "type": "Feature"}
{"dataset_attributes": {"@spider": "usps_collection_boxes", "spider:collection_time": "2023-12-28T08:25:01.581378"}, "geometry": {"coordinates": [-117.301174, 33.660231], "type": "Point"}, "id": "k9xiGrMviSXBwbyGWRzHWnCF_co=", "properties": {"@spider": "usps_collection_boxes", "addr:city": "LAKE ELSINORE", "addr:country": "US", "addr:full": "2505 E LAKESHORE DR", "addr:postcode": "92530", "addr:state": "CA", "amenity": "post_box", "brand": "United States Postal Service", "brand:wikidata": "Q668687", "collection_times": "Mo-Sa 14:00", "name": "USPS COLLECTION BOX - BLUE BOX", "note": "ON 12/24 AND 12/31, THIS BOX MAY BE COLLECTED AS EARLY AS 12 NOON.", "nsi_id": "unitedstatespostalservice-a77078", "operator": "United States Postal Service", "operator:short": "USPS", "operator:type": "public", "operator:wikidata": "Q668687", "ref": "9253000004"}, "type": "Feature"}
{"dataset_attributes": {"@spider": "usps_collection_boxes", "spider:collection_time": "2023-12-28T08:25:01.581378"}, "geometry": {"coordinates": [-117.3331660206, 33.6692850123], "type": "Point"}, "id": "YuGSoFltNmIcrwhVbRvBXTBD2uk=", "properties": {"@spider": "usps_collection_boxes", "addr:city": "LAKE ELSINORE", "addr:country": "US", "addr:full": "500 W GRAHAM AVE", "addr:postcode": "92530", "addr:state": "CA", "amenity": "post_box", "brand": "United States Postal Service", "brand:wikidata": "Q668687", "collection_times": "Mo-Fr 17:00; Sa 16:00", "name": "USPS COLLECTION BOX - BLUE BOX", "note": "ON 12/24 AND 12/31, THIS BOX MAY BE COLLECTED AS EARLY AS 12 NOON.", "nsi_id": "unitedstatespostalservice-a77078", "operator": "United States Postal Service", "operator:short": "USPS", "operator:type": "public", "operator:wikidata": "Q668687", "ref": "9253000008"}, "type": "Feature"}
{"dataset_attributes": {"@spider": "usps_collection_boxes", "spider:collection_time": "2023-12-28T08:25:01.581378"}, "geometry": {"coordinates": [-117.3331660206, 33.6692850123], "type": "Point"}, "id": "soGKZVXv53dvGMi-wZGyOpB3wU4=", "properties": {"@spider": "usps_collection_boxes", "addr:city": "LAKE ELSINORE", "addr:country": "US", "addr:full": "500 W GRAHAM AVE", "addr:postcode": "92530", "addr:state": "CA", "amenity": "post_box", "brand": "United States Postal Service", "brand:wikidata": "Q668687", "collection_times": "Mo-Fr 17:00; Sa 16:00", "name": "USPS COLLECTION BOX - BLUE BOX", "note": "ON 12/24 AND 12/31, THIS BOX MAY BE COLLECTED AS EARLY AS 12 NOON.", "nsi_id": "unitedstatespostalservice-a77078", "operator": "United States Postal Service", "operator:short": "USPS", "operator:type": "public", "operator:wikidata": "Q668687", "ref": "9253000020"}, "type": "Feature"}
{"dataset_attributes": {"@spider": "usps_collection_boxes", "spider:collection_time": "2023-12-28T08:25:01.581378"}, "geometry": {"coordinates": [-117.2978529787, 33.6593620124], "type": "Point"}, "id": "hvcaJaIe3f75OXRtyEUIs3SJCo8=", "properties": {"@spider": "usps_collection_boxes", "addr:city": "LAKE ELSINORE", "addr:country": "US", "addr:full": "31724 CASINO DR", "addr:postcode": "92530", "addr:state": "CA", "amenity": "post_box", "brand": "United States Postal Service", "brand:wikidata": "Q668687", "collection_times": "Mo-Fr 17:00; Sa 15:00", "name": "USPS COLLECTION BOX - BLUE BOX", "note": "ON 12/24 AND 12/31, THIS BOX MAY BE COLLECTED AS EARLY AS 12 NOON.", "nsi_id": "unitedstatespostalservice-a77078", "operator": "United States Postal Service", "operator:short": "USPS", "operator:type": "public", "operator:wikidata": "Q668687", "ref": "9253000048"}, "type": "Feature"}
{"dataset_attributes": {"@spider": "usps_collection_boxes", "spider:collection_time": "2023-12-28T08:25:01.581378"}, "geometry": {"coordinates": [-116.789038, 33.51506], "type": "Point"}, "id": "6BYLaDjNxw0yU9Hpi_3ngUPvkvc=", "properties": {"@spider": "usps_collection_boxes", "addr:city": "AGUANGA", "addr:country": "US", "addr:full": "41000 MEADOWVIEW", "addr:postcode": "92536", "addr:state": "CA", "amenity": "post_box", "brand": "United States Postal Service", "brand:wikidata": "Q668687", "collection_times": "Mo-Sa 12:00", "name": "USPS COLLECTION BOX - BLUE BOX", "nsi_id": "unitedstatespostalservice-a77078", "operator": "United States Postal Service", "operator:short": "USPS", "operator:type": "public", "operator:wikidata": "Q668687", "ref": "9253600000"}, "type": "Feature"}
{"dataset_attributes": {"@spider": "usps_collection_boxes", "spider:collection_time": "2023-12-28T08:25:01.581378"}, "geometry": {"coordinates": [-116.798426, 33.501534], "type": "Point"}, "id": "LT2uiYcDMuZfw8nDcZ9TuKmk1GE=", "properties": {"@spider": "usps_collection_boxes", "addr:city": "AGUANGA", "addr:country": "US", "addr:full": "42000 LAKESHORE BLVD", "addr:postcode": "92536", "addr:state": "CA", "amenity": "post_box", "brand": "United States Postal Service", "brand:wikidata": "Q668687", "collection_times": "Mo-Sa 12:00", "name": "USPS COLLECTION BOX - BLUE BOX", "nsi_id": "unitedstatespostalservice-a77078", "operator": "United States Postal Service", "operator:short": "USPS", "operator:type": "public", "operator:wikidata": "Q668687", "ref": "9253600001"}, "type": "Feature"}
{"dataset_attributes": {"@spider": "usps_collection_boxes", "spider:collection_time": "2023-12-28T08:25:01.581378"}, "geometry": {"coordinates": [-116.8628158512, 33.4420064594], "type": "Point"}, "id": "Q24BZsvUn46PPVHM_xI_4l8Xdq8=", "properties": {"@spider": "usps_collection_boxes", "addr:city": "AGUANGA", "addr:country": "US", "addr:full": "45600 HIGHWAY 79", "addr:postcode": "92536", "addr:state": "CA", "amenity": "post_box", "brand": "United States Postal Service", "brand:wikidata": "Q668687", "collection_times": "Mo-Fr 16:15; Sa 12:30", "name": "USPS COLLECTION BOX - BLUE BOX", "note": "ON 12/24 AND 12/31, THIS BOX MAY BE COLLECTED AS EARLY AS 12 NOON.", "nsi_id": "unitedstatespostalservice-a77078", "operator": "United States Postal Service", "operator:short": "USPS", "operator:type": "public", "operator:wikidata": "Q668687", "ref": "9253600002"}, "type": "Feature"}
{"dataset_attributes": {"@spider": "usps_collection_boxes", "spider:collection_time": "2023-12-28T08:25:01.581378"}, "geometry": {"coordinates": [-116.869202, 33.450243], "type": "Point"}, "id": "h9WuvFLjAzGzAZ9ivfDf-HtRJag=", "properties": {"@spider": "usps_collection_boxes", "addr:city": "AGUANGA", "addr:country": "US", "addr:full": "45120 HIGHWAY 79", "addr:postcode": "92536", "addr:state": "CA", "amenity": "post_box", "brand": "United States Postal Service", "brand:wikidata": "Q668687", "collection_times": "Mo-Sa 11:00", "name": "USPS COLLECTION BOX - BLUE BOX", "nsi_id": "unitedstatespostalservice-a77078", "operator": "United States Postal Service", "operator:short": "USPS", "operator:type": "public", "operator:wikidata": "Q668687", "ref": "9253600005"}, "type": "Feature"}
{"dataset_attributes": {"@spider": "usps_collection_boxes", "spider:collection_time": "2023-12-28T08:25:01.581378"}, "geometry": {"coordinates": [-116.8628158512, 33.4420064594], "type": "Point"}, "id": "BoXwAS3Phc__BKv5Of6mD3To1lg=", "properties": {"@spider": "usps_collection_boxes", "addr:city": "AGUANGA", "addr:country": "US", "addr:full": "45600 HIGHWAY 79", "addr:postcode": "92536", "addr:state": "CA", "amenity": "post_box", "brand": "United States Postal Service", "brand:wikidata": "Q668687", "collection_times": "Mo-Fr 17:00", "name": "USPS COLLECTION BOX - PO LOBBY", "note": "ON 12/24 AND 12/31, THIS BOX MAY BE COLLECTED AS EARLY AS 12 NOON.", "nsi_id": "unitedstatespostalservice-a77078", "operator": "United States Postal Service", "operator:short": "USPS", "operator:type": "public", "operator:wikidata": "Q668687", "ref": "9253600006"}, "type": "Feature"}
{"dataset_attributes": {"@spider": "usps_collection_boxes", "spider:collection_time": "2023-12-28T08:25:01.581378"}, "geometry": {"coordinates": [-116.67321, 33.555007], "type": "Point"}, "id": "el6P9Mgv-8VN_fHAhvrC7TOzf64=", "properties": {"@spider": "usps_collection_boxes", "addr:city": "ANZA", "addr:country": "US", "addr:full": "56595 US HIGHWAY 371", "addr:postcode": "92539", "addr:state": "CA", "amenity": "post_box", "brand": "United States Postal Service", "brand:wikidata": "Q668687", "collection_times": "Mo-Sa 10:30", "name": "USPS COLLECTION BOX - BLUE BOX", "nsi_id": "unitedstatespostalservice-a77078", "operator": "United States Postal Service", "operator:short": "USPS", "operator:type": "public", "operator:wikidata": "Q668687", "ref": "9253900002"}, "type": "Feature"}
{"dataset_attributes": {"@spider": "usps_collection_boxes", "spider:collection_time": "2023-12-28T08:25:01.581378"}, "geometry": {"coordinates": [-116.675073969, 33.558660989], "type": "Point"}, "id": "IbJ0gMM6_BT6yhEwe6TFHGoRcVI=", "properties": {"@spider": "usps_collection_boxes", "addr:city": "ANZA", "addr:country": "US", "addr:full": "38775 CONTRERAS RD", "addr:postcode": "92539", "addr:state": "CA", "amenity": "post_box", "brand": "United States Postal Service", "brand:wikidata": "Q668687", "collection_times": "Mo-Fr 15:30; Sa 13:00", "name": "USPS COLLECTION BOX - BLUE BOX", "note": "ON 12/24 AND 12/31, THIS BOX MAY BE COLLECTED AS EARLY AS 12 NOON.", "nsi_id": "unitedstatespostalservice-a77078", "operator": "United States Postal Service", "operator:short": "USPS", "operator:type": "public", "operator:wikidata": "Q668687", "ref": "9253900003"}, "type": "Feature"}
{"dataset_attributes": {"@spider": "usps_collection_boxes", "spider:collection_time": "2023-12-28T08:25:01.581378"}, "geometry": {"coordinates": [-116.6746664715, 33.558318], "type": "Point"}, "id": "HhZ0xysCRgkaIDMRlXv09N72YQ4=", "properties": {"@spider": "usps_collection_boxes", "addr:city": "ANZA", "addr:country": "US", "addr:full": "38775 CONTRERAS RD", "addr:postcode": "92539", "addr:state": "CA", "amenity": "post_box", "brand": "United States Postal Service", "brand:wikidata": "Q668687", "collection_times": "Mo-Fr 16:00", "name": "USPS COLLECTION BOX - PO LOBBY", "note": "ON 12/24 AND 12/31, THIS BOX MAY BE COLLECTED AS EARLY AS 12 NOON.", "nsi_id": "unitedstatespostalservice-a77078", "operator": "United States Postal Service", "operator:short": "USPS", "operator:type": "public", "operator:wikidata": "Q668687", "ref": "9253900006"}, "type": "Feature"}
{"dataset_attributes": {"@spider": "usps_collection_boxes", "spider:collection_time": "2023-12-28T08:25:01.581378"}, "geometry": {"coordinates": [-116.965645, 33.74847], "type": "Point"}, "id": "1mj47aWVHQOKNRyd5KmvLprnsX4=", "properties": {"@spider": "usps_collection_boxes", "addr:city": "HEMET", "addr:country": "US", "addr:full": "1957 E FLORIDA AVE", "addr:postcode": "92543", "addr:state": "CA", "amenity": "post_box", "brand": "United States Postal Service", "brand:wikidata": "Q668687", "collection_times": "Mo-Fr 17:00; Sa 12:00", "name": "USPS COLLECTION BOX - BLUE BOX", "note": "ON 12/24 AND 12/31, THIS BOX MAY BE COLLECTED AS EARLY AS 12 NOON.", "nsi_id": "unitedstatespostalservice-a77078", "operator": "United States Postal Service", "operator:short": "USPS", "operator:type": "public", "operator:wikidata": "Q668687", "ref": "9254300008"}, "type": "Feature"}
{"dataset_attributes": {"@spider": "usps_collection_boxes", "spider:collection_time": "2023-12-28T08:25:01.581378"}, "geometry": {"coordinates": [-116.968756, 33.751115], "type": "Point"}, "id": "FZprLEdZNi-ZUUxv8XnuAa42_8E=", "properties": {"@spider": "usps_collection_boxes", "addr:city": "HEMET", "addr:country": "US", "addr:full": "305 E DEVONSHIRE AVE", "addr:postcode": "92543", "addr:state": "CA", "amenity": "post_box", "brand": "United States Postal Service", "brand:wikidata": "Q668687", "collection_times": "Mo-Sa 09:00", "name": "USPS COLLECTION BOX - BLUE BOX", "nsi_id": "unitedstatespostalservice-a77078", "operator": "United States Postal Service", "operator:short": "USPS", "operator:type": "public", "operator:wikidata": "Q668687", "ref": "9254300026"}, "type": "Feature"}
{"dataset_attributes": {"@spider": "usps_collection_boxes", "spider:collection_time": "2023-12-28T08:25:01.581378"}, "geometry": {"coordinates": [-116.971580398, 33.743323987], "type": "Point"}, "id": "0FJ-w--VHfTZmAXYQh7moOBudHQ=", "properties": {"@spider": "usps_collection_boxes", "addr:city": "HEMET", "addr:country": "US", "addr:full": "324 S STATE ST", "addr:postcode": "92543", "addr:state": "CA", "amenity": "post_box", "brand": "United States Postal Service", "brand:wikidata": "Q668687", "collection_times": "Mo-Sa 17:15", "name": "USPS COLLECTION BOX - APC", "note": "ON 12/24 AND 12/31, THIS BOX MAY BE COLLECTED AS EARLY AS 12 NOON.", "nsi_id": "unitedstatespostalservice-a77078", "operator": "United States Postal Service", "operator:short": "USPS", "operator:type": "public", "operator:wikidata": "Q668687", "ref": "9254300028"}, "type": "Feature"}
{"dataset_attributes": {"@spider": "usps_collection_boxes", "spider:collection_time": "2023-12-28T08:25:01.581378"}, "geometry": {"coordinates": [-116.9713360243, 33.7430269847], "type": "Point"}, "id": "JhU75ohi-0fYmlIOonRSU3mcn18=", "properties": {"@spider": "usps_collection_boxes", "addr:city": "HEMET", "addr:country": "US", "addr:full": "324 S STATE ST", "addr:postcode": "92543", "addr:state": "CA", "amenity": "post_box", "brand": "United States Postal Service", "brand:wikidata": "Q668687", "collection_times": "Mo-Sa 17:15", "name": "USPS COLLECTION BOX - BLUE BOX", "note": "ON 12/24 AND 12/31, THIS BOX MAY BE COLLECTED AS EARLY AS 12 NOON.", "nsi_id": "unitedstatespostalservice-a77078", "operator": "United States Postal Service", "operator:short": "USPS", "operator:type": "public", "operator:wikidata": "Q668687", "ref": "9254300029"}, "type": "Feature"}
{"dataset_attributes": {"@spider": "usps_collection_boxes", "spider:collection_time": "2023-12-28T08:25:01.581378"}, "geometry": {"coordinates": [-116.962846, 33.738166], "type": "Point"}, "id": "fbJs6uVoxP7wNieCN-2S69QZjM0=", "properties": {"@spider": "usps_collection_boxes", "addr:city": "HEMET", "addr:country": "US", "addr:full": "600 S SANTA FE ST", "addr:postcode": "92543", "addr:state": "CA", "amenity": "post_box", "brand": "United States Postal Service", "brand:wikidata": "Q668687", "collection_times": "Mo-Sa 12:30", "name": "USPS COLLECTION BOX - BLUE BOX", "note": "ON 12/24 AND 12/31, THIS BOX MAY BE COLLECTED AS EARLY AS 12 NOON.", "nsi_id": "unitedstatespostalservice-a77078", "operator": "United States Postal Service", "operator:short": "USPS", "operator:type": "public", "operator:wikidata": "Q668687", "ref": "9254300046"}, "type": "Feature"}
{"dataset_attributes": {"@spider": "usps_collection_boxes", "spider:collection_time": "2023-12-28T08:25:01.581378"}, "geometry": {"coordinates": [-116.9706268961, 33.7486058382], "type": "Point"}, "id": "JlglZkYG49Y8NFQMzlUbHsUDTpg=", "properties": {"@spider": "usps_collection_boxes", "addr:city": "HEMET", "addr:country": "US", "addr:full": "145 N HARVARD ST", "addr:postcode": "92543", "addr:state": "CA", "amenity": "post_box", "brand": "United States Postal Service", "brand:wikidata": "Q668687", "collection_times": "Mo-Sa 09:00", "name": "USPS COLLECTION BOX - BLUE BOX", "nsi_id": "unitedstatespostalservice-a77078", "operator": "United States Postal Service", "operator:short": "USPS", "operator:type": "public", "operator:wikidata": "Q668687", "ref": "9254300048"}, "type": "Feature"}
{"dataset_attributes": {"@spider": "usps_collection_boxes", "spider:collection_time": "2023-12-28T08:25:01.581378"}, "geometry": {"coordinates": [-116.971580398, 33.743323987], "type": "Point"}, "id": "pp_DHGIfspZluGmCVnqaoN3L3Q4=", "properties": {"@spider": "usps_collection_boxes", "addr:city": "HEMET", "addr:country": "US", "addr:full": "324 S STATE ST", "addr:postcode": "92543", "addr:state": "CA", "amenity": "post_box", "brand": "United States Postal Service", "brand:wikidata": "Q668687", "collection_times": "Mo-Fr 17:00", "name": "USPS COLLECTION BOX - PO LOBBY", "note": "ON 12/24 AND 12/31, THIS BOX MAY BE COLLECTED AS EARLY AS 12 NOON.", "nsi_id": "unitedstatespostalservice-a77078", "operator": "United States Postal Service", "operator:short": "USPS", "operator:type": "public", "operator:wikidata": "Q668687", "ref": "9254300055"}, "type": "Feature"}
{"dataset_attributes": {"@spider": "usps_collection_boxes", "spider:collection_time": "2023-12-28T08:25:01.581378"}, "geometry": {"coordinates": [-116.9037720174, 33.7490819878], "type": "Point"}, "id": "uzwbCjyuvNNHKvEaQ9kWPcAQHLQ=", "properties": {"@spider": "usps_collection_boxes", "addr:city": "HEMET", "addr:country": "US", "addr:full": "43396 STATE HIGHWAY 74", "addr:postcode": "92544", "addr:state": "CA", "amenity": "post_box", "brand": "United States Postal Service", "brand:wikidata": "Q668687", "collection_times": "Mo-Fr 13:00; Sa 13:30", "name": "USPS COLLECTION BOX - BLUE BOX", "note": "ON 12/24 AND 12/31, THIS BOX MAY BE COLLECTED AS EARLY AS 12 NOON.", "nsi_id": "unitedstatespostalservice-a77078", "operator": "United States Postal Service", "operator:short": "USPS", "operator:type": "public", "operator:wikidata": "Q668687", "ref": "9254400003"}, "type": "Feature"}
{"dataset_attributes": {"@spider": "usps_collection_boxes", "spider:collection_time": "2023-12-28T08:25:01.581378"}, "geometry": {"coordinates": [-116.9515761954, 33.7475581295], "type": "Point"}, "id": "cTwjATPVAyHtA4gz--nvmDbDazI=", "properties": {"@spider": "usps_collection_boxes", "addr:city": "HEMET", "addr:country": "US", "addr:full": "1957 E FLORIDA AVE", "addr:postcode": "92544", "addr:state": "CA", "amenity": "post_box", "brand": "United States Postal Service", "brand:wikidata": "Q668687", "collection_times": "Mo-Fr 16:30", "name": "USPS COLLECTION BOX - PO LOBBY", "note": "ON 12/24 AND 12/31, THIS BOX MAY BE COLLECTED AS EARLY AS 12 NOON.", "nsi_id": "unitedstatespostalservice-a77078", "operator": "United States Postal Service", "operator:short": "USPS", "operator:type": "public", "operator:wikidata": "Q668687", "ref": "9254400010"}, "type": "Feature"}
{"dataset_attributes": {"@spider": "usps_collection_boxes", "spider:collection_time": "2023-12-28T08:25:01.581378"}, "geometry": {"coordinates": [-116.996415, 33.731735], "type": "Point"}, "id": "uE4QPY2z2TaJ9QX8ivOjUttDwDg=", "properties": {"@spider": "usps_collection_boxes", "addr:city": "HEMET", "addr:country": "US", "addr:full": "2200 W FLORIDA AVE", "addr:postcode": "92545", "addr:state": "CA", "amenity": "post_box", "brand": "United States Postal Service", "brand:wikidata": "Q668687", "collection_times": "Mo-Fr 13:30; Sa 13:00", "name": "USPS COLLECTION BOX - BLUE BOX", "note": "ON 12/24 AND 12/31, THIS BOX MAY BE COLLECTED AS EARLY AS 12 NOON.", "nsi_id": "unitedstatespostalservice-a77078", "operator": "United States Postal Service", "operator:short": "USPS", "operator:type": "public", "operator:wikidata": "Q668687", "ref": "9254500000"}, "type": "Feature"}
{"dataset_attributes": {"@spider": "usps_collection_boxes", "spider:collection_time": "2023-12-28T08:25:01.581378"}, "geometry": {"coordinates": [-117.011809, 33.748876], "type": "Point"}, "id": "rv2Ul6lDVGXQgWm3EqdweQX7apM=", "properties": {"@spider": "usps_collection_boxes", "addr:city": "HEMET", "addr:country": "US", "addr:full": "3600 W FLORIDA AVE", "addr:postcode": "92545", "addr:state": "CA", "amenity": "post_box", "brand": "United States Postal Service", "brand:wikidata": "Q668687", "collection_times": "Mo-Sa 10:00", "name": "USPS COLLECTION BOX - BLUE BOX", "nsi_id": "unitedstatespostalservice-a77078", "operator": "United States Postal Service", "operator:short": "USPS", "operator:type": "public", "operator:wikidata": "Q668687", "ref": "9254500006"}, "type": "Feature"}
{"dataset_attributes": {"@spider": "usps_collection_boxes", "spider:collection_time": "2023-12-28T08:25:01.581378"}, "geometry": {"coordinates": [-117.0155799841, 33.7261499808], "type": "Point"}, "id": "aoVelQ993qA6odWgD9dYr5YJrbY=", "properties": {"@spider": "usps_collection_boxes", "addr:city": "HEMET", "addr:country": "US", "addr:full": "1295 S CAWSTON AVE", "addr:postcode": "92545", "addr:state": "CA", "amenity": "post_box", "brand": "United States Postal Service", "brand:wikidata": "Q668687", "collection_times": "Mo-Sa 13:00", "name": "USPS COLLECTION BOX - BLUE BOX", "note": "ON 12/24 AND 12/31, THIS BOX MAY BE COLLECTED AS EARLY AS 12 NOON.", "nsi_id": "unitedstatespostalservice-a77078", "operator": "United States Postal Service", "operator:short": "USPS", "operator:type": "public", "operator:wikidata": "Q668687", "ref": "9254500009"}, "type": "Feature"}
{"dataset_attributes": {"@spider": "usps_collection_boxes", "spider:collection_time": "2023-12-28T08:25:01.581378"}, "geometry": {"coordinates": [-116.996415, 33.731735], "type": "Point"}, "id": "KiZsdoa_9g8sRjTDk0B5MbNvpzc=", "properties": {"@spider": "usps_collection_boxes", "addr:city": "HEMET", "addr:country": "US", "addr:full": "3881 W FLORIDA AVE", "addr:postcode": "92545", "addr:state": "CA", "amenity": "post_box", "brand": "United States Postal Service", "brand:wikidata": "Q668687", "collection_times": "Mo-Sa 09:30", "name": "USPS COLLECTION BOX - BLUE BOX", "nsi_id": "unitedstatespostalservice-a77078", "operator": "United States Postal Service", "operator:short": "USPS", "operator:type": "public", "operator:wikidata": "Q668687", "ref": "9254500011"}, "type": "Feature"}
{"dataset_attributes": {"@spider": "usps_collection_boxes", "spider:collection_time": "2023-12-28T08:25:01.581378"}, "geometry": {"coordinates": [-117.122304997, 33.7409600074], "type": "Point"}, "id": "zL88B4hWc_3lb6L-FsBvp-htLR0=", "properties": {"@spider": "usps_collection_boxes", "addr:city": "HOMELAND", "addr:country": "US", "addr:full": "30777 BUTIA PALM AVE", "addr:postcode": "92548", "addr:state": "CA", "amenity": "post_box", "brand": "United States Postal Service", "brand:wikidata": "Q668687", "collection_times": "Mo-Sa 11:00", "name": "USPS COLLECTION BOX - BLUE BOX", "nsi_id": "unitedstatespostalservice-a77078", "operator": "United States Postal Service", "operator:short": "USPS", "operator:type": "public", "operator:wikidata": "Q668687", "ref": "9254800002"}, "type": "Feature"}
{"dataset_attributes": {"@spider": "usps_collection_boxes", "spider:collection_time": "2023-12-28T08:25:01.581378"}, "geometry": {"coordinates": [-117.112435, 33.742225], "type": "Point"}, "id": "kAVT1Cy8Q72eM_pMtOhbO8hIBKs=", "properties": {"@spider": "usps_collection_boxes", "addr:city": "HOMELAND", "addr:country": "US", "addr:full": "31610 US HIGHWAY 74", "addr:postcode": "92548", "addr:state": "CA", "amenity": "post_box", "brand": "United States Postal Service", "brand:wikidata": "Q668687", "collection_times": "Mo-Fr 17:00; Sa 11:00", "name": "USPS COLLECTION BOX - BLUE BOX", "note": "ON 12/24 AND 12/31, THIS BOX MAY BE COLLECTED AS EARLY AS 12 NOON.", "nsi_id": "unitedstatespostalservice-a77078", "operator": "United States Postal Service", "operator:short": "USPS", "operator:type": "public", "operator:wikidata": "Q668687", "ref": "9254800004"}, "type": "Feature"}
{"dataset_attributes": {"@spider": "usps_collection_boxes", "spider:collection_time": "2023-12-28T08:25:01.581378"}, "geometry": {"coordinates": [-117.1090031123, 33.7433455082], "type": "Point"}, "id": "exqPWqGNu37ZZSdu-Lyo_UqEO_Q=", "properties": {"@spider": "usps_collection_boxes", "addr:city": "HOMELAND", "addr:country": "US", "addr:full": "31610 US HIGHWAY 74", "addr:postcode": "92548", "addr:state": "CA", "amenity": "post_box", "brand": "United States Postal Service", "brand:wikidata": "Q668687", "collection_times": "Mo-Fr 17:00", "name": "USPS COLLECTION BOX - PO LOBBY", "note": "ON 12/24 AND 12/31, THIS BOX MAY BE COLLECTED AS EARLY AS 12 NOON.", "nsi_id": "unitedstatespostalservice-a77078", "operator": "United States Postal Service", "operator:short": "USPS", "operator:type": "public", "operator:wikidata": "Q668687", "ref": "9254800005"}, "type": "Feature"}
{"dataset_attributes": {"@spider": "usps_collection_boxes", "spider:collection_time": "2023-12-28T08:25:01.581378"}, "geometry": {"coordinates": [-116.7128995998, 33.7437047258], "type": "Point"}, "id": "YD9yZLRpJAcTfSvmKWp_0GjtogA=", "properties": {"@spider": "usps_collection_boxes", "addr:city": "IDYLLWILD", "addr:country": "US", "addr:full": "54391 VILLAGE CENTER DR", "addr:postcode": "92549", "addr:state": "CA", "amenity": "post_box", "brand": "United States Postal Service", "brand:wikidata": "Q668687", "collection_times": "Mo-Fr 15:30; Sa 12:00", "name": "USPS COLLECTION BOX - BLUE BOX", "note": "ON 12/24 AND 12/31, THIS BOX MAY BE COLLECTED AS EARLY AS 12 NOON.", "nsi_id": "unitedstatespostalservice-a77078", "operator": "United States Postal Service", "operator:short": "USPS", "operator:type": "public", "operator:wikidata": "Q668687", "ref": "9254900002"}, "type": "Feature"}
{"dataset_attributes": {"@spider": "usps_collection_boxes", "spider:collection_time": "2023-12-28T08:25:01.581378"}, "geometry": {"coordinates": [-116.7370824758, 33.7613397724], "type": "Point"}, "id": "mCcwivmGwOT232IVTjKUHtqWwuw=", "properties": {"@spider": "usps_collection_boxes", "addr:city": "IDYLLWILD", "addr:country": "US", "addr:full": "24917 MARION RIDGE DR", "addr:postcode": "92549", "addr:state": "CA", "amenity": "post_box", "brand": "United States Postal Service", "brand:wikidata": "Q668687", "collection_times": "Mo-Sa 14:30", "name": "USPS COLLECTION BOX - BLUE BOX", "note": "ON 12/24 AND 12/31, THIS BOX MAY BE COLLECTED AS EARLY AS 12 NOON.", "nsi_id": "unitedstatespostalservice-a77078", "operator": "United States Postal Service", "operator:short": "USPS", "operator:type": "public", "operator:wikidata": "Q668687", "ref": "9254900003"}, "type": "Feature"}
{"dataset_attributes": {"@spider": "usps_collection_boxes", "spider:collection_time": "2023-12-28T08:25:01.581378"}, "geometry": {"coordinates": [-116.7128995998, 33.7437047258], "type": "Point"}, "id": "lqN88UhfekPnQE7fEzhiRyX93pA=", "properties": {"@spider": "usps_collection_boxes", "addr:city": "IDYLLWILD", "addr:country": "US", "addr:full": "54391 VILLAGE CENTER DR", "addr:postcode": "92549", "addr:state": "CA", "amenity": "post_box", "brand": "United States Postal Service", "brand:wikidata": "Q668687", "collection_times": "Mo-Fr 15:30", "name": "USPS COLLECTION BOX - PO LOBBY", "note": "ON 12/24 AND 12/31, THIS BOX MAY BE COLLECTED AS EARLY AS 12 NOON.", "nsi_id": "unitedstatespostalservice-a77078", "operator": "United States Postal Service", "operator:short": "USPS", "operator:type": "public", "operator:wikidata": "Q668687", "ref": "9254900007"}, "type": "Feature"}
{"dataset_attributes": {"@spider": "usps_collection_boxes", "spider:collection_time": "2023-12-28T08:25:01.581378"}, "geometry": {"coordinates": [-117.2509788279, 33.9173897021], "type": "Point"}, "id": "w8R3oX3rU8oYphCQV3yQFO2P2AI=", "properties": {"@spider": "usps_collection_boxes", "addr:city": "MORENO VALLEY", "addr:country": "US", "addr:full": "23580 ALESSANDRO BLVD", "addr:postcode": "92553", "addr:state": "CA", "amenity": "post_box", "brand": "United States Postal Service", "brand:wikidata": "Q668687", "collection_times": "Mo-Sa 17:00", "name": "USPS COLLECTION BOX - BLUE BOX", "note": "ON 12/24 AND 12/31, THIS BOX MAY BE COLLECTED AS EARLY AS 12 NOON.", "nsi_id": "unitedstatespostalservice-a77078", "operator": "United States Postal Service", "operator:short": "USPS", "operator:type": "public", "operator:wikidata": "Q668687", "ref": "9255300041"}, "type": "Feature"}
{"dataset_attributes": {"@spider": "usps_collection_boxes", "spider:collection_time": "2023-12-28T08:25:01.581378"}, "geometry": {"coordinates": [-117.2509768776, 33.9173773236], "type": "Point"}, "id": "LK9IvprrUu5x-WF68taJo_rOhUk=", "properties": {"@spider": "usps_collection_boxes", "addr:city": "MORENO VALLEY", "addr:country": "US", "addr:full": "23580 ALESSANDRO BLVD", "addr:postcode": "92553", "addr:state": "CA", "amenity": "post_box", "brand": "United States Postal Service", "brand:wikidata": "Q668687", "collection_times": "Mo-Sa 17:00", "name": "USPS COLLECTION BOX - BLUE BOX", "note": "ON 12/24 AND 12/31, THIS BOX MAY BE COLLECTED AS EARLY AS 12 NOON.", "nsi_id": "unitedstatespostalservice-a77078", "operator": "United States Postal Service", "operator:short": "USPS", "operator:type": "public", "operator:wikidata": "Q668687", "ref": "9255300043"}, "type": "Feature"}
{"dataset_attributes": {"@spider": "usps_collection_boxes", "spider:collection_time": "2023-12-28T08:25:01.581378"}, "geometry": {"coordinates": [-117.2509834262, 33.9173895528], "type": "Point"}, "id": "attOpjt4RFiCD7Uf-Fw5aKF3C8A=", "properties": {"@spider": "usps_collection_boxes", "addr:city": "MORENO VALLEY", "addr:country": "US", "addr:full": "23580 ALESSANDRO BLVD", "addr:postcode": "92553", "addr:state": "CA", "amenity": "post_box", "brand": "United States Postal Service", "brand:wikidata": "Q668687", "collection_times": "Mo-Sa 17:30", "name": "USPS COLLECTION BOX - APC", "note": "ON 12/24 AND 12/31, THIS BOX MAY BE COLLECTED AS EARLY AS 12 NOON.", "nsi_id": "unitedstatespostalservice-a77078", "operator": "United States Postal Service", "operator:short": "USPS", "operator:type": "public", "operator:wikidata": "Q668687", "ref": "9255300064"}, "type": "Feature"}
{"dataset_attributes": {"@spider": "usps_collection_boxes", "spider:collection_time": "2023-12-28T08:25:01.581378"}, "geometry": {"coordinates": [-117.2509834262, 33.9173895528], "type": "Point"}, "id": "9cyP9t-cVn1N2nA0wlt1KqfIKsU=", "properties": {"@spider": "usps_collection_boxes", "addr:city": "MORENO VALLEY", "addr:country": "US", "addr:full": "23580 ALESSANDRO BLVD", "addr:postcode": "92553", "addr:state": "CA", "amenity": "post_box", "brand": "United States Postal Service", "brand:wikidata": "Q668687", "collection_times": "Mo-Fr 17:00", "name": "USPS COLLECTION BOX - PO LOBBY", "note": "ON 12/24 AND 12/31, THIS BOX MAY BE COLLECTED AS EARLY AS 12 NOON.", "nsi_id": "unitedstatespostalservice-a77078", "operator": "United States Postal Service", "operator:short": "USPS", "operator:type": "public", "operator:wikidata": "Q668687", "ref": "9255300072"}, "type": "Feature"}
{"dataset_attributes": {"@spider": "usps_collection_boxes", "spider:collection_time": "2023-12-28T08:25:01.581378"}, "geometry": {"coordinates": [-117.2432330255, 33.9400364644], "type": "Point"}, "id": "flqhSZwjpj8UKebAHJa5iEBxSOU=", "properties": {"@spider": "usps_collection_boxes", "addr:city": "MORENO VALLEY", "addr:country": "US", "addr:full": "24040 POSTAL AVE", "addr:postcode": "92553", "addr:state": "CA", "amenity": "post_box", "brand": "United States Postal Service", "brand:wikidata": "Q668687", "collection_times": "Mo-Fr 17:00", "name": "USPS COLLECTION BOX - PO LOBBY", "note": "ON 12/24 AND 12/31, THIS BOX MAY BE COLLECTED AS EARLY AS 12 NOON.", "nsi_id": "unitedstatespostalservice-a77078", "operator": "United States Postal Service", "operator:short": "USPS", "operator:type": "public", "operator:wikidata": "Q668687", "ref": "9255300073"}, "type": "Feature"}
{"dataset_attributes": {"@spider": "usps_collection_boxes", "spider:collection_time": "2023-12-28T08:25:01.581378"}, "geometry": {"coordinates": [-117.157041, 33.9174325245], "type": "Point"}, "id": "gmPlAiJUCG1xlBiJwjIWSd0sPD4=", "properties": {"@spider": "usps_collection_boxes", "addr:city": "MORENO VALLEY", "addr:country": "US", "addr:full": "28981 ALESSANDRO BLVD", "addr:postcode": "92555", "addr:state": "CA", "amenity": "post_box", "brand": "United States Postal Service", "brand:wikidata": "Q668687", "collection_times": "Mo-Fr 16:00", "name": "USPS COLLECTION BOX - PO LOBBY", "note": "ON 12/24 AND 12/31, THIS BOX MAY BE COLLECTED AS EARLY AS 12 NOON.", "nsi_id": "unitedstatespostalservice-a77078", "operator": "United States Postal Service", "operator:short": "USPS", "operator:type": "public", "operator:wikidata": "Q668687", "ref": "9255500006"}, "type": "Feature"}
{"dataset_attributes": {"@spider": "usps_collection_boxes", "spider:collection_time": "2023-12-28T08:25:01.581378"}, "geometry": {"coordinates": [-117.226357332, 33.9413319745], "type": "Point"}, "id": "6C7jPvV03dJEOIrcXlh1biFAXh4=", "properties": {"@spider": "usps_collection_boxes", "addr:city": "MORENO VALLEY", "addr:country": "US", "addr:full": "12350 PERRIS BLVD", "addr:postcode": "92557", "addr:state": "CA", "amenity": "post_box", "brand": "United States Postal Service", "brand:wikidata": "Q668687", "collection_times": "Mo-Sa 12:30", "name": "USPS COLLECTION BOX - BLUE BOX", "note": "ON 12/24 AND 12/31, THIS BOX MAY BE COLLECTED AS EARLY AS 12 NOON.", "nsi_id": "unitedstatespostalservice-a77078", "operator": "United States Postal Service", "operator:short": "USPS", "operator:type": "public", "operator:wikidata": "Q668687", "ref": "9255700003"}, "type": "Feature"}
{"dataset_attributes": {"@spider": "usps_collection_boxes", "spider:collection_time": "2023-12-28T08:25:01.581378"}, "geometry": {"coordinates": [-117.2435339714, 33.9403480077], "type": "Point"}, "id": "q2IYXieLAWNj2Eqt0dS228BRsDo=", "properties": {"@spider": "usps_collection_boxes", "addr:city": "MORENO VALLEY", "addr:country": "US", "addr:full": "24040 POSTAL AVE", "addr:postcode": "92557", "addr:state": "CA", "amenity": "post_box", "brand": "United States Postal Service", "brand:wikidata": "Q668687", "collection_times": "Mo-Sa 17:00", "name": "USPS COLLECTION BOX - BLUE BOX", "note": "ON 12/24 AND 12/31, THIS BOX MAY BE COLLECTED AS EARLY AS 12 NOON.", "nsi_id": "unitedstatespostalservice-a77078", "operator": "United States Postal Service", "operator:short": "USPS", "operator:type": "public", "operator:wikidata": "Q668687", "ref": "9255700011"}, "type": "Feature"}
{"dataset_attributes": {"@spider": "usps_collection_boxes", "spider:collection_time": "2023-12-28T08:25:01.581378"}, "geometry": {"coordinates": [-116.4564509673, 33.5932119906], "type": "Point"}, "id": "Mf-LeoOu9NRPkpREnE84R_FblKI=", "properties": {"@spider": "usps_collection_boxes", "addr:city": "MOUNTAIN CENTER", "addr:country": "US", "addr:full": "63270 PINYON DR", "addr:postcode": "92561", "addr:state": "CA", "amenity": "post_box", "brand": "United States Postal Service", "brand:wikidata": "Q668687", "collection_times": "Mo-Sa 11:00", "name": "USPS COLLECTION BOX - BLUE BOX", "nsi_id": "unitedstatespostalservice-a77078", "operator": "United States Postal Service", "operator:short": "USPS", "operator:type": "public", "operator:wikidata": "Q668687", "ref": "9256100001"}, "type": "Feature"}
{"dataset_attributes": {"@spider": "usps_collection_boxes", "spider:collection_time": "2023-12-28T08:25:01.581378"}, "geometry": {"coordinates": [-116.7249350314, 33.7048427013], "type": "Point"}, "id": "XtB-SALA2nYPd9u3GNfVD4cYEl4=", "properties": {"@spider": "usps_collection_boxes", "addr:city": "MOUNTAIN CENTER", "addr:country": "US", "addr:full": "29480 US HIGHWAY 243", "addr:postcode": "92561", "addr:state": "CA", "amenity": "post_box", "brand": "United States Postal Service", "brand:wikidata": "Q668687", "collection_times": "Mo-Fr 15:30; Sa 09:30", "name": "USPS COLLECTION BOX - BLUE BOX", "note": "ON 12/24 AND 12/31, THIS BOX MAY BE COLLECTED AS EARLY AS 12 NOON.", "nsi_id": "unitedstatespostalservice-a77078", "operator": "United States Postal Service", "operator:short": "USPS", "operator:type": "public", "operator:wikidata": "Q668687", "ref": "9256100002"}, "type": "Feature"}
{"dataset_attributes": {"@spider": "usps_collection_boxes", "spider:collection_time": "2023-12-28T08:25:01.581378"}, "geometry": {"coordinates": [-116.619215032, 33.603580491], "type": "Point"}, "id": "iY5jXS1aQGlZ_UnvczkGB65m1DA=", "properties": {"@spider": "usps_collection_boxes", "addr:city": "MOUNTAIN CENTER", "addr:country": "US", "addr:full": "35650 PYRAMID PEAK RD", "addr:postcode": "92561", "addr:state": "CA", "amenity": "post_box", "brand": "United States Postal Service", "brand:wikidata": "Q668687", "collection_times": "Mo-Sa 10:45", "name": "USPS COLLECTION BOX - BLUE BOX", "nsi_id": "unitedstatespostalservice-a77078", "operator": "United States Postal Service", "operator:short": "USPS", "operator:type": "public", "operator:wikidata": "Q668687", "ref": "9256100007"}, "type": "Feature"}
{"dataset_attributes": {"@spider": "usps_collection_boxes", "spider:collection_time": "2023-12-28T08:25:01.581378"}, "geometry": {"coordinates": [-116.4353000848, 33.6125268701], "type": "Point"}, "id": "1bGiyOaJTUGgrxwDyOhhO1o2hIY=", "properties": {"@spider": "usps_collection_boxes", "addr:city": "MOUNTAIN CENTER", "addr:country": "US", "addr:full": "60000 CARRIZO RD", "addr:postcode": "92561", "addr:state": "CA", "amenity": "post_box", "brand": "United States Postal Service", "brand:wikidata": "Q668687", "collection_times": "Mo-Sa 10:00", "name": "USPS COLLECTION BOX - BLUE BOX", "nsi_id": "unitedstatespostalservice-a77078", "operator": "United States Postal Service", "operator:short": "USPS", "operator:type": "public", "operator:wikidata": "Q668687", "ref": "9256100008"}, "type": "Feature"}
{"dataset_attributes": {"@spider": "usps_collection_boxes", "spider:collection_time": "2023-12-28T08:25:01.581378"}, "geometry": {"coordinates": [-116.724929349, 33.705122747], "type": "Point"}, "id": "r1gw-Lhfjf2M6-D4XnAqcLZTJvQ=", "properties": {"@spider": "usps_collection_boxes", "addr:city": "MOUNTAIN CENTER", "addr:country": "US", "addr:full": "29470 US HIGHWAY 243", "addr:postcode": "92561", "addr:state": "CA", "amenity": "post_box", "brand": "United States Postal Service", "brand:wikidata": "Q668687", "collection_times": "Mo-Fr 16:45", "name": "USPS COLLECTION BOX - PO LOBBY", "note": "ON 12/24 AND 12/31, THIS BOX MAY BE COLLECTED AS EARLY AS 12 NOON.", "nsi_id": "unitedstatespostalservice-a77078", "operator": "United States Postal Service", "operator:short": "USPS", "operator:type": "public", "operator:wikidata": "Q668687", "ref": "9256100009"}, "type": "Feature"}
{"dataset_attributes": {"@spider": "usps_collection_boxes", "spider:collection_time": "2023-12-28T08:25:01.581378"}, "geometry": {"coordinates": [-117.2121333606, 33.5518048374], "type": "Point"}, "id": "hc15xQaW7Ok991CIT2zeRkOlHg8=", "properties": {"@spider": "usps_collection_boxes", "addr:city": "MURRIETA", "addr:country": "US", "addr:full": "24930 WASHINGTON AVE", "addr:postcode": "92562", "addr:state": "CA", "amenity": "post_box", "brand": "United States Postal Service", "brand:wikidata": "Q668687", "collection_times": "Mo-Fr 17:00; Sa 13:00", "name": "USPS COLLECTION BOX - BLUE BOX", "note": "ON 12/24 AND 12/31, THIS BOX MAY BE COLLECTED AS EARLY AS 12 NOON.", "nsi_id": "unitedstatespostalservice-a77078", "operator": "United States Postal Service", "operator:short": "USPS", "operator:type": "public", "operator:wikidata": "Q668687", "ref": "9256200001"}, "type": "Feature"}
{"dataset_attributes": {"@spider": "usps_collection_boxes", "spider:collection_time": "2023-12-28T08:25:01.581378"}, "geometry": {"coordinates": [-117.207511, 33.576944], "type": "Point"}, "id": "pzNgn24XhqJKVkuFsj2G4tG3H_8=", "properties": {"@spider": "usps_collection_boxes", "addr:city": "MURRIETA", "addr:country": "US", "addr:full": "40710 AVENIDA FLORITA", "addr:postcode": "92562", "addr:state": "CA", "amenity": "post_box", "brand": "United States Postal Service", "brand:wikidata": "Q668687", "collection_times": "Mo-Sa 10:00", "name": "USPS COLLECTION BOX - BLUE BOX", "nsi_id": "unitedstatespostalservice-a77078", "operator": "United States Postal Service", "operator:short": "USPS", "operator:type": "public", "operator:wikidata": "Q668687", "ref": "9256200002"}, "type": "Feature"}
{"dataset_attributes": {"@spider": "usps_collection_boxes", "spider:collection_time": "2023-12-28T08:25:01.581378"}, "geometry": {"coordinates": [-117.183163, 33.57243], "type": "Point"}, "id": "OWqwJesve3ipmbsgf_AYSYIZ89U=", "properties": {"@spider": "usps_collection_boxes", "addr:city": "MURRIETA", "addr:country": "US", "addr:full": "39840 LOS ALAMOS RD", "addr:postcode": "92562", "addr:state": "CA", "amenity": "post_box", "brand": "United States Postal Service", "brand:wikidata": "Q668687", "collection_times": "Mo-Sa 10:00", "name": "USPS COLLECTION BOX - BLUE BOX", "nsi_id": "unitedstatespostalservice-a77078", "operator": "United States Postal Service", "operator:short": "USPS", "operator:type": "public", "operator:wikidata": "Q668687", "ref": "9256200003"}, "type": "Feature"}
{"dataset_attributes": {"@spider": "usps_collection_boxes", "spider:collection_time": "2023-12-28T08:25:01.581378"}, "geometry": {"coordinates": [-117.204082, 33.57408], "type": "Point"}, "id": "0J5XH_Nt4jySb_Xil61iz_y4qac=", "properties": {"@spider": "usps_collection_boxes", "addr:city": "MURRIETA", "addr:country": "US", "addr:full": "40575 CALIFORNIA OAKS RD", "addr:postcode": "92562", "addr:state": "CA", "amenity": "post_box", "brand": "United States Postal Service", "brand:wikidata": "Q668687", "collection_times": "Mo-Sa 10:00", "name": "USPS COLLECTION BOX - BLUE BOX", "nsi_id": "unitedstatespostalservice-a77078", "operator": "United States Postal Service", "operator:short": "USPS", "operator:type": "public", "operator:wikidata": "Q668687", "ref": "9256200004"}, "type": "Feature"}
{"dataset_attributes": {"@spider": "usps_collection_boxes", "spider:collection_time": "2023-12-28T08:25:01.581378"}, "geometry": {"coordinates": [-117.209785, 33.557025], "type": "Point"}, "id": "hS9Pv0VvnwDv-cgl4RPHSRj_TPI=", "properties": {"@spider": "usps_collection_boxes", "addr:city": "MURRIETA", "addr:country": "US", "addr:full": "25405 HANCOCK AVE", "addr:postcode": "92562", "addr:state": "CA", "amenity": "post_box", "brand": "United States Postal Service", "brand:wikidata": "Q668687", "collection_times": "Mo-Fr 15:00; Sa 12:00", "name": "USPS COLLECTION BOX - BLUE BOX", "note": "ON 12/24 AND 12/31, THIS BOX MAY BE COLLECTED AS EARLY AS 12 NOON.", "nsi_id": "unitedstatespostalservice-a77078", "operator": "United States Postal Service", "operator:short": "USPS", "operator:type": "public", "operator:wikidata": "Q668687", "ref": "9256200005"}, "type": "Feature"}
{"dataset_attributes": {"@spider": "usps_collection_boxes", "spider:collection_time": "2023-12-28T08:25:01.581378"}, "geometry": {"coordinates": [-117.209785, 33.557025], "type": "Point"}, "id": "V5OqpYMRfDy8yHRsq3SFy1Z-Lqw=", "properties": {"@spider": "usps_collection_boxes", "addr:city": "MURRIETA", "addr:country": "US", "addr:full": "24930 WASHINGTON AVE", "addr:postcode": "92562", "addr:state": "CA", "amenity": "post_box", "brand": "United States Postal Service", "brand:wikidata": "Q668687", "collection_times": "Mo-Fr 17:00; Sa 13:00", "name": "USPS COLLECTION BOX - EXPRESS", "note": "ON 12/24 AND 12/31, THIS BOX MAY BE COLLECTED AS EARLY AS 12 NOON.", "nsi_id": "unitedstatespostalservice-a77078", "operator": "United States Postal Service", "operator:short": "USPS", "operator:type": "public", "operator:wikidata": "Q668687", "ref": "9256200007"}, "type": "Feature"}
{"dataset_attributes": {"@spider": "usps_collection_boxes", "spider:collection_time": "2023-12-28T08:25:01.581378"}, "geometry": {"coordinates": [-117.260161, 33.574813], "type": "Point"}, "id": "a2_Sb_bq3RPRZl6phvN1MAuTjOg=", "properties": {"@spider": "usps_collection_boxes", "addr:city": "MURRIETA", "addr:country": "US", "addr:full": "1 CALLE DE OSO ORO", "addr:postcode": "92562", "addr:state": "CA", "amenity": "post_box", "brand": "United States Postal Service", "brand:wikidata": "Q668687", "collection_times": "Mo-Sa 10:00", "name": "USPS COLLECTION BOX - BLUE BOX", "nsi_id": "unitedstatespostalservice-a77078", "operator": "United States Postal Service", "operator:short": "USPS", "operator:type": "public", "operator:wikidata": "Q668687", "ref": "9256200011"}, "type": "Feature"}
{"dataset_attributes": {"@spider": "usps_collection_boxes", "spider:collection_time": "2023-12-28T08:25:01.581378"}, "geometry": {"coordinates": [-117.2121333606, 33.5518048374], "type": "Point"}, "id": "eqKAiR_8IEI61e3nFSXpjcoxQ80=", "properties": {"@spider": "usps_collection_boxes", "addr:city": "MURRIETA", "addr:country": "US", "addr:full": "24930 WASHINGTON AVE", "addr:postcode": "92562", "addr:state": "CA", "amenity": "post_box", "brand": "United States Postal Service", "brand:wikidata": "Q668687", "collection_times": "Mo-Fr 17:00; Sa 13:00", "name": "USPS COLLECTION BOX - BLUE BOX", "note": "ON 12/24 AND 12/31, THIS BOX MAY BE COLLECTED AS EARLY AS 12 NOON.", "nsi_id": "unitedstatespostalservice-a77078", "operator": "United States Postal Service", "operator:short": "USPS", "operator:type": "public", "operator:wikidata": "Q668687", "ref": "9256200012"}, "type": "Feature"}
{"dataset_attributes": {"@spider": "usps_collection_boxes", "spider:collection_time": "2023-12-28T08:25:01.581378"}, "geometry": {"coordinates": [-117.2119126827, 33.558454078], "type": "Point"}, "id": "2bPo8Zkz4lLYJpnS27OdZY6FYzo=", "properties": {"@spider": "usps_collection_boxes", "addr:city": "MURRIETA", "addr:country": "US", "addr:full": "1 TOWN SQ", "addr:postcode": "92562", "addr:state": "CA", "amenity": "post_box", "brand": "United States Postal Service", "brand:wikidata": "Q668687", "collection_times": "Mo-Fr 10:00", "name": "USPS COLLECTION BOX - BLUE BOX", "nsi_id": "unitedstatespostalservice-a77078", "operator": "United States Postal Service", "operator:short": "USPS", "operator:type": "public", "operator:wikidata": "Q668687", "ref": "9256200026"}, "type": "Feature"}
{"dataset_attributes": {"@spider": "usps_collection_boxes", "spider:collection_time": "2023-12-28T08:25:01.581378"}, "geometry": {"coordinates": [-117.2121333606, 33.5518048374], "type": "Point"}, "id": "oNwrYLA1Iz35JmoIDCveWThyfmQ=", "properties": {"@spider": "usps_collection_boxes", "addr:city": "MURRIETA", "addr:country": "US", "addr:full": "24930 WASHINGTON AVE", "addr:postcode": "92562", "addr:state": "CA", "amenity": "post_box", "brand": "United States Postal Service", "brand:wikidata": "Q668687", "collection_times": "Mo-Fr 17:00", "name": "USPS COLLECTION BOX - PO LOBBY", "note": "ON 12/24 AND 12/31, THIS BOX MAY BE COLLECTED AS EARLY AS 12 NOON.", "nsi_id": "unitedstatespostalservice-a77078", "operator": "United States Postal Service", "operator:short": "USPS", "operator:type": "public", "operator:wikidata": "Q668687", "ref": "9256200027"}, "type": "Feature"}
{"dataset_attributes": {"@spider": "usps_collection_boxes", "spider:collection_time": "2023-12-28T08:25:01.581378"}, "geometry": {"coordinates": [-117.15952, 33.550155], "type": "Point"}, "id": "E3j6zeIXcMCla33uToPT03Uwgig=", "properties": {"@spider": "usps_collection_boxes", "addr:city": "MURRIETA", "addr:country": "US", "addr:full": "28386 VIA PRINCESA", "addr:postcode": "92563", "addr:state": "CA", "amenity": "post_box", "brand": "United States Postal Service", "brand:wikidata": "Q668687", "collection_times": "Mo-Sa 10:00", "name": "USPS COLLECTION BOX - BLUE BOX", "nsi_id": "unitedstatespostalservice-a77078", "operator": "United States Postal Service", "operator:short": "USPS", "operator:type": "public", "operator:wikidata": "Q668687", "ref": "9256300001"}, "type": "Feature"}
{"dataset_attributes": {"@spider": "usps_collection_boxes", "spider:collection_time": "2023-12-28T08:25:01.581378"}, "geometry": {"coordinates": [-117.157547, 33.563514], "type": "Point"}, "id": "HdPcYe7NZVPfz6mzQyLyiQJeE1s=", "properties": {"@spider": "usps_collection_boxes", "addr:city": "MURRIETA", "addr:country": "US", "addr:full": "38441 VIA LA PALOMA", "addr:postcode": "92563", "addr:state": "CA", "amenity": "post_box", "brand": "United States Postal Service", "brand:wikidata": "Q668687", "collection_times": "Mo-Sa 10:00", "name": "USPS COLLECTION BOX - BLUE BOX", "nsi_id": "unitedstatespostalservice-a77078", "operator": "United States Postal Service", "operator:short": "USPS", "operator:type": "public", "operator:wikidata": "Q668687", "ref": "9256300003"}, "type": "Feature"}
{"dataset_attributes": {"@spider": "usps_collection_boxes", "spider:collection_time": "2023-12-28T08:25:01.581378"}, "geometry": {"coordinates": [-117.15952, 33.550155], "type": "Point"}, "id": "0NHV-V49UzfN6E6zs3E9OKUuu5I=", "properties": {"@spider": "usps_collection_boxes", "addr:city": "MURRIETA", "addr:country": "US", "addr:full": "40485 MURRIETA HOT SPRINGS RD", "addr:postcode": "92563", "addr:state": "CA", "amenity": "post_box", "brand": "United States Postal Service", "brand:wikidata": "Q668687", "collection_times": "Mo-Fr 15:00; Sa 12:00", "name": "USPS COLLECTION BOX - BLUE BOX", "note": "ON 12/24 AND 12/31, THIS BOX MAY BE COLLECTED AS EARLY AS 12 NOON.", "nsi_id": "unitedstatespostalservice-a77078", "operator": "United States Postal Service", "operator:short": "USPS", "operator:type": "public", "operator:wikidata": "Q668687", "ref": "9256300004"}, "type": "Feature"}
{"dataset_attributes": {"@spider": "usps_collection_boxes", "spider:collection_time": "2023-12-28T08:25:01.581378"}, "geometry": {"coordinates": [-117.178174, 33.574385], "type": "Point"}, "id": "34uhTrBZxUR-XoC_TKv8TK1Luuk=", "properties": {"@spider": "usps_collection_boxes", "addr:city": "MURRIETA", "addr:country": "US", "addr:full": "39571 LOS ALAMOS RD", "addr:postcode": "92563", "addr:state": "CA", "amenity": "post_box", "brand": "United States Postal Service", "brand:wikidata": "Q668687", "collection_times": "Mo-Fr 17:00; Sa 12:00", "name": "USPS COLLECTION BOX - BLUE BOX", "note": "ON 12/24 AND 12/31, THIS BOX MAY BE COLLECTED AS EARLY AS 12 NOON.", "nsi_id": "unitedstatespostalservice-a77078", "operator": "United States Postal Service", "operator:short": "USPS", "operator:type": "public", "operator:wikidata": "Q668687", "ref": "9256300005"}, "type": "Feature"}
{"dataset_attributes": {"@spider": "usps_collection_boxes", "spider:collection_time": "2023-12-28T08:25:01.581378"}, "geometry": {"coordinates": [-117.15952, 33.550155], "type": "Point"}, "id": "dO49pREZDWrQ7AyGRj9QOVL6egY=", "properties": {"@spider": "usps_collection_boxes", "addr:city": "MURRIETA", "addr:country": "US", "addr:full": "29910 MURRIETA HOT SPRINGS RD", "addr:postcode": "92563", "addr:state": "CA", "amenity": "post_box", "brand": "United States Postal Service", "brand:wikidata": "Q668687", "collection_times": "Mo-Fr 10:00", "name": "USPS COLLECTION BOX - BLUE BOX", "nsi_id": "unitedstatespostalservice-a77078", "operator": "United States Postal Service", "operator:short": "USPS", "operator:type": "public", "operator:wikidata": "Q668687", "ref": "9256300009"}, "type": "Feature"}
{"dataset_attributes": {"@spider": "usps_collection_boxes", "spider:collection_time": "2023-12-28T08:25:01.581378"}, "geometry": {"coordinates": [-117.178174, 33.574385], "type": "Point"}, "id": "z8DHawKZUGLbQp7GE1ABbrim5pE=", "properties": {"@spider": "usps_collection_boxes", "addr:city": "MURRIETA", "addr:country": "US", "addr:full": "39571 LOS ALAMOS RD", "addr:postcode": "92563", "addr:state": "CA", "amenity": "post_box", "brand": "United States Postal Service", "brand:wikidata": "Q668687", "collection_times": "Mo-Fr 17:00; Sa 12:00", "name": "USPS COLLECTION BOX - BLUE BOX", "note": "ON 12/24 AND 12/31, THIS BOX MAY BE COLLECTED AS EARLY AS 12 NOON.", "nsi_id": "unitedstatespostalservice-a77078", "operator": "United States Postal Service", "operator:short": "USPS", "operator:type": "public", "operator:wikidata": "Q668687", "ref": "9256300011"}, "type": "Feature"}
{"dataset_attributes": {"@spider": "usps_collection_boxes", "spider:collection_time": "2023-12-28T08:25:01.581378"}, "geometry": {"coordinates": [-117.178174, 33.574385], "type": "Point"}, "id": "FT_OYclWPqu8eL7dxOOmIqIJwv0=", "properties": {"@spider": "usps_collection_boxes", "addr:city": "MURRIETA", "addr:country": "US", "addr:full": "39571 LOS ALAMOS RD", "addr:postcode": "92563", "addr:state": "CA", "amenity": "post_box", "brand": "United States Postal Service", "brand:wikidata": "Q668687", "collection_times": "Mo-Fr 17:00; Sa 12:00", "name": "USPS COLLECTION BOX - APC", "note": "ON 12/24 AND 12/31, THIS BOX MAY BE COLLECTED AS EARLY AS 12 NOON.", "nsi_id": "unitedstatespostalservice-a77078", "operator": "United States Postal Service", "operator:short": "USPS", "operator:type": "public", "operator:wikidata": "Q668687", "ref": "9256300012"}, "type": "Feature"}
{"dataset_attributes": {"@spider": "usps_collection_boxes", "spider:collection_time": "2023-12-28T08:25:01.581378"}, "geometry": {"coordinates": [-117.1780645989, 33.5745162648], "type": "Point"}, "id": "6bsn4eh75ugGuOp11NHKRt1V6XM=", "properties": {"@spider": "usps_collection_boxes", "addr:city": "MURRIETA", "addr:country": "US", "addr:full": "39571 LOS ALAMOS RD", "addr:postcode": "92563", "addr:state": "CA", "amenity": "post_box", "brand": "United States Postal Service", "brand:wikidata": "Q668687", "collection_times": "Mo-Fr 17:00", "name": "USPS COLLECTION BOX - PO LOBBY", "note": "ON 12/24 AND 12/31, THIS BOX MAY BE COLLECTED AS EARLY AS 12 NOON.", "nsi_id": "unitedstatespostalservice-a77078", "operator": "United States Postal Service", "operator:short": "USPS", "operator:type": "public", "operator:wikidata": "Q668687", "ref": "9256300015"}, "type": "Feature"}
{"dataset_attributes": {"@spider": "usps_collection_boxes", "spider:collection_time": "2023-12-28T08:25:01.581378"}, "geometry": {"coordinates": [-117.136343129, 33.8154555481], "type": "Point"}, "id": "0tf9H2HWkoA7HnDJYFdFozYN-cg=", "properties": {"@spider": "usps_collection_boxes", "addr:city": "NUEVO", "addr:country": "US", "addr:full": "29245 LAKEVIEW AVE", "addr:postcode": "92567", "addr:state": "CA", "amenity": "post_box", "brand": "United States Postal Service", "brand:wikidata": "Q668687", "collection_times": "Mo-Fr 16:30", "name": "USPS COLLECTION BOX - PO LOBBY", "note": "ON 12/24 AND 12/31, THIS BOX MAY BE COLLECTED AS EARLY AS 12 NOON.", "nsi_id": "unitedstatespostalservice-a77078", "operator": "United States Postal Service", "operator:short": "USPS", "operator:type": "public", "operator:wikidata": "Q668687", "ref": "9256700005"}, "type": "Feature"}
{"dataset_attributes": {"@spider": "usps_collection_boxes", "spider:collection_time": "2023-12-28T08:25:01.581378"}, "geometry": {"coordinates": [-116.9721401238, 33.8055263137], "type": "Point"}, "id": "jLEM_WZjulFcDsiO1DUtjqZR8Kk=", "properties": {"@spider": "usps_collection_boxes", "addr:city": "SAN JACINTO", "addr:country": "US", "addr:full": "800 W COMMUNITY COLLEGE DR", "addr:postcode": "92583", "addr:state": "CA", "amenity": "post_box", "brand": "United States Postal Service", "brand:wikidata": "Q668687", "collection_times": "Mo-Sa 12:30", "name": "USPS COLLECTION BOX - BLUE BOX", "note": "ON 12/24 AND 12/31, THIS BOX MAY BE COLLECTED AS EARLY AS 12 NOON.", "nsi_id": "unitedstatespostalservice-a77078", "operator": "United States Postal Service", "operator:short": "USPS", "operator:type": "public", "operator:wikidata": "Q668687", "ref": "9258300002"}, "type": "Feature"}
{"dataset_attributes": {"@spider": "usps_collection_boxes", "spider:collection_time": "2023-12-28T08:25:01.581378"}, "geometry": {"coordinates": [-116.954974026, 33.772953645], "type": "Point"}, "id": "ms1gdwxwLz1NzshbDjb-BXW79vI=", "properties": {"@spider": "usps_collection_boxes", "addr:city": "SAN JACINTO", "addr:country": "US", "addr:full": "315 E ESPLANADE AVE", "addr:postcode": "92583", "addr:state": "CA", "amenity": "post_box", "brand": "United States Postal Service", "brand:wikidata": "Q668687", "collection_times": "Mo-Fr 17:00; Sa 16:00", "name": "USPS COLLECTION BOX - BLUE BOX", "note": "ON 12/24 AND 12/31, THIS BOX MAY BE COLLECTED AS EARLY AS 12 NOON.", "nsi_id": "unitedstatespostalservice-a77078", "operator": "United States Postal Service", "operator:short": "USPS", "operator:type": "public", "operator:wikidata": "Q668687", "ref": "9258300009"}, "type": "Feature"}
{"dataset_attributes": {"@spider": "usps_collection_boxes", "spider:collection_time": "2023-12-28T08:25:01.581378"}, "geometry": {"coordinates": [-116.9549715696, 33.7729422758], "type": "Point"}, "id": "ViAKvicVH4rCRgiFfEGJI-yZ3Ik=", "properties": {"@spider": "usps_collection_boxes", "addr:city": "SAN JACINTO", "addr:country": "US", "addr:full": "315 E ESPLANADE AVE", "addr:postcode": "92583", "addr:state": "CA", "amenity": "post_box", "brand": "United States Postal Service", "brand:wikidata": "Q668687", "collection_times": "Mo-Fr 17:00; Sa 16:00", "name": "USPS COLLECTION BOX - BLUE BOX", "note": "ON 12/24 AND 12/31, THIS BOX MAY BE COLLECTED AS EARLY AS 12 NOON.", "nsi_id": "unitedstatespostalservice-a77078", "operator": "United States Postal Service", "operator:short": "USPS", "operator:type": "public", "operator:wikidata": "Q668687", "ref": "9258300021"}, "type": "Feature"}
{"dataset_attributes": {"@spider": "usps_collection_boxes", "spider:collection_time": "2023-12-28T08:25:01.581378"}, "geometry": {"coordinates": [-116.954974026, 33.772953645], "type": "Point"}, "id": "zxPzkeI3bwthr7kQ7tXM6IEsnwk=", "properties": {"@spider": "usps_collection_boxes", "addr:city": "SAN JACINTO", "addr:country": "US", "addr:full": "315 E ESPLANADE AVE", "addr:postcode": "92583", "addr:state": "CA", "amenity": "post_box", "brand": "United States Postal Service", "brand:wikidata": "Q668687", "collection_times": "Mo-Fr 17:00; Sa 16:00", "name": "USPS COLLECTION BOX - BLUE BOX", "note": "ON 12/24 AND 12/31, THIS BOX MAY BE COLLECTED AS EARLY AS 12 NOON.", "nsi_id": "unitedstatespostalservice-a77078", "operator": "United States Postal Service", "operator:short": "USPS", "operator:type": "public", "operator:wikidata": "Q668687", "ref": "9258300022"}, "type": "Feature"}
{"dataset_attributes": {"@spider": "usps_collection_boxes", "spider:collection_time": "2023-12-28T08:25:01.581378"}, "geometry": {"coordinates": [-116.9549715696, 33.7729422758], "type": "Point"}, "id": "aiMxR_O_2J1T12Q-5aREAWWjFxo=", "properties": {"@spider": "usps_collection_boxes", "addr:city": "SAN JACINTO", "addr:country": "US", "addr:full": "315 E ESPLANADE AVE", "addr:postcode": "92583", "addr:state": "CA", "amenity": "post_box", "brand": "United States Postal Service", "brand:wikidata": "Q668687", "collection_times": "Mo-Fr 17:00; Sa 16:00", "name": "USPS COLLECTION BOX - EXPRESS", "note": "ON 12/24 AND 12/31, THIS BOX MAY BE COLLECTED AS EARLY AS 12 NOON.", "nsi_id": "unitedstatespostalservice-a77078", "operator": "United States Postal Service", "operator:short": "USPS", "operator:type": "public", "operator:wikidata": "Q668687", "ref": "9258300023"}, "type": "Feature"}
{"dataset_attributes": {"@spider": "usps_collection_boxes", "spider:collection_time": "2023-12-28T08:25:01.581378"}, "geometry": {"coordinates": [-116.9549862757, 33.7729602534], "type": "Point"}, "id": "zmgpK542LQK4_7WZilB-5yUc_18=", "properties": {"@spider": "usps_collection_boxes", "addr:city": "SAN JACINTO", "addr:country": "US", "addr:full": "315 E ESPLANADE AVE", "addr:postcode": "92583", "addr:state": "CA", "amenity": "post_box", "brand": "United States Postal Service", "brand:wikidata": "Q668687", "collection_times": "Mo-Fr 17:00", "name": "USPS COLLECTION BOX - PO LOBBY", "note": "ON 12/24 AND 12/31, THIS BOX MAY BE COLLECTED AS EARLY AS 12 NOON.", "nsi_id": "unitedstatespostalservice-a77078", "operator": "United States Postal Service", "operator:short": "USPS", "operator:type": "public", "operator:wikidata": "Q668687", "ref": "9258300026"}, "type": "Feature"}
{"dataset_attributes": {"@spider": "usps_collection_boxes", "spider:collection_time": "2023-12-28T08:25:01.581378"}, "geometry": {"coordinates": [-117.168419, 33.684291], "type": "Point"}, "id": "JqvOMgjC9JtHwzrOBSMkdjxD5JM=", "properties": {"@spider": "usps_collection_boxes", "addr:city": "SUN CITY", "addr:country": "US", "addr:full": "30125 ANTELOPE RD", "addr:postcode": "92584", "addr:state": "CA", "amenity": "post_box", "brand": "United States Postal Service", "brand:wikidata": "Q668687", "collection_times": "Mo-Fr 13:15; Sa 12:00", "name": "USPS COLLECTION BOX - BLUE BOX", "note": "ON 12/24 AND 12/31, THIS BOX MAY BE COLLECTED AS EARLY AS 12 NOON.", "nsi_id": "unitedstatespostalservice-a77078", "operator": "United States Postal Service", "operator:short": "USPS", "operator:type": "public", "operator:wikidata": "Q668687", "ref": "9258400002"}, "type": "Feature"}
{"dataset_attributes": {"@spider": "usps_collection_boxes", "spider:collection_time": "2023-12-28T08:25:01.581378"}, "geometry": {"coordinates": [-117.173205, 33.74702], "type": "Point"}, "id": "HEXUFIGocnoG7XO8o1dgYwRIdoQ=", "properties": {"@spider": "usps_collection_boxes", "addr:city": "SUN CITY", "addr:country": "US", "addr:full": "28480 US HIGHWAY 74", "addr:postcode": "92585", "addr:state": "CA", "amenity": "post_box", "brand": "United States Postal Service", "brand:wikidata": "Q668687", "collection_times": "Mo-Fr 16:45; Sa 12:00", "name": "USPS COLLECTION BOX - BLUE BOX", "note": "ON 12/24 AND 12/31, THIS BOX MAY BE COLLECTED AS EARLY AS 12 NOON.", "nsi_id": "unitedstatespostalservice-a77078", "operator": "United States Postal Service", "operator:short": "USPS", "operator:type": "public", "operator:wikidata": "Q668687", "ref": "9258500000"}, "type": "Feature"}
{"dataset_attributes": {"@spider": "usps_collection_boxes", "spider:collection_time": "2023-12-28T08:25:01.581378"}, "geometry": {"coordinates": [-117.2069492957, 33.7333248634], "type": "Point"}, "id": "-3baWJXgrVrXY93c4270rT083Mk=", "properties": {"@spider": "usps_collection_boxes", "addr:city": "SUN CITY", "addr:country": "US", "addr:full": "26681 CALLE GREGORIO", "addr:postcode": "92585", "addr:state": "CA", "amenity": "post_box", "brand": "United States Postal Service", "brand:wikidata": "Q668687", "collection_times": "Mo-Sa 09:00", "name": "USPS COLLECTION BOX - BLUE BOX", "nsi_id": "unitedstatespostalservice-a77078", "operator": "United States Postal Service", "operator:short": "USPS", "operator:type": "public", "operator:wikidata": "Q668687", "ref": "9258500001"}, "type": "Feature"}
{"dataset_attributes": {"@spider": "usps_collection_boxes", "spider:collection_time": "2023-12-28T08:25:01.581378"}, "geometry": {"coordinates": [-117.1640735255, 33.7430075304], "type": "Point"}, "id": "-Bdoei0LlSfzXVHzyp8HW7VqpLQ=", "properties": {"@spider": "usps_collection_boxes", "addr:city": "SUN CITY", "addr:country": "US", "addr:full": "28480 US HIGHWAY 74 STE C", "addr:postcode": "92585", "addr:state": "CA", "amenity": "post_box", "brand": "United States Postal Service", "brand:wikidata": "Q668687", "collection_times": "Mo-Fr 15:00", "name": "USPS COLLECTION BOX - PO LOBBY", "note": "ON 12/24 AND 12/31, THIS BOX MAY BE COLLECTED AS EARLY AS 12 NOON.", "nsi_id": "unitedstatespostalservice-a77078", "operator": "United States Postal Service", "operator:short": "USPS", "operator:type": "public", "operator:wikidata": "Q668687", "ref": "9258500003"}, "type": "Feature"}
{"dataset_attributes": {"@spider": "usps_collection_boxes", "spider:collection_time": "2023-12-28T08:25:01.581378"}, "geometry": {"coordinates": [-117.182445, 33.708029], "type": "Point"}, "id": "BxGs3rQEDR1rHqaojfnwUgR8g04=", "properties": {"@spider": "usps_collection_boxes", "addr:city": "SUN CITY", "addr:country": "US", "addr:full": "28415 ENCANTO DR", "addr:postcode": "92586", "addr:state": "CA", "amenity": "post_box", "brand": "United States Postal Service", "brand:wikidata": "Q668687", "collection_times": "Mo-Sa 09:30", "name": "USPS COLLECTION BOX - BLUE BOX", "nsi_id": "unitedstatespostalservice-a77078", "operator": "United States Postal Service", "operator:short": "USPS", "operator:type": "public", "operator:wikidata": "Q668687", "ref": "9258600039"}, "type": "Feature"}
{"dataset_attributes": {"@spider": "usps_collection_boxes", "spider:collection_time": "2023-12-28T08:25:01.581378"}, "geometry": {"coordinates": [-117.1926155473, 33.7101288744], "type": "Point"}, "id": "S0KWJnZLKmnOo_jhkM0pWYFsBOs=", "properties": {"@spider": "usps_collection_boxes", "addr:city": "SUN CITY", "addr:country": "US", "addr:full": "26822 CHERRY HILLS BLVD", "addr:postcode": "92586", "addr:state": "CA", "amenity": "post_box", "brand": "United States Postal Service", "brand:wikidata": "Q668687", "collection_times": "Mo-Fr 17:00; Sa 15:00", "name": "USPS COLLECTION BOX - BLUE BOX", "note": "ON 12/24 AND 12/31, THIS BOX MAY BE COLLECTED AS EARLY AS 12 NOON.", "nsi_id": "unitedstatespostalservice-a77078", "operator": "United States Postal Service", "operator:short": "USPS", "operator:type": "public", "operator:wikidata": "Q668687", "ref": "9258600043"}, "type": "Feature"}
{"dataset_attributes": {"@spider": "usps_collection_boxes", "spider:collection_time": "2023-12-28T08:25:01.581378"}, "geometry": {"coordinates": [-117.1926155473, 33.7101288744], "type": "Point"}, "id": "hIJDct8O29Lj8nuZO3nschTn5AU=", "properties": {"@spider": "usps_collection_boxes", "addr:city": "SUN CITY", "addr:country": "US", "addr:full": "26822 CHERRY HILLS BLVD", "addr:postcode": "92586", "addr:state": "CA", "amenity": "post_box", "brand": "United States Postal Service", "brand:wikidata": "Q668687", "collection_times": "Mo-Fr 17:00; Sa 15:00", "name": "USPS COLLECTION BOX - EXPRESS", "note": "ON 12/24 AND 12/31, THIS BOX MAY BE COLLECTED AS EARLY AS 12 NOON.", "nsi_id": "unitedstatespostalservice-a77078", "operator": "United States Postal Service", "operator:short": "USPS", "operator:type": "public", "operator:wikidata": "Q668687", "ref": "9258600044"}, "type": "Feature"}
{"dataset_attributes": {"@spider": "usps_collection_boxes", "spider:collection_time": "2023-12-28T08:25:01.581378"}, "geometry": {"coordinates": [-117.1889908, 33.7116186], "type": "Point"}, "id": "xj4Nflb5q2Ve2eyQb3XQIn45zMk=", "properties": {"@spider": "usps_collection_boxes", "addr:city": "SUN CITY", "addr:country": "US", "addr:full": "26822 CHERRY HILLS BLVD", "addr:postcode": "92586", "addr:state": "CA", "amenity": "post_box", "brand": "United States Postal Service", "brand:wikidata": "Q668687", "collection_times": "Mo-Fr 17:00; Sa 15:00", "name": "USPS COLLECTION BOX - APC", "note": "ON 12/24 AND 12/31, THIS BOX MAY BE COLLECTED AS EARLY AS 12 NOON.", "nsi_id": "unitedstatespostalservice-a77078", "operator": "United States Postal Service", "operator:short": "USPS", "operator:type": "public", "operator:wikidata": "Q668687", "ref": "9258600048"}, "type": "Feature"}
{"dataset_attributes": {"@spider": "usps_collection_boxes", "spider:collection_time": "2023-12-28T08:25:01.581378"}, "geometry": {"coordinates": [-117.1765044044, 33.6893016632], "type": "Point"}, "id": "vCZ8_W0EjyKdfJfOY-7o8DzkWAE=", "properties": {"@spider": "usps_collection_boxes", "addr:city": "SUN CITY", "addr:country": "US", "addr:full": "29700 HAUN RD", "addr:postcode": "92586", "addr:state": "CA", "amenity": "post_box", "brand": "United States Postal Service", "brand:wikidata": "Q668687", "collection_times": "Mo-Fr 17:00; Sa 12:00", "name": "USPS COLLECTION BOX - BLUE BOX", "note": "ON 12/24 AND 12/31, THIS BOX MAY BE COLLECTED AS EARLY AS 12 NOON.", "nsi_id": "unitedstatespostalservice-a77078", "operator": "United States Postal Service", "operator:short": "USPS", "operator:type": "public", "operator:wikidata": "Q668687", "ref": "9258600051"}, "type": "Feature"}
{"dataset_attributes": {"@spider": "usps_collection_boxes", "spider:collection_time": "2023-12-28T08:25:01.581378"}, "geometry": {"coordinates": [-117.176505238, 33.689312263], "type": "Point"}, "id": "QrmQpI4JCVMsed57kfMhH7RJJK0=", "properties": {"@spider": "usps_collection_boxes", "addr:city": "SUN CITY", "addr:country": "US", "addr:full": "29700 HAUN RD", "addr:postcode": "92586", "addr:state": "CA", "amenity": "post_box", "brand": "United States Postal Service", "brand:wikidata": "Q668687", "collection_times": "Mo-Fr 16:00", "name": "USPS COLLECTION BOX - PO LOBBY", "note": "ON 12/24 AND 12/31, THIS BOX MAY BE COLLECTED AS EARLY AS 12 NOON.", "nsi_id": "unitedstatespostalservice-a77078", "operator": "United States Postal Service", "operator:short": "USPS", "operator:type": "public", "operator:wikidata": "Q668687", "ref": "9258600055"}, "type": "Feature"}
{"dataset_attributes": {"@spider": "usps_collection_boxes", "spider:collection_time": "2023-12-28T08:25:01.581378"}, "geometry": {"coordinates": [-117.1926155473, 33.7101288744], "type": "Point"}, "id": "pmzkc3VFuGpskF9WlC_wqXtaxIM=", "properties": {"@spider": "usps_collection_boxes", "addr:city": "SUN CITY", "addr:country": "US", "addr:full": "26822 CHERRY HILLS BLVD", "addr:postcode": "92586", "addr:state": "CA", "amenity": "post_box", "brand": "United States Postal Service", "brand:wikidata": "Q668687", "collection_times": "Mo-Fr 17:00", "name": "USPS COLLECTION BOX - PO LOBBY", "note": "ON 12/24 AND 12/31, THIS BOX MAY BE COLLECTED AS EARLY AS 12 NOON.", "nsi_id": "unitedstatespostalservice-a77078", "operator": "United States Postal Service", "operator:short": "USPS", "operator:type": "public", "operator:wikidata": "Q668687", "ref": "9258600056"}, "type": "Feature"}
{"dataset_attributes": {"@spider": "usps_collection_boxes", "spider:collection_time": "2023-12-28T08:25:01.581378"}, "geometry": {"coordinates": [-117.252623, 33.671449], "type": "Point"}, "id": "wLLWXDteKcKbibO6hrs5Y8J90TQ=", "properties": {"@spider": "usps_collection_boxes", "addr:city": "CANYON LAKE", "addr:country": "US", "addr:full": "31566 RAILROAD CANYON RD", "addr:postcode": "92587", "addr:state": "CA", "amenity": "post_box", "brand": "United States Postal Service", "brand:wikidata": "Q668687", "collection_times": "Mo-Fr 17:00; Sa 11:30", "name": "USPS COLLECTION BOX - BLUE BOX", "note": "ON 12/24 AND 12/31, THIS BOX MAY BE COLLECTED AS EARLY AS 12 NOON.", "nsi_id": "unitedstatespostalservice-a77078", "operator": "United States Postal Service", "operator:short": "USPS", "operator:type": "public", "operator:wikidata": "Q668687", "ref": "9258700000"}, "type": "Feature"}
{"dataset_attributes": {"@spider": "usps_collection_boxes", "spider:collection_time": "2023-12-28T08:25:01.581378"}, "geometry": {"coordinates": [-117.25263, 33.671447], "type": "Point"}, "id": "2j8B8USHB6NmR8DmUJqMPhBSLv8=", "properties": {"@spider": "usps_collection_boxes", "addr:city": "CANYON LAKE", "addr:country": "US", "addr:full": "31566 RAILROAD CANYON RD", "addr:postcode": "92587", "addr:state": "CA", "amenity": "post_box", "brand": "United States Postal Service", "brand:wikidata": "Q668687", "collection_times": "Mo-Fr 17:00; Sa 11:30", "name": "USPS COLLECTION BOX - BLUE BOX", "note": "ON 12/24 AND 12/31, THIS BOX MAY BE COLLECTED AS EARLY AS 12 NOON.", "nsi_id": "unitedstatespostalservice-a77078", "operator": "United States Postal Service", "operator:short": "USPS", "operator:type": "public", "operator:wikidata": "Q668687", "ref": "9258700001"}, "type": "Feature"}
{"dataset_attributes": {"@spider": "usps_collection_boxes", "spider:collection_time": "2023-12-28T08:25:01.581378"}, "geometry": {"coordinates": [-117.253386, 33.67186], "type": "Point"}, "id": "h9p8CG_veO6yUS5TpbPV9-lRoLk=", "properties": {"@spider": "usps_collection_boxes", "addr:city": "CANYON LAKE", "addr:country": "US", "addr:full": "31582 RAILROAD CANYON RD", "addr:postcode": "92587", "addr:state": "CA", "amenity": "post_box", "brand": "United States Postal Service", "brand:wikidata": "Q668687", "collection_times": "Mo-Sa 10:00", "name": "USPS COLLECTION BOX - BLUE BOX", "nsi_id": "unitedstatespostalservice-a77078", "operator": "United States Postal Service", "operator:short": "USPS", "operator:type": "public", "operator:wikidata": "Q668687", "ref": "9258700003"}, "type": "Feature"}
{"dataset_attributes": {"@spider": "usps_collection_boxes", "spider:collection_time": "2023-12-28T08:25:01.581378"}, "geometry": {"coordinates": [-117.23588, 33.680827], "type": "Point"}, "id": "bIlaWHbgTimrtLNUJQ_s7De2Qgw=", "properties": {"@spider": "usps_collection_boxes", "addr:city": "CANYON LAKE", "addr:country": "US", "addr:full": "24311 CANYON LAKE DR N", "addr:postcode": "92587", "addr:state": "CA", "amenity": "post_box", "brand": "United States Postal Service", "brand:wikidata": "Q668687", "collection_times": "Mo-Sa 10:00", "name": "USPS COLLECTION BOX - BLUE BOX", "nsi_id": "unitedstatespostalservice-a77078", "operator": "United States Postal Service", "operator:short": "USPS", "operator:type": "public", "operator:wikidata": "Q668687", "ref": "9258700006"}, "type": "Feature"}
{"dataset_attributes": {"@spider": "usps_collection_boxes", "spider:collection_time": "2023-12-28T08:25:01.581378"}, "geometry": {"coordinates": [-117.254747, 33.67491], "type": "Point"}, "id": "2Xkz4rnGVwTsYmbz-IKLLb7IuhQ=", "properties": {"@spider": "usps_collection_boxes", "addr:city": "CANYON LAKE", "addr:country": "US", "addr:full": "23283 CANYON LAKE DR S", "addr:postcode": "92587", "addr:state": "CA", "amenity": "post_box", "brand": "United States Postal Service", "brand:wikidata": "Q668687", "collection_times": "Mo-Sa 11:00", "name": "USPS COLLECTION BOX - BLUE BOX", "nsi_id": "unitedstatespostalservice-a77078", "operator": "United States Postal Service", "operator:short": "USPS", "operator:type": "public", "operator:wikidata": "Q668687", "ref": "9258700008"}, "type": "Feature"}
{"dataset_attributes": {"@spider": "usps_collection_boxes", "spider:collection_time": "2023-12-28T08:25:01.581378"}, "geometry": {"coordinates": [-117.166127, 33.519728], "type": "Point"}, "id": "p9ZUwdgUgxJx2EY-ve57pFBKBY0=", "properties": {"@spider": "usps_collection_boxes", "addr:city": "TEMECULA", "addr:country": "US", "addr:full": "41630 ENTERPRISE CIR S", "addr:postcode": "92590", "addr:state": "CA", "amenity": "post_box", "brand": "United States Postal Service", "brand:wikidata": "Q668687", "collection_times": "Mo-Sa 12:00", "name": "USPS COLLECTION BOX - BLUE BOX", "nsi_id": "unitedstatespostalservice-a77078", "operator": "United States Postal Service", "operator:short": "USPS", "operator:type": "public", "operator:wikidata": "Q668687", "ref": "9259000001"}, "type": "Feature"}
{"dataset_attributes": {"@spider": "usps_collection_boxes", "spider:collection_time": "2023-12-28T08:25:01.581378"}, "geometry": {"coordinates": [-117.159615, 33.512516], "type": "Point"}, "id": "LyYCglNo0Rjg0OamoCdZ1C2wc2c=", "properties": {"@spider": "usps_collection_boxes", "addr:city": "TEMECULA", "addr:country": "US", "addr:full": "27715 JEFFERSON AVE", "addr:postcode": "92590", "addr:state": "CA", "amenity": "post_box", "brand": "United States Postal Service", "brand:wikidata": "Q668687", "collection_times": "Mo-Sa 12:00", "name": "USPS COLLECTION BOX - BLUE BOX", "nsi_id": "unitedstatespostalservice-a77078", "operator": "United States Postal Service", "operator:short": "USPS", "operator:type": "public", "operator:wikidata": "Q668687", "ref": "9259000003"}, "type": "Feature"}
{"dataset_attributes": {"@spider": "usps_collection_boxes", "spider:collection_time": "2023-12-28T08:25:01.581378"}, "geometry": {"coordinates": [-117.1682700129, 33.5125310177], "type": "Point"}, "id": "DhtZumvojgmWnx5shAayeM8nLLI=", "properties": {"@spider": "usps_collection_boxes", "addr:city": "TEMECULA", "addr:country": "US", "addr:full": "42030 AVENIDA ALVARADO", "addr:postcode": "92590", "addr:state": "CA", "amenity": "post_box", "brand": "United States Postal Service", "brand:wikidata": "Q668687", "collection_times": "Mo-Sa 12:00", "name": "USPS COLLECTION BOX - BLUE BOX", "nsi_id": "unitedstatespostalservice-a77078", "operator": "United States Postal Service", "operator:short": "USPS", "operator:type": "public", "operator:wikidata": "Q668687", "ref": "9259000005"}, "type": "Feature"}
{"dataset_attributes": {"@spider": "usps_collection_boxes", "spider:collection_time": "2023-12-28T08:25:01.581378"}, "geometry": {"coordinates": [-117.152211, 33.496808], "type": "Point"}, "id": "IFmnza14_q15LyCE3CTq0mXQYv8=", "properties": {"@spider": "usps_collection_boxes", "addr:city": "TEMECULA", "addr:country": "US", "addr:full": "28360 FRONT ST", "addr:postcode": "92590", "addr:state": "CA", "amenity": "post_box", "brand": "United States Postal Service", "brand:wikidata": "Q668687", "collection_times": "Mo-Fr 17:00; Sa 15:30", "name": "USPS COLLECTION BOX - BLUE BOX", "note": "ON 12/24 AND 12/31, THIS BOX MAY BE COLLECTED AS EARLY AS 12 NOON.", "nsi_id": "unitedstatespostalservice-a77078", "operator": "United States Postal Service", "operator:short": "USPS", "operator:type": "public", "operator:wikidata": "Q668687", "ref": "9259000011"}, "type": "Feature"}
{"dataset_attributes": {"@spider": "usps_collection_boxes", "spider:collection_time": "2023-12-28T08:25:01.581378"}, "geometry": {"coordinates": [-117.152213, 33.496806], "type": "Point"}, "id": "cocyojIa2KnMWGfVSUWb6K3qzcU=", "properties": {"@spider": "usps_collection_boxes", "addr:city": "TEMECULA", "addr:country": "US", "addr:full": "28360 FRONT ST", "addr:postcode": "92590", "addr:state": "CA", "amenity": "post_box", "brand": "United States Postal Service", "brand:wikidata": "Q668687", "collection_times": "Mo-Fr 17:00; Sa 15:30", "name": "USPS COLLECTION BOX - EXPRESS", "note": "ON 12/24 AND 12/31, THIS BOX MAY BE COLLECTED AS EARLY AS 12 NOON.", "nsi_id": "unitedstatespostalservice-a77078", "operator": "United States Postal Service", "operator:short": "USPS", "operator:type": "public", "operator:wikidata": "Q668687", "ref": "9259000013"}, "type": "Feature"}
{"dataset_attributes": {"@spider": "usps_collection_boxes", "spider:collection_time": "2023-12-28T08:25:01.581378"}, "geometry": {"coordinates": [-117.170265, 33.512232], "type": "Point"}, "id": "yAumBJIXQitpkn9sIpphQNLVWXg=", "properties": {"@spider": "usps_collection_boxes", "addr:city": "TEMECULA", "addr:country": "US", "addr:full": "27460 AQUA VISTA WAY", "addr:postcode": "92590", "addr:state": "CA", "amenity": "post_box", "brand": "United States Postal Service", "brand:wikidata": "Q668687", "collection_times": "Mo-Sa 12:00", "name": "USPS COLLECTION BOX - BLUE BOX", "nsi_id": "unitedstatespostalservice-a77078", "operator": "United States Postal Service", "operator:short": "USPS", "operator:type": "public", "operator:wikidata": "Q668687", "ref": "9259000018"}, "type": "Feature"}
{"dataset_attributes": {"@spider": "usps_collection_boxes", "spider:collection_time": "2023-12-28T08:25:01.581378"}, "geometry": {"coordinates": [-117.152223, 33.496808], "type": "Point"}, "id": "zvSPpBy13urXBuJkPtyJcPm7rgo=", "properties": {"@spider": "usps_collection_boxes", "addr:city": "TEMECULA", "addr:country": "US", "addr:full": "28360 FRONT ST", "addr:postcode": "92590", "addr:state": "CA", "amenity": "post_box", "brand": "United States Postal Service", "brand:wikidata": "Q668687", "collection_times": "Mo-Fr 17:00; Sa 15:30", "name": "USPS COLLECTION BOX - BLUE BOX", "note": "ON 12/24 AND 12/31, THIS BOX MAY BE COLLECTED AS EARLY AS 12 NOON.", "nsi_id": "unitedstatespostalservice-a77078", "operator": "United States Postal Service", "operator:short": "USPS", "operator:type": "public", "operator:wikidata": "Q668687", "ref": "9259000019"}, "type": "Feature"}
{"dataset_attributes": {"@spider": "usps_collection_boxes", "spider:collection_time": "2023-12-28T08:25:01.581378"}, "geometry": {"coordinates": [-117.1527184352, 33.4968042351], "type": "Point"}, "id": "zzJQqSTfldP89Ucu2Pgdm2odwHo=", "properties": {"@spider": "usps_collection_boxes", "addr:city": "TEMECULA", "addr:country": "US", "addr:full": "28360 OLD TOWN FRONT ST", "addr:postcode": "92590", "addr:state": "CA", "amenity": "post_box", "brand": "United States Postal Service", "brand:wikidata": "Q668687", "collection_times": "Mo-Fr 17:00", "name": "USPS COLLECTION BOX - PO LOBBY", "note": "ON 12/24 AND 12/31, THIS BOX MAY BE COLLECTED AS EARLY AS 12 NOON.", "nsi_id": "unitedstatespostalservice-a77078", "operator": "United States Postal Service", "operator:short": "USPS", "operator:type": "public", "operator:wikidata": "Q668687", "ref": "9259000021"}, "type": "Feature"}
{"dataset_attributes": {"@spider": "usps_collection_boxes", "spider:collection_time": "2023-12-28T08:25:01.581378"}, "geometry": {"coordinates": [-117.1495032115, 33.5040471136], "type": "Point"}, "id": "L2xuhXRL_Fhao4lJm6dGt7wdl4c=", "properties": {"@spider": "usps_collection_boxes", "addr:city": "TEMECULA", "addr:country": "US", "addr:full": "27555 YNEZ RD", "addr:postcode": "92591", "addr:state": "CA", "amenity": "post_box", "brand": "United States Postal Service", "brand:wikidata": "Q668687", "collection_times": "Mo-Sa 12:00", "name": "USPS COLLECTION BOX - BLUE BOX", "nsi_id": "unitedstatespostalservice-a77078", "operator": "United States Postal Service", "operator:short": "USPS", "operator:type": "public", "operator:wikidata": "Q668687", "ref": "9259100011"}, "type": "Feature"}
{"dataset_attributes": {"@spider": "usps_collection_boxes", "spider:collection_time": "2023-12-28T08:25:01.581378"}, "geometry": {"coordinates": [-117.123223, 33.507539], "type": "Point"}, "id": "B1rnP54MnFO1u_M-qVxB4x4g4y8=", "properties": {"@spider": "usps_collection_boxes", "addr:city": "TEMECULA", "addr:country": "US", "addr:full": "30777 RANCHO CA RD", "addr:postcode": "92591", "addr:state": "CA", "amenity": "post_box", "brand": "United States Postal Service", "brand:wikidata": "Q668687", "collection_times": "Mo-Sa 17:00", "name": "USPS COLLECTION BOX - BLUE BOX", "note": "ON 12/24 AND 12/31, THIS BOX MAY BE COLLECTED AS EARLY AS 12 NOON.", "nsi_id": "unitedstatespostalservice-a77078", "operator": "United States Postal Service", "operator:short": "USPS", "operator:type": "public", "operator:wikidata": "Q668687", "ref": "9259100013"}, "type": "Feature"}
{"dataset_attributes": {"@spider": "usps_collection_boxes", "spider:collection_time": "2023-12-28T08:25:01.581378"}, "geometry": {"coordinates": [-117.152689, 33.532323], "type": "Point"}, "id": "mGjFbkpuEMLlA3RFhTXv6gOBT10=", "properties": {"@spider": "usps_collection_boxes", "addr:city": "TEMECULA", "addr:country": "US", "addr:full": "40435 WINCHESTER RD", "addr:postcode": "92591", "addr:state": "CA", "amenity": "post_box", "brand": "United States Postal Service", "brand:wikidata": "Q668687", "collection_times": "Mo-Sa 12:00", "name": "USPS COLLECTION BOX - BLUE BOX", "nsi_id": "unitedstatespostalservice-a77078", "operator": "United States Postal Service", "operator:short": "USPS", "operator:type": "public", "operator:wikidata": "Q668687", "ref": "9259100017"}, "type": "Feature"}
{"dataset_attributes": {"@spider": "usps_collection_boxes", "spider:collection_time": "2023-12-28T08:25:01.581378"}, "geometry": {"coordinates": [-117.123262, 33.507754], "type": "Point"}, "id": "atO59bAb75uy3s_fXvUdFBxuat8=", "properties": {"@spider": "usps_collection_boxes", "addr:city": "TEMECULA", "addr:country": "US", "addr:full": "30777 RANCHO CA RD", "addr:postcode": "92591", "addr:state": "CA", "amenity": "post_box", "brand": "United States Postal Service", "brand:wikidata": "Q668687", "collection_times": "Mo-Sa 17:00", "name": "USPS COLLECTION BOX - APC", "note": "ON 12/24 AND 12/31, THIS BOX MAY BE COLLECTED AS EARLY AS 12 NOON.", "nsi_id": "unitedstatespostalservice-a77078", "operator": "United States Postal Service", "operator:short": "USPS", "operator:type": "public", "operator:wikidata": "Q668687", "ref": "9259100021"}, "type": "Feature"}
{"dataset_attributes": {"@spider": "usps_collection_boxes", "spider:collection_time": "2023-12-28T08:25:01.581378"}, "geometry": {"coordinates": [-117.149251, 33.506602], "type": "Point"}, "id": "Ka6f_JBYiZ3Ofn_mOA94qtzv9gQ=", "properties": {"@spider": "usps_collection_boxes", "addr:city": "TEMECULA", "addr:country": "US", "addr:full": "27450 YNEZ RD", "addr:postcode": "92591", "addr:state": "CA", "amenity": "post_box", "brand": "United States Postal Service", "brand:wikidata": "Q668687", "collection_times": "Mo-Sa 12:00", "name": "USPS COLLECTION BOX - BLUE BOX", "nsi_id": "unitedstatespostalservice-a77078", "operator": "United States Postal Service", "operator:short": "USPS", "operator:type": "public", "operator:wikidata": "Q668687", "ref": "9259100023"}, "type": "Feature"}
{"dataset_attributes": {"@spider": "usps_collection_boxes", "spider:collection_time": "2023-12-28T08:25:01.581378"}, "geometry": {"coordinates": [-117.1231562344, 33.5077277898], "type": "Point"}, "id": "vrimgpu8dJJndR-ea89aybXEs88=", "properties": {"@spider": "usps_collection_boxes", "addr:city": "TEMECULA", "addr:country": "US", "addr:full": "30777 RANCHO CALIFORNIA RD", "addr:postcode": "92591", "addr:state": "CA", "amenity": "post_box", "brand": "United States Postal Service", "brand:wikidata": "Q668687", "collection_times": "Mo-Fr 17:00", "name": "USPS COLLECTION BOX - PO LOBBY", "note": "ON 12/24 AND 12/31, THIS BOX MAY BE COLLECTED AS EARLY AS 12 NOON.", "nsi_id": "unitedstatespostalservice-a77078", "operator": "United States Postal Service", "operator:short": "USPS", "operator:type": "public", "operator:wikidata": "Q668687", "ref": "9259100037"}, "type": "Feature"}
{"dataset_attributes": {"@spider": "usps_collection_boxes", "spider:collection_time": "2023-12-28T08:25:01.581378"}, "geometry": {"coordinates": [-117.123983976, 33.4723079826], "type": "Point"}, "id": "N6lc6c0PXvANOyqBF6IMQukZMek=", "properties": {"@spider": "usps_collection_boxes", "addr:city": "TEMECULA", "addr:country": "US", "addr:full": "44564 PECHANGA PKWY", "addr:postcode": "92592", "addr:state": "CA", "amenity": "post_box", "brand": "United States Postal Service", "brand:wikidata": "Q668687", "collection_times": "Mo-Fr 12:00; Sa 14:00", "name": "USPS COLLECTION BOX - BLUE BOX", "note": "ON 12/24 AND 12/31, THIS BOX MAY BE COLLECTED AS EARLY AS 12 NOON.", "nsi_id": "unitedstatespostalservice-a77078", "operator": "United States Postal Service", "operator:short": "USPS", "operator:type": "public", "operator:wikidata": "Q668687", "ref": "9259200002"}, "type": "Feature"}
{"dataset_attributes": {"@spider": "usps_collection_boxes", "spider:collection_time": "2023-12-28T08:25:01.581378"}, "geometry": {"coordinates": [-117.2764653252, 33.6060732083], "type": "Point"}, "id": "-Q_4MWxUmiIf98n7HZCWMdez6xg=", "properties": {"@spider": "usps_collection_boxes", "addr:city": "WILDOMAR", "addr:country": "US", "addr:full": "21392 PALOMAR ST", "addr:postcode": "92595", "addr:state": "CA", "amenity": "post_box", "brand": "United States Postal Service", "brand:wikidata": "Q668687", "collection_times": "Mo-Fr 16:30; Sa 13:30", "name": "USPS COLLECTION BOX - BLUE BOX", "note": "ON 12/24 AND 12/31, THIS BOX MAY BE COLLECTED AS EARLY AS 12 NOON.", "nsi_id": "unitedstatespostalservice-a77078", "operator": "United States Postal Service", "operator:short": "USPS", "operator:type": "public", "operator:wikidata": "Q668687", "ref": "9259500004"}, "type": "Feature"}
{"dataset_attributes": {"@spider": "usps_collection_boxes", "spider:collection_time": "2023-12-28T08:25:01.581378"}, "geometry": {"coordinates": [-117.2764653252, 33.6060732083], "type": "Point"}, "id": "hKqeitk_1aQ-MZWPgH6ymV7tHJI=", "properties": {"@spider": "usps_collection_boxes", "addr:city": "WILDOMAR", "addr:country": "US", "addr:full": "21392 PALOMAR ST", "addr:postcode": "92595", "addr:state": "CA", "amenity": "post_box", "brand": "United States Postal Service", "brand:wikidata": "Q668687", "collection_times": "Mo-Fr 16:30; Sa 13:30", "name": "USPS COLLECTION BOX - BLUE BOX", "note": "ON 12/24 AND 12/31, THIS BOX MAY BE COLLECTED AS EARLY AS 12 NOON.", "nsi_id": "unitedstatespostalservice-a77078", "operator": "United States Postal Service", "operator:short": "USPS", "operator:type": "public", "operator:wikidata": "Q668687", "ref": "9259500005"}, "type": "Feature"}
{"dataset_attributes": {"@spider": "usps_collection_boxes", "spider:collection_time": "2023-12-28T08:25:01.581378"}, "geometry": {"coordinates": [-117.236678, 33.59101], "type": "Point"}, "id": "kPF5OLg2kiFLOlCZrdwJ5DICIGI=", "properties": {"@spider": "usps_collection_boxes", "addr:city": "WILDOMAR", "addr:country": "US", "addr:full": "36450 INLAND VALLEY DR", "addr:postcode": "92595", "addr:state": "CA", "amenity": "post_box", "brand": "United States Postal Service", "brand:wikidata": "Q668687", "collection_times": "Mo-Sa 12:00", "name": "USPS COLLECTION BOX - BLUE BOX", "nsi_id": "unitedstatespostalservice-a77078", "operator": "United States Postal Service", "operator:short": "USPS", "operator:type": "public", "operator:wikidata": "Q668687", "ref": "9259500006"}, "type": "Feature"}
{"dataset_attributes": {"@spider": "usps_collection_boxes", "spider:collection_time": "2023-12-28T08:25:01.581378"}, "geometry": {"coordinates": [-117.251815, 33.5904], "type": "Point"}, "id": "CFFsTjvZX6GB6bD-lYW3VZN1VB0=", "properties": {"@spider": "usps_collection_boxes", "addr:city": "WILDOMAR", "addr:country": "US", "addr:full": "32395 CLINTON KEITH RD", "addr:postcode": "92595", "addr:state": "CA", "amenity": "post_box", "brand": "United States Postal Service", "brand:wikidata": "Q668687", "collection_times": "Mo-Sa 12:15", "name": "USPS COLLECTION BOX - BLUE BOX", "note": "ON 12/24 AND 12/31, THIS BOX MAY BE COLLECTED AS EARLY AS 12 NOON.", "nsi_id": "unitedstatespostalservice-a77078", "operator": "United States Postal Service", "operator:short": "USPS", "operator:type": "public", "operator:wikidata": "Q668687", "ref": "9259500007"}, "type": "Feature"}
{"dataset_attributes": {"@spider": "usps_collection_boxes", "spider:collection_time": "2023-12-28T08:25:01.581378"}, "geometry": {"coordinates": [-117.2733972, 33.6015304], "type": "Point"}, "id": "BV46WV4EHH9bVfK8vK4tr3JnIJI=", "properties": {"@spider": "usps_collection_boxes", "addr:city": "WILDOMAR", "addr:country": "US", "addr:full": "33430 HARVEST WAY", "addr:postcode": "92595", "addr:state": "CA", "amenity": "post_box", "brand": "United States Postal Service", "brand:wikidata": "Q668687", "collection_times": "Mo-Sa 12:30", "name": "USPS COLLECTION BOX - BLUE BOX", "note": "ON 12/24 AND 12/31, THIS BOX MAY BE COLLECTED AS EARLY AS 12 NOON.", "nsi_id": "unitedstatespostalservice-a77078", "operator": "United States Postal Service", "operator:short": "USPS", "operator:type": "public", "operator:wikidata": "Q668687", "ref": "9259500009"}, "type": "Feature"}
{"dataset_attributes": {"@spider": "usps_collection_boxes", "spider:collection_time": "2023-12-28T08:25:01.581378"}, "geometry": {"coordinates": [-117.290310673, 33.6282437225], "type": "Point"}, "id": "u_2KkpcQME1jXAU0NwvsdgBGjqo=", "properties": {"@spider": "usps_collection_boxes", "addr:city": "WILDOMAR", "addr:country": "US", "addr:full": "33900 MISSION TRL", "addr:postcode": "92595", "addr:state": "CA", "amenity": "post_box", "brand": "United States Postal Service", "brand:wikidata": "Q668687", "collection_times": "Mo-Sa 12:30", "name": "USPS COLLECTION BOX - BLUE BOX", "note": "ON 12/24 AND 12/31, THIS BOX MAY BE COLLECTED AS EARLY AS 12 NOON.", "nsi_id": "unitedstatespostalservice-a77078", "operator": "United States Postal Service", "operator:short": "USPS", "operator:type": "public", "operator:wikidata": "Q668687", "ref": "9259500010"}, "type": "Feature"}
{"dataset_attributes": {"@spider": "usps_collection_boxes", "spider:collection_time": "2023-12-28T08:25:01.581378"}, "geometry": {"coordinates": [-117.2764682124, 33.6060672204], "type": "Point"}, "id": "BDkxd0NPOVkVkX3aRxkhGRWTZy0=", "properties": {"@spider": "usps_collection_boxes", "addr:city": "WILDOMAR", "addr:country": "US", "addr:full": "21392 PALOMAR ST", "addr:postcode": "92595", "addr:state": "CA", "amenity": "post_box", "brand": "United States Postal Service", "brand:wikidata": "Q668687", "collection_times": "Mo-Fr 17:00", "name": "USPS COLLECTION BOX - PO LOBBY", "note": "ON 12/24 AND 12/31, THIS BOX MAY BE COLLECTED AS EARLY AS 12 NOON.", "nsi_id": "unitedstatespostalservice-a77078", "operator": "United States Postal Service", "operator:short": "USPS", "operator:type": "public", "operator:wikidata": "Q668687", "ref": "9259500013"}, "type": "Feature"}
{"dataset_attributes": {"@spider": "usps_collection_boxes", "spider:collection_time": "2023-12-28T08:25:01.581378"}, "geometry": {"coordinates": [-117.084956482, 33.7079248637], "type": "Point"}, "id": "Hwcotp0EGqkYfjD0dEltQEPXUsg=", "properties": {"@spider": "usps_collection_boxes", "addr:city": "WINCHESTER", "addr:country": "US", "addr:full": "28453 WINCHESTER RD", "addr:postcode": "92596", "addr:state": "CA", "amenity": "post_box", "brand": "United States Postal Service", "brand:wikidata": "Q668687", "collection_times": "Mo-Fr 16:30", "name": "USPS COLLECTION BOX - PO LOBBY", "note": "ON 12/24 AND 12/31, THIS BOX MAY BE COLLECTED AS EARLY AS 12 NOON.", "nsi_id": "unitedstatespostalservice-a77078", "operator": "United States Postal Service", "operator:short": "USPS", "operator:type": "public", "operator:wikidata": "Q668687", "ref": "9259600008"}, "type": "Feature"}
