{"geometry": {"coordinates": [-117.8683569924, 33.7493090116], "type": "Point"}, "id": "9kCNwJADx7sZRK7LFQb0SR0Cx0Y=", "properties": {"@source_uri": "https://tools.usps.com/UspsToolsRestServices/rest/POLocator/findLocations", "@spider": "usps_collection_boxes", "addr:city": "SANTA ANA", "addr:country": "US", "addr:postcode": "92701", "addr:state": "CA", "addr:street_address": "515 N SYCAMORE ST", "amenity": "post_box", "brand": "United States Postal Service", "brand:wikidata": "Q668687", "collection_times": "Mo-Sa 10:00", "nsi_id": "unitedstatespostalservice-a77078", "operator": "United States Postal Service", "operator:short": "USPS", "operator:type": "public", "operator:wikidata": "Q668687", "ref": "9270100004"}, "type": "Feature"}
{"geometry": {"coordinates": [-117.871185, 33.75164], "type": "Point"}, "id": "TDQNxRAPobeddIjUbcRg7kzLY3I=", "properties": {"@source_uri": "https://tools.usps.com/UspsToolsRestServices/rest/POLocator/findLocations", "@spider": "usps_collection_boxes", "addr:city": "SANTA ANA", "addr:country": "US", "addr:postcode": "92701", "addr:state": "CA", "addr:street_address": "433 W CIVIC CENTER DR", "amenity": "post_box", "brand": "United States Postal Service", "brand:wikidata": "Q668687", "collection_times": "Mo-Sa 10:00", "nsi_id": "unitedstatespostalservice-a77078", "operator": "United States Postal Service", "operator:short": "USPS", "operator:type": "public", "operator:wikidata": "Q668687", "ref": "9270100012"}, "type": "Feature"}
{"geometry": {"coordinates": [-117.866523, 33.750363], "type": "Point"}, "id": "f_B8HJ8BIZ_vy-wpdvKkf8B8AII=", "properties": {"@source_uri": "https://tools.usps.com/UspsToolsRestServices/rest/POLocator/findLocations", "@spider": "usps_collection_boxes", "addr:city": "SANTA ANA", "addr:country": "US", "addr:postcode": "92701", "addr:state": "CA", "addr:street_address": "615 N BUSH ST", "amenity": "post_box", "brand": "United States Postal Service", "brand:wikidata": "Q668687", "collection_times": "Mo-Fr 17:00; Sa 15:00", "note": "ON 12/24 AND 12/31, THIS BOX MAY BE COLLECTED AS EARLY AS 12 NOON.", "nsi_id": "unitedstatespostalservice-a77078", "operator": "United States Postal Service", "operator:short": "USPS", "operator:type": "public", "operator:wikidata": "Q668687", "ref": "9270100043"}, "type": "Feature"}
{"geometry": {"coordinates": [-117.846273, 33.74823], "type": "Point"}, "id": "pa86-yJFQojKDOs6VM_B_VScScM=", "properties": {"@source_uri": "https://tools.usps.com/UspsToolsRestServices/rest/POLocator/findLocations", "@spider": "usps_collection_boxes", "addr:city": "SANTA ANA", "addr:country": "US", "addr:postcode": "92701", "addr:state": "CA", "addr:street_address": "1633 E 4TH ST", "amenity": "post_box", "brand": "United States Postal Service", "brand:wikidata": "Q668687", "collection_times": "Mo-Sa 10:00", "nsi_id": "unitedstatespostalservice-a77078", "operator": "United States Postal Service", "operator:short": "USPS", "operator:type": "public", "operator:wikidata": "Q668687", "ref": "9270100049"}, "type": "Feature"}
{"geometry": {"coordinates": [-117.872524, 33.747792], "type": "Point"}, "id": "skNs01vAOxLCaqD4g09qDHLpyaQ=", "properties": {"@source_uri": "https://tools.usps.com/UspsToolsRestServices/rest/POLocator/findLocations", "@spider": "usps_collection_boxes", "addr:city": "SANTA ANA", "addr:country": "US", "addr:postcode": "92701", "addr:state": "CA", "addr:street_address": "500 W SANTA ANA BLVD", "amenity": "post_box", "brand": "United States Postal Service", "brand:wikidata": "Q668687", "collection_times": "Mo-Sa 10:00", "nsi_id": "unitedstatespostalservice-a77078", "operator": "United States Postal Service", "operator:short": "USPS", "operator:type": "public", "operator:wikidata": "Q668687", "ref": "9270100060"}, "type": "Feature"}
{"geometry": {"coordinates": [-117.874045, 33.748682], "type": "Point"}, "id": "bNgtzMlm7G4AMMyl-XU3m7jO7Uo=", "properties": {"@source_uri": "https://tools.usps.com/UspsToolsRestServices/rest/POLocator/findLocations", "@spider": "usps_collection_boxes", "addr:city": "SANTA ANA", "addr:country": "US", "addr:postcode": "92701", "addr:state": "CA", "addr:street_address": "28 CIVIC CENTER PLZ", "amenity": "post_box", "brand": "United States Postal Service", "brand:wikidata": "Q668687", "collection_times": "Mo-Fr 10:00", "nsi_id": "unitedstatespostalservice-a77078", "operator": "United States Postal Service", "operator:short": "USPS", "operator:type": "public", "operator:wikidata": "Q668687", "ref": "9270100064"}, "type": "Feature"}
{"geometry": {"coordinates": [-117.8665714237, 33.7501961321], "type": "Point"}, "id": "7Av4-627U70BVto2G6ODhLzQioY=", "properties": {"@source_uri": "https://tools.usps.com/UspsToolsRestServices/rest/POLocator/findLocations", "@spider": "usps_collection_boxes", "addr:city": "SANTA ANA", "addr:country": "US", "addr:postcode": "92701", "addr:state": "CA", "addr:street_address": "615 N BUSH ST", "amenity": "post_box", "brand": "United States Postal Service", "brand:wikidata": "Q668687", "collection_times": "Mo-Fr 17:00; Sa 15:00", "note": "ON 12/24 AND 12/31, THIS BOX MAY BE COLLECTED AS EARLY AS 12 NOON.", "nsi_id": "unitedstatespostalservice-a77078", "operator": "United States Postal Service", "operator:short": "USPS", "operator:type": "public", "operator:wikidata": "Q668687", "ref": "9270100076"}, "type": "Feature"}
{"geometry": {"coordinates": [-117.866591, 33.750343], "type": "Point"}, "id": "iD4C1FwIwmIx0AjYKkGrLdc5yrk=", "properties": {"@source_uri": "https://tools.usps.com/UspsToolsRestServices/rest/POLocator/findLocations", "@spider": "usps_collection_boxes", "addr:city": "SANTA ANA", "addr:country": "US", "addr:postcode": "92701", "addr:state": "CA", "addr:street_address": "615 N BUSH ST", "amenity": "post_box", "brand": "United States Postal Service", "brand:wikidata": "Q668687", "collection_times": "Mo-Fr 17:00; Sa 15:00", "note": "ON 12/24 AND 12/31, THIS BOX MAY BE COLLECTED AS EARLY AS 12 NOON.", "nsi_id": "unitedstatespostalservice-a77078", "operator": "United States Postal Service", "operator:short": "USPS", "operator:type": "public", "operator:wikidata": "Q668687", "ref": "9270100077"}, "type": "Feature"}
{"geometry": {"coordinates": [-117.866539, 33.750392], "type": "Point"}, "id": "tMDOXNYWRN9qToOo7gLvfrj91mQ=", "properties": {"@source_uri": "https://tools.usps.com/UspsToolsRestServices/rest/POLocator/findLocations", "@spider": "usps_collection_boxes", "addr:city": "SANTA ANA", "addr:country": "US", "addr:postcode": "92701", "addr:state": "CA", "addr:street_address": "615 N BUSH ST", "amenity": "post_box", "brand": "United States Postal Service", "brand:wikidata": "Q668687", "collection_times": "Mo-Fr 17:00; Sa 15:00", "note": "ON 12/24 AND 12/31, THIS BOX MAY BE COLLECTED AS EARLY AS 12 NOON.", "nsi_id": "unitedstatespostalservice-a77078", "operator": "United States Postal Service", "operator:short": "USPS", "operator:type": "public", "operator:wikidata": "Q668687", "ref": "9270100078"}, "type": "Feature"}
{"geometry": {"coordinates": [-117.866511, 33.750365], "type": "Point"}, "id": "4h8fupaSfqaJ4rEG02oxcnR-dA0=", "properties": {"@source_uri": "https://tools.usps.com/UspsToolsRestServices/rest/POLocator/findLocations", "@spider": "usps_collection_boxes", "addr:city": "SANTA ANA", "addr:country": "US", "addr:postcode": "92701", "addr:state": "CA", "addr:street_address": "615 N BUSH ST", "amenity": "post_box", "brand": "United States Postal Service", "brand:wikidata": "Q668687", "collection_times": "Mo-Fr 17:00; Sa 15:00", "note": "ON 12/24 AND 12/31, THIS BOX MAY BE COLLECTED AS EARLY AS 12 NOON.", "nsi_id": "unitedstatespostalservice-a77078", "operator": "United States Postal Service", "operator:short": "USPS", "operator:type": "public", "operator:wikidata": "Q668687", "ref": "9270100079"}, "type": "Feature"}
{"geometry": {"coordinates": [-117.866513, 33.75023], "type": "Point"}, "id": "gn7mmE5yMiUs4VhKUAzgw5HypUE=", "properties": {"@source_uri": "https://tools.usps.com/UspsToolsRestServices/rest/POLocator/findLocations", "@spider": "usps_collection_boxes", "addr:city": "SANTA ANA", "addr:country": "US", "addr:postcode": "92701", "addr:state": "CA", "addr:street_address": "615 N BUSH", "amenity": "post_box", "brand": "United States Postal Service", "brand:wikidata": "Q668687", "collection_times": "Mo-Fr 17:00; Sa 15:00", "indoor": "yes", "note": "ON 12/24 AND 12/31, THIS BOX MAY BE COLLECTED AS EARLY AS 12 NOON.", "nsi_id": "unitedstatespostalservice-a77078", "operator": "United States Postal Service", "operator:short": "USPS", "operator:type": "public", "operator:wikidata": "Q668687", "ref": "9270100099"}, "type": "Feature"}
{"geometry": {"coordinates": [-117.872529, 33.747779], "type": "Point"}, "id": "T9BQFwEvrGlRiOnqok666yy3sxg=", "properties": {"@source_uri": "https://tools.usps.com/UspsToolsRestServices/rest/POLocator/findLocations", "@spider": "usps_collection_boxes", "addr:city": "SANTA ANA", "addr:country": "US", "addr:postcode": "92701", "addr:state": "CA", "addr:street_address": "500 W SANTA ANA BLVD", "amenity": "post_box", "brand": "United States Postal Service", "brand:wikidata": "Q668687", "collection_times": "Mo-Sa 10:00", "nsi_id": "unitedstatespostalservice-a77078", "operator": "United States Postal Service", "operator:short": "USPS", "operator:type": "public", "operator:wikidata": "Q668687", "ref": "9270100107"}, "type": "Feature"}
{"geometry": {"coordinates": [-117.874046, 33.748689], "type": "Point"}, "id": "eGbBR3wJuiAtD3bSCAR0fdoHY3E=", "properties": {"@source_uri": "https://tools.usps.com/UspsToolsRestServices/rest/POLocator/findLocations", "@spider": "usps_collection_boxes", "addr:city": "SANTA ANA", "addr:country": "US", "addr:postcode": "92701", "addr:state": "CA", "addr:street_address": "28 CIVIC CENTER PLZ", "amenity": "post_box", "brand": "United States Postal Service", "brand:wikidata": "Q668687", "collection_times": "Mo-Fr 10:00", "nsi_id": "unitedstatespostalservice-a77078", "operator": "United States Postal Service", "operator:short": "USPS", "operator:type": "public", "operator:wikidata": "Q668687", "ref": "9270100109"}, "type": "Feature"}
{"geometry": {"coordinates": [-117.867049, 33.755708], "type": "Point"}, "id": "w_z0iL_BgE743r4NnaASRIxg8G0=", "properties": {"@source_uri": "https://tools.usps.com/UspsToolsRestServices/rest/POLocator/findLocations", "@spider": "usps_collection_boxes", "addr:city": "SANTA ANA", "addr:country": "US", "addr:postcode": "92701", "addr:state": "CA", "addr:street_address": "1303 N MAIN ST", "amenity": "post_box", "brand": "United States Postal Service", "brand:wikidata": "Q668687", "collection_times": "Mo-Sa 10:00", "nsi_id": "unitedstatespostalservice-a77078", "operator": "United States Postal Service", "operator:short": "USPS", "operator:type": "public", "operator:wikidata": "Q668687", "ref": "9270100114"}, "type": "Feature"}
{"geometry": {"coordinates": [-117.844815, 33.745665], "type": "Point"}, "id": "Dc4rKph8tUf1p55UjGOSDetq0Ls=", "properties": {"@source_uri": "https://tools.usps.com/UspsToolsRestServices/rest/POLocator/findLocations", "@spider": "usps_collection_boxes", "addr:city": "SANTA ANA", "addr:country": "US", "addr:postcode": "92701", "addr:state": "CA", "addr:street_address": "1647 E 1ST ST", "amenity": "post_box", "brand": "United States Postal Service", "brand:wikidata": "Q668687", "collection_times": "Mo-Sa 10:00", "nsi_id": "unitedstatespostalservice-a77078", "operator": "United States Postal Service", "operator:short": "USPS", "operator:type": "public", "operator:wikidata": "Q668687", "ref": "9270100115"}, "type": "Feature"}
{"geometry": {"coordinates": [-117.86658996, 33.750177632], "type": "Point"}, "id": "QkLpaA_KB9VKGGYi9QZVtlVGoac=", "properties": {"@source_uri": "https://tools.usps.com/UspsToolsRestServices/rest/POLocator/findLocations", "@spider": "usps_collection_boxes", "addr:city": "SANTA ANA", "addr:country": "US", "addr:postcode": "92702", "addr:state": "CA", "addr:street_address": "615 N BUSH ST", "amenity": "post_box", "brand": "United States Postal Service", "brand:wikidata": "Q668687", "collection_times": "Mo-Fr 17:00", "indoor": "yes", "note": "ON 12/24 AND 12/31, THIS BOX MAY BE COLLECTED AS EARLY AS 12 NOON.", "nsi_id": "unitedstatespostalservice-a77078", "operator": "United States Postal Service", "operator:short": "USPS", "operator:type": "public", "operator:wikidata": "Q668687", "ref": "9270200001"}, "type": "Feature"}
{"geometry": {"coordinates": [-117.920285, 33.75458], "type": "Point"}, "id": "IIy9Flz_is2c50quTYDmPeAQ254=", "properties": {"@source_uri": "https://tools.usps.com/UspsToolsRestServices/rest/POLocator/findLocations", "@spider": "usps_collection_boxes", "addr:city": "SANTA ANA", "addr:country": "US", "addr:postcode": "92703", "addr:state": "CA", "addr:street_address": "320 N FLOWER ST", "amenity": "post_box", "brand": "United States Postal Service", "brand:wikidata": "Q668687", "collection_times": "Mo-Fr 10:00", "nsi_id": "unitedstatespostalservice-a77078", "operator": "United States Postal Service", "operator:short": "USPS", "operator:type": "public", "operator:wikidata": "Q668687", "ref": "9270300022"}, "type": "Feature"}
{"geometry": {"coordinates": [-117.89023, 33.745429], "type": "Point"}, "id": "aX1dUDFWViQ6N6KcaihV_C-69fY=", "properties": {"@source_uri": "https://tools.usps.com/UspsToolsRestServices/rest/POLocator/findLocations", "@spider": "usps_collection_boxes", "addr:city": "SANTA ANA", "addr:country": "US", "addr:postcode": "92703", "addr:state": "CA", "addr:street_address": "1620 W 1ST ST", "amenity": "post_box", "brand": "United States Postal Service", "brand:wikidata": "Q668687", "collection_times": "Mo-Fr 17:00; Sa 15:00", "indoor": "yes", "note": "ON 12/24 AND 12/31, THIS BOX MAY BE COLLECTED AS EARLY AS 12 NOON.", "nsi_id": "unitedstatespostalservice-a77078", "operator": "United States Postal Service", "operator:short": "USPS", "operator:type": "public", "operator:wikidata": "Q668687", "ref": "9270300026"}, "type": "Feature"}
{"geometry": {"coordinates": [-117.891000723, 33.7453895206], "type": "Point"}, "id": "ujkNZmP2KlLk7uZ6Yuuyk6hvnvc=", "properties": {"@source_uri": "https://tools.usps.com/UspsToolsRestServices/rest/POLocator/findLocations", "@spider": "usps_collection_boxes", "addr:city": "SANTA ANA", "addr:country": "US", "addr:postcode": "92703", "addr:state": "CA", "addr:street_address": "1620 W 1ST ST", "amenity": "post_box", "brand": "United States Postal Service", "brand:wikidata": "Q668687", "collection_times": "Mo-Fr 17:00", "indoor": "yes", "note": "ON 12/24 AND 12/31, THIS BOX MAY BE COLLECTED AS EARLY AS 12 NOON.", "nsi_id": "unitedstatespostalservice-a77078", "operator": "United States Postal Service", "operator:short": "USPS", "operator:type": "public", "operator:wikidata": "Q668687", "ref": "9270300028"}, "type": "Feature"}
{"geometry": {"coordinates": [-117.884954, 33.71104], "type": "Point"}, "id": "47xe34-bkZ5G1qDxsxbogei39IA=", "properties": {"@source_uri": "https://tools.usps.com/UspsToolsRestServices/rest/POLocator/findLocations", "@spider": "usps_collection_boxes", "addr:city": "SANTA ANA", "addr:country": "US", "addr:postcode": "92704", "addr:state": "CA", "addr:street_address": "2701 S BRISTOL ST", "amenity": "post_box", "brand": "United States Postal Service", "brand:wikidata": "Q668687", "collection_times": "Mo-Sa 10:00", "nsi_id": "unitedstatespostalservice-a77078", "operator": "United States Postal Service", "operator:short": "USPS", "operator:type": "public", "operator:wikidata": "Q668687", "ref": "9270400014"}, "type": "Feature"}
{"geometry": {"coordinates": [-117.884959, 33.711031], "type": "Point"}, "id": "PoP9RyqIFNWhGxa1TFrqdpkH-bg=", "properties": {"@source_uri": "https://tools.usps.com/UspsToolsRestServices/rest/POLocator/findLocations", "@spider": "usps_collection_boxes", "addr:city": "SANTA ANA", "addr:country": "US", "addr:postcode": "92704", "addr:state": "CA", "addr:street_address": "2701 S BRISTOL ST", "amenity": "post_box", "brand": "United States Postal Service", "brand:wikidata": "Q668687", "collection_times": "Mo-Sa 10:00", "nsi_id": "unitedstatespostalservice-a77078", "operator": "United States Postal Service", "operator:short": "USPS", "operator:type": "public", "operator:wikidata": "Q668687", "ref": "9270400080"}, "type": "Feature"}
{"geometry": {"coordinates": [-117.9002597922, 33.7267147374], "type": "Point"}, "id": "f3FLJv2XiMgs7cc6-5Qt7r9UEWI=", "properties": {"@source_uri": "https://tools.usps.com/UspsToolsRestServices/rest/POLocator/findLocations", "@spider": "usps_collection_boxes", "addr:city": "SANTA ANA", "addr:country": "US", "addr:postcode": "92704", "addr:state": "CA", "addr:street_address": "1517 S GREENVILLE ST", "amenity": "post_box", "brand": "United States Postal Service", "brand:wikidata": "Q668687", "collection_times": "Mo-Fr 16:00", "indoor": "yes", "note": "ON 12/24 AND 12/31, THIS BOX MAY BE COLLECTED AS EARLY AS 12 NOON.", "nsi_id": "unitedstatespostalservice-a77078", "operator": "United States Postal Service", "operator:short": "USPS", "operator:type": "public", "operator:wikidata": "Q668687", "ref": "9270400102"}, "type": "Feature"}
{"geometry": {"coordinates": [-117.9002597922, 33.7267147374], "type": "Point"}, "id": "SUZtJo2Y1OznkeA6wuRNr8VhZJQ=", "properties": {"@source_uri": "https://tools.usps.com/UspsToolsRestServices/rest/POLocator/findLocations", "@spider": "usps_collection_boxes", "addr:city": "SANTA ANA", "addr:country": "US", "addr:postcode": "92704", "addr:state": "CA", "addr:street_address": "1517 S GREENVILLE ST", "amenity": "post_box", "brand": "United States Postal Service", "brand:wikidata": "Q668687", "collection_times": "Mo-Fr 16:00", "indoor": "yes", "note": "ON 12/24 AND 12/31, THIS BOX MAY BE COLLECTED AS EARLY AS 12 NOON.", "nsi_id": "unitedstatespostalservice-a77078", "operator": "United States Postal Service", "operator:short": "USPS", "operator:type": "public", "operator:wikidata": "Q668687", "ref": "9270400118"}, "type": "Feature"}
{"geometry": {"coordinates": [-117.838297, 33.746807], "type": "Point"}, "id": "bejc19818hZGnc-PtDWCrz1E3Hc=", "properties": {"@source_uri": "https://tools.usps.com/UspsToolsRestServices/rest/POLocator/findLocations", "@spider": "usps_collection_boxes", "addr:city": "SANTA ANA", "addr:country": "US", "addr:postcode": "92705", "addr:state": "CA", "addr:street_address": "250 N GOLDEN CIRCLE DR", "amenity": "post_box", "brand": "United States Postal Service", "brand:wikidata": "Q668687", "collection_times": "Mo-Sa 10:00", "nsi_id": "unitedstatespostalservice-a77078", "operator": "United States Postal Service", "operator:short": "USPS", "operator:type": "public", "operator:wikidata": "Q668687", "ref": "9270500004"}, "type": "Feature"}
{"geometry": {"coordinates": [-117.8366419663, 33.7680480135], "type": "Point"}, "id": "qRb-8_uWDDKUS6r0YJh7IRrXsqM=", "properties": {"@source_uri": "https://tools.usps.com/UspsToolsRestServices/rest/POLocator/findLocations", "@spider": "usps_collection_boxes", "addr:city": "SANTA ANA", "addr:country": "US", "addr:postcode": "92705", "addr:state": "CA", "addr:street_address": "2360 N TUSTIN AVE", "amenity": "post_box", "brand": "United States Postal Service", "brand:wikidata": "Q668687", "collection_times": "Mo-Sa 10:00", "nsi_id": "unitedstatespostalservice-a77078", "operator": "United States Postal Service", "operator:short": "USPS", "operator:type": "public", "operator:wikidata": "Q668687", "ref": "9270500006"}, "type": "Feature"}
{"geometry": {"coordinates": [-117.841496, 33.708399], "type": "Point"}, "id": "Zv9-B5VX5lS5pX6vfMr2_i5IulI=", "properties": {"@source_uri": "https://tools.usps.com/UspsToolsRestServices/rest/POLocator/findLocations", "@spider": "usps_collection_boxes", "addr:city": "SANTA ANA", "addr:country": "US", "addr:postcode": "92705", "addr:state": "CA", "addr:street_address": "2500 RED HILL AVE", "amenity": "post_box", "brand": "United States Postal Service", "brand:wikidata": "Q668687", "collection_times": "Mo-Sa 10:00", "nsi_id": "unitedstatespostalservice-a77078", "operator": "United States Postal Service", "operator:short": "USPS", "operator:type": "public", "operator:wikidata": "Q668687", "ref": "9270500013"}, "type": "Feature"}
{"geometry": {"coordinates": [-117.833868, 33.754653], "type": "Point"}, "id": "QSTlE9AAeayg-TchOi4V7ldHmQs=", "properties": {"@source_uri": "https://tools.usps.com/UspsToolsRestServices/rest/POLocator/findLocations", "@spider": "usps_collection_boxes", "addr:city": "SANTA ANA", "addr:country": "US", "addr:postcode": "92705", "addr:state": "CA", "addr:street_address": "1001 N TUSTIN AVE", "amenity": "post_box", "brand": "United States Postal Service", "brand:wikidata": "Q668687", "collection_times": "Mo-Sa 10:00", "nsi_id": "unitedstatespostalservice-a77078", "operator": "United States Postal Service", "operator:short": "USPS", "operator:type": "public", "operator:wikidata": "Q668687", "ref": "9270500020"}, "type": "Feature"}
{"geometry": {"coordinates": [-117.851457445, 33.765912116], "type": "Point"}, "id": "NBoXlsoKDd72tQ-JySctoHkMvf0=", "properties": {"@source_uri": "https://tools.usps.com/UspsToolsRestServices/rest/POLocator/findLocations", "@spider": "usps_collection_boxes", "addr:city": "SANTA ANA", "addr:country": "US", "addr:postcode": "92705", "addr:state": "CA", "addr:street_address": "2201 N GRAND AVE", "amenity": "post_box", "brand": "United States Postal Service", "brand:wikidata": "Q668687", "collection_times": "Mo-Fr 17:15; Sa 16:30", "note": "ON 12/24 AND 12/31, THIS BOX MAY BE COLLECTED AS EARLY AS 12 NOON.", "nsi_id": "unitedstatespostalservice-a77078", "operator": "United States Postal Service", "operator:short": "USPS", "operator:type": "public", "operator:wikidata": "Q668687", "ref": "9270500024"}, "type": "Feature"}
{"geometry": {"coordinates": [-117.836438808, 33.755653769], "type": "Point"}, "id": "wMA-yCHwucGSRLOovzP0ZQT1CTE=", "properties": {"@source_uri": "https://tools.usps.com/UspsToolsRestServices/rest/POLocator/findLocations", "@spider": "usps_collection_boxes", "addr:city": "SANTA ANA", "addr:country": "US", "addr:postcode": "92705", "addr:state": "CA", "addr:street_address": "2223 E WELLINGTON AVE", "amenity": "post_box", "brand": "United States Postal Service", "brand:wikidata": "Q668687", "collection_times": "Mo-Sa 10:00", "nsi_id": "unitedstatespostalservice-a77078", "operator": "United States Postal Service", "operator:short": "USPS", "operator:type": "public", "operator:wikidata": "Q668687", "ref": "9270500028"}, "type": "Feature"}
{"geometry": {"coordinates": [-117.8506592215, 33.7060760632], "type": "Point"}, "id": "UywO_BOSCy-_SpILydNNtN6o24w=", "properties": {"@source_uri": "https://tools.usps.com/UspsToolsRestServices/rest/POLocator/findLocations", "@spider": "usps_collection_boxes", "addr:city": "SANTA ANA", "addr:country": "US", "addr:postcode": "92705", "addr:state": "CA", "addr:street_address": "1820 E DEERE AVE", "amenity": "post_box", "brand": "United States Postal Service", "brand:wikidata": "Q668687", "collection_times": "Mo-Sa 10:00", "nsi_id": "unitedstatespostalservice-a77078", "operator": "United States Postal Service", "operator:short": "USPS", "operator:type": "public", "operator:wikidata": "Q668687", "ref": "9270500032"}, "type": "Feature"}
{"geometry": {"coordinates": [-117.84516, 33.728195], "type": "Point"}, "id": "YJkf99ahS09L96KOm3fsid1dUnM=", "properties": {"@source_uri": "https://tools.usps.com/UspsToolsRestServices/rest/POLocator/findLocations", "@spider": "usps_collection_boxes", "addr:city": "SANTA ANA", "addr:country": "US", "addr:postcode": "92705", "addr:state": "CA", "addr:street_address": "801 PARKCENTER DR", "amenity": "post_box", "brand": "United States Postal Service", "brand:wikidata": "Q668687", "collection_times": "Mo-Sa 10:00", "nsi_id": "unitedstatespostalservice-a77078", "operator": "United States Postal Service", "operator:short": "USPS", "operator:type": "public", "operator:wikidata": "Q668687", "ref": "9270500033"}, "type": "Feature"}
{"geometry": {"coordinates": [-117.868178, 33.773212], "type": "Point"}, "id": "PfZ2wuE3qUwzk_iMHI98UNQZ72M=", "properties": {"@source_uri": "https://tools.usps.com/UspsToolsRestServices/rest/POLocator/findLocations", "@spider": "usps_collection_boxes", "addr:city": "SANTA ANA", "addr:country": "US", "addr:postcode": "92705", "addr:state": "CA", "addr:street_address": "2700 N MAIN ST", "amenity": "post_box", "brand": "United States Postal Service", "brand:wikidata": "Q668687", "collection_times": "Mo-Sa 10:00", "nsi_id": "unitedstatespostalservice-a77078", "operator": "United States Postal Service", "operator:short": "USPS", "operator:type": "public", "operator:wikidata": "Q668687", "ref": "9270500045"}, "type": "Feature"}
{"geometry": {"coordinates": [-117.838311, 33.746806], "type": "Point"}, "id": "poPl1287QP3lymSTYI84-gVS04U=", "properties": {"@source_uri": "https://tools.usps.com/UspsToolsRestServices/rest/POLocator/findLocations", "@spider": "usps_collection_boxes", "addr:city": "SANTA ANA", "addr:country": "US", "addr:postcode": "92705", "addr:state": "CA", "addr:street_address": "250 N GOLDEN CIRCLE DR", "amenity": "post_box", "brand": "United States Postal Service", "brand:wikidata": "Q668687", "collection_times": "Mo-Sa 10:00", "nsi_id": "unitedstatespostalservice-a77078", "operator": "United States Postal Service", "operator:short": "USPS", "operator:type": "public", "operator:wikidata": "Q668687", "ref": "9270500050"}, "type": "Feature"}
{"geometry": {"coordinates": [-117.8490439979, 33.7138709955], "type": "Point"}, "id": "T6AjMGOpxnPSWQRgK4dZ-j-etdw=", "properties": {"@source_uri": "https://tools.usps.com/UspsToolsRestServices/rest/POLocator/findLocations", "@spider": "usps_collection_boxes", "addr:city": "SANTA ANA", "addr:country": "US", "addr:postcode": "92705", "addr:state": "CA", "addr:street_address": "1526 BROOKHOLLOW DR", "amenity": "post_box", "brand": "United States Postal Service", "brand:wikidata": "Q668687", "collection_times": "Mo-Sa 10:00", "nsi_id": "unitedstatespostalservice-a77078", "operator": "United States Postal Service", "operator:short": "USPS", "operator:type": "public", "operator:wikidata": "Q668687", "ref": "9270500051"}, "type": "Feature"}
{"geometry": {"coordinates": [-117.83605, 33.732089], "type": "Point"}, "id": "BLC1ac5GWhlHoAYmt2xQ81pufeU=", "properties": {"@source_uri": "https://tools.usps.com/UspsToolsRestServices/rest/POLocator/findLocations", "@spider": "usps_collection_boxes", "addr:city": "SANTA ANA", "addr:country": "US", "addr:postcode": "92705", "addr:state": "CA", "addr:street_address": "1400 VILLAGE WAY", "amenity": "post_box", "brand": "United States Postal Service", "brand:wikidata": "Q668687", "collection_times": "Mo-Sa 10:00", "nsi_id": "unitedstatespostalservice-a77078", "operator": "United States Postal Service", "operator:short": "USPS", "operator:type": "public", "operator:wikidata": "Q668687", "ref": "9270500059"}, "type": "Feature"}
{"geometry": {"coordinates": [-117.83273, 33.752797], "type": "Point"}, "id": "3RKOEF7ml_uDvO6YDmVLSUzQ58U=", "properties": {"@source_uri": "https://tools.usps.com/UspsToolsRestServices/rest/POLocator/findLocations", "@spider": "usps_collection_boxes", "addr:city": "SANTA ANA", "addr:country": "US", "addr:postcode": "92705", "addr:state": "CA", "addr:street_address": "999 N TUSTIN AVE", "amenity": "post_box", "brand": "United States Postal Service", "brand:wikidata": "Q668687", "collection_times": "Mo-Sa 10:00", "nsi_id": "unitedstatespostalservice-a77078", "operator": "United States Postal Service", "operator:short": "USPS", "operator:type": "public", "operator:wikidata": "Q668687", "ref": "9270500061"}, "type": "Feature"}
{"geometry": {"coordinates": [-117.836629, 33.748328], "type": "Point"}, "id": "2nNsA_dTdJIdnk8tt_R2mv6B4wQ=", "properties": {"@source_uri": "https://tools.usps.com/UspsToolsRestServices/rest/POLocator/findLocations", "@spider": "usps_collection_boxes", "addr:city": "SANTA ANA", "addr:country": "US", "addr:postcode": "92705", "addr:state": "CA", "addr:street_address": "2101 E 4TH ST", "amenity": "post_box", "brand": "United States Postal Service", "brand:wikidata": "Q668687", "collection_times": "Mo-Sa 10:00", "nsi_id": "unitedstatespostalservice-a77078", "operator": "United States Postal Service", "operator:short": "USPS", "operator:type": "public", "operator:wikidata": "Q668687", "ref": "9270500074"}, "type": "Feature"}
{"geometry": {"coordinates": [-117.8357, 33.748062], "type": "Point"}, "id": "e4jfQs3aD4qzSsHKBBQUYdHda-4=", "properties": {"@source_uri": "https://tools.usps.com/UspsToolsRestServices/rest/POLocator/findLocations", "@spider": "usps_collection_boxes", "addr:city": "SANTA ANA", "addr:country": "US", "addr:postcode": "92705", "addr:state": "CA", "addr:street_address": "2204 E 4TH ST", "amenity": "post_box", "brand": "United States Postal Service", "brand:wikidata": "Q668687", "collection_times": "Mo-Sa 10:00", "nsi_id": "unitedstatespostalservice-a77078", "operator": "United States Postal Service", "operator:short": "USPS", "operator:type": "public", "operator:wikidata": "Q668687", "ref": "9270500078"}, "type": "Feature"}
{"geometry": {"coordinates": [-117.853053, 33.703237], "type": "Point"}, "id": "59HmzwrHSZZENTxbQ8dyOkHPHWM=", "properties": {"@source_uri": "https://tools.usps.com/UspsToolsRestServices/rest/POLocator/findLocations", "@spider": "usps_collection_boxes", "addr:city": "SANTA ANA", "addr:country": "US", "addr:postcode": "92705", "addr:state": "CA", "addr:street_address": "3050 DAIMLER ST", "amenity": "post_box", "brand": "United States Postal Service", "brand:wikidata": "Q668687", "collection_times": "Mo-Sa 10:00", "nsi_id": "unitedstatespostalservice-a77078", "operator": "United States Postal Service", "operator:short": "USPS", "operator:type": "public", "operator:wikidata": "Q668687", "ref": "9270500086"}, "type": "Feature"}
{"geometry": {"coordinates": [-117.839367, 33.749847], "type": "Point"}, "id": "UdVlqsxgQqD9R8SytrFb4fZ7_Lc=", "properties": {"@source_uri": "https://tools.usps.com/UspsToolsRestServices/rest/POLocator/findLocations", "@spider": "usps_collection_boxes", "addr:city": "SANTA ANA", "addr:country": "US", "addr:postcode": "92705", "addr:state": "CA", "addr:street_address": "515 CABRILLO PARK DR", "amenity": "post_box", "brand": "United States Postal Service", "brand:wikidata": "Q668687", "collection_times": "Mo-Sa 10:00", "nsi_id": "unitedstatespostalservice-a77078", "operator": "United States Postal Service", "operator:short": "USPS", "operator:type": "public", "operator:wikidata": "Q668687", "ref": "9270500089"}, "type": "Feature"}
{"geometry": {"coordinates": [-117.841392, 33.760206], "type": "Point"}, "id": "HJ6qdkk38DC9lz8I9d0LZBjbRDU=", "properties": {"@source_uri": "https://tools.usps.com/UspsToolsRestServices/rest/POLocator/findLocations", "@spider": "usps_collection_boxes", "addr:city": "SANTA ANA", "addr:country": "US", "addr:postcode": "92705", "addr:state": "CA", "addr:street_address": "1823 E 17TH ST", "amenity": "post_box", "brand": "United States Postal Service", "brand:wikidata": "Q668687", "collection_times": "Mo-Sa 10:00", "nsi_id": "unitedstatespostalservice-a77078", "operator": "United States Postal Service", "operator:short": "USPS", "operator:type": "public", "operator:wikidata": "Q668687", "ref": "9270500090"}, "type": "Feature"}
{"geometry": {"coordinates": [-117.838281, 33.748788], "type": "Point"}, "id": "Vl8jZWICDShIUQkXHnGblyl_3s8=", "properties": {"@source_uri": "https://tools.usps.com/UspsToolsRestServices/rest/POLocator/findLocations", "@spider": "usps_collection_boxes", "addr:city": "SANTA ANA", "addr:country": "US", "addr:postcode": "92705", "addr:state": "CA", "addr:street_address": "501 N GOLDEN CIRCLE DR", "amenity": "post_box", "brand": "United States Postal Service", "brand:wikidata": "Q668687", "collection_times": "Mo-Sa 10:00", "nsi_id": "unitedstatespostalservice-a77078", "operator": "United States Postal Service", "operator:short": "USPS", "operator:type": "public", "operator:wikidata": "Q668687", "ref": "9270500091"}, "type": "Feature"}
{"geometry": {"coordinates": [-117.837882, 33.748569], "type": "Point"}, "id": "Sq72oWFxWMmlGO4eB63zkrG2aRY=", "properties": {"@source_uri": "https://tools.usps.com/UspsToolsRestServices/rest/POLocator/findLocations", "@spider": "usps_collection_boxes", "addr:city": "SANTA ANA", "addr:country": "US", "addr:postcode": "92705", "addr:state": "CA", "addr:street_address": "501 N GOLDEN CIRCLE DR", "amenity": "post_box", "brand": "United States Postal Service", "brand:wikidata": "Q668687", "collection_times": "Mo-Sa 10:00", "nsi_id": "unitedstatespostalservice-a77078", "operator": "United States Postal Service", "operator:short": "USPS", "operator:type": "public", "operator:wikidata": "Q668687", "ref": "9270500092"}, "type": "Feature"}
{"geometry": {"coordinates": [-117.868195, 33.773216], "type": "Point"}, "id": "b2Mvkt2TCWat_qdlEGmf4H34w8s=", "properties": {"@source_uri": "https://tools.usps.com/UspsToolsRestServices/rest/POLocator/findLocations", "@spider": "usps_collection_boxes", "addr:city": "SANTA ANA", "addr:country": "US", "addr:postcode": "92705", "addr:state": "CA", "addr:street_address": "2700 N MAIN ST", "amenity": "post_box", "brand": "United States Postal Service", "brand:wikidata": "Q668687", "collection_times": "Mo-Sa 10:00", "nsi_id": "unitedstatespostalservice-a77078", "operator": "United States Postal Service", "operator:short": "USPS", "operator:type": "public", "operator:wikidata": "Q668687", "ref": "9270500094"}, "type": "Feature"}
{"geometry": {"coordinates": [-117.8725024298, 33.7762049495], "type": "Point"}, "id": "7ZraRXW9qUeedeNcTABZp-0p3X8=", "properties": {"@source_uri": "https://tools.usps.com/UspsToolsRestServices/rest/POLocator/findLocations", "@spider": "usps_collection_boxes", "addr:city": "SANTA ANA", "addr:country": "US", "addr:postcode": "92705", "addr:state": "CA", "addr:street_address": "2800 N MAIN ST", "amenity": "post_box", "brand": "United States Postal Service", "brand:wikidata": "Q668687", "collection_times": "Mo-Sa 10:00", "nsi_id": "unitedstatespostalservice-a77078", "operator": "United States Postal Service", "operator:short": "USPS", "operator:type": "public", "operator:wikidata": "Q668687", "ref": "9270500101"}, "type": "Feature"}
{"geometry": {"coordinates": [-117.850585, 33.716787], "type": "Point"}, "id": "dgbu7P5H4ex-0hD2G0r1onuNQ2g=", "properties": {"@source_uri": "https://tools.usps.com/UspsToolsRestServices/rest/POLocator/findLocations", "@spider": "usps_collection_boxes", "addr:city": "SANTA ANA", "addr:country": "US", "addr:postcode": "92705", "addr:state": "CA", "addr:street_address": "2230 S GRAND AVE", "amenity": "post_box", "brand": "United States Postal Service", "brand:wikidata": "Q668687", "collection_times": "Mo-Fr 17:00; Sa 11:00", "indoor": "yes", "note": "ON 12/24 AND 12/31, THIS BOX MAY BE COLLECTED AS EARLY AS 12 NOON.", "nsi_id": "unitedstatespostalservice-a77078", "operator": "United States Postal Service", "operator:short": "USPS", "operator:type": "public", "operator:wikidata": "Q668687", "ref": "9270500117"}, "type": "Feature"}
{"geometry": {"coordinates": [-117.851515, 33.765712], "type": "Point"}, "id": "-wj81KrPm_W_iYsRdCxjliLmhng=", "properties": {"@source_uri": "https://tools.usps.com/UspsToolsRestServices/rest/POLocator/findLocations", "@spider": "usps_collection_boxes", "addr:city": "SANTA ANA", "addr:country": "US", "addr:postcode": "92705", "addr:state": "CA", "addr:street_address": "2201 N GRAND AVE", "amenity": "post_box", "brand": "United States Postal Service", "brand:wikidata": "Q668687", "collection_times": "Mo-Fr 17:15; Sa 16:30", "indoor": "yes", "note": "ON 12/24 AND 12/31, THIS BOX MAY BE COLLECTED AS EARLY AS 12 NOON.", "nsi_id": "unitedstatespostalservice-a77078", "operator": "United States Postal Service", "operator:short": "USPS", "operator:type": "public", "operator:wikidata": "Q668687", "ref": "9270500120"}, "type": "Feature"}
{"geometry": {"coordinates": [-117.851515, 33.765712], "type": "Point"}, "id": "-l5nyI0AdbdumAm2c-RrV_EQTLI=", "properties": {"@source_uri": "https://tools.usps.com/UspsToolsRestServices/rest/POLocator/findLocations", "@spider": "usps_collection_boxes", "addr:city": "SANTA ANA", "addr:country": "US", "addr:postcode": "92705", "addr:state": "CA", "addr:street_address": "2201 N GRAND AVE", "amenity": "post_box", "brand": "United States Postal Service", "brand:wikidata": "Q668687", "collection_times": "Mo-Fr 17:15; Sa 16:30", "indoor": "yes", "note": "ON 12/24 AND 12/31, THIS BOX MAY BE COLLECTED AS EARLY AS 12 NOON.", "nsi_id": "unitedstatespostalservice-a77078", "operator": "United States Postal Service", "operator:short": "USPS", "operator:type": "public", "operator:wikidata": "Q668687", "ref": "9270500121"}, "type": "Feature"}
{"geometry": {"coordinates": [-117.851515, 33.765712], "type": "Point"}, "id": "qeE8Utg0e2-sQ0XRjdTetujw2lY=", "properties": {"@source_uri": "https://tools.usps.com/UspsToolsRestServices/rest/POLocator/findLocations", "@spider": "usps_collection_boxes", "addr:city": "SANTA ANA", "addr:country": "US", "addr:postcode": "92705", "addr:state": "CA", "addr:street_address": "2201 N GRAND AVE", "amenity": "post_box", "brand": "United States Postal Service", "brand:wikidata": "Q668687", "collection_times": "Mo-Fr 17:15; Sa 16:30", "indoor": "yes", "note": "ON 12/24 AND 12/31, THIS BOX MAY BE COLLECTED AS EARLY AS 12 NOON.", "nsi_id": "unitedstatespostalservice-a77078", "operator": "United States Postal Service", "operator:short": "USPS", "operator:type": "public", "operator:wikidata": "Q668687", "ref": "9270500122"}, "type": "Feature"}
{"geometry": {"coordinates": [-117.836056, 33.732091], "type": "Point"}, "id": "DoKJb4c2_pBw4Ua8OdlXZ65bObE=", "properties": {"@source_uri": "https://tools.usps.com/UspsToolsRestServices/rest/POLocator/findLocations", "@spider": "usps_collection_boxes", "addr:city": "SANTA ANA", "addr:country": "US", "addr:postcode": "92705", "addr:state": "CA", "addr:street_address": "1400 VILLAGE WAY", "amenity": "post_box", "brand": "United States Postal Service", "brand:wikidata": "Q668687", "collection_times": "Mo-Sa 10:00", "nsi_id": "unitedstatespostalservice-a77078", "operator": "United States Postal Service", "operator:short": "USPS", "operator:type": "public", "operator:wikidata": "Q668687", "ref": "9270500127"}, "type": "Feature"}
{"geometry": {"coordinates": [-117.84516, 33.728195], "type": "Point"}, "id": "09HaxPaVSiFu10K0qkzxZDjhJQQ=", "properties": {"@source_uri": "https://tools.usps.com/UspsToolsRestServices/rest/POLocator/findLocations", "@spider": "usps_collection_boxes", "addr:city": "SANTA ANA", "addr:country": "US", "addr:postcode": "92705", "addr:state": "CA", "addr:street_address": "801 PARKCENTER DR", "amenity": "post_box", "brand": "United States Postal Service", "brand:wikidata": "Q668687", "collection_times": "Mo-Sa 10:00", "nsi_id": "unitedstatespostalservice-a77078", "operator": "United States Postal Service", "operator:short": "USPS", "operator:type": "public", "operator:wikidata": "Q668687", "ref": "9270500129"}, "type": "Feature"}
{"geometry": {"coordinates": [-117.853053, 33.70323], "type": "Point"}, "id": "jcciVhsZSaNIjkRRRcbNbN6mAVA=", "properties": {"@source_uri": "https://tools.usps.com/UspsToolsRestServices/rest/POLocator/findLocations", "@spider": "usps_collection_boxes", "addr:city": "SANTA ANA", "addr:country": "US", "addr:postcode": "92705", "addr:state": "CA", "addr:street_address": "3050 DAIMLER ST", "amenity": "post_box", "brand": "United States Postal Service", "brand:wikidata": "Q668687", "collection_times": "Mo-Sa 10:00", "nsi_id": "unitedstatespostalservice-a77078", "operator": "United States Postal Service", "operator:short": "USPS", "operator:type": "public", "operator:wikidata": "Q668687", "ref": "9270500132"}, "type": "Feature"}
{"geometry": {"coordinates": [-117.851515, 33.765712], "type": "Point"}, "id": "V2pbBCSN0dsoVmgYSBfp3H96q5c=", "properties": {"@source_uri": "https://tools.usps.com/UspsToolsRestServices/rest/POLocator/findLocations", "@spider": "usps_collection_boxes", "addr:city": "SANTA ANA", "addr:country": "US", "addr:postcode": "92705", "addr:state": "CA", "addr:street_address": "2201 N GRAND AVE", "amenity": "post_box", "brand": "United States Postal Service", "brand:wikidata": "Q668687", "collection_times": "Mo-Fr 17:15; Sa 16:30", "name": "USPS COLLECTION BOX - APC", "note": "ON 12/24 AND 12/31, THIS BOX MAY BE COLLECTED AS EARLY AS 12 NOON.", "nsi_id": "unitedstatespostalservice-a77078", "operator": "United States Postal Service", "operator:short": "USPS", "operator:type": "public", "operator:wikidata": "Q668687", "ref": "9270500134"}, "type": "Feature"}
{"geometry": {"coordinates": [-117.8442529858, 33.7279300037], "type": "Point"}, "id": "lMjkbwCwQ2AS4vLmxxjXut5nEVo=", "properties": {"@source_uri": "https://tools.usps.com/UspsToolsRestServices/rest/POLocator/findLocations", "@spider": "usps_collection_boxes", "addr:city": "SANTA ANA", "addr:country": "US", "addr:postcode": "92705", "addr:state": "CA", "addr:street_address": "1701 E EDINGER AVE", "amenity": "post_box", "brand": "United States Postal Service", "brand:wikidata": "Q668687", "collection_times": "Mo-Sa 10:00", "nsi_id": "unitedstatespostalservice-a77078", "operator": "United States Postal Service", "operator:short": "USPS", "operator:type": "public", "operator:wikidata": "Q668687", "ref": "9270500136"}, "type": "Feature"}
{"geometry": {"coordinates": [-117.8418283995, 33.7601671107], "type": "Point"}, "id": "LpGKElQiiz9J-FsLGSjwc0WPdDo=", "properties": {"@source_uri": "https://tools.usps.com/UspsToolsRestServices/rest/POLocator/findLocations", "@spider": "usps_collection_boxes", "addr:city": "SANTA ANA", "addr:country": "US", "addr:postcode": "92705", "addr:state": "CA", "addr:street_address": "1708 SHERRY LN", "amenity": "post_box", "brand": "United States Postal Service", "brand:wikidata": "Q668687", "collection_times": "Mo-Sa 10:00", "nsi_id": "unitedstatespostalservice-a77078", "operator": "United States Postal Service", "operator:short": "USPS", "operator:type": "public", "operator:wikidata": "Q668687", "ref": "9270500143"}, "type": "Feature"}
{"geometry": {"coordinates": [-117.869528959, 33.764598304], "type": "Point"}, "id": "bTKG7bWYSlM2tPTq6XVB3hOaEWM=", "properties": {"@source_uri": "https://tools.usps.com/UspsToolsRestServices/rest/POLocator/findLocations", "@spider": "usps_collection_boxes", "addr:city": "SANTA ANA", "addr:country": "US", "addr:postcode": "92706", "addr:state": "CA", "addr:street_address": "2107 N BROADWAY", "amenity": "post_box", "brand": "United States Postal Service", "brand:wikidata": "Q668687", "collection_times": "Mo-Sa 10:00", "nsi_id": "unitedstatespostalservice-a77078", "operator": "United States Postal Service", "operator:short": "USPS", "operator:type": "public", "operator:wikidata": "Q668687", "ref": "9270600028"}, "type": "Feature"}
{"geometry": {"coordinates": [-117.869528959, 33.764598304], "type": "Point"}, "id": "0GgiOnkdzrii_liMMaCXJs6wnI0=", "properties": {"@source_uri": "https://tools.usps.com/UspsToolsRestServices/rest/POLocator/findLocations", "@spider": "usps_collection_boxes", "addr:city": "SANTA ANA", "addr:country": "US", "addr:postcode": "92706", "addr:state": "CA", "addr:street_address": "2107 N BROADWAY", "amenity": "post_box", "brand": "United States Postal Service", "brand:wikidata": "Q668687", "collection_times": "Mo-Sa 10:00", "nsi_id": "unitedstatespostalservice-a77078", "operator": "United States Postal Service", "operator:short": "USPS", "operator:type": "public", "operator:wikidata": "Q668687", "ref": "9270600029"}, "type": "Feature"}
{"geometry": {"coordinates": [-117.869792, 33.758014], "type": "Point"}, "id": "ypy42pP7myt6FY5I3iJ2d6M-pZ8=", "properties": {"@source_uri": "https://tools.usps.com/UspsToolsRestServices/rest/POLocator/findLocations", "@spider": "usps_collection_boxes", "addr:city": "SANTA ANA", "addr:country": "US", "addr:postcode": "92706", "addr:state": "CA", "addr:street_address": "1428 N BROADWAY", "amenity": "post_box", "brand": "United States Postal Service", "brand:wikidata": "Q668687", "collection_times": "Mo-Sa 10:00", "nsi_id": "unitedstatespostalservice-a77078", "operator": "United States Postal Service", "operator:short": "USPS", "operator:type": "public", "operator:wikidata": "Q668687", "ref": "9270600031"}, "type": "Feature"}
{"geometry": {"coordinates": [-117.898218, 33.759175], "type": "Point"}, "id": "tWt8Pt5uPqj2qi-w4u9I3WVtJtw=", "properties": {"@source_uri": "https://tools.usps.com/UspsToolsRestServices/rest/POLocator/findLocations", "@spider": "usps_collection_boxes", "addr:city": "SANTA ANA", "addr:country": "US", "addr:postcode": "92706", "addr:state": "CA", "addr:street_address": "1609 N KING ST", "amenity": "post_box", "brand": "United States Postal Service", "brand:wikidata": "Q668687", "collection_times": "Mo-Fr 17:00; Sa 13:15", "indoor": "yes", "note": "ON 12/24 AND 12/31, THIS BOX MAY BE COLLECTED AS EARLY AS 12 NOON.", "nsi_id": "unitedstatespostalservice-a77078", "operator": "United States Postal Service", "operator:short": "USPS", "operator:type": "public", "operator:wikidata": "Q668687", "ref": "9270600040"}, "type": "Feature"}
{"geometry": {"coordinates": [-117.877095, 33.759562], "type": "Point"}, "id": "mIPz4bbML_pvY6igxlIbXhTQZi8=", "properties": {"@source_uri": "https://tools.usps.com/UspsToolsRestServices/rest/POLocator/findLocations", "@spider": "usps_collection_boxes", "addr:city": "SANTA ANA", "addr:country": "US", "addr:postcode": "92706", "addr:state": "CA", "addr:street_address": "930 W 17TH ST", "amenity": "post_box", "brand": "United States Postal Service", "brand:wikidata": "Q668687", "collection_times": "Mo-Sa 10:00", "nsi_id": "unitedstatespostalservice-a77078", "operator": "United States Postal Service", "operator:short": "USPS", "operator:type": "public", "operator:wikidata": "Q668687", "ref": "9270600041"}, "type": "Feature"}
{"geometry": {"coordinates": [-117.898172371, 33.759116934], "type": "Point"}, "id": "N2yeE-Kv1Eq_EgTJEheimCy-cvs=", "properties": {"@source_uri": "https://tools.usps.com/UspsToolsRestServices/rest/POLocator/findLocations", "@spider": "usps_collection_boxes", "addr:city": "SANTA ANA", "addr:country": "US", "addr:postcode": "92706", "addr:state": "CA", "addr:street_address": "1609 N KING ST", "amenity": "post_box", "brand": "United States Postal Service", "brand:wikidata": "Q668687", "collection_times": "Mo-Fr 17:00", "indoor": "yes", "note": "ON 12/24 AND 12/31, THIS BOX MAY BE COLLECTED AS EARLY AS 12 NOON.", "nsi_id": "unitedstatespostalservice-a77078", "operator": "United States Postal Service", "operator:short": "USPS", "operator:type": "public", "operator:wikidata": "Q668687", "ref": "9270600047"}, "type": "Feature"}
{"geometry": {"coordinates": [-117.8677606822, 33.7292588557], "type": "Point"}, "id": "7tVL0-SqyVx0t4ruTmvuWlOGgIg=", "properties": {"@source_uri": "https://tools.usps.com/UspsToolsRestServices/rest/POLocator/findLocations", "@spider": "usps_collection_boxes", "addr:city": "SANTA ANA", "addr:country": "US", "addr:postcode": "92707", "addr:state": "CA", "addr:street_address": "1415 S MAIN ST", "amenity": "post_box", "brand": "United States Postal Service", "brand:wikidata": "Q668687", "collection_times": "Mo-Fr 17:00; Sa 16:00", "indoor": "yes", "note": "ON 12/24 AND 12/31, THIS BOX MAY BE COLLECTED AS EARLY AS 12 NOON.", "nsi_id": "unitedstatespostalservice-a77078", "operator": "United States Postal Service", "operator:short": "USPS", "operator:type": "public", "operator:wikidata": "Q668687", "ref": "9270700000"}, "type": "Feature"}
{"geometry": {"coordinates": [-117.860356, 33.702487], "type": "Point"}, "id": "A2WcS9CheToX549Z3JENggmlXVg=", "properties": {"@source_uri": "https://tools.usps.com/UspsToolsRestServices/rest/POLocator/findLocations", "@spider": "usps_collection_boxes", "addr:city": "SANTA ANA", "addr:country": "US", "addr:postcode": "92707", "addr:state": "CA", "addr:street_address": "2 FIRST AMERICAN WAY", "amenity": "post_box", "brand": "United States Postal Service", "brand:wikidata": "Q668687", "collection_times": "Mo-Sa 10:00", "nsi_id": "unitedstatespostalservice-a77078", "operator": "United States Postal Service", "operator:short": "USPS", "operator:type": "public", "operator:wikidata": "Q668687", "ref": "9270700001"}, "type": "Feature"}
{"geometry": {"coordinates": [-117.860356, 33.702493], "type": "Point"}, "id": "YXYbzBvaEBgpRpRXAJGB9nQgrAk=", "properties": {"@source_uri": "https://tools.usps.com/UspsToolsRestServices/rest/POLocator/findLocations", "@spider": "usps_collection_boxes", "addr:city": "SANTA ANA", "addr:country": "US", "addr:postcode": "92707", "addr:state": "CA", "addr:street_address": "2 FIRST AMERICAN WAY", "amenity": "post_box", "brand": "United States Postal Service", "brand:wikidata": "Q668687", "collection_times": "Mo-Fr 10:00", "name": "USPS COLLECTION BOX - EXPRESS", "nsi_id": "unitedstatespostalservice-a77078", "operator": "United States Postal Service", "operator:short": "USPS", "operator:type": "public", "operator:wikidata": "Q668687", "ref": "9270700002"}, "type": "Feature"}
{"geometry": {"coordinates": [-117.8677494669, 33.7293655881], "type": "Point"}, "id": "bdhZ3EY-1XjGyZnosqpPb2ZRJSo=", "properties": {"@source_uri": "https://tools.usps.com/UspsToolsRestServices/rest/POLocator/findLocations", "@spider": "usps_collection_boxes", "addr:city": "SANTA ANA", "addr:country": "US", "addr:postcode": "92707", "addr:state": "CA", "addr:street_address": "1415 S MAIN ST", "amenity": "post_box", "brand": "United States Postal Service", "brand:wikidata": "Q668687", "collection_times": "Mo-Fr 16:30", "indoor": "yes", "note": "ON 12/24 AND 12/31, THIS BOX MAY BE COLLECTED AS EARLY AS 12 NOON.", "nsi_id": "unitedstatespostalservice-a77078", "operator": "United States Postal Service", "operator:short": "USPS", "operator:type": "public", "operator:wikidata": "Q668687", "ref": "9270700010"}, "type": "Feature"}
{"geometry": {"coordinates": [-117.87109, 33.70452], "type": "Point"}, "id": "cjvgYVizhqdmf9qzBjKLju9Gj2g=", "properties": {"@source_uri": "https://tools.usps.com/UspsToolsRestServices/rest/POLocator/findLocations", "@spider": "usps_collection_boxes", "addr:city": "SANTA ANA", "addr:country": "US", "addr:postcode": "92707", "addr:state": "CA", "addr:street_address": "1220 HEMLOCK WAY", "amenity": "post_box", "brand": "United States Postal Service", "brand:wikidata": "Q668687", "collection_times": "Mo-Sa 10:00", "nsi_id": "unitedstatespostalservice-a77078", "operator": "United States Postal Service", "operator:short": "USPS", "operator:type": "public", "operator:wikidata": "Q668687", "ref": "9270700011"}, "type": "Feature"}
{"geometry": {"coordinates": [-117.865578561, 33.697286833], "type": "Point"}, "id": "3WFbUtzku5HK_VbAuokJxBiiQzs=", "properties": {"@source_uri": "https://tools.usps.com/UspsToolsRestServices/rest/POLocator/findLocations", "@spider": "usps_collection_boxes", "addr:city": "SANTA ANA", "addr:country": "US", "addr:postcode": "92707", "addr:state": "CA", "addr:street_address": "7 HUTTON CENTRE DR", "amenity": "post_box", "brand": "United States Postal Service", "brand:wikidata": "Q668687", "collection_times": "Mo-Fr 10:00", "name": "USPS COLLECTION BOX - EXPRESS", "nsi_id": "unitedstatespostalservice-a77078", "operator": "United States Postal Service", "operator:short": "USPS", "operator:type": "public", "operator:wikidata": "Q668687", "ref": "9270700012"}, "type": "Feature"}
{"geometry": {"coordinates": [-117.922824, 33.7310014899], "type": "Point"}, "id": "KoX9lWckDAoEztna0lcMOfi3hyY=", "properties": {"@source_uri": "https://tools.usps.com/UspsToolsRestServices/rest/POLocator/findLocations", "@spider": "usps_collection_boxes", "addr:city": "FOUNTAIN VALLEY", "addr:country": "US", "addr:postcode": "92708", "addr:state": "CA", "addr:street_address": "11823 LILAC AVE", "amenity": "post_box", "brand": "United States Postal Service", "brand:wikidata": "Q668687", "collection_times": "Mo-Sa 10:00", "nsi_id": "unitedstatespostalservice-a77078", "operator": "United States Postal Service", "operator:short": "USPS", "operator:type": "public", "operator:wikidata": "Q668687", "ref": "9270800002"}, "type": "Feature"}
{"geometry": {"coordinates": [-117.96272, 33.697362], "type": "Point"}, "id": "PHVyExdSK-0w0_p8x66t5hbEnjY=", "properties": {"@source_uri": "https://tools.usps.com/UspsToolsRestServices/rest/POLocator/findLocations", "@spider": "usps_collection_boxes", "addr:city": "FOUNTAIN VALLEY", "addr:country": "US", "addr:postcode": "92708", "addr:state": "CA", "addr:street_address": "18262 TOUCAN", "amenity": "post_box", "brand": "United States Postal Service", "brand:wikidata": "Q668687", "collection_times": "Mo-Sa 10:00", "nsi_id": "unitedstatespostalservice-a77078", "operator": "United States Postal Service", "operator:short": "USPS", "operator:type": "public", "operator:wikidata": "Q668687", "ref": "9270800004"}, "type": "Feature"}
{"geometry": {"coordinates": [-117.971309, 33.687372], "type": "Point"}, "id": "pLYpBRj9XkCoI_NP08W0AIqZLRA=", "properties": {"@source_uri": "https://tools.usps.com/UspsToolsRestServices/rest/POLocator/findLocations", "@spider": "usps_collection_boxes", "addr:city": "FOUNTAIN VALLEY", "addr:country": "US", "addr:postcode": "92708", "addr:state": "CA", "addr:street_address": "18926 MAGNOLIA ST", "amenity": "post_box", "brand": "United States Postal Service", "brand:wikidata": "Q668687", "collection_times": "Mo-Sa 10:00", "nsi_id": "unitedstatespostalservice-a77078", "operator": "United States Postal Service", "operator:short": "USPS", "operator:type": "public", "operator:wikidata": "Q668687", "ref": "9270800006"}, "type": "Feature"}
{"geometry": {"coordinates": [-117.963521, 33.724912], "type": "Point"}, "id": "NTRsOsBwRTqVTUx9NOBQWw4D-hM=", "properties": {"@source_uri": "https://tools.usps.com/UspsToolsRestServices/rest/POLocator/findLocations", "@spider": "usps_collection_boxes", "addr:city": "FOUNTAIN VALLEY", "addr:country": "US", "addr:postcode": "92708", "addr:state": "CA", "addr:street_address": "9486 HOLLYHOCK CIR", "amenity": "post_box", "brand": "United States Postal Service", "brand:wikidata": "Q668687", "collection_times": "Mo-Sa 10:00", "nsi_id": "unitedstatespostalservice-a77078", "operator": "United States Postal Service", "operator:short": "USPS", "operator:type": "public", "operator:wikidata": "Q668687", "ref": "9270800009"}, "type": "Feature"}
{"geometry": {"coordinates": [-117.954305, 33.68926], "type": "Point"}, "id": "StgHmPueXCyTp6rePYjpXQEfXLA=", "properties": {"@source_uri": "https://tools.usps.com/UspsToolsRestServices/rest/POLocator/findLocations", "@spider": "usps_collection_boxes", "addr:city": "FOUNTAIN VALLEY", "addr:country": "US", "addr:postcode": "92708", "addr:state": "CA", "addr:street_address": "18837 BROOKHURST ST", "amenity": "post_box", "brand": "United States Postal Service", "brand:wikidata": "Q668687", "collection_times": "Mo-Sa 10:00", "nsi_id": "unitedstatespostalservice-a77078", "operator": "United States Postal Service", "operator:short": "USPS", "operator:type": "public", "operator:wikidata": "Q668687", "ref": "9270800012"}, "type": "Feature"}
{"geometry": {"coordinates": [-117.938765, 33.709347], "type": "Point"}, "id": "9XHxWylsc5ZB2BdUGqZ1J8GLHRE=", "properties": {"@source_uri": "https://tools.usps.com/UspsToolsRestServices/rest/POLocator/findLocations", "@spider": "usps_collection_boxes", "addr:city": "FOUNTAIN VALLEY", "addr:country": "US", "addr:postcode": "92708", "addr:state": "CA", "addr:street_address": "10889 SLATER AVE", "amenity": "post_box", "brand": "United States Postal Service", "brand:wikidata": "Q668687", "collection_times": "Mo-Sa 10:00", "nsi_id": "unitedstatespostalservice-a77078", "operator": "United States Postal Service", "operator:short": "USPS", "operator:type": "public", "operator:wikidata": "Q668687", "ref": "9270800013"}, "type": "Feature"}
{"geometry": {"coordinates": [-117.936596, 33.714862], "type": "Point"}, "id": "hsmQghZ-Z5KmkOOm-waBfnN9oxE=", "properties": {"@source_uri": "https://tools.usps.com/UspsToolsRestServices/rest/POLocator/findLocations", "@spider": "usps_collection_boxes", "addr:city": "FOUNTAIN VALLEY", "addr:country": "US", "addr:postcode": "92708", "addr:state": "CA", "addr:street_address": "17100 EUCLID ST", "amenity": "post_box", "brand": "United States Postal Service", "brand:wikidata": "Q668687", "collection_times": "Mo-Sa 10:00", "nsi_id": "unitedstatespostalservice-a77078", "operator": "United States Postal Service", "operator:short": "USPS", "operator:type": "public", "operator:wikidata": "Q668687", "ref": "9270800016"}, "type": "Feature"}
{"geometry": {"coordinates": [-117.9534364632, 33.7127008789], "type": "Point"}, "id": "JP0d8pNyZem9Mf9_AxcUnJO2CSs=", "properties": {"@source_uri": "https://tools.usps.com/UspsToolsRestServices/rest/POLocator/findLocations", "@spider": "usps_collection_boxes", "addr:city": "FOUNTAIN VALLEY", "addr:country": "US", "addr:postcode": "92708", "addr:state": "CA", "addr:street_address": "10135 LA ALAMEDA", "amenity": "post_box", "brand": "United States Postal Service", "brand:wikidata": "Q668687", "collection_times": "Mo-Sa 10:00", "nsi_id": "unitedstatespostalservice-a77078", "operator": "United States Postal Service", "operator:short": "USPS", "operator:type": "public", "operator:wikidata": "Q668687", "ref": "9270800019"}, "type": "Feature"}
{"geometry": {"coordinates": [-117.97348, 33.71565], "type": "Point"}, "id": "Po2XWFYTexwAa2YLrIEhV_X7R0U=", "properties": {"@source_uri": "https://tools.usps.com/UspsToolsRestServices/rest/POLocator/findLocations", "@spider": "usps_collection_boxes", "addr:city": "FOUNTAIN VALLEY", "addr:country": "US", "addr:postcode": "92708", "addr:state": "CA", "addr:street_address": "8900 WARNER AVE", "amenity": "post_box", "brand": "United States Postal Service", "brand:wikidata": "Q668687", "collection_times": "Mo-Sa 10:00", "nsi_id": "unitedstatespostalservice-a77078", "operator": "United States Postal Service", "operator:short": "USPS", "operator:type": "public", "operator:wikidata": "Q668687", "ref": "9270800027"}, "type": "Feature"}
{"geometry": {"coordinates": [-117.974728, 33.699195], "type": "Point"}, "id": "v4Xmiv7I_0xoHZT-gdJ7yTV8_oc=", "properties": {"@source_uri": "https://tools.usps.com/UspsToolsRestServices/rest/POLocator/findLocations", "@spider": "usps_collection_boxes", "addr:city": "FOUNTAIN VALLEY", "addr:country": "US", "addr:postcode": "92708", "addr:state": "CA", "addr:street_address": "8825 RHINE RIVER AVE", "amenity": "post_box", "brand": "United States Postal Service", "brand:wikidata": "Q668687", "collection_times": "Mo-Sa 10:00", "nsi_id": "unitedstatespostalservice-a77078", "operator": "United States Postal Service", "operator:short": "USPS", "operator:type": "public", "operator:wikidata": "Q668687", "ref": "9270800031"}, "type": "Feature"}
{"geometry": {"coordinates": [-117.95446, 33.699278], "type": "Point"}, "id": "apiebkXA6sRxpgZQvztAKpjuZkw=", "properties": {"@source_uri": "https://tools.usps.com/UspsToolsRestServices/rest/POLocator/findLocations", "@spider": "usps_collection_boxes", "addr:city": "FOUNTAIN VALLEY", "addr:country": "US", "addr:postcode": "92708", "addr:state": "CA", "addr:street_address": "18175 BROOKHURST ST", "amenity": "post_box", "brand": "United States Postal Service", "brand:wikidata": "Q668687", "collection_times": "Mo-Sa 10:00", "nsi_id": "unitedstatespostalservice-a77078", "operator": "United States Postal Service", "operator:short": "USPS", "operator:type": "public", "operator:wikidata": "Q668687", "ref": "9270800032"}, "type": "Feature"}
{"geometry": {"coordinates": [-117.954038, 33.695321], "type": "Point"}, "id": "1ydYArYJ5kVsxpOvHaPBxC5hQq0=", "properties": {"@source_uri": "https://tools.usps.com/UspsToolsRestServices/rest/POLocator/findLocations", "@spider": "usps_collection_boxes", "addr:city": "FOUNTAIN VALLEY", "addr:country": "US", "addr:postcode": "92708", "addr:state": "CA", "addr:street_address": "18420 BROOKHURST ST", "amenity": "post_box", "brand": "United States Postal Service", "brand:wikidata": "Q668687", "collection_times": "Mo-Sa 10:00", "nsi_id": "unitedstatespostalservice-a77078", "operator": "United States Postal Service", "operator:short": "USPS", "operator:type": "public", "operator:wikidata": "Q668687", "ref": "9270800033"}, "type": "Feature"}
{"geometry": {"coordinates": [-117.951752, 33.698541], "type": "Point"}, "id": "SdPYkiVDgSD1xRcvJJSzlxyKfNU=", "properties": {"@source_uri": "https://tools.usps.com/UspsToolsRestServices/rest/POLocator/findLocations", "@spider": "usps_collection_boxes", "addr:city": "FOUNTAIN VALLEY", "addr:country": "US", "addr:postcode": "92708", "addr:state": "CA", "addr:street_address": "18210 ADOBE RIV", "amenity": "post_box", "brand": "United States Postal Service", "brand:wikidata": "Q668687", "collection_times": "Mo-Sa 10:00", "nsi_id": "unitedstatespostalservice-a77078", "operator": "United States Postal Service", "operator:short": "USPS", "operator:type": "public", "operator:wikidata": "Q668687", "ref": "9270800034"}, "type": "Feature"}
{"geometry": {"coordinates": [-117.955593, 33.729842], "type": "Point"}, "id": "hSwMsG8FhuZE-anqTVTwp1zX4Cw=", "properties": {"@source_uri": "https://tools.usps.com/UspsToolsRestServices/rest/POLocator/findLocations", "@spider": "usps_collection_boxes", "addr:city": "FOUNTAIN VALLEY", "addr:country": "US", "addr:postcode": "92708", "addr:state": "CA", "addr:street_address": "16027 BROOKHURST ST", "amenity": "post_box", "brand": "United States Postal Service", "brand:wikidata": "Q668687", "collection_times": "Mo-Sa 10:00", "nsi_id": "unitedstatespostalservice-a77078", "operator": "United States Postal Service", "operator:short": "USPS", "operator:type": "public", "operator:wikidata": "Q668687", "ref": "9270800041"}, "type": "Feature"}
{"geometry": {"coordinates": [-117.97154, 33.702205], "type": "Point"}, "id": "Y5KKky8Ts3QlGmgR6vaKpBZqPl0=", "properties": {"@source_uri": "https://tools.usps.com/UspsToolsRestServices/rest/POLocator/findLocations", "@spider": "usps_collection_boxes", "addr:city": "FOUNTAIN VALLEY", "addr:country": "US", "addr:postcode": "92708", "addr:state": "CA", "addr:street_address": "17970 MAGNOLIA ST", "amenity": "post_box", "brand": "United States Postal Service", "brand:wikidata": "Q668687", "collection_times": "Mo-Sa 10:00", "nsi_id": "unitedstatespostalservice-a77078", "operator": "United States Postal Service", "operator:short": "USPS", "operator:type": "public", "operator:wikidata": "Q668687", "ref": "9270800042"}, "type": "Feature"}
{"geometry": {"coordinates": [-117.9291110383, 33.7130620162], "type": "Point"}, "id": "Vzl5ImThJ5SG_HYrRyWupPYsJs0=", "properties": {"@source_uri": "https://tools.usps.com/UspsToolsRestServices/rest/POLocator/findLocations", "@spider": "usps_collection_boxes", "addr:city": "FOUNTAIN VALLEY", "addr:country": "US", "addr:postcode": "92708", "addr:state": "CA", "addr:street_address": "17227 NEWHOPE", "amenity": "post_box", "brand": "United States Postal Service", "brand:wikidata": "Q668687", "collection_times": "Mo-Fr 17:00; Sa 16:00", "note": "ON 12/24 AND 12/31, THIS BOX MAY BE COLLECTED AS EARLY AS 12 NOON.", "nsi_id": "unitedstatespostalservice-a77078", "operator": "United States Postal Service", "operator:short": "USPS", "operator:type": "public", "operator:wikidata": "Q668687", "ref": "9270800045"}, "type": "Feature"}
{"geometry": {"coordinates": [-117.9534364632, 33.7127008789], "type": "Point"}, "id": "hi_ov-p4uEXW-oDNvmHKSX1zse4=", "properties": {"@source_uri": "https://tools.usps.com/UspsToolsRestServices/rest/POLocator/findLocations", "@spider": "usps_collection_boxes", "addr:city": "FOUNTAIN VALLEY", "addr:country": "US", "addr:postcode": "92708", "addr:state": "CA", "addr:street_address": "10135 LA ALAMEDA", "amenity": "post_box", "brand": "United States Postal Service", "brand:wikidata": "Q668687", "collection_times": "Mo-Sa 10:00", "nsi_id": "unitedstatespostalservice-a77078", "operator": "United States Postal Service", "operator:short": "USPS", "operator:type": "public", "operator:wikidata": "Q668687", "ref": "9270800047"}, "type": "Feature"}
{"geometry": {"coordinates": [-117.935761, 33.715922], "type": "Point"}, "id": "y0YuuaNiaCYWJcpouMA686Lta3U=", "properties": {"@source_uri": "https://tools.usps.com/UspsToolsRestServices/rest/POLocator/findLocations", "@spider": "usps_collection_boxes", "addr:city": "FOUNTAIN VALLEY", "addr:country": "US", "addr:postcode": "92708", "addr:state": "CA", "addr:street_address": "11100 WARNER AVE", "amenity": "post_box", "brand": "United States Postal Service", "brand:wikidata": "Q668687", "collection_times": "Mo-Sa 10:00", "nsi_id": "unitedstatespostalservice-a77078", "operator": "United States Postal Service", "operator:short": "USPS", "operator:type": "public", "operator:wikidata": "Q668687", "ref": "9270800048"}, "type": "Feature"}
{"geometry": {"coordinates": [-117.951962, 33.708908], "type": "Point"}, "id": "M41_RS5LIMr1eRSJiClMQbUmUnk=", "properties": {"@source_uri": "https://tools.usps.com/UspsToolsRestServices/rest/POLocator/findLocations", "@spider": "usps_collection_boxes", "addr:city": "FOUNTAIN VALLEY", "addr:country": "US", "addr:postcode": "92708", "addr:state": "CA", "addr:street_address": "10200 SLATER AVE", "amenity": "post_box", "brand": "United States Postal Service", "brand:wikidata": "Q668687", "collection_times": "Mo-Sa 10:00", "nsi_id": "unitedstatespostalservice-a77078", "operator": "United States Postal Service", "operator:short": "USPS", "operator:type": "public", "operator:wikidata": "Q668687", "ref": "9270800052"}, "type": "Feature"}
{"geometry": {"coordinates": [-117.9270149758, 33.7141170044], "type": "Point"}, "id": "wgnpOxcNwswECFgzMy5hS29cI3k=", "properties": {"@source_uri": "https://tools.usps.com/UspsToolsRestServices/rest/POLocator/findLocations", "@spider": "usps_collection_boxes", "addr:city": "FOUNTAIN VALLEY", "addr:country": "US", "addr:postcode": "92708", "addr:state": "CA", "addr:street_address": "17150 NEWHOPE ST", "amenity": "post_box", "brand": "United States Postal Service", "brand:wikidata": "Q668687", "collection_times": "Mo-Sa 10:00", "nsi_id": "unitedstatespostalservice-a77078", "operator": "United States Postal Service", "operator:short": "USPS", "operator:type": "public", "operator:wikidata": "Q668687", "ref": "9270800055"}, "type": "Feature"}
{"geometry": {"coordinates": [-117.9246054478, 33.7160100309], "type": "Point"}, "id": "-w4GVeBz3GvzvzitmMFcN_LrLtE=", "properties": {"@source_uri": "https://tools.usps.com/UspsToolsRestServices/rest/POLocator/findLocations", "@spider": "usps_collection_boxes", "addr:city": "FOUNTAIN VALLEY", "addr:country": "US", "addr:postcode": "92708", "addr:state": "CA", "addr:street_address": "11770 WARNER AVE", "amenity": "post_box", "brand": "United States Postal Service", "brand:wikidata": "Q668687", "collection_times": "Mo-Sa 10:00", "nsi_id": "unitedstatespostalservice-a77078", "operator": "United States Postal Service", "operator:short": "USPS", "operator:type": "public", "operator:wikidata": "Q668687", "ref": "9270800057"}, "type": "Feature"}
{"geometry": {"coordinates": [-117.928394, 33.712862], "type": "Point"}, "id": "OidM3YcE0fzS_Hf_p0RVrvRvhIs=", "properties": {"@source_uri": "https://tools.usps.com/UspsToolsRestServices/rest/POLocator/findLocations", "@spider": "usps_collection_boxes", "addr:city": "FOUNTAIN VALLEY", "addr:country": "US", "addr:postcode": "92708", "addr:state": "CA", "addr:street_address": "17227 NEWHOPE", "amenity": "post_box", "brand": "United States Postal Service", "brand:wikidata": "Q668687", "collection_times": "Mo-Fr 17:00; Sa 16:00", "note": "ON 12/24 AND 12/31, THIS BOX MAY BE COLLECTED AS EARLY AS 12 NOON.", "nsi_id": "unitedstatespostalservice-a77078", "operator": "United States Postal Service", "operator:short": "USPS", "operator:type": "public", "operator:wikidata": "Q668687", "ref": "9270800059"}, "type": "Feature"}
{"geometry": {"coordinates": [-117.928414, 33.713954], "type": "Point"}, "id": "AZJj_yTfQ3JFgqCmtrCf1Au9Lv4=", "properties": {"@source_uri": "https://tools.usps.com/UspsToolsRestServices/rest/POLocator/findLocations", "@spider": "usps_collection_boxes", "addr:city": "FOUNTAIN VALLEY", "addr:country": "US", "addr:postcode": "92708", "addr:state": "CA", "addr:street_address": "17227 NEWHOPE ST", "amenity": "post_box", "brand": "United States Postal Service", "brand:wikidata": "Q668687", "collection_times": "Mo-Fr 17:00; Sa 16:00", "indoor": "yes", "note": "ON 12/24 AND 12/31, THIS BOX MAY BE COLLECTED AS EARLY AS 12 NOON.", "nsi_id": "unitedstatespostalservice-a77078", "operator": "United States Postal Service", "operator:short": "USPS", "operator:type": "public", "operator:wikidata": "Q668687", "ref": "9270800061"}, "type": "Feature"}
{"geometry": {"coordinates": [-117.928529, 33.713138], "type": "Point"}, "id": "SxINPX4atx4JXt5f1bOGHbINV58=", "properties": {"@source_uri": "https://tools.usps.com/UspsToolsRestServices/rest/POLocator/findLocations", "@spider": "usps_collection_boxes", "addr:city": "FOUNTAIN VALLEY", "addr:country": "US", "addr:postcode": "92708", "addr:state": "CA", "addr:street_address": "17227 NEWHOPE ST", "amenity": "post_box", "brand": "United States Postal Service", "brand:wikidata": "Q668687", "collection_times": "Mo-Sa 15:00", "name": "USPS COLLECTION BOX - EXPRESS", "note": "ON 12/24 AND 12/31, THIS BOX MAY BE COLLECTED AS EARLY AS 12 NOON.", "nsi_id": "unitedstatespostalservice-a77078", "operator": "United States Postal Service", "operator:short": "USPS", "operator:type": "public", "operator:wikidata": "Q668687", "ref": "9270800062"}, "type": "Feature"}
{"geometry": {"coordinates": [-117.923713, 33.713136], "type": "Point"}, "id": "rjD6Jq5yY_jJ8_0jHjDl60Wb_do=", "properties": {"@source_uri": "https://tools.usps.com/UspsToolsRestServices/rest/POLocator/findLocations", "@spider": "usps_collection_boxes", "addr:city": "FOUNTAIN VALLEY", "addr:country": "US", "addr:postcode": "92708", "addr:state": "CA", "addr:street_address": "17220 NEWHOPE ST", "amenity": "post_box", "brand": "United States Postal Service", "brand:wikidata": "Q668687", "collection_times": "Mo-Sa 10:00", "nsi_id": "unitedstatespostalservice-a77078", "operator": "United States Postal Service", "operator:short": "USPS", "operator:type": "public", "operator:wikidata": "Q668687", "ref": "9270800063"}, "type": "Feature"}
{"geometry": {"coordinates": [-117.919613, 33.722355], "type": "Point"}, "id": "ELl158cvmWOhz-VqkpEdrSNF_98=", "properties": {"@source_uri": "https://tools.usps.com/UspsToolsRestServices/rest/POLocator/findLocations", "@spider": "usps_collection_boxes", "addr:city": "FOUNTAIN VALLEY", "addr:country": "US", "addr:postcode": "92708", "addr:state": "CA", "addr:street_address": "16600 HARBOR BLVD", "amenity": "post_box", "brand": "United States Postal Service", "brand:wikidata": "Q668687", "collection_times": "Mo-Sa 10:00", "nsi_id": "unitedstatespostalservice-a77078", "operator": "United States Postal Service", "operator:short": "USPS", "operator:type": "public", "operator:wikidata": "Q668687", "ref": "9270800064"}, "type": "Feature"}
{"geometry": {"coordinates": [-117.928417186, 33.7128233957], "type": "Point"}, "id": "6R1KJYfcO1cDsGTOENTEMKqleZ8=", "properties": {"@source_uri": "https://tools.usps.com/UspsToolsRestServices/rest/POLocator/findLocations", "@spider": "usps_collection_boxes", "addr:city": "FOUNTAIN VALLEY", "addr:country": "US", "addr:postcode": "92708", "addr:state": "CA", "addr:street_address": "17227 NEWHOPE", "amenity": "post_box", "brand": "United States Postal Service", "brand:wikidata": "Q668687", "collection_times": "Mo-Fr 17:00; Sa 16:00", "name": "USPS COLLECTION BOX - APC", "note": "ON 12/24 AND 12/31, THIS BOX MAY BE COLLECTED AS EARLY AS 12 NOON.", "nsi_id": "unitedstatespostalservice-a77078", "operator": "United States Postal Service", "operator:short": "USPS", "operator:type": "public", "operator:wikidata": "Q668687", "ref": "9270800065"}, "type": "Feature"}
{"geometry": {"coordinates": [-117.962533, 33.715912], "type": "Point"}, "id": "skznQ0TWq6-F6bjyEZbAh5ySSLU=", "properties": {"@source_uri": "https://tools.usps.com/UspsToolsRestServices/rest/POLocator/findLocations", "@spider": "usps_collection_boxes", "addr:city": "FOUNTAIN VALLEY", "addr:country": "US", "addr:postcode": "92708", "addr:state": "CA", "addr:street_address": "9550 WARNER AVE", "amenity": "post_box", "brand": "United States Postal Service", "brand:wikidata": "Q668687", "collection_times": "Mo-Sa 10:00", "nsi_id": "unitedstatespostalservice-a77078", "operator": "United States Postal Service", "operator:short": "USPS", "operator:type": "public", "operator:wikidata": "Q668687", "ref": "9270800066"}, "type": "Feature"}
{"geometry": {"coordinates": [-117.851470505, 33.76622875], "type": "Point"}, "id": "LzEUkX0NcS48c8E1oTC_wRkwYl4=", "properties": {"@source_uri": "https://tools.usps.com/UspsToolsRestServices/rest/POLocator/findLocations", "@spider": "usps_collection_boxes", "addr:city": "SANTA ANA", "addr:country": "US", "addr:postcode": "92711", "addr:state": "CA", "addr:street_address": "2201 N GRAND AVE", "amenity": "post_box", "brand": "United States Postal Service", "brand:wikidata": "Q668687", "collection_times": "Mo-Fr 17:00; Sa 15:00", "indoor": "yes", "note": "ON 12/24 AND 12/31, THIS BOX MAY BE COLLECTED AS EARLY AS 12 NOON.", "nsi_id": "unitedstatespostalservice-a77078", "operator": "United States Postal Service", "operator:short": "USPS", "operator:type": "public", "operator:wikidata": "Q668687", "ref": "9271100001"}, "type": "Feature"}
{"geometry": {"coordinates": [-117.928406556, 33.713109388], "type": "Point"}, "id": "zaPJVgXQAjps4L5XIIQnI9lFwPg=", "properties": {"@source_uri": "https://tools.usps.com/UspsToolsRestServices/rest/POLocator/findLocations", "@spider": "usps_collection_boxes", "addr:city": "FOUNTAIN VALLEY", "addr:country": "US", "addr:postcode": "92728", "addr:state": "CA", "addr:street_address": "17227 NEWHOPE ST", "amenity": "post_box", "brand": "United States Postal Service", "brand:wikidata": "Q668687", "collection_times": "Mo-Fr 17:00; Sa 15:00", "indoor": "yes", "note": "ON 12/24 AND 12/31, THIS BOX MAY BE COLLECTED AS EARLY AS 12 NOON.", "nsi_id": "unitedstatespostalservice-a77078", "operator": "United States Postal Service", "operator:short": "USPS", "operator:type": "public", "operator:wikidata": "Q668687", "ref": "9272800001"}, "type": "Feature"}
{"geometry": {"coordinates": [-117.8506294392, 33.7166944392], "type": "Point"}, "id": "ybPb2J6sxXXT2Rprehtgn5G573U=", "properties": {"@source_uri": "https://tools.usps.com/UspsToolsRestServices/rest/POLocator/findLocations", "@spider": "usps_collection_boxes", "addr:city": "SANTA ANA", "addr:country": "US", "addr:postcode": "92735", "addr:state": "CA", "addr:street_address": "2230 S GRAND AVE", "amenity": "post_box", "brand": "United States Postal Service", "brand:wikidata": "Q668687", "collection_times": "Mo-Fr 16:00", "indoor": "yes", "note": "ON 12/24 AND 12/31, THIS BOX MAY BE COLLECTED AS EARLY AS 12 NOON.", "nsi_id": "unitedstatespostalservice-a77078", "operator": "United States Postal Service", "operator:short": "USPS", "operator:type": "public", "operator:wikidata": "Q668687", "ref": "9273500001"}, "type": "Feature"}
{"geometry": {"coordinates": [-117.814787, 33.744556], "type": "Point"}, "id": "_LCOnvRx4UVRYl5qJixXYB_n0wQ=", "properties": {"@source_uri": "https://tools.usps.com/UspsToolsRestServices/rest/POLocator/findLocations", "@spider": "usps_collection_boxes", "addr:city": "TUSTIN", "addr:country": "US", "addr:postcode": "92780", "addr:state": "CA", "addr:street_address": "13400 NEWPORT AVE", "amenity": "post_box", "brand": "United States Postal Service", "brand:wikidata": "Q668687", "collection_times": "Mo-Sa 10:00", "nsi_id": "unitedstatespostalservice-a77078", "operator": "United States Postal Service", "operator:short": "USPS", "operator:type": "public", "operator:wikidata": "Q668687", "ref": "9278000000"}, "type": "Feature"}
{"geometry": {"coordinates": [-117.82524, 33.741453], "type": "Point"}, "id": "tMjfBKX5biFxet1MnJ7TWexpyXQ=", "properties": {"@source_uri": "https://tools.usps.com/UspsToolsRestServices/rest/POLocator/findLocations", "@spider": "usps_collection_boxes", "addr:city": "TUSTIN", "addr:country": "US", "addr:postcode": "92780", "addr:state": "CA", "addr:street_address": "210 W MAIN ST", "amenity": "post_box", "brand": "United States Postal Service", "brand:wikidata": "Q668687", "collection_times": "Mo-Sa 10:00", "nsi_id": "unitedstatespostalservice-a77078", "operator": "United States Postal Service", "operator:short": "USPS", "operator:type": "public", "operator:wikidata": "Q668687", "ref": "9278000002"}, "type": "Feature"}
{"geometry": {"coordinates": [-117.805296, 33.745212], "type": "Point"}, "id": "1gb2WRPY_gPbYYlcG8Kf08qdGQA=", "properties": {"@source_uri": "https://tools.usps.com/UspsToolsRestServices/rest/POLocator/findLocations", "@spider": "usps_collection_boxes", "addr:city": "TUSTIN", "addr:country": "US", "addr:postcode": "92780", "addr:state": "CA", "addr:street_address": "1442 IRVINE BLVD", "amenity": "post_box", "brand": "United States Postal Service", "brand:wikidata": "Q668687", "collection_times": "Mo-Sa 10:00", "nsi_id": "unitedstatespostalservice-a77078", "operator": "United States Postal Service", "operator:short": "USPS", "operator:type": "public", "operator:wikidata": "Q668687", "ref": "9278000005"}, "type": "Feature"}
{"geometry": {"coordinates": [-117.817988, 33.747166], "type": "Point"}, "id": "wcT1EylJg7apU8BsdOnQ89nhxc8=", "properties": {"@source_uri": "https://tools.usps.com/UspsToolsRestServices/rest/POLocator/findLocations", "@spider": "usps_collection_boxes", "addr:city": "TUSTIN", "addr:country": "US", "addr:postcode": "92780", "addr:state": "CA", "addr:street_address": "202 FASHION LN", "amenity": "post_box", "brand": "United States Postal Service", "brand:wikidata": "Q668687", "collection_times": "Mo-Sa 10:00", "nsi_id": "unitedstatespostalservice-a77078", "operator": "United States Postal Service", "operator:short": "USPS", "operator:type": "public", "operator:wikidata": "Q668687", "ref": "9278000008"}, "type": "Feature"}
{"geometry": {"coordinates": [-117.8246735255, 33.7482414812], "type": "Point"}, "id": "mbDAtYh5gUKxo9xt_XHX3F73M5A=", "properties": {"@source_uri": "https://tools.usps.com/UspsToolsRestServices/rest/POLocator/findLocations", "@spider": "usps_collection_boxes", "addr:city": "TUSTIN", "addr:country": "US", "addr:postcode": "92780", "addr:state": "CA", "addr:street_address": "17632 IRVINE BLVD", "amenity": "post_box", "brand": "United States Postal Service", "brand:wikidata": "Q668687", "collection_times": "Mo-Sa 10:00", "nsi_id": "unitedstatespostalservice-a77078", "operator": "United States Postal Service", "operator:short": "USPS", "operator:type": "public", "operator:wikidata": "Q668687", "ref": "9278000019"}, "type": "Feature"}
{"geometry": {"coordinates": [-117.804165, 33.709527], "type": "Point"}, "id": "7UkhAE1yY2Gl0bZdZHvQTLXm1Tg=", "properties": {"@source_uri": "https://tools.usps.com/UspsToolsRestServices/rest/POLocator/findLocations", "@spider": "usps_collection_boxes", "addr:city": "TUSTIN", "addr:country": "US", "addr:postcode": "92780", "addr:state": "CA", "addr:street_address": "3002 DOW AVE", "amenity": "post_box", "brand": "United States Postal Service", "brand:wikidata": "Q668687", "collection_times": "Mo-Sa 10:00", "nsi_id": "unitedstatespostalservice-a77078", "operator": "United States Postal Service", "operator:short": "USPS", "operator:type": "public", "operator:wikidata": "Q668687", "ref": "9278000028"}, "type": "Feature"}
{"geometry": {"coordinates": [-117.807875, 33.718815], "type": "Point"}, "id": "Mu81PiuI8rxsk-wnzseF1iUC3T4=", "properties": {"@source_uri": "https://tools.usps.com/UspsToolsRestServices/rest/POLocator/findLocations", "@spider": "usps_collection_boxes", "addr:city": "TUSTIN", "addr:country": "US", "addr:postcode": "92780", "addr:state": "CA", "addr:street_address": "14451 CHAMBERS RD", "amenity": "post_box", "brand": "United States Postal Service", "brand:wikidata": "Q668687", "collection_times": "Mo-Sa 10:00", "nsi_id": "unitedstatespostalservice-a77078", "operator": "United States Postal Service", "operator:short": "USPS", "operator:type": "public", "operator:wikidata": "Q668687", "ref": "9278000029"}, "type": "Feature"}
{"geometry": {"coordinates": [-117.837549, 33.715804], "type": "Point"}, "id": "OZwfrMimjMNp0B0Iu5EeV4armoo=", "properties": {"@source_uri": "https://tools.usps.com/UspsToolsRestServices/rest/POLocator/findLocations", "@spider": "usps_collection_boxes", "addr:city": "TUSTIN", "addr:country": "US", "addr:postcode": "92780", "addr:state": "CA", "addr:street_address": "1342 BELL AVE", "amenity": "post_box", "brand": "United States Postal Service", "brand:wikidata": "Q668687", "collection_times": "Mo-Sa 10:00", "nsi_id": "unitedstatespostalservice-a77078", "operator": "United States Postal Service", "operator:short": "USPS", "operator:type": "public", "operator:wikidata": "Q668687", "ref": "9278000035"}, "type": "Feature"}
{"geometry": {"coordinates": [-117.827819, 33.720773], "type": "Point"}, "id": "H4dncToCDYqkjWJg5Jya0WsleKs=", "properties": {"@source_uri": "https://tools.usps.com/UspsToolsRestServices/rest/POLocator/findLocations", "@spider": "usps_collection_boxes", "addr:city": "TUSTIN", "addr:country": "US", "addr:postcode": "92780", "addr:state": "CA", "addr:street_address": "15032 RED HILL AVE", "amenity": "post_box", "brand": "United States Postal Service", "brand:wikidata": "Q668687", "collection_times": "Mo-Sa 10:00", "nsi_id": "unitedstatespostalservice-a77078", "operator": "United States Postal Service", "operator:short": "USPS", "operator:type": "public", "operator:wikidata": "Q668687", "ref": "9278000037"}, "type": "Feature"}
{"geometry": {"coordinates": [-117.822424, 33.744834], "type": "Point"}, "id": "KfhvhFqKqAcovmST_jmoQTfwm1U=", "properties": {"@source_uri": "https://tools.usps.com/UspsToolsRestServices/rest/POLocator/findLocations", "@spider": "usps_collection_boxes", "addr:city": "TUSTIN", "addr:country": "US", "addr:postcode": "92780", "addr:state": "CA", "addr:street_address": "155 S PROSPECT AVE", "amenity": "post_box", "brand": "United States Postal Service", "brand:wikidata": "Q668687", "collection_times": "Mo-Sa 17:00", "note": "ON 12/24 AND 12/31, THIS BOX MAY BE COLLECTED AS EARLY AS 12 NOON.", "nsi_id": "unitedstatespostalservice-a77078", "operator": "United States Postal Service", "operator:short": "USPS", "operator:type": "public", "operator:wikidata": "Q668687", "ref": "9278000054"}, "type": "Feature"}
{"geometry": {"coordinates": [-117.817984, 33.74718], "type": "Point"}, "id": "r-6x0WoOSYwjhpB9XZTZRJaRP6s=", "properties": {"@source_uri": "https://tools.usps.com/UspsToolsRestServices/rest/POLocator/findLocations", "@spider": "usps_collection_boxes", "addr:city": "TUSTIN", "addr:country": "US", "addr:postcode": "92780", "addr:state": "CA", "addr:street_address": "202 FASHION LN", "amenity": "post_box", "brand": "United States Postal Service", "brand:wikidata": "Q668687", "collection_times": "Mo-Sa 10:00", "nsi_id": "unitedstatespostalservice-a77078", "operator": "United States Postal Service", "operator:short": "USPS", "operator:type": "public", "operator:wikidata": "Q668687", "ref": "9278000059"}, "type": "Feature"}
{"geometry": {"coordinates": [-117.80418, 33.709525], "type": "Point"}, "id": "eA-gdQOdSC0eYsFdlFIkhkAJiT0=", "properties": {"@source_uri": "https://tools.usps.com/UspsToolsRestServices/rest/POLocator/findLocations", "@spider": "usps_collection_boxes", "addr:city": "TUSTIN", "addr:country": "US", "addr:postcode": "92780", "addr:state": "CA", "addr:street_address": "3002 DOW AVE", "amenity": "post_box", "brand": "United States Postal Service", "brand:wikidata": "Q668687", "collection_times": "Mo-Sa 10:00", "nsi_id": "unitedstatespostalservice-a77078", "operator": "United States Postal Service", "operator:short": "USPS", "operator:type": "public", "operator:wikidata": "Q668687", "ref": "9278000064"}, "type": "Feature"}
{"geometry": {"coordinates": [-117.818736, 33.743735], "type": "Point"}, "id": "cB_8KnG2cuIGDEiwenA3TS07F2w=", "properties": {"@source_uri": "https://tools.usps.com/UspsToolsRestServices/rest/POLocator/findLocations", "@spider": "usps_collection_boxes", "addr:city": "TUSTIN", "addr:country": "US", "addr:postcode": "92780", "addr:state": "CA", "addr:street_address": "275 CENTENNIAL WAY", "amenity": "post_box", "brand": "United States Postal Service", "brand:wikidata": "Q668687", "collection_times": "Mo-Sa 10:00", "nsi_id": "unitedstatespostalservice-a77078", "operator": "United States Postal Service", "operator:short": "USPS", "operator:type": "public", "operator:wikidata": "Q668687", "ref": "9278000068"}, "type": "Feature"}
{"geometry": {"coordinates": [-117.812905, 33.749086], "type": "Point"}, "id": "UZJaS7dpCP51EL9pVKQ13iUft7g=", "properties": {"@source_uri": "https://tools.usps.com/UspsToolsRestServices/rest/POLocator/findLocations", "@spider": "usps_collection_boxes", "addr:city": "TUSTIN", "addr:country": "US", "addr:postcode": "92780", "addr:state": "CA", "addr:street_address": "14772 PLAZA DR", "amenity": "post_box", "brand": "United States Postal Service", "brand:wikidata": "Q668687", "collection_times": "Mo-Sa 10:00", "nsi_id": "unitedstatespostalservice-a77078", "operator": "United States Postal Service", "operator:short": "USPS", "operator:type": "public", "operator:wikidata": "Q668687", "ref": "9278000074"}, "type": "Feature"}
{"geometry": {"coordinates": [-117.822316, 33.758511], "type": "Point"}, "id": "3gBigTYfIBNErnsIKSjfWeR2Tec=", "properties": {"@source_uri": "https://tools.usps.com/UspsToolsRestServices/rest/POLocator/findLocations", "@spider": "usps_collection_boxes", "addr:city": "TUSTIN", "addr:country": "US", "addr:postcode": "92780", "addr:state": "CA", "addr:street_address": "17782 17TH ST", "amenity": "post_box", "brand": "United States Postal Service", "brand:wikidata": "Q668687", "collection_times": "Mo-Sa 10:00", "nsi_id": "unitedstatespostalservice-a77078", "operator": "United States Postal Service", "operator:short": "USPS", "operator:type": "public", "operator:wikidata": "Q668687", "ref": "9278000076"}, "type": "Feature"}
{"geometry": {"coordinates": [-117.829142, 33.760623], "type": "Point"}, "id": "yts6W9oJd6pYeyY6nUVW7MIBupQ=", "properties": {"@source_uri": "https://tools.usps.com/UspsToolsRestServices/rest/POLocator/findLocations", "@spider": "usps_collection_boxes", "addr:city": "TUSTIN", "addr:country": "US", "addr:postcode": "92780", "addr:state": "CA", "addr:street_address": "17245 17TH ST", "amenity": "post_box", "brand": "United States Postal Service", "brand:wikidata": "Q668687", "collection_times": "Mo-Sa 10:00", "nsi_id": "unitedstatespostalservice-a77078", "operator": "United States Postal Service", "operator:short": "USPS", "operator:type": "public", "operator:wikidata": "Q668687", "ref": "9278000079"}, "type": "Feature"}
{"geometry": {"coordinates": [-117.820507, 33.759491], "type": "Point"}, "id": "DQseBnufKIc1fO_rKlaplYt5dvg=", "properties": {"@source_uri": "https://tools.usps.com/UspsToolsRestServices/rest/POLocator/findLocations", "@spider": "usps_collection_boxes", "addr:city": "TUSTIN", "addr:country": "US", "addr:postcode": "92780", "addr:state": "CA", "addr:street_address": "17862 17TH ST", "amenity": "post_box", "brand": "United States Postal Service", "brand:wikidata": "Q668687", "collection_times": "Mo-Sa 10:00", "nsi_id": "unitedstatespostalservice-a77078", "operator": "United States Postal Service", "operator:short": "USPS", "operator:type": "public", "operator:wikidata": "Q668687", "ref": "9278000080"}, "type": "Feature"}
{"geometry": {"coordinates": [-117.822423, 33.744717], "type": "Point"}, "id": "XfbMVJCnvCTEP4A6oBkh3565p3A=", "properties": {"@source_uri": "https://tools.usps.com/UspsToolsRestServices/rest/POLocator/findLocations", "@spider": "usps_collection_boxes", "addr:city": "TUSTIN", "addr:country": "US", "addr:postcode": "92780", "addr:state": "CA", "addr:street_address": "155 S PROSPECT AVE", "amenity": "post_box", "brand": "United States Postal Service", "brand:wikidata": "Q668687", "collection_times": "Mo-Sa 17:00", "note": "ON 12/24 AND 12/31, THIS BOX MAY BE COLLECTED AS EARLY AS 12 NOON.", "nsi_id": "unitedstatespostalservice-a77078", "operator": "United States Postal Service", "operator:short": "USPS", "operator:type": "public", "operator:wikidata": "Q668687", "ref": "9278000084"}, "type": "Feature"}
{"geometry": {"coordinates": [-117.820727, 33.745642], "type": "Point"}, "id": "hU3KN-QkId9c5wyhFNyoF1Qsesc=", "properties": {"@source_uri": "https://tools.usps.com/UspsToolsRestServices/rest/POLocator/findLocations", "@spider": "usps_collection_boxes", "addr:city": "TUSTIN", "addr:country": "US", "addr:postcode": "92780", "addr:state": "CA", "addr:street_address": "340 E 1ST ST", "amenity": "post_box", "brand": "United States Postal Service", "brand:wikidata": "Q668687", "collection_times": "Mo-Fr 17:15; Sa 17:00", "indoor": "yes", "note": "ON 12/24 AND 12/31, THIS BOX MAY BE COLLECTED AS EARLY AS 12 NOON.", "nsi_id": "unitedstatespostalservice-a77078", "operator": "United States Postal Service", "operator:short": "USPS", "operator:type": "public", "operator:wikidata": "Q668687", "ref": "9278000091"}, "type": "Feature"}
{"geometry": {"coordinates": [-117.825482, 33.744048], "type": "Point"}, "id": "0pUMXAaHjyP0f7qwo4hmgsnYyGI=", "properties": {"@source_uri": "https://tools.usps.com/UspsToolsRestServices/rest/POLocator/findLocations", "@spider": "usps_collection_boxes", "addr:city": "TUSTIN", "addr:country": "US", "addr:postcode": "92780", "addr:state": "CA", "addr:street_address": "200 S C ST", "amenity": "post_box", "brand": "United States Postal Service", "brand:wikidata": "Q668687", "collection_times": "Mo-Sa 10:00", "nsi_id": "unitedstatespostalservice-a77078", "operator": "United States Postal Service", "operator:short": "USPS", "operator:type": "public", "operator:wikidata": "Q668687", "ref": "9278000093"}, "type": "Feature"}
{"geometry": {"coordinates": [-117.816979, 33.724558], "type": "Point"}, "id": "Ho_po2ESpGg3UzgXvFXipQkT578=", "properties": {"@source_uri": "https://tools.usps.com/UspsToolsRestServices/rest/POLocator/findLocations", "@spider": "usps_collection_boxes", "addr:city": "TUSTIN", "addr:country": "US", "addr:postcode": "92780", "addr:state": "CA", "addr:street_address": "1831 ROANOKE AVE", "amenity": "post_box", "brand": "United States Postal Service", "brand:wikidata": "Q668687", "collection_times": "Mo-Sa 10:00", "nsi_id": "unitedstatespostalservice-a77078", "operator": "United States Postal Service", "operator:short": "USPS", "operator:type": "public", "operator:wikidata": "Q668687", "ref": "9278000094"}, "type": "Feature"}
{"geometry": {"coordinates": [-117.82063, 33.74567], "type": "Point"}, "id": "ZdpLG94f8QVX_2Q5e11xeZfLE-o=", "properties": {"@source_uri": "https://tools.usps.com/UspsToolsRestServices/rest/POLocator/findLocations", "@spider": "usps_collection_boxes", "addr:city": "TUSTIN", "addr:country": "US", "addr:postcode": "92780", "addr:state": "CA", "addr:street_address": "340 E 1ST ST", "amenity": "post_box", "brand": "United States Postal Service", "brand:wikidata": "Q668687", "collection_times": "Mo-Fr 17:15; Sa 17:00", "name": "USPS COLLECTION BOX - APC", "note": "ON 12/24 AND 12/31, THIS BOX MAY BE COLLECTED AS EARLY AS 12 NOON.", "nsi_id": "unitedstatespostalservice-a77078", "operator": "United States Postal Service", "operator:short": "USPS", "operator:type": "public", "operator:wikidata": "Q668687", "ref": "9278000096"}, "type": "Feature"}
{"geometry": {"coordinates": [-117.8208999745, 33.7456405029], "type": "Point"}, "id": "AtCUDqarIiViUoxIqLV8lD8ZPJU=", "properties": {"@source_uri": "https://tools.usps.com/UspsToolsRestServices/rest/POLocator/findLocations", "@spider": "usps_collection_boxes", "addr:city": "TUSTIN", "addr:country": "US", "addr:postcode": "92781", "addr:state": "CA", "addr:street_address": "340 E 1ST ST", "amenity": "post_box", "brand": "United States Postal Service", "brand:wikidata": "Q668687", "collection_times": "Mo-Fr 17:00; Sa 15:00", "indoor": "yes", "note": "ON 12/24 AND 12/31, THIS BOX MAY BE COLLECTED AS EARLY AS 12 NOON.", "nsi_id": "unitedstatespostalservice-a77078", "operator": "United States Postal Service", "operator:short": "USPS", "operator:type": "public", "operator:wikidata": "Q668687", "ref": "9278100001"}, "type": "Feature"}
{"geometry": {"coordinates": [-117.788979, 33.73036], "type": "Point"}, "id": "DfFCXw7Xpm3uHhh1DH7U3EQssm0=", "properties": {"@source_uri": "https://tools.usps.com/UspsToolsRestServices/rest/POLocator/findLocations", "@spider": "usps_collection_boxes", "addr:city": "TUSTIN", "addr:country": "US", "addr:postcode": "92782", "addr:state": "CA", "addr:street_address": "13201 JAMBOREE RD", "amenity": "post_box", "brand": "United States Postal Service", "brand:wikidata": "Q668687", "collection_times": "Mo-Sa 10:00", "nsi_id": "unitedstatespostalservice-a77078", "operator": "United States Postal Service", "operator:short": "USPS", "operator:type": "public", "operator:wikidata": "Q668687", "ref": "9278200005"}, "type": "Feature"}
{"geometry": {"coordinates": [-117.7939280808, 33.723942818], "type": "Point"}, "id": "ULWLOmG2CFDz7nvMUw-jrmh8BPc=", "properties": {"@source_uri": "https://tools.usps.com/UspsToolsRestServices/rest/POLocator/findLocations", "@spider": "usps_collection_boxes", "addr:city": "TUSTIN", "addr:country": "US", "addr:postcode": "92782", "addr:state": "CA", "addr:street_address": "2911 EL CAMINO REAL", "amenity": "post_box", "brand": "United States Postal Service", "brand:wikidata": "Q668687", "collection_times": "Mo-Sa 10:00", "nsi_id": "unitedstatespostalservice-a77078", "operator": "United States Postal Service", "operator:short": "USPS", "operator:type": "public", "operator:wikidata": "Q668687", "ref": "9278200009"}, "type": "Feature"}
{"geometry": {"coordinates": [-117.91157, 33.69576], "type": "Point"}, "id": "yBJg5ZEOWP7uM_UA57ezSmeVqy4=", "properties": {"@source_uri": "https://tools.usps.com/UspsToolsRestServices/rest/POLocator/findLocations", "@spider": "usps_collection_boxes", "addr:city": "SANTA ANA", "addr:country": "US", "addr:postcode": "92799", "addr:state": "CA", "addr:street_address": "3101 W SUNFLOWER AVE", "amenity": "post_box", "brand": "United States Postal Service", "brand:wikidata": "Q668687", "collection_times": "Mo-Sa 19:00", "note": "ON 12/24 AND 12/31, THIS BOX MAY BE COLLECTED AS EARLY AS 12 NOON.", "nsi_id": "unitedstatespostalservice-a77078", "operator": "United States Postal Service", "operator:short": "USPS", "operator:type": "public", "operator:wikidata": "Q668687", "ref": "9279900001"}, "type": "Feature"}
{"geometry": {"coordinates": [-117.910842576, 33.6958336701], "type": "Point"}, "id": "m-fzrRo2J_w7NekfO-6DCIPLj9E=", "properties": {"@source_uri": "https://tools.usps.com/UspsToolsRestServices/rest/POLocator/findLocations", "@spider": "usps_collection_boxes", "addr:city": "SANTA ANA", "addr:country": "US", "addr:postcode": "92799", "addr:state": "CA", "addr:street_address": "3101 W SUNFLOWER AVE", "amenity": "post_box", "brand": "United States Postal Service", "brand:wikidata": "Q668687", "collection_times": "Mo-Sa 19:00", "indoor": "yes", "note": "ON 12/24 AND 12/31, THIS BOX MAY BE COLLECTED AS EARLY AS 12 NOON.", "nsi_id": "unitedstatespostalservice-a77078", "operator": "United States Postal Service", "operator:short": "USPS", "operator:type": "public", "operator:wikidata": "Q668687", "ref": "9279900003"}, "type": "Feature"}
{"geometry": {"coordinates": [-117.910842576, 33.6958336701], "type": "Point"}, "id": "qzLFgpFvcuvPpvkXNK0tSWkzh3M=", "properties": {"@source_uri": "https://tools.usps.com/UspsToolsRestServices/rest/POLocator/findLocations", "@spider": "usps_collection_boxes", "addr:city": "SANTA ANA", "addr:country": "US", "addr:postcode": "92799", "addr:state": "CA", "addr:street_address": "3101 W SUNFLOWER AVE", "amenity": "post_box", "brand": "United States Postal Service", "brand:wikidata": "Q668687", "collection_times": "Mo-Sa 19:00", "indoor": "yes", "note": "ON 12/24 AND 12/31, THIS BOX MAY BE COLLECTED AS EARLY AS 12 NOON.", "nsi_id": "unitedstatespostalservice-a77078", "operator": "United States Postal Service", "operator:short": "USPS", "operator:type": "public", "operator:wikidata": "Q668687", "ref": "9279900004"}, "type": "Feature"}
{"geometry": {"coordinates": [-117.91157, 33.69576], "type": "Point"}, "id": "XMk3b2nsXTfArx6xxAIagmHXj-0=", "properties": {"@source_uri": "https://tools.usps.com/UspsToolsRestServices/rest/POLocator/findLocations", "@spider": "usps_collection_boxes", "addr:city": "SANTA ANA", "addr:country": "US", "addr:postcode": "92799", "addr:state": "CA", "addr:street_address": "3101 W SUNFLOWER AVE", "amenity": "post_box", "brand": "United States Postal Service", "brand:wikidata": "Q668687", "collection_times": "Mo-Sa 19:00", "note": "ON 12/24 AND 12/31, THIS BOX MAY BE COLLECTED AS EARLY AS 12 NOON.", "nsi_id": "unitedstatespostalservice-a77078", "operator": "United States Postal Service", "operator:short": "USPS", "operator:type": "public", "operator:wikidata": "Q668687", "ref": "9279900005"}, "type": "Feature"}
{"geometry": {"coordinates": [-117.91157, 33.69576], "type": "Point"}, "id": "qrQfVell6Giu2l7Yc-tA2Un4ZiE=", "properties": {"@source_uri": "https://tools.usps.com/UspsToolsRestServices/rest/POLocator/findLocations", "@spider": "usps_collection_boxes", "addr:city": "SANTA ANA", "addr:country": "US", "addr:postcode": "92799", "addr:state": "CA", "addr:street_address": "3101 W SUNFLOWER AVE", "amenity": "post_box", "brand": "United States Postal Service", "brand:wikidata": "Q668687", "collection_times": "Mo-Sa 16:30", "name": "USPS COLLECTION BOX - EXPRESS", "note": "ON 12/24 AND 12/31, THIS BOX MAY BE COLLECTED AS EARLY AS 12 NOON.", "nsi_id": "unitedstatespostalservice-a77078", "operator": "United States Postal Service", "operator:short": "USPS", "operator:type": "public", "operator:wikidata": "Q668687", "ref": "9279900006"}, "type": "Feature"}
{"geometry": {"coordinates": [-117.910842576, 33.6958336701], "type": "Point"}, "id": "9_kyXhypHOlbUq01yzqRWRWoc84=", "properties": {"@source_uri": "https://tools.usps.com/UspsToolsRestServices/rest/POLocator/findLocations", "@spider": "usps_collection_boxes", "addr:city": "SANTA ANA", "addr:country": "US", "addr:postcode": "92799", "addr:state": "CA", "addr:street_address": "3101 W SUNFLOWER AVE", "amenity": "post_box", "brand": "United States Postal Service", "brand:wikidata": "Q668687", "collection_times": "Mo-Sa 17:00", "note": "ON 12/24 AND 12/31, THIS BOX MAY BE COLLECTED AS EARLY AS 12 NOON.", "nsi_id": "unitedstatespostalservice-a77078", "operator": "United States Postal Service", "operator:short": "USPS", "operator:type": "public", "operator:wikidata": "Q668687", "ref": "9279900009"}, "type": "Feature"}
{"geometry": {"coordinates": [-117.910838299, 33.695833818], "type": "Point"}, "id": "USoYSGlHqyjhTk24u1mQ20k8OAE=", "properties": {"@source_uri": "https://tools.usps.com/UspsToolsRestServices/rest/POLocator/findLocations", "@spider": "usps_collection_boxes", "addr:city": "SANTA ANA", "addr:country": "US", "addr:postcode": "92799", "addr:state": "CA", "addr:street_address": "3101 W SUNFLOWER AVE", "amenity": "post_box", "brand": "United States Postal Service", "brand:wikidata": "Q668687", "collection_times": "Mo-Sa 19:00", "name": "USPS COLLECTION BOX - APC", "note": "ON 12/24 AND 12/31, THIS BOX MAY BE COLLECTED AS EARLY AS 12 NOON.", "nsi_id": "unitedstatespostalservice-a77078", "operator": "United States Postal Service", "operator:short": "USPS", "operator:type": "public", "operator:wikidata": "Q668687", "ref": "9279900011"}, "type": "Feature"}
{"geometry": {"coordinates": [-117.910842576, 33.6958336701], "type": "Point"}, "id": "0hU7xl65nxgwAxeH2j3THP8XKmw=", "properties": {"@source_uri": "https://tools.usps.com/UspsToolsRestServices/rest/POLocator/findLocations", "@spider": "usps_collection_boxes", "addr:city": "SANTA ANA", "addr:country": "US", "addr:postcode": "92799", "addr:state": "CA", "addr:street_address": "3101 W SUNFLOWER AVE", "amenity": "post_box", "brand": "United States Postal Service", "brand:wikidata": "Q668687", "collection_times": "Mo-Fr 19:00; Sa 15:00", "indoor": "yes", "note": "ON 12/24 AND 12/31, THIS BOX MAY BE COLLECTED AS EARLY AS 12 NOON.", "nsi_id": "unitedstatespostalservice-a77078", "operator": "United States Postal Service", "operator:short": "USPS", "operator:type": "public", "operator:wikidata": "Q668687", "ref": "9279900012"}, "type": "Feature"}
{"geometry": {"coordinates": [-117.911964011, 33.696550002], "type": "Point"}, "id": "GrkKJjHALYlkXhOZNjPm6U8yy3U=", "properties": {"@source_uri": "https://tools.usps.com/UspsToolsRestServices/rest/POLocator/findLocations", "@spider": "usps_collection_boxes", "addr:city": "SANTA ANA", "addr:country": "US", "addr:postcode": "92799", "addr:state": "CA", "addr:street_address": "3101 W SUNFLOWER AVE", "amenity": "post_box", "brand": "United States Postal Service", "brand:wikidata": "Q668687", "collection_times": "Mo-Sa 19:00", "name": "USPS COLLECTION BOX - APC", "note": "ON 12/24 AND 12/31, THIS BOX MAY BE COLLECTED AS EARLY AS 12 NOON.", "nsi_id": "unitedstatespostalservice-a77078", "operator": "United States Postal Service", "operator:short": "USPS", "operator:type": "public", "operator:wikidata": "Q668687", "ref": "9279900013"}, "type": "Feature"}
