{"dataset_attributes": {"@spider": "usps_collection_boxes"}, "geometry": {"coordinates": [-117.956598, 33.839872], "type": "Point"}, "id": "HdO7gZ9hKHA5SDBVkFX2XCPzYkI=", "properties": {"@spider": "usps_collection_boxes", "addr:city": "ANAHEIM", "addr:country": "US", "addr:full": "2141 W CRESCENT AVE", "addr:postcode": "92801", "addr:state": "CA", "amenity": "post_box", "brand": "United States Postal Service", "brand:wikidata": "Q668687", "collection_times": "Mo-Sa 10:00", "name": "USPS COLLECTION BOX - BLUE BOX", "nsi_id": "unitedstatespostalservice-a77078", "operator": "United States Postal Service", "operator:short": "USPS", "operator:type": "public", "operator:wikidata": "Q668687", "ref": "9280100002"}, "type": "Feature"}
{"dataset_attributes": {"@spider": "usps_collection_boxes"}, "geometry": {"coordinates": [-117.9775959896, 33.8479899959], "type": "Point"}, "id": "OAE9rOz-rdsL5OM9mq0pnc0mr60=", "properties": {"@spider": "usps_collection_boxes", "addr:city": "ANAHEIM", "addr:country": "US", "addr:full": "2660 W WOODLAND DR", "addr:postcode": "92801", "addr:state": "CA", "amenity": "post_box", "brand": "United States Postal Service", "brand:wikidata": "Q668687", "collection_times": "Mo-Sa 10:00", "name": "USPS COLLECTION BOX - BLUE BOX", "nsi_id": "unitedstatespostalservice-a77078", "operator": "United States Postal Service", "operator:short": "USPS", "operator:type": "public", "operator:wikidata": "Q668687", "ref": "9280100012"}, "type": "Feature"}
{"dataset_attributes": {"@spider": "usps_collection_boxes"}, "geometry": {"coordinates": [-117.9736316868, 33.8492785404], "type": "Point"}, "id": "aY2xwgedpcOHJs-4QV2ZYjoUj4M=", "properties": {"@spider": "usps_collection_boxes", "addr:city": "ANAHEIM", "addr:country": "US", "addr:full": "2544 W WOODLAND DR", "addr:postcode": "92801", "addr:state": "CA", "amenity": "post_box", "brand": "United States Postal Service", "brand:wikidata": "Q668687", "collection_times": "Mo-Sa 10:00", "name": "USPS COLLECTION BOX - BLUE BOX", "nsi_id": "unitedstatespostalservice-a77078", "operator": "United States Postal Service", "operator:short": "USPS", "operator:type": "public", "operator:wikidata": "Q668687", "ref": "9280100014"}, "type": "Feature"}
{"dataset_attributes": {"@spider": "usps_collection_boxes"}, "geometry": {"coordinates": [-117.959257978, 33.8384169824], "type": "Point"}, "id": "Suw6WK69s8ZDlhHOw2BmJYFuyjA=", "properties": {"@spider": "usps_collection_boxes", "addr:city": "ANAHEIM", "addr:country": "US", "addr:full": "501 N BROOKHURST ST", "addr:postcode": "92801", "addr:state": "CA", "amenity": "post_box", "brand": "United States Postal Service", "brand:wikidata": "Q668687", "collection_times": "Mo-Sa 10:00", "name": "USPS COLLECTION BOX - BLUE BOX", "nsi_id": "unitedstatespostalservice-a77078", "operator": "United States Postal Service", "operator:short": "USPS", "operator:type": "public", "operator:wikidata": "Q668687", "ref": "9280100027"}, "type": "Feature"}
{"dataset_attributes": {"@spider": "usps_collection_boxes"}, "geometry": {"coordinates": [-117.9191655, 33.859535518], "type": "Point"}, "id": "Ge5O15fv9t3T8N6zBx-AN5Mswnc=", "properties": {"@spider": "usps_collection_boxes", "addr:city": "ANAHEIM", "addr:country": "US", "addr:full": "75 E ORANGETHORPE AVE", "addr:postcode": "92801", "addr:state": "CA", "amenity": "post_box", "brand": "United States Postal Service", "brand:wikidata": "Q668687", "collection_times": "Mo-Sa 10:00", "name": "USPS COLLECTION BOX - BLUE BOX", "nsi_id": "unitedstatespostalservice-a77078", "operator": "United States Postal Service", "operator:short": "USPS", "operator:type": "public", "operator:wikidata": "Q668687", "ref": "9280100038"}, "type": "Feature"}
{"dataset_attributes": {"@spider": "usps_collection_boxes"}, "geometry": {"coordinates": [-117.937304, 33.840882], "type": "Point"}, "id": "lr4qcLDbUsK7BW12FOS3E6VFq88=", "properties": {"@spider": "usps_collection_boxes", "addr:city": "ANAHEIM", "addr:country": "US", "addr:full": "701 N LOARA ST", "addr:postcode": "92801", "addr:state": "CA", "amenity": "post_box", "brand": "United States Postal Service", "brand:wikidata": "Q668687", "collection_times": "Mo-Fr 17:30; Sa 16:30", "name": "USPS COLLECTION BOX - BLUE BOX", "note": "ON 12/24 AND 12/31, THIS BOX MAY BE COLLECTED AS EARLY AS 12 NOON.", "nsi_id": "unitedstatespostalservice-a77078", "operator": "United States Postal Service", "operator:short": "USPS", "operator:type": "public", "operator:wikidata": "Q668687", "ref": "9280100046"}, "type": "Feature"}
{"dataset_attributes": {"@spider": "usps_collection_boxes"}, "geometry": {"coordinates": [-117.937593, 33.841348], "type": "Point"}, "id": "pTvrhfYt3du1dzeX6I6DjHapKPg=", "properties": {"@spider": "usps_collection_boxes", "addr:city": "ANAHEIM", "addr:country": "US", "addr:full": "701 N LOARA ST", "addr:postcode": "92801", "addr:state": "CA", "amenity": "post_box", "brand": "United States Postal Service", "brand:wikidata": "Q668687", "collection_times": "Mo-Fr 16:00; Sa 10:00", "name": "USPS COLLECTION BOX - EXPRESS", "note": "ON 12/24 AND 12/31, THIS BOX MAY BE COLLECTED AS EARLY AS 12 NOON.", "nsi_id": "unitedstatespostalservice-a77078", "operator": "United States Postal Service", "operator:short": "USPS", "operator:type": "public", "operator:wikidata": "Q668687", "ref": "9280100058"}, "type": "Feature"}
{"dataset_attributes": {"@spider": "usps_collection_boxes"}, "geometry": {"coordinates": [-117.93727, 33.840793], "type": "Point"}, "id": "ORpF2GWgp6hEIx6InDm1FN6YvXw=", "properties": {"@spider": "usps_collection_boxes", "addr:city": "ANAHEIM", "addr:country": "US", "addr:full": "701 N LOARA ST", "addr:postcode": "92801", "addr:state": "CA", "amenity": "post_box", "brand": "United States Postal Service", "brand:wikidata": "Q668687", "collection_times": "Mo-Fr 17:30; Sa 16:30", "name": "USPS COLLECTION BOX - APC", "note": "ON 12/24 AND 12/31, THIS BOX MAY BE COLLECTED AS EARLY AS 12 NOON.", "nsi_id": "unitedstatespostalservice-a77078", "operator": "United States Postal Service", "operator:short": "USPS", "operator:type": "public", "operator:wikidata": "Q668687", "ref": "9280100066"}, "type": "Feature"}
{"dataset_attributes": {"@spider": "usps_collection_boxes"}, "geometry": {"coordinates": [-117.914801, 33.791136], "type": "Point"}, "id": "Bt8yti0oxfLFTOqxaht_HJNR3eQ=", "properties": {"@spider": "usps_collection_boxes", "addr:city": "ANAHEIM", "addr:country": "US", "addr:full": "2260 S HARBOR BLVD", "addr:postcode": "92802", "addr:state": "CA", "amenity": "post_box", "brand": "United States Postal Service", "brand:wikidata": "Q668687", "collection_times": "Mo-Sa 10:00", "name": "USPS COLLECTION BOX - BLUE BOX", "nsi_id": "unitedstatespostalservice-a77078", "operator": "United States Postal Service", "operator:short": "USPS", "operator:type": "public", "operator:wikidata": "Q668687", "ref": "9280200005"}, "type": "Feature"}
{"dataset_attributes": {"@spider": "usps_collection_boxes"}, "geometry": {"coordinates": [-117.927223, 33.817531], "type": "Point"}, "id": "5ylnM651MVxep8BcZYd7qC-B1vo=", "properties": {"@spider": "usps_collection_boxes", "addr:city": "ANAHEIM", "addr:country": "US", "addr:full": "1180 W BALL RD", "addr:postcode": "92802", "addr:state": "CA", "amenity": "post_box", "brand": "United States Postal Service", "brand:wikidata": "Q668687", "collection_times": "Mo-Fr 17:00; Sa 16:00", "name": "USPS COLLECTION BOX - BLUE BOX", "note": "ON 12/24 AND 12/31, THIS BOX MAY BE COLLECTED AS EARLY AS 12 NOON.", "nsi_id": "unitedstatespostalservice-a77078", "operator": "United States Postal Service", "operator:short": "USPS", "operator:type": "public", "operator:wikidata": "Q668687", "ref": "9280200036"}, "type": "Feature"}
{"dataset_attributes": {"@spider": "usps_collection_boxes"}, "geometry": {"coordinates": [-117.937317093, 33.841314555], "type": "Point"}, "id": "jEb2wpKRBEZFGxiYIPgqgJHvIaU=", "properties": {"@spider": "usps_collection_boxes", "addr:city": "ANAHEIM", "addr:country": "US", "addr:full": "701 N LOARA ST", "addr:postcode": "92803", "addr:state": "CA", "amenity": "post_box", "brand": "United States Postal Service", "brand:wikidata": "Q668687", "collection_times": "Mo-Fr 17:00; Sa 15:00", "name": "USPS COLLECTION BOX - PO LOBBY", "note": "ON 12/24 AND 12/31, THIS BOX MAY BE COLLECTED AS EARLY AS 12 NOON.", "nsi_id": "unitedstatespostalservice-a77078", "operator": "United States Postal Service", "operator:short": "USPS", "operator:type": "public", "operator:wikidata": "Q668687", "ref": "9280300001"}, "type": "Feature"}
{"dataset_attributes": {"@spider": "usps_collection_boxes"}, "geometry": {"coordinates": [-117.9948840002, 33.8254580152], "type": "Point"}, "id": "O3MUxcoTa3SjANWBdUuBFiiJtTk=", "properties": {"@spider": "usps_collection_boxes", "addr:city": "ANAHEIM", "addr:country": "US", "addr:full": "3033 W ORANGE AVE", "addr:postcode": "92804", "addr:state": "CA", "amenity": "post_box", "brand": "United States Postal Service", "brand:wikidata": "Q668687", "collection_times": "Mo-Sa 10:00", "name": "USPS COLLECTION BOX - BLUE BOX", "nsi_id": "unitedstatespostalservice-a77078", "operator": "United States Postal Service", "operator:short": "USPS", "operator:type": "public", "operator:wikidata": "Q668687", "ref": "9280400014"}, "type": "Feature"}
{"dataset_attributes": {"@spider": "usps_collection_boxes"}, "geometry": {"coordinates": [-117.961840542, 33.817815975], "type": "Point"}, "id": "KTeQGp9_dEtGsIBIhnXbDU1x5W8=", "properties": {"@spider": "usps_collection_boxes", "addr:city": "ANAHEIM", "addr:country": "US", "addr:full": "2255 W BALL RD", "addr:postcode": "92804", "addr:state": "CA", "amenity": "post_box", "brand": "United States Postal Service", "brand:wikidata": "Q668687", "collection_times": "Mo-Fr 17:10; Sa 16:30", "name": "USPS COLLECTION BOX - BLUE BOX", "note": "ON 12/24 AND 12/31, THIS BOX MAY BE COLLECTED AS EARLY AS 12 NOON.", "nsi_id": "unitedstatespostalservice-a77078", "operator": "United States Postal Service", "operator:short": "USPS", "operator:type": "public", "operator:wikidata": "Q668687", "ref": "9280400027"}, "type": "Feature"}
{"dataset_attributes": {"@spider": "usps_collection_boxes"}, "geometry": {"coordinates": [-117.961840542, 33.817815975], "type": "Point"}, "id": "qPgHCDYwU47DH4XDml9FYeLCj1Q=", "properties": {"@spider": "usps_collection_boxes", "addr:city": "ANAHEIM", "addr:country": "US", "addr:full": "2255 W BALL RD", "addr:postcode": "92804", "addr:state": "CA", "amenity": "post_box", "brand": "United States Postal Service", "brand:wikidata": "Q668687", "collection_times": "Mo-Fr 17:10; Sa 16:30", "name": "USPS COLLECTION BOX - BLUE BOX", "note": "ON 12/24 AND 12/31, THIS BOX MAY BE COLLECTED AS EARLY AS 12 NOON.", "nsi_id": "unitedstatespostalservice-a77078", "operator": "United States Postal Service", "operator:short": "USPS", "operator:type": "public", "operator:wikidata": "Q668687", "ref": "9280400028"}, "type": "Feature"}
{"dataset_attributes": {"@spider": "usps_collection_boxes"}, "geometry": {"coordinates": [-117.959952185, 33.817847815], "type": "Point"}, "id": "Rmv55h9A9639VaSmGH4F1tXq2Zk=", "properties": {"@spider": "usps_collection_boxes", "addr:city": "ANAHEIM", "addr:country": "US", "addr:full": "2223 W BALL RD", "addr:postcode": "92804", "addr:state": "CA", "amenity": "post_box", "brand": "United States Postal Service", "brand:wikidata": "Q668687", "collection_times": "Mo-Sa 10:00", "name": "USPS COLLECTION BOX - BLUE BOX", "nsi_id": "unitedstatespostalservice-a77078", "operator": "United States Postal Service", "operator:short": "USPS", "operator:type": "public", "operator:wikidata": "Q668687", "ref": "9280400032"}, "type": "Feature"}
{"dataset_attributes": {"@spider": "usps_collection_boxes"}, "geometry": {"coordinates": [-117.962144528, 33.81777652], "type": "Point"}, "id": "mRHsnKfLTwUc2MioFff9J2kPrec=", "properties": {"@spider": "usps_collection_boxes", "addr:city": "ANAHEIM", "addr:country": "US", "addr:full": "2255 W BALL RD", "addr:postcode": "92804", "addr:state": "CA", "amenity": "post_box", "brand": "United States Postal Service", "brand:wikidata": "Q668687", "collection_times": "Mo-Fr 15:30", "name": "USPS COLLECTION BOX - EXPRESS", "note": "ON 12/24 AND 12/31, THIS BOX MAY BE COLLECTED AS EARLY AS 12 NOON.", "nsi_id": "unitedstatespostalservice-a77078", "operator": "United States Postal Service", "operator:short": "USPS", "operator:type": "public", "operator:wikidata": "Q668687", "ref": "9280400033"}, "type": "Feature"}
{"dataset_attributes": {"@spider": "usps_collection_boxes"}, "geometry": {"coordinates": [-117.8905650125, 33.8411369938], "type": "Point"}, "id": "RhYrTCAPfHJQvf2jvPqMUfQiwSE=", "properties": {"@spider": "usps_collection_boxes", "addr:city": "ANAHEIM", "addr:country": "US", "addr:full": "1919 E CENTER ST", "addr:postcode": "92805", "addr:state": "CA", "amenity": "post_box", "brand": "United States Postal Service", "brand:wikidata": "Q668687", "collection_times": "Mo-Sa 10:00", "name": "USPS COLLECTION BOX - BLUE BOX", "nsi_id": "unitedstatespostalservice-a77078", "operator": "United States Postal Service", "operator:short": "USPS", "operator:type": "public", "operator:wikidata": "Q668687", "ref": "9280500025"}, "type": "Feature"}
{"dataset_attributes": {"@spider": "usps_collection_boxes"}, "geometry": {"coordinates": [-117.916685, 33.833122], "type": "Point"}, "id": "nVciLCJXqVvurdpYDEr1yzXeDF4=", "properties": {"@spider": "usps_collection_boxes", "addr:city": "ANAHEIM", "addr:country": "US", "addr:full": "333 W BROADWAY", "addr:postcode": "92805", "addr:state": "CA", "amenity": "post_box", "brand": "United States Postal Service", "brand:wikidata": "Q668687", "collection_times": "Mo-Fr 17:00; Sa 10:45", "name": "USPS COLLECTION BOX - BLUE BOX", "note": "ON 12/24 AND 12/31, THIS BOX MAY BE COLLECTED AS EARLY AS 12 NOON.", "nsi_id": "unitedstatespostalservice-a77078", "operator": "United States Postal Service", "operator:short": "USPS", "operator:type": "public", "operator:wikidata": "Q668687", "ref": "9280500044"}, "type": "Feature"}
{"dataset_attributes": {"@spider": "usps_collection_boxes"}, "geometry": {"coordinates": [-117.9166923366, 33.8326144585], "type": "Point"}, "id": "PIHu1C_rKWCcW4Jnb07ByhnsB7U=", "properties": {"@spider": "usps_collection_boxes", "addr:city": "ANAHEIM", "addr:country": "US", "addr:full": "333 W BROADWAY", "addr:postcode": "92805", "addr:state": "CA", "amenity": "post_box", "brand": "United States Postal Service", "brand:wikidata": "Q668687", "collection_times": "Mo-Fr 17:00; Sa 10:45", "name": "USPS COLLECTION BOX - BLUE BOX", "note": "ON 12/24 AND 12/31, THIS BOX MAY BE COLLECTED AS EARLY AS 12 NOON.", "nsi_id": "unitedstatespostalservice-a77078", "operator": "United States Postal Service", "operator:short": "USPS", "operator:type": "public", "operator:wikidata": "Q668687", "ref": "9280500045"}, "type": "Feature"}
{"dataset_attributes": {"@spider": "usps_collection_boxes"}, "geometry": {"coordinates": [-117.9166923366, 33.8326144585], "type": "Point"}, "id": "hhSZPgxnWrz0oZmSEXoKS8NoPV0=", "properties": {"@spider": "usps_collection_boxes", "addr:city": "ANAHEIM", "addr:country": "US", "addr:full": "333 W BROADWAY", "addr:postcode": "92805", "addr:state": "CA", "amenity": "post_box", "brand": "United States Postal Service", "brand:wikidata": "Q668687", "collection_times": "Mo-Fr 17:00; Sa 10:45", "name": "USPS COLLECTION BOX - BLUE BOX", "note": "ON 12/24 AND 12/31, THIS BOX MAY BE COLLECTED AS EARLY AS 12 NOON.", "nsi_id": "unitedstatespostalservice-a77078", "operator": "United States Postal Service", "operator:short": "USPS", "operator:type": "public", "operator:wikidata": "Q668687", "ref": "9280500046"}, "type": "Feature"}
{"dataset_attributes": {"@spider": "usps_collection_boxes"}, "geometry": {"coordinates": [-117.916707, 33.832907], "type": "Point"}, "id": "eOMQImXYyB7kHEQQvzwy_Rw9QLE=", "properties": {"@spider": "usps_collection_boxes", "addr:city": "ANAHEIM", "addr:country": "US", "addr:full": "333 W BROADWAY", "addr:postcode": "92805", "addr:state": "CA", "amenity": "post_box", "brand": "United States Postal Service", "brand:wikidata": "Q668687", "collection_times": "Mo-Fr 15:30", "name": "USPS COLLECTION BOX - EXPRESS", "note": "ON 12/24 AND 12/31, THIS BOX MAY BE COLLECTED AS EARLY AS 12 NOON.", "nsi_id": "unitedstatespostalservice-a77078", "operator": "United States Postal Service", "operator:short": "USPS", "operator:type": "public", "operator:wikidata": "Q668687", "ref": "9280500051"}, "type": "Feature"}
{"dataset_attributes": {"@spider": "usps_collection_boxes"}, "geometry": {"coordinates": [-117.8633629707, 33.8521560113], "type": "Point"}, "id": "Lv___WfllWFCMxXnRlCy0H6-1Xc=", "properties": {"@spider": "usps_collection_boxes", "addr:city": "ANAHEIM", "addr:country": "US", "addr:full": "1150 N RED GUM ST", "addr:postcode": "92806", "addr:state": "CA", "amenity": "post_box", "brand": "United States Postal Service", "brand:wikidata": "Q668687", "collection_times": "Mo-Sa 10:00", "name": "USPS COLLECTION BOX - BLUE BOX", "nsi_id": "unitedstatespostalservice-a77078", "operator": "United States Postal Service", "operator:short": "USPS", "operator:type": "public", "operator:wikidata": "Q668687", "ref": "9280600001"}, "type": "Feature"}
{"dataset_attributes": {"@spider": "usps_collection_boxes"}, "geometry": {"coordinates": [-117.882952766, 33.794217031], "type": "Point"}, "id": "GGB024qWsfYnlAceBrSCmgmX8cc=", "properties": {"@spider": "usps_collection_boxes", "addr:city": "ANAHEIM", "addr:country": "US", "addr:full": "2150 S TOWNE CENTRE PL", "addr:postcode": "92806", "addr:state": "CA", "amenity": "post_box", "brand": "United States Postal Service", "brand:wikidata": "Q668687", "collection_times": "Mo-Sa 10:00", "name": "USPS COLLECTION BOX - BLUE BOX", "nsi_id": "unitedstatespostalservice-a77078", "operator": "United States Postal Service", "operator:short": "USPS", "operator:type": "public", "operator:wikidata": "Q668687", "ref": "9280600013"}, "type": "Feature"}
{"dataset_attributes": {"@spider": "usps_collection_boxes"}, "geometry": {"coordinates": [-117.8120583459, 33.8595269972], "type": "Point"}, "id": "B9a8KPMzA6i0hBwZEytNPTGgCws=", "properties": {"@spider": "usps_collection_boxes", "addr:city": "ANAHEIM", "addr:country": "US", "addr:full": "4887 E LA PALMA AVE", "addr:postcode": "92807", "addr:state": "CA", "amenity": "post_box", "brand": "United States Postal Service", "brand:wikidata": "Q668687", "collection_times": "Mo-Sa 10:00", "name": "USPS COLLECTION BOX - BLUE BOX", "nsi_id": "unitedstatespostalservice-a77078", "operator": "United States Postal Service", "operator:short": "USPS", "operator:type": "public", "operator:wikidata": "Q668687", "ref": "9280700000"}, "type": "Feature"}
{"dataset_attributes": {"@spider": "usps_collection_boxes"}, "geometry": {"coordinates": [-117.836856, 33.85584], "type": "Point"}, "id": "bcsm0lpRAsGZ6Z-e0QqCE0nTIVo=", "properties": {"@spider": "usps_collection_boxes", "addr:city": "ANAHEIM", "addr:country": "US", "addr:full": "1100 N TUSTIN AVE", "addr:postcode": "92807", "addr:state": "CA", "amenity": "post_box", "brand": "United States Postal Service", "brand:wikidata": "Q668687", "collection_times": "Mo-Sa 10:00", "name": "USPS COLLECTION BOX - BLUE BOX", "nsi_id": "unitedstatespostalservice-a77078", "operator": "United States Postal Service", "operator:short": "USPS", "operator:type": "public", "operator:wikidata": "Q668687", "ref": "9280700005"}, "type": "Feature"}
{"dataset_attributes": {"@spider": "usps_collection_boxes"}, "geometry": {"coordinates": [-117.831118, 33.859461], "type": "Point"}, "id": "BWGMUBoul05MSImao4AlQhLkTPA=", "properties": {"@spider": "usps_collection_boxes", "addr:city": "ANAHEIM", "addr:country": "US", "addr:full": "1200 N VAN BUREN ST", "addr:postcode": "92807", "addr:state": "CA", "amenity": "post_box", "brand": "United States Postal Service", "brand:wikidata": "Q668687", "collection_times": "Mo-Sa 10:00", "name": "USPS COLLECTION BOX - BLUE BOX", "nsi_id": "unitedstatespostalservice-a77078", "operator": "United States Postal Service", "operator:short": "USPS", "operator:type": "public", "operator:wikidata": "Q668687", "ref": "9280700012"}, "type": "Feature"}
{"dataset_attributes": {"@spider": "usps_collection_boxes"}, "geometry": {"coordinates": [-117.805802, 33.860212], "type": "Point"}, "id": "6Blhkwb-vHbiISM3jiISWEFx-Wc=", "properties": {"@spider": "usps_collection_boxes", "addr:city": "ANAHEIM", "addr:country": "US", "addr:full": "5101 E LA PALMA AVE", "addr:postcode": "92807", "addr:state": "CA", "amenity": "post_box", "brand": "United States Postal Service", "brand:wikidata": "Q668687", "collection_times": "Mo-Sa 10:00", "name": "USPS COLLECTION BOX - BLUE BOX", "nsi_id": "unitedstatespostalservice-a77078", "operator": "United States Postal Service", "operator:short": "USPS", "operator:type": "public", "operator:wikidata": "Q668687", "ref": "9280700014"}, "type": "Feature"}
{"dataset_attributes": {"@spider": "usps_collection_boxes"}, "geometry": {"coordinates": [-117.805802, 33.860205], "type": "Point"}, "id": "Yuo7IFZg_bDJI4jUMUuCIhdXQ10=", "properties": {"@spider": "usps_collection_boxes", "addr:city": "ANAHEIM", "addr:country": "US", "addr:full": "5101 E LA PALMA AVE", "addr:postcode": "92807", "addr:state": "CA", "amenity": "post_box", "brand": "United States Postal Service", "brand:wikidata": "Q668687", "collection_times": "Mo-Sa 10:00", "name": "USPS COLLECTION BOX - BLUE BOX", "nsi_id": "unitedstatespostalservice-a77078", "operator": "United States Postal Service", "operator:short": "USPS", "operator:type": "public", "operator:wikidata": "Q668687", "ref": "9280700015"}, "type": "Feature"}
{"dataset_attributes": {"@spider": "usps_collection_boxes"}, "geometry": {"coordinates": [-117.831115, 33.859475], "type": "Point"}, "id": "viVapZ_mNmogHNZ23mGGQu9jkns=", "properties": {"@spider": "usps_collection_boxes", "addr:city": "ANAHEIM", "addr:country": "US", "addr:full": "1200 N VAN BUREN ST", "addr:postcode": "92807", "addr:state": "CA", "amenity": "post_box", "brand": "United States Postal Service", "brand:wikidata": "Q668687", "collection_times": "Mo-Sa 10:00", "name": "USPS COLLECTION BOX - BLUE BOX", "nsi_id": "unitedstatespostalservice-a77078", "operator": "United States Postal Service", "operator:short": "USPS", "operator:type": "public", "operator:wikidata": "Q668687", "ref": "9280700043"}, "type": "Feature"}
{"dataset_attributes": {"@spider": "usps_collection_boxes"}, "geometry": {"coordinates": [-117.795328, 33.851596], "type": "Point"}, "id": "aqg-4SP5OsLdSXpZ2UEaeW-RpHQ=", "properties": {"@spider": "usps_collection_boxes", "addr:city": "ANAHEIM", "addr:country": "US", "addr:full": "5505 E SANTA ANA CYN RD", "addr:postcode": "92807", "addr:state": "CA", "amenity": "post_box", "brand": "United States Postal Service", "brand:wikidata": "Q668687", "collection_times": "Mo-Fr 18:00; Sa 17:00", "name": "USPS COLLECTION BOX - APC", "note": "ON 12/24 AND 12/31, THIS BOX MAY BE COLLECTED AS EARLY AS 12 NOON.", "nsi_id": "unitedstatespostalservice-a77078", "operator": "United States Postal Service", "operator:short": "USPS", "operator:type": "public", "operator:wikidata": "Q668687", "ref": "9280700050"}, "type": "Feature"}
{"dataset_attributes": {"@spider": "usps_collection_boxes"}, "geometry": {"coordinates": [-117.840908, 33.860765], "type": "Point"}, "id": "D8VnAXgulht9wZrRVL3pxdYaF8c=", "properties": {"@spider": "usps_collection_boxes", "addr:city": "ANAHEIM", "addr:country": "US", "addr:full": "1283 N TUSTIN AVE", "addr:postcode": "92807", "addr:state": "CA", "amenity": "post_box", "brand": "United States Postal Service", "brand:wikidata": "Q668687", "collection_times": "Mo-Sa 10:00", "name": "USPS COLLECTION BOX - BLUE BOX", "nsi_id": "unitedstatespostalservice-a77078", "operator": "United States Postal Service", "operator:short": "USPS", "operator:type": "public", "operator:wikidata": "Q668687", "ref": "9280700051"}, "type": "Feature"}
{"dataset_attributes": {"@spider": "usps_collection_boxes"}, "geometry": {"coordinates": [-117.7953618287, 33.8516298661], "type": "Point"}, "id": "x6xcpj0_0aB-acfrmu-zHVbGR44=", "properties": {"@spider": "usps_collection_boxes", "addr:city": "ANAHEIM", "addr:country": "US", "addr:full": "5505 E SANTA ANA CANYON RD", "addr:postcode": "92807", "addr:state": "CA", "amenity": "post_box", "brand": "United States Postal Service", "brand:wikidata": "Q668687", "collection_times": "Mo-Fr 18:00; Sa 17:00", "name": "USPS COLLECTION BOX - BLUE BOX", "note": "ON 12/24 AND 12/31, THIS BOX MAY BE COLLECTED AS EARLY AS 12 NOON.", "nsi_id": "unitedstatespostalservice-a77078", "operator": "United States Postal Service", "operator:short": "USPS", "operator:type": "public", "operator:wikidata": "Q668687", "ref": "9280700056"}, "type": "Feature"}
{"dataset_attributes": {"@spider": "usps_collection_boxes"}, "geometry": {"coordinates": [-117.739133, 33.860842], "type": "Point"}, "id": "4OmCebKaYvGbiRQBr9EcOkvmma0=", "properties": {"@spider": "usps_collection_boxes", "addr:city": "ANAHEIM", "addr:country": "US", "addr:full": "751 S WEIR CANYON RD", "addr:postcode": "92808", "addr:state": "CA", "amenity": "post_box", "brand": "United States Postal Service", "brand:wikidata": "Q668687", "collection_times": "Mo-Sa 10:00", "name": "USPS COLLECTION BOX - BLUE BOX", "nsi_id": "unitedstatespostalservice-a77078", "operator": "United States Postal Service", "operator:short": "USPS", "operator:type": "public", "operator:wikidata": "Q668687", "ref": "9280800005"}, "type": "Feature"}
{"dataset_attributes": {"@spider": "usps_collection_boxes"}, "geometry": {"coordinates": [-117.7441155, 33.866586], "type": "Point"}, "id": "so8f6rJPsV2i2lwEorjjQpC1JBY=", "properties": {"@spider": "usps_collection_boxes", "addr:city": "ANAHEIM", "addr:country": "US", "addr:full": "8161 E KAISER BLVD", "addr:postcode": "92808", "addr:state": "CA", "amenity": "post_box", "brand": "United States Postal Service", "brand:wikidata": "Q668687", "collection_times": "Mo-Fr 17:15; Sa 16:00", "name": "USPS COLLECTION BOX - BLUE BOX", "note": "ON 12/24 AND 12/31, THIS BOX MAY BE COLLECTED AS EARLY AS 12 NOON.", "nsi_id": "unitedstatespostalservice-a77078", "operator": "United States Postal Service", "operator:short": "USPS", "operator:type": "public", "operator:wikidata": "Q668687", "ref": "9280800009"}, "type": "Feature"}
{"dataset_attributes": {"@spider": "usps_collection_boxes"}, "geometry": {"coordinates": [-117.744113169, 33.8658444433], "type": "Point"}, "id": "z6LkrsuDNsg-XLvEKcMVJv4YeGU=", "properties": {"@spider": "usps_collection_boxes", "addr:city": "ANAHEIM", "addr:country": "US", "addr:full": "8161 E KAISER BLVD", "addr:postcode": "92809", "addr:state": "CA", "amenity": "post_box", "brand": "United States Postal Service", "brand:wikidata": "Q668687", "collection_times": "Mo-Fr 17:00", "name": "USPS COLLECTION BOX - PO LOBBY", "note": "ON 12/24 AND 12/31, THIS BOX MAY BE COLLECTED AS EARLY AS 12 NOON.", "nsi_id": "unitedstatespostalservice-a77078", "operator": "United States Postal Service", "operator:short": "USPS", "operator:type": "public", "operator:wikidata": "Q668687", "ref": "9280900001"}, "type": "Feature"}
{"dataset_attributes": {"@spider": "usps_collection_boxes"}, "geometry": {"coordinates": [-117.8292420577, 33.8680370052], "type": "Point"}, "id": "DvTzctBAUWt0alKJ7CZeE3lmMDY=", "properties": {"@spider": "usps_collection_boxes", "addr:city": "ATWOOD", "addr:country": "US", "addr:full": "1679 E ORANGETHORPE AVE", "addr:postcode": "92811", "addr:state": "CA", "amenity": "post_box", "brand": "United States Postal Service", "brand:wikidata": "Q668687", "collection_times": "Mo-Fr 16:30; Sa 10:00", "name": "USPS COLLECTION BOX - BLUE BOX", "note": "ON 12/24 AND 12/31, THIS BOX MAY BE COLLECTED AS EARLY AS 12 NOON.", "nsi_id": "unitedstatespostalservice-a77078", "operator": "United States Postal Service", "operator:short": "USPS", "operator:type": "public", "operator:wikidata": "Q668687", "ref": "9281100000"}, "type": "Feature"}
{"dataset_attributes": {"@spider": "usps_collection_boxes"}, "geometry": {"coordinates": [-117.8292420577, 33.8680370052], "type": "Point"}, "id": "1bFW-FWpim2IVbQMmXXYJ62W6KM=", "properties": {"@spider": "usps_collection_boxes", "addr:city": "ATWOOD", "addr:country": "US", "addr:full": "1679 E ORANGETHORPE AVE", "addr:postcode": "92811", "addr:state": "CA", "amenity": "post_box", "brand": "United States Postal Service", "brand:wikidata": "Q668687", "collection_times": "Mo-Fr 16:30; Sa 09:45", "name": "USPS COLLECTION BOX - PO LOBBY", "note": "ON 12/24 AND 12/31, THIS BOX MAY BE COLLECTED AS EARLY AS 12 NOON.", "nsi_id": "unitedstatespostalservice-a77078", "operator": "United States Postal Service", "operator:short": "USPS", "operator:type": "public", "operator:wikidata": "Q668687", "ref": "9281100001"}, "type": "Feature"}
{"dataset_attributes": {"@spider": "usps_collection_boxes"}, "geometry": {"coordinates": [-117.8292420577, 33.8680370052], "type": "Point"}, "id": "VJWPMneSM9pNW17aGP6JwZwvnQc=", "properties": {"@spider": "usps_collection_boxes", "addr:city": "ATWOOD", "addr:country": "US", "addr:full": "1679 E ORANGETHORPE AVE", "addr:postcode": "92811", "addr:state": "CA", "amenity": "post_box", "brand": "United States Postal Service", "brand:wikidata": "Q668687", "collection_times": "Mo-Fr 16:30", "name": "USPS COLLECTION BOX - PO LOBBY", "note": "ON 12/24 AND 12/31, THIS BOX MAY BE COLLECTED AS EARLY AS 12 NOON.", "nsi_id": "unitedstatespostalservice-a77078", "operator": "United States Postal Service", "operator:short": "USPS", "operator:type": "public", "operator:wikidata": "Q668687", "ref": "9281100002"}, "type": "Feature"}
{"dataset_attributes": {"@spider": "usps_collection_boxes"}, "geometry": {"coordinates": [-117.927402238, 33.81795451], "type": "Point"}, "id": "wZxmQ9U8Pt2KpnCijpCJ9CW9bGs=", "properties": {"@spider": "usps_collection_boxes", "addr:city": "ANAHEIM", "addr:country": "US", "addr:full": "1180 W BALL RD", "addr:postcode": "92812", "addr:state": "CA", "amenity": "post_box", "brand": "United States Postal Service", "brand:wikidata": "Q668687", "collection_times": "Mo-Fr 17:00", "name": "USPS COLLECTION BOX - PO LOBBY", "note": "ON 12/24 AND 12/31, THIS BOX MAY BE COLLECTED AS EARLY AS 12 NOON.", "nsi_id": "unitedstatespostalservice-a77078", "operator": "United States Postal Service", "operator:short": "USPS", "operator:type": "public", "operator:wikidata": "Q668687", "ref": "9281200001"}, "type": "Feature"}
{"dataset_attributes": {"@spider": "usps_collection_boxes"}, "geometry": {"coordinates": [-117.9621445284, 33.8177765205], "type": "Point"}, "id": "grhJB_GPIBowg4apnhRh4o164C4=", "properties": {"@spider": "usps_collection_boxes", "addr:city": "ANAHEIM", "addr:country": "US", "addr:full": "2255 W BALL RD", "addr:postcode": "92814", "addr:state": "CA", "amenity": "post_box", "brand": "United States Postal Service", "brand:wikidata": "Q668687", "collection_times": "Mo-Fr 17:00", "name": "USPS COLLECTION BOX - PO LOBBY", "note": "ON 12/24 AND 12/31, THIS BOX MAY BE COLLECTED AS EARLY AS 12 NOON.", "nsi_id": "unitedstatespostalservice-a77078", "operator": "United States Postal Service", "operator:short": "USPS", "operator:type": "public", "operator:wikidata": "Q668687", "ref": "9281400001"}, "type": "Feature"}
{"dataset_attributes": {"@spider": "usps_collection_boxes"}, "geometry": {"coordinates": [-117.916648239, 33.832586994], "type": "Point"}, "id": "29dgUtOMY4yRyRuAcgNnFzgtJS8=", "properties": {"@spider": "usps_collection_boxes", "addr:city": "ANAHEIM", "addr:country": "US", "addr:full": "333 W BROADWAY", "addr:postcode": "92815", "addr:state": "CA", "amenity": "post_box", "brand": "United States Postal Service", "brand:wikidata": "Q668687", "collection_times": "Mo-Fr 17:00", "name": "USPS COLLECTION BOX - PO LOBBY", "note": "ON 12/24 AND 12/31, THIS BOX MAY BE COLLECTED AS EARLY AS 12 NOON.", "nsi_id": "unitedstatespostalservice-a77078", "operator": "United States Postal Service", "operator:short": "USPS", "operator:type": "public", "operator:wikidata": "Q668687", "ref": "9281500001"}, "type": "Feature"}
{"dataset_attributes": {"@spider": "usps_collection_boxes"}, "geometry": {"coordinates": [-117.884104402, 33.83906912], "type": "Point"}, "id": "EfQ5J07oUJlVw6Osha0-03ZNWaU=", "properties": {"@spider": "usps_collection_boxes", "addr:city": "ANAHEIM", "addr:country": "US", "addr:full": "2320 E LINCOLN AVE", "addr:postcode": "92816", "addr:state": "CA", "amenity": "post_box", "brand": "United States Postal Service", "brand:wikidata": "Q668687", "collection_times": "Mo-Fr 17:00", "name": "USPS COLLECTION BOX - PO LOBBY", "note": "ON 12/24 AND 12/31, THIS BOX MAY BE COLLECTED AS EARLY AS 12 NOON.", "nsi_id": "unitedstatespostalservice-a77078", "operator": "United States Postal Service", "operator:short": "USPS", "operator:type": "public", "operator:wikidata": "Q668687", "ref": "9281600001"}, "type": "Feature"}
{"dataset_attributes": {"@spider": "usps_collection_boxes"}, "geometry": {"coordinates": [-117.795362114, 33.851629934], "type": "Point"}, "id": "PZhyEbL7ju8LSTJQt2AaSeUj8kg=", "properties": {"@spider": "usps_collection_boxes", "addr:city": "ANAHEIM", "addr:country": "US", "addr:full": "5505 E SANTA ANA CANYON RD", "addr:postcode": "92817", "addr:state": "CA", "amenity": "post_box", "brand": "United States Postal Service", "brand:wikidata": "Q668687", "collection_times": "Mo-Fr 17:00; Sa 14:30", "name": "USPS COLLECTION BOX - PO LOBBY", "note": "ON 12/24 AND 12/31, THIS BOX MAY BE COLLECTED AS EARLY AS 12 NOON.", "nsi_id": "unitedstatespostalservice-a77078", "operator": "United States Postal Service", "operator:short": "USPS", "operator:type": "public", "operator:wikidata": "Q668687", "ref": "9281700001"}, "type": "Feature"}
{"dataset_attributes": {"@spider": "usps_collection_boxes"}, "geometry": {"coordinates": [-117.89053, 33.914787], "type": "Point"}, "id": "eEhuuNBdqTCju5t89uzkYuP45ZE=", "properties": {"@spider": "usps_collection_boxes", "addr:city": "BREA", "addr:country": "US", "addr:full": "259 S RANDOLPH AVE", "addr:postcode": "92821", "addr:state": "CA", "amenity": "post_box", "brand": "United States Postal Service", "brand:wikidata": "Q668687", "collection_times": "Mo-Sa 10:00", "name": "USPS COLLECTION BOX - BLUE BOX", "nsi_id": "unitedstatespostalservice-a77078", "operator": "United States Postal Service", "operator:short": "USPS", "operator:type": "public", "operator:wikidata": "Q668687", "ref": "9282100011"}, "type": "Feature"}
{"dataset_attributes": {"@spider": "usps_collection_boxes"}, "geometry": {"coordinates": [-117.8594177103, 33.9084702868], "type": "Point"}, "id": "08VfdhC6_zPxW9NBTjO-XXQvtaA=", "properties": {"@spider": "usps_collection_boxes", "addr:city": "BREA", "addr:country": "US", "addr:full": "2881 SATURN ST", "addr:postcode": "92821", "addr:state": "CA", "amenity": "post_box", "brand": "United States Postal Service", "brand:wikidata": "Q668687", "collection_times": "Mo-Sa 10:00", "name": "USPS COLLECTION BOX - BLUE BOX", "nsi_id": "unitedstatespostalservice-a77078", "operator": "United States Postal Service", "operator:short": "USPS", "operator:type": "public", "operator:wikidata": "Q668687", "ref": "9282100017"}, "type": "Feature"}
{"dataset_attributes": {"@spider": "usps_collection_boxes"}, "geometry": {"coordinates": [-117.900405, 33.928336], "type": "Point"}, "id": "rCsUc9SQ8lWDuk1FgNf9sgcCCZw=", "properties": {"@spider": "usps_collection_boxes", "addr:city": "BREA", "addr:country": "US", "addr:full": "595 TAMARACK AVE", "addr:postcode": "92821", "addr:state": "CA", "amenity": "post_box", "brand": "United States Postal Service", "brand:wikidata": "Q668687", "collection_times": "Mo-Sa 10:00", "name": "USPS COLLECTION BOX - BLUE BOX", "nsi_id": "unitedstatespostalservice-a77078", "operator": "United States Postal Service", "operator:short": "USPS", "operator:type": "public", "operator:wikidata": "Q668687", "ref": "9282100023"}, "type": "Feature"}
{"dataset_attributes": {"@spider": "usps_collection_boxes"}, "geometry": {"coordinates": [-117.853903, 33.916666], "type": "Point"}, "id": "MgI5Jt2pmyYIDn15rlexY37fFSQ=", "properties": {"@spider": "usps_collection_boxes", "addr:city": "BREA", "addr:country": "US", "addr:full": "3199 ENTERPRISE ST", "addr:postcode": "92821", "addr:state": "CA", "amenity": "post_box", "brand": "United States Postal Service", "brand:wikidata": "Q668687", "collection_times": "Mo-Sa 10:00", "name": "USPS COLLECTION BOX - BLUE BOX", "nsi_id": "unitedstatespostalservice-a77078", "operator": "United States Postal Service", "operator:short": "USPS", "operator:type": "public", "operator:wikidata": "Q668687", "ref": "9282100025"}, "type": "Feature"}
{"dataset_attributes": {"@spider": "usps_collection_boxes"}, "geometry": {"coordinates": [-117.904196, 33.930827], "type": "Point"}, "id": "DQVhlJhole775_RfzqInd0gurfE=", "properties": {"@spider": "usps_collection_boxes", "addr:city": "BREA", "addr:country": "US", "addr:full": "510 W CENTRAL AVE", "addr:postcode": "92821", "addr:state": "CA", "amenity": "post_box", "brand": "United States Postal Service", "brand:wikidata": "Q668687", "collection_times": "Mo-Sa 10:00", "name": "USPS COLLECTION BOX - BLUE BOX", "nsi_id": "unitedstatespostalservice-a77078", "operator": "United States Postal Service", "operator:short": "USPS", "operator:type": "public", "operator:wikidata": "Q668687", "ref": "9282100028"}, "type": "Feature"}
{"dataset_attributes": {"@spider": "usps_collection_boxes"}, "geometry": {"coordinates": [-117.864733, 33.910066], "type": "Point"}, "id": "tBi7jHE4Xa_7cm_GE53jF0qYDJc=", "properties": {"@spider": "usps_collection_boxes", "addr:city": "BREA", "addr:country": "US", "addr:full": "2500 E IMPERIAL HWY", "addr:postcode": "92821", "addr:state": "CA", "amenity": "post_box", "brand": "United States Postal Service", "brand:wikidata": "Q668687", "collection_times": "Mo-Sa 10:00", "name": "USPS COLLECTION BOX - BLUE BOX", "nsi_id": "unitedstatespostalservice-a77078", "operator": "United States Postal Service", "operator:short": "USPS", "operator:type": "public", "operator:wikidata": "Q668687", "ref": "9282100032"}, "type": "Feature"}
{"dataset_attributes": {"@spider": "usps_collection_boxes"}, "geometry": {"coordinates": [-117.890521, 33.914772], "type": "Point"}, "id": "ZNmX8wcb5fXW7Siu-9V1ulCjqSo=", "properties": {"@spider": "usps_collection_boxes", "addr:city": "BREA", "addr:country": "US", "addr:full": "259 S RANDOLPH AVE", "addr:postcode": "92821", "addr:state": "CA", "amenity": "post_box", "brand": "United States Postal Service", "brand:wikidata": "Q668687", "collection_times": "Mo-Sa 10:00", "name": "USPS COLLECTION BOX - BLUE BOX", "nsi_id": "unitedstatespostalservice-a77078", "operator": "United States Postal Service", "operator:short": "USPS", "operator:type": "public", "operator:wikidata": "Q668687", "ref": "9282100048"}, "type": "Feature"}
{"dataset_attributes": {"@spider": "usps_collection_boxes"}, "geometry": {"coordinates": [-117.9067695699, 33.9265942633], "type": "Point"}, "id": "TyCPNf5vLjfvVW3RxS6Gbk5iD4w=", "properties": {"@spider": "usps_collection_boxes", "addr:city": "BREA", "addr:country": "US", "addr:full": "501 N BERRY ST", "addr:postcode": "92821", "addr:state": "CA", "amenity": "post_box", "brand": "United States Postal Service", "brand:wikidata": "Q668687", "collection_times": "Mo-Sa 10:00", "name": "USPS COLLECTION BOX - BLUE BOX", "nsi_id": "unitedstatespostalservice-a77078", "operator": "United States Postal Service", "operator:short": "USPS", "operator:type": "public", "operator:wikidata": "Q668687", "ref": "9282100049"}, "type": "Feature"}
{"dataset_attributes": {"@spider": "usps_collection_boxes"}, "geometry": {"coordinates": [-117.901163, 33.925492], "type": "Point"}, "id": "3p6_d7Thr0mxS4M4nCFDNv9wRiM=", "properties": {"@spider": "usps_collection_boxes", "addr:city": "BREA", "addr:country": "US", "addr:full": "451 W LAMBERT RD", "addr:postcode": "92821", "addr:state": "CA", "amenity": "post_box", "brand": "United States Postal Service", "brand:wikidata": "Q668687", "collection_times": "Mo-Sa 10:00", "name": "USPS COLLECTION BOX - BLUE BOX", "nsi_id": "unitedstatespostalservice-a77078", "operator": "United States Postal Service", "operator:short": "USPS", "operator:type": "public", "operator:wikidata": "Q668687", "ref": "9282100050"}, "type": "Feature"}
{"dataset_attributes": {"@spider": "usps_collection_boxes"}, "geometry": {"coordinates": [-117.902254, 33.918717], "type": "Point"}, "id": "Rrzg7kBzNSZe-ioGo3I4j6s05aU=", "properties": {"@spider": "usps_collection_boxes", "addr:city": "BREA", "addr:country": "US", "addr:full": "305 W IMPERIAL HWY", "addr:postcode": "92821", "addr:state": "CA", "amenity": "post_box", "brand": "United States Postal Service", "brand:wikidata": "Q668687", "collection_times": "Mo-Sa 10:00", "name": "USPS COLLECTION BOX - BLUE BOX", "nsi_id": "unitedstatespostalservice-a77078", "operator": "United States Postal Service", "operator:short": "USPS", "operator:type": "public", "operator:wikidata": "Q668687", "ref": "9282100062"}, "type": "Feature"}
{"dataset_attributes": {"@spider": "usps_collection_boxes"}, "geometry": {"coordinates": [-117.90421, 33.930821], "type": "Point"}, "id": "e1pkas59pU9iFXpMFQyK1a3p16g=", "properties": {"@spider": "usps_collection_boxes", "addr:city": "BREA", "addr:country": "US", "addr:full": "510 W CENTRAL AVE", "addr:postcode": "92821", "addr:state": "CA", "amenity": "post_box", "brand": "United States Postal Service", "brand:wikidata": "Q668687", "collection_times": "Mo-Sa 10:00", "name": "USPS COLLECTION BOX - BLUE BOX", "nsi_id": "unitedstatespostalservice-a77078", "operator": "United States Postal Service", "operator:short": "USPS", "operator:type": "public", "operator:wikidata": "Q668687", "ref": "9282100063"}, "type": "Feature"}
{"dataset_attributes": {"@spider": "usps_collection_boxes"}, "geometry": {"coordinates": [-117.890093, 33.917332], "type": "Point"}, "id": "_nfmIXCm1_9NPpE06Wnul7q65eE=", "properties": {"@spider": "usps_collection_boxes", "addr:city": "BREA", "addr:country": "US", "addr:full": "700 E BIRCH ST", "addr:postcode": "92822", "addr:state": "CA", "amenity": "post_box", "brand": "United States Postal Service", "brand:wikidata": "Q668687", "collection_times": "Mo-Fr 17:25; Sa 15:30", "name": "USPS COLLECTION BOX - BLUE BOX", "note": "ON 12/24 AND 12/31, THIS BOX MAY BE COLLECTED AS EARLY AS 12 NOON.", "nsi_id": "unitedstatespostalservice-a77078", "operator": "United States Postal Service", "operator:short": "USPS", "operator:type": "public", "operator:wikidata": "Q668687", "ref": "9282200000"}, "type": "Feature"}
{"dataset_attributes": {"@spider": "usps_collection_boxes"}, "geometry": {"coordinates": [-117.890498892, 33.9176874912], "type": "Point"}, "id": "7xGcLGz7wqISbkbWwzB4vtVt5as=", "properties": {"@spider": "usps_collection_boxes", "addr:city": "BREA", "addr:country": "US", "addr:full": "700 E BIRCH ST", "addr:postcode": "92822", "addr:state": "CA", "amenity": "post_box", "brand": "United States Postal Service", "brand:wikidata": "Q668687", "collection_times": "Mo-Fr 17:25; Sa 15:30", "name": "USPS COLLECTION BOX - BLUE BOX", "note": "ON 12/24 AND 12/31, THIS BOX MAY BE COLLECTED AS EARLY AS 12 NOON.", "nsi_id": "unitedstatespostalservice-a77078", "operator": "United States Postal Service", "operator:short": "USPS", "operator:type": "public", "operator:wikidata": "Q668687", "ref": "9282200001"}, "type": "Feature"}
{"dataset_attributes": {"@spider": "usps_collection_boxes"}, "geometry": {"coordinates": [-117.890102, 33.917358], "type": "Point"}, "id": "mk2coFZzLNQ9za7a2qsOS6JIBW0=", "properties": {"@spider": "usps_collection_boxes", "addr:city": "BREA", "addr:country": "US", "addr:full": "700 E BIRCH ST", "addr:postcode": "92822", "addr:state": "CA", "amenity": "post_box", "brand": "United States Postal Service", "brand:wikidata": "Q668687", "collection_times": "Mo-Fr 17:25; Sa 15:30", "name": "USPS COLLECTION BOX - EXPRESS", "note": "ON 12/24 AND 12/31, THIS BOX MAY BE COLLECTED AS EARLY AS 12 NOON.", "nsi_id": "unitedstatespostalservice-a77078", "operator": "United States Postal Service", "operator:short": "USPS", "operator:type": "public", "operator:wikidata": "Q668687", "ref": "9282200006"}, "type": "Feature"}
{"dataset_attributes": {"@spider": "usps_collection_boxes"}, "geometry": {"coordinates": [-117.890498892, 33.9176874912], "type": "Point"}, "id": "PW9fDYInIc9DZKxVrO-PpXgDlZ8=", "properties": {"@spider": "usps_collection_boxes", "addr:city": "BREA", "addr:country": "US", "addr:full": "700 E BIRCH ST", "addr:postcode": "92822", "addr:state": "CA", "amenity": "post_box", "brand": "United States Postal Service", "brand:wikidata": "Q668687", "collection_times": "Mo-Fr 17:25; Sa 15:30", "name": "USPS COLLECTION BOX - APC", "note": "ON 12/24 AND 12/31, THIS BOX MAY BE COLLECTED AS EARLY AS 12 NOON.", "nsi_id": "unitedstatespostalservice-a77078", "operator": "United States Postal Service", "operator:short": "USPS", "operator:type": "public", "operator:wikidata": "Q668687", "ref": "9282200010"}, "type": "Feature"}
{"dataset_attributes": {"@spider": "usps_collection_boxes"}, "geometry": {"coordinates": [-117.890498892, 33.9176874912], "type": "Point"}, "id": "iGzgKuulSNNo1IrmrL6w6z8Eu5Q=", "properties": {"@spider": "usps_collection_boxes", "addr:city": "BREA", "addr:country": "US", "addr:full": "700 E BIRCH ST", "addr:postcode": "92822", "addr:state": "CA", "amenity": "post_box", "brand": "United States Postal Service", "brand:wikidata": "Q668687", "collection_times": "Mo-Fr 17:30; Sa 15:00", "name": "USPS COLLECTION BOX - PO LOBBY", "note": "ON 12/24 AND 12/31, THIS BOX MAY BE COLLECTED AS EARLY AS 12 NOON.", "nsi_id": "unitedstatespostalservice-a77078", "operator": "United States Postal Service", "operator:short": "USPS", "operator:type": "public", "operator:wikidata": "Q668687", "ref": "9282200011"}, "type": "Feature"}
{"dataset_attributes": {"@spider": "usps_collection_boxes"}, "geometry": {"coordinates": [-117.888067, 33.873391], "type": "Point"}, "id": "muX5t-eGFidT-XlnU3docqVu99M=", "properties": {"@spider": "usps_collection_boxes", "addr:city": "FULLERTON", "addr:country": "US", "addr:full": "2450 E CHAPMAN AVE", "addr:postcode": "92831", "addr:state": "CA", "amenity": "post_box", "brand": "United States Postal Service", "brand:wikidata": "Q668687", "collection_times": "Mo-Sa 09:00", "name": "USPS COLLECTION BOX - BLUE BOX", "nsi_id": "unitedstatespostalservice-a77078", "operator": "United States Postal Service", "operator:short": "USPS", "operator:type": "public", "operator:wikidata": "Q668687", "ref": "9283100012"}, "type": "Feature"}
{"dataset_attributes": {"@spider": "usps_collection_boxes"}, "geometry": {"coordinates": [-117.88888, 33.865498], "type": "Point"}, "id": "IZ344iyyrw7jvqcLwmM8NI9HGX4=", "properties": {"@spider": "usps_collection_boxes", "addr:city": "FULLERTON", "addr:country": "US", "addr:full": "660 S STATE COLLEGE BLVD", "addr:postcode": "92831", "addr:state": "CA", "amenity": "post_box", "brand": "United States Postal Service", "brand:wikidata": "Q668687", "collection_times": "Mo-Sa 10:00", "name": "USPS COLLECTION BOX - BLUE BOX", "nsi_id": "unitedstatespostalservice-a77078", "operator": "United States Postal Service", "operator:short": "USPS", "operator:type": "public", "operator:wikidata": "Q668687", "ref": "9283100013"}, "type": "Feature"}
{"dataset_attributes": {"@spider": "usps_collection_boxes"}, "geometry": {"coordinates": [-117.8833070388, 33.8611549902], "type": "Point"}, "id": "AwY2M5NHH_371ogkbpyW_gLMICM=", "properties": {"@spider": "usps_collection_boxes", "addr:city": "FULLERTON", "addr:country": "US", "addr:full": "1101 S PLACENTIA AVE", "addr:postcode": "92831", "addr:state": "CA", "amenity": "post_box", "brand": "United States Postal Service", "brand:wikidata": "Q668687", "collection_times": "Mo-Sa 10:00", "name": "USPS COLLECTION BOX - BLUE BOX", "nsi_id": "unitedstatespostalservice-a77078", "operator": "United States Postal Service", "operator:short": "USPS", "operator:type": "public", "operator:wikidata": "Q668687", "ref": "9283100028"}, "type": "Feature"}
{"dataset_attributes": {"@spider": "usps_collection_boxes"}, "geometry": {"coordinates": [-117.886021, 33.859867], "type": "Point"}, "id": "ACc-EnAfwsM2-uXPO_9pjyIq8Co=", "properties": {"@spider": "usps_collection_boxes", "addr:city": "FULLERTON", "addr:country": "US", "addr:full": "2495 E ORANGETHORPE AVE", "addr:postcode": "92831", "addr:state": "CA", "amenity": "post_box", "brand": "United States Postal Service", "brand:wikidata": "Q668687", "collection_times": "Mo-Sa 10:00", "name": "USPS COLLECTION BOX - BLUE BOX", "nsi_id": "unitedstatespostalservice-a77078", "operator": "United States Postal Service", "operator:short": "USPS", "operator:type": "public", "operator:wikidata": "Q668687", "ref": "9283100029"}, "type": "Feature"}
{"dataset_attributes": {"@spider": "usps_collection_boxes"}, "geometry": {"coordinates": [-117.882988, 33.877524], "type": "Point"}, "id": "MzCmOylDqo_6x8FHIL6lbCiU7HM=", "properties": {"@spider": "usps_collection_boxes", "addr:city": "FULLERTON", "addr:country": "US", "addr:full": "2600 NUTWOOD AVE", "addr:postcode": "92831", "addr:state": "CA", "amenity": "post_box", "brand": "United States Postal Service", "brand:wikidata": "Q668687", "collection_times": "Mo-Sa 10:00", "name": "USPS COLLECTION BOX - BLUE BOX", "nsi_id": "unitedstatespostalservice-a77078", "operator": "United States Postal Service", "operator:short": "USPS", "operator:type": "public", "operator:wikidata": "Q668687", "ref": "9283100030"}, "type": "Feature"}
{"dataset_attributes": {"@spider": "usps_collection_boxes"}, "geometry": {"coordinates": [-117.9035711622, 33.8740519346], "type": "Point"}, "id": "Ki2T3zbKrgDb5FVuHwHr6hHVouU=", "properties": {"@spider": "usps_collection_boxes", "addr:city": "FULLERTON", "addr:country": "US", "addr:full": "1350 E CHAPMAN AVE", "addr:postcode": "92831", "addr:state": "CA", "amenity": "post_box", "brand": "United States Postal Service", "brand:wikidata": "Q668687", "collection_times": "Mo-Fr 17:15; Sa 17:00", "name": "USPS COLLECTION BOX - BLUE BOX", "note": "ON 12/24 AND 12/31, THIS BOX MAY BE COLLECTED AS EARLY AS 12 NOON.", "nsi_id": "unitedstatespostalservice-a77078", "operator": "United States Postal Service", "operator:short": "USPS", "operator:type": "public", "operator:wikidata": "Q668687", "ref": "9283100045"}, "type": "Feature"}
{"dataset_attributes": {"@spider": "usps_collection_boxes"}, "geometry": {"coordinates": [-117.903330639, 33.874096469], "type": "Point"}, "id": "vvfNoPfDbU7SRzZzm5iY9UF_5gc=", "properties": {"@spider": "usps_collection_boxes", "addr:city": "FULLERTON", "addr:country": "US", "addr:full": "1350 E CHAPMAN AVE", "addr:postcode": "92831", "addr:state": "CA", "amenity": "post_box", "brand": "United States Postal Service", "brand:wikidata": "Q668687", "collection_times": "Mo-Fr 17:15; Sa 17:00", "name": "USPS COLLECTION BOX - APC", "note": "ON 12/24 AND 12/31, THIS BOX MAY BE COLLECTED AS EARLY AS 12 NOON.", "nsi_id": "unitedstatespostalservice-a77078", "operator": "United States Postal Service", "operator:short": "USPS", "operator:type": "public", "operator:wikidata": "Q668687", "ref": "9283100048"}, "type": "Feature"}
{"dataset_attributes": {"@spider": "usps_collection_boxes"}, "geometry": {"coordinates": [-117.885420033, 33.879940009], "type": "Point"}, "id": "6u8w3KKCfkYJp4yk2nKCgyAsUFw=", "properties": {"@spider": "usps_collection_boxes", "addr:city": "FULLERTON", "addr:country": "US", "addr:full": "800 N STATE COLLEGE BLVD", "addr:postcode": "92831", "addr:state": "CA", "amenity": "post_box", "brand": "United States Postal Service", "brand:wikidata": "Q668687", "collection_times": "Mo-Fr 10:00", "name": "USPS COLLECTION BOX - BLUE BOX", "nsi_id": "unitedstatespostalservice-a77078", "operator": "United States Postal Service", "operator:short": "USPS", "operator:type": "public", "operator:wikidata": "Q668687", "ref": "9283100058"}, "type": "Feature"}
{"dataset_attributes": {"@spider": "usps_collection_boxes"}, "geometry": {"coordinates": [-117.924515, 33.875367], "type": "Point"}, "id": "JJQtrOaYZeSUMkryB8OEa5b7tuo=", "properties": {"@spider": "usps_collection_boxes", "addr:city": "FULLERTON", "addr:country": "US", "addr:full": "529 N HARBOR BLVD", "addr:postcode": "92832", "addr:state": "CA", "amenity": "post_box", "brand": "United States Postal Service", "brand:wikidata": "Q668687", "collection_times": "Mo-Sa 10:00", "name": "USPS COLLECTION BOX - BLUE BOX", "nsi_id": "unitedstatespostalservice-a77078", "operator": "United States Postal Service", "operator:short": "USPS", "operator:type": "public", "operator:wikidata": "Q668687", "ref": "9283200010"}, "type": "Feature"}
{"dataset_attributes": {"@spider": "usps_collection_boxes"}, "geometry": {"coordinates": [-117.925191, 33.882188], "type": "Point"}, "id": "bzFEJNmuo16UJuSgA7bj3oGsoLU=", "properties": {"@spider": "usps_collection_boxes", "addr:city": "FULLERTON", "addr:country": "US", "addr:full": "1235 N HARBOR BLVD", "addr:postcode": "92832", "addr:state": "CA", "amenity": "post_box", "brand": "United States Postal Service", "brand:wikidata": "Q668687", "collection_times": "Mo-Sa 10:00", "name": "USPS COLLECTION BOX - BLUE BOX", "nsi_id": "unitedstatespostalservice-a77078", "operator": "United States Postal Service", "operator:short": "USPS", "operator:type": "public", "operator:wikidata": "Q668687", "ref": "9283200011"}, "type": "Feature"}
{"dataset_attributes": {"@spider": "usps_collection_boxes"}, "geometry": {"coordinates": [-117.921555, 33.870252], "type": "Point"}, "id": "CSfExp1uSM5QhwSa4hLM6Jnvmu0=", "properties": {"@spider": "usps_collection_boxes", "addr:city": "FULLERTON", "addr:country": "US", "addr:full": "202 E COMMONWEALTH", "addr:postcode": "92832", "addr:state": "CA", "amenity": "post_box", "brand": "United States Postal Service", "brand:wikidata": "Q668687", "collection_times": "Mo-Fr 17:00; Sa 16:30", "name": "USPS COLLECTION BOX - BLUE BOX", "note": "ON 12/24 AND 12/31, THIS BOX MAY BE COLLECTED AS EARLY AS 12 NOON.", "nsi_id": "unitedstatespostalservice-a77078", "operator": "United States Postal Service", "operator:short": "USPS", "operator:type": "public", "operator:wikidata": "Q668687", "ref": "9283200016"}, "type": "Feature"}
{"dataset_attributes": {"@spider": "usps_collection_boxes"}, "geometry": {"coordinates": [-117.925653, 33.87243], "type": "Point"}, "id": "J8fqNLcV_XdE1_Kn93xP799KcZE=", "properties": {"@spider": "usps_collection_boxes", "addr:city": "FULLERTON", "addr:country": "US", "addr:full": "141 W WILSHIRE AVE", "addr:postcode": "92832", "addr:state": "CA", "amenity": "post_box", "brand": "United States Postal Service", "brand:wikidata": "Q668687", "collection_times": "Mo-Sa 10:00", "name": "USPS COLLECTION BOX - BLUE BOX", "nsi_id": "unitedstatespostalservice-a77078", "operator": "United States Postal Service", "operator:short": "USPS", "operator:type": "public", "operator:wikidata": "Q668687", "ref": "9283200025"}, "type": "Feature"}
{"dataset_attributes": {"@spider": "usps_collection_boxes"}, "geometry": {"coordinates": [-117.96538, 33.869956], "type": "Point"}, "id": "4Y2QHJHfE6e9WE8v7VV3qwhfeLY=", "properties": {"@spider": "usps_collection_boxes", "addr:city": "FULLERTON", "addr:country": "US", "addr:full": "1920 W COMMONWEALTH AVE", "addr:postcode": "92833", "addr:state": "CA", "amenity": "post_box", "brand": "United States Postal Service", "brand:wikidata": "Q668687", "collection_times": "Mo-Fr 17:00; Sa 16:15", "name": "USPS COLLECTION BOX - BLUE BOX", "note": "ON 12/24 AND 12/31, THIS BOX MAY BE COLLECTED AS EARLY AS 12 NOON.", "nsi_id": "unitedstatespostalservice-a77078", "operator": "United States Postal Service", "operator:short": "USPS", "operator:type": "public", "operator:wikidata": "Q668687", "ref": "9283300002"}, "type": "Feature"}
{"dataset_attributes": {"@spider": "usps_collection_boxes"}, "geometry": {"coordinates": [-117.960674, 33.859933], "type": "Point"}, "id": "5fBMr-0idWjD4ZJfaf0d4WydX8k=", "properties": {"@spider": "usps_collection_boxes", "addr:city": "FULLERTON", "addr:country": "US", "addr:full": "1821 W ORANGETHORPE AVE", "addr:postcode": "92833", "addr:state": "CA", "amenity": "post_box", "brand": "United States Postal Service", "brand:wikidata": "Q668687", "collection_times": "Mo-Sa 10:00", "name": "USPS COLLECTION BOX - BLUE BOX", "nsi_id": "unitedstatespostalservice-a77078", "operator": "United States Postal Service", "operator:short": "USPS", "operator:type": "public", "operator:wikidata": "Q668687", "ref": "9283300020"}, "type": "Feature"}
{"dataset_attributes": {"@spider": "usps_collection_boxes"}, "geometry": {"coordinates": [-117.903330639, 33.874096469], "type": "Point"}, "id": "bjcFlhHk4hAc7CQmyDAc5NdB0R8=", "properties": {"@spider": "usps_collection_boxes", "addr:city": "FULLERTON", "addr:country": "US", "addr:full": "1350 E CHAPMAN AVE", "addr:postcode": "92834", "addr:state": "CA", "amenity": "post_box", "brand": "United States Postal Service", "brand:wikidata": "Q668687", "collection_times": "Mo-Fr 17:00; Sa 15:00", "name": "USPS COLLECTION BOX - PO LOBBY", "note": "ON 12/24 AND 12/31, THIS BOX MAY BE COLLECTED AS EARLY AS 12 NOON.", "nsi_id": "unitedstatespostalservice-a77078", "operator": "United States Postal Service", "operator:short": "USPS", "operator:type": "public", "operator:wikidata": "Q668687", "ref": "9283400001"}, "type": "Feature"}
{"dataset_attributes": {"@spider": "usps_collection_boxes"}, "geometry": {"coordinates": [-117.930931, 33.892222], "type": "Point"}, "id": "XX1iRKMYxWQnjFI3W5IX1NVL66k=", "properties": {"@spider": "usps_collection_boxes", "addr:city": "FULLERTON", "addr:country": "US", "addr:full": "1820 SUNNYCREST DR", "addr:postcode": "92835", "addr:state": "CA", "amenity": "post_box", "brand": "United States Postal Service", "brand:wikidata": "Q668687", "collection_times": "Mo-Fr 17:00; Sa 16:00", "name": "USPS COLLECTION BOX - BLUE BOX", "note": "ON 12/24 AND 12/31, THIS BOX MAY BE COLLECTED AS EARLY AS 12 NOON.", "nsi_id": "unitedstatespostalservice-a77078", "operator": "United States Postal Service", "operator:short": "USPS", "operator:type": "public", "operator:wikidata": "Q668687", "ref": "9283500001"}, "type": "Feature"}
{"dataset_attributes": {"@spider": "usps_collection_boxes"}, "geometry": {"coordinates": [-117.9304717109, 33.89179031], "type": "Point"}, "id": "VIJcBGuBb1qZs0teb7MFB0E3FGk=", "properties": {"@spider": "usps_collection_boxes", "addr:city": "FULLERTON", "addr:country": "US", "addr:full": "1820 N SUNNYCREST DR", "addr:postcode": "92835", "addr:state": "CA", "amenity": "post_box", "brand": "United States Postal Service", "brand:wikidata": "Q668687", "collection_times": "Mo-Fr 17:00; Sa 16:00", "name": "USPS COLLECTION BOX - BLUE BOX", "note": "ON 12/24 AND 12/31, THIS BOX MAY BE COLLECTED AS EARLY AS 12 NOON.", "nsi_id": "unitedstatespostalservice-a77078", "operator": "United States Postal Service", "operator:short": "USPS", "operator:type": "public", "operator:wikidata": "Q668687", "ref": "9283500002"}, "type": "Feature"}
{"dataset_attributes": {"@spider": "usps_collection_boxes"}, "geometry": {"coordinates": [-117.92347, 33.884145], "type": "Point"}, "id": "Nv5J0WCc8vRd1XWaC23Xu2kbVl0=", "properties": {"@spider": "usps_collection_boxes", "addr:city": "FULLERTON", "addr:country": "US", "addr:full": "1370 BREA BLVD", "addr:postcode": "92835", "addr:state": "CA", "amenity": "post_box", "brand": "United States Postal Service", "brand:wikidata": "Q668687", "collection_times": "Mo-Sa 10:00", "name": "USPS COLLECTION BOX - BLUE BOX", "nsi_id": "unitedstatespostalservice-a77078", "operator": "United States Postal Service", "operator:short": "USPS", "operator:type": "public", "operator:wikidata": "Q668687", "ref": "9283500026"}, "type": "Feature"}
{"dataset_attributes": {"@spider": "usps_collection_boxes"}, "geometry": {"coordinates": [-117.921712249, 33.870341517], "type": "Point"}, "id": "bjDnbBGnY4mNU8l4ACa_k93lKeE=", "properties": {"@spider": "usps_collection_boxes", "addr:city": "FULLERTON", "addr:country": "US", "addr:full": "202 E COMMONWEALTH AVE", "addr:postcode": "92836", "addr:state": "CA", "amenity": "post_box", "brand": "United States Postal Service", "brand:wikidata": "Q668687", "collection_times": "Mo-Fr 17:00", "name": "USPS COLLECTION BOX - PO LOBBY", "note": "ON 12/24 AND 12/31, THIS BOX MAY BE COLLECTED AS EARLY AS 12 NOON.", "nsi_id": "unitedstatespostalservice-a77078", "operator": "United States Postal Service", "operator:short": "USPS", "operator:type": "public", "operator:wikidata": "Q668687", "ref": "9283600001"}, "type": "Feature"}
{"dataset_attributes": {"@spider": "usps_collection_boxes"}, "geometry": {"coordinates": [-117.965151639, 33.870046488], "type": "Point"}, "id": "eLQ0p99JKu9obsVKJ5Bf8KL8e7Y=", "properties": {"@spider": "usps_collection_boxes", "addr:city": "FULLERTON", "addr:country": "US", "addr:full": "1920 W COMMONWEALTH AVE", "addr:postcode": "92837", "addr:state": "CA", "amenity": "post_box", "brand": "United States Postal Service", "brand:wikidata": "Q668687", "collection_times": "Mo-Fr 17:00", "name": "USPS COLLECTION BOX - PO LOBBY", "note": "ON 12/24 AND 12/31, THIS BOX MAY BE COLLECTED AS EARLY AS 12 NOON.", "nsi_id": "unitedstatespostalservice-a77078", "operator": "United States Postal Service", "operator:short": "USPS", "operator:type": "public", "operator:wikidata": "Q668687", "ref": "9283700001"}, "type": "Feature"}
{"dataset_attributes": {"@spider": "usps_collection_boxes"}, "geometry": {"coordinates": [-117.9304356775, 33.8917281703], "type": "Point"}, "id": "6VJ7z-1obLIwL8DD8nLlmrsyCnU=", "properties": {"@spider": "usps_collection_boxes", "addr:city": "FULLERTON", "addr:country": "US", "addr:full": "1820 N SUNNYCREST DR", "addr:postcode": "92838", "addr:state": "CA", "amenity": "post_box", "brand": "United States Postal Service", "brand:wikidata": "Q668687", "collection_times": "Mo-Fr 17:00", "name": "USPS COLLECTION BOX - PO LOBBY", "note": "ON 12/24 AND 12/31, THIS BOX MAY BE COLLECTED AS EARLY AS 12 NOON.", "nsi_id": "unitedstatespostalservice-a77078", "operator": "United States Postal Service", "operator:short": "USPS", "operator:type": "public", "operator:wikidata": "Q668687", "ref": "9283800001"}, "type": "Feature"}
{"dataset_attributes": {"@spider": "usps_collection_boxes"}, "geometry": {"coordinates": [-117.9373429892, 33.7745690084], "type": "Point"}, "id": "SgmpeHL-aFiBMPfMnQFXVMAIyVg=", "properties": {"@spider": "usps_collection_boxes", "addr:city": "GARDEN GROVE", "addr:country": "US", "addr:full": "12966 EUCLID ST", "addr:postcode": "92840", "addr:state": "CA", "amenity": "post_box", "brand": "United States Postal Service", "brand:wikidata": "Q668687", "collection_times": "Mo-Sa 10:00", "name": "USPS COLLECTION BOX - BLUE BOX", "nsi_id": "unitedstatespostalservice-a77078", "operator": "United States Postal Service", "operator:short": "USPS", "operator:type": "public", "operator:wikidata": "Q668687", "ref": "9284000002"}, "type": "Feature"}
{"dataset_attributes": {"@spider": "usps_collection_boxes"}, "geometry": {"coordinates": [-117.9495604176, 33.796774517], "type": "Point"}, "id": "NBI_wAlAcMeKehTVT2hVWFOBGBA=", "properties": {"@spider": "usps_collection_boxes", "addr:city": "GARDEN GROVE", "addr:country": "US", "addr:full": "11452 PALMWOOD DR", "addr:postcode": "92840", "addr:state": "CA", "amenity": "post_box", "brand": "United States Postal Service", "brand:wikidata": "Q668687", "collection_times": "Mo-Sa 10:00", "name": "USPS COLLECTION BOX - BLUE BOX", "nsi_id": "unitedstatespostalservice-a77078", "operator": "United States Postal Service", "operator:short": "USPS", "operator:type": "public", "operator:wikidata": "Q668687", "ref": "9284000011"}, "type": "Feature"}
{"dataset_attributes": {"@spider": "usps_collection_boxes"}, "geometry": {"coordinates": [-117.907263789, 33.788951472], "type": "Point"}, "id": "umYDB-DKrlRd_GFuabd9ymC46YI=", "properties": {"@spider": "usps_collection_boxes", "addr:city": "GARDEN GROVE", "addr:country": "US", "addr:full": "12961 CHAPMAN AVE", "addr:postcode": "92840", "addr:state": "CA", "amenity": "post_box", "brand": "United States Postal Service", "brand:wikidata": "Q668687", "collection_times": "Mo-Sa 10:00", "name": "USPS COLLECTION BOX - BLUE BOX", "nsi_id": "unitedstatespostalservice-a77078", "operator": "United States Postal Service", "operator:short": "USPS", "operator:type": "public", "operator:wikidata": "Q668687", "ref": "9284000014"}, "type": "Feature"}
{"dataset_attributes": {"@spider": "usps_collection_boxes"}, "geometry": {"coordinates": [-117.898449, 33.782815], "type": "Point"}, "id": "CYPF79d0ze-1ajB1J5SFYd6b0pI=", "properties": {"@spider": "usps_collection_boxes", "addr:city": "GARDEN GROVE", "addr:country": "US", "addr:full": "12377 LEWIS ST", "addr:postcode": "92840", "addr:state": "CA", "amenity": "post_box", "brand": "United States Postal Service", "brand:wikidata": "Q668687", "collection_times": "Mo-Sa 10:00", "name": "USPS COLLECTION BOX - BLUE BOX", "nsi_id": "unitedstatespostalservice-a77078", "operator": "United States Postal Service", "operator:short": "USPS", "operator:type": "public", "operator:wikidata": "Q668687", "ref": "9284000024"}, "type": "Feature"}
{"dataset_attributes": {"@spider": "usps_collection_boxes"}, "geometry": {"coordinates": [-117.942305, 33.787331], "type": "Point"}, "id": "DgdzQcmVuScWbCxfWO7CplXzt60=", "properties": {"@spider": "usps_collection_boxes", "addr:city": "GARDEN GROVE", "addr:country": "US", "addr:full": "12051 EUCLID ST", "addr:postcode": "92840", "addr:state": "CA", "amenity": "post_box", "brand": "United States Postal Service", "brand:wikidata": "Q668687", "collection_times": "Mo-Sa 10:00", "name": "USPS COLLECTION BOX - BLUE BOX", "nsi_id": "unitedstatespostalservice-a77078", "operator": "United States Postal Service", "operator:short": "USPS", "operator:type": "public", "operator:wikidata": "Q668687", "ref": "9284000025"}, "type": "Feature"}
{"dataset_attributes": {"@spider": "usps_collection_boxes"}, "geometry": {"coordinates": [-117.898441, 33.782813], "type": "Point"}, "id": "35imDNqioFVR1isva65G8M3IKMg=", "properties": {"@spider": "usps_collection_boxes", "addr:city": "GARDEN GROVE", "addr:country": "US", "addr:full": "12377 LEWIS ST", "addr:postcode": "92840", "addr:state": "CA", "amenity": "post_box", "brand": "United States Postal Service", "brand:wikidata": "Q668687", "collection_times": "Mo-Sa 10:00", "name": "USPS COLLECTION BOX - BLUE BOX", "nsi_id": "unitedstatespostalservice-a77078", "operator": "United States Postal Service", "operator:short": "USPS", "operator:type": "public", "operator:wikidata": "Q668687", "ref": "9284000028"}, "type": "Feature"}
{"dataset_attributes": {"@spider": "usps_collection_boxes"}, "geometry": {"coordinates": [-117.898441, 33.78281], "type": "Point"}, "id": "07icdZv_gDIykP23P_JsbXWgyhI=", "properties": {"@spider": "usps_collection_boxes", "addr:city": "GARDEN GROVE", "addr:country": "US", "addr:full": "12377 LEWIS ST", "addr:postcode": "92840", "addr:state": "CA", "amenity": "post_box", "brand": "United States Postal Service", "brand:wikidata": "Q668687", "collection_times": "Mo-Sa 10:00", "name": "USPS COLLECTION BOX - BLUE BOX", "nsi_id": "unitedstatespostalservice-a77078", "operator": "United States Postal Service", "operator:short": "USPS", "operator:type": "public", "operator:wikidata": "Q668687", "ref": "9284000029"}, "type": "Feature"}
{"dataset_attributes": {"@spider": "usps_collection_boxes"}, "geometry": {"coordinates": [-117.950765, 33.777711], "type": "Point"}, "id": "D8w_Av6mEcsQECV-JnFakoGtMSE=", "properties": {"@spider": "usps_collection_boxes", "addr:city": "GARDEN GROVE", "addr:country": "US", "addr:full": "10441 STANFORD AVE", "addr:postcode": "92840", "addr:state": "CA", "amenity": "post_box", "brand": "United States Postal Service", "brand:wikidata": "Q668687", "collection_times": "Mo-Fr 17:20; Sa 16:30", "name": "USPS COLLECTION BOX - APC", "note": "ON 12/24 AND 12/31, THIS BOX MAY BE COLLECTED AS EARLY AS 12 NOON.", "nsi_id": "unitedstatespostalservice-a77078", "operator": "United States Postal Service", "operator:short": "USPS", "operator:type": "public", "operator:wikidata": "Q668687", "ref": "9284000031"}, "type": "Feature"}
{"dataset_attributes": {"@spider": "usps_collection_boxes"}, "geometry": {"coordinates": [-118.006517, 33.788437], "type": "Point"}, "id": "YUkskv2Fnv2WbKdQOtAfQANsfvA=", "properties": {"@spider": "usps_collection_boxes", "addr:city": "GARDEN GROVE", "addr:country": "US", "addr:full": "7271 CHAPMAN AVE", "addr:postcode": "92841", "addr:state": "CA", "amenity": "post_box", "brand": "United States Postal Service", "brand:wikidata": "Q668687", "collection_times": "Mo-Fr 10:00", "name": "USPS COLLECTION BOX - BLUE BOX", "nsi_id": "unitedstatespostalservice-a77078", "operator": "United States Postal Service", "operator:short": "USPS", "operator:type": "public", "operator:wikidata": "Q668687", "ref": "9284100002"}, "type": "Feature"}
{"dataset_attributes": {"@spider": "usps_collection_boxes"}, "geometry": {"coordinates": [-118.0048840297, 33.7746309926], "type": "Point"}, "id": "WC44JATdFKd61qYNwhlSkbzcKyw=", "properties": {"@spider": "usps_collection_boxes", "addr:city": "GARDEN GROVE", "addr:country": "US", "addr:full": "7231 GARDEN GROVE BLVD", "addr:postcode": "92841", "addr:state": "CA", "amenity": "post_box", "brand": "United States Postal Service", "brand:wikidata": "Q668687", "collection_times": "Mo-Sa 10:00", "name": "USPS COLLECTION BOX - BLUE BOX", "nsi_id": "unitedstatespostalservice-a77078", "operator": "United States Postal Service", "operator:short": "USPS", "operator:type": "public", "operator:wikidata": "Q668687", "ref": "9284100006"}, "type": "Feature"}
{"dataset_attributes": {"@spider": "usps_collection_boxes"}, "geometry": {"coordinates": [-117.9974239683, 33.7758879847], "type": "Point"}, "id": "s3PBR5cvC9WTTLhmYlWjg-Gp3Nc=", "properties": {"@spider": "usps_collection_boxes", "addr:city": "GARDEN GROVE", "addr:country": "US", "addr:full": "12670 HOOVER ST", "addr:postcode": "92841", "addr:state": "CA", "amenity": "post_box", "brand": "United States Postal Service", "brand:wikidata": "Q668687", "collection_times": "Mo-Sa 10:00", "name": "USPS COLLECTION BOX - BLUE BOX", "nsi_id": "unitedstatespostalservice-a77078", "operator": "United States Postal Service", "operator:short": "USPS", "operator:type": "public", "operator:wikidata": "Q668687", "ref": "9284100012"}, "type": "Feature"}
{"dataset_attributes": {"@spider": "usps_collection_boxes"}, "geometry": {"coordinates": [-117.9503811094, 33.7777344838], "type": "Point"}, "id": "m95PAFAPR_b1pLnxxRUqgKBdyJo=", "properties": {"@spider": "usps_collection_boxes", "addr:city": "GARDEN GROVE", "addr:country": "US", "addr:full": "10441 STANFORD AVE", "addr:postcode": "92842", "addr:state": "CA", "amenity": "post_box", "brand": "United States Postal Service", "brand:wikidata": "Q668687", "collection_times": "Mo-Fr 17:30; Sa 15:00", "name": "USPS COLLECTION BOX - PO LOBBY", "note": "ON 12/24 AND 12/31, THIS BOX MAY BE COLLECTED AS EARLY AS 12 NOON.", "nsi_id": "unitedstatespostalservice-a77078", "operator": "United States Postal Service", "operator:short": "USPS", "operator:type": "public", "operator:wikidata": "Q668687", "ref": "9284200001"}, "type": "Feature"}
{"dataset_attributes": {"@spider": "usps_collection_boxes"}, "geometry": {"coordinates": [-117.954806561, 33.760240463], "type": "Point"}, "id": "5BOhwCcnd0g88-YxgHPVpOOl8Hg=", "properties": {"@spider": "usps_collection_boxes", "addr:city": "GARDEN GROVE", "addr:country": "US", "addr:full": "13952 BROOKHURST ST", "addr:postcode": "92843", "addr:state": "CA", "amenity": "post_box", "brand": "United States Postal Service", "brand:wikidata": "Q668687", "collection_times": "Mo-Sa 10:00", "name": "USPS COLLECTION BOX - BLUE BOX", "nsi_id": "unitedstatespostalservice-a77078", "operator": "United States Postal Service", "operator:short": "USPS", "operator:type": "public", "operator:wikidata": "Q668687", "ref": "9284300000"}, "type": "Feature"}
{"dataset_attributes": {"@spider": "usps_collection_boxes"}, "geometry": {"coordinates": [-117.927374, 33.77421], "type": "Point"}, "id": "LgRxLmXx8YQLvzoRpIKDrbhJGgU=", "properties": {"@spider": "usps_collection_boxes", "addr:city": "GARDEN GROVE", "addr:country": "US", "addr:full": "11752 GARDEN GROVE BLVD", "addr:postcode": "92843", "addr:state": "CA", "amenity": "post_box", "brand": "United States Postal Service", "brand:wikidata": "Q668687", "collection_times": "Mo-Sa 10:00", "name": "USPS COLLECTION BOX - BLUE BOX", "nsi_id": "unitedstatespostalservice-a77078", "operator": "United States Postal Service", "operator:short": "USPS", "operator:type": "public", "operator:wikidata": "Q668687", "ref": "9284300005"}, "type": "Feature"}
{"dataset_attributes": {"@spider": "usps_collection_boxes"}, "geometry": {"coordinates": [-117.912082, 33.775115], "type": "Point"}, "id": "yxgCeJKCnCWu0fmWvLkzRf4kzCg=", "properties": {"@spider": "usps_collection_boxes", "addr:city": "GARDEN GROVE", "addr:country": "US", "addr:full": "12665 GARDEN GROVE BLVD", "addr:postcode": "92843", "addr:state": "CA", "amenity": "post_box", "brand": "United States Postal Service", "brand:wikidata": "Q668687", "collection_times": "Mo-Sa 10:00", "name": "USPS COLLECTION BOX - BLUE BOX", "nsi_id": "unitedstatespostalservice-a77078", "operator": "United States Postal Service", "operator:short": "USPS", "operator:type": "public", "operator:wikidata": "Q668687", "ref": "9284300006"}, "type": "Feature"}
{"dataset_attributes": {"@spider": "usps_collection_boxes"}, "geometry": {"coordinates": [-117.907569966, 33.773924985], "type": "Point"}, "id": "r7s9rU6ICrR7duNbhyny9bvswLk=", "properties": {"@spider": "usps_collection_boxes", "addr:city": "GARDEN GROVE", "addr:country": "US", "addr:full": "12900 GARDEN GROVE BLVD", "addr:postcode": "92843", "addr:state": "CA", "amenity": "post_box", "brand": "United States Postal Service", "brand:wikidata": "Q668687", "collection_times": "Mo-Sa 10:00", "name": "USPS COLLECTION BOX - BLUE BOX", "nsi_id": "unitedstatespostalservice-a77078", "operator": "United States Postal Service", "operator:short": "USPS", "operator:type": "public", "operator:wikidata": "Q668687", "ref": "9284300010"}, "type": "Feature"}
{"dataset_attributes": {"@spider": "usps_collection_boxes"}, "geometry": {"coordinates": [-117.919202036, 33.771301994], "type": "Point"}, "id": "PgjZNedWoU1eeT4rmDG9RsCV9Us=", "properties": {"@spider": "usps_collection_boxes", "addr:city": "GARDEN GROVE", "addr:country": "US", "addr:full": "13220 HARBOR BLVD", "addr:postcode": "92843", "addr:state": "CA", "amenity": "post_box", "brand": "United States Postal Service", "brand:wikidata": "Q668687", "collection_times": "Mo-Sa 10:00", "name": "USPS COLLECTION BOX - BLUE BOX", "nsi_id": "unitedstatespostalservice-a77078", "operator": "United States Postal Service", "operator:short": "USPS", "operator:type": "public", "operator:wikidata": "Q668687", "ref": "9284300012"}, "type": "Feature"}
{"dataset_attributes": {"@spider": "usps_collection_boxes"}, "geometry": {"coordinates": [-117.940887, 33.774424], "type": "Point"}, "id": "uR3nU6ryidBsg3d0jZ9e6fb3jso=", "properties": {"@spider": "usps_collection_boxes", "addr:city": "GARDEN GROVE", "addr:country": "US", "addr:full": "12966 MAIN ST", "addr:postcode": "92843", "addr:state": "CA", "amenity": "post_box", "brand": "United States Postal Service", "brand:wikidata": "Q668687", "collection_times": "Mo-Sa 10:00", "name": "USPS COLLECTION BOX - BLUE BOX", "nsi_id": "unitedstatespostalservice-a77078", "operator": "United States Postal Service", "operator:short": "USPS", "operator:type": "public", "operator:wikidata": "Q668687", "ref": "9284300014"}, "type": "Feature"}
{"dataset_attributes": {"@spider": "usps_collection_boxes"}, "geometry": {"coordinates": [-117.901604, 33.774321], "type": "Point"}, "id": "UCBxm4vpyyHi885jcHFgCKDaYFo=", "properties": {"@spider": "usps_collection_boxes", "addr:city": "GARDEN GROVE", "addr:country": "US", "addr:full": "13252 GARDEN GROVE BLVD", "addr:postcode": "92843", "addr:state": "CA", "amenity": "post_box", "brand": "United States Postal Service", "brand:wikidata": "Q668687", "collection_times": "Mo-Fr 10:00", "name": "USPS COLLECTION BOX - BLUE BOX", "nsi_id": "unitedstatespostalservice-a77078", "operator": "United States Postal Service", "operator:short": "USPS", "operator:type": "public", "operator:wikidata": "Q668687", "ref": "9284300015"}, "type": "Feature"}
{"dataset_attributes": {"@spider": "usps_collection_boxes"}, "geometry": {"coordinates": [-117.96114343, 33.7739655356], "type": "Point"}, "id": "QS_ISGHvaRUpgY6cuacIjCzslvs=", "properties": {"@spider": "usps_collection_boxes", "addr:city": "GARDEN GROVE", "addr:country": "US", "addr:full": "9828 GARDEN GROVE BLVD", "addr:postcode": "92844", "addr:state": "CA", "amenity": "post_box", "brand": "United States Postal Service", "brand:wikidata": "Q668687", "collection_times": "Mo-Sa 10:00", "name": "USPS COLLECTION BOX - BLUE BOX", "nsi_id": "unitedstatespostalservice-a77078", "operator": "United States Postal Service", "operator:short": "USPS", "operator:type": "public", "operator:wikidata": "Q668687", "ref": "9284400003"}, "type": "Feature"}
{"dataset_attributes": {"@spider": "usps_collection_boxes"}, "geometry": {"coordinates": [-118.035513, 33.784888], "type": "Point"}, "id": "1kovyWdVY9ejE18QwNE2QPuqHqM=", "properties": {"@spider": "usps_collection_boxes", "addr:city": "GARDEN GROVE", "addr:country": "US", "addr:full": "12252 BLACKMER ST", "addr:postcode": "92845", "addr:state": "CA", "amenity": "post_box", "brand": "United States Postal Service", "brand:wikidata": "Q668687", "collection_times": "Mo-Sa 10:00", "name": "USPS COLLECTION BOX - BLUE BOX", "nsi_id": "unitedstatespostalservice-a77078", "operator": "United States Postal Service", "operator:short": "USPS", "operator:type": "public", "operator:wikidata": "Q668687", "ref": "9284500000"}, "type": "Feature"}
{"dataset_attributes": {"@spider": "usps_collection_boxes"}, "geometry": {"coordinates": [-118.030558, 33.781768], "type": "Point"}, "id": "FNPmN-tTMb6EwMdVzKrcSLxq56A=", "properties": {"@spider": "usps_collection_boxes", "addr:city": "GARDEN GROVE", "addr:country": "US", "addr:full": "12431 VALLEY VIEW ST", "addr:postcode": "92845", "addr:state": "CA", "amenity": "post_box", "brand": "United States Postal Service", "brand:wikidata": "Q668687", "collection_times": "Mo-Sa 10:00", "name": "USPS COLLECTION BOX - BLUE BOX", "nsi_id": "unitedstatespostalservice-a77078", "operator": "United States Postal Service", "operator:short": "USPS", "operator:type": "public", "operator:wikidata": "Q668687", "ref": "9284500007"}, "type": "Feature"}
{"dataset_attributes": {"@spider": "usps_collection_boxes"}, "geometry": {"coordinates": [-118.0351332434, 33.776780795], "type": "Point"}, "id": "1tiNmtuoVzrbAumnMogpWySFLuA=", "properties": {"@spider": "usps_collection_boxes", "addr:city": "GARDEN GROVE", "addr:country": "US", "addr:full": "12832 VALLEY VIEW ST", "addr:postcode": "92845", "addr:state": "CA", "amenity": "post_box", "brand": "United States Postal Service", "brand:wikidata": "Q668687", "collection_times": "Mo-Sa 10:00", "name": "USPS COLLECTION BOX - BLUE BOX", "nsi_id": "unitedstatespostalservice-a77078", "operator": "United States Postal Service", "operator:short": "USPS", "operator:type": "public", "operator:wikidata": "Q668687", "ref": "9284500008"}, "type": "Feature"}
{"dataset_attributes": {"@spider": "usps_collection_boxes"}, "geometry": {"coordinates": [-118.028603, 33.78922], "type": "Point"}, "id": "77ggUXsEzQ1tPfPwUJxpjiTctTU=", "properties": {"@spider": "usps_collection_boxes", "addr:city": "GARDEN GROVE", "addr:country": "US", "addr:full": "11947 VALLEY VIEW ST", "addr:postcode": "92845", "addr:state": "CA", "amenity": "post_box", "brand": "United States Postal Service", "brand:wikidata": "Q668687", "collection_times": "Mo-Sa 17:00", "name": "USPS COLLECTION BOX - BLUE BOX", "note": "ON 12/24 AND 12/31, THIS BOX MAY BE COLLECTED AS EARLY AS 12 NOON.", "nsi_id": "unitedstatespostalservice-a77078", "operator": "United States Postal Service", "operator:short": "USPS", "operator:type": "public", "operator:wikidata": "Q668687", "ref": "9284500010"}, "type": "Feature"}
{"dataset_attributes": {"@spider": "usps_collection_boxes"}, "geometry": {"coordinates": [-118.028571, 33.789179], "type": "Point"}, "id": "gXNkOdt-XLhfIb4G-4EVd8GDK-I=", "properties": {"@spider": "usps_collection_boxes", "addr:city": "GARDEN GROVE", "addr:country": "US", "addr:full": "11947 VALLEY VIEW ST", "addr:postcode": "92845", "addr:state": "CA", "amenity": "post_box", "brand": "United States Postal Service", "brand:wikidata": "Q668687", "collection_times": "Mo-Sa 17:00", "name": "USPS COLLECTION BOX - BLUE BOX", "note": "ON 12/24 AND 12/31, THIS BOX MAY BE COLLECTED AS EARLY AS 12 NOON.", "nsi_id": "unitedstatespostalservice-a77078", "operator": "United States Postal Service", "operator:short": "USPS", "operator:type": "public", "operator:wikidata": "Q668687", "ref": "9284500011"}, "type": "Feature"}
{"dataset_attributes": {"@spider": "usps_collection_boxes"}, "geometry": {"coordinates": [-118.028571, 33.789179], "type": "Point"}, "id": "muqDpiMG6Jrn7B6QYqyE7giNrwc=", "properties": {"@spider": "usps_collection_boxes", "addr:city": "GARDEN GROVE", "addr:country": "US", "addr:full": "11947 VALLEY VIEW ST", "addr:postcode": "92845", "addr:state": "CA", "amenity": "post_box", "brand": "United States Postal Service", "brand:wikidata": "Q668687", "collection_times": "Mo-Sa 17:00", "name": "USPS COLLECTION BOX - APC", "note": "ON 12/24 AND 12/31, THIS BOX MAY BE COLLECTED AS EARLY AS 12 NOON.", "nsi_id": "unitedstatespostalservice-a77078", "operator": "United States Postal Service", "operator:short": "USPS", "operator:type": "public", "operator:wikidata": "Q668687", "ref": "9284500012"}, "type": "Feature"}
{"dataset_attributes": {"@spider": "usps_collection_boxes"}, "geometry": {"coordinates": [-118.0286314385, 33.7888172292], "type": "Point"}, "id": "nfZTwHok86jCVH5-2fVu6fYkx5M=", "properties": {"@spider": "usps_collection_boxes", "addr:city": "GARDEN GROVE", "addr:country": "US", "addr:full": "11947 VALLEY VIEW ST", "addr:postcode": "92846", "addr:state": "CA", "amenity": "post_box", "brand": "United States Postal Service", "brand:wikidata": "Q668687", "collection_times": "Mo-Fr 17:00", "name": "USPS COLLECTION BOX - PO LOBBY", "note": "ON 12/24 AND 12/31, THIS BOX MAY BE COLLECTED AS EARLY AS 12 NOON.", "nsi_id": "unitedstatespostalservice-a77078", "operator": "United States Postal Service", "operator:short": "USPS", "operator:type": "public", "operator:wikidata": "Q668687", "ref": "9284600001"}, "type": "Feature"}
{"dataset_attributes": {"@spider": "usps_collection_boxes"}, "geometry": {"coordinates": [-117.855580804, 33.78785154], "type": "Point"}, "id": "gOWd6RK8H3jZ9OXbp3l8LT1LcDI=", "properties": {"@spider": "usps_collection_boxes", "addr:city": "ORANGE", "addr:country": "US", "addr:full": "308 W CHAPMAN AVE", "addr:postcode": "92856", "addr:state": "CA", "amenity": "post_box", "brand": "United States Postal Service", "brand:wikidata": "Q668687", "collection_times": "Mo-Fr 16:30", "name": "USPS COLLECTION BOX - PO LOBBY", "note": "ON 12/24 AND 12/31, THIS BOX MAY BE COLLECTED AS EARLY AS 12 NOON.", "nsi_id": "unitedstatespostalservice-a77078", "operator": "United States Postal Service", "operator:short": "USPS", "operator:type": "public", "operator:wikidata": "Q668687", "ref": "9285600001"}, "type": "Feature"}
{"dataset_attributes": {"@spider": "usps_collection_boxes"}, "geometry": {"coordinates": [-117.812914051, 33.787746485], "type": "Point"}, "id": "vdxo893ama87hjTWju39_s6mU8U=", "properties": {"@spider": "usps_collection_boxes", "addr:city": "ORANGE", "addr:country": "US", "addr:full": "3744 E CHAPMAN AVE STE F", "addr:postcode": "92859", "addr:state": "CA", "amenity": "post_box", "brand": "United States Postal Service", "brand:wikidata": "Q668687", "collection_times": "Mo-Fr 17:30; Sa 16:00", "name": "USPS COLLECTION BOX - PO LOBBY", "note": "ON 12/24 AND 12/31, THIS BOX MAY BE COLLECTED AS EARLY AS 12 NOON.", "nsi_id": "unitedstatespostalservice-a77078", "operator": "United States Postal Service", "operator:short": "USPS", "operator:type": "public", "operator:wikidata": "Q668687", "ref": "9285900001"}, "type": "Feature"}
{"dataset_attributes": {"@spider": "usps_collection_boxes"}, "geometry": {"coordinates": [-117.5609126498, 33.927897685], "type": "Point"}, "id": "x7Tpo5l8wkY9xGZV3WJFFODfvx4=", "properties": {"@spider": "usps_collection_boxes", "addr:city": "NORCO", "addr:country": "US", "addr:full": "1801 TOWN AND COUNTRY DR", "addr:postcode": "92860", "addr:state": "CA", "amenity": "post_box", "brand": "United States Postal Service", "brand:wikidata": "Q668687", "collection_times": "Mo-Fr 17:00; Sa 16:00", "name": "USPS COLLECTION BOX - PO LOBBY", "note": "ON 12/24 AND 12/31, THIS BOX MAY BE COLLECTED AS EARLY AS 12 NOON.", "nsi_id": "unitedstatespostalservice-a77078", "operator": "United States Postal Service", "operator:short": "USPS", "operator:type": "public", "operator:wikidata": "Q668687", "ref": "9286000000"}, "type": "Feature"}
{"dataset_attributes": {"@spider": "usps_collection_boxes"}, "geometry": {"coordinates": [-117.559491, 33.921213], "type": "Point"}, "id": "BbKgZlmXZQcrp-kHy-68naO-p64=", "properties": {"@spider": "usps_collection_boxes", "addr:city": "NORCO", "addr:country": "US", "addr:full": "2678 HAMNER AVE", "addr:postcode": "92860", "addr:state": "CA", "amenity": "post_box", "brand": "United States Postal Service", "brand:wikidata": "Q668687", "collection_times": "Mo-Sa 10:00", "name": "USPS COLLECTION BOX - BLUE BOX", "nsi_id": "unitedstatespostalservice-a77078", "operator": "United States Postal Service", "operator:short": "USPS", "operator:type": "public", "operator:wikidata": "Q668687", "ref": "9286000001"}, "type": "Feature"}
{"dataset_attributes": {"@spider": "usps_collection_boxes"}, "geometry": {"coordinates": [-117.58295, 33.909065], "type": "Point"}, "id": "M4cl_G2paDk3Lz2wWPE8gAVbhFE=", "properties": {"@spider": "usps_collection_boxes", "addr:city": "NORCO", "addr:country": "US", "addr:full": "2085 RIVER RD", "addr:postcode": "92860", "addr:state": "CA", "amenity": "post_box", "brand": "United States Postal Service", "brand:wikidata": "Q668687", "collection_times": "Mo-Sa 10:00", "name": "USPS COLLECTION BOX - BLUE BOX", "nsi_id": "unitedstatespostalservice-a77078", "operator": "United States Postal Service", "operator:short": "USPS", "operator:type": "public", "operator:wikidata": "Q668687", "ref": "9286000005"}, "type": "Feature"}
{"dataset_attributes": {"@spider": "usps_collection_boxes"}, "geometry": {"coordinates": [-117.56091265, 33.927897685], "type": "Point"}, "id": "zpIEmTuLGO20s39gvv7kYWfOeF0=", "properties": {"@spider": "usps_collection_boxes", "addr:city": "NORCO", "addr:country": "US", "addr:full": "1801 TOWN AND COUNTRY DR", "addr:postcode": "92860", "addr:state": "CA", "amenity": "post_box", "brand": "United States Postal Service", "brand:wikidata": "Q668687", "collection_times": "Mo-Fr 17:00; Sa 16:00", "name": "USPS COLLECTION BOX - BLUE BOX", "note": "ON 12/24 AND 12/31, THIS BOX MAY BE COLLECTED AS EARLY AS 12 NOON.", "nsi_id": "unitedstatespostalservice-a77078", "operator": "United States Postal Service", "operator:short": "USPS", "operator:type": "public", "operator:wikidata": "Q668687", "ref": "9286000010"}, "type": "Feature"}
{"dataset_attributes": {"@spider": "usps_collection_boxes"}, "geometry": {"coordinates": [-117.5609126498, 33.927897685], "type": "Point"}, "id": "EOCgmJ2lil9rLCmsToVFpaS744g=", "properties": {"@spider": "usps_collection_boxes", "addr:city": "NORCO", "addr:country": "US", "addr:full": "1801 TOWN AND COUNTRY DR", "addr:postcode": "92860", "addr:state": "CA", "amenity": "post_box", "brand": "United States Postal Service", "brand:wikidata": "Q668687", "collection_times": "Mo-Fr 17:00; Sa 16:00", "name": "USPS COLLECTION BOX - APC", "note": "ON 12/24 AND 12/31, THIS BOX MAY BE COLLECTED AS EARLY AS 12 NOON.", "nsi_id": "unitedstatespostalservice-a77078", "operator": "United States Postal Service", "operator:short": "USPS", "operator:type": "public", "operator:wikidata": "Q668687", "ref": "9286000011"}, "type": "Feature"}
{"dataset_attributes": {"@spider": "usps_collection_boxes"}, "geometry": {"coordinates": [-117.5609126498, 33.927897685], "type": "Point"}, "id": "uKSpiFSD2ApdRI1LQjY8rwZ0KZI=", "properties": {"@spider": "usps_collection_boxes", "addr:city": "NORCO", "addr:country": "US", "addr:full": "1801 TOWN AND COUNTRY DR", "addr:postcode": "92860", "addr:state": "CA", "amenity": "post_box", "brand": "United States Postal Service", "brand:wikidata": "Q668687", "collection_times": "Mo-Fr 16:30; Sa 13:00", "name": "USPS COLLECTION BOX - PO LOBBY", "note": "ON 12/24 AND 12/31, THIS BOX MAY BE COLLECTED AS EARLY AS 12 NOON.", "nsi_id": "unitedstatespostalservice-a77078", "operator": "United States Postal Service", "operator:short": "USPS", "operator:type": "public", "operator:wikidata": "Q668687", "ref": "9286000019"}, "type": "Feature"}
{"dataset_attributes": {"@spider": "usps_collection_boxes"}, "geometry": {"coordinates": [-117.820961481, 33.8141255914], "type": "Point"}, "id": "wEVFyeWi2IYOChw2Bv5LZ2QJIQs=", "properties": {"@spider": "usps_collection_boxes", "addr:city": "ORANGE", "addr:country": "US", "addr:full": "17821 SANTIAGO BLVD", "addr:postcode": "92861", "addr:state": "CA", "amenity": "post_box", "brand": "United States Postal Service", "brand:wikidata": "Q668687", "collection_times": "Mo-Sa 10:00", "name": "USPS COLLECTION BOX - BLUE BOX", "nsi_id": "unitedstatespostalservice-a77078", "operator": "United States Postal Service", "operator:short": "USPS", "operator:type": "public", "operator:wikidata": "Q668687", "ref": "9286100001"}, "type": "Feature"}
{"dataset_attributes": {"@spider": "usps_collection_boxes"}, "geometry": {"coordinates": [-117.835657443, 33.805384973], "type": "Point"}, "id": "EgbUBCr6WWd6Iae0jJAlbsr5w54=", "properties": {"@spider": "usps_collection_boxes", "addr:city": "ORANGE", "addr:country": "US", "addr:full": "1075 N TUSTIN ST", "addr:postcode": "92863", "addr:state": "CA", "amenity": "post_box", "brand": "United States Postal Service", "brand:wikidata": "Q668687", "collection_times": "Mo-Fr 17:00; Sa 14:00", "name": "USPS COLLECTION BOX - PO LOBBY", "note": "ON 12/24 AND 12/31, THIS BOX MAY BE COLLECTED AS EARLY AS 12 NOON.", "nsi_id": "unitedstatespostalservice-a77078", "operator": "United States Postal Service", "operator:short": "USPS", "operator:type": "public", "operator:wikidata": "Q668687", "ref": "9286300001"}, "type": "Feature"}
{"dataset_attributes": {"@spider": "usps_collection_boxes"}, "geometry": {"coordinates": [-117.836242, 33.824611], "type": "Point"}, "id": "GmCzspUQ-rHq0ZtFRKXuA0mSvwI=", "properties": {"@spider": "usps_collection_boxes", "addr:city": "ORANGE", "addr:country": "US", "addr:full": "2200 N TUSTIN ST", "addr:postcode": "92865", "addr:state": "CA", "amenity": "post_box", "brand": "United States Postal Service", "brand:wikidata": "Q668687", "collection_times": "Mo-Sa 10:00", "name": "USPS COLLECTION BOX - BLUE BOX", "nsi_id": "unitedstatespostalservice-a77078", "operator": "United States Postal Service", "operator:short": "USPS", "operator:type": "public", "operator:wikidata": "Q668687", "ref": "9286500009"}, "type": "Feature"}
{"dataset_attributes": {"@spider": "usps_collection_boxes"}, "geometry": {"coordinates": [-117.851935, 33.815629], "type": "Point"}, "id": "KK-kvaURRl11xaCTaTUTcdRGR4Y=", "properties": {"@spider": "usps_collection_boxes", "addr:city": "ORANGE", "addr:country": "US", "addr:full": "140 E TAFT AVE", "addr:postcode": "92865", "addr:state": "CA", "amenity": "post_box", "brand": "United States Postal Service", "brand:wikidata": "Q668687", "collection_times": "Mo-Fr 17:00; Sa 12:00", "name": "USPS COLLECTION BOX - BLUE BOX", "note": "ON 12/24 AND 12/31, THIS BOX MAY BE COLLECTED AS EARLY AS 12 NOON.", "nsi_id": "unitedstatespostalservice-a77078", "operator": "United States Postal Service", "operator:short": "USPS", "operator:type": "public", "operator:wikidata": "Q668687", "ref": "9286500020"}, "type": "Feature"}
{"dataset_attributes": {"@spider": "usps_collection_boxes"}, "geometry": {"coordinates": [-117.850056, 33.78778], "type": "Point"}, "id": "BOO_jeB-zXcvDbV6HVWtzew2ZRE=", "properties": {"@spider": "usps_collection_boxes", "addr:city": "ORANGE", "addr:country": "US", "addr:full": "390 E CHAPMAN AVE", "addr:postcode": "92866", "addr:state": "CA", "amenity": "post_box", "brand": "United States Postal Service", "brand:wikidata": "Q668687", "collection_times": "Mo-Sa 10:00", "name": "USPS COLLECTION BOX - BLUE BOX", "nsi_id": "unitedstatespostalservice-a77078", "operator": "United States Postal Service", "operator:short": "USPS", "operator:type": "public", "operator:wikidata": "Q668687", "ref": "9286600001"}, "type": "Feature"}
{"dataset_attributes": {"@spider": "usps_collection_boxes"}, "geometry": {"coordinates": [-117.8486326391, 33.7861042467], "type": "Point"}, "id": "jTSm9qJKVLePs5YNH23TYAuQi10=", "properties": {"@spider": "usps_collection_boxes", "addr:city": "ORANGE", "addr:country": "US", "addr:full": "507 E ALMOND AVE", "addr:postcode": "92866", "addr:state": "CA", "amenity": "post_box", "brand": "United States Postal Service", "brand:wikidata": "Q668687", "collection_times": "Mo-Sa 10:00", "name": "USPS COLLECTION BOX - BLUE BOX", "nsi_id": "unitedstatespostalservice-a77078", "operator": "United States Postal Service", "operator:short": "USPS", "operator:type": "public", "operator:wikidata": "Q668687", "ref": "9286600005"}, "type": "Feature"}
{"dataset_attributes": {"@spider": "usps_collection_boxes"}, "geometry": {"coordinates": [-117.855329447, 33.787475713], "type": "Point"}, "id": "wGRkb9QUeq4951R8BUGG6vFmL8A=", "properties": {"@spider": "usps_collection_boxes", "addr:city": "ORANGE", "addr:country": "US", "addr:full": "120 S LEMON ST", "addr:postcode": "92866", "addr:state": "CA", "amenity": "post_box", "brand": "United States Postal Service", "brand:wikidata": "Q668687", "collection_times": "Mo-Fr 17:00; Sa 11:45", "name": "USPS COLLECTION BOX - BLUE BOX", "note": "ON 12/24 AND 12/31, THIS BOX MAY BE COLLECTED AS EARLY AS 12 NOON.", "nsi_id": "unitedstatespostalservice-a77078", "operator": "United States Postal Service", "operator:short": "USPS", "operator:type": "public", "operator:wikidata": "Q668687", "ref": "9286600007"}, "type": "Feature"}
{"dataset_attributes": {"@spider": "usps_collection_boxes"}, "geometry": {"coordinates": [-117.845425, 33.78804], "type": "Point"}, "id": "99FuCTNdl6udfUB7ZM5aNpnEdeQ=", "properties": {"@spider": "usps_collection_boxes", "addr:city": "ORANGE", "addr:country": "US", "addr:full": "127 N PINE ST", "addr:postcode": "92866", "addr:state": "CA", "amenity": "post_box", "brand": "United States Postal Service", "brand:wikidata": "Q668687", "collection_times": "Mo-Sa 10:00", "name": "USPS COLLECTION BOX - BLUE BOX", "nsi_id": "unitedstatespostalservice-a77078", "operator": "United States Postal Service", "operator:short": "USPS", "operator:type": "public", "operator:wikidata": "Q668687", "ref": "9286600010"}, "type": "Feature"}
{"dataset_attributes": {"@spider": "usps_collection_boxes"}, "geometry": {"coordinates": [-117.855329447, 33.787475713], "type": "Point"}, "id": "Zdo0K945VnI-4oxuuWckeLWnT_E=", "properties": {"@spider": "usps_collection_boxes", "addr:city": "ORANGE", "addr:country": "US", "addr:full": "120 S LEMON ST", "addr:postcode": "92866", "addr:state": "CA", "amenity": "post_box", "brand": "United States Postal Service", "brand:wikidata": "Q668687", "collection_times": "Mo-Fr 16:30", "name": "USPS COLLECTION BOX - PO LOBBY", "note": "ON 12/24 AND 12/31, THIS BOX MAY BE COLLECTED AS EARLY AS 12 NOON.", "nsi_id": "unitedstatespostalservice-a77078", "operator": "United States Postal Service", "operator:short": "USPS", "operator:type": "public", "operator:wikidata": "Q668687", "ref": "9286600011"}, "type": "Feature"}
{"dataset_attributes": {"@spider": "usps_collection_boxes"}, "geometry": {"coordinates": [-117.855329447, 33.787475713], "type": "Point"}, "id": "GbyzuRHDLozVnY08HtL87dif3cI=", "properties": {"@spider": "usps_collection_boxes", "addr:city": "ORANGE", "addr:country": "US", "addr:full": "120 S LEMON ST", "addr:postcode": "92866", "addr:state": "CA", "amenity": "post_box", "brand": "United States Postal Service", "brand:wikidata": "Q668687", "collection_times": "Mo-Fr 17:00; Sa 11:45", "name": "USPS COLLECTION BOX - BLUE BOX", "note": "ON 12/24 AND 12/31, THIS BOX MAY BE COLLECTED AS EARLY AS 12 NOON.", "nsi_id": "unitedstatespostalservice-a77078", "operator": "United States Postal Service", "operator:short": "USPS", "operator:type": "public", "operator:wikidata": "Q668687", "ref": "9286600013"}, "type": "Feature"}
{"dataset_attributes": {"@spider": "usps_collection_boxes"}, "geometry": {"coordinates": [-117.8624871141, 33.813774], "type": "Point"}, "id": "IUZSXXRHydHxiB3lR3aYtUp6HW4=", "properties": {"@spider": "usps_collection_boxes", "addr:city": "ORANGE", "addr:country": "US", "addr:full": "1570 N BATAVIA ST", "addr:postcode": "92867", "addr:state": "CA", "amenity": "post_box", "brand": "United States Postal Service", "brand:wikidata": "Q668687", "collection_times": "Mo-Sa 10:00", "name": "USPS COLLECTION BOX - BLUE BOX", "nsi_id": "unitedstatespostalservice-a77078", "operator": "United States Postal Service", "operator:short": "USPS", "operator:type": "public", "operator:wikidata": "Q668687", "ref": "9286700008"}, "type": "Feature"}
{"dataset_attributes": {"@spider": "usps_collection_boxes"}, "geometry": {"coordinates": [-117.8235889961, 33.8100190106], "type": "Point"}, "id": "BNCycY1nET-4yvrtKxGou7Cc0Fw=", "properties": {"@spider": "usps_collection_boxes", "addr:city": "ORANGE", "addr:country": "US", "addr:full": "2808 E KATELLA AVE", "addr:postcode": "92867", "addr:state": "CA", "amenity": "post_box", "brand": "United States Postal Service", "brand:wikidata": "Q668687", "collection_times": "Mo-Sa 10:00", "name": "USPS COLLECTION BOX - BLUE BOX", "nsi_id": "unitedstatespostalservice-a77078", "operator": "United States Postal Service", "operator:short": "USPS", "operator:type": "public", "operator:wikidata": "Q668687", "ref": "9286700010"}, "type": "Feature"}
{"dataset_attributes": {"@spider": "usps_collection_boxes"}, "geometry": {"coordinates": [-117.870654, 33.80596], "type": "Point"}, "id": "LgPb6G9Lz8FCUt66zS0Sb6aT24s=", "properties": {"@spider": "usps_collection_boxes", "addr:city": "ORANGE", "addr:country": "US", "addr:full": "1740 W KATELLA AVE", "addr:postcode": "92867", "addr:state": "CA", "amenity": "post_box", "brand": "United States Postal Service", "brand:wikidata": "Q668687", "collection_times": "Mo-Sa 10:00", "name": "USPS COLLECTION BOX - BLUE BOX", "nsi_id": "unitedstatespostalservice-a77078", "operator": "United States Postal Service", "operator:short": "USPS", "operator:type": "public", "operator:wikidata": "Q668687", "ref": "9286700014"}, "type": "Feature"}
{"dataset_attributes": {"@spider": "usps_collection_boxes"}, "geometry": {"coordinates": [-117.835646, 33.805049], "type": "Point"}, "id": "FxrFiRohuANUK0gx5IYwuu3xJTA=", "properties": {"@spider": "usps_collection_boxes", "addr:city": "ORANGE", "addr:country": "US", "addr:full": "1075 N TUSTIN ST", "addr:postcode": "92867", "addr:state": "CA", "amenity": "post_box", "brand": "United States Postal Service", "brand:wikidata": "Q668687", "collection_times": "Mo-Fr 17:15; Sa 16:45", "name": "USPS COLLECTION BOX - BLUE BOX", "note": "ON 12/24 AND 12/31, THIS BOX MAY BE COLLECTED AS EARLY AS 12 NOON.", "nsi_id": "unitedstatespostalservice-a77078", "operator": "United States Postal Service", "operator:short": "USPS", "operator:type": "public", "operator:wikidata": "Q668687", "ref": "9286700017"}, "type": "Feature"}
{"dataset_attributes": {"@spider": "usps_collection_boxes"}, "geometry": {"coordinates": [-117.872953, 33.806584], "type": "Point"}, "id": "0nQye8TteVHHj3fmCmGCayogC0w=", "properties": {"@spider": "usps_collection_boxes", "addr:city": "ORANGE", "addr:country": "US", "addr:full": "1855 W KATELLA AVE", "addr:postcode": "92867", "addr:state": "CA", "amenity": "post_box", "brand": "United States Postal Service", "brand:wikidata": "Q668687", "collection_times": "Mo-Sa 10:00", "name": "USPS COLLECTION BOX - BLUE BOX", "nsi_id": "unitedstatespostalservice-a77078", "operator": "United States Postal Service", "operator:short": "USPS", "operator:type": "public", "operator:wikidata": "Q668687", "ref": "9286700021"}, "type": "Feature"}
{"dataset_attributes": {"@spider": "usps_collection_boxes"}, "geometry": {"coordinates": [-117.8346780026, 33.8055059844], "type": "Point"}, "id": "JR-HPD-1TKlNzNOeo2PJcNp87qE=", "properties": {"@spider": "usps_collection_boxes", "addr:city": "ORANGE", "addr:country": "US", "addr:full": "1075 N TUSTIN ST", "addr:postcode": "92867", "addr:state": "CA", "amenity": "post_box", "brand": "United States Postal Service", "brand:wikidata": "Q668687", "collection_times": "Mo-Fr 17:15; Sa 16:45", "name": "USPS COLLECTION BOX - APC", "note": "ON 12/24 AND 12/31, THIS BOX MAY BE COLLECTED AS EARLY AS 12 NOON.", "nsi_id": "unitedstatespostalservice-a77078", "operator": "United States Postal Service", "operator:short": "USPS", "operator:type": "public", "operator:wikidata": "Q668687", "ref": "9286700033"}, "type": "Feature"}
{"dataset_attributes": {"@spider": "usps_collection_boxes"}, "geometry": {"coordinates": [-117.835649, 33.805298], "type": "Point"}, "id": "I3mHLJLeTs1yvVIpkGyTrLDH1eA=", "properties": {"@spider": "usps_collection_boxes", "addr:city": "ORANGE", "addr:country": "US", "addr:full": "1075 N TUSTIN ST", "addr:postcode": "92867", "addr:state": "CA", "amenity": "post_box", "brand": "United States Postal Service", "brand:wikidata": "Q668687", "collection_times": "Mo-Fr 17:15; Sa 16:45", "name": "USPS COLLECTION BOX - PO LOBBY", "note": "ON 12/24 AND 12/31, THIS BOX MAY BE COLLECTED AS EARLY AS 12 NOON.", "nsi_id": "unitedstatespostalservice-a77078", "operator": "United States Postal Service", "operator:short": "USPS", "operator:type": "public", "operator:wikidata": "Q668687", "ref": "9286700034"}, "type": "Feature"}
{"dataset_attributes": {"@spider": "usps_collection_boxes"}, "geometry": {"coordinates": [-117.83568, 33.805116], "type": "Point"}, "id": "45qSzIUvGQVxyLmZMFZyXeD5KiE=", "properties": {"@spider": "usps_collection_boxes", "addr:city": "ORANGE", "addr:country": "US", "addr:full": "1075 N TUSTIN ST", "addr:postcode": "92867", "addr:state": "CA", "amenity": "post_box", "brand": "United States Postal Service", "brand:wikidata": "Q668687", "collection_times": "Mo-Fr 17:15; Sa 16:45", "name": "USPS COLLECTION BOX - BLUE BOX", "note": "ON 12/24 AND 12/31, THIS BOX MAY BE COLLECTED AS EARLY AS 12 NOON.", "nsi_id": "unitedstatespostalservice-a77078", "operator": "United States Postal Service", "operator:short": "USPS", "operator:type": "public", "operator:wikidata": "Q668687", "ref": "9286700039"}, "type": "Feature"}
{"dataset_attributes": {"@spider": "usps_collection_boxes"}, "geometry": {"coordinates": [-117.835615684, 33.8054170199], "type": "Point"}, "id": "KQKVD6I2-_HDU0Js599qSYfiALA=", "properties": {"@spider": "usps_collection_boxes", "addr:city": "ORANGE", "addr:country": "US", "addr:full": "1075 N TUSTIN ST", "addr:postcode": "92867", "addr:state": "CA", "amenity": "post_box", "brand": "United States Postal Service", "brand:wikidata": "Q668687", "collection_times": "Mo-Fr 17:15; Sa 16:45", "name": "USPS COLLECTION BOX - BLUE BOX", "note": "ON 12/24 AND 12/31, THIS BOX MAY BE COLLECTED AS EARLY AS 12 NOON.", "nsi_id": "unitedstatespostalservice-a77078", "operator": "United States Postal Service", "operator:short": "USPS", "operator:type": "public", "operator:wikidata": "Q668687", "ref": "9286700053"}, "type": "Feature"}
{"dataset_attributes": {"@spider": "usps_collection_boxes"}, "geometry": {"coordinates": [-117.890558876, 33.784868113], "type": "Point"}, "id": "c3ZhC97ij9lre6F2pPpY-te8QS0=", "properties": {"@spider": "usps_collection_boxes", "addr:city": "ORANGE", "addr:country": "US", "addr:full": "341 THE CITY DR SOUTH", "addr:postcode": "92868", "addr:state": "CA", "amenity": "post_box", "brand": "United States Postal Service", "brand:wikidata": "Q668687", "collection_times": "Mo-Sa 10:00", "name": "USPS COLLECTION BOX - BLUE BOX", "nsi_id": "unitedstatespostalservice-a77078", "operator": "United States Postal Service", "operator:short": "USPS", "operator:type": "public", "operator:wikidata": "Q668687", "ref": "9286800010"}, "type": "Feature"}
{"dataset_attributes": {"@spider": "usps_collection_boxes"}, "geometry": {"coordinates": [-117.889031, 33.777849], "type": "Point"}, "id": "AFxPJ2vTkZM1ua9MZsENw9boDbw=", "properties": {"@spider": "usps_collection_boxes", "addr:city": "ORANGE", "addr:country": "US", "addr:full": "625 THE CITY DR S", "addr:postcode": "92868", "addr:state": "CA", "amenity": "post_box", "brand": "United States Postal Service", "brand:wikidata": "Q668687", "collection_times": "Mo-Sa 10:00", "name": "USPS COLLECTION BOX - BLUE BOX", "nsi_id": "unitedstatespostalservice-a77078", "operator": "United States Postal Service", "operator:short": "USPS", "operator:type": "public", "operator:wikidata": "Q668687", "ref": "9286800011"}, "type": "Feature"}
{"dataset_attributes": {"@spider": "usps_collection_boxes"}, "geometry": {"coordinates": [-117.877205, 33.787503], "type": "Point"}, "id": "o5wIgKbV0g-ARhkw2_YDl4u9sRM=", "properties": {"@spider": "usps_collection_boxes", "addr:city": "ORANGE", "addr:country": "US", "addr:full": "2310 W CHAPMAN AVE", "addr:postcode": "92868", "addr:state": "CA", "amenity": "post_box", "brand": "United States Postal Service", "brand:wikidata": "Q668687", "collection_times": "Mo-Sa 10:00", "name": "USPS COLLECTION BOX - BLUE BOX", "nsi_id": "unitedstatespostalservice-a77078", "operator": "United States Postal Service", "operator:short": "USPS", "operator:type": "public", "operator:wikidata": "Q668687", "ref": "9286800014"}, "type": "Feature"}
{"dataset_attributes": {"@spider": "usps_collection_boxes"}, "geometry": {"coordinates": [-117.8753800215, 33.7971910107], "type": "Point"}, "id": "9Him5kw-DFWPXgharEinQeawbjk=", "properties": {"@spider": "usps_collection_boxes", "addr:city": "ORANGE", "addr:country": "US", "addr:full": "604 N ECKHOFF ST", "addr:postcode": "92868", "addr:state": "CA", "amenity": "post_box", "brand": "United States Postal Service", "brand:wikidata": "Q668687", "collection_times": "Mo-Sa 10:00", "name": "USPS COLLECTION BOX - BLUE BOX", "nsi_id": "unitedstatespostalservice-a77078", "operator": "United States Postal Service", "operator:short": "USPS", "operator:type": "public", "operator:wikidata": "Q668687", "ref": "9286800036"}, "type": "Feature"}
{"dataset_attributes": {"@spider": "usps_collection_boxes"}, "geometry": {"coordinates": [-117.892831, 33.775681], "type": "Point"}, "id": "bIZ1SNJX-WzHLW1a4nAU1Y3S5ns=", "properties": {"@spider": "usps_collection_boxes", "addr:city": "ORANGE", "addr:country": "US", "addr:full": "770 THE CITY DR S", "addr:postcode": "92868", "addr:state": "CA", "amenity": "post_box", "brand": "United States Postal Service", "brand:wikidata": "Q668687", "collection_times": "Mo-Sa 10:00", "name": "USPS COLLECTION BOX - BLUE BOX", "nsi_id": "unitedstatespostalservice-a77078", "operator": "United States Postal Service", "operator:short": "USPS", "operator:type": "public", "operator:wikidata": "Q668687", "ref": "9286800042"}, "type": "Feature"}
{"dataset_attributes": {"@spider": "usps_collection_boxes"}, "geometry": {"coordinates": [-117.892864, 33.775668], "type": "Point"}, "id": "VNRfrVBr6szhIDEHR_pOfqRfLnc=", "properties": {"@spider": "usps_collection_boxes", "addr:city": "ORANGE", "addr:country": "US", "addr:full": "770 THE CITY DR S", "addr:postcode": "92868", "addr:state": "CA", "amenity": "post_box", "brand": "United States Postal Service", "brand:wikidata": "Q668687", "collection_times": "Mo-Sa 10:00", "name": "USPS COLLECTION BOX - BLUE BOX", "nsi_id": "unitedstatespostalservice-a77078", "operator": "United States Postal Service", "operator:short": "USPS", "operator:type": "public", "operator:wikidata": "Q668687", "ref": "9286800043"}, "type": "Feature"}
{"dataset_attributes": {"@spider": "usps_collection_boxes"}, "geometry": {"coordinates": [-117.881238, 33.784295], "type": "Point"}, "id": "l9walDud3DaV25XX3BGpA7HOVIU=", "properties": {"@spider": "usps_collection_boxes", "addr:city": "ORANGE", "addr:country": "US", "addr:full": "333 S ANITA DR", "addr:postcode": "92868", "addr:state": "CA", "amenity": "post_box", "brand": "United States Postal Service", "brand:wikidata": "Q668687", "collection_times": "Mo-Sa 10:00", "name": "USPS COLLECTION BOX - BLUE BOX", "nsi_id": "unitedstatespostalservice-a77078", "operator": "United States Postal Service", "operator:short": "USPS", "operator:type": "public", "operator:wikidata": "Q668687", "ref": "9286800050"}, "type": "Feature"}
{"dataset_attributes": {"@spider": "usps_collection_boxes"}, "geometry": {"coordinates": [-117.881249, 33.784294], "type": "Point"}, "id": "bQZtp5RDHY9_3fqFSpUo51zOCbY=", "properties": {"@spider": "usps_collection_boxes", "addr:city": "ORANGE", "addr:country": "US", "addr:full": "333 S ANITA DR", "addr:postcode": "92868", "addr:state": "CA", "amenity": "post_box", "brand": "United States Postal Service", "brand:wikidata": "Q668687", "collection_times": "Mo-Sa 10:00", "name": "USPS COLLECTION BOX - BLUE BOX", "nsi_id": "unitedstatespostalservice-a77078", "operator": "United States Postal Service", "operator:short": "USPS", "operator:type": "public", "operator:wikidata": "Q668687", "ref": "9286800052"}, "type": "Feature"}
{"dataset_attributes": {"@spider": "usps_collection_boxes"}, "geometry": {"coordinates": [-117.868396, 33.779754], "type": "Point"}, "id": "N5UK9Z3CS347PlwJyfu1gpD9JKg=", "properties": {"@spider": "usps_collection_boxes", "addr:city": "ORANGE", "addr:country": "US", "addr:full": "500 S MAIN ST", "addr:postcode": "92868", "addr:state": "CA", "amenity": "post_box", "brand": "United States Postal Service", "brand:wikidata": "Q668687", "collection_times": "Mo-Sa 10:00", "name": "USPS COLLECTION BOX - BLUE BOX", "nsi_id": "unitedstatespostalservice-a77078", "operator": "United States Postal Service", "operator:short": "USPS", "operator:type": "public", "operator:wikidata": "Q668687", "ref": "9286800071"}, "type": "Feature"}
{"dataset_attributes": {"@spider": "usps_collection_boxes"}, "geometry": {"coordinates": [-117.868397, 33.779754], "type": "Point"}, "id": "AiY7UKWOFNMnqG-fU6nGdtrds8U=", "properties": {"@spider": "usps_collection_boxes", "addr:city": "ORANGE", "addr:country": "US", "addr:full": "500 S MAIN ST", "addr:postcode": "92868", "addr:state": "CA", "amenity": "post_box", "brand": "United States Postal Service", "brand:wikidata": "Q668687", "collection_times": "Mo-Sa 10:00", "name": "USPS COLLECTION BOX - BLUE BOX", "nsi_id": "unitedstatespostalservice-a77078", "operator": "United States Postal Service", "operator:short": "USPS", "operator:type": "public", "operator:wikidata": "Q668687", "ref": "9286800072"}, "type": "Feature"}
{"dataset_attributes": {"@spider": "usps_collection_boxes"}, "geometry": {"coordinates": [-117.864651, 33.779428], "type": "Point"}, "id": "fDLxhfnlJ5gKyu9dIZwv-4mZJJM=", "properties": {"@spider": "usps_collection_boxes", "addr:city": "ORANGE", "addr:country": "US", "addr:full": "1140 W LA VETA AVE", "addr:postcode": "92868", "addr:state": "CA", "amenity": "post_box", "brand": "United States Postal Service", "brand:wikidata": "Q668687", "collection_times": "Mo-Sa 10:00", "name": "USPS COLLECTION BOX - BLUE BOX", "nsi_id": "unitedstatespostalservice-a77078", "operator": "United States Postal Service", "operator:short": "USPS", "operator:type": "public", "operator:wikidata": "Q668687", "ref": "9286800085"}, "type": "Feature"}
{"dataset_attributes": {"@spider": "usps_collection_boxes"}, "geometry": {"coordinates": [-117.8946741197, 33.78030434], "type": "Point"}, "id": "rwrGzIKptnugeqWjP_9SKirCiCg=", "properties": {"@spider": "usps_collection_boxes", "addr:city": "ORANGE", "addr:country": "US", "addr:full": "1 CITY BLVD W", "addr:postcode": "92868", "addr:state": "CA", "amenity": "post_box", "brand": "United States Postal Service", "brand:wikidata": "Q668687", "collection_times": "Mo-Sa 10:00", "name": "USPS COLLECTION BOX - BLUE BOX", "nsi_id": "unitedstatespostalservice-a77078", "operator": "United States Postal Service", "operator:short": "USPS", "operator:type": "public", "operator:wikidata": "Q668687", "ref": "9286800086"}, "type": "Feature"}
{"dataset_attributes": {"@spider": "usps_collection_boxes"}, "geometry": {"coordinates": [-117.8938, 33.787512], "type": "Point"}, "id": "dLJaBr0WVseWm5z9apwbmENO1n4=", "properties": {"@spider": "usps_collection_boxes", "addr:city": "ORANGE", "addr:country": "US", "addr:full": "333 CITY BLVD W", "addr:postcode": "92868", "addr:state": "CA", "amenity": "post_box", "brand": "United States Postal Service", "brand:wikidata": "Q668687", "collection_times": "Mo-Fr 10:00", "name": "USPS COLLECTION BOX - BLUE BOX", "nsi_id": "unitedstatespostalservice-a77078", "operator": "United States Postal Service", "operator:short": "USPS", "operator:type": "public", "operator:wikidata": "Q668687", "ref": "9286800088"}, "type": "Feature"}
{"dataset_attributes": {"@spider": "usps_collection_boxes"}, "geometry": {"coordinates": [-117.8938, 33.787512], "type": "Point"}, "id": "J6bhvarO5u_RahfwHhjJ_8xWhuQ=", "properties": {"@spider": "usps_collection_boxes", "addr:city": "ORANGE", "addr:country": "US", "addr:full": "333 CITY BLVD W", "addr:postcode": "92868", "addr:state": "CA", "amenity": "post_box", "brand": "United States Postal Service", "brand:wikidata": "Q668687", "collection_times": "Mo-Fr 10:00", "name": "USPS COLLECTION BOX - BLUE BOX", "nsi_id": "unitedstatespostalservice-a77078", "operator": "United States Postal Service", "operator:short": "USPS", "operator:type": "public", "operator:wikidata": "Q668687", "ref": "9286800089"}, "type": "Feature"}
{"dataset_attributes": {"@spider": "usps_collection_boxes"}, "geometry": {"coordinates": [-117.893065, 33.781218], "type": "Point"}, "id": "JdJcoqZYN9BzJN1pFFHpGAmY4SA=", "properties": {"@spider": "usps_collection_boxes", "addr:city": "ORANGE", "addr:country": "US", "addr:full": "1 CITY BLVD W", "addr:postcode": "92868", "addr:state": "CA", "amenity": "post_box", "brand": "United States Postal Service", "brand:wikidata": "Q668687", "collection_times": "Mo-Sa 10:00", "name": "USPS COLLECTION BOX - BLUE BOX", "nsi_id": "unitedstatespostalservice-a77078", "operator": "United States Postal Service", "operator:short": "USPS", "operator:type": "public", "operator:wikidata": "Q668687", "ref": "9286800093"}, "type": "Feature"}
{"dataset_attributes": {"@spider": "usps_collection_boxes"}, "geometry": {"coordinates": [-117.771754234, 33.795069646], "type": "Point"}, "id": "98XCUKRCQW7NVU8vzvC3jTqG9J4=", "properties": {"@spider": "usps_collection_boxes", "addr:city": "ORANGE", "addr:country": "US", "addr:full": "7626 E CHAPMAN AVE", "addr:postcode": "92869", "addr:state": "CA", "amenity": "post_box", "brand": "United States Postal Service", "brand:wikidata": "Q668687", "collection_times": "Mo-Sa 10:00", "name": "USPS COLLECTION BOX - BLUE BOX", "nsi_id": "unitedstatespostalservice-a77078", "operator": "United States Postal Service", "operator:short": "USPS", "operator:type": "public", "operator:wikidata": "Q668687", "ref": "9286900001"}, "type": "Feature"}
{"dataset_attributes": {"@spider": "usps_collection_boxes"}, "geometry": {"coordinates": [-117.812724, 33.787628], "type": "Point"}, "id": "svZvWKArHbkxQVqVhcq30EK3VCQ=", "properties": {"@spider": "usps_collection_boxes", "addr:city": "ORANGE", "addr:country": "US", "addr:full": "3744 E CHAPMAN AVE", "addr:postcode": "92869", "addr:state": "CA", "amenity": "post_box", "brand": "United States Postal Service", "brand:wikidata": "Q668687", "collection_times": "Mo-Fr 17:00; Sa 11:15", "name": "USPS COLLECTION BOX - BLUE BOX", "note": "ON 12/24 AND 12/31, THIS BOX MAY BE COLLECTED AS EARLY AS 12 NOON.", "nsi_id": "unitedstatespostalservice-a77078", "operator": "United States Postal Service", "operator:short": "USPS", "operator:type": "public", "operator:wikidata": "Q668687", "ref": "9286900006"}, "type": "Feature"}
{"dataset_attributes": {"@spider": "usps_collection_boxes"}, "geometry": {"coordinates": [-117.812719, 33.787641], "type": "Point"}, "id": "GRFqMzjwu7g6lzP5AA-uWdivtro=", "properties": {"@spider": "usps_collection_boxes", "addr:city": "ORANGE", "addr:country": "US", "addr:full": "3744 E CHAPMAN AVE", "addr:postcode": "92869", "addr:state": "CA", "amenity": "post_box", "brand": "United States Postal Service", "brand:wikidata": "Q668687", "collection_times": "Mo-Fr 17:00; Sa 11:15", "name": "USPS COLLECTION BOX - BLUE BOX", "note": "ON 12/24 AND 12/31, THIS BOX MAY BE COLLECTED AS EARLY AS 12 NOON.", "nsi_id": "unitedstatespostalservice-a77078", "operator": "United States Postal Service", "operator:short": "USPS", "operator:type": "public", "operator:wikidata": "Q668687", "ref": "9286900007"}, "type": "Feature"}
{"dataset_attributes": {"@spider": "usps_collection_boxes"}, "geometry": {"coordinates": [-117.763093, 33.791711], "type": "Point"}, "id": "Pzlplfpuv8W3p_UyCMPy51P4dVI=", "properties": {"@spider": "usps_collection_boxes", "addr:city": "ORANGE", "addr:country": "US", "addr:full": "8440 E CHAPMAN AVE", "addr:postcode": "92869", "addr:state": "CA", "amenity": "post_box", "brand": "United States Postal Service", "brand:wikidata": "Q668687", "collection_times": "Mo-Sa 10:00", "name": "USPS COLLECTION BOX - BLUE BOX", "nsi_id": "unitedstatespostalservice-a77078", "operator": "United States Postal Service", "operator:short": "USPS", "operator:type": "public", "operator:wikidata": "Q668687", "ref": "9286900009"}, "type": "Feature"}
{"dataset_attributes": {"@spider": "usps_collection_boxes"}, "geometry": {"coordinates": [-117.812864, 33.787337], "type": "Point"}, "id": "4DEcOZ0Od5MtW-h_WASwaAMSLps=", "properties": {"@spider": "usps_collection_boxes", "addr:city": "ORANGE", "addr:country": "US", "addr:full": "3744 E CHAPMAN AVE", "addr:postcode": "92869", "addr:state": "CA", "amenity": "post_box", "brand": "United States Postal Service", "brand:wikidata": "Q668687", "collection_times": "Mo-Fr 17:00", "name": "USPS COLLECTION BOX - PO LOBBY", "note": "ON 12/24 AND 12/31, THIS BOX MAY BE COLLECTED AS EARLY AS 12 NOON.", "nsi_id": "unitedstatespostalservice-a77078", "operator": "United States Postal Service", "operator:short": "USPS", "operator:type": "public", "operator:wikidata": "Q668687", "ref": "9286900012"}, "type": "Feature"}
{"dataset_attributes": {"@spider": "usps_collection_boxes"}, "geometry": {"coordinates": [-117.8771289047, 33.8734293652], "type": "Point"}, "id": "CH7fhXPjcBqHFDs-ZeJHJTygkOQ=", "properties": {"@spider": "usps_collection_boxes", "addr:city": "PLACENTIA", "addr:country": "US", "addr:full": "638 W CHAPMAN AVE", "addr:postcode": "92870", "addr:state": "CA", "amenity": "post_box", "brand": "United States Postal Service", "brand:wikidata": "Q668687", "collection_times": "Mo-Sa 10:00", "name": "USPS COLLECTION BOX - BLUE BOX", "nsi_id": "unitedstatespostalservice-a77078", "operator": "United States Postal Service", "operator:short": "USPS", "operator:type": "public", "operator:wikidata": "Q668687", "ref": "9287000001"}, "type": "Feature"}
{"dataset_attributes": {"@spider": "usps_collection_boxes"}, "geometry": {"coordinates": [-117.843157, 33.888233], "type": "Point"}, "id": "-mT7XwCJgWtFyhtYZRMg7cGq8IA=", "properties": {"@spider": "usps_collection_boxes", "addr:city": "PLACENTIA", "addr:country": "US", "addr:full": "1158 E YORBA LINDA BLVD", "addr:postcode": "92870", "addr:state": "CA", "amenity": "post_box", "brand": "United States Postal Service", "brand:wikidata": "Q668687", "collection_times": "Mo-Sa 10:00", "name": "USPS COLLECTION BOX - BLUE BOX", "nsi_id": "unitedstatespostalservice-a77078", "operator": "United States Postal Service", "operator:short": "USPS", "operator:type": "public", "operator:wikidata": "Q668687", "ref": "9287000003"}, "type": "Feature"}
{"dataset_attributes": {"@spider": "usps_collection_boxes"}, "geometry": {"coordinates": [-117.870928, 33.89507], "type": "Point"}, "id": "nEW22CcOsvQuyhUvpM4Xd0qwwDk=", "properties": {"@spider": "usps_collection_boxes", "addr:city": "PLACENTIA", "addr:country": "US", "addr:full": "1828 N PLACENTIA AVE", "addr:postcode": "92870", "addr:state": "CA", "amenity": "post_box", "brand": "United States Postal Service", "brand:wikidata": "Q668687", "collection_times": "Mo-Sa 10:00", "name": "USPS COLLECTION BOX - BLUE BOX", "nsi_id": "unitedstatespostalservice-a77078", "operator": "United States Postal Service", "operator:short": "USPS", "operator:type": "public", "operator:wikidata": "Q668687", "ref": "9287000007"}, "type": "Feature"}
{"dataset_attributes": {"@spider": "usps_collection_boxes"}, "geometry": {"coordinates": [-117.8746767477, 33.864964733], "type": "Point"}, "id": "g_AyGft-7Qmt3peGN0GrTiLgiCI=", "properties": {"@spider": "usps_collection_boxes", "addr:city": "PLACENTIA", "addr:country": "US", "addr:full": "580 S MELROSE ST", "addr:postcode": "92870", "addr:state": "CA", "amenity": "post_box", "brand": "United States Postal Service", "brand:wikidata": "Q668687", "collection_times": "Mo-Sa 10:00", "name": "USPS COLLECTION BOX - BLUE BOX", "nsi_id": "unitedstatespostalservice-a77078", "operator": "United States Postal Service", "operator:short": "USPS", "operator:type": "public", "operator:wikidata": "Q668687", "ref": "9287000009"}, "type": "Feature"}
{"dataset_attributes": {"@spider": "usps_collection_boxes"}, "geometry": {"coordinates": [-117.8813910195, 33.8633810141], "type": "Point"}, "id": "qV_aarvolFFQgIc9oz4LDvdVzIM=", "properties": {"@spider": "usps_collection_boxes", "addr:city": "PLACENTIA", "addr:country": "US", "addr:full": "620 S PLACENTIA AVE", "addr:postcode": "92870", "addr:state": "CA", "amenity": "post_box", "brand": "United States Postal Service", "brand:wikidata": "Q668687", "collection_times": "Mo-Sa 10:00", "name": "USPS COLLECTION BOX - BLUE BOX", "nsi_id": "unitedstatespostalservice-a77078", "operator": "United States Postal Service", "operator:short": "USPS", "operator:type": "public", "operator:wikidata": "Q668687", "ref": "9287000010"}, "type": "Feature"}
{"dataset_attributes": {"@spider": "usps_collection_boxes"}, "geometry": {"coordinates": [-117.861363, 33.872018], "type": "Point"}, "id": "ZemNhxt_by_Dv5YP8LFTj-AkE1Y=", "properties": {"@spider": "usps_collection_boxes", "addr:city": "PLACENTIA", "addr:country": "US", "addr:full": "401 E CHAPMAN AVE", "addr:postcode": "92870", "addr:state": "CA", "amenity": "post_box", "brand": "United States Postal Service", "brand:wikidata": "Q668687", "collection_times": "Mo-Sa 10:00", "name": "USPS COLLECTION BOX - BLUE BOX", "nsi_id": "unitedstatespostalservice-a77078", "operator": "United States Postal Service", "operator:short": "USPS", "operator:type": "public", "operator:wikidata": "Q668687", "ref": "9287000013"}, "type": "Feature"}
{"dataset_attributes": {"@spider": "usps_collection_boxes"}, "geometry": {"coordinates": [-117.863677, 33.871792], "type": "Point"}, "id": "piU4ZwDQVPvRtxrc3Qkz1EtNzAI=", "properties": {"@spider": "usps_collection_boxes", "addr:city": "PLACENTIA", "addr:country": "US", "addr:full": "151 N KRAEMER BLVD", "addr:postcode": "92870", "addr:state": "CA", "amenity": "post_box", "brand": "United States Postal Service", "brand:wikidata": "Q668687", "collection_times": "Mo-Sa 10:00", "name": "USPS COLLECTION BOX - BLUE BOX", "nsi_id": "unitedstatespostalservice-a77078", "operator": "United States Postal Service", "operator:short": "USPS", "operator:type": "public", "operator:wikidata": "Q668687", "ref": "9287000014"}, "type": "Feature"}
{"dataset_attributes": {"@spider": "usps_collection_boxes"}, "geometry": {"coordinates": [-117.8624950246, 33.8864519931], "type": "Point"}, "id": "9iil_HTbw8KfaERYeGsotIZbO8Y=", "properties": {"@spider": "usps_collection_boxes", "addr:city": "PLACENTIA", "addr:country": "US", "addr:full": "1400 N KRAEMER BLVD", "addr:postcode": "92870", "addr:state": "CA", "amenity": "post_box", "brand": "United States Postal Service", "brand:wikidata": "Q668687", "collection_times": "Mo-Fr 17:40; Sa 15:00", "name": "USPS COLLECTION BOX - BLUE BOX", "note": "ON 12/24 AND 12/31, THIS BOX MAY BE COLLECTED AS EARLY AS 12 NOON.", "nsi_id": "unitedstatespostalservice-a77078", "operator": "United States Postal Service", "operator:short": "USPS", "operator:type": "public", "operator:wikidata": "Q668687", "ref": "9287000018"}, "type": "Feature"}
{"dataset_attributes": {"@spider": "usps_collection_boxes"}, "geometry": {"coordinates": [-117.872383, 33.858561], "type": "Point"}, "id": "dAnm7D-Ne7mAmNN5W362Q_nqb7Q=", "properties": {"@spider": "usps_collection_boxes", "addr:city": "PLACENTIA", "addr:country": "US", "addr:full": "1005 ORTEGA WAY", "addr:postcode": "92870", "addr:state": "CA", "amenity": "post_box", "brand": "United States Postal Service", "brand:wikidata": "Q668687", "collection_times": "Mo-Sa 10:00", "name": "USPS COLLECTION BOX - BLUE BOX", "nsi_id": "unitedstatespostalservice-a77078", "operator": "United States Postal Service", "operator:short": "USPS", "operator:type": "public", "operator:wikidata": "Q668687", "ref": "9287000019"}, "type": "Feature"}
{"dataset_attributes": {"@spider": "usps_collection_boxes"}, "geometry": {"coordinates": [-117.863159, 33.870172], "type": "Point"}, "id": "sE9P2t27hyaubPa40MujF9brGdg=", "properties": {"@spider": "usps_collection_boxes", "addr:city": "PLACENTIA", "addr:country": "US", "addr:full": "101 S KRAEMER BLVD", "addr:postcode": "92870", "addr:state": "CA", "amenity": "post_box", "brand": "United States Postal Service", "brand:wikidata": "Q668687", "collection_times": "Mo-Sa 10:00", "name": "USPS COLLECTION BOX - BLUE BOX", "nsi_id": "unitedstatespostalservice-a77078", "operator": "United States Postal Service", "operator:short": "USPS", "operator:type": "public", "operator:wikidata": "Q668687", "ref": "9287000023"}, "type": "Feature"}
{"dataset_attributes": {"@spider": "usps_collection_boxes"}, "geometry": {"coordinates": [-117.862574, 33.886422], "type": "Point"}, "id": "e9otvH28qMqOimkLszEulSeT3Lw=", "properties": {"@spider": "usps_collection_boxes", "addr:city": "PLACENTIA", "addr:country": "US", "addr:full": "1400 N KRAEMER BLVD", "addr:postcode": "92870", "addr:state": "CA", "amenity": "post_box", "brand": "United States Postal Service", "brand:wikidata": "Q668687", "collection_times": "Mo-Fr 17:40; Sa 15:00", "name": "USPS COLLECTION BOX - APC", "note": "ON 12/24 AND 12/31, THIS BOX MAY BE COLLECTED AS EARLY AS 12 NOON.", "nsi_id": "unitedstatespostalservice-a77078", "operator": "United States Postal Service", "operator:short": "USPS", "operator:type": "public", "operator:wikidata": "Q668687", "ref": "9287000025"}, "type": "Feature"}
{"dataset_attributes": {"@spider": "usps_collection_boxes"}, "geometry": {"coordinates": [-117.862990407, 33.886311935], "type": "Point"}, "id": "58QyPwZOJJNVBaaZqeyZJ8EeTTw=", "properties": {"@spider": "usps_collection_boxes", "addr:city": "PLACENTIA", "addr:country": "US", "addr:full": "1400 N KRAEMER BLVD", "addr:postcode": "92871", "addr:state": "CA", "amenity": "post_box", "brand": "United States Postal Service", "brand:wikidata": "Q668687", "collection_times": "Mo-Fr 17:00; Sa 13:00", "name": "USPS COLLECTION BOX - PO LOBBY", "note": "ON 12/24 AND 12/31, THIS BOX MAY BE COLLECTED AS EARLY AS 12 NOON.", "nsi_id": "unitedstatespostalservice-a77078", "operator": "United States Postal Service", "operator:short": "USPS", "operator:type": "public", "operator:wikidata": "Q668687", "ref": "9287100001"}, "type": "Feature"}
{"dataset_attributes": {"@spider": "usps_collection_boxes"}, "geometry": {"coordinates": [-117.539023715, 33.854995888], "type": "Point"}, "id": "QkeD5aHl44cDht9dVJBIZA-dHVQ=", "properties": {"@spider": "usps_collection_boxes", "addr:city": "CORONA", "addr:country": "US", "addr:full": "1941 CALIFORNIA AVE", "addr:postcode": "92877", "addr:state": "CA", "amenity": "post_box", "brand": "United States Postal Service", "brand:wikidata": "Q668687", "collection_times": "Mo-Fr 17:30; Sa 15:00", "name": "USPS COLLECTION BOX - PO LOBBY", "note": "ON 12/24 AND 12/31, THIS BOX MAY BE COLLECTED AS EARLY AS 12 NOON.", "nsi_id": "unitedstatespostalservice-a77078", "operator": "United States Postal Service", "operator:short": "USPS", "operator:type": "public", "operator:wikidata": "Q668687", "ref": "9287700001"}, "type": "Feature"}
{"dataset_attributes": {"@spider": "usps_collection_boxes"}, "geometry": {"coordinates": [-117.5735682367, 33.8777854061], "type": "Point"}, "id": "RPjYZUSzaEp3ZJWy-yE_TTsBDnI=", "properties": {"@spider": "usps_collection_boxes", "addr:city": "CORONA", "addr:country": "US", "addr:full": "414 W GRAND BLVD", "addr:postcode": "92878", "addr:state": "CA", "amenity": "post_box", "brand": "United States Postal Service", "brand:wikidata": "Q668687", "collection_times": "Mo-Fr 17:30; Sa 15:00", "name": "USPS COLLECTION BOX - PO LOBBY", "note": "ON 12/24 AND 12/31, THIS BOX MAY BE COLLECTED AS EARLY AS 12 NOON.", "nsi_id": "unitedstatespostalservice-a77078", "operator": "United States Postal Service", "operator:short": "USPS", "operator:type": "public", "operator:wikidata": "Q668687", "ref": "9287800001"}, "type": "Feature"}
{"dataset_attributes": {"@spider": "usps_collection_boxes"}, "geometry": {"coordinates": [-117.521507, 33.888442], "type": "Point"}, "id": "_ZJFkYoS-8UZHqVb96IxyrrPc40=", "properties": {"@spider": "usps_collection_boxes", "addr:city": "CORONA", "addr:country": "US", "addr:full": "430 N MCKINLEY ST", "addr:postcode": "92879", "addr:state": "CA", "amenity": "post_box", "brand": "United States Postal Service", "brand:wikidata": "Q668687", "collection_times": "Mo-Sa 10:00", "name": "USPS COLLECTION BOX - BLUE BOX", "nsi_id": "unitedstatespostalservice-a77078", "operator": "United States Postal Service", "operator:short": "USPS", "operator:type": "public", "operator:wikidata": "Q668687", "ref": "9287900005"}, "type": "Feature"}
{"dataset_attributes": {"@spider": "usps_collection_boxes"}, "geometry": {"coordinates": [-117.54626, 33.865367], "type": "Point"}, "id": "qbqKUEPbwxXF3Zk17_J9l2TRcpc=", "properties": {"@spider": "usps_collection_boxes", "addr:city": "CORONA", "addr:country": "US", "addr:full": "1193 MAGNOLIA AVE", "addr:postcode": "92879", "addr:state": "CA", "amenity": "post_box", "brand": "United States Postal Service", "brand:wikidata": "Q668687", "collection_times": "Mo-Sa 10:00", "name": "USPS COLLECTION BOX - BLUE BOX", "nsi_id": "unitedstatespostalservice-a77078", "operator": "United States Postal Service", "operator:short": "USPS", "operator:type": "public", "operator:wikidata": "Q668687", "ref": "9287900011"}, "type": "Feature"}
{"dataset_attributes": {"@spider": "usps_collection_boxes"}, "geometry": {"coordinates": [-117.5607439957, 33.8868500078], "type": "Point"}, "id": "U1tQqQ8bGsIyncYLW_pGFuSGOec=", "properties": {"@spider": "usps_collection_boxes", "addr:city": "CORONA", "addr:country": "US", "addr:full": "495 E RINCON ST", "addr:postcode": "92879", "addr:state": "CA", "amenity": "post_box", "brand": "United States Postal Service", "brand:wikidata": "Q668687", "collection_times": "Mo-Sa 10:00", "name": "USPS COLLECTION BOX - BLUE BOX", "nsi_id": "unitedstatespostalservice-a77078", "operator": "United States Postal Service", "operator:short": "USPS", "operator:type": "public", "operator:wikidata": "Q668687", "ref": "9287900018"}, "type": "Feature"}
{"dataset_attributes": {"@spider": "usps_collection_boxes"}, "geometry": {"coordinates": [-117.522113, 33.821904], "type": "Point"}, "id": "hHwAO2zeDnKojk5kyOpnWuM_0Vo=", "properties": {"@spider": "usps_collection_boxes", "addr:city": "CORONA", "addr:country": "US", "addr:full": "2279 EAGLE GLEN PKWY", "addr:postcode": "92880", "addr:state": "CA", "amenity": "post_box", "brand": "United States Postal Service", "brand:wikidata": "Q668687", "collection_times": "Mo-Sa 13:00", "name": "USPS COLLECTION BOX - BLUE BOX", "note": "ON 12/24 AND 12/31, THIS BOX MAY BE COLLECTED AS EARLY AS 12 NOON.", "nsi_id": "unitedstatespostalservice-a77078", "operator": "United States Postal Service", "operator:short": "USPS", "operator:type": "public", "operator:wikidata": "Q668687", "ref": "9288000006"}, "type": "Feature"}
{"dataset_attributes": {"@spider": "usps_collection_boxes"}, "geometry": {"coordinates": [-117.5390066404, 33.8544459378], "type": "Point"}, "id": "NctXLOdSCDa40UIwATeveKOBFvo=", "properties": {"@spider": "usps_collection_boxes", "addr:city": "CORONA", "addr:country": "US", "addr:full": "1941 CALIFORNIA AVE", "addr:postcode": "92881", "addr:state": "CA", "amenity": "post_box", "brand": "United States Postal Service", "brand:wikidata": "Q668687", "collection_times": "Mo-Fr 17:15; Sa 16:30", "name": "USPS COLLECTION BOX - BLUE BOX", "note": "ON 12/24 AND 12/31, THIS BOX MAY BE COLLECTED AS EARLY AS 12 NOON.", "nsi_id": "unitedstatespostalservice-a77078", "operator": "United States Postal Service", "operator:short": "USPS", "operator:type": "public", "operator:wikidata": "Q668687", "ref": "9288100005"}, "type": "Feature"}
{"dataset_attributes": {"@spider": "usps_collection_boxes"}, "geometry": {"coordinates": [-117.542446, 33.847263], "type": "Point"}, "id": "J3caZ_0eoD_h9w2t7dq89Qr3-ek=", "properties": {"@spider": "usps_collection_boxes", "addr:city": "CORONA", "addr:country": "US", "addr:full": "1260 E ONTARIO AVE", "addr:postcode": "92881", "addr:state": "CA", "amenity": "post_box", "brand": "United States Postal Service", "brand:wikidata": "Q668687", "collection_times": "Mo-Sa 10:00", "name": "USPS COLLECTION BOX - BLUE BOX", "nsi_id": "unitedstatespostalservice-a77078", "operator": "United States Postal Service", "operator:short": "USPS", "operator:type": "public", "operator:wikidata": "Q668687", "ref": "9288100009"}, "type": "Feature"}
{"dataset_attributes": {"@spider": "usps_collection_boxes"}, "geometry": {"coordinates": [-117.539046, 33.855022], "type": "Point"}, "id": "WtAcY5T8yHtelnfgiRauUz1yry8=", "properties": {"@spider": "usps_collection_boxes", "addr:city": "CORONA", "addr:country": "US", "addr:full": "1941 CALIFORNIA AVE", "addr:postcode": "92881", "addr:state": "CA", "amenity": "post_box", "brand": "United States Postal Service", "brand:wikidata": "Q668687", "collection_times": "Mo-Fr 17:15; Sa 16:30", "name": "USPS COLLECTION BOX - APC", "note": "ON 12/24 AND 12/31, THIS BOX MAY BE COLLECTED AS EARLY AS 12 NOON.", "nsi_id": "unitedstatespostalservice-a77078", "operator": "United States Postal Service", "operator:short": "USPS", "operator:type": "public", "operator:wikidata": "Q668687", "ref": "9288100011"}, "type": "Feature"}
{"dataset_attributes": {"@spider": "usps_collection_boxes"}, "geometry": {"coordinates": [-117.573568237, 33.877785406], "type": "Point"}, "id": "Y7tLvUvQAONXLzLmYYMuCi52i2g=", "properties": {"@spider": "usps_collection_boxes", "addr:city": "CORONA", "addr:country": "US", "addr:full": "414 W GRAND BLVD", "addr:postcode": "92882", "addr:state": "CA", "amenity": "post_box", "brand": "United States Postal Service", "brand:wikidata": "Q668687", "collection_times": "Mo-Fr 17:15; Sa 17:00", "name": "USPS COLLECTION BOX - BLUE BOX", "note": "ON 12/24 AND 12/31, THIS BOX MAY BE COLLECTED AS EARLY AS 12 NOON.", "nsi_id": "unitedstatespostalservice-a77078", "operator": "United States Postal Service", "operator:short": "USPS", "operator:type": "public", "operator:wikidata": "Q668687", "ref": "9288200000"}, "type": "Feature"}
{"dataset_attributes": {"@spider": "usps_collection_boxes"}, "geometry": {"coordinates": [-117.574596, 33.87818], "type": "Point"}, "id": "CObRCveyJI47o_ljxsGOBcioIDM=", "properties": {"@spider": "usps_collection_boxes", "addr:city": "CORONA", "addr:country": "US", "addr:full": "414 W GRAND BLVD", "addr:postcode": "92882", "addr:state": "CA", "amenity": "post_box", "brand": "United States Postal Service", "brand:wikidata": "Q668687", "collection_times": "Mo-Fr 17:15; Sa 17:00", "name": "USPS COLLECTION BOX - BLUE BOX", "note": "ON 12/24 AND 12/31, THIS BOX MAY BE COLLECTED AS EARLY AS 12 NOON.", "nsi_id": "unitedstatespostalservice-a77078", "operator": "United States Postal Service", "operator:short": "USPS", "operator:type": "public", "operator:wikidata": "Q668687", "ref": "9288200001"}, "type": "Feature"}
{"dataset_attributes": {"@spider": "usps_collection_boxes"}, "geometry": {"coordinates": [-117.57406, 33.877992], "type": "Point"}, "id": "56fDYkZiWtiK53UeW43x5w6t8ak=", "properties": {"@spider": "usps_collection_boxes", "addr:city": "CORONA", "addr:country": "US", "addr:full": "414 W GRAND BLVD", "addr:postcode": "92882", "addr:state": "CA", "amenity": "post_box", "brand": "United States Postal Service", "brand:wikidata": "Q668687", "collection_times": "Mo-Fr 17:15; Sa 17:00", "name": "USPS COLLECTION BOX - PO LOBBY", "note": "ON 12/24 AND 12/31, THIS BOX MAY BE COLLECTED AS EARLY AS 12 NOON.", "nsi_id": "unitedstatespostalservice-a77078", "operator": "United States Postal Service", "operator:short": "USPS", "operator:type": "public", "operator:wikidata": "Q668687", "ref": "9288200002"}, "type": "Feature"}
{"dataset_attributes": {"@spider": "usps_collection_boxes"}, "geometry": {"coordinates": [-117.621437, 33.871], "type": "Point"}, "id": "F9shdM6IWLTrNVgiWdf8Or8IYA4=", "properties": {"@spider": "usps_collection_boxes", "addr:city": "CORONA", "addr:country": "US", "addr:full": "2621 GREEN RIVER RD STE 105", "addr:postcode": "92882", "addr:state": "CA", "amenity": "post_box", "brand": "United States Postal Service", "brand:wikidata": "Q668687", "collection_times": "Mo-Sa 10:00", "name": "USPS COLLECTION BOX - BLUE BOX", "nsi_id": "unitedstatespostalservice-a77078", "operator": "United States Postal Service", "operator:short": "USPS", "operator:type": "public", "operator:wikidata": "Q668687", "ref": "9288200006"}, "type": "Feature"}
{"dataset_attributes": {"@spider": "usps_collection_boxes"}, "geometry": {"coordinates": [-117.5942270167, 33.8694210136], "type": "Point"}, "id": "kY-MSy2bzS2jEPgX-O2SMc9hOLI=", "properties": {"@spider": "usps_collection_boxes", "addr:city": "CORONA", "addr:country": "US", "addr:full": "1288 BORDER AVE", "addr:postcode": "92882", "addr:state": "CA", "amenity": "post_box", "brand": "United States Postal Service", "brand:wikidata": "Q668687", "collection_times": "Mo-Sa 10:00", "name": "USPS COLLECTION BOX - BLUE BOX", "nsi_id": "unitedstatespostalservice-a77078", "operator": "United States Postal Service", "operator:short": "USPS", "operator:type": "public", "operator:wikidata": "Q668687", "ref": "9288200009"}, "type": "Feature"}
{"dataset_attributes": {"@spider": "usps_collection_boxes"}, "geometry": {"coordinates": [-117.598037, 33.878628], "type": "Point"}, "id": "sWizaFfWTztZKt4rnoF6PYI2BU0=", "properties": {"@spider": "usps_collection_boxes", "addr:city": "CORONA", "addr:country": "US", "addr:full": "1690 W 6TH ST", "addr:postcode": "92882", "addr:state": "CA", "amenity": "post_box", "brand": "United States Postal Service", "brand:wikidata": "Q668687", "collection_times": "Mo-Sa 10:00", "name": "USPS COLLECTION BOX - BLUE BOX", "nsi_id": "unitedstatespostalservice-a77078", "operator": "United States Postal Service", "operator:short": "USPS", "operator:type": "public", "operator:wikidata": "Q668687", "ref": "9288200014"}, "type": "Feature"}
{"dataset_attributes": {"@spider": "usps_collection_boxes"}, "geometry": {"coordinates": [-117.574957, 33.877998], "type": "Point"}, "id": "nIyGl4_dU_vaQ4v5OVabDUK_29s=", "properties": {"@spider": "usps_collection_boxes", "addr:city": "CORONA", "addr:country": "US", "addr:full": "414 W GRAND BLVD", "addr:postcode": "92882", "addr:state": "CA", "amenity": "post_box", "brand": "United States Postal Service", "brand:wikidata": "Q668687", "collection_times": "Mo-Fr 17:15; Sa 17:00", "name": "USPS COLLECTION BOX - BLUE BOX", "note": "ON 12/24 AND 12/31, THIS BOX MAY BE COLLECTED AS EARLY AS 12 NOON.", "nsi_id": "unitedstatespostalservice-a77078", "operator": "United States Postal Service", "operator:short": "USPS", "operator:type": "public", "operator:wikidata": "Q668687", "ref": "9288200027"}, "type": "Feature"}
{"dataset_attributes": {"@spider": "usps_collection_boxes"}, "geometry": {"coordinates": [-117.574956, 33.878013], "type": "Point"}, "id": "1jQuQ6mnFAMm-bCSvVtdqjLYoHw=", "properties": {"@spider": "usps_collection_boxes", "addr:city": "CORONA", "addr:country": "US", "addr:full": "414 W GRAND BLVD", "addr:postcode": "92882", "addr:state": "CA", "amenity": "post_box", "brand": "United States Postal Service", "brand:wikidata": "Q668687", "collection_times": "Mo-Sa 17:00", "name": "USPS COLLECTION BOX - EXPRESS", "note": "ON 12/24 AND 12/31, THIS BOX MAY BE COLLECTED AS EARLY AS 12 NOON.", "nsi_id": "unitedstatespostalservice-a77078", "operator": "United States Postal Service", "operator:short": "USPS", "operator:type": "public", "operator:wikidata": "Q668687", "ref": "9288200028"}, "type": "Feature"}
{"dataset_attributes": {"@spider": "usps_collection_boxes"}, "geometry": {"coordinates": [-117.574207, 33.877979], "type": "Point"}, "id": "okc8iQuuwGRGPnOhGNvFXePDgF0=", "properties": {"@spider": "usps_collection_boxes", "addr:city": "CORONA", "addr:country": "US", "addr:full": "414 W GRAND BLVD", "addr:postcode": "92882", "addr:state": "CA", "amenity": "post_box", "brand": "United States Postal Service", "brand:wikidata": "Q668687", "collection_times": "Mo-Fr 17:15; Sa 17:00", "name": "USPS COLLECTION BOX - APC", "note": "ON 12/24 AND 12/31, THIS BOX MAY BE COLLECTED AS EARLY AS 12 NOON.", "nsi_id": "unitedstatespostalservice-a77078", "operator": "United States Postal Service", "operator:short": "USPS", "operator:type": "public", "operator:wikidata": "Q668687", "ref": "9288200031"}, "type": "Feature"}
{"dataset_attributes": {"@spider": "usps_collection_boxes"}, "geometry": {"coordinates": [-117.8200360624, 33.892033025], "type": "Point"}, "id": "IeyFP4-AYUkx2DnuikQYRYSGfsM=", "properties": {"@spider": "usps_collection_boxes", "addr:city": "YORBA LINDA", "addr:country": "US", "addr:full": "4770 EUREKA AVE", "addr:postcode": "92885", "addr:state": "CA", "amenity": "post_box", "brand": "United States Postal Service", "brand:wikidata": "Q668687", "collection_times": "Mo-Fr 17:00; Sa 16:00", "name": "USPS COLLECTION BOX - BLUE BOX", "note": "ON 12/24 AND 12/31, THIS BOX MAY BE COLLECTED AS EARLY AS 12 NOON.", "nsi_id": "unitedstatespostalservice-a77078", "operator": "United States Postal Service", "operator:short": "USPS", "operator:type": "public", "operator:wikidata": "Q668687", "ref": "9288500000"}, "type": "Feature"}
{"dataset_attributes": {"@spider": "usps_collection_boxes"}, "geometry": {"coordinates": [-117.8200360624, 33.892033025], "type": "Point"}, "id": "K01UeCvp_qLtjUooIk6NJBgbao4=", "properties": {"@spider": "usps_collection_boxes", "addr:city": "YORBA LINDA", "addr:country": "US", "addr:full": "4770 EUREKA AVE", "addr:postcode": "92885", "addr:state": "CA", "amenity": "post_box", "brand": "United States Postal Service", "brand:wikidata": "Q668687", "collection_times": "Mo-Fr 17:00; Sa 16:00", "name": "USPS COLLECTION BOX - APC", "note": "ON 12/24 AND 12/31, THIS BOX MAY BE COLLECTED AS EARLY AS 12 NOON.", "nsi_id": "unitedstatespostalservice-a77078", "operator": "United States Postal Service", "operator:short": "USPS", "operator:type": "public", "operator:wikidata": "Q668687", "ref": "9288500006"}, "type": "Feature"}
{"dataset_attributes": {"@spider": "usps_collection_boxes"}, "geometry": {"coordinates": [-117.8200360624, 33.892033025], "type": "Point"}, "id": "UFPuPuLZRIOVXbnXbEdB_XbQLvM=", "properties": {"@spider": "usps_collection_boxes", "addr:city": "YORBA LINDA", "addr:country": "US", "addr:full": "4770 EUREKA AVE", "addr:postcode": "92885", "addr:state": "CA", "amenity": "post_box", "brand": "United States Postal Service", "brand:wikidata": "Q668687", "collection_times": "Mo-Fr 17:00; Sa 15:00", "name": "USPS COLLECTION BOX - PO LOBBY", "note": "ON 12/24 AND 12/31, THIS BOX MAY BE COLLECTED AS EARLY AS 12 NOON.", "nsi_id": "unitedstatespostalservice-a77078", "operator": "United States Postal Service", "operator:short": "USPS", "operator:type": "public", "operator:wikidata": "Q668687", "ref": "9288500007"}, "type": "Feature"}
{"dataset_attributes": {"@spider": "usps_collection_boxes"}, "geometry": {"coordinates": [-117.814384, 33.891519], "type": "Point"}, "id": "o-axgWpvebjxBxdkYBgHQftp7Mg=", "properties": {"@spider": "usps_collection_boxes", "addr:city": "YORBA LINDA", "addr:country": "US", "addr:full": "18311 LEMON DR", "addr:postcode": "92886", "addr:state": "CA", "amenity": "post_box", "brand": "United States Postal Service", "brand:wikidata": "Q668687", "collection_times": "Mo-Sa 10:00", "name": "USPS COLLECTION BOX - BLUE BOX", "nsi_id": "unitedstatespostalservice-a77078", "operator": "United States Postal Service", "operator:short": "USPS", "operator:type": "public", "operator:wikidata": "Q668687", "ref": "9288600000"}, "type": "Feature"}
{"dataset_attributes": {"@spider": "usps_collection_boxes"}, "geometry": {"coordinates": [-117.837558, 33.905334], "type": "Point"}, "id": "x_cQbx8liiIhuqbftN3_aoc_ERI=", "properties": {"@spider": "usps_collection_boxes", "addr:city": "YORBA LINDA", "addr:country": "US", "addr:full": "3811 PROSPECT AVE", "addr:postcode": "92886", "addr:state": "CA", "amenity": "post_box", "brand": "United States Postal Service", "brand:wikidata": "Q668687", "collection_times": "Mo-Sa 10:00", "name": "USPS COLLECTION BOX - BLUE BOX", "nsi_id": "unitedstatespostalservice-a77078", "operator": "United States Postal Service", "operator:short": "USPS", "operator:type": "public", "operator:wikidata": "Q668687", "ref": "9288600001"}, "type": "Feature"}
{"dataset_attributes": {"@spider": "usps_collection_boxes"}, "geometry": {"coordinates": [-117.830404, 33.888317], "type": "Point"}, "id": "K51g9geTCu_DALxJxaCYS0R62B4=", "properties": {"@spider": "usps_collection_boxes", "addr:city": "YORBA LINDA", "addr:country": "US", "addr:full": "17300 YORBA LINDA BLVD", "addr:postcode": "92886", "addr:state": "CA", "amenity": "post_box", "brand": "United States Postal Service", "brand:wikidata": "Q668687", "collection_times": "Mo-Sa 10:00", "name": "USPS COLLECTION BOX - BLUE BOX", "nsi_id": "unitedstatespostalservice-a77078", "operator": "United States Postal Service", "operator:short": "USPS", "operator:type": "public", "operator:wikidata": "Q668687", "ref": "9288600005"}, "type": "Feature"}
{"dataset_attributes": {"@spider": "usps_collection_boxes"}, "geometry": {"coordinates": [-117.8098605, 33.888663503], "type": "Point"}, "id": "UoPm8hDxcpLadAz-2AnJZanzHLw=", "properties": {"@spider": "usps_collection_boxes", "addr:city": "YORBA LINDA", "addr:country": "US", "addr:full": "18527 YORBA LINDA BLVD", "addr:postcode": "92886", "addr:state": "CA", "amenity": "post_box", "brand": "United States Postal Service", "brand:wikidata": "Q668687", "collection_times": "Mo-Sa 10:00", "name": "USPS COLLECTION BOX - BLUE BOX", "nsi_id": "unitedstatespostalservice-a77078", "operator": "United States Postal Service", "operator:short": "USPS", "operator:type": "public", "operator:wikidata": "Q668687", "ref": "9288600007"}, "type": "Feature"}
{"dataset_attributes": {"@spider": "usps_collection_boxes"}, "geometry": {"coordinates": [-117.7761805004, 33.891047335], "type": "Point"}, "id": "PFuwhZBA3KqkzVZqbE9L8SpS-_A=", "properties": {"@spider": "usps_collection_boxes", "addr:city": "YORBA LINDA", "addr:country": "US", "addr:full": "20497 YORBA LINDA BLVD", "addr:postcode": "92886", "addr:state": "CA", "amenity": "post_box", "brand": "United States Postal Service", "brand:wikidata": "Q668687", "collection_times": "Mo-Sa 10:00", "name": "USPS COLLECTION BOX - BLUE BOX", "nsi_id": "unitedstatespostalservice-a77078", "operator": "United States Postal Service", "operator:short": "USPS", "operator:type": "public", "operator:wikidata": "Q668687", "ref": "9288600009"}, "type": "Feature"}
{"dataset_attributes": {"@spider": "usps_collection_boxes"}, "geometry": {"coordinates": [-117.764441, 33.889806], "type": "Point"}, "id": "usUGNUXcUp9hQmHvuqjjGCDgF4I=", "properties": {"@spider": "usps_collection_boxes", "addr:city": "YORBA LINDA", "addr:country": "US", "addr:full": "4975 YORBA RANCH RD", "addr:postcode": "92887", "addr:state": "CA", "amenity": "post_box", "brand": "United States Postal Service", "brand:wikidata": "Q668687", "collection_times": "Mo-Sa 10:00", "name": "USPS COLLECTION BOX - BLUE BOX", "nsi_id": "unitedstatespostalservice-a77078", "operator": "United States Postal Service", "operator:short": "USPS", "operator:type": "public", "operator:wikidata": "Q668687", "ref": "9288700000"}, "type": "Feature"}
{"dataset_attributes": {"@spider": "usps_collection_boxes"}, "geometry": {"coordinates": [-117.7536558623, 33.8768992006], "type": "Point"}, "id": "hK4Eo9E4t7jXS5_bw2_JO-0dADI=", "properties": {"@spider": "usps_collection_boxes", "addr:city": "YORBA LINDA", "addr:country": "US", "addr:full": "21540 YORBA LINDA BLVD", "addr:postcode": "92887", "addr:state": "CA", "amenity": "post_box", "brand": "United States Postal Service", "brand:wikidata": "Q668687", "collection_times": "Mo-Sa 10:00", "name": "USPS COLLECTION BOX - BLUE BOX", "nsi_id": "unitedstatespostalservice-a77078", "operator": "United States Postal Service", "operator:short": "USPS", "operator:type": "public", "operator:wikidata": "Q668687", "ref": "9288700001"}, "type": "Feature"}
{"dataset_attributes": {"@spider": "usps_collection_boxes"}, "geometry": {"coordinates": [-117.7519409907, 33.8775709895], "type": "Point"}, "id": "YDbPIoFXTf09TAxhfjkqzEpkaSU=", "properties": {"@spider": "usps_collection_boxes", "addr:city": "YORBA LINDA", "addr:country": "US", "addr:full": "21520 YORBA LINDA BLVD", "addr:postcode": "92887", "addr:state": "CA", "amenity": "post_box", "brand": "United States Postal Service", "brand:wikidata": "Q668687", "collection_times": "Mo-Sa 10:00", "name": "USPS COLLECTION BOX - BLUE BOX", "nsi_id": "unitedstatespostalservice-a77078", "operator": "United States Postal Service", "operator:short": "USPS", "operator:type": "public", "operator:wikidata": "Q668687", "ref": "9288700002"}, "type": "Feature"}
{"dataset_attributes": {"@spider": "usps_collection_boxes"}, "geometry": {"coordinates": [-117.739764, 33.875748], "type": "Point"}, "id": "1cX4ODA5vSb6sMvbRAETb4VcD3g=", "properties": {"@spider": "usps_collection_boxes", "addr:city": "YORBA LINDA", "addr:country": "US", "addr:full": "22720 SAVI RANCH PKWY", "addr:postcode": "92887", "addr:state": "CA", "amenity": "post_box", "brand": "United States Postal Service", "brand:wikidata": "Q668687", "collection_times": "Mo-Sa 10:00", "name": "USPS COLLECTION BOX - BLUE BOX", "nsi_id": "unitedstatespostalservice-a77078", "operator": "United States Postal Service", "operator:short": "USPS", "operator:type": "public", "operator:wikidata": "Q668687", "ref": "9288700006"}, "type": "Feature"}
{"dataset_attributes": {"@spider": "usps_collection_boxes"}, "geometry": {"coordinates": [-117.739782, 33.875748], "type": "Point"}, "id": "8Qs4NddY_dtf2xblibwnMADOfuc=", "properties": {"@spider": "usps_collection_boxes", "addr:city": "YORBA LINDA", "addr:country": "US", "addr:full": "22720 SAVI RANCH PKWY", "addr:postcode": "92887", "addr:state": "CA", "amenity": "post_box", "brand": "United States Postal Service", "brand:wikidata": "Q668687", "collection_times": "Mo-Sa 10:00", "name": "USPS COLLECTION BOX - BLUE BOX", "nsi_id": "unitedstatespostalservice-a77078", "operator": "United States Postal Service", "operator:short": "USPS", "operator:type": "public", "operator:wikidata": "Q668687", "ref": "9288700007"}, "type": "Feature"}
{"dataset_attributes": {"@spider": "usps_collection_boxes"}, "geometry": {"coordinates": [-117.739769, 33.875751], "type": "Point"}, "id": "n1hEsArJC0cCqtlBJPUFzfVOshs=", "properties": {"@spider": "usps_collection_boxes", "addr:city": "YORBA LINDA", "addr:country": "US", "addr:full": "22720 SAVI RANCH PKWY", "addr:postcode": "92887", "addr:state": "CA", "amenity": "post_box", "brand": "United States Postal Service", "brand:wikidata": "Q668687", "collection_times": "Mo-Sa 10:00", "name": "USPS COLLECTION BOX - BLUE BOX", "nsi_id": "unitedstatespostalservice-a77078", "operator": "United States Postal Service", "operator:short": "USPS", "operator:type": "public", "operator:wikidata": "Q668687", "ref": "9288700008"}, "type": "Feature"}
{"dataset_attributes": {"@spider": "usps_collection_boxes"}, "geometry": {"coordinates": [-117.8010216932, 33.8595454961], "type": "Point"}, "id": "nZIQyx7rSm3xOL-EyyeAfBYsHvE=", "properties": {"@spider": "usps_collection_boxes", "addr:city": "ANAHEIM", "addr:country": "US", "addr:full": "5335 E LA PALMA AVE", "addr:postcode": "92899", "addr:state": "CA", "amenity": "post_box", "brand": "United States Postal Service", "brand:wikidata": "Q668687", "collection_times": "Mo-Fr 18:00; Sa 17:00", "name": "USPS COLLECTION BOX - BLUE BOX", "note": "ON 12/24 AND 12/31, THIS BOX MAY BE COLLECTED AS EARLY AS 12 NOON.", "nsi_id": "unitedstatespostalservice-a77078", "operator": "United States Postal Service", "operator:short": "USPS", "operator:type": "public", "operator:wikidata": "Q668687", "ref": "9289900000"}, "type": "Feature"}
{"dataset_attributes": {"@spider": "usps_collection_boxes"}, "geometry": {"coordinates": [-117.8010216932, 33.8595454961], "type": "Point"}, "id": "vhYbxirLoD6OfnEgGfQ53cZjj0A=", "properties": {"@spider": "usps_collection_boxes", "addr:city": "ANAHEIM", "addr:country": "US", "addr:full": "5335 E LA PALMA AVE", "addr:postcode": "92899", "addr:state": "CA", "amenity": "post_box", "brand": "United States Postal Service", "brand:wikidata": "Q668687", "collection_times": "Mo-Sa 15:00", "name": "USPS COLLECTION BOX - EXPRESS", "note": "ON 12/24 AND 12/31, THIS BOX MAY BE COLLECTED AS EARLY AS 12 NOON.", "nsi_id": "unitedstatespostalservice-a77078", "operator": "United States Postal Service", "operator:short": "USPS", "operator:type": "public", "operator:wikidata": "Q668687", "ref": "9289900001"}, "type": "Feature"}
{"dataset_attributes": {"@spider": "usps_collection_boxes"}, "geometry": {"coordinates": [-117.8010216932, 33.8595454961], "type": "Point"}, "id": "gQvEoA_ymN7JZAKRonpiMhOXGAo=", "properties": {"@spider": "usps_collection_boxes", "addr:city": "ANAHEIM", "addr:country": "US", "addr:full": "5335 E LA PALMA AVE", "addr:postcode": "92899", "addr:state": "CA", "amenity": "post_box", "brand": "United States Postal Service", "brand:wikidata": "Q668687", "collection_times": "Mo-Fr 18:00; Sa 17:00", "name": "USPS COLLECTION BOX - BLUE BOX", "note": "ON 12/24 AND 12/31, THIS BOX MAY BE COLLECTED AS EARLY AS 12 NOON.", "nsi_id": "unitedstatespostalservice-a77078", "operator": "United States Postal Service", "operator:short": "USPS", "operator:type": "public", "operator:wikidata": "Q668687", "ref": "9289900002"}, "type": "Feature"}
