{"dataset_attributes": {"@spider": "usps_collection_boxes", "spider:collection_time": "2024-01-04T08:25:05.301423"}, "geometry": {"coordinates": [-119.290443598, 34.2796087737], "type": "Point"}, "id": "pZ8VZd7RI1YxyhlKA2_SEqF4V5I=", "properties": {"@spider": "usps_collection_boxes", "addr:city": "VENTURA", "addr:country": "US", "addr:full": "675 E SANTA CLARA ST", "addr:postcode": "93001", "addr:state": "CA", "amenity": "post_box", "brand": "United States Postal Service", "brand:wikidata": "Q668687", "collection_times": "Mo-Fr 17:30; Sa 17:00", "name": "USPS COLLECTION BOX - EXPRESS", "note": "ON 12/24 AND 12/31, THIS BOX MAY BE COLLECTED AS EARLY AS 12 NOON.", "nsi_id": "unitedstatespostalservice-a77078", "operator": "United States Postal Service", "operator:short": "USPS", "operator:type": "public", "operator:wikidata": "Q668687", "ref": "9300100008"}, "type": "Feature"}
{"dataset_attributes": {"@spider": "usps_collection_boxes", "spider:collection_time": "2024-01-04T08:25:05.301423"}, "geometry": {"coordinates": [-119.2690402595, 34.2662439617], "type": "Point"}, "id": "czERaUIo_zOY4JL2ks9EE2nKGVU=", "properties": {"@spider": "usps_collection_boxes", "addr:city": "VENTURA", "addr:country": "US", "addr:full": "2300 ALESSANDRO DR", "addr:postcode": "93001", "addr:state": "CA", "amenity": "post_box", "brand": "United States Postal Service", "brand:wikidata": "Q668687", "collection_times": "Mo-Sa 15:00", "name": "USPS COLLECTION BOX - BLUE BOX", "note": "ON 12/24 AND 12/31, THIS BOX MAY BE COLLECTED AS EARLY AS 12 NOON.", "nsi_id": "unitedstatespostalservice-a77078", "operator": "United States Postal Service", "operator:short": "USPS", "operator:type": "public", "operator:wikidata": "Q668687", "ref": "9300100065"}, "type": "Feature"}
{"dataset_attributes": {"@spider": "usps_collection_boxes", "spider:collection_time": "2024-01-04T08:25:05.301423"}, "geometry": {"coordinates": [-119.270248, 34.263473], "type": "Point"}, "id": "N5TmCceLBMTPAorPmEy-zJvmp_4=", "properties": {"@spider": "usps_collection_boxes", "addr:city": "VENTURA", "addr:country": "US", "addr:full": "2421 HARBOR BLVD", "addr:postcode": "93001", "addr:state": "CA", "amenity": "post_box", "brand": "United States Postal Service", "brand:wikidata": "Q668687", "collection_times": "Mo-Fr 15:30; Sa 15:00", "name": "USPS COLLECTION BOX - BLUE BOX", "note": "ON 12/24 AND 12/31, THIS BOX MAY BE COLLECTED AS EARLY AS 12 NOON.", "nsi_id": "unitedstatespostalservice-a77078", "operator": "United States Postal Service", "operator:short": "USPS", "operator:type": "public", "operator:wikidata": "Q668687", "ref": "9300100087"}, "type": "Feature"}
{"dataset_attributes": {"@spider": "usps_collection_boxes", "spider:collection_time": "2024-01-04T08:25:05.301423"}, "geometry": {"coordinates": [-119.272304, 34.264159], "type": "Point"}, "id": "THJC3XnhhLhiEfQ3jr60lekrLK4=", "properties": {"@spider": "usps_collection_boxes", "addr:city": "VENTURA", "addr:country": "US", "addr:full": "2200 PIERPONT BLVD", "addr:postcode": "93001", "addr:state": "CA", "amenity": "post_box", "brand": "United States Postal Service", "brand:wikidata": "Q668687", "collection_times": "Mo-Sa 10:00", "name": "USPS COLLECTION BOX - BLUE BOX", "nsi_id": "unitedstatespostalservice-a77078", "operator": "United States Postal Service", "operator:short": "USPS", "operator:type": "public", "operator:wikidata": "Q668687", "ref": "9300100134"}, "type": "Feature"}
{"dataset_attributes": {"@spider": "usps_collection_boxes", "spider:collection_time": "2024-01-04T08:25:05.301423"}, "geometry": {"coordinates": [-119.300854, 34.28173], "type": "Point"}, "id": "N5tXW_D7RgEUbiNHrkmjX4NuaWg=", "properties": {"@spider": "usps_collection_boxes", "addr:city": "VENTURA", "addr:country": "US", "addr:full": "100 VENTURA AVE", "addr:postcode": "93001", "addr:state": "CA", "amenity": "post_box", "brand": "United States Postal Service", "brand:wikidata": "Q668687", "collection_times": "Mo-Sa 15:00", "name": "USPS COLLECTION BOX - BLUE BOX", "note": "ON 12/24 AND 12/31, THIS BOX MAY BE COLLECTED AS EARLY AS 12 NOON.", "nsi_id": "unitedstatespostalservice-a77078", "operator": "United States Postal Service", "operator:short": "USPS", "operator:type": "public", "operator:wikidata": "Q668687", "ref": "9300100143"}, "type": "Feature"}
{"dataset_attributes": {"@spider": "usps_collection_boxes", "spider:collection_time": "2024-01-04T08:25:05.301423"}, "geometry": {"coordinates": [-119.293329, 34.282193], "type": "Point"}, "id": "Mq0L7kghXoqSZaSmYyxC2svgRzM=", "properties": {"@spider": "usps_collection_boxes", "addr:city": "VENTURA", "addr:country": "US", "addr:full": "501 POLI ST", "addr:postcode": "93001", "addr:state": "CA", "amenity": "post_box", "brand": "United States Postal Service", "brand:wikidata": "Q668687", "collection_times": "Mo-Sa 15:00", "name": "USPS COLLECTION BOX - BLUE BOX", "note": "ON 12/24 AND 12/31, THIS BOX MAY BE COLLECTED AS EARLY AS 12 NOON.", "nsi_id": "unitedstatespostalservice-a77078", "operator": "United States Postal Service", "operator:short": "USPS", "operator:type": "public", "operator:wikidata": "Q668687", "ref": "9300100149"}, "type": "Feature"}
{"dataset_attributes": {"@spider": "usps_collection_boxes", "spider:collection_time": "2024-01-04T08:25:05.301423"}, "geometry": {"coordinates": [-119.290383, 34.279938], "type": "Point"}, "id": "p4kGRro-qosDH-Lf3Yn8K5J0GzQ=", "properties": {"@spider": "usps_collection_boxes", "addr:city": "VENTURA", "addr:country": "US", "addr:full": "675 E SANTA CLARA ST", "addr:postcode": "93001", "addr:state": "CA", "amenity": "post_box", "brand": "United States Postal Service", "brand:wikidata": "Q668687", "collection_times": "Mo-Fr 17:30; Sa 17:00", "name": "USPS COLLECTION BOX - BLUE BOX", "note": "ON 12/24 AND 12/31, THIS BOX MAY BE COLLECTED AS EARLY AS 12 NOON.", "nsi_id": "unitedstatespostalservice-a77078", "operator": "United States Postal Service", "operator:short": "USPS", "operator:type": "public", "operator:wikidata": "Q668687", "ref": "9300100152"}, "type": "Feature"}
{"dataset_attributes": {"@spider": "usps_collection_boxes", "spider:collection_time": "2024-01-04T08:25:05.301423"}, "geometry": {"coordinates": [-119.290383, 34.279938], "type": "Point"}, "id": "ZTwRzWiSSwD5ZuvrpVraDoLbkV4=", "properties": {"@spider": "usps_collection_boxes", "addr:city": "VENTURA", "addr:country": "US", "addr:full": "675 E SANTA CLARA ST", "addr:postcode": "93001", "addr:state": "CA", "amenity": "post_box", "brand": "United States Postal Service", "brand:wikidata": "Q668687", "collection_times": "Mo-Fr 17:30; Sa 17:00", "name": "USPS COLLECTION BOX - BLUE BOX", "note": "ON 12/24 AND 12/31, THIS BOX MAY BE COLLECTED AS EARLY AS 12 NOON.", "nsi_id": "unitedstatespostalservice-a77078", "operator": "United States Postal Service", "operator:short": "USPS", "operator:type": "public", "operator:wikidata": "Q668687", "ref": "9300100153"}, "type": "Feature"}
{"dataset_attributes": {"@spider": "usps_collection_boxes", "spider:collection_time": "2024-01-04T08:25:05.301423"}, "geometry": {"coordinates": [-119.290443598, 34.2796087737], "type": "Point"}, "id": "cQ91PjRoNlit9dqMENnXk0SEmz8=", "properties": {"@spider": "usps_collection_boxes", "addr:city": "VENTURA", "addr:country": "US", "addr:full": "675 E SANTA CLARA ST", "addr:postcode": "93001", "addr:state": "CA", "amenity": "post_box", "brand": "United States Postal Service", "brand:wikidata": "Q668687", "collection_times": "Mo-Fr 17:30; Sa 17:00", "name": "USPS COLLECTION BOX - PO LOBBY", "note": "ON 12/24 AND 12/31, THIS BOX MAY BE COLLECTED AS EARLY AS 12 NOON.", "nsi_id": "unitedstatespostalservice-a77078", "operator": "United States Postal Service", "operator:short": "USPS", "operator:type": "public", "operator:wikidata": "Q668687", "ref": "9300100155"}, "type": "Feature"}
{"dataset_attributes": {"@spider": "usps_collection_boxes", "spider:collection_time": "2024-01-04T08:25:05.301423"}, "geometry": {"coordinates": [-119.290443598, 34.2796087737], "type": "Point"}, "id": "Om-SDRf04fKf58CMjDGHUbq6Vfs=", "properties": {"@spider": "usps_collection_boxes", "addr:city": "VENTURA", "addr:country": "US", "addr:full": "675 E SANTA CLARA ST", "addr:postcode": "93001", "addr:state": "CA", "amenity": "post_box", "brand": "United States Postal Service", "brand:wikidata": "Q668687", "collection_times": "Mo-Fr 17:30; Sa 17:00", "name": "USPS COLLECTION BOX - PO LOBBY", "note": "ON 12/24 AND 12/31, THIS BOX MAY BE COLLECTED AS EARLY AS 12 NOON.", "nsi_id": "unitedstatespostalservice-a77078", "operator": "United States Postal Service", "operator:short": "USPS", "operator:type": "public", "operator:wikidata": "Q668687", "ref": "9300100156"}, "type": "Feature"}
{"dataset_attributes": {"@spider": "usps_collection_boxes", "spider:collection_time": "2024-01-04T08:25:05.301423"}, "geometry": {"coordinates": [-119.264857, 34.240481], "type": "Point"}, "id": "JQpE0DCT5PyJNYrovhlJWmbB3hU=", "properties": {"@spider": "usps_collection_boxes", "addr:city": "VENTURA", "addr:country": "US", "addr:full": "1567 SPINNAKER DR", "addr:postcode": "93001", "addr:state": "CA", "amenity": "post_box", "brand": "United States Postal Service", "brand:wikidata": "Q668687", "collection_times": "Mo-Sa 10:00", "name": "USPS COLLECTION BOX - BLUE BOX", "nsi_id": "unitedstatespostalservice-a77078", "operator": "United States Postal Service", "operator:short": "USPS", "operator:type": "public", "operator:wikidata": "Q668687", "ref": "9300100159"}, "type": "Feature"}
{"dataset_attributes": {"@spider": "usps_collection_boxes", "spider:collection_time": "2024-01-04T08:25:05.301423"}, "geometry": {"coordinates": [-119.265274, 34.261432], "type": "Point"}, "id": "M5Y5elnNSP2PVgBitYWuSGk_4os=", "properties": {"@spider": "usps_collection_boxes", "addr:city": "VENTURA", "addr:country": "US", "addr:full": "2600 SEAHORSE AVE", "addr:postcode": "93001", "addr:state": "CA", "amenity": "post_box", "brand": "United States Postal Service", "brand:wikidata": "Q668687", "collection_times": "Mo-Sa 15:00", "name": "USPS COLLECTION BOX - BLUE BOX", "note": "ON 12/24 AND 12/31, THIS BOX MAY BE COLLECTED AS EARLY AS 12 NOON.", "nsi_id": "unitedstatespostalservice-a77078", "operator": "United States Postal Service", "operator:short": "USPS", "operator:type": "public", "operator:wikidata": "Q668687", "ref": "9300100160"}, "type": "Feature"}
{"dataset_attributes": {"@spider": "usps_collection_boxes", "spider:collection_time": "2024-01-04T08:25:05.301423"}, "geometry": {"coordinates": [-119.297636, 34.292283], "type": "Point"}, "id": "DQKDN-e2CWhSHbNM-hgo_xD3Ahs=", "properties": {"@spider": "usps_collection_boxes", "addr:city": "VENTURA", "addr:country": "US", "addr:full": "995 N VENTURA AVE", "addr:postcode": "93001", "addr:state": "CA", "amenity": "post_box", "brand": "United States Postal Service", "brand:wikidata": "Q668687", "collection_times": "Mo-Sa 10:00", "name": "USPS COLLECTION BOX - BLUE BOX", "nsi_id": "unitedstatespostalservice-a77078", "operator": "United States Postal Service", "operator:short": "USPS", "operator:type": "public", "operator:wikidata": "Q668687", "ref": "9300100161"}, "type": "Feature"}
{"dataset_attributes": {"@spider": "usps_collection_boxes", "spider:collection_time": "2024-01-04T08:25:05.301423"}, "geometry": {"coordinates": [-119.290443598, 34.2796087737], "type": "Point"}, "id": "9FLrbZn8Ea0XkQT7TusdijWOnFg=", "properties": {"@spider": "usps_collection_boxes", "addr:city": "VENTURA", "addr:country": "US", "addr:full": "675 E SANTA CLARA ST", "addr:postcode": "93001", "addr:state": "CA", "amenity": "post_box", "brand": "United States Postal Service", "brand:wikidata": "Q668687", "collection_times": "Mo-Fr 17:00", "name": "USPS COLLECTION BOX - PO LOBBY", "note": "ON 12/24 AND 12/31, THIS BOX MAY BE COLLECTED AS EARLY AS 12 NOON.", "nsi_id": "unitedstatespostalservice-a77078", "operator": "United States Postal Service", "operator:short": "USPS", "operator:type": "public", "operator:wikidata": "Q668687", "ref": "9300100164"}, "type": "Feature"}
{"dataset_attributes": {"@spider": "usps_collection_boxes", "spider:collection_time": "2024-01-04T08:25:05.301423"}, "geometry": {"coordinates": [-119.217898, 34.276827], "type": "Point"}, "id": "rckG-JWuXeynCoW_7D9nhDskGqc=", "properties": {"@spider": "usps_collection_boxes", "addr:city": "VENTURA", "addr:country": "US", "addr:full": "41 S WAKE FOREST AVE", "addr:postcode": "93003", "addr:state": "CA", "amenity": "post_box", "brand": "United States Postal Service", "brand:wikidata": "Q668687", "collection_times": "Mo-Fr 17:30; Sa 17:00", "name": "USPS COLLECTION BOX - BLUE BOX", "note": "ON 12/24 AND 12/31, THIS BOX MAY BE COLLECTED AS EARLY AS 12 NOON.", "nsi_id": "unitedstatespostalservice-a77078", "operator": "United States Postal Service", "operator:short": "USPS", "operator:type": "public", "operator:wikidata": "Q668687", "ref": "9300300001"}, "type": "Feature"}
{"dataset_attributes": {"@spider": "usps_collection_boxes", "spider:collection_time": "2024-01-04T08:25:05.301423"}, "geometry": {"coordinates": [-119.257319, 34.274745], "type": "Point"}, "id": "D2dRs-A8et-TbJiyPkktaF8bK9o=", "properties": {"@spider": "usps_collection_boxes", "addr:city": "VENTURA", "addr:country": "US", "addr:full": "147 N BRENT ST", "addr:postcode": "93003", "addr:state": "CA", "amenity": "post_box", "brand": "United States Postal Service", "brand:wikidata": "Q668687", "collection_times": "Mo-Fr 16:00; Sa 15:00", "name": "USPS COLLECTION BOX - BLUE BOX", "note": "ON 12/24 AND 12/31, THIS BOX MAY BE COLLECTED AS EARLY AS 12 NOON.", "nsi_id": "unitedstatespostalservice-a77078", "operator": "United States Postal Service", "operator:short": "USPS", "operator:type": "public", "operator:wikidata": "Q668687", "ref": "9300300078"}, "type": "Feature"}
{"dataset_attributes": {"@spider": "usps_collection_boxes", "spider:collection_time": "2024-01-04T08:25:05.301423"}, "geometry": {"coordinates": [-119.257332, 34.27476], "type": "Point"}, "id": "gY9fHabtH5fa00ct1DRAOkKctz4=", "properties": {"@spider": "usps_collection_boxes", "addr:city": "VENTURA", "addr:country": "US", "addr:full": "147 N BRENT ST", "addr:postcode": "93003", "addr:state": "CA", "amenity": "post_box", "brand": "United States Postal Service", "brand:wikidata": "Q668687", "collection_times": "Mo-Fr 16:00; Sa 15:00", "name": "USPS COLLECTION BOX - BLUE BOX", "note": "ON 12/24 AND 12/31, THIS BOX MAY BE COLLECTED AS EARLY AS 12 NOON.", "nsi_id": "unitedstatespostalservice-a77078", "operator": "United States Postal Service", "operator:short": "USPS", "operator:type": "public", "operator:wikidata": "Q668687", "ref": "9300300079"}, "type": "Feature"}
{"dataset_attributes": {"@spider": "usps_collection_boxes", "spider:collection_time": "2024-01-04T08:25:05.301423"}, "geometry": {"coordinates": [-119.2586590828, 34.275162472], "type": "Point"}, "id": "QiNTT9iP4e2gdm9j0Lj7IziudbQ=", "properties": {"@spider": "usps_collection_boxes", "addr:city": "VENTURA", "addr:country": "US", "addr:full": "2794 LOMA VISTA RD", "addr:postcode": "93003", "addr:state": "CA", "amenity": "post_box", "brand": "United States Postal Service", "brand:wikidata": "Q668687", "collection_times": "Mo-Fr 15:00; Sa 10:00", "name": "USPS COLLECTION BOX - BLUE BOX", "note": "ON 12/24 AND 12/31, THIS BOX MAY BE COLLECTED AS EARLY AS 12 NOON.", "nsi_id": "unitedstatespostalservice-a77078", "operator": "United States Postal Service", "operator:short": "USPS", "operator:type": "public", "operator:wikidata": "Q668687", "ref": "9300300087"}, "type": "Feature"}
{"dataset_attributes": {"@spider": "usps_collection_boxes", "spider:collection_time": "2024-01-04T08:25:05.301423"}, "geometry": {"coordinates": [-119.244454, 34.277439], "type": "Point"}, "id": "UuJnkvqmaxIhvCiRtPZNZ2uCc1k=", "properties": {"@spider": "usps_collection_boxes", "addr:city": "VENTURA", "addr:country": "US", "addr:full": "3800 LOMA VISTA RD", "addr:postcode": "93003", "addr:state": "CA", "amenity": "post_box", "brand": "United States Postal Service", "brand:wikidata": "Q668687", "collection_times": "Mo-Sa 10:00", "name": "USPS COLLECTION BOX - BLUE BOX", "nsi_id": "unitedstatespostalservice-a77078", "operator": "United States Postal Service", "operator:short": "USPS", "operator:type": "public", "operator:wikidata": "Q668687", "ref": "9300300090"}, "type": "Feature"}
{"dataset_attributes": {"@spider": "usps_collection_boxes", "spider:collection_time": "2024-01-04T08:25:05.301423"}, "geometry": {"coordinates": [-119.251597, 34.276365], "type": "Point"}, "id": "6_J5OwAWv0MUK-UPvPLUOhQIMyk=", "properties": {"@spider": "usps_collection_boxes", "addr:city": "VENTURA", "addr:country": "US", "addr:full": "3291 LOMA VISTA RD", "addr:postcode": "93003", "addr:state": "CA", "amenity": "post_box", "brand": "United States Postal Service", "brand:wikidata": "Q668687", "collection_times": "Mo-Sa 15:00", "name": "USPS COLLECTION BOX - BLUE BOX", "note": "ON 12/24 AND 12/31, THIS BOX MAY BE COLLECTED AS EARLY AS 12 NOON.", "nsi_id": "unitedstatespostalservice-a77078", "operator": "United States Postal Service", "operator:short": "USPS", "operator:type": "public", "operator:wikidata": "Q668687", "ref": "9300300092"}, "type": "Feature"}
{"dataset_attributes": {"@spider": "usps_collection_boxes", "spider:collection_time": "2024-01-04T08:25:05.301423"}, "geometry": {"coordinates": [-119.2441475054, 34.2692864692], "type": "Point"}, "id": "TfduUvkK03DYBf-3RfApVepeAmU=", "properties": {"@spider": "usps_collection_boxes", "addr:city": "VENTURA", "addr:country": "US", "addr:full": "3650 MAPLE ST", "addr:postcode": "93003", "addr:state": "CA", "amenity": "post_box", "brand": "United States Postal Service", "brand:wikidata": "Q668687", "collection_times": "Mo-Fr 16:00; Sa 15:00", "name": "USPS COLLECTION BOX - BLUE BOX", "note": "ON 12/24 AND 12/31, THIS BOX MAY BE COLLECTED AS EARLY AS 12 NOON.", "nsi_id": "unitedstatespostalservice-a77078", "operator": "United States Postal Service", "operator:short": "USPS", "operator:type": "public", "operator:wikidata": "Q668687", "ref": "9300300099"}, "type": "Feature"}
{"dataset_attributes": {"@spider": "usps_collection_boxes", "spider:collection_time": "2024-01-04T08:25:05.301423"}, "geometry": {"coordinates": [-119.2316033243, 34.2572610305], "type": "Point"}, "id": "mGBlqkHoJg8p-cygvns8_bnVwVQ=", "properties": {"@spider": "usps_collection_boxes", "addr:city": "VENTURA", "addr:country": "US", "addr:full": "4522 MARKET ST", "addr:postcode": "93003", "addr:state": "CA", "amenity": "post_box", "brand": "United States Postal Service", "brand:wikidata": "Q668687", "collection_times": "Mo-Fr 16:00; Sa 15:00", "name": "USPS COLLECTION BOX - BLUE BOX", "note": "ON 12/24 AND 12/31, THIS BOX MAY BE COLLECTED AS EARLY AS 12 NOON.", "nsi_id": "unitedstatespostalservice-a77078", "operator": "United States Postal Service", "operator:short": "USPS", "operator:type": "public", "operator:wikidata": "Q668687", "ref": "9300300111"}, "type": "Feature"}
{"dataset_attributes": {"@spider": "usps_collection_boxes", "spider:collection_time": "2024-01-04T08:25:05.301423"}, "geometry": {"coordinates": [-119.2331475314, 34.2572540378], "type": "Point"}, "id": "pC4RZzy76Ig5gNQFt2Gk9Qa8Yng=", "properties": {"@spider": "usps_collection_boxes", "addr:city": "VENTURA", "addr:country": "US", "addr:full": "4474 MARKET ST", "addr:postcode": "93003", "addr:state": "CA", "amenity": "post_box", "brand": "United States Postal Service", "brand:wikidata": "Q668687", "collection_times": "Mo-Fr 16:00; Sa 15:00", "name": "USPS COLLECTION BOX - BLUE BOX", "note": "ON 12/24 AND 12/31, THIS BOX MAY BE COLLECTED AS EARLY AS 12 NOON.", "nsi_id": "unitedstatespostalservice-a77078", "operator": "United States Postal Service", "operator:short": "USPS", "operator:type": "public", "operator:wikidata": "Q668687", "ref": "9300300115"}, "type": "Feature"}
{"dataset_attributes": {"@spider": "usps_collection_boxes", "spider:collection_time": "2024-01-04T08:25:05.301423"}, "geometry": {"coordinates": [-119.248518, 34.275718], "type": "Point"}, "id": "G0J3XtOA0eyQcmv3gUUID2PdB_U=", "properties": {"@spider": "usps_collection_boxes", "addr:city": "VENTURA", "addr:country": "US", "addr:full": "200 MILLS ST", "addr:postcode": "93003", "addr:state": "CA", "amenity": "post_box", "brand": "United States Postal Service", "brand:wikidata": "Q668687", "collection_times": "Mo-Sa 10:00", "name": "USPS COLLECTION BOX - BLUE BOX", "nsi_id": "unitedstatespostalservice-a77078", "operator": "United States Postal Service", "operator:short": "USPS", "operator:type": "public", "operator:wikidata": "Q668687", "ref": "9300300120"}, "type": "Feature"}
{"dataset_attributes": {"@spider": "usps_collection_boxes", "spider:collection_time": "2024-01-04T08:25:05.301423"}, "geometry": {"coordinates": [-119.211176019, 34.243597008], "type": "Point"}, "id": "WHpM2HpupESpbS5m2AwDijlbdEY=", "properties": {"@spider": "usps_collection_boxes", "addr:city": "VENTURA", "addr:country": "US", "addr:full": "5725 OLIVAS PARK DR", "addr:postcode": "93003", "addr:state": "CA", "amenity": "post_box", "brand": "United States Postal Service", "brand:wikidata": "Q668687", "collection_times": "Mo-Fr 15:00; Sa 10:00", "name": "USPS COLLECTION BOX - BLUE BOX", "note": "ON 12/24 AND 12/31, THIS BOX MAY BE COLLECTED AS EARLY AS 12 NOON.", "nsi_id": "unitedstatespostalservice-a77078", "operator": "United States Postal Service", "operator:short": "USPS", "operator:type": "public", "operator:wikidata": "Q668687", "ref": "9300300127"}, "type": "Feature"}
{"dataset_attributes": {"@spider": "usps_collection_boxes", "spider:collection_time": "2024-01-04T08:25:05.301423"}, "geometry": {"coordinates": [-119.206704041, 34.267665572], "type": "Point"}, "id": "QmjjpmGMXuuYeca04sj7vWfetNY=", "properties": {"@spider": "usps_collection_boxes", "addr:city": "VENTURA", "addr:country": "US", "addr:full": "1050 S HILL RD", "addr:postcode": "93003", "addr:state": "CA", "amenity": "post_box", "brand": "United States Postal Service", "brand:wikidata": "Q668687", "collection_times": "Mo-Fr 16:00; Sa 15:00", "name": "USPS COLLECTION BOX - BLUE BOX", "note": "ON 12/24 AND 12/31, THIS BOX MAY BE COLLECTED AS EARLY AS 12 NOON.", "nsi_id": "unitedstatespostalservice-a77078", "operator": "United States Postal Service", "operator:short": "USPS", "operator:type": "public", "operator:wikidata": "Q668687", "ref": "9300300133"}, "type": "Feature"}
{"dataset_attributes": {"@spider": "usps_collection_boxes", "spider:collection_time": "2024-01-04T08:25:05.301423"}, "geometry": {"coordinates": [-119.2067040408, 34.2676655723], "type": "Point"}, "id": "kd5bzPgYltMB1QHQIcTocM9R-y8=", "properties": {"@spider": "usps_collection_boxes", "addr:city": "VENTURA", "addr:country": "US", "addr:full": "1050 S HILL RD", "addr:postcode": "93003", "addr:state": "CA", "amenity": "post_box", "brand": "United States Postal Service", "brand:wikidata": "Q668687", "collection_times": "Mo-Fr 16:00; Sa 15:00", "name": "USPS COLLECTION BOX - BLUE BOX", "note": "ON 12/24 AND 12/31, THIS BOX MAY BE COLLECTED AS EARLY AS 12 NOON.", "nsi_id": "unitedstatespostalservice-a77078", "operator": "United States Postal Service", "operator:short": "USPS", "operator:type": "public", "operator:wikidata": "Q668687", "ref": "9300300134"}, "type": "Feature"}
{"dataset_attributes": {"@spider": "usps_collection_boxes", "spider:collection_time": "2024-01-04T08:25:05.301423"}, "geometry": {"coordinates": [-119.2067040408, 34.2676655723], "type": "Point"}, "id": "wjvwqNX9JkdqQTgZXuWIUm9MuxA=", "properties": {"@spider": "usps_collection_boxes", "addr:city": "VENTURA", "addr:country": "US", "addr:full": "1050 S HILL RD", "addr:postcode": "93003", "addr:state": "CA", "amenity": "post_box", "brand": "United States Postal Service", "brand:wikidata": "Q668687", "collection_times": "Mo-Fr 16:00; Sa 15:00", "name": "USPS COLLECTION BOX - BLUE BOX", "note": "ON 12/24 AND 12/31, THIS BOX MAY BE COLLECTED AS EARLY AS 12 NOON.", "nsi_id": "unitedstatespostalservice-a77078", "operator": "United States Postal Service", "operator:short": "USPS", "operator:type": "public", "operator:wikidata": "Q668687", "ref": "9300300135"}, "type": "Feature"}
{"dataset_attributes": {"@spider": "usps_collection_boxes", "spider:collection_time": "2024-01-04T08:25:05.301423"}, "geometry": {"coordinates": [-119.223326, 34.265513], "type": "Point"}, "id": "EYxcC8PEVG4RmnseJuSMqw3Weyc=", "properties": {"@spider": "usps_collection_boxes", "addr:city": "VENTURA", "addr:country": "US", "addr:full": "5065 TELEPHONE RD", "addr:postcode": "93003", "addr:state": "CA", "amenity": "post_box", "brand": "United States Postal Service", "brand:wikidata": "Q668687", "collection_times": "Mo-Sa 10:00", "name": "USPS COLLECTION BOX - BLUE BOX", "nsi_id": "unitedstatespostalservice-a77078", "operator": "United States Postal Service", "operator:short": "USPS", "operator:type": "public", "operator:wikidata": "Q668687", "ref": "9300300139"}, "type": "Feature"}
{"dataset_attributes": {"@spider": "usps_collection_boxes", "spider:collection_time": "2024-01-04T08:25:05.301423"}, "geometry": {"coordinates": [-119.214340595, 34.267766462], "type": "Point"}, "id": "4gPhUnaZjbrvlruY9FT7GR5G3ZA=", "properties": {"@spider": "usps_collection_boxes", "addr:city": "VENTURA", "addr:country": "US", "addr:full": "5750 THILLE ST", "addr:postcode": "93003", "addr:state": "CA", "amenity": "post_box", "brand": "United States Postal Service", "brand:wikidata": "Q668687", "collection_times": "Mo-Fr 16:00; Sa 15:00", "name": "USPS COLLECTION BOX - BLUE BOX", "note": "ON 12/24 AND 12/31, THIS BOX MAY BE COLLECTED AS EARLY AS 12 NOON.", "nsi_id": "unitedstatespostalservice-a77078", "operator": "United States Postal Service", "operator:short": "USPS", "operator:type": "public", "operator:wikidata": "Q668687", "ref": "9300300141"}, "type": "Feature"}
{"dataset_attributes": {"@spider": "usps_collection_boxes", "spider:collection_time": "2024-01-04T08:25:05.301423"}, "geometry": {"coordinates": [-119.214340595, 34.267766462], "type": "Point"}, "id": "yn4_EQ_Gra59t4NDtC9RKkppRZ0=", "properties": {"@spider": "usps_collection_boxes", "addr:city": "VENTURA", "addr:country": "US", "addr:full": "5750 THILLE ST", "addr:postcode": "93003", "addr:state": "CA", "amenity": "post_box", "brand": "United States Postal Service", "brand:wikidata": "Q668687", "collection_times": "Mo-Fr 16:00; Sa 15:00", "name": "USPS COLLECTION BOX - BLUE BOX", "note": "ON 12/24 AND 12/31, THIS BOX MAY BE COLLECTED AS EARLY AS 12 NOON.", "nsi_id": "unitedstatespostalservice-a77078", "operator": "United States Postal Service", "operator:short": "USPS", "operator:type": "public", "operator:wikidata": "Q668687", "ref": "9300300143"}, "type": "Feature"}
{"dataset_attributes": {"@spider": "usps_collection_boxes", "spider:collection_time": "2024-01-04T08:25:05.301423"}, "geometry": {"coordinates": [-119.224154, 34.268519], "type": "Point"}, "id": "OoTUsTAH9LlRNvNOsGsaQYXwCao=", "properties": {"@spider": "usps_collection_boxes", "addr:city": "VENTURA", "addr:country": "US", "addr:full": "5067 THILLE ST", "addr:postcode": "93003", "addr:state": "CA", "amenity": "post_box", "brand": "United States Postal Service", "brand:wikidata": "Q668687", "collection_times": "Mo-Sa 10:00", "name": "USPS COLLECTION BOX - BLUE BOX", "nsi_id": "unitedstatespostalservice-a77078", "operator": "United States Postal Service", "operator:short": "USPS", "operator:type": "public", "operator:wikidata": "Q668687", "ref": "9300300145"}, "type": "Feature"}
{"dataset_attributes": {"@spider": "usps_collection_boxes", "spider:collection_time": "2024-01-04T08:25:05.301423"}, "geometry": {"coordinates": [-119.219173, 34.256466], "type": "Point"}, "id": "Hiuw4z_mAONZwOd_cOQf3Qz0__8=", "properties": {"@spider": "usps_collection_boxes", "addr:city": "VENTURA", "addr:country": "US", "addr:full": "5200 VALENTINE RD", "addr:postcode": "93003", "addr:state": "CA", "amenity": "post_box", "brand": "United States Postal Service", "brand:wikidata": "Q668687", "collection_times": "Mo-Fr 16:00; Sa 15:00", "name": "USPS COLLECTION BOX - BLUE BOX", "note": "ON 12/24 AND 12/31, THIS BOX MAY BE COLLECTED AS EARLY AS 12 NOON.", "nsi_id": "unitedstatespostalservice-a77078", "operator": "United States Postal Service", "operator:short": "USPS", "operator:type": "public", "operator:wikidata": "Q668687", "ref": "9300300151"}, "type": "Feature"}
{"dataset_attributes": {"@spider": "usps_collection_boxes", "spider:collection_time": "2024-01-04T08:25:05.301423"}, "geometry": {"coordinates": [-119.213477019, 34.259919005], "type": "Point"}, "id": "FQNXHyfWuMlFS6WlLnGYyDx_3T4=", "properties": {"@spider": "usps_collection_boxes", "addr:city": "VENTURA", "addr:country": "US", "addr:full": "5740 RALSTON ST", "addr:postcode": "93003", "addr:state": "CA", "amenity": "post_box", "brand": "United States Postal Service", "brand:wikidata": "Q668687", "collection_times": "Mo-Fr 16:00; Sa 15:00", "name": "USPS COLLECTION BOX - BLUE BOX", "note": "ON 12/24 AND 12/31, THIS BOX MAY BE COLLECTED AS EARLY AS 12 NOON.", "nsi_id": "unitedstatespostalservice-a77078", "operator": "United States Postal Service", "operator:short": "USPS", "operator:type": "public", "operator:wikidata": "Q668687", "ref": "9300300157"}, "type": "Feature"}
{"dataset_attributes": {"@spider": "usps_collection_boxes", "spider:collection_time": "2024-01-04T08:25:05.301423"}, "geometry": {"coordinates": [-119.213477019, 34.259919005], "type": "Point"}, "id": "NkywooiaXDB4G59UK8n9JnLTC2o=", "properties": {"@spider": "usps_collection_boxes", "addr:city": "VENTURA", "addr:country": "US", "addr:full": "5740 RALSTON ST", "addr:postcode": "93003", "addr:state": "CA", "amenity": "post_box", "brand": "United States Postal Service", "brand:wikidata": "Q668687", "collection_times": "Mo-Fr 16:00; Sa 15:00", "name": "USPS COLLECTION BOX - BLUE BOX", "note": "ON 12/24 AND 12/31, THIS BOX MAY BE COLLECTED AS EARLY AS 12 NOON.", "nsi_id": "unitedstatespostalservice-a77078", "operator": "United States Postal Service", "operator:short": "USPS", "operator:type": "public", "operator:wikidata": "Q668687", "ref": "9300300158"}, "type": "Feature"}
{"dataset_attributes": {"@spider": "usps_collection_boxes", "spider:collection_time": "2024-01-04T08:25:05.301423"}, "geometry": {"coordinates": [-119.218558967, 34.276884019], "type": "Point"}, "id": "DTzcO7oswRf3v581sTOKZVGigSQ=", "properties": {"@spider": "usps_collection_boxes", "addr:city": "VENTURA", "addr:country": "US", "addr:full": "41 S WAKE FOREST AVE", "addr:postcode": "93003", "addr:state": "CA", "amenity": "post_box", "brand": "United States Postal Service", "brand:wikidata": "Q668687", "collection_times": "Mo-Fr 17:30; Sa 17:00", "name": "USPS COLLECTION BOX - BLUE BOX", "note": "ON 12/24 AND 12/31, THIS BOX MAY BE COLLECTED AS EARLY AS 12 NOON.", "nsi_id": "unitedstatespostalservice-a77078", "operator": "United States Postal Service", "operator:short": "USPS", "operator:type": "public", "operator:wikidata": "Q668687", "ref": "9300300167"}, "type": "Feature"}
{"dataset_attributes": {"@spider": "usps_collection_boxes", "spider:collection_time": "2024-01-04T08:25:05.301423"}, "geometry": {"coordinates": [-119.218106, 34.27663], "type": "Point"}, "id": "bh-NgNlYUKYaHE_agM0-Idm7F8Y=", "properties": {"@spider": "usps_collection_boxes", "addr:city": "VENTURA", "addr:country": "US", "addr:full": "41 S WAKE FOREST AVE", "addr:postcode": "93003", "addr:state": "CA", "amenity": "post_box", "brand": "United States Postal Service", "brand:wikidata": "Q668687", "collection_times": "Mo-Fr 17:30; Sa 17:00", "name": "USPS COLLECTION BOX - BLUE BOX", "note": "ON 12/24 AND 12/31, THIS BOX MAY BE COLLECTED AS EARLY AS 12 NOON.", "nsi_id": "unitedstatespostalservice-a77078", "operator": "United States Postal Service", "operator:short": "USPS", "operator:type": "public", "operator:wikidata": "Q668687", "ref": "9300300170"}, "type": "Feature"}
{"dataset_attributes": {"@spider": "usps_collection_boxes", "spider:collection_time": "2024-01-04T08:25:05.301423"}, "geometry": {"coordinates": [-119.217878, 34.276804], "type": "Point"}, "id": "XCTTZJ7MD6fWGwvU4v-djQRjXzI=", "properties": {"@spider": "usps_collection_boxes", "addr:city": "VENTURA", "addr:country": "US", "addr:full": "41 S WAKE FOREST AVE", "addr:postcode": "93003", "addr:state": "CA", "amenity": "post_box", "brand": "United States Postal Service", "brand:wikidata": "Q668687", "collection_times": "Mo-Fr 17:30; Sa 17:00", "name": "USPS COLLECTION BOX - EXPRESS", "note": "ON 12/24 AND 12/31, THIS BOX MAY BE COLLECTED AS EARLY AS 12 NOON.", "nsi_id": "unitedstatespostalservice-a77078", "operator": "United States Postal Service", "operator:short": "USPS", "operator:type": "public", "operator:wikidata": "Q668687", "ref": "9300300171"}, "type": "Feature"}
{"dataset_attributes": {"@spider": "usps_collection_boxes", "spider:collection_time": "2024-01-04T08:25:05.301423"}, "geometry": {"coordinates": [-119.218415, 34.277007], "type": "Point"}, "id": "BpvAbcBvmCU0-o-W8ulfxHhNro0=", "properties": {"@spider": "usps_collection_boxes", "addr:city": "VENTURA", "addr:country": "US", "addr:full": "41 S WAKE FOREST AVE", "addr:postcode": "93003", "addr:state": "CA", "amenity": "post_box", "brand": "United States Postal Service", "brand:wikidata": "Q668687", "collection_times": "Mo-Fr 17:30; Sa 17:00", "name": "USPS COLLECTION BOX - PO LOBBY", "note": "ON 12/24 AND 12/31, THIS BOX MAY BE COLLECTED AS EARLY AS 12 NOON.", "nsi_id": "unitedstatespostalservice-a77078", "operator": "United States Postal Service", "operator:short": "USPS", "operator:type": "public", "operator:wikidata": "Q668687", "ref": "9300300172"}, "type": "Feature"}
{"dataset_attributes": {"@spider": "usps_collection_boxes", "spider:collection_time": "2024-01-04T08:25:05.301423"}, "geometry": {"coordinates": [-119.212769804, 34.267978606], "type": "Point"}, "id": "4PMgTZB5ZXWkbmejXn8E45XD8A0=", "properties": {"@spider": "usps_collection_boxes", "addr:city": "VENTURA", "addr:country": "US", "addr:full": "800 S VICTORIA AVE", "addr:postcode": "93003", "addr:state": "CA", "amenity": "post_box", "brand": "United States Postal Service", "brand:wikidata": "Q668687", "collection_times": "Mo-Fr 16:00", "name": "USPS COLLECTION BOX - BLUE BOX", "note": "ON 12/24 AND 12/31, THIS BOX MAY BE COLLECTED AS EARLY AS 12 NOON.", "nsi_id": "unitedstatespostalservice-a77078", "operator": "United States Postal Service", "operator:short": "USPS", "operator:type": "public", "operator:wikidata": "Q668687", "ref": "9300300173"}, "type": "Feature"}
{"dataset_attributes": {"@spider": "usps_collection_boxes", "spider:collection_time": "2024-01-04T08:25:05.301423"}, "geometry": {"coordinates": [-119.238938978, 34.276014019], "type": "Point"}, "id": "gsoml3U692MSPfS9WpnxL6EURxs=", "properties": {"@spider": "usps_collection_boxes", "addr:city": "VENTURA", "addr:country": "US", "addr:full": "90 N ASHWOOD AVE", "addr:postcode": "93003", "addr:state": "CA", "amenity": "post_box", "brand": "United States Postal Service", "brand:wikidata": "Q668687", "collection_times": "Mo-Sa 15:00", "name": "USPS COLLECTION BOX - BLUE BOX", "note": "ON 12/24 AND 12/31, THIS BOX MAY BE COLLECTED AS EARLY AS 12 NOON.", "nsi_id": "unitedstatespostalservice-a77078", "operator": "United States Postal Service", "operator:short": "USPS", "operator:type": "public", "operator:wikidata": "Q668687", "ref": "9300300177"}, "type": "Feature"}
{"dataset_attributes": {"@spider": "usps_collection_boxes", "spider:collection_time": "2024-01-04T08:25:05.301423"}, "geometry": {"coordinates": [-119.218404, 34.276994], "type": "Point"}, "id": "JlZwKhhdd46jpOCt1JfGyoQ2M4I=", "properties": {"@spider": "usps_collection_boxes", "addr:city": "VENTURA", "addr:country": "US", "addr:full": "41 S WAKE FOREST AVE", "addr:postcode": "93003", "addr:state": "CA", "amenity": "post_box", "brand": "United States Postal Service", "brand:wikidata": "Q668687", "collection_times": "Mo-Fr 17:30; Sa 17:00", "name": "USPS COLLECTION BOX - APC", "note": "ON 12/24 AND 12/31, THIS BOX MAY BE COLLECTED AS EARLY AS 12 NOON.", "nsi_id": "unitedstatespostalservice-a77078", "operator": "United States Postal Service", "operator:short": "USPS", "operator:type": "public", "operator:wikidata": "Q668687", "ref": "9300300181"}, "type": "Feature"}
{"dataset_attributes": {"@spider": "usps_collection_boxes", "spider:collection_time": "2024-01-04T08:25:05.301423"}, "geometry": {"coordinates": [-119.238652539, 34.278091389], "type": "Point"}, "id": "LETmH7DfHl7krPhX8zlWnAyIKn0=", "properties": {"@spider": "usps_collection_boxes", "addr:city": "VENTURA", "addr:country": "US", "addr:full": "4200 LOMA VISTA RD", "addr:postcode": "93003", "addr:state": "CA", "amenity": "post_box", "brand": "United States Postal Service", "brand:wikidata": "Q668687", "collection_times": "Mo-Sa 10:00", "name": "USPS COLLECTION BOX - BLUE BOX", "nsi_id": "unitedstatespostalservice-a77078", "operator": "United States Postal Service", "operator:short": "USPS", "operator:type": "public", "operator:wikidata": "Q668687", "ref": "9300300186"}, "type": "Feature"}
{"dataset_attributes": {"@spider": "usps_collection_boxes", "spider:collection_time": "2024-01-04T08:25:05.301423"}, "geometry": {"coordinates": [-119.263295, 34.275682], "type": "Point"}, "id": "tGvhwtHdl8RfH2iTTIw6l1sY4Is=", "properties": {"@spider": "usps_collection_boxes", "addr:city": "VENTURA", "addr:country": "US", "addr:full": "2463 E MAIN ST", "addr:postcode": "93003", "addr:state": "CA", "amenity": "post_box", "brand": "United States Postal Service", "brand:wikidata": "Q668687", "collection_times": "Mo-Sa 15:00", "name": "USPS COLLECTION BOX - BLUE BOX", "note": "ON 12/24 AND 12/31, THIS BOX MAY BE COLLECTED AS EARLY AS 12 NOON.", "nsi_id": "unitedstatespostalservice-a77078", "operator": "United States Postal Service", "operator:short": "USPS", "operator:type": "public", "operator:wikidata": "Q668687", "ref": "9300300187"}, "type": "Feature"}
{"dataset_attributes": {"@spider": "usps_collection_boxes", "spider:collection_time": "2024-01-04T08:25:05.301423"}, "geometry": {"coordinates": [-119.212769804, 34.2679786059], "type": "Point"}, "id": "4xrpmRmwDY18yTT_lLZsFC5R9JU=", "properties": {"@spider": "usps_collection_boxes", "addr:city": "VENTURA", "addr:country": "US", "addr:full": "800 S VICTORIA AVE", "addr:postcode": "93003", "addr:state": "CA", "amenity": "post_box", "brand": "United States Postal Service", "brand:wikidata": "Q668687", "collection_times": "Mo-Fr 16:00", "name": "USPS COLLECTION BOX - BLUE BOX", "note": "ON 12/24 AND 12/31, THIS BOX MAY BE COLLECTED AS EARLY AS 12 NOON.", "nsi_id": "unitedstatespostalservice-a77078", "operator": "United States Postal Service", "operator:short": "USPS", "operator:type": "public", "operator:wikidata": "Q668687", "ref": "9300300190"}, "type": "Feature"}
{"dataset_attributes": {"@spider": "usps_collection_boxes", "spider:collection_time": "2024-01-04T08:25:05.301423"}, "geometry": {"coordinates": [-119.2178653383, 34.2768833154], "type": "Point"}, "id": "SJVYtqJR0f4XFUm-XkqGeylqCZs=", "properties": {"@spider": "usps_collection_boxes", "addr:city": "VENTURA", "addr:country": "US", "addr:full": "41 S WAKE FOREST AVE", "addr:postcode": "93003", "addr:state": "CA", "amenity": "post_box", "brand": "United States Postal Service", "brand:wikidata": "Q668687", "collection_times": "Mo-Fr 17:00", "name": "USPS COLLECTION BOX - PO LOBBY", "note": "ON 12/24 AND 12/31, THIS BOX MAY BE COLLECTED AS EARLY AS 12 NOON.", "nsi_id": "unitedstatespostalservice-a77078", "operator": "United States Postal Service", "operator:short": "USPS", "operator:type": "public", "operator:wikidata": "Q668687", "ref": "9300300199"}, "type": "Feature"}
{"dataset_attributes": {"@spider": "usps_collection_boxes", "spider:collection_time": "2024-01-04T08:25:05.301423"}, "geometry": {"coordinates": [-119.206822811, 34.2512771643], "type": "Point"}, "id": "YxeYZT-TFRnDxORwAVKoO_yELvU=", "properties": {"@spider": "usps_collection_boxes", "addr:city": "VENTURA", "addr:country": "US", "addr:full": "2481 GRAND AVE", "addr:postcode": "93003", "addr:state": "CA", "amenity": "post_box", "brand": "United States Postal Service", "brand:wikidata": "Q668687", "collection_times": "Mo-Fr 16:30", "name": "USPS COLLECTION BOX - PO LOBBY", "note": "ON 12/24 AND 12/31, THIS BOX MAY BE COLLECTED AS EARLY AS 12 NOON.", "nsi_id": "unitedstatespostalservice-a77078", "operator": "United States Postal Service", "operator:short": "USPS", "operator:type": "public", "operator:wikidata": "Q668687", "ref": "9300300200"}, "type": "Feature"}
{"dataset_attributes": {"@spider": "usps_collection_boxes", "spider:collection_time": "2024-01-04T08:25:05.301423"}, "geometry": {"coordinates": [-119.177514, 34.262842], "type": "Point"}, "id": "x3GPRYR3gnFQ2if7UpebWGrcyR0=", "properties": {"@spider": "usps_collection_boxes", "addr:city": "VENTURA", "addr:country": "US", "addr:full": "8401 NEATH ST", "addr:postcode": "93004", "addr:state": "CA", "amenity": "post_box", "brand": "United States Postal Service", "brand:wikidata": "Q668687", "collection_times": "Mo-Sa 10:00", "name": "USPS COLLECTION BOX - BLUE BOX", "nsi_id": "unitedstatespostalservice-a77078", "operator": "United States Postal Service", "operator:short": "USPS", "operator:type": "public", "operator:wikidata": "Q668687", "ref": "9300400002"}, "type": "Feature"}
{"dataset_attributes": {"@spider": "usps_collection_boxes", "spider:collection_time": "2024-01-04T08:25:05.301423"}, "geometry": {"coordinates": [-119.180854, 34.281568], "type": "Point"}, "id": "8wOshr45rbBxexA3Hzxz_5ercIw=", "properties": {"@spider": "usps_collection_boxes", "addr:city": "VENTURA", "addr:country": "US", "addr:full": "130 PETIT AVE", "addr:postcode": "93004", "addr:state": "CA", "amenity": "post_box", "brand": "United States Postal Service", "brand:wikidata": "Q668687", "collection_times": "Mo-Sa 10:00", "name": "USPS COLLECTION BOX - BLUE BOX", "nsi_id": "unitedstatespostalservice-a77078", "operator": "United States Postal Service", "operator:short": "USPS", "operator:type": "public", "operator:wikidata": "Q668687", "ref": "9300400003"}, "type": "Feature"}
{"dataset_attributes": {"@spider": "usps_collection_boxes", "spider:collection_time": "2024-01-04T08:25:05.301423"}, "geometry": {"coordinates": [-119.171731, 34.27141], "type": "Point"}, "id": "_FtOzXsHULdBEis3A-OJGw1jiso=", "properties": {"@spider": "usps_collection_boxes", "addr:city": "VENTURA", "addr:country": "US", "addr:full": "9308 TELEPHONE RD", "addr:postcode": "93004", "addr:state": "CA", "amenity": "post_box", "brand": "United States Postal Service", "brand:wikidata": "Q668687", "collection_times": "Mo-Sa 10:00", "name": "USPS COLLECTION BOX - BLUE BOX", "nsi_id": "unitedstatespostalservice-a77078", "operator": "United States Postal Service", "operator:short": "USPS", "operator:type": "public", "operator:wikidata": "Q668687", "ref": "9300400005"}, "type": "Feature"}
{"dataset_attributes": {"@spider": "usps_collection_boxes", "spider:collection_time": "2024-01-04T08:25:05.301423"}, "geometry": {"coordinates": [-119.1571667621, 34.2919411991], "type": "Point"}, "id": "pMwr7heUndvtEAEPEf_UQDarnes=", "properties": {"@spider": "usps_collection_boxes", "addr:city": "VENTURA", "addr:country": "US", "addr:full": "11043 CITRUS DR", "addr:postcode": "93004", "addr:state": "CA", "amenity": "post_box", "brand": "United States Postal Service", "brand:wikidata": "Q668687", "collection_times": "Mo-Fr 16:00", "name": "USPS COLLECTION BOX - PO LOBBY", "note": "ON 12/24 AND 12/31, THIS BOX MAY BE COLLECTED AS EARLY AS 12 NOON.", "nsi_id": "unitedstatespostalservice-a77078", "operator": "United States Postal Service", "operator:short": "USPS", "operator:type": "public", "operator:wikidata": "Q668687", "ref": "9300400009"}, "type": "Feature"}
{"dataset_attributes": {"@spider": "usps_collection_boxes", "spider:collection_time": "2024-01-04T08:25:05.301423"}, "geometry": {"coordinates": [-119.2068329376, 34.251484967], "type": "Point"}, "id": "G37qDm5UuVGCC0pFucs8PgiYDS0=", "properties": {"@spider": "usps_collection_boxes", "addr:city": "VENTURA", "addr:country": "US", "addr:full": "2481 GRAND AVE", "addr:postcode": "93005", "addr:state": "CA", "amenity": "post_box", "brand": "United States Postal Service", "brand:wikidata": "Q668687", "collection_times": "Mo-Fr 16:30; Sa 13:00", "name": "USPS COLLECTION BOX - BLUE BOX", "note": "ON 12/24 AND 12/31, THIS BOX MAY BE COLLECTED AS EARLY AS 12 NOON.", "nsi_id": "unitedstatespostalservice-a77078", "operator": "United States Postal Service", "operator:short": "USPS", "operator:type": "public", "operator:wikidata": "Q668687", "ref": "9300500003"}, "type": "Feature"}
{"dataset_attributes": {"@spider": "usps_collection_boxes", "spider:collection_time": "2024-01-04T08:25:05.301423"}, "geometry": {"coordinates": [-119.207424, 34.251512], "type": "Point"}, "id": "bZ3465UkvDdq8LOegLCpwC0Y1F0=", "properties": {"@spider": "usps_collection_boxes", "addr:city": "VENTURA", "addr:country": "US", "addr:full": "2481 GRAND AVE", "addr:postcode": "93005", "addr:state": "CA", "amenity": "post_box", "brand": "United States Postal Service", "brand:wikidata": "Q668687", "collection_times": "Mo-Fr 16:30", "name": "USPS COLLECTION BOX - PO LOBBY", "note": "ON 12/24 AND 12/31, THIS BOX MAY BE COLLECTED AS EARLY AS 12 NOON.", "nsi_id": "unitedstatespostalservice-a77078", "operator": "United States Postal Service", "operator:short": "USPS", "operator:type": "public", "operator:wikidata": "Q668687", "ref": "9300500004"}, "type": "Feature"}
{"dataset_attributes": {"@spider": "usps_collection_boxes", "spider:collection_time": "2024-01-04T08:25:05.301423"}, "geometry": {"coordinates": [-119.156987, 34.291949], "type": "Point"}, "id": "4ISfX3EWvZJSJYnG7t4i4tlx4aQ=", "properties": {"@spider": "usps_collection_boxes", "addr:city": "VENTURA", "addr:country": "US", "addr:full": "11043 CITRUS DR", "addr:postcode": "93007", "addr:state": "CA", "amenity": "post_box", "brand": "United States Postal Service", "brand:wikidata": "Q668687", "collection_times": "Mo-Fr 16:00; Sa 13:00", "name": "USPS COLLECTION BOX - BLUE BOX", "note": "ON 12/24 AND 12/31, THIS BOX MAY BE COLLECTED AS EARLY AS 12 NOON.", "nsi_id": "unitedstatespostalservice-a77078", "operator": "United States Postal Service", "operator:short": "USPS", "operator:type": "public", "operator:wikidata": "Q668687", "ref": "9300700004"}, "type": "Feature"}
{"dataset_attributes": {"@spider": "usps_collection_boxes", "spider:collection_time": "2024-01-04T08:25:05.301423"}, "geometry": {"coordinates": [-119.156978, 34.291952], "type": "Point"}, "id": "NK-s2894lNwaAvj-GwhLQOkkCSs=", "properties": {"@spider": "usps_collection_boxes", "addr:city": "VENTURA", "addr:country": "US", "addr:full": "11043 CITRUS DR", "addr:postcode": "93007", "addr:state": "CA", "amenity": "post_box", "brand": "United States Postal Service", "brand:wikidata": "Q668687", "collection_times": "Mo-Fr 16:00; Sa 13:00", "name": "USPS COLLECTION BOX - BLUE BOX", "note": "ON 12/24 AND 12/31, THIS BOX MAY BE COLLECTED AS EARLY AS 12 NOON.", "nsi_id": "unitedstatespostalservice-a77078", "operator": "United States Postal Service", "operator:short": "USPS", "operator:type": "public", "operator:wikidata": "Q668687", "ref": "9300700011"}, "type": "Feature"}
{"dataset_attributes": {"@spider": "usps_collection_boxes", "spider:collection_time": "2024-01-04T08:25:05.301423"}, "geometry": {"coordinates": [-119.157308, 34.292454], "type": "Point"}, "id": "-kLFFbGoU9EOvW8-qoXPydRO-Ts=", "properties": {"@spider": "usps_collection_boxes", "addr:city": "VENTURA", "addr:country": "US", "addr:full": "11043 CITRUS DR", "addr:postcode": "93007", "addr:state": "CA", "amenity": "post_box", "brand": "United States Postal Service", "brand:wikidata": "Q668687", "collection_times": "Mo-Fr 16:00", "name": "USPS COLLECTION BOX - PO LOBBY", "note": "ON 12/24 AND 12/31, THIS BOX MAY BE COLLECTED AS EARLY AS 12 NOON.", "nsi_id": "unitedstatespostalservice-a77078", "operator": "United States Postal Service", "operator:short": "USPS", "operator:type": "public", "operator:wikidata": "Q668687", "ref": "9300700012"}, "type": "Feature"}
{"dataset_attributes": {"@spider": "usps_collection_boxes", "spider:collection_time": "2024-01-04T08:25:05.301423"}, "geometry": {"coordinates": [-119.0416138324, 34.2222365423], "type": "Point"}, "id": "SnlYE3rCHu7Pxyvtoz2n82o2SU8=", "properties": {"@spider": "usps_collection_boxes", "addr:city": "CAMARILLO", "addr:country": "US", "addr:full": "2150 PICKWICK DR", "addr:postcode": "93010", "addr:state": "CA", "amenity": "post_box", "brand": "United States Postal Service", "brand:wikidata": "Q668687", "collection_times": "Mo-Fr 17:30; Sa 16:30", "name": "USPS COLLECTION BOX - EXPRESS", "note": "ON 12/24 AND 12/31, THIS BOX MAY BE COLLECTED AS EARLY AS 12 NOON.", "nsi_id": "unitedstatespostalservice-a77078", "operator": "United States Postal Service", "operator:short": "USPS", "operator:type": "public", "operator:wikidata": "Q668687", "ref": "9301000002"}, "type": "Feature"}
{"dataset_attributes": {"@spider": "usps_collection_boxes", "spider:collection_time": "2024-01-04T08:25:05.301423"}, "geometry": {"coordinates": [-119.021557, 34.24251], "type": "Point"}, "id": "MyPvZ4D3hNmFqdIdFagWCi769BA=", "properties": {"@spider": "usps_collection_boxes", "addr:city": "CAMARILLO", "addr:country": "US", "addr:full": "2486 N PONDEROSA DR", "addr:postcode": "93010", "addr:state": "CA", "amenity": "post_box", "brand": "United States Postal Service", "brand:wikidata": "Q668687", "collection_times": "Mo-Sa 10:00", "name": "USPS COLLECTION BOX - BLUE BOX", "nsi_id": "unitedstatespostalservice-a77078", "operator": "United States Postal Service", "operator:short": "USPS", "operator:type": "public", "operator:wikidata": "Q668687", "ref": "9301000006"}, "type": "Feature"}
{"dataset_attributes": {"@spider": "usps_collection_boxes", "spider:collection_time": "2024-01-04T08:25:05.301423"}, "geometry": {"coordinates": [-119.018486, 34.242864], "type": "Point"}, "id": "1_ODjR3NlD5fOooMidz0MyC12HE=", "properties": {"@spider": "usps_collection_boxes", "addr:city": "CAMARILLO", "addr:country": "US", "addr:full": "2400 ANTONIO AVE", "addr:postcode": "93010", "addr:state": "CA", "amenity": "post_box", "brand": "United States Postal Service", "brand:wikidata": "Q668687", "collection_times": "Mo-Sa 15:00", "name": "USPS COLLECTION BOX - BLUE BOX", "note": "ON 12/24 AND 12/31, THIS BOX MAY BE COLLECTED AS EARLY AS 12 NOON.", "nsi_id": "unitedstatespostalservice-a77078", "operator": "United States Postal Service", "operator:short": "USPS", "operator:type": "public", "operator:wikidata": "Q668687", "ref": "9301000019"}, "type": "Feature"}
{"dataset_attributes": {"@spider": "usps_collection_boxes", "spider:collection_time": "2024-01-04T08:25:05.301423"}, "geometry": {"coordinates": [-119.037171, 34.235599], "type": "Point"}, "id": "lZ-ogiUSty_SH36ND4fyIwzyaD0=", "properties": {"@spider": "usps_collection_boxes", "addr:city": "CAMARILLO", "addr:country": "US", "addr:full": "2400 LAS POSAS RD", "addr:postcode": "93010", "addr:state": "CA", "amenity": "post_box", "brand": "United States Postal Service", "brand:wikidata": "Q668687", "collection_times": "Mo-Sa 15:00", "name": "USPS COLLECTION BOX - BLUE BOX", "note": "ON 12/24 AND 12/31, THIS BOX MAY BE COLLECTED AS EARLY AS 12 NOON.", "nsi_id": "unitedstatespostalservice-a77078", "operator": "United States Postal Service", "operator:short": "USPS", "operator:type": "public", "operator:wikidata": "Q668687", "ref": "9301000020"}, "type": "Feature"}
{"dataset_attributes": {"@spider": "usps_collection_boxes", "spider:collection_time": "2024-01-04T08:25:05.301423"}, "geometry": {"coordinates": [-119.051467, 34.220373], "type": "Point"}, "id": "0c4ia3snK_NTVsnPrSEOZIM3kJM=", "properties": {"@spider": "usps_collection_boxes", "addr:city": "CAMARILLO", "addr:country": "US", "addr:full": "455 CARMEN DR", "addr:postcode": "93010", "addr:state": "CA", "amenity": "post_box", "brand": "United States Postal Service", "brand:wikidata": "Q668687", "collection_times": "Mo-Fr 15:00; Sa 10:00", "name": "USPS COLLECTION BOX - BLUE BOX", "note": "ON 12/24 AND 12/31, THIS BOX MAY BE COLLECTED AS EARLY AS 12 NOON.", "nsi_id": "unitedstatespostalservice-a77078", "operator": "United States Postal Service", "operator:short": "USPS", "operator:type": "public", "operator:wikidata": "Q668687", "ref": "9301000035"}, "type": "Feature"}
{"dataset_attributes": {"@spider": "usps_collection_boxes", "spider:collection_time": "2024-01-04T08:25:05.301423"}, "geometry": {"coordinates": [-119.021547, 34.242502], "type": "Point"}, "id": "FqVk8lzyhNLFaw66KkDazUWNViQ=", "properties": {"@spider": "usps_collection_boxes", "addr:city": "CAMARILLO", "addr:country": "US", "addr:full": "2486 N PONDEROSA DR", "addr:postcode": "93010", "addr:state": "CA", "amenity": "post_box", "brand": "United States Postal Service", "brand:wikidata": "Q668687", "collection_times": "Mo-Sa 10:00", "name": "USPS COLLECTION BOX - BLUE BOX", "nsi_id": "unitedstatespostalservice-a77078", "operator": "United States Postal Service", "operator:short": "USPS", "operator:type": "public", "operator:wikidata": "Q668687", "ref": "9301000066"}, "type": "Feature"}
{"dataset_attributes": {"@spider": "usps_collection_boxes", "spider:collection_time": "2024-01-04T08:25:05.301423"}, "geometry": {"coordinates": [-119.0416138324, 34.2222365423], "type": "Point"}, "id": "250jHA7_ZJzvIgi8ZxhBG8lSDHo=", "properties": {"@spider": "usps_collection_boxes", "addr:city": "CAMARILLO", "addr:country": "US", "addr:full": "2150 PICKWICK DR", "addr:postcode": "93010", "addr:state": "CA", "amenity": "post_box", "brand": "United States Postal Service", "brand:wikidata": "Q668687", "collection_times": "Mo-Fr 17:30; Sa 16:30", "name": "USPS COLLECTION BOX - BLUE BOX", "note": "ON 12/24 AND 12/31, THIS BOX MAY BE COLLECTED AS EARLY AS 12 NOON.", "nsi_id": "unitedstatespostalservice-a77078", "operator": "United States Postal Service", "operator:short": "USPS", "operator:type": "public", "operator:wikidata": "Q668687", "ref": "9301000069"}, "type": "Feature"}
{"dataset_attributes": {"@spider": "usps_collection_boxes", "spider:collection_time": "2024-01-04T08:25:05.301423"}, "geometry": {"coordinates": [-119.0416138324, 34.2222365423], "type": "Point"}, "id": "PH1Mt3F0BNm8DI7tOFHuhBmQZzw=", "properties": {"@spider": "usps_collection_boxes", "addr:city": "CAMARILLO", "addr:country": "US", "addr:full": "2150 PICKWICK DR", "addr:postcode": "93010", "addr:state": "CA", "amenity": "post_box", "brand": "United States Postal Service", "brand:wikidata": "Q668687", "collection_times": "Mo-Fr 17:30; Sa 16:30", "name": "USPS COLLECTION BOX - BLUE BOX", "note": "ON 12/24 AND 12/31, THIS BOX MAY BE COLLECTED AS EARLY AS 12 NOON.", "nsi_id": "unitedstatespostalservice-a77078", "operator": "United States Postal Service", "operator:short": "USPS", "operator:type": "public", "operator:wikidata": "Q668687", "ref": "9301000070"}, "type": "Feature"}
{"dataset_attributes": {"@spider": "usps_collection_boxes", "spider:collection_time": "2024-01-04T08:25:05.301423"}, "geometry": {"coordinates": [-119.094698677, 34.245412691], "type": "Point"}, "id": "XOpGkJrFGtCdDSQhAAoC6CWjS1c=", "properties": {"@spider": "usps_collection_boxes", "addr:city": "CAMARILLO", "addr:country": "US", "addr:full": "6500 BEARDSLEY RD", "addr:postcode": "93010", "addr:state": "CA", "amenity": "post_box", "brand": "United States Postal Service", "brand:wikidata": "Q668687", "collection_times": "Mo-Sa 10:00", "name": "USPS COLLECTION BOX - BLUE BOX", "nsi_id": "unitedstatespostalservice-a77078", "operator": "United States Postal Service", "operator:short": "USPS", "operator:type": "public", "operator:wikidata": "Q668687", "ref": "9301000073"}, "type": "Feature"}
{"dataset_attributes": {"@spider": "usps_collection_boxes", "spider:collection_time": "2024-01-04T08:25:05.301423"}, "geometry": {"coordinates": [-119.061698, 34.219815], "type": "Point"}, "id": "zai4MYM34-xr2I8tGJY5XTO5330=", "properties": {"@spider": "usps_collection_boxes", "addr:city": "CAMARILLO", "addr:country": "US", "addr:full": "450 ROSEWOOD AVE", "addr:postcode": "93010", "addr:state": "CA", "amenity": "post_box", "brand": "United States Postal Service", "brand:wikidata": "Q668687", "collection_times": "Mo-Fr 15:00; Sa 10:00", "name": "USPS COLLECTION BOX - BLUE BOX", "note": "ON 12/24 AND 12/31, THIS BOX MAY BE COLLECTED AS EARLY AS 12 NOON.", "nsi_id": "unitedstatespostalservice-a77078", "operator": "United States Postal Service", "operator:short": "USPS", "operator:type": "public", "operator:wikidata": "Q668687", "ref": "9301000074"}, "type": "Feature"}
{"dataset_attributes": {"@spider": "usps_collection_boxes", "spider:collection_time": "2024-01-04T08:25:05.301423"}, "geometry": {"coordinates": [-119.088554, 34.242349], "type": "Point"}, "id": "GtEM7WY7kbDOMpPCnBwpfGKd3_E=", "properties": {"@spider": "usps_collection_boxes", "addr:city": "CAMARILLO", "addr:country": "US", "addr:full": "2843 AVENIDA DE AUTLAN", "addr:postcode": "93010", "addr:state": "CA", "amenity": "post_box", "brand": "United States Postal Service", "brand:wikidata": "Q668687", "collection_times": "Mo-Sa 10:00", "name": "USPS COLLECTION BOX - BLUE BOX", "nsi_id": "unitedstatespostalservice-a77078", "operator": "United States Postal Service", "operator:short": "USPS", "operator:type": "public", "operator:wikidata": "Q668687", "ref": "9301000082"}, "type": "Feature"}
{"dataset_attributes": {"@spider": "usps_collection_boxes", "spider:collection_time": "2024-01-04T08:25:05.301423"}, "geometry": {"coordinates": [-119.0416138324, 34.2222365423], "type": "Point"}, "id": "9O4jhgjejLjwGtpQ0GTRssFCJ7U=", "properties": {"@spider": "usps_collection_boxes", "addr:city": "CAMARILLO", "addr:country": "US", "addr:full": "2150 PICKWICK DR", "addr:postcode": "93010", "addr:state": "CA", "amenity": "post_box", "brand": "United States Postal Service", "brand:wikidata": "Q668687", "collection_times": "Mo-Fr 17:30; Sa 16:30", "name": "USPS COLLECTION BOX - APC", "note": "ON 12/24 AND 12/31, THIS BOX MAY BE COLLECTED AS EARLY AS 12 NOON.", "nsi_id": "unitedstatespostalservice-a77078", "operator": "United States Postal Service", "operator:short": "USPS", "operator:type": "public", "operator:wikidata": "Q668687", "ref": "9301000083"}, "type": "Feature"}
{"dataset_attributes": {"@spider": "usps_collection_boxes", "spider:collection_time": "2024-01-04T08:25:05.301423"}, "geometry": {"coordinates": [-119.0416138324, 34.2222365423], "type": "Point"}, "id": "0psktrs6q5ktzAkLULjtFjRjjoY=", "properties": {"@spider": "usps_collection_boxes", "addr:city": "CAMARILLO", "addr:country": "US", "addr:full": "2150 PICKWICK DR", "addr:postcode": "93010", "addr:state": "CA", "amenity": "post_box", "brand": "United States Postal Service", "brand:wikidata": "Q668687", "collection_times": "Mo-Fr 17:30; Sa 16:30", "name": "USPS COLLECTION BOX - PO LOBBY", "note": "ON 12/24 AND 12/31, THIS BOX MAY BE COLLECTED AS EARLY AS 12 NOON.", "nsi_id": "unitedstatespostalservice-a77078", "operator": "United States Postal Service", "operator:short": "USPS", "operator:type": "public", "operator:wikidata": "Q668687", "ref": "9301000089"}, "type": "Feature"}
{"dataset_attributes": {"@spider": "usps_collection_boxes", "spider:collection_time": "2024-01-04T08:25:05.301423"}, "geometry": {"coordinates": [-119.0416138324, 34.2222365423], "type": "Point"}, "id": "aj_mfUGg9kfEHnzIDbE6Wg4-_3Y=", "properties": {"@spider": "usps_collection_boxes", "addr:city": "CAMARILLO", "addr:country": "US", "addr:full": "2150 PICKWICK DR", "addr:postcode": "93010", "addr:state": "CA", "amenity": "post_box", "brand": "United States Postal Service", "brand:wikidata": "Q668687", "collection_times": "Mo-Fr 17:30", "name": "USPS COLLECTION BOX - PO LOBBY", "note": "ON 12/24 AND 12/31, THIS BOX MAY BE COLLECTED AS EARLY AS 12 NOON.", "nsi_id": "unitedstatespostalservice-a77078", "operator": "United States Postal Service", "operator:short": "USPS", "operator:type": "public", "operator:wikidata": "Q668687", "ref": "9301000096"}, "type": "Feature"}
{"dataset_attributes": {"@spider": "usps_collection_boxes", "spider:collection_time": "2024-01-04T08:25:05.301423"}, "geometry": {"coordinates": [-119.031614, 34.20603], "type": "Point"}, "id": "jUDBotbdihNfXWkh2EUkFXKSJD8=", "properties": {"@spider": "usps_collection_boxes", "addr:city": "CAMARILLO", "addr:country": "US", "addr:full": "591 CONSTITUTION AVE", "addr:postcode": "93012", "addr:state": "CA", "amenity": "post_box", "brand": "United States Postal Service", "brand:wikidata": "Q668687", "collection_times": "Mo-Fr 15:00; Sa 10:00", "name": "USPS COLLECTION BOX - BLUE BOX", "note": "ON 12/24 AND 12/31, THIS BOX MAY BE COLLECTED AS EARLY AS 12 NOON.", "nsi_id": "unitedstatespostalservice-a77078", "operator": "United States Postal Service", "operator:short": "USPS", "operator:type": "public", "operator:wikidata": "Q668687", "ref": "9301200000"}, "type": "Feature"}
{"dataset_attributes": {"@spider": "usps_collection_boxes", "spider:collection_time": "2024-01-04T08:25:05.301423"}, "geometry": {"coordinates": [-119.0062113, 34.2243892], "type": "Point"}, "id": "rmyZuOaaYaeF1vW8oXhHgrBFGjI=", "properties": {"@spider": "usps_collection_boxes", "addr:city": "CAMARILLO", "addr:country": "US", "addr:full": "412 DAWSON DR", "addr:postcode": "93012", "addr:state": "CA", "amenity": "post_box", "brand": "United States Postal Service", "brand:wikidata": "Q668687", "collection_times": "Mo-Fr 15:00; Sa 10:00", "name": "USPS COLLECTION BOX - BLUE BOX", "note": "ON 12/24 AND 12/31, THIS BOX MAY BE COLLECTED AS EARLY AS 12 NOON.", "nsi_id": "unitedstatespostalservice-a77078", "operator": "United States Postal Service", "operator:short": "USPS", "operator:type": "public", "operator:wikidata": "Q668687", "ref": "9301200001"}, "type": "Feature"}
{"dataset_attributes": {"@spider": "usps_collection_boxes", "spider:collection_time": "2024-01-04T08:25:05.301423"}, "geometry": {"coordinates": [-119.02038, 34.226637], "type": "Point"}, "id": "BcvLO2TvrQ9L9WWTxI3LMNQowJs=", "properties": {"@spider": "usps_collection_boxes", "addr:city": "CAMARILLO", "addr:country": "US", "addr:full": "3668 VISTA MERCADO", "addr:postcode": "93012", "addr:state": "CA", "amenity": "post_box", "brand": "United States Postal Service", "brand:wikidata": "Q668687", "collection_times": "Mo-Fr 15:00; Sa 10:00", "name": "USPS COLLECTION BOX - BLUE BOX", "note": "ON 12/24 AND 12/31, THIS BOX MAY BE COLLECTED AS EARLY AS 12 NOON.", "nsi_id": "unitedstatespostalservice-a77078", "operator": "United States Postal Service", "operator:short": "USPS", "operator:type": "public", "operator:wikidata": "Q668687", "ref": "9301200002"}, "type": "Feature"}
{"dataset_attributes": {"@spider": "usps_collection_boxes", "spider:collection_time": "2024-01-04T08:25:05.301423"}, "geometry": {"coordinates": [-119.002996, 34.215309], "type": "Point"}, "id": "T-OY1Il21YJzEe91Z1SB5GmrtCw=", "properties": {"@spider": "usps_collection_boxes", "addr:city": "CAMARILLO", "addr:country": "US", "addr:full": "4900 VERDUGO WAY", "addr:postcode": "93012", "addr:state": "CA", "amenity": "post_box", "brand": "United States Postal Service", "brand:wikidata": "Q668687", "collection_times": "Mo-Sa 15:00", "name": "USPS COLLECTION BOX - BLUE BOX", "note": "ON 12/24 AND 12/31, THIS BOX MAY BE COLLECTED AS EARLY AS 12 NOON.", "nsi_id": "unitedstatespostalservice-a77078", "operator": "United States Postal Service", "operator:short": "USPS", "operator:type": "public", "operator:wikidata": "Q668687", "ref": "9301200008"}, "type": "Feature"}
{"dataset_attributes": {"@spider": "usps_collection_boxes", "spider:collection_time": "2024-01-04T08:25:05.301423"}, "geometry": {"coordinates": [-118.988355, 34.223117], "type": "Point"}, "id": "-Ub8RZDtRzoDIxECd628gjHVTl4=", "properties": {"@spider": "usps_collection_boxes", "addr:city": "CAMARILLO", "addr:country": "US", "addr:full": "12000 LEISURE VILLAGE DR", "addr:postcode": "93012", "addr:state": "CA", "amenity": "post_box", "brand": "United States Postal Service", "brand:wikidata": "Q668687", "collection_times": "Mo-Sa 10:00", "name": "USPS COLLECTION BOX - BLUE BOX", "nsi_id": "unitedstatespostalservice-a77078", "operator": "United States Postal Service", "operator:short": "USPS", "operator:type": "public", "operator:wikidata": "Q668687", "ref": "9301200010"}, "type": "Feature"}
{"dataset_attributes": {"@spider": "usps_collection_boxes", "spider:collection_time": "2024-01-04T08:25:05.301423"}, "geometry": {"coordinates": [-118.998015, 34.228514], "type": "Point"}, "id": "MASbhz4_GPDtezKCQksuESP8nYo=", "properties": {"@spider": "usps_collection_boxes", "addr:city": "CAMARILLO", "addr:country": "US", "addr:full": "5227 MISSION OAKS BLVD", "addr:postcode": "93012", "addr:state": "CA", "amenity": "post_box", "brand": "United States Postal Service", "brand:wikidata": "Q668687", "collection_times": "Mo-Sa 10:00", "name": "USPS COLLECTION BOX - BLUE BOX", "nsi_id": "unitedstatespostalservice-a77078", "operator": "United States Postal Service", "operator:short": "USPS", "operator:type": "public", "operator:wikidata": "Q668687", "ref": "9301200012"}, "type": "Feature"}
{"dataset_attributes": {"@spider": "usps_collection_boxes", "spider:collection_time": "2024-01-04T08:25:05.301423"}, "geometry": {"coordinates": [-119.012617, 34.230003], "type": "Point"}, "id": "6a1WqRQ6B4aVJetkXlVfjRTqKTo=", "properties": {"@spider": "usps_collection_boxes", "addr:city": "CAMARILLO", "addr:country": "US", "addr:full": "4100 CALLE TESORO", "addr:postcode": "93012", "addr:state": "CA", "amenity": "post_box", "brand": "United States Postal Service", "brand:wikidata": "Q668687", "collection_times": "Mo-Fr 15:00; Sa 10:00", "name": "USPS COLLECTION BOX - BLUE BOX", "note": "ON 12/24 AND 12/31, THIS BOX MAY BE COLLECTED AS EARLY AS 12 NOON.", "nsi_id": "unitedstatespostalservice-a77078", "operator": "United States Postal Service", "operator:short": "USPS", "operator:type": "public", "operator:wikidata": "Q668687", "ref": "9301200018"}, "type": "Feature"}
{"dataset_attributes": {"@spider": "usps_collection_boxes", "spider:collection_time": "2024-01-04T08:25:05.301423"}, "geometry": {"coordinates": [-119.020382, 34.226632], "type": "Point"}, "id": "MRgzVb6FA62hI_k5ZWA_BQ69Vu8=", "properties": {"@spider": "usps_collection_boxes", "addr:city": "CAMARILLO", "addr:country": "US", "addr:full": "3668 VISTA MERCADO", "addr:postcode": "93012", "addr:state": "CA", "amenity": "post_box", "brand": "United States Postal Service", "brand:wikidata": "Q668687", "collection_times": "Mo-Fr 15:00; Sa 10:00", "name": "USPS COLLECTION BOX - BLUE BOX", "note": "ON 12/24 AND 12/31, THIS BOX MAY BE COLLECTED AS EARLY AS 12 NOON.", "nsi_id": "unitedstatespostalservice-a77078", "operator": "United States Postal Service", "operator:short": "USPS", "operator:type": "public", "operator:wikidata": "Q668687", "ref": "9301200019"}, "type": "Feature"}
{"dataset_attributes": {"@spider": "usps_collection_boxes", "spider:collection_time": "2024-01-04T08:25:05.301423"}, "geometry": {"coordinates": [-119.011096973, 34.198212984], "type": "Point"}, "id": "UZXIq0TL_4U608hMDWJPyP9GAu0=", "properties": {"@spider": "usps_collection_boxes", "addr:city": "CAMARILLO", "addr:country": "US", "addr:full": "4600 CALLE BOLERO", "addr:postcode": "93012", "addr:state": "CA", "amenity": "post_box", "brand": "United States Postal Service", "brand:wikidata": "Q668687", "collection_times": "Mo-Fr 15:00; Sa 10:00", "name": "USPS COLLECTION BOX - BLUE BOX", "note": "ON 12/24 AND 12/31, THIS BOX MAY BE COLLECTED AS EARLY AS 12 NOON.", "nsi_id": "unitedstatespostalservice-a77078", "operator": "United States Postal Service", "operator:short": "USPS", "operator:type": "public", "operator:wikidata": "Q668687", "ref": "9301200020"}, "type": "Feature"}
{"dataset_attributes": {"@spider": "usps_collection_boxes", "spider:collection_time": "2024-01-04T08:25:05.301423"}, "geometry": {"coordinates": [-118.987293, 34.226236], "type": "Point"}, "id": "vU9PtfDrxRX6rSXYQ5H6qcxaw4c=", "properties": {"@spider": "usps_collection_boxes", "addr:city": "CAMARILLO", "addr:country": "US", "addr:full": "5800 SANTA ROSA RD", "addr:postcode": "93012", "addr:state": "CA", "amenity": "post_box", "brand": "United States Postal Service", "brand:wikidata": "Q668687", "collection_times": "Mo-Sa 15:00", "name": "USPS COLLECTION BOX - BLUE BOX", "note": "ON 12/24 AND 12/31, THIS BOX MAY BE COLLECTED AS EARLY AS 12 NOON.", "nsi_id": "unitedstatespostalservice-a77078", "operator": "United States Postal Service", "operator:short": "USPS", "operator:type": "public", "operator:wikidata": "Q668687", "ref": "9301200022"}, "type": "Feature"}
{"dataset_attributes": {"@spider": "usps_collection_boxes", "spider:collection_time": "2024-01-04T08:25:05.301423"}, "geometry": {"coordinates": [-119.5135226811, 34.3947696329], "type": "Point"}, "id": "mTPSdQxhBTm8OyynypFuYy00gb4=", "properties": {"@spider": "usps_collection_boxes", "addr:city": "CARPINTERIA", "addr:country": "US", "addr:full": "5425 CARPINTERIA AVE", "addr:postcode": "93013", "addr:state": "CA", "amenity": "post_box", "brand": "United States Postal Service", "brand:wikidata": "Q668687", "collection_times": "Mo-Fr 17:00; Sa 15:00", "name": "USPS COLLECTION BOX - BLUE BOX", "note": "ON 12/24 AND 12/31, THIS BOX MAY BE COLLECTED AS EARLY AS 12 NOON.", "nsi_id": "unitedstatespostalservice-a77078", "operator": "United States Postal Service", "operator:short": "USPS", "operator:type": "public", "operator:wikidata": "Q668687", "ref": "9301300001"}, "type": "Feature"}
{"dataset_attributes": {"@spider": "usps_collection_boxes", "spider:collection_time": "2024-01-04T08:25:05.301423"}, "geometry": {"coordinates": [-119.519214, 34.398133], "type": "Point"}, "id": "3lRfqxvEVW1Bs4IhTg_d9i4JgZ8=", "properties": {"@spider": "usps_collection_boxes", "addr:city": "CARPINTERIA", "addr:country": "US", "addr:full": "892 LINDEN AVE", "addr:postcode": "93013", "addr:state": "CA", "amenity": "post_box", "brand": "United States Postal Service", "brand:wikidata": "Q668687", "collection_times": "Mo-Fr 15:00; Sa 10:00", "name": "USPS COLLECTION BOX - BLUE BOX", "note": "ON 12/24 AND 12/31, THIS BOX MAY BE COLLECTED AS EARLY AS 12 NOON.", "nsi_id": "unitedstatespostalservice-a77078", "operator": "United States Postal Service", "operator:short": "USPS", "operator:type": "public", "operator:wikidata": "Q668687", "ref": "9301300004"}, "type": "Feature"}
{"dataset_attributes": {"@spider": "usps_collection_boxes", "spider:collection_time": "2024-01-04T08:25:05.301423"}, "geometry": {"coordinates": [-119.5135226811, 34.3947696329], "type": "Point"}, "id": "-7mE3juaBsz1wmwLxJ9lljF8p_U=", "properties": {"@spider": "usps_collection_boxes", "addr:city": "CARPINTERIA", "addr:country": "US", "addr:full": "5425 CARPINTERIA AVE", "addr:postcode": "93013", "addr:state": "CA", "amenity": "post_box", "brand": "United States Postal Service", "brand:wikidata": "Q668687", "collection_times": "Mo-Fr 17:00; Sa 15:00", "name": "USPS COLLECTION BOX - BLUE BOX", "note": "ON 12/24 AND 12/31, THIS BOX MAY BE COLLECTED AS EARLY AS 12 NOON.", "nsi_id": "unitedstatespostalservice-a77078", "operator": "United States Postal Service", "operator:short": "USPS", "operator:type": "public", "operator:wikidata": "Q668687", "ref": "9301300012"}, "type": "Feature"}
{"dataset_attributes": {"@spider": "usps_collection_boxes", "spider:collection_time": "2024-01-04T08:25:05.301423"}, "geometry": {"coordinates": [-119.5135217079, 34.3947695061], "type": "Point"}, "id": "d6BjMB30OLk5_sgj6NGD7kDOfzw=", "properties": {"@spider": "usps_collection_boxes", "addr:city": "CARPINTERIA", "addr:country": "US", "addr:full": "5425 CARPINTERIA AVE", "addr:postcode": "93013", "addr:state": "CA", "amenity": "post_box", "brand": "United States Postal Service", "brand:wikidata": "Q668687", "collection_times": "Mo-Fr 17:00; Sa 15:00", "name": "USPS COLLECTION BOX - PO LOBBY", "note": "ON 12/24 AND 12/31, THIS BOX MAY BE COLLECTED AS EARLY AS 12 NOON.", "nsi_id": "unitedstatespostalservice-a77078", "operator": "United States Postal Service", "operator:short": "USPS", "operator:type": "public", "operator:wikidata": "Q668687", "ref": "9301300017"}, "type": "Feature"}
{"dataset_attributes": {"@spider": "usps_collection_boxes", "spider:collection_time": "2024-01-04T08:25:05.301423"}, "geometry": {"coordinates": [-119.486652, 34.38629], "type": "Point"}, "id": "DWArzdWnspp3EyCWRVITtuc6Yt4=", "properties": {"@spider": "usps_collection_boxes", "addr:city": "CARPINTERIA", "addr:country": "US", "addr:full": "1000 MARK AVE", "addr:postcode": "93013", "addr:state": "CA", "amenity": "post_box", "brand": "United States Postal Service", "brand:wikidata": "Q668687", "collection_times": "Mo-Fr 15:00; Sa 10:00", "name": "USPS COLLECTION BOX - BLUE BOX", "note": "ON 12/24 AND 12/31, THIS BOX MAY BE COLLECTED AS EARLY AS 12 NOON.", "nsi_id": "unitedstatespostalservice-a77078", "operator": "United States Postal Service", "operator:short": "USPS", "operator:type": "public", "operator:wikidata": "Q668687", "ref": "9301300018"}, "type": "Feature"}
{"dataset_attributes": {"@spider": "usps_collection_boxes", "spider:collection_time": "2024-01-04T08:25:05.301423"}, "geometry": {"coordinates": [-119.5135217079, 34.3947695061], "type": "Point"}, "id": "1rMM-nz1Xjn-sHP1hv5Bd6NqX4Y=", "properties": {"@spider": "usps_collection_boxes", "addr:city": "CARPINTERIA", "addr:country": "US", "addr:full": "5425 CARPINTERIA AVE", "addr:postcode": "93013", "addr:state": "CA", "amenity": "post_box", "brand": "United States Postal Service", "brand:wikidata": "Q668687", "collection_times": "Mo-Fr 17:00", "name": "USPS COLLECTION BOX - PO LOBBY", "note": "ON 12/24 AND 12/31, THIS BOX MAY BE COLLECTED AS EARLY AS 12 NOON.", "nsi_id": "unitedstatespostalservice-a77078", "operator": "United States Postal Service", "operator:short": "USPS", "operator:type": "public", "operator:wikidata": "Q668687", "ref": "9301300022"}, "type": "Feature"}
{"dataset_attributes": {"@spider": "usps_collection_boxes", "spider:collection_time": "2024-01-04T08:25:05.301423"}, "geometry": {"coordinates": [-118.9135960118, 34.3996359467], "type": "Point"}, "id": "n-WsJ_B55mggQpiGFlAh8dmZNzU=", "properties": {"@spider": "usps_collection_boxes", "addr:city": "FILLMORE", "addr:country": "US", "addr:full": "333 CENTRAL AVE", "addr:postcode": "93015", "addr:state": "CA", "amenity": "post_box", "brand": "United States Postal Service", "brand:wikidata": "Q668687", "collection_times": "Mo-Fr 17:00; Sa 15:00", "name": "USPS COLLECTION BOX - BLUE BOX", "note": "ON 12/24 AND 12/31, THIS BOX MAY BE COLLECTED AS EARLY AS 12 NOON.", "nsi_id": "unitedstatespostalservice-a77078", "operator": "United States Postal Service", "operator:short": "USPS", "operator:type": "public", "operator:wikidata": "Q668687", "ref": "9301500002"}, "type": "Feature"}
{"dataset_attributes": {"@spider": "usps_collection_boxes", "spider:collection_time": "2024-01-04T08:25:05.301423"}, "geometry": {"coordinates": [-118.9135960118, 34.3996359467], "type": "Point"}, "id": "_Vkg395CrPOYnEC-9D3S4vFVCMM=", "properties": {"@spider": "usps_collection_boxes", "addr:city": "FILLMORE", "addr:country": "US", "addr:full": "333 CENTRAL AVE", "addr:postcode": "93015", "addr:state": "CA", "amenity": "post_box", "brand": "United States Postal Service", "brand:wikidata": "Q668687", "collection_times": "Mo-Fr 17:00; Sa 15:00", "name": "USPS COLLECTION BOX - PO LOBBY", "note": "ON 12/24 AND 12/31, THIS BOX MAY BE COLLECTED AS EARLY AS 12 NOON.", "nsi_id": "unitedstatespostalservice-a77078", "operator": "United States Postal Service", "operator:short": "USPS", "operator:type": "public", "operator:wikidata": "Q668687", "ref": "9301500011"}, "type": "Feature"}
{"dataset_attributes": {"@spider": "usps_collection_boxes", "spider:collection_time": "2024-01-04T08:25:05.301423"}, "geometry": {"coordinates": [-118.9135960118, 34.3996359467], "type": "Point"}, "id": "2A5y7iv_EMyKxm9fm0pZKhxJTEk=", "properties": {"@spider": "usps_collection_boxes", "addr:city": "FILLMORE", "addr:country": "US", "addr:full": "333 CENTRAL AVE", "addr:postcode": "93015", "addr:state": "CA", "amenity": "post_box", "brand": "United States Postal Service", "brand:wikidata": "Q668687", "collection_times": "Mo-Fr 17:00; Sa 15:00", "name": "USPS COLLECTION BOX - BLUE BOX", "note": "ON 12/24 AND 12/31, THIS BOX MAY BE COLLECTED AS EARLY AS 12 NOON.", "nsi_id": "unitedstatespostalservice-a77078", "operator": "United States Postal Service", "operator:short": "USPS", "operator:type": "public", "operator:wikidata": "Q668687", "ref": "9301500012"}, "type": "Feature"}
{"dataset_attributes": {"@spider": "usps_collection_boxes", "spider:collection_time": "2024-01-04T08:25:05.301423"}, "geometry": {"coordinates": [-118.9135960118, 34.3996359467], "type": "Point"}, "id": "YQw7vMupSAny1mhoAL7Cc_frck8=", "properties": {"@spider": "usps_collection_boxes", "addr:city": "FILLMORE", "addr:country": "US", "addr:full": "333 CENTRAL AVE", "addr:postcode": "93015", "addr:state": "CA", "amenity": "post_box", "brand": "United States Postal Service", "brand:wikidata": "Q668687", "collection_times": "Mo-Fr 17:00", "name": "USPS COLLECTION BOX - PO LOBBY", "note": "ON 12/24 AND 12/31, THIS BOX MAY BE COLLECTED AS EARLY AS 12 NOON.", "nsi_id": "unitedstatespostalservice-a77078", "operator": "United States Postal Service", "operator:short": "USPS", "operator:type": "public", "operator:wikidata": "Q668687", "ref": "9301500013"}, "type": "Feature"}
{"dataset_attributes": {"@spider": "usps_collection_boxes", "spider:collection_time": "2024-01-04T08:25:05.301423"}, "geometry": {"coordinates": [-118.873349026, 34.278902534], "type": "Point"}, "id": "UENP1LTSdHNA06pkRfLAjP-wiDE=", "properties": {"@spider": "usps_collection_boxes", "addr:city": "MOORPARK", "addr:country": "US", "addr:full": "530 NEW LOS ANGELES AVE", "addr:postcode": "93021", "addr:state": "CA", "amenity": "post_box", "brand": "United States Postal Service", "brand:wikidata": "Q668687", "collection_times": "Mo-Sa 10:00", "name": "USPS COLLECTION BOX - BLUE BOX", "nsi_id": "unitedstatespostalservice-a77078", "operator": "United States Postal Service", "operator:short": "USPS", "operator:type": "public", "operator:wikidata": "Q668687", "ref": "9302100014"}, "type": "Feature"}
{"dataset_attributes": {"@spider": "usps_collection_boxes", "spider:collection_time": "2024-01-04T08:25:05.301423"}, "geometry": {"coordinates": [-118.89868, 34.267217], "type": "Point"}, "id": "pi9tiHoB2qgVeIvTaWa6TWRYo_Y=", "properties": {"@spider": "usps_collection_boxes", "addr:city": "MOORPARK", "addr:country": "US", "addr:full": "4243 TIERRA REJADA RD", "addr:postcode": "93021", "addr:state": "CA", "amenity": "post_box", "brand": "United States Postal Service", "brand:wikidata": "Q668687", "collection_times": "Mo-Sa 10:00", "name": "USPS COLLECTION BOX - BLUE BOX", "nsi_id": "unitedstatespostalservice-a77078", "operator": "United States Postal Service", "operator:short": "USPS", "operator:type": "public", "operator:wikidata": "Q668687", "ref": "9302100020"}, "type": "Feature"}
{"dataset_attributes": {"@spider": "usps_collection_boxes", "spider:collection_time": "2024-01-04T08:25:05.301423"}, "geometry": {"coordinates": [-118.883629, 34.285137], "type": "Point"}, "id": "wCbpsXcbjW0oCznAxxkryPG_uz0=", "properties": {"@spider": "usps_collection_boxes", "addr:city": "MOORPARK", "addr:country": "US", "addr:full": "100 W HIGH ST", "addr:postcode": "93021", "addr:state": "CA", "amenity": "post_box", "brand": "United States Postal Service", "brand:wikidata": "Q668687", "collection_times": "Mo-Fr 17:00; Sa 15:30", "name": "USPS COLLECTION BOX - BLUE BOX", "note": "ON 12/24 AND 12/31, THIS BOX MAY BE COLLECTED AS EARLY AS 12 NOON.", "nsi_id": "unitedstatespostalservice-a77078", "operator": "United States Postal Service", "operator:short": "USPS", "operator:type": "public", "operator:wikidata": "Q668687", "ref": "9302100025"}, "type": "Feature"}
{"dataset_attributes": {"@spider": "usps_collection_boxes", "spider:collection_time": "2024-01-04T08:25:05.301423"}, "geometry": {"coordinates": [-118.883599, 34.285174], "type": "Point"}, "id": "SkMMejmsGmMTJJ5jQK8eSEv2lLI=", "properties": {"@spider": "usps_collection_boxes", "addr:city": "MOORPARK", "addr:country": "US", "addr:full": "100 W HIGH ST", "addr:postcode": "93021", "addr:state": "CA", "amenity": "post_box", "brand": "United States Postal Service", "brand:wikidata": "Q668687", "collection_times": "Mo-Fr 17:00; Sa 15:30", "name": "USPS COLLECTION BOX - BLUE BOX", "note": "ON 12/24 AND 12/31, THIS BOX MAY BE COLLECTED AS EARLY AS 12 NOON.", "nsi_id": "unitedstatespostalservice-a77078", "operator": "United States Postal Service", "operator:short": "USPS", "operator:type": "public", "operator:wikidata": "Q668687", "ref": "9302100026"}, "type": "Feature"}
{"dataset_attributes": {"@spider": "usps_collection_boxes", "spider:collection_time": "2024-01-04T08:25:05.301423"}, "geometry": {"coordinates": [-118.883742, 34.28516], "type": "Point"}, "id": "ftFFiMRh2OUTNh_EY-wX6cFhXvU=", "properties": {"@spider": "usps_collection_boxes", "addr:city": "MOORPARK", "addr:country": "US", "addr:full": "100 W HIGH ST", "addr:postcode": "93021", "addr:state": "CA", "amenity": "post_box", "brand": "United States Postal Service", "brand:wikidata": "Q668687", "collection_times": "Mo-Fr 17:00; Sa 15:30", "name": "USPS COLLECTION BOX - PO LOBBY", "note": "ON 12/24 AND 12/31, THIS BOX MAY BE COLLECTED AS EARLY AS 12 NOON.", "nsi_id": "unitedstatespostalservice-a77078", "operator": "United States Postal Service", "operator:short": "USPS", "operator:type": "public", "operator:wikidata": "Q668687", "ref": "9302100027"}, "type": "Feature"}
{"dataset_attributes": {"@spider": "usps_collection_boxes", "spider:collection_time": "2024-01-04T08:25:05.301423"}, "geometry": {"coordinates": [-118.883737, 34.28517], "type": "Point"}, "id": "vnJu0d4JXFOC_M0rFDDzqL_x36M=", "properties": {"@spider": "usps_collection_boxes", "addr:city": "MOORPARK", "addr:country": "US", "addr:full": "100 W HIGH ST", "addr:postcode": "93021", "addr:state": "CA", "amenity": "post_box", "brand": "United States Postal Service", "brand:wikidata": "Q668687", "collection_times": "Mo-Fr 17:00; Sa 15:30", "name": "USPS COLLECTION BOX - PO LOBBY", "note": "ON 12/24 AND 12/31, THIS BOX MAY BE COLLECTED AS EARLY AS 12 NOON.", "nsi_id": "unitedstatespostalservice-a77078", "operator": "United States Postal Service", "operator:short": "USPS", "operator:type": "public", "operator:wikidata": "Q668687", "ref": "9302100028"}, "type": "Feature"}
{"dataset_attributes": {"@spider": "usps_collection_boxes", "spider:collection_time": "2024-01-04T08:25:05.301423"}, "geometry": {"coordinates": [-118.8825547159, 34.2853087346], "type": "Point"}, "id": "C6eMBqkjNoOH9rA9WcZFO2_skQA=", "properties": {"@spider": "usps_collection_boxes", "addr:city": "MOORPARK", "addr:country": "US", "addr:full": "110 W HIGH ST", "addr:postcode": "93021", "addr:state": "CA", "amenity": "post_box", "brand": "United States Postal Service", "brand:wikidata": "Q668687", "collection_times": "Mo-Fr 17:00", "name": "USPS COLLECTION BOX - PO LOBBY", "note": "ON 12/24 AND 12/31, THIS BOX MAY BE COLLECTED AS EARLY AS 12 NOON.", "nsi_id": "unitedstatespostalservice-a77078", "operator": "United States Postal Service", "operator:short": "USPS", "operator:type": "public", "operator:wikidata": "Q668687", "ref": "9302100032"}, "type": "Feature"}
{"dataset_attributes": {"@spider": "usps_collection_boxes", "spider:collection_time": "2024-01-04T08:25:05.301423"}, "geometry": {"coordinates": [-119.3011711848, 34.3927527075], "type": "Point"}, "id": "fJCejPA1ckbbgTllw5G5Iuyx3bM=", "properties": {"@spider": "usps_collection_boxes", "addr:city": "OAK VIEW", "addr:country": "US", "addr:full": "360 VENTURA AVE", "addr:postcode": "93022", "addr:state": "CA", "amenity": "post_box", "brand": "United States Postal Service", "brand:wikidata": "Q668687", "collection_times": "Mo-Fr 16:30; Sa 12:00", "name": "USPS COLLECTION BOX - BLUE BOX", "note": "ON 12/24 AND 12/31, THIS BOX MAY BE COLLECTED AS EARLY AS 12 NOON.", "nsi_id": "unitedstatespostalservice-a77078", "operator": "United States Postal Service", "operator:short": "USPS", "operator:type": "public", "operator:wikidata": "Q668687", "ref": "9302200005"}, "type": "Feature"}
{"dataset_attributes": {"@spider": "usps_collection_boxes", "spider:collection_time": "2024-01-04T08:25:05.301423"}, "geometry": {"coordinates": [-119.3011711848, 34.3927527075], "type": "Point"}, "id": "n0iXHVtCX0tkjzmV6j6_sUyk4LA=", "properties": {"@spider": "usps_collection_boxes", "addr:city": "OAK VIEW", "addr:country": "US", "addr:full": "360 VENTURA AVE", "addr:postcode": "93022", "addr:state": "CA", "amenity": "post_box", "brand": "United States Postal Service", "brand:wikidata": "Q668687", "collection_times": "Mo-Fr 16:30; Sa 12:00", "name": "USPS COLLECTION BOX - BLUE BOX", "note": "ON 12/24 AND 12/31, THIS BOX MAY BE COLLECTED AS EARLY AS 12 NOON.", "nsi_id": "unitedstatespostalservice-a77078", "operator": "United States Postal Service", "operator:short": "USPS", "operator:type": "public", "operator:wikidata": "Q668687", "ref": "9302200009"}, "type": "Feature"}
{"dataset_attributes": {"@spider": "usps_collection_boxes", "spider:collection_time": "2024-01-04T08:25:05.301423"}, "geometry": {"coordinates": [-119.3011711848, 34.3927527075], "type": "Point"}, "id": "uRXVgc1_Qycl4ApNnIzJ_n6_Sjg=", "properties": {"@spider": "usps_collection_boxes", "addr:city": "OAK VIEW", "addr:country": "US", "addr:full": "360 VENTURA AVE", "addr:postcode": "93022", "addr:state": "CA", "amenity": "post_box", "brand": "United States Postal Service", "brand:wikidata": "Q668687", "collection_times": "Mo-Fr 16:30; Sa 12:00", "name": "USPS COLLECTION BOX - PO LOBBY", "note": "ON 12/24 AND 12/31, THIS BOX MAY BE COLLECTED AS EARLY AS 12 NOON.", "nsi_id": "unitedstatespostalservice-a77078", "operator": "United States Postal Service", "operator:short": "USPS", "operator:type": "public", "operator:wikidata": "Q668687", "ref": "9302200010"}, "type": "Feature"}
{"dataset_attributes": {"@spider": "usps_collection_boxes", "spider:collection_time": "2024-01-04T08:25:05.301423"}, "geometry": {"coordinates": [-119.3011711848, 34.3927527075], "type": "Point"}, "id": "zBO5GBAqpGdXoJI11FlYub2ai6E=", "properties": {"@spider": "usps_collection_boxes", "addr:city": "OAK VIEW", "addr:country": "US", "addr:full": "360 VENTURA AVE", "addr:postcode": "93022", "addr:state": "CA", "amenity": "post_box", "brand": "United States Postal Service", "brand:wikidata": "Q668687", "collection_times": "Mo-Fr 16:00", "name": "USPS COLLECTION BOX - PO LOBBY", "note": "ON 12/24 AND 12/31, THIS BOX MAY BE COLLECTED AS EARLY AS 12 NOON.", "nsi_id": "unitedstatespostalservice-a77078", "operator": "United States Postal Service", "operator:short": "USPS", "operator:type": "public", "operator:wikidata": "Q668687", "ref": "9302200011"}, "type": "Feature"}
{"dataset_attributes": {"@spider": "usps_collection_boxes", "spider:collection_time": "2024-01-04T08:25:05.301423"}, "geometry": {"coordinates": [-119.245680524, 34.4477515317], "type": "Point"}, "id": "W0wXwi0jiRFFuZd8WDNfIGhnDC4=", "properties": {"@spider": "usps_collection_boxes", "addr:city": "OJAI", "addr:country": "US", "addr:full": "201 E OJAI AVE", "addr:postcode": "93023", "addr:state": "CA", "amenity": "post_box", "brand": "United States Postal Service", "brand:wikidata": "Q668687", "collection_times": "Mo-Fr 17:00; Sa 16:00", "name": "USPS COLLECTION BOX - BLUE BOX", "note": "ON 12/24 AND 12/31, THIS BOX MAY BE COLLECTED AS EARLY AS 12 NOON.", "nsi_id": "unitedstatespostalservice-a77078", "operator": "United States Postal Service", "operator:short": "USPS", "operator:type": "public", "operator:wikidata": "Q668687", "ref": "9302300001"}, "type": "Feature"}
{"dataset_attributes": {"@spider": "usps_collection_boxes", "spider:collection_time": "2024-01-04T08:25:05.301423"}, "geometry": {"coordinates": [-119.264257, 34.441887], "type": "Point"}, "id": "5L6MbSo28QHuMtsZKKemkx5srnc=", "properties": {"@spider": "usps_collection_boxes", "addr:city": "OJAI", "addr:country": "US", "addr:full": "1215 MARICOPA HWY", "addr:postcode": "93023", "addr:state": "CA", "amenity": "post_box", "brand": "United States Postal Service", "brand:wikidata": "Q668687", "collection_times": "Mo-Fr 15:00; Sa 10:00", "name": "USPS COLLECTION BOX - BLUE BOX", "note": "ON 12/24 AND 12/31, THIS BOX MAY BE COLLECTED AS EARLY AS 12 NOON.", "nsi_id": "unitedstatespostalservice-a77078", "operator": "United States Postal Service", "operator:short": "USPS", "operator:type": "public", "operator:wikidata": "Q668687", "ref": "9302300008"}, "type": "Feature"}
{"dataset_attributes": {"@spider": "usps_collection_boxes", "spider:collection_time": "2024-01-04T08:25:05.301423"}, "geometry": {"coordinates": [-119.24553, 34.448552], "type": "Point"}, "id": "H8KgHFxuvUxGw-rgy3VKYPHOEGA=", "properties": {"@spider": "usps_collection_boxes", "addr:city": "OJAI", "addr:country": "US", "addr:full": "200 MATILIJA ST", "addr:postcode": "93023", "addr:state": "CA", "amenity": "post_box", "brand": "United States Postal Service", "brand:wikidata": "Q668687", "collection_times": "Mo-Fr 15:00; Sa 10:00", "name": "USPS COLLECTION BOX - BLUE BOX", "note": "ON 12/24 AND 12/31, THIS BOX MAY BE COLLECTED AS EARLY AS 12 NOON.", "nsi_id": "unitedstatespostalservice-a77078", "operator": "United States Postal Service", "operator:short": "USPS", "operator:type": "public", "operator:wikidata": "Q668687", "ref": "9302300010"}, "type": "Feature"}
{"dataset_attributes": {"@spider": "usps_collection_boxes", "spider:collection_time": "2024-01-04T08:25:05.301423"}, "geometry": {"coordinates": [-119.243067, 34.453521], "type": "Point"}, "id": "w9Q_1lSGACP-AKX5mY7Tlddv-iI=", "properties": {"@spider": "usps_collection_boxes", "addr:city": "OJAI", "addr:country": "US", "addr:full": "701 N MONTGOMERY ST", "addr:postcode": "93023", "addr:state": "CA", "amenity": "post_box", "brand": "United States Postal Service", "brand:wikidata": "Q668687", "collection_times": "Mo-Sa 10:00", "name": "USPS COLLECTION BOX - BLUE BOX", "nsi_id": "unitedstatespostalservice-a77078", "operator": "United States Postal Service", "operator:short": "USPS", "operator:type": "public", "operator:wikidata": "Q668687", "ref": "9302300011"}, "type": "Feature"}
{"dataset_attributes": {"@spider": "usps_collection_boxes", "spider:collection_time": "2024-01-04T08:25:05.301423"}, "geometry": {"coordinates": [-119.243417, 34.448042], "type": "Point"}, "id": "J3jOXI3iEG9kA9Jze9wNHBhLr7M=", "properties": {"@spider": "usps_collection_boxes", "addr:city": "OJAI", "addr:country": "US", "addr:full": "360 E OJAI AVE", "addr:postcode": "93023", "addr:state": "CA", "amenity": "post_box", "brand": "United States Postal Service", "brand:wikidata": "Q668687", "collection_times": "Mo-Fr 15:00; Sa 10:00", "name": "USPS COLLECTION BOX - BLUE BOX", "note": "ON 12/24 AND 12/31, THIS BOX MAY BE COLLECTED AS EARLY AS 12 NOON.", "nsi_id": "unitedstatespostalservice-a77078", "operator": "United States Postal Service", "operator:short": "USPS", "operator:type": "public", "operator:wikidata": "Q668687", "ref": "9302300014"}, "type": "Feature"}
{"dataset_attributes": {"@spider": "usps_collection_boxes", "spider:collection_time": "2024-01-04T08:25:05.301423"}, "geometry": {"coordinates": [-119.245680524, 34.4477515317], "type": "Point"}, "id": "RJrMS6Xr6jd3o2mBdO0jLhDGEHM=", "properties": {"@spider": "usps_collection_boxes", "addr:city": "OJAI", "addr:country": "US", "addr:full": "201 E OJAI AVE", "addr:postcode": "93023", "addr:state": "CA", "amenity": "post_box", "brand": "United States Postal Service", "brand:wikidata": "Q668687", "collection_times": "Mo-Fr 17:00", "name": "USPS COLLECTION BOX - PO LOBBY", "note": "ON 12/24 AND 12/31, THIS BOX MAY BE COLLECTED AS EARLY AS 12 NOON.", "nsi_id": "unitedstatespostalservice-a77078", "operator": "United States Postal Service", "operator:short": "USPS", "operator:type": "public", "operator:wikidata": "Q668687", "ref": "9302300015"}, "type": "Feature"}
{"dataset_attributes": {"@spider": "usps_collection_boxes", "spider:collection_time": "2024-01-04T08:25:05.301423"}, "geometry": {"coordinates": [-119.1808567223, 34.2205383353], "type": "Point"}, "id": "GXUJKcVyXdYIsjxY6CbjfolHv00=", "properties": {"@spider": "usps_collection_boxes", "addr:city": "OXNARD", "addr:country": "US", "addr:full": "1961 N C ST", "addr:postcode": "93030", "addr:state": "CA", "amenity": "post_box", "brand": "United States Postal Service", "brand:wikidata": "Q668687", "collection_times": "Mo-Fr 17:30; Sa 17:00", "name": "USPS COLLECTION BOX - BLUE BOX", "note": "ON 12/24 AND 12/31, THIS BOX MAY BE COLLECTED AS EARLY AS 12 NOON.", "nsi_id": "unitedstatespostalservice-a77078", "operator": "United States Postal Service", "operator:short": "USPS", "operator:type": "public", "operator:wikidata": "Q668687", "ref": "9303000000"}, "type": "Feature"}
{"dataset_attributes": {"@spider": "usps_collection_boxes", "spider:collection_time": "2024-01-04T08:25:05.301423"}, "geometry": {"coordinates": [-119.1808567223, 34.2205383353], "type": "Point"}, "id": "7bvd-WP-aNK3nme7hxciQZ2ClZU=", "properties": {"@spider": "usps_collection_boxes", "addr:city": "OXNARD", "addr:country": "US", "addr:full": "1961 N C ST", "addr:postcode": "93030", "addr:state": "CA", "amenity": "post_box", "brand": "United States Postal Service", "brand:wikidata": "Q668687", "collection_times": "Mo-Fr 17:30; Sa 17:00", "name": "USPS COLLECTION BOX - BLUE BOX", "note": "ON 12/24 AND 12/31, THIS BOX MAY BE COLLECTED AS EARLY AS 12 NOON.", "nsi_id": "unitedstatespostalservice-a77078", "operator": "United States Postal Service", "operator:short": "USPS", "operator:type": "public", "operator:wikidata": "Q668687", "ref": "9303000001"}, "type": "Feature"}
{"dataset_attributes": {"@spider": "usps_collection_boxes", "spider:collection_time": "2024-01-04T08:25:05.301423"}, "geometry": {"coordinates": [-119.1808567223, 34.2205383353], "type": "Point"}, "id": "JUEdAudjGG79HTWjxA3iT2yOBZg=", "properties": {"@spider": "usps_collection_boxes", "addr:city": "OXNARD", "addr:country": "US", "addr:full": "1961 N C ST", "addr:postcode": "93030", "addr:state": "CA", "amenity": "post_box", "brand": "United States Postal Service", "brand:wikidata": "Q668687", "collection_times": "Mo-Fr 17:30; Sa 17:00", "name": "USPS COLLECTION BOX - BLUE BOX", "note": "ON 12/24 AND 12/31, THIS BOX MAY BE COLLECTED AS EARLY AS 12 NOON.", "nsi_id": "unitedstatespostalservice-a77078", "operator": "United States Postal Service", "operator:short": "USPS", "operator:type": "public", "operator:wikidata": "Q668687", "ref": "9303000002"}, "type": "Feature"}
{"dataset_attributes": {"@spider": "usps_collection_boxes", "spider:collection_time": "2024-01-04T08:25:05.301423"}, "geometry": {"coordinates": [-119.178353, 34.19911], "type": "Point"}, "id": "2mYeGHwtZUWOb9OoYrbAiKPAY1Y=", "properties": {"@spider": "usps_collection_boxes", "addr:city": "OXNARD", "addr:country": "US", "addr:full": "200 4TH ST", "addr:postcode": "93030", "addr:state": "CA", "amenity": "post_box", "brand": "United States Postal Service", "brand:wikidata": "Q668687", "collection_times": "Mo-Fr 17:00; Sa 14:00", "name": "USPS COLLECTION BOX - EXPRESS", "note": "ON 12/24 AND 12/31, THIS BOX MAY BE COLLECTED AS EARLY AS 12 NOON.", "nsi_id": "unitedstatespostalservice-a77078", "operator": "United States Postal Service", "operator:short": "USPS", "operator:type": "public", "operator:wikidata": "Q668687", "ref": "9303000011"}, "type": "Feature"}
{"dataset_attributes": {"@spider": "usps_collection_boxes", "spider:collection_time": "2024-01-04T08:25:05.301423"}, "geometry": {"coordinates": [-119.178362, 34.199096], "type": "Point"}, "id": "3uKoNRugmI116Mr60a8PrTGYjGk=", "properties": {"@spider": "usps_collection_boxes", "addr:city": "OXNARD", "addr:country": "US", "addr:full": "200 4TH ST", "addr:postcode": "93030", "addr:state": "CA", "amenity": "post_box", "brand": "United States Postal Service", "brand:wikidata": "Q668687", "collection_times": "Mo-Fr 17:00; Sa 14:00", "name": "USPS COLLECTION BOX - BLUE BOX", "note": "ON 12/24 AND 12/31, THIS BOX MAY BE COLLECTED AS EARLY AS 12 NOON.", "nsi_id": "unitedstatespostalservice-a77078", "operator": "United States Postal Service", "operator:short": "USPS", "operator:type": "public", "operator:wikidata": "Q668687", "ref": "9303000012"}, "type": "Feature"}
{"dataset_attributes": {"@spider": "usps_collection_boxes", "spider:collection_time": "2024-01-04T08:25:05.301423"}, "geometry": {"coordinates": [-119.1808567223, 34.2205383353], "type": "Point"}, "id": "Syu1jRV-NT1a8lxRirz6Hmd0WQ8=", "properties": {"@spider": "usps_collection_boxes", "addr:city": "OXNARD", "addr:country": "US", "addr:full": "1961 N C ST", "addr:postcode": "93030", "addr:state": "CA", "amenity": "post_box", "brand": "United States Postal Service", "brand:wikidata": "Q668687", "collection_times": "Mo-Fr 17:30; Sa 17:00", "name": "USPS COLLECTION BOX - APC", "note": "ON 12/24 AND 12/31, THIS BOX MAY BE COLLECTED AS EARLY AS 12 NOON.", "nsi_id": "unitedstatespostalservice-a77078", "operator": "United States Postal Service", "operator:short": "USPS", "operator:type": "public", "operator:wikidata": "Q668687", "ref": "9303000102"}, "type": "Feature"}
{"dataset_attributes": {"@spider": "usps_collection_boxes", "spider:collection_time": "2024-01-04T08:25:05.301423"}, "geometry": {"coordinates": [-119.194592565, 34.209345671], "type": "Point"}, "id": "4NI2lDKG6xy_qD5MYWV42c1KUWk=", "properties": {"@spider": "usps_collection_boxes", "addr:city": "OXNARD", "addr:country": "US", "addr:full": "716 N VENTURA RD", "addr:postcode": "93030", "addr:state": "CA", "amenity": "post_box", "brand": "United States Postal Service", "brand:wikidata": "Q668687", "collection_times": "Mo-Sa 10:00", "name": "USPS COLLECTION BOX - BLUE BOX", "nsi_id": "unitedstatespostalservice-a77078", "operator": "United States Postal Service", "operator:short": "USPS", "operator:type": "public", "operator:wikidata": "Q668687", "ref": "9303000104"}, "type": "Feature"}
{"dataset_attributes": {"@spider": "usps_collection_boxes", "spider:collection_time": "2024-01-04T08:25:05.301423"}, "geometry": {"coordinates": [-119.1808567223, 34.2205383353], "type": "Point"}, "id": "w91XTn-f_jw8m1qSW71HlHY-hO4=", "properties": {"@spider": "usps_collection_boxes", "addr:city": "OXNARD", "addr:country": "US", "addr:full": "1961 N C ST", "addr:postcode": "93030", "addr:state": "CA", "amenity": "post_box", "brand": "United States Postal Service", "brand:wikidata": "Q668687", "collection_times": "Mo-Fr 17:30; Sa 17:00", "name": "USPS COLLECTION BOX - PO LOBBY", "note": "ON 12/24 AND 12/31, THIS BOX MAY BE COLLECTED AS EARLY AS 12 NOON.", "nsi_id": "unitedstatespostalservice-a77078", "operator": "United States Postal Service", "operator:short": "USPS", "operator:type": "public", "operator:wikidata": "Q668687", "ref": "9303000106"}, "type": "Feature"}
{"dataset_attributes": {"@spider": "usps_collection_boxes", "spider:collection_time": "2024-01-04T08:25:05.301423"}, "geometry": {"coordinates": [-119.1808567223, 34.2205383353], "type": "Point"}, "id": "0JLGV6GfoOnbxYLevtg-1BS5CAQ=", "properties": {"@spider": "usps_collection_boxes", "addr:city": "OXNARD", "addr:country": "US", "addr:full": "1961 N C ST", "addr:postcode": "93030", "addr:state": "CA", "amenity": "post_box", "brand": "United States Postal Service", "brand:wikidata": "Q668687", "collection_times": "Mo-Fr 17:30; Sa 17:00", "name": "USPS COLLECTION BOX - APC", "note": "ON 12/24 AND 12/31, THIS BOX MAY BE COLLECTED AS EARLY AS 12 NOON.", "nsi_id": "unitedstatespostalservice-a77078", "operator": "United States Postal Service", "operator:short": "USPS", "operator:type": "public", "operator:wikidata": "Q668687", "ref": "9303000107"}, "type": "Feature"}
{"dataset_attributes": {"@spider": "usps_collection_boxes", "spider:collection_time": "2024-01-04T08:25:05.301423"}, "geometry": {"coordinates": [-119.1808567223, 34.2205383353], "type": "Point"}, "id": "yPMICByiLY5ibXl_cWNMOteZIK0=", "properties": {"@spider": "usps_collection_boxes", "addr:city": "OXNARD", "addr:country": "US", "addr:full": "1961 N C ST", "addr:postcode": "93030", "addr:state": "CA", "amenity": "post_box", "brand": "United States Postal Service", "brand:wikidata": "Q668687", "collection_times": "Mo-Fr 18:30", "name": "USPS COLLECTION BOX - PO LOBBY", "note": "ON 12/24 AND 12/31, THIS BOX MAY BE COLLECTED AS EARLY AS 12 NOON.", "nsi_id": "unitedstatespostalservice-a77078", "operator": "United States Postal Service", "operator:short": "USPS", "operator:type": "public", "operator:wikidata": "Q668687", "ref": "9303000116"}, "type": "Feature"}
{"dataset_attributes": {"@spider": "usps_collection_boxes", "spider:collection_time": "2024-01-04T08:25:05.301423"}, "geometry": {"coordinates": [-119.1785142361, 34.199596252], "type": "Point"}, "id": "7VhSVHCOXsXnOIm_cvapkAZgJqw=", "properties": {"@spider": "usps_collection_boxes", "addr:city": "OXNARD", "addr:country": "US", "addr:full": "350 S A ST", "addr:postcode": "93030", "addr:state": "CA", "amenity": "post_box", "brand": "United States Postal Service", "brand:wikidata": "Q668687", "collection_times": "Mo-Fr 17:00", "name": "USPS COLLECTION BOX - PO LOBBY", "note": "ON 12/24 AND 12/31, THIS BOX MAY BE COLLECTED AS EARLY AS 12 NOON.", "nsi_id": "unitedstatespostalservice-a77078", "operator": "United States Postal Service", "operator:short": "USPS", "operator:type": "public", "operator:wikidata": "Q668687", "ref": "9303000117"}, "type": "Feature"}
{"dataset_attributes": {"@spider": "usps_collection_boxes", "spider:collection_time": "2024-01-04T08:25:05.301423"}, "geometry": {"coordinates": [-119.177447, 34.176343], "type": "Point"}, "id": "5hs6pbVcQ1bdqEijREj3nG_UbkI=", "properties": {"@spider": "usps_collection_boxes", "addr:city": "OXNARD", "addr:country": "US", "addr:full": "2532 SAVIERS RD", "addr:postcode": "93033", "addr:state": "CA", "amenity": "post_box", "brand": "United States Postal Service", "brand:wikidata": "Q668687", "collection_times": "Mo-Fr 17:00; Sa 14:00", "name": "USPS COLLECTION BOX - BLUE BOX", "note": "ON 12/24 AND 12/31, THIS BOX MAY BE COLLECTED AS EARLY AS 12 NOON.", "nsi_id": "unitedstatespostalservice-a77078", "operator": "United States Postal Service", "operator:short": "USPS", "operator:type": "public", "operator:wikidata": "Q668687", "ref": "9303300001"}, "type": "Feature"}
{"dataset_attributes": {"@spider": "usps_collection_boxes", "spider:collection_time": "2024-01-04T08:25:05.301423"}, "geometry": {"coordinates": [-119.177447, 34.176343], "type": "Point"}, "id": "jizU6wtAYGWku5wN__wVzPst1bc=", "properties": {"@spider": "usps_collection_boxes", "addr:city": "OXNARD", "addr:country": "US", "addr:full": "2532 SAVIERS RD", "addr:postcode": "93033", "addr:state": "CA", "amenity": "post_box", "brand": "United States Postal Service", "brand:wikidata": "Q668687", "collection_times": "Mo-Fr 17:00; Sa 14:00", "name": "USPS COLLECTION BOX - BLUE BOX", "note": "ON 12/24 AND 12/31, THIS BOX MAY BE COLLECTED AS EARLY AS 12 NOON.", "nsi_id": "unitedstatespostalservice-a77078", "operator": "United States Postal Service", "operator:short": "USPS", "operator:type": "public", "operator:wikidata": "Q668687", "ref": "9303300002"}, "type": "Feature"}
{"dataset_attributes": {"@spider": "usps_collection_boxes", "spider:collection_time": "2024-01-04T08:25:05.301423"}, "geometry": {"coordinates": [-119.177925, 34.155444], "type": "Point"}, "id": "ymlMjFDOgmJI8fL_gWUHaXHrz0Q=", "properties": {"@spider": "usps_collection_boxes", "addr:city": "OXNARD", "addr:country": "US", "addr:full": "4991 SAVIERS RD", "addr:postcode": "93033", "addr:state": "CA", "amenity": "post_box", "brand": "United States Postal Service", "brand:wikidata": "Q668687", "collection_times": "Mo-Sa 10:00", "name": "USPS COLLECTION BOX - BLUE BOX", "nsi_id": "unitedstatespostalservice-a77078", "operator": "United States Postal Service", "operator:short": "USPS", "operator:type": "public", "operator:wikidata": "Q668687", "ref": "9303300006"}, "type": "Feature"}
{"dataset_attributes": {"@spider": "usps_collection_boxes", "spider:collection_time": "2024-01-04T08:25:05.301423"}, "geometry": {"coordinates": [-119.177523, 34.16338], "type": "Point"}, "id": "djdaKgX8X7XihfO6oYAqUhjnhCs=", "properties": {"@spider": "usps_collection_boxes", "addr:city": "OXNARD", "addr:country": "US", "addr:full": "4050 SAVIERS RD", "addr:postcode": "93033", "addr:state": "CA", "amenity": "post_box", "brand": "United States Postal Service", "brand:wikidata": "Q668687", "collection_times": "Mo-Sa 10:00", "name": "USPS COLLECTION BOX - BLUE BOX", "nsi_id": "unitedstatespostalservice-a77078", "operator": "United States Postal Service", "operator:short": "USPS", "operator:type": "public", "operator:wikidata": "Q668687", "ref": "9303300007"}, "type": "Feature"}
{"dataset_attributes": {"@spider": "usps_collection_boxes", "spider:collection_time": "2024-01-04T08:25:05.301423"}, "geometry": {"coordinates": [-119.177447, 34.176343], "type": "Point"}, "id": "huuFPeBkSa7_c_x3fkF8XtatyOA=", "properties": {"@spider": "usps_collection_boxes", "addr:city": "OXNARD", "addr:country": "US", "addr:full": "2532 SAVIERS RD", "addr:postcode": "93033", "addr:state": "CA", "amenity": "post_box", "brand": "United States Postal Service", "brand:wikidata": "Q668687", "collection_times": "Mo-Fr 17:00; Sa 14:00", "name": "USPS COLLECTION BOX - PO LOBBY", "note": "ON 12/24 AND 12/31, THIS BOX MAY BE COLLECTED AS EARLY AS 12 NOON.", "nsi_id": "unitedstatespostalservice-a77078", "operator": "United States Postal Service", "operator:short": "USPS", "operator:type": "public", "operator:wikidata": "Q668687", "ref": "9303300063"}, "type": "Feature"}
{"dataset_attributes": {"@spider": "usps_collection_boxes", "spider:collection_time": "2024-01-04T08:25:05.301423"}, "geometry": {"coordinates": [-119.165630014, 34.183167007], "type": "Point"}, "id": "U0p6KPTBkJ7CltuPrtE_wIhyE4Q=", "properties": {"@spider": "usps_collection_boxes", "addr:city": "OXNARD", "addr:country": "US", "addr:full": "1661 PACIFIC AVE", "addr:postcode": "93033", "addr:state": "CA", "amenity": "post_box", "brand": "United States Postal Service", "brand:wikidata": "Q668687", "collection_times": "Mo-Sa 10:00", "name": "USPS COLLECTION BOX - BLUE BOX", "nsi_id": "unitedstatespostalservice-a77078", "operator": "United States Postal Service", "operator:short": "USPS", "operator:type": "public", "operator:wikidata": "Q668687", "ref": "9303300064"}, "type": "Feature"}
{"dataset_attributes": {"@spider": "usps_collection_boxes", "spider:collection_time": "2024-01-04T08:25:05.301423"}, "geometry": {"coordinates": [-119.176549036, 34.175899981], "type": "Point"}, "id": "GiP0vfO2o0gXYMNK3HejQyble_E=", "properties": {"@spider": "usps_collection_boxes", "addr:city": "OXNARD", "addr:country": "US", "addr:full": "2532 SAVIERS RD", "addr:postcode": "93033", "addr:state": "CA", "amenity": "post_box", "brand": "United States Postal Service", "brand:wikidata": "Q668687", "collection_times": "Mo-Fr 17:00", "name": "USPS COLLECTION BOX - PO LOBBY", "note": "ON 12/24 AND 12/31, THIS BOX MAY BE COLLECTED AS EARLY AS 12 NOON.", "nsi_id": "unitedstatespostalservice-a77078", "operator": "United States Postal Service", "operator:short": "USPS", "operator:type": "public", "operator:wikidata": "Q668687", "ref": "9303300068"}, "type": "Feature"}
{"dataset_attributes": {"@spider": "usps_collection_boxes", "spider:collection_time": "2024-01-04T08:25:05.301423"}, "geometry": {"coordinates": [-119.228727, 34.168138], "type": "Point"}, "id": "mmOec8iRNKPFDNBKmsGBP6pBWLI=", "properties": {"@spider": "usps_collection_boxes", "addr:city": "OXNARD", "addr:country": "US", "addr:full": "3600 HARBOR BLVD", "addr:postcode": "93035", "addr:state": "CA", "amenity": "post_box", "brand": "United States Postal Service", "brand:wikidata": "Q668687", "collection_times": "Mo-Fr 15:00; Sa 14:00", "name": "USPS COLLECTION BOX - BLUE BOX", "note": "ON 12/24 AND 12/31, THIS BOX MAY BE COLLECTED AS EARLY AS 12 NOON.", "nsi_id": "unitedstatespostalservice-a77078", "operator": "United States Postal Service", "operator:short": "USPS", "operator:type": "public", "operator:wikidata": "Q668687", "ref": "9303500005"}, "type": "Feature"}
{"dataset_attributes": {"@spider": "usps_collection_boxes", "spider:collection_time": "2024-01-04T08:25:05.301423"}, "geometry": {"coordinates": [-119.2250019681, 34.1761060079], "type": "Point"}, "id": "D5x9iIC2Yr2dmFE2Rt44SNtaWXc=", "properties": {"@spider": "usps_collection_boxes", "addr:city": "OXNARD", "addr:country": "US", "addr:full": "2550 PENINSULA RD", "addr:postcode": "93035", "addr:state": "CA", "amenity": "post_box", "brand": "United States Postal Service", "brand:wikidata": "Q668687", "collection_times": "Mo-Sa 10:00", "name": "USPS COLLECTION BOX - BLUE BOX", "nsi_id": "unitedstatespostalservice-a77078", "operator": "United States Postal Service", "operator:short": "USPS", "operator:type": "public", "operator:wikidata": "Q668687", "ref": "9303500008"}, "type": "Feature"}
{"dataset_attributes": {"@spider": "usps_collection_boxes", "spider:collection_time": "2024-01-04T08:25:05.301423"}, "geometry": {"coordinates": [-119.2545474345, 34.2201005857], "type": "Point"}, "id": "3YuqF2C9IxEgUaSSyYn5pGDys7g=", "properties": {"@spider": "usps_collection_boxes", "addr:city": "OXNARD", "addr:country": "US", "addr:full": "1000 HARBOR BLVD", "addr:postcode": "93035", "addr:state": "CA", "amenity": "post_box", "brand": "United States Postal Service", "brand:wikidata": "Q668687", "collection_times": "Mo-Sa 10:00", "name": "USPS COLLECTION BOX - BLUE BOX", "nsi_id": "unitedstatespostalservice-a77078", "operator": "United States Postal Service", "operator:short": "USPS", "operator:type": "public", "operator:wikidata": "Q668687", "ref": "9303500010"}, "type": "Feature"}
{"dataset_attributes": {"@spider": "usps_collection_boxes", "spider:collection_time": "2024-01-04T08:25:05.301423"}, "geometry": {"coordinates": [-119.173266, 34.229498], "type": "Point"}, "id": "FFyR0hYGS_UPs9iI5wycBsgB0H4=", "properties": {"@spider": "usps_collection_boxes", "addr:city": "OXNARD", "addr:country": "US", "addr:full": "400 E ESPLANADE DR", "addr:postcode": "93036", "addr:state": "CA", "amenity": "post_box", "brand": "United States Postal Service", "brand:wikidata": "Q668687", "collection_times": "Mo-Fr 15:00; Sa 14:00", "name": "USPS COLLECTION BOX - BLUE BOX", "note": "ON 12/24 AND 12/31, THIS BOX MAY BE COLLECTED AS EARLY AS 12 NOON.", "nsi_id": "unitedstatespostalservice-a77078", "operator": "United States Postal Service", "operator:short": "USPS", "operator:type": "public", "operator:wikidata": "Q668687", "ref": "9303600001"}, "type": "Feature"}
{"dataset_attributes": {"@spider": "usps_collection_boxes", "spider:collection_time": "2024-01-04T08:25:05.301423"}, "geometry": {"coordinates": [-119.173221001, 34.230102019], "type": "Point"}, "id": "AMQIleNfxxHT2mTGIWk36dxIljI=", "properties": {"@spider": "usps_collection_boxes", "addr:city": "OXNARD", "addr:country": "US", "addr:full": "405 E ESPLANADE DR", "addr:postcode": "93036", "addr:state": "CA", "amenity": "post_box", "brand": "United States Postal Service", "brand:wikidata": "Q668687", "collection_times": "Mo-Fr 15:00; Sa 14:00", "name": "USPS COLLECTION BOX - BLUE BOX", "note": "ON 12/24 AND 12/31, THIS BOX MAY BE COLLECTED AS EARLY AS 12 NOON.", "nsi_id": "unitedstatespostalservice-a77078", "operator": "United States Postal Service", "operator:short": "USPS", "operator:type": "public", "operator:wikidata": "Q668687", "ref": "9303600004"}, "type": "Feature"}
{"dataset_attributes": {"@spider": "usps_collection_boxes", "spider:collection_time": "2024-01-04T08:25:05.301423"}, "geometry": {"coordinates": [-119.170683967, 34.231096992], "type": "Point"}, "id": "CVI5mC3-Egui6QXYR8YnePcf7y8=", "properties": {"@spider": "usps_collection_boxes", "addr:city": "OXNARD", "addr:country": "US", "addr:full": "221 VENTURA BLVD", "addr:postcode": "93036", "addr:state": "CA", "amenity": "post_box", "brand": "United States Postal Service", "brand:wikidata": "Q668687", "collection_times": "Mo-Sa 10:00", "name": "USPS COLLECTION BOX - BLUE BOX", "nsi_id": "unitedstatespostalservice-a77078", "operator": "United States Postal Service", "operator:short": "USPS", "operator:type": "public", "operator:wikidata": "Q668687", "ref": "9303600013"}, "type": "Feature"}
{"dataset_attributes": {"@spider": "usps_collection_boxes", "spider:collection_time": "2024-01-04T08:25:05.301423"}, "geometry": {"coordinates": [-119.182891, 34.242792], "type": "Point"}, "id": "OKtJoDjEPKH5JSf2EGIf9cpOxmU=", "properties": {"@spider": "usps_collection_boxes", "addr:city": "OXNARD", "addr:country": "US", "addr:full": "1000 TOWN CENTER DR", "addr:postcode": "93036", "addr:state": "CA", "amenity": "post_box", "brand": "United States Postal Service", "brand:wikidata": "Q668687", "collection_times": "Mo-Fr 10:00", "name": "USPS COLLECTION BOX - BLUE BOX", "nsi_id": "unitedstatespostalservice-a77078", "operator": "United States Postal Service", "operator:short": "USPS", "operator:type": "public", "operator:wikidata": "Q668687", "ref": "9303600015"}, "type": "Feature"}
{"dataset_attributes": {"@spider": "usps_collection_boxes", "spider:collection_time": "2024-01-04T08:25:05.301423"}, "geometry": {"coordinates": [-119.143905965, 34.225368003], "type": "Point"}, "id": "ERJqyZUNMTNSDrTsPdhql0-vtdo=", "properties": {"@spider": "usps_collection_boxes", "addr:city": "OXNARD", "addr:country": "US", "addr:full": "2200 AUTO CENTER DR", "addr:postcode": "93036", "addr:state": "CA", "amenity": "post_box", "brand": "United States Postal Service", "brand:wikidata": "Q668687", "collection_times": "Mo-Sa 10:00", "name": "USPS COLLECTION BOX - BLUE BOX", "nsi_id": "unitedstatespostalservice-a77078", "operator": "United States Postal Service", "operator:short": "USPS", "operator:type": "public", "operator:wikidata": "Q668687", "ref": "9303600024"}, "type": "Feature"}
{"dataset_attributes": {"@spider": "usps_collection_boxes", "spider:collection_time": "2024-01-04T08:25:05.301423"}, "geometry": {"coordinates": [-118.7945986611, 34.4148296123], "type": "Point"}, "id": "ErnoLc6jSYjfBc7g0qHJVRKV2d4=", "properties": {"@spider": "usps_collection_boxes", "addr:city": "PIRU", "addr:country": "US", "addr:full": "652 N MAIN ST", "addr:postcode": "93040", "addr:state": "CA", "amenity": "post_box", "brand": "United States Postal Service", "brand:wikidata": "Q668687", "collection_times": "Mo-Fr 16:15", "name": "USPS COLLECTION BOX - BLUE BOX", "note": "ON 12/24 AND 12/31, THIS BOX MAY BE COLLECTED AS EARLY AS 12 NOON.", "nsi_id": "unitedstatespostalservice-a77078", "operator": "United States Postal Service", "operator:short": "USPS", "operator:type": "public", "operator:wikidata": "Q668687", "ref": "9304000026"}, "type": "Feature"}
{"dataset_attributes": {"@spider": "usps_collection_boxes", "spider:collection_time": "2024-01-04T08:25:05.301423"}, "geometry": {"coordinates": [-118.7945986611, 34.4148296123], "type": "Point"}, "id": "fF5vKMBG0oQeKXBnc8_HApX1SRs=", "properties": {"@spider": "usps_collection_boxes", "addr:city": "PIRU", "addr:country": "US", "addr:full": "652 N MAIN ST", "addr:postcode": "93040", "addr:state": "CA", "amenity": "post_box", "brand": "United States Postal Service", "brand:wikidata": "Q668687", "collection_times": "Mo-Fr 16:15", "name": "USPS COLLECTION BOX - PO LOBBY", "note": "ON 12/24 AND 12/31, THIS BOX MAY BE COLLECTED AS EARLY AS 12 NOON.", "nsi_id": "unitedstatespostalservice-a77078", "operator": "United States Postal Service", "operator:short": "USPS", "operator:type": "public", "operator:wikidata": "Q668687", "ref": "9304000027"}, "type": "Feature"}
{"dataset_attributes": {"@spider": "usps_collection_boxes", "spider:collection_time": "2024-01-04T08:25:05.301423"}, "geometry": {"coordinates": [-118.7945986611, 34.4148296123], "type": "Point"}, "id": "eBjPdQrOj3nPW8jUSStl7ZVGXqQ=", "properties": {"@spider": "usps_collection_boxes", "addr:city": "PIRU", "addr:country": "US", "addr:full": "652 N MAIN ST", "addr:postcode": "93040", "addr:state": "CA", "amenity": "post_box", "brand": "United States Postal Service", "brand:wikidata": "Q668687", "collection_times": "Mo-Fr 16:00", "name": "USPS COLLECTION BOX - PO LOBBY", "note": "ON 12/24 AND 12/31, THIS BOX MAY BE COLLECTED AS EARLY AS 12 NOON.", "nsi_id": "unitedstatespostalservice-a77078", "operator": "United States Postal Service", "operator:short": "USPS", "operator:type": "public", "operator:wikidata": "Q668687", "ref": "9304000028"}, "type": "Feature"}
{"dataset_attributes": {"@spider": "usps_collection_boxes", "spider:collection_time": "2024-01-04T08:25:05.301423"}, "geometry": {"coordinates": [-119.192632622, 34.15497327], "type": "Point"}, "id": "A_2ZoYZfZjMcnkJEq8tBtGJ_QAU=", "properties": {"@spider": "usps_collection_boxes", "addr:city": "PORT HUENEME", "addr:country": "US", "addr:full": "561 E PLEASANT VALLEY RD", "addr:postcode": "93041", "addr:state": "CA", "amenity": "post_box", "brand": "United States Postal Service", "brand:wikidata": "Q668687", "collection_times": "Mo-Fr 17:00; Sa 13:30", "name": "USPS COLLECTION BOX - EXPRESS", "note": "ON 12/24 AND 12/31, THIS BOX MAY BE COLLECTED AS EARLY AS 12 NOON.", "nsi_id": "unitedstatespostalservice-a77078", "operator": "United States Postal Service", "operator:short": "USPS", "operator:type": "public", "operator:wikidata": "Q668687", "ref": "9304100004"}, "type": "Feature"}
{"dataset_attributes": {"@spider": "usps_collection_boxes", "spider:collection_time": "2024-01-04T08:25:05.301423"}, "geometry": {"coordinates": [-119.1926319348, 34.1549613475], "type": "Point"}, "id": "eru1LxsNDAL3lDvHgsxI3pIgp-0=", "properties": {"@spider": "usps_collection_boxes", "addr:city": "PORT HUENEME", "addr:country": "US", "addr:full": "561 E PLEASANT VALLEY RD", "addr:postcode": "93041", "addr:state": "CA", "amenity": "post_box", "brand": "United States Postal Service", "brand:wikidata": "Q668687", "collection_times": "Mo-Fr 17:00; Sa 13:30", "name": "USPS COLLECTION BOX - BLUE BOX", "note": "ON 12/24 AND 12/31, THIS BOX MAY BE COLLECTED AS EARLY AS 12 NOON.", "nsi_id": "unitedstatespostalservice-a77078", "operator": "United States Postal Service", "operator:short": "USPS", "operator:type": "public", "operator:wikidata": "Q668687", "ref": "9304100005"}, "type": "Feature"}
{"dataset_attributes": {"@spider": "usps_collection_boxes", "spider:collection_time": "2024-01-04T08:25:05.301423"}, "geometry": {"coordinates": [-119.192391, 34.154936], "type": "Point"}, "id": "ZUvJULkQLgWeK-HVwWAQh5Rjzh0=", "properties": {"@spider": "usps_collection_boxes", "addr:city": "PORT HUENEME", "addr:country": "US", "addr:full": "561 E PLEASANT VALLEY RD", "addr:postcode": "93041", "addr:state": "CA", "amenity": "post_box", "brand": "United States Postal Service", "brand:wikidata": "Q668687", "collection_times": "Mo-Fr 17:00; Sa 13:30", "name": "USPS COLLECTION BOX - BLUE BOX", "note": "ON 12/24 AND 12/31, THIS BOX MAY BE COLLECTED AS EARLY AS 12 NOON.", "nsi_id": "unitedstatespostalservice-a77078", "operator": "United States Postal Service", "operator:short": "USPS", "operator:type": "public", "operator:wikidata": "Q668687", "ref": "9304100006"}, "type": "Feature"}
{"dataset_attributes": {"@spider": "usps_collection_boxes", "spider:collection_time": "2024-01-04T08:25:05.301423"}, "geometry": {"coordinates": [-119.194964, 34.150266], "type": "Point"}, "id": "XB84cOMz7YIfdHaST6P1IT5HmW0=", "properties": {"@spider": "usps_collection_boxes", "addr:city": "PORT HUENEME", "addr:country": "US", "addr:full": "400 E PEARL ST", "addr:postcode": "93041", "addr:state": "CA", "amenity": "post_box", "brand": "United States Postal Service", "brand:wikidata": "Q668687", "collection_times": "Mo-Sa 10:00", "name": "USPS COLLECTION BOX - BLUE BOX", "nsi_id": "unitedstatespostalservice-a77078", "operator": "United States Postal Service", "operator:short": "USPS", "operator:type": "public", "operator:wikidata": "Q668687", "ref": "9304100019"}, "type": "Feature"}
{"dataset_attributes": {"@spider": "usps_collection_boxes", "spider:collection_time": "2024-01-04T08:25:05.301423"}, "geometry": {"coordinates": [-119.202635, 34.177704], "type": "Point"}, "id": "EFMZa1x5ctgppsewXWpu9nbnEiI=", "properties": {"@spider": "usps_collection_boxes", "addr:city": "PORT HUENEME", "addr:country": "US", "addr:full": "2600 LIDO BLVD", "addr:postcode": "93041", "addr:state": "CA", "amenity": "post_box", "brand": "United States Postal Service", "brand:wikidata": "Q668687", "collection_times": "Mo-Sa 10:00", "name": "USPS COLLECTION BOX - BLUE BOX", "nsi_id": "unitedstatespostalservice-a77078", "operator": "United States Postal Service", "operator:short": "USPS", "operator:type": "public", "operator:wikidata": "Q668687", "ref": "9304100021"}, "type": "Feature"}
{"dataset_attributes": {"@spider": "usps_collection_boxes", "spider:collection_time": "2024-01-04T08:25:05.301423"}, "geometry": {"coordinates": [-119.098101722, 34.124857688], "type": "Point"}, "id": "TkWFrz2ci4HhDHebIwPEOk-FHtQ=", "properties": {"@spider": "usps_collection_boxes", "addr:city": "PORT HUENEME", "addr:country": "US", "addr:full": "353 MUGU RD", "addr:postcode": "93041", "addr:state": "CA", "amenity": "post_box", "brand": "United States Postal Service", "brand:wikidata": "Q668687", "collection_times": "Mo-Sa 10:00", "name": "USPS COLLECTION BOX - BLUE BOX", "nsi_id": "unitedstatespostalservice-a77078", "operator": "United States Postal Service", "operator:short": "USPS", "operator:type": "public", "operator:wikidata": "Q668687", "ref": "9304100024"}, "type": "Feature"}
{"dataset_attributes": {"@spider": "usps_collection_boxes", "spider:collection_time": "2024-01-04T08:25:05.301423"}, "geometry": {"coordinates": [-119.198809, 34.166165], "type": "Point"}, "id": "O9-5iABCkUzuKwKgKSp1e510aQE=", "properties": {"@spider": "usps_collection_boxes", "addr:city": "PORT HUENEME", "addr:country": "US", "addr:full": "1167 HARRIS ST", "addr:postcode": "93041", "addr:state": "CA", "amenity": "post_box", "brand": "United States Postal Service", "brand:wikidata": "Q668687", "collection_times": "Mo-Sa 10:00", "name": "USPS COLLECTION BOX - BLUE BOX", "nsi_id": "unitedstatespostalservice-a77078", "operator": "United States Postal Service", "operator:short": "USPS", "operator:type": "public", "operator:wikidata": "Q668687", "ref": "9304100028"}, "type": "Feature"}
{"dataset_attributes": {"@spider": "usps_collection_boxes", "spider:collection_time": "2024-01-04T08:25:05.301423"}, "geometry": {"coordinates": [-119.217119, 34.176883], "type": "Point"}, "id": "lsBE_xx2LA2chYV1FSP6u_fyEws=", "properties": {"@spider": "usps_collection_boxes", "addr:city": "PORT HUENEME", "addr:country": "US", "addr:full": "637 W CHANNEL ISLANDS BLVD", "addr:postcode": "93041", "addr:state": "CA", "amenity": "post_box", "brand": "United States Postal Service", "brand:wikidata": "Q668687", "collection_times": "Mo-Sa 10:00", "name": "USPS COLLECTION BOX - BLUE BOX", "nsi_id": "unitedstatespostalservice-a77078", "operator": "United States Postal Service", "operator:short": "USPS", "operator:type": "public", "operator:wikidata": "Q668687", "ref": "9304100030"}, "type": "Feature"}
{"dataset_attributes": {"@spider": "usps_collection_boxes", "spider:collection_time": "2024-01-04T08:25:05.301423"}, "geometry": {"coordinates": [-119.19228, 34.154772], "type": "Point"}, "id": "e7wWRlClwlpNsSqpEV3bj7-8gcQ=", "properties": {"@spider": "usps_collection_boxes", "addr:city": "PORT HUENEME", "addr:country": "US", "addr:full": "560 E PLEASANT VALLEY RD", "addr:postcode": "93041", "addr:state": "CA", "amenity": "post_box", "brand": "United States Postal Service", "brand:wikidata": "Q668687", "collection_times": "Mo-Fr 17:00; Sa 13:30", "name": "USPS COLLECTION BOX - PO LOBBY", "note": "ON 12/24 AND 12/31, THIS BOX MAY BE COLLECTED AS EARLY AS 12 NOON.", "nsi_id": "unitedstatespostalservice-a77078", "operator": "United States Postal Service", "operator:short": "USPS", "operator:type": "public", "operator:wikidata": "Q668687", "ref": "9304100036"}, "type": "Feature"}
{"dataset_attributes": {"@spider": "usps_collection_boxes", "spider:collection_time": "2024-01-04T08:25:05.301423"}, "geometry": {"coordinates": [-119.195153154, 34.1777626355], "type": "Point"}, "id": "pMDLkYXDjONqn_X0czQc0ZyB0F4=", "properties": {"@spider": "usps_collection_boxes", "addr:city": "PORT HUENEME", "addr:country": "US", "addr:full": "2591 N VENTURA RD", "addr:postcode": "93041", "addr:state": "CA", "amenity": "post_box", "brand": "United States Postal Service", "brand:wikidata": "Q668687", "collection_times": "Mo-Sa 10:00", "name": "USPS COLLECTION BOX - BLUE BOX", "nsi_id": "unitedstatespostalservice-a77078", "operator": "United States Postal Service", "operator:short": "USPS", "operator:type": "public", "operator:wikidata": "Q668687", "ref": "9304100037"}, "type": "Feature"}
{"dataset_attributes": {"@spider": "usps_collection_boxes", "spider:collection_time": "2024-01-04T08:25:05.301423"}, "geometry": {"coordinates": [-119.1921925284, 34.1547554951], "type": "Point"}, "id": "Q5RD_Y_LWT2Yq1tOnG5rPuITmwo=", "properties": {"@spider": "usps_collection_boxes", "addr:city": "PORT HUENEME", "addr:country": "US", "addr:full": "560 E PLEASANT VALLEY RD", "addr:postcode": "93041", "addr:state": "CA", "amenity": "post_box", "brand": "United States Postal Service", "brand:wikidata": "Q668687", "collection_times": "Mo-Fr 17:00", "name": "USPS COLLECTION BOX - PO LOBBY", "note": "ON 12/24 AND 12/31, THIS BOX MAY BE COLLECTED AS EARLY AS 12 NOON.", "nsi_id": "unitedstatespostalservice-a77078", "operator": "United States Postal Service", "operator:short": "USPS", "operator:type": "public", "operator:wikidata": "Q668687", "ref": "9304100042"}, "type": "Feature"}
{"dataset_attributes": {"@spider": "usps_collection_boxes", "spider:collection_time": "2024-01-04T08:25:05.301423"}, "geometry": {"coordinates": [-119.090497987, 34.335480018], "type": "Point"}, "id": "Jz_PICtc_XIp23EnRSfTYEKJUic=", "properties": {"@spider": "usps_collection_boxes", "addr:city": "SANTA PAULA", "addr:country": "US", "addr:full": "15500 W TELEGRAPH RD", "addr:postcode": "93060", "addr:state": "CA", "amenity": "post_box", "brand": "United States Postal Service", "brand:wikidata": "Q668687", "collection_times": "Mo-Fr 15:00; Sa 10:00", "name": "USPS COLLECTION BOX - BLUE BOX", "note": "ON 12/24 AND 12/31, THIS BOX MAY BE COLLECTED AS EARLY AS 12 NOON.", "nsi_id": "unitedstatespostalservice-a77078", "operator": "United States Postal Service", "operator:short": "USPS", "operator:type": "public", "operator:wikidata": "Q668687", "ref": "9306000001"}, "type": "Feature"}
{"dataset_attributes": {"@spider": "usps_collection_boxes", "spider:collection_time": "2024-01-04T08:25:05.301423"}, "geometry": {"coordinates": [-119.0608796784, 34.3531994078], "type": "Point"}, "id": "khFG0FOxrNnM5BOQLMcV3fLiw0Y=", "properties": {"@spider": "usps_collection_boxes", "addr:city": "SANTA PAULA", "addr:country": "US", "addr:full": "111 S MILL ST", "addr:postcode": "93060", "addr:state": "CA", "amenity": "post_box", "brand": "United States Postal Service", "brand:wikidata": "Q668687", "collection_times": "Mo-Fr 17:00; Sa 14:00", "name": "USPS COLLECTION BOX - BLUE BOX", "note": "ON 12/24 AND 12/31, THIS BOX MAY BE COLLECTED AS EARLY AS 12 NOON.", "nsi_id": "unitedstatespostalservice-a77078", "operator": "United States Postal Service", "operator:short": "USPS", "operator:type": "public", "operator:wikidata": "Q668687", "ref": "9306000002"}, "type": "Feature"}
{"dataset_attributes": {"@spider": "usps_collection_boxes", "spider:collection_time": "2024-01-04T08:25:05.301423"}, "geometry": {"coordinates": [-119.0608796784, 34.3531994078], "type": "Point"}, "id": "6KFXqWD5cIl_tZrERUQJrMf2DbA=", "properties": {"@spider": "usps_collection_boxes", "addr:city": "SANTA PAULA", "addr:country": "US", "addr:full": "111 S MILL ST", "addr:postcode": "93060", "addr:state": "CA", "amenity": "post_box", "brand": "United States Postal Service", "brand:wikidata": "Q668687", "collection_times": "Mo-Fr 17:00; Sa 14:00", "name": "USPS COLLECTION BOX - BLUE BOX", "note": "ON 12/24 AND 12/31, THIS BOX MAY BE COLLECTED AS EARLY AS 12 NOON.", "nsi_id": "unitedstatespostalservice-a77078", "operator": "United States Postal Service", "operator:short": "USPS", "operator:type": "public", "operator:wikidata": "Q668687", "ref": "9306000003"}, "type": "Feature"}
{"dataset_attributes": {"@spider": "usps_collection_boxes", "spider:collection_time": "2024-01-04T08:25:05.301423"}, "geometry": {"coordinates": [-119.079315, 34.343872], "type": "Point"}, "id": "9HJU0-2mbFSgpoHFEJL_i9kmI0I=", "properties": {"@spider": "usps_collection_boxes", "addr:city": "SANTA PAULA", "addr:country": "US", "addr:full": "537 W HARVARD BLVD", "addr:postcode": "93060", "addr:state": "CA", "amenity": "post_box", "brand": "United States Postal Service", "brand:wikidata": "Q668687", "collection_times": "Mo-Fr 15:00; Sa 10:00", "name": "USPS COLLECTION BOX - BLUE BOX", "note": "ON 12/24 AND 12/31, THIS BOX MAY BE COLLECTED AS EARLY AS 12 NOON.", "nsi_id": "unitedstatespostalservice-a77078", "operator": "United States Postal Service", "operator:short": "USPS", "operator:type": "public", "operator:wikidata": "Q668687", "ref": "9306000021"}, "type": "Feature"}
{"dataset_attributes": {"@spider": "usps_collection_boxes", "spider:collection_time": "2024-01-04T08:25:05.301423"}, "geometry": {"coordinates": [-119.0608796784, 34.3531994078], "type": "Point"}, "id": "NfECRtLeJvFuT7M349kwYzG9mRs=", "properties": {"@spider": "usps_collection_boxes", "addr:city": "SANTA PAULA", "addr:country": "US", "addr:full": "111 S MILL ST", "addr:postcode": "93060", "addr:state": "CA", "amenity": "post_box", "brand": "United States Postal Service", "brand:wikidata": "Q668687", "collection_times": "Mo-Fr 17:00; Sa 14:00", "name": "USPS COLLECTION BOX - PO LOBBY", "note": "ON 12/24 AND 12/31, THIS BOX MAY BE COLLECTED AS EARLY AS 12 NOON.", "nsi_id": "unitedstatespostalservice-a77078", "operator": "United States Postal Service", "operator:short": "USPS", "operator:type": "public", "operator:wikidata": "Q668687", "ref": "9306000025"}, "type": "Feature"}
{"dataset_attributes": {"@spider": "usps_collection_boxes", "spider:collection_time": "2024-01-04T08:25:05.301423"}, "geometry": {"coordinates": [-119.0608796784, 34.3531994078], "type": "Point"}, "id": "UpXSS7W0YpqhG8Wjcileeu8TKgI=", "properties": {"@spider": "usps_collection_boxes", "addr:city": "SANTA PAULA", "addr:country": "US", "addr:full": "111 S MILL ST", "addr:postcode": "93060", "addr:state": "CA", "amenity": "post_box", "brand": "United States Postal Service", "brand:wikidata": "Q668687", "collection_times": "Mo-Fr 17:00; Sa 14:00", "name": "USPS COLLECTION BOX - PO LOBBY", "note": "ON 12/24 AND 12/31, THIS BOX MAY BE COLLECTED AS EARLY AS 12 NOON.", "nsi_id": "unitedstatespostalservice-a77078", "operator": "United States Postal Service", "operator:short": "USPS", "operator:type": "public", "operator:wikidata": "Q668687", "ref": "9306000026"}, "type": "Feature"}
{"dataset_attributes": {"@spider": "usps_collection_boxes", "spider:collection_time": "2024-01-04T08:25:05.301423"}, "geometry": {"coordinates": [-119.0608796784, 34.3531994078], "type": "Point"}, "id": "B1vDpUP7AiFiwD2OLJNB5988QOQ=", "properties": {"@spider": "usps_collection_boxes", "addr:city": "SANTA PAULA", "addr:country": "US", "addr:full": "111 S MILL ST", "addr:postcode": "93060", "addr:state": "CA", "amenity": "post_box", "brand": "United States Postal Service", "brand:wikidata": "Q668687", "collection_times": "Mo-Fr 17:00", "name": "USPS COLLECTION BOX - PO LOBBY", "note": "ON 12/24 AND 12/31, THIS BOX MAY BE COLLECTED AS EARLY AS 12 NOON.", "nsi_id": "unitedstatespostalservice-a77078", "operator": "United States Postal Service", "operator:short": "USPS", "operator:type": "public", "operator:wikidata": "Q668687", "ref": "9306000029"}, "type": "Feature"}
{"dataset_attributes": {"@spider": "usps_collection_boxes", "spider:collection_time": "2024-01-04T08:25:05.301423"}, "geometry": {"coordinates": [-118.661552, 34.265273], "type": "Point"}, "id": "PDGTK6NPZhufdidcYiU04_Txyqw=", "properties": {"@spider": "usps_collection_boxes", "addr:city": "SIMI VALLEY", "addr:country": "US", "addr:full": "1409 KUEHNER DR", "addr:postcode": "93063", "addr:state": "CA", "amenity": "post_box", "brand": "United States Postal Service", "brand:wikidata": "Q668687", "collection_times": "Mo-Fr 15:00; Sa 10:00", "name": "USPS COLLECTION BOX - BLUE BOX", "note": "ON 12/24 AND 12/31, THIS BOX MAY BE COLLECTED AS EARLY AS 12 NOON.", "nsi_id": "unitedstatespostalservice-a77078", "operator": "United States Postal Service", "operator:short": "USPS", "operator:type": "public", "operator:wikidata": "Q668687", "ref": "9306300000"}, "type": "Feature"}
{"dataset_attributes": {"@spider": "usps_collection_boxes", "spider:collection_time": "2024-01-04T08:25:05.301423"}, "geometry": {"coordinates": [-118.722319, 34.287887], "type": "Point"}, "id": "C-0efw8xY-z06CmzdsNkPgfIeiw=", "properties": {"@spider": "usps_collection_boxes", "addr:city": "SIMI VALLEY", "addr:country": "US", "addr:full": "3855 ALAMO ST", "addr:postcode": "93063", "addr:state": "CA", "amenity": "post_box", "brand": "United States Postal Service", "brand:wikidata": "Q668687", "collection_times": "Mo-Sa 10:00", "name": "USPS COLLECTION BOX - BLUE BOX", "nsi_id": "unitedstatespostalservice-a77078", "operator": "United States Postal Service", "operator:short": "USPS", "operator:type": "public", "operator:wikidata": "Q668687", "ref": "9306300014"}, "type": "Feature"}
{"dataset_attributes": {"@spider": "usps_collection_boxes", "spider:collection_time": "2024-01-04T08:25:05.301423"}, "geometry": {"coordinates": [-118.713432, 34.271563], "type": "Point"}, "id": "AHWoUdHkfvMuB0ZiSk8tjZBhV1I=", "properties": {"@spider": "usps_collection_boxes", "addr:city": "SIMI VALLEY", "addr:country": "US", "addr:full": "4212 E LOS ANGELES AVE", "addr:postcode": "93063", "addr:state": "CA", "amenity": "post_box", "brand": "United States Postal Service", "brand:wikidata": "Q668687", "collection_times": "Mo-Fr 15:00; Sa 10:00", "name": "USPS COLLECTION BOX - BLUE BOX", "note": "ON 12/24 AND 12/31, THIS BOX MAY BE COLLECTED AS EARLY AS 12 NOON.", "nsi_id": "unitedstatespostalservice-a77078", "operator": "United States Postal Service", "operator:short": "USPS", "operator:type": "public", "operator:wikidata": "Q668687", "ref": "9306300029"}, "type": "Feature"}
{"dataset_attributes": {"@spider": "usps_collection_boxes", "spider:collection_time": "2024-01-04T08:25:05.301423"}, "geometry": {"coordinates": [-118.725872, 34.286736], "type": "Point"}, "id": "8EPvSCLNLdC0ciBp6Nar2COrrnE=", "properties": {"@spider": "usps_collection_boxes", "addr:city": "SIMI VALLEY", "addr:country": "US", "addr:full": "3655 ALAMO ST", "addr:postcode": "93063", "addr:state": "CA", "amenity": "post_box", "brand": "United States Postal Service", "brand:wikidata": "Q668687", "collection_times": "Mo-Sa 10:00", "name": "USPS COLLECTION BOX - BLUE BOX", "nsi_id": "unitedstatespostalservice-a77078", "operator": "United States Postal Service", "operator:short": "USPS", "operator:type": "public", "operator:wikidata": "Q668687", "ref": "9306300031"}, "type": "Feature"}
{"dataset_attributes": {"@spider": "usps_collection_boxes", "spider:collection_time": "2024-01-04T08:25:05.301423"}, "geometry": {"coordinates": [-118.735857, 34.281556], "type": "Point"}, "id": "6dU7Upse8G-hRr-KP2e1nLj9Y8w=", "properties": {"@spider": "usps_collection_boxes", "addr:city": "SIMI VALLEY", "addr:country": "US", "addr:full": "2551 GALENA AVE", "addr:postcode": "93065", "addr:state": "CA", "amenity": "post_box", "brand": "United States Postal Service", "brand:wikidata": "Q668687", "collection_times": "Mo-Fr 17:15; Sa 17:00", "name": "USPS COLLECTION BOX - EXPRESS", "note": "ON 12/24 AND 12/31, THIS BOX MAY BE COLLECTED AS EARLY AS 12 NOON.", "nsi_id": "unitedstatespostalservice-a77078", "operator": "United States Postal Service", "operator:short": "USPS", "operator:type": "public", "operator:wikidata": "Q668687", "ref": "9306500001"}, "type": "Feature"}
{"dataset_attributes": {"@spider": "usps_collection_boxes", "spider:collection_time": "2024-01-04T08:25:05.301423"}, "geometry": {"coordinates": [-118.735833, 34.281553], "type": "Point"}, "id": "wC7Ur6AY9gcLkHoME7zenap09uQ=", "properties": {"@spider": "usps_collection_boxes", "addr:city": "SIMI VALLEY", "addr:country": "US", "addr:full": "2551 GALENA AVE", "addr:postcode": "93065", "addr:state": "CA", "amenity": "post_box", "brand": "United States Postal Service", "brand:wikidata": "Q668687", "collection_times": "Mo-Fr 17:15; Sa 17:00", "name": "USPS COLLECTION BOX - BLUE BOX", "note": "ON 12/24 AND 12/31, THIS BOX MAY BE COLLECTED AS EARLY AS 12 NOON.", "nsi_id": "unitedstatespostalservice-a77078", "operator": "United States Postal Service", "operator:short": "USPS", "operator:type": "public", "operator:wikidata": "Q668687", "ref": "9306500002"}, "type": "Feature"}
{"dataset_attributes": {"@spider": "usps_collection_boxes", "spider:collection_time": "2024-01-04T08:25:05.301423"}, "geometry": {"coordinates": [-118.7357034126, 34.2813472387], "type": "Point"}, "id": "BWZH3o7UO7soNpLn8363AFgzUUc=", "properties": {"@spider": "usps_collection_boxes", "addr:city": "SIMI VALLEY", "addr:country": "US", "addr:full": "2551 GALENA AVE", "addr:postcode": "93065", "addr:state": "CA", "amenity": "post_box", "brand": "United States Postal Service", "brand:wikidata": "Q668687", "collection_times": "Mo-Fr 17:15; Sa 17:00", "name": "USPS COLLECTION BOX - BLUE BOX", "note": "ON 12/24 AND 12/31, THIS BOX MAY BE COLLECTED AS EARLY AS 12 NOON.", "nsi_id": "unitedstatespostalservice-a77078", "operator": "United States Postal Service", "operator:short": "USPS", "operator:type": "public", "operator:wikidata": "Q668687", "ref": "9306500005"}, "type": "Feature"}
{"dataset_attributes": {"@spider": "usps_collection_boxes", "spider:collection_time": "2024-01-04T08:25:05.301423"}, "geometry": {"coordinates": [-118.735703413, 34.281347239], "type": "Point"}, "id": "kWQRa4GuV3nWEz4wNC0nyl1TbbA=", "properties": {"@spider": "usps_collection_boxes", "addr:city": "SIMI VALLEY", "addr:country": "US", "addr:full": "2551 GALENA AVE", "addr:postcode": "93065", "addr:state": "CA", "amenity": "post_box", "brand": "United States Postal Service", "brand:wikidata": "Q668687", "collection_times": "Mo-Fr 17:15; Sa 17:00", "name": "USPS COLLECTION BOX - BLUE BOX", "note": "ON 12/24 AND 12/31, THIS BOX MAY BE COLLECTED AS EARLY AS 12 NOON.", "nsi_id": "unitedstatespostalservice-a77078", "operator": "United States Postal Service", "operator:short": "USPS", "operator:type": "public", "operator:wikidata": "Q668687", "ref": "9306500006"}, "type": "Feature"}
{"dataset_attributes": {"@spider": "usps_collection_boxes", "spider:collection_time": "2024-01-04T08:25:05.301423"}, "geometry": {"coordinates": [-118.735703413, 34.281347239], "type": "Point"}, "id": "Ya0wJXXX7RKi8q_SqIrteNYThJk=", "properties": {"@spider": "usps_collection_boxes", "addr:city": "SIMI VALLEY", "addr:country": "US", "addr:full": "2551 GALENA AVE", "addr:postcode": "93065", "addr:state": "CA", "amenity": "post_box", "brand": "United States Postal Service", "brand:wikidata": "Q668687", "collection_times": "Mo-Fr 17:15; Sa 17:00", "name": "USPS COLLECTION BOX - BLUE BOX", "note": "ON 12/24 AND 12/31, THIS BOX MAY BE COLLECTED AS EARLY AS 12 NOON.", "nsi_id": "unitedstatespostalservice-a77078", "operator": "United States Postal Service", "operator:short": "USPS", "operator:type": "public", "operator:wikidata": "Q668687", "ref": "9306500007"}, "type": "Feature"}
{"dataset_attributes": {"@spider": "usps_collection_boxes", "spider:collection_time": "2024-01-04T08:25:05.301423"}, "geometry": {"coordinates": [-118.743819, 34.288897], "type": "Point"}, "id": "u8aHzsB9zFVTSA3eK-i-zPV3prs=", "properties": {"@spider": "usps_collection_boxes", "addr:city": "SIMI VALLEY", "addr:country": "US", "addr:full": "2950 SYCAMORE DR", "addr:postcode": "93065", "addr:state": "CA", "amenity": "post_box", "brand": "United States Postal Service", "brand:wikidata": "Q668687", "collection_times": "Mo-Fr 15:00; Sa 10:00", "name": "USPS COLLECTION BOX - BLUE BOX", "note": "ON 12/24 AND 12/31, THIS BOX MAY BE COLLECTED AS EARLY AS 12 NOON.", "nsi_id": "unitedstatespostalservice-a77078", "operator": "United States Postal Service", "operator:short": "USPS", "operator:type": "public", "operator:wikidata": "Q668687", "ref": "9306500010"}, "type": "Feature"}
{"dataset_attributes": {"@spider": "usps_collection_boxes", "spider:collection_time": "2024-01-04T08:25:05.301423"}, "geometry": {"coordinates": [-118.771936, 34.272044], "type": "Point"}, "id": "ZsDd9DTaRiEN7oRtuG_dPsMVDzg=", "properties": {"@spider": "usps_collection_boxes", "addr:city": "SIMI VALLEY", "addr:country": "US", "addr:full": "1445 E LOS ANGELES AVE", "addr:postcode": "93065", "addr:state": "CA", "amenity": "post_box", "brand": "United States Postal Service", "brand:wikidata": "Q668687", "collection_times": "Mo-Fr 15:00; Sa 10:00", "name": "USPS COLLECTION BOX - BLUE BOX", "note": "ON 12/24 AND 12/31, THIS BOX MAY BE COLLECTED AS EARLY AS 12 NOON.", "nsi_id": "unitedstatespostalservice-a77078", "operator": "United States Postal Service", "operator:short": "USPS", "operator:type": "public", "operator:wikidata": "Q668687", "ref": "9306500014"}, "type": "Feature"}
{"dataset_attributes": {"@spider": "usps_collection_boxes", "spider:collection_time": "2024-01-04T08:25:05.301423"}, "geometry": {"coordinates": [-118.780638, 34.275225], "type": "Point"}, "id": "xPjLUR5dpXMnEStqkVjVOO9Or4Q=", "properties": {"@spider": "usps_collection_boxes", "addr:city": "SIMI VALLEY", "addr:country": "US", "addr:full": "2215 1ST ST", "addr:postcode": "93065", "addr:state": "CA", "amenity": "post_box", "brand": "United States Postal Service", "brand:wikidata": "Q668687", "collection_times": "Mo-Fr 15:00; Sa 10:00", "name": "USPS COLLECTION BOX - BLUE BOX", "note": "ON 12/24 AND 12/31, THIS BOX MAY BE COLLECTED AS EARLY AS 12 NOON.", "nsi_id": "unitedstatespostalservice-a77078", "operator": "United States Postal Service", "operator:short": "USPS", "operator:type": "public", "operator:wikidata": "Q668687", "ref": "9306500017"}, "type": "Feature"}
{"dataset_attributes": {"@spider": "usps_collection_boxes", "spider:collection_time": "2024-01-04T08:25:05.301423"}, "geometry": {"coordinates": [-118.797039, 34.276412], "type": "Point"}, "id": "VCB1-Fkzx04AVpVNlWiN2hUthYg=", "properties": {"@spider": "usps_collection_boxes", "addr:city": "SIMI VALLEY", "addr:country": "US", "addr:full": "2221 N MADERA RD", "addr:postcode": "93065", "addr:state": "CA", "amenity": "post_box", "brand": "United States Postal Service", "brand:wikidata": "Q668687", "collection_times": "Mo-Fr 15:00; Sa 10:00", "name": "USPS COLLECTION BOX - BLUE BOX", "note": "ON 12/24 AND 12/31, THIS BOX MAY BE COLLECTED AS EARLY AS 12 NOON.", "nsi_id": "unitedstatespostalservice-a77078", "operator": "United States Postal Service", "operator:short": "USPS", "operator:type": "public", "operator:wikidata": "Q668687", "ref": "9306500022"}, "type": "Feature"}
{"dataset_attributes": {"@spider": "usps_collection_boxes", "spider:collection_time": "2024-01-04T08:25:05.301423"}, "geometry": {"coordinates": [-118.799284, 34.283462], "type": "Point"}, "id": "FnA4M_V5pVpoTD-GaMJjmVuJfDY=", "properties": {"@spider": "usps_collection_boxes", "addr:city": "SIMI VALLEY", "addr:country": "US", "addr:full": "2600 WESTHILLS CT", "addr:postcode": "93065", "addr:state": "CA", "amenity": "post_box", "brand": "United States Postal Service", "brand:wikidata": "Q668687", "collection_times": "Mo-Fr 15:00; Sa 10:00", "name": "USPS COLLECTION BOX - BLUE BOX", "note": "ON 12/24 AND 12/31, THIS BOX MAY BE COLLECTED AS EARLY AS 12 NOON.", "nsi_id": "unitedstatespostalservice-a77078", "operator": "United States Postal Service", "operator:short": "USPS", "operator:type": "public", "operator:wikidata": "Q668687", "ref": "9306500027"}, "type": "Feature"}
{"dataset_attributes": {"@spider": "usps_collection_boxes", "spider:collection_time": "2024-01-04T08:25:05.301423"}, "geometry": {"coordinates": [-118.810524, 34.25362], "type": "Point"}, "id": "c_VP7UlNpktdNlSqjsjNDkoC4Po=", "properties": {"@spider": "usps_collection_boxes", "addr:city": "SIMI VALLEY", "addr:country": "US", "addr:full": "575 COUNTRY CLUB DR", "addr:postcode": "93065", "addr:state": "CA", "amenity": "post_box", "brand": "United States Postal Service", "brand:wikidata": "Q668687", "collection_times": "Mo-Sa 10:00", "name": "USPS COLLECTION BOX - BLUE BOX", "nsi_id": "unitedstatespostalservice-a77078", "operator": "United States Postal Service", "operator:short": "USPS", "operator:type": "public", "operator:wikidata": "Q668687", "ref": "9306500032"}, "type": "Feature"}
{"dataset_attributes": {"@spider": "usps_collection_boxes", "spider:collection_time": "2024-01-04T08:25:05.301423"}, "geometry": {"coordinates": [-118.77635, 34.271502], "type": "Point"}, "id": "mxPqHKwWxmKP8meYjtbJ3Xz3tqE=", "properties": {"@spider": "usps_collection_boxes", "addr:city": "SIMI VALLEY", "addr:country": "US", "addr:full": "1200 E LOS ANGELES AVE", "addr:postcode": "93065", "addr:state": "CA", "amenity": "post_box", "brand": "United States Postal Service", "brand:wikidata": "Q668687", "collection_times": "Mo-Fr 15:00; Sa 10:00", "name": "USPS COLLECTION BOX - BLUE BOX", "note": "ON 12/24 AND 12/31, THIS BOX MAY BE COLLECTED AS EARLY AS 12 NOON.", "nsi_id": "unitedstatespostalservice-a77078", "operator": "United States Postal Service", "operator:short": "USPS", "operator:type": "public", "operator:wikidata": "Q668687", "ref": "9306500034"}, "type": "Feature"}
{"dataset_attributes": {"@spider": "usps_collection_boxes", "spider:collection_time": "2024-01-04T08:25:05.301423"}, "geometry": {"coordinates": [-118.761521, 34.268657], "type": "Point"}, "id": "HMwnghV0WrEp6dlVoza37hhKxXA=", "properties": {"@spider": "usps_collection_boxes", "addr:city": "SIMI VALLEY", "addr:country": "US", "addr:full": "1687 ERRINGER RD", "addr:postcode": "93065", "addr:state": "CA", "amenity": "post_box", "brand": "United States Postal Service", "brand:wikidata": "Q668687", "collection_times": "Mo-Sa 10:00", "name": "USPS COLLECTION BOX - BLUE BOX", "nsi_id": "unitedstatespostalservice-a77078", "operator": "United States Postal Service", "operator:short": "USPS", "operator:type": "public", "operator:wikidata": "Q668687", "ref": "9306500039"}, "type": "Feature"}
{"dataset_attributes": {"@spider": "usps_collection_boxes", "spider:collection_time": "2024-01-04T08:25:05.301423"}, "geometry": {"coordinates": [-118.743004, 34.270912], "type": "Point"}, "id": "UAxAX327A-0ruav40oS3ItZtRI0=", "properties": {"@spider": "usps_collection_boxes", "addr:city": "SIMI VALLEY", "addr:country": "US", "addr:full": "2700 E LOS ANGELES AVE", "addr:postcode": "93065", "addr:state": "CA", "amenity": "post_box", "brand": "United States Postal Service", "brand:wikidata": "Q668687", "collection_times": "Mo-Fr 15:00; Sa 10:00", "name": "USPS COLLECTION BOX - BLUE BOX", "note": "ON 12/24 AND 12/31, THIS BOX MAY BE COLLECTED AS EARLY AS 12 NOON.", "nsi_id": "unitedstatespostalservice-a77078", "operator": "United States Postal Service", "operator:short": "USPS", "operator:type": "public", "operator:wikidata": "Q668687", "ref": "9306500040"}, "type": "Feature"}
{"dataset_attributes": {"@spider": "usps_collection_boxes", "spider:collection_time": "2024-01-04T08:25:05.301423"}, "geometry": {"coordinates": [-118.782592, 34.2838], "type": "Point"}, "id": "LDMbqkJedKCxb267CiFUyRaniYc=", "properties": {"@spider": "usps_collection_boxes", "addr:city": "SIMI VALLEY", "addr:country": "US", "addr:full": "991 ENCHANTED WAY", "addr:postcode": "93065", "addr:state": "CA", "amenity": "post_box", "brand": "United States Postal Service", "brand:wikidata": "Q668687", "collection_times": "Mo-Sa 10:00", "name": "USPS COLLECTION BOX - BLUE BOX", "nsi_id": "unitedstatespostalservice-a77078", "operator": "United States Postal Service", "operator:short": "USPS", "operator:type": "public", "operator:wikidata": "Q668687", "ref": "9306500042"}, "type": "Feature"}
{"dataset_attributes": {"@spider": "usps_collection_boxes", "spider:collection_time": "2024-01-04T08:25:05.301423"}, "geometry": {"coordinates": [-118.734048, 34.271149], "type": "Point"}, "id": "ofUeRapHm-L6KrtAibe_ckkiMnw=", "properties": {"@spider": "usps_collection_boxes", "addr:city": "SIMI VALLEY", "addr:country": "US", "addr:full": "3200 E LOS ANGELES AVE", "addr:postcode": "93065", "addr:state": "CA", "amenity": "post_box", "brand": "United States Postal Service", "brand:wikidata": "Q668687", "collection_times": "Mo-Sa 10:00", "name": "USPS COLLECTION BOX - BLUE BOX", "nsi_id": "unitedstatespostalservice-a77078", "operator": "United States Postal Service", "operator:short": "USPS", "operator:type": "public", "operator:wikidata": "Q668687", "ref": "9306500043"}, "type": "Feature"}
{"dataset_attributes": {"@spider": "usps_collection_boxes", "spider:collection_time": "2024-01-04T08:25:05.301423"}, "geometry": {"coordinates": [-118.78906, 34.275072], "type": "Point"}, "id": "HS4MmXUFRCSvy210LWM3lkJWfpQ=", "properties": {"@spider": "usps_collection_boxes", "addr:city": "SIMI VALLEY", "addr:country": "US", "addr:full": "465 E EASY ST", "addr:postcode": "93065", "addr:state": "CA", "amenity": "post_box", "brand": "United States Postal Service", "brand:wikidata": "Q668687", "collection_times": "Mo-Fr 15:00; Sa 10:00", "name": "USPS COLLECTION BOX - BLUE BOX", "note": "ON 12/24 AND 12/31, THIS BOX MAY BE COLLECTED AS EARLY AS 12 NOON.", "nsi_id": "unitedstatespostalservice-a77078", "operator": "United States Postal Service", "operator:short": "USPS", "operator:type": "public", "operator:wikidata": "Q668687", "ref": "9306500048"}, "type": "Feature"}
{"dataset_attributes": {"@spider": "usps_collection_boxes", "spider:collection_time": "2024-01-04T08:25:05.301423"}, "geometry": {"coordinates": [-118.736227, 34.281472], "type": "Point"}, "id": "_MLROjjCYG1M9R5iRoWPj9WykFE=", "properties": {"@spider": "usps_collection_boxes", "addr:city": "SIMI VALLEY", "addr:country": "US", "addr:full": "2551 GALENA AVE", "addr:postcode": "93065", "addr:state": "CA", "amenity": "post_box", "brand": "United States Postal Service", "brand:wikidata": "Q668687", "collection_times": "Mo-Fr 17:15; Sa 17:00", "name": "USPS COLLECTION BOX - PO LOBBY", "note": "ON 12/24 AND 12/31, THIS BOX MAY BE COLLECTED AS EARLY AS 12 NOON.", "nsi_id": "unitedstatespostalservice-a77078", "operator": "United States Postal Service", "operator:short": "USPS", "operator:type": "public", "operator:wikidata": "Q668687", "ref": "9306500056"}, "type": "Feature"}
{"dataset_attributes": {"@spider": "usps_collection_boxes", "spider:collection_time": "2024-01-04T08:25:05.301423"}, "geometry": {"coordinates": [-118.736253, 34.281476], "type": "Point"}, "id": "hecgX2Jxjgi-vBJ3Wo1x-ZHFT0k=", "properties": {"@spider": "usps_collection_boxes", "addr:city": "SIMI VALLEY", "addr:country": "US", "addr:full": "2551 GALENA AVE", "addr:postcode": "93065", "addr:state": "CA", "amenity": "post_box", "brand": "United States Postal Service", "brand:wikidata": "Q668687", "collection_times": "Mo-Fr 17:15; Sa 17:00", "name": "USPS COLLECTION BOX - APC", "note": "ON 12/24 AND 12/31, THIS BOX MAY BE COLLECTED AS EARLY AS 12 NOON.", "nsi_id": "unitedstatespostalservice-a77078", "operator": "United States Postal Service", "operator:short": "USPS", "operator:type": "public", "operator:wikidata": "Q668687", "ref": "9306500066"}, "type": "Feature"}
{"dataset_attributes": {"@spider": "usps_collection_boxes", "spider:collection_time": "2024-01-04T08:25:05.301423"}, "geometry": {"coordinates": [-118.747673, 34.26145], "type": "Point"}, "id": "bhiewjge94e9xO2clDM6b_UCS5c=", "properties": {"@spider": "usps_collection_boxes", "addr:city": "SIMI VALLEY", "addr:country": "US", "addr:full": "1244 SYCAMORE DR", "addr:postcode": "93065", "addr:state": "CA", "amenity": "post_box", "brand": "United States Postal Service", "brand:wikidata": "Q668687", "collection_times": "Mo-Sa 10:00", "name": "USPS COLLECTION BOX - BLUE BOX", "nsi_id": "unitedstatespostalservice-a77078", "operator": "United States Postal Service", "operator:short": "USPS", "operator:type": "public", "operator:wikidata": "Q668687", "ref": "9306500068"}, "type": "Feature"}
{"dataset_attributes": {"@spider": "usps_collection_boxes", "spider:collection_time": "2024-01-04T08:25:05.301423"}, "geometry": {"coordinates": [-118.7922662083, 34.2705502271], "type": "Point"}, "id": "KpQFLcuy7RDATsWSJ8OXYx-tWKo=", "properties": {"@spider": "usps_collection_boxes", "addr:city": "SIMI VALLEY", "addr:country": "US", "addr:full": "225 SIMI VILLAGE DR", "addr:postcode": "93065", "addr:state": "CA", "amenity": "post_box", "brand": "United States Postal Service", "brand:wikidata": "Q668687", "collection_times": "Mo-Fr 17:30", "name": "USPS COLLECTION BOX - PO LOBBY", "note": "ON 12/24 AND 12/31, THIS BOX MAY BE COLLECTED AS EARLY AS 12 NOON.", "nsi_id": "unitedstatespostalservice-a77078", "operator": "United States Postal Service", "operator:short": "USPS", "operator:type": "public", "operator:wikidata": "Q668687", "ref": "9306500082"}, "type": "Feature"}
{"dataset_attributes": {"@spider": "usps_collection_boxes", "spider:collection_time": "2024-01-04T08:25:05.301423"}, "geometry": {"coordinates": [-118.7357079809, 34.2813579308], "type": "Point"}, "id": "qLloBz3_XgsU85pq8TjJcbLD-Zo=", "properties": {"@spider": "usps_collection_boxes", "addr:city": "SIMI VALLEY", "addr:country": "US", "addr:full": "2551 GALENA AVE", "addr:postcode": "93065", "addr:state": "CA", "amenity": "post_box", "brand": "United States Postal Service", "brand:wikidata": "Q668687", "collection_times": "Mo-Fr 17:30", "name": "USPS COLLECTION BOX - PO LOBBY", "note": "ON 12/24 AND 12/31, THIS BOX MAY BE COLLECTED AS EARLY AS 12 NOON.", "nsi_id": "unitedstatespostalservice-a77078", "operator": "United States Postal Service", "operator:short": "USPS", "operator:type": "public", "operator:wikidata": "Q668687", "ref": "9306500083"}, "type": "Feature"}
{"dataset_attributes": {"@spider": "usps_collection_boxes", "spider:collection_time": "2024-01-04T08:25:05.301423"}, "geometry": {"coordinates": [-118.996208586, 34.256747262], "type": "Point"}, "id": "ZdkPP8EP8lVYPGTZDVc2_Y2C_sE=", "properties": {"@spider": "usps_collection_boxes", "addr:city": "SOMIS", "addr:country": "US", "addr:full": "3349 SOMIS RD", "addr:postcode": "93066", "addr:state": "CA", "amenity": "post_box", "brand": "United States Postal Service", "brand:wikidata": "Q668687", "collection_times": "Mo-Fr 16:00", "name": "USPS COLLECTION BOX - BLUE BOX", "note": "ON 12/24 AND 12/31, THIS BOX MAY BE COLLECTED AS EARLY AS 12 NOON.", "nsi_id": "unitedstatespostalservice-a77078", "operator": "United States Postal Service", "operator:short": "USPS", "operator:type": "public", "operator:wikidata": "Q668687", "ref": "9306600002"}, "type": "Feature"}
{"dataset_attributes": {"@spider": "usps_collection_boxes", "spider:collection_time": "2024-01-04T08:25:05.301423"}, "geometry": {"coordinates": [-118.9962441064, 34.2566242503], "type": "Point"}, "id": "4YxQNA60mJzC-jQlOVIldf4GnP8=", "properties": {"@spider": "usps_collection_boxes", "addr:city": "SOMIS", "addr:country": "US", "addr:full": "3349 SOMIS RD", "addr:postcode": "93066", "addr:state": "CA", "amenity": "post_box", "brand": "United States Postal Service", "brand:wikidata": "Q668687", "collection_times": "Mo-Fr 16:00", "name": "USPS COLLECTION BOX - BLUE BOX", "note": "ON 12/24 AND 12/31, THIS BOX MAY BE COLLECTED AS EARLY AS 12 NOON.", "nsi_id": "unitedstatespostalservice-a77078", "operator": "United States Postal Service", "operator:short": "USPS", "operator:type": "public", "operator:wikidata": "Q668687", "ref": "9306600003"}, "type": "Feature"}
{"dataset_attributes": {"@spider": "usps_collection_boxes", "spider:collection_time": "2024-01-04T08:25:05.301423"}, "geometry": {"coordinates": [-118.9962454863, 34.2566201379], "type": "Point"}, "id": "jVr1gAW1umBO3M1caFMn9zkF_JY=", "properties": {"@spider": "usps_collection_boxes", "addr:city": "SOMIS", "addr:country": "US", "addr:full": "3349 SOMIS RD", "addr:postcode": "93066", "addr:state": "CA", "amenity": "post_box", "brand": "United States Postal Service", "brand:wikidata": "Q668687", "collection_times": "Mo-Fr 16:00", "name": "USPS COLLECTION BOX - PO LOBBY", "note": "ON 12/24 AND 12/31, THIS BOX MAY BE COLLECTED AS EARLY AS 12 NOON.", "nsi_id": "unitedstatespostalservice-a77078", "operator": "United States Postal Service", "operator:short": "USPS", "operator:type": "public", "operator:wikidata": "Q668687", "ref": "9306600004"}, "type": "Feature"}
{"dataset_attributes": {"@spider": "usps_collection_boxes", "spider:collection_time": "2024-01-04T08:25:05.301423"}, "geometry": {"coordinates": [-118.9962454863, 34.2566201379], "type": "Point"}, "id": "KNxj-fveWF3fSJs5qQ6eENyL0RM=", "properties": {"@spider": "usps_collection_boxes", "addr:city": "SOMIS", "addr:country": "US", "addr:full": "3349 SOMIS RD", "addr:postcode": "93066", "addr:state": "CA", "amenity": "post_box", "brand": "United States Postal Service", "brand:wikidata": "Q668687", "collection_times": "Mo-Fr 16:00", "name": "USPS COLLECTION BOX - PO LOBBY", "note": "ON 12/24 AND 12/31, THIS BOX MAY BE COLLECTED AS EARLY AS 12 NOON.", "nsi_id": "unitedstatespostalservice-a77078", "operator": "United States Postal Service", "operator:short": "USPS", "operator:type": "public", "operator:wikidata": "Q668687", "ref": "9306600006"}, "type": "Feature"}
{"dataset_attributes": {"@spider": "usps_collection_boxes", "spider:collection_time": "2024-01-04T08:25:05.301423"}, "geometry": {"coordinates": [-119.6017858755, 34.4220788676], "type": "Point"}, "id": "fCAxtvQGvxKZ14qF3BN31-_W5PY=", "properties": {"@spider": "usps_collection_boxes", "addr:city": "SUMMERLAND", "addr:country": "US", "addr:full": "2245 LILLIE AVE", "addr:postcode": "93067", "addr:state": "CA", "amenity": "post_box", "brand": "United States Postal Service", "brand:wikidata": "Q668687", "collection_times": "Mo-Fr 16:00; Sa 10:00", "name": "USPS COLLECTION BOX - PO LOBBY", "note": "ON 12/24 AND 12/31, THIS BOX MAY BE COLLECTED AS EARLY AS 12 NOON.", "nsi_id": "unitedstatespostalservice-a77078", "operator": "United States Postal Service", "operator:short": "USPS", "operator:type": "public", "operator:wikidata": "Q668687", "ref": "9306700001"}, "type": "Feature"}
{"dataset_attributes": {"@spider": "usps_collection_boxes", "spider:collection_time": "2024-01-04T08:25:05.301423"}, "geometry": {"coordinates": [-119.6017858755, 34.4220788676], "type": "Point"}, "id": "o059bmYLzns0r9vK4Vj5jRio0S4=", "properties": {"@spider": "usps_collection_boxes", "addr:city": "SUMMERLAND", "addr:country": "US", "addr:full": "2245 LILLIE AVE", "addr:postcode": "93067", "addr:state": "CA", "amenity": "post_box", "brand": "United States Postal Service", "brand:wikidata": "Q668687", "collection_times": "Mo-Fr 16:00; Sa 10:00", "name": "USPS COLLECTION BOX - BLUE BOX", "note": "ON 12/24 AND 12/31, THIS BOX MAY BE COLLECTED AS EARLY AS 12 NOON.", "nsi_id": "unitedstatespostalservice-a77078", "operator": "United States Postal Service", "operator:short": "USPS", "operator:type": "public", "operator:wikidata": "Q668687", "ref": "9306700002"}, "type": "Feature"}
{"dataset_attributes": {"@spider": "usps_collection_boxes", "spider:collection_time": "2024-01-04T08:25:05.301423"}, "geometry": {"coordinates": [-119.6017858755, 34.4220788676], "type": "Point"}, "id": "qeUvOo-tukTx-CJ6R9adL6km2q0=", "properties": {"@spider": "usps_collection_boxes", "addr:city": "SUMMERLAND", "addr:country": "US", "addr:full": "2245 LILLIE AVE", "addr:postcode": "93067", "addr:state": "CA", "amenity": "post_box", "brand": "United States Postal Service", "brand:wikidata": "Q668687", "collection_times": "Mo-Fr 16:00", "name": "USPS COLLECTION BOX - PO LOBBY", "note": "ON 12/24 AND 12/31, THIS BOX MAY BE COLLECTED AS EARLY AS 12 NOON.", "nsi_id": "unitedstatespostalservice-a77078", "operator": "United States Postal Service", "operator:short": "USPS", "operator:type": "public", "operator:wikidata": "Q668687", "ref": "9306700004"}, "type": "Feature"}
{"dataset_attributes": {"@spider": "usps_collection_boxes", "spider:collection_time": "2024-01-04T08:25:05.301423"}, "geometry": {"coordinates": [-118.79214, 34.270596], "type": "Point"}, "id": "LX3GVRVyty_oBnhWU-eHX7UKlW0=", "properties": {"@spider": "usps_collection_boxes", "addr:city": "SIMI VALLEY", "addr:country": "US", "addr:full": "225 SIMI VILLAGE DR", "addr:postcode": "93094", "addr:state": "CA", "amenity": "post_box", "brand": "United States Postal Service", "brand:wikidata": "Q668687", "collection_times": "Mo-Sa 17:15", "name": "USPS COLLECTION BOX - BLUE BOX", "note": "ON 12/24 AND 12/31, THIS BOX MAY BE COLLECTED AS EARLY AS 12 NOON.", "nsi_id": "unitedstatespostalservice-a77078", "operator": "United States Postal Service", "operator:short": "USPS", "operator:type": "public", "operator:wikidata": "Q668687", "ref": "9309400001"}, "type": "Feature"}
{"dataset_attributes": {"@spider": "usps_collection_boxes", "spider:collection_time": "2024-01-04T08:25:05.301423"}, "geometry": {"coordinates": [-118.79228, 34.27052], "type": "Point"}, "id": "Y3sdTInBy06N-r4C2i146vVkqEk=", "properties": {"@spider": "usps_collection_boxes", "addr:city": "SIMI VALLEY", "addr:country": "US", "addr:full": "225 SIMI VILLAGE DR", "addr:postcode": "93094", "addr:state": "CA", "amenity": "post_box", "brand": "United States Postal Service", "brand:wikidata": "Q668687", "collection_times": "Mo-Sa 17:30", "name": "USPS COLLECTION BOX - PO LOBBY", "note": "ON 12/24 AND 12/31, THIS BOX MAY BE COLLECTED AS EARLY AS 12 NOON.", "nsi_id": "unitedstatespostalservice-a77078", "operator": "United States Postal Service", "operator:short": "USPS", "operator:type": "public", "operator:wikidata": "Q668687", "ref": "9309400005"}, "type": "Feature"}
{"dataset_attributes": {"@spider": "usps_collection_boxes", "spider:collection_time": "2024-01-04T08:25:05.301423"}, "geometry": {"coordinates": [-118.79228, 34.27052], "type": "Point"}, "id": "Q2B_u49ECH2Xmpov6pfUYwR8tfA=", "properties": {"@spider": "usps_collection_boxes", "addr:city": "SIMI VALLEY", "addr:country": "US", "addr:full": "225 SIMI VILLAGE DR", "addr:postcode": "93094", "addr:state": "CA", "amenity": "post_box", "brand": "United States Postal Service", "brand:wikidata": "Q668687", "collection_times": "Mo-Sa 17:30", "name": "USPS COLLECTION BOX - PO LOBBY", "note": "ON 12/24 AND 12/31, THIS BOX MAY BE COLLECTED AS EARLY AS 12 NOON.", "nsi_id": "unitedstatespostalservice-a77078", "operator": "United States Postal Service", "operator:short": "USPS", "operator:type": "public", "operator:wikidata": "Q668687", "ref": "9309400006"}, "type": "Feature"}
{"dataset_attributes": {"@spider": "usps_collection_boxes", "spider:collection_time": "2024-01-04T08:25:05.301423"}, "geometry": {"coordinates": [-118.79228, 34.27052], "type": "Point"}, "id": "8-0JHyvNSFcWO7L7BW6biGP8nHE=", "properties": {"@spider": "usps_collection_boxes", "addr:city": "SIMI VALLEY", "addr:country": "US", "addr:full": "225 SIMI VILLAGE DR", "addr:postcode": "93094", "addr:state": "CA", "amenity": "post_box", "brand": "United States Postal Service", "brand:wikidata": "Q668687", "collection_times": "Mo-Sa 17:30", "name": "USPS COLLECTION BOX - PO LOBBY", "note": "ON 12/24 AND 12/31, THIS BOX MAY BE COLLECTED AS EARLY AS 12 NOON.", "nsi_id": "unitedstatespostalservice-a77078", "operator": "United States Postal Service", "operator:short": "USPS", "operator:type": "public", "operator:wikidata": "Q668687", "ref": "9309400007"}, "type": "Feature"}
{"dataset_attributes": {"@spider": "usps_collection_boxes", "spider:collection_time": "2024-01-04T08:25:05.301423"}, "geometry": {"coordinates": [-118.79228, 34.27052], "type": "Point"}, "id": "NTjZDECNhS2AEzc0nCph0n30_Sg=", "properties": {"@spider": "usps_collection_boxes", "addr:city": "SIMI VALLEY", "addr:country": "US", "addr:full": "225 SIMI VILLAGE DR", "addr:postcode": "93094", "addr:state": "CA", "amenity": "post_box", "brand": "United States Postal Service", "brand:wikidata": "Q668687", "collection_times": "Mo-Sa 17:30", "name": "USPS COLLECTION BOX - APC", "note": "ON 12/24 AND 12/31, THIS BOX MAY BE COLLECTED AS EARLY AS 12 NOON.", "nsi_id": "unitedstatespostalservice-a77078", "operator": "United States Postal Service", "operator:short": "USPS", "operator:type": "public", "operator:wikidata": "Q668687", "ref": "9309400008"}, "type": "Feature"}
{"dataset_attributes": {"@spider": "usps_collection_boxes", "spider:collection_time": "2024-01-04T08:25:05.301423"}, "geometry": {"coordinates": [-118.79228, 34.27052], "type": "Point"}, "id": "xtvi9SBnv4lwcls5QgZ8bhwALlE=", "properties": {"@spider": "usps_collection_boxes", "addr:city": "SIMI VALLEY", "addr:country": "US", "addr:full": "225 SIMI VILLAGE DR", "addr:postcode": "93094", "addr:state": "CA", "amenity": "post_box", "brand": "United States Postal Service", "brand:wikidata": "Q668687", "collection_times": "Mo-Sa 17:15", "name": "USPS COLLECTION BOX - BLUE BOX", "note": "ON 12/24 AND 12/31, THIS BOX MAY BE COLLECTED AS EARLY AS 12 NOON.", "nsi_id": "unitedstatespostalservice-a77078", "operator": "United States Postal Service", "operator:short": "USPS", "operator:type": "public", "operator:wikidata": "Q668687", "ref": "9309400009"}, "type": "Feature"}
