{"geometry": {"coordinates": [-119.7362488722, 34.4403317863], "type": "Point"}, "id": "zpQkT8vAZ3nCzlS5iahwWksVfys=", "properties": {"@spider": "usps_collection_boxes", "addr:city": "SANTA BARBARA", "addr:country": "US", "addr:full": "3345 STATE ST", "addr:postcode": "93105", "addr:state": "CA", "brand": "USPS", "collection_times": "Mo-Fr 17:00; Sa 14:00", "name": "USPS COLLECTION BOX - BLUE BOX", "note": "ON 12/24 AND 12/31, THIS BOX MAY BE COLLECTED AS EARLY AS 12 NOON.", "ref": "9310500001"}, "type": "Feature"}
{"geometry": {"coordinates": [-119.725012, 34.435255], "type": "Point"}, "id": "hxuY3uhDTMy9t_AJXEKVM-veJf4=", "properties": {"@spider": "usps_collection_boxes", "addr:city": "SANTA BARBARA", "addr:country": "US", "addr:full": "2600 DE LA VINA ST", "addr:postcode": "93105", "addr:state": "CA", "brand": "USPS", "collection_times": "Mo-Sa 10:00", "name": "USPS COLLECTION BOX - BLUE BOX", "ref": "9310500006"}, "type": "Feature"}
{"geometry": {"coordinates": [-119.728351, 34.440476], "type": "Point"}, "id": "HOBnA7D07ryoc1Ysy-1n4ZiiFcM=", "properties": {"@spider": "usps_collection_boxes", "addr:city": "SANTA BARBARA", "addr:country": "US", "addr:full": "3000 STATE ST", "addr:postcode": "93105", "addr:state": "CA", "brand": "USPS", "collection_times": "Mo-Sa 10:00", "name": "USPS COLLECTION BOX - BLUE BOX", "ref": "9310500021"}, "type": "Feature"}
{"geometry": {"coordinates": [-119.7456412422, 34.4349741679], "type": "Point"}, "id": "3QdRaFmY_Eo8S8jQpgHYmdoyZd0=", "properties": {"@spider": "usps_collection_boxes", "addr:city": "SANTA BARBARA", "addr:country": "US", "addr:full": "351 HITCHCOCK WAY", "addr:postcode": "93105", "addr:state": "CA", "brand": "USPS", "collection_times": "Mo-Sa 10:00", "name": "USPS COLLECTION BOX - BLUE BOX", "ref": "9310500029"}, "type": "Feature"}
{"geometry": {"coordinates": [-119.729881, 34.430596], "type": "Point"}, "id": "QlXplyylXs_ybMe6aG01fhxiW5U=", "properties": {"@spider": "usps_collection_boxes", "addr:city": "SANTA BARBARA", "addr:country": "US", "addr:full": "2661 TALLANT RD", "addr:postcode": "93105", "addr:state": "CA", "brand": "USPS", "collection_times": "Mo-Sa 10:00", "name": "USPS COLLECTION BOX - BLUE BOX", "ref": "9310500036"}, "type": "Feature"}
{"geometry": {"coordinates": [-119.75353796, 34.440780987], "type": "Point"}, "id": "RN9vjru6TPTZrsPHhGmbRgPtFvs=", "properties": {"@spider": "usps_collection_boxes", "addr:city": "SANTA BARBARA", "addr:country": "US", "addr:full": "3948 STATE ST", "addr:postcode": "93105", "addr:state": "CA", "brand": "USPS", "collection_times": "Mo-Fr 10:00", "name": "USPS COLLECTION BOX - BLUE BOX", "ref": "9310500038"}, "type": "Feature"}
{"geometry": {"coordinates": [-119.742502, 34.440519], "type": "Point"}, "id": "6rjg6MUyXV-rNl-YzIc0GF_Tt80=", "properties": {"@spider": "usps_collection_boxes", "addr:city": "SANTA BARBARA", "addr:country": "US", "addr:full": "3704 STATE ST", "addr:postcode": "93105", "addr:state": "CA", "brand": "USPS", "collection_times": "Mo-Fr 10:00", "name": "USPS COLLECTION BOX - BLUE BOX", "ref": "9310500039"}, "type": "Feature"}
{"geometry": {"coordinates": [-119.7362488722, 34.4403317863], "type": "Point"}, "id": "_v4XassSvgpE7SrHjgCtoYC_W3k=", "properties": {"@spider": "usps_collection_boxes", "addr:city": "SANTA BARBARA", "addr:country": "US", "addr:full": "3345 STATE ST", "addr:postcode": "93105", "addr:state": "CA", "brand": "USPS", "collection_times": "Mo-Fr 17:00; Sa 14:00", "name": "USPS COLLECTION BOX - APC", "note": "ON 12/24 AND 12/31, THIS BOX MAY BE COLLECTED AS EARLY AS 12 NOON.", "ref": "9310500045"}, "type": "Feature"}
{"geometry": {"coordinates": [-119.7362488722, 34.4403317863], "type": "Point"}, "id": "0xdYwm2KxYFGZ27NTWkRQZaZZnc=", "properties": {"@spider": "usps_collection_boxes", "addr:city": "SANTA BARBARA", "addr:country": "US", "addr:full": "3345 STATE ST", "addr:postcode": "93105", "addr:state": "CA", "brand": "USPS", "collection_times": "Mo-Fr 17:00; Sa 14:00", "name": "USPS COLLECTION BOX - BLUE BOX", "note": "ON 12/24 AND 12/31, THIS BOX MAY BE COLLECTED AS EARLY AS 12 NOON.", "ref": "9310500047"}, "type": "Feature"}
{"geometry": {"coordinates": [-119.728821796, 34.439201174], "type": "Point"}, "id": "mywKaRyK9F_3BHGaiouK5-7vXmg=", "properties": {"@spider": "usps_collection_boxes", "addr:city": "SANTA BARBARA", "addr:country": "US", "addr:full": "3025 DE LA VINA ST", "addr:postcode": "93105", "addr:state": "CA", "brand": "USPS", "collection_times": "Mo-Sa 10:00", "name": "USPS COLLECTION BOX - BLUE BOX", "ref": "9310500048"}, "type": "Feature"}
{"geometry": {"coordinates": [-119.7362488722, 34.4403317863], "type": "Point"}, "id": "kDqv4-O2pTgt_APnz2VaXjZZ9Es=", "properties": {"@spider": "usps_collection_boxes", "addr:city": "SANTA BARBARA", "addr:country": "US", "addr:full": "3345 STATE ST", "addr:postcode": "93105", "addr:state": "CA", "brand": "USPS", "collection_times": "Mo-Fr 17:00", "name": "USPS COLLECTION BOX - PO LOBBY", "note": "ON 12/24 AND 12/31, THIS BOX MAY BE COLLECTED AS EARLY AS 12 NOON.", "ref": "9310500052"}, "type": "Feature"}
{"geometry": {"coordinates": [-119.724188, 34.402445], "type": "Point"}, "id": "Bl8doWUyhw3SiXKxy5Y7LRY9qyY=", "properties": {"@spider": "usps_collection_boxes", "addr:city": "SANTA BARBARA", "addr:country": "US", "addr:full": "2029 CLIFF DR", "addr:postcode": "93109", "addr:state": "CA", "brand": "USPS", "collection_times": "Mo-Sa 10:00", "name": "USPS COLLECTION BOX - BLUE BOX", "ref": "9310900016"}, "type": "Feature"}
{"geometry": {"coordinates": [-119.757011, 34.436074], "type": "Point"}, "id": "nqMBWWZIQMupDDky1hEEur5lskc=", "properties": {"@spider": "usps_collection_boxes", "addr:city": "GOLETA", "addr:country": "US", "addr:full": "200 LAS PALMAS DR", "addr:postcode": "93110", "addr:state": "CA", "brand": "USPS", "collection_times": "Mo-Sa 10:00", "name": "USPS COLLECTION BOX - BLUE BOX", "ref": "9311000017"}, "type": "Feature"}
{"geometry": {"coordinates": [-119.779464432, 34.444820727], "type": "Point"}, "id": "PKiWnbNPF8bFDhBqW7J9JedQeCU=", "properties": {"@spider": "usps_collection_boxes", "addr:city": "GOLETA", "addr:country": "US", "addr:full": "345 CAMINO DEL REMEDIO", "addr:postcode": "93110", "addr:state": "CA", "brand": "USPS", "collection_times": "Mo-Sa 10:00", "name": "USPS COLLECTION BOX - BLUE BOX", "ref": "9311000018"}, "type": "Feature"}
{"geometry": {"coordinates": [-119.758388, 34.442316], "type": "Point"}, "id": "a-byn-LjAtaBh21zEaqkLQhwZ9c=", "properties": {"@spider": "usps_collection_boxes", "addr:city": "GOLETA", "addr:country": "US", "addr:full": "200 PESETAS LN", "addr:postcode": "93110", "addr:state": "CA", "brand": "USPS", "collection_times": "Mo-Fr 10:00", "name": "USPS COLLECTION BOX - BLUE BOX", "ref": "9311000019"}, "type": "Feature"}
{"geometry": {"coordinates": [-119.8074600006, 34.4369600129], "type": "Point"}, "id": "-K-JYXb0AG2nO0bqsJUtEvJjwds=", "properties": {"@spider": "usps_collection_boxes", "addr:city": "SANTA BARBARA", "addr:country": "US", "addr:full": "130 S PATTERSON AVE", "addr:postcode": "93111", "addr:state": "CA", "brand": "USPS", "collection_times": "Mo-Fr 17:45; Sa 16:45", "name": "USPS COLLECTION BOX - BLUE BOX", "note": "ON 12/24 AND 12/31, THIS BOX MAY BE COLLECTED AS EARLY AS 12 NOON.", "ref": "9311100011"}, "type": "Feature"}
{"geometry": {"coordinates": [-119.808826837, 34.4370184999], "type": "Point"}, "id": "gxqo4jPeIqFIxBtAuPKXdnSS8WU=", "properties": {"@spider": "usps_collection_boxes", "addr:city": "SANTA BARBARA", "addr:country": "US", "addr:full": "130 S PATTERSON AVE", "addr:postcode": "93111", "addr:state": "CA", "brand": "USPS", "collection_times": "Mo-Fr 17:30; Sa 15:00", "name": "USPS COLLECTION BOX - PO LOBBY", "note": "ON 12/24 AND 12/31, THIS BOX MAY BE COLLECTED AS EARLY AS 12 NOON.", "ref": "9311100013"}, "type": "Feature"}
{"geometry": {"coordinates": [-119.808826837, 34.4370184999], "type": "Point"}, "id": "RIbMLeec2Yh1vVoLqc08OSVzfVY=", "properties": {"@spider": "usps_collection_boxes", "addr:city": "SANTA BARBARA", "addr:country": "US", "addr:full": "130 S PATTERSON AVE", "addr:postcode": "93111", "addr:state": "CA", "brand": "USPS", "collection_times": "Mo-Fr 17:30; Sa 15:00", "name": "USPS COLLECTION BOX - PO LOBBY", "note": "ON 12/24 AND 12/31, THIS BOX MAY BE COLLECTED AS EARLY AS 12 NOON.", "ref": "9311100014"}, "type": "Feature"}
{"geometry": {"coordinates": [-119.808826837, 34.4370184999], "type": "Point"}, "id": "WxfAiIprPFOVxdV8ggQC1kYUj8s=", "properties": {"@spider": "usps_collection_boxes", "addr:city": "SANTA BARBARA", "addr:country": "US", "addr:full": "130 S PATTERSON AVE", "addr:postcode": "93111", "addr:state": "CA", "brand": "USPS", "collection_times": "Mo-Fr 17:30; Sa 15:00", "name": "USPS COLLECTION BOX - APC", "note": "ON 12/24 AND 12/31, THIS BOX MAY BE COLLECTED AS EARLY AS 12 NOON.", "ref": "9311100019"}, "type": "Feature"}
{"geometry": {"coordinates": [-119.808826837, 34.4370184999], "type": "Point"}, "id": "CLcVTRQl9Qk3mL6ATyshQZV0SYg=", "properties": {"@spider": "usps_collection_boxes", "addr:city": "SANTA BARBARA", "addr:country": "US", "addr:full": "130 S PATTERSON AVE", "addr:postcode": "93111", "addr:state": "CA", "brand": "USPS", "collection_times": "Mo-Fr 18:00", "name": "USPS COLLECTION BOX - PO LOBBY", "note": "ON 12/24 AND 12/31, THIS BOX MAY BE COLLECTED AS EARLY AS 12 NOON.", "ref": "9311100021"}, "type": "Feature"}
{"geometry": {"coordinates": [-119.807880018, 34.436959007], "type": "Point"}, "id": "JOxD49vfEMXKp8QNGRTBckBxofI=", "properties": {"@spider": "usps_collection_boxes", "addr:city": "SANTA BARBARA", "addr:country": "US", "addr:full": "130 S PATTERSON AVE", "addr:postcode": "93111", "addr:state": "CA", "brand": "USPS", "collection_times": "Mo-Fr 17:45; Sa 16:45", "name": "USPS COLLECTION BOX - BLUE BOX", "note": "ON 12/24 AND 12/31, THIS BOX MAY BE COLLECTED AS EARLY AS 12 NOON.", "ref": "9311100023"}, "type": "Feature"}
{"geometry": {"coordinates": [-119.824375, 34.440954], "type": "Point"}, "id": "m8zoMH31SIMCau2GlY83URR4TlE=", "properties": {"@spider": "usps_collection_boxes", "addr:city": "SANTA BARBARA", "addr:country": "US", "addr:full": "5737 CALLE REAL", "addr:postcode": "93117", "addr:state": "CA", "brand": "USPS", "collection_times": "Mo-Sa 10:00", "name": "USPS COLLECTION BOX - BLUE BOX", "ref": "9311700005"}, "type": "Feature"}
{"geometry": {"coordinates": [-119.885061, 34.43292], "type": "Point"}, "id": "eZx04IUcoB2liMlQfdJ_GonDpDs=", "properties": {"@spider": "usps_collection_boxes", "addr:city": "SANTA BARBARA", "addr:country": "US", "addr:full": "7390 CALLE REAL", "addr:postcode": "93117", "addr:state": "CA", "brand": "USPS", "collection_times": "Mo-Sa 10:00", "name": "USPS COLLECTION BOX - BLUE BOX", "ref": "9311700025"}, "type": "Feature"}
{"geometry": {"coordinates": [-119.856599, 34.431676], "type": "Point"}, "id": "8m5f7YHKhbp2HO3QmVU3P4j8iJM=", "properties": {"@spider": "usps_collection_boxes", "addr:city": "SANTA BARBARA", "addr:country": "US", "addr:full": "130 CREMONA DR", "addr:postcode": "93117", "addr:state": "CA", "brand": "USPS", "collection_times": "Mo-Fr 15:00", "name": "USPS COLLECTION BOX - BLUE BOX", "note": "ON 12/24 AND 12/31, THIS BOX MAY BE COLLECTED AS EARLY AS 12 NOON.", "ref": "9311700027"}, "type": "Feature"}
{"geometry": {"coordinates": [-119.877374, 34.428745], "type": "Point"}, "id": "p_tyTdNuEygj2gjBJiF6MtFfno4=", "properties": {"@spider": "usps_collection_boxes", "addr:city": "SANTA BARBARA", "addr:country": "US", "addr:full": "200 PACIFIC OAKS RD", "addr:postcode": "93117", "addr:state": "CA", "brand": "USPS", "collection_times": "Mo-Sa 10:00", "name": "USPS COLLECTION BOX - BLUE BOX", "ref": "9311700030"}, "type": "Feature"}
{"geometry": {"coordinates": [-119.847021, 34.415682], "type": "Point"}, "id": "vMziyvrDs5kTM453c0iq_BaGfJg=", "properties": {"@spider": "usps_collection_boxes", "addr:city": "SANTA BARBARA", "addr:country": "US", "addr:full": "570 MESA RD", "addr:postcode": "93117", "addr:state": "CA", "brand": "USPS", "collection_times": "Mo-Fr 15:00", "name": "USPS COLLECTION BOX - BLUE BOX", "note": "ON 12/24 AND 12/31, THIS BOX MAY BE COLLECTED AS EARLY AS 12 NOON.", "ref": "9311700041"}, "type": "Feature"}
{"geometry": {"coordinates": [-119.8568684775, 34.4111952037], "type": "Point"}, "id": "29NwlD3ApQE0d58OCBhvd2k8tkE=", "properties": {"@spider": "usps_collection_boxes", "addr:city": "SANTA BARBARA", "addr:country": "US", "addr:full": "976 EMBARCADERO DEL MAR", "addr:postcode": "93117", "addr:state": "CA", "brand": "USPS", "collection_times": "Mo-Sa 10:00", "name": "USPS COLLECTION BOX - BLUE BOX", "ref": "9311700042"}, "type": "Feature"}
{"geometry": {"coordinates": [-119.857745, 34.422476], "type": "Point"}, "id": "9EopwyZHCEi6jB85zhVuFbDeGLM=", "properties": {"@spider": "usps_collection_boxes", "addr:city": "SANTA BARBARA", "addr:country": "US", "addr:full": "570 MESA RD", "addr:postcode": "93117", "addr:state": "CA", "brand": "USPS", "collection_times": "Mo-Fr 15:00", "name": "USPS COLLECTION BOX - BLUE BOX", "note": "ON 12/24 AND 12/31, THIS BOX MAY BE COLLECTED AS EARLY AS 12 NOON.", "ref": "9311700043"}, "type": "Feature"}
{"geometry": {"coordinates": [-119.8305435224, 34.4474533447], "type": "Point"}, "id": "yXot6EQQfN5gvO168z4juW4IU_8=", "properties": {"@spider": "usps_collection_boxes", "addr:city": "SANTA BARBARA", "addr:country": "US", "addr:full": "500 N FAIRVIEW AVE", "addr:postcode": "93117", "addr:state": "CA", "brand": "USPS", "collection_times": "Mo-Sa 10:00", "name": "USPS COLLECTION BOX - BLUE BOX", "ref": "9311700058"}, "type": "Feature"}
{"geometry": {"coordinates": [-119.8258224462, 34.4357725939], "type": "Point"}, "id": "CzHdmU7nzHq6_aeJvYWpc5y3t-g=", "properties": {"@spider": "usps_collection_boxes", "addr:city": "SANTA BARBARA", "addr:country": "US", "addr:full": "5777 HOLLISTER AVE", "addr:postcode": "93117", "addr:state": "CA", "brand": "USPS", "collection_times": "Mo-Sa 10:00", "name": "USPS COLLECTION BOX - BLUE BOX", "ref": "9311700061"}, "type": "Feature"}
{"geometry": {"coordinates": [-119.827123, 34.444173], "type": "Point"}, "id": "jC5Wkh2kRsHV4vDknn2NuiwHDoQ=", "properties": {"@spider": "usps_collection_boxes", "addr:city": "SANTA BARBARA", "addr:country": "US", "addr:full": "250 MORETON BAY LN", "addr:postcode": "93117", "addr:state": "CA", "brand": "USPS", "collection_times": "Mo-Sa 10:00", "name": "USPS COLLECTION BOX - BLUE BOX", "ref": "9311700063"}, "type": "Feature"}
{"geometry": {"coordinates": [-119.876558045, 34.4300714198], "type": "Point"}, "id": "pkMtmRGJpWbI3IDNgSGX2HnXUYU=", "properties": {"@spider": "usps_collection_boxes", "addr:city": "SANTA BARBARA", "addr:country": "US", "addr:full": "400 STORKE RD", "addr:postcode": "93118", "addr:state": "CA", "brand": "USPS", "collection_times": "Mo-Fr 17:00; Sa 10:00", "name": "USPS COLLECTION BOX - BLUE BOX", "note": "ON 12/24 AND 12/31, THIS BOX MAY BE COLLECTED AS EARLY AS 12 NOON.", "ref": "9311800001"}, "type": "Feature"}
{"geometry": {"coordinates": [-119.8696782097, 34.4252093367], "type": "Point"}, "id": "jVOO_QZ0GbF3g56pm3GmHiFuAkc=", "properties": {"@spider": "usps_collection_boxes", "addr:city": "GOLETA", "addr:country": "US", "addr:full": "400 STORKE RD", "addr:postcode": "93199", "addr:state": "CA", "brand": "USPS", "collection_times": "Mo-Fr 20:00; Sa 18:00", "name": "USPS COLLECTION BOX - BLUE BOX", "note": "ON 12/24 AND 12/31, THIS BOX MAY BE COLLECTED AS EARLY AS 12 NOON.", "ref": "9319900000"}, "type": "Feature"}
{"geometry": {"coordinates": [-119.8696782097, 34.4252093367], "type": "Point"}, "id": "QJ6Tpwd0czjiGJ9zWJdq_BJQJmg=", "properties": {"@spider": "usps_collection_boxes", "addr:city": "GOLETA", "addr:country": "US", "addr:full": "400 STORKE RD", "addr:postcode": "93199", "addr:state": "CA", "brand": "USPS", "collection_times": "Mo-Fr 20:00; Sa 18:00", "name": "USPS COLLECTION BOX - BLUE BOX", "note": "ON 12/24 AND 12/31, THIS BOX MAY BE COLLECTED AS EARLY AS 12 NOON.", "ref": "9319900001"}, "type": "Feature"}
