{"dataset_attributes": {"@spider": "usps_collection_boxes"}, "geometry": {"coordinates": [-119.48289, 35.887661], "type": "Point"}, "id": "p6-aZjjkyfOz0l47XayCA-Ng9tY=", "properties": {"@spider": "usps_collection_boxes", "addr:city": "ALPAUGH", "addr:country": "US", "addr:full": "3896 CENTER AVE", "addr:postcode": "93201", "addr:state": "CA", "amenity": "post_box", "brand": "United States Postal Service", "brand:wikidata": "Q668687", "collection_times": "Mo-Fr 15:30; Sa 09:00", "name": "USPS COLLECTION BOX - BLUE BOX", "note": "ON 12/24 AND 12/31, THIS BOX MAY BE COLLECTED AS EARLY AS 12 NOON.", "nsi_id": "unitedstatespostalservice-a77078", "operator": "United States Postal Service", "operator:short": "USPS", "operator:type": "public", "operator:wikidata": "Q668687", "ref": "9320100000"}, "type": "Feature"}
{"dataset_attributes": {"@spider": "usps_collection_boxes"}, "geometry": {"coordinates": [-119.485101, 35.88798], "type": "Point"}, "id": "A4uUxUoU6i9-e0cBsI2sXO_tLFo=", "properties": {"@spider": "usps_collection_boxes", "addr:city": "ALPAUGH", "addr:country": "US", "addr:full": "3896 AVE 54", "addr:postcode": "93201", "addr:state": "CA", "amenity": "post_box", "brand": "United States Postal Service", "brand:wikidata": "Q668687", "collection_times": "Mo-Fr 15:30; Sa 09:00", "name": "USPS COLLECTION BOX - PO LOBBY", "note": "ON 12/24 AND 12/31, THIS BOX MAY BE COLLECTED AS EARLY AS 12 NOON.", "nsi_id": "unitedstatespostalservice-a77078", "operator": "United States Postal Service", "operator:short": "USPS", "operator:type": "public", "operator:wikidata": "Q668687", "ref": "9320100001"}, "type": "Feature"}
{"dataset_attributes": {"@spider": "usps_collection_boxes"}, "geometry": {"coordinates": [-119.4851026676, 35.8877045043], "type": "Point"}, "id": "Wfev2otLYUkChJQnzGf7Qc9ApUM=", "properties": {"@spider": "usps_collection_boxes", "addr:city": "ALPAUGH", "addr:country": "US", "addr:full": "3896 CENTER AVE", "addr:postcode": "93201", "addr:state": "CA", "amenity": "post_box", "brand": "United States Postal Service", "brand:wikidata": "Q668687", "collection_times": "Mo-Fr 16:00", "name": "USPS COLLECTION BOX - PO LOBBY", "note": "ON 12/24 AND 12/31, THIS BOX MAY BE COLLECTED AS EARLY AS 12 NOON.", "nsi_id": "unitedstatespostalservice-a77078", "operator": "United States Postal Service", "operator:short": "USPS", "operator:type": "public", "operator:wikidata": "Q668687", "ref": "9320100002"}, "type": "Feature"}
{"dataset_attributes": {"@spider": "usps_collection_boxes"}, "geometry": {"coordinates": [-119.708341, 36.308344], "type": "Point"}, "id": "TKKV96BZv9ec12wtbHIJILcP3IU=", "properties": {"@spider": "usps_collection_boxes", "addr:city": "ARMONA", "addr:country": "US", "addr:full": "13992 ADA ST", "addr:postcode": "93202", "addr:state": "CA", "amenity": "post_box", "brand": "United States Postal Service", "brand:wikidata": "Q668687", "collection_times": "Mo-Fr 15:00; Sa 10:00", "name": "USPS COLLECTION BOX - BLUE BOX", "note": "ON 12/24 AND 12/31, THIS BOX MAY BE COLLECTED AS EARLY AS 12 NOON.", "nsi_id": "unitedstatespostalservice-a77078", "operator": "United States Postal Service", "operator:short": "USPS", "operator:type": "public", "operator:wikidata": "Q668687", "ref": "9320200001"}, "type": "Feature"}
{"dataset_attributes": {"@spider": "usps_collection_boxes"}, "geometry": {"coordinates": [-119.708454, 36.308445], "type": "Point"}, "id": "txqmI0ulbbccRRbqI_UZyipOBQI=", "properties": {"@spider": "usps_collection_boxes", "addr:city": "ARMONA", "addr:country": "US", "addr:full": "13992 ADA ST", "addr:postcode": "93202", "addr:state": "CA", "amenity": "post_box", "brand": "United States Postal Service", "brand:wikidata": "Q668687", "collection_times": "Mo-Fr 15:45; Sa 10:00", "name": "USPS COLLECTION BOX - PO LOBBY", "note": "ON 12/24 AND 12/31, THIS BOX MAY BE COLLECTED AS EARLY AS 12 NOON.", "nsi_id": "unitedstatespostalservice-a77078", "operator": "United States Postal Service", "operator:short": "USPS", "operator:type": "public", "operator:wikidata": "Q668687", "ref": "9320200002"}, "type": "Feature"}
{"dataset_attributes": {"@spider": "usps_collection_boxes"}, "geometry": {"coordinates": [-119.7087788505, 36.3078263911], "type": "Point"}, "id": "8E6nAbBz3JnDbt65zAFPZbYx_Y8=", "properties": {"@spider": "usps_collection_boxes", "addr:city": "ARMONA", "addr:country": "US", "addr:full": "13992 ADA ST STE 205", "addr:postcode": "93202", "addr:state": "CA", "amenity": "post_box", "brand": "United States Postal Service", "brand:wikidata": "Q668687", "collection_times": "Mo-Fr 15:45", "name": "USPS COLLECTION BOX - PO LOBBY", "note": "ON 12/24 AND 12/31, THIS BOX MAY BE COLLECTED AS EARLY AS 12 NOON.", "nsi_id": "unitedstatespostalservice-a77078", "operator": "United States Postal Service", "operator:short": "USPS", "operator:type": "public", "operator:wikidata": "Q668687", "ref": "9320200003"}, "type": "Feature"}
{"dataset_attributes": {"@spider": "usps_collection_boxes"}, "geometry": {"coordinates": [-118.83092691, 35.209944251], "type": "Point"}, "id": "0EGoJ0gLp3XdhvR_CQPOr4nhdtg=", "properties": {"@spider": "usps_collection_boxes", "addr:city": "ARVIN", "addr:country": "US", "addr:full": "140 N HILL ST", "addr:postcode": "93203", "addr:state": "CA", "amenity": "post_box", "brand": "United States Postal Service", "brand:wikidata": "Q668687", "collection_times": "Mo-Fr 16:15; Sa 14:30", "name": "USPS COLLECTION BOX - BLUE BOX", "note": "ON 12/24 AND 12/31, THIS BOX MAY BE COLLECTED AS EARLY AS 12 NOON.", "nsi_id": "unitedstatespostalservice-a77078", "operator": "United States Postal Service", "operator:short": "USPS", "operator:type": "public", "operator:wikidata": "Q668687", "ref": "9320300001"}, "type": "Feature"}
{"dataset_attributes": {"@spider": "usps_collection_boxes"}, "geometry": {"coordinates": [-118.83092691, 35.209944251], "type": "Point"}, "id": "r2DV4Y86cQLEhp1im1_LLYYkb2Y=", "properties": {"@spider": "usps_collection_boxes", "addr:city": "ARVIN", "addr:country": "US", "addr:full": "140 N HILL ST", "addr:postcode": "93203", "addr:state": "CA", "amenity": "post_box", "brand": "United States Postal Service", "brand:wikidata": "Q668687", "collection_times": "Mo-Fr 16:15; Sa 14:30", "name": "USPS COLLECTION BOX - PO LOBBY", "note": "ON 12/24 AND 12/31, THIS BOX MAY BE COLLECTED AS EARLY AS 12 NOON.", "nsi_id": "unitedstatespostalservice-a77078", "operator": "United States Postal Service", "operator:short": "USPS", "operator:type": "public", "operator:wikidata": "Q668687", "ref": "9320300005"}, "type": "Feature"}
{"dataset_attributes": {"@spider": "usps_collection_boxes"}, "geometry": {"coordinates": [-118.83092691, 35.209944251], "type": "Point"}, "id": "qbmQovyaaGcd26adCT1v4IA-tu4=", "properties": {"@spider": "usps_collection_boxes", "addr:city": "ARVIN", "addr:country": "US", "addr:full": "140 N HILL ST", "addr:postcode": "93203", "addr:state": "CA", "amenity": "post_box", "brand": "United States Postal Service", "brand:wikidata": "Q668687", "collection_times": "Mo-Fr 16:00", "name": "USPS COLLECTION BOX - PO LOBBY", "note": "ON 12/24 AND 12/31, THIS BOX MAY BE COLLECTED AS EARLY AS 12 NOON.", "nsi_id": "unitedstatespostalservice-a77078", "operator": "United States Postal Service", "operator:short": "USPS", "operator:type": "public", "operator:wikidata": "Q668687", "ref": "9320300007"}, "type": "Feature"}
{"dataset_attributes": {"@spider": "usps_collection_boxes"}, "geometry": {"coordinates": [-120.1240215, 36.0071565265], "type": "Point"}, "id": "u7SP_iX2EoUkMYHN040bMG2zrVE=", "properties": {"@spider": "usps_collection_boxes", "addr:city": "AVENAL", "addr:country": "US", "addr:full": "913 E SAN JOAQUIN ST", "addr:postcode": "93204", "addr:state": "CA", "amenity": "post_box", "brand": "United States Postal Service", "brand:wikidata": "Q668687", "collection_times": "Mo-Fr 16:00; Sa 12:00", "name": "USPS COLLECTION BOX - PO LOBBY", "note": "ON 12/24 AND 12/31, THIS BOX MAY BE COLLECTED AS EARLY AS 12 NOON.", "nsi_id": "unitedstatespostalservice-a77078", "operator": "United States Postal Service", "operator:short": "USPS", "operator:type": "public", "operator:wikidata": "Q668687", "ref": "9320400000"}, "type": "Feature"}
{"dataset_attributes": {"@spider": "usps_collection_boxes"}, "geometry": {"coordinates": [-120.1240215, 36.0071565265], "type": "Point"}, "id": "mQPftMydYiAlP7K5cqAQFXd98wc=", "properties": {"@spider": "usps_collection_boxes", "addr:city": "AVENAL", "addr:country": "US", "addr:full": "913 E SAN JOAQUIN ST", "addr:postcode": "93204", "addr:state": "CA", "amenity": "post_box", "brand": "United States Postal Service", "brand:wikidata": "Q668687", "collection_times": "Mo-Fr 16:00; Sa 12:00", "name": "USPS COLLECTION BOX - BLUE BOX", "note": "ON 12/24 AND 12/31, THIS BOX MAY BE COLLECTED AS EARLY AS 12 NOON.", "nsi_id": "unitedstatespostalservice-a77078", "operator": "United States Postal Service", "operator:short": "USPS", "operator:type": "public", "operator:wikidata": "Q668687", "ref": "9320400008"}, "type": "Feature"}
{"dataset_attributes": {"@spider": "usps_collection_boxes"}, "geometry": {"coordinates": [-120.1240215, 36.0071565265], "type": "Point"}, "id": "lEdLEGA2lD7R2qtxTtsZegqcm1U=", "properties": {"@spider": "usps_collection_boxes", "addr:city": "AVENAL", "addr:country": "US", "addr:full": "913 E SAN JOAQUIN ST", "addr:postcode": "93204", "addr:state": "CA", "amenity": "post_box", "brand": "United States Postal Service", "brand:wikidata": "Q668687", "collection_times": "Mo-Fr 16:00", "name": "USPS COLLECTION BOX - PO LOBBY", "note": "ON 12/24 AND 12/31, THIS BOX MAY BE COLLECTED AS EARLY AS 12 NOON.", "nsi_id": "unitedstatespostalservice-a77078", "operator": "United States Postal Service", "operator:short": "USPS", "operator:type": "public", "operator:wikidata": "Q668687", "ref": "9320400009"}, "type": "Feature"}
{"dataset_attributes": {"@spider": "usps_collection_boxes"}, "geometry": {"coordinates": [-118.4968379599, 35.5906069864], "type": "Point"}, "id": "TLBwc58O7SwnqsjpEaO7IAvHt6I=", "properties": {"@spider": "usps_collection_boxes", "addr:city": "BODFISH", "addr:country": "US", "addr:full": "1 MILLER ST", "addr:postcode": "93205", "addr:state": "CA", "amenity": "post_box", "brand": "United States Postal Service", "brand:wikidata": "Q668687", "collection_times": "Mo-Fr 15:45; Sa 08:30", "name": "USPS COLLECTION BOX - BLUE BOX", "note": "ON 12/24 AND 12/31, THIS BOX MAY BE COLLECTED AS EARLY AS 12 NOON.", "nsi_id": "unitedstatespostalservice-a77078", "operator": "United States Postal Service", "operator:short": "USPS", "operator:type": "public", "operator:wikidata": "Q668687", "ref": "9320500000"}, "type": "Feature"}
{"dataset_attributes": {"@spider": "usps_collection_boxes"}, "geometry": {"coordinates": [-118.496404758, 35.5906236844], "type": "Point"}, "id": "yqteyFOo6vp4gi7Mfq5k45vmdcE=", "properties": {"@spider": "usps_collection_boxes", "addr:city": "BODFISH", "addr:country": "US", "addr:full": "1 MILLER ST", "addr:postcode": "93205", "addr:state": "CA", "amenity": "post_box", "brand": "United States Postal Service", "brand:wikidata": "Q668687", "collection_times": "Mo-Fr 16:00; Sa 08:30", "name": "USPS COLLECTION BOX - PO LOBBY", "note": "ON 12/24 AND 12/31, THIS BOX MAY BE COLLECTED AS EARLY AS 12 NOON.", "nsi_id": "unitedstatespostalservice-a77078", "operator": "United States Postal Service", "operator:short": "USPS", "operator:type": "public", "operator:wikidata": "Q668687", "ref": "9320500001"}, "type": "Feature"}
{"dataset_attributes": {"@spider": "usps_collection_boxes"}, "geometry": {"coordinates": [-118.496404758, 35.5906236844], "type": "Point"}, "id": "Ncqdh7BDSvwGLrzE49CL4-YzrIk=", "properties": {"@spider": "usps_collection_boxes", "addr:city": "BODFISH", "addr:country": "US", "addr:full": "1 MILLER ST", "addr:postcode": "93205", "addr:state": "CA", "amenity": "post_box", "brand": "United States Postal Service", "brand:wikidata": "Q668687", "collection_times": "Mo-Fr 16:00", "name": "USPS COLLECTION BOX - PO LOBBY", "note": "ON 12/24 AND 12/31, THIS BOX MAY BE COLLECTED AS EARLY AS 12 NOON.", "nsi_id": "unitedstatespostalservice-a77078", "operator": "United States Postal Service", "operator:short": "USPS", "operator:type": "public", "operator:wikidata": "Q668687", "ref": "9320500002"}, "type": "Feature"}
{"dataset_attributes": {"@spider": "usps_collection_boxes"}, "geometry": {"coordinates": [-119.469823058, 35.399838473], "type": "Point"}, "id": "tWIkzTZdzetZ-xRxpjquaFcNYvQ=", "properties": {"@spider": "usps_collection_boxes", "addr:city": "BUTTONWILLOW", "addr:country": "US", "addr:full": "121 N MAIN ST", "addr:postcode": "93206", "addr:state": "CA", "amenity": "post_box", "brand": "United States Postal Service", "brand:wikidata": "Q668687", "collection_times": "Mo-Fr 15:30; Sa 09:00", "name": "USPS COLLECTION BOX - BLUE BOX", "note": "ON 12/24 AND 12/31, THIS BOX MAY BE COLLECTED AS EARLY AS 12 NOON.", "nsi_id": "unitedstatespostalservice-a77078", "operator": "United States Postal Service", "operator:short": "USPS", "operator:type": "public", "operator:wikidata": "Q668687", "ref": "9320600000"}, "type": "Feature"}
{"dataset_attributes": {"@spider": "usps_collection_boxes"}, "geometry": {"coordinates": [-119.469793, 35.399889], "type": "Point"}, "id": "ZQiLS52iQjApcVgoij_0N8OtpUc=", "properties": {"@spider": "usps_collection_boxes", "addr:city": "BUTTONWILLOW", "addr:country": "US", "addr:full": "121 N MAIN ST", "addr:postcode": "93206", "addr:state": "CA", "amenity": "post_box", "brand": "United States Postal Service", "brand:wikidata": "Q668687", "collection_times": "Mo-Fr 16:00; Sa 09:00", "name": "USPS COLLECTION BOX - PO LOBBY", "note": "ON 12/24 AND 12/31, THIS BOX MAY BE COLLECTED AS EARLY AS 12 NOON.", "nsi_id": "unitedstatespostalservice-a77078", "operator": "United States Postal Service", "operator:short": "USPS", "operator:type": "public", "operator:wikidata": "Q668687", "ref": "9320600001"}, "type": "Feature"}
{"dataset_attributes": {"@spider": "usps_collection_boxes"}, "geometry": {"coordinates": [-119.4698220186, 35.3998783164], "type": "Point"}, "id": "ZIkh5ZdLNBV4NgRmWteNT9TPuLQ=", "properties": {"@spider": "usps_collection_boxes", "addr:city": "BUTTONWILLOW", "addr:country": "US", "addr:full": "121 N MAIN ST", "addr:postcode": "93206", "addr:state": "CA", "amenity": "post_box", "brand": "United States Postal Service", "brand:wikidata": "Q668687", "collection_times": "Mo-Fr 16:00", "name": "USPS COLLECTION BOX - PO LOBBY", "note": "ON 12/24 AND 12/31, THIS BOX MAY BE COLLECTED AS EARLY AS 12 NOON.", "nsi_id": "unitedstatespostalservice-a77078", "operator": "United States Postal Service", "operator:short": "USPS", "operator:type": "public", "operator:wikidata": "Q668687", "ref": "9320600003"}, "type": "Feature"}
{"dataset_attributes": {"@spider": "usps_collection_boxes"}, "geometry": {"coordinates": [-118.667928037, 35.881089444], "type": "Point"}, "id": "E9MjHKboqqxDqh6uQHaS0Nb1Teo=", "properties": {"@spider": "usps_collection_boxes", "addr:city": "CALIF HOT SPG", "addr:country": "US", "addr:full": "42231 HOT SPRINGS DR", "addr:postcode": "93207", "addr:state": "CA", "amenity": "post_box", "brand": "United States Postal Service", "brand:wikidata": "Q668687", "collection_times": "Mo-Sa 11:30", "name": "USPS COLLECTION BOX - PO LOBBY", "nsi_id": "unitedstatespostalservice-a77078", "operator": "United States Postal Service", "operator:short": "USPS", "operator:type": "public", "operator:wikidata": "Q668687", "ref": "9320700002"}, "type": "Feature"}
{"dataset_attributes": {"@spider": "usps_collection_boxes"}, "geometry": {"coordinates": [-118.667928037, 35.881089444], "type": "Point"}, "id": "lDgxsbqdUDHmm9zS6adXGtXltGY=", "properties": {"@spider": "usps_collection_boxes", "addr:city": "CALIF HOT SPG", "addr:country": "US", "addr:full": "42231 HOT SPRINGS DR", "addr:postcode": "93207", "addr:state": "CA", "amenity": "post_box", "brand": "United States Postal Service", "brand:wikidata": "Q668687", "collection_times": "Mo-Fr 11:30", "name": "USPS COLLECTION BOX - PO LOBBY", "nsi_id": "unitedstatespostalservice-a77078", "operator": "United States Postal Service", "operator:short": "USPS", "operator:type": "public", "operator:wikidata": "Q668687", "ref": "9320700003"}, "type": "Feature"}
{"dataset_attributes": {"@spider": "usps_collection_boxes"}, "geometry": {"coordinates": [-120.3625442025, 36.1392252212], "type": "Point"}, "id": "j8_-qTzg-y8t75m5lUFVr2lV-ww=", "properties": {"@spider": "usps_collection_boxes", "addr:city": "COALINGA", "addr:country": "US", "addr:full": "218 W DURIAN AVE", "addr:postcode": "93210", "addr:state": "CA", "amenity": "post_box", "brand": "United States Postal Service", "brand:wikidata": "Q668687", "collection_times": "Mo-Fr 16:30; Sa 12:00", "name": "USPS COLLECTION BOX - BLUE BOX", "note": "ON 12/24 AND 12/31, THIS BOX MAY BE COLLECTED AS EARLY AS 12 NOON.", "nsi_id": "unitedstatespostalservice-a77078", "operator": "United States Postal Service", "operator:short": "USPS", "operator:type": "public", "operator:wikidata": "Q668687", "ref": "9321000001"}, "type": "Feature"}
{"dataset_attributes": {"@spider": "usps_collection_boxes"}, "geometry": {"coordinates": [-120.3625442025, 36.1392252212], "type": "Point"}, "id": "WUqSPo9HDYnshwKpzcLc5pheqQQ=", "properties": {"@spider": "usps_collection_boxes", "addr:city": "COALINGA", "addr:country": "US", "addr:full": "218 W DURIAN AVE", "addr:postcode": "93210", "addr:state": "CA", "amenity": "post_box", "brand": "United States Postal Service", "brand:wikidata": "Q668687", "collection_times": "Mo-Fr 16:30; Sa 12:00", "name": "USPS COLLECTION BOX - BLUE BOX", "note": "ON 12/24 AND 12/31, THIS BOX MAY BE COLLECTED AS EARLY AS 12 NOON.", "nsi_id": "unitedstatespostalservice-a77078", "operator": "United States Postal Service", "operator:short": "USPS", "operator:type": "public", "operator:wikidata": "Q668687", "ref": "9321000002"}, "type": "Feature"}
{"dataset_attributes": {"@spider": "usps_collection_boxes"}, "geometry": {"coordinates": [-120.3625442025, 36.1392252212], "type": "Point"}, "id": "QyLkuhE0JAxUZUrppRFA0gXLaiw=", "properties": {"@spider": "usps_collection_boxes", "addr:city": "COALINGA", "addr:country": "US", "addr:full": "218 W DURIAN AVE", "addr:postcode": "93210", "addr:state": "CA", "amenity": "post_box", "brand": "United States Postal Service", "brand:wikidata": "Q668687", "collection_times": "Mo-Fr 16:30", "name": "USPS COLLECTION BOX - PO LOBBY", "note": "ON 12/24 AND 12/31, THIS BOX MAY BE COLLECTED AS EARLY AS 12 NOON.", "nsi_id": "unitedstatespostalservice-a77078", "operator": "United States Postal Service", "operator:short": "USPS", "operator:type": "public", "operator:wikidata": "Q668687", "ref": "9321000003"}, "type": "Feature"}
{"dataset_attributes": {"@spider": "usps_collection_boxes"}, "geometry": {"coordinates": [-119.566975, 36.098362], "type": "Point"}, "id": "WQ6sng-A_l3Yk9esvWFxC990xeI=", "properties": {"@spider": "usps_collection_boxes", "addr:city": "CORCORAN", "addr:country": "US", "addr:full": "1500 WHITLEY AVE", "addr:postcode": "93212", "addr:state": "CA", "amenity": "post_box", "brand": "United States Postal Service", "brand:wikidata": "Q668687", "collection_times": "Mo-Fr 13:00; Sa 09:00", "name": "USPS COLLECTION BOX - BLUE BOX", "note": "ON 12/24 AND 12/31, THIS BOX MAY BE COLLECTED AS EARLY AS 12 NOON.", "nsi_id": "unitedstatespostalservice-a77078", "operator": "United States Postal Service", "operator:short": "USPS", "operator:type": "public", "operator:wikidata": "Q668687", "ref": "9321200003"}, "type": "Feature"}
{"dataset_attributes": {"@spider": "usps_collection_boxes"}, "geometry": {"coordinates": [-119.5609699939, 36.1004757485], "type": "Point"}, "id": "wE8TKS_Sc2_uoqiPayfBzjmeUJQ=", "properties": {"@spider": "usps_collection_boxes", "addr:city": "CORCORAN", "addr:country": "US", "addr:full": "917 CHASE AVE", "addr:postcode": "93212", "addr:state": "CA", "amenity": "post_box", "brand": "United States Postal Service", "brand:wikidata": "Q668687", "collection_times": "Mo-Fr 16:00; Sa 09:00", "name": "USPS COLLECTION BOX - PO LOBBY", "note": "ON 12/24 AND 12/31, THIS BOX MAY BE COLLECTED AS EARLY AS 12 NOON.", "nsi_id": "unitedstatespostalservice-a77078", "operator": "United States Postal Service", "operator:short": "USPS", "operator:type": "public", "operator:wikidata": "Q668687", "ref": "9321200005"}, "type": "Feature"}
{"dataset_attributes": {"@spider": "usps_collection_boxes"}, "geometry": {"coordinates": [-119.5609699939, 36.1004757485], "type": "Point"}, "id": "AxxXaC-5lgDUquh1-3JgSPqKTMo=", "properties": {"@spider": "usps_collection_boxes", "addr:city": "CORCORAN", "addr:country": "US", "addr:full": "917 CHASE AVE", "addr:postcode": "93212", "addr:state": "CA", "amenity": "post_box", "brand": "United States Postal Service", "brand:wikidata": "Q668687", "collection_times": "Mo-Fr 16:00; Sa 09:00", "name": "USPS COLLECTION BOX - PO LOBBY", "note": "ON 12/24 AND 12/31, THIS BOX MAY BE COLLECTED AS EARLY AS 12 NOON.", "nsi_id": "unitedstatespostalservice-a77078", "operator": "United States Postal Service", "operator:short": "USPS", "operator:type": "public", "operator:wikidata": "Q668687", "ref": "9321200006"}, "type": "Feature"}
{"dataset_attributes": {"@spider": "usps_collection_boxes"}, "geometry": {"coordinates": [-119.5609699939, 36.1004757485], "type": "Point"}, "id": "T3lQX8swvNbZSjz1I3j0Oub-LoY=", "properties": {"@spider": "usps_collection_boxes", "addr:city": "CORCORAN", "addr:country": "US", "addr:full": "917 CHASE AVE", "addr:postcode": "93212", "addr:state": "CA", "amenity": "post_box", "brand": "United States Postal Service", "brand:wikidata": "Q668687", "collection_times": "Mo-Fr 16:00", "name": "USPS COLLECTION BOX - PO LOBBY", "note": "ON 12/24 AND 12/31, THIS BOX MAY BE COLLECTED AS EARLY AS 12 NOON.", "nsi_id": "unitedstatespostalservice-a77078", "operator": "United States Postal Service", "operator:short": "USPS", "operator:type": "public", "operator:wikidata": "Q668687", "ref": "9321200008"}, "type": "Feature"}
{"dataset_attributes": {"@spider": "usps_collection_boxes"}, "geometry": {"coordinates": [-119.244633, 35.771107], "type": "Point"}, "id": "-5IYCBLY8vlZPHZa8yMJoLFhKbo=", "properties": {"@spider": "usps_collection_boxes", "addr:city": "DELANO", "addr:country": "US", "addr:full": "1122 JEFFERSON ST", "addr:postcode": "93215", "addr:state": "CA", "amenity": "post_box", "brand": "United States Postal Service", "brand:wikidata": "Q668687", "collection_times": "Mo-Sa 09:30", "name": "USPS COLLECTION BOX - BLUE BOX", "nsi_id": "unitedstatespostalservice-a77078", "operator": "United States Postal Service", "operator:short": "USPS", "operator:type": "public", "operator:wikidata": "Q668687", "ref": "9321500013"}, "type": "Feature"}
{"dataset_attributes": {"@spider": "usps_collection_boxes"}, "geometry": {"coordinates": [-119.2319025512, 35.7613575512], "type": "Point"}, "id": "8h03OYqOQl1XGtPHLfN3iEJHGk0=", "properties": {"@spider": "usps_collection_boxes", "addr:city": "DELANO", "addr:country": "US", "addr:full": "1800 GARCES HWY", "addr:postcode": "93215", "addr:state": "CA", "amenity": "post_box", "brand": "United States Postal Service", "brand:wikidata": "Q668687", "collection_times": "Mo-Fr 16:30; Sa 14:00", "name": "USPS COLLECTION BOX - PO LOBBY", "note": "ON 12/24 AND 12/31, THIS BOX MAY BE COLLECTED AS EARLY AS 12 NOON.", "nsi_id": "unitedstatespostalservice-a77078", "operator": "United States Postal Service", "operator:short": "USPS", "operator:type": "public", "operator:wikidata": "Q668687", "ref": "9321500020"}, "type": "Feature"}
{"dataset_attributes": {"@spider": "usps_collection_boxes"}, "geometry": {"coordinates": [-119.2313579653, 35.7607379955], "type": "Point"}, "id": "62xrVD0FFH2jb8d0UWk-vI7AvzQ=", "properties": {"@spider": "usps_collection_boxes", "addr:city": "DELANO", "addr:country": "US", "addr:full": "1800 GARCES HWY", "addr:postcode": "93215", "addr:state": "CA", "amenity": "post_box", "brand": "United States Postal Service", "brand:wikidata": "Q668687", "collection_times": "Mo-Fr 16:30; Sa 14:00", "name": "USPS COLLECTION BOX - BLUE BOX", "note": "ON 12/24 AND 12/31, THIS BOX MAY BE COLLECTED AS EARLY AS 12 NOON.", "nsi_id": "unitedstatespostalservice-a77078", "operator": "United States Postal Service", "operator:short": "USPS", "operator:type": "public", "operator:wikidata": "Q668687", "ref": "9321500028"}, "type": "Feature"}
{"dataset_attributes": {"@spider": "usps_collection_boxes"}, "geometry": {"coordinates": [-119.2313579653, 35.7607379955], "type": "Point"}, "id": "4-jXlQhg-PUY2zJAY35ClX8JkZI=", "properties": {"@spider": "usps_collection_boxes", "addr:city": "DELANO", "addr:country": "US", "addr:full": "1800 GARCES HWY", "addr:postcode": "93215", "addr:state": "CA", "amenity": "post_box", "brand": "United States Postal Service", "brand:wikidata": "Q668687", "collection_times": "Mo-Fr 16:30; Sa 14:00", "name": "USPS COLLECTION BOX - BLUE BOX", "note": "ON 12/24 AND 12/31, THIS BOX MAY BE COLLECTED AS EARLY AS 12 NOON.", "nsi_id": "unitedstatespostalservice-a77078", "operator": "United States Postal Service", "operator:short": "USPS", "operator:type": "public", "operator:wikidata": "Q668687", "ref": "9321500029"}, "type": "Feature"}
{"dataset_attributes": {"@spider": "usps_collection_boxes"}, "geometry": {"coordinates": [-119.2319025512, 35.7613575512], "type": "Point"}, "id": "sbCEjXF3kesGye7USB0DigmQS0g=", "properties": {"@spider": "usps_collection_boxes", "addr:city": "DELANO", "addr:country": "US", "addr:full": "1800 GARCES HWY", "addr:postcode": "93215", "addr:state": "CA", "amenity": "post_box", "brand": "United States Postal Service", "brand:wikidata": "Q668687", "collection_times": "Mo-Fr 16:30", "name": "USPS COLLECTION BOX - PO LOBBY", "note": "ON 12/24 AND 12/31, THIS BOX MAY BE COLLECTED AS EARLY AS 12 NOON.", "nsi_id": "unitedstatespostalservice-a77078", "operator": "United States Postal Service", "operator:short": "USPS", "operator:type": "public", "operator:wikidata": "Q668687", "ref": "9321500031"}, "type": "Feature"}
{"dataset_attributes": {"@spider": "usps_collection_boxes"}, "geometry": {"coordinates": [-119.0505010222, 35.8917195004], "type": "Point"}, "id": "7HLxwyisYYlQgf38AP9YFTZiDRo=", "properties": {"@spider": "usps_collection_boxes", "addr:city": "DUCOR", "addr:country": "US", "addr:full": "23318 AVENUE 56", "addr:postcode": "93218", "addr:state": "CA", "amenity": "post_box", "brand": "United States Postal Service", "brand:wikidata": "Q668687", "collection_times": "Mo-Fr 15:30; Sa 09:00", "name": "USPS COLLECTION BOX - PO LOBBY", "note": "ON 12/24 AND 12/31, THIS BOX MAY BE COLLECTED AS EARLY AS 12 NOON.", "nsi_id": "unitedstatespostalservice-a77078", "operator": "United States Postal Service", "operator:short": "USPS", "operator:type": "public", "operator:wikidata": "Q668687", "ref": "9321800001"}, "type": "Feature"}
{"dataset_attributes": {"@spider": "usps_collection_boxes"}, "geometry": {"coordinates": [-119.0505010222, 35.8917195004], "type": "Point"}, "id": "nnm0IHoHCRWu7hCah6rYrXOuZ7I=", "properties": {"@spider": "usps_collection_boxes", "addr:city": "DUCOR", "addr:country": "US", "addr:full": "23318 AVENUE 56", "addr:postcode": "93218", "addr:state": "CA", "amenity": "post_box", "brand": "United States Postal Service", "brand:wikidata": "Q668687", "collection_times": "Mo-Fr 15:30", "name": "USPS COLLECTION BOX - PO LOBBY", "note": "ON 12/24 AND 12/31, THIS BOX MAY BE COLLECTED AS EARLY AS 12 NOON.", "nsi_id": "unitedstatespostalservice-a77078", "operator": "United States Postal Service", "operator:short": "USPS", "operator:type": "public", "operator:wikidata": "Q668687", "ref": "9321800002"}, "type": "Feature"}
{"dataset_attributes": {"@spider": "usps_collection_boxes"}, "geometry": {"coordinates": [-119.2681165482, 35.8864745029], "type": "Point"}, "id": "RAUelImvs2TN3uw3kQHyYCF06Kg=", "properties": {"@spider": "usps_collection_boxes", "addr:city": "EARLIMART", "addr:country": "US", "addr:full": "300 N CHURCH RD", "addr:postcode": "93219", "addr:state": "CA", "amenity": "post_box", "brand": "United States Postal Service", "brand:wikidata": "Q668687", "collection_times": "Mo-Fr 16:00; Sa 09:00", "name": "USPS COLLECTION BOX - PO LOBBY", "note": "ON 12/24 AND 12/31, THIS BOX MAY BE COLLECTED AS EARLY AS 12 NOON.", "nsi_id": "unitedstatespostalservice-a77078", "operator": "United States Postal Service", "operator:short": "USPS", "operator:type": "public", "operator:wikidata": "Q668687", "ref": "9321900000"}, "type": "Feature"}
{"dataset_attributes": {"@spider": "usps_collection_boxes"}, "geometry": {"coordinates": [-119.2681165482, 35.8864745029], "type": "Point"}, "id": "0VGNGg_KrNoBL_iX0vzB3McLNSs=", "properties": {"@spider": "usps_collection_boxes", "addr:city": "EARLIMART", "addr:country": "US", "addr:full": "300 N CHURCH RD", "addr:postcode": "93219", "addr:state": "CA", "amenity": "post_box", "brand": "United States Postal Service", "brand:wikidata": "Q668687", "collection_times": "Mo-Fr 16:00", "name": "USPS COLLECTION BOX - PO LOBBY", "note": "ON 12/24 AND 12/31, THIS BOX MAY BE COLLECTED AS EARLY AS 12 NOON.", "nsi_id": "unitedstatespostalservice-a77078", "operator": "United States Postal Service", "operator:short": "USPS", "operator:type": "public", "operator:wikidata": "Q668687", "ref": "9321900002"}, "type": "Feature"}
{"dataset_attributes": {"@spider": "usps_collection_boxes"}, "geometry": {"coordinates": [-118.8677595654, 35.346431408], "type": "Point"}, "id": "EpFe2Gq86x4ps5_3jb2xkZFNqTc=", "properties": {"@spider": "usps_collection_boxes", "addr:city": "EDISON", "addr:country": "US", "addr:full": "12299 EDISON HWY", "addr:postcode": "93220", "addr:state": "CA", "amenity": "post_box", "brand": "United States Postal Service", "brand:wikidata": "Q668687", "collection_times": "Mo-Fr 16:00; Sa 09:30", "name": "USPS COLLECTION BOX - PO LOBBY", "note": "ON 12/24 AND 12/31, THIS BOX MAY BE COLLECTED AS EARLY AS 12 NOON.", "nsi_id": "unitedstatespostalservice-a77078", "operator": "United States Postal Service", "operator:short": "USPS", "operator:type": "public", "operator:wikidata": "Q668687", "ref": "9322000000"}, "type": "Feature"}
{"dataset_attributes": {"@spider": "usps_collection_boxes"}, "geometry": {"coordinates": [-118.8677595654, 35.346431408], "type": "Point"}, "id": "KZJLEar36Ib_Dz9OQYm8AcSyNFc=", "properties": {"@spider": "usps_collection_boxes", "addr:city": "EDISON", "addr:country": "US", "addr:full": "12299 EDISON HWY", "addr:postcode": "93220", "addr:state": "CA", "amenity": "post_box", "brand": "United States Postal Service", "brand:wikidata": "Q668687", "collection_times": "Mo-Fr 16:00; Sa 09:30", "name": "USPS COLLECTION BOX - BLUE BOX", "note": "ON 12/24 AND 12/31, THIS BOX MAY BE COLLECTED AS EARLY AS 12 NOON.", "nsi_id": "unitedstatespostalservice-a77078", "operator": "United States Postal Service", "operator:short": "USPS", "operator:type": "public", "operator:wikidata": "Q668687", "ref": "9322000001"}, "type": "Feature"}
{"dataset_attributes": {"@spider": "usps_collection_boxes"}, "geometry": {"coordinates": [-118.8677595654, 35.346431408], "type": "Point"}, "id": "hTC_1w_RjCW0kMYvbtTNdEBgr7U=", "properties": {"@spider": "usps_collection_boxes", "addr:city": "EDISON", "addr:country": "US", "addr:full": "12299 EDISON HWY", "addr:postcode": "93220", "addr:state": "CA", "amenity": "post_box", "brand": "United States Postal Service", "brand:wikidata": "Q668687", "collection_times": "Mo-Fr 16:00", "name": "USPS COLLECTION BOX - PO LOBBY", "note": "ON 12/24 AND 12/31, THIS BOX MAY BE COLLECTED AS EARLY AS 12 NOON.", "nsi_id": "unitedstatespostalservice-a77078", "operator": "United States Postal Service", "operator:short": "USPS", "operator:type": "public", "operator:wikidata": "Q668687", "ref": "9322000002"}, "type": "Feature"}
{"dataset_attributes": {"@spider": "usps_collection_boxes"}, "geometry": {"coordinates": [-119.1393676431, 36.2963448521], "type": "Point"}, "id": "SvjHuLDDGXyy39Cobl_D92iyDWU=", "properties": {"@spider": "usps_collection_boxes", "addr:city": "EXETER", "addr:country": "US", "addr:full": "135 S D ST", "addr:postcode": "93221", "addr:state": "CA", "amenity": "post_box", "brand": "United States Postal Service", "brand:wikidata": "Q668687", "collection_times": "Mo-Fr 16:30; Sa 14:30", "name": "USPS COLLECTION BOX - BLUE BOX", "note": "ON 12/24 AND 12/31, THIS BOX MAY BE COLLECTED AS EARLY AS 12 NOON.", "nsi_id": "unitedstatespostalservice-a77078", "operator": "United States Postal Service", "operator:short": "USPS", "operator:type": "public", "operator:wikidata": "Q668687", "ref": "9322100001"}, "type": "Feature"}
{"dataset_attributes": {"@spider": "usps_collection_boxes"}, "geometry": {"coordinates": [-119.1393676431, 36.2963448521], "type": "Point"}, "id": "s2GHukgc9ECIF97x99osdUj7dKw=", "properties": {"@spider": "usps_collection_boxes", "addr:city": "EXETER", "addr:country": "US", "addr:full": "135 S D ST", "addr:postcode": "93221", "addr:state": "CA", "amenity": "post_box", "brand": "United States Postal Service", "brand:wikidata": "Q668687", "collection_times": "Mo-Fr 16:30; Sa 14:30", "name": "USPS COLLECTION BOX - BLUE BOX", "note": "ON 12/24 AND 12/31, THIS BOX MAY BE COLLECTED AS EARLY AS 12 NOON.", "nsi_id": "unitedstatespostalservice-a77078", "operator": "United States Postal Service", "operator:short": "USPS", "operator:type": "public", "operator:wikidata": "Q668687", "ref": "9322100002"}, "type": "Feature"}
{"dataset_attributes": {"@spider": "usps_collection_boxes"}, "geometry": {"coordinates": [-119.1393676431, 36.2963448521], "type": "Point"}, "id": "Bz8q7x4tUM83NRLgqZYXnscN260=", "properties": {"@spider": "usps_collection_boxes", "addr:city": "EXETER", "addr:country": "US", "addr:full": "135 S D ST", "addr:postcode": "93221", "addr:state": "CA", "amenity": "post_box", "brand": "United States Postal Service", "brand:wikidata": "Q668687", "collection_times": "Mo-Fr 16:15; Sa 14:30", "name": "USPS COLLECTION BOX - PO LOBBY", "note": "ON 12/24 AND 12/31, THIS BOX MAY BE COLLECTED AS EARLY AS 12 NOON.", "nsi_id": "unitedstatespostalservice-a77078", "operator": "United States Postal Service", "operator:short": "USPS", "operator:type": "public", "operator:wikidata": "Q668687", "ref": "9322100003"}, "type": "Feature"}
{"dataset_attributes": {"@spider": "usps_collection_boxes"}, "geometry": {"coordinates": [-119.1393676431, 36.2963448521], "type": "Point"}, "id": "vfSL9lUiGxUQfguRHMUZNELJpmM=", "properties": {"@spider": "usps_collection_boxes", "addr:city": "EXETER", "addr:country": "US", "addr:full": "135 S D ST", "addr:postcode": "93221", "addr:state": "CA", "amenity": "post_box", "brand": "United States Postal Service", "brand:wikidata": "Q668687", "collection_times": "Mo-Fr 16:00", "name": "USPS COLLECTION BOX - PO LOBBY", "note": "ON 12/24 AND 12/31, THIS BOX MAY BE COLLECTED AS EARLY AS 12 NOON.", "nsi_id": "unitedstatespostalservice-a77078", "operator": "United States Postal Service", "operator:short": "USPS", "operator:type": "public", "operator:wikidata": "Q668687", "ref": "9322100006"}, "type": "Feature"}
{"dataset_attributes": {"@spider": "usps_collection_boxes"}, "geometry": {"coordinates": [-119.207116, 36.300379], "type": "Point"}, "id": "4kvVefnU_Xe6HxYEaZThLUkqjps=", "properties": {"@spider": "usps_collection_boxes", "addr:city": "FARMERSVILLE", "addr:country": "US", "addr:full": "382 N FARMERSVILLE BLVD", "addr:postcode": "93223", "addr:state": "CA", "amenity": "post_box", "brand": "United States Postal Service", "brand:wikidata": "Q668687", "collection_times": "Mo-Fr 16:00; Sa 14:00", "name": "USPS COLLECTION BOX - BLUE BOX", "note": "ON 12/24 AND 12/31, THIS BOX MAY BE COLLECTED AS EARLY AS 12 NOON.", "nsi_id": "unitedstatespostalservice-a77078", "operator": "United States Postal Service", "operator:short": "USPS", "operator:type": "public", "operator:wikidata": "Q668687", "ref": "9322300000"}, "type": "Feature"}
{"dataset_attributes": {"@spider": "usps_collection_boxes"}, "geometry": {"coordinates": [-119.206897, 36.30037], "type": "Point"}, "id": "rmder091YscOtiOVsk1oA0P3zGc=", "properties": {"@spider": "usps_collection_boxes", "addr:city": "FARMERSVILLE", "addr:country": "US", "addr:full": "382 N FARMERSVILLE BLVD", "addr:postcode": "93223", "addr:state": "CA", "amenity": "post_box", "brand": "United States Postal Service", "brand:wikidata": "Q668687", "collection_times": "Mo-Fr 16:00; Sa 14:00", "name": "USPS COLLECTION BOX - PO LOBBY", "note": "ON 12/24 AND 12/31, THIS BOX MAY BE COLLECTED AS EARLY AS 12 NOON.", "nsi_id": "unitedstatespostalservice-a77078", "operator": "United States Postal Service", "operator:short": "USPS", "operator:type": "public", "operator:wikidata": "Q668687", "ref": "9322300001"}, "type": "Feature"}
{"dataset_attributes": {"@spider": "usps_collection_boxes"}, "geometry": {"coordinates": [-119.2071168884, 36.3004021363], "type": "Point"}, "id": "REVeXsWX9NafNZlUBKmWVrqwII8=", "properties": {"@spider": "usps_collection_boxes", "addr:city": "FARMERSVILLE", "addr:country": "US", "addr:full": "382 N FARMERSVILLE BLVD", "addr:postcode": "93223", "addr:state": "CA", "amenity": "post_box", "brand": "United States Postal Service", "brand:wikidata": "Q668687", "collection_times": "Mo-Fr 15:15", "name": "USPS COLLECTION BOX - PO LOBBY", "note": "ON 12/24 AND 12/31, THIS BOX MAY BE COLLECTED AS EARLY AS 12 NOON.", "nsi_id": "unitedstatespostalservice-a77078", "operator": "United States Postal Service", "operator:short": "USPS", "operator:type": "public", "operator:wikidata": "Q668687", "ref": "9322300002"}, "type": "Feature"}
{"dataset_attributes": {"@spider": "usps_collection_boxes"}, "geometry": {"coordinates": [-119.54161, 35.179124], "type": "Point"}, "id": "s69rwfefRdCOE0drXT0-naQ0FE8=", "properties": {"@spider": "usps_collection_boxes", "addr:city": "FELLOWS", "addr:country": "US", "addr:full": "36 MIDWAY RD", "addr:postcode": "93224", "addr:state": "CA", "amenity": "post_box", "brand": "United States Postal Service", "brand:wikidata": "Q668687", "collection_times": "Mo-Fr 16:15; Sa 09:00", "name": "USPS COLLECTION BOX - BLUE BOX", "note": "ON 12/24 AND 12/31, THIS BOX MAY BE COLLECTED AS EARLY AS 12 NOON.", "nsi_id": "unitedstatespostalservice-a77078", "operator": "United States Postal Service", "operator:short": "USPS", "operator:type": "public", "operator:wikidata": "Q668687", "ref": "9322400000"}, "type": "Feature"}
{"dataset_attributes": {"@spider": "usps_collection_boxes"}, "geometry": {"coordinates": [-119.54161, 35.179124], "type": "Point"}, "id": "ClWgdC7d8t8DI_NddJGFCFbayWU=", "properties": {"@spider": "usps_collection_boxes", "addr:city": "FELLOWS", "addr:country": "US", "addr:full": "36 MIDWAY RD", "addr:postcode": "93224", "addr:state": "CA", "amenity": "post_box", "brand": "United States Postal Service", "brand:wikidata": "Q668687", "collection_times": "Mo-Fr 16:15; Sa 09:00", "name": "USPS COLLECTION BOX - PO LOBBY", "note": "ON 12/24 AND 12/31, THIS BOX MAY BE COLLECTED AS EARLY AS 12 NOON.", "nsi_id": "unitedstatespostalservice-a77078", "operator": "United States Postal Service", "operator:short": "USPS", "operator:type": "public", "operator:wikidata": "Q668687", "ref": "9322400001"}, "type": "Feature"}
{"dataset_attributes": {"@spider": "usps_collection_boxes"}, "geometry": {"coordinates": [-119.5416065787, 35.1791513584], "type": "Point"}, "id": "DBHBUQD2vXccjxQS4YB_P3Ji73E=", "properties": {"@spider": "usps_collection_boxes", "addr:city": "FELLOWS", "addr:country": "US", "addr:full": "36 MIDWAY RD", "addr:postcode": "93224", "addr:state": "CA", "amenity": "post_box", "brand": "United States Postal Service", "brand:wikidata": "Q668687", "collection_times": "Mo-Fr 16:15", "name": "USPS COLLECTION BOX - PO LOBBY", "note": "ON 12/24 AND 12/31, THIS BOX MAY BE COLLECTED AS EARLY AS 12 NOON.", "nsi_id": "unitedstatespostalservice-a77078", "operator": "United States Postal Service", "operator:short": "USPS", "operator:type": "public", "operator:wikidata": "Q668687", "ref": "9322400002"}, "type": "Feature"}
{"dataset_attributes": {"@spider": "usps_collection_boxes"}, "geometry": {"coordinates": [-119.16635, 34.849837], "type": "Point"}, "id": "-THcH1VivQVlk4I6SEX7Fx1yBZc=", "properties": {"@spider": "usps_collection_boxes", "addr:city": "FRAZIER PARK", "addr:country": "US", "addr:full": "16331 ASKIN DR", "addr:postcode": "93225", "addr:state": "CA", "amenity": "post_box", "brand": "United States Postal Service", "brand:wikidata": "Q668687", "collection_times": "Mo-Fr 15:00; Sa 11:30", "name": "USPS COLLECTION BOX - BLUE BOX", "note": "ON 12/24 AND 12/31, THIS BOX MAY BE COLLECTED AS EARLY AS 12 NOON.", "nsi_id": "unitedstatespostalservice-a77078", "operator": "United States Postal Service", "operator:short": "USPS", "operator:type": "public", "operator:wikidata": "Q668687", "ref": "9322500002"}, "type": "Feature"}
{"dataset_attributes": {"@spider": "usps_collection_boxes"}, "geometry": {"coordinates": [-118.945719, 34.82007], "type": "Point"}, "id": "fRA8kLxmxI6QAsNt78gvcAtjoBI=", "properties": {"@spider": "usps_collection_boxes", "addr:city": "FRAZIER PARK", "addr:country": "US", "addr:full": "512 MONTEREY TRL", "addr:postcode": "93225", "addr:state": "CA", "amenity": "post_box", "brand": "United States Postal Service", "brand:wikidata": "Q668687", "collection_times": "Mo-Fr 16:00; Sa 11:30", "name": "USPS COLLECTION BOX - BLUE BOX", "note": "ON 12/24 AND 12/31, THIS BOX MAY BE COLLECTED AS EARLY AS 12 NOON.", "nsi_id": "unitedstatespostalservice-a77078", "operator": "United States Postal Service", "operator:short": "USPS", "operator:type": "public", "operator:wikidata": "Q668687", "ref": "9322500003"}, "type": "Feature"}
{"dataset_attributes": {"@spider": "usps_collection_boxes"}, "geometry": {"coordinates": [-118.945719, 34.82007], "type": "Point"}, "id": "_rBUMAnlb4uMQisKhQbOK85PsxM=", "properties": {"@spider": "usps_collection_boxes", "addr:city": "FRAZIER PARK", "addr:country": "US", "addr:full": "512 MONTEREY TRL", "addr:postcode": "93225", "addr:state": "CA", "amenity": "post_box", "brand": "United States Postal Service", "brand:wikidata": "Q668687", "collection_times": "Mo-Fr 16:00; Sa 11:30", "name": "USPS COLLECTION BOX - PO LOBBY", "note": "ON 12/24 AND 12/31, THIS BOX MAY BE COLLECTED AS EARLY AS 12 NOON.", "nsi_id": "unitedstatespostalservice-a77078", "operator": "United States Postal Service", "operator:short": "USPS", "operator:type": "public", "operator:wikidata": "Q668687", "ref": "9322500004"}, "type": "Feature"}
{"dataset_attributes": {"@spider": "usps_collection_boxes"}, "geometry": {"coordinates": [-118.9457223076, 34.8200700144], "type": "Point"}, "id": "LU8T3WheaKWMeX3fcXXBq-eew6U=", "properties": {"@spider": "usps_collection_boxes", "addr:city": "FRAZIER PARK", "addr:country": "US", "addr:full": "512 MONTEREY TRL", "addr:postcode": "93225", "addr:state": "CA", "amenity": "post_box", "brand": "United States Postal Service", "brand:wikidata": "Q668687", "collection_times": "Mo-Fr 16:00", "name": "USPS COLLECTION BOX - PO LOBBY", "note": "ON 12/24 AND 12/31, THIS BOX MAY BE COLLECTED AS EARLY AS 12 NOON.", "nsi_id": "unitedstatespostalservice-a77078", "operator": "United States Postal Service", "operator:short": "USPS", "operator:type": "public", "operator:wikidata": "Q668687", "ref": "9322500006"}, "type": "Feature"}
{"dataset_attributes": {"@spider": "usps_collection_boxes"}, "geometry": {"coordinates": [-118.703500363, 35.728806365], "type": "Point"}, "id": "MnenQZvanumF3Zhb9Kgi0BWMUpU=", "properties": {"@spider": "usps_collection_boxes", "addr:city": "GLENNVILLE", "addr:country": "US", "addr:full": "10686 HIGHWAY 155", "addr:postcode": "93226", "addr:state": "CA", "amenity": "post_box", "brand": "United States Postal Service", "brand:wikidata": "Q668687", "collection_times": "Mo-Fr 13:15; Sa 11:00", "name": "USPS COLLECTION BOX - PO LOBBY", "note": "ON 12/24 AND 12/31, THIS BOX MAY BE COLLECTED AS EARLY AS 12 NOON.", "nsi_id": "unitedstatespostalservice-a77078", "operator": "United States Postal Service", "operator:short": "USPS", "operator:type": "public", "operator:wikidata": "Q668687", "ref": "9322600000"}, "type": "Feature"}
{"dataset_attributes": {"@spider": "usps_collection_boxes"}, "geometry": {"coordinates": [-118.703500363, 35.728806365], "type": "Point"}, "id": "mfvbxIkkehij7VdA8B3QGdoPSYI=", "properties": {"@spider": "usps_collection_boxes", "addr:city": "GLENNVILLE", "addr:country": "US", "addr:full": "10686 HIGHWAY 155", "addr:postcode": "93226", "addr:state": "CA", "amenity": "post_box", "brand": "United States Postal Service", "brand:wikidata": "Q668687", "collection_times": "Mo-Fr 13:30", "name": "USPS COLLECTION BOX - PO LOBBY", "note": "ON 12/24 AND 12/31, THIS BOX MAY BE COLLECTED AS EARLY AS 12 NOON.", "nsi_id": "unitedstatespostalservice-a77078", "operator": "United States Postal Service", "operator:short": "USPS", "operator:type": "public", "operator:wikidata": "Q668687", "ref": "9322600001"}, "type": "Feature"}
{"dataset_attributes": {"@spider": "usps_collection_boxes"}, "geometry": {"coordinates": [-119.4190110077, 36.3434310147], "type": "Point"}, "id": "ZSKI3jjLjTpW5m-Un0jRnW1hwaA=", "properties": {"@spider": "usps_collection_boxes", "addr:city": "GOSHEN", "addr:country": "US", "addr:full": "6901 AVENUE 305", "addr:postcode": "93227", "addr:state": "CA", "amenity": "post_box", "brand": "United States Postal Service", "brand:wikidata": "Q668687", "collection_times": "Mo-Fr 15:30; Sa 10:00", "name": "USPS COLLECTION BOX - BLUE BOX", "note": "ON 12/24 AND 12/31, THIS BOX MAY BE COLLECTED AS EARLY AS 12 NOON.", "nsi_id": "unitedstatespostalservice-a77078", "operator": "United States Postal Service", "operator:short": "USPS", "operator:type": "public", "operator:wikidata": "Q668687", "ref": "9322700000"}, "type": "Feature"}
{"dataset_attributes": {"@spider": "usps_collection_boxes"}, "geometry": {"coordinates": [-119.418951, 36.34313], "type": "Point"}, "id": "NDKDfW3CEL57qFbJLEfiapYVLZw=", "properties": {"@spider": "usps_collection_boxes", "addr:city": "GOSHEN", "addr:country": "US", "addr:full": "6901 AVENUE 305", "addr:postcode": "93227", "addr:state": "CA", "amenity": "post_box", "brand": "United States Postal Service", "brand:wikidata": "Q668687", "collection_times": "Mo-Fr 15:30; Sa 10:00", "name": "USPS COLLECTION BOX - PO LOBBY", "note": "ON 12/24 AND 12/31, THIS BOX MAY BE COLLECTED AS EARLY AS 12 NOON.", "nsi_id": "unitedstatespostalservice-a77078", "operator": "United States Postal Service", "operator:short": "USPS", "operator:type": "public", "operator:wikidata": "Q668687", "ref": "9322700001"}, "type": "Feature"}
{"dataset_attributes": {"@spider": "usps_collection_boxes"}, "geometry": {"coordinates": [-119.6476327026, 36.3302947011], "type": "Point"}, "id": "pSpbQ_nkmVAnUbcIIR0J8GgGPPg=", "properties": {"@spider": "usps_collection_boxes", "addr:city": "HANFORD", "addr:country": "US", "addr:full": "517 N IRWIN ST", "addr:postcode": "93230", "addr:state": "CA", "amenity": "post_box", "brand": "United States Postal Service", "brand:wikidata": "Q668687", "collection_times": "Mo-Fr 16:00; Sa 15:45", "name": "USPS COLLECTION BOX - BLUE BOX", "note": "ON 12/24 AND 12/31, THIS BOX MAY BE COLLECTED AS EARLY AS 12 NOON.", "nsi_id": "unitedstatespostalservice-a77078", "operator": "United States Postal Service", "operator:short": "USPS", "operator:type": "public", "operator:wikidata": "Q668687", "ref": "9323000004"}, "type": "Feature"}
{"dataset_attributes": {"@spider": "usps_collection_boxes"}, "geometry": {"coordinates": [-119.647654, 36.33032], "type": "Point"}, "id": "fkLkvmqyINgX-BTUHz0ugu_G6GA=", "properties": {"@spider": "usps_collection_boxes", "addr:city": "HANFORD", "addr:country": "US", "addr:full": "517 N IRWIN ST", "addr:postcode": "93230", "addr:state": "CA", "amenity": "post_box", "brand": "United States Postal Service", "brand:wikidata": "Q668687", "collection_times": "Mo-Fr 16:00; Sa 15:45", "name": "USPS COLLECTION BOX - PO LOBBY", "note": "ON 12/24 AND 12/31, THIS BOX MAY BE COLLECTED AS EARLY AS 12 NOON.", "nsi_id": "unitedstatespostalservice-a77078", "operator": "United States Postal Service", "operator:short": "USPS", "operator:type": "public", "operator:wikidata": "Q668687", "ref": "9323000005"}, "type": "Feature"}
{"dataset_attributes": {"@spider": "usps_collection_boxes"}, "geometry": {"coordinates": [-119.647654, 36.33032], "type": "Point"}, "id": "yx9bBDru1redcFspkGUEwyTZvb4=", "properties": {"@spider": "usps_collection_boxes", "addr:city": "HANFORD", "addr:country": "US", "addr:full": "517 N IRWIN ST", "addr:postcode": "93230", "addr:state": "CA", "amenity": "post_box", "brand": "United States Postal Service", "brand:wikidata": "Q668687", "collection_times": "Mo-Fr 16:00; Sa 15:45", "name": "USPS COLLECTION BOX - PO LOBBY", "note": "ON 12/24 AND 12/31, THIS BOX MAY BE COLLECTED AS EARLY AS 12 NOON.", "nsi_id": "unitedstatespostalservice-a77078", "operator": "United States Postal Service", "operator:short": "USPS", "operator:type": "public", "operator:wikidata": "Q668687", "ref": "9323000006"}, "type": "Feature"}
{"dataset_attributes": {"@spider": "usps_collection_boxes"}, "geometry": {"coordinates": [-119.655261, 36.341588], "type": "Point"}, "id": "oaxS0HdWA92jWQPdP0VaVv0BeNI=", "properties": {"@spider": "usps_collection_boxes", "addr:city": "HANFORD", "addr:country": "US", "addr:full": "1510 N 11TH AVE", "addr:postcode": "93230", "addr:state": "CA", "amenity": "post_box", "brand": "United States Postal Service", "brand:wikidata": "Q668687", "collection_times": "Mo-Sa 14:00", "name": "USPS COLLECTION BOX - BLUE BOX", "note": "ON 12/24 AND 12/31, THIS BOX MAY BE COLLECTED AS EARLY AS 12 NOON.", "nsi_id": "unitedstatespostalservice-a77078", "operator": "United States Postal Service", "operator:short": "USPS", "operator:type": "public", "operator:wikidata": "Q668687", "ref": "9323000016"}, "type": "Feature"}
{"dataset_attributes": {"@spider": "usps_collection_boxes"}, "geometry": {"coordinates": [-119.647632703, 36.330294701], "type": "Point"}, "id": "fSUjDexxIRWwgsyN5sm4AEMrw9c=", "properties": {"@spider": "usps_collection_boxes", "addr:city": "HANFORD", "addr:country": "US", "addr:full": "517 N IRWIN ST", "addr:postcode": "93230", "addr:state": "CA", "amenity": "post_box", "brand": "United States Postal Service", "brand:wikidata": "Q668687", "collection_times": "Mo-Fr 16:00; Sa 15:45", "name": "USPS COLLECTION BOX - BLUE BOX", "note": "ON 12/24 AND 12/31, THIS BOX MAY BE COLLECTED AS EARLY AS 12 NOON.", "nsi_id": "unitedstatespostalservice-a77078", "operator": "United States Postal Service", "operator:short": "USPS", "operator:type": "public", "operator:wikidata": "Q668687", "ref": "9323000043"}, "type": "Feature"}
{"dataset_attributes": {"@spider": "usps_collection_boxes"}, "geometry": {"coordinates": [-119.647654, 36.33032], "type": "Point"}, "id": "i15jQVQLrvq_xMpe0Zlp8ZC1Xb4=", "properties": {"@spider": "usps_collection_boxes", "addr:city": "HANFORD", "addr:country": "US", "addr:full": "517 N IRWIN ST", "addr:postcode": "93230", "addr:state": "CA", "amenity": "post_box", "brand": "United States Postal Service", "brand:wikidata": "Q668687", "collection_times": "Mo-Fr 16:00; Sa 15:45", "name": "USPS COLLECTION BOX - APC", "note": "ON 12/24 AND 12/31, THIS BOX MAY BE COLLECTED AS EARLY AS 12 NOON.", "nsi_id": "unitedstatespostalservice-a77078", "operator": "United States Postal Service", "operator:short": "USPS", "operator:type": "public", "operator:wikidata": "Q668687", "ref": "9323000044"}, "type": "Feature"}
{"dataset_attributes": {"@spider": "usps_collection_boxes"}, "geometry": {"coordinates": [-119.6476327026, 36.3302947011], "type": "Point"}, "id": "bEOOeIbLzIK8K41RftJzvK0_6yA=", "properties": {"@spider": "usps_collection_boxes", "addr:city": "HANFORD", "addr:country": "US", "addr:full": "517 N IRWIN ST", "addr:postcode": "93230", "addr:state": "CA", "amenity": "post_box", "brand": "United States Postal Service", "brand:wikidata": "Q668687", "collection_times": "Mo-Fr 16:00", "name": "USPS COLLECTION BOX - PO LOBBY", "note": "ON 12/24 AND 12/31, THIS BOX MAY BE COLLECTED AS EARLY AS 12 NOON.", "nsi_id": "unitedstatespostalservice-a77078", "operator": "United States Postal Service", "operator:short": "USPS", "operator:type": "public", "operator:wikidata": "Q668687", "ref": "9323000052"}, "type": "Feature"}
{"dataset_attributes": {"@spider": "usps_collection_boxes"}, "geometry": {"coordinates": [-120.1035286862, 36.2095205801], "type": "Point"}, "id": "i51yzF1FnvCoONM3WmIF7rb4_lc=", "properties": {"@spider": "usps_collection_boxes", "addr:city": "HURON", "addr:country": "US", "addr:full": "36100 S LASSEN AVE", "addr:postcode": "93234", "addr:state": "CA", "amenity": "post_box", "brand": "United States Postal Service", "brand:wikidata": "Q668687", "collection_times": "Mo-Fr 15:30; Sa 12:00", "name": "USPS COLLECTION BOX - PO LOBBY", "note": "ON 12/24 AND 12/31, THIS BOX MAY BE COLLECTED AS EARLY AS 12 NOON.", "nsi_id": "unitedstatespostalservice-a77078", "operator": "United States Postal Service", "operator:short": "USPS", "operator:type": "public", "operator:wikidata": "Q668687", "ref": "9323400002"}, "type": "Feature"}
{"dataset_attributes": {"@spider": "usps_collection_boxes"}, "geometry": {"coordinates": [-120.1035286862, 36.2095205801], "type": "Point"}, "id": "C1N1ukmmr8LAQkr1ScspHbVDZEc=", "properties": {"@spider": "usps_collection_boxes", "addr:city": "HURON", "addr:country": "US", "addr:full": "36100 S LASSEN AVE", "addr:postcode": "93234", "addr:state": "CA", "amenity": "post_box", "brand": "United States Postal Service", "brand:wikidata": "Q668687", "collection_times": "Mo-Fr 15:30; Sa 12:00", "name": "USPS COLLECTION BOX - BLUE BOX", "note": "ON 12/24 AND 12/31, THIS BOX MAY BE COLLECTED AS EARLY AS 12 NOON.", "nsi_id": "unitedstatespostalservice-a77078", "operator": "United States Postal Service", "operator:short": "USPS", "operator:type": "public", "operator:wikidata": "Q668687", "ref": "9323400003"}, "type": "Feature"}
{"dataset_attributes": {"@spider": "usps_collection_boxes"}, "geometry": {"coordinates": [-120.1035286862, 36.2095205801], "type": "Point"}, "id": "VDVNmIumdQ3iPT-KHSf3kYcrF80=", "properties": {"@spider": "usps_collection_boxes", "addr:city": "HURON", "addr:country": "US", "addr:full": "36100 S LASSEN AVE", "addr:postcode": "93234", "addr:state": "CA", "amenity": "post_box", "brand": "United States Postal Service", "brand:wikidata": "Q668687", "collection_times": "Mo-Fr 15:30; Sa 12:00", "name": "USPS COLLECTION BOX - PO LOBBY", "note": "ON 12/24 AND 12/31, THIS BOX MAY BE COLLECTED AS EARLY AS 12 NOON.", "nsi_id": "unitedstatespostalservice-a77078", "operator": "United States Postal Service", "operator:short": "USPS", "operator:type": "public", "operator:wikidata": "Q668687", "ref": "9323400004"}, "type": "Feature"}
{"dataset_attributes": {"@spider": "usps_collection_boxes"}, "geometry": {"coordinates": [-120.1035286862, 36.2095205801], "type": "Point"}, "id": "24nxb3tgYtgkbTsWmAlFzU1Ol_w=", "properties": {"@spider": "usps_collection_boxes", "addr:city": "HURON", "addr:country": "US", "addr:full": "36100 S LASSEN AVE", "addr:postcode": "93234", "addr:state": "CA", "amenity": "post_box", "brand": "United States Postal Service", "brand:wikidata": "Q668687", "collection_times": "Mo-Fr 16:00", "name": "USPS COLLECTION BOX - PO LOBBY", "note": "ON 12/24 AND 12/31, THIS BOX MAY BE COLLECTED AS EARLY AS 12 NOON.", "nsi_id": "unitedstatespostalservice-a77078", "operator": "United States Postal Service", "operator:short": "USPS", "operator:type": "public", "operator:wikidata": "Q668687", "ref": "9323400005"}, "type": "Feature"}
{"dataset_attributes": {"@spider": "usps_collection_boxes"}, "geometry": {"coordinates": [-119.2180591121, 36.3879565979], "type": "Point"}, "id": "kTYPjF9k7zxMR07Sn2cAy6eq2io=", "properties": {"@spider": "usps_collection_boxes", "addr:city": "IVANHOE", "addr:country": "US", "addr:full": "32971 ROAD 159", "addr:postcode": "93235", "addr:state": "CA", "amenity": "post_box", "brand": "United States Postal Service", "brand:wikidata": "Q668687", "collection_times": "Mo-Fr 15:30; Sa 14:30", "name": "USPS COLLECTION BOX - PO LOBBY", "note": "ON 12/24 AND 12/31, THIS BOX MAY BE COLLECTED AS EARLY AS 12 NOON.", "nsi_id": "unitedstatespostalservice-a77078", "operator": "United States Postal Service", "operator:short": "USPS", "operator:type": "public", "operator:wikidata": "Q668687", "ref": "9323500001"}, "type": "Feature"}
{"dataset_attributes": {"@spider": "usps_collection_boxes"}, "geometry": {"coordinates": [-119.2180591121, 36.3879565979], "type": "Point"}, "id": "ooqsIBh5zK4TCblB8JarBA8mV7w=", "properties": {"@spider": "usps_collection_boxes", "addr:city": "IVANHOE", "addr:country": "US", "addr:full": "32971 ROAD 159", "addr:postcode": "93235", "addr:state": "CA", "amenity": "post_box", "brand": "United States Postal Service", "brand:wikidata": "Q668687", "collection_times": "Mo-Fr 16:00", "name": "USPS COLLECTION BOX - PO LOBBY", "note": "ON 12/24 AND 12/31, THIS BOX MAY BE COLLECTED AS EARLY AS 12 NOON.", "nsi_id": "unitedstatespostalservice-a77078", "operator": "United States Postal Service", "operator:short": "USPS", "operator:type": "public", "operator:wikidata": "Q668687", "ref": "9323500002"}, "type": "Feature"}
{"dataset_attributes": {"@spider": "usps_collection_boxes"}, "geometry": {"coordinates": [-118.426488941, 35.7552418787], "type": "Point"}, "id": "cTNACYZLeDEdf84s4rBdCVEzyLo=", "properties": {"@spider": "usps_collection_boxes", "addr:city": "KERNVILLE", "addr:country": "US", "addr:full": "45 BIG BLUE RD", "addr:postcode": "93238", "addr:state": "CA", "amenity": "post_box", "brand": "United States Postal Service", "brand:wikidata": "Q668687", "collection_times": "Mo-Fr 15:30; Sa 10:00", "name": "USPS COLLECTION BOX - PO LOBBY", "note": "ON 12/24 AND 12/31, THIS BOX MAY BE COLLECTED AS EARLY AS 12 NOON.", "nsi_id": "unitedstatespostalservice-a77078", "operator": "United States Postal Service", "operator:short": "USPS", "operator:type": "public", "operator:wikidata": "Q668687", "ref": "9323800001"}, "type": "Feature"}
{"dataset_attributes": {"@spider": "usps_collection_boxes"}, "geometry": {"coordinates": [-118.426488941, 35.7552418787], "type": "Point"}, "id": "Kzdbrc7aRJ5cIEn_P_w7pOvBPoQ=", "properties": {"@spider": "usps_collection_boxes", "addr:city": "KERNVILLE", "addr:country": "US", "addr:full": "45 BIG BLUE RD", "addr:postcode": "93238", "addr:state": "CA", "amenity": "post_box", "brand": "United States Postal Service", "brand:wikidata": "Q668687", "collection_times": "Mo-Fr 15:00", "name": "USPS COLLECTION BOX - PO LOBBY", "note": "ON 12/24 AND 12/31, THIS BOX MAY BE COLLECTED AS EARLY AS 12 NOON.", "nsi_id": "unitedstatespostalservice-a77078", "operator": "United States Postal Service", "operator:short": "USPS", "operator:type": "public", "operator:wikidata": "Q668687", "ref": "9323800003"}, "type": "Feature"}
{"dataset_attributes": {"@spider": "usps_collection_boxes"}, "geometry": {"coordinates": [-119.960005, 36.009913], "type": "Point"}, "id": "IoEoQi-qAzONHyDPeVXlcMC7kr8=", "properties": {"@spider": "usps_collection_boxes", "addr:city": "KETTLEMAN CITY", "addr:country": "US", "addr:full": "1000 MILHAM ST", "addr:postcode": "93239", "addr:state": "CA", "amenity": "post_box", "brand": "United States Postal Service", "brand:wikidata": "Q668687", "collection_times": "Mo-Fr 15:00; Sa 10:00", "name": "USPS COLLECTION BOX - BLUE BOX", "note": "ON 12/24 AND 12/31, THIS BOX MAY BE COLLECTED AS EARLY AS 12 NOON.", "nsi_id": "unitedstatespostalservice-a77078", "operator": "United States Postal Service", "operator:short": "USPS", "operator:type": "public", "operator:wikidata": "Q668687", "ref": "9323900000"}, "type": "Feature"}
{"dataset_attributes": {"@spider": "usps_collection_boxes"}, "geometry": {"coordinates": [-119.960047, 36.00987], "type": "Point"}, "id": "ncRxsD-oE_uuvDgNXS5I-vPx0oQ=", "properties": {"@spider": "usps_collection_boxes", "addr:city": "KETTLEMAN CITY", "addr:country": "US", "addr:full": "1000 MILHAM ST", "addr:postcode": "93239", "addr:state": "CA", "amenity": "post_box", "brand": "United States Postal Service", "brand:wikidata": "Q668687", "collection_times": "Mo-Fr 15:00; Sa 10:00", "name": "USPS COLLECTION BOX - PO LOBBY", "note": "ON 12/24 AND 12/31, THIS BOX MAY BE COLLECTED AS EARLY AS 12 NOON.", "nsi_id": "unitedstatespostalservice-a77078", "operator": "United States Postal Service", "operator:short": "USPS", "operator:type": "public", "operator:wikidata": "Q668687", "ref": "9323900001"}, "type": "Feature"}
{"dataset_attributes": {"@spider": "usps_collection_boxes"}, "geometry": {"coordinates": [-119.9601508305, 36.0101893305], "type": "Point"}, "id": "1BWnV4n-MfanlftIvWohJTAjv9w=", "properties": {"@spider": "usps_collection_boxes", "addr:city": "KETTLEMAN CITY", "addr:country": "US", "addr:full": "1000 MILHAM ST", "addr:postcode": "93239", "addr:state": "CA", "amenity": "post_box", "brand": "United States Postal Service", "brand:wikidata": "Q668687", "collection_times": "Mo-Fr 15:00", "name": "USPS COLLECTION BOX - PO LOBBY", "note": "ON 12/24 AND 12/31, THIS BOX MAY BE COLLECTED AS EARLY AS 12 NOON.", "nsi_id": "unitedstatespostalservice-a77078", "operator": "United States Postal Service", "operator:short": "USPS", "operator:type": "public", "operator:wikidata": "Q668687", "ref": "9323900002"}, "type": "Feature"}
{"dataset_attributes": {"@spider": "usps_collection_boxes"}, "geometry": {"coordinates": [-118.4731788698, 35.6299480343], "type": "Point"}, "id": "zjaqUcQUC8t-UdAn9qbuP1dGOqs=", "properties": {"@spider": "usps_collection_boxes", "addr:city": "LAKE ISABELLA", "addr:country": "US", "addr:full": "6441 LAKE ISABELLA BLVD", "addr:postcode": "93240", "addr:state": "CA", "amenity": "post_box", "brand": "United States Postal Service", "brand:wikidata": "Q668687", "collection_times": "Mo-Fr 15:30; Sa 10:00", "name": "USPS COLLECTION BOX - BLUE BOX", "note": "ON 12/24 AND 12/31, THIS BOX MAY BE COLLECTED AS EARLY AS 12 NOON.", "nsi_id": "unitedstatespostalservice-a77078", "operator": "United States Postal Service", "operator:short": "USPS", "operator:type": "public", "operator:wikidata": "Q668687", "ref": "9324000001"}, "type": "Feature"}
{"dataset_attributes": {"@spider": "usps_collection_boxes"}, "geometry": {"coordinates": [-118.477021, 35.618292], "type": "Point"}, "id": "DEsHsgRGJBgl4pCajRlofU2kqnM=", "properties": {"@spider": "usps_collection_boxes", "addr:city": "LAKE ISABELLA", "addr:country": "US", "addr:full": "5650 LAKE ISABELLA BLVD", "addr:postcode": "93240", "addr:state": "CA", "amenity": "post_box", "brand": "United States Postal Service", "brand:wikidata": "Q668687", "collection_times": "Mo-Fr 10:00; Sa 09:00", "name": "USPS COLLECTION BOX - BLUE BOX", "nsi_id": "unitedstatespostalservice-a77078", "operator": "United States Postal Service", "operator:short": "USPS", "operator:type": "public", "operator:wikidata": "Q668687", "ref": "9324000003"}, "type": "Feature"}
{"dataset_attributes": {"@spider": "usps_collection_boxes"}, "geometry": {"coordinates": [-118.4731788698, 35.6299480343], "type": "Point"}, "id": "90sAeBbZcgf9hafMFPTkenaeBeo=", "properties": {"@spider": "usps_collection_boxes", "addr:city": "LAKE ISABELLA", "addr:country": "US", "addr:full": "6441 LAKE ISABELLA BLVD", "addr:postcode": "93240", "addr:state": "CA", "amenity": "post_box", "brand": "United States Postal Service", "brand:wikidata": "Q668687", "collection_times": "Mo-Fr 15:45; Sa 10:00", "name": "USPS COLLECTION BOX - PO LOBBY", "note": "ON 12/24 AND 12/31, THIS BOX MAY BE COLLECTED AS EARLY AS 12 NOON.", "nsi_id": "unitedstatespostalservice-a77078", "operator": "United States Postal Service", "operator:short": "USPS", "operator:type": "public", "operator:wikidata": "Q668687", "ref": "9324000004"}, "type": "Feature"}
{"dataset_attributes": {"@spider": "usps_collection_boxes"}, "geometry": {"coordinates": [-118.4731788698, 35.6299480343], "type": "Point"}, "id": "_QDZylK-8jfhIResGk4DY8rF02g=", "properties": {"@spider": "usps_collection_boxes", "addr:city": "LAKE ISABELLA", "addr:country": "US", "addr:full": "6441 LAKE ISABELLA BLVD", "addr:postcode": "93240", "addr:state": "CA", "amenity": "post_box", "brand": "United States Postal Service", "brand:wikidata": "Q668687", "collection_times": "Mo-Fr 15:45", "name": "USPS COLLECTION BOX - PO LOBBY", "note": "ON 12/24 AND 12/31, THIS BOX MAY BE COLLECTED AS EARLY AS 12 NOON.", "nsi_id": "unitedstatespostalservice-a77078", "operator": "United States Postal Service", "operator:short": "USPS", "operator:type": "public", "operator:wikidata": "Q668687", "ref": "9324000005"}, "type": "Feature"}
{"dataset_attributes": {"@spider": "usps_collection_boxes"}, "geometry": {"coordinates": [-118.9145194248, 35.2456092689], "type": "Point"}, "id": "I-AvZujtU18pD5uaxukGNyRHYSY=", "properties": {"@spider": "usps_collection_boxes", "addr:city": "LAMONT", "addr:country": "US", "addr:full": "11940 MAIN ST", "addr:postcode": "93241", "addr:state": "CA", "amenity": "post_box", "brand": "United States Postal Service", "brand:wikidata": "Q668687", "collection_times": "Mo-Fr 16:30; Sa 09:30", "name": "USPS COLLECTION BOX - BLUE BOX", "note": "ON 12/24 AND 12/31, THIS BOX MAY BE COLLECTED AS EARLY AS 12 NOON.", "nsi_id": "unitedstatespostalservice-a77078", "operator": "United States Postal Service", "operator:short": "USPS", "operator:type": "public", "operator:wikidata": "Q668687", "ref": "9324100004"}, "type": "Feature"}
{"dataset_attributes": {"@spider": "usps_collection_boxes"}, "geometry": {"coordinates": [-118.9145194248, 35.2456092689], "type": "Point"}, "id": "qrFsJUnK-T4amUPZZGhlAPaRhLQ=", "properties": {"@spider": "usps_collection_boxes", "addr:city": "LAMONT", "addr:country": "US", "addr:full": "11940 MAIN ST", "addr:postcode": "93241", "addr:state": "CA", "amenity": "post_box", "brand": "United States Postal Service", "brand:wikidata": "Q668687", "collection_times": "Mo-Fr 16:30", "name": "USPS COLLECTION BOX - PO LOBBY", "note": "ON 12/24 AND 12/31, THIS BOX MAY BE COLLECTED AS EARLY AS 12 NOON.", "nsi_id": "unitedstatespostalservice-a77078", "operator": "United States Postal Service", "operator:short": "USPS", "operator:type": "public", "operator:wikidata": "Q668687", "ref": "9324100006"}, "type": "Feature"}
{"dataset_attributes": {"@spider": "usps_collection_boxes"}, "geometry": {"coordinates": [-119.6858441894, 36.4344271302], "type": "Point"}, "id": "DcfXNU4VfrEITtTE-XQ9NRSWhzE=", "properties": {"@spider": "usps_collection_boxes", "addr:city": "LATON", "addr:country": "US", "addr:full": "6245 DE WOODY AVE", "addr:postcode": "93242", "addr:state": "CA", "amenity": "post_box", "brand": "United States Postal Service", "brand:wikidata": "Q668687", "collection_times": "Mo-Fr 16:00", "name": "USPS COLLECTION BOX - PO LOBBY", "note": "ON 12/24 AND 12/31, THIS BOX MAY BE COLLECTED AS EARLY AS 12 NOON.", "nsi_id": "unitedstatespostalservice-a77078", "operator": "United States Postal Service", "operator:short": "USPS", "operator:type": "public", "operator:wikidata": "Q668687", "ref": "9324200001"}, "type": "Feature"}
{"dataset_attributes": {"@spider": "usps_collection_boxes"}, "geometry": {"coordinates": [-119.6858441894, 36.4344271302], "type": "Point"}, "id": "Rme4uLn8RrzJOE51_7vZ96_Hwm4=", "properties": {"@spider": "usps_collection_boxes", "addr:city": "LATON", "addr:country": "US", "addr:full": "6245 DE WOODY AVE", "addr:postcode": "93242", "addr:state": "CA", "amenity": "post_box", "brand": "United States Postal Service", "brand:wikidata": "Q668687", "collection_times": "Mo-Fr 16:00", "name": "USPS COLLECTION BOX - PO LOBBY", "note": "ON 12/24 AND 12/31, THIS BOX MAY BE COLLECTED AS EARLY AS 12 NOON.", "nsi_id": "unitedstatespostalservice-a77078", "operator": "United States Postal Service", "operator:short": "USPS", "operator:type": "public", "operator:wikidata": "Q668687", "ref": "9324200002"}, "type": "Feature"}
{"dataset_attributes": {"@spider": "usps_collection_boxes"}, "geometry": {"coordinates": [-118.8654861291, 34.841814925], "type": "Point"}, "id": "GQWa6QTVoOMmhLoWZdnfzZQI0_M=", "properties": {"@spider": "usps_collection_boxes", "addr:city": "LEBEC", "addr:country": "US", "addr:full": "2132 LEBEC RD", "addr:postcode": "93243", "addr:state": "CA", "amenity": "post_box", "brand": "United States Postal Service", "brand:wikidata": "Q668687", "collection_times": "Mo-Fr 16:00; Sa 08:00", "name": "USPS COLLECTION BOX - PO LOBBY", "note": "ON 12/24 AND 12/31, THIS BOX MAY BE COLLECTED AS EARLY AS 12 NOON.", "nsi_id": "unitedstatespostalservice-a77078", "operator": "United States Postal Service", "operator:short": "USPS", "operator:type": "public", "operator:wikidata": "Q668687", "ref": "9324300002"}, "type": "Feature"}
{"dataset_attributes": {"@spider": "usps_collection_boxes"}, "geometry": {"coordinates": [-118.94772, 34.98529], "type": "Point"}, "id": "vOe0KbBZnWKbI_csTzi0reldPZI=", "properties": {"@spider": "usps_collection_boxes", "addr:city": "LEBEC", "addr:country": "US", "addr:full": "5821 DENNIS MC CARTHY DR", "addr:postcode": "93243", "addr:state": "CA", "amenity": "post_box", "brand": "United States Postal Service", "brand:wikidata": "Q668687", "collection_times": "Mo-Sa 08:00", "name": "USPS COLLECTION BOX - BLUE BOX", "nsi_id": "unitedstatespostalservice-a77078", "operator": "United States Postal Service", "operator:short": "USPS", "operator:type": "public", "operator:wikidata": "Q668687", "ref": "9324300004"}, "type": "Feature"}
{"dataset_attributes": {"@spider": "usps_collection_boxes"}, "geometry": {"coordinates": [-118.8654861291, 34.841814925], "type": "Point"}, "id": "MBdjfj3hoFFGibdUsuwpEgHksKU=", "properties": {"@spider": "usps_collection_boxes", "addr:city": "LEBEC", "addr:country": "US", "addr:full": "2132 LEBEC RD", "addr:postcode": "93243", "addr:state": "CA", "amenity": "post_box", "brand": "United States Postal Service", "brand:wikidata": "Q668687", "collection_times": "Mo-Fr 16:00", "name": "USPS COLLECTION BOX - PO LOBBY", "note": "ON 12/24 AND 12/31, THIS BOX MAY BE COLLECTED AS EARLY AS 12 NOON.", "nsi_id": "unitedstatespostalservice-a77078", "operator": "United States Postal Service", "operator:short": "USPS", "operator:type": "public", "operator:wikidata": "Q668687", "ref": "9324300006"}, "type": "Feature"}
{"dataset_attributes": {"@spider": "usps_collection_boxes"}, "geometry": {"coordinates": [-119.0253416123, 36.3839985068], "type": "Point"}, "id": "d3TT0roXf1rC00K7nBgPxp2-5yk=", "properties": {"@spider": "usps_collection_boxes", "addr:city": "LEMON COVE", "addr:country": "US", "addr:full": "24451 DOUGLAS AVE", "addr:postcode": "93244", "addr:state": "CA", "amenity": "post_box", "brand": "United States Postal Service", "brand:wikidata": "Q668687", "collection_times": "Mo-Fr 14:00; Sa 09:00", "name": "USPS COLLECTION BOX - PO LOBBY", "note": "ON 12/24 AND 12/31, THIS BOX MAY BE COLLECTED AS EARLY AS 12 NOON.", "nsi_id": "unitedstatespostalservice-a77078", "operator": "United States Postal Service", "operator:short": "USPS", "operator:type": "public", "operator:wikidata": "Q668687", "ref": "9324400000"}, "type": "Feature"}
{"dataset_attributes": {"@spider": "usps_collection_boxes"}, "geometry": {"coordinates": [-119.0252690106, 36.3837299898], "type": "Point"}, "id": "UtzSRKzLPHCjkr6aI9pYx87Ujdw=", "properties": {"@spider": "usps_collection_boxes", "addr:city": "LEMON COVE", "addr:country": "US", "addr:full": "24451 DOUGLAS AVE", "addr:postcode": "93244", "addr:state": "CA", "amenity": "post_box", "brand": "United States Postal Service", "brand:wikidata": "Q668687", "collection_times": "Mo-Fr 14:00; Sa 09:00", "name": "USPS COLLECTION BOX - BLUE BOX", "note": "ON 12/24 AND 12/31, THIS BOX MAY BE COLLECTED AS EARLY AS 12 NOON.", "nsi_id": "unitedstatespostalservice-a77078", "operator": "United States Postal Service", "operator:short": "USPS", "operator:type": "public", "operator:wikidata": "Q668687", "ref": "9324400001"}, "type": "Feature"}
{"dataset_attributes": {"@spider": "usps_collection_boxes"}, "geometry": {"coordinates": [-119.0253416123, 36.3839985068], "type": "Point"}, "id": "Stt2IBLkcuD7uHRjaBK0JWSbR6o=", "properties": {"@spider": "usps_collection_boxes", "addr:city": "LEMON COVE", "addr:country": "US", "addr:full": "24451 DOUGLAS AVE", "addr:postcode": "93244", "addr:state": "CA", "amenity": "post_box", "brand": "United States Postal Service", "brand:wikidata": "Q668687", "collection_times": "Mo-Fr 14:00", "name": "USPS COLLECTION BOX - PO LOBBY", "note": "ON 12/24 AND 12/31, THIS BOX MAY BE COLLECTED AS EARLY AS 12 NOON.", "nsi_id": "unitedstatespostalservice-a77078", "operator": "United States Postal Service", "operator:short": "USPS", "operator:type": "public", "operator:wikidata": "Q668687", "ref": "9324400002"}, "type": "Feature"}
{"dataset_attributes": {"@spider": "usps_collection_boxes"}, "geometry": {"coordinates": [-119.7832175898, 36.3010055912], "type": "Point"}, "id": "0afsg5alR4ZR67Cf9oaezsYjf0U=", "properties": {"@spider": "usps_collection_boxes", "addr:city": "LEMOORE", "addr:country": "US", "addr:full": "206 C ST", "addr:postcode": "93245", "addr:state": "CA", "amenity": "post_box", "brand": "United States Postal Service", "brand:wikidata": "Q668687", "collection_times": "Mo-Fr 16:30; Sa 15:30", "name": "USPS COLLECTION BOX - BLUE BOX", "note": "ON 12/24 AND 12/31, THIS BOX MAY BE COLLECTED AS EARLY AS 12 NOON.", "nsi_id": "unitedstatespostalservice-a77078", "operator": "United States Postal Service", "operator:short": "USPS", "operator:type": "public", "operator:wikidata": "Q668687", "ref": "9324500001"}, "type": "Feature"}
{"dataset_attributes": {"@spider": "usps_collection_boxes"}, "geometry": {"coordinates": [-119.7832175898, 36.3010055912], "type": "Point"}, "id": "jGPz6Z6QaZIGjfQDj0GMnUUIv8s=", "properties": {"@spider": "usps_collection_boxes", "addr:city": "LEMOORE", "addr:country": "US", "addr:full": "206 C ST", "addr:postcode": "93245", "addr:state": "CA", "amenity": "post_box", "brand": "United States Postal Service", "brand:wikidata": "Q668687", "collection_times": "Mo-Fr 16:30; Sa 15:30", "name": "USPS COLLECTION BOX - BLUE BOX", "note": "ON 12/24 AND 12/31, THIS BOX MAY BE COLLECTED AS EARLY AS 12 NOON.", "nsi_id": "unitedstatespostalservice-a77078", "operator": "United States Postal Service", "operator:short": "USPS", "operator:type": "public", "operator:wikidata": "Q668687", "ref": "9324500002"}, "type": "Feature"}
{"dataset_attributes": {"@spider": "usps_collection_boxes"}, "geometry": {"coordinates": [-119.7832175898, 36.3010055912], "type": "Point"}, "id": "Po_C2siGzx9JM-JeOWDAdAOdhgM=", "properties": {"@spider": "usps_collection_boxes", "addr:city": "LEMOORE", "addr:country": "US", "addr:full": "206 C ST", "addr:postcode": "93245", "addr:state": "CA", "amenity": "post_box", "brand": "United States Postal Service", "brand:wikidata": "Q668687", "collection_times": "Mo-Fr 16:30; Sa 15:30", "name": "USPS COLLECTION BOX - BLUE BOX", "note": "ON 12/24 AND 12/31, THIS BOX MAY BE COLLECTED AS EARLY AS 12 NOON.", "nsi_id": "unitedstatespostalservice-a77078", "operator": "United States Postal Service", "operator:short": "USPS", "operator:type": "public", "operator:wikidata": "Q668687", "ref": "9324500004"}, "type": "Feature"}
{"dataset_attributes": {"@spider": "usps_collection_boxes"}, "geometry": {"coordinates": [-119.7832175898, 36.3010055912], "type": "Point"}, "id": "WFHFdt2L8Wml0hyJsQUFiTc9QxE=", "properties": {"@spider": "usps_collection_boxes", "addr:city": "LEMOORE", "addr:country": "US", "addr:full": "206 C ST", "addr:postcode": "93245", "addr:state": "CA", "amenity": "post_box", "brand": "United States Postal Service", "brand:wikidata": "Q668687", "collection_times": "Mo-Fr 16:30; Sa 15:30", "name": "USPS COLLECTION BOX - PO LOBBY", "note": "ON 12/24 AND 12/31, THIS BOX MAY BE COLLECTED AS EARLY AS 12 NOON.", "nsi_id": "unitedstatespostalservice-a77078", "operator": "United States Postal Service", "operator:short": "USPS", "operator:type": "public", "operator:wikidata": "Q668687", "ref": "9324500006"}, "type": "Feature"}
{"dataset_attributes": {"@spider": "usps_collection_boxes"}, "geometry": {"coordinates": [-119.7832175898, 36.3010055912], "type": "Point"}, "id": "4eXFBgnIbv_koSW5bwUy_hkjeQU=", "properties": {"@spider": "usps_collection_boxes", "addr:city": "LEMOORE", "addr:country": "US", "addr:full": "206 C ST", "addr:postcode": "93245", "addr:state": "CA", "amenity": "post_box", "brand": "United States Postal Service", "brand:wikidata": "Q668687", "collection_times": "Mo-Fr 16:30; Sa 15:30", "name": "USPS COLLECTION BOX - PO LOBBY", "note": "ON 12/24 AND 12/31, THIS BOX MAY BE COLLECTED AS EARLY AS 12 NOON.", "nsi_id": "unitedstatespostalservice-a77078", "operator": "United States Postal Service", "operator:short": "USPS", "operator:type": "public", "operator:wikidata": "Q668687", "ref": "9324500007"}, "type": "Feature"}
{"dataset_attributes": {"@spider": "usps_collection_boxes"}, "geometry": {"coordinates": [-119.7832175898, 36.3010055912], "type": "Point"}, "id": "lFweDTZmtJnXqD_uSaweFXR_MnI=", "properties": {"@spider": "usps_collection_boxes", "addr:city": "LEMOORE", "addr:country": "US", "addr:full": "206 C ST", "addr:postcode": "93245", "addr:state": "CA", "amenity": "post_box", "brand": "United States Postal Service", "brand:wikidata": "Q668687", "collection_times": "Mo-Fr 16:30; Sa 15:30", "name": "USPS COLLECTION BOX - BLUE BOX", "note": "ON 12/24 AND 12/31, THIS BOX MAY BE COLLECTED AS EARLY AS 12 NOON.", "nsi_id": "unitedstatespostalservice-a77078", "operator": "United States Postal Service", "operator:short": "USPS", "operator:type": "public", "operator:wikidata": "Q668687", "ref": "9324500009"}, "type": "Feature"}
{"dataset_attributes": {"@spider": "usps_collection_boxes"}, "geometry": {"coordinates": [-119.7832175898, 36.3010055912], "type": "Point"}, "id": "yXlZlS1OBR0sedlrsEvELdLm4M0=", "properties": {"@spider": "usps_collection_boxes", "addr:city": "LEMOORE", "addr:country": "US", "addr:full": "206 C ST", "addr:postcode": "93245", "addr:state": "CA", "amenity": "post_box", "brand": "United States Postal Service", "brand:wikidata": "Q668687", "collection_times": "Mo-Fr 16:30", "name": "USPS COLLECTION BOX - PO LOBBY", "note": "ON 12/24 AND 12/31, THIS BOX MAY BE COLLECTED AS EARLY AS 12 NOON.", "nsi_id": "unitedstatespostalservice-a77078", "operator": "United States Postal Service", "operator:short": "USPS", "operator:type": "public", "operator:wikidata": "Q668687", "ref": "9324500010"}, "type": "Feature"}
{"dataset_attributes": {"@spider": "usps_collection_boxes"}, "geometry": {"coordinates": [-119.8978008261, 36.2591636087], "type": "Point"}, "id": "lLIZwAvPt662_pciOXtIrP6oVYQ=", "properties": {"@spider": "usps_collection_boxes", "addr:city": "LEMOORE", "addr:country": "US", "addr:full": "826 HANCOCK CIR", "addr:postcode": "93246", "addr:state": "CA", "amenity": "post_box", "brand": "United States Postal Service", "brand:wikidata": "Q668687", "collection_times": "Mo-Fr 16:00", "name": "USPS COLLECTION BOX - BLUE BOX", "note": "ON 12/24 AND 12/31, THIS BOX MAY BE COLLECTED AS EARLY AS 12 NOON.", "nsi_id": "unitedstatespostalservice-a77078", "operator": "United States Postal Service", "operator:short": "USPS", "operator:type": "public", "operator:wikidata": "Q668687", "ref": "9324600001"}, "type": "Feature"}
{"dataset_attributes": {"@spider": "usps_collection_boxes"}, "geometry": {"coordinates": [-119.8978008261, 36.2591636087], "type": "Point"}, "id": "xrGpo8CYtcgCXB96sjyWBbT7ejs=", "properties": {"@spider": "usps_collection_boxes", "addr:city": "LEMOORE", "addr:country": "US", "addr:full": "826 HANCOCK CIR", "addr:postcode": "93246", "addr:state": "CA", "amenity": "post_box", "brand": "United States Postal Service", "brand:wikidata": "Q668687", "collection_times": "Mo-Fr 16:00", "name": "USPS COLLECTION BOX - BLUE BOX", "note": "ON 12/24 AND 12/31, THIS BOX MAY BE COLLECTED AS EARLY AS 12 NOON.", "nsi_id": "unitedstatespostalservice-a77078", "operator": "United States Postal Service", "operator:short": "USPS", "operator:type": "public", "operator:wikidata": "Q668687", "ref": "9324600002"}, "type": "Feature"}
{"dataset_attributes": {"@spider": "usps_collection_boxes"}, "geometry": {"coordinates": [-119.8978008261, 36.2591636087], "type": "Point"}, "id": "jX463YbRXEY7PrsvwvnInBpurmo=", "properties": {"@spider": "usps_collection_boxes", "addr:city": "LEMOORE", "addr:country": "US", "addr:full": "826 HANCOCK CIR", "addr:postcode": "93246", "addr:state": "CA", "amenity": "post_box", "brand": "United States Postal Service", "brand:wikidata": "Q668687", "collection_times": "Mo-Fr 16:00", "name": "USPS COLLECTION BOX - PO LOBBY", "note": "ON 12/24 AND 12/31, THIS BOX MAY BE COLLECTED AS EARLY AS 12 NOON.", "nsi_id": "unitedstatespostalservice-a77078", "operator": "United States Postal Service", "operator:short": "USPS", "operator:type": "public", "operator:wikidata": "Q668687", "ref": "9324600004"}, "type": "Feature"}
{"dataset_attributes": {"@spider": "usps_collection_boxes"}, "geometry": {"coordinates": [-119.0879741267, 36.2032805493], "type": "Point"}, "id": "E3kt2JhWPy-xMi36O21aZBpt7IA=", "properties": {"@spider": "usps_collection_boxes", "addr:city": "LINDSAY", "addr:country": "US", "addr:full": "262 E HONOLULU ST", "addr:postcode": "93247", "addr:state": "CA", "amenity": "post_box", "brand": "United States Postal Service", "brand:wikidata": "Q668687", "collection_times": "Mo-Fr 16:00; Sa 09:30", "name": "USPS COLLECTION BOX - PO LOBBY", "note": "ON 12/24 AND 12/31, THIS BOX MAY BE COLLECTED AS EARLY AS 12 NOON.", "nsi_id": "unitedstatespostalservice-a77078", "operator": "United States Postal Service", "operator:short": "USPS", "operator:type": "public", "operator:wikidata": "Q668687", "ref": "9324700001"}, "type": "Feature"}
{"dataset_attributes": {"@spider": "usps_collection_boxes"}, "geometry": {"coordinates": [-119.0879741267, 36.2032805493], "type": "Point"}, "id": "SriEsQTy252zqRK0U5etgJmfh1w=", "properties": {"@spider": "usps_collection_boxes", "addr:city": "LINDSAY", "addr:country": "US", "addr:full": "262 E HONOLULU ST", "addr:postcode": "93247", "addr:state": "CA", "amenity": "post_box", "brand": "United States Postal Service", "brand:wikidata": "Q668687", "collection_times": "Mo-Fr 16:00; Sa 09:30", "name": "USPS COLLECTION BOX - BLUE BOX", "note": "ON 12/24 AND 12/31, THIS BOX MAY BE COLLECTED AS EARLY AS 12 NOON.", "nsi_id": "unitedstatespostalservice-a77078", "operator": "United States Postal Service", "operator:short": "USPS", "operator:type": "public", "operator:wikidata": "Q668687", "ref": "9324700011"}, "type": "Feature"}
{"dataset_attributes": {"@spider": "usps_collection_boxes"}, "geometry": {"coordinates": [-119.0879741267, 36.2032805493], "type": "Point"}, "id": "4qhKxKPnjMiHVZ6QIEN_pC8AEVw=", "properties": {"@spider": "usps_collection_boxes", "addr:city": "LINDSAY", "addr:country": "US", "addr:full": "262 E HONOLULU ST", "addr:postcode": "93247", "addr:state": "CA", "amenity": "post_box", "brand": "United States Postal Service", "brand:wikidata": "Q668687", "collection_times": "Mo-Fr 16:00", "name": "USPS COLLECTION BOX - PO LOBBY", "note": "ON 12/24 AND 12/31, THIS BOX MAY BE COLLECTED AS EARLY AS 12 NOON.", "nsi_id": "unitedstatespostalservice-a77078", "operator": "United States Postal Service", "operator:short": "USPS", "operator:type": "public", "operator:wikidata": "Q668687", "ref": "9324700012"}, "type": "Feature"}
{"dataset_attributes": {"@spider": "usps_collection_boxes"}, "geometry": {"coordinates": [-119.694113832, 35.616021477], "type": "Point"}, "id": "jJq55CBbV-Tx2SXSDh5yXHlKsg8=", "properties": {"@spider": "usps_collection_boxes", "addr:city": "LOST HILLS", "addr:country": "US", "addr:full": "21155 HIGHWAY 46", "addr:postcode": "93249", "addr:state": "CA", "amenity": "post_box", "brand": "United States Postal Service", "brand:wikidata": "Q668687", "collection_times": "Mo-Fr 15:25; Sa 10:15", "name": "USPS COLLECTION BOX - BLUE BOX", "note": "ON 12/24 AND 12/31, THIS BOX MAY BE COLLECTED AS EARLY AS 12 NOON.", "nsi_id": "unitedstatespostalservice-a77078", "operator": "United States Postal Service", "operator:short": "USPS", "operator:type": "public", "operator:wikidata": "Q668687", "ref": "9324900000"}, "type": "Feature"}
{"dataset_attributes": {"@spider": "usps_collection_boxes"}, "geometry": {"coordinates": [-119.694113832, 35.616021477], "type": "Point"}, "id": "fOPSr5OVA6if7-rXT_ufzm3wF8c=", "properties": {"@spider": "usps_collection_boxes", "addr:city": "LOST HILLS", "addr:country": "US", "addr:full": "21155 HIGHWAY 46", "addr:postcode": "93249", "addr:state": "CA", "amenity": "post_box", "brand": "United States Postal Service", "brand:wikidata": "Q668687", "collection_times": "Mo-Fr 15:25; Sa 10:15", "name": "USPS COLLECTION BOX - PO LOBBY", "note": "ON 12/24 AND 12/31, THIS BOX MAY BE COLLECTED AS EARLY AS 12 NOON.", "nsi_id": "unitedstatespostalservice-a77078", "operator": "United States Postal Service", "operator:short": "USPS", "operator:type": "public", "operator:wikidata": "Q668687", "ref": "9324900001"}, "type": "Feature"}
{"dataset_attributes": {"@spider": "usps_collection_boxes"}, "geometry": {"coordinates": [-119.694113832, 35.616021477], "type": "Point"}, "id": "t9pFFUfO9FfDoT4QDNQ3BOB2d_g=", "properties": {"@spider": "usps_collection_boxes", "addr:city": "LOST HILLS", "addr:country": "US", "addr:full": "21155 HIGHWAY 46", "addr:postcode": "93249", "addr:state": "CA", "amenity": "post_box", "brand": "United States Postal Service", "brand:wikidata": "Q668687", "collection_times": "Mo-Fr 15:15", "name": "USPS COLLECTION BOX - PO LOBBY", "note": "ON 12/24 AND 12/31, THIS BOX MAY BE COLLECTED AS EARLY AS 12 NOON.", "nsi_id": "unitedstatespostalservice-a77078", "operator": "United States Postal Service", "operator:short": "USPS", "operator:type": "public", "operator:wikidata": "Q668687", "ref": "9324900002"}, "type": "Feature"}
{"dataset_attributes": {"@spider": "usps_collection_boxes"}, "geometry": {"coordinates": [-119.229322932, 35.680749817], "type": "Point"}, "id": "-PoEOIuGAN-8heh6dUY8IP7qB90=", "properties": {"@spider": "usps_collection_boxes", "addr:city": "MCFARLAND", "addr:country": "US", "addr:full": "633 2ND ST", "addr:postcode": "93250", "addr:state": "CA", "amenity": "post_box", "brand": "United States Postal Service", "brand:wikidata": "Q668687", "collection_times": "Mo-Fr 16:15; Sa 08:30", "name": "USPS COLLECTION BOX - BLUE BOX", "note": "ON 12/24 AND 12/31, THIS BOX MAY BE COLLECTED AS EARLY AS 12 NOON.", "nsi_id": "unitedstatespostalservice-a77078", "operator": "United States Postal Service", "operator:short": "USPS", "operator:type": "public", "operator:wikidata": "Q668687", "ref": "9325000000"}, "type": "Feature"}
{"dataset_attributes": {"@spider": "usps_collection_boxes"}, "geometry": {"coordinates": [-119.229327557, 35.6807408587], "type": "Point"}, "id": "8WDWE3VHsvjEgsTycXKHQlwpFjs=", "properties": {"@spider": "usps_collection_boxes", "addr:city": "MCFARLAND", "addr:country": "US", "addr:full": "633 2ND ST", "addr:postcode": "93250", "addr:state": "CA", "amenity": "post_box", "brand": "United States Postal Service", "brand:wikidata": "Q668687", "collection_times": "Mo-Fr 16:00", "name": "USPS COLLECTION BOX - PO LOBBY", "note": "ON 12/24 AND 12/31, THIS BOX MAY BE COLLECTED AS EARLY AS 12 NOON.", "nsi_id": "unitedstatespostalservice-a77078", "operator": "United States Postal Service", "operator:short": "USPS", "operator:type": "public", "operator:wikidata": "Q668687", "ref": "9325000002"}, "type": "Feature"}
{"dataset_attributes": {"@spider": "usps_collection_boxes"}, "geometry": {"coordinates": [-119.622802757, 35.3065493247], "type": "Point"}, "id": "B3zteKw2BOHlo0wERQPf6frPNH0=", "properties": {"@spider": "usps_collection_boxes", "addr:city": "MC KITTRICK", "addr:country": "US", "addr:full": "23263 2ND ST", "addr:postcode": "93251", "addr:state": "CA", "amenity": "post_box", "brand": "United States Postal Service", "brand:wikidata": "Q668687", "collection_times": "Mo-Fr 16:15; Sa 09:00", "name": "USPS COLLECTION BOX - PO LOBBY", "note": "ON 12/24 AND 12/31, THIS BOX MAY BE COLLECTED AS EARLY AS 12 NOON.", "nsi_id": "unitedstatespostalservice-a77078", "operator": "United States Postal Service", "operator:short": "USPS", "operator:type": "public", "operator:wikidata": "Q668687", "ref": "9325100001"}, "type": "Feature"}
{"dataset_attributes": {"@spider": "usps_collection_boxes"}, "geometry": {"coordinates": [-119.622802757, 35.3065493247], "type": "Point"}, "id": "EUZ2-BUODW6zFhL8XYDWAVKN98M=", "properties": {"@spider": "usps_collection_boxes", "addr:city": "MC KITTRICK", "addr:country": "US", "addr:full": "23263 2ND ST", "addr:postcode": "93251", "addr:state": "CA", "amenity": "post_box", "brand": "United States Postal Service", "brand:wikidata": "Q668687", "collection_times": "Mo-Fr 16:30", "name": "USPS COLLECTION BOX - PO LOBBY", "note": "ON 12/24 AND 12/31, THIS BOX MAY BE COLLECTED AS EARLY AS 12 NOON.", "nsi_id": "unitedstatespostalservice-a77078", "operator": "United States Postal Service", "operator:short": "USPS", "operator:type": "public", "operator:wikidata": "Q668687", "ref": "9325100002"}, "type": "Feature"}
{"dataset_attributes": {"@spider": "usps_collection_boxes"}, "geometry": {"coordinates": [-119.4017135934, 35.0633886952], "type": "Point"}, "id": "l2kIgs0fY2HW8SfwwDioBGItsVA=", "properties": {"@spider": "usps_collection_boxes", "addr:city": "MARICOPA", "addr:country": "US", "addr:full": "345 CALIFORNIA ST", "addr:postcode": "93252", "addr:state": "CA", "amenity": "post_box", "brand": "United States Postal Service", "brand:wikidata": "Q668687", "collection_times": "Mo-Fr 16:00; Sa 08:45", "name": "USPS COLLECTION BOX - PO LOBBY", "note": "ON 12/24 AND 12/31, THIS BOX MAY BE COLLECTED AS EARLY AS 12 NOON.", "nsi_id": "unitedstatespostalservice-a77078", "operator": "United States Postal Service", "operator:short": "USPS", "operator:type": "public", "operator:wikidata": "Q668687", "ref": "9325200001"}, "type": "Feature"}
{"dataset_attributes": {"@spider": "usps_collection_boxes"}, "geometry": {"coordinates": [-119.4017135934, 35.0633886952], "type": "Point"}, "id": "XtM4SD27apT6csiri6OV0D_uNj8=", "properties": {"@spider": "usps_collection_boxes", "addr:city": "MARICOPA", "addr:country": "US", "addr:full": "345 CALIFORNIA ST", "addr:postcode": "93252", "addr:state": "CA", "amenity": "post_box", "brand": "United States Postal Service", "brand:wikidata": "Q668687", "collection_times": "Mo-Fr 16:00", "name": "USPS COLLECTION BOX - PO LOBBY", "note": "ON 12/24 AND 12/31, THIS BOX MAY BE COLLECTED AS EARLY AS 12 NOON.", "nsi_id": "unitedstatespostalservice-a77078", "operator": "United States Postal Service", "operator:short": "USPS", "operator:type": "public", "operator:wikidata": "Q668687", "ref": "9325200002"}, "type": "Feature"}
{"dataset_attributes": {"@spider": "usps_collection_boxes"}, "geometry": {"coordinates": [-119.4017062385, 35.0633888998], "type": "Point"}, "id": "ybepG0A3BfaQeNdA7j3-yt4QAwY=", "properties": {"@spider": "usps_collection_boxes", "addr:city": "MARICOPA", "addr:country": "US", "addr:full": "345 CALIFORNIA ST", "addr:postcode": "93252", "addr:state": "CA", "amenity": "post_box", "brand": "United States Postal Service", "brand:wikidata": "Q668687", "collection_times": "Mo-Fr 16:00; Sa 08:45", "name": "USPS COLLECTION BOX - BLUE BOX", "note": "ON 12/24 AND 12/31, THIS BOX MAY BE COLLECTED AS EARLY AS 12 NOON.", "nsi_id": "unitedstatespostalservice-a77078", "operator": "United States Postal Service", "operator:short": "USPS", "operator:type": "public", "operator:wikidata": "Q668687", "ref": "9325200003"}, "type": "Feature"}
{"dataset_attributes": {"@spider": "usps_collection_boxes"}, "geometry": {"coordinates": [-119.6882415105, 34.9474134385], "type": "Point"}, "id": "AGSZKOYvmGmjI1kDxVUtFw-N0jE=", "properties": {"@spider": "usps_collection_boxes", "addr:city": "NEW CUYAMA", "addr:country": "US", "addr:full": "4855 PRIMERO ST", "addr:postcode": "93254", "addr:state": "CA", "amenity": "post_box", "brand": "United States Postal Service", "brand:wikidata": "Q668687", "collection_times": "Mo-Fr 15:30; Sa 09:00", "name": "USPS COLLECTION BOX - BLUE BOX", "note": "ON 12/24 AND 12/31, THIS BOX MAY BE COLLECTED AS EARLY AS 12 NOON.", "nsi_id": "unitedstatespostalservice-a77078", "operator": "United States Postal Service", "operator:short": "USPS", "operator:type": "public", "operator:wikidata": "Q668687", "ref": "9325400000"}, "type": "Feature"}
{"dataset_attributes": {"@spider": "usps_collection_boxes"}, "geometry": {"coordinates": [-119.6882415105, 34.9474134385], "type": "Point"}, "id": "KCKxCoTBC2vjNePPDli-0dhqObo=", "properties": {"@spider": "usps_collection_boxes", "addr:city": "NEW CUYAMA", "addr:country": "US", "addr:full": "4855 PRIMERO ST", "addr:postcode": "93254", "addr:state": "CA", "amenity": "post_box", "brand": "United States Postal Service", "brand:wikidata": "Q668687", "collection_times": "Mo-Fr 16:00; Sa 09:00", "name": "USPS COLLECTION BOX - PO LOBBY", "note": "ON 12/24 AND 12/31, THIS BOX MAY BE COLLECTED AS EARLY AS 12 NOON.", "nsi_id": "unitedstatespostalservice-a77078", "operator": "United States Postal Service", "operator:short": "USPS", "operator:type": "public", "operator:wikidata": "Q668687", "ref": "9325400001"}, "type": "Feature"}
{"dataset_attributes": {"@spider": "usps_collection_boxes"}, "geometry": {"coordinates": [-119.6882415105, 34.9474134385], "type": "Point"}, "id": "ombOSaLNz_QKKr3sTcLY-Oy47hw=", "properties": {"@spider": "usps_collection_boxes", "addr:city": "NEW CUYAMA", "addr:country": "US", "addr:full": "4855 PRIMERO ST", "addr:postcode": "93254", "addr:state": "CA", "amenity": "post_box", "brand": "United States Postal Service", "brand:wikidata": "Q668687", "collection_times": "Mo-Fr 16:00", "name": "USPS COLLECTION BOX - PO LOBBY", "note": "ON 12/24 AND 12/31, THIS BOX MAY BE COLLECTED AS EARLY AS 12 NOON.", "nsi_id": "unitedstatespostalservice-a77078", "operator": "United States Postal Service", "operator:short": "USPS", "operator:type": "public", "operator:wikidata": "Q668687", "ref": "9325400002"}, "type": "Feature"}
{"dataset_attributes": {"@spider": "usps_collection_boxes"}, "geometry": {"coordinates": [-118.223465302, 35.692262528], "type": "Point"}, "id": "f9XmCqnlplmG4Ke-8Tio8ghFnJg=", "properties": {"@spider": "usps_collection_boxes", "addr:city": "ONYX", "addr:country": "US", "addr:full": "8275 EASY ST", "addr:postcode": "93255", "addr:state": "CA", "amenity": "post_box", "brand": "United States Postal Service", "brand:wikidata": "Q668687", "collection_times": "Mo-Fr 14:30; Sa 09:00", "name": "USPS COLLECTION BOX - BLUE BOX", "note": "ON 12/24 AND 12/31, THIS BOX MAY BE COLLECTED AS EARLY AS 12 NOON.", "nsi_id": "unitedstatespostalservice-a77078", "operator": "United States Postal Service", "operator:short": "USPS", "operator:type": "public", "operator:wikidata": "Q668687", "ref": "9325500000"}, "type": "Feature"}
{"dataset_attributes": {"@spider": "usps_collection_boxes"}, "geometry": {"coordinates": [-118.223465302, 35.692262528], "type": "Point"}, "id": "xmboCRNHe9YDk1MZaxGUdn86S6o=", "properties": {"@spider": "usps_collection_boxes", "addr:city": "ONYX", "addr:country": "US", "addr:full": "8275 EASY ST", "addr:postcode": "93255", "addr:state": "CA", "amenity": "post_box", "brand": "United States Postal Service", "brand:wikidata": "Q668687", "collection_times": "Mo-Fr 14:45; Sa 09:00", "name": "USPS COLLECTION BOX - PO LOBBY", "note": "ON 12/24 AND 12/31, THIS BOX MAY BE COLLECTED AS EARLY AS 12 NOON.", "nsi_id": "unitedstatespostalservice-a77078", "operator": "United States Postal Service", "operator:short": "USPS", "operator:type": "public", "operator:wikidata": "Q668687", "ref": "9325500001"}, "type": "Feature"}
{"dataset_attributes": {"@spider": "usps_collection_boxes"}, "geometry": {"coordinates": [-118.223465302, 35.692262528], "type": "Point"}, "id": "nBob2R27QvQPBZ7qyQY6GVALC5g=", "properties": {"@spider": "usps_collection_boxes", "addr:city": "ONYX", "addr:country": "US", "addr:full": "8275 EASY ST", "addr:postcode": "93255", "addr:state": "CA", "amenity": "post_box", "brand": "United States Postal Service", "brand:wikidata": "Q668687", "collection_times": "Mo-Fr 14:45", "name": "USPS COLLECTION BOX - PO LOBBY", "note": "ON 12/24 AND 12/31, THIS BOX MAY BE COLLECTED AS EARLY AS 12 NOON.", "nsi_id": "unitedstatespostalservice-a77078", "operator": "United States Postal Service", "operator:short": "USPS", "operator:type": "public", "operator:wikidata": "Q668687", "ref": "9325500002"}, "type": "Feature"}
{"dataset_attributes": {"@spider": "usps_collection_boxes"}, "geometry": {"coordinates": [-119.293124, 35.96795], "type": "Point"}, "id": "u-5Kfu15kHgG-HRSHCc2A3tD9vo=", "properties": {"@spider": "usps_collection_boxes", "addr:city": "PIXLEY", "addr:country": "US", "addr:full": "570 S MAIN ST", "addr:postcode": "93256", "addr:state": "CA", "amenity": "post_box", "brand": "United States Postal Service", "brand:wikidata": "Q668687", "collection_times": "Mo-Fr 15:30; Sa 09:00", "name": "USPS COLLECTION BOX - PO LOBBY", "note": "ON 12/24 AND 12/31, THIS BOX MAY BE COLLECTED AS EARLY AS 12 NOON.", "nsi_id": "unitedstatespostalservice-a77078", "operator": "United States Postal Service", "operator:short": "USPS", "operator:type": "public", "operator:wikidata": "Q668687", "ref": "9325600001"}, "type": "Feature"}
{"dataset_attributes": {"@spider": "usps_collection_boxes"}, "geometry": {"coordinates": [-119.2931049514, 35.967956269], "type": "Point"}, "id": "NRCUtrEFqq6Q8MSydN_5CKik5oQ=", "properties": {"@spider": "usps_collection_boxes", "addr:city": "PIXLEY", "addr:country": "US", "addr:full": "570 S MAIN ST", "addr:postcode": "93256", "addr:state": "CA", "amenity": "post_box", "brand": "United States Postal Service", "brand:wikidata": "Q668687", "collection_times": "Mo-Fr 15:30", "name": "USPS COLLECTION BOX - PO LOBBY", "note": "ON 12/24 AND 12/31, THIS BOX MAY BE COLLECTED AS EARLY AS 12 NOON.", "nsi_id": "unitedstatespostalservice-a77078", "operator": "United States Postal Service", "operator:short": "USPS", "operator:type": "public", "operator:wikidata": "Q668687", "ref": "9325600003"}, "type": "Feature"}
{"dataset_attributes": {"@spider": "usps_collection_boxes"}, "geometry": {"coordinates": [-119.017383, 36.066801], "type": "Point"}, "id": "zmWH7pWaS-C3O4ZvXonSWqntLgo=", "properties": {"@spider": "usps_collection_boxes", "addr:city": "PORTERVILLE", "addr:country": "US", "addr:full": "100 N HOCKETT ST", "addr:postcode": "93257", "addr:state": "CA", "amenity": "post_box", "brand": "United States Postal Service", "brand:wikidata": "Q668687", "collection_times": "Mo-Sa 12:00", "name": "USPS COLLECTION BOX - BLUE BOX", "nsi_id": "unitedstatespostalservice-a77078", "operator": "United States Postal Service", "operator:short": "USPS", "operator:type": "public", "operator:wikidata": "Q668687", "ref": "9325700001"}, "type": "Feature"}
{"dataset_attributes": {"@spider": "usps_collection_boxes"}, "geometry": {"coordinates": [-119.017398, 36.066807], "type": "Point"}, "id": "aqWkgy1H9nN73ho7piabvo_GkTc=", "properties": {"@spider": "usps_collection_boxes", "addr:city": "PORTERVILLE", "addr:country": "US", "addr:full": "100 N HOCKETT ST", "addr:postcode": "93257", "addr:state": "CA", "amenity": "post_box", "brand": "United States Postal Service", "brand:wikidata": "Q668687", "collection_times": "Mo-Sa 12:00", "name": "USPS COLLECTION BOX - BLUE BOX", "nsi_id": "unitedstatespostalservice-a77078", "operator": "United States Postal Service", "operator:short": "USPS", "operator:type": "public", "operator:wikidata": "Q668687", "ref": "9325700002"}, "type": "Feature"}
{"dataset_attributes": {"@spider": "usps_collection_boxes"}, "geometry": {"coordinates": [-119.017765345, 36.06876098], "type": "Point"}, "id": "H6ZmUek4Q4D7MMkrzSrs9XapBLU=", "properties": {"@spider": "usps_collection_boxes", "addr:city": "PORTERVILLE", "addr:country": "US", "addr:full": "65 W MILL AVE", "addr:postcode": "93257", "addr:state": "CA", "amenity": "post_box", "brand": "United States Postal Service", "brand:wikidata": "Q668687", "collection_times": "Mo-Fr 16:00; Sa 14:00", "name": "USPS COLLECTION BOX - PO LOBBY", "note": "ON 12/24 AND 12/31, THIS BOX MAY BE COLLECTED AS EARLY AS 12 NOON.", "nsi_id": "unitedstatespostalservice-a77078", "operator": "United States Postal Service", "operator:short": "USPS", "operator:type": "public", "operator:wikidata": "Q668687", "ref": "9325700005"}, "type": "Feature"}
{"dataset_attributes": {"@spider": "usps_collection_boxes"}, "geometry": {"coordinates": [-119.042529, 36.080141], "type": "Point"}, "id": "t1BBfOQFYiQr0FZHht6VYkfZVEQ=", "properties": {"@spider": "usps_collection_boxes", "addr:city": "PORTERVILLE", "addr:country": "US", "addr:full": "1155 W HENDERSON AVE", "addr:postcode": "93257", "addr:state": "CA", "amenity": "post_box", "brand": "United States Postal Service", "brand:wikidata": "Q668687", "collection_times": "Mo-Sa 10:00", "name": "USPS COLLECTION BOX - BLUE BOX", "nsi_id": "unitedstatespostalservice-a77078", "operator": "United States Postal Service", "operator:short": "USPS", "operator:type": "public", "operator:wikidata": "Q668687", "ref": "9325700013"}, "type": "Feature"}
{"dataset_attributes": {"@spider": "usps_collection_boxes"}, "geometry": {"coordinates": [-119.017767, 36.068653], "type": "Point"}, "id": "n3_je91zoQQJ3rQadlYGDWoF9z8=", "properties": {"@spider": "usps_collection_boxes", "addr:city": "PORTERVILLE", "addr:country": "US", "addr:full": "65 W MILL ST", "addr:postcode": "93257", "addr:state": "CA", "amenity": "post_box", "brand": "United States Postal Service", "brand:wikidata": "Q668687", "collection_times": "Mo-Fr 16:00; Sa 14:00", "name": "USPS COLLECTION BOX - APC", "note": "ON 12/24 AND 12/31, THIS BOX MAY BE COLLECTED AS EARLY AS 12 NOON.", "nsi_id": "unitedstatespostalservice-a77078", "operator": "United States Postal Service", "operator:short": "USPS", "operator:type": "public", "operator:wikidata": "Q668687", "ref": "9325700034"}, "type": "Feature"}
{"dataset_attributes": {"@spider": "usps_collection_boxes"}, "geometry": {"coordinates": [-119.017765345, 36.06876098], "type": "Point"}, "id": "jzbYH1zCeNlMyt5J1-6TxMltOZI=", "properties": {"@spider": "usps_collection_boxes", "addr:city": "PORTERVILLE", "addr:country": "US", "addr:full": "65 W MILL AVE", "addr:postcode": "93257", "addr:state": "CA", "amenity": "post_box", "brand": "United States Postal Service", "brand:wikidata": "Q668687", "collection_times": "Mo-Fr 16:00", "name": "USPS COLLECTION BOX - PO LOBBY", "note": "ON 12/24 AND 12/31, THIS BOX MAY BE COLLECTED AS EARLY AS 12 NOON.", "nsi_id": "unitedstatespostalservice-a77078", "operator": "United States Postal Service", "operator:short": "USPS", "operator:type": "public", "operator:wikidata": "Q668687", "ref": "9325700043"}, "type": "Feature"}
{"dataset_attributes": {"@spider": "usps_collection_boxes"}, "geometry": {"coordinates": [-118.6825636585, 35.8059334321], "type": "Point"}, "id": "VmVO3nVX-3GOZbqC313XfJWcM00=", "properties": {"@spider": "usps_collection_boxes", "addr:city": "POSEY", "addr:country": "US", "addr:full": "42575 OLD STAGE RD", "addr:postcode": "93260", "addr:state": "CA", "amenity": "post_box", "brand": "United States Postal Service", "brand:wikidata": "Q668687", "collection_times": "Mo-Sa 11:30", "name": "USPS COLLECTION BOX - BLUE BOX", "nsi_id": "unitedstatespostalservice-a77078", "operator": "United States Postal Service", "operator:short": "USPS", "operator:type": "public", "operator:wikidata": "Q668687", "ref": "9326000000"}, "type": "Feature"}
{"dataset_attributes": {"@spider": "usps_collection_boxes"}, "geometry": {"coordinates": [-118.6825636585, 35.8059334321], "type": "Point"}, "id": "NMIlMshm0hEYTR2tgQ0CO0OUMBo=", "properties": {"@spider": "usps_collection_boxes", "addr:city": "POSEY", "addr:country": "US", "addr:full": "42575 OLD STAGE RD", "addr:postcode": "93260", "addr:state": "CA", "amenity": "post_box", "brand": "United States Postal Service", "brand:wikidata": "Q668687", "collection_times": "Mo-Fr 13:00; Sa 11:30", "name": "USPS COLLECTION BOX - PO LOBBY", "note": "ON 12/24 AND 12/31, THIS BOX MAY BE COLLECTED AS EARLY AS 12 NOON.", "nsi_id": "unitedstatespostalservice-a77078", "operator": "United States Postal Service", "operator:short": "USPS", "operator:type": "public", "operator:wikidata": "Q668687", "ref": "9326000001"}, "type": "Feature"}
{"dataset_attributes": {"@spider": "usps_collection_boxes"}, "geometry": {"coordinates": [-118.6825636585, 35.8059334321], "type": "Point"}, "id": "7ouGEge_jZR6Txj_uQJZP_ICeIc=", "properties": {"@spider": "usps_collection_boxes", "addr:city": "POSEY", "addr:country": "US", "addr:full": "42575 OLD STAGE RD", "addr:postcode": "93260", "addr:state": "CA", "amenity": "post_box", "brand": "United States Postal Service", "brand:wikidata": "Q668687", "collection_times": "Mo-Fr 13:00", "name": "USPS COLLECTION BOX - PO LOBBY", "note": "ON 12/24 AND 12/31, THIS BOX MAY BE COLLECTED AS EARLY AS 12 NOON.", "nsi_id": "unitedstatespostalservice-a77078", "operator": "United States Postal Service", "operator:short": "USPS", "operator:type": "public", "operator:wikidata": "Q668687", "ref": "9326000002"}, "type": "Feature"}
{"dataset_attributes": {"@spider": "usps_collection_boxes"}, "geometry": {"coordinates": [-119.104315, 35.798774], "type": "Point"}, "id": "5CCIEvCOUUYU_I5GE0eSGGzjZE8=", "properties": {"@spider": "usps_collection_boxes", "addr:city": "RICHGROVE", "addr:country": "US", "addr:full": "20920 GROVE DR", "addr:postcode": "93261", "addr:state": "CA", "amenity": "post_box", "brand": "United States Postal Service", "brand:wikidata": "Q668687", "collection_times": "Mo-Fr 16:15; Sa 10:00", "name": "USPS COLLECTION BOX - BLUE BOX", "note": "ON 12/24 AND 12/31, THIS BOX MAY BE COLLECTED AS EARLY AS 12 NOON.", "nsi_id": "unitedstatespostalservice-a77078", "operator": "United States Postal Service", "operator:short": "USPS", "operator:type": "public", "operator:wikidata": "Q668687", "ref": "9326100000"}, "type": "Feature"}
{"dataset_attributes": {"@spider": "usps_collection_boxes"}, "geometry": {"coordinates": [-119.104429, 35.798791], "type": "Point"}, "id": "HHQIgYVs-9KjC6Rk_ubps4Dj2Rs=", "properties": {"@spider": "usps_collection_boxes", "addr:city": "RICHGROVE", "addr:country": "US", "addr:full": "20920 GROVE DR", "addr:postcode": "93261", "addr:state": "CA", "amenity": "post_box", "brand": "United States Postal Service", "brand:wikidata": "Q668687", "collection_times": "Mo-Fr 16:15; Sa 10:00", "name": "USPS COLLECTION BOX - PO LOBBY", "note": "ON 12/24 AND 12/31, THIS BOX MAY BE COLLECTED AS EARLY AS 12 NOON.", "nsi_id": "unitedstatespostalservice-a77078", "operator": "United States Postal Service", "operator:short": "USPS", "operator:type": "public", "operator:wikidata": "Q668687", "ref": "9326100001"}, "type": "Feature"}
{"dataset_attributes": {"@spider": "usps_collection_boxes"}, "geometry": {"coordinates": [-119.103239703, 35.7983485065], "type": "Point"}, "id": "t-38T9DZ4xUP44d34b3v1wDTX_c=", "properties": {"@spider": "usps_collection_boxes", "addr:city": "RICHGROVE", "addr:country": "US", "addr:full": "20920 GROVE DR", "addr:postcode": "93261", "addr:state": "CA", "amenity": "post_box", "brand": "United States Postal Service", "brand:wikidata": "Q668687", "collection_times": "Mo-Fr 16:00", "name": "USPS COLLECTION BOX - PO LOBBY", "note": "ON 12/24 AND 12/31, THIS BOX MAY BE COLLECTED AS EARLY AS 12 NOON.", "nsi_id": "unitedstatespostalservice-a77078", "operator": "United States Postal Service", "operator:short": "USPS", "operator:type": "public", "operator:wikidata": "Q668687", "ref": "9326100002"}, "type": "Feature"}
{"dataset_attributes": {"@spider": "usps_collection_boxes"}, "geometry": {"coordinates": [-118.752159, 36.609485], "type": "Point"}, "id": "idL8q6MdjY-OUxCqXG7CsAy_W9w=", "properties": {"@spider": "usps_collection_boxes", "addr:city": "SEQ NATL PK", "addr:country": "US", "addr:full": "64740 WUKSACHI WAY", "addr:postcode": "93262", "addr:state": "CA", "amenity": "post_box", "brand": "United States Postal Service", "brand:wikidata": "Q668687", "collection_times": "Mo-Fr 11:00", "name": "USPS COLLECTION BOX - BLUE BOX", "nsi_id": "unitedstatespostalservice-a77078", "operator": "United States Postal Service", "operator:short": "USPS", "operator:type": "public", "operator:wikidata": "Q668687", "ref": "9326200003"}, "type": "Feature"}
{"dataset_attributes": {"@spider": "usps_collection_boxes"}, "geometry": {"coordinates": [-119.272994, 35.500928], "type": "Point"}, "id": "FHcHrjQ3XATRuOqA5LVhHPVRBsw=", "properties": {"@spider": "usps_collection_boxes", "addr:city": "SHAFTER", "addr:country": "US", "addr:full": "322 STATE AVE", "addr:postcode": "93263", "addr:state": "CA", "amenity": "post_box", "brand": "United States Postal Service", "brand:wikidata": "Q668687", "collection_times": "Mo-Fr 17:00; Sa 13:30", "name": "USPS COLLECTION BOX - BLUE BOX", "note": "ON 12/24 AND 12/31, THIS BOX MAY BE COLLECTED AS EARLY AS 12 NOON.", "nsi_id": "unitedstatespostalservice-a77078", "operator": "United States Postal Service", "operator:short": "USPS", "operator:type": "public", "operator:wikidata": "Q668687", "ref": "9326300001"}, "type": "Feature"}
{"dataset_attributes": {"@spider": "usps_collection_boxes"}, "geometry": {"coordinates": [-119.272994, 35.500928], "type": "Point"}, "id": "600vYtqaWx1fPZeMUcw0B38a0IA=", "properties": {"@spider": "usps_collection_boxes", "addr:city": "SHAFTER", "addr:country": "US", "addr:full": "322 STATE AVE", "addr:postcode": "93263", "addr:state": "CA", "amenity": "post_box", "brand": "United States Postal Service", "brand:wikidata": "Q668687", "collection_times": "Mo-Fr 17:00; Sa 13:30", "name": "USPS COLLECTION BOX - BLUE BOX", "note": "ON 12/24 AND 12/31, THIS BOX MAY BE COLLECTED AS EARLY AS 12 NOON.", "nsi_id": "unitedstatespostalservice-a77078", "operator": "United States Postal Service", "operator:short": "USPS", "operator:type": "public", "operator:wikidata": "Q668687", "ref": "9326300002"}, "type": "Feature"}
{"dataset_attributes": {"@spider": "usps_collection_boxes"}, "geometry": {"coordinates": [-119.272994, 35.500928], "type": "Point"}, "id": "1sbsZtacj1fVtJko2vB2VAAV4Dw=", "properties": {"@spider": "usps_collection_boxes", "addr:city": "SHAFTER", "addr:country": "US", "addr:full": "322 STATE AVE", "addr:postcode": "93263", "addr:state": "CA", "amenity": "post_box", "brand": "United States Postal Service", "brand:wikidata": "Q668687", "collection_times": "Mo-Fr 17:00; Sa 13:30", "name": "USPS COLLECTION BOX - BLUE BOX", "note": "ON 12/24 AND 12/31, THIS BOX MAY BE COLLECTED AS EARLY AS 12 NOON.", "nsi_id": "unitedstatespostalservice-a77078", "operator": "United States Postal Service", "operator:short": "USPS", "operator:type": "public", "operator:wikidata": "Q668687", "ref": "9326300003"}, "type": "Feature"}
{"dataset_attributes": {"@spider": "usps_collection_boxes"}, "geometry": {"coordinates": [-119.272994, 35.500928], "type": "Point"}, "id": "U0lGD3avt8-TdJmkZkpQSIdpZIs=", "properties": {"@spider": "usps_collection_boxes", "addr:city": "SHAFTER", "addr:country": "US", "addr:full": "322 STATE AVE", "addr:postcode": "93263", "addr:state": "CA", "amenity": "post_box", "brand": "United States Postal Service", "brand:wikidata": "Q668687", "collection_times": "Mo-Fr 17:00; Sa 13:30", "name": "USPS COLLECTION BOX - PO LOBBY", "note": "ON 12/24 AND 12/31, THIS BOX MAY BE COLLECTED AS EARLY AS 12 NOON.", "nsi_id": "unitedstatespostalservice-a77078", "operator": "United States Postal Service", "operator:short": "USPS", "operator:type": "public", "operator:wikidata": "Q668687", "ref": "9326300009"}, "type": "Feature"}
{"dataset_attributes": {"@spider": "usps_collection_boxes"}, "geometry": {"coordinates": [-119.272994, 35.500928], "type": "Point"}, "id": "IS8sqvwcCgMukReFgGxatB8DX-A=", "properties": {"@spider": "usps_collection_boxes", "addr:city": "SHAFTER", "addr:country": "US", "addr:full": "322 STATE AVE", "addr:postcode": "93263", "addr:state": "CA", "amenity": "post_box", "brand": "United States Postal Service", "brand:wikidata": "Q668687", "collection_times": "Mo-Fr 17:00; Sa 13:30", "name": "USPS COLLECTION BOX - PO LOBBY", "note": "ON 12/24 AND 12/31, THIS BOX MAY BE COLLECTED AS EARLY AS 12 NOON.", "nsi_id": "unitedstatespostalservice-a77078", "operator": "United States Postal Service", "operator:short": "USPS", "operator:type": "public", "operator:wikidata": "Q668687", "ref": "9326300011"}, "type": "Feature"}
{"dataset_attributes": {"@spider": "usps_collection_boxes"}, "geometry": {"coordinates": [-119.2729744521, 35.5008915901], "type": "Point"}, "id": "4Udlb-o1-Fl_bJzQhGtLWC9zH-Q=", "properties": {"@spider": "usps_collection_boxes", "addr:city": "SHAFTER", "addr:country": "US", "addr:full": "322 STATE AVE", "addr:postcode": "93263", "addr:state": "CA", "amenity": "post_box", "brand": "United States Postal Service", "brand:wikidata": "Q668687", "collection_times": "Mo-Fr 17:00", "name": "USPS COLLECTION BOX - PO LOBBY", "note": "ON 12/24 AND 12/31, THIS BOX MAY BE COLLECTED AS EARLY AS 12 NOON.", "nsi_id": "unitedstatespostalservice-a77078", "operator": "United States Postal Service", "operator:short": "USPS", "operator:type": "public", "operator:wikidata": "Q668687", "ref": "9326300012"}, "type": "Feature"}
{"dataset_attributes": {"@spider": "usps_collection_boxes"}, "geometry": {"coordinates": [-118.817031775, 36.131245773], "type": "Point"}, "id": "mEjCZZ1W7fx_NLvE63SBVSI54Cg=", "properties": {"@spider": "usps_collection_boxes", "addr:city": "SPRINGVILLE", "addr:country": "US", "addr:full": "35701 HIGHWAY 190", "addr:postcode": "93265", "addr:state": "CA", "amenity": "post_box", "brand": "United States Postal Service", "brand:wikidata": "Q668687", "collection_times": "Mo-Fr 15:00; Sa 12:00", "name": "USPS COLLECTION BOX - BLUE BOX", "note": "ON 12/24 AND 12/31, THIS BOX MAY BE COLLECTED AS EARLY AS 12 NOON.", "nsi_id": "unitedstatespostalservice-a77078", "operator": "United States Postal Service", "operator:short": "USPS", "operator:type": "public", "operator:wikidata": "Q668687", "ref": "9326500000"}, "type": "Feature"}
{"dataset_attributes": {"@spider": "usps_collection_boxes"}, "geometry": {"coordinates": [-118.817031775, 36.131245773], "type": "Point"}, "id": "cfckwEegiJ1UHw3Hh9onBTlve_s=", "properties": {"@spider": "usps_collection_boxes", "addr:city": "SPRINGVILLE", "addr:country": "US", "addr:full": "35701 HIGHWAY 190", "addr:postcode": "93265", "addr:state": "CA", "amenity": "post_box", "brand": "United States Postal Service", "brand:wikidata": "Q668687", "collection_times": "Mo-Fr 15:00; Sa 12:00", "name": "USPS COLLECTION BOX - PO LOBBY", "note": "ON 12/24 AND 12/31, THIS BOX MAY BE COLLECTED AS EARLY AS 12 NOON.", "nsi_id": "unitedstatespostalservice-a77078", "operator": "United States Postal Service", "operator:short": "USPS", "operator:type": "public", "operator:wikidata": "Q668687", "ref": "9326500001"}, "type": "Feature"}
{"dataset_attributes": {"@spider": "usps_collection_boxes"}, "geometry": {"coordinates": [-118.817031775, 36.131245773], "type": "Point"}, "id": "DV56EIAqOXGPhTpoP22z1QzJdKU=", "properties": {"@spider": "usps_collection_boxes", "addr:city": "SPRINGVILLE", "addr:country": "US", "addr:full": "35701 HIGHWAY 190", "addr:postcode": "93265", "addr:state": "CA", "amenity": "post_box", "brand": "United States Postal Service", "brand:wikidata": "Q668687", "collection_times": "Mo-Fr 15:30", "name": "USPS COLLECTION BOX - PO LOBBY", "note": "ON 12/24 AND 12/31, THIS BOX MAY BE COLLECTED AS EARLY AS 12 NOON.", "nsi_id": "unitedstatespostalservice-a77078", "operator": "United States Postal Service", "operator:short": "USPS", "operator:type": "public", "operator:wikidata": "Q668687", "ref": "9326500003"}, "type": "Feature"}
{"dataset_attributes": {"@spider": "usps_collection_boxes"}, "geometry": {"coordinates": [-119.82337, 36.189618], "type": "Point"}, "id": "TOoBi9EZqFcbBVgEfe0RpYW9TCE=", "properties": {"@spider": "usps_collection_boxes", "addr:city": "STRATFORD", "addr:country": "US", "addr:full": "20340 MAIN ST", "addr:postcode": "93266", "addr:state": "CA", "amenity": "post_box", "brand": "United States Postal Service", "brand:wikidata": "Q668687", "collection_times": "Mo-Fr 15:30; Sa 09:00", "name": "USPS COLLECTION BOX - PO LOBBY", "note": "ON 12/24 AND 12/31, THIS BOX MAY BE COLLECTED AS EARLY AS 12 NOON.", "nsi_id": "unitedstatespostalservice-a77078", "operator": "United States Postal Service", "operator:short": "USPS", "operator:type": "public", "operator:wikidata": "Q668687", "ref": "9326600001"}, "type": "Feature"}
{"dataset_attributes": {"@spider": "usps_collection_boxes"}, "geometry": {"coordinates": [-119.061468, 36.147641], "type": "Point"}, "id": "mH4y-CU6cMfpTG8hOHmh9PZFBmY=", "properties": {"@spider": "usps_collection_boxes", "addr:city": "STRATHMORE", "addr:country": "US", "addr:full": "19708 ORANGEBELT DR", "addr:postcode": "93267", "addr:state": "CA", "amenity": "post_box", "brand": "United States Postal Service", "brand:wikidata": "Q668687", "collection_times": "Mo-Fr 16:00; Sa 08:30", "name": "USPS COLLECTION BOX - BLUE BOX", "note": "ON 12/24 AND 12/31, THIS BOX MAY BE COLLECTED AS EARLY AS 12 NOON.", "nsi_id": "unitedstatespostalservice-a77078", "operator": "United States Postal Service", "operator:short": "USPS", "operator:type": "public", "operator:wikidata": "Q668687", "ref": "9326700000"}, "type": "Feature"}
{"dataset_attributes": {"@spider": "usps_collection_boxes"}, "geometry": {"coordinates": [-119.061625, 36.147666], "type": "Point"}, "id": "OtmxiSkmH5o2oiQJIc5ibS314J0=", "properties": {"@spider": "usps_collection_boxes", "addr:city": "STRATHMORE", "addr:country": "US", "addr:full": "19708 ORANGEBELT DR", "addr:postcode": "93267", "addr:state": "CA", "amenity": "post_box", "brand": "United States Postal Service", "brand:wikidata": "Q668687", "collection_times": "Mo-Fr 16:00; Sa 08:30", "name": "USPS COLLECTION BOX - PO LOBBY", "note": "ON 12/24 AND 12/31, THIS BOX MAY BE COLLECTED AS EARLY AS 12 NOON.", "nsi_id": "unitedstatespostalservice-a77078", "operator": "United States Postal Service", "operator:short": "USPS", "operator:type": "public", "operator:wikidata": "Q668687", "ref": "9326700001"}, "type": "Feature"}
{"dataset_attributes": {"@spider": "usps_collection_boxes"}, "geometry": {"coordinates": [-119.0617219398, 36.1473203592], "type": "Point"}, "id": "VsA8tUHrNt8au2ULXy-fIBT1XFQ=", "properties": {"@spider": "usps_collection_boxes", "addr:city": "STRATHMORE", "addr:country": "US", "addr:full": "19708 ORANGE BELT DR", "addr:postcode": "93267", "addr:state": "CA", "amenity": "post_box", "brand": "United States Postal Service", "brand:wikidata": "Q668687", "collection_times": "Mo-Fr 16:00", "name": "USPS COLLECTION BOX - PO LOBBY", "note": "ON 12/24 AND 12/31, THIS BOX MAY BE COLLECTED AS EARLY AS 12 NOON.", "nsi_id": "unitedstatespostalservice-a77078", "operator": "United States Postal Service", "operator:short": "USPS", "operator:type": "public", "operator:wikidata": "Q668687", "ref": "9326700002"}, "type": "Feature"}
{"dataset_attributes": {"@spider": "usps_collection_boxes"}, "geometry": {"coordinates": [-119.4580423858, 35.141592396], "type": "Point"}, "id": "ZFKHzheIoCGg5xVRtZgaY3HbO88=", "properties": {"@spider": "usps_collection_boxes", "addr:city": "TAFT", "addr:country": "US", "addr:full": "427 NORTH ST", "addr:postcode": "93268", "addr:state": "CA", "amenity": "post_box", "brand": "United States Postal Service", "brand:wikidata": "Q668687", "collection_times": "Mo-Fr 17:00; Sa 14:30", "name": "USPS COLLECTION BOX - BLUE BOX", "note": "ON 12/24 AND 12/31, THIS BOX MAY BE COLLECTED AS EARLY AS 12 NOON.", "nsi_id": "unitedstatespostalservice-a77078", "operator": "United States Postal Service", "operator:short": "USPS", "operator:type": "public", "operator:wikidata": "Q668687", "ref": "9326800000"}, "type": "Feature"}
{"dataset_attributes": {"@spider": "usps_collection_boxes"}, "geometry": {"coordinates": [-119.4580423858, 35.141592396], "type": "Point"}, "id": "6lltj8ek9LKDONf7fpnF7MUy7f4=", "properties": {"@spider": "usps_collection_boxes", "addr:city": "TAFT", "addr:country": "US", "addr:full": "427 NORTH ST", "addr:postcode": "93268", "addr:state": "CA", "amenity": "post_box", "brand": "United States Postal Service", "brand:wikidata": "Q668687", "collection_times": "Mo-Fr 17:00; Sa 14:30", "name": "USPS COLLECTION BOX - BLUE BOX", "note": "ON 12/24 AND 12/31, THIS BOX MAY BE COLLECTED AS EARLY AS 12 NOON.", "nsi_id": "unitedstatespostalservice-a77078", "operator": "United States Postal Service", "operator:short": "USPS", "operator:type": "public", "operator:wikidata": "Q668687", "ref": "9326800001"}, "type": "Feature"}
{"dataset_attributes": {"@spider": "usps_collection_boxes"}, "geometry": {"coordinates": [-119.4580423858, 35.141592396], "type": "Point"}, "id": "ZKouE3mxq22H3Vd8VgQn_bk58xc=", "properties": {"@spider": "usps_collection_boxes", "addr:city": "TAFT", "addr:country": "US", "addr:full": "427 NORTH ST", "addr:postcode": "93268", "addr:state": "CA", "amenity": "post_box", "brand": "United States Postal Service", "brand:wikidata": "Q668687", "collection_times": "Mo-Fr 17:00; Sa 14:30", "name": "USPS COLLECTION BOX - PO LOBBY", "note": "ON 12/24 AND 12/31, THIS BOX MAY BE COLLECTED AS EARLY AS 12 NOON.", "nsi_id": "unitedstatespostalservice-a77078", "operator": "United States Postal Service", "operator:short": "USPS", "operator:type": "public", "operator:wikidata": "Q668687", "ref": "9326800002"}, "type": "Feature"}
{"dataset_attributes": {"@spider": "usps_collection_boxes"}, "geometry": {"coordinates": [-119.4580423858, 35.141592396], "type": "Point"}, "id": "todFditRtAcVw8SlPMgc65VaTeA=", "properties": {"@spider": "usps_collection_boxes", "addr:city": "TAFT", "addr:country": "US", "addr:full": "427 NORTH ST", "addr:postcode": "93268", "addr:state": "CA", "amenity": "post_box", "brand": "United States Postal Service", "brand:wikidata": "Q668687", "collection_times": "Mo-Fr 17:00; Sa 14:30", "name": "USPS COLLECTION BOX - PO LOBBY", "note": "ON 12/24 AND 12/31, THIS BOX MAY BE COLLECTED AS EARLY AS 12 NOON.", "nsi_id": "unitedstatespostalservice-a77078", "operator": "United States Postal Service", "operator:short": "USPS", "operator:type": "public", "operator:wikidata": "Q668687", "ref": "9326800003"}, "type": "Feature"}
{"dataset_attributes": {"@spider": "usps_collection_boxes"}, "geometry": {"coordinates": [-119.4580423858, 35.141592396], "type": "Point"}, "id": "RMBcV85YWpXfzf3ndjYjcYEq1WM=", "properties": {"@spider": "usps_collection_boxes", "addr:city": "TAFT", "addr:country": "US", "addr:full": "427 NORTH ST", "addr:postcode": "93268", "addr:state": "CA", "amenity": "post_box", "brand": "United States Postal Service", "brand:wikidata": "Q668687", "collection_times": "Mo-Fr 17:00; Sa 14:30", "name": "USPS COLLECTION BOX - BLUE BOX", "note": "ON 12/24 AND 12/31, THIS BOX MAY BE COLLECTED AS EARLY AS 12 NOON.", "nsi_id": "unitedstatespostalservice-a77078", "operator": "United States Postal Service", "operator:short": "USPS", "operator:type": "public", "operator:wikidata": "Q668687", "ref": "9326800006"}, "type": "Feature"}
{"dataset_attributes": {"@spider": "usps_collection_boxes"}, "geometry": {"coordinates": [-119.4580423858, 35.141592396], "type": "Point"}, "id": "ncvbFbFH4YP2FygerH215MqtpN0=", "properties": {"@spider": "usps_collection_boxes", "addr:city": "TAFT", "addr:country": "US", "addr:full": "427 NORTH ST", "addr:postcode": "93268", "addr:state": "CA", "amenity": "post_box", "brand": "United States Postal Service", "brand:wikidata": "Q668687", "collection_times": "Mo-Fr 17:00; Sa 14:30", "name": "USPS COLLECTION BOX - BLUE BOX", "note": "ON 12/24 AND 12/31, THIS BOX MAY BE COLLECTED AS EARLY AS 12 NOON.", "nsi_id": "unitedstatespostalservice-a77078", "operator": "United States Postal Service", "operator:short": "USPS", "operator:type": "public", "operator:wikidata": "Q668687", "ref": "9326800007"}, "type": "Feature"}
{"dataset_attributes": {"@spider": "usps_collection_boxes"}, "geometry": {"coordinates": [-119.4580423858, 35.141592396], "type": "Point"}, "id": "sARfyvpDLHn_HTSP9LM-dimnYCw=", "properties": {"@spider": "usps_collection_boxes", "addr:city": "TAFT", "addr:country": "US", "addr:full": "427 NORTH ST", "addr:postcode": "93268", "addr:state": "CA", "amenity": "post_box", "brand": "United States Postal Service", "brand:wikidata": "Q668687", "collection_times": "Mo-Fr 17:00; Sa 14:30", "name": "USPS COLLECTION BOX - PO LOBBY", "note": "ON 12/24 AND 12/31, THIS BOX MAY BE COLLECTED AS EARLY AS 12 NOON.", "nsi_id": "unitedstatespostalservice-a77078", "operator": "United States Postal Service", "operator:short": "USPS", "operator:type": "public", "operator:wikidata": "Q668687", "ref": "9326800019"}, "type": "Feature"}
{"dataset_attributes": {"@spider": "usps_collection_boxes"}, "geometry": {"coordinates": [-119.4580423858, 35.141592396], "type": "Point"}, "id": "5ZKEZ9fbrTttefqPreB91Gr2bEI=", "properties": {"@spider": "usps_collection_boxes", "addr:city": "TAFT", "addr:country": "US", "addr:full": "427 NORTH ST", "addr:postcode": "93268", "addr:state": "CA", "amenity": "post_box", "brand": "United States Postal Service", "brand:wikidata": "Q668687", "collection_times": "Mo-Fr 17:00; Sa 14:30", "name": "USPS COLLECTION BOX - PO LOBBY", "note": "ON 12/24 AND 12/31, THIS BOX MAY BE COLLECTED AS EARLY AS 12 NOON.", "nsi_id": "unitedstatespostalservice-a77078", "operator": "United States Postal Service", "operator:short": "USPS", "operator:type": "public", "operator:wikidata": "Q668687", "ref": "9326800020"}, "type": "Feature"}
{"dataset_attributes": {"@spider": "usps_collection_boxes"}, "geometry": {"coordinates": [-119.4580423858, 35.141592396], "type": "Point"}, "id": "n-SWGm9cUPOgCzWPfZJ6s8lstFg=", "properties": {"@spider": "usps_collection_boxes", "addr:city": "TAFT", "addr:country": "US", "addr:full": "427 NORTH ST", "addr:postcode": "93268", "addr:state": "CA", "amenity": "post_box", "brand": "United States Postal Service", "brand:wikidata": "Q668687", "collection_times": "Mo-Fr 16:30", "name": "USPS COLLECTION BOX - PO LOBBY", "note": "ON 12/24 AND 12/31, THIS BOX MAY BE COLLECTED AS EARLY AS 12 NOON.", "nsi_id": "unitedstatespostalservice-a77078", "operator": "United States Postal Service", "operator:short": "USPS", "operator:type": "public", "operator:wikidata": "Q668687", "ref": "9326800021"}, "type": "Feature"}
{"dataset_attributes": {"@spider": "usps_collection_boxes"}, "geometry": {"coordinates": [-119.0444506318, 35.9642544994], "type": "Point"}, "id": "C3kCknCW7gKpQTnH-mtGtmAIw-0=", "properties": {"@spider": "usps_collection_boxes", "addr:city": "TERRA BELLA", "addr:country": "US", "addr:full": "9622 ROAD 236", "addr:postcode": "93270", "addr:state": "CA", "amenity": "post_box", "brand": "United States Postal Service", "brand:wikidata": "Q668687", "collection_times": "Mo-Fr 15:45; Sa 09:00", "name": "USPS COLLECTION BOX - BLUE BOX", "note": "ON 12/24 AND 12/31, THIS BOX MAY BE COLLECTED AS EARLY AS 12 NOON.", "nsi_id": "unitedstatespostalservice-a77078", "operator": "United States Postal Service", "operator:short": "USPS", "operator:type": "public", "operator:wikidata": "Q668687", "ref": "9327000001"}, "type": "Feature"}
{"dataset_attributes": {"@spider": "usps_collection_boxes"}, "geometry": {"coordinates": [-119.0444506318, 35.9642544994], "type": "Point"}, "id": "FuxVvsO6KVBCLyNpnUHG7Fgjg1g=", "properties": {"@spider": "usps_collection_boxes", "addr:city": "TERRA BELLA", "addr:country": "US", "addr:full": "9622 ROAD 236", "addr:postcode": "93270", "addr:state": "CA", "amenity": "post_box", "brand": "United States Postal Service", "brand:wikidata": "Q668687", "collection_times": "Mo-Fr 15:45; Sa 09:00", "name": "USPS COLLECTION BOX - PO LOBBY", "note": "ON 12/24 AND 12/31, THIS BOX MAY BE COLLECTED AS EARLY AS 12 NOON.", "nsi_id": "unitedstatespostalservice-a77078", "operator": "United States Postal Service", "operator:short": "USPS", "operator:type": "public", "operator:wikidata": "Q668687", "ref": "9327000002"}, "type": "Feature"}
{"dataset_attributes": {"@spider": "usps_collection_boxes"}, "geometry": {"coordinates": [-119.0444506318, 35.9642544994], "type": "Point"}, "id": "dq1pQslPR0mqJHcdDRbVTMpd-nY=", "properties": {"@spider": "usps_collection_boxes", "addr:city": "TERRA BELLA", "addr:country": "US", "addr:full": "9622 ROAD 236", "addr:postcode": "93270", "addr:state": "CA", "amenity": "post_box", "brand": "United States Postal Service", "brand:wikidata": "Q668687", "collection_times": "Mo-Fr 16:00", "name": "USPS COLLECTION BOX - PO LOBBY", "note": "ON 12/24 AND 12/31, THIS BOX MAY BE COLLECTED AS EARLY AS 12 NOON.", "nsi_id": "unitedstatespostalservice-a77078", "operator": "United States Postal Service", "operator:short": "USPS", "operator:type": "public", "operator:wikidata": "Q668687", "ref": "9327000003"}, "type": "Feature"}
{"dataset_attributes": {"@spider": "usps_collection_boxes"}, "geometry": {"coordinates": [-118.914465701, 36.427307226], "type": "Point"}, "id": "GGjL6pJevIS1XZKyDlQIUp_ZvSg=", "properties": {"@spider": "usps_collection_boxes", "addr:city": "THREE RIVERS", "addr:country": "US", "addr:full": "40857 SIERRA DR", "addr:postcode": "93271", "addr:state": "CA", "amenity": "post_box", "brand": "United States Postal Service", "brand:wikidata": "Q668687", "collection_times": "Mo-Fr 14:45; Sa 12:30", "name": "USPS COLLECTION BOX - BLUE BOX", "note": "ON 12/24 AND 12/31, THIS BOX MAY BE COLLECTED AS EARLY AS 12 NOON.", "nsi_id": "unitedstatespostalservice-a77078", "operator": "United States Postal Service", "operator:short": "USPS", "operator:type": "public", "operator:wikidata": "Q668687", "ref": "9327100001"}, "type": "Feature"}
{"dataset_attributes": {"@spider": "usps_collection_boxes"}, "geometry": {"coordinates": [-118.914465701, 36.427307226], "type": "Point"}, "id": "WDZ81BGzV34D1WFjPzUbt0mSNm8=", "properties": {"@spider": "usps_collection_boxes", "addr:city": "THREE RIVERS", "addr:country": "US", "addr:full": "40857 SIERRA DR", "addr:postcode": "93271", "addr:state": "CA", "amenity": "post_box", "brand": "United States Postal Service", "brand:wikidata": "Q668687", "collection_times": "Mo-Fr 14:45; Sa 12:30", "name": "USPS COLLECTION BOX - PO LOBBY", "note": "ON 12/24 AND 12/31, THIS BOX MAY BE COLLECTED AS EARLY AS 12 NOON.", "nsi_id": "unitedstatespostalservice-a77078", "operator": "United States Postal Service", "operator:short": "USPS", "operator:type": "public", "operator:wikidata": "Q668687", "ref": "9327100002"}, "type": "Feature"}
{"dataset_attributes": {"@spider": "usps_collection_boxes"}, "geometry": {"coordinates": [-118.914465701, 36.427307226], "type": "Point"}, "id": "mnLP8Kv8Hj6oqcq2jfC_oAWmMmc=", "properties": {"@spider": "usps_collection_boxes", "addr:city": "THREE RIVERS", "addr:country": "US", "addr:full": "40857 SIERRA DR", "addr:postcode": "93271", "addr:state": "CA", "amenity": "post_box", "brand": "United States Postal Service", "brand:wikidata": "Q668687", "collection_times": "Mo-Fr 14:45; Sa 12:30", "name": "USPS COLLECTION BOX - BLUE BOX", "note": "ON 12/24 AND 12/31, THIS BOX MAY BE COLLECTED AS EARLY AS 12 NOON.", "nsi_id": "unitedstatespostalservice-a77078", "operator": "United States Postal Service", "operator:short": "USPS", "operator:type": "public", "operator:wikidata": "Q668687", "ref": "9327100004"}, "type": "Feature"}
{"dataset_attributes": {"@spider": "usps_collection_boxes"}, "geometry": {"coordinates": [-118.914465701, 36.427307226], "type": "Point"}, "id": "jq5wQUWjfqRUkBJeIxVivTGTkrw=", "properties": {"@spider": "usps_collection_boxes", "addr:city": "THREE RIVERS", "addr:country": "US", "addr:full": "40857 SIERRA DR", "addr:postcode": "93271", "addr:state": "CA", "amenity": "post_box", "brand": "United States Postal Service", "brand:wikidata": "Q668687", "collection_times": "Mo-Fr 15:00", "name": "USPS COLLECTION BOX - PO LOBBY", "note": "ON 12/24 AND 12/31, THIS BOX MAY BE COLLECTED AS EARLY AS 12 NOON.", "nsi_id": "unitedstatespostalservice-a77078", "operator": "United States Postal Service", "operator:short": "USPS", "operator:type": "public", "operator:wikidata": "Q668687", "ref": "9327100005"}, "type": "Feature"}
{"dataset_attributes": {"@spider": "usps_collection_boxes"}, "geometry": {"coordinates": [-119.3331688714, 36.0474490337], "type": "Point"}, "id": "8nBchN949a3N7mDek0hcn87Gyfc=", "properties": {"@spider": "usps_collection_boxes", "addr:city": "TIPTON", "addr:country": "US", "addr:full": "221 N GRAMHAM RD", "addr:postcode": "93272", "addr:state": "CA", "amenity": "post_box", "brand": "United States Postal Service", "brand:wikidata": "Q668687", "collection_times": "Mo-Fr 15:30; Sa 09:00", "name": "USPS COLLECTION BOX - PO LOBBY", "note": "ON 12/24 AND 12/31, THIS BOX MAY BE COLLECTED AS EARLY AS 12 NOON.", "nsi_id": "unitedstatespostalservice-a77078", "operator": "United States Postal Service", "operator:short": "USPS", "operator:type": "public", "operator:wikidata": "Q668687", "ref": "9327200001"}, "type": "Feature"}
{"dataset_attributes": {"@spider": "usps_collection_boxes"}, "geometry": {"coordinates": [-119.3129015285, 36.0609441941], "type": "Point"}, "id": "-Jhl0hCE-2AQ7aCjvhQLWenrvb8=", "properties": {"@spider": "usps_collection_boxes", "addr:city": "TIPTON", "addr:country": "US", "addr:full": "221 N GRAHAM RD", "addr:postcode": "93272", "addr:state": "CA", "amenity": "post_box", "brand": "United States Postal Service", "brand:wikidata": "Q668687", "collection_times": "Mo-Fr 15:30", "name": "USPS COLLECTION BOX - PO LOBBY", "note": "ON 12/24 AND 12/31, THIS BOX MAY BE COLLECTED AS EARLY AS 12 NOON.", "nsi_id": "unitedstatespostalservice-a77078", "operator": "United States Postal Service", "operator:short": "USPS", "operator:type": "public", "operator:wikidata": "Q668687", "ref": "9327200002"}, "type": "Feature"}
{"dataset_attributes": {"@spider": "usps_collection_boxes"}, "geometry": {"coordinates": [-119.3428867488, 36.2071446577], "type": "Point"}, "id": "NlUbrdHCbydKZ2TfC9UgdZu41FE=", "properties": {"@spider": "usps_collection_boxes", "addr:city": "TULARE", "addr:country": "US", "addr:full": "411 E KERN AVE", "addr:postcode": "93274", "addr:state": "CA", "amenity": "post_box", "brand": "United States Postal Service", "brand:wikidata": "Q668687", "collection_times": "Mo-Sa 10:00", "name": "USPS COLLECTION BOX - BLUE BOX", "nsi_id": "unitedstatespostalservice-a77078", "operator": "United States Postal Service", "operator:short": "USPS", "operator:type": "public", "operator:wikidata": "Q668687", "ref": "9327400025"}, "type": "Feature"}
{"dataset_attributes": {"@spider": "usps_collection_boxes"}, "geometry": {"coordinates": [-119.343943184, 36.208407289], "type": "Point"}, "id": "7Uh48PiQ0rsj6oyLmrl7d0l-Jqs=", "properties": {"@spider": "usps_collection_boxes", "addr:city": "TULARE", "addr:country": "US", "addr:full": "340 E TULARE AVE", "addr:postcode": "93274", "addr:state": "CA", "amenity": "post_box", "brand": "United States Postal Service", "brand:wikidata": "Q668687", "collection_times": "Mo-Fr 16:00", "name": "USPS COLLECTION BOX - PO LOBBY", "note": "ON 12/24 AND 12/31, THIS BOX MAY BE COLLECTED AS EARLY AS 12 NOON.", "nsi_id": "unitedstatespostalservice-a77078", "operator": "United States Postal Service", "operator:short": "USPS", "operator:type": "public", "operator:wikidata": "Q668687", "ref": "9327400051"}, "type": "Feature"}
{"dataset_attributes": {"@spider": "usps_collection_boxes"}, "geometry": {"coordinates": [-119.3439431837, 36.2084072889], "type": "Point"}, "id": "aOFJZNLroQL-6DCrmL48DgGcbws=", "properties": {"@spider": "usps_collection_boxes", "addr:city": "TULARE", "addr:country": "US", "addr:full": "340 E TULARE AVE", "addr:postcode": "93275", "addr:state": "CA", "amenity": "post_box", "brand": "United States Postal Service", "brand:wikidata": "Q668687", "collection_times": "Mo-Fr 16:00; Sa 12:00", "name": "USPS COLLECTION BOX - PO LOBBY", "note": "ON 12/24 AND 12/31, THIS BOX MAY BE COLLECTED AS EARLY AS 12 NOON.", "nsi_id": "unitedstatespostalservice-a77078", "operator": "United States Postal Service", "operator:short": "USPS", "operator:type": "public", "operator:wikidata": "Q668687", "ref": "9327500007"}, "type": "Feature"}
{"dataset_attributes": {"@spider": "usps_collection_boxes"}, "geometry": {"coordinates": [-119.343943184, 36.208407289], "type": "Point"}, "id": "DqoRMrP-jQ8h6Y58pwBSN0bz5Ao=", "properties": {"@spider": "usps_collection_boxes", "addr:city": "TULARE", "addr:country": "US", "addr:full": "340 E TULARE AVE", "addr:postcode": "93275", "addr:state": "CA", "amenity": "post_box", "brand": "United States Postal Service", "brand:wikidata": "Q668687", "collection_times": "Mo-Fr 16:00; Sa 14:00", "name": "USPS COLLECTION BOX - BLUE BOX", "note": "ON 12/24 AND 12/31, THIS BOX MAY BE COLLECTED AS EARLY AS 12 NOON.", "nsi_id": "unitedstatespostalservice-a77078", "operator": "United States Postal Service", "operator:short": "USPS", "operator:type": "public", "operator:wikidata": "Q668687", "ref": "9327500010"}, "type": "Feature"}
{"dataset_attributes": {"@spider": "usps_collection_boxes"}, "geometry": {"coordinates": [-119.31631, 36.309303], "type": "Point"}, "id": "8m-Tjm1OvTRz-x8nCPOsj_uEIek=", "properties": {"@spider": "usps_collection_boxes", "addr:city": "VISALIA", "addr:country": "US", "addr:full": "2345 W BEECH AVE", "addr:postcode": "93277", "addr:state": "CA", "amenity": "post_box", "brand": "United States Postal Service", "brand:wikidata": "Q668687", "collection_times": "Mo-Sa 16:00", "name": "USPS COLLECTION BOX - PO LOBBY", "note": "ON 12/24 AND 12/31, THIS BOX MAY BE COLLECTED AS EARLY AS 12 NOON.", "nsi_id": "unitedstatespostalservice-a77078", "operator": "United States Postal Service", "operator:short": "USPS", "operator:type": "public", "operator:wikidata": "Q668687", "ref": "9327700000"}, "type": "Feature"}
{"dataset_attributes": {"@spider": "usps_collection_boxes"}, "geometry": {"coordinates": [-119.316311832, 36.30930647], "type": "Point"}, "id": "gfEtJ2mO5FyEZ73mzH4YU6sy3-Q=", "properties": {"@spider": "usps_collection_boxes", "addr:city": "VISALIA", "addr:country": "US", "addr:full": "2345 W BEECH AVE", "addr:postcode": "93277", "addr:state": "CA", "amenity": "post_box", "brand": "United States Postal Service", "brand:wikidata": "Q668687", "collection_times": "Mo-Sa 16:00", "name": "USPS COLLECTION BOX - BLUE BOX", "note": "ON 12/24 AND 12/31, THIS BOX MAY BE COLLECTED AS EARLY AS 12 NOON.", "nsi_id": "unitedstatespostalservice-a77078", "operator": "United States Postal Service", "operator:short": "USPS", "operator:type": "public", "operator:wikidata": "Q668687", "ref": "9327700044"}, "type": "Feature"}
{"dataset_attributes": {"@spider": "usps_collection_boxes"}, "geometry": {"coordinates": [-119.3350877053, 35.592453723], "type": "Point"}, "id": "lVsTlR7Ko33JyjStorheNEJQkW4=", "properties": {"@spider": "usps_collection_boxes", "addr:city": "WASCO", "addr:country": "US", "addr:full": "800 E ST", "addr:postcode": "93280", "addr:state": "CA", "amenity": "post_box", "brand": "United States Postal Service", "brand:wikidata": "Q668687", "collection_times": "Mo-Fr 16:30; Sa 15:15", "name": "USPS COLLECTION BOX - BLUE BOX", "note": "ON 12/24 AND 12/31, THIS BOX MAY BE COLLECTED AS EARLY AS 12 NOON.", "nsi_id": "unitedstatespostalservice-a77078", "operator": "United States Postal Service", "operator:short": "USPS", "operator:type": "public", "operator:wikidata": "Q668687", "ref": "9328000009"}, "type": "Feature"}
{"dataset_attributes": {"@spider": "usps_collection_boxes"}, "geometry": {"coordinates": [-119.3350877053, 35.592453723], "type": "Point"}, "id": "iMWq1O8Rx_2dzi4jF2ZAYd7BrPk=", "properties": {"@spider": "usps_collection_boxes", "addr:city": "WASCO", "addr:country": "US", "addr:full": "800 E ST", "addr:postcode": "93280", "addr:state": "CA", "amenity": "post_box", "brand": "United States Postal Service", "brand:wikidata": "Q668687", "collection_times": "Mo-Fr 16:30; Sa 15:15", "name": "USPS COLLECTION BOX - BLUE BOX", "note": "ON 12/24 AND 12/31, THIS BOX MAY BE COLLECTED AS EARLY AS 12 NOON.", "nsi_id": "unitedstatespostalservice-a77078", "operator": "United States Postal Service", "operator:short": "USPS", "operator:type": "public", "operator:wikidata": "Q668687", "ref": "9328000010"}, "type": "Feature"}
{"dataset_attributes": {"@spider": "usps_collection_boxes"}, "geometry": {"coordinates": [-119.3350877053, 35.592453723], "type": "Point"}, "id": "nLCpz9dsDG0ofA0cx2pYBwkJRMo=", "properties": {"@spider": "usps_collection_boxes", "addr:city": "WASCO", "addr:country": "US", "addr:full": "800 E ST", "addr:postcode": "93280", "addr:state": "CA", "amenity": "post_box", "brand": "United States Postal Service", "brand:wikidata": "Q668687", "collection_times": "Mo-Fr 16:30; Sa 15:15", "name": "USPS COLLECTION BOX - PO LOBBY", "note": "ON 12/24 AND 12/31, THIS BOX MAY BE COLLECTED AS EARLY AS 12 NOON.", "nsi_id": "unitedstatespostalservice-a77078", "operator": "United States Postal Service", "operator:short": "USPS", "operator:type": "public", "operator:wikidata": "Q668687", "ref": "9328000011"}, "type": "Feature"}
{"dataset_attributes": {"@spider": "usps_collection_boxes"}, "geometry": {"coordinates": [-119.3350877053, 35.592453723], "type": "Point"}, "id": "u6esO9IA288-MAgcI8TBK-k4e4o=", "properties": {"@spider": "usps_collection_boxes", "addr:city": "WASCO", "addr:country": "US", "addr:full": "800 E ST", "addr:postcode": "93280", "addr:state": "CA", "amenity": "post_box", "brand": "United States Postal Service", "brand:wikidata": "Q668687", "collection_times": "Mo-Fr 16:30; Sa 15:15", "name": "USPS COLLECTION BOX - BLUE BOX", "note": "ON 12/24 AND 12/31, THIS BOX MAY BE COLLECTED AS EARLY AS 12 NOON.", "nsi_id": "unitedstatespostalservice-a77078", "operator": "United States Postal Service", "operator:short": "USPS", "operator:type": "public", "operator:wikidata": "Q668687", "ref": "9328000012"}, "type": "Feature"}
{"dataset_attributes": {"@spider": "usps_collection_boxes"}, "geometry": {"coordinates": [-119.3350877053, 35.592453723], "type": "Point"}, "id": "gsnVb4G_YNiPhBqThslin4zDqH4=", "properties": {"@spider": "usps_collection_boxes", "addr:city": "WASCO", "addr:country": "US", "addr:full": "800 E ST", "addr:postcode": "93280", "addr:state": "CA", "amenity": "post_box", "brand": "United States Postal Service", "brand:wikidata": "Q668687", "collection_times": "Mo-Fr 16:30; Sa 15:15", "name": "USPS COLLECTION BOX - PO LOBBY", "note": "ON 12/24 AND 12/31, THIS BOX MAY BE COLLECTED AS EARLY AS 12 NOON.", "nsi_id": "unitedstatespostalservice-a77078", "operator": "United States Postal Service", "operator:short": "USPS", "operator:type": "public", "operator:wikidata": "Q668687", "ref": "9328000013"}, "type": "Feature"}
{"dataset_attributes": {"@spider": "usps_collection_boxes"}, "geometry": {"coordinates": [-119.3350877053, 35.592453723], "type": "Point"}, "id": "HRqVxotERm-fzpaf_VPmWpEuFd0=", "properties": {"@spider": "usps_collection_boxes", "addr:city": "WASCO", "addr:country": "US", "addr:full": "800 E ST", "addr:postcode": "93280", "addr:state": "CA", "amenity": "post_box", "brand": "United States Postal Service", "brand:wikidata": "Q668687", "collection_times": "Mo-Fr 16:30; Sa 15:15", "name": "USPS COLLECTION BOX - PO LOBBY", "note": "ON 12/24 AND 12/31, THIS BOX MAY BE COLLECTED AS EARLY AS 12 NOON.", "nsi_id": "unitedstatespostalservice-a77078", "operator": "United States Postal Service", "operator:short": "USPS", "operator:type": "public", "operator:wikidata": "Q668687", "ref": "9328000014"}, "type": "Feature"}
{"dataset_attributes": {"@spider": "usps_collection_boxes"}, "geometry": {"coordinates": [-119.3350877053, 35.592453723], "type": "Point"}, "id": "9UmcqXSirRubJrhQ1G_7kyUUhwk=", "properties": {"@spider": "usps_collection_boxes", "addr:city": "WASCO", "addr:country": "US", "addr:full": "800 E ST", "addr:postcode": "93280", "addr:state": "CA", "amenity": "post_box", "brand": "United States Postal Service", "brand:wikidata": "Q668687", "collection_times": "Mo-Fr 16:30; Sa 15:15", "name": "USPS COLLECTION BOX - PO LOBBY", "note": "ON 12/24 AND 12/31, THIS BOX MAY BE COLLECTED AS EARLY AS 12 NOON.", "nsi_id": "unitedstatespostalservice-a77078", "operator": "United States Postal Service", "operator:short": "USPS", "operator:type": "public", "operator:wikidata": "Q668687", "ref": "9328000015"}, "type": "Feature"}
{"dataset_attributes": {"@spider": "usps_collection_boxes"}, "geometry": {"coordinates": [-119.3350877053, 35.592453723], "type": "Point"}, "id": "5VhCvAbl-yJXsTbrS7q2s-DUZ7w=", "properties": {"@spider": "usps_collection_boxes", "addr:city": "WASCO", "addr:country": "US", "addr:full": "800 E ST", "addr:postcode": "93280", "addr:state": "CA", "amenity": "post_box", "brand": "United States Postal Service", "brand:wikidata": "Q668687", "collection_times": "Mo-Fr 16:30", "name": "USPS COLLECTION BOX - PO LOBBY", "note": "ON 12/24 AND 12/31, THIS BOX MAY BE COLLECTED AS EARLY AS 12 NOON.", "nsi_id": "unitedstatespostalservice-a77078", "operator": "United States Postal Service", "operator:short": "USPS", "operator:type": "public", "operator:wikidata": "Q668687", "ref": "9328000016"}, "type": "Feature"}
{"dataset_attributes": {"@spider": "usps_collection_boxes"}, "geometry": {"coordinates": [-118.325912698, 35.655569341], "type": "Point"}, "id": "_KdKwsHVnLYovzcZ2oi_QYsdapQ=", "properties": {"@spider": "usps_collection_boxes", "addr:city": "WELDON", "addr:country": "US", "addr:full": "5765 VISTA GRANDE DR", "addr:postcode": "93283", "addr:state": "CA", "amenity": "post_box", "brand": "United States Postal Service", "brand:wikidata": "Q668687", "collection_times": "Mo-Fr 14:30; Sa 08:00", "name": "USPS COLLECTION BOX - BLUE BOX", "note": "ON 12/24 AND 12/31, THIS BOX MAY BE COLLECTED AS EARLY AS 12 NOON.", "nsi_id": "unitedstatespostalservice-a77078", "operator": "United States Postal Service", "operator:short": "USPS", "operator:type": "public", "operator:wikidata": "Q668687", "ref": "9328300000"}, "type": "Feature"}
{"dataset_attributes": {"@spider": "usps_collection_boxes"}, "geometry": {"coordinates": [-118.325912698, 35.655569341], "type": "Point"}, "id": "OvAhuyIJ0eKJWpe-6WPjAL7fmIE=", "properties": {"@spider": "usps_collection_boxes", "addr:city": "WELDON", "addr:country": "US", "addr:full": "5765 VISTA GRANDE DR", "addr:postcode": "93283", "addr:state": "CA", "amenity": "post_box", "brand": "United States Postal Service", "brand:wikidata": "Q668687", "collection_times": "Mo-Fr 14:45; Sa 08:15", "name": "USPS COLLECTION BOX - PO LOBBY", "note": "ON 12/24 AND 12/31, THIS BOX MAY BE COLLECTED AS EARLY AS 12 NOON.", "nsi_id": "unitedstatespostalservice-a77078", "operator": "United States Postal Service", "operator:short": "USPS", "operator:type": "public", "operator:wikidata": "Q668687", "ref": "9328300001"}, "type": "Feature"}
{"dataset_attributes": {"@spider": "usps_collection_boxes"}, "geometry": {"coordinates": [-118.325912698, 35.655569341], "type": "Point"}, "id": "sFjKBW0lANq6FuUoSegHTJ102Wk=", "properties": {"@spider": "usps_collection_boxes", "addr:city": "WELDON", "addr:country": "US", "addr:full": "5765 VISTA GRANDE DR", "addr:postcode": "93283", "addr:state": "CA", "amenity": "post_box", "brand": "United States Postal Service", "brand:wikidata": "Q668687", "collection_times": "Mo-Fr 14:45", "name": "USPS COLLECTION BOX - PO LOBBY", "note": "ON 12/24 AND 12/31, THIS BOX MAY BE COLLECTED AS EARLY AS 12 NOON.", "nsi_id": "unitedstatespostalservice-a77078", "operator": "United States Postal Service", "operator:short": "USPS", "operator:type": "public", "operator:wikidata": "Q668687", "ref": "9328300002"}, "type": "Feature"}
{"dataset_attributes": {"@spider": "usps_collection_boxes"}, "geometry": {"coordinates": [-118.4580231955, 35.7040397058], "type": "Point"}, "id": "YJPrb74lfRaR4wINSUriYtwD7cI=", "properties": {"@spider": "usps_collection_boxes", "addr:city": "WOFFORD HTS", "addr:country": "US", "addr:full": "6336 WOFFORD BLVD", "addr:postcode": "93285", "addr:state": "CA", "amenity": "post_box", "brand": "United States Postal Service", "brand:wikidata": "Q668687", "collection_times": "Mo-Fr 15:15; Sa 10:30", "name": "USPS COLLECTION BOX - BLUE BOX", "note": "ON 12/24 AND 12/31, THIS BOX MAY BE COLLECTED AS EARLY AS 12 NOON.", "nsi_id": "unitedstatespostalservice-a77078", "operator": "United States Postal Service", "operator:short": "USPS", "operator:type": "public", "operator:wikidata": "Q668687", "ref": "9328500000"}, "type": "Feature"}
{"dataset_attributes": {"@spider": "usps_collection_boxes"}, "geometry": {"coordinates": [-118.458184, 35.703634], "type": "Point"}, "id": "4kqfmcTuA9PQdKB1qEHv3RkXKSo=", "properties": {"@spider": "usps_collection_boxes", "addr:city": "WOFFORD HTS", "addr:country": "US", "addr:full": "6336 WOFFORD HEIGHTS BLVD", "addr:postcode": "93285", "addr:state": "CA", "amenity": "post_box", "brand": "United States Postal Service", "brand:wikidata": "Q668687", "collection_times": "Mo-Fr 15:30; Sa 10:30", "name": "USPS COLLECTION BOX - PO LOBBY", "note": "ON 12/24 AND 12/31, THIS BOX MAY BE COLLECTED AS EARLY AS 12 NOON.", "nsi_id": "unitedstatespostalservice-a77078", "operator": "United States Postal Service", "operator:short": "USPS", "operator:type": "public", "operator:wikidata": "Q668687", "ref": "9328500001"}, "type": "Feature"}
{"dataset_attributes": {"@spider": "usps_collection_boxes"}, "geometry": {"coordinates": [-118.458184, 35.703634], "type": "Point"}, "id": "i0748srOA-24MPxTO4aCLSReWdo=", "properties": {"@spider": "usps_collection_boxes", "addr:city": "WOFFORD HTS", "addr:country": "US", "addr:full": "6336 WOFFORD HEIGHTS BLVD", "addr:postcode": "93285", "addr:state": "CA", "amenity": "post_box", "brand": "United States Postal Service", "brand:wikidata": "Q668687", "collection_times": "Mo-Fr 15:30; Sa 10:30", "name": "USPS COLLECTION BOX - PO LOBBY", "note": "ON 12/24 AND 12/31, THIS BOX MAY BE COLLECTED AS EARLY AS 12 NOON.", "nsi_id": "unitedstatespostalservice-a77078", "operator": "United States Postal Service", "operator:short": "USPS", "operator:type": "public", "operator:wikidata": "Q668687", "ref": "9328500002"}, "type": "Feature"}
{"dataset_attributes": {"@spider": "usps_collection_boxes"}, "geometry": {"coordinates": [-118.4580231955, 35.7040397058], "type": "Point"}, "id": "ox2GHHbeJI4BsUYqZg59ZJZd4DI=", "properties": {"@spider": "usps_collection_boxes", "addr:city": "WOFFORD HTS", "addr:country": "US", "addr:full": "6336 WOFFORD BLVD", "addr:postcode": "93285", "addr:state": "CA", "amenity": "post_box", "brand": "United States Postal Service", "brand:wikidata": "Q668687", "collection_times": "Mo-Fr 15:00", "name": "USPS COLLECTION BOX - PO LOBBY", "note": "ON 12/24 AND 12/31, THIS BOX MAY BE COLLECTED AS EARLY AS 12 NOON.", "nsi_id": "unitedstatespostalservice-a77078", "operator": "United States Postal Service", "operator:short": "USPS", "operator:type": "public", "operator:wikidata": "Q668687", "ref": "9328500003"}, "type": "Feature"}
{"dataset_attributes": {"@spider": "usps_collection_boxes"}, "geometry": {"coordinates": [-119.098861, 36.417589], "type": "Point"}, "id": "uApk6tdnhTOT1aZzqBoqODLDKBM=", "properties": {"@spider": "usps_collection_boxes", "addr:city": "WOODLAKE", "addr:country": "US", "addr:full": "310 N VALENCIA BLVD", "addr:postcode": "93286", "addr:state": "CA", "amenity": "post_box", "brand": "United States Postal Service", "brand:wikidata": "Q668687", "collection_times": "Mo-Fr 15:45; Sa 12:00", "name": "USPS COLLECTION BOX - BLUE BOX", "note": "ON 12/24 AND 12/31, THIS BOX MAY BE COLLECTED AS EARLY AS 12 NOON.", "nsi_id": "unitedstatespostalservice-a77078", "operator": "United States Postal Service", "operator:short": "USPS", "operator:type": "public", "operator:wikidata": "Q668687", "ref": "9328600001"}, "type": "Feature"}
{"dataset_attributes": {"@spider": "usps_collection_boxes"}, "geometry": {"coordinates": [-119.098861, 36.417589], "type": "Point"}, "id": "QAnd7bdkCUPryk-rHOyXquN5gNE=", "properties": {"@spider": "usps_collection_boxes", "addr:city": "WOODLAKE", "addr:country": "US", "addr:full": "310 N VALENCIA BLVD", "addr:postcode": "93286", "addr:state": "CA", "amenity": "post_box", "brand": "United States Postal Service", "brand:wikidata": "Q668687", "collection_times": "Mo-Fr 15:45; Sa 12:00", "name": "USPS COLLECTION BOX - PO LOBBY", "note": "ON 12/24 AND 12/31, THIS BOX MAY BE COLLECTED AS EARLY AS 12 NOON.", "nsi_id": "unitedstatespostalservice-a77078", "operator": "United States Postal Service", "operator:short": "USPS", "operator:type": "public", "operator:wikidata": "Q668687", "ref": "9328600002"}, "type": "Feature"}
{"dataset_attributes": {"@spider": "usps_collection_boxes"}, "geometry": {"coordinates": [-119.098861, 36.417589], "type": "Point"}, "id": "OQrrLpJEIJRF77b6NHq4qlsGC8Y=", "properties": {"@spider": "usps_collection_boxes", "addr:city": "WOODLAKE", "addr:country": "US", "addr:full": "310 N VALENCIA BLVD", "addr:postcode": "93286", "addr:state": "CA", "amenity": "post_box", "brand": "United States Postal Service", "brand:wikidata": "Q668687", "collection_times": "Mo-Fr 15:45; Sa 12:00", "name": "USPS COLLECTION BOX - BLUE BOX", "note": "ON 12/24 AND 12/31, THIS BOX MAY BE COLLECTED AS EARLY AS 12 NOON.", "nsi_id": "unitedstatespostalservice-a77078", "operator": "United States Postal Service", "operator:short": "USPS", "operator:type": "public", "operator:wikidata": "Q668687", "ref": "9328600004"}, "type": "Feature"}
{"dataset_attributes": {"@spider": "usps_collection_boxes"}, "geometry": {"coordinates": [-119.0988429471, 36.4175694577], "type": "Point"}, "id": "qA6zoLeA_-KVXPsu9p7cNh91zqM=", "properties": {"@spider": "usps_collection_boxes", "addr:city": "WOODLAKE", "addr:country": "US", "addr:full": "310 N VALENCIA BLVD", "addr:postcode": "93286", "addr:state": "CA", "amenity": "post_box", "brand": "United States Postal Service", "brand:wikidata": "Q668687", "collection_times": "Mo-Fr 15:00", "name": "USPS COLLECTION BOX - PO LOBBY", "note": "ON 12/24 AND 12/31, THIS BOX MAY BE COLLECTED AS EARLY AS 12 NOON.", "nsi_id": "unitedstatespostalservice-a77078", "operator": "United States Postal Service", "operator:short": "USPS", "operator:type": "public", "operator:wikidata": "Q668687", "ref": "9328600005"}, "type": "Feature"}
{"dataset_attributes": {"@spider": "usps_collection_boxes"}, "geometry": {"coordinates": [-118.920284, 35.745193], "type": "Point"}, "id": "nP2HSls5A9gigljCjOUhXNApeEU=", "properties": {"@spider": "usps_collection_boxes", "addr:city": "WOODY", "addr:country": "US", "addr:full": "28985 HIGHWAY 155", "addr:postcode": "93287", "addr:state": "CA", "amenity": "post_box", "brand": "United States Postal Service", "brand:wikidata": "Q668687", "collection_times": "Mo-Fr 13:00; Sa 10:30", "name": "USPS COLLECTION BOX - PO LOBBY", "note": "ON 12/24 AND 12/31, THIS BOX MAY BE COLLECTED AS EARLY AS 12 NOON.", "nsi_id": "unitedstatespostalservice-a77078", "operator": "United States Postal Service", "operator:short": "USPS", "operator:type": "public", "operator:wikidata": "Q668687", "ref": "9328700000"}, "type": "Feature"}
{"dataset_attributes": {"@spider": "usps_collection_boxes"}, "geometry": {"coordinates": [-118.833929478, 35.704739475], "type": "Point"}, "id": "bCetIXIybo7oO21YZr4SzakOIkE=", "properties": {"@spider": "usps_collection_boxes", "addr:city": "WOODY", "addr:country": "US", "addr:full": "17987 HIGHWAY 155", "addr:postcode": "93287", "addr:state": "CA", "amenity": "post_box", "brand": "United States Postal Service", "brand:wikidata": "Q668687", "collection_times": "Mo-Fr 12:45", "name": "USPS COLLECTION BOX - PO LOBBY", "note": "ON 12/24 AND 12/31, THIS BOX MAY BE COLLECTED AS EARLY AS 12 NOON.", "nsi_id": "unitedstatespostalservice-a77078", "operator": "United States Postal Service", "operator:short": "USPS", "operator:type": "public", "operator:wikidata": "Q668687", "ref": "9328700001"}, "type": "Feature"}
{"dataset_attributes": {"@spider": "usps_collection_boxes"}, "geometry": {"coordinates": [-119.292441, 36.328678], "type": "Point"}, "id": "LlV8HapbfjQon-6r3HHR11unk08=", "properties": {"@spider": "usps_collection_boxes", "addr:city": "VISALIA", "addr:country": "US", "addr:full": "300 S COURT ST", "addr:postcode": "93291", "addr:state": "CA", "amenity": "post_box", "brand": "United States Postal Service", "brand:wikidata": "Q668687", "collection_times": "Mo-Fr 15:30; Sa 15:00", "name": "USPS COLLECTION BOX - BLUE BOX", "note": "ON 12/24 AND 12/31, THIS BOX MAY BE COLLECTED AS EARLY AS 12 NOON.", "nsi_id": "unitedstatespostalservice-a77078", "operator": "United States Postal Service", "operator:short": "USPS", "operator:type": "public", "operator:wikidata": "Q668687", "ref": "9329100000"}, "type": "Feature"}
{"dataset_attributes": {"@spider": "usps_collection_boxes"}, "geometry": {"coordinates": [-119.292478, 36.328655], "type": "Point"}, "id": "YxfFA5SwnWvUop31ZSk7LYt7IEM=", "properties": {"@spider": "usps_collection_boxes", "addr:city": "VISALIA", "addr:country": "US", "addr:full": "300 S COURT ST", "addr:postcode": "93291", "addr:state": "CA", "amenity": "post_box", "brand": "United States Postal Service", "brand:wikidata": "Q668687", "collection_times": "Mo-Fr 15:30; Sa 15:00", "name": "USPS COLLECTION BOX - BLUE BOX", "note": "ON 12/24 AND 12/31, THIS BOX MAY BE COLLECTED AS EARLY AS 12 NOON.", "nsi_id": "unitedstatespostalservice-a77078", "operator": "United States Postal Service", "operator:short": "USPS", "operator:type": "public", "operator:wikidata": "Q668687", "ref": "9329100001"}, "type": "Feature"}
{"dataset_attributes": {"@spider": "usps_collection_boxes"}, "geometry": {"coordinates": [-119.293353, 36.328451], "type": "Point"}, "id": "qQ1BV2Jan_lZdvKorjA0hPu1eiI=", "properties": {"@spider": "usps_collection_boxes", "addr:city": "VISALIA", "addr:country": "US", "addr:full": "300 S LOCUST", "addr:postcode": "93291", "addr:state": "CA", "amenity": "post_box", "brand": "United States Postal Service", "brand:wikidata": "Q668687", "collection_times": "Mo-Fr 15:30; Sa 15:00", "name": "USPS COLLECTION BOX - BLUE BOX", "note": "ON 12/24 AND 12/31, THIS BOX MAY BE COLLECTED AS EARLY AS 12 NOON.", "nsi_id": "unitedstatespostalservice-a77078", "operator": "United States Postal Service", "operator:short": "USPS", "operator:type": "public", "operator:wikidata": "Q668687", "ref": "9329100002"}, "type": "Feature"}
{"dataset_attributes": {"@spider": "usps_collection_boxes"}, "geometry": {"coordinates": [-119.293271, 36.328408], "type": "Point"}, "id": "88bE5Akjx6f84tBl1fbune9Fz74=", "properties": {"@spider": "usps_collection_boxes", "addr:city": "VISALIA", "addr:country": "US", "addr:full": "300 S LOCUST", "addr:postcode": "93291", "addr:state": "CA", "amenity": "post_box", "brand": "United States Postal Service", "brand:wikidata": "Q668687", "collection_times": "Mo-Fr 15:30; Sa 15:00", "name": "USPS COLLECTION BOX - BLUE BOX", "note": "ON 12/24 AND 12/31, THIS BOX MAY BE COLLECTED AS EARLY AS 12 NOON.", "nsi_id": "unitedstatespostalservice-a77078", "operator": "United States Postal Service", "operator:short": "USPS", "operator:type": "public", "operator:wikidata": "Q668687", "ref": "9329100004"}, "type": "Feature"}
{"dataset_attributes": {"@spider": "usps_collection_boxes"}, "geometry": {"coordinates": [-119.293286, 36.328398], "type": "Point"}, "id": "rNaAic8LpPH9sWUAHUDHj3X4BjE=", "properties": {"@spider": "usps_collection_boxes", "addr:city": "VISALIA", "addr:country": "US", "addr:full": "300  S LOCUST", "addr:postcode": "93291", "addr:state": "CA", "amenity": "post_box", "brand": "United States Postal Service", "brand:wikidata": "Q668687", "collection_times": "Mo-Fr 15:30; Sa 15:00", "name": "USPS COLLECTION BOX - BLUE BOX", "note": "ON 12/24 AND 12/31, THIS BOX MAY BE COLLECTED AS EARLY AS 12 NOON.", "nsi_id": "unitedstatespostalservice-a77078", "operator": "United States Postal Service", "operator:short": "USPS", "operator:type": "public", "operator:wikidata": "Q668687", "ref": "9329100005"}, "type": "Feature"}
{"dataset_attributes": {"@spider": "usps_collection_boxes"}, "geometry": {"coordinates": [-119.298929, 36.330238], "type": "Point"}, "id": "Th8mbNtaNR9dn-REHEjzbECEWUk=", "properties": {"@spider": "usps_collection_boxes", "addr:city": "VISALIA", "addr:country": "US", "addr:full": "701 W MAIN ST", "addr:postcode": "93291", "addr:state": "CA", "amenity": "post_box", "brand": "United States Postal Service", "brand:wikidata": "Q668687", "collection_times": "Mo-Sa 12:00", "name": "USPS COLLECTION BOX - BLUE BOX", "nsi_id": "unitedstatespostalservice-a77078", "operator": "United States Postal Service", "operator:short": "USPS", "operator:type": "public", "operator:wikidata": "Q668687", "ref": "9329100014"}, "type": "Feature"}
{"dataset_attributes": {"@spider": "usps_collection_boxes"}, "geometry": {"coordinates": [-119.291316, 36.330646], "type": "Point"}, "id": "-ENcPvJ1szoidBjmtHgQv4lZk8Q=", "properties": {"@spider": "usps_collection_boxes", "addr:city": "VISALIA", "addr:country": "US", "addr:full": "113 N CHURCH ST", "addr:postcode": "93291", "addr:state": "CA", "amenity": "post_box", "brand": "United States Postal Service", "brand:wikidata": "Q668687", "collection_times": "Mo-Sa 12:00", "name": "USPS COLLECTION BOX - BLUE BOX", "nsi_id": "unitedstatespostalservice-a77078", "operator": "United States Postal Service", "operator:short": "USPS", "operator:type": "public", "operator:wikidata": "Q668687", "ref": "9329100023"}, "type": "Feature"}
{"dataset_attributes": {"@spider": "usps_collection_boxes"}, "geometry": {"coordinates": [-119.292455698, 36.329176044], "type": "Point"}, "id": "hLBHjJE6QDwlr8oyOYxL2d6qurQ=", "properties": {"@spider": "usps_collection_boxes", "addr:city": "VISALIA", "addr:country": "US", "addr:full": "111 W ACEQUIA AVE", "addr:postcode": "93291", "addr:state": "CA", "amenity": "post_box", "brand": "United States Postal Service", "brand:wikidata": "Q668687", "collection_times": "Mo-Fr 15:45; Sa 15:00", "name": "USPS COLLECTION BOX - PO LOBBY", "note": "ON 12/24 AND 12/31, THIS BOX MAY BE COLLECTED AS EARLY AS 12 NOON.", "nsi_id": "unitedstatespostalservice-a77078", "operator": "United States Postal Service", "operator:short": "USPS", "operator:type": "public", "operator:wikidata": "Q668687", "ref": "9329100069"}, "type": "Feature"}
{"dataset_attributes": {"@spider": "usps_collection_boxes"}, "geometry": {"coordinates": [-119.349596366, 36.329976], "type": "Point"}, "id": "N6jl1YmTeYqXtePIpqGmbK59jg4=", "properties": {"@spider": "usps_collection_boxes", "addr:city": "VISALIA", "addr:country": "US", "addr:full": "100 N AKERS ST", "addr:postcode": "93291", "addr:state": "CA", "amenity": "post_box", "brand": "United States Postal Service", "brand:wikidata": "Q668687", "collection_times": "Mo-Fr 15:15; Sa 12:00", "name": "USPS COLLECTION BOX - PO LOBBY", "note": "ON 12/24 AND 12/31, THIS BOX MAY BE COLLECTED AS EARLY AS 12 NOON.", "nsi_id": "unitedstatespostalservice-a77078", "operator": "United States Postal Service", "operator:short": "USPS", "operator:type": "public", "operator:wikidata": "Q668687", "ref": "9329100071"}, "type": "Feature"}
{"dataset_attributes": {"@spider": "usps_collection_boxes"}, "geometry": {"coordinates": [-119.292455698, 36.329176044], "type": "Point"}, "id": "AqF47EBBudWTu22mLn-Tpecg598=", "properties": {"@spider": "usps_collection_boxes", "addr:city": "VISALIA", "addr:country": "US", "addr:full": "111 W ACEQUIA AVE", "addr:postcode": "93291", "addr:state": "CA", "amenity": "post_box", "brand": "United States Postal Service", "brand:wikidata": "Q668687", "collection_times": "Mo-Fr 15:30", "name": "USPS COLLECTION BOX - PO LOBBY", "note": "ON 12/24 AND 12/31, THIS BOX MAY BE COLLECTED AS EARLY AS 12 NOON.", "nsi_id": "unitedstatespostalservice-a77078", "operator": "United States Postal Service", "operator:short": "USPS", "operator:type": "public", "operator:wikidata": "Q668687", "ref": "9329100084"}, "type": "Feature"}
{"dataset_attributes": {"@spider": "usps_collection_boxes"}, "geometry": {"coordinates": [-119.349596366, 36.329976], "type": "Point"}, "id": "_wjK2HSySYAeRGI24i7-MeEFHbs=", "properties": {"@spider": "usps_collection_boxes", "addr:city": "VISALIA", "addr:country": "US", "addr:full": "100 N AKERS ST", "addr:postcode": "93291", "addr:state": "CA", "amenity": "post_box", "brand": "United States Postal Service", "brand:wikidata": "Q668687", "collection_times": "Mo-Fr 15:00", "name": "USPS COLLECTION BOX - PO LOBBY", "note": "ON 12/24 AND 12/31, THIS BOX MAY BE COLLECTED AS EARLY AS 12 NOON.", "nsi_id": "unitedstatespostalservice-a77078", "operator": "United States Postal Service", "operator:short": "USPS", "operator:type": "public", "operator:wikidata": "Q668687", "ref": "9329100085"}, "type": "Feature"}
{"dataset_attributes": {"@spider": "usps_collection_boxes"}, "geometry": {"coordinates": [-119.275905, 36.324431], "type": "Point"}, "id": "NYRxvTszM0snPUUu6NwyaSmSoRE=", "properties": {"@spider": "usps_collection_boxes", "addr:city": "VISALIA", "addr:country": "US", "addr:full": "1591 E NOBLE AVE", "addr:postcode": "93292", "addr:state": "CA", "amenity": "post_box", "brand": "United States Postal Service", "brand:wikidata": "Q668687", "collection_times": "Mo-Sa 10:00", "name": "USPS COLLECTION BOX - BLUE BOX", "nsi_id": "unitedstatespostalservice-a77078", "operator": "United States Postal Service", "operator:short": "USPS", "operator:type": "public", "operator:wikidata": "Q668687", "ref": "9329200002"}, "type": "Feature"}
