{"geometry": {"coordinates": [-119.016405, 35.37883], "type": "Point"}, "id": "kJVDdlC-kqim6OheO3oIZzXDltw=", "properties": {"@source_uri": "https://tools.usps.com/UspsToolsRestServices/rest/POLocator/findLocations", "@spider": "usps_collection_boxes", "addr:city": "BAKERSFIELD", "addr:country": "US", "addr:postcode": "93301", "addr:state": "CA", "addr:street_address": "2001 WESTWIND DR", "amenity": "post_box", "collection_times": "Mo-Fr 15:00; Sa 11:30", "note": "ON 12/24 AND 12/31, THIS BOX MAY BE COLLECTED AS EARLY AS 12 NOON.", "nsi_id": "unitedstatespostalservice-a77078", "operator": "United States Postal Service", "operator:short": "USPS", "operator:type": "public", "operator:wikidata": "Q668687", "ref": "9330100019"}, "type": "Feature"}
{"geometry": {"coordinates": [-119.021258, 35.384973], "type": "Point"}, "id": "NfbQpmn4gug0AZjZtYyvGyh3ZvA=", "properties": {"@source_uri": "https://tools.usps.com/UspsToolsRestServices/rest/POLocator/findLocations", "@spider": "usps_collection_boxes", "addr:city": "BAKERSFIELD", "addr:country": "US", "addr:postcode": "93301", "addr:state": "CA", "addr:street_address": "2801 H ST", "amenity": "post_box", "collection_times": "Mo-Fr 10:00; Sa 09:00", "nsi_id": "unitedstatespostalservice-a77078", "operator": "United States Postal Service", "operator:short": "USPS", "operator:type": "public", "operator:wikidata": "Q668687", "ref": "9330100036"}, "type": "Feature"}
{"geometry": {"coordinates": [-119.01844, 35.373287], "type": "Point"}, "id": "HiXixmwsIHlNozjTFxMNJQqROA0=", "properties": {"@source_uri": "https://tools.usps.com/UspsToolsRestServices/rest/POLocator/findLocations", "@spider": "usps_collection_boxes", "addr:city": "BAKERSFIELD", "addr:country": "US", "addr:postcode": "93301", "addr:state": "CA", "addr:street_address": "1430 TRUXTUN AVE", "amenity": "post_box", "collection_times": "Mo-Fr 15:00; Sa 11:30", "note": "ON 12/24 AND 12/31, THIS BOX MAY BE COLLECTED AS EARLY AS 12 NOON.", "nsi_id": "unitedstatespostalservice-a77078", "operator": "United States Postal Service", "operator:short": "USPS", "operator:type": "public", "operator:wikidata": "Q668687", "ref": "9330100066"}, "type": "Feature"}
{"geometry": {"coordinates": [-119.0285520344, 35.3721550179], "type": "Point"}, "id": "ltqLUIFfegvUpkFC30wFDjaHHCU=", "properties": {"@source_uri": "https://tools.usps.com/UspsToolsRestServices/rest/POLocator/findLocations", "@spider": "usps_collection_boxes", "addr:city": "BAKERSFIELD", "addr:country": "US", "addr:postcode": "93301", "addr:state": "CA", "addr:street_address": "2323 16TH ST", "amenity": "post_box", "collection_times": "Mo-Fr 15:00; Sa 11:30", "note": "ON 12/24 AND 12/31, THIS BOX MAY BE COLLECTED AS EARLY AS 12 NOON.", "nsi_id": "unitedstatespostalservice-a77078", "operator": "United States Postal Service", "operator:short": "USPS", "operator:type": "public", "operator:wikidata": "Q668687", "ref": "9330100079"}, "type": "Feature"}
{"geometry": {"coordinates": [-119.016405, 35.37883], "type": "Point"}, "id": "wX4SaEGOKyas6YeASW4K5pom1D8=", "properties": {"@source_uri": "https://tools.usps.com/UspsToolsRestServices/rest/POLocator/findLocations", "@spider": "usps_collection_boxes", "addr:city": "BAKERSFIELD", "addr:country": "US", "addr:postcode": "93301", "addr:state": "CA", "addr:street_address": "1800 30TH ST", "amenity": "post_box", "collection_times": "Mo-Fr 15:00; Sa 12:30", "note": "ON 12/24 AND 12/31, THIS BOX MAY BE COLLECTED AS EARLY AS 12 NOON.", "nsi_id": "unitedstatespostalservice-a77078", "operator": "United States Postal Service", "operator:short": "USPS", "operator:type": "public", "operator:wikidata": "Q668687", "ref": "9330100102"}, "type": "Feature"}
{"geometry": {"coordinates": [-119.016405, 35.37883], "type": "Point"}, "id": "7bLTWxyhHoFTfQYxaCqnurME97M=", "properties": {"@source_uri": "https://tools.usps.com/UspsToolsRestServices/rest/POLocator/findLocations", "@spider": "usps_collection_boxes", "addr:city": "BAKERSFIELD", "addr:country": "US", "addr:postcode": "93301", "addr:state": "CA", "addr:street_address": "1800 30TH ST", "amenity": "post_box", "collection_times": "Mo-Fr 15:00; Sa 12:30", "note": "ON 12/24 AND 12/31, THIS BOX MAY BE COLLECTED AS EARLY AS 12 NOON.", "nsi_id": "unitedstatespostalservice-a77078", "operator": "United States Postal Service", "operator:short": "USPS", "operator:type": "public", "operator:wikidata": "Q668687", "ref": "9330100107"}, "type": "Feature"}
{"geometry": {"coordinates": [-119.019249, 35.374032], "type": "Point"}, "id": "SReBX2Ars3P2ZNHUUUqGk4hQux4=", "properties": {"@source_uri": "https://tools.usps.com/UspsToolsRestServices/rest/POLocator/findLocations", "@spider": "usps_collection_boxes", "addr:city": "BAKERSFIELD", "addr:country": "US", "addr:postcode": "93301", "addr:state": "CA", "addr:street_address": "1675 CHESTER AVE", "amenity": "post_box", "collection_times": "Mo-Fr 15:00; Sa 12:00", "note": "ON 12/24 AND 12/31, THIS BOX MAY BE COLLECTED AS EARLY AS 12 NOON.", "nsi_id": "unitedstatespostalservice-a77078", "operator": "United States Postal Service", "operator:short": "USPS", "operator:type": "public", "operator:wikidata": "Q668687", "ref": "9330100115"}, "type": "Feature"}
{"geometry": {"coordinates": [-119.018457, 35.373271], "type": "Point"}, "id": "0dpBN--q0zsgK6wWwpFkEl0v9Sg=", "properties": {"@source_uri": "https://tools.usps.com/UspsToolsRestServices/rest/POLocator/findLocations", "@spider": "usps_collection_boxes", "addr:city": "BAKERSFIELD", "addr:country": "US", "addr:postcode": "93301", "addr:state": "CA", "addr:street_address": "1430 TRUXTUN AVE", "amenity": "post_box", "collection_times": "Mo-Fr 15:00; Sa 11:30", "note": "ON 12/24 AND 12/31, THIS BOX MAY BE COLLECTED AS EARLY AS 12 NOON.", "nsi_id": "unitedstatespostalservice-a77078", "operator": "United States Postal Service", "operator:short": "USPS", "operator:type": "public", "operator:wikidata": "Q668687", "ref": "9330100122"}, "type": "Feature"}
{"geometry": {"coordinates": [-119.021951, 35.375523], "type": "Point"}, "id": "y5DBYOASAF-diy9HCj2BWZpFptU=", "properties": {"@source_uri": "https://tools.usps.com/UspsToolsRestServices/rest/POLocator/findLocations", "@spider": "usps_collection_boxes", "addr:city": "BAKERSFIELD", "addr:country": "US", "addr:postcode": "93301", "addr:state": "CA", "addr:street_address": "1730 18TH ST", "amenity": "post_box", "collection_times": "Mo-Fr 17:00; Sa 13:00", "indoor": "yes", "note": "ON 12/24 AND 12/31, THIS BOX MAY BE COLLECTED AS EARLY AS 12 NOON.", "nsi_id": "unitedstatespostalservice-a77078", "operator": "United States Postal Service", "operator:short": "USPS", "operator:type": "public", "operator:wikidata": "Q668687", "ref": "9330100123"}, "type": "Feature"}
{"geometry": {"coordinates": [-119.021978, 35.375518], "type": "Point"}, "id": "YpbuM55TNI_IKombdJPexmzqa-I=", "properties": {"@source_uri": "https://tools.usps.com/UspsToolsRestServices/rest/POLocator/findLocations", "@spider": "usps_collection_boxes", "addr:city": "BAKERSFIELD", "addr:country": "US", "addr:postcode": "93301", "addr:state": "CA", "addr:street_address": "1730 18TH ST", "amenity": "post_box", "collection_times": "Mo-Fr 17:00; Sa 13:00", "indoor": "yes", "note": "ON 12/24 AND 12/31, THIS BOX MAY BE COLLECTED AS EARLY AS 12 NOON.", "nsi_id": "unitedstatespostalservice-a77078", "operator": "United States Postal Service", "operator:short": "USPS", "operator:type": "public", "operator:wikidata": "Q668687", "ref": "9330100124"}, "type": "Feature"}
{"geometry": {"coordinates": [-119.0219625, 35.3753124605], "type": "Point"}, "id": "mxfBNY5ec_g8-hZhnEZ3M7msAcs=", "properties": {"@source_uri": "https://tools.usps.com/UspsToolsRestServices/rest/POLocator/findLocations", "@spider": "usps_collection_boxes", "addr:city": "BAKERSFIELD", "addr:country": "US", "addr:postcode": "93301", "addr:state": "CA", "addr:street_address": "1730 18TH ST", "amenity": "post_box", "collection_times": "Mo-Fr 17:00", "indoor": "yes", "note": "ON 12/24 AND 12/31, THIS BOX MAY BE COLLECTED AS EARLY AS 12 NOON.", "nsi_id": "unitedstatespostalservice-a77078", "operator": "United States Postal Service", "operator:short": "USPS", "operator:type": "public", "operator:wikidata": "Q668687", "ref": "9330100134"}, "type": "Feature"}
{"geometry": {"coordinates": [-119.0376599761, 35.3254124696], "type": "Point"}, "id": "u3zTSgAyX12JmVm5hZ3awdhH0bA=", "properties": {"@source_uri": "https://tools.usps.com/UspsToolsRestServices/rest/POLocator/findLocations", "@spider": "usps_collection_boxes", "addr:city": "BAKERSFIELD", "addr:country": "US", "addr:postcode": "93304", "addr:state": "CA", "addr:street_address": "3200 LARSON LN", "amenity": "post_box", "collection_times": "Mo-Fr 17:00; Sa 13:00", "indoor": "yes", "note": "ON 12/24 AND 12/31, THIS BOX MAY BE COLLECTED AS EARLY AS 12 NOON.", "nsi_id": "unitedstatespostalservice-a77078", "operator": "United States Postal Service", "operator:short": "USPS", "operator:type": "public", "operator:wikidata": "Q668687", "ref": "9330400039"}, "type": "Feature"}
{"geometry": {"coordinates": [-119.0376599761, 35.3254124696], "type": "Point"}, "id": "VhfIjVifrJJ1lh5rVaptex2MRfw=", "properties": {"@source_uri": "https://tools.usps.com/UspsToolsRestServices/rest/POLocator/findLocations", "@spider": "usps_collection_boxes", "addr:city": "BAKERSFIELD", "addr:country": "US", "addr:postcode": "93304", "addr:state": "CA", "addr:street_address": "3200 LARSON LN", "amenity": "post_box", "collection_times": "Mo-Fr 17:00; Sa 13:00", "indoor": "yes", "note": "ON 12/24 AND 12/31, THIS BOX MAY BE COLLECTED AS EARLY AS 12 NOON.", "nsi_id": "unitedstatespostalservice-a77078", "operator": "United States Postal Service", "operator:short": "USPS", "operator:type": "public", "operator:wikidata": "Q668687", "ref": "9330400044"}, "type": "Feature"}
{"geometry": {"coordinates": [-119.0376599761, 35.3254124696], "type": "Point"}, "id": "YCnKuX0CwRafwZNFufp9DQITGP4=", "properties": {"@source_uri": "https://tools.usps.com/UspsToolsRestServices/rest/POLocator/findLocations", "@spider": "usps_collection_boxes", "addr:city": "BAKERSFIELD", "addr:country": "US", "addr:postcode": "93304", "addr:state": "CA", "addr:street_address": "3200 LARSON LN", "amenity": "post_box", "collection_times": "Mo-Fr 17:00", "indoor": "yes", "note": "ON 12/24 AND 12/31, THIS BOX MAY BE COLLECTED AS EARLY AS 12 NOON.", "nsi_id": "unitedstatespostalservice-a77078", "operator": "United States Postal Service", "operator:short": "USPS", "operator:type": "public", "operator:wikidata": "Q668687", "ref": "9330400061"}, "type": "Feature"}
{"geometry": {"coordinates": [-118.9911297932, 35.3785450569], "type": "Point"}, "id": "vcsW0834jN91gyllOFy9EaCRdiM=", "properties": {"@source_uri": "https://tools.usps.com/UspsToolsRestServices/rest/POLocator/findLocations", "@spider": "usps_collection_boxes", "addr:city": "BAKERSFIELD", "addr:country": "US", "addr:postcode": "93305", "addr:state": "CA", "addr:street_address": "727 KENTUCKY ST", "amenity": "post_box", "collection_times": "Mo-Fr 17:00; Sa 13:00", "note": "ON 12/24 AND 12/31, THIS BOX MAY BE COLLECTED AS EARLY AS 12 NOON.", "nsi_id": "unitedstatespostalservice-a77078", "operator": "United States Postal Service", "operator:short": "USPS", "operator:type": "public", "operator:wikidata": "Q668687", "ref": "9330500033"}, "type": "Feature"}
{"geometry": {"coordinates": [-118.9911297932, 35.3785450569], "type": "Point"}, "id": "pZ3BdIm7j5-9y4UrhNJEKDmofOE=", "properties": {"@source_uri": "https://tools.usps.com/UspsToolsRestServices/rest/POLocator/findLocations", "@spider": "usps_collection_boxes", "addr:city": "BAKERSFIELD", "addr:country": "US", "addr:postcode": "93305", "addr:state": "CA", "addr:street_address": "727 KENTUCKY ST", "amenity": "post_box", "collection_times": "Mo-Fr 17:00", "indoor": "yes", "note": "ON 12/24 AND 12/31, THIS BOX MAY BE COLLECTED AS EARLY AS 12 NOON.", "nsi_id": "unitedstatespostalservice-a77078", "operator": "United States Postal Service", "operator:short": "USPS", "operator:type": "public", "operator:wikidata": "Q668687", "ref": "9330500035"}, "type": "Feature"}
{"geometry": {"coordinates": [-118.9911297932, 35.3785450569], "type": "Point"}, "id": "jw3AUNaGYon20jDd8X5Y4pDKKpU=", "properties": {"@source_uri": "https://tools.usps.com/UspsToolsRestServices/rest/POLocator/findLocations", "@spider": "usps_collection_boxes", "addr:city": "BAKERSFIELD", "addr:country": "US", "addr:postcode": "93305", "addr:state": "CA", "addr:street_address": "727 KENTUCKY ST", "amenity": "post_box", "collection_times": "Mo-Fr 17:00", "indoor": "yes", "note": "ON 12/24 AND 12/31, THIS BOX MAY BE COLLECTED AS EARLY AS 12 NOON.", "nsi_id": "unitedstatespostalservice-a77078", "operator": "United States Postal Service", "operator:short": "USPS", "operator:type": "public", "operator:wikidata": "Q668687", "ref": "9330500036"}, "type": "Feature"}
{"geometry": {"coordinates": [-118.9911297932, 35.3785450569], "type": "Point"}, "id": "jefsayu89dtn0QTAv4b8aECR968=", "properties": {"@source_uri": "https://tools.usps.com/UspsToolsRestServices/rest/POLocator/findLocations", "@spider": "usps_collection_boxes", "addr:city": "BAKERSFIELD", "addr:country": "US", "addr:postcode": "93305", "addr:state": "CA", "addr:street_address": "727 KENTUCKY ST", "amenity": "post_box", "collection_times": "Mo-Fr 17:00", "indoor": "yes", "note": "ON 12/24 AND 12/31, THIS BOX MAY BE COLLECTED AS EARLY AS 12 NOON.", "nsi_id": "unitedstatespostalservice-a77078", "operator": "United States Postal Service", "operator:short": "USPS", "operator:type": "public", "operator:wikidata": "Q668687", "ref": "9330500039"}, "type": "Feature"}
{"geometry": {"coordinates": [-118.94635, 35.37818], "type": "Point"}, "id": "Hhm7VUtBIvIKhcnRtNpqiEWicIc=", "properties": {"@source_uri": "https://tools.usps.com/UspsToolsRestServices/rest/POLocator/findLocations", "@spider": "usps_collection_boxes", "addr:city": "BAKERSFIELD", "addr:country": "US", "addr:postcode": "93306", "addr:state": "CA", "addr:street_address": "1436 CRESTMONT DR", "amenity": "post_box", "collection_times": "Mo-Fr 17:00; Sa 13:00", "note": "ON 12/24 AND 12/31, THIS BOX MAY BE COLLECTED AS EARLY AS 12 NOON.", "nsi_id": "unitedstatespostalservice-a77078", "operator": "United States Postal Service", "operator:short": "USPS", "operator:type": "public", "operator:wikidata": "Q668687", "ref": "9330600027"}, "type": "Feature"}
{"geometry": {"coordinates": [-118.9541477436, 35.377209], "type": "Point"}, "id": "ztbEDcFzfOa14o_lCXlt0ogdvHo=", "properties": {"@source_uri": "https://tools.usps.com/UspsToolsRestServices/rest/POLocator/findLocations", "@spider": "usps_collection_boxes", "addr:city": "BAKERSFIELD", "addr:country": "US", "addr:postcode": "93306", "addr:state": "CA", "addr:street_address": "1436 CRESTMONT DR", "amenity": "post_box", "collection_times": "Mo-Fr 17:00; Sa 13:00", "indoor": "yes", "note": "ON 12/24 AND 12/31, THIS BOX MAY BE COLLECTED AS EARLY AS 12 NOON.", "nsi_id": "unitedstatespostalservice-a77078", "operator": "United States Postal Service", "operator:short": "USPS", "operator:type": "public", "operator:wikidata": "Q668687", "ref": "9330600031"}, "type": "Feature"}
{"geometry": {"coordinates": [-118.9541477436, 35.377209], "type": "Point"}, "id": "b7IKPrnqNu-Ma20zhq-igknjcyQ=", "properties": {"@source_uri": "https://tools.usps.com/UspsToolsRestServices/rest/POLocator/findLocations", "@spider": "usps_collection_boxes", "addr:city": "BAKERSFIELD", "addr:country": "US", "addr:postcode": "93306", "addr:state": "CA", "addr:street_address": "1436 CRESTMONT DR", "amenity": "post_box", "collection_times": "Mo-Fr 17:00; Sa 13:00", "indoor": "yes", "note": "ON 12/24 AND 12/31, THIS BOX MAY BE COLLECTED AS EARLY AS 12 NOON.", "nsi_id": "unitedstatespostalservice-a77078", "operator": "United States Postal Service", "operator:short": "USPS", "operator:type": "public", "operator:wikidata": "Q668687", "ref": "9330600032"}, "type": "Feature"}
{"geometry": {"coordinates": [-118.9541477436, 35.377209], "type": "Point"}, "id": "8LQmDAoSiT88QNwTUjkT6_olhls=", "properties": {"@source_uri": "https://tools.usps.com/UspsToolsRestServices/rest/POLocator/findLocations", "@spider": "usps_collection_boxes", "addr:city": "BAKERSFIELD", "addr:country": "US", "addr:postcode": "93306", "addr:state": "CA", "addr:street_address": "1436 CRESTMONT DR", "amenity": "post_box", "collection_times": "Mo-Fr 17:00", "indoor": "yes", "note": "ON 12/24 AND 12/31, THIS BOX MAY BE COLLECTED AS EARLY AS 12 NOON.", "nsi_id": "unitedstatespostalservice-a77078", "operator": "United States Postal Service", "operator:short": "USPS", "operator:type": "public", "operator:wikidata": "Q668687", "ref": "9330600039"}, "type": "Feature"}
{"geometry": {"coordinates": [-118.9757499839, 35.3534360069], "type": "Point"}, "id": "ecYlHUhFD-wVAAm3VYfDHqQoAkI=", "properties": {"@source_uri": "https://tools.usps.com/UspsToolsRestServices/rest/POLocator/findLocations", "@spider": "usps_collection_boxes", "addr:city": "BAKERSFIELD", "addr:country": "US", "addr:postcode": "93307", "addr:state": "CA", "addr:street_address": "2525 E BRUNDAGE LN", "amenity": "post_box", "collection_times": "Mo-Fr 17:00; Sa 13:00", "name": "USPS COLLECTION BOX - EXPRESS", "note": "ON 12/24 AND 12/31, THIS BOX MAY BE COLLECTED AS EARLY AS 12 NOON.", "nsi_id": "unitedstatespostalservice-a77078", "operator": "United States Postal Service", "operator:short": "USPS", "operator:type": "public", "operator:wikidata": "Q668687", "ref": "9330700005"}, "type": "Feature"}
{"geometry": {"coordinates": [-118.9757924162, 35.3539865206], "type": "Point"}, "id": "3q-CKWvcfaiodm8lBM1JFWytr-s=", "properties": {"@source_uri": "https://tools.usps.com/UspsToolsRestServices/rest/POLocator/findLocations", "@spider": "usps_collection_boxes", "addr:city": "BAKERSFIELD", "addr:country": "US", "addr:postcode": "93307", "addr:state": "CA", "addr:street_address": "2525 E BRUNDAGE LN", "amenity": "post_box", "collection_times": "Mo-Fr 17:00; Sa 13:00", "indoor": "yes", "note": "ON 12/24 AND 12/31, THIS BOX MAY BE COLLECTED AS EARLY AS 12 NOON.", "nsi_id": "unitedstatespostalservice-a77078", "operator": "United States Postal Service", "operator:short": "USPS", "operator:type": "public", "operator:wikidata": "Q668687", "ref": "9330700021"}, "type": "Feature"}
{"geometry": {"coordinates": [-118.9757924162, 35.3539865206], "type": "Point"}, "id": "0BQCRp5LnsJAPvvgtKn9htg2wuc=", "properties": {"@source_uri": "https://tools.usps.com/UspsToolsRestServices/rest/POLocator/findLocations", "@spider": "usps_collection_boxes", "addr:city": "BAKERSFIELD", "addr:country": "US", "addr:postcode": "93307", "addr:state": "CA", "addr:street_address": "2525 E BRUNDAGE LN", "amenity": "post_box", "collection_times": "Mo-Fr 17:00; Sa 13:00", "indoor": "yes", "note": "ON 12/24 AND 12/31, THIS BOX MAY BE COLLECTED AS EARLY AS 12 NOON.", "nsi_id": "unitedstatespostalservice-a77078", "operator": "United States Postal Service", "operator:short": "USPS", "operator:type": "public", "operator:wikidata": "Q668687", "ref": "9330700022"}, "type": "Feature"}
{"geometry": {"coordinates": [-118.9757924162, 35.3539865206], "type": "Point"}, "id": "fZodwXJgqmm20zLHjC3L2CZhv1g=", "properties": {"@source_uri": "https://tools.usps.com/UspsToolsRestServices/rest/POLocator/findLocations", "@spider": "usps_collection_boxes", "addr:city": "BAKERSFIELD", "addr:country": "US", "addr:postcode": "93307", "addr:state": "CA", "addr:street_address": "2525 E BRUNDAGE LN", "amenity": "post_box", "collection_times": "Mo-Fr 17:00; Sa 13:00", "note": "ON 12/24 AND 12/31, THIS BOX MAY BE COLLECTED AS EARLY AS 12 NOON.", "nsi_id": "unitedstatespostalservice-a77078", "operator": "United States Postal Service", "operator:short": "USPS", "operator:type": "public", "operator:wikidata": "Q668687", "ref": "9330700024"}, "type": "Feature"}
{"geometry": {"coordinates": [-118.9757924162, 35.3539865206], "type": "Point"}, "id": "SOJ3sKsohxGYw_NcDtwUQHXMe3s=", "properties": {"@source_uri": "https://tools.usps.com/UspsToolsRestServices/rest/POLocator/findLocations", "@spider": "usps_collection_boxes", "addr:city": "BAKERSFIELD", "addr:country": "US", "addr:postcode": "93307", "addr:state": "CA", "addr:street_address": "2525 E BRUNDAGE LN", "amenity": "post_box", "collection_times": "Mo-Fr 17:00", "indoor": "yes", "note": "ON 12/24 AND 12/31, THIS BOX MAY BE COLLECTED AS EARLY AS 12 NOON.", "nsi_id": "unitedstatespostalservice-a77078", "operator": "United States Postal Service", "operator:short": "USPS", "operator:type": "public", "operator:wikidata": "Q668687", "ref": "9330700027"}, "type": "Feature"}
{"geometry": {"coordinates": [-119.0224159993, 35.4188841324], "type": "Point"}, "id": "NYSyCJfEUsnwKq8zOcs0xza-UAA=", "properties": {"@source_uri": "https://tools.usps.com/UspsToolsRestServices/rest/POLocator/findLocations", "@spider": "usps_collection_boxes", "addr:city": "BAKERSFIELD", "addr:country": "US", "addr:postcode": "93308", "addr:state": "CA", "addr:street_address": "118 MINNER AVE", "amenity": "post_box", "collection_times": "Mo-Fr 16:00", "indoor": "yes", "note": "ON 12/24 AND 12/31, THIS BOX MAY BE COLLECTED AS EARLY AS 12 NOON.", "nsi_id": "unitedstatespostalservice-a77078", "operator": "United States Postal Service", "operator:short": "USPS", "operator:type": "public", "operator:wikidata": "Q668687", "ref": "9330800010"}, "type": "Feature"}
{"geometry": {"coordinates": [-119.0224159993, 35.4188841324], "type": "Point"}, "id": "JirZu_rK9X1rldgoLbLHNQwXQfw=", "properties": {"@source_uri": "https://tools.usps.com/UspsToolsRestServices/rest/POLocator/findLocations", "@spider": "usps_collection_boxes", "addr:city": "BAKERSFIELD", "addr:country": "US", "addr:postcode": "93308", "addr:state": "CA", "addr:street_address": "118 MINNER AVE", "amenity": "post_box", "collection_times": "Mo-Fr 16:00", "indoor": "yes", "note": "ON 12/24 AND 12/31, THIS BOX MAY BE COLLECTED AS EARLY AS 12 NOON.", "nsi_id": "unitedstatespostalservice-a77078", "operator": "United States Postal Service", "operator:short": "USPS", "operator:type": "public", "operator:wikidata": "Q668687", "ref": "9330800011"}, "type": "Feature"}
{"geometry": {"coordinates": [-119.0224159993, 35.4188841324], "type": "Point"}, "id": "25BxNyV_CJTBZ3kmbPdLQUmrBVo=", "properties": {"@source_uri": "https://tools.usps.com/UspsToolsRestServices/rest/POLocator/findLocations", "@spider": "usps_collection_boxes", "addr:city": "BAKERSFIELD", "addr:country": "US", "addr:postcode": "93308", "addr:state": "CA", "addr:street_address": "118 MINNER AVE", "amenity": "post_box", "collection_times": "Mo-Fr 16:00", "indoor": "yes", "note": "ON 12/24 AND 12/31, THIS BOX MAY BE COLLECTED AS EARLY AS 12 NOON.", "nsi_id": "unitedstatespostalservice-a77078", "operator": "United States Postal Service", "operator:short": "USPS", "operator:type": "public", "operator:wikidata": "Q668687", "ref": "9330800012"}, "type": "Feature"}
{"geometry": {"coordinates": [-119.071332, 35.425535], "type": "Point"}, "id": "d_Xle3IIz-iVvE_5Jb5ZSeY_UYc=", "properties": {"@source_uri": "https://tools.usps.com/UspsToolsRestServices/rest/POLocator/findLocations", "@spider": "usps_collection_boxes", "addr:city": "BAKERSFIELD", "addr:country": "US", "addr:postcode": "93308", "addr:state": "CA", "addr:street_address": "7229 DOLE CT", "amenity": "post_box", "collection_times": "Mo-Fr 16:00; Sa 14:00", "note": "ON 12/24 AND 12/31, THIS BOX MAY BE COLLECTED AS EARLY AS 12 NOON.", "nsi_id": "unitedstatespostalservice-a77078", "operator": "United States Postal Service", "operator:short": "USPS", "operator:type": "public", "operator:wikidata": "Q668687", "ref": "9330800015"}, "type": "Feature"}
{"geometry": {"coordinates": [-119.091548, 35.402092], "type": "Point"}, "id": "XwxDs8L3eiIC078C02ncguPm34w=", "properties": {"@source_uri": "https://tools.usps.com/UspsToolsRestServices/rest/POLocator/findLocations", "@spider": "usps_collection_boxes", "addr:city": "BAKERSFIELD", "addr:country": "US", "addr:postcode": "93308", "addr:state": "CA", "addr:street_address": "4700 COFFEE RD", "amenity": "post_box", "collection_times": "Mo-Sa 12:00", "nsi_id": "unitedstatespostalservice-a77078", "operator": "United States Postal Service", "operator:short": "USPS", "operator:type": "public", "operator:wikidata": "Q668687", "ref": "9330800016"}, "type": "Feature"}
{"geometry": {"coordinates": [-119.02453, 35.42225], "type": "Point"}, "id": "HsESHvHHqWA_Aytt1qvQluaw1ME=", "properties": {"@source_uri": "https://tools.usps.com/UspsToolsRestServices/rest/POLocator/findLocations", "@spider": "usps_collection_boxes", "addr:city": "BAKERSFIELD", "addr:country": "US", "addr:postcode": "93308", "addr:state": "CA", "addr:street_address": "118 MINNER AVE", "amenity": "post_box", "collection_times": "Mo-Fr 16:00", "indoor": "yes", "note": "ON 12/24 AND 12/31, THIS BOX MAY BE COLLECTED AS EARLY AS 12 NOON.", "nsi_id": "unitedstatespostalservice-a77078", "operator": "United States Postal Service", "operator:short": "USPS", "operator:type": "public", "operator:wikidata": "Q668687", "ref": "9330800021"}, "type": "Feature"}
{"geometry": {"coordinates": [-119.053485, 35.3353], "type": "Point"}, "id": "hViaEkbBfGutk8AMIkqMFkDXGlI=", "properties": {"@source_uri": "https://tools.usps.com/UspsToolsRestServices/rest/POLocator/findLocations", "@spider": "usps_collection_boxes", "addr:city": "BAKERSFIELD", "addr:country": "US", "addr:postcode": "93309", "addr:state": "CA", "addr:street_address": "2300 BAHAMAS DR", "amenity": "post_box", "collection_times": "Mo-Fr 15:00; Sa 11:30", "note": "ON 12/24 AND 12/31, THIS BOX MAY BE COLLECTED AS EARLY AS 12 NOON.", "nsi_id": "unitedstatespostalservice-a77078", "operator": "United States Postal Service", "operator:short": "USPS", "operator:type": "public", "operator:wikidata": "Q668687", "ref": "9330900004"}, "type": "Feature"}
{"geometry": {"coordinates": [-119.063218, 35.338541], "type": "Point"}, "id": "UHxvhfCcVCKgOOzr7wnyMv61CKU=", "properties": {"@source_uri": "https://tools.usps.com/UspsToolsRestServices/rest/POLocator/findLocations", "@spider": "usps_collection_boxes", "addr:city": "BAKERSFIELD", "addr:country": "US", "addr:postcode": "93309", "addr:state": "CA", "addr:street_address": "5500 MING AVE", "amenity": "post_box", "collection_times": "Mo-Sa 10:00", "nsi_id": "unitedstatespostalservice-a77078", "operator": "United States Postal Service", "operator:short": "USPS", "operator:type": "public", "operator:wikidata": "Q668687", "ref": "9330900024"}, "type": "Feature"}
{"geometry": {"coordinates": [-119.053485, 35.3353], "type": "Point"}, "id": "L9YDVSms9fnc08pntrAUm0O8_II=", "properties": {"@source_uri": "https://tools.usps.com/UspsToolsRestServices/rest/POLocator/findLocations", "@spider": "usps_collection_boxes", "addr:city": "BAKERSFIELD", "addr:country": "US", "addr:postcode": "93309", "addr:state": "CA", "addr:street_address": "5055 BUSINESS PARK N", "amenity": "post_box", "collection_times": "Mo-Fr 15:00; Sa 12:00", "note": "ON 12/24 AND 12/31, THIS BOX MAY BE COLLECTED AS EARLY AS 12 NOON.", "nsi_id": "unitedstatespostalservice-a77078", "operator": "United States Postal Service", "operator:short": "USPS", "operator:type": "public", "operator:wikidata": "Q668687", "ref": "9330900029"}, "type": "Feature"}
{"geometry": {"coordinates": [-119.053485, 35.3353], "type": "Point"}, "id": "jyvwvGh7cJztsVLDlrDRzQJ_FKY=", "properties": {"@source_uri": "https://tools.usps.com/UspsToolsRestServices/rest/POLocator/findLocations", "@spider": "usps_collection_boxes", "addr:city": "BAKERSFIELD", "addr:country": "US", "addr:postcode": "93309", "addr:state": "CA", "addr:street_address": "5401 BUSINESS PARK S", "amenity": "post_box", "collection_times": "Mo-Fr 15:00; Sa 12:00", "note": "ON 12/24 AND 12/31, THIS BOX MAY BE COLLECTED AS EARLY AS 12 NOON.", "nsi_id": "unitedstatespostalservice-a77078", "operator": "United States Postal Service", "operator:short": "USPS", "operator:type": "public", "operator:wikidata": "Q668687", "ref": "9330900034"}, "type": "Feature"}
{"geometry": {"coordinates": [-119.053485, 35.3353], "type": "Point"}, "id": "ygHSJFRExtd3arsp2_wpbVWEpJ4=", "properties": {"@source_uri": "https://tools.usps.com/UspsToolsRestServices/rest/POLocator/findLocations", "@spider": "usps_collection_boxes", "addr:city": "BAKERSFIELD", "addr:country": "US", "addr:postcode": "93309", "addr:state": "CA", "addr:street_address": "1200 DISCOVERY DR", "amenity": "post_box", "collection_times": "Mo-Fr 15:00; Sa 12:30", "note": "ON 12/24 AND 12/31, THIS BOX MAY BE COLLECTED AS EARLY AS 12 NOON.", "nsi_id": "unitedstatespostalservice-a77078", "operator": "United States Postal Service", "operator:short": "USPS", "operator:type": "public", "operator:wikidata": "Q668687", "ref": "9330900062"}, "type": "Feature"}
{"geometry": {"coordinates": [-119.053485, 35.3353], "type": "Point"}, "id": "-v6PoDreF38RMoDYYYRs2Vt0G_4=", "properties": {"@source_uri": "https://tools.usps.com/UspsToolsRestServices/rest/POLocator/findLocations", "@spider": "usps_collection_boxes", "addr:city": "BAKERSFIELD", "addr:country": "US", "addr:postcode": "93309", "addr:state": "CA", "addr:street_address": "5055 BUSINESS PARK N", "amenity": "post_box", "collection_times": "Mo-Fr 15:00; Sa 12:00", "note": "ON 12/24 AND 12/31, THIS BOX MAY BE COLLECTED AS EARLY AS 12 NOON.", "nsi_id": "unitedstatespostalservice-a77078", "operator": "United States Postal Service", "operator:short": "USPS", "operator:type": "public", "operator:wikidata": "Q668687", "ref": "9330900065"}, "type": "Feature"}
{"geometry": {"coordinates": [-119.053485, 35.3353], "type": "Point"}, "id": "zD2coXr94eq7CTQgyKykxKG3Zk0=", "properties": {"@source_uri": "https://tools.usps.com/UspsToolsRestServices/rest/POLocator/findLocations", "@spider": "usps_collection_boxes", "addr:city": "BAKERSFIELD", "addr:country": "US", "addr:postcode": "93309", "addr:state": "CA", "addr:street_address": "5330 OFFICE CENTER CT", "amenity": "post_box", "collection_times": "Mo-Fr 15:00; Sa 12:00", "note": "ON 12/24 AND 12/31, THIS BOX MAY BE COLLECTED AS EARLY AS 12 NOON.", "nsi_id": "unitedstatespostalservice-a77078", "operator": "United States Postal Service", "operator:short": "USPS", "operator:type": "public", "operator:wikidata": "Q668687", "ref": "9330900067"}, "type": "Feature"}
{"geometry": {"coordinates": [-119.0631635255, 35.3541575206], "type": "Point"}, "id": "9eYd_VuVA55BTyENZyHkoVRFV_I=", "properties": {"@source_uri": "https://tools.usps.com/UspsToolsRestServices/rest/POLocator/findLocations", "@spider": "usps_collection_boxes", "addr:city": "BAKERSFIELD", "addr:country": "US", "addr:postcode": "93309", "addr:state": "CA", "addr:street_address": "5501 STOCKDALE HWY", "amenity": "post_box", "collection_times": "Mo-Fr 17:00; Sa 13:00", "indoor": "yes", "note": "ON 12/24 AND 12/31, THIS BOX MAY BE COLLECTED AS EARLY AS 12 NOON.", "nsi_id": "unitedstatespostalservice-a77078", "operator": "United States Postal Service", "operator:short": "USPS", "operator:type": "public", "operator:wikidata": "Q668687", "ref": "9330900081"}, "type": "Feature"}
{"geometry": {"coordinates": [-119.053485, 35.3353], "type": "Point"}, "id": "wlWnYXkZkmET0z_1AzoEpgXYEf4=", "properties": {"@source_uri": "https://tools.usps.com/UspsToolsRestServices/rest/POLocator/findLocations", "@spider": "usps_collection_boxes", "addr:city": "BAKERSFIELD", "addr:country": "US", "addr:postcode": "93309", "addr:state": "CA", "addr:street_address": "5330 OFFICE CENTER CT", "amenity": "post_box", "collection_times": "Mo-Fr 15:00; Sa 12:00", "note": "ON 12/24 AND 12/31, THIS BOX MAY BE COLLECTED AS EARLY AS 12 NOON.", "nsi_id": "unitedstatespostalservice-a77078", "operator": "United States Postal Service", "operator:short": "USPS", "operator:type": "public", "operator:wikidata": "Q668687", "ref": "9330900084"}, "type": "Feature"}
{"geometry": {"coordinates": [-119.062275, 35.365711], "type": "Point"}, "id": "Zjf10EkzflvBg564fkl8NUxN-Fo=", "properties": {"@source_uri": "https://tools.usps.com/UspsToolsRestServices/rest/POLocator/findLocations", "@spider": "usps_collection_boxes", "addr:city": "BAKERSFIELD", "addr:country": "US", "addr:postcode": "93309", "addr:state": "CA", "addr:street_address": "5369 OFFICE PARK DR", "amenity": "post_box", "collection_times": "Mo-Sa 10:00", "nsi_id": "unitedstatespostalservice-a77078", "operator": "United States Postal Service", "operator:short": "USPS", "operator:type": "public", "operator:wikidata": "Q668687", "ref": "9330900091"}, "type": "Feature"}
{"geometry": {"coordinates": [-119.0631635255, 35.3541575206], "type": "Point"}, "id": "m9e1zeefAf540rc5FdF-Q69KsuI=", "properties": {"@source_uri": "https://tools.usps.com/UspsToolsRestServices/rest/POLocator/findLocations", "@spider": "usps_collection_boxes", "addr:city": "BAKERSFIELD", "addr:country": "US", "addr:postcode": "93309", "addr:state": "CA", "addr:street_address": "5501 STOCKDALE HWY", "amenity": "post_box", "collection_times": "Mo-Fr 17:00; Sa 13:00", "indoor": "yes", "note": "ON 12/24 AND 12/31, THIS BOX MAY BE COLLECTED AS EARLY AS 12 NOON.", "nsi_id": "unitedstatespostalservice-a77078", "operator": "United States Postal Service", "operator:short": "USPS", "operator:type": "public", "operator:wikidata": "Q668687", "ref": "9330900094"}, "type": "Feature"}
{"geometry": {"coordinates": [-119.0631635255, 35.3541575206], "type": "Point"}, "id": "wxwfGDQKujBmrwvQxDXs-sxziXw=", "properties": {"@source_uri": "https://tools.usps.com/UspsToolsRestServices/rest/POLocator/findLocations", "@spider": "usps_collection_boxes", "addr:city": "BAKERSFIELD", "addr:country": "US", "addr:postcode": "93309", "addr:state": "CA", "addr:street_address": "5501 STOCKDALE HWY", "amenity": "post_box", "collection_times": "Mo-Fr 17:00; Sa 13:00", "name": "USPS COLLECTION BOX - APC", "note": "ON 12/24 AND 12/31, THIS BOX MAY BE COLLECTED AS EARLY AS 12 NOON.", "nsi_id": "unitedstatespostalservice-a77078", "operator": "United States Postal Service", "operator:short": "USPS", "operator:type": "public", "operator:wikidata": "Q668687", "ref": "9330900095"}, "type": "Feature"}
{"geometry": {"coordinates": [-119.053485, 35.3353], "type": "Point"}, "id": "BjvPKGqAJckb3RRV7bhQLCvI7OI=", "properties": {"@source_uri": "https://tools.usps.com/UspsToolsRestServices/rest/POLocator/findLocations", "@spider": "usps_collection_boxes", "addr:city": "BAKERSFIELD", "addr:country": "US", "addr:postcode": "93309", "addr:state": "CA", "addr:street_address": "1001 TOWER WAY", "amenity": "post_box", "collection_times": "Mo-Fr 15:00; Sa 12:30", "note": "ON 12/24 AND 12/31, THIS BOX MAY BE COLLECTED AS EARLY AS 12 NOON.", "nsi_id": "unitedstatespostalservice-a77078", "operator": "United States Postal Service", "operator:short": "USPS", "operator:type": "public", "operator:wikidata": "Q668687", "ref": "9330900096"}, "type": "Feature"}
{"geometry": {"coordinates": [-119.045054, 35.369921], "type": "Point"}, "id": "_UYZxpJngOahklhintjlIb3S9ho=", "properties": {"@source_uri": "https://tools.usps.com/UspsToolsRestServices/rest/POLocator/findLocations", "@spider": "usps_collection_boxes", "addr:city": "BAKERSFIELD", "addr:country": "US", "addr:postcode": "93309", "addr:state": "CA", "addr:street_address": "1400 EASTON DR", "amenity": "post_box", "collection_times": "Mo-Sa 10:00", "nsi_id": "unitedstatespostalservice-a77078", "operator": "United States Postal Service", "operator:short": "USPS", "operator:type": "public", "operator:wikidata": "Q668687", "ref": "9330900105"}, "type": "Feature"}
{"geometry": {"coordinates": [-119.0631635255, 35.3541575206], "type": "Point"}, "id": "gJ4XeECsC-65qAoSLxBfotJ8TOc=", "properties": {"@source_uri": "https://tools.usps.com/UspsToolsRestServices/rest/POLocator/findLocations", "@spider": "usps_collection_boxes", "addr:city": "BAKERSFIELD", "addr:country": "US", "addr:postcode": "93309", "addr:state": "CA", "addr:street_address": "5501 STOCKDALE HWY", "amenity": "post_box", "collection_times": "Mo-Fr 17:30", "indoor": "yes", "note": "ON 12/24 AND 12/31, THIS BOX MAY BE COLLECTED AS EARLY AS 12 NOON.", "nsi_id": "unitedstatespostalservice-a77078", "operator": "United States Postal Service", "operator:short": "USPS", "operator:type": "public", "operator:wikidata": "Q668687", "ref": "9330900110"}, "type": "Feature"}
{"geometry": {"coordinates": [-119.113223, 35.351706], "type": "Point"}, "id": "bG7LEN0iib1fIi8q9x51bBwloAM=", "properties": {"@source_uri": "https://tools.usps.com/UspsToolsRestServices/rest/POLocator/findLocations", "@spider": "usps_collection_boxes", "addr:city": "BAKERSFIELD", "addr:country": "US", "addr:postcode": "93311", "addr:state": "CA", "addr:street_address": "500 OLD RIVER RD", "amenity": "post_box", "collection_times": "Mo-Sa 10:00", "nsi_id": "unitedstatespostalservice-a77078", "operator": "United States Postal Service", "operator:short": "USPS", "operator:type": "public", "operator:wikidata": "Q668687", "ref": "9331100003"}, "type": "Feature"}
{"geometry": {"coordinates": [-119.1133266165, 35.3443308737], "type": "Point"}, "id": "Nlxkq2xUU9tPqngK9MYYmuhDL7E=", "properties": {"@source_uri": "https://tools.usps.com/UspsToolsRestServices/rest/POLocator/findLocations", "@spider": "usps_collection_boxes", "addr:city": "BAKERSFIELD", "addr:country": "US", "addr:postcode": "93311", "addr:state": "CA", "addr:street_address": "10001 CAMINO MEDIA", "amenity": "post_box", "collection_times": "Mo-Fr 17:00; Sa 13:00", "name": "USPS COLLECTION BOX - EXPRESS", "note": "ON 12/24 AND 12/31, THIS BOX MAY BE COLLECTED AS EARLY AS 12 NOON.", "nsi_id": "unitedstatespostalservice-a77078", "operator": "United States Postal Service", "operator:short": "USPS", "operator:type": "public", "operator:wikidata": "Q668687", "ref": "9331100009"}, "type": "Feature"}
{"geometry": {"coordinates": [-119.1133266165, 35.3443308737], "type": "Point"}, "id": "1sAh09OQw8uPcKNJOYEYO6ah0Kw=", "properties": {"@source_uri": "https://tools.usps.com/UspsToolsRestServices/rest/POLocator/findLocations", "@spider": "usps_collection_boxes", "addr:city": "BAKERSFIELD", "addr:country": "US", "addr:postcode": "93311", "addr:state": "CA", "addr:street_address": "10001 CAMINO MEDIA", "amenity": "post_box", "collection_times": "Mo-Fr 17:00; Sa 13:00", "indoor": "yes", "note": "ON 12/24 AND 12/31, THIS BOX MAY BE COLLECTED AS EARLY AS 12 NOON.", "nsi_id": "unitedstatespostalservice-a77078", "operator": "United States Postal Service", "operator:short": "USPS", "operator:type": "public", "operator:wikidata": "Q668687", "ref": "9331100012"}, "type": "Feature"}
{"geometry": {"coordinates": [-119.1133266165, 35.3443308737], "type": "Point"}, "id": "sxfABEhIYN6VDiRfbQpMx_L3o3E=", "properties": {"@source_uri": "https://tools.usps.com/UspsToolsRestServices/rest/POLocator/findLocations", "@spider": "usps_collection_boxes", "addr:city": "BAKERSFIELD", "addr:country": "US", "addr:postcode": "93311", "addr:state": "CA", "addr:street_address": "10001 CAMINO MEDIA", "amenity": "post_box", "collection_times": "Mo-Fr 17:00; Sa 13:00", "indoor": "yes", "note": "ON 12/24 AND 12/31, THIS BOX MAY BE COLLECTED AS EARLY AS 12 NOON.", "nsi_id": "unitedstatespostalservice-a77078", "operator": "United States Postal Service", "operator:short": "USPS", "operator:type": "public", "operator:wikidata": "Q668687", "ref": "9331100013"}, "type": "Feature"}
{"geometry": {"coordinates": [-119.1133266165, 35.3443308737], "type": "Point"}, "id": "LKVhwuurJUoM7BkztXaIW3ZJKl0=", "properties": {"@source_uri": "https://tools.usps.com/UspsToolsRestServices/rest/POLocator/findLocations", "@spider": "usps_collection_boxes", "addr:city": "BAKERSFIELD", "addr:country": "US", "addr:postcode": "93311", "addr:state": "CA", "addr:street_address": "10001 CAMINO MEDIA", "amenity": "post_box", "collection_times": "Mo-Fr 17:00; Sa 13:00", "indoor": "yes", "note": "ON 12/24 AND 12/31, THIS BOX MAY BE COLLECTED AS EARLY AS 12 NOON.", "nsi_id": "unitedstatespostalservice-a77078", "operator": "United States Postal Service", "operator:short": "USPS", "operator:type": "public", "operator:wikidata": "Q668687", "ref": "9331100014"}, "type": "Feature"}
{"geometry": {"coordinates": [-119.1133266165, 35.3443308737], "type": "Point"}, "id": "41b-QdlFm2GiXom0F0GX9AOB6bo=", "properties": {"@source_uri": "https://tools.usps.com/UspsToolsRestServices/rest/POLocator/findLocations", "@spider": "usps_collection_boxes", "addr:city": "BAKERSFIELD", "addr:country": "US", "addr:postcode": "93311", "addr:state": "CA", "addr:street_address": "10001 CAMINO MEDIA", "amenity": "post_box", "collection_times": "Mo-Fr 17:00; Sa 13:00", "name": "USPS COLLECTION BOX - APC", "note": "ON 12/24 AND 12/31, THIS BOX MAY BE COLLECTED AS EARLY AS 12 NOON.", "nsi_id": "unitedstatespostalservice-a77078", "operator": "United States Postal Service", "operator:short": "USPS", "operator:type": "public", "operator:wikidata": "Q668687", "ref": "9331100015"}, "type": "Feature"}
{"geometry": {"coordinates": [-119.1133266165, 35.3443308737], "type": "Point"}, "id": "APvJfvilw-4cSWedj-Wrhnt72jI=", "properties": {"@source_uri": "https://tools.usps.com/UspsToolsRestServices/rest/POLocator/findLocations", "@spider": "usps_collection_boxes", "addr:city": "BAKERSFIELD", "addr:country": "US", "addr:postcode": "93311", "addr:state": "CA", "addr:street_address": "10001 CAMINO MEDIA", "amenity": "post_box", "collection_times": "Mo-Fr 17:00; Sa 13:00", "note": "ON 12/24 AND 12/31, THIS BOX MAY BE COLLECTED AS EARLY AS 12 NOON.", "nsi_id": "unitedstatespostalservice-a77078", "operator": "United States Postal Service", "operator:short": "USPS", "operator:type": "public", "operator:wikidata": "Q668687", "ref": "9331100017"}, "type": "Feature"}
{"geometry": {"coordinates": [-119.1133266165, 35.3443308737], "type": "Point"}, "id": "lPssEDPFHhhuN-WznP87ql5Amns=", "properties": {"@source_uri": "https://tools.usps.com/UspsToolsRestServices/rest/POLocator/findLocations", "@spider": "usps_collection_boxes", "addr:city": "BAKERSFIELD", "addr:country": "US", "addr:postcode": "93311", "addr:state": "CA", "addr:street_address": "10001 CAMINO MEDIA", "amenity": "post_box", "collection_times": "Mo-Fr 17:00; Sa 13:00", "note": "ON 12/24 AND 12/31, THIS BOX MAY BE COLLECTED AS EARLY AS 12 NOON.", "nsi_id": "unitedstatespostalservice-a77078", "operator": "United States Postal Service", "operator:short": "USPS", "operator:type": "public", "operator:wikidata": "Q668687", "ref": "9331100018"}, "type": "Feature"}
{"geometry": {"coordinates": [-119.1133266165, 35.3443308737], "type": "Point"}, "id": "Bfaqeucharu8tma8wbJjnUPGW4c=", "properties": {"@source_uri": "https://tools.usps.com/UspsToolsRestServices/rest/POLocator/findLocations", "@spider": "usps_collection_boxes", "addr:city": "BAKERSFIELD", "addr:country": "US", "addr:postcode": "93311", "addr:state": "CA", "addr:street_address": "10001 CAMINO MEDIA", "amenity": "post_box", "collection_times": "Mo-Fr 17:00; Sa 13:00", "note": "ON 12/24 AND 12/31, THIS BOX MAY BE COLLECTED AS EARLY AS 12 NOON.", "nsi_id": "unitedstatespostalservice-a77078", "operator": "United States Postal Service", "operator:short": "USPS", "operator:type": "public", "operator:wikidata": "Q668687", "ref": "9331100019"}, "type": "Feature"}
{"geometry": {"coordinates": [-119.1133266165, 35.3443308737], "type": "Point"}, "id": "qAvuVgX2LF-DQXIqS4hpvs6Gj-k=", "properties": {"@source_uri": "https://tools.usps.com/UspsToolsRestServices/rest/POLocator/findLocations", "@spider": "usps_collection_boxes", "addr:city": "BAKERSFIELD", "addr:country": "US", "addr:postcode": "93311", "addr:state": "CA", "addr:street_address": "10001 CAMINO MEDIA", "amenity": "post_box", "collection_times": "Mo-Fr 17:00; Sa 13:00", "note": "ON 12/24 AND 12/31, THIS BOX MAY BE COLLECTED AS EARLY AS 12 NOON.", "nsi_id": "unitedstatespostalservice-a77078", "operator": "United States Postal Service", "operator:short": "USPS", "operator:type": "public", "operator:wikidata": "Q668687", "ref": "9331100020"}, "type": "Feature"}
{"geometry": {"coordinates": [-119.1133266165, 35.3443308737], "type": "Point"}, "id": "U_Ap-PfJMTfvFivxBVMppo6kWvo=", "properties": {"@source_uri": "https://tools.usps.com/UspsToolsRestServices/rest/POLocator/findLocations", "@spider": "usps_collection_boxes", "addr:city": "BAKERSFIELD", "addr:country": "US", "addr:postcode": "93311", "addr:state": "CA", "addr:street_address": "10001 CAMINO MEDIA", "amenity": "post_box", "collection_times": "Mo-Fr 17:00", "indoor": "yes", "note": "ON 12/24 AND 12/31, THIS BOX MAY BE COLLECTED AS EARLY AS 12 NOON.", "nsi_id": "unitedstatespostalservice-a77078", "operator": "United States Postal Service", "operator:short": "USPS", "operator:type": "public", "operator:wikidata": "Q668687", "ref": "9331100028"}, "type": "Feature"}
{"geometry": {"coordinates": [-119.068582, 35.436234], "type": "Point"}, "id": "p1lUvqwGYWbhTrnBQcn8ZDmpV5Q=", "properties": {"@source_uri": "https://tools.usps.com/UspsToolsRestServices/rest/POLocator/findLocations", "@spider": "usps_collection_boxes", "addr:city": "BAKERSFIELD", "addr:country": "US", "addr:postcode": "93380", "addr:state": "CA", "addr:street_address": "3400 PEGASUS DR", "amenity": "post_box", "collection_times": "Mo-Fr 17:30; Sa 16:00", "name": "USPS COLLECTION BOX - EXPRESS", "note": "ON 12/24 AND 12/31, THIS BOX MAY BE COLLECTED AS EARLY AS 12 NOON.", "nsi_id": "unitedstatespostalservice-a77078", "operator": "United States Postal Service", "operator:short": "USPS", "operator:type": "public", "operator:wikidata": "Q668687", "ref": "9338000002"}, "type": "Feature"}
{"geometry": {"coordinates": [-119.068601, 35.436211], "type": "Point"}, "id": "gcG_xQofVrU5I7zWN6OZs-jGEu0=", "properties": {"@source_uri": "https://tools.usps.com/UspsToolsRestServices/rest/POLocator/findLocations", "@spider": "usps_collection_boxes", "addr:city": "BAKERSFIELD", "addr:country": "US", "addr:postcode": "93380", "addr:state": "CA", "addr:street_address": "3400 PEGASUS DR", "amenity": "post_box", "collection_times": "Mo-Fr 18:00; Sa 16:00", "indoor": "yes", "note": "ON 12/24 AND 12/31, THIS BOX MAY BE COLLECTED AS EARLY AS 12 NOON.", "nsi_id": "unitedstatespostalservice-a77078", "operator": "United States Postal Service", "operator:short": "USPS", "operator:type": "public", "operator:wikidata": "Q668687", "ref": "9338000006"}, "type": "Feature"}
{"geometry": {"coordinates": [-119.068601, 35.436211], "type": "Point"}, "id": "EYafHX3LF3pYwevoITVaCR7v-cQ=", "properties": {"@source_uri": "https://tools.usps.com/UspsToolsRestServices/rest/POLocator/findLocations", "@spider": "usps_collection_boxes", "addr:city": "BAKERSFIELD", "addr:country": "US", "addr:postcode": "93380", "addr:state": "CA", "addr:street_address": "3400 PEGASUS DR", "amenity": "post_box", "collection_times": "Mo-Fr 18:00; Sa 16:00", "note": "ON 12/24 AND 12/31, THIS BOX MAY BE COLLECTED AS EARLY AS 12 NOON.", "nsi_id": "unitedstatespostalservice-a77078", "operator": "United States Postal Service", "operator:short": "USPS", "operator:type": "public", "operator:wikidata": "Q668687", "ref": "9338000008"}, "type": "Feature"}
{"geometry": {"coordinates": [-119.0679411967, 35.4356968299], "type": "Point"}, "id": "KJXkbzyQnWsBXS036qKW63ABgf8=", "properties": {"@source_uri": "https://tools.usps.com/UspsToolsRestServices/rest/POLocator/findLocations", "@spider": "usps_collection_boxes", "addr:city": "BAKERSFIELD", "addr:country": "US", "addr:postcode": "93380", "addr:state": "CA", "addr:street_address": "3400 PEGASUS DR", "amenity": "post_box", "collection_times": "Mo-Fr 18:00; Sa 16:00", "note": "ON 12/24 AND 12/31, THIS BOX MAY BE COLLECTED AS EARLY AS 12 NOON.", "nsi_id": "unitedstatespostalservice-a77078", "operator": "United States Postal Service", "operator:short": "USPS", "operator:type": "public", "operator:wikidata": "Q668687", "ref": "9338000009"}, "type": "Feature"}
