{"geometry": {"coordinates": [-120.662326, 35.282651], "type": "Point"}, "id": "8-dMp4HUvLxDrIvGcN6hB6Wv8e8=", "properties": {"@spider": "usps_collection_boxes", "addr:city": "SAN LUIS OBISPO", "addr:country": "US", "addr:full": "990 PALM ST", "addr:postcode": "93401", "addr:state": "CA", "brand": "USPS", "collection_times": "Mo-Sa 15:00", "name": "USPS COLLECTION BOX - BLUE BOX", "note": "ON 12/24 AND 12/31, THIS BOX MAY BE COLLECTED AS EARLY AS 12 NOON.", "ref": "9340100038"}, "type": "Feature"}
{"geometry": {"coordinates": [-120.661467, 35.282952], "type": "Point"}, "id": "zfKkG4mqVnDh4H1TKu1ZPpXdCuw=", "properties": {"@spider": "usps_collection_boxes", "addr:city": "SAN LUIS OBISPO", "addr:country": "US", "addr:full": "1035 PALM ST", "addr:postcode": "93401", "addr:state": "CA", "brand": "USPS", "collection_times": "Mo-Sa 15:00", "name": "USPS COLLECTION BOX - BLUE BOX", "note": "ON 12/24 AND 12/31, THIS BOX MAY BE COLLECTED AS EARLY AS 12 NOON.", "ref": "9340100039"}, "type": "Feature"}
{"geometry": {"coordinates": [-120.657850385, 35.282834555], "type": "Point"}, "id": "DwWaqtIB0vgfp2P4qwbIBsCTPwU=", "properties": {"@spider": "usps_collection_boxes", "addr:city": "SAN LUIS OBISPO", "addr:country": "US", "addr:full": "1100 TORO ST", "addr:postcode": "93401", "addr:state": "CA", "brand": "USPS", "collection_times": "Mo-Sa 15:00", "name": "USPS COLLECTION BOX - BLUE BOX", "note": "ON 12/24 AND 12/31, THIS BOX MAY BE COLLECTED AS EARLY AS 12 NOON.", "ref": "9340100047"}, "type": "Feature"}
{"geometry": {"coordinates": [-120.645294, 35.27414], "type": "Point"}, "id": "GSIeBFd67sSq0dbr-HzqplUX630=", "properties": {"@spider": "usps_collection_boxes", "addr:city": "SAN LUIS OBISPO", "addr:country": "US", "addr:full": "1551 BISHOP ST", "addr:postcode": "93401", "addr:state": "CA", "brand": "USPS", "collection_times": "Mo-Sa 10:00", "name": "USPS COLLECTION BOX - BLUE BOX", "ref": "9340100051"}, "type": "Feature"}
{"geometry": {"coordinates": [-120.645109, 35.257467], "type": "Point"}, "id": "PyUUIlMsY7YS8fNc-4F7CBvDnoA=", "properties": {"@spider": "usps_collection_boxes", "addr:city": "SAN LUIS OBISPO", "addr:country": "US", "addr:full": "3485 SACRAMENTO DR", "addr:postcode": "93401", "addr:state": "CA", "brand": "USPS", "collection_times": "Mo-Sa 10:00", "name": "USPS COLLECTION BOX - BLUE BOX", "ref": "9340100052"}, "type": "Feature"}
{"geometry": {"coordinates": [-120.650306, 35.277455], "type": "Point"}, "id": "oJceka5gynEeYjnqtjduW8Ce_W0=", "properties": {"@spider": "usps_collection_boxes", "addr:city": "SAN LUIS OBISPO", "addr:country": "US", "addr:full": "1941 JOHNSON AVE", "addr:postcode": "93401", "addr:state": "CA", "brand": "USPS", "collection_times": "Mo-Sa 10:00", "name": "USPS COLLECTION BOX - BLUE BOX", "ref": "9340100053"}, "type": "Feature"}
{"geometry": {"coordinates": [-120.6687024449, 35.2568698426], "type": "Point"}, "id": "ZKZamTcUlGeSgp8y8xH7m8Z2DcY=", "properties": {"@spider": "usps_collection_boxes", "addr:city": "SAN LUIS OBISPO", "addr:country": "US", "addr:full": "3196 S HIGUERA ST", "addr:postcode": "93401", "addr:state": "CA", "brand": "USPS", "collection_times": "Mo-Sa 11:00", "name": "USPS COLLECTION BOX - BLUE BOX", "ref": "9340100077"}, "type": "Feature"}
{"geometry": {"coordinates": [-120.6611887699, 35.2796574987], "type": "Point"}, "id": "7_RO7BdvFRVEztLOd3p6fg44uxk=", "properties": {"@spider": "usps_collection_boxes", "addr:city": "SAN LUIS OBISPO", "addr:country": "US", "addr:full": "893 MARSH ST", "addr:postcode": "93401", "addr:state": "CA", "brand": "USPS", "collection_times": "Mo-Fr 17:00; Sa 14:00", "name": "USPS COLLECTION BOX - PO LOBBY", "note": "ON 12/24 AND 12/31, THIS BOX MAY BE COLLECTED AS EARLY AS 12 NOON.", "ref": "9340100090"}, "type": "Feature"}
{"geometry": {"coordinates": [-120.642317, 35.246247], "type": "Point"}, "id": "r_7L6odK6aNIc4GNePitEERri30=", "properties": {"@spider": "usps_collection_boxes", "addr:city": "SAN LUIS OBISPO", "addr:country": "US", "addr:full": "4115 BROAD ST", "addr:postcode": "93401", "addr:state": "CA", "brand": "USPS", "collection_times": "Mo-Sa 10:00", "name": "USPS COLLECTION BOX - BLUE BOX", "ref": "9340100092"}, "type": "Feature"}
{"geometry": {"coordinates": [-120.6611887699, 35.2796574987], "type": "Point"}, "id": "IYVCqgdrYekdNTJx_yHtVUrj0GQ=", "properties": {"@spider": "usps_collection_boxes", "addr:city": "SAN LUIS OBISPO", "addr:country": "US", "addr:full": "893 MARSH ST", "addr:postcode": "93401", "addr:state": "CA", "brand": "USPS", "collection_times": "Mo-Fr 17:00; Sa 14:00", "name": "USPS COLLECTION BOX - APC", "note": "ON 12/24 AND 12/31, THIS BOX MAY BE COLLECTED AS EARLY AS 12 NOON.", "ref": "9340100093"}, "type": "Feature"}
{"geometry": {"coordinates": [-120.660767, 35.280054], "type": "Point"}, "id": "YkDbR-u60U_DLPEmhC6E1Tkz53I=", "properties": {"@spider": "usps_collection_boxes", "addr:city": "SAN LUIS OBISPO", "addr:country": "US", "addr:full": "980 MARSH ST", "addr:postcode": "93401", "addr:state": "CA", "brand": "USPS", "collection_times": "Mo-Sa 15:00", "name": "USPS COLLECTION BOX - EXPRESS", "note": "ON 12/24 AND 12/31, THIS BOX MAY BE COLLECTED AS EARLY AS 12 NOON.", "ref": "9340100097"}, "type": "Feature"}
{"geometry": {"coordinates": [-120.66074, 35.28006], "type": "Point"}, "id": "oiZXq2e4vqee0qn6IXvgOOjc6Xs=", "properties": {"@spider": "usps_collection_boxes", "addr:city": "SAN LUIS OBISPO", "addr:country": "US", "addr:full": "980 MARSH ST", "addr:postcode": "93401", "addr:state": "CA", "brand": "USPS", "collection_times": "Mo-Sa 15:00", "name": "USPS COLLECTION BOX - BLUE BOX", "note": "ON 12/24 AND 12/31, THIS BOX MAY BE COLLECTED AS EARLY AS 12 NOON.", "ref": "9340100100"}, "type": "Feature"}
{"geometry": {"coordinates": [-120.6792728054, 35.2606563508], "type": "Point"}, "id": "iZKLWJVHNaPS6vsHSfU6sCs2keA=", "properties": {"@spider": "usps_collection_boxes", "addr:city": "SAN LUIS OBISPO", "addr:country": "US", "addr:full": "1655 DALIDIO DR", "addr:postcode": "93401", "addr:state": "CA", "brand": "USPS", "collection_times": "Mo-Fr 17:30", "name": "USPS COLLECTION BOX - PO LOBBY", "note": "ON 12/24 AND 12/31, THIS BOX MAY BE COLLECTED AS EARLY AS 12 NOON.", "ref": "9340100107"}, "type": "Feature"}
{"geometry": {"coordinates": [-120.6611887699, 35.2796574987], "type": "Point"}, "id": "-vebkiutlIMUs3zKSPs12166qUg=", "properties": {"@spider": "usps_collection_boxes", "addr:city": "SAN LUIS OBISPO", "addr:country": "US", "addr:full": "893 MARSH ST", "addr:postcode": "93401", "addr:state": "CA", "brand": "USPS", "collection_times": "Mo-Fr 17:00", "name": "USPS COLLECTION BOX - PO LOBBY", "note": "ON 12/24 AND 12/31, THIS BOX MAY BE COLLECTED AS EARLY AS 12 NOON.", "ref": "9340100108"}, "type": "Feature"}
{"geometry": {"coordinates": [-120.8287345912, 35.3107086089], "type": "Point"}, "id": "smAYlxkC4wGCgOvHJ6JCZ_UDlZo=", "properties": {"@spider": "usps_collection_boxes", "addr:city": "LOS OSOS", "addr:country": "US", "addr:full": "1189 LOS OSOS VALLEY RD", "addr:postcode": "93402", "addr:state": "CA", "brand": "USPS", "collection_times": "Mo-Fr 17:00; Sa 14:00", "name": "USPS COLLECTION BOX - BLUE BOX", "note": "ON 12/24 AND 12/31, THIS BOX MAY BE COLLECTED AS EARLY AS 12 NOON.", "ref": "9340200000"}, "type": "Feature"}
{"geometry": {"coordinates": [-120.8287345912, 35.3107086089], "type": "Point"}, "id": "JukkwapH2_-7mPEy6R1Fg0sM9Gk=", "properties": {"@spider": "usps_collection_boxes", "addr:city": "LOS OSOS", "addr:country": "US", "addr:full": "1189 LOS OSOS VALLEY RD", "addr:postcode": "93402", "addr:state": "CA", "brand": "USPS", "collection_times": "Mo-Fr 17:00; Sa 14:00", "name": "USPS COLLECTION BOX - BLUE BOX", "note": "ON 12/24 AND 12/31, THIS BOX MAY BE COLLECTED AS EARLY AS 12 NOON.", "ref": "9340200001"}, "type": "Feature"}
{"geometry": {"coordinates": [-120.832628, 35.310923], "type": "Point"}, "id": "jEYtL5X1sTjsySiL5Z896gJMPEA=", "properties": {"@spider": "usps_collection_boxes", "addr:city": "LOS OSOS", "addr:country": "US", "addr:full": "1001 LOS OSOS VALLEY RD", "addr:postcode": "93402", "addr:state": "CA", "brand": "USPS", "collection_times": "Mo-Sa 10:00", "name": "USPS COLLECTION BOX - BLUE BOX", "ref": "9340200005"}, "type": "Feature"}
{"geometry": {"coordinates": [-120.8287345912, 35.3107086089], "type": "Point"}, "id": "hMbpfrjUmitkndHnEJns7oIK3_g=", "properties": {"@spider": "usps_collection_boxes", "addr:city": "LOS OSOS", "addr:country": "US", "addr:full": "1189 LOS OSOS VALLEY RD", "addr:postcode": "93402", "addr:state": "CA", "brand": "USPS", "collection_times": "Mo-Fr 17:00; Sa 14:00", "name": "USPS COLLECTION BOX - PO LOBBY", "note": "ON 12/24 AND 12/31, THIS BOX MAY BE COLLECTED AS EARLY AS 12 NOON.", "ref": "9340200006"}, "type": "Feature"}
{"geometry": {"coordinates": [-120.8287345912, 35.3107086089], "type": "Point"}, "id": "S-mv1fjwGAgnecJywkhyqa0hvL8=", "properties": {"@spider": "usps_collection_boxes", "addr:city": "LOS OSOS", "addr:country": "US", "addr:full": "1189 LOS OSOS VALLEY RD", "addr:postcode": "93402", "addr:state": "CA", "brand": "USPS", "collection_times": "Mo-Fr 17:00", "name": "USPS COLLECTION BOX - PO LOBBY", "note": "ON 12/24 AND 12/31, THIS BOX MAY BE COLLECTED AS EARLY AS 12 NOON.", "ref": "9340200008"}, "type": "Feature"}
{"geometry": {"coordinates": [-120.680579, 35.260786], "type": "Point"}, "id": "FYZryp1a4ghHsnczBvE_5RcTnNw=", "properties": {"@spider": "usps_collection_boxes", "addr:city": "SAN LUIS OBISPO", "addr:country": "US", "addr:full": "1655 DALIDIO DR", "addr:postcode": "93405", "addr:state": "CA", "brand": "USPS", "collection_times": "Mo-Fr 17:30; Sa 10:00", "name": "USPS COLLECTION BOX - BLUE BOX", "note": "ON 12/24 AND 12/31, THIS BOX MAY BE COLLECTED AS EARLY AS 12 NOON.", "ref": "9340500000"}, "type": "Feature"}
{"geometry": {"coordinates": [-120.680592, 35.260797], "type": "Point"}, "id": "DojdcTIoHI4cchjCDVdvd_KkdiY=", "properties": {"@spider": "usps_collection_boxes", "addr:city": "SAN LUIS OBISPO", "addr:country": "US", "addr:full": "1655 DALIDIO DR", "addr:postcode": "93405", "addr:state": "CA", "brand": "USPS", "collection_times": "Mo-Fr 17:30; Sa 10:00", "name": "USPS COLLECTION BOX - EXPRESS", "note": "ON 12/24 AND 12/31, THIS BOX MAY BE COLLECTED AS EARLY AS 12 NOON.", "ref": "9340500001"}, "type": "Feature"}
{"geometry": {"coordinates": [-120.680566, 35.260765], "type": "Point"}, "id": "BTc068ss5MP3JKTcixLMLk_45oE=", "properties": {"@spider": "usps_collection_boxes", "addr:city": "SAN LUIS OBISPO", "addr:country": "US", "addr:full": "1655 DALIDIO DR", "addr:postcode": "93405", "addr:state": "CA", "brand": "USPS", "collection_times": "Mo-Fr 17:30; Sa 10:00", "name": "USPS COLLECTION BOX - BLUE BOX", "note": "ON 12/24 AND 12/31, THIS BOX MAY BE COLLECTED AS EARLY AS 12 NOON.", "ref": "9340500003"}, "type": "Feature"}
{"geometry": {"coordinates": [-120.68016, 35.260671], "type": "Point"}, "id": "SnUWhROts00iOBOzEynWC7kIHPY=", "properties": {"@spider": "usps_collection_boxes", "addr:city": "SAN LUIS OBISPO", "addr:country": "US", "addr:full": "1655 DALIDIO DR", "addr:postcode": "93405", "addr:state": "CA", "brand": "USPS", "collection_times": "Mo-Fr 17:30; Sa 10:00", "name": "USPS COLLECTION BOX - PO LOBBY", "note": "ON 12/24 AND 12/31, THIS BOX MAY BE COLLECTED AS EARLY AS 12 NOON.", "ref": "9340500004"}, "type": "Feature"}
{"geometry": {"coordinates": [-120.664814, 35.292589], "type": "Point"}, "id": "ZYghQBa2MqrqXpEF733YLCMiBgk=", "properties": {"@spider": "usps_collection_boxes", "addr:city": "SAN LUIS OBISPO", "addr:country": "US", "addr:full": "100 CASA ST", "addr:postcode": "93405", "addr:state": "CA", "brand": "USPS", "collection_times": "Mo-Sa 15:00", "name": "USPS COLLECTION BOX - BLUE BOX", "note": "ON 12/24 AND 12/31, THIS BOX MAY BE COLLECTED AS EARLY AS 12 NOON.", "ref": "9340500007"}, "type": "Feature"}
{"geometry": {"coordinates": [-120.658161, 35.301177], "type": "Point"}, "id": "FTa7XGSUATBiBQi7WINgWMVR0PE=", "properties": {"@spider": "usps_collection_boxes", "addr:city": "SAN LUIS OBISPO", "addr:country": "US", "addr:full": "1 GRAND AVE", "addr:postcode": "93405", "addr:state": "CA", "brand": "USPS", "collection_times": "Mo-Sa 10:00", "name": "USPS COLLECTION BOX - BLUE BOX", "ref": "9340500012"}, "type": "Feature"}
{"geometry": {"coordinates": [-120.663073, 35.302177], "type": "Point"}, "id": "75bxjAGf8xR9ZTM3GGMcW-E0JIA=", "properties": {"@spider": "usps_collection_boxes", "addr:city": "SAN LUIS OBISPO", "addr:country": "US", "addr:full": "1 GRAND AVE", "addr:postcode": "93405", "addr:state": "CA", "brand": "USPS", "collection_times": "Mo-Sa 10:00", "name": "USPS COLLECTION BOX - BLUE BOX", "ref": "9340500014"}, "type": "Feature"}
{"geometry": {"coordinates": [-120.665787, 35.295697], "type": "Point"}, "id": "K8v5ruB7iemH76wTQ0G_-4M7jGg=", "properties": {"@spider": "usps_collection_boxes", "addr:city": "SAN LUIS OBISPO", "addr:country": "US", "addr:full": "1 MUSTANG DR", "addr:postcode": "93405", "addr:state": "CA", "brand": "USPS", "collection_times": "Mo-Sa 10:00", "name": "USPS COLLECTION BOX - BLUE BOX", "ref": "9340500016"}, "type": "Feature"}
{"geometry": {"coordinates": [-120.683558, 35.294986], "type": "Point"}, "id": "Z7StOomrjzXKbn24CZ6NO2YC5UE=", "properties": {"@spider": "usps_collection_boxes", "addr:city": "SAN LUIS OBISPO", "addr:country": "US", "addr:full": "190 PATRICIA DR", "addr:postcode": "93405", "addr:state": "CA", "brand": "USPS", "collection_times": "Mo-Sa 10:00", "name": "USPS COLLECTION BOX - BLUE BOX", "ref": "9340500023"}, "type": "Feature"}
{"geometry": {"coordinates": [-120.68015, 35.260688], "type": "Point"}, "id": "0JyadKIDSEXn4y9XWBG1aYDd2_w=", "properties": {"@spider": "usps_collection_boxes", "addr:city": "SAN LUIS OBISPO", "addr:country": "US", "addr:full": "1655 DALIDIO DR", "addr:postcode": "93405", "addr:state": "CA", "brand": "USPS", "collection_times": "Mo-Fr 17:30; Sa 10:00", "name": "USPS COLLECTION BOX - APC", "note": "ON 12/24 AND 12/31, THIS BOX MAY BE COLLECTED AS EARLY AS 12 NOON.", "ref": "9340500029"}, "type": "Feature"}
{"geometry": {"coordinates": [-120.57732, 35.120866], "type": "Point"}, "id": "OUZvyXcM7TGMqBKVa9PvlwbHfEE=", "properties": {"@spider": "usps_collection_boxes", "addr:city": "ARROYO GRANDE", "addr:country": "US", "addr:full": "227 TRAFFIC WAY", "addr:postcode": "93420", "addr:state": "CA", "brand": "USPS", "collection_times": "Mo-Sa 10:00", "name": "USPS COLLECTION BOX - EXPRESS", "ref": "9342000004"}, "type": "Feature"}
{"geometry": {"coordinates": [-120.577322, 35.120862], "type": "Point"}, "id": "QxkC8hQyPAvvnxr8YOlRnvrEG8A=", "properties": {"@spider": "usps_collection_boxes", "addr:city": "ARROYO GRANDE", "addr:country": "US", "addr:full": "227 TRAFFIC WAY", "addr:postcode": "93420", "addr:state": "CA", "brand": "USPS", "collection_times": "Mo-Sa 10:00", "name": "USPS COLLECTION BOX - BLUE BOX", "ref": "9342000006"}, "type": "Feature"}
{"geometry": {"coordinates": [-120.603118, 35.130467], "type": "Point"}, "id": "RIQ_52StQgd9TuTSbikzmymudxY=", "properties": {"@spider": "usps_collection_boxes", "addr:city": "ARROYO GRANDE", "addr:country": "US", "addr:full": "1520 W BRANCH ST", "addr:postcode": "93420", "addr:state": "CA", "brand": "USPS", "collection_times": "Mo-Sa 10:00", "name": "USPS COLLECTION BOX - BLUE BOX", "ref": "9342000010"}, "type": "Feature"}
{"geometry": {"coordinates": [-120.604907, 35.121953], "type": "Point"}, "id": "rDabVS1lpSXlyASOL8GED_De6cQ=", "properties": {"@spider": "usps_collection_boxes", "addr:city": "ARROYO GRANDE", "addr:country": "US", "addr:full": "1404 E GRAND AVE", "addr:postcode": "93420", "addr:state": "CA", "brand": "USPS", "collection_times": "Mo-Sa 10:00", "name": "USPS COLLECTION BOX - BLUE BOX", "ref": "9342000015"}, "type": "Feature"}
{"geometry": {"coordinates": [-120.579579, 35.120848], "type": "Point"}, "id": "fTazDjnH_nXmqaVKODpWS4WkQCw=", "properties": {"@spider": "usps_collection_boxes", "addr:city": "ARROYO GRANDE", "addr:country": "US", "addr:full": "160 STATION WAY", "addr:postcode": "93421", "addr:state": "CA", "brand": "USPS", "collection_times": "Mo-Fr 17:00; Sa 13:00", "name": "USPS COLLECTION BOX - BLUE BOX", "note": "ON 12/24 AND 12/31, THIS BOX MAY BE COLLECTED AS EARLY AS 12 NOON.", "ref": "9342100001"}, "type": "Feature"}
{"geometry": {"coordinates": [-120.579578, 35.120848], "type": "Point"}, "id": "C-6T0OmVCTj3OWWSMWPatiBxXNo=", "properties": {"@spider": "usps_collection_boxes", "addr:city": "ARROYO GRANDE", "addr:country": "US", "addr:full": "160 STATION WAY", "addr:postcode": "93421", "addr:state": "CA", "brand": "USPS", "collection_times": "Mo-Fr 17:00; Sa 13:00", "name": "USPS COLLECTION BOX - BLUE BOX", "note": "ON 12/24 AND 12/31, THIS BOX MAY BE COLLECTED AS EARLY AS 12 NOON.", "ref": "9342100002"}, "type": "Feature"}
{"geometry": {"coordinates": [-120.579578, 35.120848], "type": "Point"}, "id": "OaaM2OvFbotrjVB5UlfWbNfl1z4=", "properties": {"@spider": "usps_collection_boxes", "addr:city": "ARROYO GRANDE", "addr:country": "US", "addr:full": "160 STATION WAY", "addr:postcode": "93421", "addr:state": "CA", "brand": "USPS", "collection_times": "Mo-Fr 17:00; Sa 13:00", "name": "USPS COLLECTION BOX - PO LOBBY", "note": "ON 12/24 AND 12/31, THIS BOX MAY BE COLLECTED AS EARLY AS 12 NOON.", "ref": "9342100003"}, "type": "Feature"}
{"geometry": {"coordinates": [-120.579578, 35.120848], "type": "Point"}, "id": "9v_w9KL4CUFFqVv5qdkXSvVkZ5M=", "properties": {"@spider": "usps_collection_boxes", "addr:city": "ARROYO GRANDE", "addr:country": "US", "addr:full": "160 STATION WAY", "addr:postcode": "93421", "addr:state": "CA", "brand": "USPS", "collection_times": "Mo-Fr 17:00; Sa 13:00", "name": "USPS COLLECTION BOX - PO LOBBY", "note": "ON 12/24 AND 12/31, THIS BOX MAY BE COLLECTED AS EARLY AS 12 NOON.", "ref": "9342100004"}, "type": "Feature"}
{"geometry": {"coordinates": [-120.7330417337, 35.1806190555], "type": "Point"}, "id": "SATAtvaJNVoQNvfqLLmUU3b7Uiw=", "properties": {"@spider": "usps_collection_boxes", "addr:city": "AVILA BEACH", "addr:country": "US", "addr:full": "191 SAN MIGUEL", "addr:postcode": "93424", "addr:state": "CA", "brand": "USPS", "collection_times": "Mo-Fr 16:00; Sa 10:00", "name": "USPS COLLECTION BOX - BLUE BOX", "note": "ON 12/24 AND 12/31, THIS BOX MAY BE COLLECTED AS EARLY AS 12 NOON.", "ref": "9342400004"}, "type": "Feature"}
{"geometry": {"coordinates": [-120.735371, 35.186], "type": "Point"}, "id": "TDYRrzlM3pAheE3zM122yKcSgpA=", "properties": {"@spider": "usps_collection_boxes", "addr:city": "AVILA BEACH", "addr:country": "US", "addr:full": "1 LUPINE CANYON RD", "addr:postcode": "93424", "addr:state": "CA", "brand": "USPS", "collection_times": "Mo-Sa 10:00", "name": "USPS COLLECTION BOX - BLUE BOX", "ref": "9342400005"}, "type": "Feature"}
{"geometry": {"coordinates": [-120.7330417337, 35.1806190555], "type": "Point"}, "id": "NZg5KGCOdmvtuLzNoRjHP9PmphA=", "properties": {"@spider": "usps_collection_boxes", "addr:city": "AVILA BEACH", "addr:country": "US", "addr:full": "191 SAN MIGUEL", "addr:postcode": "93424", "addr:state": "CA", "brand": "USPS", "collection_times": "Mo-Fr 16:00; Sa 10:00", "name": "USPS COLLECTION BOX - PO LOBBY", "note": "ON 12/24 AND 12/31, THIS BOX MAY BE COLLECTED AS EARLY AS 12 NOON.", "ref": "9342400006"}, "type": "Feature"}
{"geometry": {"coordinates": [-120.7330417337, 35.1806190555], "type": "Point"}, "id": "amCS_2OXVc-6U7JQ8GHvxrcY0P4=", "properties": {"@spider": "usps_collection_boxes", "addr:city": "AVILA BEACH", "addr:country": "US", "addr:full": "191 SAN MIGUEL", "addr:postcode": "93424", "addr:state": "CA", "brand": "USPS", "collection_times": "Mo-Fr 15:00", "name": "USPS COLLECTION BOX - PO LOBBY", "note": "ON 12/24 AND 12/31, THIS BOX MAY BE COLLECTED AS EARLY AS 12 NOON.", "ref": "9342400007"}, "type": "Feature"}
{"geometry": {"coordinates": [-120.1960386499, 34.6142868185], "type": "Point"}, "id": "g5gew0tLzGMWGcImHUAmUzhLxmo=", "properties": {"@spider": "usps_collection_boxes", "addr:city": "BUELLTON", "addr:country": "US", "addr:full": "140 W HIGHWAY 246", "addr:postcode": "93427", "addr:state": "CA", "brand": "USPS", "collection_times": "Mo-Fr 17:00; Sa 09:30", "name": "USPS COLLECTION BOX - BLUE BOX", "note": "ON 12/24 AND 12/31, THIS BOX MAY BE COLLECTED AS EARLY AS 12 NOON.", "ref": "9342700001"}, "type": "Feature"}
{"geometry": {"coordinates": [-120.1960386499, 34.6142868185], "type": "Point"}, "id": "3pcNNtcIrOMdkMU694Niuu2YC3I=", "properties": {"@spider": "usps_collection_boxes", "addr:city": "BUELLTON", "addr:country": "US", "addr:full": "140 W HIGHWAY 246", "addr:postcode": "93427", "addr:state": "CA", "brand": "USPS", "collection_times": "Mo-Fr 17:00; Sa 09:30", "name": "USPS COLLECTION BOX - BLUE BOX", "note": "ON 12/24 AND 12/31, THIS BOX MAY BE COLLECTED AS EARLY AS 12 NOON.", "ref": "9342700002"}, "type": "Feature"}
{"geometry": {"coordinates": [-120.1960386499, 34.6142868185], "type": "Point"}, "id": "pHzgGV96aPQ48a6YRYNA8-MWMyE=", "properties": {"@spider": "usps_collection_boxes", "addr:city": "BUELLTON", "addr:country": "US", "addr:full": "140 W HIGHWAY 246", "addr:postcode": "93427", "addr:state": "CA", "brand": "USPS", "collection_times": "Mo-Fr 17:00; Sa 09:30", "name": "USPS COLLECTION BOX - PO LOBBY", "note": "ON 12/24 AND 12/31, THIS BOX MAY BE COLLECTED AS EARLY AS 12 NOON.", "ref": "9342700005"}, "type": "Feature"}
{"geometry": {"coordinates": [-120.1960386499, 34.6142868185], "type": "Point"}, "id": "4FlXF40j46NGuA5-2HhUtcJF8O4=", "properties": {"@spider": "usps_collection_boxes", "addr:city": "BUELLTON", "addr:country": "US", "addr:full": "140 W HIGHWAY 246", "addr:postcode": "93427", "addr:state": "CA", "brand": "USPS", "collection_times": "Mo-Fr 17:00", "name": "USPS COLLECTION BOX - PO LOBBY", "note": "ON 12/24 AND 12/31, THIS BOX MAY BE COLLECTED AS EARLY AS 12 NOON.", "ref": "9342700007"}, "type": "Feature"}
{"geometry": {"coordinates": [-120.550059, 34.828994], "type": "Point"}, "id": "SGpPc8msJi4cWFGb5VXsf8bpww8=", "properties": {"@spider": "usps_collection_boxes", "addr:city": "CASMALIA", "addr:country": "US", "addr:full": "3401 POINT SAL RD", "addr:postcode": "93429", "addr:state": "CA", "brand": "USPS", "collection_times": "Mo-Fr 12:00; Sa 09:30", "name": "USPS COLLECTION BOX - BLUE BOX", "ref": "9342900001"}, "type": "Feature"}
{"geometry": {"coordinates": [-120.5316169093, 34.8378986251], "type": "Point"}, "id": "dpD0SR30dbyQlZ4_0YaZRksNt-k=", "properties": {"@spider": "usps_collection_boxes", "addr:city": "CASMALIA", "addr:country": "US", "addr:full": "3401 POINT SAL RD", "addr:postcode": "93429", "addr:state": "CA", "brand": "USPS", "collection_times": "Mo-Fr 12:30", "name": "USPS COLLECTION BOX - PO LOBBY", "note": "ON 12/24 AND 12/31, THIS BOX MAY BE COLLECTED AS EARLY AS 12 NOON.", "ref": "9342900002"}, "type": "Feature"}
{"geometry": {"coordinates": [-120.612646, 35.120352], "type": "Point"}, "id": "74HMQdoM5piPlQ41MO7XL2Y7LZE=", "properties": {"@spider": "usps_collection_boxes", "addr:city": "GROVER BEACH", "addr:country": "US", "addr:full": "1580 W GRAND AVE", "addr:postcode": "93433", "addr:state": "CA", "brand": "USPS", "collection_times": "Mo-Sa 10:00", "name": "USPS COLLECTION BOX - BLUE BOX", "ref": "9343300007"}, "type": "Feature"}
{"geometry": {"coordinates": [-120.61174, 35.106695], "type": "Point"}, "id": "ljuP6svpfe6oGNIX9S0QiDjYeKM=", "properties": {"@spider": "usps_collection_boxes", "addr:city": "GROVER BEACH", "addr:country": "US", "addr:full": "101 LYNNE ST", "addr:postcode": "93433", "addr:state": "CA", "brand": "USPS", "collection_times": "Mo-Sa 10:00", "name": "USPS COLLECTION BOX - BLUE BOX", "ref": "9343300010"}, "type": "Feature"}
{"geometry": {"coordinates": [-120.619871801, 35.121506468], "type": "Point"}, "id": "fVSUYVzbFupeHOeHh0wn90C16SE=", "properties": {"@spider": "usps_collection_boxes", "addr:city": "GROVER BEACH", "addr:country": "US", "addr:full": "917 W GRAND AVE", "addr:postcode": "93433", "addr:state": "CA", "brand": "USPS", "collection_times": "Mo-Fr 16:45", "name": "USPS COLLECTION BOX - PO LOBBY", "note": "ON 12/24 AND 12/31, THIS BOX MAY BE COLLECTED AS EARLY AS 12 NOON.", "ref": "9343300014"}, "type": "Feature"}
{"geometry": {"coordinates": [-120.5720453738, 34.9719822723], "type": "Point"}, "id": "wSNgdXNN10crH3xoWwUqFmcUh_Y=", "properties": {"@spider": "usps_collection_boxes", "addr:city": "GUADALUPE", "addr:country": "US", "addr:full": "1030 GUADALUPE ST", "addr:postcode": "93434", "addr:state": "CA", "brand": "USPS", "collection_times": "Mo-Fr 16:30; Sa 13:30", "name": "USPS COLLECTION BOX - BLUE BOX", "note": "ON 12/24 AND 12/31, THIS BOX MAY BE COLLECTED AS EARLY AS 12 NOON.", "ref": "9343400000"}, "type": "Feature"}
{"geometry": {"coordinates": [-120.5720453738, 34.9719822723], "type": "Point"}, "id": "hgDnMBtyWjdTlNed7cyoZTDQ2O0=", "properties": {"@spider": "usps_collection_boxes", "addr:city": "GUADALUPE", "addr:country": "US", "addr:full": "1030 GUADALUPE ST", "addr:postcode": "93434", "addr:state": "CA", "brand": "USPS", "collection_times": "Mo-Fr 16:00", "name": "USPS COLLECTION BOX - PO LOBBY", "note": "ON 12/24 AND 12/31, THIS BOX MAY BE COLLECTED AS EARLY AS 12 NOON.", "ref": "9343400001"}, "type": "Feature"}
{"geometry": {"coordinates": [-120.444236, 34.639247], "type": "Point"}, "id": "2eOEPiaObw2uIFSQ_5g_TvoRFM8=", "properties": {"@spider": "usps_collection_boxes", "addr:city": "LOMPOC", "addr:country": "US", "addr:full": "1111 E OCEAN AVE", "addr:postcode": "93436", "addr:state": "CA", "brand": "USPS", "collection_times": "Mo-Sa 15:00", "name": "USPS COLLECTION BOX - BLUE BOX", "note": "ON 12/24 AND 12/31, THIS BOX MAY BE COLLECTED AS EARLY AS 12 NOON.", "ref": "9343600008"}, "type": "Feature"}
{"geometry": {"coordinates": [-120.465673, 34.703219], "type": "Point"}, "id": "Il6a2JaV40Ziya9vxj3Z2jJ-dTI=", "properties": {"@spider": "usps_collection_boxes", "addr:city": "LOMPOC", "addr:country": "US", "addr:full": "3880 CONSTELLATION RD", "addr:postcode": "93436", "addr:state": "CA", "brand": "USPS", "collection_times": "Mo-Sa 15:00", "name": "USPS COLLECTION BOX - BLUE BOX", "note": "ON 12/24 AND 12/31, THIS BOX MAY BE COLLECTED AS EARLY AS 12 NOON.", "ref": "9343600028"}, "type": "Feature"}
{"geometry": {"coordinates": [-120.468111, 34.700525], "type": "Point"}, "id": "2kEuZq53bZbU5Xf5XaHvzlhVgjU=", "properties": {"@spider": "usps_collection_boxes", "addr:city": "LOMPOC", "addr:country": "US", "addr:full": "3734 CONSTELLATION RD", "addr:postcode": "93436", "addr:state": "CA", "brand": "USPS", "collection_times": "Mo-Fr 15:00; Sa 13:00", "name": "USPS COLLECTION BOX - BLUE BOX", "note": "ON 12/24 AND 12/31, THIS BOX MAY BE COLLECTED AS EARLY AS 12 NOON.", "ref": "9343600030"}, "type": "Feature"}
{"geometry": {"coordinates": [-120.45881, 34.648404], "type": "Point"}, "id": "owiryfDsHY81Dg0zICDpwJX7YOA=", "properties": {"@spider": "usps_collection_boxes", "addr:city": "LOMPOC", "addr:country": "US", "addr:full": "701 N H ST", "addr:postcode": "93436", "addr:state": "CA", "brand": "USPS", "collection_times": "Mo-Sa 15:00", "name": "USPS COLLECTION BOX - BLUE BOX", "note": "ON 12/24 AND 12/31, THIS BOX MAY BE COLLECTED AS EARLY AS 12 NOON.", "ref": "9343600034"}, "type": "Feature"}
{"geometry": {"coordinates": [-120.452892, 34.637368], "type": "Point"}, "id": "M6oFgmwLtYSoApmjZPJbRTrrGyo=", "properties": {"@spider": "usps_collection_boxes", "addr:city": "LOMPOC", "addr:country": "US", "addr:full": "300 E CYPRESS AVE", "addr:postcode": "93436", "addr:state": "CA", "brand": "USPS", "collection_times": "Mo-Sa 15:00", "name": "USPS COLLECTION BOX - BLUE BOX", "note": "ON 12/24 AND 12/31, THIS BOX MAY BE COLLECTED AS EARLY AS 12 NOON.", "ref": "9343600040"}, "type": "Feature"}
{"geometry": {"coordinates": [-120.4671733324, 34.6390755265], "type": "Point"}, "id": "66gaP9KOz6TI-kQpfXSFfEbb8q8=", "properties": {"@spider": "usps_collection_boxes", "addr:city": "LOMPOC", "addr:country": "US", "addr:full": "801 W OCEAN AVE", "addr:postcode": "93436", "addr:state": "CA", "brand": "USPS", "collection_times": "Mo-Fr 17:00; Sa 16:30", "name": "USPS COLLECTION BOX - BLUE BOX", "note": "ON 12/24 AND 12/31, THIS BOX MAY BE COLLECTED AS EARLY AS 12 NOON.", "ref": "9343600047"}, "type": "Feature"}
{"geometry": {"coordinates": [-120.4671733324, 34.6390755265], "type": "Point"}, "id": "B7IzRYVpFbN68pzzUOvm1G91itw=", "properties": {"@spider": "usps_collection_boxes", "addr:city": "LOMPOC", "addr:country": "US", "addr:full": "801 W OCEAN AVE", "addr:postcode": "93436", "addr:state": "CA", "brand": "USPS", "collection_times": "Mo-Fr 17:00; Sa 16:30", "name": "USPS COLLECTION BOX - PO LOBBY", "note": "ON 12/24 AND 12/31, THIS BOX MAY BE COLLECTED AS EARLY AS 12 NOON.", "ref": "9343600048"}, "type": "Feature"}
{"geometry": {"coordinates": [-120.4671733324, 34.6390755265], "type": "Point"}, "id": "OEUFUw8_VRQ6f0dEdNPhWn9NegE=", "properties": {"@spider": "usps_collection_boxes", "addr:city": "LOMPOC", "addr:country": "US", "addr:full": "801 W OCEAN AVE", "addr:postcode": "93436", "addr:state": "CA", "brand": "USPS", "collection_times": "Mo-Fr 17:00; Sa 16:30", "name": "USPS COLLECTION BOX - APC", "note": "ON 12/24 AND 12/31, THIS BOX MAY BE COLLECTED AS EARLY AS 12 NOON.", "ref": "9343600049"}, "type": "Feature"}
{"geometry": {"coordinates": [-120.4671733324, 34.6390755265], "type": "Point"}, "id": "3N8P1Bg58cgY4B7-t81OmHyjjlM=", "properties": {"@spider": "usps_collection_boxes", "addr:city": "LOMPOC", "addr:country": "US", "addr:full": "801 W OCEAN AVE", "addr:postcode": "93436", "addr:state": "CA", "brand": "USPS", "collection_times": "Mo-Fr 17:00", "name": "USPS COLLECTION BOX - PO LOBBY", "note": "ON 12/24 AND 12/31, THIS BOX MAY BE COLLECTED AS EARLY AS 12 NOON.", "ref": "9343600051"}, "type": "Feature"}
{"geometry": {"coordinates": [-120.538735, 34.734811], "type": "Point"}, "id": "y_beOawjaKX0lVkNH4KsBjQ8A5U=", "properties": {"@spider": "usps_collection_boxes", "addr:city": "LOMPOC", "addr:country": "US", "addr:full": "10373 BLDG", "addr:postcode": "93437", "addr:state": "CA", "brand": "USPS", "collection_times": "Mo-Fr 14:00; Sa 10:00", "name": "USPS COLLECTION BOX - BLUE BOX", "note": "ON 12/24 AND 12/31, THIS BOX MAY BE COLLECTED AS EARLY AS 12 NOON.", "ref": "9343700000"}, "type": "Feature"}
{"geometry": {"coordinates": [-120.277844091, 34.744080689], "type": "Point"}, "id": "T-1YIh8oZYBCcLpiub9yRdlcitA=", "properties": {"@spider": "usps_collection_boxes", "addr:city": "LOS ALAMOS", "addr:country": "US", "addr:full": "497 BELL ST", "addr:postcode": "93440", "addr:state": "CA", "brand": "USPS", "collection_times": "Mo-Fr 16:00; Sa 10:00", "name": "USPS COLLECTION BOX - BLUE BOX", "note": "ON 12/24 AND 12/31, THIS BOX MAY BE COLLECTED AS EARLY AS 12 NOON.", "ref": "9344000001"}, "type": "Feature"}
{"geometry": {"coordinates": [-120.2778440909, 34.7440806893], "type": "Point"}, "id": "6gzxAfgiPAz5AOwZ4LqLJJIyCHw=", "properties": {"@spider": "usps_collection_boxes", "addr:city": "LOS ALAMOS", "addr:country": "US", "addr:full": "497 BELL ST", "addr:postcode": "93440", "addr:state": "CA", "brand": "USPS", "collection_times": "Mo-Fr 16:00; Sa 10:00", "name": "USPS COLLECTION BOX - BLUE BOX", "note": "ON 12/24 AND 12/31, THIS BOX MAY BE COLLECTED AS EARLY AS 12 NOON.", "ref": "9344000002"}, "type": "Feature"}
{"geometry": {"coordinates": [-120.27778, 34.744015], "type": "Point"}, "id": "AXGU278GnastetnZf4Cv-TYxu_c=", "properties": {"@spider": "usps_collection_boxes", "addr:city": "LOS ALAMOS", "addr:country": "US", "addr:full": "497 BELL ST", "addr:postcode": "93440", "addr:state": "CA", "brand": "USPS", "collection_times": "Mo-Fr 16:00; Sa 10:00", "name": "USPS COLLECTION BOX - PO LOBBY", "note": "ON 12/24 AND 12/31, THIS BOX MAY BE COLLECTED AS EARLY AS 12 NOON.", "ref": "9344000003"}, "type": "Feature"}
{"geometry": {"coordinates": [-120.2778440909, 34.7440806893], "type": "Point"}, "id": "W4aPs4RRd4J8lCqoi0tJ3ksyZHE=", "properties": {"@spider": "usps_collection_boxes", "addr:city": "LOS ALAMOS", "addr:country": "US", "addr:full": "497 BELL ST", "addr:postcode": "93440", "addr:state": "CA", "brand": "USPS", "collection_times": "Mo-Fr 16:00", "name": "USPS COLLECTION BOX - PO LOBBY", "note": "ON 12/24 AND 12/31, THIS BOX MAY BE COLLECTED AS EARLY AS 12 NOON.", "ref": "9344000004"}, "type": "Feature"}
{"geometry": {"coordinates": [-120.114987, 34.665108], "type": "Point"}, "id": "CgvUDhSA9p40ieetMBWxDYusdXA=", "properties": {"@spider": "usps_collection_boxes", "addr:city": "LOS OLIVOS", "addr:country": "US", "addr:full": "2880 GRAND AVE", "addr:postcode": "93441", "addr:state": "CA", "brand": "USPS", "collection_times": "Mo-Fr 16:00; Sa 10:30", "name": "USPS COLLECTION BOX - BLUE BOX", "note": "ON 12/24 AND 12/31, THIS BOX MAY BE COLLECTED AS EARLY AS 12 NOON.", "ref": "9344100001"}, "type": "Feature"}
{"geometry": {"coordinates": [-120.114776, 34.665085], "type": "Point"}, "id": "Evz89YX1PjOgFGplbUOH7iSprYM=", "properties": {"@spider": "usps_collection_boxes", "addr:city": "LOS OLIVOS", "addr:country": "US", "addr:full": "2880 GRAND AVE", "addr:postcode": "93441", "addr:state": "CA", "brand": "USPS", "collection_times": "Mo-Fr 16:00", "name": "USPS COLLECTION BOX - PO LOBBY", "note": "ON 12/24 AND 12/31, THIS BOX MAY BE COLLECTED AS EARLY AS 12 NOON.", "ref": "9344100002"}, "type": "Feature"}
{"geometry": {"coordinates": [-120.11498665, 34.665056078], "type": "Point"}, "id": "4xyimg2x6XRAI-FzHgxzdVzn6EA=", "properties": {"@spider": "usps_collection_boxes", "addr:city": "LOS OLIVOS", "addr:country": "US", "addr:full": "2880 GRAND AVE STE B", "addr:postcode": "93441", "addr:state": "CA", "brand": "USPS", "collection_times": "Mo-Fr 15:00", "name": "USPS COLLECTION BOX - PO LOBBY", "note": "ON 12/24 AND 12/31, THIS BOX MAY BE COLLECTED AS EARLY AS 12 NOON.", "ref": "9344100003"}, "type": "Feature"}
{"geometry": {"coordinates": [-120.8476688075, 35.3666603608], "type": "Point"}, "id": "bLQ18zoBWnZgUKJCvuFWhGAaH2o=", "properties": {"@spider": "usps_collection_boxes", "addr:city": "MORRO BAY", "addr:country": "US", "addr:full": "898 NAPA AVE", "addr:postcode": "93442", "addr:state": "CA", "brand": "USPS", "collection_times": "Mo-Fr 16:45; Sa 16:30", "name": "USPS COLLECTION BOX - BLUE BOX", "note": "ON 12/24 AND 12/31, THIS BOX MAY BE COLLECTED AS EARLY AS 12 NOON.", "ref": "9344200007"}, "type": "Feature"}
{"geometry": {"coordinates": [-120.8476688075, 35.3666603608], "type": "Point"}, "id": "JxaT0R-YrpD-WquZ8MopZbpgsss=", "properties": {"@spider": "usps_collection_boxes", "addr:city": "MORRO BAY", "addr:country": "US", "addr:full": "898 NAPA AVE", "addr:postcode": "93442", "addr:state": "CA", "brand": "USPS", "collection_times": "Mo-Fr 16:45; Sa 16:30", "name": "USPS COLLECTION BOX - BLUE BOX", "note": "ON 12/24 AND 12/31, THIS BOX MAY BE COLLECTED AS EARLY AS 12 NOON.", "ref": "9344200008"}, "type": "Feature"}
{"geometry": {"coordinates": [-120.8476688075, 35.3666603608], "type": "Point"}, "id": "CqCV7qvnmXvRh5iBi7WFn8PNr0o=", "properties": {"@spider": "usps_collection_boxes", "addr:city": "MORRO BAY", "addr:country": "US", "addr:full": "898 NAPA AVE", "addr:postcode": "93442", "addr:state": "CA", "brand": "USPS", "collection_times": "Mo-Fr 16:45; Sa 16:30", "name": "USPS COLLECTION BOX - PO LOBBY", "note": "ON 12/24 AND 12/31, THIS BOX MAY BE COLLECTED AS EARLY AS 12 NOON.", "ref": "9344200011"}, "type": "Feature"}
{"geometry": {"coordinates": [-120.8476688075, 35.3666603608], "type": "Point"}, "id": "EKc5JUpNxByIyQyS5QgmSgG0_ZE=", "properties": {"@spider": "usps_collection_boxes", "addr:city": "MORRO BAY", "addr:country": "US", "addr:full": "898 NAPA AVE", "addr:postcode": "93442", "addr:state": "CA", "brand": "USPS", "collection_times": "Mo-Fr 17:00", "name": "USPS COLLECTION BOX - PO LOBBY", "note": "ON 12/24 AND 12/31, THIS BOX MAY BE COLLECTED AS EARLY AS 12 NOON.", "ref": "9344200013"}, "type": "Feature"}
{"geometry": {"coordinates": [-120.487628, 35.035003], "type": "Point"}, "id": "ICuyOoJOKQL91h9YulpUJZQft0M=", "properties": {"@spider": "usps_collection_boxes", "addr:city": "NIPOMO", "addr:country": "US", "addr:full": "615 W TEFFT ST", "addr:postcode": "93444", "addr:state": "CA", "brand": "USPS", "collection_times": "Mo-Sa 10:00", "name": "USPS COLLECTION BOX - BLUE BOX", "ref": "9344400004"}, "type": "Feature"}
{"geometry": {"coordinates": [-120.4883100095, 35.0352400192], "type": "Point"}, "id": "ozZAa_r7cpUnaGJMzYfvdGXRvb4=", "properties": {"@spider": "usps_collection_boxes", "addr:city": "NIPOMO", "addr:country": "US", "addr:full": "630 W TEFFT ST", "addr:postcode": "93444", "addr:state": "CA", "brand": "USPS", "collection_times": "Mo-Fr 17:00; Sa 12:00", "name": "USPS COLLECTION BOX - PO LOBBY", "note": "ON 12/24 AND 12/31, THIS BOX MAY BE COLLECTED AS EARLY AS 12 NOON.", "ref": "9344400006"}, "type": "Feature"}
{"geometry": {"coordinates": [-120.4883100095, 35.0352400192], "type": "Point"}, "id": "QXNkO-H_EFG4Mt9q3XZb0rjwypo=", "properties": {"@spider": "usps_collection_boxes", "addr:city": "NIPOMO", "addr:country": "US", "addr:full": "630 W TEFFT ST", "addr:postcode": "93444", "addr:state": "CA", "brand": "USPS", "collection_times": "Mo-Fr 17:00; Sa 12:00", "name": "USPS COLLECTION BOX - BLUE BOX", "note": "ON 12/24 AND 12/31, THIS BOX MAY BE COLLECTED AS EARLY AS 12 NOON.", "ref": "9344400007"}, "type": "Feature"}
{"geometry": {"coordinates": [-120.4883100095, 35.0352400192], "type": "Point"}, "id": "FUlWz_UCiIu9P9zAkzXUkXh0B6U=", "properties": {"@spider": "usps_collection_boxes", "addr:city": "NIPOMO", "addr:country": "US", "addr:full": "630 W TEFFT ST", "addr:postcode": "93444", "addr:state": "CA", "brand": "USPS", "collection_times": "Mo-Fr 17:00", "name": "USPS COLLECTION BOX - PO LOBBY", "note": "ON 12/24 AND 12/31, THIS BOX MAY BE COLLECTED AS EARLY AS 12 NOON.", "ref": "9344400010"}, "type": "Feature"}
{"geometry": {"coordinates": [-120.6112509745, 35.0991675284], "type": "Point"}, "id": "14V6ijN8Szr8vSah3Q9l7LV_7pI=", "properties": {"@spider": "usps_collection_boxes", "addr:city": "OCEANO", "addr:country": "US", "addr:full": "1800 BEACH ST", "addr:postcode": "93445", "addr:state": "CA", "brand": "USPS", "collection_times": "Mo-Fr 16:30; Sa 10:00", "name": "USPS COLLECTION BOX - BLUE BOX", "note": "ON 12/24 AND 12/31, THIS BOX MAY BE COLLECTED AS EARLY AS 12 NOON.", "ref": "9344500001"}, "type": "Feature"}
{"geometry": {"coordinates": [-120.6112509745, 35.0991675284], "type": "Point"}, "id": "3RpEJ5pa7CrTS5s6OxceYYHN60c=", "properties": {"@spider": "usps_collection_boxes", "addr:city": "OCEANO", "addr:country": "US", "addr:full": "1800 BEACH ST", "addr:postcode": "93445", "addr:state": "CA", "brand": "USPS", "collection_times": "Mo-Fr 16:30", "name": "USPS COLLECTION BOX - PO LOBBY", "note": "ON 12/24 AND 12/31, THIS BOX MAY BE COLLECTED AS EARLY AS 12 NOON.", "ref": "9344500004"}, "type": "Feature"}
{"geometry": {"coordinates": [-120.6112509745, 35.0991675284], "type": "Point"}, "id": "nHK3Jeiqr8GdpTXfgOBksUx_tE4=", "properties": {"@spider": "usps_collection_boxes", "addr:city": "OCEANO", "addr:country": "US", "addr:full": "1800 BEACH ST", "addr:postcode": "93445", "addr:state": "CA", "brand": "USPS", "collection_times": "Mo-Fr 16:00", "name": "USPS COLLECTION BOX - PO LOBBY", "note": "ON 12/24 AND 12/31, THIS BOX MAY BE COLLECTED AS EARLY AS 12 NOON.", "ref": "9344500005"}, "type": "Feature"}
{"geometry": {"coordinates": [-120.6075925273, 35.1354741465], "type": "Point"}, "id": "uEAZC7nGbXTBig28e4Evgs91aHc=", "properties": {"@spider": "usps_collection_boxes", "addr:city": "PISMO BEACH", "addr:country": "US", "addr:full": "100 CREST DR", "addr:postcode": "93449", "addr:state": "CA", "brand": "USPS", "collection_times": "Mo-Sa 17:00", "name": "USPS COLLECTION BOX - BLUE BOX", "note": "ON 12/24 AND 12/31, THIS BOX MAY BE COLLECTED AS EARLY AS 12 NOON.", "ref": "9344900001"}, "type": "Feature"}
{"geometry": {"coordinates": [-120.607522622, 35.135443972], "type": "Point"}, "id": "2tmWYVxoyhEAuGrpEDRRoPiiSCY=", "properties": {"@spider": "usps_collection_boxes", "addr:city": "PISMO BEACH", "addr:country": "US", "addr:full": "100 CREST DR", "addr:postcode": "93449", "addr:state": "CA", "brand": "USPS", "collection_times": "Mo-Sa 17:00", "name": "USPS COLLECTION BOX - BLUE BOX", "note": "ON 12/24 AND 12/31, THIS BOX MAY BE COLLECTED AS EARLY AS 12 NOON.", "ref": "9344900002"}, "type": "Feature"}
{"geometry": {"coordinates": [-120.6075925273, 35.1354741465], "type": "Point"}, "id": "4jNRh72H6c9h886UuglTv_ANA5k=", "properties": {"@spider": "usps_collection_boxes", "addr:city": "PISMO BEACH", "addr:country": "US", "addr:full": "100 CREST DR", "addr:postcode": "93449", "addr:state": "CA", "brand": "USPS", "collection_times": "Mo-Fr 17:00; Sa 13:30", "name": "USPS COLLECTION BOX - EXPRESS", "note": "ON 12/24 AND 12/31, THIS BOX MAY BE COLLECTED AS EARLY AS 12 NOON.", "ref": "9344900003"}, "type": "Feature"}
{"geometry": {"coordinates": [-120.624349, 35.135349], "type": "Point"}, "id": "ilYkN161Gv-VaGaJz13g5lwOlN0=", "properties": {"@spider": "usps_collection_boxes", "addr:city": "PISMO BEACH", "addr:country": "US", "addr:full": "555 FIVE CITIES DR", "addr:postcode": "93449", "addr:state": "CA", "brand": "USPS", "collection_times": "Mo-Sa 10:00", "name": "USPS COLLECTION BOX - BLUE BOX", "ref": "9344900020"}, "type": "Feature"}
{"geometry": {"coordinates": [-120.641051, 35.142496], "type": "Point"}, "id": "VSIOOLAfeYbvP--qx571GNoPnbw=", "properties": {"@spider": "usps_collection_boxes", "addr:city": "PISMO BEACH", "addr:country": "US", "addr:full": "851 PRICE ST", "addr:postcode": "93449", "addr:state": "CA", "brand": "USPS", "collection_times": "Mo-Sa 10:00", "name": "USPS COLLECTION BOX - BLUE BOX", "ref": "9344900021"}, "type": "Feature"}
{"geometry": {"coordinates": [-120.671724, 35.157424], "type": "Point"}, "id": "E98ExwSYZAAovCDsdUkWMj7PsMg=", "properties": {"@spider": "usps_collection_boxes", "addr:city": "PISMO BEACH", "addr:country": "US", "addr:full": "1301 SHELL BEACH RD", "addr:postcode": "93449", "addr:state": "CA", "brand": "USPS", "collection_times": "Mo-Sa 10:00", "name": "USPS COLLECTION BOX - BLUE BOX", "ref": "9344900025"}, "type": "Feature"}
{"geometry": {"coordinates": [-120.686418, 35.163068], "type": "Point"}, "id": "43qU0FDZYT8V8gypsY8k6sy97I0=", "properties": {"@spider": "usps_collection_boxes", "addr:city": "PISMO BEACH", "addr:country": "US", "addr:full": "2665 SHELL BEACH RD", "addr:postcode": "93449", "addr:state": "CA", "brand": "USPS", "collection_times": "Mo-Sa 10:00", "name": "USPS COLLECTION BOX - BLUE BOX", "ref": "9344900027"}, "type": "Feature"}
{"geometry": {"coordinates": [-120.668741, 35.157483], "type": "Point"}, "id": "Axwk9rXoneyj6ezMnxR0n1Etr0E=", "properties": {"@spider": "usps_collection_boxes", "addr:city": "PISMO BEACH", "addr:country": "US", "addr:full": "760 MATTIE RD", "addr:postcode": "93449", "addr:state": "CA", "brand": "USPS", "collection_times": "Mo-Sa 10:00", "name": "USPS COLLECTION BOX - BLUE BOX", "ref": "9344900030"}, "type": "Feature"}
{"geometry": {"coordinates": [-120.6075925273, 35.1354741465], "type": "Point"}, "id": "KRYps2Fl2Hoc8tN9AdqKFPilgq0=", "properties": {"@spider": "usps_collection_boxes", "addr:city": "PISMO BEACH", "addr:country": "US", "addr:full": "100 CREST DR", "addr:postcode": "93449", "addr:state": "CA", "brand": "USPS", "collection_times": "Mo-Sa 17:00", "name": "USPS COLLECTION BOX - PO LOBBY", "note": "ON 12/24 AND 12/31, THIS BOX MAY BE COLLECTED AS EARLY AS 12 NOON.", "ref": "9344900032"}, "type": "Feature"}
{"geometry": {"coordinates": [-120.6075925273, 35.1354741465], "type": "Point"}, "id": "VTHXuNeXpp-fiHp-RD3Bg14EGW4=", "properties": {"@spider": "usps_collection_boxes", "addr:city": "PISMO BEACH", "addr:country": "US", "addr:full": "100 CREST DR", "addr:postcode": "93449", "addr:state": "CA", "brand": "USPS", "collection_times": "Mo-Sa 17:00", "name": "USPS COLLECTION BOX - BLUE BOX", "note": "ON 12/24 AND 12/31, THIS BOX MAY BE COLLECTED AS EARLY AS 12 NOON.", "ref": "9344900034"}, "type": "Feature"}
{"geometry": {"coordinates": [-120.6075925273, 35.1354741465], "type": "Point"}, "id": "VrHQognEPn2rWVoDxbjtr4_s8iY=", "properties": {"@spider": "usps_collection_boxes", "addr:city": "PISMO BEACH", "addr:country": "US", "addr:full": "100 CREST DR", "addr:postcode": "93449", "addr:state": "CA", "brand": "USPS", "collection_times": "Mo-Fr 17:00", "name": "USPS COLLECTION BOX - PO LOBBY", "note": "ON 12/24 AND 12/31, THIS BOX MAY BE COLLECTED AS EARLY AS 12 NOON.", "ref": "9344900036"}, "type": "Feature"}
{"geometry": {"coordinates": [-120.671631565, 35.157429892], "type": "Point"}, "id": "tzVA755Oz5IbaHRTTbTW7S7ehNY=", "properties": {"@spider": "usps_collection_boxes", "addr:city": "PISMO BEACH", "addr:country": "US", "addr:full": "1301 SHELL BEACH RD", "addr:postcode": "93449", "addr:state": "CA", "brand": "USPS", "collection_times": "Mo-Fr 13:00", "name": "USPS COLLECTION BOX - PO LOBBY", "note": "ON 12/24 AND 12/31, THIS BOX MAY BE COLLECTED AS EARLY AS 12 NOON.", "ref": "9344900037"}, "type": "Feature"}
{"geometry": {"coordinates": [-120.434081223, 34.9314844655], "type": "Point"}, "id": "yIOstF1XeMY042iugiII4B7uDu0=", "properties": {"@spider": "usps_collection_boxes", "addr:city": "SANTA MARIA", "addr:country": "US", "addr:full": "201 E BATTLES RD", "addr:postcode": "93454", "addr:state": "CA", "brand": "USPS", "collection_times": "Mo-Fr 17:30; Sa 17:00", "name": "USPS COLLECTION BOX - BLUE BOX", "note": "ON 12/24 AND 12/31, THIS BOX MAY BE COLLECTED AS EARLY AS 12 NOON.", "ref": "9345400001"}, "type": "Feature"}
{"geometry": {"coordinates": [-120.434081223, 34.9314844655], "type": "Point"}, "id": "srP3yPRYAnfc6Q3RuMln_xvAUMw=", "properties": {"@spider": "usps_collection_boxes", "addr:city": "SANTA MARIA", "addr:country": "US", "addr:full": "201 E BATTLES RD", "addr:postcode": "93454", "addr:state": "CA", "brand": "USPS", "collection_times": "Mo-Fr 17:30; Sa 17:00", "name": "USPS COLLECTION BOX - EXPRESS", "note": "ON 12/24 AND 12/31, THIS BOX MAY BE COLLECTED AS EARLY AS 12 NOON.", "ref": "9345400002"}, "type": "Feature"}
{"geometry": {"coordinates": [-120.415789, 34.95086], "type": "Point"}, "id": "sGc5iaxEKhjwamvHCNhePJ4j1z4=", "properties": {"@spider": "usps_collection_boxes", "addr:city": "SANTA MARIA", "addr:country": "US", "addr:full": "1300 E CYPRESS ST", "addr:postcode": "93454", "addr:state": "CA", "brand": "USPS", "collection_times": "Mo-Fr 15:00; Sa 10:00", "name": "USPS COLLECTION BOX - BLUE BOX", "note": "ON 12/24 AND 12/31, THIS BOX MAY BE COLLECTED AS EARLY AS 12 NOON.", "ref": "9345400011"}, "type": "Feature"}
{"geometry": {"coordinates": [-120.41318, 34.951998], "type": "Point"}, "id": "6n1Iew6SHh7ztRayvMgIeOqQ5-g=", "properties": {"@spider": "usps_collection_boxes", "addr:city": "SANTA MARIA", "addr:country": "US", "addr:full": "1400 E CHURCH ST", "addr:postcode": "93454", "addr:state": "CA", "brand": "USPS", "collection_times": "Mo-Fr 15:00; Sa 13:00", "name": "USPS COLLECTION BOX - BLUE BOX", "note": "ON 12/24 AND 12/31, THIS BOX MAY BE COLLECTED AS EARLY AS 12 NOON.", "ref": "9345400012"}, "type": "Feature"}
{"geometry": {"coordinates": [-120.435789, 34.969088], "type": "Point"}, "id": "X-_ZSS-VpadYlSwsQQoQEvaFUc0=", "properties": {"@spider": "usps_collection_boxes", "addr:city": "SANTA MARIA", "addr:country": "US", "addr:full": "1647 N BROADWAY", "addr:postcode": "93454", "addr:state": "CA", "brand": "USPS", "collection_times": "Mo-Sa 13:00", "name": "USPS COLLECTION BOX - BLUE BOX", "note": "ON 12/24 AND 12/31, THIS BOX MAY BE COLLECTED AS EARLY AS 12 NOON.", "ref": "9345400016"}, "type": "Feature"}
{"geometry": {"coordinates": [-120.433654, 34.920573], "type": "Point"}, "id": "0tYThGAyQUCDUqtP2fkRHdwc_fg=", "properties": {"@spider": "usps_collection_boxes", "addr:city": "SANTA MARIA", "addr:country": "US", "addr:full": "230 E BETTERAVIA RD", "addr:postcode": "93454", "addr:state": "CA", "brand": "USPS", "collection_times": "Mo-Sa 10:00", "name": "USPS COLLECTION BOX - BLUE BOX", "ref": "9345400025"}, "type": "Feature"}
{"geometry": {"coordinates": [-120.435236, 34.914869], "type": "Point"}, "id": "pprhM81fW7BMkqohyHrfx8teqA4=", "properties": {"@spider": "usps_collection_boxes", "addr:city": "SANTA MARIA", "addr:country": "US", "addr:full": "2506 S BROADWAY", "addr:postcode": "93454", "addr:state": "CA", "brand": "USPS", "collection_times": "Mo-Sa 10:00", "name": "USPS COLLECTION BOX - BLUE BOX", "ref": "9345400028"}, "type": "Feature"}
{"geometry": {"coordinates": [-120.4304895, 34.9366394572], "type": "Point"}, "id": "b9jnG6B7V4F7cjkSoT8yKSvebrA=", "properties": {"@spider": "usps_collection_boxes", "addr:city": "SANTA MARIA", "addr:country": "US", "addr:full": "425 BARCELLUS AVE", "addr:postcode": "93454", "addr:state": "CA", "brand": "USPS", "collection_times": "Mo-Fr 15:00; Sa 13:00", "name": "USPS COLLECTION BOX - BLUE BOX", "note": "ON 12/24 AND 12/31, THIS BOX MAY BE COLLECTED AS EARLY AS 12 NOON.", "ref": "9345400043"}, "type": "Feature"}
{"geometry": {"coordinates": [-120.4254993039, 34.9531574427], "type": "Point"}, "id": "cFBIC9QG_J4uE9BO6TGsdkcD4XM=", "properties": {"@spider": "usps_collection_boxes", "addr:city": "SANTA MARIA", "addr:country": "US", "addr:full": "733 E MAIN ST", "addr:postcode": "93454", "addr:state": "CA", "brand": "USPS", "collection_times": "Mo-Sa 10:00", "name": "USPS COLLECTION BOX - BLUE BOX", "ref": "9345400052"}, "type": "Feature"}
{"geometry": {"coordinates": [-120.421288, 34.953248], "type": "Point"}, "id": "q7jbs9VctDcf9pB6oR51yncXKT0=", "properties": {"@spider": "usps_collection_boxes", "addr:city": "SANTA MARIA", "addr:country": "US", "addr:full": "937 E MAIN ST", "addr:postcode": "93454", "addr:state": "CA", "brand": "USPS", "collection_times": "Mo-Sa 10:00", "name": "USPS COLLECTION BOX - BLUE BOX", "ref": "9345400054"}, "type": "Feature"}
{"geometry": {"coordinates": [-120.433323, 34.941817], "type": "Point"}, "id": "d5uajdDzbh15uhO9VTI1QdLEkJw=", "properties": {"@spider": "usps_collection_boxes", "addr:city": "SANTA MARIA", "addr:country": "US", "addr:full": "223 S CAMINO COLEGIO", "addr:postcode": "93454", "addr:state": "CA", "brand": "USPS", "collection_times": "Mo-Sa 13:00", "name": "USPS COLLECTION BOX - BLUE BOX", "note": "ON 12/24 AND 12/31, THIS BOX MAY BE COLLECTED AS EARLY AS 12 NOON.", "ref": "9345400066"}, "type": "Feature"}
{"geometry": {"coordinates": [-120.434081223, 34.9314844655], "type": "Point"}, "id": "YHixnt1qRLCgmlRhrGK71bVyKv0=", "properties": {"@spider": "usps_collection_boxes", "addr:city": "SANTA MARIA", "addr:country": "US", "addr:full": "201 E BATTLES RD", "addr:postcode": "93454", "addr:state": "CA", "brand": "USPS", "collection_times": "Mo-Fr 17:30; Sa 17:00", "name": "USPS COLLECTION BOX - BLUE BOX", "note": "ON 12/24 AND 12/31, THIS BOX MAY BE COLLECTED AS EARLY AS 12 NOON.", "ref": "9345400074"}, "type": "Feature"}
{"geometry": {"coordinates": [-120.434081223, 34.9314844655], "type": "Point"}, "id": "B_pmXuNLRxqBvVN5_jPbIl4YTIo=", "properties": {"@spider": "usps_collection_boxes", "addr:city": "SANTA MARIA", "addr:country": "US", "addr:full": "201 E BATTLES RD", "addr:postcode": "93454", "addr:state": "CA", "brand": "USPS", "collection_times": "Mo-Fr 17:30; Sa 17:00", "name": "USPS COLLECTION BOX - BLUE BOX", "note": "ON 12/24 AND 12/31, THIS BOX MAY BE COLLECTED AS EARLY AS 12 NOON.", "ref": "9345400075"}, "type": "Feature"}
{"geometry": {"coordinates": [-120.434081223, 34.9314844655], "type": "Point"}, "id": "CY5ytD41_CVp2_PKSVkHnbpJnpA=", "properties": {"@spider": "usps_collection_boxes", "addr:city": "SANTA MARIA", "addr:country": "US", "addr:full": "201 E BATTLES RD", "addr:postcode": "93454", "addr:state": "CA", "brand": "USPS", "collection_times": "Mo-Fr 17:30; Sa 17:00", "name": "USPS COLLECTION BOX - BLUE BOX", "note": "ON 12/24 AND 12/31, THIS BOX MAY BE COLLECTED AS EARLY AS 12 NOON.", "ref": "9345400076"}, "type": "Feature"}
{"geometry": {"coordinates": [-120.423452, 34.954337], "type": "Point"}, "id": "wSfRteJFXfXE7yo-3Wg0gCx9JHQ=", "properties": {"@spider": "usps_collection_boxes", "addr:city": "SANTA MARIA", "addr:country": "US", "addr:full": "821 E CHAPEL ST", "addr:postcode": "93454", "addr:state": "CA", "brand": "USPS", "collection_times": "Mo-Sa 13:00", "name": "USPS COLLECTION BOX - BLUE BOX", "note": "ON 12/24 AND 12/31, THIS BOX MAY BE COLLECTED AS EARLY AS 12 NOON.", "ref": "9345400095"}, "type": "Feature"}
{"geometry": {"coordinates": [-120.421601, 34.93409], "type": "Point"}, "id": "kd338TeUEt6HcJv3Phg8Lne8_dU=", "properties": {"@spider": "usps_collection_boxes", "addr:city": "SANTA MARIA", "addr:country": "US", "addr:full": "1505 SHEPARD DR", "addr:postcode": "93454", "addr:state": "CA", "brand": "USPS", "collection_times": "Mo-Sa 10:00", "name": "USPS COLLECTION BOX - BLUE BOX", "ref": "9345400096"}, "type": "Feature"}
{"geometry": {"coordinates": [-120.434266, 34.973286], "type": "Point"}, "id": "VcNHly9Zo-AR2CdeC1m5P7dyj24=", "properties": {"@spider": "usps_collection_boxes", "addr:city": "SANTA MARIA", "addr:country": "US", "addr:full": "1832 N BROADWAY", "addr:postcode": "93454", "addr:state": "CA", "brand": "USPS", "collection_times": "Mo-Sa 10:00", "name": "USPS COLLECTION BOX - BLUE BOX", "ref": "9345400098"}, "type": "Feature"}
{"geometry": {"coordinates": [-120.434081223, 34.9314844655], "type": "Point"}, "id": "GO3Z8cOHZzu4JsolBXQjyNPpKxk=", "properties": {"@spider": "usps_collection_boxes", "addr:city": "SANTA MARIA", "addr:country": "US", "addr:full": "201 E BATTLES RD", "addr:postcode": "93454", "addr:state": "CA", "brand": "USPS", "collection_times": "Mo-Fr 17:30; Sa 17:00", "name": "USPS COLLECTION BOX - PO LOBBY", "note": "ON 12/24 AND 12/31, THIS BOX MAY BE COLLECTED AS EARLY AS 12 NOON.", "ref": "9345400100"}, "type": "Feature"}
{"geometry": {"coordinates": [-120.432771, 34.948569], "type": "Point"}, "id": "efTkjOqQozBMFxhdh5FMiHqiE2Q=", "properties": {"@spider": "usps_collection_boxes", "addr:city": "SANTA MARIA", "addr:country": "US", "addr:full": "312 E COOK ST", "addr:postcode": "93454", "addr:state": "CA", "brand": "USPS", "collection_times": "Mo-Fr 15:00", "name": "USPS COLLECTION BOX - BLUE BOX", "note": "ON 12/24 AND 12/31, THIS BOX MAY BE COLLECTED AS EARLY AS 12 NOON.", "ref": "9345400102"}, "type": "Feature"}
{"geometry": {"coordinates": [-120.434081223, 34.9314844655], "type": "Point"}, "id": "fI-12wi_fzQy0Nr5mPeuVL8T8mY=", "properties": {"@spider": "usps_collection_boxes", "addr:city": "SANTA MARIA", "addr:country": "US", "addr:full": "201 E BATTLES RD", "addr:postcode": "93454", "addr:state": "CA", "brand": "USPS", "collection_times": "Mo-Fr 17:30; Sa 17:00", "name": "USPS COLLECTION BOX - APC", "note": "ON 12/24 AND 12/31, THIS BOX MAY BE COLLECTED AS EARLY AS 12 NOON.", "ref": "9345400103"}, "type": "Feature"}
{"geometry": {"coordinates": [-120.434081223, 34.9314844655], "type": "Point"}, "id": "pUgW3EFJg1bA6Tw-AztqEMz8nB0=", "properties": {"@spider": "usps_collection_boxes", "addr:city": "SANTA MARIA", "addr:country": "US", "addr:full": "201 E BATTLES RD", "addr:postcode": "93454", "addr:state": "CA", "brand": "USPS", "collection_times": "Mo-Fr 17:30", "name": "USPS COLLECTION BOX - PO LOBBY", "note": "ON 12/24 AND 12/31, THIS BOX MAY BE COLLECTED AS EARLY AS 12 NOON.", "ref": "9345400113"}, "type": "Feature"}
{"geometry": {"coordinates": [-120.418301, 34.88684], "type": "Point"}, "id": "CNCco9NvLY5Ku2NUmNj07yrNz0A=", "properties": {"@spider": "usps_collection_boxes", "addr:city": "SANTA MARIA", "addr:country": "US", "addr:full": "4012 S BRADLEY RD", "addr:postcode": "93455", "addr:state": "CA", "brand": "USPS", "collection_times": "Mo-Sa 10:00", "name": "USPS COLLECTION BOX - BLUE BOX", "ref": "9345500000"}, "type": "Feature"}
{"geometry": {"coordinates": [-120.429364, 34.922441], "type": "Point"}, "id": "pnk8QRM6zJZhYgP55p3Evdnw3tU=", "properties": {"@spider": "usps_collection_boxes", "addr:city": "SANTA MARIA", "addr:country": "US", "addr:full": "2125 CENTERPOINTE PKWY", "addr:postcode": "93455", "addr:state": "CA", "brand": "USPS", "collection_times": "Mo-Fr 15:00; Sa 13:00", "name": "USPS COLLECTION BOX - BLUE BOX", "note": "ON 12/24 AND 12/31, THIS BOX MAY BE COLLECTED AS EARLY AS 12 NOON.", "ref": "9345500001"}, "type": "Feature"}
{"geometry": {"coordinates": [-120.417644, 34.864457], "type": "Point"}, "id": "L7sPHJ0_GRNxDJplrYuwIejSZME=", "properties": {"@spider": "usps_collection_boxes", "addr:city": "SANTA MARIA", "addr:country": "US", "addr:full": "1110 E CLARK AVE", "addr:postcode": "93455", "addr:state": "CA", "brand": "USPS", "collection_times": "Mo-Sa 10:00", "name": "USPS COLLECTION BOX - BLUE BOX", "ref": "9345500003"}, "type": "Feature"}
{"geometry": {"coordinates": [-120.417235, 34.865733], "type": "Point"}, "id": "qTyfvEE7C37hwNq11Cm3lSYbUbM=", "properties": {"@spider": "usps_collection_boxes", "addr:city": "SANTA MARIA", "addr:country": "US", "addr:full": "1155 E CLARK AVE", "addr:postcode": "93455", "addr:state": "CA", "brand": "USPS", "collection_times": "Mo-Fr 15:00; Sa 13:00", "name": "USPS COLLECTION BOX - BLUE BOX", "note": "ON 12/24 AND 12/31, THIS BOX MAY BE COLLECTED AS EARLY AS 12 NOON.", "ref": "9345500004"}, "type": "Feature"}
{"geometry": {"coordinates": [-120.417221, 34.865718], "type": "Point"}, "id": "9Dw0AD7eovntxRsWg3rJJS_PTX0=", "properties": {"@spider": "usps_collection_boxes", "addr:city": "SANTA MARIA", "addr:country": "US", "addr:full": "1155 E CLARK AVE", "addr:postcode": "93455", "addr:state": "CA", "brand": "USPS", "collection_times": "Mo-Fr 15:00; Sa 13:00", "name": "USPS COLLECTION BOX - BLUE BOX", "note": "ON 12/24 AND 12/31, THIS BOX MAY BE COLLECTED AS EARLY AS 12 NOON.", "ref": "9345500005"}, "type": "Feature"}
{"geometry": {"coordinates": [-120.438385, 34.91569], "type": "Point"}, "id": "pwgl7yTd8jty7LtCZL4n28km78Y=", "properties": {"@spider": "usps_collection_boxes", "addr:city": "SANTA MARIA", "addr:country": "US", "addr:full": "2432 PROFESSIONAL PKWY", "addr:postcode": "93455", "addr:state": "CA", "brand": "USPS", "collection_times": "Mo-Fr 15:00; Sa 13:00", "name": "USPS COLLECTION BOX - BLUE BOX", "note": "ON 12/24 AND 12/31, THIS BOX MAY BE COLLECTED AS EARLY AS 12 NOON.", "ref": "9345500010"}, "type": "Feature"}
{"geometry": {"coordinates": [-120.448955, 34.902938], "type": "Point"}, "id": "9vZk3sVlTIl6dtGvM-kKK_S_1TE=", "properties": {"@spider": "usps_collection_boxes", "addr:city": "SANTA MARIA", "addr:country": "US", "addr:full": "3130 SKYWAY DR", "addr:postcode": "93455", "addr:state": "CA", "brand": "USPS", "collection_times": "Mo-Fr 15:00; Sa 13:00", "name": "USPS COLLECTION BOX - BLUE BOX", "note": "ON 12/24 AND 12/31, THIS BOX MAY BE COLLECTED AS EARLY AS 12 NOON.", "ref": "9345500011"}, "type": "Feature"}
{"geometry": {"coordinates": [-120.448933, 34.90293], "type": "Point"}, "id": "4M3yPLDeTge0SfF917zA4t0rhAE=", "properties": {"@spider": "usps_collection_boxes", "addr:city": "SANTA MARIA", "addr:country": "US", "addr:full": "3130 SKYWAY DR", "addr:postcode": "93455", "addr:state": "CA", "brand": "USPS", "collection_times": "Mo-Fr 15:00; Sa 13:00", "name": "USPS COLLECTION BOX - BLUE BOX", "note": "ON 12/24 AND 12/31, THIS BOX MAY BE COLLECTED AS EARLY AS 12 NOON.", "ref": "9345500012"}, "type": "Feature"}
{"geometry": {"coordinates": [-120.4384, 34.915668], "type": "Point"}, "id": "VR37RA8kk2i8O9_oaalUXEox9l0=", "properties": {"@spider": "usps_collection_boxes", "addr:city": "SANTA MARIA", "addr:country": "US", "addr:full": "2432 PROFESSIONAL PKWY", "addr:postcode": "93455", "addr:state": "CA", "brand": "USPS", "collection_times": "Mo-Fr 15:00; Sa 13:00", "name": "USPS COLLECTION BOX - BLUE BOX", "note": "ON 12/24 AND 12/31, THIS BOX MAY BE COLLECTED AS EARLY AS 12 NOON.", "ref": "9345500015"}, "type": "Feature"}
{"geometry": {"coordinates": [-120.446498, 34.864225], "type": "Point"}, "id": "CXUUcYiwPQ2BA1si9JSNEeklly8=", "properties": {"@spider": "usps_collection_boxes", "addr:city": "SANTA MARIA", "addr:country": "US", "addr:full": "100 UNION AVE", "addr:postcode": "93455", "addr:state": "CA", "brand": "USPS", "collection_times": "Mo-Fr 17:00; Sa 14:00", "name": "USPS COLLECTION BOX - BLUE BOX", "note": "ON 12/24 AND 12/31, THIS BOX MAY BE COLLECTED AS EARLY AS 12 NOON.", "ref": "9345500018"}, "type": "Feature"}
{"geometry": {"coordinates": [-120.445982728, 34.864604239], "type": "Point"}, "id": "OqPfhsmsVP6rKB50lTqFRbR94yQ=", "properties": {"@spider": "usps_collection_boxes", "addr:city": "SANTA MARIA", "addr:country": "US", "addr:full": "155 S 1ST ST", "addr:postcode": "93455", "addr:state": "CA", "brand": "USPS", "collection_times": "Mo-Fr 17:00", "name": "USPS COLLECTION BOX - PO LOBBY", "note": "ON 12/24 AND 12/31, THIS BOX MAY BE COLLECTED AS EARLY AS 12 NOON.", "ref": "9345500020"}, "type": "Feature"}
{"geometry": {"coordinates": [-120.449507, 34.953145], "type": "Point"}, "id": "9CyfYVJngE08kxgJObCx0lm9p6c=", "properties": {"@spider": "usps_collection_boxes", "addr:city": "SANTA MARIA", "addr:country": "US", "addr:full": "1000 W MAIN ST", "addr:postcode": "93458", "addr:state": "CA", "brand": "USPS", "collection_times": "Mo-Sa 10:00", "name": "USPS COLLECTION BOX - BLUE BOX", "ref": "9345800002"}, "type": "Feature"}
{"geometry": {"coordinates": [-120.4406998324, 34.9750484932], "type": "Point"}, "id": "058yA_zbdI1O8oaFWrvMXsmhg58=", "properties": {"@spider": "usps_collection_boxes", "addr:city": "SANTA MARIA", "addr:country": "US", "addr:full": "519 W TAYLOR ST", "addr:postcode": "93458", "addr:state": "CA", "brand": "USPS", "collection_times": "Mo-Sa 10:00", "name": "USPS COLLECTION BOX - BLUE BOX", "ref": "9345800006"}, "type": "Feature"}
{"geometry": {"coordinates": [-120.081206, 34.612873], "type": "Point"}, "id": "iMzIqME7y5leO5z4aP-zEibnp0k=", "properties": {"@spider": "usps_collection_boxes", "addr:city": "SANTA YNEZ", "addr:country": "US", "addr:full": "3564 SAGUNTO ST", "addr:postcode": "93460", "addr:state": "CA", "brand": "USPS", "collection_times": "Mo-Fr 16:30; Sa 09:30", "name": "USPS COLLECTION BOX - BLUE BOX", "note": "ON 12/24 AND 12/31, THIS BOX MAY BE COLLECTED AS EARLY AS 12 NOON.", "ref": "9346000002"}, "type": "Feature"}
{"geometry": {"coordinates": [-120.081163, 34.612386], "type": "Point"}, "id": "Yf2XcsIuxLJ1jVo8gsMLyAun7k8=", "properties": {"@spider": "usps_collection_boxes", "addr:city": "SANTA YNEZ", "addr:country": "US", "addr:full": "3564 SAGUNTO ST", "addr:postcode": "93460", "addr:state": "CA", "brand": "USPS", "collection_times": "Mo-Fr 16:30; Sa 09:30", "name": "USPS COLLECTION BOX - BLUE BOX", "note": "ON 12/24 AND 12/31, THIS BOX MAY BE COLLECTED AS EARLY AS 12 NOON.", "ref": "9346000003"}, "type": "Feature"}
{"geometry": {"coordinates": [-120.081175, 34.612364], "type": "Point"}, "id": "P2NWPbYE75l5OLrh2KjouKjxNSY=", "properties": {"@spider": "usps_collection_boxes", "addr:city": "SANTA YNEZ", "addr:country": "US", "addr:full": "3564 SAGUNTO ST", "addr:postcode": "93460", "addr:state": "CA", "brand": "USPS", "collection_times": "Mo-Fr 16:30; Sa 09:30", "name": "USPS COLLECTION BOX - BLUE BOX", "note": "ON 12/24 AND 12/31, THIS BOX MAY BE COLLECTED AS EARLY AS 12 NOON.", "ref": "9346000004"}, "type": "Feature"}
{"geometry": {"coordinates": [-120.0811452417, 34.6127965356], "type": "Point"}, "id": "e_or7cKiqKlE6GkXJ7F9UEoliAE=", "properties": {"@spider": "usps_collection_boxes", "addr:city": "SANTA YNEZ", "addr:country": "US", "addr:full": "3564 SAGUNTO ST", "addr:postcode": "93460", "addr:state": "CA", "brand": "USPS", "collection_times": "Mo-Fr 16:30", "name": "USPS COLLECTION BOX - PO LOBBY", "note": "ON 12/24 AND 12/31, THIS BOX MAY BE COLLECTED AS EARLY AS 12 NOON.", "ref": "9346000005"}, "type": "Feature"}
{"geometry": {"coordinates": [-120.1389053183, 34.5939219545], "type": "Point"}, "id": "HycZ3KD7G9lEZDWDZQC8vIODcjE=", "properties": {"@spider": "usps_collection_boxes", "addr:city": "SOLVANG", "addr:country": "US", "addr:full": "430 ALISAL RD", "addr:postcode": "93463", "addr:state": "CA", "brand": "USPS", "collection_times": "Mo-Fr 17:00; Sa 13:30", "name": "USPS COLLECTION BOX - BLUE BOX", "note": "ON 12/24 AND 12/31, THIS BOX MAY BE COLLECTED AS EARLY AS 12 NOON.", "ref": "9346300006"}, "type": "Feature"}
{"geometry": {"coordinates": [-120.139221, 34.594195], "type": "Point"}, "id": "PuQ1ccJFHX_xFyvPpYmU-jYa5xM=", "properties": {"@spider": "usps_collection_boxes", "addr:city": "SOLVANG", "addr:country": "US", "addr:full": "433 ALISAL RD", "addr:postcode": "93463", "addr:state": "CA", "brand": "USPS", "collection_times": "Mo-Fr 16:30; Sa 14:00", "name": "USPS COLLECTION BOX - BLUE BOX", "note": "ON 12/24 AND 12/31, THIS BOX MAY BE COLLECTED AS EARLY AS 12 NOON.", "ref": "9346300007"}, "type": "Feature"}
{"geometry": {"coordinates": [-120.1389053183, 34.5939219545], "type": "Point"}, "id": "0iJuFZihwoO3izUBy15D4ttlc38=", "properties": {"@spider": "usps_collection_boxes", "addr:city": "SOLVANG", "addr:country": "US", "addr:full": "430 ALISAL RD", "addr:postcode": "93463", "addr:state": "CA", "brand": "USPS", "collection_times": "Mo-Fr 17:00; Sa 13:30", "name": "USPS COLLECTION BOX - BLUE BOX", "note": "ON 12/24 AND 12/31, THIS BOX MAY BE COLLECTED AS EARLY AS 12 NOON.", "ref": "9346300008"}, "type": "Feature"}
{"geometry": {"coordinates": [-120.127433, 34.599606], "type": "Point"}, "id": "N6Sbs28uOMv7KdPnSZzpxmHFmwY=", "properties": {"@spider": "usps_collection_boxes", "addr:city": "SOLVANG", "addr:country": "US", "addr:full": "2025 MISSION DR", "addr:postcode": "93463", "addr:state": "CA", "brand": "USPS", "collection_times": "Mo-Sa 10:00", "name": "USPS COLLECTION BOX - BLUE BOX", "ref": "9346300015"}, "type": "Feature"}
{"geometry": {"coordinates": [-120.1389053183, 34.5939219545], "type": "Point"}, "id": "PkYvKRTjy4yQIu0a-Z9P2sGc1zc=", "properties": {"@spider": "usps_collection_boxes", "addr:city": "SOLVANG", "addr:country": "US", "addr:full": "430 ALISAL RD", "addr:postcode": "93463", "addr:state": "CA", "brand": "USPS", "collection_times": "Mo-Fr 17:00; Sa 13:30", "name": "USPS COLLECTION BOX - PO LOBBY", "note": "ON 12/24 AND 12/31, THIS BOX MAY BE COLLECTED AS EARLY AS 12 NOON.", "ref": "9346300016"}, "type": "Feature"}
{"geometry": {"coordinates": [-120.1389053183, 34.5939219545], "type": "Point"}, "id": "ew8pHY9fNCqHAIDOvh9zbn3DSis=", "properties": {"@spider": "usps_collection_boxes", "addr:city": "SOLVANG", "addr:country": "US", "addr:full": "430 ALISAL RD", "addr:postcode": "93463", "addr:state": "CA", "brand": "USPS", "collection_times": "Mo-Fr 17:00", "name": "USPS COLLECTION BOX - PO LOBBY", "note": "ON 12/24 AND 12/31, THIS BOX MAY BE COLLECTED AS EARLY AS 12 NOON.", "ref": "9346300018"}, "type": "Feature"}
{"geometry": {"coordinates": [-120.6200012657, 35.1215998261], "type": "Point"}, "id": "QDvY_Cd33_fhvIauS2QONBGUlKA=", "properties": {"@spider": "usps_collection_boxes", "addr:city": "GROVER BEACH", "addr:country": "US", "addr:full": "917 GRAND AVE", "addr:postcode": "93483", "addr:state": "CA", "brand": "USPS", "collection_times": "Mo-Fr 16:45; Sa 10:00", "name": "USPS COLLECTION BOX - BLUE BOX", "note": "ON 12/24 AND 12/31, THIS BOX MAY BE COLLECTED AS EARLY AS 12 NOON.", "ref": "9348300001"}, "type": "Feature"}
{"geometry": {"coordinates": [-120.619955, 35.121507], "type": "Point"}, "id": "tWUh2NWKVgL07j9t32J_TEtGgBo=", "properties": {"@spider": "usps_collection_boxes", "addr:city": "GROVER BEACH", "addr:country": "US", "addr:full": "917 W GRAND AVE", "addr:postcode": "93483", "addr:state": "CA", "brand": "USPS", "collection_times": "Mo-Fr 16:45; Sa 10:00", "name": "USPS COLLECTION BOX - BLUE BOX", "note": "ON 12/24 AND 12/31, THIS BOX MAY BE COLLECTED AS EARLY AS 12 NOON.", "ref": "9348300003"}, "type": "Feature"}
{"geometry": {"coordinates": [-120.6200012657, 35.1215998261], "type": "Point"}, "id": "MUzSh0ff2bvxFXejleLL2XuHkKg=", "properties": {"@spider": "usps_collection_boxes", "addr:city": "GROVER BEACH", "addr:country": "US", "addr:full": "917 GRAND AVE", "addr:postcode": "93483", "addr:state": "CA", "brand": "USPS", "collection_times": "Mo-Fr 16:45; Sa 10:00", "name": "USPS COLLECTION BOX - BLUE BOX", "note": "ON 12/24 AND 12/31, THIS BOX MAY BE COLLECTED AS EARLY AS 12 NOON.", "ref": "9348300004"}, "type": "Feature"}
{"geometry": {"coordinates": [-120.6200012657, 35.1215998261], "type": "Point"}, "id": "IJtbovvWOpYYPZOwqL7f_lhlf8c=", "properties": {"@spider": "usps_collection_boxes", "addr:city": "GROVER BEACH", "addr:country": "US", "addr:full": "917 GRAND AVE", "addr:postcode": "93483", "addr:state": "CA", "brand": "USPS", "collection_times": "Mo-Fr 16:45; Sa 10:00", "name": "USPS COLLECTION BOX - PO LOBBY", "note": "ON 12/24 AND 12/31, THIS BOX MAY BE COLLECTED AS EARLY AS 12 NOON.", "ref": "9348300006"}, "type": "Feature"}
