{"geometry": {"coordinates": [-118.170354, 35.055941], "type": "Point"}, "id": "1mjd2EvqjnszVYiGw7SMqmamYT4=", "properties": {"@source_uri": "https://tools.usps.com/UspsToolsRestServices/rest/POLocator/findLocations", "@spider": "usps_collection_boxes", "addr:city": "MOJAVE", "addr:country": "US", "addr:postcode": "93501", "addr:state": "CA", "addr:street_address": "2053 BELSHAW ST", "amenity": "post_box", "brand": "United States Postal Service", "brand:wikidata": "Q668687", "collection_times": "Mo-Fr 16:00; Sa 14:00", "note": "ON 12/24 AND 12/31, THIS BOX MAY BE COLLECTED AS EARLY AS 12 NOON.", "nsi_id": "unitedstatespostalservice-a77078", "operator": "United States Postal Service", "operator:short": "USPS", "operator:type": "public", "operator:wikidata": "Q668687", "ref": "9350100001"}, "type": "Feature"}
{"geometry": {"coordinates": [-118.170206, 35.056172], "type": "Point"}, "id": "CgZTeygMW0xOCQTwhqf-1D4RB5k=", "properties": {"@source_uri": "https://tools.usps.com/UspsToolsRestServices/rest/POLocator/findLocations", "@spider": "usps_collection_boxes", "addr:city": "MOJAVE", "addr:country": "US", "addr:postcode": "93501", "addr:state": "CA", "addr:street_address": "2053 BELSHAW ST", "amenity": "post_box", "brand": "United States Postal Service", "brand:wikidata": "Q668687", "collection_times": "Mo-Fr 16:00; Sa 14:00", "indoor": "yes", "note": "ON 12/24 AND 12/31, THIS BOX MAY BE COLLECTED AS EARLY AS 12 NOON.", "nsi_id": "unitedstatespostalservice-a77078", "operator": "United States Postal Service", "operator:short": "USPS", "operator:type": "public", "operator:wikidata": "Q668687", "ref": "9350100010"}, "type": "Feature"}
{"geometry": {"coordinates": [-118.162697, 35.04607], "type": "Point"}, "id": "0b3BJC0wPlOaG8PzV18gQBLQwBA=", "properties": {"@source_uri": "https://tools.usps.com/UspsToolsRestServices/rest/POLocator/findLocations", "@spider": "usps_collection_boxes", "addr:city": "MOJAVE", "addr:country": "US", "addr:postcode": "93501", "addr:state": "CA", "addr:street_address": "1773 HIGHWAY 58", "amenity": "post_box", "brand": "United States Postal Service", "brand:wikidata": "Q668687", "collection_times": "Mo-Sa 10:00", "nsi_id": "unitedstatespostalservice-a77078", "operator": "United States Postal Service", "operator:short": "USPS", "operator:type": "public", "operator:wikidata": "Q668687", "ref": "9350100011"}, "type": "Feature"}
{"geometry": {"coordinates": [-118.1684731889, 35.0562576108], "type": "Point"}, "id": "20dwY0j00oABGz-S3LNPkQlcdyE=", "properties": {"@source_uri": "https://tools.usps.com/UspsToolsRestServices/rest/POLocator/findLocations", "@spider": "usps_collection_boxes", "addr:city": "MOJAVE", "addr:country": "US", "addr:postcode": "93501", "addr:state": "CA", "addr:street_address": "2053 BELSHAW ST", "amenity": "post_box", "brand": "United States Postal Service", "brand:wikidata": "Q668687", "collection_times": "Mo-Fr 16:00", "indoor": "yes", "note": "ON 12/24 AND 12/31, THIS BOX MAY BE COLLECTED AS EARLY AS 12 NOON.", "nsi_id": "unitedstatespostalservice-a77078", "operator": "United States Postal Service", "operator:short": "USPS", "operator:type": "public", "operator:wikidata": "Q668687", "ref": "9350100012"}, "type": "Feature"}
{"geometry": {"coordinates": [-117.9598140166, 35.1273601855], "type": "Point"}, "id": "PVxwXdVImirqk-wnnoLNERzujYQ=", "properties": {"@source_uri": "https://tools.usps.com/UspsToolsRestServices/rest/POLocator/findLocations", "@spider": "usps_collection_boxes", "addr:city": "CALIFORNIA CITY", "addr:country": "US", "addr:postcode": "93505", "addr:state": "CA", "addr:street_address": "21100 HACIENDA BLVD", "amenity": "post_box", "brand": "United States Postal Service", "brand:wikidata": "Q668687", "collection_times": "Mo-Fr 17:00; Sa 13:00", "indoor": "yes", "note": "ON 12/24 AND 12/31, THIS BOX MAY BE COLLECTED AS EARLY AS 12 NOON.", "nsi_id": "unitedstatespostalservice-a77078", "operator": "United States Postal Service", "operator:short": "USPS", "operator:type": "public", "operator:wikidata": "Q668687", "ref": "9350500003"}, "type": "Feature"}
{"geometry": {"coordinates": [-117.9598140166, 35.1273601855], "type": "Point"}, "id": "vb7KatdV0xf7077vTAS3_KvwAxA=", "properties": {"@source_uri": "https://tools.usps.com/UspsToolsRestServices/rest/POLocator/findLocations", "@spider": "usps_collection_boxes", "addr:city": "CALIFORNIA CITY", "addr:country": "US", "addr:postcode": "93505", "addr:state": "CA", "addr:street_address": "21100 HACIENDA BLVD", "amenity": "post_box", "brand": "United States Postal Service", "brand:wikidata": "Q668687", "collection_times": "Mo-Fr 17:00; Sa 14:30", "note": "ON 12/24 AND 12/31, THIS BOX MAY BE COLLECTED AS EARLY AS 12 NOON.", "nsi_id": "unitedstatespostalservice-a77078", "operator": "United States Postal Service", "operator:short": "USPS", "operator:type": "public", "operator:wikidata": "Q668687", "ref": "9350500004"}, "type": "Feature"}
{"geometry": {"coordinates": [-117.9598140166, 35.1273601855], "type": "Point"}, "id": "EsgZZSk7gozeHl-JjZagEL6drW4=", "properties": {"@source_uri": "https://tools.usps.com/UspsToolsRestServices/rest/POLocator/findLocations", "@spider": "usps_collection_boxes", "addr:city": "CALIFORNIA CITY", "addr:country": "US", "addr:postcode": "93505", "addr:state": "CA", "addr:street_address": "21100 HACIENDA BLVD", "amenity": "post_box", "brand": "United States Postal Service", "brand:wikidata": "Q668687", "collection_times": "Mo-Fr 17:00; Sa 14:30", "note": "ON 12/24 AND 12/31, THIS BOX MAY BE COLLECTED AS EARLY AS 12 NOON.", "nsi_id": "unitedstatespostalservice-a77078", "operator": "United States Postal Service", "operator:short": "USPS", "operator:type": "public", "operator:wikidata": "Q668687", "ref": "9350500005"}, "type": "Feature"}
{"geometry": {"coordinates": [-117.992454, 35.125623], "type": "Point"}, "id": "h_MPZd0iTEcAIuT6QdOL5F4ZlmY=", "properties": {"@source_uri": "https://tools.usps.com/UspsToolsRestServices/rest/POLocator/findLocations", "@spider": "usps_collection_boxes", "addr:city": "CALIFORNIA CITY", "addr:country": "US", "addr:postcode": "93505", "addr:state": "CA", "addr:street_address": "7594 CALIFORNIA CITY BLVD", "amenity": "post_box", "brand": "United States Postal Service", "brand:wikidata": "Q668687", "collection_times": "Mo-Sa 10:00", "nsi_id": "unitedstatespostalservice-a77078", "operator": "United States Postal Service", "operator:short": "USPS", "operator:type": "public", "operator:wikidata": "Q668687", "ref": "9350500006"}, "type": "Feature"}
{"geometry": {"coordinates": [-117.9598140166, 35.1273601855], "type": "Point"}, "id": "8p9WxaBdPGI6ZPSyq7Xc7SbXby8=", "properties": {"@source_uri": "https://tools.usps.com/UspsToolsRestServices/rest/POLocator/findLocations", "@spider": "usps_collection_boxes", "addr:city": "CALIFORNIA CITY", "addr:country": "US", "addr:postcode": "93505", "addr:state": "CA", "addr:street_address": "21100 HACIENDA BLVD", "amenity": "post_box", "brand": "United States Postal Service", "brand:wikidata": "Q668687", "collection_times": "Mo-Fr 16:30", "indoor": "yes", "note": "ON 12/24 AND 12/31, THIS BOX MAY BE COLLECTED AS EARLY AS 12 NOON.", "nsi_id": "unitedstatespostalservice-a77078", "operator": "United States Postal Service", "operator:short": "USPS", "operator:type": "public", "operator:wikidata": "Q668687", "ref": "9350500007"}, "type": "Feature"}
{"geometry": {"coordinates": [-118.1957889572, 34.4680105067], "type": "Point"}, "id": "v7kUJtIEjqdbTwLiWyLcIg1YnmY=", "properties": {"@source_uri": "https://tools.usps.com/UspsToolsRestServices/rest/POLocator/findLocations", "@spider": "usps_collection_boxes", "addr:city": "ACTON", "addr:country": "US", "addr:postcode": "93510", "addr:state": "CA", "addr:street_address": "3632 SMITH AVE", "amenity": "post_box", "brand": "United States Postal Service", "brand:wikidata": "Q668687", "collection_times": "Mo-Fr 16:30; Sa 12:30", "note": "ON 12/24 AND 12/31, THIS BOX MAY BE COLLECTED AS EARLY AS 12 NOON.", "nsi_id": "unitedstatespostalservice-a77078", "operator": "United States Postal Service", "operator:short": "USPS", "operator:type": "public", "operator:wikidata": "Q668687", "ref": "9351000000"}, "type": "Feature"}
{"geometry": {"coordinates": [-118.1957889572, 34.4680105067], "type": "Point"}, "id": "E5SEBIMW8VYsXhrijtGCPevTKvg=", "properties": {"@source_uri": "https://tools.usps.com/UspsToolsRestServices/rest/POLocator/findLocations", "@spider": "usps_collection_boxes", "addr:city": "ACTON", "addr:country": "US", "addr:postcode": "93510", "addr:state": "CA", "addr:street_address": "3632 SMITH AVE", "amenity": "post_box", "brand": "United States Postal Service", "brand:wikidata": "Q668687", "collection_times": "Mo-Fr 16:30; Sa 12:30", "indoor": "yes", "note": "ON 12/24 AND 12/31, THIS BOX MAY BE COLLECTED AS EARLY AS 12 NOON.", "nsi_id": "unitedstatespostalservice-a77078", "operator": "United States Postal Service", "operator:short": "USPS", "operator:type": "public", "operator:wikidata": "Q668687", "ref": "9351000001"}, "type": "Feature"}
{"geometry": {"coordinates": [-118.1957889572, 34.4680105067], "type": "Point"}, "id": "YO5Kt0hm3nE14N5WLuBK_FoY4yA=", "properties": {"@source_uri": "https://tools.usps.com/UspsToolsRestServices/rest/POLocator/findLocations", "@spider": "usps_collection_boxes", "addr:city": "ACTON", "addr:country": "US", "addr:postcode": "93510", "addr:state": "CA", "addr:street_address": "3632 SMITH AVE", "amenity": "post_box", "brand": "United States Postal Service", "brand:wikidata": "Q668687", "collection_times": "Mo-Fr 17:00", "indoor": "yes", "note": "ON 12/24 AND 12/31, THIS BOX MAY BE COLLECTED AS EARLY AS 12 NOON.", "nsi_id": "unitedstatespostalservice-a77078", "operator": "United States Postal Service", "operator:short": "USPS", "operator:type": "public", "operator:wikidata": "Q668687", "ref": "9351000003"}, "type": "Feature"}
{"geometry": {"coordinates": [-118.289519542, 37.16689478], "type": "Point"}, "id": "QV4mb_HaWfdVeCTSIw2tbV05X-g=", "properties": {"@source_uri": "https://tools.usps.com/UspsToolsRestServices/rest/POLocator/findLocations", "@spider": "usps_collection_boxes", "addr:city": "BIG PINE", "addr:country": "US", "addr:postcode": "93513", "addr:state": "CA", "addr:street_address": "140 N MAIN ST", "amenity": "post_box", "brand": "United States Postal Service", "brand:wikidata": "Q668687", "collection_times": "Mo-Fr 13:00; Sa 10:00", "note": "ON 12/24 AND 12/31, THIS BOX MAY BE COLLECTED AS EARLY AS 12 NOON.", "nsi_id": "unitedstatespostalservice-a77078", "operator": "United States Postal Service", "operator:short": "USPS", "operator:type": "public", "operator:wikidata": "Q668687", "ref": "9351300000"}, "type": "Feature"}
{"geometry": {"coordinates": [-118.289519542, 37.16689478], "type": "Point"}, "id": "4-w53DSG6JtlOv_pUCVTR_mjA_Q=", "properties": {"@source_uri": "https://tools.usps.com/UspsToolsRestServices/rest/POLocator/findLocations", "@spider": "usps_collection_boxes", "addr:city": "BIG PINE", "addr:country": "US", "addr:postcode": "93513", "addr:state": "CA", "addr:street_address": "140 N MAIN ST", "amenity": "post_box", "brand": "United States Postal Service", "brand:wikidata": "Q668687", "collection_times": "Mo-Fr 13:00; Sa 10:00", "indoor": "yes", "note": "ON 12/24 AND 12/31, THIS BOX MAY BE COLLECTED AS EARLY AS 12 NOON.", "nsi_id": "unitedstatespostalservice-a77078", "operator": "United States Postal Service", "operator:short": "USPS", "operator:type": "public", "operator:wikidata": "Q668687", "ref": "9351300001"}, "type": "Feature"}
{"geometry": {"coordinates": [-118.289519542, 37.16689478], "type": "Point"}, "id": "V8TqGuF85b-0JeexI-PG18lr_Ys=", "properties": {"@source_uri": "https://tools.usps.com/UspsToolsRestServices/rest/POLocator/findLocations", "@spider": "usps_collection_boxes", "addr:city": "BIG PINE", "addr:country": "US", "addr:postcode": "93513", "addr:state": "CA", "addr:street_address": "140 N MAIN ST", "amenity": "post_box", "brand": "United States Postal Service", "brand:wikidata": "Q668687", "collection_times": "Mo-Fr 13:00", "indoor": "yes", "note": "ON 12/24 AND 12/31, THIS BOX MAY BE COLLECTED AS EARLY AS 12 NOON.", "nsi_id": "unitedstatespostalservice-a77078", "operator": "United States Postal Service", "operator:short": "USPS", "operator:type": "public", "operator:wikidata": "Q668687", "ref": "9351300002"}, "type": "Feature"}
{"geometry": {"coordinates": [-118.400194, 37.362001], "type": "Point"}, "id": "71h4PJLPJPVDilFedgdz6iOP43M=", "properties": {"@source_uri": "https://tools.usps.com/UspsToolsRestServices/rest/POLocator/findLocations", "@spider": "usps_collection_boxes", "addr:city": "BISHOP", "addr:country": "US", "addr:postcode": "93514", "addr:state": "CA", "addr:street_address": "595 W LINE ST", "amenity": "post_box", "brand": "United States Postal Service", "brand:wikidata": "Q668687", "collection_times": "Mo-Sa 12:30", "note": "ON 12/24 AND 12/31, THIS BOX MAY BE COLLECTED AS EARLY AS 12 NOON.", "nsi_id": "unitedstatespostalservice-a77078", "operator": "United States Postal Service", "operator:short": "USPS", "operator:type": "public", "operator:wikidata": "Q668687", "ref": "9351400001"}, "type": "Feature"}
{"geometry": {"coordinates": [-118.395145, 37.361358], "type": "Point"}, "id": "T4m2K0ihnkcOd6Wrj956JoB7Doc=", "properties": {"@source_uri": "https://tools.usps.com/UspsToolsRestServices/rest/POLocator/findLocations", "@spider": "usps_collection_boxes", "addr:city": "BISHOP", "addr:country": "US", "addr:postcode": "93514", "addr:state": "CA", "addr:street_address": "106 S MAIN ST", "amenity": "post_box", "brand": "United States Postal Service", "brand:wikidata": "Q668687", "collection_times": "Mo-Sa 11:30", "nsi_id": "unitedstatespostalservice-a77078", "operator": "United States Postal Service", "operator:short": "USPS", "operator:type": "public", "operator:wikidata": "Q668687", "ref": "9351400002"}, "type": "Feature"}
{"geometry": {"coordinates": [-118.395132, 37.362902], "type": "Point"}, "id": "eJn9FffhJYRkpkAKrrIIrkmaXjo=", "properties": {"@source_uri": "https://tools.usps.com/UspsToolsRestServices/rest/POLocator/findLocations", "@spider": "usps_collection_boxes", "addr:city": "BISHOP", "addr:country": "US", "addr:postcode": "93514", "addr:state": "CA", "addr:street_address": "312 N MAIN ST", "amenity": "post_box", "brand": "United States Postal Service", "brand:wikidata": "Q668687", "collection_times": "Mo-Sa 11:30", "nsi_id": "unitedstatespostalservice-a77078", "operator": "United States Postal Service", "operator:short": "USPS", "operator:type": "public", "operator:wikidata": "Q668687", "ref": "9351400004"}, "type": "Feature"}
{"geometry": {"coordinates": [-118.397303, 37.361478], "type": "Point"}, "id": "8iarSwCRbm8buwb9v08SN_3Ui6s=", "properties": {"@source_uri": "https://tools.usps.com/UspsToolsRestServices/rest/POLocator/findLocations", "@spider": "usps_collection_boxes", "addr:city": "BISHOP", "addr:country": "US", "addr:postcode": "93514", "addr:state": "CA", "addr:street_address": "301 W LINE ST", "amenity": "post_box", "brand": "United States Postal Service", "brand:wikidata": "Q668687", "collection_times": "Mo-Sa 11:30", "nsi_id": "unitedstatespostalservice-a77078", "operator": "United States Postal Service", "operator:short": "USPS", "operator:type": "public", "operator:wikidata": "Q668687", "ref": "9351400006"}, "type": "Feature"}
{"geometry": {"coordinates": [-118.395386, 37.359556], "type": "Point"}, "id": "yEkwZf66gfyA7UDDRUe-XFVa3Ww=", "properties": {"@source_uri": "https://tools.usps.com/UspsToolsRestServices/rest/POLocator/findLocations", "@spider": "usps_collection_boxes", "addr:city": "BISHOP", "addr:country": "US", "addr:postcode": "93514", "addr:state": "CA", "addr:street_address": "263 S MAIN ST", "amenity": "post_box", "brand": "United States Postal Service", "brand:wikidata": "Q668687", "collection_times": "Mo-Sa 11:30", "nsi_id": "unitedstatespostalservice-a77078", "operator": "United States Postal Service", "operator:short": "USPS", "operator:type": "public", "operator:wikidata": "Q668687", "ref": "9351400011"}, "type": "Feature"}
{"geometry": {"coordinates": [-118.400362, 37.361534], "type": "Point"}, "id": "dc0WFZCfg2Yo2yASlg2D6oDSe7k=", "properties": {"@source_uri": "https://tools.usps.com/UspsToolsRestServices/rest/POLocator/findLocations", "@spider": "usps_collection_boxes", "addr:city": "BISHOP", "addr:country": "US", "addr:postcode": "93514", "addr:state": "CA", "addr:street_address": "595 W LINE ST", "amenity": "post_box", "brand": "United States Postal Service", "brand:wikidata": "Q668687", "collection_times": "Mo-Sa 12:30", "indoor": "yes", "note": "ON 12/24 AND 12/31, THIS BOX MAY BE COLLECTED AS EARLY AS 12 NOON.", "nsi_id": "unitedstatespostalservice-a77078", "operator": "United States Postal Service", "operator:short": "USPS", "operator:type": "public", "operator:wikidata": "Q668687", "ref": "9351400012"}, "type": "Feature"}
{"geometry": {"coordinates": [-118.400361, 37.361555], "type": "Point"}, "id": "NuaSO8ypMCLGUL0PWNrwUA4RDOg=", "properties": {"@source_uri": "https://tools.usps.com/UspsToolsRestServices/rest/POLocator/findLocations", "@spider": "usps_collection_boxes", "addr:city": "BISHOP", "addr:country": "US", "addr:postcode": "93514", "addr:state": "CA", "addr:street_address": "595 W LINE ST", "amenity": "post_box", "brand": "United States Postal Service", "brand:wikidata": "Q668687", "collection_times": "Mo-Sa 12:30", "indoor": "yes", "note": "ON 12/24 AND 12/31, THIS BOX MAY BE COLLECTED AS EARLY AS 12 NOON.", "nsi_id": "unitedstatespostalservice-a77078", "operator": "United States Postal Service", "operator:short": "USPS", "operator:type": "public", "operator:wikidata": "Q668687", "ref": "9351400013"}, "type": "Feature"}
{"geometry": {"coordinates": [-118.400172, 37.362003], "type": "Point"}, "id": "c8ac3JZwU5BFiXuUzDkn_UQeU8M=", "properties": {"@source_uri": "https://tools.usps.com/UspsToolsRestServices/rest/POLocator/findLocations", "@spider": "usps_collection_boxes", "addr:city": "BISHOP", "addr:country": "US", "addr:postcode": "93514", "addr:state": "CA", "addr:street_address": "595 W LINE ST", "amenity": "post_box", "brand": "United States Postal Service", "brand:wikidata": "Q668687", "collection_times": "Mo-Sa 12:30", "note": "ON 12/24 AND 12/31, THIS BOX MAY BE COLLECTED AS EARLY AS 12 NOON.", "nsi_id": "unitedstatespostalservice-a77078", "operator": "United States Postal Service", "operator:short": "USPS", "operator:type": "public", "operator:wikidata": "Q668687", "ref": "9351400014"}, "type": "Feature"}
{"geometry": {"coordinates": [-118.391844, 37.373127], "type": "Point"}, "id": "lPxR29fVO0tW9IauELq-4tdPQp4=", "properties": {"@source_uri": "https://tools.usps.com/UspsToolsRestServices/rest/POLocator/findLocations", "@spider": "usps_collection_boxes", "addr:city": "BISHOP", "addr:country": "US", "addr:postcode": "93514", "addr:state": "CA", "addr:street_address": "1190 N SIERRA HWY", "amenity": "post_box", "brand": "United States Postal Service", "brand:wikidata": "Q668687", "collection_times": "Mo-Sa 11:30", "nsi_id": "unitedstatespostalservice-a77078", "operator": "United States Postal Service", "operator:short": "USPS", "operator:type": "public", "operator:wikidata": "Q668687", "ref": "9351400015"}, "type": "Feature"}
{"geometry": {"coordinates": [-118.436921, 37.361137], "type": "Point"}, "id": "MZGj1Zz5pN8nGE7LGvUoAqOHnzM=", "properties": {"@source_uri": "https://tools.usps.com/UspsToolsRestServices/rest/POLocator/findLocations", "@spider": "usps_collection_boxes", "addr:city": "BISHOP", "addr:country": "US", "addr:postcode": "93514", "addr:state": "CA", "addr:street_address": "3100 W LINE ST", "amenity": "post_box", "brand": "United States Postal Service", "brand:wikidata": "Q668687", "collection_times": "Mo-Sa 11:30", "nsi_id": "unitedstatespostalservice-a77078", "operator": "United States Postal Service", "operator:short": "USPS", "operator:type": "public", "operator:wikidata": "Q668687", "ref": "9351400017"}, "type": "Feature"}
{"geometry": {"coordinates": [-118.400263805, 37.36140349], "type": "Point"}, "id": "OoB2t31x1atRl-on490LUjHeIao=", "properties": {"@source_uri": "https://tools.usps.com/UspsToolsRestServices/rest/POLocator/findLocations", "@spider": "usps_collection_boxes", "addr:city": "BISHOP", "addr:country": "US", "addr:postcode": "93514", "addr:state": "CA", "addr:street_address": "585 W LINE ST", "amenity": "post_box", "brand": "United States Postal Service", "brand:wikidata": "Q668687", "collection_times": "Mo-Fr 13:30", "indoor": "yes", "note": "ON 12/24 AND 12/31, THIS BOX MAY BE COLLECTED AS EARLY AS 12 NOON.", "nsi_id": "unitedstatespostalservice-a77078", "operator": "United States Postal Service", "operator:short": "USPS", "operator:type": "public", "operator:wikidata": "Q668687", "ref": "9351400019"}, "type": "Feature"}
{"geometry": {"coordinates": [-117.6500239037, 35.0018590801], "type": "Point"}, "id": "UUFUfbWSLKRcV2mWTW1VI_pJxTA=", "properties": {"@source_uri": "https://tools.usps.com/UspsToolsRestServices/rest/POLocator/findLocations", "@spider": "usps_collection_boxes", "addr:city": "BORON", "addr:country": "US", "addr:postcode": "93516", "addr:state": "CA", "addr:street_address": "26990 ANDERSON ST", "amenity": "post_box", "brand": "United States Postal Service", "brand:wikidata": "Q668687", "collection_times": "Mo-Fr 15:30", "note": "ON 12/24 AND 12/31, THIS BOX MAY BE COLLECTED AS EARLY AS 12 NOON.", "nsi_id": "unitedstatespostalservice-a77078", "operator": "United States Postal Service", "operator:short": "USPS", "operator:type": "public", "operator:wikidata": "Q668687", "ref": "9351600000"}, "type": "Feature"}
{"geometry": {"coordinates": [-117.6500239037, 35.0018590801], "type": "Point"}, "id": "uqVv_jysDMdjLXqrRqAp8TTw5u8=", "properties": {"@source_uri": "https://tools.usps.com/UspsToolsRestServices/rest/POLocator/findLocations", "@spider": "usps_collection_boxes", "addr:city": "BORON", "addr:country": "US", "addr:postcode": "93516", "addr:state": "CA", "addr:street_address": "26990 ANDERSON ST", "amenity": "post_box", "brand": "United States Postal Service", "brand:wikidata": "Q668687", "collection_times": "Mo-Fr 15:30; Sa 13:00", "indoor": "yes", "note": "ON 12/24 AND 12/31, THIS BOX MAY BE COLLECTED AS EARLY AS 12 NOON.", "nsi_id": "unitedstatespostalservice-a77078", "operator": "United States Postal Service", "operator:short": "USPS", "operator:type": "public", "operator:wikidata": "Q668687", "ref": "9351600006"}, "type": "Feature"}
{"geometry": {"coordinates": [-117.6500239037, 35.0018590801], "type": "Point"}, "id": "h8aLTSlOmeH7X9v7XB78_Of1moc=", "properties": {"@source_uri": "https://tools.usps.com/UspsToolsRestServices/rest/POLocator/findLocations", "@spider": "usps_collection_boxes", "addr:city": "BORON", "addr:country": "US", "addr:postcode": "93516", "addr:state": "CA", "addr:street_address": "26990 ANDERSON ST", "amenity": "post_box", "brand": "United States Postal Service", "brand:wikidata": "Q668687", "collection_times": "Mo-Fr 14:00", "indoor": "yes", "note": "ON 12/24 AND 12/31, THIS BOX MAY BE COLLECTED AS EARLY AS 12 NOON.", "nsi_id": "unitedstatespostalservice-a77078", "operator": "United States Postal Service", "operator:short": "USPS", "operator:type": "public", "operator:wikidata": "Q668687", "ref": "9351600007"}, "type": "Feature"}
{"geometry": {"coordinates": [-119.225347601, 38.255081526], "type": "Point"}, "id": "1kvtydAI9s5Zj4vyCnLnBmIFv4c=", "properties": {"@source_uri": "https://tools.usps.com/UspsToolsRestServices/rest/POLocator/findLocations", "@spider": "usps_collection_boxes", "addr:city": "BRIDGEPORT", "addr:country": "US", "addr:postcode": "93517", "addr:state": "CA", "addr:street_address": "29 KINGSLEY", "amenity": "post_box", "brand": "United States Postal Service", "brand:wikidata": "Q668687", "collection_times": "Mo-Sa 10:45", "indoor": "yes", "nsi_id": "unitedstatespostalservice-a77078", "operator": "United States Postal Service", "operator:short": "USPS", "operator:type": "public", "operator:wikidata": "Q668687", "ref": "9351700001"}, "type": "Feature"}
{"geometry": {"coordinates": [-119.225347601, 38.255081526], "type": "Point"}, "id": "jf0Ol2BzqRXwx8nhJpsIB03gEis=", "properties": {"@source_uri": "https://tools.usps.com/UspsToolsRestServices/rest/POLocator/findLocations", "@spider": "usps_collection_boxes", "addr:city": "BRIDGEPORT", "addr:country": "US", "addr:postcode": "93517", "addr:state": "CA", "addr:street_address": "29 KINGSLEY", "amenity": "post_box", "brand": "United States Postal Service", "brand:wikidata": "Q668687", "collection_times": "Mo-Fr 10:45", "indoor": "yes", "nsi_id": "unitedstatespostalservice-a77078", "operator": "United States Postal Service", "operator:short": "USPS", "operator:type": "public", "operator:wikidata": "Q668687", "ref": "9351700002"}, "type": "Feature"}
{"geometry": {"coordinates": [-118.5055764, 35.4226939], "type": "Point"}, "id": "nrk1Lix6ANoRDRWhFa4J4yRsNJc=", "properties": {"@source_uri": "https://tools.usps.com/UspsToolsRestServices/rest/POLocator/findLocations", "@spider": "usps_collection_boxes", "addr:city": "CALIENTE", "addr:country": "US", "addr:postcode": "93518", "addr:state": "CA", "addr:street_address": "27750 CALIENTE BODFISH RD", "amenity": "post_box", "brand": "United States Postal Service", "brand:wikidata": "Q668687", "collection_times": "Mo-Fr 11:30; Sa 08:15", "nsi_id": "unitedstatespostalservice-a77078", "operator": "United States Postal Service", "operator:short": "USPS", "operator:type": "public", "operator:wikidata": "Q668687", "ref": "9351800000"}, "type": "Feature"}
{"geometry": {"coordinates": [-118.627562, 35.290385], "type": "Point"}, "id": "fBau9GFbMn_6Smau_ewHkvShCzs=", "properties": {"@source_uri": "https://tools.usps.com/UspsToolsRestServices/rest/POLocator/findLocations", "@spider": "usps_collection_boxes", "addr:city": "CALIENTE", "addr:country": "US", "addr:postcode": "93518", "addr:state": "CA", "addr:street_address": "27750 CALIENTE BODFISH RD", "amenity": "post_box", "brand": "United States Postal Service", "brand:wikidata": "Q668687", "collection_times": "Mo-Fr 11:30; Sa 08:15", "indoor": "yes", "nsi_id": "unitedstatespostalservice-a77078", "operator": "United States Postal Service", "operator:short": "USPS", "operator:type": "public", "operator:wikidata": "Q668687", "ref": "9351800001"}, "type": "Feature"}
{"geometry": {"coordinates": [-118.394377316, 35.316297], "type": "Point"}, "id": "ILH216Cfm3PJKZlyPc2cXyTBlXo=", "properties": {"@source_uri": "https://tools.usps.com/UspsToolsRestServices/rest/POLocator/findLocations", "@spider": "usps_collection_boxes", "addr:city": "CALIENTE", "addr:country": "US", "addr:postcode": "93518", "addr:state": "CA", "addr:street_address": "CALIENTE", "amenity": "post_box", "brand": "United States Postal Service", "brand:wikidata": "Q668687", "collection_times": "Mo-Fr 11:30", "indoor": "yes", "nsi_id": "unitedstatespostalservice-a77078", "operator": "United States Postal Service", "operator:short": "USPS", "operator:type": "public", "operator:wikidata": "Q668687", "ref": "9351800003"}, "type": "Feature"}
{"geometry": {"coordinates": [-117.591158067, 36.268650954], "type": "Point"}, "id": "n5e8DZs89EAwFU13paDB0OE3feg=", "properties": {"@source_uri": "https://tools.usps.com/UspsToolsRestServices/rest/POLocator/findLocations", "@spider": "usps_collection_boxes", "addr:city": "DARWIN", "addr:country": "US", "addr:postcode": "93522", "addr:state": "CA", "addr:street_address": "251 REDDY ST", "amenity": "post_box", "brand": "United States Postal Service", "brand:wikidata": "Q668687", "collection_times": "Mo-Fr 11:00", "indoor": "yes", "nsi_id": "unitedstatespostalservice-a77078", "operator": "United States Postal Service", "operator:short": "USPS", "operator:type": "public", "operator:wikidata": "Q668687", "ref": "9352200001"}, "type": "Feature"}
{"geometry": {"coordinates": [-117.9316385647, 34.9260547818], "type": "Point"}, "id": "66mmdrw46f2-BRjECXKjSfnIJI0=", "properties": {"@source_uri": "https://tools.usps.com/UspsToolsRestServices/rest/POLocator/findLocations", "@spider": "usps_collection_boxes", "addr:city": "EDWARDS", "addr:country": "US", "addr:postcode": "93523", "addr:state": "CA", "addr:street_address": "1000 KINCHELOE AVE", "amenity": "post_box", "brand": "United States Postal Service", "brand:wikidata": "Q668687", "collection_times": "Mo-Sa 16:15", "note": "ON 12/24 AND 12/31, THIS BOX MAY BE COLLECTED AS EARLY AS 12 NOON.", "nsi_id": "unitedstatespostalservice-a77078", "operator": "United States Postal Service", "operator:short": "USPS", "operator:type": "public", "operator:wikidata": "Q668687", "ref": "9352300001"}, "type": "Feature"}
{"geometry": {"coordinates": [-117.900992, 34.925025], "type": "Point"}, "id": "rmI1BrcJjz16oET2sdPLvRhPMQ4=", "properties": {"@source_uri": "https://tools.usps.com/UspsToolsRestServices/rest/POLocator/findLocations", "@spider": "usps_collection_boxes", "addr:city": "EDWARDS", "addr:country": "US", "addr:postcode": "93523", "addr:state": "CA", "addr:street_address": "10 S MUROC DR", "amenity": "post_box", "brand": "United States Postal Service", "brand:wikidata": "Q668687", "collection_times": "Mo-Sa 10:00", "nsi_id": "unitedstatespostalservice-a77078", "operator": "United States Postal Service", "operator:short": "USPS", "operator:type": "public", "operator:wikidata": "Q668687", "ref": "9352300006"}, "type": "Feature"}
{"geometry": {"coordinates": [-117.9316385647, 34.9260547818], "type": "Point"}, "id": "eLX6TdLBR6PvwDjezKyqD6yUPTQ=", "properties": {"@source_uri": "https://tools.usps.com/UspsToolsRestServices/rest/POLocator/findLocations", "@spider": "usps_collection_boxes", "addr:city": "EDWARDS", "addr:country": "US", "addr:postcode": "93523", "addr:state": "CA", "addr:street_address": "1000 KINCHELOE AVE", "amenity": "post_box", "brand": "United States Postal Service", "brand:wikidata": "Q668687", "collection_times": "Mo-Sa 16:30", "indoor": "yes", "note": "ON 12/24 AND 12/31, THIS BOX MAY BE COLLECTED AS EARLY AS 12 NOON.", "nsi_id": "unitedstatespostalservice-a77078", "operator": "United States Postal Service", "operator:short": "USPS", "operator:type": "public", "operator:wikidata": "Q668687", "ref": "9352300016"}, "type": "Feature"}
{"geometry": {"coordinates": [-117.9375523, 34.9240904], "type": "Point"}, "id": "FbuvJaBRz7G8DttYiuy7S1t7HZ4=", "properties": {"@source_uri": "https://tools.usps.com/UspsToolsRestServices/rest/POLocator/findLocations", "@spider": "usps_collection_boxes", "addr:city": "EDWARDS", "addr:country": "US", "addr:postcode": "93523", "addr:state": "CA", "addr:street_address": "312 FITZGERALD AVE", "amenity": "post_box", "brand": "United States Postal Service", "brand:wikidata": "Q668687", "collection_times": "Mo-Sa 10:00", "nsi_id": "unitedstatespostalservice-a77078", "operator": "United States Postal Service", "operator:short": "USPS", "operator:type": "public", "operator:wikidata": "Q668687", "ref": "9352300021"}, "type": "Feature"}
{"geometry": {"coordinates": [-117.9316385647, 34.9260547818], "type": "Point"}, "id": "XpjVv8XLc0fuG6DBR6Wuk_s6998=", "properties": {"@source_uri": "https://tools.usps.com/UspsToolsRestServices/rest/POLocator/findLocations", "@spider": "usps_collection_boxes", "addr:city": "EDWARDS", "addr:country": "US", "addr:postcode": "93523", "addr:state": "CA", "addr:street_address": "1000 KINCHELOE AVE", "amenity": "post_box", "brand": "United States Postal Service", "brand:wikidata": "Q668687", "collection_times": "Mo-Fr 16:30", "indoor": "yes", "note": "ON 12/24 AND 12/31, THIS BOX MAY BE COLLECTED AS EARLY AS 12 NOON.", "nsi_id": "unitedstatespostalservice-a77078", "operator": "United States Postal Service", "operator:short": "USPS", "operator:type": "public", "operator:wikidata": "Q668687", "ref": "9352300022"}, "type": "Feature"}
{"geometry": {"coordinates": [-118.199547512, 36.802267524], "type": "Point"}, "id": "DFjBG_ODUaHxOahsb-CtfRPtBBA=", "properties": {"@source_uri": "https://tools.usps.com/UspsToolsRestServices/rest/POLocator/findLocations", "@spider": "usps_collection_boxes", "addr:city": "INDEPENDENCE", "addr:country": "US", "addr:postcode": "93526", "addr:state": "CA", "addr:street_address": "101 S EDWARDS ST", "amenity": "post_box", "brand": "United States Postal Service", "brand:wikidata": "Q668687", "collection_times": "Mo-Fr 13:30; Sa 09:45", "indoor": "yes", "note": "ON 12/24 AND 12/31, THIS BOX MAY BE COLLECTED AS EARLY AS 12 NOON.", "nsi_id": "unitedstatespostalservice-a77078", "operator": "United States Postal Service", "operator:short": "USPS", "operator:type": "public", "operator:wikidata": "Q668687", "ref": "9352600001"}, "type": "Feature"}
{"geometry": {"coordinates": [-118.199547512, 36.802267524], "type": "Point"}, "id": "vUxEbfKdEpWqGC4DYW0XeeRgetU=", "properties": {"@source_uri": "https://tools.usps.com/UspsToolsRestServices/rest/POLocator/findLocations", "@spider": "usps_collection_boxes", "addr:city": "INDEPENDENCE", "addr:country": "US", "addr:postcode": "93526", "addr:state": "CA", "addr:street_address": "101 S EDWARDS ST", "amenity": "post_box", "brand": "United States Postal Service", "brand:wikidata": "Q668687", "collection_times": "Mo-Fr 13:30; Sa 09:45", "note": "ON 12/24 AND 12/31, THIS BOX MAY BE COLLECTED AS EARLY AS 12 NOON.", "nsi_id": "unitedstatespostalservice-a77078", "operator": "United States Postal Service", "operator:short": "USPS", "operator:type": "public", "operator:wikidata": "Q668687", "ref": "9352600002"}, "type": "Feature"}
{"geometry": {"coordinates": [-118.199547512, 36.802267524], "type": "Point"}, "id": "StcPQ8lYFZjxn6qGettpVj01nqY=", "properties": {"@source_uri": "https://tools.usps.com/UspsToolsRestServices/rest/POLocator/findLocations", "@spider": "usps_collection_boxes", "addr:city": "INDEPENDENCE", "addr:country": "US", "addr:postcode": "93526", "addr:state": "CA", "addr:street_address": "101 S EDWARDS ST", "amenity": "post_box", "brand": "United States Postal Service", "brand:wikidata": "Q668687", "collection_times": "Mo-Fr 13:30", "indoor": "yes", "note": "ON 12/24 AND 12/31, THIS BOX MAY BE COLLECTED AS EARLY AS 12 NOON.", "nsi_id": "unitedstatespostalservice-a77078", "operator": "United States Postal Service", "operator:short": "USPS", "operator:type": "public", "operator:wikidata": "Q668687", "ref": "9352600003"}, "type": "Feature"}
{"geometry": {"coordinates": [-117.813221832, 35.645984472], "type": "Point"}, "id": "GzkcDX0HyFdT8J0ud4f9GOgse9Y=", "properties": {"@source_uri": "https://tools.usps.com/UspsToolsRestServices/rest/POLocator/findLocations", "@spider": "usps_collection_boxes", "addr:city": "INYOKERN", "addr:country": "US", "addr:postcode": "93527", "addr:state": "CA", "addr:street_address": "6504 LOCUST AVE", "amenity": "post_box", "brand": "United States Postal Service", "brand:wikidata": "Q668687", "collection_times": "Mo-Fr 15:15; Sa 10:30", "note": "ON 12/24 AND 12/31, THIS BOX MAY BE COLLECTED AS EARLY AS 12 NOON.", "nsi_id": "unitedstatespostalservice-a77078", "operator": "United States Postal Service", "operator:short": "USPS", "operator:type": "public", "operator:wikidata": "Q668687", "ref": "9352700001"}, "type": "Feature"}
{"geometry": {"coordinates": [-117.813221832, 35.645984472], "type": "Point"}, "id": "R3QHACD1iuNB5lEP0pygFWqYB4I=", "properties": {"@source_uri": "https://tools.usps.com/UspsToolsRestServices/rest/POLocator/findLocations", "@spider": "usps_collection_boxes", "addr:city": "INYOKERN", "addr:country": "US", "addr:postcode": "93527", "addr:state": "CA", "addr:street_address": "6504 LOCUST AVE", "amenity": "post_box", "brand": "United States Postal Service", "brand:wikidata": "Q668687", "collection_times": "Mo-Fr 15:15; Sa 10:30", "indoor": "yes", "note": "ON 12/24 AND 12/31, THIS BOX MAY BE COLLECTED AS EARLY AS 12 NOON.", "nsi_id": "unitedstatespostalservice-a77078", "operator": "United States Postal Service", "operator:short": "USPS", "operator:type": "public", "operator:wikidata": "Q668687", "ref": "9352700002"}, "type": "Feature"}
{"geometry": {"coordinates": [-117.813221832, 35.645984472], "type": "Point"}, "id": "bFpx7YJgPuMqQLoKLon2ICs8YBA=", "properties": {"@source_uri": "https://tools.usps.com/UspsToolsRestServices/rest/POLocator/findLocations", "@spider": "usps_collection_boxes", "addr:city": "INYOKERN", "addr:country": "US", "addr:postcode": "93527", "addr:state": "CA", "addr:street_address": "6504 LOCUST AVE", "amenity": "post_box", "brand": "United States Postal Service", "brand:wikidata": "Q668687", "collection_times": "Mo-Fr 15:15", "indoor": "yes", "note": "ON 12/24 AND 12/31, THIS BOX MAY BE COLLECTED AS EARLY AS 12 NOON.", "nsi_id": "unitedstatespostalservice-a77078", "operator": "United States Postal Service", "operator:short": "USPS", "operator:type": "public", "operator:wikidata": "Q668687", "ref": "9352700004"}, "type": "Feature"}
{"geometry": {"coordinates": [-117.633258916, 35.372054565], "type": "Point"}, "id": "yp4BCR80Y89RlBxxaKa0kNIhjw8=", "properties": {"@source_uri": "https://tools.usps.com/UspsToolsRestServices/rest/POLocator/findLocations", "@spider": "usps_collection_boxes", "addr:city": "JOHANNESBURG", "addr:country": "US", "addr:postcode": "93528", "addr:state": "CA", "addr:street_address": "515 BROADWAY AVE", "amenity": "post_box", "brand": "United States Postal Service", "brand:wikidata": "Q668687", "collection_times": "Mo-Fr 15:40; Sa 09:45", "note": "ON 12/24 AND 12/31, THIS BOX MAY BE COLLECTED AS EARLY AS 12 NOON.", "nsi_id": "unitedstatespostalservice-a77078", "operator": "United States Postal Service", "operator:short": "USPS", "operator:type": "public", "operator:wikidata": "Q668687", "ref": "9352800000"}, "type": "Feature"}
{"geometry": {"coordinates": [-117.633258916, 35.372054565], "type": "Point"}, "id": "h2ew4wgl2Jaq49hY6gIZYHJJPeM=", "properties": {"@source_uri": "https://tools.usps.com/UspsToolsRestServices/rest/POLocator/findLocations", "@spider": "usps_collection_boxes", "addr:city": "JOHANNESBURG", "addr:country": "US", "addr:postcode": "93528", "addr:state": "CA", "addr:street_address": "515 BROADWAY AVE", "amenity": "post_box", "brand": "United States Postal Service", "brand:wikidata": "Q668687", "collection_times": "Mo-Fr 15:30", "indoor": "yes", "note": "ON 12/24 AND 12/31, THIS BOX MAY BE COLLECTED AS EARLY AS 12 NOON.", "nsi_id": "unitedstatespostalservice-a77078", "operator": "United States Postal Service", "operator:short": "USPS", "operator:type": "public", "operator:wikidata": "Q668687", "ref": "9352800001"}, "type": "Feature"}
{"geometry": {"coordinates": [-119.075883638, 37.777936391], "type": "Point"}, "id": "V52N_svHCwLEstrjyYj3D_eKBVc=", "properties": {"@source_uri": "https://tools.usps.com/UspsToolsRestServices/rest/POLocator/findLocations", "@spider": "usps_collection_boxes", "addr:city": "JUNE LAKE", "addr:country": "US", "addr:postcode": "93529", "addr:state": "CA", "addr:street_address": "2747 BOULDER DR", "amenity": "post_box", "brand": "United States Postal Service", "brand:wikidata": "Q668687", "collection_times": "Mo-Fr 11:45; Sa 09:30", "indoor": "yes", "nsi_id": "unitedstatespostalservice-a77078", "operator": "United States Postal Service", "operator:short": "USPS", "operator:type": "public", "operator:wikidata": "Q668687", "ref": "9352900000"}, "type": "Feature"}
{"geometry": {"coordinates": [-119.075883638, 37.777936391], "type": "Point"}, "id": "735BO-L4s_4tBWfsEDUx1JqpC6E=", "properties": {"@source_uri": "https://tools.usps.com/UspsToolsRestServices/rest/POLocator/findLocations", "@spider": "usps_collection_boxes", "addr:city": "JUNE LAKE", "addr:country": "US", "addr:postcode": "93529", "addr:state": "CA", "addr:street_address": "2747 BOULDER DR", "amenity": "post_box", "brand": "United States Postal Service", "brand:wikidata": "Q668687", "collection_times": "Mo-Fr 11:45; Sa 09:30", "nsi_id": "unitedstatespostalservice-a77078", "operator": "United States Postal Service", "operator:short": "USPS", "operator:type": "public", "operator:wikidata": "Q668687", "ref": "9352900001"}, "type": "Feature"}
{"geometry": {"coordinates": [-119.075883638, 37.777936391], "type": "Point"}, "id": "oBrtDST1ikyqxRV-5MGNx5TX4Uo=", "properties": {"@source_uri": "https://tools.usps.com/UspsToolsRestServices/rest/POLocator/findLocations", "@spider": "usps_collection_boxes", "addr:city": "JUNE LAKE", "addr:country": "US", "addr:postcode": "93529", "addr:state": "CA", "addr:street_address": "2747 BOULDER DR", "amenity": "post_box", "brand": "United States Postal Service", "brand:wikidata": "Q668687", "collection_times": "Mo-Fr 12:00", "indoor": "yes", "nsi_id": "unitedstatespostalservice-a77078", "operator": "United States Postal Service", "operator:short": "USPS", "operator:type": "public", "operator:wikidata": "Q668687", "ref": "9352900002"}, "type": "Feature"}
{"geometry": {"coordinates": [-117.873747114, 36.488984405], "type": "Point"}, "id": "86MrSXMXoEhf27CQEjM5KZuwX08=", "properties": {"@source_uri": "https://tools.usps.com/UspsToolsRestServices/rest/POLocator/findLocations", "@spider": "usps_collection_boxes", "addr:city": "KEELER", "addr:country": "US", "addr:postcode": "93530", "addr:state": "CA", "addr:street_address": "148 RAILROAD AVE", "amenity": "post_box", "brand": "United States Postal Service", "brand:wikidata": "Q668687", "collection_times": "Mo-Sa 11:00", "indoor": "yes", "nsi_id": "unitedstatespostalservice-a77078", "operator": "United States Postal Service", "operator:short": "USPS", "operator:type": "public", "operator:wikidata": "Q668687", "ref": "9353000001"}, "type": "Feature"}
{"geometry": {"coordinates": [-117.873747114, 36.488984405], "type": "Point"}, "id": "Id67rGOva5mwRvUJb_lml1WMLII=", "properties": {"@source_uri": "https://tools.usps.com/UspsToolsRestServices/rest/POLocator/findLocations", "@spider": "usps_collection_boxes", "addr:city": "KEELER", "addr:country": "US", "addr:postcode": "93530", "addr:state": "CA", "addr:street_address": "148 RAILROAD AVE", "amenity": "post_box", "brand": "United States Postal Service", "brand:wikidata": "Q668687", "collection_times": "Mo-Fr 11:00", "indoor": "yes", "nsi_id": "unitedstatespostalservice-a77078", "operator": "United States Postal Service", "operator:short": "USPS", "operator:type": "public", "operator:wikidata": "Q668687", "ref": "9353000002"}, "type": "Feature"}
{"geometry": {"coordinates": [-118.5646359652, 35.223580028], "type": "Point"}, "id": "2aMS44HroL9o7SKtd09-vz1aqtM=", "properties": {"@source_uri": "https://tools.usps.com/UspsToolsRestServices/rest/POLocator/findLocations", "@spider": "usps_collection_boxes", "addr:city": "KEENE", "addr:country": "US", "addr:postcode": "93531", "addr:state": "CA", "addr:street_address": "30235 WOODFORD TEHACHAPI RD", "amenity": "post_box", "brand": "United States Postal Service", "brand:wikidata": "Q668687", "collection_times": "Mo-Fr 15:30; Sa 09:00", "note": "ON 12/24 AND 12/31, THIS BOX MAY BE COLLECTED AS EARLY AS 12 NOON.", "nsi_id": "unitedstatespostalservice-a77078", "operator": "United States Postal Service", "operator:short": "USPS", "operator:type": "public", "operator:wikidata": "Q668687", "ref": "9353100000"}, "type": "Feature"}
{"geometry": {"coordinates": [-118.603513362, 35.2289518375], "type": "Point"}, "id": "IfCyXplx-FFzreEq3MNv3kLFWWE=", "properties": {"@source_uri": "https://tools.usps.com/UspsToolsRestServices/rest/POLocator/findLocations", "@spider": "usps_collection_boxes", "addr:city": "KEENE", "addr:country": "US", "addr:postcode": "93531", "addr:state": "CA", "addr:street_address": "30235 WOODFORD RD", "amenity": "post_box", "brand": "United States Postal Service", "brand:wikidata": "Q668687", "collection_times": "Mo-Fr 15:45; Sa 09:00", "indoor": "yes", "note": "ON 12/24 AND 12/31, THIS BOX MAY BE COLLECTED AS EARLY AS 12 NOON.", "nsi_id": "unitedstatespostalservice-a77078", "operator": "United States Postal Service", "operator:short": "USPS", "operator:type": "public", "operator:wikidata": "Q668687", "ref": "9353100001"}, "type": "Feature"}
{"geometry": {"coordinates": [-118.564640465, 35.223580028], "type": "Point"}, "id": "PfdasHj1OJjAsrpZf_kSh_pybJU=", "properties": {"@source_uri": "https://tools.usps.com/UspsToolsRestServices/rest/POLocator/findLocations", "@spider": "usps_collection_boxes", "addr:city": "KEENE", "addr:country": "US", "addr:postcode": "93531", "addr:state": "CA", "addr:street_address": "30235 WOODFORD TEHACHAPI RD", "amenity": "post_box", "brand": "United States Postal Service", "brand:wikidata": "Q668687", "collection_times": "Mo-Fr 15:45", "indoor": "yes", "note": "ON 12/24 AND 12/31, THIS BOX MAY BE COLLECTED AS EARLY AS 12 NOON.", "nsi_id": "unitedstatespostalservice-a77078", "operator": "United States Postal Service", "operator:short": "USPS", "operator:type": "public", "operator:wikidata": "Q668687", "ref": "9353100003"}, "type": "Feature"}
{"geometry": {"coordinates": [-118.429360267, 34.672779281], "type": "Point"}, "id": "QiXVIwwX_CM-PHAqp1GxgtHARtA=", "properties": {"@source_uri": "https://tools.usps.com/UspsToolsRestServices/rest/POLocator/findLocations", "@spider": "usps_collection_boxes", "addr:city": "LAKE HUGHES", "addr:country": "US", "addr:postcode": "93532", "addr:state": "CA", "addr:street_address": "16817 ELIZABETH LAKE RD", "amenity": "post_box", "brand": "United States Postal Service", "brand:wikidata": "Q668687", "collection_times": "Mo-Fr 14:00; Sa 09:00", "note": "ON 12/24 AND 12/31, THIS BOX MAY BE COLLECTED AS EARLY AS 12 NOON.", "nsi_id": "unitedstatespostalservice-a77078", "operator": "United States Postal Service", "operator:short": "USPS", "operator:type": "public", "operator:wikidata": "Q668687", "ref": "9353200001"}, "type": "Feature"}
{"geometry": {"coordinates": [-118.5656238673, 34.6854902039], "type": "Point"}, "id": "1MGMu72k-bdImu0npOJ1o57MF5Y=", "properties": {"@source_uri": "https://tools.usps.com/UspsToolsRestServices/rest/POLocator/findLocations", "@spider": "usps_collection_boxes", "addr:city": "LAKE HUGHES", "addr:country": "US", "addr:postcode": "93532", "addr:state": "CA", "addr:street_address": "16817 LAKE ELIZABETH RD", "amenity": "post_box", "brand": "United States Postal Service", "brand:wikidata": "Q668687", "collection_times": "Mo-Fr 15:00; Sa 09:00", "indoor": "yes", "note": "ON 12/24 AND 12/31, THIS BOX MAY BE COLLECTED AS EARLY AS 12 NOON.", "nsi_id": "unitedstatespostalservice-a77078", "operator": "United States Postal Service", "operator:short": "USPS", "operator:type": "public", "operator:wikidata": "Q668687", "ref": "9353200002"}, "type": "Feature"}
{"geometry": {"coordinates": [-118.429360267, 34.672779281], "type": "Point"}, "id": "v0ZQ9JIDnp7_jpBva1JBKx6COPE=", "properties": {"@source_uri": "https://tools.usps.com/UspsToolsRestServices/rest/POLocator/findLocations", "@spider": "usps_collection_boxes", "addr:city": "LAKE HUGHES", "addr:country": "US", "addr:postcode": "93532", "addr:state": "CA", "addr:street_address": "16817 ELIZABETH LAKE RD", "amenity": "post_box", "brand": "United States Postal Service", "brand:wikidata": "Q668687", "collection_times": "Mo-Fr 15:00", "indoor": "yes", "note": "ON 12/24 AND 12/31, THIS BOX MAY BE COLLECTED AS EARLY AS 12 NOON.", "nsi_id": "unitedstatespostalservice-a77078", "operator": "United States Postal Service", "operator:short": "USPS", "operator:type": "public", "operator:wikidata": "Q668687", "ref": "9353200004"}, "type": "Feature"}
{"geometry": {"coordinates": [-118.149089, 34.687584], "type": "Point"}, "id": "MOh1lMQ3Fsitcxifri50twh3ZL4=", "properties": {"@source_uri": "https://tools.usps.com/UspsToolsRestServices/rest/POLocator/findLocations", "@spider": "usps_collection_boxes", "addr:city": "LANCASTER", "addr:country": "US", "addr:postcode": "93534", "addr:state": "CA", "addr:street_address": "1008 W AVENUE J2", "amenity": "post_box", "brand": "United States Postal Service", "brand:wikidata": "Q668687", "collection_times": "Mo-Sa 17:30", "name": "USPS COLLECTION BOX - EXPRESS", "note": "ON 12/24 AND 12/31, THIS BOX MAY BE COLLECTED AS EARLY AS 12 NOON.", "nsi_id": "unitedstatespostalservice-a77078", "operator": "United States Postal Service", "operator:short": "USPS", "operator:type": "public", "operator:wikidata": "Q668687", "ref": "9353400000"}, "type": "Feature"}
{"geometry": {"coordinates": [-118.15654562, 34.677954266], "type": "Point"}, "id": "9ppvjbxOoXNq-acBcy-_jQY9BBM=", "properties": {"@source_uri": "https://tools.usps.com/UspsToolsRestServices/rest/POLocator/findLocations", "@spider": "usps_collection_boxes", "addr:city": "LANCASTER", "addr:country": "US", "addr:postcode": "93534", "addr:state": "CA", "addr:street_address": "43770 15TH ST W", "amenity": "post_box", "brand": "United States Postal Service", "brand:wikidata": "Q668687", "collection_times": "Mo-Fr 15:00", "note": "ON 12/24 AND 12/31, THIS BOX MAY BE COLLECTED AS EARLY AS 12 NOON.", "nsi_id": "unitedstatespostalservice-a77078", "operator": "United States Postal Service", "operator:short": "USPS", "operator:type": "public", "operator:wikidata": "Q668687", "ref": "9353400034"}, "type": "Feature"}
{"geometry": {"coordinates": [-118.149243, 34.687727], "type": "Point"}, "id": "-c2N9wMRZGpr66qdmdexXxjlpFI=", "properties": {"@source_uri": "https://tools.usps.com/UspsToolsRestServices/rest/POLocator/findLocations", "@spider": "usps_collection_boxes", "addr:city": "LANCASTER", "addr:country": "US", "addr:postcode": "93534", "addr:state": "CA", "addr:street_address": "1008 W AVENUE J2", "amenity": "post_box", "brand": "United States Postal Service", "brand:wikidata": "Q668687", "collection_times": "Mo-Sa 17:30", "note": "ON 12/24 AND 12/31, THIS BOX MAY BE COLLECTED AS EARLY AS 12 NOON.", "nsi_id": "unitedstatespostalservice-a77078", "operator": "United States Postal Service", "operator:short": "USPS", "operator:type": "public", "operator:wikidata": "Q668687", "ref": "9353400042"}, "type": "Feature"}
{"geometry": {"coordinates": [-118.15063, 34.6997], "type": "Point"}, "id": "0jdr4MTbIzPh-e1szIP70tKfeZk=", "properties": {"@source_uri": "https://tools.usps.com/UspsToolsRestServices/rest/POLocator/findLocations", "@spider": "usps_collection_boxes", "addr:city": "LANCASTER", "addr:country": "US", "addr:postcode": "93534", "addr:state": "CA", "addr:street_address": "1008 W AVENUE J2", "amenity": "post_box", "brand": "United States Postal Service", "brand:wikidata": "Q668687", "collection_times": "Mo-Sa 17:30", "note": "ON 12/24 AND 12/31, THIS BOX MAY BE COLLECTED AS EARLY AS 12 NOON.", "nsi_id": "unitedstatespostalservice-a77078", "operator": "United States Postal Service", "operator:short": "USPS", "operator:type": "public", "operator:wikidata": "Q668687", "ref": "9353400043"}, "type": "Feature"}
{"geometry": {"coordinates": [-118.149081, 34.687571], "type": "Point"}, "id": "8rrQQEC5H8hwK3gLtQRrqT5yPKE=", "properties": {"@source_uri": "https://tools.usps.com/UspsToolsRestServices/rest/POLocator/findLocations", "@spider": "usps_collection_boxes", "addr:city": "LANCASTER", "addr:country": "US", "addr:postcode": "93534", "addr:state": "CA", "addr:street_address": "1008 W AVENUE J2", "amenity": "post_box", "brand": "United States Postal Service", "brand:wikidata": "Q668687", "collection_times": "Mo-Sa 17:30", "note": "ON 12/24 AND 12/31, THIS BOX MAY BE COLLECTED AS EARLY AS 12 NOON.", "nsi_id": "unitedstatespostalservice-a77078", "operator": "United States Postal Service", "operator:short": "USPS", "operator:type": "public", "operator:wikidata": "Q668687", "ref": "9353400045"}, "type": "Feature"}
{"geometry": {"coordinates": [-118.138890778, 34.698303756], "type": "Point"}, "id": "fZVOeo7T3B7KGfDu6Ll2hk64PSc=", "properties": {"@source_uri": "https://tools.usps.com/UspsToolsRestServices/rest/POLocator/findLocations", "@spider": "usps_collection_boxes", "addr:city": "LANCASTER", "addr:country": "US", "addr:postcode": "93534", "addr:state": "CA", "addr:street_address": "567 W LANCASTER BLVD", "amenity": "post_box", "brand": "United States Postal Service", "brand:wikidata": "Q668687", "collection_times": "Mo-Fr 17:00; Sa 12:45", "note": "ON 12/24 AND 12/31, THIS BOX MAY BE COLLECTED AS EARLY AS 12 NOON.", "nsi_id": "unitedstatespostalservice-a77078", "operator": "United States Postal Service", "operator:short": "USPS", "operator:type": "public", "operator:wikidata": "Q668687", "ref": "9353400087"}, "type": "Feature"}
{"geometry": {"coordinates": [-118.149877, 34.645923], "type": "Point"}, "id": "cvIaRNRF4ipNsn4SJWdfwUOA_Vs=", "properties": {"@source_uri": "https://tools.usps.com/UspsToolsRestServices/rest/POLocator/findLocations", "@spider": "usps_collection_boxes", "addr:city": "LANCASTER", "addr:country": "US", "addr:postcode": "93534", "addr:state": "CA", "addr:street_address": "1055 W AVENUE M", "amenity": "post_box", "brand": "United States Postal Service", "brand:wikidata": "Q668687", "collection_times": "Mo-Sa 10:00", "nsi_id": "unitedstatespostalservice-a77078", "operator": "United States Postal Service", "operator:short": "USPS", "operator:type": "public", "operator:wikidata": "Q668687", "ref": "9353400088"}, "type": "Feature"}
{"geometry": {"coordinates": [-118.1595, 34.69012], "type": "Point"}, "id": "wvvJuKtBarGWyvLRdFfQ7FZ3kCU=", "properties": {"@source_uri": "https://tools.usps.com/UspsToolsRestServices/rest/POLocator/findLocations", "@spider": "usps_collection_boxes", "addr:city": "LANCASTER", "addr:country": "US", "addr:postcode": "93534", "addr:state": "CA", "addr:street_address": "1629 W AVENUE J", "amenity": "post_box", "brand": "United States Postal Service", "brand:wikidata": "Q668687", "collection_times": "Mo-Sa 10:00", "nsi_id": "unitedstatespostalservice-a77078", "operator": "United States Postal Service", "operator:short": "USPS", "operator:type": "public", "operator:wikidata": "Q668687", "ref": "9353400116"}, "type": "Feature"}
{"geometry": {"coordinates": [-118.1656540698, 34.6786414302], "type": "Point"}, "id": "mEYjqF4ThEmWnDPpGIel864eFZY=", "properties": {"@source_uri": "https://tools.usps.com/UspsToolsRestServices/rest/POLocator/findLocations", "@spider": "usps_collection_boxes", "addr:city": "LANCASTER", "addr:country": "US", "addr:postcode": "93534", "addr:state": "CA", "addr:street_address": "43824 20TH ST W", "amenity": "post_box", "brand": "United States Postal Service", "brand:wikidata": "Q668687", "collection_times": "Mo-Fr 17:30", "indoor": "yes", "note": "ON 12/24 AND 12/31, THIS BOX MAY BE COLLECTED AS EARLY AS 12 NOON.", "nsi_id": "unitedstatespostalservice-a77078", "operator": "United States Postal Service", "operator:short": "USPS", "operator:type": "public", "operator:wikidata": "Q668687", "ref": "9353400124"}, "type": "Feature"}
{"geometry": {"coordinates": [-118.138890778, 34.698303756], "type": "Point"}, "id": "GLDGlON9Dw9Xa4xWlI7kDn20eJw=", "properties": {"@source_uri": "https://tools.usps.com/UspsToolsRestServices/rest/POLocator/findLocations", "@spider": "usps_collection_boxes", "addr:city": "LANCASTER", "addr:country": "US", "addr:postcode": "93534", "addr:state": "CA", "addr:street_address": "567 W LANCASTER BLVD", "amenity": "post_box", "brand": "United States Postal Service", "brand:wikidata": "Q668687", "collection_times": "Mo-Fr 17:00", "indoor": "yes", "note": "ON 12/24 AND 12/31, THIS BOX MAY BE COLLECTED AS EARLY AS 12 NOON.", "nsi_id": "unitedstatespostalservice-a77078", "operator": "United States Postal Service", "operator:short": "USPS", "operator:type": "public", "operator:wikidata": "Q668687", "ref": "9353400125"}, "type": "Feature"}
{"geometry": {"coordinates": [-118.1620090074, 34.6740429824], "type": "Point"}, "id": "UdkH8v0Nyd1OzHGZFWB9I2RW_Gg=", "properties": {"@source_uri": "https://tools.usps.com/UspsToolsRestServices/rest/POLocator/findLocations", "@spider": "usps_collection_boxes", "addr:city": "LANCASTER", "addr:country": "US", "addr:postcode": "93534", "addr:state": "CA", "addr:street_address": "43535 17TH ST W", "amenity": "post_box", "brand": "United States Postal Service", "brand:wikidata": "Q668687", "collection_times": "Mo-Sa 10:00", "nsi_id": "unitedstatespostalservice-a77078", "operator": "United States Postal Service", "operator:short": "USPS", "operator:type": "public", "operator:wikidata": "Q668687", "ref": "9353400129"}, "type": "Feature"}
{"geometry": {"coordinates": [-118.11084075, 34.689413472], "type": "Point"}, "id": "6feMfn0d0YxdcBZo_Oqsanz5lv8=", "properties": {"@source_uri": "https://tools.usps.com/UspsToolsRestServices/rest/POLocator/findLocations", "@spider": "usps_collection_boxes", "addr:city": "LANCASTER", "addr:country": "US", "addr:postcode": "93535", "addr:state": "CA", "addr:street_address": "1036 E AVENUE J", "amenity": "post_box", "brand": "United States Postal Service", "brand:wikidata": "Q668687", "collection_times": "Mo-Sa 10:00", "nsi_id": "unitedstatespostalservice-a77078", "operator": "United States Postal Service", "operator:short": "USPS", "operator:type": "public", "operator:wikidata": "Q668687", "ref": "9353500001"}, "type": "Feature"}
{"geometry": {"coordinates": [-118.088295, 34.681633], "type": "Point"}, "id": "cuumkwEmaOTNObAAMnaR9E3hjVo=", "properties": {"@source_uri": "https://tools.usps.com/UspsToolsRestServices/rest/POLocator/findLocations", "@spider": "usps_collection_boxes", "addr:city": "LANCASTER", "addr:country": "US", "addr:postcode": "93535", "addr:state": "CA", "addr:street_address": "2330 E AVENUE J8", "amenity": "post_box", "brand": "United States Postal Service", "brand:wikidata": "Q668687", "collection_times": "Mo-Sa 10:00", "nsi_id": "unitedstatespostalservice-a77078", "operator": "United States Postal Service", "operator:short": "USPS", "operator:type": "public", "operator:wikidata": "Q668687", "ref": "9353500011"}, "type": "Feature"}
{"geometry": {"coordinates": [-118.130329, 34.671621], "type": "Point"}, "id": "K0koEVU0yza5ZJ7kEIPVZ_ehGxc=", "properties": {"@source_uri": "https://tools.usps.com/UspsToolsRestServices/rest/POLocator/findLocations", "@spider": "usps_collection_boxes", "addr:city": "LANCASTER", "addr:country": "US", "addr:postcode": "93535", "addr:state": "CA", "addr:street_address": "43423 DIVISION ST", "amenity": "post_box", "brand": "United States Postal Service", "brand:wikidata": "Q668687", "collection_times": "Mo-Sa 10:00", "nsi_id": "unitedstatespostalservice-a77078", "operator": "United States Postal Service", "operator:short": "USPS", "operator:type": "public", "operator:wikidata": "Q668687", "ref": "9353500024"}, "type": "Feature"}
{"geometry": {"coordinates": [-118.218601, 34.647629], "type": "Point"}, "id": "ESjq9Zz5In9SAi-QJHmTCAsuMug=", "properties": {"@source_uri": "https://tools.usps.com/UspsToolsRestServices/rest/POLocator/findLocations", "@spider": "usps_collection_boxes", "addr:city": "LANCASTER", "addr:country": "US", "addr:postcode": "93536", "addr:state": "CA", "addr:street_address": "42103 50TH ST W", "amenity": "post_box", "brand": "United States Postal Service", "brand:wikidata": "Q668687", "collection_times": "Mo-Fr 15:30; Sa 13:30", "note": "ON 12/24 AND 12/31, THIS BOX MAY BE COLLECTED AS EARLY AS 12 NOON.", "nsi_id": "unitedstatespostalservice-a77078", "operator": "United States Postal Service", "operator:short": "USPS", "operator:type": "public", "operator:wikidata": "Q668687", "ref": "9353600016"}, "type": "Feature"}
{"geometry": {"coordinates": [-118.290704, 34.754908], "type": "Point"}, "id": "4Ej9ITtJCbVZEb-lV-PfQz3hpdg=", "properties": {"@source_uri": "https://tools.usps.com/UspsToolsRestServices/rest/POLocator/findLocations", "@spider": "usps_collection_boxes", "addr:city": "LANCASTER", "addr:country": "US", "addr:postcode": "93536", "addr:state": "CA", "addr:street_address": "48011 90TH ST W", "amenity": "post_box", "brand": "United States Postal Service", "brand:wikidata": "Q668687", "collection_times": "Mo-Sa 10:00", "nsi_id": "unitedstatespostalservice-a77078", "operator": "United States Postal Service", "operator:short": "USPS", "operator:type": "public", "operator:wikidata": "Q668687", "ref": "9353600019"}, "type": "Feature"}
{"geometry": {"coordinates": [-118.165502, 34.66132], "type": "Point"}, "id": "1kbE-KwSe9j3IJIYMY25K6HuMzM=", "properties": {"@source_uri": "https://tools.usps.com/UspsToolsRestServices/rest/POLocator/findLocations", "@spider": "usps_collection_boxes", "addr:city": "LANCASTER", "addr:country": "US", "addr:postcode": "93536", "addr:state": "CA", "addr:street_address": "42800 20TH WEST", "amenity": "post_box", "brand": "United States Postal Service", "brand:wikidata": "Q668687", "collection_times": "Mo-Fr 12:00; Sa 10:00", "nsi_id": "unitedstatespostalservice-a77078", "operator": "United States Postal Service", "operator:short": "USPS", "operator:type": "public", "operator:wikidata": "Q668687", "ref": "9353600020"}, "type": "Feature"}
{"geometry": {"coordinates": [-118.1656540698, 34.6786414302], "type": "Point"}, "id": "qn_xrjBWqkqCJoV6pZwZzJ1qSLU=", "properties": {"@source_uri": "https://tools.usps.com/UspsToolsRestServices/rest/POLocator/findLocations", "@spider": "usps_collection_boxes", "addr:city": "LANCASTER", "addr:country": "US", "addr:postcode": "93539", "addr:state": "CA", "addr:street_address": "43824 20TH ST W", "amenity": "post_box", "brand": "United States Postal Service", "brand:wikidata": "Q668687", "collection_times": "Mo-Fr 17:00; Sa 15:00", "note": "ON 12/24 AND 12/31, THIS BOX MAY BE COLLECTED AS EARLY AS 12 NOON.", "nsi_id": "unitedstatespostalservice-a77078", "operator": "United States Postal Service", "operator:short": "USPS", "operator:type": "public", "operator:wikidata": "Q668687", "ref": "9353900001"}, "type": "Feature"}
{"geometry": {"coordinates": [-118.165677, 34.678682], "type": "Point"}, "id": "uCwzLHMp2VSynFGQTmXhYA8Pjw8=", "properties": {"@source_uri": "https://tools.usps.com/UspsToolsRestServices/rest/POLocator/findLocations", "@spider": "usps_collection_boxes", "addr:city": "LANCASTER", "addr:country": "US", "addr:postcode": "93539", "addr:state": "CA", "addr:street_address": "43824 20TH ST WEST", "amenity": "post_box", "brand": "United States Postal Service", "brand:wikidata": "Q668687", "collection_times": "Mo-Fr 17:00; Sa 15:00", "name": "USPS COLLECTION BOX - EXPRESS", "note": "ON 12/24 AND 12/31, THIS BOX MAY BE COLLECTED AS EARLY AS 12 NOON.", "nsi_id": "unitedstatespostalservice-a77078", "operator": "United States Postal Service", "operator:short": "USPS", "operator:type": "public", "operator:wikidata": "Q668687", "ref": "9353900003"}, "type": "Feature"}
{"geometry": {"coordinates": [-118.165677, 34.678682], "type": "Point"}, "id": "SIGxyfHm4KZ_SGODzAPrNqMbK0w=", "properties": {"@source_uri": "https://tools.usps.com/UspsToolsRestServices/rest/POLocator/findLocations", "@spider": "usps_collection_boxes", "addr:city": "LANCASTER", "addr:country": "US", "addr:postcode": "93539", "addr:state": "CA", "addr:street_address": "43824 20TH ST WEST", "amenity": "post_box", "brand": "United States Postal Service", "brand:wikidata": "Q668687", "collection_times": "Mo-Fr 17:00; Sa 15:00", "indoor": "yes", "note": "ON 12/24 AND 12/31, THIS BOX MAY BE COLLECTED AS EARLY AS 12 NOON.", "nsi_id": "unitedstatespostalservice-a77078", "operator": "United States Postal Service", "operator:short": "USPS", "operator:type": "public", "operator:wikidata": "Q668687", "ref": "9353900004"}, "type": "Feature"}
{"geometry": {"coordinates": [-118.165677, 34.678682], "type": "Point"}, "id": "MQawz7GXUabkRAN6ozcv3EhWvN4=", "properties": {"@source_uri": "https://tools.usps.com/UspsToolsRestServices/rest/POLocator/findLocations", "@spider": "usps_collection_boxes", "addr:city": "LANCASTER", "addr:country": "US", "addr:postcode": "93539", "addr:state": "CA", "addr:street_address": "43824 20TH ST WEST", "amenity": "post_box", "brand": "United States Postal Service", "brand:wikidata": "Q668687", "collection_times": "Mo-Fr 17:00; Sa 15:00", "indoor": "yes", "note": "ON 12/24 AND 12/31, THIS BOX MAY BE COLLECTED AS EARLY AS 12 NOON.", "nsi_id": "unitedstatespostalservice-a77078", "operator": "United States Postal Service", "operator:short": "USPS", "operator:type": "public", "operator:wikidata": "Q668687", "ref": "9353900005"}, "type": "Feature"}
{"geometry": {"coordinates": [-118.165677, 34.678682], "type": "Point"}, "id": "1ebU2VI1Zf6eR09esgaG6XIHtk4=", "properties": {"@source_uri": "https://tools.usps.com/UspsToolsRestServices/rest/POLocator/findLocations", "@spider": "usps_collection_boxes", "addr:city": "LANCASTER", "addr:country": "US", "addr:postcode": "93539", "addr:state": "CA", "addr:street_address": "43824 20TH ST WEST", "amenity": "post_box", "brand": "United States Postal Service", "brand:wikidata": "Q668687", "collection_times": "Mo-Fr 17:00; Sa 15:00", "indoor": "yes", "note": "ON 12/24 AND 12/31, THIS BOX MAY BE COLLECTED AS EARLY AS 12 NOON.", "nsi_id": "unitedstatespostalservice-a77078", "operator": "United States Postal Service", "operator:short": "USPS", "operator:type": "public", "operator:wikidata": "Q668687", "ref": "9353900006"}, "type": "Feature"}
{"geometry": {"coordinates": [-118.165677, 34.678682], "type": "Point"}, "id": "vJDChsd9n4oCkIe6oAx_ueVdP5o=", "properties": {"@source_uri": "https://tools.usps.com/UspsToolsRestServices/rest/POLocator/findLocations", "@spider": "usps_collection_boxes", "addr:city": "LANCASTER", "addr:country": "US", "addr:postcode": "93539", "addr:state": "CA", "addr:street_address": "43824 20TH ST W", "amenity": "post_box", "brand": "United States Postal Service", "brand:wikidata": "Q668687", "collection_times": "Mo-Fr 17:00; Sa 15:00", "name": "USPS COLLECTION BOX - APC", "note": "ON 12/24 AND 12/31, THIS BOX MAY BE COLLECTED AS EARLY AS 12 NOON.", "nsi_id": "unitedstatespostalservice-a77078", "operator": "United States Postal Service", "operator:short": "USPS", "operator:type": "public", "operator:wikidata": "Q668687", "ref": "9353900007"}, "type": "Feature"}
{"geometry": {"coordinates": [-118.16567635, 34.678682498], "type": "Point"}, "id": "GoLobjV4UvaW4c8bIFivDXM0eT4=", "properties": {"@source_uri": "https://tools.usps.com/UspsToolsRestServices/rest/POLocator/findLocations", "@spider": "usps_collection_boxes", "addr:city": "LANCASTER", "addr:country": "US", "addr:postcode": "93539", "addr:state": "CA", "addr:street_address": "43824 20TH ST W", "amenity": "post_box", "brand": "United States Postal Service", "brand:wikidata": "Q668687", "collection_times": "Mo-Fr 17:00; Sa 15:00", "note": "ON 12/24 AND 12/31, THIS BOX MAY BE COLLECTED AS EARLY AS 12 NOON.", "nsi_id": "unitedstatespostalservice-a77078", "operator": "United States Postal Service", "operator:short": "USPS", "operator:type": "public", "operator:wikidata": "Q668687", "ref": "9353900009"}, "type": "Feature"}
{"geometry": {"coordinates": [-119.120177627, 37.956096], "type": "Point"}, "id": "jHwkN4pmg4gs1ZrEPg7aR3FZ6Kg=", "properties": {"@source_uri": "https://tools.usps.com/UspsToolsRestServices/rest/POLocator/findLocations", "@spider": "usps_collection_boxes", "addr:city": "LEE VINING", "addr:country": "US", "addr:postcode": "93541", "addr:state": "CA", "addr:street_address": "121 LEE VINING AVE", "amenity": "post_box", "brand": "United States Postal Service", "brand:wikidata": "Q668687", "collection_times": "Mo-Fr 11:30; Sa 10:15", "indoor": "yes", "nsi_id": "unitedstatespostalservice-a77078", "operator": "United States Postal Service", "operator:short": "USPS", "operator:type": "public", "operator:wikidata": "Q668687", "ref": "9354100000"}, "type": "Feature"}
{"geometry": {"coordinates": [-119.120177627, 37.956096], "type": "Point"}, "id": "y1X6h178RpbvP5WbvB2c6OAfjQM=", "properties": {"@source_uri": "https://tools.usps.com/UspsToolsRestServices/rest/POLocator/findLocations", "@spider": "usps_collection_boxes", "addr:city": "LEE VINING", "addr:country": "US", "addr:postcode": "93541", "addr:state": "CA", "addr:street_address": "121 LEE VINING AVE", "amenity": "post_box", "brand": "United States Postal Service", "brand:wikidata": "Q668687", "collection_times": "Mo-Fr 11:30", "indoor": "yes", "nsi_id": "unitedstatespostalservice-a77078", "operator": "United States Postal Service", "operator:short": "USPS", "operator:type": "public", "operator:wikidata": "Q668687", "ref": "9354100001"}, "type": "Feature"}
{"geometry": {"coordinates": [-117.990840777, 34.5210914572], "type": "Point"}, "id": "AIO27KSr_XDWSx1OPV858oaqjKg=", "properties": {"@source_uri": "https://tools.usps.com/UspsToolsRestServices/rest/POLocator/findLocations", "@spider": "usps_collection_boxes", "addr:city": "LITTLEROCK", "addr:country": "US", "addr:postcode": "93543", "addr:state": "CA", "addr:street_address": "7765 PEARBLOSSOM HWY", "amenity": "post_box", "brand": "United States Postal Service", "brand:wikidata": "Q668687", "collection_times": "Mo-Fr 16:30; Sa 12:00", "indoor": "yes", "note": "ON 12/24 AND 12/31, THIS BOX MAY BE COLLECTED AS EARLY AS 12 NOON.", "nsi_id": "unitedstatespostalservice-a77078", "operator": "United States Postal Service", "operator:short": "USPS", "operator:type": "public", "operator:wikidata": "Q668687", "ref": "9354300005"}, "type": "Feature"}
{"geometry": {"coordinates": [-117.990840777, 34.5210914572], "type": "Point"}, "id": "35LUPSdkI-zB6FpBqD4lcyXXbQ4=", "properties": {"@source_uri": "https://tools.usps.com/UspsToolsRestServices/rest/POLocator/findLocations", "@spider": "usps_collection_boxes", "addr:city": "LITTLEROCK", "addr:country": "US", "addr:postcode": "93543", "addr:state": "CA", "addr:street_address": "7765 PEARBLOSSOM HWY", "amenity": "post_box", "brand": "United States Postal Service", "brand:wikidata": "Q668687", "collection_times": "Mo-Fr 16:30", "indoor": "yes", "note": "ON 12/24 AND 12/31, THIS BOX MAY BE COLLECTED AS EARLY AS 12 NOON.", "nsi_id": "unitedstatespostalservice-a77078", "operator": "United States Postal Service", "operator:short": "USPS", "operator:type": "public", "operator:wikidata": "Q668687", "ref": "9354300006"}, "type": "Feature"}
{"geometry": {"coordinates": [-117.82133325, 34.505903624], "type": "Point"}, "id": "LauMcK9-Uyl6qptJ0-ZJR_tBPVA=", "properties": {"@source_uri": "https://tools.usps.com/UspsToolsRestServices/rest/POLocator/findLocations", "@spider": "usps_collection_boxes", "addr:city": "LLANO", "addr:country": "US", "addr:postcode": "93544", "addr:state": "CA", "addr:street_address": "17234 PEARBLOSSOM HWY", "amenity": "post_box", "brand": "United States Postal Service", "brand:wikidata": "Q668687", "collection_times": "Mo-Fr 14:30; Sa 09:45", "indoor": "yes", "note": "ON 12/24 AND 12/31, THIS BOX MAY BE COLLECTED AS EARLY AS 12 NOON.", "nsi_id": "unitedstatespostalservice-a77078", "operator": "United States Postal Service", "operator:short": "USPS", "operator:type": "public", "operator:wikidata": "Q668687", "ref": "9354400000"}, "type": "Feature"}
{"geometry": {"coordinates": [-117.82133325, 34.505903624], "type": "Point"}, "id": "dRJE2MgBNI_DPkVwUBr3ZKES0_Y=", "properties": {"@source_uri": "https://tools.usps.com/UspsToolsRestServices/rest/POLocator/findLocations", "@spider": "usps_collection_boxes", "addr:city": "LLANO", "addr:country": "US", "addr:postcode": "93544", "addr:state": "CA", "addr:street_address": "17234 PEARBLOSSOM HWY", "amenity": "post_box", "brand": "United States Postal Service", "brand:wikidata": "Q668687", "collection_times": "Mo-Fr 14:30", "indoor": "yes", "note": "ON 12/24 AND 12/31, THIS BOX MAY BE COLLECTED AS EARLY AS 12 NOON.", "nsi_id": "unitedstatespostalservice-a77078", "operator": "United States Postal Service", "operator:short": "USPS", "operator:type": "public", "operator:wikidata": "Q668687", "ref": "9354400001"}, "type": "Feature"}
{"geometry": {"coordinates": [-118.063049353, 36.606568629], "type": "Point"}, "id": "ns5UPlMrFK0nSf51VxjMBAUxnvI=", "properties": {"@source_uri": "https://tools.usps.com/UspsToolsRestServices/rest/POLocator/findLocations", "@spider": "usps_collection_boxes", "addr:city": "LONE PINE", "addr:country": "US", "addr:postcode": "93545", "addr:state": "CA", "addr:street_address": "121 E BUSH ST", "amenity": "post_box", "brand": "United States Postal Service", "brand:wikidata": "Q668687", "collection_times": "Mo-Fr 14:00; Sa 09:45", "note": "ON 12/24 AND 12/31, THIS BOX MAY BE COLLECTED AS EARLY AS 12 NOON.", "nsi_id": "unitedstatespostalservice-a77078", "operator": "United States Postal Service", "operator:short": "USPS", "operator:type": "public", "operator:wikidata": "Q668687", "ref": "9354500000"}, "type": "Feature"}
{"geometry": {"coordinates": [-118.063049353, 36.606568629], "type": "Point"}, "id": "dejLcmp00AOyRk-vF_wQScCS9R8=", "properties": {"@source_uri": "https://tools.usps.com/UspsToolsRestServices/rest/POLocator/findLocations", "@spider": "usps_collection_boxes", "addr:city": "LONE PINE", "addr:country": "US", "addr:postcode": "93545", "addr:state": "CA", "addr:street_address": "121 E BUSH ST", "amenity": "post_box", "brand": "United States Postal Service", "brand:wikidata": "Q668687", "collection_times": "Mo-Fr 14:00; Sa 09:45", "indoor": "yes", "note": "ON 12/24 AND 12/31, THIS BOX MAY BE COLLECTED AS EARLY AS 12 NOON.", "nsi_id": "unitedstatespostalservice-a77078", "operator": "United States Postal Service", "operator:short": "USPS", "operator:type": "public", "operator:wikidata": "Q668687", "ref": "9354500001"}, "type": "Feature"}
{"geometry": {"coordinates": [-118.063049353, 36.606568629], "type": "Point"}, "id": "-d0Ma_wEE_viuTEk9S3Pbd1IliY=", "properties": {"@source_uri": "https://tools.usps.com/UspsToolsRestServices/rest/POLocator/findLocations", "@spider": "usps_collection_boxes", "addr:city": "LONE PINE", "addr:country": "US", "addr:postcode": "93545", "addr:state": "CA", "addr:street_address": "121 E BUSH ST", "amenity": "post_box", "brand": "United States Postal Service", "brand:wikidata": "Q668687", "collection_times": "Mo-Fr 14:00", "indoor": "yes", "note": "ON 12/24 AND 12/31, THIS BOX MAY BE COLLECTED AS EARLY AS 12 NOON.", "nsi_id": "unitedstatespostalservice-a77078", "operator": "United States Postal Service", "operator:short": "USPS", "operator:type": "public", "operator:wikidata": "Q668687", "ref": "9354500002"}, "type": "Feature"}
{"geometry": {"coordinates": [-118.971046699, 37.648249991], "type": "Point"}, "id": "NCvh652jXFL4JxlcCUlPA2Y6EhQ=", "properties": {"@source_uri": "https://tools.usps.com/UspsToolsRestServices/rest/POLocator/findLocations", "@spider": "usps_collection_boxes", "addr:city": "MAMMOTH LAKES", "addr:country": "US", "addr:postcode": "93546", "addr:state": "CA", "addr:street_address": "3330 MAIN ST", "amenity": "post_box", "brand": "United States Postal Service", "brand:wikidata": "Q668687", "collection_times": "Mo-Sa 12:00", "indoor": "yes", "nsi_id": "unitedstatespostalservice-a77078", "operator": "United States Postal Service", "operator:short": "USPS", "operator:type": "public", "operator:wikidata": "Q668687", "ref": "9354600005"}, "type": "Feature"}
{"geometry": {"coordinates": [-118.971046699, 37.648249991], "type": "Point"}, "id": "H3smz4ODxkDdRlPlbQ5378j9N4M=", "properties": {"@source_uri": "https://tools.usps.com/UspsToolsRestServices/rest/POLocator/findLocations", "@spider": "usps_collection_boxes", "addr:city": "MAMMOTH LAKES", "addr:country": "US", "addr:postcode": "93546", "addr:state": "CA", "addr:street_address": "3330 MAIN ST", "amenity": "post_box", "brand": "United States Postal Service", "brand:wikidata": "Q668687", "collection_times": "Mo-Sa 12:00", "nsi_id": "unitedstatespostalservice-a77078", "operator": "United States Postal Service", "operator:short": "USPS", "operator:type": "public", "operator:wikidata": "Q668687", "ref": "9354600007"}, "type": "Feature"}
{"geometry": {"coordinates": [-118.971046699, 37.648249991], "type": "Point"}, "id": "9S_A86qA8iG0gXJIdRXgCn77uZY=", "properties": {"@source_uri": "https://tools.usps.com/UspsToolsRestServices/rest/POLocator/findLocations", "@spider": "usps_collection_boxes", "addr:city": "MAMMOTH LAKES", "addr:country": "US", "addr:postcode": "93546", "addr:state": "CA", "addr:street_address": "3330 MAIN ST", "amenity": "post_box", "brand": "United States Postal Service", "brand:wikidata": "Q668687", "collection_times": "Mo-Sa 12:00", "nsi_id": "unitedstatespostalservice-a77078", "operator": "United States Postal Service", "operator:short": "USPS", "operator:type": "public", "operator:wikidata": "Q668687", "ref": "9354600008"}, "type": "Feature"}
{"geometry": {"coordinates": [-118.971046699, 37.648249991], "type": "Point"}, "id": "FJu1MDVpQXfQ9Anb2OWU1mwrT5M=", "properties": {"@source_uri": "https://tools.usps.com/UspsToolsRestServices/rest/POLocator/findLocations", "@spider": "usps_collection_boxes", "addr:city": "MAMMOTH LAKES", "addr:country": "US", "addr:postcode": "93546", "addr:state": "CA", "addr:street_address": "3330 MAIN ST", "amenity": "post_box", "brand": "United States Postal Service", "brand:wikidata": "Q668687", "collection_times": "Mo-Sa 12:00", "nsi_id": "unitedstatespostalservice-a77078", "operator": "United States Postal Service", "operator:short": "USPS", "operator:type": "public", "operator:wikidata": "Q668687", "ref": "9354600009"}, "type": "Feature"}
{"geometry": {"coordinates": [-118.971046699, 37.648249991], "type": "Point"}, "id": "Axq41PSVy4v3PwgFhGcnapUi5Dc=", "properties": {"@source_uri": "https://tools.usps.com/UspsToolsRestServices/rest/POLocator/findLocations", "@spider": "usps_collection_boxes", "addr:city": "MAMMOTH LAKES", "addr:country": "US", "addr:postcode": "93546", "addr:state": "CA", "addr:street_address": "3330 MAIN ST", "amenity": "post_box", "brand": "United States Postal Service", "brand:wikidata": "Q668687", "collection_times": "Mo-Fr 12:15", "indoor": "yes", "note": "ON 12/24 AND 12/31, THIS BOX MAY BE COLLECTED AS EARLY AS 12 NOON.", "nsi_id": "unitedstatespostalservice-a77078", "operator": "United States Postal Service", "operator:short": "USPS", "operator:type": "public", "operator:wikidata": "Q668687", "ref": "9354600010"}, "type": "Feature"}
{"geometry": {"coordinates": [-118.005243, 36.280476], "type": "Point"}, "id": "klTTh47iK4Xe4QUT69rL_6cUiL4=", "properties": {"@source_uri": "https://tools.usps.com/UspsToolsRestServices/rest/POLocator/findLocations", "@spider": "usps_collection_boxes", "addr:city": "OLANCHA", "addr:country": "US", "addr:postcode": "93549", "addr:state": "CA", "addr:street_address": "100 S STATE HWY 395", "amenity": "post_box", "brand": "United States Postal Service", "brand:wikidata": "Q668687", "collection_times": "Mo-Fr 14:15; Sa 08:00", "note": "ON 12/24 AND 12/31, THIS BOX MAY BE COLLECTED AS EARLY AS 12 NOON.", "nsi_id": "unitedstatespostalservice-a77078", "operator": "United States Postal Service", "operator:short": "USPS", "operator:type": "public", "operator:wikidata": "Q668687", "ref": "9354900000"}, "type": "Feature"}
{"geometry": {"coordinates": [-118.005583733, 36.281200473], "type": "Point"}, "id": "sfzIwNLGFcJJoOf9Fh-J8FuB7Mc=", "properties": {"@source_uri": "https://tools.usps.com/UspsToolsRestServices/rest/POLocator/findLocations", "@spider": "usps_collection_boxes", "addr:city": "OLANCHA", "addr:country": "US", "addr:postcode": "93549", "addr:state": "CA", "addr:street_address": "100 S HIGHWAY 395", "amenity": "post_box", "brand": "United States Postal Service", "brand:wikidata": "Q668687", "collection_times": "Mo-Fr 14:30", "indoor": "yes", "note": "ON 12/24 AND 12/31, THIS BOX MAY BE COLLECTED AS EARLY AS 12 NOON.", "nsi_id": "unitedstatespostalservice-a77078", "operator": "United States Postal Service", "operator:short": "USPS", "operator:type": "public", "operator:wikidata": "Q668687", "ref": "9354900001"}, "type": "Feature"}
{"geometry": {"coordinates": [-118.076194204, 34.579524296], "type": "Point"}, "id": "0KaF9AfJGLiizxJOg5j1lnGdExw=", "properties": {"@source_uri": "https://tools.usps.com/UspsToolsRestServices/rest/POLocator/findLocations", "@spider": "usps_collection_boxes", "addr:city": "PALMDALE", "addr:country": "US", "addr:postcode": "93550", "addr:state": "CA", "addr:street_address": "38322 30TH ST E", "amenity": "post_box", "brand": "United States Postal Service", "brand:wikidata": "Q668687", "collection_times": "Mo-Sa 10:00", "nsi_id": "unitedstatespostalservice-a77078", "operator": "United States Postal Service", "operator:short": "USPS", "operator:type": "public", "operator:wikidata": "Q668687", "ref": "9355000003"}, "type": "Feature"}
{"geometry": {"coordinates": [-118.115996, 34.609318], "type": "Point"}, "id": "Ynl6eOVcVshH8zq_mcsnF8u3rIY=", "properties": {"@source_uri": "https://tools.usps.com/UspsToolsRestServices/rest/POLocator/findLocations", "@spider": "usps_collection_boxes", "addr:city": "PALMDALE", "addr:country": "US", "addr:postcode": "93550", "addr:state": "CA", "addr:street_address": "1011 LOCKHEED WAY", "amenity": "post_box", "brand": "United States Postal Service", "brand:wikidata": "Q668687", "collection_times": "Mo-Sa 10:00", "nsi_id": "unitedstatespostalservice-a77078", "operator": "United States Postal Service", "operator:short": "USPS", "operator:type": "public", "operator:wikidata": "Q668687", "ref": "9355000006"}, "type": "Feature"}
{"geometry": {"coordinates": [-118.116256, 34.578185], "type": "Point"}, "id": "6xXfk6TwnR-6CKxmpWrc0_dpaBo=", "properties": {"@source_uri": "https://tools.usps.com/UspsToolsRestServices/rest/POLocator/findLocations", "@spider": "usps_collection_boxes", "addr:city": "PALMDALE", "addr:country": "US", "addr:postcode": "93550", "addr:state": "CA", "addr:street_address": "38300 SIERRA HWY", "amenity": "post_box", "brand": "United States Postal Service", "brand:wikidata": "Q668687", "collection_times": "Mo-Sa 10:00", "nsi_id": "unitedstatespostalservice-a77078", "operator": "United States Postal Service", "operator:short": "USPS", "operator:type": "public", "operator:wikidata": "Q668687", "ref": "9355000007"}, "type": "Feature"}
{"geometry": {"coordinates": [-118.123744, 34.609249], "type": "Point"}, "id": "lFigKBY-Ud4aoULhavu__ccWHYI=", "properties": {"@source_uri": "https://tools.usps.com/UspsToolsRestServices/rest/POLocator/findLocations", "@spider": "usps_collection_boxes", "addr:city": "PALMDALE", "addr:country": "US", "addr:postcode": "93550", "addr:state": "CA", "addr:street_address": "40015 SIERRA HWY", "amenity": "post_box", "brand": "United States Postal Service", "brand:wikidata": "Q668687", "collection_times": "Mo-Sa 10:00", "nsi_id": "unitedstatespostalservice-a77078", "operator": "United States Postal Service", "operator:short": "USPS", "operator:type": "public", "operator:wikidata": "Q668687", "ref": "9355000049"}, "type": "Feature"}
{"geometry": {"coordinates": [-118.084272699, 34.602376337], "type": "Point"}, "id": "UokW4ogjW8unf5kGX72BTVJJlBA=", "properties": {"@source_uri": "https://tools.usps.com/UspsToolsRestServices/rest/POLocator/findLocations", "@spider": "usps_collection_boxes", "addr:city": "PALMDALE", "addr:country": "US", "addr:postcode": "93550", "addr:state": "CA", "addr:street_address": "2555 E AVENUE P", "amenity": "post_box", "brand": "United States Postal Service", "brand:wikidata": "Q668687", "collection_times": "Mo-Sa 10:00", "nsi_id": "unitedstatespostalservice-a77078", "operator": "United States Postal Service", "operator:short": "USPS", "operator:type": "public", "operator:wikidata": "Q668687", "ref": "9355000050"}, "type": "Feature"}
{"geometry": {"coordinates": [-118.094824, 34.59006], "type": "Point"}, "id": "AfDUoVyCRTSkj9dC-j4KhSyWpkw=", "properties": {"@source_uri": "https://tools.usps.com/UspsToolsRestServices/rest/POLocator/findLocations", "@spider": "usps_collection_boxes", "addr:city": "PALMDALE", "addr:country": "US", "addr:postcode": "93550", "addr:state": "CA", "addr:street_address": "38917 20TH ST E", "amenity": "post_box", "brand": "United States Postal Service", "brand:wikidata": "Q668687", "collection_times": "Mo-Sa 16:45", "note": "ON 12/24 AND 12/31, THIS BOX MAY BE COLLECTED AS EARLY AS 12 NOON.", "nsi_id": "unitedstatespostalservice-a77078", "operator": "United States Postal Service", "operator:short": "USPS", "operator:type": "public", "operator:wikidata": "Q668687", "ref": "9355000054"}, "type": "Feature"}
{"geometry": {"coordinates": [-118.11624102, 34.577526481], "type": "Point"}, "id": "17w41D4hETnWwi36oz1GZPX_wo0=", "properties": {"@source_uri": "https://tools.usps.com/UspsToolsRestServices/rest/POLocator/findLocations", "@spider": "usps_collection_boxes", "addr:city": "PALMDALE", "addr:country": "US", "addr:postcode": "93550", "addr:state": "CA", "addr:street_address": "38300 SIERRA HWY", "amenity": "post_box", "brand": "United States Postal Service", "brand:wikidata": "Q668687", "collection_times": "Mo-Sa 10:00", "nsi_id": "unitedstatespostalservice-a77078", "operator": "United States Postal Service", "operator:short": "USPS", "operator:type": "public", "operator:wikidata": "Q668687", "ref": "9355000055"}, "type": "Feature"}
{"geometry": {"coordinates": [-118.076194204, 34.579524296], "type": "Point"}, "id": "DOpWSWe0q2UiGVtAgHLwb28aoLw=", "properties": {"@source_uri": "https://tools.usps.com/UspsToolsRestServices/rest/POLocator/findLocations", "@spider": "usps_collection_boxes", "addr:city": "PALMDALE", "addr:country": "US", "addr:postcode": "93550", "addr:state": "CA", "addr:street_address": "38322 30TH ST E", "amenity": "post_box", "brand": "United States Postal Service", "brand:wikidata": "Q668687", "collection_times": "Mo-Sa 10:00", "nsi_id": "unitedstatespostalservice-a77078", "operator": "United States Postal Service", "operator:short": "USPS", "operator:type": "public", "operator:wikidata": "Q668687", "ref": "9355000056"}, "type": "Feature"}
{"geometry": {"coordinates": [-118.089052769, 34.580043278], "type": "Point"}, "id": "3cyjVt3CYzj0DqH6SzsczKIL_YE=", "properties": {"@source_uri": "https://tools.usps.com/UspsToolsRestServices/rest/POLocator/findLocations", "@spider": "usps_collection_boxes", "addr:city": "PALMDALE", "addr:country": "US", "addr:postcode": "93550", "addr:state": "CA", "addr:street_address": "2220 E PALMDALE BLVD", "amenity": "post_box", "brand": "United States Postal Service", "brand:wikidata": "Q668687", "collection_times": "Mo-Fr 17:00; Sa 15:00", "indoor": "yes", "note": "ON 12/24 AND 12/31, THIS BOX MAY BE COLLECTED AS EARLY AS 12 NOON.", "nsi_id": "unitedstatespostalservice-a77078", "operator": "United States Postal Service", "operator:short": "USPS", "operator:type": "public", "operator:wikidata": "Q668687", "ref": "9355000058"}, "type": "Feature"}
{"geometry": {"coordinates": [-118.089052769, 34.580043278], "type": "Point"}, "id": "qGdRluDjBqe2OEBVnsNTzEj1SBo=", "properties": {"@source_uri": "https://tools.usps.com/UspsToolsRestServices/rest/POLocator/findLocations", "@spider": "usps_collection_boxes", "addr:city": "PALMDALE", "addr:country": "US", "addr:postcode": "93550", "addr:state": "CA", "addr:street_address": "2220 E PALMDALE BLVD", "amenity": "post_box", "brand": "United States Postal Service", "brand:wikidata": "Q668687", "collection_times": "Mo-Fr 17:00; Sa 15:00", "name": "USPS COLLECTION BOX - APC", "note": "ON 12/24 AND 12/31, THIS BOX MAY BE COLLECTED AS EARLY AS 12 NOON.", "nsi_id": "unitedstatespostalservice-a77078", "operator": "United States Postal Service", "operator:short": "USPS", "operator:type": "public", "operator:wikidata": "Q668687", "ref": "9355000059"}, "type": "Feature"}
{"geometry": {"coordinates": [-118.089052769, 34.580043278], "type": "Point"}, "id": "J6iFb_6OXkr5rw-RzUsUqeyFRLA=", "properties": {"@source_uri": "https://tools.usps.com/UspsToolsRestServices/rest/POLocator/findLocations", "@spider": "usps_collection_boxes", "addr:city": "PALMDALE", "addr:country": "US", "addr:postcode": "93550", "addr:state": "CA", "addr:street_address": "2220 E PALMDALE BLVD", "amenity": "post_box", "brand": "United States Postal Service", "brand:wikidata": "Q668687", "collection_times": "Mo-Fr 17:15", "indoor": "yes", "note": "ON 12/24 AND 12/31, THIS BOX MAY BE COLLECTED AS EARLY AS 12 NOON.", "nsi_id": "unitedstatespostalservice-a77078", "operator": "United States Postal Service", "operator:short": "USPS", "operator:type": "public", "operator:wikidata": "Q668687", "ref": "9355000070"}, "type": "Feature"}
{"geometry": {"coordinates": [-118.094532, 34.570083], "type": "Point"}, "id": "VjTGNBf11K0I_iBC754FmHBTTL8=", "properties": {"@source_uri": "https://tools.usps.com/UspsToolsRestServices/rest/POLocator/findLocations", "@spider": "usps_collection_boxes", "addr:city": "PALMDALE", "addr:country": "US", "addr:postcode": "93550", "addr:state": "CA", "addr:street_address": "2220 E PALMDALE BLVD", "amenity": "post_box", "brand": "United States Postal Service", "brand:wikidata": "Q668687", "collection_times": "Mo-Sa 09:00", "nsi_id": "unitedstatespostalservice-a77078", "operator": "United States Postal Service", "operator:short": "USPS", "operator:type": "public", "operator:wikidata": "Q668687", "ref": "9355000072"}, "type": "Feature"}
{"geometry": {"coordinates": [-118.146263, 34.587782], "type": "Point"}, "id": "4DnEPhMJG3D9umMmrP4Hoj49Ero=", "properties": {"@source_uri": "https://tools.usps.com/UspsToolsRestServices/rest/POLocator/findLocations", "@spider": "usps_collection_boxes", "addr:city": "PALMDALE", "addr:country": "US", "addr:postcode": "93551", "addr:state": "CA", "addr:street_address": "829 W PALMDALE BLVD", "amenity": "post_box", "brand": "United States Postal Service", "brand:wikidata": "Q668687", "collection_times": "Mo-Fr 13:00; Sa 12:30", "note": "ON 12/24 AND 12/31, THIS BOX MAY BE COLLECTED AS EARLY AS 12 NOON.", "nsi_id": "unitedstatespostalservice-a77078", "operator": "United States Postal Service", "operator:short": "USPS", "operator:type": "public", "operator:wikidata": "Q668687", "ref": "9355100000"}, "type": "Feature"}
{"geometry": {"coordinates": [-118.185213, 34.603316], "type": "Point"}, "id": "lwBaEoGkjmdAvnK_rBFnPlkBzh8=", "properties": {"@source_uri": "https://tools.usps.com/UspsToolsRestServices/rest/POLocator/findLocations", "@spider": "usps_collection_boxes", "addr:city": "PALMDALE", "addr:country": "US", "addr:postcode": "93551", "addr:state": "CA", "addr:street_address": "3053 RANCHO VISTA BLVD", "amenity": "post_box", "brand": "United States Postal Service", "brand:wikidata": "Q668687", "collection_times": "Mo-Sa 12:15", "note": "ON 12/24 AND 12/31, THIS BOX MAY BE COLLECTED AS EARLY AS 12 NOON.", "nsi_id": "unitedstatespostalservice-a77078", "operator": "United States Postal Service", "operator:short": "USPS", "operator:type": "public", "operator:wikidata": "Q668687", "ref": "9355100002"}, "type": "Feature"}
{"geometry": {"coordinates": [-118.185216, 34.603314], "type": "Point"}, "id": "SgpSzs2m1isAfGg3R5kviT2GqQ8=", "properties": {"@source_uri": "https://tools.usps.com/UspsToolsRestServices/rest/POLocator/findLocations", "@spider": "usps_collection_boxes", "addr:city": "PALMDALE", "addr:country": "US", "addr:postcode": "93551", "addr:state": "CA", "addr:street_address": "3053 RANCHO VISTA BLVD", "amenity": "post_box", "brand": "United States Postal Service", "brand:wikidata": "Q668687", "collection_times": "Mo-Sa 12:15", "note": "ON 12/24 AND 12/31, THIS BOX MAY BE COLLECTED AS EARLY AS 12 NOON.", "nsi_id": "unitedstatespostalservice-a77078", "operator": "United States Postal Service", "operator:short": "USPS", "operator:type": "public", "operator:wikidata": "Q668687", "ref": "9355100003"}, "type": "Feature"}
{"geometry": {"coordinates": [-118.288737, 34.618174], "type": "Point"}, "id": "9lHAS6sx_vxBZdWlCPyMnBs2KN8=", "properties": {"@source_uri": "https://tools.usps.com/UspsToolsRestServices/rest/POLocator/findLocations", "@spider": "usps_collection_boxes", "addr:city": "PALMDALE", "addr:country": "US", "addr:postcode": "93551", "addr:state": "CA", "addr:street_address": "9001 W ELIZABETH LAKE RD.", "amenity": "post_box", "brand": "United States Postal Service", "brand:wikidata": "Q668687", "collection_times": "Mo-Sa 10:00", "nsi_id": "unitedstatespostalservice-a77078", "operator": "United States Postal Service", "operator:short": "USPS", "operator:type": "public", "operator:wikidata": "Q668687", "ref": "9355100007"}, "type": "Feature"}
{"geometry": {"coordinates": [-118.149422, 34.63133], "type": "Point"}, "id": "KN-0dwQYqvr6HTn6dkJiM7NZE2o=", "properties": {"@source_uri": "https://tools.usps.com/UspsToolsRestServices/rest/POLocator/findLocations", "@spider": "usps_collection_boxes", "addr:city": "PALMDALE", "addr:country": "US", "addr:postcode": "93551", "addr:state": "CA", "addr:street_address": "1037 W AVENUE N", "amenity": "post_box", "brand": "United States Postal Service", "brand:wikidata": "Q668687", "collection_times": "Mo-Sa 10:00", "nsi_id": "unitedstatespostalservice-a77078", "operator": "United States Postal Service", "operator:short": "USPS", "operator:type": "public", "operator:wikidata": "Q668687", "ref": "9355100010"}, "type": "Feature"}
{"geometry": {"coordinates": [-118.146244, 34.587777], "type": "Point"}, "id": "hWuv-D75OimMh-d7Kg0E529hxbg=", "properties": {"@source_uri": "https://tools.usps.com/UspsToolsRestServices/rest/POLocator/findLocations", "@spider": "usps_collection_boxes", "addr:city": "PALMDALE", "addr:country": "US", "addr:postcode": "93551", "addr:state": "CA", "addr:street_address": "829 W PALMDALE BLVD", "amenity": "post_box", "brand": "United States Postal Service", "brand:wikidata": "Q668687", "collection_times": "Mo-Fr 13:00; Sa 12:30", "note": "ON 12/24 AND 12/31, THIS BOX MAY BE COLLECTED AS EARLY AS 12 NOON.", "nsi_id": "unitedstatespostalservice-a77078", "operator": "United States Postal Service", "operator:short": "USPS", "operator:type": "public", "operator:wikidata": "Q668687", "ref": "9355100012"}, "type": "Feature"}
{"geometry": {"coordinates": [-118.14864, 34.586362], "type": "Point"}, "id": "YE1VtWJ00Lku8jHSoAw8HnKcF5Q=", "properties": {"@source_uri": "https://tools.usps.com/UspsToolsRestServices/rest/POLocator/findLocations", "@spider": "usps_collection_boxes", "addr:city": "PALMDALE", "addr:country": "US", "addr:postcode": "93551", "addr:state": "CA", "addr:street_address": "38727 TIERRA SUBIDA AVE", "amenity": "post_box", "brand": "United States Postal Service", "brand:wikidata": "Q668687", "collection_times": "Mo-Sa 10:00", "nsi_id": "unitedstatespostalservice-a77078", "operator": "United States Postal Service", "operator:short": "USPS", "operator:type": "public", "operator:wikidata": "Q668687", "ref": "9355100014"}, "type": "Feature"}
{"geometry": {"coordinates": [-118.0458495, 34.556931], "type": "Point"}, "id": "BbRUuQBYZknTBfQQ6e-3KTfOxFs=", "properties": {"@source_uri": "https://tools.usps.com/UspsToolsRestServices/rest/POLocator/findLocations", "@spider": "usps_collection_boxes", "addr:city": "PALMDALE", "addr:country": "US", "addr:postcode": "93552", "addr:state": "CA", "addr:street_address": "4654 E AVENUE S", "amenity": "post_box", "brand": "United States Postal Service", "brand:wikidata": "Q668687", "collection_times": "Mo-Sa 10:00", "nsi_id": "unitedstatespostalservice-a77078", "operator": "United States Postal Service", "operator:short": "USPS", "operator:type": "public", "operator:wikidata": "Q668687", "ref": "9355200002"}, "type": "Feature"}
{"geometry": {"coordinates": [-117.909414, 34.5064175134], "type": "Point"}, "id": "IHISIdH0SWLXluEx-eIsBi_yKsw=", "properties": {"@source_uri": "https://tools.usps.com/UspsToolsRestServices/rest/POLocator/findLocations", "@spider": "usps_collection_boxes", "addr:city": "PEARBLOSSOM", "addr:country": "US", "addr:postcode": "93553", "addr:state": "CA", "addr:street_address": "12302 PEARBLOSSOM HWY", "amenity": "post_box", "brand": "United States Postal Service", "brand:wikidata": "Q668687", "collection_times": "Mo-Fr 14:30; Sa 10:00", "note": "ON 12/24 AND 12/31, THIS BOX MAY BE COLLECTED AS EARLY AS 12 NOON.", "nsi_id": "unitedstatespostalservice-a77078", "operator": "United States Postal Service", "operator:short": "USPS", "operator:type": "public", "operator:wikidata": "Q668687", "ref": "9355300002"}, "type": "Feature"}
{"geometry": {"coordinates": [-117.9094810402, 34.5061659927], "type": "Point"}, "id": "dW5AJ5RP3zUw55nLC9ClNmvlglM=", "properties": {"@source_uri": "https://tools.usps.com/UspsToolsRestServices/rest/POLocator/findLocations", "@spider": "usps_collection_boxes", "addr:city": "PEARBLOSSOM", "addr:country": "US", "addr:postcode": "93553", "addr:state": "CA", "addr:street_address": "12302 PEARBLOSSOM HWY", "amenity": "post_box", "brand": "United States Postal Service", "brand:wikidata": "Q668687", "collection_times": "Mo-Fr 14:30; Sa 10:00", "indoor": "yes", "note": "ON 12/24 AND 12/31, THIS BOX MAY BE COLLECTED AS EARLY AS 12 NOON.", "nsi_id": "unitedstatespostalservice-a77078", "operator": "United States Postal Service", "operator:short": "USPS", "operator:type": "public", "operator:wikidata": "Q668687", "ref": "9355300003"}, "type": "Feature"}
{"geometry": {"coordinates": [-117.9094810402, 34.5061659927], "type": "Point"}, "id": "nTndzUH-uxOkpaKBikvdbnzNnqM=", "properties": {"@source_uri": "https://tools.usps.com/UspsToolsRestServices/rest/POLocator/findLocations", "@spider": "usps_collection_boxes", "addr:city": "PEARBLOSSOM", "addr:country": "US", "addr:postcode": "93553", "addr:state": "CA", "addr:street_address": "12302 PEARBLOSSOM HWY", "amenity": "post_box", "brand": "United States Postal Service", "brand:wikidata": "Q668687", "collection_times": "Mo-Fr 15:00", "indoor": "yes", "note": "ON 12/24 AND 12/31, THIS BOX MAY BE COLLECTED AS EARLY AS 12 NOON.", "nsi_id": "unitedstatespostalservice-a77078", "operator": "United States Postal Service", "operator:short": "USPS", "operator:type": "public", "operator:wikidata": "Q668687", "ref": "9355300004"}, "type": "Feature"}
{"geometry": {"coordinates": [-117.669769, 35.627993], "type": "Point"}, "id": "e_xsr_ISC4NSeABoostv43FcwTE=", "properties": {"@source_uri": "https://tools.usps.com/UspsToolsRestServices/rest/POLocator/findLocations", "@spider": "usps_collection_boxes", "addr:city": "RIDGECREST", "addr:country": "US", "addr:postcode": "93555", "addr:state": "CA", "addr:street_address": "100 E COSO AVE", "amenity": "post_box", "brand": "United States Postal Service", "brand:wikidata": "Q668687", "collection_times": "Mo-Fr 16:00; Sa 15:00", "note": "ON 12/24 AND 12/31, THIS BOX MAY BE COLLECTED AS EARLY AS 12 NOON.", "nsi_id": "unitedstatespostalservice-a77078", "operator": "United States Postal Service", "operator:short": "USPS", "operator:type": "public", "operator:wikidata": "Q668687", "ref": "9355500001"}, "type": "Feature"}
{"geometry": {"coordinates": [-117.669810528, 35.627890467], "type": "Point"}, "id": "V2L6CmiFxhkZUvOLA57CkUEY1f0=", "properties": {"@source_uri": "https://tools.usps.com/UspsToolsRestServices/rest/POLocator/findLocations", "@spider": "usps_collection_boxes", "addr:city": "RIDGECREST", "addr:country": "US", "addr:postcode": "93555", "addr:state": "CA", "addr:street_address": "101 E COSO AVE", "amenity": "post_box", "brand": "United States Postal Service", "brand:wikidata": "Q668687", "collection_times": "Mo-Sa 15:00", "name": "USPS COLLECTION BOX - EXPRESS", "note": "ON 12/24 AND 12/31, THIS BOX MAY BE COLLECTED AS EARLY AS 12 NOON.", "nsi_id": "unitedstatespostalservice-a77078", "operator": "United States Postal Service", "operator:short": "USPS", "operator:type": "public", "operator:wikidata": "Q668687", "ref": "9355500002"}, "type": "Feature"}
{"geometry": {"coordinates": [-117.669810528, 35.627890467], "type": "Point"}, "id": "BwrXamo0Ex9iSSOgb1Hy1tzGsb8=", "properties": {"@source_uri": "https://tools.usps.com/UspsToolsRestServices/rest/POLocator/findLocations", "@spider": "usps_collection_boxes", "addr:city": "RIDGECREST", "addr:country": "US", "addr:postcode": "93555", "addr:state": "CA", "addr:street_address": "101 E COSO AVE", "amenity": "post_box", "brand": "United States Postal Service", "brand:wikidata": "Q668687", "collection_times": "Mo-Sa 15:00", "indoor": "yes", "note": "ON 12/24 AND 12/31, THIS BOX MAY BE COLLECTED AS EARLY AS 12 NOON.", "nsi_id": "unitedstatespostalservice-a77078", "operator": "United States Postal Service", "operator:short": "USPS", "operator:type": "public", "operator:wikidata": "Q668687", "ref": "9355500027"}, "type": "Feature"}
{"geometry": {"coordinates": [-117.669810528, 35.627890467], "type": "Point"}, "id": "PaZs1DaieQk3TF7Boqb1LaFdMNE=", "properties": {"@source_uri": "https://tools.usps.com/UspsToolsRestServices/rest/POLocator/findLocations", "@spider": "usps_collection_boxes", "addr:city": "RIDGECREST", "addr:country": "US", "addr:postcode": "93555", "addr:state": "CA", "addr:street_address": "101 E COSO AVE", "amenity": "post_box", "brand": "United States Postal Service", "brand:wikidata": "Q668687", "collection_times": "Mo-Sa 15:00", "name": "USPS COLLECTION BOX - APC", "note": "ON 12/24 AND 12/31, THIS BOX MAY BE COLLECTED AS EARLY AS 12 NOON.", "nsi_id": "unitedstatespostalservice-a77078", "operator": "United States Postal Service", "operator:short": "USPS", "operator:type": "public", "operator:wikidata": "Q668687", "ref": "9355500029"}, "type": "Feature"}
{"geometry": {"coordinates": [-117.669810528, 35.627890467], "type": "Point"}, "id": "oTaLYcTHQxCbYxUT-7cujdpA5PY=", "properties": {"@source_uri": "https://tools.usps.com/UspsToolsRestServices/rest/POLocator/findLocations", "@spider": "usps_collection_boxes", "addr:city": "RIDGECREST", "addr:country": "US", "addr:postcode": "93555", "addr:state": "CA", "addr:street_address": "101 E COSO AVE", "amenity": "post_box", "brand": "United States Postal Service", "brand:wikidata": "Q668687", "collection_times": "Mo-Fr 16:15", "indoor": "yes", "note": "ON 12/24 AND 12/31, THIS BOX MAY BE COLLECTED AS EARLY AS 12 NOON.", "nsi_id": "unitedstatespostalservice-a77078", "operator": "United States Postal Service", "operator:short": "USPS", "operator:type": "public", "operator:wikidata": "Q668687", "ref": "9355500030"}, "type": "Feature"}
{"geometry": {"coordinates": [-118.166750026, 34.86430747], "type": "Point"}, "id": "71e8nUJyyv74cuHnlACCS_Wu8Iw=", "properties": {"@source_uri": "https://tools.usps.com/UspsToolsRestServices/rest/POLocator/findLocations", "@spider": "usps_collection_boxes", "addr:city": "ROSAMOND", "addr:country": "US", "addr:postcode": "93560", "addr:state": "CA", "addr:street_address": "1950 W ROSAMOND BLVD", "amenity": "post_box", "brand": "United States Postal Service", "brand:wikidata": "Q668687", "collection_times": "Mo-Fr 16:15; Sa 13:00", "note": "ON 12/24 AND 12/31, THIS BOX MAY BE COLLECTED AS EARLY AS 12 NOON.", "nsi_id": "unitedstatespostalservice-a77078", "operator": "United States Postal Service", "operator:short": "USPS", "operator:type": "public", "operator:wikidata": "Q668687", "ref": "9356000000"}, "type": "Feature"}
{"geometry": {"coordinates": [-118.166750026, 34.86430747], "type": "Point"}, "id": "GI1QEtaxIrjXTtlI42Y9725Ud5c=", "properties": {"@source_uri": "https://tools.usps.com/UspsToolsRestServices/rest/POLocator/findLocations", "@spider": "usps_collection_boxes", "addr:city": "ROSAMOND", "addr:country": "US", "addr:postcode": "93560", "addr:state": "CA", "addr:street_address": "1950 W ROSAMOND BLVD", "amenity": "post_box", "brand": "United States Postal Service", "brand:wikidata": "Q668687", "collection_times": "Mo-Fr 16:15; Sa 13:00", "indoor": "yes", "note": "ON 12/24 AND 12/31, THIS BOX MAY BE COLLECTED AS EARLY AS 12 NOON.", "nsi_id": "unitedstatespostalservice-a77078", "operator": "United States Postal Service", "operator:short": "USPS", "operator:type": "public", "operator:wikidata": "Q668687", "ref": "9356000001"}, "type": "Feature"}
{"geometry": {"coordinates": [-118.166750026, 34.86430747], "type": "Point"}, "id": "f0qCTMn26o9TNPOgRPuW-RgyLeA=", "properties": {"@source_uri": "https://tools.usps.com/UspsToolsRestServices/rest/POLocator/findLocations", "@spider": "usps_collection_boxes", "addr:city": "ROSAMOND", "addr:country": "US", "addr:postcode": "93560", "addr:state": "CA", "addr:street_address": "1950 W ROSAMOND BLVD", "amenity": "post_box", "brand": "United States Postal Service", "brand:wikidata": "Q668687", "collection_times": "Mo-Fr 16:15", "indoor": "yes", "note": "ON 12/24 AND 12/31, THIS BOX MAY BE COLLECTED AS EARLY AS 12 NOON.", "nsi_id": "unitedstatespostalservice-a77078", "operator": "United States Postal Service", "operator:short": "USPS", "operator:type": "public", "operator:wikidata": "Q668687", "ref": "9356000002"}, "type": "Feature"}
{"geometry": {"coordinates": [-118.4516428141, 35.1433483576], "type": "Point"}, "id": "5LcetL6UjQj_D9NrKtEsf_VRI2U=", "properties": {"@source_uri": "https://tools.usps.com/UspsToolsRestServices/rest/POLocator/findLocations", "@spider": "usps_collection_boxes", "addr:city": "TEHACHAPI", "addr:country": "US", "addr:postcode": "93561", "addr:state": "CA", "addr:street_address": "1085 VOYAGER DR", "amenity": "post_box", "brand": "United States Postal Service", "brand:wikidata": "Q668687", "collection_times": "Mo-Fr 17:00; Sa 15:00", "note": "ON 12/24 AND 12/31, THIS BOX MAY BE COLLECTED AS EARLY AS 12 NOON.", "nsi_id": "unitedstatespostalservice-a77078", "operator": "United States Postal Service", "operator:short": "USPS", "operator:type": "public", "operator:wikidata": "Q668687", "ref": "9356100000"}, "type": "Feature"}
{"geometry": {"coordinates": [-118.449629, 35.129222], "type": "Point"}, "id": "9OUwzqJnMZankmOlxzR4keZF0so=", "properties": {"@source_uri": "https://tools.usps.com/UspsToolsRestServices/rest/POLocator/findLocations", "@spider": "usps_collection_boxes", "addr:city": "TEHACHAPI", "addr:country": "US", "addr:postcode": "93561", "addr:state": "CA", "addr:street_address": "127 W D ST", "amenity": "post_box", "brand": "United States Postal Service", "brand:wikidata": "Q668687", "collection_times": "Mo-Sa 10:00", "nsi_id": "unitedstatespostalservice-a77078", "operator": "United States Postal Service", "operator:short": "USPS", "operator:type": "public", "operator:wikidata": "Q668687", "ref": "9356100004"}, "type": "Feature"}
{"geometry": {"coordinates": [-118.60994, 35.169601], "type": "Point"}, "id": "PT8BXN6C8ARQiSBttT1C_R-jEUg=", "properties": {"@source_uri": "https://tools.usps.com/UspsToolsRestServices/rest/POLocator/findLocations", "@spider": "usps_collection_boxes", "addr:city": "TEHACHAPI", "addr:country": "US", "addr:postcode": "93561", "addr:state": "CA", "addr:street_address": "26900 BEAR VALLEY RD", "amenity": "post_box", "brand": "United States Postal Service", "brand:wikidata": "Q668687", "collection_times": "Mo-Sa 10:00", "nsi_id": "unitedstatespostalservice-a77078", "operator": "United States Postal Service", "operator:short": "USPS", "operator:type": "public", "operator:wikidata": "Q668687", "ref": "9356100007"}, "type": "Feature"}
{"geometry": {"coordinates": [-118.492324, 35.12359], "type": "Point"}, "id": "C_I2nXot-MIIIabscaEXxs1OqBI=", "properties": {"@source_uri": "https://tools.usps.com/UspsToolsRestServices/rest/POLocator/findLocations", "@spider": "usps_collection_boxes", "addr:city": "TEHACHAPI", "addr:country": "US", "addr:postcode": "93561", "addr:state": "CA", "addr:street_address": "20358 W VALLEY BLVD", "amenity": "post_box", "brand": "United States Postal Service", "brand:wikidata": "Q668687", "collection_times": "Mo-Sa 10:00", "nsi_id": "unitedstatespostalservice-a77078", "operator": "United States Postal Service", "operator:short": "USPS", "operator:type": "public", "operator:wikidata": "Q668687", "ref": "9356100008"}, "type": "Feature"}
{"geometry": {"coordinates": [-118.451669, 35.143348], "type": "Point"}, "id": "AGfC63KNue9TWKCtCfJFbqKvEf0=", "properties": {"@source_uri": "https://tools.usps.com/UspsToolsRestServices/rest/POLocator/findLocations", "@spider": "usps_collection_boxes", "addr:city": "TEHACHAPI", "addr:country": "US", "addr:postcode": "93561", "addr:state": "CA", "addr:street_address": "1085 VOYAGER DR", "amenity": "post_box", "brand": "United States Postal Service", "brand:wikidata": "Q668687", "collection_times": "Mo-Fr 17:00; Sa 15:00", "indoor": "yes", "note": "ON 12/24 AND 12/31, THIS BOX MAY BE COLLECTED AS EARLY AS 12 NOON.", "nsi_id": "unitedstatespostalservice-a77078", "operator": "United States Postal Service", "operator:short": "USPS", "operator:type": "public", "operator:wikidata": "Q668687", "ref": "9356100014"}, "type": "Feature"}
{"geometry": {"coordinates": [-118.452827, 35.144742], "type": "Point"}, "id": "rNzh6wXp-4LpuXfS3a0ANpXWk5Y=", "properties": {"@source_uri": "https://tools.usps.com/UspsToolsRestServices/rest/POLocator/findLocations", "@spider": "usps_collection_boxes", "addr:city": "TEHACHAPI", "addr:country": "US", "addr:postcode": "93561", "addr:state": "CA", "addr:street_address": "1085 VOYAGER DR", "amenity": "post_box", "brand": "United States Postal Service", "brand:wikidata": "Q668687", "collection_times": "Mo-Fr 17:00; Sa 15:00", "indoor": "yes", "note": "ON 12/24 AND 12/31, THIS BOX MAY BE COLLECTED AS EARLY AS 12 NOON.", "nsi_id": "unitedstatespostalservice-a77078", "operator": "United States Postal Service", "operator:short": "USPS", "operator:type": "public", "operator:wikidata": "Q668687", "ref": "9356100015"}, "type": "Feature"}
{"geometry": {"coordinates": [-118.452938, 35.144852], "type": "Point"}, "id": "NHrDGr_ks4L_8IVaPsAKXFR-2D4=", "properties": {"@source_uri": "https://tools.usps.com/UspsToolsRestServices/rest/POLocator/findLocations", "@spider": "usps_collection_boxes", "addr:city": "TEHACHAPI", "addr:country": "US", "addr:postcode": "93561", "addr:state": "CA", "addr:street_address": "1085 VOYAGER DR", "amenity": "post_box", "brand": "United States Postal Service", "brand:wikidata": "Q668687", "collection_times": "Mo-Fr 17:00; Sa 15:00", "indoor": "yes", "note": "ON 12/24 AND 12/31, THIS BOX MAY BE COLLECTED AS EARLY AS 12 NOON.", "nsi_id": "unitedstatespostalservice-a77078", "operator": "United States Postal Service", "operator:short": "USPS", "operator:type": "public", "operator:wikidata": "Q668687", "ref": "9356100016"}, "type": "Feature"}
{"geometry": {"coordinates": [-118.578396, 35.147515], "type": "Point"}, "id": "2EFKj-QYSJazlL0sDDENQAA749I=", "properties": {"@source_uri": "https://tools.usps.com/UspsToolsRestServices/rest/POLocator/findLocations", "@spider": "usps_collection_boxes", "addr:city": "TEHACHAPI", "addr:country": "US", "addr:postcode": "93561", "addr:state": "CA", "addr:street_address": "25101 BEAR VALLEY RD", "amenity": "post_box", "brand": "United States Postal Service", "brand:wikidata": "Q668687", "collection_times": "Mo-Sa 10:00", "nsi_id": "unitedstatespostalservice-a77078", "operator": "United States Postal Service", "operator:short": "USPS", "operator:type": "public", "operator:wikidata": "Q668687", "ref": "9356100017"}, "type": "Feature"}
{"geometry": {"coordinates": [-118.644489, 35.15852], "type": "Point"}, "id": "Vx-AvibfizmGdaT_ypTVZxp1JRw=", "properties": {"@source_uri": "https://tools.usps.com/UspsToolsRestServices/rest/POLocator/findLocations", "@spider": "usps_collection_boxes", "addr:city": "TEHACHAPI", "addr:country": "US", "addr:postcode": "93561", "addr:state": "CA", "addr:street_address": "28999 S LOWER VALLEY RD", "amenity": "post_box", "brand": "United States Postal Service", "brand:wikidata": "Q668687", "collection_times": "Mo-Sa 10:00", "nsi_id": "unitedstatespostalservice-a77078", "operator": "United States Postal Service", "operator:short": "USPS", "operator:type": "public", "operator:wikidata": "Q668687", "ref": "9356100018"}, "type": "Feature"}
{"geometry": {"coordinates": [-118.4516448214, 35.1433478651], "type": "Point"}, "id": "ebJtEOEsMdLZXPZ2cys7ktqvN6E=", "properties": {"@source_uri": "https://tools.usps.com/UspsToolsRestServices/rest/POLocator/findLocations", "@spider": "usps_collection_boxes", "addr:city": "TEHACHAPI", "addr:country": "US", "addr:postcode": "93561", "addr:state": "CA", "addr:street_address": "1085 VOYAGER DR", "amenity": "post_box", "brand": "United States Postal Service", "brand:wikidata": "Q668687", "collection_times": "Mo-Fr 17:00", "indoor": "yes", "note": "ON 12/24 AND 12/31, THIS BOX MAY BE COLLECTED AS EARLY AS 12 NOON.", "nsi_id": "unitedstatespostalservice-a77078", "operator": "United States Postal Service", "operator:short": "USPS", "operator:type": "public", "operator:wikidata": "Q668687", "ref": "9356100020"}, "type": "Feature"}
{"geometry": {"coordinates": [-117.3766776471, 35.7591956647], "type": "Point"}, "id": "jbzd_aE48GokScgWC0QVP0hY0nw=", "properties": {"@source_uri": "https://tools.usps.com/UspsToolsRestServices/rest/POLocator/findLocations", "@spider": "usps_collection_boxes", "addr:city": "TRONA", "addr:country": "US", "addr:postcode": "93562", "addr:state": "CA", "addr:street_address": "82905 SEARLES ST", "amenity": "post_box", "brand": "United States Postal Service", "brand:wikidata": "Q668687", "collection_times": "Mo-Sa 15:15", "indoor": "yes", "note": "ON 12/24 AND 12/31, THIS BOX MAY BE COLLECTED AS EARLY AS 12 NOON.", "nsi_id": "unitedstatespostalservice-a77078", "operator": "United States Postal Service", "operator:short": "USPS", "operator:type": "public", "operator:wikidata": "Q668687", "ref": "9356200000"}, "type": "Feature"}
{"geometry": {"coordinates": [-117.3766776471, 35.7591956647], "type": "Point"}, "id": "eVGt4SIobzEqz5kVCIz4rLgxoK0=", "properties": {"@source_uri": "https://tools.usps.com/UspsToolsRestServices/rest/POLocator/findLocations", "@spider": "usps_collection_boxes", "addr:city": "TRONA", "addr:country": "US", "addr:postcode": "93562", "addr:state": "CA", "addr:street_address": "82905 SEARLES ST", "amenity": "post_box", "brand": "United States Postal Service", "brand:wikidata": "Q668687", "collection_times": "Mo-Fr 15:15", "indoor": "yes", "note": "ON 12/24 AND 12/31, THIS BOX MAY BE COLLECTED AS EARLY AS 12 NOON.", "nsi_id": "unitedstatespostalservice-a77078", "operator": "United States Postal Service", "operator:short": "USPS", "operator:type": "public", "operator:wikidata": "Q668687", "ref": "9356200004"}, "type": "Feature"}
