{"geometry": {"coordinates": [-119.727558, 37.372433], "type": "Point"}, "id": "-Xsrrr_PeRyUkDSmpeQqzOPGXvs=", "properties": {"@source_uri": "https://tools.usps.com/UspsToolsRestServices/rest/POLocator/findLocations", "@spider": "usps_collection_boxes", "addr:city": "AHWAHNEE", "addr:country": "US", "addr:full": "44878 NOTRE DAME LN", "addr:postcode": "93601", "addr:state": "CA", "amenity": "post_box", "brand": "United States Postal Service", "brand:wikidata": "Q668687", "collection_times": "Mo-Fr 15:00; Sa 11:00", "note": "ON 12/24 AND 12/31, THIS BOX MAY BE COLLECTED AS EARLY AS 12 NOON.", "nsi_id": "unitedstatespostalservice-a77078", "operator": "United States Postal Service", "operator:short": "USPS", "operator:type": "public", "operator:wikidata": "Q668687", "ref": "9360100001"}, "type": "Feature"}
{"geometry": {"coordinates": [-119.727599, 37.37244], "type": "Point"}, "id": "NfIjCwNPTL312sg6m6mpOCIpQc0=", "properties": {"@source_uri": "https://tools.usps.com/UspsToolsRestServices/rest/POLocator/findLocations", "@spider": "usps_collection_boxes", "addr:city": "AHWAHNEE", "addr:country": "US", "addr:full": "44878 NOTRE DAME LN", "addr:postcode": "93601", "addr:state": "CA", "amenity": "post_box", "brand": "United States Postal Service", "brand:wikidata": "Q668687", "collection_times": "Mo-Fr 15:00; Sa 11:00", "indoor": "yes", "note": "ON 12/24 AND 12/31, THIS BOX MAY BE COLLECTED AS EARLY AS 12 NOON.", "nsi_id": "unitedstatespostalservice-a77078", "operator": "United States Postal Service", "operator:short": "USPS", "operator:type": "public", "operator:wikidata": "Q668687", "ref": "9360100008"}, "type": "Feature"}
{"geometry": {"coordinates": [-119.727599, 37.37244], "type": "Point"}, "id": "hLDwkEhl6eYvnfGU0PoLQyIWqco=", "properties": {"@source_uri": "https://tools.usps.com/UspsToolsRestServices/rest/POLocator/findLocations", "@spider": "usps_collection_boxes", "addr:city": "AHWAHNEE", "addr:country": "US", "addr:full": "44878 NOTRE DAME LN", "addr:postcode": "93601", "addr:state": "CA", "amenity": "post_box", "brand": "United States Postal Service", "brand:wikidata": "Q668687", "collection_times": "Mo-Fr 15:00; Sa 11:00", "indoor": "yes", "note": "ON 12/24 AND 12/31, THIS BOX MAY BE COLLECTED AS EARLY AS 12 NOON.", "nsi_id": "unitedstatespostalservice-a77078", "operator": "United States Postal Service", "operator:short": "USPS", "operator:type": "public", "operator:wikidata": "Q668687", "ref": "9360100009"}, "type": "Feature"}
{"geometry": {"coordinates": [-119.727516138, 37.372463235], "type": "Point"}, "id": "7oQC8EI3R2KOlyBANe09fg6bUmU=", "properties": {"@source_uri": "https://tools.usps.com/UspsToolsRestServices/rest/POLocator/findLocations", "@spider": "usps_collection_boxes", "addr:city": "AHWAHNEE", "addr:country": "US", "addr:full": "44878 NOTRE DAME LN", "addr:postcode": "93601", "addr:state": "CA", "amenity": "post_box", "brand": "United States Postal Service", "brand:wikidata": "Q668687", "collection_times": "Mo-Fr 15:30", "indoor": "yes", "note": "ON 12/24 AND 12/31, THIS BOX MAY BE COLLECTED AS EARLY AS 12 NOON.", "nsi_id": "unitedstatespostalservice-a77078", "operator": "United States Postal Service", "operator:short": "USPS", "operator:type": "public", "operator:wikidata": "Q668687", "ref": "9360100015"}, "type": "Feature"}
{"geometry": {"coordinates": [-119.486656, 37.073834], "type": "Point"}, "id": "BM1ztS4_820eUTvmqMfbZIX_bC4=", "properties": {"@source_uri": "https://tools.usps.com/UspsToolsRestServices/rest/POLocator/findLocations", "@spider": "usps_collection_boxes", "addr:city": "AUBERRY", "addr:country": "US", "addr:full": "33012 AUBERRY RD", "addr:postcode": "93602", "addr:state": "CA", "amenity": "post_box", "brand": "United States Postal Service", "brand:wikidata": "Q668687", "collection_times": "Mo-Fr 15:30; Sa 10:00", "note": "ON 12/24 AND 12/31, THIS BOX MAY BE COLLECTED AS EARLY AS 12 NOON.", "nsi_id": "unitedstatespostalservice-a77078", "operator": "United States Postal Service", "operator:short": "USPS", "operator:type": "public", "operator:wikidata": "Q668687", "ref": "9360200001"}, "type": "Feature"}
{"geometry": {"coordinates": [-119.486719, 37.073781], "type": "Point"}, "id": "zvFW4eqqoU10W-z9oIio8Mz-rAM=", "properties": {"@source_uri": "https://tools.usps.com/UspsToolsRestServices/rest/POLocator/findLocations", "@spider": "usps_collection_boxes", "addr:city": "AUBERRY", "addr:country": "US", "addr:full": "33012 AUBERRY RD", "addr:postcode": "93602", "addr:state": "CA", "amenity": "post_box", "brand": "United States Postal Service", "brand:wikidata": "Q668687", "collection_times": "Mo-Fr 15:30; Sa 10:00", "indoor": "yes", "note": "ON 12/24 AND 12/31, THIS BOX MAY BE COLLECTED AS EARLY AS 12 NOON.", "nsi_id": "unitedstatespostalservice-a77078", "operator": "United States Postal Service", "operator:short": "USPS", "operator:type": "public", "operator:wikidata": "Q668687", "ref": "9360200003"}, "type": "Feature"}
{"geometry": {"coordinates": [-119.486719, 37.073781], "type": "Point"}, "id": "dX_2M0Kozxm5EtQO26wB-bPSss4=", "properties": {"@source_uri": "https://tools.usps.com/UspsToolsRestServices/rest/POLocator/findLocations", "@spider": "usps_collection_boxes", "addr:city": "AUBERRY", "addr:country": "US", "addr:full": "33012 AUBERRY RD", "addr:postcode": "93602", "addr:state": "CA", "amenity": "post_box", "brand": "United States Postal Service", "brand:wikidata": "Q668687", "collection_times": "Mo-Fr 15:30; Sa 10:00", "indoor": "yes", "note": "ON 12/24 AND 12/31, THIS BOX MAY BE COLLECTED AS EARLY AS 12 NOON.", "nsi_id": "unitedstatespostalservice-a77078", "operator": "United States Postal Service", "operator:short": "USPS", "operator:type": "public", "operator:wikidata": "Q668687", "ref": "9360200005"}, "type": "Feature"}
{"geometry": {"coordinates": [-119.4866498182, 37.0737898209], "type": "Point"}, "id": "HnqZtDmUMNvqrRCc2-o5bOCFE5A=", "properties": {"@source_uri": "https://tools.usps.com/UspsToolsRestServices/rest/POLocator/findLocations", "@spider": "usps_collection_boxes", "addr:city": "AUBERRY", "addr:country": "US", "addr:full": "33012 AUBERRY RD", "addr:postcode": "93602", "addr:state": "CA", "amenity": "post_box", "brand": "United States Postal Service", "brand:wikidata": "Q668687", "collection_times": "Mo-Fr 15:30", "indoor": "yes", "note": "ON 12/24 AND 12/31, THIS BOX MAY BE COLLECTED AS EARLY AS 12 NOON.", "nsi_id": "unitedstatespostalservice-a77078", "operator": "United States Postal Service", "operator:short": "USPS", "operator:type": "public", "operator:wikidata": "Q668687", "ref": "9360200006"}, "type": "Feature"}
{"geometry": {"coordinates": [-119.556513, 37.320152], "type": "Point"}, "id": "gIU3WhXWuToE6bC_f_jk3hQogXo=", "properties": {"@source_uri": "https://tools.usps.com/UspsToolsRestServices/rest/POLocator/findLocations", "@spider": "usps_collection_boxes", "addr:city": "BASS LAKE", "addr:country": "US", "addr:full": "54449 ROAD 432", "addr:postcode": "93604", "addr:state": "CA", "amenity": "post_box", "brand": "United States Postal Service", "brand:wikidata": "Q668687", "collection_times": "Mo-Fr 14:30; Sa 12:00", "note": "ON 12/24 AND 12/31, THIS BOX MAY BE COLLECTED AS EARLY AS 12 NOON.", "nsi_id": "unitedstatespostalservice-a77078", "operator": "United States Postal Service", "operator:short": "USPS", "operator:type": "public", "operator:wikidata": "Q668687", "ref": "9360400001"}, "type": "Feature"}
{"geometry": {"coordinates": [-119.556594, 37.320135], "type": "Point"}, "id": "h-7wD75mbf28i_lV8KZPABkf6rA=", "properties": {"@source_uri": "https://tools.usps.com/UspsToolsRestServices/rest/POLocator/findLocations", "@spider": "usps_collection_boxes", "addr:city": "BASS LAKE", "addr:country": "US", "addr:full": "54449 ROAD 432", "addr:postcode": "93604", "addr:state": "CA", "amenity": "post_box", "brand": "United States Postal Service", "brand:wikidata": "Q668687", "collection_times": "Mo-Fr 15:00; Sa 12:00", "indoor": "yes", "note": "ON 12/24 AND 12/31, THIS BOX MAY BE COLLECTED AS EARLY AS 12 NOON.", "nsi_id": "unitedstatespostalservice-a77078", "operator": "United States Postal Service", "operator:short": "USPS", "operator:type": "public", "operator:wikidata": "Q668687", "ref": "9360400002"}, "type": "Feature"}
{"geometry": {"coordinates": [-119.5561896289, 37.3201073406], "type": "Point"}, "id": "PEeDkOoFA1xMQBz2hymz551-9iI=", "properties": {"@source_uri": "https://tools.usps.com/UspsToolsRestServices/rest/POLocator/findLocations", "@spider": "usps_collection_boxes", "addr:city": "BASS LAKE", "addr:country": "US", "addr:full": "54449 ROAD 432", "addr:postcode": "93604", "addr:state": "CA", "amenity": "post_box", "brand": "United States Postal Service", "brand:wikidata": "Q668687", "collection_times": "Mo-Fr 15:00", "indoor": "yes", "note": "ON 12/24 AND 12/31, THIS BOX MAY BE COLLECTED AS EARLY AS 12 NOON.", "nsi_id": "unitedstatespostalservice-a77078", "operator": "United States Postal Service", "operator:short": "USPS", "operator:type": "public", "operator:wikidata": "Q668687", "ref": "9360400005"}, "type": "Feature"}
{"geometry": {"coordinates": [-119.24719, 37.204914], "type": "Point"}, "id": "50osLkjsZTl3TZJdb8Td9JNWtKs=", "properties": {"@source_uri": "https://tools.usps.com/UspsToolsRestServices/rest/POLocator/findLocations", "@spider": "usps_collection_boxes", "addr:city": "BIG CREEK", "addr:country": "US", "addr:full": "55083 POINT RD", "addr:postcode": "93605", "addr:state": "CA", "amenity": "post_box", "brand": "United States Postal Service", "brand:wikidata": "Q668687", "collection_times": "Mo-Fr 12:00; Sa 09:30", "indoor": "yes", "nsi_id": "unitedstatespostalservice-a77078", "operator": "United States Postal Service", "operator:short": "USPS", "operator:type": "public", "operator:wikidata": "Q668687", "ref": "9360500000"}, "type": "Feature"}
{"geometry": {"coordinates": [-119.247123683, 37.20498801], "type": "Point"}, "id": "ihJhHBsDY46LQQVy_ZxPo6Cvx24=", "properties": {"@source_uri": "https://tools.usps.com/UspsToolsRestServices/rest/POLocator/findLocations", "@spider": "usps_collection_boxes", "addr:city": "BIG CREEK", "addr:country": "US", "addr:full": "55083 POINT RD", "addr:postcode": "93605", "addr:state": "CA", "amenity": "post_box", "brand": "United States Postal Service", "brand:wikidata": "Q668687", "collection_times": "Mo-Fr 12:00", "indoor": "yes", "nsi_id": "unitedstatespostalservice-a77078", "operator": "United States Postal Service", "operator:short": "USPS", "operator:type": "public", "operator:wikidata": "Q668687", "ref": "9360500001"}, "type": "Feature"}
{"geometry": {"coordinates": [-120.016494, 36.802737], "type": "Point"}, "id": "Cc3oXQ0U3uoUKRRsuRdJpp0cTGM=", "properties": {"@source_uri": "https://tools.usps.com/UspsToolsRestServices/rest/POLocator/findLocations", "@spider": "usps_collection_boxes", "addr:city": "BIOLA", "addr:country": "US", "addr:full": "4672 N BIOLA AVE", "addr:postcode": "93606", "addr:state": "CA", "amenity": "post_box", "brand": "United States Postal Service", "brand:wikidata": "Q668687", "collection_times": "Mo-Fr 16:15; Sa 09:45", "note": "ON 12/24 AND 12/31, THIS BOX MAY BE COLLECTED AS EARLY AS 12 NOON.", "nsi_id": "unitedstatespostalservice-a77078", "operator": "United States Postal Service", "operator:short": "USPS", "operator:type": "public", "operator:wikidata": "Q668687", "ref": "9360600001"}, "type": "Feature"}
{"geometry": {"coordinates": [-120.016528, 36.80278], "type": "Point"}, "id": "Kp4nWtXtXlNjf4K4VwaxXDaMAn8=", "properties": {"@source_uri": "https://tools.usps.com/UspsToolsRestServices/rest/POLocator/findLocations", "@spider": "usps_collection_boxes", "addr:city": "BIOLA", "addr:country": "US", "addr:full": "4672 N BIOLA AVE", "addr:postcode": "93606", "addr:state": "CA", "amenity": "post_box", "brand": "United States Postal Service", "brand:wikidata": "Q668687", "collection_times": "Mo-Fr 16:25; Sa 09:55", "indoor": "yes", "note": "ON 12/24 AND 12/31, THIS BOX MAY BE COLLECTED AS EARLY AS 12 NOON.", "nsi_id": "unitedstatespostalservice-a77078", "operator": "United States Postal Service", "operator:short": "USPS", "operator:type": "public", "operator:wikidata": "Q668687", "ref": "9360600002"}, "type": "Feature"}
{"geometry": {"coordinates": [-120.0164725901, 36.8027443994], "type": "Point"}, "id": "uYiEPsgxdQvUjV-KXparhPSkGLo=", "properties": {"@source_uri": "https://tools.usps.com/UspsToolsRestServices/rest/POLocator/findLocations", "@spider": "usps_collection_boxes", "addr:city": "BIOLA", "addr:country": "US", "addr:full": "4672 N BIOLA AVE", "addr:postcode": "93606", "addr:state": "CA", "amenity": "post_box", "brand": "United States Postal Service", "brand:wikidata": "Q668687", "collection_times": "Mo-Fr 16:00", "indoor": "yes", "note": "ON 12/24 AND 12/31, THIS BOX MAY BE COLLECTED AS EARLY AS 12 NOON.", "nsi_id": "unitedstatespostalservice-a77078", "operator": "United States Postal Service", "operator:short": "USPS", "operator:type": "public", "operator:wikidata": "Q668687", "ref": "9360600003"}, "type": "Feature"}
{"geometry": {"coordinates": [-120.314487, 36.501321], "type": "Point"}, "id": "IdFzTnQKKsmG7vPQ70FnMkHWd8w=", "properties": {"@source_uri": "https://tools.usps.com/UspsToolsRestServices/rest/POLocator/findLocations", "@spider": "usps_collection_boxes", "addr:city": "CANTUA CREEK", "addr:country": "US", "addr:full": "28900 W CLARKSON AVE", "addr:postcode": "93608", "addr:state": "CA", "amenity": "post_box", "brand": "United States Postal Service", "brand:wikidata": "Q668687", "collection_times": "Mo-Fr 15:00; Sa 10:00", "note": "ON 12/24 AND 12/31, THIS BOX MAY BE COLLECTED AS EARLY AS 12 NOON.", "nsi_id": "unitedstatespostalservice-a77078", "operator": "United States Postal Service", "operator:short": "USPS", "operator:type": "public", "operator:wikidata": "Q668687", "ref": "9360800000"}, "type": "Feature"}
{"geometry": {"coordinates": [-120.314384, 36.501294], "type": "Point"}, "id": "nQwUdtvugHdq3uhJLLfknxXPSAg=", "properties": {"@source_uri": "https://tools.usps.com/UspsToolsRestServices/rest/POLocator/findLocations", "@spider": "usps_collection_boxes", "addr:city": "CANTUA CREEK", "addr:country": "US", "addr:full": "28900 W CLARKSON AVE", "addr:postcode": "93608", "addr:state": "CA", "amenity": "post_box", "brand": "United States Postal Service", "brand:wikidata": "Q668687", "collection_times": "Mo-Fr 15:00; Sa 10:00", "indoor": "yes", "note": "ON 12/24 AND 12/31, THIS BOX MAY BE COLLECTED AS EARLY AS 12 NOON.", "nsi_id": "unitedstatespostalservice-a77078", "operator": "United States Postal Service", "operator:short": "USPS", "operator:type": "public", "operator:wikidata": "Q668687", "ref": "9360800001"}, "type": "Feature"}
{"geometry": {"coordinates": [-120.314454263, 36.501353769], "type": "Point"}, "id": "KNGA33ZPNt_7rq8WNBSCsIbkrVM=", "properties": {"@source_uri": "https://tools.usps.com/UspsToolsRestServices/rest/POLocator/findLocations", "@spider": "usps_collection_boxes", "addr:city": "CANTUA CREEK", "addr:country": "US", "addr:full": "28900 W CLARKSON AVE", "addr:postcode": "93608", "addr:state": "CA", "amenity": "post_box", "brand": "United States Postal Service", "brand:wikidata": "Q668687", "collection_times": "Mo-Fr 15:00", "indoor": "yes", "note": "ON 12/24 AND 12/31, THIS BOX MAY BE COLLECTED AS EARLY AS 12 NOON.", "nsi_id": "unitedstatespostalservice-a77078", "operator": "United States Postal Service", "operator:short": "USPS", "operator:type": "public", "operator:wikidata": "Q668687", "ref": "9360800002"}, "type": "Feature"}
{"geometry": {"coordinates": [-119.834965, 36.540848], "type": "Point"}, "id": "rcBO1BFvB2NoIpd_d4x3M-vglTc=", "properties": {"@source_uri": "https://tools.usps.com/UspsToolsRestServices/rest/POLocator/findLocations", "@spider": "usps_collection_boxes", "addr:city": "CARUTHERS", "addr:country": "US", "addr:full": "2413 W TAHOE AVE", "addr:postcode": "93609", "addr:state": "CA", "amenity": "post_box", "brand": "United States Postal Service", "brand:wikidata": "Q668687", "collection_times": "Mo-Fr 16:00; Sa 09:30", "note": "ON 12/24 AND 12/31, THIS BOX MAY BE COLLECTED AS EARLY AS 12 NOON.", "nsi_id": "unitedstatespostalservice-a77078", "operator": "United States Postal Service", "operator:short": "USPS", "operator:type": "public", "operator:wikidata": "Q668687", "ref": "9360900000"}, "type": "Feature"}
{"geometry": {"coordinates": [-119.83481, 36.540783], "type": "Point"}, "id": "IoeSLqvBaWEF4NeXQQlpHsrJzSM=", "properties": {"@source_uri": "https://tools.usps.com/UspsToolsRestServices/rest/POLocator/findLocations", "@spider": "usps_collection_boxes", "addr:city": "CARUTHERS", "addr:country": "US", "addr:full": "2413 W TAHOE AVE", "addr:postcode": "93609", "addr:state": "CA", "amenity": "post_box", "brand": "United States Postal Service", "brand:wikidata": "Q668687", "collection_times": "Mo-Fr 16:00; Sa 13:00", "indoor": "yes", "note": "ON 12/24 AND 12/31, THIS BOX MAY BE COLLECTED AS EARLY AS 12 NOON.", "nsi_id": "unitedstatespostalservice-a77078", "operator": "United States Postal Service", "operator:short": "USPS", "operator:type": "public", "operator:wikidata": "Q668687", "ref": "9360900001"}, "type": "Feature"}
{"geometry": {"coordinates": [-119.834936544, 36.540817978], "type": "Point"}, "id": "tsdgXNTLz0uN8hdZFHiZatymRaI=", "properties": {"@source_uri": "https://tools.usps.com/UspsToolsRestServices/rest/POLocator/findLocations", "@spider": "usps_collection_boxes", "addr:city": "CARUTHERS", "addr:country": "US", "addr:full": "2413 W TAHOE AVE", "addr:postcode": "93609", "addr:state": "CA", "amenity": "post_box", "brand": "United States Postal Service", "brand:wikidata": "Q668687", "collection_times": "Mo-Fr 16:00", "indoor": "yes", "note": "ON 12/24 AND 12/31, THIS BOX MAY BE COLLECTED AS EARLY AS 12 NOON.", "nsi_id": "unitedstatespostalservice-a77078", "operator": "United States Postal Service", "operator:short": "USPS", "operator:type": "public", "operator:wikidata": "Q668687", "ref": "9360900002"}, "type": "Feature"}
{"geometry": {"coordinates": [-120.258797, 37.123268], "type": "Point"}, "id": "cfUeJQF8yvXr7vRhHH1vhVLHKns=", "properties": {"@source_uri": "https://tools.usps.com/UspsToolsRestServices/rest/POLocator/findLocations", "@spider": "usps_collection_boxes", "addr:city": "CHOWCHILLA", "addr:country": "US", "addr:full": "135 S 1ST ST", "addr:postcode": "93610", "addr:state": "CA", "amenity": "post_box", "brand": "United States Postal Service", "brand:wikidata": "Q668687", "collection_times": "Mo-Fr 17:00; Sa 15:45", "note": "ON 12/24 AND 12/31, THIS BOX MAY BE COLLECTED AS EARLY AS 12 NOON.", "nsi_id": "unitedstatespostalservice-a77078", "operator": "United States Postal Service", "operator:short": "USPS", "operator:type": "public", "operator:wikidata": "Q668687", "ref": "9361000019"}, "type": "Feature"}
{"geometry": {"coordinates": [-120.258845, 37.123269], "type": "Point"}, "id": "2HGkMcgX3PUpKGLKwKwmpxv52j0=", "properties": {"@source_uri": "https://tools.usps.com/UspsToolsRestServices/rest/POLocator/findLocations", "@spider": "usps_collection_boxes", "addr:city": "CHOWCHILLA", "addr:country": "US", "addr:full": "135 S 1ST ST", "addr:postcode": "93610", "addr:state": "CA", "amenity": "post_box", "brand": "United States Postal Service", "brand:wikidata": "Q668687", "collection_times": "Mo-Fr 17:00; Sa 15:30", "indoor": "yes", "note": "ON 12/24 AND 12/31, THIS BOX MAY BE COLLECTED AS EARLY AS 12 NOON.", "nsi_id": "unitedstatespostalservice-a77078", "operator": "United States Postal Service", "operator:short": "USPS", "operator:type": "public", "operator:wikidata": "Q668687", "ref": "9361000021"}, "type": "Feature"}
{"geometry": {"coordinates": [-120.258845, 37.123269], "type": "Point"}, "id": "FQPSvmQ1KUQeTMuYATuPlYdeBN8=", "properties": {"@source_uri": "https://tools.usps.com/UspsToolsRestServices/rest/POLocator/findLocations", "@spider": "usps_collection_boxes", "addr:city": "CHOWCHILLA", "addr:country": "US", "addr:full": "135 S 1ST ST", "addr:postcode": "93610", "addr:state": "CA", "amenity": "post_box", "brand": "United States Postal Service", "brand:wikidata": "Q668687", "collection_times": "Mo-Fr 17:00; Sa 15:30", "indoor": "yes", "note": "ON 12/24 AND 12/31, THIS BOX MAY BE COLLECTED AS EARLY AS 12 NOON.", "nsi_id": "unitedstatespostalservice-a77078", "operator": "United States Postal Service", "operator:short": "USPS", "operator:type": "public", "operator:wikidata": "Q668687", "ref": "9361000022"}, "type": "Feature"}
{"geometry": {"coordinates": [-120.258501567, 37.123021004], "type": "Point"}, "id": "mya2Lou0u0NnD_kO-7z9zt_0hNA=", "properties": {"@source_uri": "https://tools.usps.com/UspsToolsRestServices/rest/POLocator/findLocations", "@spider": "usps_collection_boxes", "addr:city": "CHOWCHILLA", "addr:country": "US", "addr:full": "135 S 1ST ST", "addr:postcode": "93610", "addr:state": "CA", "amenity": "post_box", "brand": "United States Postal Service", "brand:wikidata": "Q668687", "collection_times": "Mo-Fr 16:30; Sa 13:00", "indoor": "yes", "note": "ON 12/24 AND 12/31, THIS BOX MAY BE COLLECTED AS EARLY AS 12 NOON.", "nsi_id": "unitedstatespostalservice-a77078", "operator": "United States Postal Service", "operator:short": "USPS", "operator:type": "public", "operator:wikidata": "Q668687", "ref": "9361000024"}, "type": "Feature"}
{"geometry": {"coordinates": [-119.681490976, 36.809498988], "type": "Point"}, "id": "bzJQ49Qyafy_RwqVDXvbiCxVQ9k=", "properties": {"@source_uri": "https://tools.usps.com/UspsToolsRestServices/rest/POLocator/findLocations", "@spider": "usps_collection_boxes", "addr:city": "CLOVIS", "addr:country": "US", "addr:full": "1817 SHAW AVE", "addr:postcode": "93611", "addr:state": "CA", "amenity": "post_box", "brand": "United States Postal Service", "brand:wikidata": "Q668687", "collection_times": "Mo-Fr 17:00; Sa 16:00", "note": "ON 12/24 AND 12/31, THIS BOX MAY BE COLLECTED AS EARLY AS 12 NOON.", "nsi_id": "unitedstatespostalservice-a77078", "operator": "United States Postal Service", "operator:short": "USPS", "operator:type": "public", "operator:wikidata": "Q668687", "ref": "9361100000"}, "type": "Feature"}
{"geometry": {"coordinates": [-119.67523, 36.83025], "type": "Point"}, "id": "dWGoYv1WIWDZd0NqPK2HrXOFwt8=", "properties": {"@source_uri": "https://tools.usps.com/UspsToolsRestServices/rest/POLocator/findLocations", "@spider": "usps_collection_boxes", "addr:city": "CLOVIS", "addr:country": "US", "addr:full": "2141 SHAW AVE", "addr:postcode": "93611", "addr:state": "CA", "amenity": "post_box", "brand": "United States Postal Service", "brand:wikidata": "Q668687", "collection_times": "Mo-Fr 17:00; Sa 16:00", "note": "ON 12/24 AND 12/31, THIS BOX MAY BE COLLECTED AS EARLY AS 12 NOON.", "nsi_id": "unitedstatespostalservice-a77078", "operator": "United States Postal Service", "operator:short": "USPS", "operator:type": "public", "operator:wikidata": "Q668687", "ref": "9361100001"}, "type": "Feature"}
{"geometry": {"coordinates": [-119.675221, 36.809891], "type": "Point"}, "id": "ablIU8UUwAIdqBoj1SQCInVAYvQ=", "properties": {"@source_uri": "https://tools.usps.com/UspsToolsRestServices/rest/POLocator/findLocations", "@spider": "usps_collection_boxes", "addr:city": "CLOVIS", "addr:country": "US", "addr:full": "2141 SHAW AVE", "addr:postcode": "93611", "addr:state": "CA", "amenity": "post_box", "brand": "United States Postal Service", "brand:wikidata": "Q668687", "collection_times": "Mo-Fr 17:00; Sa 16:00", "note": "ON 12/24 AND 12/31, THIS BOX MAY BE COLLECTED AS EARLY AS 12 NOON.", "nsi_id": "unitedstatespostalservice-a77078", "operator": "United States Postal Service", "operator:short": "USPS", "operator:type": "public", "operator:wikidata": "Q668687", "ref": "9361100002"}, "type": "Feature"}
{"geometry": {"coordinates": [-119.658733629, 36.8418162048], "type": "Point"}, "id": "9SumKPX3MwZVGoNAU5zzTKOxp-E=", "properties": {"@source_uri": "https://tools.usps.com/UspsToolsRestServices/rest/POLocator/findLocations", "@spider": "usps_collection_boxes", "addr:city": "CLOVIS", "addr:country": "US", "addr:full": "726 MEDICAL CENTER DR E", "addr:postcode": "93611", "addr:state": "CA", "amenity": "post_box", "brand": "United States Postal Service", "brand:wikidata": "Q668687", "collection_times": "Mo-Fr 16:15; Sa 15:00", "note": "ON 12/24 AND 12/31, THIS BOX MAY BE COLLECTED AS EARLY AS 12 NOON.", "nsi_id": "unitedstatespostalservice-a77078", "operator": "United States Postal Service", "operator:short": "USPS", "operator:type": "public", "operator:wikidata": "Q668687", "ref": "9361100004"}, "type": "Feature"}
{"geometry": {"coordinates": [-119.703275, 36.822935], "type": "Point"}, "id": "vWWBlS3AzNCoR6Ab3VCweVs4V60=", "properties": {"@source_uri": "https://tools.usps.com/UspsToolsRestServices/rest/POLocator/findLocations", "@spider": "usps_collection_boxes", "addr:city": "CLOVIS", "addr:country": "US", "addr:full": "516 BULLARD AVE", "addr:postcode": "93612", "addr:state": "CA", "amenity": "post_box", "brand": "United States Postal Service", "brand:wikidata": "Q668687", "collection_times": "Mo-Fr 16:00", "note": "ON 12/24 AND 12/31, THIS BOX MAY BE COLLECTED AS EARLY AS 12 NOON.", "nsi_id": "unitedstatespostalservice-a77078", "operator": "United States Postal Service", "operator:short": "USPS", "operator:type": "public", "operator:wikidata": "Q668687", "ref": "9361200001"}, "type": "Feature"}
{"geometry": {"coordinates": [-119.701816, 36.825339], "type": "Point"}, "id": "Vi1FPpuA_LALjDI9hVobIPp3fNI=", "properties": {"@source_uri": "https://tools.usps.com/UspsToolsRestServices/rest/POLocator/findLocations", "@spider": "usps_collection_boxes", "addr:city": "CLOVIS", "addr:country": "US", "addr:full": "361 POLLASKY AVE", "addr:postcode": "93612", "addr:state": "CA", "amenity": "post_box", "brand": "United States Postal Service", "brand:wikidata": "Q668687", "collection_times": "Mo-Fr 16:00", "note": "ON 12/24 AND 12/31, THIS BOX MAY BE COLLECTED AS EARLY AS 12 NOON.", "nsi_id": "unitedstatespostalservice-a77078", "operator": "United States Postal Service", "operator:short": "USPS", "operator:type": "public", "operator:wikidata": "Q668687", "ref": "9361200010"}, "type": "Feature"}
{"geometry": {"coordinates": [-119.695949, 36.807012], "type": "Point"}, "id": "C8fE1KHSVJe3UoPxnkSIA0lD2MQ=", "properties": {"@source_uri": "https://tools.usps.com/UspsToolsRestServices/rest/POLocator/findLocations", "@spider": "usps_collection_boxes", "addr:city": "CLOVIS", "addr:country": "US", "addr:full": "1050 SHAW AVE", "addr:postcode": "93612", "addr:state": "CA", "amenity": "post_box", "brand": "United States Postal Service", "brand:wikidata": "Q668687", "collection_times": "Mo-Sa 15:00", "note": "ON 12/24 AND 12/31, THIS BOX MAY BE COLLECTED AS EARLY AS 12 NOON.", "nsi_id": "unitedstatespostalservice-a77078", "operator": "United States Postal Service", "operator:short": "USPS", "operator:type": "public", "operator:wikidata": "Q668687", "ref": "9361200033"}, "type": "Feature"}
{"geometry": {"coordinates": [-119.697761, 36.836486], "type": "Point"}, "id": "U2HKs0_6XvYCSMVAcTQ5jse_sss=", "properties": {"@source_uri": "https://tools.usps.com/UspsToolsRestServices/rest/POLocator/findLocations", "@spider": "usps_collection_boxes", "addr:city": "CLOVIS", "addr:country": "US", "addr:full": "850 HERNDON AVE", "addr:postcode": "93612", "addr:state": "CA", "amenity": "post_box", "brand": "United States Postal Service", "brand:wikidata": "Q668687", "collection_times": "Mo-Fr 16:30; Sa 15:30", "note": "ON 12/24 AND 12/31, THIS BOX MAY BE COLLECTED AS EARLY AS 12 NOON.", "nsi_id": "unitedstatespostalservice-a77078", "operator": "United States Postal Service", "operator:short": "USPS", "operator:type": "public", "operator:wikidata": "Q668687", "ref": "9361200034"}, "type": "Feature"}
{"geometry": {"coordinates": [-119.708879, 36.822332], "type": "Point"}, "id": "CsZllQhWLCCsijy34vOufBRwMgA=", "properties": {"@source_uri": "https://tools.usps.com/UspsToolsRestServices/rest/POLocator/findLocations", "@spider": "usps_collection_boxes", "addr:city": "CLOVIS", "addr:country": "US", "addr:full": "655 MINNEWAWA AVE", "addr:postcode": "93612", "addr:state": "CA", "amenity": "post_box", "brand": "United States Postal Service", "brand:wikidata": "Q668687", "collection_times": "Mo-Fr 17:00; Sa 16:00", "indoor": "yes", "note": "ON 12/24 AND 12/31, THIS BOX MAY BE COLLECTED AS EARLY AS 12 NOON.", "nsi_id": "unitedstatespostalservice-a77078", "operator": "United States Postal Service", "operator:short": "USPS", "operator:type": "public", "operator:wikidata": "Q668687", "ref": "9361200069"}, "type": "Feature"}
{"geometry": {"coordinates": [-119.708912, 36.822374], "type": "Point"}, "id": "rQS35EYnhyG13fZQXTYBfocgjog=", "properties": {"@source_uri": "https://tools.usps.com/UspsToolsRestServices/rest/POLocator/findLocations", "@spider": "usps_collection_boxes", "addr:city": "CLOVIS", "addr:country": "US", "addr:full": "655 MINNEWAWA AVE", "addr:postcode": "93612", "addr:state": "CA", "amenity": "post_box", "brand": "United States Postal Service", "brand:wikidata": "Q668687", "collection_times": "Mo-Fr 17:00; Sa 16:00", "indoor": "yes", "note": "ON 12/24 AND 12/31, THIS BOX MAY BE COLLECTED AS EARLY AS 12 NOON.", "nsi_id": "unitedstatespostalservice-a77078", "operator": "United States Postal Service", "operator:short": "USPS", "operator:type": "public", "operator:wikidata": "Q668687", "ref": "9361200070"}, "type": "Feature"}
{"geometry": {"coordinates": [-119.708912, 36.822374], "type": "Point"}, "id": "8vVWaedKR0O8teyTiP05SaqeKQw=", "properties": {"@source_uri": "https://tools.usps.com/UspsToolsRestServices/rest/POLocator/findLocations", "@spider": "usps_collection_boxes", "addr:city": "CLOVIS", "addr:country": "US", "addr:full": "655 MINNEWAWA AVE", "addr:postcode": "93612", "addr:state": "CA", "amenity": "post_box", "brand": "United States Postal Service", "brand:wikidata": "Q668687", "collection_times": "Mo-Fr 17:00; Sa 16:00", "note": "ON 12/24 AND 12/31, THIS BOX MAY BE COLLECTED AS EARLY AS 12 NOON.", "nsi_id": "unitedstatespostalservice-a77078", "operator": "United States Postal Service", "operator:short": "USPS", "operator:type": "public", "operator:wikidata": "Q668687", "ref": "9361200071"}, "type": "Feature"}
{"geometry": {"coordinates": [-119.708318012, 36.821661003], "type": "Point"}, "id": "BPYD3icv1pqVh4AFdx4Ku14m5Fk=", "properties": {"@source_uri": "https://tools.usps.com/UspsToolsRestServices/rest/POLocator/findLocations", "@spider": "usps_collection_boxes", "addr:city": "CLOVIS", "addr:country": "US", "addr:full": "655 MINNEWAWA AVE", "addr:postcode": "93612", "addr:state": "CA", "amenity": "post_box", "brand": "United States Postal Service", "brand:wikidata": "Q668687", "collection_times": "Mo-Fr 17:00; Sa 16:00", "name": "USPS COLLECTION BOX - EXPRESS", "note": "ON 12/24 AND 12/31, THIS BOX MAY BE COLLECTED AS EARLY AS 12 NOON.", "nsi_id": "unitedstatespostalservice-a77078", "operator": "United States Postal Service", "operator:short": "USPS", "operator:type": "public", "operator:wikidata": "Q668687", "ref": "9361200073"}, "type": "Feature"}
{"geometry": {"coordinates": [-119.708318012, 36.821661003], "type": "Point"}, "id": "4si64cqfN6OOjRwCAS5gOwSIGeM=", "properties": {"@source_uri": "https://tools.usps.com/UspsToolsRestServices/rest/POLocator/findLocations", "@spider": "usps_collection_boxes", "addr:city": "CLOVIS", "addr:country": "US", "addr:full": "655 MINNEWAWA AVE", "addr:postcode": "93612", "addr:state": "CA", "amenity": "post_box", "brand": "United States Postal Service", "brand:wikidata": "Q668687", "collection_times": "Mo-Fr 17:00; Sa 16:00", "note": "ON 12/24 AND 12/31, THIS BOX MAY BE COLLECTED AS EARLY AS 12 NOON.", "nsi_id": "unitedstatespostalservice-a77078", "operator": "United States Postal Service", "operator:short": "USPS", "operator:type": "public", "operator:wikidata": "Q668687", "ref": "9361200074"}, "type": "Feature"}
{"geometry": {"coordinates": [-119.696536844, 36.8011988826], "type": "Point"}, "id": "usVnqwuqbWloAOFCBvhKmjJ4ggg=", "properties": {"@source_uri": "https://tools.usps.com/UspsToolsRestServices/rest/POLocator/findLocations", "@spider": "usps_collection_boxes", "addr:city": "CLOVIS", "addr:country": "US", "addr:full": "1030 GETTYSBURG AVE", "addr:postcode": "93612", "addr:state": "CA", "amenity": "post_box", "brand": "United States Postal Service", "brand:wikidata": "Q668687", "collection_times": "Mo-Sa 15:30", "note": "ON 12/24 AND 12/31, THIS BOX MAY BE COLLECTED AS EARLY AS 12 NOON.", "nsi_id": "unitedstatespostalservice-a77078", "operator": "United States Postal Service", "operator:short": "USPS", "operator:type": "public", "operator:wikidata": "Q668687", "ref": "9361200075"}, "type": "Feature"}
{"geometry": {"coordinates": [-119.7083180117, 36.8216610033], "type": "Point"}, "id": "eAg2eanAufhc-6Tm6pO42wm1Ssk=", "properties": {"@source_uri": "https://tools.usps.com/UspsToolsRestServices/rest/POLocator/findLocations", "@spider": "usps_collection_boxes", "addr:city": "CLOVIS", "addr:country": "US", "addr:full": "655 MINNEWAWA AVE", "addr:postcode": "93612", "addr:state": "CA", "amenity": "post_box", "brand": "United States Postal Service", "brand:wikidata": "Q668687", "collection_times": "Mo-Fr 17:00; Sa 16:00", "name": "USPS COLLECTION BOX - APC", "note": "ON 12/24 AND 12/31, THIS BOX MAY BE COLLECTED AS EARLY AS 12 NOON.", "nsi_id": "unitedstatespostalservice-a77078", "operator": "United States Postal Service", "operator:short": "USPS", "operator:type": "public", "operator:wikidata": "Q668687", "ref": "9361200076"}, "type": "Feature"}
{"geometry": {"coordinates": [-119.727497801, 36.794600193], "type": "Point"}, "id": "fpGv6CSs8v0wSb9Nh8CF7nHtsD0=", "properties": {"@source_uri": "https://tools.usps.com/UspsToolsRestServices/rest/POLocator/findLocations", "@spider": "usps_collection_boxes", "addr:city": "CLOVIS", "addr:country": "US", "addr:full": "3198 WILLOW AVE", "addr:postcode": "93612", "addr:state": "CA", "amenity": "post_box", "brand": "United States Postal Service", "brand:wikidata": "Q668687", "collection_times": "Mo-Sa 16:00", "note": "ON 12/24 AND 12/31, THIS BOX MAY BE COLLECTED AS EARLY AS 12 NOON.", "nsi_id": "unitedstatespostalservice-a77078", "operator": "United States Postal Service", "operator:short": "USPS", "operator:type": "public", "operator:wikidata": "Q668687", "ref": "9361200083"}, "type": "Feature"}
{"geometry": {"coordinates": [-119.708887169, 36.821654162], "type": "Point"}, "id": "Y0A2AcoCA3QHiLi5H5pNrSq9f7o=", "properties": {"@source_uri": "https://tools.usps.com/UspsToolsRestServices/rest/POLocator/findLocations", "@spider": "usps_collection_boxes", "addr:city": "CLOVIS", "addr:country": "US", "addr:full": "655 MINNEWAWA AVE", "addr:postcode": "93612", "addr:state": "CA", "amenity": "post_box", "brand": "United States Postal Service", "brand:wikidata": "Q668687", "collection_times": "Mo-Fr 17:00", "indoor": "yes", "note": "ON 12/24 AND 12/31, THIS BOX MAY BE COLLECTED AS EARLY AS 12 NOON.", "nsi_id": "unitedstatespostalservice-a77078", "operator": "United States Postal Service", "operator:short": "USPS", "operator:type": "public", "operator:wikidata": "Q668687", "ref": "9361200087"}, "type": "Feature"}
{"geometry": {"coordinates": [-119.770006, 37.187621], "type": "Point"}, "id": "5eeMNZtxUAmcbgpBWbwBFjjJo_8=", "properties": {"@source_uri": "https://tools.usps.com/UspsToolsRestServices/rest/POLocator/findLocations", "@spider": "usps_collection_boxes", "addr:city": "COARSEGOLD", "addr:country": "US", "addr:full": "30250 YOSEMITE SPRINGS PKWY", "addr:postcode": "93614", "addr:state": "CA", "amenity": "post_box", "brand": "United States Postal Service", "brand:wikidata": "Q668687", "collection_times": "Mo-Fr 11:30", "nsi_id": "unitedstatespostalservice-a77078", "operator": "United States Postal Service", "operator:short": "USPS", "operator:type": "public", "operator:wikidata": "Q668687", "ref": "9361400002"}, "type": "Feature"}
{"geometry": {"coordinates": [-119.764345, 37.177518], "type": "Point"}, "id": "oA8_3cjOiPG08p2guTFiVV8nXmo=", "properties": {"@source_uri": "https://tools.usps.com/UspsToolsRestServices/rest/POLocator/findLocations", "@spider": "usps_collection_boxes", "addr:city": "COARSEGOLD", "addr:country": "US", "addr:full": "43070 LONG HOLLOW DR", "addr:postcode": "93614", "addr:state": "CA", "amenity": "post_box", "brand": "United States Postal Service", "brand:wikidata": "Q668687", "collection_times": "Mo-Fr 10:45", "nsi_id": "unitedstatespostalservice-a77078", "operator": "United States Postal Service", "operator:short": "USPS", "operator:type": "public", "operator:wikidata": "Q668687", "ref": "9361400004"}, "type": "Feature"}
{"geometry": {"coordinates": [-119.769458, 37.199179], "type": "Point"}, "id": "2urqedIclwyjo1p68qrmobUaRTg=", "properties": {"@source_uri": "https://tools.usps.com/UspsToolsRestServices/rest/POLocator/findLocations", "@spider": "usps_collection_boxes", "addr:city": "COARSEGOLD", "addr:country": "US", "addr:full": "32000 RANGER DR", "addr:postcode": "93614", "addr:state": "CA", "amenity": "post_box", "brand": "United States Postal Service", "brand:wikidata": "Q668687", "collection_times": "Mo-Fr 10:00", "nsi_id": "unitedstatespostalservice-a77078", "operator": "United States Postal Service", "operator:short": "USPS", "operator:type": "public", "operator:wikidata": "Q668687", "ref": "9361400005"}, "type": "Feature"}
{"geometry": {"coordinates": [-119.7485000173, 37.1606860203], "type": "Point"}, "id": "2u1AbOPcREMQF8VdzfszO5jBqMk=", "properties": {"@source_uri": "https://tools.usps.com/UspsToolsRestServices/rest/POLocator/findLocations", "@spider": "usps_collection_boxes", "addr:city": "COARSEGOLD", "addr:country": "US", "addr:full": "28420 YOSEMITE SPRINGS PKWY", "addr:postcode": "93614", "addr:state": "CA", "amenity": "post_box", "brand": "United States Postal Service", "brand:wikidata": "Q668687", "collection_times": "Mo-Fr 10:00", "nsi_id": "unitedstatespostalservice-a77078", "operator": "United States Postal Service", "operator:short": "USPS", "operator:type": "public", "operator:wikidata": "Q668687", "ref": "9361400007"}, "type": "Feature"}
{"geometry": {"coordinates": [-119.6993600203, 37.2619899955], "type": "Point"}, "id": "aMabs7Cxeqk_IVz2OQt-mZHzhHY=", "properties": {"@source_uri": "https://tools.usps.com/UspsToolsRestServices/rest/POLocator/findLocations", "@spider": "usps_collection_boxes", "addr:city": "COARSEGOLD", "addr:country": "US", "addr:full": "35305 HIGHWAY 41", "addr:postcode": "93614", "addr:state": "CA", "amenity": "post_box", "brand": "United States Postal Service", "brand:wikidata": "Q668687", "collection_times": "Mo-Fr 10:30", "nsi_id": "unitedstatespostalservice-a77078", "operator": "United States Postal Service", "operator:short": "USPS", "operator:type": "public", "operator:wikidata": "Q668687", "ref": "9361400008"}, "type": "Feature"}
{"geometry": {"coordinates": [-119.691077, 37.265142], "type": "Point"}, "id": "0fnO7I56951PgsDTgEjTDkPbYaQ=", "properties": {"@source_uri": "https://tools.usps.com/UspsToolsRestServices/rest/POLocator/findLocations", "@spider": "usps_collection_boxes", "addr:city": "COARSEGOLD", "addr:country": "US", "addr:full": "46944 PONY EXPRESS LN", "addr:postcode": "93614", "addr:state": "CA", "amenity": "post_box", "brand": "United States Postal Service", "brand:wikidata": "Q668687", "collection_times": "Mo-Fr 16:00; Sa 12:00", "indoor": "yes", "note": "ON 12/24 AND 12/31, THIS BOX MAY BE COLLECTED AS EARLY AS 12 NOON.", "nsi_id": "unitedstatespostalservice-a77078", "operator": "United States Postal Service", "operator:short": "USPS", "operator:type": "public", "operator:wikidata": "Q668687", "ref": "9361400009"}, "type": "Feature"}
{"geometry": {"coordinates": [-119.692091635, 37.264845279], "type": "Point"}, "id": "cmTo8grcXuJeNc_F7e08uNa4YpM=", "properties": {"@source_uri": "https://tools.usps.com/UspsToolsRestServices/rest/POLocator/findLocations", "@spider": "usps_collection_boxes", "addr:city": "COARSEGOLD", "addr:country": "US", "addr:full": "46944 PONY EXPRESS LN", "addr:postcode": "93614", "addr:state": "CA", "amenity": "post_box", "brand": "United States Postal Service", "brand:wikidata": "Q668687", "collection_times": "Mo-Fr 16:00", "indoor": "yes", "note": "ON 12/24 AND 12/31, THIS BOX MAY BE COLLECTED AS EARLY AS 12 NOON.", "nsi_id": "unitedstatespostalservice-a77078", "operator": "United States Postal Service", "operator:short": "USPS", "operator:type": "public", "operator:wikidata": "Q668687", "ref": "9361400011"}, "type": "Feature"}
{"geometry": {"coordinates": [-119.287844, 36.52365], "type": "Point"}, "id": "fB-u0Vyxq_I4s1prdy5i3ElNw6g=", "properties": {"@source_uri": "https://tools.usps.com/UspsToolsRestServices/rest/POLocator/findLocations", "@spider": "usps_collection_boxes", "addr:city": "CUTLER", "addr:country": "US", "addr:full": "12749 1ST DR", "addr:postcode": "93615", "addr:state": "CA", "amenity": "post_box", "brand": "United States Postal Service", "brand:wikidata": "Q668687", "collection_times": "Mo-Fr 16:00; Sa 13:00", "note": "ON 12/24 AND 12/31, THIS BOX MAY BE COLLECTED AS EARLY AS 12 NOON.", "nsi_id": "unitedstatespostalservice-a77078", "operator": "United States Postal Service", "operator:short": "USPS", "operator:type": "public", "operator:wikidata": "Q668687", "ref": "9361500001"}, "type": "Feature"}
{"geometry": {"coordinates": [-119.287856, 36.523686], "type": "Point"}, "id": "NvmzBwVsBEDX00Dsd0nojcfeKyI=", "properties": {"@source_uri": "https://tools.usps.com/UspsToolsRestServices/rest/POLocator/findLocations", "@spider": "usps_collection_boxes", "addr:city": "CUTLER", "addr:country": "US", "addr:full": "12749 1ST DR", "addr:postcode": "93615", "addr:state": "CA", "amenity": "post_box", "brand": "United States Postal Service", "brand:wikidata": "Q668687", "collection_times": "Mo-Fr 15:30; Sa 13:00", "indoor": "yes", "note": "ON 12/24 AND 12/31, THIS BOX MAY BE COLLECTED AS EARLY AS 12 NOON.", "nsi_id": "unitedstatespostalservice-a77078", "operator": "United States Postal Service", "operator:short": "USPS", "operator:type": "public", "operator:wikidata": "Q668687", "ref": "9361500002"}, "type": "Feature"}
{"geometry": {"coordinates": [-119.287856, 36.523686], "type": "Point"}, "id": "F5iuI0MkPJSODCZqZGpSQBN4a9Q=", "properties": {"@source_uri": "https://tools.usps.com/UspsToolsRestServices/rest/POLocator/findLocations", "@spider": "usps_collection_boxes", "addr:city": "CUTLER", "addr:country": "US", "addr:full": "12749 1ST DR", "addr:postcode": "93615", "addr:state": "CA", "amenity": "post_box", "brand": "United States Postal Service", "brand:wikidata": "Q668687", "collection_times": "Mo-Fr 15:30; Sa 13:00", "indoor": "yes", "note": "ON 12/24 AND 12/31, THIS BOX MAY BE COLLECTED AS EARLY AS 12 NOON.", "nsi_id": "unitedstatespostalservice-a77078", "operator": "United States Postal Service", "operator:short": "USPS", "operator:type": "public", "operator:wikidata": "Q668687", "ref": "9361500003"}, "type": "Feature"}
{"geometry": {"coordinates": [-119.287771061, 36.523606004], "type": "Point"}, "id": "LPPVlHKG28QUue1QHRhFQyWtwNE=", "properties": {"@source_uri": "https://tools.usps.com/UspsToolsRestServices/rest/POLocator/findLocations", "@spider": "usps_collection_boxes", "addr:city": "CUTLER", "addr:country": "US", "addr:full": "12749 1ST DR", "addr:postcode": "93615", "addr:state": "CA", "amenity": "post_box", "brand": "United States Postal Service", "brand:wikidata": "Q668687", "collection_times": "Mo-Fr 16:30", "indoor": "yes", "note": "ON 12/24 AND 12/31, THIS BOX MAY BE COLLECTED AS EARLY AS 12 NOON.", "nsi_id": "unitedstatespostalservice-a77078", "operator": "United States Postal Service", "operator:short": "USPS", "operator:type": "public", "operator:wikidata": "Q668687", "ref": "9361500004"}, "type": "Feature"}
{"geometry": {"coordinates": [-119.594938, 36.658416], "type": "Point"}, "id": "ho2rqZxeMVXkRgVmG4k28pQBmZ8=", "properties": {"@source_uri": "https://tools.usps.com/UspsToolsRestServices/rest/POLocator/findLocations", "@spider": "usps_collection_boxes", "addr:city": "DEL REY", "addr:country": "US", "addr:full": "10770 MORRO AVE", "addr:postcode": "93616", "addr:state": "CA", "amenity": "post_box", "brand": "United States Postal Service", "brand:wikidata": "Q668687", "collection_times": "Mo-Fr 16:00; Sa 12:00", "note": "ON 12/24 AND 12/31, THIS BOX MAY BE COLLECTED AS EARLY AS 12 NOON.", "nsi_id": "unitedstatespostalservice-a77078", "operator": "United States Postal Service", "operator:short": "USPS", "operator:type": "public", "operator:wikidata": "Q668687", "ref": "9361600000"}, "type": "Feature"}
{"geometry": {"coordinates": [-119.595048, 36.658124], "type": "Point"}, "id": "6TxWc8KDAijH742_WTb6L7rPV3s=", "properties": {"@source_uri": "https://tools.usps.com/UspsToolsRestServices/rest/POLocator/findLocations", "@spider": "usps_collection_boxes", "addr:city": "DEL REY", "addr:country": "US", "addr:full": "10770 MORRO AVE", "addr:postcode": "93616", "addr:state": "CA", "amenity": "post_box", "brand": "United States Postal Service", "brand:wikidata": "Q668687", "collection_times": "Mo-Fr 16:00", "indoor": "yes", "note": "ON 12/24 AND 12/31, THIS BOX MAY BE COLLECTED AS EARLY AS 12 NOON.", "nsi_id": "unitedstatespostalservice-a77078", "operator": "United States Postal Service", "operator:short": "USPS", "operator:type": "public", "operator:wikidata": "Q668687", "ref": "9361600001"}, "type": "Feature"}
{"geometry": {"coordinates": [-119.5946423782, 36.6584589415], "type": "Point"}, "id": "9D5lLKTVqeFgmmCYqhBL4qSb1lY=", "properties": {"@source_uri": "https://tools.usps.com/UspsToolsRestServices/rest/POLocator/findLocations", "@spider": "usps_collection_boxes", "addr:city": "DEL REY", "addr:country": "US", "addr:full": "10772 MORRO AVE", "addr:postcode": "93616", "addr:state": "CA", "amenity": "post_box", "brand": "United States Postal Service", "brand:wikidata": "Q668687", "collection_times": "Mo-Fr 15:45", "indoor": "yes", "note": "ON 12/24 AND 12/31, THIS BOX MAY BE COLLECTED AS EARLY AS 12 NOON.", "nsi_id": "unitedstatespostalservice-a77078", "operator": "United States Postal Service", "operator:short": "USPS", "operator:type": "public", "operator:wikidata": "Q668687", "ref": "9361600003"}, "type": "Feature"}
{"geometry": {"coordinates": [-119.387784, 36.540449], "type": "Point"}, "id": "_tgTOW2ccbaDUypSAUfLNFTDNn0=", "properties": {"@source_uri": "https://tools.usps.com/UspsToolsRestServices/rest/POLocator/findLocations", "@spider": "usps_collection_boxes", "addr:city": "DINUBA", "addr:country": "US", "addr:full": "222 S K ST", "addr:postcode": "93618", "addr:state": "CA", "amenity": "post_box", "brand": "United States Postal Service", "brand:wikidata": "Q668687", "collection_times": "Mo-Fr 16:45; Sa 15:00", "note": "ON 12/24 AND 12/31, THIS BOX MAY BE COLLECTED AS EARLY AS 12 NOON.", "nsi_id": "unitedstatespostalservice-a77078", "operator": "United States Postal Service", "operator:short": "USPS", "operator:type": "public", "operator:wikidata": "Q668687", "ref": "9361800011"}, "type": "Feature"}
{"geometry": {"coordinates": [-119.387737, 36.540467], "type": "Point"}, "id": "WFZDnoQXu3n1YFqXm24vW6KYCnw=", "properties": {"@source_uri": "https://tools.usps.com/UspsToolsRestServices/rest/POLocator/findLocations", "@spider": "usps_collection_boxes", "addr:city": "DINUBA", "addr:country": "US", "addr:full": "222 S K ST", "addr:postcode": "93618", "addr:state": "CA", "amenity": "post_box", "brand": "United States Postal Service", "brand:wikidata": "Q668687", "collection_times": "Mo-Fr 16:00; Sa 15:00", "indoor": "yes", "note": "ON 12/24 AND 12/31, THIS BOX MAY BE COLLECTED AS EARLY AS 12 NOON.", "nsi_id": "unitedstatespostalservice-a77078", "operator": "United States Postal Service", "operator:short": "USPS", "operator:type": "public", "operator:wikidata": "Q668687", "ref": "9361800013"}, "type": "Feature"}
{"geometry": {"coordinates": [-119.387558, 36.540862], "type": "Point"}, "id": "YAUohh4EWCWPvxl-71ZTKKwoGX0=", "properties": {"@source_uri": "https://tools.usps.com/UspsToolsRestServices/rest/POLocator/findLocations", "@spider": "usps_collection_boxes", "addr:city": "DINUBA", "addr:country": "US", "addr:full": "222 S K ST", "addr:postcode": "93618", "addr:state": "CA", "amenity": "post_box", "brand": "United States Postal Service", "brand:wikidata": "Q668687", "collection_times": "Mo-Fr 16:45; Sa 15:00", "note": "ON 12/24 AND 12/31, THIS BOX MAY BE COLLECTED AS EARLY AS 12 NOON.", "nsi_id": "unitedstatespostalservice-a77078", "operator": "United States Postal Service", "operator:short": "USPS", "operator:type": "public", "operator:wikidata": "Q668687", "ref": "9361800014"}, "type": "Feature"}
{"geometry": {"coordinates": [-119.387890794, 36.540512799], "type": "Point"}, "id": "VFaT0tnK25W3Ju3zxEmGLmWJOyg=", "properties": {"@source_uri": "https://tools.usps.com/UspsToolsRestServices/rest/POLocator/findLocations", "@spider": "usps_collection_boxes", "addr:city": "DINUBA", "addr:country": "US", "addr:full": "222 S K ST", "addr:postcode": "93618", "addr:state": "CA", "amenity": "post_box", "brand": "United States Postal Service", "brand:wikidata": "Q668687", "collection_times": "Mo-Fr 16:00", "indoor": "yes", "note": "ON 12/24 AND 12/31, THIS BOX MAY BE COLLECTED AS EARLY AS 12 NOON.", "nsi_id": "unitedstatespostalservice-a77078", "operator": "United States Postal Service", "operator:short": "USPS", "operator:type": "public", "operator:wikidata": "Q668687", "ref": "9361800016"}, "type": "Feature"}
{"geometry": {"coordinates": [-120.627753, 36.985398], "type": "Point"}, "id": "K9bo982jWz9-jfIH54rgk_BT80g=", "properties": {"@source_uri": "https://tools.usps.com/UspsToolsRestServices/rest/POLocator/findLocations", "@spider": "usps_collection_boxes", "addr:city": "DOS PALOS", "addr:country": "US", "addr:full": "1555 GOLDEN GATE AVE", "addr:postcode": "93620", "addr:state": "CA", "amenity": "post_box", "brand": "United States Postal Service", "brand:wikidata": "Q668687", "collection_times": "Mo-Fr 16:25; Sa 15:00", "note": "ON 12/24 AND 12/31, THIS BOX MAY BE COLLECTED AS EARLY AS 12 NOON.", "nsi_id": "unitedstatespostalservice-a77078", "operator": "United States Postal Service", "operator:short": "USPS", "operator:type": "public", "operator:wikidata": "Q668687", "ref": "9362000001"}, "type": "Feature"}
{"geometry": {"coordinates": [-120.627787, 36.985389], "type": "Point"}, "id": "HG37JsmIHM6iBbdd3bIxl49lB8Y=", "properties": {"@source_uri": "https://tools.usps.com/UspsToolsRestServices/rest/POLocator/findLocations", "@spider": "usps_collection_boxes", "addr:city": "DOS PALOS", "addr:country": "US", "addr:full": "1555 GOLDEN GATE AVE", "addr:postcode": "93620", "addr:state": "CA", "amenity": "post_box", "brand": "United States Postal Service", "brand:wikidata": "Q668687", "collection_times": "Mo-Fr 16:00; Sa 15:00", "indoor": "yes", "note": "ON 12/24 AND 12/31, THIS BOX MAY BE COLLECTED AS EARLY AS 12 NOON.", "nsi_id": "unitedstatespostalservice-a77078", "operator": "United States Postal Service", "operator:short": "USPS", "operator:type": "public", "operator:wikidata": "Q668687", "ref": "9362000005"}, "type": "Feature"}
{"geometry": {"coordinates": [-120.627757637, 36.984978], "type": "Point"}, "id": "8KPfwqDQDS0QXUt00CEqVnb_-8s=", "properties": {"@source_uri": "https://tools.usps.com/UspsToolsRestServices/rest/POLocator/findLocations", "@spider": "usps_collection_boxes", "addr:city": "DOS PALOS", "addr:country": "US", "addr:full": "1555 GOLDEN GATE AVE", "addr:postcode": "93620", "addr:state": "CA", "amenity": "post_box", "brand": "United States Postal Service", "brand:wikidata": "Q668687", "collection_times": "Mo-Fr 16:00", "indoor": "yes", "note": "ON 12/24 AND 12/31, THIS BOX MAY BE COLLECTED AS EARLY AS 12 NOON.", "nsi_id": "unitedstatespostalservice-a77078", "operator": "United States Postal Service", "operator:short": "USPS", "operator:type": "public", "operator:wikidata": "Q668687", "ref": "9362000006"}, "type": "Feature"}
{"geometry": {"coordinates": [-119.1185209592, 36.7372744278], "type": "Point"}, "id": "Ol7EK_FAzqgq2s_Upo0bVPh3dMU=", "properties": {"@source_uri": "https://tools.usps.com/UspsToolsRestServices/rest/POLocator/findLocations", "@spider": "usps_collection_boxes", "addr:city": "DUNLAP", "addr:country": "US", "addr:full": "39400 DUNLAP RD", "addr:postcode": "93621", "addr:state": "CA", "amenity": "post_box", "brand": "United States Postal Service", "brand:wikidata": "Q668687", "collection_times": "Mo-Fr 13:30; Sa 10:00", "note": "ON 12/24 AND 12/31, THIS BOX MAY BE COLLECTED AS EARLY AS 12 NOON.", "nsi_id": "unitedstatespostalservice-a77078", "operator": "United States Postal Service", "operator:short": "USPS", "operator:type": "public", "operator:wikidata": "Q668687", "ref": "9362100001"}, "type": "Feature"}
{"geometry": {"coordinates": [-119.169141, 36.755104], "type": "Point"}, "id": "t5CXczFqTF-yxdNE6qQOqmSRlQU=", "properties": {"@source_uri": "https://tools.usps.com/UspsToolsRestServices/rest/POLocator/findLocations", "@spider": "usps_collection_boxes", "addr:city": "DUNLAP", "addr:country": "US", "addr:full": "35671 E KINGS CANYON RD", "addr:postcode": "93621", "addr:state": "CA", "amenity": "post_box", "brand": "United States Postal Service", "brand:wikidata": "Q668687", "collection_times": "Mo-Fr 10:00", "nsi_id": "unitedstatespostalservice-a77078", "operator": "United States Postal Service", "operator:short": "USPS", "operator:type": "public", "operator:wikidata": "Q668687", "ref": "9362100002"}, "type": "Feature"}
{"geometry": {"coordinates": [-119.118821, 36.737466], "type": "Point"}, "id": "6hMRQ-sKntuZrrQ-X36N5UEdFb8=", "properties": {"@source_uri": "https://tools.usps.com/UspsToolsRestServices/rest/POLocator/findLocations", "@spider": "usps_collection_boxes", "addr:city": "DUNLAP", "addr:country": "US", "addr:full": "39400 DUNLAP RD", "addr:postcode": "93621", "addr:state": "CA", "amenity": "post_box", "brand": "United States Postal Service", "brand:wikidata": "Q668687", "collection_times": "Mo-Fr 13:30; Sa 10:00", "indoor": "yes", "note": "ON 12/24 AND 12/31, THIS BOX MAY BE COLLECTED AS EARLY AS 12 NOON.", "nsi_id": "unitedstatespostalservice-a77078", "operator": "United States Postal Service", "operator:short": "USPS", "operator:type": "public", "operator:wikidata": "Q668687", "ref": "9362100003"}, "type": "Feature"}
{"geometry": {"coordinates": [-119.118520601, 36.73726658], "type": "Point"}, "id": "BF9pOXtzaOKK5ZyQDfyHyTJi7sE=", "properties": {"@source_uri": "https://tools.usps.com/UspsToolsRestServices/rest/POLocator/findLocations", "@spider": "usps_collection_boxes", "addr:city": "DUNLAP", "addr:country": "US", "addr:full": "39400 DUNLAP RD", "addr:postcode": "93621", "addr:state": "CA", "amenity": "post_box", "brand": "United States Postal Service", "brand:wikidata": "Q668687", "collection_times": "Mo-Fr 14:30", "indoor": "yes", "note": "ON 12/24 AND 12/31, THIS BOX MAY BE COLLECTED AS EARLY AS 12 NOON.", "nsi_id": "unitedstatespostalservice-a77078", "operator": "United States Postal Service", "operator:short": "USPS", "operator:type": "public", "operator:wikidata": "Q668687", "ref": "9362100004"}, "type": "Feature"}
{"geometry": {"coordinates": [-120.455653, 36.859319], "type": "Point"}, "id": "6z7lVIyt7Wgq9Iq4sySqAKe9UII=", "properties": {"@source_uri": "https://tools.usps.com/UspsToolsRestServices/rest/POLocator/findLocations", "@spider": "usps_collection_boxes", "addr:city": "FIREBAUGH", "addr:country": "US", "addr:full": "1580 11TH ST", "addr:postcode": "93622", "addr:state": "CA", "amenity": "post_box", "brand": "United States Postal Service", "brand:wikidata": "Q668687", "collection_times": "Mo-Fr 16:15; Sa 15:00", "note": "ON 12/24 AND 12/31, THIS BOX MAY BE COLLECTED AS EARLY AS 12 NOON.", "nsi_id": "unitedstatespostalservice-a77078", "operator": "United States Postal Service", "operator:short": "USPS", "operator:type": "public", "operator:wikidata": "Q668687", "ref": "9362200007"}, "type": "Feature"}
{"geometry": {"coordinates": [-120.455418, 36.859247], "type": "Point"}, "id": "993kxUBC8muD3SBeL3gX1HKfY90=", "properties": {"@source_uri": "https://tools.usps.com/UspsToolsRestServices/rest/POLocator/findLocations", "@spider": "usps_collection_boxes", "addr:city": "FIREBAUGH", "addr:country": "US", "addr:full": "1580 11TH ST", "addr:postcode": "93622", "addr:state": "CA", "amenity": "post_box", "brand": "United States Postal Service", "brand:wikidata": "Q668687", "collection_times": "Mo-Fr 16:15; Sa 15:00", "indoor": "yes", "note": "ON 12/24 AND 12/31, THIS BOX MAY BE COLLECTED AS EARLY AS 12 NOON.", "nsi_id": "unitedstatespostalservice-a77078", "operator": "United States Postal Service", "operator:short": "USPS", "operator:type": "public", "operator:wikidata": "Q668687", "ref": "9362200010"}, "type": "Feature"}
{"geometry": {"coordinates": [-120.455567864, 36.859366223], "type": "Point"}, "id": "YxC4mNkPwe0EEQULGdzjSv_HnWE=", "properties": {"@source_uri": "https://tools.usps.com/UspsToolsRestServices/rest/POLocator/findLocations", "@spider": "usps_collection_boxes", "addr:city": "FIREBAUGH", "addr:country": "US", "addr:full": "1580 11TH ST", "addr:postcode": "93622", "addr:state": "CA", "amenity": "post_box", "brand": "United States Postal Service", "brand:wikidata": "Q668687", "collection_times": "Mo-Fr 16:00", "indoor": "yes", "note": "ON 12/24 AND 12/31, THIS BOX MAY BE COLLECTED AS EARLY AS 12 NOON.", "nsi_id": "unitedstatespostalservice-a77078", "operator": "United States Postal Service", "operator:short": "USPS", "operator:type": "public", "operator:wikidata": "Q668687", "ref": "9362200012"}, "type": "Feature"}
{"geometry": {"coordinates": [-119.638694, 37.47947], "type": "Point"}, "id": "P7n3Nj1XfZKsdwL5Cz8zlp-fZk0=", "properties": {"@source_uri": "https://tools.usps.com/UspsToolsRestServices/rest/POLocator/findLocations", "@spider": "usps_collection_boxes", "addr:city": "FISH CAMP", "addr:country": "US", "addr:full": "7733 FISH CAMP LN", "addr:postcode": "93623", "addr:state": "CA", "amenity": "post_box", "brand": "United States Postal Service", "brand:wikidata": "Q668687", "collection_times": "Mo-Fr 12:00; Sa 10:00", "indoor": "yes", "nsi_id": "unitedstatespostalservice-a77078", "operator": "United States Postal Service", "operator:short": "USPS", "operator:type": "public", "operator:wikidata": "Q668687", "ref": "9362300000"}, "type": "Feature"}
{"geometry": {"coordinates": [-119.63873, 37.479441], "type": "Point"}, "id": "FPMJ-1lLXj1nWogB0nddm_NY_Wc=", "properties": {"@source_uri": "https://tools.usps.com/UspsToolsRestServices/rest/POLocator/findLocations", "@spider": "usps_collection_boxes", "addr:city": "FISH CAMP", "addr:country": "US", "addr:full": "7733 FISH CAMP LN", "addr:postcode": "93623", "addr:state": "CA", "amenity": "post_box", "brand": "United States Postal Service", "brand:wikidata": "Q668687", "collection_times": "Mo-Fr 12:00; Sa 10:00", "indoor": "yes", "nsi_id": "unitedstatespostalservice-a77078", "operator": "United States Postal Service", "operator:short": "USPS", "operator:type": "public", "operator:wikidata": "Q668687", "ref": "9362300001"}, "type": "Feature"}
{"geometry": {"coordinates": [-119.638696933, 37.479483199], "type": "Point"}, "id": "vsZi0c5H0sCXjC8fBp7ut8Gs4uA=", "properties": {"@source_uri": "https://tools.usps.com/UspsToolsRestServices/rest/POLocator/findLocations", "@spider": "usps_collection_boxes", "addr:city": "FISH CAMP", "addr:country": "US", "addr:full": "7733 FISH CAMP LN", "addr:postcode": "93623", "addr:state": "CA", "amenity": "post_box", "brand": "United States Postal Service", "brand:wikidata": "Q668687", "collection_times": "Mo-Fr 12:30", "indoor": "yes", "note": "ON 12/24 AND 12/31, THIS BOX MAY BE COLLECTED AS EARLY AS 12 NOON.", "nsi_id": "unitedstatespostalservice-a77078", "operator": "United States Postal Service", "operator:short": "USPS", "operator:type": "public", "operator:wikidata": "Q668687", "ref": "9362300002"}, "type": "Feature"}
{"geometry": {"coordinates": [-120.103036, 36.428499], "type": "Point"}, "id": "kxiCUrBqVn9pm774UbzNSTZgh7I=", "properties": {"@source_uri": "https://tools.usps.com/UspsToolsRestServices/rest/POLocator/findLocations", "@spider": "usps_collection_boxes", "addr:city": "FIVE POINTS", "addr:country": "US", "addr:full": "21074 S LASSEN AVE", "addr:postcode": "93624", "addr:state": "CA", "amenity": "post_box", "brand": "United States Postal Service", "brand:wikidata": "Q668687", "collection_times": "Mo-Fr 16:00; Sa 09:15", "note": "ON 12/24 AND 12/31, THIS BOX MAY BE COLLECTED AS EARLY AS 12 NOON.", "nsi_id": "unitedstatespostalservice-a77078", "operator": "United States Postal Service", "operator:short": "USPS", "operator:type": "public", "operator:wikidata": "Q668687", "ref": "9362400001"}, "type": "Feature"}
{"geometry": {"coordinates": [-120.103069, 36.428582], "type": "Point"}, "id": "6i0YXhrHC2-VcOqw_Q9aL0R3KpY=", "properties": {"@source_uri": "https://tools.usps.com/UspsToolsRestServices/rest/POLocator/findLocations", "@spider": "usps_collection_boxes", "addr:city": "FIVE POINTS", "addr:country": "US", "addr:full": "21074 S LASSEN AVE", "addr:postcode": "93624", "addr:state": "CA", "amenity": "post_box", "brand": "United States Postal Service", "brand:wikidata": "Q668687", "collection_times": "Mo-Fr 16:00; Sa 09:15", "indoor": "yes", "note": "ON 12/24 AND 12/31, THIS BOX MAY BE COLLECTED AS EARLY AS 12 NOON.", "nsi_id": "unitedstatespostalservice-a77078", "operator": "United States Postal Service", "operator:short": "USPS", "operator:type": "public", "operator:wikidata": "Q668687", "ref": "9362400002"}, "type": "Feature"}
{"geometry": {"coordinates": [-120.103035869, 36.428193], "type": "Point"}, "id": "qQkqA6BpTz3Pa4MTvs14QIjy2o4=", "properties": {"@source_uri": "https://tools.usps.com/UspsToolsRestServices/rest/POLocator/findLocations", "@spider": "usps_collection_boxes", "addr:city": "FIVE POINTS", "addr:country": "US", "addr:full": "21074 S LASSEN AVE", "addr:postcode": "93624", "addr:state": "CA", "amenity": "post_box", "brand": "United States Postal Service", "brand:wikidata": "Q668687", "collection_times": "Mo-Fr 16:00", "indoor": "yes", "note": "ON 12/24 AND 12/31, THIS BOX MAY BE COLLECTED AS EARLY AS 12 NOON.", "nsi_id": "unitedstatespostalservice-a77078", "operator": "United States Postal Service", "operator:short": "USPS", "operator:type": "public", "operator:wikidata": "Q668687", "ref": "9362400003"}, "type": "Feature"}
{"geometry": {"coordinates": [-119.6802170164, 36.6295180461], "type": "Point"}, "id": "ZCeb16h3CflywsXf_QMOWy57RGY=", "properties": {"@source_uri": "https://tools.usps.com/UspsToolsRestServices/rest/POLocator/findLocations", "@spider": "usps_collection_boxes", "addr:city": "FOWLER", "addr:country": "US", "addr:full": "19 E MERCED ST", "addr:postcode": "93625", "addr:state": "CA", "amenity": "post_box", "brand": "United States Postal Service", "brand:wikidata": "Q668687", "collection_times": "Mo-Fr 16:30; Sa 14:30", "note": "ON 12/24 AND 12/31, THIS BOX MAY BE COLLECTED AS EARLY AS 12 NOON.", "nsi_id": "unitedstatespostalservice-a77078", "operator": "United States Postal Service", "operator:short": "USPS", "operator:type": "public", "operator:wikidata": "Q668687", "ref": "9362500001"}, "type": "Feature"}
{"geometry": {"coordinates": [-119.6802170164, 36.6295180461], "type": "Point"}, "id": "hwOnsnubrrSxNC0TOKy1jg6rC_Q=", "properties": {"@source_uri": "https://tools.usps.com/UspsToolsRestServices/rest/POLocator/findLocations", "@spider": "usps_collection_boxes", "addr:city": "FOWLER", "addr:country": "US", "addr:full": "19 E MERCED ST", "addr:postcode": "93625", "addr:state": "CA", "amenity": "post_box", "brand": "United States Postal Service", "brand:wikidata": "Q668687", "collection_times": "Mo-Fr 16:30; Sa 14:30", "note": "ON 12/24 AND 12/31, THIS BOX MAY BE COLLECTED AS EARLY AS 12 NOON.", "nsi_id": "unitedstatespostalservice-a77078", "operator": "United States Postal Service", "operator:short": "USPS", "operator:type": "public", "operator:wikidata": "Q668687", "ref": "9362500002"}, "type": "Feature"}
{"geometry": {"coordinates": [-119.67995, 36.629213], "type": "Point"}, "id": "I-xXdJiczHIj7E66YicC6xGtELI=", "properties": {"@source_uri": "https://tools.usps.com/UspsToolsRestServices/rest/POLocator/findLocations", "@spider": "usps_collection_boxes", "addr:city": "FOWLER", "addr:country": "US", "addr:full": "19 E MERCED ST", "addr:postcode": "93625", "addr:state": "CA", "amenity": "post_box", "brand": "United States Postal Service", "brand:wikidata": "Q668687", "collection_times": "Mo-Fr 16:30; Sa 14:30", "indoor": "yes", "note": "ON 12/24 AND 12/31, THIS BOX MAY BE COLLECTED AS EARLY AS 12 NOON.", "nsi_id": "unitedstatespostalservice-a77078", "operator": "United States Postal Service", "operator:short": "USPS", "operator:type": "public", "operator:wikidata": "Q668687", "ref": "9362500004"}, "type": "Feature"}
{"geometry": {"coordinates": [-119.679936, 36.629209], "type": "Point"}, "id": "502LtDdUzzs2CVvbEVl44L7xB5w=", "properties": {"@source_uri": "https://tools.usps.com/UspsToolsRestServices/rest/POLocator/findLocations", "@spider": "usps_collection_boxes", "addr:city": "FOWLER", "addr:country": "US", "addr:full": "19 E MERCED ST", "addr:postcode": "93625", "addr:state": "CA", "amenity": "post_box", "brand": "United States Postal Service", "brand:wikidata": "Q668687", "collection_times": "Mo-Fr 16:30; Sa 14:30", "indoor": "yes", "note": "ON 12/24 AND 12/31, THIS BOX MAY BE COLLECTED AS EARLY AS 12 NOON.", "nsi_id": "unitedstatespostalservice-a77078", "operator": "United States Postal Service", "operator:short": "USPS", "operator:type": "public", "operator:wikidata": "Q668687", "ref": "9362500005"}, "type": "Feature"}
{"geometry": {"coordinates": [-119.6802546, 36.62947883], "type": "Point"}, "id": "JfT_kzoxTn2wjf2BUyEghnAZiaY=", "properties": {"@source_uri": "https://tools.usps.com/UspsToolsRestServices/rest/POLocator/findLocations", "@spider": "usps_collection_boxes", "addr:city": "FOWLER", "addr:country": "US", "addr:full": "19 E MERCED ST", "addr:postcode": "93625", "addr:state": "CA", "amenity": "post_box", "brand": "United States Postal Service", "brand:wikidata": "Q668687", "collection_times": "Mo-Fr 16:00", "indoor": "yes", "note": "ON 12/24 AND 12/31, THIS BOX MAY BE COLLECTED AS EARLY AS 12 NOON.", "nsi_id": "unitedstatespostalservice-a77078", "operator": "United States Postal Service", "operator:short": "USPS", "operator:type": "public", "operator:wikidata": "Q668687", "ref": "9362500007"}, "type": "Feature"}
{"geometry": {"coordinates": [-119.71617, 36.982855], "type": "Point"}, "id": "b9LuV3g-7PLXjjPnixPe8vcKtMM=", "properties": {"@source_uri": "https://tools.usps.com/UspsToolsRestServices/rest/POLocator/findLocations", "@spider": "usps_collection_boxes", "addr:city": "FRIANT", "addr:country": "US", "addr:full": "17275 N FRIANT RD", "addr:postcode": "93626", "addr:state": "CA", "amenity": "post_box", "brand": "United States Postal Service", "brand:wikidata": "Q668687", "collection_times": "Mo-Fr 15:15; Sa 10:00", "note": "ON 12/24 AND 12/31, THIS BOX MAY BE COLLECTED AS EARLY AS 12 NOON.", "nsi_id": "unitedstatespostalservice-a77078", "operator": "United States Postal Service", "operator:short": "USPS", "operator:type": "public", "operator:wikidata": "Q668687", "ref": "9362600001"}, "type": "Feature"}
{"geometry": {"coordinates": [-119.714237102, 36.985756379], "type": "Point"}, "id": "CSGE6xMv7ofrKzyj6KtIorQlu20=", "properties": {"@source_uri": "https://tools.usps.com/UspsToolsRestServices/rest/POLocator/findLocations", "@spider": "usps_collection_boxes", "addr:city": "FRIANT", "addr:country": "US", "addr:full": "17275 N FRIANT RD", "addr:postcode": "93626", "addr:state": "CA", "amenity": "post_box", "brand": "United States Postal Service", "brand:wikidata": "Q668687", "collection_times": "Mo-Fr 16:00", "indoor": "yes", "note": "ON 12/24 AND 12/31, THIS BOX MAY BE COLLECTED AS EARLY AS 12 NOON.", "nsi_id": "unitedstatespostalservice-a77078", "operator": "United States Postal Service", "operator:short": "USPS", "operator:type": "public", "operator:wikidata": "Q668687", "ref": "9362600003"}, "type": "Feature"}
{"geometry": {"coordinates": [-120.0991850161, 36.5330359929], "type": "Point"}, "id": "QUeFKCcjlXqepCbUOz0QnF7eJnk=", "properties": {"@source_uri": "https://tools.usps.com/UspsToolsRestServices/rest/POLocator/findLocations", "@spider": "usps_collection_boxes", "addr:city": "HELM", "addr:country": "US", "addr:full": "13883 S LASSEN AVE", "addr:postcode": "93627", "addr:state": "CA", "amenity": "post_box", "brand": "United States Postal Service", "brand:wikidata": "Q668687", "collection_times": "Mo-Fr 15:00; Sa 09:00", "note": "ON 12/24 AND 12/31, THIS BOX MAY BE COLLECTED AS EARLY AS 12 NOON.", "nsi_id": "unitedstatespostalservice-a77078", "operator": "United States Postal Service", "operator:short": "USPS", "operator:type": "public", "operator:wikidata": "Q668687", "ref": "9362700000"}, "type": "Feature"}
{"geometry": {"coordinates": [-120.09789, 36.533234], "type": "Point"}, "id": "7uSoAoYIStnYYGK9YyS5UcmqGrY=", "properties": {"@source_uri": "https://tools.usps.com/UspsToolsRestServices/rest/POLocator/findLocations", "@spider": "usps_collection_boxes", "addr:city": "HELM", "addr:country": "US", "addr:full": "13883 S LASSEN AVE", "addr:postcode": "93627", "addr:state": "CA", "amenity": "post_box", "brand": "United States Postal Service", "brand:wikidata": "Q668687", "collection_times": "Mo-Fr 14:45; Sa 09:00", "indoor": "yes", "note": "ON 12/24 AND 12/31, THIS BOX MAY BE COLLECTED AS EARLY AS 12 NOON.", "nsi_id": "unitedstatespostalservice-a77078", "operator": "United States Postal Service", "operator:short": "USPS", "operator:type": "public", "operator:wikidata": "Q668687", "ref": "9362700001"}, "type": "Feature"}
{"geometry": {"coordinates": [-120.097947412, 36.5332958], "type": "Point"}, "id": "zp_-C8FjvCCU76DJRrtvwQgqU8I=", "properties": {"@source_uri": "https://tools.usps.com/UspsToolsRestServices/rest/POLocator/findLocations", "@spider": "usps_collection_boxes", "addr:city": "HELM", "addr:country": "US", "addr:full": "13883 S LASSEN AVE", "addr:postcode": "93627", "addr:state": "CA", "amenity": "post_box", "brand": "United States Postal Service", "brand:wikidata": "Q668687", "collection_times": "Mo-Fr 15:00", "indoor": "yes", "note": "ON 12/24 AND 12/31, THIS BOX MAY BE COLLECTED AS EARLY AS 12 NOON.", "nsi_id": "unitedstatespostalservice-a77078", "operator": "United States Postal Service", "operator:short": "USPS", "operator:type": "public", "operator:wikidata": "Q668687", "ref": "9362700002"}, "type": "Feature"}
{"geometry": {"coordinates": [-120.059315, 36.72367], "type": "Point"}, "id": "H1zaV11Qv3_7Ds0uA1xCM_8r0cE=", "properties": {"@source_uri": "https://tools.usps.com/UspsToolsRestServices/rest/POLocator/findLocations", "@spider": "usps_collection_boxes", "addr:city": "KERMAN", "addr:country": "US", "addr:full": "14920 W D ST", "addr:postcode": "93630", "addr:state": "CA", "amenity": "post_box", "brand": "United States Postal Service", "brand:wikidata": "Q668687", "collection_times": "Mo-Fr 17:00; Sa 14:30", "note": "ON 12/24 AND 12/31, THIS BOX MAY BE COLLECTED AS EARLY AS 12 NOON.", "nsi_id": "unitedstatespostalservice-a77078", "operator": "United States Postal Service", "operator:short": "USPS", "operator:type": "public", "operator:wikidata": "Q668687", "ref": "9363000002"}, "type": "Feature"}
{"geometry": {"coordinates": [-120.059249, 36.723643], "type": "Point"}, "id": "wFCykUAX4jh4ITPdAUkTbcHEi8g=", "properties": {"@source_uri": "https://tools.usps.com/UspsToolsRestServices/rest/POLocator/findLocations", "@spider": "usps_collection_boxes", "addr:city": "KERMAN", "addr:country": "US", "addr:full": "14920 W D ST", "addr:postcode": "93630", "addr:state": "CA", "amenity": "post_box", "brand": "United States Postal Service", "brand:wikidata": "Q668687", "collection_times": "Mo-Fr 17:00; Sa 14:30", "indoor": "yes", "note": "ON 12/24 AND 12/31, THIS BOX MAY BE COLLECTED AS EARLY AS 12 NOON.", "nsi_id": "unitedstatespostalservice-a77078", "operator": "United States Postal Service", "operator:short": "USPS", "operator:type": "public", "operator:wikidata": "Q668687", "ref": "9363000003"}, "type": "Feature"}
{"geometry": {"coordinates": [-120.059249, 36.723643], "type": "Point"}, "id": "LOG253uN9KF0yu8GZ2Jm30EuMF8=", "properties": {"@source_uri": "https://tools.usps.com/UspsToolsRestServices/rest/POLocator/findLocations", "@spider": "usps_collection_boxes", "addr:city": "KERMAN", "addr:country": "US", "addr:full": "14920 W D ST", "addr:postcode": "93630", "addr:state": "CA", "amenity": "post_box", "brand": "United States Postal Service", "brand:wikidata": "Q668687", "collection_times": "Mo-Fr 17:00; Sa 14:30", "indoor": "yes", "note": "ON 12/24 AND 12/31, THIS BOX MAY BE COLLECTED AS EARLY AS 12 NOON.", "nsi_id": "unitedstatespostalservice-a77078", "operator": "United States Postal Service", "operator:short": "USPS", "operator:type": "public", "operator:wikidata": "Q668687", "ref": "9363000004"}, "type": "Feature"}
{"geometry": {"coordinates": [-120.059302332, 36.723659468], "type": "Point"}, "id": "O7xEEarBhSGU4o3wuNP_6PYQn50=", "properties": {"@source_uri": "https://tools.usps.com/UspsToolsRestServices/rest/POLocator/findLocations", "@spider": "usps_collection_boxes", "addr:city": "KERMAN", "addr:country": "US", "addr:full": "14920 W D ST", "addr:postcode": "93630", "addr:state": "CA", "amenity": "post_box", "brand": "United States Postal Service", "brand:wikidata": "Q668687", "collection_times": "Mo-Fr 16:00", "indoor": "yes", "note": "ON 12/24 AND 12/31, THIS BOX MAY BE COLLECTED AS EARLY AS 12 NOON.", "nsi_id": "unitedstatespostalservice-a77078", "operator": "United States Postal Service", "operator:short": "USPS", "operator:type": "public", "operator:wikidata": "Q668687", "ref": "9363000006"}, "type": "Feature"}
{"geometry": {"coordinates": [-119.5517729779, 36.5151599918], "type": "Point"}, "id": "25vQHuqFtxwONw_1UEiNU1oi3gA=", "properties": {"@source_uri": "https://tools.usps.com/UspsToolsRestServices/rest/POLocator/findLocations", "@spider": "usps_collection_boxes", "addr:city": "KINGSBURG", "addr:country": "US", "addr:full": "1490 DRAPER ST", "addr:postcode": "93631", "addr:state": "CA", "amenity": "post_box", "brand": "United States Postal Service", "brand:wikidata": "Q668687", "collection_times": "Mo-Fr 14:00; Sa 12:15", "note": "ON 12/24 AND 12/31, THIS BOX MAY BE COLLECTED AS EARLY AS 12 NOON.", "nsi_id": "unitedstatespostalservice-a77078", "operator": "United States Postal Service", "operator:short": "USPS", "operator:type": "public", "operator:wikidata": "Q668687", "ref": "9363100002"}, "type": "Feature"}
{"geometry": {"coordinates": [-119.55173, 36.513702], "type": "Point"}, "id": "IYEi8L5_pxdQSSuVHZ82hjiXb78=", "properties": {"@source_uri": "https://tools.usps.com/UspsToolsRestServices/rest/POLocator/findLocations", "@spider": "usps_collection_boxes", "addr:city": "KINGSBURG", "addr:country": "US", "addr:full": "1401 MARION ST", "addr:postcode": "93631", "addr:state": "CA", "amenity": "post_box", "brand": "United States Postal Service", "brand:wikidata": "Q668687", "collection_times": "Mo-Fr 16:00; Sa 13:00", "note": "ON 12/24 AND 12/31, THIS BOX MAY BE COLLECTED AS EARLY AS 12 NOON.", "nsi_id": "unitedstatespostalservice-a77078", "operator": "United States Postal Service", "operator:short": "USPS", "operator:type": "public", "operator:wikidata": "Q668687", "ref": "9363100006"}, "type": "Feature"}
{"geometry": {"coordinates": [-119.55173, 36.513702], "type": "Point"}, "id": "ySSoZvlsuB7YWPf2b4OSiqvxCUI=", "properties": {"@source_uri": "https://tools.usps.com/UspsToolsRestServices/rest/POLocator/findLocations", "@spider": "usps_collection_boxes", "addr:city": "KINGSBURG", "addr:country": "US", "addr:full": "1401 MARION ST", "addr:postcode": "93631", "addr:state": "CA", "amenity": "post_box", "brand": "United States Postal Service", "brand:wikidata": "Q668687", "collection_times": "Mo-Fr 16:00; Sa 13:00", "note": "ON 12/24 AND 12/31, THIS BOX MAY BE COLLECTED AS EARLY AS 12 NOON.", "nsi_id": "unitedstatespostalservice-a77078", "operator": "United States Postal Service", "operator:short": "USPS", "operator:type": "public", "operator:wikidata": "Q668687", "ref": "9363100007"}, "type": "Feature"}
{"geometry": {"coordinates": [-119.55173, 36.513702], "type": "Point"}, "id": "_e_OCoVyCfb_C-DjuYklO4djgdg=", "properties": {"@source_uri": "https://tools.usps.com/UspsToolsRestServices/rest/POLocator/findLocations", "@spider": "usps_collection_boxes", "addr:city": "KINGSBURG", "addr:country": "US", "addr:full": "1401 MARION ST", "addr:postcode": "93631", "addr:state": "CA", "amenity": "post_box", "brand": "United States Postal Service", "brand:wikidata": "Q668687", "collection_times": "Mo-Fr 16:00; Sa 11:30", "indoor": "yes", "note": "ON 12/24 AND 12/31, THIS BOX MAY BE COLLECTED AS EARLY AS 12 NOON.", "nsi_id": "unitedstatespostalservice-a77078", "operator": "United States Postal Service", "operator:short": "USPS", "operator:type": "public", "operator:wikidata": "Q668687", "ref": "9363100009"}, "type": "Feature"}
{"geometry": {"coordinates": [-119.55173, 36.513702], "type": "Point"}, "id": "f5WRe6X9KfXLmTv3r8pgXATvAFI=", "properties": {"@source_uri": "https://tools.usps.com/UspsToolsRestServices/rest/POLocator/findLocations", "@spider": "usps_collection_boxes", "addr:city": "KINGSBURG", "addr:country": "US", "addr:full": "1401 MARION ST", "addr:postcode": "93631", "addr:state": "CA", "amenity": "post_box", "brand": "United States Postal Service", "brand:wikidata": "Q668687", "collection_times": "Mo-Fr 16:00; Sa 11:30", "indoor": "yes", "note": "ON 12/24 AND 12/31, THIS BOX MAY BE COLLECTED AS EARLY AS 12 NOON.", "nsi_id": "unitedstatespostalservice-a77078", "operator": "United States Postal Service", "operator:short": "USPS", "operator:type": "public", "operator:wikidata": "Q668687", "ref": "9363100010"}, "type": "Feature"}
{"geometry": {"coordinates": [-119.55173, 36.513702], "type": "Point"}, "id": "RCys1BmdkZAPZg9PJyX64vHryw8=", "properties": {"@source_uri": "https://tools.usps.com/UspsToolsRestServices/rest/POLocator/findLocations", "@spider": "usps_collection_boxes", "addr:city": "KINGSBURG", "addr:country": "US", "addr:full": "1401 MARION ST", "addr:postcode": "93631", "addr:state": "CA", "amenity": "post_box", "brand": "United States Postal Service", "brand:wikidata": "Q668687", "collection_times": "Mo-Fr 16:00; Sa 11:30", "indoor": "yes", "note": "ON 12/24 AND 12/31, THIS BOX MAY BE COLLECTED AS EARLY AS 12 NOON.", "nsi_id": "unitedstatespostalservice-a77078", "operator": "United States Postal Service", "operator:short": "USPS", "operator:type": "public", "operator:wikidata": "Q668687", "ref": "9363100011"}, "type": "Feature"}
{"geometry": {"coordinates": [-119.55173, 36.513702], "type": "Point"}, "id": "6Q0XyOM8mq-FDX77adoDv-A2rrQ=", "properties": {"@source_uri": "https://tools.usps.com/UspsToolsRestServices/rest/POLocator/findLocations", "@spider": "usps_collection_boxes", "addr:city": "KINGSBURG", "addr:country": "US", "addr:full": "1401 MARION ST", "addr:postcode": "93631", "addr:state": "CA", "amenity": "post_box", "brand": "United States Postal Service", "brand:wikidata": "Q668687", "collection_times": "Mo-Fr 16:00; Sa 11:30", "indoor": "yes", "note": "ON 12/24 AND 12/31, THIS BOX MAY BE COLLECTED AS EARLY AS 12 NOON.", "nsi_id": "unitedstatespostalservice-a77078", "operator": "United States Postal Service", "operator:short": "USPS", "operator:type": "public", "operator:wikidata": "Q668687", "ref": "9363100012"}, "type": "Feature"}
{"geometry": {"coordinates": [-119.5519717183, 36.5138861082], "type": "Point"}, "id": "iNkZ6yQSDe4Bu7AMQW9cSg_8NoI=", "properties": {"@source_uri": "https://tools.usps.com/UspsToolsRestServices/rest/POLocator/findLocations", "@spider": "usps_collection_boxes", "addr:city": "KINGSBURG", "addr:country": "US", "addr:full": "1401 MARION ST", "addr:postcode": "93631", "addr:state": "CA", "amenity": "post_box", "brand": "United States Postal Service", "brand:wikidata": "Q668687", "collection_times": "Mo-Fr 16:00", "indoor": "yes", "note": "ON 12/24 AND 12/31, THIS BOX MAY BE COLLECTED AS EARLY AS 12 NOON.", "nsi_id": "unitedstatespostalservice-a77078", "operator": "United States Postal Service", "operator:short": "USPS", "operator:type": "public", "operator:wikidata": "Q668687", "ref": "9363100015"}, "type": "Feature"}
{"geometry": {"coordinates": [-119.168708, 37.252952], "type": "Point"}, "id": "TexN8huUBa1SY-YkKeY_9sD1BEM=", "properties": {"@source_uri": "https://tools.usps.com/UspsToolsRestServices/rest/POLocator/findLocations", "@spider": "usps_collection_boxes", "addr:city": "SHAVER LAKE", "addr:country": "US", "addr:full": "62804 HUNTINGTON LAKE RD", "addr:postcode": "93634", "addr:state": "CA", "amenity": "post_box", "brand": "United States Postal Service", "brand:wikidata": "Q668687", "collection_times": "Mo-Fr 13:00; Sa 11:30", "indoor": "yes", "note": "ON 12/24 AND 12/31, THIS BOX MAY BE COLLECTED AS EARLY AS 12 NOON.", "nsi_id": "unitedstatespostalservice-a77078", "operator": "United States Postal Service", "operator:short": "USPS", "operator:type": "public", "operator:wikidata": "Q668687", "ref": "9363400000"}, "type": "Feature"}
{"geometry": {"coordinates": [-119.168686, 37.252925], "type": "Point"}, "id": "jHfM_Ha3UZkmSIyEOQOUwTk6FO0=", "properties": {"@source_uri": "https://tools.usps.com/UspsToolsRestServices/rest/POLocator/findLocations", "@spider": "usps_collection_boxes", "addr:city": "SHAVER LAKE", "addr:country": "US", "addr:full": "62804 HUNTINGTON LAKE RD", "addr:postcode": "93634", "addr:state": "CA", "amenity": "post_box", "brand": "United States Postal Service", "brand:wikidata": "Q668687", "collection_times": "Mo-Fr 13:00; Sa 11:30", "note": "ON 12/24 AND 12/31, THIS BOX MAY BE COLLECTED AS EARLY AS 12 NOON.", "nsi_id": "unitedstatespostalservice-a77078", "operator": "United States Postal Service", "operator:short": "USPS", "operator:type": "public", "operator:wikidata": "Q668687", "ref": "9363400001"}, "type": "Feature"}
{"geometry": {"coordinates": [-119.168680266, 37.252992746], "type": "Point"}, "id": "wAa6-j5e2_yVnmrPNeZYfoxduos=", "properties": {"@source_uri": "https://tools.usps.com/UspsToolsRestServices/rest/POLocator/findLocations", "@spider": "usps_collection_boxes", "addr:city": "SHAVER LAKE", "addr:country": "US", "addr:full": "62804 HUNTINGTON LAKE RD", "addr:postcode": "93634", "addr:state": "CA", "amenity": "post_box", "brand": "United States Postal Service", "brand:wikidata": "Q668687", "collection_times": "Mo-Fr 13:00; Sa 11:30", "indoor": "yes", "note": "ON 12/24 AND 12/31, THIS BOX MAY BE COLLECTED AS EARLY AS 12 NOON.", "nsi_id": "unitedstatespostalservice-a77078", "operator": "United States Postal Service", "operator:short": "USPS", "operator:type": "public", "operator:wikidata": "Q668687", "ref": "9363400002"}, "type": "Feature"}
{"geometry": {"coordinates": [-120.849941, 37.058383], "type": "Point"}, "id": "WZMLo_ME91GVYRQe5KnuR4WvOpU=", "properties": {"@source_uri": "https://tools.usps.com/UspsToolsRestServices/rest/POLocator/findLocations", "@spider": "usps_collection_boxes", "addr:city": "LOS BANOS", "addr:country": "US", "addr:full": "1135 6TH ST", "addr:postcode": "93635", "addr:state": "CA", "amenity": "post_box", "brand": "United States Postal Service", "brand:wikidata": "Q668687", "collection_times": "Mo-Sa 16:30", "indoor": "yes", "note": "ON 12/24 AND 12/31, THIS BOX MAY BE COLLECTED AS EARLY AS 12 NOON.", "nsi_id": "unitedstatespostalservice-a77078", "operator": "United States Postal Service", "operator:short": "USPS", "operator:type": "public", "operator:wikidata": "Q668687", "ref": "9363500024"}, "type": "Feature"}
{"geometry": {"coordinates": [-120.849852, 37.058344], "type": "Point"}, "id": "fHHAhVYN6nf1Wz6KU_8xbpdZ5VQ=", "properties": {"@source_uri": "https://tools.usps.com/UspsToolsRestServices/rest/POLocator/findLocations", "@spider": "usps_collection_boxes", "addr:city": "LOS BANOS", "addr:country": "US", "addr:full": "1135 6TH ST", "addr:postcode": "93635", "addr:state": "CA", "amenity": "post_box", "brand": "United States Postal Service", "brand:wikidata": "Q668687", "collection_times": "Mo-Sa 16:15", "note": "ON 12/24 AND 12/31, THIS BOX MAY BE COLLECTED AS EARLY AS 12 NOON.", "nsi_id": "unitedstatespostalservice-a77078", "operator": "United States Postal Service", "operator:short": "USPS", "operator:type": "public", "operator:wikidata": "Q668687", "ref": "9363500026"}, "type": "Feature"}
{"geometry": {"coordinates": [-120.849806339, 37.058298244], "type": "Point"}, "id": "lvCVRge0mm5P3Pe4eUx7e99_z2c=", "properties": {"@source_uri": "https://tools.usps.com/UspsToolsRestServices/rest/POLocator/findLocations", "@spider": "usps_collection_boxes", "addr:city": "LOS BANOS", "addr:country": "US", "addr:full": "1135 6TH ST", "addr:postcode": "93635", "addr:state": "CA", "amenity": "post_box", "brand": "United States Postal Service", "brand:wikidata": "Q668687", "collection_times": "Mo-Fr 16:00", "indoor": "yes", "note": "ON 12/24 AND 12/31, THIS BOX MAY BE COLLECTED AS EARLY AS 12 NOON.", "nsi_id": "unitedstatespostalservice-a77078", "operator": "United States Postal Service", "operator:short": "USPS", "operator:type": "public", "operator:wikidata": "Q668687", "ref": "9363500030"}, "type": "Feature"}
{"geometry": {"coordinates": [-120.0590713249, 36.9546550749], "type": "Point"}, "id": "CZuhZlFRmIYm2XGfrXsowDOgqSE=", "properties": {"@source_uri": "https://tools.usps.com/UspsToolsRestServices/rest/POLocator/findLocations", "@spider": "usps_collection_boxes", "addr:city": "MADERA", "addr:country": "US", "addr:full": "516 S I ST", "addr:postcode": "93637", "addr:state": "CA", "amenity": "post_box", "brand": "United States Postal Service", "brand:wikidata": "Q668687", "collection_times": "Mo-Fr 15:00", "note": "ON 12/24 AND 12/31, THIS BOX MAY BE COLLECTED AS EARLY AS 12 NOON.", "nsi_id": "unitedstatespostalservice-a77078", "operator": "United States Postal Service", "operator:short": "USPS", "operator:type": "public", "operator:wikidata": "Q668687", "ref": "9363700006"}, "type": "Feature"}
{"geometry": {"coordinates": [-120.063334, 36.970245], "type": "Point"}, "id": "FOMJMwaXJRoN55fU2x6mpIegk3U=", "properties": {"@source_uri": "https://tools.usps.com/UspsToolsRestServices/rest/POLocator/findLocations", "@spider": "usps_collection_boxes", "addr:city": "MADERA", "addr:country": "US", "addr:full": "748 N D ST", "addr:postcode": "93638", "addr:state": "CA", "amenity": "post_box", "brand": "United States Postal Service", "brand:wikidata": "Q668687", "collection_times": "Mo-Fr 14:30", "note": "ON 12/24 AND 12/31, THIS BOX MAY BE COLLECTED AS EARLY AS 12 NOON.", "nsi_id": "unitedstatespostalservice-a77078", "operator": "United States Postal Service", "operator:short": "USPS", "operator:type": "public", "operator:wikidata": "Q668687", "ref": "9363800008"}, "type": "Feature"}
{"geometry": {"coordinates": [-120.074156, 36.996791], "type": "Point"}, "id": "JurQU2109LU0SxAker1DkG7qt4U=", "properties": {"@source_uri": "https://tools.usps.com/UspsToolsRestServices/rest/POLocator/findLocations", "@spider": "usps_collection_boxes", "addr:city": "MADERA", "addr:country": "US", "addr:full": "17035 ROAD 26", "addr:postcode": "93638", "addr:state": "CA", "amenity": "post_box", "brand": "United States Postal Service", "brand:wikidata": "Q668687", "collection_times": "Mo-Fr 15:00", "note": "ON 12/24 AND 12/31, THIS BOX MAY BE COLLECTED AS EARLY AS 12 NOON.", "nsi_id": "unitedstatespostalservice-a77078", "operator": "United States Postal Service", "operator:short": "USPS", "operator:type": "public", "operator:wikidata": "Q668687", "ref": "9363800016"}, "type": "Feature"}
{"geometry": {"coordinates": [-120.056982, 36.961961], "type": "Point"}, "id": "5bnzWvSjvqeFnx-Vhy09oZoR3kc=", "properties": {"@source_uri": "https://tools.usps.com/UspsToolsRestServices/rest/POLocator/findLocations", "@spider": "usps_collection_boxes", "addr:city": "MADERA", "addr:country": "US", "addr:full": "201 S D ST", "addr:postcode": "93638", "addr:state": "CA", "amenity": "post_box", "brand": "United States Postal Service", "brand:wikidata": "Q668687", "collection_times": "Mo-Fr 17:00; Sa 15:00", "note": "ON 12/24 AND 12/31, THIS BOX MAY BE COLLECTED AS EARLY AS 12 NOON.", "nsi_id": "unitedstatespostalservice-a77078", "operator": "United States Postal Service", "operator:short": "USPS", "operator:type": "public", "operator:wikidata": "Q668687", "ref": "9363800018"}, "type": "Feature"}
{"geometry": {"coordinates": [-119.871999, 36.923151], "type": "Point"}, "id": "ABTKIdnZzaf8obEG5RG0uZZH1o8=", "properties": {"@source_uri": "https://tools.usps.com/UspsToolsRestServices/rest/POLocator/findLocations", "@spider": "usps_collection_boxes", "addr:city": "MADERA", "addr:country": "US", "addr:full": "37221 AVENUE 12", "addr:postcode": "93638", "addr:state": "CA", "amenity": "post_box", "brand": "United States Postal Service", "brand:wikidata": "Q668687", "collection_times": "Mo-Sa 11:00", "nsi_id": "unitedstatespostalservice-a77078", "operator": "United States Postal Service", "operator:short": "USPS", "operator:type": "public", "operator:wikidata": "Q668687", "ref": "9363800022"}, "type": "Feature"}
{"geometry": {"coordinates": [-120.080282, 36.952621], "type": "Point"}, "id": "at1CyGChTIgnZCpUnqjGs0INcu0=", "properties": {"@source_uri": "https://tools.usps.com/UspsToolsRestServices/rest/POLocator/findLocations", "@spider": "usps_collection_boxes", "addr:city": "MADERA", "addr:country": "US", "addr:full": "1820 HOWARD RD", "addr:postcode": "93638", "addr:state": "CA", "amenity": "post_box", "brand": "United States Postal Service", "brand:wikidata": "Q668687", "collection_times": "Mo-Fr 15:00", "note": "ON 12/24 AND 12/31, THIS BOX MAY BE COLLECTED AS EARLY AS 12 NOON.", "nsi_id": "unitedstatespostalservice-a77078", "operator": "United States Postal Service", "operator:short": "USPS", "operator:type": "public", "operator:wikidata": "Q668687", "ref": "9363800027"}, "type": "Feature"}
{"geometry": {"coordinates": [-120.133357, 37.019132], "type": "Point"}, "id": "bP1HC0cWAk_sIgMUk16JVxO6nwE=", "properties": {"@source_uri": "https://tools.usps.com/UspsToolsRestServices/rest/POLocator/findLocations", "@spider": "usps_collection_boxes", "addr:city": "MADERA", "addr:country": "US", "addr:full": "22717 AVENUE 18 1/2", "addr:postcode": "93638", "addr:state": "CA", "amenity": "post_box", "brand": "United States Postal Service", "brand:wikidata": "Q668687", "collection_times": "Mo-Sa 09:00", "nsi_id": "unitedstatespostalservice-a77078", "operator": "United States Postal Service", "operator:short": "USPS", "operator:type": "public", "operator:wikidata": "Q668687", "ref": "9363800028"}, "type": "Feature"}
{"geometry": {"coordinates": [-120.056984, 36.96196], "type": "Point"}, "id": "neegqy9OkoIxVIzhACLz7ueWnz0=", "properties": {"@source_uri": "https://tools.usps.com/UspsToolsRestServices/rest/POLocator/findLocations", "@spider": "usps_collection_boxes", "addr:city": "MADERA", "addr:country": "US", "addr:full": "201 S D ST", "addr:postcode": "93638", "addr:state": "CA", "amenity": "post_box", "brand": "United States Postal Service", "brand:wikidata": "Q668687", "collection_times": "Mo-Fr 17:00; Sa 15:00", "note": "ON 12/24 AND 12/31, THIS BOX MAY BE COLLECTED AS EARLY AS 12 NOON.", "nsi_id": "unitedstatespostalservice-a77078", "operator": "United States Postal Service", "operator:short": "USPS", "operator:type": "public", "operator:wikidata": "Q668687", "ref": "9363800031"}, "type": "Feature"}
{"geometry": {"coordinates": [-120.056957, 36.961983], "type": "Point"}, "id": "hTb--_ACm52tFPlOlzn9pEXdz6c=", "properties": {"@source_uri": "https://tools.usps.com/UspsToolsRestServices/rest/POLocator/findLocations", "@spider": "usps_collection_boxes", "addr:city": "MADERA", "addr:country": "US", "addr:full": "201 S D ST", "addr:postcode": "93638", "addr:state": "CA", "amenity": "post_box", "brand": "United States Postal Service", "brand:wikidata": "Q668687", "collection_times": "Mo-Fr 17:00; Sa 15:00", "note": "ON 12/24 AND 12/31, THIS BOX MAY BE COLLECTED AS EARLY AS 12 NOON.", "nsi_id": "unitedstatespostalservice-a77078", "operator": "United States Postal Service", "operator:short": "USPS", "operator:type": "public", "operator:wikidata": "Q668687", "ref": "9363800032"}, "type": "Feature"}
{"geometry": {"coordinates": [-120.070522, 36.963016], "type": "Point"}, "id": "mezA90FNrGuWYMgv9afgx0-W_Ms=", "properties": {"@source_uri": "https://tools.usps.com/UspsToolsRestServices/rest/POLocator/findLocations", "@spider": "usps_collection_boxes", "addr:city": "MADERA", "addr:country": "US", "addr:full": "153 N PARK DR", "addr:postcode": "93638", "addr:state": "CA", "amenity": "post_box", "brand": "United States Postal Service", "brand:wikidata": "Q668687", "collection_times": "Mo-Fr 15:00", "note": "ON 12/24 AND 12/31, THIS BOX MAY BE COLLECTED AS EARLY AS 12 NOON.", "nsi_id": "unitedstatespostalservice-a77078", "operator": "United States Postal Service", "operator:short": "USPS", "operator:type": "public", "operator:wikidata": "Q668687", "ref": "9363800036"}, "type": "Feature"}
{"geometry": {"coordinates": [-120.057028, 36.961555], "type": "Point"}, "id": "nFGv4IDUG0wl6uQ9LR8mP9-xM2o=", "properties": {"@source_uri": "https://tools.usps.com/UspsToolsRestServices/rest/POLocator/findLocations", "@spider": "usps_collection_boxes", "addr:city": "MADERA", "addr:country": "US", "addr:full": "201 S D ST", "addr:postcode": "93638", "addr:state": "CA", "amenity": "post_box", "brand": "United States Postal Service", "brand:wikidata": "Q668687", "collection_times": "Mo-Fr 17:00; Sa 15:00", "indoor": "yes", "note": "ON 12/24 AND 12/31, THIS BOX MAY BE COLLECTED AS EARLY AS 12 NOON.", "nsi_id": "unitedstatespostalservice-a77078", "operator": "United States Postal Service", "operator:short": "USPS", "operator:type": "public", "operator:wikidata": "Q668687", "ref": "9363800037"}, "type": "Feature"}
{"geometry": {"coordinates": [-120.074097, 36.97644], "type": "Point"}, "id": "3nZXRh15lNUT-Q0pjMQ4zyoesLg=", "properties": {"@source_uri": "https://tools.usps.com/UspsToolsRestServices/rest/POLocator/findLocations", "@spider": "usps_collection_boxes", "addr:city": "MADERA", "addr:country": "US", "addr:full": "1157 COUNTRY CLUB DR", "addr:postcode": "93638", "addr:state": "CA", "amenity": "post_box", "brand": "United States Postal Service", "brand:wikidata": "Q668687", "collection_times": "Mo-Fr 15:00", "note": "ON 12/24 AND 12/31, THIS BOX MAY BE COLLECTED AS EARLY AS 12 NOON.", "nsi_id": "unitedstatespostalservice-a77078", "operator": "United States Postal Service", "operator:short": "USPS", "operator:type": "public", "operator:wikidata": "Q668687", "ref": "9363800040"}, "type": "Feature"}
{"geometry": {"coordinates": [-120.074647, 36.998688], "type": "Point"}, "id": "FO-L4kgFjBcEhaxh9YfYaORA0z0=", "properties": {"@source_uri": "https://tools.usps.com/UspsToolsRestServices/rest/POLocator/findLocations", "@spider": "usps_collection_boxes", "addr:city": "MADERA", "addr:country": "US", "addr:full": "17170 ROAD 26", "addr:postcode": "93638", "addr:state": "CA", "amenity": "post_box", "brand": "United States Postal Service", "brand:wikidata": "Q668687", "collection_times": "Mo-Sa 10:00", "nsi_id": "unitedstatespostalservice-a77078", "operator": "United States Postal Service", "operator:short": "USPS", "operator:type": "public", "operator:wikidata": "Q668687", "ref": "9363800045"}, "type": "Feature"}
{"geometry": {"coordinates": [-120.057421292, 36.961671316], "type": "Point"}, "id": "-WsAk4x3L9XqaQgq6wqEfbKl1JU=", "properties": {"@source_uri": "https://tools.usps.com/UspsToolsRestServices/rest/POLocator/findLocations", "@spider": "usps_collection_boxes", "addr:city": "MADERA", "addr:country": "US", "addr:full": "201 S D ST", "addr:postcode": "93638", "addr:state": "CA", "amenity": "post_box", "brand": "United States Postal Service", "brand:wikidata": "Q668687", "collection_times": "Mo-Fr 17:00", "indoor": "yes", "note": "ON 12/24 AND 12/31, THIS BOX MAY BE COLLECTED AS EARLY AS 12 NOON.", "nsi_id": "unitedstatespostalservice-a77078", "operator": "United States Postal Service", "operator:short": "USPS", "operator:type": "public", "operator:wikidata": "Q668687", "ref": "9363800048"}, "type": "Feature"}
{"geometry": {"coordinates": [-120.380461, 36.755488], "type": "Point"}, "id": "NzF5VLaEBokX6wona6MplS3Jotk=", "properties": {"@source_uri": "https://tools.usps.com/UspsToolsRestServices/rest/POLocator/findLocations", "@spider": "usps_collection_boxes", "addr:city": "MENDOTA", "addr:country": "US", "addr:full": "655 OLLER ST", "addr:postcode": "93640", "addr:state": "CA", "amenity": "post_box", "brand": "United States Postal Service", "brand:wikidata": "Q668687", "collection_times": "Mo-Fr 16:30; Sa 15:00", "note": "ON 12/24 AND 12/31, THIS BOX MAY BE COLLECTED AS EARLY AS 12 NOON.", "nsi_id": "unitedstatespostalservice-a77078", "operator": "United States Postal Service", "operator:short": "USPS", "operator:type": "public", "operator:wikidata": "Q668687", "ref": "9364000001"}, "type": "Feature"}
{"geometry": {"coordinates": [-120.380456, 36.755445], "type": "Point"}, "id": "e5Y5dexQgJNH8XpjtiIVI50Spzo=", "properties": {"@source_uri": "https://tools.usps.com/UspsToolsRestServices/rest/POLocator/findLocations", "@spider": "usps_collection_boxes", "addr:city": "MENDOTA", "addr:country": "US", "addr:full": "655 OLLER ST", "addr:postcode": "93640", "addr:state": "CA", "amenity": "post_box", "brand": "United States Postal Service", "brand:wikidata": "Q668687", "collection_times": "Mo-Fr 16:30; Sa 15:00", "indoor": "yes", "note": "ON 12/24 AND 12/31, THIS BOX MAY BE COLLECTED AS EARLY AS 12 NOON.", "nsi_id": "unitedstatespostalservice-a77078", "operator": "United States Postal Service", "operator:short": "USPS", "operator:type": "public", "operator:wikidata": "Q668687", "ref": "9364000005"}, "type": "Feature"}
{"geometry": {"coordinates": [-120.380456, 36.755445], "type": "Point"}, "id": "fog7IhlIBFYuvxtOxshKLduoEdg=", "properties": {"@source_uri": "https://tools.usps.com/UspsToolsRestServices/rest/POLocator/findLocations", "@spider": "usps_collection_boxes", "addr:city": "MENDOTA", "addr:country": "US", "addr:full": "655 OLLER ST", "addr:postcode": "93640", "addr:state": "CA", "amenity": "post_box", "brand": "United States Postal Service", "brand:wikidata": "Q668687", "collection_times": "Mo-Fr 16:30; Sa 15:00", "indoor": "yes", "note": "ON 12/24 AND 12/31, THIS BOX MAY BE COLLECTED AS EARLY AS 12 NOON.", "nsi_id": "unitedstatespostalservice-a77078", "operator": "United States Postal Service", "operator:short": "USPS", "operator:type": "public", "operator:wikidata": "Q668687", "ref": "9364000006"}, "type": "Feature"}
{"geometry": {"coordinates": [-120.38065371, 36.755640774], "type": "Point"}, "id": "1d1Mo4v4NM9PBw_RmNW2johlcoQ=", "properties": {"@source_uri": "https://tools.usps.com/UspsToolsRestServices/rest/POLocator/findLocations", "@spider": "usps_collection_boxes", "addr:city": "MENDOTA", "addr:country": "US", "addr:full": "655 OLLER ST", "addr:postcode": "93640", "addr:state": "CA", "amenity": "post_box", "brand": "United States Postal Service", "brand:wikidata": "Q668687", "collection_times": "Mo-Fr 16:00", "indoor": "yes", "note": "ON 12/24 AND 12/31, THIS BOX MAY BE COLLECTED AS EARLY AS 12 NOON.", "nsi_id": "unitedstatespostalservice-a77078", "operator": "United States Postal Service", "operator:short": "USPS", "operator:type": "public", "operator:wikidata": "Q668687", "ref": "9364000007"}, "type": "Feature"}
{"geometry": {"coordinates": [-119.014341, 36.697327], "type": "Point"}, "id": "8RSSOBuYW8NXUAwOxDU_lakniUI=", "properties": {"@source_uri": "https://tools.usps.com/UspsToolsRestServices/rest/POLocator/findLocations", "@spider": "usps_collection_boxes", "addr:city": "MIRAMONTE", "addr:country": "US", "addr:full": "53830 N HIGHWAY 245", "addr:postcode": "93641", "addr:state": "CA", "amenity": "post_box", "brand": "United States Postal Service", "brand:wikidata": "Q668687", "collection_times": "Mo-Fr 11:30", "nsi_id": "unitedstatespostalservice-a77078", "operator": "United States Postal Service", "operator:short": "USPS", "operator:type": "public", "operator:wikidata": "Q668687", "ref": "9364100002"}, "type": "Feature"}
{"geometry": {"coordinates": [-119.051945, 36.692193], "type": "Point"}, "id": "fjYfLRZ6q9qEPbTd9wgLS9Pd8io=", "properties": {"@source_uri": "https://tools.usps.com/UspsToolsRestServices/rest/POLocator/findLocations", "@spider": "usps_collection_boxes", "addr:city": "MIRAMONTE", "addr:country": "US", "addr:full": "46039 DUNLAP RD", "addr:postcode": "93641", "addr:state": "CA", "amenity": "post_box", "brand": "United States Postal Service", "brand:wikidata": "Q668687", "collection_times": "Mo-Fr 13:25; Sa 09:00", "indoor": "yes", "note": "ON 12/24 AND 12/31, THIS BOX MAY BE COLLECTED AS EARLY AS 12 NOON.", "nsi_id": "unitedstatespostalservice-a77078", "operator": "United States Postal Service", "operator:short": "USPS", "operator:type": "public", "operator:wikidata": "Q668687", "ref": "9364100004"}, "type": "Feature"}
{"geometry": {"coordinates": [-118.963181, 36.740761], "type": "Point"}, "id": "z44zt-XYyl2WzVq9Sq8ocEOxCAA=", "properties": {"@source_uri": "https://tools.usps.com/UspsToolsRestServices/rest/POLocator/findLocations", "@spider": "usps_collection_boxes", "addr:city": "MIRAMONTE", "addr:country": "US", "addr:full": "86724 HIGHWAY 180", "addr:postcode": "93641", "addr:state": "CA", "amenity": "post_box", "brand": "United States Postal Service", "brand:wikidata": "Q668687", "collection_times": "Mo-Fr 11:30", "indoor": "yes", "nsi_id": "unitedstatespostalservice-a77078", "operator": "United States Postal Service", "operator:short": "USPS", "operator:type": "public", "operator:wikidata": "Q668687", "ref": "9364100005"}, "type": "Feature"}
{"geometry": {"coordinates": [-118.956511, 36.65112], "type": "Point"}, "id": "EfFV6we6bAM3vnKQLM89p3iiD-0=", "properties": {"@source_uri": "https://tools.usps.com/UspsToolsRestServices/rest/POLocator/findLocations", "@spider": "usps_collection_boxes", "addr:city": "MIRAMONTE", "addr:country": "US", "addr:full": "57611 ESHOM VALLEY DR", "addr:postcode": "93641", "addr:state": "CA", "amenity": "post_box", "brand": "United States Postal Service", "brand:wikidata": "Q668687", "collection_times": "Mo-Fr 10:00", "nsi_id": "unitedstatespostalservice-a77078", "operator": "United States Postal Service", "operator:short": "USPS", "operator:type": "public", "operator:wikidata": "Q668687", "ref": "9364100006"}, "type": "Feature"}
{"geometry": {"coordinates": [-118.91403, 36.787243], "type": "Point"}, "id": "Su8hC52Ulr5yH0SsLSAWWtMDCWc=", "properties": {"@source_uri": "https://tools.usps.com/UspsToolsRestServices/rest/POLocator/findLocations", "@spider": "usps_collection_boxes", "addr:city": "MIRAMONTE", "addr:country": "US", "addr:full": "64144 HUME LAKE RD", "addr:postcode": "93641", "addr:state": "CA", "amenity": "post_box", "brand": "United States Postal Service", "brand:wikidata": "Q668687", "collection_times": "Mo-Fr 10:30", "nsi_id": "unitedstatespostalservice-a77078", "operator": "United States Postal Service", "operator:short": "USPS", "operator:type": "public", "operator:wikidata": "Q668687", "ref": "9364100008"}, "type": "Feature"}
{"geometry": {"coordinates": [-119.052209519, 36.692315354], "type": "Point"}, "id": "vmhAA4vw8I0kBHqFgONclnddGmQ=", "properties": {"@source_uri": "https://tools.usps.com/UspsToolsRestServices/rest/POLocator/findLocations", "@spider": "usps_collection_boxes", "addr:city": "MIRAMONTE", "addr:country": "US", "addr:full": "46039 DUNLAP RD", "addr:postcode": "93641", "addr:state": "CA", "amenity": "post_box", "brand": "United States Postal Service", "brand:wikidata": "Q668687", "collection_times": "Mo-Fr 14:30", "indoor": "yes", "note": "ON 12/24 AND 12/31, THIS BOX MAY BE COLLECTED AS EARLY AS 12 NOON.", "nsi_id": "unitedstatespostalservice-a77078", "operator": "United States Postal Service", "operator:short": "USPS", "operator:type": "public", "operator:wikidata": "Q668687", "ref": "9364100009"}, "type": "Feature"}
{"geometry": {"coordinates": [-119.510207, 37.229948], "type": "Point"}, "id": "RiujKlj_o-UOPiCv2B0dXrjVjxQ=", "properties": {"@source_uri": "https://tools.usps.com/UspsToolsRestServices/rest/POLocator/findLocations", "@spider": "usps_collection_boxes", "addr:city": "NORTH FORK", "addr:country": "US", "addr:full": "33173 ROAD 222", "addr:postcode": "93643", "addr:state": "CA", "amenity": "post_box", "brand": "United States Postal Service", "brand:wikidata": "Q668687", "collection_times": "Mo-Fr 15:00; Sa 11:00", "note": "ON 12/24 AND 12/31, THIS BOX MAY BE COLLECTED AS EARLY AS 12 NOON.", "nsi_id": "unitedstatespostalservice-a77078", "operator": "United States Postal Service", "operator:short": "USPS", "operator:type": "public", "operator:wikidata": "Q668687", "ref": "9364300000"}, "type": "Feature"}
{"geometry": {"coordinates": [-119.510158, 37.229878], "type": "Point"}, "id": "7XSFhWREXguN01UpujQFKeKf6LU=", "properties": {"@source_uri": "https://tools.usps.com/UspsToolsRestServices/rest/POLocator/findLocations", "@spider": "usps_collection_boxes", "addr:city": "NORTH FORK", "addr:country": "US", "addr:full": "33173 ROAD 222", "addr:postcode": "93643", "addr:state": "CA", "amenity": "post_box", "brand": "United States Postal Service", "brand:wikidata": "Q668687", "collection_times": "Mo-Fr 15:15; Sa 11:00", "indoor": "yes", "note": "ON 12/24 AND 12/31, THIS BOX MAY BE COLLECTED AS EARLY AS 12 NOON.", "nsi_id": "unitedstatespostalservice-a77078", "operator": "United States Postal Service", "operator:short": "USPS", "operator:type": "public", "operator:wikidata": "Q668687", "ref": "9364300001"}, "type": "Feature"}
{"geometry": {"coordinates": [-119.510158, 37.229878], "type": "Point"}, "id": "4VSh7YsSdp4XIWepLRlWb0LU8pU=", "properties": {"@source_uri": "https://tools.usps.com/UspsToolsRestServices/rest/POLocator/findLocations", "@spider": "usps_collection_boxes", "addr:city": "NORTH FORK", "addr:country": "US", "addr:full": "33173 ROAD 222", "addr:postcode": "93643", "addr:state": "CA", "amenity": "post_box", "brand": "United States Postal Service", "brand:wikidata": "Q668687", "collection_times": "Mo-Fr 15:15; Sa 11:00", "indoor": "yes", "note": "ON 12/24 AND 12/31, THIS BOX MAY BE COLLECTED AS EARLY AS 12 NOON.", "nsi_id": "unitedstatespostalservice-a77078", "operator": "United States Postal Service", "operator:short": "USPS", "operator:type": "public", "operator:wikidata": "Q668687", "ref": "9364300002"}, "type": "Feature"}
{"geometry": {"coordinates": [-119.510158, 37.229878], "type": "Point"}, "id": "Mu-n6b02CjOEkS74tmYaLh4TFUY=", "properties": {"@source_uri": "https://tools.usps.com/UspsToolsRestServices/rest/POLocator/findLocations", "@spider": "usps_collection_boxes", "addr:city": "NORTH FORK", "addr:country": "US", "addr:full": "33173 ROAD 222", "addr:postcode": "93643", "addr:state": "CA", "amenity": "post_box", "brand": "United States Postal Service", "brand:wikidata": "Q668687", "collection_times": "Mo-Fr 15:15; Sa 11:00", "indoor": "yes", "note": "ON 12/24 AND 12/31, THIS BOX MAY BE COLLECTED AS EARLY AS 12 NOON.", "nsi_id": "unitedstatespostalservice-a77078", "operator": "United States Postal Service", "operator:short": "USPS", "operator:type": "public", "operator:wikidata": "Q668687", "ref": "9364300003"}, "type": "Feature"}
{"geometry": {"coordinates": [-119.510364377, 37.230047064], "type": "Point"}, "id": "Yr5BW3YlBBvA8LUYbEgyuKlHkfc=", "properties": {"@source_uri": "https://tools.usps.com/UspsToolsRestServices/rest/POLocator/findLocations", "@spider": "usps_collection_boxes", "addr:city": "NORTH FORK", "addr:country": "US", "addr:full": "33173 ROAD 222", "addr:postcode": "93643", "addr:state": "CA", "amenity": "post_box", "brand": "United States Postal Service", "brand:wikidata": "Q668687", "collection_times": "Mo-Fr 15:15", "indoor": "yes", "note": "ON 12/24 AND 12/31, THIS BOX MAY BE COLLECTED AS EARLY AS 12 NOON.", "nsi_id": "unitedstatespostalservice-a77078", "operator": "United States Postal Service", "operator:short": "USPS", "operator:type": "public", "operator:wikidata": "Q668687", "ref": "9364300004"}, "type": "Feature"}
{"geometry": {"coordinates": [-119.650361, 37.330138], "type": "Point"}, "id": "BpP3-c2nv2aayREp6GSERP6sNiU=", "properties": {"@source_uri": "https://tools.usps.com/UspsToolsRestServices/rest/POLocator/findLocations", "@spider": "usps_collection_boxes", "addr:city": "OAKHURST", "addr:country": "US", "addr:full": "49165 ROAD 426", "addr:postcode": "93644", "addr:state": "CA", "amenity": "post_box", "brand": "United States Postal Service", "brand:wikidata": "Q668687", "collection_times": "Mo-Sa 10:15", "nsi_id": "unitedstatespostalservice-a77078", "operator": "United States Postal Service", "operator:short": "USPS", "operator:type": "public", "operator:wikidata": "Q668687", "ref": "9364400004"}, "type": "Feature"}
{"geometry": {"coordinates": [-119.660259, 37.331137], "type": "Point"}, "id": "UhCpnydWit0wxDJs7qBZtLs401k=", "properties": {"@source_uri": "https://tools.usps.com/UspsToolsRestServices/rest/POLocator/findLocations", "@spider": "usps_collection_boxes", "addr:city": "OAKHURST", "addr:country": "US", "addr:full": "40064 HIGHWAY 49", "addr:postcode": "93644", "addr:state": "CA", "amenity": "post_box", "brand": "United States Postal Service", "brand:wikidata": "Q668687", "collection_times": "Mo-Fr 15:30; Sa 12:00", "note": "ON 12/24 AND 12/31, THIS BOX MAY BE COLLECTED AS EARLY AS 12 NOON.", "nsi_id": "unitedstatespostalservice-a77078", "operator": "United States Postal Service", "operator:short": "USPS", "operator:type": "public", "operator:wikidata": "Q668687", "ref": "9364400006"}, "type": "Feature"}
{"geometry": {"coordinates": [-119.660259, 37.331137], "type": "Point"}, "id": "LhmuAIauIS49tI4iCnfhQeOD6Do=", "properties": {"@source_uri": "https://tools.usps.com/UspsToolsRestServices/rest/POLocator/findLocations", "@spider": "usps_collection_boxes", "addr:city": "OAKHURST", "addr:country": "US", "addr:full": "40064 HIGHWAY 49", "addr:postcode": "93644", "addr:state": "CA", "amenity": "post_box", "brand": "United States Postal Service", "brand:wikidata": "Q668687", "collection_times": "Mo-Fr 15:30; Sa 12:00", "note": "ON 12/24 AND 12/31, THIS BOX MAY BE COLLECTED AS EARLY AS 12 NOON.", "nsi_id": "unitedstatespostalservice-a77078", "operator": "United States Postal Service", "operator:short": "USPS", "operator:type": "public", "operator:wikidata": "Q668687", "ref": "9364400007"}, "type": "Feature"}
{"geometry": {"coordinates": [-119.660259, 37.331137], "type": "Point"}, "id": "Il7dn7ORR-bFiyIG_HNLCgRSdeY=", "properties": {"@source_uri": "https://tools.usps.com/UspsToolsRestServices/rest/POLocator/findLocations", "@spider": "usps_collection_boxes", "addr:city": "OAKHURST", "addr:country": "US", "addr:full": "40064 HIGHWAY 49", "addr:postcode": "93644", "addr:state": "CA", "amenity": "post_box", "brand": "United States Postal Service", "brand:wikidata": "Q668687", "collection_times": "Mo-Fr 15:30; Sa 12:00", "indoor": "yes", "note": "ON 12/24 AND 12/31, THIS BOX MAY BE COLLECTED AS EARLY AS 12 NOON.", "nsi_id": "unitedstatespostalservice-a77078", "operator": "United States Postal Service", "operator:short": "USPS", "operator:type": "public", "operator:wikidata": "Q668687", "ref": "9364400010"}, "type": "Feature"}
{"geometry": {"coordinates": [-119.660259, 37.331137], "type": "Point"}, "id": "yWBoLQS16tQXJXTz-8VtXMRU8pk=", "properties": {"@source_uri": "https://tools.usps.com/UspsToolsRestServices/rest/POLocator/findLocations", "@spider": "usps_collection_boxes", "addr:city": "OAKHURST", "addr:country": "US", "addr:full": "40064 HIGHWAY 49", "addr:postcode": "93644", "addr:state": "CA", "amenity": "post_box", "brand": "United States Postal Service", "brand:wikidata": "Q668687", "collection_times": "Mo-Fr 15:30; Sa 12:00", "indoor": "yes", "note": "ON 12/24 AND 12/31, THIS BOX MAY BE COLLECTED AS EARLY AS 12 NOON.", "nsi_id": "unitedstatespostalservice-a77078", "operator": "United States Postal Service", "operator:short": "USPS", "operator:type": "public", "operator:wikidata": "Q668687", "ref": "9364400011"}, "type": "Feature"}
{"geometry": {"coordinates": [-119.660259, 37.331137], "type": "Point"}, "id": "1UYgDLgxxXNYXxMtLVGaCK__2uU=", "properties": {"@source_uri": "https://tools.usps.com/UspsToolsRestServices/rest/POLocator/findLocations", "@spider": "usps_collection_boxes", "addr:city": "OAKHURST", "addr:country": "US", "addr:full": "40064 HIGHWAY 49", "addr:postcode": "93644", "addr:state": "CA", "amenity": "post_box", "brand": "United States Postal Service", "brand:wikidata": "Q668687", "collection_times": "Mo-Fr 15:30; Sa 12:00", "indoor": "yes", "note": "ON 12/24 AND 12/31, THIS BOX MAY BE COLLECTED AS EARLY AS 12 NOON.", "nsi_id": "unitedstatespostalservice-a77078", "operator": "United States Postal Service", "operator:short": "USPS", "operator:type": "public", "operator:wikidata": "Q668687", "ref": "9364400012"}, "type": "Feature"}
{"geometry": {"coordinates": [-119.658819596, 37.332613092], "type": "Point"}, "id": "0LnCF4MfY3xttONTM7InF8fscQM=", "properties": {"@source_uri": "https://tools.usps.com/UspsToolsRestServices/rest/POLocator/findLocations", "@spider": "usps_collection_boxes", "addr:city": "OAKHURST", "addr:country": "US", "addr:full": "40064 HIGHWAY 49", "addr:postcode": "93644", "addr:state": "CA", "amenity": "post_box", "brand": "United States Postal Service", "brand:wikidata": "Q668687", "collection_times": "Mo-Fr 15:15; Sa 12:00", "indoor": "yes", "note": "ON 12/24 AND 12/31, THIS BOX MAY BE COLLECTED AS EARLY AS 12 NOON.", "nsi_id": "unitedstatespostalservice-a77078", "operator": "United States Postal Service", "operator:short": "USPS", "operator:type": "public", "operator:wikidata": "Q668687", "ref": "9364400014"}, "type": "Feature"}
{"geometry": {"coordinates": [-119.694653, 37.128076], "type": "Point"}, "id": "TF8Xw9WVZCm8O9hbAWP2jzEj2LU=", "properties": {"@source_uri": "https://tools.usps.com/UspsToolsRestServices/rest/POLocator/findLocations", "@spider": "usps_collection_boxes", "addr:city": "ONEALS", "addr:country": "US", "addr:full": "47065 ROAD 201", "addr:postcode": "93645", "addr:state": "CA", "amenity": "post_box", "brand": "United States Postal Service", "brand:wikidata": "Q668687", "collection_times": "Mo-Fr 15:15; Sa 11:00", "note": "ON 12/24 AND 12/31, THIS BOX MAY BE COLLECTED AS EARLY AS 12 NOON.", "nsi_id": "unitedstatespostalservice-a77078", "operator": "United States Postal Service", "operator:short": "USPS", "operator:type": "public", "operator:wikidata": "Q668687", "ref": "9364500001"}, "type": "Feature"}
{"geometry": {"coordinates": [-119.694653, 37.128076], "type": "Point"}, "id": "I94DGmupcfXPu6CIAExKhf7xvZs=", "properties": {"@source_uri": "https://tools.usps.com/UspsToolsRestServices/rest/POLocator/findLocations", "@spider": "usps_collection_boxes", "addr:city": "ONEALS", "addr:country": "US", "addr:full": "47065 ROAD 201", "addr:postcode": "93645", "addr:state": "CA", "amenity": "post_box", "brand": "United States Postal Service", "brand:wikidata": "Q668687", "collection_times": "Mo-Fr 15:15; Sa 11:00", "indoor": "yes", "note": "ON 12/24 AND 12/31, THIS BOX MAY BE COLLECTED AS EARLY AS 12 NOON.", "nsi_id": "unitedstatespostalservice-a77078", "operator": "United States Postal Service", "operator:short": "USPS", "operator:type": "public", "operator:wikidata": "Q668687", "ref": "9364500002"}, "type": "Feature"}
{"geometry": {"coordinates": [-119.694649797, 37.128164038], "type": "Point"}, "id": "d1bwKKefBzSKR1jbrWzI3SoMS8g=", "properties": {"@source_uri": "https://tools.usps.com/UspsToolsRestServices/rest/POLocator/findLocations", "@spider": "usps_collection_boxes", "addr:city": "ONEALS", "addr:country": "US", "addr:full": "47065 ROAD 201", "addr:postcode": "93645", "addr:state": "CA", "amenity": "post_box", "brand": "United States Postal Service", "brand:wikidata": "Q668687", "collection_times": "Mo-Fr 15:30", "indoor": "yes", "note": "ON 12/24 AND 12/31, THIS BOX MAY BE COLLECTED AS EARLY AS 12 NOON.", "nsi_id": "unitedstatespostalservice-a77078", "operator": "United States Postal Service", "operator:short": "USPS", "operator:type": "public", "operator:wikidata": "Q668687", "ref": "9364500003"}, "type": "Feature"}
{"geometry": {"coordinates": [-119.311874, 36.624621], "type": "Point"}, "id": "57z0NCMmiZIiKUSW3jWlh_MVEbo=", "properties": {"@source_uri": "https://tools.usps.com/UspsToolsRestServices/rest/POLocator/findLocations", "@spider": "usps_collection_boxes", "addr:city": "ORANGE COVE", "addr:country": "US", "addr:full": "550 PARK BLVD", "addr:postcode": "93646", "addr:state": "CA", "amenity": "post_box", "brand": "United States Postal Service", "brand:wikidata": "Q668687", "collection_times": "Mo-Fr 15:55; Sa 15:00", "note": "ON 12/24 AND 12/31, THIS BOX MAY BE COLLECTED AS EARLY AS 12 NOON.", "nsi_id": "unitedstatespostalservice-a77078", "operator": "United States Postal Service", "operator:short": "USPS", "operator:type": "public", "operator:wikidata": "Q668687", "ref": "9364600002"}, "type": "Feature"}
{"geometry": {"coordinates": [-119.311812, 36.624648], "type": "Point"}, "id": "LFSTU2-5DX-2UwG4zVDsXHajh7A=", "properties": {"@source_uri": "https://tools.usps.com/UspsToolsRestServices/rest/POLocator/findLocations", "@spider": "usps_collection_boxes", "addr:city": "ORANGE COVE", "addr:country": "US", "addr:full": "550 PARK BLVD", "addr:postcode": "93646", "addr:state": "CA", "amenity": "post_box", "brand": "United States Postal Service", "brand:wikidata": "Q668687", "collection_times": "Mo-Fr 15:30; Sa 15:00", "indoor": "yes", "note": "ON 12/24 AND 12/31, THIS BOX MAY BE COLLECTED AS EARLY AS 12 NOON.", "nsi_id": "unitedstatespostalservice-a77078", "operator": "United States Postal Service", "operator:short": "USPS", "operator:type": "public", "operator:wikidata": "Q668687", "ref": "9364600003"}, "type": "Feature"}
{"geometry": {"coordinates": [-119.311762249, 36.624566523], "type": "Point"}, "id": "HQ85FaDRvcNF1wRFB9pZs2XU-1M=", "properties": {"@source_uri": "https://tools.usps.com/UspsToolsRestServices/rest/POLocator/findLocations", "@spider": "usps_collection_boxes", "addr:city": "ORANGE COVE", "addr:country": "US", "addr:full": "550 PARK BLVD", "addr:postcode": "93646", "addr:state": "CA", "amenity": "post_box", "brand": "United States Postal Service", "brand:wikidata": "Q668687", "collection_times": "Mo-Fr 16:00", "indoor": "yes", "note": "ON 12/24 AND 12/31, THIS BOX MAY BE COLLECTED AS EARLY AS 12 NOON.", "nsi_id": "unitedstatespostalservice-a77078", "operator": "United States Postal Service", "operator:short": "USPS", "operator:type": "public", "operator:wikidata": "Q668687", "ref": "9364600004"}, "type": "Feature"}
{"geometry": {"coordinates": [-119.286882, 36.539682], "type": "Point"}, "id": "hrLWEmSvoE9uCXz7baBpLa31nWU=", "properties": {"@source_uri": "https://tools.usps.com/UspsToolsRestServices/rest/POLocator/findLocations", "@spider": "usps_collection_boxes", "addr:city": "OROSI", "addr:country": "US", "addr:full": "41323 ROAD 128", "addr:postcode": "93647", "addr:state": "CA", "amenity": "post_box", "brand": "United States Postal Service", "brand:wikidata": "Q668687", "collection_times": "Mo-Fr 16:15; Sa 13:00", "note": "ON 12/24 AND 12/31, THIS BOX MAY BE COLLECTED AS EARLY AS 12 NOON.", "nsi_id": "unitedstatespostalservice-a77078", "operator": "United States Postal Service", "operator:short": "USPS", "operator:type": "public", "operator:wikidata": "Q668687", "ref": "9364700001"}, "type": "Feature"}
{"geometry": {"coordinates": [-119.286882, 36.539682], "type": "Point"}, "id": "jxOcQli13ac7Up3RL-3HDoBi3fc=", "properties": {"@source_uri": "https://tools.usps.com/UspsToolsRestServices/rest/POLocator/findLocations", "@spider": "usps_collection_boxes", "addr:city": "OROSI", "addr:country": "US", "addr:full": "41323 ROAD 128", "addr:postcode": "93647", "addr:state": "CA", "amenity": "post_box", "brand": "United States Postal Service", "brand:wikidata": "Q668687", "collection_times": "Mo-Fr 16:15; Sa 13:00", "indoor": "yes", "note": "ON 12/24 AND 12/31, THIS BOX MAY BE COLLECTED AS EARLY AS 12 NOON.", "nsi_id": "unitedstatespostalservice-a77078", "operator": "United States Postal Service", "operator:short": "USPS", "operator:type": "public", "operator:wikidata": "Q668687", "ref": "9364700002"}, "type": "Feature"}
{"geometry": {"coordinates": [-119.286907912, 36.539670284], "type": "Point"}, "id": "xxSe_Z_CAJlAU-quNwB-ur1HKDk=", "properties": {"@source_uri": "https://tools.usps.com/UspsToolsRestServices/rest/POLocator/findLocations", "@spider": "usps_collection_boxes", "addr:city": "OROSI", "addr:country": "US", "addr:full": "41323 ROAD 128", "addr:postcode": "93647", "addr:state": "CA", "amenity": "post_box", "brand": "United States Postal Service", "brand:wikidata": "Q668687", "collection_times": "Mo-Fr 16:15", "indoor": "yes", "note": "ON 12/24 AND 12/31, THIS BOX MAY BE COLLECTED AS EARLY AS 12 NOON.", "nsi_id": "unitedstatespostalservice-a77078", "operator": "United States Postal Service", "operator:short": "USPS", "operator:type": "public", "operator:wikidata": "Q668687", "ref": "9364700003"}, "type": "Feature"}
{"geometry": {"coordinates": [-119.528166, 36.611368], "type": "Point"}, "id": "AUi_mIgDFa2SUd8vP7JL7cKmd5c=", "properties": {"@source_uri": "https://tools.usps.com/UspsToolsRestServices/rest/POLocator/findLocations", "@spider": "usps_collection_boxes", "addr:city": "PARLIER", "addr:country": "US", "addr:full": "850 E PARLIER AVE", "addr:postcode": "93648", "addr:state": "CA", "amenity": "post_box", "brand": "United States Postal Service", "brand:wikidata": "Q668687", "collection_times": "Mo-Fr 16:00; Sa 13:00", "note": "ON 12/24 AND 12/31, THIS BOX MAY BE COLLECTED AS EARLY AS 12 NOON.", "nsi_id": "unitedstatespostalservice-a77078", "operator": "United States Postal Service", "operator:short": "USPS", "operator:type": "public", "operator:wikidata": "Q668687", "ref": "9364800002"}, "type": "Feature"}
{"geometry": {"coordinates": [-119.528166, 36.611368], "type": "Point"}, "id": "ubHm8rHtQXrXQ3vfOwxTW4haBv8=", "properties": {"@source_uri": "https://tools.usps.com/UspsToolsRestServices/rest/POLocator/findLocations", "@spider": "usps_collection_boxes", "addr:city": "PARLIER", "addr:country": "US", "addr:full": "850 E PARLIER AVE", "addr:postcode": "93648", "addr:state": "CA", "amenity": "post_box", "brand": "United States Postal Service", "brand:wikidata": "Q668687", "collection_times": "Mo-Fr 16:00; Sa 13:00", "indoor": "yes", "note": "ON 12/24 AND 12/31, THIS BOX MAY BE COLLECTED AS EARLY AS 12 NOON.", "nsi_id": "unitedstatespostalservice-a77078", "operator": "United States Postal Service", "operator:short": "USPS", "operator:type": "public", "operator:wikidata": "Q668687", "ref": "9364800003"}, "type": "Feature"}
{"geometry": {"coordinates": [-119.530880445, 36.611662507], "type": "Point"}, "id": "5ZpB1bmw4ftdoPiHgpo3z2exaOE=", "properties": {"@source_uri": "https://tools.usps.com/UspsToolsRestServices/rest/POLocator/findLocations", "@spider": "usps_collection_boxes", "addr:city": "PARLIER", "addr:country": "US", "addr:full": "850 E PARLIER AVE", "addr:postcode": "93648", "addr:state": "CA", "amenity": "post_box", "brand": "United States Postal Service", "brand:wikidata": "Q668687", "collection_times": "Mo-Fr 16:00", "indoor": "yes", "note": "ON 12/24 AND 12/31, THIS BOX MAY BE COLLECTED AS EARLY AS 12 NOON.", "nsi_id": "unitedstatespostalservice-a77078", "operator": "United States Postal Service", "operator:short": "USPS", "operator:type": "public", "operator:wikidata": "Q668687", "ref": "9364800004"}, "type": "Feature"}
{"geometry": {"coordinates": [-119.364905, 36.822906], "type": "Point"}, "id": "Nkh0_UliGGCvuEE4fbeZwkwsiHc=", "properties": {"@source_uri": "https://tools.usps.com/UspsToolsRestServices/rest/POLocator/findLocations", "@spider": "usps_collection_boxes", "addr:city": "PIEDRA", "addr:country": "US", "addr:full": "26284 PINE FLAT RD", "addr:postcode": "93649", "addr:state": "CA", "amenity": "post_box", "brand": "United States Postal Service", "brand:wikidata": "Q668687", "collection_times": "Mo-Sa 11:30", "indoor": "yes", "nsi_id": "unitedstatespostalservice-a77078", "operator": "United States Postal Service", "operator:short": "USPS", "operator:type": "public", "operator:wikidata": "Q668687", "ref": "9364900002"}, "type": "Feature"}
{"geometry": {"coordinates": [-119.337855803, 36.826448053], "type": "Point"}, "id": "cbBn2s2_i9vn6Whybs3lEtINn6M=", "properties": {"@source_uri": "https://tools.usps.com/UspsToolsRestServices/rest/POLocator/findLocations", "@spider": "usps_collection_boxes", "addr:city": "PIEDRA", "addr:country": "US", "addr:full": "26284 PINE FLAT RD", "addr:postcode": "93649", "addr:state": "CA", "amenity": "post_box", "brand": "United States Postal Service", "brand:wikidata": "Q668687", "collection_times": "Mo-Fr 13:30", "indoor": "yes", "note": "ON 12/24 AND 12/31, THIS BOX MAY BE COLLECTED AS EARLY AS 12 NOON.", "nsi_id": "unitedstatespostalservice-a77078", "operator": "United States Postal Service", "operator:short": "USPS", "operator:type": "public", "operator:wikidata": "Q668687", "ref": "9364900003"}, "type": "Feature"}
{"geometry": {"coordinates": [-119.7912260144, 36.8429400152], "type": "Point"}, "id": "enjTfM6cvk37jjD4P64okpfv9t0=", "properties": {"@source_uri": "https://tools.usps.com/UspsToolsRestServices/rest/POLocator/findLocations", "@spider": "usps_collection_boxes", "addr:city": "FRESNO", "addr:country": "US", "addr:full": "34 W MINARETS AVE", "addr:postcode": "93650", "addr:state": "CA", "amenity": "post_box", "brand": "United States Postal Service", "brand:wikidata": "Q668687", "collection_times": "Mo-Fr 16:00; Sa 14:00", "note": "ON 12/24 AND 12/31, THIS BOX MAY BE COLLECTED AS EARLY AS 12 NOON.", "nsi_id": "unitedstatespostalservice-a77078", "operator": "United States Postal Service", "operator:short": "USPS", "operator:type": "public", "operator:wikidata": "Q668687", "ref": "9365000003"}, "type": "Feature"}
{"geometry": {"coordinates": [-119.791226, 36.84287], "type": "Point"}, "id": "R5rpseWQMNNQQu2oSDqt-kFFd9s=", "properties": {"@source_uri": "https://tools.usps.com/UspsToolsRestServices/rest/POLocator/findLocations", "@spider": "usps_collection_boxes", "addr:city": "FRESNO", "addr:country": "US", "addr:full": "34 W MINARETS AVE", "addr:postcode": "93650", "addr:state": "CA", "amenity": "post_box", "brand": "United States Postal Service", "brand:wikidata": "Q668687", "collection_times": "Mo-Fr 16:00", "indoor": "yes", "note": "ON 12/24 AND 12/31, THIS BOX MAY BE COLLECTED AS EARLY AS 12 NOON.", "nsi_id": "unitedstatespostalservice-a77078", "operator": "United States Postal Service", "operator:short": "USPS", "operator:type": "public", "operator:wikidata": "Q668687", "ref": "9365000009"}, "type": "Feature"}
{"geometry": {"coordinates": [-119.791214361, 36.842679512], "type": "Point"}, "id": "9MoQQVDsHuVZHttBcWvkGMVM2jE=", "properties": {"@source_uri": "https://tools.usps.com/UspsToolsRestServices/rest/POLocator/findLocations", "@spider": "usps_collection_boxes", "addr:city": "FRESNO", "addr:country": "US", "addr:full": "34 W MINARETS AVE", "addr:postcode": "93650", "addr:state": "CA", "amenity": "post_box", "brand": "United States Postal Service", "brand:wikidata": "Q668687", "collection_times": "Mo-Fr 16:00", "indoor": "yes", "note": "ON 12/24 AND 12/31, THIS BOX MAY BE COLLECTED AS EARLY AS 12 NOON.", "nsi_id": "unitedstatespostalservice-a77078", "operator": "United States Postal Service", "operator:short": "USPS", "operator:type": "public", "operator:wikidata": "Q668687", "ref": "9365000010"}, "type": "Feature"}
{"geometry": {"coordinates": [-119.5149569974, 37.0377431268], "type": "Point"}, "id": "5v4-YRj5dOsxiH720ohCKZWhuao=", "properties": {"@source_uri": "https://tools.usps.com/UspsToolsRestServices/rest/POLocator/findLocations", "@spider": "usps_collection_boxes", "addr:city": "PRATHER", "addr:country": "US", "addr:full": "29460 AUBERRY RD", "addr:postcode": "93651", "addr:state": "CA", "amenity": "post_box", "brand": "United States Postal Service", "brand:wikidata": "Q668687", "collection_times": "Mo-Fr 15:00; Sa 10:00", "note": "ON 12/24 AND 12/31, THIS BOX MAY BE COLLECTED AS EARLY AS 12 NOON.", "nsi_id": "unitedstatespostalservice-a77078", "operator": "United States Postal Service", "operator:short": "USPS", "operator:type": "public", "operator:wikidata": "Q668687", "ref": "9365100001"}, "type": "Feature"}
{"geometry": {"coordinates": [-119.51511, 37.037841], "type": "Point"}, "id": "eT7jyunG2Zgm1a3B2zCUWJZIdxM=", "properties": {"@source_uri": "https://tools.usps.com/UspsToolsRestServices/rest/POLocator/findLocations", "@spider": "usps_collection_boxes", "addr:city": "PRATHER", "addr:country": "US", "addr:full": "29460 AUBERRY RD", "addr:postcode": "93651", "addr:state": "CA", "amenity": "post_box", "brand": "United States Postal Service", "brand:wikidata": "Q668687", "collection_times": "Mo-Fr 16:00; Sa 10:00", "indoor": "yes", "note": "ON 12/24 AND 12/31, THIS BOX MAY BE COLLECTED AS EARLY AS 12 NOON.", "nsi_id": "unitedstatespostalservice-a77078", "operator": "United States Postal Service", "operator:short": "USPS", "operator:type": "public", "operator:wikidata": "Q668687", "ref": "9365100002"}, "type": "Feature"}
{"geometry": {"coordinates": [-119.515420795, 37.037866542], "type": "Point"}, "id": "koiuiAMlQir0LL_TxePGZCORE28=", "properties": {"@source_uri": "https://tools.usps.com/UspsToolsRestServices/rest/POLocator/findLocations", "@spider": "usps_collection_boxes", "addr:city": "PRATHER", "addr:country": "US", "addr:full": "29460 AUBERRY RD", "addr:postcode": "93651", "addr:state": "CA", "amenity": "post_box", "brand": "United States Postal Service", "brand:wikidata": "Q668687", "collection_times": "Mo-Fr 16:00", "indoor": "yes", "note": "ON 12/24 AND 12/31, THIS BOX MAY BE COLLECTED AS EARLY AS 12 NOON.", "nsi_id": "unitedstatespostalservice-a77078", "operator": "United States Postal Service", "operator:short": "USPS", "operator:type": "public", "operator:wikidata": "Q668687", "ref": "9365100003"}, "type": "Feature"}
{"geometry": {"coordinates": [-119.903464, 36.600729], "type": "Point"}, "id": "GEoAysfey98quLXtlLrskCZqyPo=", "properties": {"@source_uri": "https://tools.usps.com/UspsToolsRestServices/rest/POLocator/findLocations", "@spider": "usps_collection_boxes", "addr:city": "RAISIN CITY", "addr:country": "US", "addr:full": "9221 S ORMUS AVE", "addr:postcode": "93652", "addr:state": "CA", "amenity": "post_box", "brand": "United States Postal Service", "brand:wikidata": "Q668687", "collection_times": "Mo-Fr 16:00; Sa 09:00", "note": "ON 12/24 AND 12/31, THIS BOX MAY BE COLLECTED AS EARLY AS 12 NOON.", "nsi_id": "unitedstatespostalservice-a77078", "operator": "United States Postal Service", "operator:short": "USPS", "operator:type": "public", "operator:wikidata": "Q668687", "ref": "9365200001"}, "type": "Feature"}
{"geometry": {"coordinates": [-119.903464, 36.600729], "type": "Point"}, "id": "4VUcTD7gPMZi3QUtu8S_ZucwfFE=", "properties": {"@source_uri": "https://tools.usps.com/UspsToolsRestServices/rest/POLocator/findLocations", "@spider": "usps_collection_boxes", "addr:city": "RAISIN CITY", "addr:country": "US", "addr:full": "9221 S ORMUS AVE", "addr:postcode": "93652", "addr:state": "CA", "amenity": "post_box", "brand": "United States Postal Service", "brand:wikidata": "Q668687", "collection_times": "Mo-Fr 16:00; Sa 09:00", "indoor": "yes", "note": "ON 12/24 AND 12/31, THIS BOX MAY BE COLLECTED AS EARLY AS 12 NOON.", "nsi_id": "unitedstatespostalservice-a77078", "operator": "United States Postal Service", "operator:short": "USPS", "operator:type": "public", "operator:wikidata": "Q668687", "ref": "9365200002"}, "type": "Feature"}
{"geometry": {"coordinates": [-119.903464, 36.600729], "type": "Point"}, "id": "Ch5K_5oiH-TpgHafnEzH4t869s4=", "properties": {"@source_uri": "https://tools.usps.com/UspsToolsRestServices/rest/POLocator/findLocations", "@spider": "usps_collection_boxes", "addr:city": "RAISIN CITY", "addr:country": "US", "addr:full": "9221 S ORMUS AVE", "addr:postcode": "93652", "addr:state": "CA", "amenity": "post_box", "brand": "United States Postal Service", "brand:wikidata": "Q668687", "collection_times": "Mo-Fr 16:00; Sa 09:00", "indoor": "yes", "note": "ON 12/24 AND 12/31, THIS BOX MAY BE COLLECTED AS EARLY AS 12 NOON.", "nsi_id": "unitedstatespostalservice-a77078", "operator": "United States Postal Service", "operator:short": "USPS", "operator:type": "public", "operator:wikidata": "Q668687", "ref": "9365200003"}, "type": "Feature"}
{"geometry": {"coordinates": [-119.903466214, 36.600723608], "type": "Point"}, "id": "PCEK0U6oghi-WRwMCLHwvCaRx40=", "properties": {"@source_uri": "https://tools.usps.com/UspsToolsRestServices/rest/POLocator/findLocations", "@spider": "usps_collection_boxes", "addr:city": "RAISIN CITY", "addr:country": "US", "addr:full": "9221 S ORMUS AVE", "addr:postcode": "93652", "addr:state": "CA", "amenity": "post_box", "brand": "United States Postal Service", "brand:wikidata": "Q668687", "collection_times": "Mo-Fr 16:00", "indoor": "yes", "note": "ON 12/24 AND 12/31, THIS BOX MAY BE COLLECTED AS EARLY AS 12 NOON.", "nsi_id": "unitedstatespostalservice-a77078", "operator": "United States Postal Service", "operator:short": "USPS", "operator:type": "public", "operator:wikidata": "Q668687", "ref": "9365200004"}, "type": "Feature"}
{"geometry": {"coordinates": [-119.907263, 37.21542], "type": "Point"}, "id": "LHFLt7yWbNGaGbdnPa8ojTTA3N0=", "properties": {"@source_uri": "https://tools.usps.com/UspsToolsRestServices/rest/POLocator/findLocations", "@spider": "usps_collection_boxes", "addr:city": "RAYMOND", "addr:country": "US", "addr:full": "32120 ROAD 600", "addr:postcode": "93653", "addr:state": "CA", "amenity": "post_box", "brand": "United States Postal Service", "brand:wikidata": "Q668687", "collection_times": "Mo-Fr 14:40; Sa 10:25", "indoor": "yes", "note": "ON 12/24 AND 12/31, THIS BOX MAY BE COLLECTED AS EARLY AS 12 NOON.", "nsi_id": "unitedstatespostalservice-a77078", "operator": "United States Postal Service", "operator:short": "USPS", "operator:type": "public", "operator:wikidata": "Q668687", "ref": "9365300001"}, "type": "Feature"}
{"geometry": {"coordinates": [-119.907263, 37.21542], "type": "Point"}, "id": "K9O8mhjEGB7KyuwlcJHWZcPP5TM=", "properties": {"@source_uri": "https://tools.usps.com/UspsToolsRestServices/rest/POLocator/findLocations", "@spider": "usps_collection_boxes", "addr:city": "RAYMOND", "addr:country": "US", "addr:full": "32120 ROAD 600", "addr:postcode": "93653", "addr:state": "CA", "amenity": "post_box", "brand": "United States Postal Service", "brand:wikidata": "Q668687", "collection_times": "Mo-Fr 14:40; Sa 10:25", "indoor": "yes", "note": "ON 12/24 AND 12/31, THIS BOX MAY BE COLLECTED AS EARLY AS 12 NOON.", "nsi_id": "unitedstatespostalservice-a77078", "operator": "United States Postal Service", "operator:short": "USPS", "operator:type": "public", "operator:wikidata": "Q668687", "ref": "9365300002"}, "type": "Feature"}
{"geometry": {"coordinates": [-119.907242709, 37.215505927], "type": "Point"}, "id": "rkv8H2hafnofWSYkHuVuNH-5tKk=", "properties": {"@source_uri": "https://tools.usps.com/UspsToolsRestServices/rest/POLocator/findLocations", "@spider": "usps_collection_boxes", "addr:city": "RAYMOND", "addr:country": "US", "addr:full": "32120 ROAD 600", "addr:postcode": "93653", "addr:state": "CA", "amenity": "post_box", "brand": "United States Postal Service", "brand:wikidata": "Q668687", "collection_times": "Mo-Fr 15:00", "indoor": "yes", "note": "ON 12/24 AND 12/31, THIS BOX MAY BE COLLECTED AS EARLY AS 12 NOON.", "nsi_id": "unitedstatespostalservice-a77078", "operator": "United States Postal Service", "operator:short": "USPS", "operator:type": "public", "operator:wikidata": "Q668687", "ref": "9365300003"}, "type": "Feature"}
{"geometry": {"coordinates": [-119.4320917641, 36.6041783721], "type": "Point"}, "id": "HJpbirwi9dKH7mCDwUIJTr80k4Y=", "properties": {"@source_uri": "https://tools.usps.com/UspsToolsRestServices/rest/POLocator/findLocations", "@spider": "usps_collection_boxes", "addr:city": "REEDLEY", "addr:country": "US", "addr:full": "1600 E MANNING AVE", "addr:postcode": "93654", "addr:state": "CA", "amenity": "post_box", "brand": "United States Postal Service", "brand:wikidata": "Q668687", "collection_times": "Mo-Sa 09:30", "nsi_id": "unitedstatespostalservice-a77078", "operator": "United States Postal Service", "operator:short": "USPS", "operator:type": "public", "operator:wikidata": "Q668687", "ref": "9365400002"}, "type": "Feature"}
{"geometry": {"coordinates": [-119.453184, 36.598428], "type": "Point"}, "id": "N_t8a3gaxl3bmk4oenGGQBPeD_A=", "properties": {"@source_uri": "https://tools.usps.com/UspsToolsRestServices/rest/POLocator/findLocations", "@spider": "usps_collection_boxes", "addr:city": "REEDLEY", "addr:country": "US", "addr:full": "845 G ST", "addr:postcode": "93654", "addr:state": "CA", "amenity": "post_box", "brand": "United States Postal Service", "brand:wikidata": "Q668687", "collection_times": "Mo-Sa 09:30", "nsi_id": "unitedstatespostalservice-a77078", "operator": "United States Postal Service", "operator:short": "USPS", "operator:type": "public", "operator:wikidata": "Q668687", "ref": "9365400005"}, "type": "Feature"}
{"geometry": {"coordinates": [-119.449275, 36.597853], "type": "Point"}, "id": "_xXgfXgQsCjd0R74yPuSgH6RaSY=", "properties": {"@source_uri": "https://tools.usps.com/UspsToolsRestServices/rest/POLocator/findLocations", "@spider": "usps_collection_boxes", "addr:city": "REEDLEY", "addr:country": "US", "addr:full": "1509 11TH ST", "addr:postcode": "93654", "addr:state": "CA", "amenity": "post_box", "brand": "United States Postal Service", "brand:wikidata": "Q668687", "collection_times": "Mo-Fr 16:00; Sa 14:00", "indoor": "yes", "note": "ON 12/24 AND 12/31, THIS BOX MAY BE COLLECTED AS EARLY AS 12 NOON.", "nsi_id": "unitedstatespostalservice-a77078", "operator": "United States Postal Service", "operator:short": "USPS", "operator:type": "public", "operator:wikidata": "Q668687", "ref": "9365400011"}, "type": "Feature"}
{"geometry": {"coordinates": [-119.449275, 36.597853], "type": "Point"}, "id": "Bzar8qtxR0JY82-7XGf8xgUoCcI=", "properties": {"@source_uri": "https://tools.usps.com/UspsToolsRestServices/rest/POLocator/findLocations", "@spider": "usps_collection_boxes", "addr:city": "REEDLEY", "addr:country": "US", "addr:full": "1509 11TH ST", "addr:postcode": "93654", "addr:state": "CA", "amenity": "post_box", "brand": "United States Postal Service", "brand:wikidata": "Q668687", "collection_times": "Mo-Fr 15:45; Sa 14:00", "note": "ON 12/24 AND 12/31, THIS BOX MAY BE COLLECTED AS EARLY AS 12 NOON.", "nsi_id": "unitedstatespostalservice-a77078", "operator": "United States Postal Service", "operator:short": "USPS", "operator:type": "public", "operator:wikidata": "Q668687", "ref": "9365400014"}, "type": "Feature"}
{"geometry": {"coordinates": [-119.449275, 36.597853], "type": "Point"}, "id": "QirpwLKbppGPXC0VwPM6wSdlL70=", "properties": {"@source_uri": "https://tools.usps.com/UspsToolsRestServices/rest/POLocator/findLocations", "@spider": "usps_collection_boxes", "addr:city": "REEDLEY", "addr:country": "US", "addr:full": "1509 11TH ST", "addr:postcode": "93654", "addr:state": "CA", "amenity": "post_box", "brand": "United States Postal Service", "brand:wikidata": "Q668687", "collection_times": "Mo-Fr 16:00; Sa 14:00", "indoor": "yes", "note": "ON 12/24 AND 12/31, THIS BOX MAY BE COLLECTED AS EARLY AS 12 NOON.", "nsi_id": "unitedstatespostalservice-a77078", "operator": "United States Postal Service", "operator:short": "USPS", "operator:type": "public", "operator:wikidata": "Q668687", "ref": "9365400015"}, "type": "Feature"}
{"geometry": {"coordinates": [-119.434441, 36.604314], "type": "Point"}, "id": "mU-GIeBGrqJCNWBbU22e6IJUBAs=", "properties": {"@source_uri": "https://tools.usps.com/UspsToolsRestServices/rest/POLocator/findLocations", "@spider": "usps_collection_boxes", "addr:city": "REEDLEY", "addr:country": "US", "addr:full": "1384 E MANNING AVE", "addr:postcode": "93654", "addr:state": "CA", "amenity": "post_box", "brand": "United States Postal Service", "brand:wikidata": "Q668687", "collection_times": "Mo-Sa 09:30", "nsi_id": "unitedstatespostalservice-a77078", "operator": "United States Postal Service", "operator:short": "USPS", "operator:type": "public", "operator:wikidata": "Q668687", "ref": "9365400016"}, "type": "Feature"}
{"geometry": {"coordinates": [-119.448955166, 36.597777486], "type": "Point"}, "id": "VEl55iTQ_XLTMnG3-k0pSea623E=", "properties": {"@source_uri": "https://tools.usps.com/UspsToolsRestServices/rest/POLocator/findLocations", "@spider": "usps_collection_boxes", "addr:city": "REEDLEY", "addr:country": "US", "addr:full": "1509 11TH ST", "addr:postcode": "93654", "addr:state": "CA", "amenity": "post_box", "brand": "United States Postal Service", "brand:wikidata": "Q668687", "collection_times": "Mo-Fr 16:00", "indoor": "yes", "note": "ON 12/24 AND 12/31, THIS BOX MAY BE COLLECTED AS EARLY AS 12 NOON.", "nsi_id": "unitedstatespostalservice-a77078", "operator": "United States Postal Service", "operator:short": "USPS", "operator:type": "public", "operator:wikidata": "Q668687", "ref": "9365400018"}, "type": "Feature"}
{"geometry": {"coordinates": [-119.859732, 36.431824], "type": "Point"}, "id": "xofzNMH1adYmAbmtAG7yNybKCRQ=", "properties": {"@source_uri": "https://tools.usps.com/UspsToolsRestServices/rest/POLocator/findLocations", "@spider": "usps_collection_boxes", "addr:city": "RIVERDALE", "addr:country": "US", "addr:full": "3401 HENSON ST", "addr:postcode": "93656", "addr:state": "CA", "amenity": "post_box", "brand": "United States Postal Service", "brand:wikidata": "Q668687", "collection_times": "Mo-Fr 16:00; Sa 09:00", "note": "ON 12/24 AND 12/31, THIS BOX MAY BE COLLECTED AS EARLY AS 12 NOON.", "nsi_id": "unitedstatespostalservice-a77078", "operator": "United States Postal Service", "operator:short": "USPS", "operator:type": "public", "operator:wikidata": "Q668687", "ref": "9365600001"}, "type": "Feature"}
{"geometry": {"coordinates": [-119.85962, 36.431852], "type": "Point"}, "id": "UhNMmZ0pPOi9maXn50QI7U4dqTs=", "properties": {"@source_uri": "https://tools.usps.com/UspsToolsRestServices/rest/POLocator/findLocations", "@spider": "usps_collection_boxes", "addr:city": "RIVERDALE", "addr:country": "US", "addr:full": "3401 HENSON ST", "addr:postcode": "93656", "addr:state": "CA", "amenity": "post_box", "brand": "United States Postal Service", "brand:wikidata": "Q668687", "collection_times": "Mo-Fr 16:00; Sa 09:00", "indoor": "yes", "note": "ON 12/24 AND 12/31, THIS BOX MAY BE COLLECTED AS EARLY AS 12 NOON.", "nsi_id": "unitedstatespostalservice-a77078", "operator": "United States Postal Service", "operator:short": "USPS", "operator:type": "public", "operator:wikidata": "Q668687", "ref": "9365600003"}, "type": "Feature"}
{"geometry": {"coordinates": [-119.859694685, 36.431775588], "type": "Point"}, "id": "_FHUEyikEWZcuNTrRtkvkzXWs1k=", "properties": {"@source_uri": "https://tools.usps.com/UspsToolsRestServices/rest/POLocator/findLocations", "@spider": "usps_collection_boxes", "addr:city": "RIVERDALE", "addr:country": "US", "addr:full": "3401 HENSON ST", "addr:postcode": "93656", "addr:state": "CA", "amenity": "post_box", "brand": "United States Postal Service", "brand:wikidata": "Q668687", "collection_times": "Mo-Fr 16:00", "indoor": "yes", "note": "ON 12/24 AND 12/31, THIS BOX MAY BE COLLECTED AS EARLY AS 12 NOON.", "nsi_id": "unitedstatespostalservice-a77078", "operator": "United States Postal Service", "operator:short": "USPS", "operator:type": "public", "operator:wikidata": "Q668687", "ref": "9365600004"}, "type": "Feature"}
{"geometry": {"coordinates": [-119.561857, 36.706027], "type": "Point"}, "id": "iskvs9toqVNGSV62GtMicGtu5os=", "properties": {"@source_uri": "https://tools.usps.com/UspsToolsRestServices/rest/POLocator/findLocations", "@spider": "usps_collection_boxes", "addr:city": "SANGER", "addr:country": "US", "addr:full": "1700 7TH ST", "addr:postcode": "93657", "addr:state": "CA", "amenity": "post_box", "brand": "United States Postal Service", "brand:wikidata": "Q668687", "collection_times": "Mo-Sa 12:00", "nsi_id": "unitedstatespostalservice-a77078", "operator": "United States Postal Service", "operator:short": "USPS", "operator:type": "public", "operator:wikidata": "Q668687", "ref": "9365700002"}, "type": "Feature"}
{"geometry": {"coordinates": [-119.558542, 36.705832], "type": "Point"}, "id": "0GdrG7pKgaZAKc5JlFYMAqfc6Bc=", "properties": {"@source_uri": "https://tools.usps.com/UspsToolsRestServices/rest/POLocator/findLocations", "@spider": "usps_collection_boxes", "addr:city": "SANGER", "addr:country": "US", "addr:full": "724 O ST", "addr:postcode": "93657", "addr:state": "CA", "amenity": "post_box", "brand": "United States Postal Service", "brand:wikidata": "Q668687", "collection_times": "Mo-Fr 17:00; Sa 15:30", "note": "ON 12/24 AND 12/31, THIS BOX MAY BE COLLECTED AS EARLY AS 12 NOON.", "nsi_id": "unitedstatespostalservice-a77078", "operator": "United States Postal Service", "operator:short": "USPS", "operator:type": "public", "operator:wikidata": "Q668687", "ref": "9365700010"}, "type": "Feature"}
{"geometry": {"coordinates": [-119.558584, 36.705873], "type": "Point"}, "id": "3wMmBcPJEGjws1e-Lxl3kvb33tg=", "properties": {"@source_uri": "https://tools.usps.com/UspsToolsRestServices/rest/POLocator/findLocations", "@spider": "usps_collection_boxes", "addr:city": "SANGER", "addr:country": "US", "addr:full": "724 O ST", "addr:postcode": "93657", "addr:state": "CA", "amenity": "post_box", "brand": "United States Postal Service", "brand:wikidata": "Q668687", "collection_times": "Mo-Fr 17:00; Sa 15:30", "note": "ON 12/24 AND 12/31, THIS BOX MAY BE COLLECTED AS EARLY AS 12 NOON.", "nsi_id": "unitedstatespostalservice-a77078", "operator": "United States Postal Service", "operator:short": "USPS", "operator:type": "public", "operator:wikidata": "Q668687", "ref": "9365700012"}, "type": "Feature"}
{"geometry": {"coordinates": [-119.558584, 36.705873], "type": "Point"}, "id": "huvxuYoJQWr7jWcDNyvMf36daoo=", "properties": {"@source_uri": "https://tools.usps.com/UspsToolsRestServices/rest/POLocator/findLocations", "@spider": "usps_collection_boxes", "addr:city": "SANGER", "addr:country": "US", "addr:full": "724 O ST", "addr:postcode": "93657", "addr:state": "CA", "amenity": "post_box", "brand": "United States Postal Service", "brand:wikidata": "Q668687", "collection_times": "Mo-Fr 16:30; Sa 15:30", "indoor": "yes", "note": "ON 12/24 AND 12/31, THIS BOX MAY BE COLLECTED AS EARLY AS 12 NOON.", "nsi_id": "unitedstatespostalservice-a77078", "operator": "United States Postal Service", "operator:short": "USPS", "operator:type": "public", "operator:wikidata": "Q668687", "ref": "9365700014"}, "type": "Feature"}
{"geometry": {"coordinates": [-119.559867037, 36.71468137], "type": "Point"}, "id": "b72NzSX_1VV1DeMysMmNsde07vc=", "properties": {"@source_uri": "https://tools.usps.com/UspsToolsRestServices/rest/POLocator/findLocations", "@spider": "usps_collection_boxes", "addr:city": "SANGER", "addr:country": "US", "addr:full": "124 O ST", "addr:postcode": "93657", "addr:state": "CA", "amenity": "post_box", "brand": "United States Postal Service", "brand:wikidata": "Q668687", "collection_times": "Mo-Fr 16:00; Sa 13:00", "indoor": "yes", "note": "ON 12/24 AND 12/31, THIS BOX MAY BE COLLECTED AS EARLY AS 12 NOON.", "nsi_id": "unitedstatespostalservice-a77078", "operator": "United States Postal Service", "operator:short": "USPS", "operator:type": "public", "operator:wikidata": "Q668687", "ref": "9365700017"}, "type": "Feature"}
{"geometry": {"coordinates": [-120.187997, 36.60788], "type": "Point"}, "id": "R7lxSwwP9BX4B1msmZBG_tmhDOA=", "properties": {"@source_uri": "https://tools.usps.com/UspsToolsRestServices/rest/POLocator/findLocations", "@spider": "usps_collection_boxes", "addr:city": "SAN JOAQUIN", "addr:country": "US", "addr:full": "8667 9TH ST", "addr:postcode": "93660", "addr:state": "CA", "amenity": "post_box", "brand": "United States Postal Service", "brand:wikidata": "Q668687", "collection_times": "Mo-Fr 15:15; Sa 11:30", "note": "ON 12/24 AND 12/31, THIS BOX MAY BE COLLECTED AS EARLY AS 12 NOON.", "nsi_id": "unitedstatespostalservice-a77078", "operator": "United States Postal Service", "operator:short": "USPS", "operator:type": "public", "operator:wikidata": "Q668687", "ref": "9366000001"}, "type": "Feature"}
{"geometry": {"coordinates": [-120.187997, 36.60788], "type": "Point"}, "id": "yJEqjAp3Rd9MbCy3BVuqBlHws1Q=", "properties": {"@source_uri": "https://tools.usps.com/UspsToolsRestServices/rest/POLocator/findLocations", "@spider": "usps_collection_boxes", "addr:city": "SAN JOAQUIN", "addr:country": "US", "addr:full": "8667 9TH ST", "addr:postcode": "93660", "addr:state": "CA", "amenity": "post_box", "brand": "United States Postal Service", "brand:wikidata": "Q668687", "collection_times": "Mo-Fr 16:00; Sa 11:30", "indoor": "yes", "note": "ON 12/24 AND 12/31, THIS BOX MAY BE COLLECTED AS EARLY AS 12 NOON.", "nsi_id": "unitedstatespostalservice-a77078", "operator": "United States Postal Service", "operator:short": "USPS", "operator:type": "public", "operator:wikidata": "Q668687", "ref": "9366000002"}, "type": "Feature"}
{"geometry": {"coordinates": [-120.1880426682, 36.6078282309], "type": "Point"}, "id": "LulCTnwA7IuAu1voXSXzffLqu5A=", "properties": {"@source_uri": "https://tools.usps.com/UspsToolsRestServices/rest/POLocator/findLocations", "@spider": "usps_collection_boxes", "addr:city": "SAN JOAQUIN", "addr:country": "US", "addr:full": "8667 9TH ST", "addr:postcode": "93660", "addr:state": "CA", "amenity": "post_box", "brand": "United States Postal Service", "brand:wikidata": "Q668687", "collection_times": "Mo-Fr 16:00", "indoor": "yes", "note": "ON 12/24 AND 12/31, THIS BOX MAY BE COLLECTED AS EARLY AS 12 NOON.", "nsi_id": "unitedstatespostalservice-a77078", "operator": "United States Postal Service", "operator:short": "USPS", "operator:type": "public", "operator:wikidata": "Q668687", "ref": "9366000003"}, "type": "Feature"}
{"geometry": {"coordinates": [-120.6278052243, 36.9856942532], "type": "Point"}, "id": "D4-NQu9B9PlVKsdn22SU45cALVg=", "properties": {"@source_uri": "https://tools.usps.com/UspsToolsRestServices/rest/POLocator/findLocations", "@spider": "usps_collection_boxes", "addr:city": "SANTA RITA PARK", "addr:country": "US", "addr:full": "8100 W AZUSA RD", "addr:postcode": "93661", "addr:state": "CA", "amenity": "post_box", "brand": "United States Postal Service", "brand:wikidata": "Q668687", "collection_times": "Mo-Fr 16:30; Sa 11:30", "note": "ON 12/24 AND 12/31, THIS BOX MAY BE COLLECTED AS EARLY AS 12 NOON.", "nsi_id": "unitedstatespostalservice-a77078", "operator": "United States Postal Service", "operator:short": "USPS", "operator:type": "public", "operator:wikidata": "Q668687", "ref": "9366100001"}, "type": "Feature"}
{"geometry": {"coordinates": [-120.6278052243, 36.9856942532], "type": "Point"}, "id": "46tq1Zx7pDbuFMmumFNnqf6JNMs=", "properties": {"@source_uri": "https://tools.usps.com/UspsToolsRestServices/rest/POLocator/findLocations", "@spider": "usps_collection_boxes", "addr:city": "SANTA RITA PARK", "addr:country": "US", "addr:full": "8100 W AZUSA RD", "addr:postcode": "93661", "addr:state": "CA", "amenity": "post_box", "brand": "United States Postal Service", "brand:wikidata": "Q668687", "collection_times": "Mo-Fr 16:30; Sa 11:30", "indoor": "yes", "note": "ON 12/24 AND 12/31, THIS BOX MAY BE COLLECTED AS EARLY AS 12 NOON.", "nsi_id": "unitedstatespostalservice-a77078", "operator": "United States Postal Service", "operator:short": "USPS", "operator:type": "public", "operator:wikidata": "Q668687", "ref": "9366100002"}, "type": "Feature"}
{"geometry": {"coordinates": [-120.637162436, 37.049118882], "type": "Point"}, "id": "FwlP6CatbPbrAeQum1IngTHWOO0=", "properties": {"@source_uri": "https://tools.usps.com/UspsToolsRestServices/rest/POLocator/findLocations", "@spider": "usps_collection_boxes", "addr:city": "SANTA RITA PARK", "addr:country": "US", "addr:full": "8100 W AZUSA RD", "addr:postcode": "93661", "addr:state": "CA", "amenity": "post_box", "brand": "United States Postal Service", "brand:wikidata": "Q668687", "collection_times": "Mo-Fr 16:30; Sa 11:30", "indoor": "yes", "note": "ON 12/24 AND 12/31, THIS BOX MAY BE COLLECTED AS EARLY AS 12 NOON.", "nsi_id": "unitedstatespostalservice-a77078", "operator": "United States Postal Service", "operator:short": "USPS", "operator:type": "public", "operator:wikidata": "Q668687", "ref": "9366100003"}, "type": "Feature"}
{"geometry": {"coordinates": [-119.610287966, 36.5838309967], "type": "Point"}, "id": "ABgBOPFGzT5li6AHtOrzzGHBtLg=", "properties": {"@source_uri": "https://tools.usps.com/UspsToolsRestServices/rest/POLocator/findLocations", "@spider": "usps_collection_boxes", "addr:city": "SELMA", "addr:country": "US", "addr:full": "3400 MCCALL AVE", "addr:postcode": "93662", "addr:state": "CA", "amenity": "post_box", "brand": "United States Postal Service", "brand:wikidata": "Q668687", "collection_times": "Mo-Fr 12:00; Sa 08:30", "nsi_id": "unitedstatespostalservice-a77078", "operator": "United States Postal Service", "operator:short": "USPS", "operator:type": "public", "operator:wikidata": "Q668687", "ref": "9366200005"}, "type": "Feature"}
{"geometry": {"coordinates": [-119.612641, 36.569386], "type": "Point"}, "id": "-7K_EAaT0UkpVd6L-QB6tVT3CwQ=", "properties": {"@source_uri": "https://tools.usps.com/UspsToolsRestServices/rest/POLocator/findLocations", "@spider": "usps_collection_boxes", "addr:city": "SELMA", "addr:country": "US", "addr:full": "2058 HIGH ST", "addr:postcode": "93662", "addr:state": "CA", "amenity": "post_box", "brand": "United States Postal Service", "brand:wikidata": "Q668687", "collection_times": "Mo-Fr 16:45; Sa 16:00", "note": "ON 12/24 AND 12/31, THIS BOX MAY BE COLLECTED AS EARLY AS 12 NOON.", "nsi_id": "unitedstatespostalservice-a77078", "operator": "United States Postal Service", "operator:short": "USPS", "operator:type": "public", "operator:wikidata": "Q668687", "ref": "9366200016"}, "type": "Feature"}
{"geometry": {"coordinates": [-119.612641, 36.569386], "type": "Point"}, "id": "Xik0skWreFRDGGAJmyvKwV25iDc=", "properties": {"@source_uri": "https://tools.usps.com/UspsToolsRestServices/rest/POLocator/findLocations", "@spider": "usps_collection_boxes", "addr:city": "SELMA", "addr:country": "US", "addr:full": "2058 HIGH ST", "addr:postcode": "93662", "addr:state": "CA", "amenity": "post_box", "brand": "United States Postal Service", "brand:wikidata": "Q668687", "collection_times": "Mo-Fr 16:45; Sa 16:00", "note": "ON 12/24 AND 12/31, THIS BOX MAY BE COLLECTED AS EARLY AS 12 NOON.", "nsi_id": "unitedstatespostalservice-a77078", "operator": "United States Postal Service", "operator:short": "USPS", "operator:type": "public", "operator:wikidata": "Q668687", "ref": "9366200018"}, "type": "Feature"}
{"geometry": {"coordinates": [-119.612641, 36.569386], "type": "Point"}, "id": "Kr60neMdF_c0T0lbhwVCUtaEwsQ=", "properties": {"@source_uri": "https://tools.usps.com/UspsToolsRestServices/rest/POLocator/findLocations", "@spider": "usps_collection_boxes", "addr:city": "SELMA", "addr:country": "US", "addr:full": "2058 HIGH ST", "addr:postcode": "93662", "addr:state": "CA", "amenity": "post_box", "brand": "United States Postal Service", "brand:wikidata": "Q668687", "collection_times": "Mo-Fr 16:45; Sa 16:00", "note": "ON 12/24 AND 12/31, THIS BOX MAY BE COLLECTED AS EARLY AS 12 NOON.", "nsi_id": "unitedstatespostalservice-a77078", "operator": "United States Postal Service", "operator:short": "USPS", "operator:type": "public", "operator:wikidata": "Q668687", "ref": "9366200019"}, "type": "Feature"}
{"geometry": {"coordinates": [-119.612641, 36.569386], "type": "Point"}, "id": "mBZAhXlBQ8-HI957N9LNRmdIFUk=", "properties": {"@source_uri": "https://tools.usps.com/UspsToolsRestServices/rest/POLocator/findLocations", "@spider": "usps_collection_boxes", "addr:city": "SELMA", "addr:country": "US", "addr:full": "2058 HIGH ST", "addr:postcode": "93662", "addr:state": "CA", "amenity": "post_box", "brand": "United States Postal Service", "brand:wikidata": "Q668687", "collection_times": "Mo-Fr 16:30; Sa 16:00", "indoor": "yes", "note": "ON 12/24 AND 12/31, THIS BOX MAY BE COLLECTED AS EARLY AS 12 NOON.", "nsi_id": "unitedstatespostalservice-a77078", "operator": "United States Postal Service", "operator:short": "USPS", "operator:type": "public", "operator:wikidata": "Q668687", "ref": "9366200022"}, "type": "Feature"}
{"geometry": {"coordinates": [-119.612641, 36.569386], "type": "Point"}, "id": "G61UVJ40i1-0FysGMxa7_F1V7JY=", "properties": {"@source_uri": "https://tools.usps.com/UspsToolsRestServices/rest/POLocator/findLocations", "@spider": "usps_collection_boxes", "addr:city": "SELMA", "addr:country": "US", "addr:full": "2058 HIGH ST", "addr:postcode": "93662", "addr:state": "CA", "amenity": "post_box", "brand": "United States Postal Service", "brand:wikidata": "Q668687", "collection_times": "Mo-Fr 16:30; Sa 16:00", "indoor": "yes", "note": "ON 12/24 AND 12/31, THIS BOX MAY BE COLLECTED AS EARLY AS 12 NOON.", "nsi_id": "unitedstatespostalservice-a77078", "operator": "United States Postal Service", "operator:short": "USPS", "operator:type": "public", "operator:wikidata": "Q668687", "ref": "9366200023"}, "type": "Feature"}
{"geometry": {"coordinates": [-119.612627134, 36.569406344], "type": "Point"}, "id": "LKlrmZY98Nk5z7ht5aUQLBwLtbo=", "properties": {"@source_uri": "https://tools.usps.com/UspsToolsRestServices/rest/POLocator/findLocations", "@spider": "usps_collection_boxes", "addr:city": "SELMA", "addr:country": "US", "addr:full": "2058 HIGH ST", "addr:postcode": "93662", "addr:state": "CA", "amenity": "post_box", "brand": "United States Postal Service", "brand:wikidata": "Q668687", "collection_times": "Mo-Fr 16:00; Sa 12:00", "indoor": "yes", "note": "ON 12/24 AND 12/31, THIS BOX MAY BE COLLECTED AS EARLY AS 12 NOON.", "nsi_id": "unitedstatespostalservice-a77078", "operator": "United States Postal Service", "operator:short": "USPS", "operator:type": "public", "operator:wikidata": "Q668687", "ref": "9366200024"}, "type": "Feature"}
{"geometry": {"coordinates": [-119.317441, 37.095303], "type": "Point"}, "id": "RqYHrtIvHWPd45gs2VmGCZzyHkk=", "properties": {"@source_uri": "https://tools.usps.com/UspsToolsRestServices/rest/POLocator/findLocations", "@spider": "usps_collection_boxes", "addr:city": "SHAVER LAKE", "addr:country": "US", "addr:full": "40677 SHAVER FOREST RD", "addr:postcode": "93664", "addr:state": "CA", "amenity": "post_box", "brand": "United States Postal Service", "brand:wikidata": "Q668687", "collection_times": "Mo-Fr 15:00; Sa 11:00", "note": "ON 12/24 AND 12/31, THIS BOX MAY BE COLLECTED AS EARLY AS 12 NOON.", "nsi_id": "unitedstatespostalservice-a77078", "operator": "United States Postal Service", "operator:short": "USPS", "operator:type": "public", "operator:wikidata": "Q668687", "ref": "9366400001"}, "type": "Feature"}
{"geometry": {"coordinates": [-119.317441, 37.095303], "type": "Point"}, "id": "GkfTHmYaXzUHTX1W5LgADiwkrNk=", "properties": {"@source_uri": "https://tools.usps.com/UspsToolsRestServices/rest/POLocator/findLocations", "@spider": "usps_collection_boxes", "addr:city": "SHAVER LAKE", "addr:country": "US", "addr:full": "40677 SHAVER FOREST RD", "addr:postcode": "93664", "addr:state": "CA", "amenity": "post_box", "brand": "United States Postal Service", "brand:wikidata": "Q668687", "collection_times": "Mo-Fr 15:00; Sa 11:00", "indoor": "yes", "note": "ON 12/24 AND 12/31, THIS BOX MAY BE COLLECTED AS EARLY AS 12 NOON.", "nsi_id": "unitedstatespostalservice-a77078", "operator": "United States Postal Service", "operator:short": "USPS", "operator:type": "public", "operator:wikidata": "Q668687", "ref": "9366400003"}, "type": "Feature"}
{"geometry": {"coordinates": [-119.317441, 37.095303], "type": "Point"}, "id": "hlNRKqDnyGJZZZvyDKvq_qpNcYE=", "properties": {"@source_uri": "https://tools.usps.com/UspsToolsRestServices/rest/POLocator/findLocations", "@spider": "usps_collection_boxes", "addr:city": "SHAVER LAKE", "addr:country": "US", "addr:full": "40677 SHAVER FOREST RD", "addr:postcode": "93664", "addr:state": "CA", "amenity": "post_box", "brand": "United States Postal Service", "brand:wikidata": "Q668687", "collection_times": "Mo-Fr 15:00; Sa 11:00", "note": "ON 12/24 AND 12/31, THIS BOX MAY BE COLLECTED AS EARLY AS 12 NOON.", "nsi_id": "unitedstatespostalservice-a77078", "operator": "United States Postal Service", "operator:short": "USPS", "operator:type": "public", "operator:wikidata": "Q668687", "ref": "9366400005"}, "type": "Feature"}
{"geometry": {"coordinates": [-119.319227, 37.106548], "type": "Point"}, "id": "lRKYKm-LwnGKq5H04dAfOfFfiN8=", "properties": {"@source_uri": "https://tools.usps.com/UspsToolsRestServices/rest/POLocator/findLocations", "@spider": "usps_collection_boxes", "addr:city": "SHAVER LAKE", "addr:country": "US", "addr:full": "41777 TOLLHOUSE RD", "addr:postcode": "93664", "addr:state": "CA", "amenity": "post_box", "brand": "United States Postal Service", "brand:wikidata": "Q668687", "collection_times": "Mo-Sa 10:00", "nsi_id": "unitedstatespostalservice-a77078", "operator": "United States Postal Service", "operator:short": "USPS", "operator:type": "public", "operator:wikidata": "Q668687", "ref": "9366400006"}, "type": "Feature"}
{"geometry": {"coordinates": [-119.317442245, 37.095299244], "type": "Point"}, "id": "9DbAoS07o_SMB3jUPCGRuL5-pWU=", "properties": {"@source_uri": "https://tools.usps.com/UspsToolsRestServices/rest/POLocator/findLocations", "@spider": "usps_collection_boxes", "addr:city": "SHAVER LAKE", "addr:country": "US", "addr:full": "40677 SHAVER FOREST RD", "addr:postcode": "93664", "addr:state": "CA", "amenity": "post_box", "brand": "United States Postal Service", "brand:wikidata": "Q668687", "collection_times": "Mo-Fr 15:30", "indoor": "yes", "note": "ON 12/24 AND 12/31, THIS BOX MAY BE COLLECTED AS EARLY AS 12 NOON.", "nsi_id": "unitedstatespostalservice-a77078", "operator": "United States Postal Service", "operator:short": "USPS", "operator:type": "public", "operator:wikidata": "Q668687", "ref": "9366400008"}, "type": "Feature"}
{"geometry": {"coordinates": [-120.6504518, 36.9629685], "type": "Point"}, "id": "KY4StORztc4HsjqXtvQ49Ksuaug=", "properties": {"@source_uri": "https://tools.usps.com/UspsToolsRestServices/rest/POLocator/findLocations", "@spider": "usps_collection_boxes", "addr:city": "SOUTH DOS PALOS", "addr:country": "US", "addr:full": "8858 W M ST", "addr:postcode": "93665", "addr:state": "CA", "amenity": "post_box", "brand": "United States Postal Service", "brand:wikidata": "Q668687", "collection_times": "Mo-Fr 11:15; Sa 09:30", "indoor": "yes", "nsi_id": "unitedstatespostalservice-a77078", "operator": "United States Postal Service", "operator:short": "USPS", "operator:type": "public", "operator:wikidata": "Q668687", "ref": "9366500002"}, "type": "Feature"}
{"geometry": {"coordinates": [-120.6504518, 36.9629685], "type": "Point"}, "id": "zdi0QLcfZ0vhlYStka1s0O9zuUw=", "properties": {"@source_uri": "https://tools.usps.com/UspsToolsRestServices/rest/POLocator/findLocations", "@spider": "usps_collection_boxes", "addr:city": "SOUTH DOS PALOS", "addr:country": "US", "addr:full": "8858 W M ST", "addr:postcode": "93665", "addr:state": "CA", "amenity": "post_box", "brand": "United States Postal Service", "brand:wikidata": "Q668687", "collection_times": "Mo-Fr 11:30", "indoor": "yes", "nsi_id": "unitedstatespostalservice-a77078", "operator": "United States Postal Service", "operator:short": "USPS", "operator:type": "public", "operator:wikidata": "Q668687", "ref": "9366500003"}, "type": "Feature"}
{"geometry": {"coordinates": [-119.339291, 36.54483], "type": "Point"}, "id": "Rvj_PH_fz7cciWZO6YwyP6m-2Nc=", "properties": {"@source_uri": "https://tools.usps.com/UspsToolsRestServices/rest/POLocator/findLocations", "@spider": "usps_collection_boxes", "addr:city": "SULTANA", "addr:country": "US", "addr:full": "10457 AVENUE 416", "addr:postcode": "93666", "addr:state": "CA", "amenity": "post_box", "brand": "United States Postal Service", "brand:wikidata": "Q668687", "collection_times": "Mo-Fr 15:30; Sa 09:00", "note": "ON 12/24 AND 12/31, THIS BOX MAY BE COLLECTED AS EARLY AS 12 NOON.", "nsi_id": "unitedstatespostalservice-a77078", "operator": "United States Postal Service", "operator:short": "USPS", "operator:type": "public", "operator:wikidata": "Q668687", "ref": "9366600001"}, "type": "Feature"}
{"geometry": {"coordinates": [-119.339291, 36.54483], "type": "Point"}, "id": "3OmgvpBZrM5IfGwnn7d-XCUIFRo=", "properties": {"@source_uri": "https://tools.usps.com/UspsToolsRestServices/rest/POLocator/findLocations", "@spider": "usps_collection_boxes", "addr:city": "SULTANA", "addr:country": "US", "addr:full": "10457 AVENUE 416", "addr:postcode": "93666", "addr:state": "CA", "amenity": "post_box", "brand": "United States Postal Service", "brand:wikidata": "Q668687", "collection_times": "Mo-Fr 15:30; Sa 09:00", "indoor": "yes", "note": "ON 12/24 AND 12/31, THIS BOX MAY BE COLLECTED AS EARLY AS 12 NOON.", "nsi_id": "unitedstatespostalservice-a77078", "operator": "United States Postal Service", "operator:short": "USPS", "operator:type": "public", "operator:wikidata": "Q668687", "ref": "9366600002"}, "type": "Feature"}
{"geometry": {"coordinates": [-119.339180361, 36.545168474], "type": "Point"}, "id": "rYxq1DaoA55bugjlcbVRfe-b3EM=", "properties": {"@source_uri": "https://tools.usps.com/UspsToolsRestServices/rest/POLocator/findLocations", "@spider": "usps_collection_boxes", "addr:city": "SULTANA", "addr:country": "US", "addr:full": "10457 AVENUE 416", "addr:postcode": "93666", "addr:state": "CA", "amenity": "post_box", "brand": "United States Postal Service", "brand:wikidata": "Q668687", "collection_times": "Mo-Fr 15:30", "indoor": "yes", "note": "ON 12/24 AND 12/31, THIS BOX MAY BE COLLECTED AS EARLY AS 12 NOON.", "nsi_id": "unitedstatespostalservice-a77078", "operator": "United States Postal Service", "operator:short": "USPS", "operator:type": "public", "operator:wikidata": "Q668687", "ref": "9366600003"}, "type": "Feature"}
{"geometry": {"coordinates": [-119.399944, 37.014222], "type": "Point"}, "id": "DpxeNwL6m72E5OXhux7pmnQWvD4=", "properties": {"@source_uri": "https://tools.usps.com/UspsToolsRestServices/rest/POLocator/findLocations", "@spider": "usps_collection_boxes", "addr:city": "TOLLHOUSE", "addr:country": "US", "addr:full": "28425 GIBBS RANCH RD", "addr:postcode": "93667", "addr:state": "CA", "amenity": "post_box", "brand": "United States Postal Service", "brand:wikidata": "Q668687", "collection_times": "Mo-Fr 14:30; Sa 10:00", "note": "ON 12/24 AND 12/31, THIS BOX MAY BE COLLECTED AS EARLY AS 12 NOON.", "nsi_id": "unitedstatespostalservice-a77078", "operator": "United States Postal Service", "operator:short": "USPS", "operator:type": "public", "operator:wikidata": "Q668687", "ref": "9366700001"}, "type": "Feature"}
{"geometry": {"coordinates": [-119.399893, 37.014201], "type": "Point"}, "id": "xA_7BNszZTz48iM8pstIwx7t_04=", "properties": {"@source_uri": "https://tools.usps.com/UspsToolsRestServices/rest/POLocator/findLocations", "@spider": "usps_collection_boxes", "addr:city": "TOLLHOUSE", "addr:country": "US", "addr:full": "28425 GIBBS RANCH RD", "addr:postcode": "93667", "addr:state": "CA", "amenity": "post_box", "brand": "United States Postal Service", "brand:wikidata": "Q668687", "collection_times": "Mo-Fr 14:30; Sa 10:00", "indoor": "yes", "note": "ON 12/24 AND 12/31, THIS BOX MAY BE COLLECTED AS EARLY AS 12 NOON.", "nsi_id": "unitedstatespostalservice-a77078", "operator": "United States Postal Service", "operator:short": "USPS", "operator:type": "public", "operator:wikidata": "Q668687", "ref": "9366700002"}, "type": "Feature"}
{"geometry": {"coordinates": [-119.400782323, 37.015574271], "type": "Point"}, "id": "eKQFkv7rSxYibOaYNgN252wnW6k=", "properties": {"@source_uri": "https://tools.usps.com/UspsToolsRestServices/rest/POLocator/findLocations", "@spider": "usps_collection_boxes", "addr:city": "TOLLHOUSE", "addr:country": "US", "addr:full": "28425 GIBBS RANCH RD", "addr:postcode": "93667", "addr:state": "CA", "amenity": "post_box", "brand": "United States Postal Service", "brand:wikidata": "Q668687", "collection_times": "Mo-Fr 14:30", "indoor": "yes", "note": "ON 12/24 AND 12/31, THIS BOX MAY BE COLLECTED AS EARLY AS 12 NOON.", "nsi_id": "unitedstatespostalservice-a77078", "operator": "United States Postal Service", "operator:short": "USPS", "operator:type": "public", "operator:wikidata": "Q668687", "ref": "9366700003"}, "type": "Feature"}
{"geometry": {"coordinates": [-120.2542709143, 36.6484949449], "type": "Point"}, "id": "dxfLwDnVfbztcjgAFF9VIs8FAe0=", "properties": {"@source_uri": "https://tools.usps.com/UspsToolsRestServices/rest/POLocator/findLocations", "@spider": "usps_collection_boxes", "addr:city": "TRANQUILLITY", "addr:country": "US", "addr:full": "25660 SCAGGS AVE", "addr:postcode": "93668", "addr:state": "CA", "amenity": "post_box", "brand": "United States Postal Service", "brand:wikidata": "Q668687", "collection_times": "Mo-Fr 15:00; Sa 10:00", "note": "ON 12/24 AND 12/31, THIS BOX MAY BE COLLECTED AS EARLY AS 12 NOON.", "nsi_id": "unitedstatespostalservice-a77078", "operator": "United States Postal Service", "operator:short": "USPS", "operator:type": "public", "operator:wikidata": "Q668687", "ref": "9366800001"}, "type": "Feature"}
{"geometry": {"coordinates": [-120.2542709143, 36.6484949449], "type": "Point"}, "id": "dngnT3LeGmpVE0upJFYkyUj9uX0=", "properties": {"@source_uri": "https://tools.usps.com/UspsToolsRestServices/rest/POLocator/findLocations", "@spider": "usps_collection_boxes", "addr:city": "TRANQUILLITY", "addr:country": "US", "addr:full": "25660 SCAGGS AVE", "addr:postcode": "93668", "addr:state": "CA", "amenity": "post_box", "brand": "United States Postal Service", "brand:wikidata": "Q668687", "collection_times": "Mo-Fr 15:00; Sa 10:00", "indoor": "yes", "note": "ON 12/24 AND 12/31, THIS BOX MAY BE COLLECTED AS EARLY AS 12 NOON.", "nsi_id": "unitedstatespostalservice-a77078", "operator": "United States Postal Service", "operator:short": "USPS", "operator:type": "public", "operator:wikidata": "Q668687", "ref": "9366800002"}, "type": "Feature"}
{"geometry": {"coordinates": [-120.2542709143, 36.6484949449], "type": "Point"}, "id": "VlpHz6TIb6WIbExjx3hH3rtMNFo=", "properties": {"@source_uri": "https://tools.usps.com/UspsToolsRestServices/rest/POLocator/findLocations", "@spider": "usps_collection_boxes", "addr:city": "TRANQUILLITY", "addr:country": "US", "addr:full": "25660 SCAGGS AVE", "addr:postcode": "93668", "addr:state": "CA", "amenity": "post_box", "brand": "United States Postal Service", "brand:wikidata": "Q668687", "collection_times": "Mo-Fr 15:00", "indoor": "yes", "note": "ON 12/24 AND 12/31, THIS BOX MAY BE COLLECTED AS EARLY AS 12 NOON.", "nsi_id": "unitedstatespostalservice-a77078", "operator": "United States Postal Service", "operator:short": "USPS", "operator:type": "public", "operator:wikidata": "Q668687", "ref": "9366800003"}, "type": "Feature"}
{"geometry": {"coordinates": [-119.258537, 36.48636], "type": "Point"}, "id": "QLINTOjImB8BD3X38jlQ7z_tUgA=", "properties": {"@source_uri": "https://tools.usps.com/UspsToolsRestServices/rest/POLocator/findLocations", "@spider": "usps_collection_boxes", "addr:city": "YETTEM", "addr:country": "US", "addr:full": "14026 AVENUE 384", "addr:postcode": "93670", "addr:state": "CA", "amenity": "post_box", "brand": "United States Postal Service", "brand:wikidata": "Q668687", "collection_times": "Mo-Fr 14:30; Sa 09:00", "note": "ON 12/24 AND 12/31, THIS BOX MAY BE COLLECTED AS EARLY AS 12 NOON.", "nsi_id": "unitedstatespostalservice-a77078", "operator": "United States Postal Service", "operator:short": "USPS", "operator:type": "public", "operator:wikidata": "Q668687", "ref": "9367000000"}, "type": "Feature"}
{"geometry": {"coordinates": [-119.258537, 36.48636], "type": "Point"}, "id": "vNvy2MN_LOSdHC2FqohB8q-utyI=", "properties": {"@source_uri": "https://tools.usps.com/UspsToolsRestServices/rest/POLocator/findLocations", "@spider": "usps_collection_boxes", "addr:city": "YETTEM", "addr:country": "US", "addr:full": "14026 AVENUE 384", "addr:postcode": "93670", "addr:state": "CA", "amenity": "post_box", "brand": "United States Postal Service", "brand:wikidata": "Q668687", "collection_times": "Mo-Fr 14:30; Sa 09:00", "indoor": "yes", "note": "ON 12/24 AND 12/31, THIS BOX MAY BE COLLECTED AS EARLY AS 12 NOON.", "nsi_id": "unitedstatespostalservice-a77078", "operator": "United States Postal Service", "operator:short": "USPS", "operator:type": "public", "operator:wikidata": "Q668687", "ref": "9367000001"}, "type": "Feature"}
{"geometry": {"coordinates": [-119.258611306, 36.486420321], "type": "Point"}, "id": "BpijskersRJVA518qhUebMUFk-o=", "properties": {"@source_uri": "https://tools.usps.com/UspsToolsRestServices/rest/POLocator/findLocations", "@spider": "usps_collection_boxes", "addr:city": "YETTEM", "addr:country": "US", "addr:full": "14026 AVENUE 384", "addr:postcode": "93670", "addr:state": "CA", "amenity": "post_box", "brand": "United States Postal Service", "brand:wikidata": "Q668687", "collection_times": "Mo-Fr 15:00", "indoor": "yes", "note": "ON 12/24 AND 12/31, THIS BOX MAY BE COLLECTED AS EARLY AS 12 NOON.", "nsi_id": "unitedstatespostalservice-a77078", "operator": "United States Postal Service", "operator:short": "USPS", "operator:type": "public", "operator:wikidata": "Q668687", "ref": "9367000002"}, "type": "Feature"}
{"geometry": {"coordinates": [-119.4876, 36.45371], "type": "Point"}, "id": "ebXR3D5RWKR5jfgqD0qff1qd8t8=", "properties": {"@source_uri": "https://tools.usps.com/UspsToolsRestServices/rest/POLocator/findLocations", "@spider": "usps_collection_boxes", "addr:city": "TRAVER", "addr:country": "US", "addr:full": "36501 BURKE DR", "addr:postcode": "93673", "addr:state": "CA", "amenity": "post_box", "brand": "United States Postal Service", "brand:wikidata": "Q668687", "collection_times": "Mo-Fr 15:00; Sa 10:00", "note": "ON 12/24 AND 12/31, THIS BOX MAY BE COLLECTED AS EARLY AS 12 NOON.", "nsi_id": "unitedstatespostalservice-a77078", "operator": "United States Postal Service", "operator:short": "USPS", "operator:type": "public", "operator:wikidata": "Q668687", "ref": "9367300001"}, "type": "Feature"}
{"geometry": {"coordinates": [-119.487518, 36.453644], "type": "Point"}, "id": "cuKLQxuJAZMVlus1ayJbOJyzDZQ=", "properties": {"@source_uri": "https://tools.usps.com/UspsToolsRestServices/rest/POLocator/findLocations", "@spider": "usps_collection_boxes", "addr:city": "TRAVER", "addr:country": "US", "addr:full": "36501 BURKE DR", "addr:postcode": "93673", "addr:state": "CA", "amenity": "post_box", "brand": "United States Postal Service", "brand:wikidata": "Q668687", "collection_times": "Mo-Fr 15:00; Sa 10:00", "indoor": "yes", "note": "ON 12/24 AND 12/31, THIS BOX MAY BE COLLECTED AS EARLY AS 12 NOON.", "nsi_id": "unitedstatespostalservice-a77078", "operator": "United States Postal Service", "operator:short": "USPS", "operator:type": "public", "operator:wikidata": "Q668687", "ref": "9367300002"}, "type": "Feature"}
{"geometry": {"coordinates": [-119.487518, 36.453644], "type": "Point"}, "id": "j6_UcyRqWmjHeIdJ-a6oCfPVt3g=", "properties": {"@source_uri": "https://tools.usps.com/UspsToolsRestServices/rest/POLocator/findLocations", "@spider": "usps_collection_boxes", "addr:city": "TRAVER", "addr:country": "US", "addr:full": "36501 BURKE DR", "addr:postcode": "93673", "addr:state": "CA", "amenity": "post_box", "brand": "United States Postal Service", "brand:wikidata": "Q668687", "collection_times": "Mo-Fr 15:00; Sa 10:00", "indoor": "yes", "note": "ON 12/24 AND 12/31, THIS BOX MAY BE COLLECTED AS EARLY AS 12 NOON.", "nsi_id": "unitedstatespostalservice-a77078", "operator": "United States Postal Service", "operator:short": "USPS", "operator:type": "public", "operator:wikidata": "Q668687", "ref": "9367300003"}, "type": "Feature"}
{"geometry": {"coordinates": [-119.487607807, 36.453652698], "type": "Point"}, "id": "D8F5O7754VhNnvIoOdeSR32zXUQ=", "properties": {"@source_uri": "https://tools.usps.com/UspsToolsRestServices/rest/POLocator/findLocations", "@spider": "usps_collection_boxes", "addr:city": "TRAVER", "addr:country": "US", "addr:full": "36501 BURKE DR", "addr:postcode": "93673", "addr:state": "CA", "amenity": "post_box", "brand": "United States Postal Service", "brand:wikidata": "Q668687", "collection_times": "Mo-Fr 15:00; Sa 10:00", "indoor": "yes", "note": "ON 12/24 AND 12/31, THIS BOX MAY BE COLLECTED AS EARLY AS 12 NOON.", "nsi_id": "unitedstatespostalservice-a77078", "operator": "United States Postal Service", "operator:short": "USPS", "operator:type": "public", "operator:wikidata": "Q668687", "ref": "9367300004"}, "type": "Feature"}
{"geometry": {"coordinates": [-119.250287, 36.739573], "type": "Point"}, "id": "u6aAwUvhKgA0GiL3tCsZfhF_pJg=", "properties": {"@source_uri": "https://tools.usps.com/UspsToolsRestServices/rest/POLocator/findLocations", "@spider": "usps_collection_boxes", "addr:city": "SQUAW VALLEY", "addr:country": "US", "addr:full": "30754 E KINGS CANYON RD", "addr:postcode": "93675", "addr:state": "CA", "amenity": "post_box", "brand": "United States Postal Service", "brand:wikidata": "Q668687", "collection_times": "Mo-Fr 14:00; Sa 12:00", "note": "ON 12/24 AND 12/31, THIS BOX MAY BE COLLECTED AS EARLY AS 12 NOON.", "nsi_id": "unitedstatespostalservice-a77078", "operator": "United States Postal Service", "operator:short": "USPS", "operator:type": "public", "operator:wikidata": "Q668687", "ref": "9367500000"}, "type": "Feature"}
{"geometry": {"coordinates": [-119.187499, 36.683487], "type": "Point"}, "id": "vxA4tTUy-VNKnaPfI6bnbpZ10Uk=", "properties": {"@source_uri": "https://tools.usps.com/UspsToolsRestServices/rest/POLocator/findLocations", "@spider": "usps_collection_boxes", "addr:city": "SQUAW VALLEY", "addr:country": "US", "addr:full": "36822 SAND CREEK RD", "addr:postcode": "93675", "addr:state": "CA", "amenity": "post_box", "brand": "United States Postal Service", "brand:wikidata": "Q668687", "collection_times": "Mo-Fr 12:00", "nsi_id": "unitedstatespostalservice-a77078", "operator": "United States Postal Service", "operator:short": "USPS", "operator:type": "public", "operator:wikidata": "Q668687", "ref": "9367500001"}, "type": "Feature"}
