{"geometry": {"coordinates": [-119.78025, 36.758269], "type": "Point"}, "id": "0TxBINNCG9K5KjW78HArIX2IPTs=", "properties": {"@source_uri": "https://tools.usps.com/UspsToolsRestServices/rest/POLocator/findLocations", "@spider": "usps_collection_boxes", "addr:city": "FRESNO", "addr:country": "US", "addr:postcode": "93701", "addr:state": "CA", "addr:street_address": "2601 E OLIVE AVE", "amenity": "post_box", "collection_times": "Mo-Fr 17:00", "indoor": "yes", "note": "ON 12/24 AND 12/31, THIS BOX MAY BE COLLECTED AS EARLY AS 12 NOON.", "nsi_id": "unitedstatespostalservice-a77078", "operator": "United States Postal Service", "operator:short": "USPS", "operator:type": "public", "operator:wikidata": "Q668687", "ref": "9370100010"}, "type": "Feature"}
{"geometry": {"coordinates": [-119.78025, 36.758269], "type": "Point"}, "id": "cafPPop_qs2u2-ThIvTuf4K76W8=", "properties": {"@source_uri": "https://tools.usps.com/UspsToolsRestServices/rest/POLocator/findLocations", "@spider": "usps_collection_boxes", "addr:city": "FRESNO", "addr:country": "US", "addr:postcode": "93701", "addr:state": "CA", "addr:street_address": "2601 E OLIVE AVE", "amenity": "post_box", "collection_times": "Mo-Fr 17:00", "indoor": "yes", "note": "ON 12/24 AND 12/31, THIS BOX MAY BE COLLECTED AS EARLY AS 12 NOON.", "nsi_id": "unitedstatespostalservice-a77078", "operator": "United States Postal Service", "operator:short": "USPS", "operator:type": "public", "operator:wikidata": "Q668687", "ref": "9370100011"}, "type": "Feature"}
{"geometry": {"coordinates": [-119.78025, 36.758269], "type": "Point"}, "id": "26Ndw1-hEWb8Cxsptrz_10v0ZlI=", "properties": {"@source_uri": "https://tools.usps.com/UspsToolsRestServices/rest/POLocator/findLocations", "@spider": "usps_collection_boxes", "addr:city": "FRESNO", "addr:country": "US", "addr:postcode": "93701", "addr:state": "CA", "addr:street_address": "2601 E OLIVE AVE", "amenity": "post_box", "collection_times": "Mo-Fr 17:00", "indoor": "yes", "note": "ON 12/24 AND 12/31, THIS BOX MAY BE COLLECTED AS EARLY AS 12 NOON.", "nsi_id": "unitedstatespostalservice-a77078", "operator": "United States Postal Service", "operator:short": "USPS", "operator:type": "public", "operator:wikidata": "Q668687", "ref": "9370100012"}, "type": "Feature"}
{"geometry": {"coordinates": [-119.78025, 36.758269], "type": "Point"}, "id": "7h8z1ESW9zkTFAGuGenUtjeqnB0=", "properties": {"@source_uri": "https://tools.usps.com/UspsToolsRestServices/rest/POLocator/findLocations", "@spider": "usps_collection_boxes", "addr:city": "FRESNO", "addr:country": "US", "addr:postcode": "93701", "addr:state": "CA", "addr:street_address": "2601 E OLIVE AVE", "amenity": "post_box", "collection_times": "Mo-Fr 17:00", "indoor": "yes", "note": "ON 12/24 AND 12/31, THIS BOX MAY BE COLLECTED AS EARLY AS 12 NOON.", "nsi_id": "unitedstatespostalservice-a77078", "operator": "United States Postal Service", "operator:short": "USPS", "operator:type": "public", "operator:wikidata": "Q668687", "ref": "9370100013"}, "type": "Feature"}
{"geometry": {"coordinates": [-119.7799335, 36.757743523], "type": "Point"}, "id": "jYdx81cm5P4SyZ72yDURlYNXFLg=", "properties": {"@source_uri": "https://tools.usps.com/UspsToolsRestServices/rest/POLocator/findLocations", "@spider": "usps_collection_boxes", "addr:city": "FRESNO", "addr:country": "US", "addr:postcode": "93701", "addr:state": "CA", "addr:street_address": "2601 E OLIVE AVE", "amenity": "post_box", "collection_times": "Mo-Fr 17:00; Sa 14:00", "indoor": "yes", "note": "ON 12/24 AND 12/31, THIS BOX MAY BE COLLECTED AS EARLY AS 12 NOON.", "nsi_id": "unitedstatespostalservice-a77078", "operator": "United States Postal Service", "operator:short": "USPS", "operator:type": "public", "operator:wikidata": "Q668687", "ref": "9370100019"}, "type": "Feature"}
{"geometry": {"coordinates": [-119.7799084163, 36.7577773278], "type": "Point"}, "id": "Q2y56QlqzLGRODrHlJlrMLWu_jQ=", "properties": {"@source_uri": "https://tools.usps.com/UspsToolsRestServices/rest/POLocator/findLocations", "@spider": "usps_collection_boxes", "addr:city": "FRESNO", "addr:country": "US", "addr:postcode": "93701", "addr:state": "CA", "addr:street_address": "2601 E OLIVE AVE", "amenity": "post_box", "collection_times": "Mo-Fr 17:00; Sa 14:00", "note": "ON 12/24 AND 12/31, THIS BOX MAY BE COLLECTED AS EARLY AS 12 NOON.", "nsi_id": "unitedstatespostalservice-a77078", "operator": "United States Postal Service", "operator:short": "USPS", "operator:type": "public", "operator:wikidata": "Q668687", "ref": "9370100020"}, "type": "Feature"}
{"geometry": {"coordinates": [-119.732127, 36.723195], "type": "Point"}, "id": "Ye8o2s-PfcATgdyRGdEin9lrCKw=", "properties": {"@source_uri": "https://tools.usps.com/UspsToolsRestServices/rest/POLocator/findLocations", "@spider": "usps_collection_boxes", "addr:city": "FRESNO", "addr:country": "US", "addr:postcode": "93702", "addr:state": "CA", "addr:street_address": "1917 S CHESTNUT AVE", "amenity": "post_box", "collection_times": "Mo-Fr 10:00", "nsi_id": "unitedstatespostalservice-a77078", "operator": "United States Postal Service", "operator:short": "USPS", "operator:type": "public", "operator:wikidata": "Q668687", "ref": "9370200005"}, "type": "Feature"}
{"geometry": {"coordinates": [-119.731647, 36.769997], "type": "Point"}, "id": "pqOlzzYO3jPrNYg1H3p4bxtECj8=", "properties": {"@source_uri": "https://tools.usps.com/UspsToolsRestServices/rest/POLocator/findLocations", "@spider": "usps_collection_boxes", "addr:city": "FRESNO", "addr:country": "US", "addr:postcode": "93703", "addr:state": "CA", "addr:street_address": "2190 N WINERY AVE", "amenity": "post_box", "collection_times": "Mo-Fr 12:30", "note": "ON 12/24 AND 12/31, THIS BOX MAY BE COLLECTED AS EARLY AS 12 NOON.", "nsi_id": "unitedstatespostalservice-a77078", "operator": "United States Postal Service", "operator:short": "USPS", "operator:type": "public", "operator:wikidata": "Q668687", "ref": "9370300037"}, "type": "Feature"}
{"geometry": {"coordinates": [-119.8090320266, 36.8355190134], "type": "Point"}, "id": "owImCZBJWMBLJSphFbi_VfetSVk=", "properties": {"@source_uri": "https://tools.usps.com/UspsToolsRestServices/rest/POLocator/findLocations", "@spider": "usps_collection_boxes", "addr:city": "FRESNO", "addr:country": "US", "addr:postcode": "93704", "addr:state": "CA", "addr:street_address": "6715 N PALM AVE", "amenity": "post_box", "collection_times": "Mo-Fr 11:30", "nsi_id": "unitedstatespostalservice-a77078", "operator": "United States Postal Service", "operator:short": "USPS", "operator:type": "public", "operator:wikidata": "Q668687", "ref": "9370400002"}, "type": "Feature"}
{"geometry": {"coordinates": [-119.798533, 36.766855], "type": "Point"}, "id": "cpOVZsAFvV7BU3NTKNEevMhDKCo=", "properties": {"@source_uri": "https://tools.usps.com/UspsToolsRestServices/rest/POLocator/findLocations", "@spider": "usps_collection_boxes", "addr:city": "FRESNO", "addr:country": "US", "addr:postcode": "93704", "addr:state": "CA", "addr:street_address": "1101 E UNIVERSITY AVE", "amenity": "post_box", "collection_times": "Mo-Fr 09:00", "nsi_id": "unitedstatespostalservice-a77078", "operator": "United States Postal Service", "operator:short": "USPS", "operator:type": "public", "operator:wikidata": "Q668687", "ref": "9370400005"}, "type": "Feature"}
{"geometry": {"coordinates": [-119.79859, 36.808343], "type": "Point"}, "id": "KUJAQqJncRWXW4xKxpPJoxX21GU=", "properties": {"@source_uri": "https://tools.usps.com/UspsToolsRestServices/rest/POLocator/findLocations", "@spider": "usps_collection_boxes", "addr:city": "FRESNO", "addr:country": "US", "addr:postcode": "93704", "addr:state": "CA", "addr:street_address": "365 W SHAW AVE", "amenity": "post_box", "collection_times": "Mo-Fr 09:00", "nsi_id": "unitedstatespostalservice-a77078", "operator": "United States Postal Service", "operator:short": "USPS", "operator:type": "public", "operator:wikidata": "Q668687", "ref": "9370400012"}, "type": "Feature"}
{"geometry": {"coordinates": [-119.791617, 36.789924], "type": "Point"}, "id": "QO0nM7qZW8bkTrz5BLISn7TFifU=", "properties": {"@source_uri": "https://tools.usps.com/UspsToolsRestServices/rest/POLocator/findLocations", "@spider": "usps_collection_boxes", "addr:city": "FRESNO", "addr:country": "US", "addr:postcode": "93704", "addr:state": "CA", "addr:street_address": "1606 E GRIFFITH WAY", "amenity": "post_box", "collection_times": "Mo-Fr 17:00; Sa 14:00", "indoor": "yes", "note": "ON 12/24 AND 12/31, THIS BOX MAY BE COLLECTED AS EARLY AS 12 NOON.", "nsi_id": "unitedstatespostalservice-a77078", "operator": "United States Postal Service", "operator:short": "USPS", "operator:type": "public", "operator:wikidata": "Q668687", "ref": "9370400016"}, "type": "Feature"}
{"geometry": {"coordinates": [-119.789493, 36.781347], "type": "Point"}, "id": "Ubusf83iPDYz0uppinFssXPndyo=", "properties": {"@source_uri": "https://tools.usps.com/UspsToolsRestServices/rest/POLocator/findLocations", "@spider": "usps_collection_boxes", "addr:city": "FRESNO", "addr:country": "US", "addr:postcode": "93704", "addr:state": "CA", "addr:street_address": "1606 E GRIFFITH WAY", "amenity": "post_box", "collection_times": "Mo-Fr 17:00; Sa 16:00", "note": "ON 12/24 AND 12/31, THIS BOX MAY BE COLLECTED AS EARLY AS 12 NOON.", "nsi_id": "unitedstatespostalservice-a77078", "operator": "United States Postal Service", "operator:short": "USPS", "operator:type": "public", "operator:wikidata": "Q668687", "ref": "9370400020"}, "type": "Feature"}
{"geometry": {"coordinates": [-119.807726, 36.811269], "type": "Point"}, "id": "vVcdO1BvXahcX1MEIh-c-DH9p-M=", "properties": {"@source_uri": "https://tools.usps.com/UspsToolsRestServices/rest/POLocator/findLocations", "@spider": "usps_collection_boxes", "addr:city": "FRESNO", "addr:country": "US", "addr:postcode": "93704", "addr:state": "CA", "addr:street_address": "5136 N PALM AVE", "amenity": "post_box", "collection_times": "Mo-Fr 17:00; Sa 14:00", "note": "ON 12/24 AND 12/31, THIS BOX MAY BE COLLECTED AS EARLY AS 12 NOON.", "nsi_id": "unitedstatespostalservice-a77078", "operator": "United States Postal Service", "operator:short": "USPS", "operator:type": "public", "operator:wikidata": "Q668687", "ref": "9370400027"}, "type": "Feature"}
{"geometry": {"coordinates": [-119.807153, 36.80873], "type": "Point"}, "id": "dvZGpnIwNHMZcjybGu2EVDWNxmk=", "properties": {"@source_uri": "https://tools.usps.com/UspsToolsRestServices/rest/POLocator/findLocations", "@spider": "usps_collection_boxes", "addr:city": "FRESNO", "addr:country": "US", "addr:postcode": "93704", "addr:state": "CA", "addr:street_address": "780 W SHAW AVE", "amenity": "post_box", "collection_times": "Mo-Fr 17:00; Sa 14:00", "note": "ON 12/24 AND 12/31, THIS BOX MAY BE COLLECTED AS EARLY AS 12 NOON.", "nsi_id": "unitedstatespostalservice-a77078", "operator": "United States Postal Service", "operator:short": "USPS", "operator:type": "public", "operator:wikidata": "Q668687", "ref": "9370400029"}, "type": "Feature"}
{"geometry": {"coordinates": [-119.806793471, 36.822892406], "type": "Point"}, "id": "bIbJ_6URy5swKmEtu36kOYL8aqg=", "properties": {"@source_uri": "https://tools.usps.com/UspsToolsRestServices/rest/POLocator/findLocations", "@spider": "usps_collection_boxes", "addr:city": "FRESNO", "addr:country": "US", "addr:postcode": "93704", "addr:state": "CA", "addr:street_address": "732 W BULLARD AVE", "amenity": "post_box", "collection_times": "Mo-Fr 09:00; Sa 10:00", "nsi_id": "unitedstatespostalservice-a77078", "operator": "United States Postal Service", "operator:short": "USPS", "operator:type": "public", "operator:wikidata": "Q668687", "ref": "9370400033"}, "type": "Feature"}
{"geometry": {"coordinates": [-119.8065560124, 36.8129159961], "type": "Point"}, "id": "4qs4eudtW5tqPwf0vKcRXJE5V84=", "properties": {"@source_uri": "https://tools.usps.com/UspsToolsRestServices/rest/POLocator/findLocations", "@spider": "usps_collection_boxes", "addr:city": "FRESNO", "addr:country": "US", "addr:postcode": "93704", "addr:state": "CA", "addr:street_address": "5250 N PALM AVE", "amenity": "post_box", "collection_times": "Mo-Fr 17:00", "note": "ON 12/24 AND 12/31, THIS BOX MAY BE COLLECTED AS EARLY AS 12 NOON.", "nsi_id": "unitedstatespostalservice-a77078", "operator": "United States Postal Service", "operator:short": "USPS", "operator:type": "public", "operator:wikidata": "Q668687", "ref": "9370400036"}, "type": "Feature"}
{"geometry": {"coordinates": [-119.8084369791, 36.830898], "type": "Point"}, "id": "2MOyJyHfkid-RCI7rwkKANo78Ac=", "properties": {"@source_uri": "https://tools.usps.com/UspsToolsRestServices/rest/POLocator/findLocations", "@spider": "usps_collection_boxes", "addr:city": "FRESNO", "addr:country": "US", "addr:postcode": "93704", "addr:state": "CA", "addr:street_address": "6465 N PALM AVE", "amenity": "post_box", "collection_times": "Mo-Fr 11:30", "nsi_id": "unitedstatespostalservice-a77078", "operator": "United States Postal Service", "operator:short": "USPS", "operator:type": "public", "operator:wikidata": "Q668687", "ref": "9370400041"}, "type": "Feature"}
{"geometry": {"coordinates": [-119.791741165, 36.790404499], "type": "Point"}, "id": "SDJbmjClvG7Vi782BQDG97rIW_M=", "properties": {"@source_uri": "https://tools.usps.com/UspsToolsRestServices/rest/POLocator/findLocations", "@spider": "usps_collection_boxes", "addr:city": "FRESNO", "addr:country": "US", "addr:postcode": "93704", "addr:state": "CA", "addr:street_address": "1606 E GRIFFITH WAY", "amenity": "post_box", "collection_times": "Mo-Fr 17:00; Sa 14:00", "indoor": "yes", "note": "ON 12/24 AND 12/31, THIS BOX MAY BE COLLECTED AS EARLY AS 12 NOON.", "nsi_id": "unitedstatespostalservice-a77078", "operator": "United States Postal Service", "operator:short": "USPS", "operator:type": "public", "operator:wikidata": "Q668687", "ref": "9370400048"}, "type": "Feature"}
{"geometry": {"coordinates": [-119.8354760257, 36.78525], "type": "Point"}, "id": "z5gdaWRTrjyzouNzK3Drc35LyDg=", "properties": {"@source_uri": "https://tools.usps.com/UspsToolsRestServices/rest/POLocator/findLocations", "@spider": "usps_collection_boxes", "addr:city": "FRESNO", "addr:country": "US", "addr:postcode": "93705", "addr:state": "CA", "addr:street_address": "3727 N HUGHES AVE", "amenity": "post_box", "collection_times": "Mo-Fr 17:00; Sa 16:00", "note": "ON 12/24 AND 12/31, THIS BOX MAY BE COLLECTED AS EARLY AS 12 NOON.", "nsi_id": "unitedstatespostalservice-a77078", "operator": "United States Postal Service", "operator:short": "USPS", "operator:type": "public", "operator:wikidata": "Q668687", "ref": "9370500012"}, "type": "Feature"}
{"geometry": {"coordinates": [-119.835851, 36.785314], "type": "Point"}, "id": "YjEekkL1K9mU88v1Asb2a2YeR8U=", "properties": {"@source_uri": "https://tools.usps.com/UspsToolsRestServices/rest/POLocator/findLocations", "@spider": "usps_collection_boxes", "addr:city": "FRESNO", "addr:country": "US", "addr:postcode": "93705", "addr:state": "CA", "addr:street_address": "3727 N HUGHES AVE", "amenity": "post_box", "collection_times": "Mo-Fr 17:00; Sa 16:00", "indoor": "yes", "note": "ON 12/24 AND 12/31, THIS BOX MAY BE COLLECTED AS EARLY AS 12 NOON.", "nsi_id": "unitedstatespostalservice-a77078", "operator": "United States Postal Service", "operator:short": "USPS", "operator:type": "public", "operator:wikidata": "Q668687", "ref": "9370500021"}, "type": "Feature"}
{"geometry": {"coordinates": [-119.8354872837, 36.78525], "type": "Point"}, "id": "wJdCIiZ-fto-LT_tpGaj2KIfNjo=", "properties": {"@source_uri": "https://tools.usps.com/UspsToolsRestServices/rest/POLocator/findLocations", "@spider": "usps_collection_boxes", "addr:city": "FRESNO", "addr:country": "US", "addr:postcode": "93705", "addr:state": "CA", "addr:street_address": "3727 N HUGHES AVE", "amenity": "post_box", "collection_times": "Mo-Fr 17:00; Sa 14:00", "indoor": "yes", "note": "ON 12/24 AND 12/31, THIS BOX MAY BE COLLECTED AS EARLY AS 12 NOON.", "nsi_id": "unitedstatespostalservice-a77078", "operator": "United States Postal Service", "operator:short": "USPS", "operator:type": "public", "operator:wikidata": "Q668687", "ref": "9370500024"}, "type": "Feature"}
{"geometry": {"coordinates": [-119.8045659809, 36.738782002], "type": "Point"}, "id": "DhaXhU7oA8vfR8v91IRMxTO1vec=", "properties": {"@source_uri": "https://tools.usps.com/UspsToolsRestServices/rest/POLocator/findLocations", "@spider": "usps_collection_boxes", "addr:city": "FRESNO", "addr:country": "US", "addr:postcode": "93706", "addr:state": "CA", "addr:street_address": "1900 E ST", "amenity": "post_box", "collection_times": "Mo-Fr 18:30; Sa 17:00", "note": "ON 12/24 AND 12/31, THIS BOX MAY BE COLLECTED AS EARLY AS 12 NOON.", "nsi_id": "unitedstatespostalservice-a77078", "operator": "United States Postal Service", "operator:short": "USPS", "operator:type": "public", "operator:wikidata": "Q668687", "ref": "9370600003"}, "type": "Feature"}
{"geometry": {"coordinates": [-119.8045320342, 36.7387599995], "type": "Point"}, "id": "6jrYdubQ62RgLmjFgd3z_efCr2Y=", "properties": {"@source_uri": "https://tools.usps.com/UspsToolsRestServices/rest/POLocator/findLocations", "@spider": "usps_collection_boxes", "addr:city": "FRESNO", "addr:country": "US", "addr:postcode": "93706", "addr:state": "CA", "addr:street_address": "1900 E ST", "amenity": "post_box", "collection_times": "Mo-Fr 18:30; Sa 17:00", "indoor": "yes", "note": "ON 12/24 AND 12/31, THIS BOX MAY BE COLLECTED AS EARLY AS 12 NOON.", "nsi_id": "unitedstatespostalservice-a77078", "operator": "United States Postal Service", "operator:short": "USPS", "operator:type": "public", "operator:wikidata": "Q668687", "ref": "9370600006"}, "type": "Feature"}
{"geometry": {"coordinates": [-119.8045320342, 36.7387599995], "type": "Point"}, "id": "o4_Jb6fhh3OLIiiKLGcCD30zSq4=", "properties": {"@source_uri": "https://tools.usps.com/UspsToolsRestServices/rest/POLocator/findLocations", "@spider": "usps_collection_boxes", "addr:city": "FRESNO", "addr:country": "US", "addr:postcode": "93706", "addr:state": "CA", "addr:street_address": "1900 E ST", "amenity": "post_box", "collection_times": "Mo-Fr 18:30; Sa 17:00", "indoor": "yes", "note": "ON 12/24 AND 12/31, THIS BOX MAY BE COLLECTED AS EARLY AS 12 NOON.", "nsi_id": "unitedstatespostalservice-a77078", "operator": "United States Postal Service", "operator:short": "USPS", "operator:type": "public", "operator:wikidata": "Q668687", "ref": "9370600007"}, "type": "Feature"}
{"geometry": {"coordinates": [-119.8045320342, 36.7387599995], "type": "Point"}, "id": "hYzIjU9z0KKs0-QQvJ0S2r5Mwk4=", "properties": {"@source_uri": "https://tools.usps.com/UspsToolsRestServices/rest/POLocator/findLocations", "@spider": "usps_collection_boxes", "addr:city": "FRESNO", "addr:country": "US", "addr:postcode": "93706", "addr:state": "CA", "addr:street_address": "1900 E ST", "amenity": "post_box", "collection_times": "Mo-Fr 18:30; Sa 17:00", "name": "USPS COLLECTION BOX - EXPRESS", "note": "ON 12/24 AND 12/31, THIS BOX MAY BE COLLECTED AS EARLY AS 12 NOON.", "nsi_id": "unitedstatespostalservice-a77078", "operator": "United States Postal Service", "operator:short": "USPS", "operator:type": "public", "operator:wikidata": "Q668687", "ref": "9370600008"}, "type": "Feature"}
{"geometry": {"coordinates": [-119.8045320342, 36.7387599995], "type": "Point"}, "id": "PcggGJgYJP17pXQv6DW5EsPI_fc=", "properties": {"@source_uri": "https://tools.usps.com/UspsToolsRestServices/rest/POLocator/findLocations", "@spider": "usps_collection_boxes", "addr:city": "FRESNO", "addr:country": "US", "addr:postcode": "93706", "addr:state": "CA", "addr:street_address": "1900 E ST", "amenity": "post_box", "collection_times": "Mo-Fr 18:30; Sa 17:00", "indoor": "yes", "note": "ON 12/24 AND 12/31, THIS BOX MAY BE COLLECTED AS EARLY AS 12 NOON.", "nsi_id": "unitedstatespostalservice-a77078", "operator": "United States Postal Service", "operator:short": "USPS", "operator:type": "public", "operator:wikidata": "Q668687", "ref": "9370600009"}, "type": "Feature"}
{"geometry": {"coordinates": [-119.8045320342, 36.7387599995], "type": "Point"}, "id": "77f4SER2mHFGVRDQN2ubBxbn-OM=", "properties": {"@source_uri": "https://tools.usps.com/UspsToolsRestServices/rest/POLocator/findLocations", "@spider": "usps_collection_boxes", "addr:city": "FRESNO", "addr:country": "US", "addr:postcode": "93706", "addr:state": "CA", "addr:street_address": "1900 E ST", "amenity": "post_box", "collection_times": "Mo-Fr 18:30; Sa 17:00", "name": "USPS COLLECTION BOX - APC", "note": "ON 12/24 AND 12/31, THIS BOX MAY BE COLLECTED AS EARLY AS 12 NOON.", "nsi_id": "unitedstatespostalservice-a77078", "operator": "United States Postal Service", "operator:short": "USPS", "operator:type": "public", "operator:wikidata": "Q668687", "ref": "9370600011"}, "type": "Feature"}
{"geometry": {"coordinates": [-119.790748, 36.6513], "type": "Point"}, "id": "awHjYsC3dH-aYcMYFedR8ZGk-FA=", "properties": {"@source_uri": "https://tools.usps.com/UspsToolsRestServices/rest/POLocator/findLocations", "@spider": "usps_collection_boxes", "addr:city": "FRESNO", "addr:country": "US", "addr:postcode": "93706", "addr:state": "CA", "addr:street_address": "5796 S ELM AVE", "amenity": "post_box", "collection_times": "Mo-Fr 10:00", "nsi_id": "unitedstatespostalservice-a77078", "operator": "United States Postal Service", "operator:short": "USPS", "operator:type": "public", "operator:wikidata": "Q668687", "ref": "9370600012"}, "type": "Feature"}
{"geometry": {"coordinates": [-119.7727074947, 36.70848], "type": "Point"}, "id": "r1ELXMxO9PFG-GU_UgOqdHT3ceg=", "properties": {"@source_uri": "https://tools.usps.com/UspsToolsRestServices/rest/POLocator/findLocations", "@spider": "usps_collection_boxes", "addr:city": "FRESNO", "addr:country": "US", "addr:postcode": "93706", "addr:state": "CA", "addr:street_address": "2560 S EAST AVE", "amenity": "post_box", "collection_times": "Mo-Fr 16:00", "note": "ON 12/24 AND 12/31, THIS BOX MAY BE COLLECTED AS EARLY AS 12 NOON.", "nsi_id": "unitedstatespostalservice-a77078", "operator": "United States Postal Service", "operator:short": "USPS", "operator:type": "public", "operator:wikidata": "Q668687", "ref": "9370600013"}, "type": "Feature"}
{"geometry": {"coordinates": [-119.7600249666, 36.8094979817], "type": "Point"}, "id": "jbInMooNxRmKYsatLEIzGpGrVnQ=", "properties": {"@source_uri": "https://tools.usps.com/UspsToolsRestServices/rest/POLocator/findLocations", "@spider": "usps_collection_boxes", "addr:city": "FRESNO", "addr:country": "US", "addr:postcode": "93710", "addr:state": "CA", "addr:street_address": "1510 E SHAW AVE", "amenity": "post_box", "collection_times": "Mo-Fr 10:00", "nsi_id": "unitedstatespostalservice-a77078", "operator": "United States Postal Service", "operator:short": "USPS", "operator:type": "public", "operator:wikidata": "Q668687", "ref": "9371000002"}, "type": "Feature"}
{"geometry": {"coordinates": [-119.781515, 36.82545], "type": "Point"}, "id": "qWYhirExrS7h18R5k8N_P5oxRuM=", "properties": {"@source_uri": "https://tools.usps.com/UspsToolsRestServices/rest/POLocator/findLocations", "@spider": "usps_collection_boxes", "addr:city": "FRESNO", "addr:country": "US", "addr:postcode": "93710", "addr:state": "CA", "addr:street_address": "6143 N FRESNO ST", "amenity": "post_box", "collection_times": "Mo-Fr 13:00", "note": "ON 12/24 AND 12/31, THIS BOX MAY BE COLLECTED AS EARLY AS 12 NOON.", "nsi_id": "unitedstatespostalservice-a77078", "operator": "United States Postal Service", "operator:short": "USPS", "operator:type": "public", "operator:wikidata": "Q668687", "ref": "9371000007"}, "type": "Feature"}
{"geometry": {"coordinates": [-119.773231, 36.823176], "type": "Point"}, "id": "PNc2zOS_9s_AlQWcH4S7LFYlVk0=", "properties": {"@source_uri": "https://tools.usps.com/UspsToolsRestServices/rest/POLocator/findLocations", "@spider": "usps_collection_boxes", "addr:city": "FRESNO", "addr:country": "US", "addr:postcode": "93710", "addr:state": "CA", "addr:street_address": "758 E BULLARD AVE", "amenity": "post_box", "collection_times": "Mo-Sa 10:00", "nsi_id": "unitedstatespostalservice-a77078", "operator": "United States Postal Service", "operator:short": "USPS", "operator:type": "public", "operator:wikidata": "Q668687", "ref": "9371000014"}, "type": "Feature"}
{"geometry": {"coordinates": [-119.766446, 36.80877], "type": "Point"}, "id": "jkHKYjscMqVw76ZgzWUrBfU8ajg=", "properties": {"@source_uri": "https://tools.usps.com/UspsToolsRestServices/rest/POLocator/findLocations", "@spider": "usps_collection_boxes", "addr:city": "FRESNO", "addr:country": "US", "addr:postcode": "93710", "addr:state": "CA", "addr:street_address": "1300 E SHAW AVE", "amenity": "post_box", "collection_times": "Mo-Fr 16:15; Sa 13:00", "note": "ON 12/24 AND 12/31, THIS BOX MAY BE COLLECTED AS EARLY AS 12 NOON.", "nsi_id": "unitedstatespostalservice-a77078", "operator": "United States Postal Service", "operator:short": "USPS", "operator:type": "public", "operator:wikidata": "Q668687", "ref": "9371000025"}, "type": "Feature"}
{"geometry": {"coordinates": [-119.764304, 36.809638], "type": "Point"}, "id": "NdqPA2xrAD1EXlrgs5WusH3fF3w=", "properties": {"@source_uri": "https://tools.usps.com/UspsToolsRestServices/rest/POLocator/findLocations", "@spider": "usps_collection_boxes", "addr:city": "FRESNO", "addr:country": "US", "addr:postcode": "93710", "addr:state": "CA", "addr:street_address": "1320 E SHAW AVE", "amenity": "post_box", "collection_times": "Mo-Fr 16:15", "note": "ON 12/24 AND 12/31, THIS BOX MAY BE COLLECTED AS EARLY AS 12 NOON.", "nsi_id": "unitedstatespostalservice-a77078", "operator": "United States Postal Service", "operator:short": "USPS", "operator:type": "public", "operator:wikidata": "Q668687", "ref": "9371000028"}, "type": "Feature"}
{"geometry": {"coordinates": [-119.783031, 36.825755], "type": "Point"}, "id": "Dpv8sRemy7c3vV23xmyGW5TdEnk=", "properties": {"@source_uri": "https://tools.usps.com/UspsToolsRestServices/rest/POLocator/findLocations", "@spider": "usps_collection_boxes", "addr:city": "FRESNO", "addr:country": "US", "addr:postcode": "93710", "addr:state": "CA", "addr:street_address": "6107 N THESTA ST", "amenity": "post_box", "collection_times": "Mo-Fr 14:30", "note": "ON 12/24 AND 12/31, THIS BOX MAY BE COLLECTED AS EARLY AS 12 NOON.", "nsi_id": "unitedstatespostalservice-a77078", "operator": "United States Postal Service", "operator:short": "USPS", "operator:type": "public", "operator:wikidata": "Q668687", "ref": "9371000036"}, "type": "Feature"}
{"geometry": {"coordinates": [-119.789059, 36.830256], "type": "Point"}, "id": "eHwwgcy74tigNX8EuvZcSvc_3ic=", "properties": {"@source_uri": "https://tools.usps.com/UspsToolsRestServices/rest/POLocator/findLocations", "@spider": "usps_collection_boxes", "addr:city": "FRESNO", "addr:country": "US", "addr:postcode": "93710", "addr:state": "CA", "addr:street_address": "64 E SIERRA AVE", "amenity": "post_box", "collection_times": "Mo-Sa 10:00", "nsi_id": "unitedstatespostalservice-a77078", "operator": "United States Postal Service", "operator:short": "USPS", "operator:type": "public", "operator:wikidata": "Q668687", "ref": "9371000056"}, "type": "Feature"}
{"geometry": {"coordinates": [-119.844475, 36.82921], "type": "Point"}, "id": "pSgV_oE4H1fYzDdmn6_pfTpUvdk=", "properties": {"@source_uri": "https://tools.usps.com/UspsToolsRestServices/rest/POLocator/findLocations", "@spider": "usps_collection_boxes", "addr:city": "FRESNO", "addr:country": "US", "addr:postcode": "93711", "addr:state": "CA", "addr:street_address": "7010 N WEST AVE", "amenity": "post_box", "collection_times": "Mo-Fr 15:30; Sa 13:00", "note": "ON 12/24 AND 12/31, THIS BOX MAY BE COLLECTED AS EARLY AS 12 NOON.", "nsi_id": "unitedstatespostalservice-a77078", "operator": "United States Postal Service", "operator:short": "USPS", "operator:type": "public", "operator:wikidata": "Q668687", "ref": "9371100012"}, "type": "Feature"}
{"geometry": {"coordinates": [-119.826543, 36.82331], "type": "Point"}, "id": "RiPi7n0JgVWU77q9Nb0BUQtB0Wc=", "properties": {"@source_uri": "https://tools.usps.com/UspsToolsRestServices/rest/POLocator/findLocations", "@spider": "usps_collection_boxes", "addr:city": "FRESNO", "addr:country": "US", "addr:postcode": "93711", "addr:state": "CA", "addr:street_address": "6001 N WEST AVE", "amenity": "post_box", "collection_times": "Mo-Sa 10:00", "nsi_id": "unitedstatespostalservice-a77078", "operator": "United States Postal Service", "operator:short": "USPS", "operator:type": "public", "operator:wikidata": "Q668687", "ref": "9371100014"}, "type": "Feature"}
{"geometry": {"coordinates": [-119.828664, 36.80812], "type": "Point"}, "id": "nHvsWtBLcy9P6r_bd0T5muwUvZ0=", "properties": {"@source_uri": "https://tools.usps.com/UspsToolsRestServices/rest/POLocator/findLocations", "@spider": "usps_collection_boxes", "addr:city": "FRESNO", "addr:country": "US", "addr:postcode": "93711", "addr:state": "CA", "addr:street_address": "2097 W SHAW AVE", "amenity": "post_box", "collection_times": "Mo-Sa 10:00", "nsi_id": "unitedstatespostalservice-a77078", "operator": "United States Postal Service", "operator:short": "USPS", "operator:type": "public", "operator:wikidata": "Q668687", "ref": "9371100029"}, "type": "Feature"}
{"geometry": {"coordinates": [-119.8388385, 36.809235458], "type": "Point"}, "id": "n95_Uo6hh_yVz0Rf67usCPBNaNI=", "properties": {"@source_uri": "https://tools.usps.com/UspsToolsRestServices/rest/POLocator/findLocations", "@spider": "usps_collection_boxes", "addr:city": "FRESNO", "addr:country": "US", "addr:postcode": "93711", "addr:state": "CA", "addr:street_address": "2540 W SHAW LN", "amenity": "post_box", "collection_times": "Mo-Sa 10:00", "nsi_id": "unitedstatespostalservice-a77078", "operator": "United States Postal Service", "operator:short": "USPS", "operator:type": "public", "operator:wikidata": "Q668687", "ref": "9371100035"}, "type": "Feature"}
{"geometry": {"coordinates": [-119.844475, 36.82921], "type": "Point"}, "id": "wtTDN15Xy_Q7RrswCZd3O9AS3qU=", "properties": {"@source_uri": "https://tools.usps.com/UspsToolsRestServices/rest/POLocator/findLocations", "@spider": "usps_collection_boxes", "addr:city": "FRESNO", "addr:country": "US", "addr:postcode": "93711", "addr:state": "CA", "addr:street_address": "7035 N MARKS AVE", "amenity": "post_box", "collection_times": "Mo-Sa 10:00", "nsi_id": "unitedstatespostalservice-a77078", "operator": "United States Postal Service", "operator:short": "USPS", "operator:type": "public", "operator:wikidata": "Q668687", "ref": "9371100048"}, "type": "Feature"}
{"geometry": {"coordinates": [-119.853662, 36.807313], "type": "Point"}, "id": "B20oGe3P39dyp-0CRBrw1o9Dap4=", "properties": {"@source_uri": "https://tools.usps.com/UspsToolsRestServices/rest/POLocator/findLocations", "@spider": "usps_collection_boxes", "addr:city": "FRESNO", "addr:country": "US", "addr:postcode": "93711", "addr:state": "CA", "addr:street_address": "3411 W SHAW AVE", "amenity": "post_box", "collection_times": "Mo-Sa 10:00", "nsi_id": "unitedstatespostalservice-a77078", "operator": "United States Postal Service", "operator:short": "USPS", "operator:type": "public", "operator:wikidata": "Q668687", "ref": "9371100060"}, "type": "Feature"}
{"geometry": {"coordinates": [-119.8019014721, 36.8446310584], "type": "Point"}, "id": "I3_GMj3Ar6cx5fhGlDDPba0qT_w=", "properties": {"@source_uri": "https://tools.usps.com/UspsToolsRestServices/rest/POLocator/findLocations", "@spider": "usps_collection_boxes", "addr:city": "FRESNO", "addr:country": "US", "addr:postcode": "93711", "addr:state": "CA", "addr:street_address": "7409 N INGRAM AVE", "amenity": "post_box", "collection_times": "Mo-Sa 12:00", "nsi_id": "unitedstatespostalservice-a77078", "operator": "United States Postal Service", "operator:short": "USPS", "operator:type": "public", "operator:wikidata": "Q668687", "ref": "9371100077"}, "type": "Feature"}
{"geometry": {"coordinates": [-119.86243, 36.809549], "type": "Point"}, "id": "PjpCr5aVfz2j03SlrAdzZsCLxhM=", "properties": {"@source_uri": "https://tools.usps.com/UspsToolsRestServices/rest/POLocator/findLocations", "@spider": "usps_collection_boxes", "addr:city": "FRESNO", "addr:country": "US", "addr:postcode": "93711", "addr:state": "CA", "addr:street_address": "5002 N BRAWLEY", "amenity": "post_box", "collection_times": "Mo-Sa 10:00", "nsi_id": "unitedstatespostalservice-a77078", "operator": "United States Postal Service", "operator:short": "USPS", "operator:type": "public", "operator:wikidata": "Q668687", "ref": "9371100086"}, "type": "Feature"}
{"geometry": {"coordinates": [-119.8091190307, 36.8433270076], "type": "Point"}, "id": "dL0CsR_mPY8rNoKjT4ZBH8WwsIg=", "properties": {"@source_uri": "https://tools.usps.com/UspsToolsRestServices/rest/POLocator/findLocations", "@spider": "usps_collection_boxes", "addr:city": "FRESNO", "addr:country": "US", "addr:postcode": "93711", "addr:state": "CA", "addr:street_address": "7355 N PALM AVE", "amenity": "post_box", "collection_times": "Mo-Fr 14:30", "note": "ON 12/24 AND 12/31, THIS BOX MAY BE COLLECTED AS EARLY AS 12 NOON.", "nsi_id": "unitedstatespostalservice-a77078", "operator": "United States Postal Service", "operator:short": "USPS", "operator:type": "public", "operator:wikidata": "Q668687", "ref": "9371100088"}, "type": "Feature"}
{"geometry": {"coordinates": [-119.770947, 36.851657], "type": "Point"}, "id": "bJ4cYd_p2bWJX0nf3PR_7zX_D4k=", "properties": {"@source_uri": "https://tools.usps.com/UspsToolsRestServices/rest/POLocator/findLocations", "@spider": "usps_collection_boxes", "addr:city": "FRESNO", "addr:country": "US", "addr:postcode": "93720", "addr:state": "CA", "addr:street_address": "755 E NEES AVE", "amenity": "post_box", "collection_times": "Mo-Fr 17:00; Sa 16:00", "note": "ON 12/24 AND 12/31, THIS BOX MAY BE COLLECTED AS EARLY AS 12 NOON.", "nsi_id": "unitedstatespostalservice-a77078", "operator": "United States Postal Service", "operator:short": "USPS", "operator:type": "public", "operator:wikidata": "Q668687", "ref": "9372000003"}, "type": "Feature"}
{"geometry": {"coordinates": [-119.770933, 36.851647], "type": "Point"}, "id": "wY6fkIdmRv-1MjesXkAhTMYtH1Q=", "properties": {"@source_uri": "https://tools.usps.com/UspsToolsRestServices/rest/POLocator/findLocations", "@spider": "usps_collection_boxes", "addr:city": "FRESNO", "addr:country": "US", "addr:postcode": "93720", "addr:state": "CA", "addr:street_address": "755 E NEES AVE", "amenity": "post_box", "collection_times": "Mo-Fr 17:00; Sa 16:00", "note": "ON 12/24 AND 12/31, THIS BOX MAY BE COLLECTED AS EARLY AS 12 NOON.", "nsi_id": "unitedstatespostalservice-a77078", "operator": "United States Postal Service", "operator:short": "USPS", "operator:type": "public", "operator:wikidata": "Q668687", "ref": "9372000006"}, "type": "Feature"}
{"geometry": {"coordinates": [-119.753913, 36.839099], "type": "Point"}, "id": "btYtiQ6f5qso6ai8-qe82tEKVDM=", "properties": {"@source_uri": "https://tools.usps.com/UspsToolsRestServices/rest/POLocator/findLocations", "@spider": "usps_collection_boxes", "addr:city": "FRESNO", "addr:country": "US", "addr:postcode": "93720", "addr:state": "CA", "addr:street_address": "7014 N CEDAR AVE", "amenity": "post_box", "collection_times": "Mo-Fr 09:00; Sa 10:00", "nsi_id": "unitedstatespostalservice-a77078", "operator": "United States Postal Service", "operator:short": "USPS", "operator:type": "public", "operator:wikidata": "Q668687", "ref": "9372000027"}, "type": "Feature"}
{"geometry": {"coordinates": [-119.763864, 36.86994], "type": "Point"}, "id": "SI2MshAUCiWMEWKs4dXB11wPhPk=", "properties": {"@source_uri": "https://tools.usps.com/UspsToolsRestServices/rest/POLocator/findLocations", "@spider": "usps_collection_boxes", "addr:city": "FRESNO", "addr:country": "US", "addr:postcode": "93720", "addr:state": "CA", "addr:street_address": "1109 E CHAMPLAIN DR", "amenity": "post_box", "collection_times": "Mo-Sa 10:00", "nsi_id": "unitedstatespostalservice-a77078", "operator": "United States Postal Service", "operator:short": "USPS", "operator:type": "public", "operator:wikidata": "Q668687", "ref": "9372000039"}, "type": "Feature"}
{"geometry": {"coordinates": [-119.770967, 36.851275], "type": "Point"}, "id": "4JGaZSSMAStZSj9Z7Q82LHddoco=", "properties": {"@source_uri": "https://tools.usps.com/UspsToolsRestServices/rest/POLocator/findLocations", "@spider": "usps_collection_boxes", "addr:city": "FRESNO", "addr:country": "US", "addr:postcode": "93720", "addr:state": "CA", "addr:street_address": "755 E NEES AVE", "amenity": "post_box", "collection_times": "Mo-Fr 17:00; Sa 16:00", "indoor": "yes", "note": "ON 12/24 AND 12/31, THIS BOX MAY BE COLLECTED AS EARLY AS 12 NOON.", "nsi_id": "unitedstatespostalservice-a77078", "operator": "United States Postal Service", "operator:short": "USPS", "operator:type": "public", "operator:wikidata": "Q668687", "ref": "9372000040"}, "type": "Feature"}
{"geometry": {"coordinates": [-119.770969, 36.851274], "type": "Point"}, "id": "q-6acKurmUwAGkbji_dLbrRdk6I=", "properties": {"@source_uri": "https://tools.usps.com/UspsToolsRestServices/rest/POLocator/findLocations", "@spider": "usps_collection_boxes", "addr:city": "FRESNO", "addr:country": "US", "addr:postcode": "93720", "addr:state": "CA", "addr:street_address": "755 E NEES AVE", "amenity": "post_box", "collection_times": "Mo-Fr 17:00; Sa 16:00", "indoor": "yes", "note": "ON 12/24 AND 12/31, THIS BOX MAY BE COLLECTED AS EARLY AS 12 NOON.", "nsi_id": "unitedstatespostalservice-a77078", "operator": "United States Postal Service", "operator:short": "USPS", "operator:type": "public", "operator:wikidata": "Q668687", "ref": "9372000045"}, "type": "Feature"}
{"geometry": {"coordinates": [-119.78388266, 36.853168799], "type": "Point"}, "id": "NRNXDbYnrUr2M1NR3vbKLS8xBrU=", "properties": {"@source_uri": "https://tools.usps.com/UspsToolsRestServices/rest/POLocator/findLocations", "@spider": "usps_collection_boxes", "addr:city": "FRESNO", "addr:country": "US", "addr:postcode": "93720", "addr:state": "CA", "addr:street_address": "8221 N FRESNO ST", "amenity": "post_box", "collection_times": "Mo-Fr 09:00", "nsi_id": "unitedstatespostalservice-a77078", "operator": "United States Postal Service", "operator:short": "USPS", "operator:type": "public", "operator:wikidata": "Q668687", "ref": "9372000046"}, "type": "Feature"}
{"geometry": {"coordinates": [-119.770932, 36.851659], "type": "Point"}, "id": "4e0L5EoQYXrO5btsl7SBUyqca2Y=", "properties": {"@source_uri": "https://tools.usps.com/UspsToolsRestServices/rest/POLocator/findLocations", "@spider": "usps_collection_boxes", "addr:city": "FRESNO", "addr:country": "US", "addr:postcode": "93720", "addr:state": "CA", "addr:street_address": "755 E NEES AVE", "amenity": "post_box", "collection_times": "Mo-Fr 17:00; Sa 16:00", "note": "ON 12/24 AND 12/31, THIS BOX MAY BE COLLECTED AS EARLY AS 12 NOON.", "nsi_id": "unitedstatespostalservice-a77078", "operator": "United States Postal Service", "operator:short": "USPS", "operator:type": "public", "operator:wikidata": "Q668687", "ref": "9372000055"}, "type": "Feature"}
{"geometry": {"coordinates": [-119.771004, 36.851339], "type": "Point"}, "id": "zI2zczCkLoQ3f8_zncYjtG5vxu8=", "properties": {"@source_uri": "https://tools.usps.com/UspsToolsRestServices/rest/POLocator/findLocations", "@spider": "usps_collection_boxes", "addr:city": "FRESNO", "addr:country": "US", "addr:postcode": "93720", "addr:state": "CA", "addr:street_address": "755 E NEES AVE", "amenity": "post_box", "collection_times": "Mo-Fr 17:00; Sa 16:00", "name": "USPS COLLECTION BOX - APC", "note": "ON 12/24 AND 12/31, THIS BOX MAY BE COLLECTED AS EARLY AS 12 NOON.", "nsi_id": "unitedstatespostalservice-a77078", "operator": "United States Postal Service", "operator:short": "USPS", "operator:type": "public", "operator:wikidata": "Q668687", "ref": "9372000056"}, "type": "Feature"}
{"geometry": {"coordinates": [-119.771005, 36.851355], "type": "Point"}, "id": "hb_6ZCHfCzWsd42Y0ZnEQqxMwqM=", "properties": {"@source_uri": "https://tools.usps.com/UspsToolsRestServices/rest/POLocator/findLocations", "@spider": "usps_collection_boxes", "addr:city": "FRESNO", "addr:country": "US", "addr:postcode": "93720", "addr:state": "CA", "addr:street_address": "755 E NEES AVE", "amenity": "post_box", "collection_times": "Mo-Fr 17:00; Sa 16:00", "name": "USPS COLLECTION BOX - APC", "note": "ON 12/24 AND 12/31, THIS BOX MAY BE COLLECTED AS EARLY AS 12 NOON.", "nsi_id": "unitedstatespostalservice-a77078", "operator": "United States Postal Service", "operator:short": "USPS", "operator:type": "public", "operator:wikidata": "Q668687", "ref": "9372000057"}, "type": "Feature"}
{"geometry": {"coordinates": [-119.771113028, 36.851818485], "type": "Point"}, "id": "7KbNcqld90L82UgORnslzNizd88=", "properties": {"@source_uri": "https://tools.usps.com/UspsToolsRestServices/rest/POLocator/findLocations", "@spider": "usps_collection_boxes", "addr:city": "FRESNO", "addr:country": "US", "addr:postcode": "93720", "addr:state": "CA", "addr:street_address": "755 E NEES AVE", "amenity": "post_box", "collection_times": "Mo-Fr 17:00; Sa 14:00", "indoor": "yes", "note": "ON 12/24 AND 12/31, THIS BOX MAY BE COLLECTED AS EARLY AS 12 NOON.", "nsi_id": "unitedstatespostalservice-a77078", "operator": "United States Postal Service", "operator:short": "USPS", "operator:type": "public", "operator:wikidata": "Q668687", "ref": "9372000066"}, "type": "Feature"}
{"geometry": {"coordinates": [-119.792678, 36.737673], "type": "Point"}, "id": "0fBco1p3_p3XFT8LtkWVewUNO9s=", "properties": {"@source_uri": "https://tools.usps.com/UspsToolsRestServices/rest/POLocator/findLocations", "@spider": "usps_collection_boxes", "addr:city": "FRESNO", "addr:country": "US", "addr:postcode": "93721", "addr:state": "CA", "addr:street_address": "1315 VAN NESS AVE", "amenity": "post_box", "collection_times": "Mo-Fr 10:00", "nsi_id": "unitedstatespostalservice-a77078", "operator": "United States Postal Service", "operator:short": "USPS", "operator:type": "public", "operator:wikidata": "Q668687", "ref": "9372100005"}, "type": "Feature"}
{"geometry": {"coordinates": [-119.784506997, 36.7357290195], "type": "Point"}, "id": "VjzhlnLz7W0hivsIg-YYeCzd7eE=", "properties": {"@source_uri": "https://tools.usps.com/UspsToolsRestServices/rest/POLocator/findLocations", "@spider": "usps_collection_boxes", "addr:city": "FRESNO", "addr:country": "US", "addr:postcode": "93721", "addr:state": "CA", "addr:street_address": "2405 CAPITOL ST", "amenity": "post_box", "collection_times": "Mo-Fr 15:45", "note": "ON 12/24 AND 12/31, THIS BOX MAY BE COLLECTED AS EARLY AS 12 NOON.", "nsi_id": "unitedstatespostalservice-a77078", "operator": "United States Postal Service", "operator:short": "USPS", "operator:type": "public", "operator:wikidata": "Q668687", "ref": "9372100018"}, "type": "Feature"}
{"geometry": {"coordinates": [-119.782901, 36.742352], "type": "Point"}, "id": "h6IeTPoofPP4UhmkHwspl46rrl8=", "properties": {"@source_uri": "https://tools.usps.com/UspsToolsRestServices/rest/POLocator/findLocations", "@spider": "usps_collection_boxes", "addr:city": "FRESNO", "addr:country": "US", "addr:postcode": "93721", "addr:state": "CA", "addr:street_address": "2900 FRESNO ST", "amenity": "post_box", "collection_times": "Mo-Fr 10:00", "nsi_id": "unitedstatespostalservice-a77078", "operator": "United States Postal Service", "operator:short": "USPS", "operator:type": "public", "operator:wikidata": "Q668687", "ref": "9372100023"}, "type": "Feature"}
{"geometry": {"coordinates": [-119.786002, 36.738585], "type": "Point"}, "id": "wV4EwQ0Q0iDmAKp3YX8I-DxtrpI=", "properties": {"@source_uri": "https://tools.usps.com/UspsToolsRestServices/rest/POLocator/findLocations", "@spider": "usps_collection_boxes", "addr:city": "FRESNO", "addr:country": "US", "addr:postcode": "93721", "addr:state": "CA", "addr:street_address": "1130 O ST", "amenity": "post_box", "collection_times": "Mo-Fr 09:30", "nsi_id": "unitedstatespostalservice-a77078", "operator": "United States Postal Service", "operator:short": "USPS", "operator:type": "public", "operator:wikidata": "Q668687", "ref": "9372100032"}, "type": "Feature"}
{"geometry": {"coordinates": [-119.790999, 36.737442], "type": "Point"}, "id": "Bgzm49q8QdbSMGTDIF8OElzl4QI=", "properties": {"@source_uri": "https://tools.usps.com/UspsToolsRestServices/rest/POLocator/findLocations", "@spider": "usps_collection_boxes", "addr:city": "FRESNO", "addr:country": "US", "addr:postcode": "93721", "addr:state": "CA", "addr:street_address": "2135 FRESNO ST", "amenity": "post_box", "collection_times": "Mo-Fr 17:15", "note": "ON 12/24 AND 12/31, THIS BOX MAY BE COLLECTED AS EARLY AS 12 NOON.", "nsi_id": "unitedstatespostalservice-a77078", "operator": "United States Postal Service", "operator:short": "USPS", "operator:type": "public", "operator:wikidata": "Q668687", "ref": "9372100039"}, "type": "Feature"}
{"geometry": {"coordinates": [-119.785317, 36.739315], "type": "Point"}, "id": "-Fz8IqoepeOH_uZfy5g53y3Rkpg=", "properties": {"@source_uri": "https://tools.usps.com/UspsToolsRestServices/rest/POLocator/findLocations", "@spider": "usps_collection_boxes", "addr:city": "FRESNO", "addr:country": "US", "addr:postcode": "93721", "addr:state": "CA", "addr:street_address": "1151 P ST", "amenity": "post_box", "collection_times": "Mo-Fr 10:00", "nsi_id": "unitedstatespostalservice-a77078", "operator": "United States Postal Service", "operator:short": "USPS", "operator:type": "public", "operator:wikidata": "Q668687", "ref": "9372100058"}, "type": "Feature"}
{"geometry": {"coordinates": [-119.787314, 36.736464], "type": "Point"}, "id": "9iXj9TFFhQUHU6N_p6TIRsJQQoY=", "properties": {"@source_uri": "https://tools.usps.com/UspsToolsRestServices/rest/POLocator/findLocations", "@spider": "usps_collection_boxes", "addr:city": "FRESNO", "addr:country": "US", "addr:postcode": "93721", "addr:state": "CA", "addr:street_address": "2309 TULARE ST", "amenity": "post_box", "collection_times": "Mo-Sa 16:00", "note": "ON 12/24 AND 12/31, THIS BOX MAY BE COLLECTED AS EARLY AS 12 NOON.", "nsi_id": "unitedstatespostalservice-a77078", "operator": "United States Postal Service", "operator:short": "USPS", "operator:type": "public", "operator:wikidata": "Q668687", "ref": "9372100062"}, "type": "Feature"}
{"geometry": {"coordinates": [-119.787762286, 36.734985364], "type": "Point"}, "id": "ElNjhaGwyCfHUQ1hXePL8KSfGTs=", "properties": {"@source_uri": "https://tools.usps.com/UspsToolsRestServices/rest/POLocator/findLocations", "@spider": "usps_collection_boxes", "addr:city": "FRESNO", "addr:country": "US", "addr:postcode": "93721", "addr:state": "CA", "addr:street_address": "955 L ST", "amenity": "post_box", "collection_times": "Mo-Fr 10:30", "nsi_id": "unitedstatespostalservice-a77078", "operator": "United States Postal Service", "operator:short": "USPS", "operator:type": "public", "operator:wikidata": "Q668687", "ref": "9372100072"}, "type": "Feature"}
{"geometry": {"coordinates": [-119.780666, 36.7347], "type": "Point"}, "id": "SG3HVR0aw9r_8DDoRKbyPgxlz9k=", "properties": {"@source_uri": "https://tools.usps.com/UspsToolsRestServices/rest/POLocator/findLocations", "@spider": "usps_collection_boxes", "addr:city": "FRESNO", "addr:country": "US", "addr:postcode": "93721", "addr:state": "CA", "addr:street_address": "705 P ST", "amenity": "post_box", "collection_times": "Mo-Fr 10:00", "nsi_id": "unitedstatespostalservice-a77078", "operator": "United States Postal Service", "operator:short": "USPS", "operator:type": "public", "operator:wikidata": "Q668687", "ref": "9372100074"}, "type": "Feature"}
{"geometry": {"coordinates": [-119.785394, 36.738996], "type": "Point"}, "id": "GjxAv00ZmdTsVtVnPPEw_kx1dAg=", "properties": {"@source_uri": "https://tools.usps.com/UspsToolsRestServices/rest/POLocator/findLocations", "@spider": "usps_collection_boxes", "addr:city": "FRESNO", "addr:country": "US", "addr:postcode": "93721", "addr:state": "CA", "addr:street_address": "2550 MARIPOSA MALL", "amenity": "post_box", "collection_times": "Mo-Fr 16:30", "note": "ON 12/24 AND 12/31, THIS BOX MAY BE COLLECTED AS EARLY AS 12 NOON.", "nsi_id": "unitedstatespostalservice-a77078", "operator": "United States Postal Service", "operator:short": "USPS", "operator:type": "public", "operator:wikidata": "Q668687", "ref": "9372100091"}, "type": "Feature"}
{"geometry": {"coordinates": [-119.8775736932, 36.8371744566], "type": "Point"}, "id": "W53_iUo5khDFCRcpWBHH-Xps5h4=", "properties": {"@source_uri": "https://tools.usps.com/UspsToolsRestServices/rest/POLocator/findLocations", "@spider": "usps_collection_boxes", "addr:city": "FRESNO", "addr:country": "US", "addr:postcode": "93722", "addr:state": "CA", "addr:street_address": "4770 W HERNDON AVE", "amenity": "post_box", "collection_times": "Mo-Fr 14:00; Sa 10:00", "note": "ON 12/24 AND 12/31, THIS BOX MAY BE COLLECTED AS EARLY AS 12 NOON.", "nsi_id": "unitedstatespostalservice-a77078", "operator": "United States Postal Service", "operator:short": "USPS", "operator:type": "public", "operator:wikidata": "Q668687", "ref": "9372200022"}, "type": "Feature"}
{"geometry": {"coordinates": [-119.8774127942, 36.8108528823], "type": "Point"}, "id": "1YXn8-Dfk0o6vD2PdIxNC677pD8=", "properties": {"@source_uri": "https://tools.usps.com/UspsToolsRestServices/rest/POLocator/findLocations", "@spider": "usps_collection_boxes", "addr:city": "FRESNO", "addr:country": "US", "addr:postcode": "93722", "addr:state": "CA", "addr:street_address": "4672 W JENNIFER AVE", "amenity": "post_box", "collection_times": "Mo-Fr 10:30", "nsi_id": "unitedstatespostalservice-a77078", "operator": "United States Postal Service", "operator:short": "USPS", "operator:type": "public", "operator:wikidata": "Q668687", "ref": "9372200024"}, "type": "Feature"}
{"geometry": {"coordinates": [-119.862778081, 36.771818503], "type": "Point"}, "id": "abYI46uY5cKo_zTY5QFa7Ap91rE=", "properties": {"@source_uri": "https://tools.usps.com/UspsToolsRestServices/rest/POLocator/findLocations", "@spider": "usps_collection_boxes", "addr:city": "FRESNO", "addr:country": "US", "addr:postcode": "93722", "addr:state": "CA", "addr:street_address": "4015 W CLINTON AVE", "amenity": "post_box", "collection_times": "Mo-Sa 10:00", "nsi_id": "unitedstatespostalservice-a77078", "operator": "United States Postal Service", "operator:short": "USPS", "operator:type": "public", "operator:wikidata": "Q668687", "ref": "9372200028"}, "type": "Feature"}
{"geometry": {"coordinates": [-119.871603, 36.809586], "type": "Point"}, "id": "gkhoj3H8yEgmvhJbDElvLjCyaV8=", "properties": {"@source_uri": "https://tools.usps.com/UspsToolsRestServices/rest/POLocator/findLocations", "@spider": "usps_collection_boxes", "addr:city": "FRESNO", "addr:country": "US", "addr:postcode": "93722", "addr:state": "CA", "addr:street_address": "4460 W SHAW AVE", "amenity": "post_box", "collection_times": "Mo-Fr 09:30; Sa 10:00", "nsi_id": "unitedstatespostalservice-a77078", "operator": "United States Postal Service", "operator:short": "USPS", "operator:type": "public", "operator:wikidata": "Q668687", "ref": "9372200039"}, "type": "Feature"}
{"geometry": {"coordinates": [-119.7552539873, 36.7147359982], "type": "Point"}, "id": "gbzUajZdCWqdjTJiAvkDCIX6GO4=", "properties": {"@source_uri": "https://tools.usps.com/UspsToolsRestServices/rest/POLocator/findLocations", "@spider": "usps_collection_boxes", "addr:city": "FRESNO", "addr:country": "US", "addr:postcode": "93725", "addr:state": "CA", "addr:street_address": "2382 S CEDAR AVE", "amenity": "post_box", "collection_times": "Mo-Fr 17:00; Sa 13:00", "note": "ON 12/24 AND 12/31, THIS BOX MAY BE COLLECTED AS EARLY AS 12 NOON.", "nsi_id": "unitedstatespostalservice-a77078", "operator": "United States Postal Service", "operator:short": "USPS", "operator:type": "public", "operator:wikidata": "Q668687", "ref": "9372500011"}, "type": "Feature"}
{"geometry": {"coordinates": [-119.756705, 36.706693], "type": "Point"}, "id": "xcb8MJtm1dWtpAngLCVF05ToeCc=", "properties": {"@source_uri": "https://tools.usps.com/UspsToolsRestServices/rest/POLocator/findLocations", "@spider": "usps_collection_boxes", "addr:city": "FRESNO", "addr:country": "US", "addr:postcode": "93725", "addr:state": "CA", "addr:street_address": "4026 E JENSEN AVE", "amenity": "post_box", "collection_times": "Mo-Fr 16:00", "indoor": "yes", "note": "ON 12/24 AND 12/31, THIS BOX MAY BE COLLECTED AS EARLY AS 12 NOON.", "nsi_id": "unitedstatespostalservice-a77078", "operator": "United States Postal Service", "operator:short": "USPS", "operator:type": "public", "operator:wikidata": "Q668687", "ref": "9372500012"}, "type": "Feature"}
{"geometry": {"coordinates": [-119.755214, 36.71456], "type": "Point"}, "id": "XTKWKKYlXPGd_QFU3wEg2OJDYrE=", "properties": {"@source_uri": "https://tools.usps.com/UspsToolsRestServices/rest/POLocator/findLocations", "@spider": "usps_collection_boxes", "addr:city": "FRESNO", "addr:country": "US", "addr:postcode": "93725", "addr:state": "CA", "addr:street_address": "2382 S CEDAR AVE", "amenity": "post_box", "collection_times": "Mo-Fr 16:45", "indoor": "yes", "note": "ON 12/24 AND 12/31, THIS BOX MAY BE COLLECTED AS EARLY AS 12 NOON.", "nsi_id": "unitedstatespostalservice-a77078", "operator": "United States Postal Service", "operator:short": "USPS", "operator:type": "public", "operator:wikidata": "Q668687", "ref": "9372500013"}, "type": "Feature"}
{"geometry": {"coordinates": [-119.756694, 36.706728], "type": "Point"}, "id": "uAeOrY68egtZe-J-iA_zYr3Jffc=", "properties": {"@source_uri": "https://tools.usps.com/UspsToolsRestServices/rest/POLocator/findLocations", "@spider": "usps_collection_boxes", "addr:city": "FRESNO", "addr:country": "US", "addr:postcode": "93725", "addr:state": "CA", "addr:street_address": "4026 E JENSEN AVE", "amenity": "post_box", "collection_times": "Mo-Fr 16:00", "indoor": "yes", "note": "ON 12/24 AND 12/31, THIS BOX MAY BE COLLECTED AS EARLY AS 12 NOON.", "nsi_id": "unitedstatespostalservice-a77078", "operator": "United States Postal Service", "operator:short": "USPS", "operator:type": "public", "operator:wikidata": "Q668687", "ref": "9372500020"}, "type": "Feature"}
{"geometry": {"coordinates": [-119.754726783, 36.714906], "type": "Point"}, "id": "vnmQw_8dkYjAlp75BmZJxqlYPYU=", "properties": {"@source_uri": "https://tools.usps.com/UspsToolsRestServices/rest/POLocator/findLocations", "@spider": "usps_collection_boxes", "addr:city": "FRESNO", "addr:country": "US", "addr:postcode": "93725", "addr:state": "CA", "addr:street_address": "2382 S CEDAR AVE", "amenity": "post_box", "collection_times": "Mo-Fr 16:45", "indoor": "yes", "note": "ON 12/24 AND 12/31, THIS BOX MAY BE COLLECTED AS EARLY AS 12 NOON.", "nsi_id": "unitedstatespostalservice-a77078", "operator": "United States Postal Service", "operator:short": "USPS", "operator:type": "public", "operator:wikidata": "Q668687", "ref": "9372500025"}, "type": "Feature"}
{"geometry": {"coordinates": [-119.7553208523, 36.7942884878], "type": "Point"}, "id": "zQYxrTC_G0GkX3CHxii_hthWAF4=", "properties": {"@source_uri": "https://tools.usps.com/UspsToolsRestServices/rest/POLocator/findLocations", "@spider": "usps_collection_boxes", "addr:city": "FRESNO", "addr:country": "US", "addr:postcode": "93726", "addr:state": "CA", "addr:street_address": "4181 E ASHLAN AVE", "amenity": "post_box", "collection_times": "Mo-Fr 11:00; Sa 10:00", "nsi_id": "unitedstatespostalservice-a77078", "operator": "United States Postal Service", "operator:short": "USPS", "operator:type": "public", "operator:wikidata": "Q668687", "ref": "9372600014"}, "type": "Feature"}
{"geometry": {"coordinates": [-119.7737235, 36.803961], "type": "Point"}, "id": "y04hGClc7j5QSeu7m5Y_LFF83mU=", "properties": {"@source_uri": "https://tools.usps.com/UspsToolsRestServices/rest/POLocator/findLocations", "@spider": "usps_collection_boxes", "addr:city": "FRESNO", "addr:country": "US", "addr:postcode": "93726", "addr:state": "CA", "addr:street_address": "4747 N 1ST ST", "amenity": "post_box", "collection_times": "Mo-Fr 12:30", "note": "ON 12/24 AND 12/31, THIS BOX MAY BE COLLECTED AS EARLY AS 12 NOON.", "nsi_id": "unitedstatespostalservice-a77078", "operator": "United States Postal Service", "operator:short": "USPS", "operator:type": "public", "operator:wikidata": "Q668687", "ref": "9372600035"}, "type": "Feature"}
{"geometry": {"coordinates": [-119.789329, 36.781395], "type": "Point"}, "id": "8GOkpF7xFlZLNehcNM8bqWgthnw=", "properties": {"@source_uri": "https://tools.usps.com/UspsToolsRestServices/rest/POLocator/findLocations", "@spider": "usps_collection_boxes", "addr:city": "FRESNO", "addr:country": "US", "addr:postcode": "93726", "addr:state": "CA", "addr:street_address": "1901 E SHIELDS AVE", "amenity": "post_box", "collection_times": "Mo-Fr 14:00", "note": "ON 12/24 AND 12/31, THIS BOX MAY BE COLLECTED AS EARLY AS 12 NOON.", "nsi_id": "unitedstatespostalservice-a77078", "operator": "United States Postal Service", "operator:short": "USPS", "operator:type": "public", "operator:wikidata": "Q668687", "ref": "9372600053"}, "type": "Feature"}
{"geometry": {"coordinates": [-119.70218, 36.743167], "type": "Point"}, "id": "KOiBtjroBwg-UB4FYvFk0Dehv90=", "properties": {"@source_uri": "https://tools.usps.com/UspsToolsRestServices/rest/POLocator/findLocations", "@spider": "usps_collection_boxes", "addr:city": "FRESNO", "addr:country": "US", "addr:postcode": "93727", "addr:state": "CA", "addr:street_address": "5555 E TULARE AVE", "amenity": "post_box", "collection_times": "Mo-Fr 17:00", "indoor": "yes", "note": "ON 12/24 AND 12/31, THIS BOX MAY BE COLLECTED AS EARLY AS 12 NOON.", "nsi_id": "unitedstatespostalservice-a77078", "operator": "United States Postal Service", "operator:short": "USPS", "operator:type": "public", "operator:wikidata": "Q668687", "ref": "9372700001"}, "type": "Feature"}
{"geometry": {"coordinates": [-119.70218, 36.743167], "type": "Point"}, "id": "yNxvP-ie47YqNXsGrSEae4zQZj4=", "properties": {"@source_uri": "https://tools.usps.com/UspsToolsRestServices/rest/POLocator/findLocations", "@spider": "usps_collection_boxes", "addr:city": "FRESNO", "addr:country": "US", "addr:postcode": "93727", "addr:state": "CA", "addr:street_address": "5555 E TULARE AVE", "amenity": "post_box", "collection_times": "Mo-Fr 17:00; Sa 13:00", "note": "ON 12/24 AND 12/31, THIS BOX MAY BE COLLECTED AS EARLY AS 12 NOON.", "nsi_id": "unitedstatespostalservice-a77078", "operator": "United States Postal Service", "operator:short": "USPS", "operator:type": "public", "operator:wikidata": "Q668687", "ref": "9372700002"}, "type": "Feature"}
{"geometry": {"coordinates": [-119.70218, 36.743167], "type": "Point"}, "id": "OLoDU7XOR1WooajeyKLErEzmv5M=", "properties": {"@source_uri": "https://tools.usps.com/UspsToolsRestServices/rest/POLocator/findLocations", "@spider": "usps_collection_boxes", "addr:city": "FRESNO", "addr:country": "US", "addr:postcode": "93727", "addr:state": "CA", "addr:street_address": "5555 E TULARE AVE", "amenity": "post_box", "collection_times": "Mo-Fr 17:00; Sa 13:00", "note": "ON 12/24 AND 12/31, THIS BOX MAY BE COLLECTED AS EARLY AS 12 NOON.", "nsi_id": "unitedstatespostalservice-a77078", "operator": "United States Postal Service", "operator:short": "USPS", "operator:type": "public", "operator:wikidata": "Q668687", "ref": "9372700003"}, "type": "Feature"}
{"geometry": {"coordinates": [-119.7273140027, 36.7665579947], "type": "Point"}, "id": "P-KTrje-tp20DtxixAaC5Syb35Q=", "properties": {"@source_uri": "https://tools.usps.com/UspsToolsRestServices/rest/POLocator/findLocations", "@spider": "usps_collection_boxes", "addr:city": "FRESNO", "addr:country": "US", "addr:postcode": "93727", "addr:state": "CA", "addr:street_address": "1717 N GATEWAY BLVD", "amenity": "post_box", "collection_times": "Mo-Fr 11:30", "nsi_id": "unitedstatespostalservice-a77078", "operator": "United States Postal Service", "operator:short": "USPS", "operator:type": "public", "operator:wikidata": "Q668687", "ref": "9372700012"}, "type": "Feature"}
{"geometry": {"coordinates": [-119.698405, 36.735773], "type": "Point"}, "id": "bAsW2UD8Dm87q-htxTkErNU9I5s=", "properties": {"@source_uri": "https://tools.usps.com/UspsToolsRestServices/rest/POLocator/findLocations", "@spider": "usps_collection_boxes", "addr:city": "FRESNO", "addr:country": "US", "addr:postcode": "93727", "addr:state": "CA", "addr:street_address": "5636 E KINGS CANYON RD", "amenity": "post_box", "collection_times": "Mo-Sa 10:00", "nsi_id": "unitedstatespostalservice-a77078", "operator": "United States Postal Service", "operator:short": "USPS", "operator:type": "public", "operator:wikidata": "Q668687", "ref": "9372700017"}, "type": "Feature"}
{"geometry": {"coordinates": [-119.69507, 36.736175], "type": "Point"}, "id": "x_P3oYrAYr2I14jqWXX2jnnlVgc=", "properties": {"@source_uri": "https://tools.usps.com/UspsToolsRestServices/rest/POLocator/findLocations", "@spider": "usps_collection_boxes", "addr:city": "FRESNO", "addr:country": "US", "addr:postcode": "93727", "addr:state": "CA", "addr:street_address": "4149 N CLOVIS AVE", "amenity": "post_box", "collection_times": "Mo-Fr 14:30; Sa 10:00", "note": "ON 12/24 AND 12/31, THIS BOX MAY BE COLLECTED AS EARLY AS 12 NOON.", "nsi_id": "unitedstatespostalservice-a77078", "operator": "United States Postal Service", "operator:short": "USPS", "operator:type": "public", "operator:wikidata": "Q668687", "ref": "9372700044"}, "type": "Feature"}
{"geometry": {"coordinates": [-119.693286, 36.779292], "type": "Point"}, "id": "q9qJjrjIk9vrqw8twA-HWjkANlw=", "properties": {"@source_uri": "https://tools.usps.com/UspsToolsRestServices/rest/POLocator/findLocations", "@spider": "usps_collection_boxes", "addr:city": "FRESNO", "addr:country": "US", "addr:postcode": "93727", "addr:state": "CA", "addr:street_address": "5750 E SHIELDS AVE", "amenity": "post_box", "collection_times": "Mo-Fr 15:45; Sa 13:00", "note": "ON 12/24 AND 12/31, THIS BOX MAY BE COLLECTED AS EARLY AS 12 NOON.", "nsi_id": "unitedstatespostalservice-a77078", "operator": "United States Postal Service", "operator:short": "USPS", "operator:type": "public", "operator:wikidata": "Q668687", "ref": "9372700048"}, "type": "Feature"}
{"geometry": {"coordinates": [-119.722527, 36.768811], "type": "Point"}, "id": "WmChiW5aTq1VoXFqBMSNZ8aBsz4=", "properties": {"@source_uri": "https://tools.usps.com/UspsToolsRestServices/rest/POLocator/findLocations", "@spider": "usps_collection_boxes", "addr:city": "FRESNO", "addr:country": "US", "addr:postcode": "93727", "addr:state": "CA", "addr:street_address": "5110 E CLINTON WAY", "amenity": "post_box", "collection_times": "Mo-Fr 11:30", "nsi_id": "unitedstatespostalservice-a77078", "operator": "United States Postal Service", "operator:short": "USPS", "operator:type": "public", "operator:wikidata": "Q668687", "ref": "9372700093"}, "type": "Feature"}
{"geometry": {"coordinates": [-119.702182751, 36.743164498], "type": "Point"}, "id": "BeXcx7m7uaLGl_0PJq8CT2oylqw=", "properties": {"@source_uri": "https://tools.usps.com/UspsToolsRestServices/rest/POLocator/findLocations", "@spider": "usps_collection_boxes", "addr:city": "FRESNO", "addr:country": "US", "addr:postcode": "93727", "addr:state": "CA", "addr:street_address": "5555 E TULARE AVE", "amenity": "post_box", "collection_times": "Mo-Fr 17:00; Sa 14:00", "indoor": "yes", "note": "ON 12/24 AND 12/31, THIS BOX MAY BE COLLECTED AS EARLY AS 12 NOON.", "nsi_id": "unitedstatespostalservice-a77078", "operator": "United States Postal Service", "operator:short": "USPS", "operator:type": "public", "operator:wikidata": "Q668687", "ref": "9372700099"}, "type": "Feature"}
{"geometry": {"coordinates": [-119.8004570044, 36.7586099807], "type": "Point"}, "id": "anndXWIJvxzQBLMfAExBoUft2K8=", "properties": {"@source_uri": "https://tools.usps.com/UspsToolsRestServices/rest/POLocator/findLocations", "@spider": "usps_collection_boxes", "addr:city": "FRESNO", "addr:country": "US", "addr:postcode": "93728", "addr:state": "CA", "addr:street_address": "824 E FERN AVE", "amenity": "post_box", "collection_times": "Mo-Sa 16:00", "note": "ON 12/24 AND 12/31, THIS BOX MAY BE COLLECTED AS EARLY AS 12 NOON.", "nsi_id": "unitedstatespostalservice-a77078", "operator": "United States Postal Service", "operator:short": "USPS", "operator:type": "public", "operator:wikidata": "Q668687", "ref": "9372800005"}, "type": "Feature"}
{"geometry": {"coordinates": [-119.8005, 36.758623], "type": "Point"}, "id": "XSCpjW6C69H-Gk06Acht35yD9ws=", "properties": {"@source_uri": "https://tools.usps.com/UspsToolsRestServices/rest/POLocator/findLocations", "@spider": "usps_collection_boxes", "addr:city": "FRESNO", "addr:country": "US", "addr:postcode": "93728", "addr:state": "CA", "addr:street_address": "824 E FERN AVE", "amenity": "post_box", "collection_times": "Mo-Fr 16:30", "indoor": "yes", "note": "ON 12/24 AND 12/31, THIS BOX MAY BE COLLECTED AS EARLY AS 12 NOON.", "nsi_id": "unitedstatespostalservice-a77078", "operator": "United States Postal Service", "operator:short": "USPS", "operator:type": "public", "operator:wikidata": "Q668687", "ref": "9372800028"}, "type": "Feature"}
{"geometry": {"coordinates": [-119.800513, 36.758607], "type": "Point"}, "id": "riI5Tr5PWu1o9QHe2BKVbE6eVgw=", "properties": {"@source_uri": "https://tools.usps.com/UspsToolsRestServices/rest/POLocator/findLocations", "@spider": "usps_collection_boxes", "addr:city": "FRESNO", "addr:country": "US", "addr:postcode": "93728", "addr:state": "CA", "addr:street_address": "824 E FERN AVE", "amenity": "post_box", "collection_times": "Mo-Fr 16:30", "indoor": "yes", "note": "ON 12/24 AND 12/31, THIS BOX MAY BE COLLECTED AS EARLY AS 12 NOON.", "nsi_id": "unitedstatespostalservice-a77078", "operator": "United States Postal Service", "operator:short": "USPS", "operator:type": "public", "operator:wikidata": "Q668687", "ref": "9372800029"}, "type": "Feature"}
{"geometry": {"coordinates": [-119.800511, 36.75861], "type": "Point"}, "id": "KUYMk5Un_svMMcxiAcBBW3zjOtA=", "properties": {"@source_uri": "https://tools.usps.com/UspsToolsRestServices/rest/POLocator/findLocations", "@spider": "usps_collection_boxes", "addr:city": "FRESNO", "addr:country": "US", "addr:postcode": "93728", "addr:state": "CA", "addr:street_address": "824 E FERN AVE", "amenity": "post_box", "collection_times": "Mo-Fr 16:30", "indoor": "yes", "note": "ON 12/24 AND 12/31, THIS BOX MAY BE COLLECTED AS EARLY AS 12 NOON.", "nsi_id": "unitedstatespostalservice-a77078", "operator": "United States Postal Service", "operator:short": "USPS", "operator:type": "public", "operator:wikidata": "Q668687", "ref": "9372800030"}, "type": "Feature"}
