{"geometry": {"coordinates": [-121.65387, 36.674277], "type": "Point"}, "id": "Ckl-nuPLTHBNac4mCpGQ0kYW6xQ=", "properties": {"@source_uri": "https://tools.usps.com/UspsToolsRestServices/rest/POLocator/findLocations", "@spider": "usps_collection_boxes", "addr:city": "SALINAS", "addr:country": "US", "addr:postcode": "93901", "addr:state": "CA", "addr:street_address": "235 MONTEREY ST", "amenity": "post_box", "collection_times": "Mo-Sa 10:00", "nsi_id": "unitedstatespostalservice-a77078", "operator": "United States Postal Service", "operator:short": "USPS", "operator:type": "public", "operator:wikidata": "Q668687", "ref": "9390100005"}, "type": "Feature"}
{"geometry": {"coordinates": [-121.65936, 36.675157], "type": "Point"}, "id": "RueobzAWZHcMQjhL0ZtWEC6hyRg=", "properties": {"@source_uri": "https://tools.usps.com/UspsToolsRestServices/rest/POLocator/findLocations", "@spider": "usps_collection_boxes", "addr:city": "SALINAS", "addr:country": "US", "addr:postcode": "93901", "addr:state": "CA", "addr:street_address": "140 W GABILAN ST", "amenity": "post_box", "collection_times": "Mo-Fr 10:00", "nsi_id": "unitedstatespostalservice-a77078", "operator": "United States Postal Service", "operator:short": "USPS", "operator:type": "public", "operator:wikidata": "Q668687", "ref": "9390100013"}, "type": "Feature"}
{"geometry": {"coordinates": [-121.658149, 36.66282], "type": "Point"}, "id": "C14rseJtmWPMrBRTANSfxa8j5zo=", "properties": {"@source_uri": "https://tools.usps.com/UspsToolsRestServices/rest/POLocator/findLocations", "@spider": "usps_collection_boxes", "addr:city": "SALINAS", "addr:country": "US", "addr:postcode": "93901", "addr:state": "CA", "addr:street_address": "944 S MAIN ST", "amenity": "post_box", "collection_times": "Mo-Sa 10:00", "nsi_id": "unitedstatespostalservice-a77078", "operator": "United States Postal Service", "operator:short": "USPS", "operator:type": "public", "operator:wikidata": "Q668687", "ref": "9390100026"}, "type": "Feature"}
{"geometry": {"coordinates": [-121.660524, 36.662785], "type": "Point"}, "id": "Mru9Emn-T5DTHUeNTidNvD505q4=", "properties": {"@source_uri": "https://tools.usps.com/UspsToolsRestServices/rest/POLocator/findLocations", "@spider": "usps_collection_boxes", "addr:city": "SALINAS", "addr:country": "US", "addr:postcode": "93901", "addr:state": "CA", "addr:street_address": "910 PADRE DR", "amenity": "post_box", "collection_times": "Mo-Sa 10:00", "nsi_id": "unitedstatespostalservice-a77078", "operator": "United States Postal Service", "operator:short": "USPS", "operator:type": "public", "operator:wikidata": "Q668687", "ref": "9390100030"}, "type": "Feature"}
{"geometry": {"coordinates": [-121.644738, 36.659307], "type": "Point"}, "id": "Y63tLdubzzbbjiXbkZOmSFWeYCQ=", "properties": {"@source_uri": "https://tools.usps.com/UspsToolsRestServices/rest/POLocator/findLocations", "@spider": "usps_collection_boxes", "addr:city": "SALINAS", "addr:country": "US", "addr:postcode": "93901", "addr:state": "CA", "addr:street_address": "535 E ROMIE LN", "amenity": "post_box", "collection_times": "Mo-Sa 10:00", "nsi_id": "unitedstatespostalservice-a77078", "operator": "United States Postal Service", "operator:short": "USPS", "operator:type": "public", "operator:wikidata": "Q668687", "ref": "9390100047"}, "type": "Feature"}
{"geometry": {"coordinates": [-121.655745, 36.672625], "type": "Point"}, "id": "LmNLH5vGQaPwYweSVMjkxDrARFM=", "properties": {"@source_uri": "https://tools.usps.com/UspsToolsRestServices/rest/POLocator/findLocations", "@spider": "usps_collection_boxes", "addr:city": "SALINAS", "addr:country": "US", "addr:postcode": "93901", "addr:state": "CA", "addr:street_address": "333 SALINAS ST", "amenity": "post_box", "collection_times": "Mo-Fr 12:00", "nsi_id": "unitedstatespostalservice-a77078", "operator": "United States Postal Service", "operator:short": "USPS", "operator:type": "public", "operator:wikidata": "Q668687", "ref": "9390100049"}, "type": "Feature"}
{"geometry": {"coordinates": [-121.674688, 36.667681], "type": "Point"}, "id": "YqBGy_5fshtdm7N3ZvXSC29bRtM=", "properties": {"@source_uri": "https://tools.usps.com/UspsToolsRestServices/rest/POLocator/findLocations", "@spider": "usps_collection_boxes", "addr:city": "SALINAS", "addr:country": "US", "addr:postcode": "93901", "addr:state": "CA", "addr:street_address": "975 W ALISAL ST", "amenity": "post_box", "collection_times": "Mo-Sa 10:00", "nsi_id": "unitedstatespostalservice-a77078", "operator": "United States Postal Service", "operator:short": "USPS", "operator:type": "public", "operator:wikidata": "Q668687", "ref": "9390100055"}, "type": "Feature"}
{"geometry": {"coordinates": [-121.638955, 36.6545], "type": "Point"}, "id": "inN4KeOQVMz0K8U9epMJ9q9GUr0=", "properties": {"@source_uri": "https://tools.usps.com/UspsToolsRestServices/rest/POLocator/findLocations", "@spider": "usps_collection_boxes", "addr:city": "SALINAS", "addr:country": "US", "addr:postcode": "93901", "addr:state": "CA", "addr:street_address": "915 BLANCO CIR", "amenity": "post_box", "collection_times": "Mo-Fr 12:00", "nsi_id": "unitedstatespostalservice-a77078", "operator": "United States Postal Service", "operator:short": "USPS", "operator:type": "public", "operator:wikidata": "Q668687", "ref": "9390100065"}, "type": "Feature"}
{"geometry": {"coordinates": [-121.656931232, 36.673576625], "type": "Point"}, "id": "j38ThFxFkxlE2Quj-ebsjq--3LE=", "properties": {"@source_uri": "https://tools.usps.com/UspsToolsRestServices/rest/POLocator/findLocations", "@spider": "usps_collection_boxes", "addr:city": "SALINAS", "addr:country": "US", "addr:postcode": "93901", "addr:state": "CA", "addr:street_address": "100 W ALISAL ST", "amenity": "post_box", "collection_times": "Mo-Fr 17:00; Sa 16:00", "note": "ON 12/24 AND 12/31, THIS BOX MAY BE COLLECTED AS EARLY AS 12 NOON.", "nsi_id": "unitedstatespostalservice-a77078", "operator": "United States Postal Service", "operator:short": "USPS", "operator:type": "public", "operator:wikidata": "Q668687", "ref": "9390100068"}, "type": "Feature"}
{"geometry": {"coordinates": [-121.636251, 36.653396], "type": "Point"}, "id": "VO2dOFZS9bZY8wcgmg8k6F5TCRQ=", "properties": {"@source_uri": "https://tools.usps.com/UspsToolsRestServices/rest/POLocator/findLocations", "@spider": "usps_collection_boxes", "addr:city": "SALINAS", "addr:country": "US", "addr:postcode": "93901", "addr:state": "CA", "addr:street_address": "928 E BLANCO RD", "amenity": "post_box", "collection_times": "Mo-Fr 11:00", "nsi_id": "unitedstatespostalservice-a77078", "operator": "United States Postal Service", "operator:short": "USPS", "operator:type": "public", "operator:wikidata": "Q668687", "ref": "9390100072"}, "type": "Feature"}
{"geometry": {"coordinates": [-121.6569312319, 36.6735766248], "type": "Point"}, "id": "DQ52xa_q_gne5LJzb-DBsFAkQ_s=", "properties": {"@source_uri": "https://tools.usps.com/UspsToolsRestServices/rest/POLocator/findLocations", "@spider": "usps_collection_boxes", "addr:city": "SALINAS", "addr:country": "US", "addr:postcode": "93901", "addr:state": "CA", "addr:street_address": "100 W ALISAL ST", "amenity": "post_box", "collection_times": "Mo-Fr 17:00", "indoor": "yes", "note": "ON 12/24 AND 12/31, THIS BOX MAY BE COLLECTED AS EARLY AS 12 NOON.", "nsi_id": "unitedstatespostalservice-a77078", "operator": "United States Postal Service", "operator:short": "USPS", "operator:type": "public", "operator:wikidata": "Q668687", "ref": "9390100077"}, "type": "Feature"}
{"geometry": {"coordinates": [-121.6468340812, 36.6222883245], "type": "Point"}, "id": "jWlExe_kik_3BGbyPikwAOJhUuM=", "properties": {"@source_uri": "https://tools.usps.com/UspsToolsRestServices/rest/POLocator/findLocations", "@spider": "usps_collection_boxes", "addr:city": "SALINAS", "addr:country": "US", "addr:postcode": "93901", "addr:state": "CA", "addr:street_address": "40 SPRECKELS BLVD", "amenity": "post_box", "collection_times": "Mo-Fr 16:30", "indoor": "yes", "note": "ON 12/24 AND 12/31, THIS BOX MAY BE COLLECTED AS EARLY AS 12 NOON.", "nsi_id": "unitedstatespostalservice-a77078", "operator": "United States Postal Service", "operator:short": "USPS", "operator:type": "public", "operator:wikidata": "Q668687", "ref": "9390100079"}, "type": "Feature"}
{"geometry": {"coordinates": [-121.6261076763, 36.6779116922], "type": "Point"}, "id": "K_bVlAlwspsVbqHTIe2lCreD_1w=", "properties": {"@source_uri": "https://tools.usps.com/UspsToolsRestServices/rest/POLocator/findLocations", "@spider": "usps_collection_boxes", "addr:city": "SALINAS", "addr:country": "US", "addr:postcode": "93905", "addr:state": "CA", "addr:street_address": "303 N SANBORN RD", "amenity": "post_box", "collection_times": "Mo-Fr 17:00; Sa 16:00", "note": "ON 12/24 AND 12/31, THIS BOX MAY BE COLLECTED AS EARLY AS 12 NOON.", "nsi_id": "unitedstatespostalservice-a77078", "operator": "United States Postal Service", "operator:short": "USPS", "operator:type": "public", "operator:wikidata": "Q668687", "ref": "9390500019"}, "type": "Feature"}
{"geometry": {"coordinates": [-121.6261076763, 36.6779116922], "type": "Point"}, "id": "SfB_W39PN9Z4G8wvlrX-zlARNBo=", "properties": {"@source_uri": "https://tools.usps.com/UspsToolsRestServices/rest/POLocator/findLocations", "@spider": "usps_collection_boxes", "addr:city": "SALINAS", "addr:country": "US", "addr:postcode": "93905", "addr:state": "CA", "addr:street_address": "303 N SANBORN RD", "amenity": "post_box", "collection_times": "Mo-Fr 16:30", "indoor": "yes", "note": "ON 12/24 AND 12/31, THIS BOX MAY BE COLLECTED AS EARLY AS 12 NOON.", "nsi_id": "unitedstatespostalservice-a77078", "operator": "United States Postal Service", "operator:short": "USPS", "operator:type": "public", "operator:wikidata": "Q668687", "ref": "9390500029"}, "type": "Feature"}
{"geometry": {"coordinates": [-121.649515, 36.698688], "type": "Point"}, "id": "somTx_MBgpC0rSBlkiCx0U6M-co=", "properties": {"@source_uri": "https://tools.usps.com/UspsToolsRestServices/rest/POLocator/findLocations", "@spider": "usps_collection_boxes", "addr:city": "SALINAS", "addr:country": "US", "addr:postcode": "93906", "addr:state": "CA", "addr:street_address": "110 E LAUREL DR", "amenity": "post_box", "collection_times": "Mo-Sa 10:00", "nsi_id": "unitedstatespostalservice-a77078", "operator": "United States Postal Service", "operator:short": "USPS", "operator:type": "public", "operator:wikidata": "Q668687", "ref": "9390600009"}, "type": "Feature"}
{"geometry": {"coordinates": [-121.652514, 36.712304], "type": "Point"}, "id": "S-TsmAOXSqUZi9fHACKuP2TB8ho=", "properties": {"@source_uri": "https://tools.usps.com/UspsToolsRestServices/rest/POLocator/findLocations", "@spider": "usps_collection_boxes", "addr:city": "SALINAS", "addr:country": "US", "addr:postcode": "93906", "addr:state": "CA", "addr:street_address": "1546 N MAIN ST", "amenity": "post_box", "collection_times": "Mo-Sa 12:00", "nsi_id": "unitedstatespostalservice-a77078", "operator": "United States Postal Service", "operator:short": "USPS", "operator:type": "public", "operator:wikidata": "Q668687", "ref": "9390600015"}, "type": "Feature"}
{"geometry": {"coordinates": [-121.63824, 36.733716], "type": "Point"}, "id": "FKukdb6YzAQrjYb-uWepQ-00qB0=", "properties": {"@source_uri": "https://tools.usps.com/UspsToolsRestServices/rest/POLocator/findLocations", "@spider": "usps_collection_boxes", "addr:city": "SALINAS", "addr:country": "US", "addr:postcode": "93906", "addr:state": "CA", "addr:street_address": "307 SAN JUAN GRADE RD", "amenity": "post_box", "collection_times": "Mo-Sa 10:00", "nsi_id": "unitedstatespostalservice-a77078", "operator": "United States Postal Service", "operator:short": "USPS", "operator:type": "public", "operator:wikidata": "Q668687", "ref": "9390600023"}, "type": "Feature"}
{"geometry": {"coordinates": [-121.653554, 36.706666], "type": "Point"}, "id": "tGczzplgo0IDnfOQ2uyAj19NG88=", "properties": {"@source_uri": "https://tools.usps.com/UspsToolsRestServices/rest/POLocator/findLocations", "@spider": "usps_collection_boxes", "addr:city": "SALINAS", "addr:country": "US", "addr:postcode": "93906", "addr:state": "CA", "addr:street_address": "1403 N MAIN ST", "amenity": "post_box", "collection_times": "Mo-Sa 12:00", "nsi_id": "unitedstatespostalservice-a77078", "operator": "United States Postal Service", "operator:short": "USPS", "operator:type": "public", "operator:wikidata": "Q668687", "ref": "9390600026"}, "type": "Feature"}
{"geometry": {"coordinates": [-121.669172423, 36.6959707079], "type": "Point"}, "id": "6QLFIkpXomtBoPWe4CW8aBDQX7A=", "properties": {"@source_uri": "https://tools.usps.com/UspsToolsRestServices/rest/POLocator/findLocations", "@spider": "usps_collection_boxes", "addr:city": "SALINAS", "addr:country": "US", "addr:postcode": "93907", "addr:state": "CA", "addr:street_address": "1011 POST DR", "amenity": "post_box", "collection_times": "Mo-Sa 17:00", "note": "ON 12/24 AND 12/31, THIS BOX MAY BE COLLECTED AS EARLY AS 12 NOON.", "nsi_id": "unitedstatespostalservice-a77078", "operator": "United States Postal Service", "operator:short": "USPS", "operator:type": "public", "operator:wikidata": "Q668687", "ref": "9390700001"}, "type": "Feature"}
{"geometry": {"coordinates": [-121.669172423, 36.6959707079], "type": "Point"}, "id": "lXeL--8apSDelWaQrgJNACl6xSI=", "properties": {"@source_uri": "https://tools.usps.com/UspsToolsRestServices/rest/POLocator/findLocations", "@spider": "usps_collection_boxes", "addr:city": "SALINAS", "addr:country": "US", "addr:postcode": "93907", "addr:state": "CA", "addr:street_address": "1011 POST DR", "amenity": "post_box", "collection_times": "Mo-Sa 17:00", "note": "ON 12/24 AND 12/31, THIS BOX MAY BE COLLECTED AS EARLY AS 12 NOON.", "nsi_id": "unitedstatespostalservice-a77078", "operator": "United States Postal Service", "operator:short": "USPS", "operator:type": "public", "operator:wikidata": "Q668687", "ref": "9390700003"}, "type": "Feature"}
{"geometry": {"coordinates": [-121.665467, 36.801846], "type": "Point"}, "id": "8NfX7Pf6lk_xgNEMUGFzwcnpbmY=", "properties": {"@source_uri": "https://tools.usps.com/UspsToolsRestServices/rest/POLocator/findLocations", "@spider": "usps_collection_boxes", "addr:city": "SALINAS", "addr:country": "US", "addr:postcode": "93907", "addr:state": "CA", "addr:street_address": "7955 SAN MIGUEL CANYON RD", "amenity": "post_box", "collection_times": "Mo-Fr 12:00", "nsi_id": "unitedstatespostalservice-a77078", "operator": "United States Postal Service", "operator:short": "USPS", "operator:type": "public", "operator:wikidata": "Q668687", "ref": "9390700007"}, "type": "Feature"}
{"geometry": {"coordinates": [-121.665149, 36.79351], "type": "Point"}, "id": "NQ1KoO13bjqoy9aKFx4tPOqvw4Q=", "properties": {"@source_uri": "https://tools.usps.com/UspsToolsRestServices/rest/POLocator/findLocations", "@spider": "usps_collection_boxes", "addr:city": "SALINAS", "addr:country": "US", "addr:postcode": "93907", "addr:state": "CA", "addr:street_address": "17547 VIERRA CANYON RD", "amenity": "post_box", "collection_times": "Mo-Sa 12:00", "nsi_id": "unitedstatespostalservice-a77078", "operator": "United States Postal Service", "operator:short": "USPS", "operator:type": "public", "operator:wikidata": "Q668687", "ref": "9390700009"}, "type": "Feature"}
{"geometry": {"coordinates": [-121.669172423, 36.6959707079], "type": "Point"}, "id": "ppPEqXVgp5ELHIUelJ8R-hynwaM=", "properties": {"@source_uri": "https://tools.usps.com/UspsToolsRestServices/rest/POLocator/findLocations", "@spider": "usps_collection_boxes", "addr:city": "SALINAS", "addr:country": "US", "addr:postcode": "93907", "addr:state": "CA", "addr:street_address": "1011 POST DR", "amenity": "post_box", "collection_times": "Mo-Sa 17:00", "name": "USPS COLLECTION BOX - APC", "note": "ON 12/24 AND 12/31, THIS BOX MAY BE COLLECTED AS EARLY AS 12 NOON.", "nsi_id": "unitedstatespostalservice-a77078", "operator": "United States Postal Service", "operator:short": "USPS", "operator:type": "public", "operator:wikidata": "Q668687", "ref": "9390700017"}, "type": "Feature"}
{"geometry": {"coordinates": [-121.669172423, 36.6959707079], "type": "Point"}, "id": "1aCWYReYWsoWuQ7bPal00TDVEMw=", "properties": {"@source_uri": "https://tools.usps.com/UspsToolsRestServices/rest/POLocator/findLocations", "@spider": "usps_collection_boxes", "addr:city": "SALINAS", "addr:country": "US", "addr:postcode": "93907", "addr:state": "CA", "addr:street_address": "1011 POST DR", "amenity": "post_box", "collection_times": "Mo-Fr 17:00; Sa 14:00", "indoor": "yes", "note": "ON 12/24 AND 12/31, THIS BOX MAY BE COLLECTED AS EARLY AS 12 NOON.", "nsi_id": "unitedstatespostalservice-a77078", "operator": "United States Postal Service", "operator:short": "USPS", "operator:type": "public", "operator:wikidata": "Q668687", "ref": "9390700020"}, "type": "Feature"}
{"geometry": {"coordinates": [-121.696591, 36.605332], "type": "Point"}, "id": "N6ZohzDuBVsvTCBoTBhbRs2fQpU=", "properties": {"@source_uri": "https://tools.usps.com/UspsToolsRestServices/rest/POLocator/findLocations", "@spider": "usps_collection_boxes", "addr:city": "SALINAS", "addr:country": "US", "addr:postcode": "93908", "addr:state": "CA", "addr:street_address": "22758 PORTOLA DR", "amenity": "post_box", "collection_times": "Mo-Sa 10:00", "nsi_id": "unitedstatespostalservice-a77078", "operator": "United States Postal Service", "operator:short": "USPS", "operator:type": "public", "operator:wikidata": "Q668687", "ref": "9390800002"}, "type": "Feature"}
{"geometry": {"coordinates": [-121.646941, 36.622384], "type": "Point"}, "id": "LX9QmDb4LzMNX9_O1xDeHSRC7nY=", "properties": {"@source_uri": "https://tools.usps.com/UspsToolsRestServices/rest/POLocator/findLocations", "@spider": "usps_collection_boxes", "addr:city": "SALINAS", "addr:country": "US", "addr:postcode": "93908", "addr:state": "CA", "addr:street_address": "40 SPRECKELS BLVD", "amenity": "post_box", "collection_times": "Mo-Fr 17:00; Sa 15:00", "note": "ON 12/24 AND 12/31, THIS BOX MAY BE COLLECTED AS EARLY AS 12 NOON.", "nsi_id": "unitedstatespostalservice-a77078", "operator": "United States Postal Service", "operator:short": "USPS", "operator:type": "public", "operator:wikidata": "Q668687", "ref": "9390800004"}, "type": "Feature"}
{"geometry": {"coordinates": [-121.5441447804, 36.0824585972], "type": "Point"}, "id": "Z83EmJWO4z7xd7KCcfbbBmmRRs8=", "properties": {"@source_uri": "https://tools.usps.com/UspsToolsRestServices/rest/POLocator/findLocations", "@spider": "usps_collection_boxes", "addr:city": "BIG SUR", "addr:country": "US", "addr:postcode": "93920", "addr:state": "CA", "addr:street_address": "HC 67 BOX 1158", "amenity": "post_box", "collection_times": "Mo-Sa 14:00", "note": "ON 12/24 AND 12/31, THIS BOX MAY BE COLLECTED AS EARLY AS 12 NOON.", "nsi_id": "unitedstatespostalservice-a77078", "operator": "United States Postal Service", "operator:short": "USPS", "operator:type": "public", "operator:wikidata": "Q668687", "ref": "9392000002"}, "type": "Feature"}
{"geometry": {"coordinates": [-121.7703380486, 36.2371532387], "type": "Point"}, "id": "oON9SMjIfGOw9nUF0Oo0tmKu-pY=", "properties": {"@source_uri": "https://tools.usps.com/UspsToolsRestServices/rest/POLocator/findLocations", "@spider": "usps_collection_boxes", "addr:city": "BIG SUR", "addr:country": "US", "addr:postcode": "93920", "addr:state": "CA", "addr:street_address": "47500 HIGHWAY 1", "amenity": "post_box", "collection_times": "Mo-Fr 16:00; Sa 14:00", "note": "ON 12/24 AND 12/31, THIS BOX MAY BE COLLECTED AS EARLY AS 12 NOON.", "nsi_id": "unitedstatespostalservice-a77078", "operator": "United States Postal Service", "operator:short": "USPS", "operator:type": "public", "operator:wikidata": "Q668687", "ref": "9392000004"}, "type": "Feature"}
{"geometry": {"coordinates": [-121.7703380486, 36.2371532387], "type": "Point"}, "id": "jAmKe9g8a6t0X1GVg9LQkc4GC84=", "properties": {"@source_uri": "https://tools.usps.com/UspsToolsRestServices/rest/POLocator/findLocations", "@spider": "usps_collection_boxes", "addr:city": "BIG SUR", "addr:country": "US", "addr:postcode": "93920", "addr:state": "CA", "addr:street_address": "47500 HIGHWAY 1", "amenity": "post_box", "collection_times": "Mo-Fr 16:00", "indoor": "yes", "note": "ON 12/24 AND 12/31, THIS BOX MAY BE COLLECTED AS EARLY AS 12 NOON.", "nsi_id": "unitedstatespostalservice-a77078", "operator": "United States Postal Service", "operator:short": "USPS", "operator:type": "public", "operator:wikidata": "Q668687", "ref": "9392000005"}, "type": "Feature"}
{"geometry": {"coordinates": [-121.922835, 36.553008311], "type": "Point"}, "id": "5YiiiDfPc7aaXOwBz5cy55RiQ-g=", "properties": {"@source_uri": "https://tools.usps.com/UspsToolsRestServices/rest/POLocator/findLocations", "@spider": "usps_collection_boxes", "addr:city": "CARMEL", "addr:country": "US", "addr:postcode": "93921", "addr:state": "CA", "addr:street_address": "PO BOX 9998", "amenity": "post_box", "collection_times": "Mo-Fr 16:00; Sa 13:00", "note": "ON 12/24 AND 12/31, THIS BOX MAY BE COLLECTED AS EARLY AS 12 NOON.", "nsi_id": "unitedstatespostalservice-a77078", "operator": "United States Postal Service", "operator:short": "USPS", "operator:type": "public", "operator:wikidata": "Q668687", "ref": "9392100013"}, "type": "Feature"}
{"geometry": {"coordinates": [-121.922835, 36.553008311], "type": "Point"}, "id": "ekhSrSAobJvP3HrG-dLTMZB0nPg=", "properties": {"@source_uri": "https://tools.usps.com/UspsToolsRestServices/rest/POLocator/findLocations", "@spider": "usps_collection_boxes", "addr:city": "CARMEL", "addr:country": "US", "addr:postcode": "93921", "addr:state": "CA", "addr:street_address": "PO BOX 9998", "amenity": "post_box", "collection_times": "Mo-Fr 16:00", "indoor": "yes", "note": "ON 12/24 AND 12/31, THIS BOX MAY BE COLLECTED AS EARLY AS 12 NOON.", "nsi_id": "unitedstatespostalservice-a77078", "operator": "United States Postal Service", "operator:short": "USPS", "operator:type": "public", "operator:wikidata": "Q668687", "ref": "9392100014"}, "type": "Feature"}
{"geometry": {"coordinates": [-121.9059678145, 36.5384874446], "type": "Point"}, "id": "GSvxx9JrqBO0Or4jAyesVfRc1U4=", "properties": {"@source_uri": "https://tools.usps.com/UspsToolsRestServices/rest/POLocator/findLocations", "@spider": "usps_collection_boxes", "addr:city": "CARMEL", "addr:country": "US", "addr:postcode": "93923", "addr:state": "CA", "addr:street_address": "3845 VIA NONA MARIE", "amenity": "post_box", "collection_times": "Mo-Fr 17:00; Sa 13:00", "note": "ON 12/24 AND 12/31, THIS BOX MAY BE COLLECTED AS EARLY AS 12 NOON.", "nsi_id": "unitedstatespostalservice-a77078", "operator": "United States Postal Service", "operator:short": "USPS", "operator:type": "public", "operator:wikidata": "Q668687", "ref": "9392300001"}, "type": "Feature"}
{"geometry": {"coordinates": [-121.9059678145, 36.5384874446], "type": "Point"}, "id": "t7doMoaDOP9LafhpShw807bXRK0=", "properties": {"@source_uri": "https://tools.usps.com/UspsToolsRestServices/rest/POLocator/findLocations", "@spider": "usps_collection_boxes", "addr:city": "CARMEL", "addr:country": "US", "addr:postcode": "93923", "addr:state": "CA", "addr:street_address": "3845 VIA NONA MARIE", "amenity": "post_box", "collection_times": "Mo-Fr 17:00; Sa 13:00", "indoor": "yes", "note": "ON 12/24 AND 12/31, THIS BOX MAY BE COLLECTED AS EARLY AS 12 NOON.", "nsi_id": "unitedstatespostalservice-a77078", "operator": "United States Postal Service", "operator:short": "USPS", "operator:type": "public", "operator:wikidata": "Q668687", "ref": "9392300011"}, "type": "Feature"}
{"geometry": {"coordinates": [-121.9059678145, 36.5384874446], "type": "Point"}, "id": "RXneY66e1U1mCBLzsakXZQF20zs=", "properties": {"@source_uri": "https://tools.usps.com/UspsToolsRestServices/rest/POLocator/findLocations", "@spider": "usps_collection_boxes", "addr:city": "CARMEL", "addr:country": "US", "addr:postcode": "93923", "addr:state": "CA", "addr:street_address": "3845 VIA NONA MARIE", "amenity": "post_box", "collection_times": "Mo-Fr 17:00; Sa 13:00", "indoor": "yes", "note": "ON 12/24 AND 12/31, THIS BOX MAY BE COLLECTED AS EARLY AS 12 NOON.", "nsi_id": "unitedstatespostalservice-a77078", "operator": "United States Postal Service", "operator:short": "USPS", "operator:type": "public", "operator:wikidata": "Q668687", "ref": "9392300015"}, "type": "Feature"}
{"geometry": {"coordinates": [-121.7280686104, 36.4795694732], "type": "Point"}, "id": "cFi83lruGqd8kSEvIspvk0OhWLE=", "properties": {"@source_uri": "https://tools.usps.com/UspsToolsRestServices/rest/POLocator/findLocations", "@spider": "usps_collection_boxes", "addr:city": "CARMEL VALLEY", "addr:country": "US", "addr:postcode": "93924", "addr:state": "CA", "addr:street_address": "11 VIA CONTENTA", "amenity": "post_box", "collection_times": "Mo-Fr 16:30; Sa 15:15", "note": "ON 12/24 AND 12/31, THIS BOX MAY BE COLLECTED AS EARLY AS 12 NOON.", "nsi_id": "unitedstatespostalservice-a77078", "operator": "United States Postal Service", "operator:short": "USPS", "operator:type": "public", "operator:wikidata": "Q668687", "ref": "9392400000"}, "type": "Feature"}
{"geometry": {"coordinates": [-121.7280686104, 36.4795694732], "type": "Point"}, "id": "3YAkBjmneXel9IfKmNCtt9WduI0=", "properties": {"@source_uri": "https://tools.usps.com/UspsToolsRestServices/rest/POLocator/findLocations", "@spider": "usps_collection_boxes", "addr:city": "CARMEL VALLEY", "addr:country": "US", "addr:postcode": "93924", "addr:state": "CA", "addr:street_address": "11 VIA CONTENTA", "amenity": "post_box", "collection_times": "Mo-Fr 16:30", "indoor": "yes", "note": "ON 12/24 AND 12/31, THIS BOX MAY BE COLLECTED AS EARLY AS 12 NOON.", "nsi_id": "unitedstatespostalservice-a77078", "operator": "United States Postal Service", "operator:short": "USPS", "operator:type": "public", "operator:wikidata": "Q668687", "ref": "9392400002"}, "type": "Feature"}
{"geometry": {"coordinates": [-121.5179729574, 36.5708455125], "type": "Point"}, "id": "20jciY-WZoRGCsBPkoMvnxfpTN4=", "properties": {"@source_uri": "https://tools.usps.com/UspsToolsRestServices/rest/POLocator/findLocations", "@spider": "usps_collection_boxes", "addr:city": "CHUALAR", "addr:country": "US", "addr:postcode": "93925", "addr:state": "CA", "addr:street_address": "25561 JACKSON ST", "amenity": "post_box", "collection_times": "Mo-Fr 16:00; Sa 10:00", "note": "ON 12/24 AND 12/31, THIS BOX MAY BE COLLECTED AS EARLY AS 12 NOON.", "nsi_id": "unitedstatespostalservice-a77078", "operator": "United States Postal Service", "operator:short": "USPS", "operator:type": "public", "operator:wikidata": "Q668687", "ref": "9392500000"}, "type": "Feature"}
{"geometry": {"coordinates": [-121.5179729574, 36.5708455125], "type": "Point"}, "id": "Mr0y7viSLIb6PNiyigYaHgOQup8=", "properties": {"@source_uri": "https://tools.usps.com/UspsToolsRestServices/rest/POLocator/findLocations", "@spider": "usps_collection_boxes", "addr:city": "CHUALAR", "addr:country": "US", "addr:postcode": "93925", "addr:state": "CA", "addr:street_address": "25561 JACKSON ST", "amenity": "post_box", "collection_times": "Mo-Fr 16:00", "indoor": "yes", "note": "ON 12/24 AND 12/31, THIS BOX MAY BE COLLECTED AS EARLY AS 12 NOON.", "nsi_id": "unitedstatespostalservice-a77078", "operator": "United States Postal Service", "operator:short": "USPS", "operator:type": "public", "operator:wikidata": "Q668687", "ref": "9392500002"}, "type": "Feature"}
{"geometry": {"coordinates": [-121.4435332678, 36.5072100652], "type": "Point"}, "id": "Bp3RjodR5oSbEd2vvLO8eKz29rM=", "properties": {"@source_uri": "https://tools.usps.com/UspsToolsRestServices/rest/POLocator/findLocations", "@spider": "usps_collection_boxes", "addr:city": "GONZALES", "addr:country": "US", "addr:postcode": "93926", "addr:state": "CA", "addr:street_address": "346 BELDEN ST", "amenity": "post_box", "collection_times": "Mo-Fr 17:00; Sa 11:00", "note": "ON 12/24 AND 12/31, THIS BOX MAY BE COLLECTED AS EARLY AS 12 NOON.", "nsi_id": "unitedstatespostalservice-a77078", "operator": "United States Postal Service", "operator:short": "USPS", "operator:type": "public", "operator:wikidata": "Q668687", "ref": "9392600002"}, "type": "Feature"}
{"geometry": {"coordinates": [-121.4435332678, 36.5072100652], "type": "Point"}, "id": "tjdxRjtU8TB1Um6oR4BDPU3fPOA=", "properties": {"@source_uri": "https://tools.usps.com/UspsToolsRestServices/rest/POLocator/findLocations", "@spider": "usps_collection_boxes", "addr:city": "GONZALES", "addr:country": "US", "addr:postcode": "93926", "addr:state": "CA", "addr:street_address": "346 BELDEN ST", "amenity": "post_box", "collection_times": "Mo-Fr 17:00", "indoor": "yes", "note": "ON 12/24 AND 12/31, THIS BOX MAY BE COLLECTED AS EARLY AS 12 NOON.", "nsi_id": "unitedstatespostalservice-a77078", "operator": "United States Postal Service", "operator:short": "USPS", "operator:type": "public", "operator:wikidata": "Q668687", "ref": "9392600005"}, "type": "Feature"}
{"geometry": {"coordinates": [-121.2435476776, 36.3208460063], "type": "Point"}, "id": "OfVNiY00n2x1kSTQzm7TfIHgOLk=", "properties": {"@source_uri": "https://tools.usps.com/UspsToolsRestServices/rest/POLocator/findLocations", "@spider": "usps_collection_boxes", "addr:city": "GREENFIELD", "addr:country": "US", "addr:postcode": "93927", "addr:state": "CA", "addr:street_address": "846 OAK AVE", "amenity": "post_box", "collection_times": "Mo-Fr 16:00; Sa 11:00", "note": "ON 12/24 AND 12/31, THIS BOX MAY BE COLLECTED AS EARLY AS 12 NOON.", "nsi_id": "unitedstatespostalservice-a77078", "operator": "United States Postal Service", "operator:short": "USPS", "operator:type": "public", "operator:wikidata": "Q668687", "ref": "9392700000"}, "type": "Feature"}
{"geometry": {"coordinates": [-121.2435476776, 36.3208460063], "type": "Point"}, "id": "V3Kg-Z8IfWWEZa2CV7LHfSMMls4=", "properties": {"@source_uri": "https://tools.usps.com/UspsToolsRestServices/rest/POLocator/findLocations", "@spider": "usps_collection_boxes", "addr:city": "GREENFIELD", "addr:country": "US", "addr:postcode": "93927", "addr:state": "CA", "addr:street_address": "846 OAK AVE", "amenity": "post_box", "collection_times": "Mo-Fr 16:00", "indoor": "yes", "note": "ON 12/24 AND 12/31, THIS BOX MAY BE COLLECTED AS EARLY AS 12 NOON.", "nsi_id": "unitedstatespostalservice-a77078", "operator": "United States Postal Service", "operator:short": "USPS", "operator:type": "public", "operator:wikidata": "Q668687", "ref": "9392700002"}, "type": "Feature"}
{"geometry": {"coordinates": [-121.2418685976, 36.0102953295], "type": "Point"}, "id": "w5IpfAi1MVuulUovt__DMllRNP8=", "properties": {"@source_uri": "https://tools.usps.com/UspsToolsRestServices/rest/POLocator/findLocations", "@spider": "usps_collection_boxes", "addr:city": "JOLON", "addr:country": "US", "addr:postcode": "93928", "addr:state": "CA", "addr:street_address": "79 INFANTRY RD", "amenity": "post_box", "collection_times": "Mo-Fr 16:00; Sa 14:45", "note": "ON 12/24 AND 12/31, THIS BOX MAY BE COLLECTED AS EARLY AS 12 NOON.", "nsi_id": "unitedstatespostalservice-a77078", "operator": "United States Postal Service", "operator:short": "USPS", "operator:type": "public", "operator:wikidata": "Q668687", "ref": "9392800000"}, "type": "Feature"}
{"geometry": {"coordinates": [-121.2418685976, 36.0102953295], "type": "Point"}, "id": "o1BystLGllLD19Urh7wlZYng5XU=", "properties": {"@source_uri": "https://tools.usps.com/UspsToolsRestServices/rest/POLocator/findLocations", "@spider": "usps_collection_boxes", "addr:city": "JOLON", "addr:country": "US", "addr:postcode": "93928", "addr:state": "CA", "addr:street_address": "79 INFANTRY RD", "amenity": "post_box", "collection_times": "Mo-Fr 16:00", "indoor": "yes", "note": "ON 12/24 AND 12/31, THIS BOX MAY BE COLLECTED AS EARLY AS 12 NOON.", "nsi_id": "unitedstatespostalservice-a77078", "operator": "United States Postal Service", "operator:short": "USPS", "operator:type": "public", "operator:wikidata": "Q668687", "ref": "9392800003"}, "type": "Feature"}
{"geometry": {"coordinates": [-121.124346, 36.21409], "type": "Point"}, "id": "N10vJqfZ8n3akrDvDaOXabysags=", "properties": {"@source_uri": "https://tools.usps.com/UspsToolsRestServices/rest/POLocator/findLocations", "@spider": "usps_collection_boxes", "addr:city": "KING CITY", "addr:country": "US", "addr:postcode": "93930", "addr:state": "CA", "addr:street_address": "116 BROADWAY ST", "amenity": "post_box", "collection_times": "Mo-Fr 15:00; Sa 13:00", "note": "ON 12/24 AND 12/31, THIS BOX MAY BE COLLECTED AS EARLY AS 12 NOON.", "nsi_id": "unitedstatespostalservice-a77078", "operator": "United States Postal Service", "operator:short": "USPS", "operator:type": "public", "operator:wikidata": "Q668687", "ref": "9393000000"}, "type": "Feature"}
{"geometry": {"coordinates": [-121.1261499308, 36.2127210204], "type": "Point"}, "id": "fKwJfA8K2ZLnl_aO1SI1d_QlKfo=", "properties": {"@source_uri": "https://tools.usps.com/UspsToolsRestServices/rest/POLocator/findLocations", "@spider": "usps_collection_boxes", "addr:city": "KING CITY", "addr:country": "US", "addr:postcode": "93930", "addr:state": "CA", "addr:street_address": "123 S 3RD ST", "amenity": "post_box", "collection_times": "Mo-Fr 17:00; Sa 16:00", "note": "ON 12/24 AND 12/31, THIS BOX MAY BE COLLECTED AS EARLY AS 12 NOON.", "nsi_id": "unitedstatespostalservice-a77078", "operator": "United States Postal Service", "operator:short": "USPS", "operator:type": "public", "operator:wikidata": "Q668687", "ref": "9393000005"}, "type": "Feature"}
{"geometry": {"coordinates": [-121.1261499308, 36.2127210204], "type": "Point"}, "id": "85f8gKuF_n0PJEwZ8olHjPlhIfQ=", "properties": {"@source_uri": "https://tools.usps.com/UspsToolsRestServices/rest/POLocator/findLocations", "@spider": "usps_collection_boxes", "addr:city": "KING CITY", "addr:country": "US", "addr:postcode": "93930", "addr:state": "CA", "addr:street_address": "123 S 3RD ST", "amenity": "post_box", "collection_times": "Mo-Fr 17:00; Sa 16:00", "note": "ON 12/24 AND 12/31, THIS BOX MAY BE COLLECTED AS EARLY AS 12 NOON.", "nsi_id": "unitedstatespostalservice-a77078", "operator": "United States Postal Service", "operator:short": "USPS", "operator:type": "public", "operator:wikidata": "Q668687", "ref": "9393000007"}, "type": "Feature"}
{"geometry": {"coordinates": [-121.126506, 36.215223], "type": "Point"}, "id": "EqEWc2Qr6PrRKl6x7Ie5cSICNjY=", "properties": {"@source_uri": "https://tools.usps.com/UspsToolsRestServices/rest/POLocator/findLocations", "@spider": "usps_collection_boxes", "addr:city": "KING CITY", "addr:country": "US", "addr:postcode": "93930", "addr:state": "CA", "addr:street_address": "221 N 2ND ST", "amenity": "post_box", "collection_times": "Mo-Sa 15:00", "note": "ON 12/24 AND 12/31, THIS BOX MAY BE COLLECTED AS EARLY AS 12 NOON.", "nsi_id": "unitedstatespostalservice-a77078", "operator": "United States Postal Service", "operator:short": "USPS", "operator:type": "public", "operator:wikidata": "Q668687", "ref": "9393000015"}, "type": "Feature"}
{"geometry": {"coordinates": [-121.1261499308, 36.2127210204], "type": "Point"}, "id": "xZ4WRDdPjZ3w8S8q_aEZwX4ajjw=", "properties": {"@source_uri": "https://tools.usps.com/UspsToolsRestServices/rest/POLocator/findLocations", "@spider": "usps_collection_boxes", "addr:city": "KING CITY", "addr:country": "US", "addr:postcode": "93930", "addr:state": "CA", "addr:street_address": "123 S 3RD ST", "amenity": "post_box", "collection_times": "Mo-Fr 16:30", "indoor": "yes", "note": "ON 12/24 AND 12/31, THIS BOX MAY BE COLLECTED AS EARLY AS 12 NOON.", "nsi_id": "unitedstatespostalservice-a77078", "operator": "United States Postal Service", "operator:short": "USPS", "operator:type": "public", "operator:wikidata": "Q668687", "ref": "9393000016"}, "type": "Feature"}
{"geometry": {"coordinates": [-121.0686407813, 35.93670153], "type": "Point"}, "id": "CpI7N9yi4j9zVFp1sd76v6ATK7g=", "properties": {"@source_uri": "https://tools.usps.com/UspsToolsRestServices/rest/POLocator/findLocations", "@spider": "usps_collection_boxes", "addr:city": "LOCKWOOD", "addr:country": "US", "addr:postcode": "93932", "addr:state": "CA", "addr:street_address": "68025 JOLON RD", "amenity": "post_box", "collection_times": "Mo-Fr 15:30; Sa 14:30", "note": "ON 12/24 AND 12/31, THIS BOX MAY BE COLLECTED AS EARLY AS 12 NOON.", "nsi_id": "unitedstatespostalservice-a77078", "operator": "United States Postal Service", "operator:short": "USPS", "operator:type": "public", "operator:wikidata": "Q668687", "ref": "9393200001"}, "type": "Feature"}
{"geometry": {"coordinates": [-121.0686407813, 35.93670153], "type": "Point"}, "id": "3z3D--uDHa7p1robt3SayZConMw=", "properties": {"@source_uri": "https://tools.usps.com/UspsToolsRestServices/rest/POLocator/findLocations", "@spider": "usps_collection_boxes", "addr:city": "LOCKWOOD", "addr:country": "US", "addr:postcode": "93932", "addr:state": "CA", "addr:street_address": "68025 JOLON RD", "amenity": "post_box", "collection_times": "Mo-Fr 15:30", "indoor": "yes", "note": "ON 12/24 AND 12/31, THIS BOX MAY BE COLLECTED AS EARLY AS 12 NOON.", "nsi_id": "unitedstatespostalservice-a77078", "operator": "United States Postal Service", "operator:short": "USPS", "operator:type": "public", "operator:wikidata": "Q668687", "ref": "9393200002"}, "type": "Feature"}
{"geometry": {"coordinates": [-121.7933111176, 36.6847646275], "type": "Point"}, "id": "J8NQJoWdgetkRqi9CMJ_JCDLPzY=", "properties": {"@source_uri": "https://tools.usps.com/UspsToolsRestServices/rest/POLocator/findLocations", "@spider": "usps_collection_boxes", "addr:city": "MARINA", "addr:country": "US", "addr:postcode": "93933", "addr:state": "CA", "addr:street_address": "3100 DE FOREST RD", "amenity": "post_box", "collection_times": "Mo-Fr 17:00; Sa 16:00", "note": "ON 12/24 AND 12/31, THIS BOX MAY BE COLLECTED AS EARLY AS 12 NOON.", "nsi_id": "unitedstatespostalservice-a77078", "operator": "United States Postal Service", "operator:short": "USPS", "operator:type": "public", "operator:wikidata": "Q668687", "ref": "9393300017"}, "type": "Feature"}
{"geometry": {"coordinates": [-121.7933111176, 36.6847646275], "type": "Point"}, "id": "d05jpnv8FA0FQ_RfAE4TrTGWDE0=", "properties": {"@source_uri": "https://tools.usps.com/UspsToolsRestServices/rest/POLocator/findLocations", "@spider": "usps_collection_boxes", "addr:city": "MARINA", "addr:country": "US", "addr:postcode": "93933", "addr:state": "CA", "addr:street_address": "3100 DE FOREST RD", "amenity": "post_box", "collection_times": "Mo-Fr 17:00; Sa 16:00", "note": "ON 12/24 AND 12/31, THIS BOX MAY BE COLLECTED AS EARLY AS 12 NOON.", "nsi_id": "unitedstatespostalservice-a77078", "operator": "United States Postal Service", "operator:short": "USPS", "operator:type": "public", "operator:wikidata": "Q668687", "ref": "9393300018"}, "type": "Feature"}
{"geometry": {"coordinates": [-121.7933111176, 36.6847646275], "type": "Point"}, "id": "cb3knRvFmEQD3V2b6E-qcdWD_0M=", "properties": {"@source_uri": "https://tools.usps.com/UspsToolsRestServices/rest/POLocator/findLocations", "@spider": "usps_collection_boxes", "addr:city": "MARINA", "addr:country": "US", "addr:postcode": "93933", "addr:state": "CA", "addr:street_address": "3100 DE FOREST RD", "amenity": "post_box", "collection_times": "Mo-Fr 17:00; Sa 16:00", "note": "ON 12/24 AND 12/31, THIS BOX MAY BE COLLECTED AS EARLY AS 12 NOON.", "nsi_id": "unitedstatespostalservice-a77078", "operator": "United States Postal Service", "operator:short": "USPS", "operator:type": "public", "operator:wikidata": "Q668687", "ref": "9393300019"}, "type": "Feature"}
{"geometry": {"coordinates": [-121.7933111176, 36.6847646275], "type": "Point"}, "id": "4UVEDI37GoP6CezcXWJFXmxHNd0=", "properties": {"@source_uri": "https://tools.usps.com/UspsToolsRestServices/rest/POLocator/findLocations", "@spider": "usps_collection_boxes", "addr:city": "MARINA", "addr:country": "US", "addr:postcode": "93933", "addr:state": "CA", "addr:street_address": "3100 DE FOREST RD", "amenity": "post_box", "collection_times": "Mo-Fr 17:00; Sa 16:00", "note": "ON 12/24 AND 12/31, THIS BOX MAY BE COLLECTED AS EARLY AS 12 NOON.", "nsi_id": "unitedstatespostalservice-a77078", "operator": "United States Postal Service", "operator:short": "USPS", "operator:type": "public", "operator:wikidata": "Q668687", "ref": "9393300020"}, "type": "Feature"}
{"geometry": {"coordinates": [-121.7933111176, 36.6847646275], "type": "Point"}, "id": "XOy_Sz7sAmVOFsenhYGPgX5KrXs=", "properties": {"@source_uri": "https://tools.usps.com/UspsToolsRestServices/rest/POLocator/findLocations", "@spider": "usps_collection_boxes", "addr:city": "MARINA", "addr:country": "US", "addr:postcode": "93933", "addr:state": "CA", "addr:street_address": "3100 DE FOREST RD", "amenity": "post_box", "collection_times": "Mo-Fr 17:00; Sa 12:00", "indoor": "yes", "note": "ON 12/24 AND 12/31, THIS BOX MAY BE COLLECTED AS EARLY AS 12 NOON.", "nsi_id": "unitedstatespostalservice-a77078", "operator": "United States Postal Service", "operator:short": "USPS", "operator:type": "public", "operator:wikidata": "Q668687", "ref": "9393300030"}, "type": "Feature"}
{"geometry": {"coordinates": [-121.895576744, 36.596138071], "type": "Point"}, "id": "a2n8-8wE3cc6TTz-YmLWUOntW-I=", "properties": {"@source_uri": "https://tools.usps.com/UspsToolsRestServices/rest/POLocator/findLocations", "@spider": "usps_collection_boxes", "addr:city": "MONTEREY", "addr:country": "US", "addr:postcode": "93940", "addr:state": "CA", "addr:street_address": "539 HARTNELL ST", "amenity": "post_box", "collection_times": "Mo-Sa 17:00", "note": "ON 12/24 AND 12/31, THIS BOX MAY BE COLLECTED AS EARLY AS 12 NOON.", "nsi_id": "unitedstatespostalservice-a77078", "operator": "United States Postal Service", "operator:short": "USPS", "operator:type": "public", "operator:wikidata": "Q668687", "ref": "9394000002"}, "type": "Feature"}
{"geometry": {"coordinates": [-121.895383, 36.599186], "type": "Point"}, "id": "xZJ0aP3nucoJQChLVQy9bUWTj4s=", "properties": {"@source_uri": "https://tools.usps.com/UspsToolsRestServices/rest/POLocator/findLocations", "@spider": "usps_collection_boxes", "addr:city": "MONTEREY", "addr:country": "US", "addr:postcode": "93940", "addr:state": "CA", "addr:street_address": "407 CALLE PRINCIPAL", "amenity": "post_box", "collection_times": "Mo-Fr 15:00; Sa 12:00", "note": "ON 12/24 AND 12/31, THIS BOX MAY BE COLLECTED AS EARLY AS 12 NOON.", "nsi_id": "unitedstatespostalservice-a77078", "operator": "United States Postal Service", "operator:short": "USPS", "operator:type": "public", "operator:wikidata": "Q668687", "ref": "9394000004"}, "type": "Feature"}
{"geometry": {"coordinates": [-121.893868, 36.601666], "type": "Point"}, "id": "gakOk7EvJGzQGC_BAEoUrmKU5oI=", "properties": {"@source_uri": "https://tools.usps.com/UspsToolsRestServices/rest/POLocator/findLocations", "@spider": "usps_collection_boxes", "addr:city": "MONTEREY", "addr:country": "US", "addr:postcode": "93940", "addr:state": "CA", "addr:street_address": "2 PORTOLA PLZ", "amenity": "post_box", "collection_times": "Mo-Fr 13:00; Sa 12:00", "note": "ON 12/24 AND 12/31, THIS BOX MAY BE COLLECTED AS EARLY AS 12 NOON.", "nsi_id": "unitedstatespostalservice-a77078", "operator": "United States Postal Service", "operator:short": "USPS", "operator:type": "public", "operator:wikidata": "Q668687", "ref": "9394000007"}, "type": "Feature"}
{"geometry": {"coordinates": [-121.8950577421, 36.5953116375], "type": "Point"}, "id": "qF_lh9Eu_H3kdFmty393HkK6QwU=", "properties": {"@source_uri": "https://tools.usps.com/UspsToolsRestServices/rest/POLocator/findLocations", "@spider": "usps_collection_boxes", "addr:city": "MONTEREY", "addr:country": "US", "addr:postcode": "93940", "addr:state": "CA", "addr:street_address": "590 HARTNELL ST", "amenity": "post_box", "collection_times": "Mo-Sa 17:00", "note": "ON 12/24 AND 12/31, THIS BOX MAY BE COLLECTED AS EARLY AS 12 NOON.", "nsi_id": "unitedstatespostalservice-a77078", "operator": "United States Postal Service", "operator:short": "USPS", "operator:type": "public", "operator:wikidata": "Q668687", "ref": "9394000022"}, "type": "Feature"}
{"geometry": {"coordinates": [-121.898839, 36.59149], "type": "Point"}, "id": "PvXWIn61Z4Pd1Qum3rl9qml24r4=", "properties": {"@source_uri": "https://tools.usps.com/UspsToolsRestServices/rest/POLocator/findLocations", "@spider": "usps_collection_boxes", "addr:city": "MONTEREY", "addr:country": "US", "addr:postcode": "93940", "addr:state": "CA", "addr:street_address": "965 PACIFIC ST", "amenity": "post_box", "collection_times": "Mo-Sa 11:00", "nsi_id": "unitedstatespostalservice-a77078", "operator": "United States Postal Service", "operator:short": "USPS", "operator:type": "public", "operator:wikidata": "Q668687", "ref": "9394000027"}, "type": "Feature"}
{"geometry": {"coordinates": [-121.903954, 36.584693], "type": "Point"}, "id": "niF3FjXJ8-3anrONbVaJByU8reY=", "properties": {"@source_uri": "https://tools.usps.com/UspsToolsRestServices/rest/POLocator/findLocations", "@spider": "usps_collection_boxes", "addr:city": "MONTEREY", "addr:country": "US", "addr:postcode": "93940", "addr:state": "CA", "addr:street_address": "21 SOLEDAD DR", "amenity": "post_box", "collection_times": "Mo-Sa 12:00", "nsi_id": "unitedstatespostalservice-a77078", "operator": "United States Postal Service", "operator:short": "USPS", "operator:type": "public", "operator:wikidata": "Q668687", "ref": "9394000028"}, "type": "Feature"}
{"geometry": {"coordinates": [-121.896309, 36.592446], "type": "Point"}, "id": "IXHStClBSCC8QJKjNB0-YqKBEpc=", "properties": {"@source_uri": "https://tools.usps.com/UspsToolsRestServices/rest/POLocator/findLocations", "@spider": "usps_collection_boxes", "addr:city": "MONTEREY", "addr:country": "US", "addr:postcode": "93940", "addr:state": "CA", "addr:street_address": "993 CASS ST", "amenity": "post_box", "collection_times": "Mo-Sa 12:00", "nsi_id": "unitedstatespostalservice-a77078", "operator": "United States Postal Service", "operator:short": "USPS", "operator:type": "public", "operator:wikidata": "Q668687", "ref": "9394000034"}, "type": "Feature"}
{"geometry": {"coordinates": [-121.893453799, 36.593743693], "type": "Point"}, "id": "GlvtlPGgj5j6WFndcSKwRXKTG_E=", "properties": {"@source_uri": "https://tools.usps.com/UspsToolsRestServices/rest/POLocator/findLocations", "@spider": "usps_collection_boxes", "addr:city": "MONTEREY", "addr:country": "US", "addr:postcode": "93940", "addr:state": "CA", "addr:street_address": "824 MUNRAS AVE", "amenity": "post_box", "collection_times": "Mo-Sa 11:00", "nsi_id": "unitedstatespostalservice-a77078", "operator": "United States Postal Service", "operator:short": "USPS", "operator:type": "public", "operator:wikidata": "Q668687", "ref": "9394000038"}, "type": "Feature"}
{"geometry": {"coordinates": [-121.892278, 36.596832], "type": "Point"}, "id": "30-N9ATEybicq3oi6esRFBFeaQw=", "properties": {"@source_uri": "https://tools.usps.com/UspsToolsRestServices/rest/POLocator/findLocations", "@spider": "usps_collection_boxes", "addr:city": "MONTEREY", "addr:country": "US", "addr:postcode": "93940", "addr:state": "CA", "addr:street_address": "585 ABREGO ST", "amenity": "post_box", "collection_times": "Mo-Fr 15:00; Sa 12:00", "note": "ON 12/24 AND 12/31, THIS BOX MAY BE COLLECTED AS EARLY AS 12 NOON.", "nsi_id": "unitedstatespostalservice-a77078", "operator": "United States Postal Service", "operator:short": "USPS", "operator:type": "public", "operator:wikidata": "Q668687", "ref": "9394000040"}, "type": "Feature"}
{"geometry": {"coordinates": [-121.88896, 36.596932], "type": "Point"}, "id": "EWFruPxxsDbgYkko9KyHOUKAubU=", "properties": {"@source_uri": "https://tools.usps.com/UspsToolsRestServices/rest/POLocator/findLocations", "@spider": "usps_collection_boxes", "addr:city": "MONTEREY", "addr:country": "US", "addr:postcode": "93940", "addr:state": "CA", "addr:street_address": "550 CAMINO EL ESTERO", "amenity": "post_box", "collection_times": "Mo-Fr 15:00; Sa 12:00", "note": "ON 12/24 AND 12/31, THIS BOX MAY BE COLLECTED AS EARLY AS 12 NOON.", "nsi_id": "unitedstatespostalservice-a77078", "operator": "United States Postal Service", "operator:short": "USPS", "operator:type": "public", "operator:wikidata": "Q668687", "ref": "9394000042"}, "type": "Feature"}
{"geometry": {"coordinates": [-121.89634, 36.596995], "type": "Point"}, "id": "zpDfZ5CXtDMRvbJasnmzUjR6Z18=", "properties": {"@source_uri": "https://tools.usps.com/UspsToolsRestServices/rest/POLocator/findLocations", "@spider": "usps_collection_boxes", "addr:city": "MONTEREY", "addr:country": "US", "addr:postcode": "93940", "addr:state": "CA", "addr:street_address": "371 CAMINO AGUAJITO", "amenity": "post_box", "collection_times": "Mo-Sa 12:00", "nsi_id": "unitedstatespostalservice-a77078", "operator": "United States Postal Service", "operator:short": "USPS", "operator:type": "public", "operator:wikidata": "Q668687", "ref": "9394000045"}, "type": "Feature"}
{"geometry": {"coordinates": [-121.819673, 36.578248], "type": "Point"}, "id": "qPn7QJ-hOOBapchiCdWDYMi5_Gk=", "properties": {"@source_uri": "https://tools.usps.com/UspsToolsRestServices/rest/POLocator/findLocations", "@spider": "usps_collection_boxes", "addr:city": "MONTEREY", "addr:country": "US", "addr:postcode": "93940", "addr:state": "CA", "addr:street_address": "1 UPPER RAGSDALE DR", "amenity": "post_box", "collection_times": "Mo-Fr 15:00; Sa 12:00", "note": "ON 12/24 AND 12/31, THIS BOX MAY BE COLLECTED AS EARLY AS 12 NOON.", "nsi_id": "unitedstatespostalservice-a77078", "operator": "United States Postal Service", "operator:short": "USPS", "operator:type": "public", "operator:wikidata": "Q668687", "ref": "9394000057"}, "type": "Feature"}
{"geometry": {"coordinates": [-121.880203, 36.590209], "type": "Point"}, "id": "eEvq12gCg9p_17vJ8pLT32l7clk=", "properties": {"@source_uri": "https://tools.usps.com/UspsToolsRestServices/rest/POLocator/findLocations", "@spider": "usps_collection_boxes", "addr:city": "MONTEREY", "addr:country": "US", "addr:postcode": "93940", "addr:state": "CA", "addr:street_address": "1200 AGUAJITO RD", "amenity": "post_box", "collection_times": "Mo-Fr 15:00; Sa 12:00", "note": "ON 12/24 AND 12/31, THIS BOX MAY BE COLLECTED AS EARLY AS 12 NOON.", "nsi_id": "unitedstatespostalservice-a77078", "operator": "United States Postal Service", "operator:short": "USPS", "operator:type": "public", "operator:wikidata": "Q668687", "ref": "9394000066"}, "type": "Feature"}
{"geometry": {"coordinates": [-121.8876, 36.586052], "type": "Point"}, "id": "1gOJK9OdJS7HLq7XDD78QDkv5eo=", "properties": {"@source_uri": "https://tools.usps.com/UspsToolsRestServices/rest/POLocator/findLocations", "@spider": "usps_collection_boxes", "addr:city": "MONTEREY", "addr:country": "US", "addr:postcode": "93940", "addr:state": "CA", "addr:street_address": "300 GLENWOOD CIR", "amenity": "post_box", "collection_times": "Mo-Sa 12:00", "nsi_id": "unitedstatespostalservice-a77078", "operator": "United States Postal Service", "operator:short": "USPS", "operator:type": "public", "operator:wikidata": "Q668687", "ref": "9394000074"}, "type": "Feature"}
{"geometry": {"coordinates": [-121.898303, 36.583593], "type": "Point"}, "id": "9ijDGOoscDVSDCcLeYTQ9J-ih7g=", "properties": {"@source_uri": "https://tools.usps.com/UspsToolsRestServices/rest/POLocator/findLocations", "@spider": "usps_collection_boxes", "addr:city": "MONTEREY", "addr:country": "US", "addr:postcode": "93940", "addr:state": "CA", "addr:street_address": "395 DEL MONTE CTR", "amenity": "post_box", "collection_times": "Mo-Fr 15:00; Sa 12:00", "name": "USPS COLLECTION BOX - EXPRESS", "note": "ON 12/24 AND 12/31, THIS BOX MAY BE COLLECTED AS EARLY AS 12 NOON.", "nsi_id": "unitedstatespostalservice-a77078", "operator": "United States Postal Service", "operator:short": "USPS", "operator:type": "public", "operator:wikidata": "Q668687", "ref": "9394000080"}, "type": "Feature"}
{"geometry": {"coordinates": [-121.8546124577, 36.5862601422], "type": "Point"}, "id": "ExwjnxjcsgAYEe-D5RlcZTq762Y=", "properties": {"@source_uri": "https://tools.usps.com/UspsToolsRestServices/rest/POLocator/findLocations", "@spider": "usps_collection_boxes", "addr:city": "MONTEREY", "addr:country": "US", "addr:postcode": "93940", "addr:state": "CA", "addr:street_address": "2411 GARDEN RD", "amenity": "post_box", "collection_times": "Mo-Fr 15:00; Sa 12:00", "note": "ON 12/24 AND 12/31, THIS BOX MAY BE COLLECTED AS EARLY AS 12 NOON.", "nsi_id": "unitedstatespostalservice-a77078", "operator": "United States Postal Service", "operator:short": "USPS", "operator:type": "public", "operator:wikidata": "Q668687", "ref": "9394000105"}, "type": "Feature"}
{"geometry": {"coordinates": [-121.890599, 36.597935], "type": "Point"}, "id": "V5I9HwTAshcXao0SQvBU2sRBHjc=", "properties": {"@source_uri": "https://tools.usps.com/UspsToolsRestServices/rest/POLocator/findLocations", "@spider": "usps_collection_boxes", "addr:city": "MONTEREY", "addr:country": "US", "addr:postcode": "93940", "addr:state": "CA", "addr:street_address": "498 PEARL ST", "amenity": "post_box", "collection_times": "Mo-Sa 12:00", "nsi_id": "unitedstatespostalservice-a77078", "operator": "United States Postal Service", "operator:short": "USPS", "operator:type": "public", "operator:wikidata": "Q668687", "ref": "9394000106"}, "type": "Feature"}
{"geometry": {"coordinates": [-121.912531, 36.57612], "type": "Point"}, "id": "v35fDkVgGmRt2Sar_6GP5GM638w=", "properties": {"@source_uri": "https://tools.usps.com/UspsToolsRestServices/rest/POLocator/findLocations", "@spider": "usps_collection_boxes", "addr:city": "MONTEREY", "addr:country": "US", "addr:postcode": "93940", "addr:state": "CA", "addr:street_address": "23845 HOLMAN HWY", "amenity": "post_box", "collection_times": "Mo-Sa 12:00", "nsi_id": "unitedstatespostalservice-a77078", "operator": "United States Postal Service", "operator:short": "USPS", "operator:type": "public", "operator:wikidata": "Q668687", "ref": "9394000113"}, "type": "Feature"}
{"geometry": {"coordinates": [-121.893021, 36.597796], "type": "Point"}, "id": "Fdv1ojrai6xg9jH1zjZsL_pd9nE=", "properties": {"@source_uri": "https://tools.usps.com/UspsToolsRestServices/rest/POLocator/findLocations", "@spider": "usps_collection_boxes", "addr:city": "MONTEREY", "addr:country": "US", "addr:postcode": "93940", "addr:state": "CA", "addr:street_address": "528 ABREGO ST", "amenity": "post_box", "collection_times": "Mo-Sa 12:00", "nsi_id": "unitedstatespostalservice-a77078", "operator": "United States Postal Service", "operator:short": "USPS", "operator:type": "public", "operator:wikidata": "Q668687", "ref": "9394000130"}, "type": "Feature"}
{"geometry": {"coordinates": [-121.8965010858, 36.5970765118], "type": "Point"}, "id": "QWEKjSFxgrByVpGFAyIQBgAkcLI=", "properties": {"@source_uri": "https://tools.usps.com/UspsToolsRestServices/rest/POLocator/findLocations", "@spider": "usps_collection_boxes", "addr:city": "MONTEREY", "addr:country": "US", "addr:postcode": "93940", "addr:state": "CA", "addr:street_address": "580 CALLE PRINCIPAL", "amenity": "post_box", "collection_times": "Mo-Sa 15:00", "note": "ON 12/24 AND 12/31, THIS BOX MAY BE COLLECTED AS EARLY AS 12 NOON.", "nsi_id": "unitedstatespostalservice-a77078", "operator": "United States Postal Service", "operator:short": "USPS", "operator:type": "public", "operator:wikidata": "Q668687", "ref": "9394000132"}, "type": "Feature"}
{"geometry": {"coordinates": [-121.812271, 36.574375], "type": "Point"}, "id": "Mxb1KiqaGWhHi4lKrvExycEzQAs=", "properties": {"@source_uri": "https://tools.usps.com/UspsToolsRestServices/rest/POLocator/findLocations", "@spider": "usps_collection_boxes", "addr:city": "MONTEREY", "addr:country": "US", "addr:postcode": "93940", "addr:state": "CA", "addr:street_address": "15 LOWER RAGSDALE DR", "amenity": "post_box", "collection_times": "Mo-Fr 15:00; Sa 12:00", "note": "ON 12/24 AND 12/31, THIS BOX MAY BE COLLECTED AS EARLY AS 12 NOON.", "nsi_id": "unitedstatespostalservice-a77078", "operator": "United States Postal Service", "operator:short": "USPS", "operator:type": "public", "operator:wikidata": "Q668687", "ref": "9394000135"}, "type": "Feature"}
{"geometry": {"coordinates": [-121.89634, 36.596995], "type": "Point"}, "id": "CMYzCyRcEMWCRfRu3hvgPg_9Mt8=", "properties": {"@source_uri": "https://tools.usps.com/UspsToolsRestServices/rest/POLocator/findLocations", "@spider": "usps_collection_boxes", "addr:city": "MONTEREY", "addr:country": "US", "addr:postcode": "93940", "addr:state": "CA", "addr:street_address": "10 RAGSDALE DR", "amenity": "post_box", "collection_times": "Mo-Fr 15:00; Sa 12:00", "note": "ON 12/24 AND 12/31, THIS BOX MAY BE COLLECTED AS EARLY AS 12 NOON.", "nsi_id": "unitedstatespostalservice-a77078", "operator": "United States Postal Service", "operator:short": "USPS", "operator:type": "public", "operator:wikidata": "Q668687", "ref": "9394000139"}, "type": "Feature"}
{"geometry": {"coordinates": [-121.808849, 36.573106], "type": "Point"}, "id": "S2vJUqlq35B3w0btSnY0rdEf7nI=", "properties": {"@source_uri": "https://tools.usps.com/UspsToolsRestServices/rest/POLocator/findLocations", "@spider": "usps_collection_boxes", "addr:city": "MONTEREY", "addr:country": "US", "addr:postcode": "93940", "addr:state": "CA", "addr:street_address": "50 WILSON RD", "amenity": "post_box", "collection_times": "Mo-Fr 15:00; Sa 12:00", "note": "ON 12/24 AND 12/31, THIS BOX MAY BE COLLECTED AS EARLY AS 12 NOON.", "nsi_id": "unitedstatespostalservice-a77078", "operator": "United States Postal Service", "operator:short": "USPS", "operator:type": "public", "operator:wikidata": "Q668687", "ref": "9394000140"}, "type": "Feature"}
{"geometry": {"coordinates": [-121.895714, 36.593839], "type": "Point"}, "id": "BJzOsDKz3lcXEvH0djHF-V0qUvA=", "properties": {"@source_uri": "https://tools.usps.com/UspsToolsRestServices/rest/POLocator/findLocations", "@spider": "usps_collection_boxes", "addr:city": "MONTEREY", "addr:country": "US", "addr:postcode": "93940", "addr:state": "CA", "addr:street_address": "800 CASS ST", "amenity": "post_box", "collection_times": "Mo-Fr 15:00; Sa 12:00", "note": "ON 12/24 AND 12/31, THIS BOX MAY BE COLLECTED AS EARLY AS 12 NOON.", "nsi_id": "unitedstatespostalservice-a77078", "operator": "United States Postal Service", "operator:short": "USPS", "operator:type": "public", "operator:wikidata": "Q668687", "ref": "9394000142"}, "type": "Feature"}
{"geometry": {"coordinates": [-121.895269412, 36.603937541], "type": "Point"}, "id": "NwC8U6WYoYc8Jj0Xa_PYIoKAVWQ=", "properties": {"@source_uri": "https://tools.usps.com/UspsToolsRestServices/rest/POLocator/findLocations", "@spider": "usps_collection_boxes", "addr:city": "MONTEREY", "addr:country": "US", "addr:postcode": "93940", "addr:state": "CA", "addr:street_address": "99 PACIFIC ST", "amenity": "post_box", "collection_times": "Mo-Sa 12:00", "nsi_id": "unitedstatespostalservice-a77078", "operator": "United States Postal Service", "operator:short": "USPS", "operator:type": "public", "operator:wikidata": "Q668687", "ref": "9394000149"}, "type": "Feature"}
{"geometry": {"coordinates": [-121.895365877, 36.600091744], "type": "Point"}, "id": "gN7BN8vXffj4DDoQlBu2a_L3vLU=", "properties": {"@source_uri": "https://tools.usps.com/UspsToolsRestServices/rest/POLocator/findLocations", "@spider": "usps_collection_boxes", "addr:city": "MONTEREY", "addr:country": "US", "addr:postcode": "93940", "addr:state": "CA", "addr:street_address": "201 W FRANKLIN ST", "amenity": "post_box", "collection_times": "Mo-Sa 12:00", "nsi_id": "unitedstatespostalservice-a77078", "operator": "United States Postal Service", "operator:short": "USPS", "operator:type": "public", "operator:wikidata": "Q668687", "ref": "9394000150"}, "type": "Feature"}
{"geometry": {"coordinates": [-121.8950719768, 36.5960010172], "type": "Point"}, "id": "NfTr05fFiPipVcDQDWQSXLyTU00=", "properties": {"@source_uri": "https://tools.usps.com/UspsToolsRestServices/rest/POLocator/findLocations", "@spider": "usps_collection_boxes", "addr:city": "MONTEREY", "addr:country": "US", "addr:postcode": "93940", "addr:state": "CA", "addr:street_address": "565 HARTNELL ST", "amenity": "post_box", "collection_times": "Mo-Fr 17:00; Sa 14:00", "indoor": "yes", "note": "ON 12/24 AND 12/31, THIS BOX MAY BE COLLECTED AS EARLY AS 12 NOON.", "nsi_id": "unitedstatespostalservice-a77078", "operator": "United States Postal Service", "operator:short": "USPS", "operator:type": "public", "operator:wikidata": "Q668687", "ref": "9394000154"}, "type": "Feature"}
{"geometry": {"coordinates": [-121.923806, 36.600441], "type": "Point"}, "id": "BL1_eeJicVYol3n5RZ_89lUp9OA=", "properties": {"@source_uri": "https://tools.usps.com/UspsToolsRestServices/rest/POLocator/findLocations", "@spider": "usps_collection_boxes", "addr:city": "MONTEREY", "addr:country": "US", "addr:postcode": "93944", "addr:state": "CA", "addr:street_address": "2555 MASON RD", "amenity": "post_box", "collection_times": "Mo-Fr 15:00; Sa 12:00", "note": "ON 12/24 AND 12/31, THIS BOX MAY BE COLLECTED AS EARLY AS 12 NOON.", "nsi_id": "unitedstatespostalservice-a77078", "operator": "United States Postal Service", "operator:short": "USPS", "operator:type": "public", "operator:wikidata": "Q668687", "ref": "9394400000"}, "type": "Feature"}
{"geometry": {"coordinates": [-121.902179, 36.6075], "type": "Point"}, "id": "viKls9eICp8RB_JaekCSLkndaB0=", "properties": {"@source_uri": "https://tools.usps.com/UspsToolsRestServices/rest/POLocator/findLocations", "@spider": "usps_collection_boxes", "addr:city": "MONTEREY", "addr:country": "US", "addr:postcode": "93944", "addr:state": "CA", "addr:street_address": "1325 PLUMMER ST", "amenity": "post_box", "collection_times": "Mo-Fr 15:00; Sa 12:00", "note": "ON 12/24 AND 12/31, THIS BOX MAY BE COLLECTED AS EARLY AS 12 NOON.", "nsi_id": "unitedstatespostalservice-a77078", "operator": "United States Postal Service", "operator:short": "USPS", "operator:type": "public", "operator:wikidata": "Q668687", "ref": "9394400001"}, "type": "Feature"}
{"geometry": {"coordinates": [-121.9031704, 36.6072638], "type": "Point"}, "id": "9kHqP2v9Kk_Wqv4bDT054kOea0Q=", "properties": {"@source_uri": "https://tools.usps.com/UspsToolsRestServices/rest/POLocator/findLocations", "@spider": "usps_collection_boxes", "addr:city": "MONTEREY", "addr:country": "US", "addr:postcode": "93944", "addr:state": "CA", "addr:street_address": "PO BOX 9996", "amenity": "post_box", "collection_times": "Mo-Fr 15:30; Sa 17:00", "indoor": "yes", "note": "ON 12/24 AND 12/31, THIS BOX MAY BE COLLECTED AS EARLY AS 12 NOON.", "nsi_id": "unitedstatespostalservice-a77078", "operator": "United States Postal Service", "operator:short": "USPS", "operator:type": "public", "operator:wikidata": "Q668687", "ref": "9394400002"}, "type": "Feature"}
{"geometry": {"coordinates": [-121.931119, 36.620493], "type": "Point"}, "id": "IxagdyAeixrGGfErSzI4KLzaQL0=", "properties": {"@source_uri": "https://tools.usps.com/UspsToolsRestServices/rest/POLocator/findLocations", "@spider": "usps_collection_boxes", "addr:city": "PACIFIC GROVE", "addr:country": "US", "addr:postcode": "93950", "addr:state": "CA", "addr:street_address": "1012 PACIFIC GROVE LN", "amenity": "post_box", "collection_times": "Mo-Sa 12:00", "nsi_id": "unitedstatespostalservice-a77078", "operator": "United States Postal Service", "operator:short": "USPS", "operator:type": "public", "operator:wikidata": "Q668687", "ref": "9395000000"}, "type": "Feature"}
{"geometry": {"coordinates": [-121.917176, 36.625685], "type": "Point"}, "id": "dGJUlH8TQSbSggILcUq3KclnuxA=", "properties": {"@source_uri": "https://tools.usps.com/UspsToolsRestServices/rest/POLocator/findLocations", "@spider": "usps_collection_boxes", "addr:city": "PACIFIC GROVE", "addr:country": "US", "addr:postcode": "93950", "addr:state": "CA", "addr:street_address": "625 OCEAN VIEW BLVD", "amenity": "post_box", "collection_times": "Mo-Sa 12:00", "nsi_id": "unitedstatespostalservice-a77078", "operator": "United States Postal Service", "operator:short": "USPS", "operator:type": "public", "operator:wikidata": "Q668687", "ref": "9395000003"}, "type": "Feature"}
{"geometry": {"coordinates": [-121.919916, 36.616125], "type": "Point"}, "id": "9tVbN2IGJA7ex8tDA3ogn88ebaY=", "properties": {"@source_uri": "https://tools.usps.com/UspsToolsRestServices/rest/POLocator/findLocations", "@spider": "usps_collection_boxes", "addr:city": "PACIFIC GROVE", "addr:country": "US", "addr:postcode": "93950", "addr:state": "CA", "addr:street_address": "621 FOREST AVE", "amenity": "post_box", "collection_times": "Mo-Sa 12:00", "nsi_id": "unitedstatespostalservice-a77078", "operator": "United States Postal Service", "operator:short": "USPS", "operator:type": "public", "operator:wikidata": "Q668687", "ref": "9395000006"}, "type": "Feature"}
{"geometry": {"coordinates": [-121.934619, 36.615957], "type": "Point"}, "id": "uy5lLTTwbTPbGNbqr0KFrQQYzmw=", "properties": {"@source_uri": "https://tools.usps.com/UspsToolsRestServices/rest/POLocator/findLocations", "@spider": "usps_collection_boxes", "addr:city": "PACIFIC GROVE", "addr:country": "US", "addr:postcode": "93950", "addr:state": "CA", "addr:street_address": "2106 SUNSET DR", "amenity": "post_box", "collection_times": "Mo-Sa 12:00", "nsi_id": "unitedstatespostalservice-a77078", "operator": "United States Postal Service", "operator:short": "USPS", "operator:type": "public", "operator:wikidata": "Q668687", "ref": "9395000009"}, "type": "Feature"}
{"geometry": {"coordinates": [-121.920714, 36.604762], "type": "Point"}, "id": "k3YNYofFW2mMlZ018loRBf7oBuo=", "properties": {"@source_uri": "https://tools.usps.com/UspsToolsRestServices/rest/POLocator/findLocations", "@spider": "usps_collection_boxes", "addr:city": "PACIFIC GROVE", "addr:country": "US", "addr:postcode": "93950", "addr:state": "CA", "addr:street_address": "1212 FOREST AVE", "amenity": "post_box", "collection_times": "Mo-Sa 12:00", "nsi_id": "unitedstatespostalservice-a77078", "operator": "United States Postal Service", "operator:short": "USPS", "operator:type": "public", "operator:wikidata": "Q668687", "ref": "9395000010"}, "type": "Feature"}
{"geometry": {"coordinates": [-121.919921, 36.616122], "type": "Point"}, "id": "sHxBahDcx6uRZxYHb93g49cDiH0=", "properties": {"@source_uri": "https://tools.usps.com/UspsToolsRestServices/rest/POLocator/findLocations", "@spider": "usps_collection_boxes", "addr:city": "PACIFIC GROVE", "addr:country": "US", "addr:postcode": "93950", "addr:state": "CA", "addr:street_address": "621 FOREST AVE", "amenity": "post_box", "collection_times": "Mo-Sa 13:00", "note": "ON 12/24 AND 12/31, THIS BOX MAY BE COLLECTED AS EARLY AS 12 NOON.", "nsi_id": "unitedstatespostalservice-a77078", "operator": "United States Postal Service", "operator:short": "USPS", "operator:type": "public", "operator:wikidata": "Q668687", "ref": "9395000011"}, "type": "Feature"}
{"geometry": {"coordinates": [-121.917811, 36.621285], "type": "Point"}, "id": "MhXkY-hrK0UtMWZnFrbnu1WpmL4=", "properties": {"@source_uri": "https://tools.usps.com/UspsToolsRestServices/rest/POLocator/findLocations", "@spider": "usps_collection_boxes", "addr:city": "PACIFIC GROVE", "addr:country": "US", "addr:postcode": "93950", "addr:state": "CA", "addr:street_address": "580 LIGHTHOUSE AVE", "amenity": "post_box", "collection_times": "Mo-Sa 13:00", "note": "ON 12/24 AND 12/31, THIS BOX MAY BE COLLECTED AS EARLY AS 12 NOON.", "nsi_id": "unitedstatespostalservice-a77078", "operator": "United States Postal Service", "operator:short": "USPS", "operator:type": "public", "operator:wikidata": "Q668687", "ref": "9395000014"}, "type": "Feature"}
{"geometry": {"coordinates": [-121.918297, 36.619749], "type": "Point"}, "id": "46KufnVA_ao503wW_9vuxk2P0mA=", "properties": {"@source_uri": "https://tools.usps.com/UspsToolsRestServices/rest/POLocator/findLocations", "@spider": "usps_collection_boxes", "addr:city": "PACIFIC GROVE", "addr:country": "US", "addr:postcode": "93950", "addr:state": "CA", "addr:street_address": "301 FOREST AVE", "amenity": "post_box", "collection_times": "Mo-Sa 11:00", "nsi_id": "unitedstatespostalservice-a77078", "operator": "United States Postal Service", "operator:short": "USPS", "operator:type": "public", "operator:wikidata": "Q668687", "ref": "9395000015"}, "type": "Feature"}
{"geometry": {"coordinates": [-121.925275, 36.608193], "type": "Point"}, "id": "faee_hIzaUcp7RqVVavlBEqziOY=", "properties": {"@source_uri": "https://tools.usps.com/UspsToolsRestServices/rest/POLocator/findLocations", "@spider": "usps_collection_boxes", "addr:city": "PACIFIC GROVE", "addr:country": "US", "addr:postcode": "93950", "addr:state": "CA", "addr:street_address": "170 COUNTRY CLUB GATE CTR", "amenity": "post_box", "collection_times": "Mo-Sa 12:00", "nsi_id": "unitedstatespostalservice-a77078", "operator": "United States Postal Service", "operator:short": "USPS", "operator:type": "public", "operator:wikidata": "Q668687", "ref": "9395000016"}, "type": "Feature"}
{"geometry": {"coordinates": [-121.9203192219, 36.6223447075], "type": "Point"}, "id": "9LJe8P1QRHw9TjWJRERZsQDWb0o=", "properties": {"@source_uri": "https://tools.usps.com/UspsToolsRestServices/rest/POLocator/findLocations", "@spider": "usps_collection_boxes", "addr:city": "PACIFIC GROVE", "addr:country": "US", "addr:postcode": "93950", "addr:state": "CA", "addr:street_address": "680 LIGHTHOUSE AVE", "amenity": "post_box", "collection_times": "Mo-Fr 17:00; Sa 15:30", "note": "ON 12/24 AND 12/31, THIS BOX MAY BE COLLECTED AS EARLY AS 12 NOON.", "nsi_id": "unitedstatespostalservice-a77078", "operator": "United States Postal Service", "operator:short": "USPS", "operator:type": "public", "operator:wikidata": "Q668687", "ref": "9395000027"}, "type": "Feature"}
{"geometry": {"coordinates": [-121.9203192219, 36.6223447075], "type": "Point"}, "id": "X9ewFYvoPaVDlO1kpS8cnWfrkoQ=", "properties": {"@source_uri": "https://tools.usps.com/UspsToolsRestServices/rest/POLocator/findLocations", "@spider": "usps_collection_boxes", "addr:city": "PACIFIC GROVE", "addr:country": "US", "addr:postcode": "93950", "addr:state": "CA", "addr:street_address": "680 LIGHTHOUSE AVE", "amenity": "post_box", "collection_times": "Mo-Fr 17:00; Sa 15:30", "note": "ON 12/24 AND 12/31, THIS BOX MAY BE COLLECTED AS EARLY AS 12 NOON.", "nsi_id": "unitedstatespostalservice-a77078", "operator": "United States Postal Service", "operator:short": "USPS", "operator:type": "public", "operator:wikidata": "Q668687", "ref": "9395000028"}, "type": "Feature"}
{"geometry": {"coordinates": [-121.9203192219, 36.6223447075], "type": "Point"}, "id": "Y24Y_rZV1Atmwu3NS1kLdS8O7NI=", "properties": {"@source_uri": "https://tools.usps.com/UspsToolsRestServices/rest/POLocator/findLocations", "@spider": "usps_collection_boxes", "addr:city": "PACIFIC GROVE", "addr:country": "US", "addr:postcode": "93950", "addr:state": "CA", "addr:street_address": "680 LIGHTHOUSE AVE", "amenity": "post_box", "collection_times": "Mo-Fr 17:00; Sa 15:30", "note": "ON 12/24 AND 12/31, THIS BOX MAY BE COLLECTED AS EARLY AS 12 NOON.", "nsi_id": "unitedstatespostalservice-a77078", "operator": "United States Postal Service", "operator:short": "USPS", "operator:type": "public", "operator:wikidata": "Q668687", "ref": "9395000029"}, "type": "Feature"}
{"geometry": {"coordinates": [-121.9203192219, 36.6223447075], "type": "Point"}, "id": "KT3GCZsH3vWX6GOmLntrU3FjXho=", "properties": {"@source_uri": "https://tools.usps.com/UspsToolsRestServices/rest/POLocator/findLocations", "@spider": "usps_collection_boxes", "addr:city": "PACIFIC GROVE", "addr:country": "US", "addr:postcode": "93950", "addr:state": "CA", "addr:street_address": "680 LIGHTHOUSE AVE", "amenity": "post_box", "collection_times": "Mo-Fr 17:00; Sa 15:30", "note": "ON 12/24 AND 12/31, THIS BOX MAY BE COLLECTED AS EARLY AS 12 NOON.", "nsi_id": "unitedstatespostalservice-a77078", "operator": "United States Postal Service", "operator:short": "USPS", "operator:type": "public", "operator:wikidata": "Q668687", "ref": "9395000030"}, "type": "Feature"}
{"geometry": {"coordinates": [-121.9203192219, 36.6223447075], "type": "Point"}, "id": "tZGSTpR-8gOV_XZgFrh2R-8nbvA=", "properties": {"@source_uri": "https://tools.usps.com/UspsToolsRestServices/rest/POLocator/findLocations", "@spider": "usps_collection_boxes", "addr:city": "PACIFIC GROVE", "addr:country": "US", "addr:postcode": "93950", "addr:state": "CA", "addr:street_address": "680 LIGHTHOUSE AVE", "amenity": "post_box", "collection_times": "Mo-Fr 16:30; Sa 13:00", "indoor": "yes", "note": "ON 12/24 AND 12/31, THIS BOX MAY BE COLLECTED AS EARLY AS 12 NOON.", "nsi_id": "unitedstatespostalservice-a77078", "operator": "United States Postal Service", "operator:short": "USPS", "operator:type": "public", "operator:wikidata": "Q668687", "ref": "9395000033"}, "type": "Feature"}
{"geometry": {"coordinates": [-121.9523416135, 36.5681081297], "type": "Point"}, "id": "T4-hSilhB3k_Dg_0fsk2b8G2o9Q=", "properties": {"@source_uri": "https://tools.usps.com/UspsToolsRestServices/rest/POLocator/findLocations", "@spider": "usps_collection_boxes", "addr:city": "PEBBLE BEACH", "addr:country": "US", "addr:postcode": "93953", "addr:state": "CA", "addr:street_address": "1491 CYPRESS DR", "amenity": "post_box", "collection_times": "Mo-Fr 17:00; Sa 15:30", "note": "ON 12/24 AND 12/31, THIS BOX MAY BE COLLECTED AS EARLY AS 12 NOON.", "nsi_id": "unitedstatespostalservice-a77078", "operator": "United States Postal Service", "operator:short": "USPS", "operator:type": "public", "operator:wikidata": "Q668687", "ref": "9395300001"}, "type": "Feature"}
{"geometry": {"coordinates": [-121.9523416135, 36.5681081297], "type": "Point"}, "id": "WeRsfGho9Q-fgpzaVOOgRGs8huo=", "properties": {"@source_uri": "https://tools.usps.com/UspsToolsRestServices/rest/POLocator/findLocations", "@spider": "usps_collection_boxes", "addr:city": "PEBBLE BEACH", "addr:country": "US", "addr:postcode": "93953", "addr:state": "CA", "addr:street_address": "1491 CYPRESS DR", "amenity": "post_box", "collection_times": "Mo-Fr 16:30", "indoor": "yes", "note": "ON 12/24 AND 12/31, THIS BOX MAY BE COLLECTED AS EARLY AS 12 NOON.", "nsi_id": "unitedstatespostalservice-a77078", "operator": "United States Postal Service", "operator:short": "USPS", "operator:type": "public", "operator:wikidata": "Q668687", "ref": "9395300005"}, "type": "Feature"}
{"geometry": {"coordinates": [-121.0184146841, 36.1286330269], "type": "Point"}, "id": "ei4G1uPubGBAE6ppNHuCsyABS-U=", "properties": {"@source_uri": "https://tools.usps.com/UspsToolsRestServices/rest/POLocator/findLocations", "@spider": "usps_collection_boxes", "addr:city": "SAN LUCAS", "addr:country": "US", "addr:postcode": "93954", "addr:state": "CA", "addr:street_address": "53575 MAIN ST", "amenity": "post_box", "collection_times": "Mo-Fr 15:15; Sa 10:00", "note": "ON 12/24 AND 12/31, THIS BOX MAY BE COLLECTED AS EARLY AS 12 NOON.", "nsi_id": "unitedstatespostalservice-a77078", "operator": "United States Postal Service", "operator:short": "USPS", "operator:type": "public", "operator:wikidata": "Q668687", "ref": "9395400000"}, "type": "Feature"}
{"geometry": {"coordinates": [-121.0184146841, 36.1286330269], "type": "Point"}, "id": "93L6y5lDvW7ETa53xJnoBF2mVjw=", "properties": {"@source_uri": "https://tools.usps.com/UspsToolsRestServices/rest/POLocator/findLocations", "@spider": "usps_collection_boxes", "addr:city": "SAN LUCAS", "addr:country": "US", "addr:postcode": "93954", "addr:state": "CA", "addr:street_address": "53575 MAIN ST", "amenity": "post_box", "collection_times": "Mo-Fr 14:00", "indoor": "yes", "note": "ON 12/24 AND 12/31, THIS BOX MAY BE COLLECTED AS EARLY AS 12 NOON.", "nsi_id": "unitedstatespostalservice-a77078", "operator": "United States Postal Service", "operator:short": "USPS", "operator:type": "public", "operator:wikidata": "Q668687", "ref": "9395400002"}, "type": "Feature"}
{"geometry": {"coordinates": [-121.8430013946, 36.6091942368], "type": "Point"}, "id": "7QYhDwGrkuUDcj4qtRbq03CqT3w=", "properties": {"@source_uri": "https://tools.usps.com/UspsToolsRestServices/rest/POLocator/findLocations", "@spider": "usps_collection_boxes", "addr:city": "SEASIDE", "addr:country": "US", "addr:postcode": "93955", "addr:state": "CA", "addr:street_address": "1093 BROADWAY AVE", "amenity": "post_box", "collection_times": "Mo-Fr 17:00; Sa 16:30", "note": "ON 12/24 AND 12/31, THIS BOX MAY BE COLLECTED AS EARLY AS 12 NOON.", "nsi_id": "unitedstatespostalservice-a77078", "operator": "United States Postal Service", "operator:short": "USPS", "operator:type": "public", "operator:wikidata": "Q668687", "ref": "9395500000"}, "type": "Feature"}
{"geometry": {"coordinates": [-121.8430013946, 36.6091942368], "type": "Point"}, "id": "kJU3pVL-yVh9j8E8WdIOjQqLMDQ=", "properties": {"@source_uri": "https://tools.usps.com/UspsToolsRestServices/rest/POLocator/findLocations", "@spider": "usps_collection_boxes", "addr:city": "SEASIDE", "addr:country": "US", "addr:postcode": "93955", "addr:state": "CA", "addr:street_address": "1093 BROADWAY AVE", "amenity": "post_box", "collection_times": "Mo-Fr 17:00; Sa 16:30", "note": "ON 12/24 AND 12/31, THIS BOX MAY BE COLLECTED AS EARLY AS 12 NOON.", "nsi_id": "unitedstatespostalservice-a77078", "operator": "United States Postal Service", "operator:short": "USPS", "operator:type": "public", "operator:wikidata": "Q668687", "ref": "9395500001"}, "type": "Feature"}
{"geometry": {"coordinates": [-121.853211, 36.603509], "type": "Point"}, "id": "cip76LnFU4sLtoC3YD3ynmjA1Q8=", "properties": {"@source_uri": "https://tools.usps.com/UspsToolsRestServices/rest/POLocator/findLocations", "@spider": "usps_collection_boxes", "addr:city": "SEASIDE", "addr:country": "US", "addr:postcode": "93955", "addr:state": "CA", "addr:street_address": "440 HARCOURT AVE", "amenity": "post_box", "collection_times": "Mo-Fr 12:00", "nsi_id": "unitedstatespostalservice-a77078", "operator": "United States Postal Service", "operator:short": "USPS", "operator:type": "public", "operator:wikidata": "Q668687", "ref": "9395500008"}, "type": "Feature"}
{"geometry": {"coordinates": [-121.847797037, 36.6027950107], "type": "Point"}, "id": "du-Gu2hNsSnl3I2Y2vB8dBG4QnQ=", "properties": {"@source_uri": "https://tools.usps.com/UspsToolsRestServices/rest/POLocator/findLocations", "@spider": "usps_collection_boxes", "addr:city": "SEASIDE", "addr:country": "US", "addr:postcode": "93955", "addr:state": "CA", "addr:street_address": "915 HILBY AVE", "amenity": "post_box", "collection_times": "Mo-Fr 12:00", "nsi_id": "unitedstatespostalservice-a77078", "operator": "United States Postal Service", "operator:short": "USPS", "operator:type": "public", "operator:wikidata": "Q668687", "ref": "9395500009"}, "type": "Feature"}
{"geometry": {"coordinates": [-121.837436, 36.614779], "type": "Point"}, "id": "7zlb3FIj4iYf4duZMLMdbaCVCOM=", "properties": {"@source_uri": "https://tools.usps.com/UspsToolsRestServices/rest/POLocator/findLocations", "@spider": "usps_collection_boxes", "addr:city": "SEASIDE", "addr:country": "US", "addr:postcode": "93955", "addr:state": "CA", "addr:street_address": "1800 NOCHE BUENA ST", "amenity": "post_box", "collection_times": "Mo-Sa 12:00", "nsi_id": "unitedstatespostalservice-a77078", "operator": "United States Postal Service", "operator:short": "USPS", "operator:type": "public", "operator:wikidata": "Q668687", "ref": "9395500012"}, "type": "Feature"}
{"geometry": {"coordinates": [-121.844988, 36.617738], "type": "Point"}, "id": "K2syntOJiKZnEsxqQ5u8BY1rP6o=", "properties": {"@source_uri": "https://tools.usps.com/UspsToolsRestServices/rest/POLocator/findLocations", "@spider": "usps_collection_boxes", "addr:city": "SEASIDE", "addr:country": "US", "addr:postcode": "93955", "addr:state": "CA", "addr:street_address": "801 TIOGA AVE", "amenity": "post_box", "collection_times": "Mo-Fr 12:00", "nsi_id": "unitedstatespostalservice-a77078", "operator": "United States Postal Service", "operator:short": "USPS", "operator:type": "public", "operator:wikidata": "Q668687", "ref": "9395500017"}, "type": "Feature"}
{"geometry": {"coordinates": [-121.843148, 36.613634], "type": "Point"}, "id": "i-sSovFiG7tBCab3nCv7v5VR7Us=", "properties": {"@source_uri": "https://tools.usps.com/UspsToolsRestServices/rest/POLocator/findLocations", "@spider": "usps_collection_boxes", "addr:city": "SEASIDE", "addr:country": "US", "addr:postcode": "93955", "addr:state": "CA", "addr:street_address": "1760 FREMONT BLVD", "amenity": "post_box", "collection_times": "Mo-Fr 12:00", "nsi_id": "unitedstatespostalservice-a77078", "operator": "United States Postal Service", "operator:short": "USPS", "operator:type": "public", "operator:wikidata": "Q668687", "ref": "9395500025"}, "type": "Feature"}
{"geometry": {"coordinates": [-121.8430013946, 36.6091942368], "type": "Point"}, "id": "eSjWbquRnZyEhYcQ_vCeFA19Zcs=", "properties": {"@source_uri": "https://tools.usps.com/UspsToolsRestServices/rest/POLocator/findLocations", "@spider": "usps_collection_boxes", "addr:city": "SEASIDE", "addr:country": "US", "addr:postcode": "93955", "addr:state": "CA", "addr:street_address": "1093 BROADWAY AVE", "amenity": "post_box", "collection_times": "Mo-Fr 17:00; Sa 16:30", "note": "ON 12/24 AND 12/31, THIS BOX MAY BE COLLECTED AS EARLY AS 12 NOON.", "nsi_id": "unitedstatespostalservice-a77078", "operator": "United States Postal Service", "operator:short": "USPS", "operator:type": "public", "operator:wikidata": "Q668687", "ref": "9395500026"}, "type": "Feature"}
{"geometry": {"coordinates": [-121.8430013946, 36.6091942368], "type": "Point"}, "id": "7hAYfHR6wdb7VutMVYC1FXozotY=", "properties": {"@source_uri": "https://tools.usps.com/UspsToolsRestServices/rest/POLocator/findLocations", "@spider": "usps_collection_boxes", "addr:city": "SEASIDE", "addr:country": "US", "addr:postcode": "93955", "addr:state": "CA", "addr:street_address": "1093 BROADWAY AVE", "amenity": "post_box", "collection_times": "Mo-Fr 17:00; Sa 12:00", "indoor": "yes", "note": "ON 12/24 AND 12/31, THIS BOX MAY BE COLLECTED AS EARLY AS 12 NOON.", "nsi_id": "unitedstatespostalservice-a77078", "operator": "United States Postal Service", "operator:short": "USPS", "operator:type": "public", "operator:wikidata": "Q668687", "ref": "9395500030"}, "type": "Feature"}
{"geometry": {"coordinates": [-121.3265969002, 36.426042959], "type": "Point"}, "id": "m0IVpVWWUuK8PPgzmSnGHk9C9LU=", "properties": {"@source_uri": "https://tools.usps.com/UspsToolsRestServices/rest/POLocator/findLocations", "@spider": "usps_collection_boxes", "addr:city": "SOLEDAD", "addr:country": "US", "addr:postcode": "93960", "addr:state": "CA", "addr:street_address": "150 KIDDER ST", "amenity": "post_box", "collection_times": "Mo-Fr 17:00; Sa 15:00", "note": "ON 12/24 AND 12/31, THIS BOX MAY BE COLLECTED AS EARLY AS 12 NOON.", "nsi_id": "unitedstatespostalservice-a77078", "operator": "United States Postal Service", "operator:short": "USPS", "operator:type": "public", "operator:wikidata": "Q668687", "ref": "9396000005"}, "type": "Feature"}
{"geometry": {"coordinates": [-121.3265969002, 36.426042959], "type": "Point"}, "id": "vCRCXJ_xqFXCMeOry79Nw-KY60U=", "properties": {"@source_uri": "https://tools.usps.com/UspsToolsRestServices/rest/POLocator/findLocations", "@spider": "usps_collection_boxes", "addr:city": "SOLEDAD", "addr:country": "US", "addr:postcode": "93960", "addr:state": "CA", "addr:street_address": "150 KIDDER ST", "amenity": "post_box", "collection_times": "Mo-Fr 16:30", "indoor": "yes", "note": "ON 12/24 AND 12/31, THIS BOX MAY BE COLLECTED AS EARLY AS 12 NOON.", "nsi_id": "unitedstatespostalservice-a77078", "operator": "United States Postal Service", "operator:short": "USPS", "operator:type": "public", "operator:wikidata": "Q668687", "ref": "9396000009"}, "type": "Feature"}
