{"dataset_attributes": {"@spider": "usps_collection_boxes", "spider:collection_time": "2023-12-22T08:24:39.252337"}, "geometry": {"coordinates": [-122.160678, 37.44723], "type": "Point"}, "id": "6_Nt0jSvdh8Q9Iym7pHJ6MG9YmU=", "properties": {"@spider": "usps_collection_boxes", "addr:city": "PALO ALTO", "addr:country": "US", "addr:full": "460 WAVERLEY ST", "addr:postcode": "94301", "addr:state": "CA", "amenity": "post_box", "brand": "United States Postal Service", "brand:wikidata": "Q668687", "collection_times": "Mo-Sa 14:30", "name": "USPS COLLECTION BOX - BLUE BOX", "note": "ON 12/24 AND 12/31, THIS BOX MAY BE COLLECTED AS EARLY AS 12 NOON.", "nsi_id": "unitedstatespostalservice-a77078", "operator": "United States Postal Service", "operator:short": "USPS", "operator:type": "public", "operator:wikidata": "Q668687", "ref": "9430100002"}, "type": "Feature"}
{"dataset_attributes": {"@spider": "usps_collection_boxes", "spider:collection_time": "2023-12-22T08:24:39.252337"}, "geometry": {"coordinates": [-122.152003, 37.455452], "type": "Point"}, "id": "2KDNKVFg6agkBseHD1_qCC8ScXE=", "properties": {"@spider": "usps_collection_boxes", "addr:city": "PALO ALTO", "addr:country": "US", "addr:full": "1068 UNIVERSITY AVE", "addr:postcode": "94301", "addr:state": "CA", "amenity": "post_box", "brand": "United States Postal Service", "brand:wikidata": "Q668687", "collection_times": "Mo-Sa 12:30", "name": "USPS COLLECTION BOX - BLUE BOX", "note": "ON 12/24 AND 12/31, THIS BOX MAY BE COLLECTED AS EARLY AS 12 NOON.", "nsi_id": "unitedstatespostalservice-a77078", "operator": "United States Postal Service", "operator:short": "USPS", "operator:type": "public", "operator:wikidata": "Q668687", "ref": "9430100004"}, "type": "Feature"}
{"dataset_attributes": {"@spider": "usps_collection_boxes", "spider:collection_time": "2023-12-22T08:24:39.252337"}, "geometry": {"coordinates": [-122.138629, 37.430492], "type": "Point"}, "id": "wqqxRAdQkPFeVq_tRMghblThFmY=", "properties": {"@spider": "usps_collection_boxes", "addr:city": "PALO ALTO", "addr:country": "US", "addr:full": "2399 RAMONA ST", "addr:postcode": "94301", "addr:state": "CA", "amenity": "post_box", "brand": "United States Postal Service", "brand:wikidata": "Q668687", "collection_times": "Mo-Sa 12:45", "name": "USPS COLLECTION BOX - BLUE BOX", "note": "ON 12/24 AND 12/31, THIS BOX MAY BE COLLECTED AS EARLY AS 12 NOON.", "nsi_id": "unitedstatespostalservice-a77078", "operator": "United States Postal Service", "operator:short": "USPS", "operator:type": "public", "operator:wikidata": "Q668687", "ref": "9430100006"}, "type": "Feature"}
{"dataset_attributes": {"@spider": "usps_collection_boxes", "spider:collection_time": "2023-12-22T08:24:39.252337"}, "geometry": {"coordinates": [-122.137024, 37.438152], "type": "Point"}, "id": "hBsn69Gt4fuIIQQNWs2Btejj5o4=", "properties": {"@spider": "usps_collection_boxes", "addr:city": "PALO ALTO", "addr:country": "US", "addr:full": "2100 MIDDLEFIELD RD", "addr:postcode": "94301", "addr:state": "CA", "amenity": "post_box", "brand": "United States Postal Service", "brand:wikidata": "Q668687", "collection_times": "Mo-Sa 12:45", "name": "USPS COLLECTION BOX - BLUE BOX", "note": "ON 12/24 AND 12/31, THIS BOX MAY BE COLLECTED AS EARLY AS 12 NOON.", "nsi_id": "unitedstatespostalservice-a77078", "operator": "United States Postal Service", "operator:short": "USPS", "operator:type": "public", "operator:wikidata": "Q668687", "ref": "9430100007"}, "type": "Feature"}
{"dataset_attributes": {"@spider": "usps_collection_boxes", "spider:collection_time": "2023-12-22T08:24:39.252337"}, "geometry": {"coordinates": [-122.165434, 37.443512], "type": "Point"}, "id": "u4DYjEkv0fb5F8pPYqWMRousje8=", "properties": {"@spider": "usps_collection_boxes", "addr:city": "PALO ALTO", "addr:country": "US", "addr:full": "95 UNIVERSITY AVE", "addr:postcode": "94301", "addr:state": "CA", "amenity": "post_box", "brand": "United States Postal Service", "brand:wikidata": "Q668687", "collection_times": "Mo-Sa 12:30", "name": "USPS COLLECTION BOX - BLUE BOX", "note": "ON 12/24 AND 12/31, THIS BOX MAY BE COLLECTED AS EARLY AS 12 NOON.", "nsi_id": "unitedstatespostalservice-a77078", "operator": "United States Postal Service", "operator:short": "USPS", "operator:type": "public", "operator:wikidata": "Q668687", "ref": "9430100009"}, "type": "Feature"}
{"dataset_attributes": {"@spider": "usps_collection_boxes", "spider:collection_time": "2023-12-22T08:24:39.252337"}, "geometry": {"coordinates": [-122.157253, 37.447034], "type": "Point"}, "id": "pn6KLAuB6WzdXCJL7NbWXNGXcLo=", "properties": {"@spider": "usps_collection_boxes", "addr:city": "PALO ALTO", "addr:country": "US", "addr:full": "630 COWPER ST", "addr:postcode": "94301", "addr:state": "CA", "amenity": "post_box", "brand": "United States Postal Service", "brand:wikidata": "Q668687", "collection_times": "Mo-Sa 12:30", "name": "USPS COLLECTION BOX - BLUE BOX", "note": "ON 12/24 AND 12/31, THIS BOX MAY BE COLLECTED AS EARLY AS 12 NOON.", "nsi_id": "unitedstatespostalservice-a77078", "operator": "United States Postal Service", "operator:short": "USPS", "operator:type": "public", "operator:wikidata": "Q668687", "ref": "9430100012"}, "type": "Feature"}
{"dataset_attributes": {"@spider": "usps_collection_boxes", "spider:collection_time": "2023-12-22T08:24:39.252337"}, "geometry": {"coordinates": [-122.157992, 37.443536], "type": "Point"}, "id": "GhF944ONJN85UqEedXYj4ETz54U=", "properties": {"@spider": "usps_collection_boxes", "addr:city": "PALO ALTO", "addr:country": "US", "addr:full": "271 HOMER AVE", "addr:postcode": "94301", "addr:state": "CA", "amenity": "post_box", "brand": "United States Postal Service", "brand:wikidata": "Q668687", "collection_times": "Mo-Fr 11:00; Sa 12:30", "name": "USPS COLLECTION BOX - BLUE BOX", "note": "ON 12/24 AND 12/31, THIS BOX MAY BE COLLECTED AS EARLY AS 12 NOON.", "nsi_id": "unitedstatespostalservice-a77078", "operator": "United States Postal Service", "operator:short": "USPS", "operator:type": "public", "operator:wikidata": "Q668687", "ref": "9430100016"}, "type": "Feature"}
{"dataset_attributes": {"@spider": "usps_collection_boxes", "spider:collection_time": "2023-12-22T08:24:39.252337"}, "geometry": {"coordinates": [-122.147886, 37.43718], "type": "Point"}, "id": "Tm15Rr2rPCDZN8DfUP-wP-oQQfg=", "properties": {"@spider": "usps_collection_boxes", "addr:city": "PALO ALTO", "addr:country": "US", "addr:full": "1600 BRYANT ST", "addr:postcode": "94301", "addr:state": "CA", "amenity": "post_box", "brand": "United States Postal Service", "brand:wikidata": "Q668687", "collection_times": "Mo-Sa 13:00", "name": "USPS COLLECTION BOX - BLUE BOX", "note": "ON 12/24 AND 12/31, THIS BOX MAY BE COLLECTED AS EARLY AS 12 NOON.", "nsi_id": "unitedstatespostalservice-a77078", "operator": "United States Postal Service", "operator:short": "USPS", "operator:type": "public", "operator:wikidata": "Q668687", "ref": "9430100019"}, "type": "Feature"}
{"dataset_attributes": {"@spider": "usps_collection_boxes", "spider:collection_time": "2023-12-22T08:24:39.252337"}, "geometry": {"coordinates": [-122.163649, 37.441218], "type": "Point"}, "id": "0yBZOOqHUPqSC5pDss1ThlpBMOQ=", "properties": {"@spider": "usps_collection_boxes", "addr:city": "PALO ALTO", "addr:country": "US", "addr:full": "625 EL CAMINO REAL", "addr:postcode": "94301", "addr:state": "CA", "amenity": "post_box", "brand": "United States Postal Service", "brand:wikidata": "Q668687", "collection_times": "Mo-Sa 12:30", "name": "USPS COLLECTION BOX - BLUE BOX", "note": "ON 12/24 AND 12/31, THIS BOX MAY BE COLLECTED AS EARLY AS 12 NOON.", "nsi_id": "unitedstatespostalservice-a77078", "operator": "United States Postal Service", "operator:short": "USPS", "operator:type": "public", "operator:wikidata": "Q668687", "ref": "9430100020"}, "type": "Feature"}
{"dataset_attributes": {"@spider": "usps_collection_boxes", "spider:collection_time": "2023-12-22T08:24:39.252337"}, "geometry": {"coordinates": [-122.151783, 37.453644], "type": "Point"}, "id": "N5_IWFcWsSeNF4RtXxXgHkpsGyo=", "properties": {"@spider": "usps_collection_boxes", "addr:city": "PALO ALTO", "addr:country": "US", "addr:full": "1002 HAMILTON AVE", "addr:postcode": "94301", "addr:state": "CA", "amenity": "post_box", "brand": "United States Postal Service", "brand:wikidata": "Q668687", "collection_times": "Mo-Sa 15:15", "name": "USPS COLLECTION BOX - BLUE BOX", "note": "ON 12/24 AND 12/31, THIS BOX MAY BE COLLECTED AS EARLY AS 12 NOON.", "nsi_id": "unitedstatespostalservice-a77078", "operator": "United States Postal Service", "operator:short": "USPS", "operator:type": "public", "operator:wikidata": "Q668687", "ref": "9430100022"}, "type": "Feature"}
{"dataset_attributes": {"@spider": "usps_collection_boxes", "spider:collection_time": "2023-12-22T08:24:39.252337"}, "geometry": {"coordinates": [-122.143019, 37.436241], "type": "Point"}, "id": "n11wTFLPC6qcNEi3ymAapkdYVbI=", "properties": {"@spider": "usps_collection_boxes", "addr:city": "PALO ALTO", "addr:country": "US", "addr:full": "401 SEALE AVE", "addr:postcode": "94301", "addr:state": "CA", "amenity": "post_box", "brand": "United States Postal Service", "brand:wikidata": "Q668687", "collection_times": "Mo-Sa 12:45", "name": "USPS COLLECTION BOX - BLUE BOX", "note": "ON 12/24 AND 12/31, THIS BOX MAY BE COLLECTED AS EARLY AS 12 NOON.", "nsi_id": "unitedstatespostalservice-a77078", "operator": "United States Postal Service", "operator:short": "USPS", "operator:type": "public", "operator:wikidata": "Q668687", "ref": "9430100024"}, "type": "Feature"}
{"dataset_attributes": {"@spider": "usps_collection_boxes", "spider:collection_time": "2023-12-22T08:24:39.252337"}, "geometry": {"coordinates": [-122.154146, 37.447178], "type": "Point"}, "id": "U9uxVJAR9J05fuUl3sqSlzCxmec=", "properties": {"@spider": "usps_collection_boxes", "addr:city": "PALO ALTO", "addr:country": "US", "addr:full": "600 HOMER AVE", "addr:postcode": "94301", "addr:state": "CA", "amenity": "post_box", "brand": "United States Postal Service", "brand:wikidata": "Q668687", "collection_times": "Mo-Sa 12:30", "name": "USPS COLLECTION BOX - BLUE BOX", "note": "ON 12/24 AND 12/31, THIS BOX MAY BE COLLECTED AS EARLY AS 12 NOON.", "nsi_id": "unitedstatespostalservice-a77078", "operator": "United States Postal Service", "operator:short": "USPS", "operator:type": "public", "operator:wikidata": "Q668687", "ref": "9430100025"}, "type": "Feature"}
{"dataset_attributes": {"@spider": "usps_collection_boxes", "spider:collection_time": "2023-12-22T08:24:39.252337"}, "geometry": {"coordinates": [-122.153134, 37.450253], "type": "Point"}, "id": "WKfsqkhhmFqzH00N_q5EFkVyRxU=", "properties": {"@spider": "usps_collection_boxes", "addr:city": "PALO ALTO", "addr:country": "US", "addr:full": "788 FOREST AVE", "addr:postcode": "94301", "addr:state": "CA", "amenity": "post_box", "brand": "United States Postal Service", "brand:wikidata": "Q668687", "collection_times": "Mo-Sa 12:30", "name": "USPS COLLECTION BOX - BLUE BOX", "note": "ON 12/24 AND 12/31, THIS BOX MAY BE COLLECTED AS EARLY AS 12 NOON.", "nsi_id": "unitedstatespostalservice-a77078", "operator": "United States Postal Service", "operator:short": "USPS", "operator:type": "public", "operator:wikidata": "Q668687", "ref": "9430100026"}, "type": "Feature"}
{"dataset_attributes": {"@spider": "usps_collection_boxes", "spider:collection_time": "2023-12-22T08:24:39.252337"}, "geometry": {"coordinates": [-122.161735, 37.449806], "type": "Point"}, "id": "iMMIj3cAk86su0zRNTcPNNEAl6c=", "properties": {"@spider": "usps_collection_boxes", "addr:city": "PALO ALTO", "addr:country": "US", "addr:full": "482 EVERETT AVE", "addr:postcode": "94301", "addr:state": "CA", "amenity": "post_box", "brand": "United States Postal Service", "brand:wikidata": "Q668687", "collection_times": "Mo-Sa 14:00", "name": "USPS COLLECTION BOX - BLUE BOX", "note": "ON 12/24 AND 12/31, THIS BOX MAY BE COLLECTED AS EARLY AS 12 NOON.", "nsi_id": "unitedstatespostalservice-a77078", "operator": "United States Postal Service", "operator:short": "USPS", "operator:type": "public", "operator:wikidata": "Q668687", "ref": "9430100029"}, "type": "Feature"}
{"dataset_attributes": {"@spider": "usps_collection_boxes", "spider:collection_time": "2023-12-22T08:24:39.252337"}, "geometry": {"coordinates": [-122.156689, 37.448623], "type": "Point"}, "id": "irHwLepIvTfiTS6x9IdDoxPXwpg=", "properties": {"@spider": "usps_collection_boxes", "addr:city": "PALO ALTO", "addr:country": "US", "addr:full": "600 WEBSTER ST", "addr:postcode": "94301", "addr:state": "CA", "amenity": "post_box", "brand": "United States Postal Service", "brand:wikidata": "Q668687", "collection_times": "Mo-Fr 14:00; Sa 12:30", "name": "USPS COLLECTION BOX - BLUE BOX", "note": "ON 12/24 AND 12/31, THIS BOX MAY BE COLLECTED AS EARLY AS 12 NOON.", "nsi_id": "unitedstatespostalservice-a77078", "operator": "United States Postal Service", "operator:short": "USPS", "operator:type": "public", "operator:wikidata": "Q668687", "ref": "9430100032"}, "type": "Feature"}
{"dataset_attributes": {"@spider": "usps_collection_boxes", "spider:collection_time": "2023-12-22T08:24:39.252337"}, "geometry": {"coordinates": [-122.159636, 37.445815], "type": "Point"}, "id": "3KEIgpHOyA9CkrSPWUwxlfSngX0=", "properties": {"@spider": "usps_collection_boxes", "addr:city": "PALO ALTO", "addr:country": "US", "addr:full": "380 HAMILTON AVE", "addr:postcode": "94301", "addr:state": "CA", "amenity": "post_box", "brand": "United States Postal Service", "brand:wikidata": "Q668687", "collection_times": "Mo-Sa 17:00", "name": "USPS COLLECTION BOX - BLUE BOX", "note": "ON 12/24 AND 12/31, THIS BOX MAY BE COLLECTED AS EARLY AS 12 NOON.", "nsi_id": "unitedstatespostalservice-a77078", "operator": "United States Postal Service", "operator:short": "USPS", "operator:type": "public", "operator:wikidata": "Q668687", "ref": "9430100033"}, "type": "Feature"}
{"dataset_attributes": {"@spider": "usps_collection_boxes", "spider:collection_time": "2023-12-22T08:24:39.252337"}, "geometry": {"coordinates": [-122.163779, 37.444395], "type": "Point"}, "id": "zkiyDjaI3vLbHfAMyByKdsGvQV4=", "properties": {"@spider": "usps_collection_boxes", "addr:city": "PALO ALTO", "addr:country": "US", "addr:full": "461 HIGH ST", "addr:postcode": "94301", "addr:state": "CA", "amenity": "post_box", "brand": "United States Postal Service", "brand:wikidata": "Q668687", "collection_times": "Mo-Sa 14:30", "name": "USPS COLLECTION BOX - BLUE BOX", "note": "ON 12/24 AND 12/31, THIS BOX MAY BE COLLECTED AS EARLY AS 12 NOON.", "nsi_id": "unitedstatespostalservice-a77078", "operator": "United States Postal Service", "operator:short": "USPS", "operator:type": "public", "operator:wikidata": "Q668687", "ref": "9430100034"}, "type": "Feature"}
{"dataset_attributes": {"@spider": "usps_collection_boxes", "spider:collection_time": "2023-12-22T08:24:39.252337"}, "geometry": {"coordinates": [-122.155803, 37.452], "type": "Point"}, "id": "GxYFc_pbSWzt3JjA7kDbJZjoJE8=", "properties": {"@spider": "usps_collection_boxes", "addr:city": "PALO ALTO", "addr:country": "US", "addr:full": "450 GUINDA ST", "addr:postcode": "94301", "addr:state": "CA", "amenity": "post_box", "brand": "United States Postal Service", "brand:wikidata": "Q668687", "collection_times": "Mo-Sa 12:30", "name": "USPS COLLECTION BOX - BLUE BOX", "note": "ON 12/24 AND 12/31, THIS BOX MAY BE COLLECTED AS EARLY AS 12 NOON.", "nsi_id": "unitedstatespostalservice-a77078", "operator": "United States Postal Service", "operator:short": "USPS", "operator:type": "public", "operator:wikidata": "Q668687", "ref": "9430100035"}, "type": "Feature"}
{"dataset_attributes": {"@spider": "usps_collection_boxes", "spider:collection_time": "2023-12-22T08:24:39.252337"}, "geometry": {"coordinates": [-122.135774, 37.43334], "type": "Point"}, "id": "md7_A52MvHuK8L2q2MDIKzdZWYk=", "properties": {"@spider": "usps_collection_boxes", "addr:city": "PALO ALTO", "addr:country": "US", "addr:full": "465 OREGON AVE", "addr:postcode": "94301", "addr:state": "CA", "amenity": "post_box", "brand": "United States Postal Service", "brand:wikidata": "Q668687", "collection_times": "Mo-Sa 12:45", "name": "USPS COLLECTION BOX - BLUE BOX", "note": "ON 12/24 AND 12/31, THIS BOX MAY BE COLLECTED AS EARLY AS 12 NOON.", "nsi_id": "unitedstatespostalservice-a77078", "operator": "United States Postal Service", "operator:short": "USPS", "operator:type": "public", "operator:wikidata": "Q668687", "ref": "9430100037"}, "type": "Feature"}
{"dataset_attributes": {"@spider": "usps_collection_boxes", "spider:collection_time": "2023-12-22T08:24:39.252337"}, "geometry": {"coordinates": [-122.159345, 37.446063], "type": "Point"}, "id": "0Ydmkbl-oga7-uxcOmYqxHbHE5A=", "properties": {"@spider": "usps_collection_boxes", "addr:city": "PALO ALTO", "addr:country": "US", "addr:full": "380 HAMILTON AVE", "addr:postcode": "94301", "addr:state": "CA", "amenity": "post_box", "brand": "United States Postal Service", "brand:wikidata": "Q668687", "collection_times": "Mo-Sa 17:00", "name": "USPS COLLECTION BOX - BLUE BOX", "note": "ON 12/24 AND 12/31, THIS BOX MAY BE COLLECTED AS EARLY AS 12 NOON.", "nsi_id": "unitedstatespostalservice-a77078", "operator": "United States Postal Service", "operator:short": "USPS", "operator:type": "public", "operator:wikidata": "Q668687", "ref": "9430100040"}, "type": "Feature"}
{"dataset_attributes": {"@spider": "usps_collection_boxes", "spider:collection_time": "2023-12-22T08:24:39.252337"}, "geometry": {"coordinates": [-122.164169, 37.449394], "type": "Point"}, "id": "DEYCjYGwwF6tSQ2iIzqAvo2b7BY=", "properties": {"@spider": "usps_collection_boxes", "addr:city": "PALO ALTO", "addr:country": "US", "addr:full": "204 WAVERLEY ST", "addr:postcode": "94301", "addr:state": "CA", "amenity": "post_box", "brand": "United States Postal Service", "brand:wikidata": "Q668687", "collection_times": "Mo-Sa 14:00", "name": "USPS COLLECTION BOX - BLUE BOX", "note": "ON 12/24 AND 12/31, THIS BOX MAY BE COLLECTED AS EARLY AS 12 NOON.", "nsi_id": "unitedstatespostalservice-a77078", "operator": "United States Postal Service", "operator:short": "USPS", "operator:type": "public", "operator:wikidata": "Q668687", "ref": "9430100043"}, "type": "Feature"}
{"dataset_attributes": {"@spider": "usps_collection_boxes", "spider:collection_time": "2023-12-22T08:24:39.252337"}, "geometry": {"coordinates": [-122.142913, 37.432277], "type": "Point"}, "id": "qexn4sxpPVr5cHuik4N2DXGGJn8=", "properties": {"@spider": "usps_collection_boxes", "addr:city": "PALO ALTO", "addr:country": "US", "addr:full": "215 SANTA RITA AVE", "addr:postcode": "94301", "addr:state": "CA", "amenity": "post_box", "brand": "United States Postal Service", "brand:wikidata": "Q668687", "collection_times": "Mo-Sa 12:45", "name": "USPS COLLECTION BOX - BLUE BOX", "note": "ON 12/24 AND 12/31, THIS BOX MAY BE COLLECTED AS EARLY AS 12 NOON.", "nsi_id": "unitedstatespostalservice-a77078", "operator": "United States Postal Service", "operator:short": "USPS", "operator:type": "public", "operator:wikidata": "Q668687", "ref": "9430100044"}, "type": "Feature"}
{"dataset_attributes": {"@spider": "usps_collection_boxes", "spider:collection_time": "2023-12-22T08:24:39.252337"}, "geometry": {"coordinates": [-122.159626, 37.445835], "type": "Point"}, "id": "LuJ0QO5qxpodae_O8NJ72CWA7cc=", "properties": {"@spider": "usps_collection_boxes", "addr:city": "PALO ALTO", "addr:country": "US", "addr:full": "380 HAMILTON AVE", "addr:postcode": "94301", "addr:state": "CA", "amenity": "post_box", "brand": "United States Postal Service", "brand:wikidata": "Q668687", "collection_times": "Mo-Sa 17:00", "name": "USPS COLLECTION BOX - BLUE BOX", "note": "ON 12/24 AND 12/31, THIS BOX MAY BE COLLECTED AS EARLY AS 12 NOON.", "nsi_id": "unitedstatespostalservice-a77078", "operator": "United States Postal Service", "operator:short": "USPS", "operator:type": "public", "operator:wikidata": "Q668687", "ref": "9430100046"}, "type": "Feature"}
{"dataset_attributes": {"@spider": "usps_collection_boxes", "spider:collection_time": "2023-12-22T08:24:39.252337"}, "geometry": {"coordinates": [-122.146461, 37.446087], "type": "Point"}, "id": "S3Koh-5s2TGZ2z4HPD59ZgNz35Q=", "properties": {"@spider": "usps_collection_boxes", "addr:city": "PALO ALTO", "addr:country": "US", "addr:full": "787 MELVILLE AVE", "addr:postcode": "94301", "addr:state": "CA", "amenity": "post_box", "brand": "United States Postal Service", "brand:wikidata": "Q668687", "collection_times": "Mo-Sa 12:30", "name": "USPS COLLECTION BOX - BLUE BOX", "note": "ON 12/24 AND 12/31, THIS BOX MAY BE COLLECTED AS EARLY AS 12 NOON.", "nsi_id": "unitedstatespostalservice-a77078", "operator": "United States Postal Service", "operator:short": "USPS", "operator:type": "public", "operator:wikidata": "Q668687", "ref": "9430100051"}, "type": "Feature"}
{"dataset_attributes": {"@spider": "usps_collection_boxes", "spider:collection_time": "2023-12-22T08:24:39.252337"}, "geometry": {"coordinates": [-122.16165, 37.45189], "type": "Point"}, "id": "KuMoMokzx5KM6u25tREOuBa0EsU=", "properties": {"@spider": "usps_collection_boxes", "addr:city": "PALO ALTO", "addr:country": "US", "addr:full": "201 WEBSTER ST", "addr:postcode": "94301", "addr:state": "CA", "amenity": "post_box", "brand": "United States Postal Service", "brand:wikidata": "Q668687", "collection_times": "Mo-Sa 14:00", "name": "USPS COLLECTION BOX - BLUE BOX", "note": "ON 12/24 AND 12/31, THIS BOX MAY BE COLLECTED AS EARLY AS 12 NOON.", "nsi_id": "unitedstatespostalservice-a77078", "operator": "United States Postal Service", "operator:short": "USPS", "operator:type": "public", "operator:wikidata": "Q668687", "ref": "9430100052"}, "type": "Feature"}
{"dataset_attributes": {"@spider": "usps_collection_boxes", "spider:collection_time": "2023-12-22T08:24:39.252337"}, "geometry": {"coordinates": [-122.147002, 37.455395], "type": "Point"}, "id": "XikbnMWQArz3-cz8DEECPHIety0=", "properties": {"@spider": "usps_collection_boxes", "addr:city": "PALO ALTO", "addr:country": "US", "addr:full": "1450 UNIVERSITY AVE", "addr:postcode": "94301", "addr:state": "CA", "amenity": "post_box", "brand": "United States Postal Service", "brand:wikidata": "Q668687", "collection_times": "Mo-Fr 12:30; Sa 15:30", "name": "USPS COLLECTION BOX - BLUE BOX", "note": "ON 12/24 AND 12/31, THIS BOX MAY BE COLLECTED AS EARLY AS 12 NOON.", "nsi_id": "unitedstatespostalservice-a77078", "operator": "United States Postal Service", "operator:short": "USPS", "operator:type": "public", "operator:wikidata": "Q668687", "ref": "9430100053"}, "type": "Feature"}
{"dataset_attributes": {"@spider": "usps_collection_boxes", "spider:collection_time": "2023-12-22T08:24:39.252337"}, "geometry": {"coordinates": [-122.154381, 37.445191], "type": "Point"}, "id": "4Gfv2dVFxh-_6LN0HG5qZQ2PuD0=", "properties": {"@spider": "usps_collection_boxes", "addr:city": "PALO ALTO", "addr:country": "US", "addr:full": "846 COWPER ST", "addr:postcode": "94301", "addr:state": "CA", "amenity": "post_box", "brand": "United States Postal Service", "brand:wikidata": "Q668687", "collection_times": "Mo-Sa 15:00", "name": "USPS COLLECTION BOX - BLUE BOX", "note": "ON 12/24 AND 12/31, THIS BOX MAY BE COLLECTED AS EARLY AS 12 NOON.", "nsi_id": "unitedstatespostalservice-a77078", "operator": "United States Postal Service", "operator:short": "USPS", "operator:type": "public", "operator:wikidata": "Q668687", "ref": "9430100054"}, "type": "Feature"}
{"dataset_attributes": {"@spider": "usps_collection_boxes", "spider:collection_time": "2023-12-22T08:24:39.252337"}, "geometry": {"coordinates": [-122.152017, 37.447527], "type": "Point"}, "id": "Qie316k7M6IlapFSnbZlSBWNAO0=", "properties": {"@spider": "usps_collection_boxes", "addr:city": "PALO ALTO", "addr:country": "US", "addr:full": "675 CHANNING AVE", "addr:postcode": "94301", "addr:state": "CA", "amenity": "post_box", "brand": "United States Postal Service", "brand:wikidata": "Q668687", "collection_times": "Mo-Fr 11:30; Sa 12:30", "name": "USPS COLLECTION BOX - BLUE BOX", "note": "ON 12/24 AND 12/31, THIS BOX MAY BE COLLECTED AS EARLY AS 12 NOON.", "nsi_id": "unitedstatespostalservice-a77078", "operator": "United States Postal Service", "operator:short": "USPS", "operator:type": "public", "operator:wikidata": "Q668687", "ref": "9430100056"}, "type": "Feature"}
{"dataset_attributes": {"@spider": "usps_collection_boxes", "spider:collection_time": "2023-12-22T08:24:39.252337"}, "geometry": {"coordinates": [-122.140677, 37.440651], "type": "Point"}, "id": "NJ60QcWEmTh_CMNAQXfazfQhKcM=", "properties": {"@spider": "usps_collection_boxes", "addr:city": "PALO ALTO", "addr:country": "US", "addr:full": "1799 MIDDLEFIELD RD", "addr:postcode": "94301", "addr:state": "CA", "amenity": "post_box", "brand": "United States Postal Service", "brand:wikidata": "Q668687", "collection_times": "Mo-Sa 12:45", "name": "USPS COLLECTION BOX - BLUE BOX", "note": "ON 12/24 AND 12/31, THIS BOX MAY BE COLLECTED AS EARLY AS 12 NOON.", "nsi_id": "unitedstatespostalservice-a77078", "operator": "United States Postal Service", "operator:short": "USPS", "operator:type": "public", "operator:wikidata": "Q668687", "ref": "9430100057"}, "type": "Feature"}
{"dataset_attributes": {"@spider": "usps_collection_boxes", "spider:collection_time": "2023-12-22T08:24:39.252337"}, "geometry": {"coordinates": [-122.149289, 37.441925], "type": "Point"}, "id": "CDRWET5eTy03ldx8jWgusHc4CGw=", "properties": {"@spider": "usps_collection_boxes", "addr:city": "PALO ALTO", "addr:country": "US", "addr:full": "490 MELVILLE AVE", "addr:postcode": "94301", "addr:state": "CA", "amenity": "post_box", "brand": "United States Postal Service", "brand:wikidata": "Q668687", "collection_times": "Mo-Sa 12:30", "name": "USPS COLLECTION BOX - BLUE BOX", "note": "ON 12/24 AND 12/31, THIS BOX MAY BE COLLECTED AS EARLY AS 12 NOON.", "nsi_id": "unitedstatespostalservice-a77078", "operator": "United States Postal Service", "operator:short": "USPS", "operator:type": "public", "operator:wikidata": "Q668687", "ref": "9430100061"}, "type": "Feature"}
{"dataset_attributes": {"@spider": "usps_collection_boxes", "spider:collection_time": "2023-12-22T08:24:39.252337"}, "geometry": {"coordinates": [-122.158981, 37.448602], "type": "Point"}, "id": "lLLFTAWPH--4rv3obl58yHvTO68=", "properties": {"@spider": "usps_collection_boxes", "addr:city": "PALO ALTO", "addr:country": "US", "addr:full": "525 UNIVERSITY AVE", "addr:postcode": "94301", "addr:state": "CA", "amenity": "post_box", "brand": "United States Postal Service", "brand:wikidata": "Q668687", "collection_times": "Mo-Fr 14:15", "name": "USPS COLLECTION BOX - EXPRESS", "note": "ON 12/24 AND 12/31, THIS BOX MAY BE COLLECTED AS EARLY AS 12 NOON.", "nsi_id": "unitedstatespostalservice-a77078", "operator": "United States Postal Service", "operator:short": "USPS", "operator:type": "public", "operator:wikidata": "Q668687", "ref": "9430100069"}, "type": "Feature"}
{"dataset_attributes": {"@spider": "usps_collection_boxes", "spider:collection_time": "2023-12-22T08:24:39.252337"}, "geometry": {"coordinates": [-122.159345, 37.446063], "type": "Point"}, "id": "QOXq4cnc-GRq2V1imWXZTWRMkbI=", "properties": {"@spider": "usps_collection_boxes", "addr:city": "PALO ALTO", "addr:country": "US", "addr:full": "380 HAMILTON AVE", "addr:postcode": "94301", "addr:state": "CA", "amenity": "post_box", "brand": "United States Postal Service", "brand:wikidata": "Q668687", "collection_times": "Mo-Sa 17:00", "name": "USPS COLLECTION BOX - PO LOBBY", "note": "ON 12/24 AND 12/31, THIS BOX MAY BE COLLECTED AS EARLY AS 12 NOON.", "nsi_id": "unitedstatespostalservice-a77078", "operator": "United States Postal Service", "operator:short": "USPS", "operator:type": "public", "operator:wikidata": "Q668687", "ref": "9430100072"}, "type": "Feature"}
{"dataset_attributes": {"@spider": "usps_collection_boxes", "spider:collection_time": "2023-12-22T08:24:39.252337"}, "geometry": {"coordinates": [-122.168491, 37.446406], "type": "Point"}, "id": "OPfk6oXkrpQf9mRMe7wSZqPINCI=", "properties": {"@spider": "usps_collection_boxes", "addr:city": "PALO ALTO", "addr:country": "US", "addr:full": "101 ALMA ST", "addr:postcode": "94301", "addr:state": "CA", "amenity": "post_box", "brand": "United States Postal Service", "brand:wikidata": "Q668687", "collection_times": "Mo-Sa 14:00", "name": "USPS COLLECTION BOX - BLUE BOX", "note": "ON 12/24 AND 12/31, THIS BOX MAY BE COLLECTED AS EARLY AS 12 NOON.", "nsi_id": "unitedstatespostalservice-a77078", "operator": "United States Postal Service", "operator:short": "USPS", "operator:type": "public", "operator:wikidata": "Q668687", "ref": "9430100078"}, "type": "Feature"}
{"dataset_attributes": {"@spider": "usps_collection_boxes", "spider:collection_time": "2023-12-22T08:24:39.252337"}, "geometry": {"coordinates": [-122.164274, 37.447499], "type": "Point"}, "id": "5kQ8zUOt14qH1TaSEF1qoEq9tsw=", "properties": {"@spider": "usps_collection_boxes", "addr:city": "PALO ALTO", "addr:country": "US", "addr:full": "298 BRYANT ST", "addr:postcode": "94301", "addr:state": "CA", "amenity": "post_box", "brand": "United States Postal Service", "brand:wikidata": "Q668687", "collection_times": "Mo-Sa 14:15", "name": "USPS COLLECTION BOX - BLUE BOX", "note": "ON 12/24 AND 12/31, THIS BOX MAY BE COLLECTED AS EARLY AS 12 NOON.", "nsi_id": "unitedstatespostalservice-a77078", "operator": "United States Postal Service", "operator:short": "USPS", "operator:type": "public", "operator:wikidata": "Q668687", "ref": "9430100079"}, "type": "Feature"}
{"dataset_attributes": {"@spider": "usps_collection_boxes", "spider:collection_time": "2023-12-22T08:24:39.252337"}, "geometry": {"coordinates": [-122.15647, 37.440804], "type": "Point"}, "id": "dDCVu137u3DwPm3YfG4yz7B1_p4=", "properties": {"@spider": "usps_collection_boxes", "addr:city": "PALO ALTO", "addr:country": "US", "addr:full": "1017 EMERSON ST", "addr:postcode": "94301", "addr:state": "CA", "amenity": "post_box", "brand": "United States Postal Service", "brand:wikidata": "Q668687", "collection_times": "Mo-Sa 12:30", "name": "USPS COLLECTION BOX - BLUE BOX", "note": "ON 12/24 AND 12/31, THIS BOX MAY BE COLLECTED AS EARLY AS 12 NOON.", "nsi_id": "unitedstatespostalservice-a77078", "operator": "United States Postal Service", "operator:short": "USPS", "operator:type": "public", "operator:wikidata": "Q668687", "ref": "9430100082"}, "type": "Feature"}
{"dataset_attributes": {"@spider": "usps_collection_boxes", "spider:collection_time": "2023-12-22T08:24:39.252337"}, "geometry": {"coordinates": [-122.159345, 37.446063], "type": "Point"}, "id": "LlkT10oM6Pd-2cXRdZqNJeAShNk=", "properties": {"@spider": "usps_collection_boxes", "addr:city": "PALO ALTO", "addr:country": "US", "addr:full": "380 HAMILTON AVE", "addr:postcode": "94301", "addr:state": "CA", "amenity": "post_box", "brand": "United States Postal Service", "brand:wikidata": "Q668687", "collection_times": "Mo-Fr 15:00", "name": "USPS COLLECTION BOX - PO LOBBY", "note": "ON 12/24 AND 12/31, THIS BOX MAY BE COLLECTED AS EARLY AS 12 NOON.", "nsi_id": "unitedstatespostalservice-a77078", "operator": "United States Postal Service", "operator:short": "USPS", "operator:type": "public", "operator:wikidata": "Q668687", "ref": "9430100083"}, "type": "Feature"}
{"dataset_attributes": {"@spider": "usps_collection_boxes", "spider:collection_time": "2023-12-22T08:24:39.252337"}, "geometry": {"coordinates": [-122.159345, 37.446063], "type": "Point"}, "id": "4dxSRskdMgnKnzTwNWvnXTmSqyA=", "properties": {"@spider": "usps_collection_boxes", "addr:city": "PALO ALTO", "addr:country": "US", "addr:full": "380 HAMILTON AVE", "addr:postcode": "94301", "addr:state": "CA", "amenity": "post_box", "brand": "United States Postal Service", "brand:wikidata": "Q668687", "collection_times": "Mo-Sa 17:00", "name": "USPS COLLECTION BOX - APC", "note": "ON 12/24 AND 12/31, THIS BOX MAY BE COLLECTED AS EARLY AS 12 NOON.", "nsi_id": "unitedstatespostalservice-a77078", "operator": "United States Postal Service", "operator:short": "USPS", "operator:type": "public", "operator:wikidata": "Q668687", "ref": "9430100084"}, "type": "Feature"}
{"dataset_attributes": {"@spider": "usps_collection_boxes", "spider:collection_time": "2023-12-22T08:24:39.252337"}, "geometry": {"coordinates": [-122.159338084, 37.4460231484], "type": "Point"}, "id": "yYHxHSx5YOOuHcW2NuaSsVez4eU=", "properties": {"@spider": "usps_collection_boxes", "addr:city": "PALO ALTO", "addr:country": "US", "addr:full": "380 HAMILTON AVE", "addr:postcode": "94301", "addr:state": "CA", "amenity": "post_box", "brand": "United States Postal Service", "brand:wikidata": "Q668687", "collection_times": "Mo-Fr 17:00; Sa 15:00", "name": "USPS COLLECTION BOX - PO LOBBY", "note": "ON 12/24 AND 12/31, THIS BOX MAY BE COLLECTED AS EARLY AS 12 NOON.", "nsi_id": "unitedstatespostalservice-a77078", "operator": "United States Postal Service", "operator:short": "USPS", "operator:type": "public", "operator:wikidata": "Q668687", "ref": "9430100089"}, "type": "Feature"}
{"dataset_attributes": {"@spider": "usps_collection_boxes", "spider:collection_time": "2023-12-22T08:24:39.252337"}, "geometry": {"coordinates": [-122.103125, 37.430624], "type": "Point"}, "id": "6uugvHBNsJvHq7843lxPtHxKcII=", "properties": {"@spider": "usps_collection_boxes", "addr:city": "EAST PALO ALTO", "addr:country": "US", "addr:full": "1010 CORPORATION WAY", "addr:postcode": "94303", "addr:state": "CA", "amenity": "post_box", "brand": "United States Postal Service", "brand:wikidata": "Q668687", "collection_times": "Mo-Fr 13:00; Sa 15:15", "name": "USPS COLLECTION BOX - BLUE BOX", "note": "ON 12/24 AND 12/31, THIS BOX MAY BE COLLECTED AS EARLY AS 12 NOON.", "nsi_id": "unitedstatespostalservice-a77078", "operator": "United States Postal Service", "operator:short": "USPS", "operator:type": "public", "operator:wikidata": "Q668687", "ref": "9430300002"}, "type": "Feature"}
{"dataset_attributes": {"@spider": "usps_collection_boxes", "spider:collection_time": "2023-12-22T08:24:39.252337"}, "geometry": {"coordinates": [-122.118826, 37.447668], "type": "Point"}, "id": "nJilJZ8FaaQt2K0aFl8VK4U7IMM=", "properties": {"@spider": "usps_collection_boxes", "addr:city": "EAST PALO ALTO", "addr:country": "US", "addr:full": "2465 E BAYSHORE RD", "addr:postcode": "94303", "addr:state": "CA", "amenity": "post_box", "brand": "United States Postal Service", "brand:wikidata": "Q668687", "collection_times": "Mo-Fr 17:00; Sa 15:15", "name": "USPS COLLECTION BOX - BLUE BOX", "note": "ON 12/24 AND 12/31, THIS BOX MAY BE COLLECTED AS EARLY AS 12 NOON.", "nsi_id": "unitedstatespostalservice-a77078", "operator": "United States Postal Service", "operator:short": "USPS", "operator:type": "public", "operator:wikidata": "Q668687", "ref": "9430300005"}, "type": "Feature"}
{"dataset_attributes": {"@spider": "usps_collection_boxes", "spider:collection_time": "2023-12-22T08:24:39.252337"}, "geometry": {"coordinates": [-122.125439, 37.43472], "type": "Point"}, "id": "fpJmQ-5d1kcRC8nVTb8dSgckl0c=", "properties": {"@spider": "usps_collection_boxes", "addr:city": "EAST PALO ALTO", "addr:country": "US", "addr:full": "784 COLORADO AVE", "addr:postcode": "94303", "addr:state": "CA", "amenity": "post_box", "brand": "United States Postal Service", "brand:wikidata": "Q668687", "collection_times": "Mo-Sa 14:30", "name": "USPS COLLECTION BOX - BLUE BOX", "note": "ON 12/24 AND 12/31, THIS BOX MAY BE COLLECTED AS EARLY AS 12 NOON.", "nsi_id": "unitedstatespostalservice-a77078", "operator": "United States Postal Service", "operator:short": "USPS", "operator:type": "public", "operator:wikidata": "Q668687", "ref": "9430300010"}, "type": "Feature"}
{"dataset_attributes": {"@spider": "usps_collection_boxes", "spider:collection_time": "2023-12-22T08:24:39.252337"}, "geometry": {"coordinates": [-122.132893, 37.445416], "type": "Point"}, "id": "thOD7TUB7wfyo4d5TT2IcHG3PFQ=", "properties": {"@spider": "usps_collection_boxes", "addr:city": "EAST PALO ALTO", "addr:country": "US", "addr:full": "11 PRIMROSE WAY", "addr:postcode": "94303", "addr:state": "CA", "amenity": "post_box", "brand": "United States Postal Service", "brand:wikidata": "Q668687", "collection_times": "Mo-Fr 12:30; Sa 13:30", "name": "USPS COLLECTION BOX - BLUE BOX", "note": "ON 12/24 AND 12/31, THIS BOX MAY BE COLLECTED AS EARLY AS 12 NOON.", "nsi_id": "unitedstatespostalservice-a77078", "operator": "United States Postal Service", "operator:short": "USPS", "operator:type": "public", "operator:wikidata": "Q668687", "ref": "9430300011"}, "type": "Feature"}
{"dataset_attributes": {"@spider": "usps_collection_boxes", "spider:collection_time": "2023-12-22T08:24:39.252337"}, "geometry": {"coordinates": [-122.136632, 37.441218], "type": "Point"}, "id": "i8gGrfPhbPfVyWgE_cdR9q8-qGc=", "properties": {"@spider": "usps_collection_boxes", "addr:city": "EAST PALO ALTO", "addr:country": "US", "addr:full": "1955 NEWELL RD", "addr:postcode": "94303", "addr:state": "CA", "amenity": "post_box", "brand": "United States Postal Service", "brand:wikidata": "Q668687", "collection_times": "Mo-Fr 12:30; Sa 14:00", "name": "USPS COLLECTION BOX - BLUE BOX", "note": "ON 12/24 AND 12/31, THIS BOX MAY BE COLLECTED AS EARLY AS 12 NOON.", "nsi_id": "unitedstatespostalservice-a77078", "operator": "United States Postal Service", "operator:short": "USPS", "operator:type": "public", "operator:wikidata": "Q668687", "ref": "9430300013"}, "type": "Feature"}
{"dataset_attributes": {"@spider": "usps_collection_boxes", "spider:collection_time": "2023-12-22T08:24:39.252337"}, "geometry": {"coordinates": [-122.105523, 37.418037], "type": "Point"}, "id": "d1bWzvY7200VksFH06szMzzR_30=", "properties": {"@spider": "usps_collection_boxes", "addr:city": "EAST PALO ALTO", "addr:country": "US", "addr:full": "698 MONTROSE AVE", "addr:postcode": "94303", "addr:state": "CA", "amenity": "post_box", "brand": "United States Postal Service", "brand:wikidata": "Q668687", "collection_times": "Mo-Fr 11:00; Sa 13:00", "name": "USPS COLLECTION BOX - BLUE BOX", "note": "ON 12/24 AND 12/31, THIS BOX MAY BE COLLECTED AS EARLY AS 12 NOON.", "nsi_id": "unitedstatespostalservice-a77078", "operator": "United States Postal Service", "operator:short": "USPS", "operator:type": "public", "operator:wikidata": "Q668687", "ref": "9430300014"}, "type": "Feature"}
{"dataset_attributes": {"@spider": "usps_collection_boxes", "spider:collection_time": "2023-12-22T08:24:39.252337"}, "geometry": {"coordinates": [-122.109992, 37.418958], "type": "Point"}, "id": "AlBo16A0EESaiXM6zy4-7XlpD1g=", "properties": {"@spider": "usps_collection_boxes", "addr:city": "EAST PALO ALTO", "addr:country": "US", "addr:full": "3920 MIDDLEFIELD RD", "addr:postcode": "94303", "addr:state": "CA", "amenity": "post_box", "brand": "United States Postal Service", "brand:wikidata": "Q668687", "collection_times": "Mo-Sa 17:00", "name": "USPS COLLECTION BOX - BLUE BOX", "note": "ON 12/24 AND 12/31, THIS BOX MAY BE COLLECTED AS EARLY AS 12 NOON.", "nsi_id": "unitedstatespostalservice-a77078", "operator": "United States Postal Service", "operator:short": "USPS", "operator:type": "public", "operator:wikidata": "Q668687", "ref": "9430300015"}, "type": "Feature"}
{"dataset_attributes": {"@spider": "usps_collection_boxes", "spider:collection_time": "2023-12-22T08:24:39.252337"}, "geometry": {"coordinates": [-122.107917, 37.427857], "type": "Point"}, "id": "v5ngPf4CxGG7KwRqQ45XG9vbe48=", "properties": {"@spider": "usps_collection_boxes", "addr:city": "EAST PALO ALTO", "addr:country": "US", "addr:full": "902 E MEADOW DR", "addr:postcode": "94303", "addr:state": "CA", "amenity": "post_box", "brand": "United States Postal Service", "brand:wikidata": "Q668687", "collection_times": "Mo-Fr 13:00; Sa 14:45", "name": "USPS COLLECTION BOX - BLUE BOX", "note": "ON 12/24 AND 12/31, THIS BOX MAY BE COLLECTED AS EARLY AS 12 NOON.", "nsi_id": "unitedstatespostalservice-a77078", "operator": "United States Postal Service", "operator:short": "USPS", "operator:type": "public", "operator:wikidata": "Q668687", "ref": "9430300016"}, "type": "Feature"}
{"dataset_attributes": {"@spider": "usps_collection_boxes", "spider:collection_time": "2023-12-22T08:24:39.252337"}, "geometry": {"coordinates": [-122.116655, 37.433127], "type": "Point"}, "id": "y_A4fR-eEUl1mKB6NhY2gTSJbLc=", "properties": {"@spider": "usps_collection_boxes", "addr:city": "EAST PALO ALTO", "addr:country": "US", "addr:full": "891 LOMA VERDE AVE", "addr:postcode": "94303", "addr:state": "CA", "amenity": "post_box", "brand": "United States Postal Service", "brand:wikidata": "Q668687", "collection_times": "Mo-Fr 11:00; Sa 14:45", "name": "USPS COLLECTION BOX - BLUE BOX", "note": "ON 12/24 AND 12/31, THIS BOX MAY BE COLLECTED AS EARLY AS 12 NOON.", "nsi_id": "unitedstatespostalservice-a77078", "operator": "United States Postal Service", "operator:short": "USPS", "operator:type": "public", "operator:wikidata": "Q668687", "ref": "9430300017"}, "type": "Feature"}
{"dataset_attributes": {"@spider": "usps_collection_boxes", "spider:collection_time": "2023-12-22T08:24:39.252337"}, "geometry": {"coordinates": [-122.098336, 37.424153], "type": "Point"}, "id": "3CAdixKzT8X8xcRAi7GcpQwNi3g=", "properties": {"@spider": "usps_collection_boxes", "addr:city": "EAST PALO ALTO", "addr:country": "US", "addr:full": "4095 TRANSPORT ST", "addr:postcode": "94303", "addr:state": "CA", "amenity": "post_box", "brand": "United States Postal Service", "brand:wikidata": "Q668687", "collection_times": "Mo-Sa 13:00", "name": "USPS COLLECTION BOX - BLUE BOX", "note": "ON 12/24 AND 12/31, THIS BOX MAY BE COLLECTED AS EARLY AS 12 NOON.", "nsi_id": "unitedstatespostalservice-a77078", "operator": "United States Postal Service", "operator:short": "USPS", "operator:type": "public", "operator:wikidata": "Q668687", "ref": "9430300018"}, "type": "Feature"}
{"dataset_attributes": {"@spider": "usps_collection_boxes", "spider:collection_time": "2023-12-22T08:24:39.252337"}, "geometry": {"coordinates": [-122.139703, 37.444371], "type": "Point"}, "id": "YfEWQUE1KDB_anwScWRNfHwz4TU=", "properties": {"@spider": "usps_collection_boxes", "addr:city": "EAST PALO ALTO", "addr:country": "US", "addr:full": "1213 NEWELL RD", "addr:postcode": "94303", "addr:state": "CA", "amenity": "post_box", "brand": "United States Postal Service", "brand:wikidata": "Q668687", "collection_times": "Mo-Sa 12:30", "name": "USPS COLLECTION BOX - BLUE BOX", "note": "ON 12/24 AND 12/31, THIS BOX MAY BE COLLECTED AS EARLY AS 12 NOON.", "nsi_id": "unitedstatespostalservice-a77078", "operator": "United States Postal Service", "operator:short": "USPS", "operator:type": "public", "operator:wikidata": "Q668687", "ref": "9430300019"}, "type": "Feature"}
{"dataset_attributes": {"@spider": "usps_collection_boxes", "spider:collection_time": "2023-12-22T08:24:39.252337"}, "geometry": {"coordinates": [-122.142019, 37.472969], "type": "Point"}, "id": "YR4Cu6kaq0vQL6aUblsh1yNfX6M=", "properties": {"@spider": "usps_collection_boxes", "addr:city": "EAST PALO ALTO", "addr:country": "US", "addr:full": "2495 GLORIA WAY", "addr:postcode": "94303", "addr:state": "CA", "amenity": "post_box", "brand": "United States Postal Service", "brand:wikidata": "Q668687", "collection_times": "Mo-Sa 13:00", "name": "USPS COLLECTION BOX - BLUE BOX", "note": "ON 12/24 AND 12/31, THIS BOX MAY BE COLLECTED AS EARLY AS 12 NOON.", "nsi_id": "unitedstatespostalservice-a77078", "operator": "United States Postal Service", "operator:short": "USPS", "operator:type": "public", "operator:wikidata": "Q668687", "ref": "9430300021"}, "type": "Feature"}
{"dataset_attributes": {"@spider": "usps_collection_boxes", "spider:collection_time": "2023-12-22T08:24:39.252337"}, "geometry": {"coordinates": [-122.104343, 37.423728], "type": "Point"}, "id": "JYjMGIoufhFkBeaB-RGjlbaRXxA=", "properties": {"@spider": "usps_collection_boxes", "addr:city": "EAST PALO ALTO", "addr:country": "US", "addr:full": "3950 FABIAN WAY", "addr:postcode": "94303", "addr:state": "CA", "amenity": "post_box", "brand": "United States Postal Service", "brand:wikidata": "Q668687", "collection_times": "Mo-Fr 13:00; Sa 14:45", "name": "USPS COLLECTION BOX - BLUE BOX", "note": "ON 12/24 AND 12/31, THIS BOX MAY BE COLLECTED AS EARLY AS 12 NOON.", "nsi_id": "unitedstatespostalservice-a77078", "operator": "United States Postal Service", "operator:short": "USPS", "operator:type": "public", "operator:wikidata": "Q668687", "ref": "9430300022"}, "type": "Feature"}
{"dataset_attributes": {"@spider": "usps_collection_boxes", "spider:collection_time": "2023-12-22T08:24:39.252337"}, "geometry": {"coordinates": [-122.12534986, 37.451552453], "type": "Point"}, "id": "jryCwvhxBhJYtFtArc1xA_3SFHU=", "properties": {"@spider": "usps_collection_boxes", "addr:city": "EAST PALO ALTO", "addr:country": "US", "addr:full": "2085 E BAYSHORE RD", "addr:postcode": "94303", "addr:state": "CA", "amenity": "post_box", "brand": "United States Postal Service", "brand:wikidata": "Q668687", "collection_times": "Mo-Sa 17:00", "name": "USPS COLLECTION BOX - BLUE BOX", "note": "ON 12/24 AND 12/31, THIS BOX MAY BE COLLECTED AS EARLY AS 12 NOON.", "nsi_id": "unitedstatespostalservice-a77078", "operator": "United States Postal Service", "operator:short": "USPS", "operator:type": "public", "operator:wikidata": "Q668687", "ref": "9430300025"}, "type": "Feature"}
{"dataset_attributes": {"@spider": "usps_collection_boxes", "spider:collection_time": "2023-12-22T08:24:39.252337"}, "geometry": {"coordinates": [-122.12534986, 37.451552453], "type": "Point"}, "id": "OtHBfFKQHxx4vQvMGYWrMGikOZ4=", "properties": {"@spider": "usps_collection_boxes", "addr:city": "EAST PALO ALTO", "addr:country": "US", "addr:full": "2085 E BAYSHORE RD", "addr:postcode": "94303", "addr:state": "CA", "amenity": "post_box", "brand": "United States Postal Service", "brand:wikidata": "Q668687", "collection_times": "Mo-Sa 17:00", "name": "USPS COLLECTION BOX - BLUE BOX", "note": "ON 12/24 AND 12/31, THIS BOX MAY BE COLLECTED AS EARLY AS 12 NOON.", "nsi_id": "unitedstatespostalservice-a77078", "operator": "United States Postal Service", "operator:short": "USPS", "operator:type": "public", "operator:wikidata": "Q668687", "ref": "9430300026"}, "type": "Feature"}
{"dataset_attributes": {"@spider": "usps_collection_boxes", "spider:collection_time": "2023-12-22T08:24:39.252337"}, "geometry": {"coordinates": [-122.12534986, 37.451552453], "type": "Point"}, "id": "W3Q-vhBM4pV07PLJhw9puNQ5VO4=", "properties": {"@spider": "usps_collection_boxes", "addr:city": "EAST PALO ALTO", "addr:country": "US", "addr:full": "2085 E BAYSHORE RD", "addr:postcode": "94303", "addr:state": "CA", "amenity": "post_box", "brand": "United States Postal Service", "brand:wikidata": "Q668687", "collection_times": "Mo-Sa 15:00", "name": "USPS COLLECTION BOX - EXPRESS", "note": "ON 12/24 AND 12/31, THIS BOX MAY BE COLLECTED AS EARLY AS 12 NOON.", "nsi_id": "unitedstatespostalservice-a77078", "operator": "United States Postal Service", "operator:short": "USPS", "operator:type": "public", "operator:wikidata": "Q668687", "ref": "9430300028"}, "type": "Feature"}
{"dataset_attributes": {"@spider": "usps_collection_boxes", "spider:collection_time": "2023-12-22T08:24:39.252337"}, "geometry": {"coordinates": [-122.139851, 37.448889], "type": "Point"}, "id": "v8l3SVfrDvphpuvVk6a_uoeAhrk=", "properties": {"@spider": "usps_collection_boxes", "addr:city": "EAST PALO ALTO", "addr:country": "US", "addr:full": "896 NEWELL RD", "addr:postcode": "94303", "addr:state": "CA", "amenity": "post_box", "brand": "United States Postal Service", "brand:wikidata": "Q668687", "collection_times": "Mo-Fr 12:30; Sa 13:45", "name": "USPS COLLECTION BOX - BLUE BOX", "note": "ON 12/24 AND 12/31, THIS BOX MAY BE COLLECTED AS EARLY AS 12 NOON.", "nsi_id": "unitedstatespostalservice-a77078", "operator": "United States Postal Service", "operator:short": "USPS", "operator:type": "public", "operator:wikidata": "Q668687", "ref": "9430300030"}, "type": "Feature"}
{"dataset_attributes": {"@spider": "usps_collection_boxes", "spider:collection_time": "2023-12-22T08:24:39.252337"}, "geometry": {"coordinates": [-122.122305, 37.441331], "type": "Point"}, "id": "tus-z-2_rHVL47MPdhV9q2lkYfk=", "properties": {"@spider": "usps_collection_boxes", "addr:city": "EAST PALO ALTO", "addr:country": "US", "addr:full": "2698 GREER RD", "addr:postcode": "94303", "addr:state": "CA", "amenity": "post_box", "brand": "United States Postal Service", "brand:wikidata": "Q668687", "collection_times": "Mo-Fr 12:30; Sa 14:00", "name": "USPS COLLECTION BOX - BLUE BOX", "note": "ON 12/24 AND 12/31, THIS BOX MAY BE COLLECTED AS EARLY AS 12 NOON.", "nsi_id": "unitedstatespostalservice-a77078", "operator": "United States Postal Service", "operator:short": "USPS", "operator:type": "public", "operator:wikidata": "Q668687", "ref": "9430300035"}, "type": "Feature"}
{"dataset_attributes": {"@spider": "usps_collection_boxes", "spider:collection_time": "2023-12-22T08:24:39.252337"}, "geometry": {"coordinates": [-122.134352, 37.456207], "type": "Point"}, "id": "f11u66mQu22iLFyKLlA7TU1pWtk=", "properties": {"@spider": "usps_collection_boxes", "addr:city": "EAST PALO ALTO", "addr:country": "US", "addr:full": "1800 W BAYSHORE RD", "addr:postcode": "94303", "addr:state": "CA", "amenity": "post_box", "brand": "United States Postal Service", "brand:wikidata": "Q668687", "collection_times": "Mo-Fr 12:30; Sa 13:15", "name": "USPS COLLECTION BOX - BLUE BOX", "note": "ON 12/24 AND 12/31, THIS BOX MAY BE COLLECTED AS EARLY AS 12 NOON.", "nsi_id": "unitedstatespostalservice-a77078", "operator": "United States Postal Service", "operator:short": "USPS", "operator:type": "public", "operator:wikidata": "Q668687", "ref": "9430300037"}, "type": "Feature"}
{"dataset_attributes": {"@spider": "usps_collection_boxes", "spider:collection_time": "2023-12-22T08:24:39.252337"}, "geometry": {"coordinates": [-122.139453, 37.466598], "type": "Point"}, "id": "QEAl7DzyJ-1aFSmqxnakn2XYTV0=", "properties": {"@spider": "usps_collection_boxes", "addr:city": "EAST PALO ALTO", "addr:country": "US", "addr:full": "2235 COOLEY AVE", "addr:postcode": "94303", "addr:state": "CA", "amenity": "post_box", "brand": "United States Postal Service", "brand:wikidata": "Q668687", "collection_times": "Mo-Sa 13:00", "name": "USPS COLLECTION BOX - BLUE BOX", "note": "ON 12/24 AND 12/31, THIS BOX MAY BE COLLECTED AS EARLY AS 12 NOON.", "nsi_id": "unitedstatespostalservice-a77078", "operator": "United States Postal Service", "operator:short": "USPS", "operator:type": "public", "operator:wikidata": "Q668687", "ref": "9430300040"}, "type": "Feature"}
{"dataset_attributes": {"@spider": "usps_collection_boxes", "spider:collection_time": "2023-12-22T08:24:39.252337"}, "geometry": {"coordinates": [-122.131394, 37.442619], "type": "Point"}, "id": "1K6QbsSgsdeEa2UKHMSpSWVifL4=", "properties": {"@spider": "usps_collection_boxes", "addr:city": "EAST PALO ALTO", "addr:country": "US", "addr:full": "899 LOUIS RD", "addr:postcode": "94303", "addr:state": "CA", "amenity": "post_box", "brand": "United States Postal Service", "brand:wikidata": "Q668687", "collection_times": "Mo-Fr 12:30; Sa 14:00", "name": "USPS COLLECTION BOX - BLUE BOX", "note": "ON 12/24 AND 12/31, THIS BOX MAY BE COLLECTED AS EARLY AS 12 NOON.", "nsi_id": "unitedstatespostalservice-a77078", "operator": "United States Postal Service", "operator:short": "USPS", "operator:type": "public", "operator:wikidata": "Q668687", "ref": "9430300041"}, "type": "Feature"}
{"dataset_attributes": {"@spider": "usps_collection_boxes", "spider:collection_time": "2023-12-22T08:24:39.252337"}, "geometry": {"coordinates": [-122.126767, 37.447021], "type": "Point"}, "id": "RV0WPxVnhM1R0TgLcq81z50FaEc=", "properties": {"@spider": "usps_collection_boxes", "addr:city": "EAST PALO ALTO", "addr:country": "US", "addr:full": "2190 SAINT FRANCIS DR", "addr:postcode": "94303", "addr:state": "CA", "amenity": "post_box", "brand": "United States Postal Service", "brand:wikidata": "Q668687", "collection_times": "Mo-Fr 12:30; Sa 13:30", "name": "USPS COLLECTION BOX - BLUE BOX", "note": "ON 12/24 AND 12/31, THIS BOX MAY BE COLLECTED AS EARLY AS 12 NOON.", "nsi_id": "unitedstatespostalservice-a77078", "operator": "United States Postal Service", "operator:short": "USPS", "operator:type": "public", "operator:wikidata": "Q668687", "ref": "9430300045"}, "type": "Feature"}
{"dataset_attributes": {"@spider": "usps_collection_boxes", "spider:collection_time": "2023-12-22T08:24:39.252337"}, "geometry": {"coordinates": [-122.129986, 37.46077], "type": "Point"}, "id": "zkgCejLBfXCmOLC5sJeszzKNc1k=", "properties": {"@spider": "usps_collection_boxes", "addr:city": "EAST PALO ALTO", "addr:country": "US", "addr:full": "1108 OCONNOR ST", "addr:postcode": "94303", "addr:state": "CA", "amenity": "post_box", "brand": "United States Postal Service", "brand:wikidata": "Q668687", "collection_times": "Mo-Sa 12:45", "name": "USPS COLLECTION BOX - BLUE BOX", "note": "ON 12/24 AND 12/31, THIS BOX MAY BE COLLECTED AS EARLY AS 12 NOON.", "nsi_id": "unitedstatespostalservice-a77078", "operator": "United States Postal Service", "operator:short": "USPS", "operator:type": "public", "operator:wikidata": "Q668687", "ref": "9430300046"}, "type": "Feature"}
{"dataset_attributes": {"@spider": "usps_collection_boxes", "spider:collection_time": "2023-12-22T08:24:39.252337"}, "geometry": {"coordinates": [-122.100356, 37.421955], "type": "Point"}, "id": "4W9-lJ86TSgF-GiMUsGtP9SthcY=", "properties": {"@spider": "usps_collection_boxes", "addr:city": "EAST PALO ALTO", "addr:country": "US", "addr:full": "942 E CHARLESTON RD", "addr:postcode": "94303", "addr:state": "CA", "amenity": "post_box", "brand": "United States Postal Service", "brand:wikidata": "Q668687", "collection_times": "Mo-Sa 13:00", "name": "USPS COLLECTION BOX - BLUE BOX", "note": "ON 12/24 AND 12/31, THIS BOX MAY BE COLLECTED AS EARLY AS 12 NOON.", "nsi_id": "unitedstatespostalservice-a77078", "operator": "United States Postal Service", "operator:short": "USPS", "operator:type": "public", "operator:wikidata": "Q668687", "ref": "9430300048"}, "type": "Feature"}
{"dataset_attributes": {"@spider": "usps_collection_boxes", "spider:collection_time": "2023-12-22T08:24:39.252337"}, "geometry": {"coordinates": [-122.102003, 37.421315], "type": "Point"}, "id": "n7o1fvkZbZxxd5gFfiX4fvatxZw=", "properties": {"@spider": "usps_collection_boxes", "addr:city": "EAST PALO ALTO", "addr:country": "US", "addr:full": "825 SAN ANTONIO RD", "addr:postcode": "94303", "addr:state": "CA", "amenity": "post_box", "brand": "United States Postal Service", "brand:wikidata": "Q668687", "collection_times": "Mo-Sa 13:00", "name": "USPS COLLECTION BOX - BLUE BOX", "note": "ON 12/24 AND 12/31, THIS BOX MAY BE COLLECTED AS EARLY AS 12 NOON.", "nsi_id": "unitedstatespostalservice-a77078", "operator": "United States Postal Service", "operator:short": "USPS", "operator:type": "public", "operator:wikidata": "Q668687", "ref": "9430300049"}, "type": "Feature"}
{"dataset_attributes": {"@spider": "usps_collection_boxes", "spider:collection_time": "2023-12-22T08:24:39.252337"}, "geometry": {"coordinates": [-122.114401, 37.453117], "type": "Point"}, "id": "8bjYzDFNOWJIUcceOwCnRmf3eEU=", "properties": {"@spider": "usps_collection_boxes", "addr:city": "EAST PALO ALTO", "addr:country": "US", "addr:full": "1875 EMBARCADERO RD", "addr:postcode": "94303", "addr:state": "CA", "amenity": "post_box", "brand": "United States Postal Service", "brand:wikidata": "Q668687", "collection_times": "Mo-Fr 17:00; Sa 13:00", "name": "USPS COLLECTION BOX - BLUE BOX", "note": "ON 12/24 AND 12/31, THIS BOX MAY BE COLLECTED AS EARLY AS 12 NOON.", "nsi_id": "unitedstatespostalservice-a77078", "operator": "United States Postal Service", "operator:short": "USPS", "operator:type": "public", "operator:wikidata": "Q668687", "ref": "9430300050"}, "type": "Feature"}
{"dataset_attributes": {"@spider": "usps_collection_boxes", "spider:collection_time": "2023-12-22T08:24:39.252337"}, "geometry": {"coordinates": [-122.116144, 37.451771], "type": "Point"}, "id": "d7ATgc2cpgGWsv26hc9EJIm48Es=", "properties": {"@spider": "usps_collection_boxes", "addr:city": "EAST PALO ALTO", "addr:country": "US", "addr:full": "1804 EMBARCADERO RD", "addr:postcode": "94303", "addr:state": "CA", "amenity": "post_box", "brand": "United States Postal Service", "brand:wikidata": "Q668687", "collection_times": "Mo-Fr 17:00; Sa 13:00", "name": "USPS COLLECTION BOX - BLUE BOX", "note": "ON 12/24 AND 12/31, THIS BOX MAY BE COLLECTED AS EARLY AS 12 NOON.", "nsi_id": "unitedstatespostalservice-a77078", "operator": "United States Postal Service", "operator:short": "USPS", "operator:type": "public", "operator:wikidata": "Q668687", "ref": "9430300057"}, "type": "Feature"}
{"dataset_attributes": {"@spider": "usps_collection_boxes", "spider:collection_time": "2023-12-22T08:24:39.252337"}, "geometry": {"coordinates": [-122.104601, 37.429484], "type": "Point"}, "id": "qDaS0ZBrfDXV3Ys3ds5vA-BFzqw=", "properties": {"@spider": "usps_collection_boxes", "addr:city": "EAST PALO ALTO", "addr:country": "US", "addr:full": "1170 E MEADOW DR", "addr:postcode": "94303", "addr:state": "CA", "amenity": "post_box", "brand": "United States Postal Service", "brand:wikidata": "Q668687", "collection_times": "Mo-Fr 13:00; Sa 14:45", "name": "USPS COLLECTION BOX - BLUE BOX", "note": "ON 12/24 AND 12/31, THIS BOX MAY BE COLLECTED AS EARLY AS 12 NOON.", "nsi_id": "unitedstatespostalservice-a77078", "operator": "United States Postal Service", "operator:short": "USPS", "operator:type": "public", "operator:wikidata": "Q668687", "ref": "9430300060"}, "type": "Feature"}
{"dataset_attributes": {"@spider": "usps_collection_boxes", "spider:collection_time": "2023-12-22T08:24:39.252337"}, "geometry": {"coordinates": [-122.104348, 37.423718], "type": "Point"}, "id": "Np87fHholdRm2za4s8z4pUMn_8M=", "properties": {"@spider": "usps_collection_boxes", "addr:city": "EAST PALO ALTO", "addr:country": "US", "addr:full": "3950 FABIAN WAY", "addr:postcode": "94303", "addr:state": "CA", "amenity": "post_box", "brand": "United States Postal Service", "brand:wikidata": "Q668687", "collection_times": "Mo-Fr 13:00; Sa 14:45", "name": "USPS COLLECTION BOX - BLUE BOX", "note": "ON 12/24 AND 12/31, THIS BOX MAY BE COLLECTED AS EARLY AS 12 NOON.", "nsi_id": "unitedstatespostalservice-a77078", "operator": "United States Postal Service", "operator:short": "USPS", "operator:type": "public", "operator:wikidata": "Q668687", "ref": "9430300068"}, "type": "Feature"}
{"dataset_attributes": {"@spider": "usps_collection_boxes", "spider:collection_time": "2023-12-22T08:24:39.252337"}, "geometry": {"coordinates": [-122.12534986, 37.451552453], "type": "Point"}, "id": "whoU0Qu0pll0Cel4Z1qNtrOJe6o=", "properties": {"@spider": "usps_collection_boxes", "addr:city": "EAST PALO ALTO", "addr:country": "US", "addr:full": "2085 E BAYSHORE RD", "addr:postcode": "94303", "addr:state": "CA", "amenity": "post_box", "brand": "United States Postal Service", "brand:wikidata": "Q668687", "collection_times": "Mo-Sa 17:00", "name": "USPS COLLECTION BOX - PO LOBBY", "note": "ON 12/24 AND 12/31, THIS BOX MAY BE COLLECTED AS EARLY AS 12 NOON.", "nsi_id": "unitedstatespostalservice-a77078", "operator": "United States Postal Service", "operator:short": "USPS", "operator:type": "public", "operator:wikidata": "Q668687", "ref": "9430300069"}, "type": "Feature"}
{"dataset_attributes": {"@spider": "usps_collection_boxes", "spider:collection_time": "2023-12-22T08:24:39.252337"}, "geometry": {"coordinates": [-122.12534986, 37.451552453], "type": "Point"}, "id": "ukKg8P4CpLEovty_D5cjbrnw5Cs=", "properties": {"@spider": "usps_collection_boxes", "addr:city": "EAST PALO ALTO", "addr:country": "US", "addr:full": "2085 E BAYSHORE RD", "addr:postcode": "94303", "addr:state": "CA", "amenity": "post_box", "brand": "United States Postal Service", "brand:wikidata": "Q668687", "collection_times": "Mo-Sa 17:00", "name": "USPS COLLECTION BOX - APC", "note": "ON 12/24 AND 12/31, THIS BOX MAY BE COLLECTED AS EARLY AS 12 NOON.", "nsi_id": "unitedstatespostalservice-a77078", "operator": "United States Postal Service", "operator:short": "USPS", "operator:type": "public", "operator:wikidata": "Q668687", "ref": "9430300070"}, "type": "Feature"}
{"dataset_attributes": {"@spider": "usps_collection_boxes", "spider:collection_time": "2023-12-22T08:24:39.252337"}, "geometry": {"coordinates": [-122.12534986, 37.451552453], "type": "Point"}, "id": "ySImpZbFlHbL_8tI4_uoSVmXR3U=", "properties": {"@spider": "usps_collection_boxes", "addr:city": "EAST PALO ALTO", "addr:country": "US", "addr:full": "2085 E BAYSHORE RD", "addr:postcode": "94303", "addr:state": "CA", "amenity": "post_box", "brand": "United States Postal Service", "brand:wikidata": "Q668687", "collection_times": "Mo-Fr 17:00", "name": "USPS COLLECTION BOX - PO LOBBY", "note": "ON 12/24 AND 12/31, THIS BOX MAY BE COLLECTED AS EARLY AS 12 NOON.", "nsi_id": "unitedstatespostalservice-a77078", "operator": "United States Postal Service", "operator:short": "USPS", "operator:type": "public", "operator:wikidata": "Q668687", "ref": "9430300074"}, "type": "Feature"}
{"dataset_attributes": {"@spider": "usps_collection_boxes", "spider:collection_time": "2023-12-22T08:24:39.252337"}, "geometry": {"coordinates": [-122.1353505, 37.461159], "type": "Point"}, "id": "0SR83HM_70UJ1VIkanYWAUrNPR4=", "properties": {"@spider": "usps_collection_boxes", "addr:city": "EAST PALO ALTO", "addr:country": "US", "addr:full": "1765 E BAYSHORE RD", "addr:postcode": "94303", "addr:state": "CA", "amenity": "post_box", "brand": "United States Postal Service", "brand:wikidata": "Q668687", "collection_times": "Mo-Fr 14:00", "name": "USPS COLLECTION BOX - PO LOBBY", "note": "ON 12/24 AND 12/31, THIS BOX MAY BE COLLECTED AS EARLY AS 12 NOON.", "nsi_id": "unitedstatespostalservice-a77078", "operator": "United States Postal Service", "operator:short": "USPS", "operator:type": "public", "operator:wikidata": "Q668687", "ref": "9430300075"}, "type": "Feature"}
{"dataset_attributes": {"@spider": "usps_collection_boxes", "spider:collection_time": "2023-12-22T08:24:39.252337"}, "geometry": {"coordinates": [-122.1353505, 37.461159], "type": "Point"}, "id": "wxhGmxpS5ChyOnR17fyKouKXDsI=", "properties": {"@spider": "usps_collection_boxes", "addr:city": "EAST PALO ALTO", "addr:country": "US", "addr:full": "1765 E BAYSHORE RD", "addr:postcode": "94303", "addr:state": "CA", "amenity": "post_box", "brand": "United States Postal Service", "brand:wikidata": "Q668687", "collection_times": "Mo-Fr 14:00", "name": "USPS COLLECTION BOX - PO LOBBY", "note": "ON 12/24 AND 12/31, THIS BOX MAY BE COLLECTED AS EARLY AS 12 NOON.", "nsi_id": "unitedstatespostalservice-a77078", "operator": "United States Postal Service", "operator:short": "USPS", "operator:type": "public", "operator:wikidata": "Q668687", "ref": "9430300076"}, "type": "Feature"}
{"dataset_attributes": {"@spider": "usps_collection_boxes", "spider:collection_time": "2023-12-22T08:24:39.252337"}, "geometry": {"coordinates": [-122.186076, 37.432273], "type": "Point"}, "id": "e0nUjpV8l7OuuT43GFEPHJSFgls=", "properties": {"@spider": "usps_collection_boxes", "addr:city": "PALO ALTO", "addr:country": "US", "addr:full": "1600 SAND HILL RD", "addr:postcode": "94304", "addr:state": "CA", "amenity": "post_box", "brand": "United States Postal Service", "brand:wikidata": "Q668687", "collection_times": "Mo-Sa 12:45", "name": "USPS COLLECTION BOX - BLUE BOX", "note": "ON 12/24 AND 12/31, THIS BOX MAY BE COLLECTED AS EARLY AS 12 NOON.", "nsi_id": "unitedstatespostalservice-a77078", "operator": "United States Postal Service", "operator:short": "USPS", "operator:type": "public", "operator:wikidata": "Q668687", "ref": "9430400012"}, "type": "Feature"}
{"dataset_attributes": {"@spider": "usps_collection_boxes", "spider:collection_time": "2023-12-22T08:24:39.252337"}, "geometry": {"coordinates": [-122.189044, 37.430523], "type": "Point"}, "id": "rSxrtTaFQwaqZOtYeh6OBUXPgNo=", "properties": {"@spider": "usps_collection_boxes", "addr:city": "PALO ALTO", "addr:country": "US", "addr:full": "1812 OAK CREEK DR", "addr:postcode": "94304", "addr:state": "CA", "amenity": "post_box", "brand": "United States Postal Service", "brand:wikidata": "Q668687", "collection_times": "Mo-Sa 13:00", "name": "USPS COLLECTION BOX - BLUE BOX", "note": "ON 12/24 AND 12/31, THIS BOX MAY BE COLLECTED AS EARLY AS 12 NOON.", "nsi_id": "unitedstatespostalservice-a77078", "operator": "United States Postal Service", "operator:short": "USPS", "operator:type": "public", "operator:wikidata": "Q668687", "ref": "9430400014"}, "type": "Feature"}
{"dataset_attributes": {"@spider": "usps_collection_boxes", "spider:collection_time": "2023-12-22T08:24:39.252337"}, "geometry": {"coordinates": [-122.148764, 37.418056], "type": "Point"}, "id": "nRjh3dRg9N6iUuumw1lUhsjr6nM=", "properties": {"@spider": "usps_collection_boxes", "addr:city": "PALO ALTO", "addr:country": "US", "addr:full": "2626 HANOVER ST", "addr:postcode": "94304", "addr:state": "CA", "amenity": "post_box", "brand": "United States Postal Service", "brand:wikidata": "Q668687", "collection_times": "Mo-Sa 14:30", "name": "USPS COLLECTION BOX - BLUE BOX", "note": "ON 12/24 AND 12/31, THIS BOX MAY BE COLLECTED AS EARLY AS 12 NOON.", "nsi_id": "unitedstatespostalservice-a77078", "operator": "United States Postal Service", "operator:short": "USPS", "operator:type": "public", "operator:wikidata": "Q668687", "ref": "9430400021"}, "type": "Feature"}
{"dataset_attributes": {"@spider": "usps_collection_boxes", "spider:collection_time": "2023-12-22T08:24:39.252337"}, "geometry": {"coordinates": [-122.176036, 37.432953], "type": "Point"}, "id": "xukNNYVWAJvtnTvBr1Iwk3KbD5g=", "properties": {"@spider": "usps_collection_boxes", "addr:city": "PALO ALTO", "addr:country": "US", "addr:full": "300 PASTEUR DR", "addr:postcode": "94304", "addr:state": "CA", "amenity": "post_box", "brand": "United States Postal Service", "brand:wikidata": "Q668687", "collection_times": "Mo-Fr 15:00; Sa 17:00", "name": "USPS COLLECTION BOX - BLUE BOX", "note": "ON 12/24 AND 12/31, THIS BOX MAY BE COLLECTED AS EARLY AS 12 NOON.", "nsi_id": "unitedstatespostalservice-a77078", "operator": "United States Postal Service", "operator:short": "USPS", "operator:type": "public", "operator:wikidata": "Q668687", "ref": "9430400024"}, "type": "Feature"}
{"dataset_attributes": {"@spider": "usps_collection_boxes", "spider:collection_time": "2023-12-22T08:24:39.252337"}, "geometry": {"coordinates": [-122.1391104825, 37.4013137204], "type": "Point"}, "id": "LfsAwhhzKr_Zto1PlrpllJsfLc4=", "properties": {"@spider": "usps_collection_boxes", "addr:city": "PALO ALTO", "addr:country": "US", "addr:full": "3801 MIRANDA AVE", "addr:postcode": "94304", "addr:state": "CA", "amenity": "post_box", "brand": "United States Postal Service", "brand:wikidata": "Q668687", "collection_times": "Mo-Fr 14:00", "name": "USPS COLLECTION BOX - BLUE BOX", "note": "ON 12/24 AND 12/31, THIS BOX MAY BE COLLECTED AS EARLY AS 12 NOON.", "nsi_id": "unitedstatespostalservice-a77078", "operator": "United States Postal Service", "operator:short": "USPS", "operator:type": "public", "operator:wikidata": "Q668687", "ref": "9430400027"}, "type": "Feature"}
{"dataset_attributes": {"@spider": "usps_collection_boxes", "spider:collection_time": "2023-12-22T08:24:39.252337"}, "geometry": {"coordinates": [-122.178661, 37.438888], "type": "Point"}, "id": "Vdl-wg3eKK5Ll3_KlXN-9oLA4Qw=", "properties": {"@spider": "usps_collection_boxes", "addr:city": "PALO ALTO", "addr:country": "US", "addr:full": "700 CLARK WAY", "addr:postcode": "94304", "addr:state": "CA", "amenity": "post_box", "brand": "United States Postal Service", "brand:wikidata": "Q668687", "collection_times": "Mo-Sa 12:30", "name": "USPS COLLECTION BOX - BLUE BOX", "note": "ON 12/24 AND 12/31, THIS BOX MAY BE COLLECTED AS EARLY AS 12 NOON.", "nsi_id": "unitedstatespostalservice-a77078", "operator": "United States Postal Service", "operator:short": "USPS", "operator:type": "public", "operator:wikidata": "Q668687", "ref": "9430400028"}, "type": "Feature"}
{"dataset_attributes": {"@spider": "usps_collection_boxes", "spider:collection_time": "2023-12-22T08:24:39.252337"}, "geometry": {"coordinates": [-122.173098, 37.44169], "type": "Point"}, "id": "kvt5HjugxYaFf5SfDnKh8CGEU44=", "properties": {"@spider": "usps_collection_boxes", "addr:city": "PALO ALTO", "addr:country": "US", "addr:full": "383 STANFORD SHOPPING CTR", "addr:postcode": "94304", "addr:state": "CA", "amenity": "post_box", "brand": "United States Postal Service", "brand:wikidata": "Q668687", "collection_times": "Mo-Fr 15:00; Sa 17:00", "name": "USPS COLLECTION BOX - BLUE BOX", "note": "ON 12/24 AND 12/31, THIS BOX MAY BE COLLECTED AS EARLY AS 12 NOON.", "nsi_id": "unitedstatespostalservice-a77078", "operator": "United States Postal Service", "operator:short": "USPS", "operator:type": "public", "operator:wikidata": "Q668687", "ref": "9430400031"}, "type": "Feature"}
{"dataset_attributes": {"@spider": "usps_collection_boxes", "spider:collection_time": "2023-12-22T08:24:39.252337"}, "geometry": {"coordinates": [-122.142317, 37.416695], "type": "Point"}, "id": "V67kU0wcm_f629kvTCdwG70XLkY=", "properties": {"@spider": "usps_collection_boxes", "addr:city": "PALO ALTO", "addr:country": "US", "addr:full": "3130 HANSEN WAY", "addr:postcode": "94304", "addr:state": "CA", "amenity": "post_box", "brand": "United States Postal Service", "brand:wikidata": "Q668687", "collection_times": "Mo-Fr 15:00; Sa 14:15", "name": "USPS COLLECTION BOX - BLUE BOX", "note": "ON 12/24 AND 12/31, THIS BOX MAY BE COLLECTED AS EARLY AS 12 NOON.", "nsi_id": "unitedstatespostalservice-a77078", "operator": "United States Postal Service", "operator:short": "USPS", "operator:type": "public", "operator:wikidata": "Q668687", "ref": "9430400032"}, "type": "Feature"}
{"dataset_attributes": {"@spider": "usps_collection_boxes", "spider:collection_time": "2023-12-22T08:24:39.252337"}, "geometry": {"coordinates": [-122.1391104825, 37.4013137204], "type": "Point"}, "id": "cZyOYq_S3q50gNDE6457w3U7VMs=", "properties": {"@spider": "usps_collection_boxes", "addr:city": "PALO ALTO", "addr:country": "US", "addr:full": "3801 MIRANDA AVE", "addr:postcode": "94304", "addr:state": "CA", "amenity": "post_box", "brand": "United States Postal Service", "brand:wikidata": "Q668687", "collection_times": "Mo-Fr 14:00", "name": "USPS COLLECTION BOX - PO LOBBY", "note": "ON 12/24 AND 12/31, THIS BOX MAY BE COLLECTED AS EARLY AS 12 NOON.", "nsi_id": "unitedstatespostalservice-a77078", "operator": "United States Postal Service", "operator:short": "USPS", "operator:type": "public", "operator:wikidata": "Q668687", "ref": "9430400040"}, "type": "Feature"}
{"dataset_attributes": {"@spider": "usps_collection_boxes", "spider:collection_time": "2023-12-22T08:24:39.252337"}, "geometry": {"coordinates": [-122.169052, 37.429135], "type": "Point"}, "id": "_Eta8Wy0iDBlTSwGNYniU4gycyc=", "properties": {"@spider": "usps_collection_boxes", "addr:city": "PALO ALTO", "addr:country": "US", "addr:full": "100 SERRA ST", "addr:postcode": "94305", "addr:state": "CA", "amenity": "post_box", "brand": "United States Postal Service", "brand:wikidata": "Q668687", "collection_times": "Mo-Sa 13:45", "name": "USPS COLLECTION BOX - EXPRESS", "note": "ON 12/24 AND 12/31, THIS BOX MAY BE COLLECTED AS EARLY AS 12 NOON.", "nsi_id": "unitedstatespostalservice-a77078", "operator": "United States Postal Service", "operator:short": "USPS", "operator:type": "public", "operator:wikidata": "Q668687", "ref": "9430500001"}, "type": "Feature"}
{"dataset_attributes": {"@spider": "usps_collection_boxes", "spider:collection_time": "2023-12-22T08:24:39.252337"}, "geometry": {"coordinates": [-122.169241, 37.42431], "type": "Point"}, "id": "j-vjijoja3JBdIOEKtQhNUG75bw=", "properties": {"@spider": "usps_collection_boxes", "addr:city": "PALO ALTO", "addr:country": "US", "addr:full": "1 WHITE PLZ", "addr:postcode": "94305", "addr:state": "CA", "amenity": "post_box", "brand": "United States Postal Service", "brand:wikidata": "Q668687", "collection_times": "Mo-Fr 17:00; Sa 13:00", "name": "USPS COLLECTION BOX - BLUE BOX", "note": "ON 12/24 AND 12/31, THIS BOX MAY BE COLLECTED AS EARLY AS 12 NOON.", "nsi_id": "unitedstatespostalservice-a77078", "operator": "United States Postal Service", "operator:short": "USPS", "operator:type": "public", "operator:wikidata": "Q668687", "ref": "9430500004"}, "type": "Feature"}
{"dataset_attributes": {"@spider": "usps_collection_boxes", "spider:collection_time": "2023-12-22T08:24:39.252337"}, "geometry": {"coordinates": [-122.16926, 37.424288], "type": "Point"}, "id": "-Jr5mgoZgc5IisEwTJj94bv-guY=", "properties": {"@spider": "usps_collection_boxes", "addr:city": "PALO ALTO", "addr:country": "US", "addr:full": "1 WHITE PLZ", "addr:postcode": "94305", "addr:state": "CA", "amenity": "post_box", "brand": "United States Postal Service", "brand:wikidata": "Q668687", "collection_times": "Mo-Fr 17:00; Sa 13:00", "name": "USPS COLLECTION BOX - BLUE BOX", "note": "ON 12/24 AND 12/31, THIS BOX MAY BE COLLECTED AS EARLY AS 12 NOON.", "nsi_id": "unitedstatespostalservice-a77078", "operator": "United States Postal Service", "operator:short": "USPS", "operator:type": "public", "operator:wikidata": "Q668687", "ref": "9430500006"}, "type": "Feature"}
{"dataset_attributes": {"@spider": "usps_collection_boxes", "spider:collection_time": "2023-12-22T08:24:39.252337"}, "geometry": {"coordinates": [-122.165228, 37.428003], "type": "Point"}, "id": "q7aBJGjhQiMQCdJBaVZGdQhrnho=", "properties": {"@spider": "usps_collection_boxes", "addr:city": "PALO ALTO", "addr:country": "US", "addr:full": "100 SERRA ST", "addr:postcode": "94305", "addr:state": "CA", "amenity": "post_box", "brand": "United States Postal Service", "brand:wikidata": "Q668687", "collection_times": "Mo-Fr 17:00; Sa 13:45", "name": "USPS COLLECTION BOX - BLUE BOX", "note": "ON 12/24 AND 12/31, THIS BOX MAY BE COLLECTED AS EARLY AS 12 NOON.", "nsi_id": "unitedstatespostalservice-a77078", "operator": "United States Postal Service", "operator:short": "USPS", "operator:type": "public", "operator:wikidata": "Q668687", "ref": "9430500012"}, "type": "Feature"}
{"dataset_attributes": {"@spider": "usps_collection_boxes", "spider:collection_time": "2023-12-22T08:24:39.252337"}, "geometry": {"coordinates": [-122.164962, 37.427947], "type": "Point"}, "id": "8Iohd5P3MaoKbSgDmLR63iV5IA4=", "properties": {"@spider": "usps_collection_boxes", "addr:city": "PALO ALTO", "addr:country": "US", "addr:full": "250 SERRA ST", "addr:postcode": "94305", "addr:state": "CA", "amenity": "post_box", "brand": "United States Postal Service", "brand:wikidata": "Q668687", "collection_times": "Mo-Sa 13:45", "name": "USPS COLLECTION BOX - BLUE BOX", "note": "ON 12/24 AND 12/31, THIS BOX MAY BE COLLECTED AS EARLY AS 12 NOON.", "nsi_id": "unitedstatespostalservice-a77078", "operator": "United States Postal Service", "operator:short": "USPS", "operator:type": "public", "operator:wikidata": "Q668687", "ref": "9430500016"}, "type": "Feature"}
{"dataset_attributes": {"@spider": "usps_collection_boxes", "spider:collection_time": "2023-12-22T08:24:39.252337"}, "geometry": {"coordinates": [-122.174333987, 37.425391685], "type": "Point"}, "id": "v_r9WD8ieg64TtGD_MAsXzGd4xU=", "properties": {"@spider": "usps_collection_boxes", "addr:city": "PALO ALTO", "addr:country": "US", "addr:full": "400 SANTA TERESA ST", "addr:postcode": "94305", "addr:state": "CA", "amenity": "post_box", "brand": "United States Postal Service", "brand:wikidata": "Q668687", "collection_times": "Mo-Fr 17:00; Sa 13:15", "name": "USPS COLLECTION BOX - BLUE BOX", "note": "ON 12/24 AND 12/31, THIS BOX MAY BE COLLECTED AS EARLY AS 12 NOON.", "nsi_id": "unitedstatespostalservice-a77078", "operator": "United States Postal Service", "operator:short": "USPS", "operator:type": "public", "operator:wikidata": "Q668687", "ref": "9430500021"}, "type": "Feature"}
{"dataset_attributes": {"@spider": "usps_collection_boxes", "spider:collection_time": "2023-12-22T08:24:39.252337"}, "geometry": {"coordinates": [-122.157608, 37.422143], "type": "Point"}, "id": "yt5ep9yM3HA-BwGxwk5vSpcTR6E=", "properties": {"@spider": "usps_collection_boxes", "addr:city": "PALO ALTO", "addr:country": "US", "addr:full": "704 CAMPUS DR", "addr:postcode": "94305", "addr:state": "CA", "amenity": "post_box", "brand": "United States Postal Service", "brand:wikidata": "Q668687", "collection_times": "Mo-Sa 13:30", "name": "USPS COLLECTION BOX - BLUE BOX", "note": "ON 12/24 AND 12/31, THIS BOX MAY BE COLLECTED AS EARLY AS 12 NOON.", "nsi_id": "unitedstatespostalservice-a77078", "operator": "United States Postal Service", "operator:short": "USPS", "operator:type": "public", "operator:wikidata": "Q668687", "ref": "9430500023"}, "type": "Feature"}
{"dataset_attributes": {"@spider": "usps_collection_boxes", "spider:collection_time": "2023-12-22T08:24:39.252337"}, "geometry": {"coordinates": [-122.153474, 37.413645], "type": "Point"}, "id": "nNQ9wV_OZZUP6hK3u0Pvc0g4By4=", "properties": {"@spider": "usps_collection_boxes", "addr:city": "PALO ALTO", "addr:country": "US", "addr:full": "1 PETER COUTTS CIR", "addr:postcode": "94305", "addr:state": "CA", "amenity": "post_box", "brand": "United States Postal Service", "brand:wikidata": "Q668687", "collection_times": "Mo-Sa 14:30", "name": "USPS COLLECTION BOX - BLUE BOX", "note": "ON 12/24 AND 12/31, THIS BOX MAY BE COLLECTED AS EARLY AS 12 NOON.", "nsi_id": "unitedstatespostalservice-a77078", "operator": "United States Postal Service", "operator:short": "USPS", "operator:type": "public", "operator:wikidata": "Q668687", "ref": "9430500024"}, "type": "Feature"}
{"dataset_attributes": {"@spider": "usps_collection_boxes", "spider:collection_time": "2023-12-22T08:24:39.252337"}, "geometry": {"coordinates": [-122.150879, 37.426485], "type": "Point"}, "id": "j-_TsH1S3e5z8zaM8MojnwDSi9o=", "properties": {"@spider": "usps_collection_boxes", "addr:city": "PALO ALTO", "addr:country": "US", "addr:full": "62A ABRAMS CT", "addr:postcode": "94305", "addr:state": "CA", "amenity": "post_box", "brand": "United States Postal Service", "brand:wikidata": "Q668687", "collection_times": "Mo-Sa 14:30", "name": "USPS COLLECTION BOX - BLUE BOX", "note": "ON 12/24 AND 12/31, THIS BOX MAY BE COLLECTED AS EARLY AS 12 NOON.", "nsi_id": "unitedstatespostalservice-a77078", "operator": "United States Postal Service", "operator:short": "USPS", "operator:type": "public", "operator:wikidata": "Q668687", "ref": "9430500027"}, "type": "Feature"}
{"dataset_attributes": {"@spider": "usps_collection_boxes", "spider:collection_time": "2023-12-22T08:24:39.252337"}, "geometry": {"coordinates": [-122.159556, 37.413526], "type": "Point"}, "id": "FHZZyyKjOT7eMP0qMo35XUggcG4=", "properties": {"@spider": "usps_collection_boxes", "addr:city": "PALO ALTO", "addr:country": "US", "addr:full": "793 MAYFIELD AVE", "addr:postcode": "94305", "addr:state": "CA", "amenity": "post_box", "brand": "United States Postal Service", "brand:wikidata": "Q668687", "collection_times": "Mo-Sa 14:30", "name": "USPS COLLECTION BOX - BLUE BOX", "note": "ON 12/24 AND 12/31, THIS BOX MAY BE COLLECTED AS EARLY AS 12 NOON.", "nsi_id": "unitedstatespostalservice-a77078", "operator": "United States Postal Service", "operator:short": "USPS", "operator:type": "public", "operator:wikidata": "Q668687", "ref": "9430500031"}, "type": "Feature"}
{"dataset_attributes": {"@spider": "usps_collection_boxes", "spider:collection_time": "2023-12-22T08:24:39.252337"}, "geometry": {"coordinates": [-122.160886, 37.419021], "type": "Point"}, "id": "QSTEcUFm9es6ucPhVbM1etnVGXg=", "properties": {"@spider": "usps_collection_boxes", "addr:city": "PALO ALTO", "addr:country": "US", "addr:full": "720 ALVARADO ROW", "addr:postcode": "94305", "addr:state": "CA", "amenity": "post_box", "brand": "United States Postal Service", "brand:wikidata": "Q668687", "collection_times": "Mo-Sa 13:15", "name": "USPS COLLECTION BOX - BLUE BOX", "note": "ON 12/24 AND 12/31, THIS BOX MAY BE COLLECTED AS EARLY AS 12 NOON.", "nsi_id": "unitedstatespostalservice-a77078", "operator": "United States Postal Service", "operator:short": "USPS", "operator:type": "public", "operator:wikidata": "Q668687", "ref": "9430500033"}, "type": "Feature"}
{"dataset_attributes": {"@spider": "usps_collection_boxes", "spider:collection_time": "2023-12-22T08:24:39.252337"}, "geometry": {"coordinates": [-122.1669359452, 37.4243488388], "type": "Point"}, "id": "TDv91EloNgzfxkQWyYKXWGxRt2A=", "properties": {"@spider": "usps_collection_boxes", "addr:city": "PALO ALTO", "addr:country": "US", "addr:full": "1 WHITE PLZ", "addr:postcode": "94305", "addr:state": "CA", "amenity": "post_box", "brand": "United States Postal Service", "brand:wikidata": "Q668687", "collection_times": "Mo-Fr 17:00", "name": "USPS COLLECTION BOX - PO LOBBY", "note": "ON 12/24 AND 12/31, THIS BOX MAY BE COLLECTED AS EARLY AS 12 NOON.", "nsi_id": "unitedstatespostalservice-a77078", "operator": "United States Postal Service", "operator:short": "USPS", "operator:type": "public", "operator:wikidata": "Q668687", "ref": "9430500041"}, "type": "Feature"}
{"dataset_attributes": {"@spider": "usps_collection_boxes", "spider:collection_time": "2023-12-22T08:24:39.252337"}, "geometry": {"coordinates": [-122.169245, 37.424302], "type": "Point"}, "id": "Mbogdmng3j3o1etefWvzaCB0UlU=", "properties": {"@spider": "usps_collection_boxes", "addr:city": "PALO ALTO", "addr:country": "US", "addr:full": "1 WHITE PLZ", "addr:postcode": "94305", "addr:state": "CA", "amenity": "post_box", "brand": "United States Postal Service", "brand:wikidata": "Q668687", "collection_times": "Mo-Fr 17:00; Sa 13:00", "name": "USPS COLLECTION BOX - BLUE BOX", "note": "ON 12/24 AND 12/31, THIS BOX MAY BE COLLECTED AS EARLY AS 12 NOON.", "nsi_id": "unitedstatespostalservice-a77078", "operator": "United States Postal Service", "operator:short": "USPS", "operator:type": "public", "operator:wikidata": "Q668687", "ref": "9430500042"}, "type": "Feature"}
{"dataset_attributes": {"@spider": "usps_collection_boxes", "spider:collection_time": "2023-12-22T08:24:39.252337"}, "geometry": {"coordinates": [-122.162148, 37.424706], "type": "Point"}, "id": "HXcvSmrpRKO4ImZexkWIKNDjnsk=", "properties": {"@spider": "usps_collection_boxes", "addr:city": "PALO ALTO", "addr:country": "US", "addr:full": "500 ESCONDIDO MALL", "addr:postcode": "94305", "addr:state": "CA", "amenity": "post_box", "brand": "United States Postal Service", "brand:wikidata": "Q668687", "collection_times": "Mo-Fr 13:30; Sa 13:45", "name": "USPS COLLECTION BOX - BLUE BOX", "note": "ON 12/24 AND 12/31, THIS BOX MAY BE COLLECTED AS EARLY AS 12 NOON.", "nsi_id": "unitedstatespostalservice-a77078", "operator": "United States Postal Service", "operator:short": "USPS", "operator:type": "public", "operator:wikidata": "Q668687", "ref": "9430500050"}, "type": "Feature"}
{"dataset_attributes": {"@spider": "usps_collection_boxes", "spider:collection_time": "2023-12-22T08:24:39.252337"}, "geometry": {"coordinates": [-122.1691272445, 37.4245440891], "type": "Point"}, "id": "hhR0sx98G2b-dpv1zy6kqkEnzus=", "properties": {"@spider": "usps_collection_boxes", "addr:city": "PALO ALTO", "addr:country": "US", "addr:full": "531 LASUEN MALL", "addr:postcode": "94305", "addr:state": "CA", "amenity": "post_box", "brand": "United States Postal Service", "brand:wikidata": "Q668687", "collection_times": "Mo-Fr 17:00", "name": "USPS COLLECTION BOX - PO LOBBY", "note": "ON 12/24 AND 12/31, THIS BOX MAY BE COLLECTED AS EARLY AS 12 NOON.", "nsi_id": "unitedstatespostalservice-a77078", "operator": "United States Postal Service", "operator:short": "USPS", "operator:type": "public", "operator:wikidata": "Q668687", "ref": "9430500051"}, "type": "Feature"}
{"dataset_attributes": {"@spider": "usps_collection_boxes", "spider:collection_time": "2023-12-22T08:24:39.252337"}, "geometry": {"coordinates": [-122.125868, 37.414743], "type": "Point"}, "id": "fYiespez_EJk5uhDqkJWuSCu1rg=", "properties": {"@spider": "usps_collection_boxes", "addr:city": "PALO ALTO", "addr:country": "US", "addr:full": "4085 EL CAMINO WAY", "addr:postcode": "94306", "addr:state": "CA", "amenity": "post_box", "brand": "United States Postal Service", "brand:wikidata": "Q668687", "collection_times": "Mo-Sa 14:00", "name": "USPS COLLECTION BOX - BLUE BOX", "note": "ON 12/24 AND 12/31, THIS BOX MAY BE COLLECTED AS EARLY AS 12 NOON.", "nsi_id": "unitedstatespostalservice-a77078", "operator": "United States Postal Service", "operator:short": "USPS", "operator:type": "public", "operator:wikidata": "Q668687", "ref": "9430600001"}, "type": "Feature"}
{"dataset_attributes": {"@spider": "usps_collection_boxes", "spider:collection_time": "2023-12-22T08:24:39.252337"}, "geometry": {"coordinates": [-122.134248, 37.415089], "type": "Point"}, "id": "Nk0gr40AFE70wvZfK3CJyWRtNQs=", "properties": {"@spider": "usps_collection_boxes", "addr:city": "PALO ALTO", "addr:country": "US", "addr:full": "3711 LA DONNA AVE", "addr:postcode": "94306", "addr:state": "CA", "amenity": "post_box", "brand": "United States Postal Service", "brand:wikidata": "Q668687", "collection_times": "Mo-Sa 14:15", "name": "USPS COLLECTION BOX - BLUE BOX", "note": "ON 12/24 AND 12/31, THIS BOX MAY BE COLLECTED AS EARLY AS 12 NOON.", "nsi_id": "unitedstatespostalservice-a77078", "operator": "United States Postal Service", "operator:short": "USPS", "operator:type": "public", "operator:wikidata": "Q668687", "ref": "9430600002"}, "type": "Feature"}
{"dataset_attributes": {"@spider": "usps_collection_boxes", "spider:collection_time": "2023-12-22T08:24:39.252337"}, "geometry": {"coordinates": [-122.144136199, 37.42877039], "type": "Point"}, "id": "mkI5SCdR-8J3NCe9v2Gv05_d0Wc=", "properties": {"@spider": "usps_collection_boxes", "addr:city": "PALO ALTO", "addr:country": "US", "addr:full": "265 CAMBRIDGE AVE", "addr:postcode": "94306", "addr:state": "CA", "amenity": "post_box", "brand": "United States Postal Service", "brand:wikidata": "Q668687", "collection_times": "Mo-Fr 17:00; Sa 14:00", "name": "USPS COLLECTION BOX - BLUE BOX", "note": "ON 12/24 AND 12/31, THIS BOX MAY BE COLLECTED AS EARLY AS 12 NOON.", "nsi_id": "unitedstatespostalservice-a77078", "operator": "United States Postal Service", "operator:short": "USPS", "operator:type": "public", "operator:wikidata": "Q668687", "ref": "9430600003"}, "type": "Feature"}
{"dataset_attributes": {"@spider": "usps_collection_boxes", "spider:collection_time": "2023-12-22T08:24:39.252337"}, "geometry": {"coordinates": [-122.138499, 37.421017], "type": "Point"}, "id": "bsk869xfHvVXz2IUcIzFy7KU0_E=", "properties": {"@spider": "usps_collection_boxes", "addr:city": "PALO ALTO", "addr:country": "US", "addr:full": "3200 EL CAMINO REAL", "addr:postcode": "94306", "addr:state": "CA", "amenity": "post_box", "brand": "United States Postal Service", "brand:wikidata": "Q668687", "collection_times": "Mo-Sa 14:15", "name": "USPS COLLECTION BOX - BLUE BOX", "note": "ON 12/24 AND 12/31, THIS BOX MAY BE COLLECTED AS EARLY AS 12 NOON.", "nsi_id": "unitedstatespostalservice-a77078", "operator": "United States Postal Service", "operator:short": "USPS", "operator:type": "public", "operator:wikidata": "Q668687", "ref": "9430600004"}, "type": "Feature"}
{"dataset_attributes": {"@spider": "usps_collection_boxes", "spider:collection_time": "2023-12-22T08:24:39.252337"}, "geometry": {"coordinates": [-122.13412, 37.430426], "type": "Point"}, "id": "jmPJ2ykDvHg_P0jVEENZSNeLgGI=", "properties": {"@spider": "usps_collection_boxes", "addr:city": "PALO ALTO", "addr:country": "US", "addr:full": "2600 WAVERLEY ST", "addr:postcode": "94306", "addr:state": "CA", "amenity": "post_box", "brand": "United States Postal Service", "brand:wikidata": "Q668687", "collection_times": "Mo-Sa 14:15", "name": "USPS COLLECTION BOX - BLUE BOX", "note": "ON 12/24 AND 12/31, THIS BOX MAY BE COLLECTED AS EARLY AS 12 NOON.", "nsi_id": "unitedstatespostalservice-a77078", "operator": "United States Postal Service", "operator:short": "USPS", "operator:type": "public", "operator:wikidata": "Q668687", "ref": "9430600010"}, "type": "Feature"}
{"dataset_attributes": {"@spider": "usps_collection_boxes", "spider:collection_time": "2023-12-22T08:24:39.252337"}, "geometry": {"coordinates": [-122.144136199, 37.42877039], "type": "Point"}, "id": "JV2vYZctYPNdTSgLkWiy313vDaw=", "properties": {"@spider": "usps_collection_boxes", "addr:city": "PALO ALTO", "addr:country": "US", "addr:full": "265 CAMBRIDGE AVE", "addr:postcode": "94306", "addr:state": "CA", "amenity": "post_box", "brand": "United States Postal Service", "brand:wikidata": "Q668687", "collection_times": "Mo-Fr 17:00; Sa 14:00", "name": "USPS COLLECTION BOX - BLUE BOX", "note": "ON 12/24 AND 12/31, THIS BOX MAY BE COLLECTED AS EARLY AS 12 NOON.", "nsi_id": "unitedstatespostalservice-a77078", "operator": "United States Postal Service", "operator:short": "USPS", "operator:type": "public", "operator:wikidata": "Q668687", "ref": "9430600012"}, "type": "Feature"}
{"dataset_attributes": {"@spider": "usps_collection_boxes", "spider:collection_time": "2023-12-22T08:24:39.252337"}, "geometry": {"coordinates": [-122.150715, 37.42232], "type": "Point"}, "id": "7NIY7NaDGjRLvNln0etkQGxO1vQ=", "properties": {"@spider": "usps_collection_boxes", "addr:city": "PALO ALTO", "addr:country": "US", "addr:full": "2201 PRINCETON ST", "addr:postcode": "94306", "addr:state": "CA", "amenity": "post_box", "brand": "United States Postal Service", "brand:wikidata": "Q668687", "collection_times": "Mo-Sa 13:00", "name": "USPS COLLECTION BOX - BLUE BOX", "note": "ON 12/24 AND 12/31, THIS BOX MAY BE COLLECTED AS EARLY AS 12 NOON.", "nsi_id": "unitedstatespostalservice-a77078", "operator": "United States Postal Service", "operator:short": "USPS", "operator:type": "public", "operator:wikidata": "Q668687", "ref": "9430600013"}, "type": "Feature"}
{"dataset_attributes": {"@spider": "usps_collection_boxes", "spider:collection_time": "2023-12-22T08:24:39.252337"}, "geometry": {"coordinates": [-122.118083, 37.426163], "type": "Point"}, "id": "2VqTl4O9aUfiPWl5ThB2YfS1Aic=", "properties": {"@spider": "usps_collection_boxes", "addr:city": "PALO ALTO", "addr:country": "US", "addr:full": "3398 MIDDLEFIELD RD", "addr:postcode": "94306", "addr:state": "CA", "amenity": "post_box", "brand": "United States Postal Service", "brand:wikidata": "Q668687", "collection_times": "Mo-Sa 14:30", "name": "USPS COLLECTION BOX - BLUE BOX", "note": "ON 12/24 AND 12/31, THIS BOX MAY BE COLLECTED AS EARLY AS 12 NOON.", "nsi_id": "unitedstatespostalservice-a77078", "operator": "United States Postal Service", "operator:short": "USPS", "operator:type": "public", "operator:wikidata": "Q668687", "ref": "9430600016"}, "type": "Feature"}
{"dataset_attributes": {"@spider": "usps_collection_boxes", "spider:collection_time": "2023-12-22T08:24:39.252337"}, "geometry": {"coordinates": [-122.124934, 37.405931], "type": "Point"}, "id": "P4ekUsbbncO61WM37Z3rpmd8y2Q=", "properties": {"@spider": "usps_collection_boxes", "addr:city": "PALO ALTO", "addr:country": "US", "addr:full": "633 LOS PALOS AVE", "addr:postcode": "94306", "addr:state": "CA", "amenity": "post_box", "brand": "United States Postal Service", "brand:wikidata": "Q668687", "collection_times": "Mo-Sa 14:00", "name": "USPS COLLECTION BOX - BLUE BOX", "note": "ON 12/24 AND 12/31, THIS BOX MAY BE COLLECTED AS EARLY AS 12 NOON.", "nsi_id": "unitedstatespostalservice-a77078", "operator": "United States Postal Service", "operator:short": "USPS", "operator:type": "public", "operator:wikidata": "Q668687", "ref": "9430600018"}, "type": "Feature"}
{"dataset_attributes": {"@spider": "usps_collection_boxes", "spider:collection_time": "2023-12-22T08:24:39.252337"}, "geometry": {"coordinates": [-122.110284, 37.41153], "type": "Point"}, "id": "D2n27Okv3M-He_oftRxExcvIP64=", "properties": {"@spider": "usps_collection_boxes", "addr:city": "PALO ALTO", "addr:country": "US", "addr:full": "219 FERNE AVE", "addr:postcode": "94306", "addr:state": "CA", "amenity": "post_box", "brand": "United States Postal Service", "brand:wikidata": "Q668687", "collection_times": "Mo-Sa 13:15", "name": "USPS COLLECTION BOX - BLUE BOX", "note": "ON 12/24 AND 12/31, THIS BOX MAY BE COLLECTED AS EARLY AS 12 NOON.", "nsi_id": "unitedstatespostalservice-a77078", "operator": "United States Postal Service", "operator:short": "USPS", "operator:type": "public", "operator:wikidata": "Q668687", "ref": "9430600023"}, "type": "Feature"}
{"dataset_attributes": {"@spider": "usps_collection_boxes", "spider:collection_time": "2023-12-22T08:24:39.252337"}, "geometry": {"coordinates": [-122.133932, 37.408446], "type": "Point"}, "id": "FWJbfXcLtFbwQFSPTGsf6Jvdwv8=", "properties": {"@spider": "usps_collection_boxes", "addr:city": "PALO ALTO", "addr:country": "US", "addr:full": "4001 LAGUNA WAY", "addr:postcode": "94306", "addr:state": "CA", "amenity": "post_box", "brand": "United States Postal Service", "brand:wikidata": "Q668687", "collection_times": "Mo-Sa 14:15", "name": "USPS COLLECTION BOX - BLUE BOX", "note": "ON 12/24 AND 12/31, THIS BOX MAY BE COLLECTED AS EARLY AS 12 NOON.", "nsi_id": "unitedstatespostalservice-a77078", "operator": "United States Postal Service", "operator:short": "USPS", "operator:type": "public", "operator:wikidata": "Q668687", "ref": "9430600026"}, "type": "Feature"}
{"dataset_attributes": {"@spider": "usps_collection_boxes", "spider:collection_time": "2023-12-22T08:24:39.252337"}, "geometry": {"coordinates": [-122.120879, 37.4151], "type": "Point"}, "id": "xBKNzHWosEed8F_ocsUCa54QTM0=", "properties": {"@spider": "usps_collection_boxes", "addr:city": "PALO ALTO", "addr:country": "US", "addr:full": "220 TENNESSEE LN", "addr:postcode": "94306", "addr:state": "CA", "amenity": "post_box", "brand": "United States Postal Service", "brand:wikidata": "Q668687", "collection_times": "Mo-Sa 13:30", "name": "USPS COLLECTION BOX - BLUE BOX", "note": "ON 12/24 AND 12/31, THIS BOX MAY BE COLLECTED AS EARLY AS 12 NOON.", "nsi_id": "unitedstatespostalservice-a77078", "operator": "United States Postal Service", "operator:short": "USPS", "operator:type": "public", "operator:wikidata": "Q668687", "ref": "9430600027"}, "type": "Feature"}
{"dataset_attributes": {"@spider": "usps_collection_boxes", "spider:collection_time": "2023-12-22T08:24:39.252337"}, "geometry": {"coordinates": [-122.115033, 37.417217], "type": "Point"}, "id": "1-UtDBtQ6fq01vjGvRHuHJR0OuE=", "properties": {"@spider": "usps_collection_boxes", "addr:city": "PALO ALTO", "addr:country": "US", "addr:full": "330 E CHARLESTON RD", "addr:postcode": "94306", "addr:state": "CA", "amenity": "post_box", "brand": "United States Postal Service", "brand:wikidata": "Q668687", "collection_times": "Mo-Sa 13:15", "name": "USPS COLLECTION BOX - BLUE BOX", "note": "ON 12/24 AND 12/31, THIS BOX MAY BE COLLECTED AS EARLY AS 12 NOON.", "nsi_id": "unitedstatespostalservice-a77078", "operator": "United States Postal Service", "operator:short": "USPS", "operator:type": "public", "operator:wikidata": "Q668687", "ref": "9430600034"}, "type": "Feature"}
{"dataset_attributes": {"@spider": "usps_collection_boxes", "spider:collection_time": "2023-12-22T08:24:39.252337"}, "geometry": {"coordinates": [-122.151022, 37.432909], "type": "Point"}, "id": "fmJ6fgJDamLRqRO1QfYTg-NMjWE=", "properties": {"@spider": "usps_collection_boxes", "addr:city": "PALO ALTO", "addr:country": "US", "addr:full": "400 MIRAMONTE AVE", "addr:postcode": "94306", "addr:state": "CA", "amenity": "post_box", "brand": "United States Postal Service", "brand:wikidata": "Q668687", "collection_times": "Mo-Fr 15:15; Sa 13:00", "name": "USPS COLLECTION BOX - BLUE BOX", "note": "ON 12/24 AND 12/31, THIS BOX MAY BE COLLECTED AS EARLY AS 12 NOON.", "nsi_id": "unitedstatespostalservice-a77078", "operator": "United States Postal Service", "operator:short": "USPS", "operator:type": "public", "operator:wikidata": "Q668687", "ref": "9430600037"}, "type": "Feature"}
{"dataset_attributes": {"@spider": "usps_collection_boxes", "spider:collection_time": "2023-12-22T08:24:39.252337"}, "geometry": {"coordinates": [-122.149039, 37.424336], "type": "Point"}, "id": "GUb5Czf1Tu448khxbJUsMCBNwrw=", "properties": {"@spider": "usps_collection_boxes", "addr:city": "PALO ALTO", "addr:country": "US", "addr:full": "2200 WILLIAMS ST", "addr:postcode": "94306", "addr:state": "CA", "amenity": "post_box", "brand": "United States Postal Service", "brand:wikidata": "Q668687", "collection_times": "Mo-Sa 13:00", "name": "USPS COLLECTION BOX - BLUE BOX", "note": "ON 12/24 AND 12/31, THIS BOX MAY BE COLLECTED AS EARLY AS 12 NOON.", "nsi_id": "unitedstatespostalservice-a77078", "operator": "United States Postal Service", "operator:short": "USPS", "operator:type": "public", "operator:wikidata": "Q668687", "ref": "9430600038"}, "type": "Feature"}
{"dataset_attributes": {"@spider": "usps_collection_boxes", "spider:collection_time": "2023-12-22T08:24:39.252337"}, "geometry": {"coordinates": [-122.133247, 37.427504], "type": "Point"}, "id": "bhawd3KJBAdaEvavmk3bHqjhQgQ=", "properties": {"@spider": "usps_collection_boxes", "addr:city": "PALO ALTO", "addr:country": "US", "addr:full": "2810 BRYANT ST", "addr:postcode": "94306", "addr:state": "CA", "amenity": "post_box", "brand": "United States Postal Service", "brand:wikidata": "Q668687", "collection_times": "Mo-Sa 14:15", "name": "USPS COLLECTION BOX - BLUE BOX", "note": "ON 12/24 AND 12/31, THIS BOX MAY BE COLLECTED AS EARLY AS 12 NOON.", "nsi_id": "unitedstatespostalservice-a77078", "operator": "United States Postal Service", "operator:short": "USPS", "operator:type": "public", "operator:wikidata": "Q668687", "ref": "9430600040"}, "type": "Feature"}
{"dataset_attributes": {"@spider": "usps_collection_boxes", "spider:collection_time": "2023-12-22T08:24:39.252337"}, "geometry": {"coordinates": [-122.127185, 37.426041], "type": "Point"}, "id": "0lyuyeFrprV0IBOe4u8350htz2E=", "properties": {"@spider": "usps_collection_boxes", "addr:city": "PALO ALTO", "addr:country": "US", "addr:full": "3140 WAVERLEY ST", "addr:postcode": "94306", "addr:state": "CA", "amenity": "post_box", "brand": "United States Postal Service", "brand:wikidata": "Q668687", "collection_times": "Mo-Sa 14:15", "name": "USPS COLLECTION BOX - BLUE BOX", "note": "ON 12/24 AND 12/31, THIS BOX MAY BE COLLECTED AS EARLY AS 12 NOON.", "nsi_id": "unitedstatespostalservice-a77078", "operator": "United States Postal Service", "operator:short": "USPS", "operator:type": "public", "operator:wikidata": "Q668687", "ref": "9430600042"}, "type": "Feature"}
{"dataset_attributes": {"@spider": "usps_collection_boxes", "spider:collection_time": "2023-12-22T08:24:39.252337"}, "geometry": {"coordinates": [-122.122899, 37.429472], "type": "Point"}, "id": "j1LBI3Ff9auYEbqFCQ_eoo-_Zc0=", "properties": {"@spider": "usps_collection_boxes", "addr:city": "PALO ALTO", "addr:country": "US", "addr:full": "3175 MIDDLEFIELD RD", "addr:postcode": "94306", "addr:state": "CA", "amenity": "post_box", "brand": "United States Postal Service", "brand:wikidata": "Q668687", "collection_times": "Mo-Sa 14:30", "name": "USPS COLLECTION BOX - BLUE BOX", "note": "ON 12/24 AND 12/31, THIS BOX MAY BE COLLECTED AS EARLY AS 12 NOON.", "nsi_id": "unitedstatespostalservice-a77078", "operator": "United States Postal Service", "operator:short": "USPS", "operator:type": "public", "operator:wikidata": "Q668687", "ref": "9430600043"}, "type": "Feature"}
{"dataset_attributes": {"@spider": "usps_collection_boxes", "spider:collection_time": "2023-12-22T08:24:39.252337"}, "geometry": {"coordinates": [-122.11832, 37.409049], "type": "Point"}, "id": "EAzn7o7OPRm2CapX82ugRh308Fg=", "properties": {"@spider": "usps_collection_boxes", "addr:city": "PALO ALTO", "addr:country": "US", "addr:full": "4290 WILKIE WAY", "addr:postcode": "94306", "addr:state": "CA", "amenity": "post_box", "brand": "United States Postal Service", "brand:wikidata": "Q668687", "collection_times": "Mo-Sa 13:30", "name": "USPS COLLECTION BOX - BLUE BOX", "note": "ON 12/24 AND 12/31, THIS BOX MAY BE COLLECTED AS EARLY AS 12 NOON.", "nsi_id": "unitedstatespostalservice-a77078", "operator": "United States Postal Service", "operator:short": "USPS", "operator:type": "public", "operator:wikidata": "Q668687", "ref": "9430600044"}, "type": "Feature"}
{"dataset_attributes": {"@spider": "usps_collection_boxes", "spider:collection_time": "2023-12-22T08:24:39.252337"}, "geometry": {"coordinates": [-122.121948, 37.419375], "type": "Point"}, "id": "A71ZP7FMozbuFNkkSQvGy8NGdV0=", "properties": {"@spider": "usps_collection_boxes", "addr:city": "PALO ALTO", "addr:country": "US", "addr:full": "201 E MEADOW DR", "addr:postcode": "94306", "addr:state": "CA", "amenity": "post_box", "brand": "United States Postal Service", "brand:wikidata": "Q668687", "collection_times": "Mo-Sa 13:30", "name": "USPS COLLECTION BOX - BLUE BOX", "note": "ON 12/24 AND 12/31, THIS BOX MAY BE COLLECTED AS EARLY AS 12 NOON.", "nsi_id": "unitedstatespostalservice-a77078", "operator": "United States Postal Service", "operator:short": "USPS", "operator:type": "public", "operator:wikidata": "Q668687", "ref": "9430600046"}, "type": "Feature"}
{"dataset_attributes": {"@spider": "usps_collection_boxes", "spider:collection_time": "2023-12-22T08:24:39.252337"}, "geometry": {"coordinates": [-122.103765, 37.41588], "type": "Point"}, "id": "NKdQOwdQJTvSrnlpo0ADW9PHCAE=", "properties": {"@spider": "usps_collection_boxes", "addr:city": "PALO ALTO", "addr:country": "US", "addr:full": "699 SAN ANTONIO RD", "addr:postcode": "94306", "addr:state": "CA", "amenity": "post_box", "brand": "United States Postal Service", "brand:wikidata": "Q668687", "collection_times": "Mo-Sa 13:00", "name": "USPS COLLECTION BOX - BLUE BOX", "note": "ON 12/24 AND 12/31, THIS BOX MAY BE COLLECTED AS EARLY AS 12 NOON.", "nsi_id": "unitedstatespostalservice-a77078", "operator": "United States Postal Service", "operator:short": "USPS", "operator:type": "public", "operator:wikidata": "Q668687", "ref": "9430600047"}, "type": "Feature"}
{"dataset_attributes": {"@spider": "usps_collection_boxes", "spider:collection_time": "2023-12-22T08:24:39.252337"}, "geometry": {"coordinates": [-122.129619, 37.433903], "type": "Point"}, "id": "7vFkhYbwInriw5_acCGXqolIPv4=", "properties": {"@spider": "usps_collection_boxes", "addr:city": "PALO ALTO", "addr:country": "US", "addr:full": "2675 MIDDLEFIELD RD", "addr:postcode": "94306", "addr:state": "CA", "amenity": "post_box", "brand": "United States Postal Service", "brand:wikidata": "Q668687", "collection_times": "Mo-Fr 15:00; Sa 17:00", "name": "USPS COLLECTION BOX - BLUE BOX", "note": "ON 12/24 AND 12/31, THIS BOX MAY BE COLLECTED AS EARLY AS 12 NOON.", "nsi_id": "unitedstatespostalservice-a77078", "operator": "United States Postal Service", "operator:short": "USPS", "operator:type": "public", "operator:wikidata": "Q668687", "ref": "9430600048"}, "type": "Feature"}
{"dataset_attributes": {"@spider": "usps_collection_boxes", "spider:collection_time": "2023-12-22T08:24:39.252337"}, "geometry": {"coordinates": [-122.154255, 37.41811], "type": "Point"}, "id": "ysTMPooFoibO_Ig1efZKLwMNmxg=", "properties": {"@spider": "usps_collection_boxes", "addr:city": "PALO ALTO", "addr:country": "US", "addr:full": "1585 COLLEGE AVE", "addr:postcode": "94306", "addr:state": "CA", "amenity": "post_box", "brand": "United States Postal Service", "brand:wikidata": "Q668687", "collection_times": "Mo-Sa 13:00", "name": "USPS COLLECTION BOX - BLUE BOX", "note": "ON 12/24 AND 12/31, THIS BOX MAY BE COLLECTED AS EARLY AS 12 NOON.", "nsi_id": "unitedstatespostalservice-a77078", "operator": "United States Postal Service", "operator:short": "USPS", "operator:type": "public", "operator:wikidata": "Q668687", "ref": "9430600049"}, "type": "Feature"}
{"dataset_attributes": {"@spider": "usps_collection_boxes", "spider:collection_time": "2023-12-22T08:24:39.252337"}, "geometry": {"coordinates": [-122.1243961, 37.412213], "type": "Point"}, "id": "cz7LHQvv8eZVbNfUrJoKSL8xkv4=", "properties": {"@spider": "usps_collection_boxes", "addr:city": "PALO ALTO", "addr:country": "US", "addr:full": "4201 MCKELLAR LN", "addr:postcode": "94306", "addr:state": "CA", "amenity": "post_box", "brand": "United States Postal Service", "brand:wikidata": "Q668687", "collection_times": "Mo-Sa 14:00", "name": "USPS COLLECTION BOX - BLUE BOX", "note": "ON 12/24 AND 12/31, THIS BOX MAY BE COLLECTED AS EARLY AS 12 NOON.", "nsi_id": "unitedstatespostalservice-a77078", "operator": "United States Postal Service", "operator:short": "USPS", "operator:type": "public", "operator:wikidata": "Q668687", "ref": "9430600051"}, "type": "Feature"}
{"dataset_attributes": {"@spider": "usps_collection_boxes", "spider:collection_time": "2023-12-22T08:24:39.252337"}, "geometry": {"coordinates": [-122.154247, 37.433205], "type": "Point"}, "id": "CIJv8LUNFiOY6x-bdVQBpC-30Lo=", "properties": {"@spider": "usps_collection_boxes", "addr:city": "PALO ALTO", "addr:country": "US", "addr:full": "25 CHURCHILL AVE", "addr:postcode": "94306", "addr:state": "CA", "amenity": "post_box", "brand": "United States Postal Service", "brand:wikidata": "Q668687", "collection_times": "Mo-Fr 16:15; Sa 11:00", "name": "USPS COLLECTION BOX - BLUE BOX", "note": "ON 12/24 AND 12/31, THIS BOX MAY BE COLLECTED AS EARLY AS 12 NOON.", "nsi_id": "unitedstatespostalservice-a77078", "operator": "United States Postal Service", "operator:short": "USPS", "operator:type": "public", "operator:wikidata": "Q668687", "ref": "9430600056"}, "type": "Feature"}
{"dataset_attributes": {"@spider": "usps_collection_boxes", "spider:collection_time": "2023-12-22T08:24:39.252337"}, "geometry": {"coordinates": [-122.113414, 37.419307], "type": "Point"}, "id": "CgXd11El-YzMbsFPOxfmjk2M_ho=", "properties": {"@spider": "usps_collection_boxes", "addr:city": "PALO ALTO", "addr:country": "US", "addr:full": "455 E CHARLESTON RD", "addr:postcode": "94306", "addr:state": "CA", "amenity": "post_box", "brand": "United States Postal Service", "brand:wikidata": "Q668687", "collection_times": "Mo-Sa 13:15", "name": "USPS COLLECTION BOX - BLUE BOX", "note": "ON 12/24 AND 12/31, THIS BOX MAY BE COLLECTED AS EARLY AS 12 NOON.", "nsi_id": "unitedstatespostalservice-a77078", "operator": "United States Postal Service", "operator:short": "USPS", "operator:type": "public", "operator:wikidata": "Q668687", "ref": "9430600058"}, "type": "Feature"}
{"dataset_attributes": {"@spider": "usps_collection_boxes", "spider:collection_time": "2023-12-22T08:24:39.252337"}, "geometry": {"coordinates": [-122.149291, 37.431011], "type": "Point"}, "id": "YE7KfKhoHrfp0EV3aOR54HWNqHg=", "properties": {"@spider": "usps_collection_boxes", "addr:city": "PALO ALTO", "addr:country": "US", "addr:full": "1810 BIRCH ST", "addr:postcode": "94306", "addr:state": "CA", "amenity": "post_box", "brand": "United States Postal Service", "brand:wikidata": "Q668687", "collection_times": "Mo-Sa 13:00", "name": "USPS COLLECTION BOX - BLUE BOX", "note": "ON 12/24 AND 12/31, THIS BOX MAY BE COLLECTED AS EARLY AS 12 NOON.", "nsi_id": "unitedstatespostalservice-a77078", "operator": "United States Postal Service", "operator:short": "USPS", "operator:type": "public", "operator:wikidata": "Q668687", "ref": "9430600060"}, "type": "Feature"}
{"dataset_attributes": {"@spider": "usps_collection_boxes", "spider:collection_time": "2023-12-22T08:24:39.252337"}, "geometry": {"coordinates": [-122.128155, 37.403837], "type": "Point"}, "id": "DvY6SCNUNssJYMu1zrJS6VNGLAc=", "properties": {"@spider": "usps_collection_boxes", "addr:city": "PALO ALTO", "addr:country": "US", "addr:full": "4191 DONALD DR", "addr:postcode": "94306", "addr:state": "CA", "amenity": "post_box", "brand": "United States Postal Service", "brand:wikidata": "Q668687", "collection_times": "Mo-Sa 13:45", "name": "USPS COLLECTION BOX - BLUE BOX", "note": "ON 12/24 AND 12/31, THIS BOX MAY BE COLLECTED AS EARLY AS 12 NOON.", "nsi_id": "unitedstatespostalservice-a77078", "operator": "United States Postal Service", "operator:short": "USPS", "operator:type": "public", "operator:wikidata": "Q668687", "ref": "9430600064"}, "type": "Feature"}
{"dataset_attributes": {"@spider": "usps_collection_boxes", "spider:collection_time": "2023-12-22T08:24:39.252337"}, "geometry": {"coordinates": [-122.136712, 37.420457], "type": "Point"}, "id": "IfMBYjXc5F7tsF1O5jRIyHmZltY=", "properties": {"@spider": "usps_collection_boxes", "addr:city": "PALO ALTO", "addr:country": "US", "addr:full": "3305 EL CAMINO REAL", "addr:postcode": "94306", "addr:state": "CA", "amenity": "post_box", "brand": "United States Postal Service", "brand:wikidata": "Q668687", "collection_times": "Mo-Sa 14:15", "name": "USPS COLLECTION BOX - BLUE BOX", "note": "ON 12/24 AND 12/31, THIS BOX MAY BE COLLECTED AS EARLY AS 12 NOON.", "nsi_id": "unitedstatespostalservice-a77078", "operator": "United States Postal Service", "operator:short": "USPS", "operator:type": "public", "operator:wikidata": "Q668687", "ref": "9430600066"}, "type": "Feature"}
{"dataset_attributes": {"@spider": "usps_collection_boxes", "spider:collection_time": "2023-12-22T08:24:39.252337"}, "geometry": {"coordinates": [-122.147419, 37.426449], "type": "Point"}, "id": "QX-ItxVvzWLbV941jNQNYePD2gA=", "properties": {"@spider": "usps_collection_boxes", "addr:city": "PALO ALTO", "addr:country": "US", "addr:full": "498 COLLEGE AVE", "addr:postcode": "94306", "addr:state": "CA", "amenity": "post_box", "brand": "United States Postal Service", "brand:wikidata": "Q668687", "collection_times": "Mo-Fr 13:00; Sa 15:00", "name": "USPS COLLECTION BOX - BLUE BOX", "note": "ON 12/24 AND 12/31, THIS BOX MAY BE COLLECTED AS EARLY AS 12 NOON.", "nsi_id": "unitedstatespostalservice-a77078", "operator": "United States Postal Service", "operator:short": "USPS", "operator:type": "public", "operator:wikidata": "Q668687", "ref": "9430600067"}, "type": "Feature"}
{"dataset_attributes": {"@spider": "usps_collection_boxes", "spider:collection_time": "2023-12-22T08:24:39.252337"}, "geometry": {"coordinates": [-122.129604, 37.433909], "type": "Point"}, "id": "kiOmsb1tWIUIEn67UVwI-_ob1ig=", "properties": {"@spider": "usps_collection_boxes", "addr:city": "PALO ALTO", "addr:country": "US", "addr:full": "2675 MIDDLEFIELD RD", "addr:postcode": "94306", "addr:state": "CA", "amenity": "post_box", "brand": "United States Postal Service", "brand:wikidata": "Q668687", "collection_times": "Mo-Fr 15:00; Sa 17:00", "name": "USPS COLLECTION BOX - BLUE BOX", "note": "ON 12/24 AND 12/31, THIS BOX MAY BE COLLECTED AS EARLY AS 12 NOON.", "nsi_id": "unitedstatespostalservice-a77078", "operator": "United States Postal Service", "operator:short": "USPS", "operator:type": "public", "operator:wikidata": "Q668687", "ref": "9430600075"}, "type": "Feature"}
{"dataset_attributes": {"@spider": "usps_collection_boxes", "spider:collection_time": "2023-12-22T08:24:39.252337"}, "geometry": {"coordinates": [-122.144136199, 37.42877039], "type": "Point"}, "id": "_L1WZy8ACI4D2SJ52CLN4y1PDfc=", "properties": {"@spider": "usps_collection_boxes", "addr:city": "PALO ALTO", "addr:country": "US", "addr:full": "265 CAMBRIDGE AVE", "addr:postcode": "94306", "addr:state": "CA", "amenity": "post_box", "brand": "United States Postal Service", "brand:wikidata": "Q668687", "collection_times": "Mo-Fr 17:00; Sa 14:00", "name": "USPS COLLECTION BOX - BLUE BOX", "note": "ON 12/24 AND 12/31, THIS BOX MAY BE COLLECTED AS EARLY AS 12 NOON.", "nsi_id": "unitedstatespostalservice-a77078", "operator": "United States Postal Service", "operator:short": "USPS", "operator:type": "public", "operator:wikidata": "Q668687", "ref": "9430600080"}, "type": "Feature"}
{"dataset_attributes": {"@spider": "usps_collection_boxes", "spider:collection_time": "2023-12-22T08:24:39.252337"}, "geometry": {"coordinates": [-122.144136199, 37.42877039], "type": "Point"}, "id": "P3qQDJwf6zu4f7scDv9GBdQ8Ams=", "properties": {"@spider": "usps_collection_boxes", "addr:city": "PALO ALTO", "addr:country": "US", "addr:full": "265 CAMBRIDGE AVE", "addr:postcode": "94306", "addr:state": "CA", "amenity": "post_box", "brand": "United States Postal Service", "brand:wikidata": "Q668687", "collection_times": "Mo-Fr 17:00", "name": "USPS COLLECTION BOX - PO LOBBY", "note": "ON 12/24 AND 12/31, THIS BOX MAY BE COLLECTED AS EARLY AS 12 NOON.", "nsi_id": "unitedstatespostalservice-a77078", "operator": "United States Postal Service", "operator:short": "USPS", "operator:type": "public", "operator:wikidata": "Q668687", "ref": "9430600085"}, "type": "Feature"}
{"dataset_attributes": {"@spider": "usps_collection_boxes", "spider:collection_time": "2023-12-22T08:24:39.252337"}, "geometry": {"coordinates": [-122.127465, 37.407972], "type": "Point"}, "id": "F-EkdkY7OFG0kl2v6u2ekRu_b3c=", "properties": {"@spider": "usps_collection_boxes", "addr:city": "PALO ALTO", "addr:country": "US", "addr:full": "400 MAYBELL", "addr:postcode": "94306", "addr:state": "CA", "amenity": "post_box", "brand": "United States Postal Service", "brand:wikidata": "Q668687", "collection_times": "Mo-Sa 13:45", "name": "USPS COLLECTION BOX - BLUE BOX", "note": "ON 12/24 AND 12/31, THIS BOX MAY BE COLLECTED AS EARLY AS 12 NOON.", "nsi_id": "unitedstatespostalservice-a77078", "operator": "United States Postal Service", "operator:short": "USPS", "operator:type": "public", "operator:wikidata": "Q668687", "ref": "9430600086"}, "type": "Feature"}
{"dataset_attributes": {"@spider": "usps_collection_boxes", "spider:collection_time": "2023-12-22T08:24:39.252337"}, "geometry": {"coordinates": [-122.144136199, 37.42877039], "type": "Point"}, "id": "-kMXtLCLQqfLOGHjQdifqLDkLIY=", "properties": {"@spider": "usps_collection_boxes", "addr:city": "PALO ALTO", "addr:country": "US", "addr:full": "265 CAMBRIDGE AVE", "addr:postcode": "94306", "addr:state": "CA", "amenity": "post_box", "brand": "United States Postal Service", "brand:wikidata": "Q668687", "collection_times": "Mo-Fr 17:00; Sa 14:00", "name": "USPS COLLECTION BOX - BLUE BOX", "note": "ON 12/24 AND 12/31, THIS BOX MAY BE COLLECTED AS EARLY AS 12 NOON.", "nsi_id": "unitedstatespostalservice-a77078", "operator": "United States Postal Service", "operator:short": "USPS", "operator:type": "public", "operator:wikidata": "Q668687", "ref": "9430600089"}, "type": "Feature"}
{"dataset_attributes": {"@spider": "usps_collection_boxes", "spider:collection_time": "2023-12-22T08:24:39.252337"}, "geometry": {"coordinates": [-122.130592, 37.41692], "type": "Point"}, "id": "9KzF3gte-9ao7UVgya1LIf5H8kM=", "properties": {"@spider": "usps_collection_boxes", "addr:city": "PALO ALTO", "addr:country": "US", "addr:full": "3876 EL CAMINO REAL", "addr:postcode": "94306", "addr:state": "CA", "amenity": "post_box", "brand": "United States Postal Service", "brand:wikidata": "Q668687", "collection_times": "Mo-Fr 16:00; Sa 15:00", "name": "USPS COLLECTION BOX - BLUE BOX", "note": "ON 12/24 AND 12/31, THIS BOX MAY BE COLLECTED AS EARLY AS 12 NOON.", "nsi_id": "unitedstatespostalservice-a77078", "operator": "United States Postal Service", "operator:short": "USPS", "operator:type": "public", "operator:wikidata": "Q668687", "ref": "9430600090"}, "type": "Feature"}
{"dataset_attributes": {"@spider": "usps_collection_boxes", "spider:collection_time": "2023-12-22T08:24:39.252337"}, "geometry": {"coordinates": [-122.144136199, 37.42877039], "type": "Point"}, "id": "T23AufR17XxaLdWyVMpPOjmXdmw=", "properties": {"@spider": "usps_collection_boxes", "addr:city": "PALO ALTO", "addr:country": "US", "addr:full": "265 CAMBRIDGE AVE", "addr:postcode": "94306", "addr:state": "CA", "amenity": "post_box", "brand": "United States Postal Service", "brand:wikidata": "Q668687", "collection_times": "Mo-Fr 17:00", "name": "USPS COLLECTION BOX - PO LOBBY", "note": "ON 12/24 AND 12/31, THIS BOX MAY BE COLLECTED AS EARLY AS 12 NOON.", "nsi_id": "unitedstatespostalservice-a77078", "operator": "United States Postal Service", "operator:short": "USPS", "operator:type": "public", "operator:wikidata": "Q668687", "ref": "9430600093"}, "type": "Feature"}
