{"geometry": {"coordinates": [-122.32731, 37.567404], "type": "Point"}, "id": "b8RvVkhuSGF03NF50Majiya3Shs=", "properties": {"@source_uri": "https://tools.usps.com/UspsToolsRestServices/rest/POLocator/findLocations", "@spider": "usps_collection_boxes", "addr:city": "SAN MATEO", "addr:country": "US", "addr:postcode": "94401", "addr:state": "CA", "addr:street_address": "35 N SAN MATEO DR", "amenity": "post_box", "collection_times": "Mo-Sa 15:00", "note": "ON 12/24 AND 12/31, THIS BOX MAY BE COLLECTED AS EARLY AS 12 NOON.", "nsi_id": "unitedstatespostalservice-a77078", "operator": "United States Postal Service", "operator:short": "USPS", "operator:type": "public", "operator:wikidata": "Q668687", "ref": "9440100007"}, "type": "Feature"}
{"geometry": {"coordinates": [-122.332479, 37.572256], "type": "Point"}, "id": "5gtcZ8FO-SmX9Mkb-wxIitk5Qf8=", "properties": {"@source_uri": "https://tools.usps.com/UspsToolsRestServices/rest/POLocator/findLocations", "@spider": "usps_collection_boxes", "addr:city": "SAN MATEO", "addr:country": "US", "addr:postcode": "94401", "addr:state": "CA", "addr:street_address": "400 N SAN MATEO DR", "amenity": "post_box", "collection_times": "Mo-Sa 15:00", "note": "ON 12/24 AND 12/31, THIS BOX MAY BE COLLECTED AS EARLY AS 12 NOON.", "nsi_id": "unitedstatespostalservice-a77078", "operator": "United States Postal Service", "operator:short": "USPS", "operator:type": "public", "operator:wikidata": "Q668687", "ref": "9440100009"}, "type": "Feature"}
{"geometry": {"coordinates": [-122.333781385, 37.579737462], "type": "Point"}, "id": "Xkz395PyuB0tkbsg8e_xsernvSk=", "properties": {"@source_uri": "https://tools.usps.com/UspsToolsRestServices/rest/POLocator/findLocations", "@spider": "usps_collection_boxes", "addr:city": "SAN MATEO", "addr:country": "US", "addr:postcode": "94401", "addr:state": "CA", "addr:street_address": "872 N DELAWARE ST", "amenity": "post_box", "collection_times": "Mo-Sa 15:00", "note": "ON 12/24 AND 12/31, THIS BOX MAY BE COLLECTED AS EARLY AS 12 NOON.", "nsi_id": "unitedstatespostalservice-a77078", "operator": "United States Postal Service", "operator:short": "USPS", "operator:type": "public", "operator:wikidata": "Q668687", "ref": "9440100011"}, "type": "Feature"}
{"geometry": {"coordinates": [-122.306561, 37.57336], "type": "Point"}, "id": "q6QOGCCuJyNPUuyKCR729sltVe0=", "properties": {"@source_uri": "https://tools.usps.com/UspsToolsRestServices/rest/POLocator/findLocations", "@spider": "usps_collection_boxes", "addr:city": "SAN MATEO", "addr:country": "US", "addr:postcode": "94401", "addr:state": "CA", "addr:street_address": "1700 SHOREVIEW AVE", "amenity": "post_box", "collection_times": "Mo-Fr 13:00; Sa 14:00", "note": "ON 12/24 AND 12/31, THIS BOX MAY BE COLLECTED AS EARLY AS 12 NOON.", "nsi_id": "unitedstatespostalservice-a77078", "operator": "United States Postal Service", "operator:short": "USPS", "operator:type": "public", "operator:wikidata": "Q668687", "ref": "9440100013"}, "type": "Feature"}
{"geometry": {"coordinates": [-122.307885, 37.567983], "type": "Point"}, "id": "QinaEb_mly7JDaWUZuJUH_BtjQg=", "properties": {"@source_uri": "https://tools.usps.com/UspsToolsRestServices/rest/POLocator/findLocations", "@spider": "usps_collection_boxes", "addr:city": "SAN MATEO", "addr:country": "US", "addr:postcode": "94401", "addr:state": "CA", "addr:street_address": "1407 NEWBRIDGE AVE", "amenity": "post_box", "collection_times": "Mo-Fr 13:00; Sa 14:00", "note": "ON 12/24 AND 12/31, THIS BOX MAY BE COLLECTED AS EARLY AS 12 NOON.", "nsi_id": "unitedstatespostalservice-a77078", "operator": "United States Postal Service", "operator:short": "USPS", "operator:type": "public", "operator:wikidata": "Q668687", "ref": "9440100014"}, "type": "Feature"}
{"geometry": {"coordinates": [-122.329621, 37.569492], "type": "Point"}, "id": "lH_Oc4_mXIsIZgEpWx6orQmy7fs=", "properties": {"@source_uri": "https://tools.usps.com/UspsToolsRestServices/rest/POLocator/findLocations", "@spider": "usps_collection_boxes", "addr:city": "SAN MATEO", "addr:country": "US", "addr:postcode": "94401", "addr:state": "CA", "addr:street_address": "153 N SAN MATEO DR", "amenity": "post_box", "collection_times": "Mo-Sa 15:00", "note": "ON 12/24 AND 12/31, THIS BOX MAY BE COLLECTED AS EARLY AS 12 NOON.", "nsi_id": "unitedstatespostalservice-a77078", "operator": "United States Postal Service", "operator:short": "USPS", "operator:type": "public", "operator:wikidata": "Q668687", "ref": "9440100016"}, "type": "Feature"}
{"geometry": {"coordinates": [-122.310465, 37.571447], "type": "Point"}, "id": "9NruLE1mGHiGPDaD15m5cJQ0jV0=", "properties": {"@source_uri": "https://tools.usps.com/UspsToolsRestServices/rest/POLocator/findLocations", "@spider": "usps_collection_boxes", "addr:city": "SAN MATEO", "addr:country": "US", "addr:postcode": "94401", "addr:state": "CA", "addr:street_address": "470 S NORFOLK ST", "amenity": "post_box", "collection_times": "Mo-Fr 13:00; Sa 14:00", "note": "ON 12/24 AND 12/31, THIS BOX MAY BE COLLECTED AS EARLY AS 12 NOON.", "nsi_id": "unitedstatespostalservice-a77078", "operator": "United States Postal Service", "operator:short": "USPS", "operator:type": "public", "operator:wikidata": "Q668687", "ref": "9440100018"}, "type": "Feature"}
{"geometry": {"coordinates": [-122.316581, 37.574414], "type": "Point"}, "id": "w54YS6oJWwZLmQvZgZqC-SvYgJ8=", "properties": {"@source_uri": "https://tools.usps.com/UspsToolsRestServices/rest/POLocator/findLocations", "@spider": "usps_collection_boxes", "addr:city": "SAN MATEO", "addr:country": "US", "addr:postcode": "94401", "addr:state": "CA", "addr:street_address": "3 N KINGSTON ST", "amenity": "post_box", "collection_times": "Mo-Fr 13:00; Sa 14:00", "note": "ON 12/24 AND 12/31, THIS BOX MAY BE COLLECTED AS EARLY AS 12 NOON.", "nsi_id": "unitedstatespostalservice-a77078", "operator": "United States Postal Service", "operator:short": "USPS", "operator:type": "public", "operator:wikidata": "Q668687", "ref": "9440100023"}, "type": "Feature"}
{"geometry": {"coordinates": [-122.303794, 37.566353], "type": "Point"}, "id": "QWTX5eBJlcSJ7x8QOXzNVoSKtaI=", "properties": {"@source_uri": "https://tools.usps.com/UspsToolsRestServices/rest/POLocator/findLocations", "@spider": "usps_collection_boxes", "addr:city": "SAN MATEO", "addr:country": "US", "addr:postcode": "94401", "addr:state": "CA", "addr:street_address": "1508 HEMLOCK AVE", "amenity": "post_box", "collection_times": "Mo-Fr 13:00; Sa 14:00", "note": "ON 12/24 AND 12/31, THIS BOX MAY BE COLLECTED AS EARLY AS 12 NOON.", "nsi_id": "unitedstatespostalservice-a77078", "operator": "United States Postal Service", "operator:short": "USPS", "operator:type": "public", "operator:wikidata": "Q668687", "ref": "9440100025"}, "type": "Feature"}
{"geometry": {"coordinates": [-122.324344, 37.565465], "type": "Point"}, "id": "kFMpyNNll7bidgfPBAu5dDeEA2g=", "properties": {"@source_uri": "https://tools.usps.com/UspsToolsRestServices/rest/POLocator/findLocations", "@spider": "usps_collection_boxes", "addr:city": "SAN MATEO", "addr:country": "US", "addr:postcode": "94401", "addr:state": "CA", "addr:street_address": "210 S ELLSWORTH AVE", "amenity": "post_box", "collection_times": "Mo-Fr 17:00; Sa 16:00", "note": "ON 12/24 AND 12/31, THIS BOX MAY BE COLLECTED AS EARLY AS 12 NOON.", "nsi_id": "unitedstatespostalservice-a77078", "operator": "United States Postal Service", "operator:short": "USPS", "operator:type": "public", "operator:wikidata": "Q668687", "ref": "9440100026"}, "type": "Feature"}
{"geometry": {"coordinates": [-122.320799, 37.562085], "type": "Point"}, "id": "u3Qa6R685HzkSNeQuY0T4qQFZfw=", "properties": {"@source_uri": "https://tools.usps.com/UspsToolsRestServices/rest/POLocator/findLocations", "@spider": "usps_collection_boxes", "addr:city": "SAN MATEO", "addr:country": "US", "addr:postcode": "94401", "addr:state": "CA", "addr:street_address": "700 LAUREL AVE", "amenity": "post_box", "collection_times": "Mo-Sa 13:00", "note": "ON 12/24 AND 12/31, THIS BOX MAY BE COLLECTED AS EARLY AS 12 NOON.", "nsi_id": "unitedstatespostalservice-a77078", "operator": "United States Postal Service", "operator:short": "USPS", "operator:type": "public", "operator:wikidata": "Q668687", "ref": "9440100027"}, "type": "Feature"}
{"geometry": {"coordinates": [-122.314771, 37.558815], "type": "Point"}, "id": "SFxD_qk5tbOfbWu7eKc46UQJuBs=", "properties": {"@source_uri": "https://tools.usps.com/UspsToolsRestServices/rest/POLocator/findLocations", "@spider": "usps_collection_boxes", "addr:city": "SAN MATEO", "addr:country": "US", "addr:postcode": "94401", "addr:state": "CA", "addr:street_address": "1119 S B ST", "amenity": "post_box", "collection_times": "Mo-Sa 13:00", "note": "ON 12/24 AND 12/31, THIS BOX MAY BE COLLECTED AS EARLY AS 12 NOON.", "nsi_id": "unitedstatespostalservice-a77078", "operator": "United States Postal Service", "operator:short": "USPS", "operator:type": "public", "operator:wikidata": "Q668687", "ref": "9440100032"}, "type": "Feature"}
{"geometry": {"coordinates": [-122.3251804807, 37.5672347731], "type": "Point"}, "id": "usX4xOYwV-jgLsdieRMC2-I870c=", "properties": {"@source_uri": "https://tools.usps.com/UspsToolsRestServices/rest/POLocator/findLocations", "@spider": "usps_collection_boxes", "addr:city": "SAN MATEO", "addr:country": "US", "addr:postcode": "94401", "addr:state": "CA", "addr:street_address": "299 BALDWIN AVE", "amenity": "post_box", "collection_times": "Mo-Fr 13:00; Sa 15:00", "note": "ON 12/24 AND 12/31, THIS BOX MAY BE COLLECTED AS EARLY AS 12 NOON.", "nsi_id": "unitedstatespostalservice-a77078", "operator": "United States Postal Service", "operator:short": "USPS", "operator:type": "public", "operator:wikidata": "Q668687", "ref": "9440100037"}, "type": "Feature"}
{"geometry": {"coordinates": [-122.332521, 37.586184], "type": "Point"}, "id": "ucBX0FYJPT85te6wB1Juz2J3xfw=", "properties": {"@source_uri": "https://tools.usps.com/UspsToolsRestServices/rest/POLocator/findLocations", "@spider": "usps_collection_boxes", "addr:city": "SAN MATEO", "addr:country": "US", "addr:postcode": "94401", "addr:state": "CA", "addr:street_address": "1045 N AMPHLETT BLVD", "amenity": "post_box", "collection_times": "Mo-Fr 13:00", "note": "ON 12/24 AND 12/31, THIS BOX MAY BE COLLECTED AS EARLY AS 12 NOON.", "nsi_id": "unitedstatespostalservice-a77078", "operator": "United States Postal Service", "operator:short": "USPS", "operator:type": "public", "operator:wikidata": "Q668687", "ref": "9440100038"}, "type": "Feature"}
{"geometry": {"coordinates": [-122.318262, 37.558401], "type": "Point"}, "id": "RLjMoxTocTulNk-_yKWdV-vL_kA=", "properties": {"@source_uri": "https://tools.usps.com/UspsToolsRestServices/rest/POLocator/findLocations", "@spider": "usps_collection_boxes", "addr:city": "SAN MATEO", "addr:country": "US", "addr:postcode": "94401", "addr:state": "CA", "addr:street_address": "998 PALM AVE", "amenity": "post_box", "collection_times": "Mo-Sa 13:00", "note": "ON 12/24 AND 12/31, THIS BOX MAY BE COLLECTED AS EARLY AS 12 NOON.", "nsi_id": "unitedstatespostalservice-a77078", "operator": "United States Postal Service", "operator:short": "USPS", "operator:type": "public", "operator:wikidata": "Q668687", "ref": "9440100039"}, "type": "Feature"}
{"geometry": {"coordinates": [-122.319375, 37.562754], "type": "Point"}, "id": "4AbCgC2sYeJkRHFA-6v-aRQx_40=", "properties": {"@source_uri": "https://tools.usps.com/UspsToolsRestServices/rest/POLocator/findLocations", "@spider": "usps_collection_boxes", "addr:city": "SAN MATEO", "addr:country": "US", "addr:postcode": "94401", "addr:state": "CA", "addr:street_address": "701 S B ST", "amenity": "post_box", "collection_times": "Mo-Sa 13:00", "note": "ON 12/24 AND 12/31, THIS BOX MAY BE COLLECTED AS EARLY AS 12 NOON.", "nsi_id": "unitedstatespostalservice-a77078", "operator": "United States Postal Service", "operator:short": "USPS", "operator:type": "public", "operator:wikidata": "Q668687", "ref": "9440100041"}, "type": "Feature"}
{"geometry": {"coordinates": [-122.323171, 37.563466], "type": "Point"}, "id": "hiLz9F-GBferri6wwoTqsGiJecw=", "properties": {"@source_uri": "https://tools.usps.com/UspsToolsRestServices/rest/POLocator/findLocations", "@spider": "usps_collection_boxes", "addr:city": "SAN MATEO", "addr:country": "US", "addr:postcode": "94401", "addr:state": "CA", "addr:street_address": "100 E 4TH AVE", "amenity": "post_box", "collection_times": "Mo-Fr 13:00; Sa 15:00", "note": "ON 12/24 AND 12/31, THIS BOX MAY BE COLLECTED AS EARLY AS 12 NOON.", "nsi_id": "unitedstatespostalservice-a77078", "operator": "United States Postal Service", "operator:short": "USPS", "operator:type": "public", "operator:wikidata": "Q668687", "ref": "9440100044"}, "type": "Feature"}
{"geometry": {"coordinates": [-122.322276, 37.565628], "type": "Point"}, "id": "9Iki7wB2rsY1TUqiYEwBmlnWKgo=", "properties": {"@source_uri": "https://tools.usps.com/UspsToolsRestServices/rest/POLocator/findLocations", "@spider": "usps_collection_boxes", "addr:city": "SAN MATEO", "addr:country": "US", "addr:postcode": "94401", "addr:state": "CA", "addr:street_address": "301 E 3RD AVE", "amenity": "post_box", "collection_times": "Mo-Fr 13:00; Sa 15:00", "note": "ON 12/24 AND 12/31, THIS BOX MAY BE COLLECTED AS EARLY AS 12 NOON.", "nsi_id": "unitedstatespostalservice-a77078", "operator": "United States Postal Service", "operator:short": "USPS", "operator:type": "public", "operator:wikidata": "Q668687", "ref": "9440100046"}, "type": "Feature"}
{"geometry": {"coordinates": [-122.32191, 37.568701], "type": "Point"}, "id": "zGsoOOf5rPBfqMuYpnYx3Hp_E7Y=", "properties": {"@source_uri": "https://tools.usps.com/UspsToolsRestServices/rest/POLocator/findLocations", "@spider": "usps_collection_boxes", "addr:city": "SAN MATEO", "addr:country": "US", "addr:postcode": "94401", "addr:state": "CA", "addr:street_address": "40 S DELAWARE ST", "amenity": "post_box", "collection_times": "Mo-Fr 13:00; Sa 15:00", "note": "ON 12/24 AND 12/31, THIS BOX MAY BE COLLECTED AS EARLY AS 12 NOON.", "nsi_id": "unitedstatespostalservice-a77078", "operator": "United States Postal Service", "operator:short": "USPS", "operator:type": "public", "operator:wikidata": "Q668687", "ref": "9440100048"}, "type": "Feature"}
{"geometry": {"coordinates": [-122.324039, 37.565448], "type": "Point"}, "id": "X-yU2MhkhadT5CBRrCF76mTuGQM=", "properties": {"@source_uri": "https://tools.usps.com/UspsToolsRestServices/rest/POLocator/findLocations", "@spider": "usps_collection_boxes", "addr:city": "SAN MATEO", "addr:country": "US", "addr:postcode": "94401", "addr:state": "CA", "addr:street_address": "210 S ELLSWORTH AVE", "amenity": "post_box", "collection_times": "Mo-Fr 17:00; Sa 16:00", "indoor": "yes", "note": "ON 12/24 AND 12/31, THIS BOX MAY BE COLLECTED AS EARLY AS 12 NOON.", "nsi_id": "unitedstatespostalservice-a77078", "operator": "United States Postal Service", "operator:short": "USPS", "operator:type": "public", "operator:wikidata": "Q668687", "ref": "9440100051"}, "type": "Feature"}
{"geometry": {"coordinates": [-122.324925, 37.563693], "type": "Point"}, "id": "vHNk4MtNKEOpHZWwknpPZSYLZ6w=", "properties": {"@source_uri": "https://tools.usps.com/UspsToolsRestServices/rest/POLocator/findLocations", "@spider": "usps_collection_boxes", "addr:city": "SAN MATEO", "addr:country": "US", "addr:postcode": "94401", "addr:state": "CA", "addr:street_address": "50 E 3RD AVE", "amenity": "post_box", "collection_times": "Mo-Sa 15:00", "note": "ON 12/24 AND 12/31, THIS BOX MAY BE COLLECTED AS EARLY AS 12 NOON.", "nsi_id": "unitedstatespostalservice-a77078", "operator": "United States Postal Service", "operator:short": "USPS", "operator:type": "public", "operator:wikidata": "Q668687", "ref": "9440100052"}, "type": "Feature"}
{"geometry": {"coordinates": [-122.324033, 37.565573], "type": "Point"}, "id": "opjALb8FH75NbZ-8rF_zbwTiT7M=", "properties": {"@source_uri": "https://tools.usps.com/UspsToolsRestServices/rest/POLocator/findLocations", "@spider": "usps_collection_boxes", "addr:city": "SAN MATEO", "addr:country": "US", "addr:postcode": "94401", "addr:state": "CA", "addr:street_address": "210 S ELLSWORTH AVE", "amenity": "post_box", "collection_times": "Mo-Fr 17:00; Sa 16:00", "name": "USPS COLLECTION BOX - APC", "note": "ON 12/24 AND 12/31, THIS BOX MAY BE COLLECTED AS EARLY AS 12 NOON.", "nsi_id": "unitedstatespostalservice-a77078", "operator": "United States Postal Service", "operator:short": "USPS", "operator:type": "public", "operator:wikidata": "Q668687", "ref": "9440100053"}, "type": "Feature"}
{"geometry": {"coordinates": [-122.335776, 37.575262], "type": "Point"}, "id": "DK1bB_B1vvL-ThHajtj3f6nauNA=", "properties": {"@source_uri": "https://tools.usps.com/UspsToolsRestServices/rest/POLocator/findLocations", "@spider": "usps_collection_boxes", "addr:city": "SAN MATEO", "addr:country": "US", "addr:postcode": "94401", "addr:state": "CA", "addr:street_address": "700 N SAN MATEO DR", "amenity": "post_box", "collection_times": "Mo-Sa 13:00", "note": "ON 12/24 AND 12/31, THIS BOX MAY BE COLLECTED AS EARLY AS 12 NOON.", "nsi_id": "unitedstatespostalservice-a77078", "operator": "United States Postal Service", "operator:short": "USPS", "operator:type": "public", "operator:wikidata": "Q668687", "ref": "9440100054"}, "type": "Feature"}
{"geometry": {"coordinates": [-122.3238347477, 37.5655099989], "type": "Point"}, "id": "rePWigjCtEgHuRIYlkfTLYTIvcY=", "properties": {"@source_uri": "https://tools.usps.com/UspsToolsRestServices/rest/POLocator/findLocations", "@spider": "usps_collection_boxes", "addr:city": "SAN MATEO", "addr:country": "US", "addr:postcode": "94401", "addr:state": "CA", "addr:street_address": "210 S ELLSWORTH AVE", "amenity": "post_box", "collection_times": "Mo-Fr 17:00; Sa 12:30", "indoor": "yes", "note": "ON 12/24 AND 12/31, THIS BOX MAY BE COLLECTED AS EARLY AS 12 NOON.", "nsi_id": "unitedstatespostalservice-a77078", "operator": "United States Postal Service", "operator:short": "USPS", "operator:type": "public", "operator:wikidata": "Q668687", "ref": "9440100057"}, "type": "Feature"}
{"geometry": {"coordinates": [-122.326891, 37.561193], "type": "Point"}, "id": "hF-l1MwKWS2A66_-R-8-IVLPWgE=", "properties": {"@source_uri": "https://tools.usps.com/UspsToolsRestServices/rest/POLocator/findLocations", "@spider": "usps_collection_boxes", "addr:city": "SAN MATEO", "addr:country": "US", "addr:postcode": "94402", "addr:state": "CA", "addr:street_address": "50 W 4TH AVE", "amenity": "post_box", "collection_times": "Mo-Sa 13:00", "note": "ON 12/24 AND 12/31, THIS BOX MAY BE COLLECTED AS EARLY AS 12 NOON.", "nsi_id": "unitedstatespostalservice-a77078", "operator": "United States Postal Service", "operator:short": "USPS", "operator:type": "public", "operator:wikidata": "Q668687", "ref": "9440200003"}, "type": "Feature"}
{"geometry": {"coordinates": [-122.3251668129, 37.5621891984], "type": "Point"}, "id": "0X-7ZZ-gR6zvsns9k40L294P2qo=", "properties": {"@source_uri": "https://tools.usps.com/UspsToolsRestServices/rest/POLocator/findLocations", "@spider": "usps_collection_boxes", "addr:city": "SAN MATEO", "addr:country": "US", "addr:postcode": "94402", "addr:state": "CA", "addr:street_address": "1 W 4TH AVE", "amenity": "post_box", "collection_times": "Mo-Fr 15:00; Sa 13:00", "note": "ON 12/24 AND 12/31, THIS BOX MAY BE COLLECTED AS EARLY AS 12 NOON.", "nsi_id": "unitedstatespostalservice-a77078", "operator": "United States Postal Service", "operator:short": "USPS", "operator:type": "public", "operator:wikidata": "Q668687", "ref": "9440200005"}, "type": "Feature"}
{"geometry": {"coordinates": [-122.325803, 37.560657], "type": "Point"}, "id": "XjM_Cinusn4h1awAkesLacnV4ns=", "properties": {"@source_uri": "https://tools.usps.com/UspsToolsRestServices/rest/POLocator/findLocations", "@spider": "usps_collection_boxes", "addr:city": "SAN MATEO", "addr:country": "US", "addr:postcode": "94402", "addr:state": "CA", "addr:street_address": "55 W 5TH AVE", "amenity": "post_box", "collection_times": "Mo-Sa 13:00", "note": "ON 12/24 AND 12/31, THIS BOX MAY BE COLLECTED AS EARLY AS 12 NOON.", "nsi_id": "unitedstatespostalservice-a77078", "operator": "United States Postal Service", "operator:short": "USPS", "operator:type": "public", "operator:wikidata": "Q668687", "ref": "9440200010"}, "type": "Feature"}
{"geometry": {"coordinates": [-122.321506, 37.559074], "type": "Point"}, "id": "vExVcRFrfzK9xpQ6kACc5uzHExQ=", "properties": {"@source_uri": "https://tools.usps.com/UspsToolsRestServices/rest/POLocator/findLocations", "@spider": "usps_collection_boxes", "addr:city": "SAN MATEO", "addr:country": "US", "addr:postcode": "94402", "addr:state": "CA", "addr:street_address": "901 S EL CAMINO REAL", "amenity": "post_box", "collection_times": "Mo-Sa 15:00", "note": "ON 12/24 AND 12/31, THIS BOX MAY BE COLLECTED AS EARLY AS 12 NOON.", "nsi_id": "unitedstatespostalservice-a77078", "operator": "United States Postal Service", "operator:short": "USPS", "operator:type": "public", "operator:wikidata": "Q668687", "ref": "9440200011"}, "type": "Feature"}
{"geometry": {"coordinates": [-122.319153, 37.557014], "type": "Point"}, "id": "dr6DkX2idvmpD7nITItmxL8L6LQ=", "properties": {"@source_uri": "https://tools.usps.com/UspsToolsRestServices/rest/POLocator/findLocations", "@spider": "usps_collection_boxes", "addr:city": "SAN MATEO", "addr:country": "US", "addr:postcode": "94402", "addr:state": "CA", "addr:street_address": "1021 S EL CAMINO REAL", "amenity": "post_box", "collection_times": "Mo-Sa 15:00", "note": "ON 12/24 AND 12/31, THIS BOX MAY BE COLLECTED AS EARLY AS 12 NOON.", "nsi_id": "unitedstatespostalservice-a77078", "operator": "United States Postal Service", "operator:short": "USPS", "operator:type": "public", "operator:wikidata": "Q668687", "ref": "9440200014"}, "type": "Feature"}
{"geometry": {"coordinates": [-122.335209, 37.553883], "type": "Point"}, "id": "chiaqatrPThLuT7ibdnORR79yRQ=", "properties": {"@source_uri": "https://tools.usps.com/UspsToolsRestServices/rest/POLocator/findLocations", "@spider": "usps_collection_boxes", "addr:city": "SAN MATEO", "addr:country": "US", "addr:postcode": "94402", "addr:state": "CA", "addr:street_address": "600 COLUMBIA DR", "amenity": "post_box", "collection_times": "Mo-Sa 13:00", "note": "ON 12/24 AND 12/31, THIS BOX MAY BE COLLECTED AS EARLY AS 12 NOON.", "nsi_id": "unitedstatespostalservice-a77078", "operator": "United States Postal Service", "operator:short": "USPS", "operator:type": "public", "operator:wikidata": "Q668687", "ref": "9440200017"}, "type": "Feature"}
{"geometry": {"coordinates": [-122.322766, 37.555994], "type": "Point"}, "id": "x0ll6KB2jTVirj1xq98WfxrTBYU=", "properties": {"@source_uri": "https://tools.usps.com/UspsToolsRestServices/rest/POLocator/findLocations", "@spider": "usps_collection_boxes", "addr:city": "SAN MATEO", "addr:country": "US", "addr:postcode": "94402", "addr:state": "CA", "addr:street_address": "133 ARAGON BLVD", "amenity": "post_box", "collection_times": "Mo-Sa 13:00", "note": "ON 12/24 AND 12/31, THIS BOX MAY BE COLLECTED AS EARLY AS 12 NOON.", "nsi_id": "unitedstatespostalservice-a77078", "operator": "United States Postal Service", "operator:short": "USPS", "operator:type": "public", "operator:wikidata": "Q668687", "ref": "9440200028"}, "type": "Feature"}
{"geometry": {"coordinates": [-122.328136, 37.565278], "type": "Point"}, "id": "bIXvA_VhnJh5WjvoZNULo7B-sD8=", "properties": {"@source_uri": "https://tools.usps.com/UspsToolsRestServices/rest/POLocator/findLocations", "@spider": "usps_collection_boxes", "addr:city": "SAN MATEO", "addr:country": "US", "addr:postcode": "94402", "addr:state": "CA", "addr:street_address": "1 BAYWOOD AVE", "amenity": "post_box", "collection_times": "Mo-Sa 13:00", "note": "ON 12/24 AND 12/31, THIS BOX MAY BE COLLECTED AS EARLY AS 12 NOON.", "nsi_id": "unitedstatespostalservice-a77078", "operator": "United States Postal Service", "operator:short": "USPS", "operator:type": "public", "operator:wikidata": "Q668687", "ref": "9440200031"}, "type": "Feature"}
{"geometry": {"coordinates": [-122.318269, 37.54998], "type": "Point"}, "id": "-euhhzkG_heJ_V91YpGNcYmH0V0=", "properties": {"@source_uri": "https://tools.usps.com/UspsToolsRestServices/rest/POLocator/findLocations", "@spider": "usps_collection_boxes", "addr:city": "SAN MATEO", "addr:country": "US", "addr:postcode": "94402", "addr:state": "CA", "addr:street_address": "245 BOREL AVE", "amenity": "post_box", "collection_times": "Mo-Sa 13:00", "note": "ON 12/24 AND 12/31, THIS BOX MAY BE COLLECTED AS EARLY AS 12 NOON.", "nsi_id": "unitedstatespostalservice-a77078", "operator": "United States Postal Service", "operator:short": "USPS", "operator:type": "public", "operator:wikidata": "Q668687", "ref": "9440200032"}, "type": "Feature"}
{"geometry": {"coordinates": [-122.32013, 37.549059], "type": "Point"}, "id": "AKN2pwUuQxxF_ASzZveWkh-z8nE=", "properties": {"@source_uri": "https://tools.usps.com/UspsToolsRestServices/rest/POLocator/findLocations", "@spider": "usps_collection_boxes", "addr:city": "SAN MATEO", "addr:country": "US", "addr:postcode": "94402", "addr:state": "CA", "addr:street_address": "411 BOREL AVE", "amenity": "post_box", "collection_times": "Mo-Fr 15:00; Sa 13:00", "note": "ON 12/24 AND 12/31, THIS BOX MAY BE COLLECTED AS EARLY AS 12 NOON.", "nsi_id": "unitedstatespostalservice-a77078", "operator": "United States Postal Service", "operator:short": "USPS", "operator:type": "public", "operator:wikidata": "Q668687", "ref": "9440200035"}, "type": "Feature"}
{"geometry": {"coordinates": [-122.314584, 37.550226], "type": "Point"}, "id": "6ZOa12avXTcM9keprFwxKBwgnqQ=", "properties": {"@source_uri": "https://tools.usps.com/UspsToolsRestServices/rest/POLocator/findLocations", "@spider": "usps_collection_boxes", "addr:city": "SAN MATEO", "addr:country": "US", "addr:postcode": "94402", "addr:state": "CA", "addr:street_address": "77 BOVET RD", "amenity": "post_box", "collection_times": "Mo-Fr 15:00; Sa 13:00", "note": "ON 12/24 AND 12/31, THIS BOX MAY BE COLLECTED AS EARLY AS 12 NOON.", "nsi_id": "unitedstatespostalservice-a77078", "operator": "United States Postal Service", "operator:short": "USPS", "operator:type": "public", "operator:wikidata": "Q668687", "ref": "9440200040"}, "type": "Feature"}
{"geometry": {"coordinates": [-122.317797, 37.563737], "type": "Point"}, "id": "7Ai0ozznXjxJ-hYBGynkTDJBgL4=", "properties": {"@source_uri": "https://tools.usps.com/UspsToolsRestServices/rest/POLocator/findLocations", "@spider": "usps_collection_boxes", "addr:city": "SAN MATEO", "addr:country": "US", "addr:postcode": "94402", "addr:state": "CA", "addr:street_address": "800 S CLAREMONT ST", "amenity": "post_box", "collection_times": "Mo-Sa 15:00", "note": "ON 12/24 AND 12/31, THIS BOX MAY BE COLLECTED AS EARLY AS 12 NOON.", "nsi_id": "unitedstatespostalservice-a77078", "operator": "United States Postal Service", "operator:short": "USPS", "operator:type": "public", "operator:wikidata": "Q668687", "ref": "9440200046"}, "type": "Feature"}
{"geometry": {"coordinates": [-122.332141, 37.529689], "type": "Point"}, "id": "tEPYIMddm1TgQKMc_TYX1-MGncI=", "properties": {"@source_uri": "https://tools.usps.com/UspsToolsRestServices/rest/POLocator/findLocations", "@spider": "usps_collection_boxes", "addr:city": "SAN MATEO", "addr:country": "US", "addr:postcode": "94402", "addr:state": "CA", "addr:street_address": "3300 CLEARVIEW WAY", "amenity": "post_box", "collection_times": "Mo-Fr 13:00", "note": "ON 12/24 AND 12/31, THIS BOX MAY BE COLLECTED AS EARLY AS 12 NOON.", "nsi_id": "unitedstatespostalservice-a77078", "operator": "United States Postal Service", "operator:short": "USPS", "operator:type": "public", "operator:wikidata": "Q668687", "ref": "9440200049"}, "type": "Feature"}
{"geometry": {"coordinates": [-122.336315, 37.535087], "type": "Point"}, "id": "dafC4T9qtsYIekhr1LlF36M70cY=", "properties": {"@source_uri": "https://tools.usps.com/UspsToolsRestServices/rest/POLocator/findLocations", "@spider": "usps_collection_boxes", "addr:city": "SAN MATEO", "addr:country": "US", "addr:postcode": "94402", "addr:state": "CA", "addr:street_address": "1700 W HILLSDALE BLVD", "amenity": "post_box", "collection_times": "Mo-Fr 15:00", "note": "ON 12/24 AND 12/31, THIS BOX MAY BE COLLECTED AS EARLY AS 12 NOON.", "nsi_id": "unitedstatespostalservice-a77078", "operator": "United States Postal Service", "operator:short": "USPS", "operator:type": "public", "operator:wikidata": "Q668687", "ref": "9440200050"}, "type": "Feature"}
{"geometry": {"coordinates": [-122.316258, 37.554365], "type": "Point"}, "id": "2mBGVbMQh4gOAIIBLtb-JhvYWIA=", "properties": {"@source_uri": "https://tools.usps.com/UspsToolsRestServices/rest/POLocator/findLocations", "@spider": "usps_collection_boxes", "addr:city": "SAN MATEO", "addr:country": "US", "addr:postcode": "94402", "addr:state": "CA", "addr:street_address": "1495 S EL CAMINO REAL", "amenity": "post_box", "collection_times": "Mo-Sa 15:00", "note": "ON 12/24 AND 12/31, THIS BOX MAY BE COLLECTED AS EARLY AS 12 NOON.", "nsi_id": "unitedstatespostalservice-a77078", "operator": "United States Postal Service", "operator:short": "USPS", "operator:type": "public", "operator:wikidata": "Q668687", "ref": "9440200063"}, "type": "Feature"}
{"geometry": {"coordinates": [-122.302035, 37.553695], "type": "Point"}, "id": "oS-HBxdl779iOMimrarIHTUuJzU=", "properties": {"@source_uri": "https://tools.usps.com/UspsToolsRestServices/rest/POLocator/findLocations", "@spider": "usps_collection_boxes", "addr:city": "SAN MATEO", "addr:country": "US", "addr:postcode": "94402", "addr:state": "CA", "addr:street_address": "1875 S GRANT ST", "amenity": "post_box", "collection_times": "Mo-Fr 15:00", "note": "ON 12/24 AND 12/31, THIS BOX MAY BE COLLECTED AS EARLY AS 12 NOON.", "nsi_id": "unitedstatespostalservice-a77078", "operator": "United States Postal Service", "operator:short": "USPS", "operator:type": "public", "operator:wikidata": "Q668687", "ref": "9440200068"}, "type": "Feature"}
{"geometry": {"coordinates": [-122.330896, 37.556946], "type": "Point"}, "id": "7z4TuYDs4ULwuxK-0XnxwxB7D3o=", "properties": {"@source_uri": "https://tools.usps.com/UspsToolsRestServices/rest/POLocator/findLocations", "@spider": "usps_collection_boxes", "addr:city": "SAN MATEO", "addr:country": "US", "addr:postcode": "94402", "addr:state": "CA", "addr:street_address": "374 PARROTT DR", "amenity": "post_box", "collection_times": "Mo-Sa 13:00", "note": "ON 12/24 AND 12/31, THIS BOX MAY BE COLLECTED AS EARLY AS 12 NOON.", "nsi_id": "unitedstatespostalservice-a77078", "operator": "United States Postal Service", "operator:short": "USPS", "operator:type": "public", "operator:wikidata": "Q668687", "ref": "9440200072"}, "type": "Feature"}
{"geometry": {"coordinates": [-122.337189, 37.520507], "type": "Point"}, "id": "kRRPJf4Q370tm-W_AXxnNVOFLOg=", "properties": {"@source_uri": "https://tools.usps.com/UspsToolsRestServices/rest/POLocator/findLocations", "@spider": "usps_collection_boxes", "addr:city": "SAN MATEO", "addr:country": "US", "addr:postcode": "94402", "addr:state": "CA", "addr:street_address": "100 CRYSTAL SPRINGS SHOPPING CNT", "amenity": "post_box", "collection_times": "Mo-Sa 15:00", "note": "ON 12/24 AND 12/31, THIS BOX MAY BE COLLECTED AS EARLY AS 12 NOON.", "nsi_id": "unitedstatespostalservice-a77078", "operator": "United States Postal Service", "operator:short": "USPS", "operator:type": "public", "operator:wikidata": "Q668687", "ref": "9440200083"}, "type": "Feature"}
{"geometry": {"coordinates": [-122.311389, 37.554595], "type": "Point"}, "id": "W2_L09qE91y93aa2kcbEWv7W_58=", "properties": {"@source_uri": "https://tools.usps.com/UspsToolsRestServices/rest/POLocator/findLocations", "@spider": "usps_collection_boxes", "addr:city": "SAN MATEO", "addr:country": "US", "addr:postcode": "94402", "addr:state": "CA", "addr:street_address": "150 S B ST", "amenity": "post_box", "collection_times": "Mo-Sa 13:00", "note": "ON 12/24 AND 12/31, THIS BOX MAY BE COLLECTED AS EARLY AS 12 NOON.", "nsi_id": "unitedstatespostalservice-a77078", "operator": "United States Postal Service", "operator:short": "USPS", "operator:type": "public", "operator:wikidata": "Q668687", "ref": "9440200087"}, "type": "Feature"}
{"geometry": {"coordinates": [-122.3082222961, 37.5562379472], "type": "Point"}, "id": "-887DNaTOb33UTK2kYvuHVB0-0g=", "properties": {"@source_uri": "https://tools.usps.com/UspsToolsRestServices/rest/POLocator/findLocations", "@spider": "usps_collection_boxes", "addr:city": "SAN MATEO", "addr:country": "US", "addr:postcode": "94402", "addr:state": "CA", "addr:street_address": "1630 S DELAWARE ST", "amenity": "post_box", "collection_times": "Mo-Sa 17:00", "indoor": "yes", "note": "ON 12/24 AND 12/31, THIS BOX MAY BE COLLECTED AS EARLY AS 12 NOON.", "nsi_id": "unitedstatespostalservice-a77078", "operator": "United States Postal Service", "operator:short": "USPS", "operator:type": "public", "operator:wikidata": "Q668687", "ref": "9440200089"}, "type": "Feature"}
{"geometry": {"coordinates": [-122.333209, 37.532302], "type": "Point"}, "id": "1WjhAhDIC8Mpfj0dZkBAUh2_lDk=", "properties": {"@source_uri": "https://tools.usps.com/UspsToolsRestServices/rest/POLocator/findLocations", "@spider": "usps_collection_boxes", "addr:city": "SAN MATEO", "addr:country": "US", "addr:postcode": "94402", "addr:state": "CA", "addr:street_address": "3190 CLEARVIEW WAY", "amenity": "post_box", "collection_times": "Mo-Fr 15:00", "note": "ON 12/24 AND 12/31, THIS BOX MAY BE COLLECTED AS EARLY AS 12 NOON.", "nsi_id": "unitedstatespostalservice-a77078", "operator": "United States Postal Service", "operator:short": "USPS", "operator:type": "public", "operator:wikidata": "Q668687", "ref": "9440200091"}, "type": "Feature"}
{"geometry": {"coordinates": [-122.3082222961, 37.5562379472], "type": "Point"}, "id": "ethuY6oQ20EuCZe6D72CEEYI9jI=", "properties": {"@source_uri": "https://tools.usps.com/UspsToolsRestServices/rest/POLocator/findLocations", "@spider": "usps_collection_boxes", "addr:city": "SAN MATEO", "addr:country": "US", "addr:postcode": "94402", "addr:state": "CA", "addr:street_address": "1630 S DELAWARE ST", "amenity": "post_box", "collection_times": "Mo-Sa 17:00", "note": "ON 12/24 AND 12/31, THIS BOX MAY BE COLLECTED AS EARLY AS 12 NOON.", "nsi_id": "unitedstatespostalservice-a77078", "operator": "United States Postal Service", "operator:short": "USPS", "operator:type": "public", "operator:wikidata": "Q668687", "ref": "9440200093"}, "type": "Feature"}
{"geometry": {"coordinates": [-122.3082222961, 37.5562379472], "type": "Point"}, "id": "i0RQMX7kJD_spSmx4nBbwNuQ0qA=", "properties": {"@source_uri": "https://tools.usps.com/UspsToolsRestServices/rest/POLocator/findLocations", "@spider": "usps_collection_boxes", "addr:city": "SAN MATEO", "addr:country": "US", "addr:postcode": "94402", "addr:state": "CA", "addr:street_address": "1630 S DELAWARE ST", "amenity": "post_box", "collection_times": "Mo-Sa 17:00", "name": "USPS COLLECTION BOX - APC", "note": "ON 12/24 AND 12/31, THIS BOX MAY BE COLLECTED AS EARLY AS 12 NOON.", "nsi_id": "unitedstatespostalservice-a77078", "operator": "United States Postal Service", "operator:short": "USPS", "operator:type": "public", "operator:wikidata": "Q668687", "ref": "9440200096"}, "type": "Feature"}
{"geometry": {"coordinates": [-122.3082222961, 37.5562379472], "type": "Point"}, "id": "RSBuzRb5tFIRfFxoj3gmQ599g5Q=", "properties": {"@source_uri": "https://tools.usps.com/UspsToolsRestServices/rest/POLocator/findLocations", "@spider": "usps_collection_boxes", "addr:city": "SAN MATEO", "addr:country": "US", "addr:postcode": "94402", "addr:state": "CA", "addr:street_address": "1630 S DELAWARE ST", "amenity": "post_box", "collection_times": "Mo-Fr 17:00; Sa 12:30", "indoor": "yes", "note": "ON 12/24 AND 12/31, THIS BOX MAY BE COLLECTED AS EARLY AS 12 NOON.", "nsi_id": "unitedstatespostalservice-a77078", "operator": "United States Postal Service", "operator:short": "USPS", "operator:type": "public", "operator:wikidata": "Q668687", "ref": "9440200102"}, "type": "Feature"}
{"geometry": {"coordinates": [-122.310965, 37.5588], "type": "Point"}, "id": "mwlw0U6aGGY-BtDFOF0Y-XNIVPw=", "properties": {"@source_uri": "https://tools.usps.com/UspsToolsRestServices/rest/POLocator/findLocations", "@spider": "usps_collection_boxes", "addr:city": "SAN MATEO", "addr:country": "US", "addr:postcode": "94402", "addr:state": "CA", "addr:street_address": "1528 S EL CAMINO REAL", "amenity": "post_box", "collection_times": "Mo-Fr 17:00", "note": "ON 12/24 AND 12/31, THIS BOX MAY BE COLLECTED AS EARLY AS 12 NOON.", "nsi_id": "unitedstatespostalservice-a77078", "operator": "United States Postal Service", "operator:short": "USPS", "operator:type": "public", "operator:wikidata": "Q668687", "ref": "9440200104"}, "type": "Feature"}
{"geometry": {"coordinates": [-122.310064, 37.544938], "type": "Point"}, "id": "qQHoJPGhQBIyem26TGn_NujPUwc=", "properties": {"@source_uri": "https://tools.usps.com/UspsToolsRestServices/rest/POLocator/findLocations", "@spider": "usps_collection_boxes", "addr:city": "SAN MATEO", "addr:country": "US", "addr:postcode": "94403", "addr:state": "CA", "addr:street_address": "200 23RD AVE", "amenity": "post_box", "collection_times": "Mo-Sa 13:00", "note": "ON 12/24 AND 12/31, THIS BOX MAY BE COLLECTED AS EARLY AS 12 NOON.", "nsi_id": "unitedstatespostalservice-a77078", "operator": "United States Postal Service", "operator:short": "USPS", "operator:type": "public", "operator:wikidata": "Q668687", "ref": "9440300007"}, "type": "Feature"}
{"geometry": {"coordinates": [-122.3078596262, 37.5435216143], "type": "Point"}, "id": "GklH4P6S0E6HSuevHqdgwVXW2-I=", "properties": {"@source_uri": "https://tools.usps.com/UspsToolsRestServices/rest/POLocator/findLocations", "@spider": "usps_collection_boxes", "addr:city": "SAN MATEO", "addr:country": "US", "addr:postcode": "94403", "addr:state": "CA", "addr:street_address": "135 W 25TH AVE", "amenity": "post_box", "collection_times": "Mo-Fr 17:00; Sa 16:30", "note": "ON 12/24 AND 12/31, THIS BOX MAY BE COLLECTED AS EARLY AS 12 NOON.", "nsi_id": "unitedstatespostalservice-a77078", "operator": "United States Postal Service", "operator:short": "USPS", "operator:type": "public", "operator:wikidata": "Q668687", "ref": "9440300008"}, "type": "Feature"}
{"geometry": {"coordinates": [-122.317499, 37.539071], "type": "Point"}, "id": "QMWAxsrqmJVNxwpblIyGo9PVKKQ=", "properties": {"@source_uri": "https://tools.usps.com/UspsToolsRestServices/rest/POLocator/findLocations", "@spider": "usps_collection_boxes", "addr:city": "SAN MATEO", "addr:country": "US", "addr:postcode": "94403", "addr:state": "CA", "addr:street_address": "2602 DOLORES ST", "amenity": "post_box", "collection_times": "Mo-Sa 13:00", "note": "ON 12/24 AND 12/31, THIS BOX MAY BE COLLECTED AS EARLY AS 12 NOON.", "nsi_id": "unitedstatespostalservice-a77078", "operator": "United States Postal Service", "operator:short": "USPS", "operator:type": "public", "operator:wikidata": "Q668687", "ref": "9440300013"}, "type": "Feature"}
{"geometry": {"coordinates": [-122.307476, 37.539864], "type": "Point"}, "id": "VeHK51aMBYLPkPRTRI4K6TA-3Bo=", "properties": {"@source_uri": "https://tools.usps.com/UspsToolsRestServices/rest/POLocator/findLocations", "@spider": "usps_collection_boxes", "addr:city": "SAN MATEO", "addr:country": "US", "addr:postcode": "94403", "addr:state": "CA", "addr:street_address": "140 28TH AVE", "amenity": "post_box", "collection_times": "Mo-Sa 13:00", "note": "ON 12/24 AND 12/31, THIS BOX MAY BE COLLECTED AS EARLY AS 12 NOON.", "nsi_id": "unitedstatespostalservice-a77078", "operator": "United States Postal Service", "operator:short": "USPS", "operator:type": "public", "operator:wikidata": "Q668687", "ref": "9440300015"}, "type": "Feature"}
{"geometry": {"coordinates": [-122.294918, 37.534163], "type": "Point"}, "id": "KpzNQ72fH3jSMGTZ2QCREIuOeqU=", "properties": {"@source_uri": "https://tools.usps.com/UspsToolsRestServices/rest/POLocator/findLocations", "@spider": "usps_collection_boxes", "addr:city": "SAN MATEO", "addr:country": "US", "addr:postcode": "94403", "addr:state": "CA", "addr:street_address": "11 37TH AVE", "amenity": "post_box", "collection_times": "Mo-Fr 15:00; Sa 13:00", "note": "ON 12/24 AND 12/31, THIS BOX MAY BE COLLECTED AS EARLY AS 12 NOON.", "nsi_id": "unitedstatespostalservice-a77078", "operator": "United States Postal Service", "operator:short": "USPS", "operator:type": "public", "operator:wikidata": "Q668687", "ref": "9440300022"}, "type": "Feature"}
{"geometry": {"coordinates": [-122.305659, 37.528076], "type": "Point"}, "id": "Z9yAY_HUuTNpleo-W4nyqOqNUwI=", "properties": {"@source_uri": "https://tools.usps.com/UspsToolsRestServices/rest/POLocator/findLocations", "@spider": "usps_collection_boxes", "addr:city": "SAN MATEO", "addr:country": "US", "addr:postcode": "94403", "addr:state": "CA", "addr:street_address": "3901 ALAMEDA DE LAS PULGAS", "amenity": "post_box", "collection_times": "Mo-Sa 13:00", "note": "ON 12/24 AND 12/31, THIS BOX MAY BE COLLECTED AS EARLY AS 12 NOON.", "nsi_id": "unitedstatespostalservice-a77078", "operator": "United States Postal Service", "operator:short": "USPS", "operator:type": "public", "operator:wikidata": "Q668687", "ref": "9440300025"}, "type": "Feature"}
{"geometry": {"coordinates": [-122.30209, 37.525511], "type": "Point"}, "id": "yp4CFhkxcNdolmnkhjxvyEEj3Yo=", "properties": {"@source_uri": "https://tools.usps.com/UspsToolsRestServices/rest/POLocator/findLocations", "@spider": "usps_collection_boxes", "addr:city": "SAN MATEO", "addr:country": "US", "addr:postcode": "94403", "addr:state": "CA", "addr:street_address": "345 42ND AVE", "amenity": "post_box", "collection_times": "Mo-Sa 13:00", "note": "ON 12/24 AND 12/31, THIS BOX MAY BE COLLECTED AS EARLY AS 12 NOON.", "nsi_id": "unitedstatespostalservice-a77078", "operator": "United States Postal Service", "operator:short": "USPS", "operator:type": "public", "operator:wikidata": "Q668687", "ref": "9440300027"}, "type": "Feature"}
{"geometry": {"coordinates": [-122.290725, 37.529839], "type": "Point"}, "id": "49YIhCYCbsVKQRHggFpTr1qHIeQ=", "properties": {"@source_uri": "https://tools.usps.com/UspsToolsRestServices/rest/POLocator/findLocations", "@spider": "usps_collection_boxes", "addr:city": "SAN MATEO", "addr:country": "US", "addr:postcode": "94403", "addr:state": "CA", "addr:street_address": "60 W 42ND AVE", "amenity": "post_box", "collection_times": "Mo-Fr 15:00; Sa 13:00", "note": "ON 12/24 AND 12/31, THIS BOX MAY BE COLLECTED AS EARLY AS 12 NOON.", "nsi_id": "unitedstatespostalservice-a77078", "operator": "United States Postal Service", "operator:short": "USPS", "operator:type": "public", "operator:wikidata": "Q668687", "ref": "9440300028"}, "type": "Feature"}
{"geometry": {"coordinates": [-122.321811, 37.544976], "type": "Point"}, "id": "n6mWuLC46CzPM8VkvaZe2Vv-NZ4=", "properties": {"@source_uri": "https://tools.usps.com/UspsToolsRestServices/rest/POLocator/findLocations", "@spider": "usps_collection_boxes", "addr:city": "SAN MATEO", "addr:country": "US", "addr:postcode": "94403", "addr:state": "CA", "addr:street_address": "2000 ALAMEDA DE LAS PULGAS", "amenity": "post_box", "collection_times": "Mo-Fr 15:00", "note": "ON 12/24 AND 12/31, THIS BOX MAY BE COLLECTED AS EARLY AS 12 NOON.", "nsi_id": "unitedstatespostalservice-a77078", "operator": "United States Postal Service", "operator:short": "USPS", "operator:type": "public", "operator:wikidata": "Q668687", "ref": "9440300031"}, "type": "Feature"}
{"geometry": {"coordinates": [-122.295968, 37.549134], "type": "Point"}, "id": "PYuodLNlDcb8hkgUJTCGjjA6c7k=", "properties": {"@source_uri": "https://tools.usps.com/UspsToolsRestServices/rest/POLocator/findLocations", "@spider": "usps_collection_boxes", "addr:city": "SAN MATEO", "addr:country": "US", "addr:postcode": "94403", "addr:state": "CA", "addr:street_address": "1088 ANNAPOLIS DR", "amenity": "post_box", "collection_times": "Mo-Sa 13:00", "note": "ON 12/24 AND 12/31, THIS BOX MAY BE COLLECTED AS EARLY AS 12 NOON.", "nsi_id": "unitedstatespostalservice-a77078", "operator": "United States Postal Service", "operator:short": "USPS", "operator:type": "public", "operator:wikidata": "Q668687", "ref": "9440300032"}, "type": "Feature"}
{"geometry": {"coordinates": [-122.279397, 37.543792], "type": "Point"}, "id": "Vq3JNbRuWdAyFLz41eAGzFhWHnY=", "properties": {"@source_uri": "https://tools.usps.com/UspsToolsRestServices/rest/POLocator/findLocations", "@spider": "usps_collection_boxes", "addr:city": "SAN MATEO", "addr:country": "US", "addr:postcode": "94403", "addr:state": "CA", "addr:street_address": "3200 LOS PRADOS ST", "amenity": "post_box", "collection_times": "Mo-Sa 13:00", "note": "ON 12/24 AND 12/31, THIS BOX MAY BE COLLECTED AS EARLY AS 12 NOON.", "nsi_id": "unitedstatespostalservice-a77078", "operator": "United States Postal Service", "operator:short": "USPS", "operator:type": "public", "operator:wikidata": "Q668687", "ref": "9440300033"}, "type": "Feature"}
{"geometry": {"coordinates": [-122.328239, 37.534145], "type": "Point"}, "id": "eCcUwNXfFL04-AEuxdsOrlt8FTo=", "properties": {"@source_uri": "https://tools.usps.com/UspsToolsRestServices/rest/POLocator/findLocations", "@spider": "usps_collection_boxes", "addr:city": "SAN MATEO", "addr:country": "US", "addr:postcode": "94403", "addr:state": "CA", "addr:street_address": "3150 CAMPUS DR", "amenity": "post_box", "collection_times": "Mo-Sa 15:00", "note": "ON 12/24 AND 12/31, THIS BOX MAY BE COLLECTED AS EARLY AS 12 NOON.", "nsi_id": "unitedstatespostalservice-a77078", "operator": "United States Postal Service", "operator:short": "USPS", "operator:type": "public", "operator:wikidata": "Q668687", "ref": "9440300046"}, "type": "Feature"}
{"geometry": {"coordinates": [-122.308351, 37.547131], "type": "Point"}, "id": "mDtiC8sbA1uALy9jhYpmpKKmfCI=", "properties": {"@source_uri": "https://tools.usps.com/UspsToolsRestServices/rest/POLocator/findLocations", "@spider": "usps_collection_boxes", "addr:city": "SAN MATEO", "addr:country": "US", "addr:postcode": "94403", "addr:state": "CA", "addr:street_address": "2121 S EL CAMINO REAL", "amenity": "post_box", "collection_times": "Mo-Fr 15:00; Sa 13:00", "note": "ON 12/24 AND 12/31, THIS BOX MAY BE COLLECTED AS EARLY AS 12 NOON.", "nsi_id": "unitedstatespostalservice-a77078", "operator": "United States Postal Service", "operator:short": "USPS", "operator:type": "public", "operator:wikidata": "Q668687", "ref": "9440300054"}, "type": "Feature"}
{"geometry": {"coordinates": [-122.306699, 37.54318], "type": "Point"}, "id": "phS91eNg9Z9NTDVuZCCZBUiHmig=", "properties": {"@source_uri": "https://tools.usps.com/UspsToolsRestServices/rest/POLocator/findLocations", "@spider": "usps_collection_boxes", "addr:city": "SAN MATEO", "addr:country": "US", "addr:postcode": "94403", "addr:state": "CA", "addr:street_address": "2555 FLORES ST", "amenity": "post_box", "collection_times": "Mo-Sa 13:00", "note": "ON 12/24 AND 12/31, THIS BOX MAY BE COLLECTED AS EARLY AS 12 NOON.", "nsi_id": "unitedstatespostalservice-a77078", "operator": "United States Postal Service", "operator:short": "USPS", "operator:type": "public", "operator:wikidata": "Q668687", "ref": "9440300059"}, "type": "Feature"}
{"geometry": {"coordinates": [-122.310064, 37.544935], "type": "Point"}, "id": "dmhKGyhwZnQwI9Lvx9uvklCf0bE=", "properties": {"@source_uri": "https://tools.usps.com/UspsToolsRestServices/rest/POLocator/findLocations", "@spider": "usps_collection_boxes", "addr:city": "SAN MATEO", "addr:country": "US", "addr:postcode": "94403", "addr:state": "CA", "addr:street_address": "221 PORTOLA DR", "amenity": "post_box", "collection_times": "Mo-Fr 13:00", "note": "ON 12/24 AND 12/31, THIS BOX MAY BE COLLECTED AS EARLY AS 12 NOON.", "nsi_id": "unitedstatespostalservice-a77078", "operator": "United States Postal Service", "operator:short": "USPS", "operator:type": "public", "operator:wikidata": "Q668687", "ref": "9440300060"}, "type": "Feature"}
{"geometry": {"coordinates": [-122.299638, 37.535292], "type": "Point"}, "id": "Uf8aSvFG8bJurRmpZ2n69QJceSY=", "properties": {"@source_uri": "https://tools.usps.com/UspsToolsRestServices/rest/POLocator/findLocations", "@spider": "usps_collection_boxes", "addr:city": "SAN MATEO", "addr:country": "US", "addr:postcode": "94403", "addr:state": "CA", "addr:street_address": "81 W HILLSDALE BLVD", "amenity": "post_box", "collection_times": "Mo-Sa 13:00", "note": "ON 12/24 AND 12/31, THIS BOX MAY BE COLLECTED AS EARLY AS 12 NOON.", "nsi_id": "unitedstatespostalservice-a77078", "operator": "United States Postal Service", "operator:short": "USPS", "operator:type": "public", "operator:wikidata": "Q668687", "ref": "9440300067"}, "type": "Feature"}
{"geometry": {"coordinates": [-122.289881, 37.566015], "type": "Point"}, "id": "4SF8IH4YowNlXz59wImhwMVZCcU=", "properties": {"@source_uri": "https://tools.usps.com/UspsToolsRestServices/rest/POLocator/findLocations", "@spider": "usps_collection_boxes", "addr:city": "SAN MATEO", "addr:country": "US", "addr:postcode": "94403", "addr:state": "CA", "addr:street_address": "2372 KEHOE AVE", "amenity": "post_box", "collection_times": "Mo-Fr 13:00", "note": "ON 12/24 AND 12/31, THIS BOX MAY BE COLLECTED AS EARLY AS 12 NOON.", "nsi_id": "unitedstatespostalservice-a77078", "operator": "United States Postal Service", "operator:short": "USPS", "operator:type": "public", "operator:wikidata": "Q668687", "ref": "9440300069"}, "type": "Feature"}
{"geometry": {"coordinates": [-122.285127, 37.54309], "type": "Point"}, "id": "3XQbjiWUx9ULMWVcarGADvs-g5Y=", "properties": {"@source_uri": "https://tools.usps.com/UspsToolsRestServices/rest/POLocator/findLocations", "@spider": "usps_collection_boxes", "addr:city": "SAN MATEO", "addr:country": "US", "addr:postcode": "94403", "addr:state": "CA", "addr:street_address": "3130 LA SELVA ST", "amenity": "post_box", "collection_times": "Mo-Fr 15:00; Sa 13:00", "note": "ON 12/24 AND 12/31, THIS BOX MAY BE COLLECTED AS EARLY AS 12 NOON.", "nsi_id": "unitedstatespostalservice-a77078", "operator": "United States Postal Service", "operator:short": "USPS", "operator:type": "public", "operator:wikidata": "Q668687", "ref": "9440300070"}, "type": "Feature"}
{"geometry": {"coordinates": [-122.293842, 37.554441], "type": "Point"}, "id": "jdytsofwlXPAZAdOPZNWQf_SKvY=", "properties": {"@source_uri": "https://tools.usps.com/UspsToolsRestServices/rest/POLocator/findLocations", "@spider": "usps_collection_boxes", "addr:city": "SAN MATEO", "addr:country": "US", "addr:postcode": "94403", "addr:state": "CA", "addr:street_address": "1850 S NORFOLK ST", "amenity": "post_box", "collection_times": "Mo-Fr 13:00; Sa 15:00", "note": "ON 12/24 AND 12/31, THIS BOX MAY BE COLLECTED AS EARLY AS 12 NOON.", "nsi_id": "unitedstatespostalservice-a77078", "operator": "United States Postal Service", "operator:short": "USPS", "operator:type": "public", "operator:wikidata": "Q668687", "ref": "9440300072"}, "type": "Feature"}
{"geometry": {"coordinates": [-122.291639, 37.552778], "type": "Point"}, "id": "uV2T_N0oBIkf-dhIgJZoSB_6gNM=", "properties": {"@source_uri": "https://tools.usps.com/UspsToolsRestServices/rest/POLocator/findLocations", "@spider": "usps_collection_boxes", "addr:city": "SAN MATEO", "addr:country": "US", "addr:postcode": "94403", "addr:state": "CA", "addr:street_address": "1900 S NORFOLK ST", "amenity": "post_box", "collection_times": "Mo-Sa 15:00", "note": "ON 12/24 AND 12/31, THIS BOX MAY BE COLLECTED AS EARLY AS 12 NOON.", "nsi_id": "unitedstatespostalservice-a77078", "operator": "United States Postal Service", "operator:short": "USPS", "operator:type": "public", "operator:wikidata": "Q668687", "ref": "9440300073"}, "type": "Feature"}
{"geometry": {"coordinates": [-122.284817, 37.544868], "type": "Point"}, "id": "WrFktcw8u5msg9at9X-O_a0WJdo=", "properties": {"@source_uri": "https://tools.usps.com/UspsToolsRestServices/rest/POLocator/findLocations", "@spider": "usps_collection_boxes", "addr:city": "SAN MATEO", "addr:country": "US", "addr:postcode": "94403", "addr:state": "CA", "addr:street_address": "2968 S NORFOLK ST", "amenity": "post_box", "collection_times": "Mo-Fr 15:00; Sa 13:00", "note": "ON 12/24 AND 12/31, THIS BOX MAY BE COLLECTED AS EARLY AS 12 NOON.", "nsi_id": "unitedstatespostalservice-a77078", "operator": "United States Postal Service", "operator:short": "USPS", "operator:type": "public", "operator:wikidata": "Q668687", "ref": "9440300076"}, "type": "Feature"}
{"geometry": {"coordinates": [-122.294393, 37.55658], "type": "Point"}, "id": "yGAculhfQHPO-M6wjxw-gu82Z_Y=", "properties": {"@source_uri": "https://tools.usps.com/UspsToolsRestServices/rest/POLocator/findLocations", "@spider": "usps_collection_boxes", "addr:city": "SAN MATEO", "addr:country": "US", "addr:postcode": "94403", "addr:state": "CA", "addr:street_address": "1501 ROBERTA DR", "amenity": "post_box", "collection_times": "Mo-Sa 13:00", "note": "ON 12/24 AND 12/31, THIS BOX MAY BE COLLECTED AS EARLY AS 12 NOON.", "nsi_id": "unitedstatespostalservice-a77078", "operator": "United States Postal Service", "operator:short": "USPS", "operator:type": "public", "operator:wikidata": "Q668687", "ref": "9440300078"}, "type": "Feature"}
{"geometry": {"coordinates": [-122.288105, 37.530678], "type": "Point"}, "id": "kCtSLfw9pyalA5S-0K9SVn-p32s=", "properties": {"@source_uri": "https://tools.usps.com/UspsToolsRestServices/rest/POLocator/findLocations", "@spider": "usps_collection_boxes", "addr:city": "SAN MATEO", "addr:country": "US", "addr:postcode": "94403", "addr:state": "CA", "addr:street_address": "4055 PACIFIC BLVD", "amenity": "post_box", "collection_times": "Mo-Fr 15:00; Sa 13:00", "note": "ON 12/24 AND 12/31, THIS BOX MAY BE COLLECTED AS EARLY AS 12 NOON.", "nsi_id": "unitedstatespostalservice-a77078", "operator": "United States Postal Service", "operator:short": "USPS", "operator:type": "public", "operator:wikidata": "Q668687", "ref": "9440300081"}, "type": "Feature"}
{"geometry": {"coordinates": [-122.306463, 37.546627], "type": "Point"}, "id": "lkHMrhAII-v6MQo6FoSJBam8xBw=", "properties": {"@source_uri": "https://tools.usps.com/UspsToolsRestServices/rest/POLocator/findLocations", "@spider": "usps_collection_boxes", "addr:city": "SAN MATEO", "addr:country": "US", "addr:postcode": "94403", "addr:state": "CA", "addr:street_address": "2211 PALM AVE", "amenity": "post_box", "collection_times": "Mo-Fr 13:00", "note": "ON 12/24 AND 12/31, THIS BOX MAY BE COLLECTED AS EARLY AS 12 NOON.", "nsi_id": "unitedstatespostalservice-a77078", "operator": "United States Postal Service", "operator:short": "USPS", "operator:type": "public", "operator:wikidata": "Q668687", "ref": "9440300082"}, "type": "Feature"}
{"geometry": {"coordinates": [-122.312181, 37.547546], "type": "Point"}, "id": "BVj45f27V6sQFpgFL8PWEAsqM_w=", "properties": {"@source_uri": "https://tools.usps.com/UspsToolsRestServices/rest/POLocator/findLocations", "@spider": "usps_collection_boxes", "addr:city": "SAN MATEO", "addr:country": "US", "addr:postcode": "94403", "addr:state": "CA", "addr:street_address": "2001 PIONEER CT", "amenity": "post_box", "collection_times": "Mo-Fr 15:00", "note": "ON 12/24 AND 12/31, THIS BOX MAY BE COLLECTED AS EARLY AS 12 NOON.", "nsi_id": "unitedstatespostalservice-a77078", "operator": "United States Postal Service", "operator:short": "USPS", "operator:type": "public", "operator:wikidata": "Q668687", "ref": "9440300083"}, "type": "Feature"}
{"geometry": {"coordinates": [-122.290015, 37.540967], "type": "Point"}, "id": "NmjVx2fEb9OkjL7LNo6IDY36xpE=", "properties": {"@source_uri": "https://tools.usps.com/UspsToolsRestServices/rest/POLocator/findLocations", "@spider": "usps_collection_boxes", "addr:city": "SAN MATEO", "addr:country": "US", "addr:postcode": "94403", "addr:state": "CA", "addr:street_address": "3301 SARATOGA DR", "amenity": "post_box", "collection_times": "Mo-Sa 13:00", "note": "ON 12/24 AND 12/31, THIS BOX MAY BE COLLECTED AS EARLY AS 12 NOON.", "nsi_id": "unitedstatespostalservice-a77078", "operator": "United States Postal Service", "operator:short": "USPS", "operator:type": "public", "operator:wikidata": "Q668687", "ref": "9440300084"}, "type": "Feature"}
{"geometry": {"coordinates": [-122.3078596262, 37.5435216143], "type": "Point"}, "id": "fd33-1HQ6doGi8osQxHYEe6IZq8=", "properties": {"@source_uri": "https://tools.usps.com/UspsToolsRestServices/rest/POLocator/findLocations", "@spider": "usps_collection_boxes", "addr:city": "SAN MATEO", "addr:country": "US", "addr:postcode": "94403", "addr:state": "CA", "addr:street_address": "135 W 25TH AVE", "amenity": "post_box", "collection_times": "Mo-Fr 17:00; Sa 16:30", "indoor": "yes", "note": "ON 12/24 AND 12/31, THIS BOX MAY BE COLLECTED AS EARLY AS 12 NOON.", "nsi_id": "unitedstatespostalservice-a77078", "operator": "United States Postal Service", "operator:short": "USPS", "operator:type": "public", "operator:wikidata": "Q668687", "ref": "9440300090"}, "type": "Feature"}
{"geometry": {"coordinates": [-122.325606, 37.533587], "type": "Point"}, "id": "2-Gdq71WFaOC_amX7To5Rv07tXo=", "properties": {"@source_uri": "https://tools.usps.com/UspsToolsRestServices/rest/POLocator/findLocations", "@spider": "usps_collection_boxes", "addr:city": "SAN MATEO", "addr:country": "US", "addr:postcode": "94403", "addr:state": "CA", "addr:street_address": "1202 W HILLSDALE BLVD", "amenity": "post_box", "collection_times": "Mo-Sa 13:00", "note": "ON 12/24 AND 12/31, THIS BOX MAY BE COLLECTED AS EARLY AS 12 NOON.", "nsi_id": "unitedstatespostalservice-a77078", "operator": "United States Postal Service", "operator:short": "USPS", "operator:type": "public", "operator:wikidata": "Q668687", "ref": "9440300091"}, "type": "Feature"}
{"geometry": {"coordinates": [-122.292878, 37.544562], "type": "Point"}, "id": "CNvodbhyIBMZJjLHgr2A-Fdi_bc=", "properties": {"@source_uri": "https://tools.usps.com/UspsToolsRestServices/rest/POLocator/findLocations", "@spider": "usps_collection_boxes", "addr:city": "SAN MATEO", "addr:country": "US", "addr:postcode": "94403", "addr:state": "CA", "addr:street_address": "1391 PARK PL", "amenity": "post_box", "collection_times": "Mo-Fr 15:00", "note": "ON 12/24 AND 12/31, THIS BOX MAY BE COLLECTED AS EARLY AS 12 NOON.", "nsi_id": "unitedstatespostalservice-a77078", "operator": "United States Postal Service", "operator:short": "USPS", "operator:type": "public", "operator:wikidata": "Q668687", "ref": "9440300097"}, "type": "Feature"}
{"geometry": {"coordinates": [-122.303499, 37.545941], "type": "Point"}, "id": "GjWJ_QEM3AFbXW5zVFOakdmIKP8=", "properties": {"@source_uri": "https://tools.usps.com/UspsToolsRestServices/rest/POLocator/findLocations", "@spider": "usps_collection_boxes", "addr:city": "SAN MATEO", "addr:country": "US", "addr:postcode": "94403", "addr:state": "CA", "addr:street_address": "2495 S DELAWARE ST", "amenity": "post_box", "collection_times": "Mo-Fr 15:00", "note": "ON 12/24 AND 12/31, THIS BOX MAY BE COLLECTED AS EARLY AS 12 NOON.", "nsi_id": "unitedstatespostalservice-a77078", "operator": "United States Postal Service", "operator:short": "USPS", "operator:type": "public", "operator:wikidata": "Q668687", "ref": "9440300100"}, "type": "Feature"}
{"geometry": {"coordinates": [-122.291931, 37.54255], "type": "Point"}, "id": "D_j80HJ_c48po4Xy7uim5JkmM2U=", "properties": {"@source_uri": "https://tools.usps.com/UspsToolsRestServices/rest/POLocator/findLocations", "@spider": "usps_collection_boxes", "addr:city": "SAN MATEO", "addr:country": "US", "addr:postcode": "94403", "addr:state": "CA", "addr:street_address": "200 FRANKLIN PKWY", "amenity": "post_box", "collection_times": "Mo-Fr 15:00", "note": "ON 12/24 AND 12/31, THIS BOX MAY BE COLLECTED AS EARLY AS 12 NOON.", "nsi_id": "unitedstatespostalservice-a77078", "operator": "United States Postal Service", "operator:short": "USPS", "operator:type": "public", "operator:wikidata": "Q668687", "ref": "9440300102"}, "type": "Feature"}
{"geometry": {"coordinates": [-122.3078596262, 37.5435216143], "type": "Point"}, "id": "17Dscdqx7_RexAV7n3cw1-6GQPY=", "properties": {"@source_uri": "https://tools.usps.com/UspsToolsRestServices/rest/POLocator/findLocations", "@spider": "usps_collection_boxes", "addr:city": "SAN MATEO", "addr:country": "US", "addr:postcode": "94403", "addr:state": "CA", "addr:street_address": "135 W 25TH AVE", "amenity": "post_box", "collection_times": "Mo-Fr 17:00", "indoor": "yes", "note": "ON 12/24 AND 12/31, THIS BOX MAY BE COLLECTED AS EARLY AS 12 NOON.", "nsi_id": "unitedstatespostalservice-a77078", "operator": "United States Postal Service", "operator:short": "USPS", "operator:type": "public", "operator:wikidata": "Q668687", "ref": "9440300111"}, "type": "Feature"}
{"geometry": {"coordinates": [-122.250718, 37.563781], "type": "Point"}, "id": "kimYW0kVLFNtdylnM3Y9-ulFTtI=", "properties": {"@source_uri": "https://tools.usps.com/UspsToolsRestServices/rest/POLocator/findLocations", "@spider": "usps_collection_boxes", "addr:city": "FOSTER CITY", "addr:country": "US", "addr:postcode": "94404", "addr:state": "CA", "addr:street_address": "1485 MARLIN AVE", "amenity": "post_box", "collection_times": "Mo-Sa 15:00", "note": "ON 12/24 AND 12/31, THIS BOX MAY BE COLLECTED AS EARLY AS 12 NOON.", "nsi_id": "unitedstatespostalservice-a77078", "operator": "United States Postal Service", "operator:short": "USPS", "operator:type": "public", "operator:wikidata": "Q668687", "ref": "9440400002"}, "type": "Feature"}
{"geometry": {"coordinates": [-122.273928, 37.567882], "type": "Point"}, "id": "_sx6cxOS8rKXELvT-KwK3WqzN3A=", "properties": {"@source_uri": "https://tools.usps.com/UspsToolsRestServices/rest/POLocator/findLocations", "@spider": "usps_collection_boxes", "addr:city": "FOSTER CITY", "addr:country": "US", "addr:postcode": "94404", "addr:state": "CA", "addr:street_address": "1147 CHESS DR", "amenity": "post_box", "collection_times": "Mo-Sa 15:00", "note": "ON 12/24 AND 12/31, THIS BOX MAY BE COLLECTED AS EARLY AS 12 NOON.", "nsi_id": "unitedstatespostalservice-a77078", "operator": "United States Postal Service", "operator:short": "USPS", "operator:type": "public", "operator:wikidata": "Q668687", "ref": "9440400005"}, "type": "Feature"}
{"geometry": {"coordinates": [-122.272471, 37.566194], "type": "Point"}, "id": "4ITG-HrJGTSpFFo22vpFCTg804E=", "properties": {"@source_uri": "https://tools.usps.com/UspsToolsRestServices/rest/POLocator/findLocations", "@spider": "usps_collection_boxes", "addr:city": "FOSTER CITY", "addr:country": "US", "addr:postcode": "94404", "addr:state": "CA", "addr:street_address": "1163 CHESS DR", "amenity": "post_box", "collection_times": "Mo-Sa 15:00", "note": "ON 12/24 AND 12/31, THIS BOX MAY BE COLLECTED AS EARLY AS 12 NOON.", "nsi_id": "unitedstatespostalservice-a77078", "operator": "United States Postal Service", "operator:short": "USPS", "operator:type": "public", "operator:wikidata": "Q668687", "ref": "9440400008"}, "type": "Feature"}
{"geometry": {"coordinates": [-122.280577, 37.55548], "type": "Point"}, "id": "KYiSVvYt06Sm9I52EjqLAvYYyio=", "properties": {"@source_uri": "https://tools.usps.com/UspsToolsRestServices/rest/POLocator/findLocations", "@spider": "usps_collection_boxes", "addr:city": "FOSTER CITY", "addr:country": "US", "addr:postcode": "94404", "addr:state": "CA", "addr:street_address": "1800 GATEWAY DR", "amenity": "post_box", "collection_times": "Mo-Fr 15:00", "note": "ON 12/24 AND 12/31, THIS BOX MAY BE COLLECTED AS EARLY AS 12 NOON.", "nsi_id": "unitedstatespostalservice-a77078", "operator": "United States Postal Service", "operator:short": "USPS", "operator:type": "public", "operator:wikidata": "Q668687", "ref": "9440400012"}, "type": "Feature"}
{"geometry": {"coordinates": [-122.27571, 37.552826], "type": "Point"}, "id": "09NMQIdshM43yMev7bD-fS-AJ3A=", "properties": {"@source_uri": "https://tools.usps.com/UspsToolsRestServices/rest/POLocator/findLocations", "@spider": "usps_collection_boxes", "addr:city": "FOSTER CITY", "addr:country": "US", "addr:postcode": "94404", "addr:state": "CA", "addr:street_address": "700 EDGEWATER BLVD", "amenity": "post_box", "collection_times": "Mo-Fr 13:00; Sa 15:00", "note": "ON 12/24 AND 12/31, THIS BOX MAY BE COLLECTED AS EARLY AS 12 NOON.", "nsi_id": "unitedstatespostalservice-a77078", "operator": "United States Postal Service", "operator:short": "USPS", "operator:type": "public", "operator:wikidata": "Q668687", "ref": "9440400013"}, "type": "Feature"}
{"geometry": {"coordinates": [-122.270771, 37.544506], "type": "Point"}, "id": "wWhHEp97sUDzVzZq9E11QSvtdxc=", "properties": {"@source_uri": "https://tools.usps.com/UspsToolsRestServices/rest/POLocator/findLocations", "@spider": "usps_collection_boxes", "addr:city": "FOSTER CITY", "addr:country": "US", "addr:postcode": "94404", "addr:state": "CA", "addr:street_address": "939 EDGEWATER BLVD", "amenity": "post_box", "collection_times": "Mo-Sa 15:00", "note": "ON 12/24 AND 12/31, THIS BOX MAY BE COLLECTED AS EARLY AS 12 NOON.", "nsi_id": "unitedstatespostalservice-a77078", "operator": "United States Postal Service", "operator:short": "USPS", "operator:type": "public", "operator:wikidata": "Q668687", "ref": "9440400014"}, "type": "Feature"}
{"geometry": {"coordinates": [-122.269261, 37.560569], "type": "Point"}, "id": "HZ8jTTDZEL_z4QmNWz-CCCEVecE=", "properties": {"@source_uri": "https://tools.usps.com/UspsToolsRestServices/rest/POLocator/findLocations", "@spider": "usps_collection_boxes", "addr:city": "FOSTER CITY", "addr:country": "US", "addr:postcode": "94404", "addr:state": "CA", "addr:street_address": "610 FOSTER CITY BLVD", "amenity": "post_box", "collection_times": "Mo-Sa 15:00", "note": "ON 12/24 AND 12/31, THIS BOX MAY BE COLLECTED AS EARLY AS 12 NOON.", "nsi_id": "unitedstatespostalservice-a77078", "operator": "United States Postal Service", "operator:short": "USPS", "operator:type": "public", "operator:wikidata": "Q668687", "ref": "9440400015"}, "type": "Feature"}
{"geometry": {"coordinates": [-122.274623, 37.567227], "type": "Point"}, "id": "GLsCrWnuj8LSObh2XDHWpxYkfzo=", "properties": {"@source_uri": "https://tools.usps.com/UspsToolsRestServices/rest/POLocator/findLocations", "@spider": "usps_collection_boxes", "addr:city": "FOSTER CITY", "addr:country": "US", "addr:postcode": "94404", "addr:state": "CA", "addr:street_address": "330 HATCH DR", "amenity": "post_box", "collection_times": "Mo-Fr 15:00", "note": "ON 12/24 AND 12/31, THIS BOX MAY BE COLLECTED AS EARLY AS 12 NOON.", "nsi_id": "unitedstatespostalservice-a77078", "operator": "United States Postal Service", "operator:short": "USPS", "operator:type": "public", "operator:wikidata": "Q668687", "ref": "9440400018"}, "type": "Feature"}
{"geometry": {"coordinates": [-122.271037, 37.561413], "type": "Point"}, "id": "LGkldFYuCLlV3RwCw9SQ_g9QjFg=", "properties": {"@source_uri": "https://tools.usps.com/UspsToolsRestServices/rest/POLocator/findLocations", "@spider": "usps_collection_boxes", "addr:city": "FOSTER CITY", "addr:country": "US", "addr:postcode": "94404", "addr:state": "CA", "addr:street_address": "1065 E HILLSDALE BLVD", "amenity": "post_box", "collection_times": "Mo-Sa 15:00", "note": "ON 12/24 AND 12/31, THIS BOX MAY BE COLLECTED AS EARLY AS 12 NOON.", "nsi_id": "unitedstatespostalservice-a77078", "operator": "United States Postal Service", "operator:short": "USPS", "operator:type": "public", "operator:wikidata": "Q668687", "ref": "9440400021"}, "type": "Feature"}
{"geometry": {"coordinates": [-122.269747, 37.564649], "type": "Point"}, "id": "HvLswLo0pJWPtiz_VnD2C1KMIl8=", "properties": {"@source_uri": "https://tools.usps.com/UspsToolsRestServices/rest/POLocator/findLocations", "@spider": "usps_collection_boxes", "addr:city": "FOSTER CITY", "addr:country": "US", "addr:postcode": "94404", "addr:state": "CA", "addr:street_address": "1151 TRITON DR", "amenity": "post_box", "collection_times": "Mo-Sa 15:00", "note": "ON 12/24 AND 12/31, THIS BOX MAY BE COLLECTED AS EARLY AS 12 NOON.", "nsi_id": "unitedstatespostalservice-a77078", "operator": "United States Postal Service", "operator:short": "USPS", "operator:type": "public", "operator:wikidata": "Q668687", "ref": "9440400031"}, "type": "Feature"}
{"geometry": {"coordinates": [-122.277487, 37.564169], "type": "Point"}, "id": "Lgm7oN_QLTDbr4vYS1ycvJztuU4=", "properties": {"@source_uri": "https://tools.usps.com/UspsToolsRestServices/rest/POLocator/findLocations", "@spider": "usps_collection_boxes", "addr:city": "FOSTER CITY", "addr:country": "US", "addr:postcode": "94404", "addr:state": "CA", "addr:street_address": "363 VINTAGE PARK DR", "amenity": "post_box", "collection_times": "Mo-Sa 15:00", "note": "ON 12/24 AND 12/31, THIS BOX MAY BE COLLECTED AS EARLY AS 12 NOON.", "nsi_id": "unitedstatespostalservice-a77078", "operator": "United States Postal Service", "operator:short": "USPS", "operator:type": "public", "operator:wikidata": "Q668687", "ref": "9440400036"}, "type": "Feature"}
{"geometry": {"coordinates": [-122.286125, 37.557989], "type": "Point"}, "id": "nuKCmcpFLEWc0q2m6fND_TuQlAw=", "properties": {"@source_uri": "https://tools.usps.com/UspsToolsRestServices/rest/POLocator/findLocations", "@spider": "usps_collection_boxes", "addr:city": "FOSTER CITY", "addr:country": "US", "addr:postcode": "94404", "addr:state": "CA", "addr:street_address": "1500 FASHION ISLAND BLVD", "amenity": "post_box", "collection_times": "Mo-Fr 13:00", "note": "ON 12/24 AND 12/31, THIS BOX MAY BE COLLECTED AS EARLY AS 12 NOON.", "nsi_id": "unitedstatespostalservice-a77078", "operator": "United States Postal Service", "operator:short": "USPS", "operator:type": "public", "operator:wikidata": "Q668687", "ref": "9440400042"}, "type": "Feature"}
{"geometry": {"coordinates": [-122.2701800189, 37.5635774194], "type": "Point"}, "id": "qlkj50FYzWJ5KtZtaa2Ja2XMbSI=", "properties": {"@source_uri": "https://tools.usps.com/UspsToolsRestServices/rest/POLocator/findLocations", "@spider": "usps_collection_boxes", "addr:city": "FOSTER CITY", "addr:country": "US", "addr:postcode": "94404", "addr:state": "CA", "addr:street_address": "1400 FASHION ISLAND BLVD", "amenity": "post_box", "collection_times": "Mo-Sa 15:00", "note": "ON 12/24 AND 12/31, THIS BOX MAY BE COLLECTED AS EARLY AS 12 NOON.", "nsi_id": "unitedstatespostalservice-a77078", "operator": "United States Postal Service", "operator:short": "USPS", "operator:type": "public", "operator:wikidata": "Q668687", "ref": "9440400045"}, "type": "Feature"}
{"geometry": {"coordinates": [-122.269601, 37.570456], "type": "Point"}, "id": "dgmjHpeFWXYjBVENmXLanbVwttU=", "properties": {"@source_uri": "https://tools.usps.com/UspsToolsRestServices/rest/POLocator/findLocations", "@spider": "usps_collection_boxes", "addr:city": "FOSTER CITY", "addr:country": "US", "addr:postcode": "94404", "addr:state": "CA", "addr:street_address": "101 LINCOLN CENTRE DR", "amenity": "post_box", "collection_times": "Mo-Fr 15:00", "note": "ON 12/24 AND 12/31, THIS BOX MAY BE COLLECTED AS EARLY AS 12 NOON.", "nsi_id": "unitedstatespostalservice-a77078", "operator": "United States Postal Service", "operator:short": "USPS", "operator:type": "public", "operator:wikidata": "Q668687", "ref": "9440400048"}, "type": "Feature"}
{"geometry": {"coordinates": [-122.28566, 37.563527], "type": "Point"}, "id": "ry1HSjAEiKp7xEW3-YBTi33IpAg=", "properties": {"@source_uri": "https://tools.usps.com/UspsToolsRestServices/rest/POLocator/findLocations", "@spider": "usps_collection_boxes", "addr:city": "FOSTER CITY", "addr:country": "US", "addr:postcode": "94404", "addr:state": "CA", "addr:street_address": "710 MARINERS ISLAND BLVD", "amenity": "post_box", "collection_times": "Mo-Fr 13:00; Sa 15:00", "note": "ON 12/24 AND 12/31, THIS BOX MAY BE COLLECTED AS EARLY AS 12 NOON.", "nsi_id": "unitedstatespostalservice-a77078", "operator": "United States Postal Service", "operator:short": "USPS", "operator:type": "public", "operator:wikidata": "Q668687", "ref": "9440400051"}, "type": "Feature"}
{"geometry": {"coordinates": [-122.287543, 37.559384], "type": "Point"}, "id": "iWovy6bZ-HZl88hlSByumd8MxG8=", "properties": {"@source_uri": "https://tools.usps.com/UspsToolsRestServices/rest/POLocator/findLocations", "@spider": "usps_collection_boxes", "addr:city": "FOSTER CITY", "addr:country": "US", "addr:postcode": "94404", "addr:state": "CA", "addr:street_address": "951 MARINERS ISLAND BLVD", "amenity": "post_box", "collection_times": "Mo-Sa 15:00", "note": "ON 12/24 AND 12/31, THIS BOX MAY BE COLLECTED AS EARLY AS 12 NOON.", "nsi_id": "unitedstatespostalservice-a77078", "operator": "United States Postal Service", "operator:short": "USPS", "operator:type": "public", "operator:wikidata": "Q668687", "ref": "9440400054"}, "type": "Feature"}
{"geometry": {"coordinates": [-122.282389, 37.555327], "type": "Point"}, "id": "xQxnOcO8-RMTeLCTwq3UOUQcQWY=", "properties": {"@source_uri": "https://tools.usps.com/UspsToolsRestServices/rest/POLocator/findLocations", "@spider": "usps_collection_boxes", "addr:city": "FOSTER CITY", "addr:country": "US", "addr:postcode": "94404", "addr:state": "CA", "addr:street_address": "2001 WINWARD WAY", "amenity": "post_box", "collection_times": "Mo-Fr 15:00", "note": "ON 12/24 AND 12/31, THIS BOX MAY BE COLLECTED AS EARLY AS 12 NOON.", "nsi_id": "unitedstatespostalservice-a77078", "operator": "United States Postal Service", "operator:short": "USPS", "operator:type": "public", "operator:wikidata": "Q668687", "ref": "9440400056"}, "type": "Feature"}
{"geometry": {"coordinates": [-122.275491, 37.556987], "type": "Point"}, "id": "uJl8HnF1qgOLG7OHgKLyEk3G6gk=", "properties": {"@source_uri": "https://tools.usps.com/UspsToolsRestServices/rest/POLocator/findLocations", "@spider": "usps_collection_boxes", "addr:city": "FOSTER CITY", "addr:country": "US", "addr:postcode": "94404", "addr:state": "CA", "addr:street_address": "927 E HILLSDALE BLVD", "amenity": "post_box", "collection_times": "Mo-Sa 15:00", "note": "ON 12/24 AND 12/31, THIS BOX MAY BE COLLECTED AS EARLY AS 12 NOON.", "nsi_id": "unitedstatespostalservice-a77078", "operator": "United States Postal Service", "operator:short": "USPS", "operator:type": "public", "operator:wikidata": "Q668687", "ref": "9440400061"}, "type": "Feature"}
{"geometry": {"coordinates": [-122.279756, 37.569673], "type": "Point"}, "id": "ynGGokRHgs4mtYr2m8MlY4aOPLo=", "properties": {"@source_uri": "https://tools.usps.com/UspsToolsRestServices/rest/POLocator/findLocations", "@spider": "usps_collection_boxes", "addr:city": "FOSTER CITY", "addr:country": "US", "addr:postcode": "94404", "addr:state": "CA", "addr:street_address": "303 VELOCITY WAY", "amenity": "post_box", "collection_times": "Mo-Fr 15:00", "note": "ON 12/24 AND 12/31, THIS BOX MAY BE COLLECTED AS EARLY AS 12 NOON.", "nsi_id": "unitedstatespostalservice-a77078", "operator": "United States Postal Service", "operator:short": "USPS", "operator:type": "public", "operator:wikidata": "Q668687", "ref": "9440400063"}, "type": "Feature"}
{"geometry": {"coordinates": [-122.266427, 37.571264], "type": "Point"}, "id": "6veV-m7PRTuC7kboh7pEgeyFDp0=", "properties": {"@source_uri": "https://tools.usps.com/UspsToolsRestServices/rest/POLocator/findLocations", "@spider": "usps_collection_boxes", "addr:city": "FOSTER CITY", "addr:country": "US", "addr:postcode": "94404", "addr:state": "CA", "addr:street_address": "4000 E 3RD AVE", "amenity": "post_box", "collection_times": "Mo-Fr 15:00", "note": "ON 12/24 AND 12/31, THIS BOX MAY BE COLLECTED AS EARLY AS 12 NOON.", "nsi_id": "unitedstatespostalservice-a77078", "operator": "United States Postal Service", "operator:short": "USPS", "operator:type": "public", "operator:wikidata": "Q668687", "ref": "9440400065"}, "type": "Feature"}
{"geometry": {"coordinates": [-122.256029, 37.553471], "type": "Point"}, "id": "TYFtWlqmeMODAh_jTYpsjRG7Gks=", "properties": {"@source_uri": "https://tools.usps.com/UspsToolsRestServices/rest/POLocator/findLocations", "@spider": "usps_collection_boxes", "addr:city": "FOSTER CITY", "addr:country": "US", "addr:postcode": "94404", "addr:state": "CA", "addr:street_address": "1098 FOSTER CITY BLVD", "amenity": "post_box", "collection_times": "Mo-Sa 15:00", "note": "ON 12/24 AND 12/31, THIS BOX MAY BE COLLECTED AS EARLY AS 12 NOON.", "nsi_id": "unitedstatespostalservice-a77078", "operator": "United States Postal Service", "operator:short": "USPS", "operator:type": "public", "operator:wikidata": "Q668687", "ref": "9440400067"}, "type": "Feature"}
{"geometry": {"coordinates": [-122.26798, 37.56543], "type": "Point"}, "id": "QgmllqPRjik2MajQ1cmu3Oknl90=", "properties": {"@source_uri": "https://tools.usps.com/UspsToolsRestServices/rest/POLocator/findLocations", "@spider": "usps_collection_boxes", "addr:city": "FOSTER CITY", "addr:country": "US", "addr:postcode": "94404", "addr:state": "CA", "addr:street_address": "750 ALMA LN", "amenity": "post_box", "collection_times": "Mo-Fr 17:00; Sa 16:45", "indoor": "yes", "note": "ON 12/24 AND 12/31, THIS BOX MAY BE COLLECTED AS EARLY AS 12 NOON.", "nsi_id": "unitedstatespostalservice-a77078", "operator": "United States Postal Service", "operator:short": "USPS", "operator:type": "public", "operator:wikidata": "Q668687", "ref": "9440400076"}, "type": "Feature"}
