{"geometry": {"coordinates": [-122.215706598, 37.790477802], "type": "Point"}, "id": "LNrurpZVETFIY2VGHsgiIiud8TI=", "properties": {"@spider": "usps_collection_boxes", "addr:city": "OAKLAND", "addr:country": "US", "addr:full": "2842 COOLIDGE AVE", "addr:postcode": "94601", "addr:state": "CA", "brand": "USPS", "collection_times": "Mo-Sa 11:30", "name": "USPS COLLECTION BOX - BLUE BOX", "ref": "9460100009"}, "type": "Feature"}
{"geometry": {"coordinates": [-122.220207, 37.79061], "type": "Point"}, "id": "l5jNxV6Dwe9aQ_km-D2s2EYz_Po=", "properties": {"@spider": "usps_collection_boxes", "addr:city": "OAKLAND", "addr:country": "US", "addr:full": "2701 FRUITVALE AVE", "addr:postcode": "94601", "addr:state": "CA", "brand": "USPS", "collection_times": "Mo-Sa 11:30", "name": "USPS COLLECTION BOX - BLUE BOX", "ref": "9460100018"}, "type": "Feature"}
{"geometry": {"coordinates": [-122.2010267941, 37.7725675149], "type": "Point"}, "id": "X1yPmhBr0TMz9hcD2x057qwCa_4=", "properties": {"@spider": "usps_collection_boxes", "addr:city": "OAKLAND", "addr:country": "US", "addr:full": "5285 FOOTHILL BLVD", "addr:postcode": "94601", "addr:state": "CA", "brand": "USPS", "collection_times": "Mo-Sa 12:30", "name": "USPS COLLECTION BOX - BLUE BOX", "note": "ON 12/24 AND 12/31, THIS BOX MAY BE COLLECTED AS EARLY AS 12 NOON.", "ref": "9460100019"}, "type": "Feature"}
{"geometry": {"coordinates": [-122.2252176274, 37.7869538654], "type": "Point"}, "id": "lda6qHqEoGm4AHkgcjGKJAkuilA=", "properties": {"@spider": "usps_collection_boxes", "addr:city": "OAKLAND", "addr:country": "US", "addr:full": "2700 E 23RD ST", "addr:postcode": "94601", "addr:state": "CA", "brand": "USPS", "collection_times": "Mo-Sa 11:30", "name": "USPS COLLECTION BOX - BLUE BOX", "ref": "9460100030"}, "type": "Feature"}
{"geometry": {"coordinates": [-122.235264, 37.772773], "type": "Point"}, "id": "5w96FRTQD3rrY5rN65IEMAEQDSo=", "properties": {"@spider": "usps_collection_boxes", "addr:city": "OAKLAND", "addr:country": "US", "addr:full": "400 29TH AVE", "addr:postcode": "94601", "addr:state": "CA", "brand": "USPS", "collection_times": "Mo-Sa 11:00", "name": "USPS COLLECTION BOX - BLUE BOX", "ref": "9460100033"}, "type": "Feature"}
{"geometry": {"coordinates": [-122.2197284194, 37.7747176675], "type": "Point"}, "id": "bRavL8UbSRv-CnIF0YO1h2hkyuc=", "properties": {"@spider": "usps_collection_boxes", "addr:city": "OAKLAND", "addr:country": "US", "addr:full": "3800 INTERNATIONAL BLVD", "addr:postcode": "94601", "addr:state": "CA", "brand": "USPS", "collection_times": "Mo-Sa 12:00", "name": "USPS COLLECTION BOX - BLUE BOX", "ref": "9460100038"}, "type": "Feature"}
{"geometry": {"coordinates": [-122.2114032934, 37.76691285], "type": "Point"}, "id": "N5F5QddXyrCw8pqkp-D4FLB0Jk4=", "properties": {"@spider": "usps_collection_boxes", "addr:city": "OAKLAND", "addr:country": "US", "addr:full": "1062 50TH AVE", "addr:postcode": "94601", "addr:state": "CA", "brand": "USPS", "collection_times": "Mo-Sa 12:30", "name": "USPS COLLECTION BOX - BLUE BOX", "note": "ON 12/24 AND 12/31, THIS BOX MAY BE COLLECTED AS EARLY AS 12 NOON.", "ref": "9460100046"}, "type": "Feature"}
{"geometry": {"coordinates": [-122.230905, 37.775562], "type": "Point"}, "id": "y4naUR_MzFbmmihmgX3rvd1-hgQ=", "properties": {"@spider": "usps_collection_boxes", "addr:city": "OAKLAND", "addr:country": "US", "addr:full": "3100 E 9TH ST", "addr:postcode": "94601", "addr:state": "CA", "brand": "USPS", "collection_times": "Mo-Fr 11:00; Sa 13:00", "name": "USPS COLLECTION BOX - BLUE BOX", "note": "ON 12/24 AND 12/31, THIS BOX MAY BE COLLECTED AS EARLY AS 12 NOON.", "ref": "9460100056"}, "type": "Feature"}
{"geometry": {"coordinates": [-122.2234019721, 37.7776136467], "type": "Point"}, "id": "SprMYMGbdkMAdCIN7MdHeVoipyk=", "properties": {"@spider": "usps_collection_boxes", "addr:city": "OAKLAND", "addr:country": "US", "addr:full": "1445 34TH AVE", "addr:postcode": "94601", "addr:state": "CA", "brand": "USPS", "collection_times": "Mo-Fr 17:00; Sa 14:00", "name": "USPS COLLECTION BOX - PO LOBBY", "note": "ON 12/24 AND 12/31, THIS BOX MAY BE COLLECTED AS EARLY AS 12 NOON.", "ref": "9460100059"}, "type": "Feature"}
{"geometry": {"coordinates": [-122.223401972, 37.777613647], "type": "Point"}, "id": "xD4T_QBKCML_I0elUaS6HjsQt0w=", "properties": {"@spider": "usps_collection_boxes", "addr:city": "OAKLAND", "addr:country": "US", "addr:full": "1445 34TH AVE", "addr:postcode": "94601", "addr:state": "CA", "brand": "USPS", "collection_times": "Mo-Fr 17:00; Sa 14:00", "name": "USPS COLLECTION BOX - BLUE BOX", "note": "ON 12/24 AND 12/31, THIS BOX MAY BE COLLECTED AS EARLY AS 12 NOON.", "ref": "9460100060"}, "type": "Feature"}
{"geometry": {"coordinates": [-122.2181859535, 37.8089916572], "type": "Point"}, "id": "1f17s82_q1F4DtaGG8fKhQtRDUo=", "properties": {"@spider": "usps_collection_boxes", "addr:city": "OAKLAND", "addr:country": "US", "addr:full": "4600 PARK BLVD", "addr:postcode": "94602", "addr:state": "CA", "brand": "USPS", "collection_times": "Mo-Sa 11:00", "name": "USPS COLLECTION BOX - BLUE BOX", "ref": "9460200022"}, "type": "Feature"}
{"geometry": {"coordinates": [-122.191795166, 37.801492325], "type": "Point"}, "id": "wTziMRMzJmU_ZP9hEZbZ5_oCtdI=", "properties": {"@spider": "usps_collection_boxes", "addr:city": "OAKLAND", "addr:country": "US", "addr:full": "3363 GUIDO ST", "addr:postcode": "94602", "addr:state": "CA", "brand": "USPS", "collection_times": "Mo-Sa 11:00", "name": "USPS COLLECTION BOX - BLUE BOX", "ref": "9460200030"}, "type": "Feature"}
{"geometry": {"coordinates": [-122.224662, 37.806143], "type": "Point"}, "id": "P6w4yl852bsrAmOgU8jSrGYwhAQ=", "properties": {"@spider": "usps_collection_boxes", "addr:city": "OAKLAND", "addr:country": "US", "addr:full": "1301 HAMPEL ST", "addr:postcode": "94602", "addr:state": "CA", "brand": "USPS", "collection_times": "Mo-Sa 11:00", "name": "USPS COLLECTION BOX - BLUE BOX", "ref": "9460200032"}, "type": "Feature"}
{"geometry": {"coordinates": [-122.197309, 37.811113], "type": "Point"}, "id": "wsxqddRYxwCgyG8HpAgX4jtn6Ck=", "properties": {"@spider": "usps_collection_boxes", "addr:city": "OAKLAND", "addr:country": "US", "addr:full": "5000 WOODMINSTER LN", "addr:postcode": "94602", "addr:state": "CA", "brand": "USPS", "collection_times": "Mo-Fr 15:00; Sa 13:00", "name": "USPS COLLECTION BOX - BLUE BOX", "note": "ON 12/24 AND 12/31, THIS BOX MAY BE COLLECTED AS EARLY AS 12 NOON.", "ref": "9460200034"}, "type": "Feature"}
{"geometry": {"coordinates": [-122.2121319651, 37.8117659818], "type": "Point"}, "id": "FdfDKby99Ly2tFiDU_L8FzB84M4=", "properties": {"@spider": "usps_collection_boxes", "addr:city": "OAKLAND", "addr:country": "US", "addr:full": "1454 LEIMERT BLVD", "addr:postcode": "94602", "addr:state": "CA", "brand": "USPS", "collection_times": "Mo-Fr 15:00; Sa 13:00", "name": "USPS COLLECTION BOX - BLUE BOX", "note": "ON 12/24 AND 12/31, THIS BOX MAY BE COLLECTED AS EARLY AS 12 NOON.", "ref": "9460200037"}, "type": "Feature"}
{"geometry": {"coordinates": [-122.19675, 37.798309], "type": "Point"}, "id": "tWOppJUDDy4KX6ChYcxWuW1YR0c=", "properties": {"@spider": "usps_collection_boxes", "addr:city": "OAKLAND", "addr:country": "US", "addr:full": "3342 WISCONSIN ST", "addr:postcode": "94602", "addr:state": "CA", "brand": "USPS", "collection_times": "Mo-Sa 11:00", "name": "USPS COLLECTION BOX - BLUE BOX", "ref": "9460200045"}, "type": "Feature"}
{"geometry": {"coordinates": [-122.2155246466, 37.800268821], "type": "Point"}, "id": "N3Y0_2E3JrCg-mTtVJ3AYSpUnyg=", "properties": {"@spider": "usps_collection_boxes", "addr:city": "OAKLAND", "addr:country": "US", "addr:full": "2226 MACARTHUR BLVD", "addr:postcode": "94602", "addr:state": "CA", "brand": "USPS", "collection_times": "Mo-Fr 17:00; Sa 14:30", "name": "USPS COLLECTION BOX - BLUE BOX", "note": "ON 12/24 AND 12/31, THIS BOX MAY BE COLLECTED AS EARLY AS 12 NOON.", "ref": "9460200048"}, "type": "Feature"}
{"geometry": {"coordinates": [-122.2155246466, 37.800268821], "type": "Point"}, "id": "8ym5tQLvxHRlL8g2vFco8BPm0OA=", "properties": {"@spider": "usps_collection_boxes", "addr:city": "OAKLAND", "addr:country": "US", "addr:full": "2226 MACARTHUR BLVD", "addr:postcode": "94602", "addr:state": "CA", "brand": "USPS", "collection_times": "Mo-Fr 17:00; Sa 14:30", "name": "USPS COLLECTION BOX - BLUE BOX", "note": "ON 12/24 AND 12/31, THIS BOX MAY BE COLLECTED AS EARLY AS 12 NOON.", "ref": "9460200049"}, "type": "Feature"}
{"geometry": {"coordinates": [-122.222442, 37.807488], "type": "Point"}, "id": "-edG4LVO8j1cgNlJfqJLw04Rwjc=", "properties": {"@spider": "usps_collection_boxes", "addr:city": "OAKLAND", "addr:country": "US", "addr:full": "4219 PARK BLVD", "addr:postcode": "94602", "addr:state": "CA", "brand": "USPS", "collection_times": "Mo-Fr 15:00; Sa 13:00", "name": "USPS COLLECTION BOX - BLUE BOX", "note": "ON 12/24 AND 12/31, THIS BOX MAY BE COLLECTED AS EARLY AS 12 NOON.", "ref": "9460200055"}, "type": "Feature"}
{"geometry": {"coordinates": [-122.205072978, 37.808667988], "type": "Point"}, "id": "TvCxgOeCma3IYJSJEUbGKbTDtHE=", "properties": {"@spider": "usps_collection_boxes", "addr:city": "OAKLAND", "addr:country": "US", "addr:full": "4315 LINCOLN AVE", "addr:postcode": "94602", "addr:state": "CA", "brand": "USPS", "collection_times": "Mo-Fr 16:00; Sa 11:00", "name": "USPS COLLECTION BOX - BLUE BOX", "note": "ON 12/24 AND 12/31, THIS BOX MAY BE COLLECTED AS EARLY AS 12 NOON.", "ref": "9460200056"}, "type": "Feature"}
{"geometry": {"coordinates": [-122.215529595, 37.800283623], "type": "Point"}, "id": "xjI5z0PUf3kJDn79MuW8_mWkEDo=", "properties": {"@spider": "usps_collection_boxes", "addr:city": "OAKLAND", "addr:country": "US", "addr:full": "2226 MACARTHUR BLVD", "addr:postcode": "94602", "addr:state": "CA", "brand": "USPS", "collection_times": "Mo-Fr 17:00; Sa 14:00", "name": "USPS COLLECTION BOX - PO LOBBY", "note": "ON 12/24 AND 12/31, THIS BOX MAY BE COLLECTED AS EARLY AS 12 NOON.", "ref": "9460200059"}, "type": "Feature"}
{"geometry": {"coordinates": [-122.173536, 37.748291], "type": "Point"}, "id": "VFb-qkHK3YRrZnibdB_F_425v0Y=", "properties": {"@spider": "usps_collection_boxes", "addr:city": "OAKLAND", "addr:country": "US", "addr:full": "9201 INTERNATIONAL BLVD", "addr:postcode": "94603", "addr:state": "CA", "brand": "USPS", "collection_times": "Mo-Fr 17:00; Sa 14:00", "name": "USPS COLLECTION BOX - BLUE BOX", "note": "ON 12/24 AND 12/31, THIS BOX MAY BE COLLECTED AS EARLY AS 12 NOON.", "ref": "9460300019"}, "type": "Feature"}
{"geometry": {"coordinates": [-122.1660569786, 37.7632379894], "type": "Point"}, "id": "Fls1-Trlw1lLe_duv03N0LBraKg=", "properties": {"@spider": "usps_collection_boxes", "addr:city": "OAKLAND", "addr:country": "US", "addr:full": "8033 MACARTHUR BLVD", "addr:postcode": "94605", "addr:state": "CA", "brand": "USPS", "collection_times": "Mo-Fr 17:00; Sa 14:30", "name": "USPS COLLECTION BOX - BLUE BOX", "note": "ON 12/24 AND 12/31, THIS BOX MAY BE COLLECTED AS EARLY AS 12 NOON.", "ref": "9460500001"}, "type": "Feature"}
{"geometry": {"coordinates": [-122.193468987, 37.77236102], "type": "Point"}, "id": "2-LEk2LgbRbR1Ej7TdP7hj0NpQA=", "properties": {"@spider": "usps_collection_boxes", "addr:city": "OAKLAND", "addr:country": "US", "addr:full": "5700 FOOTHILL BLVD", "addr:postcode": "94605", "addr:state": "CA", "brand": "USPS", "collection_times": "Mo-Sa 12:15", "name": "USPS COLLECTION BOX - BLUE BOX", "note": "ON 12/24 AND 12/31, THIS BOX MAY BE COLLECTED AS EARLY AS 12 NOON.", "ref": "9460500005"}, "type": "Feature"}
{"geometry": {"coordinates": [-122.1792283934, 37.7680244642], "type": "Point"}, "id": "wRLshoAwljMJbMRwm0UsaSeGHO8=", "properties": {"@spider": "usps_collection_boxes", "addr:city": "OAKLAND", "addr:country": "US", "addr:full": "6950 BANCROFT AVE", "addr:postcode": "94605", "addr:state": "CA", "brand": "USPS", "collection_times": "Mo-Fr 17:00; Sa 13:00", "name": "USPS COLLECTION BOX - BLUE BOX", "note": "ON 12/24 AND 12/31, THIS BOX MAY BE COLLECTED AS EARLY AS 12 NOON.", "ref": "9460500008"}, "type": "Feature"}
{"geometry": {"coordinates": [-122.1657233999, 37.7735181438], "type": "Point"}, "id": "HxACDU-zjgq5L3ssPA58LYTVhTQ=", "properties": {"@spider": "usps_collection_boxes", "addr:city": "OAKLAND", "addr:country": "US", "addr:full": "7300 GREENLY DR", "addr:postcode": "94605", "addr:state": "CA", "brand": "USPS", "collection_times": "Mo-Sa 11:45", "name": "USPS COLLECTION BOX - BLUE BOX", "ref": "9460500013"}, "type": "Feature"}
{"geometry": {"coordinates": [-122.1300220034, 37.7703740065], "type": "Point"}, "id": "tUqQSUhTcMsHRtlNL1z_l054QkQ=", "properties": {"@spider": "usps_collection_boxes", "addr:city": "OAKLAND", "addr:country": "US", "addr:full": "45 GRAEAGLE", "addr:postcode": "94605", "addr:state": "CA", "brand": "USPS", "collection_times": "Mo-Sa 13:00", "name": "USPS COLLECTION BOX - BLUE BOX", "note": "ON 12/24 AND 12/31, THIS BOX MAY BE COLLECTED AS EARLY AS 12 NOON.", "ref": "9460500018"}, "type": "Feature"}
{"geometry": {"coordinates": [-122.1822585, 37.770075], "type": "Point"}, "id": "_AwKIxEQyN88IZRaJDfKSEgoJTM=", "properties": {"@spider": "usps_collection_boxes", "addr:city": "OAKLAND", "addr:country": "US", "addr:full": "6537 FOOTHILL BLVD", "addr:postcode": "94605", "addr:state": "CA", "brand": "USPS", "collection_times": "Mo-Sa 12:15", "name": "USPS COLLECTION BOX - BLUE BOX", "note": "ON 12/24 AND 12/31, THIS BOX MAY BE COLLECTED AS EARLY AS 12 NOON.", "ref": "9460500019"}, "type": "Feature"}
{"geometry": {"coordinates": [-122.1503549917, 37.7537200031], "type": "Point"}, "id": "S64dauSiNMvV8ubWbrUPaa03q6U=", "properties": {"@spider": "usps_collection_boxes", "addr:city": "OAKLAND", "addr:country": "US", "addr:full": "9750 GOLF LINKS RD", "addr:postcode": "94605", "addr:state": "CA", "brand": "USPS", "collection_times": "Mo-Fr 17:00; Sa 13:00", "name": "USPS COLLECTION BOX - BLUE BOX", "note": "ON 12/24 AND 12/31, THIS BOX MAY BE COLLECTED AS EARLY AS 12 NOON.", "ref": "9460500023"}, "type": "Feature"}
{"geometry": {"coordinates": [-122.127099, 37.754289], "type": "Point"}, "id": "WYd7ncbjZZn-80dGlTOoaVrCLcA=", "properties": {"@spider": "usps_collection_boxes", "addr:city": "OAKLAND", "addr:country": "US", "addr:full": "10800 GOLF LINKS RD", "addr:postcode": "94605", "addr:state": "CA", "brand": "USPS", "collection_times": "Mo-Sa 12:45", "name": "USPS COLLECTION BOX - BLUE BOX", "note": "ON 12/24 AND 12/31, THIS BOX MAY BE COLLECTED AS EARLY AS 12 NOON.", "ref": "9460500024"}, "type": "Feature"}
{"geometry": {"coordinates": [-122.15480835, 37.7710428604], "type": "Point"}, "id": "LT_y6LR-jxQhwQJl4Bg9gUDLE6M=", "properties": {"@spider": "usps_collection_boxes", "addr:city": "OAKLAND", "addr:country": "US", "addr:full": "7980 MOUNTAIN BLVD", "addr:postcode": "94605", "addr:state": "CA", "brand": "USPS", "collection_times": "Mo-Sa 13:00", "name": "USPS COLLECTION BOX - BLUE BOX", "note": "ON 12/24 AND 12/31, THIS BOX MAY BE COLLECTED AS EARLY AS 12 NOON.", "ref": "9460500033"}, "type": "Feature"}
{"geometry": {"coordinates": [-122.174791006, 37.780019984], "type": "Point"}, "id": "nIDoky--7-HqQKDEWh8NPVVTGHs=", "properties": {"@spider": "usps_collection_boxes", "addr:city": "OAKLAND", "addr:country": "US", "addr:full": "6150 OVERDALE AVE", "addr:postcode": "94605", "addr:state": "CA", "brand": "USPS", "collection_times": "Mo-Sa 11:45", "name": "USPS COLLECTION BOX - BLUE BOX", "ref": "9460500035"}, "type": "Feature"}
{"geometry": {"coordinates": [-122.1458249922, 37.7441070079], "type": "Point"}, "id": "hNQwRnmYKhkPyX6a0WrYYA-I9to=", "properties": {"@spider": "usps_collection_boxes", "addr:city": "OAKLAND", "addr:country": "US", "addr:full": "2901 PERALTA OAKS CT", "addr:postcode": "94605", "addr:state": "CA", "brand": "USPS", "collection_times": "Mo-Fr 17:00; Sa 13:00", "name": "USPS COLLECTION BOX - BLUE BOX", "note": "ON 12/24 AND 12/31, THIS BOX MAY BE COLLECTED AS EARLY AS 12 NOON.", "ref": "9460500036"}, "type": "Feature"}
{"geometry": {"coordinates": [-122.148274, 37.745358], "type": "Point"}, "id": "66IWVMIeaWxbLsEA7mwSgfSqST4=", "properties": {"@spider": "usps_collection_boxes", "addr:city": "OAKLAND", "addr:country": "US", "addr:full": "2960 106TH AVE", "addr:postcode": "94605", "addr:state": "CA", "brand": "USPS", "collection_times": "Mo-Sa 12:45", "name": "USPS COLLECTION BOX - BLUE BOX", "note": "ON 12/24 AND 12/31, THIS BOX MAY BE COLLECTED AS EARLY AS 12 NOON.", "ref": "9460500056"}, "type": "Feature"}
{"geometry": {"coordinates": [-122.1655959233, 37.7634426203], "type": "Point"}, "id": "2NxvBXxxUQJxJYzTodNjbPv-uKY=", "properties": {"@spider": "usps_collection_boxes", "addr:city": "OAKLAND", "addr:country": "US", "addr:full": "8033 MACARTHUR BLVD", "addr:postcode": "94605", "addr:state": "CA", "brand": "USPS", "collection_times": "Mo-Fr 17:00; Sa 14:30", "name": "USPS COLLECTION BOX - BLUE BOX", "note": "ON 12/24 AND 12/31, THIS BOX MAY BE COLLECTED AS EARLY AS 12 NOON.", "ref": "9460500059"}, "type": "Feature"}
{"geometry": {"coordinates": [-122.138738567, 37.735551649], "type": "Point"}, "id": "0u73kifkMgA2m8OasUeZYbp9sGM=", "properties": {"@spider": "usps_collection_boxes", "addr:city": "OAKLAND", "addr:country": "US", "addr:full": "55 MARLOW DR", "addr:postcode": "94605", "addr:state": "CA", "brand": "USPS", "collection_times": "Mo-Sa 12:30", "name": "USPS COLLECTION BOX - BLUE BOX", "note": "ON 12/24 AND 12/31, THIS BOX MAY BE COLLECTED AS EARLY AS 12 NOON.", "ref": "9460500063"}, "type": "Feature"}
{"geometry": {"coordinates": [-122.1655959233, 37.7634426203], "type": "Point"}, "id": "RZbXLAC_nAr9fphiwKaP_OI5V3M=", "properties": {"@spider": "usps_collection_boxes", "addr:city": "OAKLAND", "addr:country": "US", "addr:full": "8033 MACARTHUR BLVD", "addr:postcode": "94605", "addr:state": "CA", "brand": "USPS", "collection_times": "Mo-Fr 17:00; Sa 13:00", "name": "USPS COLLECTION BOX - PO LOBBY", "note": "ON 12/24 AND 12/31, THIS BOX MAY BE COLLECTED AS EARLY AS 12 NOON.", "ref": "9460500068"}, "type": "Feature"}
{"geometry": {"coordinates": [-122.249122, 37.804863], "type": "Point"}, "id": "2FmEYBDLelZYY3P717Fpm3CTq8g=", "properties": {"@spider": "usps_collection_boxes", "addr:city": "OAKLAND", "addr:country": "US", "addr:full": "500 WESLEY AVE", "addr:postcode": "94606", "addr:state": "CA", "brand": "USPS", "collection_times": "Mo-Sa 11:00", "name": "USPS COLLECTION BOX - BLUE BOX", "ref": "9460600002"}, "type": "Feature"}
{"geometry": {"coordinates": [-122.248914, 37.80303], "type": "Point"}, "id": "2Yg8qUgEqpTTN0zdOz4KlgDLHaY=", "properties": {"@spider": "usps_collection_boxes", "addr:city": "OAKLAND", "addr:country": "US", "addr:full": "350 NEWTON AVE", "addr:postcode": "94606", "addr:state": "CA", "brand": "USPS", "collection_times": "Mo-Sa 13:00", "name": "USPS COLLECTION BOX - BLUE BOX", "note": "ON 12/24 AND 12/31, THIS BOX MAY BE COLLECTED AS EARLY AS 12 NOON.", "ref": "9460600011"}, "type": "Feature"}
{"geometry": {"coordinates": [-122.253465, 37.802399], "type": "Point"}, "id": "m47OiHJ3zuTbe7aFPCoQ0sT_LE4=", "properties": {"@spider": "usps_collection_boxes", "addr:city": "OAKLAND", "addr:country": "US", "addr:full": "283 WAYNE AVE", "addr:postcode": "94606", "addr:state": "CA", "brand": "USPS", "collection_times": "Mo-Sa 13:00", "name": "USPS COLLECTION BOX - BLUE BOX", "note": "ON 12/24 AND 12/31, THIS BOX MAY BE COLLECTED AS EARLY AS 12 NOON.", "ref": "9460600012"}, "type": "Feature"}
{"geometry": {"coordinates": [-122.258689, 37.798767], "type": "Point"}, "id": "0ipE36t9VoJKHMasE4g9kx7aOhA=", "properties": {"@spider": "usps_collection_boxes", "addr:city": "OAKLAND", "addr:country": "US", "addr:full": "1200 LAKESHORE AVE", "addr:postcode": "94606", "addr:state": "CA", "brand": "USPS", "collection_times": "Mo-Sa 13:00", "name": "USPS COLLECTION BOX - BLUE BOX", "note": "ON 12/24 AND 12/31, THIS BOX MAY BE COLLECTED AS EARLY AS 12 NOON.", "ref": "9460600014"}, "type": "Feature"}
{"geometry": {"coordinates": [-122.253711, 37.798463], "type": "Point"}, "id": "LTSgEpU1Ne0KndJSMH58z56imzw=", "properties": {"@spider": "usps_collection_boxes", "addr:city": "OAKLAND", "addr:country": "US", "addr:full": "1550 3RD AVE", "addr:postcode": "94606", "addr:state": "CA", "brand": "USPS", "collection_times": "Mo-Sa 13:00", "name": "USPS COLLECTION BOX - BLUE BOX", "note": "ON 12/24 AND 12/31, THIS BOX MAY BE COLLECTED AS EARLY AS 12 NOON.", "ref": "9460600023"}, "type": "Feature"}
{"geometry": {"coordinates": [-122.252223, 37.79442], "type": "Point"}, "id": "URVZJEIr_6huqFa0cAjnxHYCwGQ=", "properties": {"@spider": "usps_collection_boxes", "addr:city": "OAKLAND", "addr:country": "US", "addr:full": "650 INTERNATIONAL BLVD", "addr:postcode": "94606", "addr:state": "CA", "brand": "USPS", "collection_times": "Mo-Sa 13:00", "name": "USPS COLLECTION BOX - BLUE BOX", "note": "ON 12/24 AND 12/31, THIS BOX MAY BE COLLECTED AS EARLY AS 12 NOON.", "ref": "9460600030"}, "type": "Feature"}
{"geometry": {"coordinates": [-122.247685, 37.796295], "type": "Point"}, "id": "qq62f1043t6zQ10gY1F-MsnnWaQ=", "properties": {"@spider": "usps_collection_boxes", "addr:city": "OAKLAND", "addr:country": "US", "addr:full": "1805 8TH AVE", "addr:postcode": "94606", "addr:state": "CA", "brand": "USPS", "collection_times": "Mo-Sa 13:00", "name": "USPS COLLECTION BOX - BLUE BOX", "note": "ON 12/24 AND 12/31, THIS BOX MAY BE COLLECTED AS EARLY AS 12 NOON.", "ref": "9460600034"}, "type": "Feature"}
{"geometry": {"coordinates": [-122.244241, 37.788498], "type": "Point"}, "id": "f5dD2fFbSIp8fQhrrrRkjtKnJW8=", "properties": {"@spider": "usps_collection_boxes", "addr:city": "OAKLAND", "addr:country": "US", "addr:full": "1544 INTERNATIONAL BLVD", "addr:postcode": "94606", "addr:state": "CA", "brand": "USPS", "collection_times": "Mo-Sa 13:00", "name": "USPS COLLECTION BOX - BLUE BOX", "note": "ON 12/24 AND 12/31, THIS BOX MAY BE COLLECTED AS EARLY AS 12 NOON.", "ref": "9460600048"}, "type": "Feature"}
{"geometry": {"coordinates": [-122.232265, 37.795774], "type": "Point"}, "id": "igtaZCq93aOs3_cGd4RQfxMlWDw=", "properties": {"@spider": "usps_collection_boxes", "addr:city": "OAKLAND", "addr:country": "US", "addr:full": "2625 19TH AVE", "addr:postcode": "94606", "addr:state": "CA", "brand": "USPS", "collection_times": "Mo-Sa 11:00", "name": "USPS COLLECTION BOX - BLUE BOX", "ref": "9460600052"}, "type": "Feature"}
{"geometry": {"coordinates": [-122.242997, 37.783354], "type": "Point"}, "id": "wO3RaE6yadujAUgaoKp-cAs_PwI=", "properties": {"@spider": "usps_collection_boxes", "addr:city": "OAKLAND", "addr:country": "US", "addr:full": "1900 EMBARCADERO", "addr:postcode": "94606", "addr:state": "CA", "brand": "USPS", "collection_times": "Mo-Fr 15:00; Sa 13:00", "name": "USPS COLLECTION BOX - BLUE BOX", "note": "ON 12/24 AND 12/31, THIS BOX MAY BE COLLECTED AS EARLY AS 12 NOON.", "ref": "9460600060"}, "type": "Feature"}
{"geometry": {"coordinates": [-122.243005, 37.783369], "type": "Point"}, "id": "-v7IJSsdFoMFVwxvOsb86j6eVDE=", "properties": {"@spider": "usps_collection_boxes", "addr:city": "OAKLAND", "addr:country": "US", "addr:full": "1900 EMBARCADERO", "addr:postcode": "94606", "addr:state": "CA", "brand": "USPS", "collection_times": "Mo-Fr 15:00; Sa 13:00", "name": "USPS COLLECTION BOX - BLUE BOX", "note": "ON 12/24 AND 12/31, THIS BOX MAY BE COLLECTED AS EARLY AS 12 NOON.", "ref": "9460600061"}, "type": "Feature"}
{"geometry": {"coordinates": [-122.277886, 37.795838], "type": "Point"}, "id": "RGFC04ZsBvcTfSZqMcYmk3LXFqw=", "properties": {"@spider": "usps_collection_boxes", "addr:city": "OAKLAND", "addr:country": "US", "addr:full": "499 EMBARCADERO W", "addr:postcode": "94607", "addr:state": "CA", "brand": "USPS", "collection_times": "Mo-Fr 15:00; Sa 13:00", "name": "USPS COLLECTION BOX - BLUE BOX", "note": "ON 12/24 AND 12/31, THIS BOX MAY BE COLLECTED AS EARLY AS 12 NOON.", "ref": "9460700013"}, "type": "Feature"}
{"geometry": {"coordinates": [-122.263649, 37.797329], "type": "Point"}, "id": "msaUgG7MgqkCaizEZAOHgfSD94g=", "properties": {"@spider": "usps_collection_boxes", "addr:city": "OAKLAND", "addr:country": "US", "addr:full": "900 FALLON ST", "addr:postcode": "94607", "addr:state": "CA", "brand": "USPS", "collection_times": "Mo-Fr 15:00; Sa 13:00", "name": "USPS COLLECTION BOX - BLUE BOX", "note": "ON 12/24 AND 12/31, THIS BOX MAY BE COLLECTED AS EARLY AS 12 NOON.", "ref": "9460700014"}, "type": "Feature"}
{"geometry": {"coordinates": [-122.278643, 37.81429], "type": "Point"}, "id": "HD1wJwIC4Al0__7Yj8zMNWMQafg=", "properties": {"@spider": "usps_collection_boxes", "addr:city": "OAKLAND", "addr:country": "US", "addr:full": "889 W GRAND AVE", "addr:postcode": "94607", "addr:state": "CA", "brand": "USPS", "collection_times": "Mo-Sa 13:00", "name": "USPS COLLECTION BOX - BLUE BOX", "note": "ON 12/24 AND 12/31, THIS BOX MAY BE COLLECTED AS EARLY AS 12 NOON.", "ref": "9460700019"}, "type": "Feature"}
{"geometry": {"coordinates": [-122.275880027, 37.799230007], "type": "Point"}, "id": "amHD1RYM5xJmcuJhD7TzOMpxOKw=", "properties": {"@spider": "usps_collection_boxes", "addr:city": "OAKLAND", "addr:country": "US", "addr:full": "661 WASHINGTON ST", "addr:postcode": "94607", "addr:state": "CA", "brand": "USPS", "collection_times": "Mo-Fr 15:00; Sa 13:00", "name": "USPS COLLECTION BOX - BLUE BOX", "note": "ON 12/24 AND 12/31, THIS BOX MAY BE COLLECTED AS EARLY AS 12 NOON.", "ref": "9460700027"}, "type": "Feature"}
{"geometry": {"coordinates": [-122.270879, 37.795535], "type": "Point"}, "id": "CW4hRKZWxgoHtkLN1ACaF6ZCGo4=", "properties": {"@spider": "usps_collection_boxes", "addr:city": "OAKLAND", "addr:country": "US", "addr:full": "255 4TH ST", "addr:postcode": "94607", "addr:state": "CA", "brand": "USPS", "collection_times": "Mo-Sa 13:00", "name": "USPS COLLECTION BOX - BLUE BOX", "note": "ON 12/24 AND 12/31, THIS BOX MAY BE COLLECTED AS EARLY AS 12 NOON.", "ref": "9460700036"}, "type": "Feature"}
{"geometry": {"coordinates": [-122.273842892, 37.800179663], "type": "Point"}, "id": "PWLzpz-dY3EMe4OUg3MTf1xBOI8=", "properties": {"@spider": "usps_collection_boxes", "addr:city": "OAKLAND", "addr:country": "US", "addr:full": "799 BROADWAY", "addr:postcode": "94607", "addr:state": "CA", "brand": "USPS", "collection_times": "Mo-Fr 15:00; Sa 13:00", "name": "USPS COLLECTION BOX - BLUE BOX", "note": "ON 12/24 AND 12/31, THIS BOX MAY BE COLLECTED AS EARLY AS 12 NOON.", "ref": "9460700050"}, "type": "Feature"}
{"geometry": {"coordinates": [-122.271096, 37.799195], "type": "Point"}, "id": "bRUjaMyvWZ3xAClqtex4Kh-Svi4=", "properties": {"@spider": "usps_collection_boxes", "addr:city": "OAKLAND", "addr:country": "US", "addr:full": "800 WEBSTER ST", "addr:postcode": "94607", "addr:state": "CA", "brand": "USPS", "collection_times": "Mo-Fr 15:00; Sa 13:00", "name": "USPS COLLECTION BOX - BLUE BOX", "note": "ON 12/24 AND 12/31, THIS BOX MAY BE COLLECTED AS EARLY AS 12 NOON.", "ref": "9460700054"}, "type": "Feature"}
{"geometry": {"coordinates": [-122.274653626, 37.80135125], "type": "Point"}, "id": "1aCPUV9OqknOcOjzCqG7n1naDms=", "properties": {"@spider": "usps_collection_boxes", "addr:city": "OAKLAND", "addr:country": "US", "addr:full": "899 WASHINGTON ST", "addr:postcode": "94607", "addr:state": "CA", "brand": "USPS", "collection_times": "Mo-Fr 15:00; Sa 13:00", "name": "USPS COLLECTION BOX - BLUE BOX", "note": "ON 12/24 AND 12/31, THIS BOX MAY BE COLLECTED AS EARLY AS 12 NOON.", "ref": "9460700057"}, "type": "Feature"}
{"geometry": {"coordinates": [-122.2754173277, 37.8022227752], "type": "Point"}, "id": "ld7BLD74ZsoFPB9zvlRRaErUEOc=", "properties": {"@spider": "usps_collection_boxes", "addr:city": "OAKLAND", "addr:country": "US", "addr:full": "948 CLAY ST", "addr:postcode": "94607", "addr:state": "CA", "brand": "USPS", "collection_times": "Mo-Sa 13:00", "name": "USPS COLLECTION BOX - BLUE BOX", "note": "ON 12/24 AND 12/31, THIS BOX MAY BE COLLECTED AS EARLY AS 12 NOON.", "ref": "9460700058"}, "type": "Feature"}
{"geometry": {"coordinates": [-122.266907, 37.799129], "type": "Point"}, "id": "OI4Cq7V6JE1uxe-MNb5HNAhnSJs=", "properties": {"@spider": "usps_collection_boxes", "addr:city": "OAKLAND", "addr:country": "US", "addr:full": "195 10TH ST", "addr:postcode": "94607", "addr:state": "CA", "brand": "USPS", "collection_times": "Mo-Fr 15:00; Sa 13:00", "name": "USPS COLLECTION BOX - BLUE BOX", "note": "ON 12/24 AND 12/31, THIS BOX MAY BE COLLECTED AS EARLY AS 12 NOON.", "ref": "9460700060"}, "type": "Feature"}
{"geometry": {"coordinates": [-122.270439, 37.800572], "type": "Point"}, "id": "9eezX59nAdPcKXSOJJgQ4uPRssU=", "properties": {"@spider": "usps_collection_boxes", "addr:city": "OAKLAND", "addr:country": "US", "addr:full": "940 WEBSTER ST", "addr:postcode": "94607", "addr:state": "CA", "brand": "USPS", "collection_times": "Mo-Sa 13:00", "name": "USPS COLLECTION BOX - BLUE BOX", "note": "ON 12/24 AND 12/31, THIS BOX MAY BE COLLECTED AS EARLY AS 12 NOON.", "ref": "9460700062"}, "type": "Feature"}
{"geometry": {"coordinates": [-122.270571, 37.801553], "type": "Point"}, "id": "81AVq5UcGBiCLELUEtFkxl6DAlY=", "properties": {"@spider": "usps_collection_boxes", "addr:city": "OAKLAND", "addr:country": "US", "addr:full": "375 11TH ST", "addr:postcode": "94607", "addr:state": "CA", "brand": "USPS", "collection_times": "Mo-Fr 15:00; Sa 13:00", "name": "USPS COLLECTION BOX - BLUE BOX", "note": "ON 12/24 AND 12/31, THIS BOX MAY BE COLLECTED AS EARLY AS 12 NOON.", "ref": "9460700064"}, "type": "Feature"}
{"geometry": {"coordinates": [-122.271469, 37.800177], "type": "Point"}, "id": "dus-_MKJ_wt25f8mf5FZoxhID10=", "properties": {"@spider": "usps_collection_boxes", "addr:city": "OAKLAND", "addr:country": "US", "addr:full": "388 9TH ST", "addr:postcode": "94607", "addr:state": "CA", "brand": "USPS", "collection_times": "Mo-Fr 17:00; Sa 13:00", "name": "USPS COLLECTION BOX - BLUE BOX", "note": "ON 12/24 AND 12/31, THIS BOX MAY BE COLLECTED AS EARLY AS 12 NOON.", "ref": "9460700086"}, "type": "Feature"}
{"geometry": {"coordinates": [-122.269288, 37.790864], "type": "Point"}, "id": "q16rpv_dB8D5P5PCEueyvP8iEjY=", "properties": {"@spider": "usps_collection_boxes", "addr:city": "OAKLAND", "addr:country": "US", "addr:full": "11 EMBARCADERO W", "addr:postcode": "94607", "addr:state": "CA", "brand": "USPS", "collection_times": "Mo-Fr 15:00; Sa 13:00", "name": "USPS COLLECTION BOX - BLUE BOX", "note": "ON 12/24 AND 12/31, THIS BOX MAY BE COLLECTED AS EARLY AS 12 NOON.", "ref": "9460700088"}, "type": "Feature"}
{"geometry": {"coordinates": [-122.282534001, 37.799728018], "type": "Point"}, "id": "wipzMDqC2oNpv-ppCu4SjLfPwtw=", "properties": {"@spider": "usps_collection_boxes", "addr:city": "OAKLAND", "addr:country": "US", "addr:full": "330 BRUSH ST", "addr:postcode": "94607", "addr:state": "CA", "brand": "USPS", "collection_times": "Mo-Sa 13:00", "name": "USPS COLLECTION BOX - BLUE BOX", "note": "ON 12/24 AND 12/31, THIS BOX MAY BE COLLECTED AS EARLY AS 12 NOON.", "ref": "9460700096"}, "type": "Feature"}
{"geometry": {"coordinates": [-122.2680220379, 37.7927171776], "type": "Point"}, "id": "aFetgiGx1Ib0kr70sJKPI4nNnKs=", "properties": {"@spider": "usps_collection_boxes", "addr:city": "OAKLAND", "addr:country": "US", "addr:full": "100 OAK ST", "addr:postcode": "94607", "addr:state": "CA", "brand": "USPS", "collection_times": "Mo-Fr 15:00; Sa 13:00", "name": "USPS COLLECTION BOX - BLUE BOX", "note": "ON 12/24 AND 12/31, THIS BOX MAY BE COLLECTED AS EARLY AS 12 NOON.", "ref": "9460700099"}, "type": "Feature"}
{"geometry": {"coordinates": [-122.275537, 37.797599], "type": "Point"}, "id": "phOvfV5CllpCFzxKjqLK7b_FHVc=", "properties": {"@spider": "usps_collection_boxes", "addr:city": "OAKLAND", "addr:country": "US", "addr:full": "401 BROADWAY", "addr:postcode": "94607", "addr:state": "CA", "brand": "USPS", "collection_times": "Mo-Fr 15:00; Sa 13:00", "name": "USPS COLLECTION BOX - BLUE BOX", "note": "ON 12/24 AND 12/31, THIS BOX MAY BE COLLECTED AS EARLY AS 12 NOON.", "ref": "9460700100"}, "type": "Feature"}
{"geometry": {"coordinates": [-122.265349, 37.800319], "type": "Point"}, "id": "qB5G-734I2IbMF3qcoObNUTZqtY=", "properties": {"@spider": "usps_collection_boxes", "addr:city": "OAKLAND", "addr:country": "US", "addr:full": "171 12TH ST", "addr:postcode": "94607", "addr:state": "CA", "brand": "USPS", "collection_times": "Mo-Fr 15:00; Sa 13:00", "name": "USPS COLLECTION BOX - BLUE BOX", "note": "ON 12/24 AND 12/31, THIS BOX MAY BE COLLECTED AS EARLY AS 12 NOON.", "ref": "9460700106"}, "type": "Feature"}
{"geometry": {"coordinates": [-122.271461, 37.794042], "type": "Point"}, "id": "PoyxGMs5yqb4wygpUQqghl4eifo=", "properties": {"@spider": "usps_collection_boxes", "addr:city": "OAKLAND", "addr:country": "US", "addr:full": "245 2ND ST", "addr:postcode": "94607", "addr:state": "CA", "brand": "USPS", "collection_times": "Mo-Sa 13:00", "name": "USPS COLLECTION BOX - BLUE BOX", "note": "ON 12/24 AND 12/31, THIS BOX MAY BE COLLECTED AS EARLY AS 12 NOON.", "ref": "9460700110"}, "type": "Feature"}
{"geometry": {"coordinates": [-122.270985, 37.802051], "type": "Point"}, "id": "Q2jf2cPeJoZ2W2x0_lpdohNnXbQ=", "properties": {"@spider": "usps_collection_boxes", "addr:city": "OAKLAND", "addr:country": "US", "addr:full": "1111 FRANKLIN ST", "addr:postcode": "94607", "addr:state": "CA", "brand": "USPS", "collection_times": "Mo-Fr 15:00; Sa 13:00", "name": "USPS COLLECTION BOX - BLUE BOX", "note": "ON 12/24 AND 12/31, THIS BOX MAY BE COLLECTED AS EARLY AS 12 NOON.", "ref": "9460700113"}, "type": "Feature"}
{"geometry": {"coordinates": [-122.285129, 37.81271], "type": "Point"}, "id": "vR3F-1nzWO4Nw3ZAkgmnungvt8Q=", "properties": {"@spider": "usps_collection_boxes", "addr:city": "OAKLAND", "addr:country": "US", "addr:full": "1801 ADELINE ST", "addr:postcode": "94607", "addr:state": "CA", "brand": "USPS", "collection_times": "Mo-Sa 13:00", "name": "USPS COLLECTION BOX - BLUE BOX", "note": "ON 12/24 AND 12/31, THIS BOX MAY BE COLLECTED AS EARLY AS 12 NOON.", "ref": "9460700117"}, "type": "Feature"}
{"geometry": {"coordinates": [-122.294893, 37.840602], "type": "Point"}, "id": "k71ozRXVPUHNGwEgwa1pj1FmF48=", "properties": {"@spider": "usps_collection_boxes", "addr:city": "EMERYVILLE", "addr:country": "US", "addr:full": "6005 CHRISTIE AVE", "addr:postcode": "94608", "addr:state": "CA", "brand": "USPS", "collection_times": "Mo-Fr 15:00; Sa 13:00", "name": "USPS COLLECTION BOX - BLUE BOX", "note": "ON 12/24 AND 12/31, THIS BOX MAY BE COLLECTED AS EARLY AS 12 NOON.", "ref": "9460800013"}, "type": "Feature"}
{"geometry": {"coordinates": [-122.2959213937, 37.8441302279], "type": "Point"}, "id": "KLhd2JKtqmI1wdgc6NG4NLPOWKs=", "properties": {"@spider": "usps_collection_boxes", "addr:city": "EMERYVILLE", "addr:country": "US", "addr:full": "6425 CHRISTIE AVE", "addr:postcode": "94608", "addr:state": "CA", "brand": "USPS", "collection_times": "Mo-Fr 15:00; Sa 13:00", "name": "USPS COLLECTION BOX - BLUE BOX", "note": "ON 12/24 AND 12/31, THIS BOX MAY BE COLLECTED AS EARLY AS 12 NOON.", "ref": "9460800014"}, "type": "Feature"}
{"geometry": {"coordinates": [-122.283764, 37.831561], "type": "Point"}, "id": "Odu-kRYgBUEwLOy8XOjwDFlKWfY=", "properties": {"@spider": "usps_collection_boxes", "addr:city": "EMERYVILLE", "addr:country": "US", "addr:full": "1255 PARK AVE", "addr:postcode": "94608", "addr:state": "CA", "brand": "USPS", "collection_times": "Mo-Fr 15:00; Sa 13:00", "name": "USPS COLLECTION BOX - BLUE BOX", "note": "ON 12/24 AND 12/31, THIS BOX MAY BE COLLECTED AS EARLY AS 12 NOON.", "ref": "9460800017"}, "type": "Feature"}
{"geometry": {"coordinates": [-122.290654, 37.83884], "type": "Point"}, "id": "gc2_9j0ubx_ocJ6-lUXy7Xr2eLs=", "properties": {"@spider": "usps_collection_boxes", "addr:city": "EMERYVILLE", "addr:country": "US", "addr:full": "1475 POWELL ST", "addr:postcode": "94608", "addr:state": "CA", "brand": "USPS", "collection_times": "Mo-Fr 15:00; Sa 13:00", "name": "USPS COLLECTION BOX - BLUE BOX", "note": "ON 12/24 AND 12/31, THIS BOX MAY BE COLLECTED AS EARLY AS 12 NOON.", "ref": "9460800018"}, "type": "Feature"}
{"geometry": {"coordinates": [-122.2887340106, 37.8302940111], "type": "Point"}, "id": "aG9PWn6MdRV_vfR9TGbki8UuXWE=", "properties": {"@spider": "usps_collection_boxes", "addr:city": "EMERYVILLE", "addr:country": "US", "addr:full": "1485 PARK AVE", "addr:postcode": "94608", "addr:state": "CA", "brand": "USPS", "collection_times": "Mo-Fr 15:00; Sa 13:00", "name": "USPS COLLECTION BOX - BLUE BOX", "note": "ON 12/24 AND 12/31, THIS BOX MAY BE COLLECTED AS EARLY AS 12 NOON.", "ref": "9460800022"}, "type": "Feature"}
{"geometry": {"coordinates": [-122.291574, 37.840414], "type": "Point"}, "id": "_P6q4UxaMs93MmhSGAVrcVpRaV8=", "properties": {"@spider": "usps_collection_boxes", "addr:city": "EMERYVILLE", "addr:country": "US", "addr:full": "5885 HORTON ST", "addr:postcode": "94608", "addr:state": "CA", "brand": "USPS", "collection_times": "Mo-Fr 13:15; Sa 13:00", "name": "USPS COLLECTION BOX - BLUE BOX", "note": "ON 12/24 AND 12/31, THIS BOX MAY BE COLLECTED AS EARLY AS 12 NOON.", "ref": "9460800023"}, "type": "Feature"}
{"geometry": {"coordinates": [-122.304307, 37.837023], "type": "Point"}, "id": "yWdDKRvvH3eUAwwmcMeFc8Awhwc=", "properties": {"@spider": "usps_collection_boxes", "addr:city": "EMERYVILLE", "addr:country": "US", "addr:full": "2449 POWELL ST", "addr:postcode": "94608", "addr:state": "CA", "brand": "USPS", "collection_times": "Mo-Fr 15:00; Sa 13:00", "name": "USPS COLLECTION BOX - BLUE BOX", "note": "ON 12/24 AND 12/31, THIS BOX MAY BE COLLECTED AS EARLY AS 12 NOON.", "ref": "9460800031"}, "type": "Feature"}
{"geometry": {"coordinates": [-122.2832396998, 37.8406864271], "type": "Point"}, "id": "5qM1DJ8_VPuMoPT9dee13BOYs_A=", "properties": {"@spider": "usps_collection_boxes", "addr:city": "EMERYVILLE", "addr:country": "US", "addr:full": "1107 STANFORD AVE", "addr:postcode": "94608", "addr:state": "CA", "brand": "USPS", "collection_times": "Mo-Fr 12:00; Sa 13:00", "name": "USPS COLLECTION BOX - BLUE BOX", "note": "ON 12/24 AND 12/31, THIS BOX MAY BE COLLECTED AS EARLY AS 12 NOON.", "ref": "9460800033"}, "type": "Feature"}
{"geometry": {"coordinates": [-122.288003, 37.82318], "type": "Point"}, "id": "BZ3zWLDTeotm8Iqlxmg0cMoUfXM=", "properties": {"@spider": "usps_collection_boxes", "addr:city": "EMERYVILLE", "addr:country": "US", "addr:full": "1607 32ND ST", "addr:postcode": "94608", "addr:state": "CA", "brand": "USPS", "collection_times": "Mo-Sa 12:00", "name": "USPS COLLECTION BOX - BLUE BOX", "ref": "9460800039"}, "type": "Feature"}
{"geometry": {"coordinates": [-122.27403, 37.839106], "type": "Point"}, "id": "O0yDIR0QiT1pod1Cd7oPRRvTN8A=", "properties": {"@spider": "usps_collection_boxes", "addr:city": "EMERYVILLE", "addr:country": "US", "addr:full": "901 55TH ST", "addr:postcode": "94608", "addr:state": "CA", "brand": "USPS", "collection_times": "Mo-Sa 11:15", "name": "USPS COLLECTION BOX - BLUE BOX", "ref": "9460800056"}, "type": "Feature"}
{"geometry": {"coordinates": [-122.285248, 37.847979], "type": "Point"}, "id": "aflL5RoPjNfh0yXXEGKEhOvX_B0=", "properties": {"@spider": "usps_collection_boxes", "addr:city": "EMERYVILLE", "addr:country": "US", "addr:full": "6444 SAN PABLO AVE", "addr:postcode": "94608", "addr:state": "CA", "brand": "USPS", "collection_times": "Mo-Sa 11:00", "name": "USPS COLLECTION BOX - BLUE BOX", "ref": "9460800068"}, "type": "Feature"}
{"geometry": {"coordinates": [-122.291824836, 37.848885856], "type": "Point"}, "id": "ZqX2B-Rvh6lLLITtFKr3tMaVyjQ=", "properties": {"@spider": "usps_collection_boxes", "addr:city": "EMERYVILLE", "addr:country": "US", "addr:full": "1321 67TH ST", "addr:postcode": "94608", "addr:state": "CA", "brand": "USPS", "collection_times": "Mo-Fr 15:00; Sa 13:00", "name": "USPS COLLECTION BOX - BLUE BOX", "note": "ON 12/24 AND 12/31, THIS BOX MAY BE COLLECTED AS EARLY AS 12 NOON.", "ref": "9460800070"}, "type": "Feature"}
{"geometry": {"coordinates": [-122.294933, 37.836761], "type": "Point"}, "id": "_9d_2U7ldnG8KdXqYSzcAvPkH38=", "properties": {"@spider": "usps_collection_boxes", "addr:city": "EMERYVILLE", "addr:country": "US", "addr:full": "5769 CHRISTIE AVE", "addr:postcode": "94608", "addr:state": "CA", "brand": "USPS", "collection_times": "Mo-Fr 15:00; Sa 13:00", "name": "USPS COLLECTION BOX - BLUE BOX", "note": "ON 12/24 AND 12/31, THIS BOX MAY BE COLLECTED AS EARLY AS 12 NOON.", "ref": "9460800075"}, "type": "Feature"}
{"geometry": {"coordinates": [-122.291855, 37.842204], "type": "Point"}, "id": "6I4-XTAaS1UoKO0Fw7p9p2y4Up0=", "properties": {"@spider": "usps_collection_boxes", "addr:city": "EMERYVILLE", "addr:country": "US", "addr:full": "1585 62ND ST", "addr:postcode": "94608", "addr:state": "CA", "brand": "USPS", "collection_times": "Mo-Fr 17:00; Sa 16:30", "name": "USPS COLLECTION BOX - BLUE BOX", "note": "ON 12/24 AND 12/31, THIS BOX MAY BE COLLECTED AS EARLY AS 12 NOON.", "ref": "9460800094"}, "type": "Feature"}
{"geometry": {"coordinates": [-122.292046, 37.848808], "type": "Point"}, "id": "QZHGftA7ywWT_mYQg5jaLcQjcpM=", "properties": {"@spider": "usps_collection_boxes", "addr:city": "EMERYVILLE", "addr:country": "US", "addr:full": "1321 67TH ST", "addr:postcode": "94608", "addr:state": "CA", "brand": "USPS", "collection_times": "Mo-Fr 15:00; Sa 13:00", "name": "USPS COLLECTION BOX - BLUE BOX", "note": "ON 12/24 AND 12/31, THIS BOX MAY BE COLLECTED AS EARLY AS 12 NOON.", "ref": "9460800102"}, "type": "Feature"}
{"geometry": {"coordinates": [-122.280556, 37.829636], "type": "Point"}, "id": "RzbVhZ5ko6QMKuYcwrf-iRSXIAU=", "properties": {"@spider": "usps_collection_boxes", "addr:city": "EMERYVILLE", "addr:country": "US", "addr:full": "3889 SAN PABLO AVE", "addr:postcode": "94608", "addr:state": "CA", "brand": "USPS", "collection_times": "Mo-Fr 12:00; Sa 12:45", "name": "USPS COLLECTION BOX - BLUE BOX", "note": "ON 12/24 AND 12/31, THIS BOX MAY BE COLLECTED AS EARLY AS 12 NOON.", "ref": "9460800103"}, "type": "Feature"}
{"geometry": {"coordinates": [-122.280566, 37.833626], "type": "Point"}, "id": "4bOJFUGu578Xj1WVd4WIGUAK8A8=", "properties": {"@spider": "usps_collection_boxes", "addr:city": "EMERYVILLE", "addr:country": "US", "addr:full": "4310 SAN PABLO AVE", "addr:postcode": "94608", "addr:state": "CA", "brand": "USPS", "collection_times": "Mo-Sa 12:00", "name": "USPS COLLECTION BOX - BLUE BOX", "ref": "9460800104"}, "type": "Feature"}
{"geometry": {"coordinates": [-122.288139, 37.841585], "type": "Point"}, "id": "UttlbmeNBBufT4Qc1w7qDp_agaM=", "properties": {"@spider": "usps_collection_boxes", "addr:city": "EMERYVILLE", "addr:country": "US", "addr:full": "1301 59TH ST", "addr:postcode": "94608", "addr:state": "CA", "brand": "USPS", "collection_times": "Mo-Fr 15:00; Sa 13:00", "name": "USPS COLLECTION BOX - BLUE BOX", "note": "ON 12/24 AND 12/31, THIS BOX MAY BE COLLECTED AS EARLY AS 12 NOON.", "ref": "9460800106"}, "type": "Feature"}
{"geometry": {"coordinates": [-122.2756934876, 37.8464105906], "type": "Point"}, "id": "iBVhm-CAJJmbMXISSzTxY0pedEY=", "properties": {"@spider": "usps_collection_boxes", "addr:city": "EMERYVILLE", "addr:country": "US", "addr:full": "1585 62ND ST", "addr:postcode": "94608", "addr:state": "CA", "brand": "USPS", "collection_times": "Mo-Fr 17:00; Sa 13:30", "name": "USPS COLLECTION BOX - PO LOBBY", "note": "ON 12/24 AND 12/31, THIS BOX MAY BE COLLECTED AS EARLY AS 12 NOON.", "ref": "9460800113"}, "type": "Feature"}
{"geometry": {"coordinates": [-122.2601129963, 37.8499619792], "type": "Point"}, "id": "oX8-TFyXi9qYstpnkVF6YNSh5qg=", "properties": {"@spider": "usps_collection_boxes", "addr:city": "OAKLAND", "addr:country": "US", "addr:full": "6398 TELEGRAPH AVE", "addr:postcode": "94609", "addr:state": "CA", "brand": "USPS", "collection_times": "Mo-Sa 12:00", "name": "USPS COLLECTION BOX - BLUE BOX", "ref": "9460900003"}, "type": "Feature"}
{"geometry": {"coordinates": [-122.2633670188, 37.8206150084], "type": "Point"}, "id": "zN9Q1csxsTgLhXN9Ao8zMsw2k6U=", "properties": {"@spider": "usps_collection_boxes", "addr:city": "OAKLAND", "addr:country": "US", "addr:full": "365 HAWTHORNE AVE", "addr:postcode": "94609", "addr:state": "CA", "brand": "USPS", "collection_times": "Mo-Fr 15:00; Sa 13:00", "name": "USPS COLLECTION BOX - BLUE BOX", "note": "ON 12/24 AND 12/31, THIS BOX MAY BE COLLECTED AS EARLY AS 12 NOON.", "ref": "9460900005"}, "type": "Feature"}
{"geometry": {"coordinates": [-122.260948, 37.825225], "type": "Point"}, "id": "k6ogOhEh16CCuQUqit_SmL0loLA=", "properties": {"@spider": "usps_collection_boxes", "addr:city": "OAKLAND", "addr:country": "US", "addr:full": "380 W MACARTHUR BLVD", "addr:postcode": "94609", "addr:state": "CA", "brand": "USPS", "collection_times": "Mo-Sa 12:30", "name": "USPS COLLECTION BOX - BLUE BOX", "note": "ON 12/24 AND 12/31, THIS BOX MAY BE COLLECTED AS EARLY AS 12 NOON.", "ref": "9460900011"}, "type": "Feature"}
{"geometry": {"coordinates": [-122.267584, 37.818106], "type": "Point"}, "id": "D-q_YmHlCL9WHLaPPTV5e1QVjlo=", "properties": {"@spider": "usps_collection_boxes", "addr:city": "OAKLAND", "addr:country": "US", "addr:full": "2899 TELEGRAPH AVE", "addr:postcode": "94609", "addr:state": "CA", "brand": "USPS", "collection_times": "Mo-Fr 15:00; Sa 13:00", "name": "USPS COLLECTION BOX - BLUE BOX", "note": "ON 12/24 AND 12/31, THIS BOX MAY BE COLLECTED AS EARLY AS 12 NOON.", "ref": "9460900015"}, "type": "Feature"}
{"geometry": {"coordinates": [-122.2649890009, 37.8188600055], "type": "Point"}, "id": "q8-UlDIdlYZ3M7jKJExMzqRedQM=", "properties": {"@spider": "usps_collection_boxes", "addr:city": "OAKLAND", "addr:country": "US", "addr:full": "411 30TH ST", "addr:postcode": "94609", "addr:state": "CA", "brand": "USPS", "collection_times": "Mo-Fr 15:00; Sa 13:00", "name": "USPS COLLECTION BOX - BLUE BOX", "note": "ON 12/24 AND 12/31, THIS BOX MAY BE COLLECTED AS EARLY AS 12 NOON.", "ref": "9460900018"}, "type": "Feature"}
{"geometry": {"coordinates": [-122.263542, 37.818733], "type": "Point"}, "id": "m8s8a8MO1nGr_juDLnjuZHpSma0=", "properties": {"@spider": "usps_collection_boxes", "addr:city": "OAKLAND", "addr:country": "US", "addr:full": "353 30TH ST", "addr:postcode": "94609", "addr:state": "CA", "brand": "USPS", "collection_times": "Mo-Fr 15:00; Sa 13:00", "name": "USPS COLLECTION BOX - BLUE BOX", "note": "ON 12/24 AND 12/31, THIS BOX MAY BE COLLECTED AS EARLY AS 12 NOON.", "ref": "9460900019"}, "type": "Feature"}
{"geometry": {"coordinates": [-122.2646129887, 37.8223519902], "type": "Point"}, "id": "vfRldDf-ZRwWRYJdDL04z-kR254=", "properties": {"@spider": "usps_collection_boxes", "addr:city": "OAKLAND", "addr:country": "US", "addr:full": "468 34TH ST", "addr:postcode": "94609", "addr:state": "CA", "brand": "USPS", "collection_times": "Mo-Sa 12:00", "name": "USPS COLLECTION BOX - BLUE BOX", "ref": "9460900024"}, "type": "Feature"}
{"geometry": {"coordinates": [-122.264097, 37.831007], "type": "Point"}, "id": "4uPEKJdsIej-1JgesE5RSlb_ECQ=", "properties": {"@spider": "usps_collection_boxes", "addr:city": "OAKLAND", "addr:country": "US", "addr:full": "4201 TELEGRAPH AVE", "addr:postcode": "94609", "addr:state": "CA", "brand": "USPS", "collection_times": "Mo-Sa 12:00", "name": "USPS COLLECTION BOX - BLUE BOX", "ref": "9460900032"}, "type": "Feature"}
{"geometry": {"coordinates": [-122.2603070374, 37.8331920122], "type": "Point"}, "id": "RctVYVXV1UbE_gOpD0IAHkIsrQw=", "properties": {"@spider": "usps_collection_boxes", "addr:city": "OAKLAND", "addr:country": "US", "addr:full": "4435 WEBSTER ST", "addr:postcode": "94609", "addr:state": "CA", "brand": "USPS", "collection_times": "Mo-Sa 12:00", "name": "USPS COLLECTION BOX - BLUE BOX", "ref": "9460900034"}, "type": "Feature"}
{"geometry": {"coordinates": [-122.261619, 37.84316], "type": "Point"}, "id": "olgNUoj_Bg26wl2bd8GBlPMkZnY=", "properties": {"@spider": "usps_collection_boxes", "addr:city": "OAKLAND", "addr:country": "US", "addr:full": "5701 TELEGRAPH AVE", "addr:postcode": "94609", "addr:state": "CA", "brand": "USPS", "collection_times": "Mo-Sa 12:00", "name": "USPS COLLECTION BOX - BLUE BOX", "ref": "9460900041"}, "type": "Feature"}
{"geometry": {"coordinates": [-122.26015, 37.842926], "type": "Point"}, "id": "qWydc49GWcJcdiQlxiZnkwtx-0A=", "properties": {"@spider": "usps_collection_boxes", "addr:city": "OAKLAND", "addr:country": "US", "addr:full": "5754 VICENTE ST", "addr:postcode": "94609", "addr:state": "CA", "brand": "USPS", "collection_times": "Mo-Sa 12:00", "name": "USPS COLLECTION BOX - BLUE BOX", "ref": "9460900042"}, "type": "Feature"}
{"geometry": {"coordinates": [-122.2615710284, 37.8210980156], "type": "Point"}, "id": "W_dZkhIYuNLLWwSQUskXjqENLk0=", "properties": {"@spider": "usps_collection_boxes", "addr:city": "OAKLAND", "addr:country": "US", "addr:full": "3300 WEBSTER ST", "addr:postcode": "94609", "addr:state": "CA", "brand": "USPS", "collection_times": "Mo-Fr 15:00; Sa 13:00", "name": "USPS COLLECTION BOX - BLUE BOX", "note": "ON 12/24 AND 12/31, THIS BOX MAY BE COLLECTED AS EARLY AS 12 NOON.", "ref": "9460900050"}, "type": "Feature"}
{"geometry": {"coordinates": [-122.265463908, 37.817830657], "type": "Point"}, "id": "JJ4i3ya8LgTIe7TLEd-1ELUthds=", "properties": {"@spider": "usps_collection_boxes", "addr:city": "OAKLAND", "addr:country": "US", "addr:full": "417 29TH ST", "addr:postcode": "94609", "addr:state": "CA", "brand": "USPS", "collection_times": "Mo-Fr 15:00; Sa 13:00", "name": "USPS COLLECTION BOX - BLUE BOX", "note": "ON 12/24 AND 12/31, THIS BOX MAY BE COLLECTED AS EARLY AS 12 NOON.", "ref": "9460900055"}, "type": "Feature"}
{"geometry": {"coordinates": [-122.263869926, 37.8359741793], "type": "Point"}, "id": "qLh-s685h0NOD2nsaii-XWnNa50=", "properties": {"@spider": "usps_collection_boxes", "addr:city": "OAKLAND", "addr:country": "US", "addr:full": "4900 SHATTUCK AVE", "addr:postcode": "94609", "addr:state": "CA", "brand": "USPS", "collection_times": "Mo-Fr 17:00; Sa 16:15", "name": "USPS COLLECTION BOX - BLUE BOX", "note": "ON 12/24 AND 12/31, THIS BOX MAY BE COLLECTED AS EARLY AS 12 NOON.", "ref": "9460900059"}, "type": "Feature"}
{"geometry": {"coordinates": [-122.263869926, 37.8359741793], "type": "Point"}, "id": "omLpLWU4aNKLzR-MiZlHiXXpC_s=", "properties": {"@spider": "usps_collection_boxes", "addr:city": "OAKLAND", "addr:country": "US", "addr:full": "4900 SHATTUCK AVE", "addr:postcode": "94609", "addr:state": "CA", "brand": "USPS", "collection_times": "Mo-Fr 17:00; Sa 13:30", "name": "USPS COLLECTION BOX - PO LOBBY", "note": "ON 12/24 AND 12/31, THIS BOX MAY BE COLLECTED AS EARLY AS 12 NOON.", "ref": "9460900061"}, "type": "Feature"}
{"geometry": {"coordinates": [-122.263869624, 37.835973729], "type": "Point"}, "id": "_ebJy9XhulsqHjXZXADBlwwHsQQ=", "properties": {"@spider": "usps_collection_boxes", "addr:city": "OAKLAND", "addr:country": "US", "addr:full": "4900 SHATTUCK AVE", "addr:postcode": "94609", "addr:state": "CA", "brand": "USPS", "collection_times": "Mo-Fr 17:00; Sa 16:15", "name": "USPS COLLECTION BOX - BLUE BOX", "note": "ON 12/24 AND 12/31, THIS BOX MAY BE COLLECTED AS EARLY AS 12 NOON.", "ref": "9460900062"}, "type": "Feature"}
{"geometry": {"coordinates": [-122.2470730181, 37.8135719885], "type": "Point"}, "id": "TINgkDPWVp2oLLwoXmpquuRxJ24=", "properties": {"@spider": "usps_collection_boxes", "addr:city": "OAKLAND", "addr:country": "US", "addr:full": "3351 GRAND AVE", "addr:postcode": "94610", "addr:state": "CA", "brand": "USPS", "collection_times": "Mo-Fr 15:00; Sa 13:00", "name": "USPS COLLECTION BOX - BLUE BOX", "note": "ON 12/24 AND 12/31, THIS BOX MAY BE COLLECTED AS EARLY AS 12 NOON.", "ref": "9461000002"}, "type": "Feature"}
{"geometry": {"coordinates": [-122.247365564, 37.810709107], "type": "Point"}, "id": "qYjH_xTe8w_mUoUex51dafdBuvs=", "properties": {"@spider": "usps_collection_boxes", "addr:city": "OAKLAND", "addr:country": "US", "addr:full": "490 LAKE PARK AVE", "addr:postcode": "94610", "addr:state": "CA", "brand": "USPS", "collection_times": "Mo-Fr 17:00; Sa 14:45", "name": "USPS COLLECTION BOX - BLUE BOX", "note": "ON 12/24 AND 12/31, THIS BOX MAY BE COLLECTED AS EARLY AS 12 NOON.", "ref": "9461000004"}, "type": "Feature"}
{"geometry": {"coordinates": [-122.241524932, 37.806804619], "type": "Point"}, "id": "3fy06yeFiwUJ0i5lWYY1thjbHGc=", "properties": {"@spider": "usps_collection_boxes", "addr:city": "OAKLAND", "addr:country": "US", "addr:full": "696 ATHOL AVE", "addr:postcode": "94610", "addr:state": "CA", "brand": "USPS", "collection_times": "Mo-Sa 12:15", "name": "USPS COLLECTION BOX - BLUE BOX", "note": "ON 12/24 AND 12/31, THIS BOX MAY BE COLLECTED AS EARLY AS 12 NOON.", "ref": "9461000008"}, "type": "Feature"}
{"geometry": {"coordinates": [-122.2473900217, 37.8089109798], "type": "Point"}, "id": "kvmb4b9vvHbJFMArrP_kqOT44IE=", "properties": {"@spider": "usps_collection_boxes", "addr:city": "OAKLAND", "addr:country": "US", "addr:full": "3000 LAKESHORE AVE", "addr:postcode": "94610", "addr:state": "CA", "brand": "USPS", "collection_times": "Mo-Sa 12:00", "name": "USPS COLLECTION BOX - BLUE BOX", "ref": "9461000011"}, "type": "Feature"}
{"geometry": {"coordinates": [-122.237582965, 37.815600781], "type": "Point"}, "id": "VSjxxtLgQmA7CirymRE5y984lzM=", "properties": {"@spider": "usps_collection_boxes", "addr:city": "OAKLAND", "addr:country": "US", "addr:full": "3901 LAKESHORE AVE", "addr:postcode": "94610", "addr:state": "CA", "brand": "USPS", "collection_times": "Mo-Sa 13:00", "name": "USPS COLLECTION BOX - BLUE BOX", "note": "ON 12/24 AND 12/31, THIS BOX MAY BE COLLECTED AS EARLY AS 12 NOON.", "ref": "9461000014"}, "type": "Feature"}
{"geometry": {"coordinates": [-122.239340807, 37.810486402], "type": "Point"}, "id": "lYHf3bZuLqPVsI27zpbWhf-PZYc=", "properties": {"@spider": "usps_collection_boxes", "addr:city": "OAKLAND", "addr:country": "US", "addr:full": "650 MANDANA BLVD", "addr:postcode": "94610", "addr:state": "CA", "brand": "USPS", "collection_times": "Mo-Sa 12:45", "name": "USPS COLLECTION BOX - BLUE BOX", "note": "ON 12/24 AND 12/31, THIS BOX MAY BE COLLECTED AS EARLY AS 12 NOON.", "ref": "9461000016"}, "type": "Feature"}
{"geometry": {"coordinates": [-122.234386637, 37.803492954], "type": "Point"}, "id": "c8r2r98H5zK2ByHf-AwXzwegs9M=", "properties": {"@spider": "usps_collection_boxes", "addr:city": "OAKLAND", "addr:country": "US", "addr:full": "3400 PARK BLVD", "addr:postcode": "94610", "addr:state": "CA", "brand": "USPS", "collection_times": "Mo-Sa 12:15", "name": "USPS COLLECTION BOX - BLUE BOX", "note": "ON 12/24 AND 12/31, THIS BOX MAY BE COLLECTED AS EARLY AS 12 NOON.", "ref": "9461000021"}, "type": "Feature"}
{"geometry": {"coordinates": [-122.251483679, 37.811010415], "type": "Point"}, "id": "Ddc_avUV-ovfzspmnbz2L1BZ0yw=", "properties": {"@spider": "usps_collection_boxes", "addr:city": "OAKLAND", "addr:country": "US", "addr:full": "398 EUCLID AVE", "addr:postcode": "94610", "addr:state": "CA", "brand": "USPS", "collection_times": "Mo-Fr 13:30; Sa 13:00", "name": "USPS COLLECTION BOX - BLUE BOX", "note": "ON 12/24 AND 12/31, THIS BOX MAY BE COLLECTED AS EARLY AS 12 NOON.", "ref": "9461000024"}, "type": "Feature"}
{"geometry": {"coordinates": [-122.2441633842, 37.8206120949], "type": "Point"}, "id": "w8sCd9eYXLwPuWdFx5L9dglEAhU=", "properties": {"@spider": "usps_collection_boxes", "addr:city": "OAKLAND", "addr:country": "US", "addr:full": "1333 GRAND AVE", "addr:postcode": "94610", "addr:state": "CA", "brand": "USPS", "collection_times": "Mo-Fr 15:00; Sa 13:00", "name": "USPS COLLECTION BOX - BLUE BOX", "note": "ON 12/24 AND 12/31, THIS BOX MAY BE COLLECTED AS EARLY AS 12 NOON.", "ref": "9461000031"}, "type": "Feature"}
{"geometry": {"coordinates": [-122.249432632, 37.809558439], "type": "Point"}, "id": "n7Q-noE5eQnxf3It6GuWWFrx8HM=", "properties": {"@spider": "usps_collection_boxes", "addr:city": "OAKLAND", "addr:country": "US", "addr:full": "600 GRAND AVE", "addr:postcode": "94610", "addr:state": "CA", "brand": "USPS", "collection_times": "Mo-Fr 15:00; Sa 13:00", "name": "USPS COLLECTION BOX - BLUE BOX", "note": "ON 12/24 AND 12/31, THIS BOX MAY BE COLLECTED AS EARLY AS 12 NOON.", "ref": "9461000033"}, "type": "Feature"}
{"geometry": {"coordinates": [-122.231016222, 37.806174859], "type": "Point"}, "id": "GCIqADnGjai0Nh8tGCMSmluVaQY=", "properties": {"@spider": "usps_collection_boxes", "addr:city": "OAKLAND", "addr:country": "US", "addr:full": "800 GROSVENOR PL", "addr:postcode": "94610", "addr:state": "CA", "brand": "USPS", "collection_times": "Mo-Sa 11:00", "name": "USPS COLLECTION BOX - BLUE BOX", "ref": "9461000037"}, "type": "Feature"}
{"geometry": {"coordinates": [-122.256404426, 37.810731521], "type": "Point"}, "id": "_BaTRJkH5oKFc6FY4l88POhuAl8=", "properties": {"@spider": "usps_collection_boxes", "addr:city": "OAKLAND", "addr:country": "US", "addr:full": "402 LEE ST", "addr:postcode": "94610", "addr:state": "CA", "brand": "USPS", "collection_times": "Mo-Fr 13:30; Sa 13:00", "name": "USPS COLLECTION BOX - BLUE BOX", "note": "ON 12/24 AND 12/31, THIS BOX MAY BE COLLECTED AS EARLY AS 12 NOON.", "ref": "9461000047"}, "type": "Feature"}
{"geometry": {"coordinates": [-122.258658086, 37.812221949], "type": "Point"}, "id": "fHqhVz-nycBlBy_uuL1kgQp3nAs=", "properties": {"@spider": "usps_collection_boxes", "addr:city": "OAKLAND", "addr:country": "US", "addr:full": "180 MONTECITO AVE", "addr:postcode": "94610", "addr:state": "CA", "brand": "USPS", "collection_times": "Mo-Sa 11:00", "name": "USPS COLLECTION BOX - BLUE BOX", "ref": "9461000048"}, "type": "Feature"}
{"geometry": {"coordinates": [-122.250829107, 37.81978457], "type": "Point"}, "id": "vU5e54LqozGW3sq5xo5O24eXy34=", "properties": {"@spider": "usps_collection_boxes", "addr:city": "OAKLAND", "addr:country": "US", "addr:full": "151 SANTA ROSA AVE", "addr:postcode": "94610", "addr:state": "CA", "brand": "USPS", "collection_times": "Mo-Sa 12:00", "name": "USPS COLLECTION BOX - BLUE BOX", "ref": "9461000052"}, "type": "Feature"}
{"geometry": {"coordinates": [-122.248347445, 37.813892741], "type": "Point"}, "id": "jKgOIR7GiMGgaPvYEcglObuTsmU=", "properties": {"@spider": "usps_collection_boxes", "addr:city": "OAKLAND", "addr:country": "US", "addr:full": "368 SANTA CLARA AVE", "addr:postcode": "94610", "addr:state": "CA", "brand": "USPS", "collection_times": "Mo-Fr 13:15; Sa 13:00", "name": "USPS COLLECTION BOX - BLUE BOX", "note": "ON 12/24 AND 12/31, THIS BOX MAY BE COLLECTED AS EARLY AS 12 NOON.", "ref": "9461000057"}, "type": "Feature"}
{"geometry": {"coordinates": [-122.249700779, 37.818795865], "type": "Point"}, "id": "QTjvapRgBnp-xTcgp8GkxuY8rHA=", "properties": {"@spider": "usps_collection_boxes", "addr:city": "OAKLAND", "addr:country": "US", "addr:full": "589 VERNON ST", "addr:postcode": "94610", "addr:state": "CA", "brand": "USPS", "collection_times": "Mo-Sa 11:00", "name": "USPS COLLECTION BOX - BLUE BOX", "ref": "9461000058"}, "type": "Feature"}
{"geometry": {"coordinates": [-122.234770489, 37.807454117], "type": "Point"}, "id": "B3WWgKSYF6qmytcZkBIGKx1luM0=", "properties": {"@spider": "usps_collection_boxes", "addr:city": "OAKLAND", "addr:country": "US", "addr:full": "857 SUNNYHILLS RD", "addr:postcode": "94610", "addr:state": "CA", "brand": "USPS", "collection_times": "Mo-Sa 11:00", "name": "USPS COLLECTION BOX - BLUE BOX", "ref": "9461000060"}, "type": "Feature"}
{"geometry": {"coordinates": [-122.253021325, 37.808724435], "type": "Point"}, "id": "Nb9TAz_h4egJrexW5xYEQjaH0_M=", "properties": {"@spider": "usps_collection_boxes", "addr:city": "OAKLAND", "addr:country": "US", "addr:full": "440 GRAND AVE", "addr:postcode": "94610", "addr:state": "CA", "brand": "USPS", "collection_times": "Mo-Sa 13:00", "name": "USPS COLLECTION BOX - BLUE BOX", "note": "ON 12/24 AND 12/31, THIS BOX MAY BE COLLECTED AS EARLY AS 12 NOON.", "ref": "9461000064"}, "type": "Feature"}
{"geometry": {"coordinates": [-122.2473655644, 37.8107091074], "type": "Point"}, "id": "J99pl1Iu5-t6YIS1CWEYRweRZf4=", "properties": {"@spider": "usps_collection_boxes", "addr:city": "OAKLAND", "addr:country": "US", "addr:full": "490 LAKE PARK AVE", "addr:postcode": "94610", "addr:state": "CA", "brand": "USPS", "collection_times": "Mo-Fr 17:00; Sa 14:45", "name": "USPS COLLECTION BOX - BLUE BOX", "note": "ON 12/24 AND 12/31, THIS BOX MAY BE COLLECTED AS EARLY AS 12 NOON.", "ref": "9461000067"}, "type": "Feature"}
{"geometry": {"coordinates": [-122.247365564, 37.810709107], "type": "Point"}, "id": "qrPNY4vMhuThTgOVUiNR3uz38Vo=", "properties": {"@spider": "usps_collection_boxes", "addr:city": "OAKLAND", "addr:country": "US", "addr:full": "490 LAKE PARK AVE", "addr:postcode": "94610", "addr:state": "CA", "brand": "USPS", "collection_times": "Mo-Fr 17:00; Sa 14:45", "name": "USPS COLLECTION BOX - BLUE BOX", "note": "ON 12/24 AND 12/31, THIS BOX MAY BE COLLECTED AS EARLY AS 12 NOON.", "ref": "9461000068"}, "type": "Feature"}
{"geometry": {"coordinates": [-122.245652717, 37.815957314], "type": "Point"}, "id": "YLXUTy36k88giT5BfmrCjxzkXag=", "properties": {"@spider": "usps_collection_boxes", "addr:city": "OAKLAND", "addr:country": "US", "addr:full": "3655 GRAND AVE", "addr:postcode": "94610", "addr:state": "CA", "brand": "USPS", "collection_times": "Mo-Fr 15:00; Sa 13:00", "name": "USPS COLLECTION BOX - BLUE BOX", "note": "ON 12/24 AND 12/31, THIS BOX MAY BE COLLECTED AS EARLY AS 12 NOON.", "ref": "9461000069"}, "type": "Feature"}
{"geometry": {"coordinates": [-122.243309156, 37.811024673], "type": "Point"}, "id": "cNXDWkojMjzwi_GpvcFY_W4-LaM=", "properties": {"@spider": "usps_collection_boxes", "addr:city": "OAKLAND", "addr:country": "US", "addr:full": "3347 LAKESHORE AVE", "addr:postcode": "94610", "addr:state": "CA", "brand": "USPS", "collection_times": "Mo-Fr 15:00; Sa 12:00", "name": "USPS COLLECTION BOX - BLUE BOX", "note": "ON 12/24 AND 12/31, THIS BOX MAY BE COLLECTED AS EARLY AS 12 NOON.", "ref": "9461000070"}, "type": "Feature"}
{"geometry": {"coordinates": [-122.253358325, 37.819134824], "type": "Point"}, "id": "uHDBA8_Nfqw-rzw-4MUMPV9ze4o=", "properties": {"@spider": "usps_collection_boxes", "addr:city": "OAKLAND", "addr:country": "US", "addr:full": "150 SANTA CLARA AVE", "addr:postcode": "94610", "addr:state": "CA", "brand": "USPS", "collection_times": "Mo-Sa 13:15", "name": "USPS COLLECTION BOX - BLUE BOX", "note": "ON 12/24 AND 12/31, THIS BOX MAY BE COLLECTED AS EARLY AS 12 NOON.", "ref": "9461000071"}, "type": "Feature"}
{"geometry": {"coordinates": [-122.247365564, 37.810709107], "type": "Point"}, "id": "YRgFN0O9CjKHmpTZuCbaHZ1ifWk=", "properties": {"@spider": "usps_collection_boxes", "addr:city": "OAKLAND", "addr:country": "US", "addr:full": "490 LAKE PARK AVE", "addr:postcode": "94610", "addr:state": "CA", "brand": "USPS", "collection_times": "Mo-Fr 17:00; Sa 14:45", "name": "USPS COLLECTION BOX - BLUE BOX", "note": "ON 12/24 AND 12/31, THIS BOX MAY BE COLLECTED AS EARLY AS 12 NOON.", "ref": "9461000072"}, "type": "Feature"}
{"geometry": {"coordinates": [-122.247365564, 37.810709107], "type": "Point"}, "id": "mnvQfr8gRpsH-NnEwlx4aBMeeII=", "properties": {"@spider": "usps_collection_boxes", "addr:city": "OAKLAND", "addr:country": "US", "addr:full": "490 LAKE PARK AVE", "addr:postcode": "94610", "addr:state": "CA", "brand": "USPS", "collection_times": "Mo-Fr 17:00; Sa 14:45", "name": "USPS COLLECTION BOX - BLUE BOX", "note": "ON 12/24 AND 12/31, THIS BOX MAY BE COLLECTED AS EARLY AS 12 NOON.", "ref": "9461000073"}, "type": "Feature"}
{"geometry": {"coordinates": [-122.247365564, 37.810709107], "type": "Point"}, "id": "_PZ7LxBY0bS6oN_qd3cOV3nDNKo=", "properties": {"@spider": "usps_collection_boxes", "addr:city": "OAKLAND", "addr:country": "US", "addr:full": "490 LAKE PARK AVE", "addr:postcode": "94610", "addr:state": "CA", "brand": "USPS", "collection_times": "Mo-Fr 17:00; Sa 14:45", "name": "USPS COLLECTION BOX - BLUE BOX", "note": "ON 12/24 AND 12/31, THIS BOX MAY BE COLLECTED AS EARLY AS 12 NOON.", "ref": "9461000074"}, "type": "Feature"}
{"geometry": {"coordinates": [-122.2585965, 37.809774], "type": "Point"}, "id": "spnDNzNKUKr4P1P8hbpx8PhUU3M=", "properties": {"@spider": "usps_collection_boxes", "addr:city": "OAKLAND", "addr:country": "US", "addr:full": "268 GRAND AVE", "addr:postcode": "94610", "addr:state": "CA", "brand": "USPS", "collection_times": "Mo-Fr 15:00; Sa 13:00", "name": "USPS COLLECTION BOX - BLUE BOX", "note": "ON 12/24 AND 12/31, THIS BOX MAY BE COLLECTED AS EARLY AS 12 NOON.", "ref": "9461000075"}, "type": "Feature"}
{"geometry": {"coordinates": [-122.245421141, 37.816438789], "type": "Point"}, "id": "9W4iV5_t6XlTt5zaHqUbUCTDxE4=", "properties": {"@spider": "usps_collection_boxes", "addr:city": "OAKLAND", "addr:country": "US", "addr:full": "3700 GRAND AVE", "addr:postcode": "94610", "addr:state": "CA", "brand": "USPS", "collection_times": "Mo-Fr 15:00; Sa 13:00", "name": "USPS COLLECTION BOX - BLUE BOX", "note": "ON 12/24 AND 12/31, THIS BOX MAY BE COLLECTED AS EARLY AS 12 NOON.", "ref": "9461000078"}, "type": "Feature"}
{"geometry": {"coordinates": [-122.244420867, 37.810590487], "type": "Point"}, "id": "eX-hbMPnRp32Z_2DuNvNO5Y4zhc=", "properties": {"@spider": "usps_collection_boxes", "addr:city": "OAKLAND", "addr:country": "US", "addr:full": "3268 LAKESHORE AVE", "addr:postcode": "94610", "addr:state": "CA", "brand": "USPS", "collection_times": "Mo-Fr 15:00; Sa 12:00", "name": "USPS COLLECTION BOX - BLUE BOX", "note": "ON 12/24 AND 12/31, THIS BOX MAY BE COLLECTED AS EARLY AS 12 NOON.", "ref": "9461000083"}, "type": "Feature"}
{"geometry": {"coordinates": [-122.247365564, 37.810709107], "type": "Point"}, "id": "fQ_RjJB8PzFLBZ2oU7Z6al1RazI=", "properties": {"@spider": "usps_collection_boxes", "addr:city": "OAKLAND", "addr:country": "US", "addr:full": "490 LAKE PARK AVE", "addr:postcode": "94610", "addr:state": "CA", "brand": "USPS", "collection_times": "Mo-Fr 17:00; Sa 14:00", "name": "USPS COLLECTION BOX - PO LOBBY", "note": "ON 12/24 AND 12/31, THIS BOX MAY BE COLLECTED AS EARLY AS 12 NOON.", "ref": "9461000085"}, "type": "Feature"}
{"geometry": {"coordinates": [-122.2105307546, 37.8282304119], "type": "Point"}, "id": "PpjHusVp48MTceRQxhe8zfc2GL0=", "properties": {"@spider": "usps_collection_boxes", "addr:city": "PIEDMONT", "addr:country": "US", "addr:full": "1954 MOUNTAIN BLVD", "addr:postcode": "94611", "addr:state": "CA", "brand": "USPS", "collection_times": "Mo-Fr 17:00; Sa 14:30", "name": "USPS COLLECTION BOX - BLUE BOX", "note": "ON 12/24 AND 12/31, THIS BOX MAY BE COLLECTED AS EARLY AS 12 NOON.", "ref": "9461100004"}, "type": "Feature"}
{"geometry": {"coordinates": [-122.255254097, 37.82969798], "type": "Point"}, "id": "8JBWaeN352oLYxd1cWcjpC8F5FQ=", "properties": {"@spider": "usps_collection_boxes", "addr:city": "PIEDMONT", "addr:country": "US", "addr:full": "4190 BROADWAY", "addr:postcode": "94611", "addr:state": "CA", "brand": "USPS", "collection_times": "Mo-Sa 11:00", "name": "USPS COLLECTION BOX - BLUE BOX", "ref": "9461100011"}, "type": "Feature"}
{"geometry": {"coordinates": [-122.197821, 37.840066], "type": "Point"}, "id": "OdaZsny3djleL4U27bnTkjJXO30=", "properties": {"@spider": "usps_collection_boxes", "addr:city": "PIEDMONT", "addr:country": "US", "addr:full": "7403 SKYLINE BLVD", "addr:postcode": "94611", "addr:state": "CA", "brand": "USPS", "collection_times": "Mo-Sa 13:15", "name": "USPS COLLECTION BOX - BLUE BOX", "note": "ON 12/24 AND 12/31, THIS BOX MAY BE COLLECTED AS EARLY AS 12 NOON.", "ref": "9461100017"}, "type": "Feature"}
{"geometry": {"coordinates": [-122.252908, 37.825964], "type": "Point"}, "id": "IPQTpW1Sv_AJFelOzO2N2aKhDYk=", "properties": {"@spider": "usps_collection_boxes", "addr:city": "PIEDMONT", "addr:country": "US", "addr:full": "4048 PIEDMONT AVE", "addr:postcode": "94611", "addr:state": "CA", "brand": "USPS", "collection_times": "Mo-Fr 15:00; Sa 13:00", "name": "USPS COLLECTION BOX - BLUE BOX", "note": "ON 12/24 AND 12/31, THIS BOX MAY BE COLLECTED AS EARLY AS 12 NOON.", "ref": "9461100022"}, "type": "Feature"}
{"geometry": {"coordinates": [-122.231063, 37.824689], "type": "Point"}, "id": "2XkCyEQ71uPLrUuy3SDyurjukho=", "properties": {"@spider": "usps_collection_boxes", "addr:city": "PIEDMONT", "addr:country": "US", "addr:full": "370 HIGHLAND AVE", "addr:postcode": "94611", "addr:state": "CA", "brand": "USPS", "collection_times": "Mo-Fr 17:00; Sa 13:45", "name": "USPS COLLECTION BOX - BLUE BOX", "note": "ON 12/24 AND 12/31, THIS BOX MAY BE COLLECTED AS EARLY AS 12 NOON.", "ref": "9461100028"}, "type": "Feature"}
{"geometry": {"coordinates": [-122.232732, 37.826156], "type": "Point"}, "id": "slHWG1HHItZhegsa-wk2CLpOqMg=", "properties": {"@spider": "usps_collection_boxes", "addr:city": "PIEDMONT", "addr:country": "US", "addr:full": "300 HIGHLAND AVE", "addr:postcode": "94611", "addr:state": "CA", "brand": "USPS", "collection_times": "Mo-Fr 17:00; Sa 13:45", "name": "USPS COLLECTION BOX - BLUE BOX", "note": "ON 12/24 AND 12/31, THIS BOX MAY BE COLLECTED AS EARLY AS 12 NOON.", "ref": "9461100029"}, "type": "Feature"}
{"geometry": {"coordinates": [-122.210612, 37.826433], "type": "Point"}, "id": "SgEXt7Tcpe6ZQq_6786UGncwAvg=", "properties": {"@spider": "usps_collection_boxes", "addr:city": "PIEDMONT", "addr:country": "US", "addr:full": "6101 LA SALLE AVE", "addr:postcode": "94611", "addr:state": "CA", "brand": "USPS", "collection_times": "Mo-Fr 15:00; Sa 13:00", "name": "USPS COLLECTION BOX - BLUE BOX", "note": "ON 12/24 AND 12/31, THIS BOX MAY BE COLLECTED AS EARLY AS 12 NOON.", "ref": "9461100035"}, "type": "Feature"}
{"geometry": {"coordinates": [-122.2198228066, 37.8177688807], "type": "Point"}, "id": "3EiP3TZpw1hW68uZWn-bIPE55tg=", "properties": {"@spider": "usps_collection_boxes", "addr:city": "PIEDMONT", "addr:country": "US", "addr:full": "39 LA SALLE AVE", "addr:postcode": "94611", "addr:state": "CA", "brand": "USPS", "collection_times": "Mo-Sa 13:00", "name": "USPS COLLECTION BOX - BLUE BOX", "note": "ON 12/24 AND 12/31, THIS BOX MAY BE COLLECTED AS EARLY AS 12 NOON.", "ref": "9461100037"}, "type": "Feature"}
{"geometry": {"coordinates": [-122.247909, 37.825221], "type": "Point"}, "id": "oSC-THTT7HouIl7CHkxPbEmENqI=", "properties": {"@spider": "usps_collection_boxes", "addr:city": "PIEDMONT", "addr:country": "US", "addr:full": "902 ROSE AVE", "addr:postcode": "94611", "addr:state": "CA", "brand": "USPS", "collection_times": "Mo-Sa 11:15", "name": "USPS COLLECTION BOX - BLUE BOX", "ref": "9461100038"}, "type": "Feature"}
{"geometry": {"coordinates": [-122.248607941, 37.821810529], "type": "Point"}, "id": "2aFBA4_Td4XOI0gRiDToKjjcjg4=", "properties": {"@spider": "usps_collection_boxes", "addr:city": "PIEDMONT", "addr:country": "US", "addr:full": "424 MONTE VISTA AVE", "addr:postcode": "94611", "addr:state": "CA", "brand": "USPS", "collection_times": "Mo-Sa 11:15", "name": "USPS COLLECTION BOX - BLUE BOX", "ref": "9461100040"}, "type": "Feature"}
{"geometry": {"coordinates": [-122.239894, 37.82921], "type": "Point"}, "id": "pGoC5x4-AIavujuVFuFNBMzQTFs=", "properties": {"@spider": "usps_collection_boxes", "addr:city": "PIEDMONT", "addr:country": "US", "addr:full": "104 MONTICELLO AVE", "addr:postcode": "94611", "addr:state": "CA", "brand": "USPS", "collection_times": "Mo-Sa 12:00", "name": "USPS COLLECTION BOX - BLUE BOX", "ref": "9461100042"}, "type": "Feature"}
{"geometry": {"coordinates": [-122.257429, 37.816447], "type": "Point"}, "id": "CCdSFgrYg3LkgsaPxd3xDJNvJ-0=", "properties": {"@spider": "usps_collection_boxes", "addr:city": "PIEDMONT", "addr:country": "US", "addr:full": "261 OAKLAND AVE", "addr:postcode": "94611", "addr:state": "CA", "brand": "USPS", "collection_times": "Mo-Sa 11:15", "name": "USPS COLLECTION BOX - BLUE BOX", "ref": "9461100045"}, "type": "Feature"}
{"geometry": {"coordinates": [-122.259788, 37.822745], "type": "Point"}, "id": "ZnTL7tUACgeffB32u4MuRYmVsmU=", "properties": {"@spider": "usps_collection_boxes", "addr:city": "PIEDMONT", "addr:country": "US", "addr:full": "3505 BROADWAY", "addr:postcode": "94611", "addr:state": "CA", "brand": "USPS", "collection_times": "Mo-Fr 15:00; Sa 13:00", "name": "USPS COLLECTION BOX - BLUE BOX", "note": "ON 12/24 AND 12/31, THIS BOX MAY BE COLLECTED AS EARLY AS 12 NOON.", "ref": "9461100050"}, "type": "Feature"}
{"geometry": {"coordinates": [-122.250078, 37.828305], "type": "Point"}, "id": "dK7w6DgFouQg_p8umLDlzUg_nD0=", "properties": {"@spider": "usps_collection_boxes", "addr:city": "PIEDMONT", "addr:country": "US", "addr:full": "4237 PIEDMONT AVE", "addr:postcode": "94611", "addr:state": "CA", "brand": "USPS", "collection_times": "Mo-Fr 15:00; Sa 13:00", "name": "USPS COLLECTION BOX - BLUE BOX", "note": "ON 12/24 AND 12/31, THIS BOX MAY BE COLLECTED AS EARLY AS 12 NOON.", "ref": "9461100052"}, "type": "Feature"}
{"geometry": {"coordinates": [-122.248724, 37.834565], "type": "Point"}, "id": "OQOlndfx4aHkPHwusvkDrGP3-Dk=", "properties": {"@spider": "usps_collection_boxes", "addr:city": "PIEDMONT", "addr:country": "US", "addr:full": "2099 PLEASANT VALLEY AVE", "addr:postcode": "94611", "addr:state": "CA", "brand": "USPS", "collection_times": "Mo-Fr 15:00; Sa 13:00", "name": "USPS COLLECTION BOX - BLUE BOX", "note": "ON 12/24 AND 12/31, THIS BOX MAY BE COLLECTED AS EARLY AS 12 NOON.", "ref": "9461100056"}, "type": "Feature"}
{"geometry": {"coordinates": [-122.232963, 37.824474], "type": "Point"}, "id": "8NAGuGVANFsOkjPi9pRlYbpw42Y=", "properties": {"@spider": "usps_collection_boxes", "addr:city": "PIEDMONT", "addr:country": "US", "addr:full": "120 VISTA AVE", "addr:postcode": "94611", "addr:state": "CA", "brand": "USPS", "collection_times": "Mo-Fr 15:00; Sa 13:00", "name": "USPS COLLECTION BOX - BLUE BOX", "note": "ON 12/24 AND 12/31, THIS BOX MAY BE COLLECTED AS EARLY AS 12 NOON.", "ref": "9461100059"}, "type": "Feature"}
{"geometry": {"coordinates": [-122.262945, 37.81731], "type": "Point"}, "id": "d5_2hWyos5LUuWxzO8j7TxzwY2U=", "properties": {"@spider": "usps_collection_boxes", "addr:city": "PIEDMONT", "addr:country": "US", "addr:full": "2860 BROADWAY", "addr:postcode": "94611", "addr:state": "CA", "brand": "USPS", "collection_times": "Mo-Fr 13:45; Sa 11:00", "name": "USPS COLLECTION BOX - BLUE BOX", "note": "ON 12/24 AND 12/31, THIS BOX MAY BE COLLECTED AS EARLY AS 12 NOON.", "ref": "9461100063"}, "type": "Feature"}
{"geometry": {"coordinates": [-122.2575396155, 37.8262917696], "type": "Point"}, "id": "8ucguydtQVQTCeFUWGDSuOSavrk=", "properties": {"@spider": "usps_collection_boxes", "addr:city": "PIEDMONT", "addr:country": "US", "addr:full": "3801 BROADWAY", "addr:postcode": "94611", "addr:state": "CA", "brand": "USPS", "collection_times": "Mo-Fr 15:00; Sa 13:00", "name": "USPS COLLECTION BOX - BLUE BOX", "note": "ON 12/24 AND 12/31, THIS BOX MAY BE COLLECTED AS EARLY AS 12 NOON.", "ref": "9461100065"}, "type": "Feature"}
{"geometry": {"coordinates": [-122.2568250272, 37.827855003], "type": "Point"}, "id": "n40S_Mmlh_sbvSzDfY-yErJ4jCU=", "properties": {"@spider": "usps_collection_boxes", "addr:city": "PIEDMONT", "addr:country": "US", "addr:full": "4001 BROADWAY", "addr:postcode": "94611", "addr:state": "CA", "brand": "USPS", "collection_times": "Mo-Sa 12:00", "name": "USPS COLLECTION BOX - BLUE BOX", "ref": "9461100066"}, "type": "Feature"}
{"geometry": {"coordinates": [-122.251088157, 37.827339795], "type": "Point"}, "id": "v6KejILyryv8dJEjjUv1K7Ah3yc=", "properties": {"@spider": "usps_collection_boxes", "addr:city": "PIEDMONT", "addr:country": "US", "addr:full": "4192 PIEDMONT AVE", "addr:postcode": "94611", "addr:state": "CA", "brand": "USPS", "collection_times": "Mo-Fr 15:00; Sa 13:00", "name": "USPS COLLECTION BOX - BLUE BOX", "note": "ON 12/24 AND 12/31, THIS BOX MAY BE COLLECTED AS EARLY AS 12 NOON.", "ref": "9461100070"}, "type": "Feature"}
{"geometry": {"coordinates": [-122.2537601929, 37.827434202], "type": "Point"}, "id": "yIi5pW9RoyQruWU9EzWBnKthvEg=", "properties": {"@spider": "usps_collection_boxes", "addr:city": "PIEDMONT", "addr:country": "US", "addr:full": "195 41ST ST", "addr:postcode": "94611", "addr:state": "CA", "brand": "USPS", "collection_times": "Mo-Sa 17:00", "name": "USPS COLLECTION BOX - BLUE BOX", "note": "ON 12/24 AND 12/31, THIS BOX MAY BE COLLECTED AS EARLY AS 12 NOON.", "ref": "9461100071"}, "type": "Feature"}
{"geometry": {"coordinates": [-122.209539, 37.826592], "type": "Point"}, "id": "EZ6SvNxwC9NpjCe8kN3A44I5yZ4=", "properties": {"@spider": "usps_collection_boxes", "addr:city": "PIEDMONT", "addr:country": "US", "addr:full": "2051 MOUNTAIN BLVD", "addr:postcode": "94611", "addr:state": "CA", "brand": "USPS", "collection_times": "Mo-Fr 15:00; Sa 13:00", "name": "USPS COLLECTION BOX - BLUE BOX", "note": "ON 12/24 AND 12/31, THIS BOX MAY BE COLLECTED AS EARLY AS 12 NOON.", "ref": "9461100078"}, "type": "Feature"}
{"geometry": {"coordinates": [-122.2598969947, 37.8211229936], "type": "Point"}, "id": "W5y71IpzCF-ysUAUyLLPHR2x708=", "properties": {"@spider": "usps_collection_boxes", "addr:city": "PIEDMONT", "addr:country": "US", "addr:full": "3356 PIEDMONT AVE", "addr:postcode": "94611", "addr:state": "CA", "brand": "USPS", "collection_times": "Mo-Sa 12:00", "name": "USPS COLLECTION BOX - BLUE BOX", "ref": "9461100081"}, "type": "Feature"}
{"geometry": {"coordinates": [-122.255976, 37.824995], "type": "Point"}, "id": "VCcUBe5mEvwETxaJWZqYnt1lUqs=", "properties": {"@spider": "usps_collection_boxes", "addr:city": "PIEDMONT", "addr:country": "US", "addr:full": "3801 HOWE ST", "addr:postcode": "94611", "addr:state": "CA", "brand": "USPS", "collection_times": "Mo-Fr 15:00; Sa 13:00", "name": "USPS COLLECTION BOX - BLUE BOX", "note": "ON 12/24 AND 12/31, THIS BOX MAY BE COLLECTED AS EARLY AS 12 NOON.", "ref": "9461100084"}, "type": "Feature"}
{"geometry": {"coordinates": [-122.2105307546, 37.8282304119], "type": "Point"}, "id": "Yr5r_MfdiYEE7u9KXAniPGpFQSc=", "properties": {"@spider": "usps_collection_boxes", "addr:city": "PIEDMONT", "addr:country": "US", "addr:full": "1954 MOUNTAIN BLVD", "addr:postcode": "94611", "addr:state": "CA", "brand": "USPS", "collection_times": "Mo-Fr 17:00; Sa 14:30", "name": "USPS COLLECTION BOX - BLUE BOX", "note": "ON 12/24 AND 12/31, THIS BOX MAY BE COLLECTED AS EARLY AS 12 NOON.", "ref": "9461100086"}, "type": "Feature"}
{"geometry": {"coordinates": [-122.2105221213, 37.8282022487], "type": "Point"}, "id": "S_C4n4raJP4o_ElCzpnDWF7z4TI=", "properties": {"@spider": "usps_collection_boxes", "addr:city": "PIEDMONT", "addr:country": "US", "addr:full": "1954 MOUNTAIN BLVD", "addr:postcode": "94611", "addr:state": "CA", "brand": "USPS", "collection_times": "Mo-Fr 17:00; Sa 14:30", "name": "USPS COLLECTION BOX - BLUE BOX", "note": "ON 12/24 AND 12/31, THIS BOX MAY BE COLLECTED AS EARLY AS 12 NOON.", "ref": "9461100087"}, "type": "Feature"}
{"geometry": {"coordinates": [-122.231048, 37.8247], "type": "Point"}, "id": "19P-ZfiOOjbu1tfnLO00TL9L4-o=", "properties": {"@spider": "usps_collection_boxes", "addr:city": "PIEDMONT", "addr:country": "US", "addr:full": "370 HIGHLAND AVE", "addr:postcode": "94611", "addr:state": "CA", "brand": "USPS", "collection_times": "Mo-Fr 17:00; Sa 13:45", "name": "USPS COLLECTION BOX - BLUE BOX", "note": "ON 12/24 AND 12/31, THIS BOX MAY BE COLLECTED AS EARLY AS 12 NOON.", "ref": "9461100089"}, "type": "Feature"}
{"geometry": {"coordinates": [-122.254373, 37.824986], "type": "Point"}, "id": "VWCE30vEGT6wRG8vXzANdvymRhU=", "properties": {"@spider": "usps_collection_boxes", "addr:city": "PIEDMONT", "addr:country": "US", "addr:full": "3901 PIEDMONT AVE", "addr:postcode": "94611", "addr:state": "CA", "brand": "USPS", "collection_times": "Mo-Sa 12:00", "name": "USPS COLLECTION BOX - BLUE BOX", "ref": "9461100090"}, "type": "Feature"}
{"geometry": {"coordinates": [-122.248744, 37.834569], "type": "Point"}, "id": "LBCZoJhNAsUmbklG8oJt4CUsPmU=", "properties": {"@spider": "usps_collection_boxes", "addr:city": "PIEDMONT", "addr:country": "US", "addr:full": "2099 PLEASANT VALLEY AVE", "addr:postcode": "94611", "addr:state": "CA", "brand": "USPS", "collection_times": "Mo-Fr 15:00; Sa 13:00", "name": "USPS COLLECTION BOX - BLUE BOX", "note": "ON 12/24 AND 12/31, THIS BOX MAY BE COLLECTED AS EARLY AS 12 NOON.", "ref": "9461100091"}, "type": "Feature"}
{"geometry": {"coordinates": [-122.2537601929, 37.827434202], "type": "Point"}, "id": "DvKeZ81IiiZpdNpoSMXbm_n0Kgs=", "properties": {"@spider": "usps_collection_boxes", "addr:city": "PIEDMONT", "addr:country": "US", "addr:full": "195 41ST ST", "addr:postcode": "94611", "addr:state": "CA", "brand": "USPS", "collection_times": "Mo-Sa 17:00", "name": "USPS COLLECTION BOX - BLUE BOX", "note": "ON 12/24 AND 12/31, THIS BOX MAY BE COLLECTED AS EARLY AS 12 NOON.", "ref": "9461100092"}, "type": "Feature"}
{"geometry": {"coordinates": [-122.2537601929, 37.827434202], "type": "Point"}, "id": "eBujzYm-bq1qRQyPbsZHHdSyLoE=", "properties": {"@spider": "usps_collection_boxes", "addr:city": "PIEDMONT", "addr:country": "US", "addr:full": "195 41ST ST", "addr:postcode": "94611", "addr:state": "CA", "brand": "USPS", "collection_times": "Mo-Sa 17:00", "name": "USPS COLLECTION BOX - BLUE BOX", "note": "ON 12/24 AND 12/31, THIS BOX MAY BE COLLECTED AS EARLY AS 12 NOON.", "ref": "9461100093"}, "type": "Feature"}
{"geometry": {"coordinates": [-122.247983, 37.829666], "type": "Point"}, "id": "Yr7RGn2lvBmvhuBzUwrQovZHDyY=", "properties": {"@spider": "usps_collection_boxes", "addr:city": "PIEDMONT", "addr:country": "US", "addr:full": "4364 PIEDMONT AVE", "addr:postcode": "94611", "addr:state": "CA", "brand": "USPS", "collection_times": "Mo-Fr 15:00; Sa 13:00", "name": "USPS COLLECTION BOX - BLUE BOX", "note": "ON 12/24 AND 12/31, THIS BOX MAY BE COLLECTED AS EARLY AS 12 NOON.", "ref": "9461100097"}, "type": "Feature"}
{"geometry": {"coordinates": [-122.214092, 37.841984], "type": "Point"}, "id": "S1WLsl47t1gPZKMsvWso2oENA3U=", "properties": {"@spider": "usps_collection_boxes", "addr:city": "PIEDMONT", "addr:country": "US", "addr:full": "12079 BROADWAY TER", "addr:postcode": "94611", "addr:state": "CA", "brand": "USPS", "collection_times": "Mo-Sa 12:00", "name": "USPS COLLECTION BOX - BLUE BOX", "ref": "9461100101"}, "type": "Feature"}
{"geometry": {"coordinates": [-122.212221, 37.834724], "type": "Point"}, "id": "owjT_wOGYVR4QIdL7985QMvWC1o=", "properties": {"@spider": "usps_collection_boxes", "addr:city": "PIEDMONT", "addr:country": "US", "addr:full": "5745 THORNHILL DR", "addr:postcode": "94611", "addr:state": "CA", "brand": "USPS", "collection_times": "Mo-Sa 13:30", "name": "USPS COLLECTION BOX - BLUE BOX", "note": "ON 12/24 AND 12/31, THIS BOX MAY BE COLLECTED AS EARLY AS 12 NOON.", "ref": "9461100104"}, "type": "Feature"}
{"geometry": {"coordinates": [-122.2537526846, 37.8274120219], "type": "Point"}, "id": "gzKoUAj_6ut0McyN6s-9Qdb9KEw=", "properties": {"@spider": "usps_collection_boxes", "addr:city": "PIEDMONT", "addr:country": "US", "addr:full": "195 41ST ST", "addr:postcode": "94611", "addr:state": "CA", "brand": "USPS", "collection_times": "Mo-Fr 17:00; Sa 14:30", "name": "USPS COLLECTION BOX - APC", "note": "ON 12/24 AND 12/31, THIS BOX MAY BE COLLECTED AS EARLY AS 12 NOON.", "ref": "9461100105"}, "type": "Feature"}
{"geometry": {"coordinates": [-122.2537526846, 37.8274120219], "type": "Point"}, "id": "ZwlN-4gICvve_cuD2qkaa01oD-Y=", "properties": {"@spider": "usps_collection_boxes", "addr:city": "PIEDMONT", "addr:country": "US", "addr:full": "195 41ST ST", "addr:postcode": "94611", "addr:state": "CA", "brand": "USPS", "collection_times": "Mo-Fr 17:00; Sa 13:30", "name": "USPS COLLECTION BOX - PO LOBBY", "note": "ON 12/24 AND 12/31, THIS BOX MAY BE COLLECTED AS EARLY AS 12 NOON.", "ref": "9461100110"}, "type": "Feature"}
{"geometry": {"coordinates": [-122.2105307546, 37.8282304119], "type": "Point"}, "id": "hM5h6Etkogj3irj5k6dNgpCYTTA=", "properties": {"@spider": "usps_collection_boxes", "addr:city": "PIEDMONT", "addr:country": "US", "addr:full": "1954 MOUNTAIN BLVD", "addr:postcode": "94611", "addr:state": "CA", "brand": "USPS", "collection_times": "Mo-Fr 17:00; Sa 14:00", "name": "USPS COLLECTION BOX - PO LOBBY", "note": "ON 12/24 AND 12/31, THIS BOX MAY BE COLLECTED AS EARLY AS 12 NOON.", "ref": "9461100111"}, "type": "Feature"}
{"geometry": {"coordinates": [-122.270981354, 37.8120954509], "type": "Point"}, "id": "imBQ-aJhWWx3AyCfC512v7d-3uE=", "properties": {"@spider": "usps_collection_boxes", "addr:city": "OAKLAND", "addr:country": "US", "addr:full": "577 W GRAND AVE", "addr:postcode": "94612", "addr:state": "CA", "brand": "USPS", "collection_times": "Mo-Fr 17:00; Sa 13:00", "name": "USPS COLLECTION BOX - BLUE BOX", "note": "ON 12/24 AND 12/31, THIS BOX MAY BE COLLECTED AS EARLY AS 12 NOON.", "ref": "9461200008"}, "type": "Feature"}
{"geometry": {"coordinates": [-122.264218, 37.811252], "type": "Point"}, "id": "pCFvSiyKFzzfWKLw32Lq7U34Qvo=", "properties": {"@spider": "usps_collection_boxes", "addr:city": "OAKLAND", "addr:country": "US", "addr:full": "144 GRAND AVE", "addr:postcode": "94612", "addr:state": "CA", "brand": "USPS", "collection_times": "Mo-Fr 15:00; Sa 13:00", "name": "USPS COLLECTION BOX - BLUE BOX", "note": "ON 12/24 AND 12/31, THIS BOX MAY BE COLLECTED AS EARLY AS 12 NOON.", "ref": "9461200029"}, "type": "Feature"}
{"geometry": {"coordinates": [-122.269035, 37.803017], "type": "Point"}, "id": "yol7XO63NQWyveSO0MMpGaLOtTM=", "properties": {"@spider": "usps_collection_boxes", "addr:city": "OAKLAND", "addr:country": "US", "addr:full": "1322 WEBSTER ST", "addr:postcode": "94612", "addr:state": "CA", "brand": "USPS", "collection_times": "Mo-Fr 15:00; Sa 13:00", "name": "USPS COLLECTION BOX - BLUE BOX", "note": "ON 12/24 AND 12/31, THIS BOX MAY BE COLLECTED AS EARLY AS 12 NOON.", "ref": "9461200053"}, "type": "Feature"}
{"geometry": {"coordinates": [-122.265761021, 37.801239627], "type": "Point"}, "id": "sxafGSqtavT56RkRVcBpUZhPtLI=", "properties": {"@spider": "usps_collection_boxes", "addr:city": "OAKLAND", "addr:country": "US", "addr:full": "201 13TH ST", "addr:postcode": "94612", "addr:state": "CA", "brand": "USPS", "collection_times": "Mo-Sa 17:00", "name": "USPS COLLECTION BOX - EXPRESS", "note": "ON 12/24 AND 12/31, THIS BOX MAY BE COLLECTED AS EARLY AS 12 NOON.", "ref": "9461200058"}, "type": "Feature"}
{"geometry": {"coordinates": [-122.265777, 37.80144], "type": "Point"}, "id": "3Pun024ZFP28qH86P2Js4SogPhE=", "properties": {"@spider": "usps_collection_boxes", "addr:city": "OAKLAND", "addr:country": "US", "addr:full": "200 13TH ST", "addr:postcode": "94612", "addr:state": "CA", "brand": "USPS", "collection_times": "Mo-Sa 17:00", "name": "USPS COLLECTION BOX - BLUE BOX", "note": "ON 12/24 AND 12/31, THIS BOX MAY BE COLLECTED AS EARLY AS 12 NOON.", "ref": "9461200059"}, "type": "Feature"}
{"geometry": {"coordinates": [-122.276973, 37.805355], "type": "Point"}, "id": "pOy9iDXobff6KE1rtnuMqWRxtdc=", "properties": {"@spider": "usps_collection_boxes", "addr:city": "OAKLAND", "addr:country": "US", "addr:full": "1201 MARTIN LUTHER KING JR WAY", "addr:postcode": "94612", "addr:state": "CA", "brand": "USPS", "collection_times": "Mo-Fr 15:00; Sa 13:00", "name": "USPS COLLECTION BOX - BLUE BOX", "note": "ON 12/24 AND 12/31, THIS BOX MAY BE COLLECTED AS EARLY AS 12 NOON.", "ref": "9461200060"}, "type": "Feature"}
{"geometry": {"coordinates": [-122.268138, 37.8044], "type": "Point"}, "id": "A4_p883mhgtfBhXf5QPfESaI-1g=", "properties": {"@spider": "usps_collection_boxes", "addr:city": "OAKLAND", "addr:country": "US", "addr:full": "1510 WEBSTER ST", "addr:postcode": "94612", "addr:state": "CA", "brand": "USPS", "collection_times": "Mo-Fr 15:00; Sa 13:00", "name": "USPS COLLECTION BOX - BLUE BOX", "note": "ON 12/24 AND 12/31, THIS BOX MAY BE COLLECTED AS EARLY AS 12 NOON.", "ref": "9461200075"}, "type": "Feature"}
{"geometry": {"coordinates": [-122.27173, 37.806272], "type": "Point"}, "id": "99uQ1qccgYFmfbnXQ6XKh9FoSWo=", "properties": {"@spider": "usps_collection_boxes", "addr:city": "OAKLAND", "addr:country": "US", "addr:full": "508 16TH ST", "addr:postcode": "94612", "addr:state": "CA", "brand": "USPS", "collection_times": "Mo-Fr 15:00; Sa 13:00", "name": "USPS COLLECTION BOX - BLUE BOX", "note": "ON 12/24 AND 12/31, THIS BOX MAY BE COLLECTED AS EARLY AS 12 NOON.", "ref": "9461200077"}, "type": "Feature"}
{"geometry": {"coordinates": [-122.274292605, 37.807222378], "type": "Point"}, "id": "9RyVRYXGvT_vuXAhGw0IvO9fLBo=", "properties": {"@spider": "usps_collection_boxes", "addr:city": "OAKLAND", "addr:country": "US", "addr:full": "610 16TH ST", "addr:postcode": "94612", "addr:state": "CA", "brand": "USPS", "collection_times": "Mo-Fr 15:00; Sa 13:00", "name": "USPS COLLECTION BOX - BLUE BOX", "note": "ON 12/24 AND 12/31, THIS BOX MAY BE COLLECTED AS EARLY AS 12 NOON.", "ref": "9461200078"}, "type": "Feature"}
{"geometry": {"coordinates": [-122.2636432288, 37.8044629114], "type": "Point"}, "id": "q7oayG6mQtHWsZ1DC0E3psE6TnA=", "properties": {"@spider": "usps_collection_boxes", "addr:city": "OAKLAND", "addr:country": "US", "addr:full": "1570 JACKSON ST", "addr:postcode": "94612", "addr:state": "CA", "brand": "USPS", "collection_times": "Mo-Sa 11:00", "name": "USPS COLLECTION BOX - BLUE BOX", "ref": "9461200082"}, "type": "Feature"}
{"geometry": {"coordinates": [-122.262546, 37.804183], "type": "Point"}, "id": "OH-UcnwP_1Lq4JC-9l5XTJGLXG8=", "properties": {"@spider": "usps_collection_boxes", "addr:city": "OAKLAND", "addr:country": "US", "addr:full": "1593 MADISON ST", "addr:postcode": "94612", "addr:state": "CA", "brand": "USPS", "collection_times": "Mo-Sa 12:00", "name": "USPS COLLECTION BOX - BLUE BOX", "ref": "9461200083"}, "type": "Feature"}
{"geometry": {"coordinates": [-122.270605966, 37.806763997], "type": "Point"}, "id": "OFaKo1dSk6gdCojhCysX5fdsQsU=", "properties": {"@spider": "usps_collection_boxes", "addr:city": "OAKLAND", "addr:country": "US", "addr:full": "1645 TELEGRAPH AVE", "addr:postcode": "94612", "addr:state": "CA", "brand": "USPS", "collection_times": "Mo-Fr 15:00; Sa 13:00", "name": "USPS COLLECTION BOX - BLUE BOX", "note": "ON 12/24 AND 12/31, THIS BOX MAY BE COLLECTED AS EARLY AS 12 NOON.", "ref": "9461200085"}, "type": "Feature"}
{"geometry": {"coordinates": [-122.269229, 37.807875], "type": "Point"}, "id": "emcnZT_Gra8qMEr5lPRsRRYEeG8=", "properties": {"@spider": "usps_collection_boxes", "addr:city": "OAKLAND", "addr:country": "US", "addr:full": "1901 BROADWAY", "addr:postcode": "94612", "addr:state": "CA", "brand": "USPS", "collection_times": "Mo-Fr 15:00; Sa 13:00", "name": "USPS COLLECTION BOX - BLUE BOX", "note": "ON 12/24 AND 12/31, THIS BOX MAY BE COLLECTED AS EARLY AS 12 NOON.", "ref": "9461200088"}, "type": "Feature"}
{"geometry": {"coordinates": [-122.263175, 37.805577], "type": "Point"}, "id": "8pe7FxARMd9RHfzRxZ2A36rTY4k=", "properties": {"@spider": "usps_collection_boxes", "addr:city": "OAKLAND", "addr:country": "US", "addr:full": "200 19TH ST", "addr:postcode": "94612", "addr:state": "CA", "brand": "USPS", "collection_times": "Mo-Fr 14:00; Sa 13:00", "name": "USPS COLLECTION BOX - BLUE BOX", "note": "ON 12/24 AND 12/31, THIS BOX MAY BE COLLECTED AS EARLY AS 12 NOON.", "ref": "9461200091"}, "type": "Feature"}
{"geometry": {"coordinates": [-122.2668597985, 37.8063362626], "type": "Point"}, "id": "WVjIevS1p_Yaq46VmKipNudUgSk=", "properties": {"@spider": "usps_collection_boxes", "addr:city": "OAKLAND", "addr:country": "US", "addr:full": "1820 WEBSTER ST", "addr:postcode": "94612", "addr:state": "CA", "brand": "USPS", "collection_times": "Mo-Fr 15:00; Sa 13:00", "name": "USPS COLLECTION BOX - BLUE BOX", "note": "ON 12/24 AND 12/31, THIS BOX MAY BE COLLECTED AS EARLY AS 12 NOON.", "ref": "9461200092"}, "type": "Feature"}
{"geometry": {"coordinates": [-122.265793, 37.801436], "type": "Point"}, "id": "5I8AAj5VFuRwnYrt-L1dy60igkA=", "properties": {"@spider": "usps_collection_boxes", "addr:city": "OAKLAND", "addr:country": "US", "addr:full": "200 13TH ST", "addr:postcode": "94612", "addr:state": "CA", "brand": "USPS", "collection_times": "Mo-Sa 17:00", "name": "USPS COLLECTION BOX - BLUE BOX", "note": "ON 12/24 AND 12/31, THIS BOX MAY BE COLLECTED AS EARLY AS 12 NOON.", "ref": "9461200120"}, "type": "Feature"}
{"geometry": {"coordinates": [-122.26363992, 37.799856356], "type": "Point"}, "id": "cD_AKK6LTHl89zRD3_BjxIYJ0fU=", "properties": {"@spider": "usps_collection_boxes", "addr:city": "OAKLAND", "addr:country": "US", "addr:full": "1221 OAK ST", "addr:postcode": "94612", "addr:state": "CA", "brand": "USPS", "collection_times": "Mo-Fr 15:00; Sa 13:00", "name": "USPS COLLECTION BOX - BLUE BOX", "note": "ON 12/24 AND 12/31, THIS BOX MAY BE COLLECTED AS EARLY AS 12 NOON.", "ref": "9461200136"}, "type": "Feature"}
{"geometry": {"coordinates": [-122.269395032, 37.806704989], "type": "Point"}, "id": "CXMqTQvqGby6pS_XPKmY_b95X8M=", "properties": {"@spider": "usps_collection_boxes", "addr:city": "OAKLAND", "addr:country": "US", "addr:full": "1700 BROADWAY", "addr:postcode": "94612", "addr:state": "CA", "brand": "USPS", "collection_times": "Mo-Fr 15:00; Sa 13:00", "name": "USPS COLLECTION BOX - BLUE BOX", "note": "ON 12/24 AND 12/31, THIS BOX MAY BE COLLECTED AS EARLY AS 12 NOON.", "ref": "9461200142"}, "type": "Feature"}
{"geometry": {"coordinates": [-122.265455, 37.806444], "type": "Point"}, "id": "4zmiYV_XLhVkDm4cF8t6_C8BSrA=", "properties": {"@spider": "usps_collection_boxes", "addr:city": "OAKLAND", "addr:country": "US", "addr:full": "1901 HARRISON ST", "addr:postcode": "94612", "addr:state": "CA", "brand": "USPS", "collection_times": "Mo-Fr 15:00; Sa 13:00", "name": "USPS COLLECTION BOX - BLUE BOX", "note": "ON 12/24 AND 12/31, THIS BOX MAY BE COLLECTED AS EARLY AS 12 NOON.", "ref": "9461200145"}, "type": "Feature"}
{"geometry": {"coordinates": [-122.267036, 37.808726], "type": "Point"}, "id": "MPcw3vzv09uwTqS1aHE0vehm9AM=", "properties": {"@spider": "usps_collection_boxes", "addr:city": "OAKLAND", "addr:country": "US", "addr:full": "2001 FRANKLIN ST", "addr:postcode": "94612", "addr:state": "CA", "brand": "USPS", "collection_times": "Mo-Fr 15:00; Sa 13:00", "name": "USPS COLLECTION BOX - BLUE BOX", "note": "ON 12/24 AND 12/31, THIS BOX MAY BE COLLECTED AS EARLY AS 12 NOON.", "ref": "9461200147"}, "type": "Feature"}
{"geometry": {"coordinates": [-122.2663500987, 37.8085107149], "type": "Point"}, "id": "9yg6i41j5ywHQKWlBNEneS9_JBY=", "properties": {"@spider": "usps_collection_boxes", "addr:city": "OAKLAND", "addr:country": "US", "addr:full": "350 20TH ST", "addr:postcode": "94612", "addr:state": "CA", "brand": "USPS", "collection_times": "Mo-Fr 15:00; Sa 13:00", "name": "USPS COLLECTION BOX - BLUE BOX", "note": "ON 12/24 AND 12/31, THIS BOX MAY BE COLLECTED AS EARLY AS 12 NOON.", "ref": "9461200148"}, "type": "Feature"}
{"geometry": {"coordinates": [-122.266751, 37.811188], "type": "Point"}, "id": "-525PAl1ZtAIWT_qf4EpZ8tSYak=", "properties": {"@spider": "usps_collection_boxes", "addr:city": "OAKLAND", "addr:country": "US", "addr:full": "2201 BROADWAY", "addr:postcode": "94612", "addr:state": "CA", "brand": "USPS", "collection_times": "Mo-Fr 15:00; Sa 13:00", "name": "USPS COLLECTION BOX - BLUE BOX", "note": "ON 12/24 AND 12/31, THIS BOX MAY BE COLLECTED AS EARLY AS 12 NOON.", "ref": "9461200150"}, "type": "Feature"}
{"geometry": {"coordinates": [-122.270341014, 37.803719983], "type": "Point"}, "id": "LOaknrJzjhK6ZUAzElavuZgzOec=", "properties": {"@spider": "usps_collection_boxes", "addr:city": "OAKLAND", "addr:country": "US", "addr:full": "401 14TH ST", "addr:postcode": "94612", "addr:state": "CA", "brand": "USPS", "collection_times": "Mo-Fr 15:00; Sa 13:00", "name": "USPS COLLECTION BOX - BLUE BOX", "note": "ON 12/24 AND 12/31, THIS BOX MAY BE COLLECTED AS EARLY AS 12 NOON.", "ref": "9461200154"}, "type": "Feature"}
{"geometry": {"coordinates": [-122.262768878, 37.801260449], "type": "Point"}, "id": "1CLbdkkllnixS35OYPGg2_HUeNo=", "properties": {"@spider": "usps_collection_boxes", "addr:city": "OAKLAND", "addr:country": "US", "addr:full": "1401 LAKESIDE DR", "addr:postcode": "94612", "addr:state": "CA", "brand": "USPS", "collection_times": "Mo-Fr 15:00; Sa 13:00", "name": "USPS COLLECTION BOX - BLUE BOX", "note": "ON 12/24 AND 12/31, THIS BOX MAY BE COLLECTED AS EARLY AS 12 NOON.", "ref": "9461200158"}, "type": "Feature"}
{"geometry": {"coordinates": [-122.269374, 37.804726], "type": "Point"}, "id": "aqnVpVZ7D1uk1_4qt6zAlNeboyc=", "properties": {"@spider": "usps_collection_boxes", "addr:city": "OAKLAND", "addr:country": "US", "addr:full": "1446 FRANKLIN ST", "addr:postcode": "94612", "addr:state": "CA", "brand": "USPS", "collection_times": "Mo-Fr 17:00; Sa 13:00", "name": "USPS COLLECTION BOX - BLUE BOX", "note": "ON 12/24 AND 12/31, THIS BOX MAY BE COLLECTED AS EARLY AS 12 NOON.", "ref": "9461200159"}, "type": "Feature"}
{"geometry": {"coordinates": [-122.271067, 37.812196], "type": "Point"}, "id": "OFheiYRyWusomkTj9MlkgCtIrAE=", "properties": {"@spider": "usps_collection_boxes", "addr:city": "OAKLAND", "addr:country": "US", "addr:full": "577 W GRAND AVE", "addr:postcode": "94612", "addr:state": "CA", "brand": "USPS", "collection_times": "Mo-Fr 17:00; Sa 13:00", "name": "USPS COLLECTION BOX - BLUE BOX", "note": "ON 12/24 AND 12/31, THIS BOX MAY BE COLLECTED AS EARLY AS 12 NOON.", "ref": "9461200161"}, "type": "Feature"}
{"geometry": {"coordinates": [-122.2649, 37.80707], "type": "Point"}, "id": "8PsABCW1CXn9ihFUyxkEtZnrcZo=", "properties": {"@spider": "usps_collection_boxes", "addr:city": "OAKLAND", "addr:country": "US", "addr:full": "1939 HARRISON ST", "addr:postcode": "94612", "addr:state": "CA", "brand": "USPS", "collection_times": "Mo-Fr 15:00; Sa 13:00", "name": "USPS COLLECTION BOX - BLUE BOX", "note": "ON 12/24 AND 12/31, THIS BOX MAY BE COLLECTED AS EARLY AS 12 NOON.", "ref": "9461200164"}, "type": "Feature"}
{"geometry": {"coordinates": [-122.265761021, 37.801239627], "type": "Point"}, "id": "OsBngB0FW1WS520PyKqWohGZsIU=", "properties": {"@spider": "usps_collection_boxes", "addr:city": "OAKLAND", "addr:country": "US", "addr:full": "201 13TH ST", "addr:postcode": "94612", "addr:state": "CA", "brand": "USPS", "collection_times": "Mo-Sa 17:00", "name": "USPS COLLECTION BOX - BLUE BOX", "note": "ON 12/24 AND 12/31, THIS BOX MAY BE COLLECTED AS EARLY AS 12 NOON.", "ref": "9461200167"}, "type": "Feature"}
{"geometry": {"coordinates": [-122.271754, 37.806233], "type": "Point"}, "id": "TqfktdRAgPROkAOe_mNWq4W7R0s=", "properties": {"@spider": "usps_collection_boxes", "addr:city": "OAKLAND", "addr:country": "US", "addr:full": "508 16TH ST", "addr:postcode": "94612", "addr:state": "CA", "brand": "USPS", "collection_times": "Mo-Fr 15:00; Sa 13:00", "name": "USPS COLLECTION BOX - BLUE BOX", "note": "ON 12/24 AND 12/31, THIS BOX MAY BE COLLECTED AS EARLY AS 12 NOON.", "ref": "9461200173"}, "type": "Feature"}
{"geometry": {"coordinates": [-122.271666, 37.806229], "type": "Point"}, "id": "O4xyq0Ob8NWgz-rIm8YYW9FnIEo=", "properties": {"@spider": "usps_collection_boxes", "addr:city": "OAKLAND", "addr:country": "US", "addr:full": "508 16TH ST", "addr:postcode": "94612", "addr:state": "CA", "brand": "USPS", "collection_times": "Mo-Fr 15:00; Sa 13:00", "name": "USPS COLLECTION BOX - BLUE BOX", "note": "ON 12/24 AND 12/31, THIS BOX MAY BE COLLECTED AS EARLY AS 12 NOON.", "ref": "9461200174"}, "type": "Feature"}
{"geometry": {"coordinates": [-122.267301, 37.805657], "type": "Point"}, "id": "OSIC41o_JcFrORPPTE6ISEejqTE=", "properties": {"@spider": "usps_collection_boxes", "addr:city": "OAKLAND", "addr:country": "US", "addr:full": "1630 WEBSTER ST", "addr:postcode": "94612", "addr:state": "CA", "brand": "USPS", "collection_times": "Mo-Fr 15:00; Sa 13:00", "name": "USPS COLLECTION BOX - BLUE BOX", "note": "ON 12/24 AND 12/31, THIS BOX MAY BE COLLECTED AS EARLY AS 12 NOON.", "ref": "9461200179"}, "type": "Feature"}
{"geometry": {"coordinates": [-122.265799, 37.80144], "type": "Point"}, "id": "6Q9XJN9eKMdYQoZbk-jeHUWqXqo=", "properties": {"@spider": "usps_collection_boxes", "addr:city": "OAKLAND", "addr:country": "US", "addr:full": "200 13TH ST", "addr:postcode": "94612", "addr:state": "CA", "brand": "USPS", "collection_times": "Mo-Sa 17:00", "name": "USPS COLLECTION BOX - BLUE BOX", "note": "ON 12/24 AND 12/31, THIS BOX MAY BE COLLECTED AS EARLY AS 12 NOON.", "ref": "9461200184"}, "type": "Feature"}
{"geometry": {"coordinates": [-122.263019272, 37.811019329], "type": "Point"}, "id": "HXt4a9KYois4Ec5QxMEn8su6Rog=", "properties": {"@spider": "usps_collection_boxes", "addr:city": "OAKLAND", "addr:country": "US", "addr:full": "180 GRAND AVE", "addr:postcode": "94612", "addr:state": "CA", "brand": "USPS", "collection_times": "Mo-Fr 15:00; Sa 13:00", "name": "USPS COLLECTION BOX - BLUE BOX", "note": "ON 12/24 AND 12/31, THIS BOX MAY BE COLLECTED AS EARLY AS 12 NOON.", "ref": "9461200188"}, "type": "Feature"}
{"geometry": {"coordinates": [-122.265743, 37.805824], "type": "Point"}, "id": "b_koiqQow3xQMUVBv-4MBkYYaY0=", "properties": {"@spider": "usps_collection_boxes", "addr:city": "OAKLAND", "addr:country": "US", "addr:full": "1800 HARRISON ST", "addr:postcode": "94612", "addr:state": "CA", "brand": "USPS", "collection_times": "Mo-Fr 15:00", "name": "USPS COLLECTION BOX - BLUE BOX", "note": "ON 12/24 AND 12/31, THIS BOX MAY BE COLLECTED AS EARLY AS 12 NOON.", "ref": "9461200190"}, "type": "Feature"}
{"geometry": {"coordinates": [-122.267042, 37.808702], "type": "Point"}, "id": "dWmRWMyFccuy4A_0ZOjZrCS13ag=", "properties": {"@spider": "usps_collection_boxes", "addr:city": "OAKLAND", "addr:country": "US", "addr:full": "2001 FRANKLIN ST", "addr:postcode": "94612", "addr:state": "CA", "brand": "USPS", "collection_times": "Mo-Fr 15:00; Sa 13:00", "name": "USPS COLLECTION BOX - BLUE BOX", "note": "ON 12/24 AND 12/31, THIS BOX MAY BE COLLECTED AS EARLY AS 12 NOON.", "ref": "9461200194"}, "type": "Feature"}
{"geometry": {"coordinates": [-122.2670660207, 37.8110418357], "type": "Point"}, "id": "bFKsHNpiRGGOtC3VmDuEqUuGOX0=", "properties": {"@spider": "usps_collection_boxes", "addr:city": "OAKLAND", "addr:country": "US", "addr:full": "2201 BROADWAY", "addr:postcode": "94612", "addr:state": "CA", "brand": "USPS", "collection_times": "Mo-Fr 15:00; Sa 13:00", "name": "USPS COLLECTION BOX - BLUE BOX", "note": "ON 12/24 AND 12/31, THIS BOX MAY BE COLLECTED AS EARLY AS 12 NOON.", "ref": "9461200198"}, "type": "Feature"}
{"geometry": {"coordinates": [-122.266763, 37.811192], "type": "Point"}, "id": "3eYCaCJGc9FvjJZghS_SgdyBxEg=", "properties": {"@spider": "usps_collection_boxes", "addr:city": "OAKLAND", "addr:country": "US", "addr:full": "2201 BROADWAY", "addr:postcode": "94612", "addr:state": "CA", "brand": "USPS", "collection_times": "Mo-Fr 15:00; Sa 13:00", "name": "USPS COLLECTION BOX - BLUE BOX", "note": "ON 12/24 AND 12/31, THIS BOX MAY BE COLLECTED AS EARLY AS 12 NOON.", "ref": "9461200199"}, "type": "Feature"}
{"geometry": {"coordinates": [-122.270457, 37.803261], "type": "Point"}, "id": "Q3nwp83-QALAZ3rPYflYg_Ox4xg=", "properties": {"@spider": "usps_collection_boxes", "addr:city": "OAKLAND", "addr:country": "US", "addr:full": "401 13TH ST", "addr:postcode": "94612", "addr:state": "CA", "brand": "USPS", "collection_times": "Mo-Fr 15:00; Sa 13:00", "name": "USPS COLLECTION BOX - BLUE BOX", "note": "ON 12/24 AND 12/31, THIS BOX MAY BE COLLECTED AS EARLY AS 12 NOON.", "ref": "9461200208"}, "type": "Feature"}
{"geometry": {"coordinates": [-122.273150352, 37.806104175], "type": "Point"}, "id": "ubtuaspIMS3O33VgRtgJ5D2-LWw=", "properties": {"@spider": "usps_collection_boxes", "addr:city": "OAKLAND", "addr:country": "US", "addr:full": "1515 CLAY ST", "addr:postcode": "94612", "addr:state": "CA", "brand": "USPS", "collection_times": "Mo-Fr 15:00; Sa 13:00", "name": "USPS COLLECTION BOX - BLUE BOX", "note": "ON 12/24 AND 12/31, THIS BOX MAY BE COLLECTED AS EARLY AS 12 NOON.", "ref": "9461200211"}, "type": "Feature"}
{"geometry": {"coordinates": [-122.262904, 37.810907], "type": "Point"}, "id": "wul1Nw6GgLCSEZB2LSEBz_IrKJk=", "properties": {"@spider": "usps_collection_boxes", "addr:city": "OAKLAND", "addr:country": "US", "addr:full": "180 GRAND AVE", "addr:postcode": "94612", "addr:state": "CA", "brand": "USPS", "collection_times": "Mo-Fr 15:00; Sa 13:00", "name": "USPS COLLECTION BOX - BLUE BOX", "note": "ON 12/24 AND 12/31, THIS BOX MAY BE COLLECTED AS EARLY AS 12 NOON.", "ref": "9461200214"}, "type": "Feature"}
{"geometry": {"coordinates": [-122.274610001, 37.804810008], "type": "Point"}, "id": "2QytwEQHMJ3BpeTgefOIPZ6pSVA=", "properties": {"@spider": "usps_collection_boxes", "addr:city": "OAKLAND", "addr:country": "US", "addr:full": "1301 CLAY ST.  STE. 100", "addr:postcode": "94612", "addr:state": "CA", "brand": "USPS", "collection_times": "Mo-Fr 17:00", "name": "USPS COLLECTION BOX - PO LOBBY", "note": "ON 12/24 AND 12/31, THIS BOX MAY BE COLLECTED AS EARLY AS 12 NOON.", "ref": "9461200216"}, "type": "Feature"}
{"geometry": {"coordinates": [-122.265761021, 37.801239627], "type": "Point"}, "id": "pTC5-sPhuPhaNqiPGTBVzkQj06c=", "properties": {"@spider": "usps_collection_boxes", "addr:city": "OAKLAND", "addr:country": "US", "addr:full": "201 13TH ST", "addr:postcode": "94612", "addr:state": "CA", "brand": "USPS", "collection_times": "Mo-Fr 17:00; Sa 14:00", "name": "USPS COLLECTION BOX - PO LOBBY", "note": "ON 12/24 AND 12/31, THIS BOX MAY BE COLLECTED AS EARLY AS 12 NOON.", "ref": "9461200217"}, "type": "Feature"}
{"geometry": {"coordinates": [-122.181387, 37.781125], "type": "Point"}, "id": "UGyQwodt33D2HdwRrsfn2TmQ8lo=", "properties": {"@spider": "usps_collection_boxes", "addr:city": "OAKLAND", "addr:country": "US", "addr:full": "5000 MACARTHUR BLVD", "addr:postcode": "94613", "addr:state": "CA", "brand": "USPS", "collection_times": "Mo-Fr 15:00; Sa 13:00", "name": "USPS COLLECTION BOX - BLUE BOX", "note": "ON 12/24 AND 12/31, THIS BOX MAY BE COLLECTED AS EARLY AS 12 NOON.", "ref": "9461300001"}, "type": "Feature"}
{"geometry": {"coordinates": [-122.2023112573, 37.7305684826], "type": "Point"}, "id": "-o44Fh8HpJ6-1l9RcAJYbYG5iCM=", "properties": {"@spider": "usps_collection_boxes", "addr:city": "OAKLAND", "addr:country": "US", "addr:full": "8495 PARDEE DR", "addr:postcode": "94614", "addr:state": "CA", "brand": "USPS", "collection_times": "Mo-Sa 17:00", "name": "USPS COLLECTION BOX - EXPRESS", "note": "ON 12/24 AND 12/31, THIS BOX MAY BE COLLECTED AS EARLY AS 12 NOON.", "ref": "9461400006"}, "type": "Feature"}
{"geometry": {"coordinates": [-122.202647003, 37.730101979], "type": "Point"}, "id": "28AFgvHpAhTsjttwP21_Yl2b_uM=", "properties": {"@spider": "usps_collection_boxes", "addr:city": "OAKLAND", "addr:country": "US", "addr:full": "8495 PARDEE DR", "addr:postcode": "94614", "addr:state": "CA", "brand": "USPS", "collection_times": "Mo-Sa 17:00", "name": "USPS COLLECTION BOX - BLUE BOX", "note": "ON 12/24 AND 12/31, THIS BOX MAY BE COLLECTED AS EARLY AS 12 NOON.", "ref": "9461400008"}, "type": "Feature"}
{"geometry": {"coordinates": [-122.2023112573, 37.7305684826], "type": "Point"}, "id": "eSVtp4znnWzBh0vkK2nkWyo4Ds8=", "properties": {"@spider": "usps_collection_boxes", "addr:city": "OAKLAND", "addr:country": "US", "addr:full": "8495 PARDEE DR", "addr:postcode": "94614", "addr:state": "CA", "brand": "USPS", "collection_times": "Mo-Sa 17:00", "name": "USPS COLLECTION BOX - BLUE BOX", "note": "ON 12/24 AND 12/31, THIS BOX MAY BE COLLECTED AS EARLY AS 12 NOON.", "ref": "9461400011"}, "type": "Feature"}
{"geometry": {"coordinates": [-122.2023112573, 37.7305684826], "type": "Point"}, "id": "VSwDuzO5tK_K8H5E0KF-KNtMPW8=", "properties": {"@spider": "usps_collection_boxes", "addr:city": "OAKLAND", "addr:country": "US", "addr:full": "8495 PARDEE DR", "addr:postcode": "94614", "addr:state": "CA", "brand": "USPS", "collection_times": "Mo-Fr 17:00", "name": "USPS COLLECTION BOX - PO LOBBY", "note": "ON 12/24 AND 12/31, THIS BOX MAY BE COLLECTED AS EARLY AS 12 NOON.", "ref": "9461400012"}, "type": "Feature"}
{"geometry": {"coordinates": [-122.173538011, 37.7482863261], "type": "Point"}, "id": "dMK040gY2JK7QJkfWID8Nt5hl8I=", "properties": {"@spider": "usps_collection_boxes", "addr:city": "OAKLAND", "addr:country": "US", "addr:full": "9201 INTERNATIONAL BLVD", "addr:postcode": "94614", "addr:state": "CA", "brand": "USPS", "collection_times": "Mo-Fr 17:00; Sa 14:00", "name": "USPS COLLECTION BOX - PO LOBBY", "note": "ON 12/24 AND 12/31, THIS BOX MAY BE COLLECTED AS EARLY AS 12 NOON.", "ref": "9461400013"}, "type": "Feature"}
{"geometry": {"coordinates": [-122.3003173275, 37.8063980035], "type": "Point"}, "id": "pcrDdTyPSzy8MYHIseR3cGdMDgk=", "properties": {"@spider": "usps_collection_boxes", "addr:city": "OAKLAND", "addr:country": "US", "addr:full": "1675 7TH ST", "addr:postcode": "94615", "addr:state": "CA", "brand": "USPS", "collection_times": "Mo-Sa 17:00", "name": "USPS COLLECTION BOX - EXPRESS", "note": "ON 12/24 AND 12/31, THIS BOX MAY BE COLLECTED AS EARLY AS 12 NOON.", "ref": "9461500001"}, "type": "Feature"}
{"geometry": {"coordinates": [-122.3003173275, 37.8063980035], "type": "Point"}, "id": "GC7i-FFknAa_z48Xji4nB1mNed4=", "properties": {"@spider": "usps_collection_boxes", "addr:city": "OAKLAND", "addr:country": "US", "addr:full": "1675 7TH ST", "addr:postcode": "94615", "addr:state": "CA", "brand": "USPS", "collection_times": "Mo-Sa 20:00", "name": "USPS COLLECTION BOX - BLUE BOX", "note": "ON 12/24 AND 12/31, THIS BOX MAY BE COLLECTED AS EARLY AS 12 NOON.", "ref": "9461500005"}, "type": "Feature"}
{"geometry": {"coordinates": [-122.3003173275, 37.8063980035], "type": "Point"}, "id": "6jkCdBIDnwMrz9E-YLCgViSCdAY=", "properties": {"@spider": "usps_collection_boxes", "addr:city": "OAKLAND", "addr:country": "US", "addr:full": "1675 7TH ST", "addr:postcode": "94615", "addr:state": "CA", "brand": "USPS", "collection_times": "Mo-Sa 20:00", "name": "USPS COLLECTION BOX - BLUE BOX", "note": "ON 12/24 AND 12/31, THIS BOX MAY BE COLLECTED AS EARLY AS 12 NOON.", "ref": "9461500006"}, "type": "Feature"}
{"geometry": {"coordinates": [-122.3003173275, 37.8063980035], "type": "Point"}, "id": "mvi2MB9l1olL6BQ3Ud_VkN2aGww=", "properties": {"@spider": "usps_collection_boxes", "addr:city": "OAKLAND", "addr:country": "US", "addr:full": "1675 7TH ST", "addr:postcode": "94615", "addr:state": "CA", "brand": "USPS", "collection_times": "Mo-Sa 20:00", "name": "USPS COLLECTION BOX - BLUE BOX", "note": "ON 12/24 AND 12/31, THIS BOX MAY BE COLLECTED AS EARLY AS 12 NOON.", "ref": "9461500007"}, "type": "Feature"}
{"geometry": {"coordinates": [-122.3003173275, 37.8063980035], "type": "Point"}, "id": "6j_py77tZhxR2NmReB_Ici61l2I=", "properties": {"@spider": "usps_collection_boxes", "addr:city": "OAKLAND", "addr:country": "US", "addr:full": "1675 7TH ST", "addr:postcode": "94615", "addr:state": "CA", "brand": "USPS", "collection_times": "Mo-Sa 20:00", "name": "USPS COLLECTION BOX - BLUE BOX", "note": "ON 12/24 AND 12/31, THIS BOX MAY BE COLLECTED AS EARLY AS 12 NOON.", "ref": "9461500008"}, "type": "Feature"}
{"geometry": {"coordinates": [-122.3003173275, 37.8063980035], "type": "Point"}, "id": "SSes_k6bffV9bGeOEPfn0d4MrHs=", "properties": {"@spider": "usps_collection_boxes", "addr:city": "OAKLAND", "addr:country": "US", "addr:full": "1675 7TH ST", "addr:postcode": "94615", "addr:state": "CA", "brand": "USPS", "collection_times": "Mo-Sa 20:00", "name": "USPS COLLECTION BOX - BLUE BOX", "note": "ON 12/24 AND 12/31, THIS BOX MAY BE COLLECTED AS EARLY AS 12 NOON.", "ref": "9461500009"}, "type": "Feature"}
{"geometry": {"coordinates": [-122.3003173275, 37.8063980035], "type": "Point"}, "id": "rPcF9ZOS9yLBp5yVOqHqhkGATYc=", "properties": {"@spider": "usps_collection_boxes", "addr:city": "OAKLAND", "addr:country": "US", "addr:full": "1675 7TH ST", "addr:postcode": "94615", "addr:state": "CA", "brand": "USPS", "collection_times": "Mo-Sa 20:00", "name": "USPS COLLECTION BOX - BLUE BOX", "note": "ON 12/24 AND 12/31, THIS BOX MAY BE COLLECTED AS EARLY AS 12 NOON.", "ref": "9461500010"}, "type": "Feature"}
{"geometry": {"coordinates": [-122.3003173275, 37.8063980035], "type": "Point"}, "id": "KZhhHvmlHX9AkOS-CbDbMFrvLSw=", "properties": {"@spider": "usps_collection_boxes", "addr:city": "OAKLAND", "addr:country": "US", "addr:full": "1675 7TH ST", "addr:postcode": "94615", "addr:state": "CA", "brand": "USPS", "collection_times": "Mo-Sa 20:00", "name": "USPS COLLECTION BOX - BLUE BOX", "note": "ON 12/24 AND 12/31, THIS BOX MAY BE COLLECTED AS EARLY AS 12 NOON.", "ref": "9461500011"}, "type": "Feature"}
{"geometry": {"coordinates": [-122.3003173275, 37.8063980035], "type": "Point"}, "id": "Y0eaiOuSeKJege-ASHNf9o9gtBs=", "properties": {"@spider": "usps_collection_boxes", "addr:city": "OAKLAND", "addr:country": "US", "addr:full": "1675 7TH ST", "addr:postcode": "94615", "addr:state": "CA", "brand": "USPS", "collection_times": "Mo-Fr 18:00", "name": "USPS COLLECTION BOX - PO LOBBY", "note": "ON 12/24 AND 12/31, THIS BOX MAY BE COLLECTED AS EARLY AS 12 NOON.", "ref": "9461500016"}, "type": "Feature"}
{"geometry": {"coordinates": [-122.256901, 37.85074], "type": "Point"}, "id": "LvXkpnFicQtKwjVAa-EJxLjlk4Q=", "properties": {"@spider": "usps_collection_boxes", "addr:city": "OAKLAND", "addr:country": "US", "addr:full": "400 ALCATRAZ AVE", "addr:postcode": "94618", "addr:state": "CA", "brand": "USPS", "collection_times": "Mo-Sa 11:00", "name": "USPS COLLECTION BOX - BLUE BOX", "ref": "9461800004"}, "type": "Feature"}
{"geometry": {"coordinates": [-122.250527, 37.848894], "type": "Point"}, "id": "QS_ZLl4Amb0ftNNTwz1Y-CHJHj0=", "properties": {"@spider": "usps_collection_boxes", "addr:city": "OAKLAND", "addr:country": "US", "addr:full": "6060 HARWOOD AVE", "addr:postcode": "94618", "addr:state": "CA", "brand": "USPS", "collection_times": "Mo-Sa 11:00", "name": "USPS COLLECTION BOX - BLUE BOX", "ref": "9461800006"}, "type": "Feature"}
{"geometry": {"coordinates": [-122.2479681546, 37.8377603428], "type": "Point"}, "id": "o7B3NHdnc20BZMyjl-reHT_-dog=", "properties": {"@spider": "usps_collection_boxes", "addr:city": "OAKLAND", "addr:country": "US", "addr:full": "5300 BROADWAY TER", "addr:postcode": "94618", "addr:state": "CA", "brand": "USPS", "collection_times": "Mo-Sa 12:00", "name": "USPS COLLECTION BOX - BLUE BOX", "ref": "9461800008"}, "type": "Feature"}
{"geometry": {"coordinates": [-122.246465, 37.84367], "type": "Point"}, "id": "dmsCpAmqi4wUpVTtBMo4mcKO5rI=", "properties": {"@spider": "usps_collection_boxes", "addr:city": "OAKLAND", "addr:country": "US", "addr:full": "5758 BROADWAY", "addr:postcode": "94618", "addr:state": "CA", "brand": "USPS", "collection_times": "Mo-Sa 11:00", "name": "USPS COLLECTION BOX - BLUE BOX", "ref": "9461800011"}, "type": "Feature"}
{"geometry": {"coordinates": [-122.250735, 37.837316], "type": "Point"}, "id": "yWzHZ9yZgyLx49cw8Qts1zSK5Qs=", "properties": {"@spider": "usps_collection_boxes", "addr:city": "OAKLAND", "addr:country": "US", "addr:full": "5301 BROADWAY", "addr:postcode": "94618", "addr:state": "CA", "brand": "USPS", "collection_times": "Mo-Fr 15:00; Sa 13:00", "name": "USPS COLLECTION BOX - BLUE BOX", "note": "ON 12/24 AND 12/31, THIS BOX MAY BE COLLECTED AS EARLY AS 12 NOON.", "ref": "9461800012"}, "type": "Feature"}
{"geometry": {"coordinates": [-122.2372360165, 37.8407089868], "type": "Point"}, "id": "SCi88nqCDpG1EHmw91n_5Iivngg=", "properties": {"@spider": "usps_collection_boxes", "addr:city": "OAKLAND", "addr:country": "US", "addr:full": "5865 BROADWAY TER", "addr:postcode": "94618", "addr:state": "CA", "brand": "USPS", "collection_times": "Mo-Sa 11:00", "name": "USPS COLLECTION BOX - BLUE BOX", "ref": "9461800014"}, "type": "Feature"}
{"geometry": {"coordinates": [-122.228537026, 37.8422520113], "type": "Point"}, "id": "imqN67M-2qNbBSGa5L8y793Us-4=", "properties": {"@spider": "usps_collection_boxes", "addr:city": "OAKLAND", "addr:country": "US", "addr:full": "1 SHERIDAN RD", "addr:postcode": "94618", "addr:state": "CA", "brand": "USPS", "collection_times": "Mo-Sa 11:00", "name": "USPS COLLECTION BOX - BLUE BOX", "ref": "9461800016"}, "type": "Feature"}
{"geometry": {"coordinates": [-122.25748, 37.837941], "type": "Point"}, "id": "DP1cGHirme8nMvjnvuqa0doHbZU=", "properties": {"@spider": "usps_collection_boxes", "addr:city": "OAKLAND", "addr:country": "US", "addr:full": "5173 SHAFTER AVE", "addr:postcode": "94618", "addr:state": "CA", "brand": "USPS", "collection_times": "Mo-Sa 12:00", "name": "USPS COLLECTION BOX - BLUE BOX", "ref": "9461800018"}, "type": "Feature"}
{"geometry": {"coordinates": [-122.2438370167, 37.8505319906], "type": "Point"}, "id": "kRh_wAWgI1DsCQU3R-HfCZV2CSA=", "properties": {"@spider": "usps_collection_boxes", "addr:city": "OAKLAND", "addr:country": "US", "addr:full": "6667 CHABOT RD", "addr:postcode": "94618", "addr:state": "CA", "brand": "USPS", "collection_times": "Mo-Sa 11:00", "name": "USPS COLLECTION BOX - BLUE BOX", "ref": "9461800019"}, "type": "Feature"}
{"geometry": {"coordinates": [-122.2519498957, 37.8468445512], "type": "Point"}, "id": "EWlunwdt708cs61UXddlcQL2xJU=", "properties": {"@spider": "usps_collection_boxes", "addr:city": "OAKLAND", "addr:country": "US", "addr:full": "5856 COLLEGE AVE", "addr:postcode": "94618", "addr:state": "CA", "brand": "USPS", "collection_times": "Mo-Sa 13:00", "name": "USPS COLLECTION BOX - BLUE BOX", "note": "ON 12/24 AND 12/31, THIS BOX MAY BE COLLECTED AS EARLY AS 12 NOON.", "ref": "9461800020"}, "type": "Feature"}
{"geometry": {"coordinates": [-122.226225, 37.853867], "type": "Point"}, "id": "y-jTUNrttXYNEq8iT961JrhYcDM=", "properties": {"@spider": "usps_collection_boxes", "addr:city": "OAKLAND", "addr:country": "US", "addr:full": "400 HILLER DR", "addr:postcode": "94618", "addr:state": "CA", "brand": "USPS", "collection_times": "Mo-Sa 11:00", "name": "USPS COLLECTION BOX - BLUE BOX", "ref": "9461800022"}, "type": "Feature"}
{"geometry": {"coordinates": [-122.260899, 37.838914], "type": "Point"}, "id": "jMBo8x6XDUq44WA-MNd6ggFzJKM=", "properties": {"@spider": "usps_collection_boxes", "addr:city": "OAKLAND", "addr:country": "US", "addr:full": "5238 CLAREMONT AVE", "addr:postcode": "94618", "addr:state": "CA", "brand": "USPS", "collection_times": "Mo-Fr 15:00; Sa 13:00", "name": "USPS COLLECTION BOX - BLUE BOX", "note": "ON 12/24 AND 12/31, THIS BOX MAY BE COLLECTED AS EARLY AS 12 NOON.", "ref": "9461800024"}, "type": "Feature"}
{"geometry": {"coordinates": [-122.251814, 37.849974], "type": "Point"}, "id": "hz2XKOLrm7vtEb40sDWQ7Uq_gP8=", "properties": {"@spider": "usps_collection_boxes", "addr:city": "OAKLAND", "addr:country": "US", "addr:full": "6230 CLAREMONT AVE", "addr:postcode": "94618", "addr:state": "CA", "brand": "USPS", "collection_times": "Mo-Sa 12:00", "name": "USPS COLLECTION BOX - BLUE BOX", "ref": "9461800026"}, "type": "Feature"}
{"geometry": {"coordinates": [-122.253858, 37.838496], "type": "Point"}, "id": "JgY1LW8dgS_pYmvLJ_Kgatu_jCU=", "properties": {"@spider": "usps_collection_boxes", "addr:city": "OAKLAND", "addr:country": "US", "addr:full": "5301 JAMES AVE", "addr:postcode": "94618", "addr:state": "CA", "brand": "USPS", "collection_times": "Mo-Sa 11:00", "name": "USPS COLLECTION BOX - BLUE BOX", "ref": "9461800027"}, "type": "Feature"}
{"geometry": {"coordinates": [-122.251576, 37.842455], "type": "Point"}, "id": "RLuUKdbBnTcLN3YS25VCiOqt9rI=", "properties": {"@spider": "usps_collection_boxes", "addr:city": "OAKLAND", "addr:country": "US", "addr:full": "5498 COLLEGE AVE", "addr:postcode": "94618", "addr:state": "CA", "brand": "USPS", "collection_times": "Mo-Sa 12:00", "name": "USPS COLLECTION BOX - BLUE BOX", "ref": "9461800028"}, "type": "Feature"}
{"geometry": {"coordinates": [-122.252702, 37.836182], "type": "Point"}, "id": "MAmNk4sE5H6H8EL94CwFVhkXPWw=", "properties": {"@spider": "usps_collection_boxes", "addr:city": "OAKLAND", "addr:country": "US", "addr:full": "5204 DESMOND ST", "addr:postcode": "94618", "addr:state": "CA", "brand": "USPS", "collection_times": "Mo-Sa 12:00", "name": "USPS COLLECTION BOX - BLUE BOX", "ref": "9461800031"}, "type": "Feature"}
{"geometry": {"coordinates": [-122.229349, 37.840105], "type": "Point"}, "id": "gHDAR8VFFVDWzXdmi6Gt7tTlgGg=", "properties": {"@spider": "usps_collection_boxes", "addr:city": "OAKLAND", "addr:country": "US", "addr:full": "253 FLORENCE AVE", "addr:postcode": "94618", "addr:state": "CA", "brand": "USPS", "collection_times": "Mo-Sa 12:00", "name": "USPS COLLECTION BOX - BLUE BOX", "ref": "9461800032"}, "type": "Feature"}
{"geometry": {"coordinates": [-122.224292, 37.83714], "type": "Point"}, "id": "vuyo_HZldzpch6-ZoIqgzWtu3B0=", "properties": {"@spider": "usps_collection_boxes", "addr:city": "OAKLAND", "addr:country": "US", "addr:full": "5241 PROCTOR AVE", "addr:postcode": "94618", "addr:state": "CA", "brand": "USPS", "collection_times": "Mo-Sa 12:00", "name": "USPS COLLECTION BOX - BLUE BOX", "ref": "9461800033"}, "type": "Feature"}
{"geometry": {"coordinates": [-122.247635, 37.849933], "type": "Point"}, "id": "8v1-8wasNQ4iR2PixqQKRAK3BXU=", "properties": {"@spider": "usps_collection_boxes", "addr:city": "OAKLAND", "addr:country": "US", "addr:full": "6001 ROSS ST", "addr:postcode": "94618", "addr:state": "CA", "brand": "USPS", "collection_times": "Mo-Sa 11:00", "name": "USPS COLLECTION BOX - BLUE BOX", "ref": "9461800036"}, "type": "Feature"}
{"geometry": {"coordinates": [-122.232258, 37.853607], "type": "Point"}, "id": "G9zQXq8EOHYow3ACSgkebxth6z8=", "properties": {"@spider": "usps_collection_boxes", "addr:city": "OAKLAND", "addr:country": "US", "addr:full": "47 HILLER DR", "addr:postcode": "94618", "addr:state": "CA", "brand": "USPS", "collection_times": "Mo-Sa 11:00", "name": "USPS COLLECTION BOX - BLUE BOX", "ref": "9461800037"}, "type": "Feature"}
{"geometry": {"coordinates": [-122.256656, 37.848873], "type": "Point"}, "id": "7AZMcWZXGD_LobccSI0GVeSmWjM=", "properties": {"@spider": "usps_collection_boxes", "addr:city": "OAKLAND", "addr:country": "US", "addr:full": "396 62ND ST", "addr:postcode": "94618", "addr:state": "CA", "brand": "USPS", "collection_times": "Mo-Sa 11:00", "name": "USPS COLLECTION BOX - BLUE BOX", "ref": "9461800044"}, "type": "Feature"}
{"geometry": {"coordinates": [-122.252374, 37.849538], "type": "Point"}, "id": "SDdXzpd19BKGDXeCtwIRaKWvZIA=", "properties": {"@spider": "usps_collection_boxes", "addr:city": "OAKLAND", "addr:country": "US", "addr:full": "6201 COLLEGE AVE", "addr:postcode": "94618", "addr:state": "CA", "brand": "USPS", "collection_times": "Mo-Fr 15:00; Sa 13:00", "name": "USPS COLLECTION BOX - BLUE BOX", "note": "ON 12/24 AND 12/31, THIS BOX MAY BE COLLECTED AS EARLY AS 12 NOON.", "ref": "9461800047"}, "type": "Feature"}
{"geometry": {"coordinates": [-122.251372, 37.838971], "type": "Point"}, "id": "IcWGRclmNAKMkm6lJF94MT2wAjI=", "properties": {"@spider": "usps_collection_boxes", "addr:city": "OAKLAND", "addr:country": "US", "addr:full": "5337 COLLEGE AVE", "addr:postcode": "94618", "addr:state": "CA", "brand": "USPS", "collection_times": "Mo-Fr 15:00; Sa 13:00", "name": "USPS COLLECTION BOX - BLUE BOX", "note": "ON 12/24 AND 12/31, THIS BOX MAY BE COLLECTED AS EARLY AS 12 NOON.", "ref": "9461800050"}, "type": "Feature"}
{"geometry": {"coordinates": [-122.2363409969, 37.8460120074], "type": "Point"}, "id": "fX0YBiSYhvXs5rF9EfUS9LNFvME=", "properties": {"@spider": "usps_collection_boxes", "addr:city": "OAKLAND", "addr:country": "US", "addr:full": "5400 GOLDEN GATE AVE", "addr:postcode": "94618", "addr:state": "CA", "brand": "USPS", "collection_times": "Mo-Sa 12:00", "name": "USPS COLLECTION BOX - BLUE BOX", "ref": "9461800054"}, "type": "Feature"}
{"geometry": {"coordinates": [-122.251731, 37.844955], "type": "Point"}, "id": "WSMlmQRVAybiUDJaCScMTAEkJac=", "properties": {"@spider": "usps_collection_boxes", "addr:city": "OAKLAND", "addr:country": "US", "addr:full": "5650 COLLEGE AVE", "addr:postcode": "94618", "addr:state": "CA", "brand": "USPS", "collection_times": "Mo-Sa 12:00", "name": "USPS COLLECTION BOX - BLUE BOX", "ref": "9461800055"}, "type": "Feature"}
{"geometry": {"coordinates": [-122.200697, 37.784425], "type": "Point"}, "id": "J3d-RAMePazAn2-54jce4KbSrnk=", "properties": {"@spider": "usps_collection_boxes", "addr:city": "OAKLAND", "addr:country": "US", "addr:full": "3001 HIGH ST", "addr:postcode": "94619", "addr:state": "CA", "brand": "USPS", "collection_times": "Mo-Fr 14:30; Sa 13:00", "name": "USPS COLLECTION BOX - BLUE BOX", "note": "ON 12/24 AND 12/31, THIS BOX MAY BE COLLECTED AS EARLY AS 12 NOON.", "ref": "9461900021"}, "type": "Feature"}
{"geometry": {"coordinates": [-122.1899912586, 37.7993281543], "type": "Point"}, "id": "ZsF96bltEBBdtIr3d2nbb4_z1HQ=", "properties": {"@spider": "usps_collection_boxes", "addr:city": "OAKLAND", "addr:country": "US", "addr:full": "3595 MONTEREY BLVD", "addr:postcode": "94619", "addr:state": "CA", "brand": "USPS", "collection_times": "Mo-Fr 14:00; Sa 13:00", "name": "USPS COLLECTION BOX - BLUE BOX", "note": "ON 12/24 AND 12/31, THIS BOX MAY BE COLLECTED AS EARLY AS 12 NOON.", "ref": "9461900025"}, "type": "Feature"}
{"geometry": {"coordinates": [-122.2007329958, 37.7934210132], "type": "Point"}, "id": "PahXyHEeibX9DvHMwJKaChwsVJg=", "properties": {"@spider": "usps_collection_boxes", "addr:city": "OAKLAND", "addr:country": "US", "addr:full": "3501 MACARTHUR BLVD", "addr:postcode": "94619", "addr:state": "CA", "brand": "USPS", "collection_times": "Mo-Sa 12:00", "name": "USPS COLLECTION BOX - BLUE BOX", "ref": "9461900032"}, "type": "Feature"}
{"geometry": {"coordinates": [-122.182555, 37.797816], "type": "Point"}, "id": "dRTxJ_cCp2d9UwzTpDDkLm0fnmI=", "properties": {"@spider": "usps_collection_boxes", "addr:city": "OAKLAND", "addr:country": "US", "addr:full": "4100 REDWOOD RD", "addr:postcode": "94619", "addr:state": "CA", "brand": "USPS", "collection_times": "Mo-Fr 15:00; Sa 13:00", "name": "USPS COLLECTION BOX - BLUE BOX", "note": "ON 12/24 AND 12/31, THIS BOX MAY BE COLLECTED AS EARLY AS 12 NOON.", "ref": "9461900040"}, "type": "Feature"}
{"geometry": {"coordinates": [-122.1942232657, 37.7875646851], "type": "Point"}, "id": "eEVIMDji2PMSI2g3QV0CNSKTZgQ=", "properties": {"@spider": "usps_collection_boxes", "addr:city": "OAKLAND", "addr:country": "US", "addr:full": "3630 HIGH ST", "addr:postcode": "94619", "addr:state": "CA", "brand": "USPS", "collection_times": "Mo-Sa 17:00", "name": "USPS COLLECTION BOX - BLUE BOX", "note": "ON 12/24 AND 12/31, THIS BOX MAY BE COLLECTED AS EARLY AS 12 NOON.", "ref": "9461900045"}, "type": "Feature"}
{"geometry": {"coordinates": [-122.1713775, 37.79847], "type": "Point"}, "id": "gakAWGOIf60kD-rhZUBTNCAR3WM=", "properties": {"@spider": "usps_collection_boxes", "addr:city": "OAKLAND", "addr:country": "US", "addr:full": "11889 SKYLINE BLVD", "addr:postcode": "94619", "addr:state": "CA", "brand": "USPS", "collection_times": "Mo-Fr 14:00; Sa 13:00", "name": "USPS COLLECTION BOX - BLUE BOX", "note": "ON 12/24 AND 12/31, THIS BOX MAY BE COLLECTED AS EARLY AS 12 NOON.", "ref": "9461900046"}, "type": "Feature"}
{"geometry": {"coordinates": [-122.196719, 37.789674], "type": "Point"}, "id": "RKxQXtUBt1fCCVwVcqU3nM8xMik=", "properties": {"@spider": "usps_collection_boxes", "addr:city": "OAKLAND", "addr:country": "US", "addr:full": "4100 MACARTHUR BLVD", "addr:postcode": "94619", "addr:state": "CA", "brand": "USPS", "collection_times": "Mo-Sa 12:00", "name": "USPS COLLECTION BOX - BLUE BOX", "ref": "9461900049"}, "type": "Feature"}
{"geometry": {"coordinates": [-122.1942232657, 37.7875646851], "type": "Point"}, "id": "aSgI4YeWz_-Fv8Y9UXop0nXDSeM=", "properties": {"@spider": "usps_collection_boxes", "addr:city": "OAKLAND", "addr:country": "US", "addr:full": "3630 HIGH ST", "addr:postcode": "94619", "addr:state": "CA", "brand": "USPS", "collection_times": "Mo-Fr 17:00; Sa 13:30", "name": "USPS COLLECTION BOX - PO LOBBY", "note": "ON 12/24 AND 12/31, THIS BOX MAY BE COLLECTED AS EARLY AS 12 NOON.", "ref": "9461900051"}, "type": "Feature"}
{"geometry": {"coordinates": [-122.196436, 37.754066], "type": "Point"}, "id": "C8PH4k8IJjyRAqIEFovJ9WEi-68=", "properties": {"@spider": "usps_collection_boxes", "addr:city": "OAKLAND", "addr:country": "US", "addr:full": "7200 SNELL ST", "addr:postcode": "94621", "addr:state": "CA", "brand": "USPS", "collection_times": "Mo-Sa 13:00", "name": "USPS COLLECTION BOX - BLUE BOX", "note": "ON 12/24 AND 12/31, THIS BOX MAY BE COLLECTED AS EARLY AS 12 NOON.", "ref": "9462100003"}, "type": "Feature"}
{"geometry": {"coordinates": [-122.204941, 37.727193], "type": "Point"}, "id": "uP68ZKi08mR1TlG40QOuuYAeWf0=", "properties": {"@spider": "usps_collection_boxes", "addr:city": "OAKLAND", "addr:country": "US", "addr:full": "142 EARHART RD", "addr:postcode": "94621", "addr:state": "CA", "brand": "USPS", "collection_times": "Mo-Sa 13:00", "name": "USPS COLLECTION BOX - BLUE BOX", "note": "ON 12/24 AND 12/31, THIS BOX MAY BE COLLECTED AS EARLY AS 12 NOON.", "ref": "9462100012"}, "type": "Feature"}
{"geometry": {"coordinates": [-122.198338, 37.73464], "type": "Point"}, "id": "TfHzadINBeF9tnKyl_nDI7OfjaQ=", "properties": {"@spider": "usps_collection_boxes", "addr:city": "OAKLAND", "addr:country": "US", "addr:full": "303 HEGENBERGER RD", "addr:postcode": "94621", "addr:state": "CA", "brand": "USPS", "collection_times": "Mo-Fr 15:00; Sa 13:00", "name": "USPS COLLECTION BOX - BLUE BOX", "note": "ON 12/24 AND 12/31, THIS BOX MAY BE COLLECTED AS EARLY AS 12 NOON.", "ref": "9462100023"}, "type": "Feature"}
{"geometry": {"coordinates": [-122.205505, 37.732268], "type": "Point"}, "id": "ryUlpF1rV-n2n_kiz5uSJPDiLa8=", "properties": {"@spider": "usps_collection_boxes", "addr:city": "OAKLAND", "addr:country": "US", "addr:full": "80 SWAN WAY", "addr:postcode": "94621", "addr:state": "CA", "brand": "USPS", "collection_times": "Mo-Sa 13:00", "name": "USPS COLLECTION BOX - BLUE BOX", "note": "ON 12/24 AND 12/31, THIS BOX MAY BE COLLECTED AS EARLY AS 12 NOON.", "ref": "9462100036"}, "type": "Feature"}
{"geometry": {"coordinates": [-122.200042, 37.736299], "type": "Point"}, "id": "MqaypieviFCZkMEva02Ku64Rap0=", "properties": {"@spider": "usps_collection_boxes", "addr:city": "OAKLAND", "addr:country": "US", "addr:full": "406 PENDLETON WAY", "addr:postcode": "94621", "addr:state": "CA", "brand": "USPS", "collection_times": "Mo-Fr 15:00; Sa 13:00", "name": "USPS COLLECTION BOX - BLUE BOX", "note": "ON 12/24 AND 12/31, THIS BOX MAY BE COLLECTED AS EARLY AS 12 NOON.", "ref": "9462100059"}, "type": "Feature"}
{"geometry": {"coordinates": [-122.213765, 37.712838], "type": "Point"}, "id": "Z8-2yj4xRrESDYX8tby6_8qZvXA=", "properties": {"@spider": "usps_collection_boxes", "addr:city": "OAKLAND", "addr:country": "US", "addr:full": "1 AIRPORT DR", "addr:postcode": "94621", "addr:state": "CA", "brand": "USPS", "collection_times": "Mo-Sa 13:00", "name": "USPS COLLECTION BOX - BLUE BOX", "note": "ON 12/24 AND 12/31, THIS BOX MAY BE COLLECTED AS EARLY AS 12 NOON.", "ref": "9462100067"}, "type": "Feature"}
{"geometry": {"coordinates": [-122.2033852007, 37.739048471], "type": "Point"}, "id": "GOplzZ9ozsJLqxqTrFYy2JM4soA=", "properties": {"@spider": "usps_collection_boxes", "addr:city": "OAKLAND", "addr:country": "US", "addr:full": "8001 CAPWELL DR", "addr:postcode": "94621", "addr:state": "CA", "brand": "USPS", "collection_times": "Mo-Fr 16:00; Sa 13:00", "name": "USPS COLLECTION BOX - BLUE BOX", "note": "ON 12/24 AND 12/31, THIS BOX MAY BE COLLECTED AS EARLY AS 12 NOON.", "ref": "9462100070"}, "type": "Feature"}
{"geometry": {"coordinates": [-122.198695, 37.735965], "type": "Point"}, "id": "GtpfP0N2ebbxctvfd1MOJB82clc=", "properties": {"@spider": "usps_collection_boxes", "addr:city": "OAKLAND", "addr:country": "US", "addr:full": "333 HEGENBERGER RD", "addr:postcode": "94621", "addr:state": "CA", "brand": "USPS", "collection_times": "Mo-Fr 15:00; Sa 13:00", "name": "USPS COLLECTION BOX - BLUE BOX", "note": "ON 12/24 AND 12/31, THIS BOX MAY BE COLLECTED AS EARLY AS 12 NOON.", "ref": "9462100079"}, "type": "Feature"}
{"geometry": {"coordinates": [-122.1964267987, 37.7485136303], "type": "Point"}, "id": "qGEupHg9RMQSpOqYU5YoMTiLA98=", "properties": {"@spider": "usps_collection_boxes", "addr:city": "OAKLAND", "addr:country": "US", "addr:full": "675 HEGENBERGER RD", "addr:postcode": "94621", "addr:state": "CA", "brand": "USPS", "collection_times": "Mo-Fr 15:00; Sa 13:00", "name": "USPS COLLECTION BOX - BLUE BOX", "note": "ON 12/24 AND 12/31, THIS BOX MAY BE COLLECTED AS EARLY AS 12 NOON.", "ref": "9462100081"}, "type": "Feature"}
{"geometry": {"coordinates": [-122.20012, 37.743758], "type": "Point"}, "id": "NzL4ov9ifk7K8NB7ohgPX7N5hQU=", "properties": {"@spider": "usps_collection_boxes", "addr:city": "OAKLAND", "addr:country": "US", "addr:full": "7801 OAKPORT ST", "addr:postcode": "94621", "addr:state": "CA", "brand": "USPS", "collection_times": "Mo-Fr 15:00; Sa 13:00", "name": "USPS COLLECTION BOX - BLUE BOX", "note": "ON 12/24 AND 12/31, THIS BOX MAY BE COLLECTED AS EARLY AS 12 NOON.", "ref": "9462100082"}, "type": "Feature"}
{"geometry": {"coordinates": [-122.194685, 37.743978], "type": "Point"}, "id": "2qGchGBdP5lwNI_MNokxwQ6maAI=", "properties": {"@spider": "usps_collection_boxes", "addr:city": "OAKLAND", "addr:country": "US", "addr:full": "8400 ENTERPRISE WAY", "addr:postcode": "94621", "addr:state": "CA", "brand": "USPS", "collection_times": "Mo-Sa 13:00", "name": "USPS COLLECTION BOX - BLUE BOX", "note": "ON 12/24 AND 12/31, THIS BOX MAY BE COLLECTED AS EARLY AS 12 NOON.", "ref": "9462100087"}, "type": "Feature"}
