{"dataset_attributes": {"@spider": "usps_collection_boxes", "spider:collection_time": "2023-09-25T08:26:09.915926"}, "geometry": {"coordinates": [-122.28541, 37.86892], "type": "Point"}, "id": "Y7eL4KVD42aAG-4jMeBKm8F5B00=", "properties": {"@spider": "usps_collection_boxes", "addr:city": "BERKELEY", "addr:country": "US", "addr:full": "1320 ADDISON ST", "addr:postcode": "94702", "addr:state": "CA", "amenity": "post_box", "brand": "United States Postal Service", "brand:wikidata": "Q668687", "collection_times": "Mo-Fr 12:00; Sa 11:00", "name": "USPS COLLECTION BOX - BLUE BOX", "nsi_id": "unitedstatespostalservice-a77078", "operator": "United States Postal Service", "operator:short": "USPS", "operator:type": "public", "operator:wikidata": "Q668687", "ref": "9470200003"}, "type": "Feature"}
{"dataset_attributes": {"@spider": "usps_collection_boxes", "spider:collection_time": "2023-09-25T08:26:09.915926"}, "geometry": {"coordinates": [-122.293959, 37.87534], "type": "Point"}, "id": "cy4_Nodj9E6gfLErg9ipS1ltHMk=", "properties": {"@spider": "usps_collection_boxes", "addr:city": "BERKELEY", "addr:country": "US", "addr:full": "1531 SAN PABLO AVE", "addr:postcode": "94702", "addr:state": "CA", "amenity": "post_box", "brand": "United States Postal Service", "brand:wikidata": "Q668687", "collection_times": "Mo-Fr 12:00; Sa 11:00", "name": "USPS COLLECTION BOX - BLUE BOX", "nsi_id": "unitedstatespostalservice-a77078", "operator": "United States Postal Service", "operator:short": "USPS", "operator:type": "public", "operator:wikidata": "Q668687", "ref": "9470200010"}, "type": "Feature"}
{"dataset_attributes": {"@spider": "usps_collection_boxes", "spider:collection_time": "2023-09-25T08:26:09.915926"}, "geometry": {"coordinates": [-122.289429, 37.869586], "type": "Point"}, "id": "yYziE33lQmCTP5nZSDsnrXs24_c=", "properties": {"@spider": "usps_collection_boxes", "addr:city": "BERKELEY", "addr:country": "US", "addr:full": "1201 UNIVERSITY AVE", "addr:postcode": "94702", "addr:state": "CA", "amenity": "post_box", "brand": "United States Postal Service", "brand:wikidata": "Q668687", "collection_times": "Mo-Fr 12:00; Sa 11:00", "name": "USPS COLLECTION BOX - BLUE BOX", "nsi_id": "unitedstatespostalservice-a77078", "operator": "United States Postal Service", "operator:short": "USPS", "operator:type": "public", "operator:wikidata": "Q668687", "ref": "9470200012"}, "type": "Feature"}
{"dataset_attributes": {"@spider": "usps_collection_boxes", "spider:collection_time": "2023-09-25T08:26:09.915926"}, "geometry": {"coordinates": [-122.2897880349, 37.8607559846], "type": "Point"}, "id": "J0noF6Zs5kSmJZPxogOUmgOUhMM=", "properties": {"@spider": "usps_collection_boxes", "addr:city": "BERKELEY", "addr:country": "US", "addr:full": "2500 SAN PABLO AVE", "addr:postcode": "94702", "addr:state": "CA", "amenity": "post_box", "brand": "United States Postal Service", "brand:wikidata": "Q668687", "collection_times": "Mo-Fr 12:00; Sa 11:00", "name": "USPS COLLECTION BOX - BLUE BOX", "nsi_id": "unitedstatespostalservice-a77078", "operator": "United States Postal Service", "operator:short": "USPS", "operator:type": "public", "operator:wikidata": "Q668687", "ref": "9470200014"}, "type": "Feature"}
{"dataset_attributes": {"@spider": "usps_collection_boxes", "spider:collection_time": "2023-09-25T08:26:09.915926"}, "geometry": {"coordinates": [-122.288711, 37.878203], "type": "Point"}, "id": "BYg6uYMV5Ooc6yONihGhM6h6bxg=", "properties": {"@spider": "usps_collection_boxes", "addr:city": "BERKELEY", "addr:country": "US", "addr:full": "1422 PERALTA AVE", "addr:postcode": "94702", "addr:state": "CA", "amenity": "post_box", "brand": "United States Postal Service", "brand:wikidata": "Q668687", "collection_times": "Mo-Sa 11:00", "name": "USPS COLLECTION BOX - BLUE BOX", "nsi_id": "unitedstatespostalservice-a77078", "operator": "United States Postal Service", "operator:short": "USPS", "operator:type": "public", "operator:wikidata": "Q668687", "ref": "9470200017"}, "type": "Feature"}
{"dataset_attributes": {"@spider": "usps_collection_boxes", "spider:collection_time": "2023-09-25T08:26:09.915926"}, "geometry": {"coordinates": [-122.2846083451, 37.8575602806], "type": "Point"}, "id": "ezwqhsc7FW1sgCXs4d-r7YhiASg=", "properties": {"@spider": "usps_collection_boxes", "addr:city": "BERKELEY", "addr:country": "US", "addr:full": "2717 MABEL ST", "addr:postcode": "94702", "addr:state": "CA", "amenity": "post_box", "brand": "United States Postal Service", "brand:wikidata": "Q668687", "collection_times": "Mo-Fr 12:00; Sa 11:00", "name": "USPS COLLECTION BOX - BLUE BOX", "nsi_id": "unitedstatespostalservice-a77078", "operator": "United States Postal Service", "operator:short": "USPS", "operator:type": "public", "operator:wikidata": "Q668687", "ref": "9470200020"}, "type": "Feature"}
{"dataset_attributes": {"@spider": "usps_collection_boxes", "spider:collection_time": "2023-09-25T08:26:09.915926"}, "geometry": {"coordinates": [-122.288483, 37.857273], "type": "Point"}, "id": "MTIP1aOhYFulip3-UnOo7VHhlbg=", "properties": {"@spider": "usps_collection_boxes", "addr:city": "BERKELEY", "addr:country": "US", "addr:full": "2720 SAN PABLO AVE", "addr:postcode": "94702", "addr:state": "CA", "amenity": "post_box", "brand": "United States Postal Service", "brand:wikidata": "Q668687", "collection_times": "Mo-Fr 12:00; Sa 11:00", "name": "USPS COLLECTION BOX - BLUE BOX", "nsi_id": "unitedstatespostalservice-a77078", "operator": "United States Postal Service", "operator:short": "USPS", "operator:type": "public", "operator:wikidata": "Q668687", "ref": "9470200022"}, "type": "Feature"}
{"dataset_attributes": {"@spider": "usps_collection_boxes", "spider:collection_time": "2023-09-25T08:26:09.915926"}, "geometry": {"coordinates": [-122.2916282681, 37.8678272684], "type": "Point"}, "id": "zqsKQeuu4-bvwXIXd348UuGnfKI=", "properties": {"@spider": "usps_collection_boxes", "addr:city": "BERKELEY", "addr:country": "US", "addr:full": "2111 SAN PABLO AVE", "addr:postcode": "94702", "addr:state": "CA", "amenity": "post_box", "brand": "United States Postal Service", "brand:wikidata": "Q668687", "collection_times": "Mo-Fr 17:00; Sa 16:30", "name": "USPS COLLECTION BOX - BLUE BOX", "note": "ON 12/24 AND 12/31, THIS BOX MAY BE COLLECTED AS EARLY AS 12 NOON.", "nsi_id": "unitedstatespostalservice-a77078", "operator": "United States Postal Service", "operator:short": "USPS", "operator:type": "public", "operator:wikidata": "Q668687", "ref": "9470200028"}, "type": "Feature"}
{"dataset_attributes": {"@spider": "usps_collection_boxes", "spider:collection_time": "2023-09-25T08:26:09.915926"}, "geometry": {"coordinates": [-122.279517, 37.85474], "type": "Point"}, "id": "k5JwWw4GCmeyihyD29HcLh0w_NA=", "properties": {"@spider": "usps_collection_boxes", "addr:city": "BERKELEY", "addr:country": "US", "addr:full": "2900 SACRAMENTO ST", "addr:postcode": "94702", "addr:state": "CA", "amenity": "post_box", "brand": "United States Postal Service", "brand:wikidata": "Q668687", "collection_times": "Mo-Fr 17:00; Sa 16:30", "name": "USPS COLLECTION BOX - BLUE BOX", "note": "ON 12/24 AND 12/31, THIS BOX MAY BE COLLECTED AS EARLY AS 12 NOON.", "nsi_id": "unitedstatespostalservice-a77078", "operator": "United States Postal Service", "operator:short": "USPS", "operator:type": "public", "operator:wikidata": "Q668687", "ref": "9470200029"}, "type": "Feature"}
{"dataset_attributes": {"@spider": "usps_collection_boxes", "spider:collection_time": "2023-09-25T08:26:09.915926"}, "geometry": {"coordinates": [-122.287349495, 37.8537430502], "type": "Point"}, "id": "PCrYyibZH1wuR9I2MgbIeo-W9FE=", "properties": {"@spider": "usps_collection_boxes", "addr:city": "BERKELEY", "addr:country": "US", "addr:full": "2900 SAN PABLO AVE", "addr:postcode": "94702", "addr:state": "CA", "amenity": "post_box", "brand": "United States Postal Service", "brand:wikidata": "Q668687", "collection_times": "Mo-Sa 11:00", "name": "USPS COLLECTION BOX - BLUE BOX", "nsi_id": "unitedstatespostalservice-a77078", "operator": "United States Postal Service", "operator:short": "USPS", "operator:type": "public", "operator:wikidata": "Q668687", "ref": "9470200034"}, "type": "Feature"}
{"dataset_attributes": {"@spider": "usps_collection_boxes", "spider:collection_time": "2023-09-25T08:26:09.915926"}, "geometry": {"coordinates": [-122.2916283519, 37.8678275199], "type": "Point"}, "id": "4zRQP1YkaDg4N1VsDekXPqnVqLs=", "properties": {"@spider": "usps_collection_boxes", "addr:city": "BERKELEY", "addr:country": "US", "addr:full": "2111 SAN PABLO AVE", "addr:postcode": "94702", "addr:state": "CA", "amenity": "post_box", "brand": "United States Postal Service", "brand:wikidata": "Q668687", "collection_times": "Mo-Fr 17:00; Sa 16:30", "name": "USPS COLLECTION BOX - BLUE BOX", "note": "ON 12/24 AND 12/31, THIS BOX MAY BE COLLECTED AS EARLY AS 12 NOON.", "nsi_id": "unitedstatespostalservice-a77078", "operator": "United States Postal Service", "operator:short": "USPS", "operator:type": "public", "operator:wikidata": "Q668687", "ref": "9470200035"}, "type": "Feature"}
{"dataset_attributes": {"@spider": "usps_collection_boxes", "spider:collection_time": "2023-09-25T08:26:09.915926"}, "geometry": {"coordinates": [-122.283124, 37.873746], "type": "Point"}, "id": "smfA3qaOYxe0ydmrfXu2EPWww1M=", "properties": {"@spider": "usps_collection_boxes", "addr:city": "BERKELEY", "addr:country": "US", "addr:full": "1731 SACRAMENTO ST", "addr:postcode": "94702", "addr:state": "CA", "amenity": "post_box", "brand": "United States Postal Service", "brand:wikidata": "Q668687", "collection_times": "Mo-Fr 15:00; Sa 11:00", "name": "USPS COLLECTION BOX - BLUE BOX", "note": "ON 12/24 AND 12/31, THIS BOX MAY BE COLLECTED AS EARLY AS 12 NOON.", "nsi_id": "unitedstatespostalservice-a77078", "operator": "United States Postal Service", "operator:short": "USPS", "operator:type": "public", "operator:wikidata": "Q668687", "ref": "9470200036"}, "type": "Feature"}
{"dataset_attributes": {"@spider": "usps_collection_boxes", "spider:collection_time": "2023-09-25T08:26:09.915926"}, "geometry": {"coordinates": [-122.2916283519, 37.8678275199], "type": "Point"}, "id": "OtFmZuBslAP6qX4Fon5Nn-dLasU=", "properties": {"@spider": "usps_collection_boxes", "addr:city": "BERKELEY", "addr:country": "US", "addr:full": "2111 SAN PABLO AVE", "addr:postcode": "94702", "addr:state": "CA", "amenity": "post_box", "brand": "United States Postal Service", "brand:wikidata": "Q668687", "collection_times": "Mo-Fr 17:00; Sa 15:00", "name": "USPS COLLECTION BOX - PO LOBBY", "note": "ON 12/24 AND 12/31, THIS BOX MAY BE COLLECTED AS EARLY AS 12 NOON.", "nsi_id": "unitedstatespostalservice-a77078", "operator": "United States Postal Service", "operator:short": "USPS", "operator:type": "public", "operator:wikidata": "Q668687", "ref": "9470200043"}, "type": "Feature"}
{"dataset_attributes": {"@spider": "usps_collection_boxes", "spider:collection_time": "2023-09-25T08:26:09.915926"}, "geometry": {"coordinates": [-122.271849, 37.848649], "type": "Point"}, "id": "Q8i9Jjf_aFowx59NX5HLSIzSaio=", "properties": {"@spider": "usps_collection_boxes", "addr:city": "BERKELEY", "addr:country": "US", "addr:full": "3300 ADELINE ST", "addr:postcode": "94703", "addr:state": "CA", "amenity": "post_box", "brand": "United States Postal Service", "brand:wikidata": "Q668687", "collection_times": "Mo-Sa 11:00", "name": "USPS COLLECTION BOX - BLUE BOX", "nsi_id": "unitedstatespostalservice-a77078", "operator": "United States Postal Service", "operator:short": "USPS", "operator:type": "public", "operator:wikidata": "Q668687", "ref": "9470300002"}, "type": "Feature"}
{"dataset_attributes": {"@spider": "usps_collection_boxes", "spider:collection_time": "2023-09-25T08:26:09.915926"}, "geometry": {"coordinates": [-122.270088, 37.853013], "type": "Point"}, "id": "9iUnYi-TGB3QG_Fdd3KgrM1fq2k=", "properties": {"@spider": "usps_collection_boxes", "addr:city": "BERKELEY", "addr:country": "US", "addr:full": "3100 ADELINE ST", "addr:postcode": "94703", "addr:state": "CA", "amenity": "post_box", "brand": "United States Postal Service", "brand:wikidata": "Q668687", "collection_times": "Mo-Fr 12:00; Sa 11:00", "name": "USPS COLLECTION BOX - BLUE BOX", "nsi_id": "unitedstatespostalservice-a77078", "operator": "United States Postal Service", "operator:short": "USPS", "operator:type": "public", "operator:wikidata": "Q668687", "ref": "9470300005"}, "type": "Feature"}
{"dataset_attributes": {"@spider": "usps_collection_boxes", "spider:collection_time": "2023-09-25T08:26:09.915926"}, "geometry": {"coordinates": [-122.275903, 37.860243], "type": "Point"}, "id": "bax82C4ok_WhDXF5CTHMWojhl3c=", "properties": {"@spider": "usps_collection_boxes", "addr:city": "BERKELEY", "addr:country": "US", "addr:full": "1701 CARLETON ST", "addr:postcode": "94703", "addr:state": "CA", "amenity": "post_box", "brand": "United States Postal Service", "brand:wikidata": "Q668687", "collection_times": "Mo-Sa 11:00", "name": "USPS COLLECTION BOX - BLUE BOX", "nsi_id": "unitedstatespostalservice-a77078", "operator": "United States Postal Service", "operator:short": "USPS", "operator:type": "public", "operator:wikidata": "Q668687", "ref": "9470300009"}, "type": "Feature"}
{"dataset_attributes": {"@spider": "usps_collection_boxes", "spider:collection_time": "2023-09-25T08:26:09.915926"}, "geometry": {"coordinates": [-122.278152, 37.877152], "type": "Point"}, "id": "XWVx0pGOT-oKUSonwu2frq1pLUY=", "properties": {"@spider": "usps_collection_boxes", "addr:city": "BERKELEY", "addr:country": "US", "addr:full": "1700 CEDAR ST", "addr:postcode": "94703", "addr:state": "CA", "amenity": "post_box", "brand": "United States Postal Service", "brand:wikidata": "Q668687", "collection_times": "Mo-Fr 12:00; Sa 11:00", "name": "USPS COLLECTION BOX - BLUE BOX", "nsi_id": "unitedstatespostalservice-a77078", "operator": "United States Postal Service", "operator:short": "USPS", "operator:type": "public", "operator:wikidata": "Q668687", "ref": "9470300010"}, "type": "Feature"}
{"dataset_attributes": {"@spider": "usps_collection_boxes", "spider:collection_time": "2023-09-25T08:26:09.915926"}, "geometry": {"coordinates": [-122.277745, 37.873581], "type": "Point"}, "id": "xtLTg3uolYbQRekYxSaM9lWHg8Q=", "properties": {"@spider": "usps_collection_boxes", "addr:city": "BERKELEY", "addr:country": "US", "addr:full": "1801 MCGEE AVE", "addr:postcode": "94703", "addr:state": "CA", "amenity": "post_box", "brand": "United States Postal Service", "brand:wikidata": "Q668687", "collection_times": "Mo-Fr 12:00; Sa 11:00", "name": "USPS COLLECTION BOX - BLUE BOX", "nsi_id": "unitedstatespostalservice-a77078", "operator": "United States Postal Service", "operator:short": "USPS", "operator:type": "public", "operator:wikidata": "Q668687", "ref": "9470300012"}, "type": "Feature"}
{"dataset_attributes": {"@spider": "usps_collection_boxes", "spider:collection_time": "2023-09-25T08:26:09.915926"}, "geometry": {"coordinates": [-122.271222, 37.856338], "type": "Point"}, "id": "DYHCs-uIKfvBk7OjvWi6XnBydpQ=", "properties": {"@spider": "usps_collection_boxes", "addr:city": "BERKELEY", "addr:country": "US", "addr:full": "1901 RUSSELL ST", "addr:postcode": "94703", "addr:state": "CA", "amenity": "post_box", "brand": "United States Postal Service", "brand:wikidata": "Q668687", "collection_times": "Mo-Fr 12:00; Sa 11:00", "name": "USPS COLLECTION BOX - BLUE BOX", "nsi_id": "unitedstatespostalservice-a77078", "operator": "United States Postal Service", "operator:short": "USPS", "operator:type": "public", "operator:wikidata": "Q668687", "ref": "9470300014"}, "type": "Feature"}
{"dataset_attributes": {"@spider": "usps_collection_boxes", "spider:collection_time": "2023-09-25T08:26:09.915926"}, "geometry": {"coordinates": [-122.277474, 37.870828], "type": "Point"}, "id": "xWn-tK2XTWRdFS67YKxPmWIFX8g=", "properties": {"@spider": "usps_collection_boxes", "addr:city": "BERKELEY", "addr:country": "US", "addr:full": "1700 UNIVERSITY AVE", "addr:postcode": "94703", "addr:state": "CA", "amenity": "post_box", "brand": "United States Postal Service", "brand:wikidata": "Q668687", "collection_times": "Mo-Fr 15:00; Sa 13:00", "name": "USPS COLLECTION BOX - BLUE BOX", "note": "ON 12/24 AND 12/31, THIS BOX MAY BE COLLECTED AS EARLY AS 12 NOON.", "nsi_id": "unitedstatespostalservice-a77078", "operator": "United States Postal Service", "operator:short": "USPS", "operator:type": "public", "operator:wikidata": "Q668687", "ref": "9470300016"}, "type": "Feature"}
{"dataset_attributes": {"@spider": "usps_collection_boxes", "spider:collection_time": "2023-09-25T08:26:09.915926"}, "geometry": {"coordinates": [-122.27008503, 37.851174002], "type": "Point"}, "id": "bTY1HPv8sWxE7uuMqGzt5z83xZU=", "properties": {"@spider": "usps_collection_boxes", "addr:city": "BERKELEY", "addr:country": "US", "addr:full": "3175 ADELINE ST", "addr:postcode": "94703", "addr:state": "CA", "amenity": "post_box", "brand": "United States Postal Service", "brand:wikidata": "Q668687", "collection_times": "Mo-Fr 17:00; Sa 16:50", "name": "USPS COLLECTION BOX - BLUE BOX", "note": "ON 12/24 AND 12/31, THIS BOX MAY BE COLLECTED AS EARLY AS 12 NOON.", "nsi_id": "unitedstatespostalservice-a77078", "operator": "United States Postal Service", "operator:short": "USPS", "operator:type": "public", "operator:wikidata": "Q668687", "ref": "9470300026"}, "type": "Feature"}
{"dataset_attributes": {"@spider": "usps_collection_boxes", "spider:collection_time": "2023-09-25T08:26:09.915926"}, "geometry": {"coordinates": [-122.272879, 37.869167], "type": "Point"}, "id": "3q3Y-dyEHig_w9wKBWEm9D3b6YA=", "properties": {"@spider": "usps_collection_boxes", "addr:city": "BERKELEY", "addr:country": "US", "addr:full": "2134 MARTIN LUTHER KING JR WAY", "addr:postcode": "94704", "addr:state": "CA", "amenity": "post_box", "brand": "United States Postal Service", "brand:wikidata": "Q668687", "collection_times": "Mo-Fr 12:00; Sa 13:00", "name": "USPS COLLECTION BOX - BLUE BOX", "note": "ON 12/24 AND 12/31, THIS BOX MAY BE COLLECTED AS EARLY AS 12 NOON.", "nsi_id": "unitedstatespostalservice-a77078", "operator": "United States Postal Service", "operator:short": "USPS", "operator:type": "public", "operator:wikidata": "Q668687", "ref": "9470400012"}, "type": "Feature"}
{"dataset_attributes": {"@spider": "usps_collection_boxes", "spider:collection_time": "2023-09-25T08:26:09.915926"}, "geometry": {"coordinates": [-122.26745, 37.865937], "type": "Point"}, "id": "Zc_XvP_uWO_5SpPQBbHMWdXIOLU=", "properties": {"@spider": "usps_collection_boxes", "addr:city": "BERKELEY", "addr:country": "US", "addr:full": "2399 SHATTUCK AVE", "addr:postcode": "94704", "addr:state": "CA", "amenity": "post_box", "brand": "United States Postal Service", "brand:wikidata": "Q668687", "collection_times": "Mo-Fr 12:00; Sa 13:00", "name": "USPS COLLECTION BOX - BLUE BOX", "note": "ON 12/24 AND 12/31, THIS BOX MAY BE COLLECTED AS EARLY AS 12 NOON.", "nsi_id": "unitedstatespostalservice-a77078", "operator": "United States Postal Service", "operator:short": "USPS", "operator:type": "public", "operator:wikidata": "Q668687", "ref": "9470400023"}, "type": "Feature"}
{"dataset_attributes": {"@spider": "usps_collection_boxes", "spider:collection_time": "2023-09-25T08:26:09.915926"}, "geometry": {"coordinates": [-122.263629, 37.867152], "type": "Point"}, "id": "B-j28iN-b_-F_rP-FSQQuiMyl9E=", "properties": {"@spider": "usps_collection_boxes", "addr:city": "BERKELEY", "addr:country": "US", "addr:full": "2298 DURANT AVE", "addr:postcode": "94704", "addr:state": "CA", "amenity": "post_box", "brand": "United States Postal Service", "brand:wikidata": "Q668687", "collection_times": "Mo-Sa 11:00", "name": "USPS COLLECTION BOX - BLUE BOX", "nsi_id": "unitedstatespostalservice-a77078", "operator": "United States Postal Service", "operator:short": "USPS", "operator:type": "public", "operator:wikidata": "Q668687", "ref": "9470400031"}, "type": "Feature"}
{"dataset_attributes": {"@spider": "usps_collection_boxes", "spider:collection_time": "2023-09-25T08:26:09.915926"}, "geometry": {"coordinates": [-122.260424, 37.863105], "type": "Point"}, "id": "1bCEJuqgHSUQQDdJ6U8qVr0pfug=", "properties": {"@spider": "usps_collection_boxes", "addr:city": "BERKELEY", "addr:country": "US", "addr:full": "2550 DANA ST", "addr:postcode": "94704", "addr:state": "CA", "amenity": "post_box", "brand": "United States Postal Service", "brand:wikidata": "Q668687", "collection_times": "Mo-Sa 11:00", "name": "USPS COLLECTION BOX - BLUE BOX", "nsi_id": "unitedstatespostalservice-a77078", "operator": "United States Postal Service", "operator:short": "USPS", "operator:type": "public", "operator:wikidata": "Q668687", "ref": "9470400032"}, "type": "Feature"}
{"dataset_attributes": {"@spider": "usps_collection_boxes", "spider:collection_time": "2023-09-25T08:26:09.915926"}, "geometry": {"coordinates": [-122.263084, 37.8646], "type": "Point"}, "id": "y6BRgPKA4fHBUr0maKYvB0Jg_Cs=", "properties": {"@spider": "usps_collection_boxes", "addr:city": "BERKELEY", "addr:country": "US", "addr:full": "2247 DWIGHT WAY", "addr:postcode": "94704", "addr:state": "CA", "amenity": "post_box", "brand": "United States Postal Service", "brand:wikidata": "Q668687", "collection_times": "Mo-Sa 11:00", "name": "USPS COLLECTION BOX - BLUE BOX", "nsi_id": "unitedstatespostalservice-a77078", "operator": "United States Postal Service", "operator:short": "USPS", "operator:type": "public", "operator:wikidata": "Q668687", "ref": "9470400033"}, "type": "Feature"}
{"dataset_attributes": {"@spider": "usps_collection_boxes", "spider:collection_time": "2023-09-25T08:26:09.915926"}, "geometry": {"coordinates": [-122.267641, 37.868539], "type": "Point"}, "id": "mXZRqtmMshXrtiWqwlC93OWABeQ=", "properties": {"@spider": "usps_collection_boxes", "addr:city": "BERKELEY", "addr:country": "US", "addr:full": "2257 SHATTUCK AVE", "addr:postcode": "94704", "addr:state": "CA", "amenity": "post_box", "brand": "United States Postal Service", "brand:wikidata": "Q668687", "collection_times": "Mo-Fr 15:00; Sa 13:00", "name": "USPS COLLECTION BOX - BLUE BOX", "note": "ON 12/24 AND 12/31, THIS BOX MAY BE COLLECTED AS EARLY AS 12 NOON.", "nsi_id": "unitedstatespostalservice-a77078", "operator": "United States Postal Service", "operator:short": "USPS", "operator:type": "public", "operator:wikidata": "Q668687", "ref": "9470400038"}, "type": "Feature"}
{"dataset_attributes": {"@spider": "usps_collection_boxes", "spider:collection_time": "2023-09-25T08:26:09.915926"}, "geometry": {"coordinates": [-122.272958, 37.871366], "type": "Point"}, "id": "HRVQ5rNbQni0pKwXo7Vu3Kld_gw=", "properties": {"@spider": "usps_collection_boxes", "addr:city": "BERKELEY", "addr:country": "US", "addr:full": "2031 MARTIN LUTHER KING JR WAY", "addr:postcode": "94704", "addr:state": "CA", "amenity": "post_box", "brand": "United States Postal Service", "brand:wikidata": "Q668687", "collection_times": "Mo-Fr 12:00; Sa 13:00", "name": "USPS COLLECTION BOX - BLUE BOX", "note": "ON 12/24 AND 12/31, THIS BOX MAY BE COLLECTED AS EARLY AS 12 NOON.", "nsi_id": "unitedstatespostalservice-a77078", "operator": "United States Postal Service", "operator:short": "USPS", "operator:type": "public", "operator:wikidata": "Q668687", "ref": "9470400039"}, "type": "Feature"}
{"dataset_attributes": {"@spider": "usps_collection_boxes", "spider:collection_time": "2023-09-25T08:26:09.915926"}, "geometry": {"coordinates": [-122.266237, 37.872228], "type": "Point"}, "id": "XciVy8NLwcgF0kydiPknxCzHJMM=", "properties": {"@spider": "usps_collection_boxes", "addr:city": "BERKELEY", "addr:country": "US", "addr:full": "1990 OXFORD ST", "addr:postcode": "94704", "addr:state": "CA", "amenity": "post_box", "brand": "United States Postal Service", "brand:wikidata": "Q668687", "collection_times": "Mo-Fr 12:00; Sa 13:00", "name": "USPS COLLECTION BOX - BLUE BOX", "note": "ON 12/24 AND 12/31, THIS BOX MAY BE COLLECTED AS EARLY AS 12 NOON.", "nsi_id": "unitedstatespostalservice-a77078", "operator": "United States Postal Service", "operator:short": "USPS", "operator:type": "public", "operator:wikidata": "Q668687", "ref": "9470400042"}, "type": "Feature"}
{"dataset_attributes": {"@spider": "usps_collection_boxes", "spider:collection_time": "2023-09-25T08:26:09.915926"}, "geometry": {"coordinates": [-122.2700679174, 37.8690646411], "type": "Point"}, "id": "kIH-XO3XVdCAbHR9iYcavGKKMpg=", "properties": {"@spider": "usps_collection_boxes", "addr:city": "BERKELEY", "addr:country": "US", "addr:full": "2000 ALLSTON WAY", "addr:postcode": "94704", "addr:state": "CA", "amenity": "post_box", "brand": "United States Postal Service", "brand:wikidata": "Q668687", "collection_times": "Mo-Sa 17:30", "name": "USPS COLLECTION BOX - BLUE BOX", "note": "ON 12/24 AND 12/31, THIS BOX MAY BE COLLECTED AS EARLY AS 12 NOON.", "nsi_id": "unitedstatespostalservice-a77078", "operator": "United States Postal Service", "operator:short": "USPS", "operator:type": "public", "operator:wikidata": "Q668687", "ref": "9470400059"}, "type": "Feature"}
{"dataset_attributes": {"@spider": "usps_collection_boxes", "spider:collection_time": "2023-09-25T08:26:09.915926"}, "geometry": {"coordinates": [-122.2586523586, 37.8679264676], "type": "Point"}, "id": "eDvaSagqXUvIliogEprHC9xIeMY=", "properties": {"@spider": "usps_collection_boxes", "addr:city": "BERKELEY", "addr:country": "US", "addr:full": "2515 1/2 DURANT AVE", "addr:postcode": "94704", "addr:state": "CA", "amenity": "post_box", "brand": "United States Postal Service", "brand:wikidata": "Q668687", "collection_times": "Mo-Fr 17:00; Sa 16:50", "name": "USPS COLLECTION BOX - BLUE BOX", "note": "ON 12/24 AND 12/31, THIS BOX MAY BE COLLECTED AS EARLY AS 12 NOON.", "nsi_id": "unitedstatespostalservice-a77078", "operator": "United States Postal Service", "operator:short": "USPS", "operator:type": "public", "operator:wikidata": "Q668687", "ref": "9470400060"}, "type": "Feature"}
{"dataset_attributes": {"@spider": "usps_collection_boxes", "spider:collection_time": "2023-09-25T08:26:09.915926"}, "geometry": {"coordinates": [-122.2586523586, 37.8679264676], "type": "Point"}, "id": "UoXF8QV45vEpU6RC2_1iNlvaNmg=", "properties": {"@spider": "usps_collection_boxes", "addr:city": "BERKELEY", "addr:country": "US", "addr:full": "2515 1/2 DURANT AVE", "addr:postcode": "94704", "addr:state": "CA", "amenity": "post_box", "brand": "United States Postal Service", "brand:wikidata": "Q668687", "collection_times": "Mo-Fr 17:00; Sa 16:50", "name": "USPS COLLECTION BOX - BLUE BOX", "note": "ON 12/24 AND 12/31, THIS BOX MAY BE COLLECTED AS EARLY AS 12 NOON.", "nsi_id": "unitedstatespostalservice-a77078", "operator": "United States Postal Service", "operator:short": "USPS", "operator:type": "public", "operator:wikidata": "Q668687", "ref": "9470400064"}, "type": "Feature"}
{"dataset_attributes": {"@spider": "usps_collection_boxes", "spider:collection_time": "2023-09-25T08:26:09.915926"}, "geometry": {"coordinates": [-122.268169, 37.870344], "type": "Point"}, "id": "6QRYzyptrQuVNqqprB6PBw8KNgc=", "properties": {"@spider": "usps_collection_boxes", "addr:city": "BERKELEY", "addr:country": "US", "addr:full": "2144 SHATTUCK AVE", "addr:postcode": "94704", "addr:state": "CA", "amenity": "post_box", "brand": "United States Postal Service", "brand:wikidata": "Q668687", "collection_times": "Mo-Fr 17:00; Sa 13:00", "name": "USPS COLLECTION BOX - BLUE BOX", "note": "ON 12/24 AND 12/31, THIS BOX MAY BE COLLECTED AS EARLY AS 12 NOON.", "nsi_id": "unitedstatespostalservice-a77078", "operator": "United States Postal Service", "operator:short": "USPS", "operator:type": "public", "operator:wikidata": "Q668687", "ref": "9470400076"}, "type": "Feature"}
{"dataset_attributes": {"@spider": "usps_collection_boxes", "spider:collection_time": "2023-09-25T08:26:09.915926"}, "geometry": {"coordinates": [-122.2703678276, 37.8689868623], "type": "Point"}, "id": "BwZEcAjqVHmeReIuSItHZFvmJG8=", "properties": {"@spider": "usps_collection_boxes", "addr:city": "BERKELEY", "addr:country": "US", "addr:full": "2000 ALLSTON WAY", "addr:postcode": "94704", "addr:state": "CA", "amenity": "post_box", "brand": "United States Postal Service", "brand:wikidata": "Q668687", "collection_times": "Mo-Sa 17:30", "name": "USPS COLLECTION BOX - BLUE BOX", "note": "ON 12/24 AND 12/31, THIS BOX MAY BE COLLECTED AS EARLY AS 12 NOON.", "nsi_id": "unitedstatespostalservice-a77078", "operator": "United States Postal Service", "operator:short": "USPS", "operator:type": "public", "operator:wikidata": "Q668687", "ref": "9470400079"}, "type": "Feature"}
{"dataset_attributes": {"@spider": "usps_collection_boxes", "spider:collection_time": "2023-09-25T08:26:09.915926"}, "geometry": {"coordinates": [-122.268439, 37.8719], "type": "Point"}, "id": "b848moj-yUDsAounwHe02nrNsQI=", "properties": {"@spider": "usps_collection_boxes", "addr:city": "BERKELEY", "addr:country": "US", "addr:full": "2000 SHATTUCK AVE", "addr:postcode": "94704", "addr:state": "CA", "amenity": "post_box", "brand": "United States Postal Service", "brand:wikidata": "Q668687", "collection_times": "Mo-Fr 12:00; Sa 13:00", "name": "USPS COLLECTION BOX - BLUE BOX", "note": "ON 12/24 AND 12/31, THIS BOX MAY BE COLLECTED AS EARLY AS 12 NOON.", "nsi_id": "unitedstatespostalservice-a77078", "operator": "United States Postal Service", "operator:short": "USPS", "operator:type": "public", "operator:wikidata": "Q668687", "ref": "9470400084"}, "type": "Feature"}
{"dataset_attributes": {"@spider": "usps_collection_boxes", "spider:collection_time": "2023-09-25T08:26:09.915926"}, "geometry": {"coordinates": [-122.26606004, 37.870302008], "type": "Point"}, "id": "TyzWHQS2Nn06fbFVmoqmH3EfK9o=", "properties": {"@spider": "usps_collection_boxes", "addr:city": "BERKELEY", "addr:country": "US", "addr:full": "2128 OXFORD ST", "addr:postcode": "94704", "addr:state": "CA", "amenity": "post_box", "brand": "United States Postal Service", "brand:wikidata": "Q668687", "collection_times": "Mo-Fr 12:00; Sa 13:00", "name": "USPS COLLECTION BOX - BLUE BOX", "note": "ON 12/24 AND 12/31, THIS BOX MAY BE COLLECTED AS EARLY AS 12 NOON.", "nsi_id": "unitedstatespostalservice-a77078", "operator": "United States Postal Service", "operator:short": "USPS", "operator:type": "public", "operator:wikidata": "Q668687", "ref": "9470400085"}, "type": "Feature"}
{"dataset_attributes": {"@spider": "usps_collection_boxes", "spider:collection_time": "2023-09-25T08:26:09.915926"}, "geometry": {"coordinates": [-122.2700679174, 37.8690646411], "type": "Point"}, "id": "kjM5_ff9cqptbHujLt1P2DohWPw=", "properties": {"@spider": "usps_collection_boxes", "addr:city": "BERKELEY", "addr:country": "US", "addr:full": "2000 ALLSTON WAY", "addr:postcode": "94704", "addr:state": "CA", "amenity": "post_box", "brand": "United States Postal Service", "brand:wikidata": "Q668687", "collection_times": "Mo-Sa 17:30", "name": "USPS COLLECTION BOX - BLUE BOX", "note": "ON 12/24 AND 12/31, THIS BOX MAY BE COLLECTED AS EARLY AS 12 NOON.", "nsi_id": "unitedstatespostalservice-a77078", "operator": "United States Postal Service", "operator:short": "USPS", "operator:type": "public", "operator:wikidata": "Q668687", "ref": "9470400087"}, "type": "Feature"}
{"dataset_attributes": {"@spider": "usps_collection_boxes", "spider:collection_time": "2023-09-25T08:26:09.915926"}, "geometry": {"coordinates": [-122.253632, 37.863871], "type": "Point"}, "id": "3JoZi_LebDFkQzmh7hS7VpIsBlg=", "properties": {"@spider": "usps_collection_boxes", "addr:city": "BERKELEY", "addr:country": "US", "addr:full": "2600 COLLEGE AVE", "addr:postcode": "94704", "addr:state": "CA", "amenity": "post_box", "brand": "United States Postal Service", "brand:wikidata": "Q668687", "collection_times": "Mo-Fr 12:00; Sa 11:00", "name": "USPS COLLECTION BOX - BLUE BOX", "nsi_id": "unitedstatespostalservice-a77078", "operator": "United States Postal Service", "operator:short": "USPS", "operator:type": "public", "operator:wikidata": "Q668687", "ref": "9470400108"}, "type": "Feature"}
{"dataset_attributes": {"@spider": "usps_collection_boxes", "spider:collection_time": "2023-09-25T08:26:09.915926"}, "geometry": {"coordinates": [-122.269284, 37.863808], "type": "Point"}, "id": "PmCijWcb5VAEoMT8nKpLGbuj2RY=", "properties": {"@spider": "usps_collection_boxes", "addr:city": "BERKELEY", "addr:country": "US", "addr:full": "2001 DWIGHT WAY", "addr:postcode": "94704", "addr:state": "CA", "amenity": "post_box", "brand": "United States Postal Service", "brand:wikidata": "Q668687", "collection_times": "Mo-Fr 12:00; Sa 13:00", "name": "USPS COLLECTION BOX - BLUE BOX", "note": "ON 12/24 AND 12/31, THIS BOX MAY BE COLLECTED AS EARLY AS 12 NOON.", "nsi_id": "unitedstatespostalservice-a77078", "operator": "United States Postal Service", "operator:short": "USPS", "operator:type": "public", "operator:wikidata": "Q668687", "ref": "9470400112"}, "type": "Feature"}
{"dataset_attributes": {"@spider": "usps_collection_boxes", "spider:collection_time": "2023-09-25T08:26:09.915926"}, "geometry": {"coordinates": [-122.2543208876, 37.8693096522], "type": "Point"}, "id": "XPMwKxUF_bDrHCZufFf9UrkPw2M=", "properties": {"@spider": "usps_collection_boxes", "addr:city": "BERKELEY", "addr:country": "US", "addr:full": "2700 BANCROFT WAY", "addr:postcode": "94704", "addr:state": "CA", "amenity": "post_box", "brand": "United States Postal Service", "brand:wikidata": "Q668687", "collection_times": "Mo-Fr 12:00; Sa 13:00", "name": "USPS COLLECTION BOX - BLUE BOX", "note": "ON 12/24 AND 12/31, THIS BOX MAY BE COLLECTED AS EARLY AS 12 NOON.", "nsi_id": "unitedstatespostalservice-a77078", "operator": "United States Postal Service", "operator:short": "USPS", "operator:type": "public", "operator:wikidata": "Q668687", "ref": "9470400114"}, "type": "Feature"}
{"dataset_attributes": {"@spider": "usps_collection_boxes", "spider:collection_time": "2023-09-25T08:26:09.915926"}, "geometry": {"coordinates": [-122.2669217783, 37.8641070639], "type": "Point"}, "id": "IKgZSvLAC_RQFsFRbtl25QGEHI8=", "properties": {"@spider": "usps_collection_boxes", "addr:city": "BERKELEY", "addr:country": "US", "addr:full": "2117 DWIGHT WAY", "addr:postcode": "94704", "addr:state": "CA", "amenity": "post_box", "brand": "United States Postal Service", "brand:wikidata": "Q668687", "collection_times": "Mo-Fr 12:00; Sa 13:00", "name": "USPS COLLECTION BOX - BLUE BOX", "note": "ON 12/24 AND 12/31, THIS BOX MAY BE COLLECTED AS EARLY AS 12 NOON.", "nsi_id": "unitedstatespostalservice-a77078", "operator": "United States Postal Service", "operator:short": "USPS", "operator:type": "public", "operator:wikidata": "Q668687", "ref": "9470400120"}, "type": "Feature"}
{"dataset_attributes": {"@spider": "usps_collection_boxes", "spider:collection_time": "2023-09-25T08:26:09.915926"}, "geometry": {"coordinates": [-122.2700679174, 37.8690646411], "type": "Point"}, "id": "zjVVlSwVohTLDFNDmN6o51y5voo=", "properties": {"@spider": "usps_collection_boxes", "addr:city": "BERKELEY", "addr:country": "US", "addr:full": "2000 ALLSTON WAY", "addr:postcode": "94704", "addr:state": "CA", "amenity": "post_box", "brand": "United States Postal Service", "brand:wikidata": "Q668687", "collection_times": "Mo-Fr 17:00; Sa 15:00", "name": "USPS COLLECTION BOX - PO LOBBY", "note": "ON 12/24 AND 12/31, THIS BOX MAY BE COLLECTED AS EARLY AS 12 NOON.", "nsi_id": "unitedstatespostalservice-a77078", "operator": "United States Postal Service", "operator:short": "USPS", "operator:type": "public", "operator:wikidata": "Q668687", "ref": "9470400123"}, "type": "Feature"}
{"dataset_attributes": {"@spider": "usps_collection_boxes", "spider:collection_time": "2023-09-25T08:26:09.915926"}, "geometry": {"coordinates": [-122.2586477634, 37.8679266452], "type": "Point"}, "id": "UAiBRFj9WZiq9xFtWjZrFEBLY7o=", "properties": {"@spider": "usps_collection_boxes", "addr:city": "BERKELEY", "addr:country": "US", "addr:full": "2515 1/2 DURANT AVE", "addr:postcode": "94704", "addr:state": "CA", "amenity": "post_box", "brand": "United States Postal Service", "brand:wikidata": "Q668687", "collection_times": "Mo-Fr 17:00", "name": "USPS COLLECTION BOX - PO LOBBY", "note": "ON 12/24 AND 12/31, THIS BOX MAY BE COLLECTED AS EARLY AS 12 NOON.", "nsi_id": "unitedstatespostalservice-a77078", "operator": "United States Postal Service", "operator:short": "USPS", "operator:type": "public", "operator:wikidata": "Q668687", "ref": "9470400124"}, "type": "Feature"}
{"dataset_attributes": {"@spider": "usps_collection_boxes", "spider:collection_time": "2023-09-25T08:26:09.915926"}, "geometry": {"coordinates": [-122.2576600324, 37.8686330038], "type": "Point"}, "id": "qDqAQSK3JrYlO67qTj9x7JxdFyQ=", "properties": {"@spider": "usps_collection_boxes", "addr:city": "BERKELEY", "addr:country": "US", "addr:full": "2548 BANCROFT WAY", "addr:postcode": "94704", "addr:state": "CA", "amenity": "post_box", "brand": "United States Postal Service", "brand:wikidata": "Q668687", "collection_times": "Mo-Sa 12:00", "name": "USPS COLLECTION BOX - BLUE BOX", "nsi_id": "unitedstatespostalservice-a77078", "operator": "United States Postal Service", "operator:short": "USPS", "operator:type": "public", "operator:wikidata": "Q668687", "ref": "9470400125"}, "type": "Feature"}
{"dataset_attributes": {"@spider": "usps_collection_boxes", "spider:collection_time": "2023-09-25T08:26:09.915926"}, "geometry": {"coordinates": [-122.257548, 37.855408], "type": "Point"}, "id": "aW-SuiXxek8Ts0sNX8aSRwltKkA=", "properties": {"@spider": "usps_collection_boxes", "addr:city": "BERKELEY", "addr:country": "US", "addr:full": "3001 COLBY ST", "addr:postcode": "94705", "addr:state": "CA", "amenity": "post_box", "brand": "United States Postal Service", "brand:wikidata": "Q668687", "collection_times": "Mo-Fr 12:00; Sa 13:00", "name": "USPS COLLECTION BOX - BLUE BOX", "note": "ON 12/24 AND 12/31, THIS BOX MAY BE COLLECTED AS EARLY AS 12 NOON.", "nsi_id": "unitedstatespostalservice-a77078", "operator": "United States Postal Service", "operator:short": "USPS", "operator:type": "public", "operator:wikidata": "Q668687", "ref": "9470500001"}, "type": "Feature"}
{"dataset_attributes": {"@spider": "usps_collection_boxes", "spider:collection_time": "2023-09-25T08:26:09.915926"}, "geometry": {"coordinates": [-122.2527980256, 37.8572930013], "type": "Point"}, "id": "9ZoLVO51fFR5azBzGny9o-zwAr8=", "properties": {"@spider": "usps_collection_boxes", "addr:city": "BERKELEY", "addr:country": "US", "addr:full": "2959 COLLEGE AVE", "addr:postcode": "94705", "addr:state": "CA", "amenity": "post_box", "brand": "United States Postal Service", "brand:wikidata": "Q668687", "collection_times": "Mo-Fr 12:00; Sa 13:00", "name": "USPS COLLECTION BOX - BLUE BOX", "note": "ON 12/24 AND 12/31, THIS BOX MAY BE COLLECTED AS EARLY AS 12 NOON.", "nsi_id": "unitedstatespostalservice-a77078", "operator": "United States Postal Service", "operator:short": "USPS", "operator:type": "public", "operator:wikidata": "Q668687", "ref": "9470500003"}, "type": "Feature"}
{"dataset_attributes": {"@spider": "usps_collection_boxes", "spider:collection_time": "2023-09-25T08:26:09.915926"}, "geometry": {"coordinates": [-122.249833, 37.852321], "type": "Point"}, "id": "MZ0IJ_XEo31LyVC5dc3ooYKpznQ=", "properties": {"@spider": "usps_collection_boxes", "addr:city": "BERKELEY", "addr:country": "US", "addr:full": "3202 CLAREMONT AVE", "addr:postcode": "94705", "addr:state": "CA", "amenity": "post_box", "brand": "United States Postal Service", "brand:wikidata": "Q668687", "collection_times": "Mo-Fr 12:00; Sa 11:00", "name": "USPS COLLECTION BOX - BLUE BOX", "nsi_id": "unitedstatespostalservice-a77078", "operator": "United States Postal Service", "operator:short": "USPS", "operator:type": "public", "operator:wikidata": "Q668687", "ref": "9470500011"}, "type": "Feature"}
{"dataset_attributes": {"@spider": "usps_collection_boxes", "spider:collection_time": "2023-09-25T08:26:09.915926"}, "geometry": {"coordinates": [-122.248144, 37.85465], "type": "Point"}, "id": "UeOKh2ZIoWOkf-_eWerkQetKUzk=", "properties": {"@spider": "usps_collection_boxes", "addr:city": "BERKELEY", "addr:country": "US", "addr:full": "3068 CLAREMONT AVE", "addr:postcode": "94705", "addr:state": "CA", "amenity": "post_box", "brand": "United States Postal Service", "brand:wikidata": "Q668687", "collection_times": "Mo-Fr 12:00; Sa 13:00", "name": "USPS COLLECTION BOX - BLUE BOX", "note": "ON 12/24 AND 12/31, THIS BOX MAY BE COLLECTED AS EARLY AS 12 NOON.", "nsi_id": "unitedstatespostalservice-a77078", "operator": "United States Postal Service", "operator:short": "USPS", "operator:type": "public", "operator:wikidata": "Q668687", "ref": "9470500012"}, "type": "Feature"}
{"dataset_attributes": {"@spider": "usps_collection_boxes", "spider:collection_time": "2023-09-25T08:26:09.915926"}, "geometry": {"coordinates": [-122.257723, 37.855327], "type": "Point"}, "id": "Gg0T5VClkzLQ4AiMIaFknSUuovw=", "properties": {"@spider": "usps_collection_boxes", "addr:city": "BERKELEY", "addr:country": "US", "addr:full": "3000 COLBY ST", "addr:postcode": "94705", "addr:state": "CA", "amenity": "post_box", "brand": "United States Postal Service", "brand:wikidata": "Q668687", "collection_times": "Mo-Fr 12:00; Sa 13:00", "name": "USPS COLLECTION BOX - BLUE BOX", "note": "ON 12/24 AND 12/31, THIS BOX MAY BE COLLECTED AS EARLY AS 12 NOON.", "nsi_id": "unitedstatespostalservice-a77078", "operator": "United States Postal Service", "operator:short": "USPS", "operator:type": "public", "operator:wikidata": "Q668687", "ref": "9470500013"}, "type": "Feature"}
{"dataset_attributes": {"@spider": "usps_collection_boxes", "spider:collection_time": "2023-09-25T08:26:09.915926"}, "geometry": {"coordinates": [-122.253041, 37.858469], "type": "Point"}, "id": "yy-bvR34w4wsKfWE4w9grSqim7A=", "properties": {"@spider": "usps_collection_boxes", "addr:city": "BERKELEY", "addr:country": "US", "addr:full": "2901 COLLEGE AVE", "addr:postcode": "94705", "addr:state": "CA", "amenity": "post_box", "brand": "United States Postal Service", "brand:wikidata": "Q668687", "collection_times": "Mo-Fr 12:00; Sa 11:00", "name": "USPS COLLECTION BOX - BLUE BOX", "nsi_id": "unitedstatespostalservice-a77078", "operator": "United States Postal Service", "operator:short": "USPS", "operator:type": "public", "operator:wikidata": "Q668687", "ref": "9470500015"}, "type": "Feature"}
{"dataset_attributes": {"@spider": "usps_collection_boxes", "spider:collection_time": "2023-09-25T08:26:09.915926"}, "geometry": {"coordinates": [-122.266719, 37.857534], "type": "Point"}, "id": "GPjmYAOg5dF3olyPYCjH0Qj35Cw=", "properties": {"@spider": "usps_collection_boxes", "addr:city": "BERKELEY", "addr:country": "US", "addr:full": "2829 SHATTUCK AVE", "addr:postcode": "94705", "addr:state": "CA", "amenity": "post_box", "brand": "United States Postal Service", "brand:wikidata": "Q668687", "collection_times": "Mo-Fr 12:00; Sa 11:00", "name": "USPS COLLECTION BOX - BLUE BOX", "nsi_id": "unitedstatespostalservice-a77078", "operator": "United States Postal Service", "operator:short": "USPS", "operator:type": "public", "operator:wikidata": "Q668687", "ref": "9470500023"}, "type": "Feature"}
{"dataset_attributes": {"@spider": "usps_collection_boxes", "spider:collection_time": "2023-09-25T08:26:09.915926"}, "geometry": {"coordinates": [-122.259933, 37.853638], "type": "Point"}, "id": "OCmgHyA4Yy8qoaBiw9O3JPTak4U=", "properties": {"@spider": "usps_collection_boxes", "addr:city": "BERKELEY", "addr:country": "US", "addr:full": "3101 TELEGRAPH AVE", "addr:postcode": "94705", "addr:state": "CA", "amenity": "post_box", "brand": "United States Postal Service", "brand:wikidata": "Q668687", "collection_times": "Mo-Fr 12:00; Sa 11:00", "name": "USPS COLLECTION BOX - BLUE BOX", "nsi_id": "unitedstatespostalservice-a77078", "operator": "United States Postal Service", "operator:short": "USPS", "operator:type": "public", "operator:wikidata": "Q668687", "ref": "9470500024"}, "type": "Feature"}
{"dataset_attributes": {"@spider": "usps_collection_boxes", "spider:collection_time": "2023-09-25T08:26:09.915926"}, "geometry": {"coordinates": [-122.25652, 37.855642], "type": "Point"}, "id": "nt5YE67Y4o_gzoksVgOjqm-8eg4=", "properties": {"@spider": "usps_collection_boxes", "addr:city": "BERKELEY", "addr:country": "US", "addr:full": "2999 REGENT ST", "addr:postcode": "94705", "addr:state": "CA", "amenity": "post_box", "brand": "United States Postal Service", "brand:wikidata": "Q668687", "collection_times": "Mo-Fr 12:00; Sa 13:00", "name": "USPS COLLECTION BOX - BLUE BOX", "note": "ON 12/24 AND 12/31, THIS BOX MAY BE COLLECTED AS EARLY AS 12 NOON.", "nsi_id": "unitedstatespostalservice-a77078", "operator": "United States Postal Service", "operator:short": "USPS", "operator:type": "public", "operator:wikidata": "Q668687", "ref": "9470500026"}, "type": "Feature"}
{"dataset_attributes": {"@spider": "usps_collection_boxes", "spider:collection_time": "2023-09-25T08:26:09.915926"}, "geometry": {"coordinates": [-122.259367, 37.858199], "type": "Point"}, "id": "oh3OLLIulKwirTOUM2qoKfMmvAE=", "properties": {"@spider": "usps_collection_boxes", "addr:city": "BERKELEY", "addr:country": "US", "addr:full": "2855 TELEGRAPH AVE", "addr:postcode": "94705", "addr:state": "CA", "amenity": "post_box", "brand": "United States Postal Service", "brand:wikidata": "Q668687", "collection_times": "Mo-Fr 12:00; Sa 13:00", "name": "USPS COLLECTION BOX - BLUE BOX", "note": "ON 12/24 AND 12/31, THIS BOX MAY BE COLLECTED AS EARLY AS 12 NOON.", "nsi_id": "unitedstatespostalservice-a77078", "operator": "United States Postal Service", "operator:short": "USPS", "operator:type": "public", "operator:wikidata": "Q668687", "ref": "9470500036"}, "type": "Feature"}
{"dataset_attributes": {"@spider": "usps_collection_boxes", "spider:collection_time": "2023-09-25T08:26:09.915926"}, "geometry": {"coordinates": [-122.259704, 37.855125], "type": "Point"}, "id": "OzTu01gPgyOBb8cq1LjXxDDwGZQ=", "properties": {"@spider": "usps_collection_boxes", "addr:city": "BERKELEY", "addr:country": "US", "addr:full": "3031 TELEGRAPH AVE", "addr:postcode": "94705", "addr:state": "CA", "amenity": "post_box", "brand": "United States Postal Service", "brand:wikidata": "Q668687", "collection_times": "Mo-Fr 12:00; Sa 13:00", "name": "USPS COLLECTION BOX - BLUE BOX", "note": "ON 12/24 AND 12/31, THIS BOX MAY BE COLLECTED AS EARLY AS 12 NOON.", "nsi_id": "unitedstatespostalservice-a77078", "operator": "United States Postal Service", "operator:short": "USPS", "operator:type": "public", "operator:wikidata": "Q668687", "ref": "9470500037"}, "type": "Feature"}
{"dataset_attributes": {"@spider": "usps_collection_boxes", "spider:collection_time": "2023-09-25T08:26:09.915926"}, "geometry": {"coordinates": [-122.259463, 37.857095], "type": "Point"}, "id": "NYt5-pUCteBqC8tnBXZTMcuQ1eA=", "properties": {"@spider": "usps_collection_boxes", "addr:city": "BERKELEY", "addr:country": "US", "addr:full": "2915 TELEGRAPH AVE", "addr:postcode": "94705", "addr:state": "CA", "amenity": "post_box", "brand": "United States Postal Service", "brand:wikidata": "Q668687", "collection_times": "Mo-Fr 12:00; Sa 13:00", "name": "USPS COLLECTION BOX - BLUE BOX", "note": "ON 12/24 AND 12/31, THIS BOX MAY BE COLLECTED AS EARLY AS 12 NOON.", "nsi_id": "unitedstatespostalservice-a77078", "operator": "United States Postal Service", "operator:short": "USPS", "operator:type": "public", "operator:wikidata": "Q668687", "ref": "9470500048"}, "type": "Feature"}
{"dataset_attributes": {"@spider": "usps_collection_boxes", "spider:collection_time": "2023-09-25T08:26:09.915926"}, "geometry": {"coordinates": [-122.243981, 37.858855], "type": "Point"}, "id": "APX9ggt_bG6LeQi_m598FtTsVco=", "properties": {"@spider": "usps_collection_boxes", "addr:city": "BERKELEY", "addr:country": "US", "addr:full": "2912 DOMINGO AVE", "addr:postcode": "94705", "addr:state": "CA", "amenity": "post_box", "brand": "United States Postal Service", "brand:wikidata": "Q668687", "collection_times": "Mo-Fr 17:00; Sa 13:00", "name": "USPS COLLECTION BOX - BLUE BOX", "note": "ON 12/24 AND 12/31, THIS BOX MAY BE COLLECTED AS EARLY AS 12 NOON.", "nsi_id": "unitedstatespostalservice-a77078", "operator": "United States Postal Service", "operator:short": "USPS", "operator:type": "public", "operator:wikidata": "Q668687", "ref": "9470500052"}, "type": "Feature"}
{"dataset_attributes": {"@spider": "usps_collection_boxes", "spider:collection_time": "2023-09-25T08:26:09.915926"}, "geometry": {"coordinates": [-122.266501, 37.855922], "type": "Point"}, "id": "Y5xIU-H4KN7aVR7m5kQMyBYt5ik=", "properties": {"@spider": "usps_collection_boxes", "addr:city": "BERKELEY", "addr:country": "US", "addr:full": "2925 SHATTUCK AVE", "addr:postcode": "94705", "addr:state": "CA", "amenity": "post_box", "brand": "United States Postal Service", "brand:wikidata": "Q668687", "collection_times": "Mo-Fr 12:00; Sa 11:00", "name": "USPS COLLECTION BOX - BLUE BOX", "nsi_id": "unitedstatespostalservice-a77078", "operator": "United States Postal Service", "operator:short": "USPS", "operator:type": "public", "operator:wikidata": "Q668687", "ref": "9470500056"}, "type": "Feature"}
{"dataset_attributes": {"@spider": "usps_collection_boxes", "spider:collection_time": "2023-09-25T08:26:09.915926"}, "geometry": {"coordinates": [-122.25413, 37.85641], "type": "Point"}, "id": "LtxEux2fssdkfpY0i7pWVdJbt3U=", "properties": {"@spider": "usps_collection_boxes", "addr:city": "BERKELEY", "addr:country": "US", "addr:full": "2705 WEBSTER ST", "addr:postcode": "94705", "addr:state": "CA", "amenity": "post_box", "brand": "United States Postal Service", "brand:wikidata": "Q668687", "collection_times": "Mo-Fr 17:00; Sa 16:30", "name": "USPS COLLECTION BOX - BLUE BOX", "note": "ON 12/24 AND 12/31, THIS BOX MAY BE COLLECTED AS EARLY AS 12 NOON.", "nsi_id": "unitedstatespostalservice-a77078", "operator": "United States Postal Service", "operator:short": "USPS", "operator:type": "public", "operator:wikidata": "Q668687", "ref": "9470500064"}, "type": "Feature"}
{"dataset_attributes": {"@spider": "usps_collection_boxes", "spider:collection_time": "2023-09-25T08:26:09.915926"}, "geometry": {"coordinates": [-122.2526254505, 37.8558094494], "type": "Point"}, "id": "W09CSZin0lecJL-_rEBl6-RW64Q=", "properties": {"@spider": "usps_collection_boxes", "addr:city": "BERKELEY", "addr:country": "US", "addr:full": "2705 WEBSTER ST", "addr:postcode": "94705", "addr:state": "CA", "amenity": "post_box", "brand": "United States Postal Service", "brand:wikidata": "Q668687", "collection_times": "Mo-Fr 17:00; Sa 15:00", "name": "USPS COLLECTION BOX - PO LOBBY", "note": "ON 12/24 AND 12/31, THIS BOX MAY BE COLLECTED AS EARLY AS 12 NOON.", "nsi_id": "unitedstatespostalservice-a77078", "operator": "United States Postal Service", "operator:short": "USPS", "operator:type": "public", "operator:wikidata": "Q668687", "ref": "9470500068"}, "type": "Feature"}
{"dataset_attributes": {"@spider": "usps_collection_boxes", "spider:collection_time": "2023-09-25T08:26:09.915926"}, "geometry": {"coordinates": [-122.290222, 37.89087], "type": "Point"}, "id": "GPrl7h6Ov1gwpXZUBLxM4pzFiwY=", "properties": {"@spider": "usps_collection_boxes", "addr:city": "BERKELEY", "addr:country": "US", "addr:full": "1395 SOLANO AVE", "addr:postcode": "94706", "addr:state": "CA", "amenity": "post_box", "brand": "United States Postal Service", "brand:wikidata": "Q668687", "collection_times": "Mo-Fr 17:00; Sa 13:00", "name": "USPS COLLECTION BOX - BLUE BOX", "note": "ON 12/24 AND 12/31, THIS BOX MAY BE COLLECTED AS EARLY AS 12 NOON.", "nsi_id": "unitedstatespostalservice-a77078", "operator": "United States Postal Service", "operator:short": "USPS", "operator:type": "public", "operator:wikidata": "Q668687", "ref": "9470600003"}, "type": "Feature"}
{"dataset_attributes": {"@spider": "usps_collection_boxes", "spider:collection_time": "2023-09-25T08:26:09.915926"}, "geometry": {"coordinates": [-122.292753, 37.890724], "type": "Point"}, "id": "whuD_CmLNGfNr3jMTCNwJETMoJo=", "properties": {"@spider": "usps_collection_boxes", "addr:city": "BERKELEY", "addr:country": "US", "addr:full": "1301 SOLANO AVE", "addr:postcode": "94706", "addr:state": "CA", "amenity": "post_box", "brand": "United States Postal Service", "brand:wikidata": "Q668687", "collection_times": "Mo-Fr 17:00; Sa 13:00", "name": "USPS COLLECTION BOX - BLUE BOX", "note": "ON 12/24 AND 12/31, THIS BOX MAY BE COLLECTED AS EARLY AS 12 NOON.", "nsi_id": "unitedstatespostalservice-a77078", "operator": "United States Postal Service", "operator:short": "USPS", "operator:type": "public", "operator:wikidata": "Q668687", "ref": "9470600008"}, "type": "Feature"}
{"dataset_attributes": {"@spider": "usps_collection_boxes", "spider:collection_time": "2023-09-25T08:26:09.915926"}, "geometry": {"coordinates": [-122.306667, 37.894985], "type": "Point"}, "id": "h4zWJNl8i6CgGUWnOSVa_3E3myo=", "properties": {"@spider": "usps_collection_boxes", "addr:city": "BERKELEY", "addr:country": "US", "addr:full": "555 PIERCE ST", "addr:postcode": "94706", "addr:state": "CA", "amenity": "post_box", "brand": "United States Postal Service", "brand:wikidata": "Q668687", "collection_times": "Mo-Sa 11:00", "name": "USPS COLLECTION BOX - BLUE BOX", "nsi_id": "unitedstatespostalservice-a77078", "operator": "United States Postal Service", "operator:short": "USPS", "operator:type": "public", "operator:wikidata": "Q668687", "ref": "9470600015"}, "type": "Feature"}
{"dataset_attributes": {"@spider": "usps_collection_boxes", "spider:collection_time": "2023-09-25T08:26:09.915926"}, "geometry": {"coordinates": [-122.3056091313, 37.8890092234], "type": "Point"}, "id": "Kz-ZEgtcNw3wcVbwIieq2azXv7w=", "properties": {"@spider": "usps_collection_boxes", "addr:city": "BERKELEY", "addr:country": "US", "addr:full": "801 SOLANO AVE", "addr:postcode": "94706", "addr:state": "CA", "amenity": "post_box", "brand": "United States Postal Service", "brand:wikidata": "Q668687", "collection_times": "Mo-Fr 12:00; Sa 11:00", "name": "USPS COLLECTION BOX - BLUE BOX", "nsi_id": "unitedstatespostalservice-a77078", "operator": "United States Postal Service", "operator:short": "USPS", "operator:type": "public", "operator:wikidata": "Q668687", "ref": "9470600016"}, "type": "Feature"}
{"dataset_attributes": {"@spider": "usps_collection_boxes", "spider:collection_time": "2023-09-25T08:26:09.915926"}, "geometry": {"coordinates": [-122.298881, 37.890421], "type": "Point"}, "id": "H-BJ9tBwToqbRjxmpdyf5sKqdvo=", "properties": {"@spider": "usps_collection_boxes", "addr:city": "BERKELEY", "addr:country": "US", "addr:full": "865 SAN PABLO AVE", "addr:postcode": "94706", "addr:state": "CA", "amenity": "post_box", "brand": "United States Postal Service", "brand:wikidata": "Q668687", "collection_times": "Mo-Fr 12:00; Sa 11:00", "name": "USPS COLLECTION BOX - BLUE BOX", "nsi_id": "unitedstatespostalservice-a77078", "operator": "United States Postal Service", "operator:short": "USPS", "operator:type": "public", "operator:wikidata": "Q668687", "ref": "9470600018"}, "type": "Feature"}
{"dataset_attributes": {"@spider": "usps_collection_boxes", "spider:collection_time": "2023-09-25T08:26:09.915926"}, "geometry": {"coordinates": [-122.299316, 37.891782], "type": "Point"}, "id": "MYj4hftybtU3FIplGYR37nx5iDY=", "properties": {"@spider": "usps_collection_boxes", "addr:city": "BERKELEY", "addr:country": "US", "addr:full": "801 SAN PABLO AVE", "addr:postcode": "94706", "addr:state": "CA", "amenity": "post_box", "brand": "United States Postal Service", "brand:wikidata": "Q668687", "collection_times": "Mo-Fr 12:00; Sa 11:00", "name": "USPS COLLECTION BOX - BLUE BOX", "nsi_id": "unitedstatespostalservice-a77078", "operator": "United States Postal Service", "operator:short": "USPS", "operator:type": "public", "operator:wikidata": "Q668687", "ref": "9470600019"}, "type": "Feature"}
{"dataset_attributes": {"@spider": "usps_collection_boxes", "spider:collection_time": "2023-09-25T08:26:09.915926"}, "geometry": {"coordinates": [-122.288632, 37.890956], "type": "Point"}, "id": "ThP9T67oOWLT2rfuZ9dqmHCn-yA=", "properties": {"@spider": "usps_collection_boxes", "addr:city": "BERKELEY", "addr:country": "US", "addr:full": "1485 SOLANO AVE", "addr:postcode": "94706", "addr:state": "CA", "amenity": "post_box", "brand": "United States Postal Service", "brand:wikidata": "Q668687", "collection_times": "Mo-Fr 15:00; Sa 13:00", "name": "USPS COLLECTION BOX - BLUE BOX", "note": "ON 12/24 AND 12/31, THIS BOX MAY BE COLLECTED AS EARLY AS 12 NOON.", "nsi_id": "unitedstatespostalservice-a77078", "operator": "United States Postal Service", "operator:short": "USPS", "operator:type": "public", "operator:wikidata": "Q668687", "ref": "9470600021"}, "type": "Feature"}
{"dataset_attributes": {"@spider": "usps_collection_boxes", "spider:collection_time": "2023-09-25T08:26:09.915926"}, "geometry": {"coordinates": [-122.2963842202, 37.890433486], "type": "Point"}, "id": "1vXvthKwaJYr4spUh88L_hfziaQ=", "properties": {"@spider": "usps_collection_boxes", "addr:city": "BERKELEY", "addr:country": "US", "addr:full": "1191 SOLANO AVE", "addr:postcode": "94706", "addr:state": "CA", "amenity": "post_box", "brand": "United States Postal Service", "brand:wikidata": "Q668687", "collection_times": "Mo-Fr 17:00; Sa 16:15", "name": "USPS COLLECTION BOX - BLUE BOX", "note": "ON 12/24 AND 12/31, THIS BOX MAY BE COLLECTED AS EARLY AS 12 NOON.", "nsi_id": "unitedstatespostalservice-a77078", "operator": "United States Postal Service", "operator:short": "USPS", "operator:type": "public", "operator:wikidata": "Q668687", "ref": "9470600027"}, "type": "Feature"}
{"dataset_attributes": {"@spider": "usps_collection_boxes", "spider:collection_time": "2023-09-25T08:26:09.915926"}, "geometry": {"coordinates": [-122.2963842202, 37.890433486], "type": "Point"}, "id": "HUqQ8-xztLyBqAH-cqUMypdLZb0=", "properties": {"@spider": "usps_collection_boxes", "addr:city": "BERKELEY", "addr:country": "US", "addr:full": "1191 SOLANO AVE", "addr:postcode": "94706", "addr:state": "CA", "amenity": "post_box", "brand": "United States Postal Service", "brand:wikidata": "Q668687", "collection_times": "Mo-Fr 17:00; Sa 16:15", "name": "USPS COLLECTION BOX - BLUE BOX", "note": "ON 12/24 AND 12/31, THIS BOX MAY BE COLLECTED AS EARLY AS 12 NOON.", "nsi_id": "unitedstatespostalservice-a77078", "operator": "United States Postal Service", "operator:short": "USPS", "operator:type": "public", "operator:wikidata": "Q668687", "ref": "9470600028"}, "type": "Feature"}
{"dataset_attributes": {"@spider": "usps_collection_boxes", "spider:collection_time": "2023-09-25T08:26:09.915926"}, "geometry": {"coordinates": [-122.289264, 37.88133], "type": "Point"}, "id": "FYvytOz1Bs6zXGlC0rr__xO4haE=", "properties": {"@spider": "usps_collection_boxes", "addr:city": "BERKELEY", "addr:country": "US", "addr:full": "1313 B GILMAN ST", "addr:postcode": "94706", "addr:state": "CA", "amenity": "post_box", "brand": "United States Postal Service", "brand:wikidata": "Q668687", "collection_times": "Mo-Fr 12:00; Sa 13:00", "name": "USPS COLLECTION BOX - BLUE BOX", "note": "ON 12/24 AND 12/31, THIS BOX MAY BE COLLECTED AS EARLY AS 12 NOON.", "nsi_id": "unitedstatespostalservice-a77078", "operator": "United States Postal Service", "operator:short": "USPS", "operator:type": "public", "operator:wikidata": "Q668687", "ref": "9470600029"}, "type": "Feature"}
{"dataset_attributes": {"@spider": "usps_collection_boxes", "spider:collection_time": "2023-09-25T08:26:09.915926"}, "geometry": {"coordinates": [-122.2963842202, 37.890433486], "type": "Point"}, "id": "mJq8IRcFV6g2G-4RPoBocD3qODk=", "properties": {"@spider": "usps_collection_boxes", "addr:city": "BERKELEY", "addr:country": "US", "addr:full": "1191 SOLANO AVE", "addr:postcode": "94706", "addr:state": "CA", "amenity": "post_box", "brand": "United States Postal Service", "brand:wikidata": "Q668687", "collection_times": "Mo-Fr 17:00; Sa 15:00", "name": "USPS COLLECTION BOX - PO LOBBY", "note": "ON 12/24 AND 12/31, THIS BOX MAY BE COLLECTED AS EARLY AS 12 NOON.", "nsi_id": "unitedstatespostalservice-a77078", "operator": "United States Postal Service", "operator:short": "USPS", "operator:type": "public", "operator:wikidata": "Q668687", "ref": "9470600032"}, "type": "Feature"}
{"dataset_attributes": {"@spider": "usps_collection_boxes", "spider:collection_time": "2023-09-25T08:26:09.915926"}, "geometry": {"coordinates": [-122.281609, 37.897187], "type": "Point"}, "id": "afnhip9MXO9g395G6R4gtvLJaF4=", "properties": {"@spider": "usps_collection_boxes", "addr:city": "KENSINGTON", "addr:country": "US", "addr:full": "1790 THOUSAND OAKS BLVD", "addr:postcode": "94707", "addr:state": "CA", "amenity": "post_box", "brand": "United States Postal Service", "brand:wikidata": "Q668687", "collection_times": "Mo-Fr 12:00; Sa 11:00", "name": "USPS COLLECTION BOX - BLUE BOX", "nsi_id": "unitedstatespostalservice-a77078", "operator": "United States Postal Service", "operator:short": "USPS", "operator:type": "public", "operator:wikidata": "Q668687", "ref": "9470700000"}, "type": "Feature"}
{"dataset_attributes": {"@spider": "usps_collection_boxes", "spider:collection_time": "2023-09-25T08:26:09.915926"}, "geometry": {"coordinates": [-122.277262, 37.891398], "type": "Point"}, "id": "Pqyc5sPDuV6vna3JbpWgNYjawQs=", "properties": {"@spider": "usps_collection_boxes", "addr:city": "KENSINGTON", "addr:country": "US", "addr:full": "1898 SOLANO AVE", "addr:postcode": "94707", "addr:state": "CA", "amenity": "post_box", "brand": "United States Postal Service", "brand:wikidata": "Q668687", "collection_times": "Mo-Fr 12:00; Sa 11:00", "name": "USPS COLLECTION BOX - BLUE BOX", "nsi_id": "unitedstatespostalservice-a77078", "operator": "United States Postal Service", "operator:short": "USPS", "operator:type": "public", "operator:wikidata": "Q668687", "ref": "9470700009"}, "type": "Feature"}
{"dataset_attributes": {"@spider": "usps_collection_boxes", "spider:collection_time": "2023-09-25T08:26:09.915926"}, "geometry": {"coordinates": [-122.287451, 37.89964], "type": "Point"}, "id": "FE6W4TAlhV_c5d1TUzxJ_j1OCeA=", "properties": {"@spider": "usps_collection_boxes", "addr:city": "KENSINGTON", "addr:country": "US", "addr:full": "388 COLUSA AVE", "addr:postcode": "94707", "addr:state": "CA", "amenity": "post_box", "brand": "United States Postal Service", "brand:wikidata": "Q668687", "collection_times": "Mo-Fr 12:00; Sa 11:00", "name": "USPS COLLECTION BOX - BLUE BOX", "nsi_id": "unitedstatespostalservice-a77078", "operator": "United States Postal Service", "operator:short": "USPS", "operator:type": "public", "operator:wikidata": "Q668687", "ref": "9470700010"}, "type": "Feature"}
{"dataset_attributes": {"@spider": "usps_collection_boxes", "spider:collection_time": "2023-09-25T08:26:09.915926"}, "geometry": {"coordinates": [-122.280013, 37.89143], "type": "Point"}, "id": "hBLI9K0N4rh3-gAUWAncXDqgnnA=", "properties": {"@spider": "usps_collection_boxes", "addr:city": "KENSINGTON", "addr:country": "US", "addr:full": "1799 SOLANO AVE", "addr:postcode": "94707", "addr:state": "CA", "amenity": "post_box", "brand": "United States Postal Service", "brand:wikidata": "Q668687", "collection_times": "Mo-Fr 15:00; Sa 13:00", "name": "USPS COLLECTION BOX - BLUE BOX", "note": "ON 12/24 AND 12/31, THIS BOX MAY BE COLLECTED AS EARLY AS 12 NOON.", "nsi_id": "unitedstatespostalservice-a77078", "operator": "United States Postal Service", "operator:short": "USPS", "operator:type": "public", "operator:wikidata": "Q668687", "ref": "9470700014"}, "type": "Feature"}
{"dataset_attributes": {"@spider": "usps_collection_boxes", "spider:collection_time": "2023-09-25T08:26:09.915926"}, "geometry": {"coordinates": [-122.272363, 37.889933], "type": "Point"}, "id": "ZX3dC-tZzPCBGzvGXvneIpneGf0=", "properties": {"@spider": "usps_collection_boxes", "addr:city": "KENSINGTON", "addr:country": "US", "addr:full": "1011 FOUNTAIN WALK AT M.C.", "addr:postcode": "94707", "addr:state": "CA", "amenity": "post_box", "brand": "United States Postal Service", "brand:wikidata": "Q668687", "collection_times": "Mo-Fr 12:00; Sa 11:00", "name": "USPS COLLECTION BOX - BLUE BOX", "nsi_id": "unitedstatespostalservice-a77078", "operator": "United States Postal Service", "operator:short": "USPS", "operator:type": "public", "operator:wikidata": "Q668687", "ref": "9470700016"}, "type": "Feature"}
{"dataset_attributes": {"@spider": "usps_collection_boxes", "spider:collection_time": "2023-09-25T08:26:09.915926"}, "geometry": {"coordinates": [-122.281725, 37.881888], "type": "Point"}, "id": "TabmCFe4N3VYwbsyMQ9UGtHHocc=", "properties": {"@spider": "usps_collection_boxes", "addr:city": "KENSINGTON", "addr:country": "US", "addr:full": "1578 HOPKINS ST", "addr:postcode": "94707", "addr:state": "CA", "amenity": "post_box", "brand": "United States Postal Service", "brand:wikidata": "Q668687", "collection_times": "Mo-Fr 15:00; Sa 13:00", "name": "USPS COLLECTION BOX - BLUE BOX", "note": "ON 12/24 AND 12/31, THIS BOX MAY BE COLLECTED AS EARLY AS 12 NOON.", "nsi_id": "unitedstatespostalservice-a77078", "operator": "United States Postal Service", "operator:short": "USPS", "operator:type": "public", "operator:wikidata": "Q668687", "ref": "9470700017"}, "type": "Feature"}
{"dataset_attributes": {"@spider": "usps_collection_boxes", "spider:collection_time": "2023-09-25T08:26:09.915926"}, "geometry": {"coordinates": [-122.266928, 37.888378], "type": "Point"}, "id": "D_0O5wDox_bDQEToloY7ODIHYgo=", "properties": {"@spider": "usps_collection_boxes", "addr:city": "KENSINGTON", "addr:country": "US", "addr:full": "2216 LOS ANGELES AVE", "addr:postcode": "94707", "addr:state": "CA", "amenity": "post_box", "brand": "United States Postal Service", "brand:wikidata": "Q668687", "collection_times": "Mo-Fr 12:00; Sa 11:00", "name": "USPS COLLECTION BOX - BLUE BOX", "nsi_id": "unitedstatespostalservice-a77078", "operator": "United States Postal Service", "operator:short": "USPS", "operator:type": "public", "operator:wikidata": "Q668687", "ref": "9470700019"}, "type": "Feature"}
{"dataset_attributes": {"@spider": "usps_collection_boxes", "spider:collection_time": "2023-09-25T08:26:09.915926"}, "geometry": {"coordinates": [-122.2839141181, 37.891147431], "type": "Point"}, "id": "nqP1TEZTkpVX7Xw0-v_r-iQttIE=", "properties": {"@spider": "usps_collection_boxes", "addr:city": "KENSINGTON", "addr:country": "US", "addr:full": "1615 SOLANO AVE", "addr:postcode": "94707", "addr:state": "CA", "amenity": "post_box", "brand": "United States Postal Service", "brand:wikidata": "Q668687", "collection_times": "Mo-Sa 13:00", "name": "USPS COLLECTION BOX - BLUE BOX", "note": "ON 12/24 AND 12/31, THIS BOX MAY BE COLLECTED AS EARLY AS 12 NOON.", "nsi_id": "unitedstatespostalservice-a77078", "operator": "United States Postal Service", "operator:short": "USPS", "operator:type": "public", "operator:wikidata": "Q668687", "ref": "9470700022"}, "type": "Feature"}
{"dataset_attributes": {"@spider": "usps_collection_boxes", "spider:collection_time": "2023-09-25T08:26:09.915926"}, "geometry": {"coordinates": [-122.2790237756, 37.8914034533], "type": "Point"}, "id": "HVqywWnaB1ImJBjoOIXSzVQivVc=", "properties": {"@spider": "usps_collection_boxes", "addr:city": "KENSINGTON", "addr:country": "US", "addr:full": "1831 SOLANO AVE", "addr:postcode": "94707", "addr:state": "CA", "amenity": "post_box", "brand": "United States Postal Service", "brand:wikidata": "Q668687", "collection_times": "Mo-Fr 17:00; Sa 16:00", "name": "USPS COLLECTION BOX - BLUE BOX", "note": "ON 12/24 AND 12/31, THIS BOX MAY BE COLLECTED AS EARLY AS 12 NOON.", "nsi_id": "unitedstatespostalservice-a77078", "operator": "United States Postal Service", "operator:short": "USPS", "operator:type": "public", "operator:wikidata": "Q668687", "ref": "9470700027"}, "type": "Feature"}
{"dataset_attributes": {"@spider": "usps_collection_boxes", "spider:collection_time": "2023-09-25T08:26:09.915926"}, "geometry": {"coordinates": [-122.277967, 37.903526], "type": "Point"}, "id": "Nps_dbjVbCg9YtCw7CxiUVQ31Sg=", "properties": {"@spider": "usps_collection_boxes", "addr:city": "KENSINGTON", "addr:country": "US", "addr:full": "299 ARLINGTON AVE", "addr:postcode": "94707", "addr:state": "CA", "amenity": "post_box", "brand": "United States Postal Service", "brand:wikidata": "Q668687", "collection_times": "Mo-Fr 17:00; Sa 13:00", "name": "USPS COLLECTION BOX - BLUE BOX", "note": "ON 12/24 AND 12/31, THIS BOX MAY BE COLLECTED AS EARLY AS 12 NOON.", "nsi_id": "unitedstatespostalservice-a77078", "operator": "United States Postal Service", "operator:short": "USPS", "operator:type": "public", "operator:wikidata": "Q668687", "ref": "9470700028"}, "type": "Feature"}
{"dataset_attributes": {"@spider": "usps_collection_boxes", "spider:collection_time": "2023-09-25T08:26:09.915926"}, "geometry": {"coordinates": [-122.2790237756, 37.8914034533], "type": "Point"}, "id": "GWjli90a-SVRi5Fw_cKercudGlE=", "properties": {"@spider": "usps_collection_boxes", "addr:city": "KENSINGTON", "addr:country": "US", "addr:full": "1831 SOLANO AVE", "addr:postcode": "94707", "addr:state": "CA", "amenity": "post_box", "brand": "United States Postal Service", "brand:wikidata": "Q668687", "collection_times": "Mo-Fr 17:00; Sa 16:00", "name": "USPS COLLECTION BOX - BLUE BOX", "note": "ON 12/24 AND 12/31, THIS BOX MAY BE COLLECTED AS EARLY AS 12 NOON.", "nsi_id": "unitedstatespostalservice-a77078", "operator": "United States Postal Service", "operator:short": "USPS", "operator:type": "public", "operator:wikidata": "Q668687", "ref": "9470700030"}, "type": "Feature"}
{"dataset_attributes": {"@spider": "usps_collection_boxes", "spider:collection_time": "2023-09-25T08:26:09.915926"}, "geometry": {"coordinates": [-122.281295, 37.89137], "type": "Point"}, "id": "YN_yXclX1mbb8SZA7D2lrpyxC2Y=", "properties": {"@spider": "usps_collection_boxes", "addr:city": "KENSINGTON", "addr:country": "US", "addr:full": "1741 SOLANO AVE", "addr:postcode": "94707", "addr:state": "CA", "amenity": "post_box", "brand": "United States Postal Service", "brand:wikidata": "Q668687", "collection_times": "Mo-Fr 15:00; Sa 13:00", "name": "USPS COLLECTION BOX - BLUE BOX", "note": "ON 12/24 AND 12/31, THIS BOX MAY BE COLLECTED AS EARLY AS 12 NOON.", "nsi_id": "unitedstatespostalservice-a77078", "operator": "United States Postal Service", "operator:short": "USPS", "operator:type": "public", "operator:wikidata": "Q668687", "ref": "9470700032"}, "type": "Feature"}
{"dataset_attributes": {"@spider": "usps_collection_boxes", "spider:collection_time": "2023-09-25T08:26:09.915926"}, "geometry": {"coordinates": [-122.286483, 37.891066], "type": "Point"}, "id": "csu3dWzbkS3EYGOXNFSUz_BRWSs=", "properties": {"@spider": "usps_collection_boxes", "addr:city": "KENSINGTON", "addr:country": "US", "addr:full": "1533 SOLANO AVE", "addr:postcode": "94707", "addr:state": "CA", "amenity": "post_box", "brand": "United States Postal Service", "brand:wikidata": "Q668687", "collection_times": "Mo-Fr 17:00; Sa 13:00", "name": "USPS COLLECTION BOX - BLUE BOX", "note": "ON 12/24 AND 12/31, THIS BOX MAY BE COLLECTED AS EARLY AS 12 NOON.", "nsi_id": "unitedstatespostalservice-a77078", "operator": "United States Postal Service", "operator:short": "USPS", "operator:type": "public", "operator:wikidata": "Q668687", "ref": "9470700038"}, "type": "Feature"}
{"dataset_attributes": {"@spider": "usps_collection_boxes", "spider:collection_time": "2023-09-25T08:26:09.915926"}, "geometry": {"coordinates": [-122.2790759626, 37.8916489975], "type": "Point"}, "id": "NuXh8odZxUFvbpPsgvMhy_c5qcE=", "properties": {"@spider": "usps_collection_boxes", "addr:city": "KENSINGTON", "addr:country": "US", "addr:full": "1831 SOLANO AVE", "addr:postcode": "94707", "addr:state": "CA", "amenity": "post_box", "brand": "United States Postal Service", "brand:wikidata": "Q668687", "collection_times": "Mo-Fr 17:00", "name": "USPS COLLECTION BOX - PO LOBBY", "note": "ON 12/24 AND 12/31, THIS BOX MAY BE COLLECTED AS EARLY AS 12 NOON.", "nsi_id": "unitedstatespostalservice-a77078", "operator": "United States Postal Service", "operator:short": "USPS", "operator:type": "public", "operator:wikidata": "Q668687", "ref": "9470700040"}, "type": "Feature"}
{"dataset_attributes": {"@spider": "usps_collection_boxes", "spider:collection_time": "2023-09-25T08:26:09.915926"}, "geometry": {"coordinates": [-122.2698569588, 37.9042330002], "type": "Point"}, "id": "DLsL60kVXQF9GasW_BIvwNJYSQE=", "properties": {"@spider": "usps_collection_boxes", "addr:city": "BERKELEY", "addr:country": "US", "addr:full": "400 GRIZZLY PEAK BLVD", "addr:postcode": "94708", "addr:state": "CA", "amenity": "post_box", "brand": "United States Postal Service", "brand:wikidata": "Q668687", "collection_times": "Mo-Sa 11:00", "name": "USPS COLLECTION BOX - BLUE BOX", "nsi_id": "unitedstatespostalservice-a77078", "operator": "United States Postal Service", "operator:short": "USPS", "operator:type": "public", "operator:wikidata": "Q668687", "ref": "9470800016"}, "type": "Feature"}
{"dataset_attributes": {"@spider": "usps_collection_boxes", "spider:collection_time": "2023-09-25T08:26:09.915926"}, "geometry": {"coordinates": [-122.2530764666, 37.888205154], "type": "Point"}, "id": "9yOiBBHQJ8_5cZF2eIS-xepstjM=", "properties": {"@spider": "usps_collection_boxes", "addr:city": "BERKELEY", "addr:country": "US", "addr:full": "2931 SHASTA RD", "addr:postcode": "94708", "addr:state": "CA", "amenity": "post_box", "brand": "United States Postal Service", "brand:wikidata": "Q668687", "collection_times": "Mo-Fr 12:00; Sa 11:00", "name": "USPS COLLECTION BOX - BLUE BOX", "nsi_id": "unitedstatespostalservice-a77078", "operator": "United States Postal Service", "operator:short": "USPS", "operator:type": "public", "operator:wikidata": "Q668687", "ref": "9470800022"}, "type": "Feature"}
{"dataset_attributes": {"@spider": "usps_collection_boxes", "spider:collection_time": "2023-09-25T08:26:09.915926"}, "geometry": {"coordinates": [-122.2596738229, 37.8836113616], "type": "Point"}, "id": "AMOsEa2Es5UDQ6Mf30CrarwJcsY=", "properties": {"@spider": "usps_collection_boxes", "addr:city": "BERKELEY", "addr:country": "US", "addr:full": "2601 SHASTA RD", "addr:postcode": "94708", "addr:state": "CA", "amenity": "post_box", "brand": "United States Postal Service", "brand:wikidata": "Q668687", "collection_times": "Mo-Fr 12:00; Sa 11:00", "name": "USPS COLLECTION BOX - BLUE BOX", "nsi_id": "unitedstatespostalservice-a77078", "operator": "United States Postal Service", "operator:short": "USPS", "operator:type": "public", "operator:wikidata": "Q668687", "ref": "9470800023"}, "type": "Feature"}
{"dataset_attributes": {"@spider": "usps_collection_boxes", "spider:collection_time": "2023-09-25T08:26:09.915926"}, "geometry": {"coordinates": [-122.264392, 37.877558], "type": "Point"}, "id": "8bAJiQOJN5HYiGI53FyRa-15PE8=", "properties": {"@spider": "usps_collection_boxes", "addr:city": "BERKELEY", "addr:country": "US", "addr:full": "2296 VIRGINIA ST", "addr:postcode": "94709", "addr:state": "CA", "amenity": "post_box", "brand": "United States Postal Service", "brand:wikidata": "Q668687", "collection_times": "Mo-Fr 12:00; Sa 11:00", "name": "USPS COLLECTION BOX - BLUE BOX", "nsi_id": "unitedstatespostalservice-a77078", "operator": "United States Postal Service", "operator:short": "USPS", "operator:type": "public", "operator:wikidata": "Q668687", "ref": "9470900001"}, "type": "Feature"}
{"dataset_attributes": {"@spider": "usps_collection_boxes", "spider:collection_time": "2023-09-25T08:26:09.915926"}, "geometry": {"coordinates": [-122.269279, 37.878714], "type": "Point"}, "id": "hZ7MZZYPss-QaMSdKk-pNr9MiSs=", "properties": {"@spider": "usps_collection_boxes", "addr:city": "BERKELEY", "addr:country": "US", "addr:full": "1550 SHATTUCK AVE", "addr:postcode": "94709", "addr:state": "CA", "amenity": "post_box", "brand": "United States Postal Service", "brand:wikidata": "Q668687", "collection_times": "Mo-Fr 12:00; Sa 13:00", "name": "USPS COLLECTION BOX - BLUE BOX", "note": "ON 12/24 AND 12/31, THIS BOX MAY BE COLLECTED AS EARLY AS 12 NOON.", "nsi_id": "unitedstatespostalservice-a77078", "operator": "United States Postal Service", "operator:short": "USPS", "operator:type": "public", "operator:wikidata": "Q668687", "ref": "9470900003"}, "type": "Feature"}
{"dataset_attributes": {"@spider": "usps_collection_boxes", "spider:collection_time": "2023-09-25T08:26:09.915926"}, "geometry": {"coordinates": [-122.268705, 37.874865], "type": "Point"}, "id": "iz90L5KguhiopqQkQ9ICgB9NZ0U=", "properties": {"@spider": "usps_collection_boxes", "addr:city": "BERKELEY", "addr:country": "US", "addr:full": "1798 SHATTUCK AVE", "addr:postcode": "94709", "addr:state": "CA", "amenity": "post_box", "brand": "United States Postal Service", "brand:wikidata": "Q668687", "collection_times": "Mo-Fr 12:00; Sa 11:00", "name": "USPS COLLECTION BOX - BLUE BOX", "nsi_id": "unitedstatespostalservice-a77078", "operator": "United States Postal Service", "operator:short": "USPS", "operator:type": "public", "operator:wikidata": "Q668687", "ref": "9470900004"}, "type": "Feature"}
{"dataset_attributes": {"@spider": "usps_collection_boxes", "spider:collection_time": "2023-09-25T08:26:09.915926"}, "geometry": {"coordinates": [-122.2602146487, 37.8752810502], "type": "Point"}, "id": "eiw__nYidRADy7MZKIZcrqIhXto=", "properties": {"@spider": "usps_collection_boxes", "addr:city": "BERKELEY", "addr:country": "US", "addr:full": "1878 EUCLID AVE", "addr:postcode": "94709", "addr:state": "CA", "amenity": "post_box", "brand": "United States Postal Service", "brand:wikidata": "Q668687", "collection_times": "Mo-Fr 17:00; Sa 13:00", "name": "USPS COLLECTION BOX - BLUE BOX", "note": "ON 12/24 AND 12/31, THIS BOX MAY BE COLLECTED AS EARLY AS 12 NOON.", "nsi_id": "unitedstatespostalservice-a77078", "operator": "United States Postal Service", "operator:short": "USPS", "operator:type": "public", "operator:wikidata": "Q668687", "ref": "9470900005"}, "type": "Feature"}
{"dataset_attributes": {"@spider": "usps_collection_boxes", "spider:collection_time": "2023-09-25T08:26:09.915926"}, "geometry": {"coordinates": [-122.260954, 37.878571], "type": "Point"}, "id": "By3dIgPnmMXzRDcrWAjuuXuQv-A=", "properties": {"@spider": "usps_collection_boxes", "addr:city": "BERKELEY", "addr:country": "US", "addr:full": "1652 EUCLID AVE", "addr:postcode": "94709", "addr:state": "CA", "amenity": "post_box", "brand": "United States Postal Service", "brand:wikidata": "Q668687", "collection_times": "Mo-Fr 12:00; Sa 11:00", "name": "USPS COLLECTION BOX - BLUE BOX", "nsi_id": "unitedstatespostalservice-a77078", "operator": "United States Postal Service", "operator:short": "USPS", "operator:type": "public", "operator:wikidata": "Q668687", "ref": "9470900006"}, "type": "Feature"}
{"dataset_attributes": {"@spider": "usps_collection_boxes", "spider:collection_time": "2023-09-25T08:26:09.915926"}, "geometry": {"coordinates": [-122.2705951707, 37.8736463694], "type": "Point"}, "id": "Rrld-lXBzQT03F1rR3eWKfCoPwo=", "properties": {"@spider": "usps_collection_boxes", "addr:city": "BERKELEY", "addr:country": "US", "addr:full": "2005 HEARST AVE", "addr:postcode": "94709", "addr:state": "CA", "amenity": "post_box", "brand": "United States Postal Service", "brand:wikidata": "Q668687", "collection_times": "Mo-Fr 11:30; Sa 11:00", "name": "USPS COLLECTION BOX - BLUE BOX", "nsi_id": "unitedstatespostalservice-a77078", "operator": "United States Postal Service", "operator:short": "USPS", "operator:type": "public", "operator:wikidata": "Q668687", "ref": "9470900009"}, "type": "Feature"}
{"dataset_attributes": {"@spider": "usps_collection_boxes", "spider:collection_time": "2023-09-25T08:26:09.915926"}, "geometry": {"coordinates": [-122.258788, 37.87795], "type": "Point"}, "id": "S0Rq7V3WQO15_pDGYvBn_3JCRPE=", "properties": {"@spider": "usps_collection_boxes", "addr:city": "BERKELEY", "addr:country": "US", "addr:full": "2600 VIRGINIA ST", "addr:postcode": "94709", "addr:state": "CA", "amenity": "post_box", "brand": "United States Postal Service", "brand:wikidata": "Q668687", "collection_times": "Mo-Sa 11:00", "name": "USPS COLLECTION BOX - BLUE BOX", "nsi_id": "unitedstatespostalservice-a77078", "operator": "United States Postal Service", "operator:short": "USPS", "operator:type": "public", "operator:wikidata": "Q668687", "ref": "9470900013"}, "type": "Feature"}
{"dataset_attributes": {"@spider": "usps_collection_boxes", "spider:collection_time": "2023-09-25T08:26:09.915926"}, "geometry": {"coordinates": [-122.274023, 37.881289], "type": "Point"}, "id": "n4Y3YUv4KbwLbAAHsZ7A5NCa0YE=", "properties": {"@spider": "usps_collection_boxes", "addr:city": "BERKELEY", "addr:country": "US", "addr:full": "1401 MARTIN LUTHER KING JR WAY", "addr:postcode": "94709", "addr:state": "CA", "amenity": "post_box", "brand": "United States Postal Service", "brand:wikidata": "Q668687", "collection_times": "Mo-Sa 11:00", "name": "USPS COLLECTION BOX - BLUE BOX", "nsi_id": "unitedstatespostalservice-a77078", "operator": "United States Postal Service", "operator:short": "USPS", "operator:type": "public", "operator:wikidata": "Q668687", "ref": "9470900015"}, "type": "Feature"}
{"dataset_attributes": {"@spider": "usps_collection_boxes", "spider:collection_time": "2023-09-25T08:26:09.915926"}, "geometry": {"coordinates": [-122.266762, 37.876923], "type": "Point"}, "id": "RlDZyJVqtJ8adO-PzB-UtniAuCc=", "properties": {"@spider": "usps_collection_boxes", "addr:city": "BERKELEY", "addr:country": "US", "addr:full": "1694 OXFORD ST", "addr:postcode": "94709", "addr:state": "CA", "amenity": "post_box", "brand": "United States Postal Service", "brand:wikidata": "Q668687", "collection_times": "Mo-Fr 12:00; Sa 11:00", "name": "USPS COLLECTION BOX - BLUE BOX", "nsi_id": "unitedstatespostalservice-a77078", "operator": "United States Postal Service", "operator:short": "USPS", "operator:type": "public", "operator:wikidata": "Q668687", "ref": "9470900018"}, "type": "Feature"}
{"dataset_attributes": {"@spider": "usps_collection_boxes", "spider:collection_time": "2023-09-25T08:26:09.915926"}, "geometry": {"coordinates": [-122.269224, 37.88054], "type": "Point"}, "id": "LtpPALs_HeF-22kHBA3WEzX0H9E=", "properties": {"@spider": "usps_collection_boxes", "addr:city": "BERKELEY", "addr:country": "US", "addr:full": "1481 SHATTUCK AVE", "addr:postcode": "94709", "addr:state": "CA", "amenity": "post_box", "brand": "United States Postal Service", "brand:wikidata": "Q668687", "collection_times": "Mo-Sa 12:00", "name": "USPS COLLECTION BOX - BLUE BOX", "nsi_id": "unitedstatespostalservice-a77078", "operator": "United States Postal Service", "operator:short": "USPS", "operator:type": "public", "operator:wikidata": "Q668687", "ref": "9470900022"}, "type": "Feature"}
{"dataset_attributes": {"@spider": "usps_collection_boxes", "spider:collection_time": "2023-09-25T08:26:09.915926"}, "geometry": {"coordinates": [-122.269149, 37.879371], "type": "Point"}, "id": "8Hv9jB-YaP24mxMevdGlGBlbZAI=", "properties": {"@spider": "usps_collection_boxes", "addr:city": "BERKELEY", "addr:country": "US", "addr:full": "1521 SHATTUCK AVE", "addr:postcode": "94709", "addr:state": "CA", "amenity": "post_box", "brand": "United States Postal Service", "brand:wikidata": "Q668687", "collection_times": "Mo-Fr 17:00; Sa 13:30", "name": "USPS COLLECTION BOX - BLUE BOX", "note": "ON 12/24 AND 12/31, THIS BOX MAY BE COLLECTED AS EARLY AS 12 NOON.", "nsi_id": "unitedstatespostalservice-a77078", "operator": "United States Postal Service", "operator:short": "USPS", "operator:type": "public", "operator:wikidata": "Q668687", "ref": "9470900024"}, "type": "Feature"}
{"dataset_attributes": {"@spider": "usps_collection_boxes", "spider:collection_time": "2023-09-25T08:26:09.915926"}, "geometry": {"coordinates": [-122.269172, 37.879367], "type": "Point"}, "id": "nCqMdIqVyz3Ftf5O8RlYKXSbmR0=", "properties": {"@spider": "usps_collection_boxes", "addr:city": "BERKELEY", "addr:country": "US", "addr:full": "1521 SHATTUCK AVE", "addr:postcode": "94709", "addr:state": "CA", "amenity": "post_box", "brand": "United States Postal Service", "brand:wikidata": "Q668687", "collection_times": "Mo-Fr 17:00; Sa 13:30", "name": "USPS COLLECTION BOX - BLUE BOX", "note": "ON 12/24 AND 12/31, THIS BOX MAY BE COLLECTED AS EARLY AS 12 NOON.", "nsi_id": "unitedstatespostalservice-a77078", "operator": "United States Postal Service", "operator:short": "USPS", "operator:type": "public", "operator:wikidata": "Q668687", "ref": "9470900034"}, "type": "Feature"}
{"dataset_attributes": {"@spider": "usps_collection_boxes", "spider:collection_time": "2023-09-25T08:26:09.915926"}, "geometry": {"coordinates": [-122.2691375714, 37.8794261837], "type": "Point"}, "id": "KaRxTYe8jOdaHY1US_jK3hjVILY=", "properties": {"@spider": "usps_collection_boxes", "addr:city": "BERKELEY", "addr:country": "US", "addr:full": "1521 SHATTUCK AVE", "addr:postcode": "94709", "addr:state": "CA", "amenity": "post_box", "brand": "United States Postal Service", "brand:wikidata": "Q668687", "collection_times": "Mo-Fr 17:00", "name": "USPS COLLECTION BOX - PO LOBBY", "note": "ON 12/24 AND 12/31, THIS BOX MAY BE COLLECTED AS EARLY AS 12 NOON.", "nsi_id": "unitedstatespostalservice-a77078", "operator": "United States Postal Service", "operator:short": "USPS", "operator:type": "public", "operator:wikidata": "Q668687", "ref": "9470900037"}, "type": "Feature"}
{"dataset_attributes": {"@spider": "usps_collection_boxes", "spider:collection_time": "2023-09-25T08:26:09.915926"}, "geometry": {"coordinates": [-122.2991930332, 37.866104016], "type": "Point"}, "id": "0BKLRO-NsyqM9IF4j2ZRqNKKL_M=", "properties": {"@spider": "usps_collection_boxes", "addr:city": "BERKELEY", "addr:country": "US", "addr:full": "726 ADDISON ST", "addr:postcode": "94710", "addr:state": "CA", "amenity": "post_box", "brand": "United States Postal Service", "brand:wikidata": "Q668687", "collection_times": "Mo-Fr 12:00", "name": "USPS COLLECTION BOX - BLUE BOX", "nsi_id": "unitedstatespostalservice-a77078", "operator": "United States Postal Service", "operator:short": "USPS", "operator:type": "public", "operator:wikidata": "Q668687", "ref": "9471000001"}, "type": "Feature"}
{"dataset_attributes": {"@spider": "usps_collection_boxes", "spider:collection_time": "2023-09-25T08:26:09.915926"}, "geometry": {"coordinates": [-122.298726273, 37.8630201441], "type": "Point"}, "id": "CGeMZ_gknamFaM4fCkHNnN7dlmo=", "properties": {"@spider": "usps_collection_boxes", "addr:city": "BERKELEY", "addr:country": "US", "addr:full": "747 BANCROFT WAY", "addr:postcode": "94710", "addr:state": "CA", "amenity": "post_box", "brand": "United States Postal Service", "brand:wikidata": "Q668687", "collection_times": "Mo-Sa 12:00", "name": "USPS COLLECTION BOX - BLUE BOX", "nsi_id": "unitedstatespostalservice-a77078", "operator": "United States Postal Service", "operator:short": "USPS", "operator:type": "public", "operator:wikidata": "Q668687", "ref": "9471000002"}, "type": "Feature"}
{"dataset_attributes": {"@spider": "usps_collection_boxes", "spider:collection_time": "2023-09-25T08:26:09.915926"}, "geometry": {"coordinates": [-122.296112, 37.863424], "type": "Point"}, "id": "GMflcGQb9DpR17Apw6_IXiVRTEk=", "properties": {"@spider": "usps_collection_boxes", "addr:city": "BERKELEY", "addr:country": "US", "addr:full": "830 BANCROFT WAY", "addr:postcode": "94710", "addr:state": "CA", "amenity": "post_box", "brand": "United States Postal Service", "brand:wikidata": "Q668687", "collection_times": "Mo-Fr 15:00; Sa 13:00", "name": "USPS COLLECTION BOX - BLUE BOX", "note": "ON 12/24 AND 12/31, THIS BOX MAY BE COLLECTED AS EARLY AS 12 NOON.", "nsi_id": "unitedstatespostalservice-a77078", "operator": "United States Postal Service", "operator:short": "USPS", "operator:type": "public", "operator:wikidata": "Q668687", "ref": "9471000003"}, "type": "Feature"}
{"dataset_attributes": {"@spider": "usps_collection_boxes", "spider:collection_time": "2023-09-25T08:26:09.915926"}, "geometry": {"coordinates": [-122.297462, 37.878435], "type": "Point"}, "id": "wlBXX8HrMqzhmnrW6IComAxG7Go=", "properties": {"@spider": "usps_collection_boxes", "addr:city": "BERKELEY", "addr:country": "US", "addr:full": "1395 9TH ST", "addr:postcode": "94710", "addr:state": "CA", "amenity": "post_box", "brand": "United States Postal Service", "brand:wikidata": "Q668687", "collection_times": "Mo-Fr 12:00; Sa 11:00", "name": "USPS COLLECTION BOX - BLUE BOX", "nsi_id": "unitedstatespostalservice-a77078", "operator": "United States Postal Service", "operator:short": "USPS", "operator:type": "public", "operator:wikidata": "Q668687", "ref": "9471000007"}, "type": "Feature"}
{"dataset_attributes": {"@spider": "usps_collection_boxes", "spider:collection_time": "2023-09-25T08:26:09.915926"}, "geometry": {"coordinates": [-122.292859, 37.860358], "type": "Point"}, "id": "vlBRkOm2_4vA61zQ_hdCOJ_4bTY=", "properties": {"@spider": "usps_collection_boxes", "addr:city": "BERKELEY", "addr:country": "US", "addr:full": "930 DWIGHT WAY", "addr:postcode": "94710", "addr:state": "CA", "amenity": "post_box", "brand": "United States Postal Service", "brand:wikidata": "Q668687", "collection_times": "Mo-Sa 12:00", "name": "USPS COLLECTION BOX - BLUE BOX", "nsi_id": "unitedstatespostalservice-a77078", "operator": "United States Postal Service", "operator:short": "USPS", "operator:type": "public", "operator:wikidata": "Q668687", "ref": "9471000009"}, "type": "Feature"}
{"dataset_attributes": {"@spider": "usps_collection_boxes", "spider:collection_time": "2023-09-25T08:26:09.915926"}, "geometry": {"coordinates": [-122.3037, 37.878987], "type": "Point"}, "id": "oYNo1YZWmZ24ZrZDMzhm30fBFE4=", "properties": {"@spider": "usps_collection_boxes", "addr:city": "BERKELEY", "addr:country": "US", "addr:full": "725 GILMAN ST", "addr:postcode": "94710", "addr:state": "CA", "amenity": "post_box", "brand": "United States Postal Service", "brand:wikidata": "Q668687", "collection_times": "Mo-Fr 12:00; Sa 13:00", "name": "USPS COLLECTION BOX - BLUE BOX", "note": "ON 12/24 AND 12/31, THIS BOX MAY BE COLLECTED AS EARLY AS 12 NOON.", "nsi_id": "unitedstatespostalservice-a77078", "operator": "United States Postal Service", "operator:short": "USPS", "operator:type": "public", "operator:wikidata": "Q668687", "ref": "9471000013"}, "type": "Feature"}
{"dataset_attributes": {"@spider": "usps_collection_boxes", "spider:collection_time": "2023-09-25T08:26:09.915926"}, "geometry": {"coordinates": [-122.29239, 37.855396], "type": "Point"}, "id": "5mwrA7e6a0sEJ3C2Ig1K2XJVU88=", "properties": {"@spider": "usps_collection_boxes", "addr:city": "BERKELEY", "addr:country": "US", "addr:full": "901 GRAYSON ST", "addr:postcode": "94710", "addr:state": "CA", "amenity": "post_box", "brand": "United States Postal Service", "brand:wikidata": "Q668687", "collection_times": "Mo-Fr 12:00; Sa 11:00", "name": "USPS COLLECTION BOX - BLUE BOX", "nsi_id": "unitedstatespostalservice-a77078", "operator": "United States Postal Service", "operator:short": "USPS", "operator:type": "public", "operator:wikidata": "Q668687", "ref": "9471000017"}, "type": "Feature"}
{"dataset_attributes": {"@spider": "usps_collection_boxes", "spider:collection_time": "2023-09-25T08:26:09.915926"}, "geometry": {"coordinates": [-122.291677, 37.852467], "type": "Point"}, "id": "09weXLPrhxYR_JjsNj9XVB1Dn2U=", "properties": {"@spider": "usps_collection_boxes", "addr:city": "BERKELEY", "addr:country": "US", "addr:full": "2910 7TH ST", "addr:postcode": "94710", "addr:state": "CA", "amenity": "post_box", "brand": "United States Postal Service", "brand:wikidata": "Q668687", "collection_times": "Mo-Fr 12:00; Sa 13:00", "name": "USPS COLLECTION BOX - BLUE BOX", "note": "ON 12/24 AND 12/31, THIS BOX MAY BE COLLECTED AS EARLY AS 12 NOON.", "nsi_id": "unitedstatespostalservice-a77078", "operator": "United States Postal Service", "operator:short": "USPS", "operator:type": "public", "operator:wikidata": "Q668687", "ref": "9471000025"}, "type": "Feature"}
{"dataset_attributes": {"@spider": "usps_collection_boxes", "spider:collection_time": "2023-09-25T08:26:09.915926"}, "geometry": {"coordinates": [-122.291569, 37.859482], "type": "Point"}, "id": "kIngcFD4LYYgMkMPaZnSAz1Kc1U=", "properties": {"@spider": "usps_collection_boxes", "addr:city": "BERKELEY", "addr:country": "US", "addr:full": "2550 9TH ST", "addr:postcode": "94710", "addr:state": "CA", "amenity": "post_box", "brand": "United States Postal Service", "brand:wikidata": "Q668687", "collection_times": "Mo-Fr 17:00; Sa 13:00", "name": "USPS COLLECTION BOX - BLUE BOX", "note": "ON 12/24 AND 12/31, THIS BOX MAY BE COLLECTED AS EARLY AS 12 NOON.", "nsi_id": "unitedstatespostalservice-a77078", "operator": "United States Postal Service", "operator:short": "USPS", "operator:type": "public", "operator:wikidata": "Q668687", "ref": "9471000037"}, "type": "Feature"}
{"dataset_attributes": {"@spider": "usps_collection_boxes", "spider:collection_time": "2023-09-25T08:26:09.915926"}, "geometry": {"coordinates": [-122.30083, 37.870236], "type": "Point"}, "id": "IgMyv2X1WA1xjrWN9p1N5qckJGU=", "properties": {"@spider": "usps_collection_boxes", "addr:city": "BERKELEY", "addr:country": "US", "addr:full": "1774 4TH ST", "addr:postcode": "94710", "addr:state": "CA", "amenity": "post_box", "brand": "United States Postal Service", "brand:wikidata": "Q668687", "collection_times": "Mo-Fr 17:00; Sa 13:00", "name": "USPS COLLECTION BOX - BLUE BOX", "note": "ON 12/24 AND 12/31, THIS BOX MAY BE COLLECTED AS EARLY AS 12 NOON.", "nsi_id": "unitedstatespostalservice-a77078", "operator": "United States Postal Service", "operator:short": "USPS", "operator:type": "public", "operator:wikidata": "Q668687", "ref": "9471000045"}, "type": "Feature"}
{"dataset_attributes": {"@spider": "usps_collection_boxes", "spider:collection_time": "2023-09-25T08:26:09.915926"}, "geometry": {"coordinates": [-122.299973, 37.883438], "type": "Point"}, "id": "IDdYdtrhLo9FsQduneMTZn8AN0c=", "properties": {"@spider": "usps_collection_boxes", "addr:city": "BERKELEY", "addr:country": "US", "addr:full": "1125 JACKSON ST", "addr:postcode": "94710", "addr:state": "CA", "amenity": "post_box", "brand": "United States Postal Service", "brand:wikidata": "Q668687", "collection_times": "Mo-Sa 12:00", "name": "USPS COLLECTION BOX - BLUE BOX", "nsi_id": "unitedstatespostalservice-a77078", "operator": "United States Postal Service", "operator:short": "USPS", "operator:type": "public", "operator:wikidata": "Q668687", "ref": "9471000049"}, "type": "Feature"}
{"dataset_attributes": {"@spider": "usps_collection_boxes", "spider:collection_time": "2023-09-25T08:26:09.915926"}, "geometry": {"coordinates": [-122.296292978, 37.880722013], "type": "Point"}, "id": "Udtx8v5JBY9n7GPgho5XvFZHTcA=", "properties": {"@spider": "usps_collection_boxes", "addr:city": "BERKELEY", "addr:country": "US", "addr:full": "1049 GILMAN ST", "addr:postcode": "94710", "addr:state": "CA", "amenity": "post_box", "brand": "United States Postal Service", "brand:wikidata": "Q668687", "collection_times": "Mo-Fr 12:00; Sa 13:00", "name": "USPS COLLECTION BOX - BLUE BOX", "note": "ON 12/24 AND 12/31, THIS BOX MAY BE COLLECTED AS EARLY AS 12 NOON.", "nsi_id": "unitedstatespostalservice-a77078", "operator": "United States Postal Service", "operator:short": "USPS", "operator:type": "public", "operator:wikidata": "Q668687", "ref": "9471000051"}, "type": "Feature"}
{"dataset_attributes": {"@spider": "usps_collection_boxes", "spider:collection_time": "2023-09-25T08:26:09.915926"}, "geometry": {"coordinates": [-122.2586387815, 37.8701997503], "type": "Point"}, "id": "hzLOy7S5ayLly7LhOfk38Q-2ccA=", "properties": {"@spider": "usps_collection_boxes", "addr:city": "BERKELEY", "addr:country": "US", "addr:full": "110 BARROWS LN", "addr:postcode": "94720", "addr:state": "CA", "amenity": "post_box", "brand": "United States Postal Service", "brand:wikidata": "Q668687", "collection_times": "Mo-Sa 12:00", "name": "USPS COLLECTION BOX - BLUE BOX", "nsi_id": "unitedstatespostalservice-a77078", "operator": "United States Postal Service", "operator:short": "USPS", "operator:type": "public", "operator:wikidata": "Q668687", "ref": "9472000000"}, "type": "Feature"}
{"dataset_attributes": {"@spider": "usps_collection_boxes", "spider:collection_time": "2023-09-25T08:26:09.915926"}, "geometry": {"coordinates": [-122.2586705, 37.8717188], "type": "Point"}, "id": "-nf23K10AAM6MNCOUFxPEFGa60s=", "properties": {"@spider": "usps_collection_boxes", "addr:city": "BERKELEY", "addr:country": "US", "addr:full": "2500 E GATE CIR", "addr:postcode": "94720", "addr:state": "CA", "amenity": "post_box", "brand": "United States Postal Service", "brand:wikidata": "Q668687", "collection_times": "Mo-Sa 12:00", "name": "USPS COLLECTION BOX - BLUE BOX", "nsi_id": "unitedstatespostalservice-a77078", "operator": "United States Postal Service", "operator:short": "USPS", "operator:type": "public", "operator:wikidata": "Q668687", "ref": "9472000006"}, "type": "Feature"}
{"dataset_attributes": {"@spider": "usps_collection_boxes", "spider:collection_time": "2023-09-25T08:26:09.915926"}, "geometry": {"coordinates": [-122.263494, 37.871938], "type": "Point"}, "id": "ruqg6V6zJK-98IeANNKjIkDSZSo=", "properties": {"@spider": "usps_collection_boxes", "addr:city": "BERKELEY", "addr:country": "US", "addr:full": "2200 W GATE CIR", "addr:postcode": "94720", "addr:state": "CA", "amenity": "post_box", "brand": "United States Postal Service", "brand:wikidata": "Q668687", "collection_times": "Mo-Sa 12:00", "name": "USPS COLLECTION BOX - BLUE BOX", "nsi_id": "unitedstatespostalservice-a77078", "operator": "United States Postal Service", "operator:short": "USPS", "operator:type": "public", "operator:wikidata": "Q668687", "ref": "9472000009"}, "type": "Feature"}
