{"geometry": {"coordinates": [-122.36185, 37.937685], "type": "Point"}, "id": "zZqzWfHkEo39ET723ppDMimc1b0=", "properties": {"@source_uri": "https://tools.usps.com/UspsToolsRestServices/rest/POLocator/findLocations", "@spider": "usps_collection_boxes", "addr:city": "RICHMOND", "addr:country": "US", "addr:postcode": "94801", "addr:state": "CA", "addr:street_address": "270 CURRY ST", "amenity": "post_box", "collection_times": "Mo-Sa 10:00", "nsi_id": "unitedstatespostalservice-a77078", "operator": "United States Postal Service", "operator:short": "USPS", "operator:type": "public", "operator:wikidata": "Q668687", "ref": "9480100005"}, "type": "Feature"}
{"geometry": {"coordinates": [-122.347668, 37.938227], "type": "Point"}, "id": "PfS8J7v4eNgewTU2nX0aisx7ncA=", "properties": {"@source_uri": "https://tools.usps.com/UspsToolsRestServices/rest/POLocator/findLocations", "@spider": "usps_collection_boxes", "addr:city": "RICHMOND", "addr:country": "US", "addr:postcode": "94801", "addr:state": "CA", "addr:street_address": "2230 BARRETT AVE", "amenity": "post_box", "collection_times": "Mo-Sa 10:00", "nsi_id": "unitedstatespostalservice-a77078", "operator": "United States Postal Service", "operator:short": "USPS", "operator:type": "public", "operator:wikidata": "Q668687", "ref": "9480100018"}, "type": "Feature"}
{"geometry": {"coordinates": [-122.36185, 37.937685], "type": "Point"}, "id": "cBhfGk0S0c5zplxqYtpKgwmPTUw=", "properties": {"@source_uri": "https://tools.usps.com/UspsToolsRestServices/rest/POLocator/findLocations", "@spider": "usps_collection_boxes", "addr:city": "RICHMOND", "addr:country": "US", "addr:postcode": "94801", "addr:state": "CA", "addr:street_address": "100 CHEVRON WAY", "amenity": "post_box", "collection_times": "Mo-Fr 10:00", "nsi_id": "unitedstatespostalservice-a77078", "operator": "United States Postal Service", "operator:short": "USPS", "operator:type": "public", "operator:wikidata": "Q668687", "ref": "9480100024"}, "type": "Feature"}
{"geometry": {"coordinates": [-122.384893, 37.9271], "type": "Point"}, "id": "l0j1JmR7Tki5I0yKYEpp0WJXSBY=", "properties": {"@source_uri": "https://tools.usps.com/UspsToolsRestServices/rest/POLocator/findLocations", "@spider": "usps_collection_boxes", "addr:city": "RICHMOND", "addr:country": "US", "addr:postcode": "94801", "addr:state": "CA", "addr:street_address": "102 WASHINGTON AVE", "amenity": "post_box", "collection_times": "Mo-Fr 17:00; Sa 15:00", "note": "ON 12/24 AND 12/31, THIS BOX MAY BE COLLECTED AS EARLY AS 12 NOON.", "nsi_id": "unitedstatespostalservice-a77078", "operator": "United States Postal Service", "operator:short": "USPS", "operator:type": "public", "operator:wikidata": "Q668687", "ref": "9480100026"}, "type": "Feature"}
{"geometry": {"coordinates": [-122.3597500258, 37.9368930062], "type": "Point"}, "id": "KOzQSlX6gRiyYr6OT4X2yulfGqA=", "properties": {"@source_uri": "https://tools.usps.com/UspsToolsRestServices/rest/POLocator/findLocations", "@spider": "usps_collection_boxes", "addr:city": "RICHMOND", "addr:country": "US", "addr:postcode": "94801", "addr:state": "CA", "addr:street_address": "1025 NEVIN AVE", "amenity": "post_box", "collection_times": "Mo-Fr 17:00; Sa 13:15", "note": "ON 12/24 AND 12/31, THIS BOX MAY BE COLLECTED AS EARLY AS 12 NOON.", "nsi_id": "unitedstatespostalservice-a77078", "operator": "United States Postal Service", "operator:short": "USPS", "operator:type": "public", "operator:wikidata": "Q668687", "ref": "9480100028"}, "type": "Feature"}
{"geometry": {"coordinates": [-122.367074, 37.955407], "type": "Point"}, "id": "UThJS7wUPUD5M6buNPa82-XSTOQ=", "properties": {"@source_uri": "https://tools.usps.com/UspsToolsRestServices/rest/POLocator/findLocations", "@spider": "usps_collection_boxes", "addr:city": "RICHMOND", "addr:country": "US", "addr:postcode": "94801", "addr:state": "CA", "addr:street_address": "1553 FRED JACKSON WAY", "amenity": "post_box", "collection_times": "Mo-Sa 10:00", "nsi_id": "unitedstatespostalservice-a77078", "operator": "United States Postal Service", "operator:short": "USPS", "operator:type": "public", "operator:wikidata": "Q668687", "ref": "9480100042"}, "type": "Feature"}
{"geometry": {"coordinates": [-122.3597500258, 37.9368930062], "type": "Point"}, "id": "EfN6qv0SZvTTXSdbPcbX6TltZ6g=", "properties": {"@source_uri": "https://tools.usps.com/UspsToolsRestServices/rest/POLocator/findLocations", "@spider": "usps_collection_boxes", "addr:city": "RICHMOND", "addr:country": "US", "addr:postcode": "94801", "addr:state": "CA", "addr:street_address": "1025 NEVIN AVE", "amenity": "post_box", "collection_times": "Mo-Fr 17:00; Sa 13:00", "indoor": "yes", "note": "ON 12/24 AND 12/31, THIS BOX MAY BE COLLECTED AS EARLY AS 12 NOON.", "nsi_id": "unitedstatespostalservice-a77078", "operator": "United States Postal Service", "operator:short": "USPS", "operator:type": "public", "operator:wikidata": "Q668687", "ref": "9480100044"}, "type": "Feature"}
{"geometry": {"coordinates": [-122.325528, 37.961829], "type": "Point"}, "id": "lYABd5TwTRb9HA2cN4iM020VPeY=", "properties": {"@source_uri": "https://tools.usps.com/UspsToolsRestServices/rest/POLocator/findLocations", "@spider": "usps_collection_boxes", "addr:city": "SAN PABLO", "addr:country": "US", "addr:postcode": "94803", "addr:state": "CA", "addr:street_address": "3360 SAN PABLO DAM RD", "amenity": "post_box", "collection_times": "Mo-Sa 10:00", "nsi_id": "unitedstatespostalservice-a77078", "operator": "United States Postal Service", "operator:short": "USPS", "operator:type": "public", "operator:wikidata": "Q668687", "ref": "9480300000"}, "type": "Feature"}
{"geometry": {"coordinates": [-122.316739, 37.96436], "type": "Point"}, "id": "qIKbxDLN0MGyc4UgB5Bs9c9B-wI=", "properties": {"@source_uri": "https://tools.usps.com/UspsToolsRestServices/rest/POLocator/findLocations", "@spider": "usps_collection_boxes", "addr:city": "SAN PABLO", "addr:country": "US", "addr:postcode": "94803", "addr:state": "CA", "addr:street_address": "3716 SAN PABLO DAM RD", "amenity": "post_box", "collection_times": "Mo-Sa 10:00", "nsi_id": "unitedstatespostalservice-a77078", "operator": "United States Postal Service", "operator:short": "USPS", "operator:type": "public", "operator:wikidata": "Q668687", "ref": "9480300001"}, "type": "Feature"}
{"geometry": {"coordinates": [-122.307492, 37.969458], "type": "Point"}, "id": "jXGkeNFjoc7MPA9PX5ZvXi84_-Q=", "properties": {"@source_uri": "https://tools.usps.com/UspsToolsRestServices/rest/POLocator/findLocations", "@spider": "usps_collection_boxes", "addr:city": "SAN PABLO", "addr:country": "US", "addr:postcode": "94803", "addr:state": "CA", "addr:street_address": "4352 APPIAN WAY", "amenity": "post_box", "collection_times": "Mo-Sa 10:00", "nsi_id": "unitedstatespostalservice-a77078", "operator": "United States Postal Service", "operator:short": "USPS", "operator:type": "public", "operator:wikidata": "Q668687", "ref": "9480300007"}, "type": "Feature"}
{"geometry": {"coordinates": [-122.313117, 37.976482], "type": "Point"}, "id": "Q17enjmRHwJG_AZoyKXHzq_anRI=", "properties": {"@source_uri": "https://tools.usps.com/UspsToolsRestServices/rest/POLocator/findLocations", "@spider": "usps_collection_boxes", "addr:city": "SAN PABLO", "addr:country": "US", "addr:postcode": "94803", "addr:state": "CA", "addr:street_address": "4251 HILLTOP DR", "amenity": "post_box", "collection_times": "Mo-Sa 10:00", "nsi_id": "unitedstatespostalservice-a77078", "operator": "United States Postal Service", "operator:short": "USPS", "operator:type": "public", "operator:wikidata": "Q668687", "ref": "9480300008"}, "type": "Feature"}
{"geometry": {"coordinates": [-122.319821882, 37.9657807339], "type": "Point"}, "id": "BZQKY31tgdWCs4xBo7I-OVWC7UA=", "properties": {"@source_uri": "https://tools.usps.com/UspsToolsRestServices/rest/POLocator/findLocations", "@spider": "usps_collection_boxes", "addr:city": "SAN PABLO", "addr:country": "US", "addr:postcode": "94803", "addr:state": "CA", "addr:street_address": "3535 EL PORTAL DR", "amenity": "post_box", "collection_times": "Mo-Sa 10:00", "nsi_id": "unitedstatespostalservice-a77078", "operator": "United States Postal Service", "operator:short": "USPS", "operator:type": "public", "operator:wikidata": "Q668687", "ref": "9480300009"}, "type": "Feature"}
{"geometry": {"coordinates": [-122.257689, 37.966606], "type": "Point"}, "id": "a1C05401RWkaZZ_KE8P1Cag5wQg=", "properties": {"@source_uri": "https://tools.usps.com/UspsToolsRestServices/rest/POLocator/findLocations", "@spider": "usps_collection_boxes", "addr:city": "SAN PABLO", "addr:country": "US", "addr:postcode": "94803", "addr:state": "CA", "addr:street_address": "5020 CARRIAGE DR", "amenity": "post_box", "collection_times": "Mo-Sa 10:00", "nsi_id": "unitedstatespostalservice-a77078", "operator": "United States Postal Service", "operator:short": "USPS", "operator:type": "public", "operator:wikidata": "Q668687", "ref": "9480300011"}, "type": "Feature"}
{"geometry": {"coordinates": [-122.2474689792, 37.9610050134], "type": "Point"}, "id": "D3R-qELxvwnvfbuZJrZ7-SBXoBo=", "properties": {"@source_uri": "https://tools.usps.com/UspsToolsRestServices/rest/POLocator/findLocations", "@spider": "usps_collection_boxes", "addr:city": "SAN PABLO", "addr:country": "US", "addr:postcode": "94803", "addr:state": "CA", "addr:street_address": "5444 COUNTRY VIEW DR", "amenity": "post_box", "collection_times": "Mo-Sa 10:00", "nsi_id": "unitedstatespostalservice-a77078", "operator": "United States Postal Service", "operator:short": "USPS", "operator:type": "public", "operator:wikidata": "Q668687", "ref": "9480300012"}, "type": "Feature"}
{"geometry": {"coordinates": [-122.255808, 37.963832], "type": "Point"}, "id": "IYmFl16Ze6LLhAYXl5SW9c0S_RY=", "properties": {"@source_uri": "https://tools.usps.com/UspsToolsRestServices/rest/POLocator/findLocations", "@spider": "usps_collection_boxes", "addr:city": "SAN PABLO", "addr:country": "US", "addr:postcode": "94803", "addr:state": "CA", "addr:street_address": "5524 CONESTOGA WAY", "amenity": "post_box", "collection_times": "Mo-Sa 10:00", "nsi_id": "unitedstatespostalservice-a77078", "operator": "United States Postal Service", "operator:short": "USPS", "operator:type": "public", "operator:wikidata": "Q668687", "ref": "9480300013"}, "type": "Feature"}
{"geometry": {"coordinates": [-122.2966491234, 37.9798322187], "type": "Point"}, "id": "1v9UrDckLePFDhYEO4pmkXYSLDs=", "properties": {"@source_uri": "https://tools.usps.com/UspsToolsRestServices/rest/POLocator/findLocations", "@spider": "usps_collection_boxes", "addr:city": "SAN PABLO", "addr:country": "US", "addr:postcode": "94803", "addr:state": "CA", "addr:street_address": "535 APPIAN WAY", "amenity": "post_box", "collection_times": "Mo-Sa 17:00", "note": "ON 12/24 AND 12/31, THIS BOX MAY BE COLLECTED AS EARLY AS 12 NOON.", "nsi_id": "unitedstatespostalservice-a77078", "operator": "United States Postal Service", "operator:short": "USPS", "operator:type": "public", "operator:wikidata": "Q668687", "ref": "9480300016"}, "type": "Feature"}
{"geometry": {"coordinates": [-122.2966491234, 37.9798322187], "type": "Point"}, "id": "5bExtzgv4Q5-XOk5Z6DNzjKJ6NI=", "properties": {"@source_uri": "https://tools.usps.com/UspsToolsRestServices/rest/POLocator/findLocations", "@spider": "usps_collection_boxes", "addr:city": "SAN PABLO", "addr:country": "US", "addr:postcode": "94803", "addr:state": "CA", "addr:street_address": "535 APPIAN WAY", "amenity": "post_box", "collection_times": "Mo-Fr 17:00; Sa 13:00", "indoor": "yes", "note": "ON 12/24 AND 12/31, THIS BOX MAY BE COLLECTED AS EARLY AS 12 NOON.", "nsi_id": "unitedstatespostalservice-a77078", "operator": "United States Postal Service", "operator:short": "USPS", "operator:type": "public", "operator:wikidata": "Q668687", "ref": "9480300026"}, "type": "Feature"}
{"geometry": {"coordinates": [-122.297458985, 37.9796050014], "type": "Point"}, "id": "lytCmn_nQg_pZ1pHMcWZzJaf9AI=", "properties": {"@source_uri": "https://tools.usps.com/UspsToolsRestServices/rest/POLocator/findLocations", "@spider": "usps_collection_boxes", "addr:city": "SAN PABLO", "addr:country": "US", "addr:postcode": "94803", "addr:state": "CA", "addr:street_address": "535 APPIAN WAY", "amenity": "post_box", "collection_times": "Mo-Sa 17:00", "name": "USPS COLLECTION BOX - APC", "note": "ON 12/24 AND 12/31, THIS BOX MAY BE COLLECTED AS EARLY AS 12 NOON.", "nsi_id": "unitedstatespostalservice-a77078", "operator": "United States Postal Service", "operator:short": "USPS", "operator:type": "public", "operator:wikidata": "Q668687", "ref": "9480300027"}, "type": "Feature"}
{"geometry": {"coordinates": [-122.334513, 37.949986], "type": "Point"}, "id": "4QmiLA_8qBbUfmrtND8tomD0RnQ=", "properties": {"@source_uri": "https://tools.usps.com/UspsToolsRestServices/rest/POLocator/findLocations", "@spider": "usps_collection_boxes", "addr:city": "RICHMOND", "addr:country": "US", "addr:postcode": "94804", "addr:state": "CA", "addr:street_address": "3401 RHEEM AVE", "amenity": "post_box", "collection_times": "Mo-Sa 10:00", "nsi_id": "unitedstatespostalservice-a77078", "operator": "United States Postal Service", "operator:short": "USPS", "operator:type": "public", "operator:wikidata": "Q668687", "ref": "9480400007"}, "type": "Feature"}
{"geometry": {"coordinates": [-122.34735, 37.942216], "type": "Point"}, "id": "9I36j4xQribPME0SDhtMFGzXPjU=", "properties": {"@source_uri": "https://tools.usps.com/UspsToolsRestServices/rest/POLocator/findLocations", "@spider": "usps_collection_boxes", "addr:city": "RICHMOND", "addr:country": "US", "addr:postcode": "94804", "addr:state": "CA", "addr:street_address": "662 23RD ST", "amenity": "post_box", "collection_times": "Mo-Sa 10:00", "nsi_id": "unitedstatespostalservice-a77078", "operator": "United States Postal Service", "operator:short": "USPS", "operator:type": "public", "operator:wikidata": "Q668687", "ref": "9480400018"}, "type": "Feature"}
{"geometry": {"coordinates": [-122.3552839748, 37.9248300185], "type": "Point"}, "id": "rgAhcwhrmYbo7QP0ojOvHIvaXUM=", "properties": {"@source_uri": "https://tools.usps.com/UspsToolsRestServices/rest/POLocator/findLocations", "@spider": "usps_collection_boxes", "addr:city": "RICHMOND", "addr:country": "US", "addr:postcode": "94804", "addr:state": "CA", "addr:street_address": "1430 CUTTING BLVD", "amenity": "post_box", "collection_times": "Mo-Sa 10:00", "nsi_id": "unitedstatespostalservice-a77078", "operator": "United States Postal Service", "operator:short": "USPS", "operator:type": "public", "operator:wikidata": "Q668687", "ref": "9480400021"}, "type": "Feature"}
{"geometry": {"coordinates": [-122.347292, 37.91589], "type": "Point"}, "id": "pPIdqsaFIhIYp_WpUdidX5H8Tlk=", "properties": {"@source_uri": "https://tools.usps.com/UspsToolsRestServices/rest/POLocator/findLocations", "@spider": "usps_collection_boxes", "addr:city": "RICHMOND", "addr:country": "US", "addr:postcode": "94804", "addr:state": "CA", "addr:street_address": "1201 MELVILLE SQ", "amenity": "post_box", "collection_times": "Mo-Sa 10:00", "nsi_id": "unitedstatespostalservice-a77078", "operator": "United States Postal Service", "operator:short": "USPS", "operator:type": "public", "operator:wikidata": "Q668687", "ref": "9480400022"}, "type": "Feature"}
{"geometry": {"coordinates": [-122.3190690402, 37.9114460051], "type": "Point"}, "id": "Owyw65z1J0o3Q_7T8ZZxjx4csjI=", "properties": {"@source_uri": "https://tools.usps.com/UspsToolsRestServices/rest/POLocator/findLocations", "@spider": "usps_collection_boxes", "addr:city": "RICHMOND", "addr:country": "US", "addr:postcode": "94804", "addr:state": "CA", "addr:street_address": "1481 CARLSON BLVD", "amenity": "post_box", "collection_times": "Mo-Sa 10:00", "nsi_id": "unitedstatespostalservice-a77078", "operator": "United States Postal Service", "operator:short": "USPS", "operator:type": "public", "operator:wikidata": "Q668687", "ref": "9480400034"}, "type": "Feature"}
{"geometry": {"coordinates": [-122.327076, 37.912014], "type": "Point"}, "id": "vimvQPM1RSiAWH41ZdOJqtcb3dg=", "properties": {"@source_uri": "https://tools.usps.com/UspsToolsRestServices/rest/POLocator/findLocations", "@spider": "usps_collection_boxes", "addr:city": "RICHMOND", "addr:country": "US", "addr:postcode": "94804", "addr:state": "CA", "addr:street_address": "5000 SEAPORT AVE", "amenity": "post_box", "collection_times": "Mo-Fr 10:00", "nsi_id": "unitedstatespostalservice-a77078", "operator": "United States Postal Service", "operator:short": "USPS", "operator:type": "public", "operator:wikidata": "Q668687", "ref": "9480400041"}, "type": "Feature"}
{"geometry": {"coordinates": [-122.320041, 37.900309], "type": "Point"}, "id": "OVtTTFao1jLvwqjG9KG-qlD_tbA=", "properties": {"@source_uri": "https://tools.usps.com/UspsToolsRestServices/rest/POLocator/findLocations", "@spider": "usps_collection_boxes", "addr:city": "RICHMOND", "addr:country": "US", "addr:postcode": "94804", "addr:state": "CA", "addr:street_address": "2501 RYDIN RD", "amenity": "post_box", "collection_times": "Mo-Fr 17:00", "note": "ON 12/24 AND 12/31, THIS BOX MAY BE COLLECTED AS EARLY AS 12 NOON.", "nsi_id": "unitedstatespostalservice-a77078", "operator": "United States Postal Service", "operator:short": "USPS", "operator:type": "public", "operator:wikidata": "Q668687", "ref": "9480400046"}, "type": "Feature"}
{"geometry": {"coordinates": [-122.343132, 37.935213], "type": "Point"}, "id": "_vEP9Nyt0jCrnon0VJAwrdFqhPY=", "properties": {"@source_uri": "https://tools.usps.com/UspsToolsRestServices/rest/POLocator/findLocations", "@spider": "usps_collection_boxes", "addr:city": "RICHMOND", "addr:country": "US", "addr:postcode": "94804", "addr:state": "CA", "addr:street_address": "2701 MACDONALD AVE", "amenity": "post_box", "collection_times": "Mo-Sa 10:00", "nsi_id": "unitedstatespostalservice-a77078", "operator": "United States Postal Service", "operator:short": "USPS", "operator:type": "public", "operator:wikidata": "Q668687", "ref": "9480400047"}, "type": "Feature"}
{"geometry": {"coordinates": [-122.3436353, 37.9298426], "type": "Point"}, "id": "7ptjzMQfKuthnb9bpa5u78xMtqc=", "properties": {"@source_uri": "https://tools.usps.com/UspsToolsRestServices/rest/POLocator/findLocations", "@spider": "usps_collection_boxes", "addr:city": "RICHMOND", "addr:country": "US", "addr:postcode": "94804", "addr:state": "CA", "addr:street_address": "2100 CHANSLOR AVE", "amenity": "post_box", "collection_times": "Mo-Sa 17:00", "name": "USPS COLLECTION BOX - EXPRESS", "note": "ON 12/24 AND 12/31, THIS BOX MAY BE COLLECTED AS EARLY AS 12 NOON.", "nsi_id": "unitedstatespostalservice-a77078", "operator": "United States Postal Service", "operator:short": "USPS", "operator:type": "public", "operator:wikidata": "Q668687", "ref": "9480400054"}, "type": "Feature"}
{"geometry": {"coordinates": [-122.343967, 37.917157], "type": "Point"}, "id": "nob2c4XxtC_AeIxi_0_6yxJqqTU=", "properties": {"@source_uri": "https://tools.usps.com/UspsToolsRestServices/rest/POLocator/findLocations", "@spider": "usps_collection_boxes", "addr:city": "RICHMOND", "addr:country": "US", "addr:postcode": "94804", "addr:state": "CA", "addr:street_address": "1100 S 27TH ST", "amenity": "post_box", "collection_times": "Mo-Fr 10:00", "nsi_id": "unitedstatespostalservice-a77078", "operator": "United States Postal Service", "operator:short": "USPS", "operator:type": "public", "operator:wikidata": "Q668687", "ref": "9480400056"}, "type": "Feature"}
{"geometry": {"coordinates": [-122.360196, 37.921105], "type": "Point"}, "id": "dNwQuTwo-Eef-y7JeWFj4z53KSo=", "properties": {"@source_uri": "https://tools.usps.com/UspsToolsRestServices/rest/POLocator/findLocations", "@spider": "usps_collection_boxes", "addr:city": "RICHMOND", "addr:country": "US", "addr:postcode": "94804", "addr:state": "CA", "addr:street_address": "815 HARBOUR WAY S", "amenity": "post_box", "collection_times": "Mo-Fr 10:00", "nsi_id": "unitedstatespostalservice-a77078", "operator": "United States Postal Service", "operator:short": "USPS", "operator:type": "public", "operator:wikidata": "Q668687", "ref": "9480400058"}, "type": "Feature"}
{"geometry": {"coordinates": [-122.323723, 37.915252], "type": "Point"}, "id": "A9XSD4Mn1M8kEJEde76ZJp1HG0Y=", "properties": {"@source_uri": "https://tools.usps.com/UspsToolsRestServices/rest/POLocator/findLocations", "@spider": "usps_collection_boxes", "addr:city": "RICHMOND", "addr:country": "US", "addr:postcode": "94804", "addr:state": "CA", "addr:street_address": "5100 HARTNETT AVE", "amenity": "post_box", "collection_times": "Mo-Sa 10:00", "nsi_id": "unitedstatespostalservice-a77078", "operator": "United States Postal Service", "operator:short": "USPS", "operator:type": "public", "operator:wikidata": "Q668687", "ref": "9480400060"}, "type": "Feature"}
{"geometry": {"coordinates": [-122.321296, 37.9232], "type": "Point"}, "id": "rDAPNeWWW1ECOM4GIDoecsMwcRo=", "properties": {"@source_uri": "https://tools.usps.com/UspsToolsRestServices/rest/POLocator/findLocations", "@spider": "usps_collection_boxes", "addr:city": "RICHMOND", "addr:country": "US", "addr:postcode": "94804", "addr:state": "CA", "addr:street_address": "662 S 52ND ST", "amenity": "post_box", "collection_times": "Mo-Sa 10:00", "nsi_id": "unitedstatespostalservice-a77078", "operator": "United States Postal Service", "operator:short": "USPS", "operator:type": "public", "operator:wikidata": "Q668687", "ref": "9480400062"}, "type": "Feature"}
{"geometry": {"coordinates": [-122.342619, 37.937066], "type": "Point"}, "id": "bU8Qvzqqc298xf3ZMxBTs3AgL5E=", "properties": {"@source_uri": "https://tools.usps.com/UspsToolsRestServices/rest/POLocator/findLocations", "@spider": "usps_collection_boxes", "addr:city": "RICHMOND", "addr:country": "US", "addr:postcode": "94804", "addr:state": "CA", "addr:street_address": "440 CIVIC CENTER PLAZA", "amenity": "post_box", "collection_times": "Mo-Fr 10:00", "nsi_id": "unitedstatespostalservice-a77078", "operator": "United States Postal Service", "operator:short": "USPS", "operator:type": "public", "operator:wikidata": "Q668687", "ref": "9480400063"}, "type": "Feature"}
{"geometry": {"coordinates": [-122.34296, 37.987605], "type": "Point"}, "id": "DEdr0A1tjR-SYEg85HZ2zp9ZFac=", "properties": {"@source_uri": "https://tools.usps.com/UspsToolsRestServices/rest/POLocator/findLocations", "@spider": "usps_collection_boxes", "addr:city": "RICHMOND", "addr:country": "US", "addr:postcode": "94804", "addr:state": "CA", "addr:street_address": "3609 PARK RIDGE DR", "amenity": "post_box", "collection_times": "Mo-Fr 10:00", "nsi_id": "unitedstatespostalservice-a77078", "operator": "United States Postal Service", "operator:short": "USPS", "operator:type": "public", "operator:wikidata": "Q668687", "ref": "9480400064"}, "type": "Feature"}
{"geometry": {"coordinates": [-122.320748, 37.940563], "type": "Point"}, "id": "pHflEJ_3qiHa-PirmBR0ETCN0ZE=", "properties": {"@source_uri": "https://tools.usps.com/UspsToolsRestServices/rest/POLocator/findLocations", "@spider": "usps_collection_boxes", "addr:city": "RICHMOND", "addr:country": "US", "addr:postcode": "94805", "addr:state": "CA", "addr:street_address": "5435 SIERRA AVE", "amenity": "post_box", "collection_times": "Mo-Sa 10:00", "nsi_id": "unitedstatespostalservice-a77078", "operator": "United States Postal Service", "operator:short": "USPS", "operator:type": "public", "operator:wikidata": "Q668687", "ref": "9480500004"}, "type": "Feature"}
{"geometry": {"coordinates": [-122.3245180316, 37.9321249984], "type": "Point"}, "id": "QucYV69XErF2RqLlVxhj3pzhTYU=", "properties": {"@source_uri": "https://tools.usps.com/UspsToolsRestServices/rest/POLocator/findLocations", "@spider": "usps_collection_boxes", "addr:city": "RICHMOND", "addr:country": "US", "addr:postcode": "94805", "addr:state": "CA", "addr:street_address": "4800 MACDONALD AVE", "amenity": "post_box", "collection_times": "Mo-Sa 10:00", "nsi_id": "unitedstatespostalservice-a77078", "operator": "United States Postal Service", "operator:short": "USPS", "operator:type": "public", "operator:wikidata": "Q668687", "ref": "9480500015"}, "type": "Feature"}
{"geometry": {"coordinates": [-122.32458, 37.949023], "type": "Point"}, "id": "XPq_g64mVUi0TbtqjYv_KaBHOzI=", "properties": {"@source_uri": "https://tools.usps.com/UspsToolsRestServices/rest/POLocator/findLocations", "@spider": "usps_collection_boxes", "addr:city": "RICHMOND", "addr:country": "US", "addr:postcode": "94805", "addr:state": "CA", "addr:street_address": "5500 MCBRYDE AVE", "amenity": "post_box", "collection_times": "Mo-Sa 10:00", "nsi_id": "unitedstatespostalservice-a77078", "operator": "United States Postal Service", "operator:short": "USPS", "operator:type": "public", "operator:wikidata": "Q668687", "ref": "9480500016"}, "type": "Feature"}
{"geometry": {"coordinates": [-122.333851, 37.936471], "type": "Point"}, "id": "hBCUp-ZliuVqe9gsHglYuEKnSc0=", "properties": {"@source_uri": "https://tools.usps.com/UspsToolsRestServices/rest/POLocator/findLocations", "@spider": "usps_collection_boxes", "addr:city": "RICHMOND", "addr:country": "US", "addr:postcode": "94805", "addr:state": "CA", "addr:street_address": "3630 BARRETT AVE", "amenity": "post_box", "collection_times": "Mo-Sa 10:00", "nsi_id": "unitedstatespostalservice-a77078", "operator": "United States Postal Service", "operator:short": "USPS", "operator:type": "public", "operator:wikidata": "Q668687", "ref": "9480500018"}, "type": "Feature"}
{"geometry": {"coordinates": [-122.3290470253, 37.9430280104], "type": "Point"}, "id": "VfqHNfhDtuFOLeBZpjf3MnWtuzg=", "properties": {"@source_uri": "https://tools.usps.com/UspsToolsRestServices/rest/POLocator/findLocations", "@spider": "usps_collection_boxes", "addr:city": "RICHMOND", "addr:country": "US", "addr:postcode": "94805", "addr:state": "CA", "addr:street_address": "12651 SAN PABLO AVE", "amenity": "post_box", "collection_times": "Mo-Fr 17:00; Sa 13:00", "note": "ON 12/24 AND 12/31, THIS BOX MAY BE COLLECTED AS EARLY AS 12 NOON.", "nsi_id": "unitedstatespostalservice-a77078", "operator": "United States Postal Service", "operator:short": "USPS", "operator:type": "public", "operator:wikidata": "Q668687", "ref": "9480500023"}, "type": "Feature"}
{"geometry": {"coordinates": [-122.332729, 37.933718], "type": "Point"}, "id": "mqQtsV2pkM8Gd1oA6c7G1zcLyZk=", "properties": {"@source_uri": "https://tools.usps.com/UspsToolsRestServices/rest/POLocator/findLocations", "@spider": "usps_collection_boxes", "addr:city": "RICHMOND", "addr:country": "US", "addr:postcode": "94805", "addr:state": "CA", "addr:street_address": "3823 MACDONALD AVE", "amenity": "post_box", "collection_times": "Mo-Sa 10:00", "nsi_id": "unitedstatespostalservice-a77078", "operator": "United States Postal Service", "operator:short": "USPS", "operator:type": "public", "operator:wikidata": "Q668687", "ref": "9480500028"}, "type": "Feature"}
{"geometry": {"coordinates": [-122.323939, 37.935756], "type": "Point"}, "id": "7Btc1FHMxqLB3zhB_BmAeWQ7GnY=", "properties": {"@source_uri": "https://tools.usps.com/UspsToolsRestServices/rest/POLocator/findLocations", "@spider": "usps_collection_boxes", "addr:city": "RICHMOND", "addr:country": "US", "addr:postcode": "94805", "addr:state": "CA", "addr:street_address": "5009 BARRETT AVE", "amenity": "post_box", "collection_times": "Mo-Sa 10:00", "nsi_id": "unitedstatespostalservice-a77078", "operator": "United States Postal Service", "operator:short": "USPS", "operator:type": "public", "operator:wikidata": "Q668687", "ref": "9480500029"}, "type": "Feature"}
{"geometry": {"coordinates": [-122.3288603257, 37.9431837979], "type": "Point"}, "id": "T1cAo4KpMy6SvPYDRme2VMBTvRg=", "properties": {"@source_uri": "https://tools.usps.com/UspsToolsRestServices/rest/POLocator/findLocations", "@spider": "usps_collection_boxes", "addr:city": "RICHMOND", "addr:country": "US", "addr:postcode": "94805", "addr:state": "CA", "addr:street_address": "12651 SAN PABLO AVE", "amenity": "post_box", "collection_times": "Mo-Fr 17:00", "indoor": "yes", "note": "ON 12/24 AND 12/31, THIS BOX MAY BE COLLECTED AS EARLY AS 12 NOON.", "nsi_id": "unitedstatespostalservice-a77078", "operator": "United States Postal Service", "operator:short": "USPS", "operator:type": "public", "operator:wikidata": "Q668687", "ref": "9480500031"}, "type": "Feature"}
{"geometry": {"coordinates": [-122.341443, 37.959446], "type": "Point"}, "id": "IcMHOEZn07AvCbkAuaQoCAotQ7w=", "properties": {"@source_uri": "https://tools.usps.com/UspsToolsRestServices/rest/POLocator/findLocations", "@spider": "usps_collection_boxes", "addr:city": "RICHMOND", "addr:country": "US", "addr:postcode": "94806", "addr:state": "CA", "addr:street_address": "1 ALVARADO SQ", "amenity": "post_box", "collection_times": "Mo-Sa 15:00", "note": "ON 12/24 AND 12/31, THIS BOX MAY BE COLLECTED AS EARLY AS 12 NOON.", "nsi_id": "unitedstatespostalservice-a77078", "operator": "United States Postal Service", "operator:short": "USPS", "operator:type": "public", "operator:wikidata": "Q668687", "ref": "9480600000"}, "type": "Feature"}
{"geometry": {"coordinates": [-122.3452740497, 37.9546698769], "type": "Point"}, "id": "OnSpi8PqHAuSB6ZXoQ9HGhYvN0Y=", "properties": {"@source_uri": "https://tools.usps.com/UspsToolsRestServices/rest/POLocator/findLocations", "@spider": "usps_collection_boxes", "addr:city": "RICHMOND", "addr:country": "US", "addr:postcode": "94806", "addr:state": "CA", "addr:street_address": "1847 RUMRILL BLVD", "amenity": "post_box", "collection_times": "Mo-Sa 10:00", "nsi_id": "unitedstatespostalservice-a77078", "operator": "United States Postal Service", "operator:short": "USPS", "operator:type": "public", "operator:wikidata": "Q668687", "ref": "9480600003"}, "type": "Feature"}
{"geometry": {"coordinates": [-122.328546, 37.967938], "type": "Point"}, "id": "f-EzRwdJo-YdM-sf5NwhxVh9DIc=", "properties": {"@source_uri": "https://tools.usps.com/UspsToolsRestServices/rest/POLocator/findLocations", "@spider": "usps_collection_boxes", "addr:city": "RICHMOND", "addr:country": "US", "addr:postcode": "94806", "addr:state": "CA", "addr:street_address": "2607 MOYERS RD", "amenity": "post_box", "collection_times": "Mo-Sa 10:00", "nsi_id": "unitedstatespostalservice-a77078", "operator": "United States Postal Service", "operator:short": "USPS", "operator:type": "public", "operator:wikidata": "Q668687", "ref": "9480600005"}, "type": "Feature"}
{"geometry": {"coordinates": [-122.34527405, 37.954669877], "type": "Point"}, "id": "-tP3a08B07bSgb4sANr_jq4r7l0=", "properties": {"@source_uri": "https://tools.usps.com/UspsToolsRestServices/rest/POLocator/findLocations", "@spider": "usps_collection_boxes", "addr:city": "RICHMOND", "addr:country": "US", "addr:postcode": "94806", "addr:state": "CA", "addr:street_address": "13201 SAN PABLO AVE", "amenity": "post_box", "collection_times": "Mo-Sa 10:00", "nsi_id": "unitedstatespostalservice-a77078", "operator": "United States Postal Service", "operator:short": "USPS", "operator:type": "public", "operator:wikidata": "Q668687", "ref": "9480600012"}, "type": "Feature"}
{"geometry": {"coordinates": [-122.333623, 37.955499], "type": "Point"}, "id": "Vc5R2CodK1PTUXOl6M9d4iOGulE=", "properties": {"@source_uri": "https://tools.usps.com/UspsToolsRestServices/rest/POLocator/findLocations", "@spider": "usps_collection_boxes", "addr:city": "RICHMOND", "addr:country": "US", "addr:postcode": "94806", "addr:state": "CA", "addr:street_address": "300 TOWN CTR", "amenity": "post_box", "collection_times": "Mo-Sa 10:00", "nsi_id": "unitedstatespostalservice-a77078", "operator": "United States Postal Service", "operator:short": "USPS", "operator:type": "public", "operator:wikidata": "Q668687", "ref": "9480600014"}, "type": "Feature"}
{"geometry": {"coordinates": [-122.338713, 37.969236], "type": "Point"}, "id": "UBXhosuS4HBv4YsQfdDQErOKW-Y=", "properties": {"@source_uri": "https://tools.usps.com/UspsToolsRestServices/rest/POLocator/findLocations", "@spider": "usps_collection_boxes", "addr:city": "RICHMOND", "addr:country": "US", "addr:postcode": "94806", "addr:state": "CA", "addr:street_address": "2600 MISSION BELL DR", "amenity": "post_box", "collection_times": "Mo-Sa 10:00", "nsi_id": "unitedstatespostalservice-a77078", "operator": "United States Postal Service", "operator:short": "USPS", "operator:type": "public", "operator:wikidata": "Q668687", "ref": "9480600016"}, "type": "Feature"}
{"geometry": {"coordinates": [-122.344576, 37.965829], "type": "Point"}, "id": "f1RCdUoWX5hsGbD8S5Xcqhwh9kg=", "properties": {"@source_uri": "https://tools.usps.com/UspsToolsRestServices/rest/POLocator/findLocations", "@spider": "usps_collection_boxes", "addr:city": "RICHMOND", "addr:country": "US", "addr:postcode": "94806", "addr:state": "CA", "addr:street_address": "14400 SAN PABLO AVE", "amenity": "post_box", "collection_times": "Mo-Sa 15:00", "note": "ON 12/24 AND 12/31, THIS BOX MAY BE COLLECTED AS EARLY AS 12 NOON.", "nsi_id": "unitedstatespostalservice-a77078", "operator": "United States Postal Service", "operator:short": "USPS", "operator:type": "public", "operator:wikidata": "Q668687", "ref": "9480600017"}, "type": "Feature"}
{"geometry": {"coordinates": [-122.339077, 37.974277], "type": "Point"}, "id": "BLaA352W0Epke6OWfE8x6jxhHHw=", "properties": {"@source_uri": "https://tools.usps.com/UspsToolsRestServices/rest/POLocator/findLocations", "@spider": "usps_collection_boxes", "addr:city": "RICHMOND", "addr:country": "US", "addr:postcode": "94806", "addr:state": "CA", "addr:street_address": "2500 LANCASTER DR", "amenity": "post_box", "collection_times": "Mo-Sa 10:00", "nsi_id": "unitedstatespostalservice-a77078", "operator": "United States Postal Service", "operator:short": "USPS", "operator:type": "public", "operator:wikidata": "Q668687", "ref": "9480600020"}, "type": "Feature"}
{"geometry": {"coordinates": [-122.3452740497, 37.9546698769], "type": "Point"}, "id": "qEebGy_JzlVuFgqJ4vl2-17JO8A=", "properties": {"@source_uri": "https://tools.usps.com/UspsToolsRestServices/rest/POLocator/findLocations", "@spider": "usps_collection_boxes", "addr:city": "RICHMOND", "addr:country": "US", "addr:postcode": "94806", "addr:state": "CA", "addr:street_address": "4180 LAKESIDE DR", "amenity": "post_box", "collection_times": "Mo-Sa 17:00", "note": "ON 12/24 AND 12/31, THIS BOX MAY BE COLLECTED AS EARLY AS 12 NOON.", "nsi_id": "unitedstatespostalservice-a77078", "operator": "United States Postal Service", "operator:short": "USPS", "operator:type": "public", "operator:wikidata": "Q668687", "ref": "9480600021"}, "type": "Feature"}
{"geometry": {"coordinates": [-122.329506, 37.981412], "type": "Point"}, "id": "EOsbCMTZS7L03DxggqkOI2SdP9o=", "properties": {"@source_uri": "https://tools.usps.com/UspsToolsRestServices/rest/POLocator/findLocations", "@spider": "usps_collection_boxes", "addr:city": "RICHMOND", "addr:country": "US", "addr:postcode": "94806", "addr:state": "CA", "addr:street_address": "2123 HILLTOP MALL RD", "amenity": "post_box", "collection_times": "Mo-Sa 15:00", "note": "ON 12/24 AND 12/31, THIS BOX MAY BE COLLECTED AS EARLY AS 12 NOON.", "nsi_id": "unitedstatespostalservice-a77078", "operator": "United States Postal Service", "operator:short": "USPS", "operator:type": "public", "operator:wikidata": "Q668687", "ref": "9480600022"}, "type": "Feature"}
{"geometry": {"coordinates": [-122.3459494131, 37.9612375687], "type": "Point"}, "id": "JPxLga3_NB7T_TLlDqrvc9i1ZyY=", "properties": {"@source_uri": "https://tools.usps.com/UspsToolsRestServices/rest/POLocator/findLocations", "@spider": "usps_collection_boxes", "addr:city": "RICHMOND", "addr:country": "US", "addr:postcode": "94806", "addr:state": "CA", "addr:street_address": "2080 23RD ST", "amenity": "post_box", "collection_times": "Mo-Fr 17:00; Sa 13:30", "note": "ON 12/24 AND 12/31, THIS BOX MAY BE COLLECTED AS EARLY AS 12 NOON.", "nsi_id": "unitedstatespostalservice-a77078", "operator": "United States Postal Service", "operator:short": "USPS", "operator:type": "public", "operator:wikidata": "Q668687", "ref": "9480600045"}, "type": "Feature"}
{"geometry": {"coordinates": [-122.3452740497, 37.9546698769], "type": "Point"}, "id": "elyWpmIKmjNjKXA3jMInzRUeNSU=", "properties": {"@source_uri": "https://tools.usps.com/UspsToolsRestServices/rest/POLocator/findLocations", "@spider": "usps_collection_boxes", "addr:city": "RICHMOND", "addr:country": "US", "addr:postcode": "94806", "addr:state": "CA", "addr:street_address": "3100 HILLTOP MALL RD", "amenity": "post_box", "collection_times": "Mo-Fr 15:00; Sa 13:00", "note": "ON 12/24 AND 12/31, THIS BOX MAY BE COLLECTED AS EARLY AS 12 NOON.", "nsi_id": "unitedstatespostalservice-a77078", "operator": "United States Postal Service", "operator:short": "USPS", "operator:type": "public", "operator:wikidata": "Q668687", "ref": "9480600047"}, "type": "Feature"}
{"geometry": {"coordinates": [-122.3201369784, 37.9837879902], "type": "Point"}, "id": "SU8SPBmmOrTRH2HrATW3YeqU7_g=", "properties": {"@source_uri": "https://tools.usps.com/UspsToolsRestServices/rest/POLocator/findLocations", "@spider": "usps_collection_boxes", "addr:city": "RICHMOND", "addr:country": "US", "addr:postcode": "94806", "addr:state": "CA", "addr:street_address": "3260 BLUME DR", "amenity": "post_box", "collection_times": "Mo-Fr 17:00; Sa 13:00", "note": "ON 12/24 AND 12/31, THIS BOX MAY BE COLLECTED AS EARLY AS 12 NOON.", "nsi_id": "unitedstatespostalservice-a77078", "operator": "United States Postal Service", "operator:short": "USPS", "operator:type": "public", "operator:wikidata": "Q668687", "ref": "9480600054"}, "type": "Feature"}
{"geometry": {"coordinates": [-122.3452740497, 37.9546698769], "type": "Point"}, "id": "o_55BMTTa3fq1Wn0B39FALIeoAM=", "properties": {"@source_uri": "https://tools.usps.com/UspsToolsRestServices/rest/POLocator/findLocations", "@spider": "usps_collection_boxes", "addr:city": "RICHMOND", "addr:country": "US", "addr:postcode": "94806", "addr:state": "CA", "addr:street_address": "2453 HILLTOP MALL RD", "amenity": "post_box", "collection_times": "Mo-Fr 15:00; Sa 13:00", "note": "ON 12/24 AND 12/31, THIS BOX MAY BE COLLECTED AS EARLY AS 12 NOON.", "nsi_id": "unitedstatespostalservice-a77078", "operator": "United States Postal Service", "operator:short": "USPS", "operator:type": "public", "operator:wikidata": "Q668687", "ref": "9480600055"}, "type": "Feature"}
{"geometry": {"coordinates": [-122.338951, 37.974521], "type": "Point"}, "id": "nngaOsVrPYe9Yghc_pYPlXZRk0Q=", "properties": {"@source_uri": "https://tools.usps.com/UspsToolsRestServices/rest/POLocator/findLocations", "@spider": "usps_collection_boxes", "addr:city": "RICHMOND", "addr:country": "US", "addr:postcode": "94806", "addr:state": "CA", "addr:street_address": "4180 LAKESIDE DR", "amenity": "post_box", "collection_times": "Mo-Sa 17:00", "note": "ON 12/24 AND 12/31, THIS BOX MAY BE COLLECTED AS EARLY AS 12 NOON.", "nsi_id": "unitedstatespostalservice-a77078", "operator": "United States Postal Service", "operator:short": "USPS", "operator:type": "public", "operator:wikidata": "Q668687", "ref": "9480600056"}, "type": "Feature"}
{"geometry": {"coordinates": [-122.3459494131, 37.9612375687], "type": "Point"}, "id": "uortD1ZG63dQqI2BKwXauYjdpbE=", "properties": {"@source_uri": "https://tools.usps.com/UspsToolsRestServices/rest/POLocator/findLocations", "@spider": "usps_collection_boxes", "addr:city": "RICHMOND", "addr:country": "US", "addr:postcode": "94806", "addr:state": "CA", "addr:street_address": "2080 23RD ST", "amenity": "post_box", "collection_times": "Mo-Fr 17:00; Sa 13:00", "indoor": "yes", "note": "ON 12/24 AND 12/31, THIS BOX MAY BE COLLECTED AS EARLY AS 12 NOON.", "nsi_id": "unitedstatespostalservice-a77078", "operator": "United States Postal Service", "operator:short": "USPS", "operator:type": "public", "operator:wikidata": "Q668687", "ref": "9480600067"}, "type": "Feature"}
