{"geometry": {"coordinates": [-122.478259, 37.889814], "type": "Point"}, "id": "egp5L1jGo9o4i84pGQSL0L8cvr8=", "properties": {"@spider": "usps_collection_boxes", "addr:city": "BELVEDERE", "addr:country": "US", "addr:full": "700 TIBURON BLVD", "addr:postcode": "94920", "addr:state": "CA", "brand": "USPS", "collection_times": "Mo-Sa 13:00", "name": "USPS COLLECTION BOX - BLUE BOX", "note": "ON 12/24 AND 12/31, THIS BOX MAY BE COLLECTED AS EARLY AS 12 NOON.", "ref": "9492000002"}, "type": "Feature"}
{"geometry": {"coordinates": [-122.460667, 37.875677], "type": "Point"}, "id": "q3Nns3oxF2diqHqiGpfs2BeUabc=", "properties": {"@spider": "usps_collection_boxes", "addr:city": "BELVEDERE", "addr:country": "US", "addr:full": "1530 TIBURON BLVD", "addr:postcode": "94920", "addr:state": "CA", "brand": "USPS", "collection_times": "Mo-Fr 14:00; Sa 13:00", "name": "USPS COLLECTION BOX - BLUE BOX", "note": "ON 12/24 AND 12/31, THIS BOX MAY BE COLLECTED AS EARLY AS 12 NOON.", "ref": "9492000003"}, "type": "Feature"}
{"geometry": {"coordinates": [-122.4578, 37.874422], "type": "Point"}, "id": "xFLhlTPJlLV4cEO8DG6vR8ICV2w=", "properties": {"@spider": "usps_collection_boxes", "addr:city": "BELVEDERE", "addr:country": "US", "addr:full": "1650 TIBURON BLVD", "addr:postcode": "94920", "addr:state": "CA", "brand": "USPS", "collection_times": "Mo-Fr 14:00; Sa 13:00", "name": "USPS COLLECTION BOX - BLUE BOX", "note": "ON 12/24 AND 12/31, THIS BOX MAY BE COLLECTED AS EARLY AS 12 NOON.", "ref": "9492000004"}, "type": "Feature"}
{"geometry": {"coordinates": [-122.461489, 37.877629], "type": "Point"}, "id": "dF69DJIA2Xql-FP3x3rJgnHhPIE=", "properties": {"@spider": "usps_collection_boxes", "addr:city": "BELVEDERE", "addr:country": "US", "addr:full": "1120 MAR WEST ST", "addr:postcode": "94920", "addr:state": "CA", "brand": "USPS", "collection_times": "Mo-Fr 14:00; Sa 13:00", "name": "USPS COLLECTION BOX - BLUE BOX", "note": "ON 12/24 AND 12/31, THIS BOX MAY BE COLLECTED AS EARLY AS 12 NOON.", "ref": "9492000005"}, "type": "Feature"}
{"geometry": {"coordinates": [-122.456124, 37.873861], "type": "Point"}, "id": "iSzq4T2SuwKmQJ7u3NaDDi6cyuA=", "properties": {"@spider": "usps_collection_boxes", "addr:city": "BELVEDERE", "addr:country": "US", "addr:full": "1701 TIBURON BLVD", "addr:postcode": "94920", "addr:state": "CA", "brand": "USPS", "collection_times": "Mo-Fr 14:00; Sa 13:00", "name": "USPS COLLECTION BOX - BLUE BOX", "note": "ON 12/24 AND 12/31, THIS BOX MAY BE COLLECTED AS EARLY AS 12 NOON.", "ref": "9492000006"}, "type": "Feature"}
{"geometry": {"coordinates": [-122.481774, 37.89308], "type": "Point"}, "id": "UGD2kp2RVAT5psfOCnQIjh-ESBQ=", "properties": {"@spider": "usps_collection_boxes", "addr:city": "BELVEDERE", "addr:country": "US", "addr:full": "105 AVENIDA MIRA FLORES", "addr:postcode": "94920", "addr:state": "CA", "brand": "USPS", "collection_times": "Mo-Sa 13:00", "name": "USPS COLLECTION BOX - BLUE BOX", "note": "ON 12/24 AND 12/31, THIS BOX MAY BE COLLECTED AS EARLY AS 12 NOON.", "ref": "9492000007"}, "type": "Feature"}
{"geometry": {"coordinates": [-122.500171, 37.89895], "type": "Point"}, "id": "ovYkqB_Av7FDkGeSt8RMSaHTtDA=", "properties": {"@spider": "usps_collection_boxes", "addr:city": "BELVEDERE", "addr:country": "US", "addr:full": "1 BLACKFIELD DR", "addr:postcode": "94920", "addr:state": "CA", "brand": "USPS", "collection_times": "Mo-Fr 14:00; Sa 13:00", "name": "USPS COLLECTION BOX - BLUE BOX", "note": "ON 12/24 AND 12/31, THIS BOX MAY BE COLLECTED AS EARLY AS 12 NOON.", "ref": "9492000008"}, "type": "Feature"}
{"geometry": {"coordinates": [-122.466997, 37.881997], "type": "Point"}, "id": "FnoJ5YWVxheYILGpQM6c5JNmvxw=", "properties": {"@spider": "usps_collection_boxes", "addr:city": "BELVEDERE", "addr:country": "US", "addr:full": "100 NEDS WAY", "addr:postcode": "94920", "addr:state": "CA", "brand": "USPS", "collection_times": "Mo-Sa 12:00", "name": "USPS COLLECTION BOX - BLUE BOX", "ref": "9492000009"}, "type": "Feature"}
{"geometry": {"coordinates": [-122.498414, 37.895419], "type": "Point"}, "id": "k_6KGemPuDNO9WKea5CsXRH4IK8=", "properties": {"@spider": "usps_collection_boxes", "addr:city": "BELVEDERE", "addr:country": "US", "addr:full": "126 BARBAREE WAY", "addr:postcode": "94920", "addr:state": "CA", "brand": "USPS", "collection_times": "Mo-Sa 13:00", "name": "USPS COLLECTION BOX - BLUE BOX", "note": "ON 12/24 AND 12/31, THIS BOX MAY BE COLLECTED AS EARLY AS 12 NOON.", "ref": "9492000010"}, "type": "Feature"}
{"geometry": {"coordinates": [-122.46321, 37.873127], "type": "Point"}, "id": "BUqsgw-383ZuOsT0oGFYZyPfDQc=", "properties": {"@spider": "usps_collection_boxes", "addr:city": "BELVEDERE", "addr:country": "US", "addr:full": "81 BEACH RD", "addr:postcode": "94920", "addr:state": "CA", "brand": "USPS", "collection_times": "Mo-Fr 14:00; Sa 13:00", "name": "USPS COLLECTION BOX - BLUE BOX", "note": "ON 12/24 AND 12/31, THIS BOX MAY BE COLLECTED AS EARLY AS 12 NOON.", "ref": "9492000011"}, "type": "Feature"}
{"geometry": {"coordinates": [-122.496337, 37.89772], "type": "Point"}, "id": "gtvFIcOE2DHV0KRtqSvZtfQw6HM=", "properties": {"@spider": "usps_collection_boxes", "addr:city": "BELVEDERE", "addr:country": "US", "addr:full": "34 CECILIA CT", "addr:postcode": "94920", "addr:state": "CA", "brand": "USPS", "collection_times": "Mo-Sa 13:00", "name": "USPS COLLECTION BOX - BLUE BOX", "note": "ON 12/24 AND 12/31, THIS BOX MAY BE COLLECTED AS EARLY AS 12 NOON.", "ref": "9492000013"}, "type": "Feature"}
{"geometry": {"coordinates": [-122.4594708971, 37.8748080957], "type": "Point"}, "id": "-wjzPMQJFpWaDtmRd__yZTxmBS4=", "properties": {"@spider": "usps_collection_boxes", "addr:city": "BELVEDERE", "addr:country": "US", "addr:full": "6 BEACH RD", "addr:postcode": "94920", "addr:state": "CA", "brand": "USPS", "collection_times": "Mo-Fr 17:00; Sa 16:15", "name": "USPS COLLECTION BOX - BLUE BOX", "note": "ON 12/24 AND 12/31, THIS BOX MAY BE COLLECTED AS EARLY AS 12 NOON.", "ref": "9492000014"}, "type": "Feature"}
{"geometry": {"coordinates": [-122.4594708971, 37.8748080957], "type": "Point"}, "id": "qZClB5kpkvUvSg-T2Y_o3T6o1YQ=", "properties": {"@spider": "usps_collection_boxes", "addr:city": "BELVEDERE", "addr:country": "US", "addr:full": "6 BEACH RD", "addr:postcode": "94920", "addr:state": "CA", "brand": "USPS", "collection_times": "Mo-Fr 17:00; Sa 16:15", "name": "USPS COLLECTION BOX - PO LOBBY", "note": "ON 12/24 AND 12/31, THIS BOX MAY BE COLLECTED AS EARLY AS 12 NOON.", "ref": "9492000015"}, "type": "Feature"}
{"geometry": {"coordinates": [-122.477221, 37.91268], "type": "Point"}, "id": "6XYC9l1eQtRBLAZ8XpwTE0tz-Co=", "properties": {"@spider": "usps_collection_boxes", "addr:city": "BELVEDERE", "addr:country": "US", "addr:full": "225 MARTINIQUE AVE", "addr:postcode": "94920", "addr:state": "CA", "brand": "USPS", "collection_times": "Mo-Sa 13:00", "name": "USPS COLLECTION BOX - BLUE BOX", "note": "ON 12/24 AND 12/31, THIS BOX MAY BE COLLECTED AS EARLY AS 12 NOON.", "ref": "9492000017"}, "type": "Feature"}
{"geometry": {"coordinates": [-122.4594708971, 37.8748080957], "type": "Point"}, "id": "wTe6io0VQGOFemdZVKPDY3RJ6MI=", "properties": {"@spider": "usps_collection_boxes", "addr:city": "BELVEDERE", "addr:country": "US", "addr:full": "6 BEACH RD", "addr:postcode": "94920", "addr:state": "CA", "brand": "USPS", "collection_times": "Mo-Fr 17:00; Sa 13:00", "name": "USPS COLLECTION BOX - PO LOBBY", "note": "ON 12/24 AND 12/31, THIS BOX MAY BE COLLECTED AS EARLY AS 12 NOON.", "ref": "9492000022"}, "type": "Feature"}
{"geometry": {"coordinates": [-122.9739820797, 38.3439977699], "type": "Point"}, "id": "gezWFP6_uFZnu1ZbvkBVpJC-x7g=", "properties": {"@spider": "usps_collection_boxes", "addr:city": "BODEGA", "addr:country": "US", "addr:full": "17160 BODEGA HWY", "addr:postcode": "94922", "addr:state": "CA", "brand": "USPS", "collection_times": "Mo-Fr 14:00", "name": "USPS COLLECTION BOX - PO LOBBY", "note": "ON 12/24 AND 12/31, THIS BOX MAY BE COLLECTED AS EARLY AS 12 NOON.", "ref": "9492200002"}, "type": "Feature"}
{"geometry": {"coordinates": [-122.9739820797, 38.3439977699], "type": "Point"}, "id": "VrLUHCcM6gedROaV1_TJTSyqhhg=", "properties": {"@spider": "usps_collection_boxes", "addr:city": "BODEGA", "addr:country": "US", "addr:full": "17160 BODEGA HWY", "addr:postcode": "94922", "addr:state": "CA", "brand": "USPS", "collection_times": "Mo-Fr 16:30", "name": "USPS COLLECTION BOX - PO LOBBY", "note": "ON 12/24 AND 12/31, THIS BOX MAY BE COLLECTED AS EARLY AS 12 NOON.", "ref": "9492200003"}, "type": "Feature"}
{"geometry": {"coordinates": [-123.047951, 38.334781], "type": "Point"}, "id": "h5pCOcJ4Nt2BIgw4kpnZ9LnTov8=", "properties": {"@spider": "usps_collection_boxes", "addr:city": "BODEGA BAY", "addr:country": "US", "addr:full": "1370 BODEGA AVE", "addr:postcode": "94923", "addr:state": "CA", "brand": "USPS", "collection_times": "Mo-Fr 11:30; Sa 10:30", "name": "USPS COLLECTION BOX - BLUE BOX", "ref": "9492300005"}, "type": "Feature"}
{"geometry": {"coordinates": [-123.0385742301, 38.3235541211], "type": "Point"}, "id": "hfUq3skZ1LysyfU9gyo7MUy3Tyc=", "properties": {"@spider": "usps_collection_boxes", "addr:city": "BODEGA BAY", "addr:country": "US", "addr:full": "537 SMITH BROTHERS RD", "addr:postcode": "94923", "addr:state": "CA", "brand": "USPS", "collection_times": "Mo-Fr 14:00; Sa 10:45", "name": "USPS COLLECTION BOX - PO LOBBY", "note": "ON 12/24 AND 12/31, THIS BOX MAY BE COLLECTED AS EARLY AS 12 NOON.", "ref": "9492300006"}, "type": "Feature"}
{"geometry": {"coordinates": [-123.0385742301, 38.3235541211], "type": "Point"}, "id": "7UWmmgMYzZLoRGOoG0Dwae-cv_U=", "properties": {"@spider": "usps_collection_boxes", "addr:city": "BODEGA BAY", "addr:country": "US", "addr:full": "537 SMITH BROTHERS RD", "addr:postcode": "94923", "addr:state": "CA", "brand": "USPS", "collection_times": "Mo-Fr 13:45; Sa 10:45", "name": "USPS COLLECTION BOX - BLUE BOX", "note": "ON 12/24 AND 12/31, THIS BOX MAY BE COLLECTED AS EARLY AS 12 NOON.", "ref": "9492300007"}, "type": "Feature"}
{"geometry": {"coordinates": [-123.0385742301, 38.3235541211], "type": "Point"}, "id": "RMGLyqo1PRIkypKMI_z0qyu4l0E=", "properties": {"@spider": "usps_collection_boxes", "addr:city": "BODEGA BAY", "addr:country": "US", "addr:full": "537 SMITH BROTHERS RD", "addr:postcode": "94923", "addr:state": "CA", "brand": "USPS", "collection_times": "Mo-Fr 17:00", "name": "USPS COLLECTION BOX - PO LOBBY", "note": "ON 12/24 AND 12/31, THIS BOX MAY BE COLLECTED AS EARLY AS 12 NOON.", "ref": "9492300009"}, "type": "Feature"}
{"geometry": {"coordinates": [-122.686944, 37.908154], "type": "Point"}, "id": "tHHBJcvUoQiMurIf6rV012inekE=", "properties": {"@spider": "usps_collection_boxes", "addr:city": "BOLINAS", "addr:country": "US", "addr:full": "20 BRIGHTON AVE", "addr:postcode": "94924", "addr:state": "CA", "brand": "USPS", "collection_times": "Mo-Fr 16:00; Sa 11:00", "name": "USPS COLLECTION BOX - BLUE BOX", "note": "ON 12/24 AND 12/31, THIS BOX MAY BE COLLECTED AS EARLY AS 12 NOON.", "ref": "9492400003"}, "type": "Feature"}
{"geometry": {"coordinates": [-122.686944, 37.908154], "type": "Point"}, "id": "wddRrSEAhoHB1QmRWl_bGtx4rq4=", "properties": {"@spider": "usps_collection_boxes", "addr:city": "BOLINAS", "addr:country": "US", "addr:full": "20 BRIGHTON AVE", "addr:postcode": "94924", "addr:state": "CA", "brand": "USPS", "collection_times": "Mo-Fr 16:00; Sa 11:00", "name": "USPS COLLECTION BOX - PO LOBBY", "note": "ON 12/24 AND 12/31, THIS BOX MAY BE COLLECTED AS EARLY AS 12 NOON.", "ref": "9492400004"}, "type": "Feature"}
{"geometry": {"coordinates": [-122.6869775023, 37.9083211399], "type": "Point"}, "id": "p_rfAMtK-zn2JeLAtlPcO8ES2YU=", "properties": {"@spider": "usps_collection_boxes", "addr:city": "BOLINAS", "addr:country": "US", "addr:full": "20 BRIGHTON AVE", "addr:postcode": "94924", "addr:state": "CA", "brand": "USPS", "collection_times": "Mo-Fr 16:00", "name": "USPS COLLECTION BOX - PO LOBBY", "note": "ON 12/24 AND 12/31, THIS BOX MAY BE COLLECTED AS EARLY AS 12 NOON.", "ref": "9492400005"}, "type": "Feature"}
{"geometry": {"coordinates": [-122.706173, 38.346056], "type": "Point"}, "id": "xRLY7e9drq7VfDoT7NPboLhnjiE=", "properties": {"@spider": "usps_collection_boxes", "addr:city": "ROHNERT PARK", "addr:country": "US", "addr:full": "150 RALEY'S TOWNE CNT", "addr:postcode": "94928", "addr:state": "CA", "brand": "USPS", "collection_times": "Mo-Fr 17:00; Sa 15:30", "name": "USPS COLLECTION BOX - BLUE BOX", "note": "ON 12/24 AND 12/31, THIS BOX MAY BE COLLECTED AS EARLY AS 12 NOON.", "ref": "9492800000"}, "type": "Feature"}
{"geometry": {"coordinates": [-122.710341, 38.35336], "type": "Point"}, "id": "h9i-2CUtWGE4oXbquEH15UzUb8w=", "properties": {"@spider": "usps_collection_boxes", "addr:city": "ROHNERT PARK", "addr:country": "US", "addr:full": "100 PROFESSIONAL CENTER DR", "addr:postcode": "94928", "addr:state": "CA", "brand": "USPS", "collection_times": "Mo-Sa 13:00", "name": "USPS COLLECTION BOX - BLUE BOX", "note": "ON 12/24 AND 12/31, THIS BOX MAY BE COLLECTED AS EARLY AS 12 NOON.", "ref": "9492800003"}, "type": "Feature"}
{"geometry": {"coordinates": [-122.7113318503, 38.3575033173], "type": "Point"}, "id": "jJQ7dE6dZ_isgdSc6DAfHTsoi2Q=", "properties": {"@spider": "usps_collection_boxes", "addr:city": "ROHNERT PARK", "addr:country": "US", "addr:full": "5460 STATE FARM DR", "addr:postcode": "94928", "addr:state": "CA", "brand": "USPS", "collection_times": "Mo-Sa 13:00", "name": "USPS COLLECTION BOX - BLUE BOX", "note": "ON 12/24 AND 12/31, THIS BOX MAY BE COLLECTED AS EARLY AS 12 NOON.", "ref": "9492800004"}, "type": "Feature"}
{"geometry": {"coordinates": [-122.72159, 38.351618], "type": "Point"}, "id": "vKuAmCkmqQ1oACdfKwhQXJUTFD0=", "properties": {"@spider": "usps_collection_boxes", "addr:city": "ROHNERT PARK", "addr:country": "US", "addr:full": "5967 LABATH AVE", "addr:postcode": "94928", "addr:state": "CA", "brand": "USPS", "collection_times": "Mo-Fr 14:00; Sa 13:00", "name": "USPS COLLECTION BOX - BLUE BOX", "note": "ON 12/24 AND 12/31, THIS BOX MAY BE COLLECTED AS EARLY AS 12 NOON.", "ref": "9492800008"}, "type": "Feature"}
{"geometry": {"coordinates": [-122.693286, 38.36179], "type": "Point"}, "id": "3JOzZLFpdJ2oKjhoxM8GwFQeVs0=", "properties": {"@spider": "usps_collection_boxes", "addr:city": "ROHNERT PARK", "addr:country": "US", "addr:full": "901 GOLF COURSE DR", "addr:postcode": "94928", "addr:state": "CA", "brand": "USPS", "collection_times": "Mo-Fr 14:00; Sa 13:00", "name": "USPS COLLECTION BOX - BLUE BOX", "note": "ON 12/24 AND 12/31, THIS BOX MAY BE COLLECTED AS EARLY AS 12 NOON.", "ref": "9492800009"}, "type": "Feature"}
{"geometry": {"coordinates": [-122.719624, 38.346735], "type": "Point"}, "id": "F704D5YK5DEVwtMdBM9DzaVCxBM=", "properties": {"@spider": "usps_collection_boxes", "addr:city": "ROHNERT PARK", "addr:country": "US", "addr:full": "475 ROHNERT PARK EXPY W", "addr:postcode": "94928", "addr:state": "CA", "brand": "USPS", "collection_times": "Mo-Fr 14:00; Sa 13:00", "name": "USPS COLLECTION BOX - BLUE BOX", "note": "ON 12/24 AND 12/31, THIS BOX MAY BE COLLECTED AS EARLY AS 12 NOON.", "ref": "9492800013"}, "type": "Feature"}
{"geometry": {"coordinates": [-122.715201, 38.345473], "type": "Point"}, "id": "q6Iz6xYFHfjDF347XjcK44i8y0k=", "properties": {"@spider": "usps_collection_boxes", "addr:city": "ROHNERT PARK", "addr:country": "US", "addr:full": "6480 REDWOOD DR", "addr:postcode": "94928", "addr:state": "CA", "brand": "USPS", "collection_times": "Mo-Fr 14:00; Sa 13:00", "name": "USPS COLLECTION BOX - BLUE BOX", "note": "ON 12/24 AND 12/31, THIS BOX MAY BE COLLECTED AS EARLY AS 12 NOON.", "ref": "9492800015"}, "type": "Feature"}
{"geometry": {"coordinates": [-122.709897, 38.342511], "type": "Point"}, "id": "MPfycCxSXz24cewzRmtW96i5PPw=", "properties": {"@spider": "usps_collection_boxes", "addr:city": "ROHNERT PARK", "addr:country": "US", "addr:full": "130 AVRAM AVE", "addr:postcode": "94928", "addr:state": "CA", "brand": "USPS", "collection_times": "Mo-Sa 13:30", "name": "USPS COLLECTION BOX - BLUE BOX", "note": "ON 12/24 AND 12/31, THIS BOX MAY BE COLLECTED AS EARLY AS 12 NOON.", "ref": "9492800021"}, "type": "Feature"}
{"geometry": {"coordinates": [-122.710711, 38.346999], "type": "Point"}, "id": "Jo2pgu4tBk8glN1RCMgVG10xnew=", "properties": {"@spider": "usps_collection_boxes", "addr:city": "ROHNERT PARK", "addr:country": "US", "addr:full": "6355 COMMERCE BLVD", "addr:postcode": "94928", "addr:state": "CA", "brand": "USPS", "collection_times": "Mo-Sa 13:00", "name": "USPS COLLECTION BOX - BLUE BOX", "note": "ON 12/24 AND 12/31, THIS BOX MAY BE COLLECTED AS EARLY AS 12 NOON.", "ref": "9492800022"}, "type": "Feature"}
{"geometry": {"coordinates": [-122.708664, 38.347156], "type": "Point"}, "id": "smGbmxVaYBwWXaqeaEPIlPerO0I=", "properties": {"@spider": "usps_collection_boxes", "addr:city": "ROHNERT PARK", "addr:country": "US", "addr:full": "6350 COMMERCE BLVD", "addr:postcode": "94928", "addr:state": "CA", "brand": "USPS", "collection_times": "Mo-Sa 13:00", "name": "USPS COLLECTION BOX - BLUE BOX", "note": "ON 12/24 AND 12/31, THIS BOX MAY BE COLLECTED AS EARLY AS 12 NOON.", "ref": "9492800023"}, "type": "Feature"}
{"geometry": {"coordinates": [-122.685157, 38.349432], "type": "Point"}, "id": "gVMoT61ohFeQ-0gPa3ODlEI_pDg=", "properties": {"@spider": "usps_collection_boxes", "addr:city": "ROHNERT PARK", "addr:country": "US", "addr:full": "5200 SNYDER LN", "addr:postcode": "94928", "addr:state": "CA", "brand": "USPS", "collection_times": "Mo-Sa 11:00", "name": "USPS COLLECTION BOX - BLUE BOX", "ref": "9492800024"}, "type": "Feature"}
{"geometry": {"coordinates": [-122.709718, 38.363789], "type": "Point"}, "id": "lBvQVDz4EgGYI0qwoEDsBCvwMWQ=", "properties": {"@spider": "usps_collection_boxes", "addr:city": "ROHNERT PARK", "addr:country": "US", "addr:full": "101 GOLF COURSE DR", "addr:postcode": "94928", "addr:state": "CA", "brand": "USPS", "collection_times": "Mo-Sa 14:00", "name": "USPS COLLECTION BOX - BLUE BOX", "note": "ON 12/24 AND 12/31, THIS BOX MAY BE COLLECTED AS EARLY AS 12 NOON.", "ref": "9492800025"}, "type": "Feature"}
{"geometry": {"coordinates": [-122.695821, 38.349642], "type": "Point"}, "id": "fQVpYqWkDuH4dAdvAA8V3_Nw4UM=", "properties": {"@spider": "usps_collection_boxes", "addr:city": "ROHNERT PARK", "addr:country": "US", "addr:full": "6141 COUNTRY CLUB DR", "addr:postcode": "94928", "addr:state": "CA", "brand": "USPS", "collection_times": "Mo-Sa 13:00", "name": "USPS COLLECTION BOX - BLUE BOX", "note": "ON 12/24 AND 12/31, THIS BOX MAY BE COLLECTED AS EARLY AS 12 NOON.", "ref": "9492800027"}, "type": "Feature"}
{"geometry": {"coordinates": [-122.686689, 38.352613], "type": "Point"}, "id": "S3Q8VmOvSHunBilPDIwfbpoT_cQ=", "properties": {"@spider": "usps_collection_boxes", "addr:city": "ROHNERT PARK", "addr:country": "US", "addr:full": "5099 SNYDER LN", "addr:postcode": "94928", "addr:state": "CA", "brand": "USPS", "collection_times": "Mo-Sa 11:30", "name": "USPS COLLECTION BOX - BLUE BOX", "ref": "9492800028"}, "type": "Feature"}
{"geometry": {"coordinates": [-122.708443, 38.349863], "type": "Point"}, "id": "1Fg7nmm1auC97GvLQowbQevV5uw=", "properties": {"@spider": "usps_collection_boxes", "addr:city": "ROHNERT PARK", "addr:country": "US", "addr:full": "2 PADRE PKWY", "addr:postcode": "94928", "addr:state": "CA", "brand": "USPS", "collection_times": "Mo-Sa 13:00", "name": "USPS COLLECTION BOX - BLUE BOX", "note": "ON 12/24 AND 12/31, THIS BOX MAY BE COLLECTED AS EARLY AS 12 NOON.", "ref": "9492800030"}, "type": "Feature"}
{"geometry": {"coordinates": [-122.708424, 38.349872], "type": "Point"}, "id": "iw6DJ3mP4uvx7YCvH7vS6k-I1aw=", "properties": {"@spider": "usps_collection_boxes", "addr:city": "ROHNERT PARK", "addr:country": "US", "addr:full": "2 PADRE PKWY", "addr:postcode": "94928", "addr:state": "CA", "brand": "USPS", "collection_times": "Mo-Sa 13:00", "name": "USPS COLLECTION BOX - EXPRESS", "note": "ON 12/24 AND 12/31, THIS BOX MAY BE COLLECTED AS EARLY AS 12 NOON.", "ref": "9492800031"}, "type": "Feature"}
{"geometry": {"coordinates": [-122.70972, 38.363784], "type": "Point"}, "id": "rq1KoURHYo9Z2t--8oBc93b8we8=", "properties": {"@spider": "usps_collection_boxes", "addr:city": "ROHNERT PARK", "addr:country": "US", "addr:full": "101 GOLF COURSE DR", "addr:postcode": "94928", "addr:state": "CA", "brand": "USPS", "collection_times": "Mo-Sa 14:00", "name": "USPS COLLECTION BOX - BLUE BOX", "note": "ON 12/24 AND 12/31, THIS BOX MAY BE COLLECTED AS EARLY AS 12 NOON.", "ref": "9492800032"}, "type": "Feature"}
{"geometry": {"coordinates": [-122.685551, 38.370747], "type": "Point"}, "id": "dyeM_Yj_hLYNoqv9Bswx1W2MLbo=", "properties": {"@spider": "usps_collection_boxes", "addr:city": "ROHNERT PARK", "addr:country": "US", "addr:full": "4331 GOODSON WAY", "addr:postcode": "94928", "addr:state": "CA", "brand": "USPS", "collection_times": "Mo-Sa 13:00", "name": "USPS COLLECTION BOX - BLUE BOX", "note": "ON 12/24 AND 12/31, THIS BOX MAY BE COLLECTED AS EARLY AS 12 NOON.", "ref": "9492800033"}, "type": "Feature"}
{"geometry": {"coordinates": [-122.706225, 38.346699], "type": "Point"}, "id": "yzSx5Plk34BEhcIYvhdsRt78SY8=", "properties": {"@spider": "usps_collection_boxes", "addr:city": "ROHNERT PARK", "addr:country": "US", "addr:full": "150 RALEY'S TOWNE CNT", "addr:postcode": "94928", "addr:state": "CA", "brand": "USPS", "collection_times": "Mo-Fr 17:00; Sa 15:30", "name": "USPS COLLECTION BOX - PO LOBBY", "note": "ON 12/24 AND 12/31, THIS BOX MAY BE COLLECTED AS EARLY AS 12 NOON.", "ref": "9492800035"}, "type": "Feature"}
{"geometry": {"coordinates": [-122.72159, 38.351604], "type": "Point"}, "id": "isnt9lMuPJp3FH5g0QsWAMDaYkg=", "properties": {"@spider": "usps_collection_boxes", "addr:city": "ROHNERT PARK", "addr:country": "US", "addr:full": "5967 LABATH AVE", "addr:postcode": "94928", "addr:state": "CA", "brand": "USPS", "collection_times": "Mo-Fr 14:00; Sa 13:00", "name": "USPS COLLECTION BOX - BLUE BOX", "note": "ON 12/24 AND 12/31, THIS BOX MAY BE COLLECTED AS EARLY AS 12 NOON.", "ref": "9492800050"}, "type": "Feature"}
{"geometry": {"coordinates": [-122.7058093895, 38.3468966029], "type": "Point"}, "id": "N8ERnAdwmol9WVqG7yS-W5BTbvY=", "properties": {"@spider": "usps_collection_boxes", "addr:city": "ROHNERT PARK", "addr:country": "US", "addr:full": "150 RALEYS TOWNE CTR", "addr:postcode": "94928", "addr:state": "CA", "brand": "USPS", "collection_times": "Mo-Fr 17:00; Sa 15:30", "name": "USPS COLLECTION BOX - APC", "note": "ON 12/24 AND 12/31, THIS BOX MAY BE COLLECTED AS EARLY AS 12 NOON.", "ref": "9492800051"}, "type": "Feature"}
{"geometry": {"coordinates": [-122.71374, 38.355527], "type": "Point"}, "id": "Tz4QitdSexceYMUba2aX7CA4fE8=", "properties": {"@spider": "usps_collection_boxes", "addr:city": "ROHNERT PARK", "addr:country": "US", "addr:full": "5665 REDWOOD DR", "addr:postcode": "94928", "addr:state": "CA", "brand": "USPS", "collection_times": "Mo-Sa 13:00", "name": "USPS COLLECTION BOX - BLUE BOX", "note": "ON 12/24 AND 12/31, THIS BOX MAY BE COLLECTED AS EARLY AS 12 NOON.", "ref": "9492800055"}, "type": "Feature"}
{"geometry": {"coordinates": [-122.7058093895, 38.3468966029], "type": "Point"}, "id": "dcOPBwRNxyiD3fymUEOSkkMY24k=", "properties": {"@spider": "usps_collection_boxes", "addr:city": "ROHNERT PARK", "addr:country": "US", "addr:full": "150 RALEYS TOWNE CTR", "addr:postcode": "94928", "addr:state": "CA", "brand": "USPS", "collection_times": "Mo-Fr 17:00", "name": "USPS COLLECTION BOX - PO LOBBY", "note": "ON 12/24 AND 12/31, THIS BOX MAY BE COLLECTED AS EARLY AS 12 NOON.", "ref": "9492800065"}, "type": "Feature"}
{"geometry": {"coordinates": [-122.96155, 38.249664], "type": "Point"}, "id": "FtATeC24vn5s_9vw1uPX_2JkPoY=", "properties": {"@spider": "usps_collection_boxes", "addr:city": "DILLON BEACH", "addr:country": "US", "addr:full": "52 CYPRESS AVE", "addr:postcode": "94929", "addr:state": "CA", "brand": "USPS", "collection_times": "Mo-Fr 13:30", "name": "USPS COLLECTION BOX - PO LOBBY", "note": "ON 12/24 AND 12/31, THIS BOX MAY BE COLLECTED AS EARLY AS 12 NOON.", "ref": "9492900003"}, "type": "Feature"}
{"geometry": {"coordinates": [-122.96155, 38.249664], "type": "Point"}, "id": "x5PRUFakuS06PtpR9vWi1xfHuj8=", "properties": {"@spider": "usps_collection_boxes", "addr:city": "DILLON BEACH", "addr:country": "US", "addr:full": "52 CYPRESS AVE", "addr:postcode": "94929", "addr:state": "CA", "brand": "USPS", "collection_times": "Mo-Fr 13:30", "name": "USPS COLLECTION BOX - BLUE BOX", "note": "ON 12/24 AND 12/31, THIS BOX MAY BE COLLECTED AS EARLY AS 12 NOON.", "ref": "9492900004"}, "type": "Feature"}
{"geometry": {"coordinates": [-122.9644781303, 38.2498730985], "type": "Point"}, "id": "_ct-qFzrq091ZCrnNb25wsgWvl4=", "properties": {"@spider": "usps_collection_boxes", "addr:city": "DILLON BEACH", "addr:country": "US", "addr:full": "52 CYPRESS AVE", "addr:postcode": "94929", "addr:state": "CA", "brand": "USPS", "collection_times": "Mo-Fr 13:30", "name": "USPS COLLECTION BOX - PO LOBBY", "note": "ON 12/24 AND 12/31, THIS BOX MAY BE COLLECTED AS EARLY AS 12 NOON.", "ref": "9492900006"}, "type": "Feature"}
{"geometry": {"coordinates": [-122.6992358689, 38.3286282965], "type": "Point"}, "id": "FFGB1x5r0ZySItOp3qMbLK6m8UY=", "properties": {"@spider": "usps_collection_boxes", "addr:city": "COTATI", "addr:country": "US", "addr:full": "502 E COTATI AVE", "addr:postcode": "94931", "addr:state": "CA", "brand": "USPS", "collection_times": "Mo-Fr 17:00; Sa 15:30", "name": "USPS COLLECTION BOX - BLUE BOX", "note": "ON 12/24 AND 12/31, THIS BOX MAY BE COLLECTED AS EARLY AS 12 NOON.", "ref": "9493100000"}, "type": "Feature"}
{"geometry": {"coordinates": [-122.705041, 38.325409], "type": "Point"}, "id": "sRyFSRa7ig1ugTZgl0Z7A7L0c94=", "properties": {"@spider": "usps_collection_boxes", "addr:city": "COTATI", "addr:country": "US", "addr:full": "8252 OLD REDWOOD HWY", "addr:postcode": "94931", "addr:state": "CA", "brand": "USPS", "collection_times": "Mo-Fr 15:00; Sa 13:00", "name": "USPS COLLECTION BOX - BLUE BOX", "note": "ON 12/24 AND 12/31, THIS BOX MAY BE COLLECTED AS EARLY AS 12 NOON.", "ref": "9493100002"}, "type": "Feature"}
{"geometry": {"coordinates": [-122.697298, 38.321521], "type": "Point"}, "id": "jG2ILiu_PjinAQRdV2dhSiI_mvI=", "properties": {"@spider": "usps_collection_boxes", "addr:city": "COTATI", "addr:country": "US", "addr:full": "102 VERONDA AVE", "addr:postcode": "94931", "addr:state": "CA", "brand": "USPS", "collection_times": "Mo-Sa 10:00", "name": "USPS COLLECTION BOX - BLUE BOX", "ref": "9493100003"}, "type": "Feature"}
{"geometry": {"coordinates": [-122.708251, 38.323714], "type": "Point"}, "id": "T5Ox0ZzoBts51k2r-KYV2ZtVy3Y=", "properties": {"@spider": "usps_collection_boxes", "addr:city": "COTATI", "addr:country": "US", "addr:full": "201 W SIERRA AVE", "addr:postcode": "94931", "addr:state": "CA", "brand": "USPS", "collection_times": "Mo-Fr 15:00; Sa 13:00", "name": "USPS COLLECTION BOX - BLUE BOX", "note": "ON 12/24 AND 12/31, THIS BOX MAY BE COLLECTED AS EARLY AS 12 NOON.", "ref": "9493100004"}, "type": "Feature"}
{"geometry": {"coordinates": [-122.708345, 38.327944], "type": "Point"}, "id": "euTfN_rgrFVzzGoCJ8Hsa9cFxjo=", "properties": {"@spider": "usps_collection_boxes", "addr:city": "COTATI", "addr:country": "US", "addr:full": "7991 OLD REDWOOD HWY", "addr:postcode": "94931", "addr:state": "CA", "brand": "USPS", "collection_times": "Mo-Fr 15:00; Sa 13:00", "name": "USPS COLLECTION BOX - BLUE BOX", "note": "ON 12/24 AND 12/31, THIS BOX MAY BE COLLECTED AS EARLY AS 12 NOON.", "ref": "9493100006"}, "type": "Feature"}
{"geometry": {"coordinates": [-122.6992358689, 38.3286282965], "type": "Point"}, "id": "Wj8AmrWweUB3bbxxHgnMQwk38GU=", "properties": {"@spider": "usps_collection_boxes", "addr:city": "COTATI", "addr:country": "US", "addr:full": "502 E COTATI AVE", "addr:postcode": "94931", "addr:state": "CA", "brand": "USPS", "collection_times": "Mo-Fr 17:00", "name": "USPS COLLECTION BOX - PO LOBBY", "note": "ON 12/24 AND 12/31, THIS BOX MAY BE COLLECTED AS EARLY AS 12 NOON.", "ref": "9493100007"}, "type": "Feature"}
{"geometry": {"coordinates": [-122.6992358689, 38.3286282965], "type": "Point"}, "id": "AZoFzMHxNcCP8f02pGf0KLg8Yio=", "properties": {"@spider": "usps_collection_boxes", "addr:city": "COTATI", "addr:country": "US", "addr:full": "502 E COTATI AVE", "addr:postcode": "94931", "addr:state": "CA", "brand": "USPS", "collection_times": "Mo-Fr 17:00", "name": "USPS COLLECTION BOX - PO LOBBY", "note": "ON 12/24 AND 12/31, THIS BOX MAY BE COLLECTED AS EARLY AS 12 NOON.", "ref": "9493100008"}, "type": "Feature"}
{"geometry": {"coordinates": [-122.8517525573, 38.0966412054], "type": "Point"}, "id": "n2MyVEb3nBDeCQIdtQUGqdj1wC8=", "properties": {"@spider": "usps_collection_boxes", "addr:city": "INVERNESS", "addr:country": "US", "addr:full": "12781 SIR FRANCIS DRAKE BLVD", "addr:postcode": "94937", "addr:state": "CA", "brand": "USPS", "collection_times": "Mo-Fr 15:30; Sa 12:00", "name": "USPS COLLECTION BOX - PO LOBBY", "note": "ON 12/24 AND 12/31, THIS BOX MAY BE COLLECTED AS EARLY AS 12 NOON.", "ref": "9493700001"}, "type": "Feature"}
{"geometry": {"coordinates": [-122.8517525573, 38.0966412054], "type": "Point"}, "id": "MZFSsuQ7HvyF7UjuHso9n8uxS4E=", "properties": {"@spider": "usps_collection_boxes", "addr:city": "INVERNESS", "addr:country": "US", "addr:full": "12781 SIR FRANCIS DRAKE BLVD", "addr:postcode": "94937", "addr:state": "CA", "brand": "USPS", "collection_times": "Mo-Fr 16:30", "name": "USPS COLLECTION BOX - PO LOBBY", "note": "ON 12/24 AND 12/31, THIS BOX MAY BE COLLECTED AS EARLY AS 12 NOON.", "ref": "9493700002"}, "type": "Feature"}
{"geometry": {"coordinates": [-122.887733, 38.151418], "type": "Point"}, "id": "p7ctv9wjn0kMOshUEFbkXn0oslQ=", "properties": {"@spider": "usps_collection_boxes", "addr:city": "MARSHALL", "addr:country": "US", "addr:full": "19200 HIGHWAY 1", "addr:postcode": "94940", "addr:state": "CA", "brand": "USPS", "collection_times": "Mo-Fr 13:00", "name": "USPS COLLECTION BOX - PO LOBBY", "note": "ON 12/24 AND 12/31, THIS BOX MAY BE COLLECTED AS EARLY AS 12 NOON.", "ref": "9494000002"}, "type": "Feature"}
{"geometry": {"coordinates": [-122.8877274576, 38.1514169012], "type": "Point"}, "id": "9AmLsxeCx4toZgm02NRnqrVloDs=", "properties": {"@spider": "usps_collection_boxes", "addr:city": "MARSHALL", "addr:country": "US", "addr:full": "19200 HIGHWAY 1", "addr:postcode": "94940", "addr:state": "CA", "brand": "USPS", "collection_times": "Mo-Fr 13:00", "name": "USPS COLLECTION BOX - PO LOBBY", "note": "ON 12/24 AND 12/31, THIS BOX MAY BE COLLECTED AS EARLY AS 12 NOON.", "ref": "9494000003"}, "type": "Feature"}
{"geometry": {"coordinates": [-122.504865, 37.89731], "type": "Point"}, "id": "avS7eKOCqzHu3jOxezZsV6dcbVU=", "properties": {"@spider": "usps_collection_boxes", "addr:city": "MILL VALLEY", "addr:country": "US", "addr:full": "117 E STRAWBERRY DR", "addr:postcode": "94941", "addr:state": "CA", "brand": "USPS", "collection_times": "Mo-Sa 13:00", "name": "USPS COLLECTION BOX - BLUE BOX", "note": "ON 12/24 AND 12/31, THIS BOX MAY BE COLLECTED AS EARLY AS 12 NOON.", "ref": "9494100001"}, "type": "Feature"}
{"geometry": {"coordinates": [-122.526113, 37.880414], "type": "Point"}, "id": "QJHX-IveCdL4wDurkvnTDSz-hzs=", "properties": {"@spider": "usps_collection_boxes", "addr:city": "MILL VALLEY", "addr:country": "US", "addr:full": "205 FLAMINGO RD", "addr:postcode": "94941", "addr:state": "CA", "brand": "USPS", "collection_times": "Mo-Fr 15:00; Sa 13:00", "name": "USPS COLLECTION BOX - BLUE BOX", "note": "ON 12/24 AND 12/31, THIS BOX MAY BE COLLECTED AS EARLY AS 12 NOON.", "ref": "9494100016"}, "type": "Feature"}
{"geometry": {"coordinates": [-122.526115, 37.880412], "type": "Point"}, "id": "5FAEFsurxQjlc6_zAsWqRj_OK4E=", "properties": {"@spider": "usps_collection_boxes", "addr:city": "MILL VALLEY", "addr:country": "US", "addr:full": "205 FLAMINGO RD", "addr:postcode": "94941", "addr:state": "CA", "brand": "USPS", "collection_times": "Mo-Fr 15:00; Sa 13:00", "name": "USPS COLLECTION BOX - BLUE BOX", "note": "ON 12/24 AND 12/31, THIS BOX MAY BE COLLECTED AS EARLY AS 12 NOON.", "ref": "9494100031"}, "type": "Feature"}
{"geometry": {"coordinates": [-122.518957, 37.880972], "type": "Point"}, "id": "2IHMRuca11v1M2fckGVnh7ToDOg=", "properties": {"@spider": "usps_collection_boxes", "addr:city": "MILL VALLEY", "addr:country": "US", "addr:full": "150 SHORELINE HWY", "addr:postcode": "94941", "addr:state": "CA", "brand": "USPS", "collection_times": "Mo-Sa 10:00", "name": "USPS COLLECTION BOX - BLUE BOX", "ref": "9494100054"}, "type": "Feature"}
{"geometry": {"coordinates": [-122.562504, 38.109912], "type": "Point"}, "id": "NZNdg0SH0hq4M9YqvFkmIUARw5M=", "properties": {"@spider": "usps_collection_boxes", "addr:city": "NOVATO", "addr:country": "US", "addr:full": "700 OLIVE AVE", "addr:postcode": "94945", "addr:state": "CA", "brand": "USPS", "collection_times": "Mo-Sa 13:00", "name": "USPS COLLECTION BOX - BLUE BOX", "note": "ON 12/24 AND 12/31, THIS BOX MAY BE COLLECTED AS EARLY AS 12 NOON.", "ref": "9494500002"}, "type": "Feature"}
{"geometry": {"coordinates": [-122.578209, 38.109731], "type": "Point"}, "id": "z8Jf-aeCb6E8BlAi6IN2YOyUPG0=", "properties": {"@spider": "usps_collection_boxes", "addr:city": "NOVATO", "addr:country": "US", "addr:full": "1015 7TH ST", "addr:postcode": "94945", "addr:state": "CA", "brand": "USPS", "collection_times": "Mo-Fr 15:00; Sa 13:00", "name": "USPS COLLECTION BOX - BLUE BOX", "note": "ON 12/24 AND 12/31, THIS BOX MAY BE COLLECTED AS EARLY AS 12 NOON.", "ref": "9494500004"}, "type": "Feature"}
{"geometry": {"coordinates": [-122.52867, 38.12379], "type": "Point"}, "id": "CtsZcSpBuc6q-m2VnCMpMREL5r4=", "properties": {"@spider": "usps_collection_boxes", "addr:city": "NOVATO", "addr:country": "US", "addr:full": "2500 TOPAZ DR", "addr:postcode": "94945", "addr:state": "CA", "brand": "USPS", "collection_times": "Mo-Sa 10:00", "name": "USPS COLLECTION BOX - BLUE BOX", "ref": "9494500011"}, "type": "Feature"}
{"geometry": {"coordinates": [-122.579431, 38.108265], "type": "Point"}, "id": "ZnAweHgCmIPYhgwqYwA1_U6x29I=", "properties": {"@spider": "usps_collection_boxes", "addr:city": "NOVATO", "addr:country": "US", "addr:full": "1711 GRANT AVE", "addr:postcode": "94945", "addr:state": "CA", "brand": "USPS", "collection_times": "Mo-Fr 15:00; Sa 13:00", "name": "USPS COLLECTION BOX - BLUE BOX", "note": "ON 12/24 AND 12/31, THIS BOX MAY BE COLLECTED AS EARLY AS 12 NOON.", "ref": "9494500013"}, "type": "Feature"}
{"geometry": {"coordinates": [-122.579151, 38.110752], "type": "Point"}, "id": "pQuosRRpdjBDPBo2N2kNxWs5zbU=", "properties": {"@spider": "usps_collection_boxes", "addr:city": "NOVATO", "addr:country": "US", "addr:full": "1725 MARION AVE", "addr:postcode": "94945", "addr:state": "CA", "brand": "USPS", "collection_times": "Mo-Sa 10:00", "name": "USPS COLLECTION BOX - BLUE BOX", "ref": "9494500014"}, "type": "Feature"}
{"geometry": {"coordinates": [-122.507199, 38.108555], "type": "Point"}, "id": "7fI6rWdw5pBLY7IvZ1nL0qwjO70=", "properties": {"@spider": "usps_collection_boxes", "addr:city": "NOVATO", "addr:country": "US", "addr:full": "7 HARBOR DR", "addr:postcode": "94945", "addr:state": "CA", "brand": "USPS", "collection_times": "Mo-Sa 12:00", "name": "USPS COLLECTION BOX - BLUE BOX", "ref": "9494500020"}, "type": "Feature"}
{"geometry": {"coordinates": [-122.602787, 38.122058], "type": "Point"}, "id": "tqURwERk5S-IMk_LTPkTrA6Arvg=", "properties": {"@spider": "usps_collection_boxes", "addr:city": "NOVATO", "addr:country": "US", "addr:full": "151 SAN MARIN DR", "addr:postcode": "94945", "addr:state": "CA", "brand": "USPS", "collection_times": "Mo-Fr 15:00; Sa 10:00", "name": "USPS COLLECTION BOX - BLUE BOX", "note": "ON 12/24 AND 12/31, THIS BOX MAY BE COLLECTED AS EARLY AS 12 NOON.", "ref": "9494500024"}, "type": "Feature"}
{"geometry": {"coordinates": [-122.584645, 38.121764], "type": "Point"}, "id": "MYOAzE3H6ppPrH13fPddFn2ufhA=", "properties": {"@spider": "usps_collection_boxes", "addr:city": "NOVATO", "addr:country": "US", "addr:full": "1200 SIMMONS LN", "addr:postcode": "94945", "addr:state": "CA", "brand": "USPS", "collection_times": "Mo-Fr 15:00; Sa 10:00", "name": "USPS COLLECTION BOX - BLUE BOX", "note": "ON 12/24 AND 12/31, THIS BOX MAY BE COLLECTED AS EARLY AS 12 NOON.", "ref": "9494500025"}, "type": "Feature"}
{"geometry": {"coordinates": [-122.591433, 38.123942], "type": "Point"}, "id": "_p55gesVect3-n5pNJhyV7t4ccs=", "properties": {"@spider": "usps_collection_boxes", "addr:city": "NOVATO", "addr:country": "US", "addr:full": "402 SAN MARIN DR", "addr:postcode": "94945", "addr:state": "CA", "brand": "USPS", "collection_times": "Mo-Fr 15:00; Sa 10:00", "name": "USPS COLLECTION BOX - BLUE BOX", "note": "ON 12/24 AND 12/31, THIS BOX MAY BE COLLECTED AS EARLY AS 12 NOON.", "ref": "9494500026"}, "type": "Feature"}
{"geometry": {"coordinates": [-122.567742, 38.1006], "type": "Point"}, "id": "I9yI2xD4FqrMztosCCjZSkGDjt4=", "properties": {"@spider": "usps_collection_boxes", "addr:city": "NOVATO", "addr:country": "US", "addr:full": "7100 REDWOOD BLVD", "addr:postcode": "94945", "addr:state": "CA", "brand": "USPS", "collection_times": "Mo-Fr 15:00; Sa 13:00", "name": "USPS COLLECTION BOX - BLUE BOX", "note": "ON 12/24 AND 12/31, THIS BOX MAY BE COLLECTED AS EARLY AS 12 NOON.", "ref": "9494500027"}, "type": "Feature"}
{"geometry": {"coordinates": [-122.567514, 38.115763], "type": "Point"}, "id": "fNtpUfvVz6uPLxAnUtU0_DBLbY8=", "properties": {"@spider": "usps_collection_boxes", "addr:city": "NOVATO", "addr:country": "US", "addr:full": "7595 REDWOOD BLVD", "addr:postcode": "94945", "addr:state": "CA", "brand": "USPS", "collection_times": "Mo-Fr 15:00; Sa 09:00", "name": "USPS COLLECTION BOX - BLUE BOX", "note": "ON 12/24 AND 12/31, THIS BOX MAY BE COLLECTED AS EARLY AS 12 NOON.", "ref": "9494500029"}, "type": "Feature"}
{"geometry": {"coordinates": [-122.58464, 38.121773], "type": "Point"}, "id": "9ut8RFbgUI7EPiz95WO_gbBz0p0=", "properties": {"@spider": "usps_collection_boxes", "addr:city": "NOVATO", "addr:country": "US", "addr:full": "1200 SIMMONS LN", "addr:postcode": "94945", "addr:state": "CA", "brand": "USPS", "collection_times": "Mo-Fr 15:00", "name": "USPS COLLECTION BOX - EXPRESS", "note": "ON 12/24 AND 12/31, THIS BOX MAY BE COLLECTED AS EARLY AS 12 NOON.", "ref": "9494500031"}, "type": "Feature"}
{"geometry": {"coordinates": [-122.567515, 38.115779], "type": "Point"}, "id": "_MUxYzMR4X_gn78yg6HgsDXFAbk=", "properties": {"@spider": "usps_collection_boxes", "addr:city": "NOVATO", "addr:country": "US", "addr:full": "7595 REDWOOD BLVD", "addr:postcode": "94945", "addr:state": "CA", "brand": "USPS", "collection_times": "Mo-Fr 15:00; Sa 09:00", "name": "USPS COLLECTION BOX - BLUE BOX", "note": "ON 12/24 AND 12/31, THIS BOX MAY BE COLLECTED AS EARLY AS 12 NOON.", "ref": "9494500032"}, "type": "Feature"}
{"geometry": {"coordinates": [-122.555296, 38.090638], "type": "Point"}, "id": "VbqSJAVDkZh7pW6dG-Upi7jfejw=", "properties": {"@spider": "usps_collection_boxes", "addr:city": "NOVATO", "addr:country": "US", "addr:full": "140 VINTAGE WAY", "addr:postcode": "94945", "addr:state": "CA", "brand": "USPS", "collection_times": "Mo-Fr 15:00; Sa 10:00", "name": "USPS COLLECTION BOX - BLUE BOX", "note": "ON 12/24 AND 12/31, THIS BOX MAY BE COLLECTED AS EARLY AS 12 NOON.", "ref": "9494500034"}, "type": "Feature"}
{"geometry": {"coordinates": [-122.559242, 38.097372], "type": "Point"}, "id": "BeOlX6YEccDopt6T3vBx79rzvBA=", "properties": {"@spider": "usps_collection_boxes", "addr:city": "NOVATO", "addr:country": "US", "addr:full": "101 ROWLAND WAY", "addr:postcode": "94945", "addr:state": "CA", "brand": "USPS", "collection_times": "Mo-Fr 15:00; Sa 11:00", "name": "USPS COLLECTION BOX - BLUE BOX", "note": "ON 12/24 AND 12/31, THIS BOX MAY BE COLLECTED AS EARLY AS 12 NOON.", "ref": "9494500035"}, "type": "Feature"}
{"geometry": {"coordinates": [-122.559246, 38.097377], "type": "Point"}, "id": "cggwUv3vRpE1wh6d3iV3w2HRAWQ=", "properties": {"@spider": "usps_collection_boxes", "addr:city": "NOVATO", "addr:country": "US", "addr:full": "101 ROWLAND WAY", "addr:postcode": "94945", "addr:state": "CA", "brand": "USPS", "collection_times": "Mo-Fr 15:00; Sa 11:00", "name": "USPS COLLECTION BOX - EXPRESS", "note": "ON 12/24 AND 12/31, THIS BOX MAY BE COLLECTED AS EARLY AS 12 NOON.", "ref": "9494500036"}, "type": "Feature"}
{"geometry": {"coordinates": [-122.558133, 38.141197], "type": "Point"}, "id": "mtP3ml6BQTPRW3P5ZVDrCJ5wQy4=", "properties": {"@spider": "usps_collection_boxes", "addr:city": "NOVATO", "addr:country": "US", "addr:full": "351 AIRPORT RD", "addr:postcode": "94945", "addr:state": "CA", "brand": "USPS", "collection_times": "Mo-Sa 11:00", "name": "USPS COLLECTION BOX - BLUE BOX", "ref": "9494500043"}, "type": "Feature"}
{"geometry": {"coordinates": [-122.566283, 38.12167], "type": "Point"}, "id": "RBdLdjQMl6nVMI6BfRnaRz47HdM=", "properties": {"@spider": "usps_collection_boxes", "addr:city": "NOVATO", "addr:country": "US", "addr:full": "7900 REDWOOD BLVD", "addr:postcode": "94945", "addr:state": "CA", "brand": "USPS", "collection_times": "Mo-Fr 15:00; Sa 13:00", "name": "USPS COLLECTION BOX - BLUE BOX", "note": "ON 12/24 AND 12/31, THIS BOX MAY BE COLLECTED AS EARLY AS 12 NOON.", "ref": "9494500045"}, "type": "Feature"}
{"geometry": {"coordinates": [-122.566427, 38.106845], "type": "Point"}, "id": "6QqyCrPqFJ36Im9pC2OgViuxvxQ=", "properties": {"@spider": "usps_collection_boxes", "addr:city": "NOVATO", "addr:country": "US", "addr:full": "801 GRANT AVE", "addr:postcode": "94945", "addr:state": "CA", "brand": "USPS", "collection_times": "Mo-Fr 15:00; Sa 13:00", "name": "USPS COLLECTION BOX - BLUE BOX", "note": "ON 12/24 AND 12/31, THIS BOX MAY BE COLLECTED AS EARLY AS 12 NOON.", "ref": "9494500046"}, "type": "Feature"}
{"geometry": {"coordinates": [-122.568855, 38.107218], "type": "Point"}, "id": "zT-TtbdCNDhVPAfFADl-0haKDyk=", "properties": {"@spider": "usps_collection_boxes", "addr:city": "NOVATO", "addr:country": "US", "addr:full": "881 GRANT AVE", "addr:postcode": "94945", "addr:state": "CA", "brand": "USPS", "collection_times": "Mo-Fr 15:00; Sa 10:00", "name": "USPS COLLECTION BOX - BLUE BOX", "note": "ON 12/24 AND 12/31, THIS BOX MAY BE COLLECTED AS EARLY AS 12 NOON.", "ref": "9494500047"}, "type": "Feature"}
{"geometry": {"coordinates": [-122.574524, 38.108491], "type": "Point"}, "id": "gN9Wlw4uTGkyjMC2XrOgSL5fMFA=", "properties": {"@spider": "usps_collection_boxes", "addr:city": "NOVATO", "addr:country": "US", "addr:full": "1320 GRANT AVE", "addr:postcode": "94945", "addr:state": "CA", "brand": "USPS", "collection_times": "Mo-Fr 15:00; Sa 11:00", "name": "USPS COLLECTION BOX - BLUE BOX", "note": "ON 12/24 AND 12/31, THIS BOX MAY BE COLLECTED AS EARLY AS 12 NOON.", "ref": "9494500048"}, "type": "Feature"}
{"geometry": {"coordinates": [-122.572498, 38.108087], "type": "Point"}, "id": "-Ht_CRru6yAnZK11E9TPhwis1i0=", "properties": {"@spider": "usps_collection_boxes", "addr:city": "NOVATO", "addr:country": "US", "addr:full": "1200 GRANT AVE", "addr:postcode": "94945", "addr:state": "CA", "brand": "USPS", "collection_times": "Mo-Fr 15:00; Sa 10:00", "name": "USPS COLLECTION BOX - BLUE BOX", "note": "ON 12/24 AND 12/31, THIS BOX MAY BE COLLECTED AS EARLY AS 12 NOON.", "ref": "9494500049"}, "type": "Feature"}
{"geometry": {"coordinates": [-122.576069, 38.108824], "type": "Point"}, "id": "4Z_g1vLIR0CSFTWDxWcNu7INHZU=", "properties": {"@spider": "usps_collection_boxes", "addr:city": "NOVATO", "addr:country": "US", "addr:full": "1500 GRANT AVE", "addr:postcode": "94945", "addr:state": "CA", "brand": "USPS", "collection_times": "Mo-Fr 15:00; Sa 11:00", "name": "USPS COLLECTION BOX - BLUE BOX", "note": "ON 12/24 AND 12/31, THIS BOX MAY BE COLLECTED AS EARLY AS 12 NOON.", "ref": "9494500050"}, "type": "Feature"}
{"geometry": {"coordinates": [-122.576958, 38.109008], "type": "Point"}, "id": "CWsSz8k4nHkmZQLHC-xCwDVPqsg=", "properties": {"@spider": "usps_collection_boxes", "addr:city": "NOVATO", "addr:country": "US", "addr:full": "1598 GRANT AVE", "addr:postcode": "94945", "addr:state": "CA", "brand": "USPS", "collection_times": "Mo-Fr 15:00; Sa 11:00", "name": "USPS COLLECTION BOX - BLUE BOX", "note": "ON 12/24 AND 12/31, THIS BOX MAY BE COLLECTED AS EARLY AS 12 NOON.", "ref": "9494500051"}, "type": "Feature"}
{"geometry": {"coordinates": [-122.570233, 38.104479], "type": "Point"}, "id": "U3IQWxIrPAMUzbKsA6aFvHvAros=", "properties": {"@spider": "usps_collection_boxes", "addr:city": "NOVATO", "addr:country": "US", "addr:full": "7250 REDWOOD BLVD", "addr:postcode": "94945", "addr:state": "CA", "brand": "USPS", "collection_times": "Mo-Fr 15:00; Sa 09:45", "name": "USPS COLLECTION BOX - BLUE BOX", "note": "ON 12/24 AND 12/31, THIS BOX MAY BE COLLECTED AS EARLY AS 12 NOON.", "ref": "9494500052"}, "type": "Feature"}
{"geometry": {"coordinates": [-122.570143, 38.108548], "type": "Point"}, "id": "S6S_9N0Xpckx_07HosWUdWFiIUA=", "properties": {"@spider": "usps_collection_boxes", "addr:city": "NOVATO", "addr:country": "US", "addr:full": "7395 REDWOOD BLVD", "addr:postcode": "94945", "addr:state": "CA", "brand": "USPS", "collection_times": "Mo-Fr 15:00", "name": "USPS COLLECTION BOX - BLUE BOX", "note": "ON 12/24 AND 12/31, THIS BOX MAY BE COLLECTED AS EARLY AS 12 NOON.", "ref": "9494500053"}, "type": "Feature"}
{"geometry": {"coordinates": [-122.602771, 38.122052], "type": "Point"}, "id": "2-es7JvTPOZdMQ1zXkWmyzqB6g8=", "properties": {"@spider": "usps_collection_boxes", "addr:city": "NOVATO", "addr:country": "US", "addr:full": "151 SAN MARIN DR", "addr:postcode": "94945", "addr:state": "CA", "brand": "USPS", "collection_times": "Mo-Fr 15:00; Sa 10:00", "name": "USPS COLLECTION BOX - BLUE BOX", "note": "ON 12/24 AND 12/31, THIS BOX MAY BE COLLECTED AS EARLY AS 12 NOON.", "ref": "9494500054"}, "type": "Feature"}
{"geometry": {"coordinates": [-122.559144, 38.09515], "type": "Point"}, "id": "nlyRLHMoNmRBJ_ZvM_rKFdLQmro=", "properties": {"@spider": "usps_collection_boxes", "addr:city": "NOVATO", "addr:country": "US", "addr:full": "95 ROWLAND WAY", "addr:postcode": "94945", "addr:state": "CA", "brand": "USPS", "collection_times": "Mo-Fr 15:00; Sa 11:00", "name": "USPS COLLECTION BOX - BLUE BOX", "note": "ON 12/24 AND 12/31, THIS BOX MAY BE COLLECTED AS EARLY AS 12 NOON.", "ref": "9494500055"}, "type": "Feature"}
{"geometry": {"coordinates": [-122.570305, 38.104491], "type": "Point"}, "id": "Iv8EEpacRNNOXGMV3TcfBF_GqFk=", "properties": {"@spider": "usps_collection_boxes", "addr:city": "NOVATO", "addr:country": "US", "addr:full": "7250 REDWOOD BLVD", "addr:postcode": "94945", "addr:state": "CA", "brand": "USPS", "collection_times": "Mo-Fr 15:00; Sa 09:45", "name": "USPS COLLECTION BOX - BLUE BOX", "note": "ON 12/24 AND 12/31, THIS BOX MAY BE COLLECTED AS EARLY AS 12 NOON.", "ref": "9494500056"}, "type": "Feature"}
{"geometry": {"coordinates": [-122.55886, 38.095222], "type": "Point"}, "id": "zNeA2fNRGZUZjHm3Cm5snWbHW_I=", "properties": {"@spider": "usps_collection_boxes", "addr:city": "NOVATO", "addr:country": "US", "addr:full": "88 ROWLAND WAY", "addr:postcode": "94945", "addr:state": "CA", "brand": "USPS", "collection_times": "Mo-Fr 15:00; Sa 11:00", "name": "USPS COLLECTION BOX - BLUE BOX", "note": "ON 12/24 AND 12/31, THIS BOX MAY BE COLLECTED AS EARLY AS 12 NOON.", "ref": "9494500057"}, "type": "Feature"}
{"geometry": {"coordinates": [-122.580181, 38.106926], "type": "Point"}, "id": "-wJ8aMsfGHR0KF0X_Acf7DDM6Oo=", "properties": {"@spider": "usps_collection_boxes", "addr:city": "NOVATO", "addr:country": "US", "addr:full": "1720 NOVATO BLVD", "addr:postcode": "94947", "addr:state": "CA", "brand": "USPS", "collection_times": "Mo-Fr 15:00; Sa 11:00", "name": "USPS COLLECTION BOX - BLUE BOX", "note": "ON 12/24 AND 12/31, THIS BOX MAY BE COLLECTED AS EARLY AS 12 NOON.", "ref": "9494700007"}, "type": "Feature"}
{"geometry": {"coordinates": [-122.579434, 38.105795], "type": "Point"}, "id": "i6sv_Bo_gm4SAE6MpXfAsk8JLFw=", "properties": {"@spider": "usps_collection_boxes", "addr:city": "NOVATO", "addr:country": "US", "addr:full": "891 TAMALPAIS AVE", "addr:postcode": "94947", "addr:state": "CA", "brand": "USPS", "collection_times": "Mo-Fr 15:00; Sa 13:00", "name": "USPS COLLECTION BOX - BLUE BOX", "note": "ON 12/24 AND 12/31, THIS BOX MAY BE COLLECTED AS EARLY AS 12 NOON.", "ref": "9494700008"}, "type": "Feature"}
{"geometry": {"coordinates": [-122.607275, 38.104169], "type": "Point"}, "id": "SPgMfk0Oy4b1h1FHyN_Y0NplCWg=", "properties": {"@spider": "usps_collection_boxes", "addr:city": "NOVATO", "addr:country": "US", "addr:full": "2165 MILL RD", "addr:postcode": "94947", "addr:state": "CA", "brand": "USPS", "collection_times": "Mo-Sa 13:00", "name": "USPS COLLECTION BOX - BLUE BOX", "note": "ON 12/24 AND 12/31, THIS BOX MAY BE COLLECTED AS EARLY AS 12 NOON.", "ref": "9494700012"}, "type": "Feature"}
{"geometry": {"coordinates": [-122.565914, 38.080341], "type": "Point"}, "id": "6aEzx8haf8IlpWQ8Tbr6Rsf9dJQ=", "properties": {"@spider": "usps_collection_boxes", "addr:city": "NOVATO", "addr:country": "US", "addr:full": "665 SUNSET PKWY", "addr:postcode": "94947", "addr:state": "CA", "brand": "USPS", "collection_times": "Mo-Sa 13:00", "name": "USPS COLLECTION BOX - BLUE BOX", "note": "ON 12/24 AND 12/31, THIS BOX MAY BE COLLECTED AS EARLY AS 12 NOON.", "ref": "9494700017"}, "type": "Feature"}
{"geometry": {"coordinates": [-122.566658, 38.087164], "type": "Point"}, "id": "Qkt5ScYmYlI5VFERpX-6DCGLVc8=", "properties": {"@spider": "usps_collection_boxes", "addr:city": "NOVATO", "addr:country": "US", "addr:full": "500 ROWLAND BLVD", "addr:postcode": "94947", "addr:state": "CA", "brand": "USPS", "collection_times": "Mo-Fr 12:00; Sa 13:00", "name": "USPS COLLECTION BOX - BLUE BOX", "note": "ON 12/24 AND 12/31, THIS BOX MAY BE COLLECTED AS EARLY AS 12 NOON.", "ref": "9494700019"}, "type": "Feature"}
{"geometry": {"coordinates": [-122.5547167981, 38.0873182364], "type": "Point"}, "id": "oajy6Ne1vYaoUN91czgG0vkm6nU=", "properties": {"@spider": "usps_collection_boxes", "addr:city": "NOVATO", "addr:country": "US", "addr:full": "1291 REDWOOD BLVD", "addr:postcode": "94947", "addr:state": "CA", "brand": "USPS", "collection_times": "Mo-Sa 12:00", "name": "USPS COLLECTION BOX - BLUE BOX", "ref": "9494700020"}, "type": "Feature"}
{"geometry": {"coordinates": [-122.5719712053, 38.1040452801], "type": "Point"}, "id": "hjhB2wdhiummvOjIakJGblyIQb0=", "properties": {"@spider": "usps_collection_boxes", "addr:city": "NOVATO", "addr:country": "US", "addr:full": "926 DIABLO AVE", "addr:postcode": "94947", "addr:state": "CA", "brand": "USPS", "collection_times": "Mo-Fr 15:00; Sa 10:00", "name": "USPS COLLECTION BOX - BLUE BOX", "note": "ON 12/24 AND 12/31, THIS BOX MAY BE COLLECTED AS EARLY AS 12 NOON.", "ref": "9494700025"}, "type": "Feature"}
{"geometry": {"coordinates": [-122.592752, 38.111193], "type": "Point"}, "id": "mCLxAKlYJkv08SSAw86TlpF490A=", "properties": {"@spider": "usps_collection_boxes", "addr:city": "NOVATO", "addr:country": "US", "addr:full": "2045 NOVATO BLVD", "addr:postcode": "94947", "addr:state": "CA", "brand": "USPS", "collection_times": "Mo-Fr 15:00; Sa 13:00", "name": "USPS COLLECTION BOX - BLUE BOX", "note": "ON 12/24 AND 12/31, THIS BOX MAY BE COLLECTED AS EARLY AS 12 NOON.", "ref": "9494700028"}, "type": "Feature"}
{"geometry": {"coordinates": [-122.5702114516, 38.0980872134], "type": "Point"}, "id": "WMxSMbsO0BhbpOBJNl31hz_M_Gw=", "properties": {"@spider": "usps_collection_boxes", "addr:city": "NOVATO", "addr:country": "US", "addr:full": "1537 S NOVATO BLVD", "addr:postcode": "94947", "addr:state": "CA", "brand": "USPS", "collection_times": "Mo-Fr 17:45; Sa 15:30", "name": "USPS COLLECTION BOX - BLUE BOX", "note": "ON 12/24 AND 12/31, THIS BOX MAY BE COLLECTED AS EARLY AS 12 NOON.", "ref": "9494700035"}, "type": "Feature"}
{"geometry": {"coordinates": [-122.5702114516, 38.0980872134], "type": "Point"}, "id": "uASrqj11Wd4xO4pghORpIf2sTBo=", "properties": {"@spider": "usps_collection_boxes", "addr:city": "NOVATO", "addr:country": "US", "addr:full": "1537 S NOVATO BLVD", "addr:postcode": "94947", "addr:state": "CA", "brand": "USPS", "collection_times": "Mo-Sa 17:45", "name": "USPS COLLECTION BOX - PO LOBBY", "note": "ON 12/24 AND 12/31, THIS BOX MAY BE COLLECTED AS EARLY AS 12 NOON.", "ref": "9494700036"}, "type": "Feature"}
{"geometry": {"coordinates": [-122.5702114516, 38.0980872134], "type": "Point"}, "id": "ZqcvH_QUp6JBgdYs_GN5FcQQzV8=", "properties": {"@spider": "usps_collection_boxes", "addr:city": "NOVATO", "addr:country": "US", "addr:full": "1537 S NOVATO BLVD", "addr:postcode": "94947", "addr:state": "CA", "brand": "USPS", "collection_times": "Mo-Fr 16:00; Sa 15:30", "name": "USPS COLLECTION BOX - EXPRESS", "note": "ON 12/24 AND 12/31, THIS BOX MAY BE COLLECTED AS EARLY AS 12 NOON.", "ref": "9494700038"}, "type": "Feature"}
{"geometry": {"coordinates": [-122.551817, 38.0776], "type": "Point"}, "id": "HNHY4vH8RTw0-QJbaNMkdF4JhsM=", "properties": {"@spider": "usps_collection_boxes", "addr:city": "NOVATO", "addr:country": "US", "addr:full": "998 S NOVATO BLVD", "addr:postcode": "94947", "addr:state": "CA", "brand": "USPS", "collection_times": "Mo-Fr 15:00; Sa 13:00", "name": "USPS COLLECTION BOX - BLUE BOX", "note": "ON 12/24 AND 12/31, THIS BOX MAY BE COLLECTED AS EARLY AS 12 NOON.", "ref": "9494700039"}, "type": "Feature"}
{"geometry": {"coordinates": [-122.5702114516, 38.0980872134], "type": "Point"}, "id": "w3iFsWGEkkC1KSvcAskVYiK9Wc0=", "properties": {"@spider": "usps_collection_boxes", "addr:city": "NOVATO", "addr:country": "US", "addr:full": "1537 S NOVATO BLVD", "addr:postcode": "94947", "addr:state": "CA", "brand": "USPS", "collection_times": "Mo-Sa 17:45", "name": "USPS COLLECTION BOX - APC", "note": "ON 12/24 AND 12/31, THIS BOX MAY BE COLLECTED AS EARLY AS 12 NOON.", "ref": "9494700040"}, "type": "Feature"}
{"geometry": {"coordinates": [-122.611342, 38.11223], "type": "Point"}, "id": "tVbpDFUUEdciC-4wBsHv_KxW3rg=", "properties": {"@spider": "usps_collection_boxes", "addr:city": "NOVATO", "addr:country": "US", "addr:full": "802 SUTRO AVE", "addr:postcode": "94947", "addr:state": "CA", "brand": "USPS", "collection_times": "Mo-Fr 15:00; Sa 13:00", "name": "USPS COLLECTION BOX - BLUE BOX", "note": "ON 12/24 AND 12/31, THIS BOX MAY BE COLLECTED AS EARLY AS 12 NOON.", "ref": "9494700041"}, "type": "Feature"}
{"geometry": {"coordinates": [-122.569591, 38.096637], "type": "Point"}, "id": "tc1_hLXL-ClWrSP-84nHE3Iuk0Y=", "properties": {"@spider": "usps_collection_boxes", "addr:city": "NOVATO", "addr:country": "US", "addr:full": "1523 S NOVATO BLVD", "addr:postcode": "94947", "addr:state": "CA", "brand": "USPS", "collection_times": "Mo-Fr 15:00; Sa 13:00", "name": "USPS COLLECTION BOX - BLUE BOX", "note": "ON 12/24 AND 12/31, THIS BOX MAY BE COLLECTED AS EARLY AS 12 NOON.", "ref": "9494700046"}, "type": "Feature"}
{"geometry": {"coordinates": [-122.5702114516, 38.0980872134], "type": "Point"}, "id": "AV5hzPRGDLfIBFiB0Q4xFUqbIKo=", "properties": {"@spider": "usps_collection_boxes", "addr:city": "NOVATO", "addr:country": "US", "addr:full": "1537 S NOVATO BLVD", "addr:postcode": "94947", "addr:state": "CA", "brand": "USPS", "collection_times": "Mo-Fr 18:00", "name": "USPS COLLECTION BOX - PO LOBBY", "note": "ON 12/24 AND 12/31, THIS BOX MAY BE COLLECTED AS EARLY AS 12 NOON.", "ref": "9494700048"}, "type": "Feature"}
{"geometry": {"coordinates": [-122.537596, 38.075455], "type": "Point"}, "id": "BUNr7m_6ns7ijYYLm2p0u6vwpSw=", "properties": {"@spider": "usps_collection_boxes", "addr:city": "NOVATO", "addr:country": "US", "addr:full": "390 BEL MARIN KEYS BLVD", "addr:postcode": "94948", "addr:state": "CA", "brand": "USPS", "collection_times": "Mo-Fr 17:00; Sa 16:15", "name": "USPS COLLECTION BOX - PO LOBBY", "note": "ON 12/24 AND 12/31, THIS BOX MAY BE COLLECTED AS EARLY AS 12 NOON.", "ref": "9494800000"}, "type": "Feature"}
{"geometry": {"coordinates": [-122.554597, 38.0672], "type": "Point"}, "id": "z3PeHi-VY9ABFxqEgUS32bkbpno=", "properties": {"@spider": "usps_collection_boxes", "addr:city": "NOVATO", "addr:country": "US", "addr:full": "101 FAIRWAY DR", "addr:postcode": "94949", "addr:state": "CA", "brand": "USPS", "collection_times": "Mo-Fr 15:00; Sa 13:00", "name": "USPS COLLECTION BOX - BLUE BOX", "note": "ON 12/24 AND 12/31, THIS BOX MAY BE COLLECTED AS EARLY AS 12 NOON.", "ref": "9494900001"}, "type": "Feature"}
{"geometry": {"coordinates": [-122.537665, 38.073756], "type": "Point"}, "id": "wWodlUaOggEhyuiUwPRort3Uhk4=", "properties": {"@spider": "usps_collection_boxes", "addr:city": "NOVATO", "addr:country": "US", "addr:full": "371 BEL MARIN KEYS BLVD", "addr:postcode": "94949", "addr:state": "CA", "brand": "USPS", "collection_times": "Mo-Fr 15:00; Sa 13:00", "name": "USPS COLLECTION BOX - BLUE BOX", "note": "ON 12/24 AND 12/31, THIS BOX MAY BE COLLECTED AS EARLY AS 12 NOON.", "ref": "9494900002"}, "type": "Feature"}
{"geometry": {"coordinates": [-122.524848, 38.081366], "type": "Point"}, "id": "SPQrqj-AbZ7b3rNMps74915b5ww=", "properties": {"@spider": "usps_collection_boxes", "addr:city": "NOVATO", "addr:country": "US", "addr:full": "901 BEL MARIN KEYS BLVD", "addr:postcode": "94949", "addr:state": "CA", "brand": "USPS", "collection_times": "Mo-Sa 13:00", "name": "USPS COLLECTION BOX - BLUE BOX", "note": "ON 12/24 AND 12/31, THIS BOX MAY BE COLLECTED AS EARLY AS 12 NOON.", "ref": "9494900003"}, "type": "Feature"}
{"geometry": {"coordinates": [-122.541931, 38.066452], "type": "Point"}, "id": "YEjI3GZjmnWIZ4u0iS7xepiyVRY=", "properties": {"@spider": "usps_collection_boxes", "addr:city": "NOVATO", "addr:country": "US", "addr:full": "368 IGNACIO BLVD", "addr:postcode": "94949", "addr:state": "CA", "brand": "USPS", "collection_times": "Mo-Fr 15:00; Sa 13:00", "name": "USPS COLLECTION BOX - BLUE BOX", "note": "ON 12/24 AND 12/31, THIS BOX MAY BE COLLECTED AS EARLY AS 12 NOON.", "ref": "9494900006"}, "type": "Feature"}
{"geometry": {"coordinates": [-122.540853, 38.068922], "type": "Point"}, "id": "hqCtnXKm7Bb0voEHSRht7_n4Gl4=", "properties": {"@spider": "usps_collection_boxes", "addr:city": "NOVATO", "addr:country": "US", "addr:full": "455 ENTRADA DR", "addr:postcode": "94949", "addr:state": "CA", "brand": "USPS", "collection_times": "Mo-Sa 13:00", "name": "USPS COLLECTION BOX - BLUE BOX", "note": "ON 12/24 AND 12/31, THIS BOX MAY BE COLLECTED AS EARLY AS 12 NOON.", "ref": "9494900007"}, "type": "Feature"}
{"geometry": {"coordinates": [-122.534628, 38.07048], "type": "Point"}, "id": "7rqj6qbQqnWwCIPSp_RsVXDtsoE=", "properties": {"@spider": "usps_collection_boxes", "addr:city": "NOVATO", "addr:country": "US", "addr:full": "11 DIGITAL DR", "addr:postcode": "94949", "addr:state": "CA", "brand": "USPS", "collection_times": "Mo-Fr 15:00; Sa 13:00", "name": "USPS COLLECTION BOX - EXPRESS", "note": "ON 12/24 AND 12/31, THIS BOX MAY BE COLLECTED AS EARLY AS 12 NOON.", "ref": "9494900009"}, "type": "Feature"}
{"geometry": {"coordinates": [-122.531305, 38.070905], "type": "Point"}, "id": "Jy8vuoNXrNdkbMbdt9y50EFQLW0=", "properties": {"@spider": "usps_collection_boxes", "addr:city": "NOVATO", "addr:country": "US", "addr:full": "51 DIGITAL DR", "addr:postcode": "94949", "addr:state": "CA", "brand": "USPS", "collection_times": "Mo-Fr 15:00; Sa 13:00", "name": "USPS COLLECTION BOX - BLUE BOX", "note": "ON 12/24 AND 12/31, THIS BOX MAY BE COLLECTED AS EARLY AS 12 NOON.", "ref": "9494900010"}, "type": "Feature"}
{"geometry": {"coordinates": [-122.534265, 38.066276], "type": "Point"}, "id": "5krGn848Ue0vagygAw5aak03RXo=", "properties": {"@spider": "usps_collection_boxes", "addr:city": "NOVATO", "addr:country": "US", "addr:full": "100 ROBLAR DR", "addr:postcode": "94949", "addr:state": "CA", "brand": "USPS", "collection_times": "Mo-Sa 13:00", "name": "USPS COLLECTION BOX - BLUE BOX", "note": "ON 12/24 AND 12/31, THIS BOX MAY BE COLLECTED AS EARLY AS 12 NOON.", "ref": "9494900015"}, "type": "Feature"}
{"geometry": {"coordinates": [-122.531107, 38.068512], "type": "Point"}, "id": "SAtplHjsBFZUFR0PDCe4wd5NcoU=", "properties": {"@spider": "usps_collection_boxes", "addr:city": "NOVATO", "addr:country": "US", "addr:full": "25 COMMERCIAL BLVD", "addr:postcode": "94949", "addr:state": "CA", "brand": "USPS", "collection_times": "Mo-Fr 15:00; Sa 13:00", "name": "USPS COLLECTION BOX - BLUE BOX", "note": "ON 12/24 AND 12/31, THIS BOX MAY BE COLLECTED AS EARLY AS 12 NOON.", "ref": "9494900018"}, "type": "Feature"}
{"geometry": {"coordinates": [-122.53326, 38.06859], "type": "Point"}, "id": "tiily-Dw1kAizGTZx65yAh6SeE0=", "properties": {"@spider": "usps_collection_boxes", "addr:city": "NOVATO", "addr:country": "US", "addr:full": "9 COMMERCIAL BLVD", "addr:postcode": "94949", "addr:state": "CA", "brand": "USPS", "collection_times": "Mo-Fr 15:00; Sa 13:00", "name": "USPS COLLECTION BOX - BLUE BOX", "note": "ON 12/24 AND 12/31, THIS BOX MAY BE COLLECTED AS EARLY AS 12 NOON.", "ref": "9494900019"}, "type": "Feature"}
{"geometry": {"coordinates": [-122.532916, 38.049607], "type": "Point"}, "id": "Jzjop_7R7ZFwmjUns6HFPztpgLA=", "properties": {"@spider": "usps_collection_boxes", "addr:city": "NOVATO", "addr:country": "US", "addr:full": "201 ALAMEDA DEL PRADO", "addr:postcode": "94949", "addr:state": "CA", "brand": "USPS", "collection_times": "Mo-Sa 13:00", "name": "USPS COLLECTION BOX - BLUE BOX", "note": "ON 12/24 AND 12/31, THIS BOX MAY BE COLLECTED AS EARLY AS 12 NOON.", "ref": "9494900021"}, "type": "Feature"}
{"geometry": {"coordinates": [-122.537674, 38.073761], "type": "Point"}, "id": "LV8LNS4IfPfj1J-g_q9AXfenQ4I=", "properties": {"@spider": "usps_collection_boxes", "addr:city": "NOVATO", "addr:country": "US", "addr:full": "371 BEL MARIN KEYS BLVD", "addr:postcode": "94949", "addr:state": "CA", "brand": "USPS", "collection_times": "Mo-Fr 15:00; Sa 13:00", "name": "USPS COLLECTION BOX - BLUE BOX", "note": "ON 12/24 AND 12/31, THIS BOX MAY BE COLLECTED AS EARLY AS 12 NOON.", "ref": "9494900022"}, "type": "Feature"}
{"geometry": {"coordinates": [-122.537675, 38.073766], "type": "Point"}, "id": "jwqX5UnVYJR9Co-oDFX2-KkOoDg=", "properties": {"@spider": "usps_collection_boxes", "addr:city": "NOVATO", "addr:country": "US", "addr:full": "371 BEL MARIN KEYS BLVD", "addr:postcode": "94949", "addr:state": "CA", "brand": "USPS", "collection_times": "Mo-Fr 15:00; Sa 13:00", "name": "USPS COLLECTION BOX - BLUE BOX", "note": "ON 12/24 AND 12/31, THIS BOX MAY BE COLLECTED AS EARLY AS 12 NOON.", "ref": "9494900023"}, "type": "Feature"}
{"geometry": {"coordinates": [-122.537657, 38.073774], "type": "Point"}, "id": "YsmHe-8FJsVNmtF9JJg9qxIO6DY=", "properties": {"@spider": "usps_collection_boxes", "addr:city": "NOVATO", "addr:country": "US", "addr:full": "371 BEL MARIN KEYS BLVD", "addr:postcode": "94949", "addr:state": "CA", "brand": "USPS", "collection_times": "Mo-Fr 15:00; Sa 13:00", "name": "USPS COLLECTION BOX - BLUE BOX", "note": "ON 12/24 AND 12/31, THIS BOX MAY BE COLLECTED AS EARLY AS 12 NOON.", "ref": "9494900024"}, "type": "Feature"}
{"geometry": {"coordinates": [-122.534639, 38.070467], "type": "Point"}, "id": "ZO6WMahFMd2Qc2offHtq8QFudeQ=", "properties": {"@spider": "usps_collection_boxes", "addr:city": "NOVATO", "addr:country": "US", "addr:full": "11 DIGITAL DR", "addr:postcode": "94949", "addr:state": "CA", "brand": "USPS", "collection_times": "Mo-Fr 15:00; Sa 13:00", "name": "USPS COLLECTION BOX - BLUE BOX", "note": "ON 12/24 AND 12/31, THIS BOX MAY BE COLLECTED AS EARLY AS 12 NOON.", "ref": "9494900025"}, "type": "Feature"}
{"geometry": {"coordinates": [-122.534631, 38.070478], "type": "Point"}, "id": "pgJgFetYqCYt-jnnocP5hkzosvI=", "properties": {"@spider": "usps_collection_boxes", "addr:city": "NOVATO", "addr:country": "US", "addr:full": "11 DIGITAL DR", "addr:postcode": "94949", "addr:state": "CA", "brand": "USPS", "collection_times": "Mo-Fr 15:00; Sa 13:00", "name": "USPS COLLECTION BOX - BLUE BOX", "note": "ON 12/24 AND 12/31, THIS BOX MAY BE COLLECTED AS EARLY AS 12 NOON.", "ref": "9494900026"}, "type": "Feature"}
{"geometry": {"coordinates": [-122.533702, 38.060816], "type": "Point"}, "id": "mBb9zn13jYaFvhxI-teS02xCFn4=", "properties": {"@spider": "usps_collection_boxes", "addr:city": "NOVATO", "addr:country": "US", "addr:full": "99 POSADA DEL SOL", "addr:postcode": "94949", "addr:state": "CA", "brand": "USPS", "collection_times": "Mo-Sa 12:00", "name": "USPS COLLECTION BOX - BLUE BOX", "ref": "9494900028"}, "type": "Feature"}
{"geometry": {"coordinates": [-122.523108, 38.04372], "type": "Point"}, "id": "VLISK_VFVly2AznxVuMlx1GCCyk=", "properties": {"@spider": "usps_collection_boxes", "addr:city": "NOVATO", "addr:country": "US", "addr:full": "100 MARIN VALLEY DR", "addr:postcode": "94949", "addr:state": "CA", "brand": "USPS", "collection_times": "Mo-Sa 11:00", "name": "USPS COLLECTION BOX - BLUE BOX", "ref": "9494900029"}, "type": "Feature"}
{"geometry": {"coordinates": [-122.533247, 38.068587], "type": "Point"}, "id": "WzFIoMskEAkCv5OKKy8ZfQ6Tp0w=", "properties": {"@spider": "usps_collection_boxes", "addr:city": "NOVATO", "addr:country": "US", "addr:full": "9 COMMERCIAL BLVD", "addr:postcode": "94949", "addr:state": "CA", "brand": "USPS", "collection_times": "Mo-Fr 15:00; Sa 13:00", "name": "USPS COLLECTION BOX - EXPRESS", "note": "ON 12/24 AND 12/31, THIS BOX MAY BE COLLECTED AS EARLY AS 12 NOON.", "ref": "9494900030"}, "type": "Feature"}
{"geometry": {"coordinates": [-122.531086, 38.06852], "type": "Point"}, "id": "1rf1DrG3L_BgHOHbBfwPn0GAiO8=", "properties": {"@spider": "usps_collection_boxes", "addr:city": "NOVATO", "addr:country": "US", "addr:full": "25 COMMERCIAL BLVD", "addr:postcode": "94949", "addr:state": "CA", "brand": "USPS", "collection_times": "Mo-Fr 15:00; Sa 13:00", "name": "USPS COLLECTION BOX - BLUE BOX", "note": "ON 12/24 AND 12/31, THIS BOX MAY BE COLLECTED AS EARLY AS 12 NOON.", "ref": "9494900035"}, "type": "Feature"}
{"geometry": {"coordinates": [-122.515425, 38.058674], "type": "Point"}, "id": "SM4yh1nno6_Y01nbOHoULC6TzdQ=", "properties": {"@spider": "usps_collection_boxes", "addr:city": "NOVATO", "addr:country": "US", "addr:full": "1 HANGAR AVE", "addr:postcode": "94949", "addr:state": "CA", "brand": "USPS", "collection_times": "Mo-Fr 14:00; Sa 13:00", "name": "USPS COLLECTION BOX - BLUE BOX", "note": "ON 12/24 AND 12/31, THIS BOX MAY BE COLLECTED AS EARLY AS 12 NOON.", "ref": "9494900036"}, "type": "Feature"}
{"geometry": {"coordinates": [-122.529946, 38.050656], "type": "Point"}, "id": "nL2ezPlypiXX4j_fiYD-0phyAg8=", "properties": {"@spider": "usps_collection_boxes", "addr:city": "NOVATO", "addr:country": "US", "addr:full": "275 MARIN VALLEY DR", "addr:postcode": "94949", "addr:state": "CA", "brand": "USPS", "collection_times": "Mo-Sa 13:00", "name": "USPS COLLECTION BOX - BLUE BOX", "note": "ON 12/24 AND 12/31, THIS BOX MAY BE COLLECTED AS EARLY AS 12 NOON.", "ref": "9494900037"}, "type": "Feature"}
{"geometry": {"coordinates": [-122.666497, 38.295951], "type": "Point"}, "id": "XwdG-nd4M1NR-kq-qJ76-rc38Xo=", "properties": {"@spider": "usps_collection_boxes", "addr:city": "PENNGROVE", "addr:country": "US", "addr:full": "11041 MAIN ST", "addr:postcode": "94951", "addr:state": "CA", "brand": "USPS", "collection_times": "Mo-Fr 16:30; Sa 10:30", "name": "USPS COLLECTION BOX - BLUE BOX", "note": "ON 12/24 AND 12/31, THIS BOX MAY BE COLLECTED AS EARLY AS 12 NOON.", "ref": "9495100003"}, "type": "Feature"}
{"geometry": {"coordinates": [-122.666463, 38.295943], "type": "Point"}, "id": "bzWaGRBaAItxhe-klcxtWsK1q9M=", "properties": {"@spider": "usps_collection_boxes", "addr:city": "PENNGROVE", "addr:country": "US", "addr:full": "11041 MAIN ST", "addr:postcode": "94951", "addr:state": "CA", "brand": "USPS", "collection_times": "Mo-Fr 16:30; Sa 10:30", "name": "USPS COLLECTION BOX - PO LOBBY", "note": "ON 12/24 AND 12/31, THIS BOX MAY BE COLLECTED AS EARLY AS 12 NOON.", "ref": "9495100004"}, "type": "Feature"}
{"geometry": {"coordinates": [-122.6665261988, 38.2959266153], "type": "Point"}, "id": "SUVxsPb_7KSna21CuCI4Z406Yy8=", "properties": {"@spider": "usps_collection_boxes", "addr:city": "PENNGROVE", "addr:country": "US", "addr:full": "11041 MAIN ST", "addr:postcode": "94951", "addr:state": "CA", "brand": "USPS", "collection_times": "Mo-Fr 16:30", "name": "USPS COLLECTION BOX - PO LOBBY", "note": "ON 12/24 AND 12/31, THIS BOX MAY BE COLLECTED AS EARLY AS 12 NOON.", "ref": "9495100006"}, "type": "Feature"}
{"geometry": {"coordinates": [-122.6382016019, 38.2320943694], "type": "Point"}, "id": "dYTisOkhjAVGn0OWO6Zq7tPMM7s=", "properties": {"@spider": "usps_collection_boxes", "addr:city": "PETALUMA", "addr:country": "US", "addr:full": "120 4TH ST", "addr:postcode": "94952", "addr:state": "CA", "brand": "USPS", "collection_times": "Mo-Fr 17:00; Sa 16:00", "name": "USPS COLLECTION BOX - BLUE BOX", "note": "ON 12/24 AND 12/31, THIS BOX MAY BE COLLECTED AS EARLY AS 12 NOON.", "ref": "9495200019"}, "type": "Feature"}
{"geometry": {"coordinates": [-122.6382016019, 38.2320943694], "type": "Point"}, "id": "e46NJhWb8r6sxa59vA-81_Tm2JE=", "properties": {"@spider": "usps_collection_boxes", "addr:city": "PETALUMA", "addr:country": "US", "addr:full": "120 4TH ST", "addr:postcode": "94952", "addr:state": "CA", "brand": "USPS", "collection_times": "Mo-Fr 17:00; Sa 16:00", "name": "USPS COLLECTION BOX - BLUE BOX", "note": "ON 12/24 AND 12/31, THIS BOX MAY BE COLLECTED AS EARLY AS 12 NOON.", "ref": "9495200020"}, "type": "Feature"}
{"geometry": {"coordinates": [-122.6382016019, 38.2320943694], "type": "Point"}, "id": "0GbVDLD-Vg8XIdLarEN4lsgXsOo=", "properties": {"@spider": "usps_collection_boxes", "addr:city": "PETALUMA", "addr:country": "US", "addr:full": "120 4TH ST", "addr:postcode": "94952", "addr:state": "CA", "brand": "USPS", "collection_times": "Mo-Fr 17:00; Sa 16:00", "name": "USPS COLLECTION BOX - BLUE BOX", "note": "ON 12/24 AND 12/31, THIS BOX MAY BE COLLECTED AS EARLY AS 12 NOON.", "ref": "9495200021"}, "type": "Feature"}
{"geometry": {"coordinates": [-122.6382016019, 38.2320943694], "type": "Point"}, "id": "l46UP9CxOgFN5b9-so8MJxhniFU=", "properties": {"@spider": "usps_collection_boxes", "addr:city": "PETALUMA", "addr:country": "US", "addr:full": "120 4TH ST", "addr:postcode": "94952", "addr:state": "CA", "brand": "USPS", "collection_times": "Mo-Fr 17:00; Sa 16:00", "name": "USPS COLLECTION BOX - BLUE BOX", "note": "ON 12/24 AND 12/31, THIS BOX MAY BE COLLECTED AS EARLY AS 12 NOON.", "ref": "9495200022"}, "type": "Feature"}
{"geometry": {"coordinates": [-122.6382016019, 38.2320943694], "type": "Point"}, "id": "n4v9gbpXGHgI40dbC0euRsY36NM=", "properties": {"@spider": "usps_collection_boxes", "addr:city": "PETALUMA", "addr:country": "US", "addr:full": "120 4TH ST", "addr:postcode": "94952", "addr:state": "CA", "brand": "USPS", "collection_times": "Mo-Fr 17:00; Sa 16:00", "name": "USPS COLLECTION BOX - BLUE BOX", "note": "ON 12/24 AND 12/31, THIS BOX MAY BE COLLECTED AS EARLY AS 12 NOON.", "ref": "9495200023"}, "type": "Feature"}
{"geometry": {"coordinates": [-122.6382016019, 38.2320943694], "type": "Point"}, "id": "M6vH1vm48y8sovrY1285NXng3JU=", "properties": {"@spider": "usps_collection_boxes", "addr:city": "PETALUMA", "addr:country": "US", "addr:full": "120 4TH ST", "addr:postcode": "94952", "addr:state": "CA", "brand": "USPS", "collection_times": "Mo-Fr 17:00; Sa 16:00", "name": "USPS COLLECTION BOX - BLUE BOX", "note": "ON 12/24 AND 12/31, THIS BOX MAY BE COLLECTED AS EARLY AS 12 NOON.", "ref": "9495200024"}, "type": "Feature"}
{"geometry": {"coordinates": [-122.6382016019, 38.2320943694], "type": "Point"}, "id": "bct8nZIf2_2lIvopxD6MBdszsi8=", "properties": {"@spider": "usps_collection_boxes", "addr:city": "PETALUMA", "addr:country": "US", "addr:full": "120 4TH ST", "addr:postcode": "94952", "addr:state": "CA", "brand": "USPS", "collection_times": "Mo-Sa 16:00", "name": "USPS COLLECTION BOX - EXPRESS", "note": "ON 12/24 AND 12/31, THIS BOX MAY BE COLLECTED AS EARLY AS 12 NOON.", "ref": "9495200025"}, "type": "Feature"}
{"geometry": {"coordinates": [-122.623982, 38.236122], "type": "Point"}, "id": "ZlBicwK2y5GerGEqI3N4S7vfg3g=", "properties": {"@spider": "usps_collection_boxes", "addr:city": "PETALUMA", "addr:country": "US", "addr:full": "939 LAKEVILLE ST", "addr:postcode": "94952", "addr:state": "CA", "brand": "USPS", "collection_times": "Mo-Fr 15:00; Sa 13:00", "name": "USPS COLLECTION BOX - BLUE BOX", "note": "ON 12/24 AND 12/31, THIS BOX MAY BE COLLECTED AS EARLY AS 12 NOON.", "ref": "9495200029"}, "type": "Feature"}
{"geometry": {"coordinates": [-122.630824, 38.244756], "type": "Point"}, "id": "cfATFZgTA6HrvrrR47snYK78SnQ=", "properties": {"@spider": "usps_collection_boxes", "addr:city": "PETALUMA", "addr:country": "US", "addr:full": "905 E WASHINGTON ST", "addr:postcode": "94952", "addr:state": "CA", "brand": "USPS", "collection_times": "Mo-Fr 15:00; Sa 13:00", "name": "USPS COLLECTION BOX - BLUE BOX", "note": "ON 12/24 AND 12/31, THIS BOX MAY BE COLLECTED AS EARLY AS 12 NOON.", "ref": "9495200034"}, "type": "Feature"}
{"geometry": {"coordinates": [-122.639464, 38.235998], "type": "Point"}, "id": "5nqj_77Q79w6Mm32EAfZc9L6DDw=", "properties": {"@spider": "usps_collection_boxes", "addr:city": "PETALUMA", "addr:country": "US", "addr:full": "2 E WASHINGTON ST", "addr:postcode": "94952", "addr:state": "CA", "brand": "USPS", "collection_times": "Mo-Fr 15:00; Sa 13:00", "name": "USPS COLLECTION BOX - BLUE BOX", "note": "ON 12/24 AND 12/31, THIS BOX MAY BE COLLECTED AS EARLY AS 12 NOON.", "ref": "9495200035"}, "type": "Feature"}
{"geometry": {"coordinates": [-122.643904, 38.234737], "type": "Point"}, "id": "CdaY_WNDStWO7fS2e9gbwfwKv3U=", "properties": {"@spider": "usps_collection_boxes", "addr:city": "PETALUMA", "addr:country": "US", "addr:full": "199 LIBERTY ST", "addr:postcode": "94952", "addr:state": "CA", "brand": "USPS", "collection_times": "Mo-Fr 15:00", "name": "USPS COLLECTION BOX - BLUE BOX", "note": "ON 12/24 AND 12/31, THIS BOX MAY BE COLLECTED AS EARLY AS 12 NOON.", "ref": "9495200039"}, "type": "Feature"}
{"geometry": {"coordinates": [-122.643531, 38.245262], "type": "Point"}, "id": "KcWucPw28kCmTKCV3CSv03O9HBM=", "properties": {"@spider": "usps_collection_boxes", "addr:city": "PETALUMA", "addr:country": "US", "addr:full": "1000 PETALUMA BLVD N", "addr:postcode": "94952", "addr:state": "CA", "brand": "USPS", "collection_times": "Mo-Fr 15:00; Sa 13:00", "name": "USPS COLLECTION BOX - BLUE BOX", "note": "ON 12/24 AND 12/31, THIS BOX MAY BE COLLECTED AS EARLY AS 12 NOON.", "ref": "9495200046"}, "type": "Feature"}
{"geometry": {"coordinates": [-122.667716, 38.267414], "type": "Point"}, "id": "AbzeAHUyajGPGcynDGpUX2sSavw=", "properties": {"@spider": "usps_collection_boxes", "addr:city": "PETALUMA", "addr:country": "US", "addr:full": "1320 INDUSTRIAL AVE", "addr:postcode": "94952", "addr:state": "CA", "brand": "USPS", "collection_times": "Mo-Fr 15:00", "name": "USPS COLLECTION BOX - BLUE BOX", "note": "ON 12/24 AND 12/31, THIS BOX MAY BE COLLECTED AS EARLY AS 12 NOON.", "ref": "9495200047"}, "type": "Feature"}
{"geometry": {"coordinates": [-122.6382016019, 38.2320943694], "type": "Point"}, "id": "e6tSFSDO_aP-A45U1QbJFojx1r4=", "properties": {"@spider": "usps_collection_boxes", "addr:city": "PETALUMA", "addr:country": "US", "addr:full": "120 4TH ST", "addr:postcode": "94952", "addr:state": "CA", "brand": "USPS", "collection_times": "Mo-Fr 17:00; Sa 16:00", "name": "USPS COLLECTION BOX - PO LOBBY", "note": "ON 12/24 AND 12/31, THIS BOX MAY BE COLLECTED AS EARLY AS 12 NOON.", "ref": "9495200056"}, "type": "Feature"}
{"geometry": {"coordinates": [-122.6382016019, 38.2320943694], "type": "Point"}, "id": "gZO7qYQohQvQp5_2bYML51_uubg=", "properties": {"@spider": "usps_collection_boxes", "addr:city": "PETALUMA", "addr:country": "US", "addr:full": "120 4TH ST", "addr:postcode": "94952", "addr:state": "CA", "brand": "USPS", "collection_times": "Mo-Fr 17:00; Sa 16:00", "name": "USPS COLLECTION BOX - APC", "note": "ON 12/24 AND 12/31, THIS BOX MAY BE COLLECTED AS EARLY AS 12 NOON.", "ref": "9495200059"}, "type": "Feature"}
{"geometry": {"coordinates": [-122.6382016019, 38.2320943694], "type": "Point"}, "id": "T1ZaEvmtY9yz3rcwZ2ovIAWDlTs=", "properties": {"@spider": "usps_collection_boxes", "addr:city": "PETALUMA", "addr:country": "US", "addr:full": "120 4TH ST", "addr:postcode": "94952", "addr:state": "CA", "brand": "USPS", "collection_times": "Mo-Fr 17:00; Sa 14:00", "name": "USPS COLLECTION BOX - PO LOBBY", "note": "ON 12/24 AND 12/31, THIS BOX MAY BE COLLECTED AS EARLY AS 12 NOON.", "ref": "9495200064"}, "type": "Feature"}
{"geometry": {"coordinates": [-122.660425, 38.269188], "type": "Point"}, "id": "aTUoWHF93BaGJM-O4sCE7MfL-O4=", "properties": {"@spider": "usps_collection_boxes", "addr:city": "PETALUMA", "addr:country": "US", "addr:full": "1179 N MCDOWELL BLVD", "addr:postcode": "94954", "addr:state": "CA", "brand": "USPS", "collection_times": "Mo-Fr 15:00", "name": "USPS COLLECTION BOX - BLUE BOX", "note": "ON 12/24 AND 12/31, THIS BOX MAY BE COLLECTED AS EARLY AS 12 NOON.", "ref": "9495400008"}, "type": "Feature"}
{"geometry": {"coordinates": [-122.660412, 38.269183], "type": "Point"}, "id": "P8i16YI5ylKQS4adjDFI5q1cibU=", "properties": {"@spider": "usps_collection_boxes", "addr:city": "PETALUMA", "addr:country": "US", "addr:full": "1179 N MCDOWELL BLVD", "addr:postcode": "94954", "addr:state": "CA", "brand": "USPS", "collection_times": "Mo-Fr 15:00", "name": "USPS COLLECTION BOX - EXPRESS", "note": "ON 12/24 AND 12/31, THIS BOX MAY BE COLLECTED AS EARLY AS 12 NOON.", "ref": "9495400009"}, "type": "Feature"}
{"geometry": {"coordinates": [-122.633664, 38.252419], "type": "Point"}, "id": "VULSWqyxcXZT9XLoPzospkP5T40=", "properties": {"@spider": "usps_collection_boxes", "addr:city": "PETALUMA", "addr:country": "US", "addr:full": "100 LYNCH CREEK WAY", "addr:postcode": "94954", "addr:state": "CA", "brand": "USPS", "collection_times": "Mo-Fr 15:00", "name": "USPS COLLECTION BOX - BLUE BOX", "note": "ON 12/24 AND 12/31, THIS BOX MAY BE COLLECTED AS EARLY AS 12 NOON.", "ref": "9495400015"}, "type": "Feature"}
{"geometry": {"coordinates": [-122.631687, 38.250225], "type": "Point"}, "id": "PRuA6M_OpJtjO9l5pf_Qi0b_bJU=", "properties": {"@spider": "usps_collection_boxes", "addr:city": "PETALUMA", "addr:country": "US", "addr:full": "259 N MCDOWELL BLVD", "addr:postcode": "94954", "addr:state": "CA", "brand": "USPS", "collection_times": "Mo-Fr 15:00; Sa 13:00", "name": "USPS COLLECTION BOX - BLUE BOX", "note": "ON 12/24 AND 12/31, THIS BOX MAY BE COLLECTED AS EARLY AS 12 NOON.", "ref": "9495400018"}, "type": "Feature"}
{"geometry": {"coordinates": [-122.623541, 38.249807], "type": "Point"}, "id": "aWYUxw8MyEpxvJH0Ewoz9qTvHR8=", "properties": {"@spider": "usps_collection_boxes", "addr:city": "PETALUMA", "addr:country": "US", "addr:full": "373 S MCDOWELL BLVD", "addr:postcode": "94954", "addr:state": "CA", "brand": "USPS", "collection_times": "Mo-Fr 15:00; Sa 13:00", "name": "USPS COLLECTION BOX - BLUE BOX", "note": "ON 12/24 AND 12/31, THIS BOX MAY BE COLLECTED AS EARLY AS 12 NOON.", "ref": "9495400020"}, "type": "Feature"}
{"geometry": {"coordinates": [-122.623453, 38.249848], "type": "Point"}, "id": "VlZZ7Phd0XrHklGKB8fbPbLJthM=", "properties": {"@spider": "usps_collection_boxes", "addr:city": "PETALUMA", "addr:country": "US", "addr:full": "373 S MCDOWELL BLVD", "addr:postcode": "94954", "addr:state": "CA", "brand": "USPS", "collection_times": "Mo-Fr 15:00; Sa 13:00", "name": "USPS COLLECTION BOX - BLUE BOX", "note": "ON 12/24 AND 12/31, THIS BOX MAY BE COLLECTED AS EARLY AS 12 NOON.", "ref": "9495400021"}, "type": "Feature"}
{"geometry": {"coordinates": [-122.604572, 38.248568], "type": "Point"}, "id": "0r1x3AkLfuguHRNfj6-MF6eAfY4=", "properties": {"@spider": "usps_collection_boxes", "addr:city": "PETALUMA", "addr:country": "US", "addr:full": "833 ELY BLVD S", "addr:postcode": "94954", "addr:state": "CA", "brand": "USPS", "collection_times": "Mo-Sa 13:00", "name": "USPS COLLECTION BOX - BLUE BOX", "note": "ON 12/24 AND 12/31, THIS BOX MAY BE COLLECTED AS EARLY AS 12 NOON.", "ref": "9495400024"}, "type": "Feature"}
{"geometry": {"coordinates": [-122.59938, 38.231684], "type": "Point"}, "id": "C9xrpR9h-aDuEE_LgrI7HqrMbPk=", "properties": {"@spider": "usps_collection_boxes", "addr:city": "PETALUMA", "addr:country": "US", "addr:full": "1601 CORPORATE CIR", "addr:postcode": "94954", "addr:state": "CA", "brand": "USPS", "collection_times": "Mo-Fr 17:00; Sa 16:00", "name": "USPS COLLECTION BOX - BLUE BOX", "note": "ON 12/24 AND 12/31, THIS BOX MAY BE COLLECTED AS EARLY AS 12 NOON.", "ref": "9495400032"}, "type": "Feature"}
{"geometry": {"coordinates": [-122.599839, 38.23123], "type": "Point"}, "id": "GCH8M_woNaDlswUzEUzQVk2bhgM=", "properties": {"@spider": "usps_collection_boxes", "addr:city": "PETALUMA", "addr:country": "US", "addr:full": "1601 CORPORATE CIR", "addr:postcode": "94954", "addr:state": "CA", "brand": "USPS", "collection_times": "Mo-Fr 17:00; Sa 16:00", "name": "USPS COLLECTION BOX - BLUE BOX", "note": "ON 12/24 AND 12/31, THIS BOX MAY BE COLLECTED AS EARLY AS 12 NOON.", "ref": "9495400033"}, "type": "Feature"}
{"geometry": {"coordinates": [-122.599725, 38.230858], "type": "Point"}, "id": "SJ1ufFzCDU009LGZOdH9kqxLJqM=", "properties": {"@spider": "usps_collection_boxes", "addr:city": "PETALUMA", "addr:country": "US", "addr:full": "1601 CORPORATE CIR", "addr:postcode": "94954", "addr:state": "CA", "brand": "USPS", "collection_times": "Mo-Fr 17:00; Sa 16:00", "name": "USPS COLLECTION BOX - PO LOBBY", "note": "ON 12/24 AND 12/31, THIS BOX MAY BE COLLECTED AS EARLY AS 12 NOON.", "ref": "9495400050"}, "type": "Feature"}
{"geometry": {"coordinates": [-122.599831, 38.231244], "type": "Point"}, "id": "V58PtxgC0gs-S6vnzIC4qsNbwzo=", "properties": {"@spider": "usps_collection_boxes", "addr:city": "PETALUMA", "addr:country": "US", "addr:full": "1601 CORPORATE CIR", "addr:postcode": "94954", "addr:state": "CA", "brand": "USPS", "collection_times": "Mo-Sa 16:00", "name": "USPS COLLECTION BOX - EXPRESS", "note": "ON 12/24 AND 12/31, THIS BOX MAY BE COLLECTED AS EARLY AS 12 NOON.", "ref": "9495400052"}, "type": "Feature"}
{"geometry": {"coordinates": [-122.614088, 38.231919], "type": "Point"}, "id": "hn6OcSqBvuyf1cYyV1LwieqTF9A=", "properties": {"@spider": "usps_collection_boxes", "addr:city": "PETALUMA", "addr:country": "US", "addr:full": "775 BAYWOOD DR", "addr:postcode": "94954", "addr:state": "CA", "brand": "USPS", "collection_times": "Mo-Fr 15:00", "name": "USPS COLLECTION BOX - BLUE BOX", "note": "ON 12/24 AND 12/31, THIS BOX MAY BE COLLECTED AS EARLY AS 12 NOON.", "ref": "9495400053"}, "type": "Feature"}
{"geometry": {"coordinates": [-122.614093, 38.231922], "type": "Point"}, "id": "c9e1S-rCEdWkk3_E_e6wXOJuGGk=", "properties": {"@spider": "usps_collection_boxes", "addr:city": "PETALUMA", "addr:country": "US", "addr:full": "775 BAYWOOD DR", "addr:postcode": "94954", "addr:state": "CA", "brand": "USPS", "collection_times": "Mo-Fr 15:00", "name": "USPS COLLECTION BOX - EXPRESS", "note": "ON 12/24 AND 12/31, THIS BOX MAY BE COLLECTED AS EARLY AS 12 NOON.", "ref": "9495400054"}, "type": "Feature"}
{"geometry": {"coordinates": [-122.639425, 38.26966], "type": "Point"}, "id": "SAp19OyVegWp7HkbfcVyqMWF-1U=", "properties": {"@spider": "usps_collection_boxes", "addr:city": "PETALUMA", "addr:country": "US", "addr:full": "701 SONOMA MOUNTAIN PKWY", "addr:postcode": "94954", "addr:state": "CA", "brand": "USPS", "collection_times": "Mo-Fr 15:00; Sa 13:00", "name": "USPS COLLECTION BOX - BLUE BOX", "note": "ON 12/24 AND 12/31, THIS BOX MAY BE COLLECTED AS EARLY AS 12 NOON.", "ref": "9495400055"}, "type": "Feature"}
{"geometry": {"coordinates": [-122.614098, 38.231915], "type": "Point"}, "id": "7pwhf5qJWoJpBjCt3skc5_raHNM=", "properties": {"@spider": "usps_collection_boxes", "addr:city": "PETALUMA", "addr:country": "US", "addr:full": "775 BAYWOOD DR", "addr:postcode": "94954", "addr:state": "CA", "brand": "USPS", "collection_times": "Mo-Fr 15:00", "name": "USPS COLLECTION BOX - BLUE BOX", "note": "ON 12/24 AND 12/31, THIS BOX MAY BE COLLECTED AS EARLY AS 12 NOON.", "ref": "9495400057"}, "type": "Feature"}
{"geometry": {"coordinates": [-122.666219, 38.275397], "type": "Point"}, "id": "vXh7wdYgXd4tEBX-jBB07VsNXk4=", "properties": {"@spider": "usps_collection_boxes", "addr:city": "PETALUMA", "addr:country": "US", "addr:full": "1301 REDWOOD WAY", "addr:postcode": "94954", "addr:state": "CA", "brand": "USPS", "collection_times": "Mo-Fr 15:00", "name": "USPS COLLECTION BOX - BLUE BOX", "note": "ON 12/24 AND 12/31, THIS BOX MAY BE COLLECTED AS EARLY AS 12 NOON.", "ref": "9495400058"}, "type": "Feature"}
{"geometry": {"coordinates": [-122.599846, 38.231213], "type": "Point"}, "id": "pTeOsTBTSDnDg3qkrqe0Bpc2HdQ=", "properties": {"@spider": "usps_collection_boxes", "addr:city": "PETALUMA", "addr:country": "US", "addr:full": "1601 CORPORATE CIR", "addr:postcode": "94954", "addr:state": "CA", "brand": "USPS", "collection_times": "Mo-Fr 17:00; Sa 16:00", "name": "USPS COLLECTION BOX - BLUE BOX", "note": "ON 12/24 AND 12/31, THIS BOX MAY BE COLLECTED AS EARLY AS 12 NOON.", "ref": "9495400059"}, "type": "Feature"}
{"geometry": {"coordinates": [-122.62242, 38.249067], "type": "Point"}, "id": "EYz4YfPGJS_7YE7_DTLtafibJVw=", "properties": {"@spider": "usps_collection_boxes", "addr:city": "PETALUMA", "addr:country": "US", "addr:full": "383 S MCDOWELL BLVD", "addr:postcode": "94954", "addr:state": "CA", "brand": "USPS", "collection_times": "Mo-Fr 15:00; Sa 13:00", "name": "USPS COLLECTION BOX - BLUE BOX", "note": "ON 12/24 AND 12/31, THIS BOX MAY BE COLLECTED AS EARLY AS 12 NOON.", "ref": "9495400060"}, "type": "Feature"}
{"geometry": {"coordinates": [-122.483844, 37.858829], "type": "Point"}, "id": "mNOQHpa3jv8Zr1Xn37wTNI6r3Dc=", "properties": {"@spider": "usps_collection_boxes", "addr:city": "MUIR BEACH", "addr:country": "US", "addr:full": "1050 BRIDGEWAY", "addr:postcode": "94965", "addr:state": "CA", "brand": "USPS", "collection_times": "Mo-Sa 12:00", "name": "USPS COLLECTION BOX - BLUE BOX", "ref": "9496500001"}, "type": "Feature"}
{"geometry": {"coordinates": [-122.479566, 37.847054], "type": "Point"}, "id": "hTQarVcH9tSgu9bosou3B4LU3Ro=", "properties": {"@spider": "usps_collection_boxes", "addr:city": "MUIR BEACH", "addr:country": "US", "addr:full": "100 SOUTH ST", "addr:postcode": "94965", "addr:state": "CA", "brand": "USPS", "collection_times": "Mo-Sa 10:30", "name": "USPS COLLECTION BOX - BLUE BOX", "ref": "9496500004"}, "type": "Feature"}
{"geometry": {"coordinates": [-122.480843, 37.848733], "type": "Point"}, "id": "75G2FJW-JUYsytaATPrTFAEic4w=", "properties": {"@spider": "usps_collection_boxes", "addr:city": "MUIR BEACH", "addr:country": "US", "addr:full": "200 MAIN ST", "addr:postcode": "94965", "addr:state": "CA", "brand": "USPS", "collection_times": "Mo-Fr 10:30; Sa 13:00", "name": "USPS COLLECTION BOX - BLUE BOX", "note": "ON 12/24 AND 12/31, THIS BOX MAY BE COLLECTED AS EARLY AS 12 NOON.", "ref": "9496500006"}, "type": "Feature"}
{"geometry": {"coordinates": [-122.479023, 37.855147], "type": "Point"}, "id": "aG7fK31D2JzFVSiTCtnP7f1Y_F8=", "properties": {"@spider": "usps_collection_boxes", "addr:city": "MUIR BEACH", "addr:country": "US", "addr:full": "600 BRIDGEWAY", "addr:postcode": "94965", "addr:state": "CA", "brand": "USPS", "collection_times": "Mo-Fr 11:00; Sa 13:00", "name": "USPS COLLECTION BOX - BLUE BOX", "note": "ON 12/24 AND 12/31, THIS BOX MAY BE COLLECTED AS EARLY AS 12 NOON.", "ref": "9496500007"}, "type": "Feature"}
{"geometry": {"coordinates": [-122.490026, 37.851812], "type": "Point"}, "id": "i9q51uGN3UCZvOGZhiQ8dyj6Z-s=", "properties": {"@spider": "usps_collection_boxes", "addr:city": "MUIR BEACH", "addr:country": "US", "addr:full": "260 SPENCER AVE", "addr:postcode": "94965", "addr:state": "CA", "brand": "USPS", "collection_times": "Mo-Sa 10:45", "name": "USPS COLLECTION BOX - BLUE BOX", "ref": "9496500010"}, "type": "Feature"}
{"geometry": {"coordinates": [-122.503215, 37.870497], "type": "Point"}, "id": "-41kUv9g9A-x9j6sRx6fpU7JLhk=", "properties": {"@spider": "usps_collection_boxes", "addr:city": "MUIR BEACH", "addr:country": "US", "addr:full": "3030 BRIDGEWAY", "addr:postcode": "94965", "addr:state": "CA", "brand": "USPS", "collection_times": "Mo-Sa 10:00", "name": "USPS COLLECTION BOX - BLUE BOX", "ref": "9496500018"}, "type": "Feature"}
{"geometry": {"coordinates": [-122.5001059477, 37.8674154607], "type": "Point"}, "id": "0CCZeIy-RfXETBExjTr2i_EWgY0=", "properties": {"@spider": "usps_collection_boxes", "addr:city": "MUIR BEACH", "addr:country": "US", "addr:full": "150 HARBOR DR", "addr:postcode": "94965", "addr:state": "CA", "brand": "USPS", "collection_times": "Mo-Fr 17:00; Sa 15:15", "name": "USPS COLLECTION BOX - BLUE BOX", "note": "ON 12/24 AND 12/31, THIS BOX MAY BE COLLECTED AS EARLY AS 12 NOON.", "ref": "9496500021"}, "type": "Feature"}
{"geometry": {"coordinates": [-122.480267, 37.856742], "type": "Point"}, "id": "TscRUIfV8zNaXWPVnvnoO5k3FuA=", "properties": {"@spider": "usps_collection_boxes", "addr:city": "MUIR BEACH", "addr:country": "US", "addr:full": "777 BRIDGEWAY", "addr:postcode": "94965", "addr:state": "CA", "brand": "USPS", "collection_times": "Mo-Sa 09:00", "name": "USPS COLLECTION BOX - BLUE BOX", "ref": "9496500022"}, "type": "Feature"}
{"geometry": {"coordinates": [-122.484362, 37.858811], "type": "Point"}, "id": "ZC3icSWg8_RDqJTr97nSsLfTMYU=", "properties": {"@spider": "usps_collection_boxes", "addr:city": "MUIR BEACH", "addr:country": "US", "addr:full": "1103 BRIDGEWAY", "addr:postcode": "94965", "addr:state": "CA", "brand": "USPS", "collection_times": "Mo-Sa 11:30", "name": "USPS COLLECTION BOX - BLUE BOX", "ref": "9496500024"}, "type": "Feature"}
{"geometry": {"coordinates": [-122.487929, 37.85988], "type": "Point"}, "id": "Qi8sAbX2Gz9F4Jo04vdEMgBxnzk=", "properties": {"@spider": "usps_collection_boxes", "addr:city": "MUIR BEACH", "addr:country": "US", "addr:full": "339 CALEDONIA ST", "addr:postcode": "94965", "addr:state": "CA", "brand": "USPS", "collection_times": "Mo-Sa 11:30", "name": "USPS COLLECTION BOX - BLUE BOX", "ref": "9496500025"}, "type": "Feature"}
{"geometry": {"coordinates": [-122.477321, 37.835923], "type": "Point"}, "id": "8hKCIOjvJ7nmEbyzHsw7w38yt_8=", "properties": {"@spider": "usps_collection_boxes", "addr:city": "MUIR BEACH", "addr:country": "US", "addr:full": "557 MCREYNOLDS RD", "addr:postcode": "94965", "addr:state": "CA", "brand": "USPS", "collection_times": "Mo-Sa 11:00", "name": "USPS COLLECTION BOX - BLUE BOX", "ref": "9496500030"}, "type": "Feature"}
{"geometry": {"coordinates": [-122.493781, 37.862815], "type": "Point"}, "id": "Oh02-Cg5CF4FaVTWzsFcIlzLHcs=", "properties": {"@spider": "usps_collection_boxes", "addr:city": "MUIR BEACH", "addr:country": "US", "addr:full": "10 LIBERTY SHIP WAY", "addr:postcode": "94965", "addr:state": "CA", "brand": "USPS", "collection_times": "Mo-Sa 10:30", "name": "USPS COLLECTION BOX - BLUE BOX", "ref": "9496500031"}, "type": "Feature"}
{"geometry": {"coordinates": [-122.5001059477, 37.8674154607], "type": "Point"}, "id": "9gCIrnNsv5hb3Bgy5kItibtJ7I4=", "properties": {"@spider": "usps_collection_boxes", "addr:city": "MUIR BEACH", "addr:country": "US", "addr:full": "150 HARBOR DR", "addr:postcode": "94965", "addr:state": "CA", "brand": "USPS", "collection_times": "Mo-Fr 17:30; Sa 15:15", "name": "USPS COLLECTION BOX - PO LOBBY", "note": "ON 12/24 AND 12/31, THIS BOX MAY BE COLLECTED AS EARLY AS 12 NOON.", "ref": "9496500033"}, "type": "Feature"}
{"geometry": {"coordinates": [-122.574469, 37.864799], "type": "Point"}, "id": "GxdhPoVLcwGrmTYY9Q9j9NotBko=", "properties": {"@spider": "usps_collection_boxes", "addr:city": "MUIR BEACH", "addr:country": "US", "addr:full": "1760 SHORELINE HWY", "addr:postcode": "94965", "addr:state": "CA", "brand": "USPS", "collection_times": "Mo-Sa 09:30", "name": "USPS COLLECTION BOX - BLUE BOX", "ref": "9496500034"}, "type": "Feature"}
{"geometry": {"coordinates": [-122.497736, 37.865065], "type": "Point"}, "id": "KAjlG1QViChcwWu7l0YX4wIivhA=", "properties": {"@spider": "usps_collection_boxes", "addr:city": "MUIR BEACH", "addr:country": "US", "addr:full": "2330 MARINSHIP WAY", "addr:postcode": "94965", "addr:state": "CA", "brand": "USPS", "collection_times": "Mo-Sa 10:30", "name": "USPS COLLECTION BOX - BLUE BOX", "ref": "9496500035"}, "type": "Feature"}
{"geometry": {"coordinates": [-122.497751, 37.865063], "type": "Point"}, "id": "p-vpMUbSsXPGEUWrOg_4-fTTE5I=", "properties": {"@spider": "usps_collection_boxes", "addr:city": "MUIR BEACH", "addr:country": "US", "addr:full": "2330 MARINSHIP WAY", "addr:postcode": "94965", "addr:state": "CA", "brand": "USPS", "collection_times": "Mo-Sa 10:30", "name": "USPS COLLECTION BOX - BLUE BOX", "ref": "9496500036"}, "type": "Feature"}
{"geometry": {"coordinates": [-122.511308, 37.872784], "type": "Point"}, "id": "oi9yCEvolI86HIJqcBId1V-hIH0=", "properties": {"@spider": "usps_collection_boxes", "addr:city": "MUIR BEACH", "addr:country": "US", "addr:full": "160 DONAHUE ST STE C", "addr:postcode": "94965", "addr:state": "CA", "brand": "USPS", "collection_times": "Mo-Fr 11:00; Sa 13:00", "name": "USPS COLLECTION BOX - BLUE BOX", "note": "ON 12/24 AND 12/31, THIS BOX MAY BE COLLECTED AS EARLY AS 12 NOON.", "ref": "9496500037"}, "type": "Feature"}
{"geometry": {"coordinates": [-122.509156, 37.871236], "type": "Point"}, "id": "uQMC-XSmlaOp-184dpjMNPZuf2w=", "properties": {"@spider": "usps_collection_boxes", "addr:city": "MUIR BEACH", "addr:country": "US", "addr:full": "100 DRAKE AVE", "addr:postcode": "94965", "addr:state": "CA", "brand": "USPS", "collection_times": "Mo-Fr 12:00; Sa 13:00", "name": "USPS COLLECTION BOX - BLUE BOX", "note": "ON 12/24 AND 12/31, THIS BOX MAY BE COLLECTED AS EARLY AS 12 NOON.", "ref": "9496500038"}, "type": "Feature"}
{"geometry": {"coordinates": [-122.5001059477, 37.8674154607], "type": "Point"}, "id": "-PmugFAmMDdD1KVBeD5Z0WAtkgo=", "properties": {"@spider": "usps_collection_boxes", "addr:city": "MUIR BEACH", "addr:country": "US", "addr:full": "150 HARBOR DR", "addr:postcode": "94965", "addr:state": "CA", "brand": "USPS", "collection_times": "Mo-Fr 17:00", "name": "USPS COLLECTION BOX - PO LOBBY", "note": "ON 12/24 AND 12/31, THIS BOX MAY BE COLLECTED AS EARLY AS 12 NOON.", "ref": "9496500046"}, "type": "Feature"}
{"geometry": {"coordinates": [-122.639934, 37.897967], "type": "Point"}, "id": "-rBZMZaN6cpFgH6hqGNLBLtD7bw=", "properties": {"@spider": "usps_collection_boxes", "addr:city": "STINSON BEACH", "addr:country": "US", "addr:full": "15 CALLE DEL MAR", "addr:postcode": "94970", "addr:state": "CA", "brand": "USPS", "collection_times": "Mo-Fr 15:45; Sa 11:00", "name": "USPS COLLECTION BOX - BLUE BOX", "note": "ON 12/24 AND 12/31, THIS BOX MAY BE COLLECTED AS EARLY AS 12 NOON.", "ref": "9497000003"}, "type": "Feature"}
{"geometry": {"coordinates": [-122.639934, 37.897967], "type": "Point"}, "id": "USua-F-h5mRcoBflM2DjpagexZA=", "properties": {"@spider": "usps_collection_boxes", "addr:city": "STINSON BEACH", "addr:country": "US", "addr:full": "15 CALLE DEL MAR", "addr:postcode": "94970", "addr:state": "CA", "brand": "USPS", "collection_times": "Mo-Fr 16:30", "name": "USPS COLLECTION BOX - PO LOBBY", "note": "ON 12/24 AND 12/31, THIS BOX MAY BE COLLECTED AS EARLY AS 12 NOON.", "ref": "9497000004"}, "type": "Feature"}
{"geometry": {"coordinates": [-122.6399359329, 37.8979660788], "type": "Point"}, "id": "5iIhq7jyml8_dzkKtWRVmHjuN90=", "properties": {"@spider": "usps_collection_boxes", "addr:city": "STINSON BEACH", "addr:country": "US", "addr:full": "15 CALLE DEL MAR", "addr:postcode": "94970", "addr:state": "CA", "brand": "USPS", "collection_times": "Mo-Fr 17:00", "name": "USPS COLLECTION BOX - PO LOBBY", "note": "ON 12/24 AND 12/31, THIS BOX MAY BE COLLECTED AS EARLY AS 12 NOON.", "ref": "9497000005"}, "type": "Feature"}
{"geometry": {"coordinates": [-122.904854, 38.246387], "type": "Point"}, "id": "0nYcSx7P8cjQBtGtocEfe29s4OQ=", "properties": {"@spider": "usps_collection_boxes", "addr:city": "TOMALES", "addr:country": "US", "addr:full": "27005 SHORELINE HWY", "addr:postcode": "94971", "addr:state": "CA", "brand": "USPS", "collection_times": "Mo-Fr 14:45", "name": "USPS COLLECTION BOX - BLUE BOX", "note": "ON 12/24 AND 12/31, THIS BOX MAY BE COLLECTED AS EARLY AS 12 NOON.", "ref": "9497100003"}, "type": "Feature"}
{"geometry": {"coordinates": [-122.904853, 38.246396], "type": "Point"}, "id": "wVrHX09weeWDPxbUYuNbGtGqP4o=", "properties": {"@spider": "usps_collection_boxes", "addr:city": "TOMALES", "addr:country": "US", "addr:full": "27005 SHORELINE HWY", "addr:postcode": "94971", "addr:state": "CA", "brand": "USPS", "collection_times": "Mo-Fr 14:45", "name": "USPS COLLECTION BOX - PO LOBBY", "note": "ON 12/24 AND 12/31, THIS BOX MAY BE COLLECTED AS EARLY AS 12 NOON.", "ref": "9497100004"}, "type": "Feature"}
{"geometry": {"coordinates": [-122.9048452788, 38.2465169265], "type": "Point"}, "id": "N3q1IoGc2dwExIrt06uZL-vzxvo=", "properties": {"@spider": "usps_collection_boxes", "addr:city": "TOMALES", "addr:country": "US", "addr:full": "27005 HIGHWAY 1", "addr:postcode": "94971", "addr:state": "CA", "brand": "USPS", "collection_times": "Mo-Fr 14:30", "name": "USPS COLLECTION BOX - PO LOBBY", "note": "ON 12/24 AND 12/31, THIS BOX MAY BE COLLECTED AS EARLY AS 12 NOON.", "ref": "9497100005"}, "type": "Feature"}
{"geometry": {"coordinates": [-122.925158, 38.318179], "type": "Point"}, "id": "pVhNxhyAPHIiPWwuLr39cwyACwM=", "properties": {"@spider": "usps_collection_boxes", "addr:city": "VALLEY FORD", "addr:country": "US", "addr:full": "14449 HIGHWAY 1", "addr:postcode": "94972", "addr:state": "CA", "brand": "USPS", "collection_times": "Mo-Fr 14:15", "name": "USPS COLLECTION BOX - BLUE BOX", "note": "ON 12/24 AND 12/31, THIS BOX MAY BE COLLECTED AS EARLY AS 12 NOON.", "ref": "9497200003"}, "type": "Feature"}
{"geometry": {"coordinates": [-122.925204, 38.318216], "type": "Point"}, "id": "O7p6KBLtkzB7KyMBkLeaIgXcM9Q=", "properties": {"@spider": "usps_collection_boxes", "addr:city": "VALLEY FORD", "addr:country": "US", "addr:full": "14449 HIGHWAY 1", "addr:postcode": "94972", "addr:state": "CA", "brand": "USPS", "collection_times": "Mo-Fr 14:15", "name": "USPS COLLECTION BOX - PO LOBBY", "note": "ON 12/24 AND 12/31, THIS BOX MAY BE COLLECTED AS EARLY AS 12 NOON.", "ref": "9497200004"}, "type": "Feature"}
{"geometry": {"coordinates": [-122.9251309769, 38.318120798], "type": "Point"}, "id": "yMOVRG4P3Cu-FIod3dMnMtvE6j8=", "properties": {"@spider": "usps_collection_boxes", "addr:city": "VALLEY FORD", "addr:country": "US", "addr:full": "14449 HIGHWAY 1", "addr:postcode": "94972", "addr:state": "CA", "brand": "USPS", "collection_times": "Mo-Fr 14:30", "name": "USPS COLLECTION BOX - PO LOBBY", "note": "ON 12/24 AND 12/31, THIS BOX MAY BE COLLECTED AS EARLY AS 12 NOON.", "ref": "9497200006"}, "type": "Feature"}
{"geometry": {"coordinates": [-122.6587729616, 38.2678505268], "type": "Point"}, "id": "wDMi8VPqROzY_40YshuRiR3iKrc=", "properties": {"@spider": "usps_collection_boxes", "addr:city": "PETALUMA", "addr:country": "US", "addr:full": "1150 N MCDOWELL BLVD", "addr:postcode": "94999", "addr:state": "CA", "brand": "USPS", "collection_times": "Mo-Fr 18:30; Sa 19:00", "name": "USPS COLLECTION BOX - BLUE BOX", "note": "ON 12/24 AND 12/31, THIS BOX MAY BE COLLECTED AS EARLY AS 12 NOON.", "ref": "9499900001"}, "type": "Feature"}
{"geometry": {"coordinates": [-122.6587729616, 38.2678505268], "type": "Point"}, "id": "rm62SMVL1NIkk9fmCaBwdHxd5YY=", "properties": {"@spider": "usps_collection_boxes", "addr:city": "PETALUMA", "addr:country": "US", "addr:full": "1150 N MCDOWELL BLVD", "addr:postcode": "94999", "addr:state": "CA", "brand": "USPS", "collection_times": "Mo-Fr 18:30; Sa 19:00", "name": "USPS COLLECTION BOX - BLUE BOX", "note": "ON 12/24 AND 12/31, THIS BOX MAY BE COLLECTED AS EARLY AS 12 NOON.", "ref": "9499900002"}, "type": "Feature"}
{"geometry": {"coordinates": [-122.6587729616, 38.2678505268], "type": "Point"}, "id": "sW7e9qWMmoHxOKvj9mYnAJlyjS0=", "properties": {"@spider": "usps_collection_boxes", "addr:city": "PETALUMA", "addr:country": "US", "addr:full": "1150 N MCDOWELL BLVD", "addr:postcode": "94999", "addr:state": "CA", "brand": "USPS", "collection_times": "Mo-Fr 18:30; Sa 19:00", "name": "USPS COLLECTION BOX - BLUE BOX", "note": "ON 12/24 AND 12/31, THIS BOX MAY BE COLLECTED AS EARLY AS 12 NOON.", "ref": "9499900003"}, "type": "Feature"}
{"geometry": {"coordinates": [-122.6587729616, 38.2678505268], "type": "Point"}, "id": "75lUgqNVUJX6beJDrOW3PFSX28Q=", "properties": {"@spider": "usps_collection_boxes", "addr:city": "PETALUMA", "addr:country": "US", "addr:full": "1150 N MCDOWELL BLVD", "addr:postcode": "94999", "addr:state": "CA", "brand": "USPS", "collection_times": "Mo-Sa 16:00", "name": "USPS COLLECTION BOX - EXPRESS", "note": "ON 12/24 AND 12/31, THIS BOX MAY BE COLLECTED AS EARLY AS 12 NOON.", "ref": "9499900004"}, "type": "Feature"}
{"geometry": {"coordinates": [-122.6587729616, 38.2678505268], "type": "Point"}, "id": "-z2cfgpP8V4Ue6pnWJ0_fVHt0a0=", "properties": {"@spider": "usps_collection_boxes", "addr:city": "PETALUMA", "addr:country": "US", "addr:full": "1150 N MCDOWELL BLVD", "addr:postcode": "94999", "addr:state": "CA", "brand": "USPS", "collection_times": "Mo-Fr 18:30; Sa 19:00", "name": "USPS COLLECTION BOX - BLUE BOX", "note": "ON 12/24 AND 12/31, THIS BOX MAY BE COLLECTED AS EARLY AS 12 NOON.", "ref": "9499900005"}, "type": "Feature"}
{"geometry": {"coordinates": [-122.6587729616, 38.2678505268], "type": "Point"}, "id": "EjrkJ4fO1lqbZetu1TC1qE_veuc=", "properties": {"@spider": "usps_collection_boxes", "addr:city": "PETALUMA", "addr:country": "US", "addr:full": "1150 N MCDOWELL BLVD", "addr:postcode": "94999", "addr:state": "CA", "brand": "USPS", "collection_times": "Mo-Fr 17:00; Sa 19:00", "name": "USPS COLLECTION BOX - PO LOBBY", "note": "ON 12/24 AND 12/31, THIS BOX MAY BE COLLECTED AS EARLY AS 12 NOON.", "ref": "9499900006"}, "type": "Feature"}
{"geometry": {"coordinates": [-122.6587729616, 38.2678505268], "type": "Point"}, "id": "xKeojX9rXEOo3v2Vbnmje4LRLyM=", "properties": {"@spider": "usps_collection_boxes", "addr:city": "PETALUMA", "addr:country": "US", "addr:full": "1150 N MCDOWELL BLVD", "addr:postcode": "94999", "addr:state": "CA", "brand": "USPS", "collection_times": "Mo-Fr 17:00; Sa 19:00", "name": "USPS COLLECTION BOX - APC", "note": "ON 12/24 AND 12/31, THIS BOX MAY BE COLLECTED AS EARLY AS 12 NOON.", "ref": "9499900007"}, "type": "Feature"}
{"geometry": {"coordinates": [-122.6587729616, 38.2678505268], "type": "Point"}, "id": "crSE11EKYTZy3kMymA1lMf7B1AU=", "properties": {"@spider": "usps_collection_boxes", "addr:city": "PETALUMA", "addr:country": "US", "addr:full": "1150 N MCDOWELL BLVD", "addr:postcode": "94999", "addr:state": "CA", "brand": "USPS", "collection_times": "Mo-Fr 17:00", "name": "USPS COLLECTION BOX - PO LOBBY", "note": "ON 12/24 AND 12/31, THIS BOX MAY BE COLLECTED AS EARLY AS 12 NOON.", "ref": "9499900009"}, "type": "Feature"}
