{"geometry": {"coordinates": [-121.287619, 37.954227], "type": "Point"}, "id": "dm4IrSh-OPRSmlitF_x-KNFIV64=", "properties": {"@source_uri": "https://tools.usps.com/UspsToolsRestServices/rest/POLocator/findLocations", "@spider": "usps_collection_boxes", "addr:city": "STOCKTON", "addr:country": "US", "addr:postcode": "95202", "addr:state": "CA", "addr:street_address": "255 E WEBER AVE", "amenity": "post_box", "collection_times": "Mo-Sa 13:30", "note": "ON 12/24 AND 12/31, THIS BOX MAY BE COLLECTED AS EARLY AS 12 NOON.", "nsi_id": "unitedstatespostalservice-a77078", "operator": "United States Postal Service", "operator:short": "USPS", "operator:type": "public", "operator:wikidata": "Q668687", "ref": "9520200062"}, "type": "Feature"}
{"geometry": {"coordinates": [-121.2940667377, 37.9634783675], "type": "Point"}, "id": "IMNx3UMYCcQk88gJbNyDI-zNUKM=", "properties": {"@source_uri": "https://tools.usps.com/UspsToolsRestServices/rest/POLocator/findLocations", "@spider": "usps_collection_boxes", "addr:city": "STOCKTON", "addr:country": "US", "addr:postcode": "95202", "addr:state": "CA", "addr:street_address": "1108 N CENTER ST", "amenity": "post_box", "collection_times": "Mo-Sa 14:00", "note": "ON 12/24 AND 12/31, THIS BOX MAY BE COLLECTED AS EARLY AS 12 NOON.", "nsi_id": "unitedstatespostalservice-a77078", "operator": "United States Postal Service", "operator:short": "USPS", "operator:type": "public", "operator:wikidata": "Q668687", "ref": "9520200083"}, "type": "Feature"}
{"geometry": {"coordinates": [-121.288466, 37.954926], "type": "Point"}, "id": "zCUw0i0eCiDx0wvjMTLuHNLJ4as=", "properties": {"@source_uri": "https://tools.usps.com/UspsToolsRestServices/rest/POLocator/findLocations", "@spider": "usps_collection_boxes", "addr:city": "STOCKTON", "addr:country": "US", "addr:postcode": "95202", "addr:state": "CA", "addr:street_address": "240 E CHANNEL ST", "amenity": "post_box", "collection_times": "Mo-Fr 17:00", "indoor": "yes", "note": "ON 12/24 AND 12/31, THIS BOX MAY BE COLLECTED AS EARLY AS 12 NOON.", "nsi_id": "unitedstatespostalservice-a77078", "operator": "United States Postal Service", "operator:short": "USPS", "operator:type": "public", "operator:wikidata": "Q668687", "ref": "9520200090"}, "type": "Feature"}
{"geometry": {"coordinates": [-121.288470886, 37.954872118], "type": "Point"}, "id": "ld-Q8kEra0RHWSLsxZEXuqnTs7U=", "properties": {"@source_uri": "https://tools.usps.com/UspsToolsRestServices/rest/POLocator/findLocations", "@spider": "usps_collection_boxes", "addr:city": "STOCKTON", "addr:country": "US", "addr:postcode": "95202", "addr:state": "CA", "addr:street_address": "240 E CHANNEL ST", "amenity": "post_box", "collection_times": "Mo-Fr 17:00", "indoor": "yes", "note": "ON 12/24 AND 12/31, THIS BOX MAY BE COLLECTED AS EARLY AS 12 NOON.", "nsi_id": "unitedstatespostalservice-a77078", "operator": "United States Postal Service", "operator:short": "USPS", "operator:type": "public", "operator:wikidata": "Q668687", "ref": "9520200100"}, "type": "Feature"}
{"geometry": {"coordinates": [-121.300445, 37.961362], "type": "Point"}, "id": "rKl0wn6iRXIduYNx7rquojDyMT8=", "properties": {"@source_uri": "https://tools.usps.com/UspsToolsRestServices/rest/POLocator/findLocations", "@spider": "usps_collection_boxes", "addr:city": "STOCKTON", "addr:country": "US", "addr:postcode": "95203", "addr:state": "CA", "addr:street_address": "525 W ACACIA ST", "amenity": "post_box", "collection_times": "Mo-Sa 13:30", "note": "ON 12/24 AND 12/31, THIS BOX MAY BE COLLECTED AS EARLY AS 12 NOON.", "nsi_id": "unitedstatespostalservice-a77078", "operator": "United States Postal Service", "operator:short": "USPS", "operator:type": "public", "operator:wikidata": "Q668687", "ref": "9520300086"}, "type": "Feature"}
{"geometry": {"coordinates": [-121.290437, 37.974373], "type": "Point"}, "id": "_ZvQce-cS3DmZNTiwkkcxUPm9aE=", "properties": {"@source_uri": "https://tools.usps.com/UspsToolsRestServices/rest/POLocator/findLocations", "@spider": "usps_collection_boxes", "addr:city": "STOCKTON", "addr:country": "US", "addr:postcode": "95204", "addr:state": "CA", "addr:street_address": "2308 N CALIFORNIA ST", "amenity": "post_box", "collection_times": "Mo-Sa 14:00", "note": "ON 12/24 AND 12/31, THIS BOX MAY BE COLLECTED AS EARLY AS 12 NOON.", "nsi_id": "unitedstatespostalservice-a77078", "operator": "United States Postal Service", "operator:short": "USPS", "operator:type": "public", "operator:wikidata": "Q668687", "ref": "9520400010"}, "type": "Feature"}
{"geometry": {"coordinates": [-121.29765, 37.97394], "type": "Point"}, "id": "oWpvPo_0l3NT93y9JwWhEid-J1g=", "properties": {"@source_uri": "https://tools.usps.com/UspsToolsRestServices/rest/POLocator/findLocations", "@spider": "usps_collection_boxes", "addr:city": "STOCKTON", "addr:country": "US", "addr:postcode": "95204", "addr:state": "CA", "addr:street_address": "2616 PACIFIC AVE", "amenity": "post_box", "collection_times": "Mo-Sa 17:00", "note": "ON 12/24 AND 12/31, THIS BOX MAY BE COLLECTED AS EARLY AS 12 NOON.", "nsi_id": "unitedstatespostalservice-a77078", "operator": "United States Postal Service", "operator:short": "USPS", "operator:type": "public", "operator:wikidata": "Q668687", "ref": "9520400038"}, "type": "Feature"}
{"geometry": {"coordinates": [-121.309896, 37.981707], "type": "Point"}, "id": "zWIuyJM9tZ9Jo_XtR6ODIOhCV6Q=", "properties": {"@source_uri": "https://tools.usps.com/UspsToolsRestServices/rest/POLocator/findLocations", "@spider": "usps_collection_boxes", "addr:city": "STOCKTON", "addr:country": "US", "addr:postcode": "95204", "addr:state": "CA", "addr:street_address": "3601 PACIFIC AVE", "amenity": "post_box", "collection_times": "Mo-Sa 14:30", "note": "ON 12/24 AND 12/31, THIS BOX MAY BE COLLECTED AS EARLY AS 12 NOON.", "nsi_id": "unitedstatespostalservice-a77078", "operator": "United States Postal Service", "operator:short": "USPS", "operator:type": "public", "operator:wikidata": "Q668687", "ref": "9520400042"}, "type": "Feature"}
{"geometry": {"coordinates": [-121.302329, 37.974613], "type": "Point"}, "id": "ZIolfJt7ttQvCBr4AGCuEcDQ1Jw=", "properties": {"@source_uri": "https://tools.usps.com/UspsToolsRestServices/rest/POLocator/findLocations", "@spider": "usps_collection_boxes", "addr:city": "STOCKTON", "addr:country": "US", "addr:postcode": "95204", "addr:state": "CA", "addr:street_address": "2616 PACIFIC AVE", "amenity": "post_box", "collection_times": "Mo-Fr 17:00; Sa 09:00", "indoor": "yes", "note": "ON 12/24 AND 12/31, THIS BOX MAY BE COLLECTED AS EARLY AS 12 NOON.", "nsi_id": "unitedstatespostalservice-a77078", "operator": "United States Postal Service", "operator:short": "USPS", "operator:type": "public", "operator:wikidata": "Q668687", "ref": "9520400049"}, "type": "Feature"}
{"geometry": {"coordinates": [-121.302344, 37.974616], "type": "Point"}, "id": "3JKwXPvVyzJAJcvEaCyhXvqrfew=", "properties": {"@source_uri": "https://tools.usps.com/UspsToolsRestServices/rest/POLocator/findLocations", "@spider": "usps_collection_boxes", "addr:city": "STOCKTON", "addr:country": "US", "addr:postcode": "95204", "addr:state": "CA", "addr:street_address": "2616 PACIFIC AVE", "amenity": "post_box", "collection_times": "Mo-Fr 17:00; Sa 09:00", "indoor": "yes", "note": "ON 12/24 AND 12/31, THIS BOX MAY BE COLLECTED AS EARLY AS 12 NOON.", "nsi_id": "unitedstatespostalservice-a77078", "operator": "United States Postal Service", "operator:short": "USPS", "operator:type": "public", "operator:wikidata": "Q668687", "ref": "9520400050"}, "type": "Feature"}
{"geometry": {"coordinates": [-121.246445, 37.987196], "type": "Point"}, "id": "EkFrj0-g-bSsBPN3vTOOeRlnFXM=", "properties": {"@source_uri": "https://tools.usps.com/UspsToolsRestServices/rest/POLocator/findLocations", "@spider": "usps_collection_boxes", "addr:city": "STOCKTON", "addr:country": "US", "addr:postcode": "95205", "addr:state": "CA", "addr:street_address": "4407 E WATERLOO RD", "amenity": "post_box", "collection_times": "Mo-Sa 09:30", "nsi_id": "unitedstatespostalservice-a77078", "operator": "United States Postal Service", "operator:short": "USPS", "operator:type": "public", "operator:wikidata": "Q668687", "ref": "9520500017"}, "type": "Feature"}
{"geometry": {"coordinates": [-121.242979, 37.954392], "type": "Point"}, "id": "u0sQ49ashIcf90pxh9VXlP9-VPE=", "properties": {"@source_uri": "https://tools.usps.com/UspsToolsRestServices/rest/POLocator/findLocations", "@spider": "usps_collection_boxes", "addr:city": "STOCKTON", "addr:country": "US", "addr:postcode": "95205", "addr:state": "CA", "addr:street_address": "3333 E MAIN ST", "amenity": "post_box", "collection_times": "Mo-Fr 17:00; Sa 14:30", "indoor": "yes", "note": "ON 12/24 AND 12/31, THIS BOX MAY BE COLLECTED AS EARLY AS 12 NOON.", "nsi_id": "unitedstatespostalservice-a77078", "operator": "United States Postal Service", "operator:short": "USPS", "operator:type": "public", "operator:wikidata": "Q668687", "ref": "9520500022"}, "type": "Feature"}
{"geometry": {"coordinates": [-121.242979, 37.954392], "type": "Point"}, "id": "TZ-YTRIrue73MCVpSNhqTNQIXPk=", "properties": {"@source_uri": "https://tools.usps.com/UspsToolsRestServices/rest/POLocator/findLocations", "@spider": "usps_collection_boxes", "addr:city": "STOCKTON", "addr:country": "US", "addr:postcode": "95205", "addr:state": "CA", "addr:street_address": "3333 E MAIN ST", "amenity": "post_box", "collection_times": "Mo-Fr 17:00; Sa 14:30", "indoor": "yes", "note": "ON 12/24 AND 12/31, THIS BOX MAY BE COLLECTED AS EARLY AS 12 NOON.", "nsi_id": "unitedstatespostalservice-a77078", "operator": "United States Postal Service", "operator:short": "USPS", "operator:type": "public", "operator:wikidata": "Q668687", "ref": "9520500023"}, "type": "Feature"}
{"geometry": {"coordinates": [-121.243118998, 37.954411436], "type": "Point"}, "id": "jtRv9y912NKpJwlYr2HDnrgrHpU=", "properties": {"@source_uri": "https://tools.usps.com/UspsToolsRestServices/rest/POLocator/findLocations", "@spider": "usps_collection_boxes", "addr:city": "STOCKTON", "addr:country": "US", "addr:postcode": "95205", "addr:state": "CA", "addr:street_address": "3333 E MAIN ST", "amenity": "post_box", "collection_times": "Mo-Fr 17:00; Sa 13:00", "indoor": "yes", "note": "ON 12/24 AND 12/31, THIS BOX MAY BE COLLECTED AS EARLY AS 12 NOON.", "nsi_id": "unitedstatespostalservice-a77078", "operator": "United States Postal Service", "operator:short": "USPS", "operator:type": "public", "operator:wikidata": "Q668687", "ref": "9520500028"}, "type": "Feature"}
{"geometry": {"coordinates": [-121.285263, 37.936184], "type": "Point"}, "id": "c_4xMgxwTSi_jYuvhsOS_Es4yac=", "properties": {"@source_uri": "https://tools.usps.com/UspsToolsRestServices/rest/POLocator/findLocations", "@spider": "usps_collection_boxes", "addr:city": "STOCKTON", "addr:country": "US", "addr:postcode": "95206", "addr:state": "CA", "addr:street_address": "1610 S EL DORADO ST", "amenity": "post_box", "collection_times": "Mo-Fr 17:00; Sa 10:00", "indoor": "yes", "note": "ON 12/24 AND 12/31, THIS BOX MAY BE COLLECTED AS EARLY AS 12 NOON.", "nsi_id": "unitedstatespostalservice-a77078", "operator": "United States Postal Service", "operator:short": "USPS", "operator:type": "public", "operator:wikidata": "Q668687", "ref": "9520600030"}, "type": "Feature"}
{"geometry": {"coordinates": [-121.285315, 37.936248], "type": "Point"}, "id": "90ibfXg6LAHNILlxkNpR6jSFTbg=", "properties": {"@source_uri": "https://tools.usps.com/UspsToolsRestServices/rest/POLocator/findLocations", "@spider": "usps_collection_boxes", "addr:city": "STOCKTON", "addr:country": "US", "addr:postcode": "95206", "addr:state": "CA", "addr:street_address": "1610 S EL DORADO ST", "amenity": "post_box", "collection_times": "Mo-Fr 17:00; Sa 10:00", "indoor": "yes", "note": "ON 12/24 AND 12/31, THIS BOX MAY BE COLLECTED AS EARLY AS 12 NOON.", "nsi_id": "unitedstatespostalservice-a77078", "operator": "United States Postal Service", "operator:short": "USPS", "operator:type": "public", "operator:wikidata": "Q668687", "ref": "9520600031"}, "type": "Feature"}
{"geometry": {"coordinates": [-121.292322, 37.911059], "type": "Point"}, "id": "r29ZssECMgUIRjffF6BMp7X8DTE=", "properties": {"@source_uri": "https://tools.usps.com/UspsToolsRestServices/rest/POLocator/findLocations", "@spider": "usps_collection_boxes", "addr:city": "STOCKTON", "addr:country": "US", "addr:postcode": "95206", "addr:state": "CA", "addr:street_address": "3526 MANTHEY RD", "amenity": "post_box", "collection_times": "Mo-Sa 12:30", "note": "ON 12/24 AND 12/31, THIS BOX MAY BE COLLECTED AS EARLY AS 12 NOON.", "nsi_id": "unitedstatespostalservice-a77078", "operator": "United States Postal Service", "operator:short": "USPS", "operator:type": "public", "operator:wikidata": "Q668687", "ref": "9520600035"}, "type": "Feature"}
{"geometry": {"coordinates": [-121.285220095, 37.936027005], "type": "Point"}, "id": "p0ZOV7K5Oya85h6Cnm6BO5ngd_w=", "properties": {"@source_uri": "https://tools.usps.com/UspsToolsRestServices/rest/POLocator/findLocations", "@spider": "usps_collection_boxes", "addr:city": "STOCKTON", "addr:country": "US", "addr:postcode": "95206", "addr:state": "CA", "addr:street_address": "1610 S EL DORADO ST", "amenity": "post_box", "collection_times": "Mo-Fr 17:00", "indoor": "yes", "note": "ON 12/24 AND 12/31, THIS BOX MAY BE COLLECTED AS EARLY AS 12 NOON.", "nsi_id": "unitedstatespostalservice-a77078", "operator": "United States Postal Service", "operator:short": "USPS", "operator:type": "public", "operator:wikidata": "Q668687", "ref": "9520600038"}, "type": "Feature"}
{"geometry": {"coordinates": [-121.322066, 38.0028893], "type": "Point"}, "id": "AE_BVaYmO0osYXA-YFVFisU7eZY=", "properties": {"@source_uri": "https://tools.usps.com/UspsToolsRestServices/rest/POLocator/findLocations", "@spider": "usps_collection_boxes", "addr:city": "STOCKTON", "addr:country": "US", "addr:postcode": "95207", "addr:state": "CA", "addr:street_address": "6807 GETTYSBURG PL", "amenity": "post_box", "collection_times": "Mo-Sa 12:30", "note": "ON 12/24 AND 12/31, THIS BOX MAY BE COLLECTED AS EARLY AS 12 NOON.", "nsi_id": "unitedstatespostalservice-a77078", "operator": "United States Postal Service", "operator:short": "USPS", "operator:type": "public", "operator:wikidata": "Q668687", "ref": "9520700012"}, "type": "Feature"}
{"geometry": {"coordinates": [-121.3190623621, 37.9898651276], "type": "Point"}, "id": "tdIhLcyeh9q1vYm1Dz3nQyQ2uoM=", "properties": {"@source_uri": "https://tools.usps.com/UspsToolsRestServices/rest/POLocator/findLocations", "@spider": "usps_collection_boxes", "addr:city": "STOCKTON", "addr:country": "US", "addr:postcode": "95207", "addr:state": "CA", "addr:street_address": "1121 W MARCH LN", "amenity": "post_box", "collection_times": "Mo-Sa 13:00", "note": "ON 12/24 AND 12/31, THIS BOX MAY BE COLLECTED AS EARLY AS 12 NOON.", "nsi_id": "unitedstatespostalservice-a77078", "operator": "United States Postal Service", "operator:short": "USPS", "operator:type": "public", "operator:wikidata": "Q668687", "ref": "9520700029"}, "type": "Feature"}
{"geometry": {"coordinates": [-121.3379380206, 37.9860679936], "type": "Point"}, "id": "Oz5qR1DuspdRIkdPe2BzrEOxTxA=", "properties": {"@source_uri": "https://tools.usps.com/UspsToolsRestServices/rest/POLocator/findLocations", "@spider": "usps_collection_boxes", "addr:city": "STOCKTON", "addr:country": "US", "addr:postcode": "95207", "addr:state": "CA", "addr:street_address": "2423 W MARCH LN", "amenity": "post_box", "collection_times": "Mo-Sa 13:30", "note": "ON 12/24 AND 12/31, THIS BOX MAY BE COLLECTED AS EARLY AS 12 NOON.", "nsi_id": "unitedstatespostalservice-a77078", "operator": "United States Postal Service", "operator:short": "USPS", "operator:type": "public", "operator:wikidata": "Q668687", "ref": "9520700030"}, "type": "Feature"}
{"geometry": {"coordinates": [-121.3199868621, 37.9997636156], "type": "Point"}, "id": "c_lyZFIETVmFZ3DaIEGWkjnAZY8=", "properties": {"@source_uri": "https://tools.usps.com/UspsToolsRestServices/rest/POLocator/findLocations", "@spider": "usps_collection_boxes", "addr:city": "STOCKTON", "addr:country": "US", "addr:postcode": "95207", "addr:state": "CA", "addr:street_address": "1048 W ROBINHOOD DR", "amenity": "post_box", "collection_times": "Mo-Fr 17:00; Sa 16:00", "note": "ON 12/24 AND 12/31, THIS BOX MAY BE COLLECTED AS EARLY AS 12 NOON.", "nsi_id": "unitedstatespostalservice-a77078", "operator": "United States Postal Service", "operator:short": "USPS", "operator:type": "public", "operator:wikidata": "Q668687", "ref": "9520700056"}, "type": "Feature"}
{"geometry": {"coordinates": [-121.306714, 37.998648], "type": "Point"}, "id": "WcE8OO2NxSB7doiias29DifhjGs=", "properties": {"@source_uri": "https://tools.usps.com/UspsToolsRestServices/rest/POLocator/findLocations", "@spider": "usps_collection_boxes", "addr:city": "STOCKTON", "addr:country": "US", "addr:postcode": "95207", "addr:state": "CA", "addr:street_address": "37 W YOKUTS AVE", "amenity": "post_box", "collection_times": "Mo-Sa 13:30", "note": "ON 12/24 AND 12/31, THIS BOX MAY BE COLLECTED AS EARLY AS 12 NOON.", "nsi_id": "unitedstatespostalservice-a77078", "operator": "United States Postal Service", "operator:short": "USPS", "operator:type": "public", "operator:wikidata": "Q668687", "ref": "9520700095"}, "type": "Feature"}
{"geometry": {"coordinates": [-121.32287, 38.008235], "type": "Point"}, "id": "hxXoXdEi8dwL_neBmRMLiwGdwOU=", "properties": {"@source_uri": "https://tools.usps.com/UspsToolsRestServices/rest/POLocator/findLocations", "@spider": "usps_collection_boxes", "addr:city": "STOCKTON", "addr:country": "US", "addr:postcode": "95207", "addr:state": "CA", "addr:street_address": "4600 GEORGETOWN PL", "amenity": "post_box", "collection_times": "Mo-Sa 14:00", "note": "ON 12/24 AND 12/31, THIS BOX MAY BE COLLECTED AS EARLY AS 12 NOON.", "nsi_id": "unitedstatespostalservice-a77078", "operator": "United States Postal Service", "operator:short": "USPS", "operator:type": "public", "operator:wikidata": "Q668687", "ref": "9520700110"}, "type": "Feature"}
{"geometry": {"coordinates": [-121.32287, 38.008235], "type": "Point"}, "id": "SwbSIKJw1C3F-eEzRQK7WyCwQWw=", "properties": {"@source_uri": "https://tools.usps.com/UspsToolsRestServices/rest/POLocator/findLocations", "@spider": "usps_collection_boxes", "addr:city": "STOCKTON", "addr:country": "US", "addr:postcode": "95207", "addr:state": "CA", "addr:street_address": "400 W BEN HOLT", "amenity": "post_box", "collection_times": "Mo-Sa 13:00", "note": "ON 12/24 AND 12/31, THIS BOX MAY BE COLLECTED AS EARLY AS 12 NOON.", "nsi_id": "unitedstatespostalservice-a77078", "operator": "United States Postal Service", "operator:short": "USPS", "operator:type": "public", "operator:wikidata": "Q668687", "ref": "9520700114"}, "type": "Feature"}
{"geometry": {"coordinates": [-121.323117757, 38.017913413], "type": "Point"}, "id": "RSTDgkMgLz5FZ3uqW8BrQ6NxKZ8=", "properties": {"@source_uri": "https://tools.usps.com/UspsToolsRestServices/rest/POLocator/findLocations", "@spider": "usps_collection_boxes", "addr:city": "STOCKTON", "addr:country": "US", "addr:postcode": "95207", "addr:state": "CA", "addr:street_address": "7554 PACIFIC AVE", "amenity": "post_box", "collection_times": "Mo-Fr 17:00; Sa 16:00", "indoor": "yes", "note": "ON 12/24 AND 12/31, THIS BOX MAY BE COLLECTED AS EARLY AS 12 NOON.", "nsi_id": "unitedstatespostalservice-a77078", "operator": "United States Postal Service", "operator:short": "USPS", "operator:type": "public", "operator:wikidata": "Q668687", "ref": "9520700141"}, "type": "Feature"}
{"geometry": {"coordinates": [-121.2874789635, 37.9917249819], "type": "Point"}, "id": "7Z4aZBPI037OrTCa8xXqWtr86UY=", "properties": {"@source_uri": "https://tools.usps.com/UspsToolsRestServices/rest/POLocator/findLocations", "@spider": "usps_collection_boxes", "addr:city": "STOCKTON", "addr:country": "US", "addr:postcode": "95208", "addr:state": "CA", "addr:street_address": "4245 WEST LN", "amenity": "post_box", "collection_times": "Mo-Sa 17:00", "note": "ON 12/24 AND 12/31, THIS BOX MAY BE COLLECTED AS EARLY AS 12 NOON.", "nsi_id": "unitedstatespostalservice-a77078", "operator": "United States Postal Service", "operator:short": "USPS", "operator:type": "public", "operator:wikidata": "Q668687", "ref": "9520800098"}, "type": "Feature"}
{"geometry": {"coordinates": [-121.286851, 37.991983], "type": "Point"}, "id": "gmcr-8579439OFZWyzc9940orpM=", "properties": {"@source_uri": "https://tools.usps.com/UspsToolsRestServices/rest/POLocator/findLocations", "@spider": "usps_collection_boxes", "addr:city": "STOCKTON", "addr:country": "US", "addr:postcode": "95208", "addr:state": "CA", "addr:street_address": "4245 WEST LN", "amenity": "post_box", "collection_times": "Mo-Sa 17:00", "indoor": "yes", "note": "ON 12/24 AND 12/31, THIS BOX MAY BE COLLECTED AS EARLY AS 12 NOON.", "nsi_id": "unitedstatespostalservice-a77078", "operator": "United States Postal Service", "operator:short": "USPS", "operator:type": "public", "operator:wikidata": "Q668687", "ref": "9520800100"}, "type": "Feature"}
{"geometry": {"coordinates": [-121.286851, 37.991983], "type": "Point"}, "id": "kECgT51mTwnLMwgQ6r8EyXAn4tY=", "properties": {"@source_uri": "https://tools.usps.com/UspsToolsRestServices/rest/POLocator/findLocations", "@spider": "usps_collection_boxes", "addr:city": "STOCKTON", "addr:country": "US", "addr:postcode": "95208", "addr:state": "CA", "addr:street_address": "4245 WEST LN", "amenity": "post_box", "collection_times": "Mo-Sa 17:00", "indoor": "yes", "note": "ON 12/24 AND 12/31, THIS BOX MAY BE COLLECTED AS EARLY AS 12 NOON.", "nsi_id": "unitedstatespostalservice-a77078", "operator": "United States Postal Service", "operator:short": "USPS", "operator:type": "public", "operator:wikidata": "Q668687", "ref": "9520800101"}, "type": "Feature"}
{"geometry": {"coordinates": [-121.286905018, 37.992015232], "type": "Point"}, "id": "I0QTgnpdkTqIXcG_z0M2Kk--NVo=", "properties": {"@source_uri": "https://tools.usps.com/UspsToolsRestServices/rest/POLocator/findLocations", "@spider": "usps_collection_boxes", "addr:city": "STOCKTON", "addr:country": "US", "addr:postcode": "95208", "addr:state": "CA", "addr:street_address": "4245 WEST LN", "amenity": "post_box", "collection_times": "Mo-Fr 17:00; Sa 15:00", "indoor": "yes", "note": "ON 12/24 AND 12/31, THIS BOX MAY BE COLLECTED AS EARLY AS 12 NOON.", "nsi_id": "unitedstatespostalservice-a77078", "operator": "United States Postal Service", "operator:short": "USPS", "operator:type": "public", "operator:wikidata": "Q668687", "ref": "9520800105"}, "type": "Feature"}
{"geometry": {"coordinates": [-121.322897, 38.017268], "type": "Point"}, "id": "F-Q8wHH4mBg9bP4Rxl7yLk0yx_k=", "properties": {"@source_uri": "https://tools.usps.com/UspsToolsRestServices/rest/POLocator/findLocations", "@spider": "usps_collection_boxes", "addr:city": "STOCKTON", "addr:country": "US", "addr:postcode": "95209", "addr:state": "CA", "addr:street_address": "7554 PACIFIC AVE", "amenity": "post_box", "collection_times": "Mo-Fr 17:00; Sa 15:30", "indoor": "yes", "note": "ON 12/24 AND 12/31, THIS BOX MAY BE COLLECTED AS EARLY AS 12 NOON.", "nsi_id": "unitedstatespostalservice-a77078", "operator": "United States Postal Service", "operator:short": "USPS", "operator:type": "public", "operator:wikidata": "Q668687", "ref": "9520900014"}, "type": "Feature"}
{"geometry": {"coordinates": [-121.322897, 38.017268], "type": "Point"}, "id": "qCjNWKFNaZVSWN4YfEA9MZ9LEBg=", "properties": {"@source_uri": "https://tools.usps.com/UspsToolsRestServices/rest/POLocator/findLocations", "@spider": "usps_collection_boxes", "addr:city": "STOCKTON", "addr:country": "US", "addr:postcode": "95209", "addr:state": "CA", "addr:street_address": "7554 PACIFIC AVE", "amenity": "post_box", "collection_times": "Mo-Fr 17:00; Sa 15:30", "indoor": "yes", "note": "ON 12/24 AND 12/31, THIS BOX MAY BE COLLECTED AS EARLY AS 12 NOON.", "nsi_id": "unitedstatespostalservice-a77078", "operator": "United States Postal Service", "operator:short": "USPS", "operator:type": "public", "operator:wikidata": "Q668687", "ref": "9520900015"}, "type": "Feature"}
{"geometry": {"coordinates": [-121.344206, 38.022343], "type": "Point"}, "id": "TpFG7OL98AlszvtJoIXLAqgZN9k=", "properties": {"@source_uri": "https://tools.usps.com/UspsToolsRestServices/rest/POLocator/findLocations", "@spider": "usps_collection_boxes", "addr:city": "STOCKTON", "addr:country": "US", "addr:postcode": "95209", "addr:state": "CA", "addr:street_address": "2323 W HAMMER LN", "amenity": "post_box", "collection_times": "Mo-Sa 12:30", "note": "ON 12/24 AND 12/31, THIS BOX MAY BE COLLECTED AS EARLY AS 12 NOON.", "nsi_id": "unitedstatespostalservice-a77078", "operator": "United States Postal Service", "operator:short": "USPS", "operator:type": "public", "operator:wikidata": "Q668687", "ref": "9520900019"}, "type": "Feature"}
{"geometry": {"coordinates": [-121.3354799, 38.0395362], "type": "Point"}, "id": "RoXoWQimneOOBh3u5Mqk91zywh8=", "properties": {"@source_uri": "https://tools.usps.com/UspsToolsRestServices/rest/POLocator/findLocations", "@spider": "usps_collection_boxes", "addr:city": "STOCKTON", "addr:country": "US", "addr:postcode": "95209", "addr:state": "CA", "addr:street_address": "7554 PACIFIC AVE.", "amenity": "post_box", "collection_times": "Mo-Fr 17:00; Sa 15:30", "name": "USPS COLLECTION BOX - APC", "note": "ON 12/24 AND 12/31, THIS BOX MAY BE COLLECTED AS EARLY AS 12 NOON.", "nsi_id": "unitedstatespostalservice-a77078", "operator": "United States Postal Service", "operator:short": "USPS", "operator:type": "public", "operator:wikidata": "Q668687", "ref": "9520900020"}, "type": "Feature"}
{"geometry": {"coordinates": [-121.3354799, 38.0395362], "type": "Point"}, "id": "_4_tdMSMQEtQS8c81RcYA71XB6Y=", "properties": {"@source_uri": "https://tools.usps.com/UspsToolsRestServices/rest/POLocator/findLocations", "@spider": "usps_collection_boxes", "addr:city": "STOCKTON", "addr:country": "US", "addr:postcode": "95209", "addr:state": "CA", "addr:street_address": "7554 PACIFIC AVE.", "amenity": "post_box", "collection_times": "Mo-Fr 17:00; Sa 15:30", "name": "USPS COLLECTION BOX - APC", "note": "ON 12/24 AND 12/31, THIS BOX MAY BE COLLECTED AS EARLY AS 12 NOON.", "nsi_id": "unitedstatespostalservice-a77078", "operator": "United States Postal Service", "operator:short": "USPS", "operator:type": "public", "operator:wikidata": "Q668687", "ref": "9520900021"}, "type": "Feature"}
{"geometry": {"coordinates": [-121.272581, 38.019191], "type": "Point"}, "id": "6j_N8CP1iki4sdEsrsz15odJc2Y=", "properties": {"@source_uri": "https://tools.usps.com/UspsToolsRestServices/rest/POLocator/findLocations", "@spider": "usps_collection_boxes", "addr:city": "STOCKTON", "addr:country": "US", "addr:postcode": "95212", "addr:state": "CA", "addr:street_address": "3158 STOCKTON AUTO CTR", "amenity": "post_box", "collection_times": "Mo-Sa 12:30", "note": "ON 12/24 AND 12/31, THIS BOX MAY BE COLLECTED AS EARLY AS 12 NOON.", "nsi_id": "unitedstatespostalservice-a77078", "operator": "United States Postal Service", "operator:short": "USPS", "operator:type": "public", "operator:wikidata": "Q668687", "ref": "9521200006"}, "type": "Feature"}
{"geometry": {"coordinates": [-121.228261, 37.904435], "type": "Point"}, "id": "SsCePpveZijcDBvVFyI9AB7S5Vk=", "properties": {"@source_uri": "https://tools.usps.com/UspsToolsRestServices/rest/POLocator/findLocations", "@spider": "usps_collection_boxes", "addr:city": "STOCKTON", "addr:country": "US", "addr:postcode": "95213", "addr:state": "CA", "addr:street_address": "3131 ARCH AIRPORT RD", "amenity": "post_box", "collection_times": "Mo-Fr 17:00; Sa 13:00", "indoor": "yes", "note": "ON 12/24 AND 12/31, THIS BOX MAY BE COLLECTED AS EARLY AS 12 NOON.", "nsi_id": "unitedstatespostalservice-a77078", "operator": "United States Postal Service", "operator:short": "USPS", "operator:type": "public", "operator:wikidata": "Q668687", "ref": "9521300005"}, "type": "Feature"}
{"geometry": {"coordinates": [-121.228261, 37.904435], "type": "Point"}, "id": "ySMPhLLUPpG3h-tOm8-XqI0Wauc=", "properties": {"@source_uri": "https://tools.usps.com/UspsToolsRestServices/rest/POLocator/findLocations", "@spider": "usps_collection_boxes", "addr:city": "STOCKTON", "addr:country": "US", "addr:postcode": "95213", "addr:state": "CA", "addr:street_address": "3131 ARCH AIRPORT RD", "amenity": "post_box", "collection_times": "Mo-Fr 17:00; Sa 16:00", "indoor": "yes", "note": "ON 12/24 AND 12/31, THIS BOX MAY BE COLLECTED AS EARLY AS 12 NOON.", "nsi_id": "unitedstatespostalservice-a77078", "operator": "United States Postal Service", "operator:short": "USPS", "operator:type": "public", "operator:wikidata": "Q668687", "ref": "9521300006"}, "type": "Feature"}
{"geometry": {"coordinates": [-121.226561482, 37.904240496], "type": "Point"}, "id": "J8i4p1VmFhrUmt3MN9zJSLPI2dY=", "properties": {"@source_uri": "https://tools.usps.com/UspsToolsRestServices/rest/POLocator/findLocations", "@spider": "usps_collection_boxes", "addr:city": "STOCKTON", "addr:country": "US", "addr:postcode": "95213", "addr:state": "CA", "addr:street_address": "3131 ARCH AIRPORT RD", "amenity": "post_box", "collection_times": "Mo-Fr 17:00", "indoor": "yes", "note": "ON 12/24 AND 12/31, THIS BOX MAY BE COLLECTED AS EARLY AS 12 NOON.", "nsi_id": "unitedstatespostalservice-a77078", "operator": "United States Postal Service", "operator:short": "USPS", "operator:type": "public", "operator:wikidata": "Q668687", "ref": "9521300009"}, "type": "Feature"}
{"geometry": {"coordinates": [-121.3524997318, 37.9844383354], "type": "Point"}, "id": "IbySVgE4X3eUGXLKF4U_pKa0p84=", "properties": {"@source_uri": "https://tools.usps.com/UspsToolsRestServices/rest/POLocator/findLocations", "@spider": "usps_collection_boxes", "addr:city": "STOCKTON", "addr:country": "US", "addr:postcode": "95219", "addr:state": "CA", "addr:street_address": "3423 DEER PARK DR", "amenity": "post_box", "collection_times": "Mo-Sa 13:00", "note": "ON 12/24 AND 12/31, THIS BOX MAY BE COLLECTED AS EARLY AS 12 NOON.", "nsi_id": "unitedstatespostalservice-a77078", "operator": "United States Postal Service", "operator:short": "USPS", "operator:type": "public", "operator:wikidata": "Q668687", "ref": "9521900008"}, "type": "Feature"}
{"geometry": {"coordinates": [-121.345701, 37.983757], "type": "Point"}, "id": "qxpCNgDrPuIPuiOuqVp6EHx3Njk=", "properties": {"@source_uri": "https://tools.usps.com/UspsToolsRestServices/rest/POLocator/findLocations", "@spider": "usps_collection_boxes", "addr:city": "STOCKTON", "addr:country": "US", "addr:postcode": "95219", "addr:state": "CA", "addr:street_address": "2800 W MARCH LN", "amenity": "post_box", "collection_times": "Mo-Sa 14:00", "note": "ON 12/24 AND 12/31, THIS BOX MAY BE COLLECTED AS EARLY AS 12 NOON.", "nsi_id": "unitedstatespostalservice-a77078", "operator": "United States Postal Service", "operator:short": "USPS", "operator:type": "public", "operator:wikidata": "Q668687", "ref": "9521900011"}, "type": "Feature"}
{"geometry": {"coordinates": [-121.358363, 38.0052657], "type": "Point"}, "id": "jQld6BVn2ZYdN_aEeK2aGUdmX1U=", "properties": {"@source_uri": "https://tools.usps.com/UspsToolsRestServices/rest/POLocator/findLocations", "@spider": "usps_collection_boxes", "addr:city": "STOCKTON", "addr:country": "US", "addr:postcode": "95219", "addr:state": "CA", "addr:street_address": "3101 W MARCH LN", "amenity": "post_box", "collection_times": "Mo-Sa 13:00", "note": "ON 12/24 AND 12/31, THIS BOX MAY BE COLLECTED AS EARLY AS 12 NOON.", "nsi_id": "unitedstatespostalservice-a77078", "operator": "United States Postal Service", "operator:short": "USPS", "operator:type": "public", "operator:wikidata": "Q668687", "ref": "9521900015"}, "type": "Feature"}
{"geometry": {"coordinates": [-121.2789148406, 38.1747648529], "type": "Point"}, "id": "Aqo3Bbqziw69MZ8PghjL2VJhN1w=", "properties": {"@source_uri": "https://tools.usps.com/UspsToolsRestServices/rest/POLocator/findLocations", "@spider": "usps_collection_boxes", "addr:city": "ACAMPO", "addr:country": "US", "addr:postcode": "95220", "addr:state": "CA", "addr:street_address": "3113 E ACAMPO RD", "amenity": "post_box", "collection_times": "Mo-Fr 16:30; Sa 09:00", "note": "ON 12/24 AND 12/31, THIS BOX MAY BE COLLECTED AS EARLY AS 12 NOON.", "nsi_id": "unitedstatespostalservice-a77078", "operator": "United States Postal Service", "operator:short": "USPS", "operator:type": "public", "operator:wikidata": "Q668687", "ref": "9522000000"}, "type": "Feature"}
{"geometry": {"coordinates": [-121.278642, 38.174859], "type": "Point"}, "id": "OxQMHq_vktqdIJ1q4dHEUtMDbxw=", "properties": {"@source_uri": "https://tools.usps.com/UspsToolsRestServices/rest/POLocator/findLocations", "@spider": "usps_collection_boxes", "addr:city": "ACAMPO", "addr:country": "US", "addr:postcode": "95220", "addr:state": "CA", "addr:street_address": "3113 E ACAMPO RD", "amenity": "post_box", "collection_times": "Mo-Fr 16:30; Sa 09:00", "indoor": "yes", "note": "ON 12/24 AND 12/31, THIS BOX MAY BE COLLECTED AS EARLY AS 12 NOON.", "nsi_id": "unitedstatespostalservice-a77078", "operator": "United States Postal Service", "operator:short": "USPS", "operator:type": "public", "operator:wikidata": "Q668687", "ref": "9522000002"}, "type": "Feature"}
{"geometry": {"coordinates": [-121.278916791, 38.174762439], "type": "Point"}, "id": "50bQqY-VVjmprB3eR1AYcaF4vOc=", "properties": {"@source_uri": "https://tools.usps.com/UspsToolsRestServices/rest/POLocator/findLocations", "@spider": "usps_collection_boxes", "addr:city": "ACAMPO", "addr:country": "US", "addr:postcode": "95220", "addr:state": "CA", "addr:street_address": "3113 E ACAMPO RD", "amenity": "post_box", "collection_times": "Mo-Fr 16:30", "indoor": "yes", "note": "ON 12/24 AND 12/31, THIS BOX MAY BE COLLECTED AS EARLY AS 12 NOON.", "nsi_id": "unitedstatespostalservice-a77078", "operator": "United States Postal Service", "operator:short": "USPS", "operator:type": "public", "operator:wikidata": "Q668687", "ref": "9522000003"}, "type": "Feature"}
{"geometry": {"coordinates": [-120.552814, 38.078563], "type": "Point"}, "id": "2pNCUwc-s-G6PxjRaMmSEUMK9Ug=", "properties": {"@source_uri": "https://tools.usps.com/UspsToolsRestServices/rest/POLocator/findLocations", "@spider": "usps_collection_boxes", "addr:city": "ALTAVILLE", "addr:country": "US", "addr:postcode": "95221", "addr:state": "CA", "addr:street_address": "380 S MAIN ST", "amenity": "post_box", "collection_times": "Mo-Fr 17:00; Sa 10:30", "indoor": "yes", "note": "ON 12/24 AND 12/31, THIS BOX MAY BE COLLECTED AS EARLY AS 12 NOON.", "nsi_id": "unitedstatespostalservice-a77078", "operator": "United States Postal Service", "operator:short": "USPS", "operator:type": "public", "operator:wikidata": "Q668687", "ref": "9522100000"}, "type": "Feature"}
{"geometry": {"coordinates": [-120.552873, 38.078624], "type": "Point"}, "id": "rc54iMUKb5bKsRzjQUN1Q3ahSVo=", "properties": {"@source_uri": "https://tools.usps.com/UspsToolsRestServices/rest/POLocator/findLocations", "@spider": "usps_collection_boxes", "addr:city": "ALTAVILLE", "addr:country": "US", "addr:postcode": "95221", "addr:state": "CA", "addr:street_address": "380 S MAIN ST", "amenity": "post_box", "collection_times": "Mo-Fr 17:00; Sa 10:30", "indoor": "yes", "note": "ON 12/24 AND 12/31, THIS BOX MAY BE COLLECTED AS EARLY AS 12 NOON.", "nsi_id": "unitedstatespostalservice-a77078", "operator": "United States Postal Service", "operator:short": "USPS", "operator:type": "public", "operator:wikidata": "Q668687", "ref": "9522100001"}, "type": "Feature"}
{"geometry": {"coordinates": [-120.5528400189, 38.0783439884], "type": "Point"}, "id": "Qm8UqQ6lyAPKFxtmNby0jxzkq4c=", "properties": {"@source_uri": "https://tools.usps.com/UspsToolsRestServices/rest/POLocator/findLocations", "@spider": "usps_collection_boxes", "addr:city": "ALTAVILLE", "addr:country": "US", "addr:postcode": "95221", "addr:state": "CA", "addr:street_address": "380 S MAIN ST", "amenity": "post_box", "collection_times": "Mo-Fr 16:30; Sa 10:30", "note": "ON 12/24 AND 12/31, THIS BOX MAY BE COLLECTED AS EARLY AS 12 NOON.", "nsi_id": "unitedstatespostalservice-a77078", "operator": "United States Postal Service", "operator:short": "USPS", "operator:type": "public", "operator:wikidata": "Q668687", "ref": "9522100002"}, "type": "Feature"}
{"geometry": {"coordinates": [-120.552873, 38.078624], "type": "Point"}, "id": "Dn93aSy2QC7JqdwfKLhPbFOMAfo=", "properties": {"@source_uri": "https://tools.usps.com/UspsToolsRestServices/rest/POLocator/findLocations", "@spider": "usps_collection_boxes", "addr:city": "ALTAVILLE", "addr:country": "US", "addr:postcode": "95221", "addr:state": "CA", "addr:street_address": "380 S MAIN ST", "amenity": "post_box", "collection_times": "Mo-Fr 17:00; Sa 10:30", "indoor": "yes", "note": "ON 12/24 AND 12/31, THIS BOX MAY BE COLLECTED AS EARLY AS 12 NOON.", "nsi_id": "unitedstatespostalservice-a77078", "operator": "United States Postal Service", "operator:short": "USPS", "operator:type": "public", "operator:wikidata": "Q668687", "ref": "9522100003"}, "type": "Feature"}
{"geometry": {"coordinates": [-120.5526462777, 38.0784744196], "type": "Point"}, "id": "r7NoME8fgxHH6uvjpQHwybpTD0s=", "properties": {"@source_uri": "https://tools.usps.com/UspsToolsRestServices/rest/POLocator/findLocations", "@spider": "usps_collection_boxes", "addr:city": "ALTAVILLE", "addr:country": "US", "addr:postcode": "95221", "addr:state": "CA", "addr:street_address": "380 S MAIN ST", "amenity": "post_box", "collection_times": "Mo-Fr 17:00", "indoor": "yes", "note": "ON 12/24 AND 12/31, THIS BOX MAY BE COLLECTED AS EARLY AS 12 NOON.", "nsi_id": "unitedstatespostalservice-a77078", "operator": "United States Postal Service", "operator:short": "USPS", "operator:type": "public", "operator:wikidata": "Q668687", "ref": "9522100004"}, "type": "Feature"}
{"geometry": {"coordinates": [-120.540134, 38.069413], "type": "Point"}, "id": "fv33NcMHwUhMXTW3QjsFHBWc5Yo=", "properties": {"@source_uri": "https://tools.usps.com/UspsToolsRestServices/rest/POLocator/findLocations", "@spider": "usps_collection_boxes", "addr:city": "ANGELS CAMP", "addr:country": "US", "addr:postcode": "95222", "addr:state": "CA", "addr:street_address": "1216 S MAIN ST", "amenity": "post_box", "collection_times": "Mo-Fr 16:30; Sa 10:30", "note": "ON 12/24 AND 12/31, THIS BOX MAY BE COLLECTED AS EARLY AS 12 NOON.", "nsi_id": "unitedstatespostalservice-a77078", "operator": "United States Postal Service", "operator:short": "USPS", "operator:type": "public", "operator:wikidata": "Q668687", "ref": "9522200000"}, "type": "Feature"}
{"geometry": {"coordinates": [-120.565162, 38.08584], "type": "Point"}, "id": "ASVr-jAk-igDdrFIkxZqLOBaShc=", "properties": {"@source_uri": "https://tools.usps.com/UspsToolsRestServices/rest/POLocator/findLocations", "@spider": "usps_collection_boxes", "addr:city": "ANGELS CAMP", "addr:country": "US", "addr:postcode": "95222", "addr:state": "CA", "addr:street_address": "374 N MAIN ST", "amenity": "post_box", "collection_times": "Mo-Fr 13:00", "note": "ON 12/24 AND 12/31, THIS BOX MAY BE COLLECTED AS EARLY AS 12 NOON.", "nsi_id": "unitedstatespostalservice-a77078", "operator": "United States Postal Service", "operator:short": "USPS", "operator:type": "public", "operator:wikidata": "Q668687", "ref": "9522200002"}, "type": "Feature"}
{"geometry": {"coordinates": [-120.5431831, 38.0720117], "type": "Point"}, "id": "pMTQ8r1JhnjYSKsGLjuusmSkK2c=", "properties": {"@source_uri": "https://tools.usps.com/UspsToolsRestServices/rest/POLocator/findLocations", "@spider": "usps_collection_boxes", "addr:city": "ANGELS CAMP", "addr:country": "US", "addr:postcode": "95222", "addr:state": "CA", "addr:street_address": "0 ANGEL TOWN CTR", "amenity": "post_box", "collection_times": "Mo-Fr 13:00", "note": "ON 12/24 AND 12/31, THIS BOX MAY BE COLLECTED AS EARLY AS 12 NOON.", "nsi_id": "unitedstatespostalservice-a77078", "operator": "United States Postal Service", "operator:short": "USPS", "operator:type": "public", "operator:wikidata": "Q668687", "ref": "9522200003"}, "type": "Feature"}
{"geometry": {"coordinates": [-120.54015, 38.069474], "type": "Point"}, "id": "2nMbkHqNUEHL6loottw83K6xshY=", "properties": {"@source_uri": "https://tools.usps.com/UspsToolsRestServices/rest/POLocator/findLocations", "@spider": "usps_collection_boxes", "addr:city": "ANGELS CAMP", "addr:country": "US", "addr:postcode": "95222", "addr:state": "CA", "addr:street_address": "1216 S MAIN ST", "amenity": "post_box", "collection_times": "Mo-Fr 16:30; Sa 10:30", "indoor": "yes", "note": "ON 12/24 AND 12/31, THIS BOX MAY BE COLLECTED AS EARLY AS 12 NOON.", "nsi_id": "unitedstatespostalservice-a77078", "operator": "United States Postal Service", "operator:short": "USPS", "operator:type": "public", "operator:wikidata": "Q668687", "ref": "9522200004"}, "type": "Feature"}
{"geometry": {"coordinates": [-120.54015, 38.069474], "type": "Point"}, "id": "f8ZlUSGVuMkFKLb_RUdEc2zd1fE=", "properties": {"@source_uri": "https://tools.usps.com/UspsToolsRestServices/rest/POLocator/findLocations", "@spider": "usps_collection_boxes", "addr:city": "ANGELS CAMP", "addr:country": "US", "addr:postcode": "95222", "addr:state": "CA", "addr:street_address": "1216 S MAIN ST", "amenity": "post_box", "collection_times": "Mo-Fr 17:00; Sa 10:30", "indoor": "yes", "note": "ON 12/24 AND 12/31, THIS BOX MAY BE COLLECTED AS EARLY AS 12 NOON.", "nsi_id": "unitedstatespostalservice-a77078", "operator": "United States Postal Service", "operator:short": "USPS", "operator:type": "public", "operator:wikidata": "Q668687", "ref": "9522200005"}, "type": "Feature"}
{"geometry": {"coordinates": [-120.540191593, 38.069462411], "type": "Point"}, "id": "zMi-a4Ctnfa-R6D9QmKwG_hHtiI=", "properties": {"@source_uri": "https://tools.usps.com/UspsToolsRestServices/rest/POLocator/findLocations", "@spider": "usps_collection_boxes", "addr:city": "ANGELS CAMP", "addr:country": "US", "addr:postcode": "95222", "addr:state": "CA", "addr:street_address": "1216 S MAIN ST", "amenity": "post_box", "collection_times": "Mo-Fr 17:00", "indoor": "yes", "note": "ON 12/24 AND 12/31, THIS BOX MAY BE COLLECTED AS EARLY AS 12 NOON.", "nsi_id": "unitedstatespostalservice-a77078", "operator": "United States Postal Service", "operator:short": "USPS", "operator:type": "public", "operator:wikidata": "Q668687", "ref": "9522200006"}, "type": "Feature"}
{"geometry": {"coordinates": [-120.348144, 38.257046], "type": "Point"}, "id": "GhO7U8s3cSUJ3DzLhiKAtstP7A4=", "properties": {"@source_uri": "https://tools.usps.com/UspsToolsRestServices/rest/POLocator/findLocations", "@spider": "usps_collection_boxes", "addr:city": "ARNOLD", "addr:country": "US", "addr:postcode": "95223", "addr:state": "CA", "addr:street_address": "997 BLAGEN RD", "amenity": "post_box", "collection_times": "Mo-Fr 16:30; Sa 12:30", "indoor": "yes", "note": "ON 12/24 AND 12/31, THIS BOX MAY BE COLLECTED AS EARLY AS 12 NOON.", "nsi_id": "unitedstatespostalservice-a77078", "operator": "United States Postal Service", "operator:short": "USPS", "operator:type": "public", "operator:wikidata": "Q668687", "ref": "9522300003"}, "type": "Feature"}
{"geometry": {"coordinates": [-120.348247273, 38.256971352], "type": "Point"}, "id": "9yUuVQxWan_qW2kUdP2CCnnvxF8=", "properties": {"@source_uri": "https://tools.usps.com/UspsToolsRestServices/rest/POLocator/findLocations", "@spider": "usps_collection_boxes", "addr:city": "ARNOLD", "addr:country": "US", "addr:postcode": "95223", "addr:state": "CA", "addr:street_address": "997 BLAGEN RD", "amenity": "post_box", "collection_times": "Mo-Fr 16:30", "indoor": "yes", "note": "ON 12/24 AND 12/31, THIS BOX MAY BE COLLECTED AS EARLY AS 12 NOON.", "nsi_id": "unitedstatespostalservice-a77078", "operator": "United States Postal Service", "operator:short": "USPS", "operator:type": "public", "operator:wikidata": "Q668687", "ref": "9522300004"}, "type": "Feature"}
{"geometry": {"coordinates": [-120.369681, 38.204219], "type": "Point"}, "id": "vSrYK7d_ZkHgw2Nek3cypW3KFC8=", "properties": {"@source_uri": "https://tools.usps.com/UspsToolsRestServices/rest/POLocator/findLocations", "@spider": "usps_collection_boxes", "addr:city": "AVERY", "addr:country": "US", "addr:postcode": "95224", "addr:state": "CA", "addr:street_address": "4529A HIGHWAY 4", "amenity": "post_box", "collection_times": "Mo-Fr 16:30; Sa 11:00", "note": "ON 12/24 AND 12/31, THIS BOX MAY BE COLLECTED AS EARLY AS 12 NOON.", "nsi_id": "unitedstatespostalservice-a77078", "operator": "United States Postal Service", "operator:short": "USPS", "operator:type": "public", "operator:wikidata": "Q668687", "ref": "9522400000"}, "type": "Feature"}
{"geometry": {"coordinates": [-120.36969, 38.204313], "type": "Point"}, "id": "CXfKCSV15A7k_cMamFF5OWFFzB0=", "properties": {"@source_uri": "https://tools.usps.com/UspsToolsRestServices/rest/POLocator/findLocations", "@spider": "usps_collection_boxes", "addr:city": "AVERY", "addr:country": "US", "addr:postcode": "95224", "addr:state": "CA", "addr:street_address": "4529A HIGHWAY 4", "amenity": "post_box", "collection_times": "Mo-Fr 16:45; Sa 11:00", "indoor": "yes", "note": "ON 12/24 AND 12/31, THIS BOX MAY BE COLLECTED AS EARLY AS 12 NOON.", "nsi_id": "unitedstatespostalservice-a77078", "operator": "United States Postal Service", "operator:short": "USPS", "operator:type": "public", "operator:wikidata": "Q668687", "ref": "9522400001"}, "type": "Feature"}
{"geometry": {"coordinates": [-120.36969, 38.204313], "type": "Point"}, "id": "VHhmHu_eszlmIL41VYTfBUDU0wA=", "properties": {"@source_uri": "https://tools.usps.com/UspsToolsRestServices/rest/POLocator/findLocations", "@spider": "usps_collection_boxes", "addr:city": "AVERY", "addr:country": "US", "addr:postcode": "95224", "addr:state": "CA", "addr:street_address": "4529A HIGHWAY 4", "amenity": "post_box", "collection_times": "Mo-Fr 16:45; Sa 11:00", "indoor": "yes", "note": "ON 12/24 AND 12/31, THIS BOX MAY BE COLLECTED AS EARLY AS 12 NOON.", "nsi_id": "unitedstatespostalservice-a77078", "operator": "United States Postal Service", "operator:short": "USPS", "operator:type": "public", "operator:wikidata": "Q668687", "ref": "9522400002"}, "type": "Feature"}
{"geometry": {"coordinates": [-120.369615989, 38.204344005], "type": "Point"}, "id": "3V5YIYF3uJ1mr3RwuPxz5zppTHA=", "properties": {"@source_uri": "https://tools.usps.com/UspsToolsRestServices/rest/POLocator/findLocations", "@spider": "usps_collection_boxes", "addr:city": "AVERY", "addr:country": "US", "addr:postcode": "95224", "addr:state": "CA", "addr:street_address": "4529A HIGHWAY 4", "amenity": "post_box", "collection_times": "Mo-Fr 16:45", "indoor": "yes", "note": "ON 12/24 AND 12/31, THIS BOX MAY BE COLLECTED AS EARLY AS 12 NOON.", "nsi_id": "unitedstatespostalservice-a77078", "operator": "United States Postal Service", "operator:short": "USPS", "operator:type": "public", "operator:wikidata": "Q668687", "ref": "9522400003"}, "type": "Feature"}
{"geometry": {"coordinates": [-120.889593, 38.183531], "type": "Point"}, "id": "PyH_4MXkoxlQ_af6eINXdXzVL_8=", "properties": {"@source_uri": "https://tools.usps.com/UspsToolsRestServices/rest/POLocator/findLocations", "@spider": "usps_collection_boxes", "addr:city": "BURSON", "addr:country": "US", "addr:postcode": "95225", "addr:state": "CA", "addr:street_address": "3171 HIGHWAY 12", "amenity": "post_box", "collection_times": "Mo-Fr 16:30; Sa 09:00", "indoor": "yes", "note": "ON 12/24 AND 12/31, THIS BOX MAY BE COLLECTED AS EARLY AS 12 NOON.", "nsi_id": "unitedstatespostalservice-a77078", "operator": "United States Postal Service", "operator:short": "USPS", "operator:type": "public", "operator:wikidata": "Q668687", "ref": "9522500000"}, "type": "Feature"}
{"geometry": {"coordinates": [-120.889638, 38.183562], "type": "Point"}, "id": "1nTGvp2KSUL4SQA8nVjjwyapkuw=", "properties": {"@source_uri": "https://tools.usps.com/UspsToolsRestServices/rest/POLocator/findLocations", "@spider": "usps_collection_boxes", "addr:city": "BURSON", "addr:country": "US", "addr:postcode": "95225", "addr:state": "CA", "addr:street_address": "3171 HIGHWAY 12", "amenity": "post_box", "collection_times": "Mo-Fr 16:30; Sa 09:00", "indoor": "yes", "note": "ON 12/24 AND 12/31, THIS BOX MAY BE COLLECTED AS EARLY AS 12 NOON.", "nsi_id": "unitedstatespostalservice-a77078", "operator": "United States Postal Service", "operator:short": "USPS", "operator:type": "public", "operator:wikidata": "Q668687", "ref": "9522500001"}, "type": "Feature"}
{"geometry": {"coordinates": [-120.88961471, 38.183476904], "type": "Point"}, "id": "KokolJz7nWAFcyB8PSRi0xOPR5s=", "properties": {"@source_uri": "https://tools.usps.com/UspsToolsRestServices/rest/POLocator/findLocations", "@spider": "usps_collection_boxes", "addr:city": "BURSON", "addr:country": "US", "addr:postcode": "95225", "addr:state": "CA", "addr:street_address": "3171 HIGHWAY 12", "amenity": "post_box", "collection_times": "Mo-Fr 16:30", "indoor": "yes", "note": "ON 12/24 AND 12/31, THIS BOX MAY BE COLLECTED AS EARLY AS 12 NOON.", "nsi_id": "unitedstatespostalservice-a77078", "operator": "United States Postal Service", "operator:short": "USPS", "operator:type": "public", "operator:wikidata": "Q668687", "ref": "9522500002"}, "type": "Feature"}
{"geometry": {"coordinates": [-121.085541, 38.191502], "type": "Point"}, "id": "WVJ-bMGok6-KDfexGf0pqIY6vLI=", "properties": {"@source_uri": "https://tools.usps.com/UspsToolsRestServices/rest/POLocator/findLocations", "@spider": "usps_collection_boxes", "addr:city": "CLEMENTS", "addr:country": "US", "addr:postcode": "95227", "addr:state": "CA", "addr:street_address": "18860 E HIGHWAY 88", "amenity": "post_box", "collection_times": "Mo-Fr 16:30; Sa 09:45", "indoor": "yes", "note": "ON 12/24 AND 12/31, THIS BOX MAY BE COLLECTED AS EARLY AS 12 NOON.", "nsi_id": "unitedstatespostalservice-a77078", "operator": "United States Postal Service", "operator:short": "USPS", "operator:type": "public", "operator:wikidata": "Q668687", "ref": "9522700003"}, "type": "Feature"}
{"geometry": {"coordinates": [-121.085535107, 38.191417049], "type": "Point"}, "id": "vGvkq6zfw0DIjnILn_178fcJ0h4=", "properties": {"@source_uri": "https://tools.usps.com/UspsToolsRestServices/rest/POLocator/findLocations", "@spider": "usps_collection_boxes", "addr:city": "CLEMENTS", "addr:country": "US", "addr:postcode": "95227", "addr:state": "CA", "addr:street_address": "18860 E HIGHWAY 88", "amenity": "post_box", "collection_times": "Mo-Fr 16:30", "indoor": "yes", "note": "ON 12/24 AND 12/31, THIS BOX MAY BE COLLECTED AS EARLY AS 12 NOON.", "nsi_id": "unitedstatespostalservice-a77078", "operator": "United States Postal Service", "operator:short": "USPS", "operator:type": "public", "operator:wikidata": "Q668687", "ref": "9522700005"}, "type": "Feature"}
{"geometry": {"coordinates": [-120.582822, 37.904154], "type": "Point"}, "id": "_n8fJE4AgZwmdEeGIO5vHcHDdVU=", "properties": {"@source_uri": "https://tools.usps.com/UspsToolsRestServices/rest/POLocator/findLocations", "@spider": "usps_collection_boxes", "addr:city": "COPPEROPOLIS", "addr:country": "US", "addr:postcode": "95228", "addr:state": "CA", "addr:street_address": "385 POKER FLAT RD", "amenity": "post_box", "collection_times": "Mo-Fr 12:00", "nsi_id": "unitedstatespostalservice-a77078", "operator": "United States Postal Service", "operator:short": "USPS", "operator:type": "public", "operator:wikidata": "Q668687", "ref": "9522800001"}, "type": "Feature"}
{"geometry": {"coordinates": [-120.604126, 37.937552], "type": "Point"}, "id": "K0LAW0wmq9aOPZd5-yvVGo5Tlso=", "properties": {"@source_uri": "https://tools.usps.com/UspsToolsRestServices/rest/POLocator/findLocations", "@spider": "usps_collection_boxes", "addr:city": "COPPEROPOLIS", "addr:country": "US", "addr:postcode": "95228", "addr:state": "CA", "addr:street_address": "3505 SPANGLER LN", "amenity": "post_box", "collection_times": "Mo-Fr 12:00", "nsi_id": "unitedstatespostalservice-a77078", "operator": "United States Postal Service", "operator:short": "USPS", "operator:type": "public", "operator:wikidata": "Q668687", "ref": "9522800005"}, "type": "Feature"}
{"geometry": {"coordinates": [-120.652569447, 37.973234286], "type": "Point"}, "id": "SbqjV_MuZhwO5hFmDAg9ryKH_Ac=", "properties": {"@source_uri": "https://tools.usps.com/UspsToolsRestServices/rest/POLocator/findLocations", "@spider": "usps_collection_boxes", "addr:city": "COPPEROPOLIS", "addr:country": "US", "addr:postcode": "95228", "addr:state": "CA", "addr:street_address": "101 TOWN SQUARE RD", "amenity": "post_box", "collection_times": "Mo-Fr 14:30; Sa 09:00", "note": "ON 12/24 AND 12/31, THIS BOX MAY BE COLLECTED AS EARLY AS 12 NOON.", "nsi_id": "unitedstatespostalservice-a77078", "operator": "United States Postal Service", "operator:short": "USPS", "operator:type": "public", "operator:wikidata": "Q668687", "ref": "9522800008"}, "type": "Feature"}
{"geometry": {"coordinates": [-121.00208, 37.929993], "type": "Point"}, "id": "9uBWCLuAmpyJqTkGS03-0wQrt98=", "properties": {"@source_uri": "https://tools.usps.com/UspsToolsRestServices/rest/POLocator/findLocations", "@spider": "usps_collection_boxes", "addr:city": "FARMINGTON", "addr:country": "US", "addr:postcode": "95230", "addr:state": "CA", "addr:street_address": "25320 E HIGHWAY 4", "amenity": "post_box", "collection_times": "Mo-Fr 16:00; Sa 08:00", "note": "ON 12/24 AND 12/31, THIS BOX MAY BE COLLECTED AS EARLY AS 12 NOON.", "nsi_id": "unitedstatespostalservice-a77078", "operator": "United States Postal Service", "operator:short": "USPS", "operator:type": "public", "operator:wikidata": "Q668687", "ref": "9523000000"}, "type": "Feature"}
{"geometry": {"coordinates": [-121.00208, 37.929993], "type": "Point"}, "id": "Np_cWMxxNrFtNN9ds6RDBLKexFg=", "properties": {"@source_uri": "https://tools.usps.com/UspsToolsRestServices/rest/POLocator/findLocations", "@spider": "usps_collection_boxes", "addr:city": "FARMINGTON", "addr:country": "US", "addr:postcode": "95230", "addr:state": "CA", "addr:street_address": "25320 E HIGHWAY 4", "amenity": "post_box", "collection_times": "Mo-Fr 16:00; Sa 08:00", "indoor": "yes", "note": "ON 12/24 AND 12/31, THIS BOX MAY BE COLLECTED AS EARLY AS 12 NOON.", "nsi_id": "unitedstatespostalservice-a77078", "operator": "United States Postal Service", "operator:short": "USPS", "operator:type": "public", "operator:wikidata": "Q668687", "ref": "9523000001"}, "type": "Feature"}
{"geometry": {"coordinates": [-121.002080139, 37.929992503], "type": "Point"}, "id": "qnckUCeDc4S3niXD7t5eQlZ18xY=", "properties": {"@source_uri": "https://tools.usps.com/UspsToolsRestServices/rest/POLocator/findLocations", "@spider": "usps_collection_boxes", "addr:city": "FARMINGTON", "addr:country": "US", "addr:postcode": "95230", "addr:state": "CA", "addr:street_address": "25320 E HIGHWAY 4", "amenity": "post_box", "collection_times": "Mo-Fr 16:00", "indoor": "yes", "note": "ON 12/24 AND 12/31, THIS BOX MAY BE COLLECTED AS EARLY AS 12 NOON.", "nsi_id": "unitedstatespostalservice-a77078", "operator": "United States Postal Service", "operator:short": "USPS", "operator:type": "public", "operator:wikidata": "Q668687", "ref": "9523000003"}, "type": "Feature"}
{"geometry": {"coordinates": [-121.269119, 37.883074], "type": "Point"}, "id": "9Q7FAaSR9hidU8Qv-lVYMvjua4U=", "properties": {"@source_uri": "https://tools.usps.com/UspsToolsRestServices/rest/POLocator/findLocations", "@spider": "usps_collection_boxes", "addr:city": "FRENCH CAMP", "addr:country": "US", "addr:postcode": "95231", "addr:state": "CA", "addr:street_address": "315 E FRENCH CAMP RD", "amenity": "post_box", "collection_times": "Mo-Fr 17:00; Sa 10:00", "note": "ON 12/24 AND 12/31, THIS BOX MAY BE COLLECTED AS EARLY AS 12 NOON.", "nsi_id": "unitedstatespostalservice-a77078", "operator": "United States Postal Service", "operator:short": "USPS", "operator:type": "public", "operator:wikidata": "Q668687", "ref": "9523100001"}, "type": "Feature"}
{"geometry": {"coordinates": [-121.269111, 37.88314], "type": "Point"}, "id": "MBMi_qtskBlt_QkyYCRtFyvWSGI=", "properties": {"@source_uri": "https://tools.usps.com/UspsToolsRestServices/rest/POLocator/findLocations", "@spider": "usps_collection_boxes", "addr:city": "FRENCH CAMP", "addr:country": "US", "addr:postcode": "95231", "addr:state": "CA", "addr:street_address": "315 E FRENCH CAMP RD", "amenity": "post_box", "collection_times": "Mo-Fr 17:00; Sa 10:00", "indoor": "yes", "note": "ON 12/24 AND 12/31, THIS BOX MAY BE COLLECTED AS EARLY AS 12 NOON.", "nsi_id": "unitedstatespostalservice-a77078", "operator": "United States Postal Service", "operator:short": "USPS", "operator:type": "public", "operator:wikidata": "Q668687", "ref": "9523100002"}, "type": "Feature"}
{"geometry": {"coordinates": [-121.269097, 37.883151], "type": "Point"}, "id": "Hk1oeiah8neVQVLvQ7HVHjip9tw=", "properties": {"@source_uri": "https://tools.usps.com/UspsToolsRestServices/rest/POLocator/findLocations", "@spider": "usps_collection_boxes", "addr:city": "FRENCH CAMP", "addr:country": "US", "addr:postcode": "95231", "addr:state": "CA", "addr:street_address": "315 E FRENCH CAMP RD", "amenity": "post_box", "collection_times": "Mo-Fr 17:00; Sa 10:00", "indoor": "yes", "note": "ON 12/24 AND 12/31, THIS BOX MAY BE COLLECTED AS EARLY AS 12 NOON.", "nsi_id": "unitedstatespostalservice-a77078", "operator": "United States Postal Service", "operator:short": "USPS", "operator:type": "public", "operator:wikidata": "Q668687", "ref": "9523100003"}, "type": "Feature"}
{"geometry": {"coordinates": [-121.269219026, 37.882954968], "type": "Point"}, "id": "AJ8lo-TR66C-43WmP_ulErhdY48=", "properties": {"@source_uri": "https://tools.usps.com/UspsToolsRestServices/rest/POLocator/findLocations", "@spider": "usps_collection_boxes", "addr:city": "FRENCH CAMP", "addr:country": "US", "addr:postcode": "95231", "addr:state": "CA", "addr:street_address": "315 E FRENCH CAMP RD", "amenity": "post_box", "collection_times": "Mo-Fr 17:00", "indoor": "yes", "note": "ON 12/24 AND 12/31, THIS BOX MAY BE COLLECTED AS EARLY AS 12 NOON.", "nsi_id": "unitedstatespostalservice-a77078", "operator": "United States Postal Service", "operator:short": "USPS", "operator:type": "public", "operator:wikidata": "Q668687", "ref": "9523100004"}, "type": "Feature"}
{"geometry": {"coordinates": [-120.583422, 38.352518], "type": "Point"}, "id": "AYe-uIz9HfGgfonTIvApb_tVeO8=", "properties": {"@source_uri": "https://tools.usps.com/UspsToolsRestServices/rest/POLocator/findLocations", "@spider": "usps_collection_boxes", "addr:city": "GLENCOE", "addr:country": "US", "addr:postcode": "95232", "addr:state": "CA", "addr:street_address": "16087 HIGHWAY 26", "amenity": "post_box", "collection_times": "Mo-Fr 16:15; Sa 09:00", "indoor": "yes", "note": "ON 12/24 AND 12/31, THIS BOX MAY BE COLLECTED AS EARLY AS 12 NOON.", "nsi_id": "unitedstatespostalservice-a77078", "operator": "United States Postal Service", "operator:short": "USPS", "operator:type": "public", "operator:wikidata": "Q668687", "ref": "9523200001"}, "type": "Feature"}
{"geometry": {"coordinates": [-120.583422, 38.352518], "type": "Point"}, "id": "qJQYpL-ynJI9-UIAl4MTjkaXS3I=", "properties": {"@source_uri": "https://tools.usps.com/UspsToolsRestServices/rest/POLocator/findLocations", "@spider": "usps_collection_boxes", "addr:city": "GLENCOE", "addr:country": "US", "addr:postcode": "95232", "addr:state": "CA", "addr:street_address": "16087 HIGHWAY 26", "amenity": "post_box", "collection_times": "Mo-Fr 16:15; Sa 09:00", "indoor": "yes", "note": "ON 12/24 AND 12/31, THIS BOX MAY BE COLLECTED AS EARLY AS 12 NOON.", "nsi_id": "unitedstatespostalservice-a77078", "operator": "United States Postal Service", "operator:short": "USPS", "operator:type": "public", "operator:wikidata": "Q668687", "ref": "9523200002"}, "type": "Feature"}
{"geometry": {"coordinates": [-120.583423951, 38.352513838], "type": "Point"}, "id": "Xp2PX_6wcezJUz32c8V57NpPeLQ=", "properties": {"@source_uri": "https://tools.usps.com/UspsToolsRestServices/rest/POLocator/findLocations", "@spider": "usps_collection_boxes", "addr:city": "GLENCOE", "addr:country": "US", "addr:postcode": "95232", "addr:state": "CA", "addr:street_address": "16087 HIGHWAY 26", "amenity": "post_box", "collection_times": "Mo-Fr 16:45", "indoor": "yes", "note": "ON 12/24 AND 12/31, THIS BOX MAY BE COLLECTED AS EARLY AS 12 NOON.", "nsi_id": "unitedstatespostalservice-a77078", "operator": "United States Postal Service", "operator:short": "USPS", "operator:type": "public", "operator:wikidata": "Q668687", "ref": "9523200003"}, "type": "Feature"}
{"geometry": {"coordinates": [-120.365731, 38.191102], "type": "Point"}, "id": "NGBR0fHTtPkpAO_Osio-SxiiWPo=", "properties": {"@source_uri": "https://tools.usps.com/UspsToolsRestServices/rest/POLocator/findLocations", "@spider": "usps_collection_boxes", "addr:city": "HATHAWAY PINES", "addr:country": "US", "addr:postcode": "95233", "addr:state": "CA", "addr:street_address": "5234F E HIGHWAY 4", "amenity": "post_box", "collection_times": "Mo-Fr 12:45; Sa 11:00", "note": "ON 12/24 AND 12/31, THIS BOX MAY BE COLLECTED AS EARLY AS 12 NOON.", "nsi_id": "unitedstatespostalservice-a77078", "operator": "United States Postal Service", "operator:short": "USPS", "operator:type": "public", "operator:wikidata": "Q668687", "ref": "9523300000"}, "type": "Feature"}
{"geometry": {"coordinates": [-120.365706, 38.191083], "type": "Point"}, "id": "H7pKrq70Dq0jjpgywy0dkxg_vGY=", "properties": {"@source_uri": "https://tools.usps.com/UspsToolsRestServices/rest/POLocator/findLocations", "@spider": "usps_collection_boxes", "addr:city": "HATHAWAY PINES", "addr:country": "US", "addr:postcode": "95233", "addr:state": "CA", "addr:street_address": "5234F E HIGHWAY 4", "amenity": "post_box", "collection_times": "Mo-Fr 12:45; Sa 11:00", "indoor": "yes", "note": "ON 12/24 AND 12/31, THIS BOX MAY BE COLLECTED AS EARLY AS 12 NOON.", "nsi_id": "unitedstatespostalservice-a77078", "operator": "United States Postal Service", "operator:short": "USPS", "operator:type": "public", "operator:wikidata": "Q668687", "ref": "9523300001"}, "type": "Feature"}
{"geometry": {"coordinates": [-120.365706, 38.191083], "type": "Point"}, "id": "LwpdFohZj7RGrikGLDnUm3MXIn8=", "properties": {"@source_uri": "https://tools.usps.com/UspsToolsRestServices/rest/POLocator/findLocations", "@spider": "usps_collection_boxes", "addr:city": "HATHAWAY PINES", "addr:country": "US", "addr:postcode": "95233", "addr:state": "CA", "addr:street_address": "5234F E HIGHWAY 4", "amenity": "post_box", "collection_times": "Mo-Fr 12:45; Sa 11:00", "indoor": "yes", "note": "ON 12/24 AND 12/31, THIS BOX MAY BE COLLECTED AS EARLY AS 12 NOON.", "nsi_id": "unitedstatespostalservice-a77078", "operator": "United States Postal Service", "operator:short": "USPS", "operator:type": "public", "operator:wikidata": "Q668687", "ref": "9523300002"}, "type": "Feature"}
{"geometry": {"coordinates": [-121.435046539, 37.92844307], "type": "Point"}, "id": "GeCf1iuwUMCkAWvNAzmGwuaecLI=", "properties": {"@source_uri": "https://tools.usps.com/UspsToolsRestServices/rest/POLocator/findLocations", "@spider": "usps_collection_boxes", "addr:city": "HOLT", "addr:country": "US", "addr:postcode": "95234", "addr:state": "CA", "addr:street_address": "10340 S WHISKEY SLOUGH RD", "amenity": "post_box", "collection_times": "Mo-Fr 15:00; Sa 09:45", "note": "ON 12/24 AND 12/31, THIS BOX MAY BE COLLECTED AS EARLY AS 12 NOON.", "nsi_id": "unitedstatespostalservice-a77078", "operator": "United States Postal Service", "operator:short": "USPS", "operator:type": "public", "operator:wikidata": "Q668687", "ref": "9523400000"}, "type": "Feature"}
{"geometry": {"coordinates": [-121.432648, 37.926928], "type": "Point"}, "id": "72y2mj0L6AaW3clNMfD5_nUeNXw=", "properties": {"@source_uri": "https://tools.usps.com/UspsToolsRestServices/rest/POLocator/findLocations", "@spider": "usps_collection_boxes", "addr:city": "HOLT", "addr:country": "US", "addr:postcode": "95234", "addr:state": "CA", "addr:street_address": "10340 S WHISKEY SLOUGH RD", "amenity": "post_box", "collection_times": "Mo-Fr 15:00; Sa 09:45", "indoor": "yes", "note": "ON 12/24 AND 12/31, THIS BOX MAY BE COLLECTED AS EARLY AS 12 NOON.", "nsi_id": "unitedstatespostalservice-a77078", "operator": "United States Postal Service", "operator:short": "USPS", "operator:type": "public", "operator:wikidata": "Q668687", "ref": "9523400001"}, "type": "Feature"}
{"geometry": {"coordinates": [-121.432648, 37.926928], "type": "Point"}, "id": "EaYo8p7ezUS9IzUWmTzeXPS68vA=", "properties": {"@source_uri": "https://tools.usps.com/UspsToolsRestServices/rest/POLocator/findLocations", "@spider": "usps_collection_boxes", "addr:city": "HOLT", "addr:country": "US", "addr:postcode": "95234", "addr:state": "CA", "addr:street_address": "10340 S WHISKEY SLOUGH RD", "amenity": "post_box", "collection_times": "Mo-Fr 15:00; Sa 09:45", "indoor": "yes", "note": "ON 12/24 AND 12/31, THIS BOX MAY BE COLLECTED AS EARLY AS 12 NOON.", "nsi_id": "unitedstatespostalservice-a77078", "operator": "United States Postal Service", "operator:short": "USPS", "operator:type": "public", "operator:wikidata": "Q668687", "ref": "9523400002"}, "type": "Feature"}
{"geometry": {"coordinates": [-121.4350411, 37.928428951], "type": "Point"}, "id": "1ioUtBXWZ12NA2fNzGD4tsA3V3g=", "properties": {"@source_uri": "https://tools.usps.com/UspsToolsRestServices/rest/POLocator/findLocations", "@spider": "usps_collection_boxes", "addr:city": "HOLT", "addr:country": "US", "addr:postcode": "95234", "addr:state": "CA", "addr:street_address": "10340 S WHISKEY SLOUGH RD", "amenity": "post_box", "collection_times": "Mo-Fr 15:00", "indoor": "yes", "note": "ON 12/24 AND 12/31, THIS BOX MAY BE COLLECTED AS EARLY AS 12 NOON.", "nsi_id": "unitedstatespostalservice-a77078", "operator": "United States Postal Service", "operator:short": "USPS", "operator:type": "public", "operator:wikidata": "Q668687", "ref": "9523400003"}, "type": "Feature"}
{"geometry": {"coordinates": [-121.083842, 38.02128], "type": "Point"}, "id": "G2kEYw-TmWg84QD1SsOo3rnbFFA=", "properties": {"@source_uri": "https://tools.usps.com/UspsToolsRestServices/rest/POLocator/findLocations", "@spider": "usps_collection_boxes", "addr:city": "LINDEN", "addr:country": "US", "addr:postcode": "95236", "addr:state": "CA", "addr:street_address": "4916 N MILL ST", "amenity": "post_box", "collection_times": "Mo-Fr 16:30; Sa 09:00", "note": "ON 12/24 AND 12/31, THIS BOX MAY BE COLLECTED AS EARLY AS 12 NOON.", "nsi_id": "unitedstatespostalservice-a77078", "operator": "United States Postal Service", "operator:short": "USPS", "operator:type": "public", "operator:wikidata": "Q668687", "ref": "9523600000"}, "type": "Feature"}
{"geometry": {"coordinates": [-121.083841, 38.021214], "type": "Point"}, "id": "6VHWhQ7f4cdDOslwagFceLZEx5k=", "properties": {"@source_uri": "https://tools.usps.com/UspsToolsRestServices/rest/POLocator/findLocations", "@spider": "usps_collection_boxes", "addr:city": "LINDEN", "addr:country": "US", "addr:postcode": "95236", "addr:state": "CA", "addr:street_address": "4916 N MILL ST", "amenity": "post_box", "collection_times": "Mo-Fr 17:00", "indoor": "yes", "note": "ON 12/24 AND 12/31, THIS BOX MAY BE COLLECTED AS EARLY AS 12 NOON.", "nsi_id": "unitedstatespostalservice-a77078", "operator": "United States Postal Service", "operator:short": "USPS", "operator:type": "public", "operator:wikidata": "Q668687", "ref": "9523600002"}, "type": "Feature"}
{"geometry": {"coordinates": [-121.083841, 38.021214], "type": "Point"}, "id": "Bulto9tXos5xJKQ_vHVQvyov5yA=", "properties": {"@source_uri": "https://tools.usps.com/UspsToolsRestServices/rest/POLocator/findLocations", "@spider": "usps_collection_boxes", "addr:city": "LINDEN", "addr:country": "US", "addr:postcode": "95236", "addr:state": "CA", "addr:street_address": "4916 N MILL ST", "amenity": "post_box", "collection_times": "Mo-Fr 17:00", "indoor": "yes", "note": "ON 12/24 AND 12/31, THIS BOX MAY BE COLLECTED AS EARLY AS 12 NOON.", "nsi_id": "unitedstatespostalservice-a77078", "operator": "United States Postal Service", "operator:short": "USPS", "operator:type": "public", "operator:wikidata": "Q668687", "ref": "9523600003"}, "type": "Feature"}
{"geometry": {"coordinates": [-121.083841, 38.021214], "type": "Point"}, "id": "w41RXokvOCyKpmm3Jy5ziZhmW0M=", "properties": {"@source_uri": "https://tools.usps.com/UspsToolsRestServices/rest/POLocator/findLocations", "@spider": "usps_collection_boxes", "addr:city": "LINDEN", "addr:country": "US", "addr:postcode": "95236", "addr:state": "CA", "addr:street_address": "4916 N MILL ST", "amenity": "post_box", "collection_times": "Mo-Fr 17:00", "indoor": "yes", "note": "ON 12/24 AND 12/31, THIS BOX MAY BE COLLECTED AS EARLY AS 12 NOON.", "nsi_id": "unitedstatespostalservice-a77078", "operator": "United States Postal Service", "operator:short": "USPS", "operator:type": "public", "operator:wikidata": "Q668687", "ref": "9523600004"}, "type": "Feature"}
{"geometry": {"coordinates": [-121.083531362, 38.020631616], "type": "Point"}, "id": "0ruEumkAPoi2OgX_udE3JdeRvRo=", "properties": {"@source_uri": "https://tools.usps.com/UspsToolsRestServices/rest/POLocator/findLocations", "@spider": "usps_collection_boxes", "addr:city": "LINDEN", "addr:country": "US", "addr:postcode": "95236", "addr:state": "CA", "addr:street_address": "4916 N MILL ST", "amenity": "post_box", "collection_times": "Mo-Fr 17:00", "indoor": "yes", "note": "ON 12/24 AND 12/31, THIS BOX MAY BE COLLECTED AS EARLY AS 12 NOON.", "nsi_id": "unitedstatespostalservice-a77078", "operator": "United States Postal Service", "operator:short": "USPS", "operator:type": "public", "operator:wikidata": "Q668687", "ref": "9523600005"}, "type": "Feature"}
{"geometry": {"coordinates": [-121.153759, 38.156473], "type": "Point"}, "id": "rdordu6F6-BCnk8Z-_JWtw4_Jx0=", "properties": {"@source_uri": "https://tools.usps.com/UspsToolsRestServices/rest/POLocator/findLocations", "@spider": "usps_collection_boxes", "addr:city": "LOCKEFORD", "addr:country": "US", "addr:postcode": "95237", "addr:state": "CA", "addr:street_address": "18980 N HIGHWAY 88", "amenity": "post_box", "collection_times": "Mo-Fr 10:30", "nsi_id": "unitedstatespostalservice-a77078", "operator": "United States Postal Service", "operator:short": "USPS", "operator:type": "public", "operator:wikidata": "Q668687", "ref": "9523700000"}, "type": "Feature"}
{"geometry": {"coordinates": [-121.1517409986, 38.1625819896], "type": "Point"}, "id": "MwF7D_G_cKRE_bk-nZNIlGVIfJ8=", "properties": {"@source_uri": "https://tools.usps.com/UspsToolsRestServices/rest/POLocator/findLocations", "@spider": "usps_collection_boxes", "addr:city": "LOCKEFORD", "addr:country": "US", "addr:postcode": "95237", "addr:state": "CA", "addr:street_address": "13355 E HIGHWAY 88", "amenity": "post_box", "collection_times": "Mo-Fr 16:30; Sa 09:30", "note": "ON 12/24 AND 12/31, THIS BOX MAY BE COLLECTED AS EARLY AS 12 NOON.", "nsi_id": "unitedstatespostalservice-a77078", "operator": "United States Postal Service", "operator:short": "USPS", "operator:type": "public", "operator:wikidata": "Q668687", "ref": "9523700001"}, "type": "Feature"}
{"geometry": {"coordinates": [-121.151736, 38.162652], "type": "Point"}, "id": "5FlhDpw-Be3z-IWN5Ip6gmdLUC0=", "properties": {"@source_uri": "https://tools.usps.com/UspsToolsRestServices/rest/POLocator/findLocations", "@spider": "usps_collection_boxes", "addr:city": "LOCKEFORD", "addr:country": "US", "addr:postcode": "95237", "addr:state": "CA", "addr:street_address": "13355 E HIGHWAY 88", "amenity": "post_box", "collection_times": "Mo-Fr 17:00; Sa 09:30", "indoor": "yes", "note": "ON 12/24 AND 12/31, THIS BOX MAY BE COLLECTED AS EARLY AS 12 NOON.", "nsi_id": "unitedstatespostalservice-a77078", "operator": "United States Postal Service", "operator:short": "USPS", "operator:type": "public", "operator:wikidata": "Q668687", "ref": "9523700002"}, "type": "Feature"}
{"geometry": {"coordinates": [-121.151517358, 38.162436903], "type": "Point"}, "id": "qhXeV3Tds5IaID5m2zaZAJ48BvA=", "properties": {"@source_uri": "https://tools.usps.com/UspsToolsRestServices/rest/POLocator/findLocations", "@spider": "usps_collection_boxes", "addr:city": "LOCKEFORD", "addr:country": "US", "addr:postcode": "95237", "addr:state": "CA", "addr:street_address": "13355 E HIGHWAY 88", "amenity": "post_box", "collection_times": "Mo-Fr 17:00", "indoor": "yes", "note": "ON 12/24 AND 12/31, THIS BOX MAY BE COLLECTED AS EARLY AS 12 NOON.", "nsi_id": "unitedstatespostalservice-a77078", "operator": "United States Postal Service", "operator:short": "USPS", "operator:type": "public", "operator:wikidata": "Q668687", "ref": "9523700003"}, "type": "Feature"}
{"geometry": {"coordinates": [-121.286965, 38.120622], "type": "Point"}, "id": "ONupVS62ZcVLa-uY31Zhsz3BPvQ=", "properties": {"@source_uri": "https://tools.usps.com/UspsToolsRestServices/rest/POLocator/findLocations", "@spider": "usps_collection_boxes", "addr:city": "LODI", "addr:country": "US", "addr:postcode": "95240", "addr:state": "CA", "addr:street_address": "999 S FAIRMONT AVE", "amenity": "post_box", "collection_times": "Mo-Sa 11:00", "nsi_id": "unitedstatespostalservice-a77078", "operator": "United States Postal Service", "operator:short": "USPS", "operator:type": "public", "operator:wikidata": "Q668687", "ref": "9524000000"}, "type": "Feature"}
{"geometry": {"coordinates": [-121.27747, 38.134476], "type": "Point"}, "id": "SMB26aEA2MvDaDbTuIryrm2odNs=", "properties": {"@source_uri": "https://tools.usps.com/UspsToolsRestServices/rest/POLocator/findLocations", "@spider": "usps_collection_boxes", "addr:city": "LODI", "addr:country": "US", "addr:postcode": "95240", "addr:state": "CA", "addr:street_address": "325 W PINE ST", "amenity": "post_box", "collection_times": "Mo-Sa 13:00", "note": "ON 12/24 AND 12/31, THIS BOX MAY BE COLLECTED AS EARLY AS 12 NOON.", "nsi_id": "unitedstatespostalservice-a77078", "operator": "United States Postal Service", "operator:short": "USPS", "operator:type": "public", "operator:wikidata": "Q668687", "ref": "9524000005"}, "type": "Feature"}
{"geometry": {"coordinates": [-121.27636, 38.135469], "type": "Point"}, "id": "XGBRfbYbkxVNb6DRriwWpv4iRlQ=", "properties": {"@source_uri": "https://tools.usps.com/UspsToolsRestServices/rest/POLocator/findLocations", "@spider": "usps_collection_boxes", "addr:city": "LODI", "addr:country": "US", "addr:postcode": "95240", "addr:state": "CA", "addr:street_address": "230 W ELM ST", "amenity": "post_box", "collection_times": "Mo-Sa 13:00", "note": "ON 12/24 AND 12/31, THIS BOX MAY BE COLLECTED AS EARLY AS 12 NOON.", "nsi_id": "unitedstatespostalservice-a77078", "operator": "United States Postal Service", "operator:short": "USPS", "operator:type": "public", "operator:wikidata": "Q668687", "ref": "9524000009"}, "type": "Feature"}
{"geometry": {"coordinates": [-121.273797604, 38.132290247], "type": "Point"}, "id": "efff5TXyh264MQxgtq-w5NMzF3g=", "properties": {"@source_uri": "https://tools.usps.com/UspsToolsRestServices/rest/POLocator/findLocations", "@spider": "usps_collection_boxes", "addr:city": "LODI", "addr:country": "US", "addr:postcode": "95240", "addr:state": "CA", "addr:street_address": "120 S SCHOOL ST", "amenity": "post_box", "collection_times": "Mo-Sa 13:30", "note": "ON 12/24 AND 12/31, THIS BOX MAY BE COLLECTED AS EARLY AS 12 NOON.", "nsi_id": "unitedstatespostalservice-a77078", "operator": "United States Postal Service", "operator:short": "USPS", "operator:type": "public", "operator:wikidata": "Q668687", "ref": "9524000010"}, "type": "Feature"}
{"geometry": {"coordinates": [-121.265522, 38.13282], "type": "Point"}, "id": "c-RrSZso_FKBjDgXx7sJ2WUrwJc=", "properties": {"@source_uri": "https://tools.usps.com/UspsToolsRestServices/rest/POLocator/findLocations", "@spider": "usps_collection_boxes", "addr:city": "LODI", "addr:country": "US", "addr:postcode": "95240", "addr:state": "CA", "addr:street_address": "19 S CENTRAL AVE", "amenity": "post_box", "collection_times": "Mo-Sa 13:00", "note": "ON 12/24 AND 12/31, THIS BOX MAY BE COLLECTED AS EARLY AS 12 NOON.", "nsi_id": "unitedstatespostalservice-a77078", "operator": "United States Postal Service", "operator:short": "USPS", "operator:type": "public", "operator:wikidata": "Q668687", "ref": "9524000017"}, "type": "Feature"}
{"geometry": {"coordinates": [-121.2858879348, 38.123145], "type": "Point"}, "id": "NUehU-tcXjWKC86RYRQJYtqMvmI=", "properties": {"@source_uri": "https://tools.usps.com/UspsToolsRestServices/rest/POLocator/findLocations", "@spider": "usps_collection_boxes", "addr:city": "LODI", "addr:country": "US", "addr:postcode": "95240", "addr:state": "CA", "addr:street_address": "845 S FAIRMONT AVE", "amenity": "post_box", "collection_times": "Mo-Sa 13:00", "note": "ON 12/24 AND 12/31, THIS BOX MAY BE COLLECTED AS EARLY AS 12 NOON.", "nsi_id": "unitedstatespostalservice-a77078", "operator": "United States Postal Service", "operator:short": "USPS", "operator:type": "public", "operator:wikidata": "Q668687", "ref": "9524000031"}, "type": "Feature"}
{"geometry": {"coordinates": [-121.2807300227, 38.1458859929], "type": "Point"}, "id": "o8juLgpuLZP6ZDn-I23T4Qq7sUA=", "properties": {"@source_uri": "https://tools.usps.com/UspsToolsRestServices/rest/POLocator/findLocations", "@spider": "usps_collection_boxes", "addr:city": "LODI", "addr:country": "US", "addr:postcode": "95240", "addr:state": "CA", "addr:street_address": "1001 EDGEWOOD DR", "amenity": "post_box", "collection_times": "Mo-Sa 11:00", "nsi_id": "unitedstatespostalservice-a77078", "operator": "United States Postal Service", "operator:short": "USPS", "operator:type": "public", "operator:wikidata": "Q668687", "ref": "9524000032"}, "type": "Feature"}
{"geometry": {"coordinates": [-121.277949, 38.126205], "type": "Point"}, "id": "OK7UhxMSvnay1Jlw2LRqn6cCgUI=", "properties": {"@source_uri": "https://tools.usps.com/UspsToolsRestServices/rest/POLocator/findLocations", "@spider": "usps_collection_boxes", "addr:city": "LODI", "addr:country": "US", "addr:postcode": "95240", "addr:state": "CA", "addr:street_address": "700 S LEE AVE", "amenity": "post_box", "collection_times": "Mo-Sa 13:00", "note": "ON 12/24 AND 12/31, THIS BOX MAY BE COLLECTED AS EARLY AS 12 NOON.", "nsi_id": "unitedstatespostalservice-a77078", "operator": "United States Postal Service", "operator:short": "USPS", "operator:type": "public", "operator:wikidata": "Q668687", "ref": "9524000036"}, "type": "Feature"}
{"geometry": {"coordinates": [-121.259901, 38.129581], "type": "Point"}, "id": "bH-j-1e777Ya_kqvc-GbbcAQsY8=", "properties": {"@source_uri": "https://tools.usps.com/UspsToolsRestServices/rest/POLocator/findLocations", "@spider": "usps_collection_boxes", "addr:city": "LODI", "addr:country": "US", "addr:postcode": "95240", "addr:state": "CA", "addr:street_address": "480 S CHEROKEE LN", "amenity": "post_box", "collection_times": "Mo-Sa 10:00", "nsi_id": "unitedstatespostalservice-a77078", "operator": "United States Postal Service", "operator:short": "USPS", "operator:type": "public", "operator:wikidata": "Q668687", "ref": "9524000041"}, "type": "Feature"}
{"geometry": {"coordinates": [-121.2638999993, 38.1157830163], "type": "Point"}, "id": "xFpiNhbx6KeSPVBiljumcpl1990=", "properties": {"@source_uri": "https://tools.usps.com/UspsToolsRestServices/rest/POLocator/findLocations", "@spider": "usps_collection_boxes", "addr:city": "LODI", "addr:country": "US", "addr:postcode": "95240", "addr:state": "CA", "addr:street_address": "420 E KETTLEMAN LN", "amenity": "post_box", "collection_times": "Mo-Sa 09:00", "nsi_id": "unitedstatespostalservice-a77078", "operator": "United States Postal Service", "operator:short": "USPS", "operator:type": "public", "operator:wikidata": "Q668687", "ref": "9524000045"}, "type": "Feature"}
{"geometry": {"coordinates": [-121.269614917, 38.103981464], "type": "Point"}, "id": "bj0cmJqML0Mi644Q5zw0UE_18yY=", "properties": {"@source_uri": "https://tools.usps.com/UspsToolsRestServices/rest/POLocator/findLocations", "@spider": "usps_collection_boxes", "addr:city": "LODI", "addr:country": "US", "addr:postcode": "95240", "addr:state": "CA", "addr:street_address": "2405 S STOCKTON ST", "amenity": "post_box", "collection_times": "Mo-Sa 10:00", "nsi_id": "unitedstatespostalservice-a77078", "operator": "United States Postal Service", "operator:short": "USPS", "operator:type": "public", "operator:wikidata": "Q668687", "ref": "9524000048"}, "type": "Feature"}
{"geometry": {"coordinates": [-121.273082961, 38.1323439805], "type": "Point"}, "id": "c8RlOoCdXEkQxi4IiHtvmvR1TsA=", "properties": {"@source_uri": "https://tools.usps.com/UspsToolsRestServices/rest/POLocator/findLocations", "@spider": "usps_collection_boxes", "addr:city": "LODI", "addr:country": "US", "addr:postcode": "95240", "addr:state": "CA", "addr:street_address": "120 S SCHOOL ST", "amenity": "post_box", "collection_times": "Mo-Fr 17:00; Sa 16:45", "note": "ON 12/24 AND 12/31, THIS BOX MAY BE COLLECTED AS EARLY AS 12 NOON.", "nsi_id": "unitedstatespostalservice-a77078", "operator": "United States Postal Service", "operator:short": "USPS", "operator:type": "public", "operator:wikidata": "Q668687", "ref": "9524000081"}, "type": "Feature"}
{"geometry": {"coordinates": [-121.275655, 38.135485], "type": "Point"}, "id": "jES9a7PhcpnHK0KZs0xf0l0eqEs=", "properties": {"@source_uri": "https://tools.usps.com/UspsToolsRestServices/rest/POLocator/findLocations", "@spider": "usps_collection_boxes", "addr:city": "LODI", "addr:country": "US", "addr:postcode": "95240", "addr:state": "CA", "addr:street_address": "708 W KETTLEMAN LN", "amenity": "post_box", "collection_times": "Mo-Sa 11:00", "nsi_id": "unitedstatespostalservice-a77078", "operator": "United States Postal Service", "operator:short": "USPS", "operator:type": "public", "operator:wikidata": "Q668687", "ref": "9524000084"}, "type": "Feature"}
{"geometry": {"coordinates": [-121.273446, 38.132172], "type": "Point"}, "id": "Ew8MtIb_6NyvSkcDBFqTj2oImy0=", "properties": {"@source_uri": "https://tools.usps.com/UspsToolsRestServices/rest/POLocator/findLocations", "@spider": "usps_collection_boxes", "addr:city": "LODI", "addr:country": "US", "addr:postcode": "95240", "addr:state": "CA", "addr:street_address": "120 S SCHOOL ST", "amenity": "post_box", "collection_times": "Mo-Fr 17:00; Sa 16:45", "indoor": "yes", "note": "ON 12/24 AND 12/31, THIS BOX MAY BE COLLECTED AS EARLY AS 12 NOON.", "nsi_id": "unitedstatespostalservice-a77078", "operator": "United States Postal Service", "operator:short": "USPS", "operator:type": "public", "operator:wikidata": "Q668687", "ref": "9524000086"}, "type": "Feature"}
{"geometry": {"coordinates": [-121.273498, 38.132188], "type": "Point"}, "id": "wun9CER2zLz4eHrEuOEq3IEJeoY=", "properties": {"@source_uri": "https://tools.usps.com/UspsToolsRestServices/rest/POLocator/findLocations", "@spider": "usps_collection_boxes", "addr:city": "LODI", "addr:country": "US", "addr:postcode": "95240", "addr:state": "CA", "addr:street_address": "120 S SCHOOL ST", "amenity": "post_box", "collection_times": "Mo-Fr 17:00; Sa 16:45", "indoor": "yes", "note": "ON 12/24 AND 12/31, THIS BOX MAY BE COLLECTED AS EARLY AS 12 NOON.", "nsi_id": "unitedstatespostalservice-a77078", "operator": "United States Postal Service", "operator:short": "USPS", "operator:type": "public", "operator:wikidata": "Q668687", "ref": "9524000087"}, "type": "Feature"}
{"geometry": {"coordinates": [-121.273527, 38.132176], "type": "Point"}, "id": "yOu8p5EsHl6QV0r6KBC56uP8ZKA=", "properties": {"@source_uri": "https://tools.usps.com/UspsToolsRestServices/rest/POLocator/findLocations", "@spider": "usps_collection_boxes", "addr:city": "LODI", "addr:country": "US", "addr:postcode": "95240", "addr:state": "CA", "addr:street_address": "120 S SCHOOL ST", "amenity": "post_box", "collection_times": "Mo-Fr 17:00; Sa 16:45", "indoor": "yes", "note": "ON 12/24 AND 12/31, THIS BOX MAY BE COLLECTED AS EARLY AS 12 NOON.", "nsi_id": "unitedstatespostalservice-a77078", "operator": "United States Postal Service", "operator:short": "USPS", "operator:type": "public", "operator:wikidata": "Q668687", "ref": "9524000088"}, "type": "Feature"}
{"geometry": {"coordinates": [-121.273548, 38.132191], "type": "Point"}, "id": "IYJZ01p9YbK9WInJtLmLVR-TIOM=", "properties": {"@source_uri": "https://tools.usps.com/UspsToolsRestServices/rest/POLocator/findLocations", "@spider": "usps_collection_boxes", "addr:city": "LODI", "addr:country": "US", "addr:postcode": "95240", "addr:state": "CA", "addr:street_address": "120 S SCHOOL ST", "amenity": "post_box", "collection_times": "Mo-Fr 17:00; Sa 16:45", "indoor": "yes", "note": "ON 12/24 AND 12/31, THIS BOX MAY BE COLLECTED AS EARLY AS 12 NOON.", "nsi_id": "unitedstatespostalservice-a77078", "operator": "United States Postal Service", "operator:short": "USPS", "operator:type": "public", "operator:wikidata": "Q668687", "ref": "9524000089"}, "type": "Feature"}
{"geometry": {"coordinates": [-121.273797604, 38.132290247], "type": "Point"}, "id": "JRE8iyiJJZ00ZHMrc2t7mzoTo3E=", "properties": {"@source_uri": "https://tools.usps.com/UspsToolsRestServices/rest/POLocator/findLocations", "@spider": "usps_collection_boxes", "addr:city": "LODI", "addr:country": "US", "addr:postcode": "95240", "addr:state": "CA", "addr:street_address": "120 S SCHOOL ST", "amenity": "post_box", "collection_times": "Mo-Fr 17:00", "indoor": "yes", "note": "ON 12/24 AND 12/31, THIS BOX MAY BE COLLECTED AS EARLY AS 12 NOON.", "nsi_id": "unitedstatespostalservice-a77078", "operator": "United States Postal Service", "operator:short": "USPS", "operator:type": "public", "operator:wikidata": "Q668687", "ref": "9524000095"}, "type": "Feature"}
{"geometry": {"coordinates": [-121.288502, 38.136979], "type": "Point"}, "id": "ZjykxKk42lsimKjOK3j59KzKXyw=", "properties": {"@source_uri": "https://tools.usps.com/UspsToolsRestServices/rest/POLocator/findLocations", "@spider": "usps_collection_boxes", "addr:city": "LODI", "addr:country": "US", "addr:postcode": "95242", "addr:state": "CA", "addr:street_address": "115 N HAM LN", "amenity": "post_box", "collection_times": "Mo-Sa 12:00", "nsi_id": "unitedstatespostalservice-a77078", "operator": "United States Postal Service", "operator:short": "USPS", "operator:type": "public", "operator:wikidata": "Q668687", "ref": "9524200002"}, "type": "Feature"}
{"geometry": {"coordinates": [-121.2916896932, 38.1300155351], "type": "Point"}, "id": "lYY4_Twsz3NisU8ws5PzNNTcGWE=", "properties": {"@source_uri": "https://tools.usps.com/UspsToolsRestServices/rest/POLocator/findLocations", "@spider": "usps_collection_boxes", "addr:city": "LODI", "addr:country": "US", "addr:postcode": "95242", "addr:state": "CA", "addr:street_address": "1540 W LODI AVE", "amenity": "post_box", "collection_times": "Mo-Sa 10:00", "nsi_id": "unitedstatespostalservice-a77078", "operator": "United States Postal Service", "operator:short": "USPS", "operator:type": "public", "operator:wikidata": "Q668687", "ref": "9524200008"}, "type": "Feature"}
{"geometry": {"coordinates": [-121.298842, 38.11301], "type": "Point"}, "id": "I0OXH_8xIHRUdDaPiZNCXTcZmgg=", "properties": {"@source_uri": "https://tools.usps.com/UspsToolsRestServices/rest/POLocator/findLocations", "@spider": "usps_collection_boxes", "addr:city": "LODI", "addr:country": "US", "addr:postcode": "95242", "addr:state": "CA", "addr:street_address": "1558 S MILLS AVE", "amenity": "post_box", "collection_times": "Mo-Sa 11:00", "nsi_id": "unitedstatespostalservice-a77078", "operator": "United States Postal Service", "operator:short": "USPS", "operator:type": "public", "operator:wikidata": "Q668687", "ref": "9524200010"}, "type": "Feature"}
{"geometry": {"coordinates": [-121.2869150291, 38.1042019921], "type": "Point"}, "id": "jiRM8kRPS7e098deCVKJe6SjHKs=", "properties": {"@source_uri": "https://tools.usps.com/UspsToolsRestServices/rest/POLocator/findLocations", "@spider": "usps_collection_boxes", "addr:city": "LODI", "addr:country": "US", "addr:postcode": "95242", "addr:state": "CA", "addr:street_address": "2265 S HAM LN", "amenity": "post_box", "collection_times": "Mo-Sa 10:00", "nsi_id": "unitedstatespostalservice-a77078", "operator": "United States Postal Service", "operator:short": "USPS", "operator:type": "public", "operator:wikidata": "Q668687", "ref": "9524200012"}, "type": "Feature"}
{"geometry": {"coordinates": [-121.304889, 38.145497], "type": "Point"}, "id": "xzMoLJ-Gg0KGtF4grvnZDZVvT5w=", "properties": {"@source_uri": "https://tools.usps.com/UspsToolsRestServices/rest/POLocator/findLocations", "@spider": "usps_collection_boxes", "addr:city": "LODI", "addr:country": "US", "addr:postcode": "95242", "addr:state": "CA", "addr:street_address": "2420 W TURNER RD", "amenity": "post_box", "collection_times": "Mo-Sa 12:00", "nsi_id": "unitedstatespostalservice-a77078", "operator": "United States Postal Service", "operator:short": "USPS", "operator:type": "public", "operator:wikidata": "Q668687", "ref": "9524200013"}, "type": "Feature"}
{"geometry": {"coordinates": [-121.295583, 38.115346], "type": "Point"}, "id": "_uKKZINijyxnoddXv9zDNTVGdQw=", "properties": {"@source_uri": "https://tools.usps.com/UspsToolsRestServices/rest/POLocator/findLocations", "@spider": "usps_collection_boxes", "addr:city": "LODI", "addr:country": "US", "addr:postcode": "95242", "addr:state": "CA", "addr:street_address": "1822 W KETTLEMAN LN", "amenity": "post_box", "collection_times": "Mo-Sa 10:00", "nsi_id": "unitedstatespostalservice-a77078", "operator": "United States Postal Service", "operator:short": "USPS", "operator:type": "public", "operator:wikidata": "Q668687", "ref": "9524200016"}, "type": "Feature"}
{"geometry": {"coordinates": [-121.288378, 38.124922], "type": "Point"}, "id": "EYvBSY9gMaSi7_Vga0RRsKeHcak=", "properties": {"@source_uri": "https://tools.usps.com/UspsToolsRestServices/rest/POLocator/findLocations", "@spider": "usps_collection_boxes", "addr:city": "LODI", "addr:country": "US", "addr:postcode": "95242", "addr:state": "CA", "addr:street_address": "801 S HAM LN", "amenity": "post_box", "collection_times": "Mo-Sa 10:00", "nsi_id": "unitedstatespostalservice-a77078", "operator": "United States Postal Service", "operator:short": "USPS", "operator:type": "public", "operator:wikidata": "Q668687", "ref": "9524200022"}, "type": "Feature"}
{"geometry": {"coordinates": [-121.303654, 38.115669], "type": "Point"}, "id": "jud1IN0-1PW3g7IvMqs2fDGDIMM=", "properties": {"@source_uri": "https://tools.usps.com/UspsToolsRestServices/rest/POLocator/findLocations", "@spider": "usps_collection_boxes", "addr:city": "LODI", "addr:country": "US", "addr:postcode": "95242", "addr:state": "CA", "addr:street_address": "2347 W KETTLEMAN LN", "amenity": "post_box", "collection_times": "Mo-Sa 11:00", "nsi_id": "unitedstatespostalservice-a77078", "operator": "United States Postal Service", "operator:short": "USPS", "operator:type": "public", "operator:wikidata": "Q668687", "ref": "9524200024"}, "type": "Feature"}
{"geometry": {"coordinates": [-120.7059, 38.301408], "type": "Point"}, "id": "9i5gBkMh9i6Fd60cXtofJ_S_ssI=", "properties": {"@source_uri": "https://tools.usps.com/UspsToolsRestServices/rest/POLocator/findLocations", "@spider": "usps_collection_boxes", "addr:city": "MOKELUMNE HILL", "addr:country": "US", "addr:postcode": "95245", "addr:state": "CA", "addr:street_address": "8331 MAIN ST", "amenity": "post_box", "collection_times": "Mo-Fr 15:45; Sa 10:30", "note": "ON 12/24 AND 12/31, THIS BOX MAY BE COLLECTED AS EARLY AS 12 NOON.", "nsi_id": "unitedstatespostalservice-a77078", "operator": "United States Postal Service", "operator:short": "USPS", "operator:type": "public", "operator:wikidata": "Q668687", "ref": "9524500000"}, "type": "Feature"}
{"geometry": {"coordinates": [-120.7059, 38.301408], "type": "Point"}, "id": "n9xrWi-v8CaE_4HzUacesw0kgIE=", "properties": {"@source_uri": "https://tools.usps.com/UspsToolsRestServices/rest/POLocator/findLocations", "@spider": "usps_collection_boxes", "addr:city": "MOKELUMNE HILL", "addr:country": "US", "addr:postcode": "95245", "addr:state": "CA", "addr:street_address": "8331 MAIN ST", "amenity": "post_box", "collection_times": "Mo-Fr 15:45; Sa 10:30", "indoor": "yes", "note": "ON 12/24 AND 12/31, THIS BOX MAY BE COLLECTED AS EARLY AS 12 NOON.", "nsi_id": "unitedstatespostalservice-a77078", "operator": "United States Postal Service", "operator:short": "USPS", "operator:type": "public", "operator:wikidata": "Q668687", "ref": "9524500002"}, "type": "Feature"}
{"geometry": {"coordinates": [-120.7059, 38.301408], "type": "Point"}, "id": "G5hfZCXsUzOx_poIonj5mHVuB5M=", "properties": {"@source_uri": "https://tools.usps.com/UspsToolsRestServices/rest/POLocator/findLocations", "@spider": "usps_collection_boxes", "addr:city": "MOKELUMNE HILL", "addr:country": "US", "addr:postcode": "95245", "addr:state": "CA", "addr:street_address": "8331 MAIN ST", "amenity": "post_box", "collection_times": "Mo-Fr 15:45; Sa 10:30", "indoor": "yes", "note": "ON 12/24 AND 12/31, THIS BOX MAY BE COLLECTED AS EARLY AS 12 NOON.", "nsi_id": "unitedstatespostalservice-a77078", "operator": "United States Postal Service", "operator:short": "USPS", "operator:type": "public", "operator:wikidata": "Q668687", "ref": "9524500003"}, "type": "Feature"}
{"geometry": {"coordinates": [-120.705876669, 38.301625823], "type": "Point"}, "id": "EnW9OvxE_zlNgW1PcXfonOZ36zs=", "properties": {"@source_uri": "https://tools.usps.com/UspsToolsRestServices/rest/POLocator/findLocations", "@spider": "usps_collection_boxes", "addr:city": "MOKELUMNE HILL", "addr:country": "US", "addr:postcode": "95245", "addr:state": "CA", "addr:street_address": "8331 MAIN ST", "amenity": "post_box", "collection_times": "Mo-Fr 15:45", "indoor": "yes", "note": "ON 12/24 AND 12/31, THIS BOX MAY BE COLLECTED AS EARLY AS 12 NOON.", "nsi_id": "unitedstatespostalservice-a77078", "operator": "United States Postal Service", "operator:short": "USPS", "operator:type": "public", "operator:wikidata": "Q668687", "ref": "9524500004"}, "type": "Feature"}
{"geometry": {"coordinates": [-120.541963, 38.227767], "type": "Point"}, "id": "E3MCrxZ3SBUWKOe-6K5NnMBYDJA=", "properties": {"@source_uri": "https://tools.usps.com/UspsToolsRestServices/rest/POLocator/findLocations", "@spider": "usps_collection_boxes", "addr:city": "MOUNTAIN RANCH", "addr:country": "US", "addr:postcode": "95246", "addr:state": "CA", "addr:street_address": "8062 WASHINGTON ST", "amenity": "post_box", "collection_times": "Mo-Fr 16:15; Sa 11:45", "note": "ON 12/24 AND 12/31, THIS BOX MAY BE COLLECTED AS EARLY AS 12 NOON.", "nsi_id": "unitedstatespostalservice-a77078", "operator": "United States Postal Service", "operator:short": "USPS", "operator:type": "public", "operator:wikidata": "Q668687", "ref": "9524600000"}, "type": "Feature"}
{"geometry": {"coordinates": [-120.541963, 38.227767], "type": "Point"}, "id": "Cdqi4FFnXDHDYRwj3aGV77GUYno=", "properties": {"@source_uri": "https://tools.usps.com/UspsToolsRestServices/rest/POLocator/findLocations", "@spider": "usps_collection_boxes", "addr:city": "MOUNTAIN RANCH", "addr:country": "US", "addr:postcode": "95246", "addr:state": "CA", "addr:street_address": "8062 WASHINGTON ST", "amenity": "post_box", "collection_times": "Mo-Fr 16:15; Sa 11:45", "indoor": "yes", "note": "ON 12/24 AND 12/31, THIS BOX MAY BE COLLECTED AS EARLY AS 12 NOON.", "nsi_id": "unitedstatespostalservice-a77078", "operator": "United States Postal Service", "operator:short": "USPS", "operator:type": "public", "operator:wikidata": "Q668687", "ref": "9524600001"}, "type": "Feature"}
{"geometry": {"coordinates": [-120.541964786, 38.227763674], "type": "Point"}, "id": "F6ZAW6gxEkxsh59LGFoMegxoYqQ=", "properties": {"@source_uri": "https://tools.usps.com/UspsToolsRestServices/rest/POLocator/findLocations", "@spider": "usps_collection_boxes", "addr:city": "MOUNTAIN RANCH", "addr:country": "US", "addr:postcode": "95246", "addr:state": "CA", "addr:street_address": "8062 WASHINGTON ST", "amenity": "post_box", "collection_times": "Mo-Fr 16:30", "indoor": "yes", "note": "ON 12/24 AND 12/31, THIS BOX MAY BE COLLECTED AS EARLY AS 12 NOON.", "nsi_id": "unitedstatespostalservice-a77078", "operator": "United States Postal Service", "operator:short": "USPS", "operator:type": "public", "operator:wikidata": "Q668687", "ref": "9524600003"}, "type": "Feature"}
{"geometry": {"coordinates": [-120.458141, 38.138237], "type": "Point"}, "id": "koqkF1t7T6E1JyxTv-zJnaYy-70=", "properties": {"@source_uri": "https://tools.usps.com/UspsToolsRestServices/rest/POLocator/findLocations", "@spider": "usps_collection_boxes", "addr:city": "MURPHYS", "addr:country": "US", "addr:postcode": "95247", "addr:state": "CA", "addr:street_address": "140 BIG TREES RD", "amenity": "post_box", "collection_times": "Mo-Fr 16:45; Sa 10:00", "note": "ON 12/24 AND 12/31, THIS BOX MAY BE COLLECTED AS EARLY AS 12 NOON.", "nsi_id": "unitedstatespostalservice-a77078", "operator": "United States Postal Service", "operator:short": "USPS", "operator:type": "public", "operator:wikidata": "Q668687", "ref": "9524700000"}, "type": "Feature"}
{"geometry": {"coordinates": [-120.458169, 38.138255], "type": "Point"}, "id": "BfhCsGMVrwDG2DLvpNmPXEzeYEc=", "properties": {"@source_uri": "https://tools.usps.com/UspsToolsRestServices/rest/POLocator/findLocations", "@spider": "usps_collection_boxes", "addr:city": "MURPHYS", "addr:country": "US", "addr:postcode": "95247", "addr:state": "CA", "addr:street_address": "140 BIG TREES RD", "amenity": "post_box", "collection_times": "Mo-Fr 16:45; Sa 10:00", "indoor": "yes", "note": "ON 12/24 AND 12/31, THIS BOX MAY BE COLLECTED AS EARLY AS 12 NOON.", "nsi_id": "unitedstatespostalservice-a77078", "operator": "United States Postal Service", "operator:short": "USPS", "operator:type": "public", "operator:wikidata": "Q668687", "ref": "9524700002"}, "type": "Feature"}
{"geometry": {"coordinates": [-120.458169, 38.138255], "type": "Point"}, "id": "qBwlOj-dmUvD7T4Hhh9s2SN_CuU=", "properties": {"@source_uri": "https://tools.usps.com/UspsToolsRestServices/rest/POLocator/findLocations", "@spider": "usps_collection_boxes", "addr:city": "MURPHYS", "addr:country": "US", "addr:postcode": "95247", "addr:state": "CA", "addr:street_address": "140 BIG TREES RD", "amenity": "post_box", "collection_times": "Mo-Fr 16:45; Sa 10:00", "indoor": "yes", "note": "ON 12/24 AND 12/31, THIS BOX MAY BE COLLECTED AS EARLY AS 12 NOON.", "nsi_id": "unitedstatespostalservice-a77078", "operator": "United States Postal Service", "operator:short": "USPS", "operator:type": "public", "operator:wikidata": "Q668687", "ref": "9524700003"}, "type": "Feature"}
{"geometry": {"coordinates": [-120.458085372, 38.138270429], "type": "Point"}, "id": "ME4fyvDl79A2xL70eZgiDiBsmpc=", "properties": {"@source_uri": "https://tools.usps.com/UspsToolsRestServices/rest/POLocator/findLocations", "@spider": "usps_collection_boxes", "addr:city": "MURPHYS", "addr:country": "US", "addr:postcode": "95247", "addr:state": "CA", "addr:street_address": "140 BIG TREES RD", "amenity": "post_box", "collection_times": "Mo-Fr 16:30", "indoor": "yes", "note": "ON 12/24 AND 12/31, THIS BOX MAY BE COLLECTED AS EARLY AS 12 NOON.", "nsi_id": "unitedstatespostalservice-a77078", "operator": "United States Postal Service", "operator:short": "USPS", "operator:type": "public", "operator:wikidata": "Q668687", "ref": "9524700004"}, "type": "Feature"}
{"geometry": {"coordinates": [-120.515765, 38.338347], "type": "Point"}, "id": "7wFCf5999666F8pndpOfEtXDHCM=", "properties": {"@source_uri": "https://tools.usps.com/UspsToolsRestServices/rest/POLocator/findLocations", "@spider": "usps_collection_boxes", "addr:city": "RAIL ROAD FLAT", "addr:country": "US", "addr:postcode": "95248", "addr:state": "CA", "addr:street_address": "313B RAIL ROAD FLAT RD", "amenity": "post_box", "collection_times": "Mo-Fr 14:30; Sa 10:15", "note": "ON 12/24 AND 12/31, THIS BOX MAY BE COLLECTED AS EARLY AS 12 NOON.", "nsi_id": "unitedstatespostalservice-a77078", "operator": "United States Postal Service", "operator:short": "USPS", "operator:type": "public", "operator:wikidata": "Q668687", "ref": "9524800000"}, "type": "Feature"}
{"geometry": {"coordinates": [-120.5158, 38.338262], "type": "Point"}, "id": "3K7sZASbTpQ6EOsS_oylHoCCotY=", "properties": {"@source_uri": "https://tools.usps.com/UspsToolsRestServices/rest/POLocator/findLocations", "@spider": "usps_collection_boxes", "addr:city": "RAIL ROAD FLAT", "addr:country": "US", "addr:postcode": "95248", "addr:state": "CA", "addr:street_address": "313B RAIL ROAD FLAT RD", "amenity": "post_box", "collection_times": "Mo-Fr 14:20; Sa 10:15", "indoor": "yes", "note": "ON 12/24 AND 12/31, THIS BOX MAY BE COLLECTED AS EARLY AS 12 NOON.", "nsi_id": "unitedstatespostalservice-a77078", "operator": "United States Postal Service", "operator:short": "USPS", "operator:type": "public", "operator:wikidata": "Q668687", "ref": "9524800001"}, "type": "Feature"}
{"geometry": {"coordinates": [-120.5158, 38.338262], "type": "Point"}, "id": "r87RpVMaXtkFhPmG788PXauYKJ8=", "properties": {"@source_uri": "https://tools.usps.com/UspsToolsRestServices/rest/POLocator/findLocations", "@spider": "usps_collection_boxes", "addr:city": "RAIL ROAD FLAT", "addr:country": "US", "addr:postcode": "95248", "addr:state": "CA", "addr:street_address": "313B RAIL ROAD FLAT RD", "amenity": "post_box", "collection_times": "Mo-Fr 14:20; Sa 10:15", "indoor": "yes", "note": "ON 12/24 AND 12/31, THIS BOX MAY BE COLLECTED AS EARLY AS 12 NOON.", "nsi_id": "unitedstatespostalservice-a77078", "operator": "United States Postal Service", "operator:short": "USPS", "operator:type": "public", "operator:wikidata": "Q668687", "ref": "9524800002"}, "type": "Feature"}
{"geometry": {"coordinates": [-120.51580901, 38.338345257], "type": "Point"}, "id": "6ag7LCMFeN1Yj9swg9Q3E8Qn7Rc=", "properties": {"@source_uri": "https://tools.usps.com/UspsToolsRestServices/rest/POLocator/findLocations", "@spider": "usps_collection_boxes", "addr:city": "RAIL ROAD FLAT", "addr:country": "US", "addr:postcode": "95248", "addr:state": "CA", "addr:street_address": "313B RAIL ROAD FLAT RD", "amenity": "post_box", "collection_times": "Mo-Fr 14:30", "indoor": "yes", "note": "ON 12/24 AND 12/31, THIS BOX MAY BE COLLECTED AS EARLY AS 12 NOON.", "nsi_id": "unitedstatespostalservice-a77078", "operator": "United States Postal Service", "operator:short": "USPS", "operator:type": "public", "operator:wikidata": "Q668687", "ref": "9524800003"}, "type": "Feature"}
{"geometry": {"coordinates": [-120.677952, 38.194497], "type": "Point"}, "id": "FW8FHbwOgInniCuv3g81Vhq9eNE=", "properties": {"@source_uri": "https://tools.usps.com/UspsToolsRestServices/rest/POLocator/findLocations", "@spider": "usps_collection_boxes", "addr:city": "SAN ANDREAS", "addr:country": "US", "addr:postcode": "95249", "addr:state": "CA", "addr:street_address": "169 E SAINT CHARLES ST", "amenity": "post_box", "collection_times": "Mo-Fr 12:00", "nsi_id": "unitedstatespostalservice-a77078", "operator": "United States Postal Service", "operator:short": "USPS", "operator:type": "public", "operator:wikidata": "Q668687", "ref": "9524900001"}, "type": "Feature"}
{"geometry": {"coordinates": [-120.6709461021, 38.1907870663], "type": "Point"}, "id": "w_uBvDEHNZdiEBoFGNXssW_47Jo=", "properties": {"@source_uri": "https://tools.usps.com/UspsToolsRestServices/rest/POLocator/findLocations", "@spider": "usps_collection_boxes", "addr:city": "SAN ANDREAS", "addr:country": "US", "addr:postcode": "95249", "addr:state": "CA", "addr:street_address": "745 MOUNTAIN RANCH RD", "amenity": "post_box", "collection_times": "Mo-Fr 12:00", "nsi_id": "unitedstatespostalservice-a77078", "operator": "United States Postal Service", "operator:short": "USPS", "operator:type": "public", "operator:wikidata": "Q668687", "ref": "9524900002"}, "type": "Feature"}
{"geometry": {"coordinates": [-120.687006, 38.198039], "type": "Point"}, "id": "3g0fOwYTKTNQpRSR9wzA7bWVsS4=", "properties": {"@source_uri": "https://tools.usps.com/UspsToolsRestServices/rest/POLocator/findLocations", "@spider": "usps_collection_boxes", "addr:city": "SAN ANDREAS", "addr:country": "US", "addr:postcode": "95249", "addr:state": "CA", "addr:street_address": "315 RUSSELL RD", "amenity": "post_box", "collection_times": "Mo-Fr 16:30; Sa 09:30", "note": "ON 12/24 AND 12/31, THIS BOX MAY BE COLLECTED AS EARLY AS 12 NOON.", "nsi_id": "unitedstatespostalservice-a77078", "operator": "United States Postal Service", "operator:short": "USPS", "operator:type": "public", "operator:wikidata": "Q668687", "ref": "9524900003"}, "type": "Feature"}
{"geometry": {"coordinates": [-120.687006, 38.198039], "type": "Point"}, "id": "COdl6iaex7RgM-OeUMkP9-PJevw=", "properties": {"@source_uri": "https://tools.usps.com/UspsToolsRestServices/rest/POLocator/findLocations", "@spider": "usps_collection_boxes", "addr:city": "SAN ANDREAS", "addr:country": "US", "addr:postcode": "95249", "addr:state": "CA", "addr:street_address": "315 RUSSELL RD", "amenity": "post_box", "collection_times": "Mo-Fr 16:30; Sa 09:30", "indoor": "yes", "note": "ON 12/24 AND 12/31, THIS BOX MAY BE COLLECTED AS EARLY AS 12 NOON.", "nsi_id": "unitedstatespostalservice-a77078", "operator": "United States Postal Service", "operator:short": "USPS", "operator:type": "public", "operator:wikidata": "Q668687", "ref": "9524900006"}, "type": "Feature"}
{"geometry": {"coordinates": [-120.687006, 38.198039], "type": "Point"}, "id": "dY0RvxAU1wbrsfUx2QwI-ZrFTuc=", "properties": {"@source_uri": "https://tools.usps.com/UspsToolsRestServices/rest/POLocator/findLocations", "@spider": "usps_collection_boxes", "addr:city": "SAN ANDREAS", "addr:country": "US", "addr:postcode": "95249", "addr:state": "CA", "addr:street_address": "315 RUSSELL RD", "amenity": "post_box", "collection_times": "Mo-Fr 16:30; Sa 09:30", "indoor": "yes", "note": "ON 12/24 AND 12/31, THIS BOX MAY BE COLLECTED AS EARLY AS 12 NOON.", "nsi_id": "unitedstatespostalservice-a77078", "operator": "United States Postal Service", "operator:short": "USPS", "operator:type": "public", "operator:wikidata": "Q668687", "ref": "9524900007"}, "type": "Feature"}
{"geometry": {"coordinates": [-120.686997792, 38.197992346], "type": "Point"}, "id": "YFo-oCKiM_-es-Gd0zrxpJFRH0A=", "properties": {"@source_uri": "https://tools.usps.com/UspsToolsRestServices/rest/POLocator/findLocations", "@spider": "usps_collection_boxes", "addr:city": "SAN ANDREAS", "addr:country": "US", "addr:postcode": "95249", "addr:state": "CA", "addr:street_address": "315 RUSSELL RD", "amenity": "post_box", "collection_times": "Mo-Fr 16:30", "indoor": "yes", "note": "ON 12/24 AND 12/31, THIS BOX MAY BE COLLECTED AS EARLY AS 12 NOON.", "nsi_id": "unitedstatespostalservice-a77078", "operator": "United States Postal Service", "operator:short": "USPS", "operator:type": "public", "operator:wikidata": "Q668687", "ref": "9524900008"}, "type": "Feature"}
{"geometry": {"coordinates": [-120.472776, 38.08695], "type": "Point"}, "id": "kH7MwMHodvpj7r-pBsi3M9zKSx0=", "properties": {"@source_uri": "https://tools.usps.com/UspsToolsRestServices/rest/POLocator/findLocations", "@spider": "usps_collection_boxes", "addr:city": "VALLECITO", "addr:country": "US", "addr:postcode": "95251", "addr:state": "CA", "addr:street_address": "3511 MAIN ST", "amenity": "post_box", "collection_times": "Mo-Fr 15:30; Sa 09:30", "indoor": "yes", "note": "ON 12/24 AND 12/31, THIS BOX MAY BE COLLECTED AS EARLY AS 12 NOON.", "nsi_id": "unitedstatespostalservice-a77078", "operator": "United States Postal Service", "operator:short": "USPS", "operator:type": "public", "operator:wikidata": "Q668687", "ref": "9525100002"}, "type": "Feature"}
{"geometry": {"coordinates": [-120.472776, 38.08695], "type": "Point"}, "id": "NZVwiKF7xDT0eEmH3NDHWEIFk-M=", "properties": {"@source_uri": "https://tools.usps.com/UspsToolsRestServices/rest/POLocator/findLocations", "@spider": "usps_collection_boxes", "addr:city": "VALLECITO", "addr:country": "US", "addr:postcode": "95251", "addr:state": "CA", "addr:street_address": "3511 MAIN ST", "amenity": "post_box", "collection_times": "Mo-Fr 15:30; Sa 09:30", "indoor": "yes", "note": "ON 12/24 AND 12/31, THIS BOX MAY BE COLLECTED AS EARLY AS 12 NOON.", "nsi_id": "unitedstatespostalservice-a77078", "operator": "United States Postal Service", "operator:short": "USPS", "operator:type": "public", "operator:wikidata": "Q668687", "ref": "9525100003"}, "type": "Feature"}
{"geometry": {"coordinates": [-120.472776054, 38.086947], "type": "Point"}, "id": "pawQVLMTq9J2lpWZCYdQlqMdw4c=", "properties": {"@source_uri": "https://tools.usps.com/UspsToolsRestServices/rest/POLocator/findLocations", "@spider": "usps_collection_boxes", "addr:city": "VALLECITO", "addr:country": "US", "addr:postcode": "95251", "addr:state": "CA", "addr:street_address": "3511 MAIN ST", "amenity": "post_box", "collection_times": "Mo-Fr 16:00", "indoor": "yes", "note": "ON 12/24 AND 12/31, THIS BOX MAY BE COLLECTED AS EARLY AS 12 NOON.", "nsi_id": "unitedstatespostalservice-a77078", "operator": "United States Postal Service", "operator:short": "USPS", "operator:type": "public", "operator:wikidata": "Q668687", "ref": "9525100005"}, "type": "Feature"}
{"geometry": {"coordinates": [-120.8262229994, 38.1918619891], "type": "Point"}, "id": "4MK6XBJ4niOlvZVZF3sldwi1kKo=", "properties": {"@source_uri": "https://tools.usps.com/UspsToolsRestServices/rest/POLocator/findLocations", "@spider": "usps_collection_boxes", "addr:city": "VALLEY SPRINGS", "addr:country": "US", "addr:postcode": "95252", "addr:state": "CA", "addr:street_address": "200 E HIGHWAY 12", "amenity": "post_box", "collection_times": "Mo-Fr 17:00; Sa 09:00", "note": "ON 12/24 AND 12/31, THIS BOX MAY BE COLLECTED AS EARLY AS 12 NOON.", "nsi_id": "unitedstatespostalservice-a77078", "operator": "United States Postal Service", "operator:short": "USPS", "operator:type": "public", "operator:wikidata": "Q668687", "ref": "9525200000"}, "type": "Feature"}
{"geometry": {"coordinates": [-120.8383139786, 38.1687330074], "type": "Point"}, "id": "MM1h2MlEGLIzCAZamg6lb7aeB48=", "properties": {"@source_uri": "https://tools.usps.com/UspsToolsRestServices/rest/POLocator/findLocations", "@spider": "usps_collection_boxes", "addr:city": "VALLEY SPRINGS", "addr:country": "US", "addr:postcode": "95252", "addr:state": "CA", "addr:street_address": "1919 VISTA DEL LAGO DR", "amenity": "post_box", "collection_times": "Mo-Fr 09:45", "nsi_id": "unitedstatespostalservice-a77078", "operator": "United States Postal Service", "operator:short": "USPS", "operator:type": "public", "operator:wikidata": "Q668687", "ref": "9525200001"}, "type": "Feature"}
{"geometry": {"coordinates": [-120.826402, 38.192489], "type": "Point"}, "id": "v6wl3HRXMwjG2smfzuaXFFUDSq0=", "properties": {"@source_uri": "https://tools.usps.com/UspsToolsRestServices/rest/POLocator/findLocations", "@spider": "usps_collection_boxes", "addr:city": "VALLEY SPRINGS", "addr:country": "US", "addr:postcode": "95252", "addr:state": "CA", "addr:street_address": "200 E HIGHWAY 12", "amenity": "post_box", "collection_times": "Mo-Fr 17:00; Sa 09:00", "indoor": "yes", "note": "ON 12/24 AND 12/31, THIS BOX MAY BE COLLECTED AS EARLY AS 12 NOON.", "nsi_id": "unitedstatespostalservice-a77078", "operator": "United States Postal Service", "operator:short": "USPS", "operator:type": "public", "operator:wikidata": "Q668687", "ref": "9525200004"}, "type": "Feature"}
{"geometry": {"coordinates": [-120.826402, 38.192489], "type": "Point"}, "id": "UF1M_yOJ0jTNl02JqoyJM8js9xg=", "properties": {"@source_uri": "https://tools.usps.com/UspsToolsRestServices/rest/POLocator/findLocations", "@spider": "usps_collection_boxes", "addr:city": "VALLEY SPRINGS", "addr:country": "US", "addr:postcode": "95252", "addr:state": "CA", "addr:street_address": "200 E HIGHWAY 12", "amenity": "post_box", "collection_times": "Mo-Fr 17:00; Sa 09:00", "indoor": "yes", "note": "ON 12/24 AND 12/31, THIS BOX MAY BE COLLECTED AS EARLY AS 12 NOON.", "nsi_id": "unitedstatespostalservice-a77078", "operator": "United States Postal Service", "operator:short": "USPS", "operator:type": "public", "operator:wikidata": "Q668687", "ref": "9525200007"}, "type": "Feature"}
{"geometry": {"coordinates": [-120.826456121, 38.192464859], "type": "Point"}, "id": "X7OK6rwqtLRlt6Y0R-uRcXXSNP4=", "properties": {"@source_uri": "https://tools.usps.com/UspsToolsRestServices/rest/POLocator/findLocations", "@spider": "usps_collection_boxes", "addr:city": "VALLEY SPRINGS", "addr:country": "US", "addr:postcode": "95252", "addr:state": "CA", "addr:street_address": "200 E HIGHWAY 12", "amenity": "post_box", "collection_times": "Mo-Fr 17:00", "indoor": "yes", "note": "ON 12/24 AND 12/31, THIS BOX MAY BE COLLECTED AS EARLY AS 12 NOON.", "nsi_id": "unitedstatespostalservice-a77078", "operator": "United States Postal Service", "operator:short": "USPS", "operator:type": "public", "operator:wikidata": "Q668687", "ref": "9525200011"}, "type": "Feature"}
{"geometry": {"coordinates": [-121.206591, 38.137926], "type": "Point"}, "id": "2lOCpMe8zCwR-qstDz1yKaKF-Hg=", "properties": {"@source_uri": "https://tools.usps.com/UspsToolsRestServices/rest/POLocator/findLocations", "@spider": "usps_collection_boxes", "addr:city": "VICTOR", "addr:country": "US", "addr:postcode": "95253", "addr:state": "CA", "addr:street_address": "8958 E HIGHWAY 12", "amenity": "post_box", "collection_times": "Mo-Fr 16:30; Sa 08:45", "note": "ON 12/24 AND 12/31, THIS BOX MAY BE COLLECTED AS EARLY AS 12 NOON.", "nsi_id": "unitedstatespostalservice-a77078", "operator": "United States Postal Service", "operator:short": "USPS", "operator:type": "public", "operator:wikidata": "Q668687", "ref": "9525300000"}, "type": "Feature"}
{"geometry": {"coordinates": [-121.20657, 38.137953], "type": "Point"}, "id": "STlqNllIBZ8tKDFra46XWMibDf8=", "properties": {"@source_uri": "https://tools.usps.com/UspsToolsRestServices/rest/POLocator/findLocations", "@spider": "usps_collection_boxes", "addr:city": "VICTOR", "addr:country": "US", "addr:postcode": "95253", "addr:state": "CA", "addr:street_address": "8958 E HIGHWAY 12", "amenity": "post_box", "collection_times": "Mo-Fr 16:45; Sa 08:45", "indoor": "yes", "note": "ON 12/24 AND 12/31, THIS BOX MAY BE COLLECTED AS EARLY AS 12 NOON.", "nsi_id": "unitedstatespostalservice-a77078", "operator": "United States Postal Service", "operator:short": "USPS", "operator:type": "public", "operator:wikidata": "Q668687", "ref": "9525300001"}, "type": "Feature"}
{"geometry": {"coordinates": [-121.206540526, 38.137921536], "type": "Point"}, "id": "fC_iR9P_TsxO79LI98JP7IsunSc=", "properties": {"@source_uri": "https://tools.usps.com/UspsToolsRestServices/rest/POLocator/findLocations", "@spider": "usps_collection_boxes", "addr:city": "VICTOR", "addr:country": "US", "addr:postcode": "95253", "addr:state": "CA", "addr:street_address": "8958 E HIGHWAY 12", "amenity": "post_box", "collection_times": "Mo-Fr 16:30", "indoor": "yes", "note": "ON 12/24 AND 12/31, THIS BOX MAY BE COLLECTED AS EARLY AS 12 NOON.", "nsi_id": "unitedstatespostalservice-a77078", "operator": "United States Postal Service", "operator:short": "USPS", "operator:type": "public", "operator:wikidata": "Q668687", "ref": "9525300003"}, "type": "Feature"}
{"geometry": {"coordinates": [-120.978792, 38.198528], "type": "Point"}, "id": "eXeUh4h3Hs-RZu_th9pmoIR8vkw=", "properties": {"@source_uri": "https://tools.usps.com/UspsToolsRestServices/rest/POLocator/findLocations", "@spider": "usps_collection_boxes", "addr:city": "WALLACE", "addr:country": "US", "addr:postcode": "95254", "addr:state": "CA", "addr:street_address": "8271 CAMANCHE PKWY S", "amenity": "post_box", "collection_times": "Mo-Fr 15:30; Sa 08:00", "indoor": "yes", "note": "ON 12/24 AND 12/31, THIS BOX MAY BE COLLECTED AS EARLY AS 12 NOON.", "nsi_id": "unitedstatespostalservice-a77078", "operator": "United States Postal Service", "operator:short": "USPS", "operator:type": "public", "operator:wikidata": "Q668687", "ref": "9525400001"}, "type": "Feature"}
{"geometry": {"coordinates": [-120.978732, 38.198535], "type": "Point"}, "id": "50RvuqfgxWps-lOmyTpNayEjaig=", "properties": {"@source_uri": "https://tools.usps.com/UspsToolsRestServices/rest/POLocator/findLocations", "@spider": "usps_collection_boxes", "addr:city": "WALLACE", "addr:country": "US", "addr:postcode": "95254", "addr:state": "CA", "addr:street_address": "8271 CAMANCHE PKWY S", "amenity": "post_box", "collection_times": "Mo-Fr 15:30; Sa 08:00", "indoor": "yes", "note": "ON 12/24 AND 12/31, THIS BOX MAY BE COLLECTED AS EARLY AS 12 NOON.", "nsi_id": "unitedstatespostalservice-a77078", "operator": "United States Postal Service", "operator:short": "USPS", "operator:type": "public", "operator:wikidata": "Q668687", "ref": "9525400002"}, "type": "Feature"}
{"geometry": {"coordinates": [-120.980094372, 38.197903102], "type": "Point"}, "id": "qa7DHAeNoPR81nMOEpEB-7_QJxo=", "properties": {"@source_uri": "https://tools.usps.com/UspsToolsRestServices/rest/POLocator/findLocations", "@spider": "usps_collection_boxes", "addr:city": "WALLACE", "addr:country": "US", "addr:postcode": "95254", "addr:state": "CA", "addr:street_address": "8271 CAMANCHE PKWY S", "amenity": "post_box", "collection_times": "Mo-Fr 15:30", "indoor": "yes", "note": "ON 12/24 AND 12/31, THIS BOX MAY BE COLLECTED AS EARLY AS 12 NOON.", "nsi_id": "unitedstatespostalservice-a77078", "operator": "United States Postal Service", "operator:short": "USPS", "operator:type": "public", "operator:wikidata": "Q668687", "ref": "9525400003"}, "type": "Feature"}
{"geometry": {"coordinates": [-120.528133, 38.40204], "type": "Point"}, "id": "oTJJY7YGZmmtSamkqa1mGauaI_E=", "properties": {"@source_uri": "https://tools.usps.com/UspsToolsRestServices/rest/POLocator/findLocations", "@spider": "usps_collection_boxes", "addr:city": "WEST POINT", "addr:country": "US", "addr:postcode": "95255", "addr:state": "CA", "addr:street_address": "397 MAIN ST", "amenity": "post_box", "collection_times": "Mo-Fr 16:20; Sa 09:30", "note": "ON 12/24 AND 12/31, THIS BOX MAY BE COLLECTED AS EARLY AS 12 NOON.", "nsi_id": "unitedstatespostalservice-a77078", "operator": "United States Postal Service", "operator:short": "USPS", "operator:type": "public", "operator:wikidata": "Q668687", "ref": "9525500000"}, "type": "Feature"}
{"geometry": {"coordinates": [-120.528133, 38.40204], "type": "Point"}, "id": "TCmzEa2vCSc0FzId2pQmsu2d2dA=", "properties": {"@source_uri": "https://tools.usps.com/UspsToolsRestServices/rest/POLocator/findLocations", "@spider": "usps_collection_boxes", "addr:city": "WEST POINT", "addr:country": "US", "addr:postcode": "95255", "addr:state": "CA", "addr:street_address": "397 MAIN ST", "amenity": "post_box", "collection_times": "Mo-Fr 16:20; Sa 09:30", "indoor": "yes", "note": "ON 12/24 AND 12/31, THIS BOX MAY BE COLLECTED AS EARLY AS 12 NOON.", "nsi_id": "unitedstatespostalservice-a77078", "operator": "United States Postal Service", "operator:short": "USPS", "operator:type": "public", "operator:wikidata": "Q668687", "ref": "9525500001"}, "type": "Feature"}
{"geometry": {"coordinates": [-120.528133, 38.40204], "type": "Point"}, "id": "cbDBZIRWYQ_HuzXhBlJIVo_2R9U=", "properties": {"@source_uri": "https://tools.usps.com/UspsToolsRestServices/rest/POLocator/findLocations", "@spider": "usps_collection_boxes", "addr:city": "WEST POINT", "addr:country": "US", "addr:postcode": "95255", "addr:state": "CA", "addr:street_address": "397 MAIN ST", "amenity": "post_box", "collection_times": "Mo-Fr 16:20; Sa 09:30", "indoor": "yes", "note": "ON 12/24 AND 12/31, THIS BOX MAY BE COLLECTED AS EARLY AS 12 NOON.", "nsi_id": "unitedstatespostalservice-a77078", "operator": "United States Postal Service", "operator:short": "USPS", "operator:type": "public", "operator:wikidata": "Q668687", "ref": "9525500002"}, "type": "Feature"}
{"geometry": {"coordinates": [-120.528133, 38.40204], "type": "Point"}, "id": "vOeeSPeJQLBDhh4Nx4AVUPixjqc=", "properties": {"@source_uri": "https://tools.usps.com/UspsToolsRestServices/rest/POLocator/findLocations", "@spider": "usps_collection_boxes", "addr:city": "WEST POINT", "addr:country": "US", "addr:postcode": "95255", "addr:state": "CA", "addr:street_address": "397 MAIN ST", "amenity": "post_box", "collection_times": "Mo-Fr 16:20; Sa 09:30", "indoor": "yes", "note": "ON 12/24 AND 12/31, THIS BOX MAY BE COLLECTED AS EARLY AS 12 NOON.", "nsi_id": "unitedstatespostalservice-a77078", "operator": "United States Postal Service", "operator:short": "USPS", "operator:type": "public", "operator:wikidata": "Q668687", "ref": "9525500003"}, "type": "Feature"}
{"geometry": {"coordinates": [-120.528134375, 38.402034139], "type": "Point"}, "id": "b1au8ii53WWvOL2XP5HfOO6mcl0=", "properties": {"@source_uri": "https://tools.usps.com/UspsToolsRestServices/rest/POLocator/findLocations", "@spider": "usps_collection_boxes", "addr:city": "WEST POINT", "addr:country": "US", "addr:postcode": "95255", "addr:state": "CA", "addr:street_address": "397 MAIN ST", "amenity": "post_box", "collection_times": "Mo-Fr 16:15", "indoor": "yes", "note": "ON 12/24 AND 12/31, THIS BOX MAY BE COLLECTED AS EARLY AS 12 NOON.", "nsi_id": "unitedstatespostalservice-a77078", "operator": "United States Postal Service", "operator:short": "USPS", "operator:type": "public", "operator:wikidata": "Q668687", "ref": "9525500004"}, "type": "Feature"}
{"geometry": {"coordinates": [-120.516485, 38.377847], "type": "Point"}, "id": "LQhCN9xHcE0CavojeOqZxKZJHDk=", "properties": {"@source_uri": "https://tools.usps.com/UspsToolsRestServices/rest/POLocator/findLocations", "@spider": "usps_collection_boxes", "addr:city": "WILSEYVILLE", "addr:country": "US", "addr:postcode": "95257", "addr:state": "CA", "addr:street_address": "3983 BLIZZARD MINE RD", "amenity": "post_box", "collection_times": "Mo-Fr 11:45; Sa 09:15", "indoor": "yes", "nsi_id": "unitedstatespostalservice-a77078", "operator": "United States Postal Service", "operator:short": "USPS", "operator:type": "public", "operator:wikidata": "Q668687", "ref": "9525700001"}, "type": "Feature"}
{"geometry": {"coordinates": [-120.516485, 38.377848], "type": "Point"}, "id": "7HqMLIa0iEq9j-xy7WeLnIRxv8k=", "properties": {"@source_uri": "https://tools.usps.com/UspsToolsRestServices/rest/POLocator/findLocations", "@spider": "usps_collection_boxes", "addr:city": "WILSEYVILLE", "addr:country": "US", "addr:postcode": "95257", "addr:state": "CA", "addr:street_address": "3983 BLIZZARD MINE RD", "amenity": "post_box", "collection_times": "Mo-Fr 12:00; Sa 09:15", "nsi_id": "unitedstatespostalservice-a77078", "operator": "United States Postal Service", "operator:short": "USPS", "operator:type": "public", "operator:wikidata": "Q668687", "ref": "9525700002"}, "type": "Feature"}
{"geometry": {"coordinates": [-120.517478009, 38.37765593], "type": "Point"}, "id": "R7zmjYcr7SqYwoN46uFOLX9Z3ms=", "properties": {"@source_uri": "https://tools.usps.com/UspsToolsRestServices/rest/POLocator/findLocations", "@spider": "usps_collection_boxes", "addr:city": "WILSEYVILLE", "addr:country": "US", "addr:postcode": "95257", "addr:state": "CA", "addr:street_address": "4054 BLIZZARD MINE RD", "amenity": "post_box", "collection_times": "Mo-Fr 11:15", "indoor": "yes", "nsi_id": "unitedstatespostalservice-a77078", "operator": "United States Postal Service", "operator:short": "USPS", "operator:type": "public", "operator:wikidata": "Q668687", "ref": "9525700003"}, "type": "Feature"}
{"geometry": {"coordinates": [-121.301724008, 38.1544139926], "type": "Point"}, "id": "GD9-bgRJca_taZktqV8jcAOu9Dg=", "properties": {"@source_uri": "https://tools.usps.com/UspsToolsRestServices/rest/POLocator/findLocations", "@spider": "usps_collection_boxes", "addr:city": "WOODBRIDGE", "addr:country": "US", "addr:postcode": "95258", "addr:state": "CA", "addr:street_address": "1049 E AUGUSTA ST", "amenity": "post_box", "collection_times": "Mo-Fr 17:00; Sa 10:00", "note": "ON 12/24 AND 12/31, THIS BOX MAY BE COLLECTED AS EARLY AS 12 NOON.", "nsi_id": "unitedstatespostalservice-a77078", "operator": "United States Postal Service", "operator:short": "USPS", "operator:type": "public", "operator:wikidata": "Q668687", "ref": "9525800000"}, "type": "Feature"}
{"geometry": {"coordinates": [-121.301714, 38.154053], "type": "Point"}, "id": "JEc9WoTDM7pt1S87RvMTO_9zp50=", "properties": {"@source_uri": "https://tools.usps.com/UspsToolsRestServices/rest/POLocator/findLocations", "@spider": "usps_collection_boxes", "addr:city": "WOODBRIDGE", "addr:country": "US", "addr:postcode": "95258", "addr:state": "CA", "addr:street_address": "1049 E AUGUSTA ST", "amenity": "post_box", "collection_times": "Mo-Fr 17:00; Sa 10:00", "indoor": "yes", "note": "ON 12/24 AND 12/31, THIS BOX MAY BE COLLECTED AS EARLY AS 12 NOON.", "nsi_id": "unitedstatespostalservice-a77078", "operator": "United States Postal Service", "operator:short": "USPS", "operator:type": "public", "operator:wikidata": "Q668687", "ref": "9525800001"}, "type": "Feature"}
{"geometry": {"coordinates": [-121.301714, 38.154053], "type": "Point"}, "id": "zycyR2d9LylB9JMVoeR3OW1e26U=", "properties": {"@source_uri": "https://tools.usps.com/UspsToolsRestServices/rest/POLocator/findLocations", "@spider": "usps_collection_boxes", "addr:city": "WOODBRIDGE", "addr:country": "US", "addr:postcode": "95258", "addr:state": "CA", "addr:street_address": "1049 E AUGUSTA ST", "amenity": "post_box", "collection_times": "Mo-Fr 17:00; Sa 10:00", "indoor": "yes", "note": "ON 12/24 AND 12/31, THIS BOX MAY BE COLLECTED AS EARLY AS 12 NOON.", "nsi_id": "unitedstatespostalservice-a77078", "operator": "United States Postal Service", "operator:short": "USPS", "operator:type": "public", "operator:wikidata": "Q668687", "ref": "9525800002"}, "type": "Feature"}
{"geometry": {"coordinates": [-121.301837152, 38.154090329], "type": "Point"}, "id": "eBHQgSPQV1Pqy_n_Mv2d3FNBFYY=", "properties": {"@source_uri": "https://tools.usps.com/UspsToolsRestServices/rest/POLocator/findLocations", "@spider": "usps_collection_boxes", "addr:city": "WOODBRIDGE", "addr:country": "US", "addr:postcode": "95258", "addr:state": "CA", "addr:street_address": "1049 E AUGUSTA ST", "amenity": "post_box", "collection_times": "Mo-Fr 17:00", "indoor": "yes", "note": "ON 12/24 AND 12/31, THIS BOX MAY BE COLLECTED AS EARLY AS 12 NOON.", "nsi_id": "unitedstatespostalservice-a77078", "operator": "United States Postal Service", "operator:short": "USPS", "operator:type": "public", "operator:wikidata": "Q668687", "ref": "9525800004"}, "type": "Feature"}
