{"geometry": {"coordinates": [-122.724302, 38.44904], "type": "Point"}, "id": "Dd6XYgHbVU7-DV2jWfdtbkZ7nQI=", "properties": {"@spider": "usps_collection_boxes", "addr:city": "SANTA ROSA", "addr:country": "US", "addr:full": "1326 RIPLEY ST", "addr:postcode": "95401", "addr:state": "CA", "brand": "USPS", "collection_times": "Mo-Sa 13:00", "name": "USPS COLLECTION BOX - BLUE BOX", "note": "ON 12/24 AND 12/31, THIS BOX MAY BE COLLECTED AS EARLY AS 12 NOON.", "ref": "9540100009"}, "type": "Feature"}
{"geometry": {"coordinates": [-122.71813, 38.45943], "type": "Point"}, "id": "UnxEixelPP3r2hupfddp9kNZbQg=", "properties": {"@spider": "usps_collection_boxes", "addr:city": "SANTA ROSA", "addr:country": "US", "addr:full": "1995 MENDOCINO AVE", "addr:postcode": "95401", "addr:state": "CA", "brand": "USPS", "collection_times": "Mo-Sa 13:00", "name": "USPS COLLECTION BOX - BLUE BOX", "note": "ON 12/24 AND 12/31, THIS BOX MAY BE COLLECTED AS EARLY AS 12 NOON.", "ref": "9540100011"}, "type": "Feature"}
{"geometry": {"coordinates": [-122.730278, 38.455182], "type": "Point"}, "id": "vziEiuLJun0De4SJhWWxktczTKw=", "properties": {"@spider": "usps_collection_boxes", "addr:city": "SANTA ROSA", "addr:country": "US", "addr:full": "1200 CODDINGTOWN CNT", "addr:postcode": "95401", "addr:state": "CA", "brand": "USPS", "collection_times": "Mo-Fr 17:00", "name": "USPS COLLECTION BOX - PO LOBBY", "note": "ON 12/24 AND 12/31, THIS BOX MAY BE COLLECTED AS EARLY AS 12 NOON.", "ref": "9540100019"}, "type": "Feature"}
{"geometry": {"coordinates": [-122.732715, 38.448018], "type": "Point"}, "id": "JyYriYDN1i45Vc0qyAW8l4E2iRU=", "properties": {"@spider": "usps_collection_boxes", "addr:city": "SANTA ROSA", "addr:country": "US", "addr:full": "320 TESCONI CIR", "addr:postcode": "95401", "addr:state": "CA", "brand": "USPS", "collection_times": "Mo-Fr 17:00; Sa 13:00", "name": "USPS COLLECTION BOX - BLUE BOX", "note": "ON 12/24 AND 12/31, THIS BOX MAY BE COLLECTED AS EARLY AS 12 NOON.", "ref": "9540100025"}, "type": "Feature"}
{"geometry": {"coordinates": [-122.732694, 38.44801], "type": "Point"}, "id": "Ma1MaBKpKlwIM9SyQUFetAMatUQ=", "properties": {"@spider": "usps_collection_boxes", "addr:city": "SANTA ROSA", "addr:country": "US", "addr:full": "320 TESCONI CIR", "addr:postcode": "95401", "addr:state": "CA", "brand": "USPS", "collection_times": "Mo-Fr 17:00; Sa 13:00", "name": "USPS COLLECTION BOX - BLUE BOX", "note": "ON 12/24 AND 12/31, THIS BOX MAY BE COLLECTED AS EARLY AS 12 NOON.", "ref": "9540100026"}, "type": "Feature"}
{"geometry": {"coordinates": [-122.732726, 38.448026], "type": "Point"}, "id": "gxQx6WP2muildG10K_7G1-ehjqA=", "properties": {"@spider": "usps_collection_boxes", "addr:city": "SANTA ROSA", "addr:country": "US", "addr:full": "320 TESCONI CIR", "addr:postcode": "95401", "addr:state": "CA", "brand": "USPS", "collection_times": "Mo-Fr 17:00; Sa 13:00", "name": "USPS COLLECTION BOX - BLUE BOX", "note": "ON 12/24 AND 12/31, THIS BOX MAY BE COLLECTED AS EARLY AS 12 NOON.", "ref": "9540100027"}, "type": "Feature"}
{"geometry": {"coordinates": [-122.732603, 38.449392], "type": "Point"}, "id": "9bUYr9Ex4CXXYswog8n1hVWkm8E=", "properties": {"@spider": "usps_collection_boxes", "addr:city": "SANTA ROSA", "addr:country": "US", "addr:full": "1260 N DUTTON AVE", "addr:postcode": "95401", "addr:state": "CA", "brand": "USPS", "collection_times": "Mo-Fr 17:00; Sa 13:00", "name": "USPS COLLECTION BOX - BLUE BOX", "note": "ON 12/24 AND 12/31, THIS BOX MAY BE COLLECTED AS EARLY AS 12 NOON.", "ref": "9540100029"}, "type": "Feature"}
{"geometry": {"coordinates": [-122.743679, 38.432984], "type": "Point"}, "id": "hUbcWl58AT2I3KpaQuNlxCYj1E4=", "properties": {"@spider": "usps_collection_boxes", "addr:city": "SANTA ROSA", "addr:country": "US", "addr:full": "451 STONY POINT RD", "addr:postcode": "95401", "addr:state": "CA", "brand": "USPS", "collection_times": "Mo-Fr 14:15; Sa 13:00", "name": "USPS COLLECTION BOX - BLUE BOX", "note": "ON 12/24 AND 12/31, THIS BOX MAY BE COLLECTED AS EARLY AS 12 NOON.", "ref": "9540100041"}, "type": "Feature"}
{"geometry": {"coordinates": [-122.744925, 38.442724], "type": "Point"}, "id": "0CKzh3aH7qAIa7ETOu0oba10Kvk=", "properties": {"@spider": "usps_collection_boxes", "addr:city": "SANTA ROSA", "addr:country": "US", "addr:full": "100 STONY POINT RD", "addr:postcode": "95401", "addr:state": "CA", "brand": "USPS", "collection_times": "Mo-Fr 14:30; Sa 13:00", "name": "USPS COLLECTION BOX - BLUE BOX", "note": "ON 12/24 AND 12/31, THIS BOX MAY BE COLLECTED AS EARLY AS 12 NOON.", "ref": "9540100047"}, "type": "Feature"}
{"geometry": {"coordinates": [-122.744931, 38.442734], "type": "Point"}, "id": "BpSuNHVg9kQHUvlhBX9xJNdUZHM=", "properties": {"@spider": "usps_collection_boxes", "addr:city": "SANTA ROSA", "addr:country": "US", "addr:full": "100 STONY POINT RD", "addr:postcode": "95401", "addr:state": "CA", "brand": "USPS", "collection_times": "Mo-Fr 14:30; Sa 13:00", "name": "USPS COLLECTION BOX - BLUE BOX", "note": "ON 12/24 AND 12/31, THIS BOX MAY BE COLLECTED AS EARLY AS 12 NOON.", "ref": "9540100048"}, "type": "Feature"}
{"geometry": {"coordinates": [-122.746078, 38.43968], "type": "Point"}, "id": "YNRsxNdGrASfma6WYHBfQW8TmRk=", "properties": {"@spider": "usps_collection_boxes", "addr:city": "SANTA ROSA", "addr:country": "US", "addr:full": "141 STONY CIR", "addr:postcode": "95401", "addr:state": "CA", "brand": "USPS", "collection_times": "Mo-Fr 14:30; Sa 13:00", "name": "USPS COLLECTION BOX - BLUE BOX", "note": "ON 12/24 AND 12/31, THIS BOX MAY BE COLLECTED AS EARLY AS 12 NOON.", "ref": "9540100059"}, "type": "Feature"}
{"geometry": {"coordinates": [-122.717835, 38.444849], "type": "Point"}, "id": "0pZ66IagwTEOdpbecBTtqYfKuno=", "properties": {"@spider": "usps_collection_boxes", "addr:city": "SANTA ROSA", "addr:country": "US", "addr:full": "620 HEALDSBURG AVE", "addr:postcode": "95401", "addr:state": "CA", "brand": "USPS", "collection_times": "Mo-Sa 12:00", "name": "USPS COLLECTION BOX - BLUE BOX", "ref": "9540100067"}, "type": "Feature"}
{"geometry": {"coordinates": [-122.731306517, 38.458858618], "type": "Point"}, "id": "b5TgmuImrn4Pb0qhqbBwk5VWu1U=", "properties": {"@spider": "usps_collection_boxes", "addr:city": "SANTA ROSA", "addr:country": "US", "addr:full": "1200 CODDINGTOWN CTR", "addr:postcode": "95401", "addr:state": "CA", "brand": "USPS", "collection_times": "Mo-Fr 17:00; Sa 13:00", "name": "USPS COLLECTION BOX - BLUE BOX", "note": "ON 12/24 AND 12/31, THIS BOX MAY BE COLLECTED AS EARLY AS 12 NOON.", "ref": "9540100069"}, "type": "Feature"}
{"geometry": {"coordinates": [-122.721204, 38.437383], "type": "Point"}, "id": "gO66WF90yjV3ISy-5TDz_BPcCs0=", "properties": {"@spider": "usps_collection_boxes", "addr:city": "SANTA ROSA", "addr:country": "US", "addr:full": "9 4TH ST", "addr:postcode": "95401", "addr:state": "CA", "brand": "USPS", "collection_times": "Mo-Fr 12:00; Sa 13:00", "name": "USPS COLLECTION BOX - BLUE BOX", "note": "ON 12/24 AND 12/31, THIS BOX MAY BE COLLECTED AS EARLY AS 12 NOON.", "ref": "9540100073"}, "type": "Feature"}
{"geometry": {"coordinates": [-122.7312462663, 38.4588706416], "type": "Point"}, "id": "fvcJMQNoiyqS5Xoo2jMZjvBZjPE=", "properties": {"@spider": "usps_collection_boxes", "addr:city": "SANTA ROSA", "addr:country": "US", "addr:full": "1200 CODDINGTOWN CTR", "addr:postcode": "95401", "addr:state": "CA", "brand": "USPS", "collection_times": "Mo-Fr 17:00", "name": "USPS COLLECTION BOX - PO LOBBY", "note": "ON 12/24 AND 12/31, THIS BOX MAY BE COLLECTED AS EARLY AS 12 NOON.", "ref": "9540100085"}, "type": "Feature"}
{"geometry": {"coordinates": [-122.710586, 38.44], "type": "Point"}, "id": "GuXxRE87AV9Ez2tWNQCikQ7FgU0=", "properties": {"@spider": "usps_collection_boxes", "addr:city": "SANTA ROSA", "addr:country": "US", "addr:full": "730 2ND ST", "addr:postcode": "95402", "addr:state": "CA", "brand": "USPS", "collection_times": "Mo-Sa 12:00", "name": "USPS COLLECTION BOX - EXPRESS", "ref": "9540200004"}, "type": "Feature"}
{"geometry": {"coordinates": [-122.710773, 38.439992], "type": "Point"}, "id": "fx--5t4xd6sk-1bHic2Lk-dTof0=", "properties": {"@spider": "usps_collection_boxes", "addr:city": "SANTA ROSA", "addr:country": "US", "addr:full": "730 2ND ST", "addr:postcode": "95402", "addr:state": "CA", "brand": "USPS", "collection_times": "Mo-Fr 17:30; Sa 17:00", "name": "USPS COLLECTION BOX - BLUE BOX", "note": "ON 12/24 AND 12/31, THIS BOX MAY BE COLLECTED AS EARLY AS 12 NOON.", "ref": "9540200005"}, "type": "Feature"}
{"geometry": {"coordinates": [-122.710773, 38.439992], "type": "Point"}, "id": "WbL2RvmDm7Btki-mQOt7ngBvAgc=", "properties": {"@spider": "usps_collection_boxes", "addr:city": "SANTA ROSA", "addr:country": "US", "addr:full": "730 2ND ST", "addr:postcode": "95402", "addr:state": "CA", "brand": "USPS", "collection_times": "Mo-Fr 17:30; Sa 17:00", "name": "USPS COLLECTION BOX - BLUE BOX", "note": "ON 12/24 AND 12/31, THIS BOX MAY BE COLLECTED AS EARLY AS 12 NOON.", "ref": "9540200006"}, "type": "Feature"}
{"geometry": {"coordinates": [-122.710773, 38.439992], "type": "Point"}, "id": "UK2AM5S0pvEfEKX1dLpY131n9vM=", "properties": {"@spider": "usps_collection_boxes", "addr:city": "SANTA ROSA", "addr:country": "US", "addr:full": "730 2ND ST", "addr:postcode": "95402", "addr:state": "CA", "brand": "USPS", "collection_times": "Mo-Fr 17:30; Sa 17:00", "name": "USPS COLLECTION BOX - PO LOBBY", "note": "ON 12/24 AND 12/31, THIS BOX MAY BE COLLECTED AS EARLY AS 12 NOON.", "ref": "9540200007"}, "type": "Feature"}
{"geometry": {"coordinates": [-122.710773, 38.439992], "type": "Point"}, "id": "PR-ItmSQvhWk4TpRutYIMmk6CBk=", "properties": {"@spider": "usps_collection_boxes", "addr:city": "SANTA ROSA", "addr:country": "US", "addr:full": "730 2ND ST", "addr:postcode": "95402", "addr:state": "CA", "brand": "USPS", "collection_times": "Mo-Fr 17:30; Sa 17:00", "name": "USPS COLLECTION BOX - APC", "note": "ON 12/24 AND 12/31, THIS BOX MAY BE COLLECTED AS EARLY AS 12 NOON.", "ref": "9540200009"}, "type": "Feature"}
{"geometry": {"coordinates": [-122.7268299668, 38.476494975], "type": "Point"}, "id": "sl12S8K83AF79b1l3uiCax-7dJ0=", "properties": {"@spider": "usps_collection_boxes", "addr:city": "SANTA ROSA", "addr:country": "US", "addr:full": "3550 ROUND BARN BLVD", "addr:postcode": "95403", "addr:state": "CA", "brand": "USPS", "collection_times": "Mo-Fr 15:00; Sa 13:00", "name": "USPS COLLECTION BOX - BLUE BOX", "note": "ON 12/24 AND 12/31, THIS BOX MAY BE COLLECTED AS EARLY AS 12 NOON.", "ref": "9540300010"}, "type": "Feature"}
{"geometry": {"coordinates": [-122.7268299668, 38.476494975], "type": "Point"}, "id": "PbRasniq-hJ898APxJPMxZk0Hd4=", "properties": {"@spider": "usps_collection_boxes", "addr:city": "SANTA ROSA", "addr:country": "US", "addr:full": "3550 ROUND BARN BLVD", "addr:postcode": "95403", "addr:state": "CA", "brand": "USPS", "collection_times": "Mo-Fr 15:00; Sa 13:00", "name": "USPS COLLECTION BOX - BLUE BOX", "note": "ON 12/24 AND 12/31, THIS BOX MAY BE COLLECTED AS EARLY AS 12 NOON.", "ref": "9540300011"}, "type": "Feature"}
{"geometry": {"coordinates": [-122.72638, 38.47331], "type": "Point"}, "id": "ldtT7tTn_1C1g6xwoaiLjuRX6k4=", "properties": {"@spider": "usps_collection_boxes", "addr:city": "SANTA ROSA", "addr:country": "US", "addr:full": "3536 MENDOCINO AVE", "addr:postcode": "95403", "addr:state": "CA", "brand": "USPS", "collection_times": "Mo-Fr 14:00; Sa 13:00", "name": "USPS COLLECTION BOX - BLUE BOX", "note": "ON 12/24 AND 12/31, THIS BOX MAY BE COLLECTED AS EARLY AS 12 NOON.", "ref": "9540300028"}, "type": "Feature"}
{"geometry": {"coordinates": [-122.726319, 38.471469], "type": "Point"}, "id": "SyWDcURryZp2_WUaPPV5TGTWRlk=", "properties": {"@spider": "usps_collection_boxes", "addr:city": "SANTA ROSA", "addr:country": "US", "addr:full": "401 BICENTENNIAL WAY", "addr:postcode": "95403", "addr:state": "CA", "brand": "USPS", "collection_times": "Mo-Fr 15:00; Sa 13:00", "name": "USPS COLLECTION BOX - BLUE BOX", "note": "ON 12/24 AND 12/31, THIS BOX MAY BE COLLECTED AS EARLY AS 12 NOON.", "ref": "9540300036"}, "type": "Feature"}
{"geometry": {"coordinates": [-122.736354, 38.4768], "type": "Point"}, "id": "3FuoF3P4e0kH_Uhq659OYe5DiBA=", "properties": {"@spider": "usps_collection_boxes", "addr:city": "SANTA ROSA", "addr:country": "US", "addr:full": "3550 INDUSTRIAL DR", "addr:postcode": "95403", "addr:state": "CA", "brand": "USPS", "collection_times": "Mo-Fr 15:00; Sa 13:00", "name": "USPS COLLECTION BOX - BLUE BOX", "note": "ON 12/24 AND 12/31, THIS BOX MAY BE COLLECTED AS EARLY AS 12 NOON.", "ref": "9540300050"}, "type": "Feature"}
{"geometry": {"coordinates": [-122.725229, 38.465566], "type": "Point"}, "id": "dJeoZKYaJIZ5x0PA7DlZjTfiPX4=", "properties": {"@spider": "usps_collection_boxes", "addr:city": "SANTA ROSA", "addr:country": "US", "addr:full": "585 FISCAL DR", "addr:postcode": "95403", "addr:state": "CA", "brand": "USPS", "collection_times": "Mo-Fr 14:00; Sa 13:00", "name": "USPS COLLECTION BOX - BLUE BOX", "note": "ON 12/24 AND 12/31, THIS BOX MAY BE COLLECTED AS EARLY AS 12 NOON.", "ref": "9540300058"}, "type": "Feature"}
{"geometry": {"coordinates": [-122.730168, 38.465457], "type": "Point"}, "id": "awCLregaQTisJdLhL-BPDVxHrjo=", "properties": {"@spider": "usps_collection_boxes", "addr:city": "SANTA ROSA", "addr:country": "US", "addr:full": "2850 MCBRIDE LN", "addr:postcode": "95403", "addr:state": "CA", "brand": "USPS", "collection_times": "Mo-Fr 17:00; Sa 16:30", "name": "USPS COLLECTION BOX - BLUE BOX", "note": "ON 12/24 AND 12/31, THIS BOX MAY BE COLLECTED AS EARLY AS 12 NOON.", "ref": "9540300067"}, "type": "Feature"}
{"geometry": {"coordinates": [-122.7301527616, 38.4654595994], "type": "Point"}, "id": "RYaXkL-zuTWbOYgeZOb_QC70c7Q=", "properties": {"@spider": "usps_collection_boxes", "addr:city": "SANTA ROSA", "addr:country": "US", "addr:full": "2850 MCBRIDE LN", "addr:postcode": "95403", "addr:state": "CA", "brand": "USPS", "collection_times": "Mo-Fr 17:00; Sa 16:30", "name": "USPS COLLECTION BOX - BLUE BOX", "note": "ON 12/24 AND 12/31, THIS BOX MAY BE COLLECTED AS EARLY AS 12 NOON.", "ref": "9540300068"}, "type": "Feature"}
{"geometry": {"coordinates": [-122.738218, 38.474095], "type": "Point"}, "id": "6CSen9E8r1MVMHnjPn6xHVC_zxg=", "properties": {"@spider": "usps_collection_boxes", "addr:city": "SANTA ROSA", "addr:country": "US", "addr:full": "3315 AIRWAY DR", "addr:postcode": "95403", "addr:state": "CA", "brand": "USPS", "collection_times": "Mo-Fr 15:00; Sa 13:00", "name": "USPS COLLECTION BOX - BLUE BOX", "note": "ON 12/24 AND 12/31, THIS BOX MAY BE COLLECTED AS EARLY AS 12 NOON.", "ref": "9540300096"}, "type": "Feature"}
{"geometry": {"coordinates": [-122.691216, 38.434359], "type": "Point"}, "id": "9lP_Um7DY5LfGHMJ4et0bzfLLdo=", "properties": {"@spider": "usps_collection_boxes", "addr:city": "SANTA ROSA", "addr:country": "US", "addr:full": "2455 BENNETT VALLEY RD", "addr:postcode": "95404", "addr:state": "CA", "brand": "USPS", "collection_times": "Mo-Fr 15:15; Sa 13:00", "name": "USPS COLLECTION BOX - BLUE BOX", "note": "ON 12/24 AND 12/31, THIS BOX MAY BE COLLECTED AS EARLY AS 12 NOON.", "ref": "9540400003"}, "type": "Feature"}
{"geometry": {"coordinates": [-122.702537, 38.454097], "type": "Point"}, "id": "YYeIsmDh6aOFsW7ZcXXJKLiP0Bk=", "properties": {"@spider": "usps_collection_boxes", "addr:city": "SANTA ROSA", "addr:country": "US", "addr:full": "1425 TOWN & COUNTRY DR", "addr:postcode": "95404", "addr:state": "CA", "brand": "USPS", "collection_times": "Mo-Fr 15:00; Sa 13:00", "name": "USPS COLLECTION BOX - BLUE BOX", "note": "ON 12/24 AND 12/31, THIS BOX MAY BE COLLECTED AS EARLY AS 12 NOON.", "ref": "9540400007"}, "type": "Feature"}
{"geometry": {"coordinates": [-122.708953, 38.438706], "type": "Point"}, "id": "6RU0JBcNgxfu0N_EUx9AdWmJxDM=", "properties": {"@spider": "usps_collection_boxes", "addr:city": "SANTA ROSA", "addr:country": "US", "addr:full": "777 SONOMA AVE", "addr:postcode": "95404", "addr:state": "CA", "brand": "USPS", "collection_times": "Mo-Fr 15:00", "name": "USPS COLLECTION BOX - BLUE BOX", "note": "ON 12/24 AND 12/31, THIS BOX MAY BE COLLECTED AS EARLY AS 12 NOON.", "ref": "9540400009"}, "type": "Feature"}
{"geometry": {"coordinates": [-122.7028596108, 38.4462459945], "type": "Point"}, "id": "sk3meCSHXBl9uJVhd6EIP-wm06U=", "properties": {"@spider": "usps_collection_boxes", "addr:city": "SANTA ROSA", "addr:country": "US", "addr:full": "1275 4TH ST", "addr:postcode": "95404", "addr:state": "CA", "brand": "USPS", "collection_times": "Mo-Fr 15:00; Sa 13:00", "name": "USPS COLLECTION BOX - BLUE BOX", "note": "ON 12/24 AND 12/31, THIS BOX MAY BE COLLECTED AS EARLY AS 12 NOON.", "ref": "9540400019"}, "type": "Feature"}
{"geometry": {"coordinates": [-122.701897, 38.44052], "type": "Point"}, "id": "mV83io5-VnLUFLRfUEmW-h7knRw=", "properties": {"@spider": "usps_collection_boxes", "addr:city": "SANTA ROSA", "addr:country": "US", "addr:full": "990 SONOMA AVE", "addr:postcode": "95404", "addr:state": "CA", "brand": "USPS", "collection_times": "Mo-Sa 13:00", "name": "USPS COLLECTION BOX - BLUE BOX", "note": "ON 12/24 AND 12/31, THIS BOX MAY BE COLLECTED AS EARLY AS 12 NOON.", "ref": "9540400023"}, "type": "Feature"}
{"geometry": {"coordinates": [-122.710612, 38.442121], "type": "Point"}, "id": "zQClmpu-TK3CJaNA4PYDTaiGh1w=", "properties": {"@spider": "usps_collection_boxes", "addr:city": "SANTA ROSA", "addr:country": "US", "addr:full": "801 4TH ST", "addr:postcode": "95404", "addr:state": "CA", "brand": "USPS", "collection_times": "Mo-Fr 15:00; Sa 13:00", "name": "USPS COLLECTION BOX - BLUE BOX", "note": "ON 12/24 AND 12/31, THIS BOX MAY BE COLLECTED AS EARLY AS 12 NOON.", "ref": "9540400029"}, "type": "Feature"}
{"geometry": {"coordinates": [-122.712698175, 38.440079621], "type": "Point"}, "id": "aLusZxd6qzBg5iwqjAM8-hxAaQQ=", "properties": {"@spider": "usps_collection_boxes", "addr:city": "SANTA ROSA", "addr:country": "US", "addr:full": "635 E 3RD ST", "addr:postcode": "95404", "addr:state": "CA", "brand": "USPS", "collection_times": "Mo-Fr 14:15", "name": "USPS COLLECTION BOX - BLUE BOX", "note": "ON 12/24 AND 12/31, THIS BOX MAY BE COLLECTED AS EARLY AS 12 NOON.", "ref": "9540400036"}, "type": "Feature"}
{"geometry": {"coordinates": [-122.704758, 38.443672], "type": "Point"}, "id": "PanqPkZBn6FNDfoaiIr1cZgBbrU=", "properties": {"@spider": "usps_collection_boxes", "addr:city": "SANTA ROSA", "addr:country": "US", "addr:full": "1050 3RD ST", "addr:postcode": "95404", "addr:state": "CA", "brand": "USPS", "collection_times": "Mo-Fr 15:00; Sa 13:00", "name": "USPS COLLECTION BOX - BLUE BOX", "note": "ON 12/24 AND 12/31, THIS BOX MAY BE COLLECTED AS EARLY AS 12 NOON.", "ref": "9540400037"}, "type": "Feature"}
{"geometry": {"coordinates": [-122.708167, 38.446055], "type": "Point"}, "id": "9dqa7hq5_lj-tyBhhvno-PE_IPs=", "properties": {"@spider": "usps_collection_boxes", "addr:city": "SANTA ROSA", "addr:country": "US", "addr:full": "700 NORTH ST", "addr:postcode": "95404", "addr:state": "CA", "brand": "USPS", "collection_times": "Mo-Fr 15:00", "name": "USPS COLLECTION BOX - BLUE BOX", "note": "ON 12/24 AND 12/31, THIS BOX MAY BE COLLECTED AS EARLY AS 12 NOON.", "ref": "9540400038"}, "type": "Feature"}
{"geometry": {"coordinates": [-122.708165, 38.44606], "type": "Point"}, "id": "3CMrBEEYjVUEd66VnG14GUG5h3A=", "properties": {"@spider": "usps_collection_boxes", "addr:city": "SANTA ROSA", "addr:country": "US", "addr:full": "700 NORTH ST", "addr:postcode": "95404", "addr:state": "CA", "brand": "USPS", "collection_times": "Mo-Fr 15:00", "name": "USPS COLLECTION BOX - BLUE BOX", "note": "ON 12/24 AND 12/31, THIS BOX MAY BE COLLECTED AS EARLY AS 12 NOON.", "ref": "9540400039"}, "type": "Feature"}
{"geometry": {"coordinates": [-122.704114, 38.451274], "type": "Point"}, "id": "ThpkwqOAJf4LO1Nw7C91uVSrVQM=", "properties": {"@spider": "usps_collection_boxes", "addr:city": "SANTA ROSA", "addr:country": "US", "addr:full": "1205 MCDONALD AVE", "addr:postcode": "95404", "addr:state": "CA", "brand": "USPS", "collection_times": "Mo-Sa 13:00", "name": "USPS COLLECTION BOX - BLUE BOX", "note": "ON 12/24 AND 12/31, THIS BOX MAY BE COLLECTED AS EARLY AS 12 NOON.", "ref": "9540400040"}, "type": "Feature"}
{"geometry": {"coordinates": [-122.714306, 38.454788], "type": "Point"}, "id": "hkTsDy8vMZDfjEG6zoC4P9aMKIo=", "properties": {"@spider": "usps_collection_boxes", "addr:city": "SANTA ROSA", "addr:country": "US", "addr:full": "1500 HUMBOLDT ST", "addr:postcode": "95404", "addr:state": "CA", "brand": "USPS", "collection_times": "Mo-Sa 13:00", "name": "USPS COLLECTION BOX - BLUE BOX", "note": "ON 12/24 AND 12/31, THIS BOX MAY BE COLLECTED AS EARLY AS 12 NOON.", "ref": "9540400041"}, "type": "Feature"}
{"geometry": {"coordinates": [-122.713186, 38.441896], "type": "Point"}, "id": "vT6feDAT4OT9z1R_G2pMngQHNDY=", "properties": {"@spider": "usps_collection_boxes", "addr:city": "SANTA ROSA", "addr:country": "US", "addr:full": "400 HUMBOLDT ST", "addr:postcode": "95404", "addr:state": "CA", "brand": "USPS", "collection_times": "Mo-Fr 15:00; Sa 13:00", "name": "USPS COLLECTION BOX - BLUE BOX", "note": "ON 12/24 AND 12/31, THIS BOX MAY BE COLLECTED AS EARLY AS 12 NOON.", "ref": "9540400042"}, "type": "Feature"}
{"geometry": {"coordinates": [-122.71061, 38.442137], "type": "Point"}, "id": "8d44M99-WwR323oEXgY9vQJGuVY=", "properties": {"@spider": "usps_collection_boxes", "addr:city": "SANTA ROSA", "addr:country": "US", "addr:full": "801 4TH ST", "addr:postcode": "95404", "addr:state": "CA", "brand": "USPS", "collection_times": "Mo-Fr 15:00; Sa 13:00", "name": "USPS COLLECTION BOX - BLUE BOX", "note": "ON 12/24 AND 12/31, THIS BOX MAY BE COLLECTED AS EARLY AS 12 NOON.", "ref": "9540400053"}, "type": "Feature"}
{"geometry": {"coordinates": [-122.710360804, 38.445479453], "type": "Point"}, "id": "ksQD5eJ7yAZzom3fAiYDzZ4xOgY=", "properties": {"@spider": "usps_collection_boxes", "addr:city": "SANTA ROSA", "addr:country": "US", "addr:full": "1011 COLLEGE AVE", "addr:postcode": "95404", "addr:state": "CA", "brand": "USPS", "collection_times": "Mo-Fr 15:00", "name": "USPS COLLECTION BOX - BLUE BOX", "note": "ON 12/24 AND 12/31, THIS BOX MAY BE COLLECTED AS EARLY AS 12 NOON.", "ref": "9540400055"}, "type": "Feature"}
{"geometry": {"coordinates": [-122.699855, 38.471465], "type": "Point"}, "id": "fPtpb0hnFeLjDDwn5i6ii0QXPjw=", "properties": {"@spider": "usps_collection_boxes", "addr:city": "SANTA ROSA", "addr:country": "US", "addr:full": "3573 CHANATE RD", "addr:postcode": "95404", "addr:state": "CA", "brand": "USPS", "collection_times": "Mo-Fr 13:15; Sa 13:00", "name": "USPS COLLECTION BOX - BLUE BOX", "note": "ON 12/24 AND 12/31, THIS BOX MAY BE COLLECTED AS EARLY AS 12 NOON.", "ref": "9540400060"}, "type": "Feature"}
{"geometry": {"coordinates": [-122.717361, 38.450794], "type": "Point"}, "id": "VZQQ99_LFT8zsB9wVC82Kel50-M=", "properties": {"@spider": "usps_collection_boxes", "addr:city": "SANTA ROSA", "addr:country": "US", "addr:full": "517 SPENCER AVE", "addr:postcode": "95404", "addr:state": "CA", "brand": "USPS", "collection_times": "Mo-Fr 12:00", "name": "USPS COLLECTION BOX - BLUE BOX", "ref": "9540400066"}, "type": "Feature"}
{"geometry": {"coordinates": [-122.710358994, 38.4401720149], "type": "Point"}, "id": "cwDWQocipzpzbJQ5Vd1AGs3dpog=", "properties": {"@spider": "usps_collection_boxes", "addr:city": "SANTA ROSA", "addr:country": "US", "addr:full": "730 2ND ST", "addr:postcode": "95404", "addr:state": "CA", "brand": "USPS", "collection_times": "Mo-Fr 17:30; Sa 14:00", "name": "USPS COLLECTION BOX - PO LOBBY", "note": "ON 12/24 AND 12/31, THIS BOX MAY BE COLLECTED AS EARLY AS 12 NOON.", "ref": "9540400072"}, "type": "Feature"}
{"geometry": {"coordinates": [-122.668385, 38.426221], "type": "Point"}, "id": "Zld0E8fqI_moA6GodSqnnszV014=", "properties": {"@spider": "usps_collection_boxes", "addr:city": "SANTA ROSA", "addr:country": "US", "addr:full": "2781 YULUPA AVE", "addr:postcode": "95405", "addr:state": "CA", "brand": "USPS", "collection_times": "Mo-Fr 17:00; Sa 13:00", "name": "USPS COLLECTION BOX - BLUE BOX", "note": "ON 12/24 AND 12/31, THIS BOX MAY BE COLLECTED AS EARLY AS 12 NOON.", "ref": "9540500005"}, "type": "Feature"}
{"geometry": {"coordinates": [-122.6856838652, 38.4449239316], "type": "Point"}, "id": "eeqLg60unla0ZV7dehaIInyWLDM=", "properties": {"@spider": "usps_collection_boxes", "addr:city": "SANTA ROSA", "addr:country": "US", "addr:full": "707 HAHMAN DR", "addr:postcode": "95405", "addr:state": "CA", "brand": "USPS", "collection_times": "Mo-Fr 17:00", "name": "USPS COLLECTION BOX - PO LOBBY", "note": "ON 12/24 AND 12/31, THIS BOX MAY BE COLLECTED AS EARLY AS 12 NOON.", "ref": "9540500009"}, "type": "Feature"}
{"geometry": {"coordinates": [-122.698822, 38.443451], "type": "Point"}, "id": "F9_wutcngqpHULML4hZtZcXmMjM=", "properties": {"@spider": "usps_collection_boxes", "addr:city": "SANTA ROSA", "addr:country": "US", "addr:full": "1400 MONTGOMERY DR", "addr:postcode": "95405", "addr:state": "CA", "brand": "USPS", "collection_times": "Mo-Fr 17:00", "name": "USPS COLLECTION BOX - BLUE BOX", "note": "ON 12/24 AND 12/31, THIS BOX MAY BE COLLECTED AS EARLY AS 12 NOON.", "ref": "9540500011"}, "type": "Feature"}
{"geometry": {"coordinates": [-122.67355, 38.453008], "type": "Point"}, "id": "EmPRcvCN3kHNoH_1UUJ60982twc=", "properties": {"@spider": "usps_collection_boxes", "addr:city": "SANTA ROSA", "addr:country": "US", "addr:full": "4000 MONTGOMERY DR", "addr:postcode": "95405", "addr:state": "CA", "brand": "USPS", "collection_times": "Mo-Fr 13:00", "name": "USPS COLLECTION BOX - BLUE BOX", "note": "ON 12/24 AND 12/31, THIS BOX MAY BE COLLECTED AS EARLY AS 12 NOON.", "ref": "9540500013"}, "type": "Feature"}
{"geometry": {"coordinates": [-122.703841, 38.442822], "type": "Point"}, "id": "OlhzyX9vXddz815aNgIhSBxZWvU=", "properties": {"@spider": "usps_collection_boxes", "addr:city": "SANTA ROSA", "addr:country": "US", "addr:full": "95 MONTGOMERY DR", "addr:postcode": "95405", "addr:state": "CA", "brand": "USPS", "collection_times": "Mo-Fr 15:00", "name": "USPS COLLECTION BOX - BLUE BOX", "note": "ON 12/24 AND 12/31, THIS BOX MAY BE COLLECTED AS EARLY AS 12 NOON.", "ref": "9540500015"}, "type": "Feature"}
{"geometry": {"coordinates": [-122.663675, 38.442702], "type": "Point"}, "id": "NpfwSCqRZX904RoyVPDtOTeBkTg=", "properties": {"@spider": "usps_collection_boxes", "addr:city": "SANTA ROSA", "addr:country": "US", "addr:full": "4781 HOEN AVE", "addr:postcode": "95405", "addr:state": "CA", "brand": "USPS", "collection_times": "Mo-Fr 15:15; Sa 13:00", "name": "USPS COLLECTION BOX - BLUE BOX", "note": "ON 12/24 AND 12/31, THIS BOX MAY BE COLLECTED AS EARLY AS 12 NOON.", "ref": "9540500020"}, "type": "Feature"}
{"geometry": {"coordinates": [-122.6857109613, 38.4427819408], "type": "Point"}, "id": "rSs26jUpNLqnSkVp2sRQn2ijYvI=", "properties": {"@spider": "usps_collection_boxes", "addr:city": "SANTA ROSA", "addr:country": "US", "addr:full": "915 VILLAGE CT", "addr:postcode": "95405", "addr:state": "CA", "brand": "USPS", "collection_times": "Mo-Fr 17:00; Sa 13:00", "name": "USPS COLLECTION BOX - BLUE BOX", "note": "ON 12/24 AND 12/31, THIS BOX MAY BE COLLECTED AS EARLY AS 12 NOON.", "ref": "9540500024"}, "type": "Feature"}
{"geometry": {"coordinates": [-122.6857109613, 38.4427819408], "type": "Point"}, "id": "kxDg1nYAATtjtchG72qyVNPgAjA=", "properties": {"@spider": "usps_collection_boxes", "addr:city": "SANTA ROSA", "addr:country": "US", "addr:full": "915 VILLAGE CT", "addr:postcode": "95405", "addr:state": "CA", "brand": "USPS", "collection_times": "Mo-Fr 17:00; Sa 13:00", "name": "USPS COLLECTION BOX - BLUE BOX", "note": "ON 12/24 AND 12/31, THIS BOX MAY BE COLLECTED AS EARLY AS 12 NOON.", "ref": "9540500025"}, "type": "Feature"}
{"geometry": {"coordinates": [-122.667895, 38.428247], "type": "Point"}, "id": "zJDygAXItCRltP2mLXKjaqvsTx4=", "properties": {"@spider": "usps_collection_boxes", "addr:city": "SANTA ROSA", "addr:country": "US", "addr:full": "2700 YULUPA AVE", "addr:postcode": "95405", "addr:state": "CA", "brand": "USPS", "collection_times": "Mo-Fr 15:00; Sa 13:00", "name": "USPS COLLECTION BOX - BLUE BOX", "note": "ON 12/24 AND 12/31, THIS BOX MAY BE COLLECTED AS EARLY AS 12 NOON.", "ref": "9540500026"}, "type": "Feature"}
{"geometry": {"coordinates": [-122.690991, 38.450569], "type": "Point"}, "id": "zYlrD0cVX9nsg9koPKBjDBFM-M4=", "properties": {"@spider": "usps_collection_boxes", "addr:city": "SANTA ROSA", "addr:country": "US", "addr:full": "2751 4TH ST", "addr:postcode": "95405", "addr:state": "CA", "brand": "USPS", "collection_times": "Mo-Fr 15:00; Sa 13:00", "name": "USPS COLLECTION BOX - BLUE BOX", "note": "ON 12/24 AND 12/31, THIS BOX MAY BE COLLECTED AS EARLY AS 12 NOON.", "ref": "9540500028"}, "type": "Feature"}
{"geometry": {"coordinates": [-122.692037, 38.443225], "type": "Point"}, "id": "NGhnuzhW32ahdr2kqC3yVMj-Gss=", "properties": {"@spider": "usps_collection_boxes", "addr:city": "SANTA ROSA", "addr:country": "US", "addr:full": "1820 SONOMA AVE", "addr:postcode": "95405", "addr:state": "CA", "brand": "USPS", "collection_times": "Mo-Sa 13:00", "name": "USPS COLLECTION BOX - BLUE BOX", "note": "ON 12/24 AND 12/31, THIS BOX MAY BE COLLECTED AS EARLY AS 12 NOON.", "ref": "9540500032"}, "type": "Feature"}
{"geometry": {"coordinates": [-122.6856838652, 38.4449239316], "type": "Point"}, "id": "fCJyc8blHnvM7j5iEcw2AGaDWGY=", "properties": {"@spider": "usps_collection_boxes", "addr:city": "SANTA ROSA", "addr:country": "US", "addr:full": "707 HAHMAN DR", "addr:postcode": "95405", "addr:state": "CA", "brand": "USPS", "collection_times": "Mo-Fr 17:00; Sa 15:00", "name": "USPS COLLECTION BOX - BLUE BOX", "note": "ON 12/24 AND 12/31, THIS BOX MAY BE COLLECTED AS EARLY AS 12 NOON.", "ref": "9540500043"}, "type": "Feature"}
{"geometry": {"coordinates": [-122.6856838652, 38.4449239316], "type": "Point"}, "id": "3sc0lgllQJX_udF9ViUmNmq-23U=", "properties": {"@spider": "usps_collection_boxes", "addr:city": "SANTA ROSA", "addr:country": "US", "addr:full": "707 HAHMAN DR", "addr:postcode": "95405", "addr:state": "CA", "brand": "USPS", "collection_times": "Mo-Fr 17:00; Sa 15:00", "name": "USPS COLLECTION BOX - BLUE BOX", "note": "ON 12/24 AND 12/31, THIS BOX MAY BE COLLECTED AS EARLY AS 12 NOON.", "ref": "9540500044"}, "type": "Feature"}
{"geometry": {"coordinates": [-122.6856838652, 38.4449239316], "type": "Point"}, "id": "GWLy2JYYM_0vBf2LcbnEx_yQEak=", "properties": {"@spider": "usps_collection_boxes", "addr:city": "SANTA ROSA", "addr:country": "US", "addr:full": "707 HAHMAN DR", "addr:postcode": "95405", "addr:state": "CA", "brand": "USPS", "collection_times": "Mo-Fr 17:00", "name": "USPS COLLECTION BOX - PO LOBBY", "note": "ON 12/24 AND 12/31, THIS BOX MAY BE COLLECTED AS EARLY AS 12 NOON.", "ref": "9540500048"}, "type": "Feature"}
{"geometry": {"coordinates": [-122.7205009278, 38.4017841845], "type": "Point"}, "id": "zGD_UsqgOlr8a8LVypNM5maPSQI=", "properties": {"@spider": "usps_collection_boxes", "addr:city": "SANTA ROSA", "addr:country": "US", "addr:full": "200 BELLEVUE AVE", "addr:postcode": "95407", "addr:state": "CA", "brand": "USPS", "collection_times": "Mo-Sa 12:00", "name": "USPS COLLECTION BOX - BLUE BOX", "ref": "9540700026"}, "type": "Feature"}
{"geometry": {"coordinates": [-122.72302, 38.391587], "type": "Point"}, "id": "Hkf9ao8O2irIl719yor2kdz9IrU=", "properties": {"@spider": "usps_collection_boxes", "addr:city": "SANTA ROSA", "addr:country": "US", "addr:full": "3550 STANDISH AVE", "addr:postcode": "95407", "addr:state": "CA", "brand": "USPS", "collection_times": "Mo-Sa 12:00", "name": "USPS COLLECTION BOX - BLUE BOX", "ref": "9540700039"}, "type": "Feature"}
{"geometry": {"coordinates": [-122.713482428, 38.419501234], "type": "Point"}, "id": "v8cm4lM91xxzqvcX3aiyR6Mbqco=", "properties": {"@spider": "usps_collection_boxes", "addr:city": "SANTA ROSA", "addr:country": "US", "addr:full": "1960 SANTA ROSA AVE", "addr:postcode": "95407", "addr:state": "CA", "brand": "USPS", "collection_times": "Mo-Fr 16:00; Sa 15:00", "name": "USPS COLLECTION BOX - BLUE BOX", "note": "ON 12/24 AND 12/31, THIS BOX MAY BE COLLECTED AS EARLY AS 12 NOON.", "ref": "9540700053"}, "type": "Feature"}
{"geometry": {"coordinates": [-122.603123, 38.441755], "type": "Point"}, "id": "7UICx8N5LNBKv-R85uRx1xkPEac=", "properties": {"@spider": "usps_collection_boxes", "addr:city": "SANTA ROSA", "addr:country": "US", "addr:full": "301 WHITE OAK DR", "addr:postcode": "95409", "addr:state": "CA", "brand": "USPS", "collection_times": "Mo-Fr 14:30; Sa 13:00", "name": "USPS COLLECTION BOX - BLUE BOX", "note": "ON 12/24 AND 12/31, THIS BOX MAY BE COLLECTED AS EARLY AS 12 NOON.", "ref": "9540900002"}, "type": "Feature"}
{"geometry": {"coordinates": [-122.5771843627, 38.4308906112], "type": "Point"}, "id": "so3L_26H_nTd-14Lbxz3IapuorY=", "properties": {"@spider": "usps_collection_boxes", "addr:city": "SANTA ROSA", "addr:country": "US", "addr:full": "8900 OAKMONT DR", "addr:postcode": "95409", "addr:state": "CA", "brand": "USPS", "collection_times": "Mo-Fr 14:15; Sa 13:00", "name": "USPS COLLECTION BOX - BLUE BOX", "note": "ON 12/24 AND 12/31, THIS BOX MAY BE COLLECTED AS EARLY AS 12 NOON.", "ref": "9540900008"}, "type": "Feature"}
{"geometry": {"coordinates": [-122.674617, 38.457975], "type": "Point"}, "id": "AE2C2sbjA4kbPAE4v9Cp2dhtJgY=", "properties": {"@spider": "usps_collection_boxes", "addr:city": "SANTA ROSA", "addr:country": "US", "addr:full": "52 MISSION PLZ", "addr:postcode": "95409", "addr:state": "CA", "brand": "USPS", "collection_times": "Mo-Fr 14:00; Sa 13:00", "name": "USPS COLLECTION BOX - BLUE BOX", "note": "ON 12/24 AND 12/31, THIS BOX MAY BE COLLECTED AS EARLY AS 12 NOON.", "ref": "9540900010"}, "type": "Feature"}
{"geometry": {"coordinates": [-122.6440140339, 38.45751143], "type": "Point"}, "id": "9Y09EM_f34VM8h4FF5-naPuv8xY=", "properties": {"@spider": "usps_collection_boxes", "addr:city": "SANTA ROSA", "addr:country": "US", "addr:full": "5555 MONTGOMERY DR", "addr:postcode": "95409", "addr:state": "CA", "brand": "USPS", "collection_times": "Mo-Fr 14:15; Sa 13:00", "name": "USPS COLLECTION BOX - BLUE BOX", "note": "ON 12/24 AND 12/31, THIS BOX MAY BE COLLECTED AS EARLY AS 12 NOON.", "ref": "9540900016"}, "type": "Feature"}
{"geometry": {"coordinates": [-122.602132, 38.441927], "type": "Point"}, "id": "EsmqfpMlzxtaGdVL1-LuN0yhQuA=", "properties": {"@spider": "usps_collection_boxes", "addr:city": "SANTA ROSA", "addr:country": "US", "addr:full": "300 WHITE OAK DR", "addr:postcode": "95409", "addr:state": "CA", "brand": "USPS", "collection_times": "Mo-Fr 14:30; Sa 13:00", "name": "USPS COLLECTION BOX - BLUE BOX", "note": "ON 12/24 AND 12/31, THIS BOX MAY BE COLLECTED AS EARLY AS 12 NOON.", "ref": "9540900017"}, "type": "Feature"}
{"geometry": {"coordinates": [-122.651984, 38.465954], "type": "Point"}, "id": "LoGyBcWTDR0a9gS2E7-JbRQpBmQ=", "properties": {"@spider": "usps_collection_boxes", "addr:city": "SANTA ROSA", "addr:country": "US", "addr:full": "102 CALISTOGA RD", "addr:postcode": "95409", "addr:state": "CA", "brand": "USPS", "collection_times": "Mo-Fr 17:00; Sa 13:00", "name": "USPS COLLECTION BOX - BLUE BOX", "note": "ON 12/24 AND 12/31, THIS BOX MAY BE COLLECTED AS EARLY AS 12 NOON.", "ref": "9540900020"}, "type": "Feature"}
{"geometry": {"coordinates": [-122.67212, 38.475205], "type": "Point"}, "id": "NdgOftZIVOjP3RZdi5F7kZgqa70=", "properties": {"@spider": "usps_collection_boxes", "addr:city": "SANTA ROSA", "addr:country": "US", "addr:full": "775 MIDDLE RINCON RD", "addr:postcode": "95409", "addr:state": "CA", "brand": "USPS", "collection_times": "Mo-Sa 13:00", "name": "USPS COLLECTION BOX - BLUE BOX", "note": "ON 12/24 AND 12/31, THIS BOX MAY BE COLLECTED AS EARLY AS 12 NOON.", "ref": "9540900021"}, "type": "Feature"}
{"geometry": {"coordinates": [-123.6823012443, 39.2338931129], "type": "Point"}, "id": "wO4Tf1GFzvOjdpgxWr048kNZliE=", "properties": {"@spider": "usps_collection_boxes", "addr:city": "ALBION", "addr:country": "US", "addr:full": "3350 ALBION RIDGE RD", "addr:postcode": "95410", "addr:state": "CA", "brand": "USPS", "collection_times": "Mo-Fr 14:00; Sa 10:30", "name": "USPS COLLECTION BOX - PO LOBBY", "note": "ON 12/24 AND 12/31, THIS BOX MAY BE COLLECTED AS EARLY AS 12 NOON.", "ref": "9541000003"}, "type": "Feature"}
{"geometry": {"coordinates": [-123.6823012443, 39.2338931129], "type": "Point"}, "id": "HcIkZeQ-kTV7id2VHdeHy0NpHr4=", "properties": {"@spider": "usps_collection_boxes", "addr:city": "ALBION", "addr:country": "US", "addr:full": "3350 ALBION RIDGE RD", "addr:postcode": "95410", "addr:state": "CA", "brand": "USPS", "collection_times": "Mo-Fr 14:00; Sa 10:30", "name": "USPS COLLECTION BOX - BLUE BOX", "note": "ON 12/24 AND 12/31, THIS BOX MAY BE COLLECTED AS EARLY AS 12 NOON.", "ref": "9541000004"}, "type": "Feature"}
{"geometry": {"coordinates": [-123.6823012443, 39.2338931129], "type": "Point"}, "id": "f0nrYdAWuZPyXo0DLwP3s8rjB7s=", "properties": {"@spider": "usps_collection_boxes", "addr:city": "ALBION", "addr:country": "US", "addr:full": "3350 ALBION RIDGE RD", "addr:postcode": "95410", "addr:state": "CA", "brand": "USPS", "collection_times": "Mo-Fr 16:30", "name": "USPS COLLECTION BOX - PO LOBBY", "note": "ON 12/24 AND 12/31, THIS BOX MAY BE COLLECTED AS EARLY AS 12 NOON.", "ref": "9541000005"}, "type": "Feature"}
{"geometry": {"coordinates": [-123.3664861836, 39.0082203305], "type": "Point"}, "id": "qP-FsJShAGLwCRwyIfk_tyhmEbE=", "properties": {"@spider": "usps_collection_boxes", "addr:city": "BOONVILLE", "addr:country": "US", "addr:full": "14170 HIGHWAY 128", "addr:postcode": "95415", "addr:state": "CA", "brand": "USPS", "collection_times": "Mo-Fr 15:00; Sa 10:00", "name": "USPS COLLECTION BOX - BLUE BOX", "note": "ON 12/24 AND 12/31, THIS BOX MAY BE COLLECTED AS EARLY AS 12 NOON.", "ref": "9541500003"}, "type": "Feature"}
{"geometry": {"coordinates": [-123.3664861836, 39.0082203305], "type": "Point"}, "id": "FnNXbnVRdA8UXTwPe99nyD5USRU=", "properties": {"@spider": "usps_collection_boxes", "addr:city": "BOONVILLE", "addr:country": "US", "addr:full": "14170 HIGHWAY 128", "addr:postcode": "95415", "addr:state": "CA", "brand": "USPS", "collection_times": "Mo-Fr 15:00; Sa 10:00", "name": "USPS COLLECTION BOX - PO LOBBY", "note": "ON 12/24 AND 12/31, THIS BOX MAY BE COLLECTED AS EARLY AS 12 NOON.", "ref": "9541500004"}, "type": "Feature"}
{"geometry": {"coordinates": [-123.3664861836, 39.0082203305], "type": "Point"}, "id": "3thtj856KKsvmqPc6H1aT0rTXxY=", "properties": {"@spider": "usps_collection_boxes", "addr:city": "BOONVILLE", "addr:country": "US", "addr:full": "14170 HIGHWAY 128", "addr:postcode": "95415", "addr:state": "CA", "brand": "USPS", "collection_times": "Mo-Fr 17:00", "name": "USPS COLLECTION BOX - PO LOBBY", "note": "ON 12/24 AND 12/31, THIS BOX MAY BE COLLECTED AS EARLY AS 12 NOON.", "ref": "9541500005"}, "type": "Feature"}
{"geometry": {"coordinates": [-122.4816891302, 38.3140808304], "type": "Point"}, "id": "2sBAtZgk2BrMPdxLqiJ13bcwbJE=", "properties": {"@spider": "usps_collection_boxes", "addr:city": "BOYES HOT SPG", "addr:country": "US", "addr:full": "18092 SONOMA HWY", "addr:postcode": "95416", "addr:state": "CA", "brand": "USPS", "collection_times": "Mo-Fr 17:00", "name": "USPS COLLECTION BOX - PO LOBBY", "note": "ON 12/24 AND 12/31, THIS BOX MAY BE COLLECTED AS EARLY AS 12 NOON.", "ref": "9541600005"}, "type": "Feature"}
{"geometry": {"coordinates": [-122.4816891302, 38.3140808304], "type": "Point"}, "id": "JW5Lwhk8_ArG-kC7romR6E4Pi1k=", "properties": {"@spider": "usps_collection_boxes", "addr:city": "BOYES HOT SPG", "addr:country": "US", "addr:full": "18092 SONOMA HWY", "addr:postcode": "95416", "addr:state": "CA", "brand": "USPS", "collection_times": "Mo-Fr 17:00", "name": "USPS COLLECTION BOX - PO LOBBY", "note": "ON 12/24 AND 12/31, THIS BOX MAY BE COLLECTED AS EARLY AS 12 NOON.", "ref": "9541600008"}, "type": "Feature"}
{"geometry": {"coordinates": [-123.2021735079, 39.2346140497], "type": "Point"}, "id": "xGY1_isGnZTsxFxjkhG0rR3twcQ=", "properties": {"@spider": "usps_collection_boxes", "addr:city": "CALPELLA", "addr:country": "US", "addr:full": "6260 N STATE ST", "addr:postcode": "95418", "addr:state": "CA", "brand": "USPS", "collection_times": "Mo-Fr 16:00; Sa 12:00", "name": "USPS COLLECTION BOX - BLUE BOX", "note": "ON 12/24 AND 12/31, THIS BOX MAY BE COLLECTED AS EARLY AS 12 NOON.", "ref": "9541800001"}, "type": "Feature"}
{"geometry": {"coordinates": [-123.2021735079, 39.2346140497], "type": "Point"}, "id": "ARkbunSLiWiOLn9G0nBCePFoglI=", "properties": {"@spider": "usps_collection_boxes", "addr:city": "CALPELLA", "addr:country": "US", "addr:full": "6260 N STATE ST", "addr:postcode": "95418", "addr:state": "CA", "brand": "USPS", "collection_times": "Mo-Fr 14:00", "name": "USPS COLLECTION BOX - PO LOBBY", "note": "ON 12/24 AND 12/31, THIS BOX MAY BE COLLECTED AS EARLY AS 12 NOON.", "ref": "9541800002"}, "type": "Feature"}
{"geometry": {"coordinates": [-123.591578, 39.264708], "type": "Point"}, "id": "OadRmKHnWFhDZKZ7sZjFqE7I3Bo=", "properties": {"@spider": "usps_collection_boxes", "addr:city": "COMPTCHE", "addr:country": "US", "addr:full": "31101 COMPTCHE UKIAH RD", "addr:postcode": "95427", "addr:state": "CA", "brand": "USPS", "collection_times": "Mo-Sa 11:00", "name": "USPS COLLECTION BOX - BLUE BOX", "ref": "9542700003"}, "type": "Feature"}
{"geometry": {"coordinates": [-123.591457, 39.264702], "type": "Point"}, "id": "YKPzkBb9BxbxE2eSh7ntjq1T1bw=", "properties": {"@spider": "usps_collection_boxes", "addr:city": "COMPTCHE", "addr:country": "US", "addr:full": "31101 COMPTCHE UKIAH RD", "addr:postcode": "95427", "addr:state": "CA", "brand": "USPS", "collection_times": "Mo-Sa 11:00", "name": "USPS COLLECTION BOX - PO LOBBY", "ref": "9542700004"}, "type": "Feature"}
{"geometry": {"coordinates": [-123.5920409156, 39.2648391845], "type": "Point"}, "id": "V5ArVKdPX8TTQKcpQL_1pxgjR-E=", "properties": {"@spider": "usps_collection_boxes", "addr:city": "COMPTCHE", "addr:country": "US", "addr:full": "31101 COMPTCHE UKIAH RD", "addr:postcode": "95427", "addr:state": "CA", "brand": "USPS", "collection_times": "Mo-Fr 14:00", "name": "USPS COLLECTION BOX - PO LOBBY", "note": "ON 12/24 AND 12/31, THIS BOX MAY BE COLLECTED AS EARLY AS 12 NOON.", "ref": "9542700005"}, "type": "Feature"}
{"geometry": {"coordinates": [-123.2491498324, 39.7941704851], "type": "Point"}, "id": "zYEPcugb9tz_Pc2xDCeR2z6L2LM=", "properties": {"@spider": "usps_collection_boxes", "addr:city": "COVELO", "addr:country": "US", "addr:full": "23951 HOWARD ST", "addr:postcode": "95428", "addr:state": "CA", "brand": "USPS", "collection_times": "Mo-Fr 14:00; Sa 13:00", "name": "USPS COLLECTION BOX - BLUE BOX", "note": "ON 12/24 AND 12/31, THIS BOX MAY BE COLLECTED AS EARLY AS 12 NOON.", "ref": "9542800003"}, "type": "Feature"}
{"geometry": {"coordinates": [-123.2491498324, 39.7941704851], "type": "Point"}, "id": "jMp2F0qpJOginNcpl0DWPTVIMak=", "properties": {"@spider": "usps_collection_boxes", "addr:city": "COVELO", "addr:country": "US", "addr:full": "23951 HOWARD ST", "addr:postcode": "95428", "addr:state": "CA", "brand": "USPS", "collection_times": "Mo-Fr 14:00; Sa 13:00", "name": "USPS COLLECTION BOX - PO LOBBY", "note": "ON 12/24 AND 12/31, THIS BOX MAY BE COLLECTED AS EARLY AS 12 NOON.", "ref": "9542800004"}, "type": "Feature"}
{"geometry": {"coordinates": [-123.2491498324, 39.7941704851], "type": "Point"}, "id": "Em3KBDeSy7DxtWFb2Pwqz6N-CIw=", "properties": {"@spider": "usps_collection_boxes", "addr:city": "COVELO", "addr:country": "US", "addr:full": "23951 HOWARD ST", "addr:postcode": "95428", "addr:state": "CA", "brand": "USPS", "collection_times": "Mo-Fr 17:00", "name": "USPS COLLECTION BOX - PO LOBBY", "note": "ON 12/24 AND 12/31, THIS BOX MAY BE COLLECTED AS EARLY AS 12 NOON.", "ref": "9542800005"}, "type": "Feature"}
{"geometry": {"coordinates": [-123.7172828651, 39.130348735], "type": "Point"}, "id": "UGnOPzUQ6brF5s9uZMrOc0D3Jkk=", "properties": {"@spider": "usps_collection_boxes", "addr:city": "ELK", "addr:country": "US", "addr:full": "5995 S HIGHWAY 1", "addr:postcode": "95432", "addr:state": "CA", "brand": "USPS", "collection_times": "Mo-Fr 14:15; Sa 11:00", "name": "USPS COLLECTION BOX - BLUE BOX", "note": "ON 12/24 AND 12/31, THIS BOX MAY BE COLLECTED AS EARLY AS 12 NOON.", "ref": "9543200003"}, "type": "Feature"}
{"geometry": {"coordinates": [-123.7172828651, 39.130348735], "type": "Point"}, "id": "RP0ZLMmTGhp9jCJ7Xw6WmIsH9Ao=", "properties": {"@spider": "usps_collection_boxes", "addr:city": "ELK", "addr:country": "US", "addr:full": "5995 S HIGHWAY 1", "addr:postcode": "95432", "addr:state": "CA", "brand": "USPS", "collection_times": "Mo-Fr 14:15; Sa 10:30", "name": "USPS COLLECTION BOX - PO LOBBY", "note": "ON 12/24 AND 12/31, THIS BOX MAY BE COLLECTED AS EARLY AS 12 NOON.", "ref": "9543200004"}, "type": "Feature"}
{"geometry": {"coordinates": [-123.7172828651, 39.130348735], "type": "Point"}, "id": "LA2bdEMFSo3-AFQn0DuuuePItJA=", "properties": {"@spider": "usps_collection_boxes", "addr:city": "ELK", "addr:country": "US", "addr:full": "5995 S HIGHWAY 1", "addr:postcode": "95432", "addr:state": "CA", "brand": "USPS", "collection_times": "Mo-Fr 16:45", "name": "USPS COLLECTION BOX - PO LOBBY", "note": "ON 12/24 AND 12/31, THIS BOX MAY BE COLLECTED AS EARLY AS 12 NOON.", "ref": "9543200005"}, "type": "Feature"}
{"geometry": {"coordinates": [-122.487234729, 38.3002075326], "type": "Point"}, "id": "-egGfGUjwhbd-uXKMf5dHKPUcX4=", "properties": {"@spider": "usps_collection_boxes", "addr:city": "EL VERANO", "addr:country": "US", "addr:full": "19050 BAY ST", "addr:postcode": "95433", "addr:state": "CA", "brand": "USPS", "collection_times": "Mo-Fr 17:00", "name": "USPS COLLECTION BOX - PO LOBBY", "note": "ON 12/24 AND 12/31, THIS BOX MAY BE COLLECTED AS EARLY AS 12 NOON.", "ref": "9543300003"}, "type": "Feature"}
{"geometry": {"coordinates": [-122.487234729, 38.3002075326], "type": "Point"}, "id": "mRi657uKxbILE8MbPEBajJb0Qq8=", "properties": {"@spider": "usps_collection_boxes", "addr:city": "EL VERANO", "addr:country": "US", "addr:full": "19050 BAY ST", "addr:postcode": "95433", "addr:state": "CA", "brand": "USPS", "collection_times": "Mo-Fr 17:00", "name": "USPS COLLECTION BOX - PO LOBBY", "note": "ON 12/24 AND 12/31, THIS BOX MAY BE COLLECTED AS EARLY AS 12 NOON.", "ref": "9543300004"}, "type": "Feature"}
{"geometry": {"coordinates": [-123.805867, 39.436988], "type": "Point"}, "id": "vSTygE1PeP2IaQ1nQL1o_PrNbq4=", "properties": {"@spider": "usps_collection_boxes", "addr:city": "FORT BRAGG", "addr:country": "US", "addr:full": "490 S MAIN ST", "addr:postcode": "95437", "addr:state": "CA", "brand": "USPS", "collection_times": "Mo-Fr 14:00; Sa 13:00", "name": "USPS COLLECTION BOX - BLUE BOX", "note": "ON 12/24 AND 12/31, THIS BOX MAY BE COLLECTED AS EARLY AS 12 NOON.", "ref": "9543700011"}, "type": "Feature"}
{"geometry": {"coordinates": [-123.804847, 39.44322], "type": "Point"}, "id": "NThxf7C3NMsOATQhzayYQYwVVPs=", "properties": {"@spider": "usps_collection_boxes", "addr:city": "FORT BRAGG", "addr:country": "US", "addr:full": "203 N FRANKLIN ST", "addr:postcode": "95437", "addr:state": "CA", "brand": "USPS", "collection_times": "Mo-Fr 16:30; Sa 15:30", "name": "USPS COLLECTION BOX - BLUE BOX", "note": "ON 12/24 AND 12/31, THIS BOX MAY BE COLLECTED AS EARLY AS 12 NOON.", "ref": "9543700012"}, "type": "Feature"}
{"geometry": {"coordinates": [-123.804847, 39.44322], "type": "Point"}, "id": "uNbF1Jr9iWMCnkgmEV4oz3YM1ZI=", "properties": {"@spider": "usps_collection_boxes", "addr:city": "FORT BRAGG", "addr:country": "US", "addr:full": "203 N FRANKLIN ST", "addr:postcode": "95437", "addr:state": "CA", "brand": "USPS", "collection_times": "Mo-Sa 15:30", "name": "USPS COLLECTION BOX - PO LOBBY", "note": "ON 12/24 AND 12/31, THIS BOX MAY BE COLLECTED AS EARLY AS 12 NOON.", "ref": "9543700013"}, "type": "Feature"}
{"geometry": {"coordinates": [-123.805271, 39.433751], "type": "Point"}, "id": "1HNj0CKMleVjGjka1VEJfgyyYZg=", "properties": {"@spider": "usps_collection_boxes", "addr:city": "FORT BRAGG", "addr:country": "US", "addr:full": "660 S MAIN ST", "addr:postcode": "95437", "addr:state": "CA", "brand": "USPS", "collection_times": "Mo-Fr 12:30; Sa 12:00", "name": "USPS COLLECTION BOX - BLUE BOX", "note": "ON 12/24 AND 12/31, THIS BOX MAY BE COLLECTED AS EARLY AS 12 NOON.", "ref": "9543700014"}, "type": "Feature"}
{"geometry": {"coordinates": [-123.806725, 39.421475], "type": "Point"}, "id": "6Gp20Xl-egqLN7KjLWxSC2ureu4=", "properties": {"@spider": "usps_collection_boxes", "addr:city": "FORT BRAGG", "addr:country": "US", "addr:full": "171 BOATYARD DR", "addr:postcode": "95437", "addr:state": "CA", "brand": "USPS", "collection_times": "Mo-Sa 11:00", "name": "USPS COLLECTION BOX - BLUE BOX", "ref": "9543700015"}, "type": "Feature"}
{"geometry": {"coordinates": [-123.8046075765, 39.4431747485], "type": "Point"}, "id": "dJVlM7ffppYSwrGLO9rhD0_IMg8=", "properties": {"@spider": "usps_collection_boxes", "addr:city": "FORT BRAGG", "addr:country": "US", "addr:full": "203 N FRANKLIN ST", "addr:postcode": "95437", "addr:state": "CA", "brand": "USPS", "collection_times": "Mo-Fr 16:30", "name": "USPS COLLECTION BOX - PO LOBBY", "note": "ON 12/24 AND 12/31, THIS BOX MAY BE COLLECTED AS EARLY AS 12 NOON.", "ref": "9543700017"}, "type": "Feature"}
{"geometry": {"coordinates": [-122.5250516099, 38.3627566546], "type": "Point"}, "id": "J49l0Yxa6-VPkf0wMM6NpYxC4Aw=", "properties": {"@spider": "usps_collection_boxes", "addr:city": "GLEN ELLEN", "addr:country": "US", "addr:full": "13720 ARNOLD DR", "addr:postcode": "95442", "addr:state": "CA", "brand": "USPS", "collection_times": "Mo-Fr 17:00; Sa 10:00", "name": "USPS COLLECTION BOX - BLUE BOX", "note": "ON 12/24 AND 12/31, THIS BOX MAY BE COLLECTED AS EARLY AS 12 NOON.", "ref": "9544200004"}, "type": "Feature"}
{"geometry": {"coordinates": [-122.5250516099, 38.3627566546], "type": "Point"}, "id": "dYKc6urZHCHDidkusgbcSnWS9PI=", "properties": {"@spider": "usps_collection_boxes", "addr:city": "GLEN ELLEN", "addr:country": "US", "addr:full": "13720 ARNOLD DR", "addr:postcode": "95442", "addr:state": "CA", "brand": "USPS", "collection_times": "Mo-Fr 17:00; Sa 10:00", "name": "USPS COLLECTION BOX - PO LOBBY", "note": "ON 12/24 AND 12/31, THIS BOX MAY BE COLLECTED AS EARLY AS 12 NOON.", "ref": "9544200005"}, "type": "Feature"}
{"geometry": {"coordinates": [-122.5250516099, 38.3627566546], "type": "Point"}, "id": "rrkr5zxlRlF_XcQIoFCgy3Ms53c=", "properties": {"@spider": "usps_collection_boxes", "addr:city": "GLEN ELLEN", "addr:country": "US", "addr:full": "13720 ARNOLD DR", "addr:postcode": "95442", "addr:state": "CA", "brand": "USPS", "collection_times": "Mo-Fr 17:00; Sa 10:00", "name": "USPS COLLECTION BOX - BLUE BOX", "note": "ON 12/24 AND 12/31, THIS BOX MAY BE COLLECTED AS EARLY AS 12 NOON.", "ref": "9544200006"}, "type": "Feature"}
{"geometry": {"coordinates": [-122.5107904392, 38.3393875433], "type": "Point"}, "id": "vS5L7BUd4z5zNbG_X4TKRVbLT6w=", "properties": {"@spider": "usps_collection_boxes", "addr:city": "GLEN ELLEN", "addr:country": "US", "addr:full": "913 MADRONE RD", "addr:postcode": "95442", "addr:state": "CA", "brand": "USPS", "collection_times": "Mo-Sa 09:00", "name": "USPS COLLECTION BOX - BLUE BOX", "ref": "9544200007"}, "type": "Feature"}
{"geometry": {"coordinates": [-122.5250516099, 38.3627566546], "type": "Point"}, "id": "6YrE4gBtJ3k6IwJeez0MdvKuqxs=", "properties": {"@spider": "usps_collection_boxes", "addr:city": "GLEN ELLEN", "addr:country": "US", "addr:full": "13720 ARNOLD DR", "addr:postcode": "95442", "addr:state": "CA", "brand": "USPS", "collection_times": "Mo-Fr 17:00", "name": "USPS COLLECTION BOX - PO LOBBY", "note": "ON 12/24 AND 12/31, THIS BOX MAY BE COLLECTED AS EARLY AS 12 NOON.", "ref": "9544200009"}, "type": "Feature"}
{"geometry": {"coordinates": [-122.5513529002, 38.4195297485], "type": "Point"}, "id": "d5SjVG9_YdlN9iFgxpjZc2NLJqc=", "properties": {"@spider": "usps_collection_boxes", "addr:city": "KENWOOD", "addr:country": "US", "addr:full": "8930 SONOMA HWY", "addr:postcode": "95452", "addr:state": "CA", "brand": "USPS", "collection_times": "Mo-Fr 16:30; Sa 11:00", "name": "USPS COLLECTION BOX - BLUE BOX", "note": "ON 12/24 AND 12/31, THIS BOX MAY BE COLLECTED AS EARLY AS 12 NOON.", "ref": "9545200003"}, "type": "Feature"}
{"geometry": {"coordinates": [-122.5513529002, 38.4195297485], "type": "Point"}, "id": "YE5jfiQt1ikEARBLxT4sf2cGEag=", "properties": {"@spider": "usps_collection_boxes", "addr:city": "KENWOOD", "addr:country": "US", "addr:full": "8930 SONOMA HWY", "addr:postcode": "95452", "addr:state": "CA", "brand": "USPS", "collection_times": "Mo-Fr 16:30; Sa 11:00", "name": "USPS COLLECTION BOX - PO LOBBY", "note": "ON 12/24 AND 12/31, THIS BOX MAY BE COLLECTED AS EARLY AS 12 NOON.", "ref": "9545200004"}, "type": "Feature"}
{"geometry": {"coordinates": [-122.5513529002, 38.4195297485], "type": "Point"}, "id": "oMFz6IIi0du6HTJ61BUAakvGnu8=", "properties": {"@spider": "usps_collection_boxes", "addr:city": "KENWOOD", "addr:country": "US", "addr:full": "8930 SONOMA HWY", "addr:postcode": "95452", "addr:state": "CA", "brand": "USPS", "collection_times": "Mo-Fr 17:00", "name": "USPS COLLECTION BOX - PO LOBBY", "note": "ON 12/24 AND 12/31, THIS BOX MAY BE COLLECTED AS EARLY AS 12 NOON.", "ref": "9545200006"}, "type": "Feature"}
{"geometry": {"coordinates": [-123.4823910428, 39.6854981397], "type": "Point"}, "id": "6NhEmOE0Xb8Q4GwEwPpuyfFeEzU=", "properties": {"@spider": "usps_collection_boxes", "addr:city": "LAYTONVILLE", "addr:country": "US", "addr:full": "50 RAMSEY RD", "addr:postcode": "95454", "addr:state": "CA", "brand": "USPS", "collection_times": "Mo-Fr 15:15; Sa 12:00", "name": "USPS COLLECTION BOX - PO LOBBY", "note": "ON 12/24 AND 12/31, THIS BOX MAY BE COLLECTED AS EARLY AS 12 NOON.", "ref": "9545400001"}, "type": "Feature"}
{"geometry": {"coordinates": [-123.4823910428, 39.6854981397], "type": "Point"}, "id": "VoKnjvjtfmLgfFQZy1mOsyK5u-g=", "properties": {"@spider": "usps_collection_boxes", "addr:city": "LAYTONVILLE", "addr:country": "US", "addr:full": "50 RAMSEY RD", "addr:postcode": "95454", "addr:state": "CA", "brand": "USPS", "collection_times": "Mo-Fr 16:30", "name": "USPS COLLECTION BOX - PO LOBBY", "note": "ON 12/24 AND 12/31, THIS BOX MAY BE COLLECTED AS EARLY AS 12 NOON.", "ref": "9545400002"}, "type": "Feature"}
{"geometry": {"coordinates": [-123.7884632278, 39.2706147882], "type": "Point"}, "id": "HbYz5tP8a7dTMjwe5yoqut11cso=", "properties": {"@spider": "usps_collection_boxes", "addr:city": "LITTLERIVER", "addr:country": "US", "addr:full": "7748 N HIGHWAY 1", "addr:postcode": "95456", "addr:state": "CA", "brand": "USPS", "collection_times": "Mo-Fr 14:45; Sa 12:00", "name": "USPS COLLECTION BOX - BLUE BOX", "note": "ON 12/24 AND 12/31, THIS BOX MAY BE COLLECTED AS EARLY AS 12 NOON.", "ref": "9545600003"}, "type": "Feature"}
{"geometry": {"coordinates": [-123.7884632278, 39.2706147882], "type": "Point"}, "id": "5C9crmecfJ2ZiaxK_2Zi-xXRcGM=", "properties": {"@spider": "usps_collection_boxes", "addr:city": "LITTLERIVER", "addr:country": "US", "addr:full": "7748 N HIGHWAY 1", "addr:postcode": "95456", "addr:state": "CA", "brand": "USPS", "collection_times": "Mo-Fr 14:45; Sa 12:00", "name": "USPS COLLECTION BOX - PO LOBBY", "note": "ON 12/24 AND 12/31, THIS BOX MAY BE COLLECTED AS EARLY AS 12 NOON.", "ref": "9545600004"}, "type": "Feature"}
{"geometry": {"coordinates": [-123.7884632278, 39.2706147882], "type": "Point"}, "id": "X5Cwsasv01kxwRaXyIMAlUTR3f0=", "properties": {"@spider": "usps_collection_boxes", "addr:city": "LITTLERIVER", "addr:country": "US", "addr:full": "7748 N HIGHWAY 1", "addr:postcode": "95456", "addr:state": "CA", "brand": "USPS", "collection_times": "Mo-Fr 17:00; Sa 12:00", "name": "USPS COLLECTION BOX - PO LOBBY", "note": "ON 12/24 AND 12/31, THIS BOX MAY BE COLLECTED AS EARLY AS 12 NOON.", "ref": "9545600005"}, "type": "Feature"}
{"geometry": {"coordinates": [-123.686745, 38.970245], "type": "Point"}, "id": "Rh2e_8Fe7dj1C1R75IxA0Qh3Lnc=", "properties": {"@spider": "usps_collection_boxes", "addr:city": "MANCHESTER", "addr:country": "US", "addr:full": "19391 S HIGHWAY 1", "addr:postcode": "95459", "addr:state": "CA", "brand": "USPS", "collection_times": "Mo-Fr 13:30; Sa 10:30", "name": "USPS COLLECTION BOX - PO LOBBY", "note": "ON 12/24 AND 12/31, THIS BOX MAY BE COLLECTED AS EARLY AS 12 NOON.", "ref": "9545900002"}, "type": "Feature"}
{"geometry": {"coordinates": [-123.6868841113, 38.970063557], "type": "Point"}, "id": "ViZzzlWnb4hOAeRvRUtECs6wjWM=", "properties": {"@spider": "usps_collection_boxes", "addr:city": "MANCHESTER", "addr:country": "US", "addr:full": "19391 US HIGHWAY 1", "addr:postcode": "95459", "addr:state": "CA", "brand": "USPS", "collection_times": "Mo-Fr 15:30", "name": "USPS COLLECTION BOX - PO LOBBY", "note": "ON 12/24 AND 12/31, THIS BOX MAY BE COLLECTED AS EARLY AS 12 NOON.", "ref": "9545900003"}, "type": "Feature"}
{"geometry": {"coordinates": [-123.8002253793, 39.3063575554], "type": "Point"}, "id": "9Wypbz5aDFScKCIYuNAqJ61Jr7s=", "properties": {"@spider": "usps_collection_boxes", "addr:city": "MENDOCINO", "addr:country": "US", "addr:full": "10500 FORD ST", "addr:postcode": "95460", "addr:state": "CA", "brand": "USPS", "collection_times": "Mo-Fr 15:30; Sa 10:30", "name": "USPS COLLECTION BOX - BLUE BOX", "note": "ON 12/24 AND 12/31, THIS BOX MAY BE COLLECTED AS EARLY AS 12 NOON.", "ref": "9546000004"}, "type": "Feature"}
{"geometry": {"coordinates": [-123.8002253793, 39.3063575554], "type": "Point"}, "id": "tqmjhF-W6EtTR9Lk11SjR76HuxI=", "properties": {"@spider": "usps_collection_boxes", "addr:city": "MENDOCINO", "addr:country": "US", "addr:full": "10500 FORD ST", "addr:postcode": "95460", "addr:state": "CA", "brand": "USPS", "collection_times": "Mo-Fr 16:00; Sa 10:30", "name": "USPS COLLECTION BOX - PO LOBBY", "note": "ON 12/24 AND 12/31, THIS BOX MAY BE COLLECTED AS EARLY AS 12 NOON.", "ref": "9546000005"}, "type": "Feature"}
{"geometry": {"coordinates": [-123.8002253793, 39.3063575554], "type": "Point"}, "id": "V0j2MBxcTtgpYMcgwxw4G3_Cd6c=", "properties": {"@spider": "usps_collection_boxes", "addr:city": "MENDOCINO", "addr:country": "US", "addr:full": "10500 FORD ST", "addr:postcode": "95460", "addr:state": "CA", "brand": "USPS", "collection_times": "Mo-Fr 16:00", "name": "USPS COLLECTION BOX - PO LOBBY", "note": "ON 12/24 AND 12/31, THIS BOX MAY BE COLLECTED AS EARLY AS 12 NOON.", "ref": "9546000007"}, "type": "Feature"}
{"geometry": {"coordinates": [-123.440228, 39.065331], "type": "Point"}, "id": "fS1MO608zR3pC5qBPlccgrPIgJU=", "properties": {"@spider": "usps_collection_boxes", "addr:city": "PHILO", "addr:country": "US", "addr:full": "8651 HIGHWAY 128", "addr:postcode": "95466", "addr:state": "CA", "brand": "USPS", "collection_times": "Mo-Fr 15:15; Sa 12:00", "name": "USPS COLLECTION BOX - PO LOBBY", "note": "ON 12/24 AND 12/31, THIS BOX MAY BE COLLECTED AS EARLY AS 12 NOON.", "ref": "9546600003"}, "type": "Feature"}
{"geometry": {"coordinates": [-123.4403028985, 39.0653898843], "type": "Point"}, "id": "8-Y74eY6pgiFkmzP2AXAGSIXZv8=", "properties": {"@spider": "usps_collection_boxes", "addr:city": "PHILO", "addr:country": "US", "addr:full": "8651 HIGHWAY 128", "addr:postcode": "95466", "addr:state": "CA", "brand": "USPS", "collection_times": "Mo-Fr 15:15", "name": "USPS COLLECTION BOX - PO LOBBY", "note": "ON 12/24 AND 12/31, THIS BOX MAY BE COLLECTED AS EARLY AS 12 NOON.", "ref": "9546600004"}, "type": "Feature"}
{"geometry": {"coordinates": [-123.1092286183, 39.3219414922], "type": "Point"}, "id": "2qeDufowHsnzyK_OndXTB8_46Uo=", "properties": {"@spider": "usps_collection_boxes", "addr:city": "POTTER VALLEY", "addr:country": "US", "addr:full": "10210 MAIN ST", "addr:postcode": "95469", "addr:state": "CA", "brand": "USPS", "collection_times": "Mo-Fr 15:30; Sa 09:30", "name": "USPS COLLECTION BOX - PO LOBBY", "note": "ON 12/24 AND 12/31, THIS BOX MAY BE COLLECTED AS EARLY AS 12 NOON.", "ref": "9546900002"}, "type": "Feature"}
{"geometry": {"coordinates": [-123.1092286183, 39.3219414922], "type": "Point"}, "id": "aRCBQJukuA6ZbcF0xWN7-Fc0Nm0=", "properties": {"@spider": "usps_collection_boxes", "addr:city": "POTTER VALLEY", "addr:country": "US", "addr:full": "10210 MAIN ST", "addr:postcode": "95469", "addr:state": "CA", "brand": "USPS", "collection_times": "Mo-Fr 15:30", "name": "USPS COLLECTION BOX - PO LOBBY", "note": "ON 12/24 AND 12/31, THIS BOX MAY BE COLLECTED AS EARLY AS 12 NOON.", "ref": "9546900003"}, "type": "Feature"}
{"geometry": {"coordinates": [-123.2044727564, 39.2651155117], "type": "Point"}, "id": "8VHwVOb8l42SjxKn-D_GmT6aVbw=", "properties": {"@spider": "usps_collection_boxes", "addr:city": "REDWOOD VALLEY", "addr:country": "US", "addr:full": "993 E SCHOOL WAY", "addr:postcode": "95470", "addr:state": "CA", "brand": "USPS", "collection_times": "Mo-Fr 15:45", "name": "USPS COLLECTION BOX - BLUE BOX", "note": "ON 12/24 AND 12/31, THIS BOX MAY BE COLLECTED AS EARLY AS 12 NOON.", "ref": "9547000004"}, "type": "Feature"}
{"geometry": {"coordinates": [-123.2044727564, 39.2651155117], "type": "Point"}, "id": "1TdmLpuznwoIboWP36p6Lid_jvM=", "properties": {"@spider": "usps_collection_boxes", "addr:city": "REDWOOD VALLEY", "addr:country": "US", "addr:full": "993 E SCHOOL WAY", "addr:postcode": "95470", "addr:state": "CA", "brand": "USPS", "collection_times": "Mo-Fr 15:45; Sa 11:00", "name": "USPS COLLECTION BOX - PO LOBBY", "note": "ON 12/24 AND 12/31, THIS BOX MAY BE COLLECTED AS EARLY AS 12 NOON.", "ref": "9547000005"}, "type": "Feature"}
{"geometry": {"coordinates": [-123.2044727564, 39.2651155117], "type": "Point"}, "id": "ejhxnNIoAQlISGSCBsrF03lnixU=", "properties": {"@spider": "usps_collection_boxes", "addr:city": "REDWOOD VALLEY", "addr:country": "US", "addr:full": "993 E SCHOOL WAY", "addr:postcode": "95470", "addr:state": "CA", "brand": "USPS", "collection_times": "Mo-Fr 15:45; Sa 11:00", "name": "USPS COLLECTION BOX - BLUE BOX", "note": "ON 12/24 AND 12/31, THIS BOX MAY BE COLLECTED AS EARLY AS 12 NOON.", "ref": "9547000006"}, "type": "Feature"}
{"geometry": {"coordinates": [-123.2044727564, 39.2651155117], "type": "Point"}, "id": "GJ6ZVExRS_yMZgE1qO2eAU8MU-Q=", "properties": {"@spider": "usps_collection_boxes", "addr:city": "REDWOOD VALLEY", "addr:country": "US", "addr:full": "993 E SCHOOL WAY", "addr:postcode": "95470", "addr:state": "CA", "brand": "USPS", "collection_times": "Mo-Fr 16:30", "name": "USPS COLLECTION BOX - PO LOBBY", "note": "ON 12/24 AND 12/31, THIS BOX MAY BE COLLECTED AS EARLY AS 12 NOON.", "ref": "9547000007"}, "type": "Feature"}
{"geometry": {"coordinates": [-122.4582363237, 38.28978835], "type": "Point"}, "id": "02RTDZJieOrn7W89k3eI1n9UxFE=", "properties": {"@spider": "usps_collection_boxes", "addr:city": "SONOMA", "addr:country": "US", "addr:full": "617 BROADWAY", "addr:postcode": "95476", "addr:state": "CA", "brand": "USPS", "collection_times": "Mo-Fr 17:30; Sa 15:30", "name": "USPS COLLECTION BOX - BLUE BOX", "note": "ON 12/24 AND 12/31, THIS BOX MAY BE COLLECTED AS EARLY AS 12 NOON.", "ref": "9547600002"}, "type": "Feature"}
{"geometry": {"coordinates": [-122.4582363237, 38.28978835], "type": "Point"}, "id": "zAbvYw8p1p6AFcWQv5F1cF36LWg=", "properties": {"@spider": "usps_collection_boxes", "addr:city": "SONOMA", "addr:country": "US", "addr:full": "617 BROADWAY", "addr:postcode": "95476", "addr:state": "CA", "brand": "USPS", "collection_times": "Mo-Fr 17:30; Sa 15:30", "name": "USPS COLLECTION BOX - BLUE BOX", "note": "ON 12/24 AND 12/31, THIS BOX MAY BE COLLECTED AS EARLY AS 12 NOON.", "ref": "9547600003"}, "type": "Feature"}
{"geometry": {"coordinates": [-122.4582363237, 38.28978835], "type": "Point"}, "id": "D9KLx6-xVTYPkZ3AJEWyz_DZXQQ=", "properties": {"@spider": "usps_collection_boxes", "addr:city": "SONOMA", "addr:country": "US", "addr:full": "617 BROADWAY", "addr:postcode": "95476", "addr:state": "CA", "brand": "USPS", "collection_times": "Mo-Fr 17:30; Sa 15:30", "name": "USPS COLLECTION BOX - BLUE BOX", "note": "ON 12/24 AND 12/31, THIS BOX MAY BE COLLECTED AS EARLY AS 12 NOON.", "ref": "9547600004"}, "type": "Feature"}
{"geometry": {"coordinates": [-122.4582363237, 38.28978835], "type": "Point"}, "id": "stmJIZpX1R5czHWa_bUsYKs6_wM=", "properties": {"@spider": "usps_collection_boxes", "addr:city": "SONOMA", "addr:country": "US", "addr:full": "617 BROADWAY", "addr:postcode": "95476", "addr:state": "CA", "brand": "USPS", "collection_times": "Mo-Fr 17:30; Sa 16:30", "name": "USPS COLLECTION BOX - PO LOBBY", "note": "ON 12/24 AND 12/31, THIS BOX MAY BE COLLECTED AS EARLY AS 12 NOON.", "ref": "9547600005"}, "type": "Feature"}
{"geometry": {"coordinates": [-122.4540963169, 38.2859788217], "type": "Point"}, "id": "AXIpgI0Jdc_7TcBH6m8eYGZD2X4=", "properties": {"@spider": "usps_collection_boxes", "addr:city": "SONOMA", "addr:country": "US", "addr:full": "800 DONNER AVE", "addr:postcode": "95476", "addr:state": "CA", "brand": "USPS", "collection_times": "Mo-Sa 13:00", "name": "USPS COLLECTION BOX - BLUE BOX", "note": "ON 12/24 AND 12/31, THIS BOX MAY BE COLLECTED AS EARLY AS 12 NOON.", "ref": "9547600007"}, "type": "Feature"}
{"geometry": {"coordinates": [-122.448606, 38.285598], "type": "Point"}, "id": "kahxf2U82sqWxa8GL_tXTN6XtPY=", "properties": {"@spider": "usps_collection_boxes", "addr:city": "SONOMA", "addr:country": "US", "addr:full": "494 CHASE ST", "addr:postcode": "95476", "addr:state": "CA", "brand": "USPS", "collection_times": "Mo-Sa 13:00", "name": "USPS COLLECTION BOX - BLUE BOX", "note": "ON 12/24 AND 12/31, THIS BOX MAY BE COLLECTED AS EARLY AS 12 NOON.", "ref": "9547600008"}, "type": "Feature"}
{"geometry": {"coordinates": [-122.449699, 38.293064], "type": "Point"}, "id": "kV7d8qffvrU-QXqiGv5rY4YaZUQ=", "properties": {"@spider": "usps_collection_boxes", "addr:city": "SONOMA", "addr:country": "US", "addr:full": "399 4TH ST E", "addr:postcode": "95476", "addr:state": "CA", "brand": "USPS", "collection_times": "Mo-Fr 16:15; Sa 13:00", "name": "USPS COLLECTION BOX - BLUE BOX", "note": "ON 12/24 AND 12/31, THIS BOX MAY BE COLLECTED AS EARLY AS 12 NOON.", "ref": "9547600009"}, "type": "Feature"}
{"geometry": {"coordinates": [-122.4520097484, 38.2913563805], "type": "Point"}, "id": "D5UQK5LDUcM933fXpR8dtSQGScI=", "properties": {"@spider": "usps_collection_boxes", "addr:city": "SONOMA", "addr:country": "US", "addr:full": "300 E NAPA ST", "addr:postcode": "95476", "addr:state": "CA", "brand": "USPS", "collection_times": "Mo-Fr 15:00; Sa 13:00", "name": "USPS COLLECTION BOX - BLUE BOX", "note": "ON 12/24 AND 12/31, THIS BOX MAY BE COLLECTED AS EARLY AS 12 NOON.", "ref": "9547600010"}, "type": "Feature"}
{"geometry": {"coordinates": [-122.461186, 38.292128], "type": "Point"}, "id": "APqnC4T8gZYywqB7V9xOmk8sT1w=", "properties": {"@spider": "usps_collection_boxes", "addr:city": "SONOMA", "addr:country": "US", "addr:full": "195 W NAPA ST", "addr:postcode": "95476", "addr:state": "CA", "brand": "USPS", "collection_times": "Mo-Fr 15:00; Sa 13:00", "name": "USPS COLLECTION BOX - BLUE BOX", "note": "ON 12/24 AND 12/31, THIS BOX MAY BE COLLECTED AS EARLY AS 12 NOON.", "ref": "9547600011"}, "type": "Feature"}
{"geometry": {"coordinates": [-122.4566891485, 38.2918955656], "type": "Point"}, "id": "UggPJgQosZT0OsfEe35RExHYFxs=", "properties": {"@spider": "usps_collection_boxes", "addr:city": "SONOMA", "addr:country": "US", "addr:full": "498 1ST ST E", "addr:postcode": "95476", "addr:state": "CA", "brand": "USPS", "collection_times": "Mo-Fr 15:00; Sa 13:00", "name": "USPS COLLECTION BOX - BLUE BOX", "note": "ON 12/24 AND 12/31, THIS BOX MAY BE COLLECTED AS EARLY AS 12 NOON.", "ref": "9547600012"}, "type": "Feature"}
{"geometry": {"coordinates": [-122.456495, 38.293628], "type": "Point"}, "id": "J8ps6su6ZhgCkj27kN6REwNRH-c=", "properties": {"@spider": "usps_collection_boxes", "addr:city": "SONOMA", "addr:country": "US", "addr:full": "98 E SPAIN ST", "addr:postcode": "95476", "addr:state": "CA", "brand": "USPS", "collection_times": "Sa 13:00", "name": "USPS COLLECTION BOX - BLUE BOX", "note": "ON 12/24 AND 12/31, THIS BOX MAY BE COLLECTED AS EARLY AS 12 NOON.", "ref": "9547600013"}, "type": "Feature"}
{"geometry": {"coordinates": [-122.458472, 38.293846], "type": "Point"}, "id": "Pz0LRVWNmokBwNTu5c93lARtDcU=", "properties": {"@spider": "usps_collection_boxes", "addr:city": "SONOMA", "addr:country": "US", "addr:full": "100 W SPAIN ST", "addr:postcode": "95476", "addr:state": "CA", "brand": "USPS", "collection_times": "Mo-Fr 15:00; Sa 13:00", "name": "USPS COLLECTION BOX - BLUE BOX", "note": "ON 12/24 AND 12/31, THIS BOX MAY BE COLLECTED AS EARLY AS 12 NOON.", "ref": "9547600014"}, "type": "Feature"}
{"geometry": {"coordinates": [-122.4624001558, 38.2851387904], "type": "Point"}, "id": "RhqEmV5hnfn11_D-dY5_bk7CNCc=", "properties": {"@spider": "usps_collection_boxes", "addr:city": "SONOMA", "addr:country": "US", "addr:full": "899 2ND ST W", "addr:postcode": "95476", "addr:state": "CA", "brand": "USPS", "collection_times": "Mo-Sa 13:00", "name": "USPS COLLECTION BOX - BLUE BOX", "note": "ON 12/24 AND 12/31, THIS BOX MAY BE COLLECTED AS EARLY AS 12 NOON.", "ref": "9547600015"}, "type": "Feature"}
{"geometry": {"coordinates": [-122.4613000166, 38.2880976738], "type": "Point"}, "id": "Xq1VDBETgWJw4afz49xSvzJE9kQ=", "properties": {"@spider": "usps_collection_boxes", "addr:city": "SONOMA", "addr:country": "US", "addr:full": "181 ANDRIEUX ST", "addr:postcode": "95476", "addr:state": "CA", "brand": "USPS", "collection_times": "Mo-Fr 15:00; Sa 13:00", "name": "USPS COLLECTION BOX - BLUE BOX", "note": "ON 12/24 AND 12/31, THIS BOX MAY BE COLLECTED AS EARLY AS 12 NOON.", "ref": "9547600017"}, "type": "Feature"}
{"geometry": {"coordinates": [-122.4652321379, 38.2884054937], "type": "Point"}, "id": "F1PhYEQUBH2RJnszCcLMMhPMTsI=", "properties": {"@spider": "usps_collection_boxes", "addr:city": "SONOMA", "addr:country": "US", "addr:full": "349 ANDRIEUX ST", "addr:postcode": "95476", "addr:state": "CA", "brand": "USPS", "collection_times": "Mo-Fr 15:00", "name": "USPS COLLECTION BOX - BLUE BOX", "note": "ON 12/24 AND 12/31, THIS BOX MAY BE COLLECTED AS EARLY AS 12 NOON.", "ref": "9547600019"}, "type": "Feature"}
{"geometry": {"coordinates": [-122.464157, 38.289296], "type": "Point"}, "id": "QsfLmV10IqDVp6N69ZMI43qBrHY=", "properties": {"@spider": "usps_collection_boxes", "addr:city": "SONOMA", "addr:country": "US", "addr:full": "300 PERKINS ST", "addr:postcode": "95476", "addr:state": "CA", "brand": "USPS", "collection_times": "Mo-Sa 13:00", "name": "USPS COLLECTION BOX - BLUE BOX", "note": "ON 12/24 AND 12/31, THIS BOX MAY BE COLLECTED AS EARLY AS 12 NOON.", "ref": "9547600020"}, "type": "Feature"}
{"geometry": {"coordinates": [-122.46197523, 38.2922785705], "type": "Point"}, "id": "t9mi6kM660XAeuKN72TXMcjnXpk=", "properties": {"@spider": "usps_collection_boxes", "addr:city": "SONOMA", "addr:country": "US", "addr:full": "201 W NAPA ST", "addr:postcode": "95476", "addr:state": "CA", "brand": "USPS", "collection_times": "Mo-Fr 15:00; Sa 13:00", "name": "USPS COLLECTION BOX - BLUE BOX", "note": "ON 12/24 AND 12/31, THIS BOX MAY BE COLLECTED AS EARLY AS 12 NOON.", "ref": "9547600021"}, "type": "Feature"}
{"geometry": {"coordinates": [-122.4683294998, 38.2919263035], "type": "Point"}, "id": "w7jyqizdQYE9gaaY97NJM5BhyXE=", "properties": {"@spider": "usps_collection_boxes", "addr:city": "SONOMA", "addr:country": "US", "addr:full": "545 5TH ST W", "addr:postcode": "95476", "addr:state": "CA", "brand": "USPS", "collection_times": "Mo-Fr 15:00; Sa 13:00", "name": "USPS COLLECTION BOX - BLUE BOX", "note": "ON 12/24 AND 12/31, THIS BOX MAY BE COLLECTED AS EARLY AS 12 NOON.", "ref": "9547600024"}, "type": "Feature"}
{"geometry": {"coordinates": [-122.4680424322, 38.2935841107], "type": "Point"}, "id": "tuJXyPuN5K38hyuI86KA9Q8LNDI=", "properties": {"@spider": "usps_collection_boxes", "addr:city": "SONOMA", "addr:country": "US", "addr:full": "465 5TH ST W", "addr:postcode": "95476", "addr:state": "CA", "brand": "USPS", "collection_times": "Mo-Fr 17:00; Sa 13:00", "name": "USPS COLLECTION BOX - BLUE BOX", "note": "ON 12/24 AND 12/31, THIS BOX MAY BE COLLECTED AS EARLY AS 12 NOON.", "ref": "9547600025"}, "type": "Feature"}
{"geometry": {"coordinates": [-122.4692865098, 38.2855727048], "type": "Point"}, "id": "xbfB9YE3uzG6n8QmeF-FsyV429A=", "properties": {"@spider": "usps_collection_boxes", "addr:city": "SONOMA", "addr:country": "US", "addr:full": "1001 5TH ST W", "addr:postcode": "95476", "addr:state": "CA", "brand": "USPS", "collection_times": "Mo-Sa 13:00", "name": "USPS COLLECTION BOX - BLUE BOX", "note": "ON 12/24 AND 12/31, THIS BOX MAY BE COLLECTED AS EARLY AS 12 NOON.", "ref": "9547600026"}, "type": "Feature"}
{"geometry": {"coordinates": [-122.4718179112, 38.2935230143], "type": "Point"}, "id": "VruLKT8LX4mYEsfe2s6k_qTyX4s=", "properties": {"@spider": "usps_collection_boxes", "addr:city": "SONOMA", "addr:country": "US", "addr:full": "489 7TH ST W", "addr:postcode": "95476", "addr:state": "CA", "brand": "USPS", "collection_times": "Mo-Fr 15:00; Sa 13:00", "name": "USPS COLLECTION BOX - BLUE BOX", "note": "ON 12/24 AND 12/31, THIS BOX MAY BE COLLECTED AS EARLY AS 12 NOON.", "ref": "9547600027"}, "type": "Feature"}
{"geometry": {"coordinates": [-122.4773555025, 38.3046237846], "type": "Point"}, "id": "WxgLNfcumugtiZA_WhxB0tYGS2E=", "properties": {"@spider": "usps_collection_boxes", "addr:city": "SONOMA", "addr:country": "US", "addr:full": "18913 HIGHWAY 12", "addr:postcode": "95476", "addr:state": "CA", "brand": "USPS", "collection_times": "Mo-Fr 15:00; Sa 13:00", "name": "USPS COLLECTION BOX - BLUE BOX", "note": "ON 12/24 AND 12/31, THIS BOX MAY BE COLLECTED AS EARLY AS 12 NOON.", "ref": "9547600031"}, "type": "Feature"}
{"geometry": {"coordinates": [-122.485374, 38.318863], "type": "Point"}, "id": "oaOPUwkICYGIKGeS4ToAd2-pqRk=", "properties": {"@spider": "usps_collection_boxes", "addr:city": "SONOMA", "addr:country": "US", "addr:full": "17474 HIGHWAY 12", "addr:postcode": "95476", "addr:state": "CA", "brand": "USPS", "collection_times": "Mo-Sa 13:00", "name": "USPS COLLECTION BOX - BLUE BOX", "note": "ON 12/24 AND 12/31, THIS BOX MAY BE COLLECTED AS EARLY AS 12 NOON.", "ref": "9547600032"}, "type": "Feature"}
{"geometry": {"coordinates": [-122.4930520656, 38.2679013797], "type": "Point"}, "id": "Qe0iKBpnq1mE21RhyVtjyQ9BJdY=", "properties": {"@spider": "usps_collection_boxes", "addr:city": "SONOMA", "addr:country": "US", "addr:full": "101 TEMELEC CIR", "addr:postcode": "95476", "addr:state": "CA", "brand": "USPS", "collection_times": "Mo-Sa 13:00", "name": "USPS COLLECTION BOX - BLUE BOX", "note": "ON 12/24 AND 12/31, THIS BOX MAY BE COLLECTED AS EARLY AS 12 NOON.", "ref": "9547600036"}, "type": "Feature"}
{"geometry": {"coordinates": [-122.486884, 38.260463], "type": "Point"}, "id": "1_iGXZrCBAIqN7-LISsd4lUQeeI=", "properties": {"@spider": "usps_collection_boxes", "addr:city": "SONOMA", "addr:country": "US", "addr:full": "178 W SEVEN FLAGS CIR", "addr:postcode": "95476", "addr:state": "CA", "brand": "USPS", "collection_times": "Mo-Sa 10:00", "name": "USPS COLLECTION BOX - BLUE BOX", "ref": "9547600037"}, "type": "Feature"}
{"geometry": {"coordinates": [-122.491543, 38.258632], "type": "Point"}, "id": "cLSxXwSHiKs970zKqqEfLHkkZ5o=", "properties": {"@spider": "usps_collection_boxes", "addr:city": "SONOMA", "addr:country": "US", "addr:full": "9 INTERNATIONAL BLVD", "addr:postcode": "95476", "addr:state": "CA", "brand": "USPS", "collection_times": "Mo-Sa 10:00", "name": "USPS COLLECTION BOX - BLUE BOX", "ref": "9547600038"}, "type": "Feature"}
{"geometry": {"coordinates": [-122.488152453, 38.2630117147], "type": "Point"}, "id": "RtYKErZ3O0Nj7WlEtQU8tb3-zOE=", "properties": {"@spider": "usps_collection_boxes", "addr:city": "SONOMA", "addr:country": "US", "addr:full": "1275 AVENIDA SEBASTIANI", "addr:postcode": "95476", "addr:state": "CA", "brand": "USPS", "collection_times": "Mo-Sa 13:00", "name": "USPS COLLECTION BOX - BLUE BOX", "note": "ON 12/24 AND 12/31, THIS BOX MAY BE COLLECTED AS EARLY AS 12 NOON.", "ref": "9547600041"}, "type": "Feature"}
{"geometry": {"coordinates": [-122.4582363237, 38.28978835], "type": "Point"}, "id": "TietkE9_psUJvAImzUCrVBbYK_M=", "properties": {"@spider": "usps_collection_boxes", "addr:city": "SONOMA", "addr:country": "US", "addr:full": "617 BROADWAY", "addr:postcode": "95476", "addr:state": "CA", "brand": "USPS", "collection_times": "Mo-Fr 15:00", "name": "USPS COLLECTION BOX - EXPRESS", "note": "ON 12/24 AND 12/31, THIS BOX MAY BE COLLECTED AS EARLY AS 12 NOON.", "ref": "9547600043"}, "type": "Feature"}
{"geometry": {"coordinates": [-122.4582363237, 38.28978835], "type": "Point"}, "id": "0PmHooUJstkO_1eyOXYQdj3JKRg=", "properties": {"@spider": "usps_collection_boxes", "addr:city": "SONOMA", "addr:country": "US", "addr:full": "617 BROADWAY", "addr:postcode": "95476", "addr:state": "CA", "brand": "USPS", "collection_times": "Mo-Fr 17:00; Sa 15:30", "name": "USPS COLLECTION BOX - BLUE BOX", "note": "ON 12/24 AND 12/31, THIS BOX MAY BE COLLECTED AS EARLY AS 12 NOON.", "ref": "9547600044"}, "type": "Feature"}
{"geometry": {"coordinates": [-122.4582363237, 38.28978835], "type": "Point"}, "id": "fvb-0dOWBGjs2RCa7o0QZnHhVFw=", "properties": {"@spider": "usps_collection_boxes", "addr:city": "SONOMA", "addr:country": "US", "addr:full": "617 BROADWAY", "addr:postcode": "95476", "addr:state": "CA", "brand": "USPS", "collection_times": "Mo-Fr 17:30; Sa 16:00", "name": "USPS COLLECTION BOX - APC", "note": "ON 12/24 AND 12/31, THIS BOX MAY BE COLLECTED AS EARLY AS 12 NOON.", "ref": "9547600051"}, "type": "Feature"}
{"geometry": {"coordinates": [-122.4872445358, 38.300247179], "type": "Point"}, "id": "9mSApce59UC2O9iRj7gFRlnikZM=", "properties": {"@spider": "usps_collection_boxes", "addr:city": "SONOMA", "addr:country": "US", "addr:full": "19050 BAY ST", "addr:postcode": "95476", "addr:state": "CA", "brand": "USPS", "collection_times": "Mo-Fr 17:00; Sa 14:45", "name": "USPS COLLECTION BOX - BLUE BOX", "note": "ON 12/24 AND 12/31, THIS BOX MAY BE COLLECTED AS EARLY AS 12 NOON.", "ref": "9547600052"}, "type": "Feature"}
{"geometry": {"coordinates": [-122.4582363237, 38.28978835], "type": "Point"}, "id": "zAdiQZae61zWvnFRmbOFv2XU9q0=", "properties": {"@spider": "usps_collection_boxes", "addr:city": "SONOMA", "addr:country": "US", "addr:full": "617 BROADWAY", "addr:postcode": "95476", "addr:state": "CA", "brand": "USPS", "collection_times": "Mo-Fr 17:00", "name": "USPS COLLECTION BOX - PO LOBBY", "note": "ON 12/24 AND 12/31, THIS BOX MAY BE COLLECTED AS EARLY AS 12 NOON.", "ref": "9547600058"}, "type": "Feature"}
{"geometry": {"coordinates": [-123.1665204446, 39.1332044788], "type": "Point"}, "id": "98nruYX6aMEq-tlK9B68ooerMLA=", "properties": {"@spider": "usps_collection_boxes", "addr:city": "TALMAGE", "addr:country": "US", "addr:full": "1986 TALMAGE RD", "addr:postcode": "95481", "addr:state": "CA", "brand": "USPS", "collection_times": "Mo-Fr 17:00", "name": "USPS COLLECTION BOX - PO LOBBY", "note": "ON 12/24 AND 12/31, THIS BOX MAY BE COLLECTED AS EARLY AS 12 NOON.", "ref": "9548100005"}, "type": "Feature"}
{"geometry": {"coordinates": [-123.208683, 39.150111], "type": "Point"}, "id": "U9915sJYWQrY1MozEwNly37LvXY=", "properties": {"@spider": "usps_collection_boxes", "addr:city": "UKIAH", "addr:country": "US", "addr:full": "100 N SCHOOL ST", "addr:postcode": "95482", "addr:state": "CA", "brand": "USPS", "collection_times": "Mo-Fr 13:30; Sa 13:00", "name": "USPS COLLECTION BOX - BLUE BOX", "note": "ON 12/24 AND 12/31, THIS BOX MAY BE COLLECTED AS EARLY AS 12 NOON.", "ref": "9548200002"}, "type": "Feature"}
{"geometry": {"coordinates": [-123.203626, 39.152596], "type": "Point"}, "id": "RXrykKE1xot-OjSN4wahxQbTJOk=", "properties": {"@spider": "usps_collection_boxes", "addr:city": "UKIAH", "addr:country": "US", "addr:full": "275 HOSPITAL DR", "addr:postcode": "95482", "addr:state": "CA", "brand": "USPS", "collection_times": "Mo-Fr 15:00; Sa 13:00", "name": "USPS COLLECTION BOX - BLUE BOX", "note": "ON 12/24 AND 12/31, THIS BOX MAY BE COLLECTED AS EARLY AS 12 NOON.", "ref": "9548200009"}, "type": "Feature"}
{"geometry": {"coordinates": [-123.200832, 39.152972], "type": "Point"}, "id": "uT2MiCQRPcuVqXygl0QsIy8lZNM=", "properties": {"@spider": "usps_collection_boxes", "addr:city": "UKIAH", "addr:country": "US", "addr:full": "530 E PERKINS ST", "addr:postcode": "95482", "addr:state": "CA", "brand": "USPS", "collection_times": "Mo-Fr 15:00; Sa 13:00", "name": "USPS COLLECTION BOX - BLUE BOX", "note": "ON 12/24 AND 12/31, THIS BOX MAY BE COLLECTED AS EARLY AS 12 NOON.", "ref": "9548200010"}, "type": "Feature"}
{"geometry": {"coordinates": [-123.1985051655, 39.1454911529], "type": "Point"}, "id": "7ClBXm6qjTK9UarWfAAF9Y2Qm2Y=", "properties": {"@spider": "usps_collection_boxes", "addr:city": "UKIAH", "addr:country": "US", "addr:full": "671 S ORCHARD AVE", "addr:postcode": "95482", "addr:state": "CA", "brand": "USPS", "collection_times": "Mo-Fr 17:00; Sa 14:15", "name": "USPS COLLECTION BOX - PO LOBBY", "note": "ON 12/24 AND 12/31, THIS BOX MAY BE COLLECTED AS EARLY AS 12 NOON.", "ref": "9548200018"}, "type": "Feature"}
{"geometry": {"coordinates": [-123.209934, 39.150343], "type": "Point"}, "id": "DWyF9ElGvhS1jPhlX7H2fKHRyF0=", "properties": {"@spider": "usps_collection_boxes", "addr:city": "UKIAH", "addr:country": "US", "addr:full": "300 W STANDLEY ST", "addr:postcode": "95482", "addr:state": "CA", "brand": "USPS", "collection_times": "Mo-Sa 14:15", "name": "USPS COLLECTION BOX - BLUE BOX", "note": "ON 12/24 AND 12/31, THIS BOX MAY BE COLLECTED AS EARLY AS 12 NOON.", "ref": "9548200020"}, "type": "Feature"}
{"geometry": {"coordinates": [-123.20993, 39.150346], "type": "Point"}, "id": "OyXf24Rc0-UscQ3HwsjkVQOUVJc=", "properties": {"@spider": "usps_collection_boxes", "addr:city": "UKIAH", "addr:country": "US", "addr:full": "300 W STANDLEY ST", "addr:postcode": "95482", "addr:state": "CA", "brand": "USPS", "collection_times": "Mo-Sa 14:15", "name": "USPS COLLECTION BOX - BLUE BOX", "note": "ON 12/24 AND 12/31, THIS BOX MAY BE COLLECTED AS EARLY AS 12 NOON.", "ref": "9548200022"}, "type": "Feature"}
{"geometry": {"coordinates": [-123.197048, 39.110738], "type": "Point"}, "id": "xNBViS9TFISPdyvIlajT5sV7azc=", "properties": {"@spider": "usps_collection_boxes", "addr:city": "UKIAH", "addr:country": "US", "addr:full": "3001 S STATE ST", "addr:postcode": "95482", "addr:state": "CA", "brand": "USPS", "collection_times": "Mo-Fr 15:00; Sa 13:00", "name": "USPS COLLECTION BOX - BLUE BOX", "note": "ON 12/24 AND 12/31, THIS BOX MAY BE COLLECTED AS EARLY AS 12 NOON.", "ref": "9548200027"}, "type": "Feature"}
{"geometry": {"coordinates": [-123.199461, 39.142965], "type": "Point"}, "id": "fV296hhMohqG6mLqItrL12mxKyg=", "properties": {"@spider": "usps_collection_boxes", "addr:city": "UKIAH", "addr:country": "US", "addr:full": "425 E GOBBI ST", "addr:postcode": "95482", "addr:state": "CA", "brand": "USPS", "collection_times": "Mo-Sa 13:00", "name": "USPS COLLECTION BOX - BLUE BOX", "note": "ON 12/24 AND 12/31, THIS BOX MAY BE COLLECTED AS EARLY AS 12 NOON.", "ref": "9548200032"}, "type": "Feature"}
{"geometry": {"coordinates": [-123.209542, 39.136152], "type": "Point"}, "id": "GtNaGJ5HyLp-yZ_zWHYmkj2ZdNs=", "properties": {"@spider": "usps_collection_boxes", "addr:city": "UKIAH", "addr:country": "US", "addr:full": "1165 S DORA ST", "addr:postcode": "95482", "addr:state": "CA", "brand": "USPS", "collection_times": "Mo-Fr 15:00; Sa 13:00", "name": "USPS COLLECTION BOX - BLUE BOX", "note": "ON 12/24 AND 12/31, THIS BOX MAY BE COLLECTED AS EARLY AS 12 NOON.", "ref": "9548200034"}, "type": "Feature"}
{"geometry": {"coordinates": [-123.209535, 39.168221], "type": "Point"}, "id": "1g9KaeqTn9DDGgJjEnxjoRwjOUY=", "properties": {"@spider": "usps_collection_boxes", "addr:city": "UKIAH", "addr:country": "US", "addr:full": "1315 N STATE ST", "addr:postcode": "95482", "addr:state": "CA", "brand": "USPS", "collection_times": "Mo-Fr 15:00; Sa 13:00", "name": "USPS COLLECTION BOX - BLUE BOX", "note": "ON 12/24 AND 12/31, THIS BOX MAY BE COLLECTED AS EARLY AS 12 NOON.", "ref": "9548200040"}, "type": "Feature"}
{"geometry": {"coordinates": [-123.1985051655, 39.1454911529], "type": "Point"}, "id": "j4b_VQJKvidw9uxOlpsA_IQIVNU=", "properties": {"@spider": "usps_collection_boxes", "addr:city": "UKIAH", "addr:country": "US", "addr:full": "671 S ORCHARD AVE", "addr:postcode": "95482", "addr:state": "CA", "brand": "USPS", "collection_times": "Mo-Fr 15:15; Sa 14:15", "name": "USPS COLLECTION BOX - EXPRESS", "note": "ON 12/24 AND 12/31, THIS BOX MAY BE COLLECTED AS EARLY AS 12 NOON.", "ref": "9548200042"}, "type": "Feature"}
{"geometry": {"coordinates": [-123.1985051655, 39.1454911529], "type": "Point"}, "id": "9xk8Kkc5MB5c8p6j6MGPFEiRf2E=", "properties": {"@spider": "usps_collection_boxes", "addr:city": "UKIAH", "addr:country": "US", "addr:full": "671 S ORCHARD AVE", "addr:postcode": "95482", "addr:state": "CA", "brand": "USPS", "collection_times": "Mo-Fr 17:15; Sa 14:30", "name": "USPS COLLECTION BOX - BLUE BOX", "note": "ON 12/24 AND 12/31, THIS BOX MAY BE COLLECTED AS EARLY AS 12 NOON.", "ref": "9548200043"}, "type": "Feature"}
{"geometry": {"coordinates": [-123.166508, 39.133367], "type": "Point"}, "id": "jA0CPgBVXhxmOEvBIyMF9W-jJ7Y=", "properties": {"@spider": "usps_collection_boxes", "addr:city": "UKIAH", "addr:country": "US", "addr:full": "1986 TALMAGE RD", "addr:postcode": "95482", "addr:state": "CA", "brand": "USPS", "collection_times": "Mo-Fr 17:00; Sa 14:00", "name": "USPS COLLECTION BOX - BLUE BOX", "note": "ON 12/24 AND 12/31, THIS BOX MAY BE COLLECTED AS EARLY AS 12 NOON.", "ref": "9548200044"}, "type": "Feature"}
{"geometry": {"coordinates": [-123.206431, 39.144213], "type": "Point"}, "id": "xP3EgO2bBs8nWil7Qw5J1S8WjhM=", "properties": {"@spider": "usps_collection_boxes", "addr:city": "UKIAH", "addr:country": "US", "addr:full": "653 S STATE ST", "addr:postcode": "95482", "addr:state": "CA", "brand": "USPS", "collection_times": "Mo-Fr 15:00; Sa 13:00", "name": "USPS COLLECTION BOX - BLUE BOX", "note": "ON 12/24 AND 12/31, THIS BOX MAY BE COLLECTED AS EARLY AS 12 NOON.", "ref": "9548200046"}, "type": "Feature"}
{"geometry": {"coordinates": [-123.1985051655, 39.1454911529], "type": "Point"}, "id": "bkxgXEzgwdVTpeuXNy0dV749K5g=", "properties": {"@spider": "usps_collection_boxes", "addr:city": "UKIAH", "addr:country": "US", "addr:full": "671 S ORCHARD AVE", "addr:postcode": "95482", "addr:state": "CA", "brand": "USPS", "collection_times": "Mo-Fr 17:15; Sa 14:30", "name": "USPS COLLECTION BOX - BLUE BOX", "note": "ON 12/24 AND 12/31, THIS BOX MAY BE COLLECTED AS EARLY AS 12 NOON.", "ref": "9548200047"}, "type": "Feature"}
{"geometry": {"coordinates": [-123.207107, 39.191744], "type": "Point"}, "id": "eL33zt5D7esqtzZcYkR4YmIsBVE=", "properties": {"@spider": "usps_collection_boxes", "addr:city": "UKIAH", "addr:country": "US", "addr:full": "3152 N STATE ST", "addr:postcode": "95482", "addr:state": "CA", "brand": "USPS", "collection_times": "Mo-Fr 15:00; Sa 13:00", "name": "USPS COLLECTION BOX - BLUE BOX", "note": "ON 12/24 AND 12/31, THIS BOX MAY BE COLLECTED AS EARLY AS 12 NOON.", "ref": "9548200048"}, "type": "Feature"}
{"geometry": {"coordinates": [-123.1985051655, 39.1454911529], "type": "Point"}, "id": "7F-DdJQyErFvb0DFiX5EpDRcIFk=", "properties": {"@spider": "usps_collection_boxes", "addr:city": "UKIAH", "addr:country": "US", "addr:full": "671 S ORCHARD AVE", "addr:postcode": "95482", "addr:state": "CA", "brand": "USPS", "collection_times": "Mo-Fr 17:00; Sa 14:15", "name": "USPS COLLECTION BOX - APC", "note": "ON 12/24 AND 12/31, THIS BOX MAY BE COLLECTED AS EARLY AS 12 NOON.", "ref": "9548200050"}, "type": "Feature"}
{"geometry": {"coordinates": [-123.1985051655, 39.1454911529], "type": "Point"}, "id": "zzB46h-NCCFBRSc0P5wAKxP9Jd8=", "properties": {"@spider": "usps_collection_boxes", "addr:city": "UKIAH", "addr:country": "US", "addr:full": "671 S ORCHARD AVE", "addr:postcode": "95482", "addr:state": "CA", "brand": "USPS", "collection_times": "Mo-Fr 17:00", "name": "USPS COLLECTION BOX - PO LOBBY", "note": "ON 12/24 AND 12/31, THIS BOX MAY BE COLLECTED AS EARLY AS 12 NOON.", "ref": "9548200058"}, "type": "Feature"}
{"geometry": {"coordinates": [-122.4387543625, 38.2711213744], "type": "Point"}, "id": "YKr4a7PSWxoM6FPo0UxS_cJJg8A=", "properties": {"@spider": "usps_collection_boxes", "addr:city": "VINEBURG", "addr:country": "US", "addr:full": "20579 8TH ST E", "addr:postcode": "95487", "addr:state": "CA", "brand": "USPS", "collection_times": "Mo-Fr 16:30; Sa 14:30", "name": "USPS COLLECTION BOX - BLUE BOX", "note": "ON 12/24 AND 12/31, THIS BOX MAY BE COLLECTED AS EARLY AS 12 NOON.", "ref": "9548700002"}, "type": "Feature"}
{"geometry": {"coordinates": [-122.439108, 38.27134], "type": "Point"}, "id": "iGtW-MMYgDt9JyX4hquJlp392sc=", "properties": {"@spider": "usps_collection_boxes", "addr:city": "VINEBURG", "addr:country": "US", "addr:full": "20579 8TH ST E", "addr:postcode": "95487", "addr:state": "CA", "brand": "USPS", "collection_times": "Mo-Fr 16:30", "name": "USPS COLLECTION BOX - PO LOBBY", "note": "ON 12/24 AND 12/31, THIS BOX MAY BE COLLECTED AS EARLY AS 12 NOON.", "ref": "9548700003"}, "type": "Feature"}
{"geometry": {"coordinates": [-122.438748211, 38.2712377363], "type": "Point"}, "id": "zapjoLnagTGSEtNBuGo_iUEPGpQ=", "properties": {"@spider": "usps_collection_boxes", "addr:city": "VINEBURG", "addr:country": "US", "addr:full": "20579 8TH ST E", "addr:postcode": "95487", "addr:state": "CA", "brand": "USPS", "collection_times": "Mo-Fr 16:30", "name": "USPS COLLECTION BOX - PO LOBBY", "note": "ON 12/24 AND 12/31, THIS BOX MAY BE COLLECTED AS EARLY AS 12 NOON.", "ref": "9548700005"}, "type": "Feature"}
{"geometry": {"coordinates": [-123.347593, 39.391112], "type": "Point"}, "id": "FDTqxw6HbrpvGKgQ86jzFb563-U=", "properties": {"@spider": "usps_collection_boxes", "addr:city": "WILLITS", "addr:country": "US", "addr:full": "1700 S MAIN ST", "addr:postcode": "95490", "addr:state": "CA", "brand": "USPS", "collection_times": "Mo-Fr 15:15; Sa 13:00", "name": "USPS COLLECTION BOX - BLUE BOX", "note": "ON 12/24 AND 12/31, THIS BOX MAY BE COLLECTED AS EARLY AS 12 NOON.", "ref": "9549000004"}, "type": "Feature"}
{"geometry": {"coordinates": [-123.3541636553, 39.4090270817], "type": "Point"}, "id": "xrelct_HT84bhN-HAEaa6mxOjRs=", "properties": {"@spider": "usps_collection_boxes", "addr:city": "WILLITS", "addr:country": "US", "addr:full": "10 W VALLEY ST", "addr:postcode": "95490", "addr:state": "CA", "brand": "USPS", "collection_times": "Mo-Fr 15:30; Sa 13:00", "name": "USPS COLLECTION BOX - BLUE BOX", "note": "ON 12/24 AND 12/31, THIS BOX MAY BE COLLECTED AS EARLY AS 12 NOON.", "ref": "9549000007"}, "type": "Feature"}
{"geometry": {"coordinates": [-123.35591, 39.410621], "type": "Point"}, "id": "jSPX4-PgRDaD0_rkPpxHVG9kFCM=", "properties": {"@spider": "usps_collection_boxes", "addr:city": "WILLITS", "addr:country": "US", "addr:full": "99 WOOD ST", "addr:postcode": "95490", "addr:state": "CA", "brand": "USPS", "collection_times": "Mo-Fr 15:30; Sa 13:00", "name": "USPS COLLECTION BOX - BLUE BOX", "note": "ON 12/24 AND 12/31, THIS BOX MAY BE COLLECTED AS EARLY AS 12 NOON.", "ref": "9549000009"}, "type": "Feature"}
{"geometry": {"coordinates": [-123.3544625526, 39.4123757244], "type": "Point"}, "id": "vazvqhltn4H_FM3sDPoygxUChME=", "properties": {"@spider": "usps_collection_boxes", "addr:city": "WILLITS", "addr:country": "US", "addr:full": "1 S MAIN ST", "addr:postcode": "95490", "addr:state": "CA", "brand": "USPS", "collection_times": "Mo-Fr 15:30; Sa 13:00", "name": "USPS COLLECTION BOX - BLUE BOX", "note": "ON 12/24 AND 12/31, THIS BOX MAY BE COLLECTED AS EARLY AS 12 NOON.", "ref": "9549000010"}, "type": "Feature"}
{"geometry": {"coordinates": [-123.353505, 39.409039], "type": "Point"}, "id": "JCzPbLVEFie7k22YydrJhbu4EWk=", "properties": {"@spider": "usps_collection_boxes", "addr:city": "WILLITS", "addr:country": "US", "addr:full": "315 S MAIN ST", "addr:postcode": "95490", "addr:state": "CA", "brand": "USPS", "collection_times": "Mo-Sa 16:00", "name": "USPS COLLECTION BOX - PO LOBBY", "note": "ON 12/24 AND 12/31, THIS BOX MAY BE COLLECTED AS EARLY AS 12 NOON.", "ref": "9549000011"}, "type": "Feature"}
{"geometry": {"coordinates": [-123.384633, 39.436725], "type": "Point"}, "id": "Jrm_rYTIdwVvtZfcGeOpwL4Mgbc=", "properties": {"@spider": "usps_collection_boxes", "addr:city": "WILLITS", "addr:country": "US", "addr:full": "24860 BIRCH ST", "addr:postcode": "95490", "addr:state": "CA", "brand": "USPS", "collection_times": "Mo-Sa 12:00", "name": "USPS COLLECTION BOX - BLUE BOX", "ref": "9549000012"}, "type": "Feature"}
{"geometry": {"coordinates": [-123.353505, 39.409039], "type": "Point"}, "id": "UfQLIDrSauJhPsrEu2ULwEq0qqA=", "properties": {"@spider": "usps_collection_boxes", "addr:city": "WILLITS", "addr:country": "US", "addr:full": "315 S MAIN ST", "addr:postcode": "95490", "addr:state": "CA", "brand": "USPS", "collection_times": "Mo-Sa 16:00", "name": "USPS COLLECTION BOX - PO LOBBY", "note": "ON 12/24 AND 12/31, THIS BOX MAY BE COLLECTED AS EARLY AS 12 NOON.", "ref": "9549000013"}, "type": "Feature"}
{"geometry": {"coordinates": [-123.3535055941, 39.4090356942], "type": "Point"}, "id": "oEzrtioUdjt8AhFqj27FCwdbaIA=", "properties": {"@spider": "usps_collection_boxes", "addr:city": "WILLITS", "addr:country": "US", "addr:full": "315 S MAIN ST", "addr:postcode": "95490", "addr:state": "CA", "brand": "USPS", "collection_times": "Mo-Fr 17:00", "name": "USPS COLLECTION BOX - PO LOBBY", "note": "ON 12/24 AND 12/31, THIS BOX MAY BE COLLECTED AS EARLY AS 12 NOON.", "ref": "9549000017"}, "type": "Feature"}
