{"geometry": {"coordinates": [-124.174611, 40.7965495317], "type": "Point"}, "id": "QvNt9CvTRBcs5AtZZhOr7A0o4VI=", "properties": {"@source_uri": "https://tools.usps.com/UspsToolsRestServices/rest/POLocator/findLocations", "@spider": "usps_collection_boxes", "addr:city": "EUREKA", "addr:country": "US", "addr:postcode": "95501", "addr:state": "CA", "addr:street_address": "337 W CLARK ST", "amenity": "post_box", "brand": "United States Postal Service", "brand:wikidata": "Q668687", "collection_times": "Mo-Fr 16:00", "name": "USPS COLLECTION BOX - EXPRESS", "note": "ON 12/24 AND 12/31, THIS BOX MAY BE COLLECTED AS EARLY AS 12 NOON.", "nsi_id": "unitedstatespostalservice-a77078", "operator": "United States Postal Service", "operator:short": "USPS", "operator:type": "public", "operator:wikidata": "Q668687", "ref": "9550100002"}, "type": "Feature"}
{"geometry": {"coordinates": [-124.168424, 40.799839], "type": "Point"}, "id": "0MMHkuVTt4_wjJW7HL6vc19VUsA=", "properties": {"@source_uri": "https://tools.usps.com/UspsToolsRestServices/rest/POLocator/findLocations", "@spider": "usps_collection_boxes", "addr:city": "EUREKA", "addr:country": "US", "addr:postcode": "95501", "addr:state": "CA", "addr:street_address": "212 7TH ST", "amenity": "post_box", "brand": "United States Postal Service", "brand:wikidata": "Q668687", "collection_times": "Mo-Sa 09:00", "nsi_id": "unitedstatespostalservice-a77078", "operator": "United States Postal Service", "operator:short": "USPS", "operator:type": "public", "operator:wikidata": "Q668687", "ref": "9550100003"}, "type": "Feature"}
{"geometry": {"coordinates": [-124.166372, 40.798494], "type": "Point"}, "id": "m7sPpelvDrSnuo_1uUWSe8yP9dE=", "properties": {"@source_uri": "https://tools.usps.com/UspsToolsRestServices/rest/POLocator/findLocations", "@spider": "usps_collection_boxes", "addr:city": "EUREKA", "addr:country": "US", "addr:postcode": "95501", "addr:state": "CA", "addr:street_address": "840 E ST", "amenity": "post_box", "brand": "United States Postal Service", "brand:wikidata": "Q668687", "collection_times": "Mo-Sa 09:30", "nsi_id": "unitedstatespostalservice-a77078", "operator": "United States Postal Service", "operator:short": "USPS", "operator:type": "public", "operator:wikidata": "Q668687", "ref": "9550100007"}, "type": "Feature"}
{"geometry": {"coordinates": [-124.161564, 40.803488], "type": "Point"}, "id": "330r3IWZiji2p-nMbpv-CfclbB4=", "properties": {"@source_uri": "https://tools.usps.com/UspsToolsRestServices/rest/POLocator/findLocations", "@spider": "usps_collection_boxes", "addr:city": "EUREKA", "addr:country": "US", "addr:postcode": "95501", "addr:state": "CA", "addr:street_address": "905 4TH ST", "amenity": "post_box", "brand": "United States Postal Service", "brand:wikidata": "Q668687", "collection_times": "Mo-Sa 10:15", "nsi_id": "unitedstatespostalservice-a77078", "operator": "United States Postal Service", "operator:short": "USPS", "operator:type": "public", "operator:wikidata": "Q668687", "ref": "9550100017"}, "type": "Feature"}
{"geometry": {"coordinates": [-124.162616, 40.800645], "type": "Point"}, "id": "DtMSCxuqQewZlSOpp8NKc03sOWs=", "properties": {"@source_uri": "https://tools.usps.com/UspsToolsRestServices/rest/POLocator/findLocations", "@spider": "usps_collection_boxes", "addr:city": "EUREKA", "addr:country": "US", "addr:postcode": "95501", "addr:state": "CA", "addr:street_address": "730 7TH ST", "amenity": "post_box", "brand": "United States Postal Service", "brand:wikidata": "Q668687", "collection_times": "Mo-Sa 09:00", "nsi_id": "unitedstatespostalservice-a77078", "operator": "United States Postal Service", "operator:short": "USPS", "operator:type": "public", "operator:wikidata": "Q668687", "ref": "9550100018"}, "type": "Feature"}
{"geometry": {"coordinates": [-124.136272, 40.794286], "type": "Point"}, "id": "Ko4AdytYGiij2kTMdZdlZ-6rZ2c=", "properties": {"@source_uri": "https://tools.usps.com/UspsToolsRestServices/rest/POLocator/findLocations", "@spider": "usps_collection_boxes", "addr:city": "EUREKA", "addr:country": "US", "addr:postcode": "95501", "addr:state": "CA", "addr:street_address": "1648 MYRTLE AVE", "amenity": "post_box", "brand": "United States Postal Service", "brand:wikidata": "Q668687", "collection_times": "Mo-Sa 09:00", "nsi_id": "unitedstatespostalservice-a77078", "operator": "United States Postal Service", "operator:short": "USPS", "operator:type": "public", "operator:wikidata": "Q668687", "ref": "9550100022"}, "type": "Feature"}
{"geometry": {"coordinates": [-124.131391, 40.78605], "type": "Point"}, "id": "-vfFi7WA4yBqg4vbDJ11Gd8-fgQ=", "properties": {"@source_uri": "https://tools.usps.com/UspsToolsRestServices/rest/POLocator/findLocations", "@spider": "usps_collection_boxes", "addr:city": "EUREKA", "addr:country": "US", "addr:postcode": "95501", "addr:state": "CA", "addr:street_address": "2385 MYRTLE AVE", "amenity": "post_box", "brand": "United States Postal Service", "brand:wikidata": "Q668687", "collection_times": "Mo-Sa 11:00", "nsi_id": "unitedstatespostalservice-a77078", "operator": "United States Postal Service", "operator:short": "USPS", "operator:type": "public", "operator:wikidata": "Q668687", "ref": "9550100026"}, "type": "Feature"}
{"geometry": {"coordinates": [-124.167315, 40.798285], "type": "Point"}, "id": "W52F5TDDtOGhIm0O27uNDPHXK8Q=", "properties": {"@source_uri": "https://tools.usps.com/UspsToolsRestServices/rest/POLocator/findLocations", "@spider": "usps_collection_boxes", "addr:city": "EUREKA", "addr:country": "US", "addr:postcode": "95501", "addr:state": "CA", "addr:street_address": "2521 H ST", "amenity": "post_box", "brand": "United States Postal Service", "brand:wikidata": "Q668687", "collection_times": "Mo-Fr 17:00; Sa 16:15", "note": "ON 12/24 AND 12/31, THIS BOX MAY BE COLLECTED AS EARLY AS 12 NOON.", "nsi_id": "unitedstatespostalservice-a77078", "operator": "United States Postal Service", "operator:short": "USPS", "operator:type": "public", "operator:wikidata": "Q668687", "ref": "9550100029"}, "type": "Feature"}
{"geometry": {"coordinates": [-124.167315, 40.798285], "type": "Point"}, "id": "xH0DqTy--yllZbsfgyufE0lybm8=", "properties": {"@source_uri": "https://tools.usps.com/UspsToolsRestServices/rest/POLocator/findLocations", "@spider": "usps_collection_boxes", "addr:city": "EUREKA", "addr:country": "US", "addr:postcode": "95501", "addr:state": "CA", "addr:street_address": "2521 H ST", "amenity": "post_box", "brand": "United States Postal Service", "brand:wikidata": "Q668687", "collection_times": "Mo-Fr 17:00; Sa 16:15", "note": "ON 12/24 AND 12/31, THIS BOX MAY BE COLLECTED AS EARLY AS 12 NOON.", "nsi_id": "unitedstatespostalservice-a77078", "operator": "United States Postal Service", "operator:short": "USPS", "operator:type": "public", "operator:wikidata": "Q668687", "ref": "9550100031"}, "type": "Feature"}
{"geometry": {"coordinates": [-124.167315, 40.798285], "type": "Point"}, "id": "2MoqOTIAqKg5XZxBi3zk-X7HojE=", "properties": {"@source_uri": "https://tools.usps.com/UspsToolsRestServices/rest/POLocator/findLocations", "@spider": "usps_collection_boxes", "addr:city": "EUREKA", "addr:country": "US", "addr:postcode": "95501", "addr:state": "CA", "addr:street_address": "2522 I ST", "amenity": "post_box", "brand": "United States Postal Service", "brand:wikidata": "Q668687", "collection_times": "Mo-Fr 17:00; Sa 16:00", "note": "ON 12/24 AND 12/31, THIS BOX MAY BE COLLECTED AS EARLY AS 12 NOON.", "nsi_id": "unitedstatespostalservice-a77078", "operator": "United States Postal Service", "operator:short": "USPS", "operator:type": "public", "operator:wikidata": "Q668687", "ref": "9550100033"}, "type": "Feature"}
{"geometry": {"coordinates": [-124.167315, 40.798285], "type": "Point"}, "id": "hC5nfg9tb4xhBq-t7qiOsHzYWAs=", "properties": {"@source_uri": "https://tools.usps.com/UspsToolsRestServices/rest/POLocator/findLocations", "@spider": "usps_collection_boxes", "addr:city": "EUREKA", "addr:country": "US", "addr:postcode": "95501", "addr:state": "CA", "addr:street_address": "2522 I ST", "amenity": "post_box", "brand": "United States Postal Service", "brand:wikidata": "Q668687", "collection_times": "Mo-Fr 17:00; Sa 16:00", "note": "ON 12/24 AND 12/31, THIS BOX MAY BE COLLECTED AS EARLY AS 12 NOON.", "nsi_id": "unitedstatespostalservice-a77078", "operator": "United States Postal Service", "operator:short": "USPS", "operator:type": "public", "operator:wikidata": "Q668687", "ref": "9550100034"}, "type": "Feature"}
{"geometry": {"coordinates": [-124.16403, 40.78052], "type": "Point"}, "id": "SOxuFGe7F8hGX61t003XLwwXxzQ=", "properties": {"@source_uri": "https://tools.usps.com/UspsToolsRestServices/rest/POLocator/findLocations", "@spider": "usps_collection_boxes", "addr:city": "EUREKA", "addr:country": "US", "addr:postcode": "95501", "addr:state": "CA", "addr:street_address": "411 HARRIS ST", "amenity": "post_box", "brand": "United States Postal Service", "brand:wikidata": "Q668687", "collection_times": "Mo-Fr 17:00; Sa 16:30", "note": "ON 12/24 AND 12/31, THIS BOX MAY BE COLLECTED AS EARLY AS 12 NOON.", "nsi_id": "unitedstatespostalservice-a77078", "operator": "United States Postal Service", "operator:short": "USPS", "operator:type": "public", "operator:wikidata": "Q668687", "ref": "9550100036"}, "type": "Feature"}
{"geometry": {"coordinates": [-124.1635967215, 40.7814216181], "type": "Point"}, "id": "ieS-Qftyv-8iazuBclEfkUywW-E=", "properties": {"@source_uri": "https://tools.usps.com/UspsToolsRestServices/rest/POLocator/findLocations", "@spider": "usps_collection_boxes", "addr:city": "EUREKA", "addr:country": "US", "addr:postcode": "95501", "addr:state": "CA", "addr:street_address": "2906 F ST", "amenity": "post_box", "brand": "United States Postal Service", "brand:wikidata": "Q668687", "collection_times": "Mo-Fr 17:00; Sa 16:30", "indoor": "yes", "note": "ON 12/24 AND 12/31, THIS BOX MAY BE COLLECTED AS EARLY AS 12 NOON.", "nsi_id": "unitedstatespostalservice-a77078", "operator": "United States Postal Service", "operator:short": "USPS", "operator:type": "public", "operator:wikidata": "Q668687", "ref": "9550100037"}, "type": "Feature"}
{"geometry": {"coordinates": [-124.158875, 40.802124], "type": "Point"}, "id": "v37CmG1hvWMNIjRGLH8aoMicNyM=", "properties": {"@source_uri": "https://tools.usps.com/UspsToolsRestServices/rest/POLocator/findLocations", "@spider": "usps_collection_boxes", "addr:city": "EUREKA", "addr:country": "US", "addr:postcode": "95501", "addr:state": "CA", "addr:street_address": "1105 6TH ST", "amenity": "post_box", "brand": "United States Postal Service", "brand:wikidata": "Q668687", "collection_times": "Mo-Fr 15:00", "note": "ON 12/24 AND 12/31, THIS BOX MAY BE COLLECTED AS EARLY AS 12 NOON.", "nsi_id": "unitedstatespostalservice-a77078", "operator": "United States Postal Service", "operator:short": "USPS", "operator:type": "public", "operator:wikidata": "Q668687", "ref": "9550100039"}, "type": "Feature"}
{"geometry": {"coordinates": [-124.139678331, 40.786667665], "type": "Point"}, "id": "0uw7uEieZzyIEOPdLHwBCrlPt2U=", "properties": {"@source_uri": "https://tools.usps.com/UspsToolsRestServices/rest/POLocator/findLocations", "@spider": "usps_collection_boxes", "addr:city": "EUREKA", "addr:country": "US", "addr:postcode": "95501", "addr:state": "CA", "addr:street_address": "2316 HARRISON AVE", "amenity": "post_box", "brand": "United States Postal Service", "brand:wikidata": "Q668687", "collection_times": "Mo-Fr 17:00; Sa 15:45", "note": "ON 12/24 AND 12/31, THIS BOX MAY BE COLLECTED AS EARLY AS 12 NOON.", "nsi_id": "unitedstatespostalservice-a77078", "operator": "United States Postal Service", "operator:short": "USPS", "operator:type": "public", "operator:wikidata": "Q668687", "ref": "9550100044"}, "type": "Feature"}
{"geometry": {"coordinates": [-124.167315, 40.798285], "type": "Point"}, "id": "tsQTswZZQRI2cOa-hDPrhCz7FhQ=", "properties": {"@source_uri": "https://tools.usps.com/UspsToolsRestServices/rest/POLocator/findLocations", "@spider": "usps_collection_boxes", "addr:city": "EUREKA", "addr:country": "US", "addr:postcode": "95501", "addr:state": "CA", "addr:street_address": "514 H ST", "amenity": "post_box", "brand": "United States Postal Service", "brand:wikidata": "Q668687", "collection_times": "Mo-Fr 17:00; Sa 16:15", "indoor": "yes", "note": "ON 12/24 AND 12/31, THIS BOX MAY BE COLLECTED AS EARLY AS 12 NOON.", "nsi_id": "unitedstatespostalservice-a77078", "operator": "United States Postal Service", "operator:short": "USPS", "operator:type": "public", "operator:wikidata": "Q668687", "ref": "9550100045"}, "type": "Feature"}
{"geometry": {"coordinates": [-124.1636146369, 40.8016109542], "type": "Point"}, "id": "4N6WcKgJMJE61emc5I7ijLO7rfU=", "properties": {"@source_uri": "https://tools.usps.com/UspsToolsRestServices/rest/POLocator/findLocations", "@spider": "usps_collection_boxes", "addr:city": "EUREKA", "addr:country": "US", "addr:postcode": "95501", "addr:state": "CA", "addr:street_address": "555 H ST", "amenity": "post_box", "brand": "United States Postal Service", "brand:wikidata": "Q668687", "collection_times": "Mo-Fr 17:00; Sa 16:15", "note": "ON 12/24 AND 12/31, THIS BOX MAY BE COLLECTED AS EARLY AS 12 NOON.", "nsi_id": "unitedstatespostalservice-a77078", "operator": "United States Postal Service", "operator:short": "USPS", "operator:type": "public", "operator:wikidata": "Q668687", "ref": "9550100046"}, "type": "Feature"}
{"geometry": {"coordinates": [-124.1636146369, 40.8016109542], "type": "Point"}, "id": "_S3hhDiyz97wvB8qYsmLftdApzE=", "properties": {"@source_uri": "https://tools.usps.com/UspsToolsRestServices/rest/POLocator/findLocations", "@spider": "usps_collection_boxes", "addr:city": "EUREKA", "addr:country": "US", "addr:postcode": "95501", "addr:state": "CA", "addr:street_address": "555 H ST", "amenity": "post_box", "brand": "United States Postal Service", "brand:wikidata": "Q668687", "collection_times": "Mo-Fr 17:00; Sa 16:15", "note": "ON 12/24 AND 12/31, THIS BOX MAY BE COLLECTED AS EARLY AS 12 NOON.", "nsi_id": "unitedstatespostalservice-a77078", "operator": "United States Postal Service", "operator:short": "USPS", "operator:type": "public", "operator:wikidata": "Q668687", "ref": "9550100047"}, "type": "Feature"}
{"geometry": {"coordinates": [-124.1636146369, 40.8016109542], "type": "Point"}, "id": "bm17AJr45LwcbwGXJkbIGhLWVEU=", "properties": {"@source_uri": "https://tools.usps.com/UspsToolsRestServices/rest/POLocator/findLocations", "@spider": "usps_collection_boxes", "addr:city": "EUREKA", "addr:country": "US", "addr:postcode": "95501", "addr:state": "CA", "addr:street_address": "555 H ST", "amenity": "post_box", "brand": "United States Postal Service", "brand:wikidata": "Q668687", "collection_times": "Mo-Fr 17:00; Sa 16:15", "note": "ON 12/24 AND 12/31, THIS BOX MAY BE COLLECTED AS EARLY AS 12 NOON.", "nsi_id": "unitedstatespostalservice-a77078", "operator": "United States Postal Service", "operator:short": "USPS", "operator:type": "public", "operator:wikidata": "Q668687", "ref": "9550100048"}, "type": "Feature"}
{"geometry": {"coordinates": [-124.167678, 40.802662], "type": "Point"}, "id": "rqzcloy59x2NN3QBRSWN_YUKwx8=", "properties": {"@source_uri": "https://tools.usps.com/UspsToolsRestServices/rest/POLocator/findLocations", "@spider": "usps_collection_boxes", "addr:city": "EUREKA", "addr:country": "US", "addr:postcode": "95501", "addr:state": "CA", "addr:street_address": "307 4TH ST", "amenity": "post_box", "brand": "United States Postal Service", "brand:wikidata": "Q668687", "collection_times": "Mo-Fr 15:00", "note": "ON 12/24 AND 12/31, THIS BOX MAY BE COLLECTED AS EARLY AS 12 NOON.", "nsi_id": "unitedstatespostalservice-a77078", "operator": "United States Postal Service", "operator:short": "USPS", "operator:type": "public", "operator:wikidata": "Q668687", "ref": "9550100053"}, "type": "Feature"}
{"geometry": {"coordinates": [-124.166293, 40.80293], "type": "Point"}, "id": "hvo6IHRNNwcGY83g_XjPI-T2jxE=", "properties": {"@source_uri": "https://tools.usps.com/UspsToolsRestServices/rest/POLocator/findLocations", "@spider": "usps_collection_boxes", "addr:city": "EUREKA", "addr:country": "US", "addr:postcode": "95501", "addr:state": "CA", "addr:street_address": "334 F ST", "amenity": "post_box", "brand": "United States Postal Service", "brand:wikidata": "Q668687", "collection_times": "Mo-Fr 15:00", "note": "ON 12/24 AND 12/31, THIS BOX MAY BE COLLECTED AS EARLY AS 12 NOON.", "nsi_id": "unitedstatespostalservice-a77078", "operator": "United States Postal Service", "operator:short": "USPS", "operator:type": "public", "operator:wikidata": "Q668687", "ref": "9550100054"}, "type": "Feature"}
{"geometry": {"coordinates": [-124.164952, 40.804709], "type": "Point"}, "id": "r_nSbwAbGEKfJmaaOOyxMeoDj_Q=", "properties": {"@source_uri": "https://tools.usps.com/UspsToolsRestServices/rest/POLocator/findLocations", "@spider": "usps_collection_boxes", "addr:city": "EUREKA", "addr:country": "US", "addr:postcode": "95501", "addr:state": "CA", "addr:street_address": "619 2ND ST", "amenity": "post_box", "brand": "United States Postal Service", "brand:wikidata": "Q668687", "collection_times": "Mo-Fr 15:00", "note": "ON 12/24 AND 12/31, THIS BOX MAY BE COLLECTED AS EARLY AS 12 NOON.", "nsi_id": "unitedstatespostalservice-a77078", "operator": "United States Postal Service", "operator:short": "USPS", "operator:type": "public", "operator:wikidata": "Q668687", "ref": "9550100058"}, "type": "Feature"}
{"geometry": {"coordinates": [-124.1621855826, 40.8024943661], "type": "Point"}, "id": "Kihl0h5AJ3-xLDDjaBcxu2QU_xw=", "properties": {"@source_uri": "https://tools.usps.com/UspsToolsRestServices/rest/POLocator/findLocations", "@spider": "usps_collection_boxes", "addr:city": "EUREKA", "addr:country": "US", "addr:postcode": "95501", "addr:state": "CA", "addr:street_address": "825 5TH ST", "amenity": "post_box", "brand": "United States Postal Service", "brand:wikidata": "Q668687", "collection_times": "Mo-Fr 17:00; Sa 15:30", "note": "ON 12/24 AND 12/31, THIS BOX MAY BE COLLECTED AS EARLY AS 12 NOON.", "nsi_id": "unitedstatespostalservice-a77078", "operator": "United States Postal Service", "operator:short": "USPS", "operator:type": "public", "operator:wikidata": "Q668687", "ref": "9550100059"}, "type": "Feature"}
{"geometry": {"coordinates": [-124.18679, 40.78043], "type": "Point"}, "id": "CCELwNNdFjyolFUiMKAeYFGONOg=", "properties": {"@source_uri": "https://tools.usps.com/UspsToolsRestServices/rest/POLocator/findLocations", "@spider": "usps_collection_boxes", "addr:city": "EUREKA", "addr:country": "US", "addr:postcode": "95501", "addr:state": "CA", "addr:street_address": "3240 BROADWAY", "amenity": "post_box", "brand": "United States Postal Service", "brand:wikidata": "Q668687", "collection_times": "Mo-Fr 17:00", "note": "ON 12/24 AND 12/31, THIS BOX MAY BE COLLECTED AS EARLY AS 12 NOON.", "nsi_id": "unitedstatespostalservice-a77078", "operator": "United States Postal Service", "operator:short": "USPS", "operator:type": "public", "operator:wikidata": "Q668687", "ref": "9550100064"}, "type": "Feature"}
{"geometry": {"coordinates": [-124.191035, 40.777807], "type": "Point"}, "id": "mVdpcFj-Q6xOx1WVZMAtT7Bo784=", "properties": {"@source_uri": "https://tools.usps.com/UspsToolsRestServices/rest/POLocator/findLocations", "@spider": "usps_collection_boxes", "addr:city": "EUREKA", "addr:country": "US", "addr:postcode": "95501", "addr:state": "CA", "addr:street_address": "3300 BROADWAY", "amenity": "post_box", "brand": "United States Postal Service", "brand:wikidata": "Q668687", "collection_times": "Mo-Fr 17:00; Sa 16:45", "note": "ON 12/24 AND 12/31, THIS BOX MAY BE COLLECTED AS EARLY AS 12 NOON.", "nsi_id": "unitedstatespostalservice-a77078", "operator": "United States Postal Service", "operator:short": "USPS", "operator:type": "public", "operator:wikidata": "Q668687", "ref": "9550100065"}, "type": "Feature"}
{"geometry": {"coordinates": [-124.174611, 40.7965495317], "type": "Point"}, "id": "My5HRVyKDPjDuxHooMeLPLLpQvU=", "properties": {"@source_uri": "https://tools.usps.com/UspsToolsRestServices/rest/POLocator/findLocations", "@spider": "usps_collection_boxes", "addr:city": "EUREKA", "addr:country": "US", "addr:postcode": "95501", "addr:state": "CA", "addr:street_address": "337 W CLARK ST", "amenity": "post_box", "brand": "United States Postal Service", "brand:wikidata": "Q668687", "collection_times": "Mo-Fr 18:30; Sa 17:00", "note": "ON 12/24 AND 12/31, THIS BOX MAY BE COLLECTED AS EARLY AS 12 NOON.", "nsi_id": "unitedstatespostalservice-a77078", "operator": "United States Postal Service", "operator:short": "USPS", "operator:type": "public", "operator:wikidata": "Q668687", "ref": "9550100066"}, "type": "Feature"}
{"geometry": {"coordinates": [-124.174693, 40.792945], "type": "Point"}, "id": "71-OY3tkv9wqjHxfHNxnZvtXFgk=", "properties": {"@source_uri": "https://tools.usps.com/UspsToolsRestServices/rest/POLocator/findLocations", "@spider": "usps_collection_boxes", "addr:city": "EUREKA", "addr:country": "US", "addr:postcode": "95501", "addr:state": "CA", "addr:street_address": "322 W 15TH ST", "amenity": "post_box", "brand": "United States Postal Service", "brand:wikidata": "Q668687", "collection_times": "Mo-Fr 17:00", "note": "ON 12/24 AND 12/31, THIS BOX MAY BE COLLECTED AS EARLY AS 12 NOON.", "nsi_id": "unitedstatespostalservice-a77078", "operator": "United States Postal Service", "operator:short": "USPS", "operator:type": "public", "operator:wikidata": "Q668687", "ref": "9550100070"}, "type": "Feature"}
{"geometry": {"coordinates": [-124.1636146369, 40.8016109542], "type": "Point"}, "id": "gO4roUzKZx2Fzg-6YEzWT_EinvQ=", "properties": {"@source_uri": "https://tools.usps.com/UspsToolsRestServices/rest/POLocator/findLocations", "@spider": "usps_collection_boxes", "addr:city": "EUREKA", "addr:country": "US", "addr:postcode": "95501", "addr:state": "CA", "addr:street_address": "555 H ST", "amenity": "post_box", "brand": "United States Postal Service", "brand:wikidata": "Q668687", "collection_times": "Mo-Fr 17:00; Sa 16:15", "note": "ON 12/24 AND 12/31, THIS BOX MAY BE COLLECTED AS EARLY AS 12 NOON.", "nsi_id": "unitedstatespostalservice-a77078", "operator": "United States Postal Service", "operator:short": "USPS", "operator:type": "public", "operator:wikidata": "Q668687", "ref": "9550100074"}, "type": "Feature"}
{"geometry": {"coordinates": [-124.142227, 40.783497], "type": "Point"}, "id": "ClO00cRK4o0C5XGPqcmvswXvS1E=", "properties": {"@source_uri": "https://tools.usps.com/UspsToolsRestServices/rest/POLocator/findLocations", "@spider": "usps_collection_boxes", "addr:city": "EUREKA", "addr:country": "US", "addr:postcode": "95501", "addr:state": "CA", "addr:street_address": "2700 DOLBEER ST", "amenity": "post_box", "brand": "United States Postal Service", "brand:wikidata": "Q668687", "collection_times": "Mo-Fr 17:00; Sa 16:00", "note": "ON 12/24 AND 12/31, THIS BOX MAY BE COLLECTED AS EARLY AS 12 NOON.", "nsi_id": "unitedstatespostalservice-a77078", "operator": "United States Postal Service", "operator:short": "USPS", "operator:type": "public", "operator:wikidata": "Q668687", "ref": "9550100077"}, "type": "Feature"}
{"geometry": {"coordinates": [-124.174611, 40.7965495317], "type": "Point"}, "id": "ka3YXd1LCUkmp7-ihcimLUlKoVg=", "properties": {"@source_uri": "https://tools.usps.com/UspsToolsRestServices/rest/POLocator/findLocations", "@spider": "usps_collection_boxes", "addr:city": "EUREKA", "addr:country": "US", "addr:postcode": "95501", "addr:state": "CA", "addr:street_address": "337 W CLARK ST", "amenity": "post_box", "brand": "United States Postal Service", "brand:wikidata": "Q668687", "collection_times": "Mo-Sa 17:00", "indoor": "yes", "note": "ON 12/24 AND 12/31, THIS BOX MAY BE COLLECTED AS EARLY AS 12 NOON.", "nsi_id": "unitedstatespostalservice-a77078", "operator": "United States Postal Service", "operator:short": "USPS", "operator:type": "public", "operator:wikidata": "Q668687", "ref": "9550100092"}, "type": "Feature"}
{"geometry": {"coordinates": [-124.1633179911, 40.8031466561], "type": "Point"}, "id": "pWvPXjdFVMmqYeJ4exH_kC9WS3A=", "properties": {"@source_uri": "https://tools.usps.com/UspsToolsRestServices/rest/POLocator/findLocations", "@spider": "usps_collection_boxes", "addr:city": "EUREKA", "addr:country": "US", "addr:postcode": "95501", "addr:state": "CA", "addr:street_address": "728 4TH ST", "amenity": "post_box", "brand": "United States Postal Service", "brand:wikidata": "Q668687", "collection_times": "Mo-Fr 17:00; Sa 16:00", "note": "ON 12/24 AND 12/31, THIS BOX MAY BE COLLECTED AS EARLY AS 12 NOON.", "nsi_id": "unitedstatespostalservice-a77078", "operator": "United States Postal Service", "operator:short": "USPS", "operator:type": "public", "operator:wikidata": "Q668687", "ref": "9550100093"}, "type": "Feature"}
{"geometry": {"coordinates": [-124.1637758303, 40.8019200458], "type": "Point"}, "id": "8Yz1oXHS0ByopIeafwpjybtia8o=", "properties": {"@source_uri": "https://tools.usps.com/UspsToolsRestServices/rest/POLocator/findLocations", "@spider": "usps_collection_boxes", "addr:city": "EUREKA", "addr:country": "US", "addr:postcode": "95501", "addr:state": "CA", "addr:street_address": "514 H ST", "amenity": "post_box", "brand": "United States Postal Service", "brand:wikidata": "Q668687", "collection_times": "Mo-Fr 17:00", "indoor": "yes", "note": "ON 12/24 AND 12/31, THIS BOX MAY BE COLLECTED AS EARLY AS 12 NOON.", "nsi_id": "unitedstatespostalservice-a77078", "operator": "United States Postal Service", "operator:short": "USPS", "operator:type": "public", "operator:wikidata": "Q668687", "ref": "9550100097"}, "type": "Feature"}
{"geometry": {"coordinates": [-124.174611, 40.7965495317], "type": "Point"}, "id": "wFFLelJFxmjQPVZfsSoPb6BaQ8o=", "properties": {"@source_uri": "https://tools.usps.com/UspsToolsRestServices/rest/POLocator/findLocations", "@spider": "usps_collection_boxes", "addr:city": "EUREKA", "addr:country": "US", "addr:postcode": "95501", "addr:state": "CA", "addr:street_address": "337 W CLARK ST", "amenity": "post_box", "brand": "United States Postal Service", "brand:wikidata": "Q668687", "collection_times": "Mo-Fr 17:00; Sa 15:00", "indoor": "yes", "note": "ON 12/24 AND 12/31, THIS BOX MAY BE COLLECTED AS EARLY AS 12 NOON.", "nsi_id": "unitedstatespostalservice-a77078", "operator": "United States Postal Service", "operator:short": "USPS", "operator:type": "public", "operator:wikidata": "Q668687", "ref": "9550100098"}, "type": "Feature"}
{"geometry": {"coordinates": [-124.1635967215, 40.7814216181], "type": "Point"}, "id": "nvnVodeGeYsEPcDDCjBkGT7d7MA=", "properties": {"@source_uri": "https://tools.usps.com/UspsToolsRestServices/rest/POLocator/findLocations", "@spider": "usps_collection_boxes", "addr:city": "EUREKA", "addr:country": "US", "addr:postcode": "95501", "addr:state": "CA", "addr:street_address": "2906 F ST", "amenity": "post_box", "brand": "United States Postal Service", "brand:wikidata": "Q668687", "collection_times": "Mo-Fr 17:00", "indoor": "yes", "note": "ON 12/24 AND 12/31, THIS BOX MAY BE COLLECTED AS EARLY AS 12 NOON.", "nsi_id": "unitedstatespostalservice-a77078", "operator": "United States Postal Service", "operator:short": "USPS", "operator:type": "public", "operator:wikidata": "Q668687", "ref": "9550100099"}, "type": "Feature"}
{"geometry": {"coordinates": [-124.1429143927, 40.7717513664], "type": "Point"}, "id": "cgk8N4h_BeH71vK-a_I23UaFniA=", "properties": {"@source_uri": "https://tools.usps.com/UspsToolsRestServices/rest/POLocator/findLocations", "@spider": "usps_collection_boxes", "addr:city": "EUREKA", "addr:country": "US", "addr:postcode": "95503", "addr:state": "CA", "addr:street_address": "3901 WALNUT DR", "amenity": "post_box", "brand": "United States Postal Service", "brand:wikidata": "Q668687", "collection_times": "Mo-Fr 17:00; Sa 16:00", "indoor": "yes", "note": "ON 12/24 AND 12/31, THIS BOX MAY BE COLLECTED AS EARLY AS 12 NOON.", "nsi_id": "unitedstatespostalservice-a77078", "operator": "United States Postal Service", "operator:short": "USPS", "operator:type": "public", "operator:wikidata": "Q668687", "ref": "9550300000"}, "type": "Feature"}
{"geometry": {"coordinates": [-124.1429143927, 40.7717513664], "type": "Point"}, "id": "65Qcq-8FywCSK58R0p5ofJocfT8=", "properties": {"@source_uri": "https://tools.usps.com/UspsToolsRestServices/rest/POLocator/findLocations", "@spider": "usps_collection_boxes", "addr:city": "EUREKA", "addr:country": "US", "addr:postcode": "95503", "addr:state": "CA", "addr:street_address": "3901 WALNUT DR", "amenity": "post_box", "brand": "United States Postal Service", "brand:wikidata": "Q668687", "collection_times": "Mo-Fr 17:00; Sa 16:00", "note": "ON 12/24 AND 12/31, THIS BOX MAY BE COLLECTED AS EARLY AS 12 NOON.", "nsi_id": "unitedstatespostalservice-a77078", "operator": "United States Postal Service", "operator:short": "USPS", "operator:type": "public", "operator:wikidata": "Q668687", "ref": "9550300001"}, "type": "Feature"}
{"geometry": {"coordinates": [-124.177958, 40.757429], "type": "Point"}, "id": "hcrVopqt0ZeVAAa_P4_9ijUKDw8=", "properties": {"@source_uri": "https://tools.usps.com/UspsToolsRestServices/rest/POLocator/findLocations", "@spider": "usps_collection_boxes", "addr:city": "EUREKA", "addr:country": "US", "addr:postcode": "95503", "addr:state": "CA", "addr:street_address": "590 HERRICK AVE", "amenity": "post_box", "brand": "United States Postal Service", "brand:wikidata": "Q668687", "collection_times": "Mo-Sa 12:00", "nsi_id": "unitedstatespostalservice-a77078", "operator": "United States Postal Service", "operator:short": "USPS", "operator:type": "public", "operator:wikidata": "Q668687", "ref": "9550300002"}, "type": "Feature"}
{"geometry": {"coordinates": [-124.199447, 40.741903], "type": "Point"}, "id": "_EIsBpHImbhVBwwCv1iyjpC_mls=", "properties": {"@source_uri": "https://tools.usps.com/UspsToolsRestServices/rest/POLocator/findLocations", "@spider": "usps_collection_boxes", "addr:city": "EUREKA", "addr:country": "US", "addr:postcode": "95503", "addr:state": "CA", "addr:street_address": "5667 S BROADWAY ST", "amenity": "post_box", "brand": "United States Postal Service", "brand:wikidata": "Q668687", "collection_times": "Mo-Sa 13:30", "note": "ON 12/24 AND 12/31, THIS BOX MAY BE COLLECTED AS EARLY AS 12 NOON.", "nsi_id": "unitedstatespostalservice-a77078", "operator": "United States Postal Service", "operator:short": "USPS", "operator:type": "public", "operator:wikidata": "Q668687", "ref": "9550300003"}, "type": "Feature"}
{"geometry": {"coordinates": [-124.1429143927, 40.7717513664], "type": "Point"}, "id": "BzVRk0iAhPw4EI9YTPHQw9WWpoc=", "properties": {"@source_uri": "https://tools.usps.com/UspsToolsRestServices/rest/POLocator/findLocations", "@spider": "usps_collection_boxes", "addr:city": "EUREKA", "addr:country": "US", "addr:postcode": "95503", "addr:state": "CA", "addr:street_address": "3901 WALNUT DR", "amenity": "post_box", "brand": "United States Postal Service", "brand:wikidata": "Q668687", "collection_times": "Mo-Fr 17:00", "indoor": "yes", "note": "ON 12/24 AND 12/31, THIS BOX MAY BE COLLECTED AS EARLY AS 12 NOON.", "nsi_id": "unitedstatespostalservice-a77078", "operator": "United States Postal Service", "operator:short": "USPS", "operator:type": "public", "operator:wikidata": "Q668687", "ref": "9550300005"}, "type": "Feature"}
{"geometry": {"coordinates": [-123.609965, 40.176067], "type": "Point"}, "id": "1J9KeSPA0I8ZFhCz44zROiSjiuQ=", "properties": {"@source_uri": "https://tools.usps.com/UspsToolsRestServices/rest/POLocator/findLocations", "@spider": "usps_collection_boxes", "addr:city": "ALDERPOINT", "addr:country": "US", "addr:postcode": "95511", "addr:state": "CA", "addr:street_address": "410 ALDER AVE", "amenity": "post_box", "brand": "United States Postal Service", "brand:wikidata": "Q668687", "collection_times": "Mo-Fr 13:00; Sa 10:00", "note": "ON 12/24 AND 12/31, THIS BOX MAY BE COLLECTED AS EARLY AS 12 NOON.", "nsi_id": "unitedstatespostalservice-a77078", "operator": "United States Postal Service", "operator:short": "USPS", "operator:type": "public", "operator:wikidata": "Q668687", "ref": "9551100003"}, "type": "Feature"}
{"geometry": {"coordinates": [-123.609965, 40.176067], "type": "Point"}, "id": "hIR6HKuMLvLAWb4A59HLZ0CdFAo=", "properties": {"@source_uri": "https://tools.usps.com/UspsToolsRestServices/rest/POLocator/findLocations", "@spider": "usps_collection_boxes", "addr:city": "ALDERPOINT", "addr:country": "US", "addr:postcode": "95511", "addr:state": "CA", "addr:street_address": "410 ALDER AVE", "amenity": "post_box", "brand": "United States Postal Service", "brand:wikidata": "Q668687", "collection_times": "Mo-Fr 13:20", "indoor": "yes", "note": "ON 12/24 AND 12/31, THIS BOX MAY BE COLLECTED AS EARLY AS 12 NOON.", "nsi_id": "unitedstatespostalservice-a77078", "operator": "United States Postal Service", "operator:short": "USPS", "operator:type": "public", "operator:wikidata": "Q668687", "ref": "9551100004"}, "type": "Feature"}
{"geometry": {"coordinates": [-123.609965588, 40.1760661116], "type": "Point"}, "id": "KkDe-nS0eTf07P3DG5mDZugPWkM=", "properties": {"@source_uri": "https://tools.usps.com/UspsToolsRestServices/rest/POLocator/findLocations", "@spider": "usps_collection_boxes", "addr:city": "ALDERPOINT", "addr:country": "US", "addr:postcode": "95511", "addr:state": "CA", "addr:street_address": "410 ALDER AVE", "amenity": "post_box", "brand": "United States Postal Service", "brand:wikidata": "Q668687", "collection_times": "Mo-Fr 17:00", "indoor": "yes", "note": "ON 12/24 AND 12/31, THIS BOX MAY BE COLLECTED AS EARLY AS 12 NOON.", "nsi_id": "unitedstatespostalservice-a77078", "operator": "United States Postal Service", "operator:short": "USPS", "operator:type": "public", "operator:wikidata": "Q668687", "ref": "9551100005"}, "type": "Feature"}
{"geometry": {"coordinates": [-123.6372586434, 40.2760821463], "type": "Point"}, "id": "FitQJrn8830H4Oe3wF4nc_yMigc=", "properties": {"@source_uri": "https://tools.usps.com/UspsToolsRestServices/rest/POLocator/findLocations", "@spider": "usps_collection_boxes", "addr:city": "BLOCKSBURG", "addr:country": "US", "addr:postcode": "95514", "addr:state": "CA", "addr:street_address": "27984 ALDERPOINT RD", "amenity": "post_box", "brand": "United States Postal Service", "brand:wikidata": "Q668687", "collection_times": "Mo-Sa 12:00", "indoor": "yes", "nsi_id": "unitedstatespostalservice-a77078", "operator": "United States Postal Service", "operator:short": "USPS", "operator:type": "public", "operator:wikidata": "Q668687", "ref": "9551400001"}, "type": "Feature"}
{"geometry": {"coordinates": [-123.6372586434, 40.2760821463], "type": "Point"}, "id": "kADSqJxcmBlB7dLUmP9ei8uUeMQ=", "properties": {"@source_uri": "https://tools.usps.com/UspsToolsRestServices/rest/POLocator/findLocations", "@spider": "usps_collection_boxes", "addr:city": "BLOCKSBURG", "addr:country": "US", "addr:postcode": "95514", "addr:state": "CA", "addr:street_address": "27984 ALDERPOINT RD", "amenity": "post_box", "brand": "United States Postal Service", "brand:wikidata": "Q668687", "collection_times": "Mo-Fr 12:00", "indoor": "yes", "nsi_id": "unitedstatespostalservice-a77078", "operator": "United States Postal Service", "operator:short": "USPS", "operator:type": "public", "operator:wikidata": "Q668687", "ref": "9551400002"}, "type": "Feature"}
{"geometry": {"coordinates": [-124.1019951519, 40.9432007351], "type": "Point"}, "id": "X7KJi9fCNfWuQPAITVmSDK5e0C8=", "properties": {"@source_uri": "https://tools.usps.com/UspsToolsRestServices/rest/POLocator/findLocations", "@spider": "usps_collection_boxes", "addr:city": "MCKINLEYVILLE", "addr:country": "US", "addr:postcode": "95519", "addr:state": "CA", "addr:street_address": "1561 CITY CENTER RD", "amenity": "post_box", "brand": "United States Postal Service", "brand:wikidata": "Q668687", "collection_times": "Mo-Sa 10:00", "nsi_id": "unitedstatespostalservice-a77078", "operator": "United States Postal Service", "operator:short": "USPS", "operator:type": "public", "operator:wikidata": "Q668687", "ref": "9551900001"}, "type": "Feature"}
{"geometry": {"coordinates": [-124.1020001266, 40.943208893], "type": "Point"}, "id": "z7VUiTplwFWtrJkI_OR6jo8R3CE=", "properties": {"@source_uri": "https://tools.usps.com/UspsToolsRestServices/rest/POLocator/findLocations", "@spider": "usps_collection_boxes", "addr:city": "MCKINLEYVILLE", "addr:country": "US", "addr:postcode": "95519", "addr:state": "CA", "addr:street_address": "1561 CITY CENTER RD", "amenity": "post_box", "brand": "United States Postal Service", "brand:wikidata": "Q668687", "collection_times": "Mo-Fr 17:00; Sa 12:00", "note": "ON 12/24 AND 12/31, THIS BOX MAY BE COLLECTED AS EARLY AS 12 NOON.", "nsi_id": "unitedstatespostalservice-a77078", "operator": "United States Postal Service", "operator:short": "USPS", "operator:type": "public", "operator:wikidata": "Q668687", "ref": "9551900002"}, "type": "Feature"}
{"geometry": {"coordinates": [-124.1020001266, 40.943208893], "type": "Point"}, "id": "f71jzWezlfN5Um8PRa2QerBydO8=", "properties": {"@source_uri": "https://tools.usps.com/UspsToolsRestServices/rest/POLocator/findLocations", "@spider": "usps_collection_boxes", "addr:city": "MCKINLEYVILLE", "addr:country": "US", "addr:postcode": "95519", "addr:state": "CA", "addr:street_address": "1561 CITY CENTER RD", "amenity": "post_box", "brand": "United States Postal Service", "brand:wikidata": "Q668687", "collection_times": "Mo-Sa 12:00", "nsi_id": "unitedstatespostalservice-a77078", "operator": "United States Postal Service", "operator:short": "USPS", "operator:type": "public", "operator:wikidata": "Q668687", "ref": "9551900003"}, "type": "Feature"}
{"geometry": {"coordinates": [-124.094945, 40.940695], "type": "Point"}, "id": "2CJX_f04H56ggISzU8iTFQn9ebg=", "properties": {"@source_uri": "https://tools.usps.com/UspsToolsRestServices/rest/POLocator/findLocations", "@spider": "usps_collection_boxes", "addr:city": "MCKINLEYVILLE", "addr:country": "US", "addr:postcode": "95519", "addr:state": "CA", "addr:street_address": "1561 CITY CENTER RD", "amenity": "post_box", "brand": "United States Postal Service", "brand:wikidata": "Q668687", "collection_times": "Mo-Fr 17:00", "indoor": "yes", "note": "ON 12/24 AND 12/31, THIS BOX MAY BE COLLECTED AS EARLY AS 12 NOON.", "nsi_id": "unitedstatespostalservice-a77078", "operator": "United States Postal Service", "operator:short": "USPS", "operator:type": "public", "operator:wikidata": "Q668687", "ref": "9551900005"}, "type": "Feature"}
{"geometry": {"coordinates": [-124.085719, 40.870463], "type": "Point"}, "id": "KbNJqifWStbPhrlBCCjzAYPiJiM=", "properties": {"@source_uri": "https://tools.usps.com/UspsToolsRestServices/rest/POLocator/findLocations", "@spider": "usps_collection_boxes", "addr:city": "ARCATA", "addr:country": "US", "addr:postcode": "95521", "addr:state": "CA", "addr:street_address": "745 11TH ST", "amenity": "post_box", "brand": "United States Postal Service", "brand:wikidata": "Q668687", "collection_times": "Mo-Sa 10:00", "nsi_id": "unitedstatespostalservice-a77078", "operator": "United States Postal Service", "operator:short": "USPS", "operator:type": "public", "operator:wikidata": "Q668687", "ref": "9552100003"}, "type": "Feature"}
{"geometry": {"coordinates": [-124.0848050574, 40.8715730263], "type": "Point"}, "id": "SErsWBRAU6IxrEyIVHRgL3b6eS0=", "properties": {"@source_uri": "https://tools.usps.com/UspsToolsRestServices/rest/POLocator/findLocations", "@spider": "usps_collection_boxes", "addr:city": "ARCATA", "addr:country": "US", "addr:postcode": "95521", "addr:state": "CA", "addr:street_address": "1241 G ST", "amenity": "post_box", "brand": "United States Postal Service", "brand:wikidata": "Q668687", "collection_times": "Mo-Sa 10:00", "nsi_id": "unitedstatespostalservice-a77078", "operator": "United States Postal Service", "operator:short": "USPS", "operator:type": "public", "operator:wikidata": "Q668687", "ref": "9552100004"}, "type": "Feature"}
{"geometry": {"coordinates": [-124.091694, 40.895888], "type": "Point"}, "id": "hzJmGAlyzdvW9owusYSit9FD3Kk=", "properties": {"@source_uri": "https://tools.usps.com/UspsToolsRestServices/rest/POLocator/findLocations", "@spider": "usps_collection_boxes", "addr:city": "ARCATA", "addr:country": "US", "addr:postcode": "95521", "addr:state": "CA", "addr:street_address": "3800 JANES RD", "amenity": "post_box", "brand": "United States Postal Service", "brand:wikidata": "Q668687", "collection_times": "Mo-Sa 10:00", "nsi_id": "unitedstatespostalservice-a77078", "operator": "United States Postal Service", "operator:short": "USPS", "operator:type": "public", "operator:wikidata": "Q668687", "ref": "9552100005"}, "type": "Feature"}
{"geometry": {"coordinates": [-124.087418, 40.867271], "type": "Point"}, "id": "tNFRoZAE9LEE-tst3bvJuzYpd68=", "properties": {"@source_uri": "https://tools.usps.com/UspsToolsRestServices/rest/POLocator/findLocations", "@spider": "usps_collection_boxes", "addr:city": "ARCATA", "addr:country": "US", "addr:postcode": "95521", "addr:state": "CA", "addr:street_address": "698 H ST", "amenity": "post_box", "brand": "United States Postal Service", "brand:wikidata": "Q668687", "collection_times": "Mo-Sa 16:00", "name": "USPS COLLECTION BOX - EXPRESS", "note": "ON 12/24 AND 12/31, THIS BOX MAY BE COLLECTED AS EARLY AS 12 NOON.", "nsi_id": "unitedstatespostalservice-a77078", "operator": "United States Postal Service", "operator:short": "USPS", "operator:type": "public", "operator:wikidata": "Q668687", "ref": "9552100008"}, "type": "Feature"}
{"geometry": {"coordinates": [-124.087407, 40.867254], "type": "Point"}, "id": "xJC-xFBQjCcw5S_ORD2wmLXHUfY=", "properties": {"@source_uri": "https://tools.usps.com/UspsToolsRestServices/rest/POLocator/findLocations", "@spider": "usps_collection_boxes", "addr:city": "ARCATA", "addr:country": "US", "addr:postcode": "95521", "addr:state": "CA", "addr:street_address": "698 H ST", "amenity": "post_box", "brand": "United States Postal Service", "brand:wikidata": "Q668687", "collection_times": "Mo-Fr 17:00; Sa 16:15", "note": "ON 12/24 AND 12/31, THIS BOX MAY BE COLLECTED AS EARLY AS 12 NOON.", "nsi_id": "unitedstatespostalservice-a77078", "operator": "United States Postal Service", "operator:short": "USPS", "operator:type": "public", "operator:wikidata": "Q668687", "ref": "9552100009"}, "type": "Feature"}
{"geometry": {"coordinates": [-124.087409, 40.867249], "type": "Point"}, "id": "4OmuHhNc3ahJe35qPnegw9JRbQs=", "properties": {"@source_uri": "https://tools.usps.com/UspsToolsRestServices/rest/POLocator/findLocations", "@spider": "usps_collection_boxes", "addr:city": "ARCATA", "addr:country": "US", "addr:postcode": "95521", "addr:state": "CA", "addr:street_address": "698 H ST", "amenity": "post_box", "brand": "United States Postal Service", "brand:wikidata": "Q668687", "collection_times": "Mo-Fr 17:00; Sa 16:15", "note": "ON 12/24 AND 12/31, THIS BOX MAY BE COLLECTED AS EARLY AS 12 NOON.", "nsi_id": "unitedstatespostalservice-a77078", "operator": "United States Postal Service", "operator:short": "USPS", "operator:type": "public", "operator:wikidata": "Q668687", "ref": "9552100010"}, "type": "Feature"}
{"geometry": {"coordinates": [-124.084249, 40.876087], "type": "Point"}, "id": "k3IOkVgZEiJaP-rOHxCBULft4KU=", "properties": {"@source_uri": "https://tools.usps.com/UspsToolsRestServices/rest/POLocator/findLocations", "@spider": "usps_collection_boxes", "addr:city": "ARCATA", "addr:country": "US", "addr:postcode": "95521", "addr:state": "CA", "addr:street_address": "785 18TH ST", "amenity": "post_box", "brand": "United States Postal Service", "brand:wikidata": "Q668687", "collection_times": "Mo-Sa 10:00", "nsi_id": "unitedstatespostalservice-a77078", "operator": "United States Postal Service", "operator:short": "USPS", "operator:type": "public", "operator:wikidata": "Q668687", "ref": "9552100012"}, "type": "Feature"}
{"geometry": {"coordinates": [-124.090502, 40.884017], "type": "Point"}, "id": "y8p_o1KqtrzLoGTEPoJ9jGLzejU=", "properties": {"@source_uri": "https://tools.usps.com/UspsToolsRestServices/rest/POLocator/findLocations", "@spider": "usps_collection_boxes", "addr:city": "ARCATA", "addr:country": "US", "addr:postcode": "95521", "addr:state": "CA", "addr:street_address": "100 WESTWOOD CTR", "amenity": "post_box", "brand": "United States Postal Service", "brand:wikidata": "Q668687", "collection_times": "Mo-Sa 10:00", "nsi_id": "unitedstatespostalservice-a77078", "operator": "United States Postal Service", "operator:short": "USPS", "operator:type": "public", "operator:wikidata": "Q668687", "ref": "9552100013"}, "type": "Feature"}
{"geometry": {"coordinates": [-124.070589, 40.903302], "type": "Point"}, "id": "aBE_Gu624Es0oWscOejNVOzJfIo=", "properties": {"@source_uri": "https://tools.usps.com/UspsToolsRestServices/rest/POLocator/findLocations", "@spider": "usps_collection_boxes", "addr:city": "ARCATA", "addr:country": "US", "addr:postcode": "95521", "addr:state": "CA", "addr:street_address": "100 ERICKSON CT", "amenity": "post_box", "brand": "United States Postal Service", "brand:wikidata": "Q668687", "collection_times": "Mo-Sa 10:00", "nsi_id": "unitedstatespostalservice-a77078", "operator": "United States Postal Service", "operator:short": "USPS", "operator:type": "public", "operator:wikidata": "Q668687", "ref": "9552100014"}, "type": "Feature"}
{"geometry": {"coordinates": [-124.084893, 40.865858], "type": "Point"}, "id": "_nu2UOQaDD1qtNx0dBvHAmWn6BI=", "properties": {"@source_uri": "https://tools.usps.com/UspsToolsRestServices/rest/POLocator/findLocations", "@spider": "usps_collection_boxes", "addr:city": "ARCATA", "addr:country": "US", "addr:postcode": "95521", "addr:state": "CA", "addr:street_address": "600 F ST", "amenity": "post_box", "brand": "United States Postal Service", "brand:wikidata": "Q668687", "collection_times": "Mo-Sa 10:00", "nsi_id": "unitedstatespostalservice-a77078", "operator": "United States Postal Service", "operator:short": "USPS", "operator:type": "public", "operator:wikidata": "Q668687", "ref": "9552100017"}, "type": "Feature"}
{"geometry": {"coordinates": [-124.085107, 40.867316], "type": "Point"}, "id": "0t06QP_9bDIM0QKcifgSi4nfxGM=", "properties": {"@source_uri": "https://tools.usps.com/UspsToolsRestServices/rest/POLocator/findLocations", "@spider": "usps_collection_boxes", "addr:city": "ARCATA", "addr:country": "US", "addr:postcode": "95521", "addr:state": "CA", "addr:street_address": "736 F ST", "amenity": "post_box", "brand": "United States Postal Service", "brand:wikidata": "Q668687", "collection_times": "Mo-Sa 10:00", "nsi_id": "unitedstatespostalservice-a77078", "operator": "United States Postal Service", "operator:short": "USPS", "operator:type": "public", "operator:wikidata": "Q668687", "ref": "9552100018"}, "type": "Feature"}
{"geometry": {"coordinates": [-124.071419, 40.857809], "type": "Point"}, "id": "AJ8hdUMHrfVDGzMXuCqtLpLLBT4=", "properties": {"@source_uri": "https://tools.usps.com/UspsToolsRestServices/rest/POLocator/findLocations", "@spider": "usps_collection_boxes", "addr:city": "ARCATA", "addr:country": "US", "addr:postcode": "95521", "addr:state": "CA", "addr:street_address": "72 SUNNYBRAE CTR", "amenity": "post_box", "brand": "United States Postal Service", "brand:wikidata": "Q668687", "collection_times": "Mo-Sa 10:00", "nsi_id": "unitedstatespostalservice-a77078", "operator": "United States Postal Service", "operator:short": "USPS", "operator:type": "public", "operator:wikidata": "Q668687", "ref": "9552100019"}, "type": "Feature"}
{"geometry": {"coordinates": [-124.082482, 40.904227], "type": "Point"}, "id": "vewKsQZvqmfJrZQGWTNlHIH7sQY=", "properties": {"@source_uri": "https://tools.usps.com/UspsToolsRestServices/rest/POLocator/findLocations", "@spider": "usps_collection_boxes", "addr:city": "ARCATA", "addr:country": "US", "addr:postcode": "95521", "addr:state": "CA", "addr:street_address": "5000 VALLEY WEST BLVD", "amenity": "post_box", "brand": "United States Postal Service", "brand:wikidata": "Q668687", "collection_times": "Mo-Sa 10:00", "nsi_id": "unitedstatespostalservice-a77078", "operator": "United States Postal Service", "operator:short": "USPS", "operator:type": "public", "operator:wikidata": "Q668687", "ref": "9552100020"}, "type": "Feature"}
{"geometry": {"coordinates": [-124.08154135, 40.8740556491], "type": "Point"}, "id": "B9DjVmJQRAthtH-x3Cwogi3BFkU=", "properties": {"@source_uri": "https://tools.usps.com/UspsToolsRestServices/rest/POLocator/findLocations", "@spider": "usps_collection_boxes", "addr:city": "ARCATA", "addr:country": "US", "addr:postcode": "95521", "addr:state": "CA", "addr:street_address": "1 HARPST ST", "amenity": "post_box", "brand": "United States Postal Service", "brand:wikidata": "Q668687", "collection_times": "Mo-Sa 10:00", "nsi_id": "unitedstatespostalservice-a77078", "operator": "United States Postal Service", "operator:short": "USPS", "operator:type": "public", "operator:wikidata": "Q668687", "ref": "9552100021"}, "type": "Feature"}
{"geometry": {"coordinates": [-124.085394, 40.869702], "type": "Point"}, "id": "c8YKqxYAAgqX_CS3wZsd3rYynpk=", "properties": {"@source_uri": "https://tools.usps.com/UspsToolsRestServices/rest/POLocator/findLocations", "@spider": "usps_collection_boxes", "addr:city": "ARCATA", "addr:country": "US", "addr:postcode": "95521", "addr:state": "CA", "addr:street_address": "1010 G ST", "amenity": "post_box", "brand": "United States Postal Service", "brand:wikidata": "Q668687", "collection_times": "Mo-Sa 10:00", "nsi_id": "unitedstatespostalservice-a77078", "operator": "United States Postal Service", "operator:short": "USPS", "operator:type": "public", "operator:wikidata": "Q668687", "ref": "9552100023"}, "type": "Feature"}
{"geometry": {"coordinates": [-124.083628, 40.874319], "type": "Point"}, "id": "kukIBVKl9pTqENzJvPL5gS3Ip-M=", "properties": {"@source_uri": "https://tools.usps.com/UspsToolsRestServices/rest/POLocator/findLocations", "@spider": "usps_collection_boxes", "addr:city": "ARCATA", "addr:country": "US", "addr:postcode": "95521", "addr:state": "CA", "addr:street_address": "1590 G ST", "amenity": "post_box", "brand": "United States Postal Service", "brand:wikidata": "Q668687", "collection_times": "Mo-Sa 10:00", "nsi_id": "unitedstatespostalservice-a77078", "operator": "United States Postal Service", "operator:short": "USPS", "operator:type": "public", "operator:wikidata": "Q668687", "ref": "9552100024"}, "type": "Feature"}
{"geometry": {"coordinates": [-124.078998, 40.874242], "type": "Point"}, "id": "fItMyl2L2PX7o9Gk5_WXEOc9M5Y=", "properties": {"@source_uri": "https://tools.usps.com/UspsToolsRestServices/rest/POLocator/findLocations", "@spider": "usps_collection_boxes", "addr:city": "ARCATA", "addr:country": "US", "addr:postcode": "95521", "addr:state": "CA", "addr:street_address": "1 HARPST ST", "amenity": "post_box", "brand": "United States Postal Service", "brand:wikidata": "Q668687", "collection_times": "Mo-Sa 10:00", "nsi_id": "unitedstatespostalservice-a77078", "operator": "United States Postal Service", "operator:short": "USPS", "operator:type": "public", "operator:wikidata": "Q668687", "ref": "9552100025"}, "type": "Feature"}
{"geometry": {"coordinates": [-124.085784, 40.868721], "type": "Point"}, "id": "_ToDw4CZV3obURcTjeC6p-ruzOg=", "properties": {"@source_uri": "https://tools.usps.com/UspsToolsRestServices/rest/POLocator/findLocations", "@spider": "usps_collection_boxes", "addr:city": "ARCATA", "addr:country": "US", "addr:postcode": "95521", "addr:state": "CA", "addr:street_address": "898 G ST", "amenity": "post_box", "brand": "United States Postal Service", "brand:wikidata": "Q668687", "collection_times": "Mo-Sa 10:00", "nsi_id": "unitedstatespostalservice-a77078", "operator": "United States Postal Service", "operator:short": "USPS", "operator:type": "public", "operator:wikidata": "Q668687", "ref": "9552100026"}, "type": "Feature"}
{"geometry": {"coordinates": [-124.087526, 40.86446], "type": "Point"}, "id": "OeZVjWAuptJiXdBwJGkZvy1dzpU=", "properties": {"@source_uri": "https://tools.usps.com/UspsToolsRestServices/rest/POLocator/findLocations", "@spider": "usps_collection_boxes", "addr:city": "ARCATA", "addr:country": "US", "addr:postcode": "95521", "addr:state": "CA", "addr:street_address": "359 G ST", "amenity": "post_box", "brand": "United States Postal Service", "brand:wikidata": "Q668687", "collection_times": "Mo-Sa 10:00", "nsi_id": "unitedstatespostalservice-a77078", "operator": "United States Postal Service", "operator:short": "USPS", "operator:type": "public", "operator:wikidata": "Q668687", "ref": "9552100028"}, "type": "Feature"}
{"geometry": {"coordinates": [-124.091217, 40.866185], "type": "Point"}, "id": "MlfTmXYwXrK04QN6s2rnPqUEUSg=", "properties": {"@source_uri": "https://tools.usps.com/UspsToolsRestServices/rest/POLocator/findLocations", "@spider": "usps_collection_boxes", "addr:city": "ARCATA", "addr:country": "US", "addr:postcode": "95521", "addr:state": "CA", "addr:street_address": "440 K ST", "amenity": "post_box", "brand": "United States Postal Service", "brand:wikidata": "Q668687", "collection_times": "Mo-Sa 10:00", "nsi_id": "unitedstatespostalservice-a77078", "operator": "United States Postal Service", "operator:short": "USPS", "operator:type": "public", "operator:wikidata": "Q668687", "ref": "9552100030"}, "type": "Feature"}
{"geometry": {"coordinates": [-124.0871711763, 40.8682099927], "type": "Point"}, "id": "wG2RxsWgNDqRrS06yTIajCCaPzc=", "properties": {"@source_uri": "https://tools.usps.com/UspsToolsRestServices/rest/POLocator/findLocations", "@spider": "usps_collection_boxes", "addr:city": "ARCATA", "addr:country": "US", "addr:postcode": "95521", "addr:state": "CA", "addr:street_address": "799 H ST", "amenity": "post_box", "brand": "United States Postal Service", "brand:wikidata": "Q668687", "collection_times": "Mo-Fr 17:00", "indoor": "yes", "note": "ON 12/24 AND 12/31, THIS BOX MAY BE COLLECTED AS EARLY AS 12 NOON.", "nsi_id": "unitedstatespostalservice-a77078", "operator": "United States Postal Service", "operator:short": "USPS", "operator:type": "public", "operator:wikidata": "Q668687", "ref": "9552100036"}, "type": "Feature"}
{"geometry": {"coordinates": [-124.064138, 40.84325], "type": "Point"}, "id": "tgRh2hDseELwEBdKAP92dUH8RLs=", "properties": {"@source_uri": "https://tools.usps.com/UspsToolsRestServices/rest/POLocator/findLocations", "@spider": "usps_collection_boxes", "addr:city": "BAYSIDE", "addr:country": "US", "addr:postcode": "95524", "addr:state": "CA", "addr:street_address": "1836 OLD ARCATA RD", "amenity": "post_box", "brand": "United States Postal Service", "brand:wikidata": "Q668687", "collection_times": "Mo-Fr 17:00; Sa 11:00", "note": "ON 12/24 AND 12/31, THIS BOX MAY BE COLLECTED AS EARLY AS 12 NOON.", "nsi_id": "unitedstatespostalservice-a77078", "operator": "United States Postal Service", "operator:short": "USPS", "operator:type": "public", "operator:wikidata": "Q668687", "ref": "9552400003"}, "type": "Feature"}
{"geometry": {"coordinates": [-124.064158, 40.843218], "type": "Point"}, "id": "A6G5r-cSMGXugFD642UuVLeKLYM=", "properties": {"@source_uri": "https://tools.usps.com/UspsToolsRestServices/rest/POLocator/findLocations", "@spider": "usps_collection_boxes", "addr:city": "BAYSIDE", "addr:country": "US", "addr:postcode": "95524", "addr:state": "CA", "addr:street_address": "1836 OLD ARCATA RD", "amenity": "post_box", "brand": "United States Postal Service", "brand:wikidata": "Q668687", "collection_times": "Mo-Fr 17:15; Sa 11:00", "indoor": "yes", "note": "ON 12/24 AND 12/31, THIS BOX MAY BE COLLECTED AS EARLY AS 12 NOON.", "nsi_id": "unitedstatespostalservice-a77078", "operator": "United States Postal Service", "operator:short": "USPS", "operator:type": "public", "operator:wikidata": "Q668687", "ref": "9552400004"}, "type": "Feature"}
{"geometry": {"coordinates": [-124.0640147085, 40.8428080511], "type": "Point"}, "id": "0TZeZTRCGWe0SY_AEw0uq3QqPZM=", "properties": {"@source_uri": "https://tools.usps.com/UspsToolsRestServices/rest/POLocator/findLocations", "@spider": "usps_collection_boxes", "addr:city": "BAYSIDE", "addr:country": "US", "addr:postcode": "95524", "addr:state": "CA", "addr:street_address": "1836 OLD ARCATA RD", "amenity": "post_box", "brand": "United States Postal Service", "brand:wikidata": "Q668687", "collection_times": "Mo-Fr 17:00; Sa 11:00", "indoor": "yes", "note": "ON 12/24 AND 12/31, THIS BOX MAY BE COLLECTED AS EARLY AS 12 NOON.", "nsi_id": "unitedstatespostalservice-a77078", "operator": "United States Postal Service", "operator:short": "USPS", "operator:type": "public", "operator:wikidata": "Q668687", "ref": "9552400005"}, "type": "Feature"}
{"geometry": {"coordinates": [-123.9890342495, 40.8813975354], "type": "Point"}, "id": "H80BOoTijkr0xi8nZWb625gvXSc=", "properties": {"@source_uri": "https://tools.usps.com/UspsToolsRestServices/rest/POLocator/findLocations", "@spider": "usps_collection_boxes", "addr:city": "BLUE LAKE", "addr:country": "US", "addr:postcode": "95525", "addr:state": "CA", "addr:street_address": "411 1ST ST", "amenity": "post_box", "brand": "United States Postal Service", "brand:wikidata": "Q668687", "collection_times": "Mo-Fr 16:30; Sa 09:00", "note": "ON 12/24 AND 12/31, THIS BOX MAY BE COLLECTED AS EARLY AS 12 NOON.", "nsi_id": "unitedstatespostalservice-a77078", "operator": "United States Postal Service", "operator:short": "USPS", "operator:type": "public", "operator:wikidata": "Q668687", "ref": "9552500002"}, "type": "Feature"}
{"geometry": {"coordinates": [-123.9890342495, 40.8813975354], "type": "Point"}, "id": "sbQFngAx2HmZ8okdQNZ9pEFDW7A=", "properties": {"@source_uri": "https://tools.usps.com/UspsToolsRestServices/rest/POLocator/findLocations", "@spider": "usps_collection_boxes", "addr:city": "BLUE LAKE", "addr:country": "US", "addr:postcode": "95525", "addr:state": "CA", "addr:street_address": "411 1ST ST", "amenity": "post_box", "brand": "United States Postal Service", "brand:wikidata": "Q668687", "collection_times": "Mo-Fr 17:00; Sa 09:00", "indoor": "yes", "note": "ON 12/24 AND 12/31, THIS BOX MAY BE COLLECTED AS EARLY AS 12 NOON.", "nsi_id": "unitedstatespostalservice-a77078", "operator": "United States Postal Service", "operator:short": "USPS", "operator:type": "public", "operator:wikidata": "Q668687", "ref": "9552500003"}, "type": "Feature"}
{"geometry": {"coordinates": [-123.9890342495, 40.8813975354], "type": "Point"}, "id": "bNeEyzNdJbh0v6sWJiD3ND-Pg8Q=", "properties": {"@source_uri": "https://tools.usps.com/UspsToolsRestServices/rest/POLocator/findLocations", "@spider": "usps_collection_boxes", "addr:city": "BLUE LAKE", "addr:country": "US", "addr:postcode": "95525", "addr:state": "CA", "addr:street_address": "411 1ST ST", "amenity": "post_box", "brand": "United States Postal Service", "brand:wikidata": "Q668687", "collection_times": "Mo-Fr 17:00", "indoor": "yes", "note": "ON 12/24 AND 12/31, THIS BOX MAY BE COLLECTED AS EARLY AS 12 NOON.", "nsi_id": "unitedstatespostalservice-a77078", "operator": "United States Postal Service", "operator:short": "USPS", "operator:type": "public", "operator:wikidata": "Q668687", "ref": "9552500004"}, "type": "Feature"}
{"geometry": {"coordinates": [-123.7997459486, 40.4685022491], "type": "Point"}, "id": "FIPn7_1CKHDDMfo96CcwMrB2dU4=", "properties": {"@source_uri": "https://tools.usps.com/UspsToolsRestServices/rest/POLocator/findLocations", "@spider": "usps_collection_boxes", "addr:city": "RUTH", "addr:country": "US", "addr:postcode": "95526", "addr:state": "CA", "addr:street_address": "24878 STATE HIGHWAY 36", "amenity": "post_box", "brand": "United States Postal Service", "brand:wikidata": "Q668687", "collection_times": "Mo-Fr 15:45; Sa 08:45", "indoor": "yes", "note": "ON 12/24 AND 12/31, THIS BOX MAY BE COLLECTED AS EARLY AS 12 NOON.", "nsi_id": "unitedstatespostalservice-a77078", "operator": "United States Postal Service", "operator:short": "USPS", "operator:type": "public", "operator:wikidata": "Q668687", "ref": "9552600004"}, "type": "Feature"}
{"geometry": {"coordinates": [-123.799764, 40.468561], "type": "Point"}, "id": "7NQlG0NfiYINzCLbbFDve_2tkjo=", "properties": {"@source_uri": "https://tools.usps.com/UspsToolsRestServices/rest/POLocator/findLocations", "@spider": "usps_collection_boxes", "addr:city": "RUTH", "addr:country": "US", "addr:postcode": "95526", "addr:state": "CA", "addr:street_address": "24878 STATE HIGHWAY 36", "amenity": "post_box", "brand": "United States Postal Service", "brand:wikidata": "Q668687", "collection_times": "Mo-Fr 15:45; Sa 08:45", "note": "ON 12/24 AND 12/31, THIS BOX MAY BE COLLECTED AS EARLY AS 12 NOON.", "nsi_id": "unitedstatespostalservice-a77078", "operator": "United States Postal Service", "operator:short": "USPS", "operator:type": "public", "operator:wikidata": "Q668687", "ref": "9552600005"}, "type": "Feature"}
{"geometry": {"coordinates": [-123.605701, 40.492871], "type": "Point"}, "id": "JGiin3SZSxu0nV0HERhNZaL3o6g=", "properties": {"@source_uri": "https://tools.usps.com/UspsToolsRestServices/rest/POLocator/findLocations", "@spider": "usps_collection_boxes", "addr:city": "RUTH", "addr:country": "US", "addr:postcode": "95526", "addr:state": "CA", "addr:street_address": "43819 STATE HIGHWAY 36", "amenity": "post_box", "brand": "United States Postal Service", "brand:wikidata": "Q668687", "collection_times": "Mo-Fr 15:30; Sa 10:30", "note": "ON 12/24 AND 12/31, THIS BOX MAY BE COLLECTED AS EARLY AS 12 NOON.", "nsi_id": "unitedstatespostalservice-a77078", "operator": "United States Postal Service", "operator:short": "USPS", "operator:type": "public", "operator:wikidata": "Q668687", "ref": "9552600006"}, "type": "Feature"}
{"geometry": {"coordinates": [-123.7997459486, 40.4685022491], "type": "Point"}, "id": "onZDP6UCqisvOLBqEdOyfczj5ME=", "properties": {"@source_uri": "https://tools.usps.com/UspsToolsRestServices/rest/POLocator/findLocations", "@spider": "usps_collection_boxes", "addr:city": "RUTH", "addr:country": "US", "addr:postcode": "95526", "addr:state": "CA", "addr:street_address": "24878 STATE HIGHWAY 36", "amenity": "post_box", "brand": "United States Postal Service", "brand:wikidata": "Q668687", "collection_times": "Mo-Fr 16:30", "indoor": "yes", "note": "ON 12/24 AND 12/31, THIS BOX MAY BE COLLECTED AS EARLY AS 12 NOON.", "nsi_id": "unitedstatespostalservice-a77078", "operator": "United States Postal Service", "operator:short": "USPS", "operator:type": "public", "operator:wikidata": "Q668687", "ref": "9552600008"}, "type": "Feature"}
{"geometry": {"coordinates": [-123.4831760002, 40.823442005], "type": "Point"}, "id": "qArsHy-3Q-RuAS88yVbh6CWkuYQ=", "properties": {"@source_uri": "https://tools.usps.com/UspsToolsRestServices/rest/POLocator/findLocations", "@spider": "usps_collection_boxes", "addr:city": "BURNT RANCH", "addr:country": "US", "addr:postcode": "95527", "addr:state": "CA", "addr:street_address": "10271C HIGHWAY 299", "amenity": "post_box", "brand": "United States Postal Service", "brand:wikidata": "Q668687", "collection_times": "Mo-Fr 08:30", "indoor": "yes", "nsi_id": "unitedstatespostalservice-a77078", "operator": "United States Postal Service", "operator:short": "USPS", "operator:type": "public", "operator:wikidata": "Q668687", "ref": "9552700003"}, "type": "Feature"}
{"geometry": {"coordinates": [-123.4831760002, 40.823442005], "type": "Point"}, "id": "_nknAWc11KFA_dNbAfEVRi5DzkY=", "properties": {"@source_uri": "https://tools.usps.com/UspsToolsRestServices/rest/POLocator/findLocations", "@spider": "usps_collection_boxes", "addr:city": "BURNT RANCH", "addr:country": "US", "addr:postcode": "95527", "addr:state": "CA", "addr:street_address": "10271C HIGHWAY 299", "amenity": "post_box", "brand": "United States Postal Service", "brand:wikidata": "Q668687", "collection_times": "Mo-Fr 12:30", "indoor": "yes", "note": "ON 12/24 AND 12/31, THIS BOX MAY BE COLLECTED AS EARLY AS 12 NOON.", "nsi_id": "unitedstatespostalservice-a77078", "operator": "United States Postal Service", "operator:short": "USPS", "operator:type": "public", "operator:wikidata": "Q668687", "ref": "9552700005"}, "type": "Feature"}
{"geometry": {"coordinates": [-124.0598744611, 40.5375007381], "type": "Point"}, "id": "GZHYkzsiCIvrDI5INPvzuiIa4b8=", "properties": {"@source_uri": "https://tools.usps.com/UspsToolsRestServices/rest/POLocator/findLocations", "@spider": "usps_collection_boxes", "addr:city": "CARLOTTA", "addr:country": "US", "addr:postcode": "95528", "addr:state": "CA", "addr:street_address": "5429 STATE HIGHWAY 36", "amenity": "post_box", "brand": "United States Postal Service", "brand:wikidata": "Q668687", "collection_times": "Mo-Fr 12:00; Sa 09:00", "indoor": "yes", "nsi_id": "unitedstatespostalservice-a77078", "operator": "United States Postal Service", "operator:short": "USPS", "operator:type": "public", "operator:wikidata": "Q668687", "ref": "9552800002"}, "type": "Feature"}
{"geometry": {"coordinates": [-124.0598744611, 40.5375007381], "type": "Point"}, "id": "8hZMSp6ryIcKTWa270QCQZtRTIc=", "properties": {"@source_uri": "https://tools.usps.com/UspsToolsRestServices/rest/POLocator/findLocations", "@spider": "usps_collection_boxes", "addr:city": "CARLOTTA", "addr:country": "US", "addr:postcode": "95528", "addr:state": "CA", "addr:street_address": "5429 STATE HIGHWAY 36", "amenity": "post_box", "brand": "United States Postal Service", "brand:wikidata": "Q668687", "collection_times": "Mo-Fr 12:00", "indoor": "yes", "nsi_id": "unitedstatespostalservice-a77078", "operator": "United States Postal Service", "operator:short": "USPS", "operator:type": "public", "operator:wikidata": "Q668687", "ref": "9552800004"}, "type": "Feature"}
{"geometry": {"coordinates": [-124.186098, 41.771964], "type": "Point"}, "id": "PeagjuZkZDkpXFbJK7oWbMtXTWE=", "properties": {"@source_uri": "https://tools.usps.com/UspsToolsRestServices/rest/POLocator/findLocations", "@spider": "usps_collection_boxes", "addr:city": "CRESCENT CITY", "addr:country": "US", "addr:postcode": "95531", "addr:state": "CA", "addr:street_address": "1440 PARKWAY DR", "amenity": "post_box", "brand": "United States Postal Service", "brand:wikidata": "Q668687", "collection_times": "Mo-Sa 12:00", "nsi_id": "unitedstatespostalservice-a77078", "operator": "United States Postal Service", "operator:short": "USPS", "operator:type": "public", "operator:wikidata": "Q668687", "ref": "9553100001"}, "type": "Feature"}
{"geometry": {"coordinates": [-124.200471, 41.767817], "type": "Point"}, "id": "4k2Miduc_uIXhb68L8pqYvKeZIg=", "properties": {"@source_uri": "https://tools.usps.com/UspsToolsRestServices/rest/POLocator/findLocations", "@spider": "usps_collection_boxes", "addr:city": "CRESCENT CITY", "addr:country": "US", "addr:postcode": "95531", "addr:state": "CA", "addr:street_address": "1225 MARSHALL ST", "amenity": "post_box", "brand": "United States Postal Service", "brand:wikidata": "Q668687", "collection_times": "Mo-Sa 13:00", "note": "ON 12/24 AND 12/31, THIS BOX MAY BE COLLECTED AS EARLY AS 12 NOON.", "nsi_id": "unitedstatespostalservice-a77078", "operator": "United States Postal Service", "operator:short": "USPS", "operator:type": "public", "operator:wikidata": "Q668687", "ref": "9553100004"}, "type": "Feature"}
{"geometry": {"coordinates": [-124.198778, 41.753036], "type": "Point"}, "id": "hZmticcmMcue9Y7G0cXJeyokKXQ=", "properties": {"@source_uri": "https://tools.usps.com/UspsToolsRestServices/rest/POLocator/findLocations", "@spider": "usps_collection_boxes", "addr:city": "CRESCENT CITY", "addr:country": "US", "addr:postcode": "95531", "addr:state": "CA", "addr:street_address": "450 H ST", "amenity": "post_box", "brand": "United States Postal Service", "brand:wikidata": "Q668687", "collection_times": "Mo-Sa 13:00", "note": "ON 12/24 AND 12/31, THIS BOX MAY BE COLLECTED AS EARLY AS 12 NOON.", "nsi_id": "unitedstatespostalservice-a77078", "operator": "United States Postal Service", "operator:short": "USPS", "operator:type": "public", "operator:wikidata": "Q668687", "ref": "9553100005"}, "type": "Feature"}
{"geometry": {"coordinates": [-124.2052539923, 41.7545450068], "type": "Point"}, "id": "pH9qTrIJp24nPlSA0QZVW85vHPc=", "properties": {"@source_uri": "https://tools.usps.com/UspsToolsRestServices/rest/POLocator/findLocations", "@spider": "usps_collection_boxes", "addr:city": "CRESCENT CITY", "addr:country": "US", "addr:postcode": "95531", "addr:state": "CA", "addr:street_address": "414 9TH ST", "amenity": "post_box", "brand": "United States Postal Service", "brand:wikidata": "Q668687", "collection_times": "Mo-Sa 12:00", "nsi_id": "unitedstatespostalservice-a77078", "operator": "United States Postal Service", "operator:short": "USPS", "operator:type": "public", "operator:wikidata": "Q668687", "ref": "9553100006"}, "type": "Feature"}
{"geometry": {"coordinates": [-124.200231, 41.75315], "type": "Point"}, "id": "1fyZur3tP9W7KUnSG0WfBKrfry8=", "properties": {"@source_uri": "https://tools.usps.com/UspsToolsRestServices/rest/POLocator/findLocations", "@spider": "usps_collection_boxes", "addr:city": "CRESCENT CITY", "addr:country": "US", "addr:postcode": "95531", "addr:state": "CA", "addr:street_address": "680 5TH ST", "amenity": "post_box", "brand": "United States Postal Service", "brand:wikidata": "Q668687", "collection_times": "Mo-Sa 13:00", "note": "ON 12/24 AND 12/31, THIS BOX MAY BE COLLECTED AS EARLY AS 12 NOON.", "nsi_id": "unitedstatespostalservice-a77078", "operator": "United States Postal Service", "operator:short": "USPS", "operator:type": "public", "operator:wikidata": "Q668687", "ref": "9553100012"}, "type": "Feature"}
{"geometry": {"coordinates": [-124.192726, 41.772632], "type": "Point"}, "id": "Wdx3VCACrpUweQKnTbtmyOE99G4=", "properties": {"@source_uri": "https://tools.usps.com/UspsToolsRestServices/rest/POLocator/findLocations", "@spider": "usps_collection_boxes", "addr:city": "CRESCENT CITY", "addr:country": "US", "addr:postcode": "95531", "addr:state": "CA", "addr:street_address": "785 E WASHINGTON BLVD", "amenity": "post_box", "brand": "United States Postal Service", "brand:wikidata": "Q668687", "collection_times": "Mo-Fr 12:00", "nsi_id": "unitedstatespostalservice-a77078", "operator": "United States Postal Service", "operator:short": "USPS", "operator:type": "public", "operator:wikidata": "Q668687", "ref": "9553100015"}, "type": "Feature"}
{"geometry": {"coordinates": [-124.1976599646, 41.7512634529], "type": "Point"}, "id": "ljhgeDtRlBjPnSE4j8a-KMi6V8I=", "properties": {"@source_uri": "https://tools.usps.com/UspsToolsRestServices/rest/POLocator/findLocations", "@spider": "usps_collection_boxes", "addr:city": "CRESCENT CITY", "addr:country": "US", "addr:postcode": "95531", "addr:state": "CA", "addr:street_address": "751 2ND ST", "amenity": "post_box", "brand": "United States Postal Service", "brand:wikidata": "Q668687", "collection_times": "Mo-Fr 17:00; Sa 15:00", "indoor": "yes", "note": "ON 12/24 AND 12/31, THIS BOX MAY BE COLLECTED AS EARLY AS 12 NOON.", "nsi_id": "unitedstatespostalservice-a77078", "operator": "United States Postal Service", "operator:short": "USPS", "operator:type": "public", "operator:wikidata": "Q668687", "ref": "9553100016"}, "type": "Feature"}
{"geometry": {"coordinates": [-124.1976599646, 41.7512634529], "type": "Point"}, "id": "Lof61DX7RY5QQQtcqtsnzeoWLkg=", "properties": {"@source_uri": "https://tools.usps.com/UspsToolsRestServices/rest/POLocator/findLocations", "@spider": "usps_collection_boxes", "addr:city": "CRESCENT CITY", "addr:country": "US", "addr:postcode": "95531", "addr:state": "CA", "addr:street_address": "751 2ND ST", "amenity": "post_box", "brand": "United States Postal Service", "brand:wikidata": "Q668687", "collection_times": "Mo-Fr 17:00; Sa 15:00", "indoor": "yes", "note": "ON 12/24 AND 12/31, THIS BOX MAY BE COLLECTED AS EARLY AS 12 NOON.", "nsi_id": "unitedstatespostalservice-a77078", "operator": "United States Postal Service", "operator:short": "USPS", "operator:type": "public", "operator:wikidata": "Q668687", "ref": "9553100017"}, "type": "Feature"}
{"geometry": {"coordinates": [-124.1976599646, 41.7512634529], "type": "Point"}, "id": "fypoPHefv9iEsSl7C-g7oFwsKFM=", "properties": {"@source_uri": "https://tools.usps.com/UspsToolsRestServices/rest/POLocator/findLocations", "@spider": "usps_collection_boxes", "addr:city": "CRESCENT CITY", "addr:country": "US", "addr:postcode": "95531", "addr:state": "CA", "addr:street_address": "751 2ND ST", "amenity": "post_box", "brand": "United States Postal Service", "brand:wikidata": "Q668687", "collection_times": "Mo-Fr 17:00; Sa 15:00", "indoor": "yes", "note": "ON 12/24 AND 12/31, THIS BOX MAY BE COLLECTED AS EARLY AS 12 NOON.", "nsi_id": "unitedstatespostalservice-a77078", "operator": "United States Postal Service", "operator:short": "USPS", "operator:type": "public", "operator:wikidata": "Q668687", "ref": "9553100018"}, "type": "Feature"}
{"geometry": {"coordinates": [-124.1976599646, 41.7512634529], "type": "Point"}, "id": "quPCK1EP01GKDD1Gc98vb723qsk=", "properties": {"@source_uri": "https://tools.usps.com/UspsToolsRestServices/rest/POLocator/findLocations", "@spider": "usps_collection_boxes", "addr:city": "CRESCENT CITY", "addr:country": "US", "addr:postcode": "95531", "addr:state": "CA", "addr:street_address": "751 2ND ST", "amenity": "post_box", "brand": "United States Postal Service", "brand:wikidata": "Q668687", "collection_times": "Mo-Fr 17:00; Sa 15:00", "indoor": "yes", "note": "ON 12/24 AND 12/31, THIS BOX MAY BE COLLECTED AS EARLY AS 12 NOON.", "nsi_id": "unitedstatespostalservice-a77078", "operator": "United States Postal Service", "operator:short": "USPS", "operator:type": "public", "operator:wikidata": "Q668687", "ref": "9553100019"}, "type": "Feature"}
{"geometry": {"coordinates": [-124.1976599646, 41.7512634529], "type": "Point"}, "id": "X6d6HnxcHpELcw0XWzH9Tb6ysnI=", "properties": {"@source_uri": "https://tools.usps.com/UspsToolsRestServices/rest/POLocator/findLocations", "@spider": "usps_collection_boxes", "addr:city": "CRESCENT CITY", "addr:country": "US", "addr:postcode": "95531", "addr:state": "CA", "addr:street_address": "751 2ND ST", "amenity": "post_box", "brand": "United States Postal Service", "brand:wikidata": "Q668687", "collection_times": "Mo-Fr 16:00; Sa 15:00", "name": "USPS COLLECTION BOX - EXPRESS", "note": "ON 12/24 AND 12/31, THIS BOX MAY BE COLLECTED AS EARLY AS 12 NOON.", "nsi_id": "unitedstatespostalservice-a77078", "operator": "United States Postal Service", "operator:short": "USPS", "operator:type": "public", "operator:wikidata": "Q668687", "ref": "9553100021"}, "type": "Feature"}
{"geometry": {"coordinates": [-124.071385, 41.793115], "type": "Point"}, "id": "5ZKkhxi0zfbtTlm9f4z6N-ZRlbU=", "properties": {"@source_uri": "https://tools.usps.com/UspsToolsRestServices/rest/POLocator/findLocations", "@spider": "usps_collection_boxes", "addr:city": "CRESCENT CITY", "addr:country": "US", "addr:postcode": "95531", "addr:state": "CA", "addr:street_address": "2100 STATE HIGHWAY 199", "amenity": "post_box", "brand": "United States Postal Service", "brand:wikidata": "Q668687", "collection_times": "Mo-Sa 12:00", "nsi_id": "unitedstatespostalservice-a77078", "operator": "United States Postal Service", "operator:short": "USPS", "operator:type": "public", "operator:wikidata": "Q668687", "ref": "9553100022"}, "type": "Feature"}
{"geometry": {"coordinates": [-124.1976599646, 41.7512634529], "type": "Point"}, "id": "VS91rq4Sm-nnCzcSMQP6PfvGKi0=", "properties": {"@source_uri": "https://tools.usps.com/UspsToolsRestServices/rest/POLocator/findLocations", "@spider": "usps_collection_boxes", "addr:city": "CRESCENT CITY", "addr:country": "US", "addr:postcode": "95531", "addr:state": "CA", "addr:street_address": "751 2ND ST", "amenity": "post_box", "brand": "United States Postal Service", "brand:wikidata": "Q668687", "collection_times": "Mo-Fr 17:00; Sa 15:00", "note": "ON 12/24 AND 12/31, THIS BOX MAY BE COLLECTED AS EARLY AS 12 NOON.", "nsi_id": "unitedstatespostalservice-a77078", "operator": "United States Postal Service", "operator:short": "USPS", "operator:type": "public", "operator:wikidata": "Q668687", "ref": "9553100023"}, "type": "Feature"}
{"geometry": {"coordinates": [-124.1976599646, 41.7512634529], "type": "Point"}, "id": "HPPrdkMxeFww6ooqw9g9VER7HyA=", "properties": {"@source_uri": "https://tools.usps.com/UspsToolsRestServices/rest/POLocator/findLocations", "@spider": "usps_collection_boxes", "addr:city": "CRESCENT CITY", "addr:country": "US", "addr:postcode": "95531", "addr:state": "CA", "addr:street_address": "751 2ND ST", "amenity": "post_box", "brand": "United States Postal Service", "brand:wikidata": "Q668687", "collection_times": "Mo-Fr 17:00; Sa 15:00", "note": "ON 12/24 AND 12/31, THIS BOX MAY BE COLLECTED AS EARLY AS 12 NOON.", "nsi_id": "unitedstatespostalservice-a77078", "operator": "United States Postal Service", "operator:short": "USPS", "operator:type": "public", "operator:wikidata": "Q668687", "ref": "9553100024"}, "type": "Feature"}
{"geometry": {"coordinates": [-124.1976599646, 41.7512634529], "type": "Point"}, "id": "2Ewfj6Kkp84JYS8ohJ2V1MxAeqc=", "properties": {"@source_uri": "https://tools.usps.com/UspsToolsRestServices/rest/POLocator/findLocations", "@spider": "usps_collection_boxes", "addr:city": "CRESCENT CITY", "addr:country": "US", "addr:postcode": "95531", "addr:state": "CA", "addr:street_address": "751 2ND ST", "amenity": "post_box", "brand": "United States Postal Service", "brand:wikidata": "Q668687", "collection_times": "Mo-Fr 17:00; Sa 14:00", "indoor": "yes", "note": "ON 12/24 AND 12/31, THIS BOX MAY BE COLLECTED AS EARLY AS 12 NOON.", "nsi_id": "unitedstatespostalservice-a77078", "operator": "United States Postal Service", "operator:short": "USPS", "operator:type": "public", "operator:wikidata": "Q668687", "ref": "9553100027"}, "type": "Feature"}
{"geometry": {"coordinates": [-124.1509287773, 41.8649724992], "type": "Point"}, "id": "r3Y5JvW9UWrHcfOYEYMLBf9gtkE=", "properties": {"@source_uri": "https://tools.usps.com/UspsToolsRestServices/rest/POLocator/findLocations", "@spider": "usps_collection_boxes", "addr:city": "CRESCENT CITY", "addr:country": "US", "addr:postcode": "95531", "addr:state": "CA", "addr:street_address": "6666 LAKE EARL DR", "amenity": "post_box", "brand": "United States Postal Service", "brand:wikidata": "Q668687", "collection_times": "Mo-Sa 12:00", "nsi_id": "unitedstatespostalservice-a77078", "operator": "United States Postal Service", "operator:short": "USPS", "operator:type": "public", "operator:wikidata": "Q668687", "ref": "9553100028"}, "type": "Feature"}
{"geometry": {"coordinates": [-124.262592, 40.577477], "type": "Point"}, "id": "kPyZnWHNzLFVTcARwOuzO2kWcRg=", "properties": {"@source_uri": "https://tools.usps.com/UspsToolsRestServices/rest/POLocator/findLocations", "@spider": "usps_collection_boxes", "addr:city": "FERNDALE", "addr:country": "US", "addr:postcode": "95536", "addr:state": "CA", "addr:street_address": "536 MAIN ST", "amenity": "post_box", "brand": "United States Postal Service", "brand:wikidata": "Q668687", "collection_times": "Mo-Fr 16:30; Sa 12:00", "indoor": "yes", "note": "ON 12/24 AND 12/31, THIS BOX MAY BE COLLECTED AS EARLY AS 12 NOON.", "nsi_id": "unitedstatespostalservice-a77078", "operator": "United States Postal Service", "operator:short": "USPS", "operator:type": "public", "operator:wikidata": "Q668687", "ref": "9553600002"}, "type": "Feature"}
{"geometry": {"coordinates": [-124.2625954316, 40.5774713625], "type": "Point"}, "id": "wK0C-PENkjEPZLX7P0kYStebs_k=", "properties": {"@source_uri": "https://tools.usps.com/UspsToolsRestServices/rest/POLocator/findLocations", "@spider": "usps_collection_boxes", "addr:city": "FERNDALE", "addr:country": "US", "addr:postcode": "95536", "addr:state": "CA", "addr:street_address": "536 MAIN ST", "amenity": "post_box", "brand": "United States Postal Service", "brand:wikidata": "Q668687", "collection_times": "Mo-Fr 17:00; Sa 12:00", "indoor": "yes", "note": "ON 12/24 AND 12/31, THIS BOX MAY BE COLLECTED AS EARLY AS 12 NOON.", "nsi_id": "unitedstatespostalservice-a77078", "operator": "United States Postal Service", "operator:short": "USPS", "operator:type": "public", "operator:wikidata": "Q668687", "ref": "9553600004"}, "type": "Feature"}
{"geometry": {"coordinates": [-124.2156090899, 40.7246108315], "type": "Point"}, "id": "DT_v6U5t1ZYU7uE_NFbJelOdllE=", "properties": {"@source_uri": "https://tools.usps.com/UspsToolsRestServices/rest/POLocator/findLocations", "@spider": "usps_collection_boxes", "addr:city": "FIELDS LANDING", "addr:country": "US", "addr:postcode": "95537", "addr:state": "CA", "addr:street_address": "6710 FIELDS LANDING DR", "amenity": "post_box", "brand": "United States Postal Service", "brand:wikidata": "Q668687", "collection_times": "Mo-Fr 16:15; Sa 09:00", "note": "ON 12/24 AND 12/31, THIS BOX MAY BE COLLECTED AS EARLY AS 12 NOON.", "nsi_id": "unitedstatespostalservice-a77078", "operator": "United States Postal Service", "operator:short": "USPS", "operator:type": "public", "operator:wikidata": "Q668687", "ref": "9553700003"}, "type": "Feature"}
{"geometry": {"coordinates": [-124.2156090899, 40.7246108315], "type": "Point"}, "id": "CGQLyHkckSy_Ro_fbJrk9hj1yQY=", "properties": {"@source_uri": "https://tools.usps.com/UspsToolsRestServices/rest/POLocator/findLocations", "@spider": "usps_collection_boxes", "addr:city": "FIELDS LANDING", "addr:country": "US", "addr:postcode": "95537", "addr:state": "CA", "addr:street_address": "6710 FIELDS LANDING DR", "amenity": "post_box", "brand": "United States Postal Service", "brand:wikidata": "Q668687", "collection_times": "Mo-Fr 12:30", "indoor": "yes", "note": "ON 12/24 AND 12/31, THIS BOX MAY BE COLLECTED AS EARLY AS 12 NOON.", "nsi_id": "unitedstatespostalservice-a77078", "operator": "United States Postal Service", "operator:short": "USPS", "operator:type": "public", "operator:wikidata": "Q668687", "ref": "9553700004"}, "type": "Feature"}
{"geometry": {"coordinates": [-124.145286, 40.583793], "type": "Point"}, "id": "KALAZHFu02CCR3CWmsEG5a10t1g=", "properties": {"@source_uri": "https://tools.usps.com/UspsToolsRestServices/rest/POLocator/findLocations", "@spider": "usps_collection_boxes", "addr:city": "FORTUNA", "addr:country": "US", "addr:postcode": "95540", "addr:state": "CA", "addr:street_address": "705 S FORTUNA BLVD", "amenity": "post_box", "brand": "United States Postal Service", "brand:wikidata": "Q668687", "collection_times": "Mo-Sa 10:00", "nsi_id": "unitedstatespostalservice-a77078", "operator": "United States Postal Service", "operator:short": "USPS", "operator:type": "public", "operator:wikidata": "Q668687", "ref": "9554000006"}, "type": "Feature"}
{"geometry": {"coordinates": [-124.1533572713, 40.5977224716], "type": "Point"}, "id": "6_OPXCY5wS_cRK62y-X3ju5Gifk=", "properties": {"@source_uri": "https://tools.usps.com/UspsToolsRestServices/rest/POLocator/findLocations", "@spider": "usps_collection_boxes", "addr:city": "FORTUNA", "addr:country": "US", "addr:postcode": "95540", "addr:state": "CA", "addr:street_address": "699 13TH ST", "amenity": "post_box", "brand": "United States Postal Service", "brand:wikidata": "Q668687", "collection_times": "Mo-Fr 17:15; Sa 15:15", "note": "ON 12/24 AND 12/31, THIS BOX MAY BE COLLECTED AS EARLY AS 12 NOON.", "nsi_id": "unitedstatespostalservice-a77078", "operator": "United States Postal Service", "operator:short": "USPS", "operator:type": "public", "operator:wikidata": "Q668687", "ref": "9554000009"}, "type": "Feature"}
{"geometry": {"coordinates": [-124.1533572713, 40.5977224716], "type": "Point"}, "id": "WV9B9UU5-loKansyKeJbY46tmlQ=", "properties": {"@source_uri": "https://tools.usps.com/UspsToolsRestServices/rest/POLocator/findLocations", "@spider": "usps_collection_boxes", "addr:city": "FORTUNA", "addr:country": "US", "addr:postcode": "95540", "addr:state": "CA", "addr:street_address": "699 13TH ST", "amenity": "post_box", "brand": "United States Postal Service", "brand:wikidata": "Q668687", "collection_times": "Mo-Fr 17:15; Sa 15:15", "note": "ON 12/24 AND 12/31, THIS BOX MAY BE COLLECTED AS EARLY AS 12 NOON.", "nsi_id": "unitedstatespostalservice-a77078", "operator": "United States Postal Service", "operator:short": "USPS", "operator:type": "public", "operator:wikidata": "Q668687", "ref": "9554000010"}, "type": "Feature"}
{"geometry": {"coordinates": [-124.1533572713, 40.5977224716], "type": "Point"}, "id": "JIxD9gp6f3hQlLQ4LNVDtJHUMiY=", "properties": {"@source_uri": "https://tools.usps.com/UspsToolsRestServices/rest/POLocator/findLocations", "@spider": "usps_collection_boxes", "addr:city": "FORTUNA", "addr:country": "US", "addr:postcode": "95540", "addr:state": "CA", "addr:street_address": "699 13TH ST", "amenity": "post_box", "brand": "United States Postal Service", "brand:wikidata": "Q668687", "collection_times": "Mo-Fr 16:00; Sa 15:00", "name": "USPS COLLECTION BOX - EXPRESS", "note": "ON 12/24 AND 12/31, THIS BOX MAY BE COLLECTED AS EARLY AS 12 NOON.", "nsi_id": "unitedstatespostalservice-a77078", "operator": "United States Postal Service", "operator:short": "USPS", "operator:type": "public", "operator:wikidata": "Q668687", "ref": "9554000011"}, "type": "Feature"}
{"geometry": {"coordinates": [-124.135925, 40.581902], "type": "Point"}, "id": "0aGM5FQHu4Zegf-PlYjqFjirP-Q=", "properties": {"@source_uri": "https://tools.usps.com/UspsToolsRestServices/rest/POLocator/findLocations", "@spider": "usps_collection_boxes", "addr:city": "FORTUNA", "addr:country": "US", "addr:postcode": "95540", "addr:state": "CA", "addr:street_address": "3300 RENNER DR", "amenity": "post_box", "brand": "United States Postal Service", "brand:wikidata": "Q668687", "collection_times": "Mo-Fr 10:00", "nsi_id": "unitedstatespostalservice-a77078", "operator": "United States Postal Service", "operator:short": "USPS", "operator:type": "public", "operator:wikidata": "Q668687", "ref": "9554000012"}, "type": "Feature"}
{"geometry": {"coordinates": [-124.1533572713, 40.5977224716], "type": "Point"}, "id": "1_7OkW275ybjhKAZZmAT5ue0_Is=", "properties": {"@source_uri": "https://tools.usps.com/UspsToolsRestServices/rest/POLocator/findLocations", "@spider": "usps_collection_boxes", "addr:city": "FORTUNA", "addr:country": "US", "addr:postcode": "95540", "addr:state": "CA", "addr:street_address": "699 13TH ST", "amenity": "post_box", "brand": "United States Postal Service", "brand:wikidata": "Q668687", "collection_times": "Mo-Fr 17:15; Sa 15:15", "indoor": "yes", "note": "ON 12/24 AND 12/31, THIS BOX MAY BE COLLECTED AS EARLY AS 12 NOON.", "nsi_id": "unitedstatespostalservice-a77078", "operator": "United States Postal Service", "operator:short": "USPS", "operator:type": "public", "operator:wikidata": "Q668687", "ref": "9554000013"}, "type": "Feature"}
{"geometry": {"coordinates": [-124.144837, 40.590862], "type": "Point"}, "id": "--KwPMi4BJtyvfLw8kDkDxkpiMo=", "properties": {"@source_uri": "https://tools.usps.com/UspsToolsRestServices/rest/POLocator/findLocations", "@spider": "usps_collection_boxes", "addr:city": "FORTUNA", "addr:country": "US", "addr:postcode": "95540", "addr:state": "CA", "addr:street_address": "2130 SMITH LN", "amenity": "post_box", "brand": "United States Postal Service", "brand:wikidata": "Q668687", "collection_times": "Mo-Sa 11:00", "nsi_id": "unitedstatespostalservice-a77078", "operator": "United States Postal Service", "operator:short": "USPS", "operator:type": "public", "operator:wikidata": "Q668687", "ref": "9554000014"}, "type": "Feature"}
{"geometry": {"coordinates": [-124.145702, 40.595923], "type": "Point"}, "id": "9OtuoAQgBIPknYxSkteGaFWbhno=", "properties": {"@source_uri": "https://tools.usps.com/UspsToolsRestServices/rest/POLocator/findLocations", "@spider": "usps_collection_boxes", "addr:city": "FORTUNA", "addr:country": "US", "addr:postcode": "95540", "addr:state": "CA", "addr:street_address": "2039 MAIN ST", "amenity": "post_box", "brand": "United States Postal Service", "brand:wikidata": "Q668687", "collection_times": "Mo-Sa 10:00", "nsi_id": "unitedstatespostalservice-a77078", "operator": "United States Postal Service", "operator:short": "USPS", "operator:type": "public", "operator:wikidata": "Q668687", "ref": "9554000015"}, "type": "Feature"}
{"geometry": {"coordinates": [-124.155414, 40.597516], "type": "Point"}, "id": "Ud4wYBTVETmcOdGFmesoK9Q4DTA=", "properties": {"@source_uri": "https://tools.usps.com/UspsToolsRestServices/rest/POLocator/findLocations", "@spider": "usps_collection_boxes", "addr:city": "FORTUNA", "addr:country": "US", "addr:postcode": "95540", "addr:state": "CA", "addr:street_address": "621 11TH ST", "amenity": "post_box", "brand": "United States Postal Service", "brand:wikidata": "Q668687", "collection_times": "Mo-Sa 10:00", "nsi_id": "unitedstatespostalservice-a77078", "operator": "United States Postal Service", "operator:short": "USPS", "operator:type": "public", "operator:wikidata": "Q668687", "ref": "9554000016"}, "type": "Feature"}
{"geometry": {"coordinates": [-124.1533572713, 40.5977224716], "type": "Point"}, "id": "rpvihyqmx4FTZR0NrPirr-IFTM8=", "properties": {"@source_uri": "https://tools.usps.com/UspsToolsRestServices/rest/POLocator/findLocations", "@spider": "usps_collection_boxes", "addr:city": "FORTUNA", "addr:country": "US", "addr:postcode": "95540", "addr:state": "CA", "addr:street_address": "699 13TH ST", "amenity": "post_box", "brand": "United States Postal Service", "brand:wikidata": "Q668687", "collection_times": "Mo-Fr 17:00", "indoor": "yes", "note": "ON 12/24 AND 12/31, THIS BOX MAY BE COLLECTED AS EARLY AS 12 NOON.", "nsi_id": "unitedstatespostalservice-a77078", "operator": "United States Postal Service", "operator:short": "USPS", "operator:type": "public", "operator:wikidata": "Q668687", "ref": "9554000017"}, "type": "Feature"}
{"geometry": {"coordinates": [-123.79443, 40.098472], "type": "Point"}, "id": "XOAorhDLTdc2j1NPpQS0U8z5138=", "properties": {"@source_uri": "https://tools.usps.com/UspsToolsRestServices/rest/POLocator/findLocations", "@spider": "usps_collection_boxes", "addr:city": "GARBERVILLE", "addr:country": "US", "addr:postcode": "95542", "addr:state": "CA", "addr:street_address": "875 REDWOOD DR", "amenity": "post_box", "brand": "United States Postal Service", "brand:wikidata": "Q668687", "collection_times": "Mo-Sa 14:30", "note": "ON 12/24 AND 12/31, THIS BOX MAY BE COLLECTED AS EARLY AS 12 NOON.", "nsi_id": "unitedstatespostalservice-a77078", "operator": "United States Postal Service", "operator:short": "USPS", "operator:type": "public", "operator:wikidata": "Q668687", "ref": "9554200006"}, "type": "Feature"}
{"geometry": {"coordinates": [-123.7949156225, 40.1001228982], "type": "Point"}, "id": "GiJ-wYE98DLJ4Xy6fAHSTVv-Q84=", "properties": {"@source_uri": "https://tools.usps.com/UspsToolsRestServices/rest/POLocator/findLocations", "@spider": "usps_collection_boxes", "addr:city": "GARBERVILLE", "addr:country": "US", "addr:postcode": "95542", "addr:state": "CA", "addr:street_address": "817 REDWOOD DR", "amenity": "post_box", "brand": "United States Postal Service", "brand:wikidata": "Q668687", "collection_times": "Mo-Sa 14:30", "note": "ON 12/24 AND 12/31, THIS BOX MAY BE COLLECTED AS EARLY AS 12 NOON.", "nsi_id": "unitedstatespostalservice-a77078", "operator": "United States Postal Service", "operator:short": "USPS", "operator:type": "public", "operator:wikidata": "Q668687", "ref": "9554200007"}, "type": "Feature"}
{"geometry": {"coordinates": [-123.794849, 40.10062], "type": "Point"}, "id": "fr2kRo6OWFwfbHOdL9keTcTC0M4=", "properties": {"@source_uri": "https://tools.usps.com/UspsToolsRestServices/rest/POLocator/findLocations", "@spider": "usps_collection_boxes", "addr:city": "GARBERVILLE", "addr:country": "US", "addr:postcode": "95542", "addr:state": "CA", "addr:street_address": "773 REDWOOD DR", "amenity": "post_box", "brand": "United States Postal Service", "brand:wikidata": "Q668687", "collection_times": "Mo-Sa 14:30", "note": "ON 12/24 AND 12/31, THIS BOX MAY BE COLLECTED AS EARLY AS 12 NOON.", "nsi_id": "unitedstatespostalservice-a77078", "operator": "United States Postal Service", "operator:short": "USPS", "operator:type": "public", "operator:wikidata": "Q668687", "ref": "9554200008"}, "type": "Feature"}
{"geometry": {"coordinates": [-123.7927564046, 40.100823], "type": "Point"}, "id": "FMYn9FMh9ahJBGrjniH8bzZnL30=", "properties": {"@source_uri": "https://tools.usps.com/UspsToolsRestServices/rest/POLocator/findLocations", "@spider": "usps_collection_boxes", "addr:city": "GARBERVILLE", "addr:country": "US", "addr:postcode": "95542", "addr:state": "CA", "addr:street_address": "764 CEDAR ST", "amenity": "post_box", "brand": "United States Postal Service", "brand:wikidata": "Q668687", "collection_times": "Mo-Sa 10:30", "nsi_id": "unitedstatespostalservice-a77078", "operator": "United States Postal Service", "operator:short": "USPS", "operator:type": "public", "operator:wikidata": "Q668687", "ref": "9554200009"}, "type": "Feature"}
{"geometry": {"coordinates": [-123.7958886439, 40.0990638951], "type": "Point"}, "id": "jmy8rPToEAM1TICi5dmz2f8hP0o=", "properties": {"@source_uri": "https://tools.usps.com/UspsToolsRestServices/rest/POLocator/findLocations", "@spider": "usps_collection_boxes", "addr:city": "GARBERVILLE", "addr:country": "US", "addr:postcode": "95542", "addr:state": "CA", "addr:street_address": "368 SPROWL CREEK RD", "amenity": "post_box", "brand": "United States Postal Service", "brand:wikidata": "Q668687", "collection_times": "Mo-Fr 16:30", "indoor": "yes", "note": "ON 12/24 AND 12/31, THIS BOX MAY BE COLLECTED AS EARLY AS 12 NOON.", "nsi_id": "unitedstatespostalservice-a77078", "operator": "United States Postal Service", "operator:short": "USPS", "operator:type": "public", "operator:wikidata": "Q668687", "ref": "9554200010"}, "type": "Feature"}
{"geometry": {"coordinates": [-123.9905243, 41.8425563], "type": "Point"}, "id": "FUqCAJS-xQ6STiWyRd232Y-H8H8=", "properties": {"@source_uri": "https://tools.usps.com/UspsToolsRestServices/rest/POLocator/findLocations", "@spider": "usps_collection_boxes", "addr:city": "GASQUET", "addr:country": "US", "addr:postcode": "95543", "addr:state": "CA", "addr:street_address": "10360 US HIGHWAY 199", "amenity": "post_box", "brand": "United States Postal Service", "brand:wikidata": "Q668687", "collection_times": "Mo-Fr 11:30; Sa 11:00", "indoor": "yes", "nsi_id": "unitedstatespostalservice-a77078", "operator": "United States Postal Service", "operator:short": "USPS", "operator:type": "public", "operator:wikidata": "Q668687", "ref": "9554300005"}, "type": "Feature"}
{"geometry": {"coordinates": [-123.9905243, 41.8425563], "type": "Point"}, "id": "PzgEaNqulHR3Swq37b-104k-iPo=", "properties": {"@source_uri": "https://tools.usps.com/UspsToolsRestServices/rest/POLocator/findLocations", "@spider": "usps_collection_boxes", "addr:city": "GASQUET", "addr:country": "US", "addr:postcode": "95543", "addr:state": "CA", "addr:street_address": "10360 US HIGHWAY 199", "amenity": "post_box", "brand": "United States Postal Service", "brand:wikidata": "Q668687", "collection_times": "Mo-Fr 15:00; Sa 10:30", "note": "ON 12/24 AND 12/31, THIS BOX MAY BE COLLECTED AS EARLY AS 12 NOON.", "nsi_id": "unitedstatespostalservice-a77078", "operator": "United States Postal Service", "operator:short": "USPS", "operator:type": "public", "operator:wikidata": "Q668687", "ref": "9554300006"}, "type": "Feature"}
{"geometry": {"coordinates": [-124.126564, 40.243066], "type": "Point"}, "id": "onezn79wsOZds3T8zHyOegmFyWk=", "properties": {"@source_uri": "https://tools.usps.com/UspsToolsRestServices/rest/POLocator/findLocations", "@spider": "usps_collection_boxes", "addr:city": "HONEYDEW", "addr:country": "US", "addr:postcode": "95545", "addr:state": "CA", "addr:street_address": "44670 MATTOLE RD", "amenity": "post_box", "brand": "United States Postal Service", "brand:wikidata": "Q668687", "collection_times": "Mo-Fr 12:00; Sa 11:30", "indoor": "yes", "nsi_id": "unitedstatespostalservice-a77078", "operator": "United States Postal Service", "operator:short": "USPS", "operator:type": "public", "operator:wikidata": "Q668687", "ref": "9554500001"}, "type": "Feature"}
{"geometry": {"coordinates": [-124.123554, 40.243272499], "type": "Point"}, "id": "ymb5C4PRQ8qKS4z3v9WSSOHU-oo=", "properties": {"@source_uri": "https://tools.usps.com/UspsToolsRestServices/rest/POLocator/findLocations", "@spider": "usps_collection_boxes", "addr:city": "HONEYDEW", "addr:country": "US", "addr:postcode": "95545", "addr:state": "CA", "addr:street_address": "44670 MATTOLE RD", "amenity": "post_box", "brand": "United States Postal Service", "brand:wikidata": "Q668687", "collection_times": "Mo-Fr 15:00", "indoor": "yes", "note": "ON 12/24 AND 12/31, THIS BOX MAY BE COLLECTED AS EARLY AS 12 NOON.", "nsi_id": "unitedstatespostalservice-a77078", "operator": "United States Postal Service", "operator:short": "USPS", "operator:type": "public", "operator:wikidata": "Q668687", "ref": "9554500002"}, "type": "Feature"}
{"geometry": {"coordinates": [-123.6975497, 41.0853203], "type": "Point"}, "id": "iy3Sy5QFukyyDv-TYDsPYlCKeEU=", "properties": {"@source_uri": "https://tools.usps.com/UspsToolsRestServices/rest/POLocator/findLocations", "@spider": "usps_collection_boxes", "addr:city": "HOOPA", "addr:country": "US", "addr:postcode": "95546", "addr:state": "CA", "addr:street_address": "22822 STATE HIGHWAY 96 N", "amenity": "post_box", "brand": "United States Postal Service", "brand:wikidata": "Q668687", "collection_times": "Mo-Fr 15:15; Sa 10:30", "note": "ON 12/24 AND 12/31, THIS BOX MAY BE COLLECTED AS EARLY AS 12 NOON.", "nsi_id": "unitedstatespostalservice-a77078", "operator": "United States Postal Service", "operator:short": "USPS", "operator:type": "public", "operator:wikidata": "Q668687", "ref": "9554600003"}, "type": "Feature"}
{"geometry": {"coordinates": [-123.6975497, 41.0853203], "type": "Point"}, "id": "rxSb2SSzoA70Pl7q3yEhi5tv430=", "properties": {"@source_uri": "https://tools.usps.com/UspsToolsRestServices/rest/POLocator/findLocations", "@spider": "usps_collection_boxes", "addr:city": "HOOPA", "addr:country": "US", "addr:postcode": "95546", "addr:state": "CA", "addr:street_address": "22822 STATE HIGHWAY 96 N, HOOPA", "amenity": "post_box", "brand": "United States Postal Service", "brand:wikidata": "Q668687", "collection_times": "Mo-Fr 15:15; Sa 10:30", "indoor": "yes", "note": "ON 12/24 AND 12/31, THIS BOX MAY BE COLLECTED AS EARLY AS 12 NOON.", "nsi_id": "unitedstatespostalservice-a77078", "operator": "United States Postal Service", "operator:short": "USPS", "operator:type": "public", "operator:wikidata": "Q668687", "ref": "9554600004"}, "type": "Feature"}
{"geometry": {"coordinates": [-123.6975497, 41.0853203], "type": "Point"}, "id": "mm6iuJPEWgk3pe9RCB22DdclyBQ=", "properties": {"@source_uri": "https://tools.usps.com/UspsToolsRestServices/rest/POLocator/findLocations", "@spider": "usps_collection_boxes", "addr:city": "HOOPA", "addr:country": "US", "addr:postcode": "95546", "addr:state": "CA", "addr:street_address": "22822 STATE HIGHWAY 96 N", "amenity": "post_box", "brand": "United States Postal Service", "brand:wikidata": "Q668687", "collection_times": "Mo-Fr 12:45; Sa 10:30", "note": "ON 12/24 AND 12/31, THIS BOX MAY BE COLLECTED AS EARLY AS 12 NOON.", "nsi_id": "unitedstatespostalservice-a77078", "operator": "United States Postal Service", "operator:short": "USPS", "operator:type": "public", "operator:wikidata": "Q668687", "ref": "9554600005"}, "type": "Feature"}
{"geometry": {"coordinates": [-123.6747504757, 41.0508863052], "type": "Point"}, "id": "DtwK-enudz6NoHbgXtasUWJlO2M=", "properties": {"@source_uri": "https://tools.usps.com/UspsToolsRestServices/rest/POLocator/findLocations", "@spider": "usps_collection_boxes", "addr:city": "HOOPA", "addr:country": "US", "addr:postcode": "95546", "addr:state": "CA", "addr:street_address": "100 STATE HIGHWAY 96 N", "amenity": "post_box", "brand": "United States Postal Service", "brand:wikidata": "Q668687", "collection_times": "Mo-Fr 17:00", "indoor": "yes", "note": "ON 12/24 AND 12/31, THIS BOX MAY BE COLLECTED AS EARLY AS 12 NOON.", "nsi_id": "unitedstatespostalservice-a77078", "operator": "United States Postal Service", "operator:short": "USPS", "operator:type": "public", "operator:wikidata": "Q668687", "ref": "9554600006"}, "type": "Feature"}
{"geometry": {"coordinates": [-124.09809, 40.547875], "type": "Point"}, "id": "mcf8U_LzB11x4gPwgohQhQZgB2w=", "properties": {"@source_uri": "https://tools.usps.com/UspsToolsRestServices/rest/POLocator/findLocations", "@spider": "usps_collection_boxes", "addr:city": "HYDESVILLE", "addr:country": "US", "addr:postcode": "95547", "addr:state": "CA", "addr:street_address": "3390 STATE HIGHWAY 36", "amenity": "post_box", "brand": "United States Postal Service", "brand:wikidata": "Q668687", "collection_times": "Mo-Fr 16:30; Sa 09:00", "note": "ON 12/24 AND 12/31, THIS BOX MAY BE COLLECTED AS EARLY AS 12 NOON.", "nsi_id": "unitedstatespostalservice-a77078", "operator": "United States Postal Service", "operator:short": "USPS", "operator:type": "public", "operator:wikidata": "Q668687", "ref": "9554700002"}, "type": "Feature"}
{"geometry": {"coordinates": [-124.0977122821, 40.5475197783], "type": "Point"}, "id": "pMNL0wxluyb-sekLF5LJ_WgHy2k=", "properties": {"@source_uri": "https://tools.usps.com/UspsToolsRestServices/rest/POLocator/findLocations", "@spider": "usps_collection_boxes", "addr:city": "HYDESVILLE", "addr:country": "US", "addr:postcode": "95547", "addr:state": "CA", "addr:street_address": "3390 STATE HIGHWAY 36", "amenity": "post_box", "brand": "United States Postal Service", "brand:wikidata": "Q668687", "collection_times": "Mo-Fr 16:30; Sa 09:00", "indoor": "yes", "note": "ON 12/24 AND 12/31, THIS BOX MAY BE COLLECTED AS EARLY AS 12 NOON.", "nsi_id": "unitedstatespostalservice-a77078", "operator": "United States Postal Service", "operator:short": "USPS", "operator:type": "public", "operator:wikidata": "Q668687", "ref": "9554700003"}, "type": "Feature"}
{"geometry": {"coordinates": [-124.0977122821, 40.5475197783], "type": "Point"}, "id": "sezeBw6BjPFRqut5oMSQ1qCvpNo=", "properties": {"@source_uri": "https://tools.usps.com/UspsToolsRestServices/rest/POLocator/findLocations", "@spider": "usps_collection_boxes", "addr:city": "HYDESVILLE", "addr:country": "US", "addr:postcode": "95547", "addr:state": "CA", "addr:street_address": "3390 STATE HIGHWAY 36", "amenity": "post_box", "brand": "United States Postal Service", "brand:wikidata": "Q668687", "collection_times": "Mo-Fr 16:45", "indoor": "yes", "note": "ON 12/24 AND 12/31, THIS BOX MAY BE COLLECTED AS EARLY AS 12 NOON.", "nsi_id": "unitedstatespostalservice-a77078", "operator": "United States Postal Service", "operator:short": "USPS", "operator:type": "public", "operator:wikidata": "Q668687", "ref": "9554700004"}, "type": "Feature"}
{"geometry": {"coordinates": [-124.040871, 41.531889], "type": "Point"}, "id": "qMmpsNPOi3JM4ALn5bZFUGzaYjM=", "properties": {"@source_uri": "https://tools.usps.com/UspsToolsRestServices/rest/POLocator/findLocations", "@spider": "usps_collection_boxes", "addr:city": "KLAMATH", "addr:country": "US", "addr:postcode": "95548", "addr:state": "CA", "addr:street_address": "141 KLAMATH BLVD", "amenity": "post_box", "brand": "United States Postal Service", "brand:wikidata": "Q668687", "collection_times": "Mo-Fr 15:30; Sa 09:45", "indoor": "yes", "note": "ON 12/24 AND 12/31, THIS BOX MAY BE COLLECTED AS EARLY AS 12 NOON.", "nsi_id": "unitedstatespostalservice-a77078", "operator": "United States Postal Service", "operator:short": "USPS", "operator:type": "public", "operator:wikidata": "Q668687", "ref": "9554800002"}, "type": "Feature"}
{"geometry": {"coordinates": [-124.0408735489, 41.5318849844], "type": "Point"}, "id": "LPMl88YqHWnjBC2PHspEPwmcfMs=", "properties": {"@source_uri": "https://tools.usps.com/UspsToolsRestServices/rest/POLocator/findLocations", "@spider": "usps_collection_boxes", "addr:city": "KLAMATH", "addr:country": "US", "addr:postcode": "95548", "addr:state": "CA", "addr:street_address": "141 KLAMATH BLVD", "amenity": "post_box", "brand": "United States Postal Service", "brand:wikidata": "Q668687", "collection_times": "Mo-Fr 16:30", "indoor": "yes", "note": "ON 12/24 AND 12/31, THIS BOX MAY BE COLLECTED AS EARLY AS 12 NOON.", "nsi_id": "unitedstatespostalservice-a77078", "operator": "United States Postal Service", "operator:short": "USPS", "operator:type": "public", "operator:wikidata": "Q668687", "ref": "9554800003"}, "type": "Feature"}
{"geometry": {"coordinates": [-124.2248613721, 40.6399710099], "type": "Point"}, "id": "7S98H_36H01SRCnP8T0IPB_iv1Q=", "properties": {"@source_uri": "https://tools.usps.com/UspsToolsRestServices/rest/POLocator/findLocations", "@spider": "usps_collection_boxes", "addr:city": "LOLETA", "addr:country": "US", "addr:postcode": "95551", "addr:state": "CA", "addr:street_address": "338 MAIN ST", "amenity": "post_box", "brand": "United States Postal Service", "brand:wikidata": "Q668687", "collection_times": "Mo-Fr 16:45; Sa 09:00", "indoor": "yes", "note": "ON 12/24 AND 12/31, THIS BOX MAY BE COLLECTED AS EARLY AS 12 NOON.", "nsi_id": "unitedstatespostalservice-a77078", "operator": "United States Postal Service", "operator:short": "USPS", "operator:type": "public", "operator:wikidata": "Q668687", "ref": "9555100002"}, "type": "Feature"}
{"geometry": {"coordinates": [-124.2248613721, 40.6399710099], "type": "Point"}, "id": "jkKXSiED8wvAbhrk_UmqfJCrZ5c=", "properties": {"@source_uri": "https://tools.usps.com/UspsToolsRestServices/rest/POLocator/findLocations", "@spider": "usps_collection_boxes", "addr:city": "LOLETA", "addr:country": "US", "addr:postcode": "95551", "addr:state": "CA", "addr:street_address": "338 MAIN ST", "amenity": "post_box", "brand": "United States Postal Service", "brand:wikidata": "Q668687", "collection_times": "Mo-Fr 17:00", "indoor": "yes", "note": "ON 12/24 AND 12/31, THIS BOX MAY BE COLLECTED AS EARLY AS 12 NOON.", "nsi_id": "unitedstatespostalservice-a77078", "operator": "United States Postal Service", "operator:short": "USPS", "operator:type": "public", "operator:wikidata": "Q668687", "ref": "9555100004"}, "type": "Feature"}
{"geometry": {"coordinates": [-123.509625, 40.452337], "type": "Point"}, "id": "vyj21RpUGFlvsQzonFmH_qPZcD4=", "properties": {"@source_uri": "https://tools.usps.com/UspsToolsRestServices/rest/POLocator/findLocations", "@spider": "usps_collection_boxes", "addr:city": "MAD RIVER", "addr:country": "US", "addr:postcode": "95552", "addr:state": "CA", "addr:street_address": "2515B STATE HIGHWAY 36", "amenity": "post_box", "brand": "United States Postal Service", "brand:wikidata": "Q668687", "collection_times": "Mo-Fr 15:15; Sa 11:00", "indoor": "yes", "note": "ON 12/24 AND 12/31, THIS BOX MAY BE COLLECTED AS EARLY AS 12 NOON.", "nsi_id": "unitedstatespostalservice-a77078", "operator": "United States Postal Service", "operator:short": "USPS", "operator:type": "public", "operator:wikidata": "Q668687", "ref": "9555200002"}, "type": "Feature"}
{"geometry": {"coordinates": [-123.509625, 40.452337], "type": "Point"}, "id": "G7Ftc6-UYmv2R1KJ4kvZNAogKVo=", "properties": {"@source_uri": "https://tools.usps.com/UspsToolsRestServices/rest/POLocator/findLocations", "@spider": "usps_collection_boxes", "addr:city": "MAD RIVER", "addr:country": "US", "addr:postcode": "95552", "addr:state": "CA", "addr:street_address": "2515B STATE HIGHWAY 36", "amenity": "post_box", "brand": "United States Postal Service", "brand:wikidata": "Q668687", "collection_times": "Mo-Fr 15:15; Sa 11:00", "note": "ON 12/24 AND 12/31, THIS BOX MAY BE COLLECTED AS EARLY AS 12 NOON.", "nsi_id": "unitedstatespostalservice-a77078", "operator": "United States Postal Service", "operator:short": "USPS", "operator:type": "public", "operator:wikidata": "Q668687", "ref": "9555200003"}, "type": "Feature"}
{"geometry": {"coordinates": [-123.5078594194, 40.4523696261], "type": "Point"}, "id": "rsceWkn1rVjVz0C2SKS4xAwBL4k=", "properties": {"@source_uri": "https://tools.usps.com/UspsToolsRestServices/rest/POLocator/findLocations", "@spider": "usps_collection_boxes", "addr:city": "MAD RIVER", "addr:country": "US", "addr:postcode": "95552", "addr:state": "CA", "addr:street_address": "2515B STATE HIGHWAY 36", "amenity": "post_box", "brand": "United States Postal Service", "brand:wikidata": "Q668687", "collection_times": "Mo-Fr 16:00", "indoor": "yes", "note": "ON 12/24 AND 12/31, THIS BOX MAY BE COLLECTED AS EARLY AS 12 NOON.", "nsi_id": "unitedstatespostalservice-a77078", "operator": "United States Postal Service", "operator:short": "USPS", "operator:type": "public", "operator:wikidata": "Q668687", "ref": "9555200004"}, "type": "Feature"}
{"geometry": {"coordinates": [-123.3213849847, 40.2694300144], "type": "Point"}, "id": "VM106J6Ae_CyqWUdN764kkB6JnQ=", "properties": {"@source_uri": "https://tools.usps.com/UspsToolsRestServices/rest/POLocator/findLocations", "@spider": "usps_collection_boxes", "addr:city": "MAD RIVER", "addr:country": "US", "addr:postcode": "95552", "addr:state": "CA", "addr:street_address": "18001 MAD RIVER RD", "amenity": "post_box", "brand": "United States Postal Service", "brand:wikidata": "Q668687", "collection_times": "Mo-Fr 14:45; Sa 12:00", "note": "ON 12/24 AND 12/31, THIS BOX MAY BE COLLECTED AS EARLY AS 12 NOON.", "nsi_id": "unitedstatespostalservice-a77078", "operator": "United States Postal Service", "operator:short": "USPS", "operator:type": "public", "operator:wikidata": "Q668687", "ref": "9555200005"}, "type": "Feature"}
{"geometry": {"coordinates": [-123.824316551, 40.2351928637], "type": "Point"}, "id": "OoryNEofKruhUJwz4gdQozt_jVc=", "properties": {"@source_uri": "https://tools.usps.com/UspsToolsRestServices/rest/POLocator/findLocations", "@spider": "usps_collection_boxes", "addr:city": "MIRANDA", "addr:country": "US", "addr:postcode": "95553", "addr:state": "CA", "addr:street_address": "6723 STATE HIGHWAY 254", "amenity": "post_box", "brand": "United States Postal Service", "brand:wikidata": "Q668687", "collection_times": "Mo-Fr 14:45; Sa 09:30", "indoor": "yes", "note": "ON 12/24 AND 12/31, THIS BOX MAY BE COLLECTED AS EARLY AS 12 NOON.", "nsi_id": "unitedstatespostalservice-a77078", "operator": "United States Postal Service", "operator:short": "USPS", "operator:type": "public", "operator:wikidata": "Q668687", "ref": "9555300002"}, "type": "Feature"}
{"geometry": {"coordinates": [-123.824316551, 40.2351928637], "type": "Point"}, "id": "7VbwZr1I0D8eS-uM8DvpbNPCTAo=", "properties": {"@source_uri": "https://tools.usps.com/UspsToolsRestServices/rest/POLocator/findLocations", "@spider": "usps_collection_boxes", "addr:city": "MIRANDA", "addr:country": "US", "addr:postcode": "95553", "addr:state": "CA", "addr:street_address": "6723 STATE HIGHWAY 254", "amenity": "post_box", "brand": "United States Postal Service", "brand:wikidata": "Q668687", "collection_times": "Mo-Fr 14:45; Sa 09:15", "note": "ON 12/24 AND 12/31, THIS BOX MAY BE COLLECTED AS EARLY AS 12 NOON.", "nsi_id": "unitedstatespostalservice-a77078", "operator": "United States Postal Service", "operator:short": "USPS", "operator:type": "public", "operator:wikidata": "Q668687", "ref": "9555300003"}, "type": "Feature"}
{"geometry": {"coordinates": [-123.824316551, 40.2351928637], "type": "Point"}, "id": "3Tt7B64YekyzpLJA7uBEv-3pdhM=", "properties": {"@source_uri": "https://tools.usps.com/UspsToolsRestServices/rest/POLocator/findLocations", "@spider": "usps_collection_boxes", "addr:city": "MIRANDA", "addr:country": "US", "addr:postcode": "95553", "addr:state": "CA", "addr:street_address": "6723 STATE HIGHWAY 254", "amenity": "post_box", "brand": "United States Postal Service", "brand:wikidata": "Q668687", "collection_times": "Mo-Fr 16:30", "indoor": "yes", "note": "ON 12/24 AND 12/31, THIS BOX MAY BE COLLECTED AS EARLY AS 12 NOON.", "nsi_id": "unitedstatespostalservice-a77078", "operator": "United States Postal Service", "operator:short": "USPS", "operator:type": "public", "operator:wikidata": "Q668687", "ref": "9555300004"}, "type": "Feature"}
{"geometry": {"coordinates": [-123.871437, 40.266113], "type": "Point"}, "id": "Yj15yaMcR9053-7Szk-E-Y___CI=", "properties": {"@source_uri": "https://tools.usps.com/UspsToolsRestServices/rest/POLocator/findLocations", "@spider": "usps_collection_boxes", "addr:city": "MYERS FLAT", "addr:country": "US", "addr:postcode": "95554", "addr:state": "CA", "addr:street_address": "12848 HIGHWAY 254", "amenity": "post_box", "brand": "United States Postal Service", "brand:wikidata": "Q668687", "collection_times": "Mo-Fr 12:00; Sa 08:30", "indoor": "yes", "nsi_id": "unitedstatespostalservice-a77078", "operator": "United States Postal Service", "operator:short": "USPS", "operator:type": "public", "operator:wikidata": "Q668687", "ref": "9555400002"}, "type": "Feature"}
{"geometry": {"coordinates": [-123.871437, 40.266114], "type": "Point"}, "id": "SkQeCeAyKqjnLttIKsLJl8voq4M=", "properties": {"@source_uri": "https://tools.usps.com/UspsToolsRestServices/rest/POLocator/findLocations", "@spider": "usps_collection_boxes", "addr:city": "MYERS FLAT", "addr:country": "US", "addr:postcode": "95554", "addr:state": "CA", "addr:street_address": "12848 HIGHWAY 254", "amenity": "post_box", "brand": "United States Postal Service", "brand:wikidata": "Q668687", "collection_times": "Mo-Fr 15:30; Sa 08:30", "note": "ON 12/24 AND 12/31, THIS BOX MAY BE COLLECTED AS EARLY AS 12 NOON.", "nsi_id": "unitedstatespostalservice-a77078", "operator": "United States Postal Service", "operator:short": "USPS", "operator:type": "public", "operator:wikidata": "Q668687", "ref": "9555400003"}, "type": "Feature"}
{"geometry": {"coordinates": [-123.871401682, 40.2660601012], "type": "Point"}, "id": "ZGR3hnYqaNjnyFiautGBbP77Qn4=", "properties": {"@source_uri": "https://tools.usps.com/UspsToolsRestServices/rest/POLocator/findLocations", "@spider": "usps_collection_boxes", "addr:city": "MYERS FLAT", "addr:country": "US", "addr:postcode": "95554", "addr:state": "CA", "addr:street_address": "12848 STATE HIGHWAY 254", "amenity": "post_box", "brand": "United States Postal Service", "brand:wikidata": "Q668687", "collection_times": "Mo-Fr 12:00", "indoor": "yes", "nsi_id": "unitedstatespostalservice-a77078", "operator": "United States Postal Service", "operator:short": "USPS", "operator:type": "public", "operator:wikidata": "Q668687", "ref": "9555400004"}, "type": "Feature"}
{"geometry": {"coordinates": [-124.058222091, 41.2903022592], "type": "Point"}, "id": "B5BSyXzOFXe8OuZqN56dJdU482s=", "properties": {"@source_uri": "https://tools.usps.com/UspsToolsRestServices/rest/POLocator/findLocations", "@spider": "usps_collection_boxes", "addr:city": "ORICK", "addr:country": "US", "addr:postcode": "95555", "addr:state": "CA", "addr:street_address": "121147 HIGHWAY 101", "amenity": "post_box", "brand": "United States Postal Service", "brand:wikidata": "Q668687", "collection_times": "Mo-Fr 13:15; Sa 09:00", "note": "ON 12/24 AND 12/31, THIS BOX MAY BE COLLECTED AS EARLY AS 12 NOON.", "nsi_id": "unitedstatespostalservice-a77078", "operator": "United States Postal Service", "operator:short": "USPS", "operator:type": "public", "operator:wikidata": "Q668687", "ref": "9555500002"}, "type": "Feature"}
{"geometry": {"coordinates": [-124.058222091, 41.2903022592], "type": "Point"}, "id": "mh71p9FkrgG5JmLMdjIOMRPEon8=", "properties": {"@source_uri": "https://tools.usps.com/UspsToolsRestServices/rest/POLocator/findLocations", "@spider": "usps_collection_boxes", "addr:city": "ORICK", "addr:country": "US", "addr:postcode": "95555", "addr:state": "CA", "addr:street_address": "121147 HIGHWAY 101", "amenity": "post_box", "brand": "United States Postal Service", "brand:wikidata": "Q668687", "collection_times": "Mo-Fr 13:30; Sa 09:00", "indoor": "yes", "note": "ON 12/24 AND 12/31, THIS BOX MAY BE COLLECTED AS EARLY AS 12 NOON.", "nsi_id": "unitedstatespostalservice-a77078", "operator": "United States Postal Service", "operator:short": "USPS", "operator:type": "public", "operator:wikidata": "Q668687", "ref": "9555500003"}, "type": "Feature"}
{"geometry": {"coordinates": [-124.058222091, 41.2903022592], "type": "Point"}, "id": "1IB1P9Hq3MOgA8xtGBtR8DdurB8=", "properties": {"@source_uri": "https://tools.usps.com/UspsToolsRestServices/rest/POLocator/findLocations", "@spider": "usps_collection_boxes", "addr:city": "ORICK", "addr:country": "US", "addr:postcode": "95555", "addr:state": "CA", "addr:street_address": "121147 HIGHWAY 101", "amenity": "post_box", "brand": "United States Postal Service", "brand:wikidata": "Q668687", "collection_times": "Mo-Fr 13:30", "indoor": "yes", "note": "ON 12/24 AND 12/31, THIS BOX MAY BE COLLECTED AS EARLY AS 12 NOON.", "nsi_id": "unitedstatespostalservice-a77078", "operator": "United States Postal Service", "operator:short": "USPS", "operator:type": "public", "operator:wikidata": "Q668687", "ref": "9555500004"}, "type": "Feature"}
{"geometry": {"coordinates": [-123.5388770032, 41.3023103978], "type": "Point"}, "id": "e3Zb6JkfloyyTs-CO1X-d3OoaNc=", "properties": {"@source_uri": "https://tools.usps.com/UspsToolsRestServices/rest/POLocator/findLocations", "@spider": "usps_collection_boxes", "addr:city": "ORLEANS", "addr:country": "US", "addr:postcode": "95556", "addr:state": "CA", "addr:street_address": "38150 STATE HIGHWAY 96", "amenity": "post_box", "brand": "United States Postal Service", "brand:wikidata": "Q668687", "collection_times": "Mo-Fr 14:15; Sa 11:30", "indoor": "yes", "note": "ON 12/24 AND 12/31, THIS BOX MAY BE COLLECTED AS EARLY AS 12 NOON.", "nsi_id": "unitedstatespostalservice-a77078", "operator": "United States Postal Service", "operator:short": "USPS", "operator:type": "public", "operator:wikidata": "Q668687", "ref": "9555600005"}, "type": "Feature"}
{"geometry": {"coordinates": [-123.5388770032, 41.3023103978], "type": "Point"}, "id": "nJs4UXRffwQbyRHc0FwDlIS-8UI=", "properties": {"@source_uri": "https://tools.usps.com/UspsToolsRestServices/rest/POLocator/findLocations", "@spider": "usps_collection_boxes", "addr:city": "ORLEANS", "addr:country": "US", "addr:postcode": "95556", "addr:state": "CA", "addr:street_address": "38150 STATE HIGHWAY 96", "amenity": "post_box", "brand": "United States Postal Service", "brand:wikidata": "Q668687", "collection_times": "Mo-Fr 17:00; Sa 11:15", "indoor": "yes", "note": "ON 12/24 AND 12/31, THIS BOX MAY BE COLLECTED AS EARLY AS 12 NOON.", "nsi_id": "unitedstatespostalservice-a77078", "operator": "United States Postal Service", "operator:short": "USPS", "operator:type": "public", "operator:wikidata": "Q668687", "ref": "9555600006"}, "type": "Feature"}
{"geometry": {"coordinates": [-124.2871179924, 40.3250620993], "type": "Point"}, "id": "zIgXS2bOi_3bpYroDj7yZeVrlMQ=", "properties": {"@source_uri": "https://tools.usps.com/UspsToolsRestServices/rest/POLocator/findLocations", "@spider": "usps_collection_boxes", "addr:city": "PETROLIA", "addr:country": "US", "addr:postcode": "95558", "addr:state": "CA", "addr:street_address": "89 SHERMAN ST", "amenity": "post_box", "brand": "United States Postal Service", "brand:wikidata": "Q668687", "collection_times": "Mo-Sa 11:30", "nsi_id": "unitedstatespostalservice-a77078", "operator": "United States Postal Service", "operator:short": "USPS", "operator:type": "public", "operator:wikidata": "Q668687", "ref": "9555800002"}, "type": "Feature"}
{"geometry": {"coordinates": [-124.2871179924, 40.3250620993], "type": "Point"}, "id": "U9iPUPTPk6rGzxWOSdSw3Vna91s=", "properties": {"@source_uri": "https://tools.usps.com/UspsToolsRestServices/rest/POLocator/findLocations", "@spider": "usps_collection_boxes", "addr:city": "PETROLIA", "addr:country": "US", "addr:postcode": "95558", "addr:state": "CA", "addr:street_address": "89 SHERMAN ST", "amenity": "post_box", "brand": "United States Postal Service", "brand:wikidata": "Q668687", "collection_times": "Mo-Sa 11:30", "indoor": "yes", "nsi_id": "unitedstatespostalservice-a77078", "operator": "United States Postal Service", "operator:short": "USPS", "operator:type": "public", "operator:wikidata": "Q668687", "ref": "9555800003"}, "type": "Feature"}
{"geometry": {"coordinates": [-124.2871179924, 40.3250620993], "type": "Point"}, "id": "vwpvgThkaRKbGWrx0p9CnWDiXxI=", "properties": {"@source_uri": "https://tools.usps.com/UspsToolsRestServices/rest/POLocator/findLocations", "@spider": "usps_collection_boxes", "addr:city": "PETROLIA", "addr:country": "US", "addr:postcode": "95558", "addr:state": "CA", "addr:street_address": "89 SHERMAN ST", "amenity": "post_box", "brand": "United States Postal Service", "brand:wikidata": "Q668687", "collection_times": "Mo-Fr 11:30", "indoor": "yes", "nsi_id": "unitedstatespostalservice-a77078", "operator": "United States Postal Service", "operator:short": "USPS", "operator:type": "public", "operator:wikidata": "Q668687", "ref": "9555800004"}, "type": "Feature"}
{"geometry": {"coordinates": [-123.7860045229, 40.2087131776], "type": "Point"}, "id": "oLDzFmTpldW53vNWEAWeGYPjac0=", "properties": {"@source_uri": "https://tools.usps.com/UspsToolsRestServices/rest/POLocator/findLocations", "@spider": "usps_collection_boxes", "addr:city": "PHILLIPSVILLE", "addr:country": "US", "addr:postcode": "95559", "addr:state": "CA", "addr:street_address": "2788 HIGHWAY 254", "amenity": "post_box", "brand": "United States Postal Service", "brand:wikidata": "Q668687", "collection_times": "Mo-Fr 15:00; Sa 09:30", "indoor": "yes", "note": "ON 12/24 AND 12/31, THIS BOX MAY BE COLLECTED AS EARLY AS 12 NOON.", "nsi_id": "unitedstatespostalservice-a77078", "operator": "United States Postal Service", "operator:short": "USPS", "operator:type": "public", "operator:wikidata": "Q668687", "ref": "9555900002"}, "type": "Feature"}
{"geometry": {"coordinates": [-123.7864299881, 40.2086299938], "type": "Point"}, "id": "ICUmB5e9cySSIvkImr87aXK9vIc=", "properties": {"@source_uri": "https://tools.usps.com/UspsToolsRestServices/rest/POLocator/findLocations", "@spider": "usps_collection_boxes", "addr:city": "PHILLIPSVILLE", "addr:country": "US", "addr:postcode": "95559", "addr:state": "CA", "addr:street_address": "2788 HIGHWAY 254", "amenity": "post_box", "brand": "United States Postal Service", "brand:wikidata": "Q668687", "collection_times": "Mo-Fr 15:00; Sa 09:30", "note": "ON 12/24 AND 12/31, THIS BOX MAY BE COLLECTED AS EARLY AS 12 NOON.", "nsi_id": "unitedstatespostalservice-a77078", "operator": "United States Postal Service", "operator:short": "USPS", "operator:type": "public", "operator:wikidata": "Q668687", "ref": "9555900003"}, "type": "Feature"}
{"geometry": {"coordinates": [-123.7860045229, 40.2087131776], "type": "Point"}, "id": "CPb51NkGFs9GN7-37CWcNjiTpuo=", "properties": {"@source_uri": "https://tools.usps.com/UspsToolsRestServices/rest/POLocator/findLocations", "@spider": "usps_collection_boxes", "addr:city": "PHILLIPSVILLE", "addr:country": "US", "addr:postcode": "95559", "addr:state": "CA", "addr:street_address": "2788 HIGHWAY 254", "amenity": "post_box", "brand": "United States Postal Service", "brand:wikidata": "Q668687", "collection_times": "Mo-Fr 17:00", "indoor": "yes", "note": "ON 12/24 AND 12/31, THIS BOX MAY BE COLLECTED AS EARLY AS 12 NOON.", "nsi_id": "unitedstatespostalservice-a77078", "operator": "United States Postal Service", "operator:short": "USPS", "operator:type": "public", "operator:wikidata": "Q668687", "ref": "9555900004"}, "type": "Feature"}
{"geometry": {"coordinates": [-123.8229834959, 40.1201056852], "type": "Point"}, "id": "Nh5jwIP4_8_wcjW8nB5x_w94okc=", "properties": {"@source_uri": "https://tools.usps.com/UspsToolsRestServices/rest/POLocator/findLocations", "@spider": "usps_collection_boxes", "addr:city": "REDWAY", "addr:country": "US", "addr:postcode": "95560", "addr:state": "CA", "addr:street_address": "3400 REDWOOD DR", "amenity": "post_box", "brand": "United States Postal Service", "brand:wikidata": "Q668687", "collection_times": "Mo-Fr 16:30; Sa 09:30", "note": "ON 12/24 AND 12/31, THIS BOX MAY BE COLLECTED AS EARLY AS 12 NOON.", "nsi_id": "unitedstatespostalservice-a77078", "operator": "United States Postal Service", "operator:short": "USPS", "operator:type": "public", "operator:wikidata": "Q668687", "ref": "9556000002"}, "type": "Feature"}
{"geometry": {"coordinates": [-123.8229834959, 40.1201056852], "type": "Point"}, "id": "tR402dN3mL2WkMxNyfhiHEI_unE=", "properties": {"@source_uri": "https://tools.usps.com/UspsToolsRestServices/rest/POLocator/findLocations", "@spider": "usps_collection_boxes", "addr:city": "REDWAY", "addr:country": "US", "addr:postcode": "95560", "addr:state": "CA", "addr:street_address": "3400 REDWOOD DR", "amenity": "post_box", "brand": "United States Postal Service", "brand:wikidata": "Q668687", "collection_times": "Mo-Fr 16:30; Sa 09:30", "indoor": "yes", "note": "ON 12/24 AND 12/31, THIS BOX MAY BE COLLECTED AS EARLY AS 12 NOON.", "nsi_id": "unitedstatespostalservice-a77078", "operator": "United States Postal Service", "operator:short": "USPS", "operator:type": "public", "operator:wikidata": "Q668687", "ref": "9556000003"}, "type": "Feature"}
{"geometry": {"coordinates": [-123.8229834959, 40.1201056852], "type": "Point"}, "id": "7cSv79kEm1BBsH1vsZpWJrnSyiw=", "properties": {"@source_uri": "https://tools.usps.com/UspsToolsRestServices/rest/POLocator/findLocations", "@spider": "usps_collection_boxes", "addr:city": "REDWAY", "addr:country": "US", "addr:postcode": "95560", "addr:state": "CA", "addr:street_address": "3400 REDWOOD DR", "amenity": "post_box", "brand": "United States Postal Service", "brand:wikidata": "Q668687", "collection_times": "Mo-Fr 16:45", "indoor": "yes", "note": "ON 12/24 AND 12/31, THIS BOX MAY BE COLLECTED AS EARLY AS 12 NOON.", "nsi_id": "unitedstatespostalservice-a77078", "operator": "United States Postal Service", "operator:short": "USPS", "operator:type": "public", "operator:wikidata": "Q668687", "ref": "9556000004"}, "type": "Feature"}
{"geometry": {"coordinates": [-124.1034422781, 40.4950243525], "type": "Point"}, "id": "6mXjYEWZ8miz8PMpx9Wijs3KzVc=", "properties": {"@source_uri": "https://tools.usps.com/UspsToolsRestServices/rest/POLocator/findLocations", "@spider": "usps_collection_boxes", "addr:city": "RIO DELL", "addr:country": "US", "addr:postcode": "95562", "addr:state": "CA", "addr:street_address": "315 WILDWOOD AVE", "amenity": "post_box", "brand": "United States Postal Service", "brand:wikidata": "Q668687", "collection_times": "Mo-Fr 16:00; Sa 08:00", "indoor": "yes", "note": "ON 12/24 AND 12/31, THIS BOX MAY BE COLLECTED AS EARLY AS 12 NOON.", "nsi_id": "unitedstatespostalservice-a77078", "operator": "United States Postal Service", "operator:short": "USPS", "operator:type": "public", "operator:wikidata": "Q668687", "ref": "9556200003"}, "type": "Feature"}
{"geometry": {"coordinates": [-124.1034422781, 40.4950243525], "type": "Point"}, "id": "gP0n0sZH9Bscj57wAVi0w-AWJqc=", "properties": {"@source_uri": "https://tools.usps.com/UspsToolsRestServices/rest/POLocator/findLocations", "@spider": "usps_collection_boxes", "addr:city": "RIO DELL", "addr:country": "US", "addr:postcode": "95562", "addr:state": "CA", "addr:street_address": "315 WILDWOOD AVE", "amenity": "post_box", "brand": "United States Postal Service", "brand:wikidata": "Q668687", "collection_times": "Mo-Fr 16:00; Sa 08:00", "note": "ON 12/24 AND 12/31, THIS BOX MAY BE COLLECTED AS EARLY AS 12 NOON.", "nsi_id": "unitedstatespostalservice-a77078", "operator": "United States Postal Service", "operator:short": "USPS", "operator:type": "public", "operator:wikidata": "Q668687", "ref": "9556200004"}, "type": "Feature"}
{"geometry": {"coordinates": [-124.112387, 40.506967], "type": "Point"}, "id": "Pbh_fiaHsCxrZx_JBxiLmtSmC8k=", "properties": {"@source_uri": "https://tools.usps.com/UspsToolsRestServices/rest/POLocator/findLocations", "@spider": "usps_collection_boxes", "addr:city": "RIO DELL", "addr:country": "US", "addr:postcode": "95562", "addr:state": "CA", "addr:street_address": "1330 EELOA AVE", "amenity": "post_box", "brand": "United States Postal Service", "brand:wikidata": "Q668687", "collection_times": "Mo-Fr 12:00", "nsi_id": "unitedstatespostalservice-a77078", "operator": "United States Postal Service", "operator:short": "USPS", "operator:type": "public", "operator:wikidata": "Q668687", "ref": "9556200005"}, "type": "Feature"}
{"geometry": {"coordinates": [-124.1034422781, 40.4950243525], "type": "Point"}, "id": "cH2sCoDdT3qrnjaRFDvPLIgVy-0=", "properties": {"@source_uri": "https://tools.usps.com/UspsToolsRestServices/rest/POLocator/findLocations", "@spider": "usps_collection_boxes", "addr:city": "RIO DELL", "addr:country": "US", "addr:postcode": "95562", "addr:state": "CA", "addr:street_address": "315 WILDWOOD AVE", "amenity": "post_box", "brand": "United States Postal Service", "brand:wikidata": "Q668687", "collection_times": "Mo-Fr 16:00", "indoor": "yes", "note": "ON 12/24 AND 12/31, THIS BOX MAY BE COLLECTED AS EARLY AS 12 NOON.", "nsi_id": "unitedstatespostalservice-a77078", "operator": "United States Postal Service", "operator:short": "USPS", "operator:type": "public", "operator:wikidata": "Q668687", "ref": "9556200006"}, "type": "Feature"}
{"geometry": {"coordinates": [-123.584624635, 40.890389887], "type": "Point"}, "id": "XIULV7pzm5rwHikNOEygZGU444k=", "properties": {"@source_uri": "https://tools.usps.com/UspsToolsRestServices/rest/POLocator/findLocations", "@spider": "usps_collection_boxes", "addr:city": "SALYER", "addr:country": "US", "addr:postcode": "95563", "addr:state": "CA", "addr:street_address": "1080 HIGHWAY 299", "amenity": "post_box", "brand": "United States Postal Service", "brand:wikidata": "Q668687", "collection_times": "Mo-Fr 15:00; Sa 12:00", "indoor": "yes", "note": "ON 12/24 AND 12/31, THIS BOX MAY BE COLLECTED AS EARLY AS 12 NOON.", "nsi_id": "unitedstatespostalservice-a77078", "operator": "United States Postal Service", "operator:short": "USPS", "operator:type": "public", "operator:wikidata": "Q668687", "ref": "9556300001"}, "type": "Feature"}
{"geometry": {"coordinates": [-123.584624635, 40.8903898873], "type": "Point"}, "id": "1ipZQYCfP80TCxlwB5Vk5VDP3Ds=", "properties": {"@source_uri": "https://tools.usps.com/UspsToolsRestServices/rest/POLocator/findLocations", "@spider": "usps_collection_boxes", "addr:city": "SALYER", "addr:country": "US", "addr:postcode": "95563", "addr:state": "CA", "addr:street_address": "1080 HIGHWAY 299", "amenity": "post_box", "brand": "United States Postal Service", "brand:wikidata": "Q668687", "collection_times": "Mo-Fr 17:00", "indoor": "yes", "note": "ON 12/24 AND 12/31, THIS BOX MAY BE COLLECTED AS EARLY AS 12 NOON.", "nsi_id": "unitedstatespostalservice-a77078", "operator": "United States Postal Service", "operator:short": "USPS", "operator:type": "public", "operator:wikidata": "Q668687", "ref": "9556300002"}, "type": "Feature"}
{"geometry": {"coordinates": [-124.1835857527, 40.8196768815], "type": "Point"}, "id": "S41cOqo4JQTMOTaibjHhztg_xVM=", "properties": {"@source_uri": "https://tools.usps.com/UspsToolsRestServices/rest/POLocator/findLocations", "@spider": "usps_collection_boxes", "addr:city": "SAMOA", "addr:country": "US", "addr:postcode": "95564", "addr:state": "CA", "addr:street_address": "244 N BAYVIEW AVE", "amenity": "post_box", "brand": "United States Postal Service", "brand:wikidata": "Q668687", "collection_times": "Mo-Fr 14:00; Sa 09:30", "indoor": "yes", "note": "ON 12/24 AND 12/31, THIS BOX MAY BE COLLECTED AS EARLY AS 12 NOON.", "nsi_id": "unitedstatespostalservice-a77078", "operator": "United States Postal Service", "operator:short": "USPS", "operator:type": "public", "operator:wikidata": "Q668687", "ref": "9556400002"}, "type": "Feature"}
{"geometry": {"coordinates": [-124.1835857527, 40.8196768815], "type": "Point"}, "id": "zso6cZUyTrcB_0rj-dfrogfewKU=", "properties": {"@source_uri": "https://tools.usps.com/UspsToolsRestServices/rest/POLocator/findLocations", "@spider": "usps_collection_boxes", "addr:city": "SAMOA", "addr:country": "US", "addr:postcode": "95564", "addr:state": "CA", "addr:street_address": "244 N BAYVIEW AVE", "amenity": "post_box", "brand": "United States Postal Service", "brand:wikidata": "Q668687", "collection_times": "Mo-Fr 14:00; Sa 09:30", "note": "ON 12/24 AND 12/31, THIS BOX MAY BE COLLECTED AS EARLY AS 12 NOON.", "nsi_id": "unitedstatespostalservice-a77078", "operator": "United States Postal Service", "operator:short": "USPS", "operator:type": "public", "operator:wikidata": "Q668687", "ref": "9556400003"}, "type": "Feature"}
{"geometry": {"coordinates": [-124.1835857527, 40.8196768815], "type": "Point"}, "id": "MM4FgX1B_6SjHKSQdTygC9czBMA=", "properties": {"@source_uri": "https://tools.usps.com/UspsToolsRestServices/rest/POLocator/findLocations", "@spider": "usps_collection_boxes", "addr:city": "SAMOA", "addr:country": "US", "addr:postcode": "95564", "addr:state": "CA", "addr:street_address": "244 N BAYVIEW AVE", "amenity": "post_box", "brand": "United States Postal Service", "brand:wikidata": "Q668687", "collection_times": "Mo-Fr 14:00", "indoor": "yes", "note": "ON 12/24 AND 12/31, THIS BOX MAY BE COLLECTED AS EARLY AS 12 NOON.", "nsi_id": "unitedstatespostalservice-a77078", "operator": "United States Postal Service", "operator:short": "USPS", "operator:type": "public", "operator:wikidata": "Q668687", "ref": "9556400004"}, "type": "Feature"}
{"geometry": {"coordinates": [-124.1020097518, 40.4840484413], "type": "Point"}, "id": "r1SYnqm0PAWJbhSJgPvLzrxY700=", "properties": {"@source_uri": "https://tools.usps.com/UspsToolsRestServices/rest/POLocator/findLocations", "@spider": "usps_collection_boxes", "addr:city": "SCOTIA", "addr:country": "US", "addr:postcode": "95565", "addr:state": "CA", "addr:street_address": "116 MAIN ST", "amenity": "post_box", "brand": "United States Postal Service", "brand:wikidata": "Q668687", "collection_times": "Mo-Fr 16:00; Sa 08:45", "indoor": "yes", "note": "ON 12/24 AND 12/31, THIS BOX MAY BE COLLECTED AS EARLY AS 12 NOON.", "nsi_id": "unitedstatespostalservice-a77078", "operator": "United States Postal Service", "operator:short": "USPS", "operator:type": "public", "operator:wikidata": "Q668687", "ref": "9556500002"}, "type": "Feature"}
{"geometry": {"coordinates": [-124.1020097518, 40.4840484413], "type": "Point"}, "id": "Yxaqj_I4dubcsu4vT5V9wTDpBFI=", "properties": {"@source_uri": "https://tools.usps.com/UspsToolsRestServices/rest/POLocator/findLocations", "@spider": "usps_collection_boxes", "addr:city": "SCOTIA", "addr:country": "US", "addr:postcode": "95565", "addr:state": "CA", "addr:street_address": "116 MAIN ST", "amenity": "post_box", "brand": "United States Postal Service", "brand:wikidata": "Q668687", "collection_times": "Mo-Fr 16:00; Sa 08:45", "note": "ON 12/24 AND 12/31, THIS BOX MAY BE COLLECTED AS EARLY AS 12 NOON.", "nsi_id": "unitedstatespostalservice-a77078", "operator": "United States Postal Service", "operator:short": "USPS", "operator:type": "public", "operator:wikidata": "Q668687", "ref": "9556500003"}, "type": "Feature"}
{"geometry": {"coordinates": [-124.1020097518, 40.4840484413], "type": "Point"}, "id": "Cy54r3NOo9Ld3vozO4z2bnmpMOA=", "properties": {"@source_uri": "https://tools.usps.com/UspsToolsRestServices/rest/POLocator/findLocations", "@spider": "usps_collection_boxes", "addr:city": "SCOTIA", "addr:country": "US", "addr:postcode": "95565", "addr:state": "CA", "addr:street_address": "116 MAIN ST", "amenity": "post_box", "brand": "United States Postal Service", "brand:wikidata": "Q668687", "collection_times": "Mo-Fr 16:45", "indoor": "yes", "note": "ON 12/24 AND 12/31, THIS BOX MAY BE COLLECTED AS EARLY AS 12 NOON.", "nsi_id": "unitedstatespostalservice-a77078", "operator": "United States Postal Service", "operator:short": "USPS", "operator:type": "public", "operator:wikidata": "Q668687", "ref": "9556500004"}, "type": "Feature"}
{"geometry": {"coordinates": [-124.1460246079, 41.9287036589], "type": "Point"}, "id": "OgdeMQiz53s5hN_oLFp9gYGOj28=", "properties": {"@source_uri": "https://tools.usps.com/UspsToolsRestServices/rest/POLocator/findLocations", "@spider": "usps_collection_boxes", "addr:city": "SMITH RIVER", "addr:country": "US", "addr:postcode": "95567", "addr:state": "CA", "addr:street_address": "291 N FRED D HAIGHT DR", "amenity": "post_box", "brand": "United States Postal Service", "brand:wikidata": "Q668687", "collection_times": "Mo-Fr 16:00; Sa 11:00", "indoor": "yes", "note": "ON 12/24 AND 12/31, THIS BOX MAY BE COLLECTED AS EARLY AS 12 NOON.", "nsi_id": "unitedstatespostalservice-a77078", "operator": "United States Postal Service", "operator:short": "USPS", "operator:type": "public", "operator:wikidata": "Q668687", "ref": "9556700004"}, "type": "Feature"}
{"geometry": {"coordinates": [-124.1460246079, 41.9287036589], "type": "Point"}, "id": "3_Q4apqPpduix0SLYfDla3QKgGM=", "properties": {"@source_uri": "https://tools.usps.com/UspsToolsRestServices/rest/POLocator/findLocations", "@spider": "usps_collection_boxes", "addr:city": "SMITH RIVER", "addr:country": "US", "addr:postcode": "95567", "addr:state": "CA", "addr:street_address": "291 N FRED D HAIGHT DR", "amenity": "post_box", "brand": "United States Postal Service", "brand:wikidata": "Q668687", "collection_times": "Mo-Fr 16:00; Sa 11:00", "note": "ON 12/24 AND 12/31, THIS BOX MAY BE COLLECTED AS EARLY AS 12 NOON.", "nsi_id": "unitedstatespostalservice-a77078", "operator": "United States Postal Service", "operator:short": "USPS", "operator:type": "public", "operator:wikidata": "Q668687", "ref": "9556700005"}, "type": "Feature"}
{"geometry": {"coordinates": [-124.195877, 41.946916], "type": "Point"}, "id": "JCbL1S89ukQwURMDD53Tl1dH_ck=", "properties": {"@source_uri": "https://tools.usps.com/UspsToolsRestServices/rest/POLocator/findLocations", "@spider": "usps_collection_boxes", "addr:city": "SMITH RIVER", "addr:country": "US", "addr:postcode": "95567", "addr:state": "CA", "addr:street_address": "12400 US HIGHWAY 101 N", "amenity": "post_box", "brand": "United States Postal Service", "brand:wikidata": "Q668687", "collection_times": "Mo-Sa 13:00", "note": "ON 12/24 AND 12/31, THIS BOX MAY BE COLLECTED AS EARLY AS 12 NOON.", "nsi_id": "unitedstatespostalservice-a77078", "operator": "United States Postal Service", "operator:short": "USPS", "operator:type": "public", "operator:wikidata": "Q668687", "ref": "9556700006"}, "type": "Feature"}
{"geometry": {"coordinates": [-124.1460246079, 41.9287036589], "type": "Point"}, "id": "xZqleMWZVJ_DV3vDOcIt--9KAKk=", "properties": {"@source_uri": "https://tools.usps.com/UspsToolsRestServices/rest/POLocator/findLocations", "@spider": "usps_collection_boxes", "addr:city": "SMITH RIVER", "addr:country": "US", "addr:postcode": "95567", "addr:state": "CA", "addr:street_address": "291 N FRED D HAIGHT DR", "amenity": "post_box", "brand": "United States Postal Service", "brand:wikidata": "Q668687", "collection_times": "Mo-Fr 17:00", "indoor": "yes", "note": "ON 12/24 AND 12/31, THIS BOX MAY BE COLLECTED AS EARLY AS 12 NOON.", "nsi_id": "unitedstatespostalservice-a77078", "operator": "United States Postal Service", "operator:short": "USPS", "operator:type": "public", "operator:wikidata": "Q668687", "ref": "9556700007"}, "type": "Feature"}
{"geometry": {"coordinates": [-123.948938, 40.400027], "type": "Point"}, "id": "urezAQq5DLHSJ5k5sp4yQ7tMp8U=", "properties": {"@source_uri": "https://tools.usps.com/UspsToolsRestServices/rest/POLocator/findLocations", "@spider": "usps_collection_boxes", "addr:city": "REDCREST", "addr:country": "US", "addr:postcode": "95569", "addr:state": "CA", "addr:street_address": "26406 HIGHWAY 254", "amenity": "post_box", "brand": "United States Postal Service", "brand:wikidata": "Q668687", "collection_times": "Mo-Fr 15:30; Sa 08:30", "indoor": "yes", "note": "ON 12/24 AND 12/31, THIS BOX MAY BE COLLECTED AS EARLY AS 12 NOON.", "nsi_id": "unitedstatespostalservice-a77078", "operator": "United States Postal Service", "operator:short": "USPS", "operator:type": "public", "operator:wikidata": "Q668687", "ref": "9556900003"}, "type": "Feature"}
{"geometry": {"coordinates": [-123.94894, 40.400025], "type": "Point"}, "id": "RpB-Y6NFbWwneFudmlkUNLA51F0=", "properties": {"@source_uri": "https://tools.usps.com/UspsToolsRestServices/rest/POLocator/findLocations", "@spider": "usps_collection_boxes", "addr:city": "REDCREST", "addr:country": "US", "addr:postcode": "95569", "addr:state": "CA", "addr:street_address": "26406 HIGHWAY 254", "amenity": "post_box", "brand": "United States Postal Service", "brand:wikidata": "Q668687", "collection_times": "Mo-Fr 15:30; Sa 08:30", "note": "ON 12/24 AND 12/31, THIS BOX MAY BE COLLECTED AS EARLY AS 12 NOON.", "nsi_id": "unitedstatespostalservice-a77078", "operator": "United States Postal Service", "operator:short": "USPS", "operator:type": "public", "operator:wikidata": "Q668687", "ref": "9556900004"}, "type": "Feature"}
{"geometry": {"coordinates": [-123.9490031682, 40.4000761862], "type": "Point"}, "id": "DXxqgfGDKJ-wYLYMubounXcmQHE=", "properties": {"@source_uri": "https://tools.usps.com/UspsToolsRestServices/rest/POLocator/findLocations", "@spider": "usps_collection_boxes", "addr:city": "REDCREST", "addr:country": "US", "addr:postcode": "95569", "addr:state": "CA", "addr:street_address": "26406 STATE HIGHWAY 254", "amenity": "post_box", "brand": "United States Postal Service", "brand:wikidata": "Q668687", "collection_times": "Mo-Fr 17:00", "indoor": "yes", "note": "ON 12/24 AND 12/31, THIS BOX MAY BE COLLECTED AS EARLY AS 12 NOON.", "nsi_id": "unitedstatespostalservice-a77078", "operator": "United States Postal Service", "operator:short": "USPS", "operator:type": "public", "operator:wikidata": "Q668687", "ref": "9556900005"}, "type": "Feature"}
{"geometry": {"coordinates": [-124.1405955202, 41.061568322], "type": "Point"}, "id": "Hf9d5TsrT1qqy2Kzv9IxyLrhXWo=", "properties": {"@source_uri": "https://tools.usps.com/UspsToolsRestServices/rest/POLocator/findLocations", "@spider": "usps_collection_boxes", "addr:city": "TRINIDAD", "addr:country": "US", "addr:postcode": "95570", "addr:state": "CA", "addr:street_address": "357 MAIN ST", "amenity": "post_box", "brand": "United States Postal Service", "brand:wikidata": "Q668687", "collection_times": "Mo-Fr 17:00; Sa 10:00", "indoor": "yes", "note": "ON 12/24 AND 12/31, THIS BOX MAY BE COLLECTED AS EARLY AS 12 NOON.", "nsi_id": "unitedstatespostalservice-a77078", "operator": "United States Postal Service", "operator:short": "USPS", "operator:type": "public", "operator:wikidata": "Q668687", "ref": "9557000003"}, "type": "Feature"}
{"geometry": {"coordinates": [-124.1405955202, 41.061568322], "type": "Point"}, "id": "CSfu2ANPfSHuVAFErBQO2t-J3qg=", "properties": {"@source_uri": "https://tools.usps.com/UspsToolsRestServices/rest/POLocator/findLocations", "@spider": "usps_collection_boxes", "addr:city": "TRINIDAD", "addr:country": "US", "addr:postcode": "95570", "addr:state": "CA", "addr:street_address": "357 MAIN ST", "amenity": "post_box", "brand": "United States Postal Service", "brand:wikidata": "Q668687", "collection_times": "Mo-Fr 16:00; Sa 10:00", "note": "ON 12/24 AND 12/31, THIS BOX MAY BE COLLECTED AS EARLY AS 12 NOON.", "nsi_id": "unitedstatespostalservice-a77078", "operator": "United States Postal Service", "operator:short": "USPS", "operator:type": "public", "operator:wikidata": "Q668687", "ref": "9557000004"}, "type": "Feature"}
{"geometry": {"coordinates": [-124.1405955202, 41.061568322], "type": "Point"}, "id": "pgRL371-zGaSEznVUsMWYRvl0HY=", "properties": {"@source_uri": "https://tools.usps.com/UspsToolsRestServices/rest/POLocator/findLocations", "@spider": "usps_collection_boxes", "addr:city": "TRINIDAD", "addr:country": "US", "addr:postcode": "95570", "addr:state": "CA", "addr:street_address": "357 MAIN ST", "amenity": "post_box", "brand": "United States Postal Service", "brand:wikidata": "Q668687", "collection_times": "Mo-Fr 17:00", "indoor": "yes", "note": "ON 12/24 AND 12/31, THIS BOX MAY BE COLLECTED AS EARLY AS 12 NOON.", "nsi_id": "unitedstatespostalservice-a77078", "operator": "United States Postal Service", "operator:short": "USPS", "operator:type": "public", "operator:wikidata": "Q668687", "ref": "9557000007"}, "type": "Feature"}
{"geometry": {"coordinates": [-123.9244274588, 40.3248730618], "type": "Point"}, "id": "VizCKyAeJh3Nht86-QZT3cSFVo4=", "properties": {"@source_uri": "https://tools.usps.com/UspsToolsRestServices/rest/POLocator/findLocations", "@spider": "usps_collection_boxes", "addr:city": "WEOTT", "addr:country": "US", "addr:postcode": "95571", "addr:state": "CA", "addr:street_address": "11 LUM ST", "amenity": "post_box", "brand": "United States Postal Service", "brand:wikidata": "Q668687", "collection_times": "Mo-Fr 12:00; Sa 08:30", "indoor": "yes", "nsi_id": "unitedstatespostalservice-a77078", "operator": "United States Postal Service", "operator:short": "USPS", "operator:type": "public", "operator:wikidata": "Q668687", "ref": "9557100002"}, "type": "Feature"}
{"geometry": {"coordinates": [-123.9244274588, 40.3248730618], "type": "Point"}, "id": "H5nfk-4QssxC2Xfgt62tPLoeW7E=", "properties": {"@source_uri": "https://tools.usps.com/UspsToolsRestServices/rest/POLocator/findLocations", "@spider": "usps_collection_boxes", "addr:city": "WEOTT", "addr:country": "US", "addr:postcode": "95571", "addr:state": "CA", "addr:street_address": "11 LUM ST", "amenity": "post_box", "brand": "United States Postal Service", "brand:wikidata": "Q668687", "collection_times": "Mo-Fr 12:00; Sa 08:30", "nsi_id": "unitedstatespostalservice-a77078", "operator": "United States Postal Service", "operator:short": "USPS", "operator:type": "public", "operator:wikidata": "Q668687", "ref": "9557100003"}, "type": "Feature"}
{"geometry": {"coordinates": [-123.9244274588, 40.3248730618], "type": "Point"}, "id": "tw6K_mwRrZ_iiyza5NyOFTvb_4c=", "properties": {"@source_uri": "https://tools.usps.com/UspsToolsRestServices/rest/POLocator/findLocations", "@spider": "usps_collection_boxes", "addr:city": "WEOTT", "addr:country": "US", "addr:postcode": "95571", "addr:state": "CA", "addr:street_address": "11 LUM ST", "amenity": "post_box", "brand": "United States Postal Service", "brand:wikidata": "Q668687", "collection_times": "Mo-Fr 12:00", "indoor": "yes", "nsi_id": "unitedstatespostalservice-a77078", "operator": "United States Postal Service", "operator:short": "USPS", "operator:type": "public", "operator:wikidata": "Q668687", "ref": "9557100004"}, "type": "Feature"}
{"geometry": {"coordinates": [-123.6291520045, 40.9406937162], "type": "Point"}, "id": "DJCmE_4VlJbMJcglXgK44n87ZzI=", "properties": {"@source_uri": "https://tools.usps.com/UspsToolsRestServices/rest/POLocator/findLocations", "@spider": "usps_collection_boxes", "addr:city": "WILLOW CREEK", "addr:country": "US", "addr:postcode": "95573", "addr:state": "CA", "addr:street_address": "100 COUNTRY CLUB DR", "amenity": "post_box", "brand": "United States Postal Service", "brand:wikidata": "Q668687", "collection_times": "Mo-Fr 15:00; Sa 11:00", "indoor": "yes", "note": "ON 12/24 AND 12/31, THIS BOX MAY BE COLLECTED AS EARLY AS 12 NOON.", "nsi_id": "unitedstatespostalservice-a77078", "operator": "United States Postal Service", "operator:short": "USPS", "operator:type": "public", "operator:wikidata": "Q668687", "ref": "9557300003"}, "type": "Feature"}
{"geometry": {"coordinates": [-123.6291520045, 40.9406937162], "type": "Point"}, "id": "l400F3QwD9C-tng7gLyazxEoCfU=", "properties": {"@source_uri": "https://tools.usps.com/UspsToolsRestServices/rest/POLocator/findLocations", "@spider": "usps_collection_boxes", "addr:city": "WILLOW CREEK", "addr:country": "US", "addr:postcode": "95573", "addr:state": "CA", "addr:street_address": "100 COUNTRY CLUB DR", "amenity": "post_box", "brand": "United States Postal Service", "brand:wikidata": "Q668687", "collection_times": "Mo-Fr 17:00; Sa 11:00", "indoor": "yes", "note": "ON 12/24 AND 12/31, THIS BOX MAY BE COLLECTED AS EARLY AS 12 NOON.", "nsi_id": "unitedstatespostalservice-a77078", "operator": "United States Postal Service", "operator:short": "USPS", "operator:type": "public", "operator:wikidata": "Q668687", "ref": "9557300004"}, "type": "Feature"}
{"geometry": {"coordinates": [-123.714753, 39.865415], "type": "Point"}, "id": "tiJ8ZaAVuV-GVN5Pn3t5dekuqe0=", "properties": {"@source_uri": "https://tools.usps.com/UspsToolsRestServices/rest/POLocator/findLocations", "@spider": "usps_collection_boxes", "addr:city": "LEGGETT", "addr:country": "US", "addr:postcode": "95585", "addr:state": "CA", "addr:street_address": "67674 DRIVE THRU TREE RD", "amenity": "post_box", "brand": "United States Postal Service", "brand:wikidata": "Q668687", "collection_times": "Mo-Fr 15:45; Sa 11:30", "note": "ON 12/24 AND 12/31, THIS BOX MAY BE COLLECTED AS EARLY AS 12 NOON.", "nsi_id": "unitedstatespostalservice-a77078", "operator": "United States Postal Service", "operator:short": "USPS", "operator:type": "public", "operator:wikidata": "Q668687", "ref": "9558500003"}, "type": "Feature"}
{"geometry": {"coordinates": [-123.9711315851, 40.0582185625], "type": "Point"}, "id": "jmjSFO5eLo_bd-WO8DNGrMQuX3Q=", "properties": {"@source_uri": "https://tools.usps.com/UspsToolsRestServices/rest/POLocator/findLocations", "@spider": "usps_collection_boxes", "addr:city": "WHITETHORN", "addr:country": "US", "addr:postcode": "95589", "addr:state": "CA", "addr:street_address": "498 SHELTER COVE RD", "amenity": "post_box", "brand": "United States Postal Service", "brand:wikidata": "Q668687", "collection_times": "Mo-Fr 15:15; Sa 12:30", "indoor": "yes", "note": "ON 12/24 AND 12/31, THIS BOX MAY BE COLLECTED AS EARLY AS 12 NOON.", "nsi_id": "unitedstatespostalservice-a77078", "operator": "United States Postal Service", "operator:short": "USPS", "operator:type": "public", "operator:wikidata": "Q668687", "ref": "9558900003"}, "type": "Feature"}
{"geometry": {"coordinates": [-123.9711315851, 40.0582185625], "type": "Point"}, "id": "HNrbdK7d4oSe11d6Qf6d3XeBNic=", "properties": {"@source_uri": "https://tools.usps.com/UspsToolsRestServices/rest/POLocator/findLocations", "@spider": "usps_collection_boxes", "addr:city": "WHITETHORN", "addr:country": "US", "addr:postcode": "95589", "addr:state": "CA", "addr:street_address": "498 SHELTER COVE RD", "amenity": "post_box", "brand": "United States Postal Service", "brand:wikidata": "Q668687", "collection_times": "Mo-Fr 15:00; Sa 12:15", "note": "ON 12/24 AND 12/31, THIS BOX MAY BE COLLECTED AS EARLY AS 12 NOON.", "nsi_id": "unitedstatespostalservice-a77078", "operator": "United States Postal Service", "operator:short": "USPS", "operator:type": "public", "operator:wikidata": "Q668687", "ref": "9558900004"}, "type": "Feature"}
{"geometry": {"coordinates": [-124.06822, 40.023591], "type": "Point"}, "id": "Pw4j_SVUdQrWC8BIWUFFPwuRzfY=", "properties": {"@source_uri": "https://tools.usps.com/UspsToolsRestServices/rest/POLocator/findLocations", "@spider": "usps_collection_boxes", "addr:city": "WHITETHORN", "addr:country": "US", "addr:postcode": "95589", "addr:state": "CA", "addr:street_address": "492 MACHI RD", "amenity": "post_box", "brand": "United States Postal Service", "brand:wikidata": "Q668687", "collection_times": "Mo-Fr 13:00", "note": "ON 12/24 AND 12/31, THIS BOX MAY BE COLLECTED AS EARLY AS 12 NOON.", "nsi_id": "unitedstatespostalservice-a77078", "operator": "United States Postal Service", "operator:short": "USPS", "operator:type": "public", "operator:wikidata": "Q668687", "ref": "9558900005"}, "type": "Feature"}
{"geometry": {"coordinates": [-123.9711315851, 40.0582185625], "type": "Point"}, "id": "AuLd97od28sOuMC6iqcjQ5PZ1KM=", "properties": {"@source_uri": "https://tools.usps.com/UspsToolsRestServices/rest/POLocator/findLocations", "@spider": "usps_collection_boxes", "addr:city": "WHITETHORN", "addr:country": "US", "addr:postcode": "95589", "addr:state": "CA", "addr:street_address": "498 SHELTER COVE RD", "amenity": "post_box", "brand": "United States Postal Service", "brand:wikidata": "Q668687", "collection_times": "Mo-Fr 16:30", "indoor": "yes", "note": "ON 12/24 AND 12/31, THIS BOX MAY BE COLLECTED AS EARLY AS 12 NOON.", "nsi_id": "unitedstatespostalservice-a77078", "operator": "United States Postal Service", "operator:short": "USPS", "operator:type": "public", "operator:wikidata": "Q668687", "ref": "9558900006"}, "type": "Feature"}
{"geometry": {"coordinates": [-123.49155, 40.205304], "type": "Point"}, "id": "0beOmgsBWY394QP7D7_sGwJWv-I=", "properties": {"@source_uri": "https://tools.usps.com/UspsToolsRestServices/rest/POLocator/findLocations", "@spider": "usps_collection_boxes", "addr:city": "ZENIA", "addr:country": "US", "addr:postcode": "95595", "addr:state": "CA", "addr:street_address": "26530 RUTH-ZENIA RD", "amenity": "post_box", "brand": "United States Postal Service", "brand:wikidata": "Q668687", "collection_times": "Mo-Fr 11:45; Sa 11:30", "nsi_id": "unitedstatespostalservice-a77078", "operator": "United States Postal Service", "operator:short": "USPS", "operator:type": "public", "operator:wikidata": "Q668687", "ref": "9559500002"}, "type": "Feature"}
{"geometry": {"coordinates": [-123.49488617, 40.206318167], "type": "Point"}, "id": "FddWfBA9gGstbAqx1lxiA71SJTM=", "properties": {"@source_uri": "https://tools.usps.com/UspsToolsRestServices/rest/POLocator/findLocations", "@spider": "usps_collection_boxes", "addr:city": "ZENIA", "addr:country": "US", "addr:postcode": "95595", "addr:state": "CA", "addr:street_address": "26531 RUTH ZENIA RD", "amenity": "post_box", "brand": "United States Postal Service", "brand:wikidata": "Q668687", "collection_times": "Mo-Sa 12:00", "indoor": "yes", "nsi_id": "unitedstatespostalservice-a77078", "operator": "United States Postal Service", "operator:short": "USPS", "operator:type": "public", "operator:wikidata": "Q668687", "ref": "9559500003"}, "type": "Feature"}
