{"geometry": {"coordinates": [-121.836497, 38.4465], "type": "Point"}, "id": "pjVF25lDlS3lZZaDpmqdic6BV_w=", "properties": {"@spider": "usps_collection_boxes", "addr:city": "DIXON", "addr:country": "US", "addr:full": "125 N LINCOLN ST", "addr:postcode": "95620", "addr:state": "CA", "brand": "USPS", "collection_times": "Mo-Fr 14:00; Sa 13:15", "name": "USPS COLLECTION BOX - BLUE BOX", "note": "ON 12/24 AND 12/31, THIS BOX MAY BE COLLECTED AS EARLY AS 12 NOON.", "ref": "9562000000"}, "type": "Feature"}
{"geometry": {"coordinates": [-121.839458, 38.457208], "type": "Point"}, "id": "Nq0qvTWhkDu0srgaXQeGhQpNoJk=", "properties": {"@spider": "usps_collection_boxes", "addr:city": "DIXON", "addr:country": "US", "addr:full": "1285 STRATFORD AVE", "addr:postcode": "95620", "addr:state": "CA", "brand": "USPS", "collection_times": "Mo-Fr 14:00; Sa 13:15", "name": "USPS COLLECTION BOX - BLUE BOX", "note": "ON 12/24 AND 12/31, THIS BOX MAY BE COLLECTED AS EARLY AS 12 NOON.", "ref": "9562000003"}, "type": "Feature"}
{"geometry": {"coordinates": [-121.823238, 38.446141], "type": "Point"}, "id": "9wMvKQ6OWLZWuK7dt0Rx6O-ETU8=", "properties": {"@spider": "usps_collection_boxes", "addr:city": "DIXON", "addr:country": "US", "addr:full": "195 N 1ST ST", "addr:postcode": "95620", "addr:state": "CA", "brand": "USPS", "collection_times": "Mo-Fr 14:00; Sa 13:15", "name": "USPS COLLECTION BOX - BLUE BOX", "note": "ON 12/24 AND 12/31, THIS BOX MAY BE COLLECTED AS EARLY AS 12 NOON.", "ref": "9562000004"}, "type": "Feature"}
{"geometry": {"coordinates": [-121.840789, 38.456601], "type": "Point"}, "id": "zAr7MjtlACtTrMut3GK_gIKhefk=", "properties": {"@spider": "usps_collection_boxes", "addr:city": "DIXON", "addr:country": "US", "addr:full": "1140 PITT SCHOOL RD", "addr:postcode": "95620", "addr:state": "CA", "brand": "USPS", "collection_times": "Mo-Fr 14:00; Sa 13:15", "name": "USPS COLLECTION BOX - BLUE BOX", "note": "ON 12/24 AND 12/31, THIS BOX MAY BE COLLECTED AS EARLY AS 12 NOON.", "ref": "9562000005"}, "type": "Feature"}
{"geometry": {"coordinates": [-121.8244404446, 38.445554539], "type": "Point"}, "id": "tlC2T7od0Y3FsyXoUKIdwLYRqmI=", "properties": {"@spider": "usps_collection_boxes", "addr:city": "DIXON", "addr:country": "US", "addr:full": "221 W A ST", "addr:postcode": "95620", "addr:state": "CA", "brand": "USPS", "collection_times": "Mo-Fr 17:00; Sa 15:00", "name": "USPS COLLECTION BOX - BLUE BOX", "note": "ON 12/24 AND 12/31, THIS BOX MAY BE COLLECTED AS EARLY AS 12 NOON.", "ref": "9562000006"}, "type": "Feature"}
{"geometry": {"coordinates": [-121.824037, 38.445581], "type": "Point"}, "id": "FNXdQVi7Yy5CmGvKNSIXI7y7x64=", "properties": {"@spider": "usps_collection_boxes", "addr:city": "DIXON", "addr:country": "US", "addr:full": "221 W A ST", "addr:postcode": "95620", "addr:state": "CA", "brand": "USPS", "collection_times": "Mo-Fr 17:00; Sa 15:00", "name": "USPS COLLECTION BOX - BLUE BOX", "note": "ON 12/24 AND 12/31, THIS BOX MAY BE COLLECTED AS EARLY AS 12 NOON.", "ref": "9562000008"}, "type": "Feature"}
{"geometry": {"coordinates": [-121.824037, 38.445581], "type": "Point"}, "id": "734xhaZKZEf0ywqDeWHBz2_5Pac=", "properties": {"@spider": "usps_collection_boxes", "addr:city": "DIXON", "addr:country": "US", "addr:full": "221 W A ST", "addr:postcode": "95620", "addr:state": "CA", "brand": "USPS", "collection_times": "Mo-Fr 17:00; Sa 15:00", "name": "USPS COLLECTION BOX - BLUE BOX", "note": "ON 12/24 AND 12/31, THIS BOX MAY BE COLLECTED AS EARLY AS 12 NOON.", "ref": "9562000009"}, "type": "Feature"}
{"geometry": {"coordinates": [-121.824037, 38.445581], "type": "Point"}, "id": "GbfRrQ90eaavh7fwm3htZwcsOaI=", "properties": {"@spider": "usps_collection_boxes", "addr:city": "DIXON", "addr:country": "US", "addr:full": "221 W A ST", "addr:postcode": "95620", "addr:state": "CA", "brand": "USPS", "collection_times": "Mo-Fr 17:00; Sa 15:00", "name": "USPS COLLECTION BOX - BLUE BOX", "note": "ON 12/24 AND 12/31, THIS BOX MAY BE COLLECTED AS EARLY AS 12 NOON.", "ref": "9562000010"}, "type": "Feature"}
{"geometry": {"coordinates": [-121.824037, 38.445581], "type": "Point"}, "id": "HR0Fgln6_y72sfDg-nrjx86aoTY=", "properties": {"@spider": "usps_collection_boxes", "addr:city": "DIXON", "addr:country": "US", "addr:full": "221 W A ST", "addr:postcode": "95620", "addr:state": "CA", "brand": "USPS", "collection_times": "Mo-Fr 17:00; Sa 15:00", "name": "USPS COLLECTION BOX - PO LOBBY", "note": "ON 12/24 AND 12/31, THIS BOX MAY BE COLLECTED AS EARLY AS 12 NOON.", "ref": "9562000011"}, "type": "Feature"}
{"geometry": {"coordinates": [-121.824037, 38.445581], "type": "Point"}, "id": "GDeKcW1fcT0OrlgKNAxt1NulGnk=", "properties": {"@spider": "usps_collection_boxes", "addr:city": "DIXON", "addr:country": "US", "addr:full": "221 W A ST", "addr:postcode": "95620", "addr:state": "CA", "brand": "USPS", "collection_times": "Mo-Fr 17:00; Sa 15:00", "name": "USPS COLLECTION BOX - PO LOBBY", "note": "ON 12/24 AND 12/31, THIS BOX MAY BE COLLECTED AS EARLY AS 12 NOON.", "ref": "9562000012"}, "type": "Feature"}
{"geometry": {"coordinates": [-121.8244404446, 38.445554539], "type": "Point"}, "id": "jiAWFkLoBRZLWbz1bItblPRL1y4=", "properties": {"@spider": "usps_collection_boxes", "addr:city": "DIXON", "addr:country": "US", "addr:full": "221 W A ST", "addr:postcode": "95620", "addr:state": "CA", "brand": "USPS", "collection_times": "Mo-Fr 17:00; Sa 14:00", "name": "USPS COLLECTION BOX - PO LOBBY", "note": "ON 12/24 AND 12/31, THIS BOX MAY BE COLLECTED AS EARLY AS 12 NOON.", "ref": "9562000017"}, "type": "Feature"}
{"geometry": {"coordinates": [-121.910931, 38.349733], "type": "Point"}, "id": "F-4wMHCgJdCw9a6ICEuQKG0aLEk=", "properties": {"@spider": "usps_collection_boxes", "addr:city": "ELMIRA", "addr:country": "US", "addr:full": "5377 VACA STATION RD", "addr:postcode": "95625", "addr:state": "CA", "brand": "USPS", "collection_times": "Mo-Fr 16:00; Sa 08:00", "name": "USPS COLLECTION BOX - BLUE BOX", "note": "ON 12/24 AND 12/31, THIS BOX MAY BE COLLECTED AS EARLY AS 12 NOON.", "ref": "9562500000"}, "type": "Feature"}
{"geometry": {"coordinates": [-121.910899, 38.349682], "type": "Point"}, "id": "sRy9MeDuEwWcq3OBFhYviBQ3-Js=", "properties": {"@spider": "usps_collection_boxes", "addr:city": "ELMIRA", "addr:country": "US", "addr:full": "5377 VACA STATION RD", "addr:postcode": "95625", "addr:state": "CA", "brand": "USPS", "collection_times": "Mo-Fr 16:00; Sa 08:00", "name": "USPS COLLECTION BOX - PO LOBBY", "note": "ON 12/24 AND 12/31, THIS BOX MAY BE COLLECTED AS EARLY AS 12 NOON.", "ref": "9562500001"}, "type": "Feature"}
{"geometry": {"coordinates": [-121.908930078, 38.348613197], "type": "Point"}, "id": "K4dQWS-w4OZEUAKEQ-phv3LcOXc=", "properties": {"@spider": "usps_collection_boxes", "addr:city": "ELMIRA", "addr:country": "US", "addr:full": "5377 VACA STATION RD", "addr:postcode": "95625", "addr:state": "CA", "brand": "USPS", "collection_times": "Mo-Fr 16:00", "name": "USPS COLLECTION BOX - PO LOBBY", "note": "ON 12/24 AND 12/31, THIS BOX MAY BE COLLECTED AS EARLY AS 12 NOON.", "ref": "9562500002"}, "type": "Feature"}
{"geometry": {"coordinates": [-121.610016, 38.162095], "type": "Point"}, "id": "Ufw4x-QlZZ5U9ZGfOJoPbxj8Gi4=", "properties": {"@spider": "usps_collection_boxes", "addr:city": "ISLETON", "addr:country": "US", "addr:full": "103 C ST", "addr:postcode": "95641", "addr:state": "CA", "brand": "USPS", "collection_times": "Mo-Fr 16:30; Sa 10:00", "name": "USPS COLLECTION BOX - BLUE BOX", "note": "ON 12/24 AND 12/31, THIS BOX MAY BE COLLECTED AS EARLY AS 12 NOON.", "ref": "9564100000"}, "type": "Feature"}
{"geometry": {"coordinates": [-121.610016, 38.162095], "type": "Point"}, "id": "0Ghm5zK8DYP3QkYnJBVHsJdT0Xg=", "properties": {"@spider": "usps_collection_boxes", "addr:city": "ISLETON", "addr:country": "US", "addr:full": "103 C ST", "addr:postcode": "95641", "addr:state": "CA", "brand": "USPS", "collection_times": "Mo-Fr 16:30; Sa 10:00", "name": "USPS COLLECTION BOX - PO LOBBY", "note": "ON 12/24 AND 12/31, THIS BOX MAY BE COLLECTED AS EARLY AS 12 NOON.", "ref": "9564100002"}, "type": "Feature"}
{"geometry": {"coordinates": [-121.610002543, 38.162129794], "type": "Point"}, "id": "vzEnSkooYW91Ss2QkmsUD3JDAw0=", "properties": {"@spider": "usps_collection_boxes", "addr:city": "ISLETON", "addr:country": "US", "addr:full": "103 C ST", "addr:postcode": "95641", "addr:state": "CA", "brand": "USPS", "collection_times": "Mo-Fr 16:30", "name": "USPS COLLECTION BOX - PO LOBBY", "note": "ON 12/24 AND 12/31, THIS BOX MAY BE COLLECTED AS EARLY AS 12 NOON.", "ref": "9564100003"}, "type": "Feature"}
{"geometry": {"coordinates": [-121.556991, 38.240112], "type": "Point"}, "id": "FZ2LKRNCFPW5PdUxRhR2HQk8tPQ=", "properties": {"@spider": "usps_collection_boxes", "addr:city": "RYDE", "addr:country": "US", "addr:full": "14286 HIGHWAY 160", "addr:postcode": "95680", "addr:state": "CA", "brand": "USPS", "collection_times": "Mo-Fr 16:00; Sa 08:00", "name": "USPS COLLECTION BOX - BLUE BOX", "note": "ON 12/24 AND 12/31, THIS BOX MAY BE COLLECTED AS EARLY AS 12 NOON.", "ref": "9568000000"}, "type": "Feature"}
{"geometry": {"coordinates": [-121.559056, 38.238221], "type": "Point"}, "id": "rf_vOTI74sdLyYh0NTQ0HlFQrWk=", "properties": {"@spider": "usps_collection_boxes", "addr:city": "RYDE", "addr:country": "US", "addr:full": "14286 HIGHWAY 160", "addr:postcode": "95680", "addr:state": "CA", "brand": "USPS", "collection_times": "Mo-Fr 16:00; Sa 08:00", "name": "USPS COLLECTION BOX - PO LOBBY", "note": "ON 12/24 AND 12/31, THIS BOX MAY BE COLLECTED AS EARLY AS 12 NOON.", "ref": "9568000002"}, "type": "Feature"}
{"geometry": {"coordinates": [-121.55840818, 38.238544497], "type": "Point"}, "id": "2LvtYPJQ_QarNjfcT7xCQ9eFDME=", "properties": {"@spider": "usps_collection_boxes", "addr:city": "RYDE", "addr:country": "US", "addr:full": "14286 STATE HIGHWAY 160", "addr:postcode": "95680", "addr:state": "CA", "brand": "USPS", "collection_times": "Mo-Fr 16:00", "name": "USPS COLLECTION BOX - PO LOBBY", "note": "ON 12/24 AND 12/31, THIS BOX MAY BE COLLECTED AS EARLY AS 12 NOON.", "ref": "9568000003"}, "type": "Feature"}
{"geometry": {"coordinates": [-121.95482, 38.336338], "type": "Point"}, "id": "qnsbCCr1a-Z-JlRDDcO2KtMGHGs=", "properties": {"@spider": "usps_collection_boxes", "addr:city": "VACAVILLE", "addr:country": "US", "addr:full": "3063 ALAMO DR", "addr:postcode": "95687", "addr:state": "CA", "brand": "USPS", "collection_times": "Mo-Sa 12:00", "name": "USPS COLLECTION BOX - BLUE BOX", "ref": "9568700001"}, "type": "Feature"}
{"geometry": {"coordinates": [-121.976015, 38.351083], "type": "Point"}, "id": "4kQsJl9UAATTw3do_UvB07clWTk=", "properties": {"@spider": "usps_collection_boxes", "addr:city": "VACAVILLE", "addr:country": "US", "addr:full": "200 PRAIRIE CT", "addr:postcode": "95687", "addr:state": "CA", "brand": "USPS", "collection_times": "Mo-Fr 17:00; Sa 16:00", "name": "USPS COLLECTION BOX - BLUE BOX", "note": "ON 12/24 AND 12/31, THIS BOX MAY BE COLLECTED AS EARLY AS 12 NOON.", "ref": "9568700002"}, "type": "Feature"}
{"geometry": {"coordinates": [-121.976129, 38.35111], "type": "Point"}, "id": "ZwXO6dxGHHoYmWJvqPbaVMFDWQU=", "properties": {"@spider": "usps_collection_boxes", "addr:city": "VACAVILLE", "addr:country": "US", "addr:full": "200 PRAIRIE CT", "addr:postcode": "95687", "addr:state": "CA", "brand": "USPS", "collection_times": "Mo-Fr 17:00; Sa 16:00", "name": "USPS COLLECTION BOX - BLUE BOX", "note": "ON 12/24 AND 12/31, THIS BOX MAY BE COLLECTED AS EARLY AS 12 NOON.", "ref": "9568700004"}, "type": "Feature"}
{"geometry": {"coordinates": [-121.9458041571, 38.3650543664], "type": "Point"}, "id": "EJgdQU1Z_aVLCmfSpmG_acayQCY=", "properties": {"@spider": "usps_collection_boxes", "addr:city": "VACAVILLE", "addr:country": "US", "addr:full": "346 YELLOWSTONE DR", "addr:postcode": "95687", "addr:state": "CA", "brand": "USPS", "collection_times": "Mo-Sa 14:00", "name": "USPS COLLECTION BOX - BLUE BOX", "note": "ON 12/24 AND 12/31, THIS BOX MAY BE COLLECTED AS EARLY AS 12 NOON.", "ref": "9568700007"}, "type": "Feature"}
{"geometry": {"coordinates": [-121.939267, 38.376183], "type": "Point"}, "id": "DrQCPvitdXcmM9gEodKmgGa5p8Q=", "properties": {"@spider": "usps_collection_boxes", "addr:city": "VACAVILLE", "addr:country": "US", "addr:full": "100 SEQUOIA DR", "addr:postcode": "95687", "addr:state": "CA", "brand": "USPS", "collection_times": "Mo-Sa 14:00", "name": "USPS COLLECTION BOX - BLUE BOX", "note": "ON 12/24 AND 12/31, THIS BOX MAY BE COLLECTED AS EARLY AS 12 NOON.", "ref": "9568700009"}, "type": "Feature"}
{"geometry": {"coordinates": [-121.96326, 38.362681], "type": "Point"}, "id": "YmULtuBa6jyKnNmezZXDvk_ih10=", "properties": {"@spider": "usps_collection_boxes", "addr:city": "VACAVILLE", "addr:country": "US", "addr:full": "2010 HARBISON DR STE C", "addr:postcode": "95687", "addr:state": "CA", "brand": "USPS", "collection_times": "Mo-Sa 15:00", "name": "USPS COLLECTION BOX - BLUE BOX", "note": "ON 12/24 AND 12/31, THIS BOX MAY BE COLLECTED AS EARLY AS 12 NOON.", "ref": "9568700016"}, "type": "Feature"}
{"geometry": {"coordinates": [-121.9975239793, 38.3445870124], "type": "Point"}, "id": "aYEgzUc7pUleMmk3fXDqVGm01w4=", "properties": {"@spider": "usps_collection_boxes", "addr:city": "VACAVILLE", "addr:country": "US", "addr:full": "183 BUTCHER RD", "addr:postcode": "95687", "addr:state": "CA", "brand": "USPS", "collection_times": "Mo-Sa 12:00", "name": "USPS COLLECTION BOX - BLUE BOX", "ref": "9568700022"}, "type": "Feature"}
{"geometry": {"coordinates": [-121.938531, 38.35903], "type": "Point"}, "id": "gyQ8khaiyt69UdnysKbY1U_W9io=", "properties": {"@spider": "usps_collection_boxes", "addr:city": "VACAVILLE", "addr:country": "US", "addr:full": "101 STONEGATE DR", "addr:postcode": "95687", "addr:state": "CA", "brand": "USPS", "collection_times": "Mo-Sa 14:00", "name": "USPS COLLECTION BOX - BLUE BOX", "note": "ON 12/24 AND 12/31, THIS BOX MAY BE COLLECTED AS EARLY AS 12 NOON.", "ref": "9568700029"}, "type": "Feature"}
{"geometry": {"coordinates": [-121.951438, 38.352816], "type": "Point"}, "id": "vSw9HT8UvSFlMYacaZ9abxDACqM=", "properties": {"@spider": "usps_collection_boxes", "addr:city": "VACAVILLE", "addr:country": "US", "addr:full": "625 ELMIRA RD", "addr:postcode": "95687", "addr:state": "CA", "brand": "USPS", "collection_times": "Mo-Sa 14:00", "name": "USPS COLLECTION BOX - BLUE BOX", "note": "ON 12/24 AND 12/31, THIS BOX MAY BE COLLECTED AS EARLY AS 12 NOON.", "ref": "9568700032"}, "type": "Feature"}
{"geometry": {"coordinates": [-121.951243, 38.37114], "type": "Point"}, "id": "U1D1qYuRdLanmNOkQKmcpHjJAc8=", "properties": {"@spider": "usps_collection_boxes", "addr:city": "VACAVILLE", "addr:country": "US", "addr:full": "191 LAWRENCE DR", "addr:postcode": "95687", "addr:state": "CA", "brand": "USPS", "collection_times": "Mo-Sa 14:00", "name": "USPS COLLECTION BOX - BLUE BOX", "note": "ON 12/24 AND 12/31, THIS BOX MAY BE COLLECTED AS EARLY AS 12 NOON.", "ref": "9568700034"}, "type": "Feature"}
{"geometry": {"coordinates": [-121.974975, 38.351395], "type": "Point"}, "id": "yHc8BVZER5XquYxHan6iow--Hr0=", "properties": {"@spider": "usps_collection_boxes", "addr:city": "VACAVILLE", "addr:country": "US", "addr:full": "200 PRAIRIE CT", "addr:postcode": "95687", "addr:state": "CA", "brand": "USPS", "collection_times": "Mo-Fr 17:00; Sa 16:00", "name": "USPS COLLECTION BOX - PO LOBBY", "note": "ON 12/24 AND 12/31, THIS BOX MAY BE COLLECTED AS EARLY AS 12 NOON.", "ref": "9568700039"}, "type": "Feature"}
{"geometry": {"coordinates": [-121.976129, 38.35111], "type": "Point"}, "id": "dTa6IVa2e3_Xtm6fThbEmhjCSCE=", "properties": {"@spider": "usps_collection_boxes", "addr:city": "VACAVILLE", "addr:country": "US", "addr:full": "200 PRAIRIE CT", "addr:postcode": "95687", "addr:state": "CA", "brand": "USPS", "collection_times": "Mo-Fr 17:00; Sa 16:00", "name": "USPS COLLECTION BOX - PO LOBBY", "note": "ON 12/24 AND 12/31, THIS BOX MAY BE COLLECTED AS EARLY AS 12 NOON.", "ref": "9568700040"}, "type": "Feature"}
{"geometry": {"coordinates": [-121.953577, 38.342198], "type": "Point"}, "id": "uIGOmNDFE7Bq77YsTyGitYLzFiU=", "properties": {"@spider": "usps_collection_boxes", "addr:city": "VACAVILLE", "addr:country": "US", "addr:full": "118 BEL AIR DR", "addr:postcode": "95687", "addr:state": "CA", "brand": "USPS", "collection_times": "Mo-Sa 12:30", "name": "USPS COLLECTION BOX - BLUE BOX", "note": "ON 12/24 AND 12/31, THIS BOX MAY BE COLLECTED AS EARLY AS 12 NOON.", "ref": "9568700041"}, "type": "Feature"}
{"geometry": {"coordinates": [-121.976129, 38.35111], "type": "Point"}, "id": "mdBeJzRU8g0oLmeI9YxyOsiryeY=", "properties": {"@spider": "usps_collection_boxes", "addr:city": "VACAVILLE", "addr:country": "US", "addr:full": "200 PRAIRIE CT", "addr:postcode": "95687", "addr:state": "CA", "brand": "USPS", "collection_times": "Mo-Fr 17:00; Sa 16:00", "name": "USPS COLLECTION BOX - APC", "note": "ON 12/24 AND 12/31, THIS BOX MAY BE COLLECTED AS EARLY AS 12 NOON.", "ref": "9568700042"}, "type": "Feature"}
{"geometry": {"coordinates": [-121.9753096, 38.351111322], "type": "Point"}, "id": "en47GsrA7LmVe_3xxY2OrlS4QTc=", "properties": {"@spider": "usps_collection_boxes", "addr:city": "VACAVILLE", "addr:country": "US", "addr:full": "200 PRAIRIE CT", "addr:postcode": "95687", "addr:state": "CA", "brand": "USPS", "collection_times": "Mo-Fr 17:00; Sa 14:00", "name": "USPS COLLECTION BOX - PO LOBBY", "note": "ON 12/24 AND 12/31, THIS BOX MAY BE COLLECTED AS EARLY AS 12 NOON.", "ref": "9568700049"}, "type": "Feature"}
{"geometry": {"coordinates": [-121.991105, 38.35985], "type": "Point"}, "id": "7WXKYoBS6GcP-lagoukOvJDC5ic=", "properties": {"@spider": "usps_collection_boxes", "addr:city": "VACAVILLE", "addr:country": "US", "addr:full": "98 CERNON ST", "addr:postcode": "95688", "addr:state": "CA", "brand": "USPS", "collection_times": "Mo-Fr 17:00; Sa 13:30", "name": "USPS COLLECTION BOX - BLUE BOX", "note": "ON 12/24 AND 12/31, THIS BOX MAY BE COLLECTED AS EARLY AS 12 NOON.", "ref": "9568800006"}, "type": "Feature"}
{"geometry": {"coordinates": [-121.991122, 38.359876], "type": "Point"}, "id": "9K1eRAYFaUIXHW81k1hpjwS3vvw=", "properties": {"@spider": "usps_collection_boxes", "addr:city": "VACAVILLE", "addr:country": "US", "addr:full": "98 CERNON ST", "addr:postcode": "95688", "addr:state": "CA", "brand": "USPS", "collection_times": "Mo-Fr 17:00; Sa 13:30", "name": "USPS COLLECTION BOX - EXPRESS", "note": "ON 12/24 AND 12/31, THIS BOX MAY BE COLLECTED AS EARLY AS 12 NOON.", "ref": "9568800008"}, "type": "Feature"}
{"geometry": {"coordinates": [-121.98851, 38.355283], "type": "Point"}, "id": "qhAutPZzQbCvcoKLWMAg9Uv3Qtk=", "properties": {"@spider": "usps_collection_boxes", "addr:city": "VACAVILLE", "addr:country": "US", "addr:full": "419 MASON ST", "addr:postcode": "95688", "addr:state": "CA", "brand": "USPS", "collection_times": "Mo-Sa 14:30", "name": "USPS COLLECTION BOX - BLUE BOX", "note": "ON 12/24 AND 12/31, THIS BOX MAY BE COLLECTED AS EARLY AS 12 NOON.", "ref": "9568800016"}, "type": "Feature"}
{"geometry": {"coordinates": [-121.985679, 38.355707], "type": "Point"}, "id": "Y_T1pajuVGzQ3VLmwFBAff9Ez2M=", "properties": {"@spider": "usps_collection_boxes", "addr:city": "VACAVILLE", "addr:country": "US", "addr:full": "555 MASON ST", "addr:postcode": "95688", "addr:state": "CA", "brand": "USPS", "collection_times": "Mo-Sa 14:30", "name": "USPS COLLECTION BOX - BLUE BOX", "note": "ON 12/24 AND 12/31, THIS BOX MAY BE COLLECTED AS EARLY AS 12 NOON.", "ref": "9568800018"}, "type": "Feature"}
{"geometry": {"coordinates": [-121.982509, 38.359903], "type": "Point"}, "id": "n-auu9vga2eoHg2fvfFkf4_X0ZI=", "properties": {"@spider": "usps_collection_boxes", "addr:city": "VACAVILLE", "addr:country": "US", "addr:full": "777 E MONTE VISTA AVE", "addr:postcode": "95688", "addr:state": "CA", "brand": "USPS", "collection_times": "Mo-Sa 14:30", "name": "USPS COLLECTION BOX - BLUE BOX", "note": "ON 12/24 AND 12/31, THIS BOX MAY BE COLLECTED AS EARLY AS 12 NOON.", "ref": "9568800023"}, "type": "Feature"}
{"geometry": {"coordinates": [-122.005373, 38.358872], "type": "Point"}, "id": "HIphi4b95EKftptJ4NG3tGB889M=", "properties": {"@spider": "usps_collection_boxes", "addr:city": "VACAVILLE", "addr:country": "US", "addr:full": "190 S ORCHARD AVE", "addr:postcode": "95688", "addr:state": "CA", "brand": "USPS", "collection_times": "Mo-Sa 14:30", "name": "USPS COLLECTION BOX - BLUE BOX", "note": "ON 12/24 AND 12/31, THIS BOX MAY BE COLLECTED AS EARLY AS 12 NOON.", "ref": "9568800026"}, "type": "Feature"}
{"geometry": {"coordinates": [-121.991086, 38.359863], "type": "Point"}, "id": "iMfPAquK4xXQpcAPkgV__UIX3ic=", "properties": {"@spider": "usps_collection_boxes", "addr:city": "VACAVILLE", "addr:country": "US", "addr:full": "98 CERNON ST", "addr:postcode": "95688", "addr:state": "CA", "brand": "USPS", "collection_times": "Mo-Fr 17:00; Sa 13:30", "name": "USPS COLLECTION BOX - BLUE BOX", "note": "ON 12/24 AND 12/31, THIS BOX MAY BE COLLECTED AS EARLY AS 12 NOON.", "ref": "9568800030"}, "type": "Feature"}
{"geometry": {"coordinates": [-121.99096, 38.359064], "type": "Point"}, "id": "0dyAl285KjhDoZbuJaQoQx-L5eo=", "properties": {"@spider": "usps_collection_boxes", "addr:city": "VACAVILLE", "addr:country": "US", "addr:full": "98 CERNON ST", "addr:postcode": "95688", "addr:state": "CA", "brand": "USPS", "collection_times": "Mo-Fr 17:00; Sa 13:30", "name": "USPS COLLECTION BOX - PO LOBBY", "note": "ON 12/24 AND 12/31, THIS BOX MAY BE COLLECTED AS EARLY AS 12 NOON.", "ref": "9568800031"}, "type": "Feature"}
{"geometry": {"coordinates": [-121.99096, 38.359064], "type": "Point"}, "id": "n27tl9paUhcuPMqFMmtQ2kKK9wg=", "properties": {"@spider": "usps_collection_boxes", "addr:city": "VACAVILLE", "addr:country": "US", "addr:full": "98 CERNON ST", "addr:postcode": "95688", "addr:state": "CA", "brand": "USPS", "collection_times": "Mo-Fr 17:00; Sa 13:30", "name": "USPS COLLECTION BOX - PO LOBBY", "note": "ON 12/24 AND 12/31, THIS BOX MAY BE COLLECTED AS EARLY AS 12 NOON.", "ref": "9568800032"}, "type": "Feature"}
{"geometry": {"coordinates": [-121.983877, 38.354332], "type": "Point"}, "id": "JiCFw9F9lFE5WisO2IICSaF7Gz0=", "properties": {"@spider": "usps_collection_boxes", "addr:city": "VACAVILLE", "addr:country": "US", "addr:full": "750 MASON ST", "addr:postcode": "95688", "addr:state": "CA", "brand": "USPS", "collection_times": "Mo-Sa 14:30", "name": "USPS COLLECTION BOX - BLUE BOX", "note": "ON 12/24 AND 12/31, THIS BOX MAY BE COLLECTED AS EARLY AS 12 NOON.", "ref": "9568800041"}, "type": "Feature"}
{"geometry": {"coordinates": [-121.969142, 38.36503], "type": "Point"}, "id": "81Ib14LPf4yPZYHmV0XKTBvYiyI=", "properties": {"@spider": "usps_collection_boxes", "addr:city": "VACAVILLE", "addr:country": "US", "addr:full": "130 BROWNS VALLEY PKWY", "addr:postcode": "95688", "addr:state": "CA", "brand": "USPS", "collection_times": "Mo-Sa 15:00", "name": "USPS COLLECTION BOX - BLUE BOX", "note": "ON 12/24 AND 12/31, THIS BOX MAY BE COLLECTED AS EARLY AS 12 NOON.", "ref": "9568800042"}, "type": "Feature"}
{"geometry": {"coordinates": [-121.990988041, 38.359430528], "type": "Point"}, "id": "cinEKjugO_cqeORKvJ8b23XrhsM=", "properties": {"@spider": "usps_collection_boxes", "addr:city": "VACAVILLE", "addr:country": "US", "addr:full": "98 CERNON ST", "addr:postcode": "95688", "addr:state": "CA", "brand": "USPS", "collection_times": "Mo-Fr 17:00; Sa 13:30", "name": "USPS COLLECTION BOX - PO LOBBY", "note": "ON 12/24 AND 12/31, THIS BOX MAY BE COLLECTED AS EARLY AS 12 NOON.", "ref": "9568800047"}, "type": "Feature"}
