{"geometry": {"coordinates": [-120.815454275, 39.208750038], "type": "Point"}, "id": "rCB5CchJvqOuOfEHZS0_Kmfb4HU=", "properties": {"@spider": "usps_collection_boxes", "addr:city": "ALTA", "addr:country": "US", "addr:full": "33735 NARY RED RD", "addr:postcode": "95701", "addr:state": "CA", "brand": "USPS", "collection_times": "Mo-Fr 16:15; Sa 10:00", "name": "USPS COLLECTION BOX - BLUE BOX", "note": "ON 12/24 AND 12/31, THIS BOX MAY BE COLLECTED AS EARLY AS 12 NOON.", "ref": "9570100000"}, "type": "Feature"}
{"geometry": {"coordinates": [-120.81588, 39.208838], "type": "Point"}, "id": "4Acfx9CWYp56P1CSSdK0wpEOj70=", "properties": {"@spider": "usps_collection_boxes", "addr:city": "ALTA", "addr:country": "US", "addr:full": "33735 NARY RED RD", "addr:postcode": "95701", "addr:state": "CA", "brand": "USPS", "collection_times": "Mo-Fr 16:15; Sa 10:00", "name": "USPS COLLECTION BOX - PO LOBBY", "note": "ON 12/24 AND 12/31, THIS BOX MAY BE COLLECTED AS EARLY AS 12 NOON.", "ref": "9570100001"}, "type": "Feature"}
{"geometry": {"coordinates": [-120.815454275, 39.208750038], "type": "Point"}, "id": "C28qQysr8FCfupzoivWMKxnj8Kk=", "properties": {"@spider": "usps_collection_boxes", "addr:city": "ALTA", "addr:country": "US", "addr:full": "33735 NARY RED RD", "addr:postcode": "95701", "addr:state": "CA", "brand": "USPS", "collection_times": "Mo-Fr 16:15", "name": "USPS COLLECTION BOX - PO LOBBY", "note": "ON 12/24 AND 12/31, THIS BOX MAY BE COLLECTED AS EARLY AS 12 NOON.", "ref": "9570100002"}, "type": "Feature"}
{"geometry": {"coordinates": [-120.993652, 38.999668], "type": "Point"}, "id": "syAKljFJnsMkpkg1tQXbfBRWeeg=", "properties": {"@spider": "usps_collection_boxes", "addr:city": "APPLEGATE", "addr:country": "US", "addr:full": "17880 APPLEGATE RD", "addr:postcode": "95703", "addr:state": "CA", "brand": "USPS", "collection_times": "Mo-Fr 16:45; Sa 09:30", "name": "USPS COLLECTION BOX - BLUE BOX", "note": "ON 12/24 AND 12/31, THIS BOX MAY BE COLLECTED AS EARLY AS 12 NOON.", "ref": "9570300000"}, "type": "Feature"}
{"geometry": {"coordinates": [-120.993623, 38.999751], "type": "Point"}, "id": "4qdPLG6i2yeH0R0lDF4gf3OtogI=", "properties": {"@spider": "usps_collection_boxes", "addr:city": "APPLEGATE", "addr:country": "US", "addr:full": "17880 APPLEGATE RD", "addr:postcode": "95703", "addr:state": "CA", "brand": "USPS", "collection_times": "Mo-Fr 16:45; Sa 09:30", "name": "USPS COLLECTION BOX - PO LOBBY", "note": "ON 12/24 AND 12/31, THIS BOX MAY BE COLLECTED AS EARLY AS 12 NOON.", "ref": "9570300001"}, "type": "Feature"}
{"geometry": {"coordinates": [-120.9936202261, 38.9996604387], "type": "Point"}, "id": "DOlLvTJS756w7t_payMp6qplPJE=", "properties": {"@spider": "usps_collection_boxes", "addr:city": "APPLEGATE", "addr:country": "US", "addr:full": "17880 APPLEGATE RD", "addr:postcode": "95703", "addr:state": "CA", "brand": "USPS", "collection_times": "Mo-Fr 17:00", "name": "USPS COLLECTION BOX - PO LOBBY", "note": "ON 12/24 AND 12/31, THIS BOX MAY BE COLLECTED AS EARLY AS 12 NOON.", "ref": "9570300003"}, "type": "Feature"}
{"geometry": {"coordinates": [-120.675245, 38.738048], "type": "Point"}, "id": "8MnYyj36rD_7K3M8BMiSlFnMiUI=", "properties": {"@spider": "usps_collection_boxes", "addr:city": "CAMINO", "addr:country": "US", "addr:full": "4120 CARSON RD", "addr:postcode": "95709", "addr:state": "CA", "brand": "USPS", "collection_times": "Mo-Fr 17:00; Sa 11:00", "name": "USPS COLLECTION BOX - BLUE BOX", "note": "ON 12/24 AND 12/31, THIS BOX MAY BE COLLECTED AS EARLY AS 12 NOON.", "ref": "9570900000"}, "type": "Feature"}
{"geometry": {"coordinates": [-120.675256, 38.738076], "type": "Point"}, "id": "y8pGD2P8CE3Z6-Ni6gAdAVk1LyQ=", "properties": {"@spider": "usps_collection_boxes", "addr:city": "CAMINO", "addr:country": "US", "addr:full": "4120 CARSON RD", "addr:postcode": "95709", "addr:state": "CA", "brand": "USPS", "collection_times": "Mo-Fr 17:00; Sa 11:00", "name": "USPS COLLECTION BOX - PO LOBBY", "note": "ON 12/24 AND 12/31, THIS BOX MAY BE COLLECTED AS EARLY AS 12 NOON.", "ref": "9570900002"}, "type": "Feature"}
{"geometry": {"coordinates": [-120.675256, 38.738076], "type": "Point"}, "id": "c9aJLp8j-HGIfGqbba18elKVqlA=", "properties": {"@spider": "usps_collection_boxes", "addr:city": "CAMINO", "addr:country": "US", "addr:full": "4120 CARSON RD", "addr:postcode": "95709", "addr:state": "CA", "brand": "USPS", "collection_times": "Mo-Fr 17:00; Sa 11:00", "name": "USPS COLLECTION BOX - PO LOBBY", "note": "ON 12/24 AND 12/31, THIS BOX MAY BE COLLECTED AS EARLY AS 12 NOON.", "ref": "9570900003"}, "type": "Feature"}
{"geometry": {"coordinates": [-120.675255624, 38.737991581], "type": "Point"}, "id": "qwFRHQbrMnPNlYmkzFPb08rS0mk=", "properties": {"@spider": "usps_collection_boxes", "addr:city": "CAMINO", "addr:country": "US", "addr:full": "4120 CARSON RD", "addr:postcode": "95709", "addr:state": "CA", "brand": "USPS", "collection_times": "Mo-Fr 17:00", "name": "USPS COLLECTION BOX - PO LOBBY", "note": "ON 12/24 AND 12/31, THIS BOX MAY BE COLLECTED AS EARLY AS 12 NOON.", "ref": "9570900004"}, "type": "Feature"}
{"geometry": {"coordinates": [-120.9672090416, 39.1458809884], "type": "Point"}, "id": "gga3fbMnh9Grxy5kWW3V3t6fRqE=", "properties": {"@spider": "usps_collection_boxes", "addr:city": "CHICAGO PARK", "addr:country": "US", "addr:full": "17748 LOWER COLFAX RD", "addr:postcode": "95712", "addr:state": "CA", "brand": "USPS", "collection_times": "Mo-Fr 16:30; Sa 09:50", "name": "USPS COLLECTION BOX - BLUE BOX", "note": "ON 12/24 AND 12/31, THIS BOX MAY BE COLLECTED AS EARLY AS 12 NOON.", "ref": "9571200000"}, "type": "Feature"}
{"geometry": {"coordinates": [-120.9672090416, 39.1458809884], "type": "Point"}, "id": "gEGpeJtbaahnf1yqOHoi5u4956M=", "properties": {"@spider": "usps_collection_boxes", "addr:city": "CHICAGO PARK", "addr:country": "US", "addr:full": "17748 LOWER COLFAX RD", "addr:postcode": "95712", "addr:state": "CA", "brand": "USPS", "collection_times": "Mo-Fr 16:30; Sa 09:50", "name": "USPS COLLECTION BOX - PO LOBBY", "note": "ON 12/24 AND 12/31, THIS BOX MAY BE COLLECTED AS EARLY AS 12 NOON.", "ref": "9571200001"}, "type": "Feature"}
{"geometry": {"coordinates": [-120.9672090416, 39.1458809884], "type": "Point"}, "id": "oa6fHLWuseH4JgCthM6jAjRiyJQ=", "properties": {"@spider": "usps_collection_boxes", "addr:city": "CHICAGO PARK", "addr:country": "US", "addr:full": "17748 LOWER COLFAX RD", "addr:postcode": "95712", "addr:state": "CA", "brand": "USPS", "collection_times": "Mo-Fr 16:30; Sa 09:50", "name": "USPS COLLECTION BOX - PO LOBBY", "note": "ON 12/24 AND 12/31, THIS BOX MAY BE COLLECTED AS EARLY AS 12 NOON.", "ref": "9571200002"}, "type": "Feature"}
{"geometry": {"coordinates": [-120.9672090416, 39.1458809884], "type": "Point"}, "id": "q6XU1mZ5Yw1KHJJXaKT7eh1dg3M=", "properties": {"@spider": "usps_collection_boxes", "addr:city": "CHICAGO PARK", "addr:country": "US", "addr:full": "17748 LOWER COLFAX RD", "addr:postcode": "95712", "addr:state": "CA", "brand": "USPS", "collection_times": "Mo-Fr 16:15", "name": "USPS COLLECTION BOX - PO LOBBY", "note": "ON 12/24 AND 12/31, THIS BOX MAY BE COLLECTED AS EARLY AS 12 NOON.", "ref": "9571200003"}, "type": "Feature"}
{"geometry": {"coordinates": [-120.9525100332, 39.0935999989], "type": "Point"}, "id": "ocddiFPJ3e_SW8bAEbE__sVMhWM=", "properties": {"@spider": "usps_collection_boxes", "addr:city": "COLFAX", "addr:country": "US", "addr:full": "555 S AUBURN ST", "addr:postcode": "95713", "addr:state": "CA", "brand": "USPS", "collection_times": "Mo-Fr 10:00", "name": "USPS COLLECTION BOX - BLUE BOX", "ref": "9571300001"}, "type": "Feature"}
{"geometry": {"coordinates": [-120.9550560363, 39.099358995], "type": "Point"}, "id": "XxxIq9M8K99jREGaYXC7uRNCRVQ=", "properties": {"@spider": "usps_collection_boxes", "addr:city": "COLFAX", "addr:country": "US", "addr:full": "40 W CHURCH ST", "addr:postcode": "95713", "addr:state": "CA", "brand": "USPS", "collection_times": "Mo-Fr 17:00; Sa 12:00", "name": "USPS COLLECTION BOX - BLUE BOX", "note": "ON 12/24 AND 12/31, THIS BOX MAY BE COLLECTED AS EARLY AS 12 NOON.", "ref": "9571300004"}, "type": "Feature"}
{"geometry": {"coordinates": [-120.9550560363, 39.099358995], "type": "Point"}, "id": "iNLUfUpqDcWBQELLfJfuP5DSLgM=", "properties": {"@spider": "usps_collection_boxes", "addr:city": "COLFAX", "addr:country": "US", "addr:full": "40 W CHURCH ST", "addr:postcode": "95713", "addr:state": "CA", "brand": "USPS", "collection_times": "Mo-Fr 17:00; Sa 12:00", "name": "USPS COLLECTION BOX - PO LOBBY", "note": "ON 12/24 AND 12/31, THIS BOX MAY BE COLLECTED AS EARLY AS 12 NOON.", "ref": "9571300006"}, "type": "Feature"}
{"geometry": {"coordinates": [-120.9550560363, 39.099358995], "type": "Point"}, "id": "-Ro-qaFvzK9l0FW-QJgfb0zpKNY=", "properties": {"@spider": "usps_collection_boxes", "addr:city": "COLFAX", "addr:country": "US", "addr:full": "40 W CHURCH ST", "addr:postcode": "95713", "addr:state": "CA", "brand": "USPS", "collection_times": "Mo-Fr 17:00; Sa 12:00", "name": "USPS COLLECTION BOX - PO LOBBY", "note": "ON 12/24 AND 12/31, THIS BOX MAY BE COLLECTED AS EARLY AS 12 NOON.", "ref": "9571300007"}, "type": "Feature"}
{"geometry": {"coordinates": [-120.9550560363, 39.099358995], "type": "Point"}, "id": "pxjeRe08SKyBUEfRaXEW0WMSh-A=", "properties": {"@spider": "usps_collection_boxes", "addr:city": "COLFAX", "addr:country": "US", "addr:full": "40 W CHURCH ST", "addr:postcode": "95713", "addr:state": "CA", "brand": "USPS", "collection_times": "Mo-Fr 17:00; Sa 12:00", "name": "USPS COLLECTION BOX - PO LOBBY", "note": "ON 12/24 AND 12/31, THIS BOX MAY BE COLLECTED AS EARLY AS 12 NOON.", "ref": "9571300008"}, "type": "Feature"}
{"geometry": {"coordinates": [-120.9550560363, 39.099358995], "type": "Point"}, "id": "QJ-qvyyN2yurp-8jaxcbpZnKEyk=", "properties": {"@spider": "usps_collection_boxes", "addr:city": "COLFAX", "addr:country": "US", "addr:full": "40 W CHURCH ST", "addr:postcode": "95713", "addr:state": "CA", "brand": "USPS", "collection_times": "Mo-Fr 17:00", "name": "USPS COLLECTION BOX - PO LOBBY", "note": "ON 12/24 AND 12/31, THIS BOX MAY BE COLLECTED AS EARLY AS 12 NOON.", "ref": "9571300010"}, "type": "Feature"}
{"geometry": {"coordinates": [-120.838481, 39.20655], "type": "Point"}, "id": "HevW7qLSMgWAcUsX4e7Qub6ueKY=", "properties": {"@spider": "usps_collection_boxes", "addr:city": "DUTCH FLAT", "addr:country": "US", "addr:full": "32805 MAIN ST", "addr:postcode": "95714", "addr:state": "CA", "brand": "USPS", "collection_times": "Mo-Fr 12:00; Sa 10:00", "name": "USPS COLLECTION BOX - PO LOBBY", "ref": "9571400001"}, "type": "Feature"}
{"geometry": {"coordinates": [-120.83866, 39.206459], "type": "Point"}, "id": "5nC84t7VyihrQH8owD37Bj8OvmI=", "properties": {"@spider": "usps_collection_boxes", "addr:city": "DUTCH FLAT", "addr:country": "US", "addr:full": "32795 MAIN ST", "addr:postcode": "95714", "addr:state": "CA", "brand": "USPS", "collection_times": "Mo-Fr 16:00; Sa 10:00", "name": "USPS COLLECTION BOX - BLUE BOX", "note": "ON 12/24 AND 12/31, THIS BOX MAY BE COLLECTED AS EARLY AS 12 NOON.", "ref": "9571400002"}, "type": "Feature"}
{"geometry": {"coordinates": [-120.838450811, 39.206677221], "type": "Point"}, "id": "D5xW0NNHXC-9cfadpcmgu_bf2YQ=", "properties": {"@spider": "usps_collection_boxes", "addr:city": "DUTCH FLAT", "addr:country": "US", "addr:full": "32805 MAIN ST", "addr:postcode": "95714", "addr:state": "CA", "brand": "USPS", "collection_times": "Mo-Fr 12:00", "name": "USPS COLLECTION BOX - PO LOBBY", "ref": "9571400003"}, "type": "Feature"}
{"geometry": {"coordinates": [-119.2702268805, 36.3741071704], "type": "Point"}, "id": "PeVYJChAzyar7drUDdataJJ4yhI=", "properties": {"@spider": "usps_collection_boxes", "addr:city": "EMIGRANT GAP", "addr:country": "US", "addr:full": "1 NYACK RD", "addr:postcode": "95715", "addr:state": "CA", "brand": "USPS", "collection_times": "Mo-Fr 15:00; Sa 10:00", "name": "USPS COLLECTION BOX - BLUE BOX", "note": "ON 12/24 AND 12/31, THIS BOX MAY BE COLLECTED AS EARLY AS 12 NOON.", "ref": "9571500000"}, "type": "Feature"}
{"geometry": {"coordinates": [-120.6502880662, 39.3038208348], "type": "Point"}, "id": "SVRCt-C0NG_qAimayPT3Q3RvL2g=", "properties": {"@spider": "usps_collection_boxes", "addr:city": "EMIGRANT GAP", "addr:country": "US", "addr:full": "43440 LAING RD", "addr:postcode": "95715", "addr:state": "CA", "brand": "USPS", "collection_times": "Mo-Fr 15:00; Sa 10:00", "name": "USPS COLLECTION BOX - BLUE BOX", "note": "ON 12/24 AND 12/31, THIS BOX MAY BE COLLECTED AS EARLY AS 12 NOON.", "ref": "9571500001"}, "type": "Feature"}
{"geometry": {"coordinates": [-120.855962, 39.180349], "type": "Point"}, "id": "6EKCBJ0BgUuz4IhTB2Mmq09tDPc=", "properties": {"@spider": "usps_collection_boxes", "addr:city": "GOLD RUN", "addr:country": "US", "addr:full": "31194 GOLD RUN RD", "addr:postcode": "95717", "addr:state": "CA", "brand": "USPS", "collection_times": "Mo-Fr 16:15; Sa 09:15", "name": "USPS COLLECTION BOX - BLUE BOX", "note": "ON 12/24 AND 12/31, THIS BOX MAY BE COLLECTED AS EARLY AS 12 NOON.", "ref": "9571700000"}, "type": "Feature"}
{"geometry": {"coordinates": [-120.855899, 39.180426], "type": "Point"}, "id": "jTRYoTnqEIYuPuAyujQRXqjs6eM=", "properties": {"@spider": "usps_collection_boxes", "addr:city": "GOLD RUN", "addr:country": "US", "addr:full": "31194 GOLD RUN RD", "addr:postcode": "95717", "addr:state": "CA", "brand": "USPS", "collection_times": "Mo-Fr 16:15; Sa 09:15", "name": "USPS COLLECTION BOX - PO LOBBY", "note": "ON 12/24 AND 12/31, THIS BOX MAY BE COLLECTED AS EARLY AS 12 NOON.", "ref": "9571700001"}, "type": "Feature"}
{"geometry": {"coordinates": [-120.855899, 39.180426], "type": "Point"}, "id": "8DjeCFXaT9R84VqtPfSGN_ZNv_w=", "properties": {"@spider": "usps_collection_boxes", "addr:city": "GOLD RUN", "addr:country": "US", "addr:full": "31194 GOLD RUN RD", "addr:postcode": "95717", "addr:state": "CA", "brand": "USPS", "collection_times": "Mo-Fr 16:15; Sa 09:15", "name": "USPS COLLECTION BOX - PO LOBBY", "note": "ON 12/24 AND 12/31, THIS BOX MAY BE COLLECTED AS EARLY AS 12 NOON.", "ref": "9571700002"}, "type": "Feature"}
{"geometry": {"coordinates": [-120.855920111, 39.18032515], "type": "Point"}, "id": "1-fJiX1VJ15_4eNpskajV3fpEu0=", "properties": {"@spider": "usps_collection_boxes", "addr:city": "GOLD RUN", "addr:country": "US", "addr:full": "31194 GOLD RUN RD", "addr:postcode": "95717", "addr:state": "CA", "brand": "USPS", "collection_times": "Mo-Fr 16:15", "name": "USPS COLLECTION BOX - PO LOBBY", "note": "ON 12/24 AND 12/31, THIS BOX MAY BE COLLECTED AS EARLY AS 12 NOON.", "ref": "9571700003"}, "type": "Feature"}
{"geometry": {"coordinates": [-120.2960650252, 38.7743830116], "type": "Point"}, "id": "yUTmdSU9dNM9u_BsVVfG1BLLfjY=", "properties": {"@spider": "usps_collection_boxes", "addr:city": "KYBURZ", "addr:country": "US", "addr:full": "13672 HIGHWAY 50", "addr:postcode": "95720", "addr:state": "CA", "brand": "USPS", "collection_times": "Mo-Fr 13:15; Sa 10:15", "name": "USPS COLLECTION BOX - BLUE BOX", "note": "ON 12/24 AND 12/31, THIS BOX MAY BE COLLECTED AS EARLY AS 12 NOON.", "ref": "9572000000"}, "type": "Feature"}
{"geometry": {"coordinates": [-120.2960650252, 38.7743830116], "type": "Point"}, "id": "iJCPgxLh-OfFb2QSeS20xRtoy6w=", "properties": {"@spider": "usps_collection_boxes", "addr:city": "KYBURZ", "addr:country": "US", "addr:full": "13672 HIGHWAY 50", "addr:postcode": "95720", "addr:state": "CA", "brand": "USPS", "collection_times": "Mo-Fr 13:15; Sa 10:15", "name": "USPS COLLECTION BOX - PO LOBBY", "note": "ON 12/24 AND 12/31, THIS BOX MAY BE COLLECTED AS EARLY AS 12 NOON.", "ref": "9572000001"}, "type": "Feature"}
{"geometry": {"coordinates": [-120.2960650252, 38.7743830116], "type": "Point"}, "id": "ZSKHr69CPSzyu3kj-JE-KBU4U5I=", "properties": {"@spider": "usps_collection_boxes", "addr:city": "KYBURZ", "addr:country": "US", "addr:full": "13672 HIGHWAY 50", "addr:postcode": "95720", "addr:state": "CA", "brand": "USPS", "collection_times": "Mo-Fr 13:15; Sa 10:15", "name": "USPS COLLECTION BOX - PO LOBBY", "note": "ON 12/24 AND 12/31, THIS BOX MAY BE COLLECTED AS EARLY AS 12 NOON.", "ref": "9572000002"}, "type": "Feature"}
{"geometry": {"coordinates": [-121.022439, 38.99863], "type": "Point"}, "id": "qzkU8brGSR2W_yYCw-Ga_bJ0RB8=", "properties": {"@spider": "usps_collection_boxes", "addr:city": "MEADOW VISTA", "addr:country": "US", "addr:full": "16930 PLACER HILLS RD", "addr:postcode": "95722", "addr:state": "CA", "brand": "USPS", "collection_times": "Mo-Fr 17:00; Sa 10:00", "name": "USPS COLLECTION BOX - BLUE BOX", "note": "ON 12/24 AND 12/31, THIS BOX MAY BE COLLECTED AS EARLY AS 12 NOON.", "ref": "9572200000"}, "type": "Feature"}
{"geometry": {"coordinates": [-121.022543, 39.000129], "type": "Point"}, "id": "nw-LLAHjNA4eF31QHgNloDcwvTo=", "properties": {"@spider": "usps_collection_boxes", "addr:city": "MEADOW VISTA", "addr:country": "US", "addr:full": "16981 PLACER HILLS RD", "addr:postcode": "95722", "addr:state": "CA", "brand": "USPS", "collection_times": "Mo-Fr 12:00", "name": "USPS COLLECTION BOX - BLUE BOX", "ref": "9572200001"}, "type": "Feature"}
{"geometry": {"coordinates": [-121.022468, 38.998655], "type": "Point"}, "id": "TrzvAhJiKolP3Lve4lPeLuHJ9wQ=", "properties": {"@spider": "usps_collection_boxes", "addr:city": "MEADOW VISTA", "addr:country": "US", "addr:full": "16930 PLACER HILLS RD", "addr:postcode": "95722", "addr:state": "CA", "brand": "USPS", "collection_times": "Mo-Fr 17:00", "name": "USPS COLLECTION BOX - PO LOBBY", "note": "ON 12/24 AND 12/31, THIS BOX MAY BE COLLECTED AS EARLY AS 12 NOON.", "ref": "9572200002"}, "type": "Feature"}
{"geometry": {"coordinates": [-121.022468, 38.998655], "type": "Point"}, "id": "NP7F6l-jmEet-0Vi2JKAAnWy7fE=", "properties": {"@spider": "usps_collection_boxes", "addr:city": "MEADOW VISTA", "addr:country": "US", "addr:full": "16930 PLACER HILLS RD", "addr:postcode": "95722", "addr:state": "CA", "brand": "USPS", "collection_times": "Mo-Fr 17:00", "name": "USPS COLLECTION BOX - PO LOBBY", "note": "ON 12/24 AND 12/31, THIS BOX MAY BE COLLECTED AS EARLY AS 12 NOON.", "ref": "9572200003"}, "type": "Feature"}
{"geometry": {"coordinates": [-121.022437607, 38.998627135], "type": "Point"}, "id": "HSKQSdiIP_9qTmKDNdWNrN34xwY=", "properties": {"@spider": "usps_collection_boxes", "addr:city": "MEADOW VISTA", "addr:country": "US", "addr:full": "16930 PLACER HILLS RD", "addr:postcode": "95722", "addr:state": "CA", "brand": "USPS", "collection_times": "Mo-Fr 16:00", "name": "USPS COLLECTION BOX - PO LOBBY", "note": "ON 12/24 AND 12/31, THIS BOX MAY BE COLLECTED AS EARLY AS 12 NOON.", "ref": "9572200004"}, "type": "Feature"}
{"geometry": {"coordinates": [-120.5797320141, 38.7618630048], "type": "Point"}, "id": "PbhQn9YMXrDON-CSTgWFxdvQOoE=", "properties": {"@spider": "usps_collection_boxes", "addr:city": "POLLOCK PINES", "addr:country": "US", "addr:full": "6450 PONY EXPRESS TRL", "addr:postcode": "95726", "addr:state": "CA", "brand": "USPS", "collection_times": "Mo-Sa 13:00", "name": "USPS COLLECTION BOX - BLUE BOX", "note": "ON 12/24 AND 12/31, THIS BOX MAY BE COLLECTED AS EARLY AS 12 NOON.", "ref": "9572600000"}, "type": "Feature"}
{"geometry": {"coordinates": [-120.591471701, 38.759150921], "type": "Point"}, "id": "aiCOrXzYxr5ud5t8TrNo3oBPmbQ=", "properties": {"@spider": "usps_collection_boxes", "addr:city": "POLLOCK PINES", "addr:country": "US", "addr:full": "2669 SANDERS DR", "addr:postcode": "95726", "addr:state": "CA", "brand": "USPS", "collection_times": "Mo-Fr 17:00; Sa 13:30", "name": "USPS COLLECTION BOX - BLUE BOX", "note": "ON 12/24 AND 12/31, THIS BOX MAY BE COLLECTED AS EARLY AS 12 NOON.", "ref": "9572600002"}, "type": "Feature"}
{"geometry": {"coordinates": [-120.5914717006, 38.7591509208], "type": "Point"}, "id": "W8LWhGLo2OJUQWzZaYvWn2C04HE=", "properties": {"@spider": "usps_collection_boxes", "addr:city": "POLLOCK PINES", "addr:country": "US", "addr:full": "2669 SANDERS DR", "addr:postcode": "95726", "addr:state": "CA", "brand": "USPS", "collection_times": "Mo-Fr 17:00; Sa 13:30", "name": "USPS COLLECTION BOX - PO LOBBY", "note": "ON 12/24 AND 12/31, THIS BOX MAY BE COLLECTED AS EARLY AS 12 NOON.", "ref": "9572600003"}, "type": "Feature"}
{"geometry": {"coordinates": [-120.591471701, 38.759150921], "type": "Point"}, "id": "dCx3rZIRSnu9AtiSKmqFP4vkWGE=", "properties": {"@spider": "usps_collection_boxes", "addr:city": "POLLOCK PINES", "addr:country": "US", "addr:full": "2669 SANDERS DR", "addr:postcode": "95726", "addr:state": "CA", "brand": "USPS", "collection_times": "Mo-Fr 17:00", "name": "USPS COLLECTION BOX - PO LOBBY", "note": "ON 12/24 AND 12/31, THIS BOX MAY BE COLLECTED AS EARLY AS 12 NOON.", "ref": "9572600006"}, "type": "Feature"}
{"geometry": {"coordinates": [-120.383421, 39.32421], "type": "Point"}, "id": "PX4F_Z-GLuEjOg0u2WzeYZvH3oU=", "properties": {"@spider": "usps_collection_boxes", "addr:city": "SODA SPRINGS", "addr:country": "US", "addr:full": "21719 DONNER PASS RD", "addr:postcode": "95728", "addr:state": "CA", "brand": "USPS", "collection_times": "Mo-Fr 15:00; Sa 10:00", "name": "USPS COLLECTION BOX - PO LOBBY", "note": "ON 12/24 AND 12/31, THIS BOX MAY BE COLLECTED AS EARLY AS 12 NOON.", "ref": "9572800000"}, "type": "Feature"}
{"geometry": {"coordinates": [-120.383477, 39.32426], "type": "Point"}, "id": "vGFAd8hHcJbU1ngliM3Hz8rR4oM=", "properties": {"@spider": "usps_collection_boxes", "addr:city": "SODA SPRINGS", "addr:country": "US", "addr:full": "21719 DONNER PASS RD", "addr:postcode": "95728", "addr:state": "CA", "brand": "USPS", "collection_times": "Mo-Fr 15:00; Sa 10:00", "name": "USPS COLLECTION BOX - PO LOBBY", "note": "ON 12/24 AND 12/31, THIS BOX MAY BE COLLECTED AS EARLY AS 12 NOON.", "ref": "9572800001"}, "type": "Feature"}
{"geometry": {"coordinates": [-120.383583673, 39.324257541], "type": "Point"}, "id": "2PNhHEc_5_75zv2Zvmag64P1d7s=", "properties": {"@spider": "usps_collection_boxes", "addr:city": "SODA SPRINGS", "addr:country": "US", "addr:full": "21719 DONNER PASS RD", "addr:postcode": "95728", "addr:state": "CA", "brand": "USPS", "collection_times": "Mo-Fr 15:00", "name": "USPS COLLECTION BOX - PO LOBBY", "note": "ON 12/24 AND 12/31, THIS BOX MAY BE COLLECTED AS EARLY AS 12 NOON.", "ref": "9572800002"}, "type": "Feature"}
{"geometry": {"coordinates": [-120.1472399757, 38.7961410074], "type": "Point"}, "id": "bw5qVeBH3xSkbqnGCo0ZozEMdak=", "properties": {"@spider": "usps_collection_boxes", "addr:city": "TWIN BRIDGES", "addr:country": "US", "addr:full": "17481 HIGHWAY 50", "addr:postcode": "95735", "addr:state": "CA", "brand": "USPS", "collection_times": "Mo-Fr 12:55; Sa 11:55", "name": "USPS COLLECTION BOX - PO LOBBY", "note": "ON 12/24 AND 12/31, THIS BOX MAY BE COLLECTED AS EARLY AS 12 NOON.", "ref": "9573500000"}, "type": "Feature"}
{"geometry": {"coordinates": [-120.1472399757, 38.7961410074], "type": "Point"}, "id": "4g3d8lUeyojokVkS-KY5zndFqrs=", "properties": {"@spider": "usps_collection_boxes", "addr:city": "TWIN BRIDGES", "addr:country": "US", "addr:full": "17481 HIGHWAY 50", "addr:postcode": "95735", "addr:state": "CA", "brand": "USPS", "collection_times": "Mo-Fr 12:55", "name": "USPS COLLECTION BOX - PO LOBBY", "note": "ON 12/24 AND 12/31, THIS BOX MAY BE COLLECTED AS EARLY AS 12 NOON.", "ref": "9573500002"}, "type": "Feature"}
{"geometry": {"coordinates": [-120.971801, 39.04395], "type": "Point"}, "id": "CdBHDOM9h1WQUR2nW16rsev6-Hc=", "properties": {"@spider": "usps_collection_boxes", "addr:city": "WEIMAR", "addr:country": "US", "addr:full": "21050 CANYON WAY", "addr:postcode": "95736", "addr:state": "CA", "brand": "USPS", "collection_times": "Mo-Fr 16:30; Sa 10:30", "name": "USPS COLLECTION BOX - BLUE BOX", "note": "ON 12/24 AND 12/31, THIS BOX MAY BE COLLECTED AS EARLY AS 12 NOON.", "ref": "9573600000"}, "type": "Feature"}
{"geometry": {"coordinates": [-120.971801, 39.04395], "type": "Point"}, "id": "cRW7mPtN2NvCf7NBP8BfYTGKn5A=", "properties": {"@spider": "usps_collection_boxes", "addr:city": "WEIMAR", "addr:country": "US", "addr:full": "21050 CANYON WAY", "addr:postcode": "95736", "addr:state": "CA", "brand": "USPS", "collection_times": "Mo-Fr 17:00; Sa 10:30", "name": "USPS COLLECTION BOX - PO LOBBY", "note": "ON 12/24 AND 12/31, THIS BOX MAY BE COLLECTED AS EARLY AS 12 NOON.", "ref": "9573600001"}, "type": "Feature"}
{"geometry": {"coordinates": [-120.972654524, 39.044019082], "type": "Point"}, "id": "X0n5qWgGOJaui33QqGU7L3NdqHA=", "properties": {"@spider": "usps_collection_boxes", "addr:city": "WEIMAR", "addr:country": "US", "addr:full": "21050 CANYON WAY", "addr:postcode": "95736", "addr:state": "CA", "brand": "USPS", "collection_times": "Mo-Fr 17:00", "name": "USPS COLLECTION BOX - PO LOBBY", "note": "ON 12/24 AND 12/31, THIS BOX MAY BE COLLECTED AS EARLY AS 12 NOON.", "ref": "9573600002"}, "type": "Feature"}
{"geometry": {"coordinates": [-121.264529, 38.597856], "type": "Point"}, "id": "s3uEb9zINnEBYz5Crh-Tf9akhI0=", "properties": {"@spider": "usps_collection_boxes", "addr:city": "RANCHO CORDOVA", "addr:country": "US", "addr:full": "11492 SUNRISE GOLD CIR", "addr:postcode": "95742", "addr:state": "CA", "brand": "USPS", "collection_times": "Mo-Fr 09:00", "name": "USPS COLLECTION BOX - BLUE BOX", "ref": "9574200001"}, "type": "Feature"}
{"geometry": {"coordinates": [-121.172915, 38.744094], "type": "Point"}, "id": "8RgypmN-HezxvbHCh6dAw3Fj41w=", "properties": {"@spider": "usps_collection_boxes", "addr:city": "GRANITE BAY", "addr:country": "US", "addr:full": "6845 DOUGLAS BLVD", "addr:postcode": "95746", "addr:state": "CA", "brand": "USPS", "collection_times": "Mo-Fr 12:30; Sa 14:00", "name": "USPS COLLECTION BOX - BLUE BOX", "note": "ON 12/24 AND 12/31, THIS BOX MAY BE COLLECTED AS EARLY AS 12 NOON.", "ref": "9574600000"}, "type": "Feature"}
{"geometry": {"coordinates": [-121.170548046, 38.740005614], "type": "Point"}, "id": "eBAZus-LNP-I18GJYU6gvtioF4s=", "properties": {"@spider": "usps_collection_boxes", "addr:city": "GRANITE BAY", "addr:country": "US", "addr:full": "8757 AUBURN FOLSOM RD", "addr:postcode": "95746", "addr:state": "CA", "brand": "USPS", "collection_times": "Mo-Fr 17:00; Sa 14:00", "name": "USPS COLLECTION BOX - PO LOBBY", "note": "ON 12/24 AND 12/31, THIS BOX MAY BE COLLECTED AS EARLY AS 12 NOON.", "ref": "9574600007"}, "type": "Feature"}
{"geometry": {"coordinates": [-121.1705480457, 38.7400056137], "type": "Point"}, "id": "MaNQv8ZeXkZ8Kdo5os2yvW3nFMg=", "properties": {"@spider": "usps_collection_boxes", "addr:city": "GRANITE BAY", "addr:country": "US", "addr:full": "8757 AUBURN FOLSOM RD", "addr:postcode": "95746", "addr:state": "CA", "brand": "USPS", "collection_times": "Mo-Fr 17:00; Sa 14:00", "name": "USPS COLLECTION BOX - BLUE BOX", "note": "ON 12/24 AND 12/31, THIS BOX MAY BE COLLECTED AS EARLY AS 12 NOON.", "ref": "9574600011"}, "type": "Feature"}
{"geometry": {"coordinates": [-121.170545898, 38.739934739], "type": "Point"}, "id": "uwVsD_sff-DvwGxGIYGETtyKrLU=", "properties": {"@spider": "usps_collection_boxes", "addr:city": "GRANITE BAY", "addr:country": "US", "addr:full": "8771 AUBURN FOLSOM RD", "addr:postcode": "95746", "addr:state": "CA", "brand": "USPS", "collection_times": "Mo-Fr 17:00; Sa 13:00", "name": "USPS COLLECTION BOX - PO LOBBY", "note": "ON 12/24 AND 12/31, THIS BOX MAY BE COLLECTED AS EARLY AS 12 NOON.", "ref": "9574600014"}, "type": "Feature"}
{"geometry": {"coordinates": [-121.309635295, 38.7536389228], "type": "Point"}, "id": "cQox4j68-K7K9WkxV2qHoqrzwy4=", "properties": {"@spider": "usps_collection_boxes", "addr:city": "ROSEVILLE", "addr:country": "US", "addr:full": "4008 FOOTHILLS BLVD", "addr:postcode": "95747", "addr:state": "CA", "brand": "USPS", "collection_times": "Mo-Fr 16:30; Sa 15:00", "name": "USPS COLLECTION BOX - BLUE BOX", "note": "ON 12/24 AND 12/31, THIS BOX MAY BE COLLECTED AS EARLY AS 12 NOON.", "ref": "9574700001"}, "type": "Feature"}
{"geometry": {"coordinates": [-121.347379, 38.777998], "type": "Point"}, "id": "JZj9p5uH7lIsXS9Z8W1BSpfisCs=", "properties": {"@spider": "usps_collection_boxes", "addr:city": "ROSEVILLE", "addr:country": "US", "addr:full": "7050 DEL WEBB BLVD", "addr:postcode": "95747", "addr:state": "CA", "brand": "USPS", "collection_times": "Mo-Fr 13:00", "name": "USPS COLLECTION BOX - BLUE BOX", "note": "ON 12/24 AND 12/31, THIS BOX MAY BE COLLECTED AS EARLY AS 12 NOON.", "ref": "9574700003"}, "type": "Feature"}
{"geometry": {"coordinates": [-121.331685, 38.769292], "type": "Point"}, "id": "QKabsCRDZ8uV6GEgHdbph-ws-JM=", "properties": {"@spider": "usps_collection_boxes", "addr:city": "ROSEVILLE", "addr:country": "US", "addr:full": "4021 WOODCREEK OAKS BLVD", "addr:postcode": "95747", "addr:state": "CA", "brand": "USPS", "collection_times": "Mo-Fr 12:30; Sa 15:00", "name": "USPS COLLECTION BOX - BLUE BOX", "note": "ON 12/24 AND 12/31, THIS BOX MAY BE COLLECTED AS EARLY AS 12 NOON.", "ref": "9574700007"}, "type": "Feature"}
{"geometry": {"coordinates": [-121.311424, 38.79695], "type": "Point"}, "id": "cnFslZnSXI35tElR2gI04ioPVIQ=", "properties": {"@spider": "usps_collection_boxes", "addr:city": "ROSEVILLE", "addr:country": "US", "addr:full": "1352 BLUE OAKS BLVD", "addr:postcode": "95747", "addr:state": "CA", "brand": "USPS", "collection_times": "Mo-Fr 13:00; Sa 15:00", "name": "USPS COLLECTION BOX - BLUE BOX", "note": "ON 12/24 AND 12/31, THIS BOX MAY BE COLLECTED AS EARLY AS 12 NOON.", "ref": "9574700012"}, "type": "Feature"}
{"geometry": {"coordinates": [-121.417866, 38.426682], "type": "Point"}, "id": "0m-S0Yb-GrGSmzdMOFihJoXu-T0=", "properties": {"@spider": "usps_collection_boxes", "addr:city": "ELK GROVE", "addr:country": "US", "addr:full": "9105 BRUCEVILLE RD", "addr:postcode": "95758", "addr:state": "CA", "brand": "USPS", "collection_times": "Mo-Fr 17:00; Sa 15:00", "name": "USPS COLLECTION BOX - PO LOBBY", "note": "ON 12/24 AND 12/31, THIS BOX MAY BE COLLECTED AS EARLY AS 12 NOON.", "ref": "9575800012"}, "type": "Feature"}
{"geometry": {"coordinates": [-121.417866, 38.426682], "type": "Point"}, "id": "e-mmydBhrFYcqt0--5zydqhrjNw=", "properties": {"@spider": "usps_collection_boxes", "addr:city": "ELK GROVE", "addr:country": "US", "addr:full": "9105 BRUCEVILLE RD", "addr:postcode": "95758", "addr:state": "CA", "brand": "USPS", "collection_times": "Mo-Fr 17:00; Sa 15:00", "name": "USPS COLLECTION BOX - APC", "note": "ON 12/24 AND 12/31, THIS BOX MAY BE COLLECTED AS EARLY AS 12 NOON.", "ref": "9575800014"}, "type": "Feature"}
{"geometry": {"coordinates": [-121.417867509, 38.426660004], "type": "Point"}, "id": "XmXIzeDJxm1wmKGubiKQW6HYJ8Q=", "properties": {"@spider": "usps_collection_boxes", "addr:city": "ELK GROVE", "addr:country": "US", "addr:full": "9105 BRUCEVILLE RD", "addr:postcode": "95758", "addr:state": "CA", "brand": "USPS", "collection_times": "Mo-Fr 17:00; Sa 15:00", "name": "USPS COLLECTION BOX - PO LOBBY", "note": "ON 12/24 AND 12/31, THIS BOX MAY BE COLLECTED AS EARLY AS 12 NOON.", "ref": "9575800029"}, "type": "Feature"}
{"geometry": {"coordinates": [-121.086206, 38.710271], "type": "Point"}, "id": "FEkQ5d3dq1nVML8vkaTuTXVnLGE=", "properties": {"@spider": "usps_collection_boxes", "addr:city": "EL DORADO HILLS", "addr:country": "US", "addr:full": "2222 FRANCISCO DR", "addr:postcode": "95762", "addr:state": "CA", "brand": "USPS", "collection_times": "Mo-Sa 09:30", "name": "USPS COLLECTION BOX - BLUE BOX", "ref": "9576200002"}, "type": "Feature"}
{"geometry": {"coordinates": [-121.083883, 38.709165], "type": "Point"}, "id": "kgIC0uC6rMdpA3C1chSO4nMcVS4=", "properties": {"@spider": "usps_collection_boxes", "addr:city": "EL DORADO HILLS", "addr:country": "US", "addr:full": "895 EMBARCADERO DR", "addr:postcode": "95762", "addr:state": "CA", "brand": "USPS", "collection_times": "Mo-Sa 09:30", "name": "USPS COLLECTION BOX - BLUE BOX", "ref": "9576200003"}, "type": "Feature"}
{"geometry": {"coordinates": [-121.070182, 38.655947], "type": "Point"}, "id": "uC2Xgjc045AGKKdlwoJ6LNn7XTU=", "properties": {"@spider": "usps_collection_boxes", "addr:city": "EL DORADO HILLS", "addr:country": "US", "addr:full": "3935 PARK DR", "addr:postcode": "95762", "addr:state": "CA", "brand": "USPS", "collection_times": "Mo-Sa 10:00", "name": "USPS COLLECTION BOX - BLUE BOX", "ref": "9576200006"}, "type": "Feature"}
{"geometry": {"coordinates": [-121.066127, 38.648933], "type": "Point"}, "id": "XvBmV3YFJkn-QNOhQuJG8fPdo1c=", "properties": {"@spider": "usps_collection_boxes", "addr:city": "EL DORADO HILLS", "addr:country": "US", "addr:full": "4641 POST ST", "addr:postcode": "95762", "addr:state": "CA", "brand": "USPS", "collection_times": "Mo-Fr 17:00; Sa 15:30", "name": "USPS COLLECTION BOX - EXPRESS", "note": "ON 12/24 AND 12/31, THIS BOX MAY BE COLLECTED AS EARLY AS 12 NOON.", "ref": "9576200009"}, "type": "Feature"}
{"geometry": {"coordinates": [-121.066109, 38.648953], "type": "Point"}, "id": "ztqO0VW_JGuaLEASkBgoauK4ows=", "properties": {"@spider": "usps_collection_boxes", "addr:city": "EL DORADO HILLS", "addr:country": "US", "addr:full": "4641 POST ST", "addr:postcode": "95762", "addr:state": "CA", "brand": "USPS", "collection_times": "Mo-Fr 17:00; Sa 15:30", "name": "USPS COLLECTION BOX - BLUE BOX", "note": "ON 12/24 AND 12/31, THIS BOX MAY BE COLLECTED AS EARLY AS 12 NOON.", "ref": "9576200010"}, "type": "Feature"}
{"geometry": {"coordinates": [-121.066382, 38.648464], "type": "Point"}, "id": "MU-gfzXSgrO96T-ahp5taWcvSnU=", "properties": {"@spider": "usps_collection_boxes", "addr:city": "EL DORADO HILLS", "addr:country": "US", "addr:full": "4641 POST ST", "addr:postcode": "95762", "addr:state": "CA", "brand": "USPS", "collection_times": "Mo-Fr 17:00; Sa 15:30", "name": "USPS COLLECTION BOX - PO LOBBY", "note": "ON 12/24 AND 12/31, THIS BOX MAY BE COLLECTED AS EARLY AS 12 NOON.", "ref": "9576200011"}, "type": "Feature"}
{"geometry": {"coordinates": [-121.066341, 38.648443], "type": "Point"}, "id": "xiKIkDATUjtc_tTIo-nifFU7bM4=", "properties": {"@spider": "usps_collection_boxes", "addr:city": "EL DORADO HILLS", "addr:country": "US", "addr:full": "4641 POST ST", "addr:postcode": "95762", "addr:state": "CA", "brand": "USPS", "collection_times": "Mo-Fr 17:00; Sa 15:30", "name": "USPS COLLECTION BOX - PO LOBBY", "note": "ON 12/24 AND 12/31, THIS BOX MAY BE COLLECTED AS EARLY AS 12 NOON.", "ref": "9576200014"}, "type": "Feature"}
{"geometry": {"coordinates": [-121.066411, 38.648444], "type": "Point"}, "id": "lVtMA42r-bhyaOqiU_KsXvIS3lg=", "properties": {"@spider": "usps_collection_boxes", "addr:city": "EL DORADO HILLS", "addr:country": "US", "addr:full": "4641 POST ST", "addr:postcode": "95762", "addr:state": "CA", "brand": "USPS", "collection_times": "Mo-Fr 17:00; Sa 15:30", "name": "USPS COLLECTION BOX - PO LOBBY", "note": "ON 12/24 AND 12/31, THIS BOX MAY BE COLLECTED AS EARLY AS 12 NOON.", "ref": "9576200015"}, "type": "Feature"}
{"geometry": {"coordinates": [-121.066443, 38.648485], "type": "Point"}, "id": "r-8J4JTtjtwpRBqklHYivo3CBlA=", "properties": {"@spider": "usps_collection_boxes", "addr:city": "EL DORADO HILLS", "addr:country": "US", "addr:full": "4641 POST ST", "addr:postcode": "95762", "addr:state": "CA", "brand": "USPS", "collection_times": "Mo-Fr 17:00; Sa 15:30", "name": "USPS COLLECTION BOX - PO LOBBY", "note": "ON 12/24 AND 12/31, THIS BOX MAY BE COLLECTED AS EARLY AS 12 NOON.", "ref": "9576200016"}, "type": "Feature"}
{"geometry": {"coordinates": [-121.066097, 38.648953], "type": "Point"}, "id": "u1uymyhvCEm5VuPENE8KtlvoN70=", "properties": {"@spider": "usps_collection_boxes", "addr:city": "EL DORADO HILLS", "addr:country": "US", "addr:full": "4641 POST ST", "addr:postcode": "95762", "addr:state": "CA", "brand": "USPS", "collection_times": "Mo-Fr 17:00; Sa 15:30", "name": "USPS COLLECTION BOX - BLUE BOX", "note": "ON 12/24 AND 12/31, THIS BOX MAY BE COLLECTED AS EARLY AS 12 NOON.", "ref": "9576200017"}, "type": "Feature"}
{"geometry": {"coordinates": [-121.0811260204, 38.6832915576], "type": "Point"}, "id": "UpmuyZb9fckNOoU4aQcqBdaNcnk=", "properties": {"@spider": "usps_collection_boxes", "addr:city": "EL DORADO HILLS", "addr:country": "US", "addr:full": "900 GOVERNOR DR", "addr:postcode": "95762", "addr:state": "CA", "brand": "USPS", "collection_times": "Mo-Sa 09:30", "name": "USPS COLLECTION BOX - BLUE BOX", "ref": "9576200018"}, "type": "Feature"}
{"geometry": {"coordinates": [-121.066419, 38.648489], "type": "Point"}, "id": "XuogVRiG5vRF-cmqrj95uGpf2C4=", "properties": {"@spider": "usps_collection_boxes", "addr:city": "EL DORADO HILLS", "addr:country": "US", "addr:full": "4641 POST ST", "addr:postcode": "95762", "addr:state": "CA", "brand": "USPS", "collection_times": "Mo-Fr 17:00; Sa 15:30", "name": "USPS COLLECTION BOX - APC", "note": "ON 12/24 AND 12/31, THIS BOX MAY BE COLLECTED AS EARLY AS 12 NOON.", "ref": "9576200020"}, "type": "Feature"}
{"geometry": {"coordinates": [-121.067045833, 38.648761766], "type": "Point"}, "id": "JOx1pKdsb9KgsBecolKoFoF-jn0=", "properties": {"@spider": "usps_collection_boxes", "addr:city": "EL DORADO HILLS", "addr:country": "US", "addr:full": "4641 POST ST", "addr:postcode": "95762", "addr:state": "CA", "brand": "USPS", "collection_times": "Mo-Fr 17:00", "name": "USPS COLLECTION BOX - PO LOBBY", "note": "ON 12/24 AND 12/31, THIS BOX MAY BE COLLECTED AS EARLY AS 12 NOON.", "ref": "9576200030"}, "type": "Feature"}
{"geometry": {"coordinates": [-121.762219, 38.662012], "type": "Point"}, "id": "h0grlMNJ0oEATkfCFTwkuHbXFHg=", "properties": {"@spider": "usps_collection_boxes", "addr:city": "WOODLAND", "addr:country": "US", "addr:full": "1264 E GIBSON RD", "addr:postcode": "95776", "addr:state": "CA", "brand": "USPS", "collection_times": "Mo-Fr 16:00; Sa 15:00", "name": "USPS COLLECTION BOX - BLUE BOX", "note": "ON 12/24 AND 12/31, THIS BOX MAY BE COLLECTED AS EARLY AS 12 NOON.", "ref": "9577600005"}, "type": "Feature"}
{"geometry": {"coordinates": [-121.572484, 38.57098], "type": "Point"}, "id": "Vgp1mAX87_9MtDT_6ggGd-ru5-8=", "properties": {"@spider": "usps_collection_boxes", "addr:city": "WEST SACRAMENTO", "addr:country": "US", "addr:full": "3775 INDUSTRIAL BLVD", "addr:postcode": "95798", "addr:state": "CA", "brand": "USPS", "collection_times": "Mo-Sa 20:00", "name": "USPS COLLECTION BOX - BLUE BOX", "note": "ON 12/24 AND 12/31, THIS BOX MAY BE COLLECTED AS EARLY AS 12 NOON.", "ref": "9579800001"}, "type": "Feature"}
{"geometry": {"coordinates": [-121.5733968846, 38.5706720351], "type": "Point"}, "id": "ru_7Tost7oFN6jGVWtJw14ssrlU=", "properties": {"@spider": "usps_collection_boxes", "addr:city": "WEST SACRAMENTO", "addr:country": "US", "addr:full": "3775 INDUSTRIAL BLVD", "addr:postcode": "95798", "addr:state": "CA", "brand": "USPS", "collection_times": "Mo-Sa 20:00", "name": "USPS COLLECTION BOX - BLUE BOX", "note": "ON 12/24 AND 12/31, THIS BOX MAY BE COLLECTED AS EARLY AS 12 NOON.", "ref": "9579800002"}, "type": "Feature"}
{"geometry": {"coordinates": [-121.572484, 38.57098], "type": "Point"}, "id": "mhvKYlDjIcJnFMNfbtE63CZuiLA=", "properties": {"@spider": "usps_collection_boxes", "addr:city": "WEST SACRAMENTO", "addr:country": "US", "addr:full": "3775 INDUSTRIAL BLVD", "addr:postcode": "95798", "addr:state": "CA", "brand": "USPS", "collection_times": "Mo-Fr 20:00; Sa 16:30", "name": "USPS COLLECTION BOX - EXPRESS", "note": "ON 12/24 AND 12/31, THIS BOX MAY BE COLLECTED AS EARLY AS 12 NOON.", "ref": "9579800003"}, "type": "Feature"}
{"geometry": {"coordinates": [-121.572484, 38.57098], "type": "Point"}, "id": "_TyGLcYD_HHwz_T1yI9W-wf0gMs=", "properties": {"@spider": "usps_collection_boxes", "addr:city": "WEST SACRAMENTO", "addr:country": "US", "addr:full": "3775 INDUSTRIAL BLVD", "addr:postcode": "95798", "addr:state": "CA", "brand": "USPS", "collection_times": "Mo-Fr 17:00", "name": "USPS COLLECTION BOX - PO LOBBY", "note": "ON 12/24 AND 12/31, THIS BOX MAY BE COLLECTED AS EARLY AS 12 NOON.", "ref": "9579800004"}, "type": "Feature"}
{"geometry": {"coordinates": [-121.572484, 38.57098], "type": "Point"}, "id": "vZmQvQK21cGvXLVl-CVKN1X8Z2s=", "properties": {"@spider": "usps_collection_boxes", "addr:city": "WEST SACRAMENTO", "addr:country": "US", "addr:full": "3775 INDUSTRIAL BLVD", "addr:postcode": "95798", "addr:state": "CA", "brand": "USPS", "collection_times": "Mo-Fr 17:00", "name": "USPS COLLECTION BOX - PO LOBBY", "note": "ON 12/24 AND 12/31, THIS BOX MAY BE COLLECTED AS EARLY AS 12 NOON.", "ref": "9579800005"}, "type": "Feature"}
{"geometry": {"coordinates": [-121.572484, 38.57098], "type": "Point"}, "id": "AP4sJ8LlWXyGrEVHnwKACEUH-OI=", "properties": {"@spider": "usps_collection_boxes", "addr:city": "WEST SACRAMENTO", "addr:country": "US", "addr:full": "3775 INDUSTRIAL BLVD", "addr:postcode": "95798", "addr:state": "CA", "brand": "USPS", "collection_times": "Mo-Fr 17:00", "name": "USPS COLLECTION BOX - PO LOBBY", "note": "ON 12/24 AND 12/31, THIS BOX MAY BE COLLECTED AS EARLY AS 12 NOON.", "ref": "9579800006"}, "type": "Feature"}
