{"geometry": {"coordinates": [-122.380415572, 40.610587667], "type": "Point"}, "id": "p5FJ12qv_c6pmyLlMen8JhDg_mQ=", "properties": {"@spider": "usps_collection_boxes", "addr:city": "REDDING", "addr:country": "US", "addr:full": "201 LAKE BLVD", "addr:postcode": "96003", "addr:state": "CA", "brand": "USPS", "collection_times": "Mo-Sa 10:00", "name": "USPS COLLECTION BOX - BLUE BOX", "ref": "9600300007"}, "type": "Feature"}
{"geometry": {"coordinates": [-122.372495815, 40.625134911], "type": "Point"}, "id": "JK2m_MQGl6WHT_UXBahrRPSJebU=", "properties": {"@spider": "usps_collection_boxes", "addr:city": "REDDING", "addr:country": "US", "addr:full": "1191 PRESTIGE WAY", "addr:postcode": "96003", "addr:state": "CA", "brand": "USPS", "collection_times": "Mo-Sa 10:00", "name": "USPS COLLECTION BOX - BLUE BOX", "ref": "9600300009"}, "type": "Feature"}
{"geometry": {"coordinates": [-122.372495815, 40.625134911], "type": "Point"}, "id": "2VdUgXYCo4u95eZ875TlnVOw8sc=", "properties": {"@spider": "usps_collection_boxes", "addr:city": "REDDING", "addr:country": "US", "addr:full": "1191 PRESTIGE WAY", "addr:postcode": "96003", "addr:state": "CA", "brand": "USPS", "collection_times": "Mo-Sa 10:00", "name": "USPS COLLECTION BOX - BLUE BOX", "ref": "9600300010"}, "type": "Feature"}
{"geometry": {"coordinates": [-122.365359614, 40.621797258], "type": "Point"}, "id": "PCcl3YfakJU_w0s7ZCIZ4CopGM8=", "properties": {"@spider": "usps_collection_boxes", "addr:city": "REDDING", "addr:country": "US", "addr:full": "5455 MOUNTAIN VIEW DR", "addr:postcode": "96003", "addr:state": "CA", "brand": "USPS", "collection_times": "Mo-Sa 10:00", "name": "USPS COLLECTION BOX - BLUE BOX", "ref": "9600300019"}, "type": "Feature"}
{"geometry": {"coordinates": [-122.3231481375, 40.7544227751], "type": "Point"}, "id": "95-lr81BtQrKHjQ0cVikk9shNc0=", "properties": {"@spider": "usps_collection_boxes", "addr:city": "REDDING", "addr:country": "US", "addr:full": "10300 BRIDGE BAY RD", "addr:postcode": "96003", "addr:state": "CA", "brand": "USPS", "collection_times": "Mo-Sa 09:30", "name": "USPS COLLECTION BOX - BLUE BOX", "ref": "9600300022"}, "type": "Feature"}
{"geometry": {"coordinates": [-122.32421995, 40.6296285099], "type": "Point"}, "id": "77KwjA1MvaCj59U9tmUSCSXxQak=", "properties": {"@spider": "usps_collection_boxes", "addr:city": "REDDING", "addr:country": "US", "addr:full": "11555 OLD OREGON TRL", "addr:postcode": "96003", "addr:state": "CA", "brand": "USPS", "collection_times": "Mo-Sa 09:00", "name": "USPS COLLECTION BOX - BLUE BOX", "ref": "9600300025"}, "type": "Feature"}
{"geometry": {"coordinates": [-122.3761148409, 40.6021144327], "type": "Point"}, "id": "5pwh5hj1wbVFCqwLVl_DwlEqlz8=", "properties": {"@spider": "usps_collection_boxes", "addr:city": "REDDING", "addr:country": "US", "addr:full": "240 RIDGETOP DR", "addr:postcode": "96003", "addr:state": "CA", "brand": "USPS", "collection_times": "Mo-Sa 10:00", "name": "USPS COLLECTION BOX - BLUE BOX", "ref": "9600300036"}, "type": "Feature"}
{"geometry": {"coordinates": [-122.238858032, 40.63680168], "type": "Point"}, "id": "0gZpxbqDEV_jZD0Afon1tCg2ddw=", "properties": {"@spider": "usps_collection_boxes", "addr:city": "BELLA VISTA", "addr:country": "US", "addr:full": "22515 OLD ALTURAS RD", "addr:postcode": "96008", "addr:state": "CA", "brand": "USPS", "collection_times": "Mo-Fr 16:00; Sa 09:00", "name": "USPS COLLECTION BOX - BLUE BOX", "note": "ON 12/24 AND 12/31, THIS BOX MAY BE COLLECTED AS EARLY AS 12 NOON.", "ref": "9600800000"}, "type": "Feature"}
{"geometry": {"coordinates": [-122.238858032, 40.63680168], "type": "Point"}, "id": "oKyZRXS8yRbu-ZRJnDV5XFGkD50=", "properties": {"@spider": "usps_collection_boxes", "addr:city": "BELLA VISTA", "addr:country": "US", "addr:full": "22515 OLD ALTURAS RD", "addr:postcode": "96008", "addr:state": "CA", "brand": "USPS", "collection_times": "Mo-Fr 16:00; Sa 09:00", "name": "USPS COLLECTION BOX - PO LOBBY", "note": "ON 12/24 AND 12/31, THIS BOX MAY BE COLLECTED AS EARLY AS 12 NOON.", "ref": "9600800002"}, "type": "Feature"}
{"geometry": {"coordinates": [-122.238858032, 40.63680168], "type": "Point"}, "id": "pLDIWzxioMnx97oLAQUt__W4o30=", "properties": {"@spider": "usps_collection_boxes", "addr:city": "BELLA VISTA", "addr:country": "US", "addr:full": "22515 OLD ALTURAS RD", "addr:postcode": "96008", "addr:state": "CA", "brand": "USPS", "collection_times": "Mo-Fr 16:00", "name": "USPS COLLECTION BOX - PO LOBBY", "note": "ON 12/24 AND 12/31, THIS BOX MAY BE COLLECTED AS EARLY AS 12 NOON.", "ref": "9600800003"}, "type": "Feature"}
{"geometry": {"coordinates": [-121.917745, 41.021797], "type": "Point"}, "id": "PPRH7kIsjfpkaM1j9L4lqwiqabs=", "properties": {"@spider": "usps_collection_boxes", "addr:city": "BIG BEND", "addr:country": "US", "addr:full": "30487 HOT SPRINGS RD", "addr:postcode": "96011", "addr:state": "CA", "brand": "USPS", "collection_times": "Mo-Sa 11:40", "name": "USPS COLLECTION BOX - PO LOBBY", "ref": "9601100000"}, "type": "Feature"}
{"geometry": {"coordinates": [-121.917791703, 41.021777299], "type": "Point"}, "id": "XnqTj6hDTyGHoFIsHiCgNEDj_ec=", "properties": {"@spider": "usps_collection_boxes", "addr:city": "BIG BEND", "addr:country": "US", "addr:full": "30487 HOT SPRINGS RD", "addr:postcode": "96011", "addr:state": "CA", "brand": "USPS", "collection_times": "Mo-Fr 12:30; Sa 12:00", "name": "USPS COLLECTION BOX - PO LOBBY", "note": "ON 12/24 AND 12/31, THIS BOX MAY BE COLLECTED AS EARLY AS 12 NOON.", "ref": "9601100001"}, "type": "Feature"}
{"geometry": {"coordinates": [-121.658878, 40.884322], "type": "Point"}, "id": "JLqa98Qf331JtnjqFvf9-hXU-L4=", "properties": {"@spider": "usps_collection_boxes", "addr:city": "BURNEY", "addr:country": "US", "addr:full": "37264 HIGHWAY 299 E", "addr:postcode": "96013", "addr:state": "CA", "brand": "USPS", "collection_times": "Mo-Sa 15:00", "name": "USPS COLLECTION BOX - BLUE BOX", "note": "ON 12/24 AND 12/31, THIS BOX MAY BE COLLECTED AS EARLY AS 12 NOON.", "ref": "9601300000"}, "type": "Feature"}
{"geometry": {"coordinates": [-121.652527, 40.88949], "type": "Point"}, "id": "uFKEX1RKNPHXiNMiRvIi2fEEEwU=", "properties": {"@spider": "usps_collection_boxes", "addr:city": "BURNEY", "addr:country": "US", "addr:full": "20655 COMMERCE WAY", "addr:postcode": "96013", "addr:state": "CA", "brand": "USPS", "collection_times": "Mo-Fr 15:30; Sa 15:00", "name": "USPS COLLECTION BOX - BLUE BOX", "note": "ON 12/24 AND 12/31, THIS BOX MAY BE COLLECTED AS EARLY AS 12 NOON.", "ref": "9601300002"}, "type": "Feature"}
{"geometry": {"coordinates": [-121.652577, 40.889532], "type": "Point"}, "id": "qtyR0KvHusIyErYa7PyWz9G8pBQ=", "properties": {"@spider": "usps_collection_boxes", "addr:city": "BURNEY", "addr:country": "US", "addr:full": "20655 COMMERCE WAY", "addr:postcode": "96013", "addr:state": "CA", "brand": "USPS", "collection_times": "Mo-Fr 15:30; Sa 15:00", "name": "USPS COLLECTION BOX - BLUE BOX", "note": "ON 12/24 AND 12/31, THIS BOX MAY BE COLLECTED AS EARLY AS 12 NOON.", "ref": "9601300003"}, "type": "Feature"}
{"geometry": {"coordinates": [-121.652577, 40.889532], "type": "Point"}, "id": "T_zdjUYrvx66yDHoe--LCkLr4D0=", "properties": {"@spider": "usps_collection_boxes", "addr:city": "BURNEY", "addr:country": "US", "addr:full": "20655 COMMERCE WAY", "addr:postcode": "96013", "addr:state": "CA", "brand": "USPS", "collection_times": "Mo-Fr 15:30; Sa 15:00", "name": "USPS COLLECTION BOX - PO LOBBY", "note": "ON 12/24 AND 12/31, THIS BOX MAY BE COLLECTED AS EARLY AS 12 NOON.", "ref": "9601300006"}, "type": "Feature"}
{"geometry": {"coordinates": [-121.652577, 40.889532], "type": "Point"}, "id": "L66VZ9zRpZAHAlxA2LeVMOKq7G0=", "properties": {"@spider": "usps_collection_boxes", "addr:city": "BURNEY", "addr:country": "US", "addr:full": "20655 COMMERCE WAY", "addr:postcode": "96013", "addr:state": "CA", "brand": "USPS", "collection_times": "Mo-Fr 15:30; Sa 15:00", "name": "USPS COLLECTION BOX - PO LOBBY", "note": "ON 12/24 AND 12/31, THIS BOX MAY BE COLLECTED AS EARLY AS 12 NOON.", "ref": "9601300007"}, "type": "Feature"}
{"geometry": {"coordinates": [-121.6525261508, 40.8893398324], "type": "Point"}, "id": "8K4KCTvNtJZ4ix1EDCQME-4mbrc=", "properties": {"@spider": "usps_collection_boxes", "addr:city": "BURNEY", "addr:country": "US", "addr:full": "20655 COMMERCE WAY", "addr:postcode": "96013", "addr:state": "CA", "brand": "USPS", "collection_times": "Mo-Fr 15:30", "name": "USPS COLLECTION BOX - PO LOBBY", "note": "ON 12/24 AND 12/31, THIS BOX MAY BE COLLECTED AS EARLY AS 12 NOON.", "ref": "9601300008"}, "type": "Feature"}
{"geometry": {"coordinates": [-122.801592, 41.309517], "type": "Point"}, "id": "0KMhuNY_Xe1jc1LZUXcj4U7HwFI=", "properties": {"@spider": "usps_collection_boxes", "addr:city": "CALLAHAN", "addr:country": "US", "addr:full": "12436 S STATE HIGHWAY 3", "addr:postcode": "96014", "addr:state": "CA", "brand": "USPS", "collection_times": "Mo-Fr 14:15; Sa 11:30", "name": "USPS COLLECTION BOX - BLUE BOX", "note": "ON 12/24 AND 12/31, THIS BOX MAY BE COLLECTED AS EARLY AS 12 NOON.", "ref": "9601400000"}, "type": "Feature"}
{"geometry": {"coordinates": [-122.801592, 41.309517], "type": "Point"}, "id": "puXeehmVOWi7mPpavdJX4FddlfE=", "properties": {"@spider": "usps_collection_boxes", "addr:city": "CALLAHAN", "addr:country": "US", "addr:full": "12436 S STATE HIGHWAY 3", "addr:postcode": "96014", "addr:state": "CA", "brand": "USPS", "collection_times": "Mo-Fr 14:15; Sa 11:30", "name": "USPS COLLECTION BOX - PO LOBBY", "note": "ON 12/24 AND 12/31, THIS BOX MAY BE COLLECTED AS EARLY AS 12 NOON.", "ref": "9601400001"}, "type": "Feature"}
{"geometry": {"coordinates": [-120.8705233287, 41.4436195835], "type": "Point"}, "id": "_Zsr6r8vPX5wKwzGfLkm3I6ZhOQ=", "properties": {"@spider": "usps_collection_boxes", "addr:city": "CANBY", "addr:country": "US", "addr:full": "22489 STATE HIGHWAY 299 E STE 0", "addr:postcode": "96015", "addr:state": "CA", "brand": "USPS", "collection_times": "Mo-Fr 12:30; Sa 10:30", "name": "USPS COLLECTION BOX - BLUE BOX", "note": "ON 12/24 AND 12/31, THIS BOX MAY BE COLLECTED AS EARLY AS 12 NOON.", "ref": "9601500000"}, "type": "Feature"}
{"geometry": {"coordinates": [-120.878055, 41.438367], "type": "Point"}, "id": "36jmTHzOQVEF7aloVeJmbyPyizc=", "properties": {"@spider": "usps_collection_boxes", "addr:city": "CANBY", "addr:country": "US", "addr:full": "22489 STATE HIGHWAY 299 E STE 0", "addr:postcode": "96015", "addr:state": "CA", "brand": "USPS", "collection_times": "Mo-Fr 12:45; Sa 12:15", "name": "USPS COLLECTION BOX - PO LOBBY", "note": "ON 12/24 AND 12/31, THIS BOX MAY BE COLLECTED AS EARLY AS 12 NOON.", "ref": "9601500001"}, "type": "Feature"}
{"geometry": {"coordinates": [-120.878055, 41.438367], "type": "Point"}, "id": "OlI2tPaJskezDOZu5zWrGLMgHUQ=", "properties": {"@spider": "usps_collection_boxes", "addr:city": "CANBY", "addr:country": "US", "addr:full": "22489 STATE HIGHWAY 299 E STE 0", "addr:postcode": "96015", "addr:state": "CA", "brand": "USPS", "collection_times": "Mo-Fr 12:45; Sa 12:15", "name": "USPS COLLECTION BOX - PO LOBBY", "note": "ON 12/24 AND 12/31, THIS BOX MAY BE COLLECTED AS EARLY AS 12 NOON.", "ref": "9601500002"}, "type": "Feature"}
{"geometry": {"coordinates": [-120.878048535, 41.438314917], "type": "Point"}, "id": "AC3_OzH8emsxHtIjvYczyk905wc=", "properties": {"@spider": "usps_collection_boxes", "addr:city": "CANBY", "addr:country": "US", "addr:full": "22489 STATE HIGHWAY 299 E STE 0", "addr:postcode": "96015", "addr:state": "CA", "brand": "USPS", "collection_times": "Mo-Fr 12:45; Sa 12:15", "name": "USPS COLLECTION BOX - PO LOBBY", "note": "ON 12/24 AND 12/31, THIS BOX MAY BE COLLECTED AS EARLY AS 12 NOON.", "ref": "9601500003"}, "type": "Feature"}
{"geometry": {"coordinates": [-122.319770286, 41.148098157], "type": "Point"}, "id": "jBS_I_0Hu7JsEIdY2B6UunJ3UA8=", "properties": {"@spider": "usps_collection_boxes", "addr:city": "CASTELLA", "addr:country": "US", "addr:full": "20115 CASTLE CREEK RD", "addr:postcode": "96017", "addr:state": "CA", "brand": "USPS", "collection_times": "Mo-Fr 14:55; Sa 10:00", "name": "USPS COLLECTION BOX - BLUE BOX", "note": "ON 12/24 AND 12/31, THIS BOX MAY BE COLLECTED AS EARLY AS 12 NOON.", "ref": "9601700000"}, "type": "Feature"}
{"geometry": {"coordinates": [-122.319770286, 41.148098157], "type": "Point"}, "id": "8tEvSA_gYnX9z3OESgteeoSGJN4=", "properties": {"@spider": "usps_collection_boxes", "addr:city": "CASTELLA", "addr:country": "US", "addr:full": "20115 CASTLE CREEK RD", "addr:postcode": "96017", "addr:state": "CA", "brand": "USPS", "collection_times": "Mo-Fr 15:00; Sa 10:00", "name": "USPS COLLECTION BOX - PO LOBBY", "note": "ON 12/24 AND 12/31, THIS BOX MAY BE COLLECTED AS EARLY AS 12 NOON.", "ref": "9601700001"}, "type": "Feature"}
{"geometry": {"coordinates": [-122.319770286, 41.148098157], "type": "Point"}, "id": "uim6cAYWX5tgnO1Jo9Uc-59KcLU=", "properties": {"@spider": "usps_collection_boxes", "addr:city": "CASTELLA", "addr:country": "US", "addr:full": "20115 CASTLE CREEK RD", "addr:postcode": "96017", "addr:state": "CA", "brand": "USPS", "collection_times": "Mo-Fr 15:00; Sa 10:00", "name": "USPS COLLECTION BOX - PO LOBBY", "note": "ON 12/24 AND 12/31, THIS BOX MAY BE COLLECTED AS EARLY AS 12 NOON.", "ref": "9601700002"}, "type": "Feature"}
{"geometry": {"coordinates": [-122.3664840838, 40.6810505043], "type": "Point"}, "id": "45KMIgDPMn4j_b5tPbHLYpXBEgc=", "properties": {"@spider": "usps_collection_boxes", "addr:city": "SHASTA LAKE", "addr:country": "US", "addr:full": "4425 FRONT ST", "addr:postcode": "96019", "addr:state": "CA", "brand": "USPS", "collection_times": "Mo-Fr 17:00; Sa 13:00", "name": "USPS COLLECTION BOX - BLUE BOX", "note": "ON 12/24 AND 12/31, THIS BOX MAY BE COLLECTED AS EARLY AS 12 NOON.", "ref": "9601900000"}, "type": "Feature"}
{"geometry": {"coordinates": [-122.366484084, 40.681050504], "type": "Point"}, "id": "lNv__iFhrrBiBjOtnqEsJsbod24=", "properties": {"@spider": "usps_collection_boxes", "addr:city": "SHASTA LAKE", "addr:country": "US", "addr:full": "4425 FRONT ST", "addr:postcode": "96019", "addr:state": "CA", "brand": "USPS", "collection_times": "Mo-Fr 17:00; Sa 13:00", "name": "USPS COLLECTION BOX - PO LOBBY", "note": "ON 12/24 AND 12/31, THIS BOX MAY BE COLLECTED AS EARLY AS 12 NOON.", "ref": "9601900001"}, "type": "Feature"}
{"geometry": {"coordinates": [-122.366484084, 40.681050504], "type": "Point"}, "id": "D11xmYakaLw67MVHjlBI6Z6xfgo=", "properties": {"@spider": "usps_collection_boxes", "addr:city": "SHASTA LAKE", "addr:country": "US", "addr:full": "4425 FRONT ST", "addr:postcode": "96019", "addr:state": "CA", "brand": "USPS", "collection_times": "Mo-Fr 17:00", "name": "USPS COLLECTION BOX - PO LOBBY", "note": "ON 12/24 AND 12/31, THIS BOX MAY BE COLLECTED AS EARLY AS 12 NOON.", "ref": "9601900002"}, "type": "Feature"}
{"geometry": {"coordinates": [-121.91982, 41.964255], "type": "Point"}, "id": "zxOBaqjIZmkMLlVpzZ5aHiK3S30=", "properties": {"@spider": "usps_collection_boxes", "addr:city": "DORRIS", "addr:country": "US", "addr:full": "214 W 3RD ST", "addr:postcode": "96023", "addr:state": "CA", "brand": "USPS", "collection_times": "Mo-Fr 14:20; Sa 11:00", "name": "USPS COLLECTION BOX - BLUE BOX", "note": "ON 12/24 AND 12/31, THIS BOX MAY BE COLLECTED AS EARLY AS 12 NOON.", "ref": "9602300000"}, "type": "Feature"}
{"geometry": {"coordinates": [-121.91982, 41.964255], "type": "Point"}, "id": "ITPO8Fe_Kwp118uu6ImJZVlcqiI=", "properties": {"@spider": "usps_collection_boxes", "addr:city": "DORRIS", "addr:country": "US", "addr:full": "214 W 3RD ST", "addr:postcode": "96023", "addr:state": "CA", "brand": "USPS", "collection_times": "Mo-Fr 14:20; Sa 11:00", "name": "USPS COLLECTION BOX - PO LOBBY", "note": "ON 12/24 AND 12/31, THIS BOX MAY BE COLLECTED AS EARLY AS 12 NOON.", "ref": "9602300001"}, "type": "Feature"}
{"geometry": {"coordinates": [-121.91982, 41.964255], "type": "Point"}, "id": "s4ViJLHkTBIaHT8FNiOcHBoHw7w=", "properties": {"@spider": "usps_collection_boxes", "addr:city": "DORRIS", "addr:country": "US", "addr:full": "214 W 3RD ST", "addr:postcode": "96023", "addr:state": "CA", "brand": "USPS", "collection_times": "Mo-Fr 14:20; Sa 11:00", "name": "USPS COLLECTION BOX - PO LOBBY", "note": "ON 12/24 AND 12/31, THIS BOX MAY BE COLLECTED AS EARLY AS 12 NOON.", "ref": "9602300002"}, "type": "Feature"}
{"geometry": {"coordinates": [-121.919794924, 41.964303134], "type": "Point"}, "id": "o8A67BUAtC4qsHCcMdPCYywy52I=", "properties": {"@spider": "usps_collection_boxes", "addr:city": "DORRIS", "addr:country": "US", "addr:full": "214 W 3RD ST", "addr:postcode": "96023", "addr:state": "CA", "brand": "USPS", "collection_times": "Mo-Fr 14:20", "name": "USPS COLLECTION BOX - PO LOBBY", "note": "ON 12/24 AND 12/31, THIS BOX MAY BE COLLECTED AS EARLY AS 12 NOON.", "ref": "9602300003"}, "type": "Feature"}
{"geometry": {"coordinates": [-122.272736, 41.209891], "type": "Point"}, "id": "z45CRKhqz1BmxWCNCVijdjVBLr4=", "properties": {"@spider": "usps_collection_boxes", "addr:city": "DUNSMUIR", "addr:country": "US", "addr:full": "5915 DUNSMUIR AVE", "addr:postcode": "96025", "addr:state": "CA", "brand": "USPS", "collection_times": "Mo-Fr 12:00; Sa 09:30", "name": "USPS COLLECTION BOX - BLUE BOX", "ref": "9602500002"}, "type": "Feature"}
{"geometry": {"coordinates": [-122.271639, 41.21327], "type": "Point"}, "id": "mCyeyW-avAqo4YRXy9dl_NoWwAU=", "properties": {"@spider": "usps_collection_boxes", "addr:city": "DUNSMUIR", "addr:country": "US", "addr:full": "5530 DUNSMUIR AVE", "addr:postcode": "96025", "addr:state": "CA", "brand": "USPS", "collection_times": "Mo-Fr 16:50; Sa 11:00", "name": "USPS COLLECTION BOX - BLUE BOX", "note": "ON 12/24 AND 12/31, THIS BOX MAY BE COLLECTED AS EARLY AS 12 NOON.", "ref": "9602500008"}, "type": "Feature"}
{"geometry": {"coordinates": [-122.271537, 41.213346], "type": "Point"}, "id": "PgWc-Wd9jRTD7Vtc0pSWYzY-YIo=", "properties": {"@spider": "usps_collection_boxes", "addr:city": "DUNSMUIR", "addr:country": "US", "addr:full": "5530 DUNSMUIR AVE", "addr:postcode": "96025", "addr:state": "CA", "brand": "USPS", "collection_times": "Mo-Fr 16:50; Sa 11:00", "name": "USPS COLLECTION BOX - PO LOBBY", "note": "ON 12/24 AND 12/31, THIS BOX MAY BE COLLECTED AS EARLY AS 12 NOON.", "ref": "9602500009"}, "type": "Feature"}
{"geometry": {"coordinates": [-122.271879206, 41.213666588], "type": "Point"}, "id": "BUex-6wp_LHFC6Sfe45YcLihUPY=", "properties": {"@spider": "usps_collection_boxes", "addr:city": "DUNSMUIR", "addr:country": "US", "addr:full": "5530 DUNSMUIR AVE", "addr:postcode": "96025", "addr:state": "CA", "brand": "USPS", "collection_times": "Mo-Fr 17:00", "name": "USPS COLLECTION BOX - PO LOBBY", "note": "ON 12/24 AND 12/31, THIS BOX MAY BE COLLECTED AS EARLY AS 12 NOON.", "ref": "9602500011"}, "type": "Feature"}
{"geometry": {"coordinates": [-122.894717, 41.456446], "type": "Point"}, "id": "N7_NIRXMQYRkIZcHQWpnfiQanXk=", "properties": {"@spider": "usps_collection_boxes", "addr:city": "ETNA", "addr:country": "US", "addr:full": "119 DIGGLES ST", "addr:postcode": "96027", "addr:state": "CA", "brand": "USPS", "collection_times": "Mo-Fr 13:30; Sa 10:00", "name": "USPS COLLECTION BOX - BLUE BOX", "note": "ON 12/24 AND 12/31, THIS BOX MAY BE COLLECTED AS EARLY AS 12 NOON.", "ref": "9602700000"}, "type": "Feature"}
{"geometry": {"coordinates": [-122.894717, 41.456446], "type": "Point"}, "id": "EcG79sNakfBEfaBWJARy87wHsbQ=", "properties": {"@spider": "usps_collection_boxes", "addr:city": "ETNA", "addr:country": "US", "addr:full": "119 DIGGLES ST", "addr:postcode": "96027", "addr:state": "CA", "brand": "USPS", "collection_times": "Mo-Fr 13:30; Sa 10:00", "name": "USPS COLLECTION BOX - PO LOBBY", "note": "ON 12/24 AND 12/31, THIS BOX MAY BE COLLECTED AS EARLY AS 12 NOON.", "ref": "9602700001"}, "type": "Feature"}
{"geometry": {"coordinates": [-122.894718578, 41.456439452], "type": "Point"}, "id": "BI3vbmNGUvYddloOgOAzOJele8A=", "properties": {"@spider": "usps_collection_boxes", "addr:city": "ETNA", "addr:country": "US", "addr:full": "119 DIGGLES ST", "addr:postcode": "96027", "addr:state": "CA", "brand": "USPS", "collection_times": "Mo-Fr 13:30", "name": "USPS COLLECTION BOX - PO LOBBY", "note": "ON 12/24 AND 12/31, THIS BOX MAY BE COLLECTED AS EARLY AS 12 NOON.", "ref": "9602700002"}, "type": "Feature"}
{"geometry": {"coordinates": [-123.321701, 41.25875], "type": "Point"}, "id": "RQAd9YhpowQusMk-4KIAwHzpKC8=", "properties": {"@spider": "usps_collection_boxes", "addr:city": "FORKS OF SALMON", "addr:country": "US", "addr:full": "39039 SAWYERS BAR RD", "addr:postcode": "96031", "addr:state": "CA", "brand": "USPS", "collection_times": "Mo-Sa 12:00", "name": "USPS COLLECTION BOX - PO LOBBY", "ref": "9603100000"}, "type": "Feature"}
{"geometry": {"coordinates": [-123.321749026, 41.258763631], "type": "Point"}, "id": "oL2bM7LygSHy5PpgeRTPlFo-uWw=", "properties": {"@spider": "usps_collection_boxes", "addr:city": "FORKS OF SALMON", "addr:country": "US", "addr:full": "39039 SAWYERS BAR RD", "addr:postcode": "96031", "addr:state": "CA", "brand": "USPS", "collection_times": "Mo-Sa 12:00", "name": "USPS COLLECTION BOX - PO LOBBY", "ref": "9603100001"}, "type": "Feature"}
{"geometry": {"coordinates": [-122.841584, 41.607425], "type": "Point"}, "id": "Wek-MBgX4CeBpRAgxyYCUYkxDK0=", "properties": {"@spider": "usps_collection_boxes", "addr:city": "FORT JONES", "addr:country": "US", "addr:full": "11954 MAIN ST", "addr:postcode": "96032", "addr:state": "CA", "brand": "USPS", "collection_times": "Mo-Fr 14:15; Sa 11:00", "name": "USPS COLLECTION BOX - BLUE BOX", "note": "ON 12/24 AND 12/31, THIS BOX MAY BE COLLECTED AS EARLY AS 12 NOON.", "ref": "9603200000"}, "type": "Feature"}
{"geometry": {"coordinates": [-122.841342, 41.607813], "type": "Point"}, "id": "XmbMO2htms0_M35u-8VLt04VfHU=", "properties": {"@spider": "usps_collection_boxes", "addr:city": "FORT JONES", "addr:country": "US", "addr:full": "11954 MAIN ST", "addr:postcode": "96032", "addr:state": "CA", "brand": "USPS", "collection_times": "Mo-Fr 14:15; Sa 11:00", "name": "USPS COLLECTION BOX - PO LOBBY", "note": "ON 12/24 AND 12/31, THIS BOX MAY BE COLLECTED AS EARLY AS 12 NOON.", "ref": "9603200001"}, "type": "Feature"}
{"geometry": {"coordinates": [-122.8413425216, 41.607810106], "type": "Point"}, "id": "_ApIv5NakSuRFyNoRF6qK-zoV7U=", "properties": {"@spider": "usps_collection_boxes", "addr:city": "FORT JONES", "addr:country": "US", "addr:full": "11954 MAIN ST", "addr:postcode": "96032", "addr:state": "CA", "brand": "USPS", "collection_times": "Mo-Fr 17:00", "name": "USPS COLLECTION BOX - PO LOBBY", "note": "ON 12/24 AND 12/31, THIS BOX MAY BE COLLECTED AS EARLY AS 12 NOON.", "ref": "9603200003"}, "type": "Feature"}
{"geometry": {"coordinates": [-122.638460845, 40.701085166], "type": "Point"}, "id": "Y_xuQmrnlVjPtGMX2ZUhAm-XANE=", "properties": {"@spider": "usps_collection_boxes", "addr:city": "FRENCH GULCH", "addr:country": "US", "addr:full": "14200 MAIN ST", "addr:postcode": "96033", "addr:state": "CA", "brand": "USPS", "collection_times": "Mo-Fr 12:15; Sa 09:50", "name": "USPS COLLECTION BOX - PO LOBBY", "note": "ON 12/24 AND 12/31, THIS BOX MAY BE COLLECTED AS EARLY AS 12 NOON.", "ref": "9603300001"}, "type": "Feature"}
{"geometry": {"coordinates": [-122.638460845, 40.701085166], "type": "Point"}, "id": "mP-JaVInXCggI1u2LRzOQdxqmE8=", "properties": {"@spider": "usps_collection_boxes", "addr:city": "FRENCH GULCH", "addr:country": "US", "addr:full": "14200 MAIN ST", "addr:postcode": "96033", "addr:state": "CA", "brand": "USPS", "collection_times": "Mo-Fr 12:15; Sa 09:50", "name": "USPS COLLECTION BOX - PO LOBBY", "note": "ON 12/24 AND 12/31, THIS BOX MAY BE COLLECTED AS EARLY AS 12 NOON.", "ref": "9603300002"}, "type": "Feature"}
{"geometry": {"coordinates": [-122.638460845, 40.701085166], "type": "Point"}, "id": "HKTNU2PtDn_4KdYuPsh8YDJYcZU=", "properties": {"@spider": "usps_collection_boxes", "addr:city": "FRENCH GULCH", "addr:country": "US", "addr:full": "14200 MAIN ST", "addr:postcode": "96033", "addr:state": "CA", "brand": "USPS", "collection_times": "Mo-Fr 12:15; Sa 09:50", "name": "USPS COLLECTION BOX - PO LOBBY", "note": "ON 12/24 AND 12/31, THIS BOX MAY BE COLLECTED AS EARLY AS 12 NOON.", "ref": "9603300003"}, "type": "Feature"}
{"geometry": {"coordinates": [-122.638460845, 40.701085166], "type": "Point"}, "id": "ylQx-1GmcPv54TEbNEIEu4b5Mbk=", "properties": {"@spider": "usps_collection_boxes", "addr:city": "FRENCH GULCH", "addr:country": "US", "addr:full": "14200 MAIN ST", "addr:postcode": "96033", "addr:state": "CA", "brand": "USPS", "collection_times": "Mo-Fr 12:30; Sa 10:30", "name": "USPS COLLECTION BOX - PO LOBBY", "note": "ON 12/24 AND 12/31, THIS BOX MAY BE COLLECTED AS EARLY AS 12 NOON.", "ref": "9603300004"}, "type": "Feature"}
{"geometry": {"coordinates": [-122.520092, 41.521782], "type": "Point"}, "id": "D8AvT0Gt0xmp8NI1xtiprw0CkNo=", "properties": {"@spider": "usps_collection_boxes", "addr:city": "GAZELLE", "addr:country": "US", "addr:full": "18418 OLD HIGHWAY 99", "addr:postcode": "96034", "addr:state": "CA", "brand": "USPS", "collection_times": "Mo-Fr 13:50; Sa 09:00", "name": "USPS COLLECTION BOX - BLUE BOX", "note": "ON 12/24 AND 12/31, THIS BOX MAY BE COLLECTED AS EARLY AS 12 NOON.", "ref": "9603400000"}, "type": "Feature"}
{"geometry": {"coordinates": [-122.520352, 41.522145], "type": "Point"}, "id": "VlSuinZkv1isBxSeosoRWe22C4A=", "properties": {"@spider": "usps_collection_boxes", "addr:city": "GAZELLE", "addr:country": "US", "addr:full": "18418 OLD HIGHWAY 99", "addr:postcode": "96034", "addr:state": "CA", "brand": "USPS", "collection_times": "Mo-Fr 12:15; Sa 09:00", "name": "USPS COLLECTION BOX - PO LOBBY", "note": "ON 12/24 AND 12/31, THIS BOX MAY BE COLLECTED AS EARLY AS 12 NOON.", "ref": "9603400001"}, "type": "Feature"}
{"geometry": {"coordinates": [-122.520352, 41.522145], "type": "Point"}, "id": "y_hCtQNJXFyfgu2nFGugx0HsoLE=", "properties": {"@spider": "usps_collection_boxes", "addr:city": "GAZELLE", "addr:country": "US", "addr:full": "18418 OLD HIGHWAY 99", "addr:postcode": "96034", "addr:state": "CA", "brand": "USPS", "collection_times": "Mo-Fr 12:45; Sa 09:00", "name": "USPS COLLECTION BOX - PO LOBBY", "note": "ON 12/24 AND 12/31, THIS BOX MAY BE COLLECTED AS EARLY AS 12 NOON.", "ref": "9603400002"}, "type": "Feature"}
{"geometry": {"coordinates": [-122.520237252, 41.521818687], "type": "Point"}, "id": "7j7p-UCYf6bn3xplIJB-G8-fV0A=", "properties": {"@spider": "usps_collection_boxes", "addr:city": "GAZELLE", "addr:country": "US", "addr:full": "18418 OLD HIGHWAY 99", "addr:postcode": "96034", "addr:state": "CA", "brand": "USPS", "collection_times": "Mo-Fr 13:00", "name": "USPS COLLECTION BOX - PO LOBBY", "note": "ON 12/24 AND 12/31, THIS BOX MAY BE COLLECTED AS EARLY AS 12 NOON.", "ref": "9603400003"}, "type": "Feature"}
{"geometry": {"coordinates": [-122.906668, 41.547992], "type": "Point"}, "id": "Wpdml813UlciH9ADZ2B9h2Cj6Sk=", "properties": {"@spider": "usps_collection_boxes", "addr:city": "GREENVIEW", "addr:country": "US", "addr:full": "6745 MAIN ST", "addr:postcode": "96037", "addr:state": "CA", "brand": "USPS", "collection_times": "Mo-Fr 13:45; Sa 10:30", "name": "USPS COLLECTION BOX - BLUE BOX", "note": "ON 12/24 AND 12/31, THIS BOX MAY BE COLLECTED AS EARLY AS 12 NOON.", "ref": "9603700000"}, "type": "Feature"}
{"geometry": {"coordinates": [-122.906638, 41.547901], "type": "Point"}, "id": "fUWAI-v39GKA3xRJQlLlB7UnETk=", "properties": {"@spider": "usps_collection_boxes", "addr:city": "GREENVIEW", "addr:country": "US", "addr:full": "6745 MAIN ST", "addr:postcode": "96037", "addr:state": "CA", "brand": "USPS", "collection_times": "Mo-Fr 13:45; Sa 10:30", "name": "USPS COLLECTION BOX - PO LOBBY", "note": "ON 12/24 AND 12/31, THIS BOX MAY BE COLLECTED AS EARLY AS 12 NOON.", "ref": "9603700001"}, "type": "Feature"}
{"geometry": {"coordinates": [-122.906657575, 41.54830223], "type": "Point"}, "id": "DgNfu3LtIy9efaASZA0TC2KqGUI=", "properties": {"@spider": "usps_collection_boxes", "addr:city": "GREENVIEW", "addr:country": "US", "addr:full": "6745 MAIN ST", "addr:postcode": "96037", "addr:state": "CA", "brand": "USPS", "collection_times": "Mo-Fr 15:00", "name": "USPS COLLECTION BOX - PO LOBBY", "note": "ON 12/24 AND 12/31, THIS BOX MAY BE COLLECTED AS EARLY AS 12 NOON.", "ref": "9603700002"}, "type": "Feature"}
{"geometry": {"coordinates": [-122.52455, 41.645608], "type": "Point"}, "id": "tRLy7k4vlwQUoHP1YECeN9VoXcw=", "properties": {"@spider": "usps_collection_boxes", "addr:city": "GRENADA", "addr:country": "US", "addr:full": "515 SHASTA BLVD", "addr:postcode": "96038", "addr:state": "CA", "brand": "USPS", "collection_times": "Mo-Fr 14:50; Sa 11:00", "name": "USPS COLLECTION BOX - BLUE BOX", "note": "ON 12/24 AND 12/31, THIS BOX MAY BE COLLECTED AS EARLY AS 12 NOON.", "ref": "9603800000"}, "type": "Feature"}
{"geometry": {"coordinates": [-122.52455, 41.645608], "type": "Point"}, "id": "drbaBrohf3IQHrqCFm_CUL15Zv0=", "properties": {"@spider": "usps_collection_boxes", "addr:city": "GRENADA", "addr:country": "US", "addr:full": "515 SHASTA BLVD", "addr:postcode": "96038", "addr:state": "CA", "brand": "USPS", "collection_times": "Mo-Fr 14:50; Sa 11:00", "name": "USPS COLLECTION BOX - PO LOBBY", "note": "ON 12/24 AND 12/31, THIS BOX MAY BE COLLECTED AS EARLY AS 12 NOON.", "ref": "9603800002"}, "type": "Feature"}
{"geometry": {"coordinates": [-122.524550581, 41.645601512], "type": "Point"}, "id": "h0qWJ6nozTvCEgvRV_J-Vw-kSP0=", "properties": {"@spider": "usps_collection_boxes", "addr:city": "GRENADA", "addr:country": "US", "addr:full": "515 SHASTA BLVD", "addr:postcode": "96038", "addr:state": "CA", "brand": "USPS", "collection_times": "Mo-Fr 14:50", "name": "USPS COLLECTION BOX - PO LOBBY", "note": "ON 12/24 AND 12/31, THIS BOX MAY BE COLLECTED AS EARLY AS 12 NOON.", "ref": "9603800003"}, "type": "Feature"}
{"geometry": {"coordinates": [-122.557504, 41.907737], "type": "Point"}, "id": "gJ2MSMaa2DBo2knofqaUKvVkjHw=", "properties": {"@spider": "usps_collection_boxes", "addr:city": "HORNBROOK", "addr:country": "US", "addr:full": "15431 HORNBROOK RD", "addr:postcode": "96044", "addr:state": "CA", "brand": "USPS", "collection_times": "Mo-Fr 15:15; Sa 11:15", "name": "USPS COLLECTION BOX - BLUE BOX", "note": "ON 12/24 AND 12/31, THIS BOX MAY BE COLLECTED AS EARLY AS 12 NOON.", "ref": "9604400000"}, "type": "Feature"}
{"geometry": {"coordinates": [-122.557518, 41.907807], "type": "Point"}, "id": "6OTfrHfTtACKQN-tPF32K_kJaKQ=", "properties": {"@spider": "usps_collection_boxes", "addr:city": "HORNBROOK", "addr:country": "US", "addr:full": "15431 HORNBROOK RD", "addr:postcode": "96044", "addr:state": "CA", "brand": "USPS", "collection_times": "Mo-Fr 15:15; Sa 10:30", "name": "USPS COLLECTION BOX - PO LOBBY", "note": "ON 12/24 AND 12/31, THIS BOX MAY BE COLLECTED AS EARLY AS 12 NOON.", "ref": "9604400001"}, "type": "Feature"}
{"geometry": {"coordinates": [-122.557518, 41.907807], "type": "Point"}, "id": "SzNddn7K8znpw2fIke-JOklE2s8=", "properties": {"@spider": "usps_collection_boxes", "addr:city": "HORNBROOK", "addr:country": "US", "addr:full": "15431 HORNBROOK RD", "addr:postcode": "96044", "addr:state": "CA", "brand": "USPS", "collection_times": "Mo-Fr 15:15; Sa 10:30", "name": "USPS COLLECTION BOX - PO LOBBY", "note": "ON 12/24 AND 12/31, THIS BOX MAY BE COLLECTED AS EARLY AS 12 NOON.", "ref": "9604400002"}, "type": "Feature"}
{"geometry": {"coordinates": [-122.563073, 41.900698], "type": "Point"}, "id": "AXT-_6o12u7alleBS3ErMJiDXfs=", "properties": {"@spider": "usps_collection_boxes", "addr:city": "HORNBROOK", "addr:country": "US", "addr:full": "114 COPCO RD", "addr:postcode": "96044", "addr:state": "CA", "brand": "USPS", "collection_times": "Mo-Fr 14:00; Sa 13:00", "name": "USPS COLLECTION BOX - BLUE BOX", "note": "ON 12/24 AND 12/31, THIS BOX MAY BE COLLECTED AS EARLY AS 12 NOON.", "ref": "9604400003"}, "type": "Feature"}
{"geometry": {"coordinates": [-122.557748629, 41.908033825], "type": "Point"}, "id": "IKMxqiHwG6Z0ZXyv-3l6sa9ZESE=", "properties": {"@spider": "usps_collection_boxes", "addr:city": "HORNBROOK", "addr:country": "US", "addr:full": "15431 HORNBROOK RD", "addr:postcode": "96044", "addr:state": "CA", "brand": "USPS", "collection_times": "Mo-Fr 15:15", "name": "USPS COLLECTION BOX - PO LOBBY", "note": "ON 12/24 AND 12/31, THIS BOX MAY BE COLLECTED AS EARLY AS 12 NOON.", "ref": "9604400004"}, "type": "Feature"}
{"geometry": {"coordinates": [-122.850804, 41.835585], "type": "Point"}, "id": "s3W2Tt67NgPZvsx6Q6wjxkyopDo=", "properties": {"@spider": "usps_collection_boxes", "addr:city": "KLAMATH RIVER", "addr:country": "US", "addr:full": "20523 STATE HIGHWAY 96", "addr:postcode": "96050", "addr:state": "CA", "brand": "USPS", "collection_times": "Mo-Fr 13:40; Sa 09:15", "name": "USPS COLLECTION BOX - BLUE BOX", "note": "ON 12/24 AND 12/31, THIS BOX MAY BE COLLECTED AS EARLY AS 12 NOON.", "ref": "9605000000"}, "type": "Feature"}
{"geometry": {"coordinates": [-122.850804, 41.835585], "type": "Point"}, "id": "xsD_QumxWaYzU-o_F5daR-Xjmy8=", "properties": {"@spider": "usps_collection_boxes", "addr:city": "KLAMATH RIVER", "addr:country": "US", "addr:full": "20523 STATE HIGHWAY 96", "addr:postcode": "96050", "addr:state": "CA", "brand": "USPS", "collection_times": "Mo-Fr 13:15; Sa 09:15", "name": "USPS COLLECTION BOX - PO LOBBY", "note": "ON 12/24 AND 12/31, THIS BOX MAY BE COLLECTED AS EARLY AS 12 NOON.", "ref": "9605000002"}, "type": "Feature"}
{"geometry": {"coordinates": [-122.3823000158, 40.8913114185], "type": "Point"}, "id": "rhQ68RdrG0VL3-SlSWi7hhc3Tns=", "properties": {"@spider": "usps_collection_boxes", "addr:city": "LAKEHEAD", "addr:country": "US", "addr:full": "20856 ANTLERS RD", "addr:postcode": "96051", "addr:state": "CA", "brand": "USPS", "collection_times": "Mo-Fr 15:15; Sa 08:45", "name": "USPS COLLECTION BOX - PO LOBBY", "note": "ON 12/24 AND 12/31, THIS BOX MAY BE COLLECTED AS EARLY AS 12 NOON.", "ref": "9605100001"}, "type": "Feature"}
{"geometry": {"coordinates": [-122.3823000158, 40.8913114185], "type": "Point"}, "id": "ZmoYMHrpXAEkE8jmadK1DB1rsHU=", "properties": {"@spider": "usps_collection_boxes", "addr:city": "LAKEHEAD", "addr:country": "US", "addr:full": "20856 ANTLERS RD", "addr:postcode": "96051", "addr:state": "CA", "brand": "USPS", "collection_times": "Mo-Fr 15:15; Sa 08:45", "name": "USPS COLLECTION BOX - PO LOBBY", "note": "ON 12/24 AND 12/31, THIS BOX MAY BE COLLECTED AS EARLY AS 12 NOON.", "ref": "9605100002"}, "type": "Feature"}
{"geometry": {"coordinates": [-122.3823000158, 40.8913114185], "type": "Point"}, "id": "u0rv2LwBZY3bHQ6xxFbhwtVaM-E=", "properties": {"@spider": "usps_collection_boxes", "addr:city": "LAKEHEAD", "addr:country": "US", "addr:full": "20856 ANTLERS RD", "addr:postcode": "96051", "addr:state": "CA", "brand": "USPS", "collection_times": "Mo-Fr 15:15", "name": "USPS COLLECTION BOX - PO LOBBY", "note": "ON 12/24 AND 12/31, THIS BOX MAY BE COLLECTED AS EARLY AS 12 NOON.", "ref": "9605100003"}, "type": "Feature"}
{"geometry": {"coordinates": [-122.800397672, 40.702894313], "type": "Point"}, "id": "QZ55Crinjf6uSoBqnET5A9sToc8=", "properties": {"@spider": "usps_collection_boxes", "addr:city": "LEWISTON", "addr:country": "US", "addr:full": "4391A TRINITY DAM BLVD", "addr:postcode": "96052", "addr:state": "CA", "brand": "USPS", "collection_times": "Mo-Fr 14:00; Sa 10:00", "name": "USPS COLLECTION BOX - BLUE BOX", "note": "ON 12/24 AND 12/31, THIS BOX MAY BE COLLECTED AS EARLY AS 12 NOON.", "ref": "9605200000"}, "type": "Feature"}
{"geometry": {"coordinates": [-122.8003976722, 40.7028943133], "type": "Point"}, "id": "9aSxlgOdt_oQv5sTTYbPLaYfrJA=", "properties": {"@spider": "usps_collection_boxes", "addr:city": "LEWISTON", "addr:country": "US", "addr:full": "4391A TRINITY DAM BLVD", "addr:postcode": "96052", "addr:state": "CA", "brand": "USPS", "collection_times": "Mo-Fr 14:00; Sa 10:00", "name": "USPS COLLECTION BOX - PO LOBBY", "note": "ON 12/24 AND 12/31, THIS BOX MAY BE COLLECTED AS EARLY AS 12 NOON.", "ref": "9605200003"}, "type": "Feature"}
{"geometry": {"coordinates": [-122.800397672, 40.702894313], "type": "Point"}, "id": "_hdjz8EjZ9bTigV82q3RLh_bgi4=", "properties": {"@spider": "usps_collection_boxes", "addr:city": "LEWISTON", "addr:country": "US", "addr:full": "4391A TRINITY DAM BLVD", "addr:postcode": "96052", "addr:state": "CA", "brand": "USPS", "collection_times": "Mo-Fr 14:00", "name": "USPS COLLECTION BOX - PO LOBBY", "note": "ON 12/24 AND 12/31, THIS BOX MAY BE COLLECTED AS EARLY AS 12 NOON.", "ref": "9605200004"}, "type": "Feature"}
{"geometry": {"coordinates": [-122.139105242, 41.254011765], "type": "Point"}, "id": "bjwN2SF0YhXDKblf8UOESt53BPE=", "properties": {"@spider": "usps_collection_boxes", "addr:city": "MCCLOUD", "addr:country": "US", "addr:full": "324 MAIN ST", "addr:postcode": "96057", "addr:state": "CA", "brand": "USPS", "collection_times": "Mo-Fr 15:30; Sa 11:00", "name": "USPS COLLECTION BOX - BLUE BOX", "note": "ON 12/24 AND 12/31, THIS BOX MAY BE COLLECTED AS EARLY AS 12 NOON.", "ref": "9605700000"}, "type": "Feature"}
{"geometry": {"coordinates": [-122.1391052418, 41.2540117646], "type": "Point"}, "id": "JSAJ7cGzrTHmfvtyeevhE4Alvg8=", "properties": {"@spider": "usps_collection_boxes", "addr:city": "MCCLOUD", "addr:country": "US", "addr:full": "324 MAIN ST", "addr:postcode": "96057", "addr:state": "CA", "brand": "USPS", "collection_times": "Mo-Fr 15:30; Sa 11:30", "name": "USPS COLLECTION BOX - PO LOBBY", "note": "ON 12/24 AND 12/31, THIS BOX MAY BE COLLECTED AS EARLY AS 12 NOON.", "ref": "9605700001"}, "type": "Feature"}
{"geometry": {"coordinates": [-122.139105242, 41.254011765], "type": "Point"}, "id": "D9nWrwthXQ-2GiMzvFmejV8XIkU=", "properties": {"@spider": "usps_collection_boxes", "addr:city": "MCCLOUD", "addr:country": "US", "addr:full": "324 MAIN ST", "addr:postcode": "96057", "addr:state": "CA", "brand": "USPS", "collection_times": "Mo-Fr 15:30; Sa 11:30", "name": "USPS COLLECTION BOX - PO LOBBY", "note": "ON 12/24 AND 12/31, THIS BOX MAY BE COLLECTED AS EARLY AS 12 NOON.", "ref": "9605700002"}, "type": "Feature"}
{"geometry": {"coordinates": [-122.1391052418, 41.2540117646], "type": "Point"}, "id": "YFf-NzFw38yxVkoJT55r_wbQKM0=", "properties": {"@spider": "usps_collection_boxes", "addr:city": "MCCLOUD", "addr:country": "US", "addr:full": "324 MAIN ST", "addr:postcode": "96057", "addr:state": "CA", "brand": "USPS", "collection_times": "Mo-Fr 15:30", "name": "USPS COLLECTION BOX - PO LOBBY", "note": "ON 12/24 AND 12/31, THIS BOX MAY BE COLLECTED AS EARLY AS 12 NOON.", "ref": "9605700003"}, "type": "Feature"}
{"geometry": {"coordinates": [-122.00711, 41.827338], "type": "Point"}, "id": "Bd3pF7xmJexjaqW9xjHCtKMfyqA=", "properties": {"@spider": "usps_collection_boxes", "addr:city": "MACDOEL", "addr:country": "US", "addr:full": "41439 HIGHWAY 97", "addr:postcode": "96058", "addr:state": "CA", "brand": "USPS", "collection_times": "Mo-Fr 15:00; Sa 11:00", "name": "USPS COLLECTION BOX - BLUE BOX", "note": "ON 12/24 AND 12/31, THIS BOX MAY BE COLLECTED AS EARLY AS 12 NOON.", "ref": "9605800000"}, "type": "Feature"}
{"geometry": {"coordinates": [-122.006775, 41.827451], "type": "Point"}, "id": "Giwn49iS1pYEU-6I3A9w0X63Tm0=", "properties": {"@spider": "usps_collection_boxes", "addr:city": "MACDOEL", "addr:country": "US", "addr:full": "41439 HIGHWAY 97", "addr:postcode": "96058", "addr:state": "CA", "brand": "USPS", "collection_times": "Mo-Fr 12:45; Sa 11:00", "name": "USPS COLLECTION BOX - PO LOBBY", "note": "ON 12/24 AND 12/31, THIS BOX MAY BE COLLECTED AS EARLY AS 12 NOON.", "ref": "9605800001"}, "type": "Feature"}
{"geometry": {"coordinates": [-122.006775, 41.827451], "type": "Point"}, "id": "svviNX_mQYPdzPp8FOfCj2WoqxU=", "properties": {"@spider": "usps_collection_boxes", "addr:city": "MACDOEL", "addr:country": "US", "addr:full": "41439 HIGHWAY 97", "addr:postcode": "96058", "addr:state": "CA", "brand": "USPS", "collection_times": "Mo-Fr 12:45; Sa 11:00", "name": "USPS COLLECTION BOX - PO LOBBY", "note": "ON 12/24 AND 12/31, THIS BOX MAY BE COLLECTED AS EARLY AS 12 NOON.", "ref": "9605800002"}, "type": "Feature"}
{"geometry": {"coordinates": [-122.006778618, 41.827445485], "type": "Point"}, "id": "ZErs00t_F9Z8Gticts7BrWd2UMw=", "properties": {"@spider": "usps_collection_boxes", "addr:city": "MACDOEL", "addr:country": "US", "addr:full": "41439 HIGHWAY 97", "addr:postcode": "96058", "addr:state": "CA", "brand": "USPS", "collection_times": "Mo-Fr 13:00; Sa 11:00", "name": "USPS COLLECTION BOX - PO LOBBY", "note": "ON 12/24 AND 12/31, THIS BOX MAY BE COLLECTED AS EARLY AS 12 NOON.", "ref": "9605800005"}, "type": "Feature"}
{"geometry": {"coordinates": [-122.527755, 41.727966], "type": "Point"}, "id": "qqJ_38qSFxrSCUuB4OXAUtE_5bw=", "properties": {"@spider": "usps_collection_boxes", "addr:city": "MONTAGUE", "addr:country": "US", "addr:full": "115 S 11TH ST", "addr:postcode": "96064", "addr:state": "CA", "brand": "USPS", "collection_times": "Mo-Fr 15:15; Sa 11:00", "name": "USPS COLLECTION BOX - BLUE BOX", "note": "ON 12/24 AND 12/31, THIS BOX MAY BE COLLECTED AS EARLY AS 12 NOON.", "ref": "9606400000"}, "type": "Feature"}
{"geometry": {"coordinates": [-122.527746, 41.728035], "type": "Point"}, "id": "k-TL9woXX_ARWNc_awsgY5ymO0s=", "properties": {"@spider": "usps_collection_boxes", "addr:city": "MONTAGUE", "addr:country": "US", "addr:full": "115 S 11TH ST", "addr:postcode": "96064", "addr:state": "CA", "brand": "USPS", "collection_times": "Mo-Fr 15:15; Sa 11:00", "name": "USPS COLLECTION BOX - PO LOBBY", "note": "ON 12/24 AND 12/31, THIS BOX MAY BE COLLECTED AS EARLY AS 12 NOON.", "ref": "9606400003"}, "type": "Feature"}
{"geometry": {"coordinates": [-122.407905, 41.623633], "type": "Point"}, "id": "HNLAq9SU6ZvVAPJrwe93fjBZcg8=", "properties": {"@spider": "usps_collection_boxes", "addr:city": "MONTAGUE", "addr:country": "US", "addr:full": "7126 HIGHWAY A12", "addr:postcode": "96064", "addr:state": "CA", "brand": "USPS", "collection_times": "Mo-Sa 11:30", "name": "USPS COLLECTION BOX - BLUE BOX", "ref": "9606400005"}, "type": "Feature"}
{"geometry": {"coordinates": [-122.52772765, 41.727948109], "type": "Point"}, "id": "rLO9x0wxyE6Xh7zjUb0kMfAY1j0=", "properties": {"@spider": "usps_collection_boxes", "addr:city": "MONTAGUE", "addr:country": "US", "addr:full": "115 S 11TH ST", "addr:postcode": "96064", "addr:state": "CA", "brand": "USPS", "collection_times": "Mo-Fr 15:15", "name": "USPS COLLECTION BOX - PO LOBBY", "note": "ON 12/24 AND 12/31, THIS BOX MAY BE COLLECTED AS EARLY AS 12 NOON.", "ref": "9606400006"}, "type": "Feature"}
{"geometry": {"coordinates": [-121.939958, 40.808072], "type": "Point"}, "id": "nEqrv4G1ERGi0xy8xulbZmFWVsw=", "properties": {"@spider": "usps_collection_boxes", "addr:city": "MONTGOMERY CREEK", "addr:country": "US", "addr:full": "30346 HWY 299", "addr:postcode": "96065", "addr:state": "CA", "brand": "USPS", "collection_times": "Mo-Fr 15:30; Sa 08:30", "name": "USPS COLLECTION BOX - BLUE BOX", "note": "ON 12/24 AND 12/31, THIS BOX MAY BE COLLECTED AS EARLY AS 12 NOON.", "ref": "9606500000"}, "type": "Feature"}
{"geometry": {"coordinates": [-121.923193, 40.842518], "type": "Point"}, "id": "OXa_SjzIcc-EVw27jdyie0c8V10=", "properties": {"@spider": "usps_collection_boxes", "addr:city": "MONTGOMERY CREEK", "addr:country": "US", "addr:full": "30346 HWY 299", "addr:postcode": "96065", "addr:state": "CA", "brand": "USPS", "collection_times": "Mo-Fr 15:30; Sa 08:30", "name": "USPS COLLECTION BOX - PO LOBBY", "note": "ON 12/24 AND 12/31, THIS BOX MAY BE COLLECTED AS EARLY AS 12 NOON.", "ref": "9606500001"}, "type": "Feature"}
{"geometry": {"coordinates": [-122.311114, 41.311861], "type": "Point"}, "id": "wiU-mQXaHt-o3o8Pe9oRjrnuWTw=", "properties": {"@spider": "usps_collection_boxes", "addr:city": "MOUNT SHASTA", "addr:country": "US", "addr:full": "301 S MOUNT SHASTA BLVD", "addr:postcode": "96067", "addr:state": "CA", "brand": "USPS", "collection_times": "Mo-Fr 16:30; Sa 15:00", "name": "USPS COLLECTION BOX - PO LOBBY", "note": "ON 12/24 AND 12/31, THIS BOX MAY BE COLLECTED AS EARLY AS 12 NOON.", "ref": "9606700006"}, "type": "Feature"}
{"geometry": {"coordinates": [-122.311077, 41.311951], "type": "Point"}, "id": "Gur5JuD6qvOIa7b_hPEZXyEn-j0=", "properties": {"@spider": "usps_collection_boxes", "addr:city": "MOUNT SHASTA", "addr:country": "US", "addr:full": "301 S MOUNT SHASTA BLVD", "addr:postcode": "96067", "addr:state": "CA", "brand": "USPS", "collection_times": "Mo-Fr 16:30; Sa 15:00", "name": "USPS COLLECTION BOX - BLUE BOX", "note": "ON 12/24 AND 12/31, THIS BOX MAY BE COLLECTED AS EARLY AS 12 NOON.", "ref": "9606700007"}, "type": "Feature"}
{"geometry": {"coordinates": [-122.311077, 41.311951], "type": "Point"}, "id": "nnxhqFgZBgWfu_DUbJKS1XsW3jM=", "properties": {"@spider": "usps_collection_boxes", "addr:city": "MOUNT SHASTA", "addr:country": "US", "addr:full": "301 S MOUNT SHASTA BLVD", "addr:postcode": "96067", "addr:state": "CA", "brand": "USPS", "collection_times": "Mo-Fr 16:30; Sa 15:00", "name": "USPS COLLECTION BOX - BLUE BOX", "note": "ON 12/24 AND 12/31, THIS BOX MAY BE COLLECTED AS EARLY AS 12 NOON.", "ref": "9606700008"}, "type": "Feature"}
{"geometry": {"coordinates": [-122.311142367, 41.311887139], "type": "Point"}, "id": "bt8RjzizkWtLCEcEPwPhaueHncQ=", "properties": {"@spider": "usps_collection_boxes", "addr:city": "MOUNT SHASTA", "addr:country": "US", "addr:full": "301 S MOUNT SHASTA BLVD", "addr:postcode": "96067", "addr:state": "CA", "brand": "USPS", "collection_times": "Mo-Fr 16:15", "name": "USPS COLLECTION BOX - PO LOBBY", "note": "ON 12/24 AND 12/31, THIS BOX MAY BE COLLECTED AS EARLY AS 12 NOON.", "ref": "9606700010"}, "type": "Feature"}
{"geometry": {"coordinates": [-122.026579392, 40.684724472], "type": "Point"}, "id": "QlgGl4eiOm67Y88wjkdfib4s8Eo=", "properties": {"@spider": "usps_collection_boxes", "addr:city": "OAK RUN", "addr:country": "US", "addr:full": "27600 OAK RUN TO FERN RD", "addr:postcode": "96069", "addr:state": "CA", "brand": "USPS", "collection_times": "Mo-Fr 14:30; Sa 11:30", "name": "USPS COLLECTION BOX - BLUE BOX", "note": "ON 12/24 AND 12/31, THIS BOX MAY BE COLLECTED AS EARLY AS 12 NOON.", "ref": "9606900000"}, "type": "Feature"}
{"geometry": {"coordinates": [-122.026579392, 40.6847244722], "type": "Point"}, "id": "Q199hdI-K1fqTJfXHxprf_Qhbc0=", "properties": {"@spider": "usps_collection_boxes", "addr:city": "OAK RUN", "addr:country": "US", "addr:full": "27600 OAK RUN TO FERN RD", "addr:postcode": "96069", "addr:state": "CA", "brand": "USPS", "collection_times": "Mo-Fr 14:30; Sa 11:30", "name": "USPS COLLECTION BOX - PO LOBBY", "note": "ON 12/24 AND 12/31, THIS BOX MAY BE COLLECTED AS EARLY AS 12 NOON.", "ref": "9606900001"}, "type": "Feature"}
{"geometry": {"coordinates": [-122.026579392, 40.6847244722], "type": "Point"}, "id": "uNTxNtNjb7Fbg8aM0SsAKDsZuZo=", "properties": {"@spider": "usps_collection_boxes", "addr:city": "OAK RUN", "addr:country": "US", "addr:full": "27600 OAK RUN TO FERN RD", "addr:postcode": "96069", "addr:state": "CA", "brand": "USPS", "collection_times": "Mo-Fr 14:30", "name": "USPS COLLECTION BOX - PO LOBBY", "note": "ON 12/24 AND 12/31, THIS BOX MAY BE COLLECTED AS EARLY AS 12 NOON.", "ref": "9606900002"}, "type": "Feature"}
{"geometry": {"coordinates": [-122.353492707, 40.676298832], "type": "Point"}, "id": "QFMWGgbmm8Ngyi_-wclNyuW5Vzk=", "properties": {"@spider": "usps_collection_boxes", "addr:city": "SHASTA LAKE", "addr:country": "US", "addr:full": "1985 CASCADE BLVD", "addr:postcode": "96079", "addr:state": "CA", "brand": "USPS", "collection_times": "Mo-Fr 10:00", "name": "USPS COLLECTION BOX - PO LOBBY", "ref": "9607900000"}, "type": "Feature"}
{"geometry": {"coordinates": [-122.353492707, 40.676298832], "type": "Point"}, "id": "kp7le7i5KNNxhm8cbdBDNnnjwuw=", "properties": {"@spider": "usps_collection_boxes", "addr:city": "SHASTA LAKE", "addr:country": "US", "addr:full": "1985 CASCADE BLVD", "addr:postcode": "96079", "addr:state": "CA", "brand": "USPS", "collection_times": "Mo-Fr 10:00; Sa 08:00", "name": "USPS COLLECTION BOX - BLUE BOX", "ref": "9607900001"}, "type": "Feature"}
{"geometry": {"coordinates": [-121.9396243802, 40.8033350688], "type": "Point"}, "id": "5FkzFdPChlPqDp7ocgrotlA7Vzs=", "properties": {"@spider": "usps_collection_boxes", "addr:city": "ROUND MOUNTAIN", "addr:country": "US", "addr:full": "29620 STATE HIGHWAY 299 E", "addr:postcode": "96084", "addr:state": "CA", "brand": "USPS", "collection_times": "Mo-Fr 15:45; Sa 08:30", "name": "USPS COLLECTION BOX - PO LOBBY", "note": "ON 12/24 AND 12/31, THIS BOX MAY BE COLLECTED AS EARLY AS 12 NOON.", "ref": "9608400001"}, "type": "Feature"}
{"geometry": {"coordinates": [-121.93962438, 40.803335069], "type": "Point"}, "id": "T9xTyoPKcb4aPO2xvVhYkqDbbaA=", "properties": {"@spider": "usps_collection_boxes", "addr:city": "ROUND MOUNTAIN", "addr:country": "US", "addr:full": "29620 STATE HIGHWAY 299 E", "addr:postcode": "96084", "addr:state": "CA", "brand": "USPS", "collection_times": "Mo-Fr 15:45; Sa 08:30", "name": "USPS COLLECTION BOX - PO LOBBY", "note": "ON 12/24 AND 12/31, THIS BOX MAY BE COLLECTED AS EARLY AS 12 NOON.", "ref": "9608400002"}, "type": "Feature"}
{"geometry": {"coordinates": [-121.93962438, 40.803335069], "type": "Point"}, "id": "PBTGDiolfOLhShNnLg0IEJRZs0U=", "properties": {"@spider": "usps_collection_boxes", "addr:city": "ROUND MOUNTAIN", "addr:country": "US", "addr:full": "29620 STATE HIGHWAY 299 E", "addr:postcode": "96084", "addr:state": "CA", "brand": "USPS", "collection_times": "Mo-Fr 15:45", "name": "USPS COLLECTION BOX - PO LOBBY", "note": "ON 12/24 AND 12/31, THIS BOX MAY BE COLLECTED AS EARLY AS 12 NOON.", "ref": "9608400003"}, "type": "Feature"}
{"geometry": {"coordinates": [-123.004391, 41.742463], "type": "Point"}, "id": "F2trqODdHMVATzetbQxvA_wNb6I=", "properties": {"@spider": "usps_collection_boxes", "addr:city": "SCOTT BAR", "addr:country": "US", "addr:full": "27233 SCOTT RIVER RD", "addr:postcode": "96085", "addr:state": "CA", "brand": "USPS", "collection_times": "Mo-Sa 10:30", "name": "USPS COLLECTION BOX - BLUE BOX", "ref": "9608500000"}, "type": "Feature"}
{"geometry": {"coordinates": [-123.004416955, 41.742448339], "type": "Point"}, "id": "O50WTtCmGbAxT5M6r2FuK4bKGBI=", "properties": {"@spider": "usps_collection_boxes", "addr:city": "SCOTT BAR", "addr:country": "US", "addr:full": "27233 SCOTT RIVER RD", "addr:postcode": "96085", "addr:state": "CA", "brand": "USPS", "collection_times": "Mo-Fr 17:00; Sa 13:00", "name": "USPS COLLECTION BOX - PO LOBBY", "note": "ON 12/24 AND 12/31, THIS BOX MAY BE COLLECTED AS EARLY AS 12 NOON.", "ref": "9608500001"}, "type": "Feature"}
{"geometry": {"coordinates": [-122.488126039, 40.59633013], "type": "Point"}, "id": "iRM_aHgRAlnwXRT82-TQkiSvqtw=", "properties": {"@spider": "usps_collection_boxes", "addr:city": "SHASTA", "addr:country": "US", "addr:full": "15430 STATE HIGHWAY 299 W", "addr:postcode": "96087", "addr:state": "CA", "brand": "USPS", "collection_times": "Mo-Fr 16:15; Sa 08:30", "name": "USPS COLLECTION BOX - BLUE BOX", "note": "ON 12/24 AND 12/31, THIS BOX MAY BE COLLECTED AS EARLY AS 12 NOON.", "ref": "9608700000"}, "type": "Feature"}
{"geometry": {"coordinates": [-122.488126039, 40.5963301299], "type": "Point"}, "id": "5dhUFLchcxfmYw7C8JAt2KG6QSI=", "properties": {"@spider": "usps_collection_boxes", "addr:city": "SHASTA", "addr:country": "US", "addr:full": "15430 STATE HIGHWAY 299 W", "addr:postcode": "96087", "addr:state": "CA", "brand": "USPS", "collection_times": "Mo-Fr 16:15; Sa 08:30", "name": "USPS COLLECTION BOX - PO LOBBY", "note": "ON 12/24 AND 12/31, THIS BOX MAY BE COLLECTED AS EARLY AS 12 NOON.", "ref": "9608700001"}, "type": "Feature"}
{"geometry": {"coordinates": [-122.488126039, 40.59633013], "type": "Point"}, "id": "DCp3odjOhwG7jwGs9BFaMJkJP-o=", "properties": {"@spider": "usps_collection_boxes", "addr:city": "SHASTA", "addr:country": "US", "addr:full": "15430 STATE HIGHWAY 299 W", "addr:postcode": "96087", "addr:state": "CA", "brand": "USPS", "collection_times": "Mo-Fr 16:15; Sa 08:30", "name": "USPS COLLECTION BOX - PO LOBBY", "note": "ON 12/24 AND 12/31, THIS BOX MAY BE COLLECTED AS EARLY AS 12 NOON.", "ref": "9608700002"}, "type": "Feature"}
{"geometry": {"coordinates": [-122.488126039, 40.59633013], "type": "Point"}, "id": "SIIq_K-krTOeGWQFDkJxq_5RDnM=", "properties": {"@spider": "usps_collection_boxes", "addr:city": "SHASTA", "addr:country": "US", "addr:full": "15430 STATE HIGHWAY 299 W", "addr:postcode": "96087", "addr:state": "CA", "brand": "USPS", "collection_times": "Mo-Fr 16:15", "name": "USPS COLLECTION BOX - PO LOBBY", "note": "ON 12/24 AND 12/31, THIS BOX MAY BE COLLECTED AS EARLY AS 12 NOON.", "ref": "9608700003"}, "type": "Feature"}
{"geometry": {"coordinates": [-122.401627797, 40.686462], "type": "Point"}, "id": "cV9VKRiF7U5kYtw-WxlGoCJQaD4=", "properties": {"@spider": "usps_collection_boxes", "addr:city": "SHASTA LAKE", "addr:country": "US", "addr:full": "13701 HILL BLVD", "addr:postcode": "96089", "addr:state": "CA", "brand": "USPS", "collection_times": "Mo-Fr 13:30; Sa 10:00", "name": "USPS COLLECTION BOX - PO LOBBY", "note": "ON 12/24 AND 12/31, THIS BOX MAY BE COLLECTED AS EARLY AS 12 NOON.", "ref": "9608900000"}, "type": "Feature"}
{"geometry": {"coordinates": [-122.401627797, 40.686462], "type": "Point"}, "id": "e0TDB_zblcVcv-jkqwdioiHFmAA=", "properties": {"@spider": "usps_collection_boxes", "addr:city": "SHASTA LAKE", "addr:country": "US", "addr:full": "13701 HILL BLVD", "addr:postcode": "96089", "addr:state": "CA", "brand": "USPS", "collection_times": "Mo-Fr 13:30; Sa 10:00", "name": "USPS COLLECTION BOX - BLUE BOX", "note": "ON 12/24 AND 12/31, THIS BOX MAY BE COLLECTED AS EARLY AS 12 NOON.", "ref": "9608900001"}, "type": "Feature"}
{"geometry": {"coordinates": [-122.401627797, 40.686462], "type": "Point"}, "id": "pvAmKQL52KePr9t5L58KhJobrnQ=", "properties": {"@spider": "usps_collection_boxes", "addr:city": "SHASTA LAKE", "addr:country": "US", "addr:full": "13701 HILL BLVD", "addr:postcode": "96089", "addr:state": "CA", "brand": "USPS", "collection_times": "Mo-Fr 13:30", "name": "USPS COLLECTION BOX - PO LOBBY", "note": "ON 12/24 AND 12/31, THIS BOX MAY BE COLLECTED AS EARLY AS 12 NOON.", "ref": "9608900002"}, "type": "Feature"}
{"geometry": {"coordinates": [-122.703765252, 40.981580506], "type": "Point"}, "id": "ju79WklA4uYY5NLTWfHo1PWWNJ4=", "properties": {"@spider": "usps_collection_boxes", "addr:city": "TRINITY CENTER", "addr:country": "US", "addr:full": "271 MARY AVE", "addr:postcode": "96091", "addr:state": "CA", "brand": "USPS", "collection_times": "Mo-Fr 13:20; Sa 10:00", "name": "USPS COLLECTION BOX - PO LOBBY", "note": "ON 12/24 AND 12/31, THIS BOX MAY BE COLLECTED AS EARLY AS 12 NOON.", "ref": "9609100000"}, "type": "Feature"}
{"geometry": {"coordinates": [-122.703765252, 40.981580506], "type": "Point"}, "id": "DUKVqVBTtdwqkxcFeSDNoH1V9Go=", "properties": {"@spider": "usps_collection_boxes", "addr:city": "TRINITY CENTER", "addr:country": "US", "addr:full": "271 MARY AVE", "addr:postcode": "96091", "addr:state": "CA", "brand": "USPS", "collection_times": "Mo-Fr 13:20; Sa 10:00", "name": "USPS COLLECTION BOX - PO LOBBY", "note": "ON 12/24 AND 12/31, THIS BOX MAY BE COLLECTED AS EARLY AS 12 NOON.", "ref": "9609100001"}, "type": "Feature"}
{"geometry": {"coordinates": [-122.703765252, 40.981580506], "type": "Point"}, "id": "78u1U5mSOmKVjXOvkQqQrfFpT3g=", "properties": {"@spider": "usps_collection_boxes", "addr:city": "TRINITY CENTER", "addr:country": "US", "addr:full": "271 MARY AVE", "addr:postcode": "96091", "addr:state": "CA", "brand": "USPS", "collection_times": "Mo-Fr 13:20; Sa 10:00", "name": "USPS COLLECTION BOX - PO LOBBY", "note": "ON 12/24 AND 12/31, THIS BOX MAY BE COLLECTED AS EARLY AS 12 NOON.", "ref": "9609100002"}, "type": "Feature"}
{"geometry": {"coordinates": [-122.706463, 41.086326], "type": "Point"}, "id": "4mccaxgEWzvs7oKuScymte8XOkw=", "properties": {"@spider": "usps_collection_boxes", "addr:city": "TRINITY CENTER", "addr:country": "US", "addr:full": "10 MANN RD", "addr:postcode": "96091", "addr:state": "CA", "brand": "USPS", "collection_times": "Mo-Sa 10:00", "name": "USPS COLLECTION BOX - BLUE BOX", "ref": "9609100003"}, "type": "Feature"}
{"geometry": {"coordinates": [-122.7037652525, 40.9815805057], "type": "Point"}, "id": "klsPXll6EbtZSzYhey4k28bJzUU=", "properties": {"@spider": "usps_collection_boxes", "addr:city": "TRINITY CENTER", "addr:country": "US", "addr:full": "271 MARY AVE", "addr:postcode": "96091", "addr:state": "CA", "brand": "USPS", "collection_times": "Mo-Fr 13:20", "name": "USPS COLLECTION BOX - PO LOBBY", "note": "ON 12/24 AND 12/31, THIS BOX MAY BE COLLECTED AS EARLY AS 12 NOON.", "ref": "9609100004"}, "type": "Feature"}
{"geometry": {"coordinates": [-122.928684, 40.737614], "type": "Point"}, "id": "Ky_FVvENJr5iHW6zsQDKLIccusA=", "properties": {"@spider": "usps_collection_boxes", "addr:city": "WEAVERVILLE", "addr:country": "US", "addr:full": "0000 HWY 3", "addr:postcode": "96093", "addr:state": "CA", "brand": "USPS", "collection_times": "Mo-Fr 14:00; Sa 12:30", "name": "USPS COLLECTION BOX - BLUE BOX", "note": "ON 12/24 AND 12/31, THIS BOX MAY BE COLLECTED AS EARLY AS 12 NOON.", "ref": "9609300001"}, "type": "Feature"}
{"geometry": {"coordinates": [-122.942246707, 40.73332541], "type": "Point"}, "id": "hL7rax6onTwSTN_W5injxibZcmM=", "properties": {"@spider": "usps_collection_boxes", "addr:city": "WEAVERVILLE", "addr:country": "US", "addr:full": "50 S MINER ST", "addr:postcode": "96093", "addr:state": "CA", "brand": "USPS", "collection_times": "Mo-Fr 15:15; Sa 11:00", "name": "USPS COLLECTION BOX - PO LOBBY", "note": "ON 12/24 AND 12/31, THIS BOX MAY BE COLLECTED AS EARLY AS 12 NOON.", "ref": "9609300002"}, "type": "Feature"}
{"geometry": {"coordinates": [-122.942246707, 40.73332541], "type": "Point"}, "id": "ZtExHwPjYZjZ4rmDPl4k721_8Ec=", "properties": {"@spider": "usps_collection_boxes", "addr:city": "WEAVERVILLE", "addr:country": "US", "addr:full": "50 S MINER ST", "addr:postcode": "96093", "addr:state": "CA", "brand": "USPS", "collection_times": "Mo-Fr 15:15; Sa 11:00", "name": "USPS COLLECTION BOX - PO LOBBY", "note": "ON 12/24 AND 12/31, THIS BOX MAY BE COLLECTED AS EARLY AS 12 NOON.", "ref": "9609300003"}, "type": "Feature"}
{"geometry": {"coordinates": [-122.942246707, 40.73332541], "type": "Point"}, "id": "HT075hmm_OU1Rc_PRj95Z73Hn_U=", "properties": {"@spider": "usps_collection_boxes", "addr:city": "WEAVERVILLE", "addr:country": "US", "addr:full": "50 S MINER ST", "addr:postcode": "96093", "addr:state": "CA", "brand": "USPS", "collection_times": "Mo-Fr 15:15; Sa 11:00", "name": "USPS COLLECTION BOX - PO LOBBY", "note": "ON 12/24 AND 12/31, THIS BOX MAY BE COLLECTED AS EARLY AS 12 NOON.", "ref": "9609300004"}, "type": "Feature"}
{"geometry": {"coordinates": [-122.942246707, 40.73332541], "type": "Point"}, "id": "3DShMjA0X-KCupoi7F_y-McP2s4=", "properties": {"@spider": "usps_collection_boxes", "addr:city": "WEAVERVILLE", "addr:country": "US", "addr:full": "50 S MINER ST", "addr:postcode": "96093", "addr:state": "CA", "brand": "USPS", "collection_times": "Mo-Fr 15:15; Sa 11:00", "name": "USPS COLLECTION BOX - PO LOBBY", "note": "ON 12/24 AND 12/31, THIS BOX MAY BE COLLECTED AS EARLY AS 12 NOON.", "ref": "9609300005"}, "type": "Feature"}
{"geometry": {"coordinates": [-122.942246707, 40.73332541], "type": "Point"}, "id": "XxJCJ83DEddVXPScpCpOnZxucOE=", "properties": {"@spider": "usps_collection_boxes", "addr:city": "WEAVERVILLE", "addr:country": "US", "addr:full": "50 S MINER ST", "addr:postcode": "96093", "addr:state": "CA", "brand": "USPS", "collection_times": "Mo-Fr 15:15", "name": "USPS COLLECTION BOX - PO LOBBY", "note": "ON 12/24 AND 12/31, THIS BOX MAY BE COLLECTED AS EARLY AS 12 NOON.", "ref": "9609300006"}, "type": "Feature"}
{"geometry": {"coordinates": [-122.384773, 41.427783], "type": "Point"}, "id": "aSlCFD-hCumL2dLiqEGE-ozmPG8=", "properties": {"@spider": "usps_collection_boxes", "addr:city": "WEED", "addr:country": "US", "addr:full": "560 TEBBE ST", "addr:postcode": "96094", "addr:state": "CA", "brand": "USPS", "collection_times": "Mo-Fr 16:30; Sa 12:00", "name": "USPS COLLECTION BOX - BLUE BOX", "note": "ON 12/24 AND 12/31, THIS BOX MAY BE COLLECTED AS EARLY AS 12 NOON.", "ref": "9609400002"}, "type": "Feature"}
{"geometry": {"coordinates": [-122.384829, 41.427718], "type": "Point"}, "id": "iXY6PG7d_ZcSrnasP2_ov7DQuGc=", "properties": {"@spider": "usps_collection_boxes", "addr:city": "WEED", "addr:country": "US", "addr:full": "560 TEBBE ST", "addr:postcode": "96094", "addr:state": "CA", "brand": "USPS", "collection_times": "Mo-Fr 16:30; Sa 11:30", "name": "USPS COLLECTION BOX - PO LOBBY", "note": "ON 12/24 AND 12/31, THIS BOX MAY BE COLLECTED AS EARLY AS 12 NOON.", "ref": "9609400013"}, "type": "Feature"}
{"geometry": {"coordinates": [-122.3849251192, 41.4275560824], "type": "Point"}, "id": "jIvVS79jmXTu08e2cgXN1923Czc=", "properties": {"@spider": "usps_collection_boxes", "addr:city": "WEED", "addr:country": "US", "addr:full": "560 TEBBE ST", "addr:postcode": "96094", "addr:state": "CA", "brand": "USPS", "collection_times": "Mo-Fr 16:30; Sa 12:00", "name": "USPS COLLECTION BOX - PO LOBBY", "note": "ON 12/24 AND 12/31, THIS BOX MAY BE COLLECTED AS EARLY AS 12 NOON.", "ref": "9609400019"}, "type": "Feature"}
{"geometry": {"coordinates": [-122.6325186961, 41.7401637847], "type": "Point"}, "id": "AGlHTFal1gMzdUFRaawBmwTEFbw=", "properties": {"@spider": "usps_collection_boxes", "addr:city": "YREKA", "addr:country": "US", "addr:full": "121 MONTAGUE RD", "addr:postcode": "96097", "addr:state": "CA", "brand": "USPS", "collection_times": "Mo-Fr 13:45", "name": "USPS COLLECTION BOX - BLUE BOX", "note": "ON 12/24 AND 12/31, THIS BOX MAY BE COLLECTED AS EARLY AS 12 NOON.", "ref": "9609700008"}, "type": "Feature"}
{"geometry": {"coordinates": [-122.644184, 41.7016], "type": "Point"}, "id": "GuqXOvuVw0f_eofb1Grj3FW5EK4=", "properties": {"@spider": "usps_collection_boxes", "addr:city": "YREKA", "addr:country": "US", "addr:full": "1810 FORT JONES RD", "addr:postcode": "96097", "addr:state": "CA", "brand": "USPS", "collection_times": "Mo-Fr 11:00", "name": "USPS COLLECTION BOX - BLUE BOX", "ref": "9609700010"}, "type": "Feature"}
{"geometry": {"coordinates": [-122.638063, 41.730195], "type": "Point"}, "id": "6LYmom91f5NBXCA2vjSDIM4VxW8=", "properties": {"@spider": "usps_collection_boxes", "addr:city": "YREKA", "addr:country": "US", "addr:full": "311 4TH ST", "addr:postcode": "96097", "addr:state": "CA", "brand": "USPS", "collection_times": "Mo-Fr 12:00", "name": "USPS COLLECTION BOX - BLUE BOX", "ref": "9609700012"}, "type": "Feature"}
{"geometry": {"coordinates": [-122.637039, 41.729424], "type": "Point"}, "id": "b1Msg1iEcNgl0DpWUn_MIkTHt_M=", "properties": {"@spider": "usps_collection_boxes", "addr:city": "YREKA", "addr:country": "US", "addr:full": "401 S BROADWAY ST", "addr:postcode": "96097", "addr:state": "CA", "brand": "USPS", "collection_times": "Mo-Fr 15:50; Sa 14:30", "name": "USPS COLLECTION BOX - PO LOBBY", "note": "ON 12/24 AND 12/31, THIS BOX MAY BE COLLECTED AS EARLY AS 12 NOON.", "ref": "9609700013"}, "type": "Feature"}
{"geometry": {"coordinates": [-122.636969, 41.729502], "type": "Point"}, "id": "QLg8vbEPiOP8j4XYTnPQZyPEEwo=", "properties": {"@spider": "usps_collection_boxes", "addr:city": "YREKA", "addr:country": "US", "addr:full": "401 S BROADWAY ST", "addr:postcode": "96097", "addr:state": "CA", "brand": "USPS", "collection_times": "Mo-Fr 15:50; Sa 15:00", "name": "USPS COLLECTION BOX - BLUE BOX", "note": "ON 12/24 AND 12/31, THIS BOX MAY BE COLLECTED AS EARLY AS 12 NOON.", "ref": "9609700016"}, "type": "Feature"}
{"geometry": {"coordinates": [-122.637115658, 41.729243448], "type": "Point"}, "id": "JflENTRrOQe0RY7LiBxaiJzL0Eg=", "properties": {"@spider": "usps_collection_boxes", "addr:city": "YREKA", "addr:country": "US", "addr:full": "401 S BROADWAY ST", "addr:postcode": "96097", "addr:state": "CA", "brand": "USPS", "collection_times": "Mo-Fr 16:00", "name": "USPS COLLECTION BOX - PO LOBBY", "note": "ON 12/24 AND 12/31, THIS BOX MAY BE COLLECTED AS EARLY AS 12 NOON.", "ref": "9609700018"}, "type": "Feature"}
