{"geometry": {"coordinates": [-120.537492, 41.480183], "type": "Point"}, "id": "6ugSL_48ioVGO8a-37S3sLtpRuc=", "properties": {"@spider": "usps_collection_boxes", "addr:city": "ALTURAS", "addr:country": "US", "addr:full": "310 E MCDOWELL AVE", "addr:postcode": "96101", "addr:state": "CA", "brand": "USPS", "collection_times": "Mo-Sa 10:00", "name": "USPS COLLECTION BOX - BLUE BOX", "ref": "9610100001"}, "type": "Feature"}
{"geometry": {"coordinates": [-120.542463, 41.485771], "type": "Point"}, "id": "atSfzNZy8F17Mr0Hb14Ox9K22wA=", "properties": {"@spider": "usps_collection_boxes", "addr:city": "ALTURAS", "addr:country": "US", "addr:full": "240 N MAIN ST", "addr:postcode": "96101", "addr:state": "CA", "brand": "USPS", "collection_times": "Mo-Sa 16:00", "name": "USPS COLLECTION BOX - PO LOBBY", "note": "ON 12/24 AND 12/31, THIS BOX MAY BE COLLECTED AS EARLY AS 12 NOON.", "ref": "9610100003"}, "type": "Feature"}
{"geometry": {"coordinates": [-120.5420599694, 41.4890499839], "type": "Point"}, "id": "RjsZzSMRJRAZvAiJkz5-mDHO9F4=", "properties": {"@spider": "usps_collection_boxes", "addr:city": "ALTURAS", "addr:country": "US", "addr:full": "510 N MAIN ST", "addr:postcode": "96101", "addr:state": "CA", "brand": "USPS", "collection_times": "Mo-Sa 15:00", "name": "USPS COLLECTION BOX - BLUE BOX", "note": "ON 12/24 AND 12/31, THIS BOX MAY BE COLLECTED AS EARLY AS 12 NOON.", "ref": "9610100004"}, "type": "Feature"}
{"geometry": {"coordinates": [-120.542463, 41.485771], "type": "Point"}, "id": "fAMMzZUwhsrzYN9do7NaPl7UKO0=", "properties": {"@spider": "usps_collection_boxes", "addr:city": "ALTURAS", "addr:country": "US", "addr:full": "240 N MAIN ST", "addr:postcode": "96101", "addr:state": "CA", "brand": "USPS", "collection_times": "Mo-Sa 16:00", "name": "USPS COLLECTION BOX - BLUE BOX", "note": "ON 12/24 AND 12/31, THIS BOX MAY BE COLLECTED AS EARLY AS 12 NOON.", "ref": "9610100006"}, "type": "Feature"}
{"geometry": {"coordinates": [-120.691072, 41.407077], "type": "Point"}, "id": "KYkC9sX8HEPPK9x3_a7G0rkOY6g=", "properties": {"@spider": "usps_collection_boxes", "addr:city": "ALTURAS", "addr:country": "US", "addr:full": "750 SHASTA VIEW ST", "addr:postcode": "96101", "addr:state": "CA", "brand": "USPS", "collection_times": "Mo-Sa 10:00", "name": "USPS COLLECTION BOX - BLUE BOX", "ref": "9610100007"}, "type": "Feature"}
{"geometry": {"coordinates": [-120.171888, 41.527427], "type": "Point"}, "id": "k40UsoH6mhZgWL5FrKFdP2vxOW8=", "properties": {"@spider": "usps_collection_boxes", "addr:city": "CEDARVILLE", "addr:country": "US", "addr:full": "480 MAIN ST", "addr:postcode": "96104", "addr:state": "CA", "brand": "USPS", "collection_times": "Mo-Fr 14:00; Sa 11:45", "name": "USPS COLLECTION BOX - PO LOBBY", "note": "ON 12/24 AND 12/31, THIS BOX MAY BE COLLECTED AS EARLY AS 12 NOON.", "ref": "9610400000"}, "type": "Feature"}
{"geometry": {"coordinates": [-120.375406601, 41.763377923], "type": "Point"}, "id": "JmGnhOrCRN5y4pCIKPx8eGuaj6w=", "properties": {"@spider": "usps_collection_boxes", "addr:city": "DAVIS CREEK", "addr:country": "US", "addr:full": "1 E US HIGHWAY 395 N", "addr:postcode": "96108", "addr:state": "CA", "brand": "USPS", "collection_times": "Mo-Sa 12:00", "name": "USPS COLLECTION BOX - PO LOBBY", "ref": "9610800000"}, "type": "Feature"}
{"geometry": {"coordinates": [-120.375208, 41.71549], "type": "Point"}, "id": "iS9USOq_B8TA3FDp8Y_eXz7JueU=", "properties": {"@spider": "usps_collection_boxes", "addr:city": "DAVIS CREEK", "addr:country": "US", "addr:full": "US HIGHWAY 395", "addr:postcode": "96108", "addr:state": "CA", "brand": "USPS", "collection_times": "Mo-Sa 12:00", "name": "USPS COLLECTION BOX - BLUE BOX", "ref": "9610800001"}, "type": "Feature"}
{"geometry": {"coordinates": [-120.115979, 41.317762], "type": "Point"}, "id": "vnycdaMRX8Mh49GpEK7SgO1K7pE=", "properties": {"@spider": "usps_collection_boxes", "addr:city": "EAGLEVILLE", "addr:country": "US", "addr:full": "13761 MAIN ST", "addr:postcode": "96110", "addr:state": "CA", "brand": "USPS", "collection_times": "Mo-Sa 11:00", "name": "USPS COLLECTION BOX - PO LOBBY", "ref": "9611000000"}, "type": "Feature"}
{"geometry": {"coordinates": [-120.1161450216, 41.3185699548], "type": "Point"}, "id": "u39qo5gb-JyG7rbZj4dkoTjbDRI=", "properties": {"@spider": "usps_collection_boxes", "addr:city": "EAGLEVILLE", "addr:country": "US", "addr:full": "0 MAIN ST", "addr:postcode": "96110", "addr:state": "CA", "brand": "USPS", "collection_times": "Mo-Sa 10:30", "name": "USPS COLLECTION BOX - BLUE BOX", "ref": "9611000001"}, "type": "Feature"}
{"geometry": {"coordinates": [-120.150177, 41.857621], "type": "Point"}, "id": "GM0P2dgk5REivWKGV14IjvsIF4U=", "properties": {"@spider": "usps_collection_boxes", "addr:city": "FORT BIDWELL", "addr:country": "US", "addr:full": "47 E BRIDGE ST", "addr:postcode": "96112", "addr:state": "CA", "brand": "USPS", "collection_times": "Mo-Fr 12:45; Sa 13:00", "name": "USPS COLLECTION BOX - BLUE BOX", "note": "ON 12/24 AND 12/31, THIS BOX MAY BE COLLECTED AS EARLY AS 12 NOON.", "ref": "9611200000"}, "type": "Feature"}
{"geometry": {"coordinates": [-120.150177, 41.857621], "type": "Point"}, "id": "jun6sHSDizhOsnuTD9BBPnLdNx8=", "properties": {"@spider": "usps_collection_boxes", "addr:city": "FORT BIDWELL", "addr:country": "US", "addr:full": "47 E BRIDGE ST", "addr:postcode": "96112", "addr:state": "CA", "brand": "USPS", "collection_times": "Mo-Fr 12:45; Sa 13:00", "name": "USPS COLLECTION BOX - PO LOBBY", "note": "ON 12/24 AND 12/31, THIS BOX MAY BE COLLECTED AS EARLY AS 12 NOON.", "ref": "9611200001"}, "type": "Feature"}
{"geometry": {"coordinates": [-120.21361, 41.645061], "type": "Point"}, "id": "AI72Zpl6zHTp89Ar_mR8GEenKR4=", "properties": {"@spider": "usps_collection_boxes", "addr:city": "LAKE CITY", "addr:country": "US", "addr:full": "35 E NORTH ST", "addr:postcode": "96115", "addr:state": "CA", "brand": "USPS", "collection_times": "Mo-Sa 11:45", "name": "USPS COLLECTION BOX - BLUE BOX", "ref": "9611500000"}, "type": "Feature"}
{"geometry": {"coordinates": [-120.21361, 41.645061], "type": "Point"}, "id": "mtl2-xaLtHiq5hpjNgUBSUK-7Kw=", "properties": {"@spider": "usps_collection_boxes", "addr:city": "LAKE CITY", "addr:country": "US", "addr:full": "35 E NORTH ST", "addr:postcode": "96115", "addr:state": "CA", "brand": "USPS", "collection_times": "Mo-Sa 11:45", "name": "USPS COLLECTION BOX - PO LOBBY", "ref": "9611500001"}, "type": "Feature"}
{"geometry": {"coordinates": [-120.504449898, 41.250598696], "type": "Point"}, "id": "9ypSSo2gf1ZG9XIOy3WDP9aFX7s=", "properties": {"@spider": "usps_collection_boxes", "addr:city": "LIKELY", "addr:country": "US", "addr:full": "HIGHWAY 395", "addr:postcode": "96116", "addr:state": "CA", "brand": "USPS", "collection_times": "Mo-Fr 16:15; Sa 10:00", "name": "USPS COLLECTION BOX - PO LOBBY", "note": "ON 12/24 AND 12/31, THIS BOX MAY BE COLLECTED AS EARLY AS 12 NOON.", "ref": "9611600000"}, "type": "Feature"}
{"geometry": {"coordinates": [-121.472842, 41.954417], "type": "Point"}, "id": "Qvgtvyme-g_uZ6wnO4eOp7DQZww=", "properties": {"@spider": "usps_collection_boxes", "addr:city": "TULELAKE", "addr:country": "US", "addr:full": "541 MODOC AVE", "addr:postcode": "96134", "addr:state": "CA", "brand": "USPS", "collection_times": "Mo-Sa 12:00", "name": "USPS COLLECTION BOX - PO LOBBY", "ref": "9613400000"}, "type": "Feature"}
{"geometry": {"coordinates": [-121.472828, 41.954446], "type": "Point"}, "id": "Ud8RtLf-qrfHZePtbGYIbQf2UgM=", "properties": {"@spider": "usps_collection_boxes", "addr:city": "TULELAKE", "addr:country": "US", "addr:full": "541 MODOC AVE", "addr:postcode": "96134", "addr:state": "CA", "brand": "USPS", "collection_times": "Mo-Sa 12:00", "name": "USPS COLLECTION BOX - BLUE BOX", "ref": "9613400005"}, "type": "Feature"}
