{"geometry": {"coordinates": [-120.723101, 44.910657], "type": "Point"}, "id": "rFnEOzRFfWDqx6ZouxLU10XFzzs=", "properties": {"@spider": "usps_collection_boxes", "addr:city": "ANTELOPE", "addr:country": "US", "addr:full": "45438 MAIN ST", "addr:postcode": "97001", "addr:state": "OR", "brand": "USPS", "collection_times": "Mo-Fr 13:30; Sa 11:00", "name": "USPS COLLECTION BOX - PO LOBBY", "note": "ON 12/24 AND 12/31, THIS BOX MAY BE COLLECTED AS EARLY AS 12 NOON.", "ref": "9700100001"}, "type": "Feature"}
{"geometry": {"coordinates": [-120.723101, 44.910657], "type": "Point"}, "id": "O4GLUeDQ1cbjwpq1nV1GS1sPz4M=", "properties": {"@spider": "usps_collection_boxes", "addr:city": "ANTELOPE", "addr:country": "US", "addr:full": "45438 MAIN ST", "addr:postcode": "97001", "addr:state": "OR", "brand": "USPS", "collection_times": "Mo-Fr 13:30; Sa 13:15", "name": "USPS COLLECTION BOX - BLUE BOX", "note": "ON 12/24 AND 12/31, THIS BOX MAY BE COLLECTED AS EARLY AS 12 NOON.", "ref": "9700100002"}, "type": "Feature"}
{"geometry": {"coordinates": [-120.722322623, 44.90991215], "type": "Point"}, "id": "CpAXn9AnXNRdM5FZdT2sSv03gMU=", "properties": {"@spider": "usps_collection_boxes", "addr:city": "ANTELOPE", "addr:country": "US", "addr:full": "45404 MAIN ST", "addr:postcode": "97001", "addr:state": "OR", "brand": "USPS", "collection_times": "Mo-Fr 13:30", "name": "USPS COLLECTION BOX - PO LOBBY", "note": "ON 12/24 AND 12/31, THIS BOX MAY BE COLLECTED AS EARLY AS 12 NOON.", "ref": "9700100006"}, "type": "Feature"}
{"geometry": {"coordinates": [-122.01477, 45.376632], "type": "Point"}, "id": "QYf4Qn9qJTWZDTw2NCPQKM3qhQo=", "properties": {"@spider": "usps_collection_boxes", "addr:city": "BRIGHTWOOD", "addr:country": "US", "addr:full": "20275 E AMBROSE ST", "addr:postcode": "97011", "addr:state": "OR", "brand": "USPS", "collection_times": "Mo-Fr 16:30; Sa 15:30", "name": "USPS COLLECTION BOX - BLUE BOX", "note": "ON 12/24 AND 12/31, THIS BOX MAY BE COLLECTED AS EARLY AS 12 NOON.", "ref": "9701100001"}, "type": "Feature"}
{"geometry": {"coordinates": [-122.01477, 45.376632], "type": "Point"}, "id": "UDxv_WZWBvYxqEGgd6RbBpsGHQg=", "properties": {"@spider": "usps_collection_boxes", "addr:city": "BRIGHTWOOD", "addr:country": "US", "addr:full": "20275 E AMBROSE ST", "addr:postcode": "97011", "addr:state": "OR", "brand": "USPS", "collection_times": "Mo-Fr 17:00; Sa 09:00", "name": "USPS COLLECTION BOX - PO LOBBY", "note": "ON 12/24 AND 12/31, THIS BOX MAY BE COLLECTED AS EARLY AS 12 NOON.", "ref": "9701100002"}, "type": "Feature"}
{"geometry": {"coordinates": [-122.014771243, 45.376632619], "type": "Point"}, "id": "iw2Yb0EBWQovUBa0j_Yw9ck1wqc=", "properties": {"@spider": "usps_collection_boxes", "addr:city": "BRIGHTWOOD", "addr:country": "US", "addr:full": "20275 E AMBROSE ST", "addr:postcode": "97011", "addr:state": "OR", "brand": "USPS", "collection_times": "Mo-Fr 17:00", "name": "USPS COLLECTION BOX - PO LOBBY", "note": "ON 12/24 AND 12/31, THIS BOX MAY BE COLLECTED AS EARLY AS 12 NOON.", "ref": "9701100004"}, "type": "Feature"}
{"geometry": {"coordinates": [-121.89543, 45.665836], "type": "Point"}, "id": "yF0k9Lj1AqGUV60Ihz-U2nzhq1w=", "properties": {"@spider": "usps_collection_boxes", "addr:city": "CASCADE LOCKS", "addr:country": "US", "addr:full": "461 NW WANAPA ST", "addr:postcode": "97014", "addr:state": "OR", "brand": "USPS", "collection_times": "Mo-Fr 16:30; Sa 09:30", "name": "USPS COLLECTION BOX - BLUE BOX", "note": "ON 12/24 AND 12/31, THIS BOX MAY BE COLLECTED AS EARLY AS 12 NOON.", "ref": "9701400001"}, "type": "Feature"}
{"geometry": {"coordinates": [-121.89543, 45.665836], "type": "Point"}, "id": "24T84Ow3X-bKABcR-lO16lTVo4w=", "properties": {"@spider": "usps_collection_boxes", "addr:city": "CASCADE LOCKS", "addr:country": "US", "addr:full": "461 NW WANAPA ST", "addr:postcode": "97014", "addr:state": "OR", "brand": "USPS", "collection_times": "Mo-Fr 17:00; Sa 09:30", "name": "USPS COLLECTION BOX - PO LOBBY", "note": "ON 12/24 AND 12/31, THIS BOX MAY BE COLLECTED AS EARLY AS 12 NOON.", "ref": "9701400002"}, "type": "Feature"}
{"geometry": {"coordinates": [-121.895637818, 45.665492468], "type": "Point"}, "id": "LHtRLcpJenJOophlry-CsnSh-jU=", "properties": {"@spider": "usps_collection_boxes", "addr:city": "CASCADE LOCKS", "addr:country": "US", "addr:full": "461 NW WANAPA ST", "addr:postcode": "97014", "addr:state": "OR", "brand": "USPS", "collection_times": "Mo-Fr 17:00", "name": "USPS COLLECTION BOX - PO LOBBY", "note": "ON 12/24 AND 12/31, THIS BOX MAY BE COLLECTED AS EARLY AS 12 NOON.", "ref": "9701400003"}, "type": "Feature"}
{"geometry": {"coordinates": [-123.373112, 46.12944], "type": "Point"}, "id": "44s9Zwr9xlEFmzwyZf-t-PJ-PWI=", "properties": {"@spider": "usps_collection_boxes", "addr:city": "CLATSKANIE", "addr:country": "US", "addr:full": "49332 HIGHWAY 30", "addr:postcode": "97016", "addr:state": "OR", "brand": "USPS", "collection_times": "Mo-Sa 12:00", "name": "USPS COLLECTION BOX - BLUE BOX", "ref": "9701600001"}, "type": "Feature"}
{"geometry": {"coordinates": [-123.206783, 46.105003], "type": "Point"}, "id": "dHk-5dovP6x68PGEL5p71Hghj1Q=", "properties": {"@spider": "usps_collection_boxes", "addr:city": "CLATSKANIE", "addr:country": "US", "addr:full": "90 SW BELAIR DR", "addr:postcode": "97016", "addr:state": "OR", "brand": "USPS", "collection_times": "Mo-Fr 16:45; Sa 14:30", "name": "USPS COLLECTION BOX - PO LOBBY", "note": "ON 12/24 AND 12/31, THIS BOX MAY BE COLLECTED AS EARLY AS 12 NOON.", "ref": "9701600002"}, "type": "Feature"}
{"geometry": {"coordinates": [-123.206783, 46.105003], "type": "Point"}, "id": "UCbyRUXNDELC4i7pJG_1SMO_qlc=", "properties": {"@spider": "usps_collection_boxes", "addr:city": "CLATSKANIE", "addr:country": "US", "addr:full": "90 SW BELAIR DR", "addr:postcode": "97016", "addr:state": "OR", "brand": "USPS", "collection_times": "Mo-Fr 16:45; Sa 14:30", "name": "USPS COLLECTION BOX - PO LOBBY", "note": "ON 12/24 AND 12/31, THIS BOX MAY BE COLLECTED AS EARLY AS 12 NOON.", "ref": "9701600003"}, "type": "Feature"}
{"geometry": {"coordinates": [-123.206783, 46.105003], "type": "Point"}, "id": "v5l6jd3IMJPoz5fuD9Ea7RHaWWI=", "properties": {"@spider": "usps_collection_boxes", "addr:city": "CLATSKANIE", "addr:country": "US", "addr:full": "90 SW BELAIR DR", "addr:postcode": "97016", "addr:state": "OR", "brand": "USPS", "collection_times": "Mo-Fr 16:45; Sa 14:30", "name": "USPS COLLECTION BOX - BLUE BOX", "note": "ON 12/24 AND 12/31, THIS BOX MAY BE COLLECTED AS EARLY AS 12 NOON.", "ref": "9701600004"}, "type": "Feature"}
{"geometry": {"coordinates": [-123.206757813, 46.10507792], "type": "Point"}, "id": "gMxKaG1xxqbu9-LltJZXzP2zAkI=", "properties": {"@spider": "usps_collection_boxes", "addr:city": "CLATSKANIE", "addr:country": "US", "addr:full": "90 SW BELAIR DR", "addr:postcode": "97016", "addr:state": "OR", "brand": "USPS", "collection_times": "Mo-Fr 17:00", "name": "USPS COLLECTION BOX - PO LOBBY", "note": "ON 12/24 AND 12/31, THIS BOX MAY BE COLLECTED AS EARLY AS 12 NOON.", "ref": "9701600005"}, "type": "Feature"}
{"geometry": {"coordinates": [-122.808902, 45.889967], "type": "Point"}, "id": "PFA7AXrvYsLd-8sx4kC6Fm1TMfg=", "properties": {"@spider": "usps_collection_boxes", "addr:city": "COLUMBIA CITY", "addr:country": "US", "addr:full": "1905 2ND ST", "addr:postcode": "97018", "addr:state": "OR", "brand": "USPS", "collection_times": "Mo-Fr 16:30; Sa 10:00", "name": "USPS COLLECTION BOX - BLUE BOX", "note": "ON 12/24 AND 12/31, THIS BOX MAY BE COLLECTED AS EARLY AS 12 NOON.", "ref": "9701800001"}, "type": "Feature"}
{"geometry": {"coordinates": [-122.808991, 45.88995], "type": "Point"}, "id": "e2KZU4V7Ggj-T3-7Moc3W8nLHw0=", "properties": {"@spider": "usps_collection_boxes", "addr:city": "COLUMBIA CITY", "addr:country": "US", "addr:full": "1905 2ND ST", "addr:postcode": "97018", "addr:state": "OR", "brand": "USPS", "collection_times": "Mo-Fr 14:00; Sa 10:00", "name": "USPS COLLECTION BOX - PO LOBBY", "note": "ON 12/24 AND 12/31, THIS BOX MAY BE COLLECTED AS EARLY AS 12 NOON.", "ref": "9701800002"}, "type": "Feature"}
{"geometry": {"coordinates": [-122.808813813, 45.89001416], "type": "Point"}, "id": "ZE8KDtyYOALoYPxr9ll_YJy6eeI=", "properties": {"@spider": "usps_collection_boxes", "addr:city": "COLUMBIA CITY", "addr:country": "US", "addr:full": "1905 2ND ST", "addr:postcode": "97018", "addr:state": "OR", "brand": "USPS", "collection_times": "Mo-Fr 14:00", "name": "USPS COLLECTION BOX - PO LOBBY", "note": "ON 12/24 AND 12/31, THIS BOX MAY BE COLLECTED AS EARLY AS 12 NOON.", "ref": "9701800003"}, "type": "Feature"}
{"geometry": {"coordinates": [-121.130777, 45.452158], "type": "Point"}, "id": "UCVreOo6t9f7teDjl_ZejQF12PY=", "properties": {"@spider": "usps_collection_boxes", "addr:city": "DUFUR", "addr:country": "US", "addr:full": "96 N MAIN ST", "addr:postcode": "97021", "addr:state": "OR", "brand": "USPS", "collection_times": "Mo-Fr 16:45; Sa 14:45", "name": "USPS COLLECTION BOX - BLUE BOX", "note": "ON 12/24 AND 12/31, THIS BOX MAY BE COLLECTED AS EARLY AS 12 NOON.", "ref": "9702100001"}, "type": "Feature"}
{"geometry": {"coordinates": [-121.130629, 45.452147], "type": "Point"}, "id": "bYlklleo3fh3mpEOlE7p28QSFLM=", "properties": {"@spider": "usps_collection_boxes", "addr:city": "DUFUR", "addr:country": "US", "addr:full": "96 N MAIN ST", "addr:postcode": "97021", "addr:state": "OR", "brand": "USPS", "collection_times": "Mo-Fr 16:45; Sa 14:45", "name": "USPS COLLECTION BOX - PO LOBBY", "note": "ON 12/24 AND 12/31, THIS BOX MAY BE COLLECTED AS EARLY AS 12 NOON.", "ref": "9702100002"}, "type": "Feature"}
{"geometry": {"coordinates": [-121.130781896, 45.452023156], "type": "Point"}, "id": "ky4iskmF19gLmiu8s7EMFgF1FPU=", "properties": {"@spider": "usps_collection_boxes", "addr:city": "DUFUR", "addr:country": "US", "addr:full": "96 N MAIN ST", "addr:postcode": "97021", "addr:state": "OR", "brand": "USPS", "collection_times": "Mo-Fr 16:45", "name": "USPS COLLECTION BOX - PO LOBBY", "note": "ON 12/24 AND 12/31, THIS BOX MAY BE COLLECTED AS EARLY AS 12 NOON.", "ref": "9702100003"}, "type": "Feature"}
{"geometry": {"coordinates": [-121.756716, 45.304088], "type": "Point"}, "id": "i8fmv2BRQfqObKVUd18FXWA2NUY=", "properties": {"@spider": "usps_collection_boxes", "addr:city": "GOVERNMENT CAMP", "addr:country": "US", "addr:full": "88331 E GOVERNMENT CAMP LOOP", "addr:postcode": "97028", "addr:state": "OR", "brand": "USPS", "collection_times": "Mo-Fr 16:00; Sa 15:00", "name": "USPS COLLECTION BOX - BLUE BOX", "note": "ON 12/24 AND 12/31, THIS BOX MAY BE COLLECTED AS EARLY AS 12 NOON.", "ref": "9702800001"}, "type": "Feature"}
{"geometry": {"coordinates": [-121.756716, 45.304088], "type": "Point"}, "id": "pxKh8GZ52KwM22o6g7n1KcwGu7c=", "properties": {"@spider": "usps_collection_boxes", "addr:city": "GOVERNMENT CAMP", "addr:country": "US", "addr:full": "88331 E GOVERNMENT CAMP LOOP", "addr:postcode": "97028", "addr:state": "OR", "brand": "USPS", "collection_times": "Mo-Fr 16:00; Sa 08:00", "name": "USPS COLLECTION BOX - PO LOBBY", "note": "ON 12/24 AND 12/31, THIS BOX MAY BE COLLECTED AS EARLY AS 12 NOON.", "ref": "9702800002"}, "type": "Feature"}
{"geometry": {"coordinates": [-121.75676516, 45.30414103], "type": "Point"}, "id": "lP-WZqa23XDRZR-1yL2AFT6XEis=", "properties": {"@spider": "usps_collection_boxes", "addr:city": "GOVERNMENT CAMP", "addr:country": "US", "addr:full": "88331 E GOVERNMENT CAMP LOOP", "addr:postcode": "97028", "addr:state": "OR", "brand": "USPS", "collection_times": "Mo-Fr 16:00", "name": "USPS COLLECTION BOX - PO LOBBY", "note": "ON 12/24 AND 12/31, THIS BOX MAY BE COLLECTED AS EARLY AS 12 NOON.", "ref": "9702800003"}, "type": "Feature"}
{"geometry": {"coordinates": [-120.784479, 45.360763], "type": "Point"}, "id": "Kb2dfeoYPu34OaCuIIATFaVaX1s=", "properties": {"@spider": "usps_collection_boxes", "addr:city": "GRASS VALLEY", "addr:country": "US", "addr:full": "114 N MILL ST", "addr:postcode": "97029", "addr:state": "OR", "brand": "USPS", "collection_times": "Mo-Fr 14:45; Sa 09:45", "name": "USPS COLLECTION BOX - BLUE BOX", "note": "ON 12/24 AND 12/31, THIS BOX MAY BE COLLECTED AS EARLY AS 12 NOON.", "ref": "9702900003"}, "type": "Feature"}
{"geometry": {"coordinates": [-120.784432, 45.360664], "type": "Point"}, "id": "g1_MCvR4feOg9gGB7YiIE2vFeck=", "properties": {"@spider": "usps_collection_boxes", "addr:city": "GRASS VALLEY", "addr:country": "US", "addr:full": "114 N MILL ST", "addr:postcode": "97029", "addr:state": "OR", "brand": "USPS", "collection_times": "Mo-Fr 13:00; Sa 09:45", "name": "USPS COLLECTION BOX - PO LOBBY", "note": "ON 12/24 AND 12/31, THIS BOX MAY BE COLLECTED AS EARLY AS 12 NOON.", "ref": "9702900004"}, "type": "Feature"}
{"geometry": {"coordinates": [-120.784432, 45.360664], "type": "Point"}, "id": "AcaJ66y8YDuK9FTXa2UPmKtuJN8=", "properties": {"@spider": "usps_collection_boxes", "addr:city": "GRASS VALLEY", "addr:country": "US", "addr:full": "114 N MILL ST", "addr:postcode": "97029", "addr:state": "OR", "brand": "USPS", "collection_times": "Mo-Fr 13:00; Sa 09:45", "name": "USPS COLLECTION BOX - PO LOBBY", "note": "ON 12/24 AND 12/31, THIS BOX MAY BE COLLECTED AS EARLY AS 12 NOON.", "ref": "9702900005"}, "type": "Feature"}
{"geometry": {"coordinates": [-120.7844318957, 45.3606649623], "type": "Point"}, "id": "R4OUfGyw8F7RJ48g6h1dnTzoamU=", "properties": {"@spider": "usps_collection_boxes", "addr:city": "GRASS VALLEY", "addr:country": "US", "addr:full": "114 N MILL ST", "addr:postcode": "97029", "addr:state": "OR", "brand": "USPS", "collection_times": "Mo-Fr 13:30", "name": "USPS COLLECTION BOX - PO LOBBY", "note": "ON 12/24 AND 12/31, THIS BOX MAY BE COLLECTED AS EARLY AS 12 NOON.", "ref": "9702900006"}, "type": "Feature"}
{"geometry": {"coordinates": [-121.523709, 45.702159], "type": "Point"}, "id": "qOL8VLQC1o5CoMI9lJ2CesP-I04=", "properties": {"@spider": "usps_collection_boxes", "addr:city": "HOOD RIVER", "addr:country": "US", "addr:full": "1108 12TH ST", "addr:postcode": "97031", "addr:state": "OR", "brand": "USPS", "collection_times": "Mo-Fr 16:45; Sa 16:30", "name": "USPS COLLECTION BOX - BLUE BOX", "note": "ON 12/24 AND 12/31, THIS BOX MAY BE COLLECTED AS EARLY AS 12 NOON.", "ref": "9703100001"}, "type": "Feature"}
{"geometry": {"coordinates": [-121.512469, 45.708897], "type": "Point"}, "id": "oC3eyOXMfk-XInbhyIRVg1e2Zkw=", "properties": {"@spider": "usps_collection_boxes", "addr:city": "HOOD RIVER", "addr:country": "US", "addr:full": "202 OAK ST", "addr:postcode": "97031", "addr:state": "OR", "brand": "USPS", "collection_times": "Mo-Fr 16:45; Sa 16:30", "name": "USPS COLLECTION BOX - BLUE BOX", "note": "ON 12/24 AND 12/31, THIS BOX MAY BE COLLECTED AS EARLY AS 12 NOON.", "ref": "9703100004"}, "type": "Feature"}
{"geometry": {"coordinates": [-121.523381, 45.694904], "type": "Point"}, "id": "yzmeKW7sKpYmFi3yo_FPwnsisgo=", "properties": {"@spider": "usps_collection_boxes", "addr:city": "HOOD RIVER", "addr:country": "US", "addr:full": "2000 12TH ST", "addr:postcode": "97031", "addr:state": "OR", "brand": "USPS", "collection_times": "Mo-Sa 16:30", "name": "USPS COLLECTION BOX - BLUE BOX", "note": "ON 12/24 AND 12/31, THIS BOX MAY BE COLLECTED AS EARLY AS 12 NOON.", "ref": "9703100005"}, "type": "Feature"}
{"geometry": {"coordinates": [-121.513751277, 45.708106528], "type": "Point"}, "id": "IhGuNs85ulBTcGnI4ciOVcBY5po=", "properties": {"@spider": "usps_collection_boxes", "addr:city": "HOOD RIVER", "addr:country": "US", "addr:full": "309 STATE ST", "addr:postcode": "97031", "addr:state": "OR", "brand": "USPS", "collection_times": "Mo-Fr 16:45", "name": "USPS COLLECTION BOX - BLUE BOX", "note": "ON 12/24 AND 12/31, THIS BOX MAY BE COLLECTED AS EARLY AS 12 NOON.", "ref": "9703100006"}, "type": "Feature"}
{"geometry": {"coordinates": [-121.51335, 45.708841], "type": "Point"}, "id": "BYfFIJdQ5U4OBTozMcBk1NrXkxk=", "properties": {"@spider": "usps_collection_boxes", "addr:city": "HOOD RIVER", "addr:country": "US", "addr:full": "305 OAK ST", "addr:postcode": "97031", "addr:state": "OR", "brand": "USPS", "collection_times": "Mo-Fr 16:45; Sa 16:30", "name": "USPS COLLECTION BOX - BLUE BOX", "note": "ON 12/24 AND 12/31, THIS BOX MAY BE COLLECTED AS EARLY AS 12 NOON.", "ref": "9703100007"}, "type": "Feature"}
{"geometry": {"coordinates": [-121.5147015, 45.7096104677], "type": "Point"}, "id": "vfJSwvX4F92EgYdoxCXcmSzzGJ0=", "properties": {"@spider": "usps_collection_boxes", "addr:city": "HOOD RIVER", "addr:country": "US", "addr:full": "408 CASCADE AVE", "addr:postcode": "97031", "addr:state": "OR", "brand": "USPS", "collection_times": "Mo-Fr 17:00; Sa 16:30", "name": "USPS COLLECTION BOX - BLUE BOX", "note": "ON 12/24 AND 12/31, THIS BOX MAY BE COLLECTED AS EARLY AS 12 NOON.", "ref": "9703100008"}, "type": "Feature"}
{"geometry": {"coordinates": [-121.500407, 45.711576], "type": "Point"}, "id": "1d1OgYjbB_PYPBTveqYy0STOQbI=", "properties": {"@spider": "usps_collection_boxes", "addr:city": "HOOD RIVER", "addr:country": "US", "addr:full": "1040 E MARINA WAY", "addr:postcode": "97031", "addr:state": "OR", "brand": "USPS", "collection_times": "Mo-Sa 16:15", "name": "USPS COLLECTION BOX - BLUE BOX", "note": "ON 12/24 AND 12/31, THIS BOX MAY BE COLLECTED AS EARLY AS 12 NOON.", "ref": "9703100010"}, "type": "Feature"}
{"geometry": {"coordinates": [-121.534734, 45.709842], "type": "Point"}, "id": "WyQamlVtnpfuh_R1ag8iCf-yag4=", "properties": {"@spider": "usps_collection_boxes", "addr:city": "HOOD RIVER", "addr:country": "US", "addr:full": "2249 CASCADE AVE", "addr:postcode": "97031", "addr:state": "OR", "brand": "USPS", "collection_times": "Mo-Sa 16:15", "name": "USPS COLLECTION BOX - BLUE BOX", "note": "ON 12/24 AND 12/31, THIS BOX MAY BE COLLECTED AS EARLY AS 12 NOON.", "ref": "9703100012"}, "type": "Feature"}
{"geometry": {"coordinates": [-121.523622, 45.70087], "type": "Point"}, "id": "hvNRYRMs6tTGfBYwFUnYZ1vLo_Y=", "properties": {"@spider": "usps_collection_boxes", "addr:city": "HOOD RIVER", "addr:country": "US", "addr:full": "1309 12TH ST", "addr:postcode": "97031", "addr:state": "OR", "brand": "USPS", "collection_times": "Mo-Fr 16:45; Sa 16:30", "name": "USPS COLLECTION BOX - BLUE BOX", "note": "ON 12/24 AND 12/31, THIS BOX MAY BE COLLECTED AS EARLY AS 12 NOON.", "ref": "9703100014"}, "type": "Feature"}
{"geometry": {"coordinates": [-121.523381, 45.694911], "type": "Point"}, "id": "rrzIk7TKVG1qHnybbw0Mbw-t-z4=", "properties": {"@spider": "usps_collection_boxes", "addr:city": "HOOD RIVER", "addr:country": "US", "addr:full": "2000 12TH ST", "addr:postcode": "97031", "addr:state": "OR", "brand": "USPS", "collection_times": "Mo-Sa 16:30", "name": "USPS COLLECTION BOX - BLUE BOX", "note": "ON 12/24 AND 12/31, THIS BOX MAY BE COLLECTED AS EARLY AS 12 NOON.", "ref": "9703100016"}, "type": "Feature"}
{"geometry": {"coordinates": [-121.514592, 45.70979], "type": "Point"}, "id": "mLY6_I5-XTpmwQKgz-Rrxo9dfKU=", "properties": {"@spider": "usps_collection_boxes", "addr:city": "HOOD RIVER", "addr:country": "US", "addr:full": "408 CASCADE AVE", "addr:postcode": "97031", "addr:state": "OR", "brand": "USPS", "collection_times": "Mo-Fr 17:00; Sa 16:30", "name": "USPS COLLECTION BOX - BLUE BOX", "note": "ON 12/24 AND 12/31, THIS BOX MAY BE COLLECTED AS EARLY AS 12 NOON.", "ref": "9703100017"}, "type": "Feature"}
{"geometry": {"coordinates": [-121.514592, 45.70979], "type": "Point"}, "id": "MFqhfL1JAN3fniVK64r57VaVovY=", "properties": {"@spider": "usps_collection_boxes", "addr:city": "HOOD RIVER", "addr:country": "US", "addr:full": "408 CASCADE AVE", "addr:postcode": "97031", "addr:state": "OR", "brand": "USPS", "collection_times": "Mo-Fr 17:00; Sa 16:30", "name": "USPS COLLECTION BOX - PO LOBBY", "note": "ON 12/24 AND 12/31, THIS BOX MAY BE COLLECTED AS EARLY AS 12 NOON.", "ref": "9703100018"}, "type": "Feature"}
{"geometry": {"coordinates": [-121.514592, 45.70979], "type": "Point"}, "id": "FM4AdII49kkveSWvDTDhLjHDNnE=", "properties": {"@spider": "usps_collection_boxes", "addr:city": "HOOD RIVER", "addr:country": "US", "addr:full": "408 CASCADE AVE", "addr:postcode": "97031", "addr:state": "OR", "brand": "USPS", "collection_times": "Mo-Fr 17:00; Sa 16:30", "name": "USPS COLLECTION BOX - PO LOBBY", "note": "ON 12/24 AND 12/31, THIS BOX MAY BE COLLECTED AS EARLY AS 12 NOON.", "ref": "9703100019"}, "type": "Feature"}
{"geometry": {"coordinates": [-121.516718, 45.708101], "type": "Point"}, "id": "a7BtdWXlOCodbYNoC5JfCg0TpLc=", "properties": {"@spider": "usps_collection_boxes", "addr:city": "HOOD RIVER", "addr:country": "US", "addr:full": "601 STATE ST", "addr:postcode": "97031", "addr:state": "OR", "brand": "USPS", "collection_times": "Mo-Fr 16:45; Sa 16:30", "name": "USPS COLLECTION BOX - BLUE BOX", "note": "ON 12/24 AND 12/31, THIS BOX MAY BE COLLECTED AS EARLY AS 12 NOON.", "ref": "9703100023"}, "type": "Feature"}
{"geometry": {"coordinates": [-121.5147015, 45.709610468], "type": "Point"}, "id": "G5bERp9M_sedMYREHJWcriy92bo=", "properties": {"@spider": "usps_collection_boxes", "addr:city": "HOOD RIVER", "addr:country": "US", "addr:full": "408 CASCADE AVE", "addr:postcode": "97031", "addr:state": "OR", "brand": "USPS", "collection_times": "Mo-Fr 17:00", "name": "USPS COLLECTION BOX - PO LOBBY", "note": "ON 12/24 AND 12/31, THIS BOX MAY BE COLLECTED AS EARLY AS 12 NOON.", "ref": "9703100025"}, "type": "Feature"}
{"geometry": {"coordinates": [-120.692385, 45.193736], "type": "Point"}, "id": "uOlYEWNPRBdNuXmPi73IB72nvmw=", "properties": {"@spider": "usps_collection_boxes", "addr:city": "KENT", "addr:country": "US", "addr:full": "95097 DOBIE POINT LN", "addr:postcode": "97033", "addr:state": "OR", "brand": "USPS", "collection_times": "Mo-Fr 14:30; Sa 10:00", "name": "USPS COLLECTION BOX - BLUE BOX", "note": "ON 12/24 AND 12/31, THIS BOX MAY BE COLLECTED AS EARLY AS 12 NOON.", "ref": "9703300001"}, "type": "Feature"}
{"geometry": {"coordinates": [-120.69284, 45.193606], "type": "Point"}, "id": "tdmNiMLGD6z-akblAlEfNDMfvC8=", "properties": {"@spider": "usps_collection_boxes", "addr:city": "KENT", "addr:country": "US", "addr:full": "95097 DOBIE POINT LN", "addr:postcode": "97033", "addr:state": "OR", "brand": "USPS", "collection_times": "Mo-Fr 12:00; Sa 10:00", "name": "USPS COLLECTION BOX - PO LOBBY", "ref": "9703300002"}, "type": "Feature"}
{"geometry": {"coordinates": [-120.692394, 45.193637501], "type": "Point"}, "id": "uwJaAnLzUqXwGORtUHyNruE-nEQ=", "properties": {"@spider": "usps_collection_boxes", "addr:city": "KENT", "addr:country": "US", "addr:full": "95097 DOBIE POINT LN", "addr:postcode": "97033", "addr:state": "OR", "brand": "USPS", "collection_times": "Mo-Fr 12:00; Sa 10:00", "name": "USPS COLLECTION BOX - PO LOBBY", "ref": "9703300003"}, "type": "Feature"}
{"geometry": {"coordinates": [-121.079733, 45.175887], "type": "Point"}, "id": "ZJDd5KjpozT6HV1wf7-9P293REM=", "properties": {"@spider": "usps_collection_boxes", "addr:city": "MAUPIN", "addr:country": "US", "addr:full": "402 DESCHUTES AVE", "addr:postcode": "97037", "addr:state": "OR", "brand": "USPS", "collection_times": "Mo-Fr 16:30; Sa 14:30", "name": "USPS COLLECTION BOX - BLUE BOX", "note": "ON 12/24 AND 12/31, THIS BOX MAY BE COLLECTED AS EARLY AS 12 NOON.", "ref": "9703700001"}, "type": "Feature"}
{"geometry": {"coordinates": [-121.079807, 45.175857], "type": "Point"}, "id": "4UqDSkJDh2H98RThv7RO88QeJAY=", "properties": {"@spider": "usps_collection_boxes", "addr:city": "MAUPIN", "addr:country": "US", "addr:full": "402 DESCHUTES AVE", "addr:postcode": "97037", "addr:state": "OR", "brand": "USPS", "collection_times": "Mo-Fr 14:45; Sa 14:30", "name": "USPS COLLECTION BOX - PO LOBBY", "note": "ON 12/24 AND 12/31, THIS BOX MAY BE COLLECTED AS EARLY AS 12 NOON.", "ref": "9703700002"}, "type": "Feature"}
{"geometry": {"coordinates": [-121.079622939, 45.175820207], "type": "Point"}, "id": "v_4o-SGGZSCsF6ZpmaEB7qq3vZU=", "properties": {"@spider": "usps_collection_boxes", "addr:city": "MAUPIN", "addr:country": "US", "addr:full": "402 DESCHUTES AVE", "addr:postcode": "97037", "addr:state": "OR", "brand": "USPS", "collection_times": "Mo-Fr 14:45", "name": "USPS COLLECTION BOX - PO LOBBY", "note": "ON 12/24 AND 12/31, THIS BOX MAY BE COLLECTED AS EARLY AS 12 NOON.", "ref": "9703700003"}, "type": "Feature"}
{"geometry": {"coordinates": [-120.730921, 45.484465], "type": "Point"}, "id": "3S9OaVD2GUZPceYSCBBKupIkMT8=", "properties": {"@spider": "usps_collection_boxes", "addr:city": "MORO", "addr:country": "US", "addr:full": "109 1ST ST", "addr:postcode": "97039", "addr:state": "OR", "brand": "USPS", "collection_times": "Mo-Fr 15:00; Sa 10:00", "name": "USPS COLLECTION BOX - BLUE BOX", "note": "ON 12/24 AND 12/31, THIS BOX MAY BE COLLECTED AS EARLY AS 12 NOON.", "ref": "9703900001"}, "type": "Feature"}
{"geometry": {"coordinates": [-120.730921474, 45.4844658], "type": "Point"}, "id": "DLHXdlbFTwLZ4FNdsjVbrw-ISi4=", "properties": {"@spider": "usps_collection_boxes", "addr:city": "MORO", "addr:country": "US", "addr:full": "109 1ST ST", "addr:postcode": "97039", "addr:state": "OR", "brand": "USPS", "collection_times": "Mo-Fr 15:00", "name": "USPS COLLECTION BOX - PO LOBBY", "note": "ON 12/24 AND 12/31, THIS BOX MAY BE COLLECTED AS EARLY AS 12 NOON.", "ref": "9703900004"}, "type": "Feature"}
{"geometry": {"coordinates": [-121.397397, 45.682796], "type": "Point"}, "id": "V1LOWtQJ8sq9zJb6iYGJdXeE6LQ=", "properties": {"@spider": "usps_collection_boxes", "addr:city": "MOSIER", "addr:country": "US", "addr:full": "1001 3RD AVE", "addr:postcode": "97040", "addr:state": "OR", "brand": "USPS", "collection_times": "Mo-Fr 16:45; Sa 09:30", "name": "USPS COLLECTION BOX - BLUE BOX", "note": "ON 12/24 AND 12/31, THIS BOX MAY BE COLLECTED AS EARLY AS 12 NOON.", "ref": "9704000001"}, "type": "Feature"}
{"geometry": {"coordinates": [-121.397269, 45.682769], "type": "Point"}, "id": "8rM5M8dy2rSehW_P5I0Va84Quv4=", "properties": {"@spider": "usps_collection_boxes", "addr:city": "MOSIER", "addr:country": "US", "addr:full": "1001 3RD AVE", "addr:postcode": "97040", "addr:state": "OR", "brand": "USPS", "collection_times": "Mo-Fr 16:30; Sa 09:30", "name": "USPS COLLECTION BOX - PO LOBBY", "note": "ON 12/24 AND 12/31, THIS BOX MAY BE COLLECTED AS EARLY AS 12 NOON.", "ref": "9704000002"}, "type": "Feature"}
{"geometry": {"coordinates": [-121.397562, 45.682790489], "type": "Point"}, "id": "JhigpVRin-WF44RCYGmRn6zMRCg=", "properties": {"@spider": "usps_collection_boxes", "addr:city": "MOSIER", "addr:country": "US", "addr:full": "1001 3RD AVE", "addr:postcode": "97040", "addr:state": "OR", "brand": "USPS", "collection_times": "Mo-Fr 16:45", "name": "USPS COLLECTION BOX - PO LOBBY", "note": "ON 12/24 AND 12/31, THIS BOX MAY BE COLLECTED AS EARLY AS 12 NOON.", "ref": "9704000003"}, "type": "Feature"}
{"geometry": {"coordinates": [-121.597621, 45.519627], "type": "Point"}, "id": "19fmkOQFh2DUr-AL-y3fnJz9iPE=", "properties": {"@spider": "usps_collection_boxes", "addr:city": "MT HOOD PRKDL", "addr:country": "US", "addr:full": "5000 BASELINE DR", "addr:postcode": "97041", "addr:state": "OR", "brand": "USPS", "collection_times": "Mo-Fr 16:45; Sa 10:00", "name": "USPS COLLECTION BOX - PO LOBBY", "note": "ON 12/24 AND 12/31, THIS BOX MAY BE COLLECTED AS EARLY AS 12 NOON.", "ref": "9704100001"}, "type": "Feature"}
{"geometry": {"coordinates": [-121.597621, 45.519627], "type": "Point"}, "id": "ehuTgPQ8y9zTSNDddjlQYn4fFbM=", "properties": {"@spider": "usps_collection_boxes", "addr:city": "MT HOOD PRKDL", "addr:country": "US", "addr:full": "5000 BASELINE DR", "addr:postcode": "97041", "addr:state": "OR", "brand": "USPS", "collection_times": "Mo-Fr 16:15; Sa 10:00", "name": "USPS COLLECTION BOX - BLUE BOX", "note": "ON 12/24 AND 12/31, THIS BOX MAY BE COLLECTED AS EARLY AS 12 NOON.", "ref": "9704100002"}, "type": "Feature"}
{"geometry": {"coordinates": [-121.597623, 45.519619472], "type": "Point"}, "id": "wCDG4gAdv4vjvRurxIbaTipm7pk=", "properties": {"@spider": "usps_collection_boxes", "addr:city": "MT HOOD PRKDL", "addr:country": "US", "addr:full": "5000 BASELINE DR", "addr:postcode": "97041", "addr:state": "OR", "brand": "USPS", "collection_times": "Mo-Fr 16:45", "name": "USPS COLLECTION BOX - PO LOBBY", "note": "ON 12/24 AND 12/31, THIS BOX MAY BE COLLECTED AS EARLY AS 12 NOON.", "ref": "9704100003"}, "type": "Feature"}
{"geometry": {"coordinates": [-121.541763, 45.625426], "type": "Point"}, "id": "gaibqci_Li8XDJUrHxezVhHcjDM=", "properties": {"@spider": "usps_collection_boxes", "addr:city": "ODELL", "addr:country": "US", "addr:full": "3666 ATKINSON DR", "addr:postcode": "97044", "addr:state": "OR", "brand": "USPS", "collection_times": "Mo-Fr 16:45; Sa 15:45", "name": "USPS COLLECTION BOX - BLUE BOX", "note": "ON 12/24 AND 12/31, THIS BOX MAY BE COLLECTED AS EARLY AS 12 NOON.", "ref": "9704400001"}, "type": "Feature"}
{"geometry": {"coordinates": [-121.541764, 45.625399], "type": "Point"}, "id": "KYx31Y7Qn_eCywBJuG67ve73rbU=", "properties": {"@spider": "usps_collection_boxes", "addr:city": "ODELL", "addr:country": "US", "addr:full": "3666 ATKINSON DR", "addr:postcode": "97044", "addr:state": "OR", "brand": "USPS", "collection_times": "Mo-Fr 17:00; Sa 08:45", "name": "USPS COLLECTION BOX - PO LOBBY", "note": "ON 12/24 AND 12/31, THIS BOX MAY BE COLLECTED AS EARLY AS 12 NOON.", "ref": "9704400002"}, "type": "Feature"}
{"geometry": {"coordinates": [-121.541984528, 45.625445497], "type": "Point"}, "id": "MP56WTRtJLxtSsP4NZag31LYWv0=", "properties": {"@spider": "usps_collection_boxes", "addr:city": "ODELL", "addr:country": "US", "addr:full": "3666 ATKINSON DR", "addr:postcode": "97044", "addr:state": "OR", "brand": "USPS", "collection_times": "Mo-Fr 17:00", "name": "USPS COLLECTION BOX - PO LOBBY", "note": "ON 12/24 AND 12/31, THIS BOX MAY BE COLLECTED AS EARLY AS 12 NOON.", "ref": "9704400003"}, "type": "Feature"}
{"geometry": {"coordinates": [-122.93715, 46.090285], "type": "Point"}, "id": "Bbp9boA92moI6q2NgNJfUTjIzck=", "properties": {"@spider": "usps_collection_boxes", "addr:city": "RAINIER", "addr:country": "US", "addr:full": "207 W A ST", "addr:postcode": "97048", "addr:state": "OR", "brand": "USPS", "collection_times": "Mo-Fr 17:00; Sa 15:30", "name": "USPS COLLECTION BOX - BLUE BOX", "note": "ON 12/24 AND 12/31, THIS BOX MAY BE COLLECTED AS EARLY AS 12 NOON.", "ref": "9704800001"}, "type": "Feature"}
{"geometry": {"coordinates": [-122.93715, 46.090285], "type": "Point"}, "id": "IZffro3-H2w4-kpgtvK6bPYL6iI=", "properties": {"@spider": "usps_collection_boxes", "addr:city": "RAINIER", "addr:country": "US", "addr:full": "207 W A ST", "addr:postcode": "97048", "addr:state": "OR", "brand": "USPS", "collection_times": "Mo-Fr 17:00", "name": "USPS COLLECTION BOX - BLUE BOX", "note": "ON 12/24 AND 12/31, THIS BOX MAY BE COLLECTED AS EARLY AS 12 NOON.", "ref": "9704800002"}, "type": "Feature"}
{"geometry": {"coordinates": [-122.93715, 46.090285], "type": "Point"}, "id": "aQg86GLyvEq7NRuFSVa35uRNQnA=", "properties": {"@spider": "usps_collection_boxes", "addr:city": "RAINIER", "addr:country": "US", "addr:full": "207 W A ST", "addr:postcode": "97048", "addr:state": "OR", "brand": "USPS", "collection_times": "Mo-Fr 17:00", "name": "USPS COLLECTION BOX - PO LOBBY", "note": "ON 12/24 AND 12/31, THIS BOX MAY BE COLLECTED AS EARLY AS 12 NOON.", "ref": "9704800003"}, "type": "Feature"}
{"geometry": {"coordinates": [-122.93715, 46.090285], "type": "Point"}, "id": "7DPUSkcTp58wEaTx5fanXx2qST0=", "properties": {"@spider": "usps_collection_boxes", "addr:city": "RAINIER", "addr:country": "US", "addr:full": "207 W A ST", "addr:postcode": "97048", "addr:state": "OR", "brand": "USPS", "collection_times": "Mo-Fr 17:00; Sa 15:30", "name": "USPS COLLECTION BOX - PO LOBBY", "note": "ON 12/24 AND 12/31, THIS BOX MAY BE COLLECTED AS EARLY AS 12 NOON.", "ref": "9704800004"}, "type": "Feature"}
{"geometry": {"coordinates": [-122.936956372, 46.090242301], "type": "Point"}, "id": "hzG7cnaz9yt3_j64KY24ucR_APo=", "properties": {"@spider": "usps_collection_boxes", "addr:city": "RAINIER", "addr:country": "US", "addr:full": "207 W A ST", "addr:postcode": "97048", "addr:state": "OR", "brand": "USPS", "collection_times": "Mo-Fr 17:00", "name": "USPS COLLECTION BOX - PO LOBBY", "note": "ON 12/24 AND 12/31, THIS BOX MAY BE COLLECTED AS EARLY AS 12 NOON.", "ref": "9704800005"}, "type": "Feature"}
{"geometry": {"coordinates": [-121.910279, 45.328972], "type": "Point"}, "id": "o9VRQLzVamQtpU0wLLH6jfFPDB4=", "properties": {"@spider": "usps_collection_boxes", "addr:city": "RHODODENDRON", "addr:country": "US", "addr:full": "73287 E HIGHWAY 26", "addr:postcode": "97049", "addr:state": "OR", "brand": "USPS", "collection_times": "Mo-Fr 16:00; Sa 15:15", "name": "USPS COLLECTION BOX - BLUE BOX", "note": "ON 12/24 AND 12/31, THIS BOX MAY BE COLLECTED AS EARLY AS 12 NOON.", "ref": "9704900001"}, "type": "Feature"}
{"geometry": {"coordinates": [-121.910364, 45.32894], "type": "Point"}, "id": "9cjoqSNm5nK5-lrqrALxZb39sek=", "properties": {"@spider": "usps_collection_boxes", "addr:city": "RHODODENDRON", "addr:country": "US", "addr:full": "73287 E HIGHWAY 26", "addr:postcode": "97049", "addr:state": "OR", "brand": "USPS", "collection_times": "Mo-Fr 15:15; Sa 09:45", "name": "USPS COLLECTION BOX - PO LOBBY", "note": "ON 12/24 AND 12/31, THIS BOX MAY BE COLLECTED AS EARLY AS 12 NOON.", "ref": "9704900002"}, "type": "Feature"}
{"geometry": {"coordinates": [-121.910385794, 45.329004207], "type": "Point"}, "id": "WiCOKYpiepasxwKfSYIRQuBbboM=", "properties": {"@spider": "usps_collection_boxes", "addr:city": "RHODODENDRON", "addr:country": "US", "addr:full": "73287 E HIGHWAY 26", "addr:postcode": "97049", "addr:state": "OR", "brand": "USPS", "collection_times": "Mo-Fr 15:30", "name": "USPS COLLECTION BOX - PO LOBBY", "note": "ON 12/24 AND 12/31, THIS BOX MAY BE COLLECTED AS EARLY AS 12 NOON.", "ref": "9704900003"}, "type": "Feature"}
{"geometry": {"coordinates": [-120.734873, 45.693598], "type": "Point"}, "id": "pMVP_wdGSGthB7m6iRPW7m2getA=", "properties": {"@spider": "usps_collection_boxes", "addr:city": "RUFUS", "addr:country": "US", "addr:full": "308 FOWLER ST", "addr:postcode": "97050", "addr:state": "OR", "brand": "USPS", "collection_times": "Mo-Fr 15:30; Sa 10:00", "name": "USPS COLLECTION BOX - BLUE BOX", "note": "ON 12/24 AND 12/31, THIS BOX MAY BE COLLECTED AS EARLY AS 12 NOON.", "ref": "9705000001"}, "type": "Feature"}
{"geometry": {"coordinates": [-120.734532, 45.694024], "type": "Point"}, "id": "hPYOKzkOrhNluLNmMYcPuy6vxP0=", "properties": {"@spider": "usps_collection_boxes", "addr:city": "RUFUS", "addr:country": "US", "addr:full": "308 FOWLER ST", "addr:postcode": "97050", "addr:state": "OR", "brand": "USPS", "collection_times": "Mo-Fr 13:45; Sa 09:30", "name": "USPS COLLECTION BOX - PO LOBBY", "note": "ON 12/24 AND 12/31, THIS BOX MAY BE COLLECTED AS EARLY AS 12 NOON.", "ref": "9705000002"}, "type": "Feature"}
{"geometry": {"coordinates": [-120.734950081, 45.693402526], "type": "Point"}, "id": "hZYu_tp_EDQb4sBc-kEMee4vGWs=", "properties": {"@spider": "usps_collection_boxes", "addr:city": "RUFUS", "addr:country": "US", "addr:full": "308 FOWLER ST", "addr:postcode": "97050", "addr:state": "OR", "brand": "USPS", "collection_times": "Mo-Fr 13:45", "name": "USPS COLLECTION BOX - PO LOBBY", "note": "ON 12/24 AND 12/31, THIS BOX MAY BE COLLECTED AS EARLY AS 12 NOON.", "ref": "9705000003"}, "type": "Feature"}
{"geometry": {"coordinates": [-122.813226, 45.859435], "type": "Point"}, "id": "CYo4bb2TLnIeQ6yEw6umSswy61M=", "properties": {"@spider": "usps_collection_boxes", "addr:city": "DEER ISLAND", "addr:country": "US", "addr:full": "1571 COLUMBIA BLVD", "addr:postcode": "97051", "addr:state": "OR", "brand": "USPS", "collection_times": "Mo-Fr 17:00; Sa 14:30", "name": "USPS COLLECTION BOX - BLUE BOX", "note": "ON 12/24 AND 12/31, THIS BOX MAY BE COLLECTED AS EARLY AS 12 NOON.", "ref": "9705100001"}, "type": "Feature"}
{"geometry": {"coordinates": [-122.813226, 45.859435], "type": "Point"}, "id": "xTkLukZ5ZSsyQril9YX1UONAu9A=", "properties": {"@spider": "usps_collection_boxes", "addr:city": "DEER ISLAND", "addr:country": "US", "addr:full": "1571 COLUMBIA BLVD", "addr:postcode": "97051", "addr:state": "OR", "brand": "USPS", "collection_times": "Mo-Fr 17:00; Sa 14:30", "name": "USPS COLLECTION BOX - BLUE BOX", "note": "ON 12/24 AND 12/31, THIS BOX MAY BE COLLECTED AS EARLY AS 12 NOON.", "ref": "9705100002"}, "type": "Feature"}
{"geometry": {"coordinates": [-122.797232, 45.863428], "type": "Point"}, "id": "f0R_TOYQCJlpxM8ObjMSRIpoMvM=", "properties": {"@spider": "usps_collection_boxes", "addr:city": "DEER ISLAND", "addr:country": "US", "addr:full": "244 STRAND ST", "addr:postcode": "97051", "addr:state": "OR", "brand": "USPS", "collection_times": "Mo-Fr 16:30; Sa 09:00", "name": "USPS COLLECTION BOX - BLUE BOX", "note": "ON 12/24 AND 12/31, THIS BOX MAY BE COLLECTED AS EARLY AS 12 NOON.", "ref": "9705100005"}, "type": "Feature"}
{"geometry": {"coordinates": [-122.820065, 45.864233], "type": "Point"}, "id": "3JCCc6SwpYAfqADaBGr_I9-WgWw=", "properties": {"@spider": "usps_collection_boxes", "addr:city": "DEER ISLAND", "addr:country": "US", "addr:full": "500 N COLUMBIA RIVER HWY", "addr:postcode": "97051", "addr:state": "OR", "brand": "USPS", "collection_times": "Mo-Fr 16:15; Sa 12:00", "name": "USPS COLLECTION BOX - BLUE BOX", "note": "ON 12/24 AND 12/31, THIS BOX MAY BE COLLECTED AS EARLY AS 12 NOON.", "ref": "9705100013"}, "type": "Feature"}
{"geometry": {"coordinates": [-122.813226, 45.859435], "type": "Point"}, "id": "48tpEdgbONXxAXsVr8ZaG4NqrLc=", "properties": {"@spider": "usps_collection_boxes", "addr:city": "DEER ISLAND", "addr:country": "US", "addr:full": "1571 COLUMBIA BLVD", "addr:postcode": "97051", "addr:state": "OR", "brand": "USPS", "collection_times": "Mo-Fr 17:00; Sa 14:30", "name": "USPS COLLECTION BOX - PO LOBBY", "note": "ON 12/24 AND 12/31, THIS BOX MAY BE COLLECTED AS EARLY AS 12 NOON.", "ref": "9705100014"}, "type": "Feature"}
{"geometry": {"coordinates": [-122.813226, 45.859435], "type": "Point"}, "id": "q-lrS81BbplgLHdbhceR36j2krQ=", "properties": {"@spider": "usps_collection_boxes", "addr:city": "DEER ISLAND", "addr:country": "US", "addr:full": "1571 COLUMBIA BLVD", "addr:postcode": "97051", "addr:state": "OR", "brand": "USPS", "collection_times": "Mo-Fr 17:00; Sa 14:30", "name": "USPS COLLECTION BOX - PO LOBBY", "note": "ON 12/24 AND 12/31, THIS BOX MAY BE COLLECTED AS EARLY AS 12 NOON.", "ref": "9705100015"}, "type": "Feature"}
{"geometry": {"coordinates": [-122.831266, 45.846712], "type": "Point"}, "id": "iVT9FOH4bY9hCmYAUae5A30uBH0=", "properties": {"@spider": "usps_collection_boxes", "addr:city": "DEER ISLAND", "addr:country": "US", "addr:full": "2295 GABLE RD", "addr:postcode": "97051", "addr:state": "OR", "brand": "USPS", "collection_times": "Mo-Fr 13:00; Sa 12:00", "name": "USPS COLLECTION BOX - BLUE BOX", "note": "ON 12/24 AND 12/31, THIS BOX MAY BE COLLECTED AS EARLY AS 12 NOON.", "ref": "9705100016"}, "type": "Feature"}
{"geometry": {"coordinates": [-122.845497, 45.932365], "type": "Point"}, "id": "uZ7XRkFnDho0bjRU0CGQY53RLjw=", "properties": {"@spider": "usps_collection_boxes", "addr:city": "DEER ISLAND", "addr:country": "US", "addr:full": "64561 COLUMBIA RIVER HWY", "addr:postcode": "97051", "addr:state": "OR", "brand": "USPS", "collection_times": "Mo-Sa 12:00", "name": "USPS COLLECTION BOX - BLUE BOX", "ref": "9705100017"}, "type": "Feature"}
{"geometry": {"coordinates": [-122.813493456, 45.859596027], "type": "Point"}, "id": "gD4V31hH2-0g1-5pcI9wEGigo44=", "properties": {"@spider": "usps_collection_boxes", "addr:city": "DEER ISLAND", "addr:country": "US", "addr:full": "1571 COLUMBIA BLVD", "addr:postcode": "97051", "addr:state": "OR", "brand": "USPS", "collection_times": "Mo-Fr 17:00; Sa 14:00", "name": "USPS COLLECTION BOX - PO LOBBY", "note": "ON 12/24 AND 12/31, THIS BOX MAY BE COLLECTED AS EARLY AS 12 NOON.", "ref": "9705100018"}, "type": "Feature"}
{"geometry": {"coordinates": [-122.878285, 45.759575], "type": "Point"}, "id": "Rrsp4IWgjhtb7jM9HJF6sHh8nZU=", "properties": {"@spider": "usps_collection_boxes", "addr:city": "SCAPPOOSE", "addr:country": "US", "addr:full": "52643 COLUMBIA RIVER HWY", "addr:postcode": "97056", "addr:state": "OR", "brand": "USPS", "collection_times": "Mo-Fr 17:00; Sa 15:00", "name": "USPS COLLECTION BOX - BLUE BOX", "note": "ON 12/24 AND 12/31, THIS BOX MAY BE COLLECTED AS EARLY AS 12 NOON.", "ref": "9705600001"}, "type": "Feature"}
{"geometry": {"coordinates": [-122.878285, 45.759575], "type": "Point"}, "id": "0xc_U8WVDl0oq9SSHQBgF456Zok=", "properties": {"@spider": "usps_collection_boxes", "addr:city": "SCAPPOOSE", "addr:country": "US", "addr:full": "52643 COLUMBIA RIVER HWY", "addr:postcode": "97056", "addr:state": "OR", "brand": "USPS", "collection_times": "Mo-Fr 17:00; Sa 15:00", "name": "USPS COLLECTION BOX - BLUE BOX", "note": "ON 12/24 AND 12/31, THIS BOX MAY BE COLLECTED AS EARLY AS 12 NOON.", "ref": "9705600002"}, "type": "Feature"}
{"geometry": {"coordinates": [-122.878285, 45.759575], "type": "Point"}, "id": "IeLIouiKjrX3AM09MhySOs7m2X4=", "properties": {"@spider": "usps_collection_boxes", "addr:city": "SCAPPOOSE", "addr:country": "US", "addr:full": "52643 COLUMBIA RIVER HWY", "addr:postcode": "97056", "addr:state": "OR", "brand": "USPS", "collection_times": "Mo-Fr 17:00; Sa 15:00", "name": "USPS COLLECTION BOX - PO LOBBY", "note": "ON 12/24 AND 12/31, THIS BOX MAY BE COLLECTED AS EARLY AS 12 NOON.", "ref": "9705600003"}, "type": "Feature"}
{"geometry": {"coordinates": [-122.878285, 45.759575], "type": "Point"}, "id": "s46PoNizZiuUUF2_5K9PjyNu3IM=", "properties": {"@spider": "usps_collection_boxes", "addr:city": "SCAPPOOSE", "addr:country": "US", "addr:full": "52643 COLUMBIA RIVER HWY", "addr:postcode": "97056", "addr:state": "OR", "brand": "USPS", "collection_times": "Mo-Fr 17:00; Sa 15:00", "name": "USPS COLLECTION BOX - PO LOBBY", "note": "ON 12/24 AND 12/31, THIS BOX MAY BE COLLECTED AS EARLY AS 12 NOON.", "ref": "9705600004"}, "type": "Feature"}
{"geometry": {"coordinates": [-122.87795, 45.742204], "type": "Point"}, "id": "LTIOZ7BFfC305wexM3a9hXYPx9U=", "properties": {"@spider": "usps_collection_boxes", "addr:city": "SCAPPOOSE", "addr:country": "US", "addr:full": "51500 COLUMBIA RIVER HWY", "addr:postcode": "97056", "addr:state": "OR", "brand": "USPS", "collection_times": "Mo-Sa 10:00", "name": "USPS COLLECTION BOX - BLUE BOX", "ref": "9705600005"}, "type": "Feature"}
{"geometry": {"coordinates": [-122.878306077, 45.759595874], "type": "Point"}, "id": "oilzHFRD3BtMwEs3Kj9BGIjfHw8=", "properties": {"@spider": "usps_collection_boxes", "addr:city": "SCAPPOOSE", "addr:country": "US", "addr:full": "52643 COLUMBIA RIVER HWY", "addr:postcode": "97056", "addr:state": "OR", "brand": "USPS", "collection_times": "Mo-Fr 17:00", "name": "USPS COLLECTION BOX - PO LOBBY", "note": "ON 12/24 AND 12/31, THIS BOX MAY BE COLLECTED AS EARLY AS 12 NOON.", "ref": "9705600006"}, "type": "Feature"}
{"geometry": {"coordinates": [-120.750905, 45.003556], "type": "Point"}, "id": "Xuz8K037w2_s0uAg45QwfATGpro=", "properties": {"@spider": "usps_collection_boxes", "addr:city": "SHANIKO", "addr:country": "US", "addr:full": "93482 4TH ST", "addr:postcode": "97057", "addr:state": "OR", "brand": "USPS", "collection_times": "Mo-Fr 14:00; Sa 11:15", "name": "USPS COLLECTION BOX - PO LOBBY", "note": "ON 12/24 AND 12/31, THIS BOX MAY BE COLLECTED AS EARLY AS 12 NOON.", "ref": "9705700002"}, "type": "Feature"}
{"geometry": {"coordinates": [-120.750964584, 45.003474193], "type": "Point"}, "id": "qiGxlRQiXpHUncSy8yf9chJmsU8=", "properties": {"@spider": "usps_collection_boxes", "addr:city": "SHANIKO", "addr:country": "US", "addr:full": "93482 4TH ST", "addr:postcode": "97057", "addr:state": "OR", "brand": "USPS", "collection_times": "Mo-Fr 14:00; Sa 11:15", "name": "USPS COLLECTION BOX - PO LOBBY", "note": "ON 12/24 AND 12/31, THIS BOX MAY BE COLLECTED AS EARLY AS 12 NOON.", "ref": "9705700003"}, "type": "Feature"}
{"geometry": {"coordinates": [-121.200843, 45.604598], "type": "Point"}, "id": "CKd8v8cTTHsKUeJquluXQCzNbe0=", "properties": {"@spider": "usps_collection_boxes", "addr:city": "THE DALLES", "addr:country": "US", "addr:full": "910 CHERRY HEIGHTS RD", "addr:postcode": "97058", "addr:state": "OR", "brand": "USPS", "collection_times": "Mo-Sa 10:30", "name": "USPS COLLECTION BOX - BLUE BOX", "ref": "9705800001"}, "type": "Feature"}
{"geometry": {"coordinates": [-121.186099, 45.599684], "type": "Point"}, "id": "-khJ2rVz99gGvkYmN5JuaB-pMaQ=", "properties": {"@spider": "usps_collection_boxes", "addr:city": "THE DALLES", "addr:country": "US", "addr:full": "700 UNION ST", "addr:postcode": "97058", "addr:state": "OR", "brand": "USPS", "collection_times": "Mo-Sa 17:15", "name": "USPS COLLECTION BOX - BLUE BOX", "note": "ON 12/24 AND 12/31, THIS BOX MAY BE COLLECTED AS EARLY AS 12 NOON.", "ref": "9705800003"}, "type": "Feature"}
{"geometry": {"coordinates": [-121.193154, 45.600234], "type": "Point"}, "id": "oS5BoAmNHsC8Byi5dcrJlshcI80=", "properties": {"@spider": "usps_collection_boxes", "addr:city": "THE DALLES", "addr:country": "US", "addr:full": "501 W 9TH ST", "addr:postcode": "97058", "addr:state": "OR", "brand": "USPS", "collection_times": "Mo-Sa 16:30", "name": "USPS COLLECTION BOX - BLUE BOX", "note": "ON 12/24 AND 12/31, THIS BOX MAY BE COLLECTED AS EARLY AS 12 NOON.", "ref": "9705800005"}, "type": "Feature"}
{"geometry": {"coordinates": [-121.186314, 45.603543], "type": "Point"}, "id": "YPHdWbH6BZmoL3Hms3ToWCLDe2k=", "properties": {"@spider": "usps_collection_boxes", "addr:city": "THE DALLES", "addr:country": "US", "addr:full": "101 W 2ND ST", "addr:postcode": "97058", "addr:state": "OR", "brand": "USPS", "collection_times": "Mo-Sa 17:45", "name": "USPS COLLECTION BOX - BLUE BOX", "note": "ON 12/24 AND 12/31, THIS BOX MAY BE COLLECTED AS EARLY AS 12 NOON.", "ref": "9705800012"}, "type": "Feature"}
{"geometry": {"coordinates": [-121.186302, 45.603534], "type": "Point"}, "id": "yU12dS5jXAgE7XCCmZTbR8AkOug=", "properties": {"@spider": "usps_collection_boxes", "addr:city": "THE DALLES", "addr:country": "US", "addr:full": "101 W 2ND ST", "addr:postcode": "97058", "addr:state": "OR", "brand": "USPS", "collection_times": "Mo-Sa 17:45", "name": "USPS COLLECTION BOX - BLUE BOX", "note": "ON 12/24 AND 12/31, THIS BOX MAY BE COLLECTED AS EARLY AS 12 NOON.", "ref": "9705800013"}, "type": "Feature"}
{"geometry": {"coordinates": [-121.19373, 45.604669], "type": "Point"}, "id": "QJWRPxa_BChtNRG1yvoasZc4_FA=", "properties": {"@spider": "usps_collection_boxes", "addr:city": "THE DALLES", "addr:country": "US", "addr:full": "520 MOUNT HOOD ST", "addr:postcode": "97058", "addr:state": "OR", "brand": "USPS", "collection_times": "Mo-Sa 16:30", "name": "USPS COLLECTION BOX - BLUE BOX", "note": "ON 12/24 AND 12/31, THIS BOX MAY BE COLLECTED AS EARLY AS 12 NOON.", "ref": "9705800016"}, "type": "Feature"}
{"geometry": {"coordinates": [-121.181239, 45.59386], "type": "Point"}, "id": "PislfWqR5N0JgI-WAyAwjelowYY=", "properties": {"@spider": "usps_collection_boxes", "addr:city": "THE DALLES", "addr:country": "US", "addr:full": "1113 KELLY AVE", "addr:postcode": "97058", "addr:state": "OR", "brand": "USPS", "collection_times": "Mo-Sa 16:30", "name": "USPS COLLECTION BOX - BLUE BOX", "note": "ON 12/24 AND 12/31, THIS BOX MAY BE COLLECTED AS EARLY AS 12 NOON.", "ref": "9705800017"}, "type": "Feature"}
{"geometry": {"coordinates": [-121.166641, 45.593116], "type": "Point"}, "id": "TQJnaiFl3gJsWWRnD4DAFZL5GGk=", "properties": {"@spider": "usps_collection_boxes", "addr:city": "THE DALLES", "addr:country": "US", "addr:full": "1210 DRY HOLLOW RD", "addr:postcode": "97058", "addr:state": "OR", "brand": "USPS", "collection_times": "Mo-Sa 16:30", "name": "USPS COLLECTION BOX - BLUE BOX", "note": "ON 12/24 AND 12/31, THIS BOX MAY BE COLLECTED AS EARLY AS 12 NOON.", "ref": "9705800018"}, "type": "Feature"}
{"geometry": {"coordinates": [-121.180726, 45.600614], "type": "Point"}, "id": "obCEKrbZsLY_tgbG_3OtOedqYFc=", "properties": {"@spider": "usps_collection_boxes", "addr:city": "THE DALLES", "addr:country": "US", "addr:full": "400 E 2ND ST", "addr:postcode": "97058", "addr:state": "OR", "brand": "USPS", "collection_times": "Mo-Sa 17:30", "name": "USPS COLLECTION BOX - BLUE BOX", "note": "ON 12/24 AND 12/31, THIS BOX MAY BE COLLECTED AS EARLY AS 12 NOON.", "ref": "9705800021"}, "type": "Feature"}
{"geometry": {"coordinates": [-121.17725, 45.598674], "type": "Point"}, "id": "A37jzlG3r_m_zffRddH9FJ0IyHA=", "properties": {"@spider": "usps_collection_boxes", "addr:city": "THE DALLES", "addr:country": "US", "addr:full": "306 MADISON ST", "addr:postcode": "97058", "addr:state": "OR", "brand": "USPS", "collection_times": "Mo-Sa 17:15", "name": "USPS COLLECTION BOX - BLUE BOX", "note": "ON 12/24 AND 12/31, THIS BOX MAY BE COLLECTED AS EARLY AS 12 NOON.", "ref": "9705800022"}, "type": "Feature"}
{"geometry": {"coordinates": [-121.182187, 45.601365], "type": "Point"}, "id": "yfuv9CQ07mKLNp84tdoDIF1kcbw=", "properties": {"@spider": "usps_collection_boxes", "addr:city": "THE DALLES", "addr:country": "US", "addr:full": "220 E 2ND ST", "addr:postcode": "97058", "addr:state": "OR", "brand": "USPS", "collection_times": "Mo-Sa 17:30", "name": "USPS COLLECTION BOX - BLUE BOX", "note": "ON 12/24 AND 12/31, THIS BOX MAY BE COLLECTED AS EARLY AS 12 NOON.", "ref": "9705800023"}, "type": "Feature"}
{"geometry": {"coordinates": [-121.1808211177, 45.5998358151], "type": "Point"}, "id": "Lu2DIxaYRTUWh4jayMG9O8zoWrg=", "properties": {"@spider": "usps_collection_boxes", "addr:city": "THE DALLES", "addr:country": "US", "addr:full": "400 E 3RD ST", "addr:postcode": "97058", "addr:state": "OR", "brand": "USPS", "collection_times": "Mo-Sa 17:15", "name": "USPS COLLECTION BOX - BLUE BOX", "note": "ON 12/24 AND 12/31, THIS BOX MAY BE COLLECTED AS EARLY AS 12 NOON.", "ref": "9705800024"}, "type": "Feature"}
{"geometry": {"coordinates": [-121.182712, 45.600632], "type": "Point"}, "id": "EST57dUI9J3tXMNV84n3wFkglGs=", "properties": {"@spider": "usps_collection_boxes", "addr:city": "THE DALLES", "addr:country": "US", "addr:full": "401 WASHINGTON ST", "addr:postcode": "97058", "addr:state": "OR", "brand": "USPS", "collection_times": "Mo-Sa 17:15", "name": "USPS COLLECTION BOX - BLUE BOX", "note": "ON 12/24 AND 12/31, THIS BOX MAY BE COLLECTED AS EARLY AS 12 NOON.", "ref": "9705800025"}, "type": "Feature"}
{"geometry": {"coordinates": [-121.184445, 45.600719], "type": "Point"}, "id": "Fit5p1eH3skq5pzS0F4RZkcptL8=", "properties": {"@spider": "usps_collection_boxes", "addr:city": "THE DALLES", "addr:country": "US", "addr:full": "115 E 4TH ST", "addr:postcode": "97058", "addr:state": "OR", "brand": "USPS", "collection_times": "Mo-Sa 17:15", "name": "USPS COLLECTION BOX - BLUE BOX", "note": "ON 12/24 AND 12/31, THIS BOX MAY BE COLLECTED AS EARLY AS 12 NOON.", "ref": "9705800026"}, "type": "Feature"}
{"geometry": {"coordinates": [-121.183864, 45.599521], "type": "Point"}, "id": "fk43pIgiaF-ckzVg_0nCwwH2JgI=", "properties": {"@spider": "usps_collection_boxes", "addr:city": "THE DALLES", "addr:country": "US", "addr:full": "219 E 5TH ST", "addr:postcode": "97058", "addr:state": "OR", "brand": "USPS", "collection_times": "Mo-Sa 17:15", "name": "USPS COLLECTION BOX - BLUE BOX", "note": "ON 12/24 AND 12/31, THIS BOX MAY BE COLLECTED AS EARLY AS 12 NOON.", "ref": "9705800027"}, "type": "Feature"}
{"geometry": {"coordinates": [-121.202064, 45.607008], "type": "Point"}, "id": "gPfc2sZJbRA6XFXSBUX-kd7vhGM=", "properties": {"@spider": "usps_collection_boxes", "addr:city": "THE DALLES", "addr:country": "US", "addr:full": "1320 W 6TH ST", "addr:postcode": "97058", "addr:state": "OR", "brand": "USPS", "collection_times": "Mo-Sa 17:00", "name": "USPS COLLECTION BOX - BLUE BOX", "note": "ON 12/24 AND 12/31, THIS BOX MAY BE COLLECTED AS EARLY AS 12 NOON.", "ref": "9705800033"}, "type": "Feature"}
{"geometry": {"coordinates": [-121.212361, 45.616451], "type": "Point"}, "id": "maQDq2beTru0CtX8UyHkxGX-nz4=", "properties": {"@spider": "usps_collection_boxes", "addr:city": "THE DALLES", "addr:country": "US", "addr:full": "2640 W 6TH ST", "addr:postcode": "97058", "addr:state": "OR", "brand": "USPS", "collection_times": "Mo-Sa 16:45", "name": "USPS COLLECTION BOX - BLUE BOX", "note": "ON 12/24 AND 12/31, THIS BOX MAY BE COLLECTED AS EARLY AS 12 NOON.", "ref": "9705800034"}, "type": "Feature"}
{"geometry": {"coordinates": [-121.186295, 45.603528], "type": "Point"}, "id": "LZK6p1iC3vb-YovqQ5arg-wUnKQ=", "properties": {"@spider": "usps_collection_boxes", "addr:city": "THE DALLES", "addr:country": "US", "addr:full": "101 W 2ND ST", "addr:postcode": "97058", "addr:state": "OR", "brand": "USPS", "collection_times": "Mo-Sa 17:45", "name": "USPS COLLECTION BOX - BLUE BOX", "note": "ON 12/24 AND 12/31, THIS BOX MAY BE COLLECTED AS EARLY AS 12 NOON.", "ref": "9705800035"}, "type": "Feature"}
{"geometry": {"coordinates": [-121.190362, 45.59122], "type": "Point"}, "id": "eR7CF0xIKRUqZIPZNLobpc1jq_8=", "properties": {"@spider": "usps_collection_boxes", "addr:city": "THE DALLES", "addr:country": "US", "addr:full": "400 E SCENIC DR", "addr:postcode": "97058", "addr:state": "OR", "brand": "USPS", "collection_times": "Mo-Fr 09:00", "name": "USPS COLLECTION BOX - BLUE BOX", "ref": "9705800036"}, "type": "Feature"}
{"geometry": {"coordinates": [-121.184392, 45.602768], "type": "Point"}, "id": "lqWZV4B9Uptv7RTXMmJPP1ilU24=", "properties": {"@spider": "usps_collection_boxes", "addr:city": "THE DALLES", "addr:country": "US", "addr:full": "101 W 2ND ST", "addr:postcode": "97058", "addr:state": "OR", "brand": "USPS", "collection_times": "Mo-Sa 17:45", "name": "USPS COLLECTION BOX - PO LOBBY", "note": "ON 12/24 AND 12/31, THIS BOX MAY BE COLLECTED AS EARLY AS 12 NOON.", "ref": "9705800037"}, "type": "Feature"}
{"geometry": {"coordinates": [-121.184567, 45.602959], "type": "Point"}, "id": "YgDh5g6qTEbam-MLZAjtHdLEsBk=", "properties": {"@spider": "usps_collection_boxes", "addr:city": "THE DALLES", "addr:country": "US", "addr:full": "101 W 2ND ST", "addr:postcode": "97058", "addr:state": "OR", "brand": "USPS", "collection_times": "Mo-Sa 17:45", "name": "USPS COLLECTION BOX - PO LOBBY", "note": "ON 12/24 AND 12/31, THIS BOX MAY BE COLLECTED AS EARLY AS 12 NOON.", "ref": "9705800038"}, "type": "Feature"}
{"geometry": {"coordinates": [-121.186114, 45.599682], "type": "Point"}, "id": "SqxHlD_RGwkHwScYanQFWSxjBh4=", "properties": {"@spider": "usps_collection_boxes", "addr:city": "THE DALLES", "addr:country": "US", "addr:full": "700 UNION ST", "addr:postcode": "97058", "addr:state": "OR", "brand": "USPS", "collection_times": "Mo-Sa 17:15", "name": "USPS COLLECTION BOX - BLUE BOX", "note": "ON 12/24 AND 12/31, THIS BOX MAY BE COLLECTED AS EARLY AS 12 NOON.", "ref": "9705800039"}, "type": "Feature"}
{"geometry": {"coordinates": [-121.1808211177, 45.5998358151], "type": "Point"}, "id": "O-slE4prAbQ6rhjTVuAtgeP-BYY=", "properties": {"@spider": "usps_collection_boxes", "addr:city": "THE DALLES", "addr:country": "US", "addr:full": "400 E 3RD ST", "addr:postcode": "97058", "addr:state": "OR", "brand": "USPS", "collection_times": "Mo-Sa 17:15", "name": "USPS COLLECTION BOX - BLUE BOX", "note": "ON 12/24 AND 12/31, THIS BOX MAY BE COLLECTED AS EARLY AS 12 NOON.", "ref": "9705800040"}, "type": "Feature"}
{"geometry": {"coordinates": [-121.184181, 45.601503], "type": "Point"}, "id": "CuBf1j3YYZjoa6OdRdYWvbk2E2Q=", "properties": {"@spider": "usps_collection_boxes", "addr:city": "THE DALLES", "addr:country": "US", "addr:full": "100 E 3RD ST", "addr:postcode": "97058", "addr:state": "OR", "brand": "USPS", "collection_times": "Mo-Sa 17:15", "name": "USPS COLLECTION BOX - BLUE BOX", "note": "ON 12/24 AND 12/31, THIS BOX MAY BE COLLECTED AS EARLY AS 12 NOON.", "ref": "9705800041"}, "type": "Feature"}
{"geometry": {"coordinates": [-121.184184, 45.601528], "type": "Point"}, "id": "Bms7m2SoiWSGZZ7E2rGvv-GzByg=", "properties": {"@spider": "usps_collection_boxes", "addr:city": "THE DALLES", "addr:country": "US", "addr:full": "100 E 3RD ST", "addr:postcode": "97058", "addr:state": "OR", "brand": "USPS", "collection_times": "Mo-Sa 17:15", "name": "USPS COLLECTION BOX - BLUE BOX", "note": "ON 12/24 AND 12/31, THIS BOX MAY BE COLLECTED AS EARLY AS 12 NOON.", "ref": "9705800042"}, "type": "Feature"}
{"geometry": {"coordinates": [-121.20043, 45.612235], "type": "Point"}, "id": "YRklnegveYB0FurnZZrMDt0nBo0=", "properties": {"@spider": "usps_collection_boxes", "addr:city": "THE DALLES", "addr:country": "US", "addr:full": "211 WEBBER ST", "addr:postcode": "97058", "addr:state": "OR", "brand": "USPS", "collection_times": "Mo-Sa 16:30", "name": "USPS COLLECTION BOX - BLUE BOX", "note": "ON 12/24 AND 12/31, THIS BOX MAY BE COLLECTED AS EARLY AS 12 NOON.", "ref": "9705800043"}, "type": "Feature"}
{"geometry": {"coordinates": [-121.184588259, 45.602601097], "type": "Point"}, "id": "UGbo_FfC4D8wMJWWLwgWaiCQZZQ=", "properties": {"@spider": "usps_collection_boxes", "addr:city": "THE DALLES", "addr:country": "US", "addr:full": "101 W 2ND ST", "addr:postcode": "97058", "addr:state": "OR", "brand": "USPS", "collection_times": "Mo-Fr 17:00", "name": "USPS COLLECTION BOX - PO LOBBY", "note": "ON 12/24 AND 12/31, THIS BOX MAY BE COLLECTED AS EARLY AS 12 NOON.", "ref": "9705800045"}, "type": "Feature"}
{"geometry": {"coordinates": [-121.172124, 45.24689], "type": "Point"}, "id": "fQA5l1IUCECgVxVN8-DOrPm_7v8=", "properties": {"@spider": "usps_collection_boxes", "addr:city": "TYGH VALLEY", "addr:country": "US", "addr:full": "57686 TYGH VALLEY RD", "addr:postcode": "97063", "addr:state": "OR", "brand": "USPS", "collection_times": "Mo-Fr 14:45; Sa 13:30", "name": "USPS COLLECTION BOX - PO LOBBY", "note": "ON 12/24 AND 12/31, THIS BOX MAY BE COLLECTED AS EARLY AS 12 NOON.", "ref": "9706300001"}, "type": "Feature"}
{"geometry": {"coordinates": [-121.172081, 45.246938], "type": "Point"}, "id": "e9L7CRbFMMbyZmpkwa-fmshx-jE=", "properties": {"@spider": "usps_collection_boxes", "addr:city": "TYGH VALLEY", "addr:country": "US", "addr:full": "57686 TYGH VALLEY RD", "addr:postcode": "97063", "addr:state": "OR", "brand": "USPS", "collection_times": "Mo-Fr 16:30; Sa 13:30", "name": "USPS COLLECTION BOX - BLUE BOX", "note": "ON 12/24 AND 12/31, THIS BOX MAY BE COLLECTED AS EARLY AS 12 NOON.", "ref": "9706300004"}, "type": "Feature"}
{"geometry": {"coordinates": [-121.26945, 45.228], "type": "Point"}, "id": "pBMrA37or-ZOf1ekr_gaFWIFUrY=", "properties": {"@spider": "usps_collection_boxes", "addr:city": "TYGH VALLEY", "addr:country": "US", "addr:full": "57016 WAMIC MARKET RD", "addr:postcode": "97063", "addr:state": "OR", "brand": "USPS", "collection_times": "Mo-Sa 11:00", "name": "USPS COLLECTION BOX - BLUE BOX", "ref": "9706300005"}, "type": "Feature"}
{"geometry": {"coordinates": [-121.17184814, 45.246928138], "type": "Point"}, "id": "Tz5uAYoqHwy-3m-wEnnhYg3-aMs=", "properties": {"@spider": "usps_collection_boxes", "addr:city": "TYGH VALLEY", "addr:country": "US", "addr:full": "57686 TYGH VALLEY RD", "addr:postcode": "97063", "addr:state": "OR", "brand": "USPS", "collection_times": "Mo-Fr 15:00", "name": "USPS COLLECTION BOX - PO LOBBY", "note": "ON 12/24 AND 12/31, THIS BOX MAY BE COLLECTED AS EARLY AS 12 NOON.", "ref": "9706300006"}, "type": "Feature"}
{"geometry": {"coordinates": [-123.193434, 45.857847], "type": "Point"}, "id": "3dufobQREL0CP4_V6zVc1SSxCdM=", "properties": {"@spider": "usps_collection_boxes", "addr:city": "VERNONIA", "addr:country": "US", "addr:full": "750 MAPLE ST", "addr:postcode": "97064", "addr:state": "OR", "brand": "USPS", "collection_times": "Mo-Fr 17:00; Sa 15:45", "name": "USPS COLLECTION BOX - BLUE BOX", "note": "ON 12/24 AND 12/31, THIS BOX MAY BE COLLECTED AS EARLY AS 12 NOON.", "ref": "9706400001"}, "type": "Feature"}
{"geometry": {"coordinates": [-123.19398, 45.858111], "type": "Point"}, "id": "GEr9l1cebFpaqpeZXWvJOUIPsl0=", "properties": {"@spider": "usps_collection_boxes", "addr:city": "VERNONIA", "addr:country": "US", "addr:full": "716 JEFFERSON AVE", "addr:postcode": "97064", "addr:state": "OR", "brand": "USPS", "collection_times": "Mo-Fr 17:00; Sa 15:45", "name": "USPS COLLECTION BOX - PO LOBBY", "note": "ON 12/24 AND 12/31, THIS BOX MAY BE COLLECTED AS EARLY AS 12 NOON.", "ref": "9706400003"}, "type": "Feature"}
{"geometry": {"coordinates": [-123.19398455, 45.858105838], "type": "Point"}, "id": "KC4swAmmqHjs2m81wqRDmygBv7s=", "properties": {"@spider": "usps_collection_boxes", "addr:city": "VERNONIA", "addr:country": "US", "addr:full": "716 JEFFERSON AVE", "addr:postcode": "97064", "addr:state": "OR", "brand": "USPS", "collection_times": "Mo-Fr 17:00; Sa 12:00", "name": "USPS COLLECTION BOX - PO LOBBY", "note": "ON 12/24 AND 12/31, THIS BOX MAY BE COLLECTED AS EARLY AS 12 NOON.", "ref": "9706400004"}, "type": "Feature"}
{"geometry": {"coordinates": [-120.697819, 45.59118], "type": "Point"}, "id": "XowcHy7JTpEy3cC3FRY1gico2yk=", "properties": {"@spider": "usps_collection_boxes", "addr:city": "WASCO", "addr:country": "US", "addr:full": "1024 CLARK ST", "addr:postcode": "97065", "addr:state": "OR", "brand": "USPS", "collection_times": "Mo-Fr 15:30; Sa 09:45", "name": "USPS COLLECTION BOX - BLUE BOX", "note": "ON 12/24 AND 12/31, THIS BOX MAY BE COLLECTED AS EARLY AS 12 NOON.", "ref": "9706500001"}, "type": "Feature"}
{"geometry": {"coordinates": [-120.697819, 45.59118], "type": "Point"}, "id": "eF6mgeCG2xzgNjKMVL2KDBdFYh0=", "properties": {"@spider": "usps_collection_boxes", "addr:city": "WASCO", "addr:country": "US", "addr:full": "1024 CLARK ST", "addr:postcode": "97065", "addr:state": "OR", "brand": "USPS", "collection_times": "Mo-Fr 15:30; Sa 09:45", "name": "USPS COLLECTION BOX - PO LOBBY", "note": "ON 12/24 AND 12/31, THIS BOX MAY BE COLLECTED AS EARLY AS 12 NOON.", "ref": "9706500002"}, "type": "Feature"}
{"geometry": {"coordinates": [-120.697821757, 45.591174922], "type": "Point"}, "id": "mLfptF9UHwpRn-RljMExoE38vd4=", "properties": {"@spider": "usps_collection_boxes", "addr:city": "WASCO", "addr:country": "US", "addr:full": "1024 CLARK ST", "addr:postcode": "97065", "addr:state": "OR", "brand": "USPS", "collection_times": "Mo-Fr 15:30", "name": "USPS COLLECTION BOX - PO LOBBY", "note": "ON 12/24 AND 12/31, THIS BOX MAY BE COLLECTED AS EARLY AS 12 NOON.", "ref": "9706500003"}, "type": "Feature"}
{"geometry": {"coordinates": [-121.963359, 45.346729], "type": "Point"}, "id": "5GAEfasMIxkWpnPOPmpe3L8bRRE=", "properties": {"@spider": "usps_collection_boxes", "addr:city": "WELCHES", "addr:country": "US", "addr:full": "24407 E WELCHES RD", "addr:postcode": "97067", "addr:state": "OR", "brand": "USPS", "collection_times": "Mo-Fr 16:30; Sa 10:45", "name": "USPS COLLECTION BOX - BLUE BOX", "note": "ON 12/24 AND 12/31, THIS BOX MAY BE COLLECTED AS EARLY AS 12 NOON.", "ref": "9706700001"}, "type": "Feature"}
{"geometry": {"coordinates": [-121.963359, 45.346729], "type": "Point"}, "id": "ueHH6oZLUYgjmWofCjKrdhsQp_Y=", "properties": {"@spider": "usps_collection_boxes", "addr:city": "WELCHES", "addr:country": "US", "addr:full": "24407 E WELCHES RD", "addr:postcode": "97067", "addr:state": "OR", "brand": "USPS", "collection_times": "Mo-Fr 16:30; Sa 10:45", "name": "USPS COLLECTION BOX - PO LOBBY", "note": "ON 12/24 AND 12/31, THIS BOX MAY BE COLLECTED AS EARLY AS 12 NOON.", "ref": "9706700002"}, "type": "Feature"}
{"geometry": {"coordinates": [-121.963362105, 45.346725974], "type": "Point"}, "id": "86dvxa-50kWQcIrQmn7hUVAYWUI=", "properties": {"@spider": "usps_collection_boxes", "addr:city": "WELCHES", "addr:country": "US", "addr:full": "24407 E WELCHES RD", "addr:postcode": "97067", "addr:state": "OR", "brand": "USPS", "collection_times": "Mo-Fr 16:30", "name": "USPS COLLECTION BOX - PO LOBBY", "note": "ON 12/24 AND 12/31, THIS BOX MAY BE COLLECTED AS EARLY AS 12 NOON.", "ref": "9706700003"}, "type": "Feature"}
